{"geometry": {"coordinates": [-80.36532, 41.890890532], "type": "Point"}, "id": "zQj3Q_skCUkluX1D_wj1RYH-dco=", "properties": {"@source_uri": "https://tools.usps.com/UspsToolsRestServices/rest/POLocator/findLocations", "@spider": "usps_collection_boxes", "addr:city": "ALBION", "addr:country": "US", "addr:postcode": "16401", "addr:state": "PA", "addr:street_address": "35 E STATE ST", "amenity": "post_box", "collection_times": "Mo-Fr 16:30; Sa 12:15", "note": "ON 12/24 AND 12/31, THIS BOX MAY BE COLLECTED AS EARLY AS 12 NOON.", "nsi_id": "unitedstatespostalservice-a77078", "operator": "United States Postal Service", "operator:short": "USPS", "operator:type": "public", "operator:wikidata": "Q668687", "ref": "1640100001"}, "type": "Feature"}
{"geometry": {"coordinates": [-80.35987, 41.89218], "type": "Point"}, "id": "HmeNOPHgkhRHHqdVcAbMoSa9hhc=", "properties": {"@source_uri": "https://tools.usps.com/UspsToolsRestServices/rest/POLocator/findLocations", "@spider": "usps_collection_boxes", "addr:city": "ALBION", "addr:country": "US", "addr:postcode": "16401", "addr:state": "PA", "addr:street_address": "35 E STATE ST", "amenity": "post_box", "collection_times": "Mo-Fr 16:30; Sa 12:15", "note": "ON 12/24 AND 12/31, THIS BOX MAY BE COLLECTED AS EARLY AS 12 NOON.", "nsi_id": "unitedstatespostalservice-a77078", "operator": "United States Postal Service", "operator:short": "USPS", "operator:type": "public", "operator:wikidata": "Q668687", "ref": "1640100002"}, "type": "Feature"}
{"geometry": {"coordinates": [-80.36532, 41.890890532], "type": "Point"}, "id": "gXs-IKbyFLxk2a4q_UAezYHiNbQ=", "properties": {"@source_uri": "https://tools.usps.com/UspsToolsRestServices/rest/POLocator/findLocations", "@spider": "usps_collection_boxes", "addr:city": "ALBION", "addr:country": "US", "addr:postcode": "16401", "addr:state": "PA", "addr:street_address": "35 E STATE ST", "amenity": "post_box", "collection_times": "Mo-Fr 16:30; Sa 12:15", "indoor": "yes", "note": "ON 12/24 AND 12/31, THIS BOX MAY BE COLLECTED AS EARLY AS 12 NOON.", "nsi_id": "unitedstatespostalservice-a77078", "operator": "United States Postal Service", "operator:short": "USPS", "operator:type": "public", "operator:wikidata": "Q668687", "ref": "1640100010"}, "type": "Feature"}
{"geometry": {"coordinates": [-80.36532, 41.890890532], "type": "Point"}, "id": "g6EpZMPCkKzEfHWCo35ooQul7fQ=", "properties": {"@source_uri": "https://tools.usps.com/UspsToolsRestServices/rest/POLocator/findLocations", "@spider": "usps_collection_boxes", "addr:city": "ALBION", "addr:country": "US", "addr:postcode": "16401", "addr:state": "PA", "addr:street_address": "35 E STATE ST", "amenity": "post_box", "collection_times": "Mo-Fr 17:00; Sa 12:00", "indoor": "yes", "note": "ON 12/24 AND 12/31, THIS BOX MAY BE COLLECTED AS EARLY AS 12 NOON.", "nsi_id": "unitedstatespostalservice-a77078", "operator": "United States Postal Service", "operator:short": "USPS", "operator:type": "public", "operator:wikidata": "Q668687", "ref": "1640100012"}, "type": "Feature"}
{"geometry": {"coordinates": [-80.06054238, 41.802832538], "type": "Point"}, "id": "ImaK_aYjrmKQicoSPX43dHzuFy8=", "properties": {"@source_uri": "https://tools.usps.com/UspsToolsRestServices/rest/POLocator/findLocations", "@spider": "usps_collection_boxes", "addr:city": "CAMBRIDG SPGS", "addr:country": "US", "addr:postcode": "16403", "addr:state": "PA", "addr:street_address": "332 VENANGO AVE", "amenity": "post_box", "collection_times": "Mo-Fr 17:00; Sa 15:15", "note": "ON 12/24 AND 12/31, THIS BOX MAY BE COLLECTED AS EARLY AS 12 NOON.", "nsi_id": "unitedstatespostalservice-a77078", "operator": "United States Postal Service", "operator:short": "USPS", "operator:type": "public", "operator:wikidata": "Q668687", "ref": "1640300002"}, "type": "Feature"}
{"geometry": {"coordinates": [-80.0584804, 41.807461], "type": "Point"}, "id": "q4AkVQiGZjsoe9j_kBXMBXWdsbQ=", "properties": {"@source_uri": "https://tools.usps.com/UspsToolsRestServices/rest/POLocator/findLocations", "@spider": "usps_collection_boxes", "addr:city": "CAMBRIDG SPGS", "addr:country": "US", "addr:postcode": "16403", "addr:state": "PA", "addr:street_address": "303 MCCLELLAN ST", "amenity": "post_box", "collection_times": "Mo-Sa 10:15", "nsi_id": "unitedstatespostalservice-a77078", "operator": "United States Postal Service", "operator:short": "USPS", "operator:type": "public", "operator:wikidata": "Q668687", "ref": "1640300003"}, "type": "Feature"}
{"geometry": {"coordinates": [-80.0553629, 41.80578], "type": "Point"}, "id": "nDSdcX9Msqo-sFlUTTC0RJS32L8=", "properties": {"@source_uri": "https://tools.usps.com/UspsToolsRestServices/rest/POLocator/findLocations", "@spider": "usps_collection_boxes", "addr:city": "CAMBRIDG SPGS", "addr:country": "US", "addr:postcode": "16403", "addr:state": "PA", "addr:street_address": "146 N MAIN ST", "amenity": "post_box", "collection_times": "Mo-Sa 09:30", "nsi_id": "unitedstatespostalservice-a77078", "operator": "United States Postal Service", "operator:short": "USPS", "operator:type": "public", "operator:wikidata": "Q668687", "ref": "1640300004"}, "type": "Feature"}
{"geometry": {"coordinates": [-80.0570858, 41.80416], "type": "Point"}, "id": "lbNdpd1vIghVV1BL7vQCd2XX7Z4=", "properties": {"@source_uri": "https://tools.usps.com/UspsToolsRestServices/rest/POLocator/findLocations", "@spider": "usps_collection_boxes", "addr:city": "CAMBRIDG SPGS", "addr:country": "US", "addr:postcode": "16403", "addr:state": "PA", "addr:street_address": "154 VENANGO AVE", "amenity": "post_box", "collection_times": "Mo-Sa 10:00", "nsi_id": "unitedstatespostalservice-a77078", "operator": "United States Postal Service", "operator:short": "USPS", "operator:type": "public", "operator:wikidata": "Q668687", "ref": "1640300005"}, "type": "Feature"}
{"geometry": {"coordinates": [-80.0580566, 41.802993], "type": "Point"}, "id": "XC0QlspJpKLrm_SNzgmn-m6zElU=", "properties": {"@source_uri": "https://tools.usps.com/UspsToolsRestServices/rest/POLocator/findLocations", "@spider": "usps_collection_boxes", "addr:city": "CAMBRIDG SPGS", "addr:country": "US", "addr:postcode": "16403", "addr:state": "PA", "addr:street_address": "264 S MAIN ST", "amenity": "post_box", "collection_times": "Mo-Sa 10:00", "nsi_id": "unitedstatespostalservice-a77078", "operator": "United States Postal Service", "operator:short": "USPS", "operator:type": "public", "operator:wikidata": "Q668687", "ref": "1640300006"}, "type": "Feature"}
{"geometry": {"coordinates": [-80.0650889, 41.801034], "type": "Point"}, "id": "wH5Kx8C5P--nkycHREiLMiXsnHk=", "properties": {"@source_uri": "https://tools.usps.com/UspsToolsRestServices/rest/POLocator/findLocations", "@spider": "usps_collection_boxes", "addr:city": "CAMBRIDG SPGS", "addr:country": "US", "addr:postcode": "16403", "addr:state": "PA", "addr:street_address": "608 VENANGO AVE", "amenity": "post_box", "collection_times": "Mo-Sa 12:00", "nsi_id": "unitedstatespostalservice-a77078", "operator": "United States Postal Service", "operator:short": "USPS", "operator:type": "public", "operator:wikidata": "Q668687", "ref": "1640300008"}, "type": "Feature"}
{"geometry": {"coordinates": [-80.0598574, 41.801333], "type": "Point"}, "id": "Os_EAcvvuA45-jmPp5vVV7eCiKQ=", "properties": {"@source_uri": "https://tools.usps.com/UspsToolsRestServices/rest/POLocator/findLocations", "@spider": "usps_collection_boxes", "addr:city": "CAMBRIDG SPGS", "addr:country": "US", "addr:postcode": "16403", "addr:state": "PA", "addr:street_address": "401 S MAIN ST", "amenity": "post_box", "collection_times": "Mo-Sa 13:30", "note": "ON 12/24 AND 12/31, THIS BOX MAY BE COLLECTED AS EARLY AS 12 NOON.", "nsi_id": "unitedstatespostalservice-a77078", "operator": "United States Postal Service", "operator:short": "USPS", "operator:type": "public", "operator:wikidata": "Q668687", "ref": "1640300009"}, "type": "Feature"}
{"geometry": {"coordinates": [-80.055909, 41.801503], "type": "Point"}, "id": "XMS5-vExmbju6Ni7oVVIjfLSdAw=", "properties": {"@source_uri": "https://tools.usps.com/UspsToolsRestServices/rest/POLocator/findLocations", "@spider": "usps_collection_boxes", "addr:city": "CAMBRIDG SPGS", "addr:country": "US", "addr:postcode": "16403", "addr:state": "PA", "addr:street_address": "347 SPRING ST", "amenity": "post_box", "collection_times": "Mo-Sa 09:00", "nsi_id": "unitedstatespostalservice-a77078", "operator": "United States Postal Service", "operator:short": "USPS", "operator:type": "public", "operator:wikidata": "Q668687", "ref": "1640300010"}, "type": "Feature"}
{"geometry": {"coordinates": [-80.06054238, 41.802832538], "type": "Point"}, "id": "LDOe_q9uCad7wZNMPSozcnYjN1k=", "properties": {"@source_uri": "https://tools.usps.com/UspsToolsRestServices/rest/POLocator/findLocations", "@spider": "usps_collection_boxes", "addr:city": "CAMBRIDG SPGS", "addr:country": "US", "addr:postcode": "16403", "addr:state": "PA", "addr:street_address": "332 VENANGO AVE", "amenity": "post_box", "collection_times": "Mo-Fr 17:00; Sa 15:15", "indoor": "yes", "note": "ON 12/24 AND 12/31, THIS BOX MAY BE COLLECTED AS EARLY AS 12 NOON.", "nsi_id": "unitedstatespostalservice-a77078", "operator": "United States Postal Service", "operator:short": "USPS", "operator:type": "public", "operator:wikidata": "Q668687", "ref": "1640300013"}, "type": "Feature"}
{"geometry": {"coordinates": [-80.06054238, 41.802832538], "type": "Point"}, "id": "Kem0zFuoI4KxjKP2l2K96Q1ksco=", "properties": {"@source_uri": "https://tools.usps.com/UspsToolsRestServices/rest/POLocator/findLocations", "@spider": "usps_collection_boxes", "addr:city": "CAMBRIDG SPGS", "addr:country": "US", "addr:postcode": "16403", "addr:state": "PA", "addr:street_address": "332 VENANGO AVE", "amenity": "post_box", "collection_times": "Mo-Fr 17:00; Sa 12:00", "indoor": "yes", "note": "ON 12/24 AND 12/31, THIS BOX MAY BE COLLECTED AS EARLY AS 12 NOON.", "nsi_id": "unitedstatespostalservice-a77078", "operator": "United States Postal Service", "operator:short": "USPS", "operator:type": "public", "operator:wikidata": "Q668687", "ref": "1640300015"}, "type": "Feature"}
{"geometry": {"coordinates": [-79.763401477, 41.736475292], "type": "Point"}, "id": "58XB1yYNlqvu8z9PTQZpvgSI_SM=", "properties": {"@source_uri": "https://tools.usps.com/UspsToolsRestServices/rest/POLocator/findLocations", "@spider": "usps_collection_boxes", "addr:city": "CENTERVILLE", "addr:country": "US", "addr:postcode": "16404", "addr:state": "PA", "addr:street_address": "18599 ERIE ST", "amenity": "post_box", "collection_times": "Mo-Fr 15:00; Sa 11:45", "note": "ON 12/24 AND 12/31, THIS BOX MAY BE COLLECTED AS EARLY AS 12 NOON.", "nsi_id": "unitedstatespostalservice-a77078", "operator": "United States Postal Service", "operator:short": "USPS", "operator:type": "public", "operator:wikidata": "Q668687", "ref": "1640400001"}, "type": "Feature"}
{"geometry": {"coordinates": [-79.763401477, 41.736475292], "type": "Point"}, "id": "bRv7mmXZQ6srI7da_S8Z8F07WBM=", "properties": {"@source_uri": "https://tools.usps.com/UspsToolsRestServices/rest/POLocator/findLocations", "@spider": "usps_collection_boxes", "addr:city": "CENTERVILLE", "addr:country": "US", "addr:postcode": "16404", "addr:state": "PA", "addr:street_address": "18599 ERIE ST", "amenity": "post_box", "collection_times": "Mo-Fr 15:00; Sa 11:45", "indoor": "yes", "note": "ON 12/24 AND 12/31, THIS BOX MAY BE COLLECTED AS EARLY AS 12 NOON.", "nsi_id": "unitedstatespostalservice-a77078", "operator": "United States Postal Service", "operator:short": "USPS", "operator:type": "public", "operator:wikidata": "Q668687", "ref": "1640400002"}, "type": "Feature"}
{"geometry": {"coordinates": [-79.763401477, 41.736475292], "type": "Point"}, "id": "oKSof_84bJDw6SxeEzmLA3akchQ=", "properties": {"@source_uri": "https://tools.usps.com/UspsToolsRestServices/rest/POLocator/findLocations", "@spider": "usps_collection_boxes", "addr:city": "CENTERVILLE", "addr:country": "US", "addr:postcode": "16404", "addr:state": "PA", "addr:street_address": "18599 ERIE ST", "amenity": "post_box", "collection_times": "Mo-Fr 15:00; Sa 12:00", "indoor": "yes", "note": "ON 12/24 AND 12/31, THIS BOX MAY BE COLLECTED AS EARLY AS 12 NOON.", "nsi_id": "unitedstatespostalservice-a77078", "operator": "United States Postal Service", "operator:short": "USPS", "operator:type": "public", "operator:wikidata": "Q668687", "ref": "1640400005"}, "type": "Feature"}
{"geometry": {"coordinates": [-79.580769382, 41.940750724], "type": "Point"}, "id": "xg04L4TMrgIWxam5U0f3Vy7eiVE=", "properties": {"@source_uri": "https://tools.usps.com/UspsToolsRestServices/rest/POLocator/findLocations", "@spider": "usps_collection_boxes", "addr:city": "COLUMBUS", "addr:country": "US", "addr:postcode": "16405", "addr:state": "PA", "addr:street_address": "2 E MAIN ST", "amenity": "post_box", "collection_times": "Mo-Fr 14:45; Sa 11:45", "note": "ON 12/24 AND 12/31, THIS BOX MAY BE COLLECTED AS EARLY AS 12 NOON.", "nsi_id": "unitedstatespostalservice-a77078", "operator": "United States Postal Service", "operator:short": "USPS", "operator:type": "public", "operator:wikidata": "Q668687", "ref": "1640500001"}, "type": "Feature"}
{"geometry": {"coordinates": [-79.580769382, 41.940750724], "type": "Point"}, "id": "KbQl30ARadcL6iAnfcQ3qtG7ffk=", "properties": {"@source_uri": "https://tools.usps.com/UspsToolsRestServices/rest/POLocator/findLocations", "@spider": "usps_collection_boxes", "addr:city": "COLUMBUS", "addr:country": "US", "addr:postcode": "16405", "addr:state": "PA", "addr:street_address": "2 E MAIN ST", "amenity": "post_box", "collection_times": "Mo-Fr 14:45; Sa 11:45", "indoor": "yes", "note": "ON 12/24 AND 12/31, THIS BOX MAY BE COLLECTED AS EARLY AS 12 NOON.", "nsi_id": "unitedstatespostalservice-a77078", "operator": "United States Postal Service", "operator:short": "USPS", "operator:type": "public", "operator:wikidata": "Q668687", "ref": "1640500003"}, "type": "Feature"}
{"geometry": {"coordinates": [-79.580769382, 41.940750724], "type": "Point"}, "id": "afC5aRYDO1vhZZV4Nce_Tk6O-F4=", "properties": {"@source_uri": "https://tools.usps.com/UspsToolsRestServices/rest/POLocator/findLocations", "@spider": "usps_collection_boxes", "addr:city": "COLUMBUS", "addr:country": "US", "addr:postcode": "16405", "addr:state": "PA", "addr:street_address": "2 E MAIN ST", "amenity": "post_box", "collection_times": "Mo-Fr 14:45; Sa 12:00", "indoor": "yes", "note": "ON 12/24 AND 12/31, THIS BOX MAY BE COLLECTED AS EARLY AS 12 NOON.", "nsi_id": "unitedstatespostalservice-a77078", "operator": "United States Postal Service", "operator:short": "USPS", "operator:type": "public", "operator:wikidata": "Q668687", "ref": "1640500005"}, "type": "Feature"}
{"geometry": {"coordinates": [-80.370419064, 41.759180408], "type": "Point"}, "id": "_CZltMpuLR_jvs1D_ddcxCG7Cno=", "properties": {"@source_uri": "https://tools.usps.com/UspsToolsRestServices/rest/POLocator/findLocations", "@spider": "usps_collection_boxes", "addr:city": "CONNEAUTVILLE", "addr:country": "US", "addr:postcode": "16406", "addr:state": "PA", "addr:street_address": "809 MAIN ST", "amenity": "post_box", "collection_times": "Mo-Fr 16:30; Sa 12:15", "note": "ON 12/24 AND 12/31, THIS BOX MAY BE COLLECTED AS EARLY AS 12 NOON.", "nsi_id": "unitedstatespostalservice-a77078", "operator": "United States Postal Service", "operator:short": "USPS", "operator:type": "public", "operator:wikidata": "Q668687", "ref": "1640600001"}, "type": "Feature"}
{"geometry": {"coordinates": [-80.370419064, 41.759180408], "type": "Point"}, "id": "T01_MPc5IjTVgf3KszW09yFBLfk=", "properties": {"@source_uri": "https://tools.usps.com/UspsToolsRestServices/rest/POLocator/findLocations", "@spider": "usps_collection_boxes", "addr:city": "CONNEAUTVILLE", "addr:country": "US", "addr:postcode": "16406", "addr:state": "PA", "addr:street_address": "809 MAIN ST", "amenity": "post_box", "collection_times": "Mo-Fr 16:45; Sa 12:15", "indoor": "yes", "note": "ON 12/24 AND 12/31, THIS BOX MAY BE COLLECTED AS EARLY AS 12 NOON.", "nsi_id": "unitedstatespostalservice-a77078", "operator": "United States Postal Service", "operator:short": "USPS", "operator:type": "public", "operator:wikidata": "Q668687", "ref": "1640600002"}, "type": "Feature"}
{"geometry": {"coordinates": [-80.370419064, 41.759180408], "type": "Point"}, "id": "Q793nvHCMrXDmHbDu8fvPK6Tfqc=", "properties": {"@source_uri": "https://tools.usps.com/UspsToolsRestServices/rest/POLocator/findLocations", "@spider": "usps_collection_boxes", "addr:city": "CONNEAUTVILLE", "addr:country": "US", "addr:postcode": "16406", "addr:state": "PA", "addr:street_address": "809 MAIN ST", "amenity": "post_box", "collection_times": "Mo-Fr 17:00; Sa 12:00", "indoor": "yes", "note": "ON 12/24 AND 12/31, THIS BOX MAY BE COLLECTED AS EARLY AS 12 NOON.", "nsi_id": "unitedstatespostalservice-a77078", "operator": "United States Postal Service", "operator:short": "USPS", "operator:type": "public", "operator:wikidata": "Q668687", "ref": "1640600005"}, "type": "Feature"}
{"geometry": {"coordinates": [-79.6535625, 41.934318], "type": "Point"}, "id": "V9v3l5jpzTwGrAa3-zeqtmUKXe8=", "properties": {"@source_uri": "https://tools.usps.com/UspsToolsRestServices/rest/POLocator/findLocations", "@spider": "usps_collection_boxes", "addr:city": "CORRY", "addr:country": "US", "addr:postcode": "16407", "addr:state": "PA", "addr:street_address": "300 W COLUMBUS AVE", "amenity": "post_box", "collection_times": "Mo-Sa 12:30", "note": "ON 12/24 AND 12/31, THIS BOX MAY BE COLLECTED AS EARLY AS 12 NOON.", "nsi_id": "unitedstatespostalservice-a77078", "operator": "United States Postal Service", "operator:short": "USPS", "operator:type": "public", "operator:wikidata": "Q668687", "ref": "1640700006"}, "type": "Feature"}
{"geometry": {"coordinates": [-79.6411744, 41.930013], "type": "Point"}, "id": "ZUgzoXwqFgBEUrhlhISzKYcAImg=", "properties": {"@source_uri": "https://tools.usps.com/UspsToolsRestServices/rest/POLocator/findLocations", "@spider": "usps_collection_boxes", "addr:city": "CORRY", "addr:country": "US", "addr:postcode": "16407", "addr:state": "PA", "addr:street_address": "826 N CENTER ST", "amenity": "post_box", "collection_times": "Mo-Sa 13:30", "note": "ON 12/24 AND 12/31, THIS BOX MAY BE COLLECTED AS EARLY AS 12 NOON.", "nsi_id": "unitedstatespostalservice-a77078", "operator": "United States Postal Service", "operator:short": "USPS", "operator:type": "public", "operator:wikidata": "Q668687", "ref": "1640700009"}, "type": "Feature"}
{"geometry": {"coordinates": [-79.6415849, 41.926063], "type": "Point"}, "id": "Kkym77mPGqsGAdRiv6Fj6aR-Cnk=", "properties": {"@source_uri": "https://tools.usps.com/UspsToolsRestServices/rest/POLocator/findLocations", "@spider": "usps_collection_boxes", "addr:city": "CORRY", "addr:country": "US", "addr:postcode": "16407", "addr:state": "PA", "addr:street_address": "425 N CENTER ST", "amenity": "post_box", "collection_times": "Mo-Sa 14:00", "note": "ON 12/24 AND 12/31, THIS BOX MAY BE COLLECTED AS EARLY AS 12 NOON.", "nsi_id": "unitedstatespostalservice-a77078", "operator": "United States Postal Service", "operator:short": "USPS", "operator:type": "public", "operator:wikidata": "Q668687", "ref": "1640700010"}, "type": "Feature"}
{"geometry": {"coordinates": [-79.641518, 41.923841], "type": "Point"}, "id": "4no9RpmJsQAn9UIgWJQxgkXnV1U=", "properties": {"@source_uri": "https://tools.usps.com/UspsToolsRestServices/rest/POLocator/findLocations", "@spider": "usps_collection_boxes", "addr:city": "CORRY", "addr:country": "US", "addr:postcode": "16407", "addr:state": "PA", "addr:street_address": "203 N CENTER ST", "amenity": "post_box", "collection_times": "Mo-Fr 15:00; Sa 13:00", "note": "ON 12/24 AND 12/31, THIS BOX MAY BE COLLECTED AS EARLY AS 12 NOON.", "nsi_id": "unitedstatespostalservice-a77078", "operator": "United States Postal Service", "operator:short": "USPS", "operator:type": "public", "operator:wikidata": "Q668687", "ref": "1640700016"}, "type": "Feature"}
{"geometry": {"coordinates": [-79.640015913, 41.919439862], "type": "Point"}, "id": "N3lLLChPIvFWuxNXPdy3VNy3T1M=", "properties": {"@source_uri": "https://tools.usps.com/UspsToolsRestServices/rest/POLocator/findLocations", "@spider": "usps_collection_boxes", "addr:city": "CORRY", "addr:country": "US", "addr:postcode": "16407", "addr:state": "PA", "addr:street_address": "101 S CENTER ST", "amenity": "post_box", "collection_times": "Mo-Fr 17:00; Sa 15:30", "note": "ON 12/24 AND 12/31, THIS BOX MAY BE COLLECTED AS EARLY AS 12 NOON.", "nsi_id": "unitedstatespostalservice-a77078", "operator": "United States Postal Service", "operator:short": "USPS", "operator:type": "public", "operator:wikidata": "Q668687", "ref": "1640700020"}, "type": "Feature"}
{"geometry": {"coordinates": [-79.640015913, 41.919439862], "type": "Point"}, "id": "-BtNcBh254Jim9h-HtF0VN9fea4=", "properties": {"@source_uri": "https://tools.usps.com/UspsToolsRestServices/rest/POLocator/findLocations", "@spider": "usps_collection_boxes", "addr:city": "CORRY", "addr:country": "US", "addr:postcode": "16407", "addr:state": "PA", "addr:street_address": "101 S CENTER ST", "amenity": "post_box", "collection_times": "Mo-Fr 17:00; Sa 16:45", "indoor": "yes", "note": "ON 12/24 AND 12/31, THIS BOX MAY BE COLLECTED AS EARLY AS 12 NOON.", "nsi_id": "unitedstatespostalservice-a77078", "operator": "United States Postal Service", "operator:short": "USPS", "operator:type": "public", "operator:wikidata": "Q668687", "ref": "1640700024"}, "type": "Feature"}
{"geometry": {"coordinates": [-79.6118811, 41.933624], "type": "Point"}, "id": "my9bws2EafDmakADefvx6HS2VV8=", "properties": {"@source_uri": "https://tools.usps.com/UspsToolsRestServices/rest/POLocator/findLocations", "@spider": "usps_collection_boxes", "addr:city": "CORRY", "addr:country": "US", "addr:postcode": "16407", "addr:state": "PA", "addr:street_address": "961 E COLUMBUS AVE", "amenity": "post_box", "collection_times": "Mo-Sa 10:30", "nsi_id": "unitedstatespostalservice-a77078", "operator": "United States Postal Service", "operator:short": "USPS", "operator:type": "public", "operator:wikidata": "Q668687", "ref": "1640700026"}, "type": "Feature"}
{"geometry": {"coordinates": [-79.640015913, 41.919439862], "type": "Point"}, "id": "W33Ap2BUPV0JYojm-1L1e3PdMng=", "properties": {"@source_uri": "https://tools.usps.com/UspsToolsRestServices/rest/POLocator/findLocations", "@spider": "usps_collection_boxes", "addr:city": "CORRY", "addr:country": "US", "addr:postcode": "16407", "addr:state": "PA", "addr:street_address": "101 S CENTER ST", "amenity": "post_box", "collection_times": "Mo-Fr 17:00; Sa 12:00", "indoor": "yes", "note": "ON 12/24 AND 12/31, THIS BOX MAY BE COLLECTED AS EARLY AS 12 NOON.", "nsi_id": "unitedstatespostalservice-a77078", "operator": "United States Postal Service", "operator:short": "USPS", "operator:type": "public", "operator:wikidata": "Q668687", "ref": "1640700029"}, "type": "Feature"}
{"geometry": {"coordinates": [-80.342941751, 41.904817514], "type": "Point"}, "id": "oqAPNEJEmkmld_LEbpuXefLbAyM=", "properties": {"@source_uri": "https://tools.usps.com/UspsToolsRestServices/rest/POLocator/findLocations", "@spider": "usps_collection_boxes", "addr:city": "CRANESVILLE", "addr:country": "US", "addr:postcode": "16410", "addr:state": "PA", "addr:street_address": "10283 CRANE ST", "amenity": "post_box", "collection_times": "Mo-Fr 15:30; Sa 11:15", "note": "ON 12/24 AND 12/31, THIS BOX MAY BE COLLECTED AS EARLY AS 12 NOON.", "nsi_id": "unitedstatespostalservice-a77078", "operator": "United States Postal Service", "operator:short": "USPS", "operator:type": "public", "operator:wikidata": "Q668687", "ref": "1641000001"}, "type": "Feature"}
{"geometry": {"coordinates": [-80.342941751, 41.904817514], "type": "Point"}, "id": "ZYrFchXO45QaPHUzfXLuqgmEhOM=", "properties": {"@source_uri": "https://tools.usps.com/UspsToolsRestServices/rest/POLocator/findLocations", "@spider": "usps_collection_boxes", "addr:city": "CRANESVILLE", "addr:country": "US", "addr:postcode": "16410", "addr:state": "PA", "addr:street_address": "10283 CRANE ST", "amenity": "post_box", "collection_times": "Mo-Fr 15:30; Sa 11:15", "indoor": "yes", "note": "ON 12/24 AND 12/31, THIS BOX MAY BE COLLECTED AS EARLY AS 12 NOON.", "nsi_id": "unitedstatespostalservice-a77078", "operator": "United States Postal Service", "operator:short": "USPS", "operator:type": "public", "operator:wikidata": "Q668687", "ref": "1641000003"}, "type": "Feature"}
{"geometry": {"coordinates": [-80.342941751, 41.904817514], "type": "Point"}, "id": "nMbmENytHC6N4dqlpYwxL-81uiA=", "properties": {"@source_uri": "https://tools.usps.com/UspsToolsRestServices/rest/POLocator/findLocations", "@spider": "usps_collection_boxes", "addr:city": "CRANESVILLE", "addr:country": "US", "addr:postcode": "16410", "addr:state": "PA", "addr:street_address": "10283 CRANE ST", "amenity": "post_box", "collection_times": "Mo-Fr 15:45; Sa 11:00", "indoor": "yes", "note": "ON 12/24 AND 12/31, THIS BOX MAY BE COLLECTED AS EARLY AS 12 NOON.", "nsi_id": "unitedstatespostalservice-a77078", "operator": "United States Postal Service", "operator:short": "USPS", "operator:type": "public", "operator:wikidata": "Q668687", "ref": "1641000005"}, "type": "Feature"}
{"geometry": {"coordinates": [-80.405826386, 41.965477165], "type": "Point"}, "id": "PWHdCBUqnujgdLixTOmmiqEy-OE=", "properties": {"@source_uri": "https://tools.usps.com/UspsToolsRestServices/rest/POLocator/findLocations", "@spider": "usps_collection_boxes", "addr:city": "EAST SPRINGFIELD", "addr:country": "US", "addr:postcode": "16411", "addr:state": "PA", "addr:street_address": "11932 MAIN ST", "amenity": "post_box", "collection_times": "Mo-Fr 15:30; Sa 10:45", "note": "ON 12/24 AND 12/31, THIS BOX MAY BE COLLECTED AS EARLY AS 12 NOON.", "nsi_id": "unitedstatespostalservice-a77078", "operator": "United States Postal Service", "operator:short": "USPS", "operator:type": "public", "operator:wikidata": "Q668687", "ref": "1641100001"}, "type": "Feature"}
{"geometry": {"coordinates": [-80.405826386, 41.965477165], "type": "Point"}, "id": "aZmUvdMGpJ9VhIJtivTHLxeIrAY=", "properties": {"@source_uri": "https://tools.usps.com/UspsToolsRestServices/rest/POLocator/findLocations", "@spider": "usps_collection_boxes", "addr:city": "EAST SPRINGFIELD", "addr:country": "US", "addr:postcode": "16411", "addr:state": "PA", "addr:street_address": "11932 MAIN ST", "amenity": "post_box", "collection_times": "Mo-Fr 15:30; Sa 10:45", "indoor": "yes", "note": "ON 12/24 AND 12/31, THIS BOX MAY BE COLLECTED AS EARLY AS 12 NOON.", "nsi_id": "unitedstatespostalservice-a77078", "operator": "United States Postal Service", "operator:short": "USPS", "operator:type": "public", "operator:wikidata": "Q668687", "ref": "1641100003"}, "type": "Feature"}
{"geometry": {"coordinates": [-80.405826386, 41.965477165], "type": "Point"}, "id": "kGIhRTpm64U4-jkgoyUKnSUHGWk=", "properties": {"@source_uri": "https://tools.usps.com/UspsToolsRestServices/rest/POLocator/findLocations", "@spider": "usps_collection_boxes", "addr:city": "EAST SPRINGFIELD", "addr:country": "US", "addr:postcode": "16411", "addr:state": "PA", "addr:street_address": "11932 MAIN ST", "amenity": "post_box", "collection_times": "Mo-Fr 15:30; Sa 10:30", "indoor": "yes", "note": "ON 12/24 AND 12/31, THIS BOX MAY BE COLLECTED AS EARLY AS 12 NOON.", "nsi_id": "unitedstatespostalservice-a77078", "operator": "United States Postal Service", "operator:short": "USPS", "operator:type": "public", "operator:wikidata": "Q668687", "ref": "1641100005"}, "type": "Feature"}
{"geometry": {"coordinates": [-80.134824444, 41.876205998], "type": "Point"}, "id": "-uS4KYX4pqXSrreuI8XO8NcakKU=", "properties": {"@source_uri": "https://tools.usps.com/UspsToolsRestServices/rest/POLocator/findLocations", "@spider": "usps_collection_boxes", "addr:city": "EDINBORO", "addr:country": "US", "addr:postcode": "16412", "addr:state": "PA", "addr:street_address": "220 W PLUM ST", "amenity": "post_box", "collection_times": "Mo-Sa 10:00", "nsi_id": "unitedstatespostalservice-a77078", "operator": "United States Postal Service", "operator:short": "USPS", "operator:type": "public", "operator:wikidata": "Q668687", "ref": "1641200001"}, "type": "Feature"}
{"geometry": {"coordinates": [-80.1326619, 41.874221], "type": "Point"}, "id": "E5GEmJP4TI5XOYp9WBi04AoGnDI=", "properties": {"@source_uri": "https://tools.usps.com/UspsToolsRestServices/rest/POLocator/findLocations", "@spider": "usps_collection_boxes", "addr:city": "EDINBORO", "addr:country": "US", "addr:postcode": "16412", "addr:state": "PA", "addr:street_address": "7 MILL ST", "amenity": "post_box", "collection_times": "Mo-Fr 14:00; Sa 13:00", "note": "ON 12/24 AND 12/31, THIS BOX MAY BE COLLECTED AS EARLY AS 12 NOON.", "nsi_id": "unitedstatespostalservice-a77078", "operator": "United States Postal Service", "operator:short": "USPS", "operator:type": "public", "operator:wikidata": "Q668687", "ref": "1641200002"}, "type": "Feature"}
{"geometry": {"coordinates": [-80.119294402, 41.87776514], "type": "Point"}, "id": "YriVrxsC7aD2yRQCpMj7ncawTfU=", "properties": {"@source_uri": "https://tools.usps.com/UspsToolsRestServices/rest/POLocator/findLocations", "@spider": "usps_collection_boxes", "addr:city": "EDINBORO", "addr:country": "US", "addr:postcode": "16412", "addr:state": "PA", "addr:street_address": "300 WATERFORD ST", "amenity": "post_box", "collection_times": "Mo-Fr 17:00; Sa 15:00", "indoor": "yes", "note": "ON 12/24 AND 12/31, THIS BOX MAY BE COLLECTED AS EARLY AS 12 NOON.", "nsi_id": "unitedstatespostalservice-a77078", "operator": "United States Postal Service", "operator:short": "USPS", "operator:type": "public", "operator:wikidata": "Q668687", "ref": "1641200008"}, "type": "Feature"}
{"geometry": {"coordinates": [-80.119294402, 41.87776514], "type": "Point"}, "id": "-QAga-pv1ihU3U7QbJ4esEwKFbE=", "properties": {"@source_uri": "https://tools.usps.com/UspsToolsRestServices/rest/POLocator/findLocations", "@spider": "usps_collection_boxes", "addr:city": "EDINBORO", "addr:country": "US", "addr:postcode": "16412", "addr:state": "PA", "addr:street_address": "300 WATERFORD ST", "amenity": "post_box", "collection_times": "Mo-Fr 17:00; Sa 15:00", "note": "ON 12/24 AND 12/31, THIS BOX MAY BE COLLECTED AS EARLY AS 12 NOON.", "nsi_id": "unitedstatespostalservice-a77078", "operator": "United States Postal Service", "operator:short": "USPS", "operator:type": "public", "operator:wikidata": "Q668687", "ref": "1641200010"}, "type": "Feature"}
{"geometry": {"coordinates": [-80.119294402, 41.87776514], "type": "Point"}, "id": "t96RsD6fFHrmyYTUyBlPRv9degU=", "properties": {"@source_uri": "https://tools.usps.com/UspsToolsRestServices/rest/POLocator/findLocations", "@spider": "usps_collection_boxes", "addr:city": "EDINBORO", "addr:country": "US", "addr:postcode": "16412", "addr:state": "PA", "addr:street_address": "300 WATERFORD ST", "amenity": "post_box", "collection_times": "Mo-Fr 17:00; Sa 15:00", "note": "ON 12/24 AND 12/31, THIS BOX MAY BE COLLECTED AS EARLY AS 12 NOON.", "nsi_id": "unitedstatespostalservice-a77078", "operator": "United States Postal Service", "operator:short": "USPS", "operator:type": "public", "operator:wikidata": "Q668687", "ref": "1641200011"}, "type": "Feature"}
{"geometry": {"coordinates": [-80.1236038, 41.867122], "type": "Point"}, "id": "KjHiJMtY_OzeDTWvK7m13LDDDnE=", "properties": {"@source_uri": "https://tools.usps.com/UspsToolsRestServices/rest/POLocator/findLocations", "@spider": "usps_collection_boxes", "addr:city": "EDINBORO", "addr:country": "US", "addr:postcode": "16412", "addr:state": "PA", "addr:street_address": "238 DARROW RD", "amenity": "post_box", "collection_times": "Mo-Sa 12:00", "nsi_id": "unitedstatespostalservice-a77078", "operator": "United States Postal Service", "operator:short": "USPS", "operator:type": "public", "operator:wikidata": "Q668687", "ref": "1641200012"}, "type": "Feature"}
{"geometry": {"coordinates": [-80.1186271, 41.86644], "type": "Point"}, "id": "MB5iKYEuFYYJLphBby5_UuNXPcE=", "properties": {"@source_uri": "https://tools.usps.com/UspsToolsRestServices/rest/POLocator/findLocations", "@spider": "usps_collection_boxes", "addr:city": "EDINBORO", "addr:country": "US", "addr:postcode": "16412", "addr:state": "PA", "addr:street_address": "103 BRORA DR", "amenity": "post_box", "collection_times": "Mo-Sa 12:00", "nsi_id": "unitedstatespostalservice-a77078", "operator": "United States Postal Service", "operator:short": "USPS", "operator:type": "public", "operator:wikidata": "Q668687", "ref": "1641200013"}, "type": "Feature"}
{"geometry": {"coordinates": [-80.1728394, 41.87722], "type": "Point"}, "id": "iwYdMqR6qygY1MWaHoUEPx60Cf8=", "properties": {"@source_uri": "https://tools.usps.com/UspsToolsRestServices/rest/POLocator/findLocations", "@spider": "usps_collection_boxes", "addr:city": "EDINBORO", "addr:country": "US", "addr:postcode": "16412", "addr:state": "PA", "addr:street_address": "116 WASHINGTON TOWNE BLVD N", "amenity": "post_box", "collection_times": "Mo-Sa 10:00", "nsi_id": "unitedstatespostalservice-a77078", "operator": "United States Postal Service", "operator:short": "USPS", "operator:type": "public", "operator:wikidata": "Q668687", "ref": "1641200014"}, "type": "Feature"}
{"geometry": {"coordinates": [-80.119294402, 41.87776514], "type": "Point"}, "id": "tXMLdZqStAWgInscLHkFR3xe96s=", "properties": {"@source_uri": "https://tools.usps.com/UspsToolsRestServices/rest/POLocator/findLocations", "@spider": "usps_collection_boxes", "addr:city": "EDINBORO", "addr:country": "US", "addr:postcode": "16412", "addr:state": "PA", "addr:street_address": "300 WATERFORD ST", "amenity": "post_box", "collection_times": "Mo-Fr 17:00; Sa 13:00", "indoor": "yes", "note": "ON 12/24 AND 12/31, THIS BOX MAY BE COLLECTED AS EARLY AS 12 NOON.", "nsi_id": "unitedstatespostalservice-a77078", "operator": "United States Postal Service", "operator:short": "USPS", "operator:type": "public", "operator:wikidata": "Q668687", "ref": "1641200017"}, "type": "Feature"}
{"geometry": {"coordinates": [-79.743314888, 41.90491098], "type": "Point"}, "id": "5q2gtNcKpDgRwnsuII19_ttqmOE=", "properties": {"@source_uri": "https://tools.usps.com/UspsToolsRestServices/rest/POLocator/findLocations", "@spider": "usps_collection_boxes", "addr:city": "ELGIN", "addr:country": "US", "addr:postcode": "16413", "addr:state": "PA", "addr:street_address": "18250 MAIN ST", "amenity": "post_box", "collection_times": "Mo-Fr 12:30; Sa 11:30", "note": "ON 12/24 AND 12/31, THIS BOX MAY BE COLLECTED AS EARLY AS 12 NOON.", "nsi_id": "unitedstatespostalservice-a77078", "operator": "United States Postal Service", "operator:short": "USPS", "operator:type": "public", "operator:wikidata": "Q668687", "ref": "1641300001"}, "type": "Feature"}
{"geometry": {"coordinates": [-79.743314888, 41.90491098], "type": "Point"}, "id": "TMNssRQ0qD8HoAYDtAS5wivWdMA=", "properties": {"@source_uri": "https://tools.usps.com/UspsToolsRestServices/rest/POLocator/findLocations", "@spider": "usps_collection_boxes", "addr:city": "ELGIN", "addr:country": "US", "addr:postcode": "16413", "addr:state": "PA", "addr:street_address": "18250 MAIN ST", "amenity": "post_box", "collection_times": "Mo-Fr 12:50; Sa 11:30", "indoor": "yes", "note": "ON 12/24 AND 12/31, THIS BOX MAY BE COLLECTED AS EARLY AS 12 NOON.", "nsi_id": "unitedstatespostalservice-a77078", "operator": "United States Postal Service", "operator:short": "USPS", "operator:type": "public", "operator:wikidata": "Q668687", "ref": "1641300003"}, "type": "Feature"}
{"geometry": {"coordinates": [-79.743314888, 41.90491098], "type": "Point"}, "id": "Ky3XS4y9bIz0GkV5boLdGSsRaEU=", "properties": {"@source_uri": "https://tools.usps.com/UspsToolsRestServices/rest/POLocator/findLocations", "@spider": "usps_collection_boxes", "addr:city": "ELGIN", "addr:country": "US", "addr:postcode": "16413", "addr:state": "PA", "addr:street_address": "18250 MAIN ST", "amenity": "post_box", "collection_times": "Mo-Fr 12:50; Sa 11:35", "indoor": "yes", "note": "ON 12/24 AND 12/31, THIS BOX MAY BE COLLECTED AS EARLY AS 12 NOON.", "nsi_id": "unitedstatespostalservice-a77078", "operator": "United States Postal Service", "operator:short": "USPS", "operator:type": "public", "operator:wikidata": "Q668687", "ref": "1641300005"}, "type": "Feature"}
{"geometry": {"coordinates": [-80.256367815, 42.032767454], "type": "Point"}, "id": "hWvXGGVI_S02-g9QMD-347jcR8U=", "properties": {"@source_uri": "https://tools.usps.com/UspsToolsRestServices/rest/POLocator/findLocations", "@spider": "usps_collection_boxes", "addr:city": "FAIRVIEW", "addr:country": "US", "addr:postcode": "16415", "addr:state": "PA", "addr:street_address": "3856 AVONIA RD", "amenity": "post_box", "collection_times": "Mo-Fr 17:00; Sa 13:30", "note": "ON 12/24 AND 12/31, THIS BOX MAY BE COLLECTED AS EARLY AS 12 NOON.", "nsi_id": "unitedstatespostalservice-a77078", "operator": "United States Postal Service", "operator:short": "USPS", "operator:type": "public", "operator:wikidata": "Q668687", "ref": "1641500001"}, "type": "Feature"}
{"geometry": {"coordinates": [-80.256367815, 42.032767454], "type": "Point"}, "id": "gcxmfy8PzmNMdo-jhIFzOhiMXiU=", "properties": {"@source_uri": "https://tools.usps.com/UspsToolsRestServices/rest/POLocator/findLocations", "@spider": "usps_collection_boxes", "addr:city": "FAIRVIEW", "addr:country": "US", "addr:postcode": "16415", "addr:state": "PA", "addr:street_address": "3856 AVONIA RD", "amenity": "post_box", "collection_times": "Mo-Fr 17:00; Sa 13:30", "indoor": "yes", "note": "ON 12/24 AND 12/31, THIS BOX MAY BE COLLECTED AS EARLY AS 12 NOON.", "nsi_id": "unitedstatespostalservice-a77078", "operator": "United States Postal Service", "operator:short": "USPS", "operator:type": "public", "operator:wikidata": "Q668687", "ref": "1641500006"}, "type": "Feature"}
{"geometry": {"coordinates": [-80.256367815, 42.032767454], "type": "Point"}, "id": "jCtcvp2JTjsHYZYpIaM8wU5fiMM=", "properties": {"@source_uri": "https://tools.usps.com/UspsToolsRestServices/rest/POLocator/findLocations", "@spider": "usps_collection_boxes", "addr:city": "FAIRVIEW", "addr:country": "US", "addr:postcode": "16415", "addr:state": "PA", "addr:street_address": "3856 AVONIA RD", "amenity": "post_box", "collection_times": "Mo-Fr 17:00; Sa 12:00", "indoor": "yes", "note": "ON 12/24 AND 12/31, THIS BOX MAY BE COLLECTED AS EARLY AS 12 NOON.", "nsi_id": "unitedstatespostalservice-a77078", "operator": "United States Postal Service", "operator:short": "USPS", "operator:type": "public", "operator:wikidata": "Q668687", "ref": "1641500008"}, "type": "Feature"}
{"geometry": {"coordinates": [-79.444695288, 41.816991637], "type": "Point"}, "id": "N5_neI93sxjVlgRQ012IZsKtyvI=", "properties": {"@source_uri": "https://tools.usps.com/UspsToolsRestServices/rest/POLocator/findLocations", "@spider": "usps_collection_boxes", "addr:city": "GARLAND", "addr:country": "US", "addr:postcode": "16416", "addr:state": "PA", "addr:street_address": "55 EXTENSION RD", "amenity": "post_box", "collection_times": "Mo-Fr 09:50; Sa 11:15", "nsi_id": "unitedstatespostalservice-a77078", "operator": "United States Postal Service", "operator:short": "USPS", "operator:type": "public", "operator:wikidata": "Q668687", "ref": "1641600001"}, "type": "Feature"}
{"geometry": {"coordinates": [-79.444695288, 41.816991637], "type": "Point"}, "id": "82FHzUyzlTqHMlzCxtZ8536SzAc=", "properties": {"@source_uri": "https://tools.usps.com/UspsToolsRestServices/rest/POLocator/findLocations", "@spider": "usps_collection_boxes", "addr:city": "GARLAND", "addr:country": "US", "addr:postcode": "16416", "addr:state": "PA", "addr:street_address": "55 EXTENSION RD", "amenity": "post_box", "collection_times": "Mo-Fr 09:50; Sa 11:15", "indoor": "yes", "nsi_id": "unitedstatespostalservice-a77078", "operator": "United States Postal Service", "operator:short": "USPS", "operator:type": "public", "operator:wikidata": "Q668687", "ref": "1641600003"}, "type": "Feature"}
{"geometry": {"coordinates": [-79.444695288, 41.816991637], "type": "Point"}, "id": "AP2Jyg6mpbt-pnY7tE9ClI5jBn4=", "properties": {"@source_uri": "https://tools.usps.com/UspsToolsRestServices/rest/POLocator/findLocations", "@spider": "usps_collection_boxes", "addr:city": "GARLAND", "addr:country": "US", "addr:postcode": "16416", "addr:state": "PA", "addr:street_address": "55 EXTENSION RD", "amenity": "post_box", "collection_times": "Mo-Fr 09:50; Sa 11:35", "indoor": "yes", "nsi_id": "unitedstatespostalservice-a77078", "operator": "United States Postal Service", "operator:short": "USPS", "operator:type": "public", "operator:wikidata": "Q668687", "ref": "1641600006"}, "type": "Feature"}
{"geometry": {"coordinates": [-80.315968166, 42.001447653], "type": "Point"}, "id": "xDf7Mf8l6NgFAEM0xAPWhfqKrys=", "properties": {"@source_uri": "https://tools.usps.com/UspsToolsRestServices/rest/POLocator/findLocations", "@spider": "usps_collection_boxes", "addr:city": "GIRARD", "addr:country": "US", "addr:postcode": "16417", "addr:state": "PA", "addr:street_address": "113 MAIN ST E", "amenity": "post_box", "collection_times": "Mo-Fr 17:00; Sa 12:15", "note": "ON 12/24 AND 12/31, THIS BOX MAY BE COLLECTED AS EARLY AS 12 NOON.", "nsi_id": "unitedstatespostalservice-a77078", "operator": "United States Postal Service", "operator:short": "USPS", "operator:type": "public", "operator:wikidata": "Q668687", "ref": "1641700002"}, "type": "Feature"}
{"geometry": {"coordinates": [-80.315968166, 42.001447653], "type": "Point"}, "id": "j3Xn_oziiYeEQv2LVucvNc-HDXs=", "properties": {"@source_uri": "https://tools.usps.com/UspsToolsRestServices/rest/POLocator/findLocations", "@spider": "usps_collection_boxes", "addr:city": "GIRARD", "addr:country": "US", "addr:postcode": "16417", "addr:state": "PA", "addr:street_address": "113 MAIN ST E", "amenity": "post_box", "collection_times": "Mo-Fr 17:00; Sa 12:15", "note": "ON 12/24 AND 12/31, THIS BOX MAY BE COLLECTED AS EARLY AS 12 NOON.", "nsi_id": "unitedstatespostalservice-a77078", "operator": "United States Postal Service", "operator:short": "USPS", "operator:type": "public", "operator:wikidata": "Q668687", "ref": "1641700003"}, "type": "Feature"}
{"geometry": {"coordinates": [-80.3018295, 42.008247], "type": "Point"}, "id": "p_L4WvsWH4Hzq3kG9mhF8WKYaLc=", "properties": {"@source_uri": "https://tools.usps.com/UspsToolsRestServices/rest/POLocator/findLocations", "@spider": "usps_collection_boxes", "addr:city": "GIRARD", "addr:country": "US", "addr:postcode": "16417", "addr:state": "PA", "addr:street_address": "9149 RIDGE RD", "amenity": "post_box", "collection_times": "Mo-Sa 09:00", "nsi_id": "unitedstatespostalservice-a77078", "operator": "United States Postal Service", "operator:short": "USPS", "operator:type": "public", "operator:wikidata": "Q668687", "ref": "1641700005"}, "type": "Feature"}
{"geometry": {"coordinates": [-80.3195782, 42.008255], "type": "Point"}, "id": "rTjrdiOJYtZU4OD3IqwZyAsxr94=", "properties": {"@source_uri": "https://tools.usps.com/UspsToolsRestServices/rest/POLocator/findLocations", "@spider": "usps_collection_boxes", "addr:city": "GIRARD", "addr:country": "US", "addr:postcode": "16417", "addr:state": "PA", "addr:street_address": "227 HATHAWAY ST E", "amenity": "post_box", "collection_times": "Mo-Sa 11:00", "nsi_id": "unitedstatespostalservice-a77078", "operator": "United States Postal Service", "operator:short": "USPS", "operator:type": "public", "operator:wikidata": "Q668687", "ref": "1641700007"}, "type": "Feature"}
{"geometry": {"coordinates": [-80.3182081, 42.000279], "type": "Point"}, "id": "4ejN9lw55EJZd8K0aUuje7PAuSo=", "properties": {"@source_uri": "https://tools.usps.com/UspsToolsRestServices/rest/POLocator/findLocations", "@spider": "usps_collection_boxes", "addr:city": "GIRARD", "addr:country": "US", "addr:postcode": "16417", "addr:state": "PA", "addr:street_address": "110 MAIN ST W", "amenity": "post_box", "collection_times": "Mo-Sa 14:00", "note": "ON 12/24 AND 12/31, THIS BOX MAY BE COLLECTED AS EARLY AS 12 NOON.", "nsi_id": "unitedstatespostalservice-a77078", "operator": "United States Postal Service", "operator:short": "USPS", "operator:type": "public", "operator:wikidata": "Q668687", "ref": "1641700008"}, "type": "Feature"}
{"geometry": {"coordinates": [-80.3185299, 41.999887], "type": "Point"}, "id": "NIfnnfwIT8nQKS0csJhqnWKu-S0=", "properties": {"@source_uri": "https://tools.usps.com/UspsToolsRestServices/rest/POLocator/findLocations", "@spider": "usps_collection_boxes", "addr:city": "GIRARD", "addr:country": "US", "addr:postcode": "16417", "addr:state": "PA", "addr:street_address": "145 MAIN ST", "amenity": "post_box", "collection_times": "Mo-Sa 14:00", "note": "ON 12/24 AND 12/31, THIS BOX MAY BE COLLECTED AS EARLY AS 12 NOON.", "nsi_id": "unitedstatespostalservice-a77078", "operator": "United States Postal Service", "operator:short": "USPS", "operator:type": "public", "operator:wikidata": "Q668687", "ref": "1641700009"}, "type": "Feature"}
{"geometry": {"coordinates": [-80.3246064, 42.006903], "type": "Point"}, "id": "CJRTgFt2OFz-0PKGXkJEh03c3K8=", "properties": {"@source_uri": "https://tools.usps.com/UspsToolsRestServices/rest/POLocator/findLocations", "@spider": "usps_collection_boxes", "addr:city": "GIRARD", "addr:country": "US", "addr:postcode": "16417", "addr:state": "PA", "addr:street_address": "705 RICE AVE", "amenity": "post_box", "collection_times": "Mo-Sa 10:30", "nsi_id": "unitedstatespostalservice-a77078", "operator": "United States Postal Service", "operator:short": "USPS", "operator:type": "public", "operator:wikidata": "Q668687", "ref": "1641700010"}, "type": "Feature"}
{"geometry": {"coordinates": [-80.315968166, 42.001447653], "type": "Point"}, "id": "fA5-EN8U6nvB3Jqw4tQ2n_79MMs=", "properties": {"@source_uri": "https://tools.usps.com/UspsToolsRestServices/rest/POLocator/findLocations", "@spider": "usps_collection_boxes", "addr:city": "GIRARD", "addr:country": "US", "addr:postcode": "16417", "addr:state": "PA", "addr:street_address": "113 MAIN ST E", "amenity": "post_box", "collection_times": "Mo-Fr 17:00; Sa 12:15", "indoor": "yes", "note": "ON 12/24 AND 12/31, THIS BOX MAY BE COLLECTED AS EARLY AS 12 NOON.", "nsi_id": "unitedstatespostalservice-a77078", "operator": "United States Postal Service", "operator:short": "USPS", "operator:type": "public", "operator:wikidata": "Q668687", "ref": "1641700015"}, "type": "Feature"}
{"geometry": {"coordinates": [-80.3449981, 42.019459], "type": "Point"}, "id": "PD2HQftAVtAT1ppON0OJTTQG7u8=", "properties": {"@source_uri": "https://tools.usps.com/UspsToolsRestServices/rest/POLocator/findLocations", "@spider": "usps_collection_boxes", "addr:city": "GIRARD", "addr:country": "US", "addr:postcode": "16417", "addr:state": "PA", "addr:street_address": "1591 LAKE ST", "amenity": "post_box", "collection_times": "Mo-Sa 11:00", "nsi_id": "unitedstatespostalservice-a77078", "operator": "United States Postal Service", "operator:short": "USPS", "operator:type": "public", "operator:wikidata": "Q668687", "ref": "1641700016"}, "type": "Feature"}
{"geometry": {"coordinates": [-80.315968166, 42.001447653], "type": "Point"}, "id": "ybP_hUmu25I9n5fLA5Tah2PRvjk=", "properties": {"@source_uri": "https://tools.usps.com/UspsToolsRestServices/rest/POLocator/findLocations", "@spider": "usps_collection_boxes", "addr:city": "GIRARD", "addr:country": "US", "addr:postcode": "16417", "addr:state": "PA", "addr:street_address": "113 MAIN ST E", "amenity": "post_box", "collection_times": "Mo-Fr 17:00; Sa 12:00", "indoor": "yes", "note": "ON 12/24 AND 12/31, THIS BOX MAY BE COLLECTED AS EARLY AS 12 NOON.", "nsi_id": "unitedstatespostalservice-a77078", "operator": "United States Postal Service", "operator:short": "USPS", "operator:type": "public", "operator:wikidata": "Q668687", "ref": "1641700018"}, "type": "Feature"}
{"geometry": {"coordinates": [-79.539373897, 41.721475965], "type": "Point"}, "id": "XNC0WZ_etc2z6rbNwT_dKQrG68s=", "properties": {"@source_uri": "https://tools.usps.com/UspsToolsRestServices/rest/POLocator/findLocations", "@spider": "usps_collection_boxes", "addr:city": "GRAND VALLEY", "addr:country": "US", "addr:postcode": "16420", "addr:state": "PA", "addr:street_address": "76 ELDRED CENTER RD", "amenity": "post_box", "collection_times": "Mo-Fr 11:55; Sa 11:00", "nsi_id": "unitedstatespostalservice-a77078", "operator": "United States Postal Service", "operator:short": "USPS", "operator:type": "public", "operator:wikidata": "Q668687", "ref": "1642000001"}, "type": "Feature"}
{"geometry": {"coordinates": [-79.539373897, 41.721475965], "type": "Point"}, "id": "-DQVD7D3dpLQ-8pUbcMsZ6UZm0s=", "properties": {"@source_uri": "https://tools.usps.com/UspsToolsRestServices/rest/POLocator/findLocations", "@spider": "usps_collection_boxes", "addr:city": "GRAND VALLEY", "addr:country": "US", "addr:postcode": "16420", "addr:state": "PA", "addr:street_address": "76 ELDRED CENTER RD", "amenity": "post_box", "collection_times": "Mo-Fr 11:55; Sa 11:00", "indoor": "yes", "nsi_id": "unitedstatespostalservice-a77078", "operator": "United States Postal Service", "operator:short": "USPS", "operator:type": "public", "operator:wikidata": "Q668687", "ref": "1642000003"}, "type": "Feature"}
{"geometry": {"coordinates": [-79.539373897, 41.721475965], "type": "Point"}, "id": "ElcqYdati1Oir9dFRjYqT8jvh3M=", "properties": {"@source_uri": "https://tools.usps.com/UspsToolsRestServices/rest/POLocator/findLocations", "@spider": "usps_collection_boxes", "addr:city": "GRAND VALLEY", "addr:country": "US", "addr:postcode": "16420", "addr:state": "PA", "addr:street_address": "76 ELDRED CENTER RD", "amenity": "post_box", "collection_times": "Mo-Fr 11:55; Sa 10:55", "indoor": "yes", "nsi_id": "unitedstatespostalservice-a77078", "operator": "United States Postal Service", "operator:short": "USPS", "operator:type": "public", "operator:wikidata": "Q668687", "ref": "1642000005"}, "type": "Feature"}
{"geometry": {"coordinates": [-79.944356177, 42.173382638], "type": "Point"}, "id": "7SwjiJKKL7r-uZhy0OjWtSfs3YI=", "properties": {"@source_uri": "https://tools.usps.com/UspsToolsRestServices/rest/POLocator/findLocations", "@spider": "usps_collection_boxes", "addr:city": "HARBORCREEK", "addr:country": "US", "addr:postcode": "16421", "addr:state": "PA", "addr:street_address": "7175 BUFFALO RD", "amenity": "post_box", "collection_times": "Mo-Fr 17:00; Sa 12:00", "note": "ON 12/24 AND 12/31, THIS BOX MAY BE COLLECTED AS EARLY AS 12 NOON.", "nsi_id": "unitedstatespostalservice-a77078", "operator": "United States Postal Service", "operator:short": "USPS", "operator:type": "public", "operator:wikidata": "Q668687", "ref": "1642100001"}, "type": "Feature"}
{"geometry": {"coordinates": [-79.944356177, 42.173382638], "type": "Point"}, "id": "wsCP9FSfEneoZn_Cn8SsnCWgP58=", "properties": {"@source_uri": "https://tools.usps.com/UspsToolsRestServices/rest/POLocator/findLocations", "@spider": "usps_collection_boxes", "addr:city": "HARBORCREEK", "addr:country": "US", "addr:postcode": "16421", "addr:state": "PA", "addr:street_address": "7175 BUFFALO RD", "amenity": "post_box", "collection_times": "Mo-Fr 17:00; Sa 12:00", "indoor": "yes", "note": "ON 12/24 AND 12/31, THIS BOX MAY BE COLLECTED AS EARLY AS 12 NOON.", "nsi_id": "unitedstatespostalservice-a77078", "operator": "United States Postal Service", "operator:short": "USPS", "operator:type": "public", "operator:wikidata": "Q668687", "ref": "1642100003"}, "type": "Feature"}
{"geometry": {"coordinates": [-79.9683239, 42.158776], "type": "Point"}, "id": "rgIdiE_IBGuolHB2CWNl74E4MVc=", "properties": {"@source_uri": "https://tools.usps.com/UspsToolsRestServices/rest/POLocator/findLocations", "@spider": "usps_collection_boxes", "addr:city": "HARBORCREEK", "addr:country": "US", "addr:postcode": "16421", "addr:state": "PA", "addr:street_address": "5741 BUFFALO RD", "amenity": "post_box", "collection_times": "Mo-Sa 10:30", "nsi_id": "unitedstatespostalservice-a77078", "operator": "United States Postal Service", "operator:short": "USPS", "operator:type": "public", "operator:wikidata": "Q668687", "ref": "1642100004"}, "type": "Feature"}
{"geometry": {"coordinates": [-79.944356177, 42.173382638], "type": "Point"}, "id": "wLXFFnneJ4xgJgHho3x_QOrRmrA=", "properties": {"@source_uri": "https://tools.usps.com/UspsToolsRestServices/rest/POLocator/findLocations", "@spider": "usps_collection_boxes", "addr:city": "HARBORCREEK", "addr:country": "US", "addr:postcode": "16421", "addr:state": "PA", "addr:street_address": "7175 BUFFALO RD", "amenity": "post_box", "collection_times": "Mo-Fr 17:00; Sa 12:00", "indoor": "yes", "note": "ON 12/24 AND 12/31, THIS BOX MAY BE COLLECTED AS EARLY AS 12 NOON.", "nsi_id": "unitedstatespostalservice-a77078", "operator": "United States Postal Service", "operator:short": "USPS", "operator:type": "public", "operator:wikidata": "Q668687", "ref": "1642100006"}, "type": "Feature"}
{"geometry": {"coordinates": [-80.317646872, 41.661767504], "type": "Point"}, "id": "g4DKEN3jT7sS-5peCtclv0wemfE=", "properties": {"@source_uri": "https://tools.usps.com/UspsToolsRestServices/rest/POLocator/findLocations", "@spider": "usps_collection_boxes", "addr:city": "HARMONSBURG", "addr:country": "US", "addr:postcode": "16422", "addr:state": "PA", "addr:street_address": "14238 LEXINGTON ST", "amenity": "post_box", "collection_times": "Mo-Fr 12:55; Sa 11:45", "note": "ON 12/24 AND 12/31, THIS BOX MAY BE COLLECTED AS EARLY AS 12 NOON.", "nsi_id": "unitedstatespostalservice-a77078", "operator": "United States Postal Service", "operator:short": "USPS", "operator:type": "public", "operator:wikidata": "Q668687", "ref": "1642200001"}, "type": "Feature"}
{"geometry": {"coordinates": [-80.317646872, 41.661767504], "type": "Point"}, "id": "gWJj0rFTlZb0OsZh6PSjXQaJqWg=", "properties": {"@source_uri": "https://tools.usps.com/UspsToolsRestServices/rest/POLocator/findLocations", "@spider": "usps_collection_boxes", "addr:city": "HARMONSBURG", "addr:country": "US", "addr:postcode": "16422", "addr:state": "PA", "addr:street_address": "14238 LEXINGTON ST", "amenity": "post_box", "collection_times": "Mo-Fr 12:55; Sa 11:45", "indoor": "yes", "note": "ON 12/24 AND 12/31, THIS BOX MAY BE COLLECTED AS EARLY AS 12 NOON.", "nsi_id": "unitedstatespostalservice-a77078", "operator": "United States Postal Service", "operator:short": "USPS", "operator:type": "public", "operator:wikidata": "Q668687", "ref": "1642200003"}, "type": "Feature"}
{"geometry": {"coordinates": [-80.317646872, 41.661767504], "type": "Point"}, "id": "FPJNwWEgnlXI1DZ2ALb2BWqGMiw=", "properties": {"@source_uri": "https://tools.usps.com/UspsToolsRestServices/rest/POLocator/findLocations", "@spider": "usps_collection_boxes", "addr:city": "HARMONSBURG", "addr:country": "US", "addr:postcode": "16422", "addr:state": "PA", "addr:street_address": "14238 LEXINGTON ST", "amenity": "post_box", "collection_times": "Mo-Fr 12:55; Sa 11:25", "indoor": "yes", "note": "ON 12/24 AND 12/31, THIS BOX MAY BE COLLECTED AS EARLY AS 12 NOON.", "nsi_id": "unitedstatespostalservice-a77078", "operator": "United States Postal Service", "operator:short": "USPS", "operator:type": "public", "operator:wikidata": "Q668687", "ref": "1642200005"}, "type": "Feature"}
{"geometry": {"coordinates": [-80.3449569, 42.013933], "type": "Point"}, "id": "gqWl-qqjlVoVOTxvrgJNTCvhlfE=", "properties": {"@source_uri": "https://tools.usps.com/UspsToolsRestServices/rest/POLocator/findLocations", "@spider": "usps_collection_boxes", "addr:city": "LAKE CITY", "addr:country": "US", "addr:postcode": "16423", "addr:state": "PA", "addr:street_address": "2102 RICE AVE", "amenity": "post_box", "collection_times": "Mo-Fr 14:30; Sa 12:00", "note": "ON 12/24 AND 12/31, THIS BOX MAY BE COLLECTED AS EARLY AS 12 NOON.", "nsi_id": "unitedstatespostalservice-a77078", "operator": "United States Postal Service", "operator:short": "USPS", "operator:type": "public", "operator:wikidata": "Q668687", "ref": "1642300007"}, "type": "Feature"}
{"geometry": {"coordinates": [-80.423011256, 41.656318736], "type": "Point"}, "id": "VFtasW8lortnVehzgYcBXjpoVkM=", "properties": {"@source_uri": "https://tools.usps.com/UspsToolsRestServices/rest/POLocator/findLocations", "@spider": "usps_collection_boxes", "addr:city": "LINESVILLE", "addr:country": "US", "addr:postcode": "16424", "addr:state": "PA", "addr:street_address": "141 W ERIE ST", "amenity": "post_box", "collection_times": "Mo-Fr 16:00; Sa 11:30", "note": "ON 12/24 AND 12/31, THIS BOX MAY BE COLLECTED AS EARLY AS 12 NOON.", "nsi_id": "unitedstatespostalservice-a77078", "operator": "United States Postal Service", "operator:short": "USPS", "operator:type": "public", "operator:wikidata": "Q668687", "ref": "1642400002"}, "type": "Feature"}
{"geometry": {"coordinates": [-80.423011256, 41.656318736], "type": "Point"}, "id": "AucpO2vMbkW-bHP33-2Kh0znS0g=", "properties": {"@source_uri": "https://tools.usps.com/UspsToolsRestServices/rest/POLocator/findLocations", "@spider": "usps_collection_boxes", "addr:city": "LINESVILLE", "addr:country": "US", "addr:postcode": "16424", "addr:state": "PA", "addr:street_address": "141 W ERIE ST", "amenity": "post_box", "collection_times": "Mo-Fr 16:00; Sa 11:30", "note": "ON 12/24 AND 12/31, THIS BOX MAY BE COLLECTED AS EARLY AS 12 NOON.", "nsi_id": "unitedstatespostalservice-a77078", "operator": "United States Postal Service", "operator:short": "USPS", "operator:type": "public", "operator:wikidata": "Q668687", "ref": "1642400003"}, "type": "Feature"}
{"geometry": {"coordinates": [-80.4999809, 41.606487], "type": "Point"}, "id": "PFY5D6PssjVLDqYUJbIjmN4lM6E=", "properties": {"@source_uri": "https://tools.usps.com/UspsToolsRestServices/rest/POLocator/findLocations", "@spider": "usps_collection_boxes", "addr:city": "LINESVILLE", "addr:country": "US", "addr:postcode": "16424", "addr:state": "PA", "addr:street_address": "1255 STATE HIGHWAY 285", "amenity": "post_box", "collection_times": "Mo-Sa 11:00", "nsi_id": "unitedstatespostalservice-a77078", "operator": "United States Postal Service", "operator:short": "USPS", "operator:type": "public", "operator:wikidata": "Q668687", "ref": "1642400004"}, "type": "Feature"}
{"geometry": {"coordinates": [-80.423011256, 41.656318736], "type": "Point"}, "id": "F0CSyouqicNFtjDExJVuke-QbeU=", "properties": {"@source_uri": "https://tools.usps.com/UspsToolsRestServices/rest/POLocator/findLocations", "@spider": "usps_collection_boxes", "addr:city": "LINESVILLE", "addr:country": "US", "addr:postcode": "16424", "addr:state": "PA", "addr:street_address": "141 W ERIE ST", "amenity": "post_box", "collection_times": "Mo-Fr 16:30; Sa 11:30", "indoor": "yes", "note": "ON 12/24 AND 12/31, THIS BOX MAY BE COLLECTED AS EARLY AS 12 NOON.", "nsi_id": "unitedstatespostalservice-a77078", "operator": "United States Postal Service", "operator:short": "USPS", "operator:type": "public", "operator:wikidata": "Q668687", "ref": "1642400006"}, "type": "Feature"}
{"geometry": {"coordinates": [-80.423011256, 41.656318736], "type": "Point"}, "id": "2GEkjvRR1SqYPZNGW7MtvdgtGa8=", "properties": {"@source_uri": "https://tools.usps.com/UspsToolsRestServices/rest/POLocator/findLocations", "@spider": "usps_collection_boxes", "addr:city": "LINESVILLE", "addr:country": "US", "addr:postcode": "16424", "addr:state": "PA", "addr:street_address": "141 W ERIE ST", "amenity": "post_box", "collection_times": "Mo-Fr 16:30; Sa 11:30", "indoor": "yes", "note": "ON 12/24 AND 12/31, THIS BOX MAY BE COLLECTED AS EARLY AS 12 NOON.", "nsi_id": "unitedstatespostalservice-a77078", "operator": "United States Postal Service", "operator:short": "USPS", "operator:type": "public", "operator:wikidata": "Q668687", "ref": "1642400008"}, "type": "Feature"}
{"geometry": {"coordinates": [-80.14322604, 41.997324613], "type": "Point"}, "id": "XzcsRvOUL5nzwq7zh3PVU0hj9z8=", "properties": {"@source_uri": "https://tools.usps.com/UspsToolsRestServices/rest/POLocator/findLocations", "@spider": "usps_collection_boxes", "addr:city": "MCKEAN", "addr:country": "US", "addr:postcode": "16426", "addr:state": "PA", "addr:street_address": "8988 MAIN ST", "amenity": "post_box", "collection_times": "Mo-Fr 17:00; Sa 12:00", "note": "ON 12/24 AND 12/31, THIS BOX MAY BE COLLECTED AS EARLY AS 12 NOON.", "nsi_id": "unitedstatespostalservice-a77078", "operator": "United States Postal Service", "operator:short": "USPS", "operator:type": "public", "operator:wikidata": "Q668687", "ref": "1642600001"}, "type": "Feature"}
{"geometry": {"coordinates": [-80.14322604, 41.997324613], "type": "Point"}, "id": "lOE0DJpOcEPgmBEakxr59pINHRU=", "properties": {"@source_uri": "https://tools.usps.com/UspsToolsRestServices/rest/POLocator/findLocations", "@spider": "usps_collection_boxes", "addr:city": "MCKEAN", "addr:country": "US", "addr:postcode": "16426", "addr:state": "PA", "addr:street_address": "8988 MAIN ST", "amenity": "post_box", "collection_times": "Mo-Fr 17:00; Sa 12:00", "indoor": "yes", "note": "ON 12/24 AND 12/31, THIS BOX MAY BE COLLECTED AS EARLY AS 12 NOON.", "nsi_id": "unitedstatespostalservice-a77078", "operator": "United States Postal Service", "operator:short": "USPS", "operator:type": "public", "operator:wikidata": "Q668687", "ref": "1642600003"}, "type": "Feature"}
{"geometry": {"coordinates": [-80.14322604, 41.997324613], "type": "Point"}, "id": "hInuK4RrB6PnSsuIqNyMAjxKFXw=", "properties": {"@source_uri": "https://tools.usps.com/UspsToolsRestServices/rest/POLocator/findLocations", "@spider": "usps_collection_boxes", "addr:city": "MCKEAN", "addr:country": "US", "addr:postcode": "16426", "addr:state": "PA", "addr:street_address": "8988 MAIN ST", "amenity": "post_box", "collection_times": "Mo-Fr 17:00; Sa 12:00", "indoor": "yes", "note": "ON 12/24 AND 12/31, THIS BOX MAY BE COLLECTED AS EARLY AS 12 NOON.", "nsi_id": "unitedstatespostalservice-a77078", "operator": "United States Postal Service", "operator:short": "USPS", "operator:type": "public", "operator:wikidata": "Q668687", "ref": "1642600005"}, "type": "Feature"}
{"geometry": {"coordinates": [-79.970815596, 41.875776261], "type": "Point"}, "id": "kzcS0NDDU-bnnLcUWc20O6j3CFM=", "properties": {"@source_uri": "https://tools.usps.com/UspsToolsRestServices/rest/POLocator/findLocations", "@spider": "usps_collection_boxes", "addr:city": "MILL VILLAGE", "addr:country": "US", "addr:postcode": "16427", "addr:state": "PA", "addr:street_address": "14525 S MAIN ST", "amenity": "post_box", "collection_times": "Mo-Fr 11:55; Sa 10:55", "nsi_id": "unitedstatespostalservice-a77078", "operator": "United States Postal Service", "operator:short": "USPS", "operator:type": "public", "operator:wikidata": "Q668687", "ref": "1642700001"}, "type": "Feature"}
{"geometry": {"coordinates": [-79.970815596, 41.875776261], "type": "Point"}, "id": "6JbKYs51PsVfwF8OmmqgutzhYQ4=", "properties": {"@source_uri": "https://tools.usps.com/UspsToolsRestServices/rest/POLocator/findLocations", "@spider": "usps_collection_boxes", "addr:city": "MILL VILLAGE", "addr:country": "US", "addr:postcode": "16427", "addr:state": "PA", "addr:street_address": "14525 S MAIN ST", "amenity": "post_box", "collection_times": "Mo-Fr 11:55; Sa 10:55", "indoor": "yes", "nsi_id": "unitedstatespostalservice-a77078", "operator": "United States Postal Service", "operator:short": "USPS", "operator:type": "public", "operator:wikidata": "Q668687", "ref": "1642700003"}, "type": "Feature"}
{"geometry": {"coordinates": [-79.970815596, 41.875776261], "type": "Point"}, "id": "Unbc4Xp39cxIweSC31O7Ctrndis=", "properties": {"@source_uri": "https://tools.usps.com/UspsToolsRestServices/rest/POLocator/findLocations", "@spider": "usps_collection_boxes", "addr:city": "MILL VILLAGE", "addr:country": "US", "addr:postcode": "16427", "addr:state": "PA", "addr:street_address": "14525 S MAIN ST", "amenity": "post_box", "collection_times": "Mo-Fr 11:55; Sa 10:55", "indoor": "yes", "nsi_id": "unitedstatespostalservice-a77078", "operator": "United States Postal Service", "operator:short": "USPS", "operator:type": "public", "operator:wikidata": "Q668687", "ref": "1642700005"}, "type": "Feature"}
{"geometry": {"coordinates": [-79.8359747, 42.215544], "type": "Point"}, "id": "Jl2DZZZd7rENkocEZqfOTooXYgI=", "properties": {"@source_uri": "https://tools.usps.com/UspsToolsRestServices/rest/POLocator/findLocations", "@spider": "usps_collection_boxes", "addr:city": "NORTH EAST", "addr:country": "US", "addr:postcode": "16428", "addr:state": "PA", "addr:street_address": "31 W MAIN ST", "amenity": "post_box", "collection_times": "Mo-Sa 10:00", "nsi_id": "unitedstatespostalservice-a77078", "operator": "United States Postal Service", "operator:short": "USPS", "operator:type": "public", "operator:wikidata": "Q668687", "ref": "1642800009"}, "type": "Feature"}
{"geometry": {"coordinates": [-79.834937452, 42.214938727], "type": "Point"}, "id": "SvY7Bw14jKQDIUxh06rYoHdhg4o=", "properties": {"@source_uri": "https://tools.usps.com/UspsToolsRestServices/rest/POLocator/findLocations", "@spider": "usps_collection_boxes", "addr:city": "NORTH EAST", "addr:country": "US", "addr:postcode": "16428", "addr:state": "PA", "addr:street_address": "38 S LAKE ST", "amenity": "post_box", "collection_times": "Mo-Fr 17:00; Sa 15:45", "indoor": "yes", "note": "ON 12/24 AND 12/31, THIS BOX MAY BE COLLECTED AS EARLY AS 12 NOON.", "nsi_id": "unitedstatespostalservice-a77078", "operator": "United States Postal Service", "operator:short": "USPS", "operator:type": "public", "operator:wikidata": "Q668687", "ref": "1642800013"}, "type": "Feature"}
{"geometry": {"coordinates": [-79.834937452, 42.214938727], "type": "Point"}, "id": "mZOeACNMSQKVuOSKjBQ1pN4SiNg=", "properties": {"@source_uri": "https://tools.usps.com/UspsToolsRestServices/rest/POLocator/findLocations", "@spider": "usps_collection_boxes", "addr:city": "NORTH EAST", "addr:country": "US", "addr:postcode": "16428", "addr:state": "PA", "addr:street_address": "38 S LAKE ST", "amenity": "post_box", "collection_times": "Mo-Fr 17:00; Sa 15:45", "note": "ON 12/24 AND 12/31, THIS BOX MAY BE COLLECTED AS EARLY AS 12 NOON.", "nsi_id": "unitedstatespostalservice-a77078", "operator": "United States Postal Service", "operator:short": "USPS", "operator:type": "public", "operator:wikidata": "Q668687", "ref": "1642800014"}, "type": "Feature"}
{"geometry": {"coordinates": [-79.834937452, 42.214938727], "type": "Point"}, "id": "knGZUY_-M_qBxfx7C7uvzCVmX2U=", "properties": {"@source_uri": "https://tools.usps.com/UspsToolsRestServices/rest/POLocator/findLocations", "@spider": "usps_collection_boxes", "addr:city": "NORTH EAST", "addr:country": "US", "addr:postcode": "16428", "addr:state": "PA", "addr:street_address": "38 S LAKE ST", "amenity": "post_box", "collection_times": "Mo-Fr 17:00; Sa 15:45", "note": "ON 12/24 AND 12/31, THIS BOX MAY BE COLLECTED AS EARLY AS 12 NOON.", "nsi_id": "unitedstatespostalservice-a77078", "operator": "United States Postal Service", "operator:short": "USPS", "operator:type": "public", "operator:wikidata": "Q668687", "ref": "1642800015"}, "type": "Feature"}
{"geometry": {"coordinates": [-79.834937452, 42.214938727], "type": "Point"}, "id": "y53VrqjRAbgbUrYe0tTPvAW-pIg=", "properties": {"@source_uri": "https://tools.usps.com/UspsToolsRestServices/rest/POLocator/findLocations", "@spider": "usps_collection_boxes", "addr:city": "NORTH EAST", "addr:country": "US", "addr:postcode": "16428", "addr:state": "PA", "addr:street_address": "38 S LAKE ST", "amenity": "post_box", "collection_times": "Mo-Fr 17:00; Sa 12:00", "indoor": "yes", "note": "ON 12/24 AND 12/31, THIS BOX MAY BE COLLECTED AS EARLY AS 12 NOON.", "nsi_id": "unitedstatespostalservice-a77078", "operator": "United States Postal Service", "operator:short": "USPS", "operator:type": "public", "operator:wikidata": "Q668687", "ref": "1642800018"}, "type": "Feature"}
{"geometry": {"coordinates": [-80.14870516, 41.721041779], "type": "Point"}, "id": "ICZ98vjp3XejN2a3JgWJA7yFSfY=", "properties": {"@source_uri": "https://tools.usps.com/UspsToolsRestServices/rest/POLocator/findLocations", "@spider": "usps_collection_boxes", "addr:city": "SAEGERTOWN", "addr:country": "US", "addr:postcode": "16433", "addr:state": "PA", "addr:street_address": "521 MAIN ST", "amenity": "post_box", "collection_times": "Mo-Fr 16:45; Sa 12:00", "note": "ON 12/24 AND 12/31, THIS BOX MAY BE COLLECTED AS EARLY AS 12 NOON.", "nsi_id": "unitedstatespostalservice-a77078", "operator": "United States Postal Service", "operator:short": "USPS", "operator:type": "public", "operator:wikidata": "Q668687", "ref": "1643300001"}, "type": "Feature"}
{"geometry": {"coordinates": [-80.14870516, 41.721041779], "type": "Point"}, "id": "XRCbS7FZblbKSmxmqPQvHcseUwA=", "properties": {"@source_uri": "https://tools.usps.com/UspsToolsRestServices/rest/POLocator/findLocations", "@spider": "usps_collection_boxes", "addr:city": "SAEGERTOWN", "addr:country": "US", "addr:postcode": "16433", "addr:state": "PA", "addr:street_address": "521 MAIN ST", "amenity": "post_box", "collection_times": "Mo-Fr 16:45; Sa 12:00", "indoor": "yes", "note": "ON 12/24 AND 12/31, THIS BOX MAY BE COLLECTED AS EARLY AS 12 NOON.", "nsi_id": "unitedstatespostalservice-a77078", "operator": "United States Postal Service", "operator:short": "USPS", "operator:type": "public", "operator:wikidata": "Q668687", "ref": "1643300003"}, "type": "Feature"}
{"geometry": {"coordinates": [-80.14870516, 41.721041779], "type": "Point"}, "id": "iOdi8khjOHK-zDJIqmjahN3npsE=", "properties": {"@source_uri": "https://tools.usps.com/UspsToolsRestServices/rest/POLocator/findLocations", "@spider": "usps_collection_boxes", "addr:city": "SAEGERTOWN", "addr:country": "US", "addr:postcode": "16433", "addr:state": "PA", "addr:street_address": "521 MAIN ST", "amenity": "post_box", "collection_times": "Mo-Fr 17:00; Sa 12:00", "indoor": "yes", "note": "ON 12/24 AND 12/31, THIS BOX MAY BE COLLECTED AS EARLY AS 12 NOON.", "nsi_id": "unitedstatespostalservice-a77078", "operator": "United States Postal Service", "operator:short": "USPS", "operator:type": "public", "operator:wikidata": "Q668687", "ref": "1643300005"}, "type": "Feature"}
{"geometry": {"coordinates": [-79.688819372, 41.824135585], "type": "Point"}, "id": "ywUYgZ0HO95r_8Iqp1MLRamtalE=", "properties": {"@source_uri": "https://tools.usps.com/UspsToolsRestServices/rest/POLocator/findLocations", "@spider": "usps_collection_boxes", "addr:city": "SPARTANSBURG", "addr:country": "US", "addr:postcode": "16434", "addr:state": "PA", "addr:street_address": "258 MAIN ST", "amenity": "post_box", "collection_times": "Mo-Fr 15:30; Sa 12:00", "note": "ON 12/24 AND 12/31, THIS BOX MAY BE COLLECTED AS EARLY AS 12 NOON.", "nsi_id": "unitedstatespostalservice-a77078", "operator": "United States Postal Service", "operator:short": "USPS", "operator:type": "public", "operator:wikidata": "Q668687", "ref": "1643400001"}, "type": "Feature"}
{"geometry": {"coordinates": [-79.688819372, 41.824135585], "type": "Point"}, "id": "a_zWDWYVjXH41vtVTeOMZ7gTdZE=", "properties": {"@source_uri": "https://tools.usps.com/UspsToolsRestServices/rest/POLocator/findLocations", "@spider": "usps_collection_boxes", "addr:city": "SPARTANSBURG", "addr:country": "US", "addr:postcode": "16434", "addr:state": "PA", "addr:street_address": "258 MAIN ST", "amenity": "post_box", "collection_times": "Mo-Fr 15:30; Sa 12:00", "indoor": "yes", "note": "ON 12/24 AND 12/31, THIS BOX MAY BE COLLECTED AS EARLY AS 12 NOON.", "nsi_id": "unitedstatespostalservice-a77078", "operator": "United States Postal Service", "operator:short": "USPS", "operator:type": "public", "operator:wikidata": "Q668687", "ref": "1643400002"}, "type": "Feature"}
{"geometry": {"coordinates": [-79.688819372, 41.824135585], "type": "Point"}, "id": "FJ1yvLcP-bOjNO2oR833l1d-UEs=", "properties": {"@source_uri": "https://tools.usps.com/UspsToolsRestServices/rest/POLocator/findLocations", "@spider": "usps_collection_boxes", "addr:city": "SPARTANSBURG", "addr:country": "US", "addr:postcode": "16434", "addr:state": "PA", "addr:street_address": "258 MAIN ST", "amenity": "post_box", "collection_times": "Mo-Fr 15:30; Sa 12:00", "indoor": "yes", "note": "ON 12/24 AND 12/31, THIS BOX MAY BE COLLECTED AS EARLY AS 12 NOON.", "nsi_id": "unitedstatespostalservice-a77078", "operator": "United States Postal Service", "operator:short": "USPS", "operator:type": "public", "operator:wikidata": "Q668687", "ref": "1643400005"}, "type": "Feature"}
{"geometry": {"coordinates": [-80.369831859, 41.800471224], "type": "Point"}, "id": "vsHY3dyASFtxgHn2r4AWtyXixRY=", "properties": {"@source_uri": "https://tools.usps.com/UspsToolsRestServices/rest/POLocator/findLocations", "@spider": "usps_collection_boxes", "addr:city": "SPRINGBORO", "addr:country": "US", "addr:postcode": "16435", "addr:state": "PA", "addr:street_address": "111 BEAVER ST", "amenity": "post_box", "collection_times": "Mo-Fr 15:30; Sa 11:45", "note": "ON 12/24 AND 12/31, THIS BOX MAY BE COLLECTED AS EARLY AS 12 NOON.", "nsi_id": "unitedstatespostalservice-a77078", "operator": "United States Postal Service", "operator:short": "USPS", "operator:type": "public", "operator:wikidata": "Q668687", "ref": "1643500001"}, "type": "Feature"}
{"geometry": {"coordinates": [-80.369831859, 41.800471224], "type": "Point"}, "id": "iLXTF796T0ItsWHjRTTwnVZNoaY=", "properties": {"@source_uri": "https://tools.usps.com/UspsToolsRestServices/rest/POLocator/findLocations", "@spider": "usps_collection_boxes", "addr:city": "SPRINGBORO", "addr:country": "US", "addr:postcode": "16435", "addr:state": "PA", "addr:street_address": "111 BEAVER ST", "amenity": "post_box", "collection_times": "Mo-Fr 15:30; Sa 11:45", "indoor": "yes", "note": "ON 12/24 AND 12/31, THIS BOX MAY BE COLLECTED AS EARLY AS 12 NOON.", "nsi_id": "unitedstatespostalservice-a77078", "operator": "United States Postal Service", "operator:short": "USPS", "operator:type": "public", "operator:wikidata": "Q668687", "ref": "1643500003"}, "type": "Feature"}
{"geometry": {"coordinates": [-80.369831859, 41.800471224], "type": "Point"}, "id": "QIC6sDMsvc7QIciDHd6mo6J66uQ=", "properties": {"@source_uri": "https://tools.usps.com/UspsToolsRestServices/rest/POLocator/findLocations", "@spider": "usps_collection_boxes", "addr:city": "SPRINGBORO", "addr:country": "US", "addr:postcode": "16435", "addr:state": "PA", "addr:street_address": "111 BEAVER ST", "amenity": "post_box", "collection_times": "Mo-Fr 15:30; Sa 11:30", "indoor": "yes", "note": "ON 12/24 AND 12/31, THIS BOX MAY BE COLLECTED AS EARLY AS 12 NOON.", "nsi_id": "unitedstatespostalservice-a77078", "operator": "United States Postal Service", "operator:short": "USPS", "operator:type": "public", "operator:wikidata": "Q668687", "ref": "1643500005"}, "type": "Feature"}
{"geometry": {"coordinates": [-79.528066278, 41.87442728], "type": "Point"}, "id": "30-AO0F3E9BKiTCs3g0RiHQdD0M=", "properties": {"@source_uri": "https://tools.usps.com/UspsToolsRestServices/rest/POLocator/findLocations", "@spider": "usps_collection_boxes", "addr:city": "SPRING CREEK", "addr:country": "US", "addr:postcode": "16436", "addr:state": "PA", "addr:street_address": "185 OLD ROUTE 77", "amenity": "post_box", "collection_times": "Mo-Fr 11:55; Sa 10:45", "nsi_id": "unitedstatespostalservice-a77078", "operator": "United States Postal Service", "operator:short": "USPS", "operator:type": "public", "operator:wikidata": "Q668687", "ref": "1643600001"}, "type": "Feature"}
{"geometry": {"coordinates": [-79.528066278, 41.87442728], "type": "Point"}, "id": "nOxvk5Pa74xoXDM-8w6hmD-N7X4=", "properties": {"@source_uri": "https://tools.usps.com/UspsToolsRestServices/rest/POLocator/findLocations", "@spider": "usps_collection_boxes", "addr:city": "SPRING CREEK", "addr:country": "US", "addr:postcode": "16436", "addr:state": "PA", "addr:street_address": "185 OLD ROUTE 77", "amenity": "post_box", "collection_times": "Mo-Fr 11:55; Sa 10:45", "indoor": "yes", "nsi_id": "unitedstatespostalservice-a77078", "operator": "United States Postal Service", "operator:short": "USPS", "operator:type": "public", "operator:wikidata": "Q668687", "ref": "1643600003"}, "type": "Feature"}
{"geometry": {"coordinates": [-79.528066278, 41.87442728], "type": "Point"}, "id": "-OWLLBCab_EjkYZIgLPzQJKj4zY=", "properties": {"@source_uri": "https://tools.usps.com/UspsToolsRestServices/rest/POLocator/findLocations", "@spider": "usps_collection_boxes", "addr:city": "SPRING CREEK", "addr:country": "US", "addr:postcode": "16436", "addr:state": "PA", "addr:street_address": "185 OLD ROUTE 77", "amenity": "post_box", "collection_times": "Mo-Fr 11:55; Sa 10:40", "indoor": "yes", "nsi_id": "unitedstatespostalservice-a77078", "operator": "United States Postal Service", "operator:short": "USPS", "operator:type": "public", "operator:wikidata": "Q668687", "ref": "1643600005"}, "type": "Feature"}
{"geometry": {"coordinates": [-79.8488938, 41.89372], "type": "Point"}, "id": "XiaBQVblu1A5ClvnDNgcb7b7Yr4=", "properties": {"@source_uri": "https://tools.usps.com/UspsToolsRestServices/rest/POLocator/findLocations", "@spider": "usps_collection_boxes", "addr:city": "UNION CITY", "addr:country": "US", "addr:postcode": "16438", "addr:state": "PA", "addr:street_address": "9 PARADE ST", "amenity": "post_box", "collection_times": "Mo-Sa 10:30", "nsi_id": "unitedstatespostalservice-a77078", "operator": "United States Postal Service", "operator:short": "USPS", "operator:type": "public", "operator:wikidata": "Q668687", "ref": "1643800002"}, "type": "Feature"}
{"geometry": {"coordinates": [-79.8442249, 41.900197], "type": "Point"}, "id": "K2IqDtr4gwBL9mS59fMEZdghZdc=", "properties": {"@source_uri": "https://tools.usps.com/UspsToolsRestServices/rest/POLocator/findLocations", "@spider": "usps_collection_boxes", "addr:city": "UNION CITY", "addr:country": "US", "addr:postcode": "16438", "addr:state": "PA", "addr:street_address": "19 E HIGH ST", "amenity": "post_box", "collection_times": "Mo-Sa 10:00", "nsi_id": "unitedstatespostalservice-a77078", "operator": "United States Postal Service", "operator:short": "USPS", "operator:type": "public", "operator:wikidata": "Q668687", "ref": "1643800005"}, "type": "Feature"}
{"geometry": {"coordinates": [-79.845528425, 41.90339196], "type": "Point"}, "id": "rUTA9qdH7FQLB8YkFfoAH1NxW0E=", "properties": {"@source_uri": "https://tools.usps.com/UspsToolsRestServices/rest/POLocator/findLocations", "@spider": "usps_collection_boxes", "addr:city": "UNION CITY", "addr:country": "US", "addr:postcode": "16438", "addr:state": "PA", "addr:street_address": "90 N MAIN ST", "amenity": "post_box", "collection_times": "Mo-Fr 17:00; Sa 16:00", "note": "ON 12/24 AND 12/31, THIS BOX MAY BE COLLECTED AS EARLY AS 12 NOON.", "nsi_id": "unitedstatespostalservice-a77078", "operator": "United States Postal Service", "operator:short": "USPS", "operator:type": "public", "operator:wikidata": "Q668687", "ref": "1643800010"}, "type": "Feature"}
{"geometry": {"coordinates": [-79.845528425, 41.90339196], "type": "Point"}, "id": "uxDr81T-mtU_uipxGbxU52lXSzA=", "properties": {"@source_uri": "https://tools.usps.com/UspsToolsRestServices/rest/POLocator/findLocations", "@spider": "usps_collection_boxes", "addr:city": "UNION CITY", "addr:country": "US", "addr:postcode": "16438", "addr:state": "PA", "addr:street_address": "90 N MAIN ST", "amenity": "post_box", "collection_times": "Mo-Fr 17:00; Sa 16:00", "indoor": "yes", "note": "ON 12/24 AND 12/31, THIS BOX MAY BE COLLECTED AS EARLY AS 12 NOON.", "nsi_id": "unitedstatespostalservice-a77078", "operator": "United States Postal Service", "operator:short": "USPS", "operator:type": "public", "operator:wikidata": "Q668687", "ref": "1643800015"}, "type": "Feature"}
{"geometry": {"coordinates": [-79.8400637, 41.803261], "type": "Point"}, "id": "M9WFEIZFm_Pf6bfu--0aA-KvHnY=", "properties": {"@source_uri": "https://tools.usps.com/UspsToolsRestServices/rest/POLocator/findLocations", "@spider": "usps_collection_boxes", "addr:city": "UNION CITY", "addr:country": "US", "addr:postcode": "16438", "addr:state": "PA", "addr:street_address": "35733 DANNER DR", "amenity": "post_box", "collection_times": "Mo-Sa 10:00", "nsi_id": "unitedstatespostalservice-a77078", "operator": "United States Postal Service", "operator:short": "USPS", "operator:type": "public", "operator:wikidata": "Q668687", "ref": "1643800016"}, "type": "Feature"}
{"geometry": {"coordinates": [-79.845528425, 41.90339196], "type": "Point"}, "id": "X0U70T9JnU7hWCzEee2gDMG-rD8=", "properties": {"@source_uri": "https://tools.usps.com/UspsToolsRestServices/rest/POLocator/findLocations", "@spider": "usps_collection_boxes", "addr:city": "UNION CITY", "addr:country": "US", "addr:postcode": "16438", "addr:state": "PA", "addr:street_address": "90 N MAIN ST", "amenity": "post_box", "collection_times": "Mo-Fr 17:00; Sa 12:00", "indoor": "yes", "note": "ON 12/24 AND 12/31, THIS BOX MAY BE COLLECTED AS EARLY AS 12 NOON.", "nsi_id": "unitedstatespostalservice-a77078", "operator": "United States Postal Service", "operator:short": "USPS", "operator:type": "public", "operator:wikidata": "Q668687", "ref": "1643800018"}, "type": "Feature"}
{"geometry": {"coordinates": [-80.111824829, 41.772716758], "type": "Point"}, "id": "oKCcODgxYnWDS3oF2xp0eK67vVo=", "properties": {"@source_uri": "https://tools.usps.com/UspsToolsRestServices/rest/POLocator/findLocations", "@spider": "usps_collection_boxes", "addr:city": "VENANGO", "addr:country": "US", "addr:postcode": "16440", "addr:state": "PA", "addr:street_address": "21663 CUSSEWAGO ST", "amenity": "post_box", "collection_times": "Mo-Fr 11:25; Sa 11:15", "nsi_id": "unitedstatespostalservice-a77078", "operator": "United States Postal Service", "operator:short": "USPS", "operator:type": "public", "operator:wikidata": "Q668687", "ref": "1644000001"}, "type": "Feature"}
{"geometry": {"coordinates": [-80.111824829, 41.772716758], "type": "Point"}, "id": "MThVB-e2QTycuVyJ11GmXqbGHnc=", "properties": {"@source_uri": "https://tools.usps.com/UspsToolsRestServices/rest/POLocator/findLocations", "@spider": "usps_collection_boxes", "addr:city": "VENANGO", "addr:country": "US", "addr:postcode": "16440", "addr:state": "PA", "addr:street_address": "21663 CUSSEWAGO ST", "amenity": "post_box", "collection_times": "Mo-Fr 11:25; Sa 11:15", "indoor": "yes", "nsi_id": "unitedstatespostalservice-a77078", "operator": "United States Postal Service", "operator:short": "USPS", "operator:type": "public", "operator:wikidata": "Q668687", "ref": "1644000003"}, "type": "Feature"}
{"geometry": {"coordinates": [-80.111824829, 41.772716758], "type": "Point"}, "id": "3kJm6OlyA2y_wgEXcP5RTMyfekI=", "properties": {"@source_uri": "https://tools.usps.com/UspsToolsRestServices/rest/POLocator/findLocations", "@spider": "usps_collection_boxes", "addr:city": "VENANGO", "addr:country": "US", "addr:postcode": "16440", "addr:state": "PA", "addr:street_address": "21663 CUSSEWAGO ST", "amenity": "post_box", "collection_times": "Mo-Sa 11:25", "indoor": "yes", "nsi_id": "unitedstatespostalservice-a77078", "operator": "United States Postal Service", "operator:short": "USPS", "operator:type": "public", "operator:wikidata": "Q668687", "ref": "1644000005"}, "type": "Feature"}
{"geometry": {"coordinates": [-79.983084423, 41.94070685], "type": "Point"}, "id": "fQb2Qfg4gP8CFEGvDDjzicZLKoI=", "properties": {"@source_uri": "https://tools.usps.com/UspsToolsRestServices/rest/POLocator/findLocations", "@spider": "usps_collection_boxes", "addr:city": "WATERFORD", "addr:country": "US", "addr:postcode": "16441", "addr:state": "PA", "addr:street_address": "101 HIGH ST", "amenity": "post_box", "collection_times": "Mo-Fr 17:00; Sa 16:30", "note": "ON 12/24 AND 12/31, THIS BOX MAY BE COLLECTED AS EARLY AS 12 NOON.", "nsi_id": "unitedstatespostalservice-a77078", "operator": "United States Postal Service", "operator:short": "USPS", "operator:type": "public", "operator:wikidata": "Q668687", "ref": "1644100001"}, "type": "Feature"}
{"geometry": {"coordinates": [-79.983084423, 41.94070685], "type": "Point"}, "id": "Ug8Pv534wZsPv5EZt53HXSTvhU8=", "properties": {"@source_uri": "https://tools.usps.com/UspsToolsRestServices/rest/POLocator/findLocations", "@spider": "usps_collection_boxes", "addr:city": "WATERFORD", "addr:country": "US", "addr:postcode": "16441", "addr:state": "PA", "addr:street_address": "101 HIGH ST", "amenity": "post_box", "collection_times": "Mo-Fr 17:00; Sa 16:30", "indoor": "yes", "note": "ON 12/24 AND 12/31, THIS BOX MAY BE COLLECTED AS EARLY AS 12 NOON.", "nsi_id": "unitedstatespostalservice-a77078", "operator": "United States Postal Service", "operator:short": "USPS", "operator:type": "public", "operator:wikidata": "Q668687", "ref": "1644100002"}, "type": "Feature"}
{"geometry": {"coordinates": [-79.9856568, 41.944334], "type": "Point"}, "id": "ntn-z_E8Xt5ZX7Qi3kPPZEsr9JY=", "properties": {"@source_uri": "https://tools.usps.com/UspsToolsRestServices/rest/POLocator/findLocations", "@spider": "usps_collection_boxes", "addr:city": "WATERFORD", "addr:country": "US", "addr:postcode": "16441", "addr:state": "PA", "addr:street_address": "430 HIGH ST", "amenity": "post_box", "collection_times": "Mo-Sa 10:30", "nsi_id": "unitedstatespostalservice-a77078", "operator": "United States Postal Service", "operator:short": "USPS", "operator:type": "public", "operator:wikidata": "Q668687", "ref": "1644100003"}, "type": "Feature"}
{"geometry": {"coordinates": [-79.983084423, 41.94070685], "type": "Point"}, "id": "Uf2rGHbogtlviKcATDQfCl70f8I=", "properties": {"@source_uri": "https://tools.usps.com/UspsToolsRestServices/rest/POLocator/findLocations", "@spider": "usps_collection_boxes", "addr:city": "WATERFORD", "addr:country": "US", "addr:postcode": "16441", "addr:state": "PA", "addr:street_address": "101 HIGH ST", "amenity": "post_box", "collection_times": "Mo-Fr 17:00; Sa 12:00", "indoor": "yes", "note": "ON 12/24 AND 12/31, THIS BOX MAY BE COLLECTED AS EARLY AS 12 NOON.", "nsi_id": "unitedstatespostalservice-a77078", "operator": "United States Postal Service", "operator:short": "USPS", "operator:type": "public", "operator:wikidata": "Q668687", "ref": "1644100006"}, "type": "Feature"}
{"geometry": {"coordinates": [-79.810906984, 42.002784], "type": "Point"}, "id": "Qg2X_6LHBqpbQbywk_foyT9W8oE=", "properties": {"@source_uri": "https://tools.usps.com/UspsToolsRestServices/rest/POLocator/findLocations", "@spider": "usps_collection_boxes", "addr:city": "WATTSBURG", "addr:country": "US", "addr:postcode": "16442", "addr:state": "PA", "addr:street_address": "14410 MAIN ST", "amenity": "post_box", "collection_times": "Mo-Fr 16:45; Sa 11:45", "note": "ON 12/24 AND 12/31, THIS BOX MAY BE COLLECTED AS EARLY AS 12 NOON.", "nsi_id": "unitedstatespostalservice-a77078", "operator": "United States Postal Service", "operator:short": "USPS", "operator:type": "public", "operator:wikidata": "Q668687", "ref": "1644200001"}, "type": "Feature"}
{"geometry": {"coordinates": [-79.810906984, 42.002784], "type": "Point"}, "id": "B2gEijM8M0xL3Cglq3Itp6UmRg0=", "properties": {"@source_uri": "https://tools.usps.com/UspsToolsRestServices/rest/POLocator/findLocations", "@spider": "usps_collection_boxes", "addr:city": "WATTSBURG", "addr:country": "US", "addr:postcode": "16442", "addr:state": "PA", "addr:street_address": "14410 MAIN ST", "amenity": "post_box", "collection_times": "Mo-Fr 16:45; Sa 11:45", "indoor": "yes", "note": "ON 12/24 AND 12/31, THIS BOX MAY BE COLLECTED AS EARLY AS 12 NOON.", "nsi_id": "unitedstatespostalservice-a77078", "operator": "United States Postal Service", "operator:short": "USPS", "operator:type": "public", "operator:wikidata": "Q668687", "ref": "1644200003"}, "type": "Feature"}
{"geometry": {"coordinates": [-79.810906984, 42.002784], "type": "Point"}, "id": "XxGZ-d9eDQSo-x0KvqJqLPpUB0w=", "properties": {"@source_uri": "https://tools.usps.com/UspsToolsRestServices/rest/POLocator/findLocations", "@spider": "usps_collection_boxes", "addr:city": "WATTSBURG", "addr:country": "US", "addr:postcode": "16442", "addr:state": "PA", "addr:street_address": "14410 MAIN ST", "amenity": "post_box", "collection_times": "Mo-Fr 16:30; Sa 11:30", "indoor": "yes", "note": "ON 12/24 AND 12/31, THIS BOX MAY BE COLLECTED AS EARLY AS 12 NOON.", "nsi_id": "unitedstatespostalservice-a77078", "operator": "United States Postal Service", "operator:short": "USPS", "operator:type": "public", "operator:wikidata": "Q668687", "ref": "1644200005"}, "type": "Feature"}
{"geometry": {"coordinates": [-80.473749426, 41.946197793], "type": "Point"}, "id": "yO5U3gtrMGDAAcZJWyUZTYZiIQI=", "properties": {"@source_uri": "https://tools.usps.com/UspsToolsRestServices/rest/POLocator/findLocations", "@spider": "usps_collection_boxes", "addr:city": "WEST SPRINGFIELD", "addr:country": "US", "addr:postcode": "16443", "addr:state": "PA", "addr:street_address": "13788 RIDGE RD", "amenity": "post_box", "collection_times": "Mo-Fr 11:55; Sa 10:45", "nsi_id": "unitedstatespostalservice-a77078", "operator": "United States Postal Service", "operator:short": "USPS", "operator:type": "public", "operator:wikidata": "Q668687", "ref": "1644300001"}, "type": "Feature"}
{"geometry": {"coordinates": [-80.473749426, 41.946197793], "type": "Point"}, "id": "PTCz411P8SWAhJVIEfJl9YvTUaQ=", "properties": {"@source_uri": "https://tools.usps.com/UspsToolsRestServices/rest/POLocator/findLocations", "@spider": "usps_collection_boxes", "addr:city": "WEST SPRINGFIELD", "addr:country": "US", "addr:postcode": "16443", "addr:state": "PA", "addr:street_address": "13788 RIDGE RD", "amenity": "post_box", "collection_times": "Mo-Fr 11:55; Sa 10:45", "indoor": "yes", "nsi_id": "unitedstatespostalservice-a77078", "operator": "United States Postal Service", "operator:short": "USPS", "operator:type": "public", "operator:wikidata": "Q668687", "ref": "1644300003"}, "type": "Feature"}
{"geometry": {"coordinates": [-80.473749426, 41.946197793], "type": "Point"}, "id": "mZcTbrsyai2BmjpYngnddjDQFKM=", "properties": {"@source_uri": "https://tools.usps.com/UspsToolsRestServices/rest/POLocator/findLocations", "@spider": "usps_collection_boxes", "addr:city": "WEST SPRINGFIELD", "addr:country": "US", "addr:postcode": "16443", "addr:state": "PA", "addr:street_address": "13788 RIDGE RD", "amenity": "post_box", "collection_times": "Mo-Fr 11:55; Sa 11:25", "indoor": "yes", "nsi_id": "unitedstatespostalservice-a77078", "operator": "United States Postal Service", "operator:short": "USPS", "operator:type": "public", "operator:wikidata": "Q668687", "ref": "1644300006"}, "type": "Feature"}
