{"geometry": {"coordinates": [-80.0889247, 42.12941], "type": "Point"}, "id": "UaYwtgkbwPqIB327GgFrn28H_f4=", "properties": {"@source_uri": "https://tools.usps.com/UspsToolsRestServices/rest/POLocator/findLocations", "@spider": "usps_collection_boxes", "addr:city": "ERIE", "addr:country": "US", "addr:postcode": "16501", "addr:state": "PA", "addr:street_address": "150 W 5TH ST", "amenity": "post_box", "collection_times": "Mo-Fr 09:00", "nsi_id": "unitedstatespostalservice-a77078", "operator": "United States Postal Service", "operator:short": "USPS", "operator:type": "public", "operator:wikidata": "Q668687", "ref": "1650100004"}, "type": "Feature"}
{"geometry": {"coordinates": [-80.0832034, 42.126654], "type": "Point"}, "id": "6T88V1_Vm34D_UIXERo-Y0blj9I=", "properties": {"@source_uri": "https://tools.usps.com/UspsToolsRestServices/rest/POLocator/findLocations", "@spider": "usps_collection_boxes", "addr:city": "ERIE", "addr:country": "US", "addr:postcode": "16501", "addr:state": "PA", "addr:street_address": "2 E 9TH ST", "amenity": "post_box", "collection_times": "Mo-Sa 12:30", "note": "ON 12/24 AND 12/31, THIS BOX MAY BE COLLECTED AS EARLY AS 12 NOON.", "nsi_id": "unitedstatespostalservice-a77078", "operator": "United States Postal Service", "operator:short": "USPS", "operator:type": "public", "operator:wikidata": "Q668687", "ref": "1650100013"}, "type": "Feature"}
{"geometry": {"coordinates": [-80.0820307, 42.124422], "type": "Point"}, "id": "_6yItUicLnWm25ms9oFIRS10iU8=", "properties": {"@source_uri": "https://tools.usps.com/UspsToolsRestServices/rest/POLocator/findLocations", "@spider": "usps_collection_boxes", "addr:city": "ERIE", "addr:country": "US", "addr:postcode": "16501", "addr:state": "PA", "addr:street_address": "1100 STATE ST", "amenity": "post_box", "collection_times": "Mo-Sa 09:00", "nsi_id": "unitedstatespostalservice-a77078", "operator": "United States Postal Service", "operator:short": "USPS", "operator:type": "public", "operator:wikidata": "Q668687", "ref": "1650100031"}, "type": "Feature"}
{"geometry": {"coordinates": [-80.0798692, 42.119411], "type": "Point"}, "id": "h66ouUc4Pb9FErHNCbLvTfhScLE=", "properties": {"@source_uri": "https://tools.usps.com/UspsToolsRestServices/rest/POLocator/findLocations", "@spider": "usps_collection_boxes", "addr:city": "ERIE", "addr:country": "US", "addr:postcode": "16501", "addr:state": "PA", "addr:street_address": "1611 PEACH ST", "amenity": "post_box", "collection_times": "Mo-Sa 09:00", "nsi_id": "unitedstatespostalservice-a77078", "operator": "United States Postal Service", "operator:short": "USPS", "operator:type": "public", "operator:wikidata": "Q668687", "ref": "1650100043"}, "type": "Feature"}
{"geometry": {"coordinates": [-80.079924948, 42.121504371], "type": "Point"}, "id": "zieCiX8ZCVsGllYQ-5PtM3WrDnM=", "properties": {"@source_uri": "https://tools.usps.com/UspsToolsRestServices/rest/POLocator/findLocations", "@spider": "usps_collection_boxes", "addr:city": "ERIE", "addr:country": "US", "addr:postcode": "16501", "addr:state": "PA", "addr:street_address": "1401 STATE ST", "amenity": "post_box", "collection_times": "Mo-Fr 16:15; Sa 12:00", "note": "ON 12/24 AND 12/31, THIS BOX MAY BE COLLECTED AS EARLY AS 12 NOON.", "nsi_id": "unitedstatespostalservice-a77078", "operator": "United States Postal Service", "operator:short": "USPS", "operator:type": "public", "operator:wikidata": "Q668687", "ref": "1650100052"}, "type": "Feature"}
{"geometry": {"coordinates": [-80.0825366, 42.125414], "type": "Point"}, "id": "8jr3IeIsUb8qeKI1kp1Z1hga6CQ=", "properties": {"@source_uri": "https://tools.usps.com/UspsToolsRestServices/rest/POLocator/findLocations", "@spider": "usps_collection_boxes", "addr:city": "ERIE", "addr:country": "US", "addr:postcode": "16501", "addr:state": "PA", "addr:street_address": "1001 STATE ST", "amenity": "post_box", "collection_times": "Mo-Sa 09:00", "nsi_id": "unitedstatespostalservice-a77078", "operator": "United States Postal Service", "operator:short": "USPS", "operator:type": "public", "operator:wikidata": "Q668687", "ref": "1650100066"}, "type": "Feature"}
{"geometry": {"coordinates": [-80.079943, 42.121516], "type": "Point"}, "id": "0jq0gIniQ4ubNwoSvrOwg-Pz0T4=", "properties": {"@source_uri": "https://tools.usps.com/UspsToolsRestServices/rest/POLocator/findLocations", "@spider": "usps_collection_boxes", "addr:city": "ERIE", "addr:country": "US", "addr:postcode": "16501", "addr:state": "PA", "addr:street_address": "1401 STATE ST", "amenity": "post_box", "collection_times": "Mo-Fr 16:15; Sa 11:45", "indoor": "yes", "note": "ON 12/24 AND 12/31, THIS BOX MAY BE COLLECTED AS EARLY AS 12 NOON.", "nsi_id": "unitedstatespostalservice-a77078", "operator": "United States Postal Service", "operator:short": "USPS", "operator:type": "public", "operator:wikidata": "Q668687", "ref": "1650100068"}, "type": "Feature"}
{"geometry": {"coordinates": [-80.0844761, 42.128306], "type": "Point"}, "id": "0L6JerDRwLJ3wKnKu82uDpGz6nI=", "properties": {"@source_uri": "https://tools.usps.com/UspsToolsRestServices/rest/POLocator/findLocations", "@spider": "usps_collection_boxes", "addr:city": "ERIE", "addr:country": "US", "addr:postcode": "16501", "addr:state": "PA", "addr:street_address": "703 STATE ST", "amenity": "post_box", "collection_times": "Mo-Fr 15:15", "note": "ON 12/24 AND 12/31, THIS BOX MAY BE COLLECTED AS EARLY AS 12 NOON.", "nsi_id": "unitedstatespostalservice-a77078", "operator": "United States Postal Service", "operator:short": "USPS", "operator:type": "public", "operator:wikidata": "Q668687", "ref": "1650100071"}, "type": "Feature"}
{"geometry": {"coordinates": [-80.0876053, 42.126256], "type": "Point"}, "id": "tS04Pk9oVzyluBlB4Q2KIdXJBYs=", "properties": {"@source_uri": "https://tools.usps.com/UspsToolsRestServices/rest/POLocator/findLocations", "@spider": "usps_collection_boxes", "addr:city": "ERIE", "addr:country": "US", "addr:postcode": "16501", "addr:state": "PA", "addr:street_address": "160 W 8TH ST", "amenity": "post_box", "collection_times": "Mo-Sa 12:30", "note": "ON 12/24 AND 12/31, THIS BOX MAY BE COLLECTED AS EARLY AS 12 NOON.", "nsi_id": "unitedstatespostalservice-a77078", "operator": "United States Postal Service", "operator:short": "USPS", "operator:type": "public", "operator:wikidata": "Q668687", "ref": "1650100072"}, "type": "Feature"}
{"geometry": {"coordinates": [-80.079924948, 42.121504371], "type": "Point"}, "id": "53kUIU2Nu8Sb9YE6czNcgPRAJFw=", "properties": {"@source_uri": "https://tools.usps.com/UspsToolsRestServices/rest/POLocator/findLocations", "@spider": "usps_collection_boxes", "addr:city": "ERIE", "addr:country": "US", "addr:postcode": "16501", "addr:state": "PA", "addr:street_address": "1401 STATE ST", "amenity": "post_box", "collection_times": "Mo-Fr 17:00; Sa 11:45", "indoor": "yes", "note": "ON 12/24 AND 12/31, THIS BOX MAY BE COLLECTED AS EARLY AS 12 NOON.", "nsi_id": "unitedstatespostalservice-a77078", "operator": "United States Postal Service", "operator:short": "USPS", "operator:type": "public", "operator:wikidata": "Q668687", "ref": "1650100073"}, "type": "Feature"}
{"geometry": {"coordinates": [-80.1085572, 42.120981], "type": "Point"}, "id": "P0Ly8CaMMEgeRF_UfE1wr8uLEF0=", "properties": {"@source_uri": "https://tools.usps.com/UspsToolsRestServices/rest/POLocator/findLocations", "@spider": "usps_collection_boxes", "addr:city": "ERIE", "addr:country": "US", "addr:postcode": "16502", "addr:state": "PA", "addr:street_address": "1102 W 6TH ST", "amenity": "post_box", "collection_times": "Mo-Sa 10:00", "nsi_id": "unitedstatespostalservice-a77078", "operator": "United States Postal Service", "operator:short": "USPS", "operator:type": "public", "operator:wikidata": "Q668687", "ref": "1650200005"}, "type": "Feature"}
{"geometry": {"coordinates": [-80.1130542, 42.114435], "type": "Point"}, "id": "GmiT2qD044_7SdbMNcIpw9bxCK4=", "properties": {"@source_uri": "https://tools.usps.com/UspsToolsRestServices/rest/POLocator/findLocations", "@spider": "usps_collection_boxes", "addr:city": "ERIE", "addr:country": "US", "addr:postcode": "16502", "addr:state": "PA", "addr:street_address": "1402 W 10TH ST", "amenity": "post_box", "collection_times": "Mo-Sa 13:00", "note": "ON 12/24 AND 12/31, THIS BOX MAY BE COLLECTED AS EARLY AS 12 NOON.", "nsi_id": "unitedstatespostalservice-a77078", "operator": "United States Postal Service", "operator:short": "USPS", "operator:type": "public", "operator:wikidata": "Q668687", "ref": "1650200012"}, "type": "Feature"}
{"geometry": {"coordinates": [-80.0898873, 42.115928], "type": "Point"}, "id": "jk1a-2w5yee_xdz8EPcGeiWtsCI=", "properties": {"@source_uri": "https://tools.usps.com/UspsToolsRestServices/rest/POLocator/findLocations", "@spider": "usps_collection_boxes", "addr:city": "ERIE", "addr:country": "US", "addr:postcode": "16502", "addr:state": "PA", "addr:street_address": "1602 WALNUT ST", "amenity": "post_box", "collection_times": "Mo-Sa 09:00", "nsi_id": "unitedstatespostalservice-a77078", "operator": "United States Postal Service", "operator:short": "USPS", "operator:type": "public", "operator:wikidata": "Q668687", "ref": "1650200018"}, "type": "Feature"}
{"geometry": {"coordinates": [-80.0785739, 42.112279], "type": "Point"}, "id": "wwcJ2YWwXjLIrfi5dohiiyOjL58=", "properties": {"@source_uri": "https://tools.usps.com/UspsToolsRestServices/rest/POLocator/findLocations", "@spider": "usps_collection_boxes", "addr:city": "ERIE", "addr:country": "US", "addr:postcode": "16502", "addr:state": "PA", "addr:street_address": "2314 SASSAFRAS ST", "amenity": "post_box", "collection_times": "Mo-Sa 09:00", "nsi_id": "unitedstatespostalservice-a77078", "operator": "United States Postal Service", "operator:short": "USPS", "operator:type": "public", "operator:wikidata": "Q668687", "ref": "1650200021"}, "type": "Feature"}
{"geometry": {"coordinates": [-80.1167905205, 42.1153755148], "type": "Point"}, "id": "Bhe2Adt0ewAf99PqAETpdmpKxpU=", "properties": {"@source_uri": "https://tools.usps.com/UspsToolsRestServices/rest/POLocator/findLocations", "@spider": "usps_collection_boxes", "addr:city": "ERIE", "addr:country": "US", "addr:postcode": "16502", "addr:state": "PA", "addr:street_address": "1449 W 8TH ST", "amenity": "post_box", "collection_times": "Mo-Sa 10:00", "nsi_id": "unitedstatespostalservice-a77078", "operator": "United States Postal Service", "operator:short": "USPS", "operator:type": "public", "operator:wikidata": "Q668687", "ref": "1650200022"}, "type": "Feature"}
{"geometry": {"coordinates": [-80.0792004, 42.110976], "type": "Point"}, "id": "TtX7ATcN2CvQEHD8qj1x-uREb_w=", "properties": {"@source_uri": "https://tools.usps.com/UspsToolsRestServices/rest/POLocator/findLocations", "@spider": "usps_collection_boxes", "addr:city": "ERIE", "addr:country": "US", "addr:postcode": "16502", "addr:state": "PA", "addr:street_address": "225 W 25TH ST", "amenity": "post_box", "collection_times": "Mo-Fr 16:15; Sa 12:45", "note": "ON 12/24 AND 12/31, THIS BOX MAY BE COLLECTED AS EARLY AS 12 NOON.", "nsi_id": "unitedstatespostalservice-a77078", "operator": "United States Postal Service", "operator:short": "USPS", "operator:type": "public", "operator:wikidata": "Q668687", "ref": "1650200023"}, "type": "Feature"}
{"geometry": {"coordinates": [-80.0989814, 42.10667], "type": "Point"}, "id": "4Wa7XiNltlDWYZO6Xn5Jww_T1oI=", "properties": {"@source_uri": "https://tools.usps.com/UspsToolsRestServices/rest/POLocator/findLocations", "@spider": "usps_collection_boxes", "addr:city": "ERIE", "addr:country": "US", "addr:postcode": "16502", "addr:state": "PA", "addr:street_address": "2198 RASPBERRY ST", "amenity": "post_box", "collection_times": "Mo-Sa 10:00", "nsi_id": "unitedstatespostalservice-a77078", "operator": "United States Postal Service", "operator:short": "USPS", "operator:type": "public", "operator:wikidata": "Q668687", "ref": "1650200028"}, "type": "Feature"}
{"geometry": {"coordinates": [-80.0945804, 42.109278], "type": "Point"}, "id": "3402c9ootimmCrkj7-eEgsqWwyU=", "properties": {"@source_uri": "https://tools.usps.com/UspsToolsRestServices/rest/POLocator/findLocations", "@spider": "usps_collection_boxes", "addr:city": "ERIE", "addr:country": "US", "addr:postcode": "16502", "addr:state": "PA", "addr:street_address": "897 BROWN AVE", "amenity": "post_box", "collection_times": "Mo-Sa 10:00", "nsi_id": "unitedstatespostalservice-a77078", "operator": "United States Postal Service", "operator:short": "USPS", "operator:type": "public", "operator:wikidata": "Q668687", "ref": "1650200029"}, "type": "Feature"}
{"geometry": {"coordinates": [-80.0998563, 42.119334], "type": "Point"}, "id": "zXfqhE5S1Aut8fKse8j101fPWio=", "properties": {"@source_uri": "https://tools.usps.com/UspsToolsRestServices/rest/POLocator/findLocations", "@spider": "usps_collection_boxes", "addr:city": "ERIE", "addr:country": "US", "addr:postcode": "16502", "addr:state": "PA", "addr:street_address": "998 LIBERTY ST", "amenity": "post_box", "collection_times": "Mo-Sa 14:00", "note": "ON 12/24 AND 12/31, THIS BOX MAY BE COLLECTED AS EARLY AS 12 NOON.", "nsi_id": "unitedstatespostalservice-a77078", "operator": "United States Postal Service", "operator:short": "USPS", "operator:type": "public", "operator:wikidata": "Q668687", "ref": "1650200032"}, "type": "Feature"}
{"geometry": {"coordinates": [-80.0813081, 42.111039], "type": "Point"}, "id": "D88GT6iX_NhNcATytOcjCzEYPkk=", "properties": {"@source_uri": "https://tools.usps.com/UspsToolsRestServices/rest/POLocator/findLocations", "@spider": "usps_collection_boxes", "addr:city": "ERIE", "addr:country": "US", "addr:postcode": "16502", "addr:state": "PA", "addr:street_address": "311 W 24TH ST", "amenity": "post_box", "collection_times": "Mo-Sa 09:00", "nsi_id": "unitedstatespostalservice-a77078", "operator": "United States Postal Service", "operator:short": "USPS", "operator:type": "public", "operator:wikidata": "Q668687", "ref": "1650200034"}, "type": "Feature"}
{"geometry": {"coordinates": [-80.0933968, 42.121677], "type": "Point"}, "id": "DGzzzNy0N4C1VAjUuud7ROTHDqE=", "properties": {"@source_uri": "https://tools.usps.com/UspsToolsRestServices/rest/POLocator/findLocations", "@spider": "usps_collection_boxes", "addr:city": "ERIE", "addr:country": "US", "addr:postcode": "16502", "addr:state": "PA", "addr:street_address": "498 W 10TH ST", "amenity": "post_box", "collection_times": "Mo-Sa 09:00", "nsi_id": "unitedstatespostalservice-a77078", "operator": "United States Postal Service", "operator:short": "USPS", "operator:type": "public", "operator:wikidata": "Q668687", "ref": "1650200036"}, "type": "Feature"}
{"geometry": {"coordinates": [-80.081438, 42.116711], "type": "Point"}, "id": "-GoQlMGINRZWUCg6-mL_o_NUXPg=", "properties": {"@source_uri": "https://tools.usps.com/UspsToolsRestServices/rest/POLocator/findLocations", "@spider": "usps_collection_boxes", "addr:city": "ERIE", "addr:country": "US", "addr:postcode": "16502", "addr:state": "PA", "addr:street_address": "1810 SASSAFRAS ST", "amenity": "post_box", "collection_times": "Mo-Sa 08:00", "nsi_id": "unitedstatespostalservice-a77078", "operator": "United States Postal Service", "operator:short": "USPS", "operator:type": "public", "operator:wikidata": "Q668687", "ref": "1650200037"}, "type": "Feature"}
{"geometry": {"coordinates": [-80.0727812, 42.126419], "type": "Point"}, "id": "vAHZVHVpFD34XgfD2h-Sv2lQfqQ=", "properties": {"@source_uri": "https://tools.usps.com/UspsToolsRestServices/rest/POLocator/findLocations", "@spider": "usps_collection_boxes", "addr:city": "ERIE", "addr:country": "US", "addr:postcode": "16503", "addr:state": "PA", "addr:street_address": "1202 PARADE ST", "amenity": "post_box", "collection_times": "Mo-Sa 12:30", "note": "ON 12/24 AND 12/31, THIS BOX MAY BE COLLECTED AS EARLY AS 12 NOON.", "nsi_id": "unitedstatespostalservice-a77078", "operator": "United States Postal Service", "operator:short": "USPS", "operator:type": "public", "operator:wikidata": "Q668687", "ref": "1650300004"}, "type": "Feature"}
{"geometry": {"coordinates": [-80.0584384, 42.134518], "type": "Point"}, "id": "LZA81RuRxPwvkIggX0sm3EXs3_8=", "properties": {"@source_uri": "https://tools.usps.com/UspsToolsRestServices/rest/POLocator/findLocations", "@spider": "usps_collection_boxes", "addr:city": "ERIE", "addr:country": "US", "addr:postcode": "16503", "addr:state": "PA", "addr:street_address": "998 PENNSYLVANIA AVE", "amenity": "post_box", "collection_times": "Mo-Sa 10:00", "nsi_id": "unitedstatespostalservice-a77078", "operator": "United States Postal Service", "operator:short": "USPS", "operator:type": "public", "operator:wikidata": "Q668687", "ref": "1650300014"}, "type": "Feature"}
{"geometry": {"coordinates": [-80.0752079, 42.130239], "type": "Point"}, "id": "x5pqRG8MdPNiICgrXOnnVZ8J_nU=", "properties": {"@source_uri": "https://tools.usps.com/UspsToolsRestServices/rest/POLocator/findLocations", "@spider": "usps_collection_boxes", "addr:city": "ERIE", "addr:country": "US", "addr:postcode": "16503", "addr:state": "PA", "addr:street_address": "810 PARADE ST", "amenity": "post_box", "collection_times": "Mo-Sa 09:30", "nsi_id": "unitedstatespostalservice-a77078", "operator": "United States Postal Service", "operator:short": "USPS", "operator:type": "public", "operator:wikidata": "Q668687", "ref": "1650300016"}, "type": "Feature"}
{"geometry": {"coordinates": [-80.0647596, 42.1295775], "type": "Point"}, "id": "IyIQqdOPoj1paXs311oar2ejbVE=", "properties": {"@source_uri": "https://tools.usps.com/UspsToolsRestServices/rest/POLocator/findLocations", "@spider": "usps_collection_boxes", "addr:city": "ERIE", "addr:country": "US", "addr:postcode": "16503", "addr:state": "PA", "addr:street_address": "2599 STATE ST", "amenity": "post_box", "collection_times": "Mo-Sa 09:00", "nsi_id": "unitedstatespostalservice-a77078", "operator": "United States Postal Service", "operator:short": "USPS", "operator:type": "public", "operator:wikidata": "Q668687", "ref": "1650300023"}, "type": "Feature"}
{"geometry": {"coordinates": [-80.0664817, 42.124212], "type": "Point"}, "id": "fol7psCDDoQgNFHPJbA7AObvCQI=", "properties": {"@source_uri": "https://tools.usps.com/UspsToolsRestServices/rest/POLocator/findLocations", "@spider": "usps_collection_boxes", "addr:city": "ERIE", "addr:country": "US", "addr:postcode": "16503", "addr:state": "PA", "addr:street_address": "1618 ASH ST", "amenity": "post_box", "collection_times": "Mo-Sa 08:00", "nsi_id": "unitedstatespostalservice-a77078", "operator": "United States Postal Service", "operator:short": "USPS", "operator:type": "public", "operator:wikidata": "Q668687", "ref": "1650300034"}, "type": "Feature"}
{"geometry": {"coordinates": [-80.0745668, 42.120126], "type": "Point"}, "id": "PQMK3546DjW0GonueuhZ5OREK3M=", "properties": {"@source_uri": "https://tools.usps.com/UspsToolsRestServices/rest/POLocator/findLocations", "@spider": "usps_collection_boxes", "addr:city": "ERIE", "addr:country": "US", "addr:postcode": "16503", "addr:state": "PA", "addr:street_address": "1720 HOLLAND ST", "amenity": "post_box", "collection_times": "Mo-Fr 14:30", "note": "ON 12/24 AND 12/31, THIS BOX MAY BE COLLECTED AS EARLY AS 12 NOON.", "nsi_id": "unitedstatespostalservice-a77078", "operator": "United States Postal Service", "operator:short": "USPS", "operator:type": "public", "operator:wikidata": "Q668687", "ref": "1650300035"}, "type": "Feature"}
{"geometry": {"coordinates": [-80.0772099, 42.123789], "type": "Point"}, "id": "dx3WdAlts5c1pnivhxgfw82vogE=", "properties": {"@source_uri": "https://tools.usps.com/UspsToolsRestServices/rest/POLocator/findLocations", "@spider": "usps_collection_boxes", "addr:city": "ERIE", "addr:country": "US", "addr:postcode": "16503", "addr:state": "PA", "addr:street_address": "155 E 13TH ST", "amenity": "post_box", "collection_times": "Mo-Sa 09:00", "nsi_id": "unitedstatespostalservice-a77078", "operator": "United States Postal Service", "operator:short": "USPS", "operator:type": "public", "operator:wikidata": "Q668687", "ref": "1650300036"}, "type": "Feature"}
{"geometry": {"coordinates": [-80.064165501, 42.113889617], "type": "Point"}, "id": "QfJ6Xhf_HhWOOsAVFRLuU77rrDA=", "properties": {"@source_uri": "https://tools.usps.com/UspsToolsRestServices/rest/POLocator/findLocations", "@spider": "usps_collection_boxes", "addr:city": "ERIE", "addr:country": "US", "addr:postcode": "16504", "addr:state": "PA", "addr:street_address": "2711 PARADE ST", "amenity": "post_box", "collection_times": "Mo-Fr 09:00", "nsi_id": "unitedstatespostalservice-a77078", "operator": "United States Postal Service", "operator:short": "USPS", "operator:type": "public", "operator:wikidata": "Q668687", "ref": "1650400001"}, "type": "Feature"}
{"geometry": {"coordinates": [-80.0487699747, 42.1169879891], "type": "Point"}, "id": "U4s1ljqn6B4rQGE2JIn--i4CECY=", "properties": {"@source_uri": "https://tools.usps.com/UspsToolsRestServices/rest/POLocator/findLocations", "@spider": "usps_collection_boxes", "addr:city": "ERIE", "addr:country": "US", "addr:postcode": "16504", "addr:state": "PA", "addr:street_address": "2999 EAST AVE", "amenity": "post_box", "collection_times": "Mo-Sa 12:00", "nsi_id": "unitedstatespostalservice-a77078", "operator": "United States Postal Service", "operator:short": "USPS", "operator:type": "public", "operator:wikidata": "Q668687", "ref": "1650400005"}, "type": "Feature"}
{"geometry": {"coordinates": [-80.0319669, 42.108017], "type": "Point"}, "id": "bx8zG68SNxizhVkuDJgaOcO-a2s=", "properties": {"@source_uri": "https://tools.usps.com/UspsToolsRestServices/rest/POLocator/findLocations", "@spider": "usps_collection_boxes", "addr:city": "ERIE", "addr:country": "US", "addr:postcode": "16504", "addr:state": "PA", "addr:street_address": "1320 E GRANDVIEW BLVD", "amenity": "post_box", "collection_times": "Mo-Sa 10:00", "nsi_id": "unitedstatespostalservice-a77078", "operator": "United States Postal Service", "operator:short": "USPS", "operator:type": "public", "operator:wikidata": "Q668687", "ref": "1650400016"}, "type": "Feature"}
{"geometry": {"coordinates": [-80.0435143, 42.102539], "type": "Point"}, "id": "UT7q1ng-MVLhTZts_FQ3TN-6OC8=", "properties": {"@source_uri": "https://tools.usps.com/UspsToolsRestServices/rest/POLocator/findLocations", "@spider": "usps_collection_boxes", "addr:city": "ERIE", "addr:country": "US", "addr:postcode": "16504", "addr:state": "PA", "addr:street_address": "821 E GRANDVIEW BLVD", "amenity": "post_box", "collection_times": "Mo-Fr 12:00; Sa 12:30", "note": "ON 12/24 AND 12/31, THIS BOX MAY BE COLLECTED AS EARLY AS 12 NOON.", "nsi_id": "unitedstatespostalservice-a77078", "operator": "United States Postal Service", "operator:short": "USPS", "operator:type": "public", "operator:wikidata": "Q668687", "ref": "1650400017"}, "type": "Feature"}
{"geometry": {"coordinates": [-80.059692021, 42.116639997], "type": "Point"}, "id": "s07HM3RiXdiXSx6Pazom2wDqEHk=", "properties": {"@source_uri": "https://tools.usps.com/UspsToolsRestServices/rest/POLocator/findLocations", "@spider": "usps_collection_boxes", "addr:city": "ERIE", "addr:country": "US", "addr:postcode": "16504", "addr:state": "PA", "addr:street_address": "607 E 26TH ST", "amenity": "post_box", "collection_times": "Mo-Sa 10:00", "nsi_id": "unitedstatespostalservice-a77078", "operator": "United States Postal Service", "operator:short": "USPS", "operator:type": "public", "operator:wikidata": "Q668687", "ref": "1650400031"}, "type": "Feature"}
{"geometry": {"coordinates": [-80.1321626386, 42.1046966208], "type": "Point"}, "id": "l7E-hL9JpJdTsaRNFutWtLhXScU=", "properties": {"@source_uri": "https://tools.usps.com/UspsToolsRestServices/rest/POLocator/findLocations", "@spider": "usps_collection_boxes", "addr:city": "ERIE", "addr:country": "US", "addr:postcode": "16505", "addr:state": "PA", "addr:street_address": "2215 W 12TH ST", "amenity": "post_box", "collection_times": "Mo-Sa 13:00", "note": "ON 12/24 AND 12/31, THIS BOX MAY BE COLLECTED AS EARLY AS 12 NOON.", "nsi_id": "unitedstatespostalservice-a77078", "operator": "United States Postal Service", "operator:short": "USPS", "operator:type": "public", "operator:wikidata": "Q668687", "ref": "1650500001"}, "type": "Feature"}
{"geometry": {"coordinates": [-80.1154649, 42.119721], "type": "Point"}, "id": "BSOzig18rpSLN9wExYZyWjWI3ow=", "properties": {"@source_uri": "https://tools.usps.com/UspsToolsRestServices/rest/POLocator/findLocations", "@spider": "usps_collection_boxes", "addr:city": "ERIE", "addr:country": "US", "addr:postcode": "16505", "addr:state": "PA", "addr:street_address": "1372 W 6TH ST", "amenity": "post_box", "collection_times": "Mo-Sa 09:30", "nsi_id": "unitedstatespostalservice-a77078", "operator": "United States Postal Service", "operator:short": "USPS", "operator:type": "public", "operator:wikidata": "Q668687", "ref": "1650500006"}, "type": "Feature"}
{"geometry": {"coordinates": [-80.1351621, 42.101093], "type": "Point"}, "id": "bz5nq7apdm8YNsrODD3Dm9fFeiY=", "properties": {"@source_uri": "https://tools.usps.com/UspsToolsRestServices/rest/POLocator/findLocations", "@spider": "usps_collection_boxes", "addr:city": "ERIE", "addr:country": "US", "addr:postcode": "16505", "addr:state": "PA", "addr:street_address": "2501 W 12TH ST", "amenity": "post_box", "collection_times": "Mo-Sa 09:30", "nsi_id": "unitedstatespostalservice-a77078", "operator": "United States Postal Service", "operator:short": "USPS", "operator:type": "public", "operator:wikidata": "Q668687", "ref": "1650500013"}, "type": "Feature"}
{"geometry": {"coordinates": [-80.1262013, 42.111719], "type": "Point"}, "id": "GnVJIyMzrf3VdyDGeW9GJ9Vw2ws=", "properties": {"@source_uri": "https://tools.usps.com/UspsToolsRestServices/rest/POLocator/findLocations", "@spider": "usps_collection_boxes", "addr:city": "ERIE", "addr:country": "US", "addr:postcode": "16505", "addr:state": "PA", "addr:street_address": "1903 W 8TH ST", "amenity": "post_box", "collection_times": "Mo-Sa 09:00", "nsi_id": "unitedstatespostalservice-a77078", "operator": "United States Postal Service", "operator:short": "USPS", "operator:type": "public", "operator:wikidata": "Q668687", "ref": "1650500017"}, "type": "Feature"}
{"geometry": {"coordinates": [-80.1706358, 42.096218], "type": "Point"}, "id": "gn8gUeZBdCAwp_MzxIYmrfLaguE=", "properties": {"@source_uri": "https://tools.usps.com/UspsToolsRestServices/rest/POLocator/findLocations", "@spider": "usps_collection_boxes", "addr:city": "ERIE", "addr:country": "US", "addr:postcode": "16505", "addr:state": "PA", "addr:street_address": "724 POWELL AVE", "amenity": "post_box", "collection_times": "Mo-Sa 12:00", "nsi_id": "unitedstatespostalservice-a77078", "operator": "United States Postal Service", "operator:short": "USPS", "operator:type": "public", "operator:wikidata": "Q668687", "ref": "1650500020"}, "type": "Feature"}
{"geometry": {"coordinates": [-80.1770037, 42.090738], "type": "Point"}, "id": "2EEGxqCVDPp5uP3lsaB-mEGZhJ0=", "properties": {"@source_uri": "https://tools.usps.com/UspsToolsRestServices/rest/POLocator/findLocations", "@spider": "usps_collection_boxes", "addr:city": "ERIE", "addr:country": "US", "addr:postcode": "16505", "addr:state": "PA", "addr:street_address": "1003 GRANT AVE", "amenity": "post_box", "collection_times": "Mo-Sa 08:30", "nsi_id": "unitedstatespostalservice-a77078", "operator": "United States Postal Service", "operator:short": "USPS", "operator:type": "public", "operator:wikidata": "Q668687", "ref": "1650500022"}, "type": "Feature"}
{"geometry": {"coordinates": [-80.1677329932, 42.0909889844], "type": "Point"}, "id": "15idYhaTHXDeCAfrZbFf-FsP0qI=", "properties": {"@source_uri": "https://tools.usps.com/UspsToolsRestServices/rest/POLocator/findLocations", "@spider": "usps_collection_boxes", "addr:city": "ERIE", "addr:country": "US", "addr:postcode": "16505", "addr:state": "PA", "addr:street_address": "3823 W 12TH ST", "amenity": "post_box", "collection_times": "Mo-Sa 13:00", "note": "ON 12/24 AND 12/31, THIS BOX MAY BE COLLECTED AS EARLY AS 12 NOON.", "nsi_id": "unitedstatespostalservice-a77078", "operator": "United States Postal Service", "operator:short": "USPS", "operator:type": "public", "operator:wikidata": "Q668687", "ref": "1650500036"}, "type": "Feature"}
{"geometry": {"coordinates": [-80.1313436259, 42.1099374765], "type": "Point"}, "id": "itRKGHVtWeR0RLK-VUrwXVOxUTQ=", "properties": {"@source_uri": "https://tools.usps.com/UspsToolsRestServices/rest/POLocator/findLocations", "@spider": "usps_collection_boxes", "addr:city": "ERIE", "addr:country": "US", "addr:postcode": "16505", "addr:state": "PA", "addr:street_address": "2115 W 8TH ST", "amenity": "post_box", "collection_times": "Mo-Fr 08:30", "nsi_id": "unitedstatespostalservice-a77078", "operator": "United States Postal Service", "operator:short": "USPS", "operator:type": "public", "operator:wikidata": "Q668687", "ref": "1650500038"}, "type": "Feature"}
{"geometry": {"coordinates": [-80.1437557, 42.095809], "type": "Point"}, "id": "jdMFmDz8Odh3Dkp_dIcfcTLJqd4=", "properties": {"@source_uri": "https://tools.usps.com/UspsToolsRestServices/rest/POLocator/findLocations", "@spider": "usps_collection_boxes", "addr:city": "ERIE", "addr:country": "US", "addr:postcode": "16505", "addr:state": "PA", "addr:street_address": "1600 PENINSULA DR", "amenity": "post_box", "collection_times": "Mo-Fr 15:00", "note": "ON 12/24 AND 12/31, THIS BOX MAY BE COLLECTED AS EARLY AS 12 NOON.", "nsi_id": "unitedstatespostalservice-a77078", "operator": "United States Postal Service", "operator:short": "USPS", "operator:type": "public", "operator:wikidata": "Q668687", "ref": "1650500039"}, "type": "Feature"}
{"geometry": {"coordinates": [-80.134222934, 42.107537096], "type": "Point"}, "id": "BxD-aRXPgWfjbvtVYBPBPZnoYsc=", "properties": {"@source_uri": "https://tools.usps.com/UspsToolsRestServices/rest/POLocator/findLocations", "@spider": "usps_collection_boxes", "addr:city": "ERIE", "addr:country": "US", "addr:postcode": "16505", "addr:state": "PA", "addr:street_address": "902 W ERIE PLAZA DR", "amenity": "post_box", "collection_times": "Mo-Sa 09:30", "nsi_id": "unitedstatespostalservice-a77078", "operator": "United States Postal Service", "operator:short": "USPS", "operator:type": "public", "operator:wikidata": "Q668687", "ref": "1650500043"}, "type": "Feature"}
{"geometry": {"coordinates": [-80.1631136, 42.079085], "type": "Point"}, "id": "aR4syL8zICbMybQ3d9MuFNabMTw=", "properties": {"@source_uri": "https://tools.usps.com/UspsToolsRestServices/rest/POLocator/findLocations", "@spider": "usps_collection_boxes", "addr:city": "ERIE", "addr:country": "US", "addr:postcode": "16506", "addr:state": "PA", "addr:street_address": "3939 W RIDGE RD", "amenity": "post_box", "collection_times": "Mo-Sa 11:30", "nsi_id": "unitedstatespostalservice-a77078", "operator": "United States Postal Service", "operator:short": "USPS", "operator:type": "public", "operator:wikidata": "Q668687", "ref": "1650600002"}, "type": "Feature"}
{"geometry": {"coordinates": [-80.1489073, 42.084638], "type": "Point"}, "id": "5GsYGAs43g-m7WsT_pEerzDuNBI=", "properties": {"@source_uri": "https://tools.usps.com/UspsToolsRestServices/rest/POLocator/findLocations", "@spider": "usps_collection_boxes", "addr:city": "ERIE", "addr:country": "US", "addr:postcode": "16506", "addr:state": "PA", "addr:street_address": "3330 W 26TH ST", "amenity": "post_box", "collection_times": "Mo-Fr 08:30", "nsi_id": "unitedstatespostalservice-a77078", "operator": "United States Postal Service", "operator:short": "USPS", "operator:type": "public", "operator:wikidata": "Q668687", "ref": "1650600003"}, "type": "Feature"}
{"geometry": {"coordinates": [-80.1384479, 42.091897], "type": "Point"}, "id": "6zG9D-ufnRI36FC3q4re_u6A9HQ=", "properties": {"@source_uri": "https://tools.usps.com/UspsToolsRestServices/rest/POLocator/findLocations", "@spider": "usps_collection_boxes", "addr:city": "ERIE", "addr:country": "US", "addr:postcode": "16506", "addr:state": "PA", "addr:street_address": "2121 EBCO DR", "amenity": "post_box", "collection_times": "Mo-Fr 12:30", "note": "ON 12/24 AND 12/31, THIS BOX MAY BE COLLECTED AS EARLY AS 12 NOON.", "nsi_id": "unitedstatespostalservice-a77078", "operator": "United States Postal Service", "operator:short": "USPS", "operator:type": "public", "operator:wikidata": "Q668687", "ref": "1650600005"}, "type": "Feature"}
{"geometry": {"coordinates": [-80.1902539, 42.070053], "type": "Point"}, "id": "jsJaK-sBcocGWElsKYZ27sxQdN4=", "properties": {"@source_uri": "https://tools.usps.com/UspsToolsRestServices/rest/POLocator/findLocations", "@spider": "usps_collection_boxes", "addr:city": "ERIE", "addr:country": "US", "addr:postcode": "16506", "addr:state": "PA", "addr:street_address": "5028 W RIDGE RD", "amenity": "post_box", "collection_times": "Mo-Sa 09:30", "nsi_id": "unitedstatespostalservice-a77078", "operator": "United States Postal Service", "operator:short": "USPS", "operator:type": "public", "operator:wikidata": "Q668687", "ref": "1650600006"}, "type": "Feature"}
{"geometry": {"coordinates": [-80.1459878, 42.072784], "type": "Point"}, "id": "5708znLKXVvfCJSuO_Ay9sFp-a0=", "properties": {"@source_uri": "https://tools.usps.com/UspsToolsRestServices/rest/POLocator/findLocations", "@spider": "usps_collection_boxes", "addr:city": "ERIE", "addr:country": "US", "addr:postcode": "16506", "addr:state": "PA", "addr:street_address": "3501 W 38TH ST", "amenity": "post_box", "collection_times": "Mo-Sa 08:30", "nsi_id": "unitedstatespostalservice-a77078", "operator": "United States Postal Service", "operator:short": "USPS", "operator:type": "public", "operator:wikidata": "Q668687", "ref": "1650600007"}, "type": "Feature"}
{"geometry": {"coordinates": [-80.1559514, 42.081641], "type": "Point"}, "id": "PKIcGmdV3XsC2jjEFbEt1tGHXV0=", "properties": {"@source_uri": "https://tools.usps.com/UspsToolsRestServices/rest/POLocator/findLocations", "@spider": "usps_collection_boxes", "addr:city": "ERIE", "addr:country": "US", "addr:postcode": "16506", "addr:state": "PA", "addr:street_address": "3608 W RIDGE RD", "amenity": "post_box", "collection_times": "Mo-Fr 11:00", "nsi_id": "unitedstatespostalservice-a77078", "operator": "United States Postal Service", "operator:short": "USPS", "operator:type": "public", "operator:wikidata": "Q668687", "ref": "1650600011"}, "type": "Feature"}
{"geometry": {"coordinates": [-80.1348178, 42.087734], "type": "Point"}, "id": "yx5IyKQ8WdFNTDLYsOhtjxdJU7Y=", "properties": {"@source_uri": "https://tools.usps.com/UspsToolsRestServices/rest/POLocator/findLocations", "@spider": "usps_collection_boxes", "addr:city": "ERIE", "addr:country": "US", "addr:postcode": "16506", "addr:state": "PA", "addr:street_address": "2711 LEGION RD", "amenity": "post_box", "collection_times": "Mo-Fr 17:00; Sa 16:30", "note": "ON 12/24 AND 12/31, THIS BOX MAY BE COLLECTED AS EARLY AS 12 NOON.", "nsi_id": "unitedstatespostalservice-a77078", "operator": "United States Postal Service", "operator:short": "USPS", "operator:type": "public", "operator:wikidata": "Q668687", "ref": "1650600015"}, "type": "Feature"}
{"geometry": {"coordinates": [-80.1348009, 42.087745], "type": "Point"}, "id": "NMeXw44SN0jBcE9PW_c_gRB_3Vc=", "properties": {"@source_uri": "https://tools.usps.com/UspsToolsRestServices/rest/POLocator/findLocations", "@spider": "usps_collection_boxes", "addr:city": "ERIE", "addr:country": "US", "addr:postcode": "16506", "addr:state": "PA", "addr:street_address": "2711 LEGION RD", "amenity": "post_box", "collection_times": "Mo-Fr 17:00; Sa 16:30", "note": "ON 12/24 AND 12/31, THIS BOX MAY BE COLLECTED AS EARLY AS 12 NOON.", "nsi_id": "unitedstatespostalservice-a77078", "operator": "United States Postal Service", "operator:short": "USPS", "operator:type": "public", "operator:wikidata": "Q668687", "ref": "1650600016"}, "type": "Feature"}
{"geometry": {"coordinates": [-80.13614, 42.088478], "type": "Point"}, "id": "ZncAlTzBiDdT7RyNs2PSvsKwsJw=", "properties": {"@source_uri": "https://tools.usps.com/UspsToolsRestServices/rest/POLocator/findLocations", "@spider": "usps_collection_boxes", "addr:city": "ERIE", "addr:country": "US", "addr:postcode": "16506", "addr:state": "PA", "addr:street_address": "2711 LEGION RD", "amenity": "post_box", "collection_times": "Mo-Fr 17:00; Sa 16:30", "indoor": "yes", "note": "ON 12/24 AND 12/31, THIS BOX MAY BE COLLECTED AS EARLY AS 12 NOON.", "nsi_id": "unitedstatespostalservice-a77078", "operator": "United States Postal Service", "operator:short": "USPS", "operator:type": "public", "operator:wikidata": "Q668687", "ref": "1650600024"}, "type": "Feature"}
{"geometry": {"coordinates": [-80.13614, 42.088478], "type": "Point"}, "id": "PzMWxe4v8dPynQyeEFUiZuYA_cw=", "properties": {"@source_uri": "https://tools.usps.com/UspsToolsRestServices/rest/POLocator/findLocations", "@spider": "usps_collection_boxes", "addr:city": "ERIE", "addr:country": "US", "addr:postcode": "16506", "addr:state": "PA", "addr:street_address": "2711 LEGION RD", "amenity": "post_box", "collection_times": "Mo-Fr 17:00; Sa 16:30", "name": "USPS COLLECTION BOX - APC", "note": "ON 12/24 AND 12/31, THIS BOX MAY BE COLLECTED AS EARLY AS 12 NOON.", "nsi_id": "unitedstatespostalservice-a77078", "operator": "United States Postal Service", "operator:short": "USPS", "operator:type": "public", "operator:wikidata": "Q668687", "ref": "1650600025"}, "type": "Feature"}
{"geometry": {"coordinates": [-80.1125879, 42.076528], "type": "Point"}, "id": "vCpVYs1ShHdphs9M2DIf_w1UdNw=", "properties": {"@source_uri": "https://tools.usps.com/UspsToolsRestServices/rest/POLocator/findLocations", "@spider": "usps_collection_boxes", "addr:city": "ERIE", "addr:country": "US", "addr:postcode": "16506", "addr:state": "PA", "addr:street_address": "2201 W GRANDVIEW BLVD", "amenity": "post_box", "collection_times": "Mo-Fr 12:30", "note": "ON 12/24 AND 12/31, THIS BOX MAY BE COLLECTED AS EARLY AS 12 NOON.", "nsi_id": "unitedstatespostalservice-a77078", "operator": "United States Postal Service", "operator:short": "USPS", "operator:type": "public", "operator:wikidata": "Q668687", "ref": "1650600027"}, "type": "Feature"}
{"geometry": {"coordinates": [-80.136058999, 42.088453308], "type": "Point"}, "id": "VTOJi47DnqG5La8rGFzTwrAfUB4=", "properties": {"@source_uri": "https://tools.usps.com/UspsToolsRestServices/rest/POLocator/findLocations", "@spider": "usps_collection_boxes", "addr:city": "ERIE", "addr:country": "US", "addr:postcode": "16506", "addr:state": "PA", "addr:street_address": "2711 LEGION RD", "amenity": "post_box", "collection_times": "Mo-Fr 17:45; Sa 16:00", "indoor": "yes", "note": "ON 12/24 AND 12/31, THIS BOX MAY BE COLLECTED AS EARLY AS 12 NOON.", "nsi_id": "unitedstatespostalservice-a77078", "operator": "United States Postal Service", "operator:short": "USPS", "operator:type": "public", "operator:wikidata": "Q668687", "ref": "1650600031"}, "type": "Feature"}
{"geometry": {"coordinates": [-80.1036509, 42.125072], "type": "Point"}, "id": "kUwYm22TOrXEHNWhZADex6rqEg0=", "properties": {"@source_uri": "https://tools.usps.com/UspsToolsRestServices/rest/POLocator/findLocations", "@spider": "usps_collection_boxes", "addr:city": "ERIE", "addr:country": "US", "addr:postcode": "16507", "addr:state": "PA", "addr:street_address": "801 W 4TH ST", "amenity": "post_box", "collection_times": "Mo-Sa 09:00", "nsi_id": "unitedstatespostalservice-a77078", "operator": "United States Postal Service", "operator:short": "USPS", "operator:type": "public", "operator:wikidata": "Q668687", "ref": "1650700002"}, "type": "Feature"}
{"geometry": {"coordinates": [-80.0891709, 42.128122], "type": "Point"}, "id": "CNKqcpk5WTIaGHCCe0pwX1KIJQY=", "properties": {"@source_uri": "https://tools.usps.com/UspsToolsRestServices/rest/POLocator/findLocations", "@spider": "usps_collection_boxes", "addr:city": "ERIE", "addr:country": "US", "addr:postcode": "16507", "addr:state": "PA", "addr:street_address": "204 W 6TH ST", "amenity": "post_box", "collection_times": "Mo-Sa 09:00", "nsi_id": "unitedstatespostalservice-a77078", "operator": "United States Postal Service", "operator:short": "USPS", "operator:type": "public", "operator:wikidata": "Q668687", "ref": "1650700008"}, "type": "Feature"}
{"geometry": {"coordinates": [-80.0874876, 42.132316], "type": "Point"}, "id": "xE7bTwS-cqeRgHzFTG8p26cIXAQ=", "properties": {"@source_uri": "https://tools.usps.com/UspsToolsRestServices/rest/POLocator/findLocations", "@spider": "usps_collection_boxes", "addr:city": "ERIE", "addr:country": "US", "addr:postcode": "16507", "addr:state": "PA", "addr:street_address": "300 STATE ST", "amenity": "post_box", "collection_times": "Mo-Sa 09:00", "nsi_id": "unitedstatespostalservice-a77078", "operator": "United States Postal Service", "operator:short": "USPS", "operator:type": "public", "operator:wikidata": "Q668687", "ref": "1650700011"}, "type": "Feature"}
{"geometry": {"coordinates": [-80.084741189, 42.134448461], "type": "Point"}, "id": "SpaKNKSLZ_QP2GFBHlEYur-eyJM=", "properties": {"@source_uri": "https://tools.usps.com/UspsToolsRestServices/rest/POLocator/findLocations", "@spider": "usps_collection_boxes", "addr:city": "ERIE", "addr:country": "US", "addr:postcode": "16507", "addr:state": "PA", "addr:street_address": "143 E 2ND ST", "amenity": "post_box", "collection_times": "Mo-Sa 09:00", "nsi_id": "unitedstatespostalservice-a77078", "operator": "United States Postal Service", "operator:short": "USPS", "operator:type": "public", "operator:wikidata": "Q668687", "ref": "1650700014"}, "type": "Feature"}
{"geometry": {"coordinates": [-80.0889067, 42.13304], "type": "Point"}, "id": "89oyJOgzD_hHY3FRxcvdxoSm6yU=", "properties": {"@source_uri": "https://tools.usps.com/UspsToolsRestServices/rest/POLocator/findLocations", "@spider": "usps_collection_boxes", "addr:city": "ERIE", "addr:country": "US", "addr:postcode": "16507", "addr:state": "PA", "addr:street_address": "98 W 2ND ST", "amenity": "post_box", "collection_times": "Mo-Sa 09:00", "nsi_id": "unitedstatespostalservice-a77078", "operator": "United States Postal Service", "operator:short": "USPS", "operator:type": "public", "operator:wikidata": "Q668687", "ref": "1650700020"}, "type": "Feature"}
{"geometry": {"coordinates": [-80.0659281, 42.13704], "type": "Point"}, "id": "n5xPE8KpKVP6J6DfTrc45XKFEkM=", "properties": {"@source_uri": "https://tools.usps.com/UspsToolsRestServices/rest/POLocator/findLocations", "@spider": "usps_collection_boxes", "addr:city": "ERIE", "addr:country": "US", "addr:postcode": "16507", "addr:state": "PA", "addr:street_address": "858 E 6TH ST", "amenity": "post_box", "collection_times": "Mo-Sa 08:30", "nsi_id": "unitedstatespostalservice-a77078", "operator": "United States Postal Service", "operator:short": "USPS", "operator:type": "public", "operator:wikidata": "Q668687", "ref": "1650700026"}, "type": "Feature"}
{"geometry": {"coordinates": [-80.0574544, 42.140233], "type": "Point"}, "id": "I5_i5c7hDUpquOkmYTDo28a5rW8=", "properties": {"@source_uri": "https://tools.usps.com/UspsToolsRestServices/rest/POLocator/findLocations", "@spider": "usps_collection_boxes", "addr:city": "ERIE", "addr:country": "US", "addr:postcode": "16507", "addr:state": "PA", "addr:street_address": "1306 E LAKE RD", "amenity": "post_box", "collection_times": "Mo-Sa 12:00", "nsi_id": "unitedstatespostalservice-a77078", "operator": "United States Postal Service", "operator:short": "USPS", "operator:type": "public", "operator:wikidata": "Q668687", "ref": "1650700030"}, "type": "Feature"}
{"geometry": {"coordinates": [-80.0856142, 42.132464], "type": "Point"}, "id": "SlHn8Nm0L9dKngDHhazkfQi6OxM=", "properties": {"@source_uri": "https://tools.usps.com/UspsToolsRestServices/rest/POLocator/findLocations", "@spider": "usps_collection_boxes", "addr:city": "ERIE", "addr:country": "US", "addr:postcode": "16507", "addr:state": "PA", "addr:street_address": "310 FRENCH ST", "amenity": "post_box", "collection_times": "Mo-Sa 09:00", "nsi_id": "unitedstatespostalservice-a77078", "operator": "United States Postal Service", "operator:short": "USPS", "operator:type": "public", "operator:wikidata": "Q668687", "ref": "1650700034"}, "type": "Feature"}
{"geometry": {"coordinates": [-80.0860409, 42.136118], "type": "Point"}, "id": "GdKQEaPBhriNB10HXLOXF03nDW4=", "properties": {"@source_uri": "https://tools.usps.com/UspsToolsRestServices/rest/POLocator/findLocations", "@spider": "usps_collection_boxes", "addr:city": "ERIE", "addr:country": "US", "addr:postcode": "16507", "addr:state": "PA", "addr:street_address": "160 E FRONT ST", "amenity": "post_box", "collection_times": "Mo-Sa 09:00", "nsi_id": "unitedstatespostalservice-a77078", "operator": "United States Postal Service", "operator:short": "USPS", "operator:type": "public", "operator:wikidata": "Q668687", "ref": "1650700037"}, "type": "Feature"}
{"geometry": {"coordinates": [-80.1125368, 42.120755], "type": "Point"}, "id": "I79Zjzapp6If_FoXhFyHSgH2vjA=", "properties": {"@source_uri": "https://tools.usps.com/UspsToolsRestServices/rest/POLocator/findLocations", "@spider": "usps_collection_boxes", "addr:city": "ERIE", "addr:country": "US", "addr:postcode": "16507", "addr:state": "PA", "addr:street_address": "1220 W 5TH ST", "amenity": "post_box", "collection_times": "Mo-Fr 09:00", "nsi_id": "unitedstatespostalservice-a77078", "operator": "United States Postal Service", "operator:short": "USPS", "operator:type": "public", "operator:wikidata": "Q668687", "ref": "1650700038"}, "type": "Feature"}
{"geometry": {"coordinates": [-80.0852154, 42.137293], "type": "Point"}, "id": "itrV7E6P6RTom5yXSMINYwVfhzo=", "properties": {"@source_uri": "https://tools.usps.com/UspsToolsRestServices/rest/POLocator/findLocations", "@spider": "usps_collection_boxes", "addr:city": "ERIE", "addr:country": "US", "addr:postcode": "16507", "addr:state": "PA", "addr:street_address": "208 E BAYFRONT PKWY", "amenity": "post_box", "collection_times": "Mo-Sa 09:00", "nsi_id": "unitedstatespostalservice-a77078", "operator": "United States Postal Service", "operator:short": "USPS", "operator:type": "public", "operator:wikidata": "Q668687", "ref": "1650700040"}, "type": "Feature"}
{"geometry": {"coordinates": [-80.1051843, 42.100735], "type": "Point"}, "id": "kGgT6z_sPEZk0m9ubK1hq9nbIcc=", "properties": {"@source_uri": "https://tools.usps.com/UspsToolsRestServices/rest/POLocator/findLocations", "@spider": "usps_collection_boxes", "addr:city": "ERIE", "addr:country": "US", "addr:postcode": "16508", "addr:state": "PA", "addr:street_address": "1520 W 26TH ST", "amenity": "post_box", "collection_times": "Mo-Sa 10:00", "nsi_id": "unitedstatespostalservice-a77078", "operator": "United States Postal Service", "operator:short": "USPS", "operator:type": "public", "operator:wikidata": "Q668687", "ref": "1650800002"}, "type": "Feature"}
{"geometry": {"coordinates": [-80.0978922, 42.08998], "type": "Point"}, "id": "uf_gBwNDnPw6wGqsoJPRO9co7RA=", "properties": {"@source_uri": "https://tools.usps.com/UspsToolsRestServices/rest/POLocator/findLocations", "@spider": "usps_collection_boxes", "addr:city": "ERIE", "addr:country": "US", "addr:postcode": "16508", "addr:state": "PA", "addr:street_address": "1515 W 38TH ST", "amenity": "post_box", "collection_times": "Mo-Sa 10:00", "nsi_id": "unitedstatespostalservice-a77078", "operator": "United States Postal Service", "operator:short": "USPS", "operator:type": "public", "operator:wikidata": "Q668687", "ref": "1650800013"}, "type": "Feature"}
{"geometry": {"coordinates": [-80.0856338, 42.097076], "type": "Point"}, "id": "0Nuuztd-Wd_1paHqLQuoVdQFfLk=", "properties": {"@source_uri": "https://tools.usps.com/UspsToolsRestServices/rest/POLocator/findLocations", "@spider": "usps_collection_boxes", "addr:city": "ERIE", "addr:country": "US", "addr:postcode": "16508", "addr:state": "PA", "addr:street_address": "3608 LIBERTY ST", "amenity": "post_box", "collection_times": "Mo-Sa 10:00", "nsi_id": "unitedstatespostalservice-a77078", "operator": "United States Postal Service", "operator:short": "USPS", "operator:type": "public", "operator:wikidata": "Q668687", "ref": "1650800021"}, "type": "Feature"}
{"geometry": {"coordinates": [-80.0806605, 42.099971], "type": "Point"}, "id": "MTMMKV1elIo5_FR4yvZjU3k8ktA=", "properties": {"@source_uri": "https://tools.usps.com/UspsToolsRestServices/rest/POLocator/findLocations", "@spider": "usps_collection_boxes", "addr:city": "ERIE", "addr:country": "US", "addr:postcode": "16508", "addr:state": "PA", "addr:street_address": "3580 PEACH ST", "amenity": "post_box", "collection_times": "Mo-Sa 10:00", "nsi_id": "unitedstatespostalservice-a77078", "operator": "United States Postal Service", "operator:short": "USPS", "operator:type": "public", "operator:wikidata": "Q668687", "ref": "1650800025"}, "type": "Feature"}
{"geometry": {"coordinates": [-80.0838595, 42.097745], "type": "Point"}, "id": "pLBB6oxJWkyBalnr4GRKADiiEuA=", "properties": {"@source_uri": "https://tools.usps.com/UspsToolsRestServices/rest/POLocator/findLocations", "@spider": "usps_collection_boxes", "addr:city": "ERIE", "addr:country": "US", "addr:postcode": "16508", "addr:state": "PA", "addr:street_address": "3607 POPLAR ST", "amenity": "post_box", "collection_times": "Mo-Fr 17:00; Sa 16:00", "note": "ON 12/24 AND 12/31, THIS BOX MAY BE COLLECTED AS EARLY AS 12 NOON.", "nsi_id": "unitedstatespostalservice-a77078", "operator": "United States Postal Service", "operator:short": "USPS", "operator:type": "public", "operator:wikidata": "Q668687", "ref": "1650800029"}, "type": "Feature"}
{"geometry": {"coordinates": [-80.1160499, 42.090305], "type": "Point"}, "id": "KOzyguRKj3mWarKQilM-EhSLTeg=", "properties": {"@source_uri": "https://tools.usps.com/UspsToolsRestServices/rest/POLocator/findLocations", "@spider": "usps_collection_boxes", "addr:city": "ERIE", "addr:country": "US", "addr:postcode": "16508", "addr:state": "PA", "addr:street_address": "3129 POST AVE", "amenity": "post_box", "collection_times": "Mo-Sa 13:00", "note": "ON 12/24 AND 12/31, THIS BOX MAY BE COLLECTED AS EARLY AS 12 NOON.", "nsi_id": "unitedstatespostalservice-a77078", "operator": "United States Postal Service", "operator:short": "USPS", "operator:type": "public", "operator:wikidata": "Q668687", "ref": "1650800032"}, "type": "Feature"}
{"geometry": {"coordinates": [-80.0699958, 42.106209], "type": "Point"}, "id": "_0qd1gE11lr11mFH0dvWaDcELtk=", "properties": {"@source_uri": "https://tools.usps.com/UspsToolsRestServices/rest/POLocator/findLocations", "@spider": "usps_collection_boxes", "addr:city": "ERIE", "addr:country": "US", "addr:postcode": "16508", "addr:state": "PA", "addr:street_address": "3304 STATE ST", "amenity": "post_box", "collection_times": "Mo-Sa 12:00", "nsi_id": "unitedstatespostalservice-a77078", "operator": "United States Postal Service", "operator:short": "USPS", "operator:type": "public", "operator:wikidata": "Q668687", "ref": "1650800037"}, "type": "Feature"}
{"geometry": {"coordinates": [-80.0687509, 42.104249], "type": "Point"}, "id": "24KBQbu5q2laTcJZ3ejPEgR3fsc=", "properties": {"@source_uri": "https://tools.usps.com/UspsToolsRestServices/rest/POLocator/findLocations", "@spider": "usps_collection_boxes", "addr:city": "ERIE", "addr:country": "US", "addr:postcode": "16508", "addr:state": "PA", "addr:street_address": "3514 STATE ST", "amenity": "post_box", "collection_times": "Mo-Sa 12:00", "nsi_id": "unitedstatespostalservice-a77078", "operator": "United States Postal Service", "operator:short": "USPS", "operator:type": "public", "operator:wikidata": "Q668687", "ref": "1650800038"}, "type": "Feature"}
{"geometry": {"coordinates": [-80.0900474, 42.080378], "type": "Point"}, "id": "GkVzaKvn60qNSt2tJga4YU2hZOI=", "properties": {"@source_uri": "https://tools.usps.com/UspsToolsRestServices/rest/POLocator/findLocations", "@spider": "usps_collection_boxes", "addr:city": "ERIE", "addr:country": "US", "addr:postcode": "16509", "addr:state": "PA", "addr:street_address": "5041 PEACH ST", "amenity": "post_box", "collection_times": "Mo-Fr 15:15; Sa 15:45", "note": "ON 12/24 AND 12/31, THIS BOX MAY BE COLLECTED AS EARLY AS 12 NOON.", "nsi_id": "unitedstatespostalservice-a77078", "operator": "United States Postal Service", "operator:short": "USPS", "operator:type": "public", "operator:wikidata": "Q668687", "ref": "1650900009"}, "type": "Feature"}
{"geometry": {"coordinates": [-80.0968704364, 42.0662769157], "type": "Point"}, "id": "-zc4uOyf0rLhdxd_frucbRDLEw8=", "properties": {"@source_uri": "https://tools.usps.com/UspsToolsRestServices/rest/POLocator/findLocations", "@spider": "usps_collection_boxes", "addr:city": "ERIE", "addr:country": "US", "addr:postcode": "16509", "addr:state": "PA", "addr:street_address": "200 MILLCREEK MALL", "amenity": "post_box", "collection_times": "Mo-Sa 10:30", "nsi_id": "unitedstatespostalservice-a77078", "operator": "United States Postal Service", "operator:short": "USPS", "operator:type": "public", "operator:wikidata": "Q668687", "ref": "1650900011"}, "type": "Feature"}
{"geometry": {"coordinates": [-80.0996188, 42.069391], "type": "Point"}, "id": "luGJpdZp0ruih_feMX0ptUErn1A=", "properties": {"@source_uri": "https://tools.usps.com/UspsToolsRestServices/rest/POLocator/findLocations", "@spider": "usps_collection_boxes", "addr:city": "ERIE", "addr:country": "US", "addr:postcode": "16509", "addr:state": "PA", "addr:street_address": "547 MILLCREEK MALL", "amenity": "post_box", "collection_times": "Mo-Sa 10:00", "nsi_id": "unitedstatespostalservice-a77078", "operator": "United States Postal Service", "operator:short": "USPS", "operator:type": "public", "operator:wikidata": "Q668687", "ref": "1650900013"}, "type": "Feature"}
{"geometry": {"coordinates": [-80.0893582, 42.066529], "type": "Point"}, "id": "vdmODTG3URch51N09Yx13HD5jG0=", "properties": {"@source_uri": "https://tools.usps.com/UspsToolsRestServices/rest/POLocator/findLocations", "@spider": "usps_collection_boxes", "addr:city": "ERIE", "addr:country": "US", "addr:postcode": "16509", "addr:state": "PA", "addr:street_address": "1708 GRANADA DR", "amenity": "post_box", "collection_times": "Mo-Sa 10:00", "nsi_id": "unitedstatespostalservice-a77078", "operator": "United States Postal Service", "operator:short": "USPS", "operator:type": "public", "operator:wikidata": "Q668687", "ref": "1650900015"}, "type": "Feature"}
{"geometry": {"coordinates": [-80.0947154, 42.071193], "type": "Point"}, "id": "eUU7OY6VLn606jz2XDa9nneFzFQ=", "properties": {"@source_uri": "https://tools.usps.com/UspsToolsRestServices/rest/POLocator/findLocations", "@spider": "usps_collection_boxes", "addr:city": "ERIE", "addr:country": "US", "addr:postcode": "16509", "addr:state": "PA", "addr:street_address": "9 MILLCREEK SQ", "amenity": "post_box", "collection_times": "Mo-Sa 10:00", "nsi_id": "unitedstatespostalservice-a77078", "operator": "United States Postal Service", "operator:short": "USPS", "operator:type": "public", "operator:wikidata": "Q668687", "ref": "1650900016"}, "type": "Feature"}
{"geometry": {"coordinates": [-80.0921062, 42.078132], "type": "Point"}, "id": "2IPhgQZOv3PSfHt7yO9j1AxwelA=", "properties": {"@source_uri": "https://tools.usps.com/UspsToolsRestServices/rest/POLocator/findLocations", "@spider": "usps_collection_boxes", "addr:city": "ERIE", "addr:country": "US", "addr:postcode": "16509", "addr:state": "PA", "addr:street_address": "5158 PEACH ST", "amenity": "post_box", "collection_times": "Mo-Sa 09:00", "nsi_id": "unitedstatespostalservice-a77078", "operator": "United States Postal Service", "operator:short": "USPS", "operator:type": "public", "operator:wikidata": "Q668687", "ref": "1650900017"}, "type": "Feature"}
{"geometry": {"coordinates": [-80.0919147, 42.060786], "type": "Point"}, "id": "UFUHs76bjw65ez7ZkuwcVcg4lvo=", "properties": {"@source_uri": "https://tools.usps.com/UspsToolsRestServices/rest/POLocator/findLocations", "@spider": "usps_collection_boxes", "addr:city": "ERIE", "addr:country": "US", "addr:postcode": "16509", "addr:state": "PA", "addr:street_address": "6143 PEACH ST", "amenity": "post_box", "collection_times": "Mo-Sa 09:00", "nsi_id": "unitedstatespostalservice-a77078", "operator": "United States Postal Service", "operator:short": "USPS", "operator:type": "public", "operator:wikidata": "Q668687", "ref": "1650900022"}, "type": "Feature"}
{"geometry": {"coordinates": [-80.0903404, 42.050824], "type": "Point"}, "id": "-KY1TLfOQwghJbC8-KhsuFnDXss=", "properties": {"@source_uri": "https://tools.usps.com/UspsToolsRestServices/rest/POLocator/findLocations", "@spider": "usps_collection_boxes", "addr:city": "ERIE", "addr:country": "US", "addr:postcode": "16509", "addr:state": "PA", "addr:street_address": "7200 PEACH ST", "amenity": "post_box", "collection_times": "Mo-Sa 09:00", "nsi_id": "unitedstatespostalservice-a77078", "operator": "United States Postal Service", "operator:short": "USPS", "operator:type": "public", "operator:wikidata": "Q668687", "ref": "1650900023"}, "type": "Feature"}
{"geometry": {"coordinates": [-80.0919414, 42.079283], "type": "Point"}, "id": "0JFDfHosudZ5AoCxQQCgVreoG3Y=", "properties": {"@source_uri": "https://tools.usps.com/UspsToolsRestServices/rest/POLocator/findLocations", "@spider": "usps_collection_boxes", "addr:city": "ERIE", "addr:country": "US", "addr:postcode": "16509", "addr:state": "PA", "addr:street_address": "5100 PEACH ST", "amenity": "post_box", "collection_times": "Mo-Sa 11:00", "nsi_id": "unitedstatespostalservice-a77078", "operator": "United States Postal Service", "operator:short": "USPS", "operator:type": "public", "operator:wikidata": "Q668687", "ref": "1650900025"}, "type": "Feature"}
{"geometry": {"coordinates": [-80.0888446, 42.056772], "type": "Point"}, "id": "yy8AFAuCWpRvCX0qLgkSAQK8T_o=", "properties": {"@source_uri": "https://tools.usps.com/UspsToolsRestServices/rest/POLocator/findLocations", "@spider": "usps_collection_boxes", "addr:city": "ERIE", "addr:country": "US", "addr:postcode": "16509", "addr:state": "PA", "addr:street_address": "6801 PEACH ST", "amenity": "post_box", "collection_times": "Mo-Sa 09:00", "nsi_id": "unitedstatespostalservice-a77078", "operator": "United States Postal Service", "operator:short": "USPS", "operator:type": "public", "operator:wikidata": "Q668687", "ref": "1650900028"}, "type": "Feature"}
{"geometry": {"coordinates": [-80.082913, 42.056984], "type": "Point"}, "id": "dH-aDdTB1t2pqdIU9jpBGBI5CAY=", "properties": {"@source_uri": "https://tools.usps.com/UspsToolsRestServices/rest/POLocator/findLocations", "@spider": "usps_collection_boxes", "addr:city": "ERIE", "addr:country": "US", "addr:postcode": "16509", "addr:state": "PA", "addr:street_address": "1900 KEYSTONE DR", "amenity": "post_box", "collection_times": "Mo-Sa 09:00", "nsi_id": "unitedstatespostalservice-a77078", "operator": "United States Postal Service", "operator:short": "USPS", "operator:type": "public", "operator:wikidata": "Q668687", "ref": "1650900029"}, "type": "Feature"}
{"geometry": {"coordinates": [-80.0387227, 42.069415], "type": "Point"}, "id": "XFdtVIqEcN979I0XzcUrRagpUFI=", "properties": {"@source_uri": "https://tools.usps.com/UspsToolsRestServices/rest/POLocator/findLocations", "@spider": "usps_collection_boxes", "addr:city": "ERIE", "addr:country": "US", "addr:postcode": "16509", "addr:state": "PA", "addr:street_address": "8035 PERRY HWY", "amenity": "post_box", "collection_times": "Mo-Sa 10:00", "nsi_id": "unitedstatespostalservice-a77078", "operator": "United States Postal Service", "operator:short": "USPS", "operator:type": "public", "operator:wikidata": "Q668687", "ref": "1650900030"}, "type": "Feature"}
{"geometry": {"coordinates": [-80.0793733, 42.047432], "type": "Point"}, "id": "f37WDm-k8RuVf44LAo1SuqErbQA=", "properties": {"@source_uri": "https://tools.usps.com/UspsToolsRestServices/rest/POLocator/findLocations", "@spider": "usps_collection_boxes", "addr:city": "ERIE", "addr:country": "US", "addr:postcode": "16509", "addr:state": "PA", "addr:street_address": "8080 PEACH ST", "amenity": "post_box", "collection_times": "Mo-Sa 09:00", "nsi_id": "unitedstatespostalservice-a77078", "operator": "United States Postal Service", "operator:short": "USPS", "operator:type": "public", "operator:wikidata": "Q668687", "ref": "1650900033"}, "type": "Feature"}
{"geometry": {"coordinates": [-80.0041054, 42.143873], "type": "Point"}, "id": "LiYWElQ_lpaHMlVwDaK0lTVh14o=", "properties": {"@source_uri": "https://tools.usps.com/UspsToolsRestServices/rest/POLocator/findLocations", "@spider": "usps_collection_boxes", "addr:city": "ERIE", "addr:country": "US", "addr:postcode": "16510", "addr:state": "PA", "addr:street_address": "4265 BUFFALO RD", "amenity": "post_box", "collection_times": "Mo-Sa 11:00", "nsi_id": "unitedstatespostalservice-a77078", "operator": "United States Postal Service", "operator:short": "USPS", "operator:type": "public", "operator:wikidata": "Q668687", "ref": "1651000010"}, "type": "Feature"}
{"geometry": {"coordinates": [-80.01451, 42.13666], "type": "Point"}, "id": "nshqwu7y0-atUL7z54KMOOD60LE=", "properties": {"@source_uri": "https://tools.usps.com/UspsToolsRestServices/rest/POLocator/findLocations", "@spider": "usps_collection_boxes", "addr:city": "ERIE", "addr:country": "US", "addr:postcode": "16510", "addr:state": "PA", "addr:street_address": "4415 BUFFALO RD", "amenity": "post_box", "collection_times": "Mo-Sa 11:00", "nsi_id": "unitedstatespostalservice-a77078", "operator": "United States Postal Service", "operator:short": "USPS", "operator:type": "public", "operator:wikidata": "Q668687", "ref": "1651000011"}, "type": "Feature"}
{"geometry": {"coordinates": [-80.0100296503, 42.1173345529], "type": "Point"}, "id": "746q59WzEElyat1_K6gyv6fZ3Rk=", "properties": {"@source_uri": "https://tools.usps.com/UspsToolsRestServices/rest/POLocator/findLocations", "@spider": "usps_collection_boxes", "addr:city": "ERIE", "addr:country": "US", "addr:postcode": "16510", "addr:state": "PA", "addr:street_address": "2504 E 43RD ST", "amenity": "post_box", "collection_times": "Mo-Sa 10:30", "nsi_id": "unitedstatespostalservice-a77078", "operator": "United States Postal Service", "operator:short": "USPS", "operator:type": "public", "operator:wikidata": "Q668687", "ref": "1651000017"}, "type": "Feature"}
{"geometry": {"coordinates": [-80.0172222, 42.140463], "type": "Point"}, "id": "N3EHoMh93YnYH7-g0h_goFgROt4=", "properties": {"@source_uri": "https://tools.usps.com/UspsToolsRestServices/rest/POLocator/findLocations", "@spider": "usps_collection_boxes", "addr:city": "ERIE", "addr:country": "US", "addr:postcode": "16510", "addr:state": "PA", "addr:street_address": "2921 NORTH ST", "amenity": "post_box", "collection_times": "Mo-Fr 15:00; Sa 13:00", "note": "ON 12/24 AND 12/31, THIS BOX MAY BE COLLECTED AS EARLY AS 12 NOON.", "nsi_id": "unitedstatespostalservice-a77078", "operator": "United States Postal Service", "operator:short": "USPS", "operator:type": "public", "operator:wikidata": "Q668687", "ref": "1651000019"}, "type": "Feature"}
{"geometry": {"coordinates": [-80.0233775, 42.11945], "type": "Point"}, "id": "hbR7WYpy3oUnqMya4v4d1nN1Ucs=", "properties": {"@source_uri": "https://tools.usps.com/UspsToolsRestServices/rest/POLocator/findLocations", "@spider": "usps_collection_boxes", "addr:city": "ERIE", "addr:country": "US", "addr:postcode": "16510", "addr:state": "PA", "addr:street_address": "2108 E 38TH ST", "amenity": "post_box", "collection_times": "Mo-Sa 18:00", "note": "ON 12/24 AND 12/31, THIS BOX MAY BE COLLECTED AS EARLY AS 12 NOON.", "nsi_id": "unitedstatespostalservice-a77078", "operator": "United States Postal Service", "operator:short": "USPS", "operator:type": "public", "operator:wikidata": "Q668687", "ref": "1651000024"}, "type": "Feature"}
{"geometry": {"coordinates": [-80.0299432247, 42.115826548], "type": "Point"}, "id": "U8eWZFmlCW7MFGXO4-f8x4I78qU=", "properties": {"@source_uri": "https://tools.usps.com/UspsToolsRestServices/rest/POLocator/findLocations", "@spider": "usps_collection_boxes", "addr:city": "ERIE", "addr:country": "US", "addr:postcode": "16510", "addr:state": "PA", "addr:street_address": "1702 E 38TH ST", "amenity": "post_box", "collection_times": "Mo-Sa 09:00", "nsi_id": "unitedstatespostalservice-a77078", "operator": "United States Postal Service", "operator:short": "USPS", "operator:type": "public", "operator:wikidata": "Q668687", "ref": "1651000028"}, "type": "Feature"}
{"geometry": {"coordinates": [-79.9234504528, 42.1405068512], "type": "Point"}, "id": "bjb7ARF-d-bt0DZr93AIlMA9w30=", "properties": {"@source_uri": "https://tools.usps.com/UspsToolsRestServices/rest/POLocator/findLocations", "@spider": "usps_collection_boxes", "addr:city": "ERIE", "addr:country": "US", "addr:postcode": "16510", "addr:state": "PA", "addr:street_address": "4050 DEPOT RD", "amenity": "post_box", "collection_times": "Mo-Sa 10:15", "nsi_id": "unitedstatespostalservice-a77078", "operator": "United States Postal Service", "operator:short": "USPS", "operator:type": "public", "operator:wikidata": "Q668687", "ref": "1651000029"}, "type": "Feature"}
{"geometry": {"coordinates": [-80.020492, 42.1193], "type": "Point"}, "id": "lH59HCHOgbNYuwrRwe3knM0S3BA=", "properties": {"@source_uri": "https://tools.usps.com/UspsToolsRestServices/rest/POLocator/findLocations", "@spider": "usps_collection_boxes", "addr:city": "ERIE", "addr:country": "US", "addr:postcode": "16510", "addr:state": "PA", "addr:street_address": "2108 E 38TH ST", "amenity": "post_box", "collection_times": "Mo-Sa 18:00", "indoor": "yes", "note": "ON 12/24 AND 12/31, THIS BOX MAY BE COLLECTED AS EARLY AS 12 NOON.", "nsi_id": "unitedstatespostalservice-a77078", "operator": "United States Postal Service", "operator:short": "USPS", "operator:type": "public", "operator:wikidata": "Q668687", "ref": "1651000033"}, "type": "Feature"}
{"geometry": {"coordinates": [-80.020492, 42.1193], "type": "Point"}, "id": "gLJtYSSQSrcVTEzfWv1guxN_5jw=", "properties": {"@source_uri": "https://tools.usps.com/UspsToolsRestServices/rest/POLocator/findLocations", "@spider": "usps_collection_boxes", "addr:city": "ERIE", "addr:country": "US", "addr:postcode": "16510", "addr:state": "PA", "addr:street_address": "2108 E 38TH ST", "amenity": "post_box", "collection_times": "Mo-Sa 18:00", "name": "USPS COLLECTION BOX - APC", "note": "ON 12/24 AND 12/31, THIS BOX MAY BE COLLECTED AS EARLY AS 12 NOON.", "nsi_id": "unitedstatespostalservice-a77078", "operator": "United States Postal Service", "operator:short": "USPS", "operator:type": "public", "operator:wikidata": "Q668687", "ref": "1651000034"}, "type": "Feature"}
{"geometry": {"coordinates": [-80.021742168, 42.118842539], "type": "Point"}, "id": "ntzmneOZEkyWDJvxD5Aju-Wtwrc=", "properties": {"@source_uri": "https://tools.usps.com/UspsToolsRestServices/rest/POLocator/findLocations", "@spider": "usps_collection_boxes", "addr:city": "ERIE", "addr:country": "US", "addr:postcode": "16510", "addr:state": "PA", "addr:street_address": "2108 E 38TH ST", "amenity": "post_box", "collection_times": "Mo-Fr 18:00; Sa 13:00", "indoor": "yes", "note": "ON 12/24 AND 12/31, THIS BOX MAY BE COLLECTED AS EARLY AS 12 NOON.", "nsi_id": "unitedstatespostalservice-a77078", "operator": "United States Postal Service", "operator:short": "USPS", "operator:type": "public", "operator:wikidata": "Q668687", "ref": "1651000038"}, "type": "Feature"}
{"geometry": {"coordinates": [-80.0287299, 42.151085], "type": "Point"}, "id": "fLkTCufXXwCS4y34Y1QoBXOzRAE=", "properties": {"@source_uri": "https://tools.usps.com/UspsToolsRestServices/rest/POLocator/findLocations", "@spider": "usps_collection_boxes", "addr:city": "ERIE", "addr:country": "US", "addr:postcode": "16511", "addr:state": "PA", "addr:street_address": "443 LAKE CLIFF DR", "amenity": "post_box", "collection_times": "Mo-Sa 10:00", "nsi_id": "unitedstatespostalservice-a77078", "operator": "United States Postal Service", "operator:short": "USPS", "operator:type": "public", "operator:wikidata": "Q668687", "ref": "1651100002"}, "type": "Feature"}
{"geometry": {"coordinates": [-80.0153699, 42.150512], "type": "Point"}, "id": "-C4n76mYLUeudXG4zUp2ZgKegfI=", "properties": {"@source_uri": "https://tools.usps.com/UspsToolsRestServices/rest/POLocator/findLocations", "@spider": "usps_collection_boxes", "addr:city": "ERIE", "addr:country": "US", "addr:postcode": "16511", "addr:state": "PA", "addr:street_address": "3924 MAIN ST", "amenity": "post_box", "collection_times": "Mo-Sa 09:30", "nsi_id": "unitedstatespostalservice-a77078", "operator": "United States Postal Service", "operator:short": "USPS", "operator:type": "public", "operator:wikidata": "Q668687", "ref": "1651100010"}, "type": "Feature"}
{"geometry": {"coordinates": [-80.0129494, 42.152367], "type": "Point"}, "id": "ATEIsasWm_-Bju-AB9XuUSzsaGQ=", "properties": {"@source_uri": "https://tools.usps.com/UspsToolsRestServices/rest/POLocator/findLocations", "@spider": "usps_collection_boxes", "addr:city": "ERIE", "addr:country": "US", "addr:postcode": "16511", "addr:state": "PA", "addr:street_address": "4230 IROQUOIS AVE", "amenity": "post_box", "collection_times": "Mo-Sa 09:00", "nsi_id": "unitedstatespostalservice-a77078", "operator": "United States Postal Service", "operator:short": "USPS", "operator:type": "public", "operator:wikidata": "Q668687", "ref": "1651100017"}, "type": "Feature"}
