{"dataset_attributes": {"@spider": "usps_collection_boxes"}, "geometry": {"coordinates": [-78.104526833, 40.560491649], "type": "Point"}, "id": "PE-Yeh5MeOBk9_Ry4y2pZcjRJLI=", "properties": {"@spider": "usps_collection_boxes", "addr:city": "ALEXANDRIA", "addr:country": "US", "addr:full": "703 CANAL ST", "addr:postcode": "16611", "addr:state": "PA", "amenity": "post_box", "brand": "United States Postal Service", "brand:wikidata": "Q668687", "collection_times": "Mo-Fr 16:30; Sa 12:00", "name": "USPS COLLECTION BOX - BLUE BOX", "note": "ON 12/24 AND 12/31, THIS BOX MAY BE COLLECTED AS EARLY AS 12 NOON.", "nsi_id": "unitedstatespostalservice-a77078", "operator": "United States Postal Service", "operator:short": "USPS", "operator:type": "public", "operator:wikidata": "Q668687", "ref": "1661100000"}, "type": "Feature"}
{"dataset_attributes": {"@spider": "usps_collection_boxes"}, "geometry": {"coordinates": [-78.100002596, 40.557552968], "type": "Point"}, "id": "MtE_LrYdfbtCOXbGN2Qedw7pZNs=", "properties": {"@spider": "usps_collection_boxes", "addr:city": "ALEXANDRIA", "addr:country": "US", "addr:full": "402 MAIN ST", "addr:postcode": "16611", "addr:state": "PA", "amenity": "post_box", "brand": "United States Postal Service", "brand:wikidata": "Q668687", "collection_times": "Mo-Sa 12:00", "name": "USPS COLLECTION BOX - BLUE BOX", "nsi_id": "unitedstatespostalservice-a77078", "operator": "United States Postal Service", "operator:short": "USPS", "operator:type": "public", "operator:wikidata": "Q668687", "ref": "1661100001"}, "type": "Feature"}
{"dataset_attributes": {"@spider": "usps_collection_boxes"}, "geometry": {"coordinates": [-78.104526833, 40.560491649], "type": "Point"}, "id": "tndp3A3OvV5rg0ErsMWkjlcWrBA=", "properties": {"@spider": "usps_collection_boxes", "addr:city": "ALEXANDRIA", "addr:country": "US", "addr:full": "703 CANAL ST", "addr:postcode": "16611", "addr:state": "PA", "amenity": "post_box", "brand": "United States Postal Service", "brand:wikidata": "Q668687", "collection_times": "Mo-Fr 16:30; Sa 12:00", "name": "USPS COLLECTION BOX - PO LOBBY", "note": "ON 12/24 AND 12/31, THIS BOX MAY BE COLLECTED AS EARLY AS 12 NOON.", "nsi_id": "unitedstatespostalservice-a77078", "operator": "United States Postal Service", "operator:short": "USPS", "operator:type": "public", "operator:wikidata": "Q668687", "ref": "1661100002"}, "type": "Feature"}
{"dataset_attributes": {"@spider": "usps_collection_boxes"}, "geometry": {"coordinates": [-78.104526833, 40.560491649], "type": "Point"}, "id": "4p_md2bENxLFXxAHO9FiJL5INMw=", "properties": {"@spider": "usps_collection_boxes", "addr:city": "ALEXANDRIA", "addr:country": "US", "addr:full": "703 CANAL ST", "addr:postcode": "16611", "addr:state": "PA", "amenity": "post_box", "brand": "United States Postal Service", "brand:wikidata": "Q668687", "collection_times": "Mo-Fr 16:30; Sa 12:00", "name": "USPS COLLECTION BOX - PO LOBBY", "note": "ON 12/24 AND 12/31, THIS BOX MAY BE COLLECTED AS EARLY AS 12 NOON.", "nsi_id": "unitedstatespostalservice-a77078", "operator": "United States Postal Service", "operator:short": "USPS", "operator:type": "public", "operator:wikidata": "Q668687", "ref": "1661100004"}, "type": "Feature"}
{"dataset_attributes": {"@spider": "usps_collection_boxes"}, "geometry": {"coordinates": [-78.027001808, 40.337500747], "type": "Point"}, "id": "NU_vmlkVZO-0BsBQ-UbYaSsZaSM=", "properties": {"@spider": "usps_collection_boxes", "addr:city": "CALVIN", "addr:country": "US", "addr:full": "16281 TROUGH CREEK VALLEY PIKE", "addr:postcode": "16622", "addr:state": "PA", "amenity": "post_box", "brand": "United States Postal Service", "brand:wikidata": "Q668687", "collection_times": "Mo-Fr 11:30; Sa 11:55", "name": "USPS COLLECTION BOX - BLUE BOX", "nsi_id": "unitedstatespostalservice-a77078", "operator": "United States Postal Service", "operator:short": "USPS", "operator:type": "public", "operator:wikidata": "Q668687", "ref": "1662200000"}, "type": "Feature"}
{"dataset_attributes": {"@spider": "usps_collection_boxes"}, "geometry": {"coordinates": [-78.027001808, 40.337500747], "type": "Point"}, "id": "IQmykEiXvXqvkM8bWm638_hS2bM=", "properties": {"@spider": "usps_collection_boxes", "addr:city": "CALVIN", "addr:country": "US", "addr:full": "16281 TROUGH CREEK VALLEY PIKE", "addr:postcode": "16622", "addr:state": "PA", "amenity": "post_box", "brand": "United States Postal Service", "brand:wikidata": "Q668687", "collection_times": "Mo-Fr 11:30; Sa 11:55", "name": "USPS COLLECTION BOX - PO LOBBY", "nsi_id": "unitedstatespostalservice-a77078", "operator": "United States Postal Service", "operator:short": "USPS", "operator:type": "public", "operator:wikidata": "Q668687", "ref": "1662200001"}, "type": "Feature"}
{"dataset_attributes": {"@spider": "usps_collection_boxes"}, "geometry": {"coordinates": [-78.027001808, 40.337500747], "type": "Point"}, "id": "qUHJU1e7Nc15vM0CugRVDWYhs8I=", "properties": {"@spider": "usps_collection_boxes", "addr:city": "CALVIN", "addr:country": "US", "addr:full": "16281 TROUGH CREEK VALLEY PIKE", "addr:postcode": "16622", "addr:state": "PA", "amenity": "post_box", "brand": "United States Postal Service", "brand:wikidata": "Q668687", "collection_times": "Mo-Fr 11:30; Sa 11:55", "name": "USPS COLLECTION BOX - PO LOBBY", "nsi_id": "unitedstatespostalservice-a77078", "operator": "United States Postal Service", "operator:short": "USPS", "operator:type": "public", "operator:wikidata": "Q668687", "ref": "1662200003"}, "type": "Feature"}
{"dataset_attributes": {"@spider": "usps_collection_boxes"}, "geometry": {"coordinates": [-78.026896079, 40.29442593], "type": "Point"}, "id": "o1hmP1rrkl6T4dXZBPv_afGhNAU=", "properties": {"@spider": "usps_collection_boxes", "addr:city": "CASSVILLE", "addr:country": "US", "addr:full": "211 CHERRY ST", "addr:postcode": "16623", "addr:state": "PA", "amenity": "post_box", "brand": "United States Postal Service", "brand:wikidata": "Q668687", "collection_times": "Mo-Fr 11:30; Sa 11:55", "name": "USPS COLLECTION BOX - BLUE BOX", "nsi_id": "unitedstatespostalservice-a77078", "operator": "United States Postal Service", "operator:short": "USPS", "operator:type": "public", "operator:wikidata": "Q668687", "ref": "1662300000"}, "type": "Feature"}
{"dataset_attributes": {"@spider": "usps_collection_boxes"}, "geometry": {"coordinates": [-78.026896079, 40.29442593], "type": "Point"}, "id": "xoQBfRQKhbESx36_McpzbeCDq6s=", "properties": {"@spider": "usps_collection_boxes", "addr:city": "CASSVILLE", "addr:country": "US", "addr:full": "211 CHERRY ST", "addr:postcode": "16623", "addr:state": "PA", "amenity": "post_box", "brand": "United States Postal Service", "brand:wikidata": "Q668687", "collection_times": "Mo-Fr 11:30; Sa 11:55", "name": "USPS COLLECTION BOX - PO LOBBY", "nsi_id": "unitedstatespostalservice-a77078", "operator": "United States Postal Service", "operator:short": "USPS", "operator:type": "public", "operator:wikidata": "Q668687", "ref": "1662300002"}, "type": "Feature"}
{"dataset_attributes": {"@spider": "usps_collection_boxes"}, "geometry": {"coordinates": [-78.026896079, 40.29442593], "type": "Point"}, "id": "Kto-HgOkGYI-8xNkJAK4w4_9QCs=", "properties": {"@spider": "usps_collection_boxes", "addr:city": "CASSVILLE", "addr:country": "US", "addr:full": "211 CHERRY ST", "addr:postcode": "16623", "addr:state": "PA", "amenity": "post_box", "brand": "United States Postal Service", "brand:wikidata": "Q668687", "collection_times": "Mo-Fr 11:30; Sa 11:55", "name": "USPS COLLECTION BOX - PO LOBBY", "nsi_id": "unitedstatespostalservice-a77078", "operator": "United States Postal Service", "operator:short": "USPS", "operator:type": "public", "operator:wikidata": "Q668687", "ref": "1662300004"}, "type": "Feature"}
{"dataset_attributes": {"@spider": "usps_collection_boxes"}, "geometry": {"coordinates": [-78.108842405, 40.420139197], "type": "Point"}, "id": "dMC9iEt7-5ZPs63tKobEQV5Ud9Q=", "properties": {"@spider": "usps_collection_boxes", "addr:city": "HESSTON", "addr:country": "US", "addr:full": "12393 MAPLE LN", "addr:postcode": "16647", "addr:state": "PA", "amenity": "post_box", "brand": "United States Postal Service", "brand:wikidata": "Q668687", "collection_times": "Mo-Fr 11:25; Sa 10:55", "name": "USPS COLLECTION BOX - BLUE BOX", "nsi_id": "unitedstatespostalservice-a77078", "operator": "United States Postal Service", "operator:short": "USPS", "operator:type": "public", "operator:wikidata": "Q668687", "ref": "1664700000"}, "type": "Feature"}
{"dataset_attributes": {"@spider": "usps_collection_boxes"}, "geometry": {"coordinates": [-78.108842405, 40.420139197], "type": "Point"}, "id": "Amam8P5tvtKa8EgYdlA2Fn-rmf4=", "properties": {"@spider": "usps_collection_boxes", "addr:city": "HESSTON", "addr:country": "US", "addr:full": "12393 MAPLE LN", "addr:postcode": "16647", "addr:state": "PA", "amenity": "post_box", "brand": "United States Postal Service", "brand:wikidata": "Q668687", "collection_times": "Mo-Fr 11:25; Sa 10:55", "name": "USPS COLLECTION BOX - PO LOBBY", "nsi_id": "unitedstatespostalservice-a77078", "operator": "United States Postal Service", "operator:short": "USPS", "operator:type": "public", "operator:wikidata": "Q668687", "ref": "1664700001"}, "type": "Feature"}
{"dataset_attributes": {"@spider": "usps_collection_boxes"}, "geometry": {"coordinates": [-78.108842405, 40.420139197], "type": "Point"}, "id": "Z85kEnEJn2Y_9MeyFeH0QUyIebk=", "properties": {"@spider": "usps_collection_boxes", "addr:city": "HESSTON", "addr:country": "US", "addr:full": "12393 MAPLE LN", "addr:postcode": "16647", "addr:state": "PA", "amenity": "post_box", "brand": "United States Postal Service", "brand:wikidata": "Q668687", "collection_times": "Mo-Fr 11:25; Sa 10:55", "name": "USPS COLLECTION BOX - PO LOBBY", "nsi_id": "unitedstatespostalservice-a77078", "operator": "United States Postal Service", "operator:short": "USPS", "operator:type": "public", "operator:wikidata": "Q668687", "ref": "1664700003"}, "type": "Feature"}
{"dataset_attributes": {"@spider": "usps_collection_boxes"}, "geometry": {"coordinates": [-78.0132794, 40.486139], "type": "Point"}, "id": "Qyh-oiPfivuXggVT7GHnmjLJ0jw=", "properties": {"@spider": "usps_collection_boxes", "addr:city": "HUNTINGDON", "addr:country": "US", "addr:full": "601 WASHINGTON ST", "addr:postcode": "16652", "addr:state": "PA", "amenity": "post_box", "brand": "United States Postal Service", "brand:wikidata": "Q668687", "collection_times": "Mo-Sa 09:00", "name": "USPS COLLECTION BOX - BLUE BOX", "nsi_id": "unitedstatespostalservice-a77078", "operator": "United States Postal Service", "operator:short": "USPS", "operator:type": "public", "operator:wikidata": "Q668687", "ref": "1665200001"}, "type": "Feature"}
{"dataset_attributes": {"@spider": "usps_collection_boxes"}, "geometry": {"coordinates": [-78.0151234, 40.486603], "type": "Point"}, "id": "PO0zL458iWnrZODno8ocjAM4LcE=", "properties": {"@spider": "usps_collection_boxes", "addr:city": "HUNTINGDON", "addr:country": "US", "addr:full": "711 WASHINGTON ST", "addr:postcode": "16652", "addr:state": "PA", "amenity": "post_box", "brand": "United States Postal Service", "brand:wikidata": "Q668687", "collection_times": "Mo-Sa 09:00", "name": "USPS COLLECTION BOX - BLUE BOX", "nsi_id": "unitedstatespostalservice-a77078", "operator": "United States Postal Service", "operator:short": "USPS", "operator:type": "public", "operator:wikidata": "Q668687", "ref": "1665200002"}, "type": "Feature"}
{"dataset_attributes": {"@spider": "usps_collection_boxes"}, "geometry": {"coordinates": [-78.0168866, 40.487374], "type": "Point"}, "id": "b_Jhy9G46e4Ksj9CkTJrzqxPuaM=", "properties": {"@spider": "usps_collection_boxes", "addr:city": "HUNTINGDON", "addr:country": "US", "addr:full": "803 WASHINGTON ST", "addr:postcode": "16652", "addr:state": "PA", "amenity": "post_box", "brand": "United States Postal Service", "brand:wikidata": "Q668687", "collection_times": "Mo-Fr 15:00; Sa 09:00", "name": "USPS COLLECTION BOX - BLUE BOX", "note": "ON 12/24 AND 12/31, THIS BOX MAY BE COLLECTED AS EARLY AS 12 NOON.", "nsi_id": "unitedstatespostalservice-a77078", "operator": "United States Postal Service", "operator:short": "USPS", "operator:type": "public", "operator:wikidata": "Q668687", "ref": "1665200003"}, "type": "Feature"}
{"dataset_attributes": {"@spider": "usps_collection_boxes"}, "geometry": {"coordinates": [-78.0176311, 40.489632], "type": "Point"}, "id": "waR0-uCErW4OoyU7IMGOsBT1e48=", "properties": {"@spider": "usps_collection_boxes", "addr:city": "HUNTINGDON", "addr:country": "US", "addr:full": "930 WASHINGTON ST", "addr:postcode": "16652", "addr:state": "PA", "amenity": "post_box", "brand": "United States Postal Service", "brand:wikidata": "Q668687", "collection_times": "Mo-Sa 09:00", "name": "USPS COLLECTION BOX - BLUE BOX", "nsi_id": "unitedstatespostalservice-a77078", "operator": "United States Postal Service", "operator:short": "USPS", "operator:type": "public", "operator:wikidata": "Q668687", "ref": "1665200004"}, "type": "Feature"}
{"dataset_attributes": {"@spider": "usps_collection_boxes"}, "geometry": {"coordinates": [-78.0188409, 40.494745], "type": "Point"}, "id": "QFI4yWg2eqs-E6QFcB4fKXokzFw=", "properties": {"@spider": "usps_collection_boxes", "addr:city": "HUNTINGDON", "addr:country": "US", "addr:full": "1401 WASHINGTON ST", "addr:postcode": "16652", "addr:state": "PA", "amenity": "post_box", "brand": "United States Postal Service", "brand:wikidata": "Q668687", "collection_times": "Mo-Sa 09:00", "name": "USPS COLLECTION BOX - BLUE BOX", "nsi_id": "unitedstatespostalservice-a77078", "operator": "United States Postal Service", "operator:short": "USPS", "operator:type": "public", "operator:wikidata": "Q668687", "ref": "1665200005"}, "type": "Feature"}
{"dataset_attributes": {"@spider": "usps_collection_boxes"}, "geometry": {"coordinates": [-78.0197359, 40.498235], "type": "Point"}, "id": "NpaiynDZ3TubpWlHZhHQx7UATDM=", "properties": {"@spider": "usps_collection_boxes", "addr:city": "HUNTINGDON", "addr:country": "US", "addr:full": "1629 WASHINGTON ST", "addr:postcode": "16652", "addr:state": "PA", "amenity": "post_box", "brand": "United States Postal Service", "brand:wikidata": "Q668687", "collection_times": "Mo-Sa 09:00", "name": "USPS COLLECTION BOX - BLUE BOX", "nsi_id": "unitedstatespostalservice-a77078", "operator": "United States Postal Service", "operator:short": "USPS", "operator:type": "public", "operator:wikidata": "Q668687", "ref": "1665200006"}, "type": "Feature"}
{"dataset_attributes": {"@spider": "usps_collection_boxes"}, "geometry": {"coordinates": [-78.0065263, 40.484491], "type": "Point"}, "id": "-1PLikBRpmomckT8u7rPS3MAeqw=", "properties": {"@spider": "usps_collection_boxes", "addr:city": "HUNTINGDON", "addr:country": "US", "addr:full": "200 MIFFLIN ST", "addr:postcode": "16652", "addr:state": "PA", "amenity": "post_box", "brand": "United States Postal Service", "brand:wikidata": "Q668687", "collection_times": "Mo-Sa 09:00", "name": "USPS COLLECTION BOX - BLUE BOX", "nsi_id": "unitedstatespostalservice-a77078", "operator": "United States Postal Service", "operator:short": "USPS", "operator:type": "public", "operator:wikidata": "Q668687", "ref": "1665200007"}, "type": "Feature"}
{"dataset_attributes": {"@spider": "usps_collection_boxes"}, "geometry": {"coordinates": [-78.0143049, 40.487189], "type": "Point"}, "id": "qNszva6EsUxMur5A7RaAeazimj4=", "properties": {"@spider": "usps_collection_boxes", "addr:city": "HUNTINGDON", "addr:country": "US", "addr:full": "701 MIFFLIN ST", "addr:postcode": "16652", "addr:state": "PA", "amenity": "post_box", "brand": "United States Postal Service", "brand:wikidata": "Q668687", "collection_times": "Mo-Sa 09:00", "name": "USPS COLLECTION BOX - BLUE BOX", "nsi_id": "unitedstatespostalservice-a77078", "operator": "United States Postal Service", "operator:short": "USPS", "operator:type": "public", "operator:wikidata": "Q668687", "ref": "1665200008"}, "type": "Feature"}
{"dataset_attributes": {"@spider": "usps_collection_boxes"}, "geometry": {"coordinates": [-78.0157783, 40.488552], "type": "Point"}, "id": "pHOD9UvRMHUI4q9-NhQ4jfTO02M=", "properties": {"@spider": "usps_collection_boxes", "addr:city": "HUNTINGDON", "addr:country": "US", "addr:full": "831 MIFFLIN ST", "addr:postcode": "16652", "addr:state": "PA", "amenity": "post_box", "brand": "United States Postal Service", "brand:wikidata": "Q668687", "collection_times": "Mo-Sa 09:00", "name": "USPS COLLECTION BOX - BLUE BOX", "nsi_id": "unitedstatespostalservice-a77078", "operator": "United States Postal Service", "operator:short": "USPS", "operator:type": "public", "operator:wikidata": "Q668687", "ref": "1665200009"}, "type": "Feature"}
{"dataset_attributes": {"@spider": "usps_collection_boxes"}, "geometry": {"coordinates": [-78.0168535, 40.492374], "type": "Point"}, "id": "X94CmAXG3PzDphvV20N9V6K3KEU=", "properties": {"@spider": "usps_collection_boxes", "addr:city": "HUNTINGDON", "addr:country": "US", "addr:full": "1135 MIFFLIN ST", "addr:postcode": "16652", "addr:state": "PA", "amenity": "post_box", "brand": "United States Postal Service", "brand:wikidata": "Q668687", "collection_times": "Mo-Sa 12:00", "name": "USPS COLLECTION BOX - BLUE BOX", "nsi_id": "unitedstatespostalservice-a77078", "operator": "United States Postal Service", "operator:short": "USPS", "operator:type": "public", "operator:wikidata": "Q668687", "ref": "1665200011"}, "type": "Feature"}
{"dataset_attributes": {"@spider": "usps_collection_boxes"}, "geometry": {"coordinates": [-78.0177399, 40.496033], "type": "Point"}, "id": "0mx0wKAOrPwb7UFE_kG4mUNCMWY=", "properties": {"@spider": "usps_collection_boxes", "addr:city": "HUNTINGDON", "addr:country": "US", "addr:full": "1431 MIFFLIN ST", "addr:postcode": "16652", "addr:state": "PA", "amenity": "post_box", "brand": "United States Postal Service", "brand:wikidata": "Q668687", "collection_times": "Mo-Sa 13:00", "name": "USPS COLLECTION BOX - BLUE BOX", "note": "ON 12/24 AND 12/31, THIS BOX MAY BE COLLECTED AS EARLY AS 12 NOON.", "nsi_id": "unitedstatespostalservice-a77078", "operator": "United States Postal Service", "operator:short": "USPS", "operator:type": "public", "operator:wikidata": "Q668687", "ref": "1665200012"}, "type": "Feature"}
{"dataset_attributes": {"@spider": "usps_collection_boxes"}, "geometry": {"coordinates": [-78.0187935, 40.499808], "type": "Point"}, "id": "msf9DbYIG6O4PDEe5UbYk0o2QDY=", "properties": {"@spider": "usps_collection_boxes", "addr:city": "HUNTINGDON", "addr:country": "US", "addr:full": "1801 MIFFLIN ST", "addr:postcode": "16652", "addr:state": "PA", "amenity": "post_box", "brand": "United States Postal Service", "brand:wikidata": "Q668687", "collection_times": "Mo-Sa 13:30", "name": "USPS COLLECTION BOX - BLUE BOX", "note": "ON 12/24 AND 12/31, THIS BOX MAY BE COLLECTED AS EARLY AS 12 NOON.", "nsi_id": "unitedstatespostalservice-a77078", "operator": "United States Postal Service", "operator:short": "USPS", "operator:type": "public", "operator:wikidata": "Q668687", "ref": "1665200013"}, "type": "Feature"}
{"dataset_attributes": {"@spider": "usps_collection_boxes"}, "geometry": {"coordinates": [-78.0133587, 40.48839], "type": "Point"}, "id": "aQ185zbKkBjuAWIF91hYCxf0y64=", "properties": {"@spider": "usps_collection_boxes", "addr:city": "HUNTINGDON", "addr:country": "US", "addr:full": "631 MOORE ST", "addr:postcode": "16652", "addr:state": "PA", "amenity": "post_box", "brand": "United States Postal Service", "brand:wikidata": "Q668687", "collection_times": "Mo-Sa 09:00", "name": "USPS COLLECTION BOX - BLUE BOX", "nsi_id": "unitedstatespostalservice-a77078", "operator": "United States Postal Service", "operator:short": "USPS", "operator:type": "public", "operator:wikidata": "Q668687", "ref": "1665200014"}, "type": "Feature"}
{"dataset_attributes": {"@spider": "usps_collection_boxes"}, "geometry": {"coordinates": [-78.0154671, 40.492721], "type": "Point"}, "id": "bh8My3NIoHuLAokbyalkMHHtdFE=", "properties": {"@spider": "usps_collection_boxes", "addr:city": "HUNTINGDON", "addr:country": "US", "addr:full": "1200 MOORE ST", "addr:postcode": "16652", "addr:state": "PA", "amenity": "post_box", "brand": "United States Postal Service", "brand:wikidata": "Q668687", "collection_times": "Mo-Sa 09:00", "name": "USPS COLLECTION BOX - BLUE BOX", "nsi_id": "unitedstatespostalservice-a77078", "operator": "United States Postal Service", "operator:short": "USPS", "operator:type": "public", "operator:wikidata": "Q668687", "ref": "1665200015"}, "type": "Feature"}
{"dataset_attributes": {"@spider": "usps_collection_boxes"}, "geometry": {"coordinates": [-78.0147952, 40.490167], "type": "Point"}, "id": "iJS0vS6GnN1LHHjCydnY621eRm8=", "properties": {"@spider": "usps_collection_boxes", "addr:city": "HUNTINGDON", "addr:country": "US", "addr:full": "1001 MOORE ST", "addr:postcode": "16652", "addr:state": "PA", "amenity": "post_box", "brand": "United States Postal Service", "brand:wikidata": "Q668687", "collection_times": "Mo-Sa 09:00", "name": "USPS COLLECTION BOX - BLUE BOX", "nsi_id": "unitedstatespostalservice-a77078", "operator": "United States Postal Service", "operator:short": "USPS", "operator:type": "public", "operator:wikidata": "Q668687", "ref": "1665200016"}, "type": "Feature"}
{"dataset_attributes": {"@spider": "usps_collection_boxes"}, "geometry": {"coordinates": [-78.0164659, 40.495104], "type": "Point"}, "id": "VV2yLU3U8u2wNMjLC95vh3JehKs=", "properties": {"@spider": "usps_collection_boxes", "addr:city": "HUNTINGDON", "addr:country": "US", "addr:full": "419 14TH ST", "addr:postcode": "16652", "addr:state": "PA", "amenity": "post_box", "brand": "United States Postal Service", "brand:wikidata": "Q668687", "collection_times": "Mo-Sa 10:00", "name": "USPS COLLECTION BOX - BLUE BOX", "nsi_id": "unitedstatespostalservice-a77078", "operator": "United States Postal Service", "operator:short": "USPS", "operator:type": "public", "operator:wikidata": "Q668687", "ref": "1665200017"}, "type": "Feature"}
{"dataset_attributes": {"@spider": "usps_collection_boxes"}, "geometry": {"coordinates": [-78.0113081, 40.493674], "type": "Point"}, "id": "73aHSTx3ZrxhxGvH9DYGD7SQEUE=", "properties": {"@spider": "usps_collection_boxes", "addr:city": "HUNTINGDON", "addr:country": "US", "addr:full": "1225 WARM SPRINGS AVE", "addr:postcode": "16652", "addr:state": "PA", "amenity": "post_box", "brand": "United States Postal Service", "brand:wikidata": "Q668687", "collection_times": "Mo-Sa 10:15", "name": "USPS COLLECTION BOX - BLUE BOX", "nsi_id": "unitedstatespostalservice-a77078", "operator": "United States Postal Service", "operator:short": "USPS", "operator:type": "public", "operator:wikidata": "Q668687", "ref": "1665200020"}, "type": "Feature"}
{"dataset_attributes": {"@spider": "usps_collection_boxes"}, "geometry": {"coordinates": [-78.0152772, 40.496413], "type": "Point"}, "id": "ktjzEAVWMvz6OOqcTA5TSGNKSE8=", "properties": {"@spider": "usps_collection_boxes", "addr:city": "HUNTINGDON", "addr:country": "US", "addr:full": "1430 ONEIDA ST", "addr:postcode": "16652", "addr:state": "PA", "amenity": "post_box", "brand": "United States Postal Service", "brand:wikidata": "Q668687", "collection_times": "Mo-Sa 09:00", "name": "USPS COLLECTION BOX - BLUE BOX", "nsi_id": "unitedstatespostalservice-a77078", "operator": "United States Postal Service", "operator:short": "USPS", "operator:type": "public", "operator:wikidata": "Q668687", "ref": "1665200021"}, "type": "Feature"}
{"dataset_attributes": {"@spider": "usps_collection_boxes"}, "geometry": {"coordinates": [-78.0136549, 40.495404], "type": "Point"}, "id": "samZZz80yR8p7H94kAA-X5FAkZ4=", "properties": {"@spider": "usps_collection_boxes", "addr:city": "HUNTINGDON", "addr:country": "US", "addr:full": "620 14TH ST", "addr:postcode": "16652", "addr:state": "PA", "amenity": "post_box", "brand": "United States Postal Service", "brand:wikidata": "Q668687", "collection_times": "Mo-Sa 09:00", "name": "USPS COLLECTION BOX - BLUE BOX", "nsi_id": "unitedstatespostalservice-a77078", "operator": "United States Postal Service", "operator:short": "USPS", "operator:type": "public", "operator:wikidata": "Q668687", "ref": "1665200022"}, "type": "Feature"}
{"dataset_attributes": {"@spider": "usps_collection_boxes"}, "geometry": {"coordinates": [-78.0123403, 40.490442], "type": "Point"}, "id": "wWlyDPVoLrFtnzv-mz5jrBTXS50=", "properties": {"@spider": "usps_collection_boxes", "addr:city": "HUNTINGDON", "addr:country": "US", "addr:full": "700 WARM SPRINGS AVE", "addr:postcode": "16652", "addr:state": "PA", "amenity": "post_box", "brand": "United States Postal Service", "brand:wikidata": "Q668687", "collection_times": "Mo-Sa 09:00", "name": "USPS COLLECTION BOX - BLUE BOX", "nsi_id": "unitedstatespostalservice-a77078", "operator": "United States Postal Service", "operator:short": "USPS", "operator:type": "public", "operator:wikidata": "Q668687", "ref": "1665200023"}, "type": "Feature"}
{"dataset_attributes": {"@spider": "usps_collection_boxes"}, "geometry": {"coordinates": [-78.0082664, 40.483677], "type": "Point"}, "id": "Rt6RcrALBmeXrusseY88Sx1nxIg=", "properties": {"@spider": "usps_collection_boxes", "addr:city": "HUNTINGDON", "addr:country": "US", "addr:full": "223 PENN ST", "addr:postcode": "16652", "addr:state": "PA", "amenity": "post_box", "brand": "United States Postal Service", "brand:wikidata": "Q668687", "collection_times": "Mo-Fr 15:00; Sa 09:00", "name": "USPS COLLECTION BOX - BLUE BOX", "note": "ON 12/24 AND 12/31, THIS BOX MAY BE COLLECTED AS EARLY AS 12 NOON.", "nsi_id": "unitedstatespostalservice-a77078", "operator": "United States Postal Service", "operator:short": "USPS", "operator:type": "public", "operator:wikidata": "Q668687", "ref": "1665200024"}, "type": "Feature"}
{"dataset_attributes": {"@spider": "usps_collection_boxes"}, "geometry": {"coordinates": [-78.0107169, 40.484366], "type": "Point"}, "id": "fPn2FenpGb3PbpnLbaM-OjcihII=", "properties": {"@spider": "usps_collection_boxes", "addr:city": "HUNTINGDON", "addr:country": "US", "addr:full": "400 PENN ST", "addr:postcode": "16652", "addr:state": "PA", "amenity": "post_box", "brand": "United States Postal Service", "brand:wikidata": "Q668687", "collection_times": "Mo-Fr 15:00; Sa 09:00", "name": "USPS COLLECTION BOX - BLUE BOX", "note": "ON 12/24 AND 12/31, THIS BOX MAY BE COLLECTED AS EARLY AS 12 NOON.", "nsi_id": "unitedstatespostalservice-a77078", "operator": "United States Postal Service", "operator:short": "USPS", "operator:type": "public", "operator:wikidata": "Q668687", "ref": "1665200025"}, "type": "Feature"}
{"dataset_attributes": {"@spider": "usps_collection_boxes"}, "geometry": {"coordinates": [-78.0120447, 40.48492], "type": "Point"}, "id": "QwDUIZ5fqw0baHX8aIZbe_SnyHM=", "properties": {"@spider": "usps_collection_boxes", "addr:city": "HUNTINGDON", "addr:country": "US", "addr:full": "431 PENN ST", "addr:postcode": "16652", "addr:state": "PA", "amenity": "post_box", "brand": "United States Postal Service", "brand:wikidata": "Q668687", "collection_times": "Mo-Fr 15:00; Sa 09:00", "name": "USPS COLLECTION BOX - BLUE BOX", "note": "ON 12/24 AND 12/31, THIS BOX MAY BE COLLECTED AS EARLY AS 12 NOON.", "nsi_id": "unitedstatespostalservice-a77078", "operator": "United States Postal Service", "operator:short": "USPS", "operator:type": "public", "operator:wikidata": "Q668687", "ref": "1665200026"}, "type": "Feature"}
{"dataset_attributes": {"@spider": "usps_collection_boxes"}, "geometry": {"coordinates": [-78.0224134, 40.486055], "type": "Point"}, "id": "FESE67WhxJM7NVZlX8IlX7TG_F4=", "properties": {"@spider": "usps_collection_boxes", "addr:city": "HUNTINGDON", "addr:country": "US", "addr:full": "114 SPRUCE ST", "addr:postcode": "16652", "addr:state": "PA", "amenity": "post_box", "brand": "United States Postal Service", "brand:wikidata": "Q668687", "collection_times": "Mo-Sa 13:00", "name": "USPS COLLECTION BOX - BLUE BOX", "note": "ON 12/24 AND 12/31, THIS BOX MAY BE COLLECTED AS EARLY AS 12 NOON.", "nsi_id": "unitedstatespostalservice-a77078", "operator": "United States Postal Service", "operator:short": "USPS", "operator:type": "public", "operator:wikidata": "Q668687", "ref": "1665200027"}, "type": "Feature"}
{"dataset_attributes": {"@spider": "usps_collection_boxes"}, "geometry": {"coordinates": [-78.0151592, 40.481625], "type": "Point"}, "id": "kJ67MzEROQh4htdMcfU8IoNeK3o=", "properties": {"@spider": "usps_collection_boxes", "addr:city": "HUNTINGDON", "addr:country": "US", "addr:full": "7527 HUNTINGDON PLZ", "addr:postcode": "16652", "addr:state": "PA", "amenity": "post_box", "brand": "United States Postal Service", "brand:wikidata": "Q668687", "collection_times": "Mo-Sa 09:00", "name": "USPS COLLECTION BOX - BLUE BOX", "nsi_id": "unitedstatespostalservice-a77078", "operator": "United States Postal Service", "operator:short": "USPS", "operator:type": "public", "operator:wikidata": "Q668687", "ref": "1665200028"}, "type": "Feature"}
{"dataset_attributes": {"@spider": "usps_collection_boxes"}, "geometry": {"coordinates": [-78.0268869, 40.488212], "type": "Point"}, "id": "0xTZxsv6ZaDUVUZP7ebcobG3xrA=", "properties": {"@spider": "usps_collection_boxes", "addr:city": "HUNTINGDON", "addr:country": "US", "addr:full": "1001 MOUNT VERNON AVE", "addr:postcode": "16652", "addr:state": "PA", "amenity": "post_box", "brand": "United States Postal Service", "brand:wikidata": "Q668687", "collection_times": "Mo-Sa 12:00", "name": "USPS COLLECTION BOX - BLUE BOX", "nsi_id": "unitedstatespostalservice-a77078", "operator": "United States Postal Service", "operator:short": "USPS", "operator:type": "public", "operator:wikidata": "Q668687", "ref": "1665200029"}, "type": "Feature"}
{"dataset_attributes": {"@spider": "usps_collection_boxes"}, "geometry": {"coordinates": [-78.0324246, 40.487861], "type": "Point"}, "id": "O2vImitxGpp_RuVFmIV_eXGvsLw=", "properties": {"@spider": "usps_collection_boxes", "addr:city": "HUNTINGDON", "addr:country": "US", "addr:full": "9048 WILLIAM PENN HWY STE 1", "addr:postcode": "16652", "addr:state": "PA", "amenity": "post_box", "brand": "United States Postal Service", "brand:wikidata": "Q668687", "collection_times": "Mo-Sa 10:30", "name": "USPS COLLECTION BOX - BLUE BOX", "nsi_id": "unitedstatespostalservice-a77078", "operator": "United States Postal Service", "operator:short": "USPS", "operator:type": "public", "operator:wikidata": "Q668687", "ref": "1665200031"}, "type": "Feature"}
{"dataset_attributes": {"@spider": "usps_collection_boxes"}, "geometry": {"coordinates": [-78.010514619, 40.485162655], "type": "Point"}, "id": "me4AQ0vnXpbmowDVQVvqw4VaYSE=", "properties": {"@spider": "usps_collection_boxes", "addr:city": "HUNTINGDON", "addr:country": "US", "addr:full": "401 WASHINGTON ST", "addr:postcode": "16652", "addr:state": "PA", "amenity": "post_box", "brand": "United States Postal Service", "brand:wikidata": "Q668687", "collection_times": "Mo-Fr 17:00; Sa 15:15", "name": "USPS COLLECTION BOX - BLUE BOX", "note": "ON 12/24 AND 12/31, THIS BOX MAY BE COLLECTED AS EARLY AS 12 NOON.", "nsi_id": "unitedstatespostalservice-a77078", "operator": "United States Postal Service", "operator:short": "USPS", "operator:type": "public", "operator:wikidata": "Q668687", "ref": "1665200033"}, "type": "Feature"}
{"dataset_attributes": {"@spider": "usps_collection_boxes"}, "geometry": {"coordinates": [-78.010514619, 40.485162655], "type": "Point"}, "id": "ZE7FA_Y7NzodU6XH2ukWYF4RNqs=", "properties": {"@spider": "usps_collection_boxes", "addr:city": "HUNTINGDON", "addr:country": "US", "addr:full": "401 WASHINGTON ST", "addr:postcode": "16652", "addr:state": "PA", "amenity": "post_box", "brand": "United States Postal Service", "brand:wikidata": "Q668687", "collection_times": "Mo-Fr 17:00; Sa 15:15", "name": "USPS COLLECTION BOX - BLUE BOX", "note": "ON 12/24 AND 12/31, THIS BOX MAY BE COLLECTED AS EARLY AS 12 NOON.", "nsi_id": "unitedstatespostalservice-a77078", "operator": "United States Postal Service", "operator:short": "USPS", "operator:type": "public", "operator:wikidata": "Q668687", "ref": "1665200034"}, "type": "Feature"}
{"dataset_attributes": {"@spider": "usps_collection_boxes"}, "geometry": {"coordinates": [-78.010514619, 40.485162655], "type": "Point"}, "id": "mYUT-aMWyGmFzj_zUDs_62hkits=", "properties": {"@spider": "usps_collection_boxes", "addr:city": "HUNTINGDON", "addr:country": "US", "addr:full": "401 WASHINGTON ST", "addr:postcode": "16652", "addr:state": "PA", "amenity": "post_box", "brand": "United States Postal Service", "brand:wikidata": "Q668687", "collection_times": "Mo-Fr 17:15; Sa 15:45", "name": "USPS COLLECTION BOX - PO LOBBY", "note": "ON 12/24 AND 12/31, THIS BOX MAY BE COLLECTED AS EARLY AS 12 NOON.", "nsi_id": "unitedstatespostalservice-a77078", "operator": "United States Postal Service", "operator:short": "USPS", "operator:type": "public", "operator:wikidata": "Q668687", "ref": "1665200035"}, "type": "Feature"}
{"dataset_attributes": {"@spider": "usps_collection_boxes"}, "geometry": {"coordinates": [-78.0122266, 40.514516], "type": "Point"}, "id": "0kGJ-kiQ0RtIWgQRomY_DAfaIag=", "properties": {"@spider": "usps_collection_boxes", "addr:city": "HUNTINGDON", "addr:country": "US", "addr:full": "120 ASPEN LN", "addr:postcode": "16652", "addr:state": "PA", "amenity": "post_box", "brand": "United States Postal Service", "brand:wikidata": "Q668687", "collection_times": "Mo-Fr 11:00; Sa 10:00", "name": "USPS COLLECTION BOX - BLUE BOX", "nsi_id": "unitedstatespostalservice-a77078", "operator": "United States Postal Service", "operator:short": "USPS", "operator:type": "public", "operator:wikidata": "Q668687", "ref": "1665200036"}, "type": "Feature"}
{"dataset_attributes": {"@spider": "usps_collection_boxes"}, "geometry": {"coordinates": [-78.010514619, 40.485162655], "type": "Point"}, "id": "aeOjFQjCFeq_Aen32n4Y5ouJqPw=", "properties": {"@spider": "usps_collection_boxes", "addr:city": "HUNTINGDON", "addr:country": "US", "addr:full": "401 WASHINGTON ST", "addr:postcode": "16652", "addr:state": "PA", "amenity": "post_box", "brand": "United States Postal Service", "brand:wikidata": "Q668687", "collection_times": "Mo-Fr 17:00; Sa 12:00", "name": "USPS COLLECTION BOX - PO LOBBY", "note": "ON 12/24 AND 12/31, THIS BOX MAY BE COLLECTED AS EARLY AS 12 NOON.", "nsi_id": "unitedstatespostalservice-a77078", "operator": "United States Postal Service", "operator:short": "USPS", "operator:type": "public", "operator:wikidata": "Q668687", "ref": "1665200038"}, "type": "Feature"}
{"dataset_attributes": {"@spider": "usps_collection_boxes"}, "geometry": {"coordinates": [-78.082209, 40.452727], "type": "Point"}, "id": "it1BlvHW7kRcZ9qRQHppHz7VoTo=", "properties": {"@spider": "usps_collection_boxes", "addr:city": "MC CONNELLSTOWN", "addr:country": "US", "addr:full": "11701 RAYSTOWN RD FL 1", "addr:postcode": "16660", "addr:state": "PA", "amenity": "post_box", "brand": "United States Postal Service", "brand:wikidata": "Q668687", "collection_times": "Mo-Sa 15:30", "name": "USPS COLLECTION BOX - BLUE BOX", "note": "ON 12/24 AND 12/31, THIS BOX MAY BE COLLECTED AS EARLY AS 12 NOON.", "nsi_id": "unitedstatespostalservice-a77078", "operator": "United States Postal Service", "operator:short": "USPS", "operator:type": "public", "operator:wikidata": "Q668687", "ref": "1666000000"}, "type": "Feature"}
{"dataset_attributes": {"@spider": "usps_collection_boxes"}, "geometry": {"coordinates": [-78.082233, 40.452747], "type": "Point"}, "id": "T_zEH_8rzpvqTsJppwmPluF-o20=", "properties": {"@spider": "usps_collection_boxes", "addr:city": "MC CONNELLSTOWN", "addr:country": "US", "addr:full": "11701 RAYSTOWN RD FL 1", "addr:postcode": "16660", "addr:state": "PA", "amenity": "post_box", "brand": "United States Postal Service", "brand:wikidata": "Q668687", "collection_times": "Mo-Sa 15:30", "name": "USPS COLLECTION BOX - PO LOBBY", "note": "ON 12/24 AND 12/31, THIS BOX MAY BE COLLECTED AS EARLY AS 12 NOON.", "nsi_id": "unitedstatespostalservice-a77078", "operator": "United States Postal Service", "operator:short": "USPS", "operator:type": "public", "operator:wikidata": "Q668687", "ref": "1666000001"}, "type": "Feature"}
{"dataset_attributes": {"@spider": "usps_collection_boxes"}, "geometry": {"coordinates": [-78.082224114, 40.452715352], "type": "Point"}, "id": "PZndfW2zTw783kmzV05fwkRtCho=", "properties": {"@spider": "usps_collection_boxes", "addr:city": "MC CONNELLSTOWN", "addr:country": "US", "addr:full": "11701 RAYSTOWN RD", "addr:postcode": "16660", "addr:state": "PA", "amenity": "post_box", "brand": "United States Postal Service", "brand:wikidata": "Q668687", "collection_times": "Mo-Sa 15:30", "name": "USPS COLLECTION BOX - PO LOBBY", "note": "ON 12/24 AND 12/31, THIS BOX MAY BE COLLECTED AS EARLY AS 12 NOON.", "nsi_id": "unitedstatespostalservice-a77078", "operator": "United States Postal Service", "operator:short": "USPS", "operator:type": "public", "operator:wikidata": "Q668687", "ref": "1666000003"}, "type": "Feature"}
{"dataset_attributes": {"@spider": "usps_collection_boxes"}, "geometry": {"coordinates": [-78.047740182, 40.573961832], "type": "Point"}, "id": "rWryN_PHehvEcC0Ua85x1wqWGMM=", "properties": {"@spider": "usps_collection_boxes", "addr:city": "PETERSBURG", "addr:country": "US", "addr:full": "461 KING ST", "addr:postcode": "16669", "addr:state": "PA", "amenity": "post_box", "brand": "United States Postal Service", "brand:wikidata": "Q668687", "collection_times": "Mo-Fr 16:00; Sa 12:00", "name": "USPS COLLECTION BOX - BLUE BOX", "note": "ON 12/24 AND 12/31, THIS BOX MAY BE COLLECTED AS EARLY AS 12 NOON.", "nsi_id": "unitedstatespostalservice-a77078", "operator": "United States Postal Service", "operator:short": "USPS", "operator:type": "public", "operator:wikidata": "Q668687", "ref": "1666900000"}, "type": "Feature"}
{"dataset_attributes": {"@spider": "usps_collection_boxes"}, "geometry": {"coordinates": [-78.047740182, 40.573961832], "type": "Point"}, "id": "xDo230iSFI5AEcFkYdzmEg9EQwU=", "properties": {"@spider": "usps_collection_boxes", "addr:city": "PETERSBURG", "addr:country": "US", "addr:full": "461 KING ST", "addr:postcode": "16669", "addr:state": "PA", "amenity": "post_box", "brand": "United States Postal Service", "brand:wikidata": "Q668687", "collection_times": "Mo-Fr 16:00; Sa 12:00", "name": "USPS COLLECTION BOX - PO LOBBY", "note": "ON 12/24 AND 12/31, THIS BOX MAY BE COLLECTED AS EARLY AS 12 NOON.", "nsi_id": "unitedstatespostalservice-a77078", "operator": "United States Postal Service", "operator:short": "USPS", "operator:type": "public", "operator:wikidata": "Q668687", "ref": "1666900001"}, "type": "Feature"}
{"dataset_attributes": {"@spider": "usps_collection_boxes"}, "geometry": {"coordinates": [-78.047740182, 40.573961832], "type": "Point"}, "id": "q-3UMEVjI9K_Cs6K3AcWVGjAcYk=", "properties": {"@spider": "usps_collection_boxes", "addr:city": "PETERSBURG", "addr:country": "US", "addr:full": "461 KING ST", "addr:postcode": "16669", "addr:state": "PA", "amenity": "post_box", "brand": "United States Postal Service", "brand:wikidata": "Q668687", "collection_times": "Mo-Fr 16:00; Sa 12:00", "name": "USPS COLLECTION BOX - PO LOBBY", "note": "ON 12/24 AND 12/31, THIS BOX MAY BE COLLECTED AS EARLY AS 12 NOON.", "nsi_id": "unitedstatespostalservice-a77078", "operator": "United States Postal Service", "operator:short": "USPS", "operator:type": "public", "operator:wikidata": "Q668687", "ref": "1666900003"}, "type": "Feature"}
