{"dataset_attributes": {"@spider": "usps_collection_boxes"}, "geometry": {"coordinates": [-77.858781179, 40.794557209], "type": "Point"}, "id": "x6Yf8KW4Rte2HQH5-KxgaxLNmx8=", "properties": {"@spider": "usps_collection_boxes", "addr:city": "STATE COLLEGE", "addr:country": "US", "addr:full": "200 E BEAVER AVE", "addr:postcode": "16801", "addr:state": "PA", "amenity": "post_box", "brand": "United States Postal Service", "brand:wikidata": "Q668687", "collection_times": "Mo-Fr 16:45; Sa 14:15", "name": "USPS COLLECTION BOX - BLUE BOX", "note": "ON 12/24 AND 12/31, THIS BOX MAY BE COLLECTED AS EARLY AS 12 NOON.", "nsi_id": "unitedstatespostalservice-a77078", "operator": "United States Postal Service", "operator:short": "USPS", "operator:type": "public", "operator:wikidata": "Q668687", "ref": "1680100002"}, "type": "Feature"}
{"dataset_attributes": {"@spider": "usps_collection_boxes"}, "geometry": {"coordinates": [-77.8572657, 40.795711], "type": "Point"}, "id": "orv3a7nA5KevFdYJG6hZrGqlUcw=", "properties": {"@spider": "usps_collection_boxes", "addr:city": "STATE COLLEGE", "addr:country": "US", "addr:full": "320 E BEAVER AVE", "addr:postcode": "16801", "addr:state": "PA", "amenity": "post_box", "brand": "United States Postal Service", "brand:wikidata": "Q668687", "collection_times": "Mo-Sa 09:00", "name": "USPS COLLECTION BOX - BLUE BOX", "nsi_id": "unitedstatespostalservice-a77078", "operator": "United States Postal Service", "operator:short": "USPS", "operator:type": "public", "operator:wikidata": "Q668687", "ref": "1680100008"}, "type": "Feature"}
{"dataset_attributes": {"@spider": "usps_collection_boxes"}, "geometry": {"coordinates": [-77.8662496, 40.790731], "type": "Point"}, "id": "qPW4sZq0jD_OrjFNGG5OQp4dQnI=", "properties": {"@spider": "usps_collection_boxes", "addr:city": "STATE COLLEGE", "addr:country": "US", "addr:full": "100 S BARNARD ST", "addr:postcode": "16801", "addr:state": "PA", "amenity": "post_box", "brand": "United States Postal Service", "brand:wikidata": "Q668687", "collection_times": "Mo-Sa 09:00", "name": "USPS COLLECTION BOX - BLUE BOX", "nsi_id": "unitedstatespostalservice-a77078", "operator": "United States Postal Service", "operator:short": "USPS", "operator:type": "public", "operator:wikidata": "Q668687", "ref": "1680100010"}, "type": "Feature"}
{"dataset_attributes": {"@spider": "usps_collection_boxes"}, "geometry": {"coordinates": [-77.8000071, 40.782051], "type": "Point"}, "id": "0YCzh3Zi06pfE6GiLNro7SYQz78=", "properties": {"@spider": "usps_collection_boxes", "addr:city": "STATE COLLEGE", "addr:country": "US", "addr:full": "3901 S ATHERTON ST", "addr:postcode": "16801", "addr:state": "PA", "amenity": "post_box", "brand": "United States Postal Service", "brand:wikidata": "Q668687", "collection_times": "Mo-Sa 09:30", "name": "USPS COLLECTION BOX - BLUE BOX", "nsi_id": "unitedstatespostalservice-a77078", "operator": "United States Postal Service", "operator:short": "USPS", "operator:type": "public", "operator:wikidata": "Q668687", "ref": "1680100011"}, "type": "Feature"}
{"dataset_attributes": {"@spider": "usps_collection_boxes"}, "geometry": {"coordinates": [-77.8613619, 40.794274], "type": "Point"}, "id": "ndi6IXtmS09WPrVHhfw1IkxACqo=", "properties": {"@spider": "usps_collection_boxes", "addr:city": "STATE COLLEGE", "addr:country": "US", "addr:full": "102 S ALLEN ST", "addr:postcode": "16801", "addr:state": "PA", "amenity": "post_box", "brand": "United States Postal Service", "brand:wikidata": "Q668687", "collection_times": "Mo-Fr 14:50; Sa 14:00", "name": "USPS COLLECTION BOX - BLUE BOX", "note": "ON 12/24 AND 12/31, THIS BOX MAY BE COLLECTED AS EARLY AS 12 NOON.", "nsi_id": "unitedstatespostalservice-a77078", "operator": "United States Postal Service", "operator:short": "USPS", "operator:type": "public", "operator:wikidata": "Q668687", "ref": "1680100013"}, "type": "Feature"}
{"dataset_attributes": {"@spider": "usps_collection_boxes"}, "geometry": {"coordinates": [-77.8597363, 40.793804], "type": "Point"}, "id": "GWWQzFy0EUU0ZJ9eCpX63DUwEjs=", "properties": {"@spider": "usps_collection_boxes", "addr:city": "STATE COLLEGE", "addr:country": "US", "addr:full": "120 E BEAVER AVE", "addr:postcode": "16801", "addr:state": "PA", "amenity": "post_box", "brand": "United States Postal Service", "brand:wikidata": "Q668687", "collection_times": "Mo-Fr 14:45; Sa 14:15", "name": "USPS COLLECTION BOX - BLUE BOX", "note": "ON 12/24 AND 12/31, THIS BOX MAY BE COLLECTED AS EARLY AS 12 NOON.", "nsi_id": "unitedstatespostalservice-a77078", "operator": "United States Postal Service", "operator:short": "USPS", "operator:type": "public", "operator:wikidata": "Q668687", "ref": "1680100016"}, "type": "Feature"}
{"dataset_attributes": {"@spider": "usps_collection_boxes"}, "geometry": {"coordinates": [-77.8624438, 40.791749], "type": "Point"}, "id": "kf78LgPTx5EdrwdvceE8p_ceamk=", "properties": {"@spider": "usps_collection_boxes", "addr:city": "STATE COLLEGE", "addr:country": "US", "addr:full": "232 W BEAVER AVE", "addr:postcode": "16801", "addr:state": "PA", "amenity": "post_box", "brand": "United States Postal Service", "brand:wikidata": "Q668687", "collection_times": "Mo-Fr 15:30; Sa 14:00", "name": "USPS COLLECTION BOX - BLUE BOX", "note": "ON 12/24 AND 12/31, THIS BOX MAY BE COLLECTED AS EARLY AS 12 NOON.", "nsi_id": "unitedstatespostalservice-a77078", "operator": "United States Postal Service", "operator:short": "USPS", "operator:type": "public", "operator:wikidata": "Q668687", "ref": "1680100018"}, "type": "Feature"}
{"dataset_attributes": {"@spider": "usps_collection_boxes"}, "geometry": {"coordinates": [-77.8790838, 40.763775], "type": "Point"}, "id": "zHkjevEcJ6xESqUXvyREI2Mh0RA=", "properties": {"@spider": "usps_collection_boxes", "addr:city": "STATE COLLEGE", "addr:country": "US", "addr:full": "2021 CATO AVE", "addr:postcode": "16801", "addr:state": "PA", "amenity": "post_box", "brand": "United States Postal Service", "brand:wikidata": "Q668687", "collection_times": "Mo-Fr 16:00; Sa 10:00", "name": "USPS COLLECTION BOX - BLUE BOX", "note": "ON 12/24 AND 12/31, THIS BOX MAY BE COLLECTED AS EARLY AS 12 NOON.", "nsi_id": "unitedstatespostalservice-a77078", "operator": "United States Postal Service", "operator:short": "USPS", "operator:type": "public", "operator:wikidata": "Q668687", "ref": "1680100020"}, "type": "Feature"}
{"dataset_attributes": {"@spider": "usps_collection_boxes"}, "geometry": {"coordinates": [-77.8588392, 40.795877], "type": "Point"}, "id": "A8o1V0IxZuVt-OQhZbTmOh_06WQ=", "properties": {"@spider": "usps_collection_boxes", "addr:city": "STATE COLLEGE", "addr:country": "US", "addr:full": "102 MCALLISTER ST", "addr:postcode": "16801", "addr:state": "PA", "amenity": "post_box", "brand": "United States Postal Service", "brand:wikidata": "Q668687", "collection_times": "Mo-Fr 15:15; Sa 14:00", "name": "USPS COLLECTION BOX - BLUE BOX", "note": "ON 12/24 AND 12/31, THIS BOX MAY BE COLLECTED AS EARLY AS 12 NOON.", "nsi_id": "unitedstatespostalservice-a77078", "operator": "United States Postal Service", "operator:short": "USPS", "operator:type": "public", "operator:wikidata": "Q668687", "ref": "1680100022"}, "type": "Feature"}
{"dataset_attributes": {"@spider": "usps_collection_boxes"}, "geometry": {"coordinates": [-77.8575144, 40.797286], "type": "Point"}, "id": "EkSLk0O78TtfUzsNO9Qrrj7h9Eo=", "properties": {"@spider": "usps_collection_boxes", "addr:city": "STATE COLLEGE", "addr:country": "US", "addr:full": "102 HEISTER ST", "addr:postcode": "16801", "addr:state": "PA", "amenity": "post_box", "brand": "United States Postal Service", "brand:wikidata": "Q668687", "collection_times": "Mo-Fr 15:15; Sa 14:00", "name": "USPS COLLECTION BOX - BLUE BOX", "note": "ON 12/24 AND 12/31, THIS BOX MAY BE COLLECTED AS EARLY AS 12 NOON.", "nsi_id": "unitedstatespostalservice-a77078", "operator": "United States Postal Service", "operator:short": "USPS", "operator:type": "public", "operator:wikidata": "Q668687", "ref": "1680100023"}, "type": "Feature"}
{"dataset_attributes": {"@spider": "usps_collection_boxes"}, "geometry": {"coordinates": [-77.8758335, 40.783424], "type": "Point"}, "id": "EJ7v-fE-xaZPa1Q5RkrZd1Y2dDM=", "properties": {"@spider": "usps_collection_boxes", "addr:city": "STATE COLLEGE", "addr:country": "US", "addr:full": "1315 W COLLEGE AVE", "addr:postcode": "16801", "addr:state": "PA", "amenity": "post_box", "brand": "United States Postal Service", "brand:wikidata": "Q668687", "collection_times": "Mo-Fr 15:45; Sa 11:15", "name": "USPS COLLECTION BOX - BLUE BOX", "note": "ON 12/24 AND 12/31, THIS BOX MAY BE COLLECTED AS EARLY AS 12 NOON.", "nsi_id": "unitedstatespostalservice-a77078", "operator": "United States Postal Service", "operator:short": "USPS", "operator:type": "public", "operator:wikidata": "Q668687", "ref": "1680100024"}, "type": "Feature"}
{"dataset_attributes": {"@spider": "usps_collection_boxes"}, "geometry": {"coordinates": [-77.8483594, 40.789373], "type": "Point"}, "id": "mR_lzBSFrbvno7GDu2ZozKGOBa4=", "properties": {"@spider": "usps_collection_boxes", "addr:city": "STATE COLLEGE", "addr:country": "US", "addr:full": "233 EASTERLY PKWY", "addr:postcode": "16801", "addr:state": "PA", "amenity": "post_box", "brand": "United States Postal Service", "brand:wikidata": "Q668687", "collection_times": "Mo-Fr 15:30; Sa 13:45", "name": "USPS COLLECTION BOX - BLUE BOX", "note": "ON 12/24 AND 12/31, THIS BOX MAY BE COLLECTED AS EARLY AS 12 NOON.", "nsi_id": "unitedstatespostalservice-a77078", "operator": "United States Postal Service", "operator:short": "USPS", "operator:type": "public", "operator:wikidata": "Q668687", "ref": "1680100027"}, "type": "Feature"}
{"dataset_attributes": {"@spider": "usps_collection_boxes"}, "geometry": {"coordinates": [-77.8583635, 40.792441], "type": "Point"}, "id": "c7Wjqcxrxos1gmo_LRsM00yPptk=", "properties": {"@spider": "usps_collection_boxes", "addr:city": "STATE COLLEGE", "addr:country": "US", "addr:full": "102 E FOSTER AVE", "addr:postcode": "16801", "addr:state": "PA", "amenity": "post_box", "brand": "United States Postal Service", "brand:wikidata": "Q668687", "collection_times": "Mo-Fr 16:30; Sa 13:45", "name": "USPS COLLECTION BOX - BLUE BOX", "note": "ON 12/24 AND 12/31, THIS BOX MAY BE COLLECTED AS EARLY AS 12 NOON.", "nsi_id": "unitedstatespostalservice-a77078", "operator": "United States Postal Service", "operator:short": "USPS", "operator:type": "public", "operator:wikidata": "Q668687", "ref": "1680100031"}, "type": "Feature"}
{"dataset_attributes": {"@spider": "usps_collection_boxes"}, "geometry": {"coordinates": [-77.8787139, 40.780439], "type": "Point"}, "id": "-tLGEmMJl6OYKQWq5YnbBOdw-h0=", "properties": {"@spider": "usps_collection_boxes", "addr:city": "STATE COLLEGE", "addr:country": "US", "addr:full": "1524 W COLLEGE AVE", "addr:postcode": "16801", "addr:state": "PA", "amenity": "post_box", "brand": "United States Postal Service", "brand:wikidata": "Q668687", "collection_times": "Mo-Fr 15:45; Sa 12:45", "name": "USPS COLLECTION BOX - BLUE BOX", "note": "ON 12/24 AND 12/31, THIS BOX MAY BE COLLECTED AS EARLY AS 12 NOON.", "nsi_id": "unitedstatespostalservice-a77078", "operator": "United States Postal Service", "operator:short": "USPS", "operator:type": "public", "operator:wikidata": "Q668687", "ref": "1680100035"}, "type": "Feature"}
{"dataset_attributes": {"@spider": "usps_collection_boxes"}, "geometry": {"coordinates": [-77.853034, 40.782208], "type": "Point"}, "id": "UZ0xaT8lxiOtGoV7lWaHkLPlnv8=", "properties": {"@spider": "usps_collection_boxes", "addr:city": "STATE COLLEGE", "addr:country": "US", "addr:full": "500 WESTERLY PKWY", "addr:postcode": "16801", "addr:state": "PA", "amenity": "post_box", "brand": "United States Postal Service", "brand:wikidata": "Q668687", "collection_times": "Mo-Sa 10:00", "name": "USPS COLLECTION BOX - BLUE BOX", "nsi_id": "unitedstatespostalservice-a77078", "operator": "United States Postal Service", "operator:short": "USPS", "operator:type": "public", "operator:wikidata": "Q668687", "ref": "1680100038"}, "type": "Feature"}
{"dataset_attributes": {"@spider": "usps_collection_boxes"}, "geometry": {"coordinates": [-77.8539895, 40.779758], "type": "Point"}, "id": "SkEto5ACr4lnEPuyrgo56jNwdPM=", "properties": {"@spider": "usps_collection_boxes", "addr:city": "STATE COLLEGE", "addr:country": "US", "addr:full": "412 WAUPELANI DR", "addr:postcode": "16801", "addr:state": "PA", "amenity": "post_box", "brand": "United States Postal Service", "brand:wikidata": "Q668687", "collection_times": "Mo-Fr 14:15; Sa 13:15", "name": "USPS COLLECTION BOX - BLUE BOX", "note": "ON 12/24 AND 12/31, THIS BOX MAY BE COLLECTED AS EARLY AS 12 NOON.", "nsi_id": "unitedstatespostalservice-a77078", "operator": "United States Postal Service", "operator:short": "USPS", "operator:type": "public", "operator:wikidata": "Q668687", "ref": "1680100039"}, "type": "Feature"}
{"dataset_attributes": {"@spider": "usps_collection_boxes"}, "geometry": {"coordinates": [-77.8557085, 40.79817], "type": "Point"}, "id": "Vry_2Zwk4ydHhaTt-yTHt9j86qk=", "properties": {"@spider": "usps_collection_boxes", "addr:city": "STATE COLLEGE", "addr:country": "US", "addr:full": "111 SOWERS ST", "addr:postcode": "16801", "addr:state": "PA", "amenity": "post_box", "brand": "United States Postal Service", "brand:wikidata": "Q668687", "collection_times": "Mo-Fr 17:00; Sa 14:00", "name": "USPS COLLECTION BOX - BLUE BOX", "note": "ON 12/24 AND 12/31, THIS BOX MAY BE COLLECTED AS EARLY AS 12 NOON.", "nsi_id": "unitedstatespostalservice-a77078", "operator": "United States Postal Service", "operator:short": "USPS", "operator:type": "public", "operator:wikidata": "Q668687", "ref": "1680100045"}, "type": "Feature"}
{"dataset_attributes": {"@spider": "usps_collection_boxes"}, "geometry": {"coordinates": [-77.8566776, 40.77499], "type": "Point"}, "id": "mUnVWGshfW452ZAdytaVXKAADhk=", "properties": {"@spider": "usps_collection_boxes", "addr:city": "STATE COLLEGE", "addr:country": "US", "addr:full": "498 SOUTH GATE DR", "addr:postcode": "16801", "addr:state": "PA", "amenity": "post_box", "brand": "United States Postal Service", "brand:wikidata": "Q668687", "collection_times": "Mo-Sa 14:30", "name": "USPS COLLECTION BOX - BLUE BOX", "note": "ON 12/24 AND 12/31, THIS BOX MAY BE COLLECTED AS EARLY AS 12 NOON.", "nsi_id": "unitedstatespostalservice-a77078", "operator": "United States Postal Service", "operator:short": "USPS", "operator:type": "public", "operator:wikidata": "Q668687", "ref": "1680100048"}, "type": "Feature"}
{"dataset_attributes": {"@spider": "usps_collection_boxes"}, "geometry": {"coordinates": [-77.819401, 40.784307], "type": "Point"}, "id": "6ZSIMdellZclgYCwsa-CpxFVNrw=", "properties": {"@spider": "usps_collection_boxes", "addr:city": "STATE COLLEGE", "addr:country": "US", "addr:full": "100 REGENT CT", "addr:postcode": "16801", "addr:state": "PA", "amenity": "post_box", "brand": "United States Postal Service", "brand:wikidata": "Q668687", "collection_times": "Mo-Sa 12:45", "name": "USPS COLLECTION BOX - BLUE BOX", "note": "ON 12/24 AND 12/31, THIS BOX MAY BE COLLECTED AS EARLY AS 12 NOON.", "nsi_id": "unitedstatespostalservice-a77078", "operator": "United States Postal Service", "operator:short": "USPS", "operator:type": "public", "operator:wikidata": "Q668687", "ref": "1680100049"}, "type": "Feature"}
{"dataset_attributes": {"@spider": "usps_collection_boxes"}, "geometry": {"coordinates": [-77.8546960176, 40.7990359984], "type": "Point"}, "id": "H-iPYItdVSOan6uBR48O6AcZR1A=", "properties": {"@spider": "usps_collection_boxes", "addr:city": "STATE COLLEGE", "addr:country": "US", "addr:full": "114 HETZEL ST", "addr:postcode": "16801", "addr:state": "PA", "amenity": "post_box", "brand": "United States Postal Service", "brand:wikidata": "Q668687", "collection_times": "Mo-Fr 17:00; Sa 14:00", "name": "USPS COLLECTION BOX - BLUE BOX", "note": "ON 12/24 AND 12/31, THIS BOX MAY BE COLLECTED AS EARLY AS 12 NOON.", "nsi_id": "unitedstatespostalservice-a77078", "operator": "United States Postal Service", "operator:short": "USPS", "operator:type": "public", "operator:wikidata": "Q668687", "ref": "1680100056"}, "type": "Feature"}
{"dataset_attributes": {"@spider": "usps_collection_boxes"}, "geometry": {"coordinates": [-77.8598414, 40.794894], "type": "Point"}, "id": "iG-imPNCref1cEr5acPmA9I7qIw=", "properties": {"@spider": "usps_collection_boxes", "addr:city": "STATE COLLEGE", "addr:country": "US", "addr:full": "121 S PUGH ST", "addr:postcode": "16801", "addr:state": "PA", "amenity": "post_box", "brand": "United States Postal Service", "brand:wikidata": "Q668687", "collection_times": "Mo-Sa 14:00", "name": "USPS COLLECTION BOX - BLUE BOX", "note": "ON 12/24 AND 12/31, THIS BOX MAY BE COLLECTED AS EARLY AS 12 NOON.", "nsi_id": "unitedstatespostalservice-a77078", "operator": "United States Postal Service", "operator:short": "USPS", "operator:type": "public", "operator:wikidata": "Q668687", "ref": "1680100057"}, "type": "Feature"}
{"dataset_attributes": {"@spider": "usps_collection_boxes"}, "geometry": {"coordinates": [-77.860658, 40.791696], "type": "Point"}, "id": "8W-zDDTfQhZ_Sz_MPM8UuF0KPM8=", "properties": {"@spider": "usps_collection_boxes", "addr:city": "STATE COLLEGE", "addr:country": "US", "addr:full": "236 S FRASER ST", "addr:postcode": "16801", "addr:state": "PA", "amenity": "post_box", "brand": "United States Postal Service", "brand:wikidata": "Q668687", "collection_times": "Mo-Sa 17:45", "name": "USPS COLLECTION BOX - BLUE BOX", "note": "ON 12/24 AND 12/31, THIS BOX MAY BE COLLECTED AS EARLY AS 12 NOON.", "nsi_id": "unitedstatespostalservice-a77078", "operator": "United States Postal Service", "operator:short": "USPS", "operator:type": "public", "operator:wikidata": "Q668687", "ref": "1680100060"}, "type": "Feature"}
{"dataset_attributes": {"@spider": "usps_collection_boxes"}, "geometry": {"coordinates": [-77.8629399, 40.793453], "type": "Point"}, "id": "ktRyvVO8bzO_GJ2ZBsvkF6fOAr0=", "properties": {"@spider": "usps_collection_boxes", "addr:city": "STATE COLLEGE", "addr:country": "US", "addr:full": "200 W COLLEGE AVE", "addr:postcode": "16801", "addr:state": "PA", "amenity": "post_box", "brand": "United States Postal Service", "brand:wikidata": "Q668687", "collection_times": "Mo-Sa 10:00", "name": "USPS COLLECTION BOX - BLUE BOX", "nsi_id": "unitedstatespostalservice-a77078", "operator": "United States Postal Service", "operator:short": "USPS", "operator:type": "public", "operator:wikidata": "Q668687", "ref": "1680100062"}, "type": "Feature"}
{"dataset_attributes": {"@spider": "usps_collection_boxes"}, "geometry": {"coordinates": [-77.8569749, 40.787557], "type": "Point"}, "id": "70UMbjZrFleryxi8zjwPWe6IFC0=", "properties": {"@spider": "usps_collection_boxes", "addr:city": "STATE COLLEGE", "addr:country": "US", "addr:full": "300 W HAMILTON AVE", "addr:postcode": "16801", "addr:state": "PA", "amenity": "post_box", "brand": "United States Postal Service", "brand:wikidata": "Q668687", "collection_times": "Mo-Fr 14:30; Sa 09:00", "name": "USPS COLLECTION BOX - BLUE BOX", "note": "ON 12/24 AND 12/31, THIS BOX MAY BE COLLECTED AS EARLY AS 12 NOON.", "nsi_id": "unitedstatespostalservice-a77078", "operator": "United States Postal Service", "operator:short": "USPS", "operator:type": "public", "operator:wikidata": "Q668687", "ref": "1680100066"}, "type": "Feature"}
{"dataset_attributes": {"@spider": "usps_collection_boxes"}, "geometry": {"coordinates": [-77.8566954, 40.793112], "type": "Point"}, "id": "HZAtozs5qPRa-EpI75riaCr0kto=", "properties": {"@spider": "usps_collection_boxes", "addr:city": "STATE COLLEGE", "addr:country": "US", "addr:full": "301 S PUGH ST", "addr:postcode": "16801", "addr:state": "PA", "amenity": "post_box", "brand": "United States Postal Service", "brand:wikidata": "Q668687", "collection_times": "Mo-Fr 14:30; Sa 14:00", "name": "USPS COLLECTION BOX - BLUE BOX", "note": "ON 12/24 AND 12/31, THIS BOX MAY BE COLLECTED AS EARLY AS 12 NOON.", "nsi_id": "unitedstatespostalservice-a77078", "operator": "United States Postal Service", "operator:short": "USPS", "operator:type": "public", "operator:wikidata": "Q668687", "ref": "1680100071"}, "type": "Feature"}
{"dataset_attributes": {"@spider": "usps_collection_boxes"}, "geometry": {"coordinates": [-77.8001402, 40.833952], "type": "Point"}, "id": "aENH2VylCebnKRXGzldOlK_1Bgw=", "properties": {"@spider": "usps_collection_boxes", "addr:city": "STATE COLLEGE", "addr:country": "US", "addr:full": "2901 E COLLEGE AVE", "addr:postcode": "16801", "addr:state": "PA", "amenity": "post_box", "brand": "United States Postal Service", "brand:wikidata": "Q668687", "collection_times": "Mo-Sa 11:00", "name": "USPS COLLECTION BOX - BLUE BOX", "nsi_id": "unitedstatespostalservice-a77078", "operator": "United States Postal Service", "operator:short": "USPS", "operator:type": "public", "operator:wikidata": "Q668687", "ref": "1680100072"}, "type": "Feature"}
{"dataset_attributes": {"@spider": "usps_collection_boxes"}, "geometry": {"coordinates": [-77.8620482, 40.770885], "type": "Point"}, "id": "ttTrQrmi2uz2eesYzt5bUSWN1C0=", "properties": {"@spider": "usps_collection_boxes", "addr:city": "STATE COLLEGE", "addr:country": "US", "addr:full": "855 STRATFORD DR", "addr:postcode": "16801", "addr:state": "PA", "amenity": "post_box", "brand": "United States Postal Service", "brand:wikidata": "Q668687", "collection_times": "Mo-Sa 13:00", "name": "USPS COLLECTION BOX - BLUE BOX", "note": "ON 12/24 AND 12/31, THIS BOX MAY BE COLLECTED AS EARLY AS 12 NOON.", "nsi_id": "unitedstatespostalservice-a77078", "operator": "United States Postal Service", "operator:short": "USPS", "operator:type": "public", "operator:wikidata": "Q668687", "ref": "1680100075"}, "type": "Feature"}
{"dataset_attributes": {"@spider": "usps_collection_boxes"}, "geometry": {"coordinates": [-77.8412368, 40.784525], "type": "Point"}, "id": "nP1nfCE902e-DEow3Z7_naLW0TM=", "properties": {"@spider": "usps_collection_boxes", "addr:city": "STATE COLLEGE", "addr:country": "US", "addr:full": "1402 S ATHERTON ST", "addr:postcode": "16801", "addr:state": "PA", "amenity": "post_box", "brand": "United States Postal Service", "brand:wikidata": "Q668687", "collection_times": "Mo-Fr 16:00; Sa 13:15", "name": "USPS COLLECTION BOX - BLUE BOX", "note": "ON 12/24 AND 12/31, THIS BOX MAY BE COLLECTED AS EARLY AS 12 NOON.", "nsi_id": "unitedstatespostalservice-a77078", "operator": "United States Postal Service", "operator:short": "USPS", "operator:type": "public", "operator:wikidata": "Q668687", "ref": "1680100076"}, "type": "Feature"}
{"dataset_attributes": {"@spider": "usps_collection_boxes"}, "geometry": {"coordinates": [-77.860755205, 40.791847725], "type": "Point"}, "id": "l_709vUsYvWL26Z6YbbR0hVcNcQ=", "properties": {"@spider": "usps_collection_boxes", "addr:city": "STATE COLLEGE", "addr:country": "US", "addr:full": "237 S FRASER ST", "addr:postcode": "16801", "addr:state": "PA", "amenity": "post_box", "brand": "United States Postal Service", "brand:wikidata": "Q668687", "collection_times": "Mo-Sa 17:45", "name": "USPS COLLECTION BOX - PO LOBBY", "note": "ON 12/24 AND 12/31, THIS BOX MAY BE COLLECTED AS EARLY AS 12 NOON.", "nsi_id": "unitedstatespostalservice-a77078", "operator": "United States Postal Service", "operator:short": "USPS", "operator:type": "public", "operator:wikidata": "Q668687", "ref": "1680100078"}, "type": "Feature"}
{"dataset_attributes": {"@spider": "usps_collection_boxes"}, "geometry": {"coordinates": [-77.8469435, 40.783256], "type": "Point"}, "id": "rUezd_mQHu57iz25zrOVpKhi73Q=", "properties": {"@spider": "usps_collection_boxes", "addr:city": "STATE COLLEGE", "addr:country": "US", "addr:full": "199 E SOUTH HILLS AVE", "addr:postcode": "16801", "addr:state": "PA", "amenity": "post_box", "brand": "United States Postal Service", "brand:wikidata": "Q668687", "collection_times": "Mo-Fr 16:00; Sa 13:15", "name": "USPS COLLECTION BOX - BLUE BOX", "note": "ON 12/24 AND 12/31, THIS BOX MAY BE COLLECTED AS EARLY AS 12 NOON.", "nsi_id": "unitedstatespostalservice-a77078", "operator": "United States Postal Service", "operator:short": "USPS", "operator:type": "public", "operator:wikidata": "Q668687", "ref": "1680100080"}, "type": "Feature"}
{"dataset_attributes": {"@spider": "usps_collection_boxes"}, "geometry": {"coordinates": [-77.860755205, 40.791847725], "type": "Point"}, "id": "GfegYGUbkgxMl9KAnnGNDBN3w-A=", "properties": {"@spider": "usps_collection_boxes", "addr:city": "STATE COLLEGE", "addr:country": "US", "addr:full": "237 S FRASER ST", "addr:postcode": "16801", "addr:state": "PA", "amenity": "post_box", "brand": "United States Postal Service", "brand:wikidata": "Q668687", "collection_times": "Mo-Fr 17:00; Sa 12:00", "name": "USPS COLLECTION BOX - APC", "note": "ON 12/24 AND 12/31, THIS BOX MAY BE COLLECTED AS EARLY AS 12 NOON.", "nsi_id": "unitedstatespostalservice-a77078", "operator": "United States Postal Service", "operator:short": "USPS", "operator:type": "public", "operator:wikidata": "Q668687", "ref": "1680100082"}, "type": "Feature"}
{"dataset_attributes": {"@spider": "usps_collection_boxes"}, "geometry": {"coordinates": [-77.8277281, 40.785529], "type": "Point"}, "id": "9e9vfvdvDRB40GeaWIUqn4fbMSo=", "properties": {"@spider": "usps_collection_boxes", "addr:city": "STATE COLLEGE", "addr:country": "US", "addr:full": "110 ROLLING RIDGE DR", "addr:postcode": "16801", "addr:state": "PA", "amenity": "post_box", "brand": "United States Postal Service", "brand:wikidata": "Q668687", "collection_times": "Mo-Fr 16:30; Sa 13:30", "name": "USPS COLLECTION BOX - BLUE BOX", "note": "ON 12/24 AND 12/31, THIS BOX MAY BE COLLECTED AS EARLY AS 12 NOON.", "nsi_id": "unitedstatespostalservice-a77078", "operator": "United States Postal Service", "operator:short": "USPS", "operator:type": "public", "operator:wikidata": "Q668687", "ref": "1680100083"}, "type": "Feature"}
{"dataset_attributes": {"@spider": "usps_collection_boxes"}, "geometry": {"coordinates": [-77.860755205, 40.791847725], "type": "Point"}, "id": "Xll7rRv36dQXJW_uN9ByiPb-ZlU=", "properties": {"@spider": "usps_collection_boxes", "addr:city": "STATE COLLEGE", "addr:country": "US", "addr:full": "237 S FRASER ST", "addr:postcode": "16801", "addr:state": "PA", "amenity": "post_box", "brand": "United States Postal Service", "brand:wikidata": "Q668687", "collection_times": "Mo-Fr 17:45; Sa 12:00", "name": "USPS COLLECTION BOX - PO LOBBY", "note": "ON 12/24 AND 12/31, THIS BOX MAY BE COLLECTED AS EARLY AS 12 NOON.", "nsi_id": "unitedstatespostalservice-a77078", "operator": "United States Postal Service", "operator:short": "USPS", "operator:type": "public", "operator:wikidata": "Q668687", "ref": "1680100097"}, "type": "Feature"}
{"dataset_attributes": {"@spider": "usps_collection_boxes"}, "geometry": {"coordinates": [-77.8632742, 40.80157], "type": "Point"}, "id": "mcESNjvR1g5cJ5kl1VGRBYr4ejw=", "properties": {"@spider": "usps_collection_boxes", "addr:city": "STATE COLLEGE", "addr:country": "US", "addr:full": "10 FERGUSON BLDG", "addr:postcode": "16802", "addr:state": "PA", "amenity": "post_box", "brand": "United States Postal Service", "brand:wikidata": "Q668687", "collection_times": "Mo-Sa 10:00", "name": "USPS COLLECTION BOX - BLUE BOX", "nsi_id": "unitedstatespostalservice-a77078", "operator": "United States Postal Service", "operator:short": "USPS", "operator:type": "public", "operator:wikidata": "Q668687", "ref": "1680200004"}, "type": "Feature"}
{"dataset_attributes": {"@spider": "usps_collection_boxes"}, "geometry": {"coordinates": [-77.8644619842, 40.7962116748], "type": "Point"}, "id": "onitRPVwjJVF4YVdTH7fESlH6I4=", "properties": {"@spider": "usps_collection_boxes", "addr:city": "STATE COLLEGE", "addr:country": "US", "addr:full": "54 MCALLISTER BLDG", "addr:postcode": "16802", "addr:state": "PA", "amenity": "post_box", "brand": "United States Postal Service", "brand:wikidata": "Q668687", "collection_times": "Mo-Fr 16:45; Sa 10:00", "name": "USPS COLLECTION BOX - BLUE BOX", "note": "ON 12/24 AND 12/31, THIS BOX MAY BE COLLECTED AS EARLY AS 12 NOON.", "nsi_id": "unitedstatespostalservice-a77078", "operator": "United States Postal Service", "operator:short": "USPS", "operator:type": "public", "operator:wikidata": "Q668687", "ref": "1680200006"}, "type": "Feature"}
{"dataset_attributes": {"@spider": "usps_collection_boxes"}, "geometry": {"coordinates": [-77.8644619842, 40.7962116748], "type": "Point"}, "id": "ZCAmLNUcaT8CBk81zai8dY5Tle4=", "properties": {"@spider": "usps_collection_boxes", "addr:city": "STATE COLLEGE", "addr:country": "US", "addr:full": "54 MCALLISTER BLDG", "addr:postcode": "16802", "addr:state": "PA", "amenity": "post_box", "brand": "United States Postal Service", "brand:wikidata": "Q668687", "collection_times": "Mo-Fr 16:45", "name": "USPS COLLECTION BOX - PO LOBBY", "note": "ON 12/24 AND 12/31, THIS BOX MAY BE COLLECTED AS EARLY AS 12 NOON.", "nsi_id": "unitedstatespostalservice-a77078", "operator": "United States Postal Service", "operator:short": "USPS", "operator:type": "public", "operator:wikidata": "Q668687", "ref": "1680200010"}, "type": "Feature"}
{"dataset_attributes": {"@spider": "usps_collection_boxes"}, "geometry": {"coordinates": [-77.8644619842, 40.7962116748], "type": "Point"}, "id": "-X8wWEDUSniKurvofhkDpLMtQ7g=", "properties": {"@spider": "usps_collection_boxes", "addr:city": "STATE COLLEGE", "addr:country": "US", "addr:full": "54 MCALLISTER BLDG", "addr:postcode": "16802", "addr:state": "PA", "amenity": "post_box", "brand": "United States Postal Service", "brand:wikidata": "Q668687", "collection_times": "Mo-Fr 16:45", "name": "USPS COLLECTION BOX - PO LOBBY", "note": "ON 12/24 AND 12/31, THIS BOX MAY BE COLLECTED AS EARLY AS 12 NOON.", "nsi_id": "unitedstatespostalservice-a77078", "operator": "United States Postal Service", "operator:short": "USPS", "operator:type": "public", "operator:wikidata": "Q668687", "ref": "1680200012"}, "type": "Feature"}
{"dataset_attributes": {"@spider": "usps_collection_boxes"}, "geometry": {"coordinates": [-77.8955471, 40.810654], "type": "Point"}, "id": "RPXJrz3c6rtj2raobTNrgKIIIgg=", "properties": {"@spider": "usps_collection_boxes", "addr:city": "STATE COLLEGE", "addr:country": "US", "addr:full": "1659 N ATHERTON ST", "addr:postcode": "16803", "addr:state": "PA", "amenity": "post_box", "brand": "United States Postal Service", "brand:wikidata": "Q668687", "collection_times": "Mo-Fr 16:00; Sa 15:15", "name": "USPS COLLECTION BOX - BLUE BOX", "note": "ON 12/24 AND 12/31, THIS BOX MAY BE COLLECTED AS EARLY AS 12 NOON.", "nsi_id": "unitedstatespostalservice-a77078", "operator": "United States Postal Service", "operator:short": "USPS", "operator:type": "public", "operator:wikidata": "Q668687", "ref": "1680300001"}, "type": "Feature"}
{"dataset_attributes": {"@spider": "usps_collection_boxes"}, "geometry": {"coordinates": [-77.8701543, 40.800251], "type": "Point"}, "id": "mOr9Iz8RryE-LztFWyCkl-5sBJA=", "properties": {"@spider": "usps_collection_boxes", "addr:city": "STATE COLLEGE", "addr:country": "US", "addr:full": "503 N ALLEN ST", "addr:postcode": "16803", "addr:state": "PA", "amenity": "post_box", "brand": "United States Postal Service", "brand:wikidata": "Q668687", "collection_times": "Mo-Sa 12:00", "name": "USPS COLLECTION BOX - BLUE BOX", "nsi_id": "unitedstatespostalservice-a77078", "operator": "United States Postal Service", "operator:short": "USPS", "operator:type": "public", "operator:wikidata": "Q668687", "ref": "1680300003"}, "type": "Feature"}
{"dataset_attributes": {"@spider": "usps_collection_boxes"}, "geometry": {"coordinates": [-77.8964422, 40.803892], "type": "Point"}, "id": "tmZAA29dey0_095ucTD35hh9K8w=", "properties": {"@spider": "usps_collection_boxes", "addr:city": "STATE COLLEGE", "addr:country": "US", "addr:full": "801 W AARON DR", "addr:postcode": "16803", "addr:state": "PA", "amenity": "post_box", "brand": "United States Postal Service", "brand:wikidata": "Q668687", "collection_times": "Mo-Sa 09:45", "name": "USPS COLLECTION BOX - BLUE BOX", "nsi_id": "unitedstatespostalservice-a77078", "operator": "United States Postal Service", "operator:short": "USPS", "operator:type": "public", "operator:wikidata": "Q668687", "ref": "1680300004"}, "type": "Feature"}
{"dataset_attributes": {"@spider": "usps_collection_boxes"}, "geometry": {"coordinates": [-77.9204199, 40.813068], "type": "Point"}, "id": "Fjk6rbWnrjG52pHJjkMNv0AYEw8=", "properties": {"@spider": "usps_collection_boxes", "addr:city": "STATE COLLEGE", "addr:country": "US", "addr:full": "2515 GREEN TECH DR", "addr:postcode": "16803", "addr:state": "PA", "amenity": "post_box", "brand": "United States Postal Service", "brand:wikidata": "Q668687", "collection_times": "Mo-Fr 15:45; Sa 09:30", "name": "USPS COLLECTION BOX - BLUE BOX", "note": "ON 12/24 AND 12/31, THIS BOX MAY BE COLLECTED AS EARLY AS 12 NOON.", "nsi_id": "unitedstatespostalservice-a77078", "operator": "United States Postal Service", "operator:short": "USPS", "operator:type": "public", "operator:wikidata": "Q668687", "ref": "1680300006"}, "type": "Feature"}
{"dataset_attributes": {"@spider": "usps_collection_boxes"}, "geometry": {"coordinates": [-77.8942718, 40.823566], "type": "Point"}, "id": "5u1sAHNm56Fdl772WZC2p-_Jo2g=", "properties": {"@spider": "usps_collection_boxes", "addr:city": "STATE COLLEGE", "addr:country": "US", "addr:full": "350 TOFTREES AVE", "addr:postcode": "16803", "addr:state": "PA", "amenity": "post_box", "brand": "United States Postal Service", "brand:wikidata": "Q668687", "collection_times": "Mo-Sa 09:30", "name": "USPS COLLECTION BOX - BLUE BOX", "nsi_id": "unitedstatespostalservice-a77078", "operator": "United States Postal Service", "operator:short": "USPS", "operator:type": "public", "operator:wikidata": "Q668687", "ref": "1680300007"}, "type": "Feature"}
{"dataset_attributes": {"@spider": "usps_collection_boxes"}, "geometry": {"coordinates": [-77.8512561, 40.851293], "type": "Point"}, "id": "yTiFYnPlANCkpGgclIrdtSoAKt4=", "properties": {"@spider": "usps_collection_boxes", "addr:city": "STATE COLLEGE", "addr:country": "US", "addr:full": "2493 FOX HILL RD", "addr:postcode": "16803", "addr:state": "PA", "amenity": "post_box", "brand": "United States Postal Service", "brand:wikidata": "Q668687", "collection_times": "Mo-Sa 09:00", "name": "USPS COLLECTION BOX - BLUE BOX", "nsi_id": "unitedstatespostalservice-a77078", "operator": "United States Postal Service", "operator:short": "USPS", "operator:type": "public", "operator:wikidata": "Q668687", "ref": "1680300008"}, "type": "Feature"}
{"dataset_attributes": {"@spider": "usps_collection_boxes"}, "geometry": {"coordinates": [-77.8764934, 40.798024], "type": "Point"}, "id": "GkY75xWCP6Li4o8aKjIdMTv3WRs=", "properties": {"@spider": "usps_collection_boxes", "addr:city": "STATE COLLEGE", "addr:country": "US", "addr:full": "401 HILLCREST AVE", "addr:postcode": "16803", "addr:state": "PA", "amenity": "post_box", "brand": "United States Postal Service", "brand:wikidata": "Q668687", "collection_times": "Mo-Sa 12:00", "name": "USPS COLLECTION BOX - BLUE BOX", "nsi_id": "unitedstatespostalservice-a77078", "operator": "United States Postal Service", "operator:short": "USPS", "operator:type": "public", "operator:wikidata": "Q668687", "ref": "1680300009"}, "type": "Feature"}
{"dataset_attributes": {"@spider": "usps_collection_boxes"}, "geometry": {"coordinates": [-77.9038033, 40.807304], "type": "Point"}, "id": "lWumjknyYEH8-kzoj4MWbhhnSMs=", "properties": {"@spider": "usps_collection_boxes", "addr:city": "STATE COLLEGE", "addr:country": "US", "addr:full": "1800 PARK FOREST AVE", "addr:postcode": "16803", "addr:state": "PA", "amenity": "post_box", "brand": "United States Postal Service", "brand:wikidata": "Q668687", "collection_times": "Mo-Sa 13:00", "name": "USPS COLLECTION BOX - BLUE BOX", "note": "ON 12/24 AND 12/31, THIS BOX MAY BE COLLECTED AS EARLY AS 12 NOON.", "nsi_id": "unitedstatespostalservice-a77078", "operator": "United States Postal Service", "operator:short": "USPS", "operator:type": "public", "operator:wikidata": "Q668687", "ref": "1680300011"}, "type": "Feature"}
{"dataset_attributes": {"@spider": "usps_collection_boxes"}, "geometry": {"coordinates": [-77.843774, 40.818531], "type": "Point"}, "id": "G9mdHIAW03EdRa5E-eI5jz_bHxs=", "properties": {"@spider": "usps_collection_boxes", "addr:city": "STATE COLLEGE", "addr:country": "US", "addr:full": "1800 E PARK AVE", "addr:postcode": "16803", "addr:state": "PA", "amenity": "post_box", "brand": "United States Postal Service", "brand:wikidata": "Q668687", "collection_times": "Mo-Fr 15:30; Sa 12:30", "name": "USPS COLLECTION BOX - BLUE BOX", "note": "ON 12/24 AND 12/31, THIS BOX MAY BE COLLECTED AS EARLY AS 12 NOON.", "nsi_id": "unitedstatespostalservice-a77078", "operator": "United States Postal Service", "operator:short": "USPS", "operator:type": "public", "operator:wikidata": "Q668687", "ref": "1680300012"}, "type": "Feature"}
{"dataset_attributes": {"@spider": "usps_collection_boxes"}, "geometry": {"coordinates": [-77.8982461, 40.780234], "type": "Point"}, "id": "DFByDyx1NjvwZFIVO2sRoGcMrw8=", "properties": {"@spider": "usps_collection_boxes", "addr:city": "STATE COLLEGE", "addr:country": "US", "addr:full": "500 SCIENCE PARK RD", "addr:postcode": "16803", "addr:state": "PA", "amenity": "post_box", "brand": "United States Postal Service", "brand:wikidata": "Q668687", "collection_times": "Mo-Fr 16:00", "name": "USPS COLLECTION BOX - BLUE BOX", "note": "ON 12/24 AND 12/31, THIS BOX MAY BE COLLECTED AS EARLY AS 12 NOON.", "nsi_id": "unitedstatespostalservice-a77078", "operator": "United States Postal Service", "operator:short": "USPS", "operator:type": "public", "operator:wikidata": "Q668687", "ref": "1680300014"}, "type": "Feature"}
{"dataset_attributes": {"@spider": "usps_collection_boxes"}, "geometry": {"coordinates": [-77.8445039, 40.830709], "type": "Point"}, "id": "qkHm7xadI47qIFI20v4mlsp0Hyg=", "properties": {"@spider": "usps_collection_boxes", "addr:city": "STATE COLLEGE", "addr:country": "US", "addr:full": "215 INNOVATION BLVD", "addr:postcode": "16803", "addr:state": "PA", "amenity": "post_box", "brand": "United States Postal Service", "brand:wikidata": "Q668687", "collection_times": "Mo-Fr 15:30; Sa 12:30", "name": "USPS COLLECTION BOX - BLUE BOX", "note": "ON 12/24 AND 12/31, THIS BOX MAY BE COLLECTED AS EARLY AS 12 NOON.", "nsi_id": "unitedstatespostalservice-a77078", "operator": "United States Postal Service", "operator:short": "USPS", "operator:type": "public", "operator:wikidata": "Q668687", "ref": "1680300015"}, "type": "Feature"}
{"dataset_attributes": {"@spider": "usps_collection_boxes"}, "geometry": {"coordinates": [-77.8853947, 40.831539], "type": "Point"}, "id": "QzEQLmz1olNaLhrA0ZKni-DTmEE=", "properties": {"@spider": "usps_collection_boxes", "addr:city": "STATE COLLEGE", "addr:country": "US", "addr:full": "860 CRICKLEWOOD DR", "addr:postcode": "16803", "addr:state": "PA", "amenity": "post_box", "brand": "United States Postal Service", "brand:wikidata": "Q668687", "collection_times": "Mo-Sa 09:30", "name": "USPS COLLECTION BOX - BLUE BOX", "nsi_id": "unitedstatespostalservice-a77078", "operator": "United States Postal Service", "operator:short": "USPS", "operator:type": "public", "operator:wikidata": "Q668687", "ref": "1680300017"}, "type": "Feature"}
{"dataset_attributes": {"@spider": "usps_collection_boxes"}, "geometry": {"coordinates": [-77.8899543, 40.804823], "type": "Point"}, "id": "vfYNltiuYBjZbt_fgXcGImGrqZk=", "properties": {"@spider": "usps_collection_boxes", "addr:city": "STATE COLLEGE", "addr:country": "US", "addr:full": "1471 MARTIN ST", "addr:postcode": "16803", "addr:state": "PA", "amenity": "post_box", "brand": "United States Postal Service", "brand:wikidata": "Q668687", "collection_times": "Mo-Fr 16:30; Sa 15:30", "name": "USPS COLLECTION BOX - BLUE BOX", "note": "ON 12/24 AND 12/31, THIS BOX MAY BE COLLECTED AS EARLY AS 12 NOON.", "nsi_id": "unitedstatespostalservice-a77078", "operator": "United States Postal Service", "operator:short": "USPS", "operator:type": "public", "operator:wikidata": "Q668687", "ref": "1680300018"}, "type": "Feature"}
{"dataset_attributes": {"@spider": "usps_collection_boxes"}, "geometry": {"coordinates": [-77.9217813, 40.811172], "type": "Point"}, "id": "AmHV-GXCGJQMEkP1rAXopjOq3BI=", "properties": {"@spider": "usps_collection_boxes", "addr:city": "STATE COLLEGE", "addr:country": "US", "addr:full": "101 VALLEY VISTA DR", "addr:postcode": "16803", "addr:state": "PA", "amenity": "post_box", "brand": "United States Postal Service", "brand:wikidata": "Q668687", "collection_times": "Mo-Fr 15:45; Sa 14:30", "name": "USPS COLLECTION BOX - BLUE BOX", "note": "ON 12/24 AND 12/31, THIS BOX MAY BE COLLECTED AS EARLY AS 12 NOON.", "nsi_id": "unitedstatespostalservice-a77078", "operator": "United States Postal Service", "operator:short": "USPS", "operator:type": "public", "operator:wikidata": "Q668687", "ref": "1680300019"}, "type": "Feature"}
{"dataset_attributes": {"@spider": "usps_collection_boxes"}, "geometry": {"coordinates": [-77.8990261, 40.816605], "type": "Point"}, "id": "1BFDD9H6SeFBZ9R48mucwycEMgQ=", "properties": {"@spider": "usps_collection_boxes", "addr:city": "STATE COLLEGE", "addr:country": "US", "addr:full": "1945 WADDLE RD", "addr:postcode": "16803", "addr:state": "PA", "amenity": "post_box", "brand": "United States Postal Service", "brand:wikidata": "Q668687", "collection_times": "Mo-Fr 10:15; Sa 09:00", "name": "USPS COLLECTION BOX - BLUE BOX", "nsi_id": "unitedstatespostalservice-a77078", "operator": "United States Postal Service", "operator:short": "USPS", "operator:type": "public", "operator:wikidata": "Q668687", "ref": "1680300020"}, "type": "Feature"}
{"dataset_attributes": {"@spider": "usps_collection_boxes"}, "geometry": {"coordinates": [-77.451826465, 40.899469577], "type": "Point"}, "id": "3jFqgNtjkOCgU95JlN5WJ2cL3c4=", "properties": {"@spider": "usps_collection_boxes", "addr:city": "AARONSBURG", "addr:country": "US", "addr:full": "164 S RACHELS WAY", "addr:postcode": "16820", "addr:state": "PA", "amenity": "post_box", "brand": "United States Postal Service", "brand:wikidata": "Q668687", "collection_times": "Mo-Fr 15:00; Sa 10:30", "name": "USPS COLLECTION BOX - BLUE BOX", "note": "ON 12/24 AND 12/31, THIS BOX MAY BE COLLECTED AS EARLY AS 12 NOON.", "nsi_id": "unitedstatespostalservice-a77078", "operator": "United States Postal Service", "operator:short": "USPS", "operator:type": "public", "operator:wikidata": "Q668687", "ref": "1682000000"}, "type": "Feature"}
{"dataset_attributes": {"@spider": "usps_collection_boxes"}, "geometry": {"coordinates": [-77.451826465, 40.899469577], "type": "Point"}, "id": "tWlidclZtoKacwarJoJKmJDXy54=", "properties": {"@spider": "usps_collection_boxes", "addr:city": "AARONSBURG", "addr:country": "US", "addr:full": "164 S RACHELS WAY", "addr:postcode": "16820", "addr:state": "PA", "amenity": "post_box", "brand": "United States Postal Service", "brand:wikidata": "Q668687", "collection_times": "Mo-Fr 15:00; Sa 11:00", "name": "USPS COLLECTION BOX - PO LOBBY", "note": "ON 12/24 AND 12/31, THIS BOX MAY BE COLLECTED AS EARLY AS 12 NOON.", "nsi_id": "unitedstatespostalservice-a77078", "operator": "United States Postal Service", "operator:short": "USPS", "operator:type": "public", "operator:wikidata": "Q668687", "ref": "1682000001"}, "type": "Feature"}
{"dataset_attributes": {"@spider": "usps_collection_boxes"}, "geometry": {"coordinates": [-77.451826465, 40.899469577], "type": "Point"}, "id": "uvSycBNzqTK8FknnfK1ZN9NAp9o=", "properties": {"@spider": "usps_collection_boxes", "addr:city": "AARONSBURG", "addr:country": "US", "addr:full": "164 S RACHELS WAY", "addr:postcode": "16820", "addr:state": "PA", "amenity": "post_box", "brand": "United States Postal Service", "brand:wikidata": "Q668687", "collection_times": "Mo-Fr 15:00; Sa 11:00", "name": "USPS COLLECTION BOX - PO LOBBY", "note": "ON 12/24 AND 12/31, THIS BOX MAY BE COLLECTED AS EARLY AS 12 NOON.", "nsi_id": "unitedstatespostalservice-a77078", "operator": "United States Postal Service", "operator:short": "USPS", "operator:type": "public", "operator:wikidata": "Q668687", "ref": "1682000003"}, "type": "Feature"}
{"dataset_attributes": {"@spider": "usps_collection_boxes"}, "geometry": {"coordinates": [-77.588413672, 41.075675979], "type": "Point"}, "id": "Qx0OvDVB3sYDy-RZy-XTzM9X_6I=", "properties": {"@spider": "usps_collection_boxes", "addr:city": "BEECH CREEK", "addr:country": "US", "addr:full": "26 GRANT ST", "addr:postcode": "16822", "addr:state": "PA", "amenity": "post_box", "brand": "United States Postal Service", "brand:wikidata": "Q668687", "collection_times": "Mo-Fr 15:15; Sa 12:00", "name": "USPS COLLECTION BOX - BLUE BOX", "note": "ON 12/24 AND 12/31, THIS BOX MAY BE COLLECTED AS EARLY AS 12 NOON.", "nsi_id": "unitedstatespostalservice-a77078", "operator": "United States Postal Service", "operator:short": "USPS", "operator:type": "public", "operator:wikidata": "Q668687", "ref": "1682200000"}, "type": "Feature"}
{"dataset_attributes": {"@spider": "usps_collection_boxes"}, "geometry": {"coordinates": [-77.588413672, 41.075675979], "type": "Point"}, "id": "jFCy8vKALI322mQGHc5DQ7EfJCg=", "properties": {"@spider": "usps_collection_boxes", "addr:city": "BEECH CREEK", "addr:country": "US", "addr:full": "26 GRANT ST", "addr:postcode": "16822", "addr:state": "PA", "amenity": "post_box", "brand": "United States Postal Service", "brand:wikidata": "Q668687", "collection_times": "Mo-Fr 15:30; Sa 12:00", "name": "USPS COLLECTION BOX - PO LOBBY", "note": "ON 12/24 AND 12/31, THIS BOX MAY BE COLLECTED AS EARLY AS 12 NOON.", "nsi_id": "unitedstatespostalservice-a77078", "operator": "United States Postal Service", "operator:short": "USPS", "operator:type": "public", "operator:wikidata": "Q668687", "ref": "1682200001"}, "type": "Feature"}
{"dataset_attributes": {"@spider": "usps_collection_boxes"}, "geometry": {"coordinates": [-77.588413672, 41.075675979], "type": "Point"}, "id": "5SwjTYu7o9MjEqA0dmOUCdF0hH8=", "properties": {"@spider": "usps_collection_boxes", "addr:city": "BEECH CREEK", "addr:country": "US", "addr:full": "26 GRANT ST", "addr:postcode": "16822", "addr:state": "PA", "amenity": "post_box", "brand": "United States Postal Service", "brand:wikidata": "Q668687", "collection_times": "Mo-Fr 15:30; Sa 12:00", "name": "USPS COLLECTION BOX - PO LOBBY", "note": "ON 12/24 AND 12/31, THIS BOX MAY BE COLLECTED AS EARLY AS 12 NOON.", "nsi_id": "unitedstatespostalservice-a77078", "operator": "United States Postal Service", "operator:short": "USPS", "operator:type": "public", "operator:wikidata": "Q668687", "ref": "1682200003"}, "type": "Feature"}
{"dataset_attributes": {"@spider": "usps_collection_boxes"}, "geometry": {"coordinates": [-77.7466195, 40.867736], "type": "Point"}, "id": "htM7n_qVRncrWb6ikjigbYX3LnQ=", "properties": {"@spider": "usps_collection_boxes", "addr:city": "BELLEFONTE", "addr:country": "US", "addr:full": "106 W COLLEGE AVE", "addr:postcode": "16823", "addr:state": "PA", "amenity": "post_box", "brand": "United States Postal Service", "brand:wikidata": "Q668687", "collection_times": "Mo-Sa 15:00", "name": "USPS COLLECTION BOX - BLUE BOX", "note": "ON 12/24 AND 12/31, THIS BOX MAY BE COLLECTED AS EARLY AS 12 NOON.", "nsi_id": "unitedstatespostalservice-a77078", "operator": "United States Postal Service", "operator:short": "USPS", "operator:type": "public", "operator:wikidata": "Q668687", "ref": "1682300000"}, "type": "Feature"}
{"dataset_attributes": {"@spider": "usps_collection_boxes"}, "geometry": {"coordinates": [-77.778147, 40.912893], "type": "Point"}, "id": "et3GrXdgoWoFSCFL9G72fDXlZMM=", "properties": {"@spider": "usps_collection_boxes", "addr:city": "BELLEFONTE", "addr:country": "US", "addr:full": "132 N ALLEGHENY ST", "addr:postcode": "16823", "addr:state": "PA", "amenity": "post_box", "brand": "United States Postal Service", "brand:wikidata": "Q668687", "collection_times": "Mo-Fr 17:00; Sa 15:30", "name": "USPS COLLECTION BOX - BLUE BOX", "note": "ON 12/24 AND 12/31, THIS BOX MAY BE COLLECTED AS EARLY AS 12 NOON.", "nsi_id": "unitedstatespostalservice-a77078", "operator": "United States Postal Service", "operator:short": "USPS", "operator:type": "public", "operator:wikidata": "Q668687", "ref": "1682300005"}, "type": "Feature"}
{"dataset_attributes": {"@spider": "usps_collection_boxes"}, "geometry": {"coordinates": [-77.7796426, 40.911582], "type": "Point"}, "id": "jGYY0ubhisaBvxXMF0iYrOYk-1U=", "properties": {"@spider": "usps_collection_boxes", "addr:city": "BELLEFONTE", "addr:country": "US", "addr:full": "101 S SPRING ST", "addr:postcode": "16823", "addr:state": "PA", "amenity": "post_box", "brand": "United States Postal Service", "brand:wikidata": "Q668687", "collection_times": "Mo-Sa 10:00", "name": "USPS COLLECTION BOX - BLUE BOX", "nsi_id": "unitedstatespostalservice-a77078", "operator": "United States Postal Service", "operator:short": "USPS", "operator:type": "public", "operator:wikidata": "Q668687", "ref": "1682300007"}, "type": "Feature"}
{"dataset_attributes": {"@spider": "usps_collection_boxes"}, "geometry": {"coordinates": [-77.7779315, 40.911872], "type": "Point"}, "id": "x4Wa1DXjT4UwE6RzzrKn-VeqH90=", "properties": {"@spider": "usps_collection_boxes", "addr:city": "BELLEFONTE", "addr:country": "US", "addr:full": "101 S ALLEGHENY ST", "addr:postcode": "16823", "addr:state": "PA", "amenity": "post_box", "brand": "United States Postal Service", "brand:wikidata": "Q668687", "collection_times": "Mo-Sa 14:30", "name": "USPS COLLECTION BOX - BLUE BOX", "note": "ON 12/24 AND 12/31, THIS BOX MAY BE COLLECTED AS EARLY AS 12 NOON.", "nsi_id": "unitedstatespostalservice-a77078", "operator": "United States Postal Service", "operator:short": "USPS", "operator:type": "public", "operator:wikidata": "Q668687", "ref": "1682300009"}, "type": "Feature"}
{"dataset_attributes": {"@spider": "usps_collection_boxes"}, "geometry": {"coordinates": [-77.7790523, 40.910533], "type": "Point"}, "id": "Ts4ZpKbOWcB6tF7LYTvDaTZbLbo=", "properties": {"@spider": "usps_collection_boxes", "addr:city": "BELLEFONTE", "addr:country": "US", "addr:full": "141 W BISHOP ST", "addr:postcode": "16823", "addr:state": "PA", "amenity": "post_box", "brand": "United States Postal Service", "brand:wikidata": "Q668687", "collection_times": "Mo-Sa 14:30", "name": "USPS COLLECTION BOX - BLUE BOX", "note": "ON 12/24 AND 12/31, THIS BOX MAY BE COLLECTED AS EARLY AS 12 NOON.", "nsi_id": "unitedstatespostalservice-a77078", "operator": "United States Postal Service", "operator:short": "USPS", "operator:type": "public", "operator:wikidata": "Q668687", "ref": "1682300011"}, "type": "Feature"}
{"dataset_attributes": {"@spider": "usps_collection_boxes"}, "geometry": {"coordinates": [-77.7774949, 40.910797], "type": "Point"}, "id": "oG16V-X83dyu3jzH72JGXLxZR94=", "properties": {"@spider": "usps_collection_boxes", "addr:city": "BELLEFONTE", "addr:country": "US", "addr:full": "141 S ALLEGHENY ST", "addr:postcode": "16823", "addr:state": "PA", "amenity": "post_box", "brand": "United States Postal Service", "brand:wikidata": "Q668687", "collection_times": "Mo-Sa 14:30", "name": "USPS COLLECTION BOX - BLUE BOX", "note": "ON 12/24 AND 12/31, THIS BOX MAY BE COLLECTED AS EARLY AS 12 NOON.", "nsi_id": "unitedstatespostalservice-a77078", "operator": "United States Postal Service", "operator:short": "USPS", "operator:type": "public", "operator:wikidata": "Q668687", "ref": "1682300012"}, "type": "Feature"}
{"dataset_attributes": {"@spider": "usps_collection_boxes"}, "geometry": {"coordinates": [-77.7708474, 40.910171], "type": "Point"}, "id": "TmTpHLrQtY6FS8VX80QfQBe2GVA=", "properties": {"@spider": "usps_collection_boxes", "addr:city": "BELLEFONTE", "addr:country": "US", "addr:full": "437 BURNSIDE ST", "addr:postcode": "16823", "addr:state": "PA", "amenity": "post_box", "brand": "United States Postal Service", "brand:wikidata": "Q668687", "collection_times": "Mo-Sa 14:30", "name": "USPS COLLECTION BOX - BLUE BOX", "note": "ON 12/24 AND 12/31, THIS BOX MAY BE COLLECTED AS EARLY AS 12 NOON.", "nsi_id": "unitedstatespostalservice-a77078", "operator": "United States Postal Service", "operator:short": "USPS", "operator:type": "public", "operator:wikidata": "Q668687", "ref": "1682300014"}, "type": "Feature"}
{"dataset_attributes": {"@spider": "usps_collection_boxes"}, "geometry": {"coordinates": [-77.7599311, 40.914531], "type": "Point"}, "id": "y89gmXRWr7GmYBPcNz8vGzD5uwE=", "properties": {"@spider": "usps_collection_boxes", "addr:city": "BELLEFONTE", "addr:country": "US", "addr:full": "935 E BISHOP ST", "addr:postcode": "16823", "addr:state": "PA", "amenity": "post_box", "brand": "United States Postal Service", "brand:wikidata": "Q668687", "collection_times": "Mo-Sa 11:00", "name": "USPS COLLECTION BOX - BLUE BOX", "nsi_id": "unitedstatespostalservice-a77078", "operator": "United States Postal Service", "operator:short": "USPS", "operator:type": "public", "operator:wikidata": "Q668687", "ref": "1682300017"}, "type": "Feature"}
{"dataset_attributes": {"@spider": "usps_collection_boxes"}, "geometry": {"coordinates": [-77.7786495, 40.912573], "type": "Point"}, "id": "2EUpjiFuhXXODT0VKzDTwz_Naqw=", "properties": {"@spider": "usps_collection_boxes", "addr:city": "BELLEFONTE", "addr:country": "US", "addr:full": "125 W PIKE ST", "addr:postcode": "16823", "addr:state": "PA", "amenity": "post_box", "brand": "United States Postal Service", "brand:wikidata": "Q668687", "collection_times": "Mo-Sa 14:30", "name": "USPS COLLECTION BOX - BLUE BOX", "note": "ON 12/24 AND 12/31, THIS BOX MAY BE COLLECTED AS EARLY AS 12 NOON.", "nsi_id": "unitedstatespostalservice-a77078", "operator": "United States Postal Service", "operator:short": "USPS", "operator:type": "public", "operator:wikidata": "Q668687", "ref": "1682300032"}, "type": "Feature"}
{"dataset_attributes": {"@spider": "usps_collection_boxes"}, "geometry": {"coordinates": [-77.778163, 40.912833], "type": "Point"}, "id": "aj_khKpcuEbUkG5WN2ouZ8KjOwk=", "properties": {"@spider": "usps_collection_boxes", "addr:city": "BELLEFONTE", "addr:country": "US", "addr:full": "132 N ALLEGHENY ST", "addr:postcode": "16823", "addr:state": "PA", "amenity": "post_box", "brand": "United States Postal Service", "brand:wikidata": "Q668687", "collection_times": "Mo-Fr 17:00; Sa 16:00", "name": "USPS COLLECTION BOX - BLUE BOX", "note": "ON 12/24 AND 12/31, THIS BOX MAY BE COLLECTED AS EARLY AS 12 NOON.", "nsi_id": "unitedstatespostalservice-a77078", "operator": "United States Postal Service", "operator:short": "USPS", "operator:type": "public", "operator:wikidata": "Q668687", "ref": "1682300034"}, "type": "Feature"}
{"dataset_attributes": {"@spider": "usps_collection_boxes"}, "geometry": {"coordinates": [-77.7397313, 40.912697], "type": "Point"}, "id": "5k2LNA_hIKT2QUV2K4E6hZZj88I=", "properties": {"@spider": "usps_collection_boxes", "addr:city": "BELLEFONTE", "addr:country": "US", "addr:full": "170 BUCKAROO LN", "addr:postcode": "16823", "addr:state": "PA", "amenity": "post_box", "brand": "United States Postal Service", "brand:wikidata": "Q668687", "collection_times": "Mo-Sa 09:30", "name": "USPS COLLECTION BOX - BLUE BOX", "nsi_id": "unitedstatespostalservice-a77078", "operator": "United States Postal Service", "operator:short": "USPS", "operator:type": "public", "operator:wikidata": "Q668687", "ref": "1682300046"}, "type": "Feature"}
{"dataset_attributes": {"@spider": "usps_collection_boxes"}, "geometry": {"coordinates": [-77.778163, 40.912833], "type": "Point"}, "id": "9dVKxUry-n_F9m4sRl6E_QeGS08=", "properties": {"@spider": "usps_collection_boxes", "addr:city": "BELLEFONTE", "addr:country": "US", "addr:full": "132 N ALLEGHENY ST", "addr:postcode": "16823", "addr:state": "PA", "amenity": "post_box", "brand": "United States Postal Service", "brand:wikidata": "Q668687", "collection_times": "Mo-Fr 17:00; Sa 16:00", "name": "USPS COLLECTION BOX - PO LOBBY", "note": "ON 12/24 AND 12/31, THIS BOX MAY BE COLLECTED AS EARLY AS 12 NOON.", "nsi_id": "unitedstatespostalservice-a77078", "operator": "United States Postal Service", "operator:short": "USPS", "operator:type": "public", "operator:wikidata": "Q668687", "ref": "1682300050"}, "type": "Feature"}
{"dataset_attributes": {"@spider": "usps_collection_boxes"}, "geometry": {"coordinates": [-77.7782378903, 40.9131563777], "type": "Point"}, "id": "JJn4QG4FjA3meZn5ypZAr3a_uDI=", "properties": {"@spider": "usps_collection_boxes", "addr:city": "BELLEFONTE", "addr:country": "US", "addr:full": "132 N ALLEGHENY ST", "addr:postcode": "16823", "addr:state": "PA", "amenity": "post_box", "brand": "United States Postal Service", "brand:wikidata": "Q668687", "collection_times": "Mo-Fr 17:00; Sa 12:00", "name": "USPS COLLECTION BOX - PO LOBBY", "note": "ON 12/24 AND 12/31, THIS BOX MAY BE COLLECTED AS EARLY AS 12 NOON.", "nsi_id": "unitedstatespostalservice-a77078", "operator": "United States Postal Service", "operator:short": "USPS", "operator:type": "public", "operator:wikidata": "Q668687", "ref": "1682300054"}, "type": "Feature"}
{"dataset_attributes": {"@spider": "usps_collection_boxes"}, "geometry": {"coordinates": [-77.597543571, 41.065252061], "type": "Point"}, "id": "asqXDQKfGAQZANcmmRGP2Cnezfo=", "properties": {"@spider": "usps_collection_boxes", "addr:city": "BLANCHARD", "addr:country": "US", "addr:full": "113 BEACH ST", "addr:postcode": "16826", "addr:state": "PA", "amenity": "post_box", "brand": "United States Postal Service", "brand:wikidata": "Q668687", "collection_times": "Mo-Fr 15:00; Sa 10:30", "name": "USPS COLLECTION BOX - BLUE BOX", "note": "ON 12/24 AND 12/31, THIS BOX MAY BE COLLECTED AS EARLY AS 12 NOON.", "nsi_id": "unitedstatespostalservice-a77078", "operator": "United States Postal Service", "operator:short": "USPS", "operator:type": "public", "operator:wikidata": "Q668687", "ref": "1682600000"}, "type": "Feature"}
{"dataset_attributes": {"@spider": "usps_collection_boxes"}, "geometry": {"coordinates": [-77.597543571, 41.065252061], "type": "Point"}, "id": "XHNwmCPMweQHT-6Z0r6TXrzIcE4=", "properties": {"@spider": "usps_collection_boxes", "addr:city": "BLANCHARD", "addr:country": "US", "addr:full": "113 BEACH ST", "addr:postcode": "16826", "addr:state": "PA", "amenity": "post_box", "brand": "United States Postal Service", "brand:wikidata": "Q668687", "collection_times": "Mo-Fr 15:00; Sa 10:30", "name": "USPS COLLECTION BOX - PO LOBBY", "note": "ON 12/24 AND 12/31, THIS BOX MAY BE COLLECTED AS EARLY AS 12 NOON.", "nsi_id": "unitedstatespostalservice-a77078", "operator": "United States Postal Service", "operator:short": "USPS", "operator:type": "public", "operator:wikidata": "Q668687", "ref": "1682600001"}, "type": "Feature"}
{"dataset_attributes": {"@spider": "usps_collection_boxes"}, "geometry": {"coordinates": [-77.597543571, 41.065252061], "type": "Point"}, "id": "hnzxEDr8VOZjOj_Pjl0lChZlhO0=", "properties": {"@spider": "usps_collection_boxes", "addr:city": "BLANCHARD", "addr:country": "US", "addr:full": "113 BEACH ST", "addr:postcode": "16826", "addr:state": "PA", "amenity": "post_box", "brand": "United States Postal Service", "brand:wikidata": "Q668687", "collection_times": "Mo-Fr 15:00; Sa 10:30", "name": "USPS COLLECTION BOX - PO LOBBY", "note": "ON 12/24 AND 12/31, THIS BOX MAY BE COLLECTED AS EARLY AS 12 NOON.", "nsi_id": "unitedstatespostalservice-a77078", "operator": "United States Postal Service", "operator:short": "USPS", "operator:type": "public", "operator:wikidata": "Q668687", "ref": "1682600003"}, "type": "Feature"}
{"dataset_attributes": {"@spider": "usps_collection_boxes"}, "geometry": {"coordinates": [-77.793626934, 40.776549791], "type": "Point"}, "id": "kkT0_yozbMPqv9oVeKBX9RvZW0E=", "properties": {"@spider": "usps_collection_boxes", "addr:city": "BOALSBURG", "addr:country": "US", "addr:full": "110 W PINE ST", "addr:postcode": "16827", "addr:state": "PA", "amenity": "post_box", "brand": "United States Postal Service", "brand:wikidata": "Q668687", "collection_times": "Mo-Fr 16:30; Sa 12:00", "name": "USPS COLLECTION BOX - BLUE BOX", "note": "ON 12/24 AND 12/31, THIS BOX MAY BE COLLECTED AS EARLY AS 12 NOON.", "nsi_id": "unitedstatespostalservice-a77078", "operator": "United States Postal Service", "operator:short": "USPS", "operator:type": "public", "operator:wikidata": "Q668687", "ref": "1682700000"}, "type": "Feature"}
{"dataset_attributes": {"@spider": "usps_collection_boxes"}, "geometry": {"coordinates": [-77.793626934, 40.776549791], "type": "Point"}, "id": "Wheejlp_V69kswyolmVtIFhzv14=", "properties": {"@spider": "usps_collection_boxes", "addr:city": "BOALSBURG", "addr:country": "US", "addr:full": "110 W PINE ST", "addr:postcode": "16827", "addr:state": "PA", "amenity": "post_box", "brand": "United States Postal Service", "brand:wikidata": "Q668687", "collection_times": "Mo-Fr 16:30; Sa 12:00", "name": "USPS COLLECTION BOX - PO LOBBY", "note": "ON 12/24 AND 12/31, THIS BOX MAY BE COLLECTED AS EARLY AS 12 NOON.", "nsi_id": "unitedstatespostalservice-a77078", "operator": "United States Postal Service", "operator:short": "USPS", "operator:type": "public", "operator:wikidata": "Q668687", "ref": "1682700001"}, "type": "Feature"}
{"dataset_attributes": {"@spider": "usps_collection_boxes"}, "geometry": {"coordinates": [-77.793626934, 40.776549791], "type": "Point"}, "id": "TlKvEed-fO91iVKkZCCDF_7MGuA=", "properties": {"@spider": "usps_collection_boxes", "addr:city": "BOALSBURG", "addr:country": "US", "addr:full": "110 W PINE ST", "addr:postcode": "16827", "addr:state": "PA", "amenity": "post_box", "brand": "United States Postal Service", "brand:wikidata": "Q668687", "collection_times": "Mo-Fr 16:30; Sa 12:00", "name": "USPS COLLECTION BOX - PO LOBBY", "note": "ON 12/24 AND 12/31, THIS BOX MAY BE COLLECTED AS EARLY AS 12 NOON.", "nsi_id": "unitedstatespostalservice-a77078", "operator": "United States Postal Service", "operator:short": "USPS", "operator:type": "public", "operator:wikidata": "Q668687", "ref": "1682700003"}, "type": "Feature"}
{"dataset_attributes": {"@spider": "usps_collection_boxes"}, "geometry": {"coordinates": [-77.686693, 40.848823], "type": "Point"}, "id": "PeWCJXdpab1DuZCHZgAAQCLIxUU=", "properties": {"@spider": "usps_collection_boxes", "addr:city": "CENTREHALL", "addr:country": "US", "addr:full": "113 E CHURCH ST", "addr:postcode": "16828", "addr:state": "PA", "amenity": "post_box", "brand": "United States Postal Service", "brand:wikidata": "Q668687", "collection_times": "Mo-Fr 16:00; Sa 12:00", "name": "USPS COLLECTION BOX - BLUE BOX", "note": "ON 12/24 AND 12/31, THIS BOX MAY BE COLLECTED AS EARLY AS 12 NOON.", "nsi_id": "unitedstatespostalservice-a77078", "operator": "United States Postal Service", "operator:short": "USPS", "operator:type": "public", "operator:wikidata": "Q668687", "ref": "1682800000"}, "type": "Feature"}
{"dataset_attributes": {"@spider": "usps_collection_boxes"}, "geometry": {"coordinates": [-77.686682, 40.848862], "type": "Point"}, "id": "ETdk9ifpbxLqtBeTmwGVyAjCyn0=", "properties": {"@spider": "usps_collection_boxes", "addr:city": "CENTREHALL", "addr:country": "US", "addr:full": "113 E CHURCH ST", "addr:postcode": "16828", "addr:state": "PA", "amenity": "post_box", "brand": "United States Postal Service", "brand:wikidata": "Q668687", "collection_times": "Mo-Fr 16:30; Sa 12:00", "name": "USPS COLLECTION BOX - PO LOBBY", "note": "ON 12/24 AND 12/31, THIS BOX MAY BE COLLECTED AS EARLY AS 12 NOON.", "nsi_id": "unitedstatespostalservice-a77078", "operator": "United States Postal Service", "operator:short": "USPS", "operator:type": "public", "operator:wikidata": "Q668687", "ref": "1682800001"}, "type": "Feature"}
{"dataset_attributes": {"@spider": "usps_collection_boxes"}, "geometry": {"coordinates": [-77.6866580488, 40.8488376239], "type": "Point"}, "id": "tiT6CwkRUEDEr1IX_y4ho-y-Cvo=", "properties": {"@spider": "usps_collection_boxes", "addr:city": "CENTREHALL", "addr:country": "US", "addr:full": "113 E CHURCH ST", "addr:postcode": "16828", "addr:state": "PA", "amenity": "post_box", "brand": "United States Postal Service", "brand:wikidata": "Q668687", "collection_times": "Mo-Fr 16:30; Sa 12:00", "name": "USPS COLLECTION BOX - PO LOBBY", "note": "ON 12/24 AND 12/31, THIS BOX MAY BE COLLECTED AS EARLY AS 12 NOON.", "nsi_id": "unitedstatespostalservice-a77078", "operator": "United States Postal Service", "operator:short": "USPS", "operator:type": "public", "operator:wikidata": "Q668687", "ref": "1682800003"}, "type": "Feature"}
{"dataset_attributes": {"@spider": "usps_collection_boxes"}, "geometry": {"coordinates": [-77.940446486, 41.047866272], "type": "Point"}, "id": "oYlbhdztEJLan8cZy-PgzhLf8DU=", "properties": {"@spider": "usps_collection_boxes", "addr:city": "CLARENCE", "addr:country": "US", "addr:full": "788 CLARENCE RD", "addr:postcode": "16829", "addr:state": "PA", "amenity": "post_box", "brand": "United States Postal Service", "brand:wikidata": "Q668687", "collection_times": "Mo-Fr 11:55; Sa 11:45", "name": "USPS COLLECTION BOX - BLUE BOX", "nsi_id": "unitedstatespostalservice-a77078", "operator": "United States Postal Service", "operator:short": "USPS", "operator:type": "public", "operator:wikidata": "Q668687", "ref": "1682900000"}, "type": "Feature"}
{"dataset_attributes": {"@spider": "usps_collection_boxes"}, "geometry": {"coordinates": [-77.940446486, 41.047866272], "type": "Point"}, "id": "qEenrQyojQzNGxmsG4aJfj7XBvE=", "properties": {"@spider": "usps_collection_boxes", "addr:city": "CLARENCE", "addr:country": "US", "addr:full": "788 CLARENCE RD", "addr:postcode": "16829", "addr:state": "PA", "amenity": "post_box", "brand": "United States Postal Service", "brand:wikidata": "Q668687", "collection_times": "Mo-Fr 11:55; Sa 11:45", "name": "USPS COLLECTION BOX - PO LOBBY", "nsi_id": "unitedstatespostalservice-a77078", "operator": "United States Postal Service", "operator:short": "USPS", "operator:type": "public", "operator:wikidata": "Q668687", "ref": "1682900001"}, "type": "Feature"}
{"dataset_attributes": {"@spider": "usps_collection_boxes"}, "geometry": {"coordinates": [-77.940446486, 41.047866272], "type": "Point"}, "id": "jz_qkvYkPiCIlmxWWYyvPraZ4nw=", "properties": {"@spider": "usps_collection_boxes", "addr:city": "CLARENCE", "addr:country": "US", "addr:full": "788 CLARENCE RD", "addr:postcode": "16829", "addr:state": "PA", "amenity": "post_box", "brand": "United States Postal Service", "brand:wikidata": "Q668687", "collection_times": "Mo-Fr 11:55; Sa 11:25", "name": "USPS COLLECTION BOX - PO LOBBY", "nsi_id": "unitedstatespostalservice-a77078", "operator": "United States Postal Service", "operator:short": "USPS", "operator:type": "public", "operator:wikidata": "Q668687", "ref": "1682900003"}, "type": "Feature"}
{"dataset_attributes": {"@spider": "usps_collection_boxes"}, "geometry": {"coordinates": [-77.460920782, 40.863090856], "type": "Point"}, "id": "UMxfIYT7QsPgquPkqCl5JcQNlJM=", "properties": {"@spider": "usps_collection_boxes", "addr:city": "COBURN", "addr:country": "US", "addr:full": "124 B ALY", "addr:postcode": "16832", "addr:state": "PA", "amenity": "post_box", "brand": "United States Postal Service", "brand:wikidata": "Q668687", "collection_times": "Mo-Fr 11:55; Sa 10:45", "name": "USPS COLLECTION BOX - BLUE BOX", "nsi_id": "unitedstatespostalservice-a77078", "operator": "United States Postal Service", "operator:short": "USPS", "operator:type": "public", "operator:wikidata": "Q668687", "ref": "1683200000"}, "type": "Feature"}
{"dataset_attributes": {"@spider": "usps_collection_boxes"}, "geometry": {"coordinates": [-77.460920782, 40.863090856], "type": "Point"}, "id": "SPM8sYerEX2WTNwEURjZklnNtKY=", "properties": {"@spider": "usps_collection_boxes", "addr:city": "COBURN", "addr:country": "US", "addr:full": "124 B ALY", "addr:postcode": "16832", "addr:state": "PA", "amenity": "post_box", "brand": "United States Postal Service", "brand:wikidata": "Q668687", "collection_times": "Mo-Fr 11:55; Sa 10:45", "name": "USPS COLLECTION BOX - PO LOBBY", "nsi_id": "unitedstatespostalservice-a77078", "operator": "United States Postal Service", "operator:short": "USPS", "operator:type": "public", "operator:wikidata": "Q668687", "ref": "1683200001"}, "type": "Feature"}
{"dataset_attributes": {"@spider": "usps_collection_boxes"}, "geometry": {"coordinates": [-77.460920782, 40.863090856], "type": "Point"}, "id": "5hYMjcX11Q2Ta8YmoFuC0sKig4g=", "properties": {"@spider": "usps_collection_boxes", "addr:city": "COBURN", "addr:country": "US", "addr:full": "124 B ALY", "addr:postcode": "16832", "addr:state": "PA", "amenity": "post_box", "brand": "United States Postal Service", "brand:wikidata": "Q668687", "collection_times": "Mo-Fr 11:55; Sa 10:40", "name": "USPS COLLECTION BOX - PO LOBBY", "nsi_id": "unitedstatespostalservice-a77078", "operator": "United States Postal Service", "operator:short": "USPS", "operator:type": "public", "operator:wikidata": "Q668687", "ref": "1683200003"}, "type": "Feature"}
{"dataset_attributes": {"@spider": "usps_collection_boxes"}, "geometry": {"coordinates": [-78.121021645, 41.015155775], "type": "Point"}, "id": "GVMAF5jFlPcnV8Fn3o11w0KYvb0=", "properties": {"@spider": "usps_collection_boxes", "addr:city": "DRIFTING", "addr:country": "US", "addr:full": "5433 KYLERTOWN DRIFTING HWY", "addr:postcode": "16834", "addr:state": "PA", "amenity": "post_box", "brand": "United States Postal Service", "brand:wikidata": "Q668687", "collection_times": "Mo-Fr 11:55; Sa 14:45", "name": "USPS COLLECTION BOX - BLUE BOX", "note": "ON 12/24 AND 12/31, THIS BOX MAY BE COLLECTED AS EARLY AS 12 NOON.", "nsi_id": "unitedstatespostalservice-a77078", "operator": "United States Postal Service", "operator:short": "USPS", "operator:type": "public", "operator:wikidata": "Q668687", "ref": "1683400000"}, "type": "Feature"}
{"dataset_attributes": {"@spider": "usps_collection_boxes"}, "geometry": {"coordinates": [-78.121021645, 41.015155775], "type": "Point"}, "id": "9hMWVBkgsfeHjp-B3O_B7NkR9Rk=", "properties": {"@spider": "usps_collection_boxes", "addr:city": "DRIFTING", "addr:country": "US", "addr:full": "5433 KYLERTOWN DRIFTING HWY", "addr:postcode": "16834", "addr:state": "PA", "amenity": "post_box", "brand": "United States Postal Service", "brand:wikidata": "Q668687", "collection_times": "Mo-Fr 11:55; Sa 14:45", "name": "USPS COLLECTION BOX - PO LOBBY", "note": "ON 12/24 AND 12/31, THIS BOX MAY BE COLLECTED AS EARLY AS 12 NOON.", "nsi_id": "unitedstatespostalservice-a77078", "operator": "United States Postal Service", "operator:short": "USPS", "operator:type": "public", "operator:wikidata": "Q668687", "ref": "1683400001"}, "type": "Feature"}
{"dataset_attributes": {"@spider": "usps_collection_boxes"}, "geometry": {"coordinates": [-78.121021645, 41.015155775], "type": "Point"}, "id": "cTlweIa2gbrxZLLDTy0OILGIVrI=", "properties": {"@spider": "usps_collection_boxes", "addr:city": "DRIFTING", "addr:country": "US", "addr:full": "5433 KYLERTOWN DRIFTING HWY", "addr:postcode": "16834", "addr:state": "PA", "amenity": "post_box", "brand": "United States Postal Service", "brand:wikidata": "Q668687", "collection_times": "Mo-Fr 11:55; Sa 14:45", "name": "USPS COLLECTION BOX - PO LOBBY", "note": "ON 12/24 AND 12/31, THIS BOX MAY BE COLLECTED AS EARLY AS 12 NOON.", "nsi_id": "unitedstatespostalservice-a77078", "operator": "United States Postal Service", "operator:short": "USPS", "operator:type": "public", "operator:wikidata": "Q668687", "ref": "1683400003"}, "type": "Feature"}
{"dataset_attributes": {"@spider": "usps_collection_boxes"}, "geometry": {"coordinates": [-77.655429378, 41.017424585], "type": "Point"}, "id": "WaqvBfQsC4-BDt151x-qtEZANCY=", "properties": {"@spider": "usps_collection_boxes", "addr:city": "FLEMING", "addr:country": "US", "addr:full": "241 MAIN ST", "addr:postcode": "16835", "addr:state": "PA", "amenity": "post_box", "brand": "United States Postal Service", "brand:wikidata": "Q668687", "collection_times": "Mo-Fr 16:45; Sa 16:00", "name": "USPS COLLECTION BOX - BLUE BOX", "note": "ON 12/24 AND 12/31, THIS BOX MAY BE COLLECTED AS EARLY AS 12 NOON.", "nsi_id": "unitedstatespostalservice-a77078", "operator": "United States Postal Service", "operator:short": "USPS", "operator:type": "public", "operator:wikidata": "Q668687", "ref": "1683500000"}, "type": "Feature"}
{"dataset_attributes": {"@spider": "usps_collection_boxes"}, "geometry": {"coordinates": [-77.655429378, 41.017424585], "type": "Point"}, "id": "3P_IbL100oXHxK_DlllT1ZtcX6M=", "properties": {"@spider": "usps_collection_boxes", "addr:city": "FLEMING", "addr:country": "US", "addr:full": "241 MAIN ST", "addr:postcode": "16835", "addr:state": "PA", "amenity": "post_box", "brand": "United States Postal Service", "brand:wikidata": "Q668687", "collection_times": "Mo-Fr 16:45; Sa 16:00", "name": "USPS COLLECTION BOX - PO LOBBY", "note": "ON 12/24 AND 12/31, THIS BOX MAY BE COLLECTED AS EARLY AS 12 NOON.", "nsi_id": "unitedstatespostalservice-a77078", "operator": "United States Postal Service", "operator:short": "USPS", "operator:type": "public", "operator:wikidata": "Q668687", "ref": "1683500001"}, "type": "Feature"}
{"dataset_attributes": {"@spider": "usps_collection_boxes"}, "geometry": {"coordinates": [-77.655429378, 41.017424585], "type": "Point"}, "id": "D_vXuHku2iRQV3RW0Nn0_cOH8LQ=", "properties": {"@spider": "usps_collection_boxes", "addr:city": "FLEMING", "addr:country": "US", "addr:full": "241 MAIN ST", "addr:postcode": "16835", "addr:state": "PA", "amenity": "post_box", "brand": "United States Postal Service", "brand:wikidata": "Q668687", "collection_times": "Mo-Fr 16:45; Sa 16:00", "name": "USPS COLLECTION BOX - PO LOBBY", "note": "ON 12/24 AND 12/31, THIS BOX MAY BE COLLECTED AS EARLY AS 12 NOON.", "nsi_id": "unitedstatespostalservice-a77078", "operator": "United States Postal Service", "operator:short": "USPS", "operator:type": "public", "operator:wikidata": "Q668687", "ref": "1683500003"}, "type": "Feature"}
{"dataset_attributes": {"@spider": "usps_collection_boxes"}, "geometry": {"coordinates": [-77.658909998, 41.014339356], "type": "Point"}, "id": "JXxzABZN3wFYsqC6mthwAttT8g0=", "properties": {"@spider": "usps_collection_boxes", "addr:city": "HOWARD", "addr:country": "US", "addr:full": "324 WALNUT ST", "addr:postcode": "16841", "addr:state": "PA", "amenity": "post_box", "brand": "United States Postal Service", "brand:wikidata": "Q668687", "collection_times": "Mo-Fr 16:00; Sa 11:00", "name": "USPS COLLECTION BOX - BLUE BOX", "note": "ON 12/24 AND 12/31, THIS BOX MAY BE COLLECTED AS EARLY AS 12 NOON.", "nsi_id": "unitedstatespostalservice-a77078", "operator": "United States Postal Service", "operator:short": "USPS", "operator:type": "public", "operator:wikidata": "Q668687", "ref": "1684100000"}, "type": "Feature"}
{"dataset_attributes": {"@spider": "usps_collection_boxes"}, "geometry": {"coordinates": [-77.658909998, 41.014339356], "type": "Point"}, "id": "vx5nnoSHvmdFeNsbI4WagxeCPnY=", "properties": {"@spider": "usps_collection_boxes", "addr:city": "HOWARD", "addr:country": "US", "addr:full": "324 WALNUT ST", "addr:postcode": "16841", "addr:state": "PA", "amenity": "post_box", "brand": "United States Postal Service", "brand:wikidata": "Q668687", "collection_times": "Mo-Fr 16:00; Sa 11:00", "name": "USPS COLLECTION BOX - PO LOBBY", "note": "ON 12/24 AND 12/31, THIS BOX MAY BE COLLECTED AS EARLY AS 12 NOON.", "nsi_id": "unitedstatespostalservice-a77078", "operator": "United States Postal Service", "operator:short": "USPS", "operator:type": "public", "operator:wikidata": "Q668687", "ref": "1684100001"}, "type": "Feature"}
{"dataset_attributes": {"@spider": "usps_collection_boxes"}, "geometry": {"coordinates": [-77.658909998, 41.014339356], "type": "Point"}, "id": "XNjq-nRKVqQ8AzaxO7mpRreAO74=", "properties": {"@spider": "usps_collection_boxes", "addr:city": "HOWARD", "addr:country": "US", "addr:full": "324 WALNUT ST", "addr:postcode": "16841", "addr:state": "PA", "amenity": "post_box", "brand": "United States Postal Service", "brand:wikidata": "Q668687", "collection_times": "Mo-Fr 16:00; Sa 11:00", "name": "USPS COLLECTION BOX - PO LOBBY", "note": "ON 12/24 AND 12/31, THIS BOX MAY BE COLLECTED AS EARLY AS 12 NOON.", "nsi_id": "unitedstatespostalservice-a77078", "operator": "United States Postal Service", "operator:short": "USPS", "operator:type": "public", "operator:wikidata": "Q668687", "ref": "1684100003"}, "type": "Feature"}
{"dataset_attributes": {"@spider": "usps_collection_boxes"}, "geometry": {"coordinates": [-77.940824, 40.864616], "type": "Point"}, "id": "ruqFie9oIvkTavYRI5tIiYIc6nM=", "properties": {"@spider": "usps_collection_boxes", "addr:city": "JULIAN", "addr:country": "US", "addr:full": "4848 S EAGLE VALLEY RD", "addr:postcode": "16844", "addr:state": "PA", "amenity": "post_box", "brand": "United States Postal Service", "brand:wikidata": "Q668687", "collection_times": "Mo-Fr 16:00; Sa 12:00", "name": "USPS COLLECTION BOX - BLUE BOX", "note": "ON 12/24 AND 12/31, THIS BOX MAY BE COLLECTED AS EARLY AS 12 NOON.", "nsi_id": "unitedstatespostalservice-a77078", "operator": "United States Postal Service", "operator:short": "USPS", "operator:type": "public", "operator:wikidata": "Q668687", "ref": "1684400000"}, "type": "Feature"}
{"dataset_attributes": {"@spider": "usps_collection_boxes"}, "geometry": {"coordinates": [-77.940753, 40.864619], "type": "Point"}, "id": "idLeFrS2QXlPgB2vg4T8zxTGVKc=", "properties": {"@spider": "usps_collection_boxes", "addr:city": "JULIAN", "addr:country": "US", "addr:full": "4848 S EAGLE VALLEY RD", "addr:postcode": "16844", "addr:state": "PA", "amenity": "post_box", "brand": "United States Postal Service", "brand:wikidata": "Q668687", "collection_times": "Mo-Fr 16:00; Sa 12:00", "name": "USPS COLLECTION BOX - PO LOBBY", "note": "ON 12/24 AND 12/31, THIS BOX MAY BE COLLECTED AS EARLY AS 12 NOON.", "nsi_id": "unitedstatespostalservice-a77078", "operator": "United States Postal Service", "operator:short": "USPS", "operator:type": "public", "operator:wikidata": "Q668687", "ref": "1684400001"}, "type": "Feature"}
{"dataset_attributes": {"@spider": "usps_collection_boxes"}, "geometry": {"coordinates": [-77.9403731534, 40.8648357547], "type": "Point"}, "id": "tWMUoqBIKU7pODe9mH1eVbdVCiY=", "properties": {"@spider": "usps_collection_boxes", "addr:city": "JULIAN", "addr:country": "US", "addr:full": "4848 S EAGLE VALLEY RD", "addr:postcode": "16844", "addr:state": "PA", "amenity": "post_box", "brand": "United States Postal Service", "brand:wikidata": "Q668687", "collection_times": "Mo-Fr 16:00; Sa 12:00", "name": "USPS COLLECTION BOX - PO LOBBY", "note": "ON 12/24 AND 12/31, THIS BOX MAY BE COLLECTED AS EARLY AS 12 NOON.", "nsi_id": "unitedstatespostalservice-a77078", "operator": "United States Postal Service", "operator:short": "USPS", "operator:type": "public", "operator:wikidata": "Q668687", "ref": "1684400003"}, "type": "Feature"}
{"dataset_attributes": {"@spider": "usps_collection_boxes"}, "geometry": {"coordinates": [-78.116648005, 41.120096857], "type": "Point"}, "id": "VyDq0ufKq7aK_ZD3vFAh49OUjAc=", "properties": {"@spider": "usps_collection_boxes", "addr:city": "KARTHAUS", "addr:country": "US", "addr:full": "48 SMITH ST", "addr:postcode": "16845", "addr:state": "PA", "amenity": "post_box", "brand": "United States Postal Service", "brand:wikidata": "Q668687", "collection_times": "Mo-Fr 15:30; Sa 10:45", "name": "USPS COLLECTION BOX - BLUE BOX", "note": "ON 12/24 AND 12/31, THIS BOX MAY BE COLLECTED AS EARLY AS 12 NOON.", "nsi_id": "unitedstatespostalservice-a77078", "operator": "United States Postal Service", "operator:short": "USPS", "operator:type": "public", "operator:wikidata": "Q668687", "ref": "1684500000"}, "type": "Feature"}
{"dataset_attributes": {"@spider": "usps_collection_boxes"}, "geometry": {"coordinates": [-78.116648005, 41.120096857], "type": "Point"}, "id": "8kjMDFxKVcdC55vWxT-Z9E5rlgc=", "properties": {"@spider": "usps_collection_boxes", "addr:city": "KARTHAUS", "addr:country": "US", "addr:full": "48 SMITH ST", "addr:postcode": "16845", "addr:state": "PA", "amenity": "post_box", "brand": "United States Postal Service", "brand:wikidata": "Q668687", "collection_times": "Mo-Fr 15:30; Sa 10:45", "name": "USPS COLLECTION BOX - PO LOBBY", "note": "ON 12/24 AND 12/31, THIS BOX MAY BE COLLECTED AS EARLY AS 12 NOON.", "nsi_id": "unitedstatespostalservice-a77078", "operator": "United States Postal Service", "operator:short": "USPS", "operator:type": "public", "operator:wikidata": "Q668687", "ref": "1684500002"}, "type": "Feature"}
{"dataset_attributes": {"@spider": "usps_collection_boxes"}, "geometry": {"coordinates": [-78.116648005, 41.120096857], "type": "Point"}, "id": "4Rx1sWTp0QZzzryFMoUMeLzI-VE=", "properties": {"@spider": "usps_collection_boxes", "addr:city": "KARTHAUS", "addr:country": "US", "addr:full": "48 SMITH ST", "addr:postcode": "16845", "addr:state": "PA", "amenity": "post_box", "brand": "United States Postal Service", "brand:wikidata": "Q668687", "collection_times": "Mo-Fr 15:15; Sa 10:45", "name": "USPS COLLECTION BOX - PO LOBBY", "note": "ON 12/24 AND 12/31, THIS BOX MAY BE COLLECTED AS EARLY AS 12 NOON.", "nsi_id": "unitedstatespostalservice-a77078", "operator": "United States Postal Service", "operator:short": "USPS", "operator:type": "public", "operator:wikidata": "Q668687", "ref": "1684500004"}, "type": "Feature"}
{"dataset_attributes": {"@spider": "usps_collection_boxes"}, "geometry": {"coordinates": [-77.533406837, 41.01354727], "type": "Point"}, "id": "7uThRjrEdEqxtMHt1xLoQa6u8z0=", "properties": {"@spider": "usps_collection_boxes", "addr:city": "LAMAR", "addr:country": "US", "addr:full": "5015 NITTANY VALLEY DR", "addr:postcode": "16848", "addr:state": "PA", "amenity": "post_box", "brand": "United States Postal Service", "brand:wikidata": "Q668687", "collection_times": "Mo-Fr 15:30; Sa 10:45", "name": "USPS COLLECTION BOX - BLUE BOX", "note": "ON 12/24 AND 12/31, THIS BOX MAY BE COLLECTED AS EARLY AS 12 NOON.", "nsi_id": "unitedstatespostalservice-a77078", "operator": "United States Postal Service", "operator:short": "USPS", "operator:type": "public", "operator:wikidata": "Q668687", "ref": "1684800000"}, "type": "Feature"}
{"dataset_attributes": {"@spider": "usps_collection_boxes"}, "geometry": {"coordinates": [-77.533406837, 41.01354727], "type": "Point"}, "id": "W9WY0Z5ZQiZw77MPuPtJTmiVTp0=", "properties": {"@spider": "usps_collection_boxes", "addr:city": "LAMAR", "addr:country": "US", "addr:full": "5015 NITTANY VALLEY DR", "addr:postcode": "16848", "addr:state": "PA", "amenity": "post_box", "brand": "United States Postal Service", "brand:wikidata": "Q668687", "collection_times": "Mo-Fr 15:30; Sa 10:45", "name": "USPS COLLECTION BOX - PO LOBBY", "note": "ON 12/24 AND 12/31, THIS BOX MAY BE COLLECTED AS EARLY AS 12 NOON.", "nsi_id": "unitedstatespostalservice-a77078", "operator": "United States Postal Service", "operator:short": "USPS", "operator:type": "public", "operator:wikidata": "Q668687", "ref": "1684800001"}, "type": "Feature"}
{"dataset_attributes": {"@spider": "usps_collection_boxes"}, "geometry": {"coordinates": [-77.533406837, 41.01354727], "type": "Point"}, "id": "Si38HUNHpAfWJHV5Bs36XpVtMtI=", "properties": {"@spider": "usps_collection_boxes", "addr:city": "LAMAR", "addr:country": "US", "addr:full": "5015 NITTANY VALLEY DR", "addr:postcode": "16848", "addr:state": "PA", "amenity": "post_box", "brand": "United States Postal Service", "brand:wikidata": "Q668687", "collection_times": "Mo-Fr 15:30; Sa 10:45", "name": "USPS COLLECTION BOX - PO LOBBY", "note": "ON 12/24 AND 12/31, THIS BOX MAY BE COLLECTED AS EARLY AS 12 NOON.", "nsi_id": "unitedstatespostalservice-a77078", "operator": "United States Postal Service", "operator:short": "USPS", "operator:type": "public", "operator:wikidata": "Q668687", "ref": "1684800004"}, "type": "Feature"}
{"dataset_attributes": {"@spider": "usps_collection_boxes"}, "geometry": {"coordinates": [-78.129544783, 40.975029142], "type": "Point"}, "id": "627i0wDf586LcBS84NWyUbP2J3Q=", "properties": {"@spider": "usps_collection_boxes", "addr:city": "LANSE", "addr:country": "US", "addr:full": "977 MAPLE ST", "addr:postcode": "16849", "addr:state": "PA", "amenity": "post_box", "brand": "United States Postal Service", "brand:wikidata": "Q668687", "collection_times": "Mo-Fr 11:55; Sa 11:45", "name": "USPS COLLECTION BOX - BLUE BOX", "nsi_id": "unitedstatespostalservice-a77078", "operator": "United States Postal Service", "operator:short": "USPS", "operator:type": "public", "operator:wikidata": "Q668687", "ref": "1684900000"}, "type": "Feature"}
{"dataset_attributes": {"@spider": "usps_collection_boxes"}, "geometry": {"coordinates": [-78.129544783, 40.975029142], "type": "Point"}, "id": "qVNf0-sBeMPqx4fApDx89HIcCp0=", "properties": {"@spider": "usps_collection_boxes", "addr:city": "LANSE", "addr:country": "US", "addr:full": "977 MAPLE ST", "addr:postcode": "16849", "addr:state": "PA", "amenity": "post_box", "brand": "United States Postal Service", "brand:wikidata": "Q668687", "collection_times": "Mo-Fr 11:55; Sa 11:45", "name": "USPS COLLECTION BOX - PO LOBBY", "nsi_id": "unitedstatespostalservice-a77078", "operator": "United States Postal Service", "operator:short": "USPS", "operator:type": "public", "operator:wikidata": "Q668687", "ref": "1684900001"}, "type": "Feature"}
{"dataset_attributes": {"@spider": "usps_collection_boxes"}, "geometry": {"coordinates": [-78.129544783, 40.975029142], "type": "Point"}, "id": "6EM5_avre3ezpx0VmAwFGwkZDro=", "properties": {"@spider": "usps_collection_boxes", "addr:city": "LANSE", "addr:country": "US", "addr:full": "977 MAPLE ST", "addr:postcode": "16849", "addr:state": "PA", "amenity": "post_box", "brand": "United States Postal Service", "brand:wikidata": "Q668687", "collection_times": "Mo-Fr 11:55; Sa 11:40", "name": "USPS COLLECTION BOX - PO LOBBY", "nsi_id": "unitedstatespostalservice-a77078", "operator": "United States Postal Service", "operator:short": "USPS", "operator:type": "public", "operator:wikidata": "Q668687", "ref": "1684900003"}, "type": "Feature"}
{"dataset_attributes": {"@spider": "usps_collection_boxes"}, "geometry": {"coordinates": [-77.817477949, 40.809579253], "type": "Point"}, "id": "1Ty0tw5jk-xN_j9G2zloDWG6KSs=", "properties": {"@spider": "usps_collection_boxes", "addr:city": "LEMONT", "addr:country": "US", "addr:full": "141 MARY ST", "addr:postcode": "16851", "addr:state": "PA", "amenity": "post_box", "brand": "United States Postal Service", "brand:wikidata": "Q668687", "collection_times": "Mo-Fr 17:00; Sa 12:00", "name": "USPS COLLECTION BOX - BLUE BOX", "note": "ON 12/24 AND 12/31, THIS BOX MAY BE COLLECTED AS EARLY AS 12 NOON.", "nsi_id": "unitedstatespostalservice-a77078", "operator": "United States Postal Service", "operator:short": "USPS", "operator:type": "public", "operator:wikidata": "Q668687", "ref": "1685100000"}, "type": "Feature"}
{"dataset_attributes": {"@spider": "usps_collection_boxes"}, "geometry": {"coordinates": [-77.817477949, 40.809579253], "type": "Point"}, "id": "Upd1mPuoBLgRtiKp9IkIadnJPE8=", "properties": {"@spider": "usps_collection_boxes", "addr:city": "LEMONT", "addr:country": "US", "addr:full": "141 MARY ST", "addr:postcode": "16851", "addr:state": "PA", "amenity": "post_box", "brand": "United States Postal Service", "brand:wikidata": "Q668687", "collection_times": "Mo-Fr 17:00; Sa 12:00", "name": "USPS COLLECTION BOX - BLUE BOX", "note": "ON 12/24 AND 12/31, THIS BOX MAY BE COLLECTED AS EARLY AS 12 NOON.", "nsi_id": "unitedstatespostalservice-a77078", "operator": "United States Postal Service", "operator:short": "USPS", "operator:type": "public", "operator:wikidata": "Q668687", "ref": "1685100001"}, "type": "Feature"}
{"dataset_attributes": {"@spider": "usps_collection_boxes"}, "geometry": {"coordinates": [-77.817477949, 40.809579253], "type": "Point"}, "id": "IYuNGKkvZjJkx6EpTPAbpvzNCbU=", "properties": {"@spider": "usps_collection_boxes", "addr:city": "LEMONT", "addr:country": "US", "addr:full": "141 MARY ST", "addr:postcode": "16851", "addr:state": "PA", "amenity": "post_box", "brand": "United States Postal Service", "brand:wikidata": "Q668687", "collection_times": "Mo-Fr 17:00; Sa 12:00", "name": "USPS COLLECTION BOX - PO LOBBY", "note": "ON 12/24 AND 12/31, THIS BOX MAY BE COLLECTED AS EARLY AS 12 NOON.", "nsi_id": "unitedstatespostalservice-a77078", "operator": "United States Postal Service", "operator:short": "USPS", "operator:type": "public", "operator:wikidata": "Q668687", "ref": "1685100002"}, "type": "Feature"}
{"dataset_attributes": {"@spider": "usps_collection_boxes"}, "geometry": {"coordinates": [-77.817477949, 40.809579253], "type": "Point"}, "id": "ZUYaZQKw2p1jPyIUsogXceSdi_s=", "properties": {"@spider": "usps_collection_boxes", "addr:city": "LEMONT", "addr:country": "US", "addr:full": "141 MARY ST", "addr:postcode": "16851", "addr:state": "PA", "amenity": "post_box", "brand": "United States Postal Service", "brand:wikidata": "Q668687", "collection_times": "Mo-Fr 17:00; Sa 12:00", "name": "USPS COLLECTION BOX - PO LOBBY", "note": "ON 12/24 AND 12/31, THIS BOX MAY BE COLLECTED AS EARLY AS 12 NOON.", "nsi_id": "unitedstatespostalservice-a77078", "operator": "United States Postal Service", "operator:short": "USPS", "operator:type": "public", "operator:wikidata": "Q668687", "ref": "1685100004"}, "type": "Feature"}
{"dataset_attributes": {"@spider": "usps_collection_boxes"}, "geometry": {"coordinates": [-77.5141689635, 40.9228509995], "type": "Point"}, "id": "9LGilR8TgKyhA1YUARWfafrYyw0=", "properties": {"@spider": "usps_collection_boxes", "addr:city": "MADISONBURG", "addr:country": "US", "addr:full": "4694 BRUSH VALLEY RD", "addr:postcode": "16852", "addr:state": "PA", "amenity": "post_box", "brand": "United States Postal Service", "brand:wikidata": "Q668687", "collection_times": "Mo-Fr 15:00; Sa 14:15", "name": "USPS COLLECTION BOX - BLUE BOX", "note": "ON 12/24 AND 12/31, THIS BOX MAY BE COLLECTED AS EARLY AS 12 NOON.", "nsi_id": "unitedstatespostalservice-a77078", "operator": "United States Postal Service", "operator:short": "USPS", "operator:type": "public", "operator:wikidata": "Q668687", "ref": "1685200000"}, "type": "Feature"}
{"dataset_attributes": {"@spider": "usps_collection_boxes"}, "geometry": {"coordinates": [-77.5141689635, 40.9228509995], "type": "Point"}, "id": "l8FaoRT2ODjt8CavBYDxZkQjivc=", "properties": {"@spider": "usps_collection_boxes", "addr:city": "MADISONBURG", "addr:country": "US", "addr:full": "4694 BRUSH VALLEY RD", "addr:postcode": "16852", "addr:state": "PA", "amenity": "post_box", "brand": "United States Postal Service", "brand:wikidata": "Q668687", "collection_times": "Mo-Fr 15:00; Sa 14:15", "name": "USPS COLLECTION BOX - PO LOBBY", "note": "ON 12/24 AND 12/31, THIS BOX MAY BE COLLECTED AS EARLY AS 12 NOON.", "nsi_id": "unitedstatespostalservice-a77078", "operator": "United States Postal Service", "operator:short": "USPS", "operator:type": "public", "operator:wikidata": "Q668687", "ref": "1685200003"}, "type": "Feature"}
{"dataset_attributes": {"@spider": "usps_collection_boxes"}, "geometry": {"coordinates": [-77.785811524, 40.942173939], "type": "Point"}, "id": "wm_VxI3c-fak2hBDtHPx_fxeKlw=", "properties": {"@spider": "usps_collection_boxes", "addr:city": "MILESBURG", "addr:country": "US", "addr:full": "202 MILL ST", "addr:postcode": "16853", "addr:state": "PA", "amenity": "post_box", "brand": "United States Postal Service", "brand:wikidata": "Q668687", "collection_times": "Mo-Fr 15:45; Sa 12:00", "name": "USPS COLLECTION BOX - BLUE BOX", "note": "ON 12/24 AND 12/31, THIS BOX MAY BE COLLECTED AS EARLY AS 12 NOON.", "nsi_id": "unitedstatespostalservice-a77078", "operator": "United States Postal Service", "operator:short": "USPS", "operator:type": "public", "operator:wikidata": "Q668687", "ref": "1685300000"}, "type": "Feature"}
{"dataset_attributes": {"@spider": "usps_collection_boxes"}, "geometry": {"coordinates": [-77.785811524, 40.942173939], "type": "Point"}, "id": "_Mr0SYLiEays6Cgiexips3IHPss=", "properties": {"@spider": "usps_collection_boxes", "addr:city": "MILESBURG", "addr:country": "US", "addr:full": "202 MILL ST", "addr:postcode": "16853", "addr:state": "PA", "amenity": "post_box", "brand": "United States Postal Service", "brand:wikidata": "Q668687", "collection_times": "Mo-Fr 15:45; Sa 12:00", "name": "USPS COLLECTION BOX - PO LOBBY", "note": "ON 12/24 AND 12/31, THIS BOX MAY BE COLLECTED AS EARLY AS 12 NOON.", "nsi_id": "unitedstatespostalservice-a77078", "operator": "United States Postal Service", "operator:short": "USPS", "operator:type": "public", "operator:wikidata": "Q668687", "ref": "1685300001"}, "type": "Feature"}
{"dataset_attributes": {"@spider": "usps_collection_boxes"}, "geometry": {"coordinates": [-77.785811524, 40.942173939], "type": "Point"}, "id": "wbEng0SU4YQsBPYVAa1C5DILFZI=", "properties": {"@spider": "usps_collection_boxes", "addr:city": "MILESBURG", "addr:country": "US", "addr:full": "202 MILL ST", "addr:postcode": "16853", "addr:state": "PA", "amenity": "post_box", "brand": "United States Postal Service", "brand:wikidata": "Q668687", "collection_times": "Mo-Fr 16:00; Sa 12:00", "name": "USPS COLLECTION BOX - PO LOBBY", "note": "ON 12/24 AND 12/31, THIS BOX MAY BE COLLECTED AS EARLY AS 12 NOON.", "nsi_id": "unitedstatespostalservice-a77078", "operator": "United States Postal Service", "operator:short": "USPS", "operator:type": "public", "operator:wikidata": "Q668687", "ref": "1685300003"}, "type": "Feature"}
{"dataset_attributes": {"@spider": "usps_collection_boxes"}, "geometry": {"coordinates": [-77.476927961, 40.890907667], "type": "Point"}, "id": "ei9bodbaxtSi_1rwiXomRuZxY0k=", "properties": {"@spider": "usps_collection_boxes", "addr:city": "MILLHEIM", "addr:country": "US", "addr:full": "101 W MAIN ST", "addr:postcode": "16854", "addr:state": "PA", "amenity": "post_box", "brand": "United States Postal Service", "brand:wikidata": "Q668687", "collection_times": "Mo-Fr 15:45; Sa 11:15", "name": "USPS COLLECTION BOX - BLUE BOX", "note": "ON 12/24 AND 12/31, THIS BOX MAY BE COLLECTED AS EARLY AS 12 NOON.", "nsi_id": "unitedstatespostalservice-a77078", "operator": "United States Postal Service", "operator:short": "USPS", "operator:type": "public", "operator:wikidata": "Q668687", "ref": "1685400000"}, "type": "Feature"}
{"dataset_attributes": {"@spider": "usps_collection_boxes"}, "geometry": {"coordinates": [-77.476927961, 40.890907667], "type": "Point"}, "id": "Jug3BzMJADFdmBqaN1dkt1HjnPg=", "properties": {"@spider": "usps_collection_boxes", "addr:city": "MILLHEIM", "addr:country": "US", "addr:full": "101 W MAIN ST", "addr:postcode": "16854", "addr:state": "PA", "amenity": "post_box", "brand": "United States Postal Service", "brand:wikidata": "Q668687", "collection_times": "Mo-Fr 15:45; Sa 11:00", "name": "USPS COLLECTION BOX - PO LOBBY", "note": "ON 12/24 AND 12/31, THIS BOX MAY BE COLLECTED AS EARLY AS 12 NOON.", "nsi_id": "unitedstatespostalservice-a77078", "operator": "United States Postal Service", "operator:short": "USPS", "operator:type": "public", "operator:wikidata": "Q668687", "ref": "1685400001"}, "type": "Feature"}
{"dataset_attributes": {"@spider": "usps_collection_boxes"}, "geometry": {"coordinates": [-77.476927961, 40.890907667], "type": "Point"}, "id": "rebLpd2A21IHjY2IXmwNQpbSUR0=", "properties": {"@spider": "usps_collection_boxes", "addr:city": "MILLHEIM", "addr:country": "US", "addr:full": "101 W MAIN ST", "addr:postcode": "16854", "addr:state": "PA", "amenity": "post_box", "brand": "United States Postal Service", "brand:wikidata": "Q668687", "collection_times": "Mo-Fr 16:00; Sa 11:00", "name": "USPS COLLECTION BOX - PO LOBBY", "note": "ON 12/24 AND 12/31, THIS BOX MAY BE COLLECTED AS EARLY AS 12 NOON.", "nsi_id": "unitedstatespostalservice-a77078", "operator": "United States Postal Service", "operator:short": "USPS", "operator:type": "public", "operator:wikidata": "Q668687", "ref": "1685400003"}, "type": "Feature"}
{"dataset_attributes": {"@spider": "usps_collection_boxes"}, "geometry": {"coordinates": [-77.649345, 40.935813], "type": "Point"}, "id": "-FOPys-u98d00JyXyT4ynMwmTCA=", "properties": {"@spider": "usps_collection_boxes", "addr:city": "MINGOVILLE", "addr:country": "US", "addr:full": "101 HECLA RD", "addr:postcode": "16856", "addr:state": "PA", "amenity": "post_box", "brand": "United States Postal Service", "brand:wikidata": "Q668687", "collection_times": "Mo-Fr 11:55; Sa 11:30", "name": "USPS COLLECTION BOX - BLUE BOX", "nsi_id": "unitedstatespostalservice-a77078", "operator": "United States Postal Service", "operator:short": "USPS", "operator:type": "public", "operator:wikidata": "Q668687", "ref": "1685600000"}, "type": "Feature"}
{"dataset_attributes": {"@spider": "usps_collection_boxes"}, "geometry": {"coordinates": [-77.649451, 40.935863], "type": "Point"}, "id": "cY5GG3vuVYFj6OKzUZzrLxy_Exc=", "properties": {"@spider": "usps_collection_boxes", "addr:city": "MINGOVILLE", "addr:country": "US", "addr:full": "101 HECLA RD", "addr:postcode": "16856", "addr:state": "PA", "amenity": "post_box", "brand": "United States Postal Service", "brand:wikidata": "Q668687", "collection_times": "Mo-Fr 11:55; Sa 11:30", "name": "USPS COLLECTION BOX - PO LOBBY", "nsi_id": "unitedstatespostalservice-a77078", "operator": "United States Postal Service", "operator:short": "USPS", "operator:type": "public", "operator:wikidata": "Q668687", "ref": "1685600001"}, "type": "Feature"}
{"dataset_attributes": {"@spider": "usps_collection_boxes"}, "geometry": {"coordinates": [-77.6491395383, 40.9356219795], "type": "Point"}, "id": "-AuK2a6ym6k3wkyHI3qRP7v6eTU=", "properties": {"@spider": "usps_collection_boxes", "addr:city": "MINGOVILLE", "addr:country": "US", "addr:full": "101 HECLA RD", "addr:postcode": "16856", "addr:state": "PA", "amenity": "post_box", "brand": "United States Postal Service", "brand:wikidata": "Q668687", "collection_times": "Mo-Fr 11:55; Sa 11:40", "name": "USPS COLLECTION BOX - PO LOBBY", "nsi_id": "unitedstatespostalservice-a77078", "operator": "United States Postal Service", "operator:short": "USPS", "operator:type": "public", "operator:wikidata": "Q668687", "ref": "1685600003"}, "type": "Feature"}
{"dataset_attributes": {"@spider": "usps_collection_boxes"}, "geometry": {"coordinates": [-78.003999859, 41.032124488], "type": "Point"}, "id": "oN2dNm4INuNAwbUrQgLUG_zunlM=", "properties": {"@spider": "usps_collection_boxes", "addr:city": "MOSHANNON", "addr:country": "US", "addr:full": "1511 W SYCAMORE RD", "addr:postcode": "16859", "addr:state": "PA", "amenity": "post_box", "brand": "United States Postal Service", "brand:wikidata": "Q668687", "collection_times": "Mo-Fr 10:55; Sa 09:45", "name": "USPS COLLECTION BOX - BLUE BOX", "nsi_id": "unitedstatespostalservice-a77078", "operator": "United States Postal Service", "operator:short": "USPS", "operator:type": "public", "operator:wikidata": "Q668687", "ref": "1685900000"}, "type": "Feature"}
{"dataset_attributes": {"@spider": "usps_collection_boxes"}, "geometry": {"coordinates": [-78.003999859, 41.032124488], "type": "Point"}, "id": "8503xySDFVWKGexk5e5uUwk5HCo=", "properties": {"@spider": "usps_collection_boxes", "addr:city": "MOSHANNON", "addr:country": "US", "addr:full": "1511 W SYCAMORE RD", "addr:postcode": "16859", "addr:state": "PA", "amenity": "post_box", "brand": "United States Postal Service", "brand:wikidata": "Q668687", "collection_times": "Mo-Fr 10:55; Sa 09:45", "name": "USPS COLLECTION BOX - PO LOBBY", "nsi_id": "unitedstatespostalservice-a77078", "operator": "United States Postal Service", "operator:short": "USPS", "operator:type": "public", "operator:wikidata": "Q668687", "ref": "1685900001"}, "type": "Feature"}
{"dataset_attributes": {"@spider": "usps_collection_boxes"}, "geometry": {"coordinates": [-78.003999859, 41.032124488], "type": "Point"}, "id": "mmqLD-YPWBa1s90lKeRM7005YBk=", "properties": {"@spider": "usps_collection_boxes", "addr:city": "MOSHANNON", "addr:country": "US", "addr:full": "1511 W SYCAMORE RD", "addr:postcode": "16859", "addr:state": "PA", "amenity": "post_box", "brand": "United States Postal Service", "brand:wikidata": "Q668687", "collection_times": "Mo-Fr 10:55; Sa 09:45", "name": "USPS COLLECTION BOX - PO LOBBY", "nsi_id": "unitedstatespostalservice-a77078", "operator": "United States Postal Service", "operator:short": "USPS", "operator:type": "public", "operator:wikidata": "Q668687", "ref": "1685900003"}, "type": "Feature"}
{"dataset_attributes": {"@spider": "usps_collection_boxes"}, "geometry": {"coordinates": [-77.991664, 40.706136], "type": "Point"}, "id": "GTiPTtzE_j9Vf93mOLUIudoQgd8=", "properties": {"@spider": "usps_collection_boxes", "addr:city": "PA FURNACE", "addr:country": "US", "addr:full": "6890 W WHITEHALL RD", "addr:postcode": "16865", "addr:state": "PA", "amenity": "post_box", "brand": "United States Postal Service", "brand:wikidata": "Q668687", "collection_times": "Mo-Fr 15:00; Sa 11:00", "name": "USPS COLLECTION BOX - BLUE BOX", "note": "ON 12/24 AND 12/31, THIS BOX MAY BE COLLECTED AS EARLY AS 12 NOON.", "nsi_id": "unitedstatespostalservice-a77078", "operator": "United States Postal Service", "operator:short": "USPS", "operator:type": "public", "operator:wikidata": "Q668687", "ref": "1686500000"}, "type": "Feature"}
{"dataset_attributes": {"@spider": "usps_collection_boxes"}, "geometry": {"coordinates": [-77.991702, 40.706149], "type": "Point"}, "id": "X0CaH3QmSpBErsYgGGiS5QcSvqI=", "properties": {"@spider": "usps_collection_boxes", "addr:city": "PA FURNACE", "addr:country": "US", "addr:full": "6890 W WHITEHALL RD", "addr:postcode": "16865", "addr:state": "PA", "amenity": "post_box", "brand": "United States Postal Service", "brand:wikidata": "Q668687", "collection_times": "Mo-Fr 15:00; Sa 11:00", "name": "USPS COLLECTION BOX - PO LOBBY", "note": "ON 12/24 AND 12/31, THIS BOX MAY BE COLLECTED AS EARLY AS 12 NOON.", "nsi_id": "unitedstatespostalservice-a77078", "operator": "United States Postal Service", "operator:short": "USPS", "operator:type": "public", "operator:wikidata": "Q668687", "ref": "1686500001"}, "type": "Feature"}
{"dataset_attributes": {"@spider": "usps_collection_boxes"}, "geometry": {"coordinates": [-77.9916783956, 40.7061316966], "type": "Point"}, "id": "Cz7WQfo5eWYwkkwvFaGBIv3mD2w=", "properties": {"@spider": "usps_collection_boxes", "addr:city": "PA FURNACE", "addr:country": "US", "addr:full": "6890 W WHITEHALL RD", "addr:postcode": "16865", "addr:state": "PA", "amenity": "post_box", "brand": "United States Postal Service", "brand:wikidata": "Q668687", "collection_times": "Mo-Fr 15:00; Sa 11:00", "name": "USPS COLLECTION BOX - PO LOBBY", "note": "ON 12/24 AND 12/31, THIS BOX MAY BE COLLECTED AS EARLY AS 12 NOON.", "nsi_id": "unitedstatespostalservice-a77078", "operator": "United States Postal Service", "operator:short": "USPS", "operator:type": "public", "operator:wikidata": "Q668687", "ref": "1686500003"}, "type": "Feature"}
{"dataset_attributes": {"@spider": "usps_collection_boxes"}, "geometry": {"coordinates": [-77.88613, 40.73489], "type": "Point"}, "id": "3f9boiiFQ8ZKQgg2CT8kG9AwjG4=", "properties": {"@spider": "usps_collection_boxes", "addr:city": "PINE GRV MLS", "addr:country": "US", "addr:full": "112 E PINE GROVE RD", "addr:postcode": "16868", "addr:state": "PA", "amenity": "post_box", "brand": "United States Postal Service", "brand:wikidata": "Q668687", "collection_times": "Mo-Fr 16:00; Sa 12:00", "name": "USPS COLLECTION BOX - BLUE BOX", "note": "ON 12/24 AND 12/31, THIS BOX MAY BE COLLECTED AS EARLY AS 12 NOON.", "nsi_id": "unitedstatespostalservice-a77078", "operator": "United States Postal Service", "operator:short": "USPS", "operator:type": "public", "operator:wikidata": "Q668687", "ref": "1686800000"}, "type": "Feature"}
{"dataset_attributes": {"@spider": "usps_collection_boxes"}, "geometry": {"coordinates": [-77.88613, 40.73489], "type": "Point"}, "id": "yHWO1OqGWaq8uMZ9hrgSczTnoqc=", "properties": {"@spider": "usps_collection_boxes", "addr:city": "PINE GRV MLS", "addr:country": "US", "addr:full": "112 E PINE GROVE RD", "addr:postcode": "16868", "addr:state": "PA", "amenity": "post_box", "brand": "United States Postal Service", "brand:wikidata": "Q668687", "collection_times": "Mo-Fr 16:15; Sa 12:00", "name": "USPS COLLECTION BOX - PO LOBBY", "note": "ON 12/24 AND 12/31, THIS BOX MAY BE COLLECTED AS EARLY AS 12 NOON.", "nsi_id": "unitedstatespostalservice-a77078", "operator": "United States Postal Service", "operator:short": "USPS", "operator:type": "public", "operator:wikidata": "Q668687", "ref": "1686800001"}, "type": "Feature"}
{"dataset_attributes": {"@spider": "usps_collection_boxes"}, "geometry": {"coordinates": [-77.88613, 40.73489], "type": "Point"}, "id": "RANEg-Rp0asb_TNg2HMAEF_zEwE=", "properties": {"@spider": "usps_collection_boxes", "addr:city": "PINE GRV MLS", "addr:country": "US", "addr:full": "112 E PINE GROVE RD", "addr:postcode": "16868", "addr:state": "PA", "amenity": "post_box", "brand": "United States Postal Service", "brand:wikidata": "Q668687", "collection_times": "Mo-Fr 16:15; Sa 12:00", "name": "USPS COLLECTION BOX - PO LOBBY", "note": "ON 12/24 AND 12/31, THIS BOX MAY BE COLLECTED AS EARLY AS 12 NOON.", "nsi_id": "unitedstatespostalservice-a77078", "operator": "United States Postal Service", "operator:short": "USPS", "operator:type": "public", "operator:wikidata": "Q668687", "ref": "1686800003"}, "type": "Feature"}
{"dataset_attributes": {"@spider": "usps_collection_boxes"}, "geometry": {"coordinates": [-78.054454, 40.799983], "type": "Point"}, "id": "5DoKJ0GxHirs97eT8Bcd7rhXRnc=", "properties": {"@spider": "usps_collection_boxes", "addr:city": "PORT MATILDA", "addr:country": "US", "addr:full": "109 N HIGH ST", "addr:postcode": "16870", "addr:state": "PA", "amenity": "post_box", "brand": "United States Postal Service", "brand:wikidata": "Q668687", "collection_times": "Mo-Fr 17:00; Sa 12:00", "name": "USPS COLLECTION BOX - BLUE BOX", "note": "ON 12/24 AND 12/31, THIS BOX MAY BE COLLECTED AS EARLY AS 12 NOON.", "nsi_id": "unitedstatespostalservice-a77078", "operator": "United States Postal Service", "operator:short": "USPS", "operator:type": "public", "operator:wikidata": "Q668687", "ref": "1687000000"}, "type": "Feature"}
{"dataset_attributes": {"@spider": "usps_collection_boxes"}, "geometry": {"coordinates": [-78.054402, 40.799902], "type": "Point"}, "id": "Zpm47yvA-tZBijK0uF8Xw86_Zm4=", "properties": {"@spider": "usps_collection_boxes", "addr:city": "PORT MATILDA", "addr:country": "US", "addr:full": "109 N HIGH ST", "addr:postcode": "16870", "addr:state": "PA", "amenity": "post_box", "brand": "United States Postal Service", "brand:wikidata": "Q668687", "collection_times": "Mo-Fr 17:00; Sa 12:00", "name": "USPS COLLECTION BOX - PO LOBBY", "note": "ON 12/24 AND 12/31, THIS BOX MAY BE COLLECTED AS EARLY AS 12 NOON.", "nsi_id": "unitedstatespostalservice-a77078", "operator": "United States Postal Service", "operator:short": "USPS", "operator:type": "public", "operator:wikidata": "Q668687", "ref": "1687000001"}, "type": "Feature"}
{"dataset_attributes": {"@spider": "usps_collection_boxes"}, "geometry": {"coordinates": [-78.0546646801, 40.8001435027], "type": "Point"}, "id": "x7b8gw-VqJlnkYyur6CwTPS8fe4=", "properties": {"@spider": "usps_collection_boxes", "addr:city": "PORT MATILDA", "addr:country": "US", "addr:full": "109 N HIGH ST", "addr:postcode": "16870", "addr:state": "PA", "amenity": "post_box", "brand": "United States Postal Service", "brand:wikidata": "Q668687", "collection_times": "Mo-Fr 16:30; Sa 11:30", "name": "USPS COLLECTION BOX - PO LOBBY", "note": "ON 12/24 AND 12/31, THIS BOX MAY BE COLLECTED AS EARLY AS 12 NOON.", "nsi_id": "unitedstatespostalservice-a77078", "operator": "United States Postal Service", "operator:short": "USPS", "operator:type": "public", "operator:wikidata": "Q668687", "ref": "1687000003"}, "type": "Feature"}
{"dataset_attributes": {"@spider": "usps_collection_boxes"}, "geometry": {"coordinates": [-77.444689, 40.94487], "type": "Point"}, "id": "IRbNjO_thBRI2WAW_cwBruZnJbk=", "properties": {"@spider": "usps_collection_boxes", "addr:city": "REBERSBURG", "addr:country": "US", "addr:full": "109 E MAIN ST", "addr:postcode": "16872", "addr:state": "PA", "amenity": "post_box", "brand": "United States Postal Service", "brand:wikidata": "Q668687", "collection_times": "Mo-Fr 11:30; Sa 10:45", "name": "USPS COLLECTION BOX - BLUE BOX", "nsi_id": "unitedstatespostalservice-a77078", "operator": "United States Postal Service", "operator:short": "USPS", "operator:type": "public", "operator:wikidata": "Q668687", "ref": "1687200000"}, "type": "Feature"}
{"dataset_attributes": {"@spider": "usps_collection_boxes"}, "geometry": {"coordinates": [-77.444689, 40.94487], "type": "Point"}, "id": "vNt_p6D4WLrfd0Y70OMW5FflbDE=", "properties": {"@spider": "usps_collection_boxes", "addr:city": "REBERSBURG", "addr:country": "US", "addr:full": "109 E MAIN ST", "addr:postcode": "16872", "addr:state": "PA", "amenity": "post_box", "brand": "United States Postal Service", "brand:wikidata": "Q668687", "collection_times": "Mo-Fr 11:30; Sa 10:45", "name": "USPS COLLECTION BOX - PO LOBBY", "nsi_id": "unitedstatespostalservice-a77078", "operator": "United States Postal Service", "operator:short": "USPS", "operator:type": "public", "operator:wikidata": "Q668687", "ref": "1687200001"}, "type": "Feature"}
{"dataset_attributes": {"@spider": "usps_collection_boxes"}, "geometry": {"coordinates": [-77.4448391199, 40.9448488338], "type": "Point"}, "id": "OINF7x25UUcms5Rml6ZiaG5BeQM=", "properties": {"@spider": "usps_collection_boxes", "addr:city": "REBERSBURG", "addr:country": "US", "addr:full": "109 E MAIN ST", "addr:postcode": "16872", "addr:state": "PA", "amenity": "post_box", "brand": "United States Postal Service", "brand:wikidata": "Q668687", "collection_times": "Mo-Fr 11:30; Sa 10:45", "name": "USPS COLLECTION BOX - PO LOBBY", "nsi_id": "unitedstatespostalservice-a77078", "operator": "United States Postal Service", "operator:short": "USPS", "operator:type": "public", "operator:wikidata": "Q668687", "ref": "1687200003"}, "type": "Feature"}
{"dataset_attributes": {"@spider": "usps_collection_boxes"}, "geometry": {"coordinates": [-77.94847139, 41.029266804], "type": "Point"}, "id": "y1rxuaTCZo2AzbUak9jE9K9xIGA=", "properties": {"@spider": "usps_collection_boxes", "addr:city": "SNOWSHOE", "addr:country": "US", "addr:full": "105 S MOSHANNON AVE", "addr:postcode": "16874", "addr:state": "PA", "amenity": "post_box", "brand": "United States Postal Service", "brand:wikidata": "Q668687", "collection_times": "Mo-Fr 14:30; Sa 11:15", "name": "USPS COLLECTION BOX - BLUE BOX", "note": "ON 12/24 AND 12/31, THIS BOX MAY BE COLLECTED AS EARLY AS 12 NOON.", "nsi_id": "unitedstatespostalservice-a77078", "operator": "United States Postal Service", "operator:short": "USPS", "operator:type": "public", "operator:wikidata": "Q668687", "ref": "1687400000"}, "type": "Feature"}
{"dataset_attributes": {"@spider": "usps_collection_boxes"}, "geometry": {"coordinates": [-77.94847139, 41.029266804], "type": "Point"}, "id": "_CW2AN2nRArmiBMbBDp6Aq7rEAk=", "properties": {"@spider": "usps_collection_boxes", "addr:city": "SNOWSHOE", "addr:country": "US", "addr:full": "105 S MOSHANNON AVE", "addr:postcode": "16874", "addr:state": "PA", "amenity": "post_box", "brand": "United States Postal Service", "brand:wikidata": "Q668687", "collection_times": "Mo-Fr 14:30; Sa 11:15", "name": "USPS COLLECTION BOX - PO LOBBY", "note": "ON 12/24 AND 12/31, THIS BOX MAY BE COLLECTED AS EARLY AS 12 NOON.", "nsi_id": "unitedstatespostalservice-a77078", "operator": "United States Postal Service", "operator:short": "USPS", "operator:type": "public", "operator:wikidata": "Q668687", "ref": "1687400001"}, "type": "Feature"}
{"dataset_attributes": {"@spider": "usps_collection_boxes"}, "geometry": {"coordinates": [-77.94847139, 41.029266804], "type": "Point"}, "id": "eJWsKuGQHW9xKe0cwSOZeeyuItc=", "properties": {"@spider": "usps_collection_boxes", "addr:city": "SNOWSHOE", "addr:country": "US", "addr:full": "105 S MOSHANNON AVE", "addr:postcode": "16874", "addr:state": "PA", "amenity": "post_box", "brand": "United States Postal Service", "brand:wikidata": "Q668687", "collection_times": "Mo-Fr 14:30; Sa 11:00", "name": "USPS COLLECTION BOX - PO LOBBY", "note": "ON 12/24 AND 12/31, THIS BOX MAY BE COLLECTED AS EARLY AS 12 NOON.", "nsi_id": "unitedstatespostalservice-a77078", "operator": "United States Postal Service", "operator:short": "USPS", "operator:type": "public", "operator:wikidata": "Q668687", "ref": "1687400004"}, "type": "Feature"}
{"dataset_attributes": {"@spider": "usps_collection_boxes"}, "geometry": {"coordinates": [-77.573058572, 40.854045107], "type": "Point"}, "id": "2GoBV19c7lwRt3e_QTb_wyaVoFg=", "properties": {"@spider": "usps_collection_boxes", "addr:city": "SPRING MILLS", "addr:country": "US", "addr:full": "136 SCHOOL ST", "addr:postcode": "16875", "addr:state": "PA", "amenity": "post_box", "brand": "United States Postal Service", "brand:wikidata": "Q668687", "collection_times": "Mo-Fr 16:00; Sa 11:30", "name": "USPS COLLECTION BOX - BLUE BOX", "note": "ON 12/24 AND 12/31, THIS BOX MAY BE COLLECTED AS EARLY AS 12 NOON.", "nsi_id": "unitedstatespostalservice-a77078", "operator": "United States Postal Service", "operator:short": "USPS", "operator:type": "public", "operator:wikidata": "Q668687", "ref": "1687500000"}, "type": "Feature"}
{"dataset_attributes": {"@spider": "usps_collection_boxes"}, "geometry": {"coordinates": [-77.573058572, 40.854045107], "type": "Point"}, "id": "z83nNOzaAzqjPn_zdVZuOtjOszw=", "properties": {"@spider": "usps_collection_boxes", "addr:city": "SPRING MILLS", "addr:country": "US", "addr:full": "136 SCHOOL ST", "addr:postcode": "16875", "addr:state": "PA", "amenity": "post_box", "brand": "United States Postal Service", "brand:wikidata": "Q668687", "collection_times": "Mo-Fr 16:00; Sa 11:30", "name": "USPS COLLECTION BOX - PO LOBBY", "note": "ON 12/24 AND 12/31, THIS BOX MAY BE COLLECTED AS EARLY AS 12 NOON.", "nsi_id": "unitedstatespostalservice-a77078", "operator": "United States Postal Service", "operator:short": "USPS", "operator:type": "public", "operator:wikidata": "Q668687", "ref": "1687500001"}, "type": "Feature"}
{"dataset_attributes": {"@spider": "usps_collection_boxes"}, "geometry": {"coordinates": [-77.573058572, 40.854045107], "type": "Point"}, "id": "lS5lkSAmvpESs4T0HWQc4kLaBGE=", "properties": {"@spider": "usps_collection_boxes", "addr:city": "SPRING MILLS", "addr:country": "US", "addr:full": "136 SCHOOL ST", "addr:postcode": "16875", "addr:state": "PA", "amenity": "post_box", "brand": "United States Postal Service", "brand:wikidata": "Q668687", "collection_times": "Mo-Fr 16:15; Sa 11:30", "name": "USPS COLLECTION BOX - PO LOBBY", "note": "ON 12/24 AND 12/31, THIS BOX MAY BE COLLECTED AS EARLY AS 12 NOON.", "nsi_id": "unitedstatespostalservice-a77078", "operator": "United States Postal Service", "operator:short": "USPS", "operator:type": "public", "operator:wikidata": "Q668687", "ref": "1687500003"}, "type": "Feature"}
{"dataset_attributes": {"@spider": "usps_collection_boxes"}, "geometry": {"coordinates": [-78.128810524, 40.703341067], "type": "Point"}, "id": "Ig6sWJJ0iYSCdVhylvxPk-R-bV0=", "properties": {"@spider": "usps_collection_boxes", "addr:city": "WARRIORS MARK", "addr:country": "US", "addr:full": "1883 CENTRE LINE RD", "addr:postcode": "16877", "addr:state": "PA", "amenity": "post_box", "brand": "United States Postal Service", "brand:wikidata": "Q668687", "collection_times": "Mo-Fr 16:00; Sa 10:45", "name": "USPS COLLECTION BOX - BLUE BOX", "note": "ON 12/24 AND 12/31, THIS BOX MAY BE COLLECTED AS EARLY AS 12 NOON.", "nsi_id": "unitedstatespostalservice-a77078", "operator": "United States Postal Service", "operator:short": "USPS", "operator:type": "public", "operator:wikidata": "Q668687", "ref": "1687700000"}, "type": "Feature"}
{"dataset_attributes": {"@spider": "usps_collection_boxes"}, "geometry": {"coordinates": [-78.128810524, 40.703341067], "type": "Point"}, "id": "WPO1kvTUD4ZPgcN4SqMZhJNeBY0=", "properties": {"@spider": "usps_collection_boxes", "addr:city": "WARRIORS MARK", "addr:country": "US", "addr:full": "1883 CENTRE LINE RD", "addr:postcode": "16877", "addr:state": "PA", "amenity": "post_box", "brand": "United States Postal Service", "brand:wikidata": "Q668687", "collection_times": "Mo-Fr 16:00; Sa 10:45", "name": "USPS COLLECTION BOX - PO LOBBY", "note": "ON 12/24 AND 12/31, THIS BOX MAY BE COLLECTED AS EARLY AS 12 NOON.", "nsi_id": "unitedstatespostalservice-a77078", "operator": "United States Postal Service", "operator:short": "USPS", "operator:type": "public", "operator:wikidata": "Q668687", "ref": "1687700001"}, "type": "Feature"}
{"dataset_attributes": {"@spider": "usps_collection_boxes"}, "geometry": {"coordinates": [-78.128810524, 40.703341067], "type": "Point"}, "id": "RgniOKqNe-j0j3rQk6tmVaJd1ig=", "properties": {"@spider": "usps_collection_boxes", "addr:city": "WARRIORS MARK", "addr:country": "US", "addr:full": "1883 CENTRE LINE RD", "addr:postcode": "16877", "addr:state": "PA", "amenity": "post_box", "brand": "United States Postal Service", "brand:wikidata": "Q668687", "collection_times": "Mo-Fr 16:00; Sa 11:00", "name": "USPS COLLECTION BOX - PO LOBBY", "note": "ON 12/24 AND 12/31, THIS BOX MAY BE COLLECTED AS EARLY AS 12 NOON.", "nsi_id": "unitedstatespostalservice-a77078", "operator": "United States Postal Service", "operator:short": "USPS", "operator:type": "public", "operator:wikidata": "Q668687", "ref": "1687700003"}, "type": "Feature"}
{"dataset_attributes": {"@spider": "usps_collection_boxes"}, "geometry": {"coordinates": [-77.356155614, 40.898705754], "type": "Point"}, "id": "jNLVaZhTvPg2FSTN7NFHi-5TAts=", "properties": {"@spider": "usps_collection_boxes", "addr:city": "WOODWARD", "addr:country": "US", "addr:full": "107 MOUNTAIN AVE", "addr:postcode": "16882", "addr:state": "PA", "amenity": "post_box", "brand": "United States Postal Service", "brand:wikidata": "Q668687", "collection_times": "Mo-Fr 15:00; Sa 10:45", "name": "USPS COLLECTION BOX - BLUE BOX", "note": "ON 12/24 AND 12/31, THIS BOX MAY BE COLLECTED AS EARLY AS 12 NOON.", "nsi_id": "unitedstatespostalservice-a77078", "operator": "United States Postal Service", "operator:short": "USPS", "operator:type": "public", "operator:wikidata": "Q668687", "ref": "1688200000"}, "type": "Feature"}
{"dataset_attributes": {"@spider": "usps_collection_boxes"}, "geometry": {"coordinates": [-77.356155614, 40.898705754], "type": "Point"}, "id": "1-g2gZyd2xTr1ETrkeU6CZXDyjQ=", "properties": {"@spider": "usps_collection_boxes", "addr:city": "WOODWARD", "addr:country": "US", "addr:full": "107 MOUNTAIN AVE", "addr:postcode": "16882", "addr:state": "PA", "amenity": "post_box", "brand": "United States Postal Service", "brand:wikidata": "Q668687", "collection_times": "Mo-Fr 15:00; Sa 10:45", "name": "USPS COLLECTION BOX - PO LOBBY", "note": "ON 12/24 AND 12/31, THIS BOX MAY BE COLLECTED AS EARLY AS 12 NOON.", "nsi_id": "unitedstatespostalservice-a77078", "operator": "United States Postal Service", "operator:short": "USPS", "operator:type": "public", "operator:wikidata": "Q668687", "ref": "1688200001"}, "type": "Feature"}
{"dataset_attributes": {"@spider": "usps_collection_boxes"}, "geometry": {"coordinates": [-77.356155614, 40.898705754], "type": "Point"}, "id": "L5U7bxUSNEduPfrD_2AgjVS1M7g=", "properties": {"@spider": "usps_collection_boxes", "addr:city": "WOODWARD", "addr:country": "US", "addr:full": "107 MOUNTAIN AVE", "addr:postcode": "16882", "addr:state": "PA", "amenity": "post_box", "brand": "United States Postal Service", "brand:wikidata": "Q668687", "collection_times": "Mo-Fr 15:00; Sa 10:45", "name": "USPS COLLECTION BOX - PO LOBBY", "note": "ON 12/24 AND 12/31, THIS BOX MAY BE COLLECTED AS EARLY AS 12 NOON.", "nsi_id": "unitedstatespostalservice-a77078", "operator": "United States Postal Service", "operator:short": "USPS", "operator:type": "public", "operator:wikidata": "Q668687", "ref": "1688200003"}, "type": "Feature"}
