{"dataset_attributes": {"@spider": "usps_collection_boxes"}, "geometry": {"coordinates": [-77.300021489, 41.747700647], "type": "Point"}, "id": "zb9M9PPFA32wgDaglspbcDshtns=", "properties": {"@spider": "usps_collection_boxes", "addr:city": "WELLSBORO", "addr:country": "US", "addr:full": "17 PEARL ST", "addr:postcode": "16901", "addr:state": "PA", "amenity": "post_box", "brand": "United States Postal Service", "brand:wikidata": "Q668687", "collection_times": "Mo-Fr 12:00; Sa 15:00", "name": "USPS COLLECTION BOX - BLUE BOX", "note": "ON 12/24 AND 12/31, THIS BOX MAY BE COLLECTED AS EARLY AS 12 NOON.", "nsi_id": "unitedstatespostalservice-a77078", "operator": "United States Postal Service", "operator:short": "USPS", "operator:type": "public", "operator:wikidata": "Q668687", "ref": "1690100011"}, "type": "Feature"}
{"dataset_attributes": {"@spider": "usps_collection_boxes"}, "geometry": {"coordinates": [-77.299032, 41.749787], "type": "Point"}, "id": "12HWI85XvjRwMM8huReJIq2UY4U=", "properties": {"@spider": "usps_collection_boxes", "addr:city": "WELLSBORO", "addr:country": "US", "addr:full": "14 MAIN ST", "addr:postcode": "16901", "addr:state": "PA", "amenity": "post_box", "brand": "United States Postal Service", "brand:wikidata": "Q668687", "collection_times": "Mo-Sa 17:00", "name": "USPS COLLECTION BOX - BLUE BOX", "note": "ON 12/24 AND 12/31, THIS BOX MAY BE COLLECTED AS EARLY AS 12 NOON.", "nsi_id": "unitedstatespostalservice-a77078", "operator": "United States Postal Service", "operator:short": "USPS", "operator:type": "public", "operator:wikidata": "Q668687", "ref": "1690100013"}, "type": "Feature"}
{"dataset_attributes": {"@spider": "usps_collection_boxes"}, "geometry": {"coordinates": [-77.299032, 41.749787], "type": "Point"}, "id": "cWWaL8UvRz6_0chMhEdf6GzqO5U=", "properties": {"@spider": "usps_collection_boxes", "addr:city": "WELLSBORO", "addr:country": "US", "addr:full": "14 MAIN ST", "addr:postcode": "16901", "addr:state": "PA", "amenity": "post_box", "brand": "United States Postal Service", "brand:wikidata": "Q668687", "collection_times": "Mo-Sa 17:00", "name": "USPS COLLECTION BOX - BLUE BOX", "note": "ON 12/24 AND 12/31, THIS BOX MAY BE COLLECTED AS EARLY AS 12 NOON.", "nsi_id": "unitedstatespostalservice-a77078", "operator": "United States Postal Service", "operator:short": "USPS", "operator:type": "public", "operator:wikidata": "Q668687", "ref": "1690100014"}, "type": "Feature"}
{"dataset_attributes": {"@spider": "usps_collection_boxes"}, "geometry": {"coordinates": [-77.3017914, 41.74752], "type": "Point"}, "id": "Ylut-JY08oD_zmZuZsY5ZM4bjn0=", "properties": {"@spider": "usps_collection_boxes", "addr:city": "WELLSBORO", "addr:country": "US", "addr:full": "109 MAIN ST", "addr:postcode": "16901", "addr:state": "PA", "amenity": "post_box", "brand": "United States Postal Service", "brand:wikidata": "Q668687", "collection_times": "Mo-Fr 12:00; Sa 15:00", "name": "USPS COLLECTION BOX - BLUE BOX", "note": "ON 12/24 AND 12/31, THIS BOX MAY BE COLLECTED AS EARLY AS 12 NOON.", "nsi_id": "unitedstatespostalservice-a77078", "operator": "United States Postal Service", "operator:short": "USPS", "operator:type": "public", "operator:wikidata": "Q668687", "ref": "1690100015"}, "type": "Feature"}
{"dataset_attributes": {"@spider": "usps_collection_boxes"}, "geometry": {"coordinates": [-77.3011514, 41.749252], "type": "Point"}, "id": "bmGwKxv0-W3fF0QwFiK3XSrZGyU=", "properties": {"@spider": "usps_collection_boxes", "addr:city": "WELLSBORO", "addr:country": "US", "addr:full": "2 WALN ST", "addr:postcode": "16901", "addr:state": "PA", "amenity": "post_box", "brand": "United States Postal Service", "brand:wikidata": "Q668687", "collection_times": "Mo-Fr 12:00; Sa 15:00", "name": "USPS COLLECTION BOX - BLUE BOX", "note": "ON 12/24 AND 12/31, THIS BOX MAY BE COLLECTED AS EARLY AS 12 NOON.", "nsi_id": "unitedstatespostalservice-a77078", "operator": "United States Postal Service", "operator:short": "USPS", "operator:type": "public", "operator:wikidata": "Q668687", "ref": "1690100019"}, "type": "Feature"}
{"dataset_attributes": {"@spider": "usps_collection_boxes"}, "geometry": {"coordinates": [-77.2811418, 41.74465], "type": "Point"}, "id": "3qNuhC0GwRbX7mTgPKYL1sUpeMw=", "properties": {"@spider": "usps_collection_boxes", "addr:city": "WELLSBORO", "addr:country": "US", "addr:full": "38 PLAZA LN", "addr:postcode": "16901", "addr:state": "PA", "amenity": "post_box", "brand": "United States Postal Service", "brand:wikidata": "Q668687", "collection_times": "Mo-Fr 14:00; Sa 10:00", "name": "USPS COLLECTION BOX - BLUE BOX", "note": "ON 12/24 AND 12/31, THIS BOX MAY BE COLLECTED AS EARLY AS 12 NOON.", "nsi_id": "unitedstatespostalservice-a77078", "operator": "United States Postal Service", "operator:short": "USPS", "operator:type": "public", "operator:wikidata": "Q668687", "ref": "1690100023"}, "type": "Feature"}
{"dataset_attributes": {"@spider": "usps_collection_boxes"}, "geometry": {"coordinates": [-77.2673194, 41.743292], "type": "Point"}, "id": "fjA5rm8hTwzX5dcOrGDP4HAVIuU=", "properties": {"@spider": "usps_collection_boxes", "addr:city": "WELLSBORO", "addr:country": "US", "addr:full": "11798 ROUTE 6", "addr:postcode": "16901", "addr:state": "PA", "amenity": "post_box", "brand": "United States Postal Service", "brand:wikidata": "Q668687", "collection_times": "Mo-Sa 11:00", "name": "USPS COLLECTION BOX - BLUE BOX", "nsi_id": "unitedstatespostalservice-a77078", "operator": "United States Postal Service", "operator:short": "USPS", "operator:type": "public", "operator:wikidata": "Q668687", "ref": "1690100028"}, "type": "Feature"}
{"dataset_attributes": {"@spider": "usps_collection_boxes"}, "geometry": {"coordinates": [-77.299032, 41.749787], "type": "Point"}, "id": "UyQ_8P_Uo2HM1Zc4vVjWc1pE_2g=", "properties": {"@spider": "usps_collection_boxes", "addr:city": "WELLSBORO", "addr:country": "US", "addr:full": "14 MAIN ST", "addr:postcode": "16901", "addr:state": "PA", "amenity": "post_box", "brand": "United States Postal Service", "brand:wikidata": "Q668687", "collection_times": "Mo-Sa 17:00", "name": "USPS COLLECTION BOX - PO LOBBY", "note": "ON 12/24 AND 12/31, THIS BOX MAY BE COLLECTED AS EARLY AS 12 NOON.", "nsi_id": "unitedstatespostalservice-a77078", "operator": "United States Postal Service", "operator:short": "USPS", "operator:type": "public", "operator:wikidata": "Q668687", "ref": "1690100029"}, "type": "Feature"}
{"dataset_attributes": {"@spider": "usps_collection_boxes"}, "geometry": {"coordinates": [-77.299089927, 41.749771827], "type": "Point"}, "id": "d2ZODPEktwalAOpywdUebPXnnl0=", "properties": {"@spider": "usps_collection_boxes", "addr:city": "WELLSBORO", "addr:country": "US", "addr:full": "14 MAIN ST", "addr:postcode": "16901", "addr:state": "PA", "amenity": "post_box", "brand": "United States Postal Service", "brand:wikidata": "Q668687", "collection_times": "Mo-Fr 17:15; Sa 13:15", "name": "USPS COLLECTION BOX - PO LOBBY", "note": "ON 12/24 AND 12/31, THIS BOX MAY BE COLLECTED AS EARLY AS 12 NOON.", "nsi_id": "unitedstatespostalservice-a77078", "operator": "United States Postal Service", "operator:short": "USPS", "operator:type": "public", "operator:wikidata": "Q668687", "ref": "1690100037"}, "type": "Feature"}
{"dataset_attributes": {"@spider": "usps_collection_boxes"}, "geometry": {"coordinates": [-76.8303528, 41.705385], "type": "Point"}, "id": "j7V30fzO2dxWQAHhQt8TuXcJH8s=", "properties": {"@spider": "usps_collection_boxes", "addr:city": "TROY", "addr:country": "US", "addr:full": "107 SISTER ST", "addr:postcode": "16910", "addr:state": "PA", "amenity": "post_box", "brand": "United States Postal Service", "brand:wikidata": "Q668687", "collection_times": "Mo-Fr 12:45; Sa 11:45", "name": "USPS COLLECTION BOX - BLUE BOX", "note": "ON 12/24 AND 12/31, THIS BOX MAY BE COLLECTED AS EARLY AS 12 NOON.", "nsi_id": "unitedstatespostalservice-a77078", "operator": "United States Postal Service", "operator:short": "USPS", "operator:type": "public", "operator:wikidata": "Q668687", "ref": "1691000001"}, "type": "Feature"}
{"dataset_attributes": {"@spider": "usps_collection_boxes"}, "geometry": {"coordinates": [-77.122078, 41.662529], "type": "Point"}, "id": "ES2_awKdrNhIN0hs9ijZDLJw2tA=", "properties": {"@spider": "usps_collection_boxes", "addr:city": "ARNOT", "addr:country": "US", "addr:full": "834 ARNOT RD", "addr:postcode": "16911", "addr:state": "PA", "amenity": "post_box", "brand": "United States Postal Service", "brand:wikidata": "Q668687", "collection_times": "Mo-Fr 11:00; Sa 10:30", "name": "USPS COLLECTION BOX - BLUE BOX", "nsi_id": "unitedstatespostalservice-a77078", "operator": "United States Postal Service", "operator:short": "USPS", "operator:type": "public", "operator:wikidata": "Q668687", "ref": "1691100001"}, "type": "Feature"}
{"dataset_attributes": {"@spider": "usps_collection_boxes"}, "geometry": {"coordinates": [-77.122042, 41.662502], "type": "Point"}, "id": "SCCDfdzk4LnsnQ7Ctv9qhv46qlI=", "properties": {"@spider": "usps_collection_boxes", "addr:city": "ARNOT", "addr:country": "US", "addr:full": "834 ARNOT RD", "addr:postcode": "16911", "addr:state": "PA", "amenity": "post_box", "brand": "United States Postal Service", "brand:wikidata": "Q668687", "collection_times": "Mo-Fr 11:00; Sa 10:30", "name": "USPS COLLECTION BOX - PO LOBBY", "nsi_id": "unitedstatespostalservice-a77078", "operator": "United States Postal Service", "operator:short": "USPS", "operator:type": "public", "operator:wikidata": "Q668687", "ref": "1691100002"}, "type": "Feature"}
{"dataset_attributes": {"@spider": "usps_collection_boxes"}, "geometry": {"coordinates": [-77.122389913, 41.662531508], "type": "Point"}, "id": "KKBcMmKerWkEyJc2nzadUFvOF9o=", "properties": {"@spider": "usps_collection_boxes", "addr:city": "ARNOT", "addr:country": "US", "addr:full": "834 ARNOT RD", "addr:postcode": "16911", "addr:state": "PA", "amenity": "post_box", "brand": "United States Postal Service", "brand:wikidata": "Q668687", "collection_times": "Mo-Sa 11:00", "name": "USPS COLLECTION BOX - PO LOBBY", "nsi_id": "unitedstatespostalservice-a77078", "operator": "United States Postal Service", "operator:short": "USPS", "operator:type": "public", "operator:wikidata": "Q668687", "ref": "1691100004"}, "type": "Feature"}
{"dataset_attributes": {"@spider": "usps_collection_boxes"}, "geometry": {"coordinates": [-77.065911, 41.678793], "type": "Point"}, "id": "qXCDMppT3IJQsizNjt0elrVrKco=", "properties": {"@spider": "usps_collection_boxes", "addr:city": "BLOSSBURG", "addr:country": "US", "addr:full": "3 RIVERSIDE PL", "addr:postcode": "16912", "addr:state": "PA", "amenity": "post_box", "brand": "United States Postal Service", "brand:wikidata": "Q668687", "collection_times": "Mo-Fr 15:45; Sa 11:00", "name": "USPS COLLECTION BOX - BLUE BOX", "note": "ON 12/24 AND 12/31, THIS BOX MAY BE COLLECTED AS EARLY AS 12 NOON.", "nsi_id": "unitedstatespostalservice-a77078", "operator": "United States Postal Service", "operator:short": "USPS", "operator:type": "public", "operator:wikidata": "Q668687", "ref": "1691200006"}, "type": "Feature"}
{"dataset_attributes": {"@spider": "usps_collection_boxes"}, "geometry": {"coordinates": [-77.065864, 41.678679], "type": "Point"}, "id": "eYbtkXWIYMIqU3x-9rq9YTmd5s4=", "properties": {"@spider": "usps_collection_boxes", "addr:city": "BLOSSBURG", "addr:country": "US", "addr:full": "3 RIVERSIDE PL", "addr:postcode": "16912", "addr:state": "PA", "amenity": "post_box", "brand": "United States Postal Service", "brand:wikidata": "Q668687", "collection_times": "Mo-Fr 15:45; Sa 11:00", "name": "USPS COLLECTION BOX - PO LOBBY", "note": "ON 12/24 AND 12/31, THIS BOX MAY BE COLLECTED AS EARLY AS 12 NOON.", "nsi_id": "unitedstatespostalservice-a77078", "operator": "United States Postal Service", "operator:short": "USPS", "operator:type": "public", "operator:wikidata": "Q668687", "ref": "1691200007"}, "type": "Feature"}
{"dataset_attributes": {"@spider": "usps_collection_boxes"}, "geometry": {"coordinates": [-77.065134434, 41.67960671], "type": "Point"}, "id": "nMcLsvNT7AgH71x0aLx-j29dZKY=", "properties": {"@spider": "usps_collection_boxes", "addr:city": "BLOSSBURG", "addr:country": "US", "addr:full": "3 RIVERSIDE PLZ", "addr:postcode": "16912", "addr:state": "PA", "amenity": "post_box", "brand": "United States Postal Service", "brand:wikidata": "Q668687", "collection_times": "Mo-Fr 16:00; Sa 11:00", "name": "USPS COLLECTION BOX - PO LOBBY", "note": "ON 12/24 AND 12/31, THIS BOX MAY BE COLLECTED AS EARLY AS 12 NOON.", "nsi_id": "unitedstatespostalservice-a77078", "operator": "United States Postal Service", "operator:short": "USPS", "operator:type": "public", "operator:wikidata": "Q668687", "ref": "1691200010"}, "type": "Feature"}
{"dataset_attributes": {"@spider": "usps_collection_boxes"}, "geometry": {"coordinates": [-76.80288, 41.835681], "type": "Point"}, "id": "ZGwIpOPBPBSCMV6qeM3znVYIyyc=", "properties": {"@spider": "usps_collection_boxes", "addr:city": "COLUMBIA X RDS", "addr:country": "US", "addr:full": "6921 AUSTINVILLE RD", "addr:postcode": "16914", "addr:state": "PA", "amenity": "post_box", "brand": "United States Postal Service", "brand:wikidata": "Q668687", "collection_times": "Mo-Fr 16:15; Sa 11:45", "name": "USPS COLLECTION BOX - BLUE BOX", "note": "ON 12/24 AND 12/31, THIS BOX MAY BE COLLECTED AS EARLY AS 12 NOON.", "nsi_id": "unitedstatespostalservice-a77078", "operator": "United States Postal Service", "operator:short": "USPS", "operator:type": "public", "operator:wikidata": "Q668687", "ref": "1691400001"}, "type": "Feature"}
{"dataset_attributes": {"@spider": "usps_collection_boxes"}, "geometry": {"coordinates": [-76.80283, 41.835682], "type": "Point"}, "id": "kPu1vp9iy4NCxZ1crLLLXtrGobs=", "properties": {"@spider": "usps_collection_boxes", "addr:city": "COLUMBIA X RDS", "addr:country": "US", "addr:full": "6921 AUSTINVILLE RD", "addr:postcode": "16914", "addr:state": "PA", "amenity": "post_box", "brand": "United States Postal Service", "brand:wikidata": "Q668687", "collection_times": "Mo-Fr 16:15; Sa 11:45", "name": "USPS COLLECTION BOX - PO LOBBY", "note": "ON 12/24 AND 12/31, THIS BOX MAY BE COLLECTED AS EARLY AS 12 NOON.", "nsi_id": "unitedstatespostalservice-a77078", "operator": "United States Postal Service", "operator:short": "USPS", "operator:type": "public", "operator:wikidata": "Q668687", "ref": "1691400002"}, "type": "Feature"}
{"dataset_attributes": {"@spider": "usps_collection_boxes"}, "geometry": {"coordinates": [-76.802892609, 41.835713006], "type": "Point"}, "id": "Dx5wAkNU27UXdb5c84UWNEjuEw0=", "properties": {"@spider": "usps_collection_boxes", "addr:city": "COLUMBIA X RDS", "addr:country": "US", "addr:full": "6921 AUSTINVILLE RD", "addr:postcode": "16914", "addr:state": "PA", "amenity": "post_box", "brand": "United States Postal Service", "brand:wikidata": "Q668687", "collection_times": "Mo-Fr 16:30; Sa 11:30", "name": "USPS COLLECTION BOX - PO LOBBY", "note": "ON 12/24 AND 12/31, THIS BOX MAY BE COLLECTED AS EARLY AS 12 NOON.", "nsi_id": "unitedstatespostalservice-a77078", "operator": "United States Postal Service", "operator:short": "USPS", "operator:type": "public", "operator:wikidata": "Q668687", "ref": "1691400004"}, "type": "Feature"}
{"dataset_attributes": {"@spider": "usps_collection_boxes"}, "geometry": {"coordinates": [-78.021219, 41.775728], "type": "Point"}, "id": "K6AVupIY8UCsloOJ1aIWsnx0wBk=", "properties": {"@spider": "usps_collection_boxes", "addr:city": "COUDERSPORT", "addr:country": "US", "addr:full": "301 N MAIN ST", "addr:postcode": "16915", "addr:state": "PA", "amenity": "post_box", "brand": "United States Postal Service", "brand:wikidata": "Q668687", "collection_times": "Mo-Fr 16:00; Sa 15:00", "name": "USPS COLLECTION BOX - BLUE BOX", "note": "ON 12/24 AND 12/31, THIS BOX MAY BE COLLECTED AS EARLY AS 12 NOON.", "nsi_id": "unitedstatespostalservice-a77078", "operator": "United States Postal Service", "operator:short": "USPS", "operator:type": "public", "operator:wikidata": "Q668687", "ref": "1691500007"}, "type": "Feature"}
{"dataset_attributes": {"@spider": "usps_collection_boxes"}, "geometry": {"coordinates": [-78.021219, 41.775728], "type": "Point"}, "id": "Mqt4eKLWkM9oKxz4RgCVndvKyoQ=", "properties": {"@spider": "usps_collection_boxes", "addr:city": "COUDERSPORT", "addr:country": "US", "addr:full": "301 N MAIN ST", "addr:postcode": "16915", "addr:state": "PA", "amenity": "post_box", "brand": "United States Postal Service", "brand:wikidata": "Q668687", "collection_times": "Mo-Fr 16:00; Sa 15:00", "name": "USPS COLLECTION BOX - BLUE BOX", "note": "ON 12/24 AND 12/31, THIS BOX MAY BE COLLECTED AS EARLY AS 12 NOON.", "nsi_id": "unitedstatespostalservice-a77078", "operator": "United States Postal Service", "operator:short": "USPS", "operator:type": "public", "operator:wikidata": "Q668687", "ref": "1691500008"}, "type": "Feature"}
{"dataset_attributes": {"@spider": "usps_collection_boxes"}, "geometry": {"coordinates": [-77.9888276, 41.770818], "type": "Point"}, "id": "DZlMBPFhYxAW5qbwp5R4CnOkPPM=", "properties": {"@spider": "usps_collection_boxes", "addr:city": "COUDERSPORT", "addr:country": "US", "addr:full": "79 MAPLE VIEW LN", "addr:postcode": "16915", "addr:state": "PA", "amenity": "post_box", "brand": "United States Postal Service", "brand:wikidata": "Q668687", "collection_times": "Mo-Sa 11:30", "name": "USPS COLLECTION BOX - BLUE BOX", "nsi_id": "unitedstatespostalservice-a77078", "operator": "United States Postal Service", "operator:short": "USPS", "operator:type": "public", "operator:wikidata": "Q668687", "ref": "1691500011"}, "type": "Feature"}
{"dataset_attributes": {"@spider": "usps_collection_boxes"}, "geometry": {"coordinates": [-78.0210199, 41.774348], "type": "Point"}, "id": "IahsiM2KZnIL_2krpv4chRdrb8I=", "properties": {"@spider": "usps_collection_boxes", "addr:city": "COUDERSPORT", "addr:country": "US", "addr:full": "2 E SECOND ST", "addr:postcode": "16915", "addr:state": "PA", "amenity": "post_box", "brand": "United States Postal Service", "brand:wikidata": "Q668687", "collection_times": "Mo-Sa 15:00", "name": "USPS COLLECTION BOX - BLUE BOX", "note": "ON 12/24 AND 12/31, THIS BOX MAY BE COLLECTED AS EARLY AS 12 NOON.", "nsi_id": "unitedstatespostalservice-a77078", "operator": "United States Postal Service", "operator:short": "USPS", "operator:type": "public", "operator:wikidata": "Q668687", "ref": "1691500013"}, "type": "Feature"}
{"dataset_attributes": {"@spider": "usps_collection_boxes"}, "geometry": {"coordinates": [-78.021219, 41.775728], "type": "Point"}, "id": "WJfRrw6_kKjvDV5grEESPN8o93Y=", "properties": {"@spider": "usps_collection_boxes", "addr:city": "COUDERSPORT", "addr:country": "US", "addr:full": "301 N MAIN ST", "addr:postcode": "16915", "addr:state": "PA", "amenity": "post_box", "brand": "United States Postal Service", "brand:wikidata": "Q668687", "collection_times": "Mo-Fr 17:00; Sa 15:00", "name": "USPS COLLECTION BOX - PO LOBBY", "note": "ON 12/24 AND 12/31, THIS BOX MAY BE COLLECTED AS EARLY AS 12 NOON.", "nsi_id": "unitedstatespostalservice-a77078", "operator": "United States Postal Service", "operator:short": "USPS", "operator:type": "public", "operator:wikidata": "Q668687", "ref": "1691500016"}, "type": "Feature"}
{"dataset_attributes": {"@spider": "usps_collection_boxes"}, "geometry": {"coordinates": [-78.020937564, 41.775742655], "type": "Point"}, "id": "R_GSh6rsa2FKRFuDsbPfWGXPSug=", "properties": {"@spider": "usps_collection_boxes", "addr:city": "COUDERSPORT", "addr:country": "US", "addr:full": "301 N MAIN ST", "addr:postcode": "16915", "addr:state": "PA", "amenity": "post_box", "brand": "United States Postal Service", "brand:wikidata": "Q668687", "collection_times": "Mo-Fr 16:35; Sa 12:05", "name": "USPS COLLECTION BOX - PO LOBBY", "note": "ON 12/24 AND 12/31, THIS BOX MAY BE COLLECTED AS EARLY AS 12 NOON.", "nsi_id": "unitedstatespostalservice-a77078", "operator": "United States Postal Service", "operator:short": "USPS", "operator:type": "public", "operator:wikidata": "Q668687", "ref": "1691500018"}, "type": "Feature"}
{"dataset_attributes": {"@spider": "usps_collection_boxes"}, "geometry": {"coordinates": [-77.077454, 41.744244], "type": "Point"}, "id": "ud3s0pKHH-Ip05qZgfLgeqvTYqc=", "properties": {"@spider": "usps_collection_boxes", "addr:city": "COVINGTON", "addr:country": "US", "addr:full": "2220 N WILLIAMSON RD", "addr:postcode": "16917", "addr:state": "PA", "amenity": "post_box", "brand": "United States Postal Service", "brand:wikidata": "Q668687", "collection_times": "Mo-Fr 16:00; Sa 11:30", "name": "USPS COLLECTION BOX - BLUE BOX", "note": "ON 12/24 AND 12/31, THIS BOX MAY BE COLLECTED AS EARLY AS 12 NOON.", "nsi_id": "unitedstatespostalservice-a77078", "operator": "United States Postal Service", "operator:short": "USPS", "operator:type": "public", "operator:wikidata": "Q668687", "ref": "1691700001"}, "type": "Feature"}
{"dataset_attributes": {"@spider": "usps_collection_boxes"}, "geometry": {"coordinates": [-77.077493, 41.744263], "type": "Point"}, "id": "_6YTp1T1vzjlC97yaFTwjNvYnKY=", "properties": {"@spider": "usps_collection_boxes", "addr:city": "COVINGTON", "addr:country": "US", "addr:full": "2220 N WILLIAMSON RD", "addr:postcode": "16917", "addr:state": "PA", "amenity": "post_box", "brand": "United States Postal Service", "brand:wikidata": "Q668687", "collection_times": "Mo-Fr 16:00; Sa 11:30", "name": "USPS COLLECTION BOX - PO LOBBY", "note": "ON 12/24 AND 12/31, THIS BOX MAY BE COLLECTED AS EARLY AS 12 NOON.", "nsi_id": "unitedstatespostalservice-a77078", "operator": "United States Postal Service", "operator:short": "USPS", "operator:type": "public", "operator:wikidata": "Q668687", "ref": "1691700002"}, "type": "Feature"}
{"dataset_attributes": {"@spider": "usps_collection_boxes"}, "geometry": {"coordinates": [-77.077453917, 41.744242467], "type": "Point"}, "id": "_rMZ4e7N5cElGPxJ702_6veoXVQ=", "properties": {"@spider": "usps_collection_boxes", "addr:city": "COVINGTON", "addr:country": "US", "addr:full": "2220 N WILLIAMSON RD", "addr:postcode": "16917", "addr:state": "PA", "amenity": "post_box", "brand": "United States Postal Service", "brand:wikidata": "Q668687", "collection_times": "Mo-Fr 16:30; Sa 11:30", "name": "USPS COLLECTION BOX - PO LOBBY", "note": "ON 12/24 AND 12/31, THIS BOX MAY BE COLLECTED AS EARLY AS 12 NOON.", "nsi_id": "unitedstatespostalservice-a77078", "operator": "United States Postal Service", "operator:short": "USPS", "operator:type": "public", "operator:wikidata": "Q668687", "ref": "1691700004"}, "type": "Feature"}
{"dataset_attributes": {"@spider": "usps_collection_boxes"}, "geometry": {"coordinates": [-77.313279974, 41.9862180026], "type": "Point"}, "id": "DrP8S6HcUeCjYQ1y7ij8faeU3oI=", "properties": {"@spider": "usps_collection_boxes", "addr:city": "ELKLAND", "addr:country": "US", "addr:full": "116 W MAIN ST", "addr:postcode": "16920", "addr:state": "PA", "amenity": "post_box", "brand": "United States Postal Service", "brand:wikidata": "Q668687", "collection_times": "Mo-Fr 15:30; Sa 12:00", "name": "USPS COLLECTION BOX - BLUE BOX", "note": "ON 12/24 AND 12/31, THIS BOX MAY BE COLLECTED AS EARLY AS 12 NOON.", "nsi_id": "unitedstatespostalservice-a77078", "operator": "United States Postal Service", "operator:short": "USPS", "operator:type": "public", "operator:wikidata": "Q668687", "ref": "1692000002"}, "type": "Feature"}
{"dataset_attributes": {"@spider": "usps_collection_boxes"}, "geometry": {"coordinates": [-77.3121027, 41.98557], "type": "Point"}, "id": "-PwG6fGNqYUGe0PBNyu9CJ_0pLs=", "properties": {"@spider": "usps_collection_boxes", "addr:city": "ELKLAND", "addr:country": "US", "addr:full": "104 S BUFFALO ST", "addr:postcode": "16920", "addr:state": "PA", "amenity": "post_box", "brand": "United States Postal Service", "brand:wikidata": "Q668687", "collection_times": "Mo-Fr 16:00; Sa 12:00", "name": "USPS COLLECTION BOX - BLUE BOX", "note": "ON 12/24 AND 12/31, THIS BOX MAY BE COLLECTED AS EARLY AS 12 NOON.", "nsi_id": "unitedstatespostalservice-a77078", "operator": "United States Postal Service", "operator:short": "USPS", "operator:type": "public", "operator:wikidata": "Q668687", "ref": "1692000004"}, "type": "Feature"}
{"dataset_attributes": {"@spider": "usps_collection_boxes"}, "geometry": {"coordinates": [-77.3120088, 41.985579], "type": "Point"}, "id": "TW4jIveEB6jgD8kTIpe8vlmuABU=", "properties": {"@spider": "usps_collection_boxes", "addr:city": "ELKLAND", "addr:country": "US", "addr:full": "104 S BUFFALO ST", "addr:postcode": "16920", "addr:state": "PA", "amenity": "post_box", "brand": "United States Postal Service", "brand:wikidata": "Q668687", "collection_times": "Mo-Fr 16:00; Sa 12:00", "name": "USPS COLLECTION BOX - PO LOBBY", "note": "ON 12/24 AND 12/31, THIS BOX MAY BE COLLECTED AS EARLY AS 12 NOON.", "nsi_id": "unitedstatespostalservice-a77078", "operator": "United States Postal Service", "operator:short": "USPS", "operator:type": "public", "operator:wikidata": "Q668687", "ref": "1692000005"}, "type": "Feature"}
{"dataset_attributes": {"@spider": "usps_collection_boxes"}, "geometry": {"coordinates": [-77.312138712, 41.985584319], "type": "Point"}, "id": "IraSezUU07rY9CyCauL2j2ncbgI=", "properties": {"@spider": "usps_collection_boxes", "addr:city": "ELKLAND", "addr:country": "US", "addr:full": "104 S BUFFALO ST", "addr:postcode": "16920", "addr:state": "PA", "amenity": "post_box", "brand": "United States Postal Service", "brand:wikidata": "Q668687", "collection_times": "Mo-Fr 16:30; Sa 12:00", "name": "USPS COLLECTION BOX - PO LOBBY", "note": "ON 12/24 AND 12/31, THIS BOX MAY BE COLLECTED AS EARLY AS 12 NOON.", "nsi_id": "unitedstatespostalservice-a77078", "operator": "United States Postal Service", "operator:short": "USPS", "operator:type": "public", "operator:wikidata": "Q668687", "ref": "1692000007"}, "type": "Feature"}
{"dataset_attributes": {"@spider": "usps_collection_boxes"}, "geometry": {"coordinates": [-77.556087, 41.751364], "type": "Point"}, "id": "my0KGmukx7155L2XCXYNJxELwcs=", "properties": {"@spider": "usps_collection_boxes", "addr:city": "GAINES", "addr:country": "US", "addr:full": "1977 ROUTE 6", "addr:postcode": "16921", "addr:state": "PA", "amenity": "post_box", "brand": "United States Postal Service", "brand:wikidata": "Q668687", "collection_times": "Mo-Fr 16:00; Sa 11:45", "name": "USPS COLLECTION BOX - BLUE BOX", "note": "ON 12/24 AND 12/31, THIS BOX MAY BE COLLECTED AS EARLY AS 12 NOON.", "nsi_id": "unitedstatespostalservice-a77078", "operator": "United States Postal Service", "operator:short": "USPS", "operator:type": "public", "operator:wikidata": "Q668687", "ref": "1692100001"}, "type": "Feature"}
{"dataset_attributes": {"@spider": "usps_collection_boxes"}, "geometry": {"coordinates": [-77.556078, 41.751331], "type": "Point"}, "id": "d1nqUMMaB3soNdahQTwvkQ59QXI=", "properties": {"@spider": "usps_collection_boxes", "addr:city": "GAINES", "addr:country": "US", "addr:full": "1977 ROUTE 6", "addr:postcode": "16921", "addr:state": "PA", "amenity": "post_box", "brand": "United States Postal Service", "brand:wikidata": "Q668687", "collection_times": "Mo-Fr 16:00; Sa 11:45", "name": "USPS COLLECTION BOX - PO LOBBY", "note": "ON 12/24 AND 12/31, THIS BOX MAY BE COLLECTED AS EARLY AS 12 NOON.", "nsi_id": "unitedstatespostalservice-a77078", "operator": "United States Postal Service", "operator:short": "USPS", "operator:type": "public", "operator:wikidata": "Q668687", "ref": "1692100002"}, "type": "Feature"}
{"dataset_attributes": {"@spider": "usps_collection_boxes"}, "geometry": {"coordinates": [-77.55613286, 41.751368611], "type": "Point"}, "id": "hifLu4L8ZlXAGt7PhiHLKwr2FHg=", "properties": {"@spider": "usps_collection_boxes", "addr:city": "GAINES", "addr:country": "US", "addr:full": "1977 ROUTE 6", "addr:postcode": "16921", "addr:state": "PA", "amenity": "post_box", "brand": "United States Postal Service", "brand:wikidata": "Q668687", "collection_times": "Mo-Fr 16:00; Sa 11:30", "name": "USPS COLLECTION BOX - PO LOBBY", "note": "ON 12/24 AND 12/31, THIS BOX MAY BE COLLECTED AS EARLY AS 12 NOON.", "nsi_id": "unitedstatespostalservice-a77078", "operator": "United States Postal Service", "operator:short": "USPS", "operator:type": "public", "operator:wikidata": "Q668687", "ref": "1692100004"}, "type": "Feature"}
{"dataset_attributes": {"@spider": "usps_collection_boxes"}, "geometry": {"coordinates": [-77.6482305, 41.735238], "type": "Point"}, "id": "JuXSR8_vCEF9_0ym4BUY4pSI8Hw=", "properties": {"@spider": "usps_collection_boxes", "addr:city": "GALETON", "addr:country": "US", "addr:full": "5 WEST ST", "addr:postcode": "16922", "addr:state": "PA", "amenity": "post_box", "brand": "United States Postal Service", "brand:wikidata": "Q668687", "collection_times": "Mo-Sa 09:15", "name": "USPS COLLECTION BOX - BLUE BOX", "nsi_id": "unitedstatespostalservice-a77078", "operator": "United States Postal Service", "operator:short": "USPS", "operator:type": "public", "operator:wikidata": "Q668687", "ref": "1692200001"}, "type": "Feature"}
{"dataset_attributes": {"@spider": "usps_collection_boxes"}, "geometry": {"coordinates": [-77.6502745, 41.734516], "type": "Point"}, "id": "EiL5RGvdQBWQ-V0SrUOIwLwrBf0=", "properties": {"@spider": "usps_collection_boxes", "addr:city": "GALETON", "addr:country": "US", "addr:full": "28 WEST ST", "addr:postcode": "16922", "addr:state": "PA", "amenity": "post_box", "brand": "United States Postal Service", "brand:wikidata": "Q668687", "collection_times": "Mo-Sa 09:45", "name": "USPS COLLECTION BOX - BLUE BOX", "nsi_id": "unitedstatespostalservice-a77078", "operator": "United States Postal Service", "operator:short": "USPS", "operator:type": "public", "operator:wikidata": "Q668687", "ref": "1692200004"}, "type": "Feature"}
{"dataset_attributes": {"@spider": "usps_collection_boxes"}, "geometry": {"coordinates": [-77.6509579, 41.730145], "type": "Point"}, "id": "Zx8Yo7qhqYYctpa6X9HJArVa6-I=", "properties": {"@spider": "usps_collection_boxes", "addr:city": "GALETON", "addr:country": "US", "addr:full": "9 PENN AVE", "addr:postcode": "16922", "addr:state": "PA", "amenity": "post_box", "brand": "United States Postal Service", "brand:wikidata": "Q668687", "collection_times": "Mo-Sa 11:15", "name": "USPS COLLECTION BOX - BLUE BOX", "nsi_id": "unitedstatespostalservice-a77078", "operator": "United States Postal Service", "operator:short": "USPS", "operator:type": "public", "operator:wikidata": "Q668687", "ref": "1692200005"}, "type": "Feature"}
{"dataset_attributes": {"@spider": "usps_collection_boxes"}, "geometry": {"coordinates": [-77.642384, 41.73453], "type": "Point"}, "id": "A5YIx4adsniVVOPaArR4IS2A7g4=", "properties": {"@spider": "usps_collection_boxes", "addr:city": "GALETON", "addr:country": "US", "addr:full": "28 BRIDGE ST", "addr:postcode": "16922", "addr:state": "PA", "amenity": "post_box", "brand": "United States Postal Service", "brand:wikidata": "Q668687", "collection_times": "Mo-Fr 16:00; Sa 12:00", "name": "USPS COLLECTION BOX - BLUE BOX", "note": "ON 12/24 AND 12/31, THIS BOX MAY BE COLLECTED AS EARLY AS 12 NOON.", "nsi_id": "unitedstatespostalservice-a77078", "operator": "United States Postal Service", "operator:short": "USPS", "operator:type": "public", "operator:wikidata": "Q668687", "ref": "1692200006"}, "type": "Feature"}
{"dataset_attributes": {"@spider": "usps_collection_boxes"}, "geometry": {"coordinates": [-77.642363, 41.734578], "type": "Point"}, "id": "iHFXjFWi1C3kvP7Jc4sqCY9QZ6w=", "properties": {"@spider": "usps_collection_boxes", "addr:city": "GALETON", "addr:country": "US", "addr:full": "28 BRIDGE ST", "addr:postcode": "16922", "addr:state": "PA", "amenity": "post_box", "brand": "United States Postal Service", "brand:wikidata": "Q668687", "collection_times": "Mo-Fr 16:00; Sa 12:00", "name": "USPS COLLECTION BOX - PO LOBBY", "note": "ON 12/24 AND 12/31, THIS BOX MAY BE COLLECTED AS EARLY AS 12 NOON.", "nsi_id": "unitedstatespostalservice-a77078", "operator": "United States Postal Service", "operator:short": "USPS", "operator:type": "public", "operator:wikidata": "Q668687", "ref": "1692200011"}, "type": "Feature"}
{"dataset_attributes": {"@spider": "usps_collection_boxes"}, "geometry": {"coordinates": [-77.642353423, 41.734416447], "type": "Point"}, "id": "a5YS3JyBbiS_FD7CwO30-sYmcKg=", "properties": {"@spider": "usps_collection_boxes", "addr:city": "GALETON", "addr:country": "US", "addr:full": "28 BRIDGE ST", "addr:postcode": "16922", "addr:state": "PA", "amenity": "post_box", "brand": "United States Postal Service", "brand:wikidata": "Q668687", "collection_times": "Mo-Fr 16:35; Sa 12:05", "name": "USPS COLLECTION BOX - PO LOBBY", "note": "ON 12/24 AND 12/31, THIS BOX MAY BE COLLECTED AS EARLY AS 12 NOON.", "nsi_id": "unitedstatespostalservice-a77078", "operator": "United States Postal Service", "operator:short": "USPS", "operator:type": "public", "operator:wikidata": "Q668687", "ref": "1692200013"}, "type": "Feature"}
{"dataset_attributes": {"@spider": "usps_collection_boxes"}, "geometry": {"coordinates": [-76.794536, 41.953014], "type": "Point"}, "id": "zdM1GB_JE1pzylN6VBKLpTNVSmY=", "properties": {"@spider": "usps_collection_boxes", "addr:city": "GILLETT", "addr:country": "US", "addr:full": "33165 ROUTE 14", "addr:postcode": "16925", "addr:state": "PA", "amenity": "post_box", "brand": "United States Postal Service", "brand:wikidata": "Q668687", "collection_times": "Mo-Fr 16:00; Sa 11:45", "name": "USPS COLLECTION BOX - BLUE BOX", "note": "ON 12/24 AND 12/31, THIS BOX MAY BE COLLECTED AS EARLY AS 12 NOON.", "nsi_id": "unitedstatespostalservice-a77078", "operator": "United States Postal Service", "operator:short": "USPS", "operator:type": "public", "operator:wikidata": "Q668687", "ref": "1692500001"}, "type": "Feature"}
{"dataset_attributes": {"@spider": "usps_collection_boxes"}, "geometry": {"coordinates": [-76.7945, 41.953009], "type": "Point"}, "id": "xjtSIweelso1NfC3a-w1oP2dlIM=", "properties": {"@spider": "usps_collection_boxes", "addr:city": "GILLETT", "addr:country": "US", "addr:full": "33165 ROUTE 14", "addr:postcode": "16925", "addr:state": "PA", "amenity": "post_box", "brand": "United States Postal Service", "brand:wikidata": "Q668687", "collection_times": "Mo-Fr 16:00; Sa 11:45", "name": "USPS COLLECTION BOX - PO LOBBY", "note": "ON 12/24 AND 12/31, THIS BOX MAY BE COLLECTED AS EARLY AS 12 NOON.", "nsi_id": "unitedstatespostalservice-a77078", "operator": "United States Postal Service", "operator:short": "USPS", "operator:type": "public", "operator:wikidata": "Q668687", "ref": "1692500003"}, "type": "Feature"}
{"dataset_attributes": {"@spider": "usps_collection_boxes"}, "geometry": {"coordinates": [-76.794561136, 41.953010096], "type": "Point"}, "id": "ejBCLUQ-zNVvcGl4oRxEhrsiMNE=", "properties": {"@spider": "usps_collection_boxes", "addr:city": "GILLETT", "addr:country": "US", "addr:full": "33165 ROUTE 14", "addr:postcode": "16925", "addr:state": "PA", "amenity": "post_box", "brand": "United States Postal Service", "brand:wikidata": "Q668687", "collection_times": "Mo-Fr 16:00; Sa 11:45", "name": "USPS COLLECTION BOX - PO LOBBY", "note": "ON 12/24 AND 12/31, THIS BOX MAY BE COLLECTED AS EARLY AS 12 NOON.", "nsi_id": "unitedstatespostalservice-a77078", "operator": "United States Postal Service", "operator:short": "USPS", "operator:type": "public", "operator:wikidata": "Q668687", "ref": "1692500005"}, "type": "Feature"}
{"dataset_attributes": {"@spider": "usps_collection_boxes"}, "geometry": {"coordinates": [-76.7704184, 41.720012], "type": "Point"}, "id": "a3bo5-sGUDJ34laCm8mVLZxfnX0=", "properties": {"@spider": "usps_collection_boxes", "addr:city": "GRANVILLE SUMMIT", "addr:country": "US", "addr:full": "543 HIGH BRIDGE RD", "addr:postcode": "16926", "addr:state": "PA", "amenity": "post_box", "brand": "United States Postal Service", "brand:wikidata": "Q668687", "collection_times": "Mo-Fr 13:30; Sa 11:00", "name": "USPS COLLECTION BOX - BLUE BOX", "note": "ON 12/24 AND 12/31, THIS BOX MAY BE COLLECTED AS EARLY AS 12 NOON.", "nsi_id": "unitedstatespostalservice-a77078", "operator": "United States Postal Service", "operator:short": "USPS", "operator:type": "public", "operator:wikidata": "Q668687", "ref": "1692600001"}, "type": "Feature"}
{"dataset_attributes": {"@spider": "usps_collection_boxes"}, "geometry": {"coordinates": [-76.771324, 41.719787], "type": "Point"}, "id": "KRSsHHKOrzgcu8b84Xu0YJs2dPU=", "properties": {"@spider": "usps_collection_boxes", "addr:city": "GRANVILLE SUMMIT", "addr:country": "US", "addr:full": "543 HIGH BRIDGE RD", "addr:postcode": "16926", "addr:state": "PA", "amenity": "post_box", "brand": "United States Postal Service", "brand:wikidata": "Q668687", "collection_times": "Mo-Fr 12:15; Sa 11:00", "name": "USPS COLLECTION BOX - PO LOBBY", "note": "ON 12/24 AND 12/31, THIS BOX MAY BE COLLECTED AS EARLY AS 12 NOON.", "nsi_id": "unitedstatespostalservice-a77078", "operator": "United States Postal Service", "operator:short": "USPS", "operator:type": "public", "operator:wikidata": "Q668687", "ref": "1692600002"}, "type": "Feature"}
{"dataset_attributes": {"@spider": "usps_collection_boxes"}, "geometry": {"coordinates": [-76.771390953, 41.719864562], "type": "Point"}, "id": "Xs0i99mxKL6yI4vqLgZDiX3E85Y=", "properties": {"@spider": "usps_collection_boxes", "addr:city": "GRANVILLE SUMMIT", "addr:country": "US", "addr:full": "543 HIGH BRIDGE RD", "addr:postcode": "16926", "addr:state": "PA", "amenity": "post_box", "brand": "United States Postal Service", "brand:wikidata": "Q668687", "collection_times": "Mo-Fr 12:15; Sa 11:15", "name": "USPS COLLECTION BOX - PO LOBBY", "note": "ON 12/24 AND 12/31, THIS BOX MAY BE COLLECTED AS EARLY AS 12 NOON.", "nsi_id": "unitedstatespostalservice-a77078", "operator": "United States Postal Service", "operator:short": "USPS", "operator:type": "public", "operator:wikidata": "Q668687", "ref": "1692600004"}, "type": "Feature"}
{"dataset_attributes": {"@spider": "usps_collection_boxes"}, "geometry": {"coordinates": [-77.439484, 41.957185], "type": "Point"}, "id": "LICbMNFSzJ_G9jodQpXTKV0L1gU=", "properties": {"@spider": "usps_collection_boxes", "addr:city": "KNOXVILLE", "addr:country": "US", "addr:full": "105 E MAIN ST", "addr:postcode": "16928", "addr:state": "PA", "amenity": "post_box", "brand": "United States Postal Service", "brand:wikidata": "Q668687", "collection_times": "Mo-Fr 16:00; Sa 11:00", "name": "USPS COLLECTION BOX - BLUE BOX", "note": "ON 12/24 AND 12/31, THIS BOX MAY BE COLLECTED AS EARLY AS 12 NOON.", "nsi_id": "unitedstatespostalservice-a77078", "operator": "United States Postal Service", "operator:short": "USPS", "operator:type": "public", "operator:wikidata": "Q668687", "ref": "1692800001"}, "type": "Feature"}
{"dataset_attributes": {"@spider": "usps_collection_boxes"}, "geometry": {"coordinates": [-77.4396, 41.957183], "type": "Point"}, "id": "sp8rZYm4a8bAqeEsZDl9LUdN4K8=", "properties": {"@spider": "usps_collection_boxes", "addr:city": "KNOXVILLE", "addr:country": "US", "addr:full": "105 E MAIN ST", "addr:postcode": "16928", "addr:state": "PA", "amenity": "post_box", "brand": "United States Postal Service", "brand:wikidata": "Q668687", "collection_times": "Mo-Fr 16:00; Sa 11:00", "name": "USPS COLLECTION BOX - PO LOBBY", "note": "ON 12/24 AND 12/31, THIS BOX MAY BE COLLECTED AS EARLY AS 12 NOON.", "nsi_id": "unitedstatespostalservice-a77078", "operator": "United States Postal Service", "operator:short": "USPS", "operator:type": "public", "operator:wikidata": "Q668687", "ref": "1692800002"}, "type": "Feature"}
{"dataset_attributes": {"@spider": "usps_collection_boxes"}, "geometry": {"coordinates": [-77.439535403, 41.957197081], "type": "Point"}, "id": "j7QpxMAES4BAo5p4Qvr2KV7RsCk=", "properties": {"@spider": "usps_collection_boxes", "addr:city": "KNOXVILLE", "addr:country": "US", "addr:full": "105 E MAIN ST", "addr:postcode": "16928", "addr:state": "PA", "amenity": "post_box", "brand": "United States Postal Service", "brand:wikidata": "Q668687", "collection_times": "Mo-Fr 16:00; Sa 11:00", "name": "USPS COLLECTION BOX - PO LOBBY", "note": "ON 12/24 AND 12/31, THIS BOX MAY BE COLLECTED AS EARLY AS 12 NOON.", "nsi_id": "unitedstatespostalservice-a77078", "operator": "United States Postal Service", "operator:short": "USPS", "operator:type": "public", "operator:wikidata": "Q668687", "ref": "1692800004"}, "type": "Feature"}
{"dataset_attributes": {"@spider": "usps_collection_boxes"}, "geometry": {"coordinates": [-77.1267039, 41.998298], "type": "Point"}, "id": "u1k72QTCMrT_MChUOZu0B_EPLsQ=", "properties": {"@spider": "usps_collection_boxes", "addr:city": "LAWRENCEVILLE", "addr:country": "US", "addr:full": "60 MAIN ST", "addr:postcode": "16929", "addr:state": "PA", "amenity": "post_box", "brand": "United States Postal Service", "brand:wikidata": "Q668687", "collection_times": "Mo-Fr 16:00; Sa 11:30", "name": "USPS COLLECTION BOX - BLUE BOX", "note": "ON 12/24 AND 12/31, THIS BOX MAY BE COLLECTED AS EARLY AS 12 NOON.", "nsi_id": "unitedstatespostalservice-a77078", "operator": "United States Postal Service", "operator:short": "USPS", "operator:type": "public", "operator:wikidata": "Q668687", "ref": "1692900001"}, "type": "Feature"}
{"dataset_attributes": {"@spider": "usps_collection_boxes"}, "geometry": {"coordinates": [-77.126399, 41.998044], "type": "Point"}, "id": "h4_PAdAbBa9RYBj1gO7Id8j9kMo=", "properties": {"@spider": "usps_collection_boxes", "addr:city": "LAWRENCEVILLE", "addr:country": "US", "addr:full": "60 MAIN ST", "addr:postcode": "16929", "addr:state": "PA", "amenity": "post_box", "brand": "United States Postal Service", "brand:wikidata": "Q668687", "collection_times": "Mo-Fr 16:00; Sa 11:30", "name": "USPS COLLECTION BOX - PO LOBBY", "note": "ON 12/24 AND 12/31, THIS BOX MAY BE COLLECTED AS EARLY AS 12 NOON.", "nsi_id": "unitedstatespostalservice-a77078", "operator": "United States Postal Service", "operator:short": "USPS", "operator:type": "public", "operator:wikidata": "Q668687", "ref": "1692900003"}, "type": "Feature"}
{"dataset_attributes": {"@spider": "usps_collection_boxes"}, "geometry": {"coordinates": [-77.126497959, 41.9982111], "type": "Point"}, "id": "NpMMLilc-P60eOi-PnAiK1AUlbY=", "properties": {"@spider": "usps_collection_boxes", "addr:city": "LAWRENCEVILLE", "addr:country": "US", "addr:full": "60 MAIN ST", "addr:postcode": "16929", "addr:state": "PA", "amenity": "post_box", "brand": "United States Postal Service", "brand:wikidata": "Q668687", "collection_times": "Mo-Fr 16:30; Sa 11:45", "name": "USPS COLLECTION BOX - PO LOBBY", "note": "ON 12/24 AND 12/31, THIS BOX MAY BE COLLECTED AS EARLY AS 12 NOON.", "nsi_id": "unitedstatespostalservice-a77078", "operator": "United States Postal Service", "operator:short": "USPS", "operator:type": "public", "operator:wikidata": "Q668687", "ref": "1692900005"}, "type": "Feature"}
{"dataset_attributes": {"@spider": "usps_collection_boxes"}, "geometry": {"coordinates": [-77.104236, 41.557988], "type": "Point"}, "id": "Hxflw08yENR7SSdbKMuJyIPb8ek=", "properties": {"@spider": "usps_collection_boxes", "addr:city": "LIBERTY", "addr:country": "US", "addr:full": "4514 WILLIAMSON TRL", "addr:postcode": "16930", "addr:state": "PA", "amenity": "post_box", "brand": "United States Postal Service", "brand:wikidata": "Q668687", "collection_times": "Mo-Fr 16:00; Sa 10:00", "name": "USPS COLLECTION BOX - BLUE BOX", "note": "ON 12/24 AND 12/31, THIS BOX MAY BE COLLECTED AS EARLY AS 12 NOON.", "nsi_id": "unitedstatespostalservice-a77078", "operator": "United States Postal Service", "operator:short": "USPS", "operator:type": "public", "operator:wikidata": "Q668687", "ref": "1693000001"}, "type": "Feature"}
{"dataset_attributes": {"@spider": "usps_collection_boxes"}, "geometry": {"coordinates": [-77.104184, 41.557942], "type": "Point"}, "id": "VTxvjjBFdjey8LzuwawVMDJYWnc=", "properties": {"@spider": "usps_collection_boxes", "addr:city": "LIBERTY", "addr:country": "US", "addr:full": "4514 WILLIAMSON TRL", "addr:postcode": "16930", "addr:state": "PA", "amenity": "post_box", "brand": "United States Postal Service", "brand:wikidata": "Q668687", "collection_times": "Mo-Fr 16:00; Sa 12:00", "name": "USPS COLLECTION BOX - PO LOBBY", "note": "ON 12/24 AND 12/31, THIS BOX MAY BE COLLECTED AS EARLY AS 12 NOON.", "nsi_id": "unitedstatespostalservice-a77078", "operator": "United States Postal Service", "operator:short": "USPS", "operator:type": "public", "operator:wikidata": "Q668687", "ref": "1693000002"}, "type": "Feature"}
{"dataset_attributes": {"@spider": "usps_collection_boxes"}, "geometry": {"coordinates": [-77.101707626, 41.551635471], "type": "Point"}, "id": "2ArGU1UlgYGzctygAJyrQzJ09os=", "properties": {"@spider": "usps_collection_boxes", "addr:city": "LIBERTY", "addr:country": "US", "addr:full": "LIBERTY", "addr:postcode": "16930", "addr:state": "PA", "amenity": "post_box", "brand": "United States Postal Service", "brand:wikidata": "Q668687", "collection_times": "Mo-Fr 16:00; Sa 12:00", "name": "USPS COLLECTION BOX - PO LOBBY", "note": "ON 12/24 AND 12/31, THIS BOX MAY BE COLLECTED AS EARLY AS 12 NOON.", "nsi_id": "unitedstatespostalservice-a77078", "operator": "United States Postal Service", "operator:short": "USPS", "operator:type": "public", "operator:wikidata": "Q668687", "ref": "1693000004"}, "type": "Feature"}
{"dataset_attributes": {"@spider": "usps_collection_boxes"}, "geometry": {"coordinates": [-76.99778, 41.782228], "type": "Point"}, "id": "ZAytRaRhsKPDJQh0t1d5DsD1CdE=", "properties": {"@spider": "usps_collection_boxes", "addr:city": "MAINESBURG", "addr:country": "US", "addr:full": "121 MAINESBURG RD", "addr:postcode": "16932", "addr:state": "PA", "amenity": "post_box", "brand": "United States Postal Service", "brand:wikidata": "Q668687", "collection_times": "Mo-Sa 11:00", "name": "USPS COLLECTION BOX - BLUE BOX", "nsi_id": "unitedstatespostalservice-a77078", "operator": "United States Postal Service", "operator:short": "USPS", "operator:type": "public", "operator:wikidata": "Q668687", "ref": "1693200001"}, "type": "Feature"}
{"dataset_attributes": {"@spider": "usps_collection_boxes"}, "geometry": {"coordinates": [-76.997868, 41.782271], "type": "Point"}, "id": "0hwggD_YTXq1uS-VjieGybRY0f0=", "properties": {"@spider": "usps_collection_boxes", "addr:city": "MAINESBURG", "addr:country": "US", "addr:full": "121 MAINESBURG RD", "addr:postcode": "16932", "addr:state": "PA", "amenity": "post_box", "brand": "United States Postal Service", "brand:wikidata": "Q668687", "collection_times": "Mo-Fr 13:00; Sa 11:00", "name": "USPS COLLECTION BOX - PO LOBBY", "note": "ON 12/24 AND 12/31, THIS BOX MAY BE COLLECTED AS EARLY AS 12 NOON.", "nsi_id": "unitedstatespostalservice-a77078", "operator": "United States Postal Service", "operator:short": "USPS", "operator:type": "public", "operator:wikidata": "Q668687", "ref": "1693200002"}, "type": "Feature"}
{"dataset_attributes": {"@spider": "usps_collection_boxes"}, "geometry": {"coordinates": [-76.997679557, 41.782120071], "type": "Point"}, "id": "WFmtGB0xPfBuO0OsuPMprPWUCCY=", "properties": {"@spider": "usps_collection_boxes", "addr:city": "MAINESBURG", "addr:country": "US", "addr:full": "121 MAINESBURG RD", "addr:postcode": "16932", "addr:state": "PA", "amenity": "post_box", "brand": "United States Postal Service", "brand:wikidata": "Q668687", "collection_times": "Mo-Fr 13:05; Sa 12:05", "name": "USPS COLLECTION BOX - PO LOBBY", "note": "ON 12/24 AND 12/31, THIS BOX MAY BE COLLECTED AS EARLY AS 12 NOON.", "nsi_id": "unitedstatespostalservice-a77078", "operator": "United States Postal Service", "operator:short": "USPS", "operator:type": "public", "operator:wikidata": "Q668687", "ref": "1693200005"}, "type": "Feature"}
{"dataset_attributes": {"@spider": "usps_collection_boxes"}, "geometry": {"coordinates": [-77.0777361, 41.806767], "type": "Point"}, "id": "ug18g1YBIHOJ_wYpmdJF3EI_5m4=", "properties": {"@spider": "usps_collection_boxes", "addr:city": "MANSFIELD", "addr:country": "US", "addr:full": "15 S MAIN ST", "addr:postcode": "16933", "addr:state": "PA", "amenity": "post_box", "brand": "United States Postal Service", "brand:wikidata": "Q668687", "collection_times": "Mo-Sa 14:00", "name": "USPS COLLECTION BOX - BLUE BOX", "note": "ON 12/24 AND 12/31, THIS BOX MAY BE COLLECTED AS EARLY AS 12 NOON.", "nsi_id": "unitedstatespostalservice-a77078", "operator": "United States Postal Service", "operator:short": "USPS", "operator:type": "public", "operator:wikidata": "Q668687", "ref": "1693300006"}, "type": "Feature"}
{"dataset_attributes": {"@spider": "usps_collection_boxes"}, "geometry": {"coordinates": [-77.0807704, 41.811936], "type": "Point"}, "id": "cZREoXju5IvFRcYPOPKke9W3c6c=", "properties": {"@spider": "usps_collection_boxes", "addr:city": "MANSFIELD", "addr:country": "US", "addr:full": "187 N MAIN ST", "addr:postcode": "16933", "addr:state": "PA", "amenity": "post_box", "brand": "United States Postal Service", "brand:wikidata": "Q668687", "collection_times": "Mo-Sa 14:00", "name": "USPS COLLECTION BOX - BLUE BOX", "note": "ON 12/24 AND 12/31, THIS BOX MAY BE COLLECTED AS EARLY AS 12 NOON.", "nsi_id": "unitedstatespostalservice-a77078", "operator": "United States Postal Service", "operator:short": "USPS", "operator:type": "public", "operator:wikidata": "Q668687", "ref": "1693300008"}, "type": "Feature"}
{"dataset_attributes": {"@spider": "usps_collection_boxes"}, "geometry": {"coordinates": [-77.074851148, 41.806787562], "type": "Point"}, "id": "j5PNVvwmGiTWYM9UWxR7mBkIAsM=", "properties": {"@spider": "usps_collection_boxes", "addr:city": "MANSFIELD", "addr:country": "US", "addr:full": "31 S ACADEMY ST", "addr:postcode": "16933", "addr:state": "PA", "amenity": "post_box", "brand": "United States Postal Service", "brand:wikidata": "Q668687", "collection_times": "Mo-Sa 10:00", "name": "USPS COLLECTION BOX - BLUE BOX", "nsi_id": "unitedstatespostalservice-a77078", "operator": "United States Postal Service", "operator:short": "USPS", "operator:type": "public", "operator:wikidata": "Q668687", "ref": "1693300011"}, "type": "Feature"}
{"dataset_attributes": {"@spider": "usps_collection_boxes"}, "geometry": {"coordinates": [-77.07582, 41.797691], "type": "Point"}, "id": "PWgPi3dIZPT2wPVPgildNWmjo34=", "properties": {"@spider": "usps_collection_boxes", "addr:city": "MANSFIELD", "addr:country": "US", "addr:full": "320 S MAIN ST", "addr:postcode": "16933", "addr:state": "PA", "amenity": "post_box", "brand": "United States Postal Service", "brand:wikidata": "Q668687", "collection_times": "Mo-Fr 17:00; Sa 15:00", "name": "USPS COLLECTION BOX - BLUE BOX", "note": "ON 12/24 AND 12/31, THIS BOX MAY BE COLLECTED AS EARLY AS 12 NOON.", "nsi_id": "unitedstatespostalservice-a77078", "operator": "United States Postal Service", "operator:short": "USPS", "operator:type": "public", "operator:wikidata": "Q668687", "ref": "1693300016"}, "type": "Feature"}
{"dataset_attributes": {"@spider": "usps_collection_boxes"}, "geometry": {"coordinates": [-77.07582, 41.797691], "type": "Point"}, "id": "TV3OyXAwJctBSh5CSDPGMWtHQ5U=", "properties": {"@spider": "usps_collection_boxes", "addr:city": "MANSFIELD", "addr:country": "US", "addr:full": "320 S MAIN ST", "addr:postcode": "16933", "addr:state": "PA", "amenity": "post_box", "brand": "United States Postal Service", "brand:wikidata": "Q668687", "collection_times": "Mo-Fr 17:00; Sa 15:00", "name": "USPS COLLECTION BOX - BLUE BOX", "note": "ON 12/24 AND 12/31, THIS BOX MAY BE COLLECTED AS EARLY AS 12 NOON.", "nsi_id": "unitedstatespostalservice-a77078", "operator": "United States Postal Service", "operator:short": "USPS", "operator:type": "public", "operator:wikidata": "Q668687", "ref": "1693300017"}, "type": "Feature"}
{"dataset_attributes": {"@spider": "usps_collection_boxes"}, "geometry": {"coordinates": [-77.07582, 41.797691], "type": "Point"}, "id": "95clriaWdukJLbVZ3MoDWtcEk3I=", "properties": {"@spider": "usps_collection_boxes", "addr:city": "MANSFIELD", "addr:country": "US", "addr:full": "320 S MAIN ST", "addr:postcode": "16933", "addr:state": "PA", "amenity": "post_box", "brand": "United States Postal Service", "brand:wikidata": "Q668687", "collection_times": "Mo-Fr 17:00; Sa 15:00", "name": "USPS COLLECTION BOX - PO LOBBY", "note": "ON 12/24 AND 12/31, THIS BOX MAY BE COLLECTED AS EARLY AS 12 NOON.", "nsi_id": "unitedstatespostalservice-a77078", "operator": "United States Postal Service", "operator:short": "USPS", "operator:type": "public", "operator:wikidata": "Q668687", "ref": "1693300018"}, "type": "Feature"}
{"dataset_attributes": {"@spider": "usps_collection_boxes"}, "geometry": {"coordinates": [-77.075758687, 41.797243757], "type": "Point"}, "id": "sHlKfy_4W4-38PZr2rb0wXhzgx0=", "properties": {"@spider": "usps_collection_boxes", "addr:city": "MANSFIELD", "addr:country": "US", "addr:full": "320 S MAIN ST", "addr:postcode": "16933", "addr:state": "PA", "amenity": "post_box", "brand": "United States Postal Service", "brand:wikidata": "Q668687", "collection_times": "Mo-Fr 17:15; Sa 12:15", "name": "USPS COLLECTION BOX - PO LOBBY", "note": "ON 12/24 AND 12/31, THIS BOX MAY BE COLLECTED AS EARLY AS 12 NOON.", "nsi_id": "unitedstatespostalservice-a77078", "operator": "United States Postal Service", "operator:short": "USPS", "operator:type": "public", "operator:wikidata": "Q668687", "ref": "1693300022"}, "type": "Feature"}
{"dataset_attributes": {"@spider": "usps_collection_boxes"}, "geometry": {"coordinates": [-77.274284, 41.843942], "type": "Point"}, "id": "xD585kzPlJf_I0qwjyBHK2WcjvM=", "properties": {"@spider": "usps_collection_boxes", "addr:city": "MIDDLEBURY CENTE", "addr:country": "US", "addr:full": "11660 ROUTE 287", "addr:postcode": "16935", "addr:state": "PA", "amenity": "post_box", "brand": "United States Postal Service", "brand:wikidata": "Q668687", "collection_times": "Mo-Fr 16:00; Sa 11:30", "name": "USPS COLLECTION BOX - BLUE BOX", "note": "ON 12/24 AND 12/31, THIS BOX MAY BE COLLECTED AS EARLY AS 12 NOON.", "nsi_id": "unitedstatespostalservice-a77078", "operator": "United States Postal Service", "operator:short": "USPS", "operator:type": "public", "operator:wikidata": "Q668687", "ref": "1693500001"}, "type": "Feature"}
{"dataset_attributes": {"@spider": "usps_collection_boxes"}, "geometry": {"coordinates": [-77.27432, 41.843955], "type": "Point"}, "id": "3iRTC-KBm8d1DZiFRXUy5U3UFTM=", "properties": {"@spider": "usps_collection_boxes", "addr:city": "MIDDLEBURY CENTE", "addr:country": "US", "addr:full": "11660 ROUTE 287", "addr:postcode": "16935", "addr:state": "PA", "amenity": "post_box", "brand": "United States Postal Service", "brand:wikidata": "Q668687", "collection_times": "Mo-Fr 16:00; Sa 11:30", "name": "USPS COLLECTION BOX - PO LOBBY", "note": "ON 12/24 AND 12/31, THIS BOX MAY BE COLLECTED AS EARLY AS 12 NOON.", "nsi_id": "unitedstatespostalservice-a77078", "operator": "United States Postal Service", "operator:short": "USPS", "operator:type": "public", "operator:wikidata": "Q668687", "ref": "1693500002"}, "type": "Feature"}
{"dataset_attributes": {"@spider": "usps_collection_boxes"}, "geometry": {"coordinates": [-77.274336359, 41.843904277], "type": "Point"}, "id": "tMFkKsswbegZi3JtfCRgKZideEI=", "properties": {"@spider": "usps_collection_boxes", "addr:city": "MIDDLEBURY CENTE", "addr:country": "US", "addr:full": "11660 ROUTE 287", "addr:postcode": "16935", "addr:state": "PA", "amenity": "post_box", "brand": "United States Postal Service", "brand:wikidata": "Q668687", "collection_times": "Mo-Fr 16:05; Sa 11:35", "name": "USPS COLLECTION BOX - PO LOBBY", "note": "ON 12/24 AND 12/31, THIS BOX MAY BE COLLECTED AS EARLY AS 12 NOON.", "nsi_id": "unitedstatespostalservice-a77078", "operator": "United States Postal Service", "operator:short": "USPS", "operator:type": "public", "operator:wikidata": "Q668687", "ref": "1693500004"}, "type": "Feature"}
{"dataset_attributes": {"@spider": "usps_collection_boxes"}, "geometry": {"coordinates": [-76.94072, 41.984281], "type": "Point"}, "id": "dQllSejRiQTy1Iuv2MrtFoeIVyk=", "properties": {"@spider": "usps_collection_boxes", "addr:city": "MILLERTON", "addr:country": "US", "addr:full": "45 BACK ST", "addr:postcode": "16936", "addr:state": "PA", "amenity": "post_box", "brand": "United States Postal Service", "brand:wikidata": "Q668687", "collection_times": "Mo-Fr 16:00; Sa 11:30", "name": "USPS COLLECTION BOX - BLUE BOX", "note": "ON 12/24 AND 12/31, THIS BOX MAY BE COLLECTED AS EARLY AS 12 NOON.", "nsi_id": "unitedstatespostalservice-a77078", "operator": "United States Postal Service", "operator:short": "USPS", "operator:type": "public", "operator:wikidata": "Q668687", "ref": "1693600001"}, "type": "Feature"}
{"dataset_attributes": {"@spider": "usps_collection_boxes"}, "geometry": {"coordinates": [-76.940624, 41.984299], "type": "Point"}, "id": "F1Wq8gynbJ9VjU2O5uH7_MgqFkI=", "properties": {"@spider": "usps_collection_boxes", "addr:city": "MILLERTON", "addr:country": "US", "addr:full": "45 BACK ST", "addr:postcode": "16936", "addr:state": "PA", "amenity": "post_box", "brand": "United States Postal Service", "brand:wikidata": "Q668687", "collection_times": "Mo-Fr 16:00; Sa 11:30", "name": "USPS COLLECTION BOX - PO LOBBY", "note": "ON 12/24 AND 12/31, THIS BOX MAY BE COLLECTED AS EARLY AS 12 NOON.", "nsi_id": "unitedstatespostalservice-a77078", "operator": "United States Postal Service", "operator:short": "USPS", "operator:type": "public", "operator:wikidata": "Q668687", "ref": "1693600003"}, "type": "Feature"}
{"dataset_attributes": {"@spider": "usps_collection_boxes"}, "geometry": {"coordinates": [-76.940757575, 41.984264587], "type": "Point"}, "id": "0qa0_xnxjcMVkcAFIWEh7bd_RQY=", "properties": {"@spider": "usps_collection_boxes", "addr:city": "MILLERTON", "addr:country": "US", "addr:full": "45 BACK ST", "addr:postcode": "16936", "addr:state": "PA", "amenity": "post_box", "brand": "United States Postal Service", "brand:wikidata": "Q668687", "collection_times": "Mo-Fr 16:00; Sa 11:30", "name": "USPS COLLECTION BOX - PO LOBBY", "note": "ON 12/24 AND 12/31, THIS BOX MAY BE COLLECTED AS EARLY AS 12 NOON.", "nsi_id": "unitedstatespostalservice-a77078", "operator": "United States Postal Service", "operator:short": "USPS", "operator:type": "public", "operator:wikidata": "Q668687", "ref": "1693600005"}, "type": "Feature"}
{"dataset_attributes": {"@spider": "usps_collection_boxes"}, "geometry": {"coordinates": [-77.283522, 41.568744], "type": "Point"}, "id": "4POSY1MIJa8GnRJGrn7c3THuIno=", "properties": {"@spider": "usps_collection_boxes", "addr:city": "MORRIS", "addr:country": "US", "addr:full": "917 ROUTE 287", "addr:postcode": "16938", "addr:state": "PA", "amenity": "post_box", "brand": "United States Postal Service", "brand:wikidata": "Q668687", "collection_times": "Mo-Fr 16:00; Sa 10:45", "name": "USPS COLLECTION BOX - BLUE BOX", "note": "ON 12/24 AND 12/31, THIS BOX MAY BE COLLECTED AS EARLY AS 12 NOON.", "nsi_id": "unitedstatespostalservice-a77078", "operator": "United States Postal Service", "operator:short": "USPS", "operator:type": "public", "operator:wikidata": "Q668687", "ref": "1693800001"}, "type": "Feature"}
{"dataset_attributes": {"@spider": "usps_collection_boxes"}, "geometry": {"coordinates": [-77.283521, 41.568792], "type": "Point"}, "id": "B7qDbSGGRr5rehqkl6cmduSJv6A=", "properties": {"@spider": "usps_collection_boxes", "addr:city": "MORRIS", "addr:country": "US", "addr:full": "917 ROUTE 287", "addr:postcode": "16938", "addr:state": "PA", "amenity": "post_box", "brand": "United States Postal Service", "brand:wikidata": "Q668687", "collection_times": "Mo-Fr 16:00; Sa 10:45", "name": "USPS COLLECTION BOX - PO LOBBY", "note": "ON 12/24 AND 12/31, THIS BOX MAY BE COLLECTED AS EARLY AS 12 NOON.", "nsi_id": "unitedstatespostalservice-a77078", "operator": "United States Postal Service", "operator:short": "USPS", "operator:type": "public", "operator:wikidata": "Q668687", "ref": "1693800003"}, "type": "Feature"}
{"dataset_attributes": {"@spider": "usps_collection_boxes"}, "geometry": {"coordinates": [-77.28354, 41.56870797], "type": "Point"}, "id": "IGtzAqtj4JJHhKwEaIUo2lP52v0=", "properties": {"@spider": "usps_collection_boxes", "addr:city": "MORRIS", "addr:country": "US", "addr:full": "917 ROUTE 287", "addr:postcode": "16938", "addr:state": "PA", "amenity": "post_box", "brand": "United States Postal Service", "brand:wikidata": "Q668687", "collection_times": "Mo-Fr 16:00; Sa 11:45", "name": "USPS COLLECTION BOX - PO LOBBY", "note": "ON 12/24 AND 12/31, THIS BOX MAY BE COLLECTED AS EARLY AS 12 NOON.", "nsi_id": "unitedstatespostalservice-a77078", "operator": "United States Postal Service", "operator:short": "USPS", "operator:type": "public", "operator:wikidata": "Q668687", "ref": "1693800005"}, "type": "Feature"}
{"dataset_attributes": {"@spider": "usps_collection_boxes"}, "geometry": {"coordinates": [-77.017808, 41.677211], "type": "Point"}, "id": "1evJgTLz7tsi3niXFsTulYUHQbs=", "properties": {"@spider": "usps_collection_boxes", "addr:city": "MORRIS RUN", "addr:country": "US", "addr:full": "1043 MORRIS RUN RD", "addr:postcode": "16939", "addr:state": "PA", "amenity": "post_box", "brand": "United States Postal Service", "brand:wikidata": "Q668687", "collection_times": "Mo-Fr 16:00; Sa 10:00", "name": "USPS COLLECTION BOX - BLUE BOX", "note": "ON 12/24 AND 12/31, THIS BOX MAY BE COLLECTED AS EARLY AS 12 NOON.", "nsi_id": "unitedstatespostalservice-a77078", "operator": "United States Postal Service", "operator:short": "USPS", "operator:type": "public", "operator:wikidata": "Q668687", "ref": "1693900001"}, "type": "Feature"}
{"dataset_attributes": {"@spider": "usps_collection_boxes"}, "geometry": {"coordinates": [-77.017808, 41.677211], "type": "Point"}, "id": "JNCoWG_pRB99yMRRsco5ppV27-M=", "properties": {"@spider": "usps_collection_boxes", "addr:city": "MORRIS RUN", "addr:country": "US", "addr:full": "1043 MORRIS RUN RD", "addr:postcode": "16939", "addr:state": "PA", "amenity": "post_box", "brand": "United States Postal Service", "brand:wikidata": "Q668687", "collection_times": "Mo-Fr 16:00; Sa 10:00", "name": "USPS COLLECTION BOX - PO LOBBY", "note": "ON 12/24 AND 12/31, THIS BOX MAY BE COLLECTED AS EARLY AS 12 NOON.", "nsi_id": "unitedstatespostalservice-a77078", "operator": "United States Postal Service", "operator:short": "USPS", "operator:type": "public", "operator:wikidata": "Q668687", "ref": "1693900002"}, "type": "Feature"}
{"dataset_attributes": {"@spider": "usps_collection_boxes"}, "geometry": {"coordinates": [-77.018938769, 41.677697293], "type": "Point"}, "id": "MIr7WDDhHOHKrX7ABYvBHms5Njc=", "properties": {"@spider": "usps_collection_boxes", "addr:city": "MORRIS RUN", "addr:country": "US", "addr:full": "1043 MORRIS RUN RD", "addr:postcode": "16939", "addr:state": "PA", "amenity": "post_box", "brand": "United States Postal Service", "brand:wikidata": "Q668687", "collection_times": "Mo-Fr 16:00; Sa 13:00", "name": "USPS COLLECTION BOX - PO LOBBY", "note": "ON 12/24 AND 12/31, THIS BOX MAY BE COLLECTED AS EARLY AS 12 NOON.", "nsi_id": "unitedstatespostalservice-a77078", "operator": "United States Postal Service", "operator:short": "USPS", "operator:type": "public", "operator:wikidata": "Q668687", "ref": "1693900004"}, "type": "Feature"}
{"dataset_attributes": {"@spider": "usps_collection_boxes"}, "geometry": {"coordinates": [-77.244499, 41.979694], "type": "Point"}, "id": "HcSkhRf-1d0Hq1uvPuCSX5IW-fs=", "properties": {"@spider": "usps_collection_boxes", "addr:city": "NELSON", "addr:country": "US", "addr:full": "1 VILLAGE DR", "addr:postcode": "16940", "addr:state": "PA", "amenity": "post_box", "brand": "United States Postal Service", "brand:wikidata": "Q668687", "collection_times": "Mo-Fr 12:00; Sa 11:30", "name": "USPS COLLECTION BOX - BLUE BOX", "nsi_id": "unitedstatespostalservice-a77078", "operator": "United States Postal Service", "operator:short": "USPS", "operator:type": "public", "operator:wikidata": "Q668687", "ref": "1694000001"}, "type": "Feature"}
{"dataset_attributes": {"@spider": "usps_collection_boxes"}, "geometry": {"coordinates": [-77.244538, 41.979783], "type": "Point"}, "id": "ASIb0TiSmEQ_EAmk27YQXLJWFUw=", "properties": {"@spider": "usps_collection_boxes", "addr:city": "NELSON", "addr:country": "US", "addr:full": "1 VILLAGE DR", "addr:postcode": "16940", "addr:state": "PA", "amenity": "post_box", "brand": "United States Postal Service", "brand:wikidata": "Q668687", "collection_times": "Mo-Fr 12:00; Sa 11:45", "name": "USPS COLLECTION BOX - PO LOBBY", "nsi_id": "unitedstatespostalservice-a77078", "operator": "United States Postal Service", "operator:short": "USPS", "operator:type": "public", "operator:wikidata": "Q668687", "ref": "1694000002"}, "type": "Feature"}
{"dataset_attributes": {"@spider": "usps_collection_boxes"}, "geometry": {"coordinates": [-77.244479401, 41.979715412], "type": "Point"}, "id": "7xEkRU07Lj3Lgaj_nLW-r3oUxUM=", "properties": {"@spider": "usps_collection_boxes", "addr:city": "NELSON", "addr:country": "US", "addr:full": "1 VILLAGE DR", "addr:postcode": "16940", "addr:state": "PA", "amenity": "post_box", "brand": "United States Postal Service", "brand:wikidata": "Q668687", "collection_times": "Mo-Fr 12:00; Sa 11:30", "name": "USPS COLLECTION BOX - PO LOBBY", "nsi_id": "unitedstatespostalservice-a77078", "operator": "United States Postal Service", "operator:short": "USPS", "operator:type": "public", "operator:wikidata": "Q668687", "ref": "1694000004"}, "type": "Feature"}
{"dataset_attributes": {"@spider": "usps_collection_boxes"}, "geometry": {"coordinates": [-77.344536, 41.981682], "type": "Point"}, "id": "gUIdocx0awivEyt5onMeagEYZM4=", "properties": {"@spider": "usps_collection_boxes", "addr:city": "OSCEOLA", "addr:country": "US", "addr:full": "153 MAIN ST", "addr:postcode": "16942", "addr:state": "PA", "amenity": "post_box", "brand": "United States Postal Service", "brand:wikidata": "Q668687", "collection_times": "Mo-Fr 12:00; Sa 11:00", "name": "USPS COLLECTION BOX - BLUE BOX", "nsi_id": "unitedstatespostalservice-a77078", "operator": "United States Postal Service", "operator:short": "USPS", "operator:type": "public", "operator:wikidata": "Q668687", "ref": "1694200001"}, "type": "Feature"}
{"dataset_attributes": {"@spider": "usps_collection_boxes"}, "geometry": {"coordinates": [-77.344536, 41.981682], "type": "Point"}, "id": "CIM5O0yiH2C3YsAj8yrPRh7s5b4=", "properties": {"@spider": "usps_collection_boxes", "addr:city": "OSCEOLA", "addr:country": "US", "addr:full": "153 MAIN ST", "addr:postcode": "16942", "addr:state": "PA", "amenity": "post_box", "brand": "United States Postal Service", "brand:wikidata": "Q668687", "collection_times": "Mo-Fr 12:00; Sa 11:00", "name": "USPS COLLECTION BOX - PO LOBBY", "nsi_id": "unitedstatespostalservice-a77078", "operator": "United States Postal Service", "operator:short": "USPS", "operator:type": "public", "operator:wikidata": "Q668687", "ref": "1694200002"}, "type": "Feature"}
{"dataset_attributes": {"@spider": "usps_collection_boxes"}, "geometry": {"coordinates": [-77.342545111, 41.982289272], "type": "Point"}, "id": "UrzN-cbToMcrBTOI_9N2L-XQKUw=", "properties": {"@spider": "usps_collection_boxes", "addr:city": "OSCEOLA", "addr:country": "US", "addr:full": "7570 ROUTE 49", "addr:postcode": "16942", "addr:state": "PA", "amenity": "post_box", "brand": "United States Postal Service", "brand:wikidata": "Q668687", "collection_times": "Mo-Fr 12:00; Sa 11:00", "name": "USPS COLLECTION BOX - PO LOBBY", "nsi_id": "unitedstatespostalservice-a77078", "operator": "United States Postal Service", "operator:short": "USPS", "operator:type": "public", "operator:wikidata": "Q668687", "ref": "1694200004"}, "type": "Feature"}
{"dataset_attributes": {"@spider": "usps_collection_boxes"}, "geometry": {"coordinates": [-77.522106, 41.869723], "type": "Point"}, "id": "TFra4sS7JU-ECsQtGiNXt25VloA=", "properties": {"@spider": "usps_collection_boxes", "addr:city": "SABINSVILLE", "addr:country": "US", "addr:full": "1056 SPRUCE ST", "addr:postcode": "16943", "addr:state": "PA", "amenity": "post_box", "brand": "United States Postal Service", "brand:wikidata": "Q668687", "collection_times": "Mo-Fr 16:00; Sa 11:30", "name": "USPS COLLECTION BOX - BLUE BOX", "note": "ON 12/24 AND 12/31, THIS BOX MAY BE COLLECTED AS EARLY AS 12 NOON.", "nsi_id": "unitedstatespostalservice-a77078", "operator": "United States Postal Service", "operator:short": "USPS", "operator:type": "public", "operator:wikidata": "Q668687", "ref": "1694300001"}, "type": "Feature"}
{"dataset_attributes": {"@spider": "usps_collection_boxes"}, "geometry": {"coordinates": [-77.522124, 41.86976], "type": "Point"}, "id": "uwPxchE63Eq9SbgYE5heKKb2t_0=", "properties": {"@spider": "usps_collection_boxes", "addr:city": "SABINSVILLE", "addr:country": "US", "addr:full": "1056 SPRUCE ST", "addr:postcode": "16943", "addr:state": "PA", "amenity": "post_box", "brand": "United States Postal Service", "brand:wikidata": "Q668687", "collection_times": "Mo-Fr 16:00; Sa 11:30", "name": "USPS COLLECTION BOX - PO LOBBY", "note": "ON 12/24 AND 12/31, THIS BOX MAY BE COLLECTED AS EARLY AS 12 NOON.", "nsi_id": "unitedstatespostalservice-a77078", "operator": "United States Postal Service", "operator:short": "USPS", "operator:type": "public", "operator:wikidata": "Q668687", "ref": "1694300002"}, "type": "Feature"}
{"dataset_attributes": {"@spider": "usps_collection_boxes"}, "geometry": {"coordinates": [-77.52186176, 41.869630447], "type": "Point"}, "id": "bHz8MlR1M4uqcgUU5dajdPzqZvM=", "properties": {"@spider": "usps_collection_boxes", "addr:city": "SABINSVILLE", "addr:country": "US", "addr:full": "1056 SPRUCE ST", "addr:postcode": "16943", "addr:state": "PA", "amenity": "post_box", "brand": "United States Postal Service", "brand:wikidata": "Q668687", "collection_times": "Mo-Fr 16:15; Sa 12:00", "name": "USPS COLLECTION BOX - PO LOBBY", "note": "ON 12/24 AND 12/31, THIS BOX MAY BE COLLECTED AS EARLY AS 12 NOON.", "nsi_id": "unitedstatespostalservice-a77078", "operator": "United States Postal Service", "operator:short": "USPS", "operator:type": "public", "operator:wikidata": "Q668687", "ref": "1694300004"}, "type": "Feature"}
{"dataset_attributes": {"@spider": "usps_collection_boxes"}, "geometry": {"coordinates": [-76.856697, 41.805412], "type": "Point"}, "id": "_Wvyq1DQ4x23mWGvhfjuE0uCzoA=", "properties": {"@spider": "usps_collection_boxes", "addr:city": "SYLVANIA", "addr:country": "US", "addr:full": "18 IRON MINE RD", "addr:postcode": "16945", "addr:state": "PA", "amenity": "post_box", "brand": "United States Postal Service", "brand:wikidata": "Q668687", "collection_times": "Mo-Fr 12:45; Sa 10:45", "name": "USPS COLLECTION BOX - BLUE BOX", "note": "ON 12/24 AND 12/31, THIS BOX MAY BE COLLECTED AS EARLY AS 12 NOON.", "nsi_id": "unitedstatespostalservice-a77078", "operator": "United States Postal Service", "operator:short": "USPS", "operator:type": "public", "operator:wikidata": "Q668687", "ref": "1694500001"}, "type": "Feature"}
{"dataset_attributes": {"@spider": "usps_collection_boxes"}, "geometry": {"coordinates": [-76.856713, 41.805355], "type": "Point"}, "id": "B1QchE_ADhI4LnuVkId02dDsUy0=", "properties": {"@spider": "usps_collection_boxes", "addr:city": "SYLVANIA", "addr:country": "US", "addr:full": "18 IRON MINE RD", "addr:postcode": "16945", "addr:state": "PA", "amenity": "post_box", "brand": "United States Postal Service", "brand:wikidata": "Q668687", "collection_times": "Mo-Fr 13:00; Sa 11:45", "name": "USPS COLLECTION BOX - PO LOBBY", "note": "ON 12/24 AND 12/31, THIS BOX MAY BE COLLECTED AS EARLY AS 12 NOON.", "nsi_id": "unitedstatespostalservice-a77078", "operator": "United States Postal Service", "operator:short": "USPS", "operator:type": "public", "operator:wikidata": "Q668687", "ref": "1694500002"}, "type": "Feature"}
{"dataset_attributes": {"@spider": "usps_collection_boxes"}, "geometry": {"coordinates": [-76.856274788, 41.805220664], "type": "Point"}, "id": "bqqS4ofvJp0ZQk-fLGbOzZP5VTc=", "properties": {"@spider": "usps_collection_boxes", "addr:city": "SYLVANIA", "addr:country": "US", "addr:full": "2345 SYLVANIA RD", "addr:postcode": "16945", "addr:state": "PA", "amenity": "post_box", "brand": "United States Postal Service", "brand:wikidata": "Q668687", "collection_times": "Mo-Fr 13:00; Sa 11:45", "name": "USPS COLLECTION BOX - PO LOBBY", "note": "ON 12/24 AND 12/31, THIS BOX MAY BE COLLECTED AS EARLY AS 12 NOON.", "nsi_id": "unitedstatespostalservice-a77078", "operator": "United States Postal Service", "operator:short": "USPS", "operator:type": "public", "operator:wikidata": "Q668687", "ref": "1694500004"}, "type": "Feature"}
{"dataset_attributes": {"@spider": "usps_collection_boxes"}, "geometry": {"coordinates": [-77.1330663, 41.911319], "type": "Point"}, "id": "ukTpBIQ4DDUgf5_xMfslxeNwh9s=", "properties": {"@spider": "usps_collection_boxes", "addr:city": "TIOGA", "addr:country": "US", "addr:full": "34 N MAIN ST", "addr:postcode": "16946", "addr:state": "PA", "amenity": "post_box", "brand": "United States Postal Service", "brand:wikidata": "Q668687", "collection_times": "Mo-Fr 16:30; Sa 11:45", "name": "USPS COLLECTION BOX - BLUE BOX", "note": "ON 12/24 AND 12/31, THIS BOX MAY BE COLLECTED AS EARLY AS 12 NOON.", "nsi_id": "unitedstatespostalservice-a77078", "operator": "United States Postal Service", "operator:short": "USPS", "operator:type": "public", "operator:wikidata": "Q668687", "ref": "1694600001"}, "type": "Feature"}
{"dataset_attributes": {"@spider": "usps_collection_boxes"}, "geometry": {"coordinates": [-77.1330134, 41.911261], "type": "Point"}, "id": "VSOz4gVeHQUbWvoYe9hmGURXIhU=", "properties": {"@spider": "usps_collection_boxes", "addr:city": "TIOGA", "addr:country": "US", "addr:full": "34 N MAIN ST", "addr:postcode": "16946", "addr:state": "PA", "amenity": "post_box", "brand": "United States Postal Service", "brand:wikidata": "Q668687", "collection_times": "Mo-Fr 16:30; Sa 11:45", "name": "USPS COLLECTION BOX - PO LOBBY", "note": "ON 12/24 AND 12/31, THIS BOX MAY BE COLLECTED AS EARLY AS 12 NOON.", "nsi_id": "unitedstatespostalservice-a77078", "operator": "United States Postal Service", "operator:short": "USPS", "operator:type": "public", "operator:wikidata": "Q668687", "ref": "1694600002"}, "type": "Feature"}
{"dataset_attributes": {"@spider": "usps_collection_boxes"}, "geometry": {"coordinates": [-77.133266662, 41.911335273], "type": "Point"}, "id": "OnQJCW-dC1ilXPYcG7KXRuJLYL0=", "properties": {"@spider": "usps_collection_boxes", "addr:city": "TIOGA", "addr:country": "US", "addr:full": "34 N MAIN ST", "addr:postcode": "16946", "addr:state": "PA", "amenity": "post_box", "brand": "United States Postal Service", "brand:wikidata": "Q668687", "collection_times": "Mo-Fr 16:45; Sa 11:35", "name": "USPS COLLECTION BOX - PO LOBBY", "note": "ON 12/24 AND 12/31, THIS BOX MAY BE COLLECTED AS EARLY AS 12 NOON.", "nsi_id": "unitedstatespostalservice-a77078", "operator": "United States Postal Service", "operator:short": "USPS", "operator:type": "public", "operator:wikidata": "Q668687", "ref": "1694600004"}, "type": "Feature"}
{"dataset_attributes": {"@spider": "usps_collection_boxes"}, "geometry": {"coordinates": [-76.7922826, 41.77557], "type": "Point"}, "id": "4yBI3FvNA3tOtvGzPBK1gFpaRo0=", "properties": {"@spider": "usps_collection_boxes", "addr:city": "TROY", "addr:country": "US", "addr:full": "41 CANTON ST", "addr:postcode": "16947", "addr:state": "PA", "amenity": "post_box", "brand": "United States Postal Service", "brand:wikidata": "Q668687", "collection_times": "Mo-Fr 11:45; Sa 11:30", "name": "USPS COLLECTION BOX - BLUE BOX", "nsi_id": "unitedstatespostalservice-a77078", "operator": "United States Postal Service", "operator:short": "USPS", "operator:type": "public", "operator:wikidata": "Q668687", "ref": "1694700001"}, "type": "Feature"}
{"dataset_attributes": {"@spider": "usps_collection_boxes"}, "geometry": {"coordinates": [-76.7761705, 41.790387], "type": "Point"}, "id": "CAJV05hWMhE31FWTz0XqK279oFU=", "properties": {"@spider": "usps_collection_boxes", "addr:city": "TROY", "addr:country": "US", "addr:full": "684 ELMIRA ST", "addr:postcode": "16947", "addr:state": "PA", "amenity": "post_box", "brand": "United States Postal Service", "brand:wikidata": "Q668687", "collection_times": "Mo-Sa 11:00", "name": "USPS COLLECTION BOX - BLUE BOX", "nsi_id": "unitedstatespostalservice-a77078", "operator": "United States Postal Service", "operator:short": "USPS", "operator:type": "public", "operator:wikidata": "Q668687", "ref": "1694700003"}, "type": "Feature"}
{"dataset_attributes": {"@spider": "usps_collection_boxes"}, "geometry": {"coordinates": [-76.7878555, 41.786072], "type": "Point"}, "id": "-OolG27H8CT_3pQCT06ziq9rTDU=", "properties": {"@spider": "usps_collection_boxes", "addr:city": "TROY", "addr:country": "US", "addr:full": "833 CANTON ST", "addr:postcode": "16947", "addr:state": "PA", "amenity": "post_box", "brand": "United States Postal Service", "brand:wikidata": "Q668687", "collection_times": "Mo-Fr 11:30; Sa 11:00", "name": "USPS COLLECTION BOX - BLUE BOX", "nsi_id": "unitedstatespostalservice-a77078", "operator": "United States Postal Service", "operator:short": "USPS", "operator:type": "public", "operator:wikidata": "Q668687", "ref": "1694700004"}, "type": "Feature"}
{"dataset_attributes": {"@spider": "usps_collection_boxes"}, "geometry": {"coordinates": [-76.791568, 41.78089], "type": "Point"}, "id": "Dh3IhbxCWaU2NHiFj9xyFTblERY=", "properties": {"@spider": "usps_collection_boxes", "addr:city": "TROY", "addr:country": "US", "addr:full": "416 CANTON ST", "addr:postcode": "16947", "addr:state": "PA", "amenity": "post_box", "brand": "United States Postal Service", "brand:wikidata": "Q668687", "collection_times": "Mo-Fr 16:30; Sa 15:00", "name": "USPS COLLECTION BOX - BLUE BOX", "note": "ON 12/24 AND 12/31, THIS BOX MAY BE COLLECTED AS EARLY AS 12 NOON.", "nsi_id": "unitedstatespostalservice-a77078", "operator": "United States Postal Service", "operator:short": "USPS", "operator:type": "public", "operator:wikidata": "Q668687", "ref": "1694700005"}, "type": "Feature"}
{"dataset_attributes": {"@spider": "usps_collection_boxes"}, "geometry": {"coordinates": [-76.791343, 41.780813], "type": "Point"}, "id": "gm2TcmgHf9mzpUkn9lGLWywxDUc=", "properties": {"@spider": "usps_collection_boxes", "addr:city": "TROY", "addr:country": "US", "addr:full": "416 CANTON ST", "addr:postcode": "16947", "addr:state": "PA", "amenity": "post_box", "brand": "United States Postal Service", "brand:wikidata": "Q668687", "collection_times": "Mo-Fr 16:30; Sa 15:00", "name": "USPS COLLECTION BOX - PO LOBBY", "note": "ON 12/24 AND 12/31, THIS BOX MAY BE COLLECTED AS EARLY AS 12 NOON.", "nsi_id": "unitedstatespostalservice-a77078", "operator": "United States Postal Service", "operator:short": "USPS", "operator:type": "public", "operator:wikidata": "Q668687", "ref": "1694700011"}, "type": "Feature"}
{"dataset_attributes": {"@spider": "usps_collection_boxes"}, "geometry": {"coordinates": [-76.791565239, 41.78094213], "type": "Point"}, "id": "U8G07L3sw-zZySnXEZ3tSg9216c=", "properties": {"@spider": "usps_collection_boxes", "addr:city": "TROY", "addr:country": "US", "addr:full": "416 CANTON ST", "addr:postcode": "16947", "addr:state": "PA", "amenity": "post_box", "brand": "United States Postal Service", "brand:wikidata": "Q668687", "collection_times": "Mo-Fr 16:45; Sa 12:15", "name": "USPS COLLECTION BOX - PO LOBBY", "note": "ON 12/24 AND 12/31, THIS BOX MAY BE COLLECTED AS EARLY AS 12 NOON.", "nsi_id": "unitedstatespostalservice-a77078", "operator": "United States Postal Service", "operator:short": "USPS", "operator:type": "public", "operator:wikidata": "Q668687", "ref": "1694700013"}, "type": "Feature"}
{"dataset_attributes": {"@spider": "usps_collection_boxes"}, "geometry": {"coordinates": [-77.53925, 41.9196], "type": "Point"}, "id": "qBee72IkHFZJ4l2k7e2MXjtGLAA=", "properties": {"@spider": "usps_collection_boxes", "addr:city": "WESTFIELD", "addr:country": "US", "addr:full": "103 W MAIN ST", "addr:postcode": "16950", "addr:state": "PA", "amenity": "post_box", "brand": "United States Postal Service", "brand:wikidata": "Q668687", "collection_times": "Mo-Fr 16:15; Sa 12:00", "name": "USPS COLLECTION BOX - BLUE BOX", "note": "ON 12/24 AND 12/31, THIS BOX MAY BE COLLECTED AS EARLY AS 12 NOON.", "nsi_id": "unitedstatespostalservice-a77078", "operator": "United States Postal Service", "operator:short": "USPS", "operator:type": "public", "operator:wikidata": "Q668687", "ref": "1695000001"}, "type": "Feature"}
{"dataset_attributes": {"@spider": "usps_collection_boxes"}, "geometry": {"coordinates": [-77.53925, 41.9196], "type": "Point"}, "id": "RaMGZl-_VDQE2vpGZu3mZA2fACI=", "properties": {"@spider": "usps_collection_boxes", "addr:city": "WESTFIELD", "addr:country": "US", "addr:full": "103 W MAIN ST", "addr:postcode": "16950", "addr:state": "PA", "amenity": "post_box", "brand": "United States Postal Service", "brand:wikidata": "Q668687", "collection_times": "Mo-Fr 16:15; Sa 12:00", "name": "USPS COLLECTION BOX - PO LOBBY", "note": "ON 12/24 AND 12/31, THIS BOX MAY BE COLLECTED AS EARLY AS 12 NOON.", "nsi_id": "unitedstatespostalservice-a77078", "operator": "United States Postal Service", "operator:short": "USPS", "operator:type": "public", "operator:wikidata": "Q668687", "ref": "1695000006"}, "type": "Feature"}
{"dataset_attributes": {"@spider": "usps_collection_boxes"}, "geometry": {"coordinates": [-77.539217573, 41.91943395], "type": "Point"}, "id": "KbyR3yMwP5JUktxY6U6UkhI-D4s=", "properties": {"@spider": "usps_collection_boxes", "addr:city": "WESTFIELD", "addr:country": "US", "addr:full": "103 W MAIN ST", "addr:postcode": "16950", "addr:state": "PA", "amenity": "post_box", "brand": "United States Postal Service", "brand:wikidata": "Q668687", "collection_times": "Mo-Fr 16:30; Sa 12:00", "name": "USPS COLLECTION BOX - PO LOBBY", "note": "ON 12/24 AND 12/31, THIS BOX MAY BE COLLECTED AS EARLY AS 12 NOON.", "nsi_id": "unitedstatespostalservice-a77078", "operator": "United States Postal Service", "operator:short": "USPS", "operator:type": "public", "operator:wikidata": "Q668687", "ref": "1695000008"}, "type": "Feature"}
