{"geometry": {"coordinates": [-76.8762657, 40.263954], "type": "Point"}, "id": "ZyZCQrfu1bMFX0Ys8DB7lC8tMGY=", "properties": {"@source_uri": "https://tools.usps.com/UspsToolsRestServices/rest/POLocator/findLocations", "@spider": "usps_collection_boxes", "addr:city": "HARRISBURG", "addr:country": "US", "addr:postcode": "17101", "addr:state": "PA", "addr:street_address": "815 MARKET ST", "amenity": "post_box", "collection_times": "Mo-Sa 11:45", "nsi_id": "unitedstatespostalservice-a77078", "operator": "United States Postal Service", "operator:short": "USPS", "operator:type": "public", "operator:wikidata": "Q668687", "ref": "1710100001"}, "type": "Feature"}
{"geometry": {"coordinates": [-76.8807719, 40.258175], "type": "Point"}, "id": "jdgAwQnm4fVqhFh-firEqhlgA40=", "properties": {"@source_uri": "https://tools.usps.com/UspsToolsRestServices/rest/POLocator/findLocations", "@spider": "usps_collection_boxes", "addr:city": "HARRISBURG", "addr:country": "US", "addr:postcode": "17101", "addr:state": "PA", "addr:street_address": "100 CHESTNUT ST", "amenity": "post_box", "collection_times": "Mo-Fr 09:00; Sa 08:00", "nsi_id": "unitedstatespostalservice-a77078", "operator": "United States Postal Service", "operator:short": "USPS", "operator:type": "public", "operator:wikidata": "Q668687", "ref": "1710100002"}, "type": "Feature"}
{"geometry": {"coordinates": [-76.8780727, 40.26065], "type": "Point"}, "id": "H3f-5GeEKJRnAE_d2giSZEC23Pk=", "properties": {"@source_uri": "https://tools.usps.com/UspsToolsRestServices/rest/POLocator/findLocations", "@spider": "usps_collection_boxes", "addr:city": "HARRISBURG", "addr:country": "US", "addr:postcode": "17101", "addr:state": "PA", "addr:street_address": "351 CHESTNUT ST", "amenity": "post_box", "collection_times": "Mo-Sa 09:00", "nsi_id": "unitedstatespostalservice-a77078", "operator": "United States Postal Service", "operator:short": "USPS", "operator:type": "public", "operator:wikidata": "Q668687", "ref": "1710100006"}, "type": "Feature"}
{"geometry": {"coordinates": [-76.8785399, 40.259803], "type": "Point"}, "id": "Dj3wLIEC0sNzBwwo50dXaRK4aVg=", "properties": {"@source_uri": "https://tools.usps.com/UspsToolsRestServices/rest/POLocator/findLocations", "@spider": "usps_collection_boxes", "addr:city": "HARRISBURG", "addr:country": "US", "addr:postcode": "17101", "addr:state": "PA", "addr:street_address": "130 S 3RD ST", "amenity": "post_box", "collection_times": "Mo-Fr 09:00; Sa 08:00", "nsi_id": "unitedstatespostalservice-a77078", "operator": "United States Postal Service", "operator:short": "USPS", "operator:type": "public", "operator:wikidata": "Q668687", "ref": "1710100007"}, "type": "Feature"}
{"geometry": {"coordinates": [-76.8830629, 40.259415], "type": "Point"}, "id": "JP1v4PnjXhV5keepJXn6RM1ykL0=", "properties": {"@source_uri": "https://tools.usps.com/UspsToolsRestServices/rest/POLocator/findLocations", "@spider": "usps_collection_boxes", "addr:city": "HARRISBURG", "addr:country": "US", "addr:postcode": "17101", "addr:state": "PA", "addr:street_address": "10 N 2ND ST", "amenity": "post_box", "collection_times": "Mo-Sa 11:30", "nsi_id": "unitedstatespostalservice-a77078", "operator": "United States Postal Service", "operator:short": "USPS", "operator:type": "public", "operator:wikidata": "Q668687", "ref": "1710100008"}, "type": "Feature"}
{"geometry": {"coordinates": [-76.8796644, 40.257391], "type": "Point"}, "id": "LQbWEbeyXkEpohu5seshHJ3n6MY=", "properties": {"@source_uri": "https://tools.usps.com/UspsToolsRestServices/rest/POLocator/findLocations", "@spider": "usps_collection_boxes", "addr:city": "HARRISBURG", "addr:country": "US", "addr:postcode": "17101", "addr:state": "PA", "addr:street_address": "111 S FRONT ST", "amenity": "post_box", "collection_times": "Mo-Fr 09:00; Sa 08:00", "nsi_id": "unitedstatespostalservice-a77078", "operator": "United States Postal Service", "operator:short": "USPS", "operator:type": "public", "operator:wikidata": "Q668687", "ref": "1710100010"}, "type": "Feature"}
{"geometry": {"coordinates": [-76.884259971, 40.260905996], "type": "Point"}, "id": "ic_k0fsRCQroEldVIl14rjzogpI=", "properties": {"@source_uri": "https://tools.usps.com/UspsToolsRestServices/rest/POLocator/findLocations", "@spider": "usps_collection_boxes", "addr:city": "HARRISBURG", "addr:country": "US", "addr:postcode": "17101", "addr:state": "PA", "addr:street_address": "200 N 2ND ST", "amenity": "post_box", "collection_times": "Mo-Fr 10:30; Sa 09:00", "nsi_id": "unitedstatespostalservice-a77078", "operator": "United States Postal Service", "operator:short": "USPS", "operator:type": "public", "operator:wikidata": "Q668687", "ref": "1710100011"}, "type": "Feature"}
{"geometry": {"coordinates": [-76.8833984, 40.260642], "type": "Point"}, "id": "7-JgMJoc_OWhsFeWOXBiXyzfMKs=", "properties": {"@source_uri": "https://tools.usps.com/UspsToolsRestServices/rest/POLocator/findLocations", "@spider": "usps_collection_boxes", "addr:city": "HARRISBURG", "addr:country": "US", "addr:postcode": "17101", "addr:state": "PA", "addr:street_address": "100 N 2ND ST", "amenity": "post_box", "collection_times": "Mo-Fr 09:00; Sa 08:00", "nsi_id": "unitedstatespostalservice-a77078", "operator": "United States Postal Service", "operator:short": "USPS", "operator:type": "public", "operator:wikidata": "Q668687", "ref": "1710100012"}, "type": "Feature"}
{"geometry": {"coordinates": [-76.8862975, 40.262529], "type": "Point"}, "id": "zmKrqL0c-UGGaDQdu3XyJPppR4Y=", "properties": {"@source_uri": "https://tools.usps.com/UspsToolsRestServices/rest/POLocator/findLocations", "@spider": "usps_collection_boxes", "addr:city": "HARRISBURG", "addr:country": "US", "addr:postcode": "17101", "addr:state": "PA", "addr:street_address": "322 N 2ND ST", "amenity": "post_box", "collection_times": "Mo-Fr 11:00; Sa 09:00", "nsi_id": "unitedstatespostalservice-a77078", "operator": "United States Postal Service", "operator:short": "USPS", "operator:type": "public", "operator:wikidata": "Q668687", "ref": "1710100014"}, "type": "Feature"}
{"geometry": {"coordinates": [-76.8765428, 40.264008], "type": "Point"}, "id": "PzOCxKcRC5Ac5KEVDKtxDfa8YVE=", "properties": {"@source_uri": "https://tools.usps.com/UspsToolsRestServices/rest/POLocator/findLocations", "@spider": "usps_collection_boxes", "addr:city": "HARRISBURG", "addr:country": "US", "addr:postcode": "17101", "addr:state": "PA", "addr:street_address": "812 MARKET ST", "amenity": "post_box", "collection_times": "Mo-Fr 11:00; Sa 08:00", "nsi_id": "unitedstatespostalservice-a77078", "operator": "United States Postal Service", "operator:short": "USPS", "operator:type": "public", "operator:wikidata": "Q668687", "ref": "1710100015"}, "type": "Feature"}
{"geometry": {"coordinates": [-76.8867779, 40.26302], "type": "Point"}, "id": "JtEnZ1-3qlWqsA4ccJLdj8fvuB0=", "properties": {"@source_uri": "https://tools.usps.com/UspsToolsRestServices/rest/POLocator/findLocations", "@spider": "usps_collection_boxes", "addr:city": "HARRISBURG", "addr:country": "US", "addr:postcode": "17101", "addr:state": "PA", "addr:street_address": "201 STATE ST", "amenity": "post_box", "collection_times": "Mo-Fr 10:30; Sa 09:00", "nsi_id": "unitedstatespostalservice-a77078", "operator": "United States Postal Service", "operator:short": "USPS", "operator:type": "public", "operator:wikidata": "Q668687", "ref": "1710100018"}, "type": "Feature"}
{"geometry": {"coordinates": [-76.8876079, 40.263651], "type": "Point"}, "id": "TGw0CrbKFLUX94cD01hdK-Mjvps=", "properties": {"@source_uri": "https://tools.usps.com/UspsToolsRestServices/rest/POLocator/findLocations", "@spider": "usps_collection_boxes", "addr:city": "HARRISBURG", "addr:country": "US", "addr:postcode": "17101", "addr:state": "PA", "addr:street_address": "601 N 2ND ST", "amenity": "post_box", "collection_times": "Mo-Sa 11:30", "nsi_id": "unitedstatespostalservice-a77078", "operator": "United States Postal Service", "operator:short": "USPS", "operator:type": "public", "operator:wikidata": "Q668687", "ref": "1710100019"}, "type": "Feature"}
{"geometry": {"coordinates": [-76.8856095, 40.265242], "type": "Point"}, "id": "dVaaZi1_fLStoS5UFaVukuuMyKg=", "properties": {"@source_uri": "https://tools.usps.com/UspsToolsRestServices/rest/POLocator/findLocations", "@spider": "usps_collection_boxes", "addr:city": "HARRISBURG", "addr:country": "US", "addr:postcode": "17101", "addr:state": "PA", "addr:street_address": "700 N 3RD ST", "amenity": "post_box", "collection_times": "Mo-Fr 11:00; Sa 09:00", "nsi_id": "unitedstatespostalservice-a77078", "operator": "United States Postal Service", "operator:short": "USPS", "operator:type": "public", "operator:wikidata": "Q668687", "ref": "1710100021"}, "type": "Feature"}
{"geometry": {"coordinates": [-76.8849715, 40.264133], "type": "Point"}, "id": "2xvAsl_XsUwNEA0uMAoudonjzTY=", "properties": {"@source_uri": "https://tools.usps.com/UspsToolsRestServices/rest/POLocator/findLocations", "@spider": "usps_collection_boxes", "addr:city": "HARRISBURG", "addr:country": "US", "addr:postcode": "17101", "addr:state": "PA", "addr:street_address": "500 N 3RD ST", "amenity": "post_box", "collection_times": "Mo-Fr 11:00; Sa 09:00", "nsi_id": "unitedstatespostalservice-a77078", "operator": "United States Postal Service", "operator:short": "USPS", "operator:type": "public", "operator:wikidata": "Q668687", "ref": "1710100022"}, "type": "Feature"}
{"geometry": {"coordinates": [-76.8847942, 40.263778], "type": "Point"}, "id": "9Rk0J-8B6nR0Bv6w3Cpi53hOXFU=", "properties": {"@source_uri": "https://tools.usps.com/UspsToolsRestServices/rest/POLocator/findLocations", "@spider": "usps_collection_boxes", "addr:city": "HARRISBURG", "addr:country": "US", "addr:postcode": "17101", "addr:state": "PA", "addr:street_address": "450 N 3RD ST", "amenity": "post_box", "collection_times": "Mo-Fr 11:00; Sa 09:00", "nsi_id": "unitedstatespostalservice-a77078", "operator": "United States Postal Service", "operator:short": "USPS", "operator:type": "public", "operator:wikidata": "Q668687", "ref": "1710100023"}, "type": "Feature"}
{"geometry": {"coordinates": [-76.8832871, 40.261386], "type": "Point"}, "id": "ZJPc3tCZ-50WyDcFKqYTNsOo2F4=", "properties": {"@source_uri": "https://tools.usps.com/UspsToolsRestServices/rest/POLocator/findLocations", "@spider": "usps_collection_boxes", "addr:city": "HARRISBURG", "addr:country": "US", "addr:postcode": "17101", "addr:state": "PA", "addr:street_address": "212 LOCUST ST", "amenity": "post_box", "collection_times": "Mo-Fr 11:00; Sa 09:00", "nsi_id": "unitedstatespostalservice-a77078", "operator": "United States Postal Service", "operator:short": "USPS", "operator:type": "public", "operator:wikidata": "Q668687", "ref": "1710100027"}, "type": "Feature"}
{"geometry": {"coordinates": [-76.8842364, 40.259476], "type": "Point"}, "id": "1O5yBt7_owPOh2gdvCx2Fa-dOaA=", "properties": {"@source_uri": "https://tools.usps.com/UspsToolsRestServices/rest/POLocator/findLocations", "@spider": "usps_collection_boxes", "addr:city": "HARRISBURG", "addr:country": "US", "addr:postcode": "17101", "addr:state": "PA", "addr:street_address": "102 WALNUT ST", "amenity": "post_box", "collection_times": "Mo-Fr 14:30; Sa 08:00", "note": "ON 12/24 AND 12/31, THIS BOX MAY BE COLLECTED AS EARLY AS 12 NOON.", "nsi_id": "unitedstatespostalservice-a77078", "operator": "United States Postal Service", "operator:short": "USPS", "operator:type": "public", "operator:wikidata": "Q668687", "ref": "1710100029"}, "type": "Feature"}
{"geometry": {"coordinates": [-76.879397, 40.262397], "type": "Point"}, "id": "QaD0KUi7GUpGf36aidKnK7tA7Jw=", "properties": {"@source_uri": "https://tools.usps.com/UspsToolsRestServices/rest/POLocator/findLocations", "@spider": "usps_collection_boxes", "addr:city": "HARRISBURG", "addr:country": "US", "addr:postcode": "17101", "addr:state": "PA", "addr:street_address": "400 MARKET ST", "amenity": "post_box", "collection_times": "Mo-Sa 09:00", "nsi_id": "unitedstatespostalservice-a77078", "operator": "United States Postal Service", "operator:short": "USPS", "operator:type": "public", "operator:wikidata": "Q668687", "ref": "1710100030"}, "type": "Feature"}
{"geometry": {"coordinates": [-76.8802517, 40.261431], "type": "Point"}, "id": "28osDhyVPJ2jvuG-rH1_cPiW5GA=", "properties": {"@source_uri": "https://tools.usps.com/UspsToolsRestServices/rest/POLocator/findLocations", "@spider": "usps_collection_boxes", "addr:city": "HARRISBURG", "addr:country": "US", "addr:postcode": "17101", "addr:state": "PA", "addr:street_address": "333 MARKET ST", "amenity": "post_box", "collection_times": "Mo-Sa 11:45", "nsi_id": "unitedstatespostalservice-a77078", "operator": "United States Postal Service", "operator:short": "USPS", "operator:type": "public", "operator:wikidata": "Q668687", "ref": "1710100032"}, "type": "Feature"}
{"geometry": {"coordinates": [-76.8812316, 40.262812], "type": "Point"}, "id": "sqNIRbAzY9Z0CwVT8Pgh26PQNsU=", "properties": {"@source_uri": "https://tools.usps.com/UspsToolsRestServices/rest/POLocator/findLocations", "@spider": "usps_collection_boxes", "addr:city": "HARRISBURG", "addr:country": "US", "addr:postcode": "17101", "addr:state": "PA", "addr:street_address": "401 WALNUT ST", "amenity": "post_box", "collection_times": "Mo-Fr 11:00; Sa 09:00", "nsi_id": "unitedstatespostalservice-a77078", "operator": "United States Postal Service", "operator:short": "USPS", "operator:type": "public", "operator:wikidata": "Q668687", "ref": "1710100033"}, "type": "Feature"}
{"geometry": {"coordinates": [-76.8882741, 40.262407], "type": "Point"}, "id": "UFJ4-9dKsjkUXfwdsNIqymFPk5g=", "properties": {"@source_uri": "https://tools.usps.com/UspsToolsRestServices/rest/POLocator/findLocations", "@spider": "usps_collection_boxes", "addr:city": "HARRISBURG", "addr:country": "US", "addr:postcode": "17101", "addr:state": "PA", "addr:street_address": "101 STATE ST", "amenity": "post_box", "collection_times": "Mo-Sa 09:00", "nsi_id": "unitedstatespostalservice-a77078", "operator": "United States Postal Service", "operator:short": "USPS", "operator:type": "public", "operator:wikidata": "Q668687", "ref": "1710100034"}, "type": "Feature"}
{"geometry": {"coordinates": [-76.8851155, 40.261915], "type": "Point"}, "id": "-875FwkI7By3Yn8qrclzQAr8UQg=", "properties": {"@source_uri": "https://tools.usps.com/UspsToolsRestServices/rest/POLocator/findLocations", "@spider": "usps_collection_boxes", "addr:city": "HARRISBURG", "addr:country": "US", "addr:postcode": "17101", "addr:state": "PA", "addr:street_address": "235 N 2ND ST", "amenity": "post_box", "collection_times": "Mo-Fr 10:30; Sa 09:00", "nsi_id": "unitedstatespostalservice-a77078", "operator": "United States Postal Service", "operator:short": "USPS", "operator:type": "public", "operator:wikidata": "Q668687", "ref": "1710100038"}, "type": "Feature"}
{"geometry": {"coordinates": [-76.8789644, 40.260145], "type": "Point"}, "id": "UVJkYTnk8uiqxvC7aQZ6Eqf-n2M=", "properties": {"@source_uri": "https://tools.usps.com/UspsToolsRestServices/rest/POLocator/findLocations", "@spider": "usps_collection_boxes", "addr:city": "HARRISBURG", "addr:country": "US", "addr:postcode": "17101", "addr:state": "PA", "addr:street_address": "301 CHESTNUT ST", "amenity": "post_box", "collection_times": "Mo-Fr 09:00; Sa 08:00", "nsi_id": "unitedstatespostalservice-a77078", "operator": "United States Postal Service", "operator:short": "USPS", "operator:type": "public", "operator:wikidata": "Q668687", "ref": "1710100042"}, "type": "Feature"}
{"geometry": {"coordinates": [-76.8832323, 40.259333], "type": "Point"}, "id": "Nny1oFW1uhcVPN17A2FBPskb7Mg=", "properties": {"@source_uri": "https://tools.usps.com/UspsToolsRestServices/rest/POLocator/findLocations", "@spider": "usps_collection_boxes", "addr:city": "HARRISBURG", "addr:country": "US", "addr:postcode": "17101", "addr:state": "PA", "addr:street_address": "10 N 2ND ST", "amenity": "post_box", "collection_times": "Mo-Sa 11:30", "nsi_id": "unitedstatespostalservice-a77078", "operator": "United States Postal Service", "operator:short": "USPS", "operator:type": "public", "operator:wikidata": "Q668687", "ref": "1710100043"}, "type": "Feature"}
{"geometry": {"coordinates": [-76.8783839, 40.261827], "type": "Point"}, "id": "ZRSyl9bvPjXHlvujZIA2RaPlVwc=", "properties": {"@source_uri": "https://tools.usps.com/UspsToolsRestServices/rest/POLocator/findLocations", "@spider": "usps_collection_boxes", "addr:city": "HARRISBURG", "addr:country": "US", "addr:postcode": "17101", "addr:state": "PA", "addr:street_address": "415 MARKET ST", "amenity": "post_box", "collection_times": "Mo-Sa 09:00", "nsi_id": "unitedstatespostalservice-a77078", "operator": "United States Postal Service", "operator:short": "USPS", "operator:type": "public", "operator:wikidata": "Q668687", "ref": "1710100044"}, "type": "Feature"}
{"geometry": {"coordinates": [-76.8848982, 40.264129], "type": "Point"}, "id": "rLZPhC_iFhemQaFeNuP_USkzHwQ=", "properties": {"@source_uri": "https://tools.usps.com/UspsToolsRestServices/rest/POLocator/findLocations", "@spider": "usps_collection_boxes", "addr:city": "HARRISBURG", "addr:country": "US", "addr:postcode": "17101", "addr:state": "PA", "addr:street_address": "500 N 3RD ST", "amenity": "post_box", "collection_times": "Mo-Fr 11:00; Sa 09:00", "name": "USPS COLLECTION BOX - EXPRESS", "nsi_id": "unitedstatespostalservice-a77078", "operator": "United States Postal Service", "operator:short": "USPS", "operator:type": "public", "operator:wikidata": "Q668687", "ref": "1710100046"}, "type": "Feature"}
{"geometry": {"coordinates": [-76.8856959, 40.265211], "type": "Point"}, "id": "72C5FUqsXQheFs-2qG__o7yyYyo=", "properties": {"@source_uri": "https://tools.usps.com/UspsToolsRestServices/rest/POLocator/findLocations", "@spider": "usps_collection_boxes", "addr:city": "HARRISBURG", "addr:country": "US", "addr:postcode": "17101", "addr:state": "PA", "addr:street_address": "700 N 3RD ST", "amenity": "post_box", "collection_times": "Mo-Fr 11:00; Sa 09:00", "name": "USPS COLLECTION BOX - EXPRESS", "nsi_id": "unitedstatespostalservice-a77078", "operator": "United States Postal Service", "operator:short": "USPS", "operator:type": "public", "operator:wikidata": "Q668687", "ref": "1710100047"}, "type": "Feature"}
{"geometry": {"coordinates": [-76.8824808, 40.261375], "type": "Point"}, "id": "nQqoHR3aeyD5uFoEwM_nvtrsgY8=", "properties": {"@source_uri": "https://tools.usps.com/UspsToolsRestServices/rest/POLocator/findLocations", "@spider": "usps_collection_boxes", "addr:city": "HARRISBURG", "addr:country": "US", "addr:postcode": "17101", "addr:state": "PA", "addr:street_address": "228 WALNUT ST", "amenity": "post_box", "collection_times": "Mo-Sa 11:30", "nsi_id": "unitedstatespostalservice-a77078", "operator": "United States Postal Service", "operator:short": "USPS", "operator:type": "public", "operator:wikidata": "Q668687", "ref": "1710100048"}, "type": "Feature"}
{"geometry": {"coordinates": [-76.8806496, 40.260906], "type": "Point"}, "id": "5a4_TY1MUH1FZ3nwhh3YYW-kSRg=", "properties": {"@source_uri": "https://tools.usps.com/UspsToolsRestServices/rest/POLocator/findLocations", "@spider": "usps_collection_boxes", "addr:city": "HARRISBURG", "addr:country": "US", "addr:postcode": "17101", "addr:state": "PA", "addr:street_address": "1 S 3RD ST", "amenity": "post_box", "collection_times": "Mo-Sa 11:45", "nsi_id": "unitedstatespostalservice-a77078", "operator": "United States Postal Service", "operator:short": "USPS", "operator:type": "public", "operator:wikidata": "Q668687", "ref": "1710100052"}, "type": "Feature"}
{"geometry": {"coordinates": [-76.888286, 40.262408], "type": "Point"}, "id": "IENLWVZAIFlfYLB8-MaUj5Mvzdk=", "properties": {"@source_uri": "https://tools.usps.com/UspsToolsRestServices/rest/POLocator/findLocations", "@spider": "usps_collection_boxes", "addr:city": "HARRISBURG", "addr:country": "US", "addr:postcode": "17101", "addr:state": "PA", "addr:street_address": "101 STATE ST", "amenity": "post_box", "collection_times": "Mo-Sa 09:00", "nsi_id": "unitedstatespostalservice-a77078", "operator": "United States Postal Service", "operator:short": "USPS", "operator:type": "public", "operator:wikidata": "Q668687", "ref": "1710100055"}, "type": "Feature"}
{"geometry": {"coordinates": [-76.8882663, 40.262402], "type": "Point"}, "id": "5U6dHLoAdn6ySEzaZepqQvZXB-U=", "properties": {"@source_uri": "https://tools.usps.com/UspsToolsRestServices/rest/POLocator/findLocations", "@spider": "usps_collection_boxes", "addr:city": "HARRISBURG", "addr:country": "US", "addr:postcode": "17101", "addr:state": "PA", "addr:street_address": "101 STATE ST", "amenity": "post_box", "collection_times": "Mo-Sa 09:00", "name": "USPS COLLECTION BOX - EXPRESS", "nsi_id": "unitedstatespostalservice-a77078", "operator": "United States Postal Service", "operator:short": "USPS", "operator:type": "public", "operator:wikidata": "Q668687", "ref": "1710100056"}, "type": "Feature"}
{"geometry": {"coordinates": [-76.889602202, 40.263834851], "type": "Point"}, "id": "v0XT3cYVQvV4jfQYUSM1GpLMmSc=", "properties": {"@source_uri": "https://tools.usps.com/UspsToolsRestServices/rest/POLocator/findLocations", "@spider": "usps_collection_boxes", "addr:city": "HARRISBURG", "addr:country": "US", "addr:postcode": "17101", "addr:state": "PA", "addr:street_address": "701 N FRONT ST", "amenity": "post_box", "collection_times": "Mo-Sa 09:00", "nsi_id": "unitedstatespostalservice-a77078", "operator": "United States Postal Service", "operator:short": "USPS", "operator:type": "public", "operator:wikidata": "Q668687", "ref": "1710100057"}, "type": "Feature"}
{"geometry": {"coordinates": [-76.8859222, 40.261415], "type": "Point"}, "id": "gHhhXq22dohO5RYbqpnXRvJBIus=", "properties": {"@source_uri": "https://tools.usps.com/UspsToolsRestServices/rest/POLocator/findLocations", "@spider": "usps_collection_boxes", "addr:city": "HARRISBURG", "addr:country": "US", "addr:postcode": "17101", "addr:state": "PA", "addr:street_address": "100 PINE ST", "amenity": "post_box", "collection_times": "Mo-Sa 11:45", "nsi_id": "unitedstatespostalservice-a77078", "operator": "United States Postal Service", "operator:short": "USPS", "operator:type": "public", "operator:wikidata": "Q668687", "ref": "1710100058"}, "type": "Feature"}
{"geometry": {"coordinates": [-76.8859456, 40.261422], "type": "Point"}, "id": "ZesikxsyaTtWWHkt_qC5t7y4TKA=", "properties": {"@source_uri": "https://tools.usps.com/UspsToolsRestServices/rest/POLocator/findLocations", "@spider": "usps_collection_boxes", "addr:city": "HARRISBURG", "addr:country": "US", "addr:postcode": "17101", "addr:state": "PA", "addr:street_address": "100 PINE ST", "amenity": "post_box", "collection_times": "Mo-Sa 11:45", "nsi_id": "unitedstatespostalservice-a77078", "operator": "United States Postal Service", "operator:short": "USPS", "operator:type": "public", "operator:wikidata": "Q668687", "ref": "1710100065"}, "type": "Feature"}
{"geometry": {"coordinates": [-76.8850959, 40.261929], "type": "Point"}, "id": "tjr3d5fXu4sO-VuJGymqm7Qx04o=", "properties": {"@source_uri": "https://tools.usps.com/UspsToolsRestServices/rest/POLocator/findLocations", "@spider": "usps_collection_boxes", "addr:city": "HARRISBURG", "addr:country": "US", "addr:postcode": "17101", "addr:state": "PA", "addr:street_address": "235 N 2ND ST", "amenity": "post_box", "collection_times": "Mo-Sa 11:15", "name": "USPS COLLECTION BOX - EXPRESS", "nsi_id": "unitedstatespostalservice-a77078", "operator": "United States Postal Service", "operator:short": "USPS", "operator:type": "public", "operator:wikidata": "Q668687", "ref": "1710100066"}, "type": "Feature"}
{"geometry": {"coordinates": [-76.8806449, 40.26097], "type": "Point"}, "id": "TJUTKwngdSNgC5vpNs7WNEKRVJ8=", "properties": {"@source_uri": "https://tools.usps.com/UspsToolsRestServices/rest/POLocator/findLocations", "@spider": "usps_collection_boxes", "addr:city": "HARRISBURG", "addr:country": "US", "addr:postcode": "17101", "addr:state": "PA", "addr:street_address": "1 S 3RD ST", "amenity": "post_box", "collection_times": "Mo-Sa 11:45", "name": "USPS COLLECTION BOX - EXPRESS", "nsi_id": "unitedstatespostalservice-a77078", "operator": "United States Postal Service", "operator:short": "USPS", "operator:type": "public", "operator:wikidata": "Q668687", "ref": "1710100068"}, "type": "Feature"}
{"geometry": {"coordinates": [-76.8822668, 40.259104], "type": "Point"}, "id": "57NfmGAMJTR92ZvJUYBAOAgS3_Q=", "properties": {"@source_uri": "https://tools.usps.com/UspsToolsRestServices/rest/POLocator/findLocations", "@spider": "usps_collection_boxes", "addr:city": "HARRISBURG", "addr:country": "US", "addr:postcode": "17101", "addr:state": "PA", "addr:street_address": "10 S MARKET SQ", "amenity": "post_box", "collection_times": "Mo-Fr 11:00", "name": "USPS COLLECTION BOX - EXPRESS", "nsi_id": "unitedstatespostalservice-a77078", "operator": "United States Postal Service", "operator:short": "USPS", "operator:type": "public", "operator:wikidata": "Q668687", "ref": "1710100069"}, "type": "Feature"}
{"geometry": {"coordinates": [-76.8813030035, 40.2613849799], "type": "Point"}, "id": "9gOETvVa41TZWDfBNsqRcGG3OJE=", "properties": {"@source_uri": "https://tools.usps.com/UspsToolsRestServices/rest/POLocator/findLocations", "@spider": "usps_collection_boxes", "addr:city": "HARRISBURG", "addr:country": "US", "addr:postcode": "17101", "addr:state": "PA", "addr:street_address": "11 N 3RD ST", "amenity": "post_box", "collection_times": "Mo-Fr 09:00; Sa 08:00", "nsi_id": "unitedstatespostalservice-a77078", "operator": "United States Postal Service", "operator:short": "USPS", "operator:type": "public", "operator:wikidata": "Q668687", "ref": "1710100071"}, "type": "Feature"}
{"geometry": {"coordinates": [-76.8813030035, 40.2613849799], "type": "Point"}, "id": "8i1t_SCRUd33nEJaOsLFiEvUtP8=", "properties": {"@source_uri": "https://tools.usps.com/UspsToolsRestServices/rest/POLocator/findLocations", "@spider": "usps_collection_boxes", "addr:city": "HARRISBURG", "addr:country": "US", "addr:postcode": "17101", "addr:state": "PA", "addr:street_address": "11 N 3RD ST", "amenity": "post_box", "collection_times": "Mo-Fr 09:00; Sa 08:00", "name": "USPS COLLECTION BOX - EXPRESS", "nsi_id": "unitedstatespostalservice-a77078", "operator": "United States Postal Service", "operator:short": "USPS", "operator:type": "public", "operator:wikidata": "Q668687", "ref": "1710100072"}, "type": "Feature"}
{"geometry": {"coordinates": [-76.8822352, 40.259072], "type": "Point"}, "id": "vCS_xmXXYuyWALDAgTMKKjLg_7s=", "properties": {"@source_uri": "https://tools.usps.com/UspsToolsRestServices/rest/POLocator/findLocations", "@spider": "usps_collection_boxes", "addr:city": "HARRISBURG", "addr:country": "US", "addr:postcode": "17101", "addr:state": "PA", "addr:street_address": "10 S MARKET SQ", "amenity": "post_box", "collection_times": "Mo-Fr 11:00", "nsi_id": "unitedstatespostalservice-a77078", "operator": "United States Postal Service", "operator:short": "USPS", "operator:type": "public", "operator:wikidata": "Q668687", "ref": "1710100076"}, "type": "Feature"}
{"geometry": {"coordinates": [-76.8806342, 40.260945], "type": "Point"}, "id": "nJBEk3gZUg-ezv5F43JoapMO63s=", "properties": {"@source_uri": "https://tools.usps.com/UspsToolsRestServices/rest/POLocator/findLocations", "@spider": "usps_collection_boxes", "addr:city": "HARRISBURG", "addr:country": "US", "addr:postcode": "17101", "addr:state": "PA", "addr:street_address": "1 S 3RD ST", "amenity": "post_box", "collection_times": "Mo-Fr 11:45; Sa 09:00", "nsi_id": "unitedstatespostalservice-a77078", "operator": "United States Postal Service", "operator:short": "USPS", "operator:type": "public", "operator:wikidata": "Q668687", "ref": "1710100079"}, "type": "Feature"}
{"geometry": {"coordinates": [-76.8812889, 40.260156], "type": "Point"}, "id": "CEAq7UBax9e0fwLEcKYRX5g8Q6Q=", "properties": {"@source_uri": "https://tools.usps.com/UspsToolsRestServices/rest/POLocator/findLocations", "@spider": "usps_collection_boxes", "addr:city": "HARRISBURG", "addr:country": "US", "addr:postcode": "17101", "addr:state": "PA", "addr:street_address": "213 MARKET ST", "amenity": "post_box", "collection_times": "Mo-Fr 11:30", "nsi_id": "unitedstatespostalservice-a77078", "operator": "United States Postal Service", "operator:short": "USPS", "operator:type": "public", "operator:wikidata": "Q668687", "ref": "1710100082"}, "type": "Feature"}
{"geometry": {"coordinates": [-76.8825131, 40.26142], "type": "Point"}, "id": "P8FS_DpEH1oOITc74hUIl2rcJdE=", "properties": {"@source_uri": "https://tools.usps.com/UspsToolsRestServices/rest/POLocator/findLocations", "@spider": "usps_collection_boxes", "addr:city": "HARRISBURG", "addr:country": "US", "addr:postcode": "17101", "addr:state": "PA", "addr:street_address": "228 WALNUT ST", "amenity": "post_box", "collection_times": "Mo-Sa 11:30", "nsi_id": "unitedstatespostalservice-a77078", "operator": "United States Postal Service", "operator:short": "USPS", "operator:type": "public", "operator:wikidata": "Q668687", "ref": "1710100085"}, "type": "Feature"}
{"geometry": {"coordinates": [-76.8859287, 40.261412], "type": "Point"}, "id": "5x3Eenstvd94cy_mfHdLdkkj_fs=", "properties": {"@source_uri": "https://tools.usps.com/UspsToolsRestServices/rest/POLocator/findLocations", "@spider": "usps_collection_boxes", "addr:city": "HARRISBURG", "addr:country": "US", "addr:postcode": "17101", "addr:state": "PA", "addr:street_address": "100 PINE ST", "amenity": "post_box", "collection_times": "Mo-Sa 11:45", "nsi_id": "unitedstatespostalservice-a77078", "operator": "United States Postal Service", "operator:short": "USPS", "operator:type": "public", "operator:wikidata": "Q668687", "ref": "1710100093"}, "type": "Feature"}
{"geometry": {"coordinates": [-76.8802812, 40.261432], "type": "Point"}, "id": "C_SCVHl6y8Bmpvb8b7WKe7oYsfY=", "properties": {"@source_uri": "https://tools.usps.com/UspsToolsRestServices/rest/POLocator/findLocations", "@spider": "usps_collection_boxes", "addr:city": "HARRISBURG", "addr:country": "US", "addr:postcode": "17101", "addr:state": "PA", "addr:street_address": "333 MARKET ST", "amenity": "post_box", "collection_times": "Mo-Sa 11:45", "nsi_id": "unitedstatespostalservice-a77078", "operator": "United States Postal Service", "operator:short": "USPS", "operator:type": "public", "operator:wikidata": "Q668687", "ref": "1710100096"}, "type": "Feature"}
{"geometry": {"coordinates": [-76.8762649, 40.263951], "type": "Point"}, "id": "aPP2bRjnzGKWJ8jQnFBEx-uLclU=", "properties": {"@source_uri": "https://tools.usps.com/UspsToolsRestServices/rest/POLocator/findLocations", "@spider": "usps_collection_boxes", "addr:city": "HARRISBURG", "addr:country": "US", "addr:postcode": "17101", "addr:state": "PA", "addr:street_address": "815 MARKET ST", "amenity": "post_box", "collection_times": "Mo-Sa 11:45", "name": "USPS COLLECTION BOX - EXPRESS", "nsi_id": "unitedstatespostalservice-a77078", "operator": "United States Postal Service", "operator:short": "USPS", "operator:type": "public", "operator:wikidata": "Q668687", "ref": "1710100097"}, "type": "Feature"}
{"geometry": {"coordinates": [-76.8855977, 40.269968], "type": "Point"}, "id": "6IDejKV19xbe5pCdU33x1-JwymU=", "properties": {"@source_uri": "https://tools.usps.com/UspsToolsRestServices/rest/POLocator/findLocations", "@spider": "usps_collection_boxes", "addr:city": "HARRISBURG", "addr:country": "US", "addr:postcode": "17102", "addr:state": "PA", "addr:street_address": "1201 N 6TH ST", "amenity": "post_box", "collection_times": "Mo-Sa 09:00", "nsi_id": "unitedstatespostalservice-a77078", "operator": "United States Postal Service", "operator:short": "USPS", "operator:type": "public", "operator:wikidata": "Q668687", "ref": "1710200005"}, "type": "Feature"}
{"geometry": {"coordinates": [-76.8861899, 40.267925], "type": "Point"}, "id": "_A2GPMUQ7rxhHdDoDAHdkwLReQk=", "properties": {"@source_uri": "https://tools.usps.com/UspsToolsRestServices/rest/POLocator/findLocations", "@spider": "usps_collection_boxes", "addr:city": "HARRISBURG", "addr:country": "US", "addr:postcode": "17102", "addr:state": "PA", "addr:street_address": "400 BOAS ST", "amenity": "post_box", "collection_times": "Mo-Fr 11:00; Sa 09:00", "nsi_id": "unitedstatespostalservice-a77078", "operator": "United States Postal Service", "operator:short": "USPS", "operator:type": "public", "operator:wikidata": "Q668687", "ref": "1710200012"}, "type": "Feature"}
{"geometry": {"coordinates": [-76.8890382, 40.267377], "type": "Point"}, "id": "leANyS7BSJV_Qq7N48bZIyYOzJ8=", "properties": {"@source_uri": "https://tools.usps.com/UspsToolsRestServices/rest/POLocator/findLocations", "@spider": "usps_collection_boxes", "addr:city": "HARRISBURG", "addr:country": "US", "addr:postcode": "17102", "addr:state": "PA", "addr:street_address": "1022 GREEN ST", "amenity": "post_box", "collection_times": "Mo-Sa 09:00", "nsi_id": "unitedstatespostalservice-a77078", "operator": "United States Postal Service", "operator:short": "USPS", "operator:type": "public", "operator:wikidata": "Q668687", "ref": "1710200015"}, "type": "Feature"}
{"geometry": {"coordinates": [-76.8887817, 40.277113], "type": "Point"}, "id": "4VN7xABgi_GGhd21bWsn6SZJBsg=", "properties": {"@source_uri": "https://tools.usps.com/UspsToolsRestServices/rest/POLocator/findLocations", "@spider": "usps_collection_boxes", "addr:city": "HARRISBURG", "addr:country": "US", "addr:postcode": "17102", "addr:state": "PA", "addr:street_address": "1800 N 6TH ST", "amenity": "post_box", "collection_times": "Mo-Sa 09:00", "nsi_id": "unitedstatespostalservice-a77078", "operator": "United States Postal Service", "operator:short": "USPS", "operator:type": "public", "operator:wikidata": "Q668687", "ref": "1710200022"}, "type": "Feature"}
{"geometry": {"coordinates": [-76.8907079, 40.272135], "type": "Point"}, "id": "P3nYEdv6hXKEZHOcS2Eih70-BRM=", "properties": {"@source_uri": "https://tools.usps.com/UspsToolsRestServices/rest/POLocator/findLocations", "@spider": "usps_collection_boxes", "addr:city": "HARRISBURG", "addr:country": "US", "addr:postcode": "17102", "addr:state": "PA", "addr:street_address": "1519 N 3RD ST", "amenity": "post_box", "collection_times": "Mo-Fr 09:00; Sa 11:00", "nsi_id": "unitedstatespostalservice-a77078", "operator": "United States Postal Service", "operator:short": "USPS", "operator:type": "public", "operator:wikidata": "Q668687", "ref": "1710200025"}, "type": "Feature"}
{"geometry": {"coordinates": [-76.8892905, 40.2655], "type": "Point"}, "id": "nhhFd4yi59hUCOng3a8E1eu3C30=", "properties": {"@source_uri": "https://tools.usps.com/UspsToolsRestServices/rest/POLocator/findLocations", "@spider": "usps_collection_boxes", "addr:city": "HARRISBURG", "addr:country": "US", "addr:postcode": "17102", "addr:state": "PA", "addr:street_address": "901 N 2ND ST", "amenity": "post_box", "collection_times": "Mo-Fr 11:00; Sa 09:00", "nsi_id": "unitedstatespostalservice-a77078", "operator": "United States Postal Service", "operator:short": "USPS", "operator:type": "public", "operator:wikidata": "Q668687", "ref": "1710200027"}, "type": "Feature"}
{"geometry": {"coordinates": [-76.8934969962, 40.2717430006], "type": "Point"}, "id": "Km6RjcfFd2zq5zxDXEdiAVDOT2A=", "properties": {"@source_uri": "https://tools.usps.com/UspsToolsRestServices/rest/POLocator/findLocations", "@spider": "usps_collection_boxes", "addr:city": "HARRISBURG", "addr:country": "US", "addr:postcode": "17102", "addr:state": "PA", "addr:street_address": "1531 N 2ND ST", "amenity": "post_box", "collection_times": "Mo-Sa 09:00", "nsi_id": "unitedstatespostalservice-a77078", "operator": "United States Postal Service", "operator:short": "USPS", "operator:type": "public", "operator:wikidata": "Q668687", "ref": "1710200029"}, "type": "Feature"}
{"geometry": {"coordinates": [-76.8906943, 40.267486], "type": "Point"}, "id": "wHlmxXK-i0XZV00Vf3anGmER5l8=", "properties": {"@source_uri": "https://tools.usps.com/UspsToolsRestServices/rest/POLocator/findLocations", "@spider": "usps_collection_boxes", "addr:city": "HARRISBURG", "addr:country": "US", "addr:postcode": "17102", "addr:state": "PA", "addr:street_address": "1117 N 2ND ST", "amenity": "post_box", "collection_times": "Mo-Sa 09:00", "nsi_id": "unitedstatespostalservice-a77078", "operator": "United States Postal Service", "operator:short": "USPS", "operator:type": "public", "operator:wikidata": "Q668687", "ref": "1710200030"}, "type": "Feature"}
{"geometry": {"coordinates": [-76.8861419, 40.26588], "type": "Point"}, "id": "73FiIxcFfHmfXNn8tvoKvzc0tM0=", "properties": {"@source_uri": "https://tools.usps.com/UspsToolsRestServices/rest/POLocator/findLocations", "@spider": "usps_collection_boxes", "addr:city": "HARRISBURG", "addr:country": "US", "addr:postcode": "17102", "addr:state": "PA", "addr:street_address": "800 N 3RD ST", "amenity": "post_box", "collection_times": "Mo-Sa 09:00", "nsi_id": "unitedstatespostalservice-a77078", "operator": "United States Postal Service", "operator:short": "USPS", "operator:type": "public", "operator:wikidata": "Q668687", "ref": "1710200032"}, "type": "Feature"}
{"geometry": {"coordinates": [-76.8830104, 40.270511], "type": "Point"}, "id": "Wdz3oVSMXLK0R1veCFQlIEjGRd4=", "properties": {"@source_uri": "https://tools.usps.com/UspsToolsRestServices/rest/POLocator/findLocations", "@spider": "usps_collection_boxes", "addr:city": "HARRISBURG", "addr:country": "US", "addr:postcode": "17102", "addr:state": "PA", "addr:street_address": "1010 N 7TH ST", "amenity": "post_box", "collection_times": "Mo-Sa 09:00", "nsi_id": "unitedstatespostalservice-a77078", "operator": "United States Postal Service", "operator:short": "USPS", "operator:type": "public", "operator:wikidata": "Q668687", "ref": "1710200035"}, "type": "Feature"}
{"geometry": {"coordinates": [-76.8957444, 40.272435], "type": "Point"}, "id": "r70qdQ7RP4mJpVMfgwg2WS1Oq6g=", "properties": {"@source_uri": "https://tools.usps.com/UspsToolsRestServices/rest/POLocator/findLocations", "@spider": "usps_collection_boxes", "addr:city": "HARRISBURG", "addr:country": "US", "addr:postcode": "17102", "addr:state": "PA", "addr:street_address": "1631 N FRONT ST", "amenity": "post_box", "collection_times": "Mo-Sa 09:00", "nsi_id": "unitedstatespostalservice-a77078", "operator": "United States Postal Service", "operator:short": "USPS", "operator:type": "public", "operator:wikidata": "Q668687", "ref": "1710200037"}, "type": "Feature"}
{"geometry": {"coordinates": [-76.8967596, 40.273755], "type": "Point"}, "id": "uVgLs_3dEwp1RT7fUm4WjG4OJZg=", "properties": {"@source_uri": "https://tools.usps.com/UspsToolsRestServices/rest/POLocator/findLocations", "@spider": "usps_collection_boxes", "addr:city": "HARRISBURG", "addr:country": "US", "addr:postcode": "17102", "addr:state": "PA", "addr:street_address": "1801 N FRONT ST", "amenity": "post_box", "collection_times": "Mo-Sa 09:00", "nsi_id": "unitedstatespostalservice-a77078", "operator": "United States Postal Service", "operator:short": "USPS", "operator:type": "public", "operator:wikidata": "Q668687", "ref": "1710200039"}, "type": "Feature"}
{"geometry": {"coordinates": [-76.8936929, 40.270282], "type": "Point"}, "id": "ZtGQHRSZ3fp8bjPoeP0I3K_4Duk=", "properties": {"@source_uri": "https://tools.usps.com/UspsToolsRestServices/rest/POLocator/findLocations", "@spider": "usps_collection_boxes", "addr:city": "HARRISBURG", "addr:country": "US", "addr:postcode": "17102", "addr:state": "PA", "addr:street_address": "1501 N FRONT ST", "amenity": "post_box", "collection_times": "Mo-Sa 09:00", "nsi_id": "unitedstatespostalservice-a77078", "operator": "United States Postal Service", "operator:short": "USPS", "operator:type": "public", "operator:wikidata": "Q668687", "ref": "1710200040"}, "type": "Feature"}
{"geometry": {"coordinates": [-76.8829959, 40.270497], "type": "Point"}, "id": "VBtOpJqmUKyRQ1Ex_oK50qgM_ok=", "properties": {"@source_uri": "https://tools.usps.com/UspsToolsRestServices/rest/POLocator/findLocations", "@spider": "usps_collection_boxes", "addr:city": "HARRISBURG", "addr:country": "US", "addr:postcode": "17102", "addr:state": "PA", "addr:street_address": "1010 N 7TH ST", "amenity": "post_box", "collection_times": "Mo-Sa 09:00", "name": "USPS COLLECTION BOX - EXPRESS", "nsi_id": "unitedstatespostalservice-a77078", "operator": "United States Postal Service", "operator:short": "USPS", "operator:type": "public", "operator:wikidata": "Q668687", "ref": "1710200043"}, "type": "Feature"}
{"geometry": {"coordinates": [-76.8981854, 40.276595], "type": "Point"}, "id": "AOam-tPs0WTyJBDC1e8K2wQp-JA=", "properties": {"@source_uri": "https://tools.usps.com/UspsToolsRestServices/rest/POLocator/findLocations", "@spider": "usps_collection_boxes", "addr:city": "HARRISBURG", "addr:country": "US", "addr:postcode": "17102", "addr:state": "PA", "addr:street_address": "2001 N FRONT ST", "amenity": "post_box", "collection_times": "Mo-Fr 09:00", "nsi_id": "unitedstatespostalservice-a77078", "operator": "United States Postal Service", "operator:short": "USPS", "operator:type": "public", "operator:wikidata": "Q668687", "ref": "1710200048"}, "type": "Feature"}
{"geometry": {"coordinates": [-76.8665349, 40.271312], "type": "Point"}, "id": "2cY_9njB_kd2YOji9Z3f43aARvI=", "properties": {"@source_uri": "https://tools.usps.com/UspsToolsRestServices/rest/POLocator/findLocations", "@spider": "usps_collection_boxes", "addr:city": "HARRISBURG", "addr:country": "US", "addr:postcode": "17103", "addr:state": "PA", "addr:street_address": "499 N 17TH ST", "amenity": "post_box", "collection_times": "Mo-Fr 09:00; Sa 08:00", "nsi_id": "unitedstatespostalservice-a77078", "operator": "United States Postal Service", "operator:short": "USPS", "operator:type": "public", "operator:wikidata": "Q668687", "ref": "1710300005"}, "type": "Feature"}
{"geometry": {"coordinates": [-76.8648505, 40.267352], "type": "Point"}, "id": "hu9yRBW0uRpKFK9iDpiOoaCEAhg=", "properties": {"@source_uri": "https://tools.usps.com/UspsToolsRestServices/rest/POLocator/findLocations", "@spider": "usps_collection_boxes", "addr:city": "HARRISBURG", "addr:country": "US", "addr:postcode": "17103", "addr:state": "PA", "addr:street_address": "1654 MARKET ST", "amenity": "post_box", "collection_times": "Mo-Fr 09:00", "nsi_id": "unitedstatespostalservice-a77078", "operator": "United States Postal Service", "operator:short": "USPS", "operator:type": "public", "operator:wikidata": "Q668687", "ref": "1710300009"}, "type": "Feature"}
{"geometry": {"coordinates": [-76.8498033, 40.278288], "type": "Point"}, "id": "W5m7Wk0LRvtWbwymJrXdoyTGO94=", "properties": {"@source_uri": "https://tools.usps.com/UspsToolsRestServices/rest/POLocator/findLocations", "@spider": "usps_collection_boxes", "addr:city": "HARRISBURG", "addr:country": "US", "addr:postcode": "17103", "addr:state": "PA", "addr:street_address": "2551 WALNUT ST", "amenity": "post_box", "collection_times": "Mo-Fr 09:00", "nsi_id": "unitedstatespostalservice-a77078", "operator": "United States Postal Service", "operator:short": "USPS", "operator:type": "public", "operator:wikidata": "Q668687", "ref": "1710300016"}, "type": "Feature"}
{"geometry": {"coordinates": [-76.8460961, 40.276163], "type": "Point"}, "id": "m5hdCaHbDFikfpOjYu0nVooO9TE=", "properties": {"@source_uri": "https://tools.usps.com/UspsToolsRestServices/rest/POLocator/findLocations", "@spider": "usps_collection_boxes", "addr:city": "HARRISBURG", "addr:country": "US", "addr:postcode": "17103", "addr:state": "PA", "addr:street_address": "314 S 28TH ST", "amenity": "post_box", "collection_times": "Mo-Fr 09:00", "nsi_id": "unitedstatespostalservice-a77078", "operator": "United States Postal Service", "operator:short": "USPS", "operator:type": "public", "operator:wikidata": "Q668687", "ref": "1710300017"}, "type": "Feature"}
{"geometry": {"coordinates": [-76.845954, 40.278456], "type": "Point"}, "id": "AiVdsxVokjbKP1iY6DerEYwun5g=", "properties": {"@source_uri": "https://tools.usps.com/UspsToolsRestServices/rest/POLocator/findLocations", "@spider": "usps_collection_boxes", "addr:city": "HARRISBURG", "addr:country": "US", "addr:postcode": "17103", "addr:state": "PA", "addr:street_address": "142 S 28TH ST", "amenity": "post_box", "collection_times": "Mo-Fr 11:00; Sa 08:00", "nsi_id": "unitedstatespostalservice-a77078", "operator": "United States Postal Service", "operator:short": "USPS", "operator:type": "public", "operator:wikidata": "Q668687", "ref": "1710300019"}, "type": "Feature"}
{"geometry": {"coordinates": [-76.8469374, 40.280843], "type": "Point"}, "id": "whM_eFVuSuQFli8NCGuDUmYucDg=", "properties": {"@source_uri": "https://tools.usps.com/UspsToolsRestServices/rest/POLocator/findLocations", "@spider": "usps_collection_boxes", "addr:city": "HARRISBURG", "addr:country": "US", "addr:postcode": "17103", "addr:state": "PA", "addr:street_address": "2801 PENBROOK AVE", "amenity": "post_box", "collection_times": "Mo-Fr 09:00; Sa 08:00", "nsi_id": "unitedstatespostalservice-a77078", "operator": "United States Postal Service", "operator:short": "USPS", "operator:type": "public", "operator:wikidata": "Q668687", "ref": "1710300020"}, "type": "Feature"}
{"geometry": {"coordinates": [-76.8529999, 40.277605], "type": "Point"}, "id": "dEJL58i1NL9lw_hKHV7qdxYFmyE=", "properties": {"@source_uri": "https://tools.usps.com/UspsToolsRestServices/rest/POLocator/findLocations", "@spider": "usps_collection_boxes", "addr:city": "HARRISBURG", "addr:country": "US", "addr:postcode": "17103", "addr:state": "PA", "addr:street_address": "2420 STATE ST", "amenity": "post_box", "collection_times": "Mo-Fr 09:00", "nsi_id": "unitedstatespostalservice-a77078", "operator": "United States Postal Service", "operator:short": "USPS", "operator:type": "public", "operator:wikidata": "Q668687", "ref": "1710300024"}, "type": "Feature"}
{"geometry": {"coordinates": [-76.8585341, 40.277738], "type": "Point"}, "id": "wVxiQIDTMGLanTxzWLGP_4BwbOE=", "properties": {"@source_uri": "https://tools.usps.com/UspsToolsRestServices/rest/POLocator/findLocations", "@spider": "usps_collection_boxes", "addr:city": "HARRISBURG", "addr:country": "US", "addr:postcode": "17103", "addr:state": "PA", "addr:street_address": "2200 BOAS ST", "amenity": "post_box", "collection_times": "Mo-Fr 09:00", "nsi_id": "unitedstatespostalservice-a77078", "operator": "United States Postal Service", "operator:short": "USPS", "operator:type": "public", "operator:wikidata": "Q668687", "ref": "1710300027"}, "type": "Feature"}
{"geometry": {"coordinates": [-76.8705545, 40.264391], "type": "Point"}, "id": "56gCpHhH3VzAt16EKdlYylVoUus=", "properties": {"@source_uri": "https://tools.usps.com/UspsToolsRestServices/rest/POLocator/findLocations", "@spider": "usps_collection_boxes", "addr:city": "HARRISBURG", "addr:country": "US", "addr:postcode": "17104", "addr:state": "PA", "addr:street_address": "34 EVERGREEN ST", "amenity": "post_box", "collection_times": "Mo-Fr 09:00", "nsi_id": "unitedstatespostalservice-a77078", "operator": "United States Postal Service", "operator:short": "USPS", "operator:type": "public", "operator:wikidata": "Q668687", "ref": "1710400001"}, "type": "Feature"}
{"geometry": {"coordinates": [-76.8604899, 40.266469], "type": "Point"}, "id": "QEQEKHLlMVm4mZshHBTGVBYCwss=", "properties": {"@source_uri": "https://tools.usps.com/UspsToolsRestServices/rest/POLocator/findLocations", "@spider": "usps_collection_boxes", "addr:city": "HARRISBURG", "addr:country": "US", "addr:postcode": "17104", "addr:state": "PA", "addr:street_address": "100 S 19TH ST", "amenity": "post_box", "collection_times": "Mo-Sa 09:00", "nsi_id": "unitedstatespostalservice-a77078", "operator": "United States Postal Service", "operator:short": "USPS", "operator:type": "public", "operator:wikidata": "Q668687", "ref": "1710400002"}, "type": "Feature"}
{"geometry": {"coordinates": [-76.8630259598, 40.2634458432], "type": "Point"}, "id": "G5Wdf3saACkC2qjEClE7b_te76g=", "properties": {"@source_uri": "https://tools.usps.com/UspsToolsRestServices/rest/POLocator/findLocations", "@spider": "usps_collection_boxes", "addr:city": "HARRISBURG", "addr:country": "US", "addr:postcode": "17104", "addr:state": "PA", "addr:street_address": "300 S 17TH ST", "amenity": "post_box", "collection_times": "Mo-Fr 09:00; Sa 08:00", "nsi_id": "unitedstatespostalservice-a77078", "operator": "United States Postal Service", "operator:short": "USPS", "operator:type": "public", "operator:wikidata": "Q668687", "ref": "1710400005"}, "type": "Feature"}
{"geometry": {"coordinates": [-76.8685772, 40.263023], "type": "Point"}, "id": "xWc6KczD795WM5pMJxpeGv1VViE=", "properties": {"@source_uri": "https://tools.usps.com/UspsToolsRestServices/rest/POLocator/findLocations", "@spider": "usps_collection_boxes", "addr:city": "HARRISBURG", "addr:country": "US", "addr:postcode": "17104", "addr:state": "PA", "addr:street_address": "1266 DERRY ST", "amenity": "post_box", "collection_times": "Mo-Sa 09:00", "nsi_id": "unitedstatespostalservice-a77078", "operator": "United States Postal Service", "operator:short": "USPS", "operator:type": "public", "operator:wikidata": "Q668687", "ref": "1710400007"}, "type": "Feature"}
{"geometry": {"coordinates": [-76.8670042, 40.259078], "type": "Point"}, "id": "O_AJ94vikP39lraOQE5Won56HNo=", "properties": {"@source_uri": "https://tools.usps.com/UspsToolsRestServices/rest/POLocator/findLocations", "@spider": "usps_collection_boxes", "addr:city": "HARRISBURG", "addr:country": "US", "addr:postcode": "17104", "addr:state": "PA", "addr:street_address": "446 S 13TH ST", "amenity": "post_box", "collection_times": "Mo-Sa 09:00", "nsi_id": "unitedstatespostalservice-a77078", "operator": "United States Postal Service", "operator:short": "USPS", "operator:type": "public", "operator:wikidata": "Q668687", "ref": "1710400010"}, "type": "Feature"}
{"geometry": {"coordinates": [-76.8582477, 40.245997], "type": "Point"}, "id": "8JzEKI1NzJmaFaTrkH2fGxhesMo=", "properties": {"@source_uri": "https://tools.usps.com/UspsToolsRestServices/rest/POLocator/findLocations", "@spider": "usps_collection_boxes", "addr:city": "HARRISBURG", "addr:country": "US", "addr:postcode": "17104", "addr:state": "PA", "addr:street_address": "1465 S 13TH ST", "amenity": "post_box", "collection_times": "Mo-Fr 09:00", "nsi_id": "unitedstatespostalservice-a77078", "operator": "United States Postal Service", "operator:short": "USPS", "operator:type": "public", "operator:wikidata": "Q668687", "ref": "1710400014"}, "type": "Feature"}
{"geometry": {"coordinates": [-76.8629574, 40.251431], "type": "Point"}, "id": "GphcOxueldS0HF9ZmkBA-UefR_c=", "properties": {"@source_uri": "https://tools.usps.com/UspsToolsRestServices/rest/POLocator/findLocations", "@spider": "usps_collection_boxes", "addr:city": "HARRISBURG", "addr:country": "US", "addr:postcode": "17104", "addr:state": "PA", "addr:street_address": "1301 SYCAMORE ST", "amenity": "post_box", "collection_times": "Mo-Sa 09:00", "nsi_id": "unitedstatespostalservice-a77078", "operator": "United States Postal Service", "operator:short": "USPS", "operator:type": "public", "operator:wikidata": "Q668687", "ref": "1710400015"}, "type": "Feature"}
{"geometry": {"coordinates": [-76.8537715, 40.252353], "type": "Point"}, "id": "GMUNS19VqmLhPPNC1viTu6rx97g=", "properties": {"@source_uri": "https://tools.usps.com/UspsToolsRestServices/rest/POLocator/findLocations", "@spider": "usps_collection_boxes", "addr:city": "HARRISBURG", "addr:country": "US", "addr:postcode": "17104", "addr:state": "PA", "addr:street_address": "1130 S 19TH ST", "amenity": "post_box", "collection_times": "Mo-Fr 09:00", "nsi_id": "unitedstatespostalservice-a77078", "operator": "United States Postal Service", "operator:short": "USPS", "operator:type": "public", "operator:wikidata": "Q668687", "ref": "1710400017"}, "type": "Feature"}
{"geometry": {"coordinates": [-76.8546307, 40.254655], "type": "Point"}, "id": "VpnZT3ow1UXb5eX7CjyvGRgulzA=", "properties": {"@source_uri": "https://tools.usps.com/UspsToolsRestServices/rest/POLocator/findLocations", "@spider": "usps_collection_boxes", "addr:city": "HARRISBURG", "addr:country": "US", "addr:postcode": "17104", "addr:state": "PA", "addr:street_address": "1901 PAXTON ST", "amenity": "post_box", "collection_times": "Mo-Fr 09:00; Sa 08:00", "nsi_id": "unitedstatespostalservice-a77078", "operator": "United States Postal Service", "operator:short": "USPS", "operator:type": "public", "operator:wikidata": "Q668687", "ref": "1710400018"}, "type": "Feature"}
{"geometry": {"coordinates": [-76.8613160201, 40.2606809839], "type": "Point"}, "id": "qZoENwZm1TzcUbgz7Y72HQn9IZU=", "properties": {"@source_uri": "https://tools.usps.com/UspsToolsRestServices/rest/POLocator/findLocations", "@spider": "usps_collection_boxes", "addr:city": "HARRISBURG", "addr:country": "US", "addr:postcode": "17104", "addr:state": "PA", "addr:street_address": "447 S 17TH ST", "amenity": "post_box", "collection_times": "Mo-Fr 09:00", "nsi_id": "unitedstatespostalservice-a77078", "operator": "United States Postal Service", "operator:short": "USPS", "operator:type": "public", "operator:wikidata": "Q668687", "ref": "1710400020"}, "type": "Feature"}
{"geometry": {"coordinates": [-76.8576074, 40.261411], "type": "Point"}, "id": "jKhiHW1F_hpRiTUf8sMIArFXcww=", "properties": {"@source_uri": "https://tools.usps.com/UspsToolsRestServices/rest/POLocator/findLocations", "@spider": "usps_collection_boxes", "addr:city": "HARRISBURG", "addr:country": "US", "addr:postcode": "17104", "addr:state": "PA", "addr:street_address": "1901 DERRY ST", "amenity": "post_box", "collection_times": "Mo-Sa 09:00", "nsi_id": "unitedstatespostalservice-a77078", "operator": "United States Postal Service", "operator:short": "USPS", "operator:type": "public", "operator:wikidata": "Q668687", "ref": "1710400027"}, "type": "Feature"}
{"geometry": {"coordinates": [-76.850159, 40.259696], "type": "Point"}, "id": "bANKHj0AqTDAaUTlOBXRIc08qhI=", "properties": {"@source_uri": "https://tools.usps.com/UspsToolsRestServices/rest/POLocator/findLocations", "@spider": "usps_collection_boxes", "addr:city": "HARRISBURG", "addr:country": "US", "addr:postcode": "17104", "addr:state": "PA", "addr:street_address": "2151 GREENWOOD ST", "amenity": "post_box", "collection_times": "Mo-Sa 09:00", "nsi_id": "unitedstatespostalservice-a77078", "operator": "United States Postal Service", "operator:short": "USPS", "operator:type": "public", "operator:wikidata": "Q668687", "ref": "1710400029"}, "type": "Feature"}
{"geometry": {"coordinates": [-76.8543384, 40.258573], "type": "Point"}, "id": "Ab13zVfLuyur8j7MG1-wSvbU56s=", "properties": {"@source_uri": "https://tools.usps.com/UspsToolsRestServices/rest/POLocator/findLocations", "@spider": "usps_collection_boxes", "addr:city": "HARRISBURG", "addr:country": "US", "addr:postcode": "17104", "addr:state": "PA", "addr:street_address": "642 S 20TH ST", "amenity": "post_box", "collection_times": "Mo-Fr 09:00", "nsi_id": "unitedstatespostalservice-a77078", "operator": "United States Postal Service", "operator:short": "USPS", "operator:type": "public", "operator:wikidata": "Q668687", "ref": "1710400030"}, "type": "Feature"}
{"geometry": {"coordinates": [-76.8442289, 40.262312], "type": "Point"}, "id": "Tu9lU8ww5PCSuNizp8LELY8aP9g=", "properties": {"@source_uri": "https://tools.usps.com/UspsToolsRestServices/rest/POLocator/findLocations", "@spider": "usps_collection_boxes", "addr:city": "HARRISBURG", "addr:country": "US", "addr:postcode": "17104", "addr:state": "PA", "addr:street_address": "2432 DUKE ST", "amenity": "post_box", "collection_times": "Mo-Fr 09:00", "nsi_id": "unitedstatespostalservice-a77078", "operator": "United States Postal Service", "operator:short": "USPS", "operator:type": "public", "operator:wikidata": "Q668687", "ref": "1710400034"}, "type": "Feature"}
{"geometry": {"coordinates": [-76.8461468, 40.26007], "type": "Point"}, "id": "fqPYP99sY_DCAZE9Jxcp93Bcpuw=", "properties": {"@source_uri": "https://tools.usps.com/UspsToolsRestServices/rest/POLocator/findLocations", "@spider": "usps_collection_boxes", "addr:city": "HARRISBURG", "addr:country": "US", "addr:postcode": "17104", "addr:state": "PA", "addr:street_address": "2354 DERRY ST", "amenity": "post_box", "collection_times": "Mo-Sa 09:00", "nsi_id": "unitedstatespostalservice-a77078", "operator": "United States Postal Service", "operator:short": "USPS", "operator:type": "public", "operator:wikidata": "Q668687", "ref": "1710400035"}, "type": "Feature"}
{"geometry": {"coordinates": [-76.8517647, 40.26315], "type": "Point"}, "id": "xgQbWdbj-AmaubotTfz-OsSjtsY=", "properties": {"@source_uri": "https://tools.usps.com/UspsToolsRestServices/rest/POLocator/findLocations", "@spider": "usps_collection_boxes", "addr:city": "HARRISBURG", "addr:country": "US", "addr:postcode": "17104", "addr:state": "PA", "addr:street_address": "2163 BERRYHILL ST", "amenity": "post_box", "collection_times": "Mo-Sa 09:00", "nsi_id": "unitedstatespostalservice-a77078", "operator": "United States Postal Service", "operator:short": "USPS", "operator:type": "public", "operator:wikidata": "Q668687", "ref": "1710400039"}, "type": "Feature"}
{"geometry": {"coordinates": [-76.8462717, 40.266197], "type": "Point"}, "id": "KzV6TuFOnWIcr-TSCuX0QtnNOaE=", "properties": {"@source_uri": "https://tools.usps.com/UspsToolsRestServices/rest/POLocator/findLocations", "@spider": "usps_collection_boxes", "addr:city": "HARRISBURG", "addr:country": "US", "addr:postcode": "17104", "addr:state": "PA", "addr:street_address": "400 HALE AVE", "amenity": "post_box", "collection_times": "Mo-Fr 09:00; Sa 08:00", "nsi_id": "unitedstatespostalservice-a77078", "operator": "United States Postal Service", "operator:short": "USPS", "operator:type": "public", "operator:wikidata": "Q668687", "ref": "1710400040"}, "type": "Feature"}
{"geometry": {"coordinates": [-76.8412656, 40.271571], "type": "Point"}, "id": "94Dbsf2R_se1GDqY-W633r70Eqo=", "properties": {"@source_uri": "https://tools.usps.com/UspsToolsRestServices/rest/POLocator/findLocations", "@spider": "usps_collection_boxes", "addr:city": "HARRISBURG", "addr:country": "US", "addr:postcode": "17104", "addr:state": "PA", "addr:street_address": "132 KLINE VLG", "amenity": "post_box", "collection_times": "Mo-Fr 11:00; Sa 08:00", "nsi_id": "unitedstatespostalservice-a77078", "operator": "United States Postal Service", "operator:short": "USPS", "operator:type": "public", "operator:wikidata": "Q668687", "ref": "1710400046"}, "type": "Feature"}
{"geometry": {"coordinates": [-76.8776662, 40.257402], "type": "Point"}, "id": "QcxplWCskqW2Qej3V67v1BxDRyo=", "properties": {"@source_uri": "https://tools.usps.com/UspsToolsRestServices/rest/POLocator/findLocations", "@spider": "usps_collection_boxes", "addr:city": "HARRISBURG", "addr:country": "US", "addr:postcode": "17104", "addr:state": "PA", "addr:street_address": "236 S 2ND ST", "amenity": "post_box", "collection_times": "Mo-Fr 09:00", "nsi_id": "unitedstatespostalservice-a77078", "operator": "United States Postal Service", "operator:short": "USPS", "operator:type": "public", "operator:wikidata": "Q668687", "ref": "1710400049"}, "type": "Feature"}
{"geometry": {"coordinates": [-76.8743309, 40.253814], "type": "Point"}, "id": "_hvVbbfxMI6jsjqFeJBYlgjvhmc=", "properties": {"@source_uri": "https://tools.usps.com/UspsToolsRestServices/rest/POLocator/findLocations", "@spider": "usps_collection_boxes", "addr:city": "HARRISBURG", "addr:country": "US", "addr:postcode": "17104", "addr:state": "PA", "addr:street_address": "121 TUSCARORA ST", "amenity": "post_box", "collection_times": "Mo-Sa 09:00", "nsi_id": "unitedstatespostalservice-a77078", "operator": "United States Postal Service", "operator:short": "USPS", "operator:type": "public", "operator:wikidata": "Q668687", "ref": "1710400050"}, "type": "Feature"}
{"geometry": {"coordinates": [-76.8781188, 40.258484], "type": "Point"}, "id": "lej-w_WGz05MUyYfE_BoX-4FPb4=", "properties": {"@source_uri": "https://tools.usps.com/UspsToolsRestServices/rest/POLocator/findLocations", "@spider": "usps_collection_boxes", "addr:city": "HARRISBURG", "addr:country": "US", "addr:postcode": "17104", "addr:state": "PA", "addr:street_address": "200 S COURT ST", "amenity": "post_box", "collection_times": "Mo-Fr 09:00", "nsi_id": "unitedstatespostalservice-a77078", "operator": "United States Postal Service", "operator:short": "USPS", "operator:type": "public", "operator:wikidata": "Q668687", "ref": "1710400052"}, "type": "Feature"}
{"geometry": {"coordinates": [-76.860755, 40.25889], "type": "Point"}, "id": "0aifeFSm0Og7bUyKKm808dmfqsY=", "properties": {"@source_uri": "https://tools.usps.com/UspsToolsRestServices/rest/POLocator/findLocations", "@spider": "usps_collection_boxes", "addr:city": "HARRISBURG", "addr:country": "US", "addr:postcode": "17104", "addr:state": "PA", "addr:street_address": "409 S 2ND ST", "amenity": "post_box", "collection_times": "Mo-Sa 09:00", "nsi_id": "unitedstatespostalservice-a77078", "operator": "United States Postal Service", "operator:short": "USPS", "operator:type": "public", "operator:wikidata": "Q668687", "ref": "1710400055"}, "type": "Feature"}
{"geometry": {"coordinates": [-76.8568439, 40.249667], "type": "Point"}, "id": "Z-GHu28fHus6VGr1GxsYLvb1HnE=", "properties": {"@source_uri": "https://tools.usps.com/UspsToolsRestServices/rest/POLocator/findLocations", "@spider": "usps_collection_boxes", "addr:city": "HARRISBURG", "addr:country": "US", "addr:postcode": "17104", "addr:state": "PA", "addr:street_address": "100 HALL MNR", "amenity": "post_box", "collection_times": "Mo-Fr 09:00", "nsi_id": "unitedstatespostalservice-a77078", "operator": "United States Postal Service", "operator:short": "USPS", "operator:type": "public", "operator:wikidata": "Q668687", "ref": "1710400056"}, "type": "Feature"}
{"geometry": {"coordinates": [-76.8588347, 40.247903], "type": "Point"}, "id": "bmDuFKyBDB3BTL9FRW85gPd05XA=", "properties": {"@source_uri": "https://tools.usps.com/UspsToolsRestServices/rest/POLocator/findLocations", "@spider": "usps_collection_boxes", "addr:city": "HARRISBURG", "addr:country": "US", "addr:postcode": "17104", "addr:state": "PA", "addr:street_address": "1404 S 15TH ST", "amenity": "post_box", "collection_times": "Mo-Fr 09:00", "nsi_id": "unitedstatespostalservice-a77078", "operator": "United States Postal Service", "operator:short": "USPS", "operator:type": "public", "operator:wikidata": "Q668687", "ref": "1710400057"}, "type": "Feature"}
{"geometry": {"coordinates": [-76.8686289, 40.247656], "type": "Point"}, "id": "IFjOhx2V0zZimOgjXuXzfhv2LlM=", "properties": {"@source_uri": "https://tools.usps.com/UspsToolsRestServices/rest/POLocator/findLocations", "@spider": "usps_collection_boxes", "addr:city": "HARRISBURG", "addr:country": "US", "addr:postcode": "17104", "addr:state": "PA", "addr:street_address": "1101 S FRONT ST", "amenity": "post_box", "collection_times": "Mo-Sa 09:00", "nsi_id": "unitedstatespostalservice-a77078", "operator": "United States Postal Service", "operator:short": "USPS", "operator:type": "public", "operator:wikidata": "Q668687", "ref": "1710400058"}, "type": "Feature"}
{"geometry": {"coordinates": [-76.8686227, 40.247665], "type": "Point"}, "id": "cFc31R87YLzI4I4yOxZjqJCWPxQ=", "properties": {"@source_uri": "https://tools.usps.com/UspsToolsRestServices/rest/POLocator/findLocations", "@spider": "usps_collection_boxes", "addr:city": "HARRISBURG", "addr:country": "US", "addr:postcode": "17104", "addr:state": "PA", "addr:street_address": "1101 S FRONT ST", "amenity": "post_box", "collection_times": "Mo-Sa 09:00", "nsi_id": "unitedstatespostalservice-a77078", "operator": "United States Postal Service", "operator:short": "USPS", "operator:type": "public", "operator:wikidata": "Q668687", "ref": "1710400059"}, "type": "Feature"}
{"geometry": {"coordinates": [-76.8640020009, 40.2492629878], "type": "Point"}, "id": "IK83yAhP6mzcgUvLDvxUMxY4g30=", "properties": {"@source_uri": "https://tools.usps.com/UspsToolsRestServices/rest/POLocator/findLocations", "@spider": "usps_collection_boxes", "addr:city": "HARRISBURG", "addr:country": "US", "addr:postcode": "17104", "addr:state": "PA", "addr:street_address": "1171 S CAMERON ST", "amenity": "post_box", "collection_times": "Mo-Sa 09:00", "nsi_id": "unitedstatespostalservice-a77078", "operator": "United States Postal Service", "operator:short": "USPS", "operator:type": "public", "operator:wikidata": "Q668687", "ref": "1710400060"}, "type": "Feature"}
{"geometry": {"coordinates": [-76.877939, 40.295593], "type": "Point"}, "id": "v0ntFO_DNW3uZa5kGDkE92u0q7M=", "properties": {"@source_uri": "https://tools.usps.com/UspsToolsRestServices/rest/POLocator/findLocations", "@spider": "usps_collection_boxes", "addr:city": "HARRISBURG", "addr:country": "US", "addr:postcode": "17106", "addr:state": "PA", "addr:street_address": "1425 CROOKED HILL RD", "amenity": "post_box", "collection_times": "Mo-Sa 19:00", "note": "ON 12/24 AND 12/31, THIS BOX MAY BE COLLECTED AS EARLY AS 12 NOON.", "nsi_id": "unitedstatespostalservice-a77078", "operator": "United States Postal Service", "operator:short": "USPS", "operator:type": "public", "operator:wikidata": "Q668687", "ref": "1710600000"}, "type": "Feature"}
{"geometry": {"coordinates": [-76.87617, 40.295679], "type": "Point"}, "id": "jlcJIsw8WY43xHcrNwmPLdqxGMs=", "properties": {"@source_uri": "https://tools.usps.com/UspsToolsRestServices/rest/POLocator/findLocations", "@spider": "usps_collection_boxes", "addr:city": "HARRISBURG", "addr:country": "US", "addr:postcode": "17106", "addr:state": "PA", "addr:street_address": "1425 CROOKED HILL RD", "amenity": "post_box", "collection_times": "Mo-Sa 19:00", "note": "ON 12/24 AND 12/31, THIS BOX MAY BE COLLECTED AS EARLY AS 12 NOON.", "nsi_id": "unitedstatespostalservice-a77078", "operator": "United States Postal Service", "operator:short": "USPS", "operator:type": "public", "operator:wikidata": "Q668687", "ref": "1710600003"}, "type": "Feature"}
{"geometry": {"coordinates": [-76.87617, 40.295679], "type": "Point"}, "id": "04UzXjbj10RKAV9htf8Azq6vpOw=", "properties": {"@source_uri": "https://tools.usps.com/UspsToolsRestServices/rest/POLocator/findLocations", "@spider": "usps_collection_boxes", "addr:city": "HARRISBURG", "addr:country": "US", "addr:postcode": "17106", "addr:state": "PA", "addr:street_address": "1425 CROOKED HILL RD", "amenity": "post_box", "collection_times": "Mo-Sa 19:00", "indoor": "yes", "note": "ON 12/24 AND 12/31, THIS BOX MAY BE COLLECTED AS EARLY AS 12 NOON.", "nsi_id": "unitedstatespostalservice-a77078", "operator": "United States Postal Service", "operator:short": "USPS", "operator:type": "public", "operator:wikidata": "Q668687", "ref": "1710600013"}, "type": "Feature"}
{"geometry": {"coordinates": [-76.87617, 40.295679], "type": "Point"}, "id": "Kg4z5wnESHsJ6trp3qERZx6xOR4=", "properties": {"@source_uri": "https://tools.usps.com/UspsToolsRestServices/rest/POLocator/findLocations", "@spider": "usps_collection_boxes", "addr:city": "HARRISBURG", "addr:country": "US", "addr:postcode": "17106", "addr:state": "PA", "addr:street_address": "1425 CROOKED HILL RD", "amenity": "post_box", "collection_times": "Mo-Sa 19:00", "name": "USPS COLLECTION BOX - APC", "note": "ON 12/24 AND 12/31, THIS BOX MAY BE COLLECTED AS EARLY AS 12 NOON.", "nsi_id": "unitedstatespostalservice-a77078", "operator": "United States Postal Service", "operator:short": "USPS", "operator:type": "public", "operator:wikidata": "Q668687", "ref": "1710600014"}, "type": "Feature"}
{"geometry": {"coordinates": [-76.877828692, 40.296497376], "type": "Point"}, "id": "q5xl6aeOEkYx2c7JZDyGrlCxf-k=", "properties": {"@source_uri": "https://tools.usps.com/UspsToolsRestServices/rest/POLocator/findLocations", "@spider": "usps_collection_boxes", "addr:city": "HARRISBURG", "addr:country": "US", "addr:postcode": "17106", "addr:state": "PA", "addr:street_address": "1425 CROOKED HILL RD", "amenity": "post_box", "collection_times": "Mo-Sa 19:00", "indoor": "yes", "note": "ON 12/24 AND 12/31, THIS BOX MAY BE COLLECTED AS EARLY AS 12 NOON.", "nsi_id": "unitedstatespostalservice-a77078", "operator": "United States Postal Service", "operator:short": "USPS", "operator:type": "public", "operator:wikidata": "Q668687", "ref": "1710600015"}, "type": "Feature"}
{"geometry": {"coordinates": [-76.877828692, 40.296497376], "type": "Point"}, "id": "i1fmQ_bzjup3VcJyc_ozFP7agdU=", "properties": {"@source_uri": "https://tools.usps.com/UspsToolsRestServices/rest/POLocator/findLocations", "@spider": "usps_collection_boxes", "addr:city": "HARRISBURG", "addr:country": "US", "addr:postcode": "17106", "addr:state": "PA", "addr:street_address": "1425 CROOKED HILL RD", "amenity": "post_box", "collection_times": "Mo-Fr 19:00", "indoor": "yes", "note": "ON 12/24 AND 12/31, THIS BOX MAY BE COLLECTED AS EARLY AS 12 NOON.", "nsi_id": "unitedstatespostalservice-a77078", "operator": "United States Postal Service", "operator:short": "USPS", "operator:type": "public", "operator:wikidata": "Q668687", "ref": "1710600017"}, "type": "Feature"}
{"geometry": {"coordinates": [-76.8120522, 40.284575], "type": "Point"}, "id": "6lJcQCSN5rv7mUCPnrkZr5cQNas=", "properties": {"@source_uri": "https://tools.usps.com/UspsToolsRestServices/rest/POLocator/findLocations", "@spider": "usps_collection_boxes", "addr:city": "HARRISBURG", "addr:country": "US", "addr:postcode": "17109", "addr:state": "PA", "addr:street_address": "4501 SEQUOIA DR", "amenity": "post_box", "collection_times": "Mo-Fr 09:00", "nsi_id": "unitedstatespostalservice-a77078", "operator": "United States Postal Service", "operator:short": "USPS", "operator:type": "public", "operator:wikidata": "Q668687", "ref": "1710900004"}, "type": "Feature"}
{"geometry": {"coordinates": [-76.8228783, 40.30191], "type": "Point"}, "id": "PqZp0Gje3hWsFxZWtCzwIXB8IQk=", "properties": {"@source_uri": "https://tools.usps.com/UspsToolsRestServices/rest/POLocator/findLocations", "@spider": "usps_collection_boxes", "addr:city": "HARRISBURG", "addr:country": "US", "addr:postcode": "17109", "addr:state": "PA", "addr:street_address": "4233 KING GEORGE DR", "amenity": "post_box", "collection_times": "Mo-Fr 11:00", "nsi_id": "unitedstatespostalservice-a77078", "operator": "United States Postal Service", "operator:short": "USPS", "operator:type": "public", "operator:wikidata": "Q668687", "ref": "1710900006"}, "type": "Feature"}
{"geometry": {"coordinates": [-76.8239664, 40.28513], "type": "Point"}, "id": "79BDO__esnz8EKYljB-Xpq6E2oM=", "properties": {"@source_uri": "https://tools.usps.com/UspsToolsRestServices/rest/POLocator/findLocations", "@spider": "usps_collection_boxes", "addr:city": "HARRISBURG", "addr:country": "US", "addr:postcode": "17109", "addr:state": "PA", "addr:street_address": "4101 SPRING VALLEY RD", "amenity": "post_box", "collection_times": "Mo-Fr 09:00", "nsi_id": "unitedstatespostalservice-a77078", "operator": "United States Postal Service", "operator:short": "USPS", "operator:type": "public", "operator:wikidata": "Q668687", "ref": "1710900009"}, "type": "Feature"}
{"geometry": {"coordinates": [-76.8219284, 40.300805], "type": "Point"}, "id": "r7Ob7z-Zc0H9yMU2bqhkyljnDVQ=", "properties": {"@source_uri": "https://tools.usps.com/UspsToolsRestServices/rest/POLocator/findLocations", "@spider": "usps_collection_boxes", "addr:city": "HARRISBURG", "addr:country": "US", "addr:postcode": "17109", "addr:state": "PA", "addr:street_address": "4280 WILLIAMSBURG DR", "amenity": "post_box", "collection_times": "Mo-Fr 11:00", "nsi_id": "unitedstatespostalservice-a77078", "operator": "United States Postal Service", "operator:short": "USPS", "operator:type": "public", "operator:wikidata": "Q668687", "ref": "1710900011"}, "type": "Feature"}
{"geometry": {"coordinates": [-76.8192033, 40.289998], "type": "Point"}, "id": "MLyx2dqNpg9e6pVDq2DW05kmO9k=", "properties": {"@source_uri": "https://tools.usps.com/UspsToolsRestServices/rest/POLocator/findLocations", "@spider": "usps_collection_boxes", "addr:city": "HARRISBURG", "addr:country": "US", "addr:postcode": "17109", "addr:state": "PA", "addr:street_address": "4240 CATALINA LN", "amenity": "post_box", "collection_times": "Mo-Fr 09:00", "nsi_id": "unitedstatespostalservice-a77078", "operator": "United States Postal Service", "operator:short": "USPS", "operator:type": "public", "operator:wikidata": "Q668687", "ref": "1710900012"}, "type": "Feature"}
{"geometry": {"coordinates": [-76.8100643, 40.295063], "type": "Point"}, "id": "s8aqp6vsAnQqOs4KO61smHNeXko=", "properties": {"@source_uri": "https://tools.usps.com/UspsToolsRestServices/rest/POLocator/findLocations", "@spider": "usps_collection_boxes", "addr:city": "HARRISBURG", "addr:country": "US", "addr:postcode": "17109", "addr:state": "PA", "addr:street_address": "4900 VIRGINIA AVE", "amenity": "post_box", "collection_times": "Mo-Fr 09:00", "nsi_id": "unitedstatespostalservice-a77078", "operator": "United States Postal Service", "operator:short": "USPS", "operator:type": "public", "operator:wikidata": "Q668687", "ref": "1710900014"}, "type": "Feature"}
{"geometry": {"coordinates": [-76.8386247, 40.278661], "type": "Point"}, "id": "Cent1K4Gz03Ab0ypuOR6QmcM1lA=", "properties": {"@source_uri": "https://tools.usps.com/UspsToolsRestServices/rest/POLocator/findLocations", "@spider": "usps_collection_boxes", "addr:city": "HARRISBURG", "addr:country": "US", "addr:postcode": "17109", "addr:state": "PA", "addr:street_address": "3300 UNION DEPOSIT RD", "amenity": "post_box", "collection_times": "Mo-Fr 09:00", "nsi_id": "unitedstatespostalservice-a77078", "operator": "United States Postal Service", "operator:short": "USPS", "operator:type": "public", "operator:wikidata": "Q668687", "ref": "1710900016"}, "type": "Feature"}
{"geometry": {"coordinates": [-76.8040052, 40.288489], "type": "Point"}, "id": "kWz4EWwepbzhnhwYNMnKhCOwBnQ=", "properties": {"@source_uri": "https://tools.usps.com/UspsToolsRestServices/rest/POLocator/findLocations", "@spider": "usps_collection_boxes", "addr:city": "HARRISBURG", "addr:country": "US", "addr:postcode": "17109", "addr:state": "PA", "addr:street_address": "401 RADCLIFFE DR", "amenity": "post_box", "collection_times": "Mo-Fr 09:00", "nsi_id": "unitedstatespostalservice-a77078", "operator": "United States Postal Service", "operator:short": "USPS", "operator:type": "public", "operator:wikidata": "Q668687", "ref": "1710900018"}, "type": "Feature"}
{"geometry": {"coordinates": [-76.8338085, 40.289017], "type": "Point"}, "id": "buA9EjoY0vOewUbsaBZs_nDYFYE=", "properties": {"@source_uri": "https://tools.usps.com/UspsToolsRestServices/rest/POLocator/findLocations", "@spider": "usps_collection_boxes", "addr:city": "HARRISBURG", "addr:country": "US", "addr:postcode": "17109", "addr:state": "PA", "addr:street_address": "3700 MAPLE ST", "amenity": "post_box", "collection_times": "Mo-Fr 09:00", "nsi_id": "unitedstatespostalservice-a77078", "operator": "United States Postal Service", "operator:short": "USPS", "operator:type": "public", "operator:wikidata": "Q668687", "ref": "1710900019"}, "type": "Feature"}
{"geometry": {"coordinates": [-76.8062095, 40.30113], "type": "Point"}, "id": "pD4NnnBw7EkFiqpCsFQRtPTPlX0=", "properties": {"@source_uri": "https://tools.usps.com/UspsToolsRestServices/rest/POLocator/findLocations", "@spider": "usps_collection_boxes", "addr:city": "HARRISBURG", "addr:country": "US", "addr:postcode": "17109", "addr:state": "PA", "addr:street_address": "4900 LANCER ST", "amenity": "post_box", "collection_times": "Mo-Fr 09:00", "nsi_id": "unitedstatespostalservice-a77078", "operator": "United States Postal Service", "operator:short": "USPS", "operator:type": "public", "operator:wikidata": "Q668687", "ref": "1710900024"}, "type": "Feature"}
{"geometry": {"coordinates": [-76.8179422, 40.280551], "type": "Point"}, "id": "KYasrbwiQuWdj9kpLeqEzl_rnRs=", "properties": {"@source_uri": "https://tools.usps.com/UspsToolsRestServices/rest/POLocator/findLocations", "@spider": "usps_collection_boxes", "addr:city": "HARRISBURG", "addr:country": "US", "addr:postcode": "17109", "addr:state": "PA", "addr:street_address": "1000 ROLLING GLEN DR", "amenity": "post_box", "collection_times": "Mo-Fr 09:00", "nsi_id": "unitedstatespostalservice-a77078", "operator": "United States Postal Service", "operator:short": "USPS", "operator:type": "public", "operator:wikidata": "Q668687", "ref": "1710900025"}, "type": "Feature"}
{"geometry": {"coordinates": [-76.8360588, 40.28365], "type": "Point"}, "id": "toH_ahVfieXgLp05qovjrUjOOfk=", "properties": {"@source_uri": "https://tools.usps.com/UspsToolsRestServices/rest/POLocator/findLocations", "@spider": "usps_collection_boxes", "addr:city": "HARRISBURG", "addr:country": "US", "addr:postcode": "17109", "addr:state": "PA", "addr:street_address": "213 SHELL ST", "amenity": "post_box", "collection_times": "Mo-Fr 09:00", "nsi_id": "unitedstatespostalservice-a77078", "operator": "United States Postal Service", "operator:short": "USPS", "operator:type": "public", "operator:wikidata": "Q668687", "ref": "1710900032"}, "type": "Feature"}
{"geometry": {"coordinates": [-76.8082331, 40.303899], "type": "Point"}, "id": "IpxQsrRJthKYlXjYcADCRGJxT5s=", "properties": {"@source_uri": "https://tools.usps.com/UspsToolsRestServices/rest/POLocator/findLocations", "@spider": "usps_collection_boxes", "addr:city": "HARRISBURG", "addr:country": "US", "addr:postcode": "17109", "addr:state": "PA", "addr:street_address": "4807 JONESTOWN RD", "amenity": "post_box", "collection_times": "Mo-Sa 11:00", "nsi_id": "unitedstatespostalservice-a77078", "operator": "United States Postal Service", "operator:short": "USPS", "operator:type": "public", "operator:wikidata": "Q668687", "ref": "1710900035"}, "type": "Feature"}
{"geometry": {"coordinates": [-76.8209459, 40.282412], "type": "Point"}, "id": "ZU-zMw7flykKcGWajErGbn9zm90=", "properties": {"@source_uri": "https://tools.usps.com/UspsToolsRestServices/rest/POLocator/findLocations", "@spider": "usps_collection_boxes", "addr:city": "HARRISBURG", "addr:country": "US", "addr:postcode": "17109", "addr:state": "PA", "addr:street_address": "845 SIR THOMAS CT", "amenity": "post_box", "collection_times": "Mo-Sa 11:15", "nsi_id": "unitedstatespostalservice-a77078", "operator": "United States Postal Service", "operator:short": "USPS", "operator:type": "public", "operator:wikidata": "Q668687", "ref": "1710900036"}, "type": "Feature"}
{"geometry": {"coordinates": [-76.8146285, 40.282854], "type": "Point"}, "id": "VuAbTcwyH_fYOIGlkiaXETSzB9A=", "properties": {"@source_uri": "https://tools.usps.com/UspsToolsRestServices/rest/POLocator/findLocations", "@spider": "usps_collection_boxes", "addr:city": "HARRISBURG", "addr:country": "US", "addr:postcode": "17109", "addr:state": "PA", "addr:street_address": "4319 LONDONDERRY RD", "amenity": "post_box", "collection_times": "Mo-Fr 09:00; Sa 11:00", "nsi_id": "unitedstatespostalservice-a77078", "operator": "United States Postal Service", "operator:short": "USPS", "operator:type": "public", "operator:wikidata": "Q668687", "ref": "1710900037"}, "type": "Feature"}
{"geometry": {"coordinates": [-76.8235395, 40.277155], "type": "Point"}, "id": "FWF9D1WG_Cc4z5aXfG_svNvUtWk=", "properties": {"@source_uri": "https://tools.usps.com/UspsToolsRestServices/rest/POLocator/findLocations", "@spider": "usps_collection_boxes", "addr:city": "HARRISBURG", "addr:country": "US", "addr:postcode": "17109", "addr:state": "PA", "addr:street_address": "3915 UNION DEPOSIT RD", "amenity": "post_box", "collection_times": "Mo-Sa 11:30", "nsi_id": "unitedstatespostalservice-a77078", "operator": "United States Postal Service", "operator:short": "USPS", "operator:type": "public", "operator:wikidata": "Q668687", "ref": "1710900038"}, "type": "Feature"}
{"geometry": {"coordinates": [-76.8168129, 40.301884], "type": "Point"}, "id": "AgYKA7TkmGb6AZds560u0x8B6Hc=", "properties": {"@source_uri": "https://tools.usps.com/UspsToolsRestServices/rest/POLocator/findLocations", "@spider": "usps_collection_boxes", "addr:city": "HARRISBURG", "addr:country": "US", "addr:postcode": "17109", "addr:state": "PA", "addr:street_address": "4600 JONESTOWN RD", "amenity": "post_box", "collection_times": "Mo-Sa 11:30", "nsi_id": "unitedstatespostalservice-a77078", "operator": "United States Postal Service", "operator:short": "USPS", "operator:type": "public", "operator:wikidata": "Q668687", "ref": "1710900043"}, "type": "Feature"}
{"geometry": {"coordinates": [-76.8424245, 40.285635], "type": "Point"}, "id": "WE17dgq4r8JRSXUHTnU6RxGDHhU=", "properties": {"@source_uri": "https://tools.usps.com/UspsToolsRestServices/rest/POLocator/findLocations", "@spider": "usps_collection_boxes", "addr:city": "HARRISBURG", "addr:country": "US", "addr:postcode": "17109", "addr:state": "PA", "addr:street_address": "9 N PROGRESS AVE", "amenity": "post_box", "collection_times": "Mo-Sa 11:30", "nsi_id": "unitedstatespostalservice-a77078", "operator": "United States Postal Service", "operator:short": "USPS", "operator:type": "public", "operator:wikidata": "Q668687", "ref": "1710900045"}, "type": "Feature"}
{"geometry": {"coordinates": [-76.8183529, 40.303755], "type": "Point"}, "id": "eoIcZaciW2zaRjf4tVdTl7AB1TI=", "properties": {"@source_uri": "https://tools.usps.com/UspsToolsRestServices/rest/POLocator/findLocations", "@spider": "usps_collection_boxes", "addr:city": "HARRISBURG", "addr:country": "US", "addr:postcode": "17109", "addr:state": "PA", "addr:street_address": "4501 ETHEL ST", "amenity": "post_box", "collection_times": "Mo-Sa 09:00", "nsi_id": "unitedstatespostalservice-a77078", "operator": "United States Postal Service", "operator:short": "USPS", "operator:type": "public", "operator:wikidata": "Q668687", "ref": "1710900048"}, "type": "Feature"}
{"geometry": {"coordinates": [-76.8165807, 40.283563], "type": "Point"}, "id": "rCK4lT_rLZ3PC4Fz60w7aU1KCdI=", "properties": {"@source_uri": "https://tools.usps.com/UspsToolsRestServices/rest/POLocator/findLocations", "@spider": "usps_collection_boxes", "addr:city": "HARRISBURG", "addr:country": "US", "addr:postcode": "17109", "addr:state": "PA", "addr:street_address": "4300 LONDONDERRY RD", "amenity": "post_box", "collection_times": "Mo-Fr 09:00; Sa 11:00", "nsi_id": "unitedstatespostalservice-a77078", "operator": "United States Postal Service", "operator:short": "USPS", "operator:type": "public", "operator:wikidata": "Q668687", "ref": "1710900049"}, "type": "Feature"}
{"geometry": {"coordinates": [-76.8285877, 40.294337], "type": "Point"}, "id": "j9UCH3YF8WbH80nmcN52QrGACuE=", "properties": {"@source_uri": "https://tools.usps.com/UspsToolsRestServices/rest/POLocator/findLocations", "@spider": "usps_collection_boxes", "addr:city": "HARRISBURG", "addr:country": "US", "addr:postcode": "17109", "addr:state": "PA", "addr:street_address": "3980 WALNUT ST", "amenity": "post_box", "collection_times": "Mo-Fr 09:00", "nsi_id": "unitedstatespostalservice-a77078", "operator": "United States Postal Service", "operator:short": "USPS", "operator:type": "public", "operator:wikidata": "Q668687", "ref": "1710900053"}, "type": "Feature"}
{"geometry": {"coordinates": [-76.8395539, 40.283864], "type": "Point"}, "id": "duFUGQAhqo9r40TP-qGmzgjrIwA=", "properties": {"@source_uri": "https://tools.usps.com/UspsToolsRestServices/rest/POLocator/findLocations", "@spider": "usps_collection_boxes", "addr:city": "HARRISBURG", "addr:country": "US", "addr:postcode": "17109", "addr:state": "PA", "addr:street_address": "160 S PROGRESS AVE", "amenity": "post_box", "collection_times": "Mo-Fr 09:00; Sa 11:00", "nsi_id": "unitedstatespostalservice-a77078", "operator": "United States Postal Service", "operator:short": "USPS", "operator:type": "public", "operator:wikidata": "Q668687", "ref": "1710900056"}, "type": "Feature"}
{"geometry": {"coordinates": [-76.8204824, 40.273703], "type": "Point"}, "id": "Szya3Eq6X9HuIXKAOatKF12ikB8=", "properties": {"@source_uri": "https://tools.usps.com/UspsToolsRestServices/rest/POLocator/findLocations", "@spider": "usps_collection_boxes", "addr:city": "HARRISBURG", "addr:country": "US", "addr:postcode": "17109", "addr:state": "PA", "addr:street_address": "980 BRIARSDALE RD", "amenity": "post_box", "collection_times": "Mo-Fr 09:00; Sa 11:00", "nsi_id": "unitedstatespostalservice-a77078", "operator": "United States Postal Service", "operator:short": "USPS", "operator:type": "public", "operator:wikidata": "Q668687", "ref": "1710900057"}, "type": "Feature"}
{"geometry": {"coordinates": [-76.8058556, 40.297571], "type": "Point"}, "id": "TnXFptEY3gpKzCuNObK7n2JrHlg=", "properties": {"@source_uri": "https://tools.usps.com/UspsToolsRestServices/rest/POLocator/findLocations", "@spider": "usps_collection_boxes", "addr:city": "HARRISBURG", "addr:country": "US", "addr:postcode": "17109", "addr:state": "PA", "addr:street_address": "425 PRINCE ST", "amenity": "post_box", "collection_times": "Mo-Sa 11:30", "nsi_id": "unitedstatespostalservice-a77078", "operator": "United States Postal Service", "operator:short": "USPS", "operator:type": "public", "operator:wikidata": "Q668687", "ref": "1710900058"}, "type": "Feature"}
{"geometry": {"coordinates": [-76.8439854, 40.289815], "type": "Point"}, "id": "5RvxORsBfrU3xcbI0EXs277ZZMw=", "properties": {"@source_uri": "https://tools.usps.com/UspsToolsRestServices/rest/POLocator/findLocations", "@spider": "usps_collection_boxes", "addr:city": "HARRISBURG", "addr:country": "US", "addr:postcode": "17109", "addr:state": "PA", "addr:street_address": "3239 BROOKFIELD RD", "amenity": "post_box", "collection_times": "Mo-Fr 09:00", "nsi_id": "unitedstatespostalservice-a77078", "operator": "United States Postal Service", "operator:short": "USPS", "operator:type": "public", "operator:wikidata": "Q668687", "ref": "1710900059"}, "type": "Feature"}
{"geometry": {"coordinates": [-76.8388435, 40.295427], "type": "Point"}, "id": "e7Ils5v72V5aW5kPQA2bFjczVW4=", "properties": {"@source_uri": "https://tools.usps.com/UspsToolsRestServices/rest/POLocator/findLocations", "@spider": "usps_collection_boxes", "addr:city": "HARRISBURG", "addr:country": "US", "addr:postcode": "17109", "addr:state": "PA", "addr:street_address": "3601 BROOKSIDE DR", "amenity": "post_box", "collection_times": "Mo-Fr 09:00", "nsi_id": "unitedstatespostalservice-a77078", "operator": "United States Postal Service", "operator:short": "USPS", "operator:type": "public", "operator:wikidata": "Q668687", "ref": "1710900060"}, "type": "Feature"}
{"geometry": {"coordinates": [-76.901542, 40.281846], "type": "Point"}, "id": "XK-an_JxQIjcERrf7gZ9Epyk1AM=", "properties": {"@source_uri": "https://tools.usps.com/UspsToolsRestServices/rest/POLocator/findLocations", "@spider": "usps_collection_boxes", "addr:city": "HARRISBURG", "addr:country": "US", "addr:postcode": "17110", "addr:state": "PA", "addr:street_address": "2311 N FRONT ST", "amenity": "post_box", "collection_times": "Mo-Sa 11:00", "nsi_id": "unitedstatespostalservice-a77078", "operator": "United States Postal Service", "operator:short": "USPS", "operator:type": "public", "operator:wikidata": "Q668687", "ref": "1711000001"}, "type": "Feature"}
{"geometry": {"coordinates": [-76.9043795, 40.292514], "type": "Point"}, "id": "X9nr939M9PEnxipYXOs8UkREemY=", "properties": {"@source_uri": "https://tools.usps.com/UspsToolsRestServices/rest/POLocator/findLocations", "@spider": "usps_collection_boxes", "addr:city": "HARRISBURG", "addr:country": "US", "addr:postcode": "17110", "addr:state": "PA", "addr:street_address": "124 MANOR ST", "amenity": "post_box", "collection_times": "Mo-Sa 09:00", "nsi_id": "unitedstatespostalservice-a77078", "operator": "United States Postal Service", "operator:short": "USPS", "operator:type": "public", "operator:wikidata": "Q668687", "ref": "1711000008"}, "type": "Feature"}
{"geometry": {"coordinates": [-76.8991919, 40.279836], "type": "Point"}, "id": "VcTrOQXHc1zF5oLJ3OBE0Vnnb3k=", "properties": {"@source_uri": "https://tools.usps.com/UspsToolsRestServices/rest/POLocator/findLocations", "@spider": "usps_collection_boxes", "addr:city": "HARRISBURG", "addr:country": "US", "addr:postcode": "17110", "addr:state": "PA", "addr:street_address": "2149 N 2ND ST", "amenity": "post_box", "collection_times": "Mo-Sa 11:00", "nsi_id": "unitedstatespostalservice-a77078", "operator": "United States Postal Service", "operator:short": "USPS", "operator:type": "public", "operator:wikidata": "Q668687", "ref": "1711000010"}, "type": "Feature"}
{"geometry": {"coordinates": [-76.854886, 40.314186], "type": "Point"}, "id": "_z2FhCyOsGFLcNqfAWdBZ6E5EpU=", "properties": {"@source_uri": "https://tools.usps.com/UspsToolsRestServices/rest/POLocator/findLocations", "@spider": "usps_collection_boxes", "addr:city": "HARRISBURG", "addr:country": "US", "addr:postcode": "17110", "addr:state": "PA", "addr:street_address": "2170 CAMELOT DR", "amenity": "post_box", "collection_times": "Mo-Sa 11:00", "nsi_id": "unitedstatespostalservice-a77078", "operator": "United States Postal Service", "operator:short": "USPS", "operator:type": "public", "operator:wikidata": "Q668687", "ref": "1711000025"}, "type": "Feature"}
{"geometry": {"coordinates": [-76.8585799, 40.330471], "type": "Point"}, "id": "aDDmGUNn92QSXjAd6o03F_RS0QU=", "properties": {"@source_uri": "https://tools.usps.com/UspsToolsRestServices/rest/POLocator/findLocations", "@spider": "usps_collection_boxes", "addr:city": "HARRISBURG", "addr:country": "US", "addr:postcode": "17110", "addr:state": "PA", "addr:street_address": "4400 PHEASANT HILL RD", "amenity": "post_box", "collection_times": "Mo-Sa 11:00", "nsi_id": "unitedstatespostalservice-a77078", "operator": "United States Postal Service", "operator:short": "USPS", "operator:type": "public", "operator:wikidata": "Q668687", "ref": "1711000032"}, "type": "Feature"}
{"geometry": {"coordinates": [-76.8480354, 40.305599], "type": "Point"}, "id": "ORtRyGqy6IWI3g2xbNm93lOUsMo=", "properties": {"@source_uri": "https://tools.usps.com/UspsToolsRestServices/rest/POLocator/findLocations", "@spider": "usps_collection_boxes", "addr:city": "HARRISBURG", "addr:country": "US", "addr:postcode": "17110", "addr:state": "PA", "addr:street_address": "400 NATIONWIDE DR", "amenity": "post_box", "collection_times": "Mo-Sa 11:45", "nsi_id": "unitedstatespostalservice-a77078", "operator": "United States Postal Service", "operator:short": "USPS", "operator:type": "public", "operator:wikidata": "Q668687", "ref": "1711000033"}, "type": "Feature"}
{"geometry": {"coordinates": [-76.884707, 40.294627], "type": "Point"}, "id": "jrbxhPRfdkE-_zxLGgIYgC2Gnt4=", "properties": {"@source_uri": "https://tools.usps.com/UspsToolsRestServices/rest/POLocator/findLocations", "@spider": "usps_collection_boxes", "addr:city": "HARRISBURG", "addr:country": "US", "addr:postcode": "17110", "addr:state": "PA", "addr:street_address": "1 HACC DR", "amenity": "post_box", "collection_times": "Mo-Sa 11:00", "nsi_id": "unitedstatespostalservice-a77078", "operator": "United States Postal Service", "operator:short": "USPS", "operator:type": "public", "operator:wikidata": "Q668687", "ref": "1711000038"}, "type": "Feature"}
{"geometry": {"coordinates": [-76.8949133, 40.313218], "type": "Point"}, "id": "eOV2fvMirx79pMiZ1ZHSzVYlAo0=", "properties": {"@source_uri": "https://tools.usps.com/UspsToolsRestServices/rest/POLocator/findLocations", "@spider": "usps_collection_boxes", "addr:city": "HARRISBURG", "addr:country": "US", "addr:postcode": "17110", "addr:state": "PA", "addr:street_address": "3898 N 6TH ST", "amenity": "post_box", "collection_times": "Mo-Sa 11:00", "nsi_id": "unitedstatespostalservice-a77078", "operator": "United States Postal Service", "operator:short": "USPS", "operator:type": "public", "operator:wikidata": "Q668687", "ref": "1711000039"}, "type": "Feature"}
{"geometry": {"coordinates": [-76.9021805, 40.304309], "type": "Point"}, "id": "swEpsRcXbu4qWGOjNdZxz9qzzSI=", "properties": {"@source_uri": "https://tools.usps.com/UspsToolsRestServices/rest/POLocator/findLocations", "@spider": "usps_collection_boxes", "addr:city": "HARRISBURG", "addr:country": "US", "addr:postcode": "17110", "addr:state": "PA", "addr:street_address": "3501 N FRONT ST", "amenity": "post_box", "collection_times": "Mo-Sa 11:00", "nsi_id": "unitedstatespostalservice-a77078", "operator": "United States Postal Service", "operator:short": "USPS", "operator:type": "public", "operator:wikidata": "Q668687", "ref": "1711000041"}, "type": "Feature"}
{"geometry": {"coordinates": [-76.8993894, 40.291248], "type": "Point"}, "id": "9KxVSTtRzy065t2AiYqgWqhDLXs=", "properties": {"@source_uri": "https://tools.usps.com/UspsToolsRestServices/rest/POLocator/findLocations", "@spider": "usps_collection_boxes", "addr:city": "HARRISBURG", "addr:country": "US", "addr:postcode": "17110", "addr:state": "PA", "addr:street_address": "2757 N 4TH ST", "amenity": "post_box", "collection_times": "Mo-Sa 11:00", "nsi_id": "unitedstatespostalservice-a77078", "operator": "United States Postal Service", "operator:short": "USPS", "operator:type": "public", "operator:wikidata": "Q668687", "ref": "1711000042"}, "type": "Feature"}
{"geometry": {"coordinates": [-76.8916191, 40.292033], "type": "Point"}, "id": "DSaO0thnjHdC7gS2lDW2WN91DfI=", "properties": {"@source_uri": "https://tools.usps.com/UspsToolsRestServices/rest/POLocator/findLocations", "@spider": "usps_collection_boxes", "addr:city": "HARRISBURG", "addr:country": "US", "addr:postcode": "17110", "addr:state": "PA", "addr:street_address": "2903 N 7TH ST", "amenity": "post_box", "collection_times": "Mo-Fr 09:00; Sa 11:00", "nsi_id": "unitedstatespostalservice-a77078", "operator": "United States Postal Service", "operator:short": "USPS", "operator:type": "public", "operator:wikidata": "Q668687", "ref": "1711000043"}, "type": "Feature"}
{"geometry": {"coordinates": [-76.9001475, 40.288761], "type": "Point"}, "id": "QtQ7hz2Ypyqt88bXKDxiEKt4Ne0=", "properties": {"@source_uri": "https://tools.usps.com/UspsToolsRestServices/rest/POLocator/findLocations", "@spider": "usps_collection_boxes", "addr:city": "HARRISBURG", "addr:country": "US", "addr:postcode": "17110", "addr:state": "PA", "addr:street_address": "300 WICONISCO ST", "amenity": "post_box", "collection_times": "Mo-Sa 11:00", "nsi_id": "unitedstatespostalservice-a77078", "operator": "United States Postal Service", "operator:short": "USPS", "operator:type": "public", "operator:wikidata": "Q668687", "ref": "1711000045"}, "type": "Feature"}
{"geometry": {"coordinates": [-76.9037967, 40.299526], "type": "Point"}, "id": "5heORvKm_5XBZ1YAmGFtHjKOJgc=", "properties": {"@source_uri": "https://tools.usps.com/UspsToolsRestServices/rest/POLocator/findLocations", "@spider": "usps_collection_boxes", "addr:city": "HARRISBURG", "addr:country": "US", "addr:postcode": "17110", "addr:state": "PA", "addr:street_address": "3211 N FRONT ST", "amenity": "post_box", "collection_times": "Mo-Sa 11:15", "nsi_id": "unitedstatespostalservice-a77078", "operator": "United States Postal Service", "operator:short": "USPS", "operator:type": "public", "operator:wikidata": "Q668687", "ref": "1711000049"}, "type": "Feature"}
{"geometry": {"coordinates": [-76.9035699, 40.285915], "type": "Point"}, "id": "k3sjwBSLDfCIjQN6X7l3_cPIPoY=", "properties": {"@source_uri": "https://tools.usps.com/UspsToolsRestServices/rest/POLocator/findLocations", "@spider": "usps_collection_boxes", "addr:city": "HARRISBURG", "addr:country": "US", "addr:postcode": "17110", "addr:state": "PA", "addr:street_address": "2515 N FRONT ST", "amenity": "post_box", "collection_times": "Mo-Sa 11:45", "nsi_id": "unitedstatespostalservice-a77078", "operator": "United States Postal Service", "operator:short": "USPS", "operator:type": "public", "operator:wikidata": "Q668687", "ref": "1711000050"}, "type": "Feature"}
{"geometry": {"coordinates": [-76.8685927, 40.329216], "type": "Point"}, "id": "hCPwpenfAfb459sX5EstoLftpt4=", "properties": {"@source_uri": "https://tools.usps.com/UspsToolsRestServices/rest/POLocator/findLocations", "@spider": "usps_collection_boxes", "addr:city": "HARRISBURG", "addr:country": "US", "addr:postcode": "17110", "addr:state": "PA", "addr:street_address": "2000 LINGLESTOWN RD", "amenity": "post_box", "collection_times": "Mo-Fr 11:00; Sa 15:00", "note": "ON 12/24 AND 12/31, THIS BOX MAY BE COLLECTED AS EARLY AS 12 NOON.", "nsi_id": "unitedstatespostalservice-a77078", "operator": "United States Postal Service", "operator:short": "USPS", "operator:type": "public", "operator:wikidata": "Q668687", "ref": "1711000051"}, "type": "Feature"}
{"geometry": {"coordinates": [-76.8998772, 40.287978], "type": "Point"}, "id": "7XAkHrzOjxFLAoUdz27Covkngc0=", "properties": {"@source_uri": "https://tools.usps.com/UspsToolsRestServices/rest/POLocator/findLocations", "@spider": "usps_collection_boxes", "addr:city": "HARRISBURG", "addr:country": "US", "addr:postcode": "17110", "addr:state": "PA", "addr:street_address": "2626 N 3RD ST", "amenity": "post_box", "collection_times": "Mo-Sa 11:00", "nsi_id": "unitedstatespostalservice-a77078", "operator": "United States Postal Service", "operator:short": "USPS", "operator:type": "public", "operator:wikidata": "Q668687", "ref": "1711000052"}, "type": "Feature"}
{"geometry": {"coordinates": [-76.902786, 40.284316], "type": "Point"}, "id": "WUqPgFkQBi2oqPny-boc5qXvLnM=", "properties": {"@source_uri": "https://tools.usps.com/UspsToolsRestServices/rest/POLocator/findLocations", "@spider": "usps_collection_boxes", "addr:city": "HARRISBURG", "addr:country": "US", "addr:postcode": "17110", "addr:state": "PA", "addr:street_address": "2421 N FRONT ST", "amenity": "post_box", "collection_times": "Mo-Sa 09:00", "nsi_id": "unitedstatespostalservice-a77078", "operator": "United States Postal Service", "operator:short": "USPS", "operator:type": "public", "operator:wikidata": "Q668687", "ref": "1711000056"}, "type": "Feature"}
{"geometry": {"coordinates": [-76.894755, 40.284775], "type": "Point"}, "id": "Jfp3vBKlQfzZprZAiBP2Ej1JEac=", "properties": {"@source_uri": "https://tools.usps.com/UspsToolsRestServices/rest/POLocator/findLocations", "@spider": "usps_collection_boxes", "addr:city": "HARRISBURG", "addr:country": "US", "addr:postcode": "17110", "addr:state": "PA", "addr:street_address": "2347 N 7TH ST", "amenity": "post_box", "collection_times": "Mo-Sa 11:45", "nsi_id": "unitedstatespostalservice-a77078", "operator": "United States Postal Service", "operator:short": "USPS", "operator:type": "public", "operator:wikidata": "Q668687", "ref": "1711000058"}, "type": "Feature"}
{"geometry": {"coordinates": [-76.8671908, 40.328335], "type": "Point"}, "id": "zpn_LQbfWzabbg3iXpI5viGzB7U=", "properties": {"@source_uri": "https://tools.usps.com/UspsToolsRestServices/rest/POLocator/findLocations", "@spider": "usps_collection_boxes", "addr:city": "HARRISBURG", "addr:country": "US", "addr:postcode": "17110", "addr:state": "PA", "addr:street_address": "2017 LINGLESTOWN RD", "amenity": "post_box", "collection_times": "Mo-Fr 11:00; Sa 15:00", "note": "ON 12/24 AND 12/31, THIS BOX MAY BE COLLECTED AS EARLY AS 12 NOON.", "nsi_id": "unitedstatespostalservice-a77078", "operator": "United States Postal Service", "operator:short": "USPS", "operator:type": "public", "operator:wikidata": "Q668687", "ref": "1711000059"}, "type": "Feature"}
{"geometry": {"coordinates": [-76.8998999, 40.278515], "type": "Point"}, "id": "QsnBF_SmQBb95I5hhszcGZpG1Yc=", "properties": {"@source_uri": "https://tools.usps.com/UspsToolsRestServices/rest/POLocator/findLocations", "@spider": "usps_collection_boxes", "addr:city": "HARRISBURG", "addr:country": "US", "addr:postcode": "17110", "addr:state": "PA", "addr:street_address": "2101 N FRONT ST", "amenity": "post_box", "collection_times": "Mo-Sa 09:00", "nsi_id": "unitedstatespostalservice-a77078", "operator": "United States Postal Service", "operator:short": "USPS", "operator:type": "public", "operator:wikidata": "Q668687", "ref": "1711000060"}, "type": "Feature"}
{"geometry": {"coordinates": [-76.8563349, 40.314977], "type": "Point"}, "id": "8J3jCCJHsiPVotFcQ6q9sl0se-A=", "properties": {"@source_uri": "https://tools.usps.com/UspsToolsRestServices/rest/POLocator/findLocations", "@spider": "usps_collection_boxes", "addr:city": "HARRISBURG", "addr:country": "US", "addr:postcode": "17110", "addr:state": "PA", "addr:street_address": "2233 PAXTON CHURCH RD", "amenity": "post_box", "collection_times": "Mo-Fr 11:00", "nsi_id": "unitedstatespostalservice-a77078", "operator": "United States Postal Service", "operator:short": "USPS", "operator:type": "public", "operator:wikidata": "Q668687", "ref": "1711000061"}, "type": "Feature"}
{"geometry": {"coordinates": [-76.8503990103, 40.3329609848], "type": "Point"}, "id": "UEopCnlouCLQR1fZoMR7dLRS9kY=", "properties": {"@source_uri": "https://tools.usps.com/UspsToolsRestServices/rest/POLocator/findLocations", "@spider": "usps_collection_boxes", "addr:city": "HARRISBURG", "addr:country": "US", "addr:postcode": "17110", "addr:state": "PA", "addr:street_address": "4450 OAKHURST BLVD", "amenity": "post_box", "collection_times": "Mo-Fr 11:00; Sa 15:00", "note": "ON 12/24 AND 12/31, THIS BOX MAY BE COLLECTED AS EARLY AS 12 NOON.", "nsi_id": "unitedstatespostalservice-a77078", "operator": "United States Postal Service", "operator:short": "USPS", "operator:type": "public", "operator:wikidata": "Q668687", "ref": "1711000067"}, "type": "Feature"}
{"geometry": {"coordinates": [-76.9020118, 40.302895], "type": "Point"}, "id": "I_qOXTjRLIQ2Gt1a8pa4C_6W6jk=", "properties": {"@source_uri": "https://tools.usps.com/UspsToolsRestServices/rest/POLocator/findLocations", "@spider": "usps_collection_boxes", "addr:city": "HARRISBURG", "addr:country": "US", "addr:postcode": "17110", "addr:state": "PA", "addr:street_address": "3401 N FRONT ST", "amenity": "post_box", "collection_times": "Mo-Sa 09:00", "nsi_id": "unitedstatespostalservice-a77078", "operator": "United States Postal Service", "operator:short": "USPS", "operator:type": "public", "operator:wikidata": "Q668687", "ref": "1711000070"}, "type": "Feature"}
{"geometry": {"coordinates": [-76.8726705, 40.285484], "type": "Point"}, "id": "_eDxfR9bUWQ7HgN6lp31tjPRd04=", "properties": {"@source_uri": "https://tools.usps.com/UspsToolsRestServices/rest/POLocator/findLocations", "@spider": "usps_collection_boxes", "addr:city": "HARRISBURG", "addr:country": "US", "addr:postcode": "17110", "addr:state": "PA", "addr:street_address": "41 N CIRCLE DR", "amenity": "post_box", "collection_times": "Mo-Sa 09:00", "nsi_id": "unitedstatespostalservice-a77078", "operator": "United States Postal Service", "operator:short": "USPS", "operator:type": "public", "operator:wikidata": "Q668687", "ref": "1711000075"}, "type": "Feature"}
{"geometry": {"coordinates": [-76.8747307, 40.328409], "type": "Point"}, "id": "hxToyGlTqnKdLTYe-TQkTc1B1MY=", "properties": {"@source_uri": "https://tools.usps.com/UspsToolsRestServices/rest/POLocator/findLocations", "@spider": "usps_collection_boxes", "addr:city": "HARRISBURG", "addr:country": "US", "addr:postcode": "17110", "addr:state": "PA", "addr:street_address": "4400 DEER PATH RD", "amenity": "post_box", "collection_times": "Mo-Sa 11:00", "nsi_id": "unitedstatespostalservice-a77078", "operator": "United States Postal Service", "operator:short": "USPS", "operator:type": "public", "operator:wikidata": "Q668687", "ref": "1711000081"}, "type": "Feature"}
{"geometry": {"coordinates": [-76.8958376, 40.322138], "type": "Point"}, "id": "kkaBEsmu-WofDddlP7G00JEgKIY=", "properties": {"@source_uri": "https://tools.usps.com/UspsToolsRestServices/rest/POLocator/findLocations", "@spider": "usps_collection_boxes", "addr:city": "HARRISBURG", "addr:country": "US", "addr:postcode": "17110", "addr:state": "PA", "addr:street_address": "160 LUCKNOW RD", "amenity": "post_box", "collection_times": "Mo-Sa 11:00", "nsi_id": "unitedstatespostalservice-a77078", "operator": "United States Postal Service", "operator:short": "USPS", "operator:type": "public", "operator:wikidata": "Q668687", "ref": "1711000083"}, "type": "Feature"}
{"geometry": {"coordinates": [-76.8530729, 40.318764], "type": "Point"}, "id": "R7fqAeY8MgQDiNqH8nMvamVtzoA=", "properties": {"@source_uri": "https://tools.usps.com/UspsToolsRestServices/rest/POLocator/findLocations", "@spider": "usps_collection_boxes", "addr:city": "HARRISBURG", "addr:country": "US", "addr:postcode": "17110", "addr:state": "PA", "addr:street_address": "3605 VARTAN WAY", "amenity": "post_box", "collection_times": "Mo-Sa 11:00", "nsi_id": "unitedstatespostalservice-a77078", "operator": "United States Postal Service", "operator:short": "USPS", "operator:type": "public", "operator:wikidata": "Q668687", "ref": "1711000088"}, "type": "Feature"}
{"geometry": {"coordinates": [-76.8961604, 40.299046], "type": "Point"}, "id": "_bxfGt43TtHsGYlOMCIk60BvWac=", "properties": {"@source_uri": "https://tools.usps.com/UspsToolsRestServices/rest/POLocator/findLocations", "@spider": "usps_collection_boxes", "addr:city": "HARRISBURG", "addr:country": "US", "addr:postcode": "17110", "addr:state": "PA", "addr:street_address": "3232 HOFFMAN ST", "amenity": "post_box", "collection_times": "Mo-Sa 11:00", "nsi_id": "unitedstatespostalservice-a77078", "operator": "United States Postal Service", "operator:short": "USPS", "operator:type": "public", "operator:wikidata": "Q668687", "ref": "1711000092"}, "type": "Feature"}
{"geometry": {"coordinates": [-76.8550674, 40.32113], "type": "Point"}, "id": "EACZr6slDKgfM4cUMbj0FhQVeCo=", "properties": {"@source_uri": "https://tools.usps.com/UspsToolsRestServices/rest/POLocator/findLocations", "@spider": "usps_collection_boxes", "addr:city": "HARRISBURG", "addr:country": "US", "addr:postcode": "17110", "addr:state": "PA", "addr:street_address": "2480 THEA DR", "amenity": "post_box", "collection_times": "Mo-Sa 11:00", "nsi_id": "unitedstatespostalservice-a77078", "operator": "United States Postal Service", "operator:short": "USPS", "operator:type": "public", "operator:wikidata": "Q668687", "ref": "1711000095"}, "type": "Feature"}
{"geometry": {"coordinates": [-76.8439658, 40.308149], "type": "Point"}, "id": "lhDi3hy5mhxTAV1QJLpC25RzpFw=", "properties": {"@source_uri": "https://tools.usps.com/UspsToolsRestServices/rest/POLocator/findLocations", "@spider": "usps_collection_boxes", "addr:city": "HARRISBURG", "addr:country": "US", "addr:postcode": "17110", "addr:state": "PA", "addr:street_address": "2401 MARKET PLACE DR", "amenity": "post_box", "collection_times": "Mo-Sa 11:00", "nsi_id": "unitedstatespostalservice-a77078", "operator": "United States Postal Service", "operator:short": "USPS", "operator:type": "public", "operator:wikidata": "Q668687", "ref": "1711000096"}, "type": "Feature"}
{"geometry": {"coordinates": [-76.8550356, 40.31676], "type": "Point"}, "id": "BIK9xRoDGrQOBFhtcqVDfw2CfYw=", "properties": {"@source_uri": "https://tools.usps.com/UspsToolsRestServices/rest/POLocator/findLocations", "@spider": "usps_collection_boxes", "addr:city": "HARRISBURG", "addr:country": "US", "addr:postcode": "17110", "addr:state": "PA", "addr:street_address": "2330 VARTAN WAY", "amenity": "post_box", "collection_times": "Mo-Sa 11:00", "nsi_id": "unitedstatespostalservice-a77078", "operator": "United States Postal Service", "operator:short": "USPS", "operator:type": "public", "operator:wikidata": "Q668687", "ref": "1711000098"}, "type": "Feature"}
{"geometry": {"coordinates": [-76.9020233, 40.302909], "type": "Point"}, "id": "Y8L90sEwXzbmzdFivxk3oNoWpuw=", "properties": {"@source_uri": "https://tools.usps.com/UspsToolsRestServices/rest/POLocator/findLocations", "@spider": "usps_collection_boxes", "addr:city": "HARRISBURG", "addr:country": "US", "addr:postcode": "17110", "addr:state": "PA", "addr:street_address": "3401 N FRONT ST REAR", "amenity": "post_box", "collection_times": "Mo-Sa 09:00", "nsi_id": "unitedstatespostalservice-a77078", "operator": "United States Postal Service", "operator:short": "USPS", "operator:type": "public", "operator:wikidata": "Q668687", "ref": "1711000104"}, "type": "Feature"}
{"geometry": {"coordinates": [-76.8739326, 40.327817], "type": "Point"}, "id": "PEWznDs4CgSyjAHL0w8G6HjPqPk=", "properties": {"@source_uri": "https://tools.usps.com/UspsToolsRestServices/rest/POLocator/findLocations", "@spider": "usps_collection_boxes", "addr:city": "HARRISBURG", "addr:country": "US", "addr:postcode": "17110", "addr:state": "PA", "addr:street_address": "1800 LINGLESTOWN RD", "amenity": "post_box", "collection_times": "Mo-Sa 11:00", "nsi_id": "unitedstatespostalservice-a77078", "operator": "United States Postal Service", "operator:short": "USPS", "operator:type": "public", "operator:wikidata": "Q668687", "ref": "1711000105"}, "type": "Feature"}
{"geometry": {"coordinates": [-76.8770574, 40.29114], "type": "Point"}, "id": "b8j43vLqreMAOjm8BJ2SQYziKic=", "properties": {"@source_uri": "https://tools.usps.com/UspsToolsRestServices/rest/POLocator/findLocations", "@spider": "usps_collection_boxes", "addr:city": "HARRISBURG", "addr:country": "US", "addr:postcode": "17110", "addr:state": "PA", "addr:street_address": "909 ELMERTON AVE", "amenity": "post_box", "collection_times": "Mo-Sa 11:45", "nsi_id": "unitedstatespostalservice-a77078", "operator": "United States Postal Service", "operator:short": "USPS", "operator:type": "public", "operator:wikidata": "Q668687", "ref": "1711000109"}, "type": "Feature"}
{"geometry": {"coordinates": [-76.8995286, 40.299813], "type": "Point"}, "id": "zAOQAUN-xNFie7_abpsmd7QNBRY=", "properties": {"@source_uri": "https://tools.usps.com/UspsToolsRestServices/rest/POLocator/findLocations", "@spider": "usps_collection_boxes", "addr:city": "HARRISBURG", "addr:country": "US", "addr:postcode": "17110", "addr:state": "PA", "addr:street_address": "3300 N 3RD ST", "amenity": "post_box", "collection_times": "Mo-Sa 11:00", "nsi_id": "unitedstatespostalservice-a77078", "operator": "United States Postal Service", "operator:short": "USPS", "operator:type": "public", "operator:wikidata": "Q668687", "ref": "1711000110"}, "type": "Feature"}
{"geometry": {"coordinates": [-76.8519444, 40.33006], "type": "Point"}, "id": "_F4GPO6TGLXU2bXM2YZtNd3qWAM=", "properties": {"@source_uri": "https://tools.usps.com/UspsToolsRestServices/rest/POLocator/findLocations", "@spider": "usps_collection_boxes", "addr:city": "HARRISBURG", "addr:country": "US", "addr:postcode": "17110", "addr:state": "PA", "addr:street_address": "4392 STURBRIDGE DR", "amenity": "post_box", "collection_times": "Mo-Fr 11:00; Sa 15:00", "note": "ON 12/24 AND 12/31, THIS BOX MAY BE COLLECTED AS EARLY AS 12 NOON.", "nsi_id": "unitedstatespostalservice-a77078", "operator": "United States Postal Service", "operator:short": "USPS", "operator:type": "public", "operator:wikidata": "Q668687", "ref": "1711000111"}, "type": "Feature"}
{"geometry": {"coordinates": [-76.8814209, 40.326882], "type": "Point"}, "id": "KP_-7_p4HYTLAX5ajrsG12Mwx30=", "properties": {"@source_uri": "https://tools.usps.com/UspsToolsRestServices/rest/POLocator/findLocations", "@spider": "usps_collection_boxes", "addr:city": "HARRISBURG", "addr:country": "US", "addr:postcode": "17110", "addr:state": "PA", "addr:street_address": "1300 LINGLESTOWN RD", "amenity": "post_box", "collection_times": "Mo-Sa 11:00", "nsi_id": "unitedstatespostalservice-a77078", "operator": "United States Postal Service", "operator:short": "USPS", "operator:type": "public", "operator:wikidata": "Q668687", "ref": "1711000112"}, "type": "Feature"}
{"geometry": {"coordinates": [-76.8898475, 40.286313], "type": "Point"}, "id": "XID761sN7AHxINRB8Vo0DlgxKMk=", "properties": {"@source_uri": "https://tools.usps.com/UspsToolsRestServices/rest/POLocator/findLocations", "@spider": "usps_collection_boxes", "addr:city": "HARRISBURG", "addr:country": "US", "addr:postcode": "17110", "addr:state": "PA", "addr:street_address": "2347 N 7TH ST", "amenity": "post_box", "collection_times": "Mo-Sa 11:30", "indoor": "yes", "nsi_id": "unitedstatespostalservice-a77078", "operator": "United States Postal Service", "operator:short": "USPS", "operator:type": "public", "operator:wikidata": "Q668687", "ref": "1711000114"}, "type": "Feature"}
{"geometry": {"coordinates": [-76.8989707, 40.327448], "type": "Point"}, "id": "Aotpr2r5cd8moGoHxJ5w7fnJIQk=", "properties": {"@source_uri": "https://tools.usps.com/UspsToolsRestServices/rest/POLocator/findLocations", "@spider": "usps_collection_boxes", "addr:city": "HARRISBURG", "addr:country": "US", "addr:postcode": "17110", "addr:state": "PA", "addr:street_address": "4431 N FRONT ST", "amenity": "post_box", "collection_times": "Mo-Fr 11:00", "nsi_id": "unitedstatespostalservice-a77078", "operator": "United States Postal Service", "operator:short": "USPS", "operator:type": "public", "operator:wikidata": "Q668687", "ref": "1711000116"}, "type": "Feature"}
{"geometry": {"coordinates": [-76.8781216743, 40.2853436241], "type": "Point"}, "id": "itMNST1gwEr4Ed2nOG7lQxHJoow=", "properties": {"@source_uri": "https://tools.usps.com/UspsToolsRestServices/rest/POLocator/findLocations", "@spider": "usps_collection_boxes", "addr:city": "HARRISBURG", "addr:country": "US", "addr:postcode": "17110", "addr:state": "PA", "addr:street_address": "AZALEA DR", "amenity": "post_box", "collection_times": "Mo-Sa 09:00", "nsi_id": "unitedstatespostalservice-a77078", "operator": "United States Postal Service", "operator:short": "USPS", "operator:type": "public", "operator:wikidata": "Q668687", "ref": "1711000118"}, "type": "Feature"}
{"geometry": {"coordinates": [-76.889977438, 40.2861879], "type": "Point"}, "id": "-jShuJyAeLY6yMap_lshH_AXFd0=", "properties": {"@source_uri": "https://tools.usps.com/UspsToolsRestServices/rest/POLocator/findLocations", "@spider": "usps_collection_boxes", "addr:city": "HARRISBURG", "addr:country": "US", "addr:postcode": "17110", "addr:state": "PA", "addr:street_address": "2347 N 7TH ST", "amenity": "post_box", "collection_times": "Mo-Sa 11:45", "indoor": "yes", "nsi_id": "unitedstatespostalservice-a77078", "operator": "United States Postal Service", "operator:short": "USPS", "operator:type": "public", "operator:wikidata": "Q668687", "ref": "1711000121"}, "type": "Feature"}
{"geometry": {"coordinates": [-76.840145474, 40.252562817], "type": "Point"}, "id": "ePsIBbqv487g3qiHBPKelQhBNHg=", "properties": {"@source_uri": "https://tools.usps.com/UspsToolsRestServices/rest/POLocator/findLocations", "@spider": "usps_collection_boxes", "addr:city": "HARRISBURG", "addr:country": "US", "addr:postcode": "17111", "addr:state": "PA", "addr:street_address": "1205 S 28TH ST", "amenity": "post_box", "collection_times": "Mo-Sa 09:00", "nsi_id": "unitedstatespostalservice-a77078", "operator": "United States Postal Service", "operator:short": "USPS", "operator:type": "public", "operator:wikidata": "Q668687", "ref": "1711100001"}, "type": "Feature"}
{"geometry": {"coordinates": [-76.7925083, 40.261685], "type": "Point"}, "id": "x4kpLSzSwIRl5b1i-nXTAVS1yxc=", "properties": {"@source_uri": "https://tools.usps.com/UspsToolsRestServices/rest/POLocator/findLocations", "@spider": "usps_collection_boxes", "addr:city": "HARRISBURG", "addr:country": "US", "addr:postcode": "17111", "addr:state": "PA", "addr:street_address": "5590 DERRY ST", "amenity": "post_box", "collection_times": "Mo-Sa 09:00", "nsi_id": "unitedstatespostalservice-a77078", "operator": "United States Postal Service", "operator:short": "USPS", "operator:type": "public", "operator:wikidata": "Q668687", "ref": "1711100007"}, "type": "Feature"}
{"geometry": {"coordinates": [-76.8186626, 40.258738], "type": "Point"}, "id": "4pQyZt3czP_w2UztwZS7WFGzE5w=", "properties": {"@source_uri": "https://tools.usps.com/UspsToolsRestServices/rest/POLocator/findLocations", "@spider": "usps_collection_boxes", "addr:city": "HARRISBURG", "addr:country": "US", "addr:postcode": "17111", "addr:state": "PA", "addr:street_address": "8 OAKLEIGH AVE", "amenity": "post_box", "collection_times": "Mo-Fr 09:00", "nsi_id": "unitedstatespostalservice-a77078", "operator": "United States Postal Service", "operator:short": "USPS", "operator:type": "public", "operator:wikidata": "Q668687", "ref": "1711100008"}, "type": "Feature"}
{"geometry": {"coordinates": [-76.7787528, 40.267975], "type": "Point"}, "id": "AZ4imKJV_lOvxa0VwMxCO-3e4Bw=", "properties": {"@source_uri": "https://tools.usps.com/UspsToolsRestServices/rest/POLocator/findLocations", "@spider": "usps_collection_boxes", "addr:city": "HARRISBURG", "addr:country": "US", "addr:postcode": "17111", "addr:state": "PA", "addr:street_address": "6301 SOMERSET ST", "amenity": "post_box", "collection_times": "Mo-Fr 09:00", "nsi_id": "unitedstatespostalservice-a77078", "operator": "United States Postal Service", "operator:short": "USPS", "operator:type": "public", "operator:wikidata": "Q668687", "ref": "1711100010"}, "type": "Feature"}
{"geometry": {"coordinates": [-76.8387053, 40.253688], "type": "Point"}, "id": "f2kWESAWtR0Xv_V88x9ATpKUERg=", "properties": {"@source_uri": "https://tools.usps.com/UspsToolsRestServices/rest/POLocator/findLocations", "@spider": "usps_collection_boxes", "addr:city": "HARRISBURG", "addr:country": "US", "addr:postcode": "17111", "addr:state": "PA", "addr:street_address": "1291 S 28TH ST", "amenity": "post_box", "collection_times": "Mo-Sa 09:00", "nsi_id": "unitedstatespostalservice-a77078", "operator": "United States Postal Service", "operator:short": "USPS", "operator:type": "public", "operator:wikidata": "Q668687", "ref": "1711100011"}, "type": "Feature"}
{"geometry": {"coordinates": [-76.7726333, 40.27262], "type": "Point"}, "id": "IN8fCJADCi5R2PgIhwXSnAxYYl0=", "properties": {"@source_uri": "https://tools.usps.com/UspsToolsRestServices/rest/POLocator/findLocations", "@spider": "usps_collection_boxes", "addr:city": "HARRISBURG", "addr:country": "US", "addr:postcode": "17111", "addr:state": "PA", "addr:street_address": "611 N 67TH ST", "amenity": "post_box", "collection_times": "Mo-Fr 09:00", "nsi_id": "unitedstatespostalservice-a77078", "operator": "United States Postal Service", "operator:short": "USPS", "operator:type": "public", "operator:wikidata": "Q668687", "ref": "1711100013"}, "type": "Feature"}
{"geometry": {"coordinates": [-76.8163783, 40.247723], "type": "Point"}, "id": "pybSIIoQi4AjBGj2HKjnrp4CslU=", "properties": {"@source_uri": "https://tools.usps.com/UspsToolsRestServices/rest/POLocator/findLocations", "@spider": "usps_collection_boxes", "addr:city": "HARRISBURG", "addr:country": "US", "addr:postcode": "17111", "addr:state": "PA", "addr:street_address": "4031 EXECUTIVE PARK DR", "amenity": "post_box", "collection_times": "Mo-Fr 09:00", "nsi_id": "unitedstatespostalservice-a77078", "operator": "United States Postal Service", "operator:short": "USPS", "operator:type": "public", "operator:wikidata": "Q668687", "ref": "1711100015"}, "type": "Feature"}
{"geometry": {"coordinates": [-76.7939678, 40.246344], "type": "Point"}, "id": "NEt2D5D_mfHSosnFQy4P2jl9oEE=", "properties": {"@source_uri": "https://tools.usps.com/UspsToolsRestServices/rest/POLocator/findLocations", "@spider": "usps_collection_boxes", "addr:city": "HARRISBURG", "addr:country": "US", "addr:postcode": "17111", "addr:state": "PA", "addr:street_address": "5069 STACEY DR E", "amenity": "post_box", "collection_times": "Mo-Fr 09:00", "nsi_id": "unitedstatespostalservice-a77078", "operator": "United States Postal Service", "operator:short": "USPS", "operator:type": "public", "operator:wikidata": "Q668687", "ref": "1711100016"}, "type": "Feature"}
{"geometry": {"coordinates": [-76.7751538, 40.293443], "type": "Point"}, "id": "NyPQUibcFa1EBjFWdVBZFFQ0s24=", "properties": {"@source_uri": "https://tools.usps.com/UspsToolsRestServices/rest/POLocator/findLocations", "@spider": "usps_collection_boxes", "addr:city": "HARRISBURG", "addr:country": "US", "addr:postcode": "17111", "addr:state": "PA", "addr:street_address": "6100 SPRINGKNOLL DR", "amenity": "post_box", "collection_times": "Mo-Sa 09:00", "nsi_id": "unitedstatespostalservice-a77078", "operator": "United States Postal Service", "operator:short": "USPS", "operator:type": "public", "operator:wikidata": "Q668687", "ref": "1711100017"}, "type": "Feature"}
{"geometry": {"coordinates": [-76.8260193, 40.2663], "type": "Point"}, "id": "gHd88R6KHiOLrgaLYYHjGxbxqHY=", "properties": {"@source_uri": "https://tools.usps.com/UspsToolsRestServices/rest/POLocator/findLocations", "@spider": "usps_collection_boxes", "addr:city": "HARRISBURG", "addr:country": "US", "addr:postcode": "17111", "addr:state": "PA", "addr:street_address": "650 LUTHER RD", "amenity": "post_box", "collection_times": "Mo-Fr 09:00", "nsi_id": "unitedstatespostalservice-a77078", "operator": "United States Postal Service", "operator:short": "USPS", "operator:type": "public", "operator:wikidata": "Q668687", "ref": "1711100019"}, "type": "Feature"}
{"geometry": {"coordinates": [-76.7733142, 40.294824], "type": "Point"}, "id": "KySYxqlUeT3mRamREKlEd9hhYfs=", "properties": {"@source_uri": "https://tools.usps.com/UspsToolsRestServices/rest/POLocator/findLocations", "@spider": "usps_collection_boxes", "addr:city": "HARRISBURG", "addr:country": "US", "addr:postcode": "17111", "addr:state": "PA", "addr:street_address": "6100 SPRINGFORD DR", "amenity": "post_box", "collection_times": "Mo-Fr 09:00", "nsi_id": "unitedstatespostalservice-a77078", "operator": "United States Postal Service", "operator:short": "USPS", "operator:type": "public", "operator:wikidata": "Q668687", "ref": "1711100022"}, "type": "Feature"}
{"geometry": {"coordinates": [-76.7666105, 40.269872], "type": "Point"}, "id": "tJv9EQKHA2SeuBb86qDaAJaK0yI=", "properties": {"@source_uri": "https://tools.usps.com/UspsToolsRestServices/rest/POLocator/findLocations", "@spider": "usps_collection_boxes", "addr:city": "HARRISBURG", "addr:country": "US", "addr:postcode": "17111", "addr:state": "PA", "addr:street_address": "7100 JEFFERSON ST", "amenity": "post_box", "collection_times": "Mo-Sa 09:00", "nsi_id": "unitedstatespostalservice-a77078", "operator": "United States Postal Service", "operator:short": "USPS", "operator:type": "public", "operator:wikidata": "Q668687", "ref": "1711100024"}, "type": "Feature"}
{"geometry": {"coordinates": [-76.8335464, 40.259057], "type": "Point"}, "id": "7gkILRtLPsQzlbc7pgBCfmj0xQ0=", "properties": {"@source_uri": "https://tools.usps.com/UspsToolsRestServices/rest/POLocator/findLocations", "@spider": "usps_collection_boxes", "addr:city": "HARRISBURG", "addr:country": "US", "addr:postcode": "17111", "addr:state": "PA", "addr:street_address": "3401 DERRY ST", "amenity": "post_box", "collection_times": "Mo-Sa 09:00", "nsi_id": "unitedstatespostalservice-a77078", "operator": "United States Postal Service", "operator:short": "USPS", "operator:type": "public", "operator:wikidata": "Q668687", "ref": "1711100025"}, "type": "Feature"}
{"geometry": {"coordinates": [-76.8442589, 40.259944], "type": "Point"}, "id": "o4CsO_PyINANJv_CAZT3Nx9n4dI=", "properties": {"@source_uri": "https://tools.usps.com/UspsToolsRestServices/rest/POLocator/findLocations", "@spider": "usps_collection_boxes", "addr:city": "HARRISBURG", "addr:country": "US", "addr:postcode": "17111", "addr:state": "PA", "addr:street_address": "2444 DERRY ST", "amenity": "post_box", "collection_times": "Mo-Sa 09:00", "nsi_id": "unitedstatespostalservice-a77078", "operator": "United States Postal Service", "operator:short": "USPS", "operator:type": "public", "operator:wikidata": "Q668687", "ref": "1711100027"}, "type": "Feature"}
{"geometry": {"coordinates": [-76.8092746, 40.277988], "type": "Point"}, "id": "Wu2U-rueeLki3n8ASrOX9ckAudw=", "properties": {"@source_uri": "https://tools.usps.com/UspsToolsRestServices/rest/POLocator/findLocations", "@spider": "usps_collection_boxes", "addr:city": "HARRISBURG", "addr:country": "US", "addr:postcode": "17111", "addr:state": "PA", "addr:street_address": "4406 ONTARIO DR", "amenity": "post_box", "collection_times": "Mo-Sa 09:00", "nsi_id": "unitedstatespostalservice-a77078", "operator": "United States Postal Service", "operator:short": "USPS", "operator:type": "public", "operator:wikidata": "Q668687", "ref": "1711100028"}, "type": "Feature"}
{"geometry": {"coordinates": [-76.8113613, 40.2463], "type": "Point"}, "id": "USXCxRxfbeVUlZqxm05rx7yGdqg=", "properties": {"@source_uri": "https://tools.usps.com/UspsToolsRestServices/rest/POLocator/findLocations", "@spider": "usps_collection_boxes", "addr:city": "HARRISBURG", "addr:country": "US", "addr:postcode": "17111", "addr:state": "PA", "addr:street_address": "599 EISENHOWER BLVD", "amenity": "post_box", "collection_times": "Mo-Sa 09:00", "nsi_id": "unitedstatespostalservice-a77078", "operator": "United States Postal Service", "operator:short": "USPS", "operator:type": "public", "operator:wikidata": "Q668687", "ref": "1711100037"}, "type": "Feature"}
{"geometry": {"coordinates": [-76.8022295, 40.248985], "type": "Point"}, "id": "utAsAk3cIY4jLo1BF4u3lUiEGjU=", "properties": {"@source_uri": "https://tools.usps.com/UspsToolsRestServices/rest/POLocator/findLocations", "@spider": "usps_collection_boxes", "addr:city": "HARRISBURG", "addr:country": "US", "addr:postcode": "17111", "addr:state": "PA", "addr:street_address": "4501 CHAMBERS HILL RD", "amenity": "post_box", "collection_times": "Mo-Fr 09:00; Sa 11:00", "nsi_id": "unitedstatespostalservice-a77078", "operator": "United States Postal Service", "operator:short": "USPS", "operator:type": "public", "operator:wikidata": "Q668687", "ref": "1711100039"}, "type": "Feature"}
{"geometry": {"coordinates": [-76.7788318, 40.254497], "type": "Point"}, "id": "kHuVgL7j4MgmWVcJVMRX6C_msvQ=", "properties": {"@source_uri": "https://tools.usps.com/UspsToolsRestServices/rest/POLocator/findLocations", "@spider": "usps_collection_boxes", "addr:city": "HARRISBURG", "addr:country": "US", "addr:postcode": "17111", "addr:state": "PA", "addr:street_address": "6400 CHAMBERS HILL RD", "amenity": "post_box", "collection_times": "Mo-Sa 09:00", "nsi_id": "unitedstatespostalservice-a77078", "operator": "United States Postal Service", "operator:short": "USPS", "operator:type": "public", "operator:wikidata": "Q668687", "ref": "1711100040"}, "type": "Feature"}
{"geometry": {"coordinates": [-76.7595599, 40.265755], "type": "Point"}, "id": "LyAge9JhzSHcFxvX3G6tqIi-0YQ=", "properties": {"@source_uri": "https://tools.usps.com/UspsToolsRestServices/rest/POLocator/findLocations", "@spider": "usps_collection_boxes", "addr:city": "HARRISBURG", "addr:country": "US", "addr:postcode": "17111", "addr:state": "PA", "addr:street_address": "7428 DERRY ST", "amenity": "post_box", "collection_times": "Mo-Fr 09:00; Sa 11:00", "nsi_id": "unitedstatespostalservice-a77078", "operator": "United States Postal Service", "operator:short": "USPS", "operator:type": "public", "operator:wikidata": "Q668687", "ref": "1711100041"}, "type": "Feature"}
{"geometry": {"coordinates": [-76.7704252, 40.265037], "type": "Point"}, "id": "AyZxH-OOd3XwwgCju72R6AksKNk=", "properties": {"@source_uri": "https://tools.usps.com/UspsToolsRestServices/rest/POLocator/findLocations", "@spider": "usps_collection_boxes", "addr:city": "HARRISBURG", "addr:country": "US", "addr:postcode": "17111", "addr:state": "PA", "addr:street_address": "6700 DERRY ST", "amenity": "post_box", "collection_times": "Mo-Fr 09:00; Sa 11:00", "nsi_id": "unitedstatespostalservice-a77078", "operator": "United States Postal Service", "operator:short": "USPS", "operator:type": "public", "operator:wikidata": "Q668687", "ref": "1711100042"}, "type": "Feature"}
{"geometry": {"coordinates": [-76.8041778, 40.258583], "type": "Point"}, "id": "-J1YnmBpE4rkLCFcFQS78V4kNrA=", "properties": {"@source_uri": "https://tools.usps.com/UspsToolsRestServices/rest/POLocator/findLocations", "@spider": "usps_collection_boxes", "addr:city": "HARRISBURG", "addr:country": "US", "addr:postcode": "17111", "addr:state": "PA", "addr:street_address": "4790 DERRY ST", "amenity": "post_box", "collection_times": "Mo-Sa 09:00", "nsi_id": "unitedstatespostalservice-a77078", "operator": "United States Postal Service", "operator:short": "USPS", "operator:type": "public", "operator:wikidata": "Q668687", "ref": "1711100043"}, "type": "Feature"}
{"geometry": {"coordinates": [-76.8197394, 40.25776], "type": "Point"}, "id": "K8NfbOMRAMOnFXyQ3f4QcbSkBzY=", "properties": {"@source_uri": "https://tools.usps.com/UspsToolsRestServices/rest/POLocator/findLocations", "@spider": "usps_collection_boxes", "addr:city": "HARRISBURG", "addr:country": "US", "addr:postcode": "17111", "addr:state": "PA", "addr:street_address": "3869 DERRY ST", "amenity": "post_box", "collection_times": "Mo-Sa 09:00", "nsi_id": "unitedstatespostalservice-a77078", "operator": "United States Postal Service", "operator:short": "USPS", "operator:type": "public", "operator:wikidata": "Q668687", "ref": "1711100048"}, "type": "Feature"}
{"geometry": {"coordinates": [-76.7724339, 40.2612], "type": "Point"}, "id": "rhlSJwISOEiMLojwXvzHb6lNL_E=", "properties": {"@source_uri": "https://tools.usps.com/UspsToolsRestServices/rest/POLocator/findLocations", "@spider": "usps_collection_boxes", "addr:city": "HARRISBURG", "addr:country": "US", "addr:postcode": "17111", "addr:state": "PA", "addr:street_address": "6531 GRAYSON RD", "amenity": "post_box", "collection_times": "Mo-Fr 09:00; Sa 11:00", "nsi_id": "unitedstatespostalservice-a77078", "operator": "United States Postal Service", "operator:short": "USPS", "operator:type": "public", "operator:wikidata": "Q668687", "ref": "1711100049"}, "type": "Feature"}
{"geometry": {"coordinates": [-76.7877728, 40.287145], "type": "Point"}, "id": "zzOJZLAHd3xCdo5eyV50YAK1gKQ=", "properties": {"@source_uri": "https://tools.usps.com/UspsToolsRestServices/rest/POLocator/findLocations", "@spider": "usps_collection_boxes", "addr:city": "HARRISBURG", "addr:country": "US", "addr:postcode": "17111", "addr:state": "PA", "addr:street_address": "1001 COUNTRY LAKE DR", "amenity": "post_box", "collection_times": "Mo-Fr 09:00", "nsi_id": "unitedstatespostalservice-a77078", "operator": "United States Postal Service", "operator:short": "USPS", "operator:type": "public", "operator:wikidata": "Q668687", "ref": "1711100050"}, "type": "Feature"}
{"geometry": {"coordinates": [-76.7902828, 40.282113], "type": "Point"}, "id": "OJeMNTj4zcb0G5V7uqLz1NThTQo=", "properties": {"@source_uri": "https://tools.usps.com/UspsToolsRestServices/rest/POLocator/findLocations", "@spider": "usps_collection_boxes", "addr:city": "HARRISBURG", "addr:country": "US", "addr:postcode": "17111", "addr:state": "PA", "addr:street_address": "1136 SUMMERWOOD DR", "amenity": "post_box", "collection_times": "Mo-Fr 09:00", "nsi_id": "unitedstatespostalservice-a77078", "operator": "United States Postal Service", "operator:short": "USPS", "operator:type": "public", "operator:wikidata": "Q668687", "ref": "1711100051"}, "type": "Feature"}
{"geometry": {"coordinates": [-76.8119309, 40.269204], "type": "Point"}, "id": "4YvkxYNRphCZ4eXoybwG-kbZWKg=", "properties": {"@source_uri": "https://tools.usps.com/UspsToolsRestServices/rest/POLocator/findLocations", "@spider": "usps_collection_boxes", "addr:city": "HARRISBURG", "addr:country": "US", "addr:postcode": "17111", "addr:state": "PA", "addr:street_address": "651 E PARK DR", "amenity": "post_box", "collection_times": "Mo-Sa 09:00", "nsi_id": "unitedstatespostalservice-a77078", "operator": "United States Postal Service", "operator:short": "USPS", "operator:type": "public", "operator:wikidata": "Q668687", "ref": "1711100053"}, "type": "Feature"}
{"geometry": {"coordinates": [-76.8422805, 40.255667], "type": "Point"}, "id": "yw6IO2DRTSLzx_VmrlM-Colf3b4=", "properties": {"@source_uri": "https://tools.usps.com/UspsToolsRestServices/rest/POLocator/findLocations", "@spider": "usps_collection_boxes", "addr:city": "HARRISBURG", "addr:country": "US", "addr:postcode": "17111", "addr:state": "PA", "addr:street_address": "2771 PAXTON ST", "amenity": "post_box", "collection_times": "Mo-Sa 09:00", "name": "USPS COLLECTION BOX - EXPRESS", "nsi_id": "unitedstatespostalservice-a77078", "operator": "United States Postal Service", "operator:short": "USPS", "operator:type": "public", "operator:wikidata": "Q668687", "ref": "1711100055"}, "type": "Feature"}
{"geometry": {"coordinates": [-76.8113763, 40.246291], "type": "Point"}, "id": "l0l4bAx78w-7LJj7yOT4lAf46Q4=", "properties": {"@source_uri": "https://tools.usps.com/UspsToolsRestServices/rest/POLocator/findLocations", "@spider": "usps_collection_boxes", "addr:city": "HARRISBURG", "addr:country": "US", "addr:postcode": "17111", "addr:state": "PA", "addr:street_address": "599 EISENHOWER BLVD", "amenity": "post_box", "collection_times": "Mo-Sa 09:00", "name": "USPS COLLECTION BOX - EXPRESS", "nsi_id": "unitedstatespostalservice-a77078", "operator": "United States Postal Service", "operator:short": "USPS", "operator:type": "public", "operator:wikidata": "Q668687", "ref": "1711100056"}, "type": "Feature"}
{"geometry": {"coordinates": [-76.797367, 40.259074], "type": "Point"}, "id": "U6VxzThQWxe7iEqCCf4g1LHigVA=", "properties": {"@source_uri": "https://tools.usps.com/UspsToolsRestServices/rest/POLocator/findLocations", "@spider": "usps_collection_boxes", "addr:city": "HARRISBURG", "addr:country": "US", "addr:postcode": "17111", "addr:state": "PA", "addr:street_address": "5120 DERRY ST", "amenity": "post_box", "collection_times": "Mo-Sa 11:45", "nsi_id": "unitedstatespostalservice-a77078", "operator": "United States Postal Service", "operator:short": "USPS", "operator:type": "public", "operator:wikidata": "Q668687", "ref": "1711100059"}, "type": "Feature"}
{"geometry": {"coordinates": [-76.8363548, 40.2588578], "type": "Point"}, "id": "hp9W3C3edqDT0M00mksr70ZoG7M=", "properties": {"@source_uri": "https://tools.usps.com/UspsToolsRestServices/rest/POLocator/findLocations", "@spider": "usps_collection_boxes", "addr:city": "HARRISBURG", "addr:country": "US", "addr:postcode": "17111", "addr:state": "PA", "addr:street_address": "3869 DERRY ST", "amenity": "post_box", "collection_times": "Mo-Sa 09:00", "nsi_id": "unitedstatespostalservice-a77078", "operator": "United States Postal Service", "operator:short": "USPS", "operator:type": "public", "operator:wikidata": "Q668687", "ref": "1711100060"}, "type": "Feature"}
{"geometry": {"coordinates": [-76.7954039, 40.283081], "type": "Point"}, "id": "-fcC88naAsldC6Tkgu3VxNX1B9k=", "properties": {"@source_uri": "https://tools.usps.com/UspsToolsRestServices/rest/POLocator/findLocations", "@spider": "usps_collection_boxes", "addr:city": "HARRISBURG", "addr:country": "US", "addr:postcode": "17111", "addr:state": "PA", "addr:street_address": "5400 POND RD", "amenity": "post_box", "collection_times": "Mo-Fr 09:00", "nsi_id": "unitedstatespostalservice-a77078", "operator": "United States Postal Service", "operator:short": "USPS", "operator:type": "public", "operator:wikidata": "Q668687", "ref": "1711100068"}, "type": "Feature"}
{"geometry": {"coordinates": [-76.8085248, 40.256052], "type": "Point"}, "id": "mMdMKACVvkpeRzHOegpJGiryZ5E=", "properties": {"@source_uri": "https://tools.usps.com/UspsToolsRestServices/rest/POLocator/findLocations", "@spider": "usps_collection_boxes", "addr:city": "HARRISBURG", "addr:country": "US", "addr:postcode": "17111", "addr:state": "PA", "addr:street_address": "150 S 43RD ST", "amenity": "post_box", "collection_times": "Mo-Sa 09:00", "nsi_id": "unitedstatespostalservice-a77078", "operator": "United States Postal Service", "operator:short": "USPS", "operator:type": "public", "operator:wikidata": "Q668687", "ref": "1711100070"}, "type": "Feature"}
{"geometry": {"coordinates": [-76.797367, 40.259074], "type": "Point"}, "id": "DgthJ5UxkCEE7bvqxSAE-G8BmpY=", "properties": {"@source_uri": "https://tools.usps.com/UspsToolsRestServices/rest/POLocator/findLocations", "@spider": "usps_collection_boxes", "addr:city": "HARRISBURG", "addr:country": "US", "addr:postcode": "17111", "addr:state": "PA", "addr:street_address": "5120 DERRY ST", "amenity": "post_box", "collection_times": "Mo-Sa 11:45", "indoor": "yes", "nsi_id": "unitedstatespostalservice-a77078", "operator": "United States Postal Service", "operator:short": "USPS", "operator:type": "public", "operator:wikidata": "Q668687", "ref": "1711100071"}, "type": "Feature"}
{"geometry": {"coordinates": [-76.8240068, 40.251363], "type": "Point"}, "id": "-copWu93lp_yF3WuFcC1sCr1E8M=", "properties": {"@source_uri": "https://tools.usps.com/UspsToolsRestServices/rest/POLocator/findLocations", "@spider": "usps_collection_boxes", "addr:city": "HARRISBURG", "addr:country": "US", "addr:postcode": "17111", "addr:state": "PA", "addr:street_address": "3721 TECPORT DR", "amenity": "post_box", "collection_times": "Mo-Fr 09:00", "nsi_id": "unitedstatespostalservice-a77078", "operator": "United States Postal Service", "operator:short": "USPS", "operator:type": "public", "operator:wikidata": "Q668687", "ref": "1711100072"}, "type": "Feature"}
{"geometry": {"coordinates": [-76.7422566, 40.258715], "type": "Point"}, "id": "qFeQ3wVD3z7pfBmFUZzjSK_QAzA=", "properties": {"@source_uri": "https://tools.usps.com/UspsToolsRestServices/rest/POLocator/findLocations", "@spider": "usps_collection_boxes", "addr:city": "HARRISBURG", "addr:country": "US", "addr:postcode": "17111", "addr:state": "PA", "addr:street_address": "671 S 82ND ST", "amenity": "post_box", "collection_times": "Mo-Sa 09:00", "nsi_id": "unitedstatespostalservice-a77078", "operator": "United States Postal Service", "operator:short": "USPS", "operator:type": "public", "operator:wikidata": "Q668687", "ref": "1711100074"}, "type": "Feature"}
{"geometry": {"coordinates": [-76.8362409, 40.25937], "type": "Point"}, "id": "QSqes5YbMhochElg0M66Ofppw0o=", "properties": {"@source_uri": "https://tools.usps.com/UspsToolsRestServices/rest/POLocator/findLocations", "@spider": "usps_collection_boxes", "addr:city": "HARRISBURG", "addr:country": "US", "addr:postcode": "17111", "addr:state": "PA", "addr:street_address": "3200 DERRY ST", "amenity": "post_box", "collection_times": "Mo-Sa 09:00", "nsi_id": "unitedstatespostalservice-a77078", "operator": "United States Postal Service", "operator:short": "USPS", "operator:type": "public", "operator:wikidata": "Q668687", "ref": "1711100076"}, "type": "Feature"}
{"geometry": {"coordinates": [-76.797323051, 40.259097384], "type": "Point"}, "id": "NlKkY0BmA4MZORvgvhFgWSWnDQI=", "properties": {"@source_uri": "https://tools.usps.com/UspsToolsRestServices/rest/POLocator/findLocations", "@spider": "usps_collection_boxes", "addr:city": "HARRISBURG", "addr:country": "US", "addr:postcode": "17111", "addr:state": "PA", "addr:street_address": "5120 DERRY ST", "amenity": "post_box", "collection_times": "Mo-Sa 11:45", "indoor": "yes", "nsi_id": "unitedstatespostalservice-a77078", "operator": "United States Postal Service", "operator:short": "USPS", "operator:type": "public", "operator:wikidata": "Q668687", "ref": "1711100082"}, "type": "Feature"}
{"geometry": {"coordinates": [-76.7918924, 40.331654], "type": "Point"}, "id": "HjLK_8007pos9XKef86YoOLQoCo=", "properties": {"@source_uri": "https://tools.usps.com/UspsToolsRestServices/rest/POLocator/findLocations", "@spider": "usps_collection_boxes", "addr:city": "HARRISBURG", "addr:country": "US", "addr:postcode": "17112", "addr:state": "PA", "addr:street_address": "600 N MOUNTAIN RD", "amenity": "post_box", "collection_times": "Mo-Sa 11:00", "nsi_id": "unitedstatespostalservice-a77078", "operator": "United States Postal Service", "operator:short": "USPS", "operator:type": "public", "operator:wikidata": "Q668687", "ref": "1711200001"}, "type": "Feature"}
{"geometry": {"coordinates": [-76.7246805, 40.354981], "type": "Point"}, "id": "oO8FEr6fZoxGisJb7MtxliaRPcc=", "properties": {"@source_uri": "https://tools.usps.com/UspsToolsRestServices/rest/POLocator/findLocations", "@spider": "usps_collection_boxes", "addr:city": "HARRISBURG", "addr:country": "US", "addr:postcode": "17112", "addr:state": "PA", "addr:street_address": "7848 LINGLESTOWN RD", "amenity": "post_box", "collection_times": "Mo-Sa 11:00", "nsi_id": "unitedstatespostalservice-a77078", "operator": "United States Postal Service", "operator:short": "USPS", "operator:type": "public", "operator:wikidata": "Q668687", "ref": "1711200002"}, "type": "Feature"}
{"geometry": {"coordinates": [-76.7728039, 40.314497], "type": "Point"}, "id": "TyqA8OSDp99rodglNQF6UuSLV8w=", "properties": {"@source_uri": "https://tools.usps.com/UspsToolsRestServices/rest/POLocator/findLocations", "@spider": "usps_collection_boxes", "addr:city": "HARRISBURG", "addr:country": "US", "addr:postcode": "17112", "addr:state": "PA", "addr:street_address": "400 LOPAX RD", "amenity": "post_box", "collection_times": "Mo-Fr 09:00", "nsi_id": "unitedstatespostalservice-a77078", "operator": "United States Postal Service", "operator:short": "USPS", "operator:type": "public", "operator:wikidata": "Q668687", "ref": "1711200003"}, "type": "Feature"}
{"geometry": {"coordinates": [-76.8268547, 40.304813], "type": "Point"}, "id": "r5akQdyssrP5bQvsMvAHPUjqJ6U=", "properties": {"@source_uri": "https://tools.usps.com/UspsToolsRestServices/rest/POLocator/findLocations", "@spider": "usps_collection_boxes", "addr:city": "HARRISBURG", "addr:country": "US", "addr:postcode": "17112", "addr:state": "PA", "addr:street_address": "4117 BEECHWOOD LN", "amenity": "post_box", "collection_times": "Mo-Fr 09:00", "nsi_id": "unitedstatespostalservice-a77078", "operator": "United States Postal Service", "operator:short": "USPS", "operator:type": "public", "operator:wikidata": "Q668687", "ref": "1711200006"}, "type": "Feature"}
{"geometry": {"coordinates": [-76.7917483, 40.340591], "type": "Point"}, "id": "qmHlfLJhExARksJnwhhQfdlevp0=", "properties": {"@source_uri": "https://tools.usps.com/UspsToolsRestServices/rest/POLocator/findLocations", "@spider": "usps_collection_boxes", "addr:city": "HARRISBURG", "addr:country": "US", "addr:postcode": "17112", "addr:state": "PA", "addr:street_address": "1288 N MOUNTAIN RD", "amenity": "post_box", "collection_times": "Mo-Sa 11:00", "nsi_id": "unitedstatespostalservice-a77078", "operator": "United States Postal Service", "operator:short": "USPS", "operator:type": "public", "operator:wikidata": "Q668687", "ref": "1711200009"}, "type": "Feature"}
{"geometry": {"coordinates": [-76.7896209, 40.343752], "type": "Point"}, "id": "NkazVyY5qbcXiA1H7crbnn1CEEs=", "properties": {"@source_uri": "https://tools.usps.com/UspsToolsRestServices/rest/POLocator/findLocations", "@spider": "usps_collection_boxes", "addr:city": "HARRISBURG", "addr:country": "US", "addr:postcode": "17112", "addr:state": "PA", "addr:street_address": "6041 LINGLESTOWN RD", "amenity": "post_box", "collection_times": "Mo-Sa 09:00", "nsi_id": "unitedstatespostalservice-a77078", "operator": "United States Postal Service", "operator:short": "USPS", "operator:type": "public", "operator:wikidata": "Q668687", "ref": "1711200013"}, "type": "Feature"}
{"geometry": {"coordinates": [-76.7266841, 40.335876], "type": "Point"}, "id": "Rz-mfdAFYylCgp9oqMoVXgSy174=", "properties": {"@source_uri": "https://tools.usps.com/UspsToolsRestServices/rest/POLocator/findLocations", "@spider": "usps_collection_boxes", "addr:city": "HARRISBURG", "addr:country": "US", "addr:postcode": "17112", "addr:state": "PA", "addr:street_address": "7710 ALLENTOWN BLVD", "amenity": "post_box", "collection_times": "Mo-Sa 09:00", "nsi_id": "unitedstatespostalservice-a77078", "operator": "United States Postal Service", "operator:short": "USPS", "operator:type": "public", "operator:wikidata": "Q668687", "ref": "1711200016"}, "type": "Feature"}
{"geometry": {"coordinates": [-76.8214635, 40.34099], "type": "Point"}, "id": "sr82y1bmO-bjBMMMBe6n8qyh070=", "properties": {"@source_uri": "https://tools.usps.com/UspsToolsRestServices/rest/POLocator/findLocations", "@spider": "usps_collection_boxes", "addr:city": "HARRISBURG", "addr:country": "US", "addr:postcode": "17112", "addr:state": "PA", "addr:street_address": "1 FAIRFAX VIL", "amenity": "post_box", "collection_times": "Mo-Fr 09:00", "nsi_id": "unitedstatespostalservice-a77078", "operator": "United States Postal Service", "operator:short": "USPS", "operator:type": "public", "operator:wikidata": "Q668687", "ref": "1711200018"}, "type": "Feature"}
{"geometry": {"coordinates": [-76.8151183, 40.337638], "type": "Point"}, "id": "VoNHRSU8UpzgjZmoE5Mp-91ihsk=", "properties": {"@source_uri": "https://tools.usps.com/UspsToolsRestServices/rest/POLocator/findLocations", "@spider": "usps_collection_boxes", "addr:city": "HARRISBURG", "addr:country": "US", "addr:postcode": "17112", "addr:state": "PA", "addr:street_address": "4800 LINGLESTOWN RD", "amenity": "post_box", "collection_times": "Mo-Fr 11:00", "nsi_id": "unitedstatespostalservice-a77078", "operator": "United States Postal Service", "operator:short": "USPS", "operator:type": "public", "operator:wikidata": "Q668687", "ref": "1711200019"}, "type": "Feature"}
{"geometry": {"coordinates": [-76.8160982, 40.336022], "type": "Point"}, "id": "ATMtk74TY1evALgvGzv_tTzhxk4=", "properties": {"@source_uri": "https://tools.usps.com/UspsToolsRestServices/rest/POLocator/findLocations", "@spider": "usps_collection_boxes", "addr:city": "HARRISBURG", "addr:country": "US", "addr:postcode": "17112", "addr:state": "PA", "addr:street_address": "4755 LINGLESTOWN RD", "amenity": "post_box", "collection_times": "Mo-Sa 11:00", "nsi_id": "unitedstatespostalservice-a77078", "operator": "United States Postal Service", "operator:short": "USPS", "operator:type": "public", "operator:wikidata": "Q668687", "ref": "1711200020"}, "type": "Feature"}
{"geometry": {"coordinates": [-76.8147004, 40.336109], "type": "Point"}, "id": "AzASC2uh308S4Gn5Uk12FRfS65I=", "properties": {"@source_uri": "https://tools.usps.com/UspsToolsRestServices/rest/POLocator/findLocations", "@spider": "usps_collection_boxes", "addr:city": "HARRISBURG", "addr:country": "US", "addr:postcode": "17112", "addr:state": "PA", "addr:street_address": "4775 LINGLESTOWN RD", "amenity": "post_box", "collection_times": "Mo-Sa 11:00", "nsi_id": "unitedstatespostalservice-a77078", "operator": "United States Postal Service", "operator:short": "USPS", "operator:type": "public", "operator:wikidata": "Q668687", "ref": "1711200021"}, "type": "Feature"}
{"geometry": {"coordinates": [-76.8198847, 40.336474], "type": "Point"}, "id": "Yl7TFetlh9-jsATWc1DX6en62Y4=", "properties": {"@source_uri": "https://tools.usps.com/UspsToolsRestServices/rest/POLocator/findLocations", "@spider": "usps_collection_boxes", "addr:city": "HARRISBURG", "addr:country": "US", "addr:postcode": "17112", "addr:state": "PA", "addr:street_address": "4401 LINGLESTOWN RD", "amenity": "post_box", "collection_times": "Mo-Sa 11:00", "nsi_id": "unitedstatespostalservice-a77078", "operator": "United States Postal Service", "operator:short": "USPS", "operator:type": "public", "operator:wikidata": "Q668687", "ref": "1711200023"}, "type": "Feature"}
{"geometry": {"coordinates": [-76.7865461, 40.321944], "type": "Point"}, "id": "VQexpuz7N579t1ty_ds9NmWbvJI=", "properties": {"@source_uri": "https://tools.usps.com/UspsToolsRestServices/rest/POLocator/findLocations", "@spider": "usps_collection_boxes", "addr:city": "HARRISBURG", "addr:country": "US", "addr:postcode": "17112", "addr:state": "PA", "addr:street_address": "6059 ALLENTOWN BLVD", "amenity": "post_box", "collection_times": "Mo-Sa 11:15", "nsi_id": "unitedstatespostalservice-a77078", "operator": "United States Postal Service", "operator:short": "USPS", "operator:type": "public", "operator:wikidata": "Q668687", "ref": "1711200025"}, "type": "Feature"}
{"geometry": {"coordinates": [-76.8329495, 40.336793], "type": "Point"}, "id": "Ed9ZF6e-lksh9ofC8x0ivVfY6ZE=", "properties": {"@source_uri": "https://tools.usps.com/UspsToolsRestServices/rest/POLocator/findLocations", "@spider": "usps_collection_boxes", "addr:city": "HARRISBURG", "addr:country": "US", "addr:postcode": "17112", "addr:state": "PA", "addr:street_address": "2213 FOREST HILLS DR", "amenity": "post_box", "collection_times": "Mo-Sa 11:00", "nsi_id": "unitedstatespostalservice-a77078", "operator": "United States Postal Service", "operator:short": "USPS", "operator:type": "public", "operator:wikidata": "Q668687", "ref": "1711200031"}, "type": "Feature"}
{"geometry": {"coordinates": [-76.790299391, 40.3187429078], "type": "Point"}, "id": "zqZiit-NuLXwNeKBrVcO_EfVnM4=", "properties": {"@source_uri": "https://tools.usps.com/UspsToolsRestServices/rest/POLocator/findLocations", "@spider": "usps_collection_boxes", "addr:city": "HARRISBURG", "addr:country": "US", "addr:postcode": "17112", "addr:state": "PA", "addr:street_address": "5901 OLD JONESTOWN RD", "amenity": "post_box", "collection_times": "Mo-Fr 18:00; Sa 16:00", "note": "ON 12/24 AND 12/31, THIS BOX MAY BE COLLECTED AS EARLY AS 12 NOON.", "nsi_id": "unitedstatespostalservice-a77078", "operator": "United States Postal Service", "operator:short": "USPS", "operator:type": "public", "operator:wikidata": "Q668687", "ref": "1711200038"}, "type": "Feature"}
{"geometry": {"coordinates": [-76.7979919, 40.317975], "type": "Point"}, "id": "2enCFr4Ad0SebhYaewR5aSVox7A=", "properties": {"@source_uri": "https://tools.usps.com/UspsToolsRestServices/rest/POLocator/findLocations", "@spider": "usps_collection_boxes", "addr:city": "HARRISBURG", "addr:country": "US", "addr:postcode": "17112", "addr:state": "PA", "addr:street_address": "5351 JAYCEE AVE", "amenity": "post_box", "collection_times": "Mo-Sa 11:00", "nsi_id": "unitedstatespostalservice-a77078", "operator": "United States Postal Service", "operator:short": "USPS", "operator:type": "public", "operator:wikidata": "Q668687", "ref": "1711200041"}, "type": "Feature"}
{"geometry": {"coordinates": [-76.8038813, 40.309403], "type": "Point"}, "id": "CvkZVTciJrhjkXQ2FYuk8hVrjO8=", "properties": {"@source_uri": "https://tools.usps.com/UspsToolsRestServices/rest/POLocator/findLocations", "@spider": "usps_collection_boxes", "addr:city": "HARRISBURG", "addr:country": "US", "addr:postcode": "17112", "addr:state": "PA", "addr:street_address": "5050 JONESTOWN RD", "amenity": "post_box", "collection_times": "Mo-Sa 11:30", "nsi_id": "unitedstatespostalservice-a77078", "operator": "United States Postal Service", "operator:short": "USPS", "operator:type": "public", "operator:wikidata": "Q668687", "ref": "1711200042"}, "type": "Feature"}
{"geometry": {"coordinates": [-76.7903835, 40.318256], "type": "Point"}, "id": "ASj23GuDL2oiMP79zYIR9iqXUtk=", "properties": {"@source_uri": "https://tools.usps.com/UspsToolsRestServices/rest/POLocator/findLocations", "@spider": "usps_collection_boxes", "addr:city": "HARRISBURG", "addr:country": "US", "addr:postcode": "17112", "addr:state": "PA", "addr:street_address": "5901 OLD JONESTOWN RD", "amenity": "post_box", "collection_times": "Mo-Sa 11:45", "indoor": "yes", "nsi_id": "unitedstatespostalservice-a77078", "operator": "United States Postal Service", "operator:short": "USPS", "operator:type": "public", "operator:wikidata": "Q668687", "ref": "1711200045"}, "type": "Feature"}
{"geometry": {"coordinates": [-76.7805641, 40.326432], "type": "Point"}, "id": "87X-eBJjFcp0DXawL81lf7BPTwg=", "properties": {"@source_uri": "https://tools.usps.com/UspsToolsRestServices/rest/POLocator/findLocations", "@spider": "usps_collection_boxes", "addr:city": "HARRISBURG", "addr:country": "US", "addr:postcode": "17112", "addr:state": "PA", "addr:street_address": "6332 FLANK DR", "amenity": "post_box", "collection_times": "Mo-Sa 11:00", "nsi_id": "unitedstatespostalservice-a77078", "operator": "United States Postal Service", "operator:short": "USPS", "operator:type": "public", "operator:wikidata": "Q668687", "ref": "1711200046"}, "type": "Feature"}
{"geometry": {"coordinates": [-76.8269052, 40.308827], "type": "Point"}, "id": "99xE2NpwLbxHsIlhTeZnCLzk4rk=", "properties": {"@source_uri": "https://tools.usps.com/UspsToolsRestServices/rest/POLocator/findLocations", "@spider": "usps_collection_boxes", "addr:city": "HARRISBURG", "addr:country": "US", "addr:postcode": "17112", "addr:state": "PA", "addr:street_address": "4200 CRUMS MILL RD", "amenity": "post_box", "collection_times": "Mo-Sa 11:00", "nsi_id": "unitedstatespostalservice-a77078", "operator": "United States Postal Service", "operator:short": "USPS", "operator:type": "public", "operator:wikidata": "Q668687", "ref": "1711200048"}, "type": "Feature"}
{"geometry": {"coordinates": [-76.7903763, 40.318241], "type": "Point"}, "id": "ysR9Ow_-l7QBYzj-0HeziQoiQTA=", "properties": {"@source_uri": "https://tools.usps.com/UspsToolsRestServices/rest/POLocator/findLocations", "@spider": "usps_collection_boxes", "addr:city": "HARRISBURG", "addr:country": "US", "addr:postcode": "17112", "addr:state": "PA", "addr:street_address": "5901 OLD JONESTOWN RD", "amenity": "post_box", "collection_times": "Mo-Sa 11:45", "name": "USPS COLLECTION BOX - APC", "nsi_id": "unitedstatespostalservice-a77078", "operator": "United States Postal Service", "operator:short": "USPS", "operator:type": "public", "operator:wikidata": "Q668687", "ref": "1711200049"}, "type": "Feature"}
{"geometry": {"coordinates": [-76.790366263, 40.318714838], "type": "Point"}, "id": "IJJ75IM0AqtpbBwlJR-NorjJZc0=", "properties": {"@source_uri": "https://tools.usps.com/UspsToolsRestServices/rest/POLocator/findLocations", "@spider": "usps_collection_boxes", "addr:city": "HARRISBURG", "addr:country": "US", "addr:postcode": "17112", "addr:state": "PA", "addr:street_address": "5901 JONESTOWN RD", "amenity": "post_box", "collection_times": "Mo-Sa 11:45", "indoor": "yes", "nsi_id": "unitedstatespostalservice-a77078", "operator": "United States Postal Service", "operator:short": "USPS", "operator:type": "public", "operator:wikidata": "Q668687", "ref": "1711200057"}, "type": "Feature"}
{"geometry": {"coordinates": [-76.8259659, 40.224564], "type": "Point"}, "id": "LgUirEJSnTDI6mps6mRBRrdMl6o=", "properties": {"@source_uri": "https://tools.usps.com/UspsToolsRestServices/rest/POLocator/findLocations", "@spider": "usps_collection_boxes", "addr:city": "STEELTON", "addr:country": "US", "addr:postcode": "17113", "addr:state": "PA", "addr:street_address": "803 S FRONT ST", "amenity": "post_box", "collection_times": "Mo-Fr 09:00; Sa 08:00", "nsi_id": "unitedstatespostalservice-a77078", "operator": "United States Postal Service", "operator:short": "USPS", "operator:type": "public", "operator:wikidata": "Q668687", "ref": "1711300001"}, "type": "Feature"}
{"geometry": {"coordinates": [-76.8347613, 40.232365], "type": "Point"}, "id": "SHh4qEUxl4mzcRLyhYR0xUI-oyU=", "properties": {"@source_uri": "https://tools.usps.com/UspsToolsRestServices/rest/POLocator/findLocations", "@spider": "usps_collection_boxes", "addr:city": "STEELTON", "addr:country": "US", "addr:postcode": "17113", "addr:state": "PA", "addr:street_address": "270 S 2ND ST", "amenity": "post_box", "collection_times": "Mo-Fr 09:00; Sa 08:00", "nsi_id": "unitedstatespostalservice-a77078", "operator": "United States Postal Service", "operator:short": "USPS", "operator:type": "public", "operator:wikidata": "Q668687", "ref": "1711300002"}, "type": "Feature"}
{"geometry": {"coordinates": [-76.8090731, 40.216008], "type": "Point"}, "id": "oPeSrBNiSAmzupCHi3gnMSzPf3c=", "properties": {"@source_uri": "https://tools.usps.com/UspsToolsRestServices/rest/POLocator/findLocations", "@spider": "usps_collection_boxes", "addr:city": "STEELTON", "addr:country": "US", "addr:postcode": "17113", "addr:state": "PA", "addr:street_address": "101 FELTON ST", "amenity": "post_box", "collection_times": "Mo-Fr 09:00; Sa 08:00", "nsi_id": "unitedstatespostalservice-a77078", "operator": "United States Postal Service", "operator:short": "USPS", "operator:type": "public", "operator:wikidata": "Q668687", "ref": "1711300004"}, "type": "Feature"}
{"geometry": {"coordinates": [-76.8394981, 40.235299], "type": "Point"}, "id": "Mjm7d2dQa9vaSIAhPszznbbzj-U=", "properties": {"@source_uri": "https://tools.usps.com/UspsToolsRestServices/rest/POLocator/findLocations", "@spider": "usps_collection_boxes", "addr:city": "STEELTON", "addr:country": "US", "addr:postcode": "17113", "addr:state": "PA", "addr:street_address": "101 LOCUST ST", "amenity": "post_box", "collection_times": "Mo-Sa 11:45", "nsi_id": "unitedstatespostalservice-a77078", "operator": "United States Postal Service", "operator:short": "USPS", "operator:type": "public", "operator:wikidata": "Q668687", "ref": "1711300006"}, "type": "Feature"}
{"geometry": {"coordinates": [-76.8322433, 40.229926], "type": "Point"}, "id": "fP0nIVvxplTH5JnFegF_bqSfJ5c=", "properties": {"@source_uri": "https://tools.usps.com/UspsToolsRestServices/rest/POLocator/findLocations", "@spider": "usps_collection_boxes", "addr:city": "STEELTON", "addr:country": "US", "addr:postcode": "17113", "addr:state": "PA", "addr:street_address": "410 S 2ND ST", "amenity": "post_box", "collection_times": "Mo-Fr 09:00; Sa 08:00", "nsi_id": "unitedstatespostalservice-a77078", "operator": "United States Postal Service", "operator:short": "USPS", "operator:type": "public", "operator:wikidata": "Q668687", "ref": "1711300007"}, "type": "Feature"}
{"geometry": {"coordinates": [-76.8319033, 40.235128], "type": "Point"}, "id": "q1OcKOjBr_fFmOfgNdzheDAu5qA=", "properties": {"@source_uri": "https://tools.usps.com/UspsToolsRestServices/rest/POLocator/findLocations", "@spider": "usps_collection_boxes", "addr:city": "STEELTON", "addr:country": "US", "addr:postcode": "17113", "addr:state": "PA", "addr:street_address": "434 SPRUCE ST", "amenity": "post_box", "collection_times": "Mo-Fr 09:00; Sa 08:00", "nsi_id": "unitedstatespostalservice-a77078", "operator": "United States Postal Service", "operator:short": "USPS", "operator:type": "public", "operator:wikidata": "Q668687", "ref": "1711300013"}, "type": "Feature"}
{"geometry": {"coordinates": [-76.8257383, 40.233529], "type": "Point"}, "id": "L3k6c_Bwsn5P7k2n-aJIXlDmxQw=", "properties": {"@source_uri": "https://tools.usps.com/UspsToolsRestServices/rest/POLocator/findLocations", "@spider": "usps_collection_boxes", "addr:city": "STEELTON", "addr:country": "US", "addr:postcode": "17113", "addr:state": "PA", "addr:street_address": "603 HIGHLAND ST", "amenity": "post_box", "collection_times": "Mo-Fr 09:00; Sa 08:00", "nsi_id": "unitedstatespostalservice-a77078", "operator": "United States Postal Service", "operator:short": "USPS", "operator:type": "public", "operator:wikidata": "Q668687", "ref": "1711300014"}, "type": "Feature"}
{"geometry": {"coordinates": [-76.8432312, 40.236092], "type": "Point"}, "id": "yLMG7Bu2sX8Nz85k9MozmH785lI=", "properties": {"@source_uri": "https://tools.usps.com/UspsToolsRestServices/rest/POLocator/findLocations", "@spider": "usps_collection_boxes", "addr:city": "STEELTON", "addr:country": "US", "addr:postcode": "17113", "addr:state": "PA", "addr:street_address": "225 N FRONT ST", "amenity": "post_box", "collection_times": "Mo-Fr 09:00; Sa 08:00", "nsi_id": "unitedstatespostalservice-a77078", "operator": "United States Postal Service", "operator:short": "USPS", "operator:type": "public", "operator:wikidata": "Q668687", "ref": "1711300016"}, "type": "Feature"}
{"geometry": {"coordinates": [-76.8460111, 40.237049], "type": "Point"}, "id": "be1l0vxwUI8szmml6nSNliyvFRk=", "properties": {"@source_uri": "https://tools.usps.com/UspsToolsRestServices/rest/POLocator/findLocations", "@spider": "usps_collection_boxes", "addr:city": "STEELTON", "addr:country": "US", "addr:postcode": "17113", "addr:state": "PA", "addr:street_address": "407 N FRONT ST", "amenity": "post_box", "collection_times": "Mo-Fr 09:00; Sa 08:00", "nsi_id": "unitedstatespostalservice-a77078", "operator": "United States Postal Service", "operator:short": "USPS", "operator:type": "public", "operator:wikidata": "Q668687", "ref": "1711300017"}, "type": "Feature"}
{"geometry": {"coordinates": [-76.8497399, 40.238566], "type": "Point"}, "id": "lVkvjAmM32sR-uZrI22QFWbbpaA=", "properties": {"@source_uri": "https://tools.usps.com/UspsToolsRestServices/rest/POLocator/findLocations", "@spider": "usps_collection_boxes", "addr:city": "STEELTON", "addr:country": "US", "addr:postcode": "17113", "addr:state": "PA", "addr:street_address": "661 N FRONT ST", "amenity": "post_box", "collection_times": "Mo-Fr 09:00; Sa 08:00", "nsi_id": "unitedstatespostalservice-a77078", "operator": "United States Postal Service", "operator:short": "USPS", "operator:type": "public", "operator:wikidata": "Q668687", "ref": "1711300018"}, "type": "Feature"}
{"geometry": {"coordinates": [-76.8388003, 40.234115], "type": "Point"}, "id": "TsxlgfDiyzkRIqEa2N4TNE2qIz0=", "properties": {"@source_uri": "https://tools.usps.com/UspsToolsRestServices/rest/POLocator/findLocations", "@spider": "usps_collection_boxes", "addr:city": "STEELTON", "addr:country": "US", "addr:postcode": "17113", "addr:state": "PA", "addr:street_address": "51 S FRONT ST", "amenity": "post_box", "collection_times": "Mo-Sa 09:00", "nsi_id": "unitedstatespostalservice-a77078", "operator": "United States Postal Service", "operator:short": "USPS", "operator:type": "public", "operator:wikidata": "Q668687", "ref": "1711300022"}, "type": "Feature"}
{"geometry": {"coordinates": [-76.8305021, 40.227307], "type": "Point"}, "id": "0KhhicSx1IJ_NXvrAkqo6B875Y0=", "properties": {"@source_uri": "https://tools.usps.com/UspsToolsRestServices/rest/POLocator/findLocations", "@spider": "usps_collection_boxes", "addr:city": "STEELTON", "addr:country": "US", "addr:postcode": "17113", "addr:state": "PA", "addr:street_address": "575 S FRONT ST", "amenity": "post_box", "collection_times": "Mo-Fr 09:00; Sa 08:00", "nsi_id": "unitedstatespostalservice-a77078", "operator": "United States Postal Service", "operator:short": "USPS", "operator:type": "public", "operator:wikidata": "Q668687", "ref": "1711300023"}, "type": "Feature"}
{"geometry": {"coordinates": [-76.8374992, 40.237382], "type": "Point"}, "id": "9US0c8KRvJ9ANsKBgvKJ-Gr7Yzk=", "properties": {"@source_uri": "https://tools.usps.com/UspsToolsRestServices/rest/POLocator/findLocations", "@spider": "usps_collection_boxes", "addr:city": "STEELTON", "addr:country": "US", "addr:postcode": "17113", "addr:state": "PA", "addr:street_address": "364 LOCUST ST", "amenity": "post_box", "collection_times": "Mo-Sa 09:00", "nsi_id": "unitedstatespostalservice-a77078", "operator": "United States Postal Service", "operator:short": "USPS", "operator:type": "public", "operator:wikidata": "Q668687", "ref": "1711300024"}, "type": "Feature"}
{"geometry": {"coordinates": [-76.8432103, 40.238237], "type": "Point"}, "id": "mCBSBH1P6iCmvwcSrDrXUtFSl10=", "properties": {"@source_uri": "https://tools.usps.com/UspsToolsRestServices/rest/POLocator/findLocations", "@spider": "usps_collection_boxes", "addr:city": "STEELTON", "addr:country": "US", "addr:postcode": "17113", "addr:state": "PA", "addr:street_address": "150 LINCOLN ST", "amenity": "post_box", "collection_times": "Mo-Fr 09:00; Sa 08:00", "nsi_id": "unitedstatespostalservice-a77078", "operator": "United States Postal Service", "operator:short": "USPS", "operator:type": "public", "operator:wikidata": "Q668687", "ref": "1711300027"}, "type": "Feature"}
{"geometry": {"coordinates": [-76.8203718, 40.230088], "type": "Point"}, "id": "25HiHZv5Qs5LGQ3E_4HOb9W5S5w=", "properties": {"@source_uri": "https://tools.usps.com/UspsToolsRestServices/rest/POLocator/findLocations", "@spider": "usps_collection_boxes", "addr:city": "STEELTON", "addr:country": "US", "addr:postcode": "17113", "addr:state": "PA", "addr:street_address": "623 MAIN ST", "amenity": "post_box", "collection_times": "Mo-Fr 09:00; Sa 08:00", "nsi_id": "unitedstatespostalservice-a77078", "operator": "United States Postal Service", "operator:short": "USPS", "operator:type": "public", "operator:wikidata": "Q668687", "ref": "1711300029"}, "type": "Feature"}
{"geometry": {"coordinates": [-76.8145264, 40.238518], "type": "Point"}, "id": "GD85GRpBrt4X8ESCnPbTGiDPgDg=", "properties": {"@source_uri": "https://tools.usps.com/UspsToolsRestServices/rest/POLocator/findLocations", "@spider": "usps_collection_boxes", "addr:city": "STEELTON", "addr:country": "US", "addr:postcode": "17113", "addr:state": "PA", "addr:street_address": "1152 MAIN ST", "amenity": "post_box", "collection_times": "Mo-Fr 09:00; Sa 08:00", "nsi_id": "unitedstatespostalservice-a77078", "operator": "United States Postal Service", "operator:short": "USPS", "operator:type": "public", "operator:wikidata": "Q668687", "ref": "1711300030"}, "type": "Feature"}
{"geometry": {"coordinates": [-76.8304751, 40.231504], "type": "Point"}, "id": "pGh2-qD44fKOraJ5zzIm580Y_BA=", "properties": {"@source_uri": "https://tools.usps.com/UspsToolsRestServices/rest/POLocator/findLocations", "@spider": "usps_collection_boxes", "addr:city": "STEELTON", "addr:country": "US", "addr:postcode": "17113", "addr:state": "PA", "addr:street_address": "301 MOHN ST", "amenity": "post_box", "collection_times": "Mo-Fr 09:00; Sa 08:00", "nsi_id": "unitedstatespostalservice-a77078", "operator": "United States Postal Service", "operator:short": "USPS", "operator:type": "public", "operator:wikidata": "Q668687", "ref": "1711300031"}, "type": "Feature"}
{"geometry": {"coordinates": [-76.8295295, 40.232887], "type": "Point"}, "id": "E-UYCnGDDDIHoUhBaVgkUrhlMXA=", "properties": {"@source_uri": "https://tools.usps.com/UspsToolsRestServices/rest/POLocator/findLocations", "@spider": "usps_collection_boxes", "addr:city": "STEELTON", "addr:country": "US", "addr:postcode": "17113", "addr:state": "PA", "addr:street_address": "501 MOHN ST", "amenity": "post_box", "collection_times": "Mo-Fr 09:00; Sa 08:00", "nsi_id": "unitedstatespostalservice-a77078", "operator": "United States Postal Service", "operator:short": "USPS", "operator:type": "public", "operator:wikidata": "Q668687", "ref": "1711300032"}, "type": "Feature"}
{"geometry": {"coordinates": [-76.8397586, 40.235249], "type": "Point"}, "id": "5uZNrFv45VoRUfT145fat1S8_q0=", "properties": {"@source_uri": "https://tools.usps.com/UspsToolsRestServices/rest/POLocator/findLocations", "@spider": "usps_collection_boxes", "addr:city": "STEELTON", "addr:country": "US", "addr:postcode": "17113", "addr:state": "PA", "addr:street_address": "29 LOCUST ST", "amenity": "post_box", "collection_times": "Mo-Sa 11:45", "indoor": "yes", "nsi_id": "unitedstatespostalservice-a77078", "operator": "United States Postal Service", "operator:short": "USPS", "operator:type": "public", "operator:wikidata": "Q668687", "ref": "1711300033"}, "type": "Feature"}
{"geometry": {"coordinates": [-76.818872336, 40.231687185], "type": "Point"}, "id": "PyKuOk9dDoD6OpPmrM7zLL-3Qe4=", "properties": {"@source_uri": "https://tools.usps.com/UspsToolsRestServices/rest/POLocator/findLocations", "@spider": "usps_collection_boxes", "addr:city": "STEELTON", "addr:country": "US", "addr:postcode": "17113", "addr:state": "PA", "addr:street_address": "29 LOCUST ST", "amenity": "post_box", "collection_times": "Mo-Sa 11:30", "indoor": "yes", "nsi_id": "unitedstatespostalservice-a77078", "operator": "United States Postal Service", "operator:short": "USPS", "operator:type": "public", "operator:wikidata": "Q668687", "ref": "1711300035"}, "type": "Feature"}
{"geometry": {"coordinates": [-76.8822014, 40.265535], "type": "Point"}, "id": "1yN4SOvAgapHr_iZNMD3foUeI0A=", "properties": {"@source_uri": "https://tools.usps.com/UspsToolsRestServices/rest/POLocator/findLocations", "@spider": "usps_collection_boxes", "addr:city": "HARRISBURG", "addr:country": "US", "addr:postcode": "17120", "addr:state": "PA", "addr:street_address": "100 COMMONWEALTH", "amenity": "post_box", "collection_times": "Mo-Fr 11:00", "nsi_id": "unitedstatespostalservice-a77078", "operator": "United States Postal Service", "operator:short": "USPS", "operator:type": "public", "operator:wikidata": "Q668687", "ref": "1712000025"}, "type": "Feature"}
{"geometry": {"coordinates": [-76.883657983, 40.2665709892], "type": "Point"}, "id": "H4dkkBjDPwlOWsW7HXn1ihqX_qc=", "properties": {"@source_uri": "https://tools.usps.com/UspsToolsRestServices/rest/POLocator/findLocations", "@spider": "usps_collection_boxes", "addr:city": "HARRISBURG", "addr:country": "US", "addr:postcode": "17120", "addr:state": "PA", "addr:street_address": "400 NORTH ST", "amenity": "post_box", "collection_times": "Mo-Fr 11:30", "nsi_id": "unitedstatespostalservice-a77078", "operator": "United States Postal Service", "operator:short": "USPS", "operator:type": "public", "operator:wikidata": "Q668687", "ref": "1712000026"}, "type": "Feature"}
