{"dataset_attributes": {"@spider": "usps_collection_boxes"}, "geometry": {"coordinates": [-77.676042145, 40.1713613588], "type": "Point"}, "id": "leMPPhOtfirrYWajdkNFIUIC5GU=", "properties": {"@spider": "usps_collection_boxes", "addr:city": "AMBERSON", "addr:country": "US", "addr:full": "19362 AMBERSON RD", "addr:postcode": "17210", "addr:state": "PA", "amenity": "post_box", "brand": "United States Postal Service", "brand:wikidata": "Q668687", "collection_times": "Mo-Fr 15:30; Sa 11:30", "name": "USPS COLLECTION BOX - BLUE BOX", "note": "ON 12/24 AND 12/31, THIS BOX MAY BE COLLECTED AS EARLY AS 12 NOON.", "nsi_id": "unitedstatespostalservice-a77078", "operator": "United States Postal Service", "operator:short": "USPS", "operator:type": "public", "operator:wikidata": "Q668687", "ref": "1721000001"}, "type": "Feature"}
{"dataset_attributes": {"@spider": "usps_collection_boxes"}, "geometry": {"coordinates": [-77.676042145, 40.1713613588], "type": "Point"}, "id": "6pAp2ZG0bm0zA64PSe5lD8F7kQw=", "properties": {"@spider": "usps_collection_boxes", "addr:city": "AMBERSON", "addr:country": "US", "addr:full": "19362 AMBERSON RD", "addr:postcode": "17210", "addr:state": "PA", "amenity": "post_box", "brand": "United States Postal Service", "brand:wikidata": "Q668687", "collection_times": "Mo-Fr 15:30; Sa 11:30", "name": "USPS COLLECTION BOX - PO LOBBY", "note": "ON 12/24 AND 12/31, THIS BOX MAY BE COLLECTED AS EARLY AS 12 NOON.", "nsi_id": "unitedstatespostalservice-a77078", "operator": "United States Postal Service", "operator:short": "USPS", "operator:type": "public", "operator:wikidata": "Q668687", "ref": "1721000002"}, "type": "Feature"}
{"dataset_attributes": {"@spider": "usps_collection_boxes"}, "geometry": {"coordinates": [-77.675620927, 40.171485386], "type": "Point"}, "id": "-twdZg8jzsMi3iyp_qZ_krsvJMY=", "properties": {"@spider": "usps_collection_boxes", "addr:city": "AMBERSON", "addr:country": "US", "addr:full": "19362 AMBERSON RD", "addr:postcode": "17210", "addr:state": "PA", "amenity": "post_box", "brand": "United States Postal Service", "brand:wikidata": "Q668687", "collection_times": "Mo-Fr 15:30; Sa 11:30", "name": "USPS COLLECTION BOX - PO LOBBY", "note": "ON 12/24 AND 12/31, THIS BOX MAY BE COLLECTED AS EARLY AS 12 NOON.", "nsi_id": "unitedstatespostalservice-a77078", "operator": "United States Postal Service", "operator:short": "USPS", "operator:type": "public", "operator:wikidata": "Q668687", "ref": "1721000004"}, "type": "Feature"}
{"dataset_attributes": {"@spider": "usps_collection_boxes"}, "geometry": {"coordinates": [-77.718587, 40.283782], "type": "Point"}, "id": "bP1sCRC8_yQdS_2ExU7WlZgXTsk=", "properties": {"@spider": "usps_collection_boxes", "addr:city": "BLAIRS MILLS", "addr:country": "US", "addr:full": "17394 TUSCARORA CREEK RD", "addr:postcode": "17213", "addr:state": "PA", "amenity": "post_box", "brand": "United States Postal Service", "brand:wikidata": "Q668687", "collection_times": "Mo-Sa 11:45", "name": "USPS COLLECTION BOX - BLUE BOX", "nsi_id": "unitedstatespostalservice-a77078", "operator": "United States Postal Service", "operator:short": "USPS", "operator:type": "public", "operator:wikidata": "Q668687", "ref": "1721300001"}, "type": "Feature"}
{"dataset_attributes": {"@spider": "usps_collection_boxes"}, "geometry": {"coordinates": [-77.71868, 40.283888], "type": "Point"}, "id": "m3m-DJZngzsp9WJUZF0-YLmsMEQ=", "properties": {"@spider": "usps_collection_boxes", "addr:city": "BLAIRS MILLS", "addr:country": "US", "addr:full": "17394 TUSCARORA CREEK RD", "addr:postcode": "17213", "addr:state": "PA", "amenity": "post_box", "brand": "United States Postal Service", "brand:wikidata": "Q668687", "collection_times": "Mo-Fr 12:00; Sa 11:45", "name": "USPS COLLECTION BOX - PO LOBBY", "nsi_id": "unitedstatespostalservice-a77078", "operator": "United States Postal Service", "operator:short": "USPS", "operator:type": "public", "operator:wikidata": "Q668687", "ref": "1721300002"}, "type": "Feature"}
{"dataset_attributes": {"@spider": "usps_collection_boxes"}, "geometry": {"coordinates": [-77.718588544, 40.283779243], "type": "Point"}, "id": "lxLQrkltsQtKHDAYm3YNP1D-iPU=", "properties": {"@spider": "usps_collection_boxes", "addr:city": "BLAIRS MILLS", "addr:country": "US", "addr:full": "17394 TUSCARORA CREEK RD", "addr:postcode": "17213", "addr:state": "PA", "amenity": "post_box", "brand": "United States Postal Service", "brand:wikidata": "Q668687", "collection_times": "Mo-Sa 12:00", "name": "USPS COLLECTION BOX - PO LOBBY", "nsi_id": "unitedstatespostalservice-a77078", "operator": "United States Postal Service", "operator:short": "USPS", "operator:type": "public", "operator:wikidata": "Q668687", "ref": "1721300004"}, "type": "Feature"}
{"dataset_attributes": {"@spider": "usps_collection_boxes"}, "geometry": {"coordinates": [-77.7525399, 40.16864], "type": "Point"}, "id": "X4YxV1iSBqViW4U-Eo6ficBNizM=", "properties": {"@spider": "usps_collection_boxes", "addr:city": "DRY RUN", "addr:country": "US", "addr:full": "18204 PATH VALLEY RD", "addr:postcode": "17220", "addr:state": "PA", "amenity": "post_box", "brand": "United States Postal Service", "brand:wikidata": "Q668687", "collection_times": "Mo-Fr 12:30; Sa 12:00", "name": "USPS COLLECTION BOX - BLUE BOX", "note": "ON 12/24 AND 12/31, THIS BOX MAY BE COLLECTED AS EARLY AS 12 NOON.", "nsi_id": "unitedstatespostalservice-a77078", "operator": "United States Postal Service", "operator:short": "USPS", "operator:type": "public", "operator:wikidata": "Q668687", "ref": "1722000001"}, "type": "Feature"}
{"dataset_attributes": {"@spider": "usps_collection_boxes"}, "geometry": {"coordinates": [-77.751195, 40.169205], "type": "Point"}, "id": "VaMVYJwdD8lY4I06ItFAJ1Er1u4=", "properties": {"@spider": "usps_collection_boxes", "addr:city": "DRY RUN", "addr:country": "US", "addr:full": "18204 PATH VALLEY RD", "addr:postcode": "17220", "addr:state": "PA", "amenity": "post_box", "brand": "United States Postal Service", "brand:wikidata": "Q668687", "collection_times": "Mo-Fr 12:30; Sa 11:30", "name": "USPS COLLECTION BOX - PO LOBBY", "note": "ON 12/24 AND 12/31, THIS BOX MAY BE COLLECTED AS EARLY AS 12 NOON.", "nsi_id": "unitedstatespostalservice-a77078", "operator": "United States Postal Service", "operator:short": "USPS", "operator:type": "public", "operator:wikidata": "Q668687", "ref": "1722000002"}, "type": "Feature"}
{"dataset_attributes": {"@spider": "usps_collection_boxes"}, "geometry": {"coordinates": [-77.751145441, 40.169149616], "type": "Point"}, "id": "sGsrtfW-o7sBQuK4fP5-xT9J868=", "properties": {"@spider": "usps_collection_boxes", "addr:city": "DRY RUN", "addr:country": "US", "addr:full": "18204 PATH VALLEY RD", "addr:postcode": "17220", "addr:state": "PA", "amenity": "post_box", "brand": "United States Postal Service", "brand:wikidata": "Q668687", "collection_times": "Mo-Fr 12:30; Sa 12:00", "name": "USPS COLLECTION BOX - PO LOBBY", "note": "ON 12/24 AND 12/31, THIS BOX MAY BE COLLECTED AS EARLY AS 12 NOON.", "nsi_id": "unitedstatespostalservice-a77078", "operator": "United States Postal Service", "operator:short": "USPS", "operator:type": "public", "operator:wikidata": "Q668687", "ref": "1722000005"}, "type": "Feature"}
{"dataset_attributes": {"@spider": "usps_collection_boxes"}, "geometry": {"coordinates": [-77.633942, 40.096153], "type": "Point"}, "id": "4MHUxB8Jg8jhgl9chVmh6uXkz7I=", "properties": {"@spider": "usps_collection_boxes", "addr:city": "LURGAN", "addr:country": "US", "addr:full": "8406 ROXBURY RD", "addr:postcode": "17232", "addr:state": "PA", "amenity": "post_box", "brand": "United States Postal Service", "brand:wikidata": "Q668687", "collection_times": "Mo-Fr 16:15; Sa 11:30", "name": "USPS COLLECTION BOX - BLUE BOX", "note": "ON 12/24 AND 12/31, THIS BOX MAY BE COLLECTED AS EARLY AS 12 NOON.", "nsi_id": "unitedstatespostalservice-a77078", "operator": "United States Postal Service", "operator:short": "USPS", "operator:type": "public", "operator:wikidata": "Q668687", "ref": "1723200001"}, "type": "Feature"}
{"dataset_attributes": {"@spider": "usps_collection_boxes"}, "geometry": {"coordinates": [-77.633975, 40.096218], "type": "Point"}, "id": "Aonm7Fl40aXph91nUj_EtkmTjQ4=", "properties": {"@spider": "usps_collection_boxes", "addr:city": "LURGAN", "addr:country": "US", "addr:full": "8406 ROXBURY RD", "addr:postcode": "17232", "addr:state": "PA", "amenity": "post_box", "brand": "United States Postal Service", "brand:wikidata": "Q668687", "collection_times": "Mo-Fr 16:15; Sa 11:30", "name": "USPS COLLECTION BOX - PO LOBBY", "note": "ON 12/24 AND 12/31, THIS BOX MAY BE COLLECTED AS EARLY AS 12 NOON.", "nsi_id": "unitedstatespostalservice-a77078", "operator": "United States Postal Service", "operator:short": "USPS", "operator:type": "public", "operator:wikidata": "Q668687", "ref": "1723200002"}, "type": "Feature"}
{"dataset_attributes": {"@spider": "usps_collection_boxes"}, "geometry": {"coordinates": [-77.634003881, 40.096159217], "type": "Point"}, "id": "AgNfT1J9Gkm4hH2pffgcJyywKm0=", "properties": {"@spider": "usps_collection_boxes", "addr:city": "LURGAN", "addr:country": "US", "addr:full": "8406 ROXBURY RD", "addr:postcode": "17232", "addr:state": "PA", "amenity": "post_box", "brand": "United States Postal Service", "brand:wikidata": "Q668687", "collection_times": "Mo-Fr 16:15; Sa 11:30", "name": "USPS COLLECTION BOX - PO LOBBY", "note": "ON 12/24 AND 12/31, THIS BOX MAY BE COLLECTED AS EARLY AS 12 NOON.", "nsi_id": "unitedstatespostalservice-a77078", "operator": "United States Postal Service", "operator:short": "USPS", "operator:type": "public", "operator:wikidata": "Q668687", "ref": "1723200004"}, "type": "Feature"}
{"dataset_attributes": {"@spider": "usps_collection_boxes"}, "geometry": {"coordinates": [-77.55551, 40.135506], "type": "Point"}, "id": "dc4-aDj5EnfujwQTDagqJcj6tzE=", "properties": {"@spider": "usps_collection_boxes", "addr:city": "NEWBURG", "addr:country": "US", "addr:full": "12 S WATER ST", "addr:postcode": "17240", "addr:state": "PA", "amenity": "post_box", "brand": "United States Postal Service", "brand:wikidata": "Q668687", "collection_times": "Mo-Fr 16:00; Sa 11:45", "name": "USPS COLLECTION BOX - BLUE BOX", "note": "ON 12/24 AND 12/31, THIS BOX MAY BE COLLECTED AS EARLY AS 12 NOON.", "nsi_id": "unitedstatespostalservice-a77078", "operator": "United States Postal Service", "operator:short": "USPS", "operator:type": "public", "operator:wikidata": "Q668687", "ref": "1724000001"}, "type": "Feature"}
{"dataset_attributes": {"@spider": "usps_collection_boxes"}, "geometry": {"coordinates": [-77.555465, 40.135498], "type": "Point"}, "id": "CXoV1NKk8iSIIUubrtqhUQzBohM=", "properties": {"@spider": "usps_collection_boxes", "addr:city": "NEWBURG", "addr:country": "US", "addr:full": "12 S WATER ST", "addr:postcode": "17240", "addr:state": "PA", "amenity": "post_box", "brand": "United States Postal Service", "brand:wikidata": "Q668687", "collection_times": "Mo-Fr 16:00; Sa 11:45", "name": "USPS COLLECTION BOX - PO LOBBY", "note": "ON 12/24 AND 12/31, THIS BOX MAY BE COLLECTED AS EARLY AS 12 NOON.", "nsi_id": "unitedstatespostalservice-a77078", "operator": "United States Postal Service", "operator:short": "USPS", "operator:type": "public", "operator:wikidata": "Q668687", "ref": "1724000002"}, "type": "Feature"}
{"dataset_attributes": {"@spider": "usps_collection_boxes"}, "geometry": {"coordinates": [-77.555581148, 40.135623413], "type": "Point"}, "id": "3_1GF1Sr-SkESOveX08Yt7mNT9U=", "properties": {"@spider": "usps_collection_boxes", "addr:city": "NEWBURG", "addr:country": "US", "addr:full": "12 S WATER ST", "addr:postcode": "17240", "addr:state": "PA", "amenity": "post_box", "brand": "United States Postal Service", "brand:wikidata": "Q668687", "collection_times": "Mo-Fr 16:05; Sa 11:50", "name": "USPS COLLECTION BOX - PO LOBBY", "note": "ON 12/24 AND 12/31, THIS BOX MAY BE COLLECTED AS EARLY AS 12 NOON.", "nsi_id": "unitedstatespostalservice-a77078", "operator": "United States Postal Service", "operator:short": "USPS", "operator:type": "public", "operator:wikidata": "Q668687", "ref": "1724000004"}, "type": "Feature"}
{"dataset_attributes": {"@spider": "usps_collection_boxes"}, "geometry": {"coordinates": [-77.4028642, 40.17046], "type": "Point"}, "id": "seLh7aUeyTHWTCi-BqvG-XYnrzI=", "properties": {"@spider": "usps_collection_boxes", "addr:city": "NEWVILLE", "addr:country": "US", "addr:full": "51 PARSONAGE ST", "addr:postcode": "17241", "addr:state": "PA", "amenity": "post_box", "brand": "United States Postal Service", "brand:wikidata": "Q668687", "collection_times": "Mo-Sa 09:00", "name": "USPS COLLECTION BOX - BLUE BOX", "nsi_id": "unitedstatespostalservice-a77078", "operator": "United States Postal Service", "operator:short": "USPS", "operator:type": "public", "operator:wikidata": "Q668687", "ref": "1724100003"}, "type": "Feature"}
{"dataset_attributes": {"@spider": "usps_collection_boxes"}, "geometry": {"coordinates": [-77.4004299, 40.170029], "type": "Point"}, "id": "qTCeKL5iz_618J08LXUOe-1zkhc=", "properties": {"@spider": "usps_collection_boxes", "addr:city": "NEWVILLE", "addr:country": "US", "addr:full": "60 W BIG SPRING AVE", "addr:postcode": "17241", "addr:state": "PA", "amenity": "post_box", "brand": "United States Postal Service", "brand:wikidata": "Q668687", "collection_times": "Mo-Sa 10:00", "name": "USPS COLLECTION BOX - BLUE BOX", "nsi_id": "unitedstatespostalservice-a77078", "operator": "United States Postal Service", "operator:short": "USPS", "operator:type": "public", "operator:wikidata": "Q668687", "ref": "1724100005"}, "type": "Feature"}
{"dataset_attributes": {"@spider": "usps_collection_boxes"}, "geometry": {"coordinates": [-77.3984004, 40.172132], "type": "Point"}, "id": "52WY-HO4WdM8HY8QEQYWaQzMdwk=", "properties": {"@spider": "usps_collection_boxes", "addr:city": "NEWVILLE", "addr:country": "US", "addr:full": "9 E BIG SPRING AVE", "addr:postcode": "17241", "addr:state": "PA", "amenity": "post_box", "brand": "United States Postal Service", "brand:wikidata": "Q668687", "collection_times": "Mo-Sa 08:30", "name": "USPS COLLECTION BOX - BLUE BOX", "nsi_id": "unitedstatespostalservice-a77078", "operator": "United States Postal Service", "operator:short": "USPS", "operator:type": "public", "operator:wikidata": "Q668687", "ref": "1724100008"}, "type": "Feature"}
{"dataset_attributes": {"@spider": "usps_collection_boxes"}, "geometry": {"coordinates": [-77.3980538, 40.17362], "type": "Point"}, "id": "DCHuEqMm24AexqPkngGutzNLrkg=", "properties": {"@spider": "usps_collection_boxes", "addr:city": "NEWVILLE", "addr:country": "US", "addr:full": "34 E MAIN ST", "addr:postcode": "17241", "addr:state": "PA", "amenity": "post_box", "brand": "United States Postal Service", "brand:wikidata": "Q668687", "collection_times": "Mo-Sa 08:00", "name": "USPS COLLECTION BOX - BLUE BOX", "nsi_id": "unitedstatespostalservice-a77078", "operator": "United States Postal Service", "operator:short": "USPS", "operator:type": "public", "operator:wikidata": "Q668687", "ref": "1724100009"}, "type": "Feature"}
{"dataset_attributes": {"@spider": "usps_collection_boxes"}, "geometry": {"coordinates": [-77.3899324, 40.177772], "type": "Point"}, "id": "BEwzYc2YVjuzWzFjdd6ozTB4xh8=", "properties": {"@spider": "usps_collection_boxes", "addr:city": "NEWVILLE", "addr:country": "US", "addr:full": "39 CARLISLE RD", "addr:postcode": "17241", "addr:state": "PA", "amenity": "post_box", "brand": "United States Postal Service", "brand:wikidata": "Q668687", "collection_times": "Mo-Sa 12:00", "name": "USPS COLLECTION BOX - BLUE BOX", "nsi_id": "unitedstatespostalservice-a77078", "operator": "United States Postal Service", "operator:short": "USPS", "operator:type": "public", "operator:wikidata": "Q668687", "ref": "1724100010"}, "type": "Feature"}
{"dataset_attributes": {"@spider": "usps_collection_boxes"}, "geometry": {"coordinates": [-77.4015689, 40.174374], "type": "Point"}, "id": "hhVDZ97VEU7FSrfcloxFM9EErwc=", "properties": {"@spider": "usps_collection_boxes", "addr:city": "NEWVILLE", "addr:country": "US", "addr:full": "57 WEST ST", "addr:postcode": "17241", "addr:state": "PA", "amenity": "post_box", "brand": "United States Postal Service", "brand:wikidata": "Q668687", "collection_times": "Mo-Fr 16:30; Sa 15:00", "name": "USPS COLLECTION BOX - BLUE BOX", "note": "ON 12/24 AND 12/31, THIS BOX MAY BE COLLECTED AS EARLY AS 12 NOON.", "nsi_id": "unitedstatespostalservice-a77078", "operator": "United States Postal Service", "operator:short": "USPS", "operator:type": "public", "operator:wikidata": "Q668687", "ref": "1724100011"}, "type": "Feature"}
{"dataset_attributes": {"@spider": "usps_collection_boxes"}, "geometry": {"coordinates": [-77.4024233, 40.149971], "type": "Point"}, "id": "HT5fZhsxXynjo0Uvw17_Yo5oMRM=", "properties": {"@spider": "usps_collection_boxes", "addr:city": "NEWVILLE", "addr:country": "US", "addr:full": "11 BIG SPRING TER", "addr:postcode": "17241", "addr:state": "PA", "amenity": "post_box", "brand": "United States Postal Service", "brand:wikidata": "Q668687", "collection_times": "Mo-Sa 09:00", "name": "USPS COLLECTION BOX - BLUE BOX", "nsi_id": "unitedstatespostalservice-a77078", "operator": "United States Postal Service", "operator:short": "USPS", "operator:type": "public", "operator:wikidata": "Q668687", "ref": "1724100014"}, "type": "Feature"}
{"dataset_attributes": {"@spider": "usps_collection_boxes"}, "geometry": {"coordinates": [-77.401567, 40.174374], "type": "Point"}, "id": "DLWIMOoaJooG6GIHmlEvoqdA2Wk=", "properties": {"@spider": "usps_collection_boxes", "addr:city": "NEWVILLE", "addr:country": "US", "addr:full": "57 WEST ST", "addr:postcode": "17241", "addr:state": "PA", "amenity": "post_box", "brand": "United States Postal Service", "brand:wikidata": "Q668687", "collection_times": "Mo-Fr 16:30; Sa 15:00", "name": "USPS COLLECTION BOX - BLUE BOX", "note": "ON 12/24 AND 12/31, THIS BOX MAY BE COLLECTED AS EARLY AS 12 NOON.", "nsi_id": "unitedstatespostalservice-a77078", "operator": "United States Postal Service", "operator:short": "USPS", "operator:type": "public", "operator:wikidata": "Q668687", "ref": "1724100015"}, "type": "Feature"}
{"dataset_attributes": {"@spider": "usps_collection_boxes"}, "geometry": {"coordinates": [-77.4012855, 40.174323], "type": "Point"}, "id": "trmz80LfOtmh-41NMgnJ1IQWEGM=", "properties": {"@spider": "usps_collection_boxes", "addr:city": "NEWVILLE", "addr:country": "US", "addr:full": "57 WEST ST", "addr:postcode": "17241", "addr:state": "PA", "amenity": "post_box", "brand": "United States Postal Service", "brand:wikidata": "Q668687", "collection_times": "Mo-Fr 16:30; Sa 15:00", "name": "USPS COLLECTION BOX - PO LOBBY", "note": "ON 12/24 AND 12/31, THIS BOX MAY BE COLLECTED AS EARLY AS 12 NOON.", "nsi_id": "unitedstatespostalservice-a77078", "operator": "United States Postal Service", "operator:short": "USPS", "operator:type": "public", "operator:wikidata": "Q668687", "ref": "1724100017"}, "type": "Feature"}
{"dataset_attributes": {"@spider": "usps_collection_boxes"}, "geometry": {"coordinates": [-77.4473922, 40.198284], "type": "Point"}, "id": "1p5AuEMGcduGW18qZRmdhLvuRMg=", "properties": {"@spider": "usps_collection_boxes", "addr:city": "NEWVILLE", "addr:country": "US", "addr:full": "14 RAYS DR", "addr:postcode": "17241", "addr:state": "PA", "amenity": "post_box", "brand": "United States Postal Service", "brand:wikidata": "Q668687", "collection_times": "Mo-Sa 09:30", "name": "USPS COLLECTION BOX - BLUE BOX", "nsi_id": "unitedstatespostalservice-a77078", "operator": "United States Postal Service", "operator:short": "USPS", "operator:type": "public", "operator:wikidata": "Q668687", "ref": "1724100019"}, "type": "Feature"}
{"dataset_attributes": {"@spider": "usps_collection_boxes"}, "geometry": {"coordinates": [-77.401693537, 40.174487329], "type": "Point"}, "id": "A1jBxRr_woUIj4R5d-cS7HwkEdA=", "properties": {"@spider": "usps_collection_boxes", "addr:city": "NEWVILLE", "addr:country": "US", "addr:full": "57 WEST ST", "addr:postcode": "17241", "addr:state": "PA", "amenity": "post_box", "brand": "United States Postal Service", "brand:wikidata": "Q668687", "collection_times": "Mo-Fr 16:20; Sa 12:05", "name": "USPS COLLECTION BOX - PO LOBBY", "note": "ON 12/24 AND 12/31, THIS BOX MAY BE COLLECTED AS EARLY AS 12 NOON.", "nsi_id": "unitedstatespostalservice-a77078", "operator": "United States Postal Service", "operator:short": "USPS", "operator:type": "public", "operator:wikidata": "Q668687", "ref": "1724100021"}, "type": "Feature"}
{"dataset_attributes": {"@spider": "usps_collection_boxes"}, "geometry": {"coordinates": [-77.891888, 40.240697], "type": "Point"}, "id": "LpkN5UehftGO9pNrgRDgvq9Tk48=", "properties": {"@spider": "usps_collection_boxes", "addr:city": "ORBISONIA", "addr:country": "US", "addr:full": "655 WATER ST", "addr:postcode": "17243", "addr:state": "PA", "amenity": "post_box", "brand": "United States Postal Service", "brand:wikidata": "Q668687", "collection_times": "Mo-Fr 15:30; Sa 11:30", "name": "USPS COLLECTION BOX - BLUE BOX", "note": "ON 12/24 AND 12/31, THIS BOX MAY BE COLLECTED AS EARLY AS 12 NOON.", "nsi_id": "unitedstatespostalservice-a77078", "operator": "United States Postal Service", "operator:short": "USPS", "operator:type": "public", "operator:wikidata": "Q668687", "ref": "1724300001"}, "type": "Feature"}
{"dataset_attributes": {"@spider": "usps_collection_boxes"}, "geometry": {"coordinates": [-77.891926, 40.240701], "type": "Point"}, "id": "-uBlTKvYz5AOUxBn05HFqSh4siI=", "properties": {"@spider": "usps_collection_boxes", "addr:city": "ORBISONIA", "addr:country": "US", "addr:full": "655 WATER ST", "addr:postcode": "17243", "addr:state": "PA", "amenity": "post_box", "brand": "United States Postal Service", "brand:wikidata": "Q668687", "collection_times": "Mo-Fr 15:30; Sa 11:30", "name": "USPS COLLECTION BOX - PO LOBBY", "note": "ON 12/24 AND 12/31, THIS BOX MAY BE COLLECTED AS EARLY AS 12 NOON.", "nsi_id": "unitedstatespostalservice-a77078", "operator": "United States Postal Service", "operator:short": "USPS", "operator:type": "public", "operator:wikidata": "Q668687", "ref": "1724300003"}, "type": "Feature"}
{"dataset_attributes": {"@spider": "usps_collection_boxes"}, "geometry": {"coordinates": [-77.891831378, 40.240536475], "type": "Point"}, "id": "FB68FDRI-IIGzet_aiQrMijiiGw=", "properties": {"@spider": "usps_collection_boxes", "addr:city": "ORBISONIA", "addr:country": "US", "addr:full": "655 WATER ST", "addr:postcode": "17243", "addr:state": "PA", "amenity": "post_box", "brand": "United States Postal Service", "brand:wikidata": "Q668687", "collection_times": "Mo-Fr 16:00; Sa 11:45", "name": "USPS COLLECTION BOX - PO LOBBY", "note": "ON 12/24 AND 12/31, THIS BOX MAY BE COLLECTED AS EARLY AS 12 NOON.", "nsi_id": "unitedstatespostalservice-a77078", "operator": "United States Postal Service", "operator:short": "USPS", "operator:type": "public", "operator:wikidata": "Q668687", "ref": "1724300005"}, "type": "Feature"}
{"dataset_attributes": {"@spider": "usps_collection_boxes"}, "geometry": {"coordinates": [-77.610375, 40.058692], "type": "Point"}, "id": "sxF5rBtKoCUTQZX0FTWuJLicM7U=", "properties": {"@spider": "usps_collection_boxes", "addr:city": "ORRSTOWN", "addr:country": "US", "addr:full": "3630 ORRSTOWN RD", "addr:postcode": "17244", "addr:state": "PA", "amenity": "post_box", "brand": "United States Postal Service", "brand:wikidata": "Q668687", "collection_times": "Mo-Fr 15:00; Sa 12:00", "name": "USPS COLLECTION BOX - BLUE BOX", "note": "ON 12/24 AND 12/31, THIS BOX MAY BE COLLECTED AS EARLY AS 12 NOON.", "nsi_id": "unitedstatespostalservice-a77078", "operator": "United States Postal Service", "operator:short": "USPS", "operator:type": "public", "operator:wikidata": "Q668687", "ref": "1724400001"}, "type": "Feature"}
{"dataset_attributes": {"@spider": "usps_collection_boxes"}, "geometry": {"coordinates": [-77.610308, 40.05877], "type": "Point"}, "id": "lvKYCySXhKQSi2p8FI8z7iVI9Ds=", "properties": {"@spider": "usps_collection_boxes", "addr:city": "ORRSTOWN", "addr:country": "US", "addr:full": "3630 ORRSTOWN RD", "addr:postcode": "17244", "addr:state": "PA", "amenity": "post_box", "brand": "United States Postal Service", "brand:wikidata": "Q668687", "collection_times": "Mo-Fr 15:00; Sa 12:00", "name": "USPS COLLECTION BOX - PO LOBBY", "note": "ON 12/24 AND 12/31, THIS BOX MAY BE COLLECTED AS EARLY AS 12 NOON.", "nsi_id": "unitedstatespostalservice-a77078", "operator": "United States Postal Service", "operator:short": "USPS", "operator:type": "public", "operator:wikidata": "Q668687", "ref": "1724400002"}, "type": "Feature"}
{"dataset_attributes": {"@spider": "usps_collection_boxes"}, "geometry": {"coordinates": [-77.610504464, 40.058601382], "type": "Point"}, "id": "9ZjTal-YDX3LuOBL-rSml5XLSrk=", "properties": {"@spider": "usps_collection_boxes", "addr:city": "ORRSTOWN", "addr:country": "US", "addr:full": "3630 ORRSTOWN RD", "addr:postcode": "17244", "addr:state": "PA", "amenity": "post_box", "brand": "United States Postal Service", "brand:wikidata": "Q668687", "collection_times": "Mo-Fr 15:00; Sa 12:00", "name": "USPS COLLECTION BOX - PO LOBBY", "note": "ON 12/24 AND 12/31, THIS BOX MAY BE COLLECTED AS EARLY AS 12 NOON.", "nsi_id": "unitedstatespostalservice-a77078", "operator": "United States Postal Service", "operator:short": "USPS", "operator:type": "public", "operator:wikidata": "Q668687", "ref": "1724400004"}, "type": "Feature"}
{"dataset_attributes": {"@spider": "usps_collection_boxes"}, "geometry": {"coordinates": [-77.6541833, 40.053425], "type": "Point"}, "id": "amsKQHGmDE5HR4Hr8Pvc6izmg_M=", "properties": {"@spider": "usps_collection_boxes", "addr:city": "PLEASANT HALL", "addr:country": "US", "addr:full": "6535 UPPER STRASBURG RD", "addr:postcode": "17246", "addr:state": "PA", "amenity": "post_box", "brand": "United States Postal Service", "brand:wikidata": "Q668687", "collection_times": "Mo-Sa 11:30", "name": "USPS COLLECTION BOX - BLUE BOX", "nsi_id": "unitedstatespostalservice-a77078", "operator": "United States Postal Service", "operator:short": "USPS", "operator:type": "public", "operator:wikidata": "Q668687", "ref": "1724600001"}, "type": "Feature"}
{"dataset_attributes": {"@spider": "usps_collection_boxes"}, "geometry": {"coordinates": [-77.655066, 40.053361], "type": "Point"}, "id": "RUYgi2GrlvnT2RSqw0ujMPOp8nQ=", "properties": {"@spider": "usps_collection_boxes", "addr:city": "PLEASANT HALL", "addr:country": "US", "addr:full": "6535 UPPERSTRASBURG RD", "addr:postcode": "17246", "addr:state": "PA", "amenity": "post_box", "brand": "United States Postal Service", "brand:wikidata": "Q668687", "collection_times": "Mo-Sa 11:30", "name": "USPS COLLECTION BOX - PO LOBBY", "nsi_id": "unitedstatespostalservice-a77078", "operator": "United States Postal Service", "operator:short": "USPS", "operator:type": "public", "operator:wikidata": "Q668687", "ref": "1724600002"}, "type": "Feature"}
{"dataset_attributes": {"@spider": "usps_collection_boxes"}, "geometry": {"coordinates": [-77.655056586, 40.053405756], "type": "Point"}, "id": "GstL25ZTCyKSyGLnpItW8k8_hV0=", "properties": {"@spider": "usps_collection_boxes", "addr:city": "PLEASANT HALL", "addr:country": "US", "addr:full": "6535 UPPER STRASBURG RD", "addr:postcode": "17246", "addr:state": "PA", "amenity": "post_box", "brand": "United States Postal Service", "brand:wikidata": "Q668687", "collection_times": "Mo-Sa 11:30", "name": "USPS COLLECTION BOX - PO LOBBY", "nsi_id": "unitedstatespostalservice-a77078", "operator": "United States Postal Service", "operator:short": "USPS", "operator:type": "public", "operator:wikidata": "Q668687", "ref": "1724600004"}, "type": "Feature"}
{"dataset_attributes": {"@spider": "usps_collection_boxes"}, "geometry": {"coordinates": [-77.898528, 40.241199], "type": "Point"}, "id": "IOHCZ7lrp9V1jiYDeWMJTSnuodM=", "properties": {"@spider": "usps_collection_boxes", "addr:city": "ROCKHILL FURN", "addr:country": "US", "addr:full": "444 MEADOW ST", "addr:postcode": "17249", "addr:state": "PA", "amenity": "post_box", "brand": "United States Postal Service", "brand:wikidata": "Q668687", "collection_times": "Mo-Fr 15:30; Sa 11:30", "name": "USPS COLLECTION BOX - BLUE BOX", "note": "ON 12/24 AND 12/31, THIS BOX MAY BE COLLECTED AS EARLY AS 12 NOON.", "nsi_id": "unitedstatespostalservice-a77078", "operator": "United States Postal Service", "operator:short": "USPS", "operator:type": "public", "operator:wikidata": "Q668687", "ref": "1724900001"}, "type": "Feature"}
{"dataset_attributes": {"@spider": "usps_collection_boxes"}, "geometry": {"coordinates": [-77.898531, 40.241253], "type": "Point"}, "id": "s_jRwHO2qkB4LQcmIfjT84aG4zU=", "properties": {"@spider": "usps_collection_boxes", "addr:city": "ROCKHILL FURN", "addr:country": "US", "addr:full": "445 MEADOW ST", "addr:postcode": "17249", "addr:state": "PA", "amenity": "post_box", "brand": "United States Postal Service", "brand:wikidata": "Q668687", "collection_times": "Mo-Fr 15:30; Sa 11:30", "name": "USPS COLLECTION BOX - BLUE BOX", "note": "ON 12/24 AND 12/31, THIS BOX MAY BE COLLECTED AS EARLY AS 12 NOON.", "nsi_id": "unitedstatespostalservice-a77078", "operator": "United States Postal Service", "operator:short": "USPS", "operator:type": "public", "operator:wikidata": "Q668687", "ref": "1724900002"}, "type": "Feature"}
{"dataset_attributes": {"@spider": "usps_collection_boxes"}, "geometry": {"coordinates": [-77.89849, 40.241227], "type": "Point"}, "id": "ZAOdnhWbPqap0HUnODqa5V-4Oi4=", "properties": {"@spider": "usps_collection_boxes", "addr:city": "ROCKHILL FURN", "addr:country": "US", "addr:full": "444 MEADOW ST", "addr:postcode": "17249", "addr:state": "PA", "amenity": "post_box", "brand": "United States Postal Service", "brand:wikidata": "Q668687", "collection_times": "Mo-Fr 15:30; Sa 11:30", "name": "USPS COLLECTION BOX - PO LOBBY", "note": "ON 12/24 AND 12/31, THIS BOX MAY BE COLLECTED AS EARLY AS 12 NOON.", "nsi_id": "unitedstatespostalservice-a77078", "operator": "United States Postal Service", "operator:short": "USPS", "operator:type": "public", "operator:wikidata": "Q668687", "ref": "1724900003"}, "type": "Feature"}
{"dataset_attributes": {"@spider": "usps_collection_boxes"}, "geometry": {"coordinates": [-77.898403027, 40.241199554], "type": "Point"}, "id": "_roCRrRrpRCegTaKa1bre_9o0u0=", "properties": {"@spider": "usps_collection_boxes", "addr:city": "ROCKHILL FURN", "addr:country": "US", "addr:full": "444 MEADOW ST", "addr:postcode": "17249", "addr:state": "PA", "amenity": "post_box", "brand": "United States Postal Service", "brand:wikidata": "Q668687", "collection_times": "Mo-Fr 15:30; Sa 12:00", "name": "USPS COLLECTION BOX - PO LOBBY", "note": "ON 12/24 AND 12/31, THIS BOX MAY BE COLLECTED AS EARLY AS 12 NOON.", "nsi_id": "unitedstatespostalservice-a77078", "operator": "United States Postal Service", "operator:short": "USPS", "operator:type": "public", "operator:wikidata": "Q668687", "ref": "1724900005"}, "type": "Feature"}
{"dataset_attributes": {"@spider": "usps_collection_boxes"}, "geometry": {"coordinates": [-77.659404, 40.110703], "type": "Point"}, "id": "7_rGsf2qJhLKHp9Xa6vgU2Kr3Fg=", "properties": {"@spider": "usps_collection_boxes", "addr:city": "ROXBURY", "addr:country": "US", "addr:full": "10970 ROXBURY RD", "addr:postcode": "17251", "addr:state": "PA", "amenity": "post_box", "brand": "United States Postal Service", "brand:wikidata": "Q668687", "collection_times": "Mo-Fr 16:15; Sa 11:30", "name": "USPS COLLECTION BOX - BLUE BOX", "note": "ON 12/24 AND 12/31, THIS BOX MAY BE COLLECTED AS EARLY AS 12 NOON.", "nsi_id": "unitedstatespostalservice-a77078", "operator": "United States Postal Service", "operator:short": "USPS", "operator:type": "public", "operator:wikidata": "Q668687", "ref": "1725100001"}, "type": "Feature"}
{"dataset_attributes": {"@spider": "usps_collection_boxes"}, "geometry": {"coordinates": [-77.659487, 40.110722], "type": "Point"}, "id": "euZzKwVHP_3Su2vypxRMUKt-aAM=", "properties": {"@spider": "usps_collection_boxes", "addr:city": "ROXBURY", "addr:country": "US", "addr:full": "10970 ROXBURY RD", "addr:postcode": "17251", "addr:state": "PA", "amenity": "post_box", "brand": "United States Postal Service", "brand:wikidata": "Q668687", "collection_times": "Mo-Fr 16:15; Sa 11:30", "name": "USPS COLLECTION BOX - PO LOBBY", "note": "ON 12/24 AND 12/31, THIS BOX MAY BE COLLECTED AS EARLY AS 12 NOON.", "nsi_id": "unitedstatespostalservice-a77078", "operator": "United States Postal Service", "operator:short": "USPS", "operator:type": "public", "operator:wikidata": "Q668687", "ref": "1725100002"}, "type": "Feature"}
{"dataset_attributes": {"@spider": "usps_collection_boxes"}, "geometry": {"coordinates": [-77.65828951, 40.110800414], "type": "Point"}, "id": "C5KlY_DnckdsNK_tqv4plMX-2uM=", "properties": {"@spider": "usps_collection_boxes", "addr:city": "ROXBURY", "addr:country": "US", "addr:full": "10970 ROXBURY RD", "addr:postcode": "17251", "addr:state": "PA", "amenity": "post_box", "brand": "United States Postal Service", "brand:wikidata": "Q668687", "collection_times": "Mo-Fr 16:15; Sa 11:30", "name": "USPS COLLECTION BOX - PO LOBBY", "note": "ON 12/24 AND 12/31, THIS BOX MAY BE COLLECTED AS EARLY AS 12 NOON.", "nsi_id": "unitedstatespostalservice-a77078", "operator": "United States Postal Service", "operator:short": "USPS", "operator:type": "public", "operator:wikidata": "Q668687", "ref": "1725100004"}, "type": "Feature"}
{"dataset_attributes": {"@spider": "usps_collection_boxes"}, "geometry": {"coordinates": [-78.006778, 40.210122], "type": "Point"}, "id": "5SkPtStuCm3rv2pIu6ae8g4ruM4=", "properties": {"@spider": "usps_collection_boxes", "addr:city": "SALTILLO", "addr:country": "US", "addr:full": "20548 S MAIN ST", "addr:postcode": "17253", "addr:state": "PA", "amenity": "post_box", "brand": "United States Postal Service", "brand:wikidata": "Q668687", "collection_times": "Mo-Fr 15:15; Sa 11:30", "name": "USPS COLLECTION BOX - PO LOBBY", "note": "ON 12/24 AND 12/31, THIS BOX MAY BE COLLECTED AS EARLY AS 12 NOON.", "nsi_id": "unitedstatespostalservice-a77078", "operator": "United States Postal Service", "operator:short": "USPS", "operator:type": "public", "operator:wikidata": "Q668687", "ref": "1725300002"}, "type": "Feature"}
{"dataset_attributes": {"@spider": "usps_collection_boxes"}, "geometry": {"coordinates": [-78.006808789, 40.210148975], "type": "Point"}, "id": "0riJhvsDeMBU2OtdZ_QnNHlXq6s=", "properties": {"@spider": "usps_collection_boxes", "addr:city": "SALTILLO", "addr:country": "US", "addr:full": "20548 S MAIN ST", "addr:postcode": "17253", "addr:state": "PA", "amenity": "post_box", "brand": "United States Postal Service", "brand:wikidata": "Q668687", "collection_times": "Mo-Fr 15:30; Sa 12:00", "name": "USPS COLLECTION BOX - PO LOBBY", "note": "ON 12/24 AND 12/31, THIS BOX MAY BE COLLECTED AS EARLY AS 12 NOON.", "nsi_id": "unitedstatespostalservice-a77078", "operator": "United States Postal Service", "operator:short": "USPS", "operator:type": "public", "operator:wikidata": "Q668687", "ref": "1725300004"}, "type": "Feature"}
{"dataset_attributes": {"@spider": "usps_collection_boxes"}, "geometry": {"coordinates": [-77.867192, 40.174081], "type": "Point"}, "id": "onWZXZ3a5Umbd5rd5txl1UEj4Tk=", "properties": {"@spider": "usps_collection_boxes", "addr:city": "SHADE GAP", "addr:country": "US", "addr:full": "21379 MAIN ST", "addr:postcode": "17255", "addr:state": "PA", "amenity": "post_box", "brand": "United States Postal Service", "brand:wikidata": "Q668687", "collection_times": "Mo-Fr 15:30; Sa 11:15", "name": "USPS COLLECTION BOX - BLUE BOX", "note": "ON 12/24 AND 12/31, THIS BOX MAY BE COLLECTED AS EARLY AS 12 NOON.", "nsi_id": "unitedstatespostalservice-a77078", "operator": "United States Postal Service", "operator:short": "USPS", "operator:type": "public", "operator:wikidata": "Q668687", "ref": "1725500001"}, "type": "Feature"}
{"dataset_attributes": {"@spider": "usps_collection_boxes"}, "geometry": {"coordinates": [-77.867227, 40.174171], "type": "Point"}, "id": "HLc17H-ePEfdoswX2P1EjsqOeuU=", "properties": {"@spider": "usps_collection_boxes", "addr:city": "SHADE GAP", "addr:country": "US", "addr:full": "21379 MAIN ST", "addr:postcode": "17255", "addr:state": "PA", "amenity": "post_box", "brand": "United States Postal Service", "brand:wikidata": "Q668687", "collection_times": "Mo-Fr 15:30; Sa 11:15", "name": "USPS COLLECTION BOX - PO LOBBY", "note": "ON 12/24 AND 12/31, THIS BOX MAY BE COLLECTED AS EARLY AS 12 NOON.", "nsi_id": "unitedstatespostalservice-a77078", "operator": "United States Postal Service", "operator:short": "USPS", "operator:type": "public", "operator:wikidata": "Q668687", "ref": "1725500002"}, "type": "Feature"}
{"dataset_attributes": {"@spider": "usps_collection_boxes"}, "geometry": {"coordinates": [-77.867197552, 40.174128], "type": "Point"}, "id": "kJ9gYBQscqWq5UVyK5iwOTPkA7g=", "properties": {"@spider": "usps_collection_boxes", "addr:city": "SHADE GAP", "addr:country": "US", "addr:full": "21379 MAIN ST", "addr:postcode": "17255", "addr:state": "PA", "amenity": "post_box", "brand": "United States Postal Service", "brand:wikidata": "Q668687", "collection_times": "Mo-Fr 15:30; Sa 11:30", "name": "USPS COLLECTION BOX - PO LOBBY", "note": "ON 12/24 AND 12/31, THIS BOX MAY BE COLLECTED AS EARLY AS 12 NOON.", "nsi_id": "unitedstatespostalservice-a77078", "operator": "United States Postal Service", "operator:short": "USPS", "operator:type": "public", "operator:wikidata": "Q668687", "ref": "1725500004"}, "type": "Feature"}
{"dataset_attributes": {"@spider": "usps_collection_boxes"}, "geometry": {"coordinates": [-77.5135336, 40.055084], "type": "Point"}, "id": "-AicYTaZxQfJPMMFzTEeI7Rz5ho=", "properties": {"@spider": "usps_collection_boxes", "addr:city": "SHIPPENSBURG", "addr:country": "US", "addr:full": "401 E KING ST", "addr:postcode": "17257", "addr:state": "PA", "amenity": "post_box", "brand": "United States Postal Service", "brand:wikidata": "Q668687", "collection_times": "Mo-Sa 09:00", "name": "USPS COLLECTION BOX - BLUE BOX", "nsi_id": "unitedstatespostalservice-a77078", "operator": "United States Postal Service", "operator:short": "USPS", "operator:type": "public", "operator:wikidata": "Q668687", "ref": "1725700001"}, "type": "Feature"}
{"dataset_attributes": {"@spider": "usps_collection_boxes"}, "geometry": {"coordinates": [-77.5157469, 40.05051], "type": "Point"}, "id": "HdVGrZN1wnPH_XV_nztSK7ZZVGE=", "properties": {"@spider": "usps_collection_boxes", "addr:city": "SHIPPENSBURG", "addr:country": "US", "addr:full": "200 E ORANGE ST", "addr:postcode": "17257", "addr:state": "PA", "amenity": "post_box", "brand": "United States Postal Service", "brand:wikidata": "Q668687", "collection_times": "Mo-Sa 09:00", "name": "USPS COLLECTION BOX - BLUE BOX", "nsi_id": "unitedstatespostalservice-a77078", "operator": "United States Postal Service", "operator:short": "USPS", "operator:type": "public", "operator:wikidata": "Q668687", "ref": "1725700006"}, "type": "Feature"}
{"dataset_attributes": {"@spider": "usps_collection_boxes"}, "geometry": {"coordinates": [-77.5186716, 40.051435], "type": "Point"}, "id": "NG8tHNEORHcHc7Z5Ui2-qu9Fuvk=", "properties": {"@spider": "usps_collection_boxes", "addr:city": "SHIPPENSBURG", "addr:country": "US", "addr:full": "101 E KING ST", "addr:postcode": "17257", "addr:state": "PA", "amenity": "post_box", "brand": "United States Postal Service", "brand:wikidata": "Q668687", "collection_times": "Mo-Sa 09:00", "name": "USPS COLLECTION BOX - BLUE BOX", "nsi_id": "unitedstatespostalservice-a77078", "operator": "United States Postal Service", "operator:short": "USPS", "operator:type": "public", "operator:wikidata": "Q668687", "ref": "1725700011"}, "type": "Feature"}
{"dataset_attributes": {"@spider": "usps_collection_boxes"}, "geometry": {"coordinates": [-77.5303319, 40.045964], "type": "Point"}, "id": "Yj-1Oxw8pKgisVsuFImZEGp7kyI=", "properties": {"@spider": "usps_collection_boxes", "addr:city": "SHIPPENSBURG", "addr:country": "US", "addr:full": "425 W KING ST", "addr:postcode": "17257", "addr:state": "PA", "amenity": "post_box", "brand": "United States Postal Service", "brand:wikidata": "Q668687", "collection_times": "Mo-Sa 09:00", "name": "USPS COLLECTION BOX - BLUE BOX", "nsi_id": "unitedstatespostalservice-a77078", "operator": "United States Postal Service", "operator:short": "USPS", "operator:type": "public", "operator:wikidata": "Q668687", "ref": "1725700013"}, "type": "Feature"}
{"dataset_attributes": {"@spider": "usps_collection_boxes"}, "geometry": {"coordinates": [-77.5356291, 40.047062], "type": "Point"}, "id": "UqJWJ77BL-rG0S0f4cgJs9WLoHM=", "properties": {"@spider": "usps_collection_boxes", "addr:city": "SHIPPENSBURG", "addr:country": "US", "addr:full": "208 LURGAN AVE", "addr:postcode": "17257", "addr:state": "PA", "amenity": "post_box", "brand": "United States Postal Service", "brand:wikidata": "Q668687", "collection_times": "Mo-Sa 09:00", "name": "USPS COLLECTION BOX - BLUE BOX", "nsi_id": "unitedstatespostalservice-a77078", "operator": "United States Postal Service", "operator:short": "USPS", "operator:type": "public", "operator:wikidata": "Q668687", "ref": "1725700017"}, "type": "Feature"}
{"dataset_attributes": {"@spider": "usps_collection_boxes"}, "geometry": {"coordinates": [-77.5356813, 40.049102], "type": "Point"}, "id": "KPOIg2flhloxLtjdSzTlysQ0bVE=", "properties": {"@spider": "usps_collection_boxes", "addr:city": "SHIPPENSBURG", "addr:country": "US", "addr:full": "330 N MORRIS ST", "addr:postcode": "17257", "addr:state": "PA", "amenity": "post_box", "brand": "United States Postal Service", "brand:wikidata": "Q668687", "collection_times": "Mo-Sa 09:00", "name": "USPS COLLECTION BOX - BLUE BOX", "nsi_id": "unitedstatespostalservice-a77078", "operator": "United States Postal Service", "operator:short": "USPS", "operator:type": "public", "operator:wikidata": "Q668687", "ref": "1725700018"}, "type": "Feature"}
{"dataset_attributes": {"@spider": "usps_collection_boxes"}, "geometry": {"coordinates": [-77.5167627, 40.054188], "type": "Point"}, "id": "OvkQrkGjA1ae3D3QBKxV7AzB0ZQ=", "properties": {"@spider": "usps_collection_boxes", "addr:city": "SHIPPENSBURG", "addr:country": "US", "addr:full": "218 E BURD ST", "addr:postcode": "17257", "addr:state": "PA", "amenity": "post_box", "brand": "United States Postal Service", "brand:wikidata": "Q668687", "collection_times": "Mo-Sa 09:00", "name": "USPS COLLECTION BOX - BLUE BOX", "nsi_id": "unitedstatespostalservice-a77078", "operator": "United States Postal Service", "operator:short": "USPS", "operator:type": "public", "operator:wikidata": "Q668687", "ref": "1725700019"}, "type": "Feature"}
{"dataset_attributes": {"@spider": "usps_collection_boxes"}, "geometry": {"coordinates": [-77.5103884, 40.052807], "type": "Point"}, "id": "YRw1ZXinYYdLqL4F5M4DHJo9Drg=", "properties": {"@spider": "usps_collection_boxes", "addr:city": "SHIPPENSBURG", "addr:country": "US", "addr:full": "117 S QUEEN ST", "addr:postcode": "17257", "addr:state": "PA", "amenity": "post_box", "brand": "United States Postal Service", "brand:wikidata": "Q668687", "collection_times": "Mo-Sa 09:00", "name": "USPS COLLECTION BOX - BLUE BOX", "nsi_id": "unitedstatespostalservice-a77078", "operator": "United States Postal Service", "operator:short": "USPS", "operator:type": "public", "operator:wikidata": "Q668687", "ref": "1725700022"}, "type": "Feature"}
{"dataset_attributes": {"@spider": "usps_collection_boxes"}, "geometry": {"coordinates": [-77.4964579, 40.062761], "type": "Point"}, "id": "K1nJB7ebEeyjRXQlShI7fvL4ZgA=", "properties": {"@spider": "usps_collection_boxes", "addr:city": "SHIPPENSBURG", "addr:country": "US", "addr:full": "109 S CONESTOGA DR", "addr:postcode": "17257", "addr:state": "PA", "amenity": "post_box", "brand": "United States Postal Service", "brand:wikidata": "Q668687", "collection_times": "Mo-Sa 09:00", "name": "USPS COLLECTION BOX - BLUE BOX", "nsi_id": "unitedstatespostalservice-a77078", "operator": "United States Postal Service", "operator:short": "USPS", "operator:type": "public", "operator:wikidata": "Q668687", "ref": "1725700023"}, "type": "Feature"}
{"dataset_attributes": {"@spider": "usps_collection_boxes"}, "geometry": {"coordinates": [-77.5245942, 40.049062], "type": "Point"}, "id": "KPXimlUUcRjkkB9rqJXJX-JDIVE=", "properties": {"@spider": "usps_collection_boxes", "addr:city": "SHIPPENSBURG", "addr:country": "US", "addr:full": "111 W KING ST", "addr:postcode": "17257", "addr:state": "PA", "amenity": "post_box", "brand": "United States Postal Service", "brand:wikidata": "Q668687", "collection_times": "Mo-Sa 09:00", "name": "USPS COLLECTION BOX - BLUE BOX", "nsi_id": "unitedstatespostalservice-a77078", "operator": "United States Postal Service", "operator:short": "USPS", "operator:type": "public", "operator:wikidata": "Q668687", "ref": "1725700026"}, "type": "Feature"}
{"dataset_attributes": {"@spider": "usps_collection_boxes"}, "geometry": {"coordinates": [-77.5233264, 40.051133], "type": "Point"}, "id": "wWveMO823a2zqfFz2k9TXsk8EQ4=", "properties": {"@spider": "usps_collection_boxes", "addr:city": "SHIPPENSBURG", "addr:country": "US", "addr:full": "60 W BURD ST", "addr:postcode": "17257", "addr:state": "PA", "amenity": "post_box", "brand": "United States Postal Service", "brand:wikidata": "Q668687", "collection_times": "Mo-Sa 09:00", "name": "USPS COLLECTION BOX - BLUE BOX", "nsi_id": "unitedstatespostalservice-a77078", "operator": "United States Postal Service", "operator:short": "USPS", "operator:type": "public", "operator:wikidata": "Q668687", "ref": "1725700027"}, "type": "Feature"}
{"dataset_attributes": {"@spider": "usps_collection_boxes"}, "geometry": {"coordinates": [-77.5280886, 40.061799], "type": "Point"}, "id": "RNwjz1lrmRH-QYzTUuhXX6fzzgU=", "properties": {"@spider": "usps_collection_boxes", "addr:city": "SHIPPENSBURG", "addr:country": "US", "addr:full": "100 BARD DR", "addr:postcode": "17257", "addr:state": "PA", "amenity": "post_box", "brand": "United States Postal Service", "brand:wikidata": "Q668687", "collection_times": "Mo-Sa 08:30", "name": "USPS COLLECTION BOX - BLUE BOX", "nsi_id": "unitedstatespostalservice-a77078", "operator": "United States Postal Service", "operator:short": "USPS", "operator:type": "public", "operator:wikidata": "Q668687", "ref": "1725700028"}, "type": "Feature"}
{"dataset_attributes": {"@spider": "usps_collection_boxes"}, "geometry": {"coordinates": [-77.521999, 40.050053], "type": "Point"}, "id": "oi56rBCACV2FdaAyktkTjD1MwEw=", "properties": {"@spider": "usps_collection_boxes", "addr:city": "SHIPPENSBURG", "addr:country": "US", "addr:full": "46 W KING ST", "addr:postcode": "17257", "addr:state": "PA", "amenity": "post_box", "brand": "United States Postal Service", "brand:wikidata": "Q668687", "collection_times": "Mo-Fr 17:00; Sa 16:30", "name": "USPS COLLECTION BOX - BLUE BOX", "note": "ON 12/24 AND 12/31, THIS BOX MAY BE COLLECTED AS EARLY AS 12 NOON.", "nsi_id": "unitedstatespostalservice-a77078", "operator": "United States Postal Service", "operator:short": "USPS", "operator:type": "public", "operator:wikidata": "Q668687", "ref": "1725700031"}, "type": "Feature"}
{"dataset_attributes": {"@spider": "usps_collection_boxes"}, "geometry": {"coordinates": [-77.5437705, 40.038003], "type": "Point"}, "id": "0uf-E-_dN546EuaU-onc6DOpff4=", "properties": {"@spider": "usps_collection_boxes", "addr:city": "SHIPPENSBURG", "addr:country": "US", "addr:full": "1075 W KING ST", "addr:postcode": "17257", "addr:state": "PA", "amenity": "post_box", "brand": "United States Postal Service", "brand:wikidata": "Q668687", "collection_times": "Mo-Sa 08:00", "name": "USPS COLLECTION BOX - BLUE BOX", "nsi_id": "unitedstatespostalservice-a77078", "operator": "United States Postal Service", "operator:short": "USPS", "operator:type": "public", "operator:wikidata": "Q668687", "ref": "1725700033"}, "type": "Feature"}
{"dataset_attributes": {"@spider": "usps_collection_boxes"}, "geometry": {"coordinates": [-77.522049, 40.050064], "type": "Point"}, "id": "XuLCwX7y2V_DimFy9DjCS-6rdM4=", "properties": {"@spider": "usps_collection_boxes", "addr:city": "SHIPPENSBURG", "addr:country": "US", "addr:full": "46 W KING ST", "addr:postcode": "17257", "addr:state": "PA", "amenity": "post_box", "brand": "United States Postal Service", "brand:wikidata": "Q668687", "collection_times": "Mo-Fr 17:00; Sa 16:30", "name": "USPS COLLECTION BOX - PO LOBBY", "note": "ON 12/24 AND 12/31, THIS BOX MAY BE COLLECTED AS EARLY AS 12 NOON.", "nsi_id": "unitedstatespostalservice-a77078", "operator": "United States Postal Service", "operator:short": "USPS", "operator:type": "public", "operator:wikidata": "Q668687", "ref": "1725700034"}, "type": "Feature"}
{"dataset_attributes": {"@spider": "usps_collection_boxes"}, "geometry": {"coordinates": [-77.522006937, 40.049994134], "type": "Point"}, "id": "CzVXF4LTviyUUUzQdxNESc_MD_E=", "properties": {"@spider": "usps_collection_boxes", "addr:city": "SHIPPENSBURG", "addr:country": "US", "addr:full": "46 W KING ST", "addr:postcode": "17257", "addr:state": "PA", "amenity": "post_box", "brand": "United States Postal Service", "brand:wikidata": "Q668687", "collection_times": "Mo-Fr 17:30; Sa 13:15", "name": "USPS COLLECTION BOX - PO LOBBY", "note": "ON 12/24 AND 12/31, THIS BOX MAY BE COLLECTED AS EARLY AS 12 NOON.", "nsi_id": "unitedstatespostalservice-a77078", "operator": "United States Postal Service", "operator:short": "USPS", "operator:type": "public", "operator:wikidata": "Q668687", "ref": "1725700040"}, "type": "Feature"}
{"dataset_attributes": {"@spider": "usps_collection_boxes"}, "geometry": {"coordinates": [-77.874433, 40.295618], "type": "Point"}, "id": "iB8J7LuAvsVMD3UX7okMwSdnQF8=", "properties": {"@spider": "usps_collection_boxes", "addr:city": "SHIRLEYSBURG", "addr:country": "US", "addr:full": "17084 CROGHAN PIKE", "addr:postcode": "17260", "addr:state": "PA", "amenity": "post_box", "brand": "United States Postal Service", "brand:wikidata": "Q668687", "collection_times": "Mo-Fr 12:00; Sa 11:45", "name": "USPS COLLECTION BOX - BLUE BOX", "nsi_id": "unitedstatespostalservice-a77078", "operator": "United States Postal Service", "operator:short": "USPS", "operator:type": "public", "operator:wikidata": "Q668687", "ref": "1726000001"}, "type": "Feature"}
{"dataset_attributes": {"@spider": "usps_collection_boxes"}, "geometry": {"coordinates": [-77.8744, 40.295539], "type": "Point"}, "id": "0OmKyt1DGZe3Vi6DqHFXQjB18l8=", "properties": {"@spider": "usps_collection_boxes", "addr:city": "SHIRLEYSBURG", "addr:country": "US", "addr:full": "17084 CROGHAN PIKE", "addr:postcode": "17260", "addr:state": "PA", "amenity": "post_box", "brand": "United States Postal Service", "brand:wikidata": "Q668687", "collection_times": "Mo-Fr 12:00; Sa 11:45", "name": "USPS COLLECTION BOX - PO LOBBY", "nsi_id": "unitedstatespostalservice-a77078", "operator": "United States Postal Service", "operator:short": "USPS", "operator:type": "public", "operator:wikidata": "Q668687", "ref": "1726000002"}, "type": "Feature"}
{"dataset_attributes": {"@spider": "usps_collection_boxes"}, "geometry": {"coordinates": [-77.874430043, 40.295645948], "type": "Point"}, "id": "hID2XdIiiqQBIZy0hAl7NA6Revs=", "properties": {"@spider": "usps_collection_boxes", "addr:city": "SHIRLEYSBURG", "addr:country": "US", "addr:full": "17084 CROGHAN PIKE", "addr:postcode": "17260", "addr:state": "PA", "amenity": "post_box", "brand": "United States Postal Service", "brand:wikidata": "Q668687", "collection_times": "Mo-Sa 12:00", "name": "USPS COLLECTION BOX - PO LOBBY", "nsi_id": "unitedstatespostalservice-a77078", "operator": "United States Postal Service", "operator:short": "USPS", "operator:type": "public", "operator:wikidata": "Q668687", "ref": "1726000004"}, "type": "Feature"}
{"dataset_attributes": {"@spider": "usps_collection_boxes"}, "geometry": {"coordinates": [-77.771156, 40.142782], "type": "Point"}, "id": "Ay_UADJOL_beDFMfYhMTuhHOiiw=", "properties": {"@spider": "usps_collection_boxes", "addr:city": "SPRING RUN", "addr:country": "US", "addr:full": "16363 PATH VALLEY RD", "addr:postcode": "17262", "addr:state": "PA", "amenity": "post_box", "brand": "United States Postal Service", "brand:wikidata": "Q668687", "collection_times": "Mo-Fr 16:30; Sa 11:30", "name": "USPS COLLECTION BOX - BLUE BOX", "note": "ON 12/24 AND 12/31, THIS BOX MAY BE COLLECTED AS EARLY AS 12 NOON.", "nsi_id": "unitedstatespostalservice-a77078", "operator": "United States Postal Service", "operator:short": "USPS", "operator:type": "public", "operator:wikidata": "Q668687", "ref": "1726200001"}, "type": "Feature"}
{"dataset_attributes": {"@spider": "usps_collection_boxes"}, "geometry": {"coordinates": [-77.771154, 40.14273], "type": "Point"}, "id": "Ckp80stjTj-Uxv0wO-0CGbNWXtc=", "properties": {"@spider": "usps_collection_boxes", "addr:city": "SPRING RUN", "addr:country": "US", "addr:full": "16363 PATH VALLEY RD", "addr:postcode": "17262", "addr:state": "PA", "amenity": "post_box", "brand": "United States Postal Service", "brand:wikidata": "Q668687", "collection_times": "Mo-Fr 16:30; Sa 11:30", "name": "USPS COLLECTION BOX - PO LOBBY", "note": "ON 12/24 AND 12/31, THIS BOX MAY BE COLLECTED AS EARLY AS 12 NOON.", "nsi_id": "unitedstatespostalservice-a77078", "operator": "United States Postal Service", "operator:short": "USPS", "operator:type": "public", "operator:wikidata": "Q668687", "ref": "1726200002"}, "type": "Feature"}
{"dataset_attributes": {"@spider": "usps_collection_boxes"}, "geometry": {"coordinates": [-77.771210453, 40.142746602], "type": "Point"}, "id": "3MgAuNVDRPgZr6sgYyvqSbFuN-k=", "properties": {"@spider": "usps_collection_boxes", "addr:city": "SPRING RUN", "addr:country": "US", "addr:full": "16363 PATH VALLEY RD", "addr:postcode": "17262", "addr:state": "PA", "amenity": "post_box", "brand": "United States Postal Service", "brand:wikidata": "Q668687", "collection_times": "Mo-Fr 16:35; Sa 12:05", "name": "USPS COLLECTION BOX - PO LOBBY", "note": "ON 12/24 AND 12/31, THIS BOX MAY BE COLLECTED AS EARLY AS 12 NOON.", "nsi_id": "unitedstatespostalservice-a77078", "operator": "United States Postal Service", "operator:short": "USPS", "operator:type": "public", "operator:wikidata": "Q668687", "ref": "1726200004"}, "type": "Feature"}
{"dataset_attributes": {"@spider": "usps_collection_boxes"}, "geometry": {"coordinates": [-77.9826995, 40.194066], "type": "Point"}, "id": "5-KdsTKg11zRkglJEH5WgC4YME0=", "properties": {"@spider": "usps_collection_boxes", "addr:city": "THREE SPRINGS", "addr:country": "US", "addr:full": "20675 FREEDOM ST", "addr:postcode": "17264", "addr:state": "PA", "amenity": "post_box", "brand": "United States Postal Service", "brand:wikidata": "Q668687", "collection_times": "Mo-Fr 14:30; Sa 11:45", "name": "USPS COLLECTION BOX - BLUE BOX", "note": "ON 12/24 AND 12/31, THIS BOX MAY BE COLLECTED AS EARLY AS 12 NOON.", "nsi_id": "unitedstatespostalservice-a77078", "operator": "United States Postal Service", "operator:short": "USPS", "operator:type": "public", "operator:wikidata": "Q668687", "ref": "1726400001"}, "type": "Feature"}
{"dataset_attributes": {"@spider": "usps_collection_boxes"}, "geometry": {"coordinates": [-77.982443, 40.19429], "type": "Point"}, "id": "CWxFlxr5n38gitj78AILsNyw3dw=", "properties": {"@spider": "usps_collection_boxes", "addr:city": "THREE SPRINGS", "addr:country": "US", "addr:full": "20675 FREEDOM ST", "addr:postcode": "17264", "addr:state": "PA", "amenity": "post_box", "brand": "United States Postal Service", "brand:wikidata": "Q668687", "collection_times": "Mo-Fr 14:30; Sa 11:45", "name": "USPS COLLECTION BOX - PO LOBBY", "note": "ON 12/24 AND 12/31, THIS BOX MAY BE COLLECTED AS EARLY AS 12 NOON.", "nsi_id": "unitedstatespostalservice-a77078", "operator": "United States Postal Service", "operator:short": "USPS", "operator:type": "public", "operator:wikidata": "Q668687", "ref": "1726400002"}, "type": "Feature"}
{"dataset_attributes": {"@spider": "usps_collection_boxes"}, "geometry": {"coordinates": [-77.982518898, 40.194222245], "type": "Point"}, "id": "43kQJEWyZUE_aEqOw-VuIQ00AUQ=", "properties": {"@spider": "usps_collection_boxes", "addr:city": "THREE SPRINGS", "addr:country": "US", "addr:full": "20675 FREEDOM ST", "addr:postcode": "17264", "addr:state": "PA", "amenity": "post_box", "brand": "United States Postal Service", "brand:wikidata": "Q668687", "collection_times": "Mo-Fr 14:30; Sa 12:00", "name": "USPS COLLECTION BOX - PO LOBBY", "note": "ON 12/24 AND 12/31, THIS BOX MAY BE COLLECTED AS EARLY AS 12 NOON.", "nsi_id": "unitedstatespostalservice-a77078", "operator": "United States Postal Service", "operator:short": "USPS", "operator:type": "public", "operator:wikidata": "Q668687", "ref": "1726400004"}, "type": "Feature"}
{"dataset_attributes": {"@spider": "usps_collection_boxes"}, "geometry": {"coordinates": [-77.406884, 40.091418], "type": "Point"}, "id": "DaJHU-PtfjyAgEVaB9BZj4D-J5k=", "properties": {"@spider": "usps_collection_boxes", "addr:city": "WALNUT BOTTOM", "addr:country": "US", "addr:full": "40 MAPLE AVE", "addr:postcode": "17266", "addr:state": "PA", "amenity": "post_box", "brand": "United States Postal Service", "brand:wikidata": "Q668687", "collection_times": "Mo-Fr 16:30; Sa 15:30", "name": "USPS COLLECTION BOX - BLUE BOX", "note": "ON 12/24 AND 12/31, THIS BOX MAY BE COLLECTED AS EARLY AS 12 NOON.", "nsi_id": "unitedstatespostalservice-a77078", "operator": "United States Postal Service", "operator:short": "USPS", "operator:type": "public", "operator:wikidata": "Q668687", "ref": "1726600001"}, "type": "Feature"}
{"dataset_attributes": {"@spider": "usps_collection_boxes"}, "geometry": {"coordinates": [-77.406788, 40.091379], "type": "Point"}, "id": "1t0oxZU-fE_BEj0oLFS8ibESXnM=", "properties": {"@spider": "usps_collection_boxes", "addr:city": "WALNUT BOTTOM", "addr:country": "US", "addr:full": "40 MAPLE AVE", "addr:postcode": "17266", "addr:state": "PA", "amenity": "post_box", "brand": "United States Postal Service", "brand:wikidata": "Q668687", "collection_times": "Mo-Fr 16:30; Sa 15:30", "name": "USPS COLLECTION BOX - PO LOBBY", "note": "ON 12/24 AND 12/31, THIS BOX MAY BE COLLECTED AS EARLY AS 12 NOON.", "nsi_id": "unitedstatespostalservice-a77078", "operator": "United States Postal Service", "operator:short": "USPS", "operator:type": "public", "operator:wikidata": "Q668687", "ref": "1726600002"}, "type": "Feature"}
{"dataset_attributes": {"@spider": "usps_collection_boxes"}, "geometry": {"coordinates": [-77.407231776, 40.091690599], "type": "Point"}, "id": "WR9zOrVcgH1c9djR92Gxw9vEU-o=", "properties": {"@spider": "usps_collection_boxes", "addr:city": "WALNUT BOTTOM", "addr:country": "US", "addr:full": "40 MAPLE AVE", "addr:postcode": "17266", "addr:state": "PA", "amenity": "post_box", "brand": "United States Postal Service", "brand:wikidata": "Q668687", "collection_times": "Mo-Fr 16:30; Sa 15:30", "name": "USPS COLLECTION BOX - PO LOBBY", "note": "ON 12/24 AND 12/31, THIS BOX MAY BE COLLECTED AS EARLY AS 12 NOON.", "nsi_id": "unitedstatespostalservice-a77078", "operator": "United States Postal Service", "operator:short": "USPS", "operator:type": "public", "operator:wikidata": "Q668687", "ref": "1726600004"}, "type": "Feature"}
{"dataset_attributes": {"@spider": "usps_collection_boxes"}, "geometry": {"coordinates": [-77.7865433, 40.112402], "type": "Point"}, "id": "yGqt9HMOUL65EPawu1MfKYUEmz0=", "properties": {"@spider": "usps_collection_boxes", "addr:city": "WILLOW HILL", "addr:country": "US", "addr:full": "14413 PATH VALLEY RD", "addr:postcode": "17271", "addr:state": "PA", "amenity": "post_box", "brand": "United States Postal Service", "brand:wikidata": "Q668687", "collection_times": "Mo-Fr 12:00; Sa 11:30", "name": "USPS COLLECTION BOX - BLUE BOX", "nsi_id": "unitedstatespostalservice-a77078", "operator": "United States Postal Service", "operator:short": "USPS", "operator:type": "public", "operator:wikidata": "Q668687", "ref": "1727100001"}, "type": "Feature"}
{"dataset_attributes": {"@spider": "usps_collection_boxes"}, "geometry": {"coordinates": [-77.786173, 40.112529], "type": "Point"}, "id": "VUHALnR9dA0-1pXnSW4weOF-RSU=", "properties": {"@spider": "usps_collection_boxes", "addr:city": "WILLOW HILL", "addr:country": "US", "addr:full": "14413 PATH VALLEY RD", "addr:postcode": "17271", "addr:state": "PA", "amenity": "post_box", "brand": "United States Postal Service", "brand:wikidata": "Q668687", "collection_times": "Mo-Fr 12:00; Sa 11:30", "name": "USPS COLLECTION BOX - PO LOBBY", "nsi_id": "unitedstatespostalservice-a77078", "operator": "United States Postal Service", "operator:short": "USPS", "operator:type": "public", "operator:wikidata": "Q668687", "ref": "1727100002"}, "type": "Feature"}
{"dataset_attributes": {"@spider": "usps_collection_boxes"}, "geometry": {"coordinates": [-77.786378736, 40.11229539], "type": "Point"}, "id": "JRKT4bCDlBVrA8LmknHhdHYA_44=", "properties": {"@spider": "usps_collection_boxes", "addr:city": "WILLOW HILL", "addr:country": "US", "addr:full": "14413 PATH VALLEY RD", "addr:postcode": "17271", "addr:state": "PA", "amenity": "post_box", "brand": "United States Postal Service", "brand:wikidata": "Q668687", "collection_times": "Mo-Sa 12:00", "name": "USPS COLLECTION BOX - PO LOBBY", "nsi_id": "unitedstatespostalservice-a77078", "operator": "United States Postal Service", "operator:short": "USPS", "operator:type": "public", "operator:wikidata": "Q668687", "ref": "1727100004"}, "type": "Feature"}
