{"geometry": {"coordinates": [-76.9841885, 39.881212], "type": "Point"}, "id": "L_L3oBWfPFrOBNDLAEyld5yCPTM=", "properties": {"@source_uri": "https://tools.usps.com/UspsToolsRestServices/rest/POLocator/findLocations", "@spider": "usps_collection_boxes", "addr:city": "ABBOTTSTOWN", "addr:country": "US", "addr:postcode": "17301", "addr:state": "PA", "addr:street_address": "101 SUNRISE DR", "amenity": "post_box", "collection_times": "Mo-Sa 08:30", "nsi_id": "unitedstatespostalservice-a77078", "operator": "United States Postal Service", "operator:short": "USPS", "operator:type": "public", "operator:wikidata": "Q668687", "ref": "1730100002"}, "type": "Feature"}
{"geometry": {"coordinates": [-76.99705, 39.882515], "type": "Point"}, "id": "T09PTWSzSC7ADbgfAgCEG-RmfDc=", "properties": {"@source_uri": "https://tools.usps.com/UspsToolsRestServices/rest/POLocator/findLocations", "@spider": "usps_collection_boxes", "addr:city": "ABBOTTSTOWN", "addr:country": "US", "addr:postcode": "17301", "addr:state": "PA", "addr:street_address": "680 W KING ST", "amenity": "post_box", "collection_times": "Mo-Fr 16:30; Sa 11:00", "note": "ON 12/24 AND 12/31, THIS BOX MAY BE COLLECTED AS EARLY AS 12 NOON.", "nsi_id": "unitedstatespostalservice-a77078", "operator": "United States Postal Service", "operator:short": "USPS", "operator:type": "public", "operator:wikidata": "Q668687", "ref": "1730100003"}, "type": "Feature"}
{"geometry": {"coordinates": [-76.997151, 39.882507], "type": "Point"}, "id": "ogGZwkyoMsTLOV7Aq9eEmsAC754=", "properties": {"@source_uri": "https://tools.usps.com/UspsToolsRestServices/rest/POLocator/findLocations", "@spider": "usps_collection_boxes", "addr:city": "ABBOTTSTOWN", "addr:country": "US", "addr:postcode": "17301", "addr:state": "PA", "addr:street_address": "680 W KING ST", "amenity": "post_box", "collection_times": "Mo-Fr 16:30; Sa 11:00", "indoor": "yes", "note": "ON 12/24 AND 12/31, THIS BOX MAY BE COLLECTED AS EARLY AS 12 NOON.", "nsi_id": "unitedstatespostalservice-a77078", "operator": "United States Postal Service", "operator:short": "USPS", "operator:type": "public", "operator:wikidata": "Q668687", "ref": "1730100004"}, "type": "Feature"}
{"geometry": {"coordinates": [-76.997242102, 39.882443618], "type": "Point"}, "id": "9d8pNfnyVr4bLFBafN96I8_1S5c=", "properties": {"@source_uri": "https://tools.usps.com/UspsToolsRestServices/rest/POLocator/findLocations", "@spider": "usps_collection_boxes", "addr:city": "ABBOTTSTOWN", "addr:country": "US", "addr:postcode": "17301", "addr:state": "PA", "addr:street_address": "680 W KING ST", "amenity": "post_box", "collection_times": "Mo-Fr 16:35; Sa 11:05", "indoor": "yes", "note": "ON 12/24 AND 12/31, THIS BOX MAY BE COLLECTED AS EARLY AS 12 NOON.", "nsi_id": "unitedstatespostalservice-a77078", "operator": "United States Postal Service", "operator:short": "USPS", "operator:type": "public", "operator:wikidata": "Q668687", "ref": "1730100006"}, "type": "Feature"}
{"geometry": {"coordinates": [-77.299759, 39.921556], "type": "Point"}, "id": "JOIsMHlul9BDltH0D5FvQAmYzBs=", "properties": {"@source_uri": "https://tools.usps.com/UspsToolsRestServices/rest/POLocator/findLocations", "@spider": "usps_collection_boxes", "addr:city": "ARENDTSVILLE", "addr:country": "US", "addr:postcode": "17303", "addr:state": "PA", "addr:street_address": "26 S HIGH ST", "amenity": "post_box", "collection_times": "Mo-Fr 16:30; Sa 12:15", "note": "ON 12/24 AND 12/31, THIS BOX MAY BE COLLECTED AS EARLY AS 12 NOON.", "nsi_id": "unitedstatespostalservice-a77078", "operator": "United States Postal Service", "operator:short": "USPS", "operator:type": "public", "operator:wikidata": "Q668687", "ref": "1730300001"}, "type": "Feature"}
{"geometry": {"coordinates": [-77.299813, 39.921588], "type": "Point"}, "id": "VeejfT1sqJrdKa4OtqpWg4rkvsM=", "properties": {"@source_uri": "https://tools.usps.com/UspsToolsRestServices/rest/POLocator/findLocations", "@spider": "usps_collection_boxes", "addr:city": "ARENDTSVILLE", "addr:country": "US", "addr:postcode": "17303", "addr:state": "PA", "addr:street_address": "26 S HIGH ST", "amenity": "post_box", "collection_times": "Mo-Fr 16:00; Sa 12:15", "indoor": "yes", "note": "ON 12/24 AND 12/31, THIS BOX MAY BE COLLECTED AS EARLY AS 12 NOON.", "nsi_id": "unitedstatespostalservice-a77078", "operator": "United States Postal Service", "operator:short": "USPS", "operator:type": "public", "operator:wikidata": "Q668687", "ref": "1730300002"}, "type": "Feature"}
{"geometry": {"coordinates": [-77.299699832, 39.921423873], "type": "Point"}, "id": "lLBk4arez5qHq7RF7vYEmOVgosI=", "properties": {"@source_uri": "https://tools.usps.com/UspsToolsRestServices/rest/POLocator/findLocations", "@spider": "usps_collection_boxes", "addr:city": "ARENDTSVILLE", "addr:country": "US", "addr:postcode": "17303", "addr:state": "PA", "addr:street_address": "26 S HIGH ST", "amenity": "post_box", "collection_times": "Mo-Fr 16:30; Sa 12:00", "indoor": "yes", "note": "ON 12/24 AND 12/31, THIS BOX MAY BE COLLECTED AS EARLY AS 12 NOON.", "nsi_id": "unitedstatespostalservice-a77078", "operator": "United States Postal Service", "operator:short": "USPS", "operator:type": "public", "operator:wikidata": "Q668687", "ref": "1730300004"}, "type": "Feature"}
{"geometry": {"coordinates": [-77.234474, 39.979361], "type": "Point"}, "id": "SoLdVToKI5QXm5Sej4AYqs3-n0k=", "properties": {"@source_uri": "https://tools.usps.com/UspsToolsRestServices/rest/POLocator/findLocations", "@spider": "usps_collection_boxes", "addr:city": "ASPERS", "addr:country": "US", "addr:postcode": "17304", "addr:state": "PA", "addr:street_address": "420 ASPERS BENDERSVILLE RD", "amenity": "post_box", "collection_times": "Mo-Fr 16:00; Sa 10:30", "note": "ON 12/24 AND 12/31, THIS BOX MAY BE COLLECTED AS EARLY AS 12 NOON.", "nsi_id": "unitedstatespostalservice-a77078", "operator": "United States Postal Service", "operator:short": "USPS", "operator:type": "public", "operator:wikidata": "Q668687", "ref": "1730400001"}, "type": "Feature"}
{"geometry": {"coordinates": [-77.234579, 39.979366], "type": "Point"}, "id": "eAmgIgTrSRYEOaCV7HWjPS0x37w=", "properties": {"@source_uri": "https://tools.usps.com/UspsToolsRestServices/rest/POLocator/findLocations", "@spider": "usps_collection_boxes", "addr:city": "ASPERS", "addr:country": "US", "addr:postcode": "17304", "addr:state": "PA", "addr:street_address": "420 ASPERS BENDERSVILLE RD", "amenity": "post_box", "collection_times": "Mo-Fr 16:00; Sa 10:30", "indoor": "yes", "note": "ON 12/24 AND 12/31, THIS BOX MAY BE COLLECTED AS EARLY AS 12 NOON.", "nsi_id": "unitedstatespostalservice-a77078", "operator": "United States Postal Service", "operator:short": "USPS", "operator:type": "public", "operator:wikidata": "Q668687", "ref": "1730400003"}, "type": "Feature"}
{"geometry": {"coordinates": [-77.234132083, 39.979244637], "type": "Point"}, "id": "Bfq0-dZsobvptZL5trkOWQyDZ8k=", "properties": {"@source_uri": "https://tools.usps.com/UspsToolsRestServices/rest/POLocator/findLocations", "@spider": "usps_collection_boxes", "addr:city": "ASPERS", "addr:country": "US", "addr:postcode": "17304", "addr:state": "PA", "addr:street_address": "420 ASPERS BENDERSVILLE RD", "amenity": "post_box", "collection_times": "Mo-Fr 16:05; Sa 11:05", "indoor": "yes", "note": "ON 12/24 AND 12/31, THIS BOX MAY BE COLLECTED AS EARLY AS 12 NOON.", "nsi_id": "unitedstatespostalservice-a77078", "operator": "United States Postal Service", "operator:short": "USPS", "operator:type": "public", "operator:wikidata": "Q668687", "ref": "1730400005"}, "type": "Feature"}
{"geometry": {"coordinates": [-77.248209, 39.983908], "type": "Point"}, "id": "0fStZRMqQaCngdONCmZpXST0gsQ=", "properties": {"@source_uri": "https://tools.usps.com/UspsToolsRestServices/rest/POLocator/findLocations", "@spider": "usps_collection_boxes", "addr:city": "BENDERSVILLE", "addr:country": "US", "addr:postcode": "17306", "addr:state": "PA", "addr:street_address": "125 RAMPIKE HILL RD", "amenity": "post_box", "collection_times": "Mo-Fr 16:00; Sa 11:15", "indoor": "yes", "note": "ON 12/24 AND 12/31, THIS BOX MAY BE COLLECTED AS EARLY AS 12 NOON.", "nsi_id": "unitedstatespostalservice-a77078", "operator": "United States Postal Service", "operator:short": "USPS", "operator:type": "public", "operator:wikidata": "Q668687", "ref": "1730600002"}, "type": "Feature"}
{"geometry": {"coordinates": [-77.248295, 39.983868], "type": "Point"}, "id": "iiePhQXELl7El0ibo6yT0FY70_k=", "properties": {"@source_uri": "https://tools.usps.com/UspsToolsRestServices/rest/POLocator/findLocations", "@spider": "usps_collection_boxes", "addr:city": "BENDERSVILLE", "addr:country": "US", "addr:postcode": "17306", "addr:state": "PA", "addr:street_address": "125 RAMPIKE HILL RD", "amenity": "post_box", "collection_times": "Mo-Fr 16:00; Sa 11:15", "note": "ON 12/24 AND 12/31, THIS BOX MAY BE COLLECTED AS EARLY AS 12 NOON.", "nsi_id": "unitedstatespostalservice-a77078", "operator": "United States Postal Service", "operator:short": "USPS", "operator:type": "public", "operator:wikidata": "Q668687", "ref": "1730600003"}, "type": "Feature"}
{"geometry": {"coordinates": [-77.247882111, 39.984224868], "type": "Point"}, "id": "jUANPbAPCiQpqHfczG0DywDnAro=", "properties": {"@source_uri": "https://tools.usps.com/UspsToolsRestServices/rest/POLocator/findLocations", "@spider": "usps_collection_boxes", "addr:city": "BENDERSVILLE", "addr:country": "US", "addr:postcode": "17306", "addr:state": "PA", "addr:street_address": "125 RAMPIKE HILL RD", "amenity": "post_box", "collection_times": "Mo-Fr 16:00; Sa 11:00", "indoor": "yes", "note": "ON 12/24 AND 12/31, THIS BOX MAY BE COLLECTED AS EARLY AS 12 NOON.", "nsi_id": "unitedstatespostalservice-a77078", "operator": "United States Postal Service", "operator:short": "USPS", "operator:type": "public", "operator:wikidata": "Q668687", "ref": "1730600005"}, "type": "Feature"}
{"geometry": {"coordinates": [-77.25111, 39.930253], "type": "Point"}, "id": "nN7h4C3BLCFYMgG-m16JRpLeGLo=", "properties": {"@source_uri": "https://tools.usps.com/UspsToolsRestServices/rest/POLocator/findLocations", "@spider": "usps_collection_boxes", "addr:city": "BIGLERVILLE", "addr:country": "US", "addr:postcode": "17307", "addr:state": "PA", "addr:street_address": "2 HIGH ST", "amenity": "post_box", "collection_times": "Mo-Fr 16:30; Sa 12:00", "indoor": "yes", "note": "ON 12/24 AND 12/31, THIS BOX MAY BE COLLECTED AS EARLY AS 12 NOON.", "nsi_id": "unitedstatespostalservice-a77078", "operator": "United States Postal Service", "operator:short": "USPS", "operator:type": "public", "operator:wikidata": "Q668687", "ref": "1730700003"}, "type": "Feature"}
{"geometry": {"coordinates": [-77.251075136, 39.930075419], "type": "Point"}, "id": "nglyhVYe1a2MaGlf4wzk09Tbcvw=", "properties": {"@source_uri": "https://tools.usps.com/UspsToolsRestServices/rest/POLocator/findLocations", "@spider": "usps_collection_boxes", "addr:city": "BIGLERVILLE", "addr:country": "US", "addr:postcode": "17307", "addr:state": "PA", "addr:street_address": "2 HIGH ST", "amenity": "post_box", "collection_times": "Mo-Fr 16:50; Sa 12:35", "indoor": "yes", "note": "ON 12/24 AND 12/31, THIS BOX MAY BE COLLECTED AS EARLY AS 12 NOON.", "nsi_id": "unitedstatespostalservice-a77078", "operator": "United States Postal Service", "operator:short": "USPS", "operator:type": "public", "operator:wikidata": "Q668687", "ref": "1730700005"}, "type": "Feature"}
{"geometry": {"coordinates": [-77.2922739, 39.9249125], "type": "Point"}, "id": "69pyRIKbll6WddqXt2OlldjM5c8=", "properties": {"@source_uri": "https://tools.usps.com/UspsToolsRestServices/rest/POLocator/findLocations", "@spider": "usps_collection_boxes", "addr:city": "BIGLERVILLE", "addr:country": "US", "addr:postcode": "17307", "addr:state": "PA", "addr:street_address": "2 HIGH ST", "amenity": "post_box", "collection_times": "Mo-Fr 16:15; Sa 11:45", "note": "ON 12/24 AND 12/31, THIS BOX MAY BE COLLECTED AS EARLY AS 12 NOON.", "nsi_id": "unitedstatespostalservice-a77078", "operator": "United States Postal Service", "operator:short": "USPS", "operator:type": "public", "operator:wikidata": "Q668687", "ref": "1730700006"}, "type": "Feature"}
{"geometry": {"coordinates": [-76.486108, 39.872337], "type": "Point"}, "id": "cakQsXYZr4XgYArcTEpnbl84ZRk=", "properties": {"@source_uri": "https://tools.usps.com/UspsToolsRestServices/rest/POLocator/findLocations", "@spider": "usps_collection_boxes", "addr:city": "BROGUE", "addr:country": "US", "addr:postcode": "17309", "addr:state": "PA", "addr:street_address": "2224 DELTA RD", "amenity": "post_box", "collection_times": "Mo-Fr 16:15; Sa 09:45", "note": "ON 12/24 AND 12/31, THIS BOX MAY BE COLLECTED AS EARLY AS 12 NOON.", "nsi_id": "unitedstatespostalservice-a77078", "operator": "United States Postal Service", "operator:short": "USPS", "operator:type": "public", "operator:wikidata": "Q668687", "ref": "1730900001"}, "type": "Feature"}
{"geometry": {"coordinates": [-76.48622, 39.872374], "type": "Point"}, "id": "hSCHRCB1Wfy4jhPfITg5i12oCEQ=", "properties": {"@source_uri": "https://tools.usps.com/UspsToolsRestServices/rest/POLocator/findLocations", "@spider": "usps_collection_boxes", "addr:city": "BROGUE", "addr:country": "US", "addr:postcode": "17309", "addr:state": "PA", "addr:street_address": "2224 DELTA RD", "amenity": "post_box", "collection_times": "Mo-Fr 16:15; Sa 09:45", "indoor": "yes", "note": "ON 12/24 AND 12/31, THIS BOX MAY BE COLLECTED AS EARLY AS 12 NOON.", "nsi_id": "unitedstatespostalservice-a77078", "operator": "United States Postal Service", "operator:short": "USPS", "operator:type": "public", "operator:wikidata": "Q668687", "ref": "1730900003"}, "type": "Feature"}
{"geometry": {"coordinates": [-76.484845639, 39.872260543], "type": "Point"}, "id": "G9Bhb_noKJs6dny61D_wKuv_2jw=", "properties": {"@source_uri": "https://tools.usps.com/UspsToolsRestServices/rest/POLocator/findLocations", "@spider": "usps_collection_boxes", "addr:city": "BROGUE", "addr:country": "US", "addr:postcode": "17309", "addr:state": "PA", "addr:street_address": "2224 DELTA RD", "amenity": "post_box", "collection_times": "Mo-Fr 16:35; Sa 10:05", "indoor": "yes", "note": "ON 12/24 AND 12/31, THIS BOX MAY BE COLLECTED AS EARLY AS 12 NOON.", "nsi_id": "unitedstatespostalservice-a77078", "operator": "United States Postal Service", "operator:short": "USPS", "operator:type": "public", "operator:wikidata": "Q668687", "ref": "1730900005"}, "type": "Feature"}
{"geometry": {"coordinates": [-77.358791, 39.88483], "type": "Point"}, "id": "tTGR7frytStBCKHpfSpdal_dKVE=", "properties": {"@source_uri": "https://tools.usps.com/UspsToolsRestServices/rest/POLocator/findLocations", "@spider": "usps_collection_boxes", "addr:city": "CASHTOWN", "addr:country": "US", "addr:postcode": "17310", "addr:state": "PA", "addr:street_address": "372 HIGH ST", "amenity": "post_box", "collection_times": "Mo-Sa 12:00", "nsi_id": "unitedstatespostalservice-a77078", "operator": "United States Postal Service", "operator:short": "USPS", "operator:type": "public", "operator:wikidata": "Q668687", "ref": "1731000001"}, "type": "Feature"}
{"geometry": {"coordinates": [-77.358791, 39.88483], "type": "Point"}, "id": "ysW3_ZP6WfJgMdm0F5tth7SrZXs=", "properties": {"@source_uri": "https://tools.usps.com/UspsToolsRestServices/rest/POLocator/findLocations", "@spider": "usps_collection_boxes", "addr:city": "CASHTOWN", "addr:country": "US", "addr:postcode": "17310", "addr:state": "PA", "addr:street_address": "372 HIGH ST", "amenity": "post_box", "collection_times": "Mo-Sa 12:00", "indoor": "yes", "nsi_id": "unitedstatespostalservice-a77078", "operator": "United States Postal Service", "operator:short": "USPS", "operator:type": "public", "operator:wikidata": "Q668687", "ref": "1731000005"}, "type": "Feature"}
{"geometry": {"coordinates": [-76.991661208, 39.885927645], "type": "Point"}, "id": "QDSkr1UNjut5_OtjOdVkZMkzS8g=", "properties": {"@source_uri": "https://tools.usps.com/UspsToolsRestServices/rest/POLocator/findLocations", "@spider": "usps_collection_boxes", "addr:city": "CASHTOWN", "addr:country": "US", "addr:postcode": "17310", "addr:state": "PA", "addr:street_address": "372 HIGH ST", "amenity": "post_box", "collection_times": "Mo-Sa 12:00", "indoor": "yes", "nsi_id": "unitedstatespostalservice-a77078", "operator": "United States Postal Service", "operator:short": "USPS", "operator:type": "public", "operator:wikidata": "Q668687", "ref": "1731000007"}, "type": "Feature"}
{"geometry": {"coordinates": [-76.840879, 39.816439], "type": "Point"}, "id": "G6JVutgdHSlQS7kQ32NijJbdILg=", "properties": {"@source_uri": "https://tools.usps.com/UspsToolsRestServices/rest/POLocator/findLocations", "@spider": "usps_collection_boxes", "addr:city": "CODORUS", "addr:country": "US", "addr:postcode": "17311", "addr:state": "PA", "addr:street_address": "11 BALTIMORE ST", "amenity": "post_box", "collection_times": "Mo-Fr 13:00; Sa 11:30", "note": "ON 12/24 AND 12/31, THIS BOX MAY BE COLLECTED AS EARLY AS 12 NOON.", "nsi_id": "unitedstatespostalservice-a77078", "operator": "United States Postal Service", "operator:short": "USPS", "operator:type": "public", "operator:wikidata": "Q668687", "ref": "1731100001"}, "type": "Feature"}
{"geometry": {"coordinates": [-76.840916, 39.816528], "type": "Point"}, "id": "piow6pNSMRzEWTBbeOK2tCV4RNw=", "properties": {"@source_uri": "https://tools.usps.com/UspsToolsRestServices/rest/POLocator/findLocations", "@spider": "usps_collection_boxes", "addr:city": "CODORUS", "addr:country": "US", "addr:postcode": "17311", "addr:state": "PA", "addr:street_address": "11 BALTIMORE ST", "amenity": "post_box", "collection_times": "Mo-Fr 13:00; Sa 11:30", "indoor": "yes", "note": "ON 12/24 AND 12/31, THIS BOX MAY BE COLLECTED AS EARLY AS 12 NOON.", "nsi_id": "unitedstatespostalservice-a77078", "operator": "United States Postal Service", "operator:short": "USPS", "operator:type": "public", "operator:wikidata": "Q668687", "ref": "1731100002"}, "type": "Feature"}
{"geometry": {"coordinates": [-76.729422173, 39.792955115], "type": "Point"}, "id": "ox5m464sW3-yRmyKvv3endLCziA=", "properties": {"@source_uri": "https://tools.usps.com/UspsToolsRestServices/rest/POLocator/findLocations", "@spider": "usps_collection_boxes", "addr:city": "CODORUS", "addr:country": "US", "addr:postcode": "17311", "addr:state": "PA", "addr:street_address": "11 BALTIMORE ST", "amenity": "post_box", "collection_times": "Mo-Fr 13:00; Sa 11:30", "indoor": "yes", "note": "ON 12/24 AND 12/31, THIS BOX MAY BE COLLECTED AS EARLY AS 12 NOON.", "nsi_id": "unitedstatespostalservice-a77078", "operator": "United States Postal Service", "operator:short": "USPS", "operator:type": "public", "operator:wikidata": "Q668687", "ref": "1731100005"}, "type": "Feature"}
{"geometry": {"coordinates": [-76.504656, 39.946849], "type": "Point"}, "id": "ePOIk_nwAAKI-ts-qt8YSz0ehy8=", "properties": {"@source_uri": "https://tools.usps.com/UspsToolsRestServices/rest/POLocator/findLocations", "@spider": "usps_collection_boxes", "addr:city": "CRALEY", "addr:country": "US", "addr:postcode": "17312", "addr:state": "PA", "addr:street_address": "86 NEW BRIDGEVILLE RD", "amenity": "post_box", "collection_times": "Mo-Fr 16:00; Sa 10:30", "note": "ON 12/24 AND 12/31, THIS BOX MAY BE COLLECTED AS EARLY AS 12 NOON.", "nsi_id": "unitedstatespostalservice-a77078", "operator": "United States Postal Service", "operator:short": "USPS", "operator:type": "public", "operator:wikidata": "Q668687", "ref": "1731200001"}, "type": "Feature"}
{"geometry": {"coordinates": [-76.504671, 39.946875], "type": "Point"}, "id": "RSsRMb8lZkMk1hJNpCLJvtbPhEc=", "properties": {"@source_uri": "https://tools.usps.com/UspsToolsRestServices/rest/POLocator/findLocations", "@spider": "usps_collection_boxes", "addr:city": "CRALEY", "addr:country": "US", "addr:postcode": "17312", "addr:state": "PA", "addr:street_address": "86 NEW BRIDGEVILLE RD", "amenity": "post_box", "collection_times": "Mo-Fr 16:00; Sa 11:00", "indoor": "yes", "note": "ON 12/24 AND 12/31, THIS BOX MAY BE COLLECTED AS EARLY AS 12 NOON.", "nsi_id": "unitedstatespostalservice-a77078", "operator": "United States Postal Service", "operator:short": "USPS", "operator:type": "public", "operator:wikidata": "Q668687", "ref": "1731200002"}, "type": "Feature"}
{"geometry": {"coordinates": [-76.504193682, 39.94683967], "type": "Point"}, "id": "1dzGJxpghTah8uFVKyVMS3ozIxY=", "properties": {"@source_uri": "https://tools.usps.com/UspsToolsRestServices/rest/POLocator/findLocations", "@spider": "usps_collection_boxes", "addr:city": "CRALEY", "addr:country": "US", "addr:postcode": "17312", "addr:state": "PA", "addr:street_address": "86 NEW BRIDGEVILLE RD", "amenity": "post_box", "collection_times": "Mo-Fr 16:00; Sa 11:00", "indoor": "yes", "note": "ON 12/24 AND 12/31, THIS BOX MAY BE COLLECTED AS EARLY AS 12 NOON.", "nsi_id": "unitedstatespostalservice-a77078", "operator": "United States Postal Service", "operator:short": "USPS", "operator:type": "public", "operator:wikidata": "Q668687", "ref": "1731200004"}, "type": "Feature"}
{"geometry": {"coordinates": [-76.644006, 39.901797], "type": "Point"}, "id": "4_WPwhW8CqZ2z3knE5lW4BAulHw=", "properties": {"@source_uri": "https://tools.usps.com/UspsToolsRestServices/rest/POLocator/findLocations", "@spider": "usps_collection_boxes", "addr:city": "DALLASTOWN", "addr:country": "US", "addr:postcode": "17313", "addr:state": "PA", "addr:street_address": "61 N WALNUT ST", "amenity": "post_box", "collection_times": "Mo-Fr 16:15; Sa 11:45", "note": "ON 12/24 AND 12/31, THIS BOX MAY BE COLLECTED AS EARLY AS 12 NOON.", "nsi_id": "unitedstatespostalservice-a77078", "operator": "United States Postal Service", "operator:short": "USPS", "operator:type": "public", "operator:wikidata": "Q668687", "ref": "1731300036"}, "type": "Feature"}
{"geometry": {"coordinates": [-76.644039, 39.901807], "type": "Point"}, "id": "s40gZTlU0um1vKlXPdVRfS2_5R8=", "properties": {"@source_uri": "https://tools.usps.com/UspsToolsRestServices/rest/POLocator/findLocations", "@spider": "usps_collection_boxes", "addr:city": "DALLASTOWN", "addr:country": "US", "addr:postcode": "17313", "addr:state": "PA", "addr:street_address": "61 N WALNUT ST", "amenity": "post_box", "collection_times": "Mo-Fr 16:15; Sa 11:45", "indoor": "yes", "note": "ON 12/24 AND 12/31, THIS BOX MAY BE COLLECTED AS EARLY AS 12 NOON.", "nsi_id": "unitedstatespostalservice-a77078", "operator": "United States Postal Service", "operator:short": "USPS", "operator:type": "public", "operator:wikidata": "Q668687", "ref": "1731300042"}, "type": "Feature"}
{"geometry": {"coordinates": [-76.643990759, 39.901778727], "type": "Point"}, "id": "AAhr8bmoXaiCO6WEWBr8P83jOE4=", "properties": {"@source_uri": "https://tools.usps.com/UspsToolsRestServices/rest/POLocator/findLocations", "@spider": "usps_collection_boxes", "addr:city": "DALLASTOWN", "addr:country": "US", "addr:postcode": "17313", "addr:state": "PA", "addr:street_address": "61 N WALNUT ST", "amenity": "post_box", "collection_times": "Mo-Fr 16:30; Sa 12:00", "indoor": "yes", "note": "ON 12/24 AND 12/31, THIS BOX MAY BE COLLECTED AS EARLY AS 12 NOON.", "nsi_id": "unitedstatespostalservice-a77078", "operator": "United States Postal Service", "operator:short": "USPS", "operator:type": "public", "operator:wikidata": "Q668687", "ref": "1731300048"}, "type": "Feature"}
{"geometry": {"coordinates": [-76.326032, 39.726015], "type": "Point"}, "id": "AAqXBFdVuQRLHIWr3C7zUeCRMQ4=", "properties": {"@source_uri": "https://tools.usps.com/UspsToolsRestServices/rest/POLocator/findLocations", "@spider": "usps_collection_boxes", "addr:city": "DELTA", "addr:country": "US", "addr:postcode": "17314", "addr:state": "PA", "addr:street_address": "101 COLLEGE AVE", "amenity": "post_box", "collection_times": "Mo-Fr 16:00; Sa 10:00", "note": "ON 12/24 AND 12/31, THIS BOX MAY BE COLLECTED AS EARLY AS 12 NOON.", "nsi_id": "unitedstatespostalservice-a77078", "operator": "United States Postal Service", "operator:short": "USPS", "operator:type": "public", "operator:wikidata": "Q668687", "ref": "1731400007"}, "type": "Feature"}
{"geometry": {"coordinates": [-76.326027, 39.725922], "type": "Point"}, "id": "j_uYQ4KN0WOEInDOD81JDnJ2vBY=", "properties": {"@source_uri": "https://tools.usps.com/UspsToolsRestServices/rest/POLocator/findLocations", "@spider": "usps_collection_boxes", "addr:city": "DELTA", "addr:country": "US", "addr:postcode": "17314", "addr:state": "PA", "addr:street_address": "101 COLLEGE AVE", "amenity": "post_box", "collection_times": "Mo-Fr 16:00; Sa 10:00", "indoor": "yes", "note": "ON 12/24 AND 12/31, THIS BOX MAY BE COLLECTED AS EARLY AS 12 NOON.", "nsi_id": "unitedstatespostalservice-a77078", "operator": "United States Postal Service", "operator:short": "USPS", "operator:type": "public", "operator:wikidata": "Q668687", "ref": "1731400008"}, "type": "Feature"}
{"geometry": {"coordinates": [-76.326149606, 39.726268878], "type": "Point"}, "id": "HLjlD3gsmRRSLaOky5yZzOU1EDU=", "properties": {"@source_uri": "https://tools.usps.com/UspsToolsRestServices/rest/POLocator/findLocations", "@spider": "usps_collection_boxes", "addr:city": "DELTA", "addr:country": "US", "addr:postcode": "17314", "addr:state": "PA", "addr:street_address": "101 COLLEGE AVE", "amenity": "post_box", "collection_times": "Mo-Fr 16:30; Sa 10:20", "indoor": "yes", "note": "ON 12/24 AND 12/31, THIS BOX MAY BE COLLECTED AS EARLY AS 12 NOON.", "nsi_id": "unitedstatespostalservice-a77078", "operator": "United States Postal Service", "operator:short": "USPS", "operator:type": "public", "operator:wikidata": "Q668687", "ref": "1731400010"}, "type": "Feature"}
{"geometry": {"coordinates": [-76.851222, 40.00209], "type": "Point"}, "id": "uvi0gczdUsf6afqw_yndbGsXZMs=", "properties": {"@source_uri": "https://tools.usps.com/UspsToolsRestServices/rest/POLocator/findLocations", "@spider": "usps_collection_boxes", "addr:city": "DOVER", "addr:country": "US", "addr:postcode": "17315", "addr:state": "PA", "addr:street_address": "24 N MAIN ST", "amenity": "post_box", "collection_times": "Mo-Fr 16:30; Sa 12:00", "note": "ON 12/24 AND 12/31, THIS BOX MAY BE COLLECTED AS EARLY AS 12 NOON.", "nsi_id": "unitedstatespostalservice-a77078", "operator": "United States Postal Service", "operator:short": "USPS", "operator:type": "public", "operator:wikidata": "Q668687", "ref": "1731500014"}, "type": "Feature"}
{"geometry": {"coordinates": [-76.851213, 40.002123], "type": "Point"}, "id": "2sv-6jDfa5XunsEbfcpVJBmCW3Q=", "properties": {"@source_uri": "https://tools.usps.com/UspsToolsRestServices/rest/POLocator/findLocations", "@spider": "usps_collection_boxes", "addr:city": "DOVER", "addr:country": "US", "addr:postcode": "17315", "addr:state": "PA", "addr:street_address": "24 N MAIN ST", "amenity": "post_box", "collection_times": "Mo-Fr 16:30; Sa 12:00", "indoor": "yes", "note": "ON 12/24 AND 12/31, THIS BOX MAY BE COLLECTED AS EARLY AS 12 NOON.", "nsi_id": "unitedstatespostalservice-a77078", "operator": "United States Postal Service", "operator:short": "USPS", "operator:type": "public", "operator:wikidata": "Q668687", "ref": "1731500017"}, "type": "Feature"}
{"geometry": {"coordinates": [-76.8148666, 39.981576], "type": "Point"}, "id": "fR8s70C5JCgf3phhxoCe9qD_yCk=", "properties": {"@source_uri": "https://tools.usps.com/UspsToolsRestServices/rest/POLocator/findLocations", "@spider": "usps_collection_boxes", "addr:city": "DOVER", "addr:country": "US", "addr:postcode": "17315", "addr:state": "PA", "addr:street_address": "2850 CARLISLE RD", "amenity": "post_box", "collection_times": "Mo-Sa 10:30", "nsi_id": "unitedstatespostalservice-a77078", "operator": "United States Postal Service", "operator:short": "USPS", "operator:type": "public", "operator:wikidata": "Q668687", "ref": "1731500020"}, "type": "Feature"}
{"geometry": {"coordinates": [-76.851243274, 40.002114565], "type": "Point"}, "id": "wDJIRwRQy9BTbtm_Xcp75xzhfHM=", "properties": {"@source_uri": "https://tools.usps.com/UspsToolsRestServices/rest/POLocator/findLocations", "@spider": "usps_collection_boxes", "addr:city": "DOVER", "addr:country": "US", "addr:postcode": "17315", "addr:state": "PA", "addr:street_address": "24 N MAIN ST", "amenity": "post_box", "collection_times": "Mo-Fr 17:00; Sa 14:15", "indoor": "yes", "note": "ON 12/24 AND 12/31, THIS BOX MAY BE COLLECTED AS EARLY AS 12 NOON.", "nsi_id": "unitedstatespostalservice-a77078", "operator": "United States Postal Service", "operator:short": "USPS", "operator:type": "public", "operator:wikidata": "Q668687", "ref": "1731500023"}, "type": "Feature"}
{"geometry": {"coordinates": [-76.9812367, 39.9382], "type": "Point"}, "id": "YZYopRyEWbKGs75772FKKN5tilc=", "properties": {"@source_uri": "https://tools.usps.com/UspsToolsRestServices/rest/POLocator/findLocations", "@spider": "usps_collection_boxes", "addr:city": "EAST BERLIN", "addr:country": "US", "addr:postcode": "17316", "addr:state": "PA", "addr:street_address": "214 S 3RD ST", "amenity": "post_box", "collection_times": "Mo-Fr 16:30; Sa 11:00", "note": "ON 12/24 AND 12/31, THIS BOX MAY BE COLLECTED AS EARLY AS 12 NOON.", "nsi_id": "unitedstatespostalservice-a77078", "operator": "United States Postal Service", "operator:short": "USPS", "operator:type": "public", "operator:wikidata": "Q668687", "ref": "1731600001"}, "type": "Feature"}
{"geometry": {"coordinates": [-76.9811841, 39.938143], "type": "Point"}, "id": "UfP_8_dRAHkC2AIRUKE9sqj62xI=", "properties": {"@source_uri": "https://tools.usps.com/UspsToolsRestServices/rest/POLocator/findLocations", "@spider": "usps_collection_boxes", "addr:city": "EAST BERLIN", "addr:country": "US", "addr:postcode": "17316", "addr:state": "PA", "addr:street_address": "214 S 3RD ST", "amenity": "post_box", "collection_times": "Mo-Fr 16:30; Sa 11:00", "indoor": "yes", "note": "ON 12/24 AND 12/31, THIS BOX MAY BE COLLECTED AS EARLY AS 12 NOON.", "nsi_id": "unitedstatespostalservice-a77078", "operator": "United States Postal Service", "operator:short": "USPS", "operator:type": "public", "operator:wikidata": "Q668687", "ref": "1731600002"}, "type": "Feature"}
{"geometry": {"coordinates": [-76.981322542, 39.938047754], "type": "Point"}, "id": "Jmzkq5wKLM3fDPn7d0GUG1j1SJ0=", "properties": {"@source_uri": "https://tools.usps.com/UspsToolsRestServices/rest/POLocator/findLocations", "@spider": "usps_collection_boxes", "addr:city": "EAST BERLIN", "addr:country": "US", "addr:postcode": "17316", "addr:state": "PA", "addr:street_address": "214 S 3RD ST", "amenity": "post_box", "collection_times": "Mo-Fr 16:35; Sa 11:05", "indoor": "yes", "note": "ON 12/24 AND 12/31, THIS BOX MAY BE COLLECTED AS EARLY AS 12 NOON.", "nsi_id": "unitedstatespostalservice-a77078", "operator": "United States Postal Service", "operator:short": "USPS", "operator:type": "public", "operator:wikidata": "Q668687", "ref": "1731600004"}, "type": "Feature"}
{"geometry": {"coordinates": [-76.519894, 39.971117], "type": "Point"}, "id": "LiiUj1s7odysIoKAi5q6rYJMbnc=", "properties": {"@source_uri": "https://tools.usps.com/UspsToolsRestServices/rest/POLocator/findLocations", "@spider": "usps_collection_boxes", "addr:city": "EAST PROSPECT", "addr:country": "US", "addr:postcode": "17317", "addr:state": "PA", "addr:street_address": "1 W RIDGE AVE", "amenity": "post_box", "collection_times": "Mo-Fr 16:00; Sa 11:00", "note": "ON 12/24 AND 12/31, THIS BOX MAY BE COLLECTED AS EARLY AS 12 NOON.", "nsi_id": "unitedstatespostalservice-a77078", "operator": "United States Postal Service", "operator:short": "USPS", "operator:type": "public", "operator:wikidata": "Q668687", "ref": "1731700001"}, "type": "Feature"}
{"geometry": {"coordinates": [-76.519788, 39.971163], "type": "Point"}, "id": "TGYyFyOfvLOgGpapqzovhEDwHRM=", "properties": {"@source_uri": "https://tools.usps.com/UspsToolsRestServices/rest/POLocator/findLocations", "@spider": "usps_collection_boxes", "addr:city": "EAST PROSPECT", "addr:country": "US", "addr:postcode": "17317", "addr:state": "PA", "addr:street_address": "1 W RIDGE AVE", "amenity": "post_box", "collection_times": "Mo-Fr 16:00; Sa 11:00", "indoor": "yes", "note": "ON 12/24 AND 12/31, THIS BOX MAY BE COLLECTED AS EARLY AS 12 NOON.", "nsi_id": "unitedstatespostalservice-a77078", "operator": "United States Postal Service", "operator:short": "USPS", "operator:type": "public", "operator:wikidata": "Q668687", "ref": "1731700002"}, "type": "Feature"}
{"geometry": {"coordinates": [-76.519962276, 39.971058401], "type": "Point"}, "id": "GcbiAGxrn0ZI32gLCtiYhNtTCfM=", "properties": {"@source_uri": "https://tools.usps.com/UspsToolsRestServices/rest/POLocator/findLocations", "@spider": "usps_collection_boxes", "addr:city": "EAST PROSPECT", "addr:country": "US", "addr:postcode": "17317", "addr:state": "PA", "addr:street_address": "1 W RIDGE AVE", "amenity": "post_box", "collection_times": "Mo-Fr 16:00; Sa 11:00", "indoor": "yes", "note": "ON 12/24 AND 12/31, THIS BOX MAY BE COLLECTED AS EARLY AS 12 NOON.", "nsi_id": "unitedstatespostalservice-a77078", "operator": "United States Postal Service", "operator:short": "USPS", "operator:type": "public", "operator:wikidata": "Q668687", "ref": "1731700004"}, "type": "Feature"}
{"geometry": {"coordinates": [-76.6470854856, 39.9932006014], "type": "Point"}, "id": "47oNZJ2UgqLWCwaUQv8rdttu0hk=", "properties": {"@source_uri": "https://tools.usps.com/UspsToolsRestServices/rest/POLocator/findLocations", "@spider": "usps_collection_boxes", "addr:city": "EMIGSVILLE", "addr:country": "US", "addr:postcode": "17318", "addr:state": "PA", "addr:street_address": "2 EMIG RD", "amenity": "post_box", "collection_times": "Mo-Fr 16:15; Sa 10:45", "note": "ON 12/24 AND 12/31, THIS BOX MAY BE COLLECTED AS EARLY AS 12 NOON.", "nsi_id": "unitedstatespostalservice-a77078", "operator": "United States Postal Service", "operator:short": "USPS", "operator:type": "public", "operator:wikidata": "Q668687", "ref": "1731800001"}, "type": "Feature"}
{"geometry": {"coordinates": [-76.6470854856, 39.9932006014], "type": "Point"}, "id": "5Kve4FO7uQ2-lPm38hH9lQuDj3g=", "properties": {"@source_uri": "https://tools.usps.com/UspsToolsRestServices/rest/POLocator/findLocations", "@spider": "usps_collection_boxes", "addr:city": "EMIGSVILLE", "addr:country": "US", "addr:postcode": "17318", "addr:state": "PA", "addr:street_address": "2 EMIG RD", "amenity": "post_box", "collection_times": "Mo-Fr 16:15; Sa 10:45", "indoor": "yes", "note": "ON 12/24 AND 12/31, THIS BOX MAY BE COLLECTED AS EARLY AS 12 NOON.", "nsi_id": "unitedstatespostalservice-a77078", "operator": "United States Postal Service", "operator:short": "USPS", "operator:type": "public", "operator:wikidata": "Q668687", "ref": "1731800002"}, "type": "Feature"}
{"geometry": {"coordinates": [-76.728578849, 40.018046409], "type": "Point"}, "id": "N4GPsxq5G_JgJ5Wf-Q0ov-cKuWg=", "properties": {"@source_uri": "https://tools.usps.com/UspsToolsRestServices/rest/POLocator/findLocations", "@spider": "usps_collection_boxes", "addr:city": "EMIGSVILLE", "addr:country": "US", "addr:postcode": "17318", "addr:state": "PA", "addr:street_address": "2 EMIG RD", "amenity": "post_box", "collection_times": "Mo-Fr 16:20; Sa 11:05", "indoor": "yes", "note": "ON 12/24 AND 12/31, THIS BOX MAY BE COLLECTED AS EARLY AS 12 NOON.", "nsi_id": "unitedstatespostalservice-a77078", "operator": "United States Postal Service", "operator:short": "USPS", "operator:type": "public", "operator:wikidata": "Q668687", "ref": "1731800004"}, "type": "Feature"}
{"geometry": {"coordinates": [-76.8200324, 40.157751], "type": "Point"}, "id": "OxCJeXJ0dTh9XSw6qaPCOe9xuPg=", "properties": {"@source_uri": "https://tools.usps.com/UspsToolsRestServices/rest/POLocator/findLocations", "@spider": "usps_collection_boxes", "addr:city": "ETTERS", "addr:country": "US", "addr:postcode": "17319", "addr:state": "PA", "addr:street_address": "185 NEWBERRY COMMONS", "amenity": "post_box", "collection_times": "Mo-Fr 09:00; Sa 10:00", "nsi_id": "unitedstatespostalservice-a77078", "operator": "United States Postal Service", "operator:short": "USPS", "operator:type": "public", "operator:wikidata": "Q668687", "ref": "1731900000"}, "type": "Feature"}
{"geometry": {"coordinates": [-76.75161, 40.151268], "type": "Point"}, "id": "vAkl_IKc8r2K_tcMgxmMGoeQW2w=", "properties": {"@source_uri": "https://tools.usps.com/UspsToolsRestServices/rest/POLocator/findLocations", "@spider": "usps_collection_boxes", "addr:city": "ETTERS", "addr:country": "US", "addr:postcode": "17319", "addr:state": "PA", "addr:street_address": "53 S KISTER ST", "amenity": "post_box", "collection_times": "Mo-Fr 16:00; Sa 11:30", "note": "ON 12/24 AND 12/31, THIS BOX MAY BE COLLECTED AS EARLY AS 12 NOON.", "nsi_id": "unitedstatespostalservice-a77078", "operator": "United States Postal Service", "operator:short": "USPS", "operator:type": "public", "operator:wikidata": "Q668687", "ref": "1731900001"}, "type": "Feature"}
{"geometry": {"coordinates": [-76.8199039, 40.157698], "type": "Point"}, "id": "GnUE118uffgqx6dXpSeDhX0Lj9c=", "properties": {"@source_uri": "https://tools.usps.com/UspsToolsRestServices/rest/POLocator/findLocations", "@spider": "usps_collection_boxes", "addr:city": "ETTERS", "addr:country": "US", "addr:postcode": "17319", "addr:state": "PA", "addr:street_address": "200 NEWBERRY COMMONS", "amenity": "post_box", "collection_times": "Mo-Fr 09:00; Sa 10:00", "nsi_id": "unitedstatespostalservice-a77078", "operator": "United States Postal Service", "operator:short": "USPS", "operator:type": "public", "operator:wikidata": "Q668687", "ref": "1731900004"}, "type": "Feature"}
{"geometry": {"coordinates": [-76.751644, 40.151259], "type": "Point"}, "id": "mTOYVSm0G7FJ1-lmtceFPcsWi1g=", "properties": {"@source_uri": "https://tools.usps.com/UspsToolsRestServices/rest/POLocator/findLocations", "@spider": "usps_collection_boxes", "addr:city": "ETTERS", "addr:country": "US", "addr:postcode": "17319", "addr:state": "PA", "addr:street_address": "53 S KISTER ST", "amenity": "post_box", "collection_times": "Mo-Fr 16:00; Sa 11:30", "indoor": "yes", "note": "ON 12/24 AND 12/31, THIS BOX MAY BE COLLECTED AS EARLY AS 12 NOON.", "nsi_id": "unitedstatespostalservice-a77078", "operator": "United States Postal Service", "operator:short": "USPS", "operator:type": "public", "operator:wikidata": "Q668687", "ref": "1731900006"}, "type": "Feature"}
{"geometry": {"coordinates": [-76.8144165, 40.158039], "type": "Point"}, "id": "1SlhXC3AuMbfts4ftFsg4fa2GYw=", "properties": {"@source_uri": "https://tools.usps.com/UspsToolsRestServices/rest/POLocator/findLocations", "@spider": "usps_collection_boxes", "addr:city": "ETTERS", "addr:country": "US", "addr:postcode": "17319", "addr:state": "PA", "addr:street_address": "222 WHITE DOGWOOD DR", "amenity": "post_box", "collection_times": "Mo-Fr 09:00; Sa 10:00", "nsi_id": "unitedstatespostalservice-a77078", "operator": "United States Postal Service", "operator:short": "USPS", "operator:type": "public", "operator:wikidata": "Q668687", "ref": "1731900007"}, "type": "Feature"}
{"geometry": {"coordinates": [-76.751589758, 40.151261186], "type": "Point"}, "id": "hBj3BmqlkBVvd-rYnZZZzL_v4FQ=", "properties": {"@source_uri": "https://tools.usps.com/UspsToolsRestServices/rest/POLocator/findLocations", "@spider": "usps_collection_boxes", "addr:city": "ETTERS", "addr:country": "US", "addr:postcode": "17319", "addr:state": "PA", "addr:street_address": "53 S KISTER ST", "amenity": "post_box", "collection_times": "Mo-Fr 16:05; Sa 11:35", "indoor": "yes", "note": "ON 12/24 AND 12/31, THIS BOX MAY BE COLLECTED AS EARLY AS 12 NOON.", "nsi_id": "unitedstatespostalservice-a77078", "operator": "United States Postal Service", "operator:short": "USPS", "operator:type": "public", "operator:wikidata": "Q668687", "ref": "1731900010"}, "type": "Feature"}
{"geometry": {"coordinates": [-77.364088, 39.791871], "type": "Point"}, "id": "nHICw32hKYYZbOUOGqmgEMqJHTg=", "properties": {"@source_uri": "https://tools.usps.com/UspsToolsRestServices/rest/POLocator/findLocations", "@spider": "usps_collection_boxes", "addr:city": "FAIRFIELD", "addr:country": "US", "addr:postcode": "17320", "addr:state": "PA", "addr:street_address": "6 CARROLLS TRACT RD", "amenity": "post_box", "collection_times": "Mo-Fr 16:30; Sa 11:00", "note": "ON 12/24 AND 12/31, THIS BOX MAY BE COLLECTED AS EARLY AS 12 NOON.", "nsi_id": "unitedstatespostalservice-a77078", "operator": "United States Postal Service", "operator:short": "USPS", "operator:type": "public", "operator:wikidata": "Q668687", "ref": "1732000001"}, "type": "Feature"}
{"geometry": {"coordinates": [-77.364038, 39.791795], "type": "Point"}, "id": "LWTqlNegTVX4UCGxjr2_3bgtbts=", "properties": {"@source_uri": "https://tools.usps.com/UspsToolsRestServices/rest/POLocator/findLocations", "@spider": "usps_collection_boxes", "addr:city": "FAIRFIELD", "addr:country": "US", "addr:postcode": "17320", "addr:state": "PA", "addr:street_address": "6 CARROLLS TRACT RD", "amenity": "post_box", "collection_times": "Mo-Fr 16:30; Sa 11:00", "indoor": "yes", "note": "ON 12/24 AND 12/31, THIS BOX MAY BE COLLECTED AS EARLY AS 12 NOON.", "nsi_id": "unitedstatespostalservice-a77078", "operator": "United States Postal Service", "operator:short": "USPS", "operator:type": "public", "operator:wikidata": "Q668687", "ref": "1732000003"}, "type": "Feature"}
{"geometry": {"coordinates": [-77.364036253, 39.791608418], "type": "Point"}, "id": "n67RcQ4br6-pkKvZIwhQs-EimjQ=", "properties": {"@source_uri": "https://tools.usps.com/UspsToolsRestServices/rest/POLocator/findLocations", "@spider": "usps_collection_boxes", "addr:city": "FAIRFIELD", "addr:country": "US", "addr:postcode": "17320", "addr:state": "PA", "addr:street_address": "6 CARROLLS TRACT RD", "amenity": "post_box", "collection_times": "Mo-Fr 16:35; Sa 11:20", "indoor": "yes", "note": "ON 12/24 AND 12/31, THIS BOX MAY BE COLLECTED AS EARLY AS 12 NOON.", "nsi_id": "unitedstatespostalservice-a77078", "operator": "United States Postal Service", "operator:short": "USPS", "operator:type": "public", "operator:wikidata": "Q668687", "ref": "1732000005"}, "type": "Feature"}
{"geometry": {"coordinates": [-76.451509, 39.72785], "type": "Point"}, "id": "6cwTip6E130rsJln6jRKklgs4s8=", "properties": {"@source_uri": "https://tools.usps.com/UspsToolsRestServices/rest/POLocator/findLocations", "@spider": "usps_collection_boxes", "addr:city": "FAWN GROVE", "addr:country": "US", "addr:postcode": "17321", "addr:state": "PA", "addr:street_address": "69 W MAIN ST", "amenity": "post_box", "collection_times": "Mo-Sa 09:00", "nsi_id": "unitedstatespostalservice-a77078", "operator": "United States Postal Service", "operator:short": "USPS", "operator:type": "public", "operator:wikidata": "Q668687", "ref": "1732100002"}, "type": "Feature"}
{"geometry": {"coordinates": [-76.45079, 39.73134], "type": "Point"}, "id": "ZInKhZ4czgZmIHK4v7zeknPQe_c=", "properties": {"@source_uri": "https://tools.usps.com/UspsToolsRestServices/rest/POLocator/findLocations", "@spider": "usps_collection_boxes", "addr:city": "FAWN GROVE", "addr:country": "US", "addr:postcode": "17321", "addr:state": "PA", "addr:street_address": "119 S MARKET ST", "amenity": "post_box", "collection_times": "Mo-Fr 16:00; Sa 11:00", "note": "ON 12/24 AND 12/31, THIS BOX MAY BE COLLECTED AS EARLY AS 12 NOON.", "nsi_id": "unitedstatespostalservice-a77078", "operator": "United States Postal Service", "operator:short": "USPS", "operator:type": "public", "operator:wikidata": "Q668687", "ref": "1732100005"}, "type": "Feature"}
{"geometry": {"coordinates": [-76.602365, 39.848081], "type": "Point"}, "id": "tWAAjlXGSe868Uek12IysTAlvwc=", "properties": {"@source_uri": "https://tools.usps.com/UspsToolsRestServices/rest/POLocator/findLocations", "@spider": "usps_collection_boxes", "addr:city": "FELTON", "addr:country": "US", "addr:postcode": "17322", "addr:state": "PA", "addr:street_address": "13 LEBANON AVE", "amenity": "post_box", "collection_times": "Mo-Fr 16:00; Sa 10:30", "indoor": "yes", "note": "ON 12/24 AND 12/31, THIS BOX MAY BE COLLECTED AS EARLY AS 12 NOON.", "nsi_id": "unitedstatespostalservice-a77078", "operator": "United States Postal Service", "operator:short": "USPS", "operator:type": "public", "operator:wikidata": "Q668687", "ref": "1732200003"}, "type": "Feature"}
{"geometry": {"coordinates": [-76.602405535, 39.848087544], "type": "Point"}, "id": "YAgT-o3XiUNeYhEnuUCpmGGfsOk=", "properties": {"@source_uri": "https://tools.usps.com/UspsToolsRestServices/rest/POLocator/findLocations", "@spider": "usps_collection_boxes", "addr:city": "FELTON", "addr:country": "US", "addr:postcode": "17322", "addr:state": "PA", "addr:street_address": "13 RIPPLING RUN RD", "amenity": "post_box", "collection_times": "Mo-Fr 16:05; Sa 10:35", "indoor": "yes", "note": "ON 12/24 AND 12/31, THIS BOX MAY BE COLLECTED AS EARLY AS 12 NOON.", "nsi_id": "unitedstatespostalservice-a77078", "operator": "United States Postal Service", "operator:short": "USPS", "operator:type": "public", "operator:wikidata": "Q668687", "ref": "1732200005"}, "type": "Feature"}
{"geometry": {"coordinates": [-77.028463, 40.076428], "type": "Point"}, "id": "u4QYhNYhlgvxnjPoWzV6SWe-CEw=", "properties": {"@source_uri": "https://tools.usps.com/UspsToolsRestServices/rest/POLocator/findLocations", "@spider": "usps_collection_boxes", "addr:city": "FRANKLINTOWN", "addr:country": "US", "addr:postcode": "17323", "addr:state": "PA", "addr:street_address": "2 S BALTIMORE ST", "amenity": "post_box", "collection_times": "Mo-Fr 16:15; Sa 10:45", "note": "ON 12/24 AND 12/31, THIS BOX MAY BE COLLECTED AS EARLY AS 12 NOON.", "nsi_id": "unitedstatespostalservice-a77078", "operator": "United States Postal Service", "operator:short": "USPS", "operator:type": "public", "operator:wikidata": "Q668687", "ref": "1732300002"}, "type": "Feature"}
{"geometry": {"coordinates": [-77.02852, 40.076511], "type": "Point"}, "id": "6c1y3P_jJ-jzkUE9T9NaJKZyrc0=", "properties": {"@source_uri": "https://tools.usps.com/UspsToolsRestServices/rest/POLocator/findLocations", "@spider": "usps_collection_boxes", "addr:city": "FRANKLINTOWN", "addr:country": "US", "addr:postcode": "17323", "addr:state": "PA", "addr:street_address": "2 S BALTIMORE ST", "amenity": "post_box", "collection_times": "Mo-Fr 16:15; Sa 10:45", "indoor": "yes", "note": "ON 12/24 AND 12/31, THIS BOX MAY BE COLLECTED AS EARLY AS 12 NOON.", "nsi_id": "unitedstatespostalservice-a77078", "operator": "United States Postal Service", "operator:short": "USPS", "operator:type": "public", "operator:wikidata": "Q668687", "ref": "1732300003"}, "type": "Feature"}
{"geometry": {"coordinates": [-77.028429691, 40.076351109], "type": "Point"}, "id": "FWzEC4QhHZ3LDer6p9OeRpwJfDA=", "properties": {"@source_uri": "https://tools.usps.com/UspsToolsRestServices/rest/POLocator/findLocations", "@spider": "usps_collection_boxes", "addr:city": "FRANKLINTOWN", "addr:country": "US", "addr:postcode": "17323", "addr:state": "PA", "addr:street_address": "2 S BALTIMORE ST", "amenity": "post_box", "collection_times": "Mo-Fr 16:15; Sa 11:00", "indoor": "yes", "note": "ON 12/24 AND 12/31, THIS BOX MAY BE COLLECTED AS EARLY AS 12 NOON.", "nsi_id": "unitedstatespostalservice-a77078", "operator": "United States Postal Service", "operator:short": "USPS", "operator:type": "public", "operator:wikidata": "Q668687", "ref": "1732300005"}, "type": "Feature"}
{"geometry": {"coordinates": [-77.2317564, 39.830922], "type": "Point"}, "id": "tpXLcJ3XvevJ3hMZgH6U5H2GdBI=", "properties": {"@source_uri": "https://tools.usps.com/UspsToolsRestServices/rest/POLocator/findLocations", "@spider": "usps_collection_boxes", "addr:city": "GETTYSBURG", "addr:country": "US", "addr:postcode": "17325", "addr:state": "PA", "addr:street_address": "CHAMBERSBURG ST", "amenity": "post_box", "collection_times": "Mo-Sa 10:30", "nsi_id": "unitedstatespostalservice-a77078", "operator": "United States Postal Service", "operator:short": "USPS", "operator:type": "public", "operator:wikidata": "Q668687", "ref": "1732500003"}, "type": "Feature"}
{"geometry": {"coordinates": [-77.2364257, 39.829647], "type": "Point"}, "id": "GZFqQr7oJ4Jxt2MwFTC-COhDaaw=", "properties": {"@source_uri": "https://tools.usps.com/UspsToolsRestServices/rest/POLocator/findLocations", "@spider": "usps_collection_boxes", "addr:city": "GETTYSBURG", "addr:country": "US", "addr:postcode": "17325", "addr:state": "PA", "addr:street_address": "260 W MIDDLE ST", "amenity": "post_box", "collection_times": "Mo-Sa 09:00", "nsi_id": "unitedstatespostalservice-a77078", "operator": "United States Postal Service", "operator:short": "USPS", "operator:type": "public", "operator:wikidata": "Q668687", "ref": "1732500006"}, "type": "Feature"}
{"geometry": {"coordinates": [-77.2441223, 39.830549], "type": "Point"}, "id": "RyBfZErhtHK5_LPW5mYIj2BJoTQ=", "properties": {"@source_uri": "https://tools.usps.com/UspsToolsRestServices/rest/POLocator/findLocations", "@spider": "usps_collection_boxes", "addr:city": "GETTYSBURG", "addr:country": "US", "addr:postcode": "17325", "addr:state": "PA", "addr:street_address": "369 SPRINGS AVE", "amenity": "post_box", "collection_times": "Mo-Sa 09:00", "nsi_id": "unitedstatespostalservice-a77078", "operator": "United States Postal Service", "operator:short": "USPS", "operator:type": "public", "operator:wikidata": "Q668687", "ref": "1732500007"}, "type": "Feature"}
{"geometry": {"coordinates": [-77.2243774, 39.840823], "type": "Point"}, "id": "Rzi8q_g8ki7HhZLC1hPKBmb7LuY=", "properties": {"@source_uri": "https://tools.usps.com/UspsToolsRestServices/rest/POLocator/findLocations", "@spider": "usps_collection_boxes", "addr:city": "GETTYSBURG", "addr:country": "US", "addr:postcode": "17325", "addr:state": "PA", "addr:street_address": "705 OLD HARRISBURG RD", "amenity": "post_box", "collection_times": "Mo-Sa 10:00", "nsi_id": "unitedstatespostalservice-a77078", "operator": "United States Postal Service", "operator:short": "USPS", "operator:type": "public", "operator:wikidata": "Q668687", "ref": "1732500009"}, "type": "Feature"}
{"geometry": {"coordinates": [-77.2331746, 39.824188], "type": "Point"}, "id": "GFX4kD50Uc9tj2_nsd3xvtm0Xho=", "properties": {"@source_uri": "https://tools.usps.com/UspsToolsRestServices/rest/POLocator/findLocations", "@spider": "usps_collection_boxes", "addr:city": "GETTYSBURG", "addr:country": "US", "addr:postcode": "17325", "addr:state": "PA", "addr:street_address": "508 S WASHINGTON ST", "amenity": "post_box", "collection_times": "Mo-Sa 09:30", "nsi_id": "unitedstatespostalservice-a77078", "operator": "United States Postal Service", "operator:short": "USPS", "operator:type": "public", "operator:wikidata": "Q668687", "ref": "1732500010"}, "type": "Feature"}
{"geometry": {"coordinates": [-77.2309931, 39.828995], "type": "Point"}, "id": "AWXzXHd_eN_bIGcZAW4Vxgw2Cn8=", "properties": {"@source_uri": "https://tools.usps.com/UspsToolsRestServices/rest/POLocator/findLocations", "@spider": "usps_collection_boxes", "addr:city": "GETTYSBURG", "addr:country": "US", "addr:postcode": "17325", "addr:state": "PA", "addr:street_address": "140 BALTIMORE ST", "amenity": "post_box", "collection_times": "Mo-Sa 11:30", "nsi_id": "unitedstatespostalservice-a77078", "operator": "United States Postal Service", "operator:short": "USPS", "operator:type": "public", "operator:wikidata": "Q668687", "ref": "1732500012"}, "type": "Feature"}
{"geometry": {"coordinates": [-77.2010765, 39.842612], "type": "Point"}, "id": "qmhzAlMa3SqPjzhwwdwcdURDSQ8=", "properties": {"@source_uri": "https://tools.usps.com/UspsToolsRestServices/rest/POLocator/findLocations", "@spider": "usps_collection_boxes", "addr:city": "GETTYSBURG", "addr:country": "US", "addr:postcode": "17325", "addr:state": "PA", "addr:street_address": "1275 YORK RD", "amenity": "post_box", "collection_times": "Mo-Sa 09:30", "nsi_id": "unitedstatespostalservice-a77078", "operator": "United States Postal Service", "operator:short": "USPS", "operator:type": "public", "operator:wikidata": "Q668687", "ref": "1732500020"}, "type": "Feature"}
{"geometry": {"coordinates": [-77.2385112, 39.832078], "type": "Point"}, "id": "2PWtaOx-WkizbrmDBOpgYGNvJ7A=", "properties": {"@source_uri": "https://tools.usps.com/UspsToolsRestServices/rest/POLocator/findLocations", "@spider": "usps_collection_boxes", "addr:city": "GETTYSBURG", "addr:country": "US", "addr:postcode": "17325", "addr:state": "PA", "addr:street_address": "115 BUFORD AVE", "amenity": "post_box", "collection_times": "Mo-Fr 17:00; Sa 16:00", "note": "ON 12/24 AND 12/31, THIS BOX MAY BE COLLECTED AS EARLY AS 12 NOON.", "nsi_id": "unitedstatespostalservice-a77078", "operator": "United States Postal Service", "operator:short": "USPS", "operator:type": "public", "operator:wikidata": "Q668687", "ref": "1732500022"}, "type": "Feature"}
{"geometry": {"coordinates": [-77.2388024, 39.832452], "type": "Point"}, "id": "WCugxBSl5LsRBRf43hOsXWv_WAU=", "properties": {"@source_uri": "https://tools.usps.com/UspsToolsRestServices/rest/POLocator/findLocations", "@spider": "usps_collection_boxes", "addr:city": "GETTYSBURG", "addr:country": "US", "addr:postcode": "17325", "addr:state": "PA", "addr:street_address": "115 BUFORD AVE", "amenity": "post_box", "collection_times": "Mo-Fr 17:00; Sa 16:00", "indoor": "yes", "note": "ON 12/24 AND 12/31, THIS BOX MAY BE COLLECTED AS EARLY AS 12 NOON.", "nsi_id": "unitedstatespostalservice-a77078", "operator": "United States Postal Service", "operator:short": "USPS", "operator:type": "public", "operator:wikidata": "Q668687", "ref": "1732500027"}, "type": "Feature"}
{"geometry": {"coordinates": [-77.2024031, 39.794253], "type": "Point"}, "id": "NOg0TM7GS8WnlTXYoAra17rE4pw=", "properties": {"@source_uri": "https://tools.usps.com/UspsToolsRestServices/rest/POLocator/findLocations", "@spider": "usps_collection_boxes", "addr:city": "GETTYSBURG", "addr:country": "US", "addr:postcode": "17325", "addr:state": "PA", "addr:street_address": "1863 GETTYSBURG VILLAGE DR", "amenity": "post_box", "collection_times": "Mo-Sa 09:00", "nsi_id": "unitedstatespostalservice-a77078", "operator": "United States Postal Service", "operator:short": "USPS", "operator:type": "public", "operator:wikidata": "Q668687", "ref": "1732500028"}, "type": "Feature"}
{"geometry": {"coordinates": [-77.2383376, 39.862707], "type": "Point"}, "id": "SAnuxkvU5_6gsHFPe7YnlFjCe-w=", "properties": {"@source_uri": "https://tools.usps.com/UspsToolsRestServices/rest/POLocator/findLocations", "@spider": "usps_collection_boxes", "addr:city": "GETTYSBURG", "addr:country": "US", "addr:postcode": "17325", "addr:state": "PA", "addr:street_address": "1380 BIGLERVILLE RD", "amenity": "post_box", "collection_times": "Mo-Fr 10:30", "nsi_id": "unitedstatespostalservice-a77078", "operator": "United States Postal Service", "operator:short": "USPS", "operator:type": "public", "operator:wikidata": "Q668687", "ref": "1732500029"}, "type": "Feature"}
{"geometry": {"coordinates": [-77.2224299, 39.83107], "type": "Point"}, "id": "kyFX6Fn7Gg-zPtbgCeEt4_YgQZM=", "properties": {"@source_uri": "https://tools.usps.com/UspsToolsRestServices/rest/POLocator/findLocations", "@spider": "usps_collection_boxes", "addr:city": "GETTYSBURG", "addr:country": "US", "addr:postcode": "17325", "addr:state": "PA", "addr:street_address": "206 HANOVER ST", "amenity": "post_box", "collection_times": "Mo-Fr 09:00", "nsi_id": "unitedstatespostalservice-a77078", "operator": "United States Postal Service", "operator:short": "USPS", "operator:type": "public", "operator:wikidata": "Q668687", "ref": "1732500031"}, "type": "Feature"}
{"geometry": {"coordinates": [-77.2388539, 39.832359], "type": "Point"}, "id": "emz6HeGXA08PNwvuFGchWA7rd6w=", "properties": {"@source_uri": "https://tools.usps.com/UspsToolsRestServices/rest/POLocator/findLocations", "@spider": "usps_collection_boxes", "addr:city": "GETTYSBURG", "addr:country": "US", "addr:postcode": "17325", "addr:state": "PA", "addr:street_address": "115 BUFORD AVE", "amenity": "post_box", "collection_times": "Mo-Fr 17:00; Sa 16:00", "name": "USPS COLLECTION BOX - APC", "note": "ON 12/24 AND 12/31, THIS BOX MAY BE COLLECTED AS EARLY AS 12 NOON.", "nsi_id": "unitedstatespostalservice-a77078", "operator": "United States Postal Service", "operator:short": "USPS", "operator:type": "public", "operator:wikidata": "Q668687", "ref": "1732500032"}, "type": "Feature"}
{"geometry": {"coordinates": [-77.1530619902, 39.943423015], "type": "Point"}, "id": "V3SjkiSrFC73GPJ60JUXRUxlCN0=", "properties": {"@source_uri": "https://tools.usps.com/UspsToolsRestServices/rest/POLocator/findLocations", "@spider": "usps_collection_boxes", "addr:city": "GETTYSBURG", "addr:country": "US", "addr:postcode": "17325", "addr:state": "PA", "addr:street_address": "4820 OLD HARRISBURG RD", "amenity": "post_box", "collection_times": "Mo-Sa 11:00", "nsi_id": "unitedstatespostalservice-a77078", "operator": "United States Postal Service", "operator:short": "USPS", "operator:type": "public", "operator:wikidata": "Q668687", "ref": "1732500033"}, "type": "Feature"}
{"geometry": {"coordinates": [-77.23908237, 39.832084967], "type": "Point"}, "id": "WAdsM20gkrPuSlXLtULPdHiR1yk=", "properties": {"@source_uri": "https://tools.usps.com/UspsToolsRestServices/rest/POLocator/findLocations", "@spider": "usps_collection_boxes", "addr:city": "GETTYSBURG", "addr:country": "US", "addr:postcode": "17325", "addr:state": "PA", "addr:street_address": "115 BUFORD AVE", "amenity": "post_box", "collection_times": "Mo-Fr 16:45; Sa 12:15", "indoor": "yes", "note": "ON 12/24 AND 12/31, THIS BOX MAY BE COLLECTED AS EARLY AS 12 NOON.", "nsi_id": "unitedstatespostalservice-a77078", "operator": "United States Postal Service", "operator:short": "USPS", "operator:type": "public", "operator:wikidata": "Q668687", "ref": "1732500039"}, "type": "Feature"}
{"geometry": {"coordinates": [-76.7333716, 39.786393], "type": "Point"}, "id": "juJ9PIgb_6HLPFpkeczp6SJIKvE=", "properties": {"@source_uri": "https://tools.usps.com/UspsToolsRestServices/rest/POLocator/findLocations", "@spider": "usps_collection_boxes", "addr:city": "GLEN ROCK", "addr:country": "US", "addr:postcode": "17327", "addr:state": "PA", "addr:street_address": "139 MANCHESTER ST", "amenity": "post_box", "collection_times": "Mo-Fr 12:00; Sa 11:00", "nsi_id": "unitedstatespostalservice-a77078", "operator": "United States Postal Service", "operator:short": "USPS", "operator:type": "public", "operator:wikidata": "Q668687", "ref": "1732700006"}, "type": "Feature"}
{"geometry": {"coordinates": [-76.730072, 39.798436], "type": "Point"}, "id": "V83q1-OpQqD2SAmidMyTjSOmXp4=", "properties": {"@source_uri": "https://tools.usps.com/UspsToolsRestServices/rest/POLocator/findLocations", "@spider": "usps_collection_boxes", "addr:city": "GLEN ROCK", "addr:country": "US", "addr:postcode": "17327", "addr:state": "PA", "addr:street_address": "201 CHURCH ST", "amenity": "post_box", "collection_times": "Mo-Fr 16:15; Sa 11:15", "note": "ON 12/24 AND 12/31, THIS BOX MAY BE COLLECTED AS EARLY AS 12 NOON.", "nsi_id": "unitedstatespostalservice-a77078", "operator": "United States Postal Service", "operator:short": "USPS", "operator:type": "public", "operator:wikidata": "Q668687", "ref": "1732700011"}, "type": "Feature"}
{"geometry": {"coordinates": [-76.7023642, 39.829216], "type": "Point"}, "id": "ic8VSjDk4qpKn3TPMGXpKpR7eX4=", "properties": {"@source_uri": "https://tools.usps.com/UspsToolsRestServices/rest/POLocator/findLocations", "@spider": "usps_collection_boxes", "addr:city": "GLEN ROCK", "addr:country": "US", "addr:postcode": "17327", "addr:state": "PA", "addr:street_address": "9990 SUSQUEHANNA TRL S", "amenity": "post_box", "collection_times": "Mo-Sa 09:00", "nsi_id": "unitedstatespostalservice-a77078", "operator": "United States Postal Service", "operator:short": "USPS", "operator:type": "public", "operator:wikidata": "Q668687", "ref": "1732700014"}, "type": "Feature"}
{"geometry": {"coordinates": [-76.73016, 39.798371], "type": "Point"}, "id": "MwZOUtqU0UVNMnyg0w6EWEHX5Sg=", "properties": {"@source_uri": "https://tools.usps.com/UspsToolsRestServices/rest/POLocator/findLocations", "@spider": "usps_collection_boxes", "addr:city": "GLEN ROCK", "addr:country": "US", "addr:postcode": "17327", "addr:state": "PA", "addr:street_address": "201 CHURCH ST", "amenity": "post_box", "collection_times": "Mo-Fr 16:30; Sa 11:15", "indoor": "yes", "note": "ON 12/24 AND 12/31, THIS BOX MAY BE COLLECTED AS EARLY AS 12 NOON.", "nsi_id": "unitedstatespostalservice-a77078", "operator": "United States Postal Service", "operator:short": "USPS", "operator:type": "public", "operator:wikidata": "Q668687", "ref": "1732700015"}, "type": "Feature"}
{"geometry": {"coordinates": [-76.729883953, 39.798688119], "type": "Point"}, "id": "SFnvir4xwvQ5vaKtS9L2UD5VLeo=", "properties": {"@source_uri": "https://tools.usps.com/UspsToolsRestServices/rest/POLocator/findLocations", "@spider": "usps_collection_boxes", "addr:city": "GLEN ROCK", "addr:country": "US", "addr:postcode": "17327", "addr:state": "PA", "addr:street_address": "201 CHURCH ST", "amenity": "post_box", "collection_times": "Mo-Fr 16:35; Sa 11:05", "indoor": "yes", "note": "ON 12/24 AND 12/31, THIS BOX MAY BE COLLECTED AS EARLY AS 12 NOON.", "nsi_id": "unitedstatespostalservice-a77078", "operator": "United States Postal Service", "operator:short": "USPS", "operator:type": "public", "operator:wikidata": "Q668687", "ref": "1732700018"}, "type": "Feature"}
{"geometry": {"coordinates": [-76.815714, 39.758951], "type": "Point"}, "id": "mipIYGSSRF1VKElj4FCg_Ix4eNA=", "properties": {"@source_uri": "https://tools.usps.com/UspsToolsRestServices/rest/POLocator/findLocations", "@spider": "usps_collection_boxes", "addr:city": "GLENVILLE", "addr:country": "US", "addr:postcode": "17329", "addr:state": "PA", "addr:street_address": "8142 BLOOMING GROVE RD", "amenity": "post_box", "collection_times": "Mo-Fr 16:00; Sa 12:00", "note": "ON 12/24 AND 12/31, THIS BOX MAY BE COLLECTED AS EARLY AS 12 NOON.", "nsi_id": "unitedstatespostalservice-a77078", "operator": "United States Postal Service", "operator:short": "USPS", "operator:type": "public", "operator:wikidata": "Q668687", "ref": "1732900001"}, "type": "Feature"}
{"geometry": {"coordinates": [-76.815741, 39.759025], "type": "Point"}, "id": "C1fmUFpwa2U6z9P4PJMe5J5TRMw=", "properties": {"@source_uri": "https://tools.usps.com/UspsToolsRestServices/rest/POLocator/findLocations", "@spider": "usps_collection_boxes", "addr:city": "GLENVILLE", "addr:country": "US", "addr:postcode": "17329", "addr:state": "PA", "addr:street_address": "8142 BLOOMING GROVE RD", "amenity": "post_box", "collection_times": "Mo-Fr 16:00; Sa 12:00", "indoor": "yes", "note": "ON 12/24 AND 12/31, THIS BOX MAY BE COLLECTED AS EARLY AS 12 NOON.", "nsi_id": "unitedstatespostalservice-a77078", "operator": "United States Postal Service", "operator:short": "USPS", "operator:type": "public", "operator:wikidata": "Q668687", "ref": "1732900002"}, "type": "Feature"}
{"geometry": {"coordinates": [-76.81581442, 39.759026564], "type": "Point"}, "id": "uUR8i681VN4XaikyRxB6qCDGoIQ=", "properties": {"@source_uri": "https://tools.usps.com/UspsToolsRestServices/rest/POLocator/findLocations", "@spider": "usps_collection_boxes", "addr:city": "GLENVILLE", "addr:country": "US", "addr:postcode": "17329", "addr:state": "PA", "addr:street_address": "8142 BLOOMING GROVE RD", "amenity": "post_box", "collection_times": "Mo-Fr 16:00; Sa 12:00", "indoor": "yes", "note": "ON 12/24 AND 12/31, THIS BOX MAY BE COLLECTED AS EARLY AS 12 NOON.", "nsi_id": "unitedstatespostalservice-a77078", "operator": "United States Postal Service", "operator:short": "USPS", "operator:type": "public", "operator:wikidata": "Q668687", "ref": "1732900004"}, "type": "Feature"}
{"geometry": {"coordinates": [-76.9664184, 39.801465], "type": "Point"}, "id": "jifhc-xeItqSBbsrSMB-qR3hX3I=", "properties": {"@source_uri": "https://tools.usps.com/UspsToolsRestServices/rest/POLocator/findLocations", "@spider": "usps_collection_boxes", "addr:city": "HANOVER", "addr:country": "US", "addr:postcode": "17331", "addr:state": "PA", "addr:street_address": "101 CENTER ST", "amenity": "post_box", "collection_times": "Mo-Sa 11:45", "nsi_id": "unitedstatespostalservice-a77078", "operator": "United States Postal Service", "operator:short": "USPS", "operator:type": "public", "operator:wikidata": "Q668687", "ref": "1733100006"}, "type": "Feature"}
{"geometry": {"coordinates": [-76.98618, 39.80466], "type": "Point"}, "id": "A_Zroc5Vrww25F9_GC6oU-MqV6M=", "properties": {"@source_uri": "https://tools.usps.com/UspsToolsRestServices/rest/POLocator/findLocations", "@spider": "usps_collection_boxes", "addr:city": "HANOVER", "addr:country": "US", "addr:postcode": "17331", "addr:state": "PA", "addr:street_address": "18 HIGH ST", "amenity": "post_box", "collection_times": "Mo-Fr 17:00; Sa 15:30", "note": "ON 12/24 AND 12/31, THIS BOX MAY BE COLLECTED AS EARLY AS 12 NOON.", "nsi_id": "unitedstatespostalservice-a77078", "operator": "United States Postal Service", "operator:short": "USPS", "operator:type": "public", "operator:wikidata": "Q668687", "ref": "1733100020"}, "type": "Feature"}
{"geometry": {"coordinates": [-76.9872635, 39.79978], "type": "Point"}, "id": "RmIX3qd8p6g7uapPHyF6TJWMGTs=", "properties": {"@source_uri": "https://tools.usps.com/UspsToolsRestServices/rest/POLocator/findLocations", "@spider": "usps_collection_boxes", "addr:city": "HANOVER", "addr:country": "US", "addr:postcode": "17331", "addr:state": "PA", "addr:street_address": "215 W CHESTNUT ST", "amenity": "post_box", "collection_times": "Mo-Sa 17:00", "note": "ON 12/24 AND 12/31, THIS BOX MAY BE COLLECTED AS EARLY AS 12 NOON.", "nsi_id": "unitedstatespostalservice-a77078", "operator": "United States Postal Service", "operator:short": "USPS", "operator:type": "public", "operator:wikidata": "Q668687", "ref": "1733100023"}, "type": "Feature"}
{"geometry": {"coordinates": [-76.9768272, 39.802254], "type": "Point"}, "id": "AmEf0FP45K7SWBX3e3F6CvUimVI=", "properties": {"@source_uri": "https://tools.usps.com/UspsToolsRestServices/rest/POLocator/findLocations", "@spider": "usps_collection_boxes", "addr:city": "HANOVER", "addr:country": "US", "addr:postcode": "17331", "addr:state": "PA", "addr:street_address": "234 BAER AVE", "amenity": "post_box", "collection_times": "Mo-Sa 09:30", "nsi_id": "unitedstatespostalservice-a77078", "operator": "United States Postal Service", "operator:short": "USPS", "operator:type": "public", "operator:wikidata": "Q668687", "ref": "1733100024"}, "type": "Feature"}
{"geometry": {"coordinates": [-76.9840373, 39.799907], "type": "Point"}, "id": "-NVNnNrvO3HvL2e1Nw8x1_iSQO4=", "properties": {"@source_uri": "https://tools.usps.com/UspsToolsRestServices/rest/POLocator/findLocations", "@spider": "usps_collection_boxes", "addr:city": "HANOVER", "addr:country": "US", "addr:postcode": "17331", "addr:state": "PA", "addr:street_address": "44 FREDERICK ST", "amenity": "post_box", "collection_times": "Mo-Sa 11:30", "nsi_id": "unitedstatespostalservice-a77078", "operator": "United States Postal Service", "operator:short": "USPS", "operator:type": "public", "operator:wikidata": "Q668687", "ref": "1733100027"}, "type": "Feature"}
{"geometry": {"coordinates": [-76.9850063, 39.812551], "type": "Point"}, "id": "tMrgecBIgtktvdsY-ECOD9HbSog=", "properties": {"@source_uri": "https://tools.usps.com/UspsToolsRestServices/rest/POLocator/findLocations", "@spider": "usps_collection_boxes", "addr:city": "HANOVER", "addr:country": "US", "addr:postcode": "17331", "addr:state": "PA", "addr:street_address": "228 CHARLES ST", "amenity": "post_box", "collection_times": "Mo-Sa 09:00", "nsi_id": "unitedstatespostalservice-a77078", "operator": "United States Postal Service", "operator:short": "USPS", "operator:type": "public", "operator:wikidata": "Q668687", "ref": "1733100030"}, "type": "Feature"}
{"geometry": {"coordinates": [-76.974472, 39.818375], "type": "Point"}, "id": "c71euVGGl0eLzY9eZm3f-fOEAY4=", "properties": {"@source_uri": "https://tools.usps.com/UspsToolsRestServices/rest/POLocator/findLocations", "@spider": "usps_collection_boxes", "addr:city": "HANOVER", "addr:country": "US", "addr:postcode": "17331", "addr:state": "PA", "addr:street_address": "925 BROADWAY", "amenity": "post_box", "collection_times": "Mo-Sa 09:00", "nsi_id": "unitedstatespostalservice-a77078", "operator": "United States Postal Service", "operator:short": "USPS", "operator:type": "public", "operator:wikidata": "Q668687", "ref": "1733100039"}, "type": "Feature"}
{"geometry": {"coordinates": [-76.9817773, 39.802356], "type": "Point"}, "id": "HbMRrzgtdi3qInwfDoPX1u4zKrU=", "properties": {"@source_uri": "https://tools.usps.com/UspsToolsRestServices/rest/POLocator/findLocations", "@spider": "usps_collection_boxes", "addr:city": "HANOVER", "addr:country": "US", "addr:postcode": "17331", "addr:state": "PA", "addr:street_address": "146 BROADWAY", "amenity": "post_box", "collection_times": "Mo-Sa 08:45", "nsi_id": "unitedstatespostalservice-a77078", "operator": "United States Postal Service", "operator:short": "USPS", "operator:type": "public", "operator:wikidata": "Q668687", "ref": "1733100043"}, "type": "Feature"}
{"geometry": {"coordinates": [-76.9863179, 39.805945], "type": "Point"}, "id": "IJwMrBAI0eTz9bmKt11u06FkfNI=", "properties": {"@source_uri": "https://tools.usps.com/UspsToolsRestServices/rest/POLocator/findLocations", "@spider": "usps_collection_boxes", "addr:city": "HANOVER", "addr:country": "US", "addr:postcode": "17331", "addr:state": "PA", "addr:street_address": "195 STOCK ST", "amenity": "post_box", "collection_times": "Mo-Sa 09:30", "nsi_id": "unitedstatespostalservice-a77078", "operator": "United States Postal Service", "operator:short": "USPS", "operator:type": "public", "operator:wikidata": "Q668687", "ref": "1733100044"}, "type": "Feature"}
{"geometry": {"coordinates": [-76.9806685, 39.800677], "type": "Point"}, "id": "5oqXs6HcpKrz70BVKX9yRVIb0rE=", "properties": {"@source_uri": "https://tools.usps.com/UspsToolsRestServices/rest/POLocator/findLocations", "@spider": "usps_collection_boxes", "addr:city": "HANOVER", "addr:country": "US", "addr:postcode": "17331", "addr:state": "PA", "addr:street_address": "100 YORK ST", "amenity": "post_box", "collection_times": "Mo-Sa 11:30", "nsi_id": "unitedstatespostalservice-a77078", "operator": "United States Postal Service", "operator:short": "USPS", "operator:type": "public", "operator:wikidata": "Q668687", "ref": "1733100045"}, "type": "Feature"}
{"geometry": {"coordinates": [-76.9846808581, 39.8017503827], "type": "Point"}, "id": "BGp0HE92lusNJcGa0V06KkffNQE=", "properties": {"@source_uri": "https://tools.usps.com/UspsToolsRestServices/rest/POLocator/findLocations", "@spider": "usps_collection_boxes", "addr:city": "HANOVER", "addr:country": "US", "addr:postcode": "17331", "addr:state": "PA", "addr:street_address": "104 CARLISLE ST", "amenity": "post_box", "collection_times": "Mo-Sa 13:30", "note": "ON 12/24 AND 12/31, THIS BOX MAY BE COLLECTED AS EARLY AS 12 NOON.", "nsi_id": "unitedstatespostalservice-a77078", "operator": "United States Postal Service", "operator:short": "USPS", "operator:type": "public", "operator:wikidata": "Q668687", "ref": "1733100046"}, "type": "Feature"}
{"geometry": {"coordinates": [-76.9945474, 39.817032], "type": "Point"}, "id": "mSBD-dR9gqZP2XF-OfNyVi3mt6Q=", "properties": {"@source_uri": "https://tools.usps.com/UspsToolsRestServices/rest/POLocator/findLocations", "@spider": "usps_collection_boxes", "addr:city": "HANOVER", "addr:country": "US", "addr:postcode": "17331", "addr:state": "PA", "addr:street_address": "1000 CARLISLE ST", "amenity": "post_box", "collection_times": "Mo-Sa 09:30", "nsi_id": "unitedstatespostalservice-a77078", "operator": "United States Postal Service", "operator:short": "USPS", "operator:type": "public", "operator:wikidata": "Q668687", "ref": "1733100049"}, "type": "Feature"}
{"geometry": {"coordinates": [-76.9987603, 39.821487], "type": "Point"}, "id": "mwYDDAlTOLDoSeZV-eBsfH87Y28=", "properties": {"@source_uri": "https://tools.usps.com/UspsToolsRestServices/rest/POLocator/findLocations", "@spider": "usps_collection_boxes", "addr:city": "HANOVER", "addr:country": "US", "addr:postcode": "17331", "addr:state": "PA", "addr:street_address": "1150 CARLISLE ST", "amenity": "post_box", "collection_times": "Mo-Sa 08:30", "nsi_id": "unitedstatespostalservice-a77078", "operator": "United States Postal Service", "operator:short": "USPS", "operator:type": "public", "operator:wikidata": "Q668687", "ref": "1733100051"}, "type": "Feature"}
{"geometry": {"coordinates": [-76.9828839, 39.809226], "type": "Point"}, "id": "UHbX9tG6qz0532PgpX24koMCenE=", "properties": {"@source_uri": "https://tools.usps.com/UspsToolsRestServices/rest/POLocator/findLocations", "@spider": "usps_collection_boxes", "addr:city": "HANOVER", "addr:country": "US", "addr:postcode": "17331", "addr:state": "PA", "addr:street_address": "300 HIGHLAND AVE", "amenity": "post_box", "collection_times": "Mo-Sa 09:30", "nsi_id": "unitedstatespostalservice-a77078", "operator": "United States Postal Service", "operator:short": "USPS", "operator:type": "public", "operator:wikidata": "Q668687", "ref": "1733100054"}, "type": "Feature"}
{"geometry": {"coordinates": [-76.9923529, 39.812832], "type": "Point"}, "id": "VjDJCG8Y4nc_wa1M_m1dwRarGf0=", "properties": {"@source_uri": "https://tools.usps.com/UspsToolsRestServices/rest/POLocator/findLocations", "@spider": "usps_collection_boxes", "addr:city": "HANOVER", "addr:country": "US", "addr:postcode": "17331", "addr:state": "PA", "addr:street_address": "860 CARLISLE ST", "amenity": "post_box", "collection_times": "Mo-Sa 09:15", "nsi_id": "unitedstatespostalservice-a77078", "operator": "United States Postal Service", "operator:short": "USPS", "operator:type": "public", "operator:wikidata": "Q668687", "ref": "1733100056"}, "type": "Feature"}
{"geometry": {"coordinates": [-76.975592038, 39.82363401], "type": "Point"}, "id": "LfkKqYQhkPjRKobUCTejrrzd844=", "properties": {"@source_uri": "https://tools.usps.com/UspsToolsRestServices/rest/POLocator/findLocations", "@spider": "usps_collection_boxes", "addr:city": "HANOVER", "addr:country": "US", "addr:postcode": "17331", "addr:state": "PA", "addr:street_address": "495 EISENHOWER DR", "amenity": "post_box", "collection_times": "Mo-Sa 09:30", "nsi_id": "unitedstatespostalservice-a77078", "operator": "United States Postal Service", "operator:short": "USPS", "operator:type": "public", "operator:wikidata": "Q668687", "ref": "1733100121"}, "type": "Feature"}
{"geometry": {"coordinates": [-76.9905147, 39.809321], "type": "Point"}, "id": "h_EOo2bjNBkHVCAbP1Tqdbi2tc0=", "properties": {"@source_uri": "https://tools.usps.com/UspsToolsRestServices/rest/POLocator/findLocations", "@spider": "usps_collection_boxes", "addr:city": "HANOVER", "addr:country": "US", "addr:postcode": "17331", "addr:state": "PA", "addr:street_address": "600 CARLISLE ST", "amenity": "post_box", "collection_times": "Mo-Sa 09:30", "nsi_id": "unitedstatespostalservice-a77078", "operator": "United States Postal Service", "operator:short": "USPS", "operator:type": "public", "operator:wikidata": "Q668687", "ref": "1733100125"}, "type": "Feature"}
{"geometry": {"coordinates": [-76.9863474, 39.799689], "type": "Point"}, "id": "9qlsjFZYMN9AkKYtKWRa-7nXCy4=", "properties": {"@source_uri": "https://tools.usps.com/UspsToolsRestServices/rest/POLocator/findLocations", "@spider": "usps_collection_boxes", "addr:city": "HANOVER", "addr:country": "US", "addr:postcode": "17331", "addr:state": "PA", "addr:street_address": "18 HIGH ST", "amenity": "post_box", "collection_times": "Mo-Fr 17:00; Sa 15:30", "indoor": "yes", "note": "ON 12/24 AND 12/31, THIS BOX MAY BE COLLECTED AS EARLY AS 12 NOON.", "nsi_id": "unitedstatespostalservice-a77078", "operator": "United States Postal Service", "operator:short": "USPS", "operator:type": "public", "operator:wikidata": "Q668687", "ref": "1733100128"}, "type": "Feature"}
{"geometry": {"coordinates": [-76.9576986, 39.771813], "type": "Point"}, "id": "0LaS0NpOo_oCajBiOCvw7qdG9-E=", "properties": {"@source_uri": "https://tools.usps.com/UspsToolsRestServices/rest/POLocator/findLocations", "@spider": "usps_collection_boxes", "addr:city": "HANOVER", "addr:country": "US", "addr:postcode": "17331", "addr:state": "PA", "addr:street_address": "1424 BALTIMORE ST", "amenity": "post_box", "collection_times": "Mo-Sa 10:00", "nsi_id": "unitedstatespostalservice-a77078", "operator": "United States Postal Service", "operator:short": "USPS", "operator:type": "public", "operator:wikidata": "Q668687", "ref": "1733100130"}, "type": "Feature"}
{"geometry": {"coordinates": [-76.9891208, 39.806594], "type": "Point"}, "id": "CsLGi9VFaRp9UKqyfXi1My2RpyY=", "properties": {"@source_uri": "https://tools.usps.com/UspsToolsRestServices/rest/POLocator/findLocations", "@spider": "usps_collection_boxes", "addr:city": "HANOVER", "addr:country": "US", "addr:postcode": "17331", "addr:state": "PA", "addr:street_address": "454 CARLISLE ST", "amenity": "post_box", "collection_times": "Mo-Sa 13:30", "note": "ON 12/24 AND 12/31, THIS BOX MAY BE COLLECTED AS EARLY AS 12 NOON.", "nsi_id": "unitedstatespostalservice-a77078", "operator": "United States Postal Service", "operator:short": "USPS", "operator:type": "public", "operator:wikidata": "Q668687", "ref": "1733100131"}, "type": "Feature"}
{"geometry": {"coordinates": [-76.9691549, 39.825485], "type": "Point"}, "id": "8gN1_ASF5SBZ1MdMRHImUr1Jufc=", "properties": {"@source_uri": "https://tools.usps.com/UspsToolsRestServices/rest/POLocator/findLocations", "@spider": "usps_collection_boxes", "addr:city": "HANOVER", "addr:country": "US", "addr:postcode": "17331", "addr:state": "PA", "addr:street_address": "250 FAME AVE", "amenity": "post_box", "collection_times": "Mo-Sa 09:30", "nsi_id": "unitedstatespostalservice-a77078", "operator": "United States Postal Service", "operator:short": "USPS", "operator:type": "public", "operator:wikidata": "Q668687", "ref": "1733100132"}, "type": "Feature"}
{"geometry": {"coordinates": [-76.9863218, 39.799687], "type": "Point"}, "id": "fqnrN-6b3gBtkpt1sN1YKd2stTs=", "properties": {"@source_uri": "https://tools.usps.com/UspsToolsRestServices/rest/POLocator/findLocations", "@spider": "usps_collection_boxes", "addr:city": "HANOVER", "addr:country": "US", "addr:postcode": "17331", "addr:state": "PA", "addr:street_address": "18 HIGH ST", "amenity": "post_box", "collection_times": "Mo-Fr 17:00; Sa 15:00", "name": "USPS COLLECTION BOX - APC", "note": "ON 12/24 AND 12/31, THIS BOX MAY BE COLLECTED AS EARLY AS 12 NOON.", "nsi_id": "unitedstatespostalservice-a77078", "operator": "United States Postal Service", "operator:short": "USPS", "operator:type": "public", "operator:wikidata": "Q668687", "ref": "1733100133"}, "type": "Feature"}
{"geometry": {"coordinates": [-76.9697628, 39.785632], "type": "Point"}, "id": "EUxXT7JfvDWSRo6w5vOg7cbATXc=", "properties": {"@source_uri": "https://tools.usps.com/UspsToolsRestServices/rest/POLocator/findLocations", "@spider": "usps_collection_boxes", "addr:city": "HANOVER", "addr:country": "US", "addr:postcode": "17331", "addr:state": "PA", "addr:street_address": "801 BALTIMORE ST", "amenity": "post_box", "collection_times": "Mo-Fr 09:30", "nsi_id": "unitedstatespostalservice-a77078", "operator": "United States Postal Service", "operator:short": "USPS", "operator:type": "public", "operator:wikidata": "Q668687", "ref": "1733100135"}, "type": "Feature"}
{"geometry": {"coordinates": [-76.98641153, 39.799955233], "type": "Point"}, "id": "tByEp9L8l11AIaTht9dZ1DFlfQ0=", "properties": {"@source_uri": "https://tools.usps.com/UspsToolsRestServices/rest/POLocator/findLocations", "@spider": "usps_collection_boxes", "addr:city": "HANOVER", "addr:country": "US", "addr:postcode": "17331", "addr:state": "PA", "addr:street_address": "18 HIGH ST", "amenity": "post_box", "collection_times": "Mo-Fr 17:15; Sa 14:15", "indoor": "yes", "note": "ON 12/24 AND 12/31, THIS BOX MAY BE COLLECTED AS EARLY AS 12 NOON.", "nsi_id": "unitedstatespostalservice-a77078", "operator": "United States Postal Service", "operator:short": "USPS", "operator:type": "public", "operator:wikidata": "Q668687", "ref": "1733100141"}, "type": "Feature"}
{"geometry": {"coordinates": [-76.858656, 40.137223], "type": "Point"}, "id": "HGCKRMYg8qzxjvdoVXJw2MU9Unk=", "properties": {"@source_uri": "https://tools.usps.com/UspsToolsRestServices/rest/POLocator/findLocations", "@spider": "usps_collection_boxes", "addr:city": "LEWISBERRY", "addr:country": "US", "addr:postcode": "17339", "addr:state": "PA", "addr:street_address": "408 MARKET ST", "amenity": "post_box", "collection_times": "Mo-Fr 16:00; Sa 12:00", "note": "ON 12/24 AND 12/31, THIS BOX MAY BE COLLECTED AS EARLY AS 12 NOON.", "nsi_id": "unitedstatespostalservice-a77078", "operator": "United States Postal Service", "operator:short": "USPS", "operator:type": "public", "operator:wikidata": "Q668687", "ref": "1733900002"}, "type": "Feature"}
{"geometry": {"coordinates": [-76.858673, 40.137144], "type": "Point"}, "id": "doyepqPPfG-Q3eW8umPW93dHO3g=", "properties": {"@source_uri": "https://tools.usps.com/UspsToolsRestServices/rest/POLocator/findLocations", "@spider": "usps_collection_boxes", "addr:city": "LEWISBERRY", "addr:country": "US", "addr:postcode": "17339", "addr:state": "PA", "addr:street_address": "408 MARKET ST", "amenity": "post_box", "collection_times": "Mo-Fr 16:00; Sa 12:00", "indoor": "yes", "note": "ON 12/24 AND 12/31, THIS BOX MAY BE COLLECTED AS EARLY AS 12 NOON.", "nsi_id": "unitedstatespostalservice-a77078", "operator": "United States Postal Service", "operator:short": "USPS", "operator:type": "public", "operator:wikidata": "Q668687", "ref": "1733900005"}, "type": "Feature"}
{"geometry": {"coordinates": [-76.858468776, 40.13750879], "type": "Point"}, "id": "w9xV_-YRKrHvk7pL8hWfSjdLIl8=", "properties": {"@source_uri": "https://tools.usps.com/UspsToolsRestServices/rest/POLocator/findLocations", "@spider": "usps_collection_boxes", "addr:city": "LEWISBERRY", "addr:country": "US", "addr:postcode": "17339", "addr:state": "PA", "addr:street_address": "408 MARKET ST", "amenity": "post_box", "collection_times": "Mo-Fr 16:00; Sa 12:00", "indoor": "yes", "note": "ON 12/24 AND 12/31, THIS BOX MAY BE COLLECTED AS EARLY AS 12 NOON.", "nsi_id": "unitedstatespostalservice-a77078", "operator": "United States Postal Service", "operator:short": "USPS", "operator:type": "public", "operator:wikidata": "Q668687", "ref": "1733900007"}, "type": "Feature"}
{"geometry": {"coordinates": [-77.089, 39.744353], "type": "Point"}, "id": "9pVZ3zyrqoPeVsebrqgAZRP1gWQ=", "properties": {"@source_uri": "https://tools.usps.com/UspsToolsRestServices/rest/POLocator/findLocations", "@spider": "usps_collection_boxes", "addr:city": "LITTLESTOWN", "addr:country": "US", "addr:postcode": "17340", "addr:state": "PA", "addr:street_address": "24 W KING ST", "amenity": "post_box", "collection_times": "Mo-Fr 16:00; Sa 12:00", "note": "ON 12/24 AND 12/31, THIS BOX MAY BE COLLECTED AS EARLY AS 12 NOON.", "nsi_id": "unitedstatespostalservice-a77078", "operator": "United States Postal Service", "operator:short": "USPS", "operator:type": "public", "operator:wikidata": "Q668687", "ref": "1734000004"}, "type": "Feature"}
{"geometry": {"coordinates": [-77.0983534, 39.742255], "type": "Point"}, "id": "3ya3um7JFjRKsqqjEzeiGNohO9o=", "properties": {"@source_uri": "https://tools.usps.com/UspsToolsRestServices/rest/POLocator/findLocations", "@spider": "usps_collection_boxes", "addr:city": "LITTLESTOWN", "addr:country": "US", "addr:postcode": "17340", "addr:state": "PA", "addr:street_address": "520 W KING ST", "amenity": "post_box", "collection_times": "Mo-Sa 10:30", "nsi_id": "unitedstatespostalservice-a77078", "operator": "United States Postal Service", "operator:short": "USPS", "operator:type": "public", "operator:wikidata": "Q668687", "ref": "1734000013"}, "type": "Feature"}
{"geometry": {"coordinates": [-77.0828616, 39.746966], "type": "Point"}, "id": "LdPsbm6r-fgauy_tE2bv5w5MuzM=", "properties": {"@source_uri": "https://tools.usps.com/UspsToolsRestServices/rest/POLocator/findLocations", "@spider": "usps_collection_boxes", "addr:city": "LITTLESTOWN", "addr:country": "US", "addr:postcode": "17340", "addr:state": "PA", "addr:street_address": "223 E KING ST", "amenity": "post_box", "collection_times": "Mo-Sa 09:30", "nsi_id": "unitedstatespostalservice-a77078", "operator": "United States Postal Service", "operator:short": "USPS", "operator:type": "public", "operator:wikidata": "Q668687", "ref": "1734000017"}, "type": "Feature"}
{"geometry": {"coordinates": [-77.0881231, 39.748194], "type": "Point"}, "id": "yqaEkUUu2fayuMr3lQV7ZsCqxRQ=", "properties": {"@source_uri": "https://tools.usps.com/UspsToolsRestServices/rest/POLocator/findLocations", "@spider": "usps_collection_boxes", "addr:city": "LITTLESTOWN", "addr:country": "US", "addr:postcode": "17340", "addr:state": "PA", "addr:street_address": "97 MAPLE AVE", "amenity": "post_box", "collection_times": "Mo-Sa 09:00", "nsi_id": "unitedstatespostalservice-a77078", "operator": "United States Postal Service", "operator:short": "USPS", "operator:type": "public", "operator:wikidata": "Q668687", "ref": "1734000018"}, "type": "Feature"}
{"geometry": {"coordinates": [-77.0895793, 39.7441233], "type": "Point"}, "id": "auuIi-DZGNileY99gtZT6PlDpBU=", "properties": {"@source_uri": "https://tools.usps.com/UspsToolsRestServices/rest/POLocator/findLocations", "@spider": "usps_collection_boxes", "addr:city": "LITTLESTOWN", "addr:country": "US", "addr:postcode": "17340", "addr:state": "PA", "addr:street_address": "24 W KING ST", "amenity": "post_box", "collection_times": "Mo-Fr 16:00; Sa 12:00", "indoor": "yes", "note": "ON 12/24 AND 12/31, THIS BOX MAY BE COLLECTED AS EARLY AS 12 NOON.", "nsi_id": "unitedstatespostalservice-a77078", "operator": "United States Postal Service", "operator:short": "USPS", "operator:type": "public", "operator:wikidata": "Q668687", "ref": "1734000021"}, "type": "Feature"}
{"geometry": {"coordinates": [-77.0895793, 39.7441233], "type": "Point"}, "id": "5pYyssjU7jQiwVCNbhyhInfrM_M=", "properties": {"@source_uri": "https://tools.usps.com/UspsToolsRestServices/rest/POLocator/findLocations", "@spider": "usps_collection_boxes", "addr:city": "LITTLESTOWN", "addr:country": "US", "addr:postcode": "17340", "addr:state": "PA", "addr:street_address": "24 W KING ST", "amenity": "post_box", "collection_times": "Mo-Fr 16:05; Sa 11:35", "indoor": "yes", "note": "ON 12/24 AND 12/31, THIS BOX MAY BE COLLECTED AS EARLY AS 12 NOON.", "nsi_id": "unitedstatespostalservice-a77078", "operator": "United States Postal Service", "operator:short": "USPS", "operator:type": "public", "operator:wikidata": "Q668687", "ref": "1734000023"}, "type": "Feature"}
{"geometry": {"coordinates": [-76.7094650197, 39.8558700131], "type": "Point"}, "id": "9wSqoa-LH7C5-uPdaHM5JraysAg=", "properties": {"@source_uri": "https://tools.usps.com/UspsToolsRestServices/rest/POLocator/findLocations", "@spider": "usps_collection_boxes", "addr:city": "LOGANVILLE", "addr:country": "US", "addr:postcode": "17342", "addr:state": "PA", "addr:street_address": "107 W ORE ST", "amenity": "post_box", "collection_times": "Mo-Fr 16:00; Sa 10:30", "note": "ON 12/24 AND 12/31, THIS BOX MAY BE COLLECTED AS EARLY AS 12 NOON.", "nsi_id": "unitedstatespostalservice-a77078", "operator": "United States Postal Service", "operator:short": "USPS", "operator:type": "public", "operator:wikidata": "Q668687", "ref": "1734200001"}, "type": "Feature"}
{"geometry": {"coordinates": [-76.708925, 39.855775], "type": "Point"}, "id": "Zh0C9QrpPPSHB9iWVqUAeqifpdE=", "properties": {"@source_uri": "https://tools.usps.com/UspsToolsRestServices/rest/POLocator/findLocations", "@spider": "usps_collection_boxes", "addr:city": "LOGANVILLE", "addr:country": "US", "addr:postcode": "17342", "addr:state": "PA", "addr:street_address": "107 W ORE ST", "amenity": "post_box", "collection_times": "Mo-Fr 16:00; Sa 10:30", "indoor": "yes", "note": "ON 12/24 AND 12/31, THIS BOX MAY BE COLLECTED AS EARLY AS 12 NOON.", "nsi_id": "unitedstatespostalservice-a77078", "operator": "United States Postal Service", "operator:short": "USPS", "operator:type": "public", "operator:wikidata": "Q668687", "ref": "1734200002"}, "type": "Feature"}
{"geometry": {"coordinates": [-76.709251859, 39.855693571], "type": "Point"}, "id": "Wq-HAJDqdnIEJS0FyFVXg1QChp4=", "properties": {"@source_uri": "https://tools.usps.com/UspsToolsRestServices/rest/POLocator/findLocations", "@spider": "usps_collection_boxes", "addr:city": "LOGANVILLE", "addr:country": "US", "addr:postcode": "17342", "addr:state": "PA", "addr:street_address": "107 W ORE ST", "amenity": "post_box", "collection_times": "Mo-Fr 16:30; Sa 10:30", "indoor": "yes", "note": "ON 12/24 AND 12/31, THIS BOX MAY BE COLLECTED AS EARLY AS 12 NOON.", "nsi_id": "unitedstatespostalservice-a77078", "operator": "United States Postal Service", "operator:short": "USPS", "operator:type": "public", "operator:wikidata": "Q668687", "ref": "1734200004"}, "type": "Feature"}
{"geometry": {"coordinates": [-77.327711, 39.87093], "type": "Point"}, "id": "NY4CkBSkjbe5OlOOiBWxD56K74Q=", "properties": {"@source_uri": "https://tools.usps.com/UspsToolsRestServices/rest/POLocator/findLocations", "@spider": "usps_collection_boxes", "addr:city": "MCKNIGHTSTOWN", "addr:country": "US", "addr:postcode": "17343", "addr:state": "PA", "addr:street_address": "245 OLD ROUTE 30", "amenity": "post_box", "collection_times": "Mo-Fr 16:15; Sa 12:00", "indoor": "yes", "note": "ON 12/24 AND 12/31, THIS BOX MAY BE COLLECTED AS EARLY AS 12 NOON.", "nsi_id": "unitedstatespostalservice-a77078", "operator": "United States Postal Service", "operator:short": "USPS", "operator:type": "public", "operator:wikidata": "Q668687", "ref": "1734300001"}, "type": "Feature"}
{"geometry": {"coordinates": [-77.327667, 39.87088], "type": "Point"}, "id": "p7vRhgQ3oyvDkgcp4gw-PMDJ8qE=", "properties": {"@source_uri": "https://tools.usps.com/UspsToolsRestServices/rest/POLocator/findLocations", "@spider": "usps_collection_boxes", "addr:city": "MCKNIGHTSTOWN", "addr:country": "US", "addr:postcode": "17343", "addr:state": "PA", "addr:street_address": "245 OLD ROUTE 30", "amenity": "post_box", "collection_times": "Mo-Fr 16:15; Sa 12:00", "note": "ON 12/24 AND 12/31, THIS BOX MAY BE COLLECTED AS EARLY AS 12 NOON.", "nsi_id": "unitedstatespostalservice-a77078", "operator": "United States Postal Service", "operator:short": "USPS", "operator:type": "public", "operator:wikidata": "Q668687", "ref": "1734300003"}, "type": "Feature"}
{"geometry": {"coordinates": [-77.327351571, 39.870776032], "type": "Point"}, "id": "MEAGptRaHWFsw5bwgH5L3wEmks4=", "properties": {"@source_uri": "https://tools.usps.com/UspsToolsRestServices/rest/POLocator/findLocations", "@spider": "usps_collection_boxes", "addr:city": "MCKNIGHTSTOWN", "addr:country": "US", "addr:postcode": "17343", "addr:state": "PA", "addr:street_address": "245 OLD ROUTE 30", "amenity": "post_box", "collection_times": "Mo-Fr 16:15; Sa 12:00", "indoor": "yes", "note": "ON 12/24 AND 12/31, THIS BOX MAY BE COLLECTED AS EARLY AS 12 NOON.", "nsi_id": "unitedstatespostalservice-a77078", "operator": "United States Postal Service", "operator:short": "USPS", "operator:type": "public", "operator:wikidata": "Q668687", "ref": "1734300005"}, "type": "Feature"}
{"geometry": {"coordinates": [-77.0169661, 39.807361], "type": "Point"}, "id": "0bokQFFzcIiiSbW419n4rAXKF74=", "properties": {"@source_uri": "https://tools.usps.com/UspsToolsRestServices/rest/POLocator/findLocations", "@spider": "usps_collection_boxes", "addr:city": "MCSHERRYSTOWN", "addr:country": "US", "addr:postcode": "17344", "addr:state": "PA", "addr:street_address": "430 RIDGE AVE", "amenity": "post_box", "collection_times": "Mo-Sa 09:30", "nsi_id": "unitedstatespostalservice-a77078", "operator": "United States Postal Service", "operator:short": "USPS", "operator:type": "public", "operator:wikidata": "Q668687", "ref": "1734400002"}, "type": "Feature"}
{"geometry": {"coordinates": [-77.019897, 39.803549], "type": "Point"}, "id": "A3hnlRK0j3YlH5qlBfv4t8YEHG8=", "properties": {"@source_uri": "https://tools.usps.com/UspsToolsRestServices/rest/POLocator/findLocations", "@spider": "usps_collection_boxes", "addr:city": "MCSHERRYSTOWN", "addr:country": "US", "addr:postcode": "17344", "addr:state": "PA", "addr:street_address": "328 MAIN ST", "amenity": "post_box", "collection_times": "Mo-Fr 16:15; Sa 11:00", "note": "ON 12/24 AND 12/31, THIS BOX MAY BE COLLECTED AS EARLY AS 12 NOON.", "nsi_id": "unitedstatespostalservice-a77078", "operator": "United States Postal Service", "operator:short": "USPS", "operator:type": "public", "operator:wikidata": "Q668687", "ref": "1734400012"}, "type": "Feature"}
{"geometry": {"coordinates": [-77.019958, 39.803552], "type": "Point"}, "id": "dvYGkHcPN1iXdDYOhgwTv0A3ihw=", "properties": {"@source_uri": "https://tools.usps.com/UspsToolsRestServices/rest/POLocator/findLocations", "@spider": "usps_collection_boxes", "addr:city": "MCSHERRYSTOWN", "addr:country": "US", "addr:postcode": "17344", "addr:state": "PA", "addr:street_address": "328 MAIN ST", "amenity": "post_box", "collection_times": "Mo-Fr 16:15; Sa 11:00", "indoor": "yes", "note": "ON 12/24 AND 12/31, THIS BOX MAY BE COLLECTED AS EARLY AS 12 NOON.", "nsi_id": "unitedstatespostalservice-a77078", "operator": "United States Postal Service", "operator:short": "USPS", "operator:type": "public", "operator:wikidata": "Q668687", "ref": "1734400015"}, "type": "Feature"}
{"geometry": {"coordinates": [-77.019550649, 39.803711187], "type": "Point"}, "id": "FJTAf_AtT25WuaXIaIy9_bktkN8=", "properties": {"@source_uri": "https://tools.usps.com/UspsToolsRestServices/rest/POLocator/findLocations", "@spider": "usps_collection_boxes", "addr:city": "MCSHERRYSTOWN", "addr:country": "US", "addr:postcode": "17344", "addr:state": "PA", "addr:street_address": "328 MAIN ST", "amenity": "post_box", "collection_times": "Mo-Fr 16:30; Sa 11:00", "indoor": "yes", "note": "ON 12/24 AND 12/31, THIS BOX MAY BE COLLECTED AS EARLY AS 12 NOON.", "nsi_id": "unitedstatespostalservice-a77078", "operator": "United States Postal Service", "operator:short": "USPS", "operator:type": "public", "operator:wikidata": "Q668687", "ref": "1734400017"}, "type": "Feature"}
{"geometry": {"coordinates": [-76.721127, 40.063601], "type": "Point"}, "id": "Vffk-jEVbG5kUsSyys2mtffmZUM=", "properties": {"@source_uri": "https://tools.usps.com/UspsToolsRestServices/rest/POLocator/findLocations", "@spider": "usps_collection_boxes", "addr:city": "MANCHESTER", "addr:country": "US", "addr:postcode": "17345", "addr:state": "PA", "addr:street_address": "15 MANCHESTER ST", "amenity": "post_box", "collection_times": "Mo-Fr 16:30; Sa 10:00", "note": "ON 12/24 AND 12/31, THIS BOX MAY BE COLLECTED AS EARLY AS 12 NOON.", "nsi_id": "unitedstatespostalservice-a77078", "operator": "United States Postal Service", "operator:short": "USPS", "operator:type": "public", "operator:wikidata": "Q668687", "ref": "1734500002"}, "type": "Feature"}
{"geometry": {"coordinates": [-76.7260493, 40.042484], "type": "Point"}, "id": "8SAwy0gzi9yLTsKptF8H_LnC5FA=", "properties": {"@source_uri": "https://tools.usps.com/UspsToolsRestServices/rest/POLocator/findLocations", "@spider": "usps_collection_boxes", "addr:city": "MANCHESTER", "addr:country": "US", "addr:postcode": "17345", "addr:state": "PA", "addr:street_address": "205 GLEN DR", "amenity": "post_box", "collection_times": "Mo-Sa 10:30", "nsi_id": "unitedstatespostalservice-a77078", "operator": "United States Postal Service", "operator:short": "USPS", "operator:type": "public", "operator:wikidata": "Q668687", "ref": "1734500003"}, "type": "Feature"}
{"geometry": {"coordinates": [-76.721058, 40.063555], "type": "Point"}, "id": "BjfMX7g2lTHQlN5Puisf9qk6YPw=", "properties": {"@source_uri": "https://tools.usps.com/UspsToolsRestServices/rest/POLocator/findLocations", "@spider": "usps_collection_boxes", "addr:city": "MANCHESTER", "addr:country": "US", "addr:postcode": "17345", "addr:state": "PA", "addr:street_address": "15 MANCHESTER ST", "amenity": "post_box", "collection_times": "Mo-Fr 16:30; Sa 10:00", "indoor": "yes", "note": "ON 12/24 AND 12/31, THIS BOX MAY BE COLLECTED AS EARLY AS 12 NOON.", "nsi_id": "unitedstatespostalservice-a77078", "operator": "United States Postal Service", "operator:short": "USPS", "operator:type": "public", "operator:wikidata": "Q668687", "ref": "1734500009"}, "type": "Feature"}
{"geometry": {"coordinates": [-76.721088382, 40.063622067], "type": "Point"}, "id": "6ekAD8-UemeSTyZXs9eI1StwBBY=", "properties": {"@source_uri": "https://tools.usps.com/UspsToolsRestServices/rest/POLocator/findLocations", "@spider": "usps_collection_boxes", "addr:city": "MANCHESTER", "addr:country": "US", "addr:postcode": "17345", "addr:state": "PA", "addr:street_address": "15 MANCHESTER ST", "amenity": "post_box", "collection_times": "Mo-Fr 16:30; Sa 10:00", "indoor": "yes", "note": "ON 12/24 AND 12/31, THIS BOX MAY BE COLLECTED AS EARLY AS 12 NOON.", "nsi_id": "unitedstatespostalservice-a77078", "operator": "United States Postal Service", "operator:short": "USPS", "operator:type": "public", "operator:wikidata": "Q668687", "ref": "1734500012"}, "type": "Feature"}
{"geometry": {"coordinates": [-76.705314, 40.061878], "type": "Point"}, "id": "ZICwsvMclSYZlgWg6d510e8Degc=", "properties": {"@source_uri": "https://tools.usps.com/UspsToolsRestServices/rest/POLocator/findLocations", "@spider": "usps_collection_boxes", "addr:city": "MOUNT WOLF", "addr:country": "US", "addr:postcode": "17347", "addr:state": "PA", "addr:street_address": "94 S 4TH ST", "amenity": "post_box", "collection_times": "Mo-Fr 16:15; Sa 10:00", "note": "ON 12/24 AND 12/31, THIS BOX MAY BE COLLECTED AS EARLY AS 12 NOON.", "nsi_id": "unitedstatespostalservice-a77078", "operator": "United States Postal Service", "operator:short": "USPS", "operator:type": "public", "operator:wikidata": "Q668687", "ref": "1734700001"}, "type": "Feature"}
{"geometry": {"coordinates": [-76.6881693, 40.05151], "type": "Point"}, "id": "OKmaRa2F091EI8n4xVRaHprUmDI=", "properties": {"@source_uri": "https://tools.usps.com/UspsToolsRestServices/rest/POLocator/findLocations", "@spider": "usps_collection_boxes", "addr:city": "MOUNT WOLF", "addr:country": "US", "addr:postcode": "17347", "addr:state": "PA", "addr:street_address": "4775 N SHERMAN STREET EXT", "amenity": "post_box", "collection_times": "Mo-Sa 09:00", "nsi_id": "unitedstatespostalservice-a77078", "operator": "United States Postal Service", "operator:short": "USPS", "operator:type": "public", "operator:wikidata": "Q668687", "ref": "1734700002"}, "type": "Feature"}
{"geometry": {"coordinates": [-76.705343, 40.061795], "type": "Point"}, "id": "YrEQIdUmGGo8QxPj7tXdHRyczy4=", "properties": {"@source_uri": "https://tools.usps.com/UspsToolsRestServices/rest/POLocator/findLocations", "@spider": "usps_collection_boxes", "addr:city": "MOUNT WOLF", "addr:country": "US", "addr:postcode": "17347", "addr:state": "PA", "addr:street_address": "94 S 4TH ST", "amenity": "post_box", "collection_times": "Mo-Fr 16:15; Sa 10:00", "indoor": "yes", "note": "ON 12/24 AND 12/31, THIS BOX MAY BE COLLECTED AS EARLY AS 12 NOON.", "nsi_id": "unitedstatespostalservice-a77078", "operator": "United States Postal Service", "operator:short": "USPS", "operator:type": "public", "operator:wikidata": "Q668687", "ref": "1734700003"}, "type": "Feature"}
{"geometry": {"coordinates": [-76.705335517, 40.061855492], "type": "Point"}, "id": "M7Yn-MydseQPHnPXarBV5LmnXuY=", "properties": {"@source_uri": "https://tools.usps.com/UspsToolsRestServices/rest/POLocator/findLocations", "@spider": "usps_collection_boxes", "addr:city": "MOUNT WOLF", "addr:country": "US", "addr:postcode": "17347", "addr:state": "PA", "addr:street_address": "94 S 4TH ST", "amenity": "post_box", "collection_times": "Mo-Fr 16:35; Sa 10:05", "indoor": "yes", "note": "ON 12/24 AND 12/31, THIS BOX MAY BE COLLECTED AS EARLY AS 12 NOON.", "nsi_id": "unitedstatespostalservice-a77078", "operator": "United States Postal Service", "operator:short": "USPS", "operator:type": "public", "operator:wikidata": "Q668687", "ref": "1734700005"}, "type": "Feature"}
{"geometry": {"coordinates": [-76.703307, 39.738684], "type": "Point"}, "id": "uNCA_WnyloX71vy8BKVjDG0EC2M=", "properties": {"@source_uri": "https://tools.usps.com/UspsToolsRestServices/rest/POLocator/findLocations", "@spider": "usps_collection_boxes", "addr:city": "NEW FREEDOM", "addr:country": "US", "addr:postcode": "17349", "addr:state": "PA", "addr:street_address": "5 S BROAD ST", "amenity": "post_box", "collection_times": "Mo-Fr 16:30; Sa 11:00", "note": "ON 12/24 AND 12/31, THIS BOX MAY BE COLLECTED AS EARLY AS 12 NOON.", "nsi_id": "unitedstatespostalservice-a77078", "operator": "United States Postal Service", "operator:short": "USPS", "operator:type": "public", "operator:wikidata": "Q668687", "ref": "1734900001"}, "type": "Feature"}
{"geometry": {"coordinates": [-76.703289, 39.738764], "type": "Point"}, "id": "L_xp0JpeC916JRymCTzFxANYnCs=", "properties": {"@source_uri": "https://tools.usps.com/UspsToolsRestServices/rest/POLocator/findLocations", "@spider": "usps_collection_boxes", "addr:city": "NEW FREEDOM", "addr:country": "US", "addr:postcode": "17349", "addr:state": "PA", "addr:street_address": "5 S BROAD ST", "amenity": "post_box", "collection_times": "Mo-Fr 16:30; Sa 11:00", "indoor": "yes", "note": "ON 12/24 AND 12/31, THIS BOX MAY BE COLLECTED AS EARLY AS 12 NOON.", "nsi_id": "unitedstatespostalservice-a77078", "operator": "United States Postal Service", "operator:short": "USPS", "operator:type": "public", "operator:wikidata": "Q668687", "ref": "1734900004"}, "type": "Feature"}
{"geometry": {"coordinates": [-76.703354796, 39.738614878], "type": "Point"}, "id": "xaMzfRoeVqdARUCPdX-1HBUG_KU=", "properties": {"@source_uri": "https://tools.usps.com/UspsToolsRestServices/rest/POLocator/findLocations", "@spider": "usps_collection_boxes", "addr:city": "NEW FREEDOM", "addr:country": "US", "addr:postcode": "17349", "addr:state": "PA", "addr:street_address": "5 S BROAD ST", "amenity": "post_box", "collection_times": "Mo-Fr 16:05; Sa 11:05", "indoor": "yes", "note": "ON 12/24 AND 12/31, THIS BOX MAY BE COLLECTED AS EARLY AS 12 NOON.", "nsi_id": "unitedstatespostalservice-a77078", "operator": "United States Postal Service", "operator:short": "USPS", "operator:type": "public", "operator:wikidata": "Q668687", "ref": "1734900006"}, "type": "Feature"}
{"geometry": {"coordinates": [-77.080857, 39.844473], "type": "Point"}, "id": "wcJ2H4qKuec8T5bQLYKJ9ujzUMU=", "properties": {"@source_uri": "https://tools.usps.com/UspsToolsRestServices/rest/POLocator/findLocations", "@spider": "usps_collection_boxes", "addr:city": "NEW OXFORD", "addr:country": "US", "addr:postcode": "17350", "addr:state": "PA", "addr:street_address": "575 KOHLER SCHOOL RD", "amenity": "post_box", "collection_times": "Mo-Sa 09:00", "nsi_id": "unitedstatespostalservice-a77078", "operator": "United States Postal Service", "operator:short": "USPS", "operator:type": "public", "operator:wikidata": "Q668687", "ref": "1735000001"}, "type": "Feature"}
{"geometry": {"coordinates": [-77.0466497326, 39.8661985846], "type": "Point"}, "id": "bLlSSwvbrD5RyJc576pTLgJuiv8=", "properties": {"@source_uri": "https://tools.usps.com/UspsToolsRestServices/rest/POLocator/findLocations", "@spider": "usps_collection_boxes", "addr:city": "NEW OXFORD", "addr:country": "US", "addr:postcode": "17350", "addr:state": "PA", "addr:street_address": "370 LINCOLN WAY E", "amenity": "post_box", "collection_times": "Mo-Sa 09:45", "nsi_id": "unitedstatespostalservice-a77078", "operator": "United States Postal Service", "operator:short": "USPS", "operator:type": "public", "operator:wikidata": "Q668687", "ref": "1735000008"}, "type": "Feature"}
{"geometry": {"coordinates": [-77.055777, 39.863583], "type": "Point"}, "id": "a67qTBpWJDwz5itQ11Bz34RLGOE=", "properties": {"@source_uri": "https://tools.usps.com/UspsToolsRestServices/rest/POLocator/findLocations", "@spider": "usps_collection_boxes", "addr:city": "NEW OXFORD", "addr:country": "US", "addr:postcode": "17350", "addr:state": "PA", "addr:street_address": "4 CENTER SQ", "amenity": "post_box", "collection_times": "Mo-Fr 17:00; Sa 12:00", "note": "ON 12/24 AND 12/31, THIS BOX MAY BE COLLECTED AS EARLY AS 12 NOON.", "nsi_id": "unitedstatespostalservice-a77078", "operator": "United States Postal Service", "operator:short": "USPS", "operator:type": "public", "operator:wikidata": "Q668687", "ref": "1735000009"}, "type": "Feature"}
{"geometry": {"coordinates": [-77.055777, 39.863583], "type": "Point"}, "id": "fQKaId5wzeVl6YbVzZ-In_TylaI=", "properties": {"@source_uri": "https://tools.usps.com/UspsToolsRestServices/rest/POLocator/findLocations", "@spider": "usps_collection_boxes", "addr:city": "NEW OXFORD", "addr:country": "US", "addr:postcode": "17350", "addr:state": "PA", "addr:street_address": "4 CENTER SQ", "amenity": "post_box", "collection_times": "Mo-Fr 17:00; Sa 12:00", "indoor": "yes", "note": "ON 12/24 AND 12/31, THIS BOX MAY BE COLLECTED AS EARLY AS 12 NOON.", "nsi_id": "unitedstatespostalservice-a77078", "operator": "United States Postal Service", "operator:short": "USPS", "operator:type": "public", "operator:wikidata": "Q668687", "ref": "1735000012"}, "type": "Feature"}
{"geometry": {"coordinates": [-77.055705075, 39.864169601], "type": "Point"}, "id": "sjo70LLje_ffrFcnhLiLjfBfXWw=", "properties": {"@source_uri": "https://tools.usps.com/UspsToolsRestServices/rest/POLocator/findLocations", "@spider": "usps_collection_boxes", "addr:city": "NEW OXFORD", "addr:country": "US", "addr:postcode": "17350", "addr:state": "PA", "addr:street_address": "4 CENTER SQ", "amenity": "post_box", "collection_times": "Mo-Fr 16:45; Sa 12:15", "indoor": "yes", "note": "ON 12/24 AND 12/31, THIS BOX MAY BE COLLECTED AS EARLY AS 12 NOON.", "nsi_id": "unitedstatespostalservice-a77078", "operator": "United States Postal Service", "operator:short": "USPS", "operator:type": "public", "operator:wikidata": "Q668687", "ref": "1735000014"}, "type": "Feature"}
{"geometry": {"coordinates": [-76.506062, 39.733694], "type": "Point"}, "id": "nKEqJksmZwGmf-qNOOSEYiSOyXk=", "properties": {"@source_uri": "https://tools.usps.com/UspsToolsRestServices/rest/POLocator/findLocations", "@spider": "usps_collection_boxes", "addr:city": "NEW PARK", "addr:country": "US", "addr:postcode": "17352", "addr:state": "PA", "addr:street_address": "44 CAREA RD", "amenity": "post_box", "collection_times": "Mo-Fr 12:00; Sa 11:00", "nsi_id": "unitedstatespostalservice-a77078", "operator": "United States Postal Service", "operator:short": "USPS", "operator:type": "public", "operator:wikidata": "Q668687", "ref": "1735200001"}, "type": "Feature"}
{"geometry": {"coordinates": [-76.5061683, 39.733711], "type": "Point"}, "id": "-nxTLv0U4pzHCJxcoktFSqnpWHI=", "properties": {"@source_uri": "https://tools.usps.com/UspsToolsRestServices/rest/POLocator/findLocations", "@spider": "usps_collection_boxes", "addr:city": "NEW PARK", "addr:country": "US", "addr:postcode": "17352", "addr:state": "PA", "addr:street_address": "44 CAREA RD", "amenity": "post_box", "collection_times": "Mo-Fr 12:00; Sa 11:00", "indoor": "yes", "nsi_id": "unitedstatespostalservice-a77078", "operator": "United States Postal Service", "operator:short": "USPS", "operator:type": "public", "operator:wikidata": "Q668687", "ref": "1735200002"}, "type": "Feature"}
{"geometry": {"coordinates": [-76.505944926, 39.733668156], "type": "Point"}, "id": "v9qpxKCmcMx8b-oESbL37ccrthc=", "properties": {"@source_uri": "https://tools.usps.com/UspsToolsRestServices/rest/POLocator/findLocations", "@spider": "usps_collection_boxes", "addr:city": "NEW PARK", "addr:country": "US", "addr:postcode": "17352", "addr:state": "PA", "addr:street_address": "44 CAREA RD", "amenity": "post_box", "collection_times": "Mo-Fr 12:00; Sa 11:00", "indoor": "yes", "nsi_id": "unitedstatespostalservice-a77078", "operator": "United States Postal Service", "operator:short": "USPS", "operator:type": "public", "operator:wikidata": "Q668687", "ref": "1735200004"}, "type": "Feature"}
{"geometry": {"coordinates": [-76.698288, 39.737791], "type": "Point"}, "id": "TTm8Cyo4IUccePfkxdxm0eTpDFQ=", "properties": {"@source_uri": "https://tools.usps.com/UspsToolsRestServices/rest/POLocator/findLocations", "@spider": "usps_collection_boxes", "addr:city": "RAILROAD", "addr:country": "US", "addr:postcode": "17355", "addr:state": "PA", "addr:street_address": "14 E MAIN ST", "amenity": "post_box", "collection_times": "Mo-Fr 16:30; Sa 11:00", "indoor": "yes", "note": "ON 12/24 AND 12/31, THIS BOX MAY BE COLLECTED AS EARLY AS 12 NOON.", "nsi_id": "unitedstatespostalservice-a77078", "operator": "United States Postal Service", "operator:short": "USPS", "operator:type": "public", "operator:wikidata": "Q668687", "ref": "1735500002"}, "type": "Feature"}
{"geometry": {"coordinates": [-76.6987478, 39.7606277], "type": "Point"}, "id": "p_lV-dMpghDmqmPhYvWjZPHQIdw=", "properties": {"@source_uri": "https://tools.usps.com/UspsToolsRestServices/rest/POLocator/findLocations", "@spider": "usps_collection_boxes", "addr:city": "RAILROAD", "addr:country": "US", "addr:postcode": "17355", "addr:state": "PA", "addr:street_address": "14 E MAIN ST OFC", "amenity": "post_box", "collection_times": "Mo-Fr 12:00; Sa 11:00", "indoor": "yes", "nsi_id": "unitedstatespostalservice-a77078", "operator": "United States Postal Service", "operator:short": "USPS", "operator:type": "public", "operator:wikidata": "Q668687", "ref": "1735500004"}, "type": "Feature"}
{"geometry": {"coordinates": [-76.625318, 39.895031], "type": "Point"}, "id": "EEBsshTD2FB-AskANtCQNHdYVxU=", "properties": {"@source_uri": "https://tools.usps.com/UspsToolsRestServices/rest/POLocator/findLocations", "@spider": "usps_collection_boxes", "addr:city": "RED LION", "addr:country": "US", "addr:postcode": "17356", "addr:state": "PA", "addr:street_address": "4 DAIRYLAND SQ", "amenity": "post_box", "collection_times": "Mo-Sa 11:00", "nsi_id": "unitedstatespostalservice-a77078", "operator": "United States Postal Service", "operator:short": "USPS", "operator:type": "public", "operator:wikidata": "Q668687", "ref": "1735600000"}, "type": "Feature"}
{"geometry": {"coordinates": [-76.61011, 39.90031], "type": "Point"}, "id": "d0ThqHvkKnxaUMq2Zj7iHHSZYGU=", "properties": {"@source_uri": "https://tools.usps.com/UspsToolsRestServices/rest/POLocator/findLocations", "@spider": "usps_collection_boxes", "addr:city": "RED LION", "addr:country": "US", "addr:postcode": "17356", "addr:state": "PA", "addr:street_address": "653 LOMBARD RD", "amenity": "post_box", "collection_times": "Mo-Sa 10:00", "nsi_id": "unitedstatespostalservice-a77078", "operator": "United States Postal Service", "operator:short": "USPS", "operator:type": "public", "operator:wikidata": "Q668687", "ref": "1735600001"}, "type": "Feature"}
{"geometry": {"coordinates": [-76.618044, 39.896892], "type": "Point"}, "id": "TvNtpd_3rUzLvKo2oBl50Btupmc=", "properties": {"@source_uri": "https://tools.usps.com/UspsToolsRestServices/rest/POLocator/findLocations", "@spider": "usps_collection_boxes", "addr:city": "RED LION", "addr:country": "US", "addr:postcode": "17356", "addr:state": "PA", "addr:street_address": "801 W BROADWAY", "amenity": "post_box", "collection_times": "Mo-Sa 10:00", "nsi_id": "unitedstatespostalservice-a77078", "operator": "United States Postal Service", "operator:short": "USPS", "operator:type": "public", "operator:wikidata": "Q668687", "ref": "1735600010"}, "type": "Feature"}
{"geometry": {"coordinates": [-76.6079447, 39.899552], "type": "Point"}, "id": "9_Yg9DZM418nSi9A59RFmTQUhSY=", "properties": {"@source_uri": "https://tools.usps.com/UspsToolsRestServices/rest/POLocator/findLocations", "@spider": "usps_collection_boxes", "addr:city": "RED LION", "addr:country": "US", "addr:postcode": "17356", "addr:state": "PA", "addr:street_address": "143 W BROADWAY", "amenity": "post_box", "collection_times": "Mo-Sa 08:30", "nsi_id": "unitedstatespostalservice-a77078", "operator": "United States Postal Service", "operator:short": "USPS", "operator:type": "public", "operator:wikidata": "Q668687", "ref": "1735600013"}, "type": "Feature"}
{"geometry": {"coordinates": [-76.6023599, 39.901284], "type": "Point"}, "id": "yr2AiLCG91vS2EzD2D-uoxdFQVM=", "properties": {"@source_uri": "https://tools.usps.com/UspsToolsRestServices/rest/POLocator/findLocations", "@spider": "usps_collection_boxes", "addr:city": "RED LION", "addr:country": "US", "addr:postcode": "17356", "addr:state": "PA", "addr:street_address": "157 E BROADWAY", "amenity": "post_box", "collection_times": "Mo-Fr 09:30; Sa 09:00", "nsi_id": "unitedstatespostalservice-a77078", "operator": "United States Postal Service", "operator:short": "USPS", "operator:type": "public", "operator:wikidata": "Q668687", "ref": "1735600014"}, "type": "Feature"}
{"geometry": {"coordinates": [-76.5970188, 39.890658], "type": "Point"}, "id": "giBTdj--Rtepb9AKT5SGVBlMZy0=", "properties": {"@source_uri": "https://tools.usps.com/UspsToolsRestServices/rest/POLocator/findLocations", "@spider": "usps_collection_boxes", "addr:city": "RED LION", "addr:country": "US", "addr:postcode": "17356", "addr:state": "PA", "addr:street_address": "737 S MAIN ST", "amenity": "post_box", "collection_times": "Mo-Sa 11:00", "nsi_id": "unitedstatespostalservice-a77078", "operator": "United States Postal Service", "operator:short": "USPS", "operator:type": "public", "operator:wikidata": "Q668687", "ref": "1735600015"}, "type": "Feature"}
{"geometry": {"coordinates": [-76.6055043, 39.901137], "type": "Point"}, "id": "Rbi3q5y1NR8uXjllhcfBLoLLcTU=", "properties": {"@source_uri": "https://tools.usps.com/UspsToolsRestServices/rest/POLocator/findLocations", "@spider": "usps_collection_boxes", "addr:city": "RED LION", "addr:country": "US", "addr:postcode": "17356", "addr:state": "PA", "addr:street_address": "23 E BROADWAY", "amenity": "post_box", "collection_times": "Mo-Sa 09:00", "nsi_id": "unitedstatespostalservice-a77078", "operator": "United States Postal Service", "operator:short": "USPS", "operator:type": "public", "operator:wikidata": "Q668687", "ref": "1735600025"}, "type": "Feature"}
{"geometry": {"coordinates": [-76.615496, 39.90813], "type": "Point"}, "id": "bUhlDE9X54yB_2VcVYkKdhIscWw=", "properties": {"@source_uri": "https://tools.usps.com/UspsToolsRestServices/rest/POLocator/findLocations", "@spider": "usps_collection_boxes", "addr:city": "RED LION", "addr:country": "US", "addr:postcode": "17356", "addr:state": "PA", "addr:street_address": "500 N MAIN ST", "amenity": "post_box", "collection_times": "Mo-Fr 16:30; Sa 12:00", "indoor": "yes", "note": "ON 12/24 AND 12/31, THIS BOX MAY BE COLLECTED AS EARLY AS 12 NOON.", "nsi_id": "unitedstatespostalservice-a77078", "operator": "United States Postal Service", "operator:short": "USPS", "operator:type": "public", "operator:wikidata": "Q668687", "ref": "1735600026"}, "type": "Feature"}
{"geometry": {"coordinates": [-76.615496, 39.90813], "type": "Point"}, "id": "3tyqCrqOHsy0idOoCL92iPkexa4=", "properties": {"@source_uri": "https://tools.usps.com/UspsToolsRestServices/rest/POLocator/findLocations", "@spider": "usps_collection_boxes", "addr:city": "RED LION", "addr:country": "US", "addr:postcode": "17356", "addr:state": "PA", "addr:street_address": "500 N MAIN ST", "amenity": "post_box", "collection_times": "Mo-Sa 09:15", "nsi_id": "unitedstatespostalservice-a77078", "operator": "United States Postal Service", "operator:short": "USPS", "operator:type": "public", "operator:wikidata": "Q668687", "ref": "1735600028"}, "type": "Feature"}
{"geometry": {"coordinates": [-76.615544525, 39.908053907], "type": "Point"}, "id": "X1nXGHDjUlkp_Bql9-mXUebQXec=", "properties": {"@source_uri": "https://tools.usps.com/UspsToolsRestServices/rest/POLocator/findLocations", "@spider": "usps_collection_boxes", "addr:city": "RED LION", "addr:country": "US", "addr:postcode": "17356", "addr:state": "PA", "addr:street_address": "500 N MAIN ST", "amenity": "post_box", "collection_times": "Mo-Fr 16:30; Sa 12:00", "indoor": "yes", "note": "ON 12/24 AND 12/31, THIS BOX MAY BE COLLECTED AS EARLY AS 12 NOON.", "nsi_id": "unitedstatespostalservice-a77078", "operator": "United States Postal Service", "operator:short": "USPS", "operator:type": "public", "operator:wikidata": "Q668687", "ref": "1735600032"}, "type": "Feature"}
{"geometry": {"coordinates": [-77.8387503615, 40.896509984], "type": "Point"}, "id": "-Hd43Auc76Q4-w-LSy9HI95M4iA=", "properties": {"@source_uri": "https://tools.usps.com/UspsToolsRestServices/rest/POLocator/findLocations", "@spider": "usps_collection_boxes", "addr:city": "ROSSVILLE", "addr:country": "US", "addr:postcode": "17358", "addr:state": "PA", "addr:street_address": "7489A CARLISLE RD", "amenity": "post_box", "collection_times": "Mo-Fr 16:15; Sa 11:15", "note": "ON 12/24 AND 12/31, THIS BOX MAY BE COLLECTED AS EARLY AS 12 NOON.", "nsi_id": "unitedstatespostalservice-a77078", "operator": "United States Postal Service", "operator:short": "USPS", "operator:type": "public", "operator:wikidata": "Q668687", "ref": "1735800001"}, "type": "Feature"}
{"geometry": {"coordinates": [-77.8387503615, 40.896509984], "type": "Point"}, "id": "HcFA0h9JpKFiWTzFx63RyiwYDPA=", "properties": {"@source_uri": "https://tools.usps.com/UspsToolsRestServices/rest/POLocator/findLocations", "@spider": "usps_collection_boxes", "addr:city": "ROSSVILLE", "addr:country": "US", "addr:postcode": "17358", "addr:state": "PA", "addr:street_address": "7489A CARLISLE RD", "amenity": "post_box", "collection_times": "Mo-Fr 16:15; Sa 11:30", "indoor": "yes", "note": "ON 12/24 AND 12/31, THIS BOX MAY BE COLLECTED AS EARLY AS 12 NOON.", "nsi_id": "unitedstatespostalservice-a77078", "operator": "United States Postal Service", "operator:short": "USPS", "operator:type": "public", "operator:wikidata": "Q668687", "ref": "1735800003"}, "type": "Feature"}
{"geometry": {"coordinates": [-76.917673895, 40.063468823], "type": "Point"}, "id": "q_CJVysGC8Ll2sbpAGaf3mjiSoY=", "properties": {"@source_uri": "https://tools.usps.com/UspsToolsRestServices/rest/POLocator/findLocations", "@spider": "usps_collection_boxes", "addr:city": "ROSSVILLE", "addr:country": "US", "addr:postcode": "17358", "addr:state": "PA", "addr:street_address": "7489A CARLISLE RD", "amenity": "post_box", "collection_times": "Mo-Fr 16:15; Sa 11:30", "indoor": "yes", "note": "ON 12/24 AND 12/31, THIS BOX MAY BE COLLECTED AS EARLY AS 12 NOON.", "nsi_id": "unitedstatespostalservice-a77078", "operator": "United States Postal Service", "operator:short": "USPS", "operator:type": "public", "operator:wikidata": "Q668687", "ref": "1735800007"}, "type": "Feature"}
{"geometry": {"coordinates": [-76.768073, 39.855998], "type": "Point"}, "id": "OXUVtM9CAM5GvfXpdcG-O5vr-0g=", "properties": {"@source_uri": "https://tools.usps.com/UspsToolsRestServices/rest/POLocator/findLocations", "@spider": "usps_collection_boxes", "addr:city": "SEVEN VALLEYS", "addr:country": "US", "addr:postcode": "17360", "addr:state": "PA", "addr:street_address": "63 CHURCH ST", "amenity": "post_box", "collection_times": "Mo-Fr 16:30; Sa 10:00", "note": "ON 12/24 AND 12/31, THIS BOX MAY BE COLLECTED AS EARLY AS 12 NOON.", "nsi_id": "unitedstatespostalservice-a77078", "operator": "United States Postal Service", "operator:short": "USPS", "operator:type": "public", "operator:wikidata": "Q668687", "ref": "1736000000"}, "type": "Feature"}
{"geometry": {"coordinates": [-76.7682233, 39.85607], "type": "Point"}, "id": "CUkSYjQ48SZzNGGg3uq2BE-vtO8=", "properties": {"@source_uri": "https://tools.usps.com/UspsToolsRestServices/rest/POLocator/findLocations", "@spider": "usps_collection_boxes", "addr:city": "SEVEN VALLEYS", "addr:country": "US", "addr:postcode": "17360", "addr:state": "PA", "addr:street_address": "63 CHURCH ST", "amenity": "post_box", "collection_times": "Mo-Fr 16:30; Sa 10:00", "indoor": "yes", "note": "ON 12/24 AND 12/31, THIS BOX MAY BE COLLECTED AS EARLY AS 12 NOON.", "nsi_id": "unitedstatespostalservice-a77078", "operator": "United States Postal Service", "operator:short": "USPS", "operator:type": "public", "operator:wikidata": "Q668687", "ref": "1736000001"}, "type": "Feature"}
{"geometry": {"coordinates": [-76.768564134, 39.855779601], "type": "Point"}, "id": "1hWRN3MgAJ3UMqfNSO6ph1txXyA=", "properties": {"@source_uri": "https://tools.usps.com/UspsToolsRestServices/rest/POLocator/findLocations", "@spider": "usps_collection_boxes", "addr:city": "SEVEN VALLEYS", "addr:country": "US", "addr:postcode": "17360", "addr:state": "PA", "addr:street_address": "63 CHURCH ST", "amenity": "post_box", "collection_times": "Mo-Fr 16:05; Sa 10:05", "indoor": "yes", "note": "ON 12/24 AND 12/31, THIS BOX MAY BE COLLECTED AS EARLY AS 12 NOON.", "nsi_id": "unitedstatespostalservice-a77078", "operator": "United States Postal Service", "operator:short": "USPS", "operator:type": "public", "operator:wikidata": "Q668687", "ref": "1736000003"}, "type": "Feature"}
{"geometry": {"coordinates": [-76.6761557, 39.753456], "type": "Point"}, "id": "vjsM5_jksUOyvqEa7G3ESDMQx2Y=", "properties": {"@source_uri": "https://tools.usps.com/UspsToolsRestServices/rest/POLocator/findLocations", "@spider": "usps_collection_boxes", "addr:city": "SHREWSBURY", "addr:country": "US", "addr:postcode": "17361", "addr:state": "PA", "addr:street_address": "549 S MAIN ST", "amenity": "post_box", "collection_times": "Mo-Sa 12:00", "nsi_id": "unitedstatespostalservice-a77078", "operator": "United States Postal Service", "operator:short": "USPS", "operator:type": "public", "operator:wikidata": "Q668687", "ref": "1736100005"}, "type": "Feature"}
{"geometry": {"coordinates": [-76.6805593, 39.768782], "type": "Point"}, "id": "JwkecjwknU1LDOJxyWoOyYPK5ao=", "properties": {"@source_uri": "https://tools.usps.com/UspsToolsRestServices/rest/POLocator/findLocations", "@spider": "usps_collection_boxes", "addr:city": "SHREWSBURY", "addr:country": "US", "addr:postcode": "17361", "addr:state": "PA", "addr:street_address": "9 W FORREST AVE", "amenity": "post_box", "collection_times": "Mo-Sa 11:30", "nsi_id": "unitedstatespostalservice-a77078", "operator": "United States Postal Service", "operator:short": "USPS", "operator:type": "public", "operator:wikidata": "Q668687", "ref": "1736100008"}, "type": "Feature"}
{"geometry": {"coordinates": [-76.6728126, 39.7538072], "type": "Point"}, "id": "GXTs8lJ3VWqYvJ2P6GLaSWd3ymg=", "properties": {"@source_uri": "https://tools.usps.com/UspsToolsRestServices/rest/POLocator/findLocations", "@spider": "usps_collection_boxes", "addr:city": "SHREWSBURY", "addr:country": "US", "addr:postcode": "17361", "addr:state": "PA", "addr:street_address": "50 CONSTITUTION AVE", "amenity": "post_box", "collection_times": "Mo-Fr 16:00; Sa 12:00", "note": "ON 12/24 AND 12/31, THIS BOX MAY BE COLLECTED AS EARLY AS 12 NOON.", "nsi_id": "unitedstatespostalservice-a77078", "operator": "United States Postal Service", "operator:short": "USPS", "operator:type": "public", "operator:wikidata": "Q668687", "ref": "1736100010"}, "type": "Feature"}
{"geometry": {"coordinates": [-76.6690447, 39.768747], "type": "Point"}, "id": "8ockNIzyi8geGR-NM8YBU_xvLDE=", "properties": {"@source_uri": "https://tools.usps.com/UspsToolsRestServices/rest/POLocator/findLocations", "@spider": "usps_collection_boxes", "addr:city": "SHREWSBURY", "addr:country": "US", "addr:postcode": "17361", "addr:state": "PA", "addr:street_address": "664 SHREWSBURY COMMONS AVE FRNT", "amenity": "post_box", "collection_times": "Mo-Sa 10:00", "nsi_id": "unitedstatespostalservice-a77078", "operator": "United States Postal Service", "operator:short": "USPS", "operator:type": "public", "operator:wikidata": "Q668687", "ref": "1736100013"}, "type": "Feature"}
{"geometry": {"coordinates": [-76.67938, 39.753424], "type": "Point"}, "id": "-xSlCxMuJFolQOOf-DjjZbJEcaI=", "properties": {"@source_uri": "https://tools.usps.com/UspsToolsRestServices/rest/POLocator/findLocations", "@spider": "usps_collection_boxes", "addr:city": "SHREWSBURY", "addr:country": "US", "addr:postcode": "17361", "addr:state": "PA", "addr:street_address": "50 CONSTITUTION AVE", "amenity": "post_box", "collection_times": "Mo-Fr 16:00; Sa 12:00", "indoor": "yes", "note": "ON 12/24 AND 12/31, THIS BOX MAY BE COLLECTED AS EARLY AS 12 NOON.", "nsi_id": "unitedstatespostalservice-a77078", "operator": "United States Postal Service", "operator:short": "USPS", "operator:type": "public", "operator:wikidata": "Q668687", "ref": "1736100015"}, "type": "Feature"}
{"geometry": {"coordinates": [-76.679689307, 39.753356608], "type": "Point"}, "id": "CzW8easHVtBx6jgdv3SwpcaJW8I=", "properties": {"@source_uri": "https://tools.usps.com/UspsToolsRestServices/rest/POLocator/findLocations", "@spider": "usps_collection_boxes", "addr:city": "SHREWSBURY", "addr:country": "US", "addr:postcode": "17361", "addr:state": "PA", "addr:street_address": "50 CONSTITUTION AVE", "amenity": "post_box", "collection_times": "Mo-Fr 16:05; Sa 12:05", "indoor": "yes", "note": "ON 12/24 AND 12/31, THIS BOX MAY BE COLLECTED AS EARLY AS 12 NOON.", "nsi_id": "unitedstatespostalservice-a77078", "operator": "United States Postal Service", "operator:short": "USPS", "operator:type": "public", "operator:wikidata": "Q668687", "ref": "1736100019"}, "type": "Feature"}
{"geometry": {"coordinates": [-76.8625626, 39.885467], "type": "Point"}, "id": "sAUPE7YadkI-DV1BC8r4s0332GA=", "properties": {"@source_uri": "https://tools.usps.com/UspsToolsRestServices/rest/POLocator/findLocations", "@spider": "usps_collection_boxes", "addr:city": "SPRING GROVE", "addr:country": "US", "addr:postcode": "17362", "addr:state": "PA", "addr:street_address": "450 N MAIN ST", "amenity": "post_box", "collection_times": "Mo-Sa 11:30", "nsi_id": "unitedstatespostalservice-a77078", "operator": "United States Postal Service", "operator:short": "USPS", "operator:type": "public", "operator:wikidata": "Q668687", "ref": "1736200006"}, "type": "Feature"}
{"geometry": {"coordinates": [-76.8666355, 39.876781], "type": "Point"}, "id": "V9-5w-SMHtI8VvMZTvUV-jProWs=", "properties": {"@source_uri": "https://tools.usps.com/UspsToolsRestServices/rest/POLocator/findLocations", "@spider": "usps_collection_boxes", "addr:city": "SPRING GROVE", "addr:country": "US", "addr:postcode": "17362", "addr:state": "PA", "addr:street_address": "55 W JACKSON ST", "amenity": "post_box", "collection_times": "Mo-Fr 16:45; Sa 12:00", "note": "ON 12/24 AND 12/31, THIS BOX MAY BE COLLECTED AS EARLY AS 12 NOON.", "nsi_id": "unitedstatespostalservice-a77078", "operator": "United States Postal Service", "operator:short": "USPS", "operator:type": "public", "operator:wikidata": "Q668687", "ref": "1736200007"}, "type": "Feature"}
{"geometry": {"coordinates": [-76.866372, 39.877746], "type": "Point"}, "id": "nnK-U2iSrX5TnjoOczxSu4Ryq4o=", "properties": {"@source_uri": "https://tools.usps.com/UspsToolsRestServices/rest/POLocator/findLocations", "@spider": "usps_collection_boxes", "addr:city": "SPRING GROVE", "addr:country": "US", "addr:postcode": "17362", "addr:state": "PA", "addr:street_address": "200 N ELM AVE", "amenity": "post_box", "collection_times": "Mo-Fr 16:45; Sa 12:00", "note": "ON 12/24 AND 12/31, THIS BOX MAY BE COLLECTED AS EARLY AS 12 NOON.", "nsi_id": "unitedstatespostalservice-a77078", "operator": "United States Postal Service", "operator:short": "USPS", "operator:type": "public", "operator:wikidata": "Q668687", "ref": "1736200008"}, "type": "Feature"}
{"geometry": {"coordinates": [-76.8630569, 39.881286], "type": "Point"}, "id": "JNglcKmqendGn5GFiwr7WPHwoQY=", "properties": {"@source_uri": "https://tools.usps.com/UspsToolsRestServices/rest/POLocator/findLocations", "@spider": "usps_collection_boxes", "addr:city": "SPRING GROVE", "addr:country": "US", "addr:postcode": "17362", "addr:state": "PA", "addr:street_address": "327 N PINE AVE", "amenity": "post_box", "collection_times": "Mo-Sa 09:30", "nsi_id": "unitedstatespostalservice-a77078", "operator": "United States Postal Service", "operator:short": "USPS", "operator:type": "public", "operator:wikidata": "Q668687", "ref": "1736200010"}, "type": "Feature"}
{"geometry": {"coordinates": [-76.86628, 39.87653], "type": "Point"}, "id": "-W5RLfWkiqws-YtkLP9vwyViocc=", "properties": {"@source_uri": "https://tools.usps.com/UspsToolsRestServices/rest/POLocator/findLocations", "@spider": "usps_collection_boxes", "addr:city": "SPRING GROVE", "addr:country": "US", "addr:postcode": "17362", "addr:state": "PA", "addr:street_address": "55 W JACKSON ST", "amenity": "post_box", "collection_times": "Mo-Fr 16:45; Sa 12:00", "indoor": "yes", "note": "ON 12/24 AND 12/31, THIS BOX MAY BE COLLECTED AS EARLY AS 12 NOON.", "nsi_id": "unitedstatespostalservice-a77078", "operator": "United States Postal Service", "operator:short": "USPS", "operator:type": "public", "operator:wikidata": "Q668687", "ref": "1736200012"}, "type": "Feature"}
{"geometry": {"coordinates": [-76.866929373, 39.876801222], "type": "Point"}, "id": "Lq4FfKv6jd8uxQ_IU3gpWQ3gCe4=", "properties": {"@source_uri": "https://tools.usps.com/UspsToolsRestServices/rest/POLocator/findLocations", "@spider": "usps_collection_boxes", "addr:city": "SPRING GROVE", "addr:country": "US", "addr:postcode": "17362", "addr:state": "PA", "addr:street_address": "55 W JACKSON ST", "amenity": "post_box", "collection_times": "Mo-Fr 16:45; Sa 12:00", "indoor": "yes", "note": "ON 12/24 AND 12/31, THIS BOX MAY BE COLLECTED AS EARLY AS 12 NOON.", "nsi_id": "unitedstatespostalservice-a77078", "operator": "United States Postal Service", "operator:short": "USPS", "operator:type": "public", "operator:wikidata": "Q668687", "ref": "1736200015"}, "type": "Feature"}
{"geometry": {"coordinates": [-76.5916746, 39.755277], "type": "Point"}, "id": "UUqxBsVIDkG5PbboheiuEM4IiTw=", "properties": {"@source_uri": "https://tools.usps.com/UspsToolsRestServices/rest/POLocator/findLocations", "@spider": "usps_collection_boxes", "addr:city": "STEWARTSTOWN", "addr:country": "US", "addr:postcode": "17363", "addr:state": "PA", "addr:street_address": "18 N MAIN ST", "amenity": "post_box", "collection_times": "Mo-Fr 16:00; Sa 11:15", "note": "ON 12/24 AND 12/31, THIS BOX MAY BE COLLECTED AS EARLY AS 12 NOON.", "nsi_id": "unitedstatespostalservice-a77078", "operator": "United States Postal Service", "operator:short": "USPS", "operator:type": "public", "operator:wikidata": "Q668687", "ref": "1736300004"}, "type": "Feature"}
{"geometry": {"coordinates": [-76.5918083, 39.755211], "type": "Point"}, "id": "WXumvGtAw9dnn_6esvSHXPPxnaE=", "properties": {"@source_uri": "https://tools.usps.com/UspsToolsRestServices/rest/POLocator/findLocations", "@spider": "usps_collection_boxes", "addr:city": "STEWARTSTOWN", "addr:country": "US", "addr:postcode": "17363", "addr:state": "PA", "addr:street_address": "18 N MAIN ST", "amenity": "post_box", "collection_times": "Mo-Fr 16:00; Sa 11:15", "indoor": "yes", "note": "ON 12/24 AND 12/31, THIS BOX MAY BE COLLECTED AS EARLY AS 12 NOON.", "nsi_id": "unitedstatespostalservice-a77078", "operator": "United States Postal Service", "operator:short": "USPS", "operator:type": "public", "operator:wikidata": "Q668687", "ref": "1736300007"}, "type": "Feature"}
{"geometry": {"coordinates": [-76.5922973, 39.752146], "type": "Point"}, "id": "oBnV7kSPYleBqRgRhadZ03itMgo=", "properties": {"@source_uri": "https://tools.usps.com/UspsToolsRestServices/rest/POLocator/findLocations", "@spider": "usps_collection_boxes", "addr:city": "STEWARTSTOWN", "addr:country": "US", "addr:postcode": "17363", "addr:state": "PA", "addr:street_address": "18 S MAIN ST", "amenity": "post_box", "collection_times": "Mo-Sa 09:30", "nsi_id": "unitedstatespostalservice-a77078", "operator": "United States Postal Service", "operator:short": "USPS", "operator:type": "public", "operator:wikidata": "Q668687", "ref": "1736300009"}, "type": "Feature"}
{"geometry": {"coordinates": [-76.591678204, 39.755277199], "type": "Point"}, "id": "oCiwI4NfxVZDf8AsK2hP3rfA2vA=", "properties": {"@source_uri": "https://tools.usps.com/UspsToolsRestServices/rest/POLocator/findLocations", "@spider": "usps_collection_boxes", "addr:city": "STEWARTSTOWN", "addr:country": "US", "addr:postcode": "17363", "addr:state": "PA", "addr:street_address": "18 N MAIN ST", "amenity": "post_box", "collection_times": "Mo-Fr 16:05; Sa 11:05", "indoor": "yes", "note": "ON 12/24 AND 12/31, THIS BOX MAY BE COLLECTED AS EARLY AS 12 NOON.", "nsi_id": "unitedstatespostalservice-a77078", "operator": "United States Postal Service", "operator:short": "USPS", "operator:type": "public", "operator:wikidata": "Q668687", "ref": "1736300012"}, "type": "Feature"}
{"geometry": {"coordinates": [-76.8583652, 39.937549], "type": "Point"}, "id": "OjeeOGX3NrGQNOqg633WMReKde4=", "properties": {"@source_uri": "https://tools.usps.com/UspsToolsRestServices/rest/POLocator/findLocations", "@spider": "usps_collection_boxes", "addr:city": "THOMASVILLE", "addr:country": "US", "addr:postcode": "17364", "addr:state": "PA", "addr:street_address": "1 CHESAPEAKE EST", "amenity": "post_box", "collection_times": "Mo-Sa 10:00", "nsi_id": "unitedstatespostalservice-a77078", "operator": "United States Postal Service", "operator:short": "USPS", "operator:type": "public", "operator:wikidata": "Q668687", "ref": "1736400001"}, "type": "Feature"}
{"geometry": {"coordinates": [-76.8526046, 39.92887], "type": "Point"}, "id": "v2DxwauZpYHPxdLKbxQv1EhTSmo=", "properties": {"@source_uri": "https://tools.usps.com/UspsToolsRestServices/rest/POLocator/findLocations", "@spider": "usps_collection_boxes", "addr:city": "THOMASVILLE", "addr:country": "US", "addr:postcode": "17364", "addr:state": "PA", "addr:street_address": "5285 LINCOLN HWY W", "amenity": "post_box", "collection_times": "Mo-Fr 16:30; Sa 10:30", "note": "ON 12/24 AND 12/31, THIS BOX MAY BE COLLECTED AS EARLY AS 12 NOON.", "nsi_id": "unitedstatespostalservice-a77078", "operator": "United States Postal Service", "operator:short": "USPS", "operator:type": "public", "operator:wikidata": "Q668687", "ref": "1736400003"}, "type": "Feature"}
{"geometry": {"coordinates": [-76.8526689, 39.928895], "type": "Point"}, "id": "1JwbRHSPIlTPaFJ-eRCqOk5UGAQ=", "properties": {"@source_uri": "https://tools.usps.com/UspsToolsRestServices/rest/POLocator/findLocations", "@spider": "usps_collection_boxes", "addr:city": "THOMASVILLE", "addr:country": "US", "addr:postcode": "17364", "addr:state": "PA", "addr:street_address": "5285 LINCOLN HWY W", "amenity": "post_box", "collection_times": "Mo-Fr 16:30; Sa 10:30", "indoor": "yes", "note": "ON 12/24 AND 12/31, THIS BOX MAY BE COLLECTED AS EARLY AS 12 NOON.", "nsi_id": "unitedstatespostalservice-a77078", "operator": "United States Postal Service", "operator:short": "USPS", "operator:type": "public", "operator:wikidata": "Q668687", "ref": "1736400004"}, "type": "Feature"}
{"geometry": {"coordinates": [-76.85276187, 39.928697255], "type": "Point"}, "id": "xdXYA-R1CO6Ecs55nBFZGjGBg5k=", "properties": {"@source_uri": "https://tools.usps.com/UspsToolsRestServices/rest/POLocator/findLocations", "@spider": "usps_collection_boxes", "addr:city": "THOMASVILLE", "addr:country": "US", "addr:postcode": "17364", "addr:state": "PA", "addr:street_address": "5285 LINCOLN HWY W", "amenity": "post_box", "collection_times": "Mo-Fr 16:35; Sa 10:35", "indoor": "yes", "note": "ON 12/24 AND 12/31, THIS BOX MAY BE COLLECTED AS EARLY AS 12 NOON.", "nsi_id": "unitedstatespostalservice-a77078", "operator": "United States Postal Service", "operator:short": "USPS", "operator:type": "public", "operator:wikidata": "Q668687", "ref": "1736400006"}, "type": "Feature"}
{"geometry": {"coordinates": [-76.93943, 40.050427], "type": "Point"}, "id": "LNYQN-AAkSUwgGLakfL4tVkjpao=", "properties": {"@source_uri": "https://tools.usps.com/UspsToolsRestServices/rest/POLocator/findLocations", "@spider": "usps_collection_boxes", "addr:city": "WELLSVILLE", "addr:country": "US", "addr:postcode": "17365", "addr:state": "PA", "addr:street_address": "224 MAIN ST", "amenity": "post_box", "collection_times": "Mo-Fr 16:15; Sa 11:00", "note": "ON 12/24 AND 12/31, THIS BOX MAY BE COLLECTED AS EARLY AS 12 NOON.", "nsi_id": "unitedstatespostalservice-a77078", "operator": "United States Postal Service", "operator:short": "USPS", "operator:type": "public", "operator:wikidata": "Q668687", "ref": "1736500002"}, "type": "Feature"}
{"geometry": {"coordinates": [-76.939531, 40.05048], "type": "Point"}, "id": "v1YLg1OU5RsJNtE-XxvWOyTDWQ8=", "properties": {"@source_uri": "https://tools.usps.com/UspsToolsRestServices/rest/POLocator/findLocations", "@spider": "usps_collection_boxes", "addr:city": "WELLSVILLE", "addr:country": "US", "addr:postcode": "17365", "addr:state": "PA", "addr:street_address": "224 MAIN ST", "amenity": "post_box", "collection_times": "Mo-Fr 16:15; Sa 11:00", "indoor": "yes", "note": "ON 12/24 AND 12/31, THIS BOX MAY BE COLLECTED AS EARLY AS 12 NOON.", "nsi_id": "unitedstatespostalservice-a77078", "operator": "United States Postal Service", "operator:short": "USPS", "operator:type": "public", "operator:wikidata": "Q668687", "ref": "1736500003"}, "type": "Feature"}
{"geometry": {"coordinates": [-76.939518556, 40.050447006], "type": "Point"}, "id": "TPF_iASYbiF9A0TIhb22v2ckJLI=", "properties": {"@source_uri": "https://tools.usps.com/UspsToolsRestServices/rest/POLocator/findLocations", "@spider": "usps_collection_boxes", "addr:city": "WELLSVILLE", "addr:country": "US", "addr:postcode": "17365", "addr:state": "PA", "addr:street_address": "224 MAIN ST", "amenity": "post_box", "collection_times": "Mo-Fr 16:30; Sa 11:00", "indoor": "yes", "note": "ON 12/24 AND 12/31, THIS BOX MAY BE COLLECTED AS EARLY AS 12 NOON.", "nsi_id": "unitedstatespostalservice-a77078", "operator": "United States Postal Service", "operator:short": "USPS", "operator:type": "public", "operator:wikidata": "Q668687", "ref": "1736500005"}, "type": "Feature"}
{"geometry": {"coordinates": [-76.589628, 39.91301], "type": "Point"}, "id": "MDOlTyaY5GAG3iCQIedtwW3hmkk=", "properties": {"@source_uri": "https://tools.usps.com/UspsToolsRestServices/rest/POLocator/findLocations", "@spider": "usps_collection_boxes", "addr:city": "WINDSOR", "addr:country": "US", "addr:postcode": "17366", "addr:state": "PA", "addr:street_address": "3 S CAMP ST", "amenity": "post_box", "collection_times": "Mo-Fr 16:30; Sa 11:00", "indoor": "yes", "note": "ON 12/24 AND 12/31, THIS BOX MAY BE COLLECTED AS EARLY AS 12 NOON.", "nsi_id": "unitedstatespostalservice-a77078", "operator": "United States Postal Service", "operator:short": "USPS", "operator:type": "public", "operator:wikidata": "Q668687", "ref": "1736600005"}, "type": "Feature"}
{"geometry": {"coordinates": [-76.589578121, 39.912939535], "type": "Point"}, "id": "V2rWX1PTk3rk7KuX8Bpe5P-KLrg=", "properties": {"@source_uri": "https://tools.usps.com/UspsToolsRestServices/rest/POLocator/findLocations", "@spider": "usps_collection_boxes", "addr:city": "WINDSOR", "addr:country": "US", "addr:postcode": "17366", "addr:state": "PA", "addr:street_address": "3 S CAMP ST", "amenity": "post_box", "collection_times": "Mo-Fr 16:45; Sa 11:15", "indoor": "yes", "note": "ON 12/24 AND 12/31, THIS BOX MAY BE COLLECTED AS EARLY AS 12 NOON.", "nsi_id": "unitedstatespostalservice-a77078", "operator": "United States Postal Service", "operator:short": "USPS", "operator:type": "public", "operator:wikidata": "Q668687", "ref": "1736600007"}, "type": "Feature"}
{"geometry": {"coordinates": [-76.532554, 40.025176], "type": "Point"}, "id": "eUJ_jdhEvqfAMb_kbDBBc80z4JA=", "properties": {"@source_uri": "https://tools.usps.com/UspsToolsRestServices/rest/POLocator/findLocations", "@spider": "usps_collection_boxes", "addr:city": "WRIGHTSVILLE", "addr:country": "US", "addr:postcode": "17368", "addr:state": "PA", "addr:street_address": "307 HELLAM ST", "amenity": "post_box", "collection_times": "Mo-Fr 16:30; Sa 12:00", "note": "ON 12/24 AND 12/31, THIS BOX MAY BE COLLECTED AS EARLY AS 12 NOON.", "nsi_id": "unitedstatespostalservice-a77078", "operator": "United States Postal Service", "operator:short": "USPS", "operator:type": "public", "operator:wikidata": "Q668687", "ref": "1736800012"}, "type": "Feature"}
{"geometry": {"coordinates": [-76.5386679, 40.02397], "type": "Point"}, "id": "2I05-XjXZVHNIqLrppY632N0fBk=", "properties": {"@source_uri": "https://tools.usps.com/UspsToolsRestServices/rest/POLocator/findLocations", "@spider": "usps_collection_boxes", "addr:city": "WRIGHTSVILLE", "addr:country": "US", "addr:postcode": "17368", "addr:state": "PA", "addr:street_address": "700 HELLAM ST", "amenity": "post_box", "collection_times": "Mo-Sa 09:00", "nsi_id": "unitedstatespostalservice-a77078", "operator": "United States Postal Service", "operator:short": "USPS", "operator:type": "public", "operator:wikidata": "Q668687", "ref": "1736800013"}, "type": "Feature"}
{"geometry": {"coordinates": [-76.5356899, 40.024563], "type": "Point"}, "id": "WYUlK_2SkFm3ohZrlJ0Fy7WlXp8=", "properties": {"@source_uri": "https://tools.usps.com/UspsToolsRestServices/rest/POLocator/findLocations", "@spider": "usps_collection_boxes", "addr:city": "WRIGHTSVILLE", "addr:country": "US", "addr:postcode": "17368", "addr:state": "PA", "addr:street_address": "500 HELLAM ST", "amenity": "post_box", "collection_times": "Mo-Sa 09:30", "nsi_id": "unitedstatespostalservice-a77078", "operator": "United States Postal Service", "operator:short": "USPS", "operator:type": "public", "operator:wikidata": "Q668687", "ref": "1736800014"}, "type": "Feature"}
{"geometry": {"coordinates": [-76.532449, 40.025221], "type": "Point"}, "id": "TC_YMCm2Hii6x4WpIDreyfTYw3M=", "properties": {"@source_uri": "https://tools.usps.com/UspsToolsRestServices/rest/POLocator/findLocations", "@spider": "usps_collection_boxes", "addr:city": "WRIGHTSVILLE", "addr:country": "US", "addr:postcode": "17368", "addr:state": "PA", "addr:street_address": "307 HELLAM ST", "amenity": "post_box", "collection_times": "Mo-Fr 16:30; Sa 12:00", "indoor": "yes", "note": "ON 12/24 AND 12/31, THIS BOX MAY BE COLLECTED AS EARLY AS 12 NOON.", "nsi_id": "unitedstatespostalservice-a77078", "operator": "United States Postal Service", "operator:short": "USPS", "operator:type": "public", "operator:wikidata": "Q668687", "ref": "1736800023"}, "type": "Feature"}
{"geometry": {"coordinates": [-76.532673793, 40.025159908], "type": "Point"}, "id": "uPZNyk7pjN4mde-7EUW300AxfBg=", "properties": {"@source_uri": "https://tools.usps.com/UspsToolsRestServices/rest/POLocator/findLocations", "@spider": "usps_collection_boxes", "addr:city": "WRIGHTSVILLE", "addr:country": "US", "addr:postcode": "17368", "addr:state": "PA", "addr:street_address": "307 HELLAM ST", "amenity": "post_box", "collection_times": "Mo-Fr 16:30; Sa 12:00", "indoor": "yes", "note": "ON 12/24 AND 12/31, THIS BOX MAY BE COLLECTED AS EARLY AS 12 NOON.", "nsi_id": "unitedstatespostalservice-a77078", "operator": "United States Postal Service", "operator:short": "USPS", "operator:type": "public", "operator:wikidata": "Q668687", "ref": "1736800025"}, "type": "Feature"}
{"geometry": {"coordinates": [-76.7139833, 40.110518], "type": "Point"}, "id": "41xLmm11jLt74XX033v9KWlpztE=", "properties": {"@source_uri": "https://tools.usps.com/UspsToolsRestServices/rest/POLocator/findLocations", "@spider": "usps_collection_boxes", "addr:city": "YORK HAVEN", "addr:country": "US", "addr:postcode": "17370", "addr:state": "PA", "addr:street_address": "15 PENNSYLVANIA AVE", "amenity": "post_box", "collection_times": "Mo-Fr 16:30; Sa 11:00", "note": "ON 12/24 AND 12/31, THIS BOX MAY BE COLLECTED AS EARLY AS 12 NOON.", "nsi_id": "unitedstatespostalservice-a77078", "operator": "United States Postal Service", "operator:short": "USPS", "operator:type": "public", "operator:wikidata": "Q668687", "ref": "1737000000"}, "type": "Feature"}
{"geometry": {"coordinates": [-76.7140178, 40.110595], "type": "Point"}, "id": "2tcE3t2Y-JsRBat0nkMorV3XvuM=", "properties": {"@source_uri": "https://tools.usps.com/UspsToolsRestServices/rest/POLocator/findLocations", "@spider": "usps_collection_boxes", "addr:city": "YORK HAVEN", "addr:country": "US", "addr:postcode": "17370", "addr:state": "PA", "addr:street_address": "15 PENNSYLVANIA AVE", "amenity": "post_box", "collection_times": "Mo-Fr 16:30; Sa 11:00", "indoor": "yes", "note": "ON 12/24 AND 12/31, THIS BOX MAY BE COLLECTED AS EARLY AS 12 NOON.", "nsi_id": "unitedstatespostalservice-a77078", "operator": "United States Postal Service", "operator:short": "USPS", "operator:type": "public", "operator:wikidata": "Q668687", "ref": "1737000003"}, "type": "Feature"}
{"geometry": {"coordinates": [-76.71395612, 40.110507609], "type": "Point"}, "id": "50UqzEenhh5JPvCaKT0jpLNWzyg=", "properties": {"@source_uri": "https://tools.usps.com/UspsToolsRestServices/rest/POLocator/findLocations", "@spider": "usps_collection_boxes", "addr:city": "YORK HAVEN", "addr:country": "US", "addr:postcode": "17370", "addr:state": "PA", "addr:street_address": "15 PENNSYLVANIA AVE", "amenity": "post_box", "collection_times": "Mo-Fr 15:50; Sa 11:05", "indoor": "yes", "note": "ON 12/24 AND 12/31, THIS BOX MAY BE COLLECTED AS EARLY AS 12 NOON.", "nsi_id": "unitedstatespostalservice-a77078", "operator": "United States Postal Service", "operator:short": "USPS", "operator:type": "public", "operator:wikidata": "Q668687", "ref": "1737000005"}, "type": "Feature"}
{"geometry": {"coordinates": [-76.789563, 39.9036502], "type": "Point"}, "id": "bS87lsDwPKkBXDzg4VsjJsFsCIU=", "properties": {"@source_uri": "https://tools.usps.com/UspsToolsRestServices/rest/POLocator/findLocations", "@spider": "usps_collection_boxes", "addr:city": "YORK NEW SALEM", "addr:country": "US", "addr:postcode": "17371", "addr:state": "PA", "addr:street_address": "115 S MAIN ST", "amenity": "post_box", "collection_times": "Mo-Fr 16:15; Sa 11:15", "note": "ON 12/24 AND 12/31, THIS BOX MAY BE COLLECTED AS EARLY AS 12 NOON.", "nsi_id": "unitedstatespostalservice-a77078", "operator": "United States Postal Service", "operator:short": "USPS", "operator:type": "public", "operator:wikidata": "Q668687", "ref": "1737100002"}, "type": "Feature"}
{"geometry": {"coordinates": [-76.789781, 39.904191], "type": "Point"}, "id": "VUdCx5YCO2IhgJoNlaoaK7t4jX4=", "properties": {"@source_uri": "https://tools.usps.com/UspsToolsRestServices/rest/POLocator/findLocations", "@spider": "usps_collection_boxes", "addr:city": "YORK NEW SALEM", "addr:country": "US", "addr:postcode": "17371", "addr:state": "PA", "addr:street_address": "115 S MAIN ST", "amenity": "post_box", "collection_times": "Mo-Fr 16:15; Sa 10:45", "indoor": "yes", "note": "ON 12/24 AND 12/31, THIS BOX MAY BE COLLECTED AS EARLY AS 12 NOON.", "nsi_id": "unitedstatespostalservice-a77078", "operator": "United States Postal Service", "operator:short": "USPS", "operator:type": "public", "operator:wikidata": "Q668687", "ref": "1737100003"}, "type": "Feature"}
{"geometry": {"coordinates": [-76.789032176, 39.899211966], "type": "Point"}, "id": "OPBdSk9ItsAq3kN7n5B0_0KwPjI=", "properties": {"@source_uri": "https://tools.usps.com/UspsToolsRestServices/rest/POLocator/findLocations", "@spider": "usps_collection_boxes", "addr:city": "YORK NEW SALEM", "addr:country": "US", "addr:postcode": "17371", "addr:state": "PA", "addr:street_address": "115 S MAIN ST", "amenity": "post_box", "collection_times": "Mo-Fr 16:20; Sa 11:00", "indoor": "yes", "note": "ON 12/24 AND 12/31, THIS BOX MAY BE COLLECTED AS EARLY AS 12 NOON.", "nsi_id": "unitedstatespostalservice-a77078", "operator": "United States Postal Service", "operator:short": "USPS", "operator:type": "public", "operator:wikidata": "Q668687", "ref": "1737100005"}, "type": "Feature"}
{"geometry": {"coordinates": [-77.111789, 40.005547], "type": "Point"}, "id": "OmxAPt18lGz0ApgOiHVrnj8NLkE=", "properties": {"@source_uri": "https://tools.usps.com/UspsToolsRestServices/rest/POLocator/findLocations", "@spider": "usps_collection_boxes", "addr:city": "YORK SPRINGS", "addr:country": "US", "addr:postcode": "17372", "addr:state": "PA", "addr:street_address": "203 MAIN ST", "amenity": "post_box", "collection_times": "Mo-Fr 16:15; Sa 12:00", "note": "ON 12/24 AND 12/31, THIS BOX MAY BE COLLECTED AS EARLY AS 12 NOON.", "nsi_id": "unitedstatespostalservice-a77078", "operator": "United States Postal Service", "operator:short": "USPS", "operator:type": "public", "operator:wikidata": "Q668687", "ref": "1737200001"}, "type": "Feature"}
{"geometry": {"coordinates": [-77.1017108, 40.006925], "type": "Point"}, "id": "aWmDJRDwLiZlGNbPM0R_9SeraaE=", "properties": {"@source_uri": "https://tools.usps.com/UspsToolsRestServices/rest/POLocator/findLocations", "@spider": "usps_collection_boxes", "addr:city": "YORK SPRINGS", "addr:country": "US", "addr:postcode": "17372", "addr:state": "PA", "addr:street_address": "250 RIDGE RD", "amenity": "post_box", "collection_times": "Mo-Sa 09:00", "nsi_id": "unitedstatespostalservice-a77078", "operator": "United States Postal Service", "operator:short": "USPS", "operator:type": "public", "operator:wikidata": "Q668687", "ref": "1737200003"}, "type": "Feature"}
{"geometry": {"coordinates": [-77.111789, 40.005547], "type": "Point"}, "id": "0ZUg5fXHWeIezo_TZUKDxJpxVzA=", "properties": {"@source_uri": "https://tools.usps.com/UspsToolsRestServices/rest/POLocator/findLocations", "@spider": "usps_collection_boxes", "addr:city": "YORK SPRINGS", "addr:country": "US", "addr:postcode": "17372", "addr:state": "PA", "addr:street_address": "203 MAIN ST", "amenity": "post_box", "collection_times": "Mo-Fr 16:30; Sa 12:00", "indoor": "yes", "note": "ON 12/24 AND 12/31, THIS BOX MAY BE COLLECTED AS EARLY AS 12 NOON.", "nsi_id": "unitedstatespostalservice-a77078", "operator": "United States Postal Service", "operator:short": "USPS", "operator:type": "public", "operator:wikidata": "Q668687", "ref": "1737200004"}, "type": "Feature"}
{"geometry": {"coordinates": [-77.111792422, 40.005539425], "type": "Point"}, "id": "ymWBwiYzPbAtFNKc-WwI_dUpqHg=", "properties": {"@source_uri": "https://tools.usps.com/UspsToolsRestServices/rest/POLocator/findLocations", "@spider": "usps_collection_boxes", "addr:city": "YORK SPRINGS", "addr:country": "US", "addr:postcode": "17372", "addr:state": "PA", "addr:street_address": "203 MAIN ST", "amenity": "post_box", "collection_times": "Mo-Fr 16:35; Sa 12:05", "indoor": "yes", "note": "ON 12/24 AND 12/31, THIS BOX MAY BE COLLECTED AS EARLY AS 12 NOON.", "nsi_id": "unitedstatespostalservice-a77078", "operator": "United States Postal Service", "operator:short": "USPS", "operator:type": "public", "operator:wikidata": "Q668687", "ref": "1737200006"}, "type": "Feature"}
