{"geometry": {"coordinates": [-76.7267647, 39.962736], "type": "Point"}, "id": "wGw50-RiOdXC9IVXKCHyEA8s2Dc=", "properties": {"@source_uri": "https://tools.usps.com/UspsToolsRestServices/rest/POLocator/findLocations", "@spider": "usps_collection_boxes", "addr:city": "YORK", "addr:country": "US", "addr:postcode": "17401", "addr:state": "PA", "addr:street_address": "21 E MARKET ST", "amenity": "post_box", "collection_times": "Mo-Sa 09:00", "nsi_id": "unitedstatespostalservice-a77078", "operator": "United States Postal Service", "operator:short": "USPS", "operator:type": "public", "operator:wikidata": "Q668687", "ref": "1740100004"}, "type": "Feature"}
{"geometry": {"coordinates": [-76.7254271, 39.962235], "type": "Point"}, "id": "IPmVj2ysh5lZIQCCM_SmzJ_KSyo=", "properties": {"@source_uri": "https://tools.usps.com/UspsToolsRestServices/rest/POLocator/findLocations", "@spider": "usps_collection_boxes", "addr:city": "YORK", "addr:country": "US", "addr:postcode": "17401", "addr:state": "PA", "addr:street_address": "33 S DUKE ST", "amenity": "post_box", "collection_times": "Mo-Fr 09:00", "nsi_id": "unitedstatespostalservice-a77078", "operator": "United States Postal Service", "operator:short": "USPS", "operator:type": "public", "operator:wikidata": "Q668687", "ref": "1740100008"}, "type": "Feature"}
{"geometry": {"coordinates": [-76.725882, 39.963735], "type": "Point"}, "id": "246rVQU6JRjDRcthT0J7cUg73gU=", "properties": {"@source_uri": "https://tools.usps.com/UspsToolsRestServices/rest/POLocator/findLocations", "@spider": "usps_collection_boxes", "addr:city": "YORK", "addr:country": "US", "addr:postcode": "17401", "addr:state": "PA", "addr:street_address": "25 N DUKE ST", "amenity": "post_box", "collection_times": "Mo-Sa 09:00", "nsi_id": "unitedstatespostalservice-a77078", "operator": "United States Postal Service", "operator:short": "USPS", "operator:type": "public", "operator:wikidata": "Q668687", "ref": "1740100009"}, "type": "Feature"}
{"geometry": {"coordinates": [-76.7284226, 39.960555], "type": "Point"}, "id": "n5ZDdU9dOppwnTfn3ZS--HLqA2Q=", "properties": {"@source_uri": "https://tools.usps.com/UspsToolsRestServices/rest/POLocator/findLocations", "@spider": "usps_collection_boxes", "addr:city": "YORK", "addr:country": "US", "addr:postcode": "17401", "addr:state": "PA", "addr:street_address": "50 W KING ST", "amenity": "post_box", "collection_times": "Mo-Sa 09:00", "nsi_id": "unitedstatespostalservice-a77078", "operator": "United States Postal Service", "operator:short": "USPS", "operator:type": "public", "operator:wikidata": "Q668687", "ref": "1740100011"}, "type": "Feature"}
{"geometry": {"coordinates": [-76.7312242, 39.961369], "type": "Point"}, "id": "NJWtNBr5VHmnnoyndP5pRSv-_5w=", "properties": {"@source_uri": "https://tools.usps.com/UspsToolsRestServices/rest/POLocator/findLocations", "@spider": "usps_collection_boxes", "addr:city": "YORK", "addr:country": "US", "addr:postcode": "17401", "addr:state": "PA", "addr:street_address": "160 W MARKET ST", "amenity": "post_box", "collection_times": "Mo-Sa 09:00", "nsi_id": "unitedstatespostalservice-a77078", "operator": "United States Postal Service", "operator:short": "USPS", "operator:type": "public", "operator:wikidata": "Q668687", "ref": "1740100014"}, "type": "Feature"}
{"geometry": {"coordinates": [-76.7267384, 39.962699], "type": "Point"}, "id": "t36HmjXOxMXG-GdXcYW_E0Jcc7k=", "properties": {"@source_uri": "https://tools.usps.com/UspsToolsRestServices/rest/POLocator/findLocations", "@spider": "usps_collection_boxes", "addr:city": "YORK", "addr:country": "US", "addr:postcode": "17401", "addr:state": "PA", "addr:street_address": "28 E MARKET ST", "amenity": "post_box", "collection_times": "Mo-Fr 09:00", "nsi_id": "unitedstatespostalservice-a77078", "operator": "United States Postal Service", "operator:short": "USPS", "operator:type": "public", "operator:wikidata": "Q668687", "ref": "1740100021"}, "type": "Feature"}
{"geometry": {"coordinates": [-76.7286239, 39.965086], "type": "Point"}, "id": "xWJaIkBaSCuRF_a2Vaubw8zY-po=", "properties": {"@source_uri": "https://tools.usps.com/UspsToolsRestServices/rest/POLocator/findLocations", "@spider": "usps_collection_boxes", "addr:city": "YORK", "addr:country": "US", "addr:postcode": "17401", "addr:state": "PA", "addr:street_address": "135 N GEORGE ST", "amenity": "post_box", "collection_times": "Mo-Sa 09:00", "nsi_id": "unitedstatespostalservice-a77078", "operator": "United States Postal Service", "operator:short": "USPS", "operator:type": "public", "operator:wikidata": "Q668687", "ref": "1740100025"}, "type": "Feature"}
{"geometry": {"coordinates": [-76.7255935, 39.963161], "type": "Point"}, "id": "W4szF1AAoWIm3dSUUpdYZRHua6w=", "properties": {"@source_uri": "https://tools.usps.com/UspsToolsRestServices/rest/POLocator/findLocations", "@spider": "usps_collection_boxes", "addr:city": "YORK", "addr:country": "US", "addr:postcode": "17401", "addr:state": "PA", "addr:street_address": "100 E MARKET ST", "amenity": "post_box", "collection_times": "Mo-Fr 09:00", "nsi_id": "unitedstatespostalservice-a77078", "operator": "United States Postal Service", "operator:short": "USPS", "operator:type": "public", "operator:wikidata": "Q668687", "ref": "1740100027"}, "type": "Feature"}
{"geometry": {"coordinates": [-76.7283619255, 39.9635482853], "type": "Point"}, "id": "OSV2ZVg1jZPw7JhwVurWG25ZdDQ=", "properties": {"@source_uri": "https://tools.usps.com/UspsToolsRestServices/rest/POLocator/findLocations", "@spider": "usps_collection_boxes", "addr:city": "YORK", "addr:country": "US", "addr:postcode": "17401", "addr:state": "PA", "addr:street_address": "50 N GEORGE ST", "amenity": "post_box", "collection_times": "Mo-Sa 09:00", "nsi_id": "unitedstatespostalservice-a77078", "operator": "United States Postal Service", "operator:short": "USPS", "operator:type": "public", "operator:wikidata": "Q668687", "ref": "1740100028"}, "type": "Feature"}
{"geometry": {"coordinates": [-76.7283345, 39.962871], "type": "Point"}, "id": "O-HeNkMjZBA3Huki3SRC_Gk9K4s=", "properties": {"@source_uri": "https://tools.usps.com/UspsToolsRestServices/rest/POLocator/findLocations", "@spider": "usps_collection_boxes", "addr:city": "YORK", "addr:country": "US", "addr:postcode": "17401", "addr:state": "PA", "addr:street_address": "1 W MARKET ST", "amenity": "post_box", "collection_times": "Mo-Sa 09:00", "nsi_id": "unitedstatespostalservice-a77078", "operator": "United States Postal Service", "operator:short": "USPS", "operator:type": "public", "operator:wikidata": "Q668687", "ref": "1740100031"}, "type": "Feature"}
{"geometry": {"coordinates": [-76.7433042, 39.957731], "type": "Point"}, "id": "uDB4Jf1jLA21rS9yu1R3W4ArEM4=", "properties": {"@source_uri": "https://tools.usps.com/UspsToolsRestServices/rest/POLocator/findLocations", "@spider": "usps_collection_boxes", "addr:city": "YORK", "addr:country": "US", "addr:postcode": "17401", "addr:state": "PA", "addr:street_address": "601 W MARKET ST", "amenity": "post_box", "collection_times": "Mo-Fr 11:00", "nsi_id": "unitedstatespostalservice-a77078", "operator": "United States Postal Service", "operator:short": "USPS", "operator:type": "public", "operator:wikidata": "Q668687", "ref": "1740100032"}, "type": "Feature"}
{"geometry": {"coordinates": [-76.731313, 39.961354], "type": "Point"}, "id": "fD9f4oF9y8cvWi74eG1ZKKA3k1M=", "properties": {"@source_uri": "https://tools.usps.com/UspsToolsRestServices/rest/POLocator/findLocations", "@spider": "usps_collection_boxes", "addr:city": "YORK", "addr:country": "US", "addr:postcode": "17401", "addr:state": "PA", "addr:street_address": "160 W MARKET ST", "amenity": "post_box", "collection_times": "Mo-Fr 17:00; Sa 13:00", "indoor": "yes", "note": "ON 12/24 AND 12/31, THIS BOX MAY BE COLLECTED AS EARLY AS 12 NOON.", "nsi_id": "unitedstatespostalservice-a77078", "operator": "United States Postal Service", "operator:short": "USPS", "operator:type": "public", "operator:wikidata": "Q668687", "ref": "1740100033"}, "type": "Feature"}
{"geometry": {"coordinates": [-76.731313041, 39.961348316], "type": "Point"}, "id": "0C4Idh7-YoMSRzON5YvdFyfA6BM=", "properties": {"@source_uri": "https://tools.usps.com/UspsToolsRestServices/rest/POLocator/findLocations", "@spider": "usps_collection_boxes", "addr:city": "YORK", "addr:country": "US", "addr:postcode": "17401", "addr:state": "PA", "addr:street_address": "160 W MARKET ST", "amenity": "post_box", "collection_times": "Mo-Fr 17:15; Sa 13:15", "indoor": "yes", "note": "ON 12/24 AND 12/31, THIS BOX MAY BE COLLECTED AS EARLY AS 12 NOON.", "nsi_id": "unitedstatespostalservice-a77078", "operator": "United States Postal Service", "operator:short": "USPS", "operator:type": "public", "operator:wikidata": "Q668687", "ref": "1740100034"}, "type": "Feature"}
{"geometry": {"coordinates": [-76.679447942, 39.956790959], "type": "Point"}, "id": "2GSBn3SE4J1a9Kgk9tC3JQUp6pI=", "properties": {"@source_uri": "https://tools.usps.com/UspsToolsRestServices/rest/POLocator/findLocations", "@spider": "usps_collection_boxes", "addr:city": "YORK", "addr:country": "US", "addr:postcode": "17402", "addr:state": "PA", "addr:street_address": "1246 GREENSPRINGS DR", "amenity": "post_box", "collection_times": "Mo-Sa 09:30", "nsi_id": "unitedstatespostalservice-a77078", "operator": "United States Postal Service", "operator:short": "USPS", "operator:type": "public", "operator:wikidata": "Q668687", "ref": "1740200001"}, "type": "Feature"}
{"geometry": {"coordinates": [-76.678807, 39.973545], "type": "Point"}, "id": "vMfrdhBABddgoHGZJIA2BJMylUA=", "properties": {"@source_uri": "https://tools.usps.com/UspsToolsRestServices/rest/POLocator/findLocations", "@spider": "usps_collection_boxes", "addr:city": "YORK", "addr:country": "US", "addr:postcode": "17402", "addr:state": "PA", "addr:street_address": "2400 E MARKET ST", "amenity": "post_box", "collection_times": "Mo-Sa 09:00", "nsi_id": "unitedstatespostalservice-a77078", "operator": "United States Postal Service", "operator:short": "USPS", "operator:type": "public", "operator:wikidata": "Q668687", "ref": "1740200005"}, "type": "Feature"}
{"geometry": {"coordinates": [-76.6945984, 39.986487], "type": "Point"}, "id": "QeXDKWUk4bhR9D6E4RY2AJlRiyY=", "properties": {"@source_uri": "https://tools.usps.com/UspsToolsRestServices/rest/POLocator/findLocations", "@spider": "usps_collection_boxes", "addr:city": "YORK", "addr:country": "US", "addr:postcode": "17402", "addr:state": "PA", "addr:street_address": "1800 N HILLS RD", "amenity": "post_box", "collection_times": "Mo-Fr 10:00", "nsi_id": "unitedstatespostalservice-a77078", "operator": "United States Postal Service", "operator:short": "USPS", "operator:type": "public", "operator:wikidata": "Q668687", "ref": "1740200009"}, "type": "Feature"}
{"geometry": {"coordinates": [-76.6820761, 39.933664], "type": "Point"}, "id": "69VA3rlyksIK95xLjocCRcvrDDI=", "properties": {"@source_uri": "https://tools.usps.com/UspsToolsRestServices/rest/POLocator/findLocations", "@spider": "usps_collection_boxes", "addr:city": "YORK", "addr:country": "US", "addr:postcode": "17402", "addr:state": "PA", "addr:street_address": "265 PAULINE DR", "amenity": "post_box", "collection_times": "Mo-Sa 09:00", "nsi_id": "unitedstatespostalservice-a77078", "operator": "United States Postal Service", "operator:short": "USPS", "operator:type": "public", "operator:wikidata": "Q668687", "ref": "1740200018"}, "type": "Feature"}
{"geometry": {"coordinates": [-76.6841545, 39.915588], "type": "Point"}, "id": "e_CQsLMZn2H6sviHBEnWWOp-nYs=", "properties": {"@source_uri": "https://tools.usps.com/UspsToolsRestServices/rest/POLocator/findLocations", "@spider": "usps_collection_boxes", "addr:city": "YORK", "addr:country": "US", "addr:postcode": "17402", "addr:state": "PA", "addr:street_address": "2449 S QUEEN ST", "amenity": "post_box", "collection_times": "Mo-Sa 09:00", "nsi_id": "unitedstatespostalservice-a77078", "operator": "United States Postal Service", "operator:short": "USPS", "operator:type": "public", "operator:wikidata": "Q668687", "ref": "1740200019"}, "type": "Feature"}
{"geometry": {"coordinates": [-76.6811829, 39.959779], "type": "Point"}, "id": "ZnuVsi-hkl91l620oGRZDA_QbYI=", "properties": {"@source_uri": "https://tools.usps.com/UspsToolsRestServices/rest/POLocator/findLocations", "@spider": "usps_collection_boxes", "addr:city": "YORK", "addr:country": "US", "addr:postcode": "17402", "addr:state": "PA", "addr:street_address": "1081 HAINES RD", "amenity": "post_box", "collection_times": "Mo-Sa 09:00", "nsi_id": "unitedstatespostalservice-a77078", "operator": "United States Postal Service", "operator:short": "USPS", "operator:type": "public", "operator:wikidata": "Q668687", "ref": "1740200021"}, "type": "Feature"}
{"geometry": {"coordinates": [-76.6760234, 39.970786], "type": "Point"}, "id": "BWJrgaUk-T1cXq2HtHwM2xbtKZE=", "properties": {"@source_uri": "https://tools.usps.com/UspsToolsRestServices/rest/POLocator/findLocations", "@spider": "usps_collection_boxes", "addr:city": "YORK", "addr:country": "US", "addr:postcode": "17402", "addr:state": "PA", "addr:street_address": "2550 KINGSTON RD", "amenity": "post_box", "collection_times": "Mo-Sa 09:00", "nsi_id": "unitedstatespostalservice-a77078", "operator": "United States Postal Service", "operator:short": "USPS", "operator:type": "public", "operator:wikidata": "Q668687", "ref": "1740200023"}, "type": "Feature"}
{"geometry": {"coordinates": [-76.7417814, 40.024076], "type": "Point"}, "id": "VFfamv54nApa6CLHeTQuV_SQA74=", "properties": {"@source_uri": "https://tools.usps.com/UspsToolsRestServices/rest/POLocator/findLocations", "@spider": "usps_collection_boxes", "addr:city": "YORK", "addr:country": "US", "addr:postcode": "17402", "addr:state": "PA", "addr:street_address": "3300 BOARD RD", "amenity": "post_box", "collection_times": "Mo-Sa 10:15", "nsi_id": "unitedstatespostalservice-a77078", "operator": "United States Postal Service", "operator:short": "USPS", "operator:type": "public", "operator:wikidata": "Q668687", "ref": "1740200024"}, "type": "Feature"}
{"geometry": {"coordinates": [-76.683785, 39.97192], "type": "Point"}, "id": "ZX-EuIOqJ2VnHt1y71IIOvEpN54=", "properties": {"@source_uri": "https://tools.usps.com/UspsToolsRestServices/rest/POLocator/findLocations", "@spider": "usps_collection_boxes", "addr:city": "YORK", "addr:country": "US", "addr:postcode": "17402", "addr:state": "PA", "addr:street_address": "2540 EASTERN BLVD", "amenity": "post_box", "collection_times": "Mo-Sa 09:00", "nsi_id": "unitedstatespostalservice-a77078", "operator": "United States Postal Service", "operator:short": "USPS", "operator:type": "public", "operator:wikidata": "Q668687", "ref": "1740200026"}, "type": "Feature"}
{"geometry": {"coordinates": [-76.6559818, 40.01809], "type": "Point"}, "id": "gedcRyX4S3KQePO7Z3VtsoTUzNo=", "properties": {"@source_uri": "https://tools.usps.com/UspsToolsRestServices/rest/POLocator/findLocations", "@spider": "usps_collection_boxes", "addr:city": "YORK", "addr:country": "US", "addr:postcode": "17402", "addr:state": "PA", "addr:street_address": "4070 DRUCK VALLEY RD", "amenity": "post_box", "collection_times": "Mo-Sa 11:00", "nsi_id": "unitedstatespostalservice-a77078", "operator": "United States Postal Service", "operator:short": "USPS", "operator:type": "public", "operator:wikidata": "Q668687", "ref": "1740200052"}, "type": "Feature"}
{"geometry": {"coordinates": [-76.6781579, 39.971827], "type": "Point"}, "id": "tntFfAXDZ6nJjxQSKwK_jxFRDLg=", "properties": {"@source_uri": "https://tools.usps.com/UspsToolsRestServices/rest/POLocator/findLocations", "@spider": "usps_collection_boxes", "addr:city": "YORK", "addr:country": "US", "addr:postcode": "17402", "addr:state": "PA", "addr:street_address": "2430 EASTERN BLVD", "amenity": "post_box", "collection_times": "Mo-Sa 09:00", "nsi_id": "unitedstatespostalservice-a77078", "operator": "United States Postal Service", "operator:short": "USPS", "operator:type": "public", "operator:wikidata": "Q668687", "ref": "1740200055"}, "type": "Feature"}
{"geometry": {"coordinates": [-76.6782207, 39.974945], "type": "Point"}, "id": "5DBOegdaQsIG93PglcvGx42bex8=", "properties": {"@source_uri": "https://tools.usps.com/UspsToolsRestServices/rest/POLocator/findLocations", "@spider": "usps_collection_boxes", "addr:city": "YORK", "addr:country": "US", "addr:postcode": "17402", "addr:state": "PA", "addr:street_address": "2415 E MARKET ST", "amenity": "post_box", "collection_times": "Mo-Sa 09:00", "nsi_id": "unitedstatespostalservice-a77078", "operator": "United States Postal Service", "operator:short": "USPS", "operator:type": "public", "operator:wikidata": "Q668687", "ref": "1740200062"}, "type": "Feature"}
{"geometry": {"coordinates": [-76.659581, 39.989649], "type": "Point"}, "id": "i3pPhGl839g1Bernbn0wUJ2sSSk=", "properties": {"@source_uri": "https://tools.usps.com/UspsToolsRestServices/rest/POLocator/findLocations", "@spider": "usps_collection_boxes", "addr:city": "YORK", "addr:country": "US", "addr:postcode": "17402", "addr:state": "PA", "addr:street_address": "3435 CONCORD RD", "amenity": "post_box", "collection_times": "Mo-Fr 17:00; Sa 14:00", "name": "USPS COLLECTION BOX - APC", "note": "ON 12/24 AND 12/31, THIS BOX MAY BE COLLECTED AS EARLY AS 12 NOON.", "nsi_id": "unitedstatespostalservice-a77078", "operator": "United States Postal Service", "operator:short": "USPS", "operator:type": "public", "operator:wikidata": "Q668687", "ref": "1740200064"}, "type": "Feature"}
{"geometry": {"coordinates": [-76.659581, 39.989649], "type": "Point"}, "id": "rb_BwOLD3U7tMkkGP7FXbNSgzI4=", "properties": {"@source_uri": "https://tools.usps.com/UspsToolsRestServices/rest/POLocator/findLocations", "@spider": "usps_collection_boxes", "addr:city": "YORK", "addr:country": "US", "addr:postcode": "17402", "addr:state": "PA", "addr:street_address": "3435 CONCORD RD", "amenity": "post_box", "collection_times": "Mo-Fr 17:00; Sa 14:00", "indoor": "yes", "note": "ON 12/24 AND 12/31, THIS BOX MAY BE COLLECTED AS EARLY AS 12 NOON.", "nsi_id": "unitedstatespostalservice-a77078", "operator": "United States Postal Service", "operator:short": "USPS", "operator:type": "public", "operator:wikidata": "Q668687", "ref": "1740200066"}, "type": "Feature"}
{"geometry": {"coordinates": [-76.659888182, 39.98851327], "type": "Point"}, "id": "wdKQvUJ0pMNku631q5IbBH4akNk=", "properties": {"@source_uri": "https://tools.usps.com/UspsToolsRestServices/rest/POLocator/findLocations", "@spider": "usps_collection_boxes", "addr:city": "YORK", "addr:country": "US", "addr:postcode": "17402", "addr:state": "PA", "addr:street_address": "3435 CONCORD RD OFC", "amenity": "post_box", "collection_times": "Mo-Fr 17:00; Sa 14:00", "indoor": "yes", "note": "ON 12/24 AND 12/31, THIS BOX MAY BE COLLECTED AS EARLY AS 12 NOON.", "nsi_id": "unitedstatespostalservice-a77078", "operator": "United States Postal Service", "operator:short": "USPS", "operator:type": "public", "operator:wikidata": "Q668687", "ref": "1740200076"}, "type": "Feature"}
{"geometry": {"coordinates": [-76.6635169, 39.9650348], "type": "Point"}, "id": "DEDpBeP-B51AU0upm4OuVIb9j5U=", "properties": {"@source_uri": "https://tools.usps.com/UspsToolsRestServices/rest/POLocator/findLocations", "@spider": "usps_collection_boxes", "addr:city": "YORK", "addr:country": "US", "addr:postcode": "17402", "addr:state": "PA", "addr:street_address": "3435 CONCORD RD", "amenity": "post_box", "collection_times": "Mo-Fr 17:30; Sa 13:30", "note": "ON 12/24 AND 12/31, THIS BOX MAY BE COLLECTED AS EARLY AS 12 NOON.", "nsi_id": "unitedstatespostalservice-a77078", "operator": "United States Postal Service", "operator:short": "USPS", "operator:type": "public", "operator:wikidata": "Q668687", "ref": "1740200080"}, "type": "Feature"}
{"geometry": {"coordinates": [-76.7240226, 39.962019], "type": "Point"}, "id": "P1DE1FZ3MuwdKnyUqKjLeNenZmI=", "properties": {"@source_uri": "https://tools.usps.com/UspsToolsRestServices/rest/POLocator/findLocations", "@spider": "usps_collection_boxes", "addr:city": "YORK", "addr:country": "US", "addr:postcode": "17403", "addr:state": "PA", "addr:street_address": "131 E KING ST", "amenity": "post_box", "collection_times": "Mo-Sa 09:00", "nsi_id": "unitedstatespostalservice-a77078", "operator": "United States Postal Service", "operator:short": "USPS", "operator:type": "public", "operator:wikidata": "Q668687", "ref": "1740300000"}, "type": "Feature"}
{"geometry": {"coordinates": [-76.721768983, 39.964519008], "type": "Point"}, "id": "glUjnN_8O4A6HzHR_pNpBsaazN0=", "properties": {"@source_uri": "https://tools.usps.com/UspsToolsRestServices/rest/POLocator/findLocations", "@spider": "usps_collection_boxes", "addr:city": "YORK", "addr:country": "US", "addr:postcode": "17403", "addr:state": "PA", "addr:street_address": "301 E MARKET ST", "amenity": "post_box", "collection_times": "Mo-Fr 09:00", "nsi_id": "unitedstatespostalservice-a77078", "operator": "United States Postal Service", "operator:short": "USPS", "operator:type": "public", "operator:wikidata": "Q668687", "ref": "1740300012"}, "type": "Feature"}
{"geometry": {"coordinates": [-76.7043316, 39.960937], "type": "Point"}, "id": "gb11euiybe0jjvqL3Bms2JNvqlY=", "properties": {"@source_uri": "https://tools.usps.com/UspsToolsRestServices/rest/POLocator/findLocations", "@spider": "usps_collection_boxes", "addr:city": "YORK", "addr:country": "US", "addr:postcode": "17403", "addr:state": "PA", "addr:street_address": "1045 MOUNT ROSE AVE", "amenity": "post_box", "collection_times": "Mo-Sa 10:00", "nsi_id": "unitedstatespostalservice-a77078", "operator": "United States Postal Service", "operator:short": "USPS", "operator:type": "public", "operator:wikidata": "Q668687", "ref": "1740300017"}, "type": "Feature"}
{"geometry": {"coordinates": [-76.7215026, 39.947551], "type": "Point"}, "id": "B46T1TLgPvGavIXUDRQnZOggNO0=", "properties": {"@source_uri": "https://tools.usps.com/UspsToolsRestServices/rest/POLocator/findLocations", "@spider": "usps_collection_boxes", "addr:city": "YORK", "addr:country": "US", "addr:postcode": "17403", "addr:state": "PA", "addr:street_address": "976 S GEORGE ST", "amenity": "post_box", "collection_times": "Mo-Sa 10:00", "nsi_id": "unitedstatespostalservice-a77078", "operator": "United States Postal Service", "operator:short": "USPS", "operator:type": "public", "operator:wikidata": "Q668687", "ref": "1740300023"}, "type": "Feature"}
{"geometry": {"coordinates": [-76.7106419, 39.951817], "type": "Point"}, "id": "CKEHazxgXQIEJ30TNS1CdzI8iDw=", "properties": {"@source_uri": "https://tools.usps.com/UspsToolsRestServices/rest/POLocator/findLocations", "@spider": "usps_collection_boxes", "addr:city": "YORK", "addr:country": "US", "addr:postcode": "17403", "addr:state": "PA", "addr:street_address": "1077 EDGAR ST", "amenity": "post_box", "collection_times": "Mo-Sa 09:00", "nsi_id": "unitedstatespostalservice-a77078", "operator": "United States Postal Service", "operator:short": "USPS", "operator:type": "public", "operator:wikidata": "Q668687", "ref": "1740300043"}, "type": "Feature"}
{"geometry": {"coordinates": [-76.7075147, 39.970177], "type": "Point"}, "id": "NtnNQnuISDvJ2nRzmA4okgGmMQM=", "properties": {"@source_uri": "https://tools.usps.com/UspsToolsRestServices/rest/POLocator/findLocations", "@spider": "usps_collection_boxes", "addr:city": "YORK", "addr:country": "US", "addr:postcode": "17403", "addr:state": "PA", "addr:street_address": "1017 E MARKET ST", "amenity": "post_box", "collection_times": "Mo-Sa 09:00", "nsi_id": "unitedstatespostalservice-a77078", "operator": "United States Postal Service", "operator:short": "USPS", "operator:type": "public", "operator:wikidata": "Q668687", "ref": "1740300048"}, "type": "Feature"}
{"geometry": {"coordinates": [-76.6925895, 39.934103], "type": "Point"}, "id": "Z-_NcYASXecqqCc6uxgnLp9ZDj0=", "properties": {"@source_uri": "https://tools.usps.com/UspsToolsRestServices/rest/POLocator/findLocations", "@spider": "usps_collection_boxes", "addr:city": "YORK", "addr:country": "US", "addr:postcode": "17403", "addr:state": "PA", "addr:street_address": "2122 S QUEEN ST", "amenity": "post_box", "collection_times": "Mo-Sa 09:00", "nsi_id": "unitedstatespostalservice-a77078", "operator": "United States Postal Service", "operator:short": "USPS", "operator:type": "public", "operator:wikidata": "Q668687", "ref": "1740300049"}, "type": "Feature"}
{"geometry": {"coordinates": [-76.716908, 39.923993], "type": "Point"}, "id": "_DeAXLDtUf5BG1_OHcQzHj3wRE8=", "properties": {"@source_uri": "https://tools.usps.com/UspsToolsRestServices/rest/POLocator/findLocations", "@spider": "usps_collection_boxes", "addr:city": "YORK", "addr:country": "US", "addr:postcode": "17403", "addr:state": "PA", "addr:street_address": "25 MONUMENT RD", "amenity": "post_box", "collection_times": "Mo-Sa 09:00", "nsi_id": "unitedstatespostalservice-a77078", "operator": "United States Postal Service", "operator:short": "USPS", "operator:type": "public", "operator:wikidata": "Q668687", "ref": "1740300053"}, "type": "Feature"}
{"geometry": {"coordinates": [-76.7232854, 39.95349], "type": "Point"}, "id": "woD-RxKm3xT9FZ62PdR2CEmGa84=", "properties": {"@source_uri": "https://tools.usps.com/UspsToolsRestServices/rest/POLocator/findLocations", "@spider": "usps_collection_boxes", "addr:city": "YORK", "addr:country": "US", "addr:postcode": "17403", "addr:state": "PA", "addr:street_address": "710 S GEORGE ST", "amenity": "post_box", "collection_times": "Mo-Fr 10:00", "nsi_id": "unitedstatespostalservice-a77078", "operator": "United States Postal Service", "operator:short": "USPS", "operator:type": "public", "operator:wikidata": "Q668687", "ref": "1740300054"}, "type": "Feature"}
{"geometry": {"coordinates": [-76.7265615, 39.959181], "type": "Point"}, "id": "QiRvshBVAk0Z2WcUVaGoqYqpkjw=", "properties": {"@source_uri": "https://tools.usps.com/UspsToolsRestServices/rest/POLocator/findLocations", "@spider": "usps_collection_boxes", "addr:city": "YORK", "addr:country": "US", "addr:postcode": "17403", "addr:state": "PA", "addr:street_address": "200 S GEORGE ST", "amenity": "post_box", "collection_times": "Mo-Sa 09:00", "nsi_id": "unitedstatespostalservice-a77078", "operator": "United States Postal Service", "operator:short": "USPS", "operator:type": "public", "operator:wikidata": "Q668687", "ref": "1740300056"}, "type": "Feature"}
{"geometry": {"coordinates": [-76.6938682, 39.967871], "type": "Point"}, "id": "gnnWE35d4JuGAoZ_kHhL3zxtTxY=", "properties": {"@source_uri": "https://tools.usps.com/UspsToolsRestServices/rest/POLocator/findLocations", "@spider": "usps_collection_boxes", "addr:city": "YORK", "addr:country": "US", "addr:postcode": "17403", "addr:state": "PA", "addr:street_address": "325 S BELMONT ST", "amenity": "post_box", "collection_times": "Mo-Sa 09:00", "nsi_id": "unitedstatespostalservice-a77078", "operator": "United States Postal Service", "operator:short": "USPS", "operator:type": "public", "operator:wikidata": "Q668687", "ref": "1740300066"}, "type": "Feature"}
{"geometry": {"coordinates": [-76.7021414, 39.966802], "type": "Point"}, "id": "uWtvKhezyN-4Z7RmI4pmHxcl8oo=", "properties": {"@source_uri": "https://tools.usps.com/UspsToolsRestServices/rest/POLocator/findLocations", "@spider": "usps_collection_boxes", "addr:city": "YORK", "addr:country": "US", "addr:postcode": "17403", "addr:state": "PA", "addr:street_address": "1110 E PRINCESS ST", "amenity": "post_box", "collection_times": "Mo-Fr 09:00", "nsi_id": "unitedstatespostalservice-a77078", "operator": "United States Postal Service", "operator:short": "USPS", "operator:type": "public", "operator:wikidata": "Q668687", "ref": "1740300069"}, "type": "Feature"}
{"geometry": {"coordinates": [-76.7545613, 39.980293], "type": "Point"}, "id": "lj8HHFteR00AO9IxzJXhAIZ4cVI=", "properties": {"@source_uri": "https://tools.usps.com/UspsToolsRestServices/rest/POLocator/findLocations", "@spider": "usps_collection_boxes", "addr:city": "YORK", "addr:country": "US", "addr:postcode": "17404", "addr:state": "PA", "addr:street_address": "925 LOUCKS RD", "amenity": "post_box", "collection_times": "Mo-Sa 09:00", "nsi_id": "unitedstatespostalservice-a77078", "operator": "United States Postal Service", "operator:short": "USPS", "operator:type": "public", "operator:wikidata": "Q668687", "ref": "1740400013"}, "type": "Feature"}
{"geometry": {"coordinates": [-76.7456259, 39.984091], "type": "Point"}, "id": "3Kyyl2LkyjV9QiE_4ZDFgzPTE9Y=", "properties": {"@source_uri": "https://tools.usps.com/UspsToolsRestServices/rest/POLocator/findLocations", "@spider": "usps_collection_boxes", "addr:city": "YORK", "addr:country": "US", "addr:postcode": "17404", "addr:state": "PA", "addr:street_address": "1900 PENNSYLVANIA AVE", "amenity": "post_box", "collection_times": "Mo-Sa 09:00", "nsi_id": "unitedstatespostalservice-a77078", "operator": "United States Postal Service", "operator:short": "USPS", "operator:type": "public", "operator:wikidata": "Q668687", "ref": "1740400067"}, "type": "Feature"}
{"geometry": {"coordinates": [-76.7489314, 39.966668], "type": "Point"}, "id": "JwgcnKQItw-iKBwAOXEo0uL49I8=", "properties": {"@source_uri": "https://tools.usps.com/UspsToolsRestServices/rest/POLocator/findLocations", "@spider": "usps_collection_boxes", "addr:city": "YORK", "addr:country": "US", "addr:postcode": "17404", "addr:state": "PA", "addr:street_address": "830 ROOSEVELT AVE", "amenity": "post_box", "collection_times": "Mo-Fr 11:00; Sa 10:00", "nsi_id": "unitedstatespostalservice-a77078", "operator": "United States Postal Service", "operator:short": "USPS", "operator:type": "public", "operator:wikidata": "Q668687", "ref": "1740400088"}, "type": "Feature"}
{"geometry": {"coordinates": [-76.7455973, 39.984082], "type": "Point"}, "id": "RDxV7iJduAL9Z4kcZWqEn42M3UA=", "properties": {"@source_uri": "https://tools.usps.com/UspsToolsRestServices/rest/POLocator/findLocations", "@spider": "usps_collection_boxes", "addr:city": "YORK", "addr:country": "US", "addr:postcode": "17404", "addr:state": "PA", "addr:street_address": "1900 PENNSYLVANIA AVE", "amenity": "post_box", "collection_times": "Mo-Sa 09:00", "nsi_id": "unitedstatespostalservice-a77078", "operator": "United States Postal Service", "operator:short": "USPS", "operator:type": "public", "operator:wikidata": "Q668687", "ref": "1740400091"}, "type": "Feature"}
{"geometry": {"coordinates": [-76.77283, 39.962294], "type": "Point"}, "id": "vTsmbFtYMuinhFNfJvdun9l8UaY=", "properties": {"@source_uri": "https://tools.usps.com/UspsToolsRestServices/rest/POLocator/findLocations", "@spider": "usps_collection_boxes", "addr:city": "YORK", "addr:country": "US", "addr:postcode": "17404", "addr:state": "PA", "addr:street_address": "2150 WHITE ST", "amenity": "post_box", "collection_times": "Mo-Fr 18:00; Sa 14:00", "note": "ON 12/24 AND 12/31, THIS BOX MAY BE COLLECTED AS EARLY AS 12 NOON.", "nsi_id": "unitedstatespostalservice-a77078", "operator": "United States Postal Service", "operator:short": "USPS", "operator:type": "public", "operator:wikidata": "Q668687", "ref": "1740400092"}, "type": "Feature"}
{"geometry": {"coordinates": [-76.77283, 39.962294], "type": "Point"}, "id": "Ev1NLW19iX9UEGACr3kKw3lVSPw=", "properties": {"@source_uri": "https://tools.usps.com/UspsToolsRestServices/rest/POLocator/findLocations", "@spider": "usps_collection_boxes", "addr:city": "YORK", "addr:country": "US", "addr:postcode": "17404", "addr:state": "PA", "addr:street_address": "2150 WHITE ST", "amenity": "post_box", "collection_times": "Mo-Fr 18:00; Sa 14:00", "indoor": "yes", "note": "ON 12/24 AND 12/31, THIS BOX MAY BE COLLECTED AS EARLY AS 12 NOON.", "nsi_id": "unitedstatespostalservice-a77078", "operator": "United States Postal Service", "operator:short": "USPS", "operator:type": "public", "operator:wikidata": "Q668687", "ref": "1740400119"}, "type": "Feature"}
{"geometry": {"coordinates": [-76.77283, 39.962294], "type": "Point"}, "id": "gKVeAFvvXf8Y5GAhCXDirLWam_0=", "properties": {"@source_uri": "https://tools.usps.com/UspsToolsRestServices/rest/POLocator/findLocations", "@spider": "usps_collection_boxes", "addr:city": "YORK", "addr:country": "US", "addr:postcode": "17404", "addr:state": "PA", "addr:street_address": "2150 WHITE ST", "amenity": "post_box", "collection_times": "Mo-Fr 18:00", "name": "USPS COLLECTION BOX - APC", "note": "ON 12/24 AND 12/31, THIS BOX MAY BE COLLECTED AS EARLY AS 12 NOON.", "nsi_id": "unitedstatespostalservice-a77078", "operator": "United States Postal Service", "operator:short": "USPS", "operator:type": "public", "operator:wikidata": "Q668687", "ref": "1740400120"}, "type": "Feature"}
{"geometry": {"coordinates": [-76.7612487, 39.953571], "type": "Point"}, "id": "QKexu2iftXc_1zAGeQsHPC89SMQ=", "properties": {"@source_uri": "https://tools.usps.com/UspsToolsRestServices/rest/POLocator/findLocations", "@spider": "usps_collection_boxes", "addr:city": "YORK", "addr:country": "US", "addr:postcode": "17404", "addr:state": "PA", "addr:street_address": "1501 W MARKET ST", "amenity": "post_box", "collection_times": "Mo-Sa 09:00", "nsi_id": "unitedstatespostalservice-a77078", "operator": "United States Postal Service", "operator:short": "USPS", "operator:type": "public", "operator:wikidata": "Q668687", "ref": "1740400122"}, "type": "Feature"}
{"geometry": {"coordinates": [-76.772829587, 39.962287661], "type": "Point"}, "id": "LSFuLgq77ax7lcn8xqGPr04YQ0Y=", "properties": {"@source_uri": "https://tools.usps.com/UspsToolsRestServices/rest/POLocator/findLocations", "@spider": "usps_collection_boxes", "addr:city": "YORK", "addr:country": "US", "addr:postcode": "17404", "addr:state": "PA", "addr:street_address": "2150 WHITE ST STE 8", "amenity": "post_box", "collection_times": "Mo-Fr 18:00; Sa 14:00", "indoor": "yes", "note": "ON 12/24 AND 12/31, THIS BOX MAY BE COLLECTED AS EARLY AS 12 NOON.", "nsi_id": "unitedstatespostalservice-a77078", "operator": "United States Postal Service", "operator:short": "USPS", "operator:type": "public", "operator:wikidata": "Q668687", "ref": "1740400127"}, "type": "Feature"}
{"geometry": {"coordinates": [-76.6042242, 40.004753], "type": "Point"}, "id": "CGbg0A6KlGHOP00ud1PSPVztkhA=", "properties": {"@source_uri": "https://tools.usps.com/UspsToolsRestServices/rest/POLocator/findLocations", "@spider": "usps_collection_boxes", "addr:city": "HALLAM", "addr:country": "US", "addr:postcode": "17406", "addr:state": "PA", "addr:street_address": "2 W MARKET ST", "amenity": "post_box", "collection_times": "Mo-Sa 10:00", "nsi_id": "unitedstatespostalservice-a77078", "operator": "United States Postal Service", "operator:short": "USPS", "operator:type": "public", "operator:wikidata": "Q668687", "ref": "1740600001"}, "type": "Feature"}
{"geometry": {"coordinates": [-76.7110181, 39.881746], "type": "Point"}, "id": "lXuhwUuwuQncy93rTcroCs1mC2I=", "properties": {"@source_uri": "https://tools.usps.com/UspsToolsRestServices/rest/POLocator/findLocations", "@spider": "usps_collection_boxes", "addr:city": "YORK", "addr:country": "US", "addr:postcode": "17407", "addr:state": "PA", "addr:street_address": "2 SMITH ST", "amenity": "post_box", "collection_times": "Mo-Fr 15:00; Sa 12:00", "note": "ON 12/24 AND 12/31, THIS BOX MAY BE COLLECTED AS EARLY AS 12 NOON.", "nsi_id": "unitedstatespostalservice-a77078", "operator": "United States Postal Service", "operator:short": "USPS", "operator:type": "public", "operator:wikidata": "Q668687", "ref": "1740700002"}, "type": "Feature"}
{"geometry": {"coordinates": [-76.7109095, 39.881623], "type": "Point"}, "id": "kwiDxgdfmnXRzQxMWRBJHWqFHKA=", "properties": {"@source_uri": "https://tools.usps.com/UspsToolsRestServices/rest/POLocator/findLocations", "@spider": "usps_collection_boxes", "addr:city": "YORK", "addr:country": "US", "addr:postcode": "17407", "addr:state": "PA", "addr:street_address": "2 SMITH ST", "amenity": "post_box", "collection_times": "Mo-Fr 15:00; Sa 12:00", "indoor": "yes", "note": "ON 12/24 AND 12/31, THIS BOX MAY BE COLLECTED AS EARLY AS 12 NOON.", "nsi_id": "unitedstatespostalservice-a77078", "operator": "United States Postal Service", "operator:short": "USPS", "operator:type": "public", "operator:wikidata": "Q668687", "ref": "1740700005"}, "type": "Feature"}
{"geometry": {"coordinates": [-76.711629632, 39.881995704], "type": "Point"}, "id": "2-4rcS3232-BdCBPY88I66t5L6k=", "properties": {"@source_uri": "https://tools.usps.com/UspsToolsRestServices/rest/POLocator/findLocations", "@spider": "usps_collection_boxes", "addr:city": "YORK", "addr:country": "US", "addr:postcode": "17407", "addr:state": "PA", "addr:street_address": "2 SMITH ST", "amenity": "post_box", "collection_times": "Mo-Fr 15:00; Sa 14:00", "indoor": "yes", "note": "ON 12/24 AND 12/31, THIS BOX MAY BE COLLECTED AS EARLY AS 12 NOON.", "nsi_id": "unitedstatespostalservice-a77078", "operator": "United States Postal Service", "operator:short": "USPS", "operator:type": "public", "operator:wikidata": "Q668687", "ref": "1740700006"}, "type": "Feature"}
{"geometry": {"coordinates": [-76.8035299, 39.961006], "type": "Point"}, "id": "lxD1TG-k_42Tdq-mXusKywwR6J0=", "properties": {"@source_uri": "https://tools.usps.com/UspsToolsRestServices/rest/POLocator/findLocations", "@spider": "usps_collection_boxes", "addr:city": "YORK", "addr:country": "US", "addr:postcode": "17408", "addr:state": "PA", "addr:street_address": "1701 TAXVILLE RD", "amenity": "post_box", "collection_times": "Mo-Fr 10:00", "nsi_id": "unitedstatespostalservice-a77078", "operator": "United States Postal Service", "operator:short": "USPS", "operator:type": "public", "operator:wikidata": "Q668687", "ref": "1740800001"}, "type": "Feature"}
{"geometry": {"coordinates": [-76.7620627, 39.979786], "type": "Point"}, "id": "6bNAcSyazXDCL8r7xVIl7SWvWLc=", "properties": {"@source_uri": "https://tools.usps.com/UspsToolsRestServices/rest/POLocator/findLocations", "@spider": "usps_collection_boxes", "addr:city": "YORK", "addr:country": "US", "addr:postcode": "17408", "addr:state": "PA", "addr:street_address": "1800 ROOSEVELT AVE", "amenity": "post_box", "collection_times": "Mo-Fr 11:00; Sa 12:00", "nsi_id": "unitedstatespostalservice-a77078", "operator": "United States Postal Service", "operator:short": "USPS", "operator:type": "public", "operator:wikidata": "Q668687", "ref": "1740800002"}, "type": "Feature"}
