{"geometry": {"coordinates": [-76.2024005, 40.156926], "type": "Point"}, "id": "3usCSiU1Qyc-JflsATPecSL2vo0=", "properties": {"@source_uri": "https://tools.usps.com/UspsToolsRestServices/rest/POLocator/findLocations", "@spider": "usps_collection_boxes", "addr:city": "AKRON", "addr:country": "US", "addr:postcode": "17501", "addr:state": "PA", "addr:street_address": "820 MAIN ST", "amenity": "post_box", "collection_times": "Mo-Sa 13:30", "note": "ON 12/24 AND 12/31, THIS BOX MAY BE COLLECTED AS EARLY AS 12 NOON.", "nsi_id": "unitedstatespostalservice-a77078", "operator": "United States Postal Service", "operator:short": "USPS", "operator:type": "public", "operator:wikidata": "Q668687", "ref": "1750100018"}, "type": "Feature"}
{"geometry": {"coordinates": [-76.204044, 40.158803], "type": "Point"}, "id": "6i9NyVA1C_oYHw_Yd3NNOJuciFE=", "properties": {"@source_uri": "https://tools.usps.com/UspsToolsRestServices/rest/POLocator/findLocations", "@spider": "usps_collection_boxes", "addr:city": "AKRON", "addr:country": "US", "addr:postcode": "17501", "addr:state": "PA", "addr:street_address": "100 N 7TH ST", "amenity": "post_box", "collection_times": "Mo-Fr 16:15; Sa 11:45", "indoor": "yes", "note": "ON 12/24 AND 12/31, THIS BOX MAY BE COLLECTED AS EARLY AS 12 NOON.", "nsi_id": "unitedstatespostalservice-a77078", "operator": "United States Postal Service", "operator:short": "USPS", "operator:type": "public", "operator:wikidata": "Q668687", "ref": "1750100020"}, "type": "Feature"}
{"geometry": {"coordinates": [-76.204068, 40.158711], "type": "Point"}, "id": "Yn6eaNtDpzfzpEWoOsp2KKM2X_w=", "properties": {"@source_uri": "https://tools.usps.com/UspsToolsRestServices/rest/POLocator/findLocations", "@spider": "usps_collection_boxes", "addr:city": "AKRON", "addr:country": "US", "addr:postcode": "17501", "addr:state": "PA", "addr:street_address": "100 N 7TH ST", "amenity": "post_box", "collection_times": "Mo-Fr 16:15; Sa 11:45", "note": "ON 12/24 AND 12/31, THIS BOX MAY BE COLLECTED AS EARLY AS 12 NOON.", "nsi_id": "unitedstatespostalservice-a77078", "operator": "United States Postal Service", "operator:short": "USPS", "operator:type": "public", "operator:wikidata": "Q668687", "ref": "1750100022"}, "type": "Feature"}
{"geometry": {"coordinates": [-76.203879036, 40.159046576], "type": "Point"}, "id": "xN5wS4QHp3k_a9_Oy2NO0SQXwUU=", "properties": {"@source_uri": "https://tools.usps.com/UspsToolsRestServices/rest/POLocator/findLocations", "@spider": "usps_collection_boxes", "addr:city": "AKRON", "addr:country": "US", "addr:postcode": "17501", "addr:state": "PA", "addr:street_address": "100 N 7TH ST", "amenity": "post_box", "collection_times": "Mo-Fr 16:15; Sa 12:05", "indoor": "yes", "note": "ON 12/24 AND 12/31, THIS BOX MAY BE COLLECTED AS EARLY AS 12 NOON.", "nsi_id": "unitedstatespostalservice-a77078", "operator": "United States Postal Service", "operator:short": "USPS", "operator:type": "public", "operator:wikidata": "Q668687", "ref": "1750100026"}, "type": "Feature"}
{"geometry": {"coordinates": [-76.6691120233, 40.0934380014], "type": "Point"}, "id": "m1rbzSSWQH3OJr1VnYQUljaRpyk=", "properties": {"@source_uri": "https://tools.usps.com/UspsToolsRestServices/rest/POLocator/findLocations", "@spider": "usps_collection_boxes", "addr:city": "BAINBRIDGE", "addr:country": "US", "addr:postcode": "17502", "addr:state": "PA", "addr:street_address": "205 N 2ND ST", "amenity": "post_box", "collection_times": "Mo-Fr 16:15; Sa 11:00", "note": "ON 12/24 AND 12/31, THIS BOX MAY BE COLLECTED AS EARLY AS 12 NOON.", "nsi_id": "unitedstatespostalservice-a77078", "operator": "United States Postal Service", "operator:short": "USPS", "operator:type": "public", "operator:wikidata": "Q668687", "ref": "1750200001"}, "type": "Feature"}
{"geometry": {"coordinates": [-76.669322, 40.093359], "type": "Point"}, "id": "8mERCa_vYm7BSKhl_bnFxw71wis=", "properties": {"@source_uri": "https://tools.usps.com/UspsToolsRestServices/rest/POLocator/findLocations", "@spider": "usps_collection_boxes", "addr:city": "BAINBRIDGE", "addr:country": "US", "addr:postcode": "17502", "addr:state": "PA", "addr:street_address": "205 N 2ND ST", "amenity": "post_box", "collection_times": "Mo-Fr 16:15; Sa 11:00", "indoor": "yes", "note": "ON 12/24 AND 12/31, THIS BOX MAY BE COLLECTED AS EARLY AS 12 NOON.", "nsi_id": "unitedstatespostalservice-a77078", "operator": "United States Postal Service", "operator:short": "USPS", "operator:type": "public", "operator:wikidata": "Q668687", "ref": "1750200003"}, "type": "Feature"}
{"geometry": {"coordinates": [-76.669284456, 40.093399454], "type": "Point"}, "id": "b3IK9C5GeLONtXTNsbcYPs4b_sI=", "properties": {"@source_uri": "https://tools.usps.com/UspsToolsRestServices/rest/POLocator/findLocations", "@spider": "usps_collection_boxes", "addr:city": "BAINBRIDGE", "addr:country": "US", "addr:postcode": "17502", "addr:state": "PA", "addr:street_address": "205 N 2ND ST", "amenity": "post_box", "collection_times": "Mo-Fr 15:20; Sa 11:05", "indoor": "yes", "note": "ON 12/24 AND 12/31, THIS BOX MAY BE COLLECTED AS EARLY AS 12 NOON.", "nsi_id": "unitedstatespostalservice-a77078", "operator": "United States Postal Service", "operator:short": "USPS", "operator:type": "public", "operator:wikidata": "Q668687", "ref": "1750200005"}, "type": "Feature"}
{"geometry": {"coordinates": [-76.083438, 39.938157], "type": "Point"}, "id": "7kVsUC6r0_8ucw8LXRuGzkrPi0s=", "properties": {"@source_uri": "https://tools.usps.com/UspsToolsRestServices/rest/POLocator/findLocations", "@spider": "usps_collection_boxes", "addr:city": "BART", "addr:country": "US", "addr:postcode": "17503", "addr:state": "PA", "addr:street_address": "1093 GEORGETOWN RD", "amenity": "post_box", "collection_times": "Mo-Fr 16:00; Sa 11:00", "note": "ON 12/24 AND 12/31, THIS BOX MAY BE COLLECTED AS EARLY AS 12 NOON.", "nsi_id": "unitedstatespostalservice-a77078", "operator": "United States Postal Service", "operator:short": "USPS", "operator:type": "public", "operator:wikidata": "Q668687", "ref": "1750300001"}, "type": "Feature"}
{"geometry": {"coordinates": [-76.083484, 39.938196], "type": "Point"}, "id": "UR_YBrBmd5RBCETeYCVLQ1R8vKM=", "properties": {"@source_uri": "https://tools.usps.com/UspsToolsRestServices/rest/POLocator/findLocations", "@spider": "usps_collection_boxes", "addr:city": "BART", "addr:country": "US", "addr:postcode": "17503", "addr:state": "PA", "addr:street_address": "1093 GEORGETOWN RD", "amenity": "post_box", "collection_times": "Mo-Fr 16:00; Sa 11:00", "indoor": "yes", "note": "ON 12/24 AND 12/31, THIS BOX MAY BE COLLECTED AS EARLY AS 12 NOON.", "nsi_id": "unitedstatespostalservice-a77078", "operator": "United States Postal Service", "operator:short": "USPS", "operator:type": "public", "operator:wikidata": "Q668687", "ref": "1750300002"}, "type": "Feature"}
{"geometry": {"coordinates": [-76.08345802, 39.938206736], "type": "Point"}, "id": "5TcErvXMT4lwwpedBxepEM7x6aA=", "properties": {"@source_uri": "https://tools.usps.com/UspsToolsRestServices/rest/POLocator/findLocations", "@spider": "usps_collection_boxes", "addr:city": "BART", "addr:country": "US", "addr:postcode": "17503", "addr:state": "PA", "addr:street_address": "1093 GEORGETOWN RD", "amenity": "post_box", "collection_times": "Mo-Fr 15:50; Sa 11:00", "indoor": "yes", "note": "ON 12/24 AND 12/31, THIS BOX MAY BE COLLECTED AS EARLY AS 12 NOON.", "nsi_id": "unitedstatespostalservice-a77078", "operator": "United States Postal Service", "operator:short": "USPS", "operator:type": "public", "operator:wikidata": "Q668687", "ref": "1750300004"}, "type": "Feature"}
{"geometry": {"coordinates": [-76.17985, 40.038518], "type": "Point"}, "id": "TIWd_Of-7heNM3Zlo33w74HIoaI=", "properties": {"@source_uri": "https://tools.usps.com/UspsToolsRestServices/rest/POLocator/findLocations", "@spider": "usps_collection_boxes", "addr:city": "BIRD IN HAND", "addr:country": "US", "addr:postcode": "17505", "addr:state": "PA", "addr:street_address": "2694 OLD PHILADELPHIA PIKE", "amenity": "post_box", "collection_times": "Mo-Fr 16:00; Sa 10:45", "note": "ON 12/24 AND 12/31, THIS BOX MAY BE COLLECTED AS EARLY AS 12 NOON.", "nsi_id": "unitedstatespostalservice-a77078", "operator": "United States Postal Service", "operator:short": "USPS", "operator:type": "public", "operator:wikidata": "Q668687", "ref": "1750500002"}, "type": "Feature"}
{"geometry": {"coordinates": [-76.179767, 40.038541], "type": "Point"}, "id": "FnbGhzAut-RRBC35EnBFhpFi9Os=", "properties": {"@source_uri": "https://tools.usps.com/UspsToolsRestServices/rest/POLocator/findLocations", "@spider": "usps_collection_boxes", "addr:city": "BIRD IN HAND", "addr:country": "US", "addr:postcode": "17505", "addr:state": "PA", "addr:street_address": "2694 OLD PHILADELPHIA PIKE", "amenity": "post_box", "collection_times": "Mo-Fr 16:00; Sa 10:45", "indoor": "yes", "note": "ON 12/24 AND 12/31, THIS BOX MAY BE COLLECTED AS EARLY AS 12 NOON.", "nsi_id": "unitedstatespostalservice-a77078", "operator": "United States Postal Service", "operator:short": "USPS", "operator:type": "public", "operator:wikidata": "Q668687", "ref": "1750500003"}, "type": "Feature"}
{"geometry": {"coordinates": [-76.179822463, 40.038459219], "type": "Point"}, "id": "xoOCcGOaATvcpeoMPQhhI9xGAFk=", "properties": {"@source_uri": "https://tools.usps.com/UspsToolsRestServices/rest/POLocator/findLocations", "@spider": "usps_collection_boxes", "addr:city": "BIRD IN HAND", "addr:country": "US", "addr:postcode": "17505", "addr:state": "PA", "addr:street_address": "2694 OLD PHILADELPHIA PIKE", "amenity": "post_box", "collection_times": "Mo-Fr 16:00; Sa 11:00", "indoor": "yes", "note": "ON 12/24 AND 12/31, THIS BOX MAY BE COLLECTED AS EARLY AS 12 NOON.", "nsi_id": "unitedstatespostalservice-a77078", "operator": "United States Postal Service", "operator:short": "USPS", "operator:type": "public", "operator:wikidata": "Q668687", "ref": "1750500005"}, "type": "Feature"}
{"geometry": {"coordinates": [-76.051242, 40.117251], "type": "Point"}, "id": "cd8fHAsptBwYf_hodN55BfkL3iA=", "properties": {"@source_uri": "https://tools.usps.com/UspsToolsRestServices/rest/POLocator/findLocations", "@spider": "usps_collection_boxes", "addr:city": "BLUE BALL", "addr:country": "US", "addr:postcode": "17506", "addr:state": "PA", "addr:street_address": "1058 MAIN ST", "amenity": "post_box", "collection_times": "Mo-Fr 16:15; Sa 11:45", "note": "ON 12/24 AND 12/31, THIS BOX MAY BE COLLECTED AS EARLY AS 12 NOON.", "nsi_id": "unitedstatespostalservice-a77078", "operator": "United States Postal Service", "operator:short": "USPS", "operator:type": "public", "operator:wikidata": "Q668687", "ref": "1750600001"}, "type": "Feature"}
{"geometry": {"coordinates": [-76.051175, 40.117309], "type": "Point"}, "id": "VxtHo_WniKjjVc3Tz1VtJtZE0qM=", "properties": {"@source_uri": "https://tools.usps.com/UspsToolsRestServices/rest/POLocator/findLocations", "@spider": "usps_collection_boxes", "addr:city": "BLUE BALL", "addr:country": "US", "addr:postcode": "17506", "addr:state": "PA", "addr:street_address": "1058 MAIN ST", "amenity": "post_box", "collection_times": "Mo-Fr 16:15; Sa 11:45", "indoor": "yes", "note": "ON 12/24 AND 12/31, THIS BOX MAY BE COLLECTED AS EARLY AS 12 NOON.", "nsi_id": "unitedstatespostalservice-a77078", "operator": "United States Postal Service", "operator:short": "USPS", "operator:type": "public", "operator:wikidata": "Q668687", "ref": "1750600002"}, "type": "Feature"}
{"geometry": {"coordinates": [-76.051469128, 40.117148793], "type": "Point"}, "id": "GQu0Si1IzdltOxwATJpMyO30CcU=", "properties": {"@source_uri": "https://tools.usps.com/UspsToolsRestServices/rest/POLocator/findLocations", "@spider": "usps_collection_boxes", "addr:city": "BLUE BALL", "addr:country": "US", "addr:postcode": "17506", "addr:state": "PA", "addr:street_address": "1058 MAIN ST", "amenity": "post_box", "collection_times": "Mo-Fr 16:30; Sa 11:00", "indoor": "yes", "note": "ON 12/24 AND 12/31, THIS BOX MAY BE COLLECTED AS EARLY AS 12 NOON.", "nsi_id": "unitedstatespostalservice-a77078", "operator": "United States Postal Service", "operator:short": "USPS", "operator:type": "public", "operator:wikidata": "Q668687", "ref": "1750600004"}, "type": "Feature"}
{"geometry": {"coordinates": [-76.015141, 40.19725], "type": "Point"}, "id": "lPnuobu3CG1de-8eo4zXEVqDaHY=", "properties": {"@source_uri": "https://tools.usps.com/UspsToolsRestServices/rest/POLocator/findLocations", "@spider": "usps_collection_boxes", "addr:city": "BOWMANSVILLE", "addr:country": "US", "addr:postcode": "17507", "addr:state": "PA", "addr:street_address": "127 E MAPLEGROVE RD", "amenity": "post_box", "collection_times": "Mo-Fr 16:15; Sa 10:45", "note": "ON 12/24 AND 12/31, THIS BOX MAY BE COLLECTED AS EARLY AS 12 NOON.", "nsi_id": "unitedstatespostalservice-a77078", "operator": "United States Postal Service", "operator:short": "USPS", "operator:type": "public", "operator:wikidata": "Q668687", "ref": "1750700001"}, "type": "Feature"}
{"geometry": {"coordinates": [-76.015141, 40.19725], "type": "Point"}, "id": "7FjXkV4QXyhvhEC22Dx0uTDCxws=", "properties": {"@source_uri": "https://tools.usps.com/UspsToolsRestServices/rest/POLocator/findLocations", "@spider": "usps_collection_boxes", "addr:city": "BOWMANSVILLE", "addr:country": "US", "addr:postcode": "17507", "addr:state": "PA", "addr:street_address": "127 E MAPLEGROVE RD", "amenity": "post_box", "collection_times": "Mo-Fr 16:15; Sa 10:45", "indoor": "yes", "note": "ON 12/24 AND 12/31, THIS BOX MAY BE COLLECTED AS EARLY AS 12 NOON.", "nsi_id": "unitedstatespostalservice-a77078", "operator": "United States Postal Service", "operator:short": "USPS", "operator:type": "public", "operator:wikidata": "Q668687", "ref": "1750700003"}, "type": "Feature"}
{"geometry": {"coordinates": [-76.015058175, 40.196997176], "type": "Point"}, "id": "MN09Kpm4RT4u97MnP96RM17M8RI=", "properties": {"@source_uri": "https://tools.usps.com/UspsToolsRestServices/rest/POLocator/findLocations", "@spider": "usps_collection_boxes", "addr:city": "BOWMANSVILLE", "addr:country": "US", "addr:postcode": "17507", "addr:state": "PA", "addr:street_address": "127 E MAPLE GROVE RD", "amenity": "post_box", "collection_times": "Mo-Fr 16:30; Sa 11:00", "indoor": "yes", "note": "ON 12/24 AND 12/31, THIS BOX MAY BE COLLECTED AS EARLY AS 12 NOON.", "nsi_id": "unitedstatespostalservice-a77078", "operator": "United States Postal Service", "operator:short": "USPS", "operator:type": "public", "operator:wikidata": "Q668687", "ref": "1750700005"}, "type": "Feature"}
{"geometry": {"coordinates": [-76.218118, 40.124824], "type": "Point"}, "id": "Dq0-X2iz8n9afgeII4NQZJQxK5A=", "properties": {"@source_uri": "https://tools.usps.com/UspsToolsRestServices/rest/POLocator/findLocations", "@spider": "usps_collection_boxes", "addr:city": "BROWNSTOWN", "addr:country": "US", "addr:postcode": "17508", "addr:state": "PA", "addr:street_address": "3 CHARLES PL", "amenity": "post_box", "collection_times": "Mo-Fr 16:00; Sa 12:00", "note": "ON 12/24 AND 12/31, THIS BOX MAY BE COLLECTED AS EARLY AS 12 NOON.", "nsi_id": "unitedstatespostalservice-a77078", "operator": "United States Postal Service", "operator:short": "USPS", "operator:type": "public", "operator:wikidata": "Q668687", "ref": "1750800002"}, "type": "Feature"}
{"geometry": {"coordinates": [-76.218089, 40.124881], "type": "Point"}, "id": "1YwtOW5bd1zcQx6Ge7DXQWdkH_I=", "properties": {"@source_uri": "https://tools.usps.com/UspsToolsRestServices/rest/POLocator/findLocations", "@spider": "usps_collection_boxes", "addr:city": "BROWNSTOWN", "addr:country": "US", "addr:postcode": "17508", "addr:state": "PA", "addr:street_address": "3 CHARLES PL", "amenity": "post_box", "collection_times": "Mo-Fr 16:00; Sa 12:00", "indoor": "yes", "note": "ON 12/24 AND 12/31, THIS BOX MAY BE COLLECTED AS EARLY AS 12 NOON.", "nsi_id": "unitedstatespostalservice-a77078", "operator": "United States Postal Service", "operator:short": "USPS", "operator:type": "public", "operator:wikidata": "Q668687", "ref": "1750800004"}, "type": "Feature"}
{"geometry": {"coordinates": [-76.218095292, 40.124599019], "type": "Point"}, "id": "3YQeSXjmv9KWXtQ18ZOcG_aA3f8=", "properties": {"@source_uri": "https://tools.usps.com/UspsToolsRestServices/rest/POLocator/findLocations", "@spider": "usps_collection_boxes", "addr:city": "BROWNSTOWN", "addr:country": "US", "addr:postcode": "17508", "addr:state": "PA", "addr:street_address": "3 CHARLES PL", "amenity": "post_box", "collection_times": "Mo-Fr 16:05; Sa 12:05", "indoor": "yes", "note": "ON 12/24 AND 12/31, THIS BOX MAY BE COLLECTED AS EARLY AS 12 NOON.", "nsi_id": "unitedstatespostalservice-a77078", "operator": "United States Postal Service", "operator:short": "USPS", "operator:type": "public", "operator:wikidata": "Q668687", "ref": "1750800006"}, "type": "Feature"}
{"geometry": {"coordinates": [-75.9967516, 39.955405], "type": "Point"}, "id": "zdVHtnYWe-W3eShiHN3BBFd6EzA=", "properties": {"@source_uri": "https://tools.usps.com/UspsToolsRestServices/rest/POLocator/findLocations", "@spider": "usps_collection_boxes", "addr:city": "CHRISTIANA", "addr:country": "US", "addr:postcode": "17509", "addr:state": "PA", "addr:street_address": "19 N BRIDGE ST", "amenity": "post_box", "collection_times": "Mo-Fr 16:00; Sa 11:00", "indoor": "yes", "note": "ON 12/24 AND 12/31, THIS BOX MAY BE COLLECTED AS EARLY AS 12 NOON.", "nsi_id": "unitedstatespostalservice-a77078", "operator": "United States Postal Service", "operator:short": "USPS", "operator:type": "public", "operator:wikidata": "Q668687", "ref": "1750900003"}, "type": "Feature"}
{"geometry": {"coordinates": [-75.9966583, 39.955434], "type": "Point"}, "id": "knHwgTiPOw9_HFchlKtxqFx4vyQ=", "properties": {"@source_uri": "https://tools.usps.com/UspsToolsRestServices/rest/POLocator/findLocations", "@spider": "usps_collection_boxes", "addr:city": "CHRISTIANA", "addr:country": "US", "addr:postcode": "17509", "addr:state": "PA", "addr:street_address": "19 N BRIDGE ST", "amenity": "post_box", "collection_times": "Mo-Fr 16:00; Sa 11:00", "note": "ON 12/24 AND 12/31, THIS BOX MAY BE COLLECTED AS EARLY AS 12 NOON.", "nsi_id": "unitedstatespostalservice-a77078", "operator": "United States Postal Service", "operator:short": "USPS", "operator:type": "public", "operator:wikidata": "Q668687", "ref": "1750900004"}, "type": "Feature"}
{"geometry": {"coordinates": [-75.996828165, 39.955277404], "type": "Point"}, "id": "_-Qg-G4oQd9r18RguxNsRVBiKx0=", "properties": {"@source_uri": "https://tools.usps.com/UspsToolsRestServices/rest/POLocator/findLocations", "@spider": "usps_collection_boxes", "addr:city": "CHRISTIANA", "addr:country": "US", "addr:postcode": "17509", "addr:state": "PA", "addr:street_address": "19 N BRIDGE ST", "amenity": "post_box", "collection_times": "Mo-Fr 16:05; Sa 11:05", "indoor": "yes", "note": "ON 12/24 AND 12/31, THIS BOX MAY BE COLLECTED AS EARLY AS 12 NOON.", "nsi_id": "unitedstatespostalservice-a77078", "operator": "United States Postal Service", "operator:short": "USPS", "operator:type": "public", "operator:wikidata": "Q668687", "ref": "1750900006"}, "type": "Feature"}
{"geometry": {"coordinates": [-76.4900612, 40.031637], "type": "Point"}, "id": "nGGrF_DBfYzPRzvz5HsNphryve0=", "properties": {"@source_uri": "https://tools.usps.com/UspsToolsRestServices/rest/POLocator/findLocations", "@spider": "usps_collection_boxes", "addr:city": "COLUMBIA", "addr:country": "US", "addr:postcode": "17512", "addr:state": "PA", "addr:street_address": "960 LANCASTER AVE", "amenity": "post_box", "collection_times": "Mo-Sa 09:00", "nsi_id": "unitedstatespostalservice-a77078", "operator": "United States Postal Service", "operator:short": "USPS", "operator:type": "public", "operator:wikidata": "Q668687", "ref": "1751200004"}, "type": "Feature"}
{"geometry": {"coordinates": [-76.4531052, 40.037766], "type": "Point"}, "id": "7QjCByIpVXksj6-cDULmP7WkTRw=", "properties": {"@source_uri": "https://tools.usps.com/UspsToolsRestServices/rest/POLocator/findLocations", "@spider": "usps_collection_boxes", "addr:city": "COLUMBIA", "addr:country": "US", "addr:postcode": "17512", "addr:state": "PA", "addr:street_address": "3975 COLUMBIA AVE", "amenity": "post_box", "collection_times": "Mo-Sa 10:30", "nsi_id": "unitedstatespostalservice-a77078", "operator": "United States Postal Service", "operator:short": "USPS", "operator:type": "public", "operator:wikidata": "Q668687", "ref": "1751200013"}, "type": "Feature"}
{"geometry": {"coordinates": [-76.4755514, 40.030884], "type": "Point"}, "id": "uwfC7OiDPCbdinRL2GvoQWoS7OA=", "properties": {"@source_uri": "https://tools.usps.com/UspsToolsRestServices/rest/POLocator/findLocations", "@spider": "usps_collection_boxes", "addr:city": "COLUMBIA", "addr:country": "US", "addr:postcode": "17512", "addr:state": "PA", "addr:street_address": "1786J COLUMBIA AVE", "amenity": "post_box", "collection_times": "Mo-Sa 09:30", "nsi_id": "unitedstatespostalservice-a77078", "operator": "United States Postal Service", "operator:short": "USPS", "operator:type": "public", "operator:wikidata": "Q668687", "ref": "1751200018"}, "type": "Feature"}
{"geometry": {"coordinates": [-76.501847, 40.033563], "type": "Point"}, "id": "P3xHvspBcP4FQTWqTbka47-_YJU=", "properties": {"@source_uri": "https://tools.usps.com/UspsToolsRestServices/rest/POLocator/findLocations", "@spider": "usps_collection_boxes", "addr:city": "COLUMBIA", "addr:country": "US", "addr:postcode": "17512", "addr:state": "PA", "addr:street_address": "53 N 4TH ST", "amenity": "post_box", "collection_times": "Mo-Fr 17:00; Sa 12:45", "note": "ON 12/24 AND 12/31, THIS BOX MAY BE COLLECTED AS EARLY AS 12 NOON.", "nsi_id": "unitedstatespostalservice-a77078", "operator": "United States Postal Service", "operator:short": "USPS", "operator:type": "public", "operator:wikidata": "Q668687", "ref": "1751200023"}, "type": "Feature"}
{"geometry": {"coordinates": [-76.4935044, 40.039461], "type": "Point"}, "id": "Gf68I5XwWiqWpb0htTnHyN1Lbxs=", "properties": {"@source_uri": "https://tools.usps.com/UspsToolsRestServices/rest/POLocator/findLocations", "@spider": "usps_collection_boxes", "addr:city": "COLUMBIA", "addr:country": "US", "addr:postcode": "17512", "addr:state": "PA", "addr:street_address": "1000 WALNUT ST", "amenity": "post_box", "collection_times": "Mo-Sa 09:30", "nsi_id": "unitedstatespostalservice-a77078", "operator": "United States Postal Service", "operator:short": "USPS", "operator:type": "public", "operator:wikidata": "Q668687", "ref": "1751200026"}, "type": "Feature"}
{"geometry": {"coordinates": [-76.5018443, 40.033762], "type": "Point"}, "id": "BuZCi-Ak_Q1L5ppR0hr8TvQy-wg=", "properties": {"@source_uri": "https://tools.usps.com/UspsToolsRestServices/rest/POLocator/findLocations", "@spider": "usps_collection_boxes", "addr:city": "COLUMBIA", "addr:country": "US", "addr:postcode": "17512", "addr:state": "PA", "addr:street_address": "53 N 4TH ST", "amenity": "post_box", "collection_times": "Mo-Fr 16:30; Sa 12:45", "indoor": "yes", "note": "ON 12/24 AND 12/31, THIS BOX MAY BE COLLECTED AS EARLY AS 12 NOON.", "nsi_id": "unitedstatespostalservice-a77078", "operator": "United States Postal Service", "operator:short": "USPS", "operator:type": "public", "operator:wikidata": "Q668687", "ref": "1751200060"}, "type": "Feature"}
{"geometry": {"coordinates": [-76.4966919, 40.033829], "type": "Point"}, "id": "2ysE-dx-7wZ1CHmrh_1KqXkT6H8=", "properties": {"@source_uri": "https://tools.usps.com/UspsToolsRestServices/rest/POLocator/findLocations", "@spider": "usps_collection_boxes", "addr:city": "COLUMBIA", "addr:country": "US", "addr:postcode": "17512", "addr:state": "PA", "addr:street_address": "98 S 6TH ST", "amenity": "post_box", "collection_times": "Mo-Sa 09:30", "nsi_id": "unitedstatespostalservice-a77078", "operator": "United States Postal Service", "operator:short": "USPS", "operator:type": "public", "operator:wikidata": "Q668687", "ref": "1751200061"}, "type": "Feature"}
{"geometry": {"coordinates": [-76.501931943, 40.033625311], "type": "Point"}, "id": "nvwJl4R-z9Fh1wBV-T8zNSt-cHE=", "properties": {"@source_uri": "https://tools.usps.com/UspsToolsRestServices/rest/POLocator/findLocations", "@spider": "usps_collection_boxes", "addr:city": "COLUMBIA", "addr:country": "US", "addr:postcode": "17512", "addr:state": "PA", "addr:street_address": "53 N 4TH ST", "amenity": "post_box", "collection_times": "Mo-Fr 16:45; Sa 12:15", "indoor": "yes", "note": "ON 12/24 AND 12/31, THIS BOX MAY BE COLLECTED AS EARLY AS 12 NOON.", "nsi_id": "unitedstatespostalservice-a77078", "operator": "United States Postal Service", "operator:short": "USPS", "operator:type": "public", "operator:wikidata": "Q668687", "ref": "1751200065"}, "type": "Feature"}
{"geometry": {"coordinates": [-76.3463533, 39.940466], "type": "Point"}, "id": "cL8h6aSKYEa9oVMMpngiDIoMQfg=", "properties": {"@source_uri": "https://tools.usps.com/UspsToolsRestServices/rest/POLocator/findLocations", "@spider": "usps_collection_boxes", "addr:city": "CONESTOGA", "addr:country": "US", "addr:postcode": "17516", "addr:state": "PA", "addr:street_address": "1 RIVER CORNER RD", "amenity": "post_box", "collection_times": "Mo-Fr 16:15; Sa 10:15", "note": "ON 12/24 AND 12/31, THIS BOX MAY BE COLLECTED AS EARLY AS 12 NOON.", "nsi_id": "unitedstatespostalservice-a77078", "operator": "United States Postal Service", "operator:short": "USPS", "operator:type": "public", "operator:wikidata": "Q668687", "ref": "1751600002"}, "type": "Feature"}
{"geometry": {"coordinates": [-76.3463091, 39.94039], "type": "Point"}, "id": "hAAFXhoK9xCUIFvtCjIiGtdrCT4=", "properties": {"@source_uri": "https://tools.usps.com/UspsToolsRestServices/rest/POLocator/findLocations", "@spider": "usps_collection_boxes", "addr:city": "CONESTOGA", "addr:country": "US", "addr:postcode": "17516", "addr:state": "PA", "addr:street_address": "1 RIVER CORNER RD", "amenity": "post_box", "collection_times": "Mo-Fr 16:15; Sa 10:15", "indoor": "yes", "note": "ON 12/24 AND 12/31, THIS BOX MAY BE COLLECTED AS EARLY AS 12 NOON.", "nsi_id": "unitedstatespostalservice-a77078", "operator": "United States Postal Service", "operator:short": "USPS", "operator:type": "public", "operator:wikidata": "Q668687", "ref": "1751600003"}, "type": "Feature"}
{"geometry": {"coordinates": [-76.34654547, 39.940442812], "type": "Point"}, "id": "HToBw96Kpd5tY0h3azd-5r8ZW4g=", "properties": {"@source_uri": "https://tools.usps.com/UspsToolsRestServices/rest/POLocator/findLocations", "@spider": "usps_collection_boxes", "addr:city": "CONESTOGA", "addr:country": "US", "addr:postcode": "17516", "addr:state": "PA", "addr:street_address": "1 RIVER CORNER RD", "amenity": "post_box", "collection_times": "Mo-Fr 16:30; Sa 10:30", "indoor": "yes", "note": "ON 12/24 AND 12/31, THIS BOX MAY BE COLLECTED AS EARLY AS 12 NOON.", "nsi_id": "unitedstatespostalservice-a77078", "operator": "United States Postal Service", "operator:short": "USPS", "operator:type": "public", "operator:wikidata": "Q668687", "ref": "1751600005"}, "type": "Feature"}
{"geometry": {"coordinates": [-76.1384447, 40.233938], "type": "Point"}, "id": "xKT94l7qEOdB1DQsT8_K41o-ydI=", "properties": {"@source_uri": "https://tools.usps.com/UspsToolsRestServices/rest/POLocator/findLocations", "@spider": "usps_collection_boxes", "addr:city": "DENVER", "addr:country": "US", "addr:postcode": "17517", "addr:state": "PA", "addr:street_address": "501 MAIN ST", "amenity": "post_box", "collection_times": "Mo-Sa 09:15", "nsi_id": "unitedstatespostalservice-a77078", "operator": "United States Postal Service", "operator:short": "USPS", "operator:type": "public", "operator:wikidata": "Q668687", "ref": "1751700002"}, "type": "Feature"}
{"geometry": {"coordinates": [-76.127821, 40.228777], "type": "Point"}, "id": "hk7eXdkFJMq_6qM32udoLmpi83Y=", "properties": {"@source_uri": "https://tools.usps.com/UspsToolsRestServices/rest/POLocator/findLocations", "@spider": "usps_collection_boxes", "addr:city": "DENVER", "addr:country": "US", "addr:postcode": "17517", "addr:state": "PA", "addr:street_address": "101 SNYDER ST", "amenity": "post_box", "collection_times": "Mo-Fr 16:30; Sa 12:00", "note": "ON 12/24 AND 12/31, THIS BOX MAY BE COLLECTED AS EARLY AS 12 NOON.", "nsi_id": "unitedstatespostalservice-a77078", "operator": "United States Postal Service", "operator:short": "USPS", "operator:type": "public", "operator:wikidata": "Q668687", "ref": "1751700018"}, "type": "Feature"}
{"geometry": {"coordinates": [-76.0797777, 40.23256], "type": "Point"}, "id": "EAxcXzATTSDvnNJjrih_CsH7eOI=", "properties": {"@source_uri": "https://tools.usps.com/UspsToolsRestServices/rest/POLocator/findLocations", "@spider": "usps_collection_boxes", "addr:city": "DENVER", "addr:country": "US", "addr:postcode": "17517", "addr:state": "PA", "addr:street_address": "2590 N READING RD", "amenity": "post_box", "collection_times": "Mo-Sa 10:15", "nsi_id": "unitedstatespostalservice-a77078", "operator": "United States Postal Service", "operator:short": "USPS", "operator:type": "public", "operator:wikidata": "Q668687", "ref": "1751700020"}, "type": "Feature"}
{"geometry": {"coordinates": [-76.127939, 40.228804], "type": "Point"}, "id": "fl-_x71_7uZHtrQMbiYdA_Fe_4w=", "properties": {"@source_uri": "https://tools.usps.com/UspsToolsRestServices/rest/POLocator/findLocations", "@spider": "usps_collection_boxes", "addr:city": "DENVER", "addr:country": "US", "addr:postcode": "17517", "addr:state": "PA", "addr:street_address": "101 SNYDER ST", "amenity": "post_box", "collection_times": "Mo-Fr 16:30; Sa 12:00", "indoor": "yes", "note": "ON 12/24 AND 12/31, THIS BOX MAY BE COLLECTED AS EARLY AS 12 NOON.", "nsi_id": "unitedstatespostalservice-a77078", "operator": "United States Postal Service", "operator:short": "USPS", "operator:type": "public", "operator:wikidata": "Q668687", "ref": "1751700021"}, "type": "Feature"}
{"geometry": {"coordinates": [-76.127865142, 40.228719142], "type": "Point"}, "id": "haqPSxNJinfn_4zbKjqk6BpWlqU=", "properties": {"@source_uri": "https://tools.usps.com/UspsToolsRestServices/rest/POLocator/findLocations", "@spider": "usps_collection_boxes", "addr:city": "DENVER", "addr:country": "US", "addr:postcode": "17517", "addr:state": "PA", "addr:street_address": "101 SNYDER ST", "amenity": "post_box", "collection_times": "Mo-Fr 16:30; Sa 12:15", "indoor": "yes", "note": "ON 12/24 AND 12/31, THIS BOX MAY BE COLLECTED AS EARLY AS 12 NOON.", "nsi_id": "unitedstatespostalservice-a77078", "operator": "United States Postal Service", "operator:short": "USPS", "operator:type": "public", "operator:wikidata": "Q668687", "ref": "1751700023"}, "type": "Feature"}
{"geometry": {"coordinates": [-76.0308033, 40.120743], "type": "Point"}, "id": "algyKYb_xW7T1UhHqbKhovIhV5Y=", "properties": {"@source_uri": "https://tools.usps.com/UspsToolsRestServices/rest/POLocator/findLocations", "@spider": "usps_collection_boxes", "addr:city": "EAST EARL", "addr:country": "US", "addr:postcode": "17519", "addr:state": "PA", "addr:street_address": "1338 MAIN ST", "amenity": "post_box", "collection_times": "Mo-Sa 09:45", "nsi_id": "unitedstatespostalservice-a77078", "operator": "United States Postal Service", "operator:short": "USPS", "operator:type": "public", "operator:wikidata": "Q668687", "ref": "1751900003"}, "type": "Feature"}
{"geometry": {"coordinates": [-76.034419, 40.109744], "type": "Point"}, "id": "qwJpI3Ekn3VIh2GyqIeohNfrvfw=", "properties": {"@source_uri": "https://tools.usps.com/UspsToolsRestServices/rest/POLocator/findLocations", "@spider": "usps_collection_boxes", "addr:city": "EAST EARL", "addr:country": "US", "addr:postcode": "17519", "addr:state": "PA", "addr:street_address": "1238 E EARL RD", "amenity": "post_box", "collection_times": "Mo-Fr 16:15; Sa 10:45", "note": "ON 12/24 AND 12/31, THIS BOX MAY BE COLLECTED AS EARLY AS 12 NOON.", "nsi_id": "unitedstatespostalservice-a77078", "operator": "United States Postal Service", "operator:short": "USPS", "operator:type": "public", "operator:wikidata": "Q668687", "ref": "1751900004"}, "type": "Feature"}
{"geometry": {"coordinates": [-76.034447, 40.109772], "type": "Point"}, "id": "t3MzjYrB-Xm3c17fwaPqJN1XVcU=", "properties": {"@source_uri": "https://tools.usps.com/UspsToolsRestServices/rest/POLocator/findLocations", "@spider": "usps_collection_boxes", "addr:city": "EAST EARL", "addr:country": "US", "addr:postcode": "17519", "addr:state": "PA", "addr:street_address": "1238 E EARL RD", "amenity": "post_box", "collection_times": "Mo-Fr 16:15; Sa 10:45", "indoor": "yes", "note": "ON 12/24 AND 12/31, THIS BOX MAY BE COLLECTED AS EARLY AS 12 NOON.", "nsi_id": "unitedstatespostalservice-a77078", "operator": "United States Postal Service", "operator:short": "USPS", "operator:type": "public", "operator:wikidata": "Q668687", "ref": "1751900005"}, "type": "Feature"}
{"geometry": {"coordinates": [-76.034074196, 40.109730499], "type": "Point"}, "id": "7oDd3WrL-SKJSvI-Ah4Hr0NGeCk=", "properties": {"@source_uri": "https://tools.usps.com/UspsToolsRestServices/rest/POLocator/findLocations", "@spider": "usps_collection_boxes", "addr:city": "EAST EARL", "addr:country": "US", "addr:postcode": "17519", "addr:state": "PA", "addr:street_address": "1238 E EARL RD", "amenity": "post_box", "collection_times": "Mo-Fr 16:30; Sa 11:00", "indoor": "yes", "note": "ON 12/24 AND 12/31, THIS BOX MAY BE COLLECTED AS EARLY AS 12 NOON.", "nsi_id": "unitedstatespostalservice-a77078", "operator": "United States Postal Service", "operator:short": "USPS", "operator:type": "public", "operator:wikidata": "Q668687", "ref": "1751900008"}, "type": "Feature"}
{"geometry": {"coordinates": [-76.3487571, 40.093928], "type": "Point"}, "id": "HhW3UoHeoG2pHP7hWfZATpJTXlY=", "properties": {"@source_uri": "https://tools.usps.com/UspsToolsRestServices/rest/POLocator/findLocations", "@spider": "usps_collection_boxes", "addr:city": "EAST PETERSBURG", "addr:country": "US", "addr:postcode": "17520", "addr:state": "PA", "addr:street_address": "2049 MILLER RD", "amenity": "post_box", "collection_times": "Mo-Fr 16:30; Sa 12:00", "note": "ON 12/24 AND 12/31, THIS BOX MAY BE COLLECTED AS EARLY AS 12 NOON.", "nsi_id": "unitedstatespostalservice-a77078", "operator": "United States Postal Service", "operator:short": "USPS", "operator:type": "public", "operator:wikidata": "Q668687", "ref": "1752000011"}, "type": "Feature"}
{"geometry": {"coordinates": [-76.3486281, 40.093935], "type": "Point"}, "id": "-9dhloIZ4mtHLtAnwbnhEAqO9DU=", "properties": {"@source_uri": "https://tools.usps.com/UspsToolsRestServices/rest/POLocator/findLocations", "@spider": "usps_collection_boxes", "addr:city": "EAST PETERSBURG", "addr:country": "US", "addr:postcode": "17520", "addr:state": "PA", "addr:street_address": "2049 MILLER RD", "amenity": "post_box", "collection_times": "Mo-Fr 16:30; Sa 12:00", "indoor": "yes", "note": "ON 12/24 AND 12/31, THIS BOX MAY BE COLLECTED AS EARLY AS 12 NOON.", "nsi_id": "unitedstatespostalservice-a77078", "operator": "United States Postal Service", "operator:short": "USPS", "operator:type": "public", "operator:wikidata": "Q668687", "ref": "1752000022"}, "type": "Feature"}
{"geometry": {"coordinates": [-76.348434868, 40.09369078], "type": "Point"}, "id": "WJSs0fJmlRM8b_tDtCQo3aoqicg=", "properties": {"@source_uri": "https://tools.usps.com/UspsToolsRestServices/rest/POLocator/findLocations", "@spider": "usps_collection_boxes", "addr:city": "EAST PETERSBURG", "addr:country": "US", "addr:postcode": "17520", "addr:state": "PA", "addr:street_address": "2049 MILLER RD", "amenity": "post_box", "collection_times": "Mo-Fr 16:30; Sa 12:00", "indoor": "yes", "note": "ON 12/24 AND 12/31, THIS BOX MAY BE COLLECTED AS EARLY AS 12 NOON.", "nsi_id": "unitedstatespostalservice-a77078", "operator": "United States Postal Service", "operator:short": "USPS", "operator:type": "public", "operator:wikidata": "Q668687", "ref": "1752000025"}, "type": "Feature"}
{"geometry": {"coordinates": [-76.34763, 40.203094], "type": "Point"}, "id": "ETr4OlKHsayIJaDJY9XMQF_4sns=", "properties": {"@source_uri": "https://tools.usps.com/UspsToolsRestServices/rest/POLocator/findLocations", "@spider": "usps_collection_boxes", "addr:city": "ELM", "addr:country": "US", "addr:postcode": "17521", "addr:state": "PA", "addr:street_address": "656 W NEWPORT RD", "amenity": "post_box", "collection_times": "Mo-Fr 16:00; Sa 10:30", "note": "ON 12/24 AND 12/31, THIS BOX MAY BE COLLECTED AS EARLY AS 12 NOON.", "nsi_id": "unitedstatespostalservice-a77078", "operator": "United States Postal Service", "operator:short": "USPS", "operator:type": "public", "operator:wikidata": "Q668687", "ref": "1752100000"}, "type": "Feature"}
{"geometry": {"coordinates": [-76.34763, 40.203094], "type": "Point"}, "id": "8Bpjg2AWQVo_tCKcNS1gzRRnc_Y=", "properties": {"@source_uri": "https://tools.usps.com/UspsToolsRestServices/rest/POLocator/findLocations", "@spider": "usps_collection_boxes", "addr:city": "ELM", "addr:country": "US", "addr:postcode": "17521", "addr:state": "PA", "addr:street_address": "656 W NEWPORT RD", "amenity": "post_box", "collection_times": "Mo-Fr 16:00; Sa 10:30", "indoor": "yes", "note": "ON 12/24 AND 12/31, THIS BOX MAY BE COLLECTED AS EARLY AS 12 NOON.", "nsi_id": "unitedstatespostalservice-a77078", "operator": "United States Postal Service", "operator:short": "USPS", "operator:type": "public", "operator:wikidata": "Q668687", "ref": "1752100001"}, "type": "Feature"}
{"geometry": {"coordinates": [-76.347694162, 40.203636667], "type": "Point"}, "id": "zpf4ZMl2wTWPqrAWnBIiwEhMdBw=", "properties": {"@source_uri": "https://tools.usps.com/UspsToolsRestServices/rest/POLocator/findLocations", "@spider": "usps_collection_boxes", "addr:city": "ELM", "addr:country": "US", "addr:postcode": "17521", "addr:state": "PA", "addr:street_address": "656 W NEWPORT RD", "amenity": "post_box", "collection_times": "Mo-Fr 16:00; Sa 10:30", "indoor": "yes", "note": "ON 12/24 AND 12/31, THIS BOX MAY BE COLLECTED AS EARLY AS 12 NOON.", "nsi_id": "unitedstatespostalservice-a77078", "operator": "United States Postal Service", "operator:short": "USPS", "operator:type": "public", "operator:wikidata": "Q668687", "ref": "1752100003"}, "type": "Feature"}
{"geometry": {"coordinates": [-76.175143, 40.177023], "type": "Point"}, "id": "YGZ34IC0Zhh73oYWGxAZf6yF3Lw=", "properties": {"@source_uri": "https://tools.usps.com/UspsToolsRestServices/rest/POLocator/findLocations", "@spider": "usps_collection_boxes", "addr:city": "EPHRATA", "addr:country": "US", "addr:postcode": "17522", "addr:state": "PA", "addr:street_address": "129 E MAIN ST", "amenity": "post_box", "collection_times": "Mo-Fr 17:00; Sa 15:00", "note": "ON 12/24 AND 12/31, THIS BOX MAY BE COLLECTED AS EARLY AS 12 NOON.", "nsi_id": "unitedstatespostalservice-a77078", "operator": "United States Postal Service", "operator:short": "USPS", "operator:type": "public", "operator:wikidata": "Q668687", "ref": "1752200002"}, "type": "Feature"}
{"geometry": {"coordinates": [-76.1818329, 40.1871], "type": "Point"}, "id": "CY9OiHdkhTyR3rhlQSB2HMCxZig=", "properties": {"@source_uri": "https://tools.usps.com/UspsToolsRestServices/rest/POLocator/findLocations", "@spider": "usps_collection_boxes", "addr:city": "EPHRATA", "addr:country": "US", "addr:postcode": "17522", "addr:state": "PA", "addr:street_address": "169 MARTIN AVE", "amenity": "post_box", "collection_times": "Mo-Fr 09:00", "nsi_id": "unitedstatespostalservice-a77078", "operator": "United States Postal Service", "operator:short": "USPS", "operator:type": "public", "operator:wikidata": "Q668687", "ref": "1752200003"}, "type": "Feature"}
{"geometry": {"coordinates": [-76.1776049, 40.178994], "type": "Point"}, "id": "LLhiK8-6xwJnq2rQtue1gKATJGw=", "properties": {"@source_uri": "https://tools.usps.com/UspsToolsRestServices/rest/POLocator/findLocations", "@spider": "usps_collection_boxes", "addr:city": "EPHRATA", "addr:country": "US", "addr:postcode": "17522", "addr:state": "PA", "addr:street_address": "1 W MAIN ST", "amenity": "post_box", "collection_times": "Mo-Sa 08:00", "nsi_id": "unitedstatespostalservice-a77078", "operator": "United States Postal Service", "operator:short": "USPS", "operator:type": "public", "operator:wikidata": "Q668687", "ref": "1752200006"}, "type": "Feature"}
{"geometry": {"coordinates": [-76.1842299, 40.179604], "type": "Point"}, "id": "ciEwsY8w8_ArQ8z3xmwIXffevQ8=", "properties": {"@source_uri": "https://tools.usps.com/UspsToolsRestServices/rest/POLocator/findLocations", "@spider": "usps_collection_boxes", "addr:city": "EPHRATA", "addr:country": "US", "addr:postcode": "17522", "addr:state": "PA", "addr:street_address": "302 S OAK ST", "amenity": "post_box", "collection_times": "Mo-Sa 09:00", "nsi_id": "unitedstatespostalservice-a77078", "operator": "United States Postal Service", "operator:short": "USPS", "operator:type": "public", "operator:wikidata": "Q668687", "ref": "1752200009"}, "type": "Feature"}
{"geometry": {"coordinates": [-76.1767983, 40.181302], "type": "Point"}, "id": "4JOcotovlqkAOiRNSWyWPivIC0M=", "properties": {"@source_uri": "https://tools.usps.com/UspsToolsRestServices/rest/POLocator/findLocations", "@spider": "usps_collection_boxes", "addr:city": "EPHRATA", "addr:country": "US", "addr:postcode": "17522", "addr:state": "PA", "addr:street_address": "77 PARK AVE", "amenity": "post_box", "collection_times": "Mo-Sa 08:30", "nsi_id": "unitedstatespostalservice-a77078", "operator": "United States Postal Service", "operator:short": "USPS", "operator:type": "public", "operator:wikidata": "Q668687", "ref": "1752200011"}, "type": "Feature"}
{"geometry": {"coordinates": [-76.1865568, 40.184975], "type": "Point"}, "id": "S_k4LGoQ7OeU9MJRN-wdPEe2pF4=", "properties": {"@source_uri": "https://tools.usps.com/UspsToolsRestServices/rest/POLocator/findLocations", "@spider": "usps_collection_boxes", "addr:city": "EPHRATA", "addr:country": "US", "addr:postcode": "17522", "addr:state": "PA", "addr:street_address": "647 W MAIN ST", "amenity": "post_box", "collection_times": "Mo-Sa 09:00", "nsi_id": "unitedstatespostalservice-a77078", "operator": "United States Postal Service", "operator:short": "USPS", "operator:type": "public", "operator:wikidata": "Q668687", "ref": "1752200012"}, "type": "Feature"}
{"geometry": {"coordinates": [-76.1690933, 40.180798], "type": "Point"}, "id": "sojqqAcmRefWb_yo7q2BAFXrYms=", "properties": {"@source_uri": "https://tools.usps.com/UspsToolsRestServices/rest/POLocator/findLocations", "@spider": "usps_collection_boxes", "addr:city": "EPHRATA", "addr:country": "US", "addr:postcode": "17522", "addr:state": "PA", "addr:street_address": "58 E WALNUT ST", "amenity": "post_box", "collection_times": "Mo-Sa 08:30", "nsi_id": "unitedstatespostalservice-a77078", "operator": "United States Postal Service", "operator:short": "USPS", "operator:type": "public", "operator:wikidata": "Q668687", "ref": "1752200013"}, "type": "Feature"}
{"geometry": {"coordinates": [-76.1717716, 40.181106], "type": "Point"}, "id": "VCrnfHTjMWWuCtTGKjHV6pOJcFg=", "properties": {"@source_uri": "https://tools.usps.com/UspsToolsRestServices/rest/POLocator/findLocations", "@spider": "usps_collection_boxes", "addr:city": "EPHRATA", "addr:country": "US", "addr:postcode": "17522", "addr:state": "PA", "addr:street_address": "251 N STATE ST", "amenity": "post_box", "collection_times": "Mo-Sa 08:00", "nsi_id": "unitedstatespostalservice-a77078", "operator": "United States Postal Service", "operator:short": "USPS", "operator:type": "public", "operator:wikidata": "Q668687", "ref": "1752200017"}, "type": "Feature"}
{"geometry": {"coordinates": [-76.1984799, 40.193732], "type": "Point"}, "id": "D9RrzhkT-h4KT8w7z3d6VRKam6I=", "properties": {"@source_uri": "https://tools.usps.com/UspsToolsRestServices/rest/POLocator/findLocations", "@spider": "usps_collection_boxes", "addr:city": "EPHRATA", "addr:country": "US", "addr:postcode": "17522", "addr:state": "PA", "addr:street_address": "1248 W MAIN ST", "amenity": "post_box", "collection_times": "Mo-Sa 08:30", "nsi_id": "unitedstatespostalservice-a77078", "operator": "United States Postal Service", "operator:short": "USPS", "operator:type": "public", "operator:wikidata": "Q668687", "ref": "1752200018"}, "type": "Feature"}
{"geometry": {"coordinates": [-76.1788049, 40.179779], "type": "Point"}, "id": "4bUztnZhJN7uoJjlBZUZpXo0Lt8=", "properties": {"@source_uri": "https://tools.usps.com/UspsToolsRestServices/rest/POLocator/findLocations", "@spider": "usps_collection_boxes", "addr:city": "EPHRATA", "addr:country": "US", "addr:postcode": "17522", "addr:state": "PA", "addr:street_address": "103 W MAIN ST", "amenity": "post_box", "collection_times": "Mo-Sa 08:00", "nsi_id": "unitedstatespostalservice-a77078", "operator": "United States Postal Service", "operator:short": "USPS", "operator:type": "public", "operator:wikidata": "Q668687", "ref": "1752200020"}, "type": "Feature"}
{"geometry": {"coordinates": [-76.1866826, 40.187247], "type": "Point"}, "id": "tmYBY7HUWQ93WsTeb2qkzXW2f58=", "properties": {"@source_uri": "https://tools.usps.com/UspsToolsRestServices/rest/POLocator/findLocations", "@spider": "usps_collection_boxes", "addr:city": "EPHRATA", "addr:country": "US", "addr:postcode": "17522", "addr:state": "PA", "addr:street_address": "108 N READING RD", "amenity": "post_box", "collection_times": "Mo-Sa 10:00", "nsi_id": "unitedstatespostalservice-a77078", "operator": "United States Postal Service", "operator:short": "USPS", "operator:type": "public", "operator:wikidata": "Q668687", "ref": "1752200022"}, "type": "Feature"}
{"geometry": {"coordinates": [-76.1753021, 40.19119], "type": "Point"}, "id": "IuCtMx4JsNqDF1KfKGD62JSrrWA=", "properties": {"@source_uri": "https://tools.usps.com/UspsToolsRestServices/rest/POLocator/findLocations", "@spider": "usps_collection_boxes", "addr:city": "EPHRATA", "addr:country": "US", "addr:postcode": "17522", "addr:state": "PA", "addr:street_address": "363 N READING RD", "amenity": "post_box", "collection_times": "Mo-Sa 09:00", "nsi_id": "unitedstatespostalservice-a77078", "operator": "United States Postal Service", "operator:short": "USPS", "operator:type": "public", "operator:wikidata": "Q668687", "ref": "1752200023"}, "type": "Feature"}
{"geometry": {"coordinates": [-76.1736641, 40.18054], "type": "Point"}, "id": "Omh6uQHZnMZau9Rt0aNYLfV5200=", "properties": {"@source_uri": "https://tools.usps.com/UspsToolsRestServices/rest/POLocator/findLocations", "@spider": "usps_collection_boxes", "addr:city": "EPHRATA", "addr:country": "US", "addr:postcode": "17522", "addr:state": "PA", "addr:street_address": "200 N STATE ST", "amenity": "post_box", "collection_times": "Mo-Sa 08:00", "nsi_id": "unitedstatespostalservice-a77078", "operator": "United States Postal Service", "operator:short": "USPS", "operator:type": "public", "operator:wikidata": "Q668687", "ref": "1752200024"}, "type": "Feature"}
{"geometry": {"coordinates": [-76.2014812, 40.19675], "type": "Point"}, "id": "nK1jkFUtU3afeLNpiMFDcgEB8Wk=", "properties": {"@source_uri": "https://tools.usps.com/UspsToolsRestServices/rest/POLocator/findLocations", "@spider": "usps_collection_boxes", "addr:city": "EPHRATA", "addr:country": "US", "addr:postcode": "17522", "addr:state": "PA", "addr:street_address": "1423 W MAIN ST", "amenity": "post_box", "collection_times": "Mo-Sa 10:00", "nsi_id": "unitedstatespostalservice-a77078", "operator": "United States Postal Service", "operator:short": "USPS", "operator:type": "public", "operator:wikidata": "Q668687", "ref": "1752200025"}, "type": "Feature"}
{"geometry": {"coordinates": [-76.1805966, 40.1777], "type": "Point"}, "id": "Tdk8sOKAkUsyRg3e8ex5sWHBLvs=", "properties": {"@source_uri": "https://tools.usps.com/UspsToolsRestServices/rest/POLocator/findLocations", "@spider": "usps_collection_boxes", "addr:city": "EPHRATA", "addr:country": "US", "addr:postcode": "17522", "addr:state": "PA", "addr:street_address": "141 S STATE ST", "amenity": "post_box", "collection_times": "Mo-Sa 08:30", "nsi_id": "unitedstatespostalservice-a77078", "operator": "United States Postal Service", "operator:short": "USPS", "operator:type": "public", "operator:wikidata": "Q668687", "ref": "1752200026"}, "type": "Feature"}
{"geometry": {"coordinates": [-76.2007005, 40.168524], "type": "Point"}, "id": "dmeOGqwQz9UBb8DuLcbIHGMQClw=", "properties": {"@source_uri": "https://tools.usps.com/UspsToolsRestServices/rest/POLocator/findLocations", "@spider": "usps_collection_boxes", "addr:city": "EPHRATA", "addr:country": "US", "addr:postcode": "17522", "addr:state": "PA", "addr:street_address": "1127 S STATE ST", "amenity": "post_box", "collection_times": "Mo-Sa 08:30", "nsi_id": "unitedstatespostalservice-a77078", "operator": "United States Postal Service", "operator:short": "USPS", "operator:type": "public", "operator:wikidata": "Q668687", "ref": "1752200030"}, "type": "Feature"}
{"geometry": {"coordinates": [-76.1665909, 40.182151], "type": "Point"}, "id": "EmiSE7f7mKWf2lP4xmMASQsvLX4=", "properties": {"@source_uri": "https://tools.usps.com/UspsToolsRestServices/rest/POLocator/findLocations", "@spider": "usps_collection_boxes", "addr:city": "EPHRATA", "addr:country": "US", "addr:postcode": "17522", "addr:state": "PA", "addr:street_address": "468 WASHINGTON AVE", "amenity": "post_box", "collection_times": "Mo-Sa 09:00", "nsi_id": "unitedstatespostalservice-a77078", "operator": "United States Postal Service", "operator:short": "USPS", "operator:type": "public", "operator:wikidata": "Q668687", "ref": "1752200031"}, "type": "Feature"}
{"geometry": {"coordinates": [-76.175143, 40.177023], "type": "Point"}, "id": "pPzR9zBiAVpO3hieS0ev1adWzrI=", "properties": {"@source_uri": "https://tools.usps.com/UspsToolsRestServices/rest/POLocator/findLocations", "@spider": "usps_collection_boxes", "addr:city": "EPHRATA", "addr:country": "US", "addr:postcode": "17522", "addr:state": "PA", "addr:street_address": "129 E MAIN ST", "amenity": "post_box", "collection_times": "Mo-Fr 17:00; Sa 15:00", "indoor": "yes", "note": "ON 12/24 AND 12/31, THIS BOX MAY BE COLLECTED AS EARLY AS 12 NOON.", "nsi_id": "unitedstatespostalservice-a77078", "operator": "United States Postal Service", "operator:short": "USPS", "operator:type": "public", "operator:wikidata": "Q668687", "ref": "1752200036"}, "type": "Feature"}
{"geometry": {"coordinates": [-76.1531042, 40.166686], "type": "Point"}, "id": "Ltevxl42HL-BpK2tqkCWlbfQCqk=", "properties": {"@source_uri": "https://tools.usps.com/UspsToolsRestServices/rest/POLocator/findLocations", "@spider": "usps_collection_boxes", "addr:city": "EPHRATA", "addr:country": "US", "addr:postcode": "17522", "addr:state": "PA", "addr:street_address": "890 E MAIN ST", "amenity": "post_box", "collection_times": "Mo-Sa 10:30", "nsi_id": "unitedstatespostalservice-a77078", "operator": "United States Postal Service", "operator:short": "USPS", "operator:type": "public", "operator:wikidata": "Q668687", "ref": "1752200037"}, "type": "Feature"}
{"geometry": {"coordinates": [-76.1871461, 40.175894], "type": "Point"}, "id": "8cP1ECis-IHicw_n-sDkPeOYD0o=", "properties": {"@source_uri": "https://tools.usps.com/UspsToolsRestServices/rest/POLocator/findLocations", "@spider": "usps_collection_boxes", "addr:city": "EPHRATA", "addr:country": "US", "addr:postcode": "17522", "addr:state": "PA", "addr:street_address": "2 E ORANGE ST", "amenity": "post_box", "collection_times": "Mo-Sa 09:00", "nsi_id": "unitedstatespostalservice-a77078", "operator": "United States Postal Service", "operator:short": "USPS", "operator:type": "public", "operator:wikidata": "Q668687", "ref": "1752200039"}, "type": "Feature"}
{"geometry": {"coordinates": [-76.175112104, 40.176938956], "type": "Point"}, "id": "o2gwno5T_PWxqgpbQOi05vCbrTw=", "properties": {"@source_uri": "https://tools.usps.com/UspsToolsRestServices/rest/POLocator/findLocations", "@spider": "usps_collection_boxes", "addr:city": "EPHRATA", "addr:country": "US", "addr:postcode": "17522", "addr:state": "PA", "addr:street_address": "129 E MAIN ST", "amenity": "post_box", "collection_times": "Mo-Fr 17:15; Sa 12:15", "indoor": "yes", "note": "ON 12/24 AND 12/31, THIS BOX MAY BE COLLECTED AS EARLY AS 12 NOON.", "nsi_id": "unitedstatespostalservice-a77078", "operator": "United States Postal Service", "operator:short": "USPS", "operator:type": "public", "operator:wikidata": "Q668687", "ref": "1752200046"}, "type": "Feature"}
{"geometry": {"coordinates": [-76.017188596, 39.981864038], "type": "Point"}, "id": "ic8iLx2thbbEwvyaFTVFNbLP5wI=", "properties": {"@source_uri": "https://tools.usps.com/UspsToolsRestServices/rest/POLocator/findLocations", "@spider": "usps_collection_boxes", "addr:city": "GAP", "addr:country": "US", "addr:postcode": "17527", "addr:state": "PA", "addr:street_address": "937 ROUTE 41", "amenity": "post_box", "collection_times": "Mo-Fr 16:00; Sa 10:30", "note": "ON 12/24 AND 12/31, THIS BOX MAY BE COLLECTED AS EARLY AS 12 NOON.", "nsi_id": "unitedstatespostalservice-a77078", "operator": "United States Postal Service", "operator:short": "USPS", "operator:type": "public", "operator:wikidata": "Q668687", "ref": "1752700002"}, "type": "Feature"}
{"geometry": {"coordinates": [-76.0170949, 39.990345], "type": "Point"}, "id": "eAXlEl6qJCvH9EXF4RZJsm6RAgM=", "properties": {"@source_uri": "https://tools.usps.com/UspsToolsRestServices/rest/POLocator/findLocations", "@spider": "usps_collection_boxes", "addr:city": "GAP", "addr:country": "US", "addr:postcode": "17527", "addr:state": "PA", "addr:street_address": "5360 LINCOLN HWY", "amenity": "post_box", "collection_times": "Mo-Sa 08:30", "nsi_id": "unitedstatespostalservice-a77078", "operator": "United States Postal Service", "operator:short": "USPS", "operator:type": "public", "operator:wikidata": "Q668687", "ref": "1752700004"}, "type": "Feature"}
{"geometry": {"coordinates": [-76.016769, 39.982088], "type": "Point"}, "id": "_MarhD3znEXoLHv_TMDsXjRPGBE=", "properties": {"@source_uri": "https://tools.usps.com/UspsToolsRestServices/rest/POLocator/findLocations", "@spider": "usps_collection_boxes", "addr:city": "GAP", "addr:country": "US", "addr:postcode": "17527", "addr:state": "PA", "addr:street_address": "937 ROUTE 41", "amenity": "post_box", "collection_times": "Mo-Fr 16:00; Sa 10:30", "indoor": "yes", "note": "ON 12/24 AND 12/31, THIS BOX MAY BE COLLECTED AS EARLY AS 12 NOON.", "nsi_id": "unitedstatespostalservice-a77078", "operator": "United States Postal Service", "operator:short": "USPS", "operator:type": "public", "operator:wikidata": "Q668687", "ref": "1752700005"}, "type": "Feature"}
{"geometry": {"coordinates": [-76.017188596, 39.981864038], "type": "Point"}, "id": "K5xVoLeyYPo3zetayhWHpqE8Lz8=", "properties": {"@source_uri": "https://tools.usps.com/UspsToolsRestServices/rest/POLocator/findLocations", "@spider": "usps_collection_boxes", "addr:city": "GAP", "addr:country": "US", "addr:postcode": "17527", "addr:state": "PA", "addr:street_address": "937 ROUTE 41", "amenity": "post_box", "collection_times": "Mo-Fr 16:00; Sa 10:30", "indoor": "yes", "note": "ON 12/24 AND 12/31, THIS BOX MAY BE COLLECTED AS EARLY AS 12 NOON.", "nsi_id": "unitedstatespostalservice-a77078", "operator": "United States Postal Service", "operator:short": "USPS", "operator:type": "public", "operator:wikidata": "Q668687", "ref": "1752700009"}, "type": "Feature"}
{"geometry": {"coordinates": [-76.002626, 40.12613], "type": "Point"}, "id": "76V1YvoJif9OvgbX60OrpkgJyuY=", "properties": {"@source_uri": "https://tools.usps.com/UspsToolsRestServices/rest/POLocator/findLocations", "@spider": "usps_collection_boxes", "addr:city": "GOODVILLE", "addr:country": "US", "addr:postcode": "17528", "addr:state": "PA", "addr:street_address": "1599 MAIN ST", "amenity": "post_box", "collection_times": "Mo-Fr 12:00; Sa 10:00", "nsi_id": "unitedstatespostalservice-a77078", "operator": "United States Postal Service", "operator:short": "USPS", "operator:type": "public", "operator:wikidata": "Q668687", "ref": "1752800001"}, "type": "Feature"}
{"geometry": {"coordinates": [-76.002626, 40.12613], "type": "Point"}, "id": "NfyGd7sjyI0NHObeFD5x7Iw20LI=", "properties": {"@source_uri": "https://tools.usps.com/UspsToolsRestServices/rest/POLocator/findLocations", "@spider": "usps_collection_boxes", "addr:city": "GOODVILLE", "addr:country": "US", "addr:postcode": "17528", "addr:state": "PA", "addr:street_address": "1599 MAIN ST", "amenity": "post_box", "collection_times": "Mo-Fr 12:00; Sa 10:00", "indoor": "yes", "nsi_id": "unitedstatespostalservice-a77078", "operator": "United States Postal Service", "operator:short": "USPS", "operator:type": "public", "operator:wikidata": "Q668687", "ref": "1752800002"}, "type": "Feature"}
{"geometry": {"coordinates": [-76.002583218, 40.126215138], "type": "Point"}, "id": "HDhS-l-j41jqqmCwZrcm0KtxsvU=", "properties": {"@source_uri": "https://tools.usps.com/UspsToolsRestServices/rest/POLocator/findLocations", "@spider": "usps_collection_boxes", "addr:city": "GOODVILLE", "addr:country": "US", "addr:postcode": "17528", "addr:state": "PA", "addr:street_address": "1599 MAIN ST", "amenity": "post_box", "collection_times": "Mo-Fr 12:05; Sa 10:00", "indoor": "yes", "note": "ON 12/24 AND 12/31, THIS BOX MAY BE COLLECTED AS EARLY AS 12 NOON.", "nsi_id": "unitedstatespostalservice-a77078", "operator": "United States Postal Service", "operator:short": "USPS", "operator:type": "public", "operator:wikidata": "Q668687", "ref": "1752800005"}, "type": "Feature"}
{"geometry": {"coordinates": [-76.135027, 40.019386], "type": "Point"}, "id": "cJ4E6cqeUtvKxqI9rnaAxFSv6KA=", "properties": {"@source_uri": "https://tools.usps.com/UspsToolsRestServices/rest/POLocator/findLocations", "@spider": "usps_collection_boxes", "addr:city": "GORDONVILLE", "addr:country": "US", "addr:postcode": "17529", "addr:state": "PA", "addr:street_address": "3197 IRISHTOWN RD", "amenity": "post_box", "collection_times": "Mo-Fr 15:45; Sa 10:30", "note": "ON 12/24 AND 12/31, THIS BOX MAY BE COLLECTED AS EARLY AS 12 NOON.", "nsi_id": "unitedstatespostalservice-a77078", "operator": "United States Postal Service", "operator:short": "USPS", "operator:type": "public", "operator:wikidata": "Q668687", "ref": "1752900001"}, "type": "Feature"}
{"geometry": {"coordinates": [-76.135149, 40.019371], "type": "Point"}, "id": "27rI8pX4zEjndUJT7g-I1BwQGrw=", "properties": {"@source_uri": "https://tools.usps.com/UspsToolsRestServices/rest/POLocator/findLocations", "@spider": "usps_collection_boxes", "addr:city": "GORDONVILLE", "addr:country": "US", "addr:postcode": "17529", "addr:state": "PA", "addr:street_address": "3197 IRISHTOWN RD", "amenity": "post_box", "collection_times": "Mo-Fr 15:45; Sa 10:30", "indoor": "yes", "note": "ON 12/24 AND 12/31, THIS BOX MAY BE COLLECTED AS EARLY AS 12 NOON.", "nsi_id": "unitedstatespostalservice-a77078", "operator": "United States Postal Service", "operator:short": "USPS", "operator:type": "public", "operator:wikidata": "Q668687", "ref": "1752900002"}, "type": "Feature"}
{"geometry": {"coordinates": [-76.134889048, 40.019362417], "type": "Point"}, "id": "G7T08X_2Btjy3IXiC60E5VKXOds=", "properties": {"@source_uri": "https://tools.usps.com/UspsToolsRestServices/rest/POLocator/findLocations", "@spider": "usps_collection_boxes", "addr:city": "GORDONVILLE", "addr:country": "US", "addr:postcode": "17529", "addr:state": "PA", "addr:street_address": "3197 IRISHTOWN RD", "amenity": "post_box", "collection_times": "Mo-Fr 15:30; Sa 10:00", "indoor": "yes", "note": "ON 12/24 AND 12/31, THIS BOX MAY BE COLLECTED AS EARLY AS 12 NOON.", "nsi_id": "unitedstatespostalservice-a77078", "operator": "United States Postal Service", "operator:short": "USPS", "operator:type": "public", "operator:wikidata": "Q668687", "ref": "1752900004"}, "type": "Feature"}
{"geometry": {"coordinates": [-76.271329, 39.879574], "type": "Point"}, "id": "9NEkJOLroz_DCAEg9LBCITKOjCE=", "properties": {"@source_uri": "https://tools.usps.com/UspsToolsRestServices/rest/POLocator/findLocations", "@spider": "usps_collection_boxes", "addr:city": "HOLTWOOD", "addr:country": "US", "addr:postcode": "17532", "addr:state": "PA", "addr:street_address": "55 DRYTOWN RD", "amenity": "post_box", "collection_times": "Mo-Fr 16:00; Sa 10:00", "note": "ON 12/24 AND 12/31, THIS BOX MAY BE COLLECTED AS EARLY AS 12 NOON.", "nsi_id": "unitedstatespostalservice-a77078", "operator": "United States Postal Service", "operator:short": "USPS", "operator:type": "public", "operator:wikidata": "Q668687", "ref": "1753200001"}, "type": "Feature"}
{"geometry": {"coordinates": [-76.271308, 39.879549], "type": "Point"}, "id": "7DZq3GGwoRCgRHXh8XSPtGrucQk=", "properties": {"@source_uri": "https://tools.usps.com/UspsToolsRestServices/rest/POLocator/findLocations", "@spider": "usps_collection_boxes", "addr:city": "HOLTWOOD", "addr:country": "US", "addr:postcode": "17532", "addr:state": "PA", "addr:street_address": "55 DRYTOWN RD", "amenity": "post_box", "collection_times": "Mo-Fr 16:00; Sa 10:00", "indoor": "yes", "note": "ON 12/24 AND 12/31, THIS BOX MAY BE COLLECTED AS EARLY AS 12 NOON.", "nsi_id": "unitedstatespostalservice-a77078", "operator": "United States Postal Service", "operator:short": "USPS", "operator:type": "public", "operator:wikidata": "Q668687", "ref": "1753200002"}, "type": "Feature"}
{"geometry": {"coordinates": [-76.271345875, 39.879594487], "type": "Point"}, "id": "S85KMLQI-H-ii2I2iJoa3I0PLwU=", "properties": {"@source_uri": "https://tools.usps.com/UspsToolsRestServices/rest/POLocator/findLocations", "@spider": "usps_collection_boxes", "addr:city": "HOLTWOOD", "addr:country": "US", "addr:postcode": "17532", "addr:state": "PA", "addr:street_address": "55 DRYTOWN RD", "amenity": "post_box", "collection_times": "Mo-Fr 16:15; Sa 10:15", "indoor": "yes", "note": "ON 12/24 AND 12/31, THIS BOX MAY BE COLLECTED AS EARLY AS 12 NOON.", "nsi_id": "unitedstatespostalservice-a77078", "operator": "United States Postal Service", "operator:short": "USPS", "operator:type": "public", "operator:wikidata": "Q668687", "ref": "1753200004"}, "type": "Feature"}
{"geometry": {"coordinates": [-76.2635729872, 40.2339781959], "type": "Point"}, "id": "nEkVPkfquKZOVWr3n7oMcOlPoL4=", "properties": {"@source_uri": "https://tools.usps.com/UspsToolsRestServices/rest/POLocator/findLocations", "@spider": "usps_collection_boxes", "addr:city": "HOPELAND", "addr:country": "US", "addr:postcode": "17533", "addr:state": "PA", "addr:street_address": "482 N CLAY ST", "amenity": "post_box", "collection_times": "Mo-Fr 16:15; Sa 10:15", "note": "ON 12/24 AND 12/31, THIS BOX MAY BE COLLECTED AS EARLY AS 12 NOON.", "nsi_id": "unitedstatespostalservice-a77078", "operator": "United States Postal Service", "operator:short": "USPS", "operator:type": "public", "operator:wikidata": "Q668687", "ref": "1753300001"}, "type": "Feature"}
{"geometry": {"coordinates": [-76.40138868, 40.163214358], "type": "Point"}, "id": "mlFTs1eqYAcJqh9OS4t3OptckWE=", "properties": {"@source_uri": "https://tools.usps.com/UspsToolsRestServices/rest/POLocator/findLocations", "@spider": "usps_collection_boxes", "addr:city": "HOPELAND", "addr:country": "US", "addr:postcode": "17533", "addr:state": "PA", "addr:street_address": "482 N CLAY ST", "amenity": "post_box", "collection_times": "Mo-Fr 16:30; Sa 10:30", "indoor": "yes", "note": "ON 12/24 AND 12/31, THIS BOX MAY BE COLLECTED AS EARLY AS 12 NOON.", "nsi_id": "unitedstatespostalservice-a77078", "operator": "United States Postal Service", "operator:short": "USPS", "operator:type": "public", "operator:wikidata": "Q668687", "ref": "1753300004"}, "type": "Feature"}
{"geometry": {"coordinates": [-76.109107, 40.037346], "type": "Point"}, "id": "8MY1RnfDcN5ro13hC-W9eILoHTA=", "properties": {"@source_uri": "https://tools.usps.com/UspsToolsRestServices/rest/POLocator/findLocations", "@spider": "usps_collection_boxes", "addr:city": "INTERCOURSE", "addr:country": "US", "addr:postcode": "17534", "addr:state": "PA", "addr:street_address": "14J CENTER ST", "amenity": "post_box", "collection_times": "Mo-Fr 16:15; Sa 10:45", "note": "ON 12/24 AND 12/31, THIS BOX MAY BE COLLECTED AS EARLY AS 12 NOON.", "nsi_id": "unitedstatespostalservice-a77078", "operator": "United States Postal Service", "operator:short": "USPS", "operator:type": "public", "operator:wikidata": "Q668687", "ref": "1753400001"}, "type": "Feature"}
{"geometry": {"coordinates": [-76.109068, 40.037298], "type": "Point"}, "id": "xSELniyULD9Ccwy3y7XlTJGDd1g=", "properties": {"@source_uri": "https://tools.usps.com/UspsToolsRestServices/rest/POLocator/findLocations", "@spider": "usps_collection_boxes", "addr:city": "INTERCOURSE", "addr:country": "US", "addr:postcode": "17534", "addr:state": "PA", "addr:street_address": "14J CENTER ST", "amenity": "post_box", "collection_times": "Mo-Fr 16:15; Sa 10:45", "indoor": "yes", "note": "ON 12/24 AND 12/31, THIS BOX MAY BE COLLECTED AS EARLY AS 12 NOON.", "nsi_id": "unitedstatespostalservice-a77078", "operator": "United States Postal Service", "operator:short": "USPS", "operator:type": "public", "operator:wikidata": "Q668687", "ref": "1753400003"}, "type": "Feature"}
{"geometry": {"coordinates": [-76.109131181, 40.037356636], "type": "Point"}, "id": "Tsu7DHrE8vWIYCEpmXAUv_QJDlY=", "properties": {"@source_uri": "https://tools.usps.com/UspsToolsRestServices/rest/POLocator/findLocations", "@spider": "usps_collection_boxes", "addr:city": "INTERCOURSE", "addr:country": "US", "addr:postcode": "17534", "addr:state": "PA", "addr:street_address": "14J CENTER ST", "amenity": "post_box", "collection_times": "Mo-Fr 16:30; Sa 11:00", "indoor": "yes", "note": "ON 12/24 AND 12/31, THIS BOX MAY BE COLLECTED AS EARLY AS 12 NOON.", "nsi_id": "unitedstatespostalservice-a77078", "operator": "United States Postal Service", "operator:short": "USPS", "operator:type": "public", "operator:wikidata": "Q668687", "ref": "1753400005"}, "type": "Feature"}
{"geometry": {"coordinates": [-76.062445, 39.998621], "type": "Point"}, "id": "z6_LFP-4Q2PdOkZT-nVYGGmg03Y=", "properties": {"@source_uri": "https://tools.usps.com/UspsToolsRestServices/rest/POLocator/findLocations", "@spider": "usps_collection_boxes", "addr:city": "KINZERS", "addr:country": "US", "addr:postcode": "17535", "addr:state": "PA", "addr:street_address": "3583 LINCOLN HWY E", "amenity": "post_box", "collection_times": "Mo-Fr 16:00; Sa 09:45", "note": "ON 12/24 AND 12/31, THIS BOX MAY BE COLLECTED AS EARLY AS 12 NOON.", "nsi_id": "unitedstatespostalservice-a77078", "operator": "United States Postal Service", "operator:short": "USPS", "operator:type": "public", "operator:wikidata": "Q668687", "ref": "1753500002"}, "type": "Feature"}
{"geometry": {"coordinates": [-76.062381, 39.998586], "type": "Point"}, "id": "gs3AZ8aFp8E_CNcHmszctPPU1wQ=", "properties": {"@source_uri": "https://tools.usps.com/UspsToolsRestServices/rest/POLocator/findLocations", "@spider": "usps_collection_boxes", "addr:city": "KINZERS", "addr:country": "US", "addr:postcode": "17535", "addr:state": "PA", "addr:street_address": "3583 LINCOLN HWY E", "amenity": "post_box", "collection_times": "Mo-Fr 16:00; Sa 09:45", "indoor": "yes", "note": "ON 12/24 AND 12/31, THIS BOX MAY BE COLLECTED AS EARLY AS 12 NOON.", "nsi_id": "unitedstatespostalservice-a77078", "operator": "United States Postal Service", "operator:short": "USPS", "operator:type": "public", "operator:wikidata": "Q668687", "ref": "1753500004"}, "type": "Feature"}
{"geometry": {"coordinates": [-76.062528027, 39.998625399], "type": "Point"}, "id": "zggx3R88hFzL992T7IRJ21_96js=", "properties": {"@source_uri": "https://tools.usps.com/UspsToolsRestServices/rest/POLocator/findLocations", "@spider": "usps_collection_boxes", "addr:city": "KINZERS", "addr:country": "US", "addr:postcode": "17535", "addr:state": "PA", "addr:street_address": "3583 LINCOLN HWY E", "amenity": "post_box", "collection_times": "Mo-Fr 16:00; Sa 10:00", "indoor": "yes", "note": "ON 12/24 AND 12/31, THIS BOX MAY BE COLLECTED AS EARLY AS 12 NOON.", "nsi_id": "unitedstatespostalservice-a77078", "operator": "United States Postal Service", "operator:short": "USPS", "operator:type": "public", "operator:wikidata": "Q668687", "ref": "1753500006"}, "type": "Feature"}
{"geometry": {"coordinates": [-76.0779986, 39.856919], "type": "Point"}, "id": "zPhoKaOq5qvbZlq2y9Ms69MInYk=", "properties": {"@source_uri": "https://tools.usps.com/UspsToolsRestServices/rest/POLocator/findLocations", "@spider": "usps_collection_boxes", "addr:city": "KIRKWOOD", "addr:country": "US", "addr:postcode": "17536", "addr:state": "PA", "addr:street_address": "1713 KIRKWOOD PIKE", "amenity": "post_box", "collection_times": "Mo-Fr 16:15; Sa 11:00", "note": "ON 12/24 AND 12/31, THIS BOX MAY BE COLLECTED AS EARLY AS 12 NOON.", "nsi_id": "unitedstatespostalservice-a77078", "operator": "United States Postal Service", "operator:short": "USPS", "operator:type": "public", "operator:wikidata": "Q668687", "ref": "1753600001"}, "type": "Feature"}
{"geometry": {"coordinates": [-76.0778208, 39.856891], "type": "Point"}, "id": "8TgKaKQYZ8TXSslAu2foFoWAHeo=", "properties": {"@source_uri": "https://tools.usps.com/UspsToolsRestServices/rest/POLocator/findLocations", "@spider": "usps_collection_boxes", "addr:city": "KIRKWOOD", "addr:country": "US", "addr:postcode": "17536", "addr:state": "PA", "addr:street_address": "1713 KIRKWOOD PIKE", "amenity": "post_box", "collection_times": "Mo-Fr 16:15; Sa 11:00", "indoor": "yes", "note": "ON 12/24 AND 12/31, THIS BOX MAY BE COLLECTED AS EARLY AS 12 NOON.", "nsi_id": "unitedstatespostalservice-a77078", "operator": "United States Postal Service", "operator:short": "USPS", "operator:type": "public", "operator:wikidata": "Q668687", "ref": "1753600004"}, "type": "Feature"}
{"geometry": {"coordinates": [-76.077987423, 39.856873787], "type": "Point"}, "id": "bCW9pLe1LcxDDHMuSGOvZFI4NGE=", "properties": {"@source_uri": "https://tools.usps.com/UspsToolsRestServices/rest/POLocator/findLocations", "@spider": "usps_collection_boxes", "addr:city": "KIRKWOOD", "addr:country": "US", "addr:postcode": "17536", "addr:state": "PA", "addr:street_address": "1713 KIRKWOOD PIKE", "amenity": "post_box", "collection_times": "Mo-Fr 16:05; Sa 11:05", "indoor": "yes", "note": "ON 12/24 AND 12/31, THIS BOX MAY BE COLLECTED AS EARLY AS 12 NOON.", "nsi_id": "unitedstatespostalservice-a77078", "operator": "United States Postal Service", "operator:short": "USPS", "operator:type": "public", "operator:wikidata": "Q668687", "ref": "1753600006"}, "type": "Feature"}
{"geometry": {"coordinates": [-76.241091, 39.992669], "type": "Point"}, "id": "h5UGZnLQNnwA7FgLdUQRhEVRRDQ=", "properties": {"@source_uri": "https://tools.usps.com/UspsToolsRestServices/rest/POLocator/findLocations", "@spider": "usps_collection_boxes", "addr:city": "LAMPETER", "addr:country": "US", "addr:postcode": "17537", "addr:state": "PA", "addr:street_address": "1638 LAMPETER RD", "amenity": "post_box", "collection_times": "Mo-Fr 16:00; Sa 11:00", "note": "ON 12/24 AND 12/31, THIS BOX MAY BE COLLECTED AS EARLY AS 12 NOON.", "nsi_id": "unitedstatespostalservice-a77078", "operator": "United States Postal Service", "operator:short": "USPS", "operator:type": "public", "operator:wikidata": "Q668687", "ref": "1753700001"}, "type": "Feature"}
{"geometry": {"coordinates": [-76.241066, 39.992696], "type": "Point"}, "id": "aCokcHkeW4TO-YVGZjTmGZQ_vO0=", "properties": {"@source_uri": "https://tools.usps.com/UspsToolsRestServices/rest/POLocator/findLocations", "@spider": "usps_collection_boxes", "addr:city": "LAMPETER", "addr:country": "US", "addr:postcode": "17537", "addr:state": "PA", "addr:street_address": "1638 LAMPETER RD", "amenity": "post_box", "collection_times": "Mo-Fr 15:45; Sa 10:45", "indoor": "yes", "note": "ON 12/24 AND 12/31, THIS BOX MAY BE COLLECTED AS EARLY AS 12 NOON.", "nsi_id": "unitedstatespostalservice-a77078", "operator": "United States Postal Service", "operator:short": "USPS", "operator:type": "public", "operator:wikidata": "Q668687", "ref": "1753700003"}, "type": "Feature"}
{"geometry": {"coordinates": [-76.240241715, 39.990764798], "type": "Point"}, "id": "mlPYZXaVD-1-vze04W_tel1lEPw=", "properties": {"@source_uri": "https://tools.usps.com/UspsToolsRestServices/rest/POLocator/findLocations", "@spider": "usps_collection_boxes", "addr:city": "LAMPETER", "addr:country": "US", "addr:postcode": "17537", "addr:state": "PA", "addr:street_address": "1638 LAMPETER RD", "amenity": "post_box", "collection_times": "Mo-Fr 16:00; Sa 10:45", "indoor": "yes", "note": "ON 12/24 AND 12/31, THIS BOX MAY BE COLLECTED AS EARLY AS 12 NOON.", "nsi_id": "unitedstatespostalservice-a77078", "operator": "United States Postal Service", "operator:short": "USPS", "operator:type": "public", "operator:wikidata": "Q668687", "ref": "1753700005"}, "type": "Feature"}
{"geometry": {"coordinates": [-76.4122585, 40.095906], "type": "Point"}, "id": "ojx_lz2VoW_WYW8tVF85Px8q0bY=", "properties": {"@source_uri": "https://tools.usps.com/UspsToolsRestServices/rest/POLocator/findLocations", "@spider": "usps_collection_boxes", "addr:city": "LANDISVILLE", "addr:country": "US", "addr:postcode": "17538", "addr:state": "PA", "addr:street_address": "270 MAIN ST", "amenity": "post_box", "collection_times": "Mo-Sa 09:00", "nsi_id": "unitedstatespostalservice-a77078", "operator": "United States Postal Service", "operator:short": "USPS", "operator:type": "public", "operator:wikidata": "Q668687", "ref": "1753800008"}, "type": "Feature"}
{"geometry": {"coordinates": [-76.4087215, 40.094813], "type": "Point"}, "id": "IRaijnQwtLJ4npb6Fz2TB96O0XU=", "properties": {"@source_uri": "https://tools.usps.com/UspsToolsRestServices/rest/POLocator/findLocations", "@spider": "usps_collection_boxes", "addr:city": "LANDISVILLE", "addr:country": "US", "addr:postcode": "17538", "addr:state": "PA", "addr:street_address": "359 MAIN ST", "amenity": "post_box", "collection_times": "Mo-Sa 09:00", "nsi_id": "unitedstatespostalservice-a77078", "operator": "United States Postal Service", "operator:short": "USPS", "operator:type": "public", "operator:wikidata": "Q668687", "ref": "1753800014"}, "type": "Feature"}
{"geometry": {"coordinates": [-76.4141262, 40.095426], "type": "Point"}, "id": "v92JuY-7_HDfcrsZbJtebKJOxeo=", "properties": {"@source_uri": "https://tools.usps.com/UspsToolsRestServices/rest/POLocator/findLocations", "@spider": "usps_collection_boxes", "addr:city": "LANDISVILLE", "addr:country": "US", "addr:postcode": "17538", "addr:state": "PA", "addr:street_address": "241 ELIZABETH ST", "amenity": "post_box", "collection_times": "Mo-Fr 16:30; Sa 12:00", "note": "ON 12/24 AND 12/31, THIS BOX MAY BE COLLECTED AS EARLY AS 12 NOON.", "nsi_id": "unitedstatespostalservice-a77078", "operator": "United States Postal Service", "operator:short": "USPS", "operator:type": "public", "operator:wikidata": "Q668687", "ref": "1753800018"}, "type": "Feature"}
{"geometry": {"coordinates": [-76.4141299, 40.095508], "type": "Point"}, "id": "l99K3uUycN61fo87xfXEiaTc8P4=", "properties": {"@source_uri": "https://tools.usps.com/UspsToolsRestServices/rest/POLocator/findLocations", "@spider": "usps_collection_boxes", "addr:city": "LANDISVILLE", "addr:country": "US", "addr:postcode": "17538", "addr:state": "PA", "addr:street_address": "241 ELIZABETH ST", "amenity": "post_box", "collection_times": "Mo-Fr 16:30; Sa 12:00", "indoor": "yes", "note": "ON 12/24 AND 12/31, THIS BOX MAY BE COLLECTED AS EARLY AS 12 NOON.", "nsi_id": "unitedstatespostalservice-a77078", "operator": "United States Postal Service", "operator:short": "USPS", "operator:type": "public", "operator:wikidata": "Q668687", "ref": "1753800021"}, "type": "Feature"}
{"geometry": {"coordinates": [-76.413986424, 40.095401468], "type": "Point"}, "id": "nBv3Yc5MKgtoJtML1Q4xQMWuy2g=", "properties": {"@source_uri": "https://tools.usps.com/UspsToolsRestServices/rest/POLocator/findLocations", "@spider": "usps_collection_boxes", "addr:city": "LANDISVILLE", "addr:country": "US", "addr:postcode": "17538", "addr:state": "PA", "addr:street_address": "241 ELIZABETH ST", "amenity": "post_box", "collection_times": "Mo-Fr 16:35; Sa 12:05", "indoor": "yes", "note": "ON 12/24 AND 12/31, THIS BOX MAY BE COLLECTED AS EARLY AS 12 NOON.", "nsi_id": "unitedstatespostalservice-a77078", "operator": "United States Postal Service", "operator:short": "USPS", "operator:type": "public", "operator:wikidata": "Q668687", "ref": "1753800024"}, "type": "Feature"}
{"geometry": {"coordinates": [-76.181875, 40.088567], "type": "Point"}, "id": "pEt_WhUxtkoV5nox4Um8e56Yrew=", "properties": {"@source_uri": "https://tools.usps.com/UspsToolsRestServices/rest/POLocator/findLocations", "@spider": "usps_collection_boxes", "addr:city": "LEOLA", "addr:country": "US", "addr:postcode": "17540", "addr:state": "PA", "addr:street_address": "10 E MAIN ST", "amenity": "post_box", "collection_times": "Mo-Fr 16:45; Sa 11:00", "note": "ON 12/24 AND 12/31, THIS BOX MAY BE COLLECTED AS EARLY AS 12 NOON.", "nsi_id": "unitedstatespostalservice-a77078", "operator": "United States Postal Service", "operator:short": "USPS", "operator:type": "public", "operator:wikidata": "Q668687", "ref": "1754000003"}, "type": "Feature"}
{"geometry": {"coordinates": [-76.184829, 40.090382], "type": "Point"}, "id": "WLf3RSEI_Ycd3aV5a75LeJ6ErSc=", "properties": {"@source_uri": "https://tools.usps.com/UspsToolsRestServices/rest/POLocator/findLocations", "@spider": "usps_collection_boxes", "addr:city": "LEOLA", "addr:country": "US", "addr:postcode": "17540", "addr:state": "PA", "addr:street_address": "27 MAGNOLIA DR", "amenity": "post_box", "collection_times": "Mo-Sa 09:30", "nsi_id": "unitedstatespostalservice-a77078", "operator": "United States Postal Service", "operator:short": "USPS", "operator:type": "public", "operator:wikidata": "Q668687", "ref": "1754000014"}, "type": "Feature"}
{"geometry": {"coordinates": [-76.1908899, 40.085955], "type": "Point"}, "id": "4NZSuc26bzaVPJwqDisaG63scZk=", "properties": {"@source_uri": "https://tools.usps.com/UspsToolsRestServices/rest/POLocator/findLocations", "@spider": "usps_collection_boxes", "addr:city": "LEOLA", "addr:country": "US", "addr:postcode": "17540", "addr:state": "PA", "addr:street_address": "10 NEWPORT RD", "amenity": "post_box", "collection_times": "Mo-Sa 09:15", "nsi_id": "unitedstatespostalservice-a77078", "operator": "United States Postal Service", "operator:short": "USPS", "operator:type": "public", "operator:wikidata": "Q668687", "ref": "1754000015"}, "type": "Feature"}
{"geometry": {"coordinates": [-76.2124694, 40.085805], "type": "Point"}, "id": "aFXDremIppisahJoi9DxZz2C6Cw=", "properties": {"@source_uri": "https://tools.usps.com/UspsToolsRestServices/rest/POLocator/findLocations", "@spider": "usps_collection_boxes", "addr:city": "LEOLA", "addr:country": "US", "addr:postcode": "17540", "addr:state": "PA", "addr:street_address": "1 HOLLY DR", "amenity": "post_box", "collection_times": "Mo-Sa 09:15", "nsi_id": "unitedstatespostalservice-a77078", "operator": "United States Postal Service", "operator:short": "USPS", "operator:type": "public", "operator:wikidata": "Q668687", "ref": "1754000016"}, "type": "Feature"}
{"geometry": {"coordinates": [-76.181884, 40.088594], "type": "Point"}, "id": "hFurmk9Vp7IV7Xf28OkQLNMjSkM=", "properties": {"@source_uri": "https://tools.usps.com/UspsToolsRestServices/rest/POLocator/findLocations", "@spider": "usps_collection_boxes", "addr:city": "LEOLA", "addr:country": "US", "addr:postcode": "17540", "addr:state": "PA", "addr:street_address": "10 E MAIN ST", "amenity": "post_box", "collection_times": "Mo-Fr 16:45; Sa 11:00", "indoor": "yes", "note": "ON 12/24 AND 12/31, THIS BOX MAY BE COLLECTED AS EARLY AS 12 NOON.", "nsi_id": "unitedstatespostalservice-a77078", "operator": "United States Postal Service", "operator:short": "USPS", "operator:type": "public", "operator:wikidata": "Q668687", "ref": "1754000024"}, "type": "Feature"}
{"geometry": {"coordinates": [-76.181818799, 40.088570838], "type": "Point"}, "id": "GAz7V4KF-tEYziJ0Ywc5NlfVbo8=", "properties": {"@source_uri": "https://tools.usps.com/UspsToolsRestServices/rest/POLocator/findLocations", "@spider": "usps_collection_boxes", "addr:city": "LEOLA", "addr:country": "US", "addr:postcode": "17540", "addr:state": "PA", "addr:street_address": "10 E MAIN ST", "amenity": "post_box", "collection_times": "Mo-Fr 16:35; Sa 11:05", "indoor": "yes", "note": "ON 12/24 AND 12/31, THIS BOX MAY BE COLLECTED AS EARLY AS 12 NOON.", "nsi_id": "unitedstatespostalservice-a77078", "operator": "United States Postal Service", "operator:short": "USPS", "operator:type": "public", "operator:wikidata": "Q668687", "ref": "1754000026"}, "type": "Feature"}
{"geometry": {"coordinates": [-76.3046904, 40.156738], "type": "Point"}, "id": "4OwoMCvuUe-OZXrSFieZPsDTkmk=", "properties": {"@source_uri": "https://tools.usps.com/UspsToolsRestServices/rest/POLocator/findLocations", "@spider": "usps_collection_boxes", "addr:city": "LITITZ", "addr:country": "US", "addr:postcode": "17543", "addr:state": "PA", "addr:street_address": "74 E MAIN ST", "amenity": "post_box", "collection_times": "Mo-Fr 16:45; Sa 11:45", "note": "ON 12/24 AND 12/31, THIS BOX MAY BE COLLECTED AS EARLY AS 12 NOON.", "nsi_id": "unitedstatespostalservice-a77078", "operator": "United States Postal Service", "operator:short": "USPS", "operator:type": "public", "operator:wikidata": "Q668687", "ref": "1754300025"}, "type": "Feature"}
{"geometry": {"coordinates": [-76.3071766, 40.155571], "type": "Point"}, "id": "5GTaNMf9z-SMLF9SWcTCFXduAq8=", "properties": {"@source_uri": "https://tools.usps.com/UspsToolsRestServices/rest/POLocator/findLocations", "@spider": "usps_collection_boxes", "addr:city": "LITITZ", "addr:country": "US", "addr:postcode": "17543", "addr:state": "PA", "addr:street_address": "47 S BROAD ST", "amenity": "post_box", "collection_times": "Mo-Sa 09:00", "nsi_id": "unitedstatespostalservice-a77078", "operator": "United States Postal Service", "operator:short": "USPS", "operator:type": "public", "operator:wikidata": "Q668687", "ref": "1754300049"}, "type": "Feature"}
{"geometry": {"coordinates": [-76.3051254, 40.141827], "type": "Point"}, "id": "mmi0ac-VEw-hak1cizjrIdjMq-I=", "properties": {"@source_uri": "https://tools.usps.com/UspsToolsRestServices/rest/POLocator/findLocations", "@spider": "usps_collection_boxes", "addr:city": "LITITZ", "addr:country": "US", "addr:postcode": "17543", "addr:state": "PA", "addr:street_address": "740 S BROAD ST", "amenity": "post_box", "collection_times": "Mo-Sa 09:00", "nsi_id": "unitedstatespostalservice-a77078", "operator": "United States Postal Service", "operator:short": "USPS", "operator:type": "public", "operator:wikidata": "Q668687", "ref": "1754300051"}, "type": "Feature"}
{"geometry": {"coordinates": [-76.3077266, 40.173811], "type": "Point"}, "id": "aNiSWA689x_pNi0FWRL4A7Ao7xA=", "properties": {"@source_uri": "https://tools.usps.com/UspsToolsRestServices/rest/POLocator/findLocations", "@spider": "usps_collection_boxes", "addr:city": "LITITZ", "addr:country": "US", "addr:postcode": "17543", "addr:state": "PA", "addr:street_address": "20 COPPERFIELD CIR", "amenity": "post_box", "collection_times": "Mo-Sa 09:00", "nsi_id": "unitedstatespostalservice-a77078", "operator": "United States Postal Service", "operator:short": "USPS", "operator:type": "public", "operator:wikidata": "Q668687", "ref": "1754300065"}, "type": "Feature"}
{"geometry": {"coordinates": [-76.3071781, 40.127582], "type": "Point"}, "id": "MHjEr1xywhkA8tVAww99S4GF-wo=", "properties": {"@source_uri": "https://tools.usps.com/UspsToolsRestServices/rest/POLocator/findLocations", "@spider": "usps_collection_boxes", "addr:city": "LITITZ", "addr:country": "US", "addr:postcode": "17543", "addr:state": "PA", "addr:street_address": "1050 LITITZ PIKE", "amenity": "post_box", "collection_times": "Mo-Fr 10:00; Sa 09:30", "nsi_id": "unitedstatespostalservice-a77078", "operator": "United States Postal Service", "operator:short": "USPS", "operator:type": "public", "operator:wikidata": "Q668687", "ref": "1754300068"}, "type": "Feature"}
{"geometry": {"coordinates": [-76.3087909, 40.116402], "type": "Point"}, "id": "QGtRmmSKfAn4N_Uzl1RZD6i1y0k=", "properties": {"@source_uri": "https://tools.usps.com/UspsToolsRestServices/rest/POLocator/findLocations", "@spider": "usps_collection_boxes", "addr:city": "LITITZ", "addr:country": "US", "addr:postcode": "17543", "addr:state": "PA", "addr:street_address": "118 W AIRPORT RD", "amenity": "post_box", "collection_times": "Mo-Sa 09:00", "nsi_id": "unitedstatespostalservice-a77078", "operator": "United States Postal Service", "operator:short": "USPS", "operator:type": "public", "operator:wikidata": "Q668687", "ref": "1754300070"}, "type": "Feature"}
{"geometry": {"coordinates": [-76.3046339, 40.156623], "type": "Point"}, "id": "LPkcMnMwpU28ZRUPE8t5BVGBxZE=", "properties": {"@source_uri": "https://tools.usps.com/UspsToolsRestServices/rest/POLocator/findLocations", "@spider": "usps_collection_boxes", "addr:city": "LITITZ", "addr:country": "US", "addr:postcode": "17543", "addr:state": "PA", "addr:street_address": "74 E MAIN ST", "amenity": "post_box", "collection_times": "Mo-Fr 17:00; Sa 12:00", "indoor": "yes", "note": "ON 12/24 AND 12/31, THIS BOX MAY BE COLLECTED AS EARLY AS 12 NOON.", "nsi_id": "unitedstatespostalservice-a77078", "operator": "United States Postal Service", "operator:short": "USPS", "operator:type": "public", "operator:wikidata": "Q668687", "ref": "1754300076"}, "type": "Feature"}
{"geometry": {"coordinates": [-76.3111318, 40.1672], "type": "Point"}, "id": "NyE6jZBCEYnXRaGRJYWsbwm8qmM=", "properties": {"@source_uri": "https://tools.usps.com/UspsToolsRestServices/rest/POLocator/findLocations", "@spider": "usps_collection_boxes", "addr:city": "LITITZ", "addr:country": "US", "addr:postcode": "17543", "addr:state": "PA", "addr:street_address": "2 DANBURY DR", "amenity": "post_box", "collection_times": "Mo-Sa 09:00", "nsi_id": "unitedstatespostalservice-a77078", "operator": "United States Postal Service", "operator:short": "USPS", "operator:type": "public", "operator:wikidata": "Q668687", "ref": "1754300078"}, "type": "Feature"}
{"geometry": {"coordinates": [-76.3043049, 40.136718], "type": "Point"}, "id": "irFolphPTLzM88jZTsM3JGnyA_w=", "properties": {"@source_uri": "https://tools.usps.com/UspsToolsRestServices/rest/POLocator/findLocations", "@spider": "usps_collection_boxes", "addr:city": "LITITZ", "addr:country": "US", "addr:postcode": "17543", "addr:state": "PA", "addr:street_address": "100 HIGHLANDS DR", "amenity": "post_box", "collection_times": "Mo-Sa 09:00", "nsi_id": "unitedstatespostalservice-a77078", "operator": "United States Postal Service", "operator:short": "USPS", "operator:type": "public", "operator:wikidata": "Q668687", "ref": "1754300083"}, "type": "Feature"}
{"geometry": {"coordinates": [-76.3073596, 40.130745], "type": "Point"}, "id": "dLYgOxrUV3K_5njdNt_H3gikkOU=", "properties": {"@source_uri": "https://tools.usps.com/UspsToolsRestServices/rest/POLocator/findLocations", "@spider": "usps_collection_boxes", "addr:city": "LITITZ", "addr:country": "US", "addr:postcode": "17543", "addr:state": "PA", "addr:street_address": "1002 LITITZ PIKE", "amenity": "post_box", "collection_times": "Mo-Sa 10:00", "nsi_id": "unitedstatespostalservice-a77078", "operator": "United States Postal Service", "operator:short": "USPS", "operator:type": "public", "operator:wikidata": "Q668687", "ref": "1754300084"}, "type": "Feature"}
{"geometry": {"coordinates": [-76.304636365, 40.156757762], "type": "Point"}, "id": "NzrV741Jyjq2iTaZ_D_kQSdD85s=", "properties": {"@source_uri": "https://tools.usps.com/UspsToolsRestServices/rest/POLocator/findLocations", "@spider": "usps_collection_boxes", "addr:city": "LITITZ", "addr:country": "US", "addr:postcode": "17543", "addr:state": "PA", "addr:street_address": "74 E MAIN ST", "amenity": "post_box", "collection_times": "Mo-Fr 17:15; Sa 12:00", "indoor": "yes", "note": "ON 12/24 AND 12/31, THIS BOX MAY BE COLLECTED AS EARLY AS 12 NOON.", "nsi_id": "unitedstatespostalservice-a77078", "operator": "United States Postal Service", "operator:short": "USPS", "operator:type": "public", "operator:wikidata": "Q668687", "ref": "1754300090"}, "type": "Feature"}
{"geometry": {"coordinates": [-76.4403982, 40.24693], "type": "Point"}, "id": "clGX59sCvZPkf6uMuSLcrHuaZdI=", "properties": {"@source_uri": "https://tools.usps.com/UspsToolsRestServices/rest/POLocator/findLocations", "@spider": "usps_collection_boxes", "addr:city": "MANHEIM", "addr:country": "US", "addr:postcode": "17545", "addr:state": "PA", "addr:street_address": "200 MAPLE AVE", "amenity": "post_box", "collection_times": "Mo-Sa 09:00", "nsi_id": "unitedstatespostalservice-a77078", "operator": "United States Postal Service", "operator:short": "USPS", "operator:type": "public", "operator:wikidata": "Q668687", "ref": "1754500024"}, "type": "Feature"}
{"geometry": {"coordinates": [-76.3955623, 40.163738], "type": "Point"}, "id": "sw6S11XdBGp8wq77svnFyY97ppU=", "properties": {"@source_uri": "https://tools.usps.com/UspsToolsRestServices/rest/POLocator/findLocations", "@spider": "usps_collection_boxes", "addr:city": "MANHEIM", "addr:country": "US", "addr:postcode": "17545", "addr:state": "PA", "addr:street_address": "2 MARKET SQ", "amenity": "post_box", "collection_times": "Mo-Sa 14:15", "note": "ON 12/24 AND 12/31, THIS BOX MAY BE COLLECTED AS EARLY AS 12 NOON.", "nsi_id": "unitedstatespostalservice-a77078", "operator": "United States Postal Service", "operator:short": "USPS", "operator:type": "public", "operator:wikidata": "Q668687", "ref": "1754500027"}, "type": "Feature"}
{"geometry": {"coordinates": [-76.3848571, 40.171437], "type": "Point"}, "id": "Tag00a_pk3oyaBgHhDoTMD07UxE=", "properties": {"@source_uri": "https://tools.usps.com/UspsToolsRestServices/rest/POLocator/findLocations", "@spider": "usps_collection_boxes", "addr:city": "MANHEIM", "addr:country": "US", "addr:postcode": "17545", "addr:state": "PA", "addr:street_address": "75 DOE RUN RD", "amenity": "post_box", "collection_times": "Mo-Sa 13:45", "note": "ON 12/24 AND 12/31, THIS BOX MAY BE COLLECTED AS EARLY AS 12 NOON.", "nsi_id": "unitedstatespostalservice-a77078", "operator": "United States Postal Service", "operator:short": "USPS", "operator:type": "public", "operator:wikidata": "Q668687", "ref": "1754500032"}, "type": "Feature"}
{"geometry": {"coordinates": [-76.4027673, 40.165628], "type": "Point"}, "id": "cOJ_kV1V64pDzVD_ZCIOVx6OvdQ=", "properties": {"@source_uri": "https://tools.usps.com/UspsToolsRestServices/rest/POLocator/findLocations", "@spider": "usps_collection_boxes", "addr:city": "MANHEIM", "addr:country": "US", "addr:postcode": "17545", "addr:state": "PA", "addr:street_address": "178 N GRANT ST", "amenity": "post_box", "collection_times": "Mo-Sa 10:30", "nsi_id": "unitedstatespostalservice-a77078", "operator": "United States Postal Service", "operator:short": "USPS", "operator:type": "public", "operator:wikidata": "Q668687", "ref": "1754500036"}, "type": "Feature"}
{"geometry": {"coordinates": [-76.3947078, 40.160942], "type": "Point"}, "id": "p9aTFNfFgs43Ysan_d32VmanuW8=", "properties": {"@source_uri": "https://tools.usps.com/UspsToolsRestServices/rest/POLocator/findLocations", "@spider": "usps_collection_boxes", "addr:city": "MANHEIM", "addr:country": "US", "addr:postcode": "17545", "addr:state": "PA", "addr:street_address": "44 W FERDINAND ST", "amenity": "post_box", "collection_times": "Mo-Sa 10:30", "nsi_id": "unitedstatespostalservice-a77078", "operator": "United States Postal Service", "operator:short": "USPS", "operator:type": "public", "operator:wikidata": "Q668687", "ref": "1754500044"}, "type": "Feature"}
{"geometry": {"coordinates": [-76.3940207, 40.162785], "type": "Point"}, "id": "kJWK-eMAXQj_EJBMkZ2jeEy2eYc=", "properties": {"@source_uri": "https://tools.usps.com/UspsToolsRestServices/rest/POLocator/findLocations", "@spider": "usps_collection_boxes", "addr:city": "MANHEIM", "addr:country": "US", "addr:postcode": "17545", "addr:state": "PA", "addr:street_address": "47 S MAIN ST", "amenity": "post_box", "collection_times": "Mo-Fr 17:00; Sa 15:00", "note": "ON 12/24 AND 12/31, THIS BOX MAY BE COLLECTED AS EARLY AS 12 NOON.", "nsi_id": "unitedstatespostalservice-a77078", "operator": "United States Postal Service", "operator:short": "USPS", "operator:type": "public", "operator:wikidata": "Q668687", "ref": "1754500046"}, "type": "Feature"}
{"geometry": {"coordinates": [-76.3935579, 40.163285], "type": "Point"}, "id": "G-6U6YM1cW1T5gD3UT5h2A6wAh4=", "properties": {"@source_uri": "https://tools.usps.com/UspsToolsRestServices/rest/POLocator/findLocations", "@spider": "usps_collection_boxes", "addr:city": "MANHEIM", "addr:country": "US", "addr:postcode": "17545", "addr:state": "PA", "addr:street_address": "1 LOGAN AVE", "amenity": "post_box", "collection_times": "Mo-Sa 09:00", "nsi_id": "unitedstatespostalservice-a77078", "operator": "United States Postal Service", "operator:short": "USPS", "operator:type": "public", "operator:wikidata": "Q668687", "ref": "1754500047"}, "type": "Feature"}
{"geometry": {"coordinates": [-76.3934499, 40.163409], "type": "Point"}, "id": "f58smq4Od7DpGiCoZ7kPd9EEUp0=", "properties": {"@source_uri": "https://tools.usps.com/UspsToolsRestServices/rest/POLocator/findLocations", "@spider": "usps_collection_boxes", "addr:city": "MANHEIM", "addr:country": "US", "addr:postcode": "17545", "addr:state": "PA", "addr:street_address": "46 S WOLF ST", "amenity": "post_box", "collection_times": "Mo-Fr 17:00; Sa 15:00", "note": "ON 12/24 AND 12/31, THIS BOX MAY BE COLLECTED AS EARLY AS 12 NOON.", "nsi_id": "unitedstatespostalservice-a77078", "operator": "United States Postal Service", "operator:short": "USPS", "operator:type": "public", "operator:wikidata": "Q668687", "ref": "1754500049"}, "type": "Feature"}
{"geometry": {"coordinates": [-76.3939467, 40.162874], "type": "Point"}, "id": "RZ3VfwAYB2TTJzekRPnVZnlM-nY=", "properties": {"@source_uri": "https://tools.usps.com/UspsToolsRestServices/rest/POLocator/findLocations", "@spider": "usps_collection_boxes", "addr:city": "MANHEIM", "addr:country": "US", "addr:postcode": "17545", "addr:state": "PA", "addr:street_address": "47 S MAIN ST", "amenity": "post_box", "collection_times": "Mo-Fr 17:00; Sa 15:00", "indoor": "yes", "note": "ON 12/24 AND 12/31, THIS BOX MAY BE COLLECTED AS EARLY AS 12 NOON.", "nsi_id": "unitedstatespostalservice-a77078", "operator": "United States Postal Service", "operator:short": "USPS", "operator:type": "public", "operator:wikidata": "Q668687", "ref": "1754500052"}, "type": "Feature"}
{"geometry": {"coordinates": [-76.393981449, 40.162756566], "type": "Point"}, "id": "0KL5qH3WfQkQMKqCFiii-IKJzjI=", "properties": {"@source_uri": "https://tools.usps.com/UspsToolsRestServices/rest/POLocator/findLocations", "@spider": "usps_collection_boxes", "addr:city": "MANHEIM", "addr:country": "US", "addr:postcode": "17545", "addr:state": "PA", "addr:street_address": "47 S MAIN ST", "amenity": "post_box", "collection_times": "Mo-Fr 16:45; Sa 12:15", "indoor": "yes", "note": "ON 12/24 AND 12/31, THIS BOX MAY BE COLLECTED AS EARLY AS 12 NOON.", "nsi_id": "unitedstatespostalservice-a77078", "operator": "United States Postal Service", "operator:short": "USPS", "operator:type": "public", "operator:wikidata": "Q668687", "ref": "1754500057"}, "type": "Feature"}
{"geometry": {"coordinates": [-76.552336, 40.057436], "type": "Point"}, "id": "bvD_Kr1fRxsHJIKJ_jY_ntAQ7eo=", "properties": {"@source_uri": "https://tools.usps.com/UspsToolsRestServices/rest/POLocator/findLocations", "@spider": "usps_collection_boxes", "addr:city": "MARIETTA", "addr:country": "US", "addr:postcode": "17547", "addr:state": "PA", "addr:street_address": "16 N NEW HAVEN ST", "amenity": "post_box", "collection_times": "Mo-Fr 16:30; Sa 11:30", "note": "ON 12/24 AND 12/31, THIS BOX MAY BE COLLECTED AS EARLY AS 12 NOON.", "nsi_id": "unitedstatespostalservice-a77078", "operator": "United States Postal Service", "operator:short": "USPS", "operator:type": "public", "operator:wikidata": "Q668687", "ref": "1754700008"}, "type": "Feature"}
{"geometry": {"coordinates": [-76.5523033, 40.05764], "type": "Point"}, "id": "naUCIKLlqQHJ1DwElSddZ9PnH2s=", "properties": {"@source_uri": "https://tools.usps.com/UspsToolsRestServices/rest/POLocator/findLocations", "@spider": "usps_collection_boxes", "addr:city": "MARIETTA", "addr:country": "US", "addr:postcode": "17547", "addr:state": "PA", "addr:street_address": "16 N NEW HAVEN ST", "amenity": "post_box", "collection_times": "Mo-Fr 16:30; Sa 11:30", "indoor": "yes", "note": "ON 12/24 AND 12/31, THIS BOX MAY BE COLLECTED AS EARLY AS 12 NOON.", "nsi_id": "unitedstatespostalservice-a77078", "operator": "United States Postal Service", "operator:short": "USPS", "operator:type": "public", "operator:wikidata": "Q668687", "ref": "1754700010"}, "type": "Feature"}
{"geometry": {"coordinates": [-76.552449913, 40.057693124], "type": "Point"}, "id": "kosyp-VTdybwfrS7wtQ95DTNNRo=", "properties": {"@source_uri": "https://tools.usps.com/UspsToolsRestServices/rest/POLocator/findLocations", "@spider": "usps_collection_boxes", "addr:city": "MARIETTA", "addr:country": "US", "addr:postcode": "17547", "addr:state": "PA", "addr:street_address": "16 N NEW HAVEN ST", "amenity": "post_box", "collection_times": "Mo-Fr 16:35; Sa 11:35", "indoor": "yes", "note": "ON 12/24 AND 12/31, THIS BOX MAY BE COLLECTED AS EARLY AS 12 NOON.", "nsi_id": "unitedstatespostalservice-a77078", "operator": "United States Postal Service", "operator:short": "USPS", "operator:type": "public", "operator:wikidata": "Q668687", "ref": "1754700012"}, "type": "Feature"}
{"geometry": {"coordinates": [-76.5825979582, 40.0753929792], "type": "Point"}, "id": "fi3-169AiLgfkZ5EZvPTvyhfZWs=", "properties": {"@source_uri": "https://tools.usps.com/UspsToolsRestServices/rest/POLocator/findLocations", "@spider": "usps_collection_boxes", "addr:city": "MAYTOWN", "addr:country": "US", "addr:postcode": "17550", "addr:state": "PA", "addr:street_address": "1 W HIGH ST", "amenity": "post_box", "collection_times": "Mo-Fr 16:15; Sa 10:30", "note": "ON 12/24 AND 12/31, THIS BOX MAY BE COLLECTED AS EARLY AS 12 NOON.", "nsi_id": "unitedstatespostalservice-a77078", "operator": "United States Postal Service", "operator:short": "USPS", "operator:type": "public", "operator:wikidata": "Q668687", "ref": "1755000002"}, "type": "Feature"}
{"geometry": {"coordinates": [-76.582211, 40.07535], "type": "Point"}, "id": "Dzm24R3UCkaGUofpuZaehACbARo=", "properties": {"@source_uri": "https://tools.usps.com/UspsToolsRestServices/rest/POLocator/findLocations", "@spider": "usps_collection_boxes", "addr:city": "MAYTOWN", "addr:country": "US", "addr:postcode": "17550", "addr:state": "PA", "addr:street_address": "1 W HIGH ST", "amenity": "post_box", "collection_times": "Mo-Fr 16:15; Sa 10:30", "indoor": "yes", "note": "ON 12/24 AND 12/31, THIS BOX MAY BE COLLECTED AS EARLY AS 12 NOON.", "nsi_id": "unitedstatespostalservice-a77078", "operator": "United States Postal Service", "operator:short": "USPS", "operator:type": "public", "operator:wikidata": "Q668687", "ref": "1755000003"}, "type": "Feature"}
{"geometry": {"coordinates": [-76.582534399, 40.075221853], "type": "Point"}, "id": "sbMpaPRldW4L9GOtnXAwVspUtnQ=", "properties": {"@source_uri": "https://tools.usps.com/UspsToolsRestServices/rest/POLocator/findLocations", "@spider": "usps_collection_boxes", "addr:city": "MAYTOWN", "addr:country": "US", "addr:postcode": "17550", "addr:state": "PA", "addr:street_address": "1 W HIGH ST", "amenity": "post_box", "collection_times": "Mo-Fr 16:30; Sa 10:30", "indoor": "yes", "note": "ON 12/24 AND 12/31, THIS BOX MAY BE COLLECTED AS EARLY AS 12 NOON.", "nsi_id": "unitedstatespostalservice-a77078", "operator": "United States Postal Service", "operator:short": "USPS", "operator:type": "public", "operator:wikidata": "Q668687", "ref": "1755000005"}, "type": "Feature"}
{"geometry": {"coordinates": [-76.3457722, 40.010515], "type": "Point"}, "id": "Op24n1nkEWd9ijxTQSgl3qh1wT0=", "properties": {"@source_uri": "https://tools.usps.com/UspsToolsRestServices/rest/POLocator/findLocations", "@spider": "usps_collection_boxes", "addr:city": "MILLERSVILLE", "addr:country": "US", "addr:postcode": "17551", "addr:state": "PA", "addr:street_address": "101 WABANK RD", "amenity": "post_box", "collection_times": "Mo-Sa 11:00", "nsi_id": "unitedstatespostalservice-a77078", "operator": "United States Postal Service", "operator:short": "USPS", "operator:type": "public", "operator:wikidata": "Q668687", "ref": "1755100010"}, "type": "Feature"}
{"geometry": {"coordinates": [-76.358393, 40.009713], "type": "Point"}, "id": "9K6vdSE4IAPThifJRy7sTxB5WgA=", "properties": {"@source_uri": "https://tools.usps.com/UspsToolsRestServices/rest/POLocator/findLocations", "@spider": "usps_collection_boxes", "addr:city": "MILLERSVILLE", "addr:country": "US", "addr:postcode": "17551", "addr:state": "PA", "addr:street_address": "25 MANOR AVE", "amenity": "post_box", "collection_times": "Mo-Sa 09:15", "nsi_id": "unitedstatespostalservice-a77078", "operator": "United States Postal Service", "operator:short": "USPS", "operator:type": "public", "operator:wikidata": "Q668687", "ref": "1755100015"}, "type": "Feature"}
{"geometry": {"coordinates": [-76.357779, 40.006156], "type": "Point"}, "id": "LBkWgvOmrhZFkWwgEjH5kFRyQTw=", "properties": {"@source_uri": "https://tools.usps.com/UspsToolsRestServices/rest/POLocator/findLocations", "@spider": "usps_collection_boxes", "addr:city": "MILLERSVILLE", "addr:country": "US", "addr:postcode": "17551", "addr:state": "PA", "addr:street_address": "431 N GEORGE ST", "amenity": "post_box", "collection_times": "Mo-Fr 16:30; Sa 11:30", "indoor": "yes", "note": "ON 12/24 AND 12/31, THIS BOX MAY BE COLLECTED AS EARLY AS 12 NOON.", "nsi_id": "unitedstatespostalservice-a77078", "operator": "United States Postal Service", "operator:short": "USPS", "operator:type": "public", "operator:wikidata": "Q668687", "ref": "1755100025"}, "type": "Feature"}
{"geometry": {"coordinates": [-76.35772, 40.006104], "type": "Point"}, "id": "SRUkw8KnUDJUCIipKD46NJe0Nbo=", "properties": {"@source_uri": "https://tools.usps.com/UspsToolsRestServices/rest/POLocator/findLocations", "@spider": "usps_collection_boxes", "addr:city": "MILLERSVILLE", "addr:country": "US", "addr:postcode": "17551", "addr:state": "PA", "addr:street_address": "431 N GEORGE ST", "amenity": "post_box", "collection_times": "Mo-Fr 16:30; Sa 11:30", "note": "ON 12/24 AND 12/31, THIS BOX MAY BE COLLECTED AS EARLY AS 12 NOON.", "nsi_id": "unitedstatespostalservice-a77078", "operator": "United States Postal Service", "operator:short": "USPS", "operator:type": "public", "operator:wikidata": "Q668687", "ref": "1755100029"}, "type": "Feature"}
{"geometry": {"coordinates": [-76.357843701, 40.006282465], "type": "Point"}, "id": "lJIshFNIRwI5cUhV7EINMEwpor0=", "properties": {"@source_uri": "https://tools.usps.com/UspsToolsRestServices/rest/POLocator/findLocations", "@spider": "usps_collection_boxes", "addr:city": "MILLERSVILLE", "addr:country": "US", "addr:postcode": "17551", "addr:state": "PA", "addr:street_address": "431 N GEORGE ST", "amenity": "post_box", "collection_times": "Mo-Fr 16:30; Sa 11:35", "indoor": "yes", "note": "ON 12/24 AND 12/31, THIS BOX MAY BE COLLECTED AS EARLY AS 12 NOON.", "nsi_id": "unitedstatespostalservice-a77078", "operator": "United States Postal Service", "operator:short": "USPS", "operator:type": "public", "operator:wikidata": "Q668687", "ref": "1755100031"}, "type": "Feature"}
{"geometry": {"coordinates": [-76.5149531, 40.113142], "type": "Point"}, "id": "_mcer5f1frPkTrjNsM5qQYyBd6I=", "properties": {"@source_uri": "https://tools.usps.com/UspsToolsRestServices/rest/POLocator/findLocations", "@spider": "usps_collection_boxes", "addr:city": "MOUNT JOY", "addr:country": "US", "addr:postcode": "17552", "addr:state": "PA", "addr:street_address": "441 W MAIN ST", "amenity": "post_box", "collection_times": "Mo-Sa 09:00", "nsi_id": "unitedstatespostalservice-a77078", "operator": "United States Postal Service", "operator:short": "USPS", "operator:type": "public", "operator:wikidata": "Q668687", "ref": "1755200022"}, "type": "Feature"}
{"geometry": {"coordinates": [-76.5028508, 40.110369], "type": "Point"}, "id": "rE2TKfIw9iuCIdoaKdAR2Mpf8k4=", "properties": {"@source_uri": "https://tools.usps.com/UspsToolsRestServices/rest/POLocator/findLocations", "@spider": "usps_collection_boxes", "addr:city": "MOUNT JOY", "addr:country": "US", "addr:postcode": "17552", "addr:state": "PA", "addr:street_address": "1 E MAIN ST", "amenity": "post_box", "collection_times": "Mo-Fr 16:45; Sa 15:00", "note": "ON 12/24 AND 12/31, THIS BOX MAY BE COLLECTED AS EARLY AS 12 NOON.", "nsi_id": "unitedstatespostalservice-a77078", "operator": "United States Postal Service", "operator:short": "USPS", "operator:type": "public", "operator:wikidata": "Q668687", "ref": "1755200032"}, "type": "Feature"}
{"geometry": {"coordinates": [-76.4983687, 40.10934], "type": "Point"}, "id": "sjzH1QNXPAPW5FIhdTqPT-ykUDA=", "properties": {"@source_uri": "https://tools.usps.com/UspsToolsRestServices/rest/POLocator/findLocations", "@spider": "usps_collection_boxes", "addr:city": "MOUNT JOY", "addr:country": "US", "addr:postcode": "17552", "addr:state": "PA", "addr:street_address": "101 E MAIN ST", "amenity": "post_box", "collection_times": "Mo-Sa 08:30", "nsi_id": "unitedstatespostalservice-a77078", "operator": "United States Postal Service", "operator:short": "USPS", "operator:type": "public", "operator:wikidata": "Q668687", "ref": "1755200034"}, "type": "Feature"}
{"geometry": {"coordinates": [-76.5030073, 40.110058], "type": "Point"}, "id": "oJ0nD5Z2VVazpyB3IK5_TRvHK_c=", "properties": {"@source_uri": "https://tools.usps.com/UspsToolsRestServices/rest/POLocator/findLocations", "@spider": "usps_collection_boxes", "addr:city": "MOUNT JOY", "addr:country": "US", "addr:postcode": "17552", "addr:state": "PA", "addr:street_address": "1 E MAIN ST", "amenity": "post_box", "collection_times": "Mo-Fr 16:45; Sa 15:00", "indoor": "yes", "note": "ON 12/24 AND 12/31, THIS BOX MAY BE COLLECTED AS EARLY AS 12 NOON.", "nsi_id": "unitedstatespostalservice-a77078", "operator": "United States Postal Service", "operator:short": "USPS", "operator:type": "public", "operator:wikidata": "Q668687", "ref": "1755200052"}, "type": "Feature"}
{"geometry": {"coordinates": [-76.503097541, 40.109864132], "type": "Point"}, "id": "bgcsFkImWtmGQzSfCho1Lw4elV8=", "properties": {"@source_uri": "https://tools.usps.com/UspsToolsRestServices/rest/POLocator/findLocations", "@spider": "usps_collection_boxes", "addr:city": "MOUNT JOY", "addr:country": "US", "addr:postcode": "17552", "addr:state": "PA", "addr:street_address": "1 E MAIN ST", "amenity": "post_box", "collection_times": "Mo-Fr 16:45; Sa 12:15", "indoor": "yes", "note": "ON 12/24 AND 12/31, THIS BOX MAY BE COLLECTED AS EARLY AS 12 NOON.", "nsi_id": "unitedstatespostalservice-a77078", "operator": "United States Postal Service", "operator:short": "USPS", "operator:type": "public", "operator:wikidata": "Q668687", "ref": "1755200056"}, "type": "Feature"}
{"geometry": {"coordinates": [-76.424243, 40.037958], "type": "Point"}, "id": "yjZv0Xtf4H9i7RVfyTEjEUNznVU=", "properties": {"@source_uri": "https://tools.usps.com/UspsToolsRestServices/rest/POLocator/findLocations", "@spider": "usps_collection_boxes", "addr:city": "MOUNTVILLE", "addr:country": "US", "addr:postcode": "17554", "addr:state": "PA", "addr:street_address": "6 S BRIDGE ST", "amenity": "post_box", "collection_times": "Mo-Fr 16:30; Sa 12:30", "note": "ON 12/24 AND 12/31, THIS BOX MAY BE COLLECTED AS EARLY AS 12 NOON.", "nsi_id": "unitedstatespostalservice-a77078", "operator": "United States Postal Service", "operator:short": "USPS", "operator:type": "public", "operator:wikidata": "Q668687", "ref": "1755400001"}, "type": "Feature"}
{"geometry": {"coordinates": [-76.4281939, 40.039773], "type": "Point"}, "id": "2D-UyvPA6OwvdWniNi47Z4kFPPE=", "properties": {"@source_uri": "https://tools.usps.com/UspsToolsRestServices/rest/POLocator/findLocations", "@spider": "usps_collection_boxes", "addr:city": "MOUNTVILLE", "addr:country": "US", "addr:postcode": "17554", "addr:state": "PA", "addr:street_address": "2 COLLEGE AVE", "amenity": "post_box", "collection_times": "Mo-Sa 10:00", "nsi_id": "unitedstatespostalservice-a77078", "operator": "United States Postal Service", "operator:short": "USPS", "operator:type": "public", "operator:wikidata": "Q668687", "ref": "1755400002"}, "type": "Feature"}
{"geometry": {"coordinates": [-76.4200133, 40.050136], "type": "Point"}, "id": "U_Lh6KVuKyptmyBMgLKHJFzierE=", "properties": {"@source_uri": "https://tools.usps.com/UspsToolsRestServices/rest/POLocator/findLocations", "@spider": "usps_collection_boxes", "addr:city": "MOUNTVILLE", "addr:country": "US", "addr:postcode": "17554", "addr:state": "PA", "addr:street_address": "10 APPLE LN", "amenity": "post_box", "collection_times": "Mo-Sa 10:00", "nsi_id": "unitedstatespostalservice-a77078", "operator": "United States Postal Service", "operator:short": "USPS", "operator:type": "public", "operator:wikidata": "Q668687", "ref": "1755400003"}, "type": "Feature"}
{"geometry": {"coordinates": [-76.424209, 40.037952], "type": "Point"}, "id": "ijCN2UnwayrK3tpdbI0IhbIp57w=", "properties": {"@source_uri": "https://tools.usps.com/UspsToolsRestServices/rest/POLocator/findLocations", "@spider": "usps_collection_boxes", "addr:city": "MOUNTVILLE", "addr:country": "US", "addr:postcode": "17554", "addr:state": "PA", "addr:street_address": "6 S BRIDGE ST", "amenity": "post_box", "collection_times": "Mo-Fr 16:30; Sa 12:30", "indoor": "yes", "note": "ON 12/24 AND 12/31, THIS BOX MAY BE COLLECTED AS EARLY AS 12 NOON.", "nsi_id": "unitedstatespostalservice-a77078", "operator": "United States Postal Service", "operator:short": "USPS", "operator:type": "public", "operator:wikidata": "Q668687", "ref": "1755400004"}, "type": "Feature"}
{"geometry": {"coordinates": [-76.4385474, 40.044349], "type": "Point"}, "id": "HLO87fSBCeBMHPTk2pmGYx_KUpA=", "properties": {"@source_uri": "https://tools.usps.com/UspsToolsRestServices/rest/POLocator/findLocations", "@spider": "usps_collection_boxes", "addr:city": "MOUNTVILLE", "addr:country": "US", "addr:postcode": "17554", "addr:state": "PA", "addr:street_address": "200 HUNTINGTON DR", "amenity": "post_box", "collection_times": "Mo-Sa 09:30", "nsi_id": "unitedstatespostalservice-a77078", "operator": "United States Postal Service", "operator:short": "USPS", "operator:type": "public", "operator:wikidata": "Q668687", "ref": "1755400005"}, "type": "Feature"}
{"geometry": {"coordinates": [-76.4466479, 40.043886], "type": "Point"}, "id": "hnF2od7_qsyYesGSfwDzVMIj57Q=", "properties": {"@source_uri": "https://tools.usps.com/UspsToolsRestServices/rest/POLocator/findLocations", "@spider": "usps_collection_boxes", "addr:city": "MOUNTVILLE", "addr:country": "US", "addr:postcode": "17554", "addr:state": "PA", "addr:street_address": "527 HUNTINGTON DR", "amenity": "post_box", "collection_times": "Mo-Sa 09:30", "nsi_id": "unitedstatespostalservice-a77078", "operator": "United States Postal Service", "operator:short": "USPS", "operator:type": "public", "operator:wikidata": "Q668687", "ref": "1755400006"}, "type": "Feature"}
{"geometry": {"coordinates": [-76.4172049, 40.035782], "type": "Point"}, "id": "1uyzVwpKsUD40cmYiaUkRm83f94=", "properties": {"@source_uri": "https://tools.usps.com/UspsToolsRestServices/rest/POLocator/findLocations", "@spider": "usps_collection_boxes", "addr:city": "MOUNTVILLE", "addr:country": "US", "addr:postcode": "17554", "addr:state": "PA", "addr:street_address": "111 OAKRIDGE DR", "amenity": "post_box", "collection_times": "Mo-Sa 09:15", "nsi_id": "unitedstatespostalservice-a77078", "operator": "United States Postal Service", "operator:short": "USPS", "operator:type": "public", "operator:wikidata": "Q668687", "ref": "1755400007"}, "type": "Feature"}
{"geometry": {"coordinates": [-76.424204978, 40.038076843], "type": "Point"}, "id": "nvE0SedaUSl2t-Dj9pvZ-8sMuok=", "properties": {"@source_uri": "https://tools.usps.com/UspsToolsRestServices/rest/POLocator/findLocations", "@spider": "usps_collection_boxes", "addr:city": "MOUNTVILLE", "addr:country": "US", "addr:postcode": "17554", "addr:state": "PA", "addr:street_address": "6 S BRIDGE ST", "amenity": "post_box", "collection_times": "Mo-Fr 16:35; Sa 12:20", "indoor": "yes", "note": "ON 12/24 AND 12/31, THIS BOX MAY BE COLLECTED AS EARLY AS 12 NOON.", "nsi_id": "unitedstatespostalservice-a77078", "operator": "United States Postal Service", "operator:short": "USPS", "operator:type": "public", "operator:wikidata": "Q668687", "ref": "1755400009"}, "type": "Feature"}
{"geometry": {"coordinates": [-75.9780236, 40.108035], "type": "Point"}, "id": "MBjNbjVV6XbypvJ9nLTqdjp69VQ=", "properties": {"@source_uri": "https://tools.usps.com/UspsToolsRestServices/rest/POLocator/findLocations", "@spider": "usps_collection_boxes", "addr:city": "NARVON", "addr:country": "US", "addr:postcode": "17555", "addr:state": "PA", "addr:street_address": "1125 NARVON RD", "amenity": "post_box", "collection_times": "Mo-Fr 16:15; Sa 10:30", "note": "ON 12/24 AND 12/31, THIS BOX MAY BE COLLECTED AS EARLY AS 12 NOON.", "nsi_id": "unitedstatespostalservice-a77078", "operator": "United States Postal Service", "operator:short": "USPS", "operator:type": "public", "operator:wikidata": "Q668687", "ref": "1755500001"}, "type": "Feature"}
{"geometry": {"coordinates": [-75.9779145, 40.108008], "type": "Point"}, "id": "ZwGWZxCwI2c8aKdMmhjkyx8vywg=", "properties": {"@source_uri": "https://tools.usps.com/UspsToolsRestServices/rest/POLocator/findLocations", "@spider": "usps_collection_boxes", "addr:city": "NARVON", "addr:country": "US", "addr:postcode": "17555", "addr:state": "PA", "addr:street_address": "1125 NARVON RD", "amenity": "post_box", "collection_times": "Mo-Fr 16:15; Sa 10:30", "indoor": "yes", "note": "ON 12/24 AND 12/31, THIS BOX MAY BE COLLECTED AS EARLY AS 12 NOON.", "nsi_id": "unitedstatespostalservice-a77078", "operator": "United States Postal Service", "operator:short": "USPS", "operator:type": "public", "operator:wikidata": "Q668687", "ref": "1755500003"}, "type": "Feature"}
{"geometry": {"coordinates": [-75.978356342, 40.107998609], "type": "Point"}, "id": "cROoXf6oLTY_hiX9v6jFgoHkSW0=", "properties": {"@source_uri": "https://tools.usps.com/UspsToolsRestServices/rest/POLocator/findLocations", "@spider": "usps_collection_boxes", "addr:city": "NARVON", "addr:country": "US", "addr:postcode": "17555", "addr:state": "PA", "addr:street_address": "1125 NARVON RD", "amenity": "post_box", "collection_times": "Mo-Fr 16:05; Sa 10:05", "indoor": "yes", "note": "ON 12/24 AND 12/31, THIS BOX MAY BE COLLECTED AS EARLY AS 12 NOON.", "nsi_id": "unitedstatespostalservice-a77078", "operator": "United States Postal Service", "operator:short": "USPS", "operator:type": "public", "operator:wikidata": "Q668687", "ref": "1755500005"}, "type": "Feature"}
{"geometry": {"coordinates": [-76.0756549, 40.105252], "type": "Point"}, "id": "elF6E2oKTCjGLuOzGM9YtuLYADQ=", "properties": {"@source_uri": "https://tools.usps.com/UspsToolsRestServices/rest/POLocator/findLocations", "@spider": "usps_collection_boxes", "addr:city": "NEW HOLLAND", "addr:country": "US", "addr:postcode": "17557", "addr:state": "PA", "addr:street_address": "504 E MAIN ST", "amenity": "post_box", "collection_times": "Mo-Sa 09:00", "nsi_id": "unitedstatespostalservice-a77078", "operator": "United States Postal Service", "operator:short": "USPS", "operator:type": "public", "operator:wikidata": "Q668687", "ref": "1755700000"}, "type": "Feature"}
{"geometry": {"coordinates": [-76.0989464, 40.100194], "type": "Point"}, "id": "y4CMJyigAAnQD-0eE48hy5-kwY0=", "properties": {"@source_uri": "https://tools.usps.com/UspsToolsRestServices/rest/POLocator/findLocations", "@spider": "usps_collection_boxes", "addr:city": "NEW HOLLAND", "addr:country": "US", "addr:postcode": "17557", "addr:state": "PA", "addr:street_address": "9 OAK AVE", "amenity": "post_box", "collection_times": "Mo-Sa 09:00", "nsi_id": "unitedstatespostalservice-a77078", "operator": "United States Postal Service", "operator:short": "USPS", "operator:type": "public", "operator:wikidata": "Q668687", "ref": "1755700003"}, "type": "Feature"}
{"geometry": {"coordinates": [-76.0905319, 40.102005], "type": "Point"}, "id": "X3lZ-Ry_4QhVB6G3cMgYbdPejDg=", "properties": {"@source_uri": "https://tools.usps.com/UspsToolsRestServices/rest/POLocator/findLocations", "@spider": "usps_collection_boxes", "addr:city": "NEW HOLLAND", "addr:country": "US", "addr:postcode": "17557", "addr:state": "PA", "addr:street_address": "125 W MAIN ST", "amenity": "post_box", "collection_times": "Mo-Sa 09:00", "nsi_id": "unitedstatespostalservice-a77078", "operator": "United States Postal Service", "operator:short": "USPS", "operator:type": "public", "operator:wikidata": "Q668687", "ref": "1755700004"}, "type": "Feature"}
{"geometry": {"coordinates": [-76.0883599, 40.102883], "type": "Point"}, "id": "8EsTcg2ZLEX51PqhNgt5Gm9Debw=", "properties": {"@source_uri": "https://tools.usps.com/UspsToolsRestServices/rest/POLocator/findLocations", "@spider": "usps_collection_boxes", "addr:city": "NEW HOLLAND", "addr:country": "US", "addr:postcode": "17557", "addr:state": "PA", "addr:street_address": "121 E MAIN ST", "amenity": "post_box", "collection_times": "Mo-Sa 09:00", "nsi_id": "unitedstatespostalservice-a77078", "operator": "United States Postal Service", "operator:short": "USPS", "operator:type": "public", "operator:wikidata": "Q668687", "ref": "1755700006"}, "type": "Feature"}
{"geometry": {"coordinates": [-76.0662339, 40.109411], "type": "Point"}, "id": "UbnbnC93TGZxKCHG7EnGbU2ptnw=", "properties": {"@source_uri": "https://tools.usps.com/UspsToolsRestServices/rest/POLocator/findLocations", "@spider": "usps_collection_boxes", "addr:city": "NEW HOLLAND", "addr:country": "US", "addr:postcode": "17557", "addr:state": "PA", "addr:street_address": "14 S TOWER RD", "amenity": "post_box", "collection_times": "Mo-Sa 11:00", "nsi_id": "unitedstatespostalservice-a77078", "operator": "United States Postal Service", "operator:short": "USPS", "operator:type": "public", "operator:wikidata": "Q668687", "ref": "1755700008"}, "type": "Feature"}
{"geometry": {"coordinates": [-76.0844107, 40.104083], "type": "Point"}, "id": "GpAcu8a-G0KdW85-Fbhjs1c3ffg=", "properties": {"@source_uri": "https://tools.usps.com/UspsToolsRestServices/rest/POLocator/findLocations", "@spider": "usps_collection_boxes", "addr:city": "NEW HOLLAND", "addr:country": "US", "addr:postcode": "17557", "addr:state": "PA", "addr:street_address": "332 W BROAD ST", "amenity": "post_box", "collection_times": "Mo-Sa 13:00", "note": "ON 12/24 AND 12/31, THIS BOX MAY BE COLLECTED AS EARLY AS 12 NOON.", "nsi_id": "unitedstatespostalservice-a77078", "operator": "United States Postal Service", "operator:short": "USPS", "operator:type": "public", "operator:wikidata": "Q668687", "ref": "1755700009"}, "type": "Feature"}
{"geometry": {"coordinates": [-76.09794295, 40.096948787], "type": "Point"}, "id": "lv0JdM1WkfZaFs6auqV07UiJ8EI=", "properties": {"@source_uri": "https://tools.usps.com/UspsToolsRestServices/rest/POLocator/findLocations", "@spider": "usps_collection_boxes", "addr:city": "NEW HOLLAND", "addr:country": "US", "addr:postcode": "17557", "addr:state": "PA", "addr:street_address": "150 DILLER AVE", "amenity": "post_box", "collection_times": "Mo-Fr 17:00; Sa 14:15", "note": "ON 12/24 AND 12/31, THIS BOX MAY BE COLLECTED AS EARLY AS 12 NOON.", "nsi_id": "unitedstatespostalservice-a77078", "operator": "United States Postal Service", "operator:short": "USPS", "operator:type": "public", "operator:wikidata": "Q668687", "ref": "1755700011"}, "type": "Feature"}
{"geometry": {"coordinates": [-76.1106827, 40.09609], "type": "Point"}, "id": "-L8oW0WeaTrzioERB7gFtOHDD9w=", "properties": {"@source_uri": "https://tools.usps.com/UspsToolsRestServices/rest/POLocator/findLocations", "@spider": "usps_collection_boxes", "addr:city": "NEW HOLLAND", "addr:country": "US", "addr:postcode": "17557", "addr:state": "PA", "addr:street_address": "681 W MAIN ST", "amenity": "post_box", "collection_times": "Mo-Sa 11:00", "nsi_id": "unitedstatespostalservice-a77078", "operator": "United States Postal Service", "operator:short": "USPS", "operator:type": "public", "operator:wikidata": "Q668687", "ref": "1755700012"}, "type": "Feature"}
{"geometry": {"coordinates": [-76.097737, 40.09726], "type": "Point"}, "id": "4DgOD4tgkU-6IVKcKx6akjuWmDg=", "properties": {"@source_uri": "https://tools.usps.com/UspsToolsRestServices/rest/POLocator/findLocations", "@spider": "usps_collection_boxes", "addr:city": "NEW HOLLAND", "addr:country": "US", "addr:postcode": "17557", "addr:state": "PA", "addr:street_address": "150 DILLER AVE", "amenity": "post_box", "collection_times": "Mo-Fr 17:00; Sa 14:15", "indoor": "yes", "note": "ON 12/24 AND 12/31, THIS BOX MAY BE COLLECTED AS EARLY AS 12 NOON.", "nsi_id": "unitedstatespostalservice-a77078", "operator": "United States Postal Service", "operator:short": "USPS", "operator:type": "public", "operator:wikidata": "Q668687", "ref": "1755700016"}, "type": "Feature"}
{"geometry": {"coordinates": [-76.09794295, 40.096948787], "type": "Point"}, "id": "kOxRN9CEu7ECaqH3VB4UvYY4pGw=", "properties": {"@source_uri": "https://tools.usps.com/UspsToolsRestServices/rest/POLocator/findLocations", "@spider": "usps_collection_boxes", "addr:city": "NEW HOLLAND", "addr:country": "US", "addr:postcode": "17557", "addr:state": "PA", "addr:street_address": "150 DILLER AVE", "amenity": "post_box", "collection_times": "Mo-Fr 16:15; Sa 12:15", "indoor": "yes", "note": "ON 12/24 AND 12/31, THIS BOX MAY BE COLLECTED AS EARLY AS 12 NOON.", "nsi_id": "unitedstatespostalservice-a77078", "operator": "United States Postal Service", "operator:short": "USPS", "operator:type": "public", "operator:wikidata": "Q668687", "ref": "1755700021"}, "type": "Feature"}
{"geometry": {"coordinates": [-76.197762, 39.923845], "type": "Point"}, "id": "BJlMj2gRG98pHbOSuRzLqi9d0Qw=", "properties": {"@source_uri": "https://tools.usps.com/UspsToolsRestServices/rest/POLocator/findLocations", "@spider": "usps_collection_boxes", "addr:city": "NEW PROVIDENCE", "addr:country": "US", "addr:postcode": "17560", "addr:state": "PA", "addr:street_address": "69 MAIN ST", "amenity": "post_box", "collection_times": "Mo-Sa 09:00", "nsi_id": "unitedstatespostalservice-a77078", "operator": "United States Postal Service", "operator:short": "USPS", "operator:type": "public", "operator:wikidata": "Q668687", "ref": "1756000003"}, "type": "Feature"}
{"geometry": {"coordinates": [-76.1844166, 39.908206], "type": "Point"}, "id": "PY3gaFd6QqQ1Tn2BGqXRIlUWwEE=", "properties": {"@source_uri": "https://tools.usps.com/UspsToolsRestServices/rest/POLocator/findLocations", "@spider": "usps_collection_boxes", "addr:city": "NEW PROVIDENCE", "addr:country": "US", "addr:postcode": "17560", "addr:state": "PA", "addr:street_address": "2319 BEAVER VALLEY PIKE", "amenity": "post_box", "collection_times": "Mo-Sa 10:30", "nsi_id": "unitedstatespostalservice-a77078", "operator": "United States Postal Service", "operator:short": "USPS", "operator:type": "public", "operator:wikidata": "Q668687", "ref": "1756000004"}, "type": "Feature"}
{"geometry": {"coordinates": [-76.197801, 39.923851], "type": "Point"}, "id": "evQJghlF5jPo-dH0aDV9PTadnd0=", "properties": {"@source_uri": "https://tools.usps.com/UspsToolsRestServices/rest/POLocator/findLocations", "@spider": "usps_collection_boxes", "addr:city": "NEW PROVIDENCE", "addr:country": "US", "addr:postcode": "17560", "addr:state": "PA", "addr:street_address": "69 MAIN ST", "amenity": "post_box", "collection_times": "Mo-Fr 12:00; Sa 10:30", "indoor": "yes", "nsi_id": "unitedstatespostalservice-a77078", "operator": "United States Postal Service", "operator:short": "USPS", "operator:type": "public", "operator:wikidata": "Q668687", "ref": "1756000005"}, "type": "Feature"}
{"geometry": {"coordinates": [-76.197749257, 39.923797473], "type": "Point"}, "id": "m_ghIlDyqMC2EUuzqHAtG2su5Sw=", "properties": {"@source_uri": "https://tools.usps.com/UspsToolsRestServices/rest/POLocator/findLocations", "@spider": "usps_collection_boxes", "addr:city": "NEW PROVIDENCE", "addr:country": "US", "addr:postcode": "17560", "addr:state": "PA", "addr:street_address": "69 MAIN ST", "amenity": "post_box", "collection_times": "Mo-Fr 12:00; Sa 10:30", "indoor": "yes", "nsi_id": "unitedstatespostalservice-a77078", "operator": "United States Postal Service", "operator:short": "USPS", "operator:type": "public", "operator:wikidata": "Q668687", "ref": "1756000007"}, "type": "Feature"}
{"geometry": {"coordinates": [-76.128508, 40.00988], "type": "Point"}, "id": "ECbVCo5428qe5VPMHpcUNX7AsXU=", "properties": {"@source_uri": "https://tools.usps.com/UspsToolsRestServices/rest/POLocator/findLocations", "@spider": "usps_collection_boxes", "addr:city": "PARADISE", "addr:country": "US", "addr:postcode": "17562", "addr:state": "PA", "addr:street_address": "1 LEACOCK RD", "amenity": "post_box", "collection_times": "Mo-Fr 16:30; Sa 11:00", "note": "ON 12/24 AND 12/31, THIS BOX MAY BE COLLECTED AS EARLY AS 12 NOON.", "nsi_id": "unitedstatespostalservice-a77078", "operator": "United States Postal Service", "operator:short": "USPS", "operator:type": "public", "operator:wikidata": "Q668687", "ref": "1756200002"}, "type": "Feature"}
{"geometry": {"coordinates": [-76.128508, 40.00988], "type": "Point"}, "id": "NtcQXEQ38UB4TfMhkrCSvJ4X_TQ=", "properties": {"@source_uri": "https://tools.usps.com/UspsToolsRestServices/rest/POLocator/findLocations", "@spider": "usps_collection_boxes", "addr:city": "PARADISE", "addr:country": "US", "addr:postcode": "17562", "addr:state": "PA", "addr:street_address": "1 LEACOCK RD", "amenity": "post_box", "collection_times": "Mo-Fr 16:30; Sa 11:00", "indoor": "yes", "note": "ON 12/24 AND 12/31, THIS BOX MAY BE COLLECTED AS EARLY AS 12 NOON.", "nsi_id": "unitedstatespostalservice-a77078", "operator": "United States Postal Service", "operator:short": "USPS", "operator:type": "public", "operator:wikidata": "Q668687", "ref": "1756200003"}, "type": "Feature"}
{"geometry": {"coordinates": [-76.12848973, 40.009888752], "type": "Point"}, "id": "4fGJhEK97KM7Mgdqe7yUC8R7OQQ=", "properties": {"@source_uri": "https://tools.usps.com/UspsToolsRestServices/rest/POLocator/findLocations", "@spider": "usps_collection_boxes", "addr:city": "PARADISE", "addr:country": "US", "addr:postcode": "17562", "addr:state": "PA", "addr:street_address": "1 LEACOCK RD", "amenity": "post_box", "collection_times": "Mo-Fr 16:20; Sa 10:50", "indoor": "yes", "note": "ON 12/24 AND 12/31, THIS BOX MAY BE COLLECTED AS EARLY AS 12 NOON.", "nsi_id": "unitedstatespostalservice-a77078", "operator": "United States Postal Service", "operator:short": "USPS", "operator:type": "public", "operator:wikidata": "Q668687", "ref": "1756200005"}, "type": "Feature"}
{"geometry": {"coordinates": [-76.18596, 39.804131], "type": "Point"}, "id": "uO7taOv7Koe8Os8VwRCJr5T2Alc=", "properties": {"@source_uri": "https://tools.usps.com/UspsToolsRestServices/rest/POLocator/findLocations", "@spider": "usps_collection_boxes", "addr:city": "PEACH BOTTOM", "addr:country": "US", "addr:postcode": "17563", "addr:state": "PA", "addr:street_address": "1842A LANCASTER PIKE", "amenity": "post_box", "collection_times": "Mo-Fr 16:30; Sa 10:30", "indoor": "yes", "note": "ON 12/24 AND 12/31, THIS BOX MAY BE COLLECTED AS EARLY AS 12 NOON.", "nsi_id": "unitedstatespostalservice-a77078", "operator": "United States Postal Service", "operator:short": "USPS", "operator:type": "public", "operator:wikidata": "Q668687", "ref": "1756300001"}, "type": "Feature"}
{"geometry": {"coordinates": [-76.185925, 39.804125], "type": "Point"}, "id": "e8NEEsYQWILMkCiRXcmsSs9XRSE=", "properties": {"@source_uri": "https://tools.usps.com/UspsToolsRestServices/rest/POLocator/findLocations", "@spider": "usps_collection_boxes", "addr:city": "PEACH BOTTOM", "addr:country": "US", "addr:postcode": "17563", "addr:state": "PA", "addr:street_address": "1842A LANCASTER PIKE", "amenity": "post_box", "collection_times": "Mo-Fr 16:15; Sa 10:30", "note": "ON 12/24 AND 12/31, THIS BOX MAY BE COLLECTED AS EARLY AS 12 NOON.", "nsi_id": "unitedstatespostalservice-a77078", "operator": "United States Postal Service", "operator:short": "USPS", "operator:type": "public", "operator:wikidata": "Q668687", "ref": "1756300002"}, "type": "Feature"}
{"geometry": {"coordinates": [-76.185794615, 39.802092243], "type": "Point"}, "id": "pIUHGsLFZGTKR1EmTJ5IEy0mi98=", "properties": {"@source_uri": "https://tools.usps.com/UspsToolsRestServices/rest/POLocator/findLocations", "@spider": "usps_collection_boxes", "addr:city": "PEACH BOTTOM", "addr:country": "US", "addr:postcode": "17563", "addr:state": "PA", "addr:street_address": "1842A LANCASTER PIKE", "amenity": "post_box", "collection_times": "Mo-Fr 16:30; Sa 11:00", "indoor": "yes", "note": "ON 12/24 AND 12/31, THIS BOX MAY BE COLLECTED AS EARLY AS 12 NOON.", "nsi_id": "unitedstatespostalservice-a77078", "operator": "United States Postal Service", "operator:short": "USPS", "operator:type": "public", "operator:wikidata": "Q668687", "ref": "1756300004"}, "type": "Feature"}
{"geometry": {"coordinates": [-76.370304, 40.205675], "type": "Point"}, "id": "ZhTI48eZ3SRruua9e1klTJYmrms=", "properties": {"@source_uri": "https://tools.usps.com/UspsToolsRestServices/rest/POLocator/findLocations", "@spider": "usps_collection_boxes", "addr:city": "PENRYN", "addr:country": "US", "addr:postcode": "17564", "addr:state": "PA", "addr:street_address": "1275 NEWPORT RD", "amenity": "post_box", "collection_times": "Mo-Fr 11:45; Sa 10:00", "nsi_id": "unitedstatespostalservice-a77078", "operator": "United States Postal Service", "operator:short": "USPS", "operator:type": "public", "operator:wikidata": "Q668687", "ref": "1756400002"}, "type": "Feature"}
{"geometry": {"coordinates": [-76.370304, 40.205675], "type": "Point"}, "id": "i41tHht2gl8fJDRfR_tN4cinraQ=", "properties": {"@source_uri": "https://tools.usps.com/UspsToolsRestServices/rest/POLocator/findLocations", "@spider": "usps_collection_boxes", "addr:city": "PENRYN", "addr:country": "US", "addr:postcode": "17564", "addr:state": "PA", "addr:street_address": "1275 NEWPORT RD", "amenity": "post_box", "collection_times": "Mo-Fr 11:45; Sa 10:00", "indoor": "yes", "nsi_id": "unitedstatespostalservice-a77078", "operator": "United States Postal Service", "operator:short": "USPS", "operator:type": "public", "operator:wikidata": "Q668687", "ref": "1756400003"}, "type": "Feature"}
{"geometry": {"coordinates": [-76.218777547, 40.133961655], "type": "Point"}, "id": "MTOKdnTvRyZdf8zFwrEam-s05jg=", "properties": {"@source_uri": "https://tools.usps.com/UspsToolsRestServices/rest/POLocator/findLocations", "@spider": "usps_collection_boxes", "addr:city": "PENRYN", "addr:country": "US", "addr:postcode": "17564", "addr:state": "PA", "addr:street_address": "1275 NEWPORT RD", "amenity": "post_box", "collection_times": "Mo-Fr 11:45; Sa 10:00", "indoor": "yes", "nsi_id": "unitedstatespostalservice-a77078", "operator": "United States Postal Service", "operator:short": "USPS", "operator:type": "public", "operator:wikidata": "Q668687", "ref": "1756400005"}, "type": "Feature"}
{"geometry": {"coordinates": [-76.305814, 39.92411], "type": "Point"}, "id": "PXcf9zXRCcYeH90CcOhTZB2Pqv4=", "properties": {"@source_uri": "https://tools.usps.com/UspsToolsRestServices/rest/POLocator/findLocations", "@spider": "usps_collection_boxes", "addr:city": "PEQUEA", "addr:country": "US", "addr:postcode": "17565", "addr:state": "PA", "addr:street_address": "735 MARTICVILLE RD", "amenity": "post_box", "collection_times": "Mo-Fr 16:15; Sa 09:45", "indoor": "yes", "note": "ON 12/24 AND 12/31, THIS BOX MAY BE COLLECTED AS EARLY AS 12 NOON.", "nsi_id": "unitedstatespostalservice-a77078", "operator": "United States Postal Service", "operator:short": "USPS", "operator:type": "public", "operator:wikidata": "Q668687", "ref": "1756500001"}, "type": "Feature"}
{"geometry": {"coordinates": [-76.305839, 39.924065], "type": "Point"}, "id": "XJAR_w6rSBWLRImr935tlKRT0Qo=", "properties": {"@source_uri": "https://tools.usps.com/UspsToolsRestServices/rest/POLocator/findLocations", "@spider": "usps_collection_boxes", "addr:city": "PEQUEA", "addr:country": "US", "addr:postcode": "17565", "addr:state": "PA", "addr:street_address": "735 MARTICVILLE RD", "amenity": "post_box", "collection_times": "Mo-Fr 16:15; Sa 09:45", "note": "ON 12/24 AND 12/31, THIS BOX MAY BE COLLECTED AS EARLY AS 12 NOON.", "nsi_id": "unitedstatespostalservice-a77078", "operator": "United States Postal Service", "operator:short": "USPS", "operator:type": "public", "operator:wikidata": "Q668687", "ref": "1756500002"}, "type": "Feature"}
{"geometry": {"coordinates": [-76.30578995, 39.924097485], "type": "Point"}, "id": "0KVmErlAofhiFOCRjq9XEvZpF6w=", "properties": {"@source_uri": "https://tools.usps.com/UspsToolsRestServices/rest/POLocator/findLocations", "@spider": "usps_collection_boxes", "addr:city": "PEQUEA", "addr:country": "US", "addr:postcode": "17565", "addr:state": "PA", "addr:street_address": "735 MARTICVILLE RD", "amenity": "post_box", "collection_times": "Mo-Fr 16:15; Sa 10:00", "indoor": "yes", "note": "ON 12/24 AND 12/31, THIS BOX MAY BE COLLECTED AS EARLY AS 12 NOON.", "nsi_id": "unitedstatespostalservice-a77078", "operator": "United States Postal Service", "operator:short": "USPS", "operator:type": "public", "operator:wikidata": "Q668687", "ref": "1756500005"}, "type": "Feature"}
{"geometry": {"coordinates": [-76.1694381, 39.893846], "type": "Point"}, "id": "5PQ_lf53NybTGLUWHWNEOyKC8eY=", "properties": {"@source_uri": "https://tools.usps.com/UspsToolsRestServices/rest/POLocator/findLocations", "@spider": "usps_collection_boxes", "addr:city": "QUARRYVILLE", "addr:country": "US", "addr:postcode": "17566", "addr:state": "PA", "addr:street_address": "315 W 4TH ST", "amenity": "post_box", "collection_times": "Mo-Fr 11:00; Sa 09:00", "nsi_id": "unitedstatespostalservice-a77078", "operator": "United States Postal Service", "operator:short": "USPS", "operator:type": "public", "operator:wikidata": "Q668687", "ref": "1756600003"}, "type": "Feature"}
{"geometry": {"coordinates": [-76.2249327, 39.870452], "type": "Point"}, "id": "jYECgFrQ4-SrdF8yypl9-TeXda8=", "properties": {"@source_uri": "https://tools.usps.com/UspsToolsRestServices/rest/POLocator/findLocations", "@spider": "usps_collection_boxes", "addr:city": "QUARRYVILLE", "addr:country": "US", "addr:postcode": "17566", "addr:state": "PA", "addr:street_address": "35 FRIENDLY DR", "amenity": "post_box", "collection_times": "Mo-Fr 09:30; Sa 08:45", "nsi_id": "unitedstatespostalservice-a77078", "operator": "United States Postal Service", "operator:short": "USPS", "operator:type": "public", "operator:wikidata": "Q668687", "ref": "1756600004"}, "type": "Feature"}
{"geometry": {"coordinates": [-76.168403, 39.89572], "type": "Point"}, "id": "_56gSnmPgpfW7HYZPYTtEEZTFL0=", "properties": {"@source_uri": "https://tools.usps.com/UspsToolsRestServices/rest/POLocator/findLocations", "@spider": "usps_collection_boxes", "addr:city": "QUARRYVILLE", "addr:country": "US", "addr:postcode": "17566", "addr:state": "PA", "addr:street_address": "220 W STATE ST", "amenity": "post_box", "collection_times": "Mo-Fr 16:45; Sa 11:00", "note": "ON 12/24 AND 12/31, THIS BOX MAY BE COLLECTED AS EARLY AS 12 NOON.", "nsi_id": "unitedstatespostalservice-a77078", "operator": "United States Postal Service", "operator:short": "USPS", "operator:type": "public", "operator:wikidata": "Q668687", "ref": "1756600007"}, "type": "Feature"}
{"geometry": {"coordinates": [-76.1618185, 39.897764], "type": "Point"}, "id": "gz7gJFtToCWvnZx830HCN-IqvzI=", "properties": {"@source_uri": "https://tools.usps.com/UspsToolsRestServices/rest/POLocator/findLocations", "@spider": "usps_collection_boxes", "addr:city": "QUARRYVILLE", "addr:country": "US", "addr:postcode": "17566", "addr:state": "PA", "addr:street_address": "29 E STATE ST", "amenity": "post_box", "collection_times": "Mo-Sa 09:00", "nsi_id": "unitedstatespostalservice-a77078", "operator": "United States Postal Service", "operator:short": "USPS", "operator:type": "public", "operator:wikidata": "Q668687", "ref": "1756600009"}, "type": "Feature"}
{"geometry": {"coordinates": [-76.1753995, 39.8947], "type": "Point"}, "id": "4LHtSHRpkAka5-uf6m1yh7-35ds=", "properties": {"@source_uri": "https://tools.usps.com/UspsToolsRestServices/rest/POLocator/findLocations", "@spider": "usps_collection_boxes", "addr:city": "QUARRYVILLE", "addr:country": "US", "addr:postcode": "17566", "addr:state": "PA", "addr:street_address": "112 TOWNS EDGE DR", "amenity": "post_box", "collection_times": "Mo-Fr 12:00; Sa 09:00", "nsi_id": "unitedstatespostalservice-a77078", "operator": "United States Postal Service", "operator:short": "USPS", "operator:type": "public", "operator:wikidata": "Q668687", "ref": "1756600010"}, "type": "Feature"}
{"geometry": {"coordinates": [-76.16839, 39.895695], "type": "Point"}, "id": "l4_tpWRGct7H0a11tB53gc993aM=", "properties": {"@source_uri": "https://tools.usps.com/UspsToolsRestServices/rest/POLocator/findLocations", "@spider": "usps_collection_boxes", "addr:city": "QUARRYVILLE", "addr:country": "US", "addr:postcode": "17566", "addr:state": "PA", "addr:street_address": "220 W STATE ST", "amenity": "post_box", "collection_times": "Mo-Fr 16:45; Sa 11:00", "indoor": "yes", "note": "ON 12/24 AND 12/31, THIS BOX MAY BE COLLECTED AS EARLY AS 12 NOON.", "nsi_id": "unitedstatespostalservice-a77078", "operator": "United States Postal Service", "operator:short": "USPS", "operator:type": "public", "operator:wikidata": "Q668687", "ref": "1756600017"}, "type": "Feature"}
{"geometry": {"coordinates": [-76.1619679, 39.887345], "type": "Point"}, "id": "gpV-jdBlQgHjZHme53K-E8My_cI=", "properties": {"@source_uri": "https://tools.usps.com/UspsToolsRestServices/rest/POLocator/findLocations", "@spider": "usps_collection_boxes", "addr:city": "QUARRYVILLE", "addr:country": "US", "addr:postcode": "17566", "addr:state": "PA", "addr:street_address": "625 ROBERT FULTON HWY", "amenity": "post_box", "collection_times": "Mo-Sa 09:00", "nsi_id": "unitedstatespostalservice-a77078", "operator": "United States Postal Service", "operator:short": "USPS", "operator:type": "public", "operator:wikidata": "Q668687", "ref": "1756600018"}, "type": "Feature"}
{"geometry": {"coordinates": [-76.168482017, 39.895691707], "type": "Point"}, "id": "4x4ep9GNITGhjmN6mrF5OvEskww=", "properties": {"@source_uri": "https://tools.usps.com/UspsToolsRestServices/rest/POLocator/findLocations", "@spider": "usps_collection_boxes", "addr:city": "QUARRYVILLE", "addr:country": "US", "addr:postcode": "17566", "addr:state": "PA", "addr:street_address": "220 W STATE ST", "amenity": "post_box", "collection_times": "Mo-Fr 16:45; Sa 11:15", "indoor": "yes", "note": "ON 12/24 AND 12/31, THIS BOX MAY BE COLLECTED AS EARLY AS 12 NOON.", "nsi_id": "unitedstatespostalservice-a77078", "operator": "United States Postal Service", "operator:short": "USPS", "operator:type": "public", "operator:wikidata": "Q668687", "ref": "1756600020"}, "type": "Feature"}
{"geometry": {"coordinates": [-76.123411, 40.21245], "type": "Point"}, "id": "cLr6dh4uoqaGvCAikHRqV2Dx114=", "properties": {"@source_uri": "https://tools.usps.com/UspsToolsRestServices/rest/POLocator/findLocations", "@spider": "usps_collection_boxes", "addr:city": "REAMSTOWN", "addr:country": "US", "addr:postcode": "17567", "addr:state": "PA", "addr:street_address": "14 N REAMSTOWN RD", "amenity": "post_box", "collection_times": "Mo-Fr 16:15; Sa 11:30", "note": "ON 12/24 AND 12/31, THIS BOX MAY BE COLLECTED AS EARLY AS 12 NOON.", "nsi_id": "unitedstatespostalservice-a77078", "operator": "United States Postal Service", "operator:short": "USPS", "operator:type": "public", "operator:wikidata": "Q668687", "ref": "1756700001"}, "type": "Feature"}
{"geometry": {"coordinates": [-76.123411, 40.21245], "type": "Point"}, "id": "wJJfuygheFM3NOs7Ye46ZdZ3qko=", "properties": {"@source_uri": "https://tools.usps.com/UspsToolsRestServices/rest/POLocator/findLocations", "@spider": "usps_collection_boxes", "addr:city": "REAMSTOWN", "addr:country": "US", "addr:postcode": "17567", "addr:state": "PA", "addr:street_address": "14 N REAMSTOWN RD", "amenity": "post_box", "collection_times": "Mo-Fr 16:15; Sa 11:30", "indoor": "yes", "note": "ON 12/24 AND 12/31, THIS BOX MAY BE COLLECTED AS EARLY AS 12 NOON.", "nsi_id": "unitedstatespostalservice-a77078", "operator": "United States Postal Service", "operator:short": "USPS", "operator:type": "public", "operator:wikidata": "Q668687", "ref": "1756700002"}, "type": "Feature"}
{"geometry": {"coordinates": [-76.12293079, 40.212109004], "type": "Point"}, "id": "An5O8Q064uWkZLk37UpTiLxvboA=", "properties": {"@source_uri": "https://tools.usps.com/UspsToolsRestServices/rest/POLocator/findLocations", "@spider": "usps_collection_boxes", "addr:city": "REAMSTOWN", "addr:country": "US", "addr:postcode": "17567", "addr:state": "PA", "addr:street_address": "14 N REAMSTOWN RD", "amenity": "post_box", "collection_times": "Mo-Fr 16:30; Sa 11:15", "indoor": "yes", "note": "ON 12/24 AND 12/31, THIS BOX MAY BE COLLECTED AS EARLY AS 12 NOON.", "nsi_id": "unitedstatespostalservice-a77078", "operator": "United States Postal Service", "operator:short": "USPS", "operator:type": "public", "operator:wikidata": "Q668687", "ref": "1756700004"}, "type": "Feature"}
{"geometry": {"coordinates": [-76.235601, 39.94769], "type": "Point"}, "id": "ijanfYNbfoETvevUHke0lNqPeDI=", "properties": {"@source_uri": "https://tools.usps.com/UspsToolsRestServices/rest/POLocator/findLocations", "@spider": "usps_collection_boxes", "addr:city": "REFTON", "addr:country": "US", "addr:postcode": "17568", "addr:state": "PA", "addr:street_address": "45 REFTON RD", "amenity": "post_box", "collection_times": "Mo-Fr 16:45; Sa 11:15", "note": "ON 12/24 AND 12/31, THIS BOX MAY BE COLLECTED AS EARLY AS 12 NOON.", "nsi_id": "unitedstatespostalservice-a77078", "operator": "United States Postal Service", "operator:short": "USPS", "operator:type": "public", "operator:wikidata": "Q668687", "ref": "1756800001"}, "type": "Feature"}
{"geometry": {"coordinates": [-76.235601, 39.94769], "type": "Point"}, "id": "K-9ir7BjEGpZHOcdpBDpSe2YX-s=", "properties": {"@source_uri": "https://tools.usps.com/UspsToolsRestServices/rest/POLocator/findLocations", "@spider": "usps_collection_boxes", "addr:city": "REFTON", "addr:country": "US", "addr:postcode": "17568", "addr:state": "PA", "addr:street_address": "45 REFTON RD", "amenity": "post_box", "collection_times": "Mo-Fr 16:45; Sa 11:15", "indoor": "yes", "note": "ON 12/24 AND 12/31, THIS BOX MAY BE COLLECTED AS EARLY AS 12 NOON.", "nsi_id": "unitedstatespostalservice-a77078", "operator": "United States Postal Service", "operator:short": "USPS", "operator:type": "public", "operator:wikidata": "Q668687", "ref": "1756800002"}, "type": "Feature"}
{"geometry": {"coordinates": [-76.235740304, 39.94742462], "type": "Point"}, "id": "pB3RMF2Mqn2gu2wXMoKhfTmKYVw=", "properties": {"@source_uri": "https://tools.usps.com/UspsToolsRestServices/rest/POLocator/findLocations", "@spider": "usps_collection_boxes", "addr:city": "REFTON", "addr:country": "US", "addr:postcode": "17568", "addr:state": "PA", "addr:street_address": "45 REFTON RD", "amenity": "post_box", "collection_times": "Mo-Fr 17:00; Sa 11:30", "indoor": "yes", "note": "ON 12/24 AND 12/31, THIS BOX MAY BE COLLECTED AS EARLY AS 12 NOON.", "nsi_id": "unitedstatespostalservice-a77078", "operator": "United States Postal Service", "operator:short": "USPS", "operator:type": "public", "operator:wikidata": "Q668687", "ref": "1756800004"}, "type": "Feature"}
{"geometry": {"coordinates": [-76.115134, 40.263408], "type": "Point"}, "id": "t62oFHii-4MB3VxTeP2WVzqUAAo=", "properties": {"@source_uri": "https://tools.usps.com/UspsToolsRestServices/rest/POLocator/findLocations", "@spider": "usps_collection_boxes", "addr:city": "REINHOLDS", "addr:country": "US", "addr:postcode": "17569", "addr:state": "PA", "addr:street_address": "110B MECHANIC ST", "amenity": "post_box", "collection_times": "Mo-Fr 11:30; Sa 10:30", "nsi_id": "unitedstatespostalservice-a77078", "operator": "United States Postal Service", "operator:short": "USPS", "operator:type": "public", "operator:wikidata": "Q668687", "ref": "1756900001"}, "type": "Feature"}
{"geometry": {"coordinates": [-76.115235, 40.263455], "type": "Point"}, "id": "ODR3QbvpuMu0gDelw5Ysu_OnV2k=", "properties": {"@source_uri": "https://tools.usps.com/UspsToolsRestServices/rest/POLocator/findLocations", "@spider": "usps_collection_boxes", "addr:city": "REINHOLDS", "addr:country": "US", "addr:postcode": "17569", "addr:state": "PA", "addr:street_address": "110B MECHANIC ST", "amenity": "post_box", "collection_times": "Mo-Fr 11:30; Sa 10:30", "indoor": "yes", "nsi_id": "unitedstatespostalservice-a77078", "operator": "United States Postal Service", "operator:short": "USPS", "operator:type": "public", "operator:wikidata": "Q668687", "ref": "1756900003"}, "type": "Feature"}
{"geometry": {"coordinates": [-76.115197626, 40.263497147], "type": "Point"}, "id": "IVWO7ro-zE5jwFLhZ4KjyrUAD4E=", "properties": {"@source_uri": "https://tools.usps.com/UspsToolsRestServices/rest/POLocator/findLocations", "@spider": "usps_collection_boxes", "addr:city": "REINHOLDS", "addr:country": "US", "addr:postcode": "17569", "addr:state": "PA", "addr:street_address": "110B MECHANIC ST", "amenity": "post_box", "collection_times": "Mo-Fr 11:30; Sa 10:30", "indoor": "yes", "nsi_id": "unitedstatespostalservice-a77078", "operator": "United States Postal Service", "operator:short": "USPS", "operator:type": "public", "operator:wikidata": "Q668687", "ref": "1756900005"}, "type": "Feature"}
{"geometry": {"coordinates": [-76.570731, 40.12909], "type": "Point"}, "id": "HaOs0HXNJQxOfz7fU7SdkHZjw08=", "properties": {"@source_uri": "https://tools.usps.com/UspsToolsRestServices/rest/POLocator/findLocations", "@spider": "usps_collection_boxes", "addr:city": "RHEEMS", "addr:country": "US", "addr:postcode": "17570", "addr:state": "PA", "addr:street_address": "119 LIME ST", "amenity": "post_box", "collection_times": "Mo-Fr 16:15; Sa 11:15", "note": "ON 12/24 AND 12/31, THIS BOX MAY BE COLLECTED AS EARLY AS 12 NOON.", "nsi_id": "unitedstatespostalservice-a77078", "operator": "United States Postal Service", "operator:short": "USPS", "operator:type": "public", "operator:wikidata": "Q668687", "ref": "1757000002"}, "type": "Feature"}
{"geometry": {"coordinates": [-76.570731, 40.12909], "type": "Point"}, "id": "tJVJ7LR1cec6jkbXo5RENW-tlZI=", "properties": {"@source_uri": "https://tools.usps.com/UspsToolsRestServices/rest/POLocator/findLocations", "@spider": "usps_collection_boxes", "addr:city": "RHEEMS", "addr:country": "US", "addr:postcode": "17570", "addr:state": "PA", "addr:street_address": "119 LIME ST", "amenity": "post_box", "collection_times": "Mo-Fr 16:15; Sa 11:15", "indoor": "yes", "note": "ON 12/24 AND 12/31, THIS BOX MAY BE COLLECTED AS EARLY AS 12 NOON.", "nsi_id": "unitedstatespostalservice-a77078", "operator": "United States Postal Service", "operator:short": "USPS", "operator:type": "public", "operator:wikidata": "Q668687", "ref": "1757000004"}, "type": "Feature"}
{"geometry": {"coordinates": [-76.570909519, 40.129148001], "type": "Point"}, "id": "A5IQbB9nHsKcJzGHxlx8fd-NkZw=", "properties": {"@source_uri": "https://tools.usps.com/UspsToolsRestServices/rest/POLocator/findLocations", "@spider": "usps_collection_boxes", "addr:city": "RHEEMS", "addr:country": "US", "addr:postcode": "17570", "addr:state": "PA", "addr:street_address": "119 LIME ST", "amenity": "post_box", "collection_times": "Mo-Fr 16:30; Sa 11:30", "indoor": "yes", "note": "ON 12/24 AND 12/31, THIS BOX MAY BE COLLECTED AS EARLY AS 12 NOON.", "nsi_id": "unitedstatespostalservice-a77078", "operator": "United States Postal Service", "operator:short": "USPS", "operator:type": "public", "operator:wikidata": "Q668687", "ref": "1757000006"}, "type": "Feature"}
{"geometry": {"coordinates": [-76.16539, 40.017772], "type": "Point"}, "id": "77T0OGr9wye8VpQPHoQxz17cCQM=", "properties": {"@source_uri": "https://tools.usps.com/UspsToolsRestServices/rest/POLocator/findLocations", "@spider": "usps_collection_boxes", "addr:city": "RONKS", "addr:country": "US", "addr:postcode": "17572", "addr:state": "PA", "addr:street_address": "9 N RONKS RD", "amenity": "post_box", "collection_times": "Mo-Fr 16:30; Sa 10:00", "indoor": "yes", "note": "ON 12/24 AND 12/31, THIS BOX MAY BE COLLECTED AS EARLY AS 12 NOON.", "nsi_id": "unitedstatespostalservice-a77078", "operator": "United States Postal Service", "operator:short": "USPS", "operator:type": "public", "operator:wikidata": "Q668687", "ref": "1757200007"}, "type": "Feature"}
{"geometry": {"coordinates": [-76.165299772, 40.017632835], "type": "Point"}, "id": "PVmV0ceB9tKyWNTfgF_69IJQ5gc=", "properties": {"@source_uri": "https://tools.usps.com/UspsToolsRestServices/rest/POLocator/findLocations", "@spider": "usps_collection_boxes", "addr:city": "RONKS", "addr:country": "US", "addr:postcode": "17572", "addr:state": "PA", "addr:street_address": "9 N RONKS RD", "amenity": "post_box", "collection_times": "Mo-Fr 16:35; Sa 11:05", "indoor": "yes", "note": "ON 12/24 AND 12/31, THIS BOX MAY BE COLLECTED AS EARLY AS 12 NOON.", "nsi_id": "unitedstatespostalservice-a77078", "operator": "United States Postal Service", "operator:short": "USPS", "operator:type": "public", "operator:wikidata": "Q668687", "ref": "1757200010"}, "type": "Feature"}
{"geometry": {"coordinates": [-76.435749, 40.063759], "type": "Point"}, "id": "WPaw1-GQ6sgkLHmlUbPhkLGl6PQ=", "properties": {"@source_uri": "https://tools.usps.com/UspsToolsRestServices/rest/POLocator/findLocations", "@spider": "usps_collection_boxes", "addr:city": "SILVER SPRING", "addr:country": "US", "addr:postcode": "17575", "addr:state": "PA", "addr:street_address": "3672 MARIETTA AVE", "amenity": "post_box", "collection_times": "Mo-Fr 16:15; Sa 10:45", "note": "ON 12/24 AND 12/31, THIS BOX MAY BE COLLECTED AS EARLY AS 12 NOON.", "nsi_id": "unitedstatespostalservice-a77078", "operator": "United States Postal Service", "operator:short": "USPS", "operator:type": "public", "operator:wikidata": "Q668687", "ref": "1757500002"}, "type": "Feature"}
{"geometry": {"coordinates": [-76.435749, 40.063759], "type": "Point"}, "id": "M1olF9yO-dV4ye5YBgL9PhanOGM=", "properties": {"@source_uri": "https://tools.usps.com/UspsToolsRestServices/rest/POLocator/findLocations", "@spider": "usps_collection_boxes", "addr:city": "SILVER SPRING", "addr:country": "US", "addr:postcode": "17575", "addr:state": "PA", "addr:street_address": "3672 MARIETTA AVE", "amenity": "post_box", "collection_times": "Mo-Fr 16:15; Sa 10:45", "indoor": "yes", "note": "ON 12/24 AND 12/31, THIS BOX MAY BE COLLECTED AS EARLY AS 12 NOON.", "nsi_id": "unitedstatespostalservice-a77078", "operator": "United States Postal Service", "operator:short": "USPS", "operator:type": "public", "operator:wikidata": "Q668687", "ref": "1757500003"}, "type": "Feature"}
{"geometry": {"coordinates": [-76.435607, 40.063955733], "type": "Point"}, "id": "1pNxdYt8UlkOW4uOe2G3fLRjL_g=", "properties": {"@source_uri": "https://tools.usps.com/UspsToolsRestServices/rest/POLocator/findLocations", "@spider": "usps_collection_boxes", "addr:city": "SILVER SPRING", "addr:country": "US", "addr:postcode": "17575", "addr:state": "PA", "addr:street_address": "3672 MARIETTA AVE", "amenity": "post_box", "collection_times": "Mo-Fr 16:00; Sa 11:00", "indoor": "yes", "note": "ON 12/24 AND 12/31, THIS BOX MAY BE COLLECTED AS EARLY AS 12 NOON.", "nsi_id": "unitedstatespostalservice-a77078", "operator": "United States Postal Service", "operator:short": "USPS", "operator:type": "public", "operator:wikidata": "Q668687", "ref": "1757500005"}, "type": "Feature"}
{"geometry": {"coordinates": [-76.207262, 40.039547], "type": "Point"}, "id": "BismmBxZpCJz8ODkxHsXX2ssueY=", "properties": {"@source_uri": "https://tools.usps.com/UspsToolsRestServices/rest/POLocator/findLocations", "@spider": "usps_collection_boxes", "addr:city": "SMOKETOWN", "addr:country": "US", "addr:postcode": "17576", "addr:state": "PA", "addr:street_address": "2433 OLD PHILADELPHIA PIKE", "amenity": "post_box", "collection_times": "Mo-Fr 16:30; Sa 11:00", "note": "ON 12/24 AND 12/31, THIS BOX MAY BE COLLECTED AS EARLY AS 12 NOON.", "nsi_id": "unitedstatespostalservice-a77078", "operator": "United States Postal Service", "operator:short": "USPS", "operator:type": "public", "operator:wikidata": "Q668687", "ref": "1757600001"}, "type": "Feature"}
{"geometry": {"coordinates": [-76.207262, 40.039547], "type": "Point"}, "id": "6F8veHvDp6MtR4nj4gddPZm0_u8=", "properties": {"@source_uri": "https://tools.usps.com/UspsToolsRestServices/rest/POLocator/findLocations", "@spider": "usps_collection_boxes", "addr:city": "SMOKETOWN", "addr:country": "US", "addr:postcode": "17576", "addr:state": "PA", "addr:street_address": "2433 OLD PHILADELPHIA PIKE", "amenity": "post_box", "collection_times": "Mo-Fr 16:30; Sa 11:00", "indoor": "yes", "note": "ON 12/24 AND 12/31, THIS BOX MAY BE COLLECTED AS EARLY AS 12 NOON.", "nsi_id": "unitedstatespostalservice-a77078", "operator": "United States Postal Service", "operator:short": "USPS", "operator:type": "public", "operator:wikidata": "Q668687", "ref": "1757600003"}, "type": "Feature"}
{"geometry": {"coordinates": [-76.207113811, 40.039579587], "type": "Point"}, "id": "oks4Zb2ULUkv7VczXwelcvVFZ6c=", "properties": {"@source_uri": "https://tools.usps.com/UspsToolsRestServices/rest/POLocator/findLocations", "@spider": "usps_collection_boxes", "addr:city": "SMOKETOWN", "addr:country": "US", "addr:postcode": "17576", "addr:state": "PA", "addr:street_address": "2433 OLD PHILADELPHIA PIKE STE E", "amenity": "post_box", "collection_times": "Mo-Fr 16:05; Sa 11:05", "indoor": "yes", "note": "ON 12/24 AND 12/31, THIS BOX MAY BE COLLECTED AS EARLY AS 12 NOON.", "nsi_id": "unitedstatespostalservice-a77078", "operator": "United States Postal Service", "operator:short": "USPS", "operator:type": "public", "operator:wikidata": "Q668687", "ref": "1757600005"}, "type": "Feature"}
{"geometry": {"coordinates": [-76.155763, 40.215924], "type": "Point"}, "id": "N9EL1TuQDOH8X4qJ27WfRIHbAnY=", "properties": {"@source_uri": "https://tools.usps.com/UspsToolsRestServices/rest/POLocator/findLocations", "@spider": "usps_collection_boxes", "addr:city": "STEVENS", "addr:country": "US", "addr:postcode": "17578", "addr:state": "PA", "addr:street_address": "16 S LINE RD", "amenity": "post_box", "collection_times": "Mo-Fr 16:00; Sa 11:00", "note": "ON 12/24 AND 12/31, THIS BOX MAY BE COLLECTED AS EARLY AS 12 NOON.", "nsi_id": "unitedstatespostalservice-a77078", "operator": "United States Postal Service", "operator:short": "USPS", "operator:type": "public", "operator:wikidata": "Q668687", "ref": "1757800001"}, "type": "Feature"}
{"geometry": {"coordinates": [-76.155674, 40.215935], "type": "Point"}, "id": "vfXEtAka1Dxxe9lKWJJwLBa8pd8=", "properties": {"@source_uri": "https://tools.usps.com/UspsToolsRestServices/rest/POLocator/findLocations", "@spider": "usps_collection_boxes", "addr:city": "STEVENS", "addr:country": "US", "addr:postcode": "17578", "addr:state": "PA", "addr:street_address": "16 S LINE RD", "amenity": "post_box", "collection_times": "Mo-Fr 16:00; Sa 11:00", "indoor": "yes", "note": "ON 12/24 AND 12/31, THIS BOX MAY BE COLLECTED AS EARLY AS 12 NOON.", "nsi_id": "unitedstatespostalservice-a77078", "operator": "United States Postal Service", "operator:short": "USPS", "operator:type": "public", "operator:wikidata": "Q668687", "ref": "1757800003"}, "type": "Feature"}
{"geometry": {"coordinates": [-76.155365512, 40.216112747], "type": "Point"}, "id": "9zzaO95DJomtjCrRCoXOyXOYVh4=", "properties": {"@source_uri": "https://tools.usps.com/UspsToolsRestServices/rest/POLocator/findLocations", "@spider": "usps_collection_boxes", "addr:city": "STEVENS", "addr:country": "US", "addr:postcode": "17578", "addr:state": "PA", "addr:street_address": "16 S LINE RD", "amenity": "post_box", "collection_times": "Mo-Fr 16:00; Sa 11:00", "indoor": "yes", "note": "ON 12/24 AND 12/31, THIS BOX MAY BE COLLECTED AS EARLY AS 12 NOON.", "nsi_id": "unitedstatespostalservice-a77078", "operator": "United States Postal Service", "operator:short": "USPS", "operator:type": "public", "operator:wikidata": "Q668687", "ref": "1757800005"}, "type": "Feature"}
{"geometry": {"coordinates": [-76.176667, 39.987716], "type": "Point"}, "id": "eHSrQH2jXIMqqMvl2lTR7uP9d8g=", "properties": {"@source_uri": "https://tools.usps.com/UspsToolsRestServices/rest/POLocator/findLocations", "@spider": "usps_collection_boxes", "addr:city": "STRASBURG", "addr:country": "US", "addr:postcode": "17579", "addr:state": "PA", "addr:street_address": "200 HISTORIC DR", "amenity": "post_box", "collection_times": "Mo-Fr 16:30", "note": "ON 12/24 AND 12/31, THIS BOX MAY BE COLLECTED AS EARLY AS 12 NOON.", "nsi_id": "unitedstatespostalservice-a77078", "operator": "United States Postal Service", "operator:short": "USPS", "operator:type": "public", "operator:wikidata": "Q668687", "ref": "1757900007"}, "type": "Feature"}
{"geometry": {"coordinates": [-76.17664, 39.987734], "type": "Point"}, "id": "-AWIMB3ZFYk6Gjp4eBI7sQO9LO4=", "properties": {"@source_uri": "https://tools.usps.com/UspsToolsRestServices/rest/POLocator/findLocations", "@spider": "usps_collection_boxes", "addr:city": "STRASBURG", "addr:country": "US", "addr:postcode": "17579", "addr:state": "PA", "addr:street_address": "200 HISTORIC DR", "amenity": "post_box", "collection_times": "Mo-Fr 16:30; Sa 13:00", "indoor": "yes", "note": "ON 12/24 AND 12/31, THIS BOX MAY BE COLLECTED AS EARLY AS 12 NOON.", "nsi_id": "unitedstatespostalservice-a77078", "operator": "United States Postal Service", "operator:short": "USPS", "operator:type": "public", "operator:wikidata": "Q668687", "ref": "1757900009"}, "type": "Feature"}
{"geometry": {"coordinates": [-76.17663331, 39.987676188], "type": "Point"}, "id": "dQllUB1VGjMarJtb2N6uka57Xc8=", "properties": {"@source_uri": "https://tools.usps.com/UspsToolsRestServices/rest/POLocator/findLocations", "@spider": "usps_collection_boxes", "addr:city": "STRASBURG", "addr:country": "US", "addr:postcode": "17579", "addr:state": "PA", "addr:street_address": "200 HISTORIC DR", "amenity": "post_box", "collection_times": "Mo-Fr 16:30; Sa 13:00", "indoor": "yes", "note": "ON 12/24 AND 12/31, THIS BOX MAY BE COLLECTED AS EARLY AS 12 NOON.", "nsi_id": "unitedstatespostalservice-a77078", "operator": "United States Postal Service", "operator:short": "USPS", "operator:type": "public", "operator:wikidata": "Q668687", "ref": "1757900011"}, "type": "Feature"}
{"geometry": {"coordinates": [-76.214275, 40.117139], "type": "Point"}, "id": "nA3G85RQkcOwQYrHRCmUuqDS1Ew=", "properties": {"@source_uri": "https://tools.usps.com/UspsToolsRestServices/rest/POLocator/findLocations", "@spider": "usps_collection_boxes", "addr:city": "TALMAGE", "addr:country": "US", "addr:postcode": "17580", "addr:state": "PA", "addr:street_address": "247 S STATE ST", "amenity": "post_box", "collection_times": "Mo-Fr 16:00; Sa 10:00", "indoor": "yes", "note": "ON 12/24 AND 12/31, THIS BOX MAY BE COLLECTED AS EARLY AS 12 NOON.", "nsi_id": "unitedstatespostalservice-a77078", "operator": "United States Postal Service", "operator:short": "USPS", "operator:type": "public", "operator:wikidata": "Q668687", "ref": "1758000002"}, "type": "Feature"}
{"geometry": {"coordinates": [-76.181845114, 40.177120529], "type": "Point"}, "id": "Nbv18EMM071kf5MxXfhUQMq0WX0=", "properties": {"@source_uri": "https://tools.usps.com/UspsToolsRestServices/rest/POLocator/findLocations", "@spider": "usps_collection_boxes", "addr:city": "TALMAGE", "addr:country": "US", "addr:postcode": "17580", "addr:state": "PA", "addr:street_address": "247 S STATE ST", "amenity": "post_box", "collection_times": "Mo-Fr 16:00; Sa 10:00", "indoor": "yes", "note": "ON 12/24 AND 12/31, THIS BOX MAY BE COLLECTED AS EARLY AS 12 NOON.", "nsi_id": "unitedstatespostalservice-a77078", "operator": "United States Postal Service", "operator:short": "USPS", "operator:type": "public", "operator:wikidata": "Q668687", "ref": "1758000004"}, "type": "Feature"}
{"geometry": {"coordinates": [-76.050104, 40.157264], "type": "Point"}, "id": "s5Wi1EMLmnilpIEx0yPWrGVwe2k=", "properties": {"@source_uri": "https://tools.usps.com/UspsToolsRestServices/rest/POLocator/findLocations", "@spider": "usps_collection_boxes", "addr:city": "TERRE HILL", "addr:country": "US", "addr:postcode": "17581", "addr:state": "PA", "addr:street_address": "104 W MAIN ST", "amenity": "post_box", "collection_times": "Mo-Fr 15:30; Sa 11:30", "note": "ON 12/24 AND 12/31, THIS BOX MAY BE COLLECTED AS EARLY AS 12 NOON.", "nsi_id": "unitedstatespostalservice-a77078", "operator": "United States Postal Service", "operator:short": "USPS", "operator:type": "public", "operator:wikidata": "Q668687", "ref": "1758100000"}, "type": "Feature"}
{"geometry": {"coordinates": [-76.050089, 40.157233], "type": "Point"}, "id": "s_LI-W3j4bysnD29W-jVlX1OYdw=", "properties": {"@source_uri": "https://tools.usps.com/UspsToolsRestServices/rest/POLocator/findLocations", "@spider": "usps_collection_boxes", "addr:city": "TERRE HILL", "addr:country": "US", "addr:postcode": "17581", "addr:state": "PA", "addr:street_address": "104 W MAIN ST", "amenity": "post_box", "collection_times": "Mo-Fr 15:30; Sa 11:30", "indoor": "yes", "note": "ON 12/24 AND 12/31, THIS BOX MAY BE COLLECTED AS EARLY AS 12 NOON.", "nsi_id": "unitedstatespostalservice-a77078", "operator": "United States Postal Service", "operator:short": "USPS", "operator:type": "public", "operator:wikidata": "Q668687", "ref": "1758100002"}, "type": "Feature"}
{"geometry": {"coordinates": [-76.050096495, 40.157294415], "type": "Point"}, "id": "8mYiQTllMxTUi7NAfAZRQlQ8yzM=", "properties": {"@source_uri": "https://tools.usps.com/UspsToolsRestServices/rest/POLocator/findLocations", "@spider": "usps_collection_boxes", "addr:city": "TERRE HILL", "addr:country": "US", "addr:postcode": "17581", "addr:state": "PA", "addr:street_address": "104 W MAIN ST", "amenity": "post_box", "collection_times": "Mo-Fr 15:35; Sa 11:35", "indoor": "yes", "note": "ON 12/24 AND 12/31, THIS BOX MAY BE COLLECTED AS EARLY AS 12 NOON.", "nsi_id": "unitedstatespostalservice-a77078", "operator": "United States Postal Service", "operator:short": "USPS", "operator:type": "public", "operator:wikidata": "Q668687", "ref": "1758100004"}, "type": "Feature"}
{"geometry": {"coordinates": [-76.470781, 39.993875], "type": "Point"}, "id": "PRckXarlQe4PxwFomVHFrXq97tg=", "properties": {"@source_uri": "https://tools.usps.com/UspsToolsRestServices/rest/POLocator/findLocations", "@spider": "usps_collection_boxes", "addr:city": "WASHINGTON BORO", "addr:country": "US", "addr:postcode": "17582", "addr:state": "PA", "addr:street_address": "10 ELIZABETH ST", "amenity": "post_box", "collection_times": "Mo-Fr 16:15; Sa 10:00", "note": "ON 12/24 AND 12/31, THIS BOX MAY BE COLLECTED AS EARLY AS 12 NOON.", "nsi_id": "unitedstatespostalservice-a77078", "operator": "United States Postal Service", "operator:short": "USPS", "operator:type": "public", "operator:wikidata": "Q668687", "ref": "1758200001"}, "type": "Feature"}
{"geometry": {"coordinates": [-76.470856, 39.99382], "type": "Point"}, "id": "8kzL6Euz92zG683wkRW9Q0IV7WM=", "properties": {"@source_uri": "https://tools.usps.com/UspsToolsRestServices/rest/POLocator/findLocations", "@spider": "usps_collection_boxes", "addr:city": "WASHINGTON BORO", "addr:country": "US", "addr:postcode": "17582", "addr:state": "PA", "addr:street_address": "10 ELIZABETH ST", "amenity": "post_box", "collection_times": "Mo-Fr 16:15; Sa 09:45", "indoor": "yes", "note": "ON 12/24 AND 12/31, THIS BOX MAY BE COLLECTED AS EARLY AS 12 NOON.", "nsi_id": "unitedstatespostalservice-a77078", "operator": "United States Postal Service", "operator:short": "USPS", "operator:type": "public", "operator:wikidata": "Q668687", "ref": "1758200002"}, "type": "Feature"}
{"geometry": {"coordinates": [-76.470826782, 39.993895622], "type": "Point"}, "id": "I2zmwIgGX4gHMIH3Y899ukizRsU=", "properties": {"@source_uri": "https://tools.usps.com/UspsToolsRestServices/rest/POLocator/findLocations", "@spider": "usps_collection_boxes", "addr:city": "WASHINGTON BORO", "addr:country": "US", "addr:postcode": "17582", "addr:state": "PA", "addr:street_address": "10 ELIZABETH ST", "amenity": "post_box", "collection_times": "Mo-Fr 16:30; Sa 10:00", "indoor": "yes", "note": "ON 12/24 AND 12/31, THIS BOX MAY BE COLLECTED AS EARLY AS 12 NOON.", "nsi_id": "unitedstatespostalservice-a77078", "operator": "United States Postal Service", "operator:short": "USPS", "operator:type": "public", "operator:wikidata": "Q668687", "ref": "1758200004"}, "type": "Feature"}
{"geometry": {"coordinates": [-76.274662, 39.975109], "type": "Point"}, "id": "z9IZAYu3ZMbJJaFT9xI3jrizC14=", "properties": {"@source_uri": "https://tools.usps.com/UspsToolsRestServices/rest/POLocator/findLocations", "@spider": "usps_collection_boxes", "addr:city": "WILLOW STREET", "addr:country": "US", "addr:postcode": "17584", "addr:state": "PA", "addr:street_address": "6 VIOLET AVE", "amenity": "post_box", "collection_times": "Mo-Fr 16:15; Sa 11:45", "note": "ON 12/24 AND 12/31, THIS BOX MAY BE COLLECTED AS EARLY AS 12 NOON.", "nsi_id": "unitedstatespostalservice-a77078", "operator": "United States Postal Service", "operator:short": "USPS", "operator:type": "public", "operator:wikidata": "Q668687", "ref": "1758400002"}, "type": "Feature"}
{"geometry": {"coordinates": [-76.2818644, 39.98459], "type": "Point"}, "id": "JW4pJ10jYxj-gVzrK6T1FFVWbAk=", "properties": {"@source_uri": "https://tools.usps.com/UspsToolsRestServices/rest/POLocator/findLocations", "@spider": "usps_collection_boxes", "addr:city": "WILLOW STREET", "addr:country": "US", "addr:postcode": "17584", "addr:state": "PA", "addr:street_address": "2600 WILLOW STREET PIKE N", "amenity": "post_box", "collection_times": "Mo-Sa 09:45", "nsi_id": "unitedstatespostalservice-a77078", "operator": "United States Postal Service", "operator:short": "USPS", "operator:type": "public", "operator:wikidata": "Q668687", "ref": "1758400003"}, "type": "Feature"}
{"geometry": {"coordinates": [-76.274775, 39.97511], "type": "Point"}, "id": "SrdgeVT6fnDzzTXcOlB-Klujkz0=", "properties": {"@source_uri": "https://tools.usps.com/UspsToolsRestServices/rest/POLocator/findLocations", "@spider": "usps_collection_boxes", "addr:city": "WILLOW STREET", "addr:country": "US", "addr:postcode": "17584", "addr:state": "PA", "addr:street_address": "6 VIOLET AVE", "amenity": "post_box", "collection_times": "Mo-Fr 16:15; Sa 11:45", "indoor": "yes", "note": "ON 12/24 AND 12/31, THIS BOX MAY BE COLLECTED AS EARLY AS 12 NOON.", "nsi_id": "unitedstatespostalservice-a77078", "operator": "United States Postal Service", "operator:short": "USPS", "operator:type": "public", "operator:wikidata": "Q668687", "ref": "1758400005"}, "type": "Feature"}
{"geometry": {"coordinates": [-76.274266867, 39.975203002], "type": "Point"}, "id": "WY4Gj4h_MecEpUuvikpv6g0yxbA=", "properties": {"@source_uri": "https://tools.usps.com/UspsToolsRestServices/rest/POLocator/findLocations", "@spider": "usps_collection_boxes", "addr:city": "WILLOW STREET", "addr:country": "US", "addr:postcode": "17584", "addr:state": "PA", "addr:street_address": "6 VIOLET AVE", "amenity": "post_box", "collection_times": "Mo-Fr 16:15; Sa 11:05", "indoor": "yes", "note": "ON 12/24 AND 12/31, THIS BOX MAY BE COLLECTED AS EARLY AS 12 NOON.", "nsi_id": "unitedstatespostalservice-a77078", "operator": "United States Postal Service", "operator:short": "USPS", "operator:type": "public", "operator:wikidata": "Q668687", "ref": "1758400008"}, "type": "Feature"}
{"geometry": {"coordinates": [-76.210813, 40.046541], "type": "Point"}, "id": "cpyfDs6zJQ1LMZVVvQjDqr5oFgA=", "properties": {"@source_uri": "https://tools.usps.com/UspsToolsRestServices/rest/POLocator/findLocations", "@spider": "usps_collection_boxes", "addr:city": "WITMER", "addr:country": "US", "addr:postcode": "17585", "addr:state": "PA", "addr:street_address": "407 MOUNT SIDNEY RD", "amenity": "post_box", "collection_times": "Mo-Fr 12:15; Sa 11:00", "note": "ON 12/24 AND 12/31, THIS BOX MAY BE COLLECTED AS EARLY AS 12 NOON.", "nsi_id": "unitedstatespostalservice-a77078", "operator": "United States Postal Service", "operator:short": "USPS", "operator:type": "public", "operator:wikidata": "Q668687", "ref": "1758500001"}, "type": "Feature"}
{"geometry": {"coordinates": [-76.210813, 40.046541], "type": "Point"}, "id": "KhTdKbAko87Ld0z9-Bw9hPG3_QA=", "properties": {"@source_uri": "https://tools.usps.com/UspsToolsRestServices/rest/POLocator/findLocations", "@spider": "usps_collection_boxes", "addr:city": "WITMER", "addr:country": "US", "addr:postcode": "17585", "addr:state": "PA", "addr:street_address": "407 MOUNT SIDNEY RD", "amenity": "post_box", "collection_times": "Mo-Fr 12:15; Sa 10:45", "indoor": "yes", "note": "ON 12/24 AND 12/31, THIS BOX MAY BE COLLECTED AS EARLY AS 12 NOON.", "nsi_id": "unitedstatespostalservice-a77078", "operator": "United States Postal Service", "operator:short": "USPS", "operator:type": "public", "operator:wikidata": "Q668687", "ref": "1758500002"}, "type": "Feature"}
{"geometry": {"coordinates": [-76.210780646, 40.046457005], "type": "Point"}, "id": "2NNTm4zV6sDbZpd9dDgdo84rpWI=", "properties": {"@source_uri": "https://tools.usps.com/UspsToolsRestServices/rest/POLocator/findLocations", "@spider": "usps_collection_boxes", "addr:city": "WITMER", "addr:country": "US", "addr:postcode": "17585", "addr:state": "PA", "addr:street_address": "407 MOUNT SIDNEY RD", "amenity": "post_box", "collection_times": "Mo-Fr 12:15; Sa 11:00", "indoor": "yes", "note": "ON 12/24 AND 12/31, THIS BOX MAY BE COLLECTED AS EARLY AS 12 NOON.", "nsi_id": "unitedstatespostalservice-a77078", "operator": "United States Postal Service", "operator:short": "USPS", "operator:type": "public", "operator:wikidata": "Q668687", "ref": "1758500005"}, "type": "Feature"}
