{"geometry": {"coordinates": [-76.3342595, 40.077262], "type": "Point"}, "id": "BWPga3_TgK2Pbbe3mdcmTsOI9IM=", "properties": {"@source_uri": "https://tools.usps.com/UspsToolsRestServices/rest/POLocator/findLocations", "@spider": "usps_collection_boxes", "addr:city": "LANCASTER", "addr:country": "US", "addr:postcode": "17601", "addr:state": "PA", "addr:street_address": "211 GRANITE RUN DR", "amenity": "post_box", "collection_times": "Mo-Sa 10:45", "nsi_id": "unitedstatespostalservice-a77078", "operator": "United States Postal Service", "operator:short": "USPS", "operator:type": "public", "operator:wikidata": "Q668687", "ref": "1760100006"}, "type": "Feature"}
{"geometry": {"coordinates": [-76.3013934, 40.066692], "type": "Point"}, "id": "kTFnn19ORJfkDyQ2jRbvZz27I4M=", "properties": {"@source_uri": "https://tools.usps.com/UspsToolsRestServices/rest/POLocator/findLocations", "@spider": "usps_collection_boxes", "addr:city": "LANCASTER", "addr:country": "US", "addr:postcode": "17601", "addr:state": "PA", "addr:street_address": "202 BUTLER AVE", "amenity": "post_box", "collection_times": "Mo-Sa 10:00", "nsi_id": "unitedstatespostalservice-a77078", "operator": "United States Postal Service", "operator:short": "USPS", "operator:type": "public", "operator:wikidata": "Q668687", "ref": "1760100009"}, "type": "Feature"}
{"geometry": {"coordinates": [-76.3076524, 40.076054], "type": "Point"}, "id": "HosQYocmxH74Q3g4QS5Bs_Ul8dQ=", "properties": {"@source_uri": "https://tools.usps.com/UspsToolsRestServices/rest/POLocator/findLocations", "@spider": "usps_collection_boxes", "addr:city": "LANCASTER", "addr:country": "US", "addr:postcode": "17601", "addr:state": "PA", "addr:street_address": "1881 SANTA BARBARA DR", "amenity": "post_box", "collection_times": "Mo-Sa 09:45", "nsi_id": "unitedstatespostalservice-a77078", "operator": "United States Postal Service", "operator:short": "USPS", "operator:type": "public", "operator:wikidata": "Q668687", "ref": "1760100019"}, "type": "Feature"}
{"geometry": {"coordinates": [-76.2967651, 40.054941], "type": "Point"}, "id": "c_PtrrfrrYCProopsZOWqKO4aGU=", "properties": {"@source_uri": "https://tools.usps.com/UspsToolsRestServices/rest/POLocator/findLocations", "@spider": "usps_collection_boxes", "addr:city": "LANCASTER", "addr:country": "US", "addr:postcode": "17601", "addr:state": "PA", "addr:street_address": "602 JANET AVE", "amenity": "post_box", "collection_times": "Mo-Sa 10:15", "nsi_id": "unitedstatespostalservice-a77078", "operator": "United States Postal Service", "operator:short": "USPS", "operator:type": "public", "operator:wikidata": "Q668687", "ref": "1760100024"}, "type": "Feature"}
{"geometry": {"coordinates": [-76.2840999, 40.08736], "type": "Point"}, "id": "UYVZS8d-hZ0F8gVuvbfoNFdUyoE=", "properties": {"@source_uri": "https://tools.usps.com/UspsToolsRestServices/rest/POLocator/findLocations", "@spider": "usps_collection_boxes", "addr:city": "LANCASTER", "addr:country": "US", "addr:postcode": "17601", "addr:state": "PA", "addr:street_address": "2211 OREGON PIKE", "amenity": "post_box", "collection_times": "Mo-Sa 10:30", "nsi_id": "unitedstatespostalservice-a77078", "operator": "United States Postal Service", "operator:short": "USPS", "operator:type": "public", "operator:wikidata": "Q668687", "ref": "1760100043"}, "type": "Feature"}
{"geometry": {"coordinates": [-76.3040849, 40.063138], "type": "Point"}, "id": "rI5xeJrveDW21pzbw9Hrx9VrxcU=", "properties": {"@source_uri": "https://tools.usps.com/UspsToolsRestServices/rest/POLocator/findLocations", "@spider": "usps_collection_boxes", "addr:city": "LANCASTER", "addr:country": "US", "addr:postcode": "17601", "addr:state": "PA", "addr:street_address": "1525 OREGON PIKE", "amenity": "post_box", "collection_times": "Mo-Sa 09:30", "nsi_id": "unitedstatespostalservice-a77078", "operator": "United States Postal Service", "operator:short": "USPS", "operator:type": "public", "operator:wikidata": "Q668687", "ref": "1760100046"}, "type": "Feature"}
{"geometry": {"coordinates": [-76.3439118, 40.070034], "type": "Point"}, "id": "cVt47myYSttnmGxjNWKCntyqeCY=", "properties": {"@source_uri": "https://tools.usps.com/UspsToolsRestServices/rest/POLocator/findLocations", "@spider": "usps_collection_boxes", "addr:city": "LANCASTER", "addr:country": "US", "addr:postcode": "17601", "addr:state": "PA", "addr:street_address": "878 PLAZA BLVD", "amenity": "post_box", "collection_times": "Mo-Sa 12:00", "nsi_id": "unitedstatespostalservice-a77078", "operator": "United States Postal Service", "operator:short": "USPS", "operator:type": "public", "operator:wikidata": "Q668687", "ref": "1760100049"}, "type": "Feature"}
{"geometry": {"coordinates": [-76.3966644, 40.049911], "type": "Point"}, "id": "DwpMiHlwcgC1jiuxvrQZ0SsG3gY=", "properties": {"@source_uri": "https://tools.usps.com/UspsToolsRestServices/rest/POLocator/findLocations", "@spider": "usps_collection_boxes", "addr:city": "LANCASTER", "addr:country": "US", "addr:postcode": "17601", "addr:state": "PA", "addr:street_address": "3002 HEMPLAND RD", "amenity": "post_box", "collection_times": "Mo-Sa 09:45", "nsi_id": "unitedstatespostalservice-a77078", "operator": "United States Postal Service", "operator:short": "USPS", "operator:type": "public", "operator:wikidata": "Q668687", "ref": "1760100052"}, "type": "Feature"}
{"geometry": {"coordinates": [-76.2488805, 40.050486], "type": "Point"}, "id": "CT2nQ66TIqCgQ4EmT8WkHIMnl7w=", "properties": {"@source_uri": "https://tools.usps.com/UspsToolsRestServices/rest/POLocator/findLocations", "@spider": "usps_collection_boxes", "addr:city": "LANCASTER", "addr:country": "US", "addr:postcode": "17601", "addr:state": "PA", "addr:street_address": "1813 OLDE HOMESTEAD LN", "amenity": "post_box", "collection_times": "Mo-Fr 16:15; Sa 11:45", "note": "ON 12/24 AND 12/31, THIS BOX MAY BE COLLECTED AS EARLY AS 12 NOON.", "nsi_id": "unitedstatespostalservice-a77078", "operator": "United States Postal Service", "operator:short": "USPS", "operator:type": "public", "operator:wikidata": "Q668687", "ref": "1760100062"}, "type": "Feature"}
{"geometry": {"coordinates": [-76.301268, 40.056592], "type": "Point"}, "id": "cwAhvgpP85tL7-lNHWOq-OPcYLc=", "properties": {"@source_uri": "https://tools.usps.com/UspsToolsRestServices/rest/POLocator/findLocations", "@spider": "usps_collection_boxes", "addr:city": "LANCASTER", "addr:country": "US", "addr:postcode": "17601", "addr:state": "PA", "addr:street_address": "1301 MARSHALL AVE", "amenity": "post_box", "collection_times": "Mo-Fr 17:15; Sa 16:15", "note": "ON 12/24 AND 12/31, THIS BOX MAY BE COLLECTED AS EARLY AS 12 NOON.", "nsi_id": "unitedstatespostalservice-a77078", "operator": "United States Postal Service", "operator:short": "USPS", "operator:type": "public", "operator:wikidata": "Q668687", "ref": "1760100082"}, "type": "Feature"}
{"geometry": {"coordinates": [-76.3012141, 40.072171], "type": "Point"}, "id": "vWPAjrgmcMviV8rrUxHIJpIKebQ=", "properties": {"@source_uri": "https://tools.usps.com/UspsToolsRestServices/rest/POLocator/findLocations", "@spider": "usps_collection_boxes", "addr:city": "LANCASTER", "addr:country": "US", "addr:postcode": "17601", "addr:state": "PA", "addr:street_address": "160 N POINTE BLVD", "amenity": "post_box", "collection_times": "Mo-Sa 10:30", "nsi_id": "unitedstatespostalservice-a77078", "operator": "United States Postal Service", "operator:short": "USPS", "operator:type": "public", "operator:wikidata": "Q668687", "ref": "1760100108"}, "type": "Feature"}
{"geometry": {"coordinates": [-76.3033727, 40.09414], "type": "Point"}, "id": "vYq_KHP1014QDy74I6XgdkgY1XY=", "properties": {"@source_uri": "https://tools.usps.com/UspsToolsRestServices/rest/POLocator/findLocations", "@spider": "usps_collection_boxes", "addr:city": "LANCASTER", "addr:country": "US", "addr:postcode": "17601", "addr:state": "PA", "addr:street_address": "16 MEADOW LN", "amenity": "post_box", "collection_times": "Mo-Fr 17:00; Sa 12:00", "note": "ON 12/24 AND 12/31, THIS BOX MAY BE COLLECTED AS EARLY AS 12 NOON.", "nsi_id": "unitedstatespostalservice-a77078", "operator": "United States Postal Service", "operator:short": "USPS", "operator:type": "public", "operator:wikidata": "Q668687", "ref": "1760100110"}, "type": "Feature"}
{"geometry": {"coordinates": [-76.303672, 40.093894], "type": "Point"}, "id": "vEzRRHCsi2d88LVsd7lxX1jT4fU=", "properties": {"@source_uri": "https://tools.usps.com/UspsToolsRestServices/rest/POLocator/findLocations", "@spider": "usps_collection_boxes", "addr:city": "LANCASTER", "addr:country": "US", "addr:postcode": "17601", "addr:state": "PA", "addr:street_address": "16 MEADOW LN", "amenity": "post_box", "collection_times": "Mo-Fr 16:15; Sa 11:45", "indoor": "yes", "note": "ON 12/24 AND 12/31, THIS BOX MAY BE COLLECTED AS EARLY AS 12 NOON.", "nsi_id": "unitedstatespostalservice-a77078", "operator": "United States Postal Service", "operator:short": "USPS", "operator:type": "public", "operator:wikidata": "Q668687", "ref": "1760100111"}, "type": "Feature"}
{"geometry": {"coordinates": [-76.248626, 40.050204], "type": "Point"}, "id": "_lgio6nJo2Dp4i8HUfzAwyormxs=", "properties": {"@source_uri": "https://tools.usps.com/UspsToolsRestServices/rest/POLocator/findLocations", "@spider": "usps_collection_boxes", "addr:city": "LANCASTER", "addr:country": "US", "addr:postcode": "17601", "addr:state": "PA", "addr:street_address": "1813 OLDE HOMESTEAD LN", "amenity": "post_box", "collection_times": "Mo-Fr 16:15; Sa 11:45", "indoor": "yes", "note": "ON 12/24 AND 12/31, THIS BOX MAY BE COLLECTED AS EARLY AS 12 NOON.", "nsi_id": "unitedstatespostalservice-a77078", "operator": "United States Postal Service", "operator:short": "USPS", "operator:type": "public", "operator:wikidata": "Q668687", "ref": "1760100112"}, "type": "Feature"}
{"geometry": {"coordinates": [-76.281507, 40.053759], "type": "Point"}, "id": "34XFkA4r1snJsQtqCFg29TlEImU=", "properties": {"@source_uri": "https://tools.usps.com/UspsToolsRestServices/rest/POLocator/findLocations", "@spider": "usps_collection_boxes", "addr:city": "LANCASTER", "addr:country": "US", "addr:postcode": "17601", "addr:state": "PA", "addr:street_address": "1000 NEW HOLLAND AVE", "amenity": "post_box", "collection_times": "Mo-Sa 09:45", "nsi_id": "unitedstatespostalservice-a77078", "operator": "United States Postal Service", "operator:short": "USPS", "operator:type": "public", "operator:wikidata": "Q668687", "ref": "1760100115"}, "type": "Feature"}
{"geometry": {"coordinates": [-76.4000579, 40.055754], "type": "Point"}, "id": "eaUEtdHBkcS7a1tut0vllMLvli4=", "properties": {"@source_uri": "https://tools.usps.com/UspsToolsRestServices/rest/POLocator/findLocations", "@spider": "usps_collection_boxes", "addr:city": "LANCASTER", "addr:country": "US", "addr:postcode": "17601", "addr:state": "PA", "addr:street_address": "590 CENTERVILLE RD", "amenity": "post_box", "collection_times": "Mo-Sa 10:30", "nsi_id": "unitedstatespostalservice-a77078", "operator": "United States Postal Service", "operator:short": "USPS", "operator:type": "public", "operator:wikidata": "Q668687", "ref": "1760100116"}, "type": "Feature"}
{"geometry": {"coordinates": [-76.3182755, 40.06679], "type": "Point"}, "id": "AvMwBI587yS3R503m_qGc6MvKZE=", "properties": {"@source_uri": "https://tools.usps.com/UspsToolsRestServices/rest/POLocator/findLocations", "@spider": "usps_collection_boxes", "addr:city": "LANCASTER", "addr:country": "US", "addr:postcode": "17601", "addr:state": "PA", "addr:street_address": "1700 FRUITVILLE PIKE", "amenity": "post_box", "collection_times": "Mo-Sa 11:00", "nsi_id": "unitedstatespostalservice-a77078", "operator": "United States Postal Service", "operator:short": "USPS", "operator:type": "public", "operator:wikidata": "Q668687", "ref": "1760100121"}, "type": "Feature"}
{"geometry": {"coordinates": [-76.3502765, 40.064757], "type": "Point"}, "id": "w4LTuu2ATMjG34LdXK3ti8IZHhI=", "properties": {"@source_uri": "https://tools.usps.com/UspsToolsRestServices/rest/POLocator/findLocations", "@spider": "usps_collection_boxes", "addr:city": "LANCASTER", "addr:country": "US", "addr:postcode": "17601", "addr:state": "PA", "addr:street_address": "694 GOOD DR", "amenity": "post_box", "collection_times": "Mo-Sa 09:15", "nsi_id": "unitedstatespostalservice-a77078", "operator": "United States Postal Service", "operator:short": "USPS", "operator:type": "public", "operator:wikidata": "Q668687", "ref": "1760100122"}, "type": "Feature"}
{"geometry": {"coordinates": [-76.248558552, 40.050238837], "type": "Point"}, "id": "x7NQVVKFLKyI1N0b8aq4jgYpbgU=", "properties": {"@source_uri": "https://tools.usps.com/UspsToolsRestServices/rest/POLocator/findLocations", "@spider": "usps_collection_boxes", "addr:city": "LANCASTER", "addr:country": "US", "addr:postcode": "17601", "addr:state": "PA", "addr:street_address": "1813 OLDE HOMESTEAD LN", "amenity": "post_box", "collection_times": "Mo-Fr 16:30; Sa 12:00", "indoor": "yes", "note": "ON 12/24 AND 12/31, THIS BOX MAY BE COLLECTED AS EARLY AS 12 NOON.", "nsi_id": "unitedstatespostalservice-a77078", "operator": "United States Postal Service", "operator:short": "USPS", "operator:type": "public", "operator:wikidata": "Q668687", "ref": "1760100139"}, "type": "Feature"}
{"geometry": {"coordinates": [-76.303638964, 40.093815323], "type": "Point"}, "id": "kJ855zIAnIn3Dypv9wSP3ylsc5c=", "properties": {"@source_uri": "https://tools.usps.com/UspsToolsRestServices/rest/POLocator/findLocations", "@spider": "usps_collection_boxes", "addr:city": "LANCASTER", "addr:country": "US", "addr:postcode": "17601", "addr:state": "PA", "addr:street_address": "16 MEADOW LN", "amenity": "post_box", "collection_times": "Mo-Fr 16:30; Sa 12:00", "indoor": "yes", "note": "ON 12/24 AND 12/31, THIS BOX MAY BE COLLECTED AS EARLY AS 12 NOON.", "nsi_id": "unitedstatespostalservice-a77078", "operator": "United States Postal Service", "operator:short": "USPS", "operator:type": "public", "operator:wikidata": "Q668687", "ref": "1760100140"}, "type": "Feature"}
{"geometry": {"coordinates": [-76.3016504, 40.040055], "type": "Point"}, "id": "VNS1NCDYViaCzfvsYex62zxjGAQ=", "properties": {"@source_uri": "https://tools.usps.com/UspsToolsRestServices/rest/POLocator/findLocations", "@spider": "usps_collection_boxes", "addr:city": "LANCASTER", "addr:country": "US", "addr:postcode": "17602", "addr:state": "PA", "addr:street_address": "101 N LIME ST", "amenity": "post_box", "collection_times": "Mo-Sa 14:30", "note": "ON 12/24 AND 12/31, THIS BOX MAY BE COLLECTED AS EARLY AS 12 NOON.", "nsi_id": "unitedstatespostalservice-a77078", "operator": "United States Postal Service", "operator:short": "USPS", "operator:type": "public", "operator:wikidata": "Q668687", "ref": "1760200026"}, "type": "Feature"}
{"geometry": {"coordinates": [-76.3019899, 40.041461], "type": "Point"}, "id": "Hg-dcxGk69RBaNkFLpSuS0gmtig=", "properties": {"@source_uri": "https://tools.usps.com/UspsToolsRestServices/rest/POLocator/findLocations", "@spider": "usps_collection_boxes", "addr:city": "LANCASTER", "addr:country": "US", "addr:postcode": "17602", "addr:state": "PA", "addr:street_address": "158 N LIME ST", "amenity": "post_box", "collection_times": "Mo-Sa 14:45", "note": "ON 12/24 AND 12/31, THIS BOX MAY BE COLLECTED AS EARLY AS 12 NOON.", "nsi_id": "unitedstatespostalservice-a77078", "operator": "United States Postal Service", "operator:short": "USPS", "operator:type": "public", "operator:wikidata": "Q668687", "ref": "1760200043"}, "type": "Feature"}
{"geometry": {"coordinates": [-76.2876966, 40.041489], "type": "Point"}, "id": "Wvh7jUk5Cdgv-3iB1txEDZuWpbA=", "properties": {"@source_uri": "https://tools.usps.com/UspsToolsRestServices/rest/POLocator/findLocations", "@spider": "usps_collection_boxes", "addr:city": "LANCASTER", "addr:country": "US", "addr:postcode": "17602", "addr:state": "PA", "addr:street_address": "899 E ORANGE ST", "amenity": "post_box", "collection_times": "Mo-Fr 13:15; Sa 12:15", "note": "ON 12/24 AND 12/31, THIS BOX MAY BE COLLECTED AS EARLY AS 12 NOON.", "nsi_id": "unitedstatespostalservice-a77078", "operator": "United States Postal Service", "operator:short": "USPS", "operator:type": "public", "operator:wikidata": "Q668687", "ref": "1760200051"}, "type": "Feature"}
{"geometry": {"coordinates": [-76.3046655, 40.042804], "type": "Point"}, "id": "wPDhgAADrge0h_gmOjmUdLmPGJU=", "properties": {"@source_uri": "https://tools.usps.com/UspsToolsRestServices/rest/POLocator/findLocations", "@spider": "usps_collection_boxes", "addr:city": "LANCASTER", "addr:country": "US", "addr:postcode": "17602", "addr:state": "PA", "addr:street_address": "60 E WALNUT ST", "amenity": "post_box", "collection_times": "Mo-Sa 12:30", "note": "ON 12/24 AND 12/31, THIS BOX MAY BE COLLECTED AS EARLY AS 12 NOON.", "nsi_id": "unitedstatespostalservice-a77078", "operator": "United States Postal Service", "operator:short": "USPS", "operator:type": "public", "operator:wikidata": "Q668687", "ref": "1760200052"}, "type": "Feature"}
{"geometry": {"coordinates": [-76.2673364, 40.038391], "type": "Point"}, "id": "LTl2U62FTB6IpvX0MIKiavC87mM=", "properties": {"@source_uri": "https://tools.usps.com/UspsToolsRestServices/rest/POLocator/findLocations", "@spider": "usps_collection_boxes", "addr:city": "LANCASTER", "addr:country": "US", "addr:postcode": "17602", "addr:state": "PA", "addr:street_address": "1643 LINCOLN HWY E", "amenity": "post_box", "collection_times": "Mo-Sa 12:30", "note": "ON 12/24 AND 12/31, THIS BOX MAY BE COLLECTED AS EARLY AS 12 NOON.", "nsi_id": "unitedstatespostalservice-a77078", "operator": "United States Postal Service", "operator:short": "USPS", "operator:type": "public", "operator:wikidata": "Q668687", "ref": "1760200053"}, "type": "Feature"}
{"geometry": {"coordinates": [-76.2853336, 39.993037], "type": "Point"}, "id": "8lcjHLOOOGEsADuvPq23v9S6J5I=", "properties": {"@source_uri": "https://tools.usps.com/UspsToolsRestServices/rest/POLocator/findLocations", "@spider": "usps_collection_boxes", "addr:city": "LANCASTER", "addr:country": "US", "addr:postcode": "17602", "addr:state": "PA", "addr:street_address": "100 WILLOW VALLEY SQ", "amenity": "post_box", "collection_times": "Mo-Sa 10:00", "nsi_id": "unitedstatespostalservice-a77078", "operator": "United States Postal Service", "operator:short": "USPS", "operator:type": "public", "operator:wikidata": "Q668687", "ref": "1760200054"}, "type": "Feature"}
{"geometry": {"coordinates": [-76.3039466, 40.038182], "type": "Point"}, "id": "2MJ91CoC05uiYY3VDp42lDDK6VU=", "properties": {"@source_uri": "https://tools.usps.com/UspsToolsRestServices/rest/POLocator/findLocations", "@spider": "usps_collection_boxes", "addr:city": "LANCASTER", "addr:country": "US", "addr:postcode": "17602", "addr:state": "PA", "addr:street_address": "46 E KING ST", "amenity": "post_box", "collection_times": "Mo-Sa 12:30", "note": "ON 12/24 AND 12/31, THIS BOX MAY BE COLLECTED AS EARLY AS 12 NOON.", "nsi_id": "unitedstatespostalservice-a77078", "operator": "United States Postal Service", "operator:short": "USPS", "operator:type": "public", "operator:wikidata": "Q668687", "ref": "1760200063"}, "type": "Feature"}
{"geometry": {"coordinates": [-76.2893324, 40.05085], "type": "Point"}, "id": "NwkyxPhzUrpaKdtyePpUfLO_lcQ=", "properties": {"@source_uri": "https://tools.usps.com/UspsToolsRestServices/rest/POLocator/findLocations", "@spider": "usps_collection_boxes", "addr:city": "LANCASTER", "addr:country": "US", "addr:postcode": "17602", "addr:state": "PA", "addr:street_address": "798 NEW HOLLAND AVE", "amenity": "post_box", "collection_times": "Mo-Sa 10:00", "nsi_id": "unitedstatespostalservice-a77078", "operator": "United States Postal Service", "operator:short": "USPS", "operator:type": "public", "operator:wikidata": "Q668687", "ref": "1760200128"}, "type": "Feature"}
{"geometry": {"coordinates": [-76.292145, 40.045365], "type": "Point"}, "id": "r_82tmflubrKoGk-RsTulnIxj1k=", "properties": {"@source_uri": "https://tools.usps.com/UspsToolsRestServices/rest/POLocator/findLocations", "@spider": "usps_collection_boxes", "addr:city": "LANCASTER", "addr:country": "US", "addr:postcode": "17602", "addr:state": "PA", "addr:street_address": "702 LEHIGH AVE", "amenity": "post_box", "collection_times": "Mo-Sa 12:30", "note": "ON 12/24 AND 12/31, THIS BOX MAY BE COLLECTED AS EARLY AS 12 NOON.", "nsi_id": "unitedstatespostalservice-a77078", "operator": "United States Postal Service", "operator:short": "USPS", "operator:type": "public", "operator:wikidata": "Q668687", "ref": "1760200146"}, "type": "Feature"}
{"geometry": {"coordinates": [-76.298165, 40.03717], "type": "Point"}, "id": "3zzsfxIu4y2BLToyHrGysQUcX6w=", "properties": {"@source_uri": "https://tools.usps.com/UspsToolsRestServices/rest/POLocator/findLocations", "@spider": "usps_collection_boxes", "addr:city": "LANCASTER", "addr:country": "US", "addr:postcode": "17602", "addr:state": "PA", "addr:street_address": "501 N DUKE ST", "amenity": "post_box", "collection_times": "Mo-Sa 11:30", "nsi_id": "unitedstatespostalservice-a77078", "operator": "United States Postal Service", "operator:short": "USPS", "operator:type": "public", "operator:wikidata": "Q668687", "ref": "1760200150"}, "type": "Feature"}
{"geometry": {"coordinates": [-76.3038415, 40.039195], "type": "Point"}, "id": "V1mKV9D7xLRJDUIu94MVQogqfT4=", "properties": {"@source_uri": "https://tools.usps.com/UspsToolsRestServices/rest/POLocator/findLocations", "@spider": "usps_collection_boxes", "addr:city": "LANCASTER", "addr:country": "US", "addr:postcode": "17602", "addr:state": "PA", "addr:street_address": "53 N DUKE ST", "amenity": "post_box", "collection_times": "Mo-Sa 10:00", "nsi_id": "unitedstatespostalservice-a77078", "operator": "United States Postal Service", "operator:short": "USPS", "operator:type": "public", "operator:wikidata": "Q668687", "ref": "1760200153"}, "type": "Feature"}
{"geometry": {"coordinates": [-76.3014579, 40.039125], "type": "Point"}, "id": "jgMlKzcAuTcprzu8ejZUDuhk7Tw=", "properties": {"@source_uri": "https://tools.usps.com/UspsToolsRestServices/rest/POLocator/findLocations", "@spider": "usps_collection_boxes", "addr:city": "LANCASTER", "addr:country": "US", "addr:postcode": "17602", "addr:state": "PA", "addr:street_address": "23 N LIME ST", "amenity": "post_box", "collection_times": "Mo-Sa 11:00", "nsi_id": "unitedstatespostalservice-a77078", "operator": "United States Postal Service", "operator:short": "USPS", "operator:type": "public", "operator:wikidata": "Q668687", "ref": "1760200163"}, "type": "Feature"}
{"geometry": {"coordinates": [-76.2222183, 40.025774], "type": "Point"}, "id": "8E2zAq23Vd8wdwCZ4yHhT6Pio9I=", "properties": {"@source_uri": "https://tools.usps.com/UspsToolsRestServices/rest/POLocator/findLocations", "@spider": "usps_collection_boxes", "addr:city": "LANCASTER", "addr:country": "US", "addr:postcode": "17602", "addr:state": "PA", "addr:street_address": "2210 LINCOLN HWY E", "amenity": "post_box", "collection_times": "Mo-Sa 09:30", "nsi_id": "unitedstatespostalservice-a77078", "operator": "United States Postal Service", "operator:short": "USPS", "operator:type": "public", "operator:wikidata": "Q668687", "ref": "1760200164"}, "type": "Feature"}
{"geometry": {"coordinates": [-76.1944995, 40.022148], "type": "Point"}, "id": "MIwO_iiW3sKspS3MUJwDDwHRPq8=", "properties": {"@source_uri": "https://tools.usps.com/UspsToolsRestServices/rest/POLocator/findLocations", "@spider": "usps_collection_boxes", "addr:city": "LANCASTER", "addr:country": "US", "addr:postcode": "17602", "addr:state": "PA", "addr:street_address": "35 S WILLOWDALE DR", "amenity": "post_box", "collection_times": "Mo-Sa 10:00", "nsi_id": "unitedstatespostalservice-a77078", "operator": "United States Postal Service", "operator:short": "USPS", "operator:type": "public", "operator:wikidata": "Q668687", "ref": "1760200165"}, "type": "Feature"}
{"geometry": {"coordinates": [-76.2286841, 40.028726], "type": "Point"}, "id": "k8R7cawFpXDy9ANqhOLhbEOo3-Y=", "properties": {"@source_uri": "https://tools.usps.com/UspsToolsRestServices/rest/POLocator/findLocations", "@spider": "usps_collection_boxes", "addr:city": "LANCASTER", "addr:country": "US", "addr:postcode": "17602", "addr:state": "PA", "addr:street_address": "2160 LINCOLN HWY E", "amenity": "post_box", "collection_times": "Mo-Sa 10:00", "nsi_id": "unitedstatespostalservice-a77078", "operator": "United States Postal Service", "operator:short": "USPS", "operator:type": "public", "operator:wikidata": "Q668687", "ref": "1760200171"}, "type": "Feature"}
{"geometry": {"coordinates": [-76.3048659, 40.039697], "type": "Point"}, "id": "dRz0NXpwAcD24Rz6OCW0tu5tXWw=", "properties": {"@source_uri": "https://tools.usps.com/UspsToolsRestServices/rest/POLocator/findLocations", "@spider": "usps_collection_boxes", "addr:city": "LANCASTER", "addr:country": "US", "addr:postcode": "17602", "addr:state": "PA", "addr:street_address": "33 E ORANGE ST", "amenity": "post_box", "collection_times": "Mo-Sa 10:30", "nsi_id": "unitedstatespostalservice-a77078", "operator": "United States Postal Service", "operator:short": "USPS", "operator:type": "public", "operator:wikidata": "Q668687", "ref": "1760200175"}, "type": "Feature"}
{"geometry": {"coordinates": [-76.3208677, 40.01887], "type": "Point"}, "id": "Xlhw465t-6VA0Y-8LCLWRaeobOM=", "properties": {"@source_uri": "https://tools.usps.com/UspsToolsRestServices/rest/POLocator/findLocations", "@spider": "usps_collection_boxes", "addr:city": "LANCASTER", "addr:country": "US", "addr:postcode": "17603", "addr:state": "PA", "addr:street_address": "502 MISTY DR", "amenity": "post_box", "collection_times": "Mo-Sa 10:00", "nsi_id": "unitedstatespostalservice-a77078", "operator": "United States Postal Service", "operator:short": "USPS", "operator:type": "public", "operator:wikidata": "Q668687", "ref": "1760300015"}, "type": "Feature"}
{"geometry": {"coordinates": [-76.3223653, 40.033213], "type": "Point"}, "id": "dk5yyJdATht3ol249RSINFlhZoI=", "properties": {"@source_uri": "https://tools.usps.com/UspsToolsRestServices/rest/POLocator/findLocations", "@spider": "usps_collection_boxes", "addr:city": "LANCASTER", "addr:country": "US", "addr:postcode": "17603", "addr:state": "PA", "addr:street_address": "742 4TH ST", "amenity": "post_box", "collection_times": "Mo-Sa 10:30", "nsi_id": "unitedstatespostalservice-a77078", "operator": "United States Postal Service", "operator:short": "USPS", "operator:type": "public", "operator:wikidata": "Q668687", "ref": "1760300038"}, "type": "Feature"}
{"geometry": {"coordinates": [-76.3353894, 40.034183], "type": "Point"}, "id": "mecpzOataRM-JcuyHJN1-UheQsI=", "properties": {"@source_uri": "https://tools.usps.com/UspsToolsRestServices/rest/POLocator/findLocations", "@spider": "usps_collection_boxes", "addr:city": "LANCASTER", "addr:country": "US", "addr:postcode": "17603", "addr:state": "PA", "addr:street_address": "302 ABBEYVILLE RD", "amenity": "post_box", "collection_times": "Mo-Sa 10:30", "nsi_id": "unitedstatespostalservice-a77078", "operator": "United States Postal Service", "operator:short": "USPS", "operator:type": "public", "operator:wikidata": "Q668687", "ref": "1760300057"}, "type": "Feature"}
{"geometry": {"coordinates": [-76.3189787, 40.024047], "type": "Point"}, "id": "GSzYexdrKPSXghABDLACcUxFGss=", "properties": {"@source_uri": "https://tools.usps.com/UspsToolsRestServices/rest/POLocator/findLocations", "@spider": "usps_collection_boxes", "addr:city": "LANCASTER", "addr:country": "US", "addr:postcode": "17603", "addr:state": "PA", "addr:street_address": "339 EUCLID AVE", "amenity": "post_box", "collection_times": "Mo-Sa 10:30", "nsi_id": "unitedstatespostalservice-a77078", "operator": "United States Postal Service", "operator:short": "USPS", "operator:type": "public", "operator:wikidata": "Q668687", "ref": "1760300097"}, "type": "Feature"}
{"geometry": {"coordinates": [-76.3214099, 40.038191], "type": "Point"}, "id": "wurvEwXKmiQNWFYzOj563UxK0ik=", "properties": {"@source_uri": "https://tools.usps.com/UspsToolsRestServices/rest/POLocator/findLocations", "@spider": "usps_collection_boxes", "addr:city": "LANCASTER", "addr:country": "US", "addr:postcode": "17603", "addr:state": "PA", "addr:street_address": "731 COLUMBIA AVE", "amenity": "post_box", "collection_times": "Mo-Sa 09:30", "nsi_id": "unitedstatespostalservice-a77078", "operator": "United States Postal Service", "operator:short": "USPS", "operator:type": "public", "operator:wikidata": "Q668687", "ref": "1760300099"}, "type": "Feature"}
{"geometry": {"coordinates": [-76.3076073, 40.048797], "type": "Point"}, "id": "cfIFQMbdj01OZMz-kVXv1612PJM=", "properties": {"@source_uri": "https://tools.usps.com/UspsToolsRestServices/rest/POLocator/findLocations", "@spider": "usps_collection_boxes", "addr:city": "LANCASTER", "addr:country": "US", "addr:postcode": "17603", "addr:state": "PA", "addr:street_address": "635 N QUEEN ST", "amenity": "post_box", "collection_times": "Mo-Sa 11:30", "nsi_id": "unitedstatespostalservice-a77078", "operator": "United States Postal Service", "operator:short": "USPS", "operator:type": "public", "operator:wikidata": "Q668687", "ref": "1760300113"}, "type": "Feature"}
{"geometry": {"coordinates": [-76.3176428, 40.040023], "type": "Point"}, "id": "NAVhL33sbAM_wox4BItR3vAFZO8=", "properties": {"@source_uri": "https://tools.usps.com/UspsToolsRestServices/rest/POLocator/findLocations", "@spider": "usps_collection_boxes", "addr:city": "LANCASTER", "addr:country": "US", "addr:postcode": "17603", "addr:state": "PA", "addr:street_address": "559 W CHESTNUT ST", "amenity": "post_box", "collection_times": "Mo-Sa 10:00", "nsi_id": "unitedstatespostalservice-a77078", "operator": "United States Postal Service", "operator:short": "USPS", "operator:type": "public", "operator:wikidata": "Q668687", "ref": "1760300141"}, "type": "Feature"}
{"geometry": {"coordinates": [-76.3153374, 40.041828], "type": "Point"}, "id": "uWd0lbpK8QRQvtCpVZ5y0DatM7Q=", "properties": {"@source_uri": "https://tools.usps.com/UspsToolsRestServices/rest/POLocator/findLocations", "@spider": "usps_collection_boxes", "addr:city": "LANCASTER", "addr:country": "US", "addr:postcode": "17603", "addr:state": "PA", "addr:street_address": "450 W WALNUT ST", "amenity": "post_box", "collection_times": "Mo-Sa 10:00", "nsi_id": "unitedstatespostalservice-a77078", "operator": "United States Postal Service", "operator:short": "USPS", "operator:type": "public", "operator:wikidata": "Q668687", "ref": "1760300144"}, "type": "Feature"}
{"geometry": {"coordinates": [-76.31748, 40.035315], "type": "Point"}, "id": "3y6abTqBO-jUXHbyyOcutX89HZs=", "properties": {"@source_uri": "https://tools.usps.com/UspsToolsRestServices/rest/POLocator/findLocations", "@spider": "usps_collection_boxes", "addr:city": "LANCASTER", "addr:country": "US", "addr:postcode": "17603", "addr:state": "PA", "addr:street_address": "501 W LEMON ST", "amenity": "post_box", "collection_times": "Mo-Sa 12:30", "note": "ON 12/24 AND 12/31, THIS BOX MAY BE COLLECTED AS EARLY AS 12 NOON.", "nsi_id": "unitedstatespostalservice-a77078", "operator": "United States Postal Service", "operator:short": "USPS", "operator:type": "public", "operator:wikidata": "Q668687", "ref": "1760300156"}, "type": "Feature"}
{"geometry": {"coordinates": [-76.3370619, 40.0295987], "type": "Point"}, "id": "QKPS1uvinHs1O9oBWiyh0yotlLc=", "properties": {"@source_uri": "https://tools.usps.com/UspsToolsRestServices/rest/POLocator/findLocations", "@spider": "usps_collection_boxes", "addr:city": "LANCASTER", "addr:country": "US", "addr:postcode": "17603", "addr:state": "PA", "addr:street_address": "204 W ORANGE ST", "amenity": "post_box", "collection_times": "Mo-Sa 10:00", "nsi_id": "unitedstatespostalservice-a77078", "operator": "United States Postal Service", "operator:short": "USPS", "operator:type": "public", "operator:wikidata": "Q668687", "ref": "1760300185"}, "type": "Feature"}
{"geometry": {"coordinates": [-76.3244565, 40.027468], "type": "Point"}, "id": "cucr7e5HT7hpAZNnus81jx2qLwI=", "properties": {"@source_uri": "https://tools.usps.com/UspsToolsRestServices/rest/POLocator/findLocations", "@spider": "usps_collection_boxes", "addr:city": "LANCASTER", "addr:country": "US", "addr:postcode": "17603", "addr:state": "PA", "addr:street_address": "1234 MILLERSVILLE PIKE", "amenity": "post_box", "collection_times": "Mo-Sa 13:30", "note": "ON 12/24 AND 12/31, THIS BOX MAY BE COLLECTED AS EARLY AS 12 NOON.", "nsi_id": "unitedstatespostalservice-a77078", "operator": "United States Postal Service", "operator:short": "USPS", "operator:type": "public", "operator:wikidata": "Q668687", "ref": "1760300193"}, "type": "Feature"}
{"geometry": {"coordinates": [-76.354683, 40.038716], "type": "Point"}, "id": "c_diEI3DROUQXPg6a00qcKvzU5A=", "properties": {"@source_uri": "https://tools.usps.com/UspsToolsRestServices/rest/POLocator/findLocations", "@spider": "usps_collection_boxes", "addr:city": "LANCASTER", "addr:country": "US", "addr:postcode": "17603", "addr:state": "PA", "addr:street_address": "1805 COLUMBIA AVE", "amenity": "post_box", "collection_times": "Mo-Sa 11:00", "nsi_id": "unitedstatespostalservice-a77078", "operator": "United States Postal Service", "operator:short": "USPS", "operator:type": "public", "operator:wikidata": "Q668687", "ref": "1760300196"}, "type": "Feature"}
{"geometry": {"coordinates": [-76.3620879, 40.043584], "type": "Point"}, "id": "YAG2ToB7OjaqUaXKICWC7JVNAxo=", "properties": {"@source_uri": "https://tools.usps.com/UspsToolsRestServices/rest/POLocator/findLocations", "@spider": "usps_collection_boxes", "addr:city": "LANCASTER", "addr:country": "US", "addr:postcode": "17603", "addr:state": "PA", "addr:street_address": "153 ROHRERSTOWN RD", "amenity": "post_box", "collection_times": "Mo-Fr 17:00; Sa 12:00", "note": "ON 12/24 AND 12/31, THIS BOX MAY BE COLLECTED AS EARLY AS 12 NOON.", "nsi_id": "unitedstatespostalservice-a77078", "operator": "United States Postal Service", "operator:short": "USPS", "operator:type": "public", "operator:wikidata": "Q668687", "ref": "1760300198"}, "type": "Feature"}
{"geometry": {"coordinates": [-76.3238334, 40.036857], "type": "Point"}, "id": "7A59EiwF9qetyFjFJrvluD50OGk=", "properties": {"@source_uri": "https://tools.usps.com/UspsToolsRestServices/rest/POLocator/findLocations", "@spider": "usps_collection_boxes", "addr:city": "LANCASTER", "addr:country": "US", "addr:postcode": "17603", "addr:state": "PA", "addr:street_address": "117 S WEST END AVE", "amenity": "post_box", "collection_times": "Mo-Sa 09:00", "nsi_id": "unitedstatespostalservice-a77078", "operator": "United States Postal Service", "operator:short": "USPS", "operator:type": "public", "operator:wikidata": "Q668687", "ref": "1760300200"}, "type": "Feature"}
{"geometry": {"coordinates": [-76.3155071206, 40.0293128654], "type": "Point"}, "id": "XLSK6v38vqIYBRpTTy_4d0ZpEuI=", "properties": {"@source_uri": "https://tools.usps.com/UspsToolsRestServices/rest/POLocator/findLocations", "@spider": "usps_collection_boxes", "addr:city": "LANCASTER", "addr:country": "US", "addr:postcode": "17603", "addr:state": "PA", "addr:street_address": "237 FAIRVIEW AVE", "amenity": "post_box", "collection_times": "Mo-Sa 10:30", "nsi_id": "unitedstatespostalservice-a77078", "operator": "United States Postal Service", "operator:short": "USPS", "operator:type": "public", "operator:wikidata": "Q668687", "ref": "1760300208"}, "type": "Feature"}
{"geometry": {"coordinates": [-76.3451441, 40.032058], "type": "Point"}, "id": "8Li9LS9gUJqIV5HUrQi7a7unLCo=", "properties": {"@source_uri": "https://tools.usps.com/UspsToolsRestServices/rest/POLocator/findLocations", "@spider": "usps_collection_boxes", "addr:city": "LANCASTER", "addr:country": "US", "addr:postcode": "17603", "addr:state": "PA", "addr:street_address": "100 PHEASANT RIDGE CIR", "amenity": "post_box", "collection_times": "Mo-Sa 10:30", "nsi_id": "unitedstatespostalservice-a77078", "operator": "United States Postal Service", "operator:short": "USPS", "operator:type": "public", "operator:wikidata": "Q668687", "ref": "1760300211"}, "type": "Feature"}
{"geometry": {"coordinates": [-76.3506055, 40.030366], "type": "Point"}, "id": "mALYzx3UH5xGBFa_KTM3-nI2kG4=", "properties": {"@source_uri": "https://tools.usps.com/UspsToolsRestServices/rest/POLocator/findLocations", "@spider": "usps_collection_boxes", "addr:city": "LANCASTER", "addr:country": "US", "addr:postcode": "17603", "addr:state": "PA", "addr:street_address": "300 PHEASANT RIDGE CIR", "amenity": "post_box", "collection_times": "Mo-Sa 10:30", "nsi_id": "unitedstatespostalservice-a77078", "operator": "United States Postal Service", "operator:short": "USPS", "operator:type": "public", "operator:wikidata": "Q668687", "ref": "1760300213"}, "type": "Feature"}
{"geometry": {"coordinates": [-76.3598212, 40.044801], "type": "Point"}, "id": "XGqUnHHSQw491djZsZJGpU4sxQI=", "properties": {"@source_uri": "https://tools.usps.com/UspsToolsRestServices/rest/POLocator/findLocations", "@spider": "usps_collection_boxes", "addr:city": "LANCASTER", "addr:country": "US", "addr:postcode": "17603", "addr:state": "PA", "addr:street_address": "2137 EMBASSY DR", "amenity": "post_box", "collection_times": "Mo-Sa 10:00", "nsi_id": "unitedstatespostalservice-a77078", "operator": "United States Postal Service", "operator:short": "USPS", "operator:type": "public", "operator:wikidata": "Q668687", "ref": "1760300217"}, "type": "Feature"}
{"geometry": {"coordinates": [-76.3103317, 40.046743], "type": "Point"}, "id": "RUJB03u_CfYbJLOpFpogNOUlzwo=", "properties": {"@source_uri": "https://tools.usps.com/UspsToolsRestServices/rest/POLocator/findLocations", "@spider": "usps_collection_boxes", "addr:city": "LANCASTER", "addr:country": "US", "addr:postcode": "17603", "addr:state": "PA", "addr:street_address": "217 HARRISBURG AVE", "amenity": "post_box", "collection_times": "Mo-Sa 09:00", "nsi_id": "unitedstatespostalservice-a77078", "operator": "United States Postal Service", "operator:short": "USPS", "operator:type": "public", "operator:wikidata": "Q668687", "ref": "1760300218"}, "type": "Feature"}
{"geometry": {"coordinates": [-76.3139400241, 40.0518150209], "type": "Point"}, "id": "ESxU6D51Hj2L5rJg7rHIum7Z63E=", "properties": {"@source_uri": "https://tools.usps.com/UspsToolsRestServices/rest/POLocator/findLocations", "@spider": "usps_collection_boxes", "addr:city": "LANCASTER", "addr:country": "US", "addr:postcode": "17603", "addr:state": "PA", "addr:street_address": "313 W LIBERTY ST", "amenity": "post_box", "collection_times": "Mo-Sa 10:00", "nsi_id": "unitedstatespostalservice-a77078", "operator": "United States Postal Service", "operator:short": "USPS", "operator:type": "public", "operator:wikidata": "Q668687", "ref": "1760300223"}, "type": "Feature"}
{"geometry": {"coordinates": [-76.3110554, 40.040741], "type": "Point"}, "id": "GvQQw_udaQouLSeoP1MjDwuISPU=", "properties": {"@source_uri": "https://tools.usps.com/UspsToolsRestServices/rest/POLocator/findLocations", "@spider": "usps_collection_boxes", "addr:city": "LANCASTER", "addr:country": "US", "addr:postcode": "17603", "addr:state": "PA", "addr:street_address": "201 N MULBERRY ST", "amenity": "post_box", "collection_times": "Mo-Sa 09:00", "nsi_id": "unitedstatespostalservice-a77078", "operator": "United States Postal Service", "operator:short": "USPS", "operator:type": "public", "operator:wikidata": "Q668687", "ref": "1760300226"}, "type": "Feature"}
{"geometry": {"coordinates": [-76.363467, 40.043672], "type": "Point"}, "id": "nV8ifasLk6MsMBSEq2URtAtBcUI=", "properties": {"@source_uri": "https://tools.usps.com/UspsToolsRestServices/rest/POLocator/findLocations", "@spider": "usps_collection_boxes", "addr:city": "LANCASTER", "addr:country": "US", "addr:postcode": "17603", "addr:state": "PA", "addr:street_address": "153 ROHRERSTOWN RD", "amenity": "post_box", "collection_times": "Mo-Fr 14:20; Sa 11:45", "indoor": "yes", "note": "ON 12/24 AND 12/31, THIS BOX MAY BE COLLECTED AS EARLY AS 12 NOON.", "nsi_id": "unitedstatespostalservice-a77078", "operator": "United States Postal Service", "operator:short": "USPS", "operator:type": "public", "operator:wikidata": "Q668687", "ref": "1760300231"}, "type": "Feature"}
{"geometry": {"coordinates": [-76.3417752, 40.037319], "type": "Point"}, "id": "eMKetps8VkuJ2mOrI6ikXd9H9Fc=", "properties": {"@source_uri": "https://tools.usps.com/UspsToolsRestServices/rest/POLocator/findLocations", "@spider": "usps_collection_boxes", "addr:city": "LANCASTER", "addr:country": "US", "addr:postcode": "17603", "addr:state": "PA", "addr:street_address": "1350 COLUMBIA AVE", "amenity": "post_box", "collection_times": "Mo-Sa 09:30", "nsi_id": "unitedstatespostalservice-a77078", "operator": "United States Postal Service", "operator:short": "USPS", "operator:type": "public", "operator:wikidata": "Q668687", "ref": "1760300235"}, "type": "Feature"}
{"geometry": {"coordinates": [-76.307671, 40.040942], "type": "Point"}, "id": "ZoL_M8WKsa7qsUxpXKBxGqD-ayY=", "properties": {"@source_uri": "https://tools.usps.com/UspsToolsRestServices/rest/POLocator/findLocations", "@spider": "usps_collection_boxes", "addr:city": "LANCASTER", "addr:country": "US", "addr:postcode": "17603", "addr:state": "PA", "addr:street_address": "48-50 W CHESTNUT ST", "amenity": "post_box", "collection_times": "Mo-Fr 17:00; Sa 12:00", "indoor": "yes", "note": "ON 12/24 AND 12/31, THIS BOX MAY BE COLLECTED AS EARLY AS 12 NOON.", "nsi_id": "unitedstatespostalservice-a77078", "operator": "United States Postal Service", "operator:short": "USPS", "operator:type": "public", "operator:wikidata": "Q668687", "ref": "1760300241"}, "type": "Feature"}
{"geometry": {"coordinates": [-76.3057566, 40.03829], "type": "Point"}, "id": "Yno9POj8gUzL2r6V2-j090Ambmw=", "properties": {"@source_uri": "https://tools.usps.com/UspsToolsRestServices/rest/POLocator/findLocations", "@spider": "usps_collection_boxes", "addr:city": "LANCASTER", "addr:country": "US", "addr:postcode": "17603", "addr:state": "PA", "addr:street_address": "8 N QUEEN ST", "amenity": "post_box", "collection_times": "Mo-Sa 09:30", "nsi_id": "unitedstatespostalservice-a77078", "operator": "United States Postal Service", "operator:short": "USPS", "operator:type": "public", "operator:wikidata": "Q668687", "ref": "1760300244"}, "type": "Feature"}
{"geometry": {"coordinates": [-76.3072723, 40.037781], "type": "Point"}, "id": "kltYkCf6P6Nkd3MPr5HxhUSO5gY=", "properties": {"@source_uri": "https://tools.usps.com/UspsToolsRestServices/rest/POLocator/findLocations", "@spider": "usps_collection_boxes", "addr:city": "LANCASTER", "addr:country": "US", "addr:postcode": "17603", "addr:state": "PA", "addr:street_address": "44 W KING ST", "amenity": "post_box", "collection_times": "Mo-Sa 09:00", "nsi_id": "unitedstatespostalservice-a77078", "operator": "United States Postal Service", "operator:short": "USPS", "operator:type": "public", "operator:wikidata": "Q668687", "ref": "1760300246"}, "type": "Feature"}
{"geometry": {"coordinates": [-76.351918329, 40.047274562], "type": "Point"}, "id": "uyvZ-uu0BsD8KXA2rV0SZuYvu4M=", "properties": {"@source_uri": "https://tools.usps.com/UspsToolsRestServices/rest/POLocator/findLocations", "@spider": "usps_collection_boxes", "addr:city": "LANCASTER", "addr:country": "US", "addr:postcode": "17603", "addr:state": "PA", "addr:street_address": "1800 VILLAGE CIR", "amenity": "post_box", "collection_times": "Mo-Sa 11:00", "nsi_id": "unitedstatespostalservice-a77078", "operator": "United States Postal Service", "operator:short": "USPS", "operator:type": "public", "operator:wikidata": "Q668687", "ref": "1760300247"}, "type": "Feature"}
{"geometry": {"coordinates": [-76.363508072, 40.043327601], "type": "Point"}, "id": "SAQd22-4u1QzSmZ8PTC3_x5Ox9c=", "properties": {"@source_uri": "https://tools.usps.com/UspsToolsRestServices/rest/POLocator/findLocations", "@spider": "usps_collection_boxes", "addr:city": "LANCASTER", "addr:country": "US", "addr:postcode": "17603", "addr:state": "PA", "addr:street_address": "153 ROHRERSTOWN RD", "amenity": "post_box", "collection_times": "Mo-Fr 16:30", "indoor": "yes", "note": "ON 12/24 AND 12/31, THIS BOX MAY BE COLLECTED AS EARLY AS 12 NOON.", "nsi_id": "unitedstatespostalservice-a77078", "operator": "United States Postal Service", "operator:short": "USPS", "operator:type": "public", "operator:wikidata": "Q668687", "ref": "1760300254"}, "type": "Feature"}
{"geometry": {"coordinates": [-76.307787157, 40.040917576], "type": "Point"}, "id": "mNyfi4dlPj-8pVEohYfwxOv0i7g=", "properties": {"@source_uri": "https://tools.usps.com/UspsToolsRestServices/rest/POLocator/findLocations", "@spider": "usps_collection_boxes", "addr:city": "LANCASTER", "addr:country": "US", "addr:postcode": "17603", "addr:state": "PA", "addr:street_address": "48-50 W CHESTNUT ST STE 1", "amenity": "post_box", "collection_times": "Mo-Fr 16:30; Sa 12:00", "indoor": "yes", "note": "ON 12/24 AND 12/31, THIS BOX MAY BE COLLECTED AS EARLY AS 12 NOON.", "nsi_id": "unitedstatespostalservice-a77078", "operator": "United States Postal Service", "operator:short": "USPS", "operator:type": "public", "operator:wikidata": "Q668687", "ref": "1760300255"}, "type": "Feature"}
{"geometry": {"coordinates": [-76.33518, 40.0601], "type": "Point"}, "id": "KEee3hgQvzR36nnIlveeJIeojmY=", "properties": {"@source_uri": "https://tools.usps.com/UspsToolsRestServices/rest/POLocator/findLocations", "@spider": "usps_collection_boxes", "addr:city": "LANCASTER", "addr:country": "US", "addr:postcode": "17604", "addr:state": "PA", "addr:street_address": "1400 HARRISBURG PIKE", "amenity": "post_box", "collection_times": "Mo-Sa 18:30", "note": "ON 12/24 AND 12/31, THIS BOX MAY BE COLLECTED AS EARLY AS 12 NOON.", "nsi_id": "unitedstatespostalservice-a77078", "operator": "United States Postal Service", "operator:short": "USPS", "operator:type": "public", "operator:wikidata": "Q668687", "ref": "1760400000"}, "type": "Feature"}
{"geometry": {"coordinates": [-76.334777, 40.059714], "type": "Point"}, "id": "WOn0lLwZHIjeE_6Q83tVwUic62E=", "properties": {"@source_uri": "https://tools.usps.com/UspsToolsRestServices/rest/POLocator/findLocations", "@spider": "usps_collection_boxes", "addr:city": "LANCASTER", "addr:country": "US", "addr:postcode": "17604", "addr:state": "PA", "addr:street_address": "1400 HARRISBURG PIKE", "amenity": "post_box", "collection_times": "Mo-Fr 19:15; Sa 18:30", "indoor": "yes", "note": "ON 12/24 AND 12/31, THIS BOX MAY BE COLLECTED AS EARLY AS 12 NOON.", "nsi_id": "unitedstatespostalservice-a77078", "operator": "United States Postal Service", "operator:short": "USPS", "operator:type": "public", "operator:wikidata": "Q668687", "ref": "1760400005"}, "type": "Feature"}
{"geometry": {"coordinates": [-76.334777, 40.059714], "type": "Point"}, "id": "3ovrN3qzhRmaPSjDpDDUPKV8rlg=", "properties": {"@source_uri": "https://tools.usps.com/UspsToolsRestServices/rest/POLocator/findLocations", "@spider": "usps_collection_boxes", "addr:city": "LANCASTER", "addr:country": "US", "addr:postcode": "17604", "addr:state": "PA", "addr:street_address": "1400 HARRISBURG PIKE", "amenity": "post_box", "collection_times": "Mo-Fr 19:15; Sa 18:30", "name": "USPS COLLECTION BOX - APC", "note": "ON 12/24 AND 12/31, THIS BOX MAY BE COLLECTED AS EARLY AS 12 NOON.", "nsi_id": "unitedstatespostalservice-a77078", "operator": "United States Postal Service", "operator:short": "USPS", "operator:type": "public", "operator:wikidata": "Q668687", "ref": "1760400006"}, "type": "Feature"}
{"geometry": {"coordinates": [-76.335034508, 40.05990393], "type": "Point"}, "id": "rsvJp1C9__rfrRJecuvpi-WpLos=", "properties": {"@source_uri": "https://tools.usps.com/UspsToolsRestServices/rest/POLocator/findLocations", "@spider": "usps_collection_boxes", "addr:city": "LANCASTER", "addr:country": "US", "addr:postcode": "17604", "addr:state": "PA", "addr:street_address": "1400 HARRISBURG PIKE", "amenity": "post_box", "collection_times": "Mo-Fr 19:00; Sa 14:00", "indoor": "yes", "note": "ON 12/24 AND 12/31, THIS BOX MAY BE COLLECTED AS EARLY AS 12 NOON.", "nsi_id": "unitedstatespostalservice-a77078", "operator": "United States Postal Service", "operator:short": "USPS", "operator:type": "public", "operator:wikidata": "Q668687", "ref": "1760400014"}, "type": "Feature"}
