{"geometry": {"coordinates": [-76.7971374, 40.860487], "type": "Point"}, "id": "aculb_mN1w42fNNPLNzAbgfPSt0=", "properties": {"@source_uri": "https://tools.usps.com/UspsToolsRestServices/rest/POLocator/findLocations", "@spider": "usps_collection_boxes", "addr:city": "SUNBURY", "addr:country": "US", "addr:full": "130 S FRONT ST", "addr:postcode": "17801", "addr:state": "PA", "amenity": "post_box", "brand": "United States Postal Service", "brand:wikidata": "Q668687", "collection_times": "Mo-Sa 09:00", "nsi_id": "unitedstatespostalservice-a77078", "operator": "United States Postal Service", "operator:short": "USPS", "operator:type": "public", "operator:wikidata": "Q668687", "ref": "1780100019"}, "type": "Feature"}
{"geometry": {"coordinates": [-76.7857621, 40.859655], "type": "Point"}, "id": "-9CzGivZJe9Z-W1kwUq323-agwk=", "properties": {"@source_uri": "https://tools.usps.com/UspsToolsRestServices/rest/POLocator/findLocations", "@spider": "usps_collection_boxes", "addr:city": "SUNBURY", "addr:country": "US", "addr:full": "900 MARKET ST", "addr:postcode": "17801", "addr:state": "PA", "amenity": "post_box", "brand": "United States Postal Service", "brand:wikidata": "Q668687", "collection_times": "Mo-Fr 14:00; Sa 10:00", "note": "ON 12/24 AND 12/31, THIS BOX MAY BE COLLECTED AS EARLY AS 12 NOON.", "nsi_id": "unitedstatespostalservice-a77078", "operator": "United States Postal Service", "operator:short": "USPS", "operator:type": "public", "operator:wikidata": "Q668687", "ref": "1780100023"}, "type": "Feature"}
{"geometry": {"coordinates": [-76.7893007, 40.860486], "type": "Point"}, "id": "rqeVRQed510Qy-MW6t3TDkl8puk=", "properties": {"@source_uri": "https://tools.usps.com/UspsToolsRestServices/rest/POLocator/findLocations", "@spider": "usps_collection_boxes", "addr:city": "SUNBURY", "addr:country": "US", "addr:full": "503 MARKET ST", "addr:postcode": "17801", "addr:state": "PA", "amenity": "post_box", "brand": "United States Postal Service", "brand:wikidata": "Q668687", "collection_times": "Mo-Fr 14:00; Sa 10:00", "note": "ON 12/24 AND 12/31, THIS BOX MAY BE COLLECTED AS EARLY AS 12 NOON.", "nsi_id": "unitedstatespostalservice-a77078", "operator": "United States Postal Service", "operator:short": "USPS", "operator:type": "public", "operator:wikidata": "Q668687", "ref": "1780100045"}, "type": "Feature"}
{"geometry": {"coordinates": [-76.791776, 40.863985], "type": "Point"}, "id": "y11bnbOOUyGh6neFhDrJuRncIjY=", "properties": {"@source_uri": "https://tools.usps.com/UspsToolsRestServices/rest/POLocator/findLocations", "@spider": "usps_collection_boxes", "addr:city": "SUNBURY", "addr:country": "US", "addr:full": "135 N 3RD ST", "addr:postcode": "17801", "addr:state": "PA", "amenity": "post_box", "brand": "United States Postal Service", "brand:wikidata": "Q668687", "collection_times": "Mo-Fr 17:30; Sa 17:00", "note": "ON 12/24 AND 12/31, THIS BOX MAY BE COLLECTED AS EARLY AS 12 NOON.", "nsi_id": "unitedstatespostalservice-a77078", "operator": "United States Postal Service", "operator:short": "USPS", "operator:type": "public", "operator:wikidata": "Q668687", "ref": "1780100051"}, "type": "Feature"}
{"geometry": {"coordinates": [-76.7947161, 40.862042], "type": "Point"}, "id": "usvJxKSA2J8lDLkkBGpvl1KuFqM=", "properties": {"@source_uri": "https://tools.usps.com/UspsToolsRestServices/rest/POLocator/findLocations", "@spider": "usps_collection_boxes", "addr:city": "SUNBURY", "addr:country": "US", "addr:full": "201 MARKET ST", "addr:postcode": "17801", "addr:state": "PA", "amenity": "post_box", "brand": "United States Postal Service", "brand:wikidata": "Q668687", "collection_times": "Mo-Fr 15:00; Sa 10:00", "note": "ON 12/24 AND 12/31, THIS BOX MAY BE COLLECTED AS EARLY AS 12 NOON.", "nsi_id": "unitedstatespostalservice-a77078", "operator": "United States Postal Service", "operator:short": "USPS", "operator:type": "public", "operator:wikidata": "Q668687", "ref": "1780100058"}, "type": "Feature"}
{"geometry": {"coordinates": [-76.791779, 40.863901], "type": "Point"}, "id": "B6F3anHYwMn2DUGCv36UTCmx6Qw=", "properties": {"@source_uri": "https://tools.usps.com/UspsToolsRestServices/rest/POLocator/findLocations", "@spider": "usps_collection_boxes", "addr:city": "SUNBURY", "addr:country": "US", "addr:full": "135 N 3RD ST", "addr:postcode": "17801", "addr:state": "PA", "amenity": "post_box", "brand": "United States Postal Service", "brand:wikidata": "Q668687", "collection_times": "Mo-Fr 17:30; Sa 17:00", "indoor": "yes", "note": "ON 12/24 AND 12/31, THIS BOX MAY BE COLLECTED AS EARLY AS 12 NOON.", "nsi_id": "unitedstatespostalservice-a77078", "operator": "United States Postal Service", "operator:short": "USPS", "operator:type": "public", "operator:wikidata": "Q668687", "ref": "1780100060"}, "type": "Feature"}
{"geometry": {"coordinates": [-76.7925559, 40.855689], "type": "Point"}, "id": "JYP-1ld5Ex6vHWELEURcjzBQqs4=", "properties": {"@source_uri": "https://tools.usps.com/UspsToolsRestServices/rest/POLocator/findLocations", "@spider": "usps_collection_boxes", "addr:city": "SUNBURY", "addr:country": "US", "addr:full": "399 S 5TH ST", "addr:postcode": "17801", "addr:state": "PA", "amenity": "post_box", "brand": "United States Postal Service", "brand:wikidata": "Q668687", "collection_times": "Mo-Fr 10:00", "nsi_id": "unitedstatespostalservice-a77078", "operator": "United States Postal Service", "operator:short": "USPS", "operator:type": "public", "operator:wikidata": "Q668687", "ref": "1780100062"}, "type": "Feature"}
{"geometry": {"coordinates": [-76.791781083, 40.86396988], "type": "Point"}, "id": "gtvOO8aYgyYWBj0KXx--9vMB3OI=", "properties": {"@source_uri": "https://tools.usps.com/UspsToolsRestServices/rest/POLocator/findLocations", "@spider": "usps_collection_boxes", "addr:city": "SUNBURY", "addr:country": "US", "addr:full": "135 N 3RD ST", "addr:postcode": "17801", "addr:state": "PA", "amenity": "post_box", "brand": "United States Postal Service", "brand:wikidata": "Q668687", "collection_times": "Mo-Fr 16:45; Sa 12:15", "indoor": "yes", "note": "ON 12/24 AND 12/31, THIS BOX MAY BE COLLECTED AS EARLY AS 12 NOON.", "nsi_id": "unitedstatespostalservice-a77078", "operator": "United States Postal Service", "operator:short": "USPS", "operator:type": "public", "operator:wikidata": "Q668687", "ref": "1780100071"}, "type": "Feature"}
{"geometry": {"coordinates": [-76.899103, 41.108159], "type": "Point"}, "id": "-YTOfAU2OfQ4Pmciyi0BHIORZSs=", "properties": {"@source_uri": "https://tools.usps.com/UspsToolsRestServices/rest/POLocator/findLocations", "@spider": "usps_collection_boxes", "addr:city": "ALLENWOOD", "addr:country": "US", "addr:full": "16945 US ROUTE 15", "addr:postcode": "17810", "addr:state": "PA", "amenity": "post_box", "brand": "United States Postal Service", "brand:wikidata": "Q668687", "collection_times": "Mo-Fr 15:00; Sa 11:30", "note": "ON 12/24 AND 12/31, THIS BOX MAY BE COLLECTED AS EARLY AS 12 NOON.", "nsi_id": "unitedstatespostalservice-a77078", "operator": "United States Postal Service", "operator:short": "USPS", "operator:type": "public", "operator:wikidata": "Q668687", "ref": "1781000001"}, "type": "Feature"}
{"geometry": {"coordinates": [-76.899114, 41.108214], "type": "Point"}, "id": "9tHZ8QIas0c-gZE2pUoxaOwaD7s=", "properties": {"@source_uri": "https://tools.usps.com/UspsToolsRestServices/rest/POLocator/findLocations", "@spider": "usps_collection_boxes", "addr:city": "ALLENWOOD", "addr:country": "US", "addr:full": "16945 US ROUTE 15", "addr:postcode": "17810", "addr:state": "PA", "amenity": "post_box", "brand": "United States Postal Service", "brand:wikidata": "Q668687", "collection_times": "Mo-Fr 15:00; Sa 11:30", "indoor": "yes", "note": "ON 12/24 AND 12/31, THIS BOX MAY BE COLLECTED AS EARLY AS 12 NOON.", "nsi_id": "unitedstatespostalservice-a77078", "operator": "United States Postal Service", "operator:short": "USPS", "operator:type": "public", "operator:wikidata": "Q668687", "ref": "1781000002"}, "type": "Feature"}
{"geometry": {"coordinates": [-76.899114, 41.108214], "type": "Point"}, "id": "cJJvHQqJplicp7bule6r7Yoz7kc=", "properties": {"@source_uri": "https://tools.usps.com/UspsToolsRestServices/rest/POLocator/findLocations", "@spider": "usps_collection_boxes", "addr:city": "ALLENWOOD", "addr:country": "US", "addr:full": "16945 US ROUTE 15", "addr:postcode": "17810", "addr:state": "PA", "amenity": "post_box", "brand": "United States Postal Service", "brand:wikidata": "Q668687", "collection_times": "Mo-Fr 15:00; Sa 11:30", "note": "ON 12/24 AND 12/31, THIS BOX MAY BE COLLECTED AS EARLY AS 12 NOON.", "nsi_id": "unitedstatespostalservice-a77078", "operator": "United States Postal Service", "operator:short": "USPS", "operator:type": "public", "operator:wikidata": "Q668687", "ref": "1781000003"}, "type": "Feature"}
{"geometry": {"coordinates": [-76.89917386, 41.108224747], "type": "Point"}, "id": "ZOdr2eExjFSiOA95X2_tyTZMfCA=", "properties": {"@source_uri": "https://tools.usps.com/UspsToolsRestServices/rest/POLocator/findLocations", "@spider": "usps_collection_boxes", "addr:city": "ALLENWOOD", "addr:country": "US", "addr:full": "16945 US ROUTE 15", "addr:postcode": "17810", "addr:state": "PA", "amenity": "post_box", "brand": "United States Postal Service", "brand:wikidata": "Q668687", "collection_times": "Mo-Fr 15:00; Sa 10:30", "indoor": "yes", "note": "ON 12/24 AND 12/31, THIS BOX MAY BE COLLECTED AS EARLY AS 12 NOON.", "nsi_id": "unitedstatespostalservice-a77078", "operator": "United States Postal Service", "operator:short": "USPS", "operator:type": "public", "operator:wikidata": "Q668687", "ref": "1781000005"}, "type": "Feature"}
{"geometry": {"coordinates": [-77.209151, 40.747173], "type": "Point"}, "id": "J-HSby32aNL7RnJh9fAmQTyLFA8=", "properties": {"@source_uri": "https://tools.usps.com/UspsToolsRestServices/rest/POLocator/findLocations", "@spider": "usps_collection_boxes", "addr:city": "BEAVER SPRINGS", "addr:country": "US", "addr:full": "85 PINE ST", "addr:postcode": "17812", "addr:state": "PA", "amenity": "post_box", "brand": "United States Postal Service", "brand:wikidata": "Q668687", "collection_times": "Mo-Fr 16:15; Sa 11:45", "note": "ON 12/24 AND 12/31, THIS BOX MAY BE COLLECTED AS EARLY AS 12 NOON.", "nsi_id": "unitedstatespostalservice-a77078", "operator": "United States Postal Service", "operator:short": "USPS", "operator:type": "public", "operator:wikidata": "Q668687", "ref": "1781200001"}, "type": "Feature"}
{"geometry": {"coordinates": [-77.209177, 40.747135], "type": "Point"}, "id": "0iYC96P-n51XYexz02eTsa5jens=", "properties": {"@source_uri": "https://tools.usps.com/UspsToolsRestServices/rest/POLocator/findLocations", "@spider": "usps_collection_boxes", "addr:city": "BEAVER SPRINGS", "addr:country": "US", "addr:full": "85 PINE ST", "addr:postcode": "17812", "addr:state": "PA", "amenity": "post_box", "brand": "United States Postal Service", "brand:wikidata": "Q668687", "collection_times": "Mo-Fr 16:15; Sa 11:30", "indoor": "yes", "note": "ON 12/24 AND 12/31, THIS BOX MAY BE COLLECTED AS EARLY AS 12 NOON.", "nsi_id": "unitedstatespostalservice-a77078", "operator": "United States Postal Service", "operator:short": "USPS", "operator:type": "public", "operator:wikidata": "Q668687", "ref": "1781200002"}, "type": "Feature"}
{"geometry": {"coordinates": [-77.20912906, 40.747064741], "type": "Point"}, "id": "S5-sfoSYggn9u_Ed_j853ZYXlFk=", "properties": {"@source_uri": "https://tools.usps.com/UspsToolsRestServices/rest/POLocator/findLocations", "@spider": "usps_collection_boxes", "addr:city": "BEAVER SPRINGS", "addr:country": "US", "addr:full": "85 PINE ST", "addr:postcode": "17812", "addr:state": "PA", "amenity": "post_box", "brand": "United States Postal Service", "brand:wikidata": "Q668687", "collection_times": "Mo-Fr 16:15; Sa 11:30", "indoor": "yes", "note": "ON 12/24 AND 12/31, THIS BOX MAY BE COLLECTED AS EARLY AS 12 NOON.", "nsi_id": "unitedstatespostalservice-a77078", "operator": "United States Postal Service", "operator:short": "USPS", "operator:type": "public", "operator:wikidata": "Q668687", "ref": "1781200004"}, "type": "Feature"}
{"geometry": {"coordinates": [-77.167176, 40.753126], "type": "Point"}, "id": "LEDor-XV4V3hNeM0h0HlvivcnB0=", "properties": {"@source_uri": "https://tools.usps.com/UspsToolsRestServices/rest/POLocator/findLocations", "@spider": "usps_collection_boxes", "addr:city": "BEAVERTOWN", "addr:country": "US", "addr:full": "212 S SASSAFRAS ST", "addr:postcode": "17813", "addr:state": "PA", "amenity": "post_box", "brand": "United States Postal Service", "brand:wikidata": "Q668687", "collection_times": "Mo-Fr 16:00; Sa 10:45", "note": "ON 12/24 AND 12/31, THIS BOX MAY BE COLLECTED AS EARLY AS 12 NOON.", "nsi_id": "unitedstatespostalservice-a77078", "operator": "United States Postal Service", "operator:short": "USPS", "operator:type": "public", "operator:wikidata": "Q668687", "ref": "1781300001"}, "type": "Feature"}
{"geometry": {"coordinates": [-77.167279, 40.753156], "type": "Point"}, "id": "-Jg_OOYBdnQZ-BFVB7TcD26QqvQ=", "properties": {"@source_uri": "https://tools.usps.com/UspsToolsRestServices/rest/POLocator/findLocations", "@spider": "usps_collection_boxes", "addr:city": "BEAVERTOWN", "addr:country": "US", "addr:full": "212 S SASSAFRAS ST", "addr:postcode": "17813", "addr:state": "PA", "amenity": "post_box", "brand": "United States Postal Service", "brand:wikidata": "Q668687", "collection_times": "Mo-Fr 16:00; Sa 10:45", "indoor": "yes", "note": "ON 12/24 AND 12/31, THIS BOX MAY BE COLLECTED AS EARLY AS 12 NOON.", "nsi_id": "unitedstatespostalservice-a77078", "operator": "United States Postal Service", "operator:short": "USPS", "operator:type": "public", "operator:wikidata": "Q668687", "ref": "1781300002"}, "type": "Feature"}
{"geometry": {"coordinates": [-77.167022527, 40.75312055], "type": "Point"}, "id": "Y6sSLUwJG0Xbmjf7cokvu5jr8Nk=", "properties": {"@source_uri": "https://tools.usps.com/UspsToolsRestServices/rest/POLocator/findLocations", "@spider": "usps_collection_boxes", "addr:city": "BEAVERTOWN", "addr:country": "US", "addr:full": "212 S SASSAFRAS ST", "addr:postcode": "17813", "addr:state": "PA", "amenity": "post_box", "brand": "United States Postal Service", "brand:wikidata": "Q668687", "collection_times": "Mo-Fr 16:30; Sa 12:00", "indoor": "yes", "note": "ON 12/24 AND 12/31, THIS BOX MAY BE COLLECTED AS EARLY AS 12 NOON.", "nsi_id": "unitedstatespostalservice-a77078", "operator": "United States Postal Service", "operator:short": "USPS", "operator:type": "public", "operator:wikidata": "Q668687", "ref": "1781300004"}, "type": "Feature"}
{"geometry": {"coordinates": [-76.384702, 41.196671], "type": "Point"}, "id": "T_Q36p3RYlpaYhfNDqFx3uhAH8Y=", "properties": {"@source_uri": "https://tools.usps.com/UspsToolsRestServices/rest/POLocator/findLocations", "@spider": "usps_collection_boxes", "addr:city": "BENTON", "addr:country": "US", "addr:full": "250 THIRD ST", "addr:postcode": "17814", "addr:state": "PA", "amenity": "post_box", "brand": "United States Postal Service", "brand:wikidata": "Q668687", "collection_times": "Mo-Fr 15:45; Sa 10:45", "note": "ON 12/24 AND 12/31, THIS BOX MAY BE COLLECTED AS EARLY AS 12 NOON.", "nsi_id": "unitedstatespostalservice-a77078", "operator": "United States Postal Service", "operator:short": "USPS", "operator:type": "public", "operator:wikidata": "Q668687", "ref": "1781400001"}, "type": "Feature"}
{"geometry": {"coordinates": [-76.384669, 41.19666], "type": "Point"}, "id": "YwR3ZFIDwfttTb2UsV0Bbp5VZ3I=", "properties": {"@source_uri": "https://tools.usps.com/UspsToolsRestServices/rest/POLocator/findLocations", "@spider": "usps_collection_boxes", "addr:city": "BENTON", "addr:country": "US", "addr:full": "250 THIRD ST", "addr:postcode": "17814", "addr:state": "PA", "amenity": "post_box", "brand": "United States Postal Service", "brand:wikidata": "Q668687", "collection_times": "Mo-Fr 15:45; Sa 10:45", "indoor": "yes", "note": "ON 12/24 AND 12/31, THIS BOX MAY BE COLLECTED AS EARLY AS 12 NOON.", "nsi_id": "unitedstatespostalservice-a77078", "operator": "United States Postal Service", "operator:short": "USPS", "operator:type": "public", "operator:wikidata": "Q668687", "ref": "1781400002"}, "type": "Feature"}
{"geometry": {"coordinates": [-76.384510761, 41.196945739], "type": "Point"}, "id": "XufEGR8E2AYiFaxZCX7J4CzAaYc=", "properties": {"@source_uri": "https://tools.usps.com/UspsToolsRestServices/rest/POLocator/findLocations", "@spider": "usps_collection_boxes", "addr:city": "BENTON", "addr:country": "US", "addr:full": "250 THIRD ST", "addr:postcode": "17814", "addr:state": "PA", "amenity": "post_box", "brand": "United States Postal Service", "brand:wikidata": "Q668687", "collection_times": "Mo-Fr 16:05; Sa 11:05", "indoor": "yes", "note": "ON 12/24 AND 12/31, THIS BOX MAY BE COLLECTED AS EARLY AS 12 NOON.", "nsi_id": "unitedstatespostalservice-a77078", "operator": "United States Postal Service", "operator:short": "USPS", "operator:type": "public", "operator:wikidata": "Q668687", "ref": "1781400004"}, "type": "Feature"}
{"geometry": {"coordinates": [-76.4235326, 41.00192], "type": "Point"}, "id": "wT6MyJhyD0Svrnt-0eHuApJxWVo=", "properties": {"@source_uri": "https://tools.usps.com/UspsToolsRestServices/rest/POLocator/findLocations", "@spider": "usps_collection_boxes", "addr:city": "BLOOMSBURG", "addr:country": "US", "addr:full": "16 SHERWOOD DR", "addr:postcode": "17815", "addr:state": "PA", "amenity": "post_box", "brand": "United States Postal Service", "brand:wikidata": "Q668687", "collection_times": "Mo-Sa 13:00", "note": "ON 12/24 AND 12/31, THIS BOX MAY BE COLLECTED AS EARLY AS 12 NOON.", "nsi_id": "unitedstatespostalservice-a77078", "operator": "United States Postal Service", "operator:short": "USPS", "operator:type": "public", "operator:wikidata": "Q668687", "ref": "1781500005"}, "type": "Feature"}
{"geometry": {"coordinates": [-76.443966, 41.003557], "type": "Point"}, "id": "waVk3f042pv20Sek5F-J7-Zixv0=", "properties": {"@source_uri": "https://tools.usps.com/UspsToolsRestServices/rest/POLocator/findLocations", "@spider": "usps_collection_boxes", "addr:city": "BLOOMSBURG", "addr:country": "US", "addr:full": "725 COLUMBIA BLVD", "addr:postcode": "17815", "addr:state": "PA", "amenity": "post_box", "brand": "United States Postal Service", "brand:wikidata": "Q668687", "collection_times": "Mo-Sa 13:00", "note": "ON 12/24 AND 12/31, THIS BOX MAY BE COLLECTED AS EARLY AS 12 NOON.", "nsi_id": "unitedstatespostalservice-a77078", "operator": "United States Postal Service", "operator:short": "USPS", "operator:type": "public", "operator:wikidata": "Q668687", "ref": "1781500007"}, "type": "Feature"}
{"geometry": {"coordinates": [-76.4488276, 41.005954], "type": "Point"}, "id": "Pp0XOwFYu88zBWdpOV6RHmlwlHU=", "properties": {"@source_uri": "https://tools.usps.com/UspsToolsRestServices/rest/POLocator/findLocations", "@spider": "usps_collection_boxes", "addr:city": "BLOOMSBURG", "addr:country": "US", "addr:full": "400 E 2ND ST", "addr:postcode": "17815", "addr:state": "PA", "amenity": "post_box", "brand": "United States Postal Service", "brand:wikidata": "Q668687", "collection_times": "Mo-Sa 10:00", "nsi_id": "unitedstatespostalservice-a77078", "operator": "United States Postal Service", "operator:short": "USPS", "operator:type": "public", "operator:wikidata": "Q668687", "ref": "1781500009"}, "type": "Feature"}
{"geometry": {"coordinates": [-76.4137352, 41.011523], "type": "Point"}, "id": "TUJR0UGQ-zGFNvrmntTj8Gb6Ieo=", "properties": {"@source_uri": "https://tools.usps.com/UspsToolsRestServices/rest/POLocator/findLocations", "@spider": "usps_collection_boxes", "addr:city": "BLOOMSBURG", "addr:country": "US", "addr:full": "2411 COLUMBIA BLVD", "addr:postcode": "17815", "addr:state": "PA", "amenity": "post_box", "brand": "United States Postal Service", "brand:wikidata": "Q668687", "collection_times": "Mo-Sa 13:00", "note": "ON 12/24 AND 12/31, THIS BOX MAY BE COLLECTED AS EARLY AS 12 NOON.", "nsi_id": "unitedstatespostalservice-a77078", "operator": "United States Postal Service", "operator:short": "USPS", "operator:type": "public", "operator:wikidata": "Q668687", "ref": "1781500014"}, "type": "Feature"}
{"geometry": {"coordinates": [-76.4535005, 41.004183], "type": "Point"}, "id": "b15UyN1XYt61T8-xMJhGul5kCeM=", "properties": {"@source_uri": "https://tools.usps.com/UspsToolsRestServices/rest/POLocator/findLocations", "@spider": "usps_collection_boxes", "addr:city": "BLOOMSBURG", "addr:country": "US", "addr:full": "204 EAST ST", "addr:postcode": "17815", "addr:state": "PA", "amenity": "post_box", "brand": "United States Postal Service", "brand:wikidata": "Q668687", "collection_times": "Mo-Sa 13:00", "note": "ON 12/24 AND 12/31, THIS BOX MAY BE COLLECTED AS EARLY AS 12 NOON.", "nsi_id": "unitedstatespostalservice-a77078", "operator": "United States Postal Service", "operator:short": "USPS", "operator:type": "public", "operator:wikidata": "Q668687", "ref": "1781500029"}, "type": "Feature"}
{"geometry": {"coordinates": [-76.4559574, 41.000185], "type": "Point"}, "id": "ltXAjN9GkhpnLanDoiHA_EBBGwk=", "properties": {"@source_uri": "https://tools.usps.com/UspsToolsRestServices/rest/POLocator/findLocations", "@spider": "usps_collection_boxes", "addr:city": "BLOOMSBURG", "addr:country": "US", "addr:full": "401 MARKET ST", "addr:postcode": "17815", "addr:state": "PA", "amenity": "post_box", "brand": "United States Postal Service", "brand:wikidata": "Q668687", "collection_times": "Mo-Sa 13:00", "note": "ON 12/24 AND 12/31, THIS BOX MAY BE COLLECTED AS EARLY AS 12 NOON.", "nsi_id": "unitedstatespostalservice-a77078", "operator": "United States Postal Service", "operator:short": "USPS", "operator:type": "public", "operator:wikidata": "Q668687", "ref": "1781500034"}, "type": "Feature"}
{"geometry": {"coordinates": [-76.4530673, 41.009315], "type": "Point"}, "id": "jLE1zqLxeZGn-RFWsSUWXaaRcvg=", "properties": {"@source_uri": "https://tools.usps.com/UspsToolsRestServices/rest/POLocator/findLocations", "@spider": "usps_collection_boxes", "addr:city": "BLOOMSBURG", "addr:country": "US", "addr:full": "549 FAIR ST", "addr:postcode": "17815", "addr:state": "PA", "amenity": "post_box", "brand": "United States Postal Service", "brand:wikidata": "Q668687", "collection_times": "Mo-Sa 13:00", "note": "ON 12/24 AND 12/31, THIS BOX MAY BE COLLECTED AS EARLY AS 12 NOON.", "nsi_id": "unitedstatespostalservice-a77078", "operator": "United States Postal Service", "operator:short": "USPS", "operator:type": "public", "operator:wikidata": "Q668687", "ref": "1781500035"}, "type": "Feature"}
{"geometry": {"coordinates": [-76.4578641, 41.002196], "type": "Point"}, "id": "_aAfkRj5s5IL5__JDWRADCQiIlo=", "properties": {"@source_uri": "https://tools.usps.com/UspsToolsRestServices/rest/POLocator/findLocations", "@spider": "usps_collection_boxes", "addr:city": "BLOOMSBURG", "addr:country": "US", "addr:full": "230 MARKET ST", "addr:postcode": "17815", "addr:state": "PA", "amenity": "post_box", "brand": "United States Postal Service", "brand:wikidata": "Q668687", "collection_times": "Mo-Sa 17:00", "note": "ON 12/24 AND 12/31, THIS BOX MAY BE COLLECTED AS EARLY AS 12 NOON.", "nsi_id": "unitedstatespostalservice-a77078", "operator": "United States Postal Service", "operator:short": "USPS", "operator:type": "public", "operator:wikidata": "Q668687", "ref": "1781500036"}, "type": "Feature"}
{"geometry": {"coordinates": [-76.4578336, 41.002189], "type": "Point"}, "id": "B3ykmLOEmAYQzPRPClU9d7axtp8=", "properties": {"@source_uri": "https://tools.usps.com/UspsToolsRestServices/rest/POLocator/findLocations", "@spider": "usps_collection_boxes", "addr:city": "BLOOMSBURG", "addr:country": "US", "addr:full": "230 MARKET ST", "addr:postcode": "17815", "addr:state": "PA", "amenity": "post_box", "brand": "United States Postal Service", "brand:wikidata": "Q668687", "collection_times": "Mo-Sa 17:00", "note": "ON 12/24 AND 12/31, THIS BOX MAY BE COLLECTED AS EARLY AS 12 NOON.", "nsi_id": "unitedstatespostalservice-a77078", "operator": "United States Postal Service", "operator:short": "USPS", "operator:type": "public", "operator:wikidata": "Q668687", "ref": "1781500037"}, "type": "Feature"}
{"geometry": {"coordinates": [-76.4552, 41.002105], "type": "Point"}, "id": "nYCz6CzDvyuOv9kz6d7sG4KU9hs=", "properties": {"@source_uri": "https://tools.usps.com/UspsToolsRestServices/rest/POLocator/findLocations", "@spider": "usps_collection_boxes", "addr:city": "BLOOMSBURG", "addr:country": "US", "addr:full": "230 MARKET ST", "addr:postcode": "17815", "addr:state": "PA", "amenity": "post_box", "brand": "United States Postal Service", "brand:wikidata": "Q668687", "collection_times": "Mo-Sa 17:00", "note": "ON 12/24 AND 12/31, THIS BOX MAY BE COLLECTED AS EARLY AS 12 NOON.", "nsi_id": "unitedstatespostalservice-a77078", "operator": "United States Postal Service", "operator:short": "USPS", "operator:type": "public", "operator:wikidata": "Q668687", "ref": "1781500040"}, "type": "Feature"}
{"geometry": {"coordinates": [-76.457957, 41.001935], "type": "Point"}, "id": "P4Tl22vV9MwdYm_rW3ari4UKEJc=", "properties": {"@source_uri": "https://tools.usps.com/UspsToolsRestServices/rest/POLocator/findLocations", "@spider": "usps_collection_boxes", "addr:city": "BLOOMSBURG", "addr:country": "US", "addr:full": "230 MARKET ST", "addr:postcode": "17815", "addr:state": "PA", "amenity": "post_box", "brand": "United States Postal Service", "brand:wikidata": "Q668687", "collection_times": "Mo-Sa 17:00", "indoor": "yes", "note": "ON 12/24 AND 12/31, THIS BOX MAY BE COLLECTED AS EARLY AS 12 NOON.", "nsi_id": "unitedstatespostalservice-a77078", "operator": "United States Postal Service", "operator:short": "USPS", "operator:type": "public", "operator:wikidata": "Q668687", "ref": "1781500041"}, "type": "Feature"}
{"geometry": {"coordinates": [-76.4563579, 41.003216], "type": "Point"}, "id": "oU2AmDndIRLDj8QWQQimNZqn11U=", "properties": {"@source_uri": "https://tools.usps.com/UspsToolsRestServices/rest/POLocator/findLocations", "@spider": "usps_collection_boxes", "addr:city": "BLOOMSBURG", "addr:country": "US", "addr:full": "2 E MAIN ST", "addr:postcode": "17815", "addr:state": "PA", "amenity": "post_box", "brand": "United States Postal Service", "brand:wikidata": "Q668687", "collection_times": "Mo-Sa 13:00", "note": "ON 12/24 AND 12/31, THIS BOX MAY BE COLLECTED AS EARLY AS 12 NOON.", "nsi_id": "unitedstatespostalservice-a77078", "operator": "United States Postal Service", "operator:short": "USPS", "operator:type": "public", "operator:wikidata": "Q668687", "ref": "1781500042"}, "type": "Feature"}
{"geometry": {"coordinates": [-76.46434, 40.999695], "type": "Point"}, "id": "XGtOtesmnSn0UVAngIFIFHdFmHk=", "properties": {"@source_uri": "https://tools.usps.com/UspsToolsRestServices/rest/POLocator/findLocations", "@spider": "usps_collection_boxes", "addr:city": "BLOOMSBURG", "addr:country": "US", "addr:full": "498 W MAIN ST", "addr:postcode": "17815", "addr:state": "PA", "amenity": "post_box", "brand": "United States Postal Service", "brand:wikidata": "Q668687", "collection_times": "Mo-Fr 13:30; Sa 13:00", "note": "ON 12/24 AND 12/31, THIS BOX MAY BE COLLECTED AS EARLY AS 12 NOON.", "nsi_id": "unitedstatespostalservice-a77078", "operator": "United States Postal Service", "operator:short": "USPS", "operator:type": "public", "operator:wikidata": "Q668687", "ref": "1781500049"}, "type": "Feature"}
{"geometry": {"coordinates": [-76.4030642, 41.027277], "type": "Point"}, "id": "OAaVrbSucox7rNPclNk8_0BxvXs=", "properties": {"@source_uri": "https://tools.usps.com/UspsToolsRestServices/rest/POLocator/findLocations", "@spider": "usps_collection_boxes", "addr:city": "BLOOMSBURG", "addr:country": "US", "addr:full": "700 SAWMILL RD", "addr:postcode": "17815", "addr:state": "PA", "amenity": "post_box", "brand": "United States Postal Service", "brand:wikidata": "Q668687", "collection_times": "Mo-Sa 10:30", "nsi_id": "unitedstatespostalservice-a77078", "operator": "United States Postal Service", "operator:short": "USPS", "operator:type": "public", "operator:wikidata": "Q668687", "ref": "1781500051"}, "type": "Feature"}
{"geometry": {"coordinates": [-76.457678895, 41.002055959], "type": "Point"}, "id": "YU97XlG1n2oAC31rM9kzq3TyBrA=", "properties": {"@source_uri": "https://tools.usps.com/UspsToolsRestServices/rest/POLocator/findLocations", "@spider": "usps_collection_boxes", "addr:city": "BLOOMSBURG", "addr:country": "US", "addr:full": "230 MARKET ST", "addr:postcode": "17815", "addr:state": "PA", "amenity": "post_box", "brand": "United States Postal Service", "brand:wikidata": "Q668687", "collection_times": "Mo-Fr 16:45; Sa 12:15", "indoor": "yes", "note": "ON 12/24 AND 12/31, THIS BOX MAY BE COLLECTED AS EARLY AS 12 NOON.", "nsi_id": "unitedstatespostalservice-a77078", "operator": "United States Postal Service", "operator:short": "USPS", "operator:type": "public", "operator:wikidata": "Q668687", "ref": "1781500056"}, "type": "Feature"}
{"geometry": {"coordinates": [-76.618993, 40.960271], "type": "Point"}, "id": "nuy4TFthJ0kiAD1gYZN28MqsZWk=", "properties": {"@source_uri": "https://tools.usps.com/UspsToolsRestServices/rest/POLocator/findLocations", "@spider": "usps_collection_boxes", "addr:city": "DANVILLE", "addr:country": "US", "addr:full": "29 MILL ST", "addr:postcode": "17821", "addr:state": "PA", "amenity": "post_box", "brand": "United States Postal Service", "brand:wikidata": "Q668687", "collection_times": "Mo-Sa 09:00", "nsi_id": "unitedstatespostalservice-a77078", "operator": "United States Postal Service", "operator:short": "USPS", "operator:type": "public", "operator:wikidata": "Q668687", "ref": "1782100004"}, "type": "Feature"}
{"geometry": {"coordinates": [-76.6170082, 40.963031], "type": "Point"}, "id": "qL8M11pdicSf0Q4y1eQcpl5vQ6I=", "properties": {"@source_uri": "https://tools.usps.com/UspsToolsRestServices/rest/POLocator/findLocations", "@spider": "usps_collection_boxes", "addr:city": "DANVILLE", "addr:country": "US", "addr:full": "306 MILL ST", "addr:postcode": "17821", "addr:state": "PA", "amenity": "post_box", "brand": "United States Postal Service", "brand:wikidata": "Q668687", "collection_times": "Mo-Sa 09:30", "nsi_id": "unitedstatespostalservice-a77078", "operator": "United States Postal Service", "operator:short": "USPS", "operator:type": "public", "operator:wikidata": "Q668687", "ref": "1782100010"}, "type": "Feature"}
{"geometry": {"coordinates": [-76.6164543, 40.963828], "type": "Point"}, "id": "CGZor_Gf7N4lqHfjVbZC6wUZUS4=", "properties": {"@source_uri": "https://tools.usps.com/UspsToolsRestServices/rest/POLocator/findLocations", "@spider": "usps_collection_boxes", "addr:city": "DANVILLE", "addr:country": "US", "addr:full": "342 MILL ST", "addr:postcode": "17821", "addr:state": "PA", "amenity": "post_box", "brand": "United States Postal Service", "brand:wikidata": "Q668687", "collection_times": "Mo-Sa 09:30", "nsi_id": "unitedstatespostalservice-a77078", "operator": "United States Postal Service", "operator:short": "USPS", "operator:type": "public", "operator:wikidata": "Q668687", "ref": "1782100011"}, "type": "Feature"}
{"geometry": {"coordinates": [-76.5940554, 40.967566], "type": "Point"}, "id": "vLsabJJN5wKQXWo11J_kKEPcL2k=", "properties": {"@source_uri": "https://tools.usps.com/UspsToolsRestServices/rest/POLocator/findLocations", "@spider": "usps_collection_boxes", "addr:city": "DANVILLE", "addr:country": "US", "addr:full": "205 MAPLE ST", "addr:postcode": "17821", "addr:state": "PA", "amenity": "post_box", "brand": "United States Postal Service", "brand:wikidata": "Q668687", "collection_times": "Mo-Sa 09:30", "nsi_id": "unitedstatespostalservice-a77078", "operator": "United States Postal Service", "operator:short": "USPS", "operator:type": "public", "operator:wikidata": "Q668687", "ref": "1782100020"}, "type": "Feature"}
{"geometry": {"coordinates": [-76.6066645, 40.966947], "type": "Point"}, "id": "NCzdh62TFBrO2C0gdRLTBBHmb3k=", "properties": {"@source_uri": "https://tools.usps.com/UspsToolsRestServices/rest/POLocator/findLocations", "@spider": "usps_collection_boxes", "addr:city": "DANVILLE", "addr:country": "US", "addr:full": "100 N ACADEMY AVE", "addr:postcode": "17821", "addr:state": "PA", "amenity": "post_box", "brand": "United States Postal Service", "brand:wikidata": "Q668687", "collection_times": "Mo-Sa 09:30", "nsi_id": "unitedstatespostalservice-a77078", "operator": "United States Postal Service", "operator:short": "USPS", "operator:type": "public", "operator:wikidata": "Q668687", "ref": "1782100023"}, "type": "Feature"}
{"geometry": {"coordinates": [-76.6063849, 40.969597], "type": "Point"}, "id": "p63J6cBpuux5CdZ1Ka8BtuXJfR0=", "properties": {"@source_uri": "https://tools.usps.com/UspsToolsRestServices/rest/POLocator/findLocations", "@spider": "usps_collection_boxes", "addr:city": "DANVILLE", "addr:country": "US", "addr:full": "100 N ACADEMY AVE", "addr:postcode": "17821", "addr:state": "PA", "amenity": "post_box", "brand": "United States Postal Service", "brand:wikidata": "Q668687", "collection_times": "Mo-Sa 10:00", "nsi_id": "unitedstatespostalservice-a77078", "operator": "United States Postal Service", "operator:short": "USPS", "operator:type": "public", "operator:wikidata": "Q668687", "ref": "1782100024"}, "type": "Feature"}
{"geometry": {"coordinates": [-76.6059904, 40.967071], "type": "Point"}, "id": "8fftt0c8zoJRSJ2NZYgFCsyQrv8=", "properties": {"@source_uri": "https://tools.usps.com/UspsToolsRestServices/rest/POLocator/findLocations", "@spider": "usps_collection_boxes", "addr:city": "DANVILLE", "addr:country": "US", "addr:full": "100 N ACADEMY AVE", "addr:postcode": "17821", "addr:state": "PA", "amenity": "post_box", "brand": "United States Postal Service", "brand:wikidata": "Q668687", "collection_times": "Mo-Sa 09:30", "nsi_id": "unitedstatespostalservice-a77078", "operator": "United States Postal Service", "operator:short": "USPS", "operator:type": "public", "operator:wikidata": "Q668687", "ref": "1782100025"}, "type": "Feature"}
{"geometry": {"coordinates": [-76.6183826, 40.961278], "type": "Point"}, "id": "qxMXNABnH8SYQ3I_HGcIch26tIc=", "properties": {"@source_uri": "https://tools.usps.com/UspsToolsRestServices/rest/POLocator/findLocations", "@spider": "usps_collection_boxes", "addr:city": "DANVILLE", "addr:country": "US", "addr:full": "4 W MAHONING ST", "addr:postcode": "17821", "addr:state": "PA", "amenity": "post_box", "brand": "United States Postal Service", "brand:wikidata": "Q668687", "collection_times": "Mo-Fr 17:00; Sa 15:00", "note": "ON 12/24 AND 12/31, THIS BOX MAY BE COLLECTED AS EARLY AS 12 NOON.", "nsi_id": "unitedstatespostalservice-a77078", "operator": "United States Postal Service", "operator:short": "USPS", "operator:type": "public", "operator:wikidata": "Q668687", "ref": "1782100027"}, "type": "Feature"}
{"geometry": {"coordinates": [-76.6182447, 40.961355], "type": "Point"}, "id": "MSWPfwmV0SoLsCSs9iFkOVTp7bg=", "properties": {"@source_uri": "https://tools.usps.com/UspsToolsRestServices/rest/POLocator/findLocations", "@spider": "usps_collection_boxes", "addr:city": "DANVILLE", "addr:country": "US", "addr:full": "201 MILL ST", "addr:postcode": "17821", "addr:state": "PA", "amenity": "post_box", "brand": "United States Postal Service", "brand:wikidata": "Q668687", "collection_times": "Mo-Fr 17:00; Sa 15:00", "note": "ON 12/24 AND 12/31, THIS BOX MAY BE COLLECTED AS EARLY AS 12 NOON.", "nsi_id": "unitedstatespostalservice-a77078", "operator": "United States Postal Service", "operator:short": "USPS", "operator:type": "public", "operator:wikidata": "Q668687", "ref": "1782100029"}, "type": "Feature"}
{"geometry": {"coordinates": [-76.615497, 40.965976], "type": "Point"}, "id": "qHaUvkg7mTlddha_h-eppze1Jck=", "properties": {"@source_uri": "https://tools.usps.com/UspsToolsRestServices/rest/POLocator/findLocations", "@spider": "usps_collection_boxes", "addr:city": "DANVILLE", "addr:country": "US", "addr:full": "600 CONTINENTAL BLVD", "addr:postcode": "17821", "addr:state": "PA", "amenity": "post_box", "brand": "United States Postal Service", "brand:wikidata": "Q668687", "collection_times": "Mo-Sa 09:30", "nsi_id": "unitedstatespostalservice-a77078", "operator": "United States Postal Service", "operator:short": "USPS", "operator:type": "public", "operator:wikidata": "Q668687", "ref": "1782100030"}, "type": "Feature"}
{"geometry": {"coordinates": [-76.6182227, 40.965423], "type": "Point"}, "id": "yIm7OBAIwY-Y81fv516jzk1vAT4=", "properties": {"@source_uri": "https://tools.usps.com/UspsToolsRestServices/rest/POLocator/findLocations", "@spider": "usps_collection_boxes", "addr:city": "DANVILLE", "addr:country": "US", "addr:full": "115 NORTHUMBERLAND ST", "addr:postcode": "17821", "addr:state": "PA", "amenity": "post_box", "brand": "United States Postal Service", "brand:wikidata": "Q668687", "collection_times": "Mo-Sa 09:30", "nsi_id": "unitedstatespostalservice-a77078", "operator": "United States Postal Service", "operator:short": "USPS", "operator:type": "public", "operator:wikidata": "Q668687", "ref": "1782100031"}, "type": "Feature"}
{"geometry": {"coordinates": [-76.6129814, 40.960914], "type": "Point"}, "id": "uqIdP1DYCfFKy13Sixell8NYEHs=", "properties": {"@source_uri": "https://tools.usps.com/UspsToolsRestServices/rest/POLocator/findLocations", "@spider": "usps_collection_boxes", "addr:city": "DANVILLE", "addr:country": "US", "addr:full": "328 CHURCH ST", "addr:postcode": "17821", "addr:state": "PA", "amenity": "post_box", "brand": "United States Postal Service", "brand:wikidata": "Q668687", "collection_times": "Mo-Sa 09:00", "nsi_id": "unitedstatespostalservice-a77078", "operator": "United States Postal Service", "operator:short": "USPS", "operator:type": "public", "operator:wikidata": "Q668687", "ref": "1782100033"}, "type": "Feature"}
{"geometry": {"coordinates": [-76.6180069, 40.961313], "type": "Point"}, "id": "TDQUNf3t5VfLF2aRbelKwG6qwOw=", "properties": {"@source_uri": "https://tools.usps.com/UspsToolsRestServices/rest/POLocator/findLocations", "@spider": "usps_collection_boxes", "addr:city": "DANVILLE", "addr:country": "US", "addr:full": "200 MILL ST", "addr:postcode": "17821", "addr:state": "PA", "amenity": "post_box", "brand": "United States Postal Service", "brand:wikidata": "Q668687", "collection_times": "Mo-Fr 17:00; Sa 15:00", "indoor": "yes", "note": "ON 12/24 AND 12/31, THIS BOX MAY BE COLLECTED AS EARLY AS 12 NOON.", "nsi_id": "unitedstatespostalservice-a77078", "operator": "United States Postal Service", "operator:short": "USPS", "operator:type": "public", "operator:wikidata": "Q668687", "ref": "1782100034"}, "type": "Feature"}
{"geometry": {"coordinates": [-76.61811551, 40.961353957], "type": "Point"}, "id": "sOmch8lR9PZeNGtQIasvHgDMr1s=", "properties": {"@source_uri": "https://tools.usps.com/UspsToolsRestServices/rest/POLocator/findLocations", "@spider": "usps_collection_boxes", "addr:city": "DANVILLE", "addr:country": "US", "addr:full": "200 MILL ST", "addr:postcode": "17821", "addr:state": "PA", "amenity": "post_box", "brand": "United States Postal Service", "brand:wikidata": "Q668687", "collection_times": "Mo-Fr 16:45; Sa 12:15", "indoor": "yes", "note": "ON 12/24 AND 12/31, THIS BOX MAY BE COLLECTED AS EARLY AS 12 NOON.", "nsi_id": "unitedstatespostalservice-a77078", "operator": "United States Postal Service", "operator:short": "USPS", "operator:type": "public", "operator:wikidata": "Q668687", "ref": "1782100038"}, "type": "Feature"}
{"geometry": {"coordinates": [-76.789895, 40.744017], "type": "Point"}, "id": "vsa8d64sPh5d1J2lFb-e7SMEKGk=", "properties": {"@source_uri": "https://tools.usps.com/UspsToolsRestServices/rest/POLocator/findLocations", "@spider": "usps_collection_boxes", "addr:city": "DORNSIFE", "addr:country": "US", "addr:full": "123 CREEK RD", "addr:postcode": "17823", "addr:state": "PA", "amenity": "post_box", "brand": "United States Postal Service", "brand:wikidata": "Q668687", "collection_times": "Mo-Fr 13:30; Sa 09:00", "note": "ON 12/24 AND 12/31, THIS BOX MAY BE COLLECTED AS EARLY AS 12 NOON.", "nsi_id": "unitedstatespostalservice-a77078", "operator": "United States Postal Service", "operator:short": "USPS", "operator:type": "public", "operator:wikidata": "Q668687", "ref": "1782300001"}, "type": "Feature"}
{"geometry": {"coordinates": [-76.789895, 40.744017], "type": "Point"}, "id": "nU0FPEcSsX1mQaVFMqrmmwTeLos=", "properties": {"@source_uri": "https://tools.usps.com/UspsToolsRestServices/rest/POLocator/findLocations", "@spider": "usps_collection_boxes", "addr:city": "DORNSIFE", "addr:country": "US", "addr:full": "123 CREEK RD", "addr:postcode": "17823", "addr:state": "PA", "amenity": "post_box", "brand": "United States Postal Service", "brand:wikidata": "Q668687", "collection_times": "Mo-Fr 13:30; Sa 09:00", "indoor": "yes", "note": "ON 12/24 AND 12/31, THIS BOX MAY BE COLLECTED AS EARLY AS 12 NOON.", "nsi_id": "unitedstatespostalservice-a77078", "operator": "United States Postal Service", "operator:short": "USPS", "operator:type": "public", "operator:wikidata": "Q668687", "ref": "1782300003"}, "type": "Feature"}
{"geometry": {"coordinates": [-76.789884651, 40.74400934], "type": "Point"}, "id": "cPjSzZaNAPmsNU8mhE2oH596Mjw=", "properties": {"@source_uri": "https://tools.usps.com/UspsToolsRestServices/rest/POLocator/findLocations", "@spider": "usps_collection_boxes", "addr:city": "DORNSIFE", "addr:country": "US", "addr:full": "123 CREEK RD", "addr:postcode": "17823", "addr:state": "PA", "amenity": "post_box", "brand": "United States Postal Service", "brand:wikidata": "Q668687", "collection_times": "Mo-Fr 13:30; Sa 09:00", "indoor": "yes", "note": "ON 12/24 AND 12/31, THIS BOX MAY BE COLLECTED AS EARLY AS 12 NOON.", "nsi_id": "unitedstatespostalservice-a77078", "operator": "United States Postal Service", "operator:short": "USPS", "operator:type": "public", "operator:wikidata": "Q668687", "ref": "1782300005"}, "type": "Feature"}
{"geometry": {"coordinates": [-76.5499111, 40.864698], "type": "Point"}, "id": "1jt9zAZ8aQrrYErZ9qj_zJtJDqc=", "properties": {"@source_uri": "https://tools.usps.com/UspsToolsRestServices/rest/POLocator/findLocations", "@spider": "usps_collection_boxes", "addr:city": "ELYSBURG", "addr:country": "US", "addr:full": "5 E ROOSEVELT AVE", "addr:postcode": "17824", "addr:state": "PA", "amenity": "post_box", "brand": "United States Postal Service", "brand:wikidata": "Q668687", "collection_times": "Mo-Fr 16:00; Sa 10:00", "note": "ON 12/24 AND 12/31, THIS BOX MAY BE COLLECTED AS EARLY AS 12 NOON.", "nsi_id": "unitedstatespostalservice-a77078", "operator": "United States Postal Service", "operator:short": "USPS", "operator:type": "public", "operator:wikidata": "Q668687", "ref": "1782400003"}, "type": "Feature"}
{"geometry": {"coordinates": [-76.5499253, 40.864846], "type": "Point"}, "id": "OT7RJ0uLpO1vIttzoIQZHic0ZJ0=", "properties": {"@source_uri": "https://tools.usps.com/UspsToolsRestServices/rest/POLocator/findLocations", "@spider": "usps_collection_boxes", "addr:city": "ELYSBURG", "addr:country": "US", "addr:full": "5 E ROOSEVELT AVE", "addr:postcode": "17824", "addr:state": "PA", "amenity": "post_box", "brand": "United States Postal Service", "brand:wikidata": "Q668687", "collection_times": "Mo-Fr 16:00; Sa 10:00", "indoor": "yes", "note": "ON 12/24 AND 12/31, THIS BOX MAY BE COLLECTED AS EARLY AS 12 NOON.", "nsi_id": "unitedstatespostalservice-a77078", "operator": "United States Postal Service", "operator:short": "USPS", "operator:type": "public", "operator:wikidata": "Q668687", "ref": "1782400004"}, "type": "Feature"}
{"geometry": {"coordinates": [-76.54971471, 40.864795438], "type": "Point"}, "id": "xt_2s5Poh4Emmyo93pug_0QXNIs=", "properties": {"@source_uri": "https://tools.usps.com/UspsToolsRestServices/rest/POLocator/findLocations", "@spider": "usps_collection_boxes", "addr:city": "ELYSBURG", "addr:country": "US", "addr:full": "5 E ROOSEVELT AVE", "addr:postcode": "17824", "addr:state": "PA", "amenity": "post_box", "brand": "United States Postal Service", "brand:wikidata": "Q668687", "collection_times": "Mo-Fr 16:05; Sa 10:00", "indoor": "yes", "note": "ON 12/24 AND 12/31, THIS BOX MAY BE COLLECTED AS EARLY AS 12 NOON.", "nsi_id": "unitedstatespostalservice-a77078", "operator": "United States Postal Service", "operator:short": "USPS", "operator:type": "public", "operator:wikidata": "Q668687", "ref": "1782400006"}, "type": "Feature"}
{"geometry": {"coordinates": [-76.941221, 40.76222], "type": "Point"}, "id": "BtugJMhPf9_XueuwKHDaRcZls8g=", "properties": {"@source_uri": "https://tools.usps.com/UspsToolsRestServices/rest/POLocator/findLocations", "@spider": "usps_collection_boxes", "addr:city": "FREEBURG", "addr:country": "US", "addr:full": "12 E MARKET ST", "addr:postcode": "17827", "addr:state": "PA", "amenity": "post_box", "brand": "United States Postal Service", "brand:wikidata": "Q668687", "collection_times": "Mo-Fr 16:15; Sa 10:00", "note": "ON 12/24 AND 12/31, THIS BOX MAY BE COLLECTED AS EARLY AS 12 NOON.", "nsi_id": "unitedstatespostalservice-a77078", "operator": "United States Postal Service", "operator:short": "USPS", "operator:type": "public", "operator:wikidata": "Q668687", "ref": "1782700001"}, "type": "Feature"}
{"geometry": {"coordinates": [-76.941274, 40.762156], "type": "Point"}, "id": "Nx95rsHSPd9U5sb-5tkRJLbjFYQ=", "properties": {"@source_uri": "https://tools.usps.com/UspsToolsRestServices/rest/POLocator/findLocations", "@spider": "usps_collection_boxes", "addr:city": "FREEBURG", "addr:country": "US", "addr:full": "12 E MARKET ST", "addr:postcode": "17827", "addr:state": "PA", "amenity": "post_box", "brand": "United States Postal Service", "brand:wikidata": "Q668687", "collection_times": "Mo-Fr 16:15; Sa 10:00", "indoor": "yes", "note": "ON 12/24 AND 12/31, THIS BOX MAY BE COLLECTED AS EARLY AS 12 NOON.", "nsi_id": "unitedstatespostalservice-a77078", "operator": "United States Postal Service", "operator:short": "USPS", "operator:type": "public", "operator:wikidata": "Q668687", "ref": "1782700002"}, "type": "Feature"}
{"geometry": {"coordinates": [-76.940605643, 40.762570179], "type": "Point"}, "id": "L7T9Xnwm9vWhDAt9Qk7V6g-K9fE=", "properties": {"@source_uri": "https://tools.usps.com/UspsToolsRestServices/rest/POLocator/findLocations", "@spider": "usps_collection_boxes", "addr:city": "FREEBURG", "addr:country": "US", "addr:full": "12 E MARKET ST", "addr:postcode": "17827", "addr:state": "PA", "amenity": "post_box", "brand": "United States Postal Service", "brand:wikidata": "Q668687", "collection_times": "Mo-Fr 16:15; Sa 11:00", "indoor": "yes", "note": "ON 12/24 AND 12/31, THIS BOX MAY BE COLLECTED AS EARLY AS 12 NOON.", "nsi_id": "unitedstatespostalservice-a77078", "operator": "United States Postal Service", "operator:short": "USPS", "operator:type": "public", "operator:wikidata": "Q668687", "ref": "1782700004"}, "type": "Feature"}
{"geometry": {"coordinates": [-77.152938, 40.901447], "type": "Point"}, "id": "uKicxmx0FZ5GoWtM9gU1bv_JolY=", "properties": {"@source_uri": "https://tools.usps.com/UspsToolsRestServices/rest/POLocator/findLocations", "@spider": "usps_collection_boxes", "addr:city": "HARTLETON", "addr:country": "US", "addr:full": "109 COLD RUN RD", "addr:postcode": "17829", "addr:state": "PA", "amenity": "post_box", "brand": "United States Postal Service", "brand:wikidata": "Q668687", "collection_times": "Mo-Fr 16:30; Sa 11:00", "note": "ON 12/24 AND 12/31, THIS BOX MAY BE COLLECTED AS EARLY AS 12 NOON.", "nsi_id": "unitedstatespostalservice-a77078", "operator": "United States Postal Service", "operator:short": "USPS", "operator:type": "public", "operator:wikidata": "Q668687", "ref": "1782900001"}, "type": "Feature"}
{"geometry": {"coordinates": [-77.152888, 40.901361], "type": "Point"}, "id": "1GR8B95_LzsjeI6gZFnqZ3VRF7I=", "properties": {"@source_uri": "https://tools.usps.com/UspsToolsRestServices/rest/POLocator/findLocations", "@spider": "usps_collection_boxes", "addr:city": "HARTLETON", "addr:country": "US", "addr:full": "109 COLD RUN RD", "addr:postcode": "17829", "addr:state": "PA", "amenity": "post_box", "brand": "United States Postal Service", "brand:wikidata": "Q668687", "collection_times": "Mo-Fr 10:45; Sa 11:00", "indoor": "yes", "nsi_id": "unitedstatespostalservice-a77078", "operator": "United States Postal Service", "operator:short": "USPS", "operator:type": "public", "operator:wikidata": "Q668687", "ref": "1782900002"}, "type": "Feature"}
{"geometry": {"coordinates": [-77.152975584, 40.901640224], "type": "Point"}, "id": "1FJg8xZONn82cAvZPLmBqAplqn0=", "properties": {"@source_uri": "https://tools.usps.com/UspsToolsRestServices/rest/POLocator/findLocations", "@spider": "usps_collection_boxes", "addr:city": "HARTLETON", "addr:country": "US", "addr:full": "109 COLD RUN RD", "addr:postcode": "17829", "addr:state": "PA", "amenity": "post_box", "brand": "United States Postal Service", "brand:wikidata": "Q668687", "collection_times": "Mo-Sa 11:00", "indoor": "yes", "nsi_id": "unitedstatespostalservice-a77078", "operator": "United States Postal Service", "operator:short": "USPS", "operator:type": "public", "operator:wikidata": "Q668687", "ref": "1782900004"}, "type": "Feature"}
{"geometry": {"coordinates": [-76.842026, 40.7104], "type": "Point"}, "id": "d6ruR4b_MdyMxaH828tVKowd0O4=", "properties": {"@source_uri": "https://tools.usps.com/UspsToolsRestServices/rest/POLocator/findLocations", "@spider": "usps_collection_boxes", "addr:city": "HERNDON", "addr:country": "US", "addr:full": "127 N MAIN ST", "addr:postcode": "17830", "addr:state": "PA", "amenity": "post_box", "brand": "United States Postal Service", "brand:wikidata": "Q668687", "collection_times": "Mo-Fr 16:00; Sa 10:00", "note": "ON 12/24 AND 12/31, THIS BOX MAY BE COLLECTED AS EARLY AS 12 NOON.", "nsi_id": "unitedstatespostalservice-a77078", "operator": "United States Postal Service", "operator:short": "USPS", "operator:type": "public", "operator:wikidata": "Q668687", "ref": "1783000001"}, "type": "Feature"}
{"geometry": {"coordinates": [-76.842336, 40.710029], "type": "Point"}, "id": "pkt40aQG_xDXP5520rmaojBjpVk=", "properties": {"@source_uri": "https://tools.usps.com/UspsToolsRestServices/rest/POLocator/findLocations", "@spider": "usps_collection_boxes", "addr:city": "HERNDON", "addr:country": "US", "addr:full": "127 N MAIN ST", "addr:postcode": "17830", "addr:state": "PA", "amenity": "post_box", "brand": "United States Postal Service", "brand:wikidata": "Q668687", "collection_times": "Mo-Fr 16:00; Sa 10:00", "indoor": "yes", "note": "ON 12/24 AND 12/31, THIS BOX MAY BE COLLECTED AS EARLY AS 12 NOON.", "nsi_id": "unitedstatespostalservice-a77078", "operator": "United States Postal Service", "operator:short": "USPS", "operator:type": "public", "operator:wikidata": "Q668687", "ref": "1783000002"}, "type": "Feature"}
{"geometry": {"coordinates": [-76.84287848, 40.709436097], "type": "Point"}, "id": "PC6PQnlSDI9naYBzOSY9wA7_6Es=", "properties": {"@source_uri": "https://tools.usps.com/UspsToolsRestServices/rest/POLocator/findLocations", "@spider": "usps_collection_boxes", "addr:city": "HERNDON", "addr:country": "US", "addr:full": "127 POTTSVILLE ST", "addr:postcode": "17830", "addr:state": "PA", "amenity": "post_box", "brand": "United States Postal Service", "brand:wikidata": "Q668687", "collection_times": "Mo-Fr 16:00; Sa 10:00", "indoor": "yes", "note": "ON 12/24 AND 12/31, THIS BOX MAY BE COLLECTED AS EARLY AS 12 NOON.", "nsi_id": "unitedstatespostalservice-a77078", "operator": "United States Postal Service", "operator:short": "USPS", "operator:type": "public", "operator:wikidata": "Q668687", "ref": "1783000004"}, "type": "Feature"}
{"geometry": {"coordinates": [-76.844311, 40.82728], "type": "Point"}, "id": "oeMBSkEpDRf79Kzn2n__oyeLPL4=", "properties": {"@source_uri": "https://tools.usps.com/UspsToolsRestServices/rest/POLocator/findLocations", "@spider": "usps_collection_boxes", "addr:city": "HUMMELS WHARF", "addr:country": "US", "addr:full": "1245 N SUSQUEHANNA TRL", "addr:postcode": "17831", "addr:state": "PA", "amenity": "post_box", "brand": "United States Postal Service", "brand:wikidata": "Q668687", "collection_times": "Mo-Fr 16:00; Sa 11:00", "note": "ON 12/24 AND 12/31, THIS BOX MAY BE COLLECTED AS EARLY AS 12 NOON.", "nsi_id": "unitedstatespostalservice-a77078", "operator": "United States Postal Service", "operator:short": "USPS", "operator:type": "public", "operator:wikidata": "Q668687", "ref": "1783100001"}, "type": "Feature"}
{"geometry": {"coordinates": [-76.844311, 40.82728], "type": "Point"}, "id": "c8shvC2DBHN3H7RD_S8zjJ4aRK4=", "properties": {"@source_uri": "https://tools.usps.com/UspsToolsRestServices/rest/POLocator/findLocations", "@spider": "usps_collection_boxes", "addr:city": "HUMMELS WHARF", "addr:country": "US", "addr:full": "1245 N SUSQUEHANNA TRL", "addr:postcode": "17831", "addr:state": "PA", "amenity": "post_box", "brand": "United States Postal Service", "brand:wikidata": "Q668687", "collection_times": "Mo-Fr 16:00; Sa 11:00", "indoor": "yes", "note": "ON 12/24 AND 12/31, THIS BOX MAY BE COLLECTED AS EARLY AS 12 NOON.", "nsi_id": "unitedstatespostalservice-a77078", "operator": "United States Postal Service", "operator:short": "USPS", "operator:type": "public", "operator:wikidata": "Q668687", "ref": "1783100002"}, "type": "Feature"}
{"geometry": {"coordinates": [-76.843911806, 40.827031238], "type": "Point"}, "id": "jeOjRnfeHcAeG6mQkoIHgpxTgWo=", "properties": {"@source_uri": "https://tools.usps.com/UspsToolsRestServices/rest/POLocator/findLocations", "@spider": "usps_collection_boxes", "addr:city": "HUMMELS WHARF", "addr:country": "US", "addr:full": "1245 N SUSQUEHANNA TRL", "addr:postcode": "17831", "addr:state": "PA", "amenity": "post_box", "brand": "United States Postal Service", "brand:wikidata": "Q668687", "collection_times": "Mo-Fr 16:20; Sa 11:05", "indoor": "yes", "note": "ON 12/24 AND 12/31, THIS BOX MAY BE COLLECTED AS EARLY AS 12 NOON.", "nsi_id": "unitedstatespostalservice-a77078", "operator": "United States Postal Service", "operator:short": "USPS", "operator:type": "public", "operator:wikidata": "Q668687", "ref": "1783100004"}, "type": "Feature"}
{"geometry": {"coordinates": [-76.466014, 40.805292], "type": "Point"}, "id": "l_t8iTSFkzm56tNx9VePrJZ_-fc=", "properties": {"@source_uri": "https://tools.usps.com/UspsToolsRestServices/rest/POLocator/findLocations", "@spider": "usps_collection_boxes", "addr:city": "MARION HEIGHTS", "addr:country": "US", "addr:full": "226 NORTH ST", "addr:postcode": "17832", "addr:state": "PA", "amenity": "post_box", "brand": "United States Postal Service", "brand:wikidata": "Q668687", "collection_times": "Mo-Fr 15:30; Sa 11:00", "note": "ON 12/24 AND 12/31, THIS BOX MAY BE COLLECTED AS EARLY AS 12 NOON.", "nsi_id": "unitedstatespostalservice-a77078", "operator": "United States Postal Service", "operator:short": "USPS", "operator:type": "public", "operator:wikidata": "Q668687", "ref": "1783200001"}, "type": "Feature"}
{"geometry": {"coordinates": [-76.466078, 40.805302], "type": "Point"}, "id": "B8WT92yuv2vwNmGH8UxY2wjN8YM=", "properties": {"@source_uri": "https://tools.usps.com/UspsToolsRestServices/rest/POLocator/findLocations", "@spider": "usps_collection_boxes", "addr:city": "MARION HEIGHTS", "addr:country": "US", "addr:full": "226 NORTH ST", "addr:postcode": "17832", "addr:state": "PA", "amenity": "post_box", "brand": "United States Postal Service", "brand:wikidata": "Q668687", "collection_times": "Mo-Fr 15:30; Sa 11:00", "indoor": "yes", "note": "ON 12/24 AND 12/31, THIS BOX MAY BE COLLECTED AS EARLY AS 12 NOON.", "nsi_id": "unitedstatespostalservice-a77078", "operator": "United States Postal Service", "operator:short": "USPS", "operator:type": "public", "operator:wikidata": "Q668687", "ref": "1783200002"}, "type": "Feature"}
{"geometry": {"coordinates": [-76.466031116, 40.805236644], "type": "Point"}, "id": "wI-WNi83fWUi7PvLMUOg0UnGw5g=", "properties": {"@source_uri": "https://tools.usps.com/UspsToolsRestServices/rest/POLocator/findLocations", "@spider": "usps_collection_boxes", "addr:city": "MARION HEIGHTS", "addr:country": "US", "addr:full": "226 NORTH ST", "addr:postcode": "17832", "addr:state": "PA", "amenity": "post_box", "brand": "United States Postal Service", "brand:wikidata": "Q668687", "collection_times": "Mo-Sa 11:30", "indoor": "yes", "nsi_id": "unitedstatespostalservice-a77078", "operator": "United States Postal Service", "operator:short": "USPS", "operator:type": "public", "operator:wikidata": "Q668687", "ref": "1783200004"}, "type": "Feature"}
{"geometry": {"coordinates": [-76.966981, 40.80287], "type": "Point"}, "id": "hzNxG9yCrTPsV4tXUR5KstFkYaU=", "properties": {"@source_uri": "https://tools.usps.com/UspsToolsRestServices/rest/POLocator/findLocations", "@spider": "usps_collection_boxes", "addr:city": "KREAMER", "addr:country": "US", "addr:full": "515 KREAMER AVE", "addr:postcode": "17833", "addr:state": "PA", "amenity": "post_box", "brand": "United States Postal Service", "brand:wikidata": "Q668687", "collection_times": "Mo-Fr 16:30; Sa 12:00", "note": "ON 12/24 AND 12/31, THIS BOX MAY BE COLLECTED AS EARLY AS 12 NOON.", "nsi_id": "unitedstatespostalservice-a77078", "operator": "United States Postal Service", "operator:short": "USPS", "operator:type": "public", "operator:wikidata": "Q668687", "ref": "1783300001"}, "type": "Feature"}
{"geometry": {"coordinates": [-76.966981, 40.80287], "type": "Point"}, "id": "jcueY9QbffDMsbwNkBl41eIZ0EE=", "properties": {"@source_uri": "https://tools.usps.com/UspsToolsRestServices/rest/POLocator/findLocations", "@spider": "usps_collection_boxes", "addr:city": "KREAMER", "addr:country": "US", "addr:full": "515 KREAMER AVE", "addr:postcode": "17833", "addr:state": "PA", "amenity": "post_box", "brand": "United States Postal Service", "brand:wikidata": "Q668687", "collection_times": "Mo-Fr 16:30; Sa 12:00", "indoor": "yes", "note": "ON 12/24 AND 12/31, THIS BOX MAY BE COLLECTED AS EARLY AS 12 NOON.", "nsi_id": "unitedstatespostalservice-a77078", "operator": "United States Postal Service", "operator:short": "USPS", "operator:type": "public", "operator:wikidata": "Q668687", "ref": "1783300002"}, "type": "Feature"}
{"geometry": {"coordinates": [-76.966925464, 40.802749271], "type": "Point"}, "id": "x-lbRgFCfw3i43w5NLRUvI7YFPY=", "properties": {"@source_uri": "https://tools.usps.com/UspsToolsRestServices/rest/POLocator/findLocations", "@spider": "usps_collection_boxes", "addr:city": "KREAMER", "addr:country": "US", "addr:full": "515 KREAMER AVE", "addr:postcode": "17833", "addr:state": "PA", "amenity": "post_box", "brand": "United States Postal Service", "brand:wikidata": "Q668687", "collection_times": "Mo-Fr 16:30; Sa 12:00", "indoor": "yes", "note": "ON 12/24 AND 12/31, THIS BOX MAY BE COLLECTED AS EARLY AS 12 NOON.", "nsi_id": "unitedstatespostalservice-a77078", "operator": "United States Postal Service", "operator:short": "USPS", "operator:type": "public", "operator:wikidata": "Q668687", "ref": "1783300004"}, "type": "Feature"}
{"geometry": {"coordinates": [-76.472609, 40.793694], "type": "Point"}, "id": "aPPwuE1js6qU-FxNcvqgsm7Ii8g=", "properties": {"@source_uri": "https://tools.usps.com/UspsToolsRestServices/rest/POLocator/findLocations", "@spider": "usps_collection_boxes", "addr:city": "KULPMONT", "addr:country": "US", "addr:full": "901 CHESTNUT ST", "addr:postcode": "17834", "addr:state": "PA", "amenity": "post_box", "brand": "United States Postal Service", "brand:wikidata": "Q668687", "collection_times": "Mo-Fr 13:30; Sa 16:15", "note": "ON 12/24 AND 12/31, THIS BOX MAY BE COLLECTED AS EARLY AS 12 NOON.", "nsi_id": "unitedstatespostalservice-a77078", "operator": "United States Postal Service", "operator:short": "USPS", "operator:type": "public", "operator:wikidata": "Q668687", "ref": "1783400013"}, "type": "Feature"}
{"geometry": {"coordinates": [-76.466558, 40.797126], "type": "Point"}, "id": "62kh8efWwphWYcVlmyyRw4Ggrgs=", "properties": {"@source_uri": "https://tools.usps.com/UspsToolsRestServices/rest/POLocator/findLocations", "@spider": "usps_collection_boxes", "addr:city": "KULPMONT", "addr:country": "US", "addr:full": "301 N 6TH ST", "addr:postcode": "17834", "addr:state": "PA", "amenity": "post_box", "brand": "United States Postal Service", "brand:wikidata": "Q668687", "collection_times": "Mo-Sa 10:00", "nsi_id": "unitedstatespostalservice-a77078", "operator": "United States Postal Service", "operator:short": "USPS", "operator:type": "public", "operator:wikidata": "Q668687", "ref": "1783400014"}, "type": "Feature"}
{"geometry": {"coordinates": [-76.4545572, 40.78668], "type": "Point"}, "id": "Ra4Hy7hUXhP8EE3mTQ0TMngQjM4=", "properties": {"@source_uri": "https://tools.usps.com/UspsToolsRestServices/rest/POLocator/findLocations", "@spider": "usps_collection_boxes", "addr:city": "KULPMONT", "addr:country": "US", "addr:full": "101 NEVADA DR", "addr:postcode": "17834", "addr:state": "PA", "amenity": "post_box", "brand": "United States Postal Service", "brand:wikidata": "Q668687", "collection_times": "Mo-Sa 11:30", "nsi_id": "unitedstatespostalservice-a77078", "operator": "United States Postal Service", "operator:short": "USPS", "operator:type": "public", "operator:wikidata": "Q668687", "ref": "1783400016"}, "type": "Feature"}
{"geometry": {"coordinates": [-76.4704075, 40.793993], "type": "Point"}, "id": "njRbUDqqmH1Shps9rLiiMijKeFg=", "properties": {"@source_uri": "https://tools.usps.com/UspsToolsRestServices/rest/POLocator/findLocations", "@spider": "usps_collection_boxes", "addr:city": "KULPMONT", "addr:country": "US", "addr:full": "1300 CHESTNUT ST", "addr:postcode": "17834", "addr:state": "PA", "amenity": "post_box", "brand": "United States Postal Service", "brand:wikidata": "Q668687", "collection_times": "Mo-Sa 11:45", "nsi_id": "unitedstatespostalservice-a77078", "operator": "United States Postal Service", "operator:short": "USPS", "operator:type": "public", "operator:wikidata": "Q668687", "ref": "1783400017"}, "type": "Feature"}
{"geometry": {"coordinates": [-76.472609, 40.793694], "type": "Point"}, "id": "ydJVH8h2SUTQevjn7zO3p2l3oh8=", "properties": {"@source_uri": "https://tools.usps.com/UspsToolsRestServices/rest/POLocator/findLocations", "@spider": "usps_collection_boxes", "addr:city": "KULPMONT", "addr:country": "US", "addr:full": "901 CHESTNUT ST", "addr:postcode": "17834", "addr:state": "PA", "amenity": "post_box", "brand": "United States Postal Service", "brand:wikidata": "Q668687", "collection_times": "Mo-Fr 13:30; Sa 16:15", "indoor": "yes", "note": "ON 12/24 AND 12/31, THIS BOX MAY BE COLLECTED AS EARLY AS 12 NOON.", "nsi_id": "unitedstatespostalservice-a77078", "operator": "United States Postal Service", "operator:short": "USPS", "operator:type": "public", "operator:wikidata": "Q668687", "ref": "1783400021"}, "type": "Feature"}
{"geometry": {"coordinates": [-76.472609716, 40.793684565], "type": "Point"}, "id": "1r2XvFDip4X32i9nw_IEcWA_6DU=", "properties": {"@source_uri": "https://tools.usps.com/UspsToolsRestServices/rest/POLocator/findLocations", "@spider": "usps_collection_boxes", "addr:city": "KULPMONT", "addr:country": "US", "addr:full": "901 CHESTNUT ST FRNT", "addr:postcode": "17834", "addr:state": "PA", "amenity": "post_box", "brand": "United States Postal Service", "brand:wikidata": "Q668687", "collection_times": "Mo-Fr 13:30; Sa 16:15", "indoor": "yes", "note": "ON 12/24 AND 12/31, THIS BOX MAY BE COLLECTED AS EARLY AS 12 NOON.", "nsi_id": "unitedstatespostalservice-a77078", "operator": "United States Postal Service", "operator:short": "USPS", "operator:type": "public", "operator:wikidata": "Q668687", "ref": "1783400023"}, "type": "Feature"}
{"geometry": {"coordinates": [-77.198491, 40.88272], "type": "Point"}, "id": "51fYlJVt6vSOa5Sn7rJKlOUGxxw=", "properties": {"@source_uri": "https://tools.usps.com/UspsToolsRestServices/rest/POLocator/findLocations", "@spider": "usps_collection_boxes", "addr:city": "LAURELTON", "addr:country": "US", "addr:full": "2495 LAUREL RD", "addr:postcode": "17835", "addr:state": "PA", "amenity": "post_box", "brand": "United States Postal Service", "brand:wikidata": "Q668687", "collection_times": "Mo-Fr 16:30; Sa 10:30", "note": "ON 12/24 AND 12/31, THIS BOX MAY BE COLLECTED AS EARLY AS 12 NOON.", "nsi_id": "unitedstatespostalservice-a77078", "operator": "United States Postal Service", "operator:short": "USPS", "operator:type": "public", "operator:wikidata": "Q668687", "ref": "1783500001"}, "type": "Feature"}
{"geometry": {"coordinates": [-77.198399, 40.882757], "type": "Point"}, "id": "FP713OEVsrpKRNgpO2qW_R1OqwU=", "properties": {"@source_uri": "https://tools.usps.com/UspsToolsRestServices/rest/POLocator/findLocations", "@spider": "usps_collection_boxes", "addr:city": "LAURELTON", "addr:country": "US", "addr:full": "2495 LAUREL RD", "addr:postcode": "17835", "addr:state": "PA", "amenity": "post_box", "brand": "United States Postal Service", "brand:wikidata": "Q668687", "collection_times": "Mo-Fr 12:30; Sa 10:45", "indoor": "yes", "note": "ON 12/24 AND 12/31, THIS BOX MAY BE COLLECTED AS EARLY AS 12 NOON.", "nsi_id": "unitedstatespostalservice-a77078", "operator": "United States Postal Service", "operator:short": "USPS", "operator:type": "public", "operator:wikidata": "Q668687", "ref": "1783500002"}, "type": "Feature"}
{"geometry": {"coordinates": [-77.19876899, 40.882676627], "type": "Point"}, "id": "iagpr0k7UWoP3BYCGtYjDIAaZ7E=", "properties": {"@source_uri": "https://tools.usps.com/UspsToolsRestServices/rest/POLocator/findLocations", "@spider": "usps_collection_boxes", "addr:city": "LAURELTON", "addr:country": "US", "addr:full": "2495 LAUREL RD", "addr:postcode": "17835", "addr:state": "PA", "amenity": "post_box", "brand": "United States Postal Service", "brand:wikidata": "Q668687", "collection_times": "Mo-Fr 12:30; Sa 10:45", "indoor": "yes", "note": "ON 12/24 AND 12/31, THIS BOX MAY BE COLLECTED AS EARLY AS 12 NOON.", "nsi_id": "unitedstatespostalservice-a77078", "operator": "United States Postal Service", "operator:short": "USPS", "operator:type": "public", "operator:wikidata": "Q668687", "ref": "1783500005"}, "type": "Feature"}
{"geometry": {"coordinates": [-76.8871063, 40.980694], "type": "Point"}, "id": "f4ObBzr5PbSxWjdLH2frjI3x6Ng=", "properties": {"@source_uri": "https://tools.usps.com/UspsToolsRestServices/rest/POLocator/findLocations", "@spider": "usps_collection_boxes", "addr:city": "LEWISBURG", "addr:country": "US", "addr:full": "3 HOSPITAL DR", "addr:postcode": "17837", "addr:state": "PA", "amenity": "post_box", "brand": "United States Postal Service", "brand:wikidata": "Q668687", "collection_times": "Mo-Sa 10:00", "nsi_id": "unitedstatespostalservice-a77078", "operator": "United States Postal Service", "operator:short": "USPS", "operator:type": "public", "operator:wikidata": "Q668687", "ref": "1783700011"}, "type": "Feature"}
{"geometry": {"coordinates": [-76.884717, 40.964203], "type": "Point"}, "id": "IkAnHAULCWZw3NwNWcBRohdJzxg=", "properties": {"@source_uri": "https://tools.usps.com/UspsToolsRestServices/rest/POLocator/findLocations", "@spider": "usps_collection_boxes", "addr:city": "LEWISBURG", "addr:country": "US", "addr:full": "301 MARKET ST", "addr:postcode": "17837", "addr:state": "PA", "amenity": "post_box", "brand": "United States Postal Service", "brand:wikidata": "Q668687", "collection_times": "Mo-Fr 16:30; Sa 15:00", "note": "ON 12/24 AND 12/31, THIS BOX MAY BE COLLECTED AS EARLY AS 12 NOON.", "nsi_id": "unitedstatespostalservice-a77078", "operator": "United States Postal Service", "operator:short": "USPS", "operator:type": "public", "operator:wikidata": "Q668687", "ref": "1783700015"}, "type": "Feature"}
{"geometry": {"coordinates": [-76.8850677574, 40.9642396678], "type": "Point"}, "id": "pqd0c9DGAs00RNxt8ybFrKCFQEY=", "properties": {"@source_uri": "https://tools.usps.com/UspsToolsRestServices/rest/POLocator/findLocations", "@spider": "usps_collection_boxes", "addr:city": "LEWISBURG", "addr:country": "US", "addr:full": "301 MARKET ST", "addr:postcode": "17837", "addr:state": "PA", "amenity": "post_box", "brand": "United States Postal Service", "brand:wikidata": "Q668687", "collection_times": "Mo-Fr 16:30; Sa 15:00", "note": "ON 12/24 AND 12/31, THIS BOX MAY BE COLLECTED AS EARLY AS 12 NOON.", "nsi_id": "unitedstatespostalservice-a77078", "operator": "United States Postal Service", "operator:short": "USPS", "operator:type": "public", "operator:wikidata": "Q668687", "ref": "1783700016"}, "type": "Feature"}
{"geometry": {"coordinates": [-76.8838052, 40.965178], "type": "Point"}, "id": "ZfUf6TmhUiQRBsQdLK7YdJLj0ls=", "properties": {"@source_uri": "https://tools.usps.com/UspsToolsRestServices/rest/POLocator/findLocations", "@spider": "usps_collection_boxes", "addr:city": "LEWISBURG", "addr:country": "US", "addr:full": "200 MARKET ST", "addr:postcode": "17837", "addr:state": "PA", "amenity": "post_box", "brand": "United States Postal Service", "brand:wikidata": "Q668687", "collection_times": "Mo-Sa 15:00", "note": "ON 12/24 AND 12/31, THIS BOX MAY BE COLLECTED AS EARLY AS 12 NOON.", "nsi_id": "unitedstatespostalservice-a77078", "operator": "United States Postal Service", "operator:short": "USPS", "operator:type": "public", "operator:wikidata": "Q668687", "ref": "1783700017"}, "type": "Feature"}
{"geometry": {"coordinates": [-76.8861376, 40.963879], "type": "Point"}, "id": "fZ6riB7R8K2jIjrEzUgjzf69Wfw=", "properties": {"@source_uri": "https://tools.usps.com/UspsToolsRestServices/rest/POLocator/findLocations", "@spider": "usps_collection_boxes", "addr:city": "LEWISBURG", "addr:country": "US", "addr:full": "400 MARKET ST", "addr:postcode": "17837", "addr:state": "PA", "amenity": "post_box", "brand": "United States Postal Service", "brand:wikidata": "Q668687", "collection_times": "Mo-Sa 15:00", "note": "ON 12/24 AND 12/31, THIS BOX MAY BE COLLECTED AS EARLY AS 12 NOON.", "nsi_id": "unitedstatespostalservice-a77078", "operator": "United States Postal Service", "operator:short": "USPS", "operator:type": "public", "operator:wikidata": "Q668687", "ref": "1783700018"}, "type": "Feature"}
{"geometry": {"coordinates": [-76.8872189, 40.963298], "type": "Point"}, "id": "FBuPOWIplJM9urrwoEgOxpxj77E=", "properties": {"@source_uri": "https://tools.usps.com/UspsToolsRestServices/rest/POLocator/findLocations", "@spider": "usps_collection_boxes", "addr:city": "LEWISBURG", "addr:country": "US", "addr:full": "434 MARKET ST", "addr:postcode": "17837", "addr:state": "PA", "amenity": "post_box", "brand": "United States Postal Service", "brand:wikidata": "Q668687", "collection_times": "Mo-Sa 15:00", "note": "ON 12/24 AND 12/31, THIS BOX MAY BE COLLECTED AS EARLY AS 12 NOON.", "nsi_id": "unitedstatespostalservice-a77078", "operator": "United States Postal Service", "operator:short": "USPS", "operator:type": "public", "operator:wikidata": "Q668687", "ref": "1783700019"}, "type": "Feature"}
{"geometry": {"coordinates": [-76.901014801, 40.958597333], "type": "Point"}, "id": "BXP5qyUNnzwtu19y0B6xK0-unm0=", "properties": {"@source_uri": "https://tools.usps.com/UspsToolsRestServices/rest/POLocator/findLocations", "@spider": "usps_collection_boxes", "addr:city": "LEWISBURG", "addr:country": "US", "addr:full": "1614 W MARKET ST", "addr:postcode": "17837", "addr:state": "PA", "amenity": "post_box", "brand": "United States Postal Service", "brand:wikidata": "Q668687", "collection_times": "Mo-Fr 15:30; Sa 09:00", "note": "ON 12/24 AND 12/31, THIS BOX MAY BE COLLECTED AS EARLY AS 12 NOON.", "nsi_id": "unitedstatespostalservice-a77078", "operator": "United States Postal Service", "operator:short": "USPS", "operator:type": "public", "operator:wikidata": "Q668687", "ref": "1783700023"}, "type": "Feature"}
{"geometry": {"coordinates": [-76.894975063, 40.959557286], "type": "Point"}, "id": "m1DNGC15cQXcM2gJhM4JQzL8cL8=", "properties": {"@source_uri": "https://tools.usps.com/UspsToolsRestServices/rest/POLocator/findLocations", "@spider": "usps_collection_boxes", "addr:city": "LEWISBURG", "addr:country": "US", "addr:full": "1100 W MARKET ST", "addr:postcode": "17837", "addr:state": "PA", "amenity": "post_box", "brand": "United States Postal Service", "brand:wikidata": "Q668687", "collection_times": "Mo-Fr 15:30; Sa 09:00", "note": "ON 12/24 AND 12/31, THIS BOX MAY BE COLLECTED AS EARLY AS 12 NOON.", "nsi_id": "unitedstatespostalservice-a77078", "operator": "United States Postal Service", "operator:short": "USPS", "operator:type": "public", "operator:wikidata": "Q668687", "ref": "1783700025"}, "type": "Feature"}
{"geometry": {"coordinates": [-76.8907783, 40.975339], "type": "Point"}, "id": "YmlY3m80eagCLLXd_pCB2Lc8VT4=", "properties": {"@source_uri": "https://tools.usps.com/UspsToolsRestServices/rest/POLocator/findLocations", "@spider": "usps_collection_boxes", "addr:city": "LEWISBURG", "addr:country": "US", "addr:full": "6901 WESTBRANCH HWY", "addr:postcode": "17837", "addr:state": "PA", "amenity": "post_box", "brand": "United States Postal Service", "brand:wikidata": "Q668687", "collection_times": "Mo-Sa 09:30", "nsi_id": "unitedstatespostalservice-a77078", "operator": "United States Postal Service", "operator:short": "USPS", "operator:type": "public", "operator:wikidata": "Q668687", "ref": "1783700030"}, "type": "Feature"}
{"geometry": {"coordinates": [-76.884818, 40.964422], "type": "Point"}, "id": "Wx6XShkbOoFKyuy06KzTyuDTHvQ=", "properties": {"@source_uri": "https://tools.usps.com/UspsToolsRestServices/rest/POLocator/findLocations", "@spider": "usps_collection_boxes", "addr:city": "LEWISBURG", "addr:country": "US", "addr:full": "301 MARKET ST", "addr:postcode": "17837", "addr:state": "PA", "amenity": "post_box", "brand": "United States Postal Service", "brand:wikidata": "Q668687", "collection_times": "Mo-Fr 16:30; Sa 13:30", "indoor": "yes", "note": "ON 12/24 AND 12/31, THIS BOX MAY BE COLLECTED AS EARLY AS 12 NOON.", "nsi_id": "unitedstatespostalservice-a77078", "operator": "United States Postal Service", "operator:short": "USPS", "operator:type": "public", "operator:wikidata": "Q668687", "ref": "1783700032"}, "type": "Feature"}
{"geometry": {"coordinates": [-76.8850677574, 40.9642396678], "type": "Point"}, "id": "0KdZoIul-Kh2ommGs1EASL66d8Y=", "properties": {"@source_uri": "https://tools.usps.com/UspsToolsRestServices/rest/POLocator/findLocations", "@spider": "usps_collection_boxes", "addr:city": "LEWISBURG", "addr:country": "US", "addr:full": "301 MARKET ST", "addr:postcode": "17837", "addr:state": "PA", "amenity": "post_box", "brand": "United States Postal Service", "brand:wikidata": "Q668687", "collection_times": "Mo-Fr 16:30; Sa 15:00", "note": "ON 12/24 AND 12/31, THIS BOX MAY BE COLLECTED AS EARLY AS 12 NOON.", "nsi_id": "unitedstatespostalservice-a77078", "operator": "United States Postal Service", "operator:short": "USPS", "operator:type": "public", "operator:wikidata": "Q668687", "ref": "1783700036"}, "type": "Feature"}
{"geometry": {"coordinates": [-76.885067757, 40.964239668], "type": "Point"}, "id": "Fdj4W4BgBM_uXZyS-9JdHH4crJA=", "properties": {"@source_uri": "https://tools.usps.com/UspsToolsRestServices/rest/POLocator/findLocations", "@spider": "usps_collection_boxes", "addr:city": "LEWISBURG", "addr:country": "US", "addr:full": "301 MARKET ST", "addr:postcode": "17837", "addr:state": "PA", "amenity": "post_box", "brand": "United States Postal Service", "brand:wikidata": "Q668687", "collection_times": "Mo-Fr 16:45; Sa 12:15", "indoor": "yes", "note": "ON 12/24 AND 12/31, THIS BOX MAY BE COLLECTED AS EARLY AS 12 NOON.", "nsi_id": "unitedstatespostalservice-a77078", "operator": "United States Postal Service", "operator:short": "USPS", "operator:type": "public", "operator:wikidata": "Q668687", "ref": "1783700044"}, "type": "Feature"}
{"geometry": {"coordinates": [-77.3140519, 40.70624], "type": "Point"}, "id": "v6f9_D0WjOHaDzU0pyGi8Wx3Fsg=", "properties": {"@source_uri": "https://tools.usps.com/UspsToolsRestServices/rest/POLocator/findLocations", "@spider": "usps_collection_boxes", "addr:city": "MCCLURE", "addr:country": "US", "addr:full": "1 BROWN ST", "addr:postcode": "17841", "addr:state": "PA", "amenity": "post_box", "brand": "United States Postal Service", "brand:wikidata": "Q668687", "collection_times": "Mo-Fr 16:00; Sa 11:45", "note": "ON 12/24 AND 12/31, THIS BOX MAY BE COLLECTED AS EARLY AS 12 NOON.", "nsi_id": "unitedstatespostalservice-a77078", "operator": "United States Postal Service", "operator:short": "USPS", "operator:type": "public", "operator:wikidata": "Q668687", "ref": "1784100001"}, "type": "Feature"}
{"geometry": {"coordinates": [-77.314029, 40.706413], "type": "Point"}, "id": "pyJMakmwtIW83akE6vBq1Ln8DWA=", "properties": {"@source_uri": "https://tools.usps.com/UspsToolsRestServices/rest/POLocator/findLocations", "@spider": "usps_collection_boxes", "addr:city": "MCCLURE", "addr:country": "US", "addr:full": "1 BROWN ST", "addr:postcode": "17841", "addr:state": "PA", "amenity": "post_box", "brand": "United States Postal Service", "brand:wikidata": "Q668687", "collection_times": "Mo-Fr 16:00; Sa 11:45", "indoor": "yes", "note": "ON 12/24 AND 12/31, THIS BOX MAY BE COLLECTED AS EARLY AS 12 NOON.", "nsi_id": "unitedstatespostalservice-a77078", "operator": "United States Postal Service", "operator:short": "USPS", "operator:type": "public", "operator:wikidata": "Q668687", "ref": "1784100002"}, "type": "Feature"}
{"geometry": {"coordinates": [-77.313952354, 40.706150554], "type": "Point"}, "id": "pdZWV__Jt_YOTO6B3CCVo4vh4S8=", "properties": {"@source_uri": "https://tools.usps.com/UspsToolsRestServices/rest/POLocator/findLocations", "@spider": "usps_collection_boxes", "addr:city": "MCCLURE", "addr:country": "US", "addr:full": "1 BROWN ST", "addr:postcode": "17841", "addr:state": "PA", "amenity": "post_box", "brand": "United States Postal Service", "brand:wikidata": "Q668687", "collection_times": "Mo-Fr 16:15; Sa 12:15", "indoor": "yes", "note": "ON 12/24 AND 12/31, THIS BOX MAY BE COLLECTED AS EARLY AS 12 NOON.", "nsi_id": "unitedstatespostalservice-a77078", "operator": "United States Postal Service", "operator:short": "USPS", "operator:type": "public", "operator:wikidata": "Q668687", "ref": "1784100004"}, "type": "Feature"}
{"geometry": {"coordinates": [-77.0429469, 40.788348], "type": "Point"}, "id": "8eZWHZpgLYrnGkc1o0i2PPHB2iE=", "properties": {"@source_uri": "https://tools.usps.com/UspsToolsRestServices/rest/POLocator/findLocations", "@spider": "usps_collection_boxes", "addr:city": "MIDDLEBURG", "addr:country": "US", "addr:full": "227 E MAIN ST", "addr:postcode": "17842", "addr:state": "PA", "amenity": "post_box", "brand": "United States Postal Service", "brand:wikidata": "Q668687", "collection_times": "Mo-Sa 12:00", "nsi_id": "unitedstatespostalservice-a77078", "operator": "United States Postal Service", "operator:short": "USPS", "operator:type": "public", "operator:wikidata": "Q668687", "ref": "1784200005"}, "type": "Feature"}
{"geometry": {"coordinates": [-77.0461913, 40.792709], "type": "Point"}, "id": "N9EC0pqLe4HzxExF_URQpMVk-U4=", "properties": {"@source_uri": "https://tools.usps.com/UspsToolsRestServices/rest/POLocator/findLocations", "@spider": "usps_collection_boxes", "addr:city": "MIDDLEBURG", "addr:country": "US", "addr:full": "9 N MAIN ST", "addr:postcode": "17842", "addr:state": "PA", "amenity": "post_box", "brand": "United States Postal Service", "brand:wikidata": "Q668687", "collection_times": "Mo-Fr 16:30; Sa 12:00", "note": "ON 12/24 AND 12/31, THIS BOX MAY BE COLLECTED AS EARLY AS 12 NOON.", "nsi_id": "unitedstatespostalservice-a77078", "operator": "United States Postal Service", "operator:short": "USPS", "operator:type": "public", "operator:wikidata": "Q668687", "ref": "1784200006"}, "type": "Feature"}
{"geometry": {"coordinates": [-77.0466461, 40.792526], "type": "Point"}, "id": "ahlqQfPYQRN6cHOcOK2eCAqh9yg=", "properties": {"@source_uri": "https://tools.usps.com/UspsToolsRestServices/rest/POLocator/findLocations", "@spider": "usps_collection_boxes", "addr:city": "MIDDLEBURG", "addr:country": "US", "addr:full": "9 N MAIN ST REAR", "addr:postcode": "17842", "addr:state": "PA", "amenity": "post_box", "brand": "United States Postal Service", "brand:wikidata": "Q668687", "collection_times": "Mo-Fr 16:30; Sa 12:00", "note": "ON 12/24 AND 12/31, THIS BOX MAY BE COLLECTED AS EARLY AS 12 NOON.", "nsi_id": "unitedstatespostalservice-a77078", "operator": "United States Postal Service", "operator:short": "USPS", "operator:type": "public", "operator:wikidata": "Q668687", "ref": "1784200008"}, "type": "Feature"}
{"geometry": {"coordinates": [-77.0463238, 40.792676], "type": "Point"}, "id": "iAwR8icTT-N1QnZzL6SMs8pM6Ww=", "properties": {"@source_uri": "https://tools.usps.com/UspsToolsRestServices/rest/POLocator/findLocations", "@spider": "usps_collection_boxes", "addr:city": "MIDDLEBURG", "addr:country": "US", "addr:full": "9 N MAIN ST", "addr:postcode": "17842", "addr:state": "PA", "amenity": "post_box", "brand": "United States Postal Service", "brand:wikidata": "Q668687", "collection_times": "Mo-Fr 16:30; Sa 12:00", "indoor": "yes", "note": "ON 12/24 AND 12/31, THIS BOX MAY BE COLLECTED AS EARLY AS 12 NOON.", "nsi_id": "unitedstatespostalservice-a77078", "operator": "United States Postal Service", "operator:short": "USPS", "operator:type": "public", "operator:wikidata": "Q668687", "ref": "1784200010"}, "type": "Feature"}
{"geometry": {"coordinates": [-77.04619268, 40.792458438], "type": "Point"}, "id": "3PZ6kCUlySafYjPoPIM40wUJVso=", "properties": {"@source_uri": "https://tools.usps.com/UspsToolsRestServices/rest/POLocator/findLocations", "@spider": "usps_collection_boxes", "addr:city": "MIDDLEBURG", "addr:country": "US", "addr:full": "9 N MAIN ST", "addr:postcode": "17842", "addr:state": "PA", "amenity": "post_box", "brand": "United States Postal Service", "brand:wikidata": "Q668687", "collection_times": "Mo-Fr 16:35; Sa 12:05", "indoor": "yes", "note": "ON 12/24 AND 12/31, THIS BOX MAY BE COLLECTED AS EARLY AS 12 NOON.", "nsi_id": "unitedstatespostalservice-a77078", "operator": "United States Postal Service", "operator:short": "USPS", "operator:type": "public", "operator:wikidata": "Q668687", "ref": "1784200014"}, "type": "Feature"}
{"geometry": {"coordinates": [-77.0363173, 40.922438], "type": "Point"}, "id": "z5QhyE2sk91LRTELNzp-P_dRZi0=", "properties": {"@source_uri": "https://tools.usps.com/UspsToolsRestServices/rest/POLocator/findLocations", "@spider": "usps_collection_boxes", "addr:city": "MIFFLINBURG", "addr:country": "US", "addr:full": "36 E CHESTNUT ST", "addr:postcode": "17844", "addr:state": "PA", "amenity": "post_box", "brand": "United States Postal Service", "brand:wikidata": "Q668687", "collection_times": "Mo-Sa 09:00", "nsi_id": "unitedstatespostalservice-a77078", "operator": "United States Postal Service", "operator:short": "USPS", "operator:type": "public", "operator:wikidata": "Q668687", "ref": "1784400003"}, "type": "Feature"}
{"geometry": {"coordinates": [-77.048059, 40.918103], "type": "Point"}, "id": "6MOrPQ9pRyQL0cgg4wBQ7sNDsNM=", "properties": {"@source_uri": "https://tools.usps.com/UspsToolsRestServices/rest/POLocator/findLocations", "@spider": "usps_collection_boxes", "addr:city": "MIFFLINBURG", "addr:country": "US", "addr:full": "10 N 4TH ST", "addr:postcode": "17844", "addr:state": "PA", "amenity": "post_box", "brand": "United States Postal Service", "brand:wikidata": "Q668687", "collection_times": "Mo-Fr 17:00; Sa 15:45", "note": "ON 12/24 AND 12/31, THIS BOX MAY BE COLLECTED AS EARLY AS 12 NOON.", "nsi_id": "unitedstatespostalservice-a77078", "operator": "United States Postal Service", "operator:short": "USPS", "operator:type": "public", "operator:wikidata": "Q668687", "ref": "1784400007"}, "type": "Feature"}
{"geometry": {"coordinates": [-77.0482299, 40.918218], "type": "Point"}, "id": "1iJKXeM1D63313MRSJO4rjQRMVo=", "properties": {"@source_uri": "https://tools.usps.com/UspsToolsRestServices/rest/POLocator/findLocations", "@spider": "usps_collection_boxes", "addr:city": "MIFFLINBURG", "addr:country": "US", "addr:full": "10 N 4TH ST", "addr:postcode": "17844", "addr:state": "PA", "amenity": "post_box", "brand": "United States Postal Service", "brand:wikidata": "Q668687", "collection_times": "Mo-Fr 17:00; Sa 15:45", "note": "ON 12/24 AND 12/31, THIS BOX MAY BE COLLECTED AS EARLY AS 12 NOON.", "nsi_id": "unitedstatespostalservice-a77078", "operator": "United States Postal Service", "operator:short": "USPS", "operator:type": "public", "operator:wikidata": "Q668687", "ref": "1784400008"}, "type": "Feature"}
{"geometry": {"coordinates": [-77.0308522, 40.924441], "type": "Point"}, "id": "uhBpSfgSxMQ_9CbiwSCRHZtE61U=", "properties": {"@source_uri": "https://tools.usps.com/UspsToolsRestServices/rest/POLocator/findLocations", "@spider": "usps_collection_boxes", "addr:city": "MIFFLINBURG", "addr:country": "US", "addr:full": "250 E CHESTNUT ST", "addr:postcode": "17844", "addr:state": "PA", "amenity": "post_box", "brand": "United States Postal Service", "brand:wikidata": "Q668687", "collection_times": "Mo-Sa 12:00", "nsi_id": "unitedstatespostalservice-a77078", "operator": "United States Postal Service", "operator:short": "USPS", "operator:type": "public", "operator:wikidata": "Q668687", "ref": "1784400009"}, "type": "Feature"}
{"geometry": {"coordinates": [-77.048027, 40.918012], "type": "Point"}, "id": "7WIcU2RCKZwwr9OWx4ev4XVWH8M=", "properties": {"@source_uri": "https://tools.usps.com/UspsToolsRestServices/rest/POLocator/findLocations", "@spider": "usps_collection_boxes", "addr:city": "MIFFLINBURG", "addr:country": "US", "addr:full": "10 N 4TH ST", "addr:postcode": "17844", "addr:state": "PA", "amenity": "post_box", "brand": "United States Postal Service", "brand:wikidata": "Q668687", "collection_times": "Mo-Fr 17:00; Sa 15:45", "indoor": "yes", "note": "ON 12/24 AND 12/31, THIS BOX MAY BE COLLECTED AS EARLY AS 12 NOON.", "nsi_id": "unitedstatespostalservice-a77078", "operator": "United States Postal Service", "operator:short": "USPS", "operator:type": "public", "operator:wikidata": "Q668687", "ref": "1784400011"}, "type": "Feature"}
{"geometry": {"coordinates": [-77.048138521, 40.918194953], "type": "Point"}, "id": "DxsqG_Plck5SpVlwwELzm5nV4dM=", "properties": {"@source_uri": "https://tools.usps.com/UspsToolsRestServices/rest/POLocator/findLocations", "@spider": "usps_collection_boxes", "addr:city": "MIFFLINBURG", "addr:country": "US", "addr:full": "10 N 4TH ST", "addr:postcode": "17844", "addr:state": "PA", "amenity": "post_box", "brand": "United States Postal Service", "brand:wikidata": "Q668687", "collection_times": "Mo-Fr 17:00; Sa 12:15", "indoor": "yes", "note": "ON 12/24 AND 12/31, THIS BOX MAY BE COLLECTED AS EARLY AS 12 NOON.", "nsi_id": "unitedstatespostalservice-a77078", "operator": "United States Postal Service", "operator:short": "USPS", "operator:type": "public", "operator:wikidata": "Q668687", "ref": "1784400014"}, "type": "Feature"}
{"geometry": {"coordinates": [-77.140489, 40.886171], "type": "Point"}, "id": "hGXPC9epLq1YHyD5zv6xNH31EZU=", "properties": {"@source_uri": "https://tools.usps.com/UspsToolsRestServices/rest/POLocator/findLocations", "@spider": "usps_collection_boxes", "addr:city": "MILLMONT", "addr:country": "US", "addr:full": "1295 MILLMONT RD", "addr:postcode": "17845", "addr:state": "PA", "amenity": "post_box", "brand": "United States Postal Service", "brand:wikidata": "Q668687", "collection_times": "Mo-Fr 16:00; Sa 11:00", "note": "ON 12/24 AND 12/31, THIS BOX MAY BE COLLECTED AS EARLY AS 12 NOON.", "nsi_id": "unitedstatespostalservice-a77078", "operator": "United States Postal Service", "operator:short": "USPS", "operator:type": "public", "operator:wikidata": "Q668687", "ref": "1784500001"}, "type": "Feature"}
{"geometry": {"coordinates": [-77.140523, 40.886216], "type": "Point"}, "id": "VHDS9swpA9Q5OJEoDY20IKgZ96o=", "properties": {"@source_uri": "https://tools.usps.com/UspsToolsRestServices/rest/POLocator/findLocations", "@spider": "usps_collection_boxes", "addr:city": "MILLMONT", "addr:country": "US", "addr:full": "1295 MILLMONT RD", "addr:postcode": "17845", "addr:state": "PA", "amenity": "post_box", "brand": "United States Postal Service", "brand:wikidata": "Q668687", "collection_times": "Mo-Fr 16:00; Sa 11:00", "indoor": "yes", "note": "ON 12/24 AND 12/31, THIS BOX MAY BE COLLECTED AS EARLY AS 12 NOON.", "nsi_id": "unitedstatespostalservice-a77078", "operator": "United States Postal Service", "operator:short": "USPS", "operator:type": "public", "operator:wikidata": "Q668687", "ref": "1784500002"}, "type": "Feature"}
{"geometry": {"coordinates": [-77.140485684, 40.886378162], "type": "Point"}, "id": "f9jhqOoUvkFcKVuYD2eyGeLgxl8=", "properties": {"@source_uri": "https://tools.usps.com/UspsToolsRestServices/rest/POLocator/findLocations", "@spider": "usps_collection_boxes", "addr:city": "MILLMONT", "addr:country": "US", "addr:full": "1295 MILLMONT RD", "addr:postcode": "17845", "addr:state": "PA", "amenity": "post_box", "brand": "United States Postal Service", "brand:wikidata": "Q668687", "collection_times": "Mo-Fr 16:00; Sa 11:30", "indoor": "yes", "note": "ON 12/24 AND 12/31, THIS BOX MAY BE COLLECTED AS EARLY AS 12 NOON.", "nsi_id": "unitedstatespostalservice-a77078", "operator": "United States Postal Service", "operator:short": "USPS", "operator:type": "public", "operator:wikidata": "Q668687", "ref": "1784500004"}, "type": "Feature"}
{"geometry": {"coordinates": [-76.530259, 41.120465], "type": "Point"}, "id": "a14kW90Os4XaU0pqAPwhuhT55wQ=", "properties": {"@source_uri": "https://tools.usps.com/UspsToolsRestServices/rest/POLocator/findLocations", "@spider": "usps_collection_boxes", "addr:city": "MILLVILLE", "addr:country": "US", "addr:full": "10 E MAIN ST", "addr:postcode": "17846", "addr:state": "PA", "amenity": "post_box", "brand": "United States Postal Service", "brand:wikidata": "Q668687", "collection_times": "Mo-Fr 16:30; Sa 11:00", "note": "ON 12/24 AND 12/31, THIS BOX MAY BE COLLECTED AS EARLY AS 12 NOON.", "nsi_id": "unitedstatespostalservice-a77078", "operator": "United States Postal Service", "operator:short": "USPS", "operator:type": "public", "operator:wikidata": "Q668687", "ref": "1784600001"}, "type": "Feature"}
{"geometry": {"coordinates": [-76.530259, 41.120465], "type": "Point"}, "id": "7owhsgsluAVPzyl_vWl9iF5p-3M=", "properties": {"@source_uri": "https://tools.usps.com/UspsToolsRestServices/rest/POLocator/findLocations", "@spider": "usps_collection_boxes", "addr:city": "MILLVILLE", "addr:country": "US", "addr:full": "10 E MAIN ST", "addr:postcode": "17846", "addr:state": "PA", "amenity": "post_box", "brand": "United States Postal Service", "brand:wikidata": "Q668687", "collection_times": "Mo-Fr 16:30; Sa 11:00", "indoor": "yes", "note": "ON 12/24 AND 12/31, THIS BOX MAY BE COLLECTED AS EARLY AS 12 NOON.", "nsi_id": "unitedstatespostalservice-a77078", "operator": "United States Postal Service", "operator:short": "USPS", "operator:type": "public", "operator:wikidata": "Q668687", "ref": "1784600003"}, "type": "Feature"}
{"geometry": {"coordinates": [-76.530254206, 41.12054963], "type": "Point"}, "id": "Z4lAZ7FYL2Jbz3V6xbIsFq8ycmQ=", "properties": {"@source_uri": "https://tools.usps.com/UspsToolsRestServices/rest/POLocator/findLocations", "@spider": "usps_collection_boxes", "addr:city": "MILLVILLE", "addr:country": "US", "addr:full": "10 E MAIN ST", "addr:postcode": "17846", "addr:state": "PA", "amenity": "post_box", "brand": "United States Postal Service", "brand:wikidata": "Q668687", "collection_times": "Mo-Fr 16:15; Sa 11:00", "indoor": "yes", "note": "ON 12/24 AND 12/31, THIS BOX MAY BE COLLECTED AS EARLY AS 12 NOON.", "nsi_id": "unitedstatespostalservice-a77078", "operator": "United States Postal Service", "operator:short": "USPS", "operator:type": "public", "operator:wikidata": "Q668687", "ref": "1784600005"}, "type": "Feature"}
{"geometry": {"coordinates": [-76.855648068, 41.018981753], "type": "Point"}, "id": "GqlEHJWb7-VTsHs9Xi9FK84nUEQ=", "properties": {"@source_uri": "https://tools.usps.com/UspsToolsRestServices/rest/POLocator/findLocations", "@spider": "usps_collection_boxes", "addr:city": "MILTON", "addr:country": "US", "addr:full": "57 S FRONT ST", "addr:postcode": "17847", "addr:state": "PA", "amenity": "post_box", "brand": "United States Postal Service", "brand:wikidata": "Q668687", "collection_times": "Mo-Sa 14:00", "note": "ON 12/24 AND 12/31, THIS BOX MAY BE COLLECTED AS EARLY AS 12 NOON.", "nsi_id": "unitedstatespostalservice-a77078", "operator": "United States Postal Service", "operator:short": "USPS", "operator:type": "public", "operator:wikidata": "Q668687", "ref": "1784700002"}, "type": "Feature"}
{"geometry": {"coordinates": [-76.8560331, 41.016045], "type": "Point"}, "id": "CRHbKGD7R8X3jJvy_i83G6s2Ysg=", "properties": {"@source_uri": "https://tools.usps.com/UspsToolsRestServices/rest/POLocator/findLocations", "@spider": "usps_collection_boxes", "addr:city": "MILTON", "addr:country": "US", "addr:full": "37 MAHONING ST", "addr:postcode": "17847", "addr:state": "PA", "amenity": "post_box", "brand": "United States Postal Service", "brand:wikidata": "Q668687", "collection_times": "Mo-Sa 09:30", "nsi_id": "unitedstatespostalservice-a77078", "operator": "United States Postal Service", "operator:short": "USPS", "operator:type": "public", "operator:wikidata": "Q668687", "ref": "1784700003"}, "type": "Feature"}
{"geometry": {"coordinates": [-76.8447735, 41.011983], "type": "Point"}, "id": "kiZQ9vf1IbA5u6jp-xpIl18Nz4A=", "properties": {"@source_uri": "https://tools.usps.com/UspsToolsRestServices/rest/POLocator/findLocations", "@spider": "usps_collection_boxes", "addr:city": "MILTON", "addr:country": "US", "addr:full": "555 MAHONING ST", "addr:postcode": "17847", "addr:state": "PA", "amenity": "post_box", "brand": "United States Postal Service", "brand:wikidata": "Q668687", "collection_times": "Mo-Sa 10:00", "nsi_id": "unitedstatespostalservice-a77078", "operator": "United States Postal Service", "operator:short": "USPS", "operator:type": "public", "operator:wikidata": "Q668687", "ref": "1784700010"}, "type": "Feature"}
{"geometry": {"coordinates": [-76.8435359, 41.020586], "type": "Point"}, "id": "9DWfPUN_6lgytIvzHVXnkTh9XsY=", "properties": {"@source_uri": "https://tools.usps.com/UspsToolsRestServices/rest/POLocator/findLocations", "@spider": "usps_collection_boxes", "addr:city": "MILTON", "addr:country": "US", "addr:full": "560 BROADWAY ST", "addr:postcode": "17847", "addr:state": "PA", "amenity": "post_box", "brand": "United States Postal Service", "brand:wikidata": "Q668687", "collection_times": "Mo-Sa 14:00", "note": "ON 12/24 AND 12/31, THIS BOX MAY BE COLLECTED AS EARLY AS 12 NOON.", "nsi_id": "unitedstatespostalservice-a77078", "operator": "United States Postal Service", "operator:short": "USPS", "operator:type": "public", "operator:wikidata": "Q668687", "ref": "1784700012"}, "type": "Feature"}
{"geometry": {"coordinates": [-76.840843, 41.019208], "type": "Point"}, "id": "MkFJfuS0DrNheYhiG2GuaPVuz7k=", "properties": {"@source_uri": "https://tools.usps.com/UspsToolsRestServices/rest/POLocator/findLocations", "@spider": "usps_collection_boxes", "addr:city": "MILTON", "addr:country": "US", "addr:full": "700 HEPBURN ST", "addr:postcode": "17847", "addr:state": "PA", "amenity": "post_box", "brand": "United States Postal Service", "brand:wikidata": "Q668687", "collection_times": "Mo-Sa 14:00", "note": "ON 12/24 AND 12/31, THIS BOX MAY BE COLLECTED AS EARLY AS 12 NOON.", "nsi_id": "unitedstatespostalservice-a77078", "operator": "United States Postal Service", "operator:short": "USPS", "operator:type": "public", "operator:wikidata": "Q668687", "ref": "1784700016"}, "type": "Feature"}
{"geometry": {"coordinates": [-76.85518, 41.020564], "type": "Point"}, "id": "okfYtcigVH-kjGQJZHed8NmOcAw=", "properties": {"@source_uri": "https://tools.usps.com/UspsToolsRestServices/rest/POLocator/findLocations", "@spider": "usps_collection_boxes", "addr:city": "MILTON", "addr:country": "US", "addr:full": "29 N FRONT ST", "addr:postcode": "17847", "addr:state": "PA", "amenity": "post_box", "brand": "United States Postal Service", "brand:wikidata": "Q668687", "collection_times": "Mo-Fr 16:30; Sa 15:15", "note": "ON 12/24 AND 12/31, THIS BOX MAY BE COLLECTED AS EARLY AS 12 NOON.", "nsi_id": "unitedstatespostalservice-a77078", "operator": "United States Postal Service", "operator:short": "USPS", "operator:type": "public", "operator:wikidata": "Q668687", "ref": "1784700019"}, "type": "Feature"}
{"geometry": {"coordinates": [-76.855218, 41.020527], "type": "Point"}, "id": "By2taNJ_mRM4OjrFCk_b3cgsPyI=", "properties": {"@source_uri": "https://tools.usps.com/UspsToolsRestServices/rest/POLocator/findLocations", "@spider": "usps_collection_boxes", "addr:city": "MILTON", "addr:country": "US", "addr:full": "29 N FRONT ST", "addr:postcode": "17847", "addr:state": "PA", "amenity": "post_box", "brand": "United States Postal Service", "brand:wikidata": "Q668687", "collection_times": "Mo-Fr 16:30; Sa 15:15", "note": "ON 12/24 AND 12/31, THIS BOX MAY BE COLLECTED AS EARLY AS 12 NOON.", "nsi_id": "unitedstatespostalservice-a77078", "operator": "United States Postal Service", "operator:short": "USPS", "operator:type": "public", "operator:wikidata": "Q668687", "ref": "1784700020"}, "type": "Feature"}
{"geometry": {"coordinates": [-76.8482642, 41.019835], "type": "Point"}, "id": "FNQNG8n4HXjlfw6EPyWWyOib5is=", "properties": {"@source_uri": "https://tools.usps.com/UspsToolsRestServices/rest/POLocator/findLocations", "@spider": "usps_collection_boxes", "addr:city": "MILTON", "addr:country": "US", "addr:full": "32 S TURBOT AVE", "addr:postcode": "17847", "addr:state": "PA", "amenity": "post_box", "brand": "United States Postal Service", "brand:wikidata": "Q668687", "collection_times": "Mo-Sa 14:00", "note": "ON 12/24 AND 12/31, THIS BOX MAY BE COLLECTED AS EARLY AS 12 NOON.", "nsi_id": "unitedstatespostalservice-a77078", "operator": "United States Postal Service", "operator:short": "USPS", "operator:type": "public", "operator:wikidata": "Q668687", "ref": "1784700023"}, "type": "Feature"}
{"geometry": {"coordinates": [-76.855218, 41.020527], "type": "Point"}, "id": "Ers2Xypngy9RSVP1xEDjVCE2e1Y=", "properties": {"@source_uri": "https://tools.usps.com/UspsToolsRestServices/rest/POLocator/findLocations", "@spider": "usps_collection_boxes", "addr:city": "MILTON", "addr:country": "US", "addr:full": "29 N FRONT ST", "addr:postcode": "17847", "addr:state": "PA", "amenity": "post_box", "brand": "United States Postal Service", "brand:wikidata": "Q668687", "collection_times": "Mo-Fr 16:30; Sa 15:15", "indoor": "yes", "note": "ON 12/24 AND 12/31, THIS BOX MAY BE COLLECTED AS EARLY AS 12 NOON.", "nsi_id": "unitedstatespostalservice-a77078", "operator": "United States Postal Service", "operator:short": "USPS", "operator:type": "public", "operator:wikidata": "Q668687", "ref": "1784700027"}, "type": "Feature"}
{"geometry": {"coordinates": [-76.855146394, 41.020954282], "type": "Point"}, "id": "Rxn9-dafmMj2pH-xN_s8Ds5HrYM=", "properties": {"@source_uri": "https://tools.usps.com/UspsToolsRestServices/rest/POLocator/findLocations", "@spider": "usps_collection_boxes", "addr:city": "MILTON", "addr:country": "US", "addr:full": "29 N FRONT ST", "addr:postcode": "17847", "addr:state": "PA", "amenity": "post_box", "brand": "United States Postal Service", "brand:wikidata": "Q668687", "collection_times": "Mo-Fr 16:35; Sa 12:05", "indoor": "yes", "note": "ON 12/24 AND 12/31, THIS BOX MAY BE COLLECTED AS EARLY AS 12 NOON.", "nsi_id": "unitedstatespostalservice-a77078", "operator": "United States Postal Service", "operator:short": "USPS", "operator:type": "public", "operator:wikidata": "Q668687", "ref": "1784700031"}, "type": "Feature"}
{"geometry": {"coordinates": [-76.857678, 40.96624], "type": "Point"}, "id": "8cKB6XyenbtaVXfSFdUQdbmcH34=", "properties": {"@source_uri": "https://tools.usps.com/UspsToolsRestServices/rest/POLocator/findLocations", "@spider": "usps_collection_boxes", "addr:city": "MONTANDON", "addr:country": "US", "addr:full": "97 MAIN ST", "addr:postcode": "17850", "addr:state": "PA", "amenity": "post_box", "brand": "United States Postal Service", "brand:wikidata": "Q668687", "collection_times": "Mo-Fr 16:00; Sa 11:30", "note": "ON 12/24 AND 12/31, THIS BOX MAY BE COLLECTED AS EARLY AS 12 NOON.", "nsi_id": "unitedstatespostalservice-a77078", "operator": "United States Postal Service", "operator:short": "USPS", "operator:type": "public", "operator:wikidata": "Q668687", "ref": "1785000001"}, "type": "Feature"}
{"geometry": {"coordinates": [-76.857625, 40.966205], "type": "Point"}, "id": "aCc6zLnugoecAOde07IFAonAkrQ=", "properties": {"@source_uri": "https://tools.usps.com/UspsToolsRestServices/rest/POLocator/findLocations", "@spider": "usps_collection_boxes", "addr:city": "MONTANDON", "addr:country": "US", "addr:full": "97 MAIN ST", "addr:postcode": "17850", "addr:state": "PA", "amenity": "post_box", "brand": "United States Postal Service", "brand:wikidata": "Q668687", "collection_times": "Mo-Fr 16:00; Sa 11:30", "indoor": "yes", "note": "ON 12/24 AND 12/31, THIS BOX MAY BE COLLECTED AS EARLY AS 12 NOON.", "nsi_id": "unitedstatespostalservice-a77078", "operator": "United States Postal Service", "operator:short": "USPS", "operator:type": "public", "operator:wikidata": "Q668687", "ref": "1785000002"}, "type": "Feature"}
{"geometry": {"coordinates": [-76.857729826, 40.966245344], "type": "Point"}, "id": "IwMhaxYq7H6fg4byuMF9o0V4rAU=", "properties": {"@source_uri": "https://tools.usps.com/UspsToolsRestServices/rest/POLocator/findLocations", "@spider": "usps_collection_boxes", "addr:city": "MONTANDON", "addr:country": "US", "addr:full": "97 MAIN ST", "addr:postcode": "17850", "addr:state": "PA", "amenity": "post_box", "brand": "United States Postal Service", "brand:wikidata": "Q668687", "collection_times": "Mo-Fr 16:15; Sa 11:30", "indoor": "yes", "note": "ON 12/24 AND 12/31, THIS BOX MAY BE COLLECTED AS EARLY AS 12 NOON.", "nsi_id": "unitedstatespostalservice-a77078", "operator": "United States Postal Service", "operator:short": "USPS", "operator:type": "public", "operator:wikidata": "Q668687", "ref": "1785000004"}, "type": "Feature"}
{"geometry": {"coordinates": [-76.4629699, 40.817568], "type": "Point"}, "id": "KmVwGcO0QRjX-TtkkzGF_KoB610=", "properties": {"@source_uri": "https://tools.usps.com/UspsToolsRestServices/rest/POLocator/findLocations", "@spider": "usps_collection_boxes", "addr:city": "MOUNT CARMEL", "addr:country": "US", "addr:full": "292 COLONIAL AVE", "addr:postcode": "17851", "addr:state": "PA", "amenity": "post_box", "brand": "United States Postal Service", "brand:wikidata": "Q668687", "collection_times": "Mo-Sa 08:45", "nsi_id": "unitedstatespostalservice-a77078", "operator": "United States Postal Service", "operator:short": "USPS", "operator:type": "public", "operator:wikidata": "Q668687", "ref": "1785100002"}, "type": "Feature"}
{"geometry": {"coordinates": [-76.4285847, 40.798642], "type": "Point"}, "id": "_OR3Hmg6bjw_5nI8EMYp7n87oOc=", "properties": {"@source_uri": "https://tools.usps.com/UspsToolsRestServices/rest/POLocator/findLocations", "@spider": "usps_collection_boxes", "addr:city": "MOUNT CARMEL", "addr:country": "US", "addr:full": "254 W SAYLOR ST", "addr:postcode": "17851", "addr:state": "PA", "amenity": "post_box", "brand": "United States Postal Service", "brand:wikidata": "Q668687", "collection_times": "Mo-Sa 10:45", "nsi_id": "unitedstatespostalservice-a77078", "operator": "United States Postal Service", "operator:short": "USPS", "operator:type": "public", "operator:wikidata": "Q668687", "ref": "1785100004"}, "type": "Feature"}
{"geometry": {"coordinates": [-76.4148383, 40.797635], "type": "Point"}, "id": "Vcpi9Tkv_aM4QFFxVxHgu_lmc08=", "properties": {"@source_uri": "https://tools.usps.com/UspsToolsRestServices/rest/POLocator/findLocations", "@spider": "usps_collection_boxes", "addr:city": "MOUNT CARMEL", "addr:country": "US", "addr:full": "50 W 2ND ST", "addr:postcode": "17851", "addr:state": "PA", "amenity": "post_box", "brand": "United States Postal Service", "brand:wikidata": "Q668687", "collection_times": "Mo-Sa 14:00", "note": "ON 12/24 AND 12/31, THIS BOX MAY BE COLLECTED AS EARLY AS 12 NOON.", "nsi_id": "unitedstatespostalservice-a77078", "operator": "United States Postal Service", "operator:short": "USPS", "operator:type": "public", "operator:wikidata": "Q668687", "ref": "1785100006"}, "type": "Feature"}
{"geometry": {"coordinates": [-76.4195347, 40.798002], "type": "Point"}, "id": "iAjeLPR-MpLMx7CyGYxWqXDsZH8=", "properties": {"@source_uri": "https://tools.usps.com/UspsToolsRestServices/rest/POLocator/findLocations", "@spider": "usps_collection_boxes", "addr:city": "MOUNT CARMEL", "addr:country": "US", "addr:full": "400 WEST AVE", "addr:postcode": "17851", "addr:state": "PA", "amenity": "post_box", "brand": "United States Postal Service", "brand:wikidata": "Q668687", "collection_times": "Mo-Sa 10:30", "nsi_id": "unitedstatespostalservice-a77078", "operator": "United States Postal Service", "operator:short": "USPS", "operator:type": "public", "operator:wikidata": "Q668687", "ref": "1785100009"}, "type": "Feature"}
{"geometry": {"coordinates": [-76.4098428, 40.795285], "type": "Point"}, "id": "9Ap4iDchFY6po_XD_Tu73DHEUr4=", "properties": {"@source_uri": "https://tools.usps.com/UspsToolsRestServices/rest/POLocator/findLocations", "@spider": "usps_collection_boxes", "addr:city": "MOUNT CARMEL", "addr:country": "US", "addr:full": "150 S MARKET ST", "addr:postcode": "17851", "addr:state": "PA", "amenity": "post_box", "brand": "United States Postal Service", "brand:wikidata": "Q668687", "collection_times": "Mo-Sa 14:00", "note": "ON 12/24 AND 12/31, THIS BOX MAY BE COLLECTED AS EARLY AS 12 NOON.", "nsi_id": "unitedstatespostalservice-a77078", "operator": "United States Postal Service", "operator:short": "USPS", "operator:type": "public", "operator:wikidata": "Q668687", "ref": "1785100014"}, "type": "Feature"}
{"geometry": {"coordinates": [-76.4077421, 40.793394], "type": "Point"}, "id": "xUYqBDvrS1Yg5KjbYyGvwqkGpwQ=", "properties": {"@source_uri": "https://tools.usps.com/UspsToolsRestServices/rest/POLocator/findLocations", "@spider": "usps_collection_boxes", "addr:city": "MOUNT CARMEL", "addr:country": "US", "addr:full": "350 S CHESTNUT ST", "addr:postcode": "17851", "addr:state": "PA", "amenity": "post_box", "brand": "United States Postal Service", "brand:wikidata": "Q668687", "collection_times": "Mo-Sa 10:00", "nsi_id": "unitedstatespostalservice-a77078", "operator": "United States Postal Service", "operator:short": "USPS", "operator:type": "public", "operator:wikidata": "Q668687", "ref": "1785100015"}, "type": "Feature"}
{"geometry": {"coordinates": [-76.4130399, 40.795851], "type": "Point"}, "id": "2Oc--P_A0_m5SmJZ0CzecfXZ9Fg=", "properties": {"@source_uri": "https://tools.usps.com/UspsToolsRestServices/rest/POLocator/findLocations", "@spider": "usps_collection_boxes", "addr:city": "MOUNT CARMEL", "addr:country": "US", "addr:full": "50 S OAK ST", "addr:postcode": "17851", "addr:state": "PA", "amenity": "post_box", "brand": "United States Postal Service", "brand:wikidata": "Q668687", "collection_times": "Mo-Sa 12:30", "note": "ON 12/24 AND 12/31, THIS BOX MAY BE COLLECTED AS EARLY AS 12 NOON.", "nsi_id": "unitedstatespostalservice-a77078", "operator": "United States Postal Service", "operator:short": "USPS", "operator:type": "public", "operator:wikidata": "Q668687", "ref": "1785100019"}, "type": "Feature"}
{"geometry": {"coordinates": [-76.4186559, 40.794839], "type": "Point"}, "id": "2QmYVnVsCsBt9GC-9Y_1gtfBHr4=", "properties": {"@source_uri": "https://tools.usps.com/UspsToolsRestServices/rest/POLocator/findLocations", "@spider": "usps_collection_boxes", "addr:city": "MOUNT CARMEL", "addr:country": "US", "addr:full": "400 W 4TH ST", "addr:postcode": "17851", "addr:state": "PA", "amenity": "post_box", "brand": "United States Postal Service", "brand:wikidata": "Q668687", "collection_times": "Mo-Sa 11:00", "nsi_id": "unitedstatespostalservice-a77078", "operator": "United States Postal Service", "operator:short": "USPS", "operator:type": "public", "operator:wikidata": "Q668687", "ref": "1785100026"}, "type": "Feature"}
{"geometry": {"coordinates": [-76.410749, 40.793723], "type": "Point"}, "id": "ErM317sU_nYswARhw07loHRapJs=", "properties": {"@source_uri": "https://tools.usps.com/UspsToolsRestServices/rest/POLocator/findLocations", "@spider": "usps_collection_boxes", "addr:city": "MOUNT CARMEL", "addr:country": "US", "addr:full": "315 S HICKORY ST", "addr:postcode": "17851", "addr:state": "PA", "amenity": "post_box", "brand": "United States Postal Service", "brand:wikidata": "Q668687", "collection_times": "Mo-Sa 08:45", "nsi_id": "unitedstatespostalservice-a77078", "operator": "United States Postal Service", "operator:short": "USPS", "operator:type": "public", "operator:wikidata": "Q668687", "ref": "1785100028"}, "type": "Feature"}
{"geometry": {"coordinates": [-76.411661, 40.797015], "type": "Point"}, "id": "xhSayKpmNlL9_-SkSBsRTkPnSog=", "properties": {"@source_uri": "https://tools.usps.com/UspsToolsRestServices/rest/POLocator/findLocations", "@spider": "usps_collection_boxes", "addr:city": "MOUNT CARMEL", "addr:country": "US", "addr:full": "1 S HICKORY ST", "addr:postcode": "17851", "addr:state": "PA", "amenity": "post_box", "brand": "United States Postal Service", "brand:wikidata": "Q668687", "collection_times": "Mo-Fr 16:00; Sa 14:30", "note": "ON 12/24 AND 12/31, THIS BOX MAY BE COLLECTED AS EARLY AS 12 NOON.", "nsi_id": "unitedstatespostalservice-a77078", "operator": "United States Postal Service", "operator:short": "USPS", "operator:type": "public", "operator:wikidata": "Q668687", "ref": "1785100029"}, "type": "Feature"}
{"geometry": {"coordinates": [-76.4116431, 40.79708], "type": "Point"}, "id": "ib55mo8Wdh9taRwtTFfQVDBeW14=", "properties": {"@source_uri": "https://tools.usps.com/UspsToolsRestServices/rest/POLocator/findLocations", "@spider": "usps_collection_boxes", "addr:city": "MOUNT CARMEL", "addr:country": "US", "addr:full": "1 S HICKORY ST", "addr:postcode": "17851", "addr:state": "PA", "amenity": "post_box", "brand": "United States Postal Service", "brand:wikidata": "Q668687", "collection_times": "Mo-Fr 16:00; Sa 14:30", "note": "ON 12/24 AND 12/31, THIS BOX MAY BE COLLECTED AS EARLY AS 12 NOON.", "nsi_id": "unitedstatespostalservice-a77078", "operator": "United States Postal Service", "operator:short": "USPS", "operator:type": "public", "operator:wikidata": "Q668687", "ref": "1785100037"}, "type": "Feature"}
{"geometry": {"coordinates": [-76.411684, 40.796802], "type": "Point"}, "id": "eDNRRb724wqGfoaMSvhoNz9Vq_E=", "properties": {"@source_uri": "https://tools.usps.com/UspsToolsRestServices/rest/POLocator/findLocations", "@spider": "usps_collection_boxes", "addr:city": "MOUNT CARMEL", "addr:country": "US", "addr:full": "1 S HICKORY ST", "addr:postcode": "17851", "addr:state": "PA", "amenity": "post_box", "brand": "United States Postal Service", "brand:wikidata": "Q668687", "collection_times": "Mo-Fr 16:00; Sa 14:30", "indoor": "yes", "note": "ON 12/24 AND 12/31, THIS BOX MAY BE COLLECTED AS EARLY AS 12 NOON.", "nsi_id": "unitedstatespostalservice-a77078", "operator": "United States Postal Service", "operator:short": "USPS", "operator:type": "public", "operator:wikidata": "Q668687", "ref": "1785100044"}, "type": "Feature"}
{"geometry": {"coordinates": [-76.41166583, 40.796913289], "type": "Point"}, "id": "hMadah2XkaZLxXc-clNaNGlggms=", "properties": {"@source_uri": "https://tools.usps.com/UspsToolsRestServices/rest/POLocator/findLocations", "@spider": "usps_collection_boxes", "addr:city": "MOUNT CARMEL", "addr:country": "US", "addr:full": "1 S HICKORY ST", "addr:postcode": "17851", "addr:state": "PA", "amenity": "post_box", "brand": "United States Postal Service", "brand:wikidata": "Q668687", "collection_times": "Mo-Fr 16:15; Sa 11:05", "indoor": "yes", "note": "ON 12/24 AND 12/31, THIS BOX MAY BE COLLECTED AS EARLY AS 12 NOON.", "nsi_id": "unitedstatespostalservice-a77078", "operator": "United States Postal Service", "operator:short": "USPS", "operator:type": "public", "operator:wikidata": "Q668687", "ref": "1785100047"}, "type": "Feature"}
{"geometry": {"coordinates": [-77.014053, 40.725151], "type": "Point"}, "id": "-oSkeE6R21r0GDQtVz-67DyGSE8=", "properties": {"@source_uri": "https://tools.usps.com/UspsToolsRestServices/rest/POLocator/findLocations", "@spider": "usps_collection_boxes", "addr:city": "MT PLEASANT M", "addr:country": "US", "addr:full": "9116 ROUTE 35", "addr:postcode": "17853", "addr:state": "PA", "amenity": "post_box", "brand": "United States Postal Service", "brand:wikidata": "Q668687", "collection_times": "Mo-Fr 16:00; Sa 10:30", "note": "ON 12/24 AND 12/31, THIS BOX MAY BE COLLECTED AS EARLY AS 12 NOON.", "nsi_id": "unitedstatespostalservice-a77078", "operator": "United States Postal Service", "operator:short": "USPS", "operator:type": "public", "operator:wikidata": "Q668687", "ref": "1785300001"}, "type": "Feature"}
{"geometry": {"coordinates": [-77.013978, 40.725194], "type": "Point"}, "id": "AFF6NMGadFZPU882o_kdwv2aed8=", "properties": {"@source_uri": "https://tools.usps.com/UspsToolsRestServices/rest/POLocator/findLocations", "@spider": "usps_collection_boxes", "addr:city": "MT PLEASANT M", "addr:country": "US", "addr:full": "9116 ROUTE 35", "addr:postcode": "17853", "addr:state": "PA", "amenity": "post_box", "brand": "United States Postal Service", "brand:wikidata": "Q668687", "collection_times": "Mo-Fr 16:00; Sa 10:30", "indoor": "yes", "note": "ON 12/24 AND 12/31, THIS BOX MAY BE COLLECTED AS EARLY AS 12 NOON.", "nsi_id": "unitedstatespostalservice-a77078", "operator": "United States Postal Service", "operator:short": "USPS", "operator:type": "public", "operator:wikidata": "Q668687", "ref": "1785300002"}, "type": "Feature"}
{"geometry": {"coordinates": [-77.014005373, 40.725193997], "type": "Point"}, "id": "3DFeFxpXPnQNdM0O6_ilIddNZ6U=", "properties": {"@source_uri": "https://tools.usps.com/UspsToolsRestServices/rest/POLocator/findLocations", "@spider": "usps_collection_boxes", "addr:city": "MT PLEASANT M", "addr:country": "US", "addr:full": "9116 ROUTE 35", "addr:postcode": "17853", "addr:state": "PA", "amenity": "post_box", "brand": "United States Postal Service", "brand:wikidata": "Q668687", "collection_times": "Mo-Fr 16:15; Sa 11:00", "indoor": "yes", "note": "ON 12/24 AND 12/31, THIS BOX MAY BE COLLECTED AS EARLY AS 12 NOON.", "nsi_id": "unitedstatespostalservice-a77078", "operator": "United States Postal Service", "operator:short": "USPS", "operator:type": "public", "operator:wikidata": "Q668687", "ref": "1785300004"}, "type": "Feature"}
{"geometry": {"coordinates": [-76.9865839, 40.878052], "type": "Point"}, "id": "3j6awA--Zcci0Vn_09jlcbg3DYA=", "properties": {"@source_uri": "https://tools.usps.com/UspsToolsRestServices/rest/POLocator/findLocations", "@spider": "usps_collection_boxes", "addr:city": "NEW BERLIN", "addr:country": "US", "addr:full": "220 VINE ST", "addr:postcode": "17855", "addr:state": "PA", "amenity": "post_box", "brand": "United States Postal Service", "brand:wikidata": "Q668687", "collection_times": "Mo-Fr 16:30; Sa 11:30", "note": "ON 12/24 AND 12/31, THIS BOX MAY BE COLLECTED AS EARLY AS 12 NOON.", "nsi_id": "unitedstatespostalservice-a77078", "operator": "United States Postal Service", "operator:short": "USPS", "operator:type": "public", "operator:wikidata": "Q668687", "ref": "1785500001"}, "type": "Feature"}
{"geometry": {"coordinates": [-76.9865844, 40.878497], "type": "Point"}, "id": "zliCWkROFIiCNhVHhUyt35CKmT4=", "properties": {"@source_uri": "https://tools.usps.com/UspsToolsRestServices/rest/POLocator/findLocations", "@spider": "usps_collection_boxes", "addr:city": "NEW BERLIN", "addr:country": "US", "addr:full": "220 VINE ST", "addr:postcode": "17855", "addr:state": "PA", "amenity": "post_box", "brand": "United States Postal Service", "brand:wikidata": "Q668687", "collection_times": "Mo-Fr 15:30; Sa 11:30", "indoor": "yes", "note": "ON 12/24 AND 12/31, THIS BOX MAY BE COLLECTED AS EARLY AS 12 NOON.", "nsi_id": "unitedstatespostalservice-a77078", "operator": "United States Postal Service", "operator:short": "USPS", "operator:type": "public", "operator:wikidata": "Q668687", "ref": "1785500002"}, "type": "Feature"}
{"geometry": {"coordinates": [-76.986697129, 40.878434493], "type": "Point"}, "id": "3qNE_mH_y7unXRz6zgb5LZ574J8=", "properties": {"@source_uri": "https://tools.usps.com/UspsToolsRestServices/rest/POLocator/findLocations", "@spider": "usps_collection_boxes", "addr:city": "NEW BERLIN", "addr:country": "US", "addr:full": "220 VINE ST", "addr:postcode": "17855", "addr:state": "PA", "amenity": "post_box", "brand": "United States Postal Service", "brand:wikidata": "Q668687", "collection_times": "Mo-Fr 15:30; Sa 11:30", "indoor": "yes", "note": "ON 12/24 AND 12/31, THIS BOX MAY BE COLLECTED AS EARLY AS 12 NOON.", "nsi_id": "unitedstatespostalservice-a77078", "operator": "United States Postal Service", "operator:short": "USPS", "operator:type": "public", "operator:wikidata": "Q668687", "ref": "1785500010"}, "type": "Feature"}
{"geometry": {"coordinates": [-76.8012988, 40.895533], "type": "Point"}, "id": "D5xUB5UAJI5L4eeT4xFbDpUFbKs=", "properties": {"@source_uri": "https://tools.usps.com/UspsToolsRestServices/rest/POLocator/findLocations", "@spider": "usps_collection_boxes", "addr:city": "NORTHUMBERLAND", "addr:country": "US", "addr:full": "395 6TH ST", "addr:postcode": "17857", "addr:state": "PA", "amenity": "post_box", "brand": "United States Postal Service", "brand:wikidata": "Q668687", "collection_times": "Mo-Sa 11:30", "nsi_id": "unitedstatespostalservice-a77078", "operator": "United States Postal Service", "operator:short": "USPS", "operator:type": "public", "operator:wikidata": "Q668687", "ref": "1785700012"}, "type": "Feature"}
{"geometry": {"coordinates": [-76.7951906, 40.890081], "type": "Point"}, "id": "dsDb2M4KawtfUlrW_qTLYbpQ5yc=", "properties": {"@source_uri": "https://tools.usps.com/UspsToolsRestServices/rest/POLocator/findLocations", "@spider": "usps_collection_boxes", "addr:city": "NORTHUMBERLAND", "addr:country": "US", "addr:full": "147 KING ST", "addr:postcode": "17857", "addr:state": "PA", "amenity": "post_box", "brand": "United States Postal Service", "brand:wikidata": "Q668687", "collection_times": "Mo-Sa 13:00", "note": "ON 12/24 AND 12/31, THIS BOX MAY BE COLLECTED AS EARLY AS 12 NOON.", "nsi_id": "unitedstatespostalservice-a77078", "operator": "United States Postal Service", "operator:short": "USPS", "operator:type": "public", "operator:wikidata": "Q668687", "ref": "1785700016"}, "type": "Feature"}
{"geometry": {"coordinates": [-76.794018, 40.887534], "type": "Point"}, "id": "2PMtB6TjVQRfO-idMYLecHx_So8=", "properties": {"@source_uri": "https://tools.usps.com/UspsToolsRestServices/rest/POLocator/findLocations", "@spider": "usps_collection_boxes", "addr:city": "NORTHUMBERLAND", "addr:country": "US", "addr:full": "75 QUEEN ST", "addr:postcode": "17857", "addr:state": "PA", "amenity": "post_box", "brand": "United States Postal Service", "brand:wikidata": "Q668687", "collection_times": "Mo-Fr 16:45; Sa 12:00", "note": "ON 12/24 AND 12/31, THIS BOX MAY BE COLLECTED AS EARLY AS 12 NOON.", "nsi_id": "unitedstatespostalservice-a77078", "operator": "United States Postal Service", "operator:short": "USPS", "operator:type": "public", "operator:wikidata": "Q668687", "ref": "1785700017"}, "type": "Feature"}
{"geometry": {"coordinates": [-76.794088, 40.887611], "type": "Point"}, "id": "-R2EKNF-4WI0lN14YIdRmjmS_K0=", "properties": {"@source_uri": "https://tools.usps.com/UspsToolsRestServices/rest/POLocator/findLocations", "@spider": "usps_collection_boxes", "addr:city": "NORTHUMBERLAND", "addr:country": "US", "addr:full": "75 QUEEN ST", "addr:postcode": "17857", "addr:state": "PA", "amenity": "post_box", "brand": "United States Postal Service", "brand:wikidata": "Q668687", "collection_times": "Mo-Fr 16:45; Sa 12:00", "indoor": "yes", "note": "ON 12/24 AND 12/31, THIS BOX MAY BE COLLECTED AS EARLY AS 12 NOON.", "nsi_id": "unitedstatespostalservice-a77078", "operator": "United States Postal Service", "operator:short": "USPS", "operator:type": "public", "operator:wikidata": "Q668687", "ref": "1785700023"}, "type": "Feature"}
{"geometry": {"coordinates": [-76.794979095, 40.888046956], "type": "Point"}, "id": "3Obj4aKUhoc7bsMZYZimquSfpqM=", "properties": {"@source_uri": "https://tools.usps.com/UspsToolsRestServices/rest/POLocator/findLocations", "@spider": "usps_collection_boxes", "addr:city": "NORTHUMBERLAND", "addr:country": "US", "addr:full": "75 QUEEN ST", "addr:postcode": "17857", "addr:state": "PA", "amenity": "post_box", "brand": "United States Postal Service", "brand:wikidata": "Q668687", "collection_times": "Mo-Fr 16:45; Sa 12:15", "indoor": "yes", "note": "ON 12/24 AND 12/31, THIS BOX MAY BE COLLECTED AS EARLY AS 12 NOON.", "nsi_id": "unitedstatespostalservice-a77078", "operator": "United States Postal Service", "operator:short": "USPS", "operator:type": "public", "operator:wikidata": "Q668687", "ref": "1785700029"}, "type": "Feature"}
{"geometry": {"coordinates": [-76.402811, 40.88189], "type": "Point"}, "id": "glx1dxUElPO09DhpEP-y9CVfXdA=", "properties": {"@source_uri": "https://tools.usps.com/UspsToolsRestServices/rest/POLocator/findLocations", "@spider": "usps_collection_boxes", "addr:city": "NUMIDIA", "addr:country": "US", "addr:full": "1114 NUMIDIA DR", "addr:postcode": "17858", "addr:state": "PA", "amenity": "post_box", "brand": "United States Postal Service", "brand:wikidata": "Q668687", "collection_times": "Mo-Fr 15:30; Sa 11:00", "note": "ON 12/24 AND 12/31, THIS BOX MAY BE COLLECTED AS EARLY AS 12 NOON.", "nsi_id": "unitedstatespostalservice-a77078", "operator": "United States Postal Service", "operator:short": "USPS", "operator:type": "public", "operator:wikidata": "Q668687", "ref": "1785800001"}, "type": "Feature"}
{"geometry": {"coordinates": [-76.402811, 40.88189], "type": "Point"}, "id": "qlPcu4HTLOnBpD5ilzGFX-9DPXc=", "properties": {"@source_uri": "https://tools.usps.com/UspsToolsRestServices/rest/POLocator/findLocations", "@spider": "usps_collection_boxes", "addr:city": "NUMIDIA", "addr:country": "US", "addr:full": "1114 NUMIDIA DR", "addr:postcode": "17858", "addr:state": "PA", "amenity": "post_box", "brand": "United States Postal Service", "brand:wikidata": "Q668687", "collection_times": "Mo-Fr 15:30; Sa 11:00", "indoor": "yes", "note": "ON 12/24 AND 12/31, THIS BOX MAY BE COLLECTED AS EARLY AS 12 NOON.", "nsi_id": "unitedstatespostalservice-a77078", "operator": "United States Postal Service", "operator:short": "USPS", "operator:type": "public", "operator:wikidata": "Q668687", "ref": "1785800002"}, "type": "Feature"}
{"geometry": {"coordinates": [-76.402368421, 40.881940303], "type": "Point"}, "id": "HfSqshpfwNXuji0bU3qGl4y0OFA=", "properties": {"@source_uri": "https://tools.usps.com/UspsToolsRestServices/rest/POLocator/findLocations", "@spider": "usps_collection_boxes", "addr:city": "NUMIDIA", "addr:country": "US", "addr:full": "1114 NUMIDIA DR", "addr:postcode": "17858", "addr:state": "PA", "amenity": "post_box", "brand": "United States Postal Service", "brand:wikidata": "Q668687", "collection_times": "Mo-Fr 15:45; Sa 11:15", "indoor": "yes", "note": "ON 12/24 AND 12/31, THIS BOX MAY BE COLLECTED AS EARLY AS 12 NOON.", "nsi_id": "unitedstatespostalservice-a77078", "operator": "United States Postal Service", "operator:short": "USPS", "operator:type": "public", "operator:wikidata": "Q668687", "ref": "1785800004"}, "type": "Feature"}
{"geometry": {"coordinates": [-76.415386, 41.078853], "type": "Point"}, "id": "0mhw2343XWrTWHKn5M5q69Qvtbg=", "properties": {"@source_uri": "https://tools.usps.com/UspsToolsRestServices/rest/POLocator/findLocations", "@spider": "usps_collection_boxes", "addr:city": "ORANGEVILLE", "addr:country": "US", "addr:full": "410 MILL ST", "addr:postcode": "17859", "addr:state": "PA", "amenity": "post_box", "brand": "United States Postal Service", "brand:wikidata": "Q668687", "collection_times": "Mo-Fr 15:15; Sa 11:30", "note": "ON 12/24 AND 12/31, THIS BOX MAY BE COLLECTED AS EARLY AS 12 NOON.", "nsi_id": "unitedstatespostalservice-a77078", "operator": "United States Postal Service", "operator:short": "USPS", "operator:type": "public", "operator:wikidata": "Q668687", "ref": "1785900001"}, "type": "Feature"}
{"geometry": {"coordinates": [-76.415465, 41.078805], "type": "Point"}, "id": "60TRcGv85zhpEIRh49ESCBJVDlI=", "properties": {"@source_uri": "https://tools.usps.com/UspsToolsRestServices/rest/POLocator/findLocations", "@spider": "usps_collection_boxes", "addr:city": "ORANGEVILLE", "addr:country": "US", "addr:full": "410 MILL ST", "addr:postcode": "17859", "addr:state": "PA", "amenity": "post_box", "brand": "United States Postal Service", "brand:wikidata": "Q668687", "collection_times": "Mo-Fr 15:15; Sa 11:30", "indoor": "yes", "note": "ON 12/24 AND 12/31, THIS BOX MAY BE COLLECTED AS EARLY AS 12 NOON.", "nsi_id": "unitedstatespostalservice-a77078", "operator": "United States Postal Service", "operator:short": "USPS", "operator:type": "public", "operator:wikidata": "Q668687", "ref": "1785900002"}, "type": "Feature"}
{"geometry": {"coordinates": [-76.414976818, 41.079392466], "type": "Point"}, "id": "cECB6zHRZucHXAZ2NtufKBq40Lk=", "properties": {"@source_uri": "https://tools.usps.com/UspsToolsRestServices/rest/POLocator/findLocations", "@spider": "usps_collection_boxes", "addr:city": "ORANGEVILLE", "addr:country": "US", "addr:full": "410 MILL ST", "addr:postcode": "17859", "addr:state": "PA", "amenity": "post_box", "brand": "United States Postal Service", "brand:wikidata": "Q668687", "collection_times": "Mo-Fr 15:30; Sa 11:45", "indoor": "yes", "note": "ON 12/24 AND 12/31, THIS BOX MAY BE COLLECTED AS EARLY AS 12 NOON.", "nsi_id": "unitedstatespostalservice-a77078", "operator": "United States Postal Service", "operator:short": "USPS", "operator:type": "public", "operator:wikidata": "Q668687", "ref": "1785900004"}, "type": "Feature"}
{"geometry": {"coordinates": [-76.588014, 40.846741], "type": "Point"}, "id": "QRHzB6Pxn7gu_X3Bit83zTsgYOk=", "properties": {"@source_uri": "https://tools.usps.com/UspsToolsRestServices/rest/POLocator/findLocations", "@spider": "usps_collection_boxes", "addr:city": "PAXINOS", "addr:country": "US", "addr:full": "5317 STATE ROUTE 61", "addr:postcode": "17860", "addr:state": "PA", "amenity": "post_box", "brand": "United States Postal Service", "brand:wikidata": "Q668687", "collection_times": "Mo-Fr 15:30; Sa 10:00", "note": "ON 12/24 AND 12/31, THIS BOX MAY BE COLLECTED AS EARLY AS 12 NOON.", "nsi_id": "unitedstatespostalservice-a77078", "operator": "United States Postal Service", "operator:short": "USPS", "operator:type": "public", "operator:wikidata": "Q668687", "ref": "1786000001"}, "type": "Feature"}
{"geometry": {"coordinates": [-76.587959, 40.84666], "type": "Point"}, "id": "Sn9Bstb6r979Yh-q3bMtCQ7dqF0=", "properties": {"@source_uri": "https://tools.usps.com/UspsToolsRestServices/rest/POLocator/findLocations", "@spider": "usps_collection_boxes", "addr:city": "PAXINOS", "addr:country": "US", "addr:full": "5317 STATE ROUTE 61", "addr:postcode": "17860", "addr:state": "PA", "amenity": "post_box", "brand": "United States Postal Service", "brand:wikidata": "Q668687", "collection_times": "Mo-Fr 15:30; Sa 10:00", "indoor": "yes", "note": "ON 12/24 AND 12/31, THIS BOX MAY BE COLLECTED AS EARLY AS 12 NOON.", "nsi_id": "unitedstatespostalservice-a77078", "operator": "United States Postal Service", "operator:short": "USPS", "operator:type": "public", "operator:wikidata": "Q668687", "ref": "1786000002"}, "type": "Feature"}
{"geometry": {"coordinates": [-76.587971368, 40.846747642], "type": "Point"}, "id": "l5j2k2-NTb_tUUO-mBKdETnP_W0=", "properties": {"@source_uri": "https://tools.usps.com/UspsToolsRestServices/rest/POLocator/findLocations", "@spider": "usps_collection_boxes", "addr:city": "PAXINOS", "addr:country": "US", "addr:full": "5317 STATE ROUTE 61", "addr:postcode": "17860", "addr:state": "PA", "amenity": "post_box", "brand": "United States Postal Service", "brand:wikidata": "Q668687", "collection_times": "Mo-Fr 17:30; Sa 12:15", "indoor": "yes", "note": "ON 12/24 AND 12/31, THIS BOX MAY BE COLLECTED AS EARLY AS 12 NOON.", "nsi_id": "unitedstatespostalservice-a77078", "operator": "United States Postal Service", "operator:short": "USPS", "operator:type": "public", "operator:wikidata": "Q668687", "ref": "1786000004"}, "type": "Feature"}
{"geometry": {"coordinates": [-77.08584, 40.77158], "type": "Point"}, "id": "QFbYXbEHOXFPrNfoZyelOyIddZ0=", "properties": {"@source_uri": "https://tools.usps.com/UspsToolsRestServices/rest/POLocator/findLocations", "@spider": "usps_collection_boxes", "addr:city": "PAXTONVILLE", "addr:country": "US", "addr:full": "1072 PAXTON ST", "addr:postcode": "17861", "addr:state": "PA", "amenity": "post_box", "brand": "United States Postal Service", "brand:wikidata": "Q668687", "collection_times": "Mo-Sa 16:15", "note": "ON 12/24 AND 12/31, THIS BOX MAY BE COLLECTED AS EARLY AS 12 NOON.", "nsi_id": "unitedstatespostalservice-a77078", "operator": "United States Postal Service", "operator:short": "USPS", "operator:type": "public", "operator:wikidata": "Q668687", "ref": "1786100001"}, "type": "Feature"}
{"geometry": {"coordinates": [-77.085847, 40.771546], "type": "Point"}, "id": "4MwLzs5yyXE0rcMG6-aBmb-KoGU=", "properties": {"@source_uri": "https://tools.usps.com/UspsToolsRestServices/rest/POLocator/findLocations", "@spider": "usps_collection_boxes", "addr:city": "PAXTONVILLE", "addr:country": "US", "addr:full": "1072 PAXTON ST", "addr:postcode": "17861", "addr:state": "PA", "amenity": "post_box", "brand": "United States Postal Service", "brand:wikidata": "Q668687", "collection_times": "Mo-Sa 16:15", "indoor": "yes", "note": "ON 12/24 AND 12/31, THIS BOX MAY BE COLLECTED AS EARLY AS 12 NOON.", "nsi_id": "unitedstatespostalservice-a77078", "operator": "United States Postal Service", "operator:short": "USPS", "operator:type": "public", "operator:wikidata": "Q668687", "ref": "1786100002"}, "type": "Feature"}
{"geometry": {"coordinates": [-77.086009763, 40.771698184], "type": "Point"}, "id": "_GclBl3H0Uw32xlPM9Cav7PGzTE=", "properties": {"@source_uri": "https://tools.usps.com/UspsToolsRestServices/rest/POLocator/findLocations", "@spider": "usps_collection_boxes", "addr:city": "PAXTONVILLE", "addr:country": "US", "addr:full": "1072 PAXTON ST STE 10", "addr:postcode": "17861", "addr:state": "PA", "amenity": "post_box", "brand": "United States Postal Service", "brand:wikidata": "Q668687", "collection_times": "Mo-Sa 16:45", "indoor": "yes", "note": "ON 12/24 AND 12/31, THIS BOX MAY BE COLLECTED AS EARLY AS 12 NOON.", "nsi_id": "unitedstatespostalservice-a77078", "operator": "United States Postal Service", "operator:short": "USPS", "operator:type": "public", "operator:wikidata": "Q668687", "ref": "1786100004"}, "type": "Feature"}
{"geometry": {"coordinates": [-77.0563880736, 40.8600883144], "type": "Point"}, "id": "Wfb8B2Osw_ys8PWOD-VmzZvJg6U=", "properties": {"@source_uri": "https://tools.usps.com/UspsToolsRestServices/rest/POLocator/findLocations", "@spider": "usps_collection_boxes", "addr:city": "PENNS CREEK", "addr:country": "US", "addr:full": "106 RASPBERRY ST", "addr:postcode": "17862", "addr:state": "PA", "amenity": "post_box", "brand": "United States Postal Service", "brand:wikidata": "Q668687", "collection_times": "Mo-Fr 16:15; Sa 11:00", "note": "ON 12/24 AND 12/31, THIS BOX MAY BE COLLECTED AS EARLY AS 12 NOON.", "nsi_id": "unitedstatespostalservice-a77078", "operator": "United States Postal Service", "operator:short": "USPS", "operator:type": "public", "operator:wikidata": "Q668687", "ref": "1786200001"}, "type": "Feature"}
{"geometry": {"coordinates": [-77.0563880736, 40.8600883144], "type": "Point"}, "id": "bI2OlGfZn6qOTx73fAVlJlAurTs=", "properties": {"@source_uri": "https://tools.usps.com/UspsToolsRestServices/rest/POLocator/findLocations", "@spider": "usps_collection_boxes", "addr:city": "PENNS CREEK", "addr:country": "US", "addr:full": "106 RASPBERRY ST", "addr:postcode": "17862", "addr:state": "PA", "amenity": "post_box", "brand": "United States Postal Service", "brand:wikidata": "Q668687", "collection_times": "Mo-Fr 12:00; Sa 11:15", "indoor": "yes", "nsi_id": "unitedstatespostalservice-a77078", "operator": "United States Postal Service", "operator:short": "USPS", "operator:type": "public", "operator:wikidata": "Q668687", "ref": "1786200002"}, "type": "Feature"}
{"geometry": {"coordinates": [-77.057236728, 40.858619323], "type": "Point"}, "id": "7j1ZjGN4GKCbp4xj_mYEDTa26ag=", "properties": {"@source_uri": "https://tools.usps.com/UspsToolsRestServices/rest/POLocator/findLocations", "@spider": "usps_collection_boxes", "addr:city": "PENNS CREEK", "addr:country": "US", "addr:full": "106 RASPBERRY ST", "addr:postcode": "17862", "addr:state": "PA", "amenity": "post_box", "brand": "United States Postal Service", "brand:wikidata": "Q668687", "collection_times": "Mo-Fr 12:00; Sa 11:30", "indoor": "yes", "nsi_id": "unitedstatespostalservice-a77078", "operator": "United States Postal Service", "operator:short": "USPS", "operator:type": "public", "operator:wikidata": "Q668687", "ref": "1786200004"}, "type": "Feature"}
{"geometry": {"coordinates": [-76.863229, 40.709162], "type": "Point"}, "id": "uSlJIbmTm6UEC5rou1oQf5b65dY=", "properties": {"@source_uri": "https://tools.usps.com/UspsToolsRestServices/rest/POLocator/findLocations", "@spider": "usps_collection_boxes", "addr:city": "PORT TREVORTON", "addr:country": "US", "addr:full": "3934 S SUSQUEHANNA TRL STE 10", "addr:postcode": "17864", "addr:state": "PA", "amenity": "post_box", "brand": "United States Postal Service", "brand:wikidata": "Q668687", "collection_times": "Mo-Fr 15:00; Sa 10:30", "note": "ON 12/24 AND 12/31, THIS BOX MAY BE COLLECTED AS EARLY AS 12 NOON.", "nsi_id": "unitedstatespostalservice-a77078", "operator": "United States Postal Service", "operator:short": "USPS", "operator:type": "public", "operator:wikidata": "Q668687", "ref": "1786400001"}, "type": "Feature"}
{"geometry": {"coordinates": [-76.863172, 40.709183], "type": "Point"}, "id": "EveavejEswf_uER2GVbQXR-n7dA=", "properties": {"@source_uri": "https://tools.usps.com/UspsToolsRestServices/rest/POLocator/findLocations", "@spider": "usps_collection_boxes", "addr:city": "PORT TREVORTON", "addr:country": "US", "addr:full": "3934 S SUSQUEHANNA TRL STE 10", "addr:postcode": "17864", "addr:state": "PA", "amenity": "post_box", "brand": "United States Postal Service", "brand:wikidata": "Q668687", "collection_times": "Mo-Fr 15:00; Sa 10:30", "indoor": "yes", "note": "ON 12/24 AND 12/31, THIS BOX MAY BE COLLECTED AS EARLY AS 12 NOON.", "nsi_id": "unitedstatespostalservice-a77078", "operator": "United States Postal Service", "operator:short": "USPS", "operator:type": "public", "operator:wikidata": "Q668687", "ref": "1786400002"}, "type": "Feature"}
{"geometry": {"coordinates": [-76.863135916, 40.709279293], "type": "Point"}, "id": "Hz7lelnEgayNX1MLzg8J3Ok2ENE=", "properties": {"@source_uri": "https://tools.usps.com/UspsToolsRestServices/rest/POLocator/findLocations", "@spider": "usps_collection_boxes", "addr:city": "PORT TREVORTON", "addr:country": "US", "addr:full": "3934 S SUSQUEHANNA TRL STE 10", "addr:postcode": "17864", "addr:state": "PA", "amenity": "post_box", "brand": "United States Postal Service", "brand:wikidata": "Q668687", "collection_times": "Mo-Fr 15:00; Sa 10:30", "indoor": "yes", "note": "ON 12/24 AND 12/31, THIS BOX MAY BE COLLECTED AS EARLY AS 12 NOON.", "nsi_id": "unitedstatespostalservice-a77078", "operator": "United States Postal Service", "operator:short": "USPS", "operator:type": "public", "operator:wikidata": "Q668687", "ref": "1786400005"}, "type": "Feature"}
{"geometry": {"coordinates": [-76.7904711091, 40.9918931193], "type": "Point"}, "id": "W1F-9LdQYXVumOcAFJgjDbOjvwE=", "properties": {"@source_uri": "https://tools.usps.com/UspsToolsRestServices/rest/POLocator/findLocations", "@spider": "usps_collection_boxes", "addr:city": "POTTS GROVE", "addr:country": "US", "addr:full": "4365 STATE ROUTE 642", "addr:postcode": "17865", "addr:state": "PA", "amenity": "post_box", "brand": "United States Postal Service", "brand:wikidata": "Q668687", "collection_times": "Mo-Fr 16:30; Sa 11:45", "note": "ON 12/24 AND 12/31, THIS BOX MAY BE COLLECTED AS EARLY AS 12 NOON.", "nsi_id": "unitedstatespostalservice-a77078", "operator": "United States Postal Service", "operator:short": "USPS", "operator:type": "public", "operator:wikidata": "Q668687", "ref": "1786500001"}, "type": "Feature"}
{"geometry": {"coordinates": [-76.7904711091, 40.9918931193], "type": "Point"}, "id": "xZNOyZOnIgtE4moIt3-886ACgsw=", "properties": {"@source_uri": "https://tools.usps.com/UspsToolsRestServices/rest/POLocator/findLocations", "@spider": "usps_collection_boxes", "addr:city": "POTTS GROVE", "addr:country": "US", "addr:full": "4365 STATE ROUTE 642", "addr:postcode": "17865", "addr:state": "PA", "amenity": "post_box", "brand": "United States Postal Service", "brand:wikidata": "Q668687", "collection_times": "Mo-Fr 16:30; Sa 11:45", "indoor": "yes", "note": "ON 12/24 AND 12/31, THIS BOX MAY BE COLLECTED AS EARLY AS 12 NOON.", "nsi_id": "unitedstatespostalservice-a77078", "operator": "United States Postal Service", "operator:short": "USPS", "operator:type": "public", "operator:wikidata": "Q668687", "ref": "1786500002"}, "type": "Feature"}
{"geometry": {"coordinates": [-76.79050031, 40.994329639], "type": "Point"}, "id": "TmHX_lo4gaGoVM56nJDYQM8YpX4=", "properties": {"@source_uri": "https://tools.usps.com/UspsToolsRestServices/rest/POLocator/findLocations", "@spider": "usps_collection_boxes", "addr:city": "POTTS GROVE", "addr:country": "US", "addr:full": "4365 STATE ROUTE 642", "addr:postcode": "17865", "addr:state": "PA", "amenity": "post_box", "brand": "United States Postal Service", "brand:wikidata": "Q668687", "collection_times": "Mo-Fr 16:30; Sa 12:00", "indoor": "yes", "note": "ON 12/24 AND 12/31, THIS BOX MAY BE COLLECTED AS EARLY AS 12 NOON.", "nsi_id": "unitedstatespostalservice-a77078", "operator": "United States Postal Service", "operator:short": "USPS", "operator:type": "public", "operator:wikidata": "Q668687", "ref": "1786500004"}, "type": "Feature"}
{"geometry": {"coordinates": [-76.5662994, 40.787514], "type": "Point"}, "id": "RifddKUYmj20s6uS7CDPkf4nn4M=", "properties": {"@source_uri": "https://tools.usps.com/UspsToolsRestServices/rest/POLocator/findLocations", "@spider": "usps_collection_boxes", "addr:city": "SHAMOKIN", "addr:country": "US", "addr:full": "863 W CHESTNUT ST", "addr:postcode": "17866", "addr:state": "PA", "amenity": "post_box", "brand": "United States Postal Service", "brand:wikidata": "Q668687", "collection_times": "Mo-Sa 09:15", "nsi_id": "unitedstatespostalservice-a77078", "operator": "United States Postal Service", "operator:short": "USPS", "operator:type": "public", "operator:wikidata": "Q668687", "ref": "1786600015"}, "type": "Feature"}
{"geometry": {"coordinates": [-76.5715662, 40.80414], "type": "Point"}, "id": "VsyjNhwyjpWnkk4_ZLOnm8nsulc=", "properties": {"@source_uri": "https://tools.usps.com/UspsToolsRestServices/rest/POLocator/findLocations", "@spider": "usps_collection_boxes", "addr:city": "SHAMOKIN", "addr:country": "US", "addr:full": "709 CENTER ST", "addr:postcode": "17866", "addr:state": "PA", "amenity": "post_box", "brand": "United States Postal Service", "brand:wikidata": "Q668687", "collection_times": "Mo-Sa 10:00", "nsi_id": "unitedstatespostalservice-a77078", "operator": "United States Postal Service", "operator:short": "USPS", "operator:type": "public", "operator:wikidata": "Q668687", "ref": "1786600021"}, "type": "Feature"}
{"geometry": {"coordinates": [-76.5203949, 40.789648], "type": "Point"}, "id": "Wc4EsstKjXukznMp1pyph1DWHGE=", "properties": {"@source_uri": "https://tools.usps.com/UspsToolsRestServices/rest/POLocator/findLocations", "@spider": "usps_collection_boxes", "addr:city": "SHAMOKIN", "addr:country": "US", "addr:full": "11 ANTHRA PLAZA CTR", "addr:postcode": "17866", "addr:state": "PA", "amenity": "post_box", "brand": "United States Postal Service", "brand:wikidata": "Q668687", "collection_times": "Mo-Sa 09:45", "nsi_id": "unitedstatespostalservice-a77078", "operator": "United States Postal Service", "operator:short": "USPS", "operator:type": "public", "operator:wikidata": "Q668687", "ref": "1786600026"}, "type": "Feature"}
{"geometry": {"coordinates": [-76.5677092, 40.788587], "type": "Point"}, "id": "qVoYYfWd3S3wACkT94VVEiHePxk=", "properties": {"@source_uri": "https://tools.usps.com/UspsToolsRestServices/rest/POLocator/findLocations", "@spider": "usps_collection_boxes", "addr:city": "SHAMOKIN", "addr:country": "US", "addr:full": "941 W ARCH ST", "addr:postcode": "17866", "addr:state": "PA", "amenity": "post_box", "brand": "United States Postal Service", "brand:wikidata": "Q668687", "collection_times": "Mo-Sa 11:00", "nsi_id": "unitedstatespostalservice-a77078", "operator": "United States Postal Service", "operator:short": "USPS", "operator:type": "public", "operator:wikidata": "Q668687", "ref": "1786600027"}, "type": "Feature"}
{"geometry": {"coordinates": [-76.5057733, 40.787479], "type": "Point"}, "id": "zL2pOCfRx4eVgCHlhO9DbTJlkRg=", "properties": {"@source_uri": "https://tools.usps.com/UspsToolsRestServices/rest/POLocator/findLocations", "@spider": "usps_collection_boxes", "addr:city": "SHAMOKIN", "addr:country": "US", "addr:full": "9300 STATE ROUTE 61", "addr:postcode": "17866", "addr:state": "PA", "amenity": "post_box", "brand": "United States Postal Service", "brand:wikidata": "Q668687", "collection_times": "Mo-Sa 09:30", "nsi_id": "unitedstatespostalservice-a77078", "operator": "United States Postal Service", "operator:short": "USPS", "operator:type": "public", "operator:wikidata": "Q668687", "ref": "1786600028"}, "type": "Feature"}
{"geometry": {"coordinates": [-76.6567855, 40.783855], "type": "Point"}, "id": "aiMSDaDlcX_8EIWq3cRCe6zZpHE=", "properties": {"@source_uri": "https://tools.usps.com/UspsToolsRestServices/rest/POLocator/findLocations", "@spider": "usps_collection_boxes", "addr:city": "SHAMOKIN", "addr:country": "US", "addr:full": "103 TREVORTON RD", "addr:postcode": "17866", "addr:state": "PA", "amenity": "post_box", "brand": "United States Postal Service", "brand:wikidata": "Q668687", "collection_times": "Mo-Sa 09:45", "nsi_id": "unitedstatespostalservice-a77078", "operator": "United States Postal Service", "operator:short": "USPS", "operator:type": "public", "operator:wikidata": "Q668687", "ref": "1786600029"}, "type": "Feature"}
{"geometry": {"coordinates": [-76.6289425809, 40.9572204605], "type": "Point"}, "id": "1Jzec0aJYFJTmBKS8If1BMoTxYo=", "properties": {"@source_uri": "https://tools.usps.com/UspsToolsRestServices/rest/POLocator/findLocations", "@spider": "usps_collection_boxes", "addr:city": "RIVERSIDE", "addr:country": "US", "addr:full": "390 DEWART ST", "addr:postcode": "17868", "addr:state": "PA", "amenity": "post_box", "brand": "United States Postal Service", "brand:wikidata": "Q668687", "collection_times": "Mo-Fr 16:30; Sa 11:30", "note": "ON 12/24 AND 12/31, THIS BOX MAY BE COLLECTED AS EARLY AS 12 NOON.", "nsi_id": "unitedstatespostalservice-a77078", "operator": "United States Postal Service", "operator:short": "USPS", "operator:type": "public", "operator:wikidata": "Q668687", "ref": "1786800001"}, "type": "Feature"}
{"geometry": {"coordinates": [-76.629131, 40.957203], "type": "Point"}, "id": "TG7p1tYXyQhYcpfGqoaZl2LEaw0=", "properties": {"@source_uri": "https://tools.usps.com/UspsToolsRestServices/rest/POLocator/findLocations", "@spider": "usps_collection_boxes", "addr:city": "RIVERSIDE", "addr:country": "US", "addr:full": "390 DEWART ST", "addr:postcode": "17868", "addr:state": "PA", "amenity": "post_box", "brand": "United States Postal Service", "brand:wikidata": "Q668687", "collection_times": "Mo-Fr 16:30; Sa 11:30", "indoor": "yes", "note": "ON 12/24 AND 12/31, THIS BOX MAY BE COLLECTED AS EARLY AS 12 NOON.", "nsi_id": "unitedstatespostalservice-a77078", "operator": "United States Postal Service", "operator:short": "USPS", "operator:type": "public", "operator:wikidata": "Q668687", "ref": "1786800002"}, "type": "Feature"}
{"geometry": {"coordinates": [-76.628942581, 40.95722046], "type": "Point"}, "id": "RP85yB-YXU8GgRFWKBZA8LhUJyM=", "properties": {"@source_uri": "https://tools.usps.com/UspsToolsRestServices/rest/POLocator/findLocations", "@spider": "usps_collection_boxes", "addr:city": "RIVERSIDE", "addr:country": "US", "addr:full": "390 DEWART ST", "addr:postcode": "17868", "addr:state": "PA", "amenity": "post_box", "brand": "United States Postal Service", "brand:wikidata": "Q668687", "collection_times": "Mo-Fr 16:30; Sa 11:45", "indoor": "yes", "note": "ON 12/24 AND 12/31, THIS BOX MAY BE COLLECTED AS EARLY AS 12 NOON.", "nsi_id": "unitedstatespostalservice-a77078", "operator": "United States Postal Service", "operator:short": "USPS", "operator:type": "public", "operator:wikidata": "Q668687", "ref": "1786800004"}, "type": "Feature"}
{"geometry": {"coordinates": [-76.8616484, 40.800222], "type": "Point"}, "id": "y0GG8XPrWie7E-6jbXp0dnI0MkQ=", "properties": {"@source_uri": "https://tools.usps.com/UspsToolsRestServices/rest/POLocator/findLocations", "@spider": "usps_collection_boxes", "addr:city": "SELINSGROVE", "addr:country": "US", "addr:full": "29 N MARKET ST", "addr:postcode": "17870", "addr:state": "PA", "amenity": "post_box", "brand": "United States Postal Service", "brand:wikidata": "Q668687", "collection_times": "Mo-Sa 09:15", "nsi_id": "unitedstatespostalservice-a77078", "operator": "United States Postal Service", "operator:short": "USPS", "operator:type": "public", "operator:wikidata": "Q668687", "ref": "1787000003"}, "type": "Feature"}
{"geometry": {"coordinates": [-76.8677527, 40.811219], "type": "Point"}, "id": "7nmdnD-XCReT95nSi-nI__2H0HU=", "properties": {"@source_uri": "https://tools.usps.com/UspsToolsRestServices/rest/POLocator/findLocations", "@spider": "usps_collection_boxes", "addr:city": "SELINSGROVE", "addr:country": "US", "addr:full": "119 ROUTE 204", "addr:postcode": "17870", "addr:state": "PA", "amenity": "post_box", "brand": "United States Postal Service", "brand:wikidata": "Q668687", "collection_times": "Mo-Sa 09:00", "nsi_id": "unitedstatespostalservice-a77078", "operator": "United States Postal Service", "operator:short": "USPS", "operator:type": "public", "operator:wikidata": "Q668687", "ref": "1787000015"}, "type": "Feature"}
{"geometry": {"coordinates": [-76.865126179, 40.810124141], "type": "Point"}, "id": "fXVBhUznAkeWjswE3RGito2CJqI=", "properties": {"@source_uri": "https://tools.usps.com/UspsToolsRestServices/rest/POLocator/findLocations", "@spider": "usps_collection_boxes", "addr:city": "SELINSGROVE", "addr:country": "US", "addr:full": "719 ROUTE 522", "addr:postcode": "17870", "addr:state": "PA", "amenity": "post_box", "brand": "United States Postal Service", "brand:wikidata": "Q668687", "collection_times": "Mo-Sa 10:30", "nsi_id": "unitedstatespostalservice-a77078", "operator": "United States Postal Service", "operator:short": "USPS", "operator:type": "public", "operator:wikidata": "Q668687", "ref": "1787000017"}, "type": "Feature"}
{"geometry": {"coordinates": [-76.862288, 40.798389], "type": "Point"}, "id": "7y08OPRaNRbr9T2yxvk5X0jgs78=", "properties": {"@source_uri": "https://tools.usps.com/UspsToolsRestServices/rest/POLocator/findLocations", "@spider": "usps_collection_boxes", "addr:city": "SELINSGROVE", "addr:country": "US", "addr:full": "100 S MARKET ST", "addr:postcode": "17870", "addr:state": "PA", "amenity": "post_box", "brand": "United States Postal Service", "brand:wikidata": "Q668687", "collection_times": "Mo-Fr 17:00; Sa 15:30", "note": "ON 12/24 AND 12/31, THIS BOX MAY BE COLLECTED AS EARLY AS 12 NOON.", "nsi_id": "unitedstatespostalservice-a77078", "operator": "United States Postal Service", "operator:short": "USPS", "operator:type": "public", "operator:wikidata": "Q668687", "ref": "1787000022"}, "type": "Feature"}
{"geometry": {"coordinates": [-76.862228, 40.798471], "type": "Point"}, "id": "uHjNcLZqkuSant8TJ9YWWScvEd0=", "properties": {"@source_uri": "https://tools.usps.com/UspsToolsRestServices/rest/POLocator/findLocations", "@spider": "usps_collection_boxes", "addr:city": "SELINSGROVE", "addr:country": "US", "addr:full": "100 S MARKET ST", "addr:postcode": "17870", "addr:state": "PA", "amenity": "post_box", "brand": "United States Postal Service", "brand:wikidata": "Q668687", "collection_times": "Mo-Fr 17:00; Sa 15:30", "note": "ON 12/24 AND 12/31, THIS BOX MAY BE COLLECTED AS EARLY AS 12 NOON.", "nsi_id": "unitedstatespostalservice-a77078", "operator": "United States Postal Service", "operator:short": "USPS", "operator:type": "public", "operator:wikidata": "Q668687", "ref": "1787000025"}, "type": "Feature"}
{"geometry": {"coordinates": [-76.8377713, 40.827893], "type": "Point"}, "id": "oTemH-XXdeKxzQnKnI7kdVn5ELM=", "properties": {"@source_uri": "https://tools.usps.com/UspsToolsRestServices/rest/POLocator/findLocations", "@spider": "usps_collection_boxes", "addr:city": "SELINSGROVE", "addr:country": "US", "addr:full": "21 COUNTRYSIDE VLG", "addr:postcode": "17870", "addr:state": "PA", "amenity": "post_box", "brand": "United States Postal Service", "brand:wikidata": "Q668687", "collection_times": "Mo-Sa 09:00", "nsi_id": "unitedstatespostalservice-a77078", "operator": "United States Postal Service", "operator:short": "USPS", "operator:type": "public", "operator:wikidata": "Q668687", "ref": "1787000027"}, "type": "Feature"}
{"geometry": {"coordinates": [-76.8484539, 40.824857], "type": "Point"}, "id": "Td1_5Xeos0a1yuN_hWD4sRtpmdk=", "properties": {"@source_uri": "https://tools.usps.com/UspsToolsRestServices/rest/POLocator/findLocations", "@spider": "usps_collection_boxes", "addr:city": "SELINSGROVE", "addr:country": "US", "addr:full": "1 SUSQUEHANNA VALLEY MALL DR STE A1", "addr:postcode": "17870", "addr:state": "PA", "amenity": "post_box", "brand": "United States Postal Service", "brand:wikidata": "Q668687", "collection_times": "Mo-Sa 08:45", "nsi_id": "unitedstatespostalservice-a77078", "operator": "United States Postal Service", "operator:short": "USPS", "operator:type": "public", "operator:wikidata": "Q668687", "ref": "1787000029"}, "type": "Feature"}
{"geometry": {"coordinates": [-76.8753238, 40.807443], "type": "Point"}, "id": "wW1yA1amWgq3zPAEaEuwh1Dyh-o=", "properties": {"@source_uri": "https://tools.usps.com/UspsToolsRestServices/rest/POLocator/findLocations", "@spider": "usps_collection_boxes", "addr:city": "SELINSGROVE", "addr:country": "US", "addr:full": "901 US HIGHWAY 522", "addr:postcode": "17870", "addr:state": "PA", "amenity": "post_box", "brand": "United States Postal Service", "brand:wikidata": "Q668687", "collection_times": "Mo-Sa 10:30", "nsi_id": "unitedstatespostalservice-a77078", "operator": "United States Postal Service", "operator:short": "USPS", "operator:type": "public", "operator:wikidata": "Q668687", "ref": "1787000032"}, "type": "Feature"}
{"geometry": {"coordinates": [-76.862228, 40.798471], "type": "Point"}, "id": "z8wN4_lWSkS9YzWGiu56GG_PJIk=", "properties": {"@source_uri": "https://tools.usps.com/UspsToolsRestServices/rest/POLocator/findLocations", "@spider": "usps_collection_boxes", "addr:city": "SELINSGROVE", "addr:country": "US", "addr:full": "100 S MARKET ST", "addr:postcode": "17870", "addr:state": "PA", "amenity": "post_box", "brand": "United States Postal Service", "brand:wikidata": "Q668687", "collection_times": "Mo-Fr 17:00; Sa 15:30", "indoor": "yes", "note": "ON 12/24 AND 12/31, THIS BOX MAY BE COLLECTED AS EARLY AS 12 NOON.", "nsi_id": "unitedstatespostalservice-a77078", "operator": "United States Postal Service", "operator:short": "USPS", "operator:type": "public", "operator:wikidata": "Q668687", "ref": "1787000038"}, "type": "Feature"}
{"geometry": {"coordinates": [-76.862308021, 40.798316566], "type": "Point"}, "id": "Y2W8rbPHYJ9G2BjrUh4qvSgW58I=", "properties": {"@source_uri": "https://tools.usps.com/UspsToolsRestServices/rest/POLocator/findLocations", "@spider": "usps_collection_boxes", "addr:city": "SELINSGROVE", "addr:country": "US", "addr:full": "100 S MARKET ST", "addr:postcode": "17870", "addr:state": "PA", "amenity": "post_box", "brand": "United States Postal Service", "brand:wikidata": "Q668687", "collection_times": "Mo-Fr 16:45; Sa 11:45", "indoor": "yes", "note": "ON 12/24 AND 12/31, THIS BOX MAY BE COLLECTED AS EARLY AS 12 NOON.", "nsi_id": "unitedstatespostalservice-a77078", "operator": "United States Postal Service", "operator:short": "USPS", "operator:type": "public", "operator:wikidata": "Q668687", "ref": "1787000047"}, "type": "Feature"}
{"geometry": {"coordinates": [-76.5557711, 40.788792], "type": "Point"}, "id": "BQ5nrrYPFjJu4rl1FJznYdke7Bs=", "properties": {"@source_uri": "https://tools.usps.com/UspsToolsRestServices/rest/POLocator/findLocations", "@spider": "usps_collection_boxes", "addr:city": "SHAMOKIN", "addr:country": "US", "addr:full": "2 E ARCH ST", "addr:postcode": "17872", "addr:state": "PA", "amenity": "post_box", "brand": "United States Postal Service", "brand:wikidata": "Q668687", "collection_times": "Mo-Sa 12:30", "note": "ON 12/24 AND 12/31, THIS BOX MAY BE COLLECTED AS EARLY AS 12 NOON.", "nsi_id": "unitedstatespostalservice-a77078", "operator": "United States Postal Service", "operator:short": "USPS", "operator:type": "public", "operator:wikidata": "Q668687", "ref": "1787200018"}, "type": "Feature"}
{"geometry": {"coordinates": [-76.5637804, 40.78522], "type": "Point"}, "id": "7E2hXYw_UUwjyvCwe7BmJ5mOr0g=", "properties": {"@source_uri": "https://tools.usps.com/UspsToolsRestServices/rest/POLocator/findLocations", "@spider": "usps_collection_boxes", "addr:city": "SHAMOKIN", "addr:country": "US", "addr:full": "634 W PINE ST", "addr:postcode": "17872", "addr:state": "PA", "amenity": "post_box", "brand": "United States Postal Service", "brand:wikidata": "Q668687", "collection_times": "Mo-Sa 09:15", "nsi_id": "unitedstatespostalservice-a77078", "operator": "United States Postal Service", "operator:short": "USPS", "operator:type": "public", "operator:wikidata": "Q668687", "ref": "1787200026"}, "type": "Feature"}
{"geometry": {"coordinates": [-76.5601911, 40.78536], "type": "Point"}, "id": "WdGJSoA9FohIhj1DPu11ZOQ6Zhw=", "properties": {"@source_uri": "https://tools.usps.com/UspsToolsRestServices/rest/POLocator/findLocations", "@spider": "usps_collection_boxes", "addr:city": "SHAMOKIN", "addr:country": "US", "addr:full": "300 W PINE ST", "addr:postcode": "17872", "addr:state": "PA", "amenity": "post_box", "brand": "United States Postal Service", "brand:wikidata": "Q668687", "collection_times": "Mo-Sa 11:00", "nsi_id": "unitedstatespostalservice-a77078", "operator": "United States Postal Service", "operator:short": "USPS", "operator:type": "public", "operator:wikidata": "Q668687", "ref": "1787200027"}, "type": "Feature"}
{"geometry": {"coordinates": [-76.5570036967, 40.7912807245], "type": "Point"}, "id": "pSLT5QSH7Es42mNC7kVBMADtTgE=", "properties": {"@source_uri": "https://tools.usps.com/UspsToolsRestServices/rest/POLocator/findLocations", "@spider": "usps_collection_boxes", "addr:city": "SHAMOKIN", "addr:country": "US", "addr:full": "1 E INDEPENDENCE ST", "addr:postcode": "17872", "addr:state": "PA", "amenity": "post_box", "brand": "United States Postal Service", "brand:wikidata": "Q668687", "collection_times": "Mo-Sa 09:30", "nsi_id": "unitedstatespostalservice-a77078", "operator": "United States Postal Service", "operator:short": "USPS", "operator:type": "public", "operator:wikidata": "Q668687", "ref": "1787200032"}, "type": "Feature"}
{"geometry": {"coordinates": [-76.5586394, 40.790705], "type": "Point"}, "id": "2S19WLQOd1nYEj9O1p4rj9LlCAM=", "properties": {"@source_uri": "https://tools.usps.com/UspsToolsRestServices/rest/POLocator/findLocations", "@spider": "usps_collection_boxes", "addr:city": "SHAMOKIN", "addr:country": "US", "addr:full": "117 W INDEPENDENCE ST", "addr:postcode": "17872", "addr:state": "PA", "amenity": "post_box", "brand": "United States Postal Service", "brand:wikidata": "Q668687", "collection_times": "Mo-Sa 09:30", "nsi_id": "unitedstatespostalservice-a77078", "operator": "United States Postal Service", "operator:short": "USPS", "operator:type": "public", "operator:wikidata": "Q668687", "ref": "1787200033"}, "type": "Feature"}
{"geometry": {"coordinates": [-76.5610903, 40.790336], "type": "Point"}, "id": "oFrynlan5o_iutpvm9S1RAKb0c0=", "properties": {"@source_uri": "https://tools.usps.com/UspsToolsRestServices/rest/POLocator/findLocations", "@spider": "usps_collection_boxes", "addr:city": "SHAMOKIN", "addr:country": "US", "addr:full": "339 W WALNUT ST", "addr:postcode": "17872", "addr:state": "PA", "amenity": "post_box", "brand": "United States Postal Service", "brand:wikidata": "Q668687", "collection_times": "Mo-Sa 10:00", "nsi_id": "unitedstatespostalservice-a77078", "operator": "United States Postal Service", "operator:short": "USPS", "operator:type": "public", "operator:wikidata": "Q668687", "ref": "1787200034"}, "type": "Feature"}
{"geometry": {"coordinates": [-76.5640922, 40.789617], "type": "Point"}, "id": "XORXMrx5EEJym20pSHqh3KW5N54=", "properties": {"@source_uri": "https://tools.usps.com/UspsToolsRestServices/rest/POLocator/findLocations", "@spider": "usps_collection_boxes", "addr:city": "SHAMOKIN", "addr:country": "US", "addr:full": "521 N 2ND ST", "addr:postcode": "17872", "addr:state": "PA", "amenity": "post_box", "brand": "United States Postal Service", "brand:wikidata": "Q668687", "collection_times": "Mo-Sa 10:30", "nsi_id": "unitedstatespostalservice-a77078", "operator": "United States Postal Service", "operator:short": "USPS", "operator:type": "public", "operator:wikidata": "Q668687", "ref": "1787200035"}, "type": "Feature"}
{"geometry": {"coordinates": [-76.5588595, 40.787513], "type": "Point"}, "id": "m8W5WTGzWL1-6DoxvSdjo05Li-U=", "properties": {"@source_uri": "https://tools.usps.com/UspsToolsRestServices/rest/POLocator/findLocations", "@spider": "usps_collection_boxes", "addr:city": "SHAMOKIN", "addr:country": "US", "addr:full": "10 S MARKET ST", "addr:postcode": "17872", "addr:state": "PA", "amenity": "post_box", "brand": "United States Postal Service", "brand:wikidata": "Q668687", "collection_times": "Mo-Sa 09:30", "nsi_id": "unitedstatespostalservice-a77078", "operator": "United States Postal Service", "operator:short": "USPS", "operator:type": "public", "operator:wikidata": "Q668687", "ref": "1787200036"}, "type": "Feature"}
{"geometry": {"coordinates": [-76.553607, 40.792008], "type": "Point"}, "id": "kLLAk79nEHBfuEufwu1RhNX35gk=", "properties": {"@source_uri": "https://tools.usps.com/UspsToolsRestServices/rest/POLocator/findLocations", "@spider": "usps_collection_boxes", "addr:city": "SHAMOKIN", "addr:country": "US", "addr:full": "201 E INDEPENDENCE ST", "addr:postcode": "17872", "addr:state": "PA", "amenity": "post_box", "brand": "United States Postal Service", "brand:wikidata": "Q668687", "collection_times": "Mo-Fr 17:15; Sa 16:00", "note": "ON 12/24 AND 12/31, THIS BOX MAY BE COLLECTED AS EARLY AS 12 NOON.", "nsi_id": "unitedstatespostalservice-a77078", "operator": "United States Postal Service", "operator:short": "USPS", "operator:type": "public", "operator:wikidata": "Q668687", "ref": "1787200038"}, "type": "Feature"}
{"geometry": {"coordinates": [-76.553727, 40.791984], "type": "Point"}, "id": "NuCZmd4GCNtoXCmb2LoBwbKauZQ=", "properties": {"@source_uri": "https://tools.usps.com/UspsToolsRestServices/rest/POLocator/findLocations", "@spider": "usps_collection_boxes", "addr:city": "SHAMOKIN", "addr:country": "US", "addr:full": "201 E INDEPENDENCE ST", "addr:postcode": "17872", "addr:state": "PA", "amenity": "post_box", "brand": "United States Postal Service", "brand:wikidata": "Q668687", "collection_times": "Mo-Fr 17:15; Sa 16:00", "name": "USPS COLLECTION BOX - EXPRESS", "note": "ON 12/24 AND 12/31, THIS BOX MAY BE COLLECTED AS EARLY AS 12 NOON.", "nsi_id": "unitedstatespostalservice-a77078", "operator": "United States Postal Service", "operator:short": "USPS", "operator:type": "public", "operator:wikidata": "Q668687", "ref": "1787200039"}, "type": "Feature"}
{"geometry": {"coordinates": [-76.5587919, 40.786701], "type": "Point"}, "id": "EmwJ832PM_QKHC4nNAWlgrqsrNI=", "properties": {"@source_uri": "https://tools.usps.com/UspsToolsRestServices/rest/POLocator/findLocations", "@spider": "usps_collection_boxes", "addr:city": "SHAMOKIN", "addr:country": "US", "addr:full": "52 S MARKET ST", "addr:postcode": "17872", "addr:state": "PA", "amenity": "post_box", "brand": "United States Postal Service", "brand:wikidata": "Q668687", "collection_times": "Mo-Sa 09:30", "nsi_id": "unitedstatespostalservice-a77078", "operator": "United States Postal Service", "operator:short": "USPS", "operator:type": "public", "operator:wikidata": "Q668687", "ref": "1787200043"}, "type": "Feature"}
{"geometry": {"coordinates": [-76.553727, 40.791984], "type": "Point"}, "id": "HMVkYEd3cF0AILa884xoRyWc2i4=", "properties": {"@source_uri": "https://tools.usps.com/UspsToolsRestServices/rest/POLocator/findLocations", "@spider": "usps_collection_boxes", "addr:city": "SHAMOKIN", "addr:country": "US", "addr:full": "201 E INDEPENDENCE ST", "addr:postcode": "17872", "addr:state": "PA", "amenity": "post_box", "brand": "United States Postal Service", "brand:wikidata": "Q668687", "collection_times": "Mo-Fr 17:15; Sa 16:00", "indoor": "yes", "note": "ON 12/24 AND 12/31, THIS BOX MAY BE COLLECTED AS EARLY AS 12 NOON.", "nsi_id": "unitedstatespostalservice-a77078", "operator": "United States Postal Service", "operator:short": "USPS", "operator:type": "public", "operator:wikidata": "Q668687", "ref": "1787200044"}, "type": "Feature"}
{"geometry": {"coordinates": [-76.553652993, 40.792051911], "type": "Point"}, "id": "ixQtcja6j3AIRRypaiyR28NwM8Q=", "properties": {"@source_uri": "https://tools.usps.com/UspsToolsRestServices/rest/POLocator/findLocations", "@spider": "usps_collection_boxes", "addr:city": "SHAMOKIN", "addr:country": "US", "addr:full": "201 E INDEPENDENCE ST", "addr:postcode": "17872", "addr:state": "PA", "amenity": "post_box", "brand": "United States Postal Service", "brand:wikidata": "Q668687", "collection_times": "Mo-Fr 16:45; Sa 12:15", "indoor": "yes", "note": "ON 12/24 AND 12/31, THIS BOX MAY BE COLLECTED AS EARLY AS 12 NOON.", "nsi_id": "unitedstatespostalservice-a77078", "operator": "United States Postal Service", "operator:short": "USPS", "operator:type": "public", "operator:wikidata": "Q668687", "ref": "1787200049"}, "type": "Feature"}
{"geometry": {"coordinates": [-76.8215, 40.847039], "type": "Point"}, "id": "MwXN0CN0YyLOdGZnbD2MscJUqhQ=", "properties": {"@source_uri": "https://tools.usps.com/UspsToolsRestServices/rest/POLocator/findLocations", "@spider": "usps_collection_boxes", "addr:city": "SHAMOKIN DAM", "addr:country": "US", "addr:full": "3054 N SUSQUEHANNA TRL", "addr:postcode": "17876", "addr:state": "PA", "amenity": "post_box", "brand": "United States Postal Service", "brand:wikidata": "Q668687", "collection_times": "Mo-Fr 16:00; Sa 11:00", "note": "ON 12/24 AND 12/31, THIS BOX MAY BE COLLECTED AS EARLY AS 12 NOON.", "nsi_id": "unitedstatespostalservice-a77078", "operator": "United States Postal Service", "operator:short": "USPS", "operator:type": "public", "operator:wikidata": "Q668687", "ref": "1787600002"}, "type": "Feature"}
{"geometry": {"coordinates": [-76.82156, 40.847025], "type": "Point"}, "id": "vE5PmqOprgAwYA39YeIS9R69bvs=", "properties": {"@source_uri": "https://tools.usps.com/UspsToolsRestServices/rest/POLocator/findLocations", "@spider": "usps_collection_boxes", "addr:city": "SHAMOKIN DAM", "addr:country": "US", "addr:full": "3054 N SUSQUEHANNA TRL", "addr:postcode": "17876", "addr:state": "PA", "amenity": "post_box", "brand": "United States Postal Service", "brand:wikidata": "Q668687", "collection_times": "Mo-Fr 16:00; Sa 11:00", "indoor": "yes", "note": "ON 12/24 AND 12/31, THIS BOX MAY BE COLLECTED AS EARLY AS 12 NOON.", "nsi_id": "unitedstatespostalservice-a77078", "operator": "United States Postal Service", "operator:short": "USPS", "operator:type": "public", "operator:wikidata": "Q668687", "ref": "1787600003"}, "type": "Feature"}
{"geometry": {"coordinates": [-76.82148994, 40.847051882], "type": "Point"}, "id": "fx0v2GTBbGR9GFeY6aj7xEmZnMI=", "properties": {"@source_uri": "https://tools.usps.com/UspsToolsRestServices/rest/POLocator/findLocations", "@spider": "usps_collection_boxes", "addr:city": "SHAMOKIN DAM", "addr:country": "US", "addr:full": "3054 N SUSQUEHANNA TRL", "addr:postcode": "17876", "addr:state": "PA", "amenity": "post_box", "brand": "United States Postal Service", "brand:wikidata": "Q668687", "collection_times": "Mo-Fr 16:00; Sa 11:30", "indoor": "yes", "note": "ON 12/24 AND 12/31, THIS BOX MAY BE COLLECTED AS EARLY AS 12 NOON.", "nsi_id": "unitedstatespostalservice-a77078", "operator": "United States Postal Service", "operator:short": "USPS", "operator:type": "public", "operator:wikidata": "Q668687", "ref": "1787600010"}, "type": "Feature"}
{"geometry": {"coordinates": [-76.6715739, 40.781295], "type": "Point"}, "id": "PlOiCPWdSGhWxolR-oDaG2hJDZU=", "properties": {"@source_uri": "https://tools.usps.com/UspsToolsRestServices/rest/POLocator/findLocations", "@spider": "usps_collection_boxes", "addr:city": "TREVORTON", "addr:country": "US", "addr:full": "331 W SHAMOKIN ST", "addr:postcode": "17881", "addr:state": "PA", "amenity": "post_box", "brand": "United States Postal Service", "brand:wikidata": "Q668687", "collection_times": "Mo-Sa 09:30", "nsi_id": "unitedstatespostalservice-a77078", "operator": "United States Postal Service", "operator:short": "USPS", "operator:type": "public", "operator:wikidata": "Q668687", "ref": "1788100001"}, "type": "Feature"}
{"geometry": {"coordinates": [-76.6777159, 40.780242], "type": "Point"}, "id": "2EOD3Fn-SrPf0nL4dMMc93YQKs4=", "properties": {"@source_uri": "https://tools.usps.com/UspsToolsRestServices/rest/POLocator/findLocations", "@spider": "usps_collection_boxes", "addr:city": "TREVORTON", "addr:country": "US", "addr:full": "801 W SHAMOKIN ST", "addr:postcode": "17881", "addr:state": "PA", "amenity": "post_box", "brand": "United States Postal Service", "brand:wikidata": "Q668687", "collection_times": "Mo-Fr 16:00; Sa 14:00", "note": "ON 12/24 AND 12/31, THIS BOX MAY BE COLLECTED AS EARLY AS 12 NOON.", "nsi_id": "unitedstatespostalservice-a77078", "operator": "United States Postal Service", "operator:short": "USPS", "operator:type": "public", "operator:wikidata": "Q668687", "ref": "1788100005"}, "type": "Feature"}
{"geometry": {"coordinates": [-76.677545, 40.780332], "type": "Point"}, "id": "OsinZAUh9-W1NST8YgQn365MV5Y=", "properties": {"@source_uri": "https://tools.usps.com/UspsToolsRestServices/rest/POLocator/findLocations", "@spider": "usps_collection_boxes", "addr:city": "TREVORTON", "addr:country": "US", "addr:full": "801 W SHAMOKIN ST", "addr:postcode": "17881", "addr:state": "PA", "amenity": "post_box", "brand": "United States Postal Service", "brand:wikidata": "Q668687", "collection_times": "Mo-Fr 16:00; Sa 10:00", "indoor": "yes", "note": "ON 12/24 AND 12/31, THIS BOX MAY BE COLLECTED AS EARLY AS 12 NOON.", "nsi_id": "unitedstatespostalservice-a77078", "operator": "United States Postal Service", "operator:short": "USPS", "operator:type": "public", "operator:wikidata": "Q668687", "ref": "1788100007"}, "type": "Feature"}
{"geometry": {"coordinates": [-76.677745322, 40.780199231], "type": "Point"}, "id": "RWVY7uM7YBfW2d1dEXPxoJZ03pg=", "properties": {"@source_uri": "https://tools.usps.com/UspsToolsRestServices/rest/POLocator/findLocations", "@spider": "usps_collection_boxes", "addr:city": "TREVORTON", "addr:country": "US", "addr:full": "801 W SHAMOKIN ST LOWR", "addr:postcode": "17881", "addr:state": "PA", "amenity": "post_box", "brand": "United States Postal Service", "brand:wikidata": "Q668687", "collection_times": "Mo-Fr 17:00; Sa 16:15", "indoor": "yes", "note": "ON 12/24 AND 12/31, THIS BOX MAY BE COLLECTED AS EARLY AS 12 NOON.", "nsi_id": "unitedstatespostalservice-a77078", "operator": "United States Postal Service", "operator:short": "USPS", "operator:type": "public", "operator:wikidata": "Q668687", "ref": "1788100009"}, "type": "Feature"}
{"geometry": {"coordinates": [-77.201779, 40.805323], "type": "Point"}, "id": "Awpq3o-XmH6ufDUzJwsgJGyNIow=", "properties": {"@source_uri": "https://tools.usps.com/UspsToolsRestServices/rest/POLocator/findLocations", "@spider": "usps_collection_boxes", "addr:city": "TROXELVILLE", "addr:country": "US", "addr:full": "8891 ROUTE 235", "addr:postcode": "17882", "addr:state": "PA", "amenity": "post_box", "brand": "United States Postal Service", "brand:wikidata": "Q668687", "collection_times": "Mo-Fr 16:15; Sa 11:45", "note": "ON 12/24 AND 12/31, THIS BOX MAY BE COLLECTED AS EARLY AS 12 NOON.", "nsi_id": "unitedstatespostalservice-a77078", "operator": "United States Postal Service", "operator:short": "USPS", "operator:type": "public", "operator:wikidata": "Q668687", "ref": "1788200001"}, "type": "Feature"}
{"geometry": {"coordinates": [-77.20186803, 40.805281606], "type": "Point"}, "id": "RfmOpADc0nsiHJ62EIlAw-boIdE=", "properties": {"@source_uri": "https://tools.usps.com/UspsToolsRestServices/rest/POLocator/findLocations", "@spider": "usps_collection_boxes", "addr:city": "TROXELVILLE", "addr:country": "US", "addr:full": "8891 ROUTE 235", "addr:postcode": "17882", "addr:state": "PA", "amenity": "post_box", "brand": "United States Postal Service", "brand:wikidata": "Q668687", "collection_times": "Mo-Fr 16:15; Sa 12:00", "indoor": "yes", "note": "ON 12/24 AND 12/31, THIS BOX MAY BE COLLECTED AS EARLY AS 12 NOON.", "nsi_id": "unitedstatespostalservice-a77078", "operator": "United States Postal Service", "operator:short": "USPS", "operator:type": "public", "operator:wikidata": "Q668687", "ref": "1788200003"}, "type": "Feature"}
{"geometry": {"coordinates": [-76.676173, 41.052026], "type": "Point"}, "id": "0bQGGqJ6iW9bUabVZcne-Ot_juc=", "properties": {"@source_uri": "https://tools.usps.com/UspsToolsRestServices/rest/POLocator/findLocations", "@spider": "usps_collection_boxes", "addr:city": "WASHINGTONVILLE", "addr:country": "US", "addr:full": "19 WATER ST", "addr:postcode": "17884", "addr:state": "PA", "amenity": "post_box", "brand": "United States Postal Service", "brand:wikidata": "Q668687", "collection_times": "Mo-Fr 16:00; Sa 11:00", "note": "ON 12/24 AND 12/31, THIS BOX MAY BE COLLECTED AS EARLY AS 12 NOON.", "nsi_id": "unitedstatespostalservice-a77078", "operator": "United States Postal Service", "operator:short": "USPS", "operator:type": "public", "operator:wikidata": "Q668687", "ref": "1788400001"}, "type": "Feature"}
{"geometry": {"coordinates": [-76.676149, 41.052062], "type": "Point"}, "id": "vF6y-bx3Y2Mhezca2ortoBIXE68=", "properties": {"@source_uri": "https://tools.usps.com/UspsToolsRestServices/rest/POLocator/findLocations", "@spider": "usps_collection_boxes", "addr:city": "WASHINGTONVILLE", "addr:country": "US", "addr:full": "19 WATER ST", "addr:postcode": "17884", "addr:state": "PA", "amenity": "post_box", "brand": "United States Postal Service", "brand:wikidata": "Q668687", "collection_times": "Mo-Fr 16:00; Sa 11:00", "indoor": "yes", "note": "ON 12/24 AND 12/31, THIS BOX MAY BE COLLECTED AS EARLY AS 12 NOON.", "nsi_id": "unitedstatespostalservice-a77078", "operator": "United States Postal Service", "operator:short": "USPS", "operator:type": "public", "operator:wikidata": "Q668687", "ref": "1788400002"}, "type": "Feature"}
{"geometry": {"coordinates": [-76.676183862, 41.052055003], "type": "Point"}, "id": "onV9aAsbNX0VhrvxyNOikcDCcpQ=", "properties": {"@source_uri": "https://tools.usps.com/UspsToolsRestServices/rest/POLocator/findLocations", "@spider": "usps_collection_boxes", "addr:city": "WASHINGTONVILLE", "addr:country": "US", "addr:full": "19 WATER ST", "addr:postcode": "17884", "addr:state": "PA", "amenity": "post_box", "brand": "United States Postal Service", "brand:wikidata": "Q668687", "collection_times": "Mo-Fr 16:00; Sa 11:30", "indoor": "yes", "note": "ON 12/24 AND 12/31, THIS BOX MAY BE COLLECTED AS EARLY AS 12 NOON.", "nsi_id": "unitedstatespostalservice-a77078", "operator": "United States Postal Service", "operator:short": "USPS", "operator:type": "public", "operator:wikidata": "Q668687", "ref": "1788400004"}, "type": "Feature"}
{"geometry": {"coordinates": [-77.296524, 40.858165], "type": "Point"}, "id": "6OFqBTSFvFa2_-9lToCMW6q0EIg=", "properties": {"@source_uri": "https://tools.usps.com/UspsToolsRestServices/rest/POLocator/findLocations", "@spider": "usps_collection_boxes", "addr:city": "WEIKERT", "addr:country": "US", "addr:full": "5580 WEIKERT RD", "addr:postcode": "17885", "addr:state": "PA", "amenity": "post_box", "brand": "United States Postal Service", "brand:wikidata": "Q668687", "collection_times": "Mo-Fr 15:45; Sa 11:45", "note": "ON 12/24 AND 12/31, THIS BOX MAY BE COLLECTED AS EARLY AS 12 NOON.", "nsi_id": "unitedstatespostalservice-a77078", "operator": "United States Postal Service", "operator:short": "USPS", "operator:type": "public", "operator:wikidata": "Q668687", "ref": "1788500000"}, "type": "Feature"}
{"geometry": {"coordinates": [-77.295866, 40.858614], "type": "Point"}, "id": "JK5SUlwR16PUBQz4jIk5TzSW1Po=", "properties": {"@source_uri": "https://tools.usps.com/UspsToolsRestServices/rest/POLocator/findLocations", "@spider": "usps_collection_boxes", "addr:city": "WEIKERT", "addr:country": "US", "addr:full": "5540 WEIKERT RD", "addr:postcode": "17885", "addr:state": "PA", "amenity": "post_box", "brand": "United States Postal Service", "brand:wikidata": "Q668687", "collection_times": "Mo-Fr 15:45; Sa 11:45", "indoor": "yes", "note": "ON 12/24 AND 12/31, THIS BOX MAY BE COLLECTED AS EARLY AS 12 NOON.", "nsi_id": "unitedstatespostalservice-a77078", "operator": "United States Postal Service", "operator:short": "USPS", "operator:type": "public", "operator:wikidata": "Q668687", "ref": "1788500001"}, "type": "Feature"}
{"geometry": {"coordinates": [-77.295600999, 40.85876571], "type": "Point"}, "id": "dhMZqWBF9XzO1wwCS3NP50-xujI=", "properties": {"@source_uri": "https://tools.usps.com/UspsToolsRestServices/rest/POLocator/findLocations", "@spider": "usps_collection_boxes", "addr:city": "WEIKERT", "addr:country": "US", "addr:full": "5540 WEIKERT RD", "addr:postcode": "17885", "addr:state": "PA", "amenity": "post_box", "brand": "United States Postal Service", "brand:wikidata": "Q668687", "collection_times": "Mo-Fr 15:45; Sa 11:45", "indoor": "yes", "note": "ON 12/24 AND 12/31, THIS BOX MAY BE COLLECTED AS EARLY AS 12 NOON.", "nsi_id": "unitedstatespostalservice-a77078", "operator": "United States Postal Service", "operator:short": "USPS", "operator:type": "public", "operator:wikidata": "Q668687", "ref": "1788500003"}, "type": "Feature"}
{"geometry": {"coordinates": [-76.870619, 41.019208], "type": "Point"}, "id": "1x16MB3ZI1zxlbAbun9JxXTwB_8=", "properties": {"@source_uri": "https://tools.usps.com/UspsToolsRestServices/rest/POLocator/findLocations", "@spider": "usps_collection_boxes", "addr:city": "WEST MILTON", "addr:country": "US", "addr:full": "505 BROAD ST", "addr:postcode": "17886", "addr:state": "PA", "amenity": "post_box", "brand": "United States Postal Service", "brand:wikidata": "Q668687", "collection_times": "Mo-Fr 16:15; Sa 11:45", "note": "ON 12/24 AND 12/31, THIS BOX MAY BE COLLECTED AS EARLY AS 12 NOON.", "nsi_id": "unitedstatespostalservice-a77078", "operator": "United States Postal Service", "operator:short": "USPS", "operator:type": "public", "operator:wikidata": "Q668687", "ref": "1788600001"}, "type": "Feature"}
{"geometry": {"coordinates": [-76.870518, 41.019153], "type": "Point"}, "id": "UQ4JhwYX-RK-qmZ7FR72jOvVgAI=", "properties": {"@source_uri": "https://tools.usps.com/UspsToolsRestServices/rest/POLocator/findLocations", "@spider": "usps_collection_boxes", "addr:city": "WEST MILTON", "addr:country": "US", "addr:full": "505 BROAD ST", "addr:postcode": "17886", "addr:state": "PA", "amenity": "post_box", "brand": "United States Postal Service", "brand:wikidata": "Q668687", "collection_times": "Mo-Fr 16:15; Sa 11:45", "note": "ON 12/24 AND 12/31, THIS BOX MAY BE COLLECTED AS EARLY AS 12 NOON.", "nsi_id": "unitedstatespostalservice-a77078", "operator": "United States Postal Service", "operator:short": "USPS", "operator:type": "public", "operator:wikidata": "Q668687", "ref": "1788600002"}, "type": "Feature"}
{"geometry": {"coordinates": [-76.870518, 41.019153], "type": "Point"}, "id": "nZoOJtnBwTivv6Pa0E-pBDFKyUA=", "properties": {"@source_uri": "https://tools.usps.com/UspsToolsRestServices/rest/POLocator/findLocations", "@spider": "usps_collection_boxes", "addr:city": "WEST MILTON", "addr:country": "US", "addr:full": "505 BROAD ST", "addr:postcode": "17886", "addr:state": "PA", "amenity": "post_box", "brand": "United States Postal Service", "brand:wikidata": "Q668687", "collection_times": "Mo-Fr 16:15; Sa 11:45", "indoor": "yes", "note": "ON 12/24 AND 12/31, THIS BOX MAY BE COLLECTED AS EARLY AS 12 NOON.", "nsi_id": "unitedstatespostalservice-a77078", "operator": "United States Postal Service", "operator:short": "USPS", "operator:type": "public", "operator:wikidata": "Q668687", "ref": "1788600003"}, "type": "Feature"}
{"geometry": {"coordinates": [-76.870565262, 41.019183983], "type": "Point"}, "id": "XXK9mxF5oDAshEcBHWV1VRUU1YU=", "properties": {"@source_uri": "https://tools.usps.com/UspsToolsRestServices/rest/POLocator/findLocations", "@spider": "usps_collection_boxes", "addr:city": "WEST MILTON", "addr:country": "US", "addr:full": "505 BROAD ST", "addr:postcode": "17886", "addr:state": "PA", "amenity": "post_box", "brand": "United States Postal Service", "brand:wikidata": "Q668687", "collection_times": "Mo-Fr 16:35; Sa 12:05", "indoor": "yes", "note": "ON 12/24 AND 12/31, THIS BOX MAY BE COLLECTED AS EARLY AS 12 NOON.", "nsi_id": "unitedstatespostalservice-a77078", "operator": "United States Postal Service", "operator:short": "USPS", "operator:type": "public", "operator:wikidata": "Q668687", "ref": "1788600007"}, "type": "Feature"}
{"geometry": {"coordinates": [-76.876135, 41.075919], "type": "Point"}, "id": "SsydcfWs8wQwt9gaOV7EpIQQARY=", "properties": {"@source_uri": "https://tools.usps.com/UspsToolsRestServices/rest/POLocator/findLocations", "@spider": "usps_collection_boxes", "addr:city": "WHITE DEER", "addr:country": "US", "addr:full": "601 WHITE DEER PIKE", "addr:postcode": "17887", "addr:state": "PA", "amenity": "post_box", "brand": "United States Postal Service", "brand:wikidata": "Q668687", "collection_times": "Mo-Fr 16:30; Sa 11:00", "note": "ON 12/24 AND 12/31, THIS BOX MAY BE COLLECTED AS EARLY AS 12 NOON.", "nsi_id": "unitedstatespostalservice-a77078", "operator": "United States Postal Service", "operator:short": "USPS", "operator:type": "public", "operator:wikidata": "Q668687", "ref": "1788700001"}, "type": "Feature"}
{"geometry": {"coordinates": [-76.876018, 41.075952], "type": "Point"}, "id": "tFvk_W2eoCW5HD1ypW1csbB6tlM=", "properties": {"@source_uri": "https://tools.usps.com/UspsToolsRestServices/rest/POLocator/findLocations", "@spider": "usps_collection_boxes", "addr:city": "WHITE DEER", "addr:country": "US", "addr:full": "601 WHITE DEER PIKE", "addr:postcode": "17887", "addr:state": "PA", "amenity": "post_box", "brand": "United States Postal Service", "brand:wikidata": "Q668687", "collection_times": "Mo-Fr 16:30; Sa 11:00", "indoor": "yes", "note": "ON 12/24 AND 12/31, THIS BOX MAY BE COLLECTED AS EARLY AS 12 NOON.", "nsi_id": "unitedstatespostalservice-a77078", "operator": "United States Postal Service", "operator:short": "USPS", "operator:type": "public", "operator:wikidata": "Q668687", "ref": "1788700002"}, "type": "Feature"}
{"geometry": {"coordinates": [-76.87604205, 41.075915565], "type": "Point"}, "id": "O6sDKzfP9efyxvng3MJM5sR64nY=", "properties": {"@source_uri": "https://tools.usps.com/UspsToolsRestServices/rest/POLocator/findLocations", "@spider": "usps_collection_boxes", "addr:city": "WHITE DEER", "addr:country": "US", "addr:full": "601 WHITE DEER PIKE", "addr:postcode": "17887", "addr:state": "PA", "amenity": "post_box", "brand": "United States Postal Service", "brand:wikidata": "Q668687", "collection_times": "Mo-Fr 16:05; Sa 12:05", "indoor": "yes", "note": "ON 12/24 AND 12/31, THIS BOX MAY BE COLLECTED AS EARLY AS 12 NOON.", "nsi_id": "unitedstatespostalservice-a77078", "operator": "United States Postal Service", "operator:short": "USPS", "operator:type": "public", "operator:wikidata": "Q668687", "ref": "1788700004"}, "type": "Feature"}
{"geometry": {"coordinates": [-76.391978993, 40.812873549], "type": "Point"}, "id": "gj7WmrNhL3LJJa0DwNKdDjM04Ac=", "properties": {"@source_uri": "https://tools.usps.com/UspsToolsRestServices/rest/POLocator/findLocations", "@spider": "usps_collection_boxes", "addr:city": "WILBURTON", "addr:country": "US", "addr:full": "107 SMITH ST", "addr:postcode": "17888", "addr:state": "PA", "amenity": "post_box", "brand": "United States Postal Service", "brand:wikidata": "Q668687", "collection_times": "Mo-Fr 16:00; Sa 11:15", "note": "ON 12/24 AND 12/31, THIS BOX MAY BE COLLECTED AS EARLY AS 12 NOON.", "nsi_id": "unitedstatespostalservice-a77078", "operator": "United States Postal Service", "operator:short": "USPS", "operator:type": "public", "operator:wikidata": "Q668687", "ref": "1788800001"}, "type": "Feature"}
{"geometry": {"coordinates": [-76.391978993, 40.812873549], "type": "Point"}, "id": "vg_u_uf0tIJ9pwsUHkgZpIG4ze8=", "properties": {"@source_uri": "https://tools.usps.com/UspsToolsRestServices/rest/POLocator/findLocations", "@spider": "usps_collection_boxes", "addr:city": "WILBURTON", "addr:country": "US", "addr:full": "107 SMITH ST", "addr:postcode": "17888", "addr:state": "PA", "amenity": "post_box", "brand": "United States Postal Service", "brand:wikidata": "Q668687", "collection_times": "Mo-Fr 16:00; Sa 11:15", "indoor": "yes", "note": "ON 12/24 AND 12/31, THIS BOX MAY BE COLLECTED AS EARLY AS 12 NOON.", "nsi_id": "unitedstatespostalservice-a77078", "operator": "United States Postal Service", "operator:short": "USPS", "operator:type": "public", "operator:wikidata": "Q668687", "ref": "1788800002"}, "type": "Feature"}
{"geometry": {"coordinates": [-76.391978993, 40.812873549], "type": "Point"}, "id": "HpwAuQNsGDz39wdSAu8Bn9bZHcs=", "properties": {"@source_uri": "https://tools.usps.com/UspsToolsRestServices/rest/POLocator/findLocations", "@spider": "usps_collection_boxes", "addr:city": "WILBURTON", "addr:country": "US", "addr:full": "107 SMITH ST", "addr:postcode": "17888", "addr:state": "PA", "amenity": "post_box", "brand": "United States Postal Service", "brand:wikidata": "Q668687", "collection_times": "Mo-Fr 15:45; Sa 12:00", "indoor": "yes", "note": "ON 12/24 AND 12/31, THIS BOX MAY BE COLLECTED AS EARLY AS 12 NOON.", "nsi_id": "unitedstatespostalservice-a77078", "operator": "United States Postal Service", "operator:short": "USPS", "operator:type": "public", "operator:wikidata": "Q668687", "ref": "1788800004"}, "type": "Feature"}
{"geometry": {"coordinates": [-76.8566098, 40.903497], "type": "Point"}, "id": "PSJI-hXxCXwCTrXkeYavH0DpB1c=", "properties": {"@source_uri": "https://tools.usps.com/UspsToolsRestServices/rest/POLocator/findLocations", "@spider": "usps_collection_boxes", "addr:city": "WINFIELD", "addr:country": "US", "addr:full": "477 PARK RD", "addr:postcode": "17889", "addr:state": "PA", "amenity": "post_box", "brand": "United States Postal Service", "brand:wikidata": "Q668687", "collection_times": "Mo-Fr 16:45; Sa 11:00", "note": "ON 12/24 AND 12/31, THIS BOX MAY BE COLLECTED AS EARLY AS 12 NOON.", "nsi_id": "unitedstatespostalservice-a77078", "operator": "United States Postal Service", "operator:short": "USPS", "operator:type": "public", "operator:wikidata": "Q668687", "ref": "1788900001"}, "type": "Feature"}
{"geometry": {"coordinates": [-76.8565928, 40.903521], "type": "Point"}, "id": "ZOcQwauGkCF99znFNs0-5y3nAE0=", "properties": {"@source_uri": "https://tools.usps.com/UspsToolsRestServices/rest/POLocator/findLocations", "@spider": "usps_collection_boxes", "addr:city": "WINFIELD", "addr:country": "US", "addr:full": "477 PARK RD", "addr:postcode": "17889", "addr:state": "PA", "amenity": "post_box", "brand": "United States Postal Service", "brand:wikidata": "Q668687", "collection_times": "Mo-Fr 16:45; Sa 11:00", "indoor": "yes", "note": "ON 12/24 AND 12/31, THIS BOX MAY BE COLLECTED AS EARLY AS 12 NOON.", "nsi_id": "unitedstatespostalservice-a77078", "operator": "United States Postal Service", "operator:short": "USPS", "operator:type": "public", "operator:wikidata": "Q668687", "ref": "1788900002"}, "type": "Feature"}
{"geometry": {"coordinates": [-76.856911007, 40.903472975], "type": "Point"}, "id": "i5fwAQn_NHIRBlVG1BZAPvwvrPw=", "properties": {"@source_uri": "https://tools.usps.com/UspsToolsRestServices/rest/POLocator/findLocations", "@spider": "usps_collection_boxes", "addr:city": "WINFIELD", "addr:country": "US", "addr:full": "477 PARK RD", "addr:postcode": "17889", "addr:state": "PA", "amenity": "post_box", "brand": "United States Postal Service", "brand:wikidata": "Q668687", "collection_times": "Mo-Fr 16:05; Sa 10:35", "indoor": "yes", "note": "ON 12/24 AND 12/31, THIS BOX MAY BE COLLECTED AS EARLY AS 12 NOON.", "nsi_id": "unitedstatespostalservice-a77078", "operator": "United States Postal Service", "operator:short": "USPS", "operator:type": "public", "operator:wikidata": "Q668687", "ref": "1788900004"}, "type": "Feature"}
