{"dataset_attributes": {"@spider": "usps_collection_boxes"}, "geometry": {"coordinates": [-76.197348, 40.688485], "type": "Point"}, "id": "A232GviUlGu9-Ts5ESgmmn_wULI=", "properties": {"@spider": "usps_collection_boxes", "addr:city": "POTTSVILLE", "addr:country": "US", "addr:full": "450 N CENTRE ST", "addr:postcode": "17901", "addr:state": "PA", "amenity": "post_box", "brand": "United States Postal Service", "brand:wikidata": "Q668687", "collection_times": "Mo-Fr 17:00; Sa 16:00", "name": "USPS COLLECTION BOX - BLUE BOX", "note": "ON 12/24 AND 12/31, THIS BOX MAY BE COLLECTED AS EARLY AS 12 NOON.", "nsi_id": "unitedstatespostalservice-a77078", "operator": "United States Postal Service", "operator:short": "USPS", "operator:type": "public", "operator:wikidata": "Q668687", "ref": "1790100000"}, "type": "Feature"}
{"dataset_attributes": {"@spider": "usps_collection_boxes"}, "geometry": {"coordinates": [-76.197382, 40.688477], "type": "Point"}, "id": "Ekoxh2Jrz7r70m7ZEq0zjoPIswM=", "properties": {"@spider": "usps_collection_boxes", "addr:city": "POTTSVILLE", "addr:country": "US", "addr:full": "450 N CENTRE ST", "addr:postcode": "17901", "addr:state": "PA", "amenity": "post_box", "brand": "United States Postal Service", "brand:wikidata": "Q668687", "collection_times": "Mo-Fr 17:00; Sa 16:00", "name": "USPS COLLECTION BOX - BLUE BOX", "note": "ON 12/24 AND 12/31, THIS BOX MAY BE COLLECTED AS EARLY AS 12 NOON.", "nsi_id": "unitedstatespostalservice-a77078", "operator": "United States Postal Service", "operator:short": "USPS", "operator:type": "public", "operator:wikidata": "Q668687", "ref": "1790100001"}, "type": "Feature"}
{"dataset_attributes": {"@spider": "usps_collection_boxes"}, "geometry": {"coordinates": [-76.1958403, 40.68572], "type": "Point"}, "id": "GhHdM0Et9_BQjLwNWdne_AQfTHE=", "properties": {"@spider": "usps_collection_boxes", "addr:city": "POTTSVILLE", "addr:country": "US", "addr:full": "101 N CENTRE ST", "addr:postcode": "17901", "addr:state": "PA", "amenity": "post_box", "brand": "United States Postal Service", "brand:wikidata": "Q668687", "collection_times": "Mo-Fr 14:45; Sa 09:00", "name": "USPS COLLECTION BOX - BLUE BOX", "note": "ON 12/24 AND 12/31, THIS BOX MAY BE COLLECTED AS EARLY AS 12 NOON.", "nsi_id": "unitedstatespostalservice-a77078", "operator": "United States Postal Service", "operator:short": "USPS", "operator:type": "public", "operator:wikidata": "Q668687", "ref": "1790100015"}, "type": "Feature"}
{"dataset_attributes": {"@spider": "usps_collection_boxes"}, "geometry": {"coordinates": [-76.1945212, 40.684522], "type": "Point"}, "id": "cSvUWOFhItUMJyhi7HK61L-xMgY=", "properties": {"@spider": "usps_collection_boxes", "addr:city": "POTTSVILLE", "addr:country": "US", "addr:full": "26 S CENTRE ST", "addr:postcode": "17901", "addr:state": "PA", "amenity": "post_box", "brand": "United States Postal Service", "brand:wikidata": "Q668687", "collection_times": "Mo-Fr 14:45; Sa 09:00", "name": "USPS COLLECTION BOX - BLUE BOX", "note": "ON 12/24 AND 12/31, THIS BOX MAY BE COLLECTED AS EARLY AS 12 NOON.", "nsi_id": "unitedstatespostalservice-a77078", "operator": "United States Postal Service", "operator:short": "USPS", "operator:type": "public", "operator:wikidata": "Q668687", "ref": "1790100018"}, "type": "Feature"}
{"dataset_attributes": {"@spider": "usps_collection_boxes"}, "geometry": {"coordinates": [-76.194514, 40.684511], "type": "Point"}, "id": "1mvi217_ti1pi86V8XZeAPEmJY8=", "properties": {"@spider": "usps_collection_boxes", "addr:city": "POTTSVILLE", "addr:country": "US", "addr:full": "26 S CENTRE ST", "addr:postcode": "17901", "addr:state": "PA", "amenity": "post_box", "brand": "United States Postal Service", "brand:wikidata": "Q668687", "collection_times": "Mo-Fr 14:45; Sa 09:00", "name": "USPS COLLECTION BOX - BLUE BOX", "note": "ON 12/24 AND 12/31, THIS BOX MAY BE COLLECTED AS EARLY AS 12 NOON.", "nsi_id": "unitedstatespostalservice-a77078", "operator": "United States Postal Service", "operator:short": "USPS", "operator:type": "public", "operator:wikidata": "Q668687", "ref": "1790100020"}, "type": "Feature"}
{"dataset_attributes": {"@spider": "usps_collection_boxes"}, "geometry": {"coordinates": [-76.1931519, 40.682326], "type": "Point"}, "id": "2jpPQ1YaKN30Hh5vIjNDXxnalmo=", "properties": {"@spider": "usps_collection_boxes", "addr:city": "POTTSVILLE", "addr:country": "US", "addr:full": "340 S CENTRE ST", "addr:postcode": "17901", "addr:state": "PA", "amenity": "post_box", "brand": "United States Postal Service", "brand:wikidata": "Q668687", "collection_times": "Mo-Fr 14:45; Sa 09:00", "name": "USPS COLLECTION BOX - BLUE BOX", "note": "ON 12/24 AND 12/31, THIS BOX MAY BE COLLECTED AS EARLY AS 12 NOON.", "nsi_id": "unitedstatespostalservice-a77078", "operator": "United States Postal Service", "operator:short": "USPS", "operator:type": "public", "operator:wikidata": "Q668687", "ref": "1790100023"}, "type": "Feature"}
{"dataset_attributes": {"@spider": "usps_collection_boxes"}, "geometry": {"coordinates": [-76.1924094, 40.685711], "type": "Point"}, "id": "Z5IbNCQtJfM4bZ7KyGQC5yx9PFw=", "properties": {"@spider": "usps_collection_boxes", "addr:city": "POTTSVILLE", "addr:country": "US", "addr:full": "106 S CLAUDE A LORD BLVD", "addr:postcode": "17901", "addr:state": "PA", "amenity": "post_box", "brand": "United States Postal Service", "brand:wikidata": "Q668687", "collection_times": "Mo-Fr 09:00; Sa 08:30", "name": "USPS COLLECTION BOX - BLUE BOX", "nsi_id": "unitedstatespostalservice-a77078", "operator": "United States Postal Service", "operator:short": "USPS", "operator:type": "public", "operator:wikidata": "Q668687", "ref": "1790100032"}, "type": "Feature"}
{"dataset_attributes": {"@spider": "usps_collection_boxes"}, "geometry": {"coordinates": [-76.1849336, 40.640405], "type": "Point"}, "id": "MDmcqI77Mw_x-ppDznaJ3j_qbs0=", "properties": {"@spider": "usps_collection_boxes", "addr:city": "POTTSVILLE", "addr:country": "US", "addr:full": "1544 ROUTE 61 HWY S STE 6144", "addr:postcode": "17901", "addr:state": "PA", "amenity": "post_box", "brand": "United States Postal Service", "brand:wikidata": "Q668687", "collection_times": "Mo-Sa 09:00", "name": "USPS COLLECTION BOX - BLUE BOX", "nsi_id": "unitedstatespostalservice-a77078", "operator": "United States Postal Service", "operator:short": "USPS", "operator:type": "public", "operator:wikidata": "Q668687", "ref": "1790100035"}, "type": "Feature"}
{"dataset_attributes": {"@spider": "usps_collection_boxes"}, "geometry": {"coordinates": [-76.1885486, 40.683525], "type": "Point"}, "id": "YGtzkI_0DCBRl_LbKe1I8mV3jw4=", "properties": {"@spider": "usps_collection_boxes", "addr:city": "POTTSVILLE", "addr:country": "US", "addr:full": "420 S JACKSON ST", "addr:postcode": "17901", "addr:state": "PA", "amenity": "post_box", "brand": "United States Postal Service", "brand:wikidata": "Q668687", "collection_times": "Mo-Sa 09:30", "name": "USPS COLLECTION BOX - BLUE BOX", "nsi_id": "unitedstatespostalservice-a77078", "operator": "United States Postal Service", "operator:short": "USPS", "operator:type": "public", "operator:wikidata": "Q668687", "ref": "1790100043"}, "type": "Feature"}
{"dataset_attributes": {"@spider": "usps_collection_boxes"}, "geometry": {"coordinates": [-76.2169062, 40.677757], "type": "Point"}, "id": "WQITbYbuC_ZQ07LEgmlgzMlwTxg=", "properties": {"@spider": "usps_collection_boxes", "addr:city": "POTTSVILLE", "addr:country": "US", "addr:full": "1824 W MARKET ST", "addr:postcode": "17901", "addr:state": "PA", "amenity": "post_box", "brand": "United States Postal Service", "brand:wikidata": "Q668687", "collection_times": "Mo-Fr 12:00; Sa 11:00", "name": "USPS COLLECTION BOX - BLUE BOX", "nsi_id": "unitedstatespostalservice-a77078", "operator": "United States Postal Service", "operator:short": "USPS", "operator:type": "public", "operator:wikidata": "Q668687", "ref": "1790100059"}, "type": "Feature"}
{"dataset_attributes": {"@spider": "usps_collection_boxes"}, "geometry": {"coordinates": [-76.2255491, 40.675078], "type": "Point"}, "id": "0FHHMvUZ8VXgYWVYblSzCHIPaVs=", "properties": {"@spider": "usps_collection_boxes", "addr:city": "POTTSVILLE", "addr:country": "US", "addr:full": "2169 W MARKET ST", "addr:postcode": "17901", "addr:state": "PA", "amenity": "post_box", "brand": "United States Postal Service", "brand:wikidata": "Q668687", "collection_times": "Mo-Fr 14:30; Sa 10:00", "name": "USPS COLLECTION BOX - BLUE BOX", "note": "ON 12/24 AND 12/31, THIS BOX MAY BE COLLECTED AS EARLY AS 12 NOON.", "nsi_id": "unitedstatespostalservice-a77078", "operator": "United States Postal Service", "operator:short": "USPS", "operator:type": "public", "operator:wikidata": "Q668687", "ref": "1790100061"}, "type": "Feature"}
{"dataset_attributes": {"@spider": "usps_collection_boxes"}, "geometry": {"coordinates": [-76.1998409, 40.683888], "type": "Point"}, "id": "M-HJOWlaxwk47fWFRA0LCK2jKjA=", "properties": {"@spider": "usps_collection_boxes", "addr:city": "POTTSVILLE", "addr:country": "US", "addr:full": "602 W MARKET ST", "addr:postcode": "17901", "addr:state": "PA", "amenity": "post_box", "brand": "United States Postal Service", "brand:wikidata": "Q668687", "collection_times": "Mo-Fr 14:30; Sa 09:00", "name": "USPS COLLECTION BOX - BLUE BOX", "note": "ON 12/24 AND 12/31, THIS BOX MAY BE COLLECTED AS EARLY AS 12 NOON.", "nsi_id": "unitedstatespostalservice-a77078", "operator": "United States Postal Service", "operator:short": "USPS", "operator:type": "public", "operator:wikidata": "Q668687", "ref": "1790100064"}, "type": "Feature"}
{"dataset_attributes": {"@spider": "usps_collection_boxes"}, "geometry": {"coordinates": [-76.2045438, 40.681683], "type": "Point"}, "id": "W7aD3Q7IM-DBAoq9llNgwp3DdSI=", "properties": {"@spider": "usps_collection_boxes", "addr:city": "POTTSVILLE", "addr:country": "US", "addr:full": "1128 W MARKET ST", "addr:postcode": "17901", "addr:state": "PA", "amenity": "post_box", "brand": "United States Postal Service", "brand:wikidata": "Q668687", "collection_times": "Mo-Fr 14:45; Sa 09:00", "name": "USPS COLLECTION BOX - BLUE BOX", "note": "ON 12/24 AND 12/31, THIS BOX MAY BE COLLECTED AS EARLY AS 12 NOON.", "nsi_id": "unitedstatespostalservice-a77078", "operator": "United States Postal Service", "operator:short": "USPS", "operator:type": "public", "operator:wikidata": "Q668687", "ref": "1790100065"}, "type": "Feature"}
{"dataset_attributes": {"@spider": "usps_collection_boxes"}, "geometry": {"coordinates": [-76.1929573, 40.685375], "type": "Point"}, "id": "U1pjxjcz4ppNmoINAC_PfyyWuCw=", "properties": {"@spider": "usps_collection_boxes", "addr:city": "POTTSVILLE", "addr:country": "US", "addr:full": "NORWEGIAN PLZ", "addr:postcode": "17901", "addr:state": "PA", "amenity": "post_box", "brand": "United States Postal Service", "brand:wikidata": "Q668687", "collection_times": "Mo-Fr 09:30; Sa 08:30", "name": "USPS COLLECTION BOX - BLUE BOX", "nsi_id": "unitedstatespostalservice-a77078", "operator": "United States Postal Service", "operator:short": "USPS", "operator:type": "public", "operator:wikidata": "Q668687", "ref": "1790100069"}, "type": "Feature"}
{"dataset_attributes": {"@spider": "usps_collection_boxes"}, "geometry": {"coordinates": [-76.1940109, 40.685759], "type": "Point"}, "id": "RtaOX6EX6Jq9n87gWwsf7rvBEo0=", "properties": {"@spider": "usps_collection_boxes", "addr:city": "POTTSVILLE", "addr:country": "US", "addr:full": "200 E NORWEGIAN ST", "addr:postcode": "17901", "addr:state": "PA", "amenity": "post_box", "brand": "United States Postal Service", "brand:wikidata": "Q668687", "collection_times": "Mo-Fr 09:30; Sa 08:30", "name": "USPS COLLECTION BOX - BLUE BOX", "nsi_id": "unitedstatespostalservice-a77078", "operator": "United States Postal Service", "operator:short": "USPS", "operator:type": "public", "operator:wikidata": "Q668687", "ref": "1790100071"}, "type": "Feature"}
{"dataset_attributes": {"@spider": "usps_collection_boxes"}, "geometry": {"coordinates": [-76.1882669, 40.690533], "type": "Point"}, "id": "267A17-VvgeZ3SajJ1o_nhEK910=", "properties": {"@spider": "usps_collection_boxes", "addr:city": "POTTSVILLE", "addr:country": "US", "addr:full": "700 E NORWEGIAN ST", "addr:postcode": "17901", "addr:state": "PA", "amenity": "post_box", "brand": "United States Postal Service", "brand:wikidata": "Q668687", "collection_times": "Mo-Sa 12:00", "name": "USPS COLLECTION BOX - BLUE BOX", "nsi_id": "unitedstatespostalservice-a77078", "operator": "United States Postal Service", "operator:short": "USPS", "operator:type": "public", "operator:wikidata": "Q668687", "ref": "1790100075"}, "type": "Feature"}
{"dataset_attributes": {"@spider": "usps_collection_boxes"}, "geometry": {"coordinates": [-76.1965773, 40.684393], "type": "Point"}, "id": "6Cexp9OF2qclFb3mE15daWgAqEg=", "properties": {"@spider": "usps_collection_boxes", "addr:city": "POTTSVILLE", "addr:country": "US", "addr:full": "W NORWEGIAN ST", "addr:postcode": "17901", "addr:state": "PA", "amenity": "post_box", "brand": "United States Postal Service", "brand:wikidata": "Q668687", "collection_times": "Mo-Fr 14:45; Sa 10:00", "name": "USPS COLLECTION BOX - BLUE BOX", "note": "ON 12/24 AND 12/31, THIS BOX MAY BE COLLECTED AS EARLY AS 12 NOON.", "nsi_id": "unitedstatespostalservice-a77078", "operator": "United States Postal Service", "operator:short": "USPS", "operator:type": "public", "operator:wikidata": "Q668687", "ref": "1790100077"}, "type": "Feature"}
{"dataset_attributes": {"@spider": "usps_collection_boxes"}, "geometry": {"coordinates": [-76.1965811, 40.684375], "type": "Point"}, "id": "-DYa-mVFsCU0jaEePxqUd7pGzg8=", "properties": {"@spider": "usps_collection_boxes", "addr:city": "POTTSVILLE", "addr:country": "US", "addr:full": "W NORWEGIAN ST", "addr:postcode": "17901", "addr:state": "PA", "amenity": "post_box", "brand": "United States Postal Service", "brand:wikidata": "Q668687", "collection_times": "Mo-Fr 14:45; Sa 10:00", "name": "USPS COLLECTION BOX - BLUE BOX", "note": "ON 12/24 AND 12/31, THIS BOX MAY BE COLLECTED AS EARLY AS 12 NOON.", "nsi_id": "unitedstatespostalservice-a77078", "operator": "United States Postal Service", "operator:short": "USPS", "operator:type": "public", "operator:wikidata": "Q668687", "ref": "1790100079"}, "type": "Feature"}
{"dataset_attributes": {"@spider": "usps_collection_boxes"}, "geometry": {"coordinates": [-76.1895529, 40.691989], "type": "Point"}, "id": "iugLX7Q4OSDpoGAKj2gXQvCy75U=", "properties": {"@spider": "usps_collection_boxes", "addr:city": "POTTSVILLE", "addr:country": "US", "addr:full": "700 SCHUYLKILL MANOR RD", "addr:postcode": "17901", "addr:state": "PA", "amenity": "post_box", "brand": "United States Postal Service", "brand:wikidata": "Q668687", "collection_times": "Mo-Sa 12:00", "name": "USPS COLLECTION BOX - BLUE BOX", "nsi_id": "unitedstatespostalservice-a77078", "operator": "United States Postal Service", "operator:short": "USPS", "operator:type": "public", "operator:wikidata": "Q668687", "ref": "1790100091"}, "type": "Feature"}
{"dataset_attributes": {"@spider": "usps_collection_boxes"}, "geometry": {"coordinates": [-76.233499, 40.694725], "type": "Point"}, "id": "tPeL3xrL3etnj14j6v82S04wnBs=", "properties": {"@spider": "usps_collection_boxes", "addr:city": "POTTSVILLE", "addr:country": "US", "addr:full": "541 SELTZER RD", "addr:postcode": "17901", "addr:state": "PA", "amenity": "post_box", "brand": "United States Postal Service", "brand:wikidata": "Q668687", "collection_times": "Mo-Fr 15:30; Sa 11:00", "name": "USPS COLLECTION BOX - BLUE BOX", "note": "ON 12/24 AND 12/31, THIS BOX MAY BE COLLECTED AS EARLY AS 12 NOON.", "nsi_id": "unitedstatespostalservice-a77078", "operator": "United States Postal Service", "operator:short": "USPS", "operator:type": "public", "operator:wikidata": "Q668687", "ref": "1790100093"}, "type": "Feature"}
{"dataset_attributes": {"@spider": "usps_collection_boxes"}, "geometry": {"coordinates": [-76.2354333, 40.674225], "type": "Point"}, "id": "T2e0mcKwfDpzPOIFLB2yF36p5rs=", "properties": {"@spider": "usps_collection_boxes", "addr:city": "POTTSVILLE", "addr:country": "US", "addr:full": "7 WESTWOOD CTR", "addr:postcode": "17901", "addr:state": "PA", "amenity": "post_box", "brand": "United States Postal Service", "brand:wikidata": "Q668687", "collection_times": "Mo-Fr 11:00; Sa 09:30", "name": "USPS COLLECTION BOX - BLUE BOX", "nsi_id": "unitedstatespostalservice-a77078", "operator": "United States Postal Service", "operator:short": "USPS", "operator:type": "public", "operator:wikidata": "Q668687", "ref": "1790100096"}, "type": "Feature"}
{"dataset_attributes": {"@spider": "usps_collection_boxes"}, "geometry": {"coordinates": [-76.1983372, 40.686476], "type": "Point"}, "id": "ETFCjrx4mfTsThgodDarrit5aHs=", "properties": {"@spider": "usps_collection_boxes", "addr:city": "POTTSVILLE", "addr:country": "US", "addr:full": "300 N 3RD ST", "addr:postcode": "17901", "addr:state": "PA", "amenity": "post_box", "brand": "United States Postal Service", "brand:wikidata": "Q668687", "collection_times": "Mo-Sa 09:00", "name": "USPS COLLECTION BOX - BLUE BOX", "nsi_id": "unitedstatespostalservice-a77078", "operator": "United States Postal Service", "operator:short": "USPS", "operator:type": "public", "operator:wikidata": "Q668687", "ref": "1790100102"}, "type": "Feature"}
{"dataset_attributes": {"@spider": "usps_collection_boxes"}, "geometry": {"coordinates": [-76.197382, 40.688477], "type": "Point"}, "id": "S_hU_qpeasp0RfaqU7napYEwuFA=", "properties": {"@spider": "usps_collection_boxes", "addr:city": "POTTSVILLE", "addr:country": "US", "addr:full": "450 N CENTRE ST", "addr:postcode": "17901", "addr:state": "PA", "amenity": "post_box", "brand": "United States Postal Service", "brand:wikidata": "Q668687", "collection_times": "Mo-Fr 17:00; Sa 16:00", "name": "USPS COLLECTION BOX - PO LOBBY", "note": "ON 12/24 AND 12/31, THIS BOX MAY BE COLLECTED AS EARLY AS 12 NOON.", "nsi_id": "unitedstatespostalservice-a77078", "operator": "United States Postal Service", "operator:short": "USPS", "operator:type": "public", "operator:wikidata": "Q668687", "ref": "1790100103"}, "type": "Feature"}
{"dataset_attributes": {"@spider": "usps_collection_boxes"}, "geometry": {"coordinates": [-76.23377201, 40.69468061], "type": "Point"}, "id": "4Hppa0ainULVRN2bY1PolJnd4T4=", "properties": {"@spider": "usps_collection_boxes", "addr:city": "POTTSVILLE", "addr:country": "US", "addr:full": "541 SELTZER RD", "addr:postcode": "17901", "addr:state": "PA", "amenity": "post_box", "brand": "United States Postal Service", "brand:wikidata": "Q668687", "collection_times": "Mo-Fr 17:00; Sa 11:30", "name": "USPS COLLECTION BOX - PO LOBBY", "note": "ON 12/24 AND 12/31, THIS BOX MAY BE COLLECTED AS EARLY AS 12 NOON.", "nsi_id": "unitedstatespostalservice-a77078", "operator": "United States Postal Service", "operator:short": "USPS", "operator:type": "public", "operator:wikidata": "Q668687", "ref": "1790100115"}, "type": "Feature"}
{"dataset_attributes": {"@spider": "usps_collection_boxes"}, "geometry": {"coordinates": [-76.197327787, 40.688496574], "type": "Point"}, "id": "ow6M4gJtOcpDncC4WrHQULidctg=", "properties": {"@spider": "usps_collection_boxes", "addr:city": "POTTSVILLE", "addr:country": "US", "addr:full": "450 N CENTRE ST", "addr:postcode": "17901", "addr:state": "PA", "amenity": "post_box", "brand": "United States Postal Service", "brand:wikidata": "Q668687", "collection_times": "Mo-Fr 17:15; Sa 13:45", "name": "USPS COLLECTION BOX - PO LOBBY", "note": "ON 12/24 AND 12/31, THIS BOX MAY BE COLLECTED AS EARLY AS 12 NOON.", "nsi_id": "unitedstatespostalservice-a77078", "operator": "United States Postal Service", "operator:short": "USPS", "operator:type": "public", "operator:wikidata": "Q668687", "ref": "1790100116"}, "type": "Feature"}
{"dataset_attributes": {"@spider": "usps_collection_boxes"}, "geometry": {"coordinates": [-76.3375830624, 40.8171846095], "type": "Point"}, "id": "gh0ExT7-lY4DYcuUijUZseZxqc8=", "properties": {"@spider": "usps_collection_boxes", "addr:city": "ARISTES", "addr:country": "US", "addr:full": "90 S LEIBY ST", "addr:postcode": "17920", "addr:state": "PA", "amenity": "post_box", "brand": "United States Postal Service", "brand:wikidata": "Q668687", "collection_times": "Mo-Fr 16:00; Sa 11:45", "name": "USPS COLLECTION BOX - BLUE BOX", "note": "ON 12/24 AND 12/31, THIS BOX MAY BE COLLECTED AS EARLY AS 12 NOON.", "nsi_id": "unitedstatespostalservice-a77078", "operator": "United States Postal Service", "operator:short": "USPS", "operator:type": "public", "operator:wikidata": "Q668687", "ref": "1792000001"}, "type": "Feature"}
{"dataset_attributes": {"@spider": "usps_collection_boxes"}, "geometry": {"coordinates": [-76.337557, 40.817415], "type": "Point"}, "id": "31l_tpJc5j_ozjGOKMJ6oVIve1k=", "properties": {"@spider": "usps_collection_boxes", "addr:city": "ARISTES", "addr:country": "US", "addr:full": "90 S LEIBY ST", "addr:postcode": "17920", "addr:state": "PA", "amenity": "post_box", "brand": "United States Postal Service", "brand:wikidata": "Q668687", "collection_times": "Mo-Fr 11:30; Sa 11:45", "name": "USPS COLLECTION BOX - PO LOBBY", "nsi_id": "unitedstatespostalservice-a77078", "operator": "United States Postal Service", "operator:short": "USPS", "operator:type": "public", "operator:wikidata": "Q668687", "ref": "1792000002"}, "type": "Feature"}
{"dataset_attributes": {"@spider": "usps_collection_boxes"}, "geometry": {"coordinates": [-76.337558862, 40.81722738], "type": "Point"}, "id": "heIRlC6gaThY8l0fMgWrBu413ZM=", "properties": {"@spider": "usps_collection_boxes", "addr:city": "ARISTES", "addr:country": "US", "addr:full": "90 S LEIBY ST", "addr:postcode": "17920", "addr:state": "PA", "amenity": "post_box", "brand": "United States Postal Service", "brand:wikidata": "Q668687", "collection_times": "Mo-Fr 12:00; Sa 11:45", "name": "USPS COLLECTION BOX - PO LOBBY", "nsi_id": "unitedstatespostalservice-a77078", "operator": "United States Postal Service", "operator:short": "USPS", "operator:type": "public", "operator:wikidata": "Q668687", "ref": "1792000004"}, "type": "Feature"}
{"dataset_attributes": {"@spider": "usps_collection_boxes"}, "geometry": {"coordinates": [-76.3393273, 40.782779], "type": "Point"}, "id": "7-eG-95EAWKCi76Tw4qM88xPLzQ=", "properties": {"@spider": "usps_collection_boxes", "addr:city": "ASHLAND", "addr:country": "US", "addr:full": "500 W CENTER ST", "addr:postcode": "17921", "addr:state": "PA", "amenity": "post_box", "brand": "United States Postal Service", "brand:wikidata": "Q668687", "collection_times": "Mo-Sa 10:00", "name": "USPS COLLECTION BOX - BLUE BOX", "nsi_id": "unitedstatespostalservice-a77078", "operator": "United States Postal Service", "operator:short": "USPS", "operator:type": "public", "operator:wikidata": "Q668687", "ref": "1792100010"}, "type": "Feature"}
{"dataset_attributes": {"@spider": "usps_collection_boxes"}, "geometry": {"coordinates": [-76.3428389, 40.782363], "type": "Point"}, "id": "v6u6azmvNIpapDBXz_mMm4WA20I=", "properties": {"@spider": "usps_collection_boxes", "addr:city": "ASHLAND", "addr:country": "US", "addr:full": "819 W CENTER ST", "addr:postcode": "17921", "addr:state": "PA", "amenity": "post_box", "brand": "United States Postal Service", "brand:wikidata": "Q668687", "collection_times": "Mo-Sa 11:30", "name": "USPS COLLECTION BOX - BLUE BOX", "nsi_id": "unitedstatespostalservice-a77078", "operator": "United States Postal Service", "operator:short": "USPS", "operator:type": "public", "operator:wikidata": "Q668687", "ref": "1792100012"}, "type": "Feature"}
{"dataset_attributes": {"@spider": "usps_collection_boxes"}, "geometry": {"coordinates": [-76.343434, 40.783933], "type": "Point"}, "id": "8QoXUUTMXqk_ats51Nueji1LrP8=", "properties": {"@spider": "usps_collection_boxes", "addr:city": "ASHLAND", "addr:country": "US", "addr:full": "901 RACE ST", "addr:postcode": "17921", "addr:state": "PA", "amenity": "post_box", "brand": "United States Postal Service", "brand:wikidata": "Q668687", "collection_times": "Mo-Fr 16:30; Sa 15:30", "name": "USPS COLLECTION BOX - BLUE BOX", "note": "ON 12/24 AND 12/31, THIS BOX MAY BE COLLECTED AS EARLY AS 12 NOON.", "nsi_id": "unitedstatespostalservice-a77078", "operator": "United States Postal Service", "operator:short": "USPS", "operator:type": "public", "operator:wikidata": "Q668687", "ref": "1792100017"}, "type": "Feature"}
{"dataset_attributes": {"@spider": "usps_collection_boxes"}, "geometry": {"coordinates": [-76.343311, 40.783924], "type": "Point"}, "id": "uMVPqmluOSkQSMASmKc_stSVXF8=", "properties": {"@spider": "usps_collection_boxes", "addr:city": "ASHLAND", "addr:country": "US", "addr:full": "901 RACE ST", "addr:postcode": "17921", "addr:state": "PA", "amenity": "post_box", "brand": "United States Postal Service", "brand:wikidata": "Q668687", "collection_times": "Mo-Fr 16:30; Sa 15:30", "name": "USPS COLLECTION BOX - PO LOBBY", "note": "ON 12/24 AND 12/31, THIS BOX MAY BE COLLECTED AS EARLY AS 12 NOON.", "nsi_id": "unitedstatespostalservice-a77078", "operator": "United States Postal Service", "operator:short": "USPS", "operator:type": "public", "operator:wikidata": "Q668687", "ref": "1792100019"}, "type": "Feature"}
{"dataset_attributes": {"@spider": "usps_collection_boxes"}, "geometry": {"coordinates": [-76.343399226, 40.783977664], "type": "Point"}, "id": "DVWclSaOuWhp32843HBhUVnS6Xk=", "properties": {"@spider": "usps_collection_boxes", "addr:city": "ASHLAND", "addr:country": "US", "addr:full": "901 RACE ST", "addr:postcode": "17921", "addr:state": "PA", "amenity": "post_box", "brand": "United States Postal Service", "brand:wikidata": "Q668687", "collection_times": "Mo-Fr 16:45; Sa 11:45", "name": "USPS COLLECTION BOX - PO LOBBY", "note": "ON 12/24 AND 12/31, THIS BOX MAY BE COLLECTED AS EARLY AS 12 NOON.", "nsi_id": "unitedstatespostalservice-a77078", "operator": "United States Postal Service", "operator:short": "USPS", "operator:type": "public", "operator:wikidata": "Q668687", "ref": "1792100021"}, "type": "Feature"}
{"dataset_attributes": {"@spider": "usps_collection_boxes"}, "geometry": {"coordinates": [-76.1995404, 40.575368], "type": "Point"}, "id": "TXDR_IbI53xDsNyAGeLtuwYtc0c=", "properties": {"@spider": "usps_collection_boxes", "addr:city": "AUBURN", "addr:country": "US", "addr:full": "2 NAVAJO DR", "addr:postcode": "17922", "addr:state": "PA", "amenity": "post_box", "brand": "United States Postal Service", "brand:wikidata": "Q668687", "collection_times": "Mo-Sa 10:30", "name": "USPS COLLECTION BOX - BLUE BOX", "nsi_id": "unitedstatespostalservice-a77078", "operator": "United States Postal Service", "operator:short": "USPS", "operator:type": "public", "operator:wikidata": "Q668687", "ref": "1792200003"}, "type": "Feature"}
{"dataset_attributes": {"@spider": "usps_collection_boxes"}, "geometry": {"coordinates": [-76.096467, 40.597389], "type": "Point"}, "id": "VK18URaz_bLBGQjU8laZwQIr3ZI=", "properties": {"@spider": "usps_collection_boxes", "addr:city": "AUBURN", "addr:country": "US", "addr:full": "425 MARKET ST", "addr:postcode": "17922", "addr:state": "PA", "amenity": "post_box", "brand": "United States Postal Service", "brand:wikidata": "Q668687", "collection_times": "Mo-Fr 16:30; Sa 11:00", "name": "USPS COLLECTION BOX - BLUE BOX", "note": "ON 12/24 AND 12/31, THIS BOX MAY BE COLLECTED AS EARLY AS 12 NOON.", "nsi_id": "unitedstatespostalservice-a77078", "operator": "United States Postal Service", "operator:short": "USPS", "operator:type": "public", "operator:wikidata": "Q668687", "ref": "1792200004"}, "type": "Feature"}
{"dataset_attributes": {"@spider": "usps_collection_boxes"}, "geometry": {"coordinates": [-76.0968514, 40.59704], "type": "Point"}, "id": "FBlap2gEbmLToDhtck55U6krojs=", "properties": {"@spider": "usps_collection_boxes", "addr:city": "AUBURN", "addr:country": "US", "addr:full": "425 MARKET ST", "addr:postcode": "17922", "addr:state": "PA", "amenity": "post_box", "brand": "United States Postal Service", "brand:wikidata": "Q668687", "collection_times": "Mo-Fr 16:30; Sa 11:00", "name": "USPS COLLECTION BOX - PO LOBBY", "note": "ON 12/24 AND 12/31, THIS BOX MAY BE COLLECTED AS EARLY AS 12 NOON.", "nsi_id": "unitedstatespostalservice-a77078", "operator": "United States Postal Service", "operator:short": "USPS", "operator:type": "public", "operator:wikidata": "Q668687", "ref": "1792200006"}, "type": "Feature"}
{"dataset_attributes": {"@spider": "usps_collection_boxes"}, "geometry": {"coordinates": [-76.097033922, 40.597180462], "type": "Point"}, "id": "DI4lB0y3lfiU4EHJI7gg3YbkON0=", "properties": {"@spider": "usps_collection_boxes", "addr:city": "AUBURN", "addr:country": "US", "addr:full": "425 MARKET ST", "addr:postcode": "17922", "addr:state": "PA", "amenity": "post_box", "brand": "United States Postal Service", "brand:wikidata": "Q668687", "collection_times": "Mo-Fr 16:30; Sa 11:15", "name": "USPS COLLECTION BOX - PO LOBBY", "note": "ON 12/24 AND 12/31, THIS BOX MAY BE COLLECTED AS EARLY AS 12 NOON.", "nsi_id": "unitedstatespostalservice-a77078", "operator": "United States Postal Service", "operator:short": "USPS", "operator:type": "public", "operator:wikidata": "Q668687", "ref": "1792200008"}, "type": "Feature"}
{"dataset_attributes": {"@spider": "usps_collection_boxes"}, "geometry": {"coordinates": [-76.325262, 40.670072], "type": "Point"}, "id": "en9QtB9zfgKQbZambXl9ri6WbrI=", "properties": {"@spider": "usps_collection_boxes", "addr:city": "BRANCHDALE", "addr:country": "US", "addr:full": "105 S STATE RD", "addr:postcode": "17923", "addr:state": "PA", "amenity": "post_box", "brand": "United States Postal Service", "brand:wikidata": "Q668687", "collection_times": "Mo-Fr 16:30; Sa 11:30", "name": "USPS COLLECTION BOX - BLUE BOX", "note": "ON 12/24 AND 12/31, THIS BOX MAY BE COLLECTED AS EARLY AS 12 NOON.", "nsi_id": "unitedstatespostalservice-a77078", "operator": "United States Postal Service", "operator:short": "USPS", "operator:type": "public", "operator:wikidata": "Q668687", "ref": "1792300001"}, "type": "Feature"}
{"dataset_attributes": {"@spider": "usps_collection_boxes"}, "geometry": {"coordinates": [-76.32537, 40.670049], "type": "Point"}, "id": "49WaRpn-o1OK75tNyF9rgz1l4Kg=", "properties": {"@spider": "usps_collection_boxes", "addr:city": "BRANCHDALE", "addr:country": "US", "addr:full": "105 S STATE RD", "addr:postcode": "17923", "addr:state": "PA", "amenity": "post_box", "brand": "United States Postal Service", "brand:wikidata": "Q668687", "collection_times": "Mo-Fr 13:30; Sa 11:30", "name": "USPS COLLECTION BOX - PO LOBBY", "note": "ON 12/24 AND 12/31, THIS BOX MAY BE COLLECTED AS EARLY AS 12 NOON.", "nsi_id": "unitedstatespostalservice-a77078", "operator": "United States Postal Service", "operator:short": "USPS", "operator:type": "public", "operator:wikidata": "Q668687", "ref": "1792300002"}, "type": "Feature"}
{"dataset_attributes": {"@spider": "usps_collection_boxes"}, "geometry": {"coordinates": [-76.324316539, 40.670065285], "type": "Point"}, "id": "W4swgF9dRLBqOoKf-HnL_59ODjk=", "properties": {"@spider": "usps_collection_boxes", "addr:city": "BRANCHDALE", "addr:country": "US", "addr:full": "105 S STATE RD", "addr:postcode": "17923", "addr:state": "PA", "amenity": "post_box", "brand": "United States Postal Service", "brand:wikidata": "Q668687", "collection_times": "Mo-Fr 13:30; Sa 11:30", "name": "USPS COLLECTION BOX - PO LOBBY", "note": "ON 12/24 AND 12/31, THIS BOX MAY BE COLLECTED AS EARLY AS 12 NOON.", "nsi_id": "unitedstatespostalservice-a77078", "operator": "United States Postal Service", "operator:short": "USPS", "operator:type": "public", "operator:wikidata": "Q668687", "ref": "1792300004"}, "type": "Feature"}
{"dataset_attributes": {"@spider": "usps_collection_boxes"}, "geometry": {"coordinates": [-76.193941, 40.634739], "type": "Point"}, "id": "9ajpegnCUJ4Wp08e2PvN610J0V0=", "properties": {"@spider": "usps_collection_boxes", "addr:city": "CRESSONA", "addr:country": "US", "addr:full": "17 N SILLYMAN ST", "addr:postcode": "17929", "addr:state": "PA", "amenity": "post_box", "brand": "United States Postal Service", "brand:wikidata": "Q668687", "collection_times": "Mo-Fr 16:30; Sa 11:30", "name": "USPS COLLECTION BOX - BLUE BOX", "note": "ON 12/24 AND 12/31, THIS BOX MAY BE COLLECTED AS EARLY AS 12 NOON.", "nsi_id": "unitedstatespostalservice-a77078", "operator": "United States Postal Service", "operator:short": "USPS", "operator:type": "public", "operator:wikidata": "Q668687", "ref": "1792900009"}, "type": "Feature"}
{"dataset_attributes": {"@spider": "usps_collection_boxes"}, "geometry": {"coordinates": [-76.2052091, 40.62631], "type": "Point"}, "id": "bfVdv4-cMFnS3Rr87djYgoMxwYE=", "properties": {"@spider": "usps_collection_boxes", "addr:city": "CRESSONA", "addr:country": "US", "addr:full": "250 CHESTNUT ST", "addr:postcode": "17929", "addr:state": "PA", "amenity": "post_box", "brand": "United States Postal Service", "brand:wikidata": "Q668687", "collection_times": "Mo-Fr 10:45", "name": "USPS COLLECTION BOX - BLUE BOX", "nsi_id": "unitedstatespostalservice-a77078", "operator": "United States Postal Service", "operator:short": "USPS", "operator:type": "public", "operator:wikidata": "Q668687", "ref": "1792900013"}, "type": "Feature"}
{"dataset_attributes": {"@spider": "usps_collection_boxes"}, "geometry": {"coordinates": [-76.193916, 40.634811], "type": "Point"}, "id": "V6UaeIKGtMOitBbdIv0bF4Fl9JQ=", "properties": {"@spider": "usps_collection_boxes", "addr:city": "CRESSONA", "addr:country": "US", "addr:full": "17 N SILLYMAN ST", "addr:postcode": "17929", "addr:state": "PA", "amenity": "post_box", "brand": "United States Postal Service", "brand:wikidata": "Q668687", "collection_times": "Mo-Fr 16:30; Sa 11:30", "name": "USPS COLLECTION BOX - PO LOBBY", "note": "ON 12/24 AND 12/31, THIS BOX MAY BE COLLECTED AS EARLY AS 12 NOON.", "nsi_id": "unitedstatespostalservice-a77078", "operator": "United States Postal Service", "operator:short": "USPS", "operator:type": "public", "operator:wikidata": "Q668687", "ref": "1792900018"}, "type": "Feature"}
{"dataset_attributes": {"@spider": "usps_collection_boxes"}, "geometry": {"coordinates": [-76.193969913, 40.634770904], "type": "Point"}, "id": "C_-vhz5M-qBDKKQRSVYLKZzXf_A=", "properties": {"@spider": "usps_collection_boxes", "addr:city": "CRESSONA", "addr:country": "US", "addr:full": "17 N SILLYMAN ST", "addr:postcode": "17929", "addr:state": "PA", "amenity": "post_box", "brand": "United States Postal Service", "brand:wikidata": "Q668687", "collection_times": "Mo-Fr 16:30; Sa 12:00", "name": "USPS COLLECTION BOX - PO LOBBY", "note": "ON 12/24 AND 12/31, THIS BOX MAY BE COLLECTED AS EARLY AS 12 NOON.", "nsi_id": "unitedstatespostalservice-a77078", "operator": "United States Postal Service", "operator:short": "USPS", "operator:type": "public", "operator:wikidata": "Q668687", "ref": "1792900020"}, "type": "Feature"}
{"dataset_attributes": {"@spider": "usps_collection_boxes"}, "geometry": {"coordinates": [-76.138031, 40.711055], "type": "Point"}, "id": "rgV0pv-6uEqiIE7GkT1t-nT-PiI=", "properties": {"@spider": "usps_collection_boxes", "addr:city": "CUMBOLA", "addr:country": "US", "addr:full": "119 COAL ST", "addr:postcode": "17930", "addr:state": "PA", "amenity": "post_box", "brand": "United States Postal Service", "brand:wikidata": "Q668687", "collection_times": "Mo-Fr 16:45; Sa 11:15", "name": "USPS COLLECTION BOX - BLUE BOX", "note": "ON 12/24 AND 12/31, THIS BOX MAY BE COLLECTED AS EARLY AS 12 NOON.", "nsi_id": "unitedstatespostalservice-a77078", "operator": "United States Postal Service", "operator:short": "USPS", "operator:type": "public", "operator:wikidata": "Q668687", "ref": "1793000001"}, "type": "Feature"}
{"dataset_attributes": {"@spider": "usps_collection_boxes"}, "geometry": {"coordinates": [-76.138190109, 40.711006812], "type": "Point"}, "id": "Cn77GWKwOpoDASOGSxp9jkoxtAI=", "properties": {"@spider": "usps_collection_boxes", "addr:city": "CUMBOLA", "addr:country": "US", "addr:full": "119 COAL ST", "addr:postcode": "17930", "addr:state": "PA", "amenity": "post_box", "brand": "United States Postal Service", "brand:wikidata": "Q668687", "collection_times": "Mo-Fr 16:45; Sa 11:30", "name": "USPS COLLECTION BOX - PO LOBBY", "note": "ON 12/24 AND 12/31, THIS BOX MAY BE COLLECTED AS EARLY AS 12 NOON.", "nsi_id": "unitedstatespostalservice-a77078", "operator": "United States Postal Service", "operator:short": "USPS", "operator:type": "public", "operator:wikidata": "Q668687", "ref": "1793000004"}, "type": "Feature"}
{"dataset_attributes": {"@spider": "usps_collection_boxes"}, "geometry": {"coordinates": [-76.2353099, 40.779135], "type": "Point"}, "id": "qo_wthnlAoqKHRyZWLK3kC3_c8Y=", "properties": {"@spider": "usps_collection_boxes", "addr:city": "FRACKVILLE", "addr:country": "US", "addr:full": "301 S 3RD ST", "addr:postcode": "17931", "addr:state": "PA", "amenity": "post_box", "brand": "United States Postal Service", "brand:wikidata": "Q668687", "collection_times": "Mo-Sa 09:00", "name": "USPS COLLECTION BOX - BLUE BOX", "nsi_id": "unitedstatespostalservice-a77078", "operator": "United States Postal Service", "operator:short": "USPS", "operator:type": "public", "operator:wikidata": "Q668687", "ref": "1793100000"}, "type": "Feature"}
{"dataset_attributes": {"@spider": "usps_collection_boxes"}, "geometry": {"coordinates": [-76.2335875, 40.784437], "type": "Point"}, "id": "Odf6Jbzatyl9HrUDpBizoWi7rfw=", "properties": {"@spider": "usps_collection_boxes", "addr:city": "FRACKVILLE", "addr:country": "US", "addr:full": "1 N NICE ST", "addr:postcode": "17931", "addr:state": "PA", "amenity": "post_box", "brand": "United States Postal Service", "brand:wikidata": "Q668687", "collection_times": "Mo-Sa 10:00", "name": "USPS COLLECTION BOX - BLUE BOX", "nsi_id": "unitedstatespostalservice-a77078", "operator": "United States Postal Service", "operator:short": "USPS", "operator:type": "public", "operator:wikidata": "Q668687", "ref": "1793100009"}, "type": "Feature"}
{"dataset_attributes": {"@spider": "usps_collection_boxes"}, "geometry": {"coordinates": [-76.2288495, 40.781055], "type": "Point"}, "id": "tx7YOGDLI6ThFNbLBPnHMOokItU=", "properties": {"@spider": "usps_collection_boxes", "addr:city": "FRACKVILLE", "addr:country": "US", "addr:full": "255 S LEHIGH AVE", "addr:postcode": "17931", "addr:state": "PA", "amenity": "post_box", "brand": "United States Postal Service", "brand:wikidata": "Q668687", "collection_times": "Mo-Sa 10:30", "name": "USPS COLLECTION BOX - BLUE BOX", "nsi_id": "unitedstatespostalservice-a77078", "operator": "United States Postal Service", "operator:short": "USPS", "operator:type": "public", "operator:wikidata": "Q668687", "ref": "1793100016"}, "type": "Feature"}
{"dataset_attributes": {"@spider": "usps_collection_boxes"}, "geometry": {"coordinates": [-76.2302124, 40.783471], "type": "Point"}, "id": "6WU_hbTvt2cfcqJr_OmYyMdmQlg=", "properties": {"@spider": "usps_collection_boxes", "addr:city": "FRACKVILLE", "addr:country": "US", "addr:full": "109 S LEHIGH AVE", "addr:postcode": "17931", "addr:state": "PA", "amenity": "post_box", "brand": "United States Postal Service", "brand:wikidata": "Q668687", "collection_times": "Mo-Fr 16:45; Sa 15:00", "name": "USPS COLLECTION BOX - BLUE BOX", "note": "ON 12/24 AND 12/31, THIS BOX MAY BE COLLECTED AS EARLY AS 12 NOON.", "nsi_id": "unitedstatespostalservice-a77078", "operator": "United States Postal Service", "operator:short": "USPS", "operator:type": "public", "operator:wikidata": "Q668687", "ref": "1793100018"}, "type": "Feature"}
{"dataset_attributes": {"@spider": "usps_collection_boxes"}, "geometry": {"coordinates": [-76.2311829, 40.785018], "type": "Point"}, "id": "Zc2O9tZsL4l5D6UxrLWupOj0HQ8=", "properties": {"@spider": "usps_collection_boxes", "addr:city": "FRACKVILLE", "addr:country": "US", "addr:full": "2 S LEHIGH AVE", "addr:postcode": "17931", "addr:state": "PA", "amenity": "post_box", "brand": "United States Postal Service", "brand:wikidata": "Q668687", "collection_times": "Mo-Fr 15:00; Sa 09:45", "name": "USPS COLLECTION BOX - BLUE BOX", "note": "ON 12/24 AND 12/31, THIS BOX MAY BE COLLECTED AS EARLY AS 12 NOON.", "nsi_id": "unitedstatespostalservice-a77078", "operator": "United States Postal Service", "operator:short": "USPS", "operator:type": "public", "operator:wikidata": "Q668687", "ref": "1793100019"}, "type": "Feature"}
{"dataset_attributes": {"@spider": "usps_collection_boxes"}, "geometry": {"coordinates": [-76.2301366, 40.783465], "type": "Point"}, "id": "5mdPfoPzlKKjDD9DHQQXUeGyjo0=", "properties": {"@spider": "usps_collection_boxes", "addr:city": "FRACKVILLE", "addr:country": "US", "addr:full": "109 S LEHIGH AVE", "addr:postcode": "17931", "addr:state": "PA", "amenity": "post_box", "brand": "United States Postal Service", "brand:wikidata": "Q668687", "collection_times": "Mo-Fr 16:45; Sa 15:00", "name": "USPS COLLECTION BOX - PO LOBBY", "note": "ON 12/24 AND 12/31, THIS BOX MAY BE COLLECTED AS EARLY AS 12 NOON.", "nsi_id": "unitedstatespostalservice-a77078", "operator": "United States Postal Service", "operator:short": "USPS", "operator:type": "public", "operator:wikidata": "Q668687", "ref": "1793100022"}, "type": "Feature"}
{"dataset_attributes": {"@spider": "usps_collection_boxes"}, "geometry": {"coordinates": [-76.230158109, 40.7834493], "type": "Point"}, "id": "57z1xcYWndRVKXsZqs7RG5jvsis=", "properties": {"@spider": "usps_collection_boxes", "addr:city": "FRACKVILLE", "addr:country": "US", "addr:full": "109 S LEHIGH AVE", "addr:postcode": "17931", "addr:state": "PA", "amenity": "post_box", "brand": "United States Postal Service", "brand:wikidata": "Q668687", "collection_times": "Mo-Fr 16:35; Sa 11:30", "name": "USPS COLLECTION BOX - PO LOBBY", "note": "ON 12/24 AND 12/31, THIS BOX MAY BE COLLECTED AS EARLY AS 12 NOON.", "nsi_id": "unitedstatespostalservice-a77078", "operator": "United States Postal Service", "operator:short": "USPS", "operator:type": "public", "operator:wikidata": "Q668687", "ref": "1793100024"}, "type": "Feature"}
{"dataset_attributes": {"@spider": "usps_collection_boxes"}, "geometry": {"coordinates": [-76.244863, 40.602109], "type": "Point"}, "id": "F-6BPPCyZRICeUZueOlhTMzjFBI=", "properties": {"@spider": "usps_collection_boxes", "addr:city": "FRIEDENSBURG", "addr:country": "US", "addr:full": "1305 LONG RUN RD", "addr:postcode": "17933", "addr:state": "PA", "amenity": "post_box", "brand": "United States Postal Service", "brand:wikidata": "Q668687", "collection_times": "Mo-Fr 15:30; Sa 10:45", "name": "USPS COLLECTION BOX - BLUE BOX", "note": "ON 12/24 AND 12/31, THIS BOX MAY BE COLLECTED AS EARLY AS 12 NOON.", "nsi_id": "unitedstatespostalservice-a77078", "operator": "United States Postal Service", "operator:short": "USPS", "operator:type": "public", "operator:wikidata": "Q668687", "ref": "1793300001"}, "type": "Feature"}
{"dataset_attributes": {"@spider": "usps_collection_boxes"}, "geometry": {"coordinates": [-76.244933, 40.602064], "type": "Point"}, "id": "CVegtaOCAMIZQ7D_M-wftv1HOE0=", "properties": {"@spider": "usps_collection_boxes", "addr:city": "FRIEDENSBURG", "addr:country": "US", "addr:full": "1305 LONG RUN RD", "addr:postcode": "17933", "addr:state": "PA", "amenity": "post_box", "brand": "United States Postal Service", "brand:wikidata": "Q668687", "collection_times": "Mo-Fr 16:00; Sa 10:45", "name": "USPS COLLECTION BOX - PO LOBBY", "note": "ON 12/24 AND 12/31, THIS BOX MAY BE COLLECTED AS EARLY AS 12 NOON.", "nsi_id": "unitedstatespostalservice-a77078", "operator": "United States Postal Service", "operator:short": "USPS", "operator:type": "public", "operator:wikidata": "Q668687", "ref": "1793300003"}, "type": "Feature"}
{"dataset_attributes": {"@spider": "usps_collection_boxes"}, "geometry": {"coordinates": [-76.244656452, 40.602157144], "type": "Point"}, "id": "moCdqi8waFF18bSleSthXaBYSmQ=", "properties": {"@spider": "usps_collection_boxes", "addr:city": "FRIEDENSBURG", "addr:country": "US", "addr:full": "1305 LONG RUN RD", "addr:postcode": "17933", "addr:state": "PA", "amenity": "post_box", "brand": "United States Postal Service", "brand:wikidata": "Q668687", "collection_times": "Mo-Fr 16:00; Sa 11:00", "name": "USPS COLLECTION BOX - PO LOBBY", "note": "ON 12/24 AND 12/31, THIS BOX MAY BE COLLECTED AS EARLY AS 12 NOON.", "nsi_id": "unitedstatespostalservice-a77078", "operator": "United States Postal Service", "operator:short": "USPS", "operator:type": "public", "operator:wikidata": "Q668687", "ref": "1793300005"}, "type": "Feature"}
{"dataset_attributes": {"@spider": "usps_collection_boxes"}, "geometry": {"coordinates": [-76.2833347, 40.791497], "type": "Point"}, "id": "sEmYny9YAXqEGjiVtMXZ9Fc0gHY=", "properties": {"@spider": "usps_collection_boxes", "addr:city": "GIRARDVILLE", "addr:country": "US", "addr:full": "101 E MAIN ST", "addr:postcode": "17935", "addr:state": "PA", "amenity": "post_box", "brand": "United States Postal Service", "brand:wikidata": "Q668687", "collection_times": "Mo-Sa 09:30", "name": "USPS COLLECTION BOX - BLUE BOX", "nsi_id": "unitedstatespostalservice-a77078", "operator": "United States Postal Service", "operator:short": "USPS", "operator:type": "public", "operator:wikidata": "Q668687", "ref": "1793500001"}, "type": "Feature"}
{"dataset_attributes": {"@spider": "usps_collection_boxes"}, "geometry": {"coordinates": [-76.2886051, 40.7913], "type": "Point"}, "id": "GxgbLwDpAWEyi8gaMULCURg_ssY=", "properties": {"@spider": "usps_collection_boxes", "addr:city": "GIRARDVILLE", "addr:country": "US", "addr:full": "210 W MAIN ST", "addr:postcode": "17935", "addr:state": "PA", "amenity": "post_box", "brand": "United States Postal Service", "brand:wikidata": "Q668687", "collection_times": "Mo-Fr 16:30; Sa 14:30", "name": "USPS COLLECTION BOX - BLUE BOX", "note": "ON 12/24 AND 12/31, THIS BOX MAY BE COLLECTED AS EARLY AS 12 NOON.", "nsi_id": "unitedstatespostalservice-a77078", "operator": "United States Postal Service", "operator:short": "USPS", "operator:type": "public", "operator:wikidata": "Q668687", "ref": "1793500003"}, "type": "Feature"}
{"dataset_attributes": {"@spider": "usps_collection_boxes"}, "geometry": {"coordinates": [-76.2839227, 40.79481], "type": "Point"}, "id": "sABZdTDGHCjCDfFG1S6pfmU6Z6w=", "properties": {"@spider": "usps_collection_boxes", "addr:city": "GIRARDVILLE", "addr:country": "US", "addr:full": "259 N 2ND ST", "addr:postcode": "17935", "addr:state": "PA", "amenity": "post_box", "brand": "United States Postal Service", "brand:wikidata": "Q668687", "collection_times": "Mo-Fr 13:00; Sa 11:00", "name": "USPS COLLECTION BOX - BLUE BOX", "note": "ON 12/24 AND 12/31, THIS BOX MAY BE COLLECTED AS EARLY AS 12 NOON.", "nsi_id": "unitedstatespostalservice-a77078", "operator": "United States Postal Service", "operator:short": "USPS", "operator:type": "public", "operator:wikidata": "Q668687", "ref": "1793500005"}, "type": "Feature"}
{"dataset_attributes": {"@spider": "usps_collection_boxes"}, "geometry": {"coordinates": [-76.2931833, 40.791236], "type": "Point"}, "id": "tjkl5gCFTe91RpzyOiTME3yrdjQ=", "properties": {"@spider": "usps_collection_boxes", "addr:city": "GIRARDVILLE", "addr:country": "US", "addr:full": "398 W MAIN ST", "addr:postcode": "17935", "addr:state": "PA", "amenity": "post_box", "brand": "United States Postal Service", "brand:wikidata": "Q668687", "collection_times": "Mo-Sa 09:00", "name": "USPS COLLECTION BOX - BLUE BOX", "nsi_id": "unitedstatespostalservice-a77078", "operator": "United States Postal Service", "operator:short": "USPS", "operator:type": "public", "operator:wikidata": "Q668687", "ref": "1793500006"}, "type": "Feature"}
{"dataset_attributes": {"@spider": "usps_collection_boxes"}, "geometry": {"coordinates": [-76.2851504, 40.793135], "type": "Point"}, "id": "70PKFB2WOu3hZ5ZNxNwB5D6fdZY=", "properties": {"@spider": "usps_collection_boxes", "addr:city": "GIRARDVILLE", "addr:country": "US", "addr:full": "208 N LINE ST", "addr:postcode": "17935", "addr:state": "PA", "amenity": "post_box", "brand": "United States Postal Service", "brand:wikidata": "Q668687", "collection_times": "Mo-Fr 12:00; Sa 11:00", "name": "USPS COLLECTION BOX - BLUE BOX", "nsi_id": "unitedstatespostalservice-a77078", "operator": "United States Postal Service", "operator:short": "USPS", "operator:type": "public", "operator:wikidata": "Q668687", "ref": "1793500009"}, "type": "Feature"}
{"dataset_attributes": {"@spider": "usps_collection_boxes"}, "geometry": {"coordinates": [-76.2834994, 40.792868], "type": "Point"}, "id": "bgzZTrAOw3b4xxlQ4VY6a5iqr3I=", "properties": {"@spider": "usps_collection_boxes", "addr:city": "GIRARDVILLE", "addr:country": "US", "addr:full": "146 N 2ND ST", "addr:postcode": "17935", "addr:state": "PA", "amenity": "post_box", "brand": "United States Postal Service", "brand:wikidata": "Q668687", "collection_times": "Mo-Sa 10:15", "name": "USPS COLLECTION BOX - BLUE BOX", "nsi_id": "unitedstatespostalservice-a77078", "operator": "United States Postal Service", "operator:short": "USPS", "operator:type": "public", "operator:wikidata": "Q668687", "ref": "1793500013"}, "type": "Feature"}
{"dataset_attributes": {"@spider": "usps_collection_boxes"}, "geometry": {"coordinates": [-76.2902158, 40.79125], "type": "Point"}, "id": "V4mQ6Oj67C8FSmgdnzuDUfLYyzk=", "properties": {"@spider": "usps_collection_boxes", "addr:city": "GIRARDVILLE", "addr:country": "US", "addr:full": "301 W MAIN ST", "addr:postcode": "17935", "addr:state": "PA", "amenity": "post_box", "brand": "United States Postal Service", "brand:wikidata": "Q668687", "collection_times": "Mo-Sa 09:45", "name": "USPS COLLECTION BOX - BLUE BOX", "nsi_id": "unitedstatespostalservice-a77078", "operator": "United States Postal Service", "operator:short": "USPS", "operator:type": "public", "operator:wikidata": "Q668687", "ref": "1793500014"}, "type": "Feature"}
{"dataset_attributes": {"@spider": "usps_collection_boxes"}, "geometry": {"coordinates": [-76.2885768, 40.792058], "type": "Point"}, "id": "N2FOnFuV6HJUyRsoo9RSEEyNEwc=", "properties": {"@spider": "usps_collection_boxes", "addr:city": "GIRARDVILLE", "addr:country": "US", "addr:full": "210 W MAIN ST", "addr:postcode": "17935", "addr:state": "PA", "amenity": "post_box", "brand": "United States Postal Service", "brand:wikidata": "Q668687", "collection_times": "Mo-Fr 16:30; Sa 14:30", "name": "USPS COLLECTION BOX - PO LOBBY", "note": "ON 12/24 AND 12/31, THIS BOX MAY BE COLLECTED AS EARLY AS 12 NOON.", "nsi_id": "unitedstatespostalservice-a77078", "operator": "United States Postal Service", "operator:short": "USPS", "operator:type": "public", "operator:wikidata": "Q668687", "ref": "1793500016"}, "type": "Feature"}
{"dataset_attributes": {"@spider": "usps_collection_boxes"}, "geometry": {"coordinates": [-76.288593641, 40.791363504], "type": "Point"}, "id": "o7Rvhc7GYf_AsY1TJWVqb9ovINo=", "properties": {"@spider": "usps_collection_boxes", "addr:city": "GIRARDVILLE", "addr:country": "US", "addr:full": "210 W MAIN ST", "addr:postcode": "17935", "addr:state": "PA", "amenity": "post_box", "brand": "United States Postal Service", "brand:wikidata": "Q668687", "collection_times": "Mo-Fr 16:30; Sa 11:00", "name": "USPS COLLECTION BOX - PO LOBBY", "note": "ON 12/24 AND 12/31, THIS BOX MAY BE COLLECTED AS EARLY AS 12 NOON.", "nsi_id": "unitedstatespostalservice-a77078", "operator": "United States Postal Service", "operator:short": "USPS", "operator:type": "public", "operator:wikidata": "Q668687", "ref": "1793500018"}, "type": "Feature"}
{"dataset_attributes": {"@spider": "usps_collection_boxes"}, "geometry": {"coordinates": [-76.338019, 40.750314], "type": "Point"}, "id": "hQM4inWC0h1LsLxk0B4z6FQ9ASA=", "properties": {"@spider": "usps_collection_boxes", "addr:city": "GORDON", "addr:country": "US", "addr:full": "130 E BIDDLE ST", "addr:postcode": "17936", "addr:state": "PA", "amenity": "post_box", "brand": "United States Postal Service", "brand:wikidata": "Q668687", "collection_times": "Mo-Fr 16:00; Sa 11:45", "name": "USPS COLLECTION BOX - BLUE BOX", "note": "ON 12/24 AND 12/31, THIS BOX MAY BE COLLECTED AS EARLY AS 12 NOON.", "nsi_id": "unitedstatespostalservice-a77078", "operator": "United States Postal Service", "operator:short": "USPS", "operator:type": "public", "operator:wikidata": "Q668687", "ref": "1793600001"}, "type": "Feature"}
{"dataset_attributes": {"@spider": "usps_collection_boxes"}, "geometry": {"coordinates": [-76.338081, 40.750233], "type": "Point"}, "id": "Vt9OTr3qTwe5PXrw-nt2T4CAtdw=", "properties": {"@spider": "usps_collection_boxes", "addr:city": "GORDON", "addr:country": "US", "addr:full": "130 E BIDDLE ST", "addr:postcode": "17936", "addr:state": "PA", "amenity": "post_box", "brand": "United States Postal Service", "brand:wikidata": "Q668687", "collection_times": "Mo-Fr 11:30; Sa 11:45", "name": "USPS COLLECTION BOX - PO LOBBY", "nsi_id": "unitedstatespostalservice-a77078", "operator": "United States Postal Service", "operator:short": "USPS", "operator:type": "public", "operator:wikidata": "Q668687", "ref": "1793600003"}, "type": "Feature"}
{"dataset_attributes": {"@spider": "usps_collection_boxes"}, "geometry": {"coordinates": [-76.338066131, 40.750321173], "type": "Point"}, "id": "pAt3SwUEFPz03oNd6jznqjp2Opg=", "properties": {"@spider": "usps_collection_boxes", "addr:city": "GORDON", "addr:country": "US", "addr:full": "130 E BIDDLE ST", "addr:postcode": "17936", "addr:state": "PA", "amenity": "post_box", "brand": "United States Postal Service", "brand:wikidata": "Q668687", "collection_times": "Mo-Fr 12:00; Sa 11:30", "name": "USPS COLLECTION BOX - PO LOBBY", "nsi_id": "unitedstatespostalservice-a77078", "operator": "United States Postal Service", "operator:short": "USPS", "operator:type": "public", "operator:wikidata": "Q668687", "ref": "1793600005"}, "type": "Feature"}
{"dataset_attributes": {"@spider": "usps_collection_boxes"}, "geometry": {"coordinates": [-76.500814, 40.649103], "type": "Point"}, "id": "3v2dQymYrLIkiV1RODVbVCfr4QY=", "properties": {"@spider": "usps_collection_boxes", "addr:city": "HEGINS", "addr:country": "US", "addr:full": "15 POST OFFICE RD", "addr:postcode": "17938", "addr:state": "PA", "amenity": "post_box", "brand": "United States Postal Service", "brand:wikidata": "Q668687", "collection_times": "Mo-Fr 16:15; Sa 11:00", "name": "USPS COLLECTION BOX - BLUE BOX", "note": "ON 12/24 AND 12/31, THIS BOX MAY BE COLLECTED AS EARLY AS 12 NOON.", "nsi_id": "unitedstatespostalservice-a77078", "operator": "United States Postal Service", "operator:short": "USPS", "operator:type": "public", "operator:wikidata": "Q668687", "ref": "1793800001"}, "type": "Feature"}
{"dataset_attributes": {"@spider": "usps_collection_boxes"}, "geometry": {"coordinates": [-76.516304873, 40.648783138], "type": "Point"}, "id": "LaW6dbuInWCFx07xSG-sLgqx2Ro=", "properties": {"@spider": "usps_collection_boxes", "addr:city": "HEGINS", "addr:country": "US", "addr:full": "22 FOREST DR", "addr:postcode": "17938", "addr:state": "PA", "amenity": "post_box", "brand": "United States Postal Service", "brand:wikidata": "Q668687", "collection_times": "Mo-Sa 08:45", "name": "USPS COLLECTION BOX - BLUE BOX", "nsi_id": "unitedstatespostalservice-a77078", "operator": "United States Postal Service", "operator:short": "USPS", "operator:type": "public", "operator:wikidata": "Q668687", "ref": "1793800002"}, "type": "Feature"}
{"dataset_attributes": {"@spider": "usps_collection_boxes"}, "geometry": {"coordinates": [-76.500864, 40.649162], "type": "Point"}, "id": "fzgAY7BnuyUDAGuDZzV749cHwko=", "properties": {"@spider": "usps_collection_boxes", "addr:city": "HEGINS", "addr:country": "US", "addr:full": "15 POST OFFICE RD", "addr:postcode": "17938", "addr:state": "PA", "amenity": "post_box", "brand": "United States Postal Service", "brand:wikidata": "Q668687", "collection_times": "Mo-Fr 16:30; Sa 11:15", "name": "USPS COLLECTION BOX - PO LOBBY", "note": "ON 12/24 AND 12/31, THIS BOX MAY BE COLLECTED AS EARLY AS 12 NOON.", "nsi_id": "unitedstatespostalservice-a77078", "operator": "United States Postal Service", "operator:short": "USPS", "operator:type": "public", "operator:wikidata": "Q668687", "ref": "1793800003"}, "type": "Feature"}
{"dataset_attributes": {"@spider": "usps_collection_boxes"}, "geometry": {"coordinates": [-76.50080008, 40.649038502], "type": "Point"}, "id": "BfSgokLhDauITlZuq9AJOHN5fv4=", "properties": {"@spider": "usps_collection_boxes", "addr:city": "HEGINS", "addr:country": "US", "addr:full": "15 POST OFFICE RD", "addr:postcode": "17938", "addr:state": "PA", "amenity": "post_box", "brand": "United States Postal Service", "brand:wikidata": "Q668687", "collection_times": "Mo-Fr 16:35; Sa 11:05", "name": "USPS COLLECTION BOX - PO LOBBY", "note": "ON 12/24 AND 12/31, THIS BOX MAY BE COLLECTED AS EARLY AS 12 NOON.", "nsi_id": "unitedstatespostalservice-a77078", "operator": "United States Postal Service", "operator:short": "USPS", "operator:type": "public", "operator:wikidata": "Q668687", "ref": "1793800005"}, "type": "Feature"}
{"dataset_attributes": {"@spider": "usps_collection_boxes"}, "geometry": {"coordinates": [-76.6893804, 40.659925], "type": "Point"}, "id": "V2tq0DnHF3eisJR6M42sKwj-GRY=", "properties": {"@spider": "usps_collection_boxes", "addr:city": "KLINGERSTOWN", "addr:country": "US", "addr:full": "89 MAIN ST", "addr:postcode": "17941", "addr:state": "PA", "amenity": "post_box", "brand": "United States Postal Service", "brand:wikidata": "Q668687", "collection_times": "Mo-Fr 12:00; Sa 10:45", "name": "USPS COLLECTION BOX - BLUE BOX", "nsi_id": "unitedstatespostalservice-a77078", "operator": "United States Postal Service", "operator:short": "USPS", "operator:type": "public", "operator:wikidata": "Q668687", "ref": "1794100001"}, "type": "Feature"}
{"dataset_attributes": {"@spider": "usps_collection_boxes"}, "geometry": {"coordinates": [-76.385974, 40.763733], "type": "Point"}, "id": "Je4EytDAPujMIdIVZ9vkjx4m0U4=", "properties": {"@spider": "usps_collection_boxes", "addr:city": "LAVELLE", "addr:country": "US", "addr:full": "337 MAIN ST", "addr:postcode": "17943", "addr:state": "PA", "amenity": "post_box", "brand": "United States Postal Service", "brand:wikidata": "Q668687", "collection_times": "Mo-Fr 15:30; Sa 11:00", "name": "USPS COLLECTION BOX - BLUE BOX", "note": "ON 12/24 AND 12/31, THIS BOX MAY BE COLLECTED AS EARLY AS 12 NOON.", "nsi_id": "unitedstatespostalservice-a77078", "operator": "United States Postal Service", "operator:short": "USPS", "operator:type": "public", "operator:wikidata": "Q668687", "ref": "1794300001"}, "type": "Feature"}
{"dataset_attributes": {"@spider": "usps_collection_boxes"}, "geometry": {"coordinates": [-76.385979, 40.763706], "type": "Point"}, "id": "yZlOMJ-LHXSMGSPEQPu9pxAuhrM=", "properties": {"@spider": "usps_collection_boxes", "addr:city": "LAVELLE", "addr:country": "US", "addr:full": "337 MAIN ST", "addr:postcode": "17943", "addr:state": "PA", "amenity": "post_box", "brand": "United States Postal Service", "brand:wikidata": "Q668687", "collection_times": "Mo-Fr 15:30; Sa 11:00", "name": "USPS COLLECTION BOX - PO LOBBY", "note": "ON 12/24 AND 12/31, THIS BOX MAY BE COLLECTED AS EARLY AS 12 NOON.", "nsi_id": "unitedstatespostalservice-a77078", "operator": "United States Postal Service", "operator:short": "USPS", "operator:type": "public", "operator:wikidata": "Q668687", "ref": "1794300003"}, "type": "Feature"}
{"dataset_attributes": {"@spider": "usps_collection_boxes"}, "geometry": {"coordinates": [-76.385940522, 40.763727428], "type": "Point"}, "id": "MvzUY63tNl6ybupyJ79_GHWVNn0=", "properties": {"@spider": "usps_collection_boxes", "addr:city": "LAVELLE", "addr:country": "US", "addr:full": "337 MAIN ST", "addr:postcode": "17943", "addr:state": "PA", "amenity": "post_box", "brand": "United States Postal Service", "brand:wikidata": "Q668687", "collection_times": "Mo-Fr 16:30; Sa 11:00", "name": "USPS COLLECTION BOX - PO LOBBY", "note": "ON 12/24 AND 12/31, THIS BOX MAY BE COLLECTED AS EARLY AS 12 NOON.", "nsi_id": "unitedstatespostalservice-a77078", "operator": "United States Postal Service", "operator:short": "USPS", "operator:type": "public", "operator:wikidata": "Q668687", "ref": "1794300005"}, "type": "Feature"}
{"dataset_attributes": {"@spider": "usps_collection_boxes"}, "geometry": {"coordinates": [-76.278621, 40.672108], "type": "Point"}, "id": "a4f6VRUkjspm8iAg5d7XOcGvIi0=", "properties": {"@spider": "usps_collection_boxes", "addr:city": "LLEWELLYN", "addr:country": "US", "addr:full": "9 SILVERTON RD", "addr:postcode": "17944", "addr:state": "PA", "amenity": "post_box", "brand": "United States Postal Service", "brand:wikidata": "Q668687", "collection_times": "Mo-Fr 16:30; Sa 11:15", "name": "USPS COLLECTION BOX - BLUE BOX", "note": "ON 12/24 AND 12/31, THIS BOX MAY BE COLLECTED AS EARLY AS 12 NOON.", "nsi_id": "unitedstatespostalservice-a77078", "operator": "United States Postal Service", "operator:short": "USPS", "operator:type": "public", "operator:wikidata": "Q668687", "ref": "1794400001"}, "type": "Feature"}
{"dataset_attributes": {"@spider": "usps_collection_boxes"}, "geometry": {"coordinates": [-76.27855, 40.672031], "type": "Point"}, "id": "0z-GzXAvpADb0dGIt98Hocl_RF0=", "properties": {"@spider": "usps_collection_boxes", "addr:city": "LLEWELLYN", "addr:country": "US", "addr:full": "9 SILVERTON RD", "addr:postcode": "17944", "addr:state": "PA", "amenity": "post_box", "brand": "United States Postal Service", "brand:wikidata": "Q668687", "collection_times": "Mo-Fr 12:00; Sa 11:15", "name": "USPS COLLECTION BOX - PO LOBBY", "nsi_id": "unitedstatespostalservice-a77078", "operator": "United States Postal Service", "operator:short": "USPS", "operator:type": "public", "operator:wikidata": "Q668687", "ref": "1794400002"}, "type": "Feature"}
{"dataset_attributes": {"@spider": "usps_collection_boxes"}, "geometry": {"coordinates": [-76.278628703, 40.672056687], "type": "Point"}, "id": "91WZCTLhHSjBM5C19UNt3-8kIns=", "properties": {"@spider": "usps_collection_boxes", "addr:city": "LLEWELLYN", "addr:country": "US", "addr:full": "9 SILVERTON RD", "addr:postcode": "17944", "addr:state": "PA", "amenity": "post_box", "brand": "United States Postal Service", "brand:wikidata": "Q668687", "collection_times": "Mo-Fr 12:00; Sa 11:15", "name": "USPS COLLECTION BOX - PO LOBBY", "nsi_id": "unitedstatespostalservice-a77078", "operator": "United States Postal Service", "operator:short": "USPS", "operator:type": "public", "operator:wikidata": "Q668687", "ref": "1794400004"}, "type": "Feature"}
{"dataset_attributes": {"@spider": "usps_collection_boxes"}, "geometry": {"coordinates": [-76.372963, 40.777649], "type": "Point"}, "id": "ECEhWKp5voej7mLLKVT5YfzKD30=", "properties": {"@spider": "usps_collection_boxes", "addr:city": "LOCUSTDALE", "addr:country": "US", "addr:full": "3115 MAIN ST", "addr:postcode": "17945", "addr:state": "PA", "amenity": "post_box", "brand": "United States Postal Service", "brand:wikidata": "Q668687", "collection_times": "Mo-Fr 15:45; Sa 11:00", "name": "USPS COLLECTION BOX - BLUE BOX", "note": "ON 12/24 AND 12/31, THIS BOX MAY BE COLLECTED AS EARLY AS 12 NOON.", "nsi_id": "unitedstatespostalservice-a77078", "operator": "United States Postal Service", "operator:short": "USPS", "operator:type": "public", "operator:wikidata": "Q668687", "ref": "1794500001"}, "type": "Feature"}
{"dataset_attributes": {"@spider": "usps_collection_boxes"}, "geometry": {"coordinates": [-76.372839, 40.77764], "type": "Point"}, "id": "5H9sb6hjcQYMdd9Zwrh5VHsaJXw=", "properties": {"@spider": "usps_collection_boxes", "addr:city": "LOCUSTDALE", "addr:country": "US", "addr:full": "3115 MAIN ST", "addr:postcode": "17945", "addr:state": "PA", "amenity": "post_box", "brand": "United States Postal Service", "brand:wikidata": "Q668687", "collection_times": "Mo-Sa 11:30", "name": "USPS COLLECTION BOX - PO LOBBY", "nsi_id": "unitedstatespostalservice-a77078", "operator": "United States Postal Service", "operator:short": "USPS", "operator:type": "public", "operator:wikidata": "Q668687", "ref": "1794500002"}, "type": "Feature"}
{"dataset_attributes": {"@spider": "usps_collection_boxes"}, "geometry": {"coordinates": [-76.372928729, 40.7776948], "type": "Point"}, "id": "iTt1yC-d6rcw0YExmXMz3-5XyMQ=", "properties": {"@spider": "usps_collection_boxes", "addr:city": "LOCUSTDALE", "addr:country": "US", "addr:full": "3115 MAIN ST", "addr:postcode": "17945", "addr:state": "PA", "amenity": "post_box", "brand": "United States Postal Service", "brand:wikidata": "Q668687", "collection_times": "Mo-Sa 11:35", "name": "USPS COLLECTION BOX - PO LOBBY", "nsi_id": "unitedstatespostalservice-a77078", "operator": "United States Postal Service", "operator:short": "USPS", "operator:type": "public", "operator:wikidata": "Q668687", "ref": "1794500004"}, "type": "Feature"}
{"dataset_attributes": {"@spider": "usps_collection_boxes"}, "geometry": {"coordinates": [-76.246262, 40.805537], "type": "Point"}, "id": "adV_dvMZBH6gUOsKZpv06RYRa28=", "properties": {"@spider": "usps_collection_boxes", "addr:city": "LOST CREEK", "addr:country": "US", "addr:full": "43 CONVENT RD", "addr:postcode": "17946", "addr:state": "PA", "amenity": "post_box", "brand": "United States Postal Service", "brand:wikidata": "Q668687", "collection_times": "Mo-Fr 16:00; Sa 10:30", "name": "USPS COLLECTION BOX - BLUE BOX", "note": "ON 12/24 AND 12/31, THIS BOX MAY BE COLLECTED AS EARLY AS 12 NOON.", "nsi_id": "unitedstatespostalservice-a77078", "operator": "United States Postal Service", "operator:short": "USPS", "operator:type": "public", "operator:wikidata": "Q668687", "ref": "1794600001"}, "type": "Feature"}
{"dataset_attributes": {"@spider": "usps_collection_boxes"}, "geometry": {"coordinates": [-76.246193, 40.805551], "type": "Point"}, "id": "bYaYNPOzBSEj4RpuZq6lu7wmhNI=", "properties": {"@spider": "usps_collection_boxes", "addr:city": "LOST CREEK", "addr:country": "US", "addr:full": "43 CONVENT RD", "addr:postcode": "17946", "addr:state": "PA", "amenity": "post_box", "brand": "United States Postal Service", "brand:wikidata": "Q668687", "collection_times": "Mo-Sa 10:30", "name": "USPS COLLECTION BOX - PO LOBBY", "nsi_id": "unitedstatespostalservice-a77078", "operator": "United States Postal Service", "operator:short": "USPS", "operator:type": "public", "operator:wikidata": "Q668687", "ref": "1794600002"}, "type": "Feature"}
{"dataset_attributes": {"@spider": "usps_collection_boxes"}, "geometry": {"coordinates": [-76.24722666, 40.806057803], "type": "Point"}, "id": "c2TAzJKcEv4_rPjbjEXu8UJdVe0=", "properties": {"@spider": "usps_collection_boxes", "addr:city": "LOST CREEK", "addr:country": "US", "addr:full": "43 CONVENT RD", "addr:postcode": "17946", "addr:state": "PA", "amenity": "post_box", "brand": "United States Postal Service", "brand:wikidata": "Q668687", "collection_times": "Mo-Sa 11:00", "name": "USPS COLLECTION BOX - PO LOBBY", "nsi_id": "unitedstatespostalservice-a77078", "operator": "United States Postal Service", "operator:short": "USPS", "operator:type": "public", "operator:wikidata": "Q668687", "ref": "1794600005"}, "type": "Feature"}
{"dataset_attributes": {"@spider": "usps_collection_boxes"}, "geometry": {"coordinates": [-76.1375247, 40.81342], "type": "Point"}, "id": "lK_e7XUcQ_Jb1f8VmWE-8gP2bEI=", "properties": {"@spider": "usps_collection_boxes", "addr:city": "MAHANOY CITY", "addr:country": "US", "addr:full": "400 E CENTRE ST", "addr:postcode": "17948", "addr:state": "PA", "amenity": "post_box", "brand": "United States Postal Service", "brand:wikidata": "Q668687", "collection_times": "Mo-Sa 09:30", "name": "USPS COLLECTION BOX - BLUE BOX", "nsi_id": "unitedstatespostalservice-a77078", "operator": "United States Postal Service", "operator:short": "USPS", "operator:type": "public", "operator:wikidata": "Q668687", "ref": "1794800000"}, "type": "Feature"}
{"dataset_attributes": {"@spider": "usps_collection_boxes"}, "geometry": {"coordinates": [-76.1420222, 40.812651], "type": "Point"}, "id": "L_QCTsI5yndz-xKUpNur29c_D5w=", "properties": {"@spider": "usps_collection_boxes", "addr:city": "MAHANOY CITY", "addr:country": "US", "addr:full": "10 W CENTRE ST", "addr:postcode": "17948", "addr:state": "PA", "amenity": "post_box", "brand": "United States Postal Service", "brand:wikidata": "Q668687", "collection_times": "Mo-Sa 10:00", "name": "USPS COLLECTION BOX - BLUE BOX", "nsi_id": "unitedstatespostalservice-a77078", "operator": "United States Postal Service", "operator:short": "USPS", "operator:type": "public", "operator:wikidata": "Q668687", "ref": "1794800020"}, "type": "Feature"}
{"dataset_attributes": {"@spider": "usps_collection_boxes"}, "geometry": {"coordinates": [-76.140953, 40.811857], "type": "Point"}, "id": "unukHcbpxtBp7zTEfRIndgQzQ2s=", "properties": {"@spider": "usps_collection_boxes", "addr:city": "MAHANOY CITY", "addr:country": "US", "addr:full": "39 E PINE ST", "addr:postcode": "17948", "addr:state": "PA", "amenity": "post_box", "brand": "United States Postal Service", "brand:wikidata": "Q668687", "collection_times": "Mo-Fr 16:30; Sa 15:00", "name": "USPS COLLECTION BOX - BLUE BOX", "note": "ON 12/24 AND 12/31, THIS BOX MAY BE COLLECTED AS EARLY AS 12 NOON.", "nsi_id": "unitedstatespostalservice-a77078", "operator": "United States Postal Service", "operator:short": "USPS", "operator:type": "public", "operator:wikidata": "Q668687", "ref": "1794800028"}, "type": "Feature"}
{"dataset_attributes": {"@spider": "usps_collection_boxes"}, "geometry": {"coordinates": [-76.14097, 40.811826], "type": "Point"}, "id": "mC6sR83JaONCusXi89mOE_QsmKo=", "properties": {"@spider": "usps_collection_boxes", "addr:city": "MAHANOY CITY", "addr:country": "US", "addr:full": "39 E PINE ST", "addr:postcode": "17948", "addr:state": "PA", "amenity": "post_box", "brand": "United States Postal Service", "brand:wikidata": "Q668687", "collection_times": "Mo-Fr 16:30; Sa 15:00", "name": "USPS COLLECTION BOX - PO LOBBY", "note": "ON 12/24 AND 12/31, THIS BOX MAY BE COLLECTED AS EARLY AS 12 NOON.", "nsi_id": "unitedstatespostalservice-a77078", "operator": "United States Postal Service", "operator:short": "USPS", "operator:type": "public", "operator:wikidata": "Q668687", "ref": "1794800029"}, "type": "Feature"}
{"dataset_attributes": {"@spider": "usps_collection_boxes"}, "geometry": {"coordinates": [-76.140971707, 40.811891703], "type": "Point"}, "id": "k9b2C1NeNje0y7YPIDp4xTaRWAE=", "properties": {"@spider": "usps_collection_boxes", "addr:city": "MAHANOY CITY", "addr:country": "US", "addr:full": "39 E PINE ST", "addr:postcode": "17948", "addr:state": "PA", "amenity": "post_box", "brand": "United States Postal Service", "brand:wikidata": "Q668687", "collection_times": "Mo-Fr 16:30; Sa 10:45", "name": "USPS COLLECTION BOX - PO LOBBY", "note": "ON 12/24 AND 12/31, THIS BOX MAY BE COLLECTED AS EARLY AS 12 NOON.", "nsi_id": "unitedstatespostalservice-a77078", "operator": "United States Postal Service", "operator:short": "USPS", "operator:type": "public", "operator:wikidata": "Q668687", "ref": "1794800031"}, "type": "Feature"}
{"dataset_attributes": {"@spider": "usps_collection_boxes"}, "geometry": {"coordinates": [-76.243756, 40.679088], "type": "Point"}, "id": "q0bwUUXEQ9BDBte7hGgWcKUKcb4=", "properties": {"@spider": "usps_collection_boxes", "addr:city": "MAR LIN", "addr:country": "US", "addr:full": "401 BEECHWOOD AVE", "addr:postcode": "17951", "addr:state": "PA", "amenity": "post_box", "brand": "United States Postal Service", "brand:wikidata": "Q668687", "collection_times": "Mo-Fr 16:00; Sa 10:45", "name": "USPS COLLECTION BOX - BLUE BOX", "note": "ON 12/24 AND 12/31, THIS BOX MAY BE COLLECTED AS EARLY AS 12 NOON.", "nsi_id": "unitedstatespostalservice-a77078", "operator": "United States Postal Service", "operator:short": "USPS", "operator:type": "public", "operator:wikidata": "Q668687", "ref": "1795100002"}, "type": "Feature"}
{"dataset_attributes": {"@spider": "usps_collection_boxes"}, "geometry": {"coordinates": [-76.243856, 40.679032], "type": "Point"}, "id": "KEdpzE1NndLtUJE8KOyYnRQMbRA=", "properties": {"@spider": "usps_collection_boxes", "addr:city": "MAR LIN", "addr:country": "US", "addr:full": "401 BEECHWOOD AVE", "addr:postcode": "17951", "addr:state": "PA", "amenity": "post_box", "brand": "United States Postal Service", "brand:wikidata": "Q668687", "collection_times": "Mo-Fr 16:00; Sa 10:45", "name": "USPS COLLECTION BOX - PO LOBBY", "note": "ON 12/24 AND 12/31, THIS BOX MAY BE COLLECTED AS EARLY AS 12 NOON.", "nsi_id": "unitedstatespostalservice-a77078", "operator": "United States Postal Service", "operator:short": "USPS", "operator:type": "public", "operator:wikidata": "Q668687", "ref": "1795100003"}, "type": "Feature"}
{"dataset_attributes": {"@spider": "usps_collection_boxes"}, "geometry": {"coordinates": [-76.243558682, 40.679156848], "type": "Point"}, "id": "uN7WdXPfmqRyxGlBdaFeBHGByaw=", "properties": {"@spider": "usps_collection_boxes", "addr:city": "MAR LIN", "addr:country": "US", "addr:full": "401 BEECHWOOD AVE", "addr:postcode": "17951", "addr:state": "PA", "amenity": "post_box", "brand": "United States Postal Service", "brand:wikidata": "Q668687", "collection_times": "Mo-Fr 16:00; Sa 11:00", "name": "USPS COLLECTION BOX - PO LOBBY", "note": "ON 12/24 AND 12/31, THIS BOX MAY BE COLLECTED AS EARLY AS 12 NOON.", "nsi_id": "unitedstatespostalservice-a77078", "operator": "United States Postal Service", "operator:short": "USPS", "operator:type": "public", "operator:wikidata": "Q668687", "ref": "1795100005"}, "type": "Feature"}
{"dataset_attributes": {"@spider": "usps_collection_boxes"}, "geometry": {"coordinates": [-76.055017, 40.759994], "type": "Point"}, "id": "i9SqYOdqB096CK74ATSq5dwnBQA=", "properties": {"@spider": "usps_collection_boxes", "addr:city": "MARY D", "addr:country": "US", "addr:full": "15 MAIN ST", "addr:postcode": "17952", "addr:state": "PA", "amenity": "post_box", "brand": "United States Postal Service", "brand:wikidata": "Q668687", "collection_times": "Mo-Fr 16:00; Sa 11:45", "name": "USPS COLLECTION BOX - BLUE BOX", "note": "ON 12/24 AND 12/31, THIS BOX MAY BE COLLECTED AS EARLY AS 12 NOON.", "nsi_id": "unitedstatespostalservice-a77078", "operator": "United States Postal Service", "operator:short": "USPS", "operator:type": "public", "operator:wikidata": "Q668687", "ref": "1795200002"}, "type": "Feature"}
{"dataset_attributes": {"@spider": "usps_collection_boxes"}, "geometry": {"coordinates": [-76.054897, 40.759971], "type": "Point"}, "id": "iFYhD5lSZXXfJ9vWHxFqiTQMSaY=", "properties": {"@spider": "usps_collection_boxes", "addr:city": "MARY D", "addr:country": "US", "addr:full": "15 MAIN ST", "addr:postcode": "17952", "addr:state": "PA", "amenity": "post_box", "brand": "United States Postal Service", "brand:wikidata": "Q668687", "collection_times": "Mo-Fr 16:00; Sa 11:45", "name": "USPS COLLECTION BOX - PO LOBBY", "note": "ON 12/24 AND 12/31, THIS BOX MAY BE COLLECTED AS EARLY AS 12 NOON.", "nsi_id": "unitedstatespostalservice-a77078", "operator": "United States Postal Service", "operator:short": "USPS", "operator:type": "public", "operator:wikidata": "Q668687", "ref": "1795200003"}, "type": "Feature"}
{"dataset_attributes": {"@spider": "usps_collection_boxes"}, "geometry": {"coordinates": [-76.055044436, 40.760001997], "type": "Point"}, "id": "5DBHw7xqvdEOg_vr-2uiYo4EZqA=", "properties": {"@spider": "usps_collection_boxes", "addr:city": "MARY D", "addr:country": "US", "addr:full": "15 MAIN ST", "addr:postcode": "17952", "addr:state": "PA", "amenity": "post_box", "brand": "United States Postal Service", "brand:wikidata": "Q668687", "collection_times": "Mo-Fr 16:15; Sa 11:30", "name": "USPS COLLECTION BOX - PO LOBBY", "note": "ON 12/24 AND 12/31, THIS BOX MAY BE COLLECTED AS EARLY AS 12 NOON.", "nsi_id": "unitedstatespostalservice-a77078", "operator": "United States Postal Service", "operator:short": "USPS", "operator:type": "public", "operator:wikidata": "Q668687", "ref": "1795200005"}, "type": "Feature"}
{"dataset_attributes": {"@spider": "usps_collection_boxes"}, "geometry": {"coordinates": [-76.085412, 40.728693], "type": "Point"}, "id": "1g2X7DdrTCqiZpPqiqK6ETfUWQs=", "properties": {"@spider": "usps_collection_boxes", "addr:city": "MIDDLEPORT", "addr:country": "US", "addr:full": "32 MAIN ST", "addr:postcode": "17953", "addr:state": "PA", "amenity": "post_box", "brand": "United States Postal Service", "brand:wikidata": "Q668687", "collection_times": "Mo-Fr 16:15; Sa 11:45", "name": "USPS COLLECTION BOX - BLUE BOX", "note": "ON 12/24 AND 12/31, THIS BOX MAY BE COLLECTED AS EARLY AS 12 NOON.", "nsi_id": "unitedstatespostalservice-a77078", "operator": "United States Postal Service", "operator:short": "USPS", "operator:type": "public", "operator:wikidata": "Q668687", "ref": "1795300001"}, "type": "Feature"}
{"dataset_attributes": {"@spider": "usps_collection_boxes"}, "geometry": {"coordinates": [-76.085481, 40.728742], "type": "Point"}, "id": "4Aqe8GuSJ84kkxxUo4hkaRl9kwE=", "properties": {"@spider": "usps_collection_boxes", "addr:city": "MIDDLEPORT", "addr:country": "US", "addr:full": "32 MAIN ST", "addr:postcode": "17953", "addr:state": "PA", "amenity": "post_box", "brand": "United States Postal Service", "brand:wikidata": "Q668687", "collection_times": "Mo-Sa 11:45", "name": "USPS COLLECTION BOX - PO LOBBY", "nsi_id": "unitedstatespostalservice-a77078", "operator": "United States Postal Service", "operator:short": "USPS", "operator:type": "public", "operator:wikidata": "Q668687", "ref": "1795300003"}, "type": "Feature"}
{"dataset_attributes": {"@spider": "usps_collection_boxes"}, "geometry": {"coordinates": [-76.085221748, 40.72839015], "type": "Point"}, "id": "QDQ01DC1zk_PxfXlTrbRKTMeX70=", "properties": {"@spider": "usps_collection_boxes", "addr:city": "MIDDLEPORT", "addr:country": "US", "addr:full": "32 MAIN ST", "addr:postcode": "17953", "addr:state": "PA", "amenity": "post_box", "brand": "United States Postal Service", "brand:wikidata": "Q668687", "collection_times": "Mo-Sa 11:45", "name": "USPS COLLECTION BOX - PO LOBBY", "nsi_id": "unitedstatespostalservice-a77078", "operator": "United States Postal Service", "operator:short": "USPS", "operator:type": "public", "operator:wikidata": "Q668687", "ref": "1795300005"}, "type": "Feature"}
{"dataset_attributes": {"@spider": "usps_collection_boxes"}, "geometry": {"coordinates": [-76.2594454, 40.690738], "type": "Point"}, "id": "mMQqevey9DBc-Q2jXXC4bzuEbt0=", "properties": {"@spider": "usps_collection_boxes", "addr:city": "MINERSVILLE", "addr:country": "US", "addr:full": "100 SUNBURY ST", "addr:postcode": "17954", "addr:state": "PA", "amenity": "post_box", "brand": "United States Postal Service", "brand:wikidata": "Q668687", "collection_times": "Mo-Fr 12:30; Sa 11:15", "name": "USPS COLLECTION BOX - BLUE BOX", "note": "ON 12/24 AND 12/31, THIS BOX MAY BE COLLECTED AS EARLY AS 12 NOON.", "nsi_id": "unitedstatespostalservice-a77078", "operator": "United States Postal Service", "operator:short": "USPS", "operator:type": "public", "operator:wikidata": "Q668687", "ref": "1795400001"}, "type": "Feature"}
{"dataset_attributes": {"@spider": "usps_collection_boxes"}, "geometry": {"coordinates": [-76.2620283, 40.691278], "type": "Point"}, "id": "mY017-S5KkFl9SQVnEIej4q7GfU=", "properties": {"@spider": "usps_collection_boxes", "addr:city": "MINERSVILLE", "addr:country": "US", "addr:full": "251 SUNBURY ST", "addr:postcode": "17954", "addr:state": "PA", "amenity": "post_box", "brand": "United States Postal Service", "brand:wikidata": "Q668687", "collection_times": "Mo-Fr 12:30; Sa 11:15", "name": "USPS COLLECTION BOX - BLUE BOX", "note": "ON 12/24 AND 12/31, THIS BOX MAY BE COLLECTED AS EARLY AS 12 NOON.", "nsi_id": "unitedstatespostalservice-a77078", "operator": "United States Postal Service", "operator:short": "USPS", "operator:type": "public", "operator:wikidata": "Q668687", "ref": "1795400002"}, "type": "Feature"}
{"dataset_attributes": {"@spider": "usps_collection_boxes"}, "geometry": {"coordinates": [-76.2626593, 40.692711], "type": "Point"}, "id": "fTZEpumSbnphhPo-vSISMdx9ak8=", "properties": {"@spider": "usps_collection_boxes", "addr:city": "MINERSVILLE", "addr:country": "US", "addr:full": "331 NORTH ST", "addr:postcode": "17954", "addr:state": "PA", "amenity": "post_box", "brand": "United States Postal Service", "brand:wikidata": "Q668687", "collection_times": "Mo-Sa 11:00", "name": "USPS COLLECTION BOX - BLUE BOX", "nsi_id": "unitedstatespostalservice-a77078", "operator": "United States Postal Service", "operator:short": "USPS", "operator:type": "public", "operator:wikidata": "Q668687", "ref": "1795400008"}, "type": "Feature"}
{"dataset_attributes": {"@spider": "usps_collection_boxes"}, "geometry": {"coordinates": [-76.2628647, 40.686209], "type": "Point"}, "id": "V9bI6TvXxCOoYnHVIUWRCP-_ThI=", "properties": {"@spider": "usps_collection_boxes", "addr:city": "MINERSVILLE", "addr:country": "US", "addr:full": "430 PINE HILL ST", "addr:postcode": "17954", "addr:state": "PA", "amenity": "post_box", "brand": "United States Postal Service", "brand:wikidata": "Q668687", "collection_times": "Mo-Sa 08:30", "name": "USPS COLLECTION BOX - BLUE BOX", "nsi_id": "unitedstatespostalservice-a77078", "operator": "United States Postal Service", "operator:short": "USPS", "operator:type": "public", "operator:wikidata": "Q668687", "ref": "1795400010"}, "type": "Feature"}
{"dataset_attributes": {"@spider": "usps_collection_boxes"}, "geometry": {"coordinates": [-76.2639115, 40.691703], "type": "Point"}, "id": "38uKEhrHHvo5Ab724d3h1S3pYvc=", "properties": {"@spider": "usps_collection_boxes", "addr:city": "MINERSVILLE", "addr:country": "US", "addr:full": "407 SUNBURY ST", "addr:postcode": "17954", "addr:state": "PA", "amenity": "post_box", "brand": "United States Postal Service", "brand:wikidata": "Q668687", "collection_times": "Mo-Fr 16:00; Sa 11:30", "name": "USPS COLLECTION BOX - BLUE BOX", "note": "ON 12/24 AND 12/31, THIS BOX MAY BE COLLECTED AS EARLY AS 12 NOON.", "nsi_id": "unitedstatespostalservice-a77078", "operator": "United States Postal Service", "operator:short": "USPS", "operator:type": "public", "operator:wikidata": "Q668687", "ref": "1795400032"}, "type": "Feature"}
{"dataset_attributes": {"@spider": "usps_collection_boxes"}, "geometry": {"coordinates": [-76.2640428, 40.691545], "type": "Point"}, "id": "Y7uTcLUoB8KghECbuFhCS_kZ6-Q=", "properties": {"@spider": "usps_collection_boxes", "addr:city": "MINERSVILLE", "addr:country": "US", "addr:full": "407 SUNBURY ST", "addr:postcode": "17954", "addr:state": "PA", "amenity": "post_box", "brand": "United States Postal Service", "brand:wikidata": "Q668687", "collection_times": "Mo-Fr 16:00; Sa 11:30", "name": "USPS COLLECTION BOX - PO LOBBY", "note": "ON 12/24 AND 12/31, THIS BOX MAY BE COLLECTED AS EARLY AS 12 NOON.", "nsi_id": "unitedstatespostalservice-a77078", "operator": "United States Postal Service", "operator:short": "USPS", "operator:type": "public", "operator:wikidata": "Q668687", "ref": "1795400036"}, "type": "Feature"}
{"dataset_attributes": {"@spider": "usps_collection_boxes"}, "geometry": {"coordinates": [-76.263908123, 40.6917149], "type": "Point"}, "id": "VfpEf2f86Lyo7SS51ZWimW8gZZ8=", "properties": {"@spider": "usps_collection_boxes", "addr:city": "MINERSVILLE", "addr:country": "US", "addr:full": "407 SUNBURY ST", "addr:postcode": "17954", "addr:state": "PA", "amenity": "post_box", "brand": "United States Postal Service", "brand:wikidata": "Q668687", "collection_times": "Mo-Fr 16:30; Sa 11:45", "name": "USPS COLLECTION BOX - PO LOBBY", "note": "ON 12/24 AND 12/31, THIS BOX MAY BE COLLECTED AS EARLY AS 12 NOON.", "nsi_id": "unitedstatespostalservice-a77078", "operator": "United States Postal Service", "operator:short": "USPS", "operator:type": "public", "operator:wikidata": "Q668687", "ref": "1795400038"}, "type": "Feature"}
{"dataset_attributes": {"@spider": "usps_collection_boxes"}, "geometry": {"coordinates": [-76.520657, 40.591955], "type": "Point"}, "id": "EXwqTaLnbNc_JGFIhkYy6325od8=", "properties": {"@spider": "usps_collection_boxes", "addr:city": "MUIR", "addr:country": "US", "addr:full": "212 W WICONISCO ST", "addr:postcode": "17957", "addr:state": "PA", "amenity": "post_box", "brand": "United States Postal Service", "brand:wikidata": "Q668687", "collection_times": "Mo-Fr 13:00; Sa 10:45", "name": "USPS COLLECTION BOX - BLUE BOX", "note": "ON 12/24 AND 12/31, THIS BOX MAY BE COLLECTED AS EARLY AS 12 NOON.", "nsi_id": "unitedstatespostalservice-a77078", "operator": "United States Postal Service", "operator:short": "USPS", "operator:type": "public", "operator:wikidata": "Q668687", "ref": "1795700001"}, "type": "Feature"}
{"dataset_attributes": {"@spider": "usps_collection_boxes"}, "geometry": {"coordinates": [-76.520585, 40.592003], "type": "Point"}, "id": "H9ePIfHwM0jZ5BN8fFU_zndOIqk=", "properties": {"@spider": "usps_collection_boxes", "addr:city": "MUIR", "addr:country": "US", "addr:full": "212 W WICONISCO ST", "addr:postcode": "17957", "addr:state": "PA", "amenity": "post_box", "brand": "United States Postal Service", "brand:wikidata": "Q668687", "collection_times": "Mo-Fr 13:00; Sa 10:45", "name": "USPS COLLECTION BOX - PO LOBBY", "note": "ON 12/24 AND 12/31, THIS BOX MAY BE COLLECTED AS EARLY AS 12 NOON.", "nsi_id": "unitedstatespostalservice-a77078", "operator": "United States Postal Service", "operator:short": "USPS", "operator:type": "public", "operator:wikidata": "Q668687", "ref": "1795700002"}, "type": "Feature"}
{"dataset_attributes": {"@spider": "usps_collection_boxes"}, "geometry": {"coordinates": [-76.521473178, 40.59172905], "type": "Point"}, "id": "rnNxob4-EoOSk5Evmd5X05ZarzI=", "properties": {"@spider": "usps_collection_boxes", "addr:city": "MUIR", "addr:country": "US", "addr:full": "212 W WICONISCO ST OFC", "addr:postcode": "17957", "addr:state": "PA", "amenity": "post_box", "brand": "United States Postal Service", "brand:wikidata": "Q668687", "collection_times": "Mo-Fr 13:00; Sa 11:00", "name": "USPS COLLECTION BOX - PO LOBBY", "note": "ON 12/24 AND 12/31, THIS BOX MAY BE COLLECTED AS EARLY AS 12 NOON.", "nsi_id": "unitedstatespostalservice-a77078", "operator": "United States Postal Service", "operator:short": "USPS", "operator:type": "public", "operator:wikidata": "Q668687", "ref": "1795700004"}, "type": "Feature"}
{"dataset_attributes": {"@spider": "usps_collection_boxes"}, "geometry": {"coordinates": [-76.117467, 40.718279], "type": "Point"}, "id": "rD0m2PVGGCLRhCwZdxtCmAJF0oM=", "properties": {"@spider": "usps_collection_boxes", "addr:city": "NEW PHILA", "addr:country": "US", "addr:full": "121 VALLEY ST", "addr:postcode": "17959", "addr:state": "PA", "amenity": "post_box", "brand": "United States Postal Service", "brand:wikidata": "Q668687", "collection_times": "Mo-Fr 16:15; Sa 12:45", "name": "USPS COLLECTION BOX - BLUE BOX", "note": "ON 12/24 AND 12/31, THIS BOX MAY BE COLLECTED AS EARLY AS 12 NOON.", "nsi_id": "unitedstatespostalservice-a77078", "operator": "United States Postal Service", "operator:short": "USPS", "operator:type": "public", "operator:wikidata": "Q668687", "ref": "1795900010"}, "type": "Feature"}
{"dataset_attributes": {"@spider": "usps_collection_boxes"}, "geometry": {"coordinates": [-76.117463, 40.718313], "type": "Point"}, "id": "ejSBuIpcr4t2yZIeTF7L4icelNk=", "properties": {"@spider": "usps_collection_boxes", "addr:city": "NEW PHILA", "addr:country": "US", "addr:full": "121 VALLEY ST", "addr:postcode": "17959", "addr:state": "PA", "amenity": "post_box", "brand": "United States Postal Service", "brand:wikidata": "Q668687", "collection_times": "Mo-Fr 12:00", "name": "USPS COLLECTION BOX - PO LOBBY", "nsi_id": "unitedstatespostalservice-a77078", "operator": "United States Postal Service", "operator:short": "USPS", "operator:type": "public", "operator:wikidata": "Q668687", "ref": "1795900018"}, "type": "Feature"}
{"dataset_attributes": {"@spider": "usps_collection_boxes"}, "geometry": {"coordinates": [-76.117127221, 40.718471638], "type": "Point"}, "id": "pMZiL5gCAyV4doZShIkrufstSQM=", "properties": {"@spider": "usps_collection_boxes", "addr:city": "NEW PHILA", "addr:country": "US", "addr:full": "121 VALLEY ST", "addr:postcode": "17959", "addr:state": "PA", "amenity": "post_box", "brand": "United States Postal Service", "brand:wikidata": "Q668687", "collection_times": "Mo-Fr 12:00", "name": "USPS COLLECTION BOX - PO LOBBY", "nsi_id": "unitedstatespostalservice-a77078", "operator": "United States Postal Service", "operator:short": "USPS", "operator:type": "public", "operator:wikidata": "Q668687", "ref": "1795900020"}, "type": "Feature"}
{"dataset_attributes": {"@spider": "usps_collection_boxes"}, "geometry": {"coordinates": [-75.999428476, 40.686657799], "type": "Point"}, "id": "wL920vE_QAp65tw-F2F6bVaMygg=", "properties": {"@spider": "usps_collection_boxes", "addr:city": "NEW RINGGOLD", "addr:country": "US", "addr:full": "27 N RAILROAD ST", "addr:postcode": "17960", "addr:state": "PA", "amenity": "post_box", "brand": "United States Postal Service", "brand:wikidata": "Q668687", "collection_times": "Mo-Fr 16:00; Sa 10:00", "name": "USPS COLLECTION BOX - BLUE BOX", "note": "ON 12/24 AND 12/31, THIS BOX MAY BE COLLECTED AS EARLY AS 12 NOON.", "nsi_id": "unitedstatespostalservice-a77078", "operator": "United States Postal Service", "operator:short": "USPS", "operator:type": "public", "operator:wikidata": "Q668687", "ref": "1796000002"}, "type": "Feature"}
{"dataset_attributes": {"@spider": "usps_collection_boxes"}, "geometry": {"coordinates": [-75.999428476, 40.686657799], "type": "Point"}, "id": "3rEZ8T9OsQG4JtAO37_mv_innqQ=", "properties": {"@spider": "usps_collection_boxes", "addr:city": "NEW RINGGOLD", "addr:country": "US", "addr:full": "27 N RAILROAD ST", "addr:postcode": "17960", "addr:state": "PA", "amenity": "post_box", "brand": "United States Postal Service", "brand:wikidata": "Q668687", "collection_times": "Mo-Fr 16:00; Sa 10:00", "name": "USPS COLLECTION BOX - PO LOBBY", "note": "ON 12/24 AND 12/31, THIS BOX MAY BE COLLECTED AS EARLY AS 12 NOON.", "nsi_id": "unitedstatespostalservice-a77078", "operator": "United States Postal Service", "operator:short": "USPS", "operator:type": "public", "operator:wikidata": "Q668687", "ref": "1796000003"}, "type": "Feature"}
{"dataset_attributes": {"@spider": "usps_collection_boxes"}, "geometry": {"coordinates": [-75.999428476, 40.686657799], "type": "Point"}, "id": "CJX8h5yhdUBUOWgQ6IMAlHx_GkM=", "properties": {"@spider": "usps_collection_boxes", "addr:city": "NEW RINGGOLD", "addr:country": "US", "addr:full": "27 N RAILROAD ST", "addr:postcode": "17960", "addr:state": "PA", "amenity": "post_box", "brand": "United States Postal Service", "brand:wikidata": "Q668687", "collection_times": "Mo-Fr 16:15; Sa 10:15", "name": "USPS COLLECTION BOX - PO LOBBY", "note": "ON 12/24 AND 12/31, THIS BOX MAY BE COLLECTED AS EARLY AS 12 NOON.", "nsi_id": "unitedstatespostalservice-a77078", "operator": "United States Postal Service", "operator:short": "USPS", "operator:type": "public", "operator:wikidata": "Q668687", "ref": "1796000005"}, "type": "Feature"}
{"dataset_attributes": {"@spider": "usps_collection_boxes"}, "geometry": {"coordinates": [-76.1088548, 40.655818], "type": "Point"}, "id": "oZNu2IygbP5FnAYwj7QuH4eJVfs=", "properties": {"@spider": "usps_collection_boxes", "addr:city": "ORWIGSBURG", "addr:country": "US", "addr:full": "700 W MARKET ST", "addr:postcode": "17961", "addr:state": "PA", "amenity": "post_box", "brand": "United States Postal Service", "brand:wikidata": "Q668687", "collection_times": "Mo-Fr 16:30; Sa 15:00", "name": "USPS COLLECTION BOX - BLUE BOX", "note": "ON 12/24 AND 12/31, THIS BOX MAY BE COLLECTED AS EARLY AS 12 NOON.", "nsi_id": "unitedstatespostalservice-a77078", "operator": "United States Postal Service", "operator:short": "USPS", "operator:type": "public", "operator:wikidata": "Q668687", "ref": "1796100008"}, "type": "Feature"}
{"dataset_attributes": {"@spider": "usps_collection_boxes"}, "geometry": {"coordinates": [-76.0773899, 40.643541], "type": "Point"}, "id": "c0wJgTgElG7GRxoFxWV5XSqj0_s=", "properties": {"@spider": "usps_collection_boxes", "addr:city": "ORWIGSBURG", "addr:country": "US", "addr:full": "2002 VILLAGE RD", "addr:postcode": "17961", "addr:state": "PA", "amenity": "post_box", "brand": "United States Postal Service", "brand:wikidata": "Q668687", "collection_times": "Mo-Sa 09:00", "name": "USPS COLLECTION BOX - BLUE BOX", "nsi_id": "unitedstatespostalservice-a77078", "operator": "United States Postal Service", "operator:short": "USPS", "operator:type": "public", "operator:wikidata": "Q668687", "ref": "1796100010"}, "type": "Feature"}
{"dataset_attributes": {"@spider": "usps_collection_boxes"}, "geometry": {"coordinates": [-76.1031835, 40.6513], "type": "Point"}, "id": "Wk5wyXTblmdiN1blMfA5B1l--wM=", "properties": {"@spider": "usps_collection_boxes", "addr:city": "ORWIGSBURG", "addr:country": "US", "addr:full": "329 S LIBERTY ST", "addr:postcode": "17961", "addr:state": "PA", "amenity": "post_box", "brand": "United States Postal Service", "brand:wikidata": "Q668687", "collection_times": "Mo-Sa 13:00", "name": "USPS COLLECTION BOX - BLUE BOX", "note": "ON 12/24 AND 12/31, THIS BOX MAY BE COLLECTED AS EARLY AS 12 NOON.", "nsi_id": "unitedstatespostalservice-a77078", "operator": "United States Postal Service", "operator:short": "USPS", "operator:type": "public", "operator:wikidata": "Q668687", "ref": "1796100011"}, "type": "Feature"}
{"dataset_attributes": {"@spider": "usps_collection_boxes"}, "geometry": {"coordinates": [-76.1089199, 40.655645], "type": "Point"}, "id": "tl35DuqVM9jN5JJ3pZF2I1LeSFs=", "properties": {"@spider": "usps_collection_boxes", "addr:city": "ORWIGSBURG", "addr:country": "US", "addr:full": "700 W MARKET ST", "addr:postcode": "17961", "addr:state": "PA", "amenity": "post_box", "brand": "United States Postal Service", "brand:wikidata": "Q668687", "collection_times": "Mo-Fr 16:30; Sa 15:00", "name": "USPS COLLECTION BOX - PO LOBBY", "note": "ON 12/24 AND 12/31, THIS BOX MAY BE COLLECTED AS EARLY AS 12 NOON.", "nsi_id": "unitedstatespostalservice-a77078", "operator": "United States Postal Service", "operator:short": "USPS", "operator:type": "public", "operator:wikidata": "Q668687", "ref": "1796100014"}, "type": "Feature"}
{"dataset_attributes": {"@spider": "usps_collection_boxes"}, "geometry": {"coordinates": [-76.108790595, 40.655515745], "type": "Point"}, "id": "_q4l0dce92Q4aGq7jcGETuBV7dY=", "properties": {"@spider": "usps_collection_boxes", "addr:city": "ORWIGSBURG", "addr:country": "US", "addr:full": "700 W MARKET ST", "addr:postcode": "17961", "addr:state": "PA", "amenity": "post_box", "brand": "United States Postal Service", "brand:wikidata": "Q668687", "collection_times": "Mo-Fr 16:30; Sa 12:00", "name": "USPS COLLECTION BOX - PO LOBBY", "note": "ON 12/24 AND 12/31, THIS BOX MAY BE COLLECTED AS EARLY AS 12 NOON.", "nsi_id": "unitedstatespostalservice-a77078", "operator": "United States Postal Service", "operator:short": "USPS", "operator:type": "public", "operator:wikidata": "Q668687", "ref": "1796100016"}, "type": "Feature"}
{"dataset_attributes": {"@spider": "usps_collection_boxes"}, "geometry": {"coordinates": [-76.385171, 40.549129], "type": "Point"}, "id": "F-I9xL1hXY1F3UatfBuPQTyE0YM=", "properties": {"@spider": "usps_collection_boxes", "addr:city": "PINE GROVE", "addr:country": "US", "addr:full": "103 SNYDER AVE", "addr:postcode": "17963", "addr:state": "PA", "amenity": "post_box", "brand": "United States Postal Service", "brand:wikidata": "Q668687", "collection_times": "Mo-Fr 16:00; Sa 15:30", "name": "USPS COLLECTION BOX - BLUE BOX", "note": "ON 12/24 AND 12/31, THIS BOX MAY BE COLLECTED AS EARLY AS 12 NOON.", "nsi_id": "unitedstatespostalservice-a77078", "operator": "United States Postal Service", "operator:short": "USPS", "operator:type": "public", "operator:wikidata": "Q668687", "ref": "1796300003"}, "type": "Feature"}
{"dataset_attributes": {"@spider": "usps_collection_boxes"}, "geometry": {"coordinates": [-76.3841213, 40.553022], "type": "Point"}, "id": "J0tMKhvAZPNnnEldMapolEi7z9U=", "properties": {"@spider": "usps_collection_boxes", "addr:city": "PINE GROVE", "addr:country": "US", "addr:full": "29 E POTTSVILLE ST", "addr:postcode": "17963", "addr:state": "PA", "amenity": "post_box", "brand": "United States Postal Service", "brand:wikidata": "Q668687", "collection_times": "Mo-Sa 09:30", "name": "USPS COLLECTION BOX - BLUE BOX", "nsi_id": "unitedstatespostalservice-a77078", "operator": "United States Postal Service", "operator:short": "USPS", "operator:type": "public", "operator:wikidata": "Q668687", "ref": "1796300004"}, "type": "Feature"}
{"dataset_attributes": {"@spider": "usps_collection_boxes"}, "geometry": {"coordinates": [-76.3855447, 40.551601], "type": "Point"}, "id": "WSQ1LQlKvCoT9a0iDn4xsLq1xyU=", "properties": {"@spider": "usps_collection_boxes", "addr:city": "PINE GROVE", "addr:country": "US", "addr:full": "55 S TULPEHOCKEN ST", "addr:postcode": "17963", "addr:state": "PA", "amenity": "post_box", "brand": "United States Postal Service", "brand:wikidata": "Q668687", "collection_times": "Mo-Sa 09:00", "name": "USPS COLLECTION BOX - BLUE BOX", "nsi_id": "unitedstatespostalservice-a77078", "operator": "United States Postal Service", "operator:short": "USPS", "operator:type": "public", "operator:wikidata": "Q668687", "ref": "1796300008"}, "type": "Feature"}
{"dataset_attributes": {"@spider": "usps_collection_boxes"}, "geometry": {"coordinates": [-76.385179, 40.549155], "type": "Point"}, "id": "AzkmNFNl5z3d_fMadi36F9mmw04=", "properties": {"@spider": "usps_collection_boxes", "addr:city": "PINE GROVE", "addr:country": "US", "addr:full": "103 SNYDER AVE", "addr:postcode": "17963", "addr:state": "PA", "amenity": "post_box", "brand": "United States Postal Service", "brand:wikidata": "Q668687", "collection_times": "Mo-Fr 16:00; Sa 15:30", "name": "USPS COLLECTION BOX - PO LOBBY", "note": "ON 12/24 AND 12/31, THIS BOX MAY BE COLLECTED AS EARLY AS 12 NOON.", "nsi_id": "unitedstatespostalservice-a77078", "operator": "United States Postal Service", "operator:short": "USPS", "operator:type": "public", "operator:wikidata": "Q668687", "ref": "1796300009"}, "type": "Feature"}
{"dataset_attributes": {"@spider": "usps_collection_boxes"}, "geometry": {"coordinates": [-76.385179, 40.549155], "type": "Point"}, "id": "GRJNrE2Wdrv3E7ItUvNC1U7OeR8=", "properties": {"@spider": "usps_collection_boxes", "addr:city": "PINE GROVE", "addr:country": "US", "addr:full": "103 SNYDER AVE", "addr:postcode": "17963", "addr:state": "PA", "amenity": "post_box", "brand": "United States Postal Service", "brand:wikidata": "Q668687", "collection_times": "Mo-Fr 16:00; Sa 15:30", "name": "USPS COLLECTION BOX - BLUE BOX", "note": "ON 12/24 AND 12/31, THIS BOX MAY BE COLLECTED AS EARLY AS 12 NOON.", "nsi_id": "unitedstatespostalservice-a77078", "operator": "United States Postal Service", "operator:short": "USPS", "operator:type": "public", "operator:wikidata": "Q668687", "ref": "1796300010"}, "type": "Feature"}
{"dataset_attributes": {"@spider": "usps_collection_boxes"}, "geometry": {"coordinates": [-76.385172656, 40.549070105], "type": "Point"}, "id": "r_t5Ovj36Sk84K4dNUKNaNblMq0=", "properties": {"@spider": "usps_collection_boxes", "addr:city": "PINE GROVE", "addr:country": "US", "addr:full": "103 SNYDER AVE", "addr:postcode": "17963", "addr:state": "PA", "amenity": "post_box", "brand": "United States Postal Service", "brand:wikidata": "Q668687", "collection_times": "Mo-Fr 16:30; Sa 12:00", "name": "USPS COLLECTION BOX - PO LOBBY", "note": "ON 12/24 AND 12/31, THIS BOX MAY BE COLLECTED AS EARLY AS 12 NOON.", "nsi_id": "unitedstatespostalservice-a77078", "operator": "United States Postal Service", "operator:short": "USPS", "operator:type": "public", "operator:wikidata": "Q668687", "ref": "1796300013"}, "type": "Feature"}
{"dataset_attributes": {"@spider": "usps_collection_boxes"}, "geometry": {"coordinates": [-76.526705, 40.715103], "type": "Point"}, "id": "Sx5nFRq7sml2XeSE1-wjmCw8_qQ=", "properties": {"@spider": "usps_collection_boxes", "addr:city": "PITMAN", "addr:country": "US", "addr:full": "175 MAIN RD", "addr:postcode": "17964", "addr:state": "PA", "amenity": "post_box", "brand": "United States Postal Service", "brand:wikidata": "Q668687", "collection_times": "Mo-Fr 15:30; Sa 10:00", "name": "USPS COLLECTION BOX - BLUE BOX", "note": "ON 12/24 AND 12/31, THIS BOX MAY BE COLLECTED AS EARLY AS 12 NOON.", "nsi_id": "unitedstatespostalservice-a77078", "operator": "United States Postal Service", "operator:short": "USPS", "operator:type": "public", "operator:wikidata": "Q668687", "ref": "1796400002"}, "type": "Feature"}
{"dataset_attributes": {"@spider": "usps_collection_boxes"}, "geometry": {"coordinates": [-76.526765, 40.715125], "type": "Point"}, "id": "lVtybHvl0U3_haJd0fN0e5hZDEg=", "properties": {"@spider": "usps_collection_boxes", "addr:city": "PITMAN", "addr:country": "US", "addr:full": "175 MAIN RD", "addr:postcode": "17964", "addr:state": "PA", "amenity": "post_box", "brand": "United States Postal Service", "brand:wikidata": "Q668687", "collection_times": "Mo-Fr 15:30; Sa 10:00", "name": "USPS COLLECTION BOX - PO LOBBY", "note": "ON 12/24 AND 12/31, THIS BOX MAY BE COLLECTED AS EARLY AS 12 NOON.", "nsi_id": "unitedstatespostalservice-a77078", "operator": "United States Postal Service", "operator:short": "USPS", "operator:type": "public", "operator:wikidata": "Q668687", "ref": "1796400003"}, "type": "Feature"}
{"dataset_attributes": {"@spider": "usps_collection_boxes"}, "geometry": {"coordinates": [-76.526399693, 40.715114587], "type": "Point"}, "id": "7qn0Gt9XsGIOc9EKsMAUhlpdtj0=", "properties": {"@spider": "usps_collection_boxes", "addr:city": "PITMAN", "addr:country": "US", "addr:full": "175 MAIN RD", "addr:postcode": "17964", "addr:state": "PA", "amenity": "post_box", "brand": "United States Postal Service", "brand:wikidata": "Q668687", "collection_times": "Mo-Fr 15:30; Sa 10:00", "name": "USPS COLLECTION BOX - PO LOBBY", "note": "ON 12/24 AND 12/31, THIS BOX MAY BE COLLECTED AS EARLY AS 12 NOON.", "nsi_id": "unitedstatespostalservice-a77078", "operator": "United States Postal Service", "operator:short": "USPS", "operator:type": "public", "operator:wikidata": "Q668687", "ref": "1796400005"}, "type": "Feature"}
{"dataset_attributes": {"@spider": "usps_collection_boxes"}, "geometry": {"coordinates": [-76.1635327, 40.69857], "type": "Point"}, "id": "0uqvNlrR5d6BseuWGmt7tIAkRC8=", "properties": {"@spider": "usps_collection_boxes", "addr:city": "PORT CARBON", "addr:country": "US", "addr:full": "358 COAL ST", "addr:postcode": "17965", "addr:state": "PA", "amenity": "post_box", "brand": "United States Postal Service", "brand:wikidata": "Q668687", "collection_times": "Mo-Sa 09:00", "name": "USPS COLLECTION BOX - BLUE BOX", "nsi_id": "unitedstatespostalservice-a77078", "operator": "United States Postal Service", "operator:short": "USPS", "operator:type": "public", "operator:wikidata": "Q668687", "ref": "1796500019"}, "type": "Feature"}
{"dataset_attributes": {"@spider": "usps_collection_boxes"}, "geometry": {"coordinates": [-76.1655538, 40.702717], "type": "Point"}, "id": "N67DWeHjg60vc0j2krYp3hFGl_E=", "properties": {"@spider": "usps_collection_boxes", "addr:city": "PORT CARBON", "addr:country": "US", "addr:full": "398 5TH ST", "addr:postcode": "17965", "addr:state": "PA", "amenity": "post_box", "brand": "United States Postal Service", "brand:wikidata": "Q668687", "collection_times": "Mo-Fr 13:00; Sa 09:00", "name": "USPS COLLECTION BOX - BLUE BOX", "note": "ON 12/24 AND 12/31, THIS BOX MAY BE COLLECTED AS EARLY AS 12 NOON.", "nsi_id": "unitedstatespostalservice-a77078", "operator": "United States Postal Service", "operator:short": "USPS", "operator:type": "public", "operator:wikidata": "Q668687", "ref": "1796500022"}, "type": "Feature"}
{"dataset_attributes": {"@spider": "usps_collection_boxes"}, "geometry": {"coordinates": [-76.167712, 40.694514], "type": "Point"}, "id": "mDEBb8Oqqbb_2igEqyq_Ky1Ksng=", "properties": {"@spider": "usps_collection_boxes", "addr:city": "PORT CARBON", "addr:country": "US", "addr:full": "73 WASHINGTON ST", "addr:postcode": "17965", "addr:state": "PA", "amenity": "post_box", "brand": "United States Postal Service", "brand:wikidata": "Q668687", "collection_times": "Mo-Fr 15:45; Sa 09:00", "name": "USPS COLLECTION BOX - BLUE BOX", "note": "ON 12/24 AND 12/31, THIS BOX MAY BE COLLECTED AS EARLY AS 12 NOON.", "nsi_id": "unitedstatespostalservice-a77078", "operator": "United States Postal Service", "operator:short": "USPS", "operator:type": "public", "operator:wikidata": "Q668687", "ref": "1796500023"}, "type": "Feature"}
{"dataset_attributes": {"@spider": "usps_collection_boxes"}, "geometry": {"coordinates": [-76.167735831, 40.694530543], "type": "Point"}, "id": "j5ZuZP8RF9N2_odHwUQR4-5ylNQ=", "properties": {"@spider": "usps_collection_boxes", "addr:city": "PORT CARBON", "addr:country": "US", "addr:full": "73 WASHINGTON ST", "addr:postcode": "17965", "addr:state": "PA", "amenity": "post_box", "brand": "United States Postal Service", "brand:wikidata": "Q668687", "collection_times": "Mo-Fr 15:45; Sa 09:00", "name": "USPS COLLECTION BOX - PO LOBBY", "note": "ON 12/24 AND 12/31, THIS BOX MAY BE COLLECTED AS EARLY AS 12 NOON.", "nsi_id": "unitedstatespostalservice-a77078", "operator": "United States Postal Service", "operator:short": "USPS", "operator:type": "public", "operator:wikidata": "Q668687", "ref": "1796500026"}, "type": "Feature"}
{"dataset_attributes": {"@spider": "usps_collection_boxes"}, "geometry": {"coordinates": [-76.167735831, 40.694530543], "type": "Point"}, "id": "ZRKXt-f5hTo_Mz8eCTIjOcqo7XQ=", "properties": {"@spider": "usps_collection_boxes", "addr:city": "PORT CARBON", "addr:country": "US", "addr:full": "73 WASHINGTON ST", "addr:postcode": "17965", "addr:state": "PA", "amenity": "post_box", "brand": "United States Postal Service", "brand:wikidata": "Q668687", "collection_times": "Mo-Fr 16:30", "name": "USPS COLLECTION BOX - PO LOBBY", "note": "ON 12/24 AND 12/31, THIS BOX MAY BE COLLECTED AS EARLY AS 12 NOON.", "nsi_id": "unitedstatespostalservice-a77078", "operator": "United States Postal Service", "operator:short": "USPS", "operator:type": "public", "operator:wikidata": "Q668687", "ref": "1796500028"}, "type": "Feature"}
{"dataset_attributes": {"@spider": "usps_collection_boxes"}, "geometry": {"coordinates": [-76.231915, 40.85794], "type": "Point"}, "id": "ltpO7qU5K21v8aofT4Y9cUsz3W4=", "properties": {"@spider": "usps_collection_boxes", "addr:city": "RINGTOWN", "addr:country": "US", "addr:full": "10 S MARKET ST", "addr:postcode": "17967", "addr:state": "PA", "amenity": "post_box", "brand": "United States Postal Service", "brand:wikidata": "Q668687", "collection_times": "Mo-Fr 16:00; Sa 11:00", "name": "USPS COLLECTION BOX - BLUE BOX", "note": "ON 12/24 AND 12/31, THIS BOX MAY BE COLLECTED AS EARLY AS 12 NOON.", "nsi_id": "unitedstatespostalservice-a77078", "operator": "United States Postal Service", "operator:short": "USPS", "operator:type": "public", "operator:wikidata": "Q668687", "ref": "1796700001"}, "type": "Feature"}
{"dataset_attributes": {"@spider": "usps_collection_boxes"}, "geometry": {"coordinates": [-76.231909, 40.858034], "type": "Point"}, "id": "VRiFRNvdUpdQJt6tj_oyw8C5I1M=", "properties": {"@spider": "usps_collection_boxes", "addr:city": "RINGTOWN", "addr:country": "US", "addr:full": "10 S MARKET ST", "addr:postcode": "17967", "addr:state": "PA", "amenity": "post_box", "brand": "United States Postal Service", "brand:wikidata": "Q668687", "collection_times": "Mo-Fr 16:00; Sa 11:00", "name": "USPS COLLECTION BOX - PO LOBBY", "note": "ON 12/24 AND 12/31, THIS BOX MAY BE COLLECTED AS EARLY AS 12 NOON.", "nsi_id": "unitedstatespostalservice-a77078", "operator": "United States Postal Service", "operator:short": "USPS", "operator:type": "public", "operator:wikidata": "Q668687", "ref": "1796700003"}, "type": "Feature"}
{"dataset_attributes": {"@spider": "usps_collection_boxes"}, "geometry": {"coordinates": [-76.231885262, 40.857833892], "type": "Point"}, "id": "RbVuP3cq3l2sfCV1OdmSh4yhlDQ=", "properties": {"@spider": "usps_collection_boxes", "addr:city": "RINGTOWN", "addr:country": "US", "addr:full": "10 S MARKET ST", "addr:postcode": "17967", "addr:state": "PA", "amenity": "post_box", "brand": "United States Postal Service", "brand:wikidata": "Q668687", "collection_times": "Mo-Fr 16:00; Sa 11:00", "name": "USPS COLLECTION BOX - PO LOBBY", "note": "ON 12/24 AND 12/31, THIS BOX MAY BE COLLECTED AS EARLY AS 12 NOON.", "nsi_id": "unitedstatespostalservice-a77078", "operator": "United States Postal Service", "operator:short": "USPS", "operator:type": "public", "operator:wikidata": "Q668687", "ref": "1796700005"}, "type": "Feature"}
{"dataset_attributes": {"@spider": "usps_collection_boxes"}, "geometry": {"coordinates": [-76.590865, 40.634469], "type": "Point"}, "id": "Dcja3koe98jtBWRwtQrzrecYvfY=", "properties": {"@spider": "usps_collection_boxes", "addr:city": "SACRAMENTO", "addr:country": "US", "addr:full": "2263 E MAIN ST", "addr:postcode": "17968", "addr:state": "PA", "amenity": "post_box", "brand": "United States Postal Service", "brand:wikidata": "Q668687", "collection_times": "Mo-Fr 16:00; Sa 10:45", "name": "USPS COLLECTION BOX - BLUE BOX", "note": "ON 12/24 AND 12/31, THIS BOX MAY BE COLLECTED AS EARLY AS 12 NOON.", "nsi_id": "unitedstatespostalservice-a77078", "operator": "United States Postal Service", "operator:short": "USPS", "operator:type": "public", "operator:wikidata": "Q668687", "ref": "1796800001"}, "type": "Feature"}
{"dataset_attributes": {"@spider": "usps_collection_boxes"}, "geometry": {"coordinates": [-76.590749, 40.6345], "type": "Point"}, "id": "-Gs4lPt-QbOi61ffk62y4lSDsAc=", "properties": {"@spider": "usps_collection_boxes", "addr:city": "SACRAMENTO", "addr:country": "US", "addr:full": "2263 E MAIN ST", "addr:postcode": "17968", "addr:state": "PA", "amenity": "post_box", "brand": "United States Postal Service", "brand:wikidata": "Q668687", "collection_times": "Mo-Fr 16:00; Sa 10:45", "name": "USPS COLLECTION BOX - PO LOBBY", "note": "ON 12/24 AND 12/31, THIS BOX MAY BE COLLECTED AS EARLY AS 12 NOON.", "nsi_id": "unitedstatespostalservice-a77078", "operator": "United States Postal Service", "operator:short": "USPS", "operator:type": "public", "operator:wikidata": "Q668687", "ref": "1796800002"}, "type": "Feature"}
{"dataset_attributes": {"@spider": "usps_collection_boxes"}, "geometry": {"coordinates": [-76.591070885, 40.634462496], "type": "Point"}, "id": "TMuEJJiFDahr2L0x3TbhhMu0d64=", "properties": {"@spider": "usps_collection_boxes", "addr:city": "SACRAMENTO", "addr:country": "US", "addr:full": "2263 E MAIN ST", "addr:postcode": "17968", "addr:state": "PA", "amenity": "post_box", "brand": "United States Postal Service", "brand:wikidata": "Q668687", "collection_times": "Mo-Fr 16:30; Sa 11:00", "name": "USPS COLLECTION BOX - PO LOBBY", "note": "ON 12/24 AND 12/31, THIS BOX MAY BE COLLECTED AS EARLY AS 12 NOON.", "nsi_id": "unitedstatespostalservice-a77078", "operator": "United States Postal Service", "operator:short": "USPS", "operator:type": "public", "operator:wikidata": "Q668687", "ref": "1796800004"}, "type": "Feature"}
{"dataset_attributes": {"@spider": "usps_collection_boxes"}, "geometry": {"coordinates": [-76.19131, 40.719088], "type": "Point"}, "id": "ysZhT7VYbDwzd_V5XRRMD6Uy3cU=", "properties": {"@spider": "usps_collection_boxes", "addr:city": "SAINT CLAIR", "addr:country": "US", "addr:full": "10 W CARROLL ST", "addr:postcode": "17970", "addr:state": "PA", "amenity": "post_box", "brand": "United States Postal Service", "brand:wikidata": "Q668687", "collection_times": "Mo-Fr 16:15; Sa 10:45", "name": "USPS COLLECTION BOX - BLUE BOX", "note": "ON 12/24 AND 12/31, THIS BOX MAY BE COLLECTED AS EARLY AS 12 NOON.", "nsi_id": "unitedstatespostalservice-a77078", "operator": "United States Postal Service", "operator:short": "USPS", "operator:type": "public", "operator:wikidata": "Q668687", "ref": "1797000005"}, "type": "Feature"}
{"dataset_attributes": {"@spider": "usps_collection_boxes"}, "geometry": {"coordinates": [-76.19123, 40.71915], "type": "Point"}, "id": "RtZ-FtimsLvVbDP-AvXktIL6fXM=", "properties": {"@spider": "usps_collection_boxes", "addr:city": "SAINT CLAIR", "addr:country": "US", "addr:full": "10 W CARROLL ST", "addr:postcode": "17970", "addr:state": "PA", "amenity": "post_box", "brand": "United States Postal Service", "brand:wikidata": "Q668687", "collection_times": "Mo-Fr 16:15; Sa 10:45", "name": "USPS COLLECTION BOX - PO LOBBY", "note": "ON 12/24 AND 12/31, THIS BOX MAY BE COLLECTED AS EARLY AS 12 NOON.", "nsi_id": "unitedstatespostalservice-a77078", "operator": "United States Postal Service", "operator:short": "USPS", "operator:type": "public", "operator:wikidata": "Q668687", "ref": "1797000011"}, "type": "Feature"}
{"dataset_attributes": {"@spider": "usps_collection_boxes"}, "geometry": {"coordinates": [-76.1897572, 40.728256], "type": "Point"}, "id": "f8M0cRy3h1lvT4f8kQfySmwDD-I=", "properties": {"@spider": "usps_collection_boxes", "addr:city": "SAINT CLAIR", "addr:country": "US", "addr:full": "500 TERRY RICH BLVD", "addr:postcode": "17970", "addr:state": "PA", "amenity": "post_box", "brand": "United States Postal Service", "brand:wikidata": "Q668687", "collection_times": "Mo-Fr 10:00; Sa 08:30", "name": "USPS COLLECTION BOX - BLUE BOX", "nsi_id": "unitedstatespostalservice-a77078", "operator": "United States Postal Service", "operator:short": "USPS", "operator:type": "public", "operator:wikidata": "Q668687", "ref": "1797000013"}, "type": "Feature"}
{"dataset_attributes": {"@spider": "usps_collection_boxes"}, "geometry": {"coordinates": [-76.191267205, 40.719046278], "type": "Point"}, "id": "pd6KYdQQ6W7HNh01q0Z6luwJEfY=", "properties": {"@spider": "usps_collection_boxes", "addr:city": "SAINT CLAIR", "addr:country": "US", "addr:full": "10 W CARROLL ST", "addr:postcode": "17970", "addr:state": "PA", "amenity": "post_box", "brand": "United States Postal Service", "brand:wikidata": "Q668687", "collection_times": "Mo-Fr 16:30; Sa 10:45", "name": "USPS COLLECTION BOX - PO LOBBY", "note": "ON 12/24 AND 12/31, THIS BOX MAY BE COLLECTED AS EARLY AS 12 NOON.", "nsi_id": "unitedstatespostalservice-a77078", "operator": "United States Postal Service", "operator:short": "USPS", "operator:type": "public", "operator:wikidata": "Q668687", "ref": "1797000015"}, "type": "Feature"}
{"dataset_attributes": {"@spider": "usps_collection_boxes"}, "geometry": {"coordinates": [-76.1656454, 40.632383], "type": "Point"}, "id": "cuEx0Q0rcnr8kmKXjFjWYTy3OI8=", "properties": {"@spider": "usps_collection_boxes", "addr:city": "SCHUYKL HAVN", "addr:country": "US", "addr:full": "101 AVENUE C", "addr:postcode": "17972", "addr:state": "PA", "amenity": "post_box", "brand": "United States Postal Service", "brand:wikidata": "Q668687", "collection_times": "Mo-Sa 10:00", "name": "USPS COLLECTION BOX - BLUE BOX", "nsi_id": "unitedstatespostalservice-a77078", "operator": "United States Postal Service", "operator:short": "USPS", "operator:type": "public", "operator:wikidata": "Q668687", "ref": "1797200029"}, "type": "Feature"}
{"dataset_attributes": {"@spider": "usps_collection_boxes"}, "geometry": {"coordinates": [-76.1681492, 40.626532], "type": "Point"}, "id": "-Ff8mKx39hsk6P_G-LZq0s0nmDg=", "properties": {"@spider": "usps_collection_boxes", "addr:city": "SCHUYKL HAVN", "addr:country": "US", "addr:full": "415 SAINT JOHN ST", "addr:postcode": "17972", "addr:state": "PA", "amenity": "post_box", "brand": "United States Postal Service", "brand:wikidata": "Q668687", "collection_times": "Mo-Sa 09:00", "name": "USPS COLLECTION BOX - BLUE BOX", "nsi_id": "unitedstatespostalservice-a77078", "operator": "United States Postal Service", "operator:short": "USPS", "operator:type": "public", "operator:wikidata": "Q668687", "ref": "1797200032"}, "type": "Feature"}
{"dataset_attributes": {"@spider": "usps_collection_boxes"}, "geometry": {"coordinates": [-76.1716364, 40.626558], "type": "Point"}, "id": "tkJ97QH95fSHyclMycjPR_05vVg=", "properties": {"@spider": "usps_collection_boxes", "addr:city": "SCHUYKL HAVN", "addr:country": "US", "addr:full": "100 W COLUMBIA ST", "addr:postcode": "17972", "addr:state": "PA", "amenity": "post_box", "brand": "United States Postal Service", "brand:wikidata": "Q668687", "collection_times": "Mo-Sa 12:00", "name": "USPS COLLECTION BOX - BLUE BOX", "nsi_id": "unitedstatespostalservice-a77078", "operator": "United States Postal Service", "operator:short": "USPS", "operator:type": "public", "operator:wikidata": "Q668687", "ref": "1797200034"}, "type": "Feature"}
{"dataset_attributes": {"@spider": "usps_collection_boxes"}, "geometry": {"coordinates": [-76.1742676, 40.627129], "type": "Point"}, "id": "c1BrTeh2MwDSpsF4STpEUxJdXe0=", "properties": {"@spider": "usps_collection_boxes", "addr:city": "SCHUYKL HAVN", "addr:country": "US", "addr:full": "131 W MAIN ST", "addr:postcode": "17972", "addr:state": "PA", "amenity": "post_box", "brand": "United States Postal Service", "brand:wikidata": "Q668687", "collection_times": "Mo-Sa 08:45", "name": "USPS COLLECTION BOX - BLUE BOX", "nsi_id": "unitedstatespostalservice-a77078", "operator": "United States Postal Service", "operator:short": "USPS", "operator:type": "public", "operator:wikidata": "Q668687", "ref": "1797200036"}, "type": "Feature"}
{"dataset_attributes": {"@spider": "usps_collection_boxes"}, "geometry": {"coordinates": [-76.1677584, 40.640599], "type": "Point"}, "id": "d1iESYBizxf6pLbwEahJ4y1U4_o=", "properties": {"@spider": "usps_collection_boxes", "addr:city": "SCHUYKL HAVN", "addr:country": "US", "addr:full": "199 UNIVERSITY DR", "addr:postcode": "17972", "addr:state": "PA", "amenity": "post_box", "brand": "United States Postal Service", "brand:wikidata": "Q668687", "collection_times": "Mo-Sa 09:30", "name": "USPS COLLECTION BOX - BLUE BOX", "nsi_id": "unitedstatespostalservice-a77078", "operator": "United States Postal Service", "operator:short": "USPS", "operator:type": "public", "operator:wikidata": "Q668687", "ref": "1797200038"}, "type": "Feature"}
{"dataset_attributes": {"@spider": "usps_collection_boxes"}, "geometry": {"coordinates": [-76.2310787, 40.605953], "type": "Point"}, "id": "pGUHacFpCWD0sDNL4S6GJnUg6hQ=", "properties": {"@spider": "usps_collection_boxes", "addr:city": "SCHUYKL HAVN", "addr:country": "US", "addr:full": "1450 LONG RUN RD", "addr:postcode": "17972", "addr:state": "PA", "amenity": "post_box", "brand": "United States Postal Service", "brand:wikidata": "Q668687", "collection_times": "Mo-Sa 10:00", "name": "USPS COLLECTION BOX - BLUE BOX", "nsi_id": "unitedstatespostalservice-a77078", "operator": "United States Postal Service", "operator:short": "USPS", "operator:type": "public", "operator:wikidata": "Q668687", "ref": "1797200040"}, "type": "Feature"}
{"dataset_attributes": {"@spider": "usps_collection_boxes"}, "geometry": {"coordinates": [-76.1728021, 40.629083], "type": "Point"}, "id": "GiNeiwHvzjyAmfs0Oky2wM6okS8=", "properties": {"@spider": "usps_collection_boxes", "addr:city": "SCHUYKL HAVN", "addr:country": "US", "addr:full": "2 W MAIN ST", "addr:postcode": "17972", "addr:state": "PA", "amenity": "post_box", "brand": "United States Postal Service", "brand:wikidata": "Q668687", "collection_times": "Mo-Fr 16:45; Sa 15:00", "name": "USPS COLLECTION BOX - BLUE BOX", "note": "ON 12/24 AND 12/31, THIS BOX MAY BE COLLECTED AS EARLY AS 12 NOON.", "nsi_id": "unitedstatespostalservice-a77078", "operator": "United States Postal Service", "operator:short": "USPS", "operator:type": "public", "operator:wikidata": "Q668687", "ref": "1797200041"}, "type": "Feature"}
{"dataset_attributes": {"@spider": "usps_collection_boxes"}, "geometry": {"coordinates": [-76.172746027, 40.6289689851], "type": "Point"}, "id": "u3dYboWx8wMoBKSDncRgOIexZIM=", "properties": {"@spider": "usps_collection_boxes", "addr:city": "SCHUYKL HAVN", "addr:country": "US", "addr:full": "2 W MAIN ST", "addr:postcode": "17972", "addr:state": "PA", "amenity": "post_box", "brand": "United States Postal Service", "brand:wikidata": "Q668687", "collection_times": "Mo-Fr 16:45; Sa 15:00", "name": "USPS COLLECTION BOX - BLUE BOX", "note": "ON 12/24 AND 12/31, THIS BOX MAY BE COLLECTED AS EARLY AS 12 NOON.", "nsi_id": "unitedstatespostalservice-a77078", "operator": "United States Postal Service", "operator:short": "USPS", "operator:type": "public", "operator:wikidata": "Q668687", "ref": "1797200043"}, "type": "Feature"}
{"dataset_attributes": {"@spider": "usps_collection_boxes"}, "geometry": {"coordinates": [-76.172759, 40.629244], "type": "Point"}, "id": "1Js0TdEA9jSgCpVCuizTGfd2BAU=", "properties": {"@spider": "usps_collection_boxes", "addr:city": "SCHUYKL HAVN", "addr:country": "US", "addr:full": "2 W MAIN ST", "addr:postcode": "17972", "addr:state": "PA", "amenity": "post_box", "brand": "United States Postal Service", "brand:wikidata": "Q668687", "collection_times": "Mo-Fr 16:45; Sa 12:00", "name": "USPS COLLECTION BOX - PO LOBBY", "note": "ON 12/24 AND 12/31, THIS BOX MAY BE COLLECTED AS EARLY AS 12 NOON.", "nsi_id": "unitedstatespostalservice-a77078", "operator": "United States Postal Service", "operator:short": "USPS", "operator:type": "public", "operator:wikidata": "Q668687", "ref": "1797200046"}, "type": "Feature"}
{"dataset_attributes": {"@spider": "usps_collection_boxes"}, "geometry": {"coordinates": [-76.172911215, 40.629061237], "type": "Point"}, "id": "iejN-DPVrwfSawa_96BJEjvSmNM=", "properties": {"@spider": "usps_collection_boxes", "addr:city": "SCHUYKL HAVN", "addr:country": "US", "addr:full": "2 W MAIN ST", "addr:postcode": "17972", "addr:state": "PA", "amenity": "post_box", "brand": "United States Postal Service", "brand:wikidata": "Q668687", "collection_times": "Mo-Fr 17:00; Sa 12:00", "name": "USPS COLLECTION BOX - PO LOBBY", "note": "ON 12/24 AND 12/31, THIS BOX MAY BE COLLECTED AS EARLY AS 12 NOON.", "nsi_id": "unitedstatespostalservice-a77078", "operator": "United States Postal Service", "operator:short": "USPS", "operator:type": "public", "operator:wikidata": "Q668687", "ref": "1797200048"}, "type": "Feature"}
{"dataset_attributes": {"@spider": "usps_collection_boxes"}, "geometry": {"coordinates": [-76.200123, 40.821926], "type": "Point"}, "id": "zfO5oalFyvz_n1NdzqHBSm7v2VY=", "properties": {"@spider": "usps_collection_boxes", "addr:city": "SHENANDOAH", "addr:country": "US", "addr:full": "119 N WHITE ST", "addr:postcode": "17976", "addr:state": "PA", "amenity": "post_box", "brand": "United States Postal Service", "brand:wikidata": "Q668687", "collection_times": "Mo-Fr 17:00; Sa 15:00", "name": "USPS COLLECTION BOX - BLUE BOX", "note": "ON 12/24 AND 12/31, THIS BOX MAY BE COLLECTED AS EARLY AS 12 NOON.", "nsi_id": "unitedstatespostalservice-a77078", "operator": "United States Postal Service", "operator:short": "USPS", "operator:type": "public", "operator:wikidata": "Q668687", "ref": "1797600046"}, "type": "Feature"}
{"dataset_attributes": {"@spider": "usps_collection_boxes"}, "geometry": {"coordinates": [-76.2024395, 40.823397], "type": "Point"}, "id": "Lmer9At2q2JPLYAzFbSWndAtcfU=", "properties": {"@spider": "usps_collection_boxes", "addr:city": "SHENANDOAH", "addr:country": "US", "addr:full": "15 W WASHINGTON ST", "addr:postcode": "17976", "addr:state": "PA", "amenity": "post_box", "brand": "United States Postal Service", "brand:wikidata": "Q668687", "collection_times": "Mo-Sa 09:00", "name": "USPS COLLECTION BOX - BLUE BOX", "nsi_id": "unitedstatespostalservice-a77078", "operator": "United States Postal Service", "operator:short": "USPS", "operator:type": "public", "operator:wikidata": "Q668687", "ref": "1797600052"}, "type": "Feature"}
{"dataset_attributes": {"@spider": "usps_collection_boxes"}, "geometry": {"coordinates": [-76.2013694, 40.820441], "type": "Point"}, "id": "9uyvDo-OnZla2YSV1uJYsvZHUmY=", "properties": {"@spider": "usps_collection_boxes", "addr:city": "SHENANDOAH", "addr:country": "US", "addr:full": "2 S MAIN ST", "addr:postcode": "17976", "addr:state": "PA", "amenity": "post_box", "brand": "United States Postal Service", "brand:wikidata": "Q668687", "collection_times": "Mo-Sa 14:00", "name": "USPS COLLECTION BOX - BLUE BOX", "note": "ON 12/24 AND 12/31, THIS BOX MAY BE COLLECTED AS EARLY AS 12 NOON.", "nsi_id": "unitedstatespostalservice-a77078", "operator": "United States Postal Service", "operator:short": "USPS", "operator:type": "public", "operator:wikidata": "Q668687", "ref": "1797600058"}, "type": "Feature"}
{"dataset_attributes": {"@spider": "usps_collection_boxes"}, "geometry": {"coordinates": [-76.2014403, 40.82153], "type": "Point"}, "id": "u2lfDc243E80hq-iB0FcAPApktE=", "properties": {"@spider": "usps_collection_boxes", "addr:city": "SHENANDOAH", "addr:country": "US", "addr:full": "101 N MAIN ST", "addr:postcode": "17976", "addr:state": "PA", "amenity": "post_box", "brand": "United States Postal Service", "brand:wikidata": "Q668687", "collection_times": "Mo-Sa 14:00", "name": "USPS COLLECTION BOX - BLUE BOX", "note": "ON 12/24 AND 12/31, THIS BOX MAY BE COLLECTED AS EARLY AS 12 NOON.", "nsi_id": "unitedstatespostalservice-a77078", "operator": "United States Postal Service", "operator:short": "USPS", "operator:type": "public", "operator:wikidata": "Q668687", "ref": "1797600060"}, "type": "Feature"}
{"dataset_attributes": {"@spider": "usps_collection_boxes"}, "geometry": {"coordinates": [-76.2086811, 40.818936], "type": "Point"}, "id": "UNpSXSVYEKM7e3rMROqnfmsYDDg=", "properties": {"@spider": "usps_collection_boxes", "addr:city": "SHENANDOAH", "addr:country": "US", "addr:full": "600 W CENTRE ST", "addr:postcode": "17976", "addr:state": "PA", "amenity": "post_box", "brand": "United States Postal Service", "brand:wikidata": "Q668687", "collection_times": "Mo-Sa 14:00", "name": "USPS COLLECTION BOX - BLUE BOX", "note": "ON 12/24 AND 12/31, THIS BOX MAY BE COLLECTED AS EARLY AS 12 NOON.", "nsi_id": "unitedstatespostalservice-a77078", "operator": "United States Postal Service", "operator:short": "USPS", "operator:type": "public", "operator:wikidata": "Q668687", "ref": "1797600066"}, "type": "Feature"}
{"dataset_attributes": {"@spider": "usps_collection_boxes"}, "geometry": {"coordinates": [-76.200144, 40.821865], "type": "Point"}, "id": "moAxFnwKM34OlQ4T2O4cj49GayY=", "properties": {"@spider": "usps_collection_boxes", "addr:city": "SHENANDOAH", "addr:country": "US", "addr:full": "119 N WHITE ST", "addr:postcode": "17976", "addr:state": "PA", "amenity": "post_box", "brand": "United States Postal Service", "brand:wikidata": "Q668687", "collection_times": "Mo-Fr 17:00; Sa 15:00", "name": "USPS COLLECTION BOX - PO LOBBY", "note": "ON 12/24 AND 12/31, THIS BOX MAY BE COLLECTED AS EARLY AS 12 NOON.", "nsi_id": "unitedstatespostalservice-a77078", "operator": "United States Postal Service", "operator:short": "USPS", "operator:type": "public", "operator:wikidata": "Q668687", "ref": "1797600067"}, "type": "Feature"}
{"dataset_attributes": {"@spider": "usps_collection_boxes"}, "geometry": {"coordinates": [-76.200098666, 40.821907373], "type": "Point"}, "id": "l-tzHCOk2LOv7gtxEex75csnYmI=", "properties": {"@spider": "usps_collection_boxes", "addr:city": "SHENANDOAH", "addr:country": "US", "addr:full": "119 N WHITE ST", "addr:postcode": "17976", "addr:state": "PA", "amenity": "post_box", "brand": "United States Postal Service", "brand:wikidata": "Q668687", "collection_times": "Mo-Fr 17:05; Sa 11:35", "name": "USPS COLLECTION BOX - PO LOBBY", "note": "ON 12/24 AND 12/31, THIS BOX MAY BE COLLECTED AS EARLY AS 12 NOON.", "nsi_id": "unitedstatespostalservice-a77078", "operator": "United States Postal Service", "operator:short": "USPS", "operator:type": "public", "operator:wikidata": "Q668687", "ref": "1797600069"}, "type": "Feature"}
{"dataset_attributes": {"@spider": "usps_collection_boxes"}, "geometry": {"coordinates": [-76.6182576, 40.626949], "type": "Point"}, "id": "8GasrwxRE4HIX5R5a1XwsDfejoQ=", "properties": {"@spider": "usps_collection_boxes", "addr:city": "SPRING GLEN", "addr:country": "US", "addr:full": "2636 W MAIN ST", "addr:postcode": "17978", "addr:state": "PA", "amenity": "post_box", "brand": "United States Postal Service", "brand:wikidata": "Q668687", "collection_times": "Mo-Fr 15:30; Sa 10:30", "name": "USPS COLLECTION BOX - BLUE BOX", "note": "ON 12/24 AND 12/31, THIS BOX MAY BE COLLECTED AS EARLY AS 12 NOON.", "nsi_id": "unitedstatespostalservice-a77078", "operator": "United States Postal Service", "operator:short": "USPS", "operator:type": "public", "operator:wikidata": "Q668687", "ref": "1797800001"}, "type": "Feature"}
{"dataset_attributes": {"@spider": "usps_collection_boxes"}, "geometry": {"coordinates": [-76.618058, 40.626882], "type": "Point"}, "id": "bxK1YjkAFvAVO_F9XC7E7c3fTdY=", "properties": {"@spider": "usps_collection_boxes", "addr:city": "SPRING GLEN", "addr:country": "US", "addr:full": "2636 W MAIN ST", "addr:postcode": "17978", "addr:state": "PA", "amenity": "post_box", "brand": "United States Postal Service", "brand:wikidata": "Q668687", "collection_times": "Mo-Fr 12:00; Sa 10:30", "name": "USPS COLLECTION BOX - PO LOBBY", "nsi_id": "unitedstatespostalservice-a77078", "operator": "United States Postal Service", "operator:short": "USPS", "operator:type": "public", "operator:wikidata": "Q668687", "ref": "1797800002"}, "type": "Feature"}
{"dataset_attributes": {"@spider": "usps_collection_boxes"}, "geometry": {"coordinates": [-76.618443201, 40.626859409], "type": "Point"}, "id": "_lhwaO-8d10uXkfsAnzHaa_cmX4=", "properties": {"@spider": "usps_collection_boxes", "addr:city": "SPRING GLEN", "addr:country": "US", "addr:full": "2636 W MAIN ST", "addr:postcode": "17978", "addr:state": "PA", "amenity": "post_box", "brand": "United States Postal Service", "brand:wikidata": "Q668687", "collection_times": "Mo-Fr 12:00; Sa 11:30", "name": "USPS COLLECTION BOX - PO LOBBY", "nsi_id": "unitedstatespostalservice-a77078", "operator": "United States Postal Service", "operator:short": "USPS", "operator:type": "public", "operator:wikidata": "Q668687", "ref": "1797800004"}, "type": "Feature"}
{"dataset_attributes": {"@spider": "usps_collection_boxes"}, "geometry": {"coordinates": [-76.204719, 40.564038], "type": "Point"}, "id": "YXsGyMaYTWeEdrnvwpUBU9q5k0I=", "properties": {"@spider": "usps_collection_boxes", "addr:city": "SUMMIT STATION", "addr:country": "US", "addr:full": "5 SPRING RD", "addr:postcode": "17979", "addr:state": "PA", "amenity": "post_box", "brand": "United States Postal Service", "brand:wikidata": "Q668687", "collection_times": "Mo-Fr 16:00; Sa 10:30", "name": "USPS COLLECTION BOX - BLUE BOX", "note": "ON 12/24 AND 12/31, THIS BOX MAY BE COLLECTED AS EARLY AS 12 NOON.", "nsi_id": "unitedstatespostalservice-a77078", "operator": "United States Postal Service", "operator:short": "USPS", "operator:type": "public", "operator:wikidata": "Q668687", "ref": "1797900001"}, "type": "Feature"}
{"dataset_attributes": {"@spider": "usps_collection_boxes"}, "geometry": {"coordinates": [-76.204661, 40.564003], "type": "Point"}, "id": "RiMAL8zdQdVBK-STPcqwInJGgvU=", "properties": {"@spider": "usps_collection_boxes", "addr:city": "SUMMIT STATION", "addr:country": "US", "addr:full": "5 SPRING RD", "addr:postcode": "17979", "addr:state": "PA", "amenity": "post_box", "brand": "United States Postal Service", "brand:wikidata": "Q668687", "collection_times": "Mo-Fr 14:00; Sa 10:30", "name": "USPS COLLECTION BOX - PO LOBBY", "note": "ON 12/24 AND 12/31, THIS BOX MAY BE COLLECTED AS EARLY AS 12 NOON.", "nsi_id": "unitedstatespostalservice-a77078", "operator": "United States Postal Service", "operator:short": "USPS", "operator:type": "public", "operator:wikidata": "Q668687", "ref": "1797900003"}, "type": "Feature"}
{"dataset_attributes": {"@spider": "usps_collection_boxes"}, "geometry": {"coordinates": [-76.204672139, 40.563929381], "type": "Point"}, "id": "w5c-68XvVYfD_U_RWoOHBIUSHY0=", "properties": {"@spider": "usps_collection_boxes", "addr:city": "SUMMIT STATION", "addr:country": "US", "addr:full": "5 SPRING RD", "addr:postcode": "17979", "addr:state": "PA", "amenity": "post_box", "brand": "United States Postal Service", "brand:wikidata": "Q668687", "collection_times": "Mo-Fr 14:00; Sa 10:30", "name": "USPS COLLECTION BOX - PO LOBBY", "note": "ON 12/24 AND 12/31, THIS BOX MAY BE COLLECTED AS EARLY AS 12 NOON.", "nsi_id": "unitedstatespostalservice-a77078", "operator": "United States Postal Service", "operator:short": "USPS", "operator:type": "public", "operator:wikidata": "Q668687", "ref": "1797900005"}, "type": "Feature"}
{"dataset_attributes": {"@spider": "usps_collection_boxes"}, "geometry": {"coordinates": [-76.5738662, 40.586018], "type": "Point"}, "id": "csIvc0HsueVHdKtwBbQLOdGskxc=", "properties": {"@spider": "usps_collection_boxes", "addr:city": "TOWER CITY", "addr:country": "US", "addr:full": "730 W GRAND AVE", "addr:postcode": "17980", "addr:state": "PA", "amenity": "post_box", "brand": "United States Postal Service", "brand:wikidata": "Q668687", "collection_times": "Mo-Sa 12:00", "name": "USPS COLLECTION BOX - BLUE BOX", "nsi_id": "unitedstatespostalservice-a77078", "operator": "United States Postal Service", "operator:short": "USPS", "operator:type": "public", "operator:wikidata": "Q668687", "ref": "1798000004"}, "type": "Feature"}
{"dataset_attributes": {"@spider": "usps_collection_boxes"}, "geometry": {"coordinates": [-76.5365711, 40.583402], "type": "Point"}, "id": "LSyotUiQmqCclaE_Cc9yprXhOug=", "properties": {"@spider": "usps_collection_boxes", "addr:city": "TOWER CITY", "addr:country": "US", "addr:full": "103 DIETRICH AVE", "addr:postcode": "17980", "addr:state": "PA", "amenity": "post_box", "brand": "United States Postal Service", "brand:wikidata": "Q668687", "collection_times": "Mo-Sa 12:30", "name": "USPS COLLECTION BOX - BLUE BOX", "note": "ON 12/24 AND 12/31, THIS BOX MAY BE COLLECTED AS EARLY AS 12 NOON.", "nsi_id": "unitedstatespostalservice-a77078", "operator": "United States Postal Service", "operator:short": "USPS", "operator:type": "public", "operator:wikidata": "Q668687", "ref": "1798000009"}, "type": "Feature"}
{"dataset_attributes": {"@spider": "usps_collection_boxes"}, "geometry": {"coordinates": [-76.5324738, 40.592181], "type": "Point"}, "id": "h04dL3aAvIvFlFAS2kzxxtvRS20=", "properties": {"@spider": "usps_collection_boxes", "addr:city": "TOWER CITY", "addr:country": "US", "addr:full": "1900 E GRAND AVE", "addr:postcode": "17980", "addr:state": "PA", "amenity": "post_box", "brand": "United States Postal Service", "brand:wikidata": "Q668687", "collection_times": "Mo-Sa 10:15", "name": "USPS COLLECTION BOX - BLUE BOX", "nsi_id": "unitedstatespostalservice-a77078", "operator": "United States Postal Service", "operator:short": "USPS", "operator:type": "public", "operator:wikidata": "Q668687", "ref": "1798000012"}, "type": "Feature"}
{"dataset_attributes": {"@spider": "usps_collection_boxes"}, "geometry": {"coordinates": [-76.5410316, 40.590895], "type": "Point"}, "id": "wlrcMuCRtqFXCmkpSwUfn79YbFU=", "properties": {"@spider": "usps_collection_boxes", "addr:city": "TOWER CITY", "addr:country": "US", "addr:full": "1300 E GRAND AVE", "addr:postcode": "17980", "addr:state": "PA", "amenity": "post_box", "brand": "United States Postal Service", "brand:wikidata": "Q668687", "collection_times": "Mo-Fr 09:15; Sa 09:00", "name": "USPS COLLECTION BOX - BLUE BOX", "nsi_id": "unitedstatespostalservice-a77078", "operator": "United States Postal Service", "operator:short": "USPS", "operator:type": "public", "operator:wikidata": "Q668687", "ref": "1798000014"}, "type": "Feature"}
{"dataset_attributes": {"@spider": "usps_collection_boxes"}, "geometry": {"coordinates": [-76.5454781, 40.590347], "type": "Point"}, "id": "2Q1IzYLWZrBkjBRz5b0eP1LJm8w=", "properties": {"@spider": "usps_collection_boxes", "addr:city": "TOWER CITY", "addr:country": "US", "addr:full": "947 E GRAND AVE", "addr:postcode": "17980", "addr:state": "PA", "amenity": "post_box", "brand": "United States Postal Service", "brand:wikidata": "Q668687", "collection_times": "Mo-Sa 10:30", "name": "USPS COLLECTION BOX - BLUE BOX", "nsi_id": "unitedstatespostalservice-a77078", "operator": "United States Postal Service", "operator:short": "USPS", "operator:type": "public", "operator:wikidata": "Q668687", "ref": "1798000016"}, "type": "Feature"}
{"dataset_attributes": {"@spider": "usps_collection_boxes"}, "geometry": {"coordinates": [-76.5571159, 40.588581], "type": "Point"}, "id": "TSBR30FjQQDX19CBhlrBa0gLbV4=", "properties": {"@spider": "usps_collection_boxes", "addr:city": "TOWER CITY", "addr:country": "US", "addr:full": "201 E GRAND AVE", "addr:postcode": "17980", "addr:state": "PA", "amenity": "post_box", "brand": "United States Postal Service", "brand:wikidata": "Q668687", "collection_times": "Mo-Sa 12:45", "name": "USPS COLLECTION BOX - BLUE BOX", "note": "ON 12/24 AND 12/31, THIS BOX MAY BE COLLECTED AS EARLY AS 12 NOON.", "nsi_id": "unitedstatespostalservice-a77078", "operator": "United States Postal Service", "operator:short": "USPS", "operator:type": "public", "operator:wikidata": "Q668687", "ref": "1798000019"}, "type": "Feature"}
{"dataset_attributes": {"@spider": "usps_collection_boxes"}, "geometry": {"coordinates": [-76.550865, 40.58906], "type": "Point"}, "id": "c_HkNEoaJM-vUl7tllEC-9W_f5s=", "properties": {"@spider": "usps_collection_boxes", "addr:city": "TOWER CITY", "addr:country": "US", "addr:full": "7 S 6TH ST", "addr:postcode": "17980", "addr:state": "PA", "amenity": "post_box", "brand": "United States Postal Service", "brand:wikidata": "Q668687", "collection_times": "Mo-Fr 16:30; Sa 14:45", "name": "USPS COLLECTION BOX - BLUE BOX", "note": "ON 12/24 AND 12/31, THIS BOX MAY BE COLLECTED AS EARLY AS 12 NOON.", "nsi_id": "unitedstatespostalservice-a77078", "operator": "United States Postal Service", "operator:short": "USPS", "operator:type": "public", "operator:wikidata": "Q668687", "ref": "1798000024"}, "type": "Feature"}
{"dataset_attributes": {"@spider": "usps_collection_boxes"}, "geometry": {"coordinates": [-76.550865, 40.58906], "type": "Point"}, "id": "IOxbJ1DXpowc7_WupbHK3dDgD8g=", "properties": {"@spider": "usps_collection_boxes", "addr:city": "TOWER CITY", "addr:country": "US", "addr:full": "7 S 6TH ST", "addr:postcode": "17980", "addr:state": "PA", "amenity": "post_box", "brand": "United States Postal Service", "brand:wikidata": "Q668687", "collection_times": "Mo-Fr 16:30; Sa 14:45", "name": "USPS COLLECTION BOX - BLUE BOX", "note": "ON 12/24 AND 12/31, THIS BOX MAY BE COLLECTED AS EARLY AS 12 NOON.", "nsi_id": "unitedstatespostalservice-a77078", "operator": "United States Postal Service", "operator:short": "USPS", "operator:type": "public", "operator:wikidata": "Q668687", "ref": "1798000025"}, "type": "Feature"}
{"dataset_attributes": {"@spider": "usps_collection_boxes"}, "geometry": {"coordinates": [-76.551741, 40.589317], "type": "Point"}, "id": "RwDgIf7QACQii01o11NXa15ppfo=", "properties": {"@spider": "usps_collection_boxes", "addr:city": "TOWER CITY", "addr:country": "US", "addr:full": "544 E GRAND AVE", "addr:postcode": "17980", "addr:state": "PA", "amenity": "post_box", "brand": "United States Postal Service", "brand:wikidata": "Q668687", "collection_times": "Mo-Fr 16:30; Sa 14:45", "name": "USPS COLLECTION BOX - PO LOBBY", "note": "ON 12/24 AND 12/31, THIS BOX MAY BE COLLECTED AS EARLY AS 12 NOON.", "nsi_id": "unitedstatespostalservice-a77078", "operator": "United States Postal Service", "operator:short": "USPS", "operator:type": "public", "operator:wikidata": "Q668687", "ref": "1798000026"}, "type": "Feature"}
{"dataset_attributes": {"@spider": "usps_collection_boxes"}, "geometry": {"coordinates": [-76.55176, 40.589341], "type": "Point"}, "id": "bj2cWg3PpCwBCzUXhkncXj-FOVI=", "properties": {"@spider": "usps_collection_boxes", "addr:city": "TOWER CITY", "addr:country": "US", "addr:full": "544 E GRAND AVE", "addr:postcode": "17980", "addr:state": "PA", "amenity": "post_box", "brand": "United States Postal Service", "brand:wikidata": "Q668687", "collection_times": "Mo-Fr 16:30; Sa 14:45", "name": "USPS COLLECTION BOX - BLUE BOX", "note": "ON 12/24 AND 12/31, THIS BOX MAY BE COLLECTED AS EARLY AS 12 NOON.", "nsi_id": "unitedstatespostalservice-a77078", "operator": "United States Postal Service", "operator:short": "USPS", "operator:type": "public", "operator:wikidata": "Q668687", "ref": "1798000027"}, "type": "Feature"}
{"dataset_attributes": {"@spider": "usps_collection_boxes"}, "geometry": {"coordinates": [-76.551409797, 40.589311045], "type": "Point"}, "id": "0Yp5-3hxe4nLo_MH2JEn-pRyta4=", "properties": {"@spider": "usps_collection_boxes", "addr:city": "TOWER CITY", "addr:country": "US", "addr:full": "544 E GRAND AVE", "addr:postcode": "17980", "addr:state": "PA", "amenity": "post_box", "brand": "United States Postal Service", "brand:wikidata": "Q668687", "collection_times": "Mo-Fr 16:30; Sa 12:00", "name": "USPS COLLECTION BOX - PO LOBBY", "note": "ON 12/24 AND 12/31, THIS BOX MAY BE COLLECTED AS EARLY AS 12 NOON.", "nsi_id": "unitedstatespostalservice-a77078", "operator": "United States Postal Service", "operator:short": "USPS", "operator:type": "public", "operator:wikidata": "Q668687", "ref": "1798000029"}, "type": "Feature"}
{"dataset_attributes": {"@spider": "usps_collection_boxes"}, "geometry": {"coordinates": [-76.388996, 40.628608], "type": "Point"}, "id": "rNkb7QjWmz5GBtVZTJ72aojliuo=", "properties": {"@spider": "usps_collection_boxes", "addr:city": "TREMONT", "addr:country": "US", "addr:full": "11 W MAIN ST", "addr:postcode": "17981", "addr:state": "PA", "amenity": "post_box", "brand": "United States Postal Service", "brand:wikidata": "Q668687", "collection_times": "Mo-Fr 16:30; Sa 11:45", "name": "USPS COLLECTION BOX - BLUE BOX", "note": "ON 12/24 AND 12/31, THIS BOX MAY BE COLLECTED AS EARLY AS 12 NOON.", "nsi_id": "unitedstatespostalservice-a77078", "operator": "United States Postal Service", "operator:short": "USPS", "operator:type": "public", "operator:wikidata": "Q668687", "ref": "1798100011"}, "type": "Feature"}
{"dataset_attributes": {"@spider": "usps_collection_boxes"}, "geometry": {"coordinates": [-76.389016, 40.628632], "type": "Point"}, "id": "89CcA5B3ta-NVe1MQuArk6pckj4=", "properties": {"@spider": "usps_collection_boxes", "addr:city": "TREMONT", "addr:country": "US", "addr:full": "11 W MAIN ST", "addr:postcode": "17981", "addr:state": "PA", "amenity": "post_box", "brand": "United States Postal Service", "brand:wikidata": "Q668687", "collection_times": "Mo-Fr 16:30; Sa 11:45", "name": "USPS COLLECTION BOX - PO LOBBY", "note": "ON 12/24 AND 12/31, THIS BOX MAY BE COLLECTED AS EARLY AS 12 NOON.", "nsi_id": "unitedstatespostalservice-a77078", "operator": "United States Postal Service", "operator:short": "USPS", "operator:type": "public", "operator:wikidata": "Q668687", "ref": "1798100036"}, "type": "Feature"}
{"dataset_attributes": {"@spider": "usps_collection_boxes"}, "geometry": {"coordinates": [-76.388999752, 40.628550723], "type": "Point"}, "id": "PdQp7ER4mqaGLfEbr_6_5l6YLOg=", "properties": {"@spider": "usps_collection_boxes", "addr:city": "TREMONT", "addr:country": "US", "addr:full": "11 W MAIN ST", "addr:postcode": "17981", "addr:state": "PA", "amenity": "post_box", "brand": "United States Postal Service", "brand:wikidata": "Q668687", "collection_times": "Mo-Fr 16:30; Sa 11:30", "name": "USPS COLLECTION BOX - PO LOBBY", "note": "ON 12/24 AND 12/31, THIS BOX MAY BE COLLECTED AS EARLY AS 12 NOON.", "nsi_id": "unitedstatespostalservice-a77078", "operator": "United States Postal Service", "operator:short": "USPS", "operator:type": "public", "operator:wikidata": "Q668687", "ref": "1798100038"}, "type": "Feature"}
{"dataset_attributes": {"@spider": "usps_collection_boxes"}, "geometry": {"coordinates": [-76.038039, 40.769474], "type": "Point"}, "id": "0ZAZvAphmuOQcASFSQ4rX6Cl0Q4=", "properties": {"@spider": "usps_collection_boxes", "addr:city": "TUSCARORA", "addr:country": "US", "addr:full": "505 STRAWBERRY ST", "addr:postcode": "17982", "addr:state": "PA", "amenity": "post_box", "brand": "United States Postal Service", "brand:wikidata": "Q668687", "collection_times": "Mo-Fr 16:00; Sa 11:30", "name": "USPS COLLECTION BOX - BLUE BOX", "note": "ON 12/24 AND 12/31, THIS BOX MAY BE COLLECTED AS EARLY AS 12 NOON.", "nsi_id": "unitedstatespostalservice-a77078", "operator": "United States Postal Service", "operator:short": "USPS", "operator:type": "public", "operator:wikidata": "Q668687", "ref": "1798200001"}, "type": "Feature"}
{"dataset_attributes": {"@spider": "usps_collection_boxes"}, "geometry": {"coordinates": [-76.038018, 40.769502], "type": "Point"}, "id": "xd6AcXCxWcoQV7oikzHx2y-hSnM=", "properties": {"@spider": "usps_collection_boxes", "addr:city": "TUSCARORA", "addr:country": "US", "addr:full": "505 STRAWBERRY ST", "addr:postcode": "17982", "addr:state": "PA", "amenity": "post_box", "brand": "United States Postal Service", "brand:wikidata": "Q668687", "collection_times": "Mo-Fr 12:00; Sa 11:30", "name": "USPS COLLECTION BOX - PO LOBBY", "nsi_id": "unitedstatespostalservice-a77078", "operator": "United States Postal Service", "operator:short": "USPS", "operator:type": "public", "operator:wikidata": "Q668687", "ref": "1798200002"}, "type": "Feature"}
{"dataset_attributes": {"@spider": "usps_collection_boxes"}, "geometry": {"coordinates": [-76.038188023, 40.769681373], "type": "Point"}, "id": "jNTgAQukypz0y2ddOVz119bMUgg=", "properties": {"@spider": "usps_collection_boxes", "addr:city": "TUSCARORA", "addr:country": "US", "addr:full": "505 STRAWBERRY ST", "addr:postcode": "17982", "addr:state": "PA", "amenity": "post_box", "brand": "United States Postal Service", "brand:wikidata": "Q668687", "collection_times": "Mo-Fr 11:30; Sa 12:00", "name": "USPS COLLECTION BOX - PO LOBBY", "nsi_id": "unitedstatespostalservice-a77078", "operator": "United States Postal Service", "operator:short": "USPS", "operator:type": "public", "operator:wikidata": "Q668687", "ref": "1798200004"}, "type": "Feature"}
{"dataset_attributes": {"@spider": "usps_collection_boxes"}, "geometry": {"coordinates": [-76.539995, 40.645819], "type": "Point"}, "id": "E9csgDkOEA0t8pZctASmhH5K61s=", "properties": {"@spider": "usps_collection_boxes", "addr:city": "VALLEY VIEW", "addr:country": "US", "addr:full": "1124 W MAIN ST", "addr:postcode": "17983", "addr:state": "PA", "amenity": "post_box", "brand": "United States Postal Service", "brand:wikidata": "Q668687", "collection_times": "Mo-Fr 16:00; Sa 11:00", "name": "USPS COLLECTION BOX - BLUE BOX", "note": "ON 12/24 AND 12/31, THIS BOX MAY BE COLLECTED AS EARLY AS 12 NOON.", "nsi_id": "unitedstatespostalservice-a77078", "operator": "United States Postal Service", "operator:short": "USPS", "operator:type": "public", "operator:wikidata": "Q668687", "ref": "1798300001"}, "type": "Feature"}
{"dataset_attributes": {"@spider": "usps_collection_boxes"}, "geometry": {"coordinates": [-76.540101, 40.645771], "type": "Point"}, "id": "rjlkT4Wv9s6E4Qebw-sU8q-vX4g=", "properties": {"@spider": "usps_collection_boxes", "addr:city": "VALLEY VIEW", "addr:country": "US", "addr:full": "1124 W MAIN ST", "addr:postcode": "17983", "addr:state": "PA", "amenity": "post_box", "brand": "United States Postal Service", "brand:wikidata": "Q668687", "collection_times": "Mo-Fr 16:00; Sa 11:00", "name": "USPS COLLECTION BOX - PO LOBBY", "note": "ON 12/24 AND 12/31, THIS BOX MAY BE COLLECTED AS EARLY AS 12 NOON.", "nsi_id": "unitedstatespostalservice-a77078", "operator": "United States Postal Service", "operator:short": "USPS", "operator:type": "public", "operator:wikidata": "Q668687", "ref": "1798300002"}, "type": "Feature"}
{"dataset_attributes": {"@spider": "usps_collection_boxes"}, "geometry": {"coordinates": [-76.539955719, 40.645821224], "type": "Point"}, "id": "k-GvvdGcGLp2-HxmfVJhFQbRxsw=", "properties": {"@spider": "usps_collection_boxes", "addr:city": "VALLEY VIEW", "addr:country": "US", "addr:full": "1124 W MAIN ST", "addr:postcode": "17983", "addr:state": "PA", "amenity": "post_box", "brand": "United States Postal Service", "brand:wikidata": "Q668687", "collection_times": "Mo-Fr 16:00; Sa 11:00", "name": "USPS COLLECTION BOX - PO LOBBY", "note": "ON 12/24 AND 12/31, THIS BOX MAY BE COLLECTED AS EARLY AS 12 NOON.", "nsi_id": "unitedstatespostalservice-a77078", "operator": "United States Postal Service", "operator:short": "USPS", "operator:type": "public", "operator:wikidata": "Q668687", "ref": "1798300004"}, "type": "Feature"}
{"dataset_attributes": {"@spider": "usps_collection_boxes"}, "geometry": {"coordinates": [-76.1361247, 40.903202], "type": "Point"}, "id": "UHSjyXdpF40sR229dH9d1REjqrM=", "properties": {"@spider": "usps_collection_boxes", "addr:city": "ZION GROVE", "addr:country": "US", "addr:full": "3024 COVE MT DR", "addr:postcode": "17985", "addr:state": "PA", "amenity": "post_box", "brand": "United States Postal Service", "brand:wikidata": "Q668687", "collection_times": "Mo-Sa 10:00", "name": "USPS COLLECTION BOX - BLUE BOX", "nsi_id": "unitedstatespostalservice-a77078", "operator": "United States Postal Service", "operator:short": "USPS", "operator:type": "public", "operator:wikidata": "Q668687", "ref": "1798500003"}, "type": "Feature"}
{"dataset_attributes": {"@spider": "usps_collection_boxes"}, "geometry": {"coordinates": [-76.22489, 40.897935], "type": "Point"}, "id": "z4TXNteebliUGdfLjJ1Jmn7e9Ek=", "properties": {"@spider": "usps_collection_boxes", "addr:city": "ZION GROVE", "addr:country": "US", "addr:full": "731 RINGTOWN RD", "addr:postcode": "17985", "addr:state": "PA", "amenity": "post_box", "brand": "United States Postal Service", "brand:wikidata": "Q668687", "collection_times": "Mo-Fr 16:00; Sa 10:30", "name": "USPS COLLECTION BOX - BLUE BOX", "note": "ON 12/24 AND 12/31, THIS BOX MAY BE COLLECTED AS EARLY AS 12 NOON.", "nsi_id": "unitedstatespostalservice-a77078", "operator": "United States Postal Service", "operator:short": "USPS", "operator:type": "public", "operator:wikidata": "Q668687", "ref": "1798500004"}, "type": "Feature"}
{"dataset_attributes": {"@spider": "usps_collection_boxes"}, "geometry": {"coordinates": [-76.224912572, 40.897948745], "type": "Point"}, "id": "Kg4wyty7aU2atgdVJQ4-wsQixS4=", "properties": {"@spider": "usps_collection_boxes", "addr:city": "ZION GROVE", "addr:country": "US", "addr:full": "731 RINGTOWN RD", "addr:postcode": "17985", "addr:state": "PA", "amenity": "post_box", "brand": "United States Postal Service", "brand:wikidata": "Q668687", "collection_times": "Mo-Fr 16:00; Sa 11:00", "name": "USPS COLLECTION BOX - PO LOBBY", "note": "ON 12/24 AND 12/31, THIS BOX MAY BE COLLECTED AS EARLY AS 12 NOON.", "nsi_id": "unitedstatespostalservice-a77078", "operator": "United States Postal Service", "operator:short": "USPS", "operator:type": "public", "operator:wikidata": "Q668687", "ref": "1798500006"}, "type": "Feature"}
