{"dataset_attributes": {"@spider": "usps_collection_boxes", "spider:collection_time": "2023-09-13T08:25:17.985642"}, "geometry": {"coordinates": [-75.4711699, 40.601389], "type": "Point"}, "id": "yYrFJS7CI4L9G62bY6TStoUo2h0=", "properties": {"@spider": "usps_collection_boxes", "addr:city": "ALLENTOWN", "addr:country": "US", "addr:full": "33 S 7TH ST", "addr:postcode": "18101", "addr:state": "PA", "amenity": "post_box", "brand": "United States Postal Service", "brand:wikidata": "Q668687", "collection_times": "Mo-Sa 12:00", "name": "USPS COLLECTION BOX - BLUE BOX", "nsi_id": "unitedstatespostalservice-a77078", "operator": "United States Postal Service", "operator:short": "USPS", "operator:type": "public", "operator:wikidata": "Q668687", "ref": "1810100030"}, "type": "Feature"}
{"dataset_attributes": {"@spider": "usps_collection_boxes", "spider:collection_time": "2023-09-13T08:25:17.985642"}, "geometry": {"coordinates": [-75.4784924, 40.600369], "type": "Point"}, "id": "47Dzv1JwsgT-BLoKTax0VYD1Fhw=", "properties": {"@spider": "usps_collection_boxes", "addr:city": "ALLENTOWN", "addr:country": "US", "addr:full": "1014 HAMILTON ST", "addr:postcode": "18101", "addr:state": "PA", "amenity": "post_box", "brand": "United States Postal Service", "brand:wikidata": "Q668687", "collection_times": "Mo-Fr 16:00; Sa 13:30", "name": "USPS COLLECTION BOX - BLUE BOX", "note": "ON 12/24 AND 12/31, THIS BOX MAY BE COLLECTED AS EARLY AS 12 NOON.", "nsi_id": "unitedstatespostalservice-a77078", "operator": "United States Postal Service", "operator:short": "USPS", "operator:type": "public", "operator:wikidata": "Q668687", "ref": "1810100031"}, "type": "Feature"}
{"dataset_attributes": {"@spider": "usps_collection_boxes", "spider:collection_time": "2023-09-13T08:25:17.985642"}, "geometry": {"coordinates": [-75.467037, 40.603493], "type": "Point"}, "id": "pRE8NBFJ9S-Suihe6gSrNIamI6M=", "properties": {"@spider": "usps_collection_boxes", "addr:city": "ALLENTOWN", "addr:country": "US", "addr:full": "442 HAMILTON ST", "addr:postcode": "18101", "addr:state": "PA", "amenity": "post_box", "brand": "United States Postal Service", "brand:wikidata": "Q668687", "collection_times": "Mo-Fr 17:30; Sa 13:30", "name": "USPS COLLECTION BOX - BLUE BOX", "note": "ON 12/24 AND 12/31, THIS BOX MAY BE COLLECTED AS EARLY AS 12 NOON.", "nsi_id": "unitedstatespostalservice-a77078", "operator": "United States Postal Service", "operator:short": "USPS", "operator:type": "public", "operator:wikidata": "Q668687", "ref": "1810100034"}, "type": "Feature"}
{"dataset_attributes": {"@spider": "usps_collection_boxes", "spider:collection_time": "2023-09-13T08:25:17.985642"}, "geometry": {"coordinates": [-75.467037, 40.603493], "type": "Point"}, "id": "cNt5GGf_kkITtLF-vYJERXJRvw0=", "properties": {"@spider": "usps_collection_boxes", "addr:city": "ALLENTOWN", "addr:country": "US", "addr:full": "442 HAMILTON ST", "addr:postcode": "18101", "addr:state": "PA", "amenity": "post_box", "brand": "United States Postal Service", "brand:wikidata": "Q668687", "collection_times": "Mo-Fr 17:30; Sa 13:30", "name": "USPS COLLECTION BOX - PO LOBBY", "note": "ON 12/24 AND 12/31, THIS BOX MAY BE COLLECTED AS EARLY AS 12 NOON.", "nsi_id": "unitedstatespostalservice-a77078", "operator": "United States Postal Service", "operator:short": "USPS", "operator:type": "public", "operator:wikidata": "Q668687", "ref": "1810100036"}, "type": "Feature"}
{"dataset_attributes": {"@spider": "usps_collection_boxes", "spider:collection_time": "2023-09-13T08:25:17.985642"}, "geometry": {"coordinates": [-75.467396558, 40.603379053], "type": "Point"}, "id": "wkwh2aU2ZmuOGfTMb9iYxbGKkRs=", "properties": {"@spider": "usps_collection_boxes", "addr:city": "ALLENTOWN", "addr:country": "US", "addr:full": "442 HAMILTON ST", "addr:postcode": "18101", "addr:state": "PA", "amenity": "post_box", "brand": "United States Postal Service", "brand:wikidata": "Q668687", "collection_times": "Mo-Fr 17:05; Sa 13:05", "name": "USPS COLLECTION BOX - PO LOBBY", "note": "ON 12/24 AND 12/31, THIS BOX MAY BE COLLECTED AS EARLY AS 12 NOON.", "nsi_id": "unitedstatespostalservice-a77078", "operator": "United States Postal Service", "operator:short": "USPS", "operator:type": "public", "operator:wikidata": "Q668687", "ref": "1810100038"}, "type": "Feature"}
{"dataset_attributes": {"@spider": "usps_collection_boxes", "spider:collection_time": "2023-09-13T08:25:17.985642"}, "geometry": {"coordinates": [-75.4623666, 40.611085], "type": "Point"}, "id": "g1-4P7K_xlU_dYL__D-s8VxyYag=", "properties": {"@spider": "usps_collection_boxes", "addr:city": "ALLENTOWN", "addr:country": "US", "addr:full": "347 N 2ND ST", "addr:postcode": "18102", "addr:state": "PA", "amenity": "post_box", "brand": "United States Postal Service", "brand:wikidata": "Q668687", "collection_times": "Mo-Sa 09:00", "name": "USPS COLLECTION BOX - BLUE BOX", "nsi_id": "unitedstatespostalservice-a77078", "operator": "United States Postal Service", "operator:short": "USPS", "operator:type": "public", "operator:wikidata": "Q668687", "ref": "1810200011"}, "type": "Feature"}
{"dataset_attributes": {"@spider": "usps_collection_boxes", "spider:collection_time": "2023-09-13T08:25:17.985642"}, "geometry": {"coordinates": [-75.4683035, 40.607948], "type": "Point"}, "id": "cKo6s5jeIym-L8gRcL-9rSZ7_GE=", "properties": {"@spider": "usps_collection_boxes", "addr:city": "ALLENTOWN", "addr:country": "US", "addr:full": "421 CHEW ST", "addr:postcode": "18102", "addr:state": "PA", "amenity": "post_box", "brand": "United States Postal Service", "brand:wikidata": "Q668687", "collection_times": "Mo-Sa 12:00", "name": "USPS COLLECTION BOX - BLUE BOX", "nsi_id": "unitedstatespostalservice-a77078", "operator": "United States Postal Service", "operator:short": "USPS", "operator:type": "public", "operator:wikidata": "Q668687", "ref": "1810200021"}, "type": "Feature"}
{"dataset_attributes": {"@spider": "usps_collection_boxes", "spider:collection_time": "2023-09-13T08:25:17.985642"}, "geometry": {"coordinates": [-75.4744787, 40.607815], "type": "Point"}, "id": "iG96GOAJbMKQK1f_wdCFa_yPr4c=", "properties": {"@spider": "usps_collection_boxes", "addr:city": "ALLENTOWN", "addr:country": "US", "addr:full": "344 N 7TH ST", "addr:postcode": "18102", "addr:state": "PA", "amenity": "post_box", "brand": "United States Postal Service", "brand:wikidata": "Q668687", "collection_times": "Mo-Sa 10:00", "name": "USPS COLLECTION BOX - BLUE BOX", "nsi_id": "unitedstatespostalservice-a77078", "operator": "United States Postal Service", "operator:short": "USPS", "operator:type": "public", "operator:wikidata": "Q668687", "ref": "1810200036"}, "type": "Feature"}
{"dataset_attributes": {"@spider": "usps_collection_boxes", "spider:collection_time": "2023-09-13T08:25:17.985642"}, "geometry": {"coordinates": [-75.4766719674, 40.6119369998], "type": "Point"}, "id": "5R5CZXlXL4lIZQ9RxA5u15skuZc=", "properties": {"@spider": "usps_collection_boxes", "addr:city": "ALLENTOWN", "addr:country": "US", "addr:full": "702 N 7TH ST", "addr:postcode": "18102", "addr:state": "PA", "amenity": "post_box", "brand": "United States Postal Service", "brand:wikidata": "Q668687", "collection_times": "Mo-Sa 12:00", "name": "USPS COLLECTION BOX - BLUE BOX", "nsi_id": "unitedstatespostalservice-a77078", "operator": "United States Postal Service", "operator:short": "USPS", "operator:type": "public", "operator:wikidata": "Q668687", "ref": "1810200038"}, "type": "Feature"}
{"dataset_attributes": {"@spider": "usps_collection_boxes", "spider:collection_time": "2023-09-13T08:25:17.985642"}, "geometry": {"coordinates": [-75.4754499, 40.605942], "type": "Point"}, "id": "Wq79Gm7T5clTSgX2Qbfra6Vb3CE=", "properties": {"@spider": "usps_collection_boxes", "addr:city": "ALLENTOWN", "addr:country": "US", "addr:full": "247 N 8TH ST", "addr:postcode": "18102", "addr:state": "PA", "amenity": "post_box", "brand": "United States Postal Service", "brand:wikidata": "Q668687", "collection_times": "Mo-Sa 10:00", "name": "USPS COLLECTION BOX - BLUE BOX", "nsi_id": "unitedstatespostalservice-a77078", "operator": "United States Postal Service", "operator:short": "USPS", "operator:type": "public", "operator:wikidata": "Q668687", "ref": "1810200039"}, "type": "Feature"}
{"dataset_attributes": {"@spider": "usps_collection_boxes", "spider:collection_time": "2023-09-13T08:25:17.985642"}, "geometry": {"coordinates": [-75.4882622, 40.608404], "type": "Point"}, "id": "OMByMNbeQROXiRBIgi7hAzOv1Wg=", "properties": {"@spider": "usps_collection_boxes", "addr:city": "ALLENTOWN", "addr:country": "US", "addr:full": "1250 W TILGHMAN ST", "addr:postcode": "18102", "addr:state": "PA", "amenity": "post_box", "brand": "United States Postal Service", "brand:wikidata": "Q668687", "collection_times": "Mo-Sa 12:30", "name": "USPS COLLECTION BOX - BLUE BOX", "note": "ON 12/24 AND 12/31, THIS BOX MAY BE COLLECTED AS EARLY AS 12 NOON.", "nsi_id": "unitedstatespostalservice-a77078", "operator": "United States Postal Service", "operator:short": "USPS", "operator:type": "public", "operator:wikidata": "Q668687", "ref": "1810200056"}, "type": "Feature"}
{"dataset_attributes": {"@spider": "usps_collection_boxes", "spider:collection_time": "2023-09-13T08:25:17.985642"}, "geometry": {"coordinates": [-75.4926766, 40.60273], "type": "Point"}, "id": "s9RA8ABceLkjEnrg0mKb6cD1S8w=", "properties": {"@spider": "usps_collection_boxes", "addr:city": "ALLENTOWN", "addr:country": "US", "addr:full": "349 N 16TH ST", "addr:postcode": "18102", "addr:state": "PA", "amenity": "post_box", "brand": "United States Postal Service", "brand:wikidata": "Q668687", "collection_times": "Mo-Sa 12:30", "name": "USPS COLLECTION BOX - BLUE BOX", "note": "ON 12/24 AND 12/31, THIS BOX MAY BE COLLECTED AS EARLY AS 12 NOON.", "nsi_id": "unitedstatespostalservice-a77078", "operator": "United States Postal Service", "operator:short": "USPS", "operator:type": "public", "operator:wikidata": "Q668687", "ref": "1810200077"}, "type": "Feature"}
{"dataset_attributes": {"@spider": "usps_collection_boxes", "spider:collection_time": "2023-09-13T08:25:17.985642"}, "geometry": {"coordinates": [-75.4901933, 40.598665], "type": "Point"}, "id": "rhKjN8dj-jgFFmZFNJq2_8ZXKNQ=", "properties": {"@spider": "usps_collection_boxes", "addr:city": "ALLENTOWN", "addr:country": "US", "addr:full": "1524 W LINDEN ST", "addr:postcode": "18102", "addr:state": "PA", "amenity": "post_box", "brand": "United States Postal Service", "brand:wikidata": "Q668687", "collection_times": "Mo-Sa 13:00", "name": "USPS COLLECTION BOX - BLUE BOX", "note": "ON 12/24 AND 12/31, THIS BOX MAY BE COLLECTED AS EARLY AS 12 NOON.", "nsi_id": "unitedstatespostalservice-a77078", "operator": "United States Postal Service", "operator:short": "USPS", "operator:type": "public", "operator:wikidata": "Q668687", "ref": "1810200165"}, "type": "Feature"}
{"dataset_attributes": {"@spider": "usps_collection_boxes", "spider:collection_time": "2023-09-13T08:25:17.985642"}, "geometry": {"coordinates": [-75.5196657, 40.574182], "type": "Point"}, "id": "nY6_VU3h_eJ130bIyzb7S-OjEs0=", "properties": {"@spider": "usps_collection_boxes", "addr:city": "ALLENTOWN", "addr:country": "US", "addr:full": "1033 S CEDAR CREST BLVD", "addr:postcode": "18103", "addr:state": "PA", "amenity": "post_box", "brand": "United States Postal Service", "brand:wikidata": "Q668687", "collection_times": "Mo-Fr 16:15; Sa 13:30", "name": "USPS COLLECTION BOX - BLUE BOX", "note": "ON 12/24 AND 12/31, THIS BOX MAY BE COLLECTED AS EARLY AS 12 NOON.", "nsi_id": "unitedstatespostalservice-a77078", "operator": "United States Postal Service", "operator:short": "USPS", "operator:type": "public", "operator:wikidata": "Q668687", "ref": "1810300040"}, "type": "Feature"}
{"dataset_attributes": {"@spider": "usps_collection_boxes", "spider:collection_time": "2023-09-13T08:25:17.985642"}, "geometry": {"coordinates": [-75.5219182, 40.566748], "type": "Point"}, "id": "vBRmAof_45w9s8OlQrP2CN5hgmM=", "properties": {"@spider": "usps_collection_boxes", "addr:city": "ALLENTOWN", "addr:country": "US", "addr:full": "1210 S CEDAR CREST BLVD", "addr:postcode": "18103", "addr:state": "PA", "amenity": "post_box", "brand": "United States Postal Service", "brand:wikidata": "Q668687", "collection_times": "Mo-Fr 13:30", "name": "USPS COLLECTION BOX - BLUE BOX", "note": "ON 12/24 AND 12/31, THIS BOX MAY BE COLLECTED AS EARLY AS 12 NOON.", "nsi_id": "unitedstatespostalservice-a77078", "operator": "United States Postal Service", "operator:short": "USPS", "operator:type": "public", "operator:wikidata": "Q668687", "ref": "1810300042"}, "type": "Feature"}
{"dataset_attributes": {"@spider": "usps_collection_boxes", "spider:collection_time": "2023-09-13T08:25:17.985642"}, "geometry": {"coordinates": [-75.5170877, 40.565166], "type": "Point"}, "id": "ZQbOF8uTYkCk8LMfsfmMA4swwCg=", "properties": {"@spider": "usps_collection_boxes", "addr:city": "ALLENTOWN", "addr:country": "US", "addr:full": "1251 S CEDAR CREST BLVD", "addr:postcode": "18103", "addr:state": "PA", "amenity": "post_box", "brand": "United States Postal Service", "brand:wikidata": "Q668687", "collection_times": "Mo-Fr 16:30; Sa 13:30", "name": "USPS COLLECTION BOX - BLUE BOX", "note": "ON 12/24 AND 12/31, THIS BOX MAY BE COLLECTED AS EARLY AS 12 NOON.", "nsi_id": "unitedstatespostalservice-a77078", "operator": "United States Postal Service", "operator:short": "USPS", "operator:type": "public", "operator:wikidata": "Q668687", "ref": "1810300047"}, "type": "Feature"}
{"dataset_attributes": {"@spider": "usps_collection_boxes", "spider:collection_time": "2023-09-13T08:25:17.985642"}, "geometry": {"coordinates": [-75.4604947, 40.584219], "type": "Point"}, "id": "zhABGBTrRsbCoZUVrWL3VlKH4aU=", "properties": {"@spider": "usps_collection_boxes", "addr:city": "ALLENTOWN", "addr:country": "US", "addr:full": "1610 S 4TH ST", "addr:postcode": "18103", "addr:state": "PA", "amenity": "post_box", "brand": "United States Postal Service", "brand:wikidata": "Q668687", "collection_times": "Mo-Sa 12:00", "name": "USPS COLLECTION BOX - BLUE BOX", "nsi_id": "unitedstatespostalservice-a77078", "operator": "United States Postal Service", "operator:short": "USPS", "operator:type": "public", "operator:wikidata": "Q668687", "ref": "1810300052"}, "type": "Feature"}
{"dataset_attributes": {"@spider": "usps_collection_boxes", "spider:collection_time": "2023-09-13T08:25:17.985642"}, "geometry": {"coordinates": [-75.4554645, 40.593897], "type": "Point"}, "id": "Q-C6I60lmUrmCepYIephuBjdvBA=", "properties": {"@spider": "usps_collection_boxes", "addr:city": "ALLENTOWN", "addr:country": "US", "addr:full": "759 S FILMORE ST", "addr:postcode": "18103", "addr:state": "PA", "amenity": "post_box", "brand": "United States Postal Service", "brand:wikidata": "Q668687", "collection_times": "Mo-Sa 12:00", "name": "USPS COLLECTION BOX - BLUE BOX", "nsi_id": "unitedstatespostalservice-a77078", "operator": "United States Postal Service", "operator:short": "USPS", "operator:type": "public", "operator:wikidata": "Q668687", "ref": "1810300055"}, "type": "Feature"}
{"dataset_attributes": {"@spider": "usps_collection_boxes", "spider:collection_time": "2023-09-13T08:25:17.985642"}, "geometry": {"coordinates": [-75.4557999, 40.576998], "type": "Point"}, "id": "0KTiV2dICX6xOMe_DagJzmZFwOs=", "properties": {"@spider": "usps_collection_boxes", "addr:city": "ALLENTOWN", "addr:country": "US", "addr:full": "2004 S 5TH ST", "addr:postcode": "18103", "addr:state": "PA", "amenity": "post_box", "brand": "United States Postal Service", "brand:wikidata": "Q668687", "collection_times": "Mo-Fr 16:30; Sa 12:00", "name": "USPS COLLECTION BOX - BLUE BOX", "note": "ON 12/24 AND 12/31, THIS BOX MAY BE COLLECTED AS EARLY AS 12 NOON.", "nsi_id": "unitedstatespostalservice-a77078", "operator": "United States Postal Service", "operator:short": "USPS", "operator:type": "public", "operator:wikidata": "Q668687", "ref": "1810300064"}, "type": "Feature"}
{"dataset_attributes": {"@spider": "usps_collection_boxes", "spider:collection_time": "2023-09-13T08:25:17.985642"}, "geometry": {"coordinates": [-75.4656438, 40.592572], "type": "Point"}, "id": "zp3i5LCSV9MswF_3wAAiCTjcinQ=", "properties": {"@spider": "usps_collection_boxes", "addr:city": "ALLENTOWN", "addr:country": "US", "addr:full": "543 SAINT JOHN ST", "addr:postcode": "18103", "addr:state": "PA", "amenity": "post_box", "brand": "United States Postal Service", "brand:wikidata": "Q668687", "collection_times": "Mo-Sa 10:00", "name": "USPS COLLECTION BOX - BLUE BOX", "nsi_id": "unitedstatespostalservice-a77078", "operator": "United States Postal Service", "operator:short": "USPS", "operator:type": "public", "operator:wikidata": "Q668687", "ref": "1810300068"}, "type": "Feature"}
{"dataset_attributes": {"@spider": "usps_collection_boxes", "spider:collection_time": "2023-09-13T08:25:17.985642"}, "geometry": {"coordinates": [-75.4790403, 40.578832], "type": "Point"}, "id": "H-9V-oKTJiYcGS4ybp_YrCilp2k=", "properties": {"@spider": "usps_collection_boxes", "addr:city": "ALLENTOWN", "addr:country": "US", "addr:full": "1501 LEHIGH ST", "addr:postcode": "18103", "addr:state": "PA", "amenity": "post_box", "brand": "United States Postal Service", "brand:wikidata": "Q668687", "collection_times": "Mo-Sa 12:30", "name": "USPS COLLECTION BOX - BLUE BOX", "note": "ON 12/24 AND 12/31, THIS BOX MAY BE COLLECTED AS EARLY AS 12 NOON.", "nsi_id": "unitedstatespostalservice-a77078", "operator": "United States Postal Service", "operator:short": "USPS", "operator:type": "public", "operator:wikidata": "Q668687", "ref": "1810300075"}, "type": "Feature"}
{"dataset_attributes": {"@spider": "usps_collection_boxes", "spider:collection_time": "2023-09-13T08:25:17.985642"}, "geometry": {"coordinates": [-75.4760604, 40.584723], "type": "Point"}, "id": "kjNNkjwxO9b6dnGoQhlMOHyI-Kg=", "properties": {"@spider": "usps_collection_boxes", "addr:city": "ALLENTOWN", "addr:country": "US", "addr:full": "1224 LEHIGH ST", "addr:postcode": "18103", "addr:state": "PA", "amenity": "post_box", "brand": "United States Postal Service", "brand:wikidata": "Q668687", "collection_times": "Mo-Sa 12:30", "name": "USPS COLLECTION BOX - BLUE BOX", "note": "ON 12/24 AND 12/31, THIS BOX MAY BE COLLECTED AS EARLY AS 12 NOON.", "nsi_id": "unitedstatespostalservice-a77078", "operator": "United States Postal Service", "operator:short": "USPS", "operator:type": "public", "operator:wikidata": "Q668687", "ref": "1810300079"}, "type": "Feature"}
{"dataset_attributes": {"@spider": "usps_collection_boxes", "spider:collection_time": "2023-09-13T08:25:17.985642"}, "geometry": {"coordinates": [-75.5258943, 40.57764], "type": "Point"}, "id": "MMW7gaetyTusDeReAMFP-vZpKFU=", "properties": {"@spider": "usps_collection_boxes", "addr:city": "ALLENTOWN", "addr:country": "US", "addr:full": "3434 HAMILTON BLVD", "addr:postcode": "18103", "addr:state": "PA", "amenity": "post_box", "brand": "United States Postal Service", "brand:wikidata": "Q668687", "collection_times": "Mo-Fr 16:15; Sa 13:30", "name": "USPS COLLECTION BOX - BLUE BOX", "note": "ON 12/24 AND 12/31, THIS BOX MAY BE COLLECTED AS EARLY AS 12 NOON.", "nsi_id": "unitedstatespostalservice-a77078", "operator": "United States Postal Service", "operator:short": "USPS", "operator:type": "public", "operator:wikidata": "Q668687", "ref": "1810300086"}, "type": "Feature"}
{"dataset_attributes": {"@spider": "usps_collection_boxes", "spider:collection_time": "2023-09-13T08:25:17.985642"}, "geometry": {"coordinates": [-75.4884757, 40.559246], "type": "Point"}, "id": "IduGdGsRyN4M0zFB-uD_QUaSCy4=", "properties": {"@spider": "usps_collection_boxes", "addr:city": "ALLENTOWN", "addr:country": "US", "addr:full": "3026 MORAVIAN AVE", "addr:postcode": "18103", "addr:state": "PA", "amenity": "post_box", "brand": "United States Postal Service", "brand:wikidata": "Q668687", "collection_times": "Mo-Sa 13:00", "name": "USPS COLLECTION BOX - BLUE BOX", "note": "ON 12/24 AND 12/31, THIS BOX MAY BE COLLECTED AS EARLY AS 12 NOON.", "nsi_id": "unitedstatespostalservice-a77078", "operator": "United States Postal Service", "operator:short": "USPS", "operator:type": "public", "operator:wikidata": "Q668687", "ref": "1810300087"}, "type": "Feature"}
{"dataset_attributes": {"@spider": "usps_collection_boxes", "spider:collection_time": "2023-09-13T08:25:17.985642"}, "geometry": {"coordinates": [-75.4809567, 40.570255], "type": "Point"}, "id": "jnEiO_aS4DhZBG0e83iIQ4WQ_BM=", "properties": {"@spider": "usps_collection_boxes", "addr:city": "ALLENTOWN", "addr:country": "US", "addr:full": "2300 LEHIGH ST", "addr:postcode": "18103", "addr:state": "PA", "amenity": "post_box", "brand": "United States Postal Service", "brand:wikidata": "Q668687", "collection_times": "Mo-Fr 17:00; Sa 12:30", "name": "USPS COLLECTION BOX - BLUE BOX", "note": "ON 12/24 AND 12/31, THIS BOX MAY BE COLLECTED AS EARLY AS 12 NOON.", "nsi_id": "unitedstatespostalservice-a77078", "operator": "United States Postal Service", "operator:short": "USPS", "operator:type": "public", "operator:wikidata": "Q668687", "ref": "1810300114"}, "type": "Feature"}
{"dataset_attributes": {"@spider": "usps_collection_boxes", "spider:collection_time": "2023-09-13T08:25:17.985642"}, "geometry": {"coordinates": [-75.4957129, 40.604072], "type": "Point"}, "id": "wQYyzbzjwFCCqrgI-27HssH4fjY=", "properties": {"@spider": "usps_collection_boxes", "addr:city": "ALLENTOWN", "addr:country": "US", "addr:full": "501 N 17TH ST", "addr:postcode": "18104", "addr:state": "PA", "amenity": "post_box", "brand": "United States Postal Service", "brand:wikidata": "Q668687", "collection_times": "Mo-Fr 16:30; Sa 13:30", "name": "USPS COLLECTION BOX - BLUE BOX", "note": "ON 12/24 AND 12/31, THIS BOX MAY BE COLLECTED AS EARLY AS 12 NOON.", "nsi_id": "unitedstatespostalservice-a77078", "operator": "United States Postal Service", "operator:short": "USPS", "operator:type": "public", "operator:wikidata": "Q668687", "ref": "1810400002"}, "type": "Feature"}
{"dataset_attributes": {"@spider": "usps_collection_boxes", "spider:collection_time": "2023-09-13T08:25:17.985642"}, "geometry": {"coordinates": [-75.4909289, 40.594131], "type": "Point"}, "id": "P2a536Jer617FgpJ7CUeB8Qp1G0=", "properties": {"@spider": "usps_collection_boxes", "addr:city": "ALLENTOWN", "addr:country": "US", "addr:full": "135 S 17TH ST", "addr:postcode": "18104", "addr:state": "PA", "amenity": "post_box", "brand": "United States Postal Service", "brand:wikidata": "Q668687", "collection_times": "Mo-Sa 13:00", "name": "USPS COLLECTION BOX - BLUE BOX", "note": "ON 12/24 AND 12/31, THIS BOX MAY BE COLLECTED AS EARLY AS 12 NOON.", "nsi_id": "unitedstatespostalservice-a77078", "operator": "United States Postal Service", "operator:short": "USPS", "operator:type": "public", "operator:wikidata": "Q668687", "ref": "1810400004"}, "type": "Feature"}
{"dataset_attributes": {"@spider": "usps_collection_boxes", "spider:collection_time": "2023-09-13T08:25:17.985642"}, "geometry": {"coordinates": [-75.5039071, 40.611353], "type": "Point"}, "id": "aX-_uH5NC8TViw53_xNiz-QagLQ=", "properties": {"@spider": "usps_collection_boxes", "addr:city": "ALLENTOWN", "addr:country": "US", "addr:full": "1051 N 19TH ST", "addr:postcode": "18104", "addr:state": "PA", "amenity": "post_box", "brand": "United States Postal Service", "brand:wikidata": "Q668687", "collection_times": "Mo-Sa 13:30", "name": "USPS COLLECTION BOX - BLUE BOX", "note": "ON 12/24 AND 12/31, THIS BOX MAY BE COLLECTED AS EARLY AS 12 NOON.", "nsi_id": "unitedstatespostalservice-a77078", "operator": "United States Postal Service", "operator:short": "USPS", "operator:type": "public", "operator:wikidata": "Q668687", "ref": "1810400016"}, "type": "Feature"}
{"dataset_attributes": {"@spider": "usps_collection_boxes", "spider:collection_time": "2023-09-13T08:25:17.985642"}, "geometry": {"coordinates": [-75.4979037, 40.598262], "type": "Point"}, "id": "O4mFa0TsDHttSFD-HNNGt-zf1j8=", "properties": {"@spider": "usps_collection_boxes", "addr:city": "ALLENTOWN", "addr:country": "US", "addr:full": "N 19TH ST", "addr:postcode": "18104", "addr:state": "PA", "amenity": "post_box", "brand": "United States Postal Service", "brand:wikidata": "Q668687", "collection_times": "Mo-Fr 16:30; Sa 13:30", "name": "USPS COLLECTION BOX - BLUE BOX", "note": "ON 12/24 AND 12/31, THIS BOX MAY BE COLLECTED AS EARLY AS 12 NOON.", "nsi_id": "unitedstatespostalservice-a77078", "operator": "United States Postal Service", "operator:short": "USPS", "operator:type": "public", "operator:wikidata": "Q668687", "ref": "1810400021"}, "type": "Feature"}
{"dataset_attributes": {"@spider": "usps_collection_boxes", "spider:collection_time": "2023-09-13T08:25:17.985642"}, "geometry": {"coordinates": [-75.5044039, 40.604037], "type": "Point"}, "id": "5U-pDJCHo29ayRsoWxaN9H8DHOE=", "properties": {"@spider": "usps_collection_boxes", "addr:city": "ALLENTOWN", "addr:country": "US", "addr:full": "2030 W TILGHMAN ST", "addr:postcode": "18104", "addr:state": "PA", "amenity": "post_box", "brand": "United States Postal Service", "brand:wikidata": "Q668687", "collection_times": "Mo-Fr 16:15; Sa 13:30", "name": "USPS COLLECTION BOX - BLUE BOX", "note": "ON 12/24 AND 12/31, THIS BOX MAY BE COLLECTED AS EARLY AS 12 NOON.", "nsi_id": "unitedstatespostalservice-a77078", "operator": "United States Postal Service", "operator:short": "USPS", "operator:type": "public", "operator:wikidata": "Q668687", "ref": "1810400027"}, "type": "Feature"}
{"dataset_attributes": {"@spider": "usps_collection_boxes", "spider:collection_time": "2023-09-13T08:25:17.985642"}, "geometry": {"coordinates": [-75.5083199, 40.600121], "type": "Point"}, "id": "YmjNXvjapgSFAU3aFj1fw8wVe90=", "properties": {"@spider": "usps_collection_boxes", "addr:city": "ALLENTOWN", "addr:country": "US", "addr:full": "2301 W LIBERTY ST", "addr:postcode": "18104", "addr:state": "PA", "amenity": "post_box", "brand": "United States Postal Service", "brand:wikidata": "Q668687", "collection_times": "Mo-Fr 15:45; Sa 13:30", "name": "USPS COLLECTION BOX - BLUE BOX", "note": "ON 12/24 AND 12/31, THIS BOX MAY BE COLLECTED AS EARLY AS 12 NOON.", "nsi_id": "unitedstatespostalservice-a77078", "operator": "United States Postal Service", "operator:short": "USPS", "operator:type": "public", "operator:wikidata": "Q668687", "ref": "1810400039"}, "type": "Feature"}
{"dataset_attributes": {"@spider": "usps_collection_boxes", "spider:collection_time": "2023-09-13T08:25:17.985642"}, "geometry": {"coordinates": [-75.5096466, 40.585515], "type": "Point"}, "id": "W_1FjQcKq3MRGkQWYGb67HBQ7KY=", "properties": {"@spider": "usps_collection_boxes", "addr:city": "ALLENTOWN", "addr:country": "US", "addr:full": "344 S OTT ST", "addr:postcode": "18104", "addr:state": "PA", "amenity": "post_box", "brand": "United States Postal Service", "brand:wikidata": "Q668687", "collection_times": "Mo-Sa 13:00", "name": "USPS COLLECTION BOX - BLUE BOX", "note": "ON 12/24 AND 12/31, THIS BOX MAY BE COLLECTED AS EARLY AS 12 NOON.", "nsi_id": "unitedstatespostalservice-a77078", "operator": "United States Postal Service", "operator:short": "USPS", "operator:type": "public", "operator:wikidata": "Q668687", "ref": "1810400043"}, "type": "Feature"}
{"dataset_attributes": {"@spider": "usps_collection_boxes", "spider:collection_time": "2023-09-13T08:25:17.985642"}, "geometry": {"coordinates": [-75.5231061, 40.594327], "type": "Point"}, "id": "d0TlEBWQi06cPg9jgEh9jQE0nI8=", "properties": {"@spider": "usps_collection_boxes", "addr:city": "ALLENTOWN", "addr:country": "US", "addr:full": "3057 COLLEGE HEIGHTS BLVD", "addr:postcode": "18104", "addr:state": "PA", "amenity": "post_box", "brand": "United States Postal Service", "brand:wikidata": "Q668687", "collection_times": "Mo-Fr 16:00; Sa 13:00", "name": "USPS COLLECTION BOX - BLUE BOX", "note": "ON 12/24 AND 12/31, THIS BOX MAY BE COLLECTED AS EARLY AS 12 NOON.", "nsi_id": "unitedstatespostalservice-a77078", "operator": "United States Postal Service", "operator:short": "USPS", "operator:type": "public", "operator:wikidata": "Q668687", "ref": "1810400049"}, "type": "Feature"}
{"dataset_attributes": {"@spider": "usps_collection_boxes", "spider:collection_time": "2023-09-13T08:25:17.985642"}, "geometry": {"coordinates": [-75.5263622, 40.596035], "type": "Point"}, "id": "TfTq_qsDtKzHIkUF6kUatx9KzdA=", "properties": {"@spider": "usps_collection_boxes", "addr:city": "ALLENTOWN", "addr:country": "US", "addr:full": "3140 W TILGHMAN ST", "addr:postcode": "18104", "addr:state": "PA", "amenity": "post_box", "brand": "United States Postal Service", "brand:wikidata": "Q668687", "collection_times": "Mo-Fr 17:00; Sa 13:00", "name": "USPS COLLECTION BOX - BLUE BOX", "note": "ON 12/24 AND 12/31, THIS BOX MAY BE COLLECTED AS EARLY AS 12 NOON.", "nsi_id": "unitedstatespostalservice-a77078", "operator": "United States Postal Service", "operator:short": "USPS", "operator:type": "public", "operator:wikidata": "Q668687", "ref": "1810400053"}, "type": "Feature"}
{"dataset_attributes": {"@spider": "usps_collection_boxes", "spider:collection_time": "2023-09-13T08:25:17.985642"}, "geometry": {"coordinates": [-75.5497188, 40.590929], "type": "Point"}, "id": "Ta8GB5gQH6Y8orU9aAQIMUPumyU=", "properties": {"@spider": "usps_collection_boxes", "addr:city": "ALLENTOWN", "addr:country": "US", "addr:full": "4200 W TILGHMAN ST", "addr:postcode": "18104", "addr:state": "PA", "amenity": "post_box", "brand": "United States Postal Service", "brand:wikidata": "Q668687", "collection_times": "Mo-Fr 16:30; Sa 12:30", "name": "USPS COLLECTION BOX - BLUE BOX", "note": "ON 12/24 AND 12/31, THIS BOX MAY BE COLLECTED AS EARLY AS 12 NOON.", "nsi_id": "unitedstatespostalservice-a77078", "operator": "United States Postal Service", "operator:short": "USPS", "operator:type": "public", "operator:wikidata": "Q668687", "ref": "1810400056"}, "type": "Feature"}
{"dataset_attributes": {"@spider": "usps_collection_boxes", "spider:collection_time": "2023-09-13T08:25:17.985642"}, "geometry": {"coordinates": [-75.5659181, 40.588412], "type": "Point"}, "id": "Y5wCDVOqFteR5F1PSOtSGOk7Lv8=", "properties": {"@spider": "usps_collection_boxes", "addr:city": "ALLENTOWN", "addr:country": "US", "addr:full": "5050 W TILGHMAN ST", "addr:postcode": "18104", "addr:state": "PA", "amenity": "post_box", "brand": "United States Postal Service", "brand:wikidata": "Q668687", "collection_times": "Mo-Fr 16:30", "name": "USPS COLLECTION BOX - BLUE BOX", "note": "ON 12/24 AND 12/31, THIS BOX MAY BE COLLECTED AS EARLY AS 12 NOON.", "nsi_id": "unitedstatespostalservice-a77078", "operator": "United States Postal Service", "operator:short": "USPS", "operator:type": "public", "operator:wikidata": "Q668687", "ref": "1810400065"}, "type": "Feature"}
{"dataset_attributes": {"@spider": "usps_collection_boxes", "spider:collection_time": "2023-09-13T08:25:17.985642"}, "geometry": {"coordinates": [-75.5356928, 40.584492], "type": "Point"}, "id": "uQp3J3rspipIsrw50PbsYee_vDo=", "properties": {"@spider": "usps_collection_boxes", "addr:city": "ALLENTOWN", "addr:country": "US", "addr:full": "3746 BROADWAY", "addr:postcode": "18104", "addr:state": "PA", "amenity": "post_box", "brand": "United States Postal Service", "brand:wikidata": "Q668687", "collection_times": "Mo-Sa 09:00", "name": "USPS COLLECTION BOX - BLUE BOX", "nsi_id": "unitedstatespostalservice-a77078", "operator": "United States Postal Service", "operator:short": "USPS", "operator:type": "public", "operator:wikidata": "Q668687", "ref": "1810400069"}, "type": "Feature"}
{"dataset_attributes": {"@spider": "usps_collection_boxes", "spider:collection_time": "2023-09-13T08:25:17.985642"}, "geometry": {"coordinates": [-75.5643379, 40.591396], "type": "Point"}, "id": "4LmhQTH0QkWTPpyR9oA4ys8g9XE=", "properties": {"@spider": "usps_collection_boxes", "addr:city": "ALLENTOWN", "addr:country": "US", "addr:full": "4905 W TILGHMAN ST", "addr:postcode": "18104", "addr:state": "PA", "amenity": "post_box", "brand": "United States Postal Service", "brand:wikidata": "Q668687", "collection_times": "Mo-Fr 16:00", "name": "USPS COLLECTION BOX - BLUE BOX", "note": "ON 12/24 AND 12/31, THIS BOX MAY BE COLLECTED AS EARLY AS 12 NOON.", "nsi_id": "unitedstatespostalservice-a77078", "operator": "United States Postal Service", "operator:short": "USPS", "operator:type": "public", "operator:wikidata": "Q668687", "ref": "1810400072"}, "type": "Feature"}
{"dataset_attributes": {"@spider": "usps_collection_boxes", "spider:collection_time": "2023-09-13T08:25:17.985642"}, "geometry": {"coordinates": [-75.5649554, 40.606435], "type": "Point"}, "id": "X8snXEdqSxl9UXws1JEe3rxWREo=", "properties": {"@spider": "usps_collection_boxes", "addr:city": "ALLENTOWN", "addr:country": "US", "addr:full": "1409 HAUSMAN RD", "addr:postcode": "18104", "addr:state": "PA", "amenity": "post_box", "brand": "United States Postal Service", "brand:wikidata": "Q668687", "collection_times": "Mo-Fr 16:30; Sa 12:00", "name": "USPS COLLECTION BOX - BLUE BOX", "note": "ON 12/24 AND 12/31, THIS BOX MAY BE COLLECTED AS EARLY AS 12 NOON.", "nsi_id": "unitedstatespostalservice-a77078", "operator": "United States Postal Service", "operator:short": "USPS", "operator:type": "public", "operator:wikidata": "Q668687", "ref": "1810400078"}, "type": "Feature"}
{"dataset_attributes": {"@spider": "usps_collection_boxes", "spider:collection_time": "2023-09-13T08:25:17.985642"}, "geometry": {"coordinates": [-75.5320095, 40.614086], "type": "Point"}, "id": "Wr6frP8ZIjmUwF_06QW_Jd6NUZk=", "properties": {"@spider": "usps_collection_boxes", "addr:city": "ALLENTOWN", "addr:country": "US", "addr:full": "1621 N CEDAR CREST BLVD", "addr:postcode": "18104", "addr:state": "PA", "amenity": "post_box", "brand": "United States Postal Service", "brand:wikidata": "Q668687", "collection_times": "Mo-Fr 16:30; Sa 12:00", "name": "USPS COLLECTION BOX - BLUE BOX", "note": "ON 12/24 AND 12/31, THIS BOX MAY BE COLLECTED AS EARLY AS 12 NOON.", "nsi_id": "unitedstatespostalservice-a77078", "operator": "United States Postal Service", "operator:short": "USPS", "operator:type": "public", "operator:wikidata": "Q668687", "ref": "1810400087"}, "type": "Feature"}
{"dataset_attributes": {"@spider": "usps_collection_boxes", "spider:collection_time": "2023-09-13T08:25:17.985642"}, "geometry": {"coordinates": [-75.5668256, 40.589927], "type": "Point"}, "id": "Gf4CpYSuMzIER4RGMN90neb6sG0=", "properties": {"@spider": "usps_collection_boxes", "addr:city": "ALLENTOWN", "addr:country": "US", "addr:full": "5000 W TILGHMAN ST", "addr:postcode": "18104", "addr:state": "PA", "amenity": "post_box", "brand": "United States Postal Service", "brand:wikidata": "Q668687", "collection_times": "Mo-Fr 16:30", "name": "USPS COLLECTION BOX - BLUE BOX", "note": "ON 12/24 AND 12/31, THIS BOX MAY BE COLLECTED AS EARLY AS 12 NOON.", "nsi_id": "unitedstatespostalservice-a77078", "operator": "United States Postal Service", "operator:short": "USPS", "operator:type": "public", "operator:wikidata": "Q668687", "ref": "1810400094"}, "type": "Feature"}
{"dataset_attributes": {"@spider": "usps_collection_boxes", "spider:collection_time": "2023-09-13T08:25:17.985642"}, "geometry": {"coordinates": [-75.5319984, 40.614091], "type": "Point"}, "id": "H1w_p80GKHTvBHUSN7fBS4fv49g=", "properties": {"@spider": "usps_collection_boxes", "addr:city": "ALLENTOWN", "addr:country": "US", "addr:full": "1621 N CEDAR CREST BLVD", "addr:postcode": "18104", "addr:state": "PA", "amenity": "post_box", "brand": "United States Postal Service", "brand:wikidata": "Q668687", "collection_times": "Mo-Fr 16:30; Sa 12:00", "name": "USPS COLLECTION BOX - BLUE BOX", "note": "ON 12/24 AND 12/31, THIS BOX MAY BE COLLECTED AS EARLY AS 12 NOON.", "nsi_id": "unitedstatespostalservice-a77078", "operator": "United States Postal Service", "operator:short": "USPS", "operator:type": "public", "operator:wikidata": "Q668687", "ref": "1810400099"}, "type": "Feature"}
{"dataset_attributes": {"@spider": "usps_collection_boxes", "spider:collection_time": "2023-09-13T08:25:17.985642"}, "geometry": {"coordinates": [-75.5418021, 40.592391], "type": "Point"}, "id": "SxaRk-xly-FsL5QjaWkKloYjCaA=", "properties": {"@spider": "usps_collection_boxes", "addr:city": "ALLENTOWN", "addr:country": "US", "addr:full": "3900 W TILGHMAN ST", "addr:postcode": "18104", "addr:state": "PA", "amenity": "post_box", "brand": "United States Postal Service", "brand:wikidata": "Q668687", "collection_times": "Mo-Sa 12:30", "name": "USPS COLLECTION BOX - BLUE BOX", "note": "ON 12/24 AND 12/31, THIS BOX MAY BE COLLECTED AS EARLY AS 12 NOON.", "nsi_id": "unitedstatespostalservice-a77078", "operator": "United States Postal Service", "operator:short": "USPS", "operator:type": "public", "operator:wikidata": "Q668687", "ref": "1810400103"}, "type": "Feature"}
{"dataset_attributes": {"@spider": "usps_collection_boxes", "spider:collection_time": "2023-09-13T08:25:17.985642"}, "geometry": {"coordinates": [-75.5016104, 40.591066], "type": "Point"}, "id": "RMPnmCtCkfTeeCK_3oPqjuF84eg=", "properties": {"@spider": "usps_collection_boxes", "addr:city": "ALLENTOWN", "addr:country": "US", "addr:full": "2204 W UNION ST", "addr:postcode": "18104", "addr:state": "PA", "amenity": "post_box", "brand": "United States Postal Service", "brand:wikidata": "Q668687", "collection_times": "Mo-Sa 13:00", "name": "USPS COLLECTION BOX - BLUE BOX", "note": "ON 12/24 AND 12/31, THIS BOX MAY BE COLLECTED AS EARLY AS 12 NOON.", "nsi_id": "unitedstatespostalservice-a77078", "operator": "United States Postal Service", "operator:short": "USPS", "operator:type": "public", "operator:wikidata": "Q668687", "ref": "1810400109"}, "type": "Feature"}
{"dataset_attributes": {"@spider": "usps_collection_boxes", "spider:collection_time": "2023-09-13T08:25:17.985642"}, "geometry": {"coordinates": [-75.553635592, 40.561549764], "type": "Point"}, "id": "4i8K9pkwgMt7m_ZtqMx2nTpvsG0=", "properties": {"@spider": "usps_collection_boxes", "addr:city": "ALLENTOWN", "addr:country": "US", "addr:full": "1115 BROOKSIDE RD", "addr:postcode": "18106", "addr:state": "PA", "amenity": "post_box", "brand": "United States Postal Service", "brand:wikidata": "Q668687", "collection_times": "Mo-Fr 16:30; Sa 13:30", "name": "USPS COLLECTION BOX - BLUE BOX", "note": "ON 12/24 AND 12/31, THIS BOX MAY BE COLLECTED AS EARLY AS 12 NOON.", "nsi_id": "unitedstatespostalservice-a77078", "operator": "United States Postal Service", "operator:short": "USPS", "operator:type": "public", "operator:wikidata": "Q668687", "ref": "1810600004"}, "type": "Feature"}
{"dataset_attributes": {"@spider": "usps_collection_boxes", "spider:collection_time": "2023-09-13T08:25:17.985642"}, "geometry": {"coordinates": [-75.6284904, 40.591057], "type": "Point"}, "id": "RZfkSeRNUVZamefgLOAX-KA7TDU=", "properties": {"@spider": "usps_collection_boxes", "addr:city": "ALLENTOWN", "addr:country": "US", "addr:full": "1275 GLENLIVET DR", "addr:postcode": "18106", "addr:state": "PA", "amenity": "post_box", "brand": "United States Postal Service", "brand:wikidata": "Q668687", "collection_times": "Mo-Fr 16:15; Sa 12:30", "name": "USPS COLLECTION BOX - BLUE BOX", "note": "ON 12/24 AND 12/31, THIS BOX MAY BE COLLECTED AS EARLY AS 12 NOON.", "nsi_id": "unitedstatespostalservice-a77078", "operator": "United States Postal Service", "operator:short": "USPS", "operator:type": "public", "operator:wikidata": "Q668687", "ref": "1810600011"}, "type": "Feature"}
{"dataset_attributes": {"@spider": "usps_collection_boxes", "spider:collection_time": "2023-09-13T08:25:17.985642"}, "geometry": {"coordinates": [-75.553684, 40.561353], "type": "Point"}, "id": "CfJoFaGu0yYgLw0PpKS-TEwZwmg=", "properties": {"@spider": "usps_collection_boxes", "addr:city": "ALLENTOWN", "addr:country": "US", "addr:full": "1115 BROOKSIDE RD", "addr:postcode": "18106", "addr:state": "PA", "amenity": "post_box", "brand": "United States Postal Service", "brand:wikidata": "Q668687", "collection_times": "Mo-Fr 16:30; Sa 13:30", "name": "USPS COLLECTION BOX - PO LOBBY", "note": "ON 12/24 AND 12/31, THIS BOX MAY BE COLLECTED AS EARLY AS 12 NOON.", "nsi_id": "unitedstatespostalservice-a77078", "operator": "United States Postal Service", "operator:short": "USPS", "operator:type": "public", "operator:wikidata": "Q668687", "ref": "1810600016"}, "type": "Feature"}
{"dataset_attributes": {"@spider": "usps_collection_boxes", "spider:collection_time": "2023-09-13T08:25:17.985642"}, "geometry": {"coordinates": [-75.6194377, 40.583265], "type": "Point"}, "id": "h5vVwEslwnXsG3SaR5j530ohSd4=", "properties": {"@spider": "usps_collection_boxes", "addr:city": "ALLENTOWN", "addr:country": "US", "addr:full": "7450 WINDSOR DR", "addr:postcode": "18106", "addr:state": "PA", "amenity": "post_box", "brand": "United States Postal Service", "brand:wikidata": "Q668687", "collection_times": "Mo-Fr 16:15; Sa 12:30", "name": "USPS COLLECTION BOX - BLUE BOX", "note": "ON 12/24 AND 12/31, THIS BOX MAY BE COLLECTED AS EARLY AS 12 NOON.", "nsi_id": "unitedstatespostalservice-a77078", "operator": "United States Postal Service", "operator:short": "USPS", "operator:type": "public", "operator:wikidata": "Q668687", "ref": "1810600020"}, "type": "Feature"}
{"dataset_attributes": {"@spider": "usps_collection_boxes", "spider:collection_time": "2023-09-13T08:25:17.985642"}, "geometry": {"coordinates": [-75.553635592, 40.561549764], "type": "Point"}, "id": "DkckWuQwAQ8CiwPOy2xQG_43LKo=", "properties": {"@spider": "usps_collection_boxes", "addr:city": "ALLENTOWN", "addr:country": "US", "addr:full": "1115 BROOKSIDE RD", "addr:postcode": "18106", "addr:state": "PA", "amenity": "post_box", "brand": "United States Postal Service", "brand:wikidata": "Q668687", "collection_times": "Mo-Fr 16:45; Sa 13:15", "name": "USPS COLLECTION BOX - PO LOBBY", "note": "ON 12/24 AND 12/31, THIS BOX MAY BE COLLECTED AS EARLY AS 12 NOON.", "nsi_id": "unitedstatespostalservice-a77078", "operator": "United States Postal Service", "operator:short": "USPS", "operator:type": "public", "operator:wikidata": "Q668687", "ref": "1810600023"}, "type": "Feature"}
{"dataset_attributes": {"@spider": "usps_collection_boxes", "spider:collection_time": "2023-09-13T08:25:17.985642"}, "geometry": {"coordinates": [-75.4400151, 40.629007], "type": "Point"}, "id": "5cdiGZGL8sWXJNlqgRHQdkSySqw=", "properties": {"@spider": "usps_collection_boxes", "addr:city": "ALLENTOWN", "addr:country": "US", "addr:full": "1201 AIRPORT RD", "addr:postcode": "18109", "addr:state": "PA", "amenity": "post_box", "brand": "United States Postal Service", "brand:wikidata": "Q668687", "collection_times": "Mo-Fr 17:00; Sa 13:00", "name": "USPS COLLECTION BOX - BLUE BOX", "note": "ON 12/24 AND 12/31, THIS BOX MAY BE COLLECTED AS EARLY AS 12 NOON.", "nsi_id": "unitedstatespostalservice-a77078", "operator": "United States Postal Service", "operator:short": "USPS", "operator:type": "public", "operator:wikidata": "Q668687", "ref": "1810900010"}, "type": "Feature"}
{"dataset_attributes": {"@spider": "usps_collection_boxes", "spider:collection_time": "2023-09-13T08:25:17.985642"}, "geometry": {"coordinates": [-75.4318431, 40.619231], "type": "Point"}, "id": "CSDxp4zxqN1XI3YiqkqnRMg7KvI=", "properties": {"@spider": "usps_collection_boxes", "addr:city": "ALLENTOWN", "addr:country": "US", "addr:full": "1600 HANOVER AVE", "addr:postcode": "18109", "addr:state": "PA", "amenity": "post_box", "brand": "United States Postal Service", "brand:wikidata": "Q668687", "collection_times": "Mo-Sa 09:00", "name": "USPS COLLECTION BOX - BLUE BOX", "nsi_id": "unitedstatespostalservice-a77078", "operator": "United States Postal Service", "operator:short": "USPS", "operator:type": "public", "operator:wikidata": "Q668687", "ref": "1810900018"}, "type": "Feature"}
{"dataset_attributes": {"@spider": "usps_collection_boxes", "spider:collection_time": "2023-09-13T08:25:17.985642"}, "geometry": {"coordinates": [-75.4398531, 40.61232], "type": "Point"}, "id": "Z3rUeFfY-TvV1Tu1Kb4r7Sn3Rnw=", "properties": {"@spider": "usps_collection_boxes", "addr:city": "ALLENTOWN", "addr:country": "US", "addr:full": "7 N IRVING ST", "addr:postcode": "18109", "addr:state": "PA", "amenity": "post_box", "brand": "United States Postal Service", "brand:wikidata": "Q668687", "collection_times": "Mo-Sa 13:00", "name": "USPS COLLECTION BOX - BLUE BOX", "note": "ON 12/24 AND 12/31, THIS BOX MAY BE COLLECTED AS EARLY AS 12 NOON.", "nsi_id": "unitedstatespostalservice-a77078", "operator": "United States Postal Service", "operator:short": "USPS", "operator:type": "public", "operator:wikidata": "Q668687", "ref": "1810900023"}, "type": "Feature"}
{"dataset_attributes": {"@spider": "usps_collection_boxes", "spider:collection_time": "2023-09-13T08:25:17.985642"}, "geometry": {"coordinates": [-75.433601977, 40.6443199798], "type": "Point"}, "id": "hrOtE14hIp1qum1jzzJdCcEum_s=", "properties": {"@spider": "usps_collection_boxes", "addr:city": "ALLENTOWN", "addr:country": "US", "addr:full": "1000 POSTAL RD", "addr:postcode": "18109", "addr:state": "PA", "amenity": "post_box", "brand": "United States Postal Service", "brand:wikidata": "Q668687", "collection_times": "Mo-Sa 18:00", "name": "USPS COLLECTION BOX - BLUE BOX", "note": "ON 12/24 AND 12/31, THIS BOX MAY BE COLLECTED AS EARLY AS 12 NOON.", "nsi_id": "unitedstatespostalservice-a77078", "operator": "United States Postal Service", "operator:short": "USPS", "operator:type": "public", "operator:wikidata": "Q668687", "ref": "1810900032"}, "type": "Feature"}
{"dataset_attributes": {"@spider": "usps_collection_boxes", "spider:collection_time": "2023-09-13T08:25:17.985642"}, "geometry": {"coordinates": [-75.4384153, 40.62461], "type": "Point"}, "id": "G7gDHGCQnPcwxI3UzivwUBNBq0g=", "properties": {"@spider": "usps_collection_boxes", "addr:city": "ALLENTOWN", "addr:country": "US", "addr:full": "1117 UNION BLVD", "addr:postcode": "18109", "addr:state": "PA", "amenity": "post_box", "brand": "United States Postal Service", "brand:wikidata": "Q668687", "collection_times": "Mo-Fr 16:30; Sa 13:30", "name": "USPS COLLECTION BOX - BLUE BOX", "note": "ON 12/24 AND 12/31, THIS BOX MAY BE COLLECTED AS EARLY AS 12 NOON.", "nsi_id": "unitedstatespostalservice-a77078", "operator": "United States Postal Service", "operator:short": "USPS", "operator:type": "public", "operator:wikidata": "Q668687", "ref": "1810900037"}, "type": "Feature"}
{"dataset_attributes": {"@spider": "usps_collection_boxes", "spider:collection_time": "2023-09-13T08:25:17.985642"}, "geometry": {"coordinates": [-75.4336, 40.64435], "type": "Point"}, "id": "JDPRqd-ySqkd3_fZcWrFFsDG1Ro=", "properties": {"@spider": "usps_collection_boxes", "addr:city": "ALLENTOWN", "addr:country": "US", "addr:full": "1000 POSTAL RD", "addr:postcode": "18109", "addr:state": "PA", "amenity": "post_box", "brand": "United States Postal Service", "brand:wikidata": "Q668687", "collection_times": "Mo-Sa 18:00", "name": "USPS COLLECTION BOX - PO LOBBY", "note": "ON 12/24 AND 12/31, THIS BOX MAY BE COLLECTED AS EARLY AS 12 NOON.", "nsi_id": "unitedstatespostalservice-a77078", "operator": "United States Postal Service", "operator:short": "USPS", "operator:type": "public", "operator:wikidata": "Q668687", "ref": "1810900047"}, "type": "Feature"}
