{"dataset_attributes": {"@spider": "usps_collection_boxes", "spider:collection_time": "2023-09-07T08:24:46.282741"}, "geometry": {"coordinates": [-75.9732207, 40.953691], "type": "Point"}, "id": "_v6W3AfVH-7bcuFEe8b8A34ybP8=", "properties": {"@spider": "usps_collection_boxes", "addr:city": "WEST HAZLETON", "addr:country": "US", "addr:full": "30 E BROAD ST", "addr:postcode": "18201", "addr:state": "PA", "amenity": "post_box", "brand": "United States Postal Service", "brand:wikidata": "Q668687", "collection_times": "Mo-Sa 15:30", "name": "USPS COLLECTION BOX - BLUE BOX", "note": "ON 12/24 AND 12/31, THIS BOX MAY BE COLLECTED AS EARLY AS 12 NOON.", "nsi_id": "unitedstatespostalservice-a77078", "operator": "United States Postal Service", "operator:short": "USPS", "operator:type": "public", "operator:wikidata": "Q668687", "ref": "1820100007"}, "type": "Feature"}
{"dataset_attributes": {"@spider": "usps_collection_boxes", "spider:collection_time": "2023-09-07T08:24:46.282741"}, "geometry": {"coordinates": [-75.9735542, 40.951797], "type": "Point"}, "id": "SuBzqqUZM3sfexLugmWo-YBtJJw=", "properties": {"@spider": "usps_collection_boxes", "addr:city": "WEST HAZLETON", "addr:country": "US", "addr:full": "70 S PINE ST", "addr:postcode": "18201", "addr:state": "PA", "amenity": "post_box", "brand": "United States Postal Service", "brand:wikidata": "Q668687", "collection_times": "Mo-Sa 09:30", "name": "USPS COLLECTION BOX - BLUE BOX", "nsi_id": "unitedstatespostalservice-a77078", "operator": "United States Postal Service", "operator:short": "USPS", "operator:type": "public", "operator:wikidata": "Q668687", "ref": "1820100010"}, "type": "Feature"}
{"dataset_attributes": {"@spider": "usps_collection_boxes", "spider:collection_time": "2023-09-07T08:24:46.282741"}, "geometry": {"coordinates": [-75.977765022, 40.952438992], "type": "Point"}, "id": "BGW3DG_z6iYQdJA3PgO0e5XGqGQ=", "properties": {"@spider": "usps_collection_boxes", "addr:city": "WEST HAZLETON", "addr:country": "US", "addr:full": "88 S LAUREL ST", "addr:postcode": "18201", "addr:state": "PA", "amenity": "post_box", "brand": "United States Postal Service", "brand:wikidata": "Q668687", "collection_times": "Mo-Sa 15:00", "name": "USPS COLLECTION BOX - BLUE BOX", "note": "ON 12/24 AND 12/31, THIS BOX MAY BE COLLECTED AS EARLY AS 12 NOON.", "nsi_id": "unitedstatespostalservice-a77078", "operator": "United States Postal Service", "operator:short": "USPS", "operator:type": "public", "operator:wikidata": "Q668687", "ref": "1820100013"}, "type": "Feature"}
{"dataset_attributes": {"@spider": "usps_collection_boxes", "spider:collection_time": "2023-09-07T08:24:46.282741"}, "geometry": {"coordinates": [-75.9757589, 40.954526], "type": "Point"}, "id": "_Jjuu26b4UKfT_aR8CYTcynINRU=", "properties": {"@spider": "usps_collection_boxes", "addr:city": "WEST HAZLETON", "addr:country": "US", "addr:full": "101 W BROAD ST", "addr:postcode": "18201", "addr:state": "PA", "amenity": "post_box", "brand": "United States Postal Service", "brand:wikidata": "Q668687", "collection_times": "Mo-Sa 15:30", "name": "USPS COLLECTION BOX - BLUE BOX", "note": "ON 12/24 AND 12/31, THIS BOX MAY BE COLLECTED AS EARLY AS 12 NOON.", "nsi_id": "unitedstatespostalservice-a77078", "operator": "United States Postal Service", "operator:short": "USPS", "operator:type": "public", "operator:wikidata": "Q668687", "ref": "1820100015"}, "type": "Feature"}
{"dataset_attributes": {"@spider": "usps_collection_boxes", "spider:collection_time": "2023-09-07T08:24:46.282741"}, "geometry": {"coordinates": [-75.9745342, 40.956313], "type": "Point"}, "id": "8LADA8GCXuykk0VeEP6FoQp8XLE=", "properties": {"@spider": "usps_collection_boxes", "addr:city": "WEST HAZLETON", "addr:country": "US", "addr:full": "61 N LAUREL ST", "addr:postcode": "18201", "addr:state": "PA", "amenity": "post_box", "brand": "United States Postal Service", "brand:wikidata": "Q668687", "collection_times": "Mo-Sa 15:00", "name": "USPS COLLECTION BOX - BLUE BOX", "note": "ON 12/24 AND 12/31, THIS BOX MAY BE COLLECTED AS EARLY AS 12 NOON.", "nsi_id": "unitedstatespostalservice-a77078", "operator": "United States Postal Service", "operator:short": "USPS", "operator:type": "public", "operator:wikidata": "Q668687", "ref": "1820100017"}, "type": "Feature"}
{"dataset_attributes": {"@spider": "usps_collection_boxes", "spider:collection_time": "2023-09-07T08:24:46.282741"}, "geometry": {"coordinates": [-75.9766481, 40.955932], "type": "Point"}, "id": "gM6i1HxgnkJSpLJBykWfVZeAXcc=", "properties": {"@spider": "usps_collection_boxes", "addr:city": "WEST HAZLETON", "addr:country": "US", "addr:full": "211 W GREEN ST", "addr:postcode": "18201", "addr:state": "PA", "amenity": "post_box", "brand": "United States Postal Service", "brand:wikidata": "Q668687", "collection_times": "Mo-Sa 15:00", "name": "USPS COLLECTION BOX - BLUE BOX", "note": "ON 12/24 AND 12/31, THIS BOX MAY BE COLLECTED AS EARLY AS 12 NOON.", "nsi_id": "unitedstatespostalservice-a77078", "operator": "United States Postal Service", "operator:short": "USPS", "operator:type": "public", "operator:wikidata": "Q668687", "ref": "1820100049"}, "type": "Feature"}
{"dataset_attributes": {"@spider": "usps_collection_boxes", "spider:collection_time": "2023-09-07T08:24:46.282741"}, "geometry": {"coordinates": [-75.9767942, 40.954755], "type": "Point"}, "id": "bOVohtPQZJkrmIadr1RVyVHd_oI=", "properties": {"@spider": "usps_collection_boxes", "addr:city": "WEST HAZLETON", "addr:country": "US", "addr:full": "146 W BROAD ST", "addr:postcode": "18201", "addr:state": "PA", "amenity": "post_box", "brand": "United States Postal Service", "brand:wikidata": "Q668687", "collection_times": "Mo-Sa 15:30", "name": "USPS COLLECTION BOX - BLUE BOX", "note": "ON 12/24 AND 12/31, THIS BOX MAY BE COLLECTED AS EARLY AS 12 NOON.", "nsi_id": "unitedstatespostalservice-a77078", "operator": "United States Postal Service", "operator:short": "USPS", "operator:type": "public", "operator:wikidata": "Q668687", "ref": "1820100050"}, "type": "Feature"}
{"dataset_attributes": {"@spider": "usps_collection_boxes", "spider:collection_time": "2023-09-07T08:24:46.282741"}, "geometry": {"coordinates": [-75.9785406, 40.962275], "type": "Point"}, "id": "k6A0TNGTxlELpZxTyTI3aTyg-7U=", "properties": {"@spider": "usps_collection_boxes", "addr:city": "WEST HAZLETON", "addr:country": "US", "addr:full": "602 ALTER ST", "addr:postcode": "18201", "addr:state": "PA", "amenity": "post_box", "brand": "United States Postal Service", "brand:wikidata": "Q668687", "collection_times": "Mo-Sa 10:00", "name": "USPS COLLECTION BOX - BLUE BOX", "nsi_id": "unitedstatespostalservice-a77078", "operator": "United States Postal Service", "operator:short": "USPS", "operator:type": "public", "operator:wikidata": "Q668687", "ref": "1820100056"}, "type": "Feature"}
{"dataset_attributes": {"@spider": "usps_collection_boxes", "spider:collection_time": "2023-09-07T08:24:46.282741"}, "geometry": {"coordinates": [-75.9825943, 40.970496], "type": "Point"}, "id": "5P6VCSVXO9oxho2BaOCe-2iVrPY=", "properties": {"@spider": "usps_collection_boxes", "addr:city": "WEST HAZLETON", "addr:country": "US", "addr:full": "932 N LOCUST ST", "addr:postcode": "18201", "addr:state": "PA", "amenity": "post_box", "brand": "United States Postal Service", "brand:wikidata": "Q668687", "collection_times": "Mo-Sa 13:00", "name": "USPS COLLECTION BOX - BLUE BOX", "note": "ON 12/24 AND 12/31, THIS BOX MAY BE COLLECTED AS EARLY AS 12 NOON.", "nsi_id": "unitedstatespostalservice-a77078", "operator": "United States Postal Service", "operator:short": "USPS", "operator:type": "public", "operator:wikidata": "Q668687", "ref": "1820100064"}, "type": "Feature"}
{"dataset_attributes": {"@spider": "usps_collection_boxes", "spider:collection_time": "2023-09-07T08:24:46.282741"}, "geometry": {"coordinates": [-75.9861247, 40.958161], "type": "Point"}, "id": "7VPRNeodMDhlync92tmFdgauHek=", "properties": {"@spider": "usps_collection_boxes", "addr:city": "WEST HAZLETON", "addr:country": "US", "addr:full": "903 W DIAMOND AVE", "addr:postcode": "18201", "addr:state": "PA", "amenity": "post_box", "brand": "United States Postal Service", "brand:wikidata": "Q668687", "collection_times": "Mo-Sa 09:00", "name": "USPS COLLECTION BOX - BLUE BOX", "nsi_id": "unitedstatespostalservice-a77078", "operator": "United States Postal Service", "operator:short": "USPS", "operator:type": "public", "operator:wikidata": "Q668687", "ref": "1820100073"}, "type": "Feature"}
{"dataset_attributes": {"@spider": "usps_collection_boxes", "spider:collection_time": "2023-09-07T08:24:46.282741"}, "geometry": {"coordinates": [-75.9843261, 40.956269], "type": "Point"}, "id": "Wr-y6qZnm7xaas1dNYBbqr6BW10=", "properties": {"@spider": "usps_collection_boxes", "addr:city": "WEST HAZLETON", "addr:country": "US", "addr:full": "540 W BROAD ST", "addr:postcode": "18201", "addr:state": "PA", "amenity": "post_box", "brand": "United States Postal Service", "brand:wikidata": "Q668687", "collection_times": "Mo-Sa 15:30", "name": "USPS COLLECTION BOX - BLUE BOX", "note": "ON 12/24 AND 12/31, THIS BOX MAY BE COLLECTED AS EARLY AS 12 NOON.", "nsi_id": "unitedstatespostalservice-a77078", "operator": "United States Postal Service", "operator:short": "USPS", "operator:type": "public", "operator:wikidata": "Q668687", "ref": "1820100075"}, "type": "Feature"}
{"dataset_attributes": {"@spider": "usps_collection_boxes", "spider:collection_time": "2023-09-07T08:24:46.282741"}, "geometry": {"coordinates": [-75.9729485, 40.942831], "type": "Point"}, "id": "0sqxyOTupSOwmYgjQ_X8-z1cnig=", "properties": {"@spider": "usps_collection_boxes", "addr:city": "WEST HAZLETON", "addr:country": "US", "addr:full": "383 S POPLAR ST", "addr:postcode": "18201", "addr:state": "PA", "amenity": "post_box", "brand": "United States Postal Service", "brand:wikidata": "Q668687", "collection_times": "Mo-Sa 15:00", "name": "USPS COLLECTION BOX - BLUE BOX", "note": "ON 12/24 AND 12/31, THIS BOX MAY BE COLLECTED AS EARLY AS 12 NOON.", "nsi_id": "unitedstatespostalservice-a77078", "operator": "United States Postal Service", "operator:short": "USPS", "operator:type": "public", "operator:wikidata": "Q668687", "ref": "1820100081"}, "type": "Feature"}
{"dataset_attributes": {"@spider": "usps_collection_boxes", "spider:collection_time": "2023-09-07T08:24:46.282741"}, "geometry": {"coordinates": [-75.9691952, 40.942476], "type": "Point"}, "id": "e0Lf-aIW_mQzC7V6pFCKsUWDCBU=", "properties": {"@spider": "usps_collection_boxes", "addr:city": "WEST HAZLETON", "addr:country": "US", "addr:full": "452 MUIR AVE", "addr:postcode": "18201", "addr:state": "PA", "amenity": "post_box", "brand": "United States Postal Service", "brand:wikidata": "Q668687", "collection_times": "Mo-Sa 12:30", "name": "USPS COLLECTION BOX - BLUE BOX", "note": "ON 12/24 AND 12/31, THIS BOX MAY BE COLLECTED AS EARLY AS 12 NOON.", "nsi_id": "unitedstatespostalservice-a77078", "operator": "United States Postal Service", "operator:short": "USPS", "operator:type": "public", "operator:wikidata": "Q668687", "ref": "1820100083"}, "type": "Feature"}
{"dataset_attributes": {"@spider": "usps_collection_boxes", "spider:collection_time": "2023-09-07T08:24:46.282741"}, "geometry": {"coordinates": [-75.9818612, 40.954198], "type": "Point"}, "id": "NQATfBMWpNWKCcthiTuqoLeEvVI=", "properties": {"@spider": "usps_collection_boxes", "addr:city": "WEST HAZLETON", "addr:country": "US", "addr:full": "70 S LOCUST ST", "addr:postcode": "18201", "addr:state": "PA", "amenity": "post_box", "brand": "United States Postal Service", "brand:wikidata": "Q668687", "collection_times": "Mo-Sa 09:30", "name": "USPS COLLECTION BOX - BLUE BOX", "nsi_id": "unitedstatespostalservice-a77078", "operator": "United States Postal Service", "operator:short": "USPS", "operator:type": "public", "operator:wikidata": "Q668687", "ref": "1820100101"}, "type": "Feature"}
{"dataset_attributes": {"@spider": "usps_collection_boxes", "spider:collection_time": "2023-09-07T08:24:46.282741"}, "geometry": {"coordinates": [-75.970913, 40.95957], "type": "Point"}, "id": "iumTmZ-3wIv5hqA7rSkoGnqAkwU=", "properties": {"@spider": "usps_collection_boxes", "addr:city": "WEST HAZLETON", "addr:country": "US", "addr:full": "231 N WYOMING ST", "addr:postcode": "18201", "addr:state": "PA", "amenity": "post_box", "brand": "United States Postal Service", "brand:wikidata": "Q668687", "collection_times": "Mo-Fr 17:15; Sa 17:00", "name": "USPS COLLECTION BOX - PO LOBBY", "note": "ON 12/24 AND 12/31, THIS BOX MAY BE COLLECTED AS EARLY AS 12 NOON.", "nsi_id": "unitedstatespostalservice-a77078", "operator": "United States Postal Service", "operator:short": "USPS", "operator:type": "public", "operator:wikidata": "Q668687", "ref": "1820100103"}, "type": "Feature"}
{"dataset_attributes": {"@spider": "usps_collection_boxes", "spider:collection_time": "2023-09-07T08:24:46.282741"}, "geometry": {"coordinates": [-75.9743949, 40.954126], "type": "Point"}, "id": "iz-24l-7Wln1PZLtN8BmEQgzzAk=", "properties": {"@spider": "usps_collection_boxes", "addr:city": "WEST HAZLETON", "addr:country": "US", "addr:full": "8 W BROAD ST", "addr:postcode": "18201", "addr:state": "PA", "amenity": "post_box", "brand": "United States Postal Service", "brand:wikidata": "Q668687", "collection_times": "Mo-Sa 15:30", "name": "USPS COLLECTION BOX - BLUE BOX", "note": "ON 12/24 AND 12/31, THIS BOX MAY BE COLLECTED AS EARLY AS 12 NOON.", "nsi_id": "unitedstatespostalservice-a77078", "operator": "United States Postal Service", "operator:short": "USPS", "operator:type": "public", "operator:wikidata": "Q668687", "ref": "1820100106"}, "type": "Feature"}
{"dataset_attributes": {"@spider": "usps_collection_boxes", "spider:collection_time": "2023-09-07T08:24:46.282741"}, "geometry": {"coordinates": [-75.9712555, 40.959435], "type": "Point"}, "id": "Y2aouZmJSCO75WzJcvPzanEG6Pc=", "properties": {"@spider": "usps_collection_boxes", "addr:city": "WEST HAZLETON", "addr:country": "US", "addr:full": "231 N WYOMING ST", "addr:postcode": "18201", "addr:state": "PA", "amenity": "post_box", "brand": "United States Postal Service", "brand:wikidata": "Q668687", "collection_times": "Mo-Fr 17:15; Sa 17:00", "name": "USPS COLLECTION BOX - BLUE BOX", "note": "ON 12/24 AND 12/31, THIS BOX MAY BE COLLECTED AS EARLY AS 12 NOON.", "nsi_id": "unitedstatespostalservice-a77078", "operator": "United States Postal Service", "operator:short": "USPS", "operator:type": "public", "operator:wikidata": "Q668687", "ref": "1820100111"}, "type": "Feature"}
{"dataset_attributes": {"@spider": "usps_collection_boxes", "spider:collection_time": "2023-09-07T08:24:46.282741"}, "geometry": {"coordinates": [-75.9793534, 40.972834], "type": "Point"}, "id": "ok2w_ymiL_ZeMYoj3r41vkSlluE=", "properties": {"@spider": "usps_collection_boxes", "addr:city": "WEST HAZLETON", "addr:country": "US", "addr:full": "992 N SHERMAN CT", "addr:postcode": "18201", "addr:state": "PA", "amenity": "post_box", "brand": "United States Postal Service", "brand:wikidata": "Q668687", "collection_times": "Mo-Sa 13:30", "name": "USPS COLLECTION BOX - BLUE BOX", "note": "ON 12/24 AND 12/31, THIS BOX MAY BE COLLECTED AS EARLY AS 12 NOON.", "nsi_id": "unitedstatespostalservice-a77078", "operator": "United States Postal Service", "operator:short": "USPS", "operator:type": "public", "operator:wikidata": "Q668687", "ref": "1820100112"}, "type": "Feature"}
{"dataset_attributes": {"@spider": "usps_collection_boxes", "spider:collection_time": "2023-09-07T08:24:46.282741"}, "geometry": {"coordinates": [-75.9742403, 40.951948], "type": "Point"}, "id": "8uTQixpIa9qDUvGLYcN76twu2hg=", "properties": {"@spider": "usps_collection_boxes", "addr:city": "WEST HAZLETON", "addr:country": "US", "addr:full": "50 E JUNIPER ST", "addr:postcode": "18201", "addr:state": "PA", "amenity": "post_box", "brand": "United States Postal Service", "brand:wikidata": "Q668687", "collection_times": "Mo-Sa 09:00", "name": "USPS COLLECTION BOX - BLUE BOX", "nsi_id": "unitedstatespostalservice-a77078", "operator": "United States Postal Service", "operator:short": "USPS", "operator:type": "public", "operator:wikidata": "Q668687", "ref": "1820100115"}, "type": "Feature"}
{"dataset_attributes": {"@spider": "usps_collection_boxes", "spider:collection_time": "2023-09-07T08:24:46.282741"}, "geometry": {"coordinates": [-75.9759404, 40.952305], "type": "Point"}, "id": "L0eY8mLeXH1z-lbV0UOXYr1B_fg=", "properties": {"@spider": "usps_collection_boxes", "addr:city": "WEST HAZLETON", "addr:country": "US", "addr:full": "70 W JUNIPER ST", "addr:postcode": "18201", "addr:state": "PA", "amenity": "post_box", "brand": "United States Postal Service", "brand:wikidata": "Q668687", "collection_times": "Mo-Sa 09:00", "name": "USPS COLLECTION BOX - BLUE BOX", "nsi_id": "unitedstatespostalservice-a77078", "operator": "United States Postal Service", "operator:short": "USPS", "operator:type": "public", "operator:wikidata": "Q668687", "ref": "1820100116"}, "type": "Feature"}
{"dataset_attributes": {"@spider": "usps_collection_boxes", "spider:collection_time": "2023-09-07T08:24:46.282741"}, "geometry": {"coordinates": [-75.9855727, 40.957048], "type": "Point"}, "id": "RvTK3BiibjT-if1Pv_04ZJOC0DU=", "properties": {"@spider": "usps_collection_boxes", "addr:city": "WEST HAZLETON", "addr:country": "US", "addr:full": "545 W BROAD ST", "addr:postcode": "18201", "addr:state": "PA", "amenity": "post_box", "brand": "United States Postal Service", "brand:wikidata": "Q668687", "collection_times": "Mo-Sa 09:00", "name": "USPS COLLECTION BOX - BLUE BOX", "nsi_id": "unitedstatespostalservice-a77078", "operator": "United States Postal Service", "operator:short": "USPS", "operator:type": "public", "operator:wikidata": "Q668687", "ref": "1820100119"}, "type": "Feature"}
{"dataset_attributes": {"@spider": "usps_collection_boxes", "spider:collection_time": "2023-09-07T08:24:46.282741"}, "geometry": {"coordinates": [-75.971174336, 40.959620217], "type": "Point"}, "id": "yMS80aKteVuSmRVdjqkxMGuyhWU=", "properties": {"@spider": "usps_collection_boxes", "addr:city": "WEST HAZLETON", "addr:country": "US", "addr:full": "231 N WYOMING ST", "addr:postcode": "18201", "addr:state": "PA", "amenity": "post_box", "brand": "United States Postal Service", "brand:wikidata": "Q668687", "collection_times": "Mo-Fr 17:30; Sa 12:45", "name": "USPS COLLECTION BOX - PO LOBBY", "note": "ON 12/24 AND 12/31, THIS BOX MAY BE COLLECTED AS EARLY AS 12 NOON.", "nsi_id": "unitedstatespostalservice-a77078", "operator": "United States Postal Service", "operator:short": "USPS", "operator:type": "public", "operator:wikidata": "Q668687", "ref": "1820100125"}, "type": "Feature"}
{"dataset_attributes": {"@spider": "usps_collection_boxes", "spider:collection_time": "2023-09-07T08:24:46.282741"}, "geometry": {"coordinates": [-76.0123618, 40.987267], "type": "Point"}, "id": "9Da0NC-TS9QBEtIcppP_wkNUkRg=", "properties": {"@spider": "usps_collection_boxes", "addr:city": "WEST HAZLETON", "addr:country": "US", "addr:full": "761 AIRPORT RD", "addr:postcode": "18202", "addr:state": "PA", "amenity": "post_box", "brand": "United States Postal Service", "brand:wikidata": "Q668687", "collection_times": "Mo-Sa 10:00", "name": "USPS COLLECTION BOX - BLUE BOX", "nsi_id": "unitedstatespostalservice-a77078", "operator": "United States Postal Service", "operator:short": "USPS", "operator:type": "public", "operator:wikidata": "Q668687", "ref": "1820200000"}, "type": "Feature"}
{"dataset_attributes": {"@spider": "usps_collection_boxes", "spider:collection_time": "2023-09-07T08:24:46.282741"}, "geometry": {"coordinates": [-75.9923376, 40.958263], "type": "Point"}, "id": "kU5SPPrJ4yQ4PpYnlwwblw-NhwE=", "properties": {"@spider": "usps_collection_boxes", "addr:city": "WEST HAZLETON", "addr:country": "US", "addr:full": "40 E BROAD ST", "addr:postcode": "18202", "addr:state": "PA", "amenity": "post_box", "brand": "United States Postal Service", "brand:wikidata": "Q668687", "collection_times": "Mo-Sa 15:00", "name": "USPS COLLECTION BOX - BLUE BOX", "note": "ON 12/24 AND 12/31, THIS BOX MAY BE COLLECTED AS EARLY AS 12 NOON.", "nsi_id": "unitedstatespostalservice-a77078", "operator": "United States Postal Service", "operator:short": "USPS", "operator:type": "public", "operator:wikidata": "Q668687", "ref": "1820200003"}, "type": "Feature"}
{"dataset_attributes": {"@spider": "usps_collection_boxes", "spider:collection_time": "2023-09-07T08:24:46.282741"}, "geometry": {"coordinates": [-75.9986614, 40.966899], "type": "Point"}, "id": "geEVWpRRK3JD5LSbv_YkydYnZuM=", "properties": {"@spider": "usps_collection_boxes", "addr:city": "WEST HAZLETON", "addr:country": "US", "addr:full": "601 N BROAD ST", "addr:postcode": "18202", "addr:state": "PA", "amenity": "post_box", "brand": "United States Postal Service", "brand:wikidata": "Q668687", "collection_times": "Mo-Sa 10:30", "name": "USPS COLLECTION BOX - BLUE BOX", "nsi_id": "unitedstatespostalservice-a77078", "operator": "United States Postal Service", "operator:short": "USPS", "operator:type": "public", "operator:wikidata": "Q668687", "ref": "1820200005"}, "type": "Feature"}
{"dataset_attributes": {"@spider": "usps_collection_boxes", "spider:collection_time": "2023-09-07T08:24:46.282741"}, "geometry": {"coordinates": [-75.9953413, 40.958929], "type": "Point"}, "id": "O6l1YVJ5CAEb7lXbPmYtsdpo1yo=", "properties": {"@spider": "usps_collection_boxes", "addr:city": "WEST HAZLETON", "addr:country": "US", "addr:full": "40 W BROAD ST", "addr:postcode": "18202", "addr:state": "PA", "amenity": "post_box", "brand": "United States Postal Service", "brand:wikidata": "Q668687", "collection_times": "Mo-Sa 15:30", "name": "USPS COLLECTION BOX - BLUE BOX", "note": "ON 12/24 AND 12/31, THIS BOX MAY BE COLLECTED AS EARLY AS 12 NOON.", "nsi_id": "unitedstatespostalservice-a77078", "operator": "United States Postal Service", "operator:short": "USPS", "operator:type": "public", "operator:wikidata": "Q668687", "ref": "1820200006"}, "type": "Feature"}
{"dataset_attributes": {"@spider": "usps_collection_boxes", "spider:collection_time": "2023-09-07T08:24:46.282741"}, "geometry": {"coordinates": [-75.9767806, 40.976537], "type": "Point"}, "id": "XFzQeTmZVjcimf4NZJrPuYxTlLo=", "properties": {"@spider": "usps_collection_boxes", "addr:city": "WEST HAZLETON", "addr:country": "US", "addr:full": "1099 N CHURCH ST", "addr:postcode": "18202", "addr:state": "PA", "amenity": "post_box", "brand": "United States Postal Service", "brand:wikidata": "Q668687", "collection_times": "Mo-Sa 15:15", "name": "USPS COLLECTION BOX - BLUE BOX", "note": "ON 12/24 AND 12/31, THIS BOX MAY BE COLLECTED AS EARLY AS 12 NOON.", "nsi_id": "unitedstatespostalservice-a77078", "operator": "United States Postal Service", "operator:short": "USPS", "operator:type": "public", "operator:wikidata": "Q668687", "ref": "1820200007"}, "type": "Feature"}
{"dataset_attributes": {"@spider": "usps_collection_boxes", "spider:collection_time": "2023-09-07T08:24:46.282741"}, "geometry": {"coordinates": [-75.9794029, 40.981239], "type": "Point"}, "id": "3d8qfDKyB7XxwmY80luL3cLwuIc=", "properties": {"@spider": "usps_collection_boxes", "addr:city": "WEST HAZLETON", "addr:country": "US", "addr:full": "1229 N CHURCH ST", "addr:postcode": "18202", "addr:state": "PA", "amenity": "post_box", "brand": "United States Postal Service", "brand:wikidata": "Q668687", "collection_times": "Mo-Sa 15:15", "name": "USPS COLLECTION BOX - BLUE BOX", "note": "ON 12/24 AND 12/31, THIS BOX MAY BE COLLECTED AS EARLY AS 12 NOON.", "nsi_id": "unitedstatespostalservice-a77078", "operator": "United States Postal Service", "operator:short": "USPS", "operator:type": "public", "operator:wikidata": "Q668687", "ref": "1820200008"}, "type": "Feature"}
{"dataset_attributes": {"@spider": "usps_collection_boxes", "spider:collection_time": "2023-09-07T08:24:46.282741"}, "geometry": {"coordinates": [-75.9918068, 40.959352], "type": "Point"}, "id": "9EZICnrFf7sfZLMehv9FgRMGpag=", "properties": {"@spider": "usps_collection_boxes", "addr:city": "WEST HAZLETON", "addr:country": "US", "addr:full": "100 E GREEN ST", "addr:postcode": "18202", "addr:state": "PA", "amenity": "post_box", "brand": "United States Postal Service", "brand:wikidata": "Q668687", "collection_times": "Mo-Sa 13:00", "name": "USPS COLLECTION BOX - BLUE BOX", "note": "ON 12/24 AND 12/31, THIS BOX MAY BE COLLECTED AS EARLY AS 12 NOON.", "nsi_id": "unitedstatespostalservice-a77078", "operator": "United States Postal Service", "operator:short": "USPS", "operator:type": "public", "operator:wikidata": "Q668687", "ref": "1820200009"}, "type": "Feature"}
{"dataset_attributes": {"@spider": "usps_collection_boxes", "spider:collection_time": "2023-09-07T08:24:46.282741"}, "geometry": {"coordinates": [-76.0008485, 40.959079], "type": "Point"}, "id": "P52xPN1cpH8MIKchn5UiPHlGm-I=", "properties": {"@spider": "usps_collection_boxes", "addr:city": "WEST HAZLETON", "addr:country": "US", "addr:full": "401 W GREEN ST", "addr:postcode": "18202", "addr:state": "PA", "amenity": "post_box", "brand": "United States Postal Service", "brand:wikidata": "Q668687", "collection_times": "Mo-Sa 14:15", "name": "USPS COLLECTION BOX - BLUE BOX", "note": "ON 12/24 AND 12/31, THIS BOX MAY BE COLLECTED AS EARLY AS 12 NOON.", "nsi_id": "unitedstatespostalservice-a77078", "operator": "United States Postal Service", "operator:short": "USPS", "operator:type": "public", "operator:wikidata": "Q668687", "ref": "1820200010"}, "type": "Feature"}
{"dataset_attributes": {"@spider": "usps_collection_boxes", "spider:collection_time": "2023-09-07T08:24:46.282741"}, "geometry": {"coordinates": [-76.0226699, 40.976939], "type": "Point"}, "id": "rK4oTYkDqWvyXpDqUGZ4mG3BE2Y=", "properties": {"@spider": "usps_collection_boxes", "addr:city": "WEST HAZLETON", "addr:country": "US", "addr:full": "25 JAYCEE DR", "addr:postcode": "18202", "addr:state": "PA", "amenity": "post_box", "brand": "United States Postal Service", "brand:wikidata": "Q668687", "collection_times": "Mo-Sa 09:00", "name": "USPS COLLECTION BOX - BLUE BOX", "nsi_id": "unitedstatespostalservice-a77078", "operator": "United States Postal Service", "operator:short": "USPS", "operator:type": "public", "operator:wikidata": "Q668687", "ref": "1820200011"}, "type": "Feature"}
{"dataset_attributes": {"@spider": "usps_collection_boxes", "spider:collection_time": "2023-09-07T08:24:46.282741"}, "geometry": {"coordinates": [-76.0180555, 40.983843], "type": "Point"}, "id": "zw8uUNF3hyve4RfX_8IghuA2K4c=", "properties": {"@spider": "usps_collection_boxes", "addr:city": "WEST HAZLETON", "addr:country": "US", "addr:full": "10 LAUREL MALL", "addr:postcode": "18202", "addr:state": "PA", "amenity": "post_box", "brand": "United States Postal Service", "brand:wikidata": "Q668687", "collection_times": "Mo-Sa 12:00", "name": "USPS COLLECTION BOX - BLUE BOX", "nsi_id": "unitedstatespostalservice-a77078", "operator": "United States Postal Service", "operator:short": "USPS", "operator:type": "public", "operator:wikidata": "Q668687", "ref": "1820200012"}, "type": "Feature"}
{"dataset_attributes": {"@spider": "usps_collection_boxes", "spider:collection_time": "2023-09-07T08:24:46.282741"}, "geometry": {"coordinates": [-76.0173057, 40.985047], "type": "Point"}, "id": "Gl-emSPaf1OnooI98dtrKCXRcQg=", "properties": {"@spider": "usps_collection_boxes", "addr:city": "WEST HAZLETON", "addr:country": "US", "addr:full": "10 LAUREL MALL", "addr:postcode": "18202", "addr:state": "PA", "amenity": "post_box", "brand": "United States Postal Service", "brand:wikidata": "Q668687", "collection_times": "Mo-Sa 12:00", "name": "USPS COLLECTION BOX - BLUE BOX", "nsi_id": "unitedstatespostalservice-a77078", "operator": "United States Postal Service", "operator:short": "USPS", "operator:type": "public", "operator:wikidata": "Q668687", "ref": "1820200013"}, "type": "Feature"}
{"dataset_attributes": {"@spider": "usps_collection_boxes", "spider:collection_time": "2023-09-07T08:24:46.282741"}, "geometry": {"coordinates": [-76.0294579, 40.982708], "type": "Point"}, "id": "FNQtI83ixshQJQe26OPgggxB3hY=", "properties": {"@spider": "usps_collection_boxes", "addr:city": "WEST HAZLETON", "addr:country": "US", "addr:full": "17 UNIVERSITY DR", "addr:postcode": "18202", "addr:state": "PA", "amenity": "post_box", "brand": "United States Postal Service", "brand:wikidata": "Q668687", "collection_times": "Mo-Sa 10:00", "name": "USPS COLLECTION BOX - BLUE BOX", "nsi_id": "unitedstatespostalservice-a77078", "operator": "United States Postal Service", "operator:short": "USPS", "operator:type": "public", "operator:wikidata": "Q668687", "ref": "1820200015"}, "type": "Feature"}
{"dataset_attributes": {"@spider": "usps_collection_boxes", "spider:collection_time": "2023-09-07T08:24:46.282741"}, "geometry": {"coordinates": [-76.007298993, 40.9673180017], "type": "Point"}, "id": "2STiIoqKsAcbOrPndmrQKagNCTI=", "properties": {"@spider": "usps_collection_boxes", "addr:city": "WEST HAZLETON", "addr:country": "US", "addr:full": "100 WEIS LN", "addr:postcode": "18202", "addr:state": "PA", "amenity": "post_box", "brand": "United States Postal Service", "brand:wikidata": "Q668687", "collection_times": "Mo-Sa 11:00", "name": "USPS COLLECTION BOX - BLUE BOX", "nsi_id": "unitedstatespostalservice-a77078", "operator": "United States Postal Service", "operator:short": "USPS", "operator:type": "public", "operator:wikidata": "Q668687", "ref": "1820200017"}, "type": "Feature"}
{"dataset_attributes": {"@spider": "usps_collection_boxes", "spider:collection_time": "2023-09-07T08:24:46.282741"}, "geometry": {"coordinates": [-75.5874566, 41.020194], "type": "Point"}, "id": "0zPFS0pCdOC5W5W5P75vQQrz4Fg=", "properties": {"@spider": "usps_collection_boxes", "addr:city": "ALBRIGHTSVILLE", "addr:country": "US", "addr:full": "5 PINE POINT PLZ", "addr:postcode": "18210", "addr:state": "PA", "amenity": "post_box", "brand": "United States Postal Service", "brand:wikidata": "Q668687", "collection_times": "Mo-Fr 16:30; Sa 14:00", "name": "USPS COLLECTION BOX - BLUE BOX", "note": "ON 12/24 AND 12/31, THIS BOX MAY BE COLLECTED AS EARLY AS 12 NOON.", "nsi_id": "unitedstatespostalservice-a77078", "operator": "United States Postal Service", "operator:short": "USPS", "operator:type": "public", "operator:wikidata": "Q668687", "ref": "1821000001"}, "type": "Feature"}
{"dataset_attributes": {"@spider": "usps_collection_boxes", "spider:collection_time": "2023-09-07T08:24:46.282741"}, "geometry": {"coordinates": [-75.4943605, 41.003363], "type": "Point"}, "id": "Cw76zWQj6CmqN5CJdgT2SxSMzfE=", "properties": {"@spider": "usps_collection_boxes", "addr:city": "ALBRIGHTSVILLE", "addr:country": "US", "addr:full": "5 PINE POINT PLZ", "addr:postcode": "18210", "addr:state": "PA", "amenity": "post_box", "brand": "United States Postal Service", "brand:wikidata": "Q668687", "collection_times": "Mo-Sa 10:00", "name": "USPS COLLECTION BOX - BLUE BOX", "nsi_id": "unitedstatespostalservice-a77078", "operator": "United States Postal Service", "operator:short": "USPS", "operator:type": "public", "operator:wikidata": "Q668687", "ref": "1821000002"}, "type": "Feature"}
{"dataset_attributes": {"@spider": "usps_collection_boxes", "spider:collection_time": "2023-09-07T08:24:46.282741"}, "geometry": {"coordinates": [-75.5373274, 40.994521], "type": "Point"}, "id": "9TTUE9vkhSitLvzyTur9c_gindY=", "properties": {"@spider": "usps_collection_boxes", "addr:city": "ALBRIGHTSVILLE", "addr:country": "US", "addr:full": "5 PINE POINT PLZ", "addr:postcode": "18210", "addr:state": "PA", "amenity": "post_box", "brand": "United States Postal Service", "brand:wikidata": "Q668687", "collection_times": "Mo-Sa 10:00", "name": "USPS COLLECTION BOX - BLUE BOX", "nsi_id": "unitedstatespostalservice-a77078", "operator": "United States Postal Service", "operator:short": "USPS", "operator:type": "public", "operator:wikidata": "Q668687", "ref": "1821000003"}, "type": "Feature"}
{"dataset_attributes": {"@spider": "usps_collection_boxes", "spider:collection_time": "2023-09-07T08:24:46.282741"}, "geometry": {"coordinates": [-75.5873347, 41.020243], "type": "Point"}, "id": "TefQxX4u8wRKMidMFjDeEMlpN98=", "properties": {"@spider": "usps_collection_boxes", "addr:city": "ALBRIGHTSVILLE", "addr:country": "US", "addr:full": "5 PINE POINT PLZ", "addr:postcode": "18210", "addr:state": "PA", "amenity": "post_box", "brand": "United States Postal Service", "brand:wikidata": "Q668687", "collection_times": "Mo-Fr 16:30; Sa 14:00", "name": "USPS COLLECTION BOX - PO LOBBY", "note": "ON 12/24 AND 12/31, THIS BOX MAY BE COLLECTED AS EARLY AS 12 NOON.", "nsi_id": "unitedstatespostalservice-a77078", "operator": "United States Postal Service", "operator:short": "USPS", "operator:type": "public", "operator:wikidata": "Q668687", "ref": "1821000004"}, "type": "Feature"}
{"dataset_attributes": {"@spider": "usps_collection_boxes", "spider:collection_time": "2023-09-07T08:24:46.282741"}, "geometry": {"coordinates": [-75.587924073, 41.019773377], "type": "Point"}, "id": "9ygWl1HVqYzohjgSVD8-IYjZ3PU=", "properties": {"@spider": "usps_collection_boxes", "addr:city": "ALBRIGHTSVILLE", "addr:country": "US", "addr:full": "7 PINE POINT DR STE 4", "addr:postcode": "18210", "addr:state": "PA", "amenity": "post_box", "brand": "United States Postal Service", "brand:wikidata": "Q668687", "collection_times": "Mo-Fr 16:20; Sa 14:00", "name": "USPS COLLECTION BOX - PO LOBBY", "note": "ON 12/24 AND 12/31, THIS BOX MAY BE COLLECTED AS EARLY AS 12 NOON.", "nsi_id": "unitedstatespostalservice-a77078", "operator": "United States Postal Service", "operator:short": "USPS", "operator:type": "public", "operator:wikidata": "Q668687", "ref": "1821000006"}, "type": "Feature"}
{"dataset_attributes": {"@spider": "usps_collection_boxes", "spider:collection_time": "2023-09-07T08:24:46.282741"}, "geometry": {"coordinates": [-75.792156, 40.751846], "type": "Point"}, "id": "5WiFV40WZa8xyjmdjEPL7vzmFqk=", "properties": {"@spider": "usps_collection_boxes", "addr:city": "ANDREAS", "addr:country": "US", "addr:full": "820 LIZARD CREEK RD", "addr:postcode": "18211", "addr:state": "PA", "amenity": "post_box", "brand": "United States Postal Service", "brand:wikidata": "Q668687", "collection_times": "Mo-Fr 16:00; Sa 11:00", "name": "USPS COLLECTION BOX - BLUE BOX", "note": "ON 12/24 AND 12/31, THIS BOX MAY BE COLLECTED AS EARLY AS 12 NOON.", "nsi_id": "unitedstatespostalservice-a77078", "operator": "United States Postal Service", "operator:short": "USPS", "operator:type": "public", "operator:wikidata": "Q668687", "ref": "1821100001"}, "type": "Feature"}
{"dataset_attributes": {"@spider": "usps_collection_boxes", "spider:collection_time": "2023-09-07T08:24:46.282741"}, "geometry": {"coordinates": [-75.8590265, 40.721125], "type": "Point"}, "id": "MyNi4cgyzeV-foLi3pcI0DkiRcY=", "properties": {"@spider": "usps_collection_boxes", "addr:city": "ANDREAS", "addr:country": "US", "addr:full": "2083 W PENN PIKE", "addr:postcode": "18211", "addr:state": "PA", "amenity": "post_box", "brand": "United States Postal Service", "brand:wikidata": "Q668687", "collection_times": "Mo-Sa 10:45", "name": "USPS COLLECTION BOX - BLUE BOX", "nsi_id": "unitedstatespostalservice-a77078", "operator": "United States Postal Service", "operator:short": "USPS", "operator:type": "public", "operator:wikidata": "Q668687", "ref": "1821100002"}, "type": "Feature"}
{"dataset_attributes": {"@spider": "usps_collection_boxes", "spider:collection_time": "2023-09-07T08:24:46.282741"}, "geometry": {"coordinates": [-75.792278, 40.751831], "type": "Point"}, "id": "C8KV76b2trI77SsJfei5X-cHD68=", "properties": {"@spider": "usps_collection_boxes", "addr:city": "ANDREAS", "addr:country": "US", "addr:full": "820 LIZARD CREEK RD", "addr:postcode": "18211", "addr:state": "PA", "amenity": "post_box", "brand": "United States Postal Service", "brand:wikidata": "Q668687", "collection_times": "Mo-Fr 16:15; Sa 11:00", "name": "USPS COLLECTION BOX - PO LOBBY", "note": "ON 12/24 AND 12/31, THIS BOX MAY BE COLLECTED AS EARLY AS 12 NOON.", "nsi_id": "unitedstatespostalservice-a77078", "operator": "United States Postal Service", "operator:short": "USPS", "operator:type": "public", "operator:wikidata": "Q668687", "ref": "1821100004"}, "type": "Feature"}
{"dataset_attributes": {"@spider": "usps_collection_boxes", "spider:collection_time": "2023-09-07T08:24:46.282741"}, "geometry": {"coordinates": [-75.792187709, 40.751785608], "type": "Point"}, "id": "SvG8C10wulnI1OYotf3x2xBnSMw=", "properties": {"@spider": "usps_collection_boxes", "addr:city": "ANDREAS", "addr:country": "US", "addr:full": "820 LIZARD CREEK RD", "addr:postcode": "18211", "addr:state": "PA", "amenity": "post_box", "brand": "United States Postal Service", "brand:wikidata": "Q668687", "collection_times": "Mo-Fr 16:15; Sa 11:00", "name": "USPS COLLECTION BOX - PO LOBBY", "note": "ON 12/24 AND 12/31, THIS BOX MAY BE COLLECTED AS EARLY AS 12 NOON.", "nsi_id": "unitedstatespostalservice-a77078", "operator": "United States Postal Service", "operator:short": "USPS", "operator:type": "public", "operator:wikidata": "Q668687", "ref": "1821100006"}, "type": "Feature"}
{"dataset_attributes": {"@spider": "usps_collection_boxes", "spider:collection_time": "2023-09-07T08:24:46.282741"}, "geometry": {"coordinates": [-75.7091983039, 40.8346647874], "type": "Point"}, "id": "QAOy7jKU6tAn9PuCqeGX5PBXhfM=", "properties": {"@spider": "usps_collection_boxes", "addr:city": "ASHFIELD", "addr:country": "US", "addr:full": "403 BLUE MOUNTAIN RD", "addr:postcode": "18212", "addr:state": "PA", "amenity": "post_box", "brand": "United States Postal Service", "brand:wikidata": "Q668687", "collection_times": "Mo-Fr 16:00; Sa 11:00", "name": "USPS COLLECTION BOX - BLUE BOX", "note": "ON 12/24 AND 12/31, THIS BOX MAY BE COLLECTED AS EARLY AS 12 NOON.", "nsi_id": "unitedstatespostalservice-a77078", "operator": "United States Postal Service", "operator:short": "USPS", "operator:type": "public", "operator:wikidata": "Q668687", "ref": "1821200001"}, "type": "Feature"}
{"dataset_attributes": {"@spider": "usps_collection_boxes", "spider:collection_time": "2023-09-07T08:24:46.282741"}, "geometry": {"coordinates": [-75.7091983039, 40.8346647874], "type": "Point"}, "id": "7yb1PyVeWShGHo4NiL6-eZI-Ay4=", "properties": {"@spider": "usps_collection_boxes", "addr:city": "ASHFIELD", "addr:country": "US", "addr:full": "403 BLUE MOUNTAIN RD", "addr:postcode": "18212", "addr:state": "PA", "amenity": "post_box", "brand": "United States Postal Service", "brand:wikidata": "Q668687", "collection_times": "Mo-Fr 16:15; Sa 11:00", "name": "USPS COLLECTION BOX - PO LOBBY", "note": "ON 12/24 AND 12/31, THIS BOX MAY BE COLLECTED AS EARLY AS 12 NOON.", "nsi_id": "unitedstatespostalservice-a77078", "operator": "United States Postal Service", "operator:short": "USPS", "operator:type": "public", "operator:wikidata": "Q668687", "ref": "1821200002"}, "type": "Feature"}
{"dataset_attributes": {"@spider": "usps_collection_boxes", "spider:collection_time": "2023-09-07T08:24:46.282741"}, "geometry": {"coordinates": [-75.711107456, 40.779467685], "type": "Point"}, "id": "TWfdEr7V_quKhtR645mWVwx0PZE=", "properties": {"@spider": "usps_collection_boxes", "addr:city": "ASHFIELD", "addr:country": "US", "addr:full": "403 BLUE MOUNTAIN RD", "addr:postcode": "18212", "addr:state": "PA", "amenity": "post_box", "brand": "United States Postal Service", "brand:wikidata": "Q668687", "collection_times": "Mo-Fr 16:15; Sa 11:00", "name": "USPS COLLECTION BOX - PO LOBBY", "note": "ON 12/24 AND 12/31, THIS BOX MAY BE COLLECTED AS EARLY AS 12 NOON.", "nsi_id": "unitedstatespostalservice-a77078", "operator": "United States Postal Service", "operator:short": "USPS", "operator:type": "public", "operator:wikidata": "Q668687", "ref": "1821200004"}, "type": "Feature"}
{"dataset_attributes": {"@spider": "usps_collection_boxes", "spider:collection_time": "2023-09-07T08:24:46.282741"}, "geometry": {"coordinates": [-76.0472685033, 40.8171410081], "type": "Point"}, "id": "Bo09PlapmQPwd0u05ADfW_Xwosk=", "properties": {"@spider": "usps_collection_boxes", "addr:city": "BARNESVILLE", "addr:country": "US", "addr:full": "2 GRIER AVE", "addr:postcode": "18214", "addr:state": "PA", "amenity": "post_box", "brand": "United States Postal Service", "brand:wikidata": "Q668687", "collection_times": "Mo-Fr 16:30; Sa 10:30", "name": "USPS COLLECTION BOX - BLUE BOX", "note": "ON 12/24 AND 12/31, THIS BOX MAY BE COLLECTED AS EARLY AS 12 NOON.", "nsi_id": "unitedstatespostalservice-a77078", "operator": "United States Postal Service", "operator:short": "USPS", "operator:type": "public", "operator:wikidata": "Q668687", "ref": "1821400001"}, "type": "Feature"}
{"dataset_attributes": {"@spider": "usps_collection_boxes", "spider:collection_time": "2023-09-07T08:24:46.282741"}, "geometry": {"coordinates": [-76.0472685033, 40.8171410081], "type": "Point"}, "id": "T988rNX-FSO65eMvc--cXJNArhc=", "properties": {"@spider": "usps_collection_boxes", "addr:city": "BARNESVILLE", "addr:country": "US", "addr:full": "2 GRIER AVE", "addr:postcode": "18214", "addr:state": "PA", "amenity": "post_box", "brand": "United States Postal Service", "brand:wikidata": "Q668687", "collection_times": "Mo-Fr 16:30; Sa 10:30", "name": "USPS COLLECTION BOX - PO LOBBY", "note": "ON 12/24 AND 12/31, THIS BOX MAY BE COLLECTED AS EARLY AS 12 NOON.", "nsi_id": "unitedstatespostalservice-a77078", "operator": "United States Postal Service", "operator:short": "USPS", "operator:type": "public", "operator:wikidata": "Q668687", "ref": "1821400003"}, "type": "Feature"}
{"dataset_attributes": {"@spider": "usps_collection_boxes", "spider:collection_time": "2023-09-07T08:24:46.282741"}, "geometry": {"coordinates": [-76.0472685033, 40.8171410081], "type": "Point"}, "id": "uVv74Bv6TNjcB0rxwyZKoZXZ8fk=", "properties": {"@spider": "usps_collection_boxes", "addr:city": "BARNESVILLE", "addr:country": "US", "addr:full": "2 GRIER AVE OFC", "addr:postcode": "18214", "addr:state": "PA", "amenity": "post_box", "brand": "United States Postal Service", "brand:wikidata": "Q668687", "collection_times": "Mo-Fr 16:30; Sa 10:30", "name": "USPS COLLECTION BOX - PO LOBBY", "note": "ON 12/24 AND 12/31, THIS BOX MAY BE COLLECTED AS EARLY AS 12 NOON.", "nsi_id": "unitedstatespostalservice-a77078", "operator": "United States Postal Service", "operator:short": "USPS", "operator:type": "public", "operator:wikidata": "Q668687", "ref": "1821400005"}, "type": "Feature"}
{"dataset_attributes": {"@spider": "usps_collection_boxes", "spider:collection_time": "2023-09-07T08:24:46.282741"}, "geometry": {"coordinates": [-75.9151, 40.92837], "type": "Point"}, "id": "gaR3ETKw03kZnLmV8Gjltb9HoTA=", "properties": {"@spider": "usps_collection_boxes", "addr:city": "BEAVER MEADOWS", "addr:country": "US", "addr:full": "2 BROAD ST", "addr:postcode": "18216", "addr:state": "PA", "amenity": "post_box", "brand": "United States Postal Service", "brand:wikidata": "Q668687", "collection_times": "Mo-Fr 16:45; Sa 10:30", "name": "USPS COLLECTION BOX - PO LOBBY", "note": "ON 12/24 AND 12/31, THIS BOX MAY BE COLLECTED AS EARLY AS 12 NOON.", "nsi_id": "unitedstatespostalservice-a77078", "operator": "United States Postal Service", "operator:short": "USPS", "operator:type": "public", "operator:wikidata": "Q668687", "ref": "1821600003"}, "type": "Feature"}
{"dataset_attributes": {"@spider": "usps_collection_boxes", "spider:collection_time": "2023-09-07T08:24:46.282741"}, "geometry": {"coordinates": [-75.915027882, 40.928284262], "type": "Point"}, "id": "jihNm1Cf3vx_gPp8L_EQe9KcaRI=", "properties": {"@spider": "usps_collection_boxes", "addr:city": "BEAVER MEADOWS", "addr:country": "US", "addr:full": "2 BROAD ST", "addr:postcode": "18216", "addr:state": "PA", "amenity": "post_box", "brand": "United States Postal Service", "brand:wikidata": "Q668687", "collection_times": "Mo-Fr 16:45; Sa 11:00", "name": "USPS COLLECTION BOX - PO LOBBY", "note": "ON 12/24 AND 12/31, THIS BOX MAY BE COLLECTED AS EARLY AS 12 NOON.", "nsi_id": "unitedstatespostalservice-a77078", "operator": "United States Postal Service", "operator:short": "USPS", "operator:type": "public", "operator:wikidata": "Q668687", "ref": "1821600005"}, "type": "Feature"}
{"dataset_attributes": {"@spider": "usps_collection_boxes", "spider:collection_time": "2023-09-07T08:24:46.282741"}, "geometry": {"coordinates": [-75.9051333, 40.82347], "type": "Point"}, "id": "NdTK-Qoq9MZ0rBPM7ppphh_MWPo=", "properties": {"@spider": "usps_collection_boxes", "addr:city": "COALDALE", "addr:country": "US", "addr:full": "100 E PHILLIPS ST", "addr:postcode": "18218", "addr:state": "PA", "amenity": "post_box", "brand": "United States Postal Service", "brand:wikidata": "Q668687", "collection_times": "Mo-Fr 14:30; Sa 14:00", "name": "USPS COLLECTION BOX - BLUE BOX", "note": "ON 12/24 AND 12/31, THIS BOX MAY BE COLLECTED AS EARLY AS 12 NOON.", "nsi_id": "unitedstatespostalservice-a77078", "operator": "United States Postal Service", "operator:short": "USPS", "operator:type": "public", "operator:wikidata": "Q668687", "ref": "1821800006"}, "type": "Feature"}
{"dataset_attributes": {"@spider": "usps_collection_boxes", "spider:collection_time": "2023-09-07T08:24:46.282741"}, "geometry": {"coordinates": [-75.9097053, 40.823501], "type": "Point"}, "id": "i2wOrqDWOdMgepojx0xpnZTW7m4=", "properties": {"@spider": "usps_collection_boxes", "addr:city": "COALDALE", "addr:country": "US", "addr:full": "45 W RUDDLE ST", "addr:postcode": "18218", "addr:state": "PA", "amenity": "post_box", "brand": "United States Postal Service", "brand:wikidata": "Q668687", "collection_times": "Mo-Sa 09:30", "name": "USPS COLLECTION BOX - BLUE BOX", "nsi_id": "unitedstatespostalservice-a77078", "operator": "United States Postal Service", "operator:short": "USPS", "operator:type": "public", "operator:wikidata": "Q668687", "ref": "1821800007"}, "type": "Feature"}
{"dataset_attributes": {"@spider": "usps_collection_boxes", "spider:collection_time": "2023-09-07T08:24:46.282741"}, "geometry": {"coordinates": [-75.9056536, 40.824132], "type": "Point"}, "id": "NtOkFbXcdDnLkIqEH106wXc9S4c=", "properties": {"@spider": "usps_collection_boxes", "addr:city": "COALDALE", "addr:country": "US", "addr:full": "145 3RD ST", "addr:postcode": "18218", "addr:state": "PA", "amenity": "post_box", "brand": "United States Postal Service", "brand:wikidata": "Q668687", "collection_times": "Mo-Fr 14:00; Sa 12:00", "name": "USPS COLLECTION BOX - BLUE BOX", "note": "ON 12/24 AND 12/31, THIS BOX MAY BE COLLECTED AS EARLY AS 12 NOON.", "nsi_id": "unitedstatespostalservice-a77078", "operator": "United States Postal Service", "operator:short": "USPS", "operator:type": "public", "operator:wikidata": "Q668687", "ref": "1821800014"}, "type": "Feature"}
{"dataset_attributes": {"@spider": "usps_collection_boxes", "spider:collection_time": "2023-09-07T08:24:46.282741"}, "geometry": {"coordinates": [-75.9055806, 40.824171], "type": "Point"}, "id": "1luo1WVQVVg9LN96YPRjYvRpb0w=", "properties": {"@spider": "usps_collection_boxes", "addr:city": "COALDALE", "addr:country": "US", "addr:full": "145 3RD ST", "addr:postcode": "18218", "addr:state": "PA", "amenity": "post_box", "brand": "United States Postal Service", "brand:wikidata": "Q668687", "collection_times": "Mo-Fr 14:00; Sa 12:00", "name": "USPS COLLECTION BOX - PO LOBBY", "note": "ON 12/24 AND 12/31, THIS BOX MAY BE COLLECTED AS EARLY AS 12 NOON.", "nsi_id": "unitedstatespostalservice-a77078", "operator": "United States Postal Service", "operator:short": "USPS", "operator:type": "public", "operator:wikidata": "Q668687", "ref": "1821800019"}, "type": "Feature"}
{"dataset_attributes": {"@spider": "usps_collection_boxes", "spider:collection_time": "2023-09-07T08:24:46.282741"}, "geometry": {"coordinates": [-75.905674347, 40.824174114], "type": "Point"}, "id": "gF5Zud2opYeXQSC-MvYyOdc8i8k=", "properties": {"@spider": "usps_collection_boxes", "addr:city": "COALDALE", "addr:country": "US", "addr:full": "145 3RD ST", "addr:postcode": "18218", "addr:state": "PA", "amenity": "post_box", "brand": "United States Postal Service", "brand:wikidata": "Q668687", "collection_times": "Mo-Fr 14:00; Sa 12:00", "name": "USPS COLLECTION BOX - PO LOBBY", "note": "ON 12/24 AND 12/31, THIS BOX MAY BE COLLECTED AS EARLY AS 12 NOON.", "nsi_id": "unitedstatespostalservice-a77078", "operator": "United States Postal Service", "operator:short": "USPS", "operator:type": "public", "operator:wikidata": "Q668687", "ref": "1821800023"}, "type": "Feature"}
{"dataset_attributes": {"@spider": "usps_collection_boxes", "spider:collection_time": "2023-09-07T08:24:46.282741"}, "geometry": {"coordinates": [-76.060599, 40.993778], "type": "Point"}, "id": "CSyg5JFsdu3OrP9-CVRxOcfGgT4=", "properties": {"@spider": "usps_collection_boxes", "addr:city": "CONYNGHAM", "addr:country": "US", "addr:full": "366 MAIN ST", "addr:postcode": "18219", "addr:state": "PA", "amenity": "post_box", "brand": "United States Postal Service", "brand:wikidata": "Q668687", "collection_times": "Mo-Fr 16:15; Sa 12:30", "name": "USPS COLLECTION BOX - BLUE BOX", "note": "ON 12/24 AND 12/31, THIS BOX MAY BE COLLECTED AS EARLY AS 12 NOON.", "nsi_id": "unitedstatespostalservice-a77078", "operator": "United States Postal Service", "operator:short": "USPS", "operator:type": "public", "operator:wikidata": "Q668687", "ref": "1821900002"}, "type": "Feature"}
{"dataset_attributes": {"@spider": "usps_collection_boxes", "spider:collection_time": "2023-09-07T08:24:46.282741"}, "geometry": {"coordinates": [-76.060599, 40.993778], "type": "Point"}, "id": "rI7YmhW3pbfAllgEp5bRZhrElGE=", "properties": {"@spider": "usps_collection_boxes", "addr:city": "CONYNGHAM", "addr:country": "US", "addr:full": "366 MAIN ST", "addr:postcode": "18219", "addr:state": "PA", "amenity": "post_box", "brand": "United States Postal Service", "brand:wikidata": "Q668687", "collection_times": "Mo-Fr 16:15; Sa 12:30", "name": "USPS COLLECTION BOX - PO LOBBY", "note": "ON 12/24 AND 12/31, THIS BOX MAY BE COLLECTED AS EARLY AS 12 NOON.", "nsi_id": "unitedstatespostalservice-a77078", "operator": "United States Postal Service", "operator:short": "USPS", "operator:type": "public", "operator:wikidata": "Q668687", "ref": "1821900003"}, "type": "Feature"}
{"dataset_attributes": {"@spider": "usps_collection_boxes", "spider:collection_time": "2023-09-07T08:24:46.282741"}, "geometry": {"coordinates": [-76.06052873, 40.993683969], "type": "Point"}, "id": "U-O5dY-1dUOGydBYqnfqcig7Ahg=", "properties": {"@spider": "usps_collection_boxes", "addr:city": "CONYNGHAM", "addr:country": "US", "addr:full": "366 MAIN ST", "addr:postcode": "18219", "addr:state": "PA", "amenity": "post_box", "brand": "United States Postal Service", "brand:wikidata": "Q668687", "collection_times": "Mo-Fr 16:30; Sa 12:00", "name": "USPS COLLECTION BOX - PO LOBBY", "note": "ON 12/24 AND 12/31, THIS BOX MAY BE COLLECTED AS EARLY AS 12 NOON.", "nsi_id": "unitedstatespostalservice-a77078", "operator": "United States Postal Service", "operator:short": "USPS", "operator:type": "public", "operator:wikidata": "Q668687", "ref": "1821900005"}, "type": "Feature"}
{"dataset_attributes": {"@spider": "usps_collection_boxes", "spider:collection_time": "2023-09-07T08:24:46.282741"}, "geometry": {"coordinates": [-76.068079, 40.840925], "type": "Point"}, "id": "Db4uxS9Xk0C78IbUFV0fpjyrzXY=", "properties": {"@spider": "usps_collection_boxes", "addr:city": "DELANO", "addr:country": "US", "addr:full": "150 HAZLE ST", "addr:postcode": "18220", "addr:state": "PA", "amenity": "post_box", "brand": "United States Postal Service", "brand:wikidata": "Q668687", "collection_times": "Mo-Fr 16:15; Sa 10:15", "name": "USPS COLLECTION BOX - BLUE BOX", "note": "ON 12/24 AND 12/31, THIS BOX MAY BE COLLECTED AS EARLY AS 12 NOON.", "nsi_id": "unitedstatespostalservice-a77078", "operator": "United States Postal Service", "operator:short": "USPS", "operator:type": "public", "operator:wikidata": "Q668687", "ref": "1822000001"}, "type": "Feature"}
{"dataset_attributes": {"@spider": "usps_collection_boxes", "spider:collection_time": "2023-09-07T08:24:46.282741"}, "geometry": {"coordinates": [-76.068143, 40.84086], "type": "Point"}, "id": "pEp_DuYr72zT92Bj-7mNmIzbHgw=", "properties": {"@spider": "usps_collection_boxes", "addr:city": "DELANO", "addr:country": "US", "addr:full": "150 HAZLE ST", "addr:postcode": "18220", "addr:state": "PA", "amenity": "post_box", "brand": "United States Postal Service", "brand:wikidata": "Q668687", "collection_times": "Mo-Fr 16:15; Sa 10:15", "name": "USPS COLLECTION BOX - PO LOBBY", "note": "ON 12/24 AND 12/31, THIS BOX MAY BE COLLECTED AS EARLY AS 12 NOON.", "nsi_id": "unitedstatespostalservice-a77078", "operator": "United States Postal Service", "operator:short": "USPS", "operator:type": "public", "operator:wikidata": "Q668687", "ref": "1822000002"}, "type": "Feature"}
{"dataset_attributes": {"@spider": "usps_collection_boxes", "spider:collection_time": "2023-09-07T08:24:46.282741"}, "geometry": {"coordinates": [-76.068127619, 40.840943071], "type": "Point"}, "id": "Ve_2pEkJM0IEOtxLQ8g_2-vzqB4=", "properties": {"@spider": "usps_collection_boxes", "addr:city": "DELANO", "addr:country": "US", "addr:full": "150 HAZLE ST", "addr:postcode": "18220", "addr:state": "PA", "amenity": "post_box", "brand": "United States Postal Service", "brand:wikidata": "Q668687", "collection_times": "Mo-Fr 16:15; Sa 10:15", "name": "USPS COLLECTION BOX - PO LOBBY", "note": "ON 12/24 AND 12/31, THIS BOX MAY BE COLLECTED AS EARLY AS 12 NOON.", "nsi_id": "unitedstatespostalservice-a77078", "operator": "United States Postal Service", "operator:short": "USPS", "operator:type": "public", "operator:wikidata": "Q668687", "ref": "1822000004"}, "type": "Feature"}
{"dataset_attributes": {"@spider": "usps_collection_boxes", "spider:collection_time": "2023-09-07T08:24:46.282741"}, "geometry": {"coordinates": [-75.907187, 41.00573], "type": "Point"}, "id": "5zCIZ4uDGaqyqKpbjQxFkQIYkBk=", "properties": {"@spider": "usps_collection_boxes", "addr:city": "DRIFTON", "addr:country": "US", "addr:full": "2304 STATE ROUTE 940", "addr:postcode": "18221", "addr:state": "PA", "amenity": "post_box", "brand": "United States Postal Service", "brand:wikidata": "Q668687", "collection_times": "Mo-Fr 16:15; Sa 10:45", "name": "USPS COLLECTION BOX - BLUE BOX", "note": "ON 12/24 AND 12/31, THIS BOX MAY BE COLLECTED AS EARLY AS 12 NOON.", "nsi_id": "unitedstatespostalservice-a77078", "operator": "United States Postal Service", "operator:short": "USPS", "operator:type": "public", "operator:wikidata": "Q668687", "ref": "1822100001"}, "type": "Feature"}
{"dataset_attributes": {"@spider": "usps_collection_boxes", "spider:collection_time": "2023-09-07T08:24:46.282741"}, "geometry": {"coordinates": [-75.907187, 41.00573], "type": "Point"}, "id": "6GB81HseG__0zoUnsMkCA7uMDyo=", "properties": {"@spider": "usps_collection_boxes", "addr:city": "DRIFTON", "addr:country": "US", "addr:full": "2304 STATE ROUTE 940", "addr:postcode": "18221", "addr:state": "PA", "amenity": "post_box", "brand": "United States Postal Service", "brand:wikidata": "Q668687", "collection_times": "Mo-Fr 16:15; Sa 10:45", "name": "USPS COLLECTION BOX - PO LOBBY", "note": "ON 12/24 AND 12/31, THIS BOX MAY BE COLLECTED AS EARLY AS 12 NOON.", "nsi_id": "unitedstatespostalservice-a77078", "operator": "United States Postal Service", "operator:short": "USPS", "operator:type": "public", "operator:wikidata": "Q668687", "ref": "1822100002"}, "type": "Feature"}
{"dataset_attributes": {"@spider": "usps_collection_boxes", "spider:collection_time": "2023-09-07T08:24:46.282741"}, "geometry": {"coordinates": [-75.906974722, 41.005772244], "type": "Point"}, "id": "oe7myw6BkWHveTYhMNMneK4d2l4=", "properties": {"@spider": "usps_collection_boxes", "addr:city": "DRIFTON", "addr:country": "US", "addr:full": "2304 STATE ROUTE 940", "addr:postcode": "18221", "addr:state": "PA", "amenity": "post_box", "brand": "United States Postal Service", "brand:wikidata": "Q668687", "collection_times": "Mo-Fr 16:45; Sa 10:45", "name": "USPS COLLECTION BOX - PO LOBBY", "note": "ON 12/24 AND 12/31, THIS BOX MAY BE COLLECTED AS EARLY AS 12 NOON.", "nsi_id": "unitedstatespostalservice-a77078", "operator": "United States Postal Service", "operator:short": "USPS", "operator:type": "public", "operator:wikidata": "Q668687", "ref": "1822100004"}, "type": "Feature"}
{"dataset_attributes": {"@spider": "usps_collection_boxes", "spider:collection_time": "2023-09-07T08:24:46.282741"}, "geometry": {"coordinates": [-75.952388, 41.032967], "type": "Point"}, "id": "8yCRcTkFVRK-e68OoZF_WWBHc60=", "properties": {"@spider": "usps_collection_boxes", "addr:city": "DRUMS", "addr:country": "US", "addr:full": "1 EDGE ROCK DR", "addr:postcode": "18222", "addr:state": "PA", "amenity": "post_box", "brand": "United States Postal Service", "brand:wikidata": "Q668687", "collection_times": "Mo-Sa 10:00", "name": "USPS COLLECTION BOX - BLUE BOX", "nsi_id": "unitedstatespostalservice-a77078", "operator": "United States Postal Service", "operator:short": "USPS", "operator:type": "public", "operator:wikidata": "Q668687", "ref": "1822200001"}, "type": "Feature"}
{"dataset_attributes": {"@spider": "usps_collection_boxes", "spider:collection_time": "2023-09-07T08:24:46.282741"}, "geometry": {"coordinates": [-75.964215, 41.011722], "type": "Point"}, "id": "HrBaKN7gFNGnZaL7qWvHMjM5kCo=", "properties": {"@spider": "usps_collection_boxes", "addr:city": "DRUMS", "addr:country": "US", "addr:full": "4 RITTENHOUSE PL", "addr:postcode": "18222", "addr:state": "PA", "amenity": "post_box", "brand": "United States Postal Service", "brand:wikidata": "Q668687", "collection_times": "Mo-Fr 17:00; Sa 12:30", "name": "USPS COLLECTION BOX - BLUE BOX", "note": "ON 12/24 AND 12/31, THIS BOX MAY BE COLLECTED AS EARLY AS 12 NOON.", "nsi_id": "unitedstatespostalservice-a77078", "operator": "United States Postal Service", "operator:short": "USPS", "operator:type": "public", "operator:wikidata": "Q668687", "ref": "1822200003"}, "type": "Feature"}
{"dataset_attributes": {"@spider": "usps_collection_boxes", "spider:collection_time": "2023-09-07T08:24:46.282741"}, "geometry": {"coordinates": [-75.9643674, 41.021525], "type": "Point"}, "id": "amu0-so7c0qKyfd7V8FyBWcUmWk=", "properties": {"@spider": "usps_collection_boxes", "addr:city": "DRUMS", "addr:country": "US", "addr:full": "8 W BUTLER DR", "addr:postcode": "18222", "addr:state": "PA", "amenity": "post_box", "brand": "United States Postal Service", "brand:wikidata": "Q668687", "collection_times": "Mo-Sa 11:00", "name": "USPS COLLECTION BOX - BLUE BOX", "nsi_id": "unitedstatespostalservice-a77078", "operator": "United States Postal Service", "operator:short": "USPS", "operator:type": "public", "operator:wikidata": "Q668687", "ref": "1822200005"}, "type": "Feature"}
{"dataset_attributes": {"@spider": "usps_collection_boxes", "spider:collection_time": "2023-09-07T08:24:46.282741"}, "geometry": {"coordinates": [-75.964215, 41.011722], "type": "Point"}, "id": "oq5T0R_1T0PumPKXntxnSQEvhAc=", "properties": {"@spider": "usps_collection_boxes", "addr:city": "DRUMS", "addr:country": "US", "addr:full": "4 RITTENHOUSE PL", "addr:postcode": "18222", "addr:state": "PA", "amenity": "post_box", "brand": "United States Postal Service", "brand:wikidata": "Q668687", "collection_times": "Mo-Fr 17:00; Sa 12:30", "name": "USPS COLLECTION BOX - PO LOBBY", "note": "ON 12/24 AND 12/31, THIS BOX MAY BE COLLECTED AS EARLY AS 12 NOON.", "nsi_id": "unitedstatespostalservice-a77078", "operator": "United States Postal Service", "operator:short": "USPS", "operator:type": "public", "operator:wikidata": "Q668687", "ref": "1822200006"}, "type": "Feature"}
{"dataset_attributes": {"@spider": "usps_collection_boxes", "spider:collection_time": "2023-09-07T08:24:46.282741"}, "geometry": {"coordinates": [-75.96570165, 41.011051261], "type": "Point"}, "id": "vrMqddp3DGaXSj19FqwxjrmJBNQ=", "properties": {"@spider": "usps_collection_boxes", "addr:city": "DRUMS", "addr:country": "US", "addr:full": "4 RITTENHOUSE PL", "addr:postcode": "18222", "addr:state": "PA", "amenity": "post_box", "brand": "United States Postal Service", "brand:wikidata": "Q668687", "collection_times": "Mo-Fr 17:00; Sa 12:30", "name": "USPS COLLECTION BOX - PO LOBBY", "note": "ON 12/24 AND 12/31, THIS BOX MAY BE COLLECTED AS EARLY AS 12 NOON.", "nsi_id": "unitedstatespostalservice-a77078", "operator": "United States Postal Service", "operator:short": "USPS", "operator:type": "public", "operator:wikidata": "Q668687", "ref": "1822200008"}, "type": "Feature"}
{"dataset_attributes": {"@spider": "usps_collection_boxes", "spider:collection_time": "2023-09-07T08:24:46.282741"}, "geometry": {"coordinates": [-75.942786, 40.989876], "type": "Point"}, "id": "IMhCs2Gji4B2J38TXuXDVU5WKj8=", "properties": {"@spider": "usps_collection_boxes", "addr:city": "EBERVALE", "addr:country": "US", "addr:full": "102 OAKMONT DR", "addr:postcode": "18223", "addr:state": "PA", "amenity": "post_box", "brand": "United States Postal Service", "brand:wikidata": "Q668687", "collection_times": "Mo-Fr 11:45; Sa 09:15", "name": "USPS COLLECTION BOX - PO LOBBY", "nsi_id": "unitedstatespostalservice-a77078", "operator": "United States Postal Service", "operator:short": "USPS", "operator:type": "public", "operator:wikidata": "Q668687", "ref": "1822300001"}, "type": "Feature"}
{"dataset_attributes": {"@spider": "usps_collection_boxes", "spider:collection_time": "2023-09-07T08:24:46.282741"}, "geometry": {"coordinates": [-75.942844869, 40.989805483], "type": "Point"}, "id": "ctmolialakSgPObEpBS0rNQju0U=", "properties": {"@spider": "usps_collection_boxes", "addr:city": "EBERVALE", "addr:country": "US", "addr:full": "102 OAKMONT DR", "addr:postcode": "18223", "addr:state": "PA", "amenity": "post_box", "brand": "United States Postal Service", "brand:wikidata": "Q668687", "collection_times": "Mo-Fr 11:45; Sa 09:30", "name": "USPS COLLECTION BOX - PO LOBBY", "nsi_id": "unitedstatespostalservice-a77078", "operator": "United States Postal Service", "operator:short": "USPS", "operator:type": "public", "operator:wikidata": "Q668687", "ref": "1822300004"}, "type": "Feature"}
{"dataset_attributes": {"@spider": "usps_collection_boxes", "spider:collection_time": "2023-09-07T08:24:46.282741"}, "geometry": {"coordinates": [-75.8963903969, 41.0175037365], "type": "Point"}, "id": "Fzzd1FC4L79vIzZ7BTfM3aAz-u0=", "properties": {"@spider": "usps_collection_boxes", "addr:city": "FREELAND", "addr:country": "US", "addr:full": "701 MAIN ST", "addr:postcode": "18224", "addr:state": "PA", "amenity": "post_box", "brand": "United States Postal Service", "brand:wikidata": "Q668687", "collection_times": "Mo-Fr 16:30; Sa 12:00", "name": "USPS COLLECTION BOX - BLUE BOX", "note": "ON 12/24 AND 12/31, THIS BOX MAY BE COLLECTED AS EARLY AS 12 NOON.", "nsi_id": "unitedstatespostalservice-a77078", "operator": "United States Postal Service", "operator:short": "USPS", "operator:type": "public", "operator:wikidata": "Q668687", "ref": "1822400001"}, "type": "Feature"}
{"dataset_attributes": {"@spider": "usps_collection_boxes", "spider:collection_time": "2023-09-07T08:24:46.282741"}, "geometry": {"coordinates": [-75.8986207, 41.015205], "type": "Point"}, "id": "uqwB3o_dw3Az_iVauTn7m-AJUGc=", "properties": {"@spider": "usps_collection_boxes", "addr:city": "FREELAND", "addr:country": "US", "addr:full": "400 RIDGE ST", "addr:postcode": "18224", "addr:state": "PA", "amenity": "post_box", "brand": "United States Postal Service", "brand:wikidata": "Q668687", "collection_times": "Mo-Sa 11:00", "name": "USPS COLLECTION BOX - BLUE BOX", "nsi_id": "unitedstatespostalservice-a77078", "operator": "United States Postal Service", "operator:short": "USPS", "operator:type": "public", "operator:wikidata": "Q668687", "ref": "1822400004"}, "type": "Feature"}
{"dataset_attributes": {"@spider": "usps_collection_boxes", "spider:collection_time": "2023-09-07T08:24:46.282741"}, "geometry": {"coordinates": [-75.8917743, 41.01848], "type": "Point"}, "id": "Z9DLEUEhzrBrUOQe2ZQE1PbCHJc=", "properties": {"@spider": "usps_collection_boxes", "addr:city": "FREELAND", "addr:country": "US", "addr:full": "400 FRONT ST", "addr:postcode": "18224", "addr:state": "PA", "amenity": "post_box", "brand": "United States Postal Service", "brand:wikidata": "Q668687", "collection_times": "Mo-Sa 09:00", "name": "USPS COLLECTION BOX - BLUE BOX", "nsi_id": "unitedstatespostalservice-a77078", "operator": "United States Postal Service", "operator:short": "USPS", "operator:type": "public", "operator:wikidata": "Q668687", "ref": "1822400020"}, "type": "Feature"}
{"dataset_attributes": {"@spider": "usps_collection_boxes", "spider:collection_time": "2023-09-07T08:24:46.282741"}, "geometry": {"coordinates": [-75.896311, 41.017452], "type": "Point"}, "id": "KuL7xfn2BfAnS5gR_h2Q8TQRkZY=", "properties": {"@spider": "usps_collection_boxes", "addr:city": "FREELAND", "addr:country": "US", "addr:full": "701 MAIN ST", "addr:postcode": "18224", "addr:state": "PA", "amenity": "post_box", "brand": "United States Postal Service", "brand:wikidata": "Q668687", "collection_times": "Mo-Fr 16:30; Sa 12:00", "name": "USPS COLLECTION BOX - PO LOBBY", "note": "ON 12/24 AND 12/31, THIS BOX MAY BE COLLECTED AS EARLY AS 12 NOON.", "nsi_id": "unitedstatespostalservice-a77078", "operator": "United States Postal Service", "operator:short": "USPS", "operator:type": "public", "operator:wikidata": "Q668687", "ref": "1822400022"}, "type": "Feature"}
{"dataset_attributes": {"@spider": "usps_collection_boxes", "spider:collection_time": "2023-09-07T08:24:46.282741"}, "geometry": {"coordinates": [-75.8963903969, 41.0175037365], "type": "Point"}, "id": "6Sv3kVjWAskgueyN9AK9w_GxjnE=", "properties": {"@spider": "usps_collection_boxes", "addr:city": "FREELAND", "addr:country": "US", "addr:full": "701 MAIN ST", "addr:postcode": "18224", "addr:state": "PA", "amenity": "post_box", "brand": "United States Postal Service", "brand:wikidata": "Q668687", "collection_times": "Mo-Fr 16:30; Sa 12:00", "name": "USPS COLLECTION BOX - BLUE BOX", "note": "ON 12/24 AND 12/31, THIS BOX MAY BE COLLECTED AS EARLY AS 12 NOON.", "nsi_id": "unitedstatespostalservice-a77078", "operator": "United States Postal Service", "operator:short": "USPS", "operator:type": "public", "operator:wikidata": "Q668687", "ref": "1822400025"}, "type": "Feature"}
{"dataset_attributes": {"@spider": "usps_collection_boxes", "spider:collection_time": "2023-09-07T08:24:46.282741"}, "geometry": {"coordinates": [-75.89639343, 41.017519989], "type": "Point"}, "id": "zYsDckcuB0l2j7JB6gLOaPicTLw=", "properties": {"@spider": "usps_collection_boxes", "addr:city": "FREELAND", "addr:country": "US", "addr:full": "701 MAIN ST", "addr:postcode": "18224", "addr:state": "PA", "amenity": "post_box", "brand": "United States Postal Service", "brand:wikidata": "Q668687", "collection_times": "Mo-Fr 17:00; Sa 12:00", "name": "USPS COLLECTION BOX - PO LOBBY", "note": "ON 12/24 AND 12/31, THIS BOX MAY BE COLLECTED AS EARLY AS 12 NOON.", "nsi_id": "unitedstatespostalservice-a77078", "operator": "United States Postal Service", "operator:short": "USPS", "operator:type": "public", "operator:wikidata": "Q668687", "ref": "1822400028"}, "type": "Feature"}
{"dataset_attributes": {"@spider": "usps_collection_boxes", "spider:collection_time": "2023-09-07T08:24:46.282741"}, "geometry": {"coordinates": [-75.9680312344, 40.9824335326], "type": "Point"}, "id": "Ur0JcJLNU6XLU5_1oIdDL6wO0zs=", "properties": {"@spider": "usps_collection_boxes", "addr:city": "HARLEIGH", "addr:country": "US", "addr:full": "1129 STATE ROUTE 940 STE 1", "addr:postcode": "18225", "addr:state": "PA", "amenity": "post_box", "brand": "United States Postal Service", "brand:wikidata": "Q668687", "collection_times": "Mo-Fr 15:30; Sa 10:00", "name": "USPS COLLECTION BOX - BLUE BOX", "note": "ON 12/24 AND 12/31, THIS BOX MAY BE COLLECTED AS EARLY AS 12 NOON.", "nsi_id": "unitedstatespostalservice-a77078", "operator": "United States Postal Service", "operator:short": "USPS", "operator:type": "public", "operator:wikidata": "Q668687", "ref": "1822500001"}, "type": "Feature"}
{"dataset_attributes": {"@spider": "usps_collection_boxes", "spider:collection_time": "2023-09-07T08:24:46.282741"}, "geometry": {"coordinates": [-75.9680312344, 40.9824335326], "type": "Point"}, "id": "E9dywX6NKlXTrjzhpI43x-8orNY=", "properties": {"@spider": "usps_collection_boxes", "addr:city": "HARLEIGH", "addr:country": "US", "addr:full": "1129 STATE ROUTE 940 STE 1", "addr:postcode": "18225", "addr:state": "PA", "amenity": "post_box", "brand": "United States Postal Service", "brand:wikidata": "Q668687", "collection_times": "Mo-Fr 15:30; Sa 10:00", "name": "USPS COLLECTION BOX - PO LOBBY", "note": "ON 12/24 AND 12/31, THIS BOX MAY BE COLLECTED AS EARLY AS 12 NOON.", "nsi_id": "unitedstatespostalservice-a77078", "operator": "United States Postal Service", "operator:short": "USPS", "operator:type": "public", "operator:wikidata": "Q668687", "ref": "1822500002"}, "type": "Feature"}
{"dataset_attributes": {"@spider": "usps_collection_boxes", "spider:collection_time": "2023-09-07T08:24:46.282741"}, "geometry": {"coordinates": [-75.975591904, 40.980035626], "type": "Point"}, "id": "o6z5GWQf7pQj8niaSQo54XOcPgY=", "properties": {"@spider": "usps_collection_boxes", "addr:city": "HARLEIGH", "addr:country": "US", "addr:full": "1129 STATE ROUTE 940 STE 1", "addr:postcode": "18225", "addr:state": "PA", "amenity": "post_box", "brand": "United States Postal Service", "brand:wikidata": "Q668687", "collection_times": "Mo-Fr 16:15; Sa 10:00", "name": "USPS COLLECTION BOX - PO LOBBY", "note": "ON 12/24 AND 12/31, THIS BOX MAY BE COLLECTED AS EARLY AS 12 NOON.", "nsi_id": "unitedstatespostalservice-a77078", "operator": "United States Postal Service", "operator:short": "USPS", "operator:type": "public", "operator:wikidata": "Q668687", "ref": "1822500004"}, "type": "Feature"}
{"dataset_attributes": {"@spider": "usps_collection_boxes", "spider:collection_time": "2023-09-07T08:24:46.282741"}, "geometry": {"coordinates": [-75.7383516, 40.863533], "type": "Point"}, "id": "vo7DZn_JrOHAb_48LVivRYWhGwE=", "properties": {"@spider": "usps_collection_boxes", "addr:city": "JIM THORPE", "addr:country": "US", "addr:full": "10 BROADWAY", "addr:postcode": "18229", "addr:state": "PA", "amenity": "post_box", "brand": "United States Postal Service", "brand:wikidata": "Q668687", "collection_times": "Mo-Fr 15:45; Sa 09:45", "name": "USPS COLLECTION BOX - BLUE BOX", "note": "ON 12/24 AND 12/31, THIS BOX MAY BE COLLECTED AS EARLY AS 12 NOON.", "nsi_id": "unitedstatespostalservice-a77078", "operator": "United States Postal Service", "operator:short": "USPS", "operator:type": "public", "operator:wikidata": "Q668687", "ref": "1822900004"}, "type": "Feature"}
{"dataset_attributes": {"@spider": "usps_collection_boxes", "spider:collection_time": "2023-09-07T08:24:46.282741"}, "geometry": {"coordinates": [-75.7435782, 40.867261], "type": "Point"}, "id": "nqqeZDD3GUPwfg1vLLEUNIQfyh8=", "properties": {"@spider": "usps_collection_boxes", "addr:city": "JIM THORPE", "addr:country": "US", "addr:full": "340 CENTER AVE", "addr:postcode": "18229", "addr:state": "PA", "amenity": "post_box", "brand": "United States Postal Service", "brand:wikidata": "Q668687", "collection_times": "Mo-Sa 12:00", "name": "USPS COLLECTION BOX - BLUE BOX", "nsi_id": "unitedstatespostalservice-a77078", "operator": "United States Postal Service", "operator:short": "USPS", "operator:type": "public", "operator:wikidata": "Q668687", "ref": "1822900007"}, "type": "Feature"}
{"dataset_attributes": {"@spider": "usps_collection_boxes", "spider:collection_time": "2023-09-07T08:24:46.282741"}, "geometry": {"coordinates": [-75.7318072, 40.873615], "type": "Point"}, "id": "mM1HgOygvjO_dc9E5xvypial1LQ=", "properties": {"@spider": "usps_collection_boxes", "addr:city": "JIM THORPE", "addr:country": "US", "addr:full": "432 CENTER ST", "addr:postcode": "18229", "addr:state": "PA", "amenity": "post_box", "brand": "United States Postal Service", "brand:wikidata": "Q668687", "collection_times": "Mo-Fr 15:30; Sa 14:00", "name": "USPS COLLECTION BOX - BLUE BOX", "note": "ON 12/24 AND 12/31, THIS BOX MAY BE COLLECTED AS EARLY AS 12 NOON.", "nsi_id": "unitedstatespostalservice-a77078", "operator": "United States Postal Service", "operator:short": "USPS", "operator:type": "public", "operator:wikidata": "Q668687", "ref": "1822900019"}, "type": "Feature"}
{"dataset_attributes": {"@spider": "usps_collection_boxes", "spider:collection_time": "2023-09-07T08:24:46.282741"}, "geometry": {"coordinates": [-75.6459256, 40.94922], "type": "Point"}, "id": "Hd1JcVN1i6v4Jz09EOSgmAvzSOg=", "properties": {"@spider": "usps_collection_boxes", "addr:city": "JIM THORPE", "addr:country": "US", "addr:full": "2 CLUB RD", "addr:postcode": "18229", "addr:state": "PA", "amenity": "post_box", "brand": "United States Postal Service", "brand:wikidata": "Q668687", "collection_times": "Mo-Sa 09:15", "name": "USPS COLLECTION BOX - BLUE BOX", "nsi_id": "unitedstatespostalservice-a77078", "operator": "United States Postal Service", "operator:short": "USPS", "operator:type": "public", "operator:wikidata": "Q668687", "ref": "1822900023"}, "type": "Feature"}
{"dataset_attributes": {"@spider": "usps_collection_boxes", "spider:collection_time": "2023-09-07T08:24:46.282741"}, "geometry": {"coordinates": [-75.6642319707, 40.9252980123], "type": "Point"}, "id": "l6kEW_EEQx4jT530RTgxz9qstjk=", "properties": {"@spider": "usps_collection_boxes", "addr:city": "JIM THORPE", "addr:country": "US", "addr:full": "198 INDIAN TRL", "addr:postcode": "18229", "addr:state": "PA", "amenity": "post_box", "brand": "United States Postal Service", "brand:wikidata": "Q668687", "collection_times": "Mo-Sa 09:30", "name": "USPS COLLECTION BOX - BLUE BOX", "nsi_id": "unitedstatespostalservice-a77078", "operator": "United States Postal Service", "operator:short": "USPS", "operator:type": "public", "operator:wikidata": "Q668687", "ref": "1822900024"}, "type": "Feature"}
{"dataset_attributes": {"@spider": "usps_collection_boxes", "spider:collection_time": "2023-09-07T08:24:46.282741"}, "geometry": {"coordinates": [-75.735081, 40.87464], "type": "Point"}, "id": "-zig1eJbsIKC6HFULdEWjY2BgRM=", "properties": {"@spider": "usps_collection_boxes", "addr:city": "JIM THORPE", "addr:country": "US", "addr:full": "3 LEHIGH AVE", "addr:postcode": "18229", "addr:state": "PA", "amenity": "post_box", "brand": "United States Postal Service", "brand:wikidata": "Q668687", "collection_times": "Mo-Fr 16:30; Sa 15:00", "name": "USPS COLLECTION BOX - PO LOBBY", "note": "ON 12/24 AND 12/31, THIS BOX MAY BE COLLECTED AS EARLY AS 12 NOON.", "nsi_id": "unitedstatespostalservice-a77078", "operator": "United States Postal Service", "operator:short": "USPS", "operator:type": "public", "operator:wikidata": "Q668687", "ref": "1822900027"}, "type": "Feature"}
{"dataset_attributes": {"@spider": "usps_collection_boxes", "spider:collection_time": "2023-09-07T08:24:46.282741"}, "geometry": {"coordinates": [-75.73180782, 40.87365825], "type": "Point"}, "id": "3jNt7qj9bpg9Cq_9eyUpPxxEYbg=", "properties": {"@spider": "usps_collection_boxes", "addr:city": "JIM THORPE", "addr:country": "US", "addr:full": "432 CENTER ST", "addr:postcode": "18229", "addr:state": "PA", "amenity": "post_box", "brand": "United States Postal Service", "brand:wikidata": "Q668687", "collection_times": "Mo-Fr 14:30", "name": "USPS COLLECTION BOX - PO LOBBY", "note": "ON 12/24 AND 12/31, THIS BOX MAY BE COLLECTED AS EARLY AS 12 NOON.", "nsi_id": "unitedstatespostalservice-a77078", "operator": "United States Postal Service", "operator:short": "USPS", "operator:type": "public", "operator:wikidata": "Q668687", "ref": "1822900030"}, "type": "Feature"}
{"dataset_attributes": {"@spider": "usps_collection_boxes", "spider:collection_time": "2023-09-07T08:24:46.282741"}, "geometry": {"coordinates": [-75.732515435, 40.877261276], "type": "Point"}, "id": "4k_c1HZN8U-n6uRJVnHsskDM9f0=", "properties": {"@spider": "usps_collection_boxes", "addr:city": "JIM THORPE", "addr:country": "US", "addr:full": "3 LEHIGH AVE", "addr:postcode": "18229", "addr:state": "PA", "amenity": "post_box", "brand": "United States Postal Service", "brand:wikidata": "Q668687", "collection_times": "Mo-Fr 17:00; Sa 12:30", "name": "USPS COLLECTION BOX - PO LOBBY", "note": "ON 12/24 AND 12/31, THIS BOX MAY BE COLLECTED AS EARLY AS 12 NOON.", "nsi_id": "unitedstatespostalservice-a77078", "operator": "United States Postal Service", "operator:short": "USPS", "operator:type": "public", "operator:wikidata": "Q668687", "ref": "1822900031"}, "type": "Feature"}
{"dataset_attributes": {"@spider": "usps_collection_boxes", "spider:collection_time": "2023-09-07T08:24:46.282741"}, "geometry": {"coordinates": [-75.943566, 40.923621], "type": "Point"}, "id": "cEFd7KsiBzJSSyfA5En8j8uE5Ko=", "properties": {"@spider": "usps_collection_boxes", "addr:city": "JUNEDALE", "addr:country": "US", "addr:full": "13 E MAIN ST", "addr:postcode": "18230", "addr:state": "PA", "amenity": "post_box", "brand": "United States Postal Service", "brand:wikidata": "Q668687", "collection_times": "Mo-Fr 16:30; Sa 10:45", "name": "USPS COLLECTION BOX - BLUE BOX", "note": "ON 12/24 AND 12/31, THIS BOX MAY BE COLLECTED AS EARLY AS 12 NOON.", "nsi_id": "unitedstatespostalservice-a77078", "operator": "United States Postal Service", "operator:short": "USPS", "operator:type": "public", "operator:wikidata": "Q668687", "ref": "1823000001"}, "type": "Feature"}
{"dataset_attributes": {"@spider": "usps_collection_boxes", "spider:collection_time": "2023-09-07T08:24:46.282741"}, "geometry": {"coordinates": [-75.943615, 40.923593], "type": "Point"}, "id": "DlhhHg9Ef2zKHXmyaTeCwSFZDzQ=", "properties": {"@spider": "usps_collection_boxes", "addr:city": "JUNEDALE", "addr:country": "US", "addr:full": "13 E MAIN ST", "addr:postcode": "18230", "addr:state": "PA", "amenity": "post_box", "brand": "United States Postal Service", "brand:wikidata": "Q668687", "collection_times": "Mo-Fr 15:30; Sa 10:45", "name": "USPS COLLECTION BOX - PO LOBBY", "note": "ON 12/24 AND 12/31, THIS BOX MAY BE COLLECTED AS EARLY AS 12 NOON.", "nsi_id": "unitedstatespostalservice-a77078", "operator": "United States Postal Service", "operator:short": "USPS", "operator:type": "public", "operator:wikidata": "Q668687", "ref": "1823000002"}, "type": "Feature"}
{"dataset_attributes": {"@spider": "usps_collection_boxes", "spider:collection_time": "2023-09-07T08:24:46.282741"}, "geometry": {"coordinates": [-75.941522811, 40.923857482], "type": "Point"}, "id": "NTq5VgIqKi5jsU7awFjdh-mxrAs=", "properties": {"@spider": "usps_collection_boxes", "addr:city": "JUNEDALE", "addr:country": "US", "addr:full": "13 E MAIN ST", "addr:postcode": "18230", "addr:state": "PA", "amenity": "post_box", "brand": "United States Postal Service", "brand:wikidata": "Q668687", "collection_times": "Mo-Fr 16:30; Sa 11:30", "name": "USPS COLLECTION BOX - PO LOBBY", "note": "ON 12/24 AND 12/31, THIS BOX MAY BE COLLECTED AS EARLY AS 12 NOON.", "nsi_id": "unitedstatespostalservice-a77078", "operator": "United States Postal Service", "operator:short": "USPS", "operator:type": "public", "operator:wikidata": "Q668687", "ref": "1823000004"}, "type": "Feature"}
{"dataset_attributes": {"@spider": "usps_collection_boxes", "spider:collection_time": "2023-09-07T08:24:46.282741"}, "geometry": {"coordinates": [-76.003882, 40.901099], "type": "Point"}, "id": "JMvhMZXme-nCC8MlaUwOo32gpew=", "properties": {"@spider": "usps_collection_boxes", "addr:city": "KELAYRES", "addr:country": "US", "addr:full": "21 4TH ST", "addr:postcode": "18231", "addr:state": "PA", "amenity": "post_box", "brand": "United States Postal Service", "brand:wikidata": "Q668687", "collection_times": "Mo-Fr 15:45; Sa 10:00", "name": "USPS COLLECTION BOX - PO LOBBY", "note": "ON 12/24 AND 12/31, THIS BOX MAY BE COLLECTED AS EARLY AS 12 NOON.", "nsi_id": "unitedstatespostalservice-a77078", "operator": "United States Postal Service", "operator:short": "USPS", "operator:type": "public", "operator:wikidata": "Q668687", "ref": "1823100002"}, "type": "Feature"}
{"dataset_attributes": {"@spider": "usps_collection_boxes", "spider:collection_time": "2023-09-07T08:24:46.282741"}, "geometry": {"coordinates": [-76.003788341, 40.900644914], "type": "Point"}, "id": "xZz34Ju-_R0dgDHcu7ZXbmpXts4=", "properties": {"@spider": "usps_collection_boxes", "addr:city": "KELAYRES", "addr:country": "US", "addr:full": "21 4TH ST", "addr:postcode": "18231", "addr:state": "PA", "amenity": "post_box", "brand": "United States Postal Service", "brand:wikidata": "Q668687", "collection_times": "Mo-Fr 15:45; Sa 10:00", "name": "USPS COLLECTION BOX - PO LOBBY", "note": "ON 12/24 AND 12/31, THIS BOX MAY BE COLLECTED AS EARLY AS 12 NOON.", "nsi_id": "unitedstatespostalservice-a77078", "operator": "United States Postal Service", "operator:short": "USPS", "operator:type": "public", "operator:wikidata": "Q668687", "ref": "1823100004"}, "type": "Feature"}
{"dataset_attributes": {"@spider": "usps_collection_boxes", "spider:collection_time": "2023-09-07T08:24:46.282741"}, "geometry": {"coordinates": [-75.8865264, 40.831532], "type": "Point"}, "id": "bQ6jeMTx8EYPPECGLMPEiHEAEBM=", "properties": {"@spider": "usps_collection_boxes", "addr:city": "LANSFORD", "addr:country": "US", "addr:full": "100 W RIDGE ST", "addr:postcode": "18232", "addr:state": "PA", "amenity": "post_box", "brand": "United States Postal Service", "brand:wikidata": "Q668687", "collection_times": "Mo-Fr 13:00; Sa 10:00", "name": "USPS COLLECTION BOX - BLUE BOX", "note": "ON 12/24 AND 12/31, THIS BOX MAY BE COLLECTED AS EARLY AS 12 NOON.", "nsi_id": "unitedstatespostalservice-a77078", "operator": "United States Postal Service", "operator:short": "USPS", "operator:type": "public", "operator:wikidata": "Q668687", "ref": "1823200007"}, "type": "Feature"}
{"dataset_attributes": {"@spider": "usps_collection_boxes", "spider:collection_time": "2023-09-07T08:24:46.282741"}, "geometry": {"coordinates": [-75.8785737, 40.832355], "type": "Point"}, "id": "NEUK932iV4XhHuvsdyi3hi1caGo=", "properties": {"@spider": "usps_collection_boxes", "addr:city": "LANSFORD", "addr:country": "US", "addr:full": "267 E BERTSCH ST", "addr:postcode": "18232", "addr:state": "PA", "amenity": "post_box", "brand": "United States Postal Service", "brand:wikidata": "Q668687", "collection_times": "Mo-Sa 09:00", "name": "USPS COLLECTION BOX - BLUE BOX", "nsi_id": "unitedstatespostalservice-a77078", "operator": "United States Postal Service", "operator:short": "USPS", "operator:type": "public", "operator:wikidata": "Q668687", "ref": "1823200019"}, "type": "Feature"}
{"dataset_attributes": {"@spider": "usps_collection_boxes", "spider:collection_time": "2023-09-07T08:24:46.282741"}, "geometry": {"coordinates": [-75.88444, 40.831365], "type": "Point"}, "id": "pXyoeykNTnkwmrD3HohUQzCwspY=", "properties": {"@spider": "usps_collection_boxes", "addr:city": "LANSFORD", "addr:country": "US", "addr:full": "14 TUNNEL ST", "addr:postcode": "18232", "addr:state": "PA", "amenity": "post_box", "brand": "United States Postal Service", "brand:wikidata": "Q668687", "collection_times": "Mo-Fr 16:30; Sa 15:30", "name": "USPS COLLECTION BOX - BLUE BOX", "note": "ON 12/24 AND 12/31, THIS BOX MAY BE COLLECTED AS EARLY AS 12 NOON.", "nsi_id": "unitedstatespostalservice-a77078", "operator": "United States Postal Service", "operator:short": "USPS", "operator:type": "public", "operator:wikidata": "Q668687", "ref": "1823200025"}, "type": "Feature"}
{"dataset_attributes": {"@spider": "usps_collection_boxes", "spider:collection_time": "2023-09-07T08:24:46.282741"}, "geometry": {"coordinates": [-75.8844673, 40.831307], "type": "Point"}, "id": "guhb1cZKAtF3-TkrcCwt4X69rBo=", "properties": {"@spider": "usps_collection_boxes", "addr:city": "LANSFORD", "addr:country": "US", "addr:full": "14 TUNNEL ST", "addr:postcode": "18232", "addr:state": "PA", "amenity": "post_box", "brand": "United States Postal Service", "brand:wikidata": "Q668687", "collection_times": "Mo-Fr 16:30; Sa 15:30", "name": "USPS COLLECTION BOX - PO LOBBY", "note": "ON 12/24 AND 12/31, THIS BOX MAY BE COLLECTED AS EARLY AS 12 NOON.", "nsi_id": "unitedstatespostalservice-a77078", "operator": "United States Postal Service", "operator:short": "USPS", "operator:type": "public", "operator:wikidata": "Q668687", "ref": "1823200028"}, "type": "Feature"}
{"dataset_attributes": {"@spider": "usps_collection_boxes", "spider:collection_time": "2023-09-07T08:24:46.282741"}, "geometry": {"coordinates": [-75.884303319, 40.831265662], "type": "Point"}, "id": "Uibj7GC7KaE4WRgvMLlYfHLXsXI=", "properties": {"@spider": "usps_collection_boxes", "addr:city": "LANSFORD", "addr:country": "US", "addr:full": "14 TUNNEL ST", "addr:postcode": "18232", "addr:state": "PA", "amenity": "post_box", "brand": "United States Postal Service", "brand:wikidata": "Q668687", "collection_times": "Mo-Fr 16:30; Sa 12:00", "name": "USPS COLLECTION BOX - PO LOBBY", "note": "ON 12/24 AND 12/31, THIS BOX MAY BE COLLECTED AS EARLY AS 12 NOON.", "nsi_id": "unitedstatespostalservice-a77078", "operator": "United States Postal Service", "operator:short": "USPS", "operator:type": "public", "operator:wikidata": "Q668687", "ref": "1823200030"}, "type": "Feature"}
{"dataset_attributes": {"@spider": "usps_collection_boxes", "spider:collection_time": "2023-09-07T08:24:46.282741"}, "geometry": {"coordinates": [-75.962075, 40.994329], "type": "Point"}, "id": "cbjSSX3SltEXxjRjkO0tCcbXwLQ=", "properties": {"@spider": "usps_collection_boxes", "addr:city": "LATTIMER MINES", "addr:country": "US", "addr:full": "850 LATTIMER RD", "addr:postcode": "18234", "addr:state": "PA", "amenity": "post_box", "brand": "United States Postal Service", "brand:wikidata": "Q668687", "collection_times": "Mo-Fr 15:45; Sa 09:30", "name": "USPS COLLECTION BOX - BLUE BOX", "note": "ON 12/24 AND 12/31, THIS BOX MAY BE COLLECTED AS EARLY AS 12 NOON.", "nsi_id": "unitedstatespostalservice-a77078", "operator": "United States Postal Service", "operator:short": "USPS", "operator:type": "public", "operator:wikidata": "Q668687", "ref": "1823400001"}, "type": "Feature"}
{"dataset_attributes": {"@spider": "usps_collection_boxes", "spider:collection_time": "2023-09-07T08:24:46.282741"}, "geometry": {"coordinates": [-75.962135, 40.994277], "type": "Point"}, "id": "ujUI5RlC0Rj-oNtIKVXdYl83DJk=", "properties": {"@spider": "usps_collection_boxes", "addr:city": "LATTIMER MINES", "addr:country": "US", "addr:full": "850 LATTIMER RD", "addr:postcode": "18234", "addr:state": "PA", "amenity": "post_box", "brand": "United States Postal Service", "brand:wikidata": "Q668687", "collection_times": "Mo-Fr 15:45; Sa 09:30", "name": "USPS COLLECTION BOX - PO LOBBY", "note": "ON 12/24 AND 12/31, THIS BOX MAY BE COLLECTED AS EARLY AS 12 NOON.", "nsi_id": "unitedstatespostalservice-a77078", "operator": "United States Postal Service", "operator:short": "USPS", "operator:type": "public", "operator:wikidata": "Q668687", "ref": "1823400002"}, "type": "Feature"}
{"dataset_attributes": {"@spider": "usps_collection_boxes", "spider:collection_time": "2023-09-07T08:24:46.282741"}, "geometry": {"coordinates": [-75.962457013, 40.994222858], "type": "Point"}, "id": "wKeT664lz6qClv9Ro3OYZWEaX_8=", "properties": {"@spider": "usps_collection_boxes", "addr:city": "LATTIMER MINES", "addr:country": "US", "addr:full": "850 LATTIMER RD", "addr:postcode": "18234", "addr:state": "PA", "amenity": "post_box", "brand": "United States Postal Service", "brand:wikidata": "Q668687", "collection_times": "Mo-Fr 15:45; Sa 09:45", "name": "USPS COLLECTION BOX - PO LOBBY", "note": "ON 12/24 AND 12/31, THIS BOX MAY BE COLLECTED AS EARLY AS 12 NOON.", "nsi_id": "unitedstatespostalservice-a77078", "operator": "United States Postal Service", "operator:short": "USPS", "operator:type": "public", "operator:wikidata": "Q668687", "ref": "1823400004"}, "type": "Feature"}
{"dataset_attributes": {"@spider": "usps_collection_boxes", "spider:collection_time": "2023-09-07T08:24:46.282741"}, "geometry": {"coordinates": [-75.7098590283, 40.8348579895], "type": "Point"}, "id": "QEumpu9tYsqIBO8xjDBtXKwPA6o=", "properties": {"@spider": "usps_collection_boxes", "addr:city": "LEHIGHTON", "addr:country": "US", "addr:full": "118 NORTH ST", "addr:postcode": "18235", "addr:state": "PA", "amenity": "post_box", "brand": "United States Postal Service", "brand:wikidata": "Q668687", "collection_times": "Mo-Sa 16:30", "name": "USPS COLLECTION BOX - BLUE BOX", "note": "ON 12/24 AND 12/31, THIS BOX MAY BE COLLECTED AS EARLY AS 12 NOON.", "nsi_id": "unitedstatespostalservice-a77078", "operator": "United States Postal Service", "operator:short": "USPS", "operator:type": "public", "operator:wikidata": "Q668687", "ref": "1823500001"}, "type": "Feature"}
{"dataset_attributes": {"@spider": "usps_collection_boxes", "spider:collection_time": "2023-09-07T08:24:46.282741"}, "geometry": {"coordinates": [-75.7090483, 40.837116], "type": "Point"}, "id": "oS7jmnnTljK2ytnxY9odi9MA_9I=", "properties": {"@spider": "usps_collection_boxes", "addr:city": "LEHIGHTON", "addr:country": "US", "addr:full": "279 N 1ST ST", "addr:postcode": "18235", "addr:state": "PA", "amenity": "post_box", "brand": "United States Postal Service", "brand:wikidata": "Q668687", "collection_times": "Mo-Fr 09:30; Sa 08:30", "name": "USPS COLLECTION BOX - BLUE BOX", "nsi_id": "unitedstatespostalservice-a77078", "operator": "United States Postal Service", "operator:short": "USPS", "operator:type": "public", "operator:wikidata": "Q668687", "ref": "1823500013"}, "type": "Feature"}
{"dataset_attributes": {"@spider": "usps_collection_boxes", "spider:collection_time": "2023-09-07T08:24:46.282741"}, "geometry": {"coordinates": [-75.7010183, 40.829779], "type": "Point"}, "id": "qIpB44yXYnomaUQEfDjqEnvObLk=", "properties": {"@spider": "usps_collection_boxes", "addr:city": "LEHIGHTON", "addr:country": "US", "addr:full": "200 BRIDGE ST", "addr:postcode": "18235", "addr:state": "PA", "amenity": "post_box", "brand": "United States Postal Service", "brand:wikidata": "Q668687", "collection_times": "Mo-Sa 10:30", "name": "USPS COLLECTION BOX - BLUE BOX", "nsi_id": "unitedstatespostalservice-a77078", "operator": "United States Postal Service", "operator:short": "USPS", "operator:type": "public", "operator:wikidata": "Q668687", "ref": "1823500017"}, "type": "Feature"}
{"dataset_attributes": {"@spider": "usps_collection_boxes", "spider:collection_time": "2023-09-07T08:24:46.282741"}, "geometry": {"coordinates": [-75.7084878, 40.833037], "type": "Point"}, "id": "3P9ehBTPINFBkD1oUgHPDogTN_w=", "properties": {"@spider": "usps_collection_boxes", "addr:city": "LEHIGHTON", "addr:country": "US", "addr:full": "145 S 1ST ST", "addr:postcode": "18235", "addr:state": "PA", "amenity": "post_box", "brand": "United States Postal Service", "brand:wikidata": "Q668687", "collection_times": "Mo-Sa 09:15", "name": "USPS COLLECTION BOX - BLUE BOX", "nsi_id": "unitedstatespostalservice-a77078", "operator": "United States Postal Service", "operator:short": "USPS", "operator:type": "public", "operator:wikidata": "Q668687", "ref": "1823500018"}, "type": "Feature"}
{"dataset_attributes": {"@spider": "usps_collection_boxes", "spider:collection_time": "2023-09-07T08:24:46.282741"}, "geometry": {"coordinates": [-75.711797683, 40.831028927], "type": "Point"}, "id": "2GaB47UIzANn1xsy4ffquVNJ6oQ=", "properties": {"@spider": "usps_collection_boxes", "addr:city": "LEHIGHTON", "addr:country": "US", "addr:full": "212 S 3RD ST", "addr:postcode": "18235", "addr:state": "PA", "amenity": "post_box", "brand": "United States Postal Service", "brand:wikidata": "Q668687", "collection_times": "Mo-Sa 12:15", "name": "USPS COLLECTION BOX - BLUE BOX", "note": "ON 12/24 AND 12/31, THIS BOX MAY BE COLLECTED AS EARLY AS 12 NOON.", "nsi_id": "unitedstatespostalservice-a77078", "operator": "United States Postal Service", "operator:short": "USPS", "operator:type": "public", "operator:wikidata": "Q668687", "ref": "1823500020"}, "type": "Feature"}
{"dataset_attributes": {"@spider": "usps_collection_boxes", "spider:collection_time": "2023-09-07T08:24:46.282741"}, "geometry": {"coordinates": [-75.7217072, 40.830749], "type": "Point"}, "id": "1MF8im1yeil0qfDH9Jho1Akb2RA=", "properties": {"@spider": "usps_collection_boxes", "addr:city": "LEHIGHTON", "addr:country": "US", "addr:full": "124 S 9TH ST", "addr:postcode": "18235", "addr:state": "PA", "amenity": "post_box", "brand": "United States Postal Service", "brand:wikidata": "Q668687", "collection_times": "Mo-Sa 10:00", "name": "USPS COLLECTION BOX - BLUE BOX", "nsi_id": "unitedstatespostalservice-a77078", "operator": "United States Postal Service", "operator:short": "USPS", "operator:type": "public", "operator:wikidata": "Q668687", "ref": "1823500031"}, "type": "Feature"}
{"dataset_attributes": {"@spider": "usps_collection_boxes", "spider:collection_time": "2023-09-07T08:24:46.282741"}, "geometry": {"coordinates": [-75.726768637, 40.832467139], "type": "Point"}, "id": "gchgbVvQTIV9qOnIiriiGWaES28=", "properties": {"@spider": "usps_collection_boxes", "addr:city": "LEHIGHTON", "addr:country": "US", "addr:full": "211 N 12TH ST", "addr:postcode": "18235", "addr:state": "PA", "amenity": "post_box", "brand": "United States Postal Service", "brand:wikidata": "Q668687", "collection_times": "Mo-Sa 10:45", "name": "USPS COLLECTION BOX - BLUE BOX", "nsi_id": "unitedstatespostalservice-a77078", "operator": "United States Postal Service", "operator:short": "USPS", "operator:type": "public", "operator:wikidata": "Q668687", "ref": "1823500032"}, "type": "Feature"}
{"dataset_attributes": {"@spider": "usps_collection_boxes", "spider:collection_time": "2023-09-07T08:24:46.282741"}, "geometry": {"coordinates": [-75.7151829, 40.833638], "type": "Point"}, "id": "zSorIOsqwcgr94sGpzmEDhmDkrQ=", "properties": {"@spider": "usps_collection_boxes", "addr:city": "LEHIGHTON", "addr:country": "US", "addr:full": "447 MAHONING ST", "addr:postcode": "18235", "addr:state": "PA", "amenity": "post_box", "brand": "United States Postal Service", "brand:wikidata": "Q668687", "collection_times": "Mo-Sa 09:00", "name": "USPS COLLECTION BOX - BLUE BOX", "nsi_id": "unitedstatespostalservice-a77078", "operator": "United States Postal Service", "operator:short": "USPS", "operator:type": "public", "operator:wikidata": "Q668687", "ref": "1823500033"}, "type": "Feature"}
{"dataset_attributes": {"@spider": "usps_collection_boxes", "spider:collection_time": "2023-09-07T08:24:46.282741"}, "geometry": {"coordinates": [-75.7328753, 40.814753], "type": "Point"}, "id": "JF1lejhlaUZDBTYkGmOaZKApANQ=", "properties": {"@spider": "usps_collection_boxes", "addr:city": "LEHIGHTON", "addr:country": "US", "addr:full": "1241 BLAKESLEE BOULEVARD DR E", "addr:postcode": "18235", "addr:state": "PA", "amenity": "post_box", "brand": "United States Postal Service", "brand:wikidata": "Q668687", "collection_times": "Mo-Sa 10:00", "name": "USPS COLLECTION BOX - BLUE BOX", "nsi_id": "unitedstatespostalservice-a77078", "operator": "United States Postal Service", "operator:short": "USPS", "operator:type": "public", "operator:wikidata": "Q668687", "ref": "1823500034"}, "type": "Feature"}
{"dataset_attributes": {"@spider": "usps_collection_boxes", "spider:collection_time": "2023-09-07T08:24:46.282741"}, "geometry": {"coordinates": [-75.7097954, 40.834771], "type": "Point"}, "id": "0E7tDw_bO8I_yYIkNkFgineLKdA=", "properties": {"@spider": "usps_collection_boxes", "addr:city": "LEHIGHTON", "addr:country": "US", "addr:full": "118 NORTH ST", "addr:postcode": "18235", "addr:state": "PA", "amenity": "post_box", "brand": "United States Postal Service", "brand:wikidata": "Q668687", "collection_times": "Mo-Sa 16:30", "name": "USPS COLLECTION BOX - PO LOBBY", "note": "ON 12/24 AND 12/31, THIS BOX MAY BE COLLECTED AS EARLY AS 12 NOON.", "nsi_id": "unitedstatespostalservice-a77078", "operator": "United States Postal Service", "operator:short": "USPS", "operator:type": "public", "operator:wikidata": "Q668687", "ref": "1823500036"}, "type": "Feature"}
{"dataset_attributes": {"@spider": "usps_collection_boxes", "spider:collection_time": "2023-09-07T08:24:46.282741"}, "geometry": {"coordinates": [-75.7098590283, 40.8348579895], "type": "Point"}, "id": "YRmIu0vouc9sUebT5nf8GleWDY0=", "properties": {"@spider": "usps_collection_boxes", "addr:city": "LEHIGHTON", "addr:country": "US", "addr:full": "118 NORTH ST", "addr:postcode": "18235", "addr:state": "PA", "amenity": "post_box", "brand": "United States Postal Service", "brand:wikidata": "Q668687", "collection_times": "Mo-Sa 16:30", "name": "USPS COLLECTION BOX - BLUE BOX", "note": "ON 12/24 AND 12/31, THIS BOX MAY BE COLLECTED AS EARLY AS 12 NOON.", "nsi_id": "unitedstatespostalservice-a77078", "operator": "United States Postal Service", "operator:short": "USPS", "operator:type": "public", "operator:wikidata": "Q668687", "ref": "1823500038"}, "type": "Feature"}
{"dataset_attributes": {"@spider": "usps_collection_boxes", "spider:collection_time": "2023-09-07T08:24:46.282741"}, "geometry": {"coordinates": [-75.709364422, 40.834677455], "type": "Point"}, "id": "FgXbK9jzhKJPkEdttT8c4dRzIpI=", "properties": {"@spider": "usps_collection_boxes", "addr:city": "LEHIGHTON", "addr:country": "US", "addr:full": "118 NORTH ST", "addr:postcode": "18235", "addr:state": "PA", "amenity": "post_box", "brand": "United States Postal Service", "brand:wikidata": "Q668687", "collection_times": "Mo-Fr 17:00; Sa 13:00", "name": "USPS COLLECTION BOX - PO LOBBY", "note": "ON 12/24 AND 12/31, THIS BOX MAY BE COLLECTED AS EARLY AS 12 NOON.", "nsi_id": "unitedstatespostalservice-a77078", "operator": "United States Postal Service", "operator:short": "USPS", "operator:type": "public", "operator:wikidata": "Q668687", "ref": "1823500045"}, "type": "Feature"}
{"dataset_attributes": {"@spider": "usps_collection_boxes", "spider:collection_time": "2023-09-07T08:24:46.282741"}, "geometry": {"coordinates": [-75.9963366, 40.8982], "type": "Point"}, "id": "Zh9LvPUsDDnpE46oB9hQCriX7Mo=", "properties": {"@spider": "usps_collection_boxes", "addr:city": "MCADOO", "addr:country": "US", "addr:full": "318 S HANCOCK ST", "addr:postcode": "18237", "addr:state": "PA", "amenity": "post_box", "brand": "United States Postal Service", "brand:wikidata": "Q668687", "collection_times": "Mo-Sa 14:45", "name": "USPS COLLECTION BOX - BLUE BOX", "note": "ON 12/24 AND 12/31, THIS BOX MAY BE COLLECTED AS EARLY AS 12 NOON.", "nsi_id": "unitedstatespostalservice-a77078", "operator": "United States Postal Service", "operator:short": "USPS", "operator:type": "public", "operator:wikidata": "Q668687", "ref": "1823700002"}, "type": "Feature"}
{"dataset_attributes": {"@spider": "usps_collection_boxes", "spider:collection_time": "2023-09-07T08:24:46.282741"}, "geometry": {"coordinates": [-75.995322, 40.9023], "type": "Point"}, "id": "hfmlC69ZXJcoaWtktRZuz4uwwE8=", "properties": {"@spider": "usps_collection_boxes", "addr:city": "MCADOO", "addr:country": "US", "addr:full": "126 W BLAINE ST", "addr:postcode": "18237", "addr:state": "PA", "amenity": "post_box", "brand": "United States Postal Service", "brand:wikidata": "Q668687", "collection_times": "Mo-Fr 16:30; Sa 11:45", "name": "USPS COLLECTION BOX - PO LOBBY", "note": "ON 12/24 AND 12/31, THIS BOX MAY BE COLLECTED AS EARLY AS 12 NOON.", "nsi_id": "unitedstatespostalservice-a77078", "operator": "United States Postal Service", "operator:short": "USPS", "operator:type": "public", "operator:wikidata": "Q668687", "ref": "1823700015"}, "type": "Feature"}
{"dataset_attributes": {"@spider": "usps_collection_boxes", "spider:collection_time": "2023-09-07T08:24:46.282741"}, "geometry": {"coordinates": [-75.995803503, 40.902318631], "type": "Point"}, "id": "FYW6O3qf4qNCmgib8r9UM_Qd7G8=", "properties": {"@spider": "usps_collection_boxes", "addr:city": "MCADOO", "addr:country": "US", "addr:full": "126 W BLAINE ST", "addr:postcode": "18237", "addr:state": "PA", "amenity": "post_box", "brand": "United States Postal Service", "brand:wikidata": "Q668687", "collection_times": "Mo-Fr 16:00; Sa 11:30", "name": "USPS COLLECTION BOX - PO LOBBY", "note": "ON 12/24 AND 12/31, THIS BOX MAY BE COLLECTED AS EARLY AS 12 NOON.", "nsi_id": "unitedstatespostalservice-a77078", "operator": "United States Postal Service", "operator:short": "USPS", "operator:type": "public", "operator:wikidata": "Q668687", "ref": "1823700017"}, "type": "Feature"}
{"dataset_attributes": {"@spider": "usps_collection_boxes", "spider:collection_time": "2023-09-07T08:24:46.282741"}, "geometry": {"coordinates": [-75.98329, 40.988902], "type": "Point"}, "id": "q-RiOzXZipP6dYpbwIdWIQ2sy2g=", "properties": {"@spider": "usps_collection_boxes", "addr:city": "MILNESVILLE", "addr:country": "US", "addr:full": "1620 N CHURCH ST", "addr:postcode": "18239", "addr:state": "PA", "amenity": "post_box", "brand": "United States Postal Service", "brand:wikidata": "Q668687", "collection_times": "Mo-Fr 16:00; Sa 09:30", "name": "USPS COLLECTION BOX - BLUE BOX", "note": "ON 12/24 AND 12/31, THIS BOX MAY BE COLLECTED AS EARLY AS 12 NOON.", "nsi_id": "unitedstatespostalservice-a77078", "operator": "United States Postal Service", "operator:short": "USPS", "operator:type": "public", "operator:wikidata": "Q668687", "ref": "1823900001"}, "type": "Feature"}
{"dataset_attributes": {"@spider": "usps_collection_boxes", "spider:collection_time": "2023-09-07T08:24:46.282741"}, "geometry": {"coordinates": [-75.982337, 40.988368], "type": "Point"}, "id": "qYxkfLmVSHI80TXMNTVP5J2q72c=", "properties": {"@spider": "usps_collection_boxes", "addr:city": "MILNESVILLE", "addr:country": "US", "addr:full": "1620 N CHURCH ST", "addr:postcode": "18239", "addr:state": "PA", "amenity": "post_box", "brand": "United States Postal Service", "brand:wikidata": "Q668687", "collection_times": "Mo-Fr 16:00; Sa 09:30", "name": "USPS COLLECTION BOX - PO LOBBY", "note": "ON 12/24 AND 12/31, THIS BOX MAY BE COLLECTED AS EARLY AS 12 NOON.", "nsi_id": "unitedstatespostalservice-a77078", "operator": "United States Postal Service", "operator:short": "USPS", "operator:type": "public", "operator:wikidata": "Q668687", "ref": "1823900002"}, "type": "Feature"}
{"dataset_attributes": {"@spider": "usps_collection_boxes", "spider:collection_time": "2023-09-07T08:24:46.282741"}, "geometry": {"coordinates": [-75.982537699, 40.988940517], "type": "Point"}, "id": "uCpVZGl0Bf3cKPX4qXMB-jsQlwE=", "properties": {"@spider": "usps_collection_boxes", "addr:city": "MILNESVILLE", "addr:country": "US", "addr:full": "1620 N CHURCH ST", "addr:postcode": "18239", "addr:state": "PA", "amenity": "post_box", "brand": "United States Postal Service", "brand:wikidata": "Q668687", "collection_times": "Mo-Fr 16:15; Sa 09:30", "name": "USPS COLLECTION BOX - PO LOBBY", "note": "ON 12/24 AND 12/31, THIS BOX MAY BE COLLECTED AS EARLY AS 12 NOON.", "nsi_id": "unitedstatespostalservice-a77078", "operator": "United States Postal Service", "operator:short": "USPS", "operator:type": "public", "operator:wikidata": "Q668687", "ref": "1823900004"}, "type": "Feature"}
{"dataset_attributes": {"@spider": "usps_collection_boxes", "spider:collection_time": "2023-09-07T08:24:46.282741"}, "geometry": {"coordinates": [-75.8128799, 40.863629], "type": "Point"}, "id": "qWOlbKHBauFN96nJf6fSvOME5yE=", "properties": {"@spider": "usps_collection_boxes", "addr:city": "NESQUEHONING", "addr:country": "US", "addr:full": "83 W CATAWISSA ST", "addr:postcode": "18240", "addr:state": "PA", "amenity": "post_box", "brand": "United States Postal Service", "brand:wikidata": "Q668687", "collection_times": "Mo-Sa 12:45", "name": "USPS COLLECTION BOX - BLUE BOX", "note": "ON 12/24 AND 12/31, THIS BOX MAY BE COLLECTED AS EARLY AS 12 NOON.", "nsi_id": "unitedstatespostalservice-a77078", "operator": "United States Postal Service", "operator:short": "USPS", "operator:type": "public", "operator:wikidata": "Q668687", "ref": "1824000013"}, "type": "Feature"}
{"dataset_attributes": {"@spider": "usps_collection_boxes", "spider:collection_time": "2023-09-07T08:24:46.282741"}, "geometry": {"coordinates": [-75.816094, 40.862953], "type": "Point"}, "id": "2RwAuIQr9WyZpDqx4Bln3kx9Asc=", "properties": {"@spider": "usps_collection_boxes", "addr:city": "NESQUEHONING", "addr:country": "US", "addr:full": "300 W CATAWISSA ST", "addr:postcode": "18240", "addr:state": "PA", "amenity": "post_box", "brand": "United States Postal Service", "brand:wikidata": "Q668687", "collection_times": "Mo-Fr 16:30; Sa 15:45", "name": "USPS COLLECTION BOX - BLUE BOX", "note": "ON 12/24 AND 12/31, THIS BOX MAY BE COLLECTED AS EARLY AS 12 NOON.", "nsi_id": "unitedstatespostalservice-a77078", "operator": "United States Postal Service", "operator:short": "USPS", "operator:type": "public", "operator:wikidata": "Q668687", "ref": "1824000015"}, "type": "Feature"}
{"dataset_attributes": {"@spider": "usps_collection_boxes", "spider:collection_time": "2023-09-07T08:24:46.282741"}, "geometry": {"coordinates": [-75.81597, 40.862954], "type": "Point"}, "id": "GwUEEapHFCRSUvDT8pZHMgeN34s=", "properties": {"@spider": "usps_collection_boxes", "addr:city": "NESQUEHONING", "addr:country": "US", "addr:full": "300 W CATAWISSA ST", "addr:postcode": "18240", "addr:state": "PA", "amenity": "post_box", "brand": "United States Postal Service", "brand:wikidata": "Q668687", "collection_times": "Mo-Fr 16:30; Sa 15:45", "name": "USPS COLLECTION BOX - PO LOBBY", "note": "ON 12/24 AND 12/31, THIS BOX MAY BE COLLECTED AS EARLY AS 12 NOON.", "nsi_id": "unitedstatespostalservice-a77078", "operator": "United States Postal Service", "operator:short": "USPS", "operator:type": "public", "operator:wikidata": "Q668687", "ref": "1824000018"}, "type": "Feature"}
{"dataset_attributes": {"@spider": "usps_collection_boxes", "spider:collection_time": "2023-09-07T08:24:46.282741"}, "geometry": {"coordinates": [-75.8181969, 40.859951], "type": "Point"}, "id": "HescdeusEW2hIQxnoeI1lf2YlW4=", "properties": {"@spider": "usps_collection_boxes", "addr:city": "NESQUEHONING", "addr:country": "US", "addr:full": "184 MARKET ST", "addr:postcode": "18240", "addr:state": "PA", "amenity": "post_box", "brand": "United States Postal Service", "brand:wikidata": "Q668687", "collection_times": "Mo-Sa 09:30", "name": "USPS COLLECTION BOX - BLUE BOX", "nsi_id": "unitedstatespostalservice-a77078", "operator": "United States Postal Service", "operator:short": "USPS", "operator:type": "public", "operator:wikidata": "Q668687", "ref": "1824000020"}, "type": "Feature"}
{"dataset_attributes": {"@spider": "usps_collection_boxes", "spider:collection_time": "2023-09-07T08:24:46.282741"}, "geometry": {"coordinates": [-75.816089648, 40.862943092], "type": "Point"}, "id": "iMR5If1_x91DektonJonl3b26nY=", "properties": {"@spider": "usps_collection_boxes", "addr:city": "NESQUEHONING", "addr:country": "US", "addr:full": "300 W CATAWISSA ST", "addr:postcode": "18240", "addr:state": "PA", "amenity": "post_box", "brand": "United States Postal Service", "brand:wikidata": "Q668687", "collection_times": "Mo-Fr 16:30; Sa 12:00", "name": "USPS COLLECTION BOX - PO LOBBY", "note": "ON 12/24 AND 12/31, THIS BOX MAY BE COLLECTED AS EARLY AS 12 NOON.", "nsi_id": "unitedstatespostalservice-a77078", "operator": "United States Postal Service", "operator:short": "USPS", "operator:type": "public", "operator:wikidata": "Q668687", "ref": "1824000023"}, "type": "Feature"}
{"dataset_attributes": {"@spider": "usps_collection_boxes", "spider:collection_time": "2023-09-07T08:24:46.282741"}, "geometry": {"coordinates": [-76.16768, 40.937444], "type": "Point"}, "id": "sKrPspIPZAINdB9Q6xjgmn1zQvY=", "properties": {"@spider": "usps_collection_boxes", "addr:city": "NUREMBURG", "addr:country": "US", "addr:full": "200 MAHONY ST", "addr:postcode": "18241", "addr:state": "PA", "amenity": "post_box", "brand": "United States Postal Service", "brand:wikidata": "Q668687", "collection_times": "Mo-Fr 15:30; Sa 10:30", "name": "USPS COLLECTION BOX - BLUE BOX", "note": "ON 12/24 AND 12/31, THIS BOX MAY BE COLLECTED AS EARLY AS 12 NOON.", "nsi_id": "unitedstatespostalservice-a77078", "operator": "United States Postal Service", "operator:short": "USPS", "operator:type": "public", "operator:wikidata": "Q668687", "ref": "1824100001"}, "type": "Feature"}
{"dataset_attributes": {"@spider": "usps_collection_boxes", "spider:collection_time": "2023-09-07T08:24:46.282741"}, "geometry": {"coordinates": [-76.170615, 40.938678], "type": "Point"}, "id": "GYvb4d6HOThXqKWvkL4kE-dQzYY=", "properties": {"@spider": "usps_collection_boxes", "addr:city": "NUREMBURG", "addr:country": "US", "addr:full": "200 MAHONY ST", "addr:postcode": "18241", "addr:state": "PA", "amenity": "post_box", "brand": "United States Postal Service", "brand:wikidata": "Q668687", "collection_times": "Mo-Fr 15:30; Sa 10:30", "name": "USPS COLLECTION BOX - PO LOBBY", "note": "ON 12/24 AND 12/31, THIS BOX MAY BE COLLECTED AS EARLY AS 12 NOON.", "nsi_id": "unitedstatespostalservice-a77078", "operator": "United States Postal Service", "operator:short": "USPS", "operator:type": "public", "operator:wikidata": "Q668687", "ref": "1824100002"}, "type": "Feature"}
{"dataset_attributes": {"@spider": "usps_collection_boxes", "spider:collection_time": "2023-09-07T08:24:46.282741"}, "geometry": {"coordinates": [-76.171409013, 40.939271982], "type": "Point"}, "id": "0ISaYelkJORfGiaLX51_J9z8JPw=", "properties": {"@spider": "usps_collection_boxes", "addr:city": "NUREMBURG", "addr:country": "US", "addr:full": "200 MAHANOY ST", "addr:postcode": "18241", "addr:state": "PA", "amenity": "post_box", "brand": "United States Postal Service", "brand:wikidata": "Q668687", "collection_times": "Mo-Fr 15:30; Sa 11:45", "name": "USPS COLLECTION BOX - PO LOBBY", "note": "ON 12/24 AND 12/31, THIS BOX MAY BE COLLECTED AS EARLY AS 12 NOON.", "nsi_id": "unitedstatespostalservice-a77078", "operator": "United States Postal Service", "operator:short": "USPS", "operator:type": "public", "operator:wikidata": "Q668687", "ref": "1824100004"}, "type": "Feature"}
{"dataset_attributes": {"@spider": "usps_collection_boxes", "spider:collection_time": "2023-09-07T08:24:46.282741"}, "geometry": {"coordinates": [-76.124472, 40.907003], "type": "Point"}, "id": "AVShw2YMqKPnWYHZufESJh0404Y=", "properties": {"@spider": "usps_collection_boxes", "addr:city": "ONEIDA", "addr:country": "US", "addr:full": "172 FIRST ST", "addr:postcode": "18242", "addr:state": "PA", "amenity": "post_box", "brand": "United States Postal Service", "brand:wikidata": "Q668687", "collection_times": "Mo-Fr 14:45; Sa 10:00", "name": "USPS COLLECTION BOX - BLUE BOX", "note": "ON 12/24 AND 12/31, THIS BOX MAY BE COLLECTED AS EARLY AS 12 NOON.", "nsi_id": "unitedstatespostalservice-a77078", "operator": "United States Postal Service", "operator:short": "USPS", "operator:type": "public", "operator:wikidata": "Q668687", "ref": "1824200001"}, "type": "Feature"}
{"dataset_attributes": {"@spider": "usps_collection_boxes", "spider:collection_time": "2023-09-07T08:24:46.282741"}, "geometry": {"coordinates": [-76.124425, 40.906968], "type": "Point"}, "id": "mv6EBphytgldPk4tFGv8G22iMZM=", "properties": {"@spider": "usps_collection_boxes", "addr:city": "ONEIDA", "addr:country": "US", "addr:full": "172 FIRST ST", "addr:postcode": "18242", "addr:state": "PA", "amenity": "post_box", "brand": "United States Postal Service", "brand:wikidata": "Q668687", "collection_times": "Mo-Fr 15:15; Sa 10:00", "name": "USPS COLLECTION BOX - PO LOBBY", "note": "ON 12/24 AND 12/31, THIS BOX MAY BE COLLECTED AS EARLY AS 12 NOON.", "nsi_id": "unitedstatespostalservice-a77078", "operator": "United States Postal Service", "operator:short": "USPS", "operator:type": "public", "operator:wikidata": "Q668687", "ref": "1824200002"}, "type": "Feature"}
{"dataset_attributes": {"@spider": "usps_collection_boxes", "spider:collection_time": "2023-09-07T08:24:46.282741"}, "geometry": {"coordinates": [-76.124328578, 40.906597432], "type": "Point"}, "id": "SZT8qMquALSHNO4WAw6Sl-1RABA=", "properties": {"@spider": "usps_collection_boxes", "addr:city": "ONEIDA", "addr:country": "US", "addr:full": "172 FIRST ST", "addr:postcode": "18242", "addr:state": "PA", "amenity": "post_box", "brand": "United States Postal Service", "brand:wikidata": "Q668687", "collection_times": "Mo-Fr 15:45; Sa 12:15", "name": "USPS COLLECTION BOX - PO LOBBY", "note": "ON 12/24 AND 12/31, THIS BOX MAY BE COLLECTED AS EARLY AS 12 NOON.", "nsi_id": "unitedstatespostalservice-a77078", "operator": "United States Postal Service", "operator:short": "USPS", "operator:type": "public", "operator:wikidata": "Q668687", "ref": "1824200004"}, "type": "Feature"}
{"dataset_attributes": {"@spider": "usps_collection_boxes", "spider:collection_time": "2023-09-07T08:24:46.282741"}, "geometry": {"coordinates": [-75.673406, 40.818731], "type": "Point"}, "id": "qbC1MiwG0wsqxTwKT6JqR-CMHXI=", "properties": {"@spider": "usps_collection_boxes", "addr:city": "PARRYVILLE", "addr:country": "US", "addr:full": "177 MAIN ST", "addr:postcode": "18244", "addr:state": "PA", "amenity": "post_box", "brand": "United States Postal Service", "brand:wikidata": "Q668687", "collection_times": "Mo-Fr 16:30; Sa 09:30", "name": "USPS COLLECTION BOX - BLUE BOX", "note": "ON 12/24 AND 12/31, THIS BOX MAY BE COLLECTED AS EARLY AS 12 NOON.", "nsi_id": "unitedstatespostalservice-a77078", "operator": "United States Postal Service", "operator:short": "USPS", "operator:type": "public", "operator:wikidata": "Q668687", "ref": "1824400001"}, "type": "Feature"}
{"dataset_attributes": {"@spider": "usps_collection_boxes", "spider:collection_time": "2023-09-07T08:24:46.282741"}, "geometry": {"coordinates": [-75.673294849, 40.818619382], "type": "Point"}, "id": "FJIET36bMftXQ56KYFAujFycQ7k=", "properties": {"@spider": "usps_collection_boxes", "addr:city": "PARRYVILLE", "addr:country": "US", "addr:full": "177 MAIN ST", "addr:postcode": "18244", "addr:state": "PA", "amenity": "post_box", "brand": "United States Postal Service", "brand:wikidata": "Q668687", "collection_times": "Mo-Fr 16:30; Sa 10:00", "name": "USPS COLLECTION BOX - PO LOBBY", "note": "ON 12/24 AND 12/31, THIS BOX MAY BE COLLECTED AS EARLY AS 12 NOON.", "nsi_id": "unitedstatespostalservice-a77078", "operator": "United States Postal Service", "operator:short": "USPS", "operator:type": "public", "operator:wikidata": "Q668687", "ref": "1824400003"}, "type": "Feature"}
{"dataset_attributes": {"@spider": "usps_collection_boxes", "spider:collection_time": "2023-09-07T08:24:46.282741"}, "geometry": {"coordinates": [-76.036304, 40.851786], "type": "Point"}, "id": "0vSpVUeR3fpD6PGk_qr72uouATc=", "properties": {"@spider": "usps_collection_boxes", "addr:city": "QUAKAKE", "addr:country": "US", "addr:full": "32 HECKMAN ST", "addr:postcode": "18245", "addr:state": "PA", "amenity": "post_box", "brand": "United States Postal Service", "brand:wikidata": "Q668687", "collection_times": "Mo-Fr 16:00; Sa 09:15", "name": "USPS COLLECTION BOX - BLUE BOX", "note": "ON 12/24 AND 12/31, THIS BOX MAY BE COLLECTED AS EARLY AS 12 NOON.", "nsi_id": "unitedstatespostalservice-a77078", "operator": "United States Postal Service", "operator:short": "USPS", "operator:type": "public", "operator:wikidata": "Q668687", "ref": "1824500001"}, "type": "Feature"}
{"dataset_attributes": {"@spider": "usps_collection_boxes", "spider:collection_time": "2023-09-07T08:24:46.282741"}, "geometry": {"coordinates": [-76.036216, 40.851836], "type": "Point"}, "id": "cATQ6G4AQ89NElireqfGsTOYCyQ=", "properties": {"@spider": "usps_collection_boxes", "addr:city": "QUAKAKE", "addr:country": "US", "addr:full": "32 HECKMAN ST", "addr:postcode": "18245", "addr:state": "PA", "amenity": "post_box", "brand": "United States Postal Service", "brand:wikidata": "Q668687", "collection_times": "Mo-Fr 16:00; Sa 09:15", "name": "USPS COLLECTION BOX - PO LOBBY", "note": "ON 12/24 AND 12/31, THIS BOX MAY BE COLLECTED AS EARLY AS 12 NOON.", "nsi_id": "unitedstatespostalservice-a77078", "operator": "United States Postal Service", "operator:short": "USPS", "operator:type": "public", "operator:wikidata": "Q668687", "ref": "1824500002"}, "type": "Feature"}
{"dataset_attributes": {"@spider": "usps_collection_boxes", "spider:collection_time": "2023-09-07T08:24:46.282741"}, "geometry": {"coordinates": [-76.035786732, 40.851924959], "type": "Point"}, "id": "RPWy7DwdCBPIh-gwbjvuzGMl9R4=", "properties": {"@spider": "usps_collection_boxes", "addr:city": "QUAKAKE", "addr:country": "US", "addr:full": "32 HECKMAN ST STE 1", "addr:postcode": "18245", "addr:state": "PA", "amenity": "post_box", "brand": "United States Postal Service", "brand:wikidata": "Q668687", "collection_times": "Mo-Fr 16:00; Sa 10:00", "name": "USPS COLLECTION BOX - PO LOBBY", "note": "ON 12/24 AND 12/31, THIS BOX MAY BE COLLECTED AS EARLY AS 12 NOON.", "nsi_id": "unitedstatespostalservice-a77078", "operator": "United States Postal Service", "operator:short": "USPS", "operator:type": "public", "operator:wikidata": "Q668687", "ref": "1824500004"}, "type": "Feature"}
{"dataset_attributes": {"@spider": "usps_collection_boxes", "spider:collection_time": "2023-09-07T08:24:46.282741"}, "geometry": {"coordinates": [-76.18666, 40.965644], "type": "Point"}, "id": "guf92xXPXq99pHyfPWRJF0btbXQ=", "properties": {"@spider": "usps_collection_boxes", "addr:city": "ROCK GLEN", "addr:country": "US", "addr:full": "1289 MOUNTAIN ST", "addr:postcode": "18246", "addr:state": "PA", "amenity": "post_box", "brand": "United States Postal Service", "brand:wikidata": "Q668687", "collection_times": "Mo-Fr 16:00; Sa 12:00", "name": "USPS COLLECTION BOX - BLUE BOX", "note": "ON 12/24 AND 12/31, THIS BOX MAY BE COLLECTED AS EARLY AS 12 NOON.", "nsi_id": "unitedstatespostalservice-a77078", "operator": "United States Postal Service", "operator:short": "USPS", "operator:type": "public", "operator:wikidata": "Q668687", "ref": "1824600001"}, "type": "Feature"}
{"dataset_attributes": {"@spider": "usps_collection_boxes", "spider:collection_time": "2023-09-07T08:24:46.282741"}, "geometry": {"coordinates": [-76.18666, 40.965644], "type": "Point"}, "id": "xSsio4Nxro0_3YAhqz1-KHvGCrM=", "properties": {"@spider": "usps_collection_boxes", "addr:city": "ROCK GLEN", "addr:country": "US", "addr:full": "9999 MOUNTAIN ST", "addr:postcode": "18246", "addr:state": "PA", "amenity": "post_box", "brand": "United States Postal Service", "brand:wikidata": "Q668687", "collection_times": "Mo-Fr 16:00; Sa 12:00", "name": "USPS COLLECTION BOX - PO LOBBY", "note": "ON 12/24 AND 12/31, THIS BOX MAY BE COLLECTED AS EARLY AS 12 NOON.", "nsi_id": "unitedstatespostalservice-a77078", "operator": "United States Postal Service", "operator:short": "USPS", "operator:type": "public", "operator:wikidata": "Q668687", "ref": "1824600002"}, "type": "Feature"}
{"dataset_attributes": {"@spider": "usps_collection_boxes", "spider:collection_time": "2023-09-07T08:24:46.282741"}, "geometry": {"coordinates": [-76.186569723, 40.965555413], "type": "Point"}, "id": "FZQEWhyuYeFbTEY375N1I0nCatc=", "properties": {"@spider": "usps_collection_boxes", "addr:city": "ROCK GLEN", "addr:country": "US", "addr:full": "1289 MOUNTAIN ST", "addr:postcode": "18246", "addr:state": "PA", "amenity": "post_box", "brand": "United States Postal Service", "brand:wikidata": "Q668687", "collection_times": "Mo-Fr 16:00; Sa 12:30", "name": "USPS COLLECTION BOX - PO LOBBY", "note": "ON 12/24 AND 12/31, THIS BOX MAY BE COLLECTED AS EARLY AS 12 NOON.", "nsi_id": "unitedstatespostalservice-a77078", "operator": "United States Postal Service", "operator:short": "USPS", "operator:type": "public", "operator:wikidata": "Q668687", "ref": "1824600004"}, "type": "Feature"}
{"dataset_attributes": {"@spider": "usps_collection_boxes", "spider:collection_time": "2023-09-07T08:24:46.282741"}, "geometry": {"coordinates": [-76.006407, 41.028023], "type": "Point"}, "id": "MhasCorlCjlXNG4RlwQuWv56acc=", "properties": {"@spider": "usps_collection_boxes", "addr:city": "SAINT JOHNS", "addr:country": "US", "addr:full": "784 SAINT JOHNS RD", "addr:postcode": "18247", "addr:state": "PA", "amenity": "post_box", "brand": "United States Postal Service", "brand:wikidata": "Q668687", "collection_times": "Mo-Fr 15:30; Sa 11:45", "name": "USPS COLLECTION BOX - BLUE BOX", "note": "ON 12/24 AND 12/31, THIS BOX MAY BE COLLECTED AS EARLY AS 12 NOON.", "nsi_id": "unitedstatespostalservice-a77078", "operator": "United States Postal Service", "operator:short": "USPS", "operator:type": "public", "operator:wikidata": "Q668687", "ref": "1824700001"}, "type": "Feature"}
{"dataset_attributes": {"@spider": "usps_collection_boxes", "spider:collection_time": "2023-09-07T08:24:46.282741"}, "geometry": {"coordinates": [-76.006308, 41.028032], "type": "Point"}, "id": "CNBg8NTYl8r5w_wSIl4R2xAJN3s=", "properties": {"@spider": "usps_collection_boxes", "addr:city": "SAINT JOHNS", "addr:country": "US", "addr:full": "784 SAINT JOHNS RD", "addr:postcode": "18247", "addr:state": "PA", "amenity": "post_box", "brand": "United States Postal Service", "brand:wikidata": "Q668687", "collection_times": "Mo-Fr 15:30; Sa 11:45", "name": "USPS COLLECTION BOX - PO LOBBY", "note": "ON 12/24 AND 12/31, THIS BOX MAY BE COLLECTED AS EARLY AS 12 NOON.", "nsi_id": "unitedstatespostalservice-a77078", "operator": "United States Postal Service", "operator:short": "USPS", "operator:type": "public", "operator:wikidata": "Q668687", "ref": "1824700002"}, "type": "Feature"}
{"dataset_attributes": {"@spider": "usps_collection_boxes", "spider:collection_time": "2023-09-07T08:24:46.282741"}, "geometry": {"coordinates": [-76.03066993, 41.07228408], "type": "Point"}, "id": "VZTDNkErj1bz8VoudPTK4DRTIck=", "properties": {"@spider": "usps_collection_boxes", "addr:city": "SAINT JOHNS", "addr:country": "US", "addr:full": "784 SAINT JOHNS RD", "addr:postcode": "18247", "addr:state": "PA", "amenity": "post_box", "brand": "United States Postal Service", "brand:wikidata": "Q668687", "collection_times": "Mo-Fr 15:30; Sa 12:00", "name": "USPS COLLECTION BOX - PO LOBBY", "note": "ON 12/24 AND 12/31, THIS BOX MAY BE COLLECTED AS EARLY AS 12 NOON.", "nsi_id": "unitedstatespostalservice-a77078", "operator": "United States Postal Service", "operator:short": "USPS", "operator:type": "public", "operator:wikidata": "Q668687", "ref": "1824700004"}, "type": "Feature"}
{"dataset_attributes": {"@spider": "usps_collection_boxes", "spider:collection_time": "2023-09-07T08:24:46.282741"}, "geometry": {"coordinates": [-76.117686, 40.897414], "type": "Point"}, "id": "l2tDoFMdg6PlO-_rOvTGRaRUGEg=", "properties": {"@spider": "usps_collection_boxes", "addr:city": "SHEPPTON", "addr:country": "US", "addr:full": "928 CENTER ST", "addr:postcode": "18248", "addr:state": "PA", "amenity": "post_box", "brand": "United States Postal Service", "brand:wikidata": "Q668687", "collection_times": "Mo-Fr 11:00; Sa 09:45", "name": "USPS COLLECTION BOX - BLUE BOX", "nsi_id": "unitedstatespostalservice-a77078", "operator": "United States Postal Service", "operator:short": "USPS", "operator:type": "public", "operator:wikidata": "Q668687", "ref": "1824800001"}, "type": "Feature"}
{"dataset_attributes": {"@spider": "usps_collection_boxes", "spider:collection_time": "2023-09-07T08:24:46.282741"}, "geometry": {"coordinates": [-76.11772, 40.897409], "type": "Point"}, "id": "aUr_vWHT-2m9cZqmCYLAHOWRITo=", "properties": {"@spider": "usps_collection_boxes", "addr:city": "SHEPPTON", "addr:country": "US", "addr:full": "928 CENTER ST", "addr:postcode": "18248", "addr:state": "PA", "amenity": "post_box", "brand": "United States Postal Service", "brand:wikidata": "Q668687", "collection_times": "Mo-Fr 11:00; Sa 09:45", "name": "USPS COLLECTION BOX - PO LOBBY", "nsi_id": "unitedstatespostalservice-a77078", "operator": "United States Postal Service", "operator:short": "USPS", "operator:type": "public", "operator:wikidata": "Q668687", "ref": "1824800002"}, "type": "Feature"}
{"dataset_attributes": {"@spider": "usps_collection_boxes", "spider:collection_time": "2023-09-07T08:24:46.282741"}, "geometry": {"coordinates": [-76.117666418, 40.897328574], "type": "Point"}, "id": "GiRjQ3XI7V7y2msWNOI24qc3deE=", "properties": {"@spider": "usps_collection_boxes", "addr:city": "SHEPPTON", "addr:country": "US", "addr:full": "928 CENTER ST", "addr:postcode": "18248", "addr:state": "PA", "amenity": "post_box", "brand": "United States Postal Service", "brand:wikidata": "Q668687", "collection_times": "Mo-Fr 11:00; Sa 10:00", "name": "USPS COLLECTION BOX - PO LOBBY", "nsi_id": "unitedstatespostalservice-a77078", "operator": "United States Postal Service", "operator:short": "USPS", "operator:type": "public", "operator:wikidata": "Q668687", "ref": "1824800004"}, "type": "Feature"}
{"dataset_attributes": {"@spider": "usps_collection_boxes", "spider:collection_time": "2023-09-07T08:24:46.282741"}, "geometry": {"coordinates": [-76.094255, 40.968396], "type": "Point"}, "id": "-rP-WnEKDzm-2_OhYjXKAgudI1g=", "properties": {"@spider": "usps_collection_boxes", "addr:city": "SUGARLOAF", "addr:country": "US", "addr:full": "627 TOMHICKEN RD", "addr:postcode": "18249", "addr:state": "PA", "amenity": "post_box", "brand": "United States Postal Service", "brand:wikidata": "Q668687", "collection_times": "Mo-Fr 16:15; Sa 10:45", "name": "USPS COLLECTION BOX - BLUE BOX", "note": "ON 12/24 AND 12/31, THIS BOX MAY BE COLLECTED AS EARLY AS 12 NOON.", "nsi_id": "unitedstatespostalservice-a77078", "operator": "United States Postal Service", "operator:short": "USPS", "operator:type": "public", "operator:wikidata": "Q668687", "ref": "1824900001"}, "type": "Feature"}
{"dataset_attributes": {"@spider": "usps_collection_boxes", "spider:collection_time": "2023-09-07T08:24:46.282741"}, "geometry": {"coordinates": [-76.0706740125, 40.9966497955], "type": "Point"}, "id": "RTmpeyXwb25b3nmBviBQt9-13lg=", "properties": {"@spider": "usps_collection_boxes", "addr:city": "SUGARLOAF", "addr:country": "US", "addr:full": "669 STATE ROUTE 93", "addr:postcode": "18249", "addr:state": "PA", "amenity": "post_box", "brand": "United States Postal Service", "brand:wikidata": "Q668687", "collection_times": "Mo-Sa 09:00", "name": "USPS COLLECTION BOX - BLUE BOX", "nsi_id": "unitedstatespostalservice-a77078", "operator": "United States Postal Service", "operator:short": "USPS", "operator:type": "public", "operator:wikidata": "Q668687", "ref": "1824900002"}, "type": "Feature"}
{"dataset_attributes": {"@spider": "usps_collection_boxes", "spider:collection_time": "2023-09-07T08:24:46.282741"}, "geometry": {"coordinates": [-76.094143, 40.968392], "type": "Point"}, "id": "HvbJl2SLfTsmXhv_r08B2zVeG2I=", "properties": {"@spider": "usps_collection_boxes", "addr:city": "SUGARLOAF", "addr:country": "US", "addr:full": "627 TOMHICKEN RD", "addr:postcode": "18249", "addr:state": "PA", "amenity": "post_box", "brand": "United States Postal Service", "brand:wikidata": "Q668687", "collection_times": "Mo-Fr 16:15; Sa 10:45", "name": "USPS COLLECTION BOX - PO LOBBY", "note": "ON 12/24 AND 12/31, THIS BOX MAY BE COLLECTED AS EARLY AS 12 NOON.", "nsi_id": "unitedstatespostalservice-a77078", "operator": "United States Postal Service", "operator:short": "USPS", "operator:type": "public", "operator:wikidata": "Q668687", "ref": "1824900003"}, "type": "Feature"}
{"dataset_attributes": {"@spider": "usps_collection_boxes", "spider:collection_time": "2023-09-07T08:24:46.282741"}, "geometry": {"coordinates": [-76.0938736, 40.968542872], "type": "Point"}, "id": "UPp1pWViIjlh55EP814kfPQxjfs=", "properties": {"@spider": "usps_collection_boxes", "addr:city": "SUGARLOAF", "addr:country": "US", "addr:full": "627 TOMHICKEN RD", "addr:postcode": "18249", "addr:state": "PA", "amenity": "post_box", "brand": "United States Postal Service", "brand:wikidata": "Q668687", "collection_times": "Mo-Fr 16:15; Sa 11:00", "name": "USPS COLLECTION BOX - PO LOBBY", "note": "ON 12/24 AND 12/31, THIS BOX MAY BE COLLECTED AS EARLY AS 12 NOON.", "nsi_id": "unitedstatespostalservice-a77078", "operator": "United States Postal Service", "operator:short": "USPS", "operator:type": "public", "operator:wikidata": "Q668687", "ref": "1824900005"}, "type": "Feature"}
{"dataset_attributes": {"@spider": "usps_collection_boxes", "spider:collection_time": "2023-09-07T08:24:46.282741"}, "geometry": {"coordinates": [-75.8711033, 40.825015], "type": "Point"}, "id": "GnKQbvNMmzGpQ3RaSH09oNSO4Bc=", "properties": {"@spider": "usps_collection_boxes", "addr:city": "SUMMIT HILL", "addr:country": "US", "addr:full": "2 E LUDLOW ST", "addr:postcode": "18250", "addr:state": "PA", "amenity": "post_box", "brand": "United States Postal Service", "brand:wikidata": "Q668687", "collection_times": "Mo-Fr 15:00; Sa 14:30", "name": "USPS COLLECTION BOX - BLUE BOX", "note": "ON 12/24 AND 12/31, THIS BOX MAY BE COLLECTED AS EARLY AS 12 NOON.", "nsi_id": "unitedstatespostalservice-a77078", "operator": "United States Postal Service", "operator:short": "USPS", "operator:type": "public", "operator:wikidata": "Q668687", "ref": "1825000005"}, "type": "Feature"}
{"dataset_attributes": {"@spider": "usps_collection_boxes", "spider:collection_time": "2023-09-07T08:24:46.282741"}, "geometry": {"coordinates": [-75.873478, 40.826441], "type": "Point"}, "id": "qRRK4b1BPOYmMVAWZKnbBfD5HqQ=", "properties": {"@spider": "usps_collection_boxes", "addr:city": "SUMMIT HILL", "addr:country": "US", "addr:full": "200 N MARKET ST", "addr:postcode": "18250", "addr:state": "PA", "amenity": "post_box", "brand": "United States Postal Service", "brand:wikidata": "Q668687", "collection_times": "Mo-Fr 16:30; Sa 15:30", "name": "USPS COLLECTION BOX - BLUE BOX", "note": "ON 12/24 AND 12/31, THIS BOX MAY BE COLLECTED AS EARLY AS 12 NOON.", "nsi_id": "unitedstatespostalservice-a77078", "operator": "United States Postal Service", "operator:short": "USPS", "operator:type": "public", "operator:wikidata": "Q668687", "ref": "1825000012"}, "type": "Feature"}
{"dataset_attributes": {"@spider": "usps_collection_boxes", "spider:collection_time": "2023-09-07T08:24:46.282741"}, "geometry": {"coordinates": [-75.873478, 40.826441], "type": "Point"}, "id": "UJ6pe8NY4zqRVzHbFjbV-DiUPHI=", "properties": {"@spider": "usps_collection_boxes", "addr:city": "SUMMIT HILL", "addr:country": "US", "addr:full": "200 N MARKET ST", "addr:postcode": "18250", "addr:state": "PA", "amenity": "post_box", "brand": "United States Postal Service", "brand:wikidata": "Q668687", "collection_times": "Mo-Fr 16:30; Sa 15:30", "name": "USPS COLLECTION BOX - PO LOBBY", "note": "ON 12/24 AND 12/31, THIS BOX MAY BE COLLECTED AS EARLY AS 12 NOON.", "nsi_id": "unitedstatespostalservice-a77078", "operator": "United States Postal Service", "operator:short": "USPS", "operator:type": "public", "operator:wikidata": "Q668687", "ref": "1825000015"}, "type": "Feature"}
{"dataset_attributes": {"@spider": "usps_collection_boxes", "spider:collection_time": "2023-09-07T08:24:46.282741"}, "geometry": {"coordinates": [-75.873565873, 40.826671387], "type": "Point"}, "id": "j-vU0lDuprfVAh92XzI4kx8pQYQ=", "properties": {"@spider": "usps_collection_boxes", "addr:city": "SUMMIT HILL", "addr:country": "US", "addr:full": "200 N MARKET ST", "addr:postcode": "18250", "addr:state": "PA", "amenity": "post_box", "brand": "United States Postal Service", "brand:wikidata": "Q668687", "collection_times": "Mo-Fr 16:30; Sa 12:00", "name": "USPS COLLECTION BOX - PO LOBBY", "note": "ON 12/24 AND 12/31, THIS BOX MAY BE COLLECTED AS EARLY AS 12 NOON.", "nsi_id": "unitedstatespostalservice-a77078", "operator": "United States Postal Service", "operator:short": "USPS", "operator:type": "public", "operator:wikidata": "Q668687", "ref": "1825000017"}, "type": "Feature"}
{"dataset_attributes": {"@spider": "usps_collection_boxes", "spider:collection_time": "2023-09-07T08:24:46.282741"}, "geometry": {"coordinates": [-76.0753090275, 41.0007588177], "type": "Point"}, "id": "8n-BQSZUjH8DSGyPfCbjHKQW55Y=", "properties": {"@spider": "usps_collection_boxes", "addr:city": "SYBERTSVILLE", "addr:country": "US", "addr:full": "41 N MAIN ST", "addr:postcode": "18251", "addr:state": "PA", "amenity": "post_box", "brand": "United States Postal Service", "brand:wikidata": "Q668687", "collection_times": "Mo-Fr 16:15; Sa 10:30", "name": "USPS COLLECTION BOX - BLUE BOX", "note": "ON 12/24 AND 12/31, THIS BOX MAY BE COLLECTED AS EARLY AS 12 NOON.", "nsi_id": "unitedstatespostalservice-a77078", "operator": "United States Postal Service", "operator:short": "USPS", "operator:type": "public", "operator:wikidata": "Q668687", "ref": "1825100001"}, "type": "Feature"}
{"dataset_attributes": {"@spider": "usps_collection_boxes", "spider:collection_time": "2023-09-07T08:24:46.282741"}, "geometry": {"coordinates": [-76.0753090275, 41.0007588177], "type": "Point"}, "id": "u-6rSZg2zMk8Mf5UdIAfBYKbXN0=", "properties": {"@spider": "usps_collection_boxes", "addr:city": "SYBERTSVILLE", "addr:country": "US", "addr:full": "41 N MAIN ST", "addr:postcode": "18251", "addr:state": "PA", "amenity": "post_box", "brand": "United States Postal Service", "brand:wikidata": "Q668687", "collection_times": "Mo-Fr 16:15; Sa 10:30", "name": "USPS COLLECTION BOX - PO LOBBY", "note": "ON 12/24 AND 12/31, THIS BOX MAY BE COLLECTED AS EARLY AS 12 NOON.", "nsi_id": "unitedstatespostalservice-a77078", "operator": "United States Postal Service", "operator:short": "USPS", "operator:type": "public", "operator:wikidata": "Q668687", "ref": "1825100002"}, "type": "Feature"}
{"dataset_attributes": {"@spider": "usps_collection_boxes", "spider:collection_time": "2023-09-07T08:24:46.282741"}, "geometry": {"coordinates": [-75.882509009, 41.16400306], "type": "Point"}, "id": "bPkiK18VHSGHs_ijXMVkoIPrCLY=", "properties": {"@spider": "usps_collection_boxes", "addr:city": "SYBERTSVILLE", "addr:country": "US", "addr:full": "41 N MAIN ST", "addr:postcode": "18251", "addr:state": "PA", "amenity": "post_box", "brand": "United States Postal Service", "brand:wikidata": "Q668687", "collection_times": "Mo-Fr 16:15; Sa 10:30", "name": "USPS COLLECTION BOX - PO LOBBY", "note": "ON 12/24 AND 12/31, THIS BOX MAY BE COLLECTED AS EARLY AS 12 NOON.", "nsi_id": "unitedstatespostalservice-a77078", "operator": "United States Postal Service", "operator:short": "USPS", "operator:type": "public", "operator:wikidata": "Q668687", "ref": "1825100004"}, "type": "Feature"}
{"dataset_attributes": {"@spider": "usps_collection_boxes", "spider:collection_time": "2023-09-07T08:24:46.282741"}, "geometry": {"coordinates": [-75.9729249, 40.797069], "type": "Point"}, "id": "2bm9REsjjvY2O5kvbVknpfwQk28=", "properties": {"@spider": "usps_collection_boxes", "addr:city": "TAMAQUA", "addr:country": "US", "addr:full": "138 W BROAD ST", "addr:postcode": "18252", "addr:state": "PA", "amenity": "post_box", "brand": "United States Postal Service", "brand:wikidata": "Q668687", "collection_times": "Mo-Fr 15:00; Sa 10:30", "name": "USPS COLLECTION BOX - BLUE BOX", "note": "ON 12/24 AND 12/31, THIS BOX MAY BE COLLECTED AS EARLY AS 12 NOON.", "nsi_id": "unitedstatespostalservice-a77078", "operator": "United States Postal Service", "operator:short": "USPS", "operator:type": "public", "operator:wikidata": "Q668687", "ref": "1825200022"}, "type": "Feature"}
{"dataset_attributes": {"@spider": "usps_collection_boxes", "spider:collection_time": "2023-09-07T08:24:46.282741"}, "geometry": {"coordinates": [-75.9817576, 40.825742], "type": "Point"}, "id": "0Yj8cu9ce5CYch8UEeLUUoIs4NQ=", "properties": {"@spider": "usps_collection_boxes", "addr:city": "TAMAQUA", "addr:country": "US", "addr:full": "224 CLAREMONT AVE", "addr:postcode": "18252", "addr:state": "PA", "amenity": "post_box", "brand": "United States Postal Service", "brand:wikidata": "Q668687", "collection_times": "Mo-Sa 09:45", "name": "USPS COLLECTION BOX - BLUE BOX", "nsi_id": "unitedstatespostalservice-a77078", "operator": "United States Postal Service", "operator:short": "USPS", "operator:type": "public", "operator:wikidata": "Q668687", "ref": "1825200031"}, "type": "Feature"}
{"dataset_attributes": {"@spider": "usps_collection_boxes", "spider:collection_time": "2023-09-07T08:24:46.282741"}, "geometry": {"coordinates": [-75.9637633833, 40.797653518], "type": "Point"}, "id": "4G9mmSR3_PKFX6TZjlnyepCxqks=", "properties": {"@spider": "usps_collection_boxes", "addr:city": "TAMAQUA", "addr:country": "US", "addr:full": "399 E BROAD ST", "addr:postcode": "18252", "addr:state": "PA", "amenity": "post_box", "brand": "United States Postal Service", "brand:wikidata": "Q668687", "collection_times": "Mo-Fr 16:30; Sa 15:00", "name": "USPS COLLECTION BOX - BLUE BOX", "note": "ON 12/24 AND 12/31, THIS BOX MAY BE COLLECTED AS EARLY AS 12 NOON.", "nsi_id": "unitedstatespostalservice-a77078", "operator": "United States Postal Service", "operator:short": "USPS", "operator:type": "public", "operator:wikidata": "Q668687", "ref": "1825200032"}, "type": "Feature"}
{"dataset_attributes": {"@spider": "usps_collection_boxes", "spider:collection_time": "2023-09-07T08:24:46.282741"}, "geometry": {"coordinates": [-75.963577, 40.797608], "type": "Point"}, "id": "JrsPv_jYdNEzdyn1rjyuslzTyBo=", "properties": {"@spider": "usps_collection_boxes", "addr:city": "TAMAQUA", "addr:country": "US", "addr:full": "399 E BROAD ST", "addr:postcode": "18252", "addr:state": "PA", "amenity": "post_box", "brand": "United States Postal Service", "brand:wikidata": "Q668687", "collection_times": "Mo-Fr 16:30; Sa 15:00", "name": "USPS COLLECTION BOX - PO LOBBY", "note": "ON 12/24 AND 12/31, THIS BOX MAY BE COLLECTED AS EARLY AS 12 NOON.", "nsi_id": "unitedstatespostalservice-a77078", "operator": "United States Postal Service", "operator:short": "USPS", "operator:type": "public", "operator:wikidata": "Q668687", "ref": "1825200036"}, "type": "Feature"}
{"dataset_attributes": {"@spider": "usps_collection_boxes", "spider:collection_time": "2023-09-07T08:24:46.282741"}, "geometry": {"coordinates": [-75.963762789, 40.797651181], "type": "Point"}, "id": "XHxxkWyYJYr27lTXPLQGkhCd7ZY=", "properties": {"@spider": "usps_collection_boxes", "addr:city": "TAMAQUA", "addr:country": "US", "addr:full": "399 E BROAD ST", "addr:postcode": "18252", "addr:state": "PA", "amenity": "post_box", "brand": "United States Postal Service", "brand:wikidata": "Q668687", "collection_times": "Mo-Fr 17:00; Sa 12:00", "name": "USPS COLLECTION BOX - PO LOBBY", "note": "ON 12/24 AND 12/31, THIS BOX MAY BE COLLECTED AS EARLY AS 12 NOON.", "nsi_id": "unitedstatespostalservice-a77078", "operator": "United States Postal Service", "operator:short": "USPS", "operator:type": "public", "operator:wikidata": "Q668687", "ref": "1825200039"}, "type": "Feature"}
{"dataset_attributes": {"@spider": "usps_collection_boxes", "spider:collection_time": "2023-09-07T08:24:46.282741"}, "geometry": {"coordinates": [-75.965607, 40.915089], "type": "Point"}, "id": "6k64Dae6BBUkbEIZ2_W59hk8X0E=", "properties": {"@spider": "usps_collection_boxes", "addr:city": "TRESCKOW", "addr:country": "US", "addr:full": "5 E MARKET ST", "addr:postcode": "18254", "addr:state": "PA", "amenity": "post_box", "brand": "United States Postal Service", "brand:wikidata": "Q668687", "collection_times": "Mo-Fr 16:30; Sa 10:30", "name": "USPS COLLECTION BOX - BLUE BOX", "note": "ON 12/24 AND 12/31, THIS BOX MAY BE COLLECTED AS EARLY AS 12 NOON.", "nsi_id": "unitedstatespostalservice-a77078", "operator": "United States Postal Service", "operator:short": "USPS", "operator:type": "public", "operator:wikidata": "Q668687", "ref": "1825400001"}, "type": "Feature"}
{"dataset_attributes": {"@spider": "usps_collection_boxes", "spider:collection_time": "2023-09-07T08:24:46.282741"}, "geometry": {"coordinates": [-75.9656, 40.915063], "type": "Point"}, "id": "v_ASoWA6fHR2evl4Ru58_wtYrRk=", "properties": {"@spider": "usps_collection_boxes", "addr:city": "TRESCKOW", "addr:country": "US", "addr:full": "5 E MARKET ST", "addr:postcode": "18254", "addr:state": "PA", "amenity": "post_box", "brand": "United States Postal Service", "brand:wikidata": "Q668687", "collection_times": "Mo-Fr 16:30; Sa 10:30", "name": "USPS COLLECTION BOX - PO LOBBY", "note": "ON 12/24 AND 12/31, THIS BOX MAY BE COLLECTED AS EARLY AS 12 NOON.", "nsi_id": "unitedstatespostalservice-a77078", "operator": "United States Postal Service", "operator:short": "USPS", "operator:type": "public", "operator:wikidata": "Q668687", "ref": "1825400002"}, "type": "Feature"}
{"dataset_attributes": {"@spider": "usps_collection_boxes", "spider:collection_time": "2023-09-07T08:24:46.282741"}, "geometry": {"coordinates": [-75.965598209, 40.915080282], "type": "Point"}, "id": "_Ss10gElG21lq5WBbWfZwZNQh-8=", "properties": {"@spider": "usps_collection_boxes", "addr:city": "TRESCKOW", "addr:country": "US", "addr:full": "5 E MARKET ST", "addr:postcode": "18254", "addr:state": "PA", "amenity": "post_box", "brand": "United States Postal Service", "brand:wikidata": "Q668687", "collection_times": "Mo-Fr 16:30; Sa 10:15", "name": "USPS COLLECTION BOX - PO LOBBY", "note": "ON 12/24 AND 12/31, THIS BOX MAY BE COLLECTED AS EARLY AS 12 NOON.", "nsi_id": "unitedstatespostalservice-a77078", "operator": "United States Postal Service", "operator:short": "USPS", "operator:type": "public", "operator:wikidata": "Q668687", "ref": "1825400004"}, "type": "Feature"}
{"dataset_attributes": {"@spider": "usps_collection_boxes", "spider:collection_time": "2023-09-07T08:24:46.282741"}, "geometry": {"coordinates": [-75.82848, 40.941848], "type": "Point"}, "id": "J7o0N3XqHPFrGuMc8IVVDJjW1rw=", "properties": {"@spider": "usps_collection_boxes", "addr:city": "WEATHERLY", "addr:country": "US", "addr:full": "5 CARBON ST", "addr:postcode": "18255", "addr:state": "PA", "amenity": "post_box", "brand": "United States Postal Service", "brand:wikidata": "Q668687", "collection_times": "Mo-Fr 16:30; Sa 12:00", "name": "USPS COLLECTION BOX - BLUE BOX", "note": "ON 12/24 AND 12/31, THIS BOX MAY BE COLLECTED AS EARLY AS 12 NOON.", "nsi_id": "unitedstatespostalservice-a77078", "operator": "United States Postal Service", "operator:short": "USPS", "operator:type": "public", "operator:wikidata": "Q668687", "ref": "1825500001"}, "type": "Feature"}
{"dataset_attributes": {"@spider": "usps_collection_boxes", "spider:collection_time": "2023-09-07T08:24:46.282741"}, "geometry": {"coordinates": [-75.8290335, 40.941798], "type": "Point"}, "id": "IH45cgOhPcKWvbt3q_uNWS1QPUk=", "properties": {"@spider": "usps_collection_boxes", "addr:city": "WEATHERLY", "addr:country": "US", "addr:full": "31 WILBUR ST", "addr:postcode": "18255", "addr:state": "PA", "amenity": "post_box", "brand": "United States Postal Service", "brand:wikidata": "Q668687", "collection_times": "Mo-Fr 14:00; Sa 12:00", "name": "USPS COLLECTION BOX - BLUE BOX", "note": "ON 12/24 AND 12/31, THIS BOX MAY BE COLLECTED AS EARLY AS 12 NOON.", "nsi_id": "unitedstatespostalservice-a77078", "operator": "United States Postal Service", "operator:short": "USPS", "operator:type": "public", "operator:wikidata": "Q668687", "ref": "1825500017"}, "type": "Feature"}
{"dataset_attributes": {"@spider": "usps_collection_boxes", "spider:collection_time": "2023-09-07T08:24:46.282741"}, "geometry": {"coordinates": [-75.82853, 40.941927], "type": "Point"}, "id": "Z3dmSQjU-wdcDZX3N3TMUd9SH7I=", "properties": {"@spider": "usps_collection_boxes", "addr:city": "WEATHERLY", "addr:country": "US", "addr:full": "5 CARBON ST", "addr:postcode": "18255", "addr:state": "PA", "amenity": "post_box", "brand": "United States Postal Service", "brand:wikidata": "Q668687", "collection_times": "Mo-Fr 16:30; Sa 12:00", "name": "USPS COLLECTION BOX - PO LOBBY", "note": "ON 12/24 AND 12/31, THIS BOX MAY BE COLLECTED AS EARLY AS 12 NOON.", "nsi_id": "unitedstatespostalservice-a77078", "operator": "United States Postal Service", "operator:short": "USPS", "operator:type": "public", "operator:wikidata": "Q668687", "ref": "1825500018"}, "type": "Feature"}
{"dataset_attributes": {"@spider": "usps_collection_boxes", "spider:collection_time": "2023-09-07T08:24:46.282741"}, "geometry": {"coordinates": [-75.828488522, 40.941879057], "type": "Point"}, "id": "MBpU17pca1gdtScfiKI5mAyR7QU=", "properties": {"@spider": "usps_collection_boxes", "addr:city": "WEATHERLY", "addr:country": "US", "addr:full": "5 CARBON ST", "addr:postcode": "18255", "addr:state": "PA", "amenity": "post_box", "brand": "United States Postal Service", "brand:wikidata": "Q668687", "collection_times": "Mo-Fr 16:30; Sa 12:00", "name": "USPS COLLECTION BOX - PO LOBBY", "note": "ON 12/24 AND 12/31, THIS BOX MAY BE COLLECTED AS EARLY AS 12 NOON.", "nsi_id": "unitedstatespostalservice-a77078", "operator": "United States Postal Service", "operator:short": "USPS", "operator:type": "public", "operator:wikidata": "Q668687", "ref": "1825500022"}, "type": "Feature"}
{"dataset_attributes": {"@spider": "usps_collection_boxes", "spider:collection_time": "2023-09-07T08:24:46.282741"}, "geometry": {"coordinates": [-76.143425, 40.942564], "type": "Point"}, "id": "aqPVv5H9A1gwOyQgsYdJdEhKCU8=", "properties": {"@spider": "usps_collection_boxes", "addr:city": "WESTON", "addr:country": "US", "addr:full": "592 HAZLE ST", "addr:postcode": "18256", "addr:state": "PA", "amenity": "post_box", "brand": "United States Postal Service", "brand:wikidata": "Q668687", "collection_times": "Mo-Fr 10:15; Sa 09:45", "name": "USPS COLLECTION BOX - BLUE BOX", "nsi_id": "unitedstatespostalservice-a77078", "operator": "United States Postal Service", "operator:short": "USPS", "operator:type": "public", "operator:wikidata": "Q668687", "ref": "1825600001"}, "type": "Feature"}
{"dataset_attributes": {"@spider": "usps_collection_boxes", "spider:collection_time": "2023-09-07T08:24:46.282741"}, "geometry": {"coordinates": [-76.143669, 40.942495], "type": "Point"}, "id": "yF2T9Z1FHiuqT3uUT4gkK8DV0Ac=", "properties": {"@spider": "usps_collection_boxes", "addr:city": "WESTON", "addr:country": "US", "addr:full": "592 HAZLE ST", "addr:postcode": "18256", "addr:state": "PA", "amenity": "post_box", "brand": "United States Postal Service", "brand:wikidata": "Q668687", "collection_times": "Mo-Fr 10:15; Sa 09:45", "name": "USPS COLLECTION BOX - PO LOBBY", "nsi_id": "unitedstatespostalservice-a77078", "operator": "United States Postal Service", "operator:short": "USPS", "operator:type": "public", "operator:wikidata": "Q668687", "ref": "1825600002"}, "type": "Feature"}
{"dataset_attributes": {"@spider": "usps_collection_boxes", "spider:collection_time": "2023-09-07T08:24:46.282741"}, "geometry": {"coordinates": [-76.143792579, 40.942541267], "type": "Point"}, "id": "TXa1pFtigprnzYzmIPa0irKXrck=", "properties": {"@spider": "usps_collection_boxes", "addr:city": "WESTON", "addr:country": "US", "addr:full": "592 HAZLE ST STE 1", "addr:postcode": "18256", "addr:state": "PA", "amenity": "post_box", "brand": "United States Postal Service", "brand:wikidata": "Q668687", "collection_times": "Mo-Fr 12:00; Sa 10:00", "name": "USPS COLLECTION BOX - PO LOBBY", "nsi_id": "unitedstatespostalservice-a77078", "operator": "United States Postal Service", "operator:short": "USPS", "operator:type": "public", "operator:wikidata": "Q668687", "ref": "1825600004"}, "type": "Feature"}
