{"geometry": {"coordinates": [-75.1746068, 40.996208], "type": "Point"}, "id": "-4MA6W5bRRHBeqmks-nQoqesCTA=", "properties": {"@source_uri": "https://tools.usps.com/UspsToolsRestServices/rest/POLocator/findLocations", "@spider": "usps_collection_boxes", "addr:city": "E STROUDSBURG", "addr:country": "US", "addr:postcode": "18301", "addr:state": "PA", "addr:street_address": "220 NORMAL ST", "amenity": "post_box", "collection_times": "Mo-Sa 13:00", "note": "ON 12/24 AND 12/31, THIS BOX MAY BE COLLECTED AS EARLY AS 12 NOON.", "nsi_id": "unitedstatespostalservice-a77078", "operator": "United States Postal Service", "operator:short": "USPS", "operator:type": "public", "operator:wikidata": "Q668687", "ref": "1830100006"}, "type": "Feature"}
{"geometry": {"coordinates": [-75.1825383, 40.99221], "type": "Point"}, "id": "vc4gVwY2WFFH2ZGwjIjOkCt2bxU=", "properties": {"@source_uri": "https://tools.usps.com/UspsToolsRestServices/rest/POLocator/findLocations", "@spider": "usps_collection_boxes", "addr:city": "E STROUDSBURG", "addr:country": "US", "addr:postcode": "18301", "addr:state": "PA", "addr:street_address": "695 N COURTLAND ST", "amenity": "post_box", "collection_times": "Mo-Sa 10:30", "nsi_id": "unitedstatespostalservice-a77078", "operator": "United States Postal Service", "operator:short": "USPS", "operator:type": "public", "operator:wikidata": "Q668687", "ref": "1830100008"}, "type": "Feature"}
{"geometry": {"coordinates": [-75.1743678, 40.992392], "type": "Point"}, "id": "98VRxiZ5PTi3LdkjSQtPQOHJVAg=", "properties": {"@source_uri": "https://tools.usps.com/UspsToolsRestServices/rest/POLocator/findLocations", "@spider": "usps_collection_boxes", "addr:city": "E STROUDSBURG", "addr:country": "US", "addr:postcode": "18301", "addr:state": "PA", "addr:street_address": "206 E BROWN ST", "amenity": "post_box", "collection_times": "Mo-Sa 11:00", "nsi_id": "unitedstatespostalservice-a77078", "operator": "United States Postal Service", "operator:short": "USPS", "operator:type": "public", "operator:wikidata": "Q668687", "ref": "1830100010"}, "type": "Feature"}
{"geometry": {"coordinates": [-75.1824099, 41.019892], "type": "Point"}, "id": "fzT2jdMWWpU2dwEFGA3Q_a15leA=", "properties": {"@source_uri": "https://tools.usps.com/UspsToolsRestServices/rest/POLocator/findLocations", "@spider": "usps_collection_boxes", "addr:city": "E STROUDSBURG", "addr:country": "US", "addr:postcode": "18301", "addr:state": "PA", "addr:street_address": "200 EAGLE VALLEY MALL", "amenity": "post_box", "collection_times": "Mo-Sa 11:00", "nsi_id": "unitedstatespostalservice-a77078", "operator": "United States Postal Service", "operator:short": "USPS", "operator:type": "public", "operator:wikidata": "Q668687", "ref": "1830100013"}, "type": "Feature"}
{"geometry": {"coordinates": [-75.1778964, 41.004948], "type": "Point"}, "id": "zUKNID7YIcg5fVM2kW3VxfSdXBQ=", "properties": {"@source_uri": "https://tools.usps.com/UspsToolsRestServices/rest/POLocator/findLocations", "@spider": "usps_collection_boxes", "addr:city": "E STROUDSBURG", "addr:country": "US", "addr:postcode": "18301", "addr:state": "PA", "addr:street_address": "166 E BROAD ST", "amenity": "post_box", "collection_times": "Mo-Sa 11:00", "nsi_id": "unitedstatespostalservice-a77078", "operator": "United States Postal Service", "operator:short": "USPS", "operator:type": "public", "operator:wikidata": "Q668687", "ref": "1830100014"}, "type": "Feature"}
{"geometry": {"coordinates": [-75.182823, 40.996306], "type": "Point"}, "id": "r8tOw-A3aZ3du1RmXCeb67H12NQ=", "properties": {"@source_uri": "https://tools.usps.com/UspsToolsRestServices/rest/POLocator/findLocations", "@spider": "usps_collection_boxes", "addr:city": "E STROUDSBURG", "addr:country": "US", "addr:postcode": "18301", "addr:state": "PA", "addr:street_address": "200 S COURTLAND ST", "amenity": "post_box", "collection_times": "Mo-Fr 17:00; Sa 15:00", "note": "ON 12/24 AND 12/31, THIS BOX MAY BE COLLECTED AS EARLY AS 12 NOON.", "nsi_id": "unitedstatespostalservice-a77078", "operator": "United States Postal Service", "operator:short": "USPS", "operator:type": "public", "operator:wikidata": "Q668687", "ref": "1830100020"}, "type": "Feature"}
{"geometry": {"coordinates": [-75.1270639, 41.042631], "type": "Point"}, "id": "y4W29mXmIxkYgdD9-N1MxVioYzM=", "properties": {"@source_uri": "https://tools.usps.com/UspsToolsRestServices/rest/POLocator/findLocations", "@spider": "usps_collection_boxes", "addr:city": "E STROUDSBURG", "addr:country": "US", "addr:postcode": "18301", "addr:state": "PA", "addr:street_address": "2610 MILFORD RD STE 1", "amenity": "post_box", "collection_times": "Mo-Sa 09:30", "nsi_id": "unitedstatespostalservice-a77078", "operator": "United States Postal Service", "operator:short": "USPS", "operator:type": "public", "operator:wikidata": "Q668687", "ref": "1830100021"}, "type": "Feature"}
{"geometry": {"coordinates": [-75.2370913, 41.040193], "type": "Point"}, "id": "dq6_ax4prUv0u8hPlWC8Rup46Ic=", "properties": {"@source_uri": "https://tools.usps.com/UspsToolsRestServices/rest/POLocator/findLocations", "@spider": "usps_collection_boxes", "addr:city": "E STROUDSBURG", "addr:country": "US", "addr:postcode": "18301", "addr:state": "PA", "addr:street_address": "1 PENN EST", "amenity": "post_box", "collection_times": "Mo-Sa 11:00", "nsi_id": "unitedstatespostalservice-a77078", "operator": "United States Postal Service", "operator:short": "USPS", "operator:type": "public", "operator:wikidata": "Q668687", "ref": "1830100026"}, "type": "Feature"}
{"geometry": {"coordinates": [-75.182864, 40.996363], "type": "Point"}, "id": "NF2-H7VfdyWhFW9ZJFiVoJraVyE=", "properties": {"@source_uri": "https://tools.usps.com/UspsToolsRestServices/rest/POLocator/findLocations", "@spider": "usps_collection_boxes", "addr:city": "E STROUDSBURG", "addr:country": "US", "addr:postcode": "18301", "addr:state": "PA", "addr:street_address": "200 S COURTLAND ST", "amenity": "post_box", "collection_times": "Mo-Fr 16:00; Sa 15:00", "indoor": "yes", "note": "ON 12/24 AND 12/31, THIS BOX MAY BE COLLECTED AS EARLY AS 12 NOON.", "nsi_id": "unitedstatespostalservice-a77078", "operator": "United States Postal Service", "operator:short": "USPS", "operator:type": "public", "operator:wikidata": "Q668687", "ref": "1830100035"}, "type": "Feature"}
{"geometry": {"coordinates": [-75.1606717, 41.006691], "type": "Point"}, "id": "sQGLkUhAyX7NwtDHblwAY3VzFq4=", "properties": {"@source_uri": "https://tools.usps.com/UspsToolsRestServices/rest/POLocator/findLocations", "@spider": "usps_collection_boxes", "addr:city": "E STROUDSBURG", "addr:country": "US", "addr:postcode": "18301", "addr:state": "PA", "addr:street_address": "447 OFFICE PLZ", "amenity": "post_box", "collection_times": "Mo-Sa 11:00", "nsi_id": "unitedstatespostalservice-a77078", "operator": "United States Postal Service", "operator:short": "USPS", "operator:type": "public", "operator:wikidata": "Q668687", "ref": "1830100037"}, "type": "Feature"}
{"geometry": {"coordinates": [-75.182814376, 40.996160539], "type": "Point"}, "id": "yYuL9JshFGVLlUeTjVwIdpBPT5E=", "properties": {"@source_uri": "https://tools.usps.com/UspsToolsRestServices/rest/POLocator/findLocations", "@spider": "usps_collection_boxes", "addr:city": "E STROUDSBURG", "addr:country": "US", "addr:postcode": "18301", "addr:state": "PA", "addr:street_address": "200 S COURTLAND ST", "amenity": "post_box", "collection_times": "Mo-Fr 17:00; Sa 12:00", "indoor": "yes", "note": "ON 12/24 AND 12/31, THIS BOX MAY BE COLLECTED AS EARLY AS 12 NOON.", "nsi_id": "unitedstatespostalservice-a77078", "operator": "United States Postal Service", "operator:short": "USPS", "operator:type": "public", "operator:wikidata": "Q668687", "ref": "1830100046"}, "type": "Feature"}
{"geometry": {"coordinates": [-75.221707, 41.053005], "type": "Point"}, "id": "GUh7q1v5Pd_-YxRRH8PoEhCTDx0=", "properties": {"@source_uri": "https://tools.usps.com/UspsToolsRestServices/rest/POLocator/findLocations", "@spider": "usps_collection_boxes", "addr:city": "ANALOMINK", "addr:country": "US", "addr:postcode": "18320", "addr:state": "PA", "addr:street_address": "1635 CHERRY LANE RD", "amenity": "post_box", "collection_times": "Mo-Fr 16:30; Sa 12:00", "note": "ON 12/24 AND 12/31, THIS BOX MAY BE COLLECTED AS EARLY AS 12 NOON.", "nsi_id": "unitedstatespostalservice-a77078", "operator": "United States Postal Service", "operator:short": "USPS", "operator:type": "public", "operator:wikidata": "Q668687", "ref": "1832000001"}, "type": "Feature"}
{"geometry": {"coordinates": [-75.221728, 41.05304], "type": "Point"}, "id": "4zdW7u0vfl7d4DbPZF-77vWmpuo=", "properties": {"@source_uri": "https://tools.usps.com/UspsToolsRestServices/rest/POLocator/findLocations", "@spider": "usps_collection_boxes", "addr:city": "ANALOMINK", "addr:country": "US", "addr:postcode": "18320", "addr:state": "PA", "addr:street_address": "1635 CHERRY LANE RD", "amenity": "post_box", "collection_times": "Mo-Fr 16:30; Sa 12:00", "indoor": "yes", "note": "ON 12/24 AND 12/31, THIS BOX MAY BE COLLECTED AS EARLY AS 12 NOON.", "nsi_id": "unitedstatespostalservice-a77078", "operator": "United States Postal Service", "operator:short": "USPS", "operator:type": "public", "operator:wikidata": "Q668687", "ref": "1832000002"}, "type": "Feature"}
{"geometry": {"coordinates": [-75.220336584, 41.051690946], "type": "Point"}, "id": "PRl1Qa3Yp1eStFBd3daG69mzero=", "properties": {"@source_uri": "https://tools.usps.com/UspsToolsRestServices/rest/POLocator/findLocations", "@spider": "usps_collection_boxes", "addr:city": "ANALOMINK", "addr:country": "US", "addr:postcode": "18320", "addr:state": "PA", "addr:street_address": "1635 CHERRY LANE RD", "amenity": "post_box", "collection_times": "Mo-Fr 16:30; Sa 12:00", "indoor": "yes", "note": "ON 12/24 AND 12/31, THIS BOX MAY BE COLLECTED AS EARLY AS 12 NOON.", "nsi_id": "unitedstatespostalservice-a77078", "operator": "United States Postal Service", "operator:short": "USPS", "operator:type": "public", "operator:wikidata": "Q668687", "ref": "1832000004"}, "type": "Feature"}
{"geometry": {"coordinates": [-75.284317, 41.00721], "type": "Point"}, "id": "bC313EAZaYb3PamkbyBPe3Mw8AQ=", "properties": {"@source_uri": "https://tools.usps.com/UspsToolsRestServices/rest/POLocator/findLocations", "@spider": "usps_collection_boxes", "addr:city": "BARTONSVILLE", "addr:country": "US", "addr:postcode": "18321", "addr:state": "PA", "addr:street_address": "3400 ROUTE 611", "amenity": "post_box", "collection_times": "Mo-Fr 16:45; Sa 12:00", "note": "ON 12/24 AND 12/31, THIS BOX MAY BE COLLECTED AS EARLY AS 12 NOON.", "nsi_id": "unitedstatespostalservice-a77078", "operator": "United States Postal Service", "operator:short": "USPS", "operator:type": "public", "operator:wikidata": "Q668687", "ref": "1832100001"}, "type": "Feature"}
{"geometry": {"coordinates": [-75.284351, 41.007269], "type": "Point"}, "id": "Z7MGM5Fc8x-eGIt05odP9vqkpTk=", "properties": {"@source_uri": "https://tools.usps.com/UspsToolsRestServices/rest/POLocator/findLocations", "@spider": "usps_collection_boxes", "addr:city": "BARTONSVILLE", "addr:country": "US", "addr:postcode": "18321", "addr:state": "PA", "addr:street_address": "3400 ROUTE 611", "amenity": "post_box", "collection_times": "Mo-Fr 16:45; Sa 12:00", "indoor": "yes", "note": "ON 12/24 AND 12/31, THIS BOX MAY BE COLLECTED AS EARLY AS 12 NOON.", "nsi_id": "unitedstatespostalservice-a77078", "operator": "United States Postal Service", "operator:short": "USPS", "operator:type": "public", "operator:wikidata": "Q668687", "ref": "1832100005"}, "type": "Feature"}
{"geometry": {"coordinates": [-75.284351539, 41.007171049], "type": "Point"}, "id": "o8iWE8SXnTqm88MusaX31kLYYzM=", "properties": {"@source_uri": "https://tools.usps.com/UspsToolsRestServices/rest/POLocator/findLocations", "@spider": "usps_collection_boxes", "addr:city": "BARTONSVILLE", "addr:country": "US", "addr:postcode": "18321", "addr:state": "PA", "addr:street_address": "3400 ROUTE 611 STE 102", "amenity": "post_box", "collection_times": "Mo-Fr 16:00; Sa 12:00", "indoor": "yes", "note": "ON 12/24 AND 12/31, THIS BOX MAY BE COLLECTED AS EARLY AS 12 NOON.", "nsi_id": "unitedstatespostalservice-a77078", "operator": "United States Postal Service", "operator:short": "USPS", "operator:type": "public", "operator:wikidata": "Q668687", "ref": "1832100009"}, "type": "Feature"}
{"geometry": {"coordinates": [-75.398172138, 40.920330726], "type": "Point"}, "id": "F8BVw8iUq_EvZqNg0WKf9a17j9A=", "properties": {"@source_uri": "https://tools.usps.com/UspsToolsRestServices/rest/POLocator/findLocations", "@spider": "usps_collection_boxes", "addr:city": "BRODHEADSVILLE", "addr:country": "US", "addr:postcode": "18322", "addr:state": "PA", "addr:street_address": "239 RODENBACH LN", "amenity": "post_box", "collection_times": "Mo-Fr 16:30; Sa 12:00", "note": "ON 12/24 AND 12/31, THIS BOX MAY BE COLLECTED AS EARLY AS 12 NOON.", "nsi_id": "unitedstatespostalservice-a77078", "operator": "United States Postal Service", "operator:short": "USPS", "operator:type": "public", "operator:wikidata": "Q668687", "ref": "1832200001"}, "type": "Feature"}
{"geometry": {"coordinates": [-75.4231860374, 40.9176859869], "type": "Point"}, "id": "qosRlgf0nuoU9lgBGvfU-Uxai3U=", "properties": {"@source_uri": "https://tools.usps.com/UspsToolsRestServices/rest/POLocator/findLocations", "@spider": "usps_collection_boxes", "addr:city": "BRODHEADSVILLE", "addr:country": "US", "addr:postcode": "18322", "addr:state": "PA", "addr:street_address": "1421 ROUTE 209", "amenity": "post_box", "collection_times": "Mo-Sa 10:30", "nsi_id": "unitedstatespostalservice-a77078", "operator": "United States Postal Service", "operator:short": "USPS", "operator:type": "public", "operator:wikidata": "Q668687", "ref": "1832200004"}, "type": "Feature"}
{"geometry": {"coordinates": [-75.3864710384, 40.9246819843], "type": "Point"}, "id": "w-VuyZ-L7vdqSWvOIguZlJ3rOW8=", "properties": {"@source_uri": "https://tools.usps.com/UspsToolsRestServices/rest/POLocator/findLocations", "@spider": "usps_collection_boxes", "addr:city": "BRODHEADSVILLE", "addr:country": "US", "addr:postcode": "18322", "addr:state": "PA", "addr:street_address": "1860 ROUTE 209", "amenity": "post_box", "collection_times": "Mo-Sa 10:30", "nsi_id": "unitedstatespostalservice-a77078", "operator": "United States Postal Service", "operator:short": "USPS", "operator:type": "public", "operator:wikidata": "Q668687", "ref": "1832200005"}, "type": "Feature"}
{"geometry": {"coordinates": [-75.3990510178, 40.9219159982], "type": "Point"}, "id": "4X41AV2qCzOu73QQp3HsTxJRsho=", "properties": {"@source_uri": "https://tools.usps.com/UspsToolsRestServices/rest/POLocator/findLocations", "@spider": "usps_collection_boxes", "addr:city": "BRODHEADSVILLE", "addr:country": "US", "addr:postcode": "18322", "addr:state": "PA", "addr:street_address": "239 RODENBACH LN", "amenity": "post_box", "collection_times": "Mo-Fr 16:30; Sa 12:00", "indoor": "yes", "note": "ON 12/24 AND 12/31, THIS BOX MAY BE COLLECTED AS EARLY AS 12 NOON.", "nsi_id": "unitedstatespostalservice-a77078", "operator": "United States Postal Service", "operator:short": "USPS", "operator:type": "public", "operator:wikidata": "Q668687", "ref": "1832200007"}, "type": "Feature"}
{"geometry": {"coordinates": [-75.398172138, 40.920330726], "type": "Point"}, "id": "ZQCsgmjAQCHxscctaV8jKcpUVJQ=", "properties": {"@source_uri": "https://tools.usps.com/UspsToolsRestServices/rest/POLocator/findLocations", "@spider": "usps_collection_boxes", "addr:city": "BRODHEADSVILLE", "addr:country": "US", "addr:postcode": "18322", "addr:state": "PA", "addr:street_address": "239 RODENBACH LN", "amenity": "post_box", "collection_times": "Mo-Fr 16:45; Sa 12:00", "indoor": "yes", "note": "ON 12/24 AND 12/31, THIS BOX MAY BE COLLECTED AS EARLY AS 12 NOON.", "nsi_id": "unitedstatespostalservice-a77078", "operator": "United States Postal Service", "operator:short": "USPS", "operator:type": "public", "operator:wikidata": "Q668687", "ref": "1832200014"}, "type": "Feature"}
{"geometry": {"coordinates": [-77.8387503615, 40.896509984], "type": "Point"}, "id": "ixOFjwETZArukdn-3R5rgCvtgDE=", "properties": {"@source_uri": "https://tools.usps.com/UspsToolsRestServices/rest/POLocator/findLocations", "@spider": "usps_collection_boxes", "addr:city": "BUCK HILL FALLS", "addr:country": "US", "addr:postcode": "18323", "addr:state": "PA", "addr:street_address": "270 GOLF DR", "amenity": "post_box", "collection_times": "Mo-Fr 13:45; Sa 11:45", "note": "ON 12/24 AND 12/31, THIS BOX MAY BE COLLECTED AS EARLY AS 12 NOON.", "nsi_id": "unitedstatespostalservice-a77078", "operator": "United States Postal Service", "operator:short": "USPS", "operator:type": "public", "operator:wikidata": "Q668687", "ref": "1832300001"}, "type": "Feature"}
{"geometry": {"coordinates": [-77.8387503615, 40.896509984], "type": "Point"}, "id": "sWuecxGyXCwN_-b4z77Lr_aSPH4=", "properties": {"@source_uri": "https://tools.usps.com/UspsToolsRestServices/rest/POLocator/findLocations", "@spider": "usps_collection_boxes", "addr:city": "BUCK HILL FALLS", "addr:country": "US", "addr:postcode": "18323", "addr:state": "PA", "addr:street_address": "270 GOLF DR", "amenity": "post_box", "collection_times": "Mo-Fr 14:00; Sa 12:00", "indoor": "yes", "note": "ON 12/24 AND 12/31, THIS BOX MAY BE COLLECTED AS EARLY AS 12 NOON.", "nsi_id": "unitedstatespostalservice-a77078", "operator": "United States Postal Service", "operator:short": "USPS", "operator:type": "public", "operator:wikidata": "Q668687", "ref": "1832300002"}, "type": "Feature"}
{"geometry": {"coordinates": [-75.270719003, 41.191306029], "type": "Point"}, "id": "g6XW74zaLI-gnfiI5NWzsKKhGlw=", "properties": {"@source_uri": "https://tools.usps.com/UspsToolsRestServices/rest/POLocator/findLocations", "@spider": "usps_collection_boxes", "addr:city": "BUCK HILL FALLS", "addr:country": "US", "addr:postcode": "18323", "addr:state": "PA", "addr:street_address": "270 GOLF DR", "amenity": "post_box", "collection_times": "Mo-Fr 14:00; Sa 12:00", "indoor": "yes", "note": "ON 12/24 AND 12/31, THIS BOX MAY BE COLLECTED AS EARLY AS 12 NOON.", "nsi_id": "unitedstatespostalservice-a77078", "operator": "United States Postal Service", "operator:short": "USPS", "operator:type": "public", "operator:wikidata": "Q668687", "ref": "1832300006"}, "type": "Feature"}
{"geometry": {"coordinates": [-75.0515764, 41.11758], "type": "Point"}, "id": "sSQht_ejB7pWbpihxqdmc97xZFU=", "properties": {"@source_uri": "https://tools.usps.com/UspsToolsRestServices/rest/POLocator/findLocations", "@spider": "usps_collection_boxes", "addr:city": "BUSHKILL", "addr:country": "US", "addr:postcode": "18324", "addr:state": "PA", "addr:street_address": "1 SAW CREEK EST", "amenity": "post_box", "collection_times": "Mo-Sa 09:30", "nsi_id": "unitedstatespostalservice-a77078", "operator": "United States Postal Service", "operator:short": "USPS", "operator:type": "public", "operator:wikidata": "Q668687", "ref": "1832400001"}, "type": "Feature"}
{"geometry": {"coordinates": [-74.9538914, 41.153011], "type": "Point"}, "id": "h61515Yupmx5XxadVzSJjww9nhw=", "properties": {"@source_uri": "https://tools.usps.com/UspsToolsRestServices/rest/POLocator/findLocations", "@spider": "usps_collection_boxes", "addr:city": "BUSHKILL", "addr:country": "US", "addr:postcode": "18324", "addr:state": "PA", "addr:street_address": "1 POCONO MOUNTAIN LAKE EST", "amenity": "post_box", "collection_times": "Mo-Sa 09:30", "nsi_id": "unitedstatespostalservice-a77078", "operator": "United States Postal Service", "operator:short": "USPS", "operator:type": "public", "operator:wikidata": "Q668687", "ref": "1832400002"}, "type": "Feature"}
{"geometry": {"coordinates": [-74.9838669, 41.129356], "type": "Point"}, "id": "w7IVJl3KCcIC2CwKZD_EHadTfYM=", "properties": {"@source_uri": "https://tools.usps.com/UspsToolsRestServices/rest/POLocator/findLocations", "@spider": "usps_collection_boxes", "addr:city": "BUSHKILL", "addr:country": "US", "addr:postcode": "18324", "addr:state": "PA", "addr:street_address": "100 PINE RDG", "amenity": "post_box", "collection_times": "Mo-Sa 09:30", "nsi_id": "unitedstatespostalservice-a77078", "operator": "United States Postal Service", "operator:short": "USPS", "operator:type": "public", "operator:wikidata": "Q668687", "ref": "1832400003"}, "type": "Feature"}
{"geometry": {"coordinates": [-75.00723, 41.128478], "type": "Point"}, "id": "lhurGvYvnxKZrff7pn0bVXT3Vuo=", "properties": {"@source_uri": "https://tools.usps.com/UspsToolsRestServices/rest/POLocator/findLocations", "@spider": "usps_collection_boxes", "addr:city": "BUSHKILL", "addr:country": "US", "addr:postcode": "18324", "addr:state": "PA", "addr:street_address": "5527 BUSHKILL FALLS RD", "amenity": "post_box", "collection_times": "Mo-Fr 16:45; Sa 11:45", "note": "ON 12/24 AND 12/31, THIS BOX MAY BE COLLECTED AS EARLY AS 12 NOON.", "nsi_id": "unitedstatespostalservice-a77078", "operator": "United States Postal Service", "operator:short": "USPS", "operator:type": "public", "operator:wikidata": "Q668687", "ref": "1832400004"}, "type": "Feature"}
{"geometry": {"coordinates": [-74.9561117, 41.165467], "type": "Point"}, "id": "aQl4m_rzrMApN3fknJs7EO0PDY8=", "properties": {"@source_uri": "https://tools.usps.com/UspsToolsRestServices/rest/POLocator/findLocations", "@spider": "usps_collection_boxes", "addr:city": "BUSHKILL", "addr:country": "US", "addr:postcode": "18324", "addr:state": "PA", "addr:street_address": "1 RANCHLANDS", "amenity": "post_box", "collection_times": "Mo-Sa 10:00", "nsi_id": "unitedstatespostalservice-a77078", "operator": "United States Postal Service", "operator:short": "USPS", "operator:type": "public", "operator:wikidata": "Q668687", "ref": "1832400005"}, "type": "Feature"}
{"geometry": {"coordinates": [-75.0515566, 41.117809], "type": "Point"}, "id": "2wo5A8IeXaRiiH3htV8niTLGYhA=", "properties": {"@source_uri": "https://tools.usps.com/UspsToolsRestServices/rest/POLocator/findLocations", "@spider": "usps_collection_boxes", "addr:city": "BUSHKILL", "addr:country": "US", "addr:postcode": "18324", "addr:state": "PA", "addr:street_address": "649 SAW CREEK EST", "amenity": "post_box", "collection_times": "Mo-Sa 09:30", "nsi_id": "unitedstatespostalservice-a77078", "operator": "United States Postal Service", "operator:short": "USPS", "operator:type": "public", "operator:wikidata": "Q668687", "ref": "1832400006"}, "type": "Feature"}
{"geometry": {"coordinates": [-75.0238271, 41.11183], "type": "Point"}, "id": "3kW69f1NJUP5bBMRSgPKp2UWqGE=", "properties": {"@source_uri": "https://tools.usps.com/UspsToolsRestServices/rest/POLocator/findLocations", "@spider": "usps_collection_boxes", "addr:city": "BUSHKILL", "addr:country": "US", "addr:postcode": "18324", "addr:state": "PA", "addr:street_address": "1 WICKES RD", "amenity": "post_box", "collection_times": "Mo-Sa 09:30", "nsi_id": "unitedstatespostalservice-a77078", "operator": "United States Postal Service", "operator:short": "USPS", "operator:type": "public", "operator:wikidata": "Q668687", "ref": "1832400007"}, "type": "Feature"}
{"geometry": {"coordinates": [-75.00723, 41.128478], "type": "Point"}, "id": "-0rlbdfC5zhHkL-XO_C-boLq_qU=", "properties": {"@source_uri": "https://tools.usps.com/UspsToolsRestServices/rest/POLocator/findLocations", "@spider": "usps_collection_boxes", "addr:city": "BUSHKILL", "addr:country": "US", "addr:postcode": "18324", "addr:state": "PA", "addr:street_address": "5527 BUSHKILL FALLS RD", "amenity": "post_box", "collection_times": "Mo-Fr 16:45; Sa 11:45", "indoor": "yes", "note": "ON 12/24 AND 12/31, THIS BOX MAY BE COLLECTED AS EARLY AS 12 NOON.", "nsi_id": "unitedstatespostalservice-a77078", "operator": "United States Postal Service", "operator:short": "USPS", "operator:type": "public", "operator:wikidata": "Q668687", "ref": "1832400009"}, "type": "Feature"}
{"geometry": {"coordinates": [-75.007250703, 41.128444703], "type": "Point"}, "id": "iwQ_Z9KJo-uLNSjYrDU8LCOjB10=", "properties": {"@source_uri": "https://tools.usps.com/UspsToolsRestServices/rest/POLocator/findLocations", "@spider": "usps_collection_boxes", "addr:city": "BUSHKILL", "addr:country": "US", "addr:postcode": "18324", "addr:state": "PA", "addr:street_address": "5527 BUSHKILL FALLS RD", "amenity": "post_box", "collection_times": "Mo-Fr 17:00; Sa 12:00", "indoor": "yes", "note": "ON 12/24 AND 12/31, THIS BOX MAY BE COLLECTED AS EARLY AS 12 NOON.", "nsi_id": "unitedstatespostalservice-a77078", "operator": "United States Postal Service", "operator:short": "USPS", "operator:type": "public", "operator:wikidata": "Q668687", "ref": "1832400013"}, "type": "Feature"}
{"geometry": {"coordinates": [-75.2507922, 41.194778], "type": "Point"}, "id": "GmK7SVBSiI5GU74_hn7dJjA12gU=", "properties": {"@source_uri": "https://tools.usps.com/UspsToolsRestServices/rest/POLocator/findLocations", "@spider": "usps_collection_boxes", "addr:city": "CANADENSIS", "addr:country": "US", "addr:postcode": "18325", "addr:state": "PA", "addr:street_address": "4792 ROUTE 447", "amenity": "post_box", "collection_times": "Mo-Fr 16:30; Sa 11:30", "note": "ON 12/24 AND 12/31, THIS BOX MAY BE COLLECTED AS EARLY AS 12 NOON.", "nsi_id": "unitedstatespostalservice-a77078", "operator": "United States Postal Service", "operator:short": "USPS", "operator:type": "public", "operator:wikidata": "Q668687", "ref": "1832500001"}, "type": "Feature"}
{"geometry": {"coordinates": [-75.255684, 41.196348], "type": "Point"}, "id": "cde-56sXQKtinUpX6X3stnRe2bI=", "properties": {"@source_uri": "https://tools.usps.com/UspsToolsRestServices/rest/POLocator/findLocations", "@spider": "usps_collection_boxes", "addr:city": "CANADENSIS", "addr:country": "US", "addr:postcode": "18325", "addr:state": "PA", "addr:street_address": "4792 ROUTE 447", "amenity": "post_box", "collection_times": "Mo-Fr 16:30; Sa 11:30", "indoor": "yes", "note": "ON 12/24 AND 12/31, THIS BOX MAY BE COLLECTED AS EARLY AS 12 NOON.", "nsi_id": "unitedstatespostalservice-a77078", "operator": "United States Postal Service", "operator:short": "USPS", "operator:type": "public", "operator:wikidata": "Q668687", "ref": "1832500003"}, "type": "Feature"}
{"geometry": {"coordinates": [-75.255684, 41.196348], "type": "Point"}, "id": "NqFdx6tuAZr7zrhwcojqT2aL7zE=", "properties": {"@source_uri": "https://tools.usps.com/UspsToolsRestServices/rest/POLocator/findLocations", "@spider": "usps_collection_boxes", "addr:city": "CANADENSIS", "addr:country": "US", "addr:postcode": "18325", "addr:state": "PA", "addr:street_address": "4792 ROUTE 447", "amenity": "post_box", "collection_times": "Mo-Fr 16:30; Sa 11:30", "indoor": "yes", "note": "ON 12/24 AND 12/31, THIS BOX MAY BE COLLECTED AS EARLY AS 12 NOON.", "nsi_id": "unitedstatespostalservice-a77078", "operator": "United States Postal Service", "operator:short": "USPS", "operator:type": "public", "operator:wikidata": "Q668687", "ref": "1832500004"}, "type": "Feature"}
{"geometry": {"coordinates": [-75.255699859, 41.19635966], "type": "Point"}, "id": "Kt2ZWczeoC2Nnokx1fpR3PmeuJg=", "properties": {"@source_uri": "https://tools.usps.com/UspsToolsRestServices/rest/POLocator/findLocations", "@spider": "usps_collection_boxes", "addr:city": "CANADENSIS", "addr:country": "US", "addr:postcode": "18325", "addr:state": "PA", "addr:street_address": "4792 ROUTE 447", "amenity": "post_box", "collection_times": "Mo-Fr 16:45; Sa 11:30", "indoor": "yes", "note": "ON 12/24 AND 12/31, THIS BOX MAY BE COLLECTED AS EARLY AS 12 NOON.", "nsi_id": "unitedstatespostalservice-a77078", "operator": "United States Postal Service", "operator:short": "USPS", "operator:type": "public", "operator:wikidata": "Q668687", "ref": "1832500006"}, "type": "Feature"}
{"geometry": {"coordinates": [-75.279479, 41.158723], "type": "Point"}, "id": "q8Qxuxy5gCKFcKvUo-7KY758f-0=", "properties": {"@source_uri": "https://tools.usps.com/UspsToolsRestServices/rest/POLocator/findLocations", "@spider": "usps_collection_boxes", "addr:city": "CRESCO", "addr:country": "US", "addr:postcode": "18326", "addr:state": "PA", "addr:street_address": "6535 ROUTE 191", "amenity": "post_box", "collection_times": "Mo-Fr 17:00; Sa 12:00", "note": "ON 12/24 AND 12/31, THIS BOX MAY BE COLLECTED AS EARLY AS 12 NOON.", "nsi_id": "unitedstatespostalservice-a77078", "operator": "United States Postal Service", "operator:short": "USPS", "operator:type": "public", "operator:wikidata": "Q668687", "ref": "1832600001"}, "type": "Feature"}
{"geometry": {"coordinates": [-75.279423, 41.158754], "type": "Point"}, "id": "fpnlAyYXEWdCa-ROiV5yiwEUTR0=", "properties": {"@source_uri": "https://tools.usps.com/UspsToolsRestServices/rest/POLocator/findLocations", "@spider": "usps_collection_boxes", "addr:city": "CRESCO", "addr:country": "US", "addr:postcode": "18326", "addr:state": "PA", "addr:street_address": "6535 ROUTE 191", "amenity": "post_box", "collection_times": "Mo-Fr 17:00; Sa 12:00", "indoor": "yes", "note": "ON 12/24 AND 12/31, THIS BOX MAY BE COLLECTED AS EARLY AS 12 NOON.", "nsi_id": "unitedstatespostalservice-a77078", "operator": "United States Postal Service", "operator:short": "USPS", "operator:type": "public", "operator:wikidata": "Q668687", "ref": "1832600004"}, "type": "Feature"}
{"geometry": {"coordinates": [-75.279511041, 41.158724738], "type": "Point"}, "id": "dyvoIVmoanCJ1hlxuj9cBbUjNp0=", "properties": {"@source_uri": "https://tools.usps.com/UspsToolsRestServices/rest/POLocator/findLocations", "@spider": "usps_collection_boxes", "addr:city": "CRESCO", "addr:country": "US", "addr:postcode": "18326", "addr:state": "PA", "addr:street_address": "6535 ROUTE 191", "amenity": "post_box", "collection_times": "Mo-Fr 17:00; Sa 12:00", "indoor": "yes", "note": "ON 12/24 AND 12/31, THIS BOX MAY BE COLLECTED AS EARLY AS 12 NOON.", "nsi_id": "unitedstatespostalservice-a77078", "operator": "United States Postal Service", "operator:short": "USPS", "operator:type": "public", "operator:wikidata": "Q668687", "ref": "1832600008"}, "type": "Feature"}
{"geometry": {"coordinates": [-75.14277, 40.983571], "type": "Point"}, "id": "usiIw21kZvcvYPFGMePlWeWRQKY=", "properties": {"@source_uri": "https://tools.usps.com/UspsToolsRestServices/rest/POLocator/findLocations", "@spider": "usps_collection_boxes", "addr:city": "DE WATER GAP", "addr:country": "US", "addr:postcode": "18327", "addr:state": "PA", "addr:street_address": "12 SHEPARD AVE", "amenity": "post_box", "collection_times": "Mo-Fr 16:30; Sa 11:30", "note": "ON 12/24 AND 12/31, THIS BOX MAY BE COLLECTED AS EARLY AS 12 NOON.", "nsi_id": "unitedstatespostalservice-a77078", "operator": "United States Postal Service", "operator:short": "USPS", "operator:type": "public", "operator:wikidata": "Q668687", "ref": "1832700001"}, "type": "Feature"}
{"geometry": {"coordinates": [-75.14277, 40.983571], "type": "Point"}, "id": "DXak0zPc_X-y3bYXJPjQy4UcPh4=", "properties": {"@source_uri": "https://tools.usps.com/UspsToolsRestServices/rest/POLocator/findLocations", "@spider": "usps_collection_boxes", "addr:city": "DE WATER GAP", "addr:country": "US", "addr:postcode": "18327", "addr:state": "PA", "addr:street_address": "12 SHEPARD AVE", "amenity": "post_box", "collection_times": "Mo-Fr 16:30; Sa 11:30", "indoor": "yes", "note": "ON 12/24 AND 12/31, THIS BOX MAY BE COLLECTED AS EARLY AS 12 NOON.", "nsi_id": "unitedstatespostalservice-a77078", "operator": "United States Postal Service", "operator:short": "USPS", "operator:type": "public", "operator:wikidata": "Q668687", "ref": "1832700002"}, "type": "Feature"}
{"geometry": {"coordinates": [-75.14277, 40.983571], "type": "Point"}, "id": "0KAYe-N8xM8R-U4EMHfeYOwDi1s=", "properties": {"@source_uri": "https://tools.usps.com/UspsToolsRestServices/rest/POLocator/findLocations", "@spider": "usps_collection_boxes", "addr:city": "DE WATER GAP", "addr:country": "US", "addr:postcode": "18327", "addr:state": "PA", "addr:street_address": "12 SHEPARD AVE", "amenity": "post_box", "collection_times": "Mo-Fr 16:30; Sa 11:30", "indoor": "yes", "note": "ON 12/24 AND 12/31, THIS BOX MAY BE COLLECTED AS EARLY AS 12 NOON.", "nsi_id": "unitedstatespostalservice-a77078", "operator": "United States Postal Service", "operator:short": "USPS", "operator:type": "public", "operator:wikidata": "Q668687", "ref": "1832700003"}, "type": "Feature"}
{"geometry": {"coordinates": [-75.142546578, 40.983591022], "type": "Point"}, "id": "U_oNL5rWEz-EceFxtoiTIOW3yIM=", "properties": {"@source_uri": "https://tools.usps.com/UspsToolsRestServices/rest/POLocator/findLocations", "@spider": "usps_collection_boxes", "addr:city": "DE WATER GAP", "addr:country": "US", "addr:postcode": "18327", "addr:state": "PA", "addr:street_address": "12 SHEPARD AVE", "amenity": "post_box", "collection_times": "Mo-Fr 16:45; Sa 11:30", "indoor": "yes", "note": "ON 12/24 AND 12/31, THIS BOX MAY BE COLLECTED AS EARLY AS 12 NOON.", "nsi_id": "unitedstatespostalservice-a77078", "operator": "United States Postal Service", "operator:short": "USPS", "operator:type": "public", "operator:wikidata": "Q668687", "ref": "1832700005"}, "type": "Feature"}
{"geometry": {"coordinates": [-74.9300791, 41.280319], "type": "Point"}, "id": "G1_Ua_VKiFO0zBtHm_mQE795K5w=", "properties": {"@source_uri": "https://tools.usps.com/UspsToolsRestServices/rest/POLocator/findLocations", "@spider": "usps_collection_boxes", "addr:city": "DINGMANS FERRY", "addr:country": "US", "addr:postcode": "18328", "addr:state": "PA", "addr:street_address": "103 NICHECRONK RD", "amenity": "post_box", "collection_times": "Mo-Fr 16:45; Sa 12:45", "note": "ON 12/24 AND 12/31, THIS BOX MAY BE COLLECTED AS EARLY AS 12 NOON.", "nsi_id": "unitedstatespostalservice-a77078", "operator": "United States Postal Service", "operator:short": "USPS", "operator:type": "public", "operator:wikidata": "Q668687", "ref": "1832800001"}, "type": "Feature"}
{"geometry": {"coordinates": [-74.9315166, 41.216754], "type": "Point"}, "id": "OW31qLNUdOewRWodbsoaWXqR9qY=", "properties": {"@source_uri": "https://tools.usps.com/UspsToolsRestServices/rest/POLocator/findLocations", "@spider": "usps_collection_boxes", "addr:city": "DINGMANS FERRY", "addr:country": "US", "addr:postcode": "18328", "addr:state": "PA", "addr:street_address": "116 WILD ACRES DR", "amenity": "post_box", "collection_times": "Mo-Sa 10:30", "nsi_id": "unitedstatespostalservice-a77078", "operator": "United States Postal Service", "operator:short": "USPS", "operator:type": "public", "operator:wikidata": "Q668687", "ref": "1832800003"}, "type": "Feature"}
{"geometry": {"coordinates": [-74.9024817, 41.255712], "type": "Point"}, "id": "PrXSC5cnLs0Q5CrXNA0tVlqhqHI=", "properties": {"@source_uri": "https://tools.usps.com/UspsToolsRestServices/rest/POLocator/findLocations", "@spider": "usps_collection_boxes", "addr:city": "DINGMANS FERRY", "addr:country": "US", "addr:postcode": "18328", "addr:state": "PA", "addr:street_address": "1757 ROUTE 739", "amenity": "post_box", "collection_times": "Mo-Sa 10:45", "nsi_id": "unitedstatespostalservice-a77078", "operator": "United States Postal Service", "operator:short": "USPS", "operator:type": "public", "operator:wikidata": "Q668687", "ref": "1832800004"}, "type": "Feature"}
{"geometry": {"coordinates": [-74.907676, 41.236166], "type": "Point"}, "id": "frS2U7Rktmt5mwluKxWmRpRLHB4=", "properties": {"@source_uri": "https://tools.usps.com/UspsToolsRestServices/rest/POLocator/findLocations", "@spider": "usps_collection_boxes", "addr:city": "DINGMANS FERRY", "addr:country": "US", "addr:postcode": "18328", "addr:state": "PA", "addr:street_address": "229 SILVER LAKE RD", "amenity": "post_box", "collection_times": "Mo-Sa 11:45", "nsi_id": "unitedstatespostalservice-a77078", "operator": "United States Postal Service", "operator:short": "USPS", "operator:type": "public", "operator:wikidata": "Q668687", "ref": "1832800008"}, "type": "Feature"}
{"geometry": {"coordinates": [-74.9306875, 41.281677], "type": "Point"}, "id": "5IJ5CVFRQmBEy4dkDElr90NxHCE=", "properties": {"@source_uri": "https://tools.usps.com/UspsToolsRestServices/rest/POLocator/findLocations", "@spider": "usps_collection_boxes", "addr:city": "DINGMANS FERRY", "addr:country": "US", "addr:postcode": "18328", "addr:state": "PA", "addr:street_address": "103 NICHECRONK RD", "amenity": "post_box", "collection_times": "Mo-Fr 16:45; Sa 12:45", "indoor": "yes", "note": "ON 12/24 AND 12/31, THIS BOX MAY BE COLLECTED AS EARLY AS 12 NOON.", "nsi_id": "unitedstatespostalservice-a77078", "operator": "United States Postal Service", "operator:short": "USPS", "operator:type": "public", "operator:wikidata": "Q668687", "ref": "1832800009"}, "type": "Feature"}
{"geometry": {"coordinates": [-74.930295169, 41.279980472], "type": "Point"}, "id": "mC_Q81fWT_CWhZTRCqHDUr3ZWco=", "properties": {"@source_uri": "https://tools.usps.com/UspsToolsRestServices/rest/POLocator/findLocations", "@spider": "usps_collection_boxes", "addr:city": "DINGMANS FERRY", "addr:country": "US", "addr:postcode": "18328", "addr:state": "PA", "addr:street_address": "103 NICHECRONK RD", "amenity": "post_box", "collection_times": "Mo-Fr 16:45; Sa 13:30", "indoor": "yes", "note": "ON 12/24 AND 12/31, THIS BOX MAY BE COLLECTED AS EARLY AS 12 NOON.", "nsi_id": "unitedstatespostalservice-a77078", "operator": "United States Postal Service", "operator:short": "USPS", "operator:type": "public", "operator:wikidata": "Q668687", "ref": "1832800012"}, "type": "Feature"}
{"geometry": {"coordinates": [-75.435983, 40.93715], "type": "Point"}, "id": "8c2PppknGJFqPbzdT59T-OLT6B0=", "properties": {"@source_uri": "https://tools.usps.com/UspsToolsRestServices/rest/POLocator/findLocations", "@spider": "usps_collection_boxes", "addr:city": "EFFORT", "addr:country": "US", "addr:postcode": "18330", "addr:state": "PA", "addr:street_address": "985 GILBERT RD", "amenity": "post_box", "collection_times": "Mo-Fr 16:30; Sa 11:45", "note": "ON 12/24 AND 12/31, THIS BOX MAY BE COLLECTED AS EARLY AS 12 NOON.", "nsi_id": "unitedstatespostalservice-a77078", "operator": "United States Postal Service", "operator:short": "USPS", "operator:type": "public", "operator:wikidata": "Q668687", "ref": "1833000001"}, "type": "Feature"}
{"geometry": {"coordinates": [-75.435948, 40.937151], "type": "Point"}, "id": "r761dJxu8nvZ5jxRHaHSCj4BDbQ=", "properties": {"@source_uri": "https://tools.usps.com/UspsToolsRestServices/rest/POLocator/findLocations", "@spider": "usps_collection_boxes", "addr:city": "EFFORT", "addr:country": "US", "addr:postcode": "18330", "addr:state": "PA", "addr:street_address": "985 GILBERT RD", "amenity": "post_box", "collection_times": "Mo-Fr 16:30; Sa 11:45", "indoor": "yes", "note": "ON 12/24 AND 12/31, THIS BOX MAY BE COLLECTED AS EARLY AS 12 NOON.", "nsi_id": "unitedstatespostalservice-a77078", "operator": "United States Postal Service", "operator:short": "USPS", "operator:type": "public", "operator:wikidata": "Q668687", "ref": "1833000003"}, "type": "Feature"}
{"geometry": {"coordinates": [-75.435948, 40.937151], "type": "Point"}, "id": "IVVGKt7PDyl1QcPUaECvAygQz7k=", "properties": {"@source_uri": "https://tools.usps.com/UspsToolsRestServices/rest/POLocator/findLocations", "@spider": "usps_collection_boxes", "addr:city": "EFFORT", "addr:country": "US", "addr:postcode": "18330", "addr:state": "PA", "addr:street_address": "985 GILBERT RD", "amenity": "post_box", "collection_times": "Mo-Fr 16:30; Sa 11:45", "indoor": "yes", "note": "ON 12/24 AND 12/31, THIS BOX MAY BE COLLECTED AS EARLY AS 12 NOON.", "nsi_id": "unitedstatespostalservice-a77078", "operator": "United States Postal Service", "operator:short": "USPS", "operator:type": "public", "operator:wikidata": "Q668687", "ref": "1833000004"}, "type": "Feature"}
{"geometry": {"coordinates": [-75.435968386, 40.937085115], "type": "Point"}, "id": "erivsPrUi_TxhpqsbAWHk8RglUs=", "properties": {"@source_uri": "https://tools.usps.com/UspsToolsRestServices/rest/POLocator/findLocations", "@spider": "usps_collection_boxes", "addr:city": "EFFORT", "addr:country": "US", "addr:postcode": "18330", "addr:state": "PA", "addr:street_address": "985 GILBERT RD", "amenity": "post_box", "collection_times": "Mo-Fr 17:00; Sa 12:00", "indoor": "yes", "note": "ON 12/24 AND 12/31, THIS BOX MAY BE COLLECTED AS EARLY AS 12 NOON.", "nsi_id": "unitedstatespostalservice-a77078", "operator": "United States Postal Service", "operator:short": "USPS", "operator:type": "public", "operator:wikidata": "Q668687", "ref": "1833000007"}, "type": "Feature"}
{"geometry": {"coordinates": [-75.439044, 40.914572], "type": "Point"}, "id": "VCI4-09If5l7F15XQ3IJVbuHwJE=", "properties": {"@source_uri": "https://tools.usps.com/UspsToolsRestServices/rest/POLocator/findLocations", "@spider": "usps_collection_boxes", "addr:city": "GILBERT", "addr:country": "US", "addr:postcode": "18331", "addr:state": "PA", "addr:street_address": "622 GILBERT RD", "amenity": "post_box", "collection_times": "Mo-Fr 16:30; Sa 11:30", "note": "ON 12/24 AND 12/31, THIS BOX MAY BE COLLECTED AS EARLY AS 12 NOON.", "nsi_id": "unitedstatespostalservice-a77078", "operator": "United States Postal Service", "operator:short": "USPS", "operator:type": "public", "operator:wikidata": "Q668687", "ref": "1833100001"}, "type": "Feature"}
{"geometry": {"coordinates": [-75.439098, 40.914586], "type": "Point"}, "id": "uE1NQuA2aR-PKFqmjMFXnbv8p-Y=", "properties": {"@source_uri": "https://tools.usps.com/UspsToolsRestServices/rest/POLocator/findLocations", "@spider": "usps_collection_boxes", "addr:city": "GILBERT", "addr:country": "US", "addr:postcode": "18331", "addr:state": "PA", "addr:street_address": "622 GILBERT RD", "amenity": "post_box", "collection_times": "Mo-Fr 16:30; Sa 11:30", "indoor": "yes", "note": "ON 12/24 AND 12/31, THIS BOX MAY BE COLLECTED AS EARLY AS 12 NOON.", "nsi_id": "unitedstatespostalservice-a77078", "operator": "United States Postal Service", "operator:short": "USPS", "operator:type": "public", "operator:wikidata": "Q668687", "ref": "1833100003"}, "type": "Feature"}
{"geometry": {"coordinates": [-75.439277793, 40.914827569], "type": "Point"}, "id": "6uxE_T90zeFGHuZoIwSsuJZO9q0=", "properties": {"@source_uri": "https://tools.usps.com/UspsToolsRestServices/rest/POLocator/findLocations", "@spider": "usps_collection_boxes", "addr:city": "GILBERT", "addr:country": "US", "addr:postcode": "18331", "addr:state": "PA", "addr:street_address": "622 GILBERT RD", "amenity": "post_box", "collection_times": "Mo-Fr 16:30; Sa 11:45", "indoor": "yes", "note": "ON 12/24 AND 12/31, THIS BOX MAY BE COLLECTED AS EARLY AS 12 NOON.", "nsi_id": "unitedstatespostalservice-a77078", "operator": "United States Postal Service", "operator:short": "USPS", "operator:type": "public", "operator:wikidata": "Q668687", "ref": "1833100005"}, "type": "Feature"}
{"geometry": {"coordinates": [-75.245279, 41.096298], "type": "Point"}, "id": "mSduQiuSHek_38_C92AgIVV5kM8=", "properties": {"@source_uri": "https://tools.usps.com/UspsToolsRestServices/rest/POLocator/findLocations", "@spider": "usps_collection_boxes", "addr:city": "HENRYVILLE", "addr:country": "US", "addr:postcode": "18332", "addr:state": "PA", "addr:street_address": "5285 PARADISE VALLEY RD", "amenity": "post_box", "collection_times": "Mo-Fr 16:30; Sa 11:00", "note": "ON 12/24 AND 12/31, THIS BOX MAY BE COLLECTED AS EARLY AS 12 NOON.", "nsi_id": "unitedstatespostalservice-a77078", "operator": "United States Postal Service", "operator:short": "USPS", "operator:type": "public", "operator:wikidata": "Q668687", "ref": "1833200001"}, "type": "Feature"}
{"geometry": {"coordinates": [-75.245329, 41.096384], "type": "Point"}, "id": "Ki4rGY_6AWnEhyuIsGbL55ESRq0=", "properties": {"@source_uri": "https://tools.usps.com/UspsToolsRestServices/rest/POLocator/findLocations", "@spider": "usps_collection_boxes", "addr:city": "HENRYVILLE", "addr:country": "US", "addr:postcode": "18332", "addr:state": "PA", "addr:street_address": "5285 PARADISE VALLEY RD", "amenity": "post_box", "collection_times": "Mo-Fr 16:30; Sa 11:00", "indoor": "yes", "note": "ON 12/24 AND 12/31, THIS BOX MAY BE COLLECTED AS EARLY AS 12 NOON.", "nsi_id": "unitedstatespostalservice-a77078", "operator": "United States Postal Service", "operator:short": "USPS", "operator:type": "public", "operator:wikidata": "Q668687", "ref": "1833200002"}, "type": "Feature"}
{"geometry": {"coordinates": [-75.245183582, 41.096207044], "type": "Point"}, "id": "dOLn2rnHDCEyHwDlGmrC0c-fQak=", "properties": {"@source_uri": "https://tools.usps.com/UspsToolsRestServices/rest/POLocator/findLocations", "@spider": "usps_collection_boxes", "addr:city": "HENRYVILLE", "addr:country": "US", "addr:postcode": "18332", "addr:state": "PA", "addr:street_address": "5285 PARADISE VALLEY RD", "amenity": "post_box", "collection_times": "Mo-Fr 16:45; Sa 11:30", "indoor": "yes", "note": "ON 12/24 AND 12/31, THIS BOX MAY BE COLLECTED AS EARLY AS 12 NOON.", "nsi_id": "unitedstatespostalservice-a77078", "operator": "United States Postal Service", "operator:short": "USPS", "operator:type": "public", "operator:wikidata": "Q668687", "ref": "1833200005"}, "type": "Feature"}
{"geometry": {"coordinates": [-75.499178, 40.899875], "type": "Point"}, "id": "UrmhlEMHr_SKC7N9R3WI1oaAR0g=", "properties": {"@source_uri": "https://tools.usps.com/UspsToolsRestServices/rest/POLocator/findLocations", "@spider": "usps_collection_boxes", "addr:city": "KRESGEVILLE", "addr:country": "US", "addr:postcode": "18333", "addr:state": "PA", "addr:street_address": "543 INTERCHANGE RD STE 103", "amenity": "post_box", "collection_times": "Mo-Fr 16:00; Sa 11:30", "note": "ON 12/24 AND 12/31, THIS BOX MAY BE COLLECTED AS EARLY AS 12 NOON.", "nsi_id": "unitedstatespostalservice-a77078", "operator": "United States Postal Service", "operator:short": "USPS", "operator:type": "public", "operator:wikidata": "Q668687", "ref": "1833300001"}, "type": "Feature"}
{"geometry": {"coordinates": [-75.509985775, 40.8979209777], "type": "Point"}, "id": "0z4uRkB1RpaPPgMCTirGbySbcBk=", "properties": {"@source_uri": "https://tools.usps.com/UspsToolsRestServices/rest/POLocator/findLocations", "@spider": "usps_collection_boxes", "addr:city": "KRESGEVILLE", "addr:country": "US", "addr:postcode": "18333", "addr:state": "PA", "addr:street_address": "1 POSTAL WAY", "amenity": "post_box", "collection_times": "Mo-Fr 16:00; Sa 11:30", "indoor": "yes", "note": "ON 12/24 AND 12/31, THIS BOX MAY BE COLLECTED AS EARLY AS 12 NOON.", "nsi_id": "unitedstatespostalservice-a77078", "operator": "United States Postal Service", "operator:short": "USPS", "operator:type": "public", "operator:wikidata": "Q668687", "ref": "1833300002"}, "type": "Feature"}
{"geometry": {"coordinates": [-75.499180814, 40.899872031], "type": "Point"}, "id": "bwFUHq78EmYANRMgHzxz5Cf73hY=", "properties": {"@source_uri": "https://tools.usps.com/UspsToolsRestServices/rest/POLocator/findLocations", "@spider": "usps_collection_boxes", "addr:city": "KRESGEVILLE", "addr:country": "US", "addr:postcode": "18333", "addr:state": "PA", "addr:street_address": "543 INTERCHANGE RD STE 103", "amenity": "post_box", "collection_times": "Mo-Fr 16:30; Sa 11:45", "indoor": "yes", "note": "ON 12/24 AND 12/31, THIS BOX MAY BE COLLECTED AS EARLY AS 12 NOON.", "nsi_id": "unitedstatespostalservice-a77078", "operator": "United States Postal Service", "operator:short": "USPS", "operator:type": "public", "operator:wikidata": "Q668687", "ref": "1833300004"}, "type": "Feature"}
{"geometry": {"coordinates": [-75.485997, 41.061916], "type": "Point"}, "id": "YnPslsk6_7Ep51eAiYbPw3lccr8=", "properties": {"@source_uri": "https://tools.usps.com/UspsToolsRestServices/rest/POLocator/findLocations", "@spider": "usps_collection_boxes", "addr:city": "LONG POND", "addr:country": "US", "addr:postcode": "18334", "addr:state": "PA", "addr:street_address": "1557 LONG POND RD", "amenity": "post_box", "collection_times": "Mo-Fr 16:00; Sa 12:00", "note": "ON 12/24 AND 12/31, THIS BOX MAY BE COLLECTED AS EARLY AS 12 NOON.", "nsi_id": "unitedstatespostalservice-a77078", "operator": "United States Postal Service", "operator:short": "USPS", "operator:type": "public", "operator:wikidata": "Q668687", "ref": "1833400001"}, "type": "Feature"}
{"geometry": {"coordinates": [-75.485997, 41.061916], "type": "Point"}, "id": "e_So08_6W9D9lzihnT7fD-aC0sE=", "properties": {"@source_uri": "https://tools.usps.com/UspsToolsRestServices/rest/POLocator/findLocations", "@spider": "usps_collection_boxes", "addr:city": "LONG POND", "addr:country": "US", "addr:postcode": "18334", "addr:state": "PA", "addr:street_address": "1557 LONG POND RD LBBY", "amenity": "post_box", "collection_times": "Mo-Fr 16:00; Sa 12:00", "indoor": "yes", "note": "ON 12/24 AND 12/31, THIS BOX MAY BE COLLECTED AS EARLY AS 12 NOON.", "nsi_id": "unitedstatespostalservice-a77078", "operator": "United States Postal Service", "operator:short": "USPS", "operator:type": "public", "operator:wikidata": "Q668687", "ref": "1833400003"}, "type": "Feature"}
{"geometry": {"coordinates": [-75.486023, 41.061866], "type": "Point"}, "id": "UaRyxjnxPA8LL2uC25mCiGrquHE=", "properties": {"@source_uri": "https://tools.usps.com/UspsToolsRestServices/rest/POLocator/findLocations", "@spider": "usps_collection_boxes", "addr:city": "LONG POND", "addr:country": "US", "addr:postcode": "18334", "addr:state": "PA", "addr:street_address": "1556 LONG POND RD", "amenity": "post_box", "collection_times": "Mo-Fr 16:00; Sa 12:00", "indoor": "yes", "note": "ON 12/24 AND 12/31, THIS BOX MAY BE COLLECTED AS EARLY AS 12 NOON.", "nsi_id": "unitedstatespostalservice-a77078", "operator": "United States Postal Service", "operator:short": "USPS", "operator:type": "public", "operator:wikidata": "Q668687", "ref": "1833400004"}, "type": "Feature"}
{"geometry": {"coordinates": [-75.486127189, 41.061940977], "type": "Point"}, "id": "aFySVZHy9lpo_Jt2nw0LJIEdbr4=", "properties": {"@source_uri": "https://tools.usps.com/UspsToolsRestServices/rest/POLocator/findLocations", "@spider": "usps_collection_boxes", "addr:city": "LONG POND", "addr:country": "US", "addr:postcode": "18334", "addr:state": "PA", "addr:street_address": "1557 LONG POND RD", "amenity": "post_box", "collection_times": "Mo-Fr 16:00; Sa 12:00", "indoor": "yes", "note": "ON 12/24 AND 12/31, THIS BOX MAY BE COLLECTED AS EARLY AS 12 NOON.", "nsi_id": "unitedstatespostalservice-a77078", "operator": "United States Postal Service", "operator:short": "USPS", "operator:type": "public", "operator:wikidata": "Q668687", "ref": "1833400006"}, "type": "Feature"}
{"geometry": {"coordinates": [-75.123522, 41.038044], "type": "Point"}, "id": "6aX_-R2K815xJsaawvRlrH2ySLw=", "properties": {"@source_uri": "https://tools.usps.com/UspsToolsRestServices/rest/POLocator/findLocations", "@spider": "usps_collection_boxes", "addr:city": "MARSHALLS CREEK", "addr:country": "US", "addr:postcode": "18335", "addr:state": "PA", "addr:street_address": "315 DARTMOUTH DR", "amenity": "post_box", "collection_times": "Mo-Fr 16:30; Sa 11:00", "note": "ON 12/24 AND 12/31, THIS BOX MAY BE COLLECTED AS EARLY AS 12 NOON.", "nsi_id": "unitedstatespostalservice-a77078", "operator": "United States Postal Service", "operator:short": "USPS", "operator:type": "public", "operator:wikidata": "Q668687", "ref": "1833500001"}, "type": "Feature"}
{"geometry": {"coordinates": [-75.123522, 41.038044], "type": "Point"}, "id": "reYdBz7fBiT8Q-bek0lYQS-zvc4=", "properties": {"@source_uri": "https://tools.usps.com/UspsToolsRestServices/rest/POLocator/findLocations", "@spider": "usps_collection_boxes", "addr:city": "MARSHALLS CREEK", "addr:country": "US", "addr:postcode": "18335", "addr:state": "PA", "addr:street_address": "315 DARTMOUTH DR", "amenity": "post_box", "collection_times": "Mo-Fr 16:30; Sa 11:00", "indoor": "yes", "note": "ON 12/24 AND 12/31, THIS BOX MAY BE COLLECTED AS EARLY AS 12 NOON.", "nsi_id": "unitedstatespostalservice-a77078", "operator": "United States Postal Service", "operator:short": "USPS", "operator:type": "public", "operator:wikidata": "Q668687", "ref": "1833500002"}, "type": "Feature"}
{"geometry": {"coordinates": [-75.12380527, 41.038399022], "type": "Point"}, "id": "X2k_csW7kg5dtqvIC6USKfoI3ng=", "properties": {"@source_uri": "https://tools.usps.com/UspsToolsRestServices/rest/POLocator/findLocations", "@spider": "usps_collection_boxes", "addr:city": "MARSHALLS CREEK", "addr:country": "US", "addr:postcode": "18335", "addr:state": "PA", "addr:street_address": "315 DARTMOUTH DR", "amenity": "post_box", "collection_times": "Mo-Fr 17:00; Sa 11:00", "indoor": "yes", "note": "ON 12/24 AND 12/31, THIS BOX MAY BE COLLECTED AS EARLY AS 12 NOON.", "nsi_id": "unitedstatespostalservice-a77078", "operator": "United States Postal Service", "operator:short": "USPS", "operator:type": "public", "operator:wikidata": "Q668687", "ref": "1833500005"}, "type": "Feature"}
{"geometry": {"coordinates": [-74.698087, 41.370805], "type": "Point"}, "id": "RQ2u_GtgC5A6DzJcRkXD02Yp_zU=", "properties": {"@source_uri": "https://tools.usps.com/UspsToolsRestServices/rest/POLocator/findLocations", "@spider": "usps_collection_boxes", "addr:city": "MATAMORAS", "addr:country": "US", "addr:postcode": "18336", "addr:state": "PA", "addr:street_address": "6 PENNSYLVANIA AVE", "amenity": "post_box", "collection_times": "Mo-Fr 16:45; Sa 11:45", "note": "ON 12/24 AND 12/31, THIS BOX MAY BE COLLECTED AS EARLY AS 12 NOON.", "nsi_id": "unitedstatespostalservice-a77078", "operator": "United States Postal Service", "operator:short": "USPS", "operator:type": "public", "operator:wikidata": "Q668687", "ref": "1833600001"}, "type": "Feature"}
{"geometry": {"coordinates": [-74.7056141, 41.363411], "type": "Point"}, "id": "1ZxgaMq2qCu3kPkmem2cYf-jOPU=", "properties": {"@source_uri": "https://tools.usps.com/UspsToolsRestServices/rest/POLocator/findLocations", "@spider": "usps_collection_boxes", "addr:city": "MATAMORAS", "addr:country": "US", "addr:postcode": "18336", "addr:state": "PA", "addr:street_address": "912 PENNSYLVANIA AVE", "amenity": "post_box", "collection_times": "Mo-Sa 10:00", "nsi_id": "unitedstatespostalservice-a77078", "operator": "United States Postal Service", "operator:short": "USPS", "operator:type": "public", "operator:wikidata": "Q668687", "ref": "1833600006"}, "type": "Feature"}
{"geometry": {"coordinates": [-74.698047, 41.370886], "type": "Point"}, "id": "DBe2dhiXGAAUKfzUXxbX0OHSC10=", "properties": {"@source_uri": "https://tools.usps.com/UspsToolsRestServices/rest/POLocator/findLocations", "@spider": "usps_collection_boxes", "addr:city": "MATAMORAS", "addr:country": "US", "addr:postcode": "18336", "addr:state": "PA", "addr:street_address": "6 PENNSYLVANIA AVE", "amenity": "post_box", "collection_times": "Mo-Fr 16:45; Sa 11:45", "indoor": "yes", "note": "ON 12/24 AND 12/31, THIS BOX MAY BE COLLECTED AS EARLY AS 12 NOON.", "nsi_id": "unitedstatespostalservice-a77078", "operator": "United States Postal Service", "operator:short": "USPS", "operator:type": "public", "operator:wikidata": "Q668687", "ref": "1833600013"}, "type": "Feature"}
{"geometry": {"coordinates": [-74.698031758, 41.370807371], "type": "Point"}, "id": "x1UZFWDQMMT9f_9X0DHHQWWIh78=", "properties": {"@source_uri": "https://tools.usps.com/UspsToolsRestServices/rest/POLocator/findLocations", "@spider": "usps_collection_boxes", "addr:city": "MATAMORAS", "addr:country": "US", "addr:postcode": "18336", "addr:state": "PA", "addr:street_address": "6 PENNSYLVANIA AVE", "amenity": "post_box", "collection_times": "Mo-Fr 17:00; Sa 12:00", "indoor": "yes", "note": "ON 12/24 AND 12/31, THIS BOX MAY BE COLLECTED AS EARLY AS 12 NOON.", "nsi_id": "unitedstatespostalservice-a77078", "operator": "United States Postal Service", "operator:short": "USPS", "operator:type": "public", "operator:wikidata": "Q668687", "ref": "1833600015"}, "type": "Feature"}
{"geometry": {"coordinates": [-74.8007984, 41.324568], "type": "Point"}, "id": "sTVt0owDjhWjMcfR1C37Hu9QY3Y=", "properties": {"@source_uri": "https://tools.usps.com/UspsToolsRestServices/rest/POLocator/findLocations", "@spider": "usps_collection_boxes", "addr:city": "MILFORD", "addr:country": "US", "addr:postcode": "18337", "addr:state": "PA", "addr:street_address": "412 BROAD ST", "amenity": "post_box", "collection_times": "Mo-Sa 15:00", "note": "ON 12/24 AND 12/31, THIS BOX MAY BE COLLECTED AS EARLY AS 12 NOON.", "nsi_id": "unitedstatespostalservice-a77078", "operator": "United States Postal Service", "operator:short": "USPS", "operator:type": "public", "operator:wikidata": "Q668687", "ref": "1833700001"}, "type": "Feature"}
{"geometry": {"coordinates": [-74.8017007, 41.323675], "type": "Point"}, "id": "7pEusvteckVCMMYz89dXCE-DZ-U=", "properties": {"@source_uri": "https://tools.usps.com/UspsToolsRestServices/rest/POLocator/findLocations", "@spider": "usps_collection_boxes", "addr:city": "MILFORD", "addr:country": "US", "addr:postcode": "18337", "addr:state": "PA", "addr:street_address": "322 BROAD ST", "amenity": "post_box", "collection_times": "Mo-Sa 15:00", "note": "ON 12/24 AND 12/31, THIS BOX MAY BE COLLECTED AS EARLY AS 12 NOON.", "nsi_id": "unitedstatespostalservice-a77078", "operator": "United States Postal Service", "operator:short": "USPS", "operator:type": "public", "operator:wikidata": "Q668687", "ref": "1833700002"}, "type": "Feature"}
{"geometry": {"coordinates": [-74.933883, 41.300834], "type": "Point"}, "id": "nnNtmDrv983ad_K0wrNJNb289mE=", "properties": {"@source_uri": "https://tools.usps.com/UspsToolsRestServices/rest/POLocator/findLocations", "@spider": "usps_collection_boxes", "addr:city": "MILFORD", "addr:country": "US", "addr:postcode": "18337", "addr:state": "PA", "addr:street_address": "106 LOG TAVERN WAY", "amenity": "post_box", "collection_times": "Mo-Sa 11:00", "nsi_id": "unitedstatespostalservice-a77078", "operator": "United States Postal Service", "operator:short": "USPS", "operator:type": "public", "operator:wikidata": "Q668687", "ref": "1833700003"}, "type": "Feature"}
{"geometry": {"coordinates": [-74.9802177, 41.30815], "type": "Point"}, "id": "qYLqcnUW3v4-BjcKzHi_uEMY2vM=", "properties": {"@source_uri": "https://tools.usps.com/UspsToolsRestServices/rest/POLocator/findLocations", "@spider": "usps_collection_boxes", "addr:city": "MILFORD", "addr:country": "US", "addr:postcode": "18337", "addr:state": "PA", "addr:street_address": "4000 CONASHAUGH LK", "amenity": "post_box", "collection_times": "Mo-Sa 11:00", "nsi_id": "unitedstatespostalservice-a77078", "operator": "United States Postal Service", "operator:short": "USPS", "operator:type": "public", "operator:wikidata": "Q668687", "ref": "1833700006"}, "type": "Feature"}
{"geometry": {"coordinates": [-74.8087385, 41.3265], "type": "Point"}, "id": "eraMoktfvRCgXYaW0XWHUkSwGyI=", "properties": {"@source_uri": "https://tools.usps.com/UspsToolsRestServices/rest/POLocator/findLocations", "@spider": "usps_collection_boxes", "addr:city": "MILFORD", "addr:country": "US", "addr:postcode": "18337", "addr:state": "PA", "addr:street_address": "501 W HARFORD ST", "amenity": "post_box", "collection_times": "Mo-Sa 10:00", "nsi_id": "unitedstatespostalservice-a77078", "operator": "United States Postal Service", "operator:short": "USPS", "operator:type": "public", "operator:wikidata": "Q668687", "ref": "1833700009"}, "type": "Feature"}
{"geometry": {"coordinates": [-74.9617076, 41.29814], "type": "Point"}, "id": "ZYUzrLICO-TjH40y4mIT-RwOTRY=", "properties": {"@source_uri": "https://tools.usps.com/UspsToolsRestServices/rest/POLocator/findLocations", "@spider": "usps_collection_boxes", "addr:city": "MILFORD", "addr:country": "US", "addr:postcode": "18337", "addr:state": "PA", "addr:street_address": "1294 ROUTE 739", "amenity": "post_box", "collection_times": "Mo-Sa 11:00", "nsi_id": "unitedstatespostalservice-a77078", "operator": "United States Postal Service", "operator:short": "USPS", "operator:type": "public", "operator:wikidata": "Q668687", "ref": "1833700014"}, "type": "Feature"}
{"geometry": {"coordinates": [-74.805371307, 41.323372754], "type": "Point"}, "id": "4rE7QEbbiJ-A8bmfbxNbmHI3_7E=", "properties": {"@source_uri": "https://tools.usps.com/UspsToolsRestServices/rest/POLocator/findLocations", "@spider": "usps_collection_boxes", "addr:city": "MILFORD", "addr:country": "US", "addr:postcode": "18337", "addr:state": "PA", "addr:street_address": "200 W HARFORD ST", "amenity": "post_box", "collection_times": "Mo-Fr 17:00; Sa 13:30", "indoor": "yes", "note": "ON 12/24 AND 12/31, THIS BOX MAY BE COLLECTED AS EARLY AS 12 NOON.", "nsi_id": "unitedstatespostalservice-a77078", "operator": "United States Postal Service", "operator:short": "USPS", "operator:type": "public", "operator:wikidata": "Q668687", "ref": "1833700019"}, "type": "Feature"}
{"geometry": {"coordinates": [-74.744757, 41.410882], "type": "Point"}, "id": "t6k_kvRS0rezvrvctOvwAKGdTFo=", "properties": {"@source_uri": "https://tools.usps.com/UspsToolsRestServices/rest/POLocator/findLocations", "@spider": "usps_collection_boxes", "addr:city": "MILLRIFT", "addr:country": "US", "addr:postcode": "18340", "addr:state": "PA", "addr:street_address": "125 BLUESTONE BLVD", "amenity": "post_box", "collection_times": "Mo-Fr 16:15; Sa 11:30", "note": "ON 12/24 AND 12/31, THIS BOX MAY BE COLLECTED AS EARLY AS 12 NOON.", "nsi_id": "unitedstatespostalservice-a77078", "operator": "United States Postal Service", "operator:short": "USPS", "operator:type": "public", "operator:wikidata": "Q668687", "ref": "1834000001"}, "type": "Feature"}
{"geometry": {"coordinates": [-74.744757, 41.410882], "type": "Point"}, "id": "2X1SD-63cl3FO8B7TcQwJqZG6m0=", "properties": {"@source_uri": "https://tools.usps.com/UspsToolsRestServices/rest/POLocator/findLocations", "@spider": "usps_collection_boxes", "addr:city": "MILLRIFT", "addr:country": "US", "addr:postcode": "18340", "addr:state": "PA", "addr:street_address": "125 BLUESTONE BLVD", "amenity": "post_box", "collection_times": "Mo-Fr 16:15; Sa 11:30", "indoor": "yes", "note": "ON 12/24 AND 12/31, THIS BOX MAY BE COLLECTED AS EARLY AS 12 NOON.", "nsi_id": "unitedstatespostalservice-a77078", "operator": "United States Postal Service", "operator:short": "USPS", "operator:type": "public", "operator:wikidata": "Q668687", "ref": "1834000002"}, "type": "Feature"}
{"geometry": {"coordinates": [-74.80607, 41.44118], "type": "Point"}, "id": "xIIEcS3KmNK1CqIQrWWyeixX5j8=", "properties": {"@source_uri": "https://tools.usps.com/UspsToolsRestServices/rest/POLocator/findLocations", "@spider": "usps_collection_boxes", "addr:city": "MILLRIFT", "addr:country": "US", "addr:postcode": "18340", "addr:state": "PA", "addr:street_address": "125 BLUESTONE BLVD", "amenity": "post_box", "collection_times": "Mo-Fr 16:15; Sa 11:30", "indoor": "yes", "note": "ON 12/24 AND 12/31, THIS BOX MAY BE COLLECTED AS EARLY AS 12 NOON.", "nsi_id": "unitedstatespostalservice-a77078", "operator": "United States Postal Service", "operator:short": "USPS", "operator:type": "public", "operator:wikidata": "Q668687", "ref": "1834000004"}, "type": "Feature"}
{"geometry": {"coordinates": [-77.8387503615, 40.896509984], "type": "Point"}, "id": "aIwO9tNTHGrIVO2HL2vk-mZ-KSk=", "properties": {"@source_uri": "https://tools.usps.com/UspsToolsRestServices/rest/POLocator/findLocations", "@spider": "usps_collection_boxes", "addr:city": "MOUNTAINHOME", "addr:country": "US", "addr:postcode": "18342", "addr:state": "PA", "addr:street_address": "1099 ROUTE 390 STE 102", "amenity": "post_box", "collection_times": "Mo-Fr 16:30; Sa 12:00", "note": "ON 12/24 AND 12/31, THIS BOX MAY BE COLLECTED AS EARLY AS 12 NOON.", "nsi_id": "unitedstatespostalservice-a77078", "operator": "United States Postal Service", "operator:short": "USPS", "operator:type": "public", "operator:wikidata": "Q668687", "ref": "1834200001"}, "type": "Feature"}
{"geometry": {"coordinates": [-77.8387503615, 40.896509984], "type": "Point"}, "id": "ez5diZl34xgpZHXz3TTk4q2gFbQ=", "properties": {"@source_uri": "https://tools.usps.com/UspsToolsRestServices/rest/POLocator/findLocations", "@spider": "usps_collection_boxes", "addr:city": "MOUNTAINHOME", "addr:country": "US", "addr:postcode": "18342", "addr:state": "PA", "addr:street_address": "1099 ROUTE 390 STE 102", "amenity": "post_box", "collection_times": "Mo-Fr 16:30; Sa 12:00", "indoor": "yes", "note": "ON 12/24 AND 12/31, THIS BOX MAY BE COLLECTED AS EARLY AS 12 NOON.", "nsi_id": "unitedstatespostalservice-a77078", "operator": "United States Postal Service", "operator:short": "USPS", "operator:type": "public", "operator:wikidata": "Q668687", "ref": "1834200002"}, "type": "Feature"}
{"geometry": {"coordinates": [-75.2723014, 41.0260257], "type": "Point"}, "id": "bMa9a4fDeavK0KP0WcSlI6PR0zM=", "properties": {"@source_uri": "https://tools.usps.com/UspsToolsRestServices/rest/POLocator/findLocations", "@spider": "usps_collection_boxes", "addr:city": "MOUNTAINHOME", "addr:country": "US", "addr:postcode": "18342", "addr:state": "PA", "addr:street_address": "1099 ROUTE 390 STE 102", "amenity": "post_box", "collection_times": "Mo-Fr 16:30; Sa 12:00", "indoor": "yes", "note": "ON 12/24 AND 12/31, THIS BOX MAY BE COLLECTED AS EARLY AS 12 NOON.", "nsi_id": "unitedstatespostalservice-a77078", "operator": "United States Postal Service", "operator:short": "USPS", "operator:type": "public", "operator:wikidata": "Q668687", "ref": "1834200006"}, "type": "Feature"}
{"geometry": {"coordinates": [-75.120558, 40.896981], "type": "Point"}, "id": "O5M7p51zO8ZZfmX8aTa8Mw5defg=", "properties": {"@source_uri": "https://tools.usps.com/UspsToolsRestServices/rest/POLocator/findLocations", "@spider": "usps_collection_boxes", "addr:city": "MT BETHEL", "addr:country": "US", "addr:postcode": "18343", "addr:state": "PA", "addr:street_address": "2 MOUNT BETHEL PLZ", "amenity": "post_box", "collection_times": "Mo-Fr 16:30; Sa 12:00", "note": "ON 12/24 AND 12/31, THIS BOX MAY BE COLLECTED AS EARLY AS 12 NOON.", "nsi_id": "unitedstatespostalservice-a77078", "operator": "United States Postal Service", "operator:short": "USPS", "operator:type": "public", "operator:wikidata": "Q668687", "ref": "1834300001"}, "type": "Feature"}
{"geometry": {"coordinates": [-75.12017, 40.897993], "type": "Point"}, "id": "cFSPL9PtoymKDPNeeEhPNWwI9oM=", "properties": {"@source_uri": "https://tools.usps.com/UspsToolsRestServices/rest/POLocator/findLocations", "@spider": "usps_collection_boxes", "addr:city": "MT BETHEL", "addr:country": "US", "addr:postcode": "18343", "addr:state": "PA", "addr:street_address": "2 MOUNT BETHEL PLZ", "amenity": "post_box", "collection_times": "Mo-Fr 16:30; Sa 12:00", "indoor": "yes", "note": "ON 12/24 AND 12/31, THIS BOX MAY BE COLLECTED AS EARLY AS 12 NOON.", "nsi_id": "unitedstatespostalservice-a77078", "operator": "United States Postal Service", "operator:short": "USPS", "operator:type": "public", "operator:wikidata": "Q668687", "ref": "1834300003"}, "type": "Feature"}
{"geometry": {"coordinates": [-75.120183761, 40.898028087], "type": "Point"}, "id": "F5b2EY9QqQOSR8TPn6C_-I99HkE=", "properties": {"@source_uri": "https://tools.usps.com/UspsToolsRestServices/rest/POLocator/findLocations", "@spider": "usps_collection_boxes", "addr:city": "MT BETHEL", "addr:country": "US", "addr:postcode": "18343", "addr:state": "PA", "addr:street_address": "2 MOUNT BETHEL PLZ", "amenity": "post_box", "collection_times": "Mo-Fr 16:30; Sa 12:00", "indoor": "yes", "note": "ON 12/24 AND 12/31, THIS BOX MAY BE COLLECTED AS EARLY AS 12 NOON.", "nsi_id": "unitedstatespostalservice-a77078", "operator": "United States Postal Service", "operator:short": "USPS", "operator:type": "public", "operator:wikidata": "Q668687", "ref": "1834300004"}, "type": "Feature"}
{"geometry": {"coordinates": [-75.120183761, 40.898028087], "type": "Point"}, "id": "UAHatbokRkxgAE702--2wlDt_0g=", "properties": {"@source_uri": "https://tools.usps.com/UspsToolsRestServices/rest/POLocator/findLocations", "@spider": "usps_collection_boxes", "addr:city": "MT BETHEL", "addr:country": "US", "addr:postcode": "18343", "addr:state": "PA", "addr:street_address": "2 MOUNT BETHEL PLZ", "amenity": "post_box", "collection_times": "Mo-Fr 17:00; Sa 12:00", "indoor": "yes", "note": "ON 12/24 AND 12/31, THIS BOX MAY BE COLLECTED AS EARLY AS 12 NOON.", "nsi_id": "unitedstatespostalservice-a77078", "operator": "United States Postal Service", "operator:short": "USPS", "operator:type": "public", "operator:wikidata": "Q668687", "ref": "1834300006"}, "type": "Feature"}
{"geometry": {"coordinates": [-75.3571010173, 41.1245480045], "type": "Point"}, "id": "qnCeCwtmD1KphcpxqcwZ5C4BPLg=", "properties": {"@source_uri": "https://tools.usps.com/UspsToolsRestServices/rest/POLocator/findLocations", "@spider": "usps_collection_boxes", "addr:city": "MOUNT POCONO", "addr:country": "US", "addr:postcode": "18344", "addr:state": "PA", "addr:street_address": "3430 ROUTE 940", "amenity": "post_box", "collection_times": "Mo-Sa 10:15", "nsi_id": "unitedstatespostalservice-a77078", "operator": "United States Postal Service", "operator:short": "USPS", "operator:type": "public", "operator:wikidata": "Q668687", "ref": "1834400003"}, "type": "Feature"}
{"geometry": {"coordinates": [-75.3740286756, 41.1222761496], "type": "Point"}, "id": "_0LyHD48vPDfFTH33PfpKSEshu0=", "properties": {"@source_uri": "https://tools.usps.com/UspsToolsRestServices/rest/POLocator/findLocations", "@spider": "usps_collection_boxes", "addr:city": "MOUNT POCONO", "addr:country": "US", "addr:postcode": "18344", "addr:state": "PA", "addr:street_address": "3226 ROUTE 940", "amenity": "post_box", "collection_times": "Mo-Sa 11:00", "nsi_id": "unitedstatespostalservice-a77078", "operator": "United States Postal Service", "operator:short": "USPS", "operator:type": "public", "operator:wikidata": "Q668687", "ref": "1834400004"}, "type": "Feature"}
{"geometry": {"coordinates": [-75.35358, 41.122478], "type": "Point"}, "id": "2dyhyKaZAMhAiwgU6b2OY_v_kdo=", "properties": {"@source_uri": "https://tools.usps.com/UspsToolsRestServices/rest/POLocator/findLocations", "@spider": "usps_collection_boxes", "addr:city": "MOUNT POCONO", "addr:country": "US", "addr:postcode": "18344", "addr:state": "PA", "addr:street_address": "11 PINE HILL RD", "amenity": "post_box", "collection_times": "Mo-Fr 17:00; Sa 12:00", "note": "ON 12/24 AND 12/31, THIS BOX MAY BE COLLECTED AS EARLY AS 12 NOON.", "nsi_id": "unitedstatespostalservice-a77078", "operator": "United States Postal Service", "operator:short": "USPS", "operator:type": "public", "operator:wikidata": "Q668687", "ref": "1834400005"}, "type": "Feature"}
{"geometry": {"coordinates": [-75.361976, 41.130978], "type": "Point"}, "id": "pR-lUT0GuMgyDenJsg_kqJLs-QI=", "properties": {"@source_uri": "https://tools.usps.com/UspsToolsRestServices/rest/POLocator/findLocations", "@spider": "usps_collection_boxes", "addr:city": "MOUNT POCONO", "addr:country": "US", "addr:postcode": "18344", "addr:state": "PA", "addr:street_address": "11 PINE HILL RD", "amenity": "post_box", "collection_times": "Mo-Fr 17:00; Sa 12:00", "indoor": "yes", "note": "ON 12/24 AND 12/31, THIS BOX MAY BE COLLECTED AS EARLY AS 12 NOON.", "nsi_id": "unitedstatespostalservice-a77078", "operator": "United States Postal Service", "operator:short": "USPS", "operator:type": "public", "operator:wikidata": "Q668687", "ref": "1834400006"}, "type": "Feature"}
{"geometry": {"coordinates": [-75.361935518, 41.130910927], "type": "Point"}, "id": "GprPJcJp_phHfQS0GX1Tt4vG52Q=", "properties": {"@source_uri": "https://tools.usps.com/UspsToolsRestServices/rest/POLocator/findLocations", "@spider": "usps_collection_boxes", "addr:city": "MOUNT POCONO", "addr:country": "US", "addr:postcode": "18344", "addr:state": "PA", "addr:street_address": "11 PINE HILL RD", "amenity": "post_box", "collection_times": "Mo-Fr 17:00; Sa 12:30", "indoor": "yes", "note": "ON 12/24 AND 12/31, THIS BOX MAY BE COLLECTED AS EARLY AS 12 NOON.", "nsi_id": "unitedstatespostalservice-a77078", "operator": "United States Postal Service", "operator:short": "USPS", "operator:type": "public", "operator:wikidata": "Q668687", "ref": "1834400012"}, "type": "Feature"}
{"geometry": {"coordinates": [-75.404330024, 41.108980002], "type": "Point"}, "id": "1Waxn8U8dH4IeMDiYXvWbZHa3cI=", "properties": {"@source_uri": "https://tools.usps.com/UspsToolsRestServices/rest/POLocator/findLocations", "@spider": "usps_collection_boxes", "addr:city": "POCONO SUMMIT", "addr:country": "US", "addr:postcode": "18346", "addr:state": "PA", "addr:street_address": "2657 ROUTE 940", "amenity": "post_box", "collection_times": "Mo-Fr 16:30; Sa 12:45", "note": "ON 12/24 AND 12/31, THIS BOX MAY BE COLLECTED AS EARLY AS 12 NOON.", "nsi_id": "unitedstatespostalservice-a77078", "operator": "United States Postal Service", "operator:short": "USPS", "operator:type": "public", "operator:wikidata": "Q668687", "ref": "1834600001"}, "type": "Feature"}
{"geometry": {"coordinates": [-75.4001681, 41.107438], "type": "Point"}, "id": "Wwqri4gr3W_9GDi4NDH_ETx6dDo=", "properties": {"@source_uri": "https://tools.usps.com/UspsToolsRestServices/rest/POLocator/findLocations", "@spider": "usps_collection_boxes", "addr:city": "POCONO SUMMIT", "addr:country": "US", "addr:postcode": "18346", "addr:state": "PA", "addr:street_address": "STILLWATER DRIVE", "amenity": "post_box", "collection_times": "Mo-Sa 10:30", "nsi_id": "unitedstatespostalservice-a77078", "operator": "United States Postal Service", "operator:short": "USPS", "operator:type": "public", "operator:wikidata": "Q668687", "ref": "1834600002"}, "type": "Feature"}
{"geometry": {"coordinates": [-75.404330024, 41.108980002], "type": "Point"}, "id": "Z3blnQia7wCAZqfiB2xkMJxMV-M=", "properties": {"@source_uri": "https://tools.usps.com/UspsToolsRestServices/rest/POLocator/findLocations", "@spider": "usps_collection_boxes", "addr:city": "POCONO SUMMIT", "addr:country": "US", "addr:postcode": "18346", "addr:state": "PA", "addr:street_address": "2657 ROUTE 940", "amenity": "post_box", "collection_times": "Mo-Fr 16:30; Sa 12:45", "indoor": "yes", "note": "ON 12/24 AND 12/31, THIS BOX MAY BE COLLECTED AS EARLY AS 12 NOON.", "nsi_id": "unitedstatespostalservice-a77078", "operator": "United States Postal Service", "operator:short": "USPS", "operator:type": "public", "operator:wikidata": "Q668687", "ref": "1834600003"}, "type": "Feature"}
{"geometry": {"coordinates": [-75.3902077, 41.11664], "type": "Point"}, "id": "RIGZpjnPVBGweN4o8TeLVOtRCLY=", "properties": {"@source_uri": "https://tools.usps.com/UspsToolsRestServices/rest/POLocator/findLocations", "@spider": "usps_collection_boxes", "addr:city": "POCONO SUMMIT", "addr:country": "US", "addr:postcode": "18346", "addr:state": "PA", "addr:street_address": "HUMMINGBIRD DRIVE", "amenity": "post_box", "collection_times": "Mo-Sa 11:15", "nsi_id": "unitedstatespostalservice-a77078", "operator": "United States Postal Service", "operator:short": "USPS", "operator:type": "public", "operator:wikidata": "Q668687", "ref": "1834600005"}, "type": "Feature"}
{"geometry": {"coordinates": [-75.404330024, 41.108980002], "type": "Point"}, "id": "LSM8SSQAbNabf9F99sRCKxbNLjc=", "properties": {"@source_uri": "https://tools.usps.com/UspsToolsRestServices/rest/POLocator/findLocations", "@spider": "usps_collection_boxes", "addr:city": "POCONO SUMMIT", "addr:country": "US", "addr:postcode": "18346", "addr:state": "PA", "addr:street_address": "2657 ROUTE 940", "amenity": "post_box", "collection_times": "Mo-Fr 17:00; Sa 12:30", "indoor": "yes", "note": "ON 12/24 AND 12/31, THIS BOX MAY BE COLLECTED AS EARLY AS 12 NOON.", "nsi_id": "unitedstatespostalservice-a77078", "operator": "United States Postal Service", "operator:short": "USPS", "operator:type": "public", "operator:wikidata": "Q668687", "ref": "1834600008"}, "type": "Feature"}
{"geometry": {"coordinates": [-75.534368, 41.121341], "type": "Point"}, "id": "WmAysUdmIUEQh55DJldn6Rpw1Yc=", "properties": {"@source_uri": "https://tools.usps.com/UspsToolsRestServices/rest/POLocator/findLocations", "@spider": "usps_collection_boxes", "addr:city": "POCONO LAKE", "addr:country": "US", "addr:postcode": "18347", "addr:state": "PA", "addr:street_address": "1 ROUTE 940", "amenity": "post_box", "collection_times": "Mo-Fr 16:30; Sa 12:30", "note": "ON 12/24 AND 12/31, THIS BOX MAY BE COLLECTED AS EARLY AS 12 NOON.", "nsi_id": "unitedstatespostalservice-a77078", "operator": "United States Postal Service", "operator:short": "USPS", "operator:type": "public", "operator:wikidata": "Q668687", "ref": "1834700001"}, "type": "Feature"}
{"geometry": {"coordinates": [-75.5777337, 41.152781], "type": "Point"}, "id": "RyGfw_0r-lsJs7h2IB7x51h5xGI=", "properties": {"@source_uri": "https://tools.usps.com/UspsToolsRestServices/rest/POLocator/findLocations", "@spider": "usps_collection_boxes", "addr:city": "POCONO LAKE", "addr:country": "US", "addr:postcode": "18347", "addr:state": "PA", "addr:street_address": "999999 ARROWHEAD LK", "amenity": "post_box", "collection_times": "Mo-Sa 10:00", "nsi_id": "unitedstatespostalservice-a77078", "operator": "United States Postal Service", "operator:short": "USPS", "operator:type": "public", "operator:wikidata": "Q668687", "ref": "1834700002"}, "type": "Feature"}
{"geometry": {"coordinates": [-75.534368, 41.121341], "type": "Point"}, "id": "Df4y23RM_y4mLq5nF8Z4fPu3oJk=", "properties": {"@source_uri": "https://tools.usps.com/UspsToolsRestServices/rest/POLocator/findLocations", "@spider": "usps_collection_boxes", "addr:city": "POCONO LAKE", "addr:country": "US", "addr:postcode": "18347", "addr:state": "PA", "addr:street_address": "1 ROUTE 940", "amenity": "post_box", "collection_times": "Mo-Fr 16:30; Sa 12:30", "indoor": "yes", "note": "ON 12/24 AND 12/31, THIS BOX MAY BE COLLECTED AS EARLY AS 12 NOON.", "nsi_id": "unitedstatespostalservice-a77078", "operator": "United States Postal Service", "operator:short": "USPS", "operator:type": "public", "operator:wikidata": "Q668687", "ref": "1834700003"}, "type": "Feature"}
{"geometry": {"coordinates": [-75.534200167, 41.121299815], "type": "Point"}, "id": "Cy0ArocD2xKGdUOFhY4ZHFDd4fw=", "properties": {"@source_uri": "https://tools.usps.com/UspsToolsRestServices/rest/POLocator/findLocations", "@spider": "usps_collection_boxes", "addr:city": "POCONO LAKE", "addr:country": "US", "addr:postcode": "18347", "addr:state": "PA", "addr:street_address": "1 ROUTE 940", "amenity": "post_box", "collection_times": "Mo-Fr 16:30; Sa 13:00", "indoor": "yes", "note": "ON 12/24 AND 12/31, THIS BOX MAY BE COLLECTED AS EARLY AS 12 NOON.", "nsi_id": "unitedstatespostalservice-a77078", "operator": "United States Postal Service", "operator:short": "USPS", "operator:type": "public", "operator:wikidata": "Q668687", "ref": "1834700005"}, "type": "Feature"}
{"geometry": {"coordinates": [-75.48690774, 41.1036518763], "type": "Point"}, "id": "XOQ66SWHi2sM9R4ncTz3iKQhWN0=", "properties": {"@source_uri": "https://tools.usps.com/UspsToolsRestServices/rest/POLocator/findLocations", "@spider": "usps_collection_boxes", "addr:city": "POCONO PINES", "addr:country": "US", "addr:postcode": "18350", "addr:state": "PA", "addr:street_address": "1712 ROUTE 940 STE 102", "amenity": "post_box", "collection_times": "Mo-Fr 15:45; Sa 11:30", "note": "ON 12/24 AND 12/31, THIS BOX MAY BE COLLECTED AS EARLY AS 12 NOON.", "nsi_id": "unitedstatespostalservice-a77078", "operator": "United States Postal Service", "operator:short": "USPS", "operator:type": "public", "operator:wikidata": "Q668687", "ref": "1835000001"}, "type": "Feature"}
{"geometry": {"coordinates": [-75.4775426283, 41.1056028953], "type": "Point"}, "id": "ps5wGM9x9PLjKEBWTvDqEmngG_A=", "properties": {"@source_uri": "https://tools.usps.com/UspsToolsRestServices/rest/POLocator/findLocations", "@spider": "usps_collection_boxes", "addr:city": "POCONO PINES", "addr:country": "US", "addr:postcode": "18350", "addr:state": "PA", "addr:street_address": "1 OLD ROUTE 940", "amenity": "post_box", "collection_times": "Mo-Fr 17:00; Sa 14:00", "note": "ON 12/24 AND 12/31, THIS BOX MAY BE COLLECTED AS EARLY AS 12 NOON.", "nsi_id": "unitedstatespostalservice-a77078", "operator": "United States Postal Service", "operator:short": "USPS", "operator:type": "public", "operator:wikidata": "Q668687", "ref": "1835000002"}, "type": "Feature"}
{"geometry": {"coordinates": [-75.48690774, 41.1036518763], "type": "Point"}, "id": "Kt5t4nLJEgXsyP-Y2317MMqL7dg=", "properties": {"@source_uri": "https://tools.usps.com/UspsToolsRestServices/rest/POLocator/findLocations", "@spider": "usps_collection_boxes", "addr:city": "POCONO PINES", "addr:country": "US", "addr:postcode": "18350", "addr:state": "PA", "addr:street_address": "1712 ROUTE 940 STE 102", "amenity": "post_box", "collection_times": "Mo-Fr 15:45; Sa 11:30", "indoor": "yes", "note": "ON 12/24 AND 12/31, THIS BOX MAY BE COLLECTED AS EARLY AS 12 NOON.", "nsi_id": "unitedstatespostalservice-a77078", "operator": "United States Postal Service", "operator:short": "USPS", "operator:type": "public", "operator:wikidata": "Q668687", "ref": "1835000003"}, "type": "Feature"}
{"geometry": {"coordinates": [-75.48690774, 41.1036518763], "type": "Point"}, "id": "Y1pcd5pPAQ1DKQbDsi0__nBOaWM=", "properties": {"@source_uri": "https://tools.usps.com/UspsToolsRestServices/rest/POLocator/findLocations", "@spider": "usps_collection_boxes", "addr:city": "POCONO PINES", "addr:country": "US", "addr:postcode": "18350", "addr:state": "PA", "addr:street_address": "1712 ROUTE 940 STE 102", "amenity": "post_box", "collection_times": "Mo-Fr 16:00; Sa 12:00", "indoor": "yes", "note": "ON 12/24 AND 12/31, THIS BOX MAY BE COLLECTED AS EARLY AS 12 NOON.", "nsi_id": "unitedstatespostalservice-a77078", "operator": "United States Postal Service", "operator:short": "USPS", "operator:type": "public", "operator:wikidata": "Q668687", "ref": "1835000006"}, "type": "Feature"}
{"geometry": {"coordinates": [-75.096141, 40.921719], "type": "Point"}, "id": "0i8eHd0AxPJnJNJJrOKilmZQHbE=", "properties": {"@source_uri": "https://tools.usps.com/UspsToolsRestServices/rest/POLocator/findLocations", "@spider": "usps_collection_boxes", "addr:city": "PORTLAND", "addr:country": "US", "addr:postcode": "18351", "addr:state": "PA", "addr:street_address": "403 DELAWARE AVE", "amenity": "post_box", "collection_times": "Mo-Fr 15:45; Sa 11:30", "note": "ON 12/24 AND 12/31, THIS BOX MAY BE COLLECTED AS EARLY AS 12 NOON.", "nsi_id": "unitedstatespostalservice-a77078", "operator": "United States Postal Service", "operator:short": "USPS", "operator:type": "public", "operator:wikidata": "Q668687", "ref": "1835100001"}, "type": "Feature"}
{"geometry": {"coordinates": [-75.096141, 40.921719], "type": "Point"}, "id": "mSubGNU6CrDx7oO0a7I8EjSp-L4=", "properties": {"@source_uri": "https://tools.usps.com/UspsToolsRestServices/rest/POLocator/findLocations", "@spider": "usps_collection_boxes", "addr:city": "PORTLAND", "addr:country": "US", "addr:postcode": "18351", "addr:state": "PA", "addr:street_address": "403 DELAWARE AVE", "amenity": "post_box", "collection_times": "Mo-Fr 15:45; Sa 11:30", "indoor": "yes", "note": "ON 12/24 AND 12/31, THIS BOX MAY BE COLLECTED AS EARLY AS 12 NOON.", "nsi_id": "unitedstatespostalservice-a77078", "operator": "United States Postal Service", "operator:short": "USPS", "operator:type": "public", "operator:wikidata": "Q668687", "ref": "1835100002"}, "type": "Feature"}
{"geometry": {"coordinates": [-75.096228299, 40.921892697], "type": "Point"}, "id": "u1YrLSf7vBBAG_wK4i-pWjaum84=", "properties": {"@source_uri": "https://tools.usps.com/UspsToolsRestServices/rest/POLocator/findLocations", "@spider": "usps_collection_boxes", "addr:city": "PORTLAND", "addr:country": "US", "addr:postcode": "18351", "addr:state": "PA", "addr:street_address": "403 DELAWARE AVE", "amenity": "post_box", "collection_times": "Mo-Fr 15:45; Sa 11:30", "indoor": "yes", "note": "ON 12/24 AND 12/31, THIS BOX MAY BE COLLECTED AS EARLY AS 12 NOON.", "nsi_id": "unitedstatespostalservice-a77078", "operator": "United States Postal Service", "operator:short": "USPS", "operator:type": "public", "operator:wikidata": "Q668687", "ref": "1835100005"}, "type": "Feature"}
{"geometry": {"coordinates": [-75.3362239596, 41.018229011], "type": "Point"}, "id": "tUBWH9H5NqWp6ezsk6pcYZHsGz8=", "properties": {"@source_uri": "https://tools.usps.com/UspsToolsRestServices/rest/POLocator/findLocations", "@spider": "usps_collection_boxes", "addr:city": "REEDERS", "addr:country": "US", "addr:postcode": "18352", "addr:state": "PA", "addr:street_address": "2162 ROUTE 715", "amenity": "post_box", "collection_times": "Mo-Fr 16:30; Sa 11:45", "note": "ON 12/24 AND 12/31, THIS BOX MAY BE COLLECTED AS EARLY AS 12 NOON.", "nsi_id": "unitedstatespostalservice-a77078", "operator": "United States Postal Service", "operator:short": "USPS", "operator:type": "public", "operator:wikidata": "Q668687", "ref": "1835200001"}, "type": "Feature"}
{"geometry": {"coordinates": [-75.3362239596, 41.018229011], "type": "Point"}, "id": "irCKC2MnMuOJV1NvvlE6fRwisbM=", "properties": {"@source_uri": "https://tools.usps.com/UspsToolsRestServices/rest/POLocator/findLocations", "@spider": "usps_collection_boxes", "addr:city": "REEDERS", "addr:country": "US", "addr:postcode": "18352", "addr:state": "PA", "addr:street_address": "2162 ROUTE 715", "amenity": "post_box", "collection_times": "Mo-Fr 16:30; Sa 11:45", "indoor": "yes", "note": "ON 12/24 AND 12/31, THIS BOX MAY BE COLLECTED AS EARLY AS 12 NOON.", "nsi_id": "unitedstatespostalservice-a77078", "operator": "United States Postal Service", "operator:short": "USPS", "operator:type": "public", "operator:wikidata": "Q668687", "ref": "1835200002"}, "type": "Feature"}
{"geometry": {"coordinates": [-75.3362239596, 41.018229011], "type": "Point"}, "id": "pRo4Z_TuGutjzoP8hCGOoVBPq6c=", "properties": {"@source_uri": "https://tools.usps.com/UspsToolsRestServices/rest/POLocator/findLocations", "@spider": "usps_collection_boxes", "addr:city": "REEDERS", "addr:country": "US", "addr:postcode": "18352", "addr:state": "PA", "addr:street_address": "2162 ROUTE 715", "amenity": "post_box", "collection_times": "Mo-Fr 17:00; Sa 12:00", "indoor": "yes", "note": "ON 12/24 AND 12/31, THIS BOX MAY BE COLLECTED AS EARLY AS 12 NOON.", "nsi_id": "unitedstatespostalservice-a77078", "operator": "United States Postal Service", "operator:short": "USPS", "operator:type": "public", "operator:wikidata": "Q668687", "ref": "1835200006"}, "type": "Feature"}
{"geometry": {"coordinates": [-75.331228, 40.899664], "type": "Point"}, "id": "924U8w5F4-qG4x2-ZJWiTNW2HzY=", "properties": {"@source_uri": "https://tools.usps.com/UspsToolsRestServices/rest/POLocator/findLocations", "@spider": "usps_collection_boxes", "addr:city": "SAYLORSBURG", "addr:country": "US", "addr:postcode": "18353", "addr:state": "PA", "addr:street_address": "284 ANCHORAGE RD", "amenity": "post_box", "collection_times": "Mo-Fr 16:30; Sa 12:30", "note": "ON 12/24 AND 12/31, THIS BOX MAY BE COLLECTED AS EARLY AS 12 NOON.", "nsi_id": "unitedstatespostalservice-a77078", "operator": "United States Postal Service", "operator:short": "USPS", "operator:type": "public", "operator:wikidata": "Q668687", "ref": "1835300001"}, "type": "Feature"}
{"geometry": {"coordinates": [-75.331213, 40.899753], "type": "Point"}, "id": "ngGwTa4Trj7eKKR6haxl1XhIvXU=", "properties": {"@source_uri": "https://tools.usps.com/UspsToolsRestServices/rest/POLocator/findLocations", "@spider": "usps_collection_boxes", "addr:city": "SAYLORSBURG", "addr:country": "US", "addr:postcode": "18353", "addr:state": "PA", "addr:street_address": "284 ANCHORAGE RD", "amenity": "post_box", "collection_times": "Mo-Fr 16:30; Sa 12:30", "indoor": "yes", "note": "ON 12/24 AND 12/31, THIS BOX MAY BE COLLECTED AS EARLY AS 12 NOON.", "nsi_id": "unitedstatespostalservice-a77078", "operator": "United States Postal Service", "operator:short": "USPS", "operator:type": "public", "operator:wikidata": "Q668687", "ref": "1835300004"}, "type": "Feature"}
{"geometry": {"coordinates": [-75.331332453, 40.899487904], "type": "Point"}, "id": "uj79E4OyCgWYoBm8amTsj2jLNvU=", "properties": {"@source_uri": "https://tools.usps.com/UspsToolsRestServices/rest/POLocator/findLocations", "@spider": "usps_collection_boxes", "addr:city": "SAYLORSBURG", "addr:country": "US", "addr:postcode": "18353", "addr:state": "PA", "addr:street_address": "284 ANCHORAGE RD", "amenity": "post_box", "collection_times": "Mo-Fr 16:05; Sa 12:00", "indoor": "yes", "note": "ON 12/24 AND 12/31, THIS BOX MAY BE COLLECTED AS EARLY AS 12 NOON.", "nsi_id": "unitedstatespostalservice-a77078", "operator": "United States Postal Service", "operator:short": "USPS", "operator:type": "public", "operator:wikidata": "Q668687", "ref": "1835300007"}, "type": "Feature"}
{"geometry": {"coordinates": [-75.3149306, 40.926352], "type": "Point"}, "id": "UbPARZwJYN5EEt-KSfL5aRxAugw=", "properties": {"@source_uri": "https://tools.usps.com/UspsToolsRestServices/rest/POLocator/findLocations", "@spider": "usps_collection_boxes", "addr:city": "SCIOTA", "addr:country": "US", "addr:postcode": "18354", "addr:state": "PA", "addr:street_address": "5654 HAMILTON S", "amenity": "post_box", "collection_times": "Mo-Sa 10:30", "nsi_id": "unitedstatespostalservice-a77078", "operator": "United States Postal Service", "operator:short": "USPS", "operator:type": "public", "operator:wikidata": "Q668687", "ref": "1835400004"}, "type": "Feature"}
{"geometry": {"coordinates": [-75.31367, 40.928761], "type": "Point"}, "id": "YDUAeWQIPkWktrp2uPWyEHOdLHU=", "properties": {"@source_uri": "https://tools.usps.com/UspsToolsRestServices/rest/POLocator/findLocations", "@spider": "usps_collection_boxes", "addr:city": "SCIOTA", "addr:country": "US", "addr:postcode": "18354", "addr:state": "PA", "addr:street_address": "134 BOSSARDSVILLE RD", "amenity": "post_box", "collection_times": "Mo-Fr 16:15; Sa 11:30", "indoor": "yes", "note": "ON 12/24 AND 12/31, THIS BOX MAY BE COLLECTED AS EARLY AS 12 NOON.", "nsi_id": "unitedstatespostalservice-a77078", "operator": "United States Postal Service", "operator:short": "USPS", "operator:type": "public", "operator:wikidata": "Q668687", "ref": "1835400005"}, "type": "Feature"}
{"geometry": {"coordinates": [-75.31367, 40.928761], "type": "Point"}, "id": "R8wOPKXjXsrs9cZxu6DYQOuPrM4=", "properties": {"@source_uri": "https://tools.usps.com/UspsToolsRestServices/rest/POLocator/findLocations", "@spider": "usps_collection_boxes", "addr:city": "SCIOTA", "addr:country": "US", "addr:postcode": "18354", "addr:state": "PA", "addr:street_address": "134 BOSSARDSVILLE RD", "amenity": "post_box", "collection_times": "Mo-Fr 16:15; Sa 11:30", "note": "ON 12/24 AND 12/31, THIS BOX MAY BE COLLECTED AS EARLY AS 12 NOON.", "nsi_id": "unitedstatespostalservice-a77078", "operator": "United States Postal Service", "operator:short": "USPS", "operator:type": "public", "operator:wikidata": "Q668687", "ref": "1835400006"}, "type": "Feature"}
{"geometry": {"coordinates": [-75.313846634, 40.928745681], "type": "Point"}, "id": "136tG3tH4g3aOr5c7BywFI0q2qA=", "properties": {"@source_uri": "https://tools.usps.com/UspsToolsRestServices/rest/POLocator/findLocations", "@spider": "usps_collection_boxes", "addr:city": "SCIOTA", "addr:country": "US", "addr:postcode": "18354", "addr:state": "PA", "addr:street_address": "134 BOSSARDSVILLE RD", "amenity": "post_box", "collection_times": "Mo-Fr 16:35; Sa 12:00", "indoor": "yes", "note": "ON 12/24 AND 12/31, THIS BOX MAY BE COLLECTED AS EARLY AS 12 NOON.", "nsi_id": "unitedstatespostalservice-a77078", "operator": "United States Postal Service", "operator:short": "USPS", "operator:type": "public", "operator:wikidata": "Q668687", "ref": "1835400008"}, "type": "Feature"}
{"geometry": {"coordinates": [-75.319341, 41.075137], "type": "Point"}, "id": "yl0IOIuOqJA2k9UAjC8hLYKP0iI=", "properties": {"@source_uri": "https://tools.usps.com/UspsToolsRestServices/rest/POLocator/findLocations", "@spider": "usps_collection_boxes", "addr:city": "SCOTRUN", "addr:country": "US", "addr:postcode": "18355", "addr:state": "PA", "addr:street_address": "1 SCOTRUN AVE", "amenity": "post_box", "collection_times": "Mo-Fr 16:00; Sa 11:00", "note": "ON 12/24 AND 12/31, THIS BOX MAY BE COLLECTED AS EARLY AS 12 NOON.", "nsi_id": "unitedstatespostalservice-a77078", "operator": "United States Postal Service", "operator:short": "USPS", "operator:type": "public", "operator:wikidata": "Q668687", "ref": "1835500001"}, "type": "Feature"}
{"geometry": {"coordinates": [-75.319341, 41.075138], "type": "Point"}, "id": "XGLneKDFqyPNM_7U2aZZIC2zD94=", "properties": {"@source_uri": "https://tools.usps.com/UspsToolsRestServices/rest/POLocator/findLocations", "@spider": "usps_collection_boxes", "addr:city": "SCOTRUN", "addr:country": "US", "addr:postcode": "18355", "addr:state": "PA", "addr:street_address": "1 SCOTRUN AVE", "amenity": "post_box", "collection_times": "Mo-Fr 16:00; Sa 11:00", "indoor": "yes", "note": "ON 12/24 AND 12/31, THIS BOX MAY BE COLLECTED AS EARLY AS 12 NOON.", "nsi_id": "unitedstatespostalservice-a77078", "operator": "United States Postal Service", "operator:short": "USPS", "operator:type": "public", "operator:wikidata": "Q668687", "ref": "1835500002"}, "type": "Feature"}
{"geometry": {"coordinates": [-75.317938431, 41.063324636], "type": "Point"}, "id": "lwRIdFmckT8yUUVGkzp4dPNOyXY=", "properties": {"@source_uri": "https://tools.usps.com/UspsToolsRestServices/rest/POLocator/findLocations", "@spider": "usps_collection_boxes", "addr:city": "SCOTRUN", "addr:country": "US", "addr:postcode": "18355", "addr:state": "PA", "addr:street_address": "338 SCOTRUN AVE OFC", "amenity": "post_box", "collection_times": "Mo-Fr 16:45; Sa 11:45", "indoor": "yes", "note": "ON 12/24 AND 12/31, THIS BOX MAY BE COLLECTED AS EARLY AS 12 NOON.", "nsi_id": "unitedstatespostalservice-a77078", "operator": "United States Postal Service", "operator:short": "USPS", "operator:type": "public", "operator:wikidata": "Q668687", "ref": "1835500004"}, "type": "Feature"}
{"geometry": {"coordinates": [-75.12263, 41.007217], "type": "Point"}, "id": "1xhNCfkPZ7f0CO0HZnC-ntDpVr0=", "properties": {"@source_uri": "https://tools.usps.com/UspsToolsRestServices/rest/POLocator/findLocations", "@spider": "usps_collection_boxes", "addr:city": "SHAWNEE ON DELAW", "addr:country": "US", "addr:postcode": "18356", "addr:state": "PA", "addr:street_address": "107 SHAWNEE SQUARE DR SE", "amenity": "post_box", "collection_times": "Mo-Fr 15:30; Sa 11:00", "note": "ON 12/24 AND 12/31, THIS BOX MAY BE COLLECTED AS EARLY AS 12 NOON.", "nsi_id": "unitedstatespostalservice-a77078", "operator": "United States Postal Service", "operator:short": "USPS", "operator:type": "public", "operator:wikidata": "Q668687", "ref": "1835600001"}, "type": "Feature"}
{"geometry": {"coordinates": [-75.122601, 41.007298], "type": "Point"}, "id": "MEOdFBgaCIeD-LOf3zjh2FMY3V4=", "properties": {"@source_uri": "https://tools.usps.com/UspsToolsRestServices/rest/POLocator/findLocations", "@spider": "usps_collection_boxes", "addr:city": "SHAWNEE ON DELAW", "addr:country": "US", "addr:postcode": "18356", "addr:state": "PA", "addr:street_address": "107 SHAWNEE SQUARE DR SE", "amenity": "post_box", "collection_times": "Mo-Fr 15:30; Sa 11:00", "indoor": "yes", "note": "ON 12/24 AND 12/31, THIS BOX MAY BE COLLECTED AS EARLY AS 12 NOON.", "nsi_id": "unitedstatespostalservice-a77078", "operator": "United States Postal Service", "operator:short": "USPS", "operator:type": "public", "operator:wikidata": "Q668687", "ref": "1835600003"}, "type": "Feature"}
{"geometry": {"coordinates": [-75.122926844, 41.006882023], "type": "Point"}, "id": "dNMqBZ2q-x0A6LCXwAE8D-cNBkA=", "properties": {"@source_uri": "https://tools.usps.com/UspsToolsRestServices/rest/POLocator/findLocations", "@spider": "usps_collection_boxes", "addr:city": "SHAWNEE ON DELAW", "addr:country": "US", "addr:postcode": "18356", "addr:state": "PA", "addr:street_address": "107 SHAWNEE SQUARE DR SE", "amenity": "post_box", "collection_times": "Mo-Fr 17:00; Sa 11:45", "indoor": "yes", "note": "ON 12/24 AND 12/31, THIS BOX MAY BE COLLECTED AS EARLY AS 12 NOON.", "nsi_id": "unitedstatespostalservice-a77078", "operator": "United States Postal Service", "operator:short": "USPS", "operator:type": "public", "operator:wikidata": "Q668687", "ref": "1835600005"}, "type": "Feature"}
{"geometry": {"coordinates": [-75.239339, 41.228994], "type": "Point"}, "id": "SkVv70QWhuJpXVw0AP7Bqj9uxhY=", "properties": {"@source_uri": "https://tools.usps.com/UspsToolsRestServices/rest/POLocator/findLocations", "@spider": "usps_collection_boxes", "addr:city": "SKY TOP", "addr:country": "US", "addr:postcode": "18357", "addr:state": "PA", "addr:street_address": "1 SKY TOP LDG", "amenity": "post_box", "collection_times": "Mo-Fr 12:00; Sa 10:00", "indoor": "yes", "nsi_id": "unitedstatespostalservice-a77078", "operator": "United States Postal Service", "operator:short": "USPS", "operator:type": "public", "operator:wikidata": "Q668687", "ref": "1835700002"}, "type": "Feature"}
{"geometry": {"coordinates": [-75.239339, 41.228994], "type": "Point"}, "id": "w8bhaxFVwbgeYAsucZi8vX6g8G8=", "properties": {"@source_uri": "https://tools.usps.com/UspsToolsRestServices/rest/POLocator/findLocations", "@spider": "usps_collection_boxes", "addr:city": "SKY TOP", "addr:country": "US", "addr:postcode": "18357", "addr:state": "PA", "addr:street_address": "1 SKYTOP LDG", "amenity": "post_box", "collection_times": "Mo-Fr 16:00; Sa 10:00", "note": "ON 12/24 AND 12/31, THIS BOX MAY BE COLLECTED AS EARLY AS 12 NOON.", "nsi_id": "unitedstatespostalservice-a77078", "operator": "United States Postal Service", "operator:short": "USPS", "operator:type": "public", "operator:wikidata": "Q668687", "ref": "1835700004"}, "type": "Feature"}
{"geometry": {"coordinates": [-75.239325, 41.228829], "type": "Point"}, "id": "aKmmUDjYAcXs2mbEEcuYNnspmN0=", "properties": {"@source_uri": "https://tools.usps.com/UspsToolsRestServices/rest/POLocator/findLocations", "@spider": "usps_collection_boxes", "addr:city": "SKY TOP", "addr:country": "US", "addr:postcode": "18357", "addr:state": "PA", "addr:street_address": "0 SKYTOP LDG", "amenity": "post_box", "collection_times": "Mo-Fr 12:00", "indoor": "yes", "nsi_id": "unitedstatespostalservice-a77078", "operator": "United States Postal Service", "operator:short": "USPS", "operator:type": "public", "operator:wikidata": "Q668687", "ref": "1835700007"}, "type": "Feature"}
{"geometry": {"coordinates": [-75.1971531, 40.983254], "type": "Point"}, "id": "uqXVshshRf_ja9mTiUilCi3copU=", "properties": {"@source_uri": "https://tools.usps.com/UspsToolsRestServices/rest/POLocator/findLocations", "@spider": "usps_collection_boxes", "addr:city": "STROUDSBURG", "addr:country": "US", "addr:postcode": "18360", "addr:state": "PA", "addr:street_address": "890 ANN ST", "amenity": "post_box", "collection_times": "Mo-Sa 09:00", "nsi_id": "unitedstatespostalservice-a77078", "operator": "United States Postal Service", "operator:short": "USPS", "operator:type": "public", "operator:wikidata": "Q668687", "ref": "1836000002"}, "type": "Feature"}
{"geometry": {"coordinates": [-75.1994459, 40.983993], "type": "Point"}, "id": "hQOYqv6rDhh6iG2LvKLWOpz7UlQ=", "properties": {"@source_uri": "https://tools.usps.com/UspsToolsRestServices/rest/POLocator/findLocations", "@spider": "usps_collection_boxes", "addr:city": "STROUDSBURG", "addr:country": "US", "addr:postcode": "18360", "addr:state": "PA", "addr:street_address": "1000 MAIN ST", "amenity": "post_box", "collection_times": "Mo-Sa 10:15", "nsi_id": "unitedstatespostalservice-a77078", "operator": "United States Postal Service", "operator:short": "USPS", "operator:type": "public", "operator:wikidata": "Q668687", "ref": "1836000003"}, "type": "Feature"}
{"geometry": {"coordinates": [-75.1967408, 40.984778], "type": "Point"}, "id": "_gG2j8ljELI10hrWUojyIzb03ZA=", "properties": {"@source_uri": "https://tools.usps.com/UspsToolsRestServices/rest/POLocator/findLocations", "@spider": "usps_collection_boxes", "addr:city": "STROUDSBURG", "addr:country": "US", "addr:postcode": "18360", "addr:state": "PA", "addr:street_address": "810 MAIN ST", "amenity": "post_box", "collection_times": "Mo-Sa 10:00", "nsi_id": "unitedstatespostalservice-a77078", "operator": "United States Postal Service", "operator:short": "USPS", "operator:type": "public", "operator:wikidata": "Q668687", "ref": "1836000004"}, "type": "Feature"}
{"geometry": {"coordinates": [-75.1949916, 40.987195], "type": "Point"}, "id": "t_6oto8gjJ_PAkMgPGyb-KeL1Ig=", "properties": {"@source_uri": "https://tools.usps.com/UspsToolsRestServices/rest/POLocator/findLocations", "@spider": "usps_collection_boxes", "addr:city": "STROUDSBURG", "addr:country": "US", "addr:postcode": "18360", "addr:state": "PA", "addr:street_address": "625 SARAH ST", "amenity": "post_box", "collection_times": "Mo-Fr 15:00; Sa 11:00", "note": "ON 12/24 AND 12/31, THIS BOX MAY BE COLLECTED AS EARLY AS 12 NOON.", "nsi_id": "unitedstatespostalservice-a77078", "operator": "United States Postal Service", "operator:short": "USPS", "operator:type": "public", "operator:wikidata": "Q668687", "ref": "1836000006"}, "type": "Feature"}
{"geometry": {"coordinates": [-75.1931335, 40.985774], "type": "Point"}, "id": "_rQ_hsiK1UAeFbSc3MIZNdfvosE=", "properties": {"@source_uri": "https://tools.usps.com/UspsToolsRestServices/rest/POLocator/findLocations", "@spider": "usps_collection_boxes", "addr:city": "STROUDSBURG", "addr:country": "US", "addr:postcode": "18360", "addr:state": "PA", "addr:street_address": "586 MAIN ST", "amenity": "post_box", "collection_times": "Mo-Sa 10:00", "nsi_id": "unitedstatespostalservice-a77078", "operator": "United States Postal Service", "operator:short": "USPS", "operator:type": "public", "operator:wikidata": "Q668687", "ref": "1836000008"}, "type": "Feature"}
{"geometry": {"coordinates": [-75.1942669, 40.9854], "type": "Point"}, "id": "JOqtu7mliomW86dfep6TNl1vgcY=", "properties": {"@source_uri": "https://tools.usps.com/UspsToolsRestServices/rest/POLocator/findLocations", "@spider": "usps_collection_boxes", "addr:city": "STROUDSBURG", "addr:country": "US", "addr:postcode": "18360", "addr:state": "PA", "addr:street_address": "701 MAIN ST", "amenity": "post_box", "collection_times": "Mo-Sa 10:00", "nsi_id": "unitedstatespostalservice-a77078", "operator": "United States Postal Service", "operator:short": "USPS", "operator:type": "public", "operator:wikidata": "Q668687", "ref": "1836000009"}, "type": "Feature"}
{"geometry": {"coordinates": [-75.1959774, 40.984694], "type": "Point"}, "id": "f6uKRfcPfIoqn7kTyx7NPWXg5To=", "properties": {"@source_uri": "https://tools.usps.com/UspsToolsRestServices/rest/POLocator/findLocations", "@spider": "usps_collection_boxes", "addr:city": "STROUDSBURG", "addr:country": "US", "addr:postcode": "18360", "addr:state": "PA", "addr:street_address": "801 MAIN ST", "amenity": "post_box", "collection_times": "Mo-Sa 10:00", "nsi_id": "unitedstatespostalservice-a77078", "operator": "United States Postal Service", "operator:short": "USPS", "operator:type": "public", "operator:wikidata": "Q668687", "ref": "1836000010"}, "type": "Feature"}
{"geometry": {"coordinates": [-75.1896017, 40.982796], "type": "Point"}, "id": "cVWT302m9UYKM8vJUtYMUhl0BmE=", "properties": {"@source_uri": "https://tools.usps.com/UspsToolsRestServices/rest/POLocator/findLocations", "@spider": "usps_collection_boxes", "addr:city": "STROUDSBURG", "addr:country": "US", "addr:postcode": "18360", "addr:state": "PA", "addr:street_address": "511 LENOX ST", "amenity": "post_box", "collection_times": "Mo-Fr 15:00; Sa 11:00", "note": "ON 12/24 AND 12/31, THIS BOX MAY BE COLLECTED AS EARLY AS 12 NOON.", "nsi_id": "unitedstatespostalservice-a77078", "operator": "United States Postal Service", "operator:short": "USPS", "operator:type": "public", "operator:wikidata": "Q668687", "ref": "1836000013"}, "type": "Feature"}
{"geometry": {"coordinates": [-75.1992765, 41.002695], "type": "Point"}, "id": "nKEzexS8fYgHRZ201-RiE8i0WCY=", "properties": {"@source_uri": "https://tools.usps.com/UspsToolsRestServices/rest/POLocator/findLocations", "@spider": "usps_collection_boxes", "addr:city": "STROUDSBURG", "addr:country": "US", "addr:postcode": "18360", "addr:state": "PA", "addr:street_address": "1501 N 5TH ST", "amenity": "post_box", "collection_times": "Mo-Sa 12:00", "nsi_id": "unitedstatespostalservice-a77078", "operator": "United States Postal Service", "operator:short": "USPS", "operator:type": "public", "operator:wikidata": "Q668687", "ref": "1836000020"}, "type": "Feature"}
{"geometry": {"coordinates": [-75.2209262, 40.989167], "type": "Point"}, "id": "ICEHqZahQ7wrDkHoev4Y5GLhKTI=", "properties": {"@source_uri": "https://tools.usps.com/UspsToolsRestServices/rest/POLocator/findLocations", "@spider": "usps_collection_boxes", "addr:city": "STROUDSBURG", "addr:country": "US", "addr:postcode": "18360", "addr:state": "PA", "addr:street_address": "1116 N 9TH ST", "amenity": "post_box", "collection_times": "Mo-Sa 10:00", "nsi_id": "unitedstatespostalservice-a77078", "operator": "United States Postal Service", "operator:short": "USPS", "operator:type": "public", "operator:wikidata": "Q668687", "ref": "1836000023"}, "type": "Feature"}
{"geometry": {"coordinates": [-75.2248424, 40.989514], "type": "Point"}, "id": "zrsChEn3FP4GMh_rGJfkpjUtWQ8=", "properties": {"@source_uri": "https://tools.usps.com/UspsToolsRestServices/rest/POLocator/findLocations", "@spider": "usps_collection_boxes", "addr:city": "STROUDSBURG", "addr:country": "US", "addr:postcode": "18360", "addr:state": "PA", "addr:street_address": "1163 N 9TH ST", "amenity": "post_box", "collection_times": "Mo-Sa 10:30", "nsi_id": "unitedstatespostalservice-a77078", "operator": "United States Postal Service", "operator:short": "USPS", "operator:type": "public", "operator:wikidata": "Q668687", "ref": "1836000024"}, "type": "Feature"}
{"geometry": {"coordinates": [-75.2168639, 40.990246], "type": "Point"}, "id": "Mw4k1v7XZX7q9A6xhvJp1_ZfIWc=", "properties": {"@source_uri": "https://tools.usps.com/UspsToolsRestServices/rest/POLocator/findLocations", "@spider": "usps_collection_boxes", "addr:city": "STROUDSBURG", "addr:country": "US", "addr:postcode": "18360", "addr:state": "PA", "addr:street_address": "1002 N 9TH ST", "amenity": "post_box", "collection_times": "Mo-Sa 09:45", "nsi_id": "unitedstatespostalservice-a77078", "operator": "United States Postal Service", "operator:short": "USPS", "operator:type": "public", "operator:wikidata": "Q668687", "ref": "1836000025"}, "type": "Feature"}
{"geometry": {"coordinates": [-75.2249213, 40.983573], "type": "Point"}, "id": "WQqXCkFWvAdoI1vl_geActu9ZGI=", "properties": {"@source_uri": "https://tools.usps.com/UspsToolsRestServices/rest/POLocator/findLocations", "@spider": "usps_collection_boxes", "addr:city": "STROUDSBURG", "addr:country": "US", "addr:postcode": "18360", "addr:state": "PA", "addr:street_address": "33 BRIDGE ST", "amenity": "post_box", "collection_times": "Mo-Sa 12:00", "nsi_id": "unitedstatespostalservice-a77078", "operator": "United States Postal Service", "operator:short": "USPS", "operator:type": "public", "operator:wikidata": "Q668687", "ref": "1836000029"}, "type": "Feature"}
{"geometry": {"coordinates": [-75.2003394, 40.982119], "type": "Point"}, "id": "hDjuvgFnMK1tAhZ73vPUfHap3go=", "properties": {"@source_uri": "https://tools.usps.com/UspsToolsRestServices/rest/POLocator/findLocations", "@spider": "usps_collection_boxes", "addr:city": "STROUDSBURG", "addr:country": "US", "addr:postcode": "18360", "addr:state": "PA", "addr:street_address": "38 WAVERLY DR", "amenity": "post_box", "collection_times": "Mo-Sa 12:45", "note": "ON 12/24 AND 12/31, THIS BOX MAY BE COLLECTED AS EARLY AS 12 NOON.", "nsi_id": "unitedstatespostalservice-a77078", "operator": "United States Postal Service", "operator:short": "USPS", "operator:type": "public", "operator:wikidata": "Q668687", "ref": "1836000033"}, "type": "Feature"}
{"geometry": {"coordinates": [-75.1941506, 40.983903], "type": "Point"}, "id": "bWj-n4kozgPfJR6jCc6k6QistFc=", "properties": {"@source_uri": "https://tools.usps.com/UspsToolsRestServices/rest/POLocator/findLocations", "@spider": "usps_collection_boxes", "addr:city": "STROUDSBURG", "addr:country": "US", "addr:postcode": "18360", "addr:state": "PA", "addr:street_address": "701 ANN ST", "amenity": "post_box", "collection_times": "Mo-Fr 17:00; Sa 16:15", "note": "ON 12/24 AND 12/31, THIS BOX MAY BE COLLECTED AS EARLY AS 12 NOON.", "nsi_id": "unitedstatespostalservice-a77078", "operator": "United States Postal Service", "operator:short": "USPS", "operator:type": "public", "operator:wikidata": "Q668687", "ref": "1836000035"}, "type": "Feature"}
{"geometry": {"coordinates": [-75.193997, 40.98372], "type": "Point"}, "id": "2-tr4C-CrAw7VqU6AwgOMMILrdA=", "properties": {"@source_uri": "https://tools.usps.com/UspsToolsRestServices/rest/POLocator/findLocations", "@spider": "usps_collection_boxes", "addr:city": "STROUDSBURG", "addr:country": "US", "addr:postcode": "18360", "addr:state": "PA", "addr:street_address": "701 ANN ST", "amenity": "post_box", "collection_times": "Mo-Fr 17:00; Sa 16:15", "indoor": "yes", "note": "ON 12/24 AND 12/31, THIS BOX MAY BE COLLECTED AS EARLY AS 12 NOON.", "nsi_id": "unitedstatespostalservice-a77078", "operator": "United States Postal Service", "operator:short": "USPS", "operator:type": "public", "operator:wikidata": "Q668687", "ref": "1836000040"}, "type": "Feature"}
{"geometry": {"coordinates": [-75.1950316, 40.996052], "type": "Point"}, "id": "9qAw9HNUta1eI1Pd2LJcClZU7pU=", "properties": {"@source_uri": "https://tools.usps.com/UspsToolsRestServices/rest/POLocator/findLocations", "@spider": "usps_collection_boxes", "addr:city": "STROUDSBURG", "addr:country": "US", "addr:postcode": "18360", "addr:state": "PA", "addr:street_address": "890 WALLACE ST", "amenity": "post_box", "collection_times": "Mo-Sa 14:15", "note": "ON 12/24 AND 12/31, THIS BOX MAY BE COLLECTED AS EARLY AS 12 NOON.", "nsi_id": "unitedstatespostalservice-a77078", "operator": "United States Postal Service", "operator:short": "USPS", "operator:type": "public", "operator:wikidata": "Q668687", "ref": "1836000042"}, "type": "Feature"}
{"geometry": {"coordinates": [-75.1936799, 40.987163], "type": "Point"}, "id": "tPD3lkvuzKq0yKo1UDtK8Xa7UAY=", "properties": {"@source_uri": "https://tools.usps.com/UspsToolsRestServices/rest/POLocator/findLocations", "@spider": "usps_collection_boxes", "addr:city": "STROUDSBURG", "addr:country": "US", "addr:postcode": "18360", "addr:state": "PA", "addr:street_address": "30 N 6TH ST", "amenity": "post_box", "collection_times": "Mo-Sa 09:30", "nsi_id": "unitedstatespostalservice-a77078", "operator": "United States Postal Service", "operator:short": "USPS", "operator:type": "public", "operator:wikidata": "Q668687", "ref": "1836000043"}, "type": "Feature"}
{"geometry": {"coordinates": [-75.2570031, 40.971761], "type": "Point"}, "id": "Vg_mfd9Nk7sKz3qvlg5R7nusVb8=", "properties": {"@source_uri": "https://tools.usps.com/UspsToolsRestServices/rest/POLocator/findLocations", "@spider": "usps_collection_boxes", "addr:city": "STROUDSBURG", "addr:country": "US", "addr:postcode": "18360", "addr:state": "PA", "addr:street_address": "7074 ROUTE 209", "amenity": "post_box", "collection_times": "Mo-Sa 09:00", "nsi_id": "unitedstatespostalservice-a77078", "operator": "United States Postal Service", "operator:short": "USPS", "operator:type": "public", "operator:wikidata": "Q668687", "ref": "1836000044"}, "type": "Feature"}
{"geometry": {"coordinates": [-75.2944352, 40.948043], "type": "Point"}, "id": "WhBMBKWNKAi1_6c_8JP7h-VOjUo=", "properties": {"@source_uri": "https://tools.usps.com/UspsToolsRestServices/rest/POLocator/findLocations", "@spider": "usps_collection_boxes", "addr:city": "STROUDSBURG", "addr:country": "US", "addr:postcode": "18360", "addr:state": "PA", "addr:street_address": "4300 MANOR DR", "amenity": "post_box", "collection_times": "Mo-Sa 09:00", "nsi_id": "unitedstatespostalservice-a77078", "operator": "United States Postal Service", "operator:short": "USPS", "operator:type": "public", "operator:wikidata": "Q668687", "ref": "1836000045"}, "type": "Feature"}
{"geometry": {"coordinates": [-75.2192209, 40.988773], "type": "Point"}, "id": "YYCfa6H0a9p_GuZwkdsw6WBatFg=", "properties": {"@source_uri": "https://tools.usps.com/UspsToolsRestServices/rest/POLocator/findLocations", "@spider": "usps_collection_boxes", "addr:city": "STROUDSBURG", "addr:country": "US", "addr:postcode": "18360", "addr:state": "PA", "addr:street_address": "1113 N 9TH ST", "amenity": "post_box", "collection_times": "Mo-Sa 11:00", "nsi_id": "unitedstatespostalservice-a77078", "operator": "United States Postal Service", "operator:short": "USPS", "operator:type": "public", "operator:wikidata": "Q668687", "ref": "1836000046"}, "type": "Feature"}
{"geometry": {"coordinates": [-75.193873371, 40.984022002], "type": "Point"}, "id": "CZaqbBHfQwid8eFQyJG239jljIU=", "properties": {"@source_uri": "https://tools.usps.com/UspsToolsRestServices/rest/POLocator/findLocations", "@spider": "usps_collection_boxes", "addr:city": "STROUDSBURG", "addr:country": "US", "addr:postcode": "18360", "addr:state": "PA", "addr:street_address": "701 ANN ST", "amenity": "post_box", "collection_times": "Mo-Fr 17:00; Sa 12:00", "indoor": "yes", "note": "ON 12/24 AND 12/31, THIS BOX MAY BE COLLECTED AS EARLY AS 12 NOON.", "nsi_id": "unitedstatespostalservice-a77078", "operator": "United States Postal Service", "operator:short": "USPS", "operator:type": "public", "operator:wikidata": "Q668687", "ref": "1836000054"}, "type": "Feature"}
{"geometry": {"coordinates": [-75.31399, 41.095064], "type": "Point"}, "id": "sLl_Lm0UQUrkchQl4Xo_gJ2SvDg=", "properties": {"@source_uri": "https://tools.usps.com/UspsToolsRestServices/rest/POLocator/findLocations", "@spider": "usps_collection_boxes", "addr:city": "SWIFTWATER", "addr:country": "US", "addr:postcode": "18370", "addr:state": "PA", "addr:street_address": "296 UPPER SWIFTWATER RD", "amenity": "post_box", "collection_times": "Mo-Fr 16:30; Sa 12:00", "note": "ON 12/24 AND 12/31, THIS BOX MAY BE COLLECTED AS EARLY AS 12 NOON.", "nsi_id": "unitedstatespostalservice-a77078", "operator": "United States Postal Service", "operator:short": "USPS", "operator:type": "public", "operator:wikidata": "Q668687", "ref": "1837000001"}, "type": "Feature"}
{"geometry": {"coordinates": [-75.31399, 41.095064], "type": "Point"}, "id": "HeCA3PMViXdONCnKjVZSQtg37qQ=", "properties": {"@source_uri": "https://tools.usps.com/UspsToolsRestServices/rest/POLocator/findLocations", "@spider": "usps_collection_boxes", "addr:city": "SWIFTWATER", "addr:country": "US", "addr:postcode": "18370", "addr:state": "PA", "addr:street_address": "296 UPPER SWIFTWATER RD", "amenity": "post_box", "collection_times": "Mo-Fr 16:30; Sa 12:00", "indoor": "yes", "note": "ON 12/24 AND 12/31, THIS BOX MAY BE COLLECTED AS EARLY AS 12 NOON.", "nsi_id": "unitedstatespostalservice-a77078", "operator": "United States Postal Service", "operator:short": "USPS", "operator:type": "public", "operator:wikidata": "Q668687", "ref": "1837000003"}, "type": "Feature"}
{"geometry": {"coordinates": [-75.31720922, 41.099127518], "type": "Point"}, "id": "0UYMdK7WnwM4IBYmwpf-7hZTHYQ=", "properties": {"@source_uri": "https://tools.usps.com/UspsToolsRestServices/rest/POLocator/findLocations", "@spider": "usps_collection_boxes", "addr:city": "SWIFTWATER", "addr:country": "US", "addr:postcode": "18370", "addr:state": "PA", "addr:street_address": "296 UPPER SWIFTWATER RD", "amenity": "post_box", "collection_times": "Mo-Fr 16:05; Sa 12:00", "indoor": "yes", "note": "ON 12/24 AND 12/31, THIS BOX MAY BE COLLECTED AS EARLY AS 12 NOON.", "nsi_id": "unitedstatespostalservice-a77078", "operator": "United States Postal Service", "operator:short": "USPS", "operator:type": "public", "operator:wikidata": "Q668687", "ref": "1837000006"}, "type": "Feature"}
{"geometry": {"coordinates": [-75.302526, 41.034412], "type": "Point"}, "id": "W_yIy0VFG9bAKFSglRnxHw5wjYY=", "properties": {"@source_uri": "https://tools.usps.com/UspsToolsRestServices/rest/POLocator/findLocations", "@spider": "usps_collection_boxes", "addr:city": "TANNERSVILLE", "addr:country": "US", "addr:postcode": "18372", "addr:state": "PA", "addr:street_address": "2937 ROUTE 611", "amenity": "post_box", "collection_times": "Mo-Fr 16:00; Sa 11:30", "note": "ON 12/24 AND 12/31, THIS BOX MAY BE COLLECTED AS EARLY AS 12 NOON.", "nsi_id": "unitedstatespostalservice-a77078", "operator": "United States Postal Service", "operator:short": "USPS", "operator:type": "public", "operator:wikidata": "Q668687", "ref": "1837200001"}, "type": "Feature"}
{"geometry": {"coordinates": [-75.3354991676, 41.0476248322], "type": "Point"}, "id": "76N8sb2kL-Z9Ovinxuk48EeKNMI=", "properties": {"@source_uri": "https://tools.usps.com/UspsToolsRestServices/rest/POLocator/findLocations", "@spider": "usps_collection_boxes", "addr:city": "TANNERSVILLE", "addr:country": "US", "addr:postcode": "18372", "addr:state": "PA", "addr:street_address": "1 POSTAL WAY", "amenity": "post_box", "collection_times": "Mo-Fr 16:00; Sa 11:30", "note": "ON 12/24 AND 12/31, THIS BOX MAY BE COLLECTED AS EARLY AS 12 NOON.", "nsi_id": "unitedstatespostalservice-a77078", "operator": "United States Postal Service", "operator:short": "USPS", "operator:type": "public", "operator:wikidata": "Q668687", "ref": "1837200002"}, "type": "Feature"}
{"geometry": {"coordinates": [-75.3154373, 41.05082], "type": "Point"}, "id": "eVU6ZjqB4BVyMPHhIN7PFJ03yU4=", "properties": {"@source_uri": "https://tools.usps.com/UspsToolsRestServices/rest/POLocator/findLocations", "@spider": "usps_collection_boxes", "addr:city": "TANNERSVILLE", "addr:country": "US", "addr:postcode": "18372", "addr:state": "PA", "addr:street_address": "1 CROSSINGS OUTLET", "amenity": "post_box", "collection_times": "Mo-Sa 10:00", "nsi_id": "unitedstatespostalservice-a77078", "operator": "United States Postal Service", "operator:short": "USPS", "operator:type": "public", "operator:wikidata": "Q668687", "ref": "1837200003"}, "type": "Feature"}
{"geometry": {"coordinates": [-75.3354991676, 41.0476248322], "type": "Point"}, "id": "KbInssfByHRACxzTa-piTNiMCtY=", "properties": {"@source_uri": "https://tools.usps.com/UspsToolsRestServices/rest/POLocator/findLocations", "@spider": "usps_collection_boxes", "addr:city": "TANNERSVILLE", "addr:country": "US", "addr:postcode": "18372", "addr:state": "PA", "addr:street_address": "1 POSTAL WAY", "amenity": "post_box", "collection_times": "Mo-Fr 16:00; Sa 12:00", "indoor": "yes", "note": "ON 12/24 AND 12/31, THIS BOX MAY BE COLLECTED AS EARLY AS 12 NOON.", "nsi_id": "unitedstatespostalservice-a77078", "operator": "United States Postal Service", "operator:short": "USPS", "operator:type": "public", "operator:wikidata": "Q668687", "ref": "1837200005"}, "type": "Feature"}
{"geometry": {"coordinates": [-75.302610895, 41.034586681], "type": "Point"}, "id": "v76OxCTnaL724b1fIMhGrKrPg2U=", "properties": {"@source_uri": "https://tools.usps.com/UspsToolsRestServices/rest/POLocator/findLocations", "@spider": "usps_collection_boxes", "addr:city": "TANNERSVILLE", "addr:country": "US", "addr:postcode": "18372", "addr:state": "PA", "addr:street_address": "2937 ROUTE 611", "amenity": "post_box", "collection_times": "Mo-Fr 16:00; Sa 12:00", "indoor": "yes", "note": "ON 12/24 AND 12/31, THIS BOX MAY BE COLLECTED AS EARLY AS 12 NOON.", "nsi_id": "unitedstatespostalservice-a77078", "operator": "United States Postal Service", "operator:short": "USPS", "operator:type": "public", "operator:wikidata": "Q668687", "ref": "1837200012"}, "type": "Feature"}
