{"dataset_attributes": {"@spider": "usps_collection_boxes"}, "geometry": {"coordinates": [-75.5756043, 41.49485], "type": "Point"}, "id": "6BobGRYZ44DY7odub07xc1hT1Rc=", "properties": {"@spider": "usps_collection_boxes", "addr:city": "ARCHBALD", "addr:country": "US", "addr:full": "343 MAIN ST", "addr:postcode": "18403", "addr:state": "PA", "amenity": "post_box", "brand": "United States Postal Service", "brand:wikidata": "Q668687", "collection_times": "Mo-Sa 12:00", "name": "USPS COLLECTION BOX - BLUE BOX", "nsi_id": "unitedstatespostalservice-a77078", "operator": "United States Postal Service", "operator:short": "USPS", "operator:type": "public", "operator:wikidata": "Q668687", "ref": "1840300004"}, "type": "Feature"}
{"dataset_attributes": {"@spider": "usps_collection_boxes"}, "geometry": {"coordinates": [-75.5396807, 41.497019], "type": "Point"}, "id": "lOTeiW5jU4SUvAEKUaSIZ1e1Vfc=", "properties": {"@spider": "usps_collection_boxes", "addr:city": "ARCHBALD", "addr:country": "US", "addr:full": "400 CHURCH ST", "addr:postcode": "18403", "addr:state": "PA", "amenity": "post_box", "brand": "United States Postal Service", "brand:wikidata": "Q668687", "collection_times": "Mo-Sa 10:00", "name": "USPS COLLECTION BOX - BLUE BOX", "nsi_id": "unitedstatespostalservice-a77078", "operator": "United States Postal Service", "operator:short": "USPS", "operator:type": "public", "operator:wikidata": "Q668687", "ref": "1840300006"}, "type": "Feature"}
{"dataset_attributes": {"@spider": "usps_collection_boxes"}, "geometry": {"coordinates": [-75.5433354, 41.494436], "type": "Point"}, "id": "5MTKziHZyIZWIk-Q1h9b6pM7hTY=", "properties": {"@spider": "usps_collection_boxes", "addr:city": "ARCHBALD", "addr:country": "US", "addr:full": "377 N MAIN ST", "addr:postcode": "18403", "addr:state": "PA", "amenity": "post_box", "brand": "United States Postal Service", "brand:wikidata": "Q668687", "collection_times": "Mo-Sa 10:00", "name": "USPS COLLECTION BOX - BLUE BOX", "nsi_id": "unitedstatespostalservice-a77078", "operator": "United States Postal Service", "operator:short": "USPS", "operator:type": "public", "operator:wikidata": "Q668687", "ref": "1840300010"}, "type": "Feature"}
{"dataset_attributes": {"@spider": "usps_collection_boxes"}, "geometry": {"coordinates": [-75.5775957, 41.498257], "type": "Point"}, "id": "-SuZW06n0oFcgAAM9Ynib4moKM0=", "properties": {"@spider": "usps_collection_boxes", "addr:city": "ARCHBALD", "addr:country": "US", "addr:full": "202 BETTY ST", "addr:postcode": "18403", "addr:state": "PA", "amenity": "post_box", "brand": "United States Postal Service", "brand:wikidata": "Q668687", "collection_times": "Mo-Sa 10:00", "name": "USPS COLLECTION BOX - BLUE BOX", "nsi_id": "unitedstatespostalservice-a77078", "operator": "United States Postal Service", "operator:short": "USPS", "operator:type": "public", "operator:wikidata": "Q668687", "ref": "1840300017"}, "type": "Feature"}
{"dataset_attributes": {"@spider": "usps_collection_boxes"}, "geometry": {"coordinates": [-75.552094, 41.490727], "type": "Point"}, "id": "pFlNXNNu6-XOtf_5mKD7gYIF0aM=", "properties": {"@spider": "usps_collection_boxes", "addr:city": "ARCHBALD", "addr:country": "US", "addr:full": "1 KENNEDY DR", "addr:postcode": "18403", "addr:state": "PA", "amenity": "post_box", "brand": "United States Postal Service", "brand:wikidata": "Q668687", "collection_times": "Mo-Fr 17:00; Sa 15:15", "name": "USPS COLLECTION BOX - BLUE BOX", "note": "ON 12/24 AND 12/31, THIS BOX MAY BE COLLECTED AS EARLY AS 12 NOON.", "nsi_id": "unitedstatespostalservice-a77078", "operator": "United States Postal Service", "operator:short": "USPS", "operator:type": "public", "operator:wikidata": "Q668687", "ref": "1840300018"}, "type": "Feature"}
{"dataset_attributes": {"@spider": "usps_collection_boxes"}, "geometry": {"coordinates": [-75.55197, 41.490713], "type": "Point"}, "id": "6IQW8JBS0nrZGatQmenSeV8Qst4=", "properties": {"@spider": "usps_collection_boxes", "addr:city": "ARCHBALD", "addr:country": "US", "addr:full": "1 KENNEDY DR", "addr:postcode": "18403", "addr:state": "PA", "amenity": "post_box", "brand": "United States Postal Service", "brand:wikidata": "Q668687", "collection_times": "Mo-Fr 17:00; Sa 15:30", "name": "USPS COLLECTION BOX - PO LOBBY", "note": "ON 12/24 AND 12/31, THIS BOX MAY BE COLLECTED AS EARLY AS 12 NOON.", "nsi_id": "unitedstatespostalservice-a77078", "operator": "United States Postal Service", "operator:short": "USPS", "operator:type": "public", "operator:wikidata": "Q668687", "ref": "1840300021"}, "type": "Feature"}
{"dataset_attributes": {"@spider": "usps_collection_boxes"}, "geometry": {"coordinates": [-75.552064494, 41.490655503], "type": "Point"}, "id": "ThT04dYkNSqKWAGubM0dU33vJdo=", "properties": {"@spider": "usps_collection_boxes", "addr:city": "ARCHBALD", "addr:country": "US", "addr:full": "1 KENNEDY DR", "addr:postcode": "18403", "addr:state": "PA", "amenity": "post_box", "brand": "United States Postal Service", "brand:wikidata": "Q668687", "collection_times": "Mo-Fr 17:05; Sa 12:05", "name": "USPS COLLECTION BOX - PO LOBBY", "note": "ON 12/24 AND 12/31, THIS BOX MAY BE COLLECTED AS EARLY AS 12 NOON.", "nsi_id": "unitedstatespostalservice-a77078", "operator": "United States Postal Service", "operator:short": "USPS", "operator:type": "public", "operator:wikidata": "Q668687", "ref": "1840300023"}, "type": "Feature"}
{"dataset_attributes": {"@spider": "usps_collection_boxes"}, "geometry": {"coordinates": [-75.1541329, 41.598145], "type": "Point"}, "id": "3nDoyHMQkNa3Cg8GiyvRcVYwoso=", "properties": {"@spider": "usps_collection_boxes", "addr:city": "BEACH LAKE", "addr:country": "US", "addr:full": "1015 BEACH LAKE HWY", "addr:postcode": "18405", "addr:state": "PA", "amenity": "post_box", "brand": "United States Postal Service", "brand:wikidata": "Q668687", "collection_times": "Mo-Fr 16:30; Sa 11:30", "name": "USPS COLLECTION BOX - BLUE BOX", "note": "ON 12/24 AND 12/31, THIS BOX MAY BE COLLECTED AS EARLY AS 12 NOON.", "nsi_id": "unitedstatespostalservice-a77078", "operator": "United States Postal Service", "operator:short": "USPS", "operator:type": "public", "operator:wikidata": "Q668687", "ref": "1840500001"}, "type": "Feature"}
{"dataset_attributes": {"@spider": "usps_collection_boxes"}, "geometry": {"coordinates": [-75.1541436, 41.598242], "type": "Point"}, "id": "IZQI8b21wMOKT7tJGhAQvwW2MdA=", "properties": {"@spider": "usps_collection_boxes", "addr:city": "BEACH LAKE", "addr:country": "US", "addr:full": "1015 BEACH LAKE HWY", "addr:postcode": "18405", "addr:state": "PA", "amenity": "post_box", "brand": "United States Postal Service", "brand:wikidata": "Q668687", "collection_times": "Mo-Fr 16:30; Sa 11:30", "name": "USPS COLLECTION BOX - PO LOBBY", "note": "ON 12/24 AND 12/31, THIS BOX MAY BE COLLECTED AS EARLY AS 12 NOON.", "nsi_id": "unitedstatespostalservice-a77078", "operator": "United States Postal Service", "operator:short": "USPS", "operator:type": "public", "operator:wikidata": "Q668687", "ref": "1840500004"}, "type": "Feature"}
{"dataset_attributes": {"@spider": "usps_collection_boxes"}, "geometry": {"coordinates": [-75.153846372, 41.597959576], "type": "Point"}, "id": "lojKESVL8FRbPrdf3rwvCgj-6go=", "properties": {"@spider": "usps_collection_boxes", "addr:city": "BEACH LAKE", "addr:country": "US", "addr:full": "1015 BEACH LAKE HWY", "addr:postcode": "18405", "addr:state": "PA", "amenity": "post_box", "brand": "United States Postal Service", "brand:wikidata": "Q668687", "collection_times": "Mo-Fr 16:30; Sa 11:35", "name": "USPS COLLECTION BOX - PO LOBBY", "note": "ON 12/24 AND 12/31, THIS BOX MAY BE COLLECTED AS EARLY AS 12 NOON.", "nsi_id": "unitedstatespostalservice-a77078", "operator": "United States Postal Service", "operator:short": "USPS", "operator:type": "public", "operator:wikidata": "Q668687", "ref": "1840500006"}, "type": "Feature"}
{"dataset_attributes": {"@spider": "usps_collection_boxes"}, "geometry": {"coordinates": [-75.4885009, 41.587934], "type": "Point"}, "id": "01kKZg1G1yUcAYKI0Y_LNoAfgJU=", "properties": {"@spider": "usps_collection_boxes", "addr:city": "CARBONDALE", "addr:country": "US", "addr:full": "347 MAIN ST", "addr:postcode": "18407", "addr:state": "PA", "amenity": "post_box", "brand": "United States Postal Service", "brand:wikidata": "Q668687", "collection_times": "Mo-Sa 14:00", "name": "USPS COLLECTION BOX - BLUE BOX", "note": "ON 12/24 AND 12/31, THIS BOX MAY BE COLLECTED AS EARLY AS 12 NOON.", "nsi_id": "unitedstatespostalservice-a77078", "operator": "United States Postal Service", "operator:short": "USPS", "operator:type": "public", "operator:wikidata": "Q668687", "ref": "1840700001"}, "type": "Feature"}
{"dataset_attributes": {"@spider": "usps_collection_boxes"}, "geometry": {"coordinates": [-75.5006399, 41.573064], "type": "Point"}, "id": "SKMvdyV6T0IpLVbgNU9p1KONxsE=", "properties": {"@spider": "usps_collection_boxes", "addr:city": "CARBONDALE", "addr:country": "US", "addr:full": "67 SALEM AVE", "addr:postcode": "18407", "addr:state": "PA", "amenity": "post_box", "brand": "United States Postal Service", "brand:wikidata": "Q668687", "collection_times": "Mo-Sa 13:30", "name": "USPS COLLECTION BOX - BLUE BOX", "note": "ON 12/24 AND 12/31, THIS BOX MAY BE COLLECTED AS EARLY AS 12 NOON.", "nsi_id": "unitedstatespostalservice-a77078", "operator": "United States Postal Service", "operator:short": "USPS", "operator:type": "public", "operator:wikidata": "Q668687", "ref": "1840700003"}, "type": "Feature"}
{"dataset_attributes": {"@spider": "usps_collection_boxes"}, "geometry": {"coordinates": [-75.5016457, 41.57197], "type": "Point"}, "id": "GMBTGLPYr58X4kgg2_1HExe2XYQ=", "properties": {"@spider": "usps_collection_boxes", "addr:city": "CARBONDALE", "addr:country": "US", "addr:full": "24 6TH AVE", "addr:postcode": "18407", "addr:state": "PA", "amenity": "post_box", "brand": "United States Postal Service", "brand:wikidata": "Q668687", "collection_times": "Mo-Sa 14:00", "name": "USPS COLLECTION BOX - BLUE BOX", "note": "ON 12/24 AND 12/31, THIS BOX MAY BE COLLECTED AS EARLY AS 12 NOON.", "nsi_id": "unitedstatespostalservice-a77078", "operator": "United States Postal Service", "operator:short": "USPS", "operator:type": "public", "operator:wikidata": "Q668687", "ref": "1840700004"}, "type": "Feature"}
{"dataset_attributes": {"@spider": "usps_collection_boxes"}, "geometry": {"coordinates": [-75.5007876, 41.574509], "type": "Point"}, "id": "LRdfO6s9LbYOiEHe9fzO-rG84zo=", "properties": {"@spider": "usps_collection_boxes", "addr:city": "CARBONDALE", "addr:country": "US", "addr:full": "70 N MAIN ST", "addr:postcode": "18407", "addr:state": "PA", "amenity": "post_box", "brand": "United States Postal Service", "brand:wikidata": "Q668687", "collection_times": "Mo-Sa 13:00", "name": "USPS COLLECTION BOX - BLUE BOX", "note": "ON 12/24 AND 12/31, THIS BOX MAY BE COLLECTED AS EARLY AS 12 NOON.", "nsi_id": "unitedstatespostalservice-a77078", "operator": "United States Postal Service", "operator:short": "USPS", "operator:type": "public", "operator:wikidata": "Q668687", "ref": "1840700005"}, "type": "Feature"}
{"dataset_attributes": {"@spider": "usps_collection_boxes"}, "geometry": {"coordinates": [-75.5029284, 41.572184], "type": "Point"}, "id": "l2NQJNOc_pQBFYG69d6S0WO8YA8=", "properties": {"@spider": "usps_collection_boxes", "addr:city": "CARBONDALE", "addr:country": "US", "addr:full": "1 N MAIN ST", "addr:postcode": "18407", "addr:state": "PA", "amenity": "post_box", "brand": "United States Postal Service", "brand:wikidata": "Q668687", "collection_times": "Mo-Sa 14:00", "name": "USPS COLLECTION BOX - BLUE BOX", "note": "ON 12/24 AND 12/31, THIS BOX MAY BE COLLECTED AS EARLY AS 12 NOON.", "nsi_id": "unitedstatespostalservice-a77078", "operator": "United States Postal Service", "operator:short": "USPS", "operator:type": "public", "operator:wikidata": "Q668687", "ref": "1840700007"}, "type": "Feature"}
{"dataset_attributes": {"@spider": "usps_collection_boxes"}, "geometry": {"coordinates": [-75.5028513, 41.570641], "type": "Point"}, "id": "MVs64Y5od6X_p9Q6XnEwkFbOdRA=", "properties": {"@spider": "usps_collection_boxes", "addr:city": "CARBONDALE", "addr:country": "US", "addr:full": "47 S MAIN ST", "addr:postcode": "18407", "addr:state": "PA", "amenity": "post_box", "brand": "United States Postal Service", "brand:wikidata": "Q668687", "collection_times": "Mo-Sa 13:00", "name": "USPS COLLECTION BOX - BLUE BOX", "note": "ON 12/24 AND 12/31, THIS BOX MAY BE COLLECTED AS EARLY AS 12 NOON.", "nsi_id": "unitedstatespostalservice-a77078", "operator": "United States Postal Service", "operator:short": "USPS", "operator:type": "public", "operator:wikidata": "Q668687", "ref": "1840700015"}, "type": "Feature"}
{"dataset_attributes": {"@spider": "usps_collection_boxes"}, "geometry": {"coordinates": [-75.5029549, 41.57505], "type": "Point"}, "id": "fn-X_dJf81jeaeFJB8IWJmNDpRc=", "properties": {"@spider": "usps_collection_boxes", "addr:city": "CARBONDALE", "addr:country": "US", "addr:full": "50 DUNDAFF ST", "addr:postcode": "18407", "addr:state": "PA", "amenity": "post_box", "brand": "United States Postal Service", "brand:wikidata": "Q668687", "collection_times": "Mo-Fr 17:00; Sa 15:00", "name": "USPS COLLECTION BOX - BLUE BOX", "note": "ON 12/24 AND 12/31, THIS BOX MAY BE COLLECTED AS EARLY AS 12 NOON.", "nsi_id": "unitedstatespostalservice-a77078", "operator": "United States Postal Service", "operator:short": "USPS", "operator:type": "public", "operator:wikidata": "Q668687", "ref": "1840700030"}, "type": "Feature"}
{"dataset_attributes": {"@spider": "usps_collection_boxes"}, "geometry": {"coordinates": [-75.5029554, 41.575073], "type": "Point"}, "id": "TaUih3skPAh0sBJGbDE2CFLA2rY=", "properties": {"@spider": "usps_collection_boxes", "addr:city": "CARBONDALE", "addr:country": "US", "addr:full": "50 DUNDAFF ST", "addr:postcode": "18407", "addr:state": "PA", "amenity": "post_box", "brand": "United States Postal Service", "brand:wikidata": "Q668687", "collection_times": "Mo-Fr 17:00; Sa 15:00", "name": "USPS COLLECTION BOX - BLUE BOX", "note": "ON 12/24 AND 12/31, THIS BOX MAY BE COLLECTED AS EARLY AS 12 NOON.", "nsi_id": "unitedstatespostalservice-a77078", "operator": "United States Postal Service", "operator:short": "USPS", "operator:type": "public", "operator:wikidata": "Q668687", "ref": "1840700031"}, "type": "Feature"}
{"dataset_attributes": {"@spider": "usps_collection_boxes"}, "geometry": {"coordinates": [-75.4998604, 41.573772], "type": "Point"}, "id": "WW7KEzNC5utsYy1W9A_M5CBjgZk=", "properties": {"@spider": "usps_collection_boxes", "addr:city": "CARBONDALE", "addr:country": "US", "addr:full": "48 N CHURCH ST", "addr:postcode": "18407", "addr:state": "PA", "amenity": "post_box", "brand": "United States Postal Service", "brand:wikidata": "Q668687", "collection_times": "Mo-Sa 14:00", "name": "USPS COLLECTION BOX - BLUE BOX", "note": "ON 12/24 AND 12/31, THIS BOX MAY BE COLLECTED AS EARLY AS 12 NOON.", "nsi_id": "unitedstatespostalservice-a77078", "operator": "United States Postal Service", "operator:short": "USPS", "operator:type": "public", "operator:wikidata": "Q668687", "ref": "1840700032"}, "type": "Feature"}
{"dataset_attributes": {"@spider": "usps_collection_boxes"}, "geometry": {"coordinates": [-75.5149913, 41.570557], "type": "Point"}, "id": "k3hNmLy9xKRRdEa-xvZSCTBZkqk=", "properties": {"@spider": "usps_collection_boxes", "addr:city": "CARBONDALE", "addr:country": "US", "addr:full": "140 WESTGATE DR", "addr:postcode": "18407", "addr:state": "PA", "amenity": "post_box", "brand": "United States Postal Service", "brand:wikidata": "Q668687", "collection_times": "Mo-Sa 09:30", "name": "USPS COLLECTION BOX - BLUE BOX", "nsi_id": "unitedstatespostalservice-a77078", "operator": "United States Postal Service", "operator:short": "USPS", "operator:type": "public", "operator:wikidata": "Q668687", "ref": "1840700033"}, "type": "Feature"}
{"dataset_attributes": {"@spider": "usps_collection_boxes"}, "geometry": {"coordinates": [-75.5032557, 41.575328], "type": "Point"}, "id": "gr6-5-gt4tgGBBv9rxiMJ2vEJCA=", "properties": {"@spider": "usps_collection_boxes", "addr:city": "CARBONDALE", "addr:country": "US", "addr:full": "50 DUNDAFF ST", "addr:postcode": "18407", "addr:state": "PA", "amenity": "post_box", "brand": "United States Postal Service", "brand:wikidata": "Q668687", "collection_times": "Mo-Fr 17:00; Sa 15:00", "name": "USPS COLLECTION BOX - PO LOBBY", "note": "ON 12/24 AND 12/31, THIS BOX MAY BE COLLECTED AS EARLY AS 12 NOON.", "nsi_id": "unitedstatespostalservice-a77078", "operator": "United States Postal Service", "operator:short": "USPS", "operator:type": "public", "operator:wikidata": "Q668687", "ref": "1840700037"}, "type": "Feature"}
{"dataset_attributes": {"@spider": "usps_collection_boxes"}, "geometry": {"coordinates": [-75.503486074, 41.575481571], "type": "Point"}, "id": "c_TpXVipw6AOJ8f48vO0eZVZb10=", "properties": {"@spider": "usps_collection_boxes", "addr:city": "CARBONDALE", "addr:country": "US", "addr:full": "50 DUNDAFF ST", "addr:postcode": "18407", "addr:state": "PA", "amenity": "post_box", "brand": "United States Postal Service", "brand:wikidata": "Q668687", "collection_times": "Mo-Fr 17:15; Sa 13:15", "name": "USPS COLLECTION BOX - PO LOBBY", "note": "ON 12/24 AND 12/31, THIS BOX MAY BE COLLECTED AS EARLY AS 12 NOON.", "nsi_id": "unitedstatespostalservice-a77078", "operator": "United States Postal Service", "operator:short": "USPS", "operator:type": "public", "operator:wikidata": "Q668687", "ref": "1840700042"}, "type": "Feature"}
{"dataset_attributes": {"@spider": "usps_collection_boxes"}, "geometry": {"coordinates": [-75.689448, 41.472932], "type": "Point"}, "id": "1pzvf-_uBRunOPLdaHRKy6ZpXyA=", "properties": {"@spider": "usps_collection_boxes", "addr:city": "CHINCHILLA", "addr:country": "US", "addr:full": "555 NORTHERN BLVD", "addr:postcode": "18410", "addr:state": "PA", "amenity": "post_box", "brand": "United States Postal Service", "brand:wikidata": "Q668687", "collection_times": "Mo-Fr 17:00; Sa 12:00", "name": "USPS COLLECTION BOX - BLUE BOX", "note": "ON 12/24 AND 12/31, THIS BOX MAY BE COLLECTED AS EARLY AS 12 NOON.", "nsi_id": "unitedstatespostalservice-a77078", "operator": "United States Postal Service", "operator:short": "USPS", "operator:type": "public", "operator:wikidata": "Q668687", "ref": "1841000001"}, "type": "Feature"}
{"dataset_attributes": {"@spider": "usps_collection_boxes"}, "geometry": {"coordinates": [-75.689325, 41.472922], "type": "Point"}, "id": "DPDWisHJbNpdh0EEyxSIz-xtXDA=", "properties": {"@spider": "usps_collection_boxes", "addr:city": "CHINCHILLA", "addr:country": "US", "addr:full": "555 NORTHERN BLVD", "addr:postcode": "18410", "addr:state": "PA", "amenity": "post_box", "brand": "United States Postal Service", "brand:wikidata": "Q668687", "collection_times": "Mo-Fr 17:00; Sa 12:00", "name": "USPS COLLECTION BOX - PO LOBBY", "note": "ON 12/24 AND 12/31, THIS BOX MAY BE COLLECTED AS EARLY AS 12 NOON.", "nsi_id": "unitedstatespostalservice-a77078", "operator": "United States Postal Service", "operator:short": "USPS", "operator:type": "public", "operator:wikidata": "Q668687", "ref": "1841000003"}, "type": "Feature"}
{"dataset_attributes": {"@spider": "usps_collection_boxes"}, "geometry": {"coordinates": [-75.682583445, 41.474365332], "type": "Point"}, "id": "bu5Wqe62ALY-pmkD3G-kIxf4Fj8=", "properties": {"@spider": "usps_collection_boxes", "addr:city": "CHINCHILLA", "addr:country": "US", "addr:full": "555 NORTHERN BLVD", "addr:postcode": "18410", "addr:state": "PA", "amenity": "post_box", "brand": "United States Postal Service", "brand:wikidata": "Q668687", "collection_times": "Mo-Fr 17:00; Sa 12:05", "name": "USPS COLLECTION BOX - PO LOBBY", "note": "ON 12/24 AND 12/31, THIS BOX MAY BE COLLECTED AS EARLY AS 12 NOON.", "nsi_id": "unitedstatespostalservice-a77078", "operator": "United States Postal Service", "operator:short": "USPS", "operator:type": "public", "operator:wikidata": "Q668687", "ref": "1841000007"}, "type": "Feature"}
{"dataset_attributes": {"@spider": "usps_collection_boxes"}, "geometry": {"coordinates": [-75.704858, 41.495351], "type": "Point"}, "id": "Qg0T8RfNVZg6HJ61CBxRATdOWGU=", "properties": {"@spider": "usps_collection_boxes", "addr:city": "CLARKS SUMMIT", "addr:country": "US", "addr:full": "117 S STATE ST", "addr:postcode": "18411", "addr:state": "PA", "amenity": "post_box", "brand": "United States Postal Service", "brand:wikidata": "Q668687", "collection_times": "Mo-Fr 17:00; Sa 16:15", "name": "USPS COLLECTION BOX - BLUE BOX", "note": "ON 12/24 AND 12/31, THIS BOX MAY BE COLLECTED AS EARLY AS 12 NOON.", "nsi_id": "unitedstatespostalservice-a77078", "operator": "United States Postal Service", "operator:short": "USPS", "operator:type": "public", "operator:wikidata": "Q668687", "ref": "1841100001"}, "type": "Feature"}
{"dataset_attributes": {"@spider": "usps_collection_boxes"}, "geometry": {"coordinates": [-75.7020063, 41.493746], "type": "Point"}, "id": "dhzH9dxCVpsI7iIfxW14NaqLFbY=", "properties": {"@spider": "usps_collection_boxes", "addr:city": "CLARKS SUMMIT", "addr:country": "US", "addr:full": "400 S STATE ST", "addr:postcode": "18411", "addr:state": "PA", "amenity": "post_box", "brand": "United States Postal Service", "brand:wikidata": "Q668687", "collection_times": "Mo-Sa 13:30", "name": "USPS COLLECTION BOX - BLUE BOX", "note": "ON 12/24 AND 12/31, THIS BOX MAY BE COLLECTED AS EARLY AS 12 NOON.", "nsi_id": "unitedstatespostalservice-a77078", "operator": "United States Postal Service", "operator:short": "USPS", "operator:type": "public", "operator:wikidata": "Q668687", "ref": "1841100002"}, "type": "Feature"}
{"dataset_attributes": {"@spider": "usps_collection_boxes"}, "geometry": {"coordinates": [-75.6995094, 41.493011], "type": "Point"}, "id": "L0w6jwvicGlAtRxeVj8Yz1MROCo=", "properties": {"@spider": "usps_collection_boxes", "addr:city": "CLARKS SUMMIT", "addr:country": "US", "addr:full": "100 E GROVE ST", "addr:postcode": "18411", "addr:state": "PA", "amenity": "post_box", "brand": "United States Postal Service", "brand:wikidata": "Q668687", "collection_times": "Mo-Sa 13:00", "name": "USPS COLLECTION BOX - BLUE BOX", "note": "ON 12/24 AND 12/31, THIS BOX MAY BE COLLECTED AS EARLY AS 12 NOON.", "nsi_id": "unitedstatespostalservice-a77078", "operator": "United States Postal Service", "operator:short": "USPS", "operator:type": "public", "operator:wikidata": "Q668687", "ref": "1841100003"}, "type": "Feature"}
{"dataset_attributes": {"@spider": "usps_collection_boxes"}, "geometry": {"coordinates": [-75.7035034, 41.491337], "type": "Point"}, "id": "PsV17Rk74kIC2W12pJOGHeV5e-g=", "properties": {"@spider": "usps_collection_boxes", "addr:city": "CLARKS SUMMIT", "addr:country": "US", "addr:full": "400 BEDFORD ST", "addr:postcode": "18411", "addr:state": "PA", "amenity": "post_box", "brand": "United States Postal Service", "brand:wikidata": "Q668687", "collection_times": "Mo-Sa 09:00", "name": "USPS COLLECTION BOX - BLUE BOX", "nsi_id": "unitedstatespostalservice-a77078", "operator": "United States Postal Service", "operator:short": "USPS", "operator:type": "public", "operator:wikidata": "Q668687", "ref": "1841100004"}, "type": "Feature"}
{"dataset_attributes": {"@spider": "usps_collection_boxes"}, "geometry": {"coordinates": [-75.6976679, 41.492891], "type": "Point"}, "id": "08jSk5Uu2evjpQVCts5uDBxA02w=", "properties": {"@spider": "usps_collection_boxes", "addr:city": "CLARKS SUMMIT", "addr:country": "US", "addr:full": "100 LINDEN ST", "addr:postcode": "18411", "addr:state": "PA", "amenity": "post_box", "brand": "United States Postal Service", "brand:wikidata": "Q668687", "collection_times": "Mo-Sa 09:00", "name": "USPS COLLECTION BOX - BLUE BOX", "nsi_id": "unitedstatespostalservice-a77078", "operator": "United States Postal Service", "operator:short": "USPS", "operator:type": "public", "operator:wikidata": "Q668687", "ref": "1841100005"}, "type": "Feature"}
{"dataset_attributes": {"@spider": "usps_collection_boxes"}, "geometry": {"coordinates": [-75.6911218, 41.48505], "type": "Point"}, "id": "cfpKC8C_WDTGT90jyF6SKwp0UrA=", "properties": {"@spider": "usps_collection_boxes", "addr:city": "CLARKS SUMMIT", "addr:country": "US", "addr:full": "1020 NORTHERN BLVD", "addr:postcode": "18411", "addr:state": "PA", "amenity": "post_box", "brand": "United States Postal Service", "brand:wikidata": "Q668687", "collection_times": "Mo-Sa 10:00", "name": "USPS COLLECTION BOX - BLUE BOX", "nsi_id": "unitedstatespostalservice-a77078", "operator": "United States Postal Service", "operator:short": "USPS", "operator:type": "public", "operator:wikidata": "Q668687", "ref": "1841100009"}, "type": "Feature"}
{"dataset_attributes": {"@spider": "usps_collection_boxes"}, "geometry": {"coordinates": [-75.6999814, 41.500685], "type": "Point"}, "id": "IdDfjnXDtvfnArjxDuPVGFPXb9w=", "properties": {"@spider": "usps_collection_boxes", "addr:city": "CLARKS SUMMIT", "addr:country": "US", "addr:full": "517 MAIN AVE", "addr:postcode": "18411", "addr:state": "PA", "amenity": "post_box", "brand": "United States Postal Service", "brand:wikidata": "Q668687", "collection_times": "Mo-Sa 13:30", "name": "USPS COLLECTION BOX - BLUE BOX", "note": "ON 12/24 AND 12/31, THIS BOX MAY BE COLLECTED AS EARLY AS 12 NOON.", "nsi_id": "unitedstatespostalservice-a77078", "operator": "United States Postal Service", "operator:short": "USPS", "operator:type": "public", "operator:wikidata": "Q668687", "ref": "1841100012"}, "type": "Feature"}
{"dataset_attributes": {"@spider": "usps_collection_boxes"}, "geometry": {"coordinates": [-75.6669961, 41.51404], "type": "Point"}, "id": "z9WArB7QKfwYMu7QSMkoEPz_ipM=", "properties": {"@spider": "usps_collection_boxes", "addr:city": "CLARKS SUMMIT", "addr:country": "US", "addr:full": "701 APPLEWOOD ACRES", "addr:postcode": "18411", "addr:state": "PA", "amenity": "post_box", "brand": "United States Postal Service", "brand:wikidata": "Q668687", "collection_times": "Mo-Sa 10:00", "name": "USPS COLLECTION BOX - BLUE BOX", "nsi_id": "unitedstatespostalservice-a77078", "operator": "United States Postal Service", "operator:short": "USPS", "operator:type": "public", "operator:wikidata": "Q668687", "ref": "1841100017"}, "type": "Feature"}
{"dataset_attributes": {"@spider": "usps_collection_boxes"}, "geometry": {"coordinates": [-75.71092, 41.499276], "type": "Point"}, "id": "bRviJQTCophWdF7a1wC-7BEmi1c=", "properties": {"@spider": "usps_collection_boxes", "addr:city": "CLARKS SUMMIT", "addr:country": "US", "addr:full": "100 OLD LACKAWANNA TRL", "addr:postcode": "18411", "addr:state": "PA", "amenity": "post_box", "brand": "United States Postal Service", "brand:wikidata": "Q668687", "collection_times": "Mo-Sa 09:00", "name": "USPS COLLECTION BOX - BLUE BOX", "nsi_id": "unitedstatespostalservice-a77078", "operator": "United States Postal Service", "operator:short": "USPS", "operator:type": "public", "operator:wikidata": "Q668687", "ref": "1841100019"}, "type": "Feature"}
{"dataset_attributes": {"@spider": "usps_collection_boxes"}, "geometry": {"coordinates": [-75.7037184, 41.494364], "type": "Point"}, "id": "dzptD_G8hjdLsOcqdpHNw6wrtRw=", "properties": {"@spider": "usps_collection_boxes", "addr:city": "CLARKS SUMMIT", "addr:country": "US", "addr:full": "218 DEPOT ST", "addr:postcode": "18411", "addr:state": "PA", "amenity": "post_box", "brand": "United States Postal Service", "brand:wikidata": "Q668687", "collection_times": "Mo-Sa 10:30", "name": "USPS COLLECTION BOX - BLUE BOX", "nsi_id": "unitedstatespostalservice-a77078", "operator": "United States Postal Service", "operator:short": "USPS", "operator:type": "public", "operator:wikidata": "Q668687", "ref": "1841100020"}, "type": "Feature"}
{"dataset_attributes": {"@spider": "usps_collection_boxes"}, "geometry": {"coordinates": [-75.703967, 41.494656], "type": "Point"}, "id": "Caedv38uLh23AyGnrQ4Hyvnpn10=", "properties": {"@spider": "usps_collection_boxes", "addr:city": "CLARKS SUMMIT", "addr:country": "US", "addr:full": "207 S STATE ST", "addr:postcode": "18411", "addr:state": "PA", "amenity": "post_box", "brand": "United States Postal Service", "brand:wikidata": "Q668687", "collection_times": "Mo-Fr 17:00; Sa 16:15", "name": "USPS COLLECTION BOX - BLUE BOX", "note": "ON 12/24 AND 12/31, THIS BOX MAY BE COLLECTED AS EARLY AS 12 NOON.", "nsi_id": "unitedstatespostalservice-a77078", "operator": "United States Postal Service", "operator:short": "USPS", "operator:type": "public", "operator:wikidata": "Q668687", "ref": "1841100025"}, "type": "Feature"}
{"dataset_attributes": {"@spider": "usps_collection_boxes"}, "geometry": {"coordinates": [-75.703967, 41.494656], "type": "Point"}, "id": "zz4TQI99l2FtHBOEx2dr2G73hUA=", "properties": {"@spider": "usps_collection_boxes", "addr:city": "CLARKS SUMMIT", "addr:country": "US", "addr:full": "207 S STATE ST", "addr:postcode": "18411", "addr:state": "PA", "amenity": "post_box", "brand": "United States Postal Service", "brand:wikidata": "Q668687", "collection_times": "Mo-Fr 17:00; Sa 16:15", "name": "USPS COLLECTION BOX - BLUE BOX", "note": "ON 12/24 AND 12/31, THIS BOX MAY BE COLLECTED AS EARLY AS 12 NOON.", "nsi_id": "unitedstatespostalservice-a77078", "operator": "United States Postal Service", "operator:short": "USPS", "operator:type": "public", "operator:wikidata": "Q668687", "ref": "1841100026"}, "type": "Feature"}
{"dataset_attributes": {"@spider": "usps_collection_boxes"}, "geometry": {"coordinates": [-75.7061063, 41.497402], "type": "Point"}, "id": "-ycy4FEXRyCdQGocV445YPkknQ0=", "properties": {"@spider": "usps_collection_boxes", "addr:city": "CLARKS SUMMIT", "addr:country": "US", "addr:full": "125 N STATE ST", "addr:postcode": "18411", "addr:state": "PA", "amenity": "post_box", "brand": "United States Postal Service", "brand:wikidata": "Q668687", "collection_times": "Mo-Sa 13:30", "name": "USPS COLLECTION BOX - BLUE BOX", "note": "ON 12/24 AND 12/31, THIS BOX MAY BE COLLECTED AS EARLY AS 12 NOON.", "nsi_id": "unitedstatespostalservice-a77078", "operator": "United States Postal Service", "operator:short": "USPS", "operator:type": "public", "operator:wikidata": "Q668687", "ref": "1841100028"}, "type": "Feature"}
{"dataset_attributes": {"@spider": "usps_collection_boxes"}, "geometry": {"coordinates": [-75.704907, 41.49536], "type": "Point"}, "id": "0rRM_63vzqQn-qaD-NbfhbELdj4=", "properties": {"@spider": "usps_collection_boxes", "addr:city": "CLARKS SUMMIT", "addr:country": "US", "addr:full": "117 S STATE ST", "addr:postcode": "18411", "addr:state": "PA", "amenity": "post_box", "brand": "United States Postal Service", "brand:wikidata": "Q668687", "collection_times": "Mo-Fr 17:00; Sa 16:15", "name": "USPS COLLECTION BOX - PO LOBBY", "note": "ON 12/24 AND 12/31, THIS BOX MAY BE COLLECTED AS EARLY AS 12 NOON.", "nsi_id": "unitedstatespostalservice-a77078", "operator": "United States Postal Service", "operator:short": "USPS", "operator:type": "public", "operator:wikidata": "Q668687", "ref": "1841100029"}, "type": "Feature"}
{"dataset_attributes": {"@spider": "usps_collection_boxes"}, "geometry": {"coordinates": [-75.6978354, 41.496845], "type": "Point"}, "id": "U11H6XlJ7OOeXasZqppFlxTQeEQ=", "properties": {"@spider": "usps_collection_boxes", "addr:city": "CLARKS SUMMIT", "addr:country": "US", "addr:full": "251 E GROVE ST", "addr:postcode": "18411", "addr:state": "PA", "amenity": "post_box", "brand": "United States Postal Service", "brand:wikidata": "Q668687", "collection_times": "Mo-Sa 13:30", "name": "USPS COLLECTION BOX - BLUE BOX", "note": "ON 12/24 AND 12/31, THIS BOX MAY BE COLLECTED AS EARLY AS 12 NOON.", "nsi_id": "unitedstatespostalservice-a77078", "operator": "United States Postal Service", "operator:short": "USPS", "operator:type": "public", "operator:wikidata": "Q668687", "ref": "1841100032"}, "type": "Feature"}
{"dataset_attributes": {"@spider": "usps_collection_boxes"}, "geometry": {"coordinates": [-75.704846312, 41.495374185], "type": "Point"}, "id": "w9XnQDgoKLEjTsrsPYYp80CI4Jo=", "properties": {"@spider": "usps_collection_boxes", "addr:city": "CLARKS SUMMIT", "addr:country": "US", "addr:full": "117 S STATE ST", "addr:postcode": "18411", "addr:state": "PA", "amenity": "post_box", "brand": "United States Postal Service", "brand:wikidata": "Q668687", "collection_times": "Mo-Fr 17:15; Sa 12:15", "name": "USPS COLLECTION BOX - PO LOBBY", "note": "ON 12/24 AND 12/31, THIS BOX MAY BE COLLECTED AS EARLY AS 12 NOON.", "nsi_id": "unitedstatespostalservice-a77078", "operator": "United States Postal Service", "operator:short": "USPS", "operator:type": "public", "operator:wikidata": "Q668687", "ref": "1841100036"}, "type": "Feature"}
{"dataset_attributes": {"@spider": "usps_collection_boxes"}, "geometry": {"coordinates": [-75.612753, 41.663366], "type": "Point"}, "id": "5PbFTFRjolm4QF0XZyMGgBoc8pw=", "properties": {"@spider": "usps_collection_boxes", "addr:city": "CLIFFORD", "addr:country": "US", "addr:full": "1748 STATE ROUTE 106", "addr:postcode": "18413", "addr:state": "PA", "amenity": "post_box", "brand": "United States Postal Service", "brand:wikidata": "Q668687", "collection_times": "Mo-Fr 16:30; Sa 12:00", "name": "USPS COLLECTION BOX - BLUE BOX", "note": "ON 12/24 AND 12/31, THIS BOX MAY BE COLLECTED AS EARLY AS 12 NOON.", "nsi_id": "unitedstatespostalservice-a77078", "operator": "United States Postal Service", "operator:short": "USPS", "operator:type": "public", "operator:wikidata": "Q668687", "ref": "1841300001"}, "type": "Feature"}
{"dataset_attributes": {"@spider": "usps_collection_boxes"}, "geometry": {"coordinates": [-75.612788, 41.663355], "type": "Point"}, "id": "vtqROiM_V6qW2MRYE8L78QBAbTg=", "properties": {"@spider": "usps_collection_boxes", "addr:city": "CLIFFORD", "addr:country": "US", "addr:full": "1748 STATE ROUTE 106", "addr:postcode": "18413", "addr:state": "PA", "amenity": "post_box", "brand": "United States Postal Service", "brand:wikidata": "Q668687", "collection_times": "Mo-Fr 16:30; Sa 12:00", "name": "USPS COLLECTION BOX - PO LOBBY", "note": "ON 12/24 AND 12/31, THIS BOX MAY BE COLLECTED AS EARLY AS 12 NOON.", "nsi_id": "unitedstatespostalservice-a77078", "operator": "United States Postal Service", "operator:short": "USPS", "operator:type": "public", "operator:wikidata": "Q668687", "ref": "1841300002"}, "type": "Feature"}
{"dataset_attributes": {"@spider": "usps_collection_boxes"}, "geometry": {"coordinates": [-75.60061653, 41.651256463], "type": "Point"}, "id": "-jHKYA1KQnDMCiZQ4ELGG7rAsbM=", "properties": {"@spider": "usps_collection_boxes", "addr:city": "CLIFFORD", "addr:country": "US", "addr:full": "1748 STATE ROUTE 106", "addr:postcode": "18413", "addr:state": "PA", "amenity": "post_box", "brand": "United States Postal Service", "brand:wikidata": "Q668687", "collection_times": "Mo-Fr 16:30; Sa 12:00", "name": "USPS COLLECTION BOX - PO LOBBY", "note": "ON 12/24 AND 12/31, THIS BOX MAY BE COLLECTED AS EARLY AS 12 NOON.", "nsi_id": "unitedstatespostalservice-a77078", "operator": "United States Postal Service", "operator:short": "USPS", "operator:type": "public", "operator:wikidata": "Q668687", "ref": "1841300004"}, "type": "Feature"}
{"dataset_attributes": {"@spider": "usps_collection_boxes"}, "geometry": {"coordinates": [-75.736219, 41.534594], "type": "Point"}, "id": "LcbwnEjjfrMyf9pwCausXEvDg-8=", "properties": {"@spider": "usps_collection_boxes", "addr:city": "DALTON", "addr:country": "US", "addr:full": "101 W MAIN ST", "addr:postcode": "18414", "addr:state": "PA", "amenity": "post_box", "brand": "United States Postal Service", "brand:wikidata": "Q668687", "collection_times": "Mo-Fr 17:00; Sa 12:00", "name": "USPS COLLECTION BOX - BLUE BOX", "note": "ON 12/24 AND 12/31, THIS BOX MAY BE COLLECTED AS EARLY AS 12 NOON.", "nsi_id": "unitedstatespostalservice-a77078", "operator": "United States Postal Service", "operator:short": "USPS", "operator:type": "public", "operator:wikidata": "Q668687", "ref": "1841400001"}, "type": "Feature"}
{"dataset_attributes": {"@spider": "usps_collection_boxes"}, "geometry": {"coordinates": [-75.736219, 41.534594], "type": "Point"}, "id": "Yo7chJjTihn03XITLPWrz78xrwE=", "properties": {"@spider": "usps_collection_boxes", "addr:city": "DALTON", "addr:country": "US", "addr:full": "101 W MAIN ST", "addr:postcode": "18414", "addr:state": "PA", "amenity": "post_box", "brand": "United States Postal Service", "brand:wikidata": "Q668687", "collection_times": "Mo-Fr 17:00; Sa 12:00", "name": "USPS COLLECTION BOX - PO LOBBY", "note": "ON 12/24 AND 12/31, THIS BOX MAY BE COLLECTED AS EARLY AS 12 NOON.", "nsi_id": "unitedstatespostalservice-a77078", "operator": "United States Postal Service", "operator:short": "USPS", "operator:type": "public", "operator:wikidata": "Q668687", "ref": "1841400003"}, "type": "Feature"}
{"dataset_attributes": {"@spider": "usps_collection_boxes"}, "geometry": {"coordinates": [-75.736315747, 41.534535029], "type": "Point"}, "id": "boxBi0o_wttU_EZe95nPNc8zsC8=", "properties": {"@spider": "usps_collection_boxes", "addr:city": "DALTON", "addr:country": "US", "addr:full": "101 W MAIN ST", "addr:postcode": "18414", "addr:state": "PA", "amenity": "post_box", "brand": "United States Postal Service", "brand:wikidata": "Q668687", "collection_times": "Mo-Fr 16:35; Sa 12:00", "name": "USPS COLLECTION BOX - PO LOBBY", "note": "ON 12/24 AND 12/31, THIS BOX MAY BE COLLECTED AS EARLY AS 12 NOON.", "nsi_id": "unitedstatespostalservice-a77078", "operator": "United States Postal Service", "operator:short": "USPS", "operator:type": "public", "operator:wikidata": "Q668687", "ref": "1841400005"}, "type": "Feature"}
{"dataset_attributes": {"@spider": "usps_collection_boxes"}, "geometry": {"coordinates": [-75.07853, 41.698687], "type": "Point"}, "id": "rSzmSKVGqlb65cDTe0fjPozZCIg=", "properties": {"@spider": "usps_collection_boxes", "addr:city": "DAMASCUS", "addr:country": "US", "addr:full": "1676 COCHECTON TPKE", "addr:postcode": "18415", "addr:state": "PA", "amenity": "post_box", "brand": "United States Postal Service", "brand:wikidata": "Q668687", "collection_times": "Mo-Fr 15:45; Sa 11:45", "name": "USPS COLLECTION BOX - BLUE BOX", "note": "ON 12/24 AND 12/31, THIS BOX MAY BE COLLECTED AS EARLY AS 12 NOON.", "nsi_id": "unitedstatespostalservice-a77078", "operator": "United States Postal Service", "operator:short": "USPS", "operator:type": "public", "operator:wikidata": "Q668687", "ref": "1841500001"}, "type": "Feature"}
{"dataset_attributes": {"@spider": "usps_collection_boxes"}, "geometry": {"coordinates": [-75.078493, 41.698735], "type": "Point"}, "id": "9RxD92ncbzrK8eeURYDxYH1bZ5U=", "properties": {"@spider": "usps_collection_boxes", "addr:city": "DAMASCUS", "addr:country": "US", "addr:full": "1676 COCHECTON TPKE", "addr:postcode": "18415", "addr:state": "PA", "amenity": "post_box", "brand": "United States Postal Service", "brand:wikidata": "Q668687", "collection_times": "Mo-Fr 16:00; Sa 12:00", "name": "USPS COLLECTION BOX - PO LOBBY", "note": "ON 12/24 AND 12/31, THIS BOX MAY BE COLLECTED AS EARLY AS 12 NOON.", "nsi_id": "unitedstatespostalservice-a77078", "operator": "United States Postal Service", "operator:short": "USPS", "operator:type": "public", "operator:wikidata": "Q668687", "ref": "1841500003"}, "type": "Feature"}
{"dataset_attributes": {"@spider": "usps_collection_boxes"}, "geometry": {"coordinates": [-75.079318192, 41.698325924], "type": "Point"}, "id": "l2_l1ykR4Z0vdWvEjMjqLpwC_JI=", "properties": {"@spider": "usps_collection_boxes", "addr:city": "DAMASCUS", "addr:country": "US", "addr:full": "1676 COCHECTON TPKE", "addr:postcode": "18415", "addr:state": "PA", "amenity": "post_box", "brand": "United States Postal Service", "brand:wikidata": "Q668687", "collection_times": "Mo-Fr 15:45; Sa 12:00", "name": "USPS COLLECTION BOX - PO LOBBY", "note": "ON 12/24 AND 12/31, THIS BOX MAY BE COLLECTED AS EARLY AS 12 NOON.", "nsi_id": "unitedstatespostalservice-a77078", "operator": "United States Postal Service", "operator:short": "USPS", "operator:type": "public", "operator:wikidata": "Q668687", "ref": "1841500005"}, "type": "Feature"}
{"dataset_attributes": {"@spider": "usps_collection_boxes"}, "geometry": {"coordinates": [-75.2277242, 41.855256], "type": "Point"}, "id": "78np590Q7fx064bfom6j1RJrw4I=", "properties": {"@spider": "usps_collection_boxes", "addr:city": "EQUINUNK", "addr:country": "US", "addr:full": "4338 HANCOCK HWY", "addr:postcode": "18417", "addr:state": "PA", "amenity": "post_box", "brand": "United States Postal Service", "brand:wikidata": "Q668687", "collection_times": "Mo-Fr 16:30; Sa 11:00", "name": "USPS COLLECTION BOX - BLUE BOX", "note": "ON 12/24 AND 12/31, THIS BOX MAY BE COLLECTED AS EARLY AS 12 NOON.", "nsi_id": "unitedstatespostalservice-a77078", "operator": "United States Postal Service", "operator:short": "USPS", "operator:type": "public", "operator:wikidata": "Q668687", "ref": "1841700001"}, "type": "Feature"}
{"dataset_attributes": {"@spider": "usps_collection_boxes"}, "geometry": {"coordinates": [-75.2277155, 41.855209], "type": "Point"}, "id": "f2vQbSJ0WJXs5YyjrUsFK5qM9Lk=", "properties": {"@spider": "usps_collection_boxes", "addr:city": "EQUINUNK", "addr:country": "US", "addr:full": "4338 HANCOCK HWY", "addr:postcode": "18417", "addr:state": "PA", "amenity": "post_box", "brand": "United States Postal Service", "brand:wikidata": "Q668687", "collection_times": "Mo-Fr 16:30; Sa 11:00", "name": "USPS COLLECTION BOX - PO LOBBY", "note": "ON 12/24 AND 12/31, THIS BOX MAY BE COLLECTED AS EARLY AS 12 NOON.", "nsi_id": "unitedstatespostalservice-a77078", "operator": "United States Postal Service", "operator:short": "USPS", "operator:type": "public", "operator:wikidata": "Q668687", "ref": "1841700002"}, "type": "Feature"}
{"dataset_attributes": {"@spider": "usps_collection_boxes"}, "geometry": {"coordinates": [-75.227860023, 41.85512321], "type": "Point"}, "id": "3C7CDfpCnNClEHLVG3pcPWpHiQM=", "properties": {"@spider": "usps_collection_boxes", "addr:city": "EQUINUNK", "addr:country": "US", "addr:full": "4338 HANCOCK HWY BLDG B", "addr:postcode": "18417", "addr:state": "PA", "amenity": "post_box", "brand": "United States Postal Service", "brand:wikidata": "Q668687", "collection_times": "Mo-Fr 16:30; Sa 11:00", "name": "USPS COLLECTION BOX - PO LOBBY", "note": "ON 12/24 AND 12/31, THIS BOX MAY BE COLLECTED AS EARLY AS 12 NOON.", "nsi_id": "unitedstatespostalservice-a77078", "operator": "United States Postal Service", "operator:short": "USPS", "operator:type": "public", "operator:wikidata": "Q668687", "ref": "1841700004"}, "type": "Feature"}
{"dataset_attributes": {"@spider": "usps_collection_boxes"}, "geometry": {"coordinates": [-75.782657, 41.564105], "type": "Point"}, "id": "FNxQOdrizcBXgTSDjaWoTk_7bBI=", "properties": {"@spider": "usps_collection_boxes", "addr:city": "FACTORYVILLE", "addr:country": "US", "addr:full": "102 COLLEGE AVE", "addr:postcode": "18419", "addr:state": "PA", "amenity": "post_box", "brand": "United States Postal Service", "brand:wikidata": "Q668687", "collection_times": "Mo-Fr 16:45; Sa 11:45", "name": "USPS COLLECTION BOX - BLUE BOX", "note": "ON 12/24 AND 12/31, THIS BOX MAY BE COLLECTED AS EARLY AS 12 NOON.", "nsi_id": "unitedstatespostalservice-a77078", "operator": "United States Postal Service", "operator:short": "USPS", "operator:type": "public", "operator:wikidata": "Q668687", "ref": "1841900001"}, "type": "Feature"}
{"dataset_attributes": {"@spider": "usps_collection_boxes"}, "geometry": {"coordinates": [-75.782688, 41.564092], "type": "Point"}, "id": "E3PXsGItUMOA0eQRiEapU3ewRtw=", "properties": {"@spider": "usps_collection_boxes", "addr:city": "FACTORYVILLE", "addr:country": "US", "addr:full": "102 COLLEGE AVE", "addr:postcode": "18419", "addr:state": "PA", "amenity": "post_box", "brand": "United States Postal Service", "brand:wikidata": "Q668687", "collection_times": "Mo-Fr 16:45; Sa 11:45", "name": "USPS COLLECTION BOX - PO LOBBY", "note": "ON 12/24 AND 12/31, THIS BOX MAY BE COLLECTED AS EARLY AS 12 NOON.", "nsi_id": "unitedstatespostalservice-a77078", "operator": "United States Postal Service", "operator:short": "USPS", "operator:type": "public", "operator:wikidata": "Q668687", "ref": "1841900003"}, "type": "Feature"}
{"dataset_attributes": {"@spider": "usps_collection_boxes"}, "geometry": {"coordinates": [-75.782617278, 41.56403225], "type": "Point"}, "id": "QTFEr69yV0vraxfnismkhHpIJ3Q=", "properties": {"@spider": "usps_collection_boxes", "addr:city": "FACTORYVILLE", "addr:country": "US", "addr:full": "102 COLLEGE AVE", "addr:postcode": "18419", "addr:state": "PA", "amenity": "post_box", "brand": "United States Postal Service", "brand:wikidata": "Q668687", "collection_times": "Mo-Fr 16:45; Sa 11:45", "name": "USPS COLLECTION BOX - PO LOBBY", "note": "ON 12/24 AND 12/31, THIS BOX MAY BE COLLECTED AS EARLY AS 12 NOON.", "nsi_id": "unitedstatespostalservice-a77078", "operator": "United States Postal Service", "operator:short": "USPS", "operator:type": "public", "operator:wikidata": "Q668687", "ref": "1841900005"}, "type": "Feature"}
{"dataset_attributes": {"@spider": "usps_collection_boxes"}, "geometry": {"coordinates": [-75.7149199688, 41.5993209655], "type": "Point"}, "id": "mgJc1SkAYy9L84Ff69lNseuwwxE=", "properties": {"@spider": "usps_collection_boxes", "addr:city": "FLEETVILLE", "addr:country": "US", "addr:full": "140 N ROUTE 407", "addr:postcode": "18420", "addr:state": "PA", "amenity": "post_box", "brand": "United States Postal Service", "brand:wikidata": "Q668687", "collection_times": "Mo-Fr 16:45; Sa 11:45", "name": "USPS COLLECTION BOX - PO LOBBY", "note": "ON 12/24 AND 12/31, THIS BOX MAY BE COLLECTED AS EARLY AS 12 NOON.", "nsi_id": "unitedstatespostalservice-a77078", "operator": "United States Postal Service", "operator:short": "USPS", "operator:type": "public", "operator:wikidata": "Q668687", "ref": "1842000002"}, "type": "Feature"}
{"dataset_attributes": {"@spider": "usps_collection_boxes"}, "geometry": {"coordinates": [-75.7410837, 41.6127866], "type": "Point"}, "id": "tVUc7KTY3CqIp4Mu5HuR-lUGZLE=", "properties": {"@spider": "usps_collection_boxes", "addr:city": "FLEETVILLE", "addr:country": "US", "addr:full": "16043 STATE ROUTE 407", "addr:postcode": "18420", "addr:state": "PA", "amenity": "post_box", "brand": "United States Postal Service", "brand:wikidata": "Q668687", "collection_times": "Mo-Fr 17:00; Sa 11:30", "name": "USPS COLLECTION BOX - PO LOBBY", "note": "ON 12/24 AND 12/31, THIS BOX MAY BE COLLECTED AS EARLY AS 12 NOON.", "nsi_id": "unitedstatespostalservice-a77078", "operator": "United States Postal Service", "operator:short": "USPS", "operator:type": "public", "operator:wikidata": "Q668687", "ref": "1842000004"}, "type": "Feature"}
{"dataset_attributes": {"@spider": "usps_collection_boxes"}, "geometry": {"coordinates": [-75.48205, 41.637168], "type": "Point"}, "id": "3OLoMO1IUBJ9hf05DafXOx_BihI=", "properties": {"@spider": "usps_collection_boxes", "addr:city": "FOREST CITY", "addr:country": "US", "addr:full": "334 MAIN ST", "addr:postcode": "18421", "addr:state": "PA", "amenity": "post_box", "brand": "United States Postal Service", "brand:wikidata": "Q668687", "collection_times": "Mo-Fr 16:15; Sa 12:00", "name": "USPS COLLECTION BOX - BLUE BOX", "note": "ON 12/24 AND 12/31, THIS BOX MAY BE COLLECTED AS EARLY AS 12 NOON.", "nsi_id": "unitedstatespostalservice-a77078", "operator": "United States Postal Service", "operator:short": "USPS", "operator:type": "public", "operator:wikidata": "Q668687", "ref": "1842100002"}, "type": "Feature"}
{"dataset_attributes": {"@spider": "usps_collection_boxes"}, "geometry": {"coordinates": [-75.48205, 41.637168], "type": "Point"}, "id": "sB3PoEhUpPLPgmi8F3U4eB5X0Fg=", "properties": {"@spider": "usps_collection_boxes", "addr:city": "FOREST CITY", "addr:country": "US", "addr:full": "334 MAIN ST", "addr:postcode": "18421", "addr:state": "PA", "amenity": "post_box", "brand": "United States Postal Service", "brand:wikidata": "Q668687", "collection_times": "Mo-Fr 16:15; Sa 12:00", "name": "USPS COLLECTION BOX - PO LOBBY", "note": "ON 12/24 AND 12/31, THIS BOX MAY BE COLLECTED AS EARLY AS 12 NOON.", "nsi_id": "unitedstatespostalservice-a77078", "operator": "United States Postal Service", "operator:short": "USPS", "operator:type": "public", "operator:wikidata": "Q668687", "ref": "1842100011"}, "type": "Feature"}
{"dataset_attributes": {"@spider": "usps_collection_boxes"}, "geometry": {"coordinates": [-75.482050664, 41.63716511], "type": "Point"}, "id": "_M4XrLLC85ISMTMuyrB6B5-J_-w=", "properties": {"@spider": "usps_collection_boxes", "addr:city": "FOREST CITY", "addr:country": "US", "addr:full": "334 MAIN ST OFC", "addr:postcode": "18421", "addr:state": "PA", "amenity": "post_box", "brand": "United States Postal Service", "brand:wikidata": "Q668687", "collection_times": "Mo-Fr 16:30; Sa 12:15", "name": "USPS COLLECTION BOX - PO LOBBY", "note": "ON 12/24 AND 12/31, THIS BOX MAY BE COLLECTED AS EARLY AS 12 NOON.", "nsi_id": "unitedstatespostalservice-a77078", "operator": "United States Postal Service", "operator:short": "USPS", "operator:type": "public", "operator:wikidata": "Q668687", "ref": "1842100015"}, "type": "Feature"}
{"dataset_attributes": {"@spider": "usps_collection_boxes"}, "geometry": {"coordinates": [-75.453559, 41.245346], "type": "Point"}, "id": "j0jGwpRU6T0a7KXZ6h51Jh_nC-A=", "properties": {"@spider": "usps_collection_boxes", "addr:city": "GOULDSBORO", "addr:country": "US", "addr:full": "546 MAIN ST", "addr:postcode": "18424", "addr:state": "PA", "amenity": "post_box", "brand": "United States Postal Service", "brand:wikidata": "Q668687", "collection_times": "Mo-Fr 16:45; Sa 12:00", "name": "USPS COLLECTION BOX - BLUE BOX", "note": "ON 12/24 AND 12/31, THIS BOX MAY BE COLLECTED AS EARLY AS 12 NOON.", "nsi_id": "unitedstatespostalservice-a77078", "operator": "United States Postal Service", "operator:short": "USPS", "operator:type": "public", "operator:wikidata": "Q668687", "ref": "1842400001"}, "type": "Feature"}
{"dataset_attributes": {"@spider": "usps_collection_boxes"}, "geometry": {"coordinates": [-75.453524, 41.245385], "type": "Point"}, "id": "05CxO3ACa2XVRBytY6wNhCNyMTA=", "properties": {"@spider": "usps_collection_boxes", "addr:city": "GOULDSBORO", "addr:country": "US", "addr:full": "546 MAIN ST", "addr:postcode": "18424", "addr:state": "PA", "amenity": "post_box", "brand": "United States Postal Service", "brand:wikidata": "Q668687", "collection_times": "Mo-Fr 16:45; Sa 12:00", "name": "USPS COLLECTION BOX - PO LOBBY", "note": "ON 12/24 AND 12/31, THIS BOX MAY BE COLLECTED AS EARLY AS 12 NOON.", "nsi_id": "unitedstatespostalservice-a77078", "operator": "United States Postal Service", "operator:short": "USPS", "operator:type": "public", "operator:wikidata": "Q668687", "ref": "1842400005"}, "type": "Feature"}
{"dataset_attributes": {"@spider": "usps_collection_boxes"}, "geometry": {"coordinates": [-75.453593041, 41.245326159], "type": "Point"}, "id": "1FZDKMA9UgaUAmoskdbUUgJ5yb4=", "properties": {"@spider": "usps_collection_boxes", "addr:city": "GOULDSBORO", "addr:country": "US", "addr:full": "546 MAIN ST", "addr:postcode": "18424", "addr:state": "PA", "amenity": "post_box", "brand": "United States Postal Service", "brand:wikidata": "Q668687", "collection_times": "Mo-Fr 17:00; Sa 12:15", "name": "USPS COLLECTION BOX - PO LOBBY", "note": "ON 12/24 AND 12/31, THIS BOX MAY BE COLLECTED AS EARLY AS 12 NOON.", "nsi_id": "unitedstatespostalservice-a77078", "operator": "United States Postal Service", "operator:short": "USPS", "operator:type": "public", "operator:wikidata": "Q668687", "ref": "1842400008"}, "type": "Feature"}
{"dataset_attributes": {"@spider": "usps_collection_boxes"}, "geometry": {"coordinates": [-74.995557, 41.422207], "type": "Point"}, "id": "7YF-AfneAc_V2DD3FpkrKSpVpow=", "properties": {"@spider": "usps_collection_boxes", "addr:city": "GREELEY", "addr:country": "US", "addr:full": "130 ROUTE 590", "addr:postcode": "18425", "addr:state": "PA", "amenity": "post_box", "brand": "United States Postal Service", "brand:wikidata": "Q668687", "collection_times": "Mo-Fr 16:00; Sa 11:00", "name": "USPS COLLECTION BOX - BLUE BOX", "note": "ON 12/24 AND 12/31, THIS BOX MAY BE COLLECTED AS EARLY AS 12 NOON.", "nsi_id": "unitedstatespostalservice-a77078", "operator": "United States Postal Service", "operator:short": "USPS", "operator:type": "public", "operator:wikidata": "Q668687", "ref": "1842500001"}, "type": "Feature"}
{"dataset_attributes": {"@spider": "usps_collection_boxes"}, "geometry": {"coordinates": [-74.99553, 41.422288], "type": "Point"}, "id": "45NgQSrIGpLLQha7KYwI8-z08_c=", "properties": {"@spider": "usps_collection_boxes", "addr:city": "GREELEY", "addr:country": "US", "addr:full": "130 ROUTE 590", "addr:postcode": "18425", "addr:state": "PA", "amenity": "post_box", "brand": "United States Postal Service", "brand:wikidata": "Q668687", "collection_times": "Mo-Fr 16:00; Sa 11:00", "name": "USPS COLLECTION BOX - PO LOBBY", "note": "ON 12/24 AND 12/31, THIS BOX MAY BE COLLECTED AS EARLY AS 12 NOON.", "nsi_id": "unitedstatespostalservice-a77078", "operator": "United States Postal Service", "operator:short": "USPS", "operator:type": "public", "operator:wikidata": "Q668687", "ref": "1842500003"}, "type": "Feature"}
{"dataset_attributes": {"@spider": "usps_collection_boxes"}, "geometry": {"coordinates": [-74.995584161, 41.422216508], "type": "Point"}, "id": "UvByxkEDmzT4UIPlgRiWsIWdZwk=", "properties": {"@spider": "usps_collection_boxes", "addr:city": "GREELEY", "addr:country": "US", "addr:full": "130 ROUTE 590", "addr:postcode": "18425", "addr:state": "PA", "amenity": "post_box", "brand": "United States Postal Service", "brand:wikidata": "Q668687", "collection_times": "Mo-Fr 16:00; Sa 11:00", "name": "USPS COLLECTION BOX - PO LOBBY", "note": "ON 12/24 AND 12/31, THIS BOX MAY BE COLLECTED AS EARLY AS 12 NOON.", "nsi_id": "unitedstatespostalservice-a77078", "operator": "United States Postal Service", "operator:short": "USPS", "operator:type": "public", "operator:wikidata": "Q668687", "ref": "1842500005"}, "type": "Feature"}
{"dataset_attributes": {"@spider": "usps_collection_boxes"}, "geometry": {"coordinates": [-75.305217, 41.350312], "type": "Point"}, "id": "biCaPZMdmJg5LTj_WrbHL4x_rjc=", "properties": {"@spider": "usps_collection_boxes", "addr:city": "GREENTOWN", "addr:country": "US", "addr:full": "1340 ROUTE 507", "addr:postcode": "18426", "addr:state": "PA", "amenity": "post_box", "brand": "United States Postal Service", "brand:wikidata": "Q668687", "collection_times": "Mo-Fr 16:45; Sa 11:45", "name": "USPS COLLECTION BOX - BLUE BOX", "note": "ON 12/24 AND 12/31, THIS BOX MAY BE COLLECTED AS EARLY AS 12 NOON.", "nsi_id": "unitedstatespostalservice-a77078", "operator": "United States Postal Service", "operator:short": "USPS", "operator:type": "public", "operator:wikidata": "Q668687", "ref": "1842600001"}, "type": "Feature"}
{"dataset_attributes": {"@spider": "usps_collection_boxes"}, "geometry": {"coordinates": [-75.2102144, 41.314768], "type": "Point"}, "id": "KKKmE3MVjL7Y6GtS_-6cqEY9uRI=", "properties": {"@spider": "usps_collection_boxes", "addr:city": "GREENTOWN", "addr:country": "US", "addr:full": "1019 ROUTE 390", "addr:postcode": "18426", "addr:state": "PA", "amenity": "post_box", "brand": "United States Postal Service", "brand:wikidata": "Q668687", "collection_times": "Mo-Sa 11:30", "name": "USPS COLLECTION BOX - BLUE BOX", "nsi_id": "unitedstatespostalservice-a77078", "operator": "United States Postal Service", "operator:short": "USPS", "operator:type": "public", "operator:wikidata": "Q668687", "ref": "1842600002"}, "type": "Feature"}
{"dataset_attributes": {"@spider": "usps_collection_boxes"}, "geometry": {"coordinates": [-75.305231, 41.350337], "type": "Point"}, "id": "7_IKvCt_QPfyYPuAvjC3EK7BOyA=", "properties": {"@spider": "usps_collection_boxes", "addr:city": "GREENTOWN", "addr:country": "US", "addr:full": "1340 ROUTE 507", "addr:postcode": "18426", "addr:state": "PA", "amenity": "post_box", "brand": "United States Postal Service", "brand:wikidata": "Q668687", "collection_times": "Mo-Fr 16:45; Sa 12:00", "name": "USPS COLLECTION BOX - PO LOBBY", "note": "ON 12/24 AND 12/31, THIS BOX MAY BE COLLECTED AS EARLY AS 12 NOON.", "nsi_id": "unitedstatespostalservice-a77078", "operator": "United States Postal Service", "operator:short": "USPS", "operator:type": "public", "operator:wikidata": "Q668687", "ref": "1842600006"}, "type": "Feature"}
{"dataset_attributes": {"@spider": "usps_collection_boxes"}, "geometry": {"coordinates": [-75.3056941, 41.325359], "type": "Point"}, "id": "05rzamG1t4k7DyBp7jpDd8ENbI0=", "properties": {"@spider": "usps_collection_boxes", "addr:city": "GREENTOWN", "addr:country": "US", "addr:full": "1564 ROUTE 507", "addr:postcode": "18426", "addr:state": "PA", "amenity": "post_box", "brand": "United States Postal Service", "brand:wikidata": "Q668687", "collection_times": "Mo-Sa 12:30", "name": "USPS COLLECTION BOX - BLUE BOX", "note": "ON 12/24 AND 12/31, THIS BOX MAY BE COLLECTED AS EARLY AS 12 NOON.", "nsi_id": "unitedstatespostalservice-a77078", "operator": "United States Postal Service", "operator:short": "USPS", "operator:type": "public", "operator:wikidata": "Q668687", "ref": "1842600007"}, "type": "Feature"}
{"dataset_attributes": {"@spider": "usps_collection_boxes"}, "geometry": {"coordinates": [-75.305212772, 41.350259295], "type": "Point"}, "id": "kVPy2p3xWszmQBH09Frw_SnRLLU=", "properties": {"@spider": "usps_collection_boxes", "addr:city": "GREENTOWN", "addr:country": "US", "addr:full": "1340 ROUTE 507", "addr:postcode": "18426", "addr:state": "PA", "amenity": "post_box", "brand": "United States Postal Service", "brand:wikidata": "Q668687", "collection_times": "Mo-Fr 17:15; Sa 12:05", "name": "USPS COLLECTION BOX - PO LOBBY", "note": "ON 12/24 AND 12/31, THIS BOX MAY BE COLLECTED AS EARLY AS 12 NOON.", "nsi_id": "unitedstatespostalservice-a77078", "operator": "United States Postal Service", "operator:short": "USPS", "operator:type": "public", "operator:wikidata": "Q668687", "ref": "1842600010"}, "type": "Feature"}
{"dataset_attributes": {"@spider": "usps_collection_boxes"}, "geometry": {"coordinates": [-75.412756, 41.404472], "type": "Point"}, "id": "GKi9kpMshWZCtQUr2SlXTu_UL0s=", "properties": {"@spider": "usps_collection_boxes", "addr:city": "HAMLIN", "addr:country": "US", "addr:full": "501 HAMLIN HWY", "addr:postcode": "18427", "addr:state": "PA", "amenity": "post_box", "brand": "United States Postal Service", "brand:wikidata": "Q668687", "collection_times": "Mo-Fr 16:45; Sa 11:45", "name": "USPS COLLECTION BOX - BLUE BOX", "note": "ON 12/24 AND 12/31, THIS BOX MAY BE COLLECTED AS EARLY AS 12 NOON.", "nsi_id": "unitedstatespostalservice-a77078", "operator": "United States Postal Service", "operator:short": "USPS", "operator:type": "public", "operator:wikidata": "Q668687", "ref": "1842700001"}, "type": "Feature"}
{"dataset_attributes": {"@spider": "usps_collection_boxes"}, "geometry": {"coordinates": [-75.41221, 41.404437], "type": "Point"}, "id": "WKziKb_cLfFoh0TiQvLUSDVjumY=", "properties": {"@spider": "usps_collection_boxes", "addr:city": "HAMLIN", "addr:country": "US", "addr:full": "501 HAMLIN HWY", "addr:postcode": "18427", "addr:state": "PA", "amenity": "post_box", "brand": "United States Postal Service", "brand:wikidata": "Q668687", "collection_times": "Mo-Fr 17:00; Sa 12:00", "name": "USPS COLLECTION BOX - PO LOBBY", "note": "ON 12/24 AND 12/31, THIS BOX MAY BE COLLECTED AS EARLY AS 12 NOON.", "nsi_id": "unitedstatespostalservice-a77078", "operator": "United States Postal Service", "operator:short": "USPS", "operator:type": "public", "operator:wikidata": "Q668687", "ref": "1842700005"}, "type": "Feature"}
{"dataset_attributes": {"@spider": "usps_collection_boxes"}, "geometry": {"coordinates": [-75.412211998, 41.404429486], "type": "Point"}, "id": "P41STFdKFGR0M8P4CFHUzWuIZGs=", "properties": {"@spider": "usps_collection_boxes", "addr:city": "HAMLIN", "addr:country": "US", "addr:full": "501 HAMLIN HWY STE A", "addr:postcode": "18427", "addr:state": "PA", "amenity": "post_box", "brand": "United States Postal Service", "brand:wikidata": "Q668687", "collection_times": "Mo-Fr 16:35; Sa 12:00", "name": "USPS COLLECTION BOX - PO LOBBY", "note": "ON 12/24 AND 12/31, THIS BOX MAY BE COLLECTED AS EARLY AS 12 NOON.", "nsi_id": "unitedstatespostalservice-a77078", "operator": "United States Postal Service", "operator:short": "USPS", "operator:type": "public", "operator:wikidata": "Q668687", "ref": "1842700007"}, "type": "Feature"}
{"dataset_attributes": {"@spider": "usps_collection_boxes"}, "geometry": {"coordinates": [-75.183429, 41.478302], "type": "Point"}, "id": "9y2Gs60w0lohT6xxo0xL7KJSnYA=", "properties": {"@spider": "usps_collection_boxes", "addr:city": "HAWLEY", "addr:country": "US", "addr:full": "100 MAIN AVE", "addr:postcode": "18428", "addr:state": "PA", "amenity": "post_box", "brand": "United States Postal Service", "brand:wikidata": "Q668687", "collection_times": "Mo-Fr 17:00; Sa 16:00", "name": "USPS COLLECTION BOX - BLUE BOX", "note": "ON 12/24 AND 12/31, THIS BOX MAY BE COLLECTED AS EARLY AS 12 NOON.", "nsi_id": "unitedstatespostalservice-a77078", "operator": "United States Postal Service", "operator:short": "USPS", "operator:type": "public", "operator:wikidata": "Q668687", "ref": "1842800001"}, "type": "Feature"}
{"dataset_attributes": {"@spider": "usps_collection_boxes"}, "geometry": {"coordinates": [-75.1833944, 41.476405], "type": "Point"}, "id": "qMeCvM0K4SdiPPdz3AOjRJeApzI=", "properties": {"@spider": "usps_collection_boxes", "addr:city": "HAWLEY", "addr:country": "US", "addr:full": "240 MAIN AVE", "addr:postcode": "18428", "addr:state": "PA", "amenity": "post_box", "brand": "United States Postal Service", "brand:wikidata": "Q668687", "collection_times": "Mo-Sa 09:30", "name": "USPS COLLECTION BOX - BLUE BOX", "nsi_id": "unitedstatespostalservice-a77078", "operator": "United States Postal Service", "operator:short": "USPS", "operator:type": "public", "operator:wikidata": "Q668687", "ref": "1842800002"}, "type": "Feature"}
{"dataset_attributes": {"@spider": "usps_collection_boxes"}, "geometry": {"coordinates": [-75.1825294, 41.475262], "type": "Point"}, "id": "zSEPHVACmv98OPcuCgrcEOhxsZs=", "properties": {"@spider": "usps_collection_boxes", "addr:city": "HAWLEY", "addr:country": "US", "addr:full": "405 MAIN AVE", "addr:postcode": "18428", "addr:state": "PA", "amenity": "post_box", "brand": "United States Postal Service", "brand:wikidata": "Q668687", "collection_times": "Mo-Sa 09:30", "name": "USPS COLLECTION BOX - BLUE BOX", "nsi_id": "unitedstatespostalservice-a77078", "operator": "United States Postal Service", "operator:short": "USPS", "operator:type": "public", "operator:wikidata": "Q668687", "ref": "1842800003"}, "type": "Feature"}
{"dataset_attributes": {"@spider": "usps_collection_boxes"}, "geometry": {"coordinates": [-75.1819686, 41.477408], "type": "Point"}, "id": "YqFpzxEARWcdlU3cPBCbbCNuP4I=", "properties": {"@spider": "usps_collection_boxes", "addr:city": "HAWLEY", "addr:country": "US", "addr:full": "615 BARKER ST", "addr:postcode": "18428", "addr:state": "PA", "amenity": "post_box", "brand": "United States Postal Service", "brand:wikidata": "Q668687", "collection_times": "Mo-Sa 09:00", "name": "USPS COLLECTION BOX - BLUE BOX", "nsi_id": "unitedstatespostalservice-a77078", "operator": "United States Postal Service", "operator:short": "USPS", "operator:type": "public", "operator:wikidata": "Q668687", "ref": "1842800005"}, "type": "Feature"}
{"dataset_attributes": {"@spider": "usps_collection_boxes"}, "geometry": {"coordinates": [-75.1803235, 41.463847], "type": "Point"}, "id": "vYbCzij_Q5th3Z5r4iV86Bfwpbo=", "properties": {"@spider": "usps_collection_boxes", "addr:city": "HAWLEY", "addr:country": "US", "addr:full": "HC 6 BOX 1", "addr:postcode": "18428", "addr:state": "PA", "amenity": "post_box", "brand": "United States Postal Service", "brand:wikidata": "Q668687", "collection_times": "Mo-Fr 11:45; Sa 11:15", "name": "USPS COLLECTION BOX - BLUE BOX", "nsi_id": "unitedstatespostalservice-a77078", "operator": "United States Postal Service", "operator:short": "USPS", "operator:type": "public", "operator:wikidata": "Q668687", "ref": "1842800008"}, "type": "Feature"}
{"dataset_attributes": {"@spider": "usps_collection_boxes"}, "geometry": {"coordinates": [-75.0427487, 41.347106], "type": "Point"}, "id": "8UO5F3f8K6Ibzedwh0cuCoptWKE=", "properties": {"@spider": "usps_collection_boxes", "addr:city": "HAWLEY", "addr:country": "US", "addr:full": "123 VILLAGE CENTER DR", "addr:postcode": "18428", "addr:state": "PA", "amenity": "post_box", "brand": "United States Postal Service", "brand:wikidata": "Q668687", "collection_times": "Mo-Fr 10:30; Sa 10:00", "name": "USPS COLLECTION BOX - BLUE BOX", "nsi_id": "unitedstatespostalservice-a77078", "operator": "United States Postal Service", "operator:short": "USPS", "operator:type": "public", "operator:wikidata": "Q668687", "ref": "1842800009"}, "type": "Feature"}
{"dataset_attributes": {"@spider": "usps_collection_boxes"}, "geometry": {"coordinates": [-75.1845477, 41.477998], "type": "Point"}, "id": "E_XN-SNOxtGnuBomIHDR-J2_C3I=", "properties": {"@spider": "usps_collection_boxes", "addr:city": "HAWLEY", "addr:country": "US", "addr:full": "100 MAIN AVE", "addr:postcode": "18428", "addr:state": "PA", "amenity": "post_box", "brand": "United States Postal Service", "brand:wikidata": "Q668687", "collection_times": "Mo-Fr 17:00; Sa 16:00", "name": "USPS COLLECTION BOX - PO LOBBY", "note": "ON 12/24 AND 12/31, THIS BOX MAY BE COLLECTED AS EARLY AS 12 NOON.", "nsi_id": "unitedstatespostalservice-a77078", "operator": "United States Postal Service", "operator:short": "USPS", "operator:type": "public", "operator:wikidata": "Q668687", "ref": "1842800012"}, "type": "Feature"}
{"dataset_attributes": {"@spider": "usps_collection_boxes"}, "geometry": {"coordinates": [-75.0999216, 41.500121], "type": "Point"}, "id": "lPSnYUswvZhTYQ2EAtI5erQxOzM=", "properties": {"@spider": "usps_collection_boxes", "addr:city": "HAWLEY", "addr:country": "US", "addr:full": "2 WOODLOCH SPGS", "addr:postcode": "18428", "addr:state": "PA", "amenity": "post_box", "brand": "United States Postal Service", "brand:wikidata": "Q668687", "collection_times": "Mo-Sa 09:30", "name": "USPS COLLECTION BOX - BLUE BOX", "nsi_id": "unitedstatespostalservice-a77078", "operator": "United States Postal Service", "operator:short": "USPS", "operator:type": "public", "operator:wikidata": "Q668687", "ref": "1842800015"}, "type": "Feature"}
{"dataset_attributes": {"@spider": "usps_collection_boxes"}, "geometry": {"coordinates": [-75.2881199, 41.453531], "type": "Point"}, "id": "vzA0f5vbHb15ZBYbzY6-0GHc-Cc=", "properties": {"@spider": "usps_collection_boxes", "addr:city": "HAWLEY", "addr:country": "US", "addr:full": "HC 1 BOX 1", "addr:postcode": "18428", "addr:state": "PA", "amenity": "post_box", "brand": "United States Postal Service", "brand:wikidata": "Q668687", "collection_times": "Mo-Sa 13:00", "name": "USPS COLLECTION BOX - BLUE BOX", "note": "ON 12/24 AND 12/31, THIS BOX MAY BE COLLECTED AS EARLY AS 12 NOON.", "nsi_id": "unitedstatespostalservice-a77078", "operator": "United States Postal Service", "operator:short": "USPS", "operator:type": "public", "operator:wikidata": "Q668687", "ref": "1842800017"}, "type": "Feature"}
{"dataset_attributes": {"@spider": "usps_collection_boxes"}, "geometry": {"coordinates": [-75.183848847, 41.47917254], "type": "Point"}, "id": "RaUcOfAi1zLWaGNJ_3AcPadqN-8=", "properties": {"@spider": "usps_collection_boxes", "addr:city": "HAWLEY", "addr:country": "US", "addr:full": "100 MAIN AVE", "addr:postcode": "18428", "addr:state": "PA", "amenity": "post_box", "brand": "United States Postal Service", "brand:wikidata": "Q668687", "collection_times": "Mo-Fr 17:15; Sa 13:15", "name": "USPS COLLECTION BOX - PO LOBBY", "note": "ON 12/24 AND 12/31, THIS BOX MAY BE COLLECTED AS EARLY AS 12 NOON.", "nsi_id": "unitedstatespostalservice-a77078", "operator": "United States Postal Service", "operator:short": "USPS", "operator:type": "public", "operator:wikidata": "Q668687", "ref": "1842800020"}, "type": "Feature"}
{"dataset_attributes": {"@spider": "usps_collection_boxes"}, "geometry": {"coordinates": [-75.255927, 41.572736], "type": "Point"}, "id": "rVOzJ2NhhzYspkUY1xADegXRQEc=", "properties": {"@spider": "usps_collection_boxes", "addr:city": "HONESDALE", "addr:country": "US", "addr:full": "830 MAIN ST", "addr:postcode": "18431", "addr:state": "PA", "amenity": "post_box", "brand": "United States Postal Service", "brand:wikidata": "Q668687", "collection_times": "Mo-Fr 17:00; Sa 16:00", "name": "USPS COLLECTION BOX - BLUE BOX", "note": "ON 12/24 AND 12/31, THIS BOX MAY BE COLLECTED AS EARLY AS 12 NOON.", "nsi_id": "unitedstatespostalservice-a77078", "operator": "United States Postal Service", "operator:short": "USPS", "operator:type": "public", "operator:wikidata": "Q668687", "ref": "1843100001"}, "type": "Feature"}
{"dataset_attributes": {"@spider": "usps_collection_boxes"}, "geometry": {"coordinates": [-75.2539771, 41.569338], "type": "Point"}, "id": "SWCeksGBBTZHt-J3O8b5YTrxhHg=", "properties": {"@spider": "usps_collection_boxes", "addr:city": "HONESDALE", "addr:country": "US", "addr:full": "419 MAIN ST", "addr:postcode": "18431", "addr:state": "PA", "amenity": "post_box", "brand": "United States Postal Service", "brand:wikidata": "Q668687", "collection_times": "Mo-Sa 10:00", "name": "USPS COLLECTION BOX - BLUE BOX", "nsi_id": "unitedstatespostalservice-a77078", "operator": "United States Postal Service", "operator:short": "USPS", "operator:type": "public", "operator:wikidata": "Q668687", "ref": "1843100013"}, "type": "Feature"}
{"dataset_attributes": {"@spider": "usps_collection_boxes"}, "geometry": {"coordinates": [-75.2535895, 41.57071], "type": "Point"}, "id": "B2nUbq3iTXu8uWPMGgN2ZRR0qis=", "properties": {"@spider": "usps_collection_boxes", "addr:city": "HONESDALE", "addr:country": "US", "addr:full": "110 6TH ST", "addr:postcode": "18431", "addr:state": "PA", "amenity": "post_box", "brand": "United States Postal Service", "brand:wikidata": "Q668687", "collection_times": "Mo-Sa 09:00", "name": "USPS COLLECTION BOX - BLUE BOX", "nsi_id": "unitedstatespostalservice-a77078", "operator": "United States Postal Service", "operator:short": "USPS", "operator:type": "public", "operator:wikidata": "Q668687", "ref": "1843100014"}, "type": "Feature"}
{"dataset_attributes": {"@spider": "usps_collection_boxes"}, "geometry": {"coordinates": [-75.2594119, 41.57963], "type": "Point"}, "id": "ltITap1vOznK-4nkTaJUz5hHVD8=", "properties": {"@spider": "usps_collection_boxes", "addr:city": "HONESDALE", "addr:country": "US", "addr:full": "1406 N MAIN ST", "addr:postcode": "18431", "addr:state": "PA", "amenity": "post_box", "brand": "United States Postal Service", "brand:wikidata": "Q668687", "collection_times": "Mo-Sa 09:00", "name": "USPS COLLECTION BOX - BLUE BOX", "nsi_id": "unitedstatespostalservice-a77078", "operator": "United States Postal Service", "operator:short": "USPS", "operator:type": "public", "operator:wikidata": "Q668687", "ref": "1843100019"}, "type": "Feature"}
{"dataset_attributes": {"@spider": "usps_collection_boxes"}, "geometry": {"coordinates": [-75.256223, 41.572739], "type": "Point"}, "id": "5LjwvnZ1UjONrAcaGTnZZ2GdhjU=", "properties": {"@spider": "usps_collection_boxes", "addr:city": "HONESDALE", "addr:country": "US", "addr:full": "830 MAIN ST", "addr:postcode": "18431", "addr:state": "PA", "amenity": "post_box", "brand": "United States Postal Service", "brand:wikidata": "Q668687", "collection_times": "Mo-Fr 17:00; Sa 16:00", "name": "USPS COLLECTION BOX - BLUE BOX", "note": "ON 12/24 AND 12/31, THIS BOX MAY BE COLLECTED AS EARLY AS 12 NOON.", "nsi_id": "unitedstatespostalservice-a77078", "operator": "United States Postal Service", "operator:short": "USPS", "operator:type": "public", "operator:wikidata": "Q668687", "ref": "1843100020"}, "type": "Feature"}
{"dataset_attributes": {"@spider": "usps_collection_boxes"}, "geometry": {"coordinates": [-75.2543963, 41.574694], "type": "Point"}, "id": "akX-2OTqgZJN6j9I6vOjPBU6eXk=", "properties": {"@spider": "usps_collection_boxes", "addr:city": "HONESDALE", "addr:country": "US", "addr:full": "925 COURT ST", "addr:postcode": "18431", "addr:state": "PA", "amenity": "post_box", "brand": "United States Postal Service", "brand:wikidata": "Q668687", "collection_times": "Mo-Fr 15:00; Sa 10:00", "name": "USPS COLLECTION BOX - BLUE BOX", "note": "ON 12/24 AND 12/31, THIS BOX MAY BE COLLECTED AS EARLY AS 12 NOON.", "nsi_id": "unitedstatespostalservice-a77078", "operator": "United States Postal Service", "operator:short": "USPS", "operator:type": "public", "operator:wikidata": "Q668687", "ref": "1843100021"}, "type": "Feature"}
{"dataset_attributes": {"@spider": "usps_collection_boxes"}, "geometry": {"coordinates": [-75.2572026, 41.575641], "type": "Point"}, "id": "HPiqqyxO7BPvv9_co6PhLajD2KM=", "properties": {"@spider": "usps_collection_boxes", "addr:city": "HONESDALE", "addr:country": "US", "addr:full": "1101 MAIN ST", "addr:postcode": "18431", "addr:state": "PA", "amenity": "post_box", "brand": "United States Postal Service", "brand:wikidata": "Q668687", "collection_times": "Mo-Sa 10:00", "name": "USPS COLLECTION BOX - BLUE BOX", "nsi_id": "unitedstatespostalservice-a77078", "operator": "United States Postal Service", "operator:short": "USPS", "operator:type": "public", "operator:wikidata": "Q668687", "ref": "1843100023"}, "type": "Feature"}
{"dataset_attributes": {"@spider": "usps_collection_boxes"}, "geometry": {"coordinates": [-75.2284627, 41.551572], "type": "Point"}, "id": "kmZpiXIxei4E5_UBAWNlmhoLWlU=", "properties": {"@spider": "usps_collection_boxes", "addr:city": "HONESDALE", "addr:country": "US", "addr:full": "1199 TEXAS PALMYRA HWY", "addr:postcode": "18431", "addr:state": "PA", "amenity": "post_box", "brand": "United States Postal Service", "brand:wikidata": "Q668687", "collection_times": "Mo-Sa 10:00", "name": "USPS COLLECTION BOX - BLUE BOX", "nsi_id": "unitedstatespostalservice-a77078", "operator": "United States Postal Service", "operator:short": "USPS", "operator:type": "public", "operator:wikidata": "Q668687", "ref": "1843100028"}, "type": "Feature"}
{"dataset_attributes": {"@spider": "usps_collection_boxes"}, "geometry": {"coordinates": [-75.2491122, 41.565159], "type": "Point"}, "id": "QQC3Vcmpzhhpf1-KUcTIg8YLtOE=", "properties": {"@spider": "usps_collection_boxes", "addr:city": "HONESDALE", "addr:country": "US", "addr:full": "225 WILLOW AVE", "addr:postcode": "18431", "addr:state": "PA", "amenity": "post_box", "brand": "United States Postal Service", "brand:wikidata": "Q668687", "collection_times": "Mo-Sa 10:00", "name": "USPS COLLECTION BOX - BLUE BOX", "nsi_id": "unitedstatespostalservice-a77078", "operator": "United States Postal Service", "operator:short": "USPS", "operator:type": "public", "operator:wikidata": "Q668687", "ref": "1843100029"}, "type": "Feature"}
{"dataset_attributes": {"@spider": "usps_collection_boxes"}, "geometry": {"coordinates": [-75.2684059, 41.574912], "type": "Point"}, "id": "Ug32BNnrS2uLxUm78lNvw1Nj4x8=", "properties": {"@spider": "usps_collection_boxes", "addr:city": "HONESDALE", "addr:country": "US", "addr:full": "610 MAPLE AVE", "addr:postcode": "18431", "addr:state": "PA", "amenity": "post_box", "brand": "United States Postal Service", "brand:wikidata": "Q668687", "collection_times": "Mo-Sa 09:00", "name": "USPS COLLECTION BOX - BLUE BOX", "nsi_id": "unitedstatespostalservice-a77078", "operator": "United States Postal Service", "operator:short": "USPS", "operator:type": "public", "operator:wikidata": "Q668687", "ref": "1843100031"}, "type": "Feature"}
{"dataset_attributes": {"@spider": "usps_collection_boxes"}, "geometry": {"coordinates": [-75.2601316, 41.576314], "type": "Point"}, "id": "tU45TTFL_d0KplEbkYFi06r50Xg=", "properties": {"@spider": "usps_collection_boxes", "addr:city": "HONESDALE", "addr:country": "US", "addr:full": "601 PARK ST", "addr:postcode": "18431", "addr:state": "PA", "amenity": "post_box", "brand": "United States Postal Service", "brand:wikidata": "Q668687", "collection_times": "Mo-Sa 09:00", "name": "USPS COLLECTION BOX - BLUE BOX", "nsi_id": "unitedstatespostalservice-a77078", "operator": "United States Postal Service", "operator:short": "USPS", "operator:type": "public", "operator:wikidata": "Q668687", "ref": "1843100032"}, "type": "Feature"}
{"dataset_attributes": {"@spider": "usps_collection_boxes"}, "geometry": {"coordinates": [-75.2550559, 41.571374], "type": "Point"}, "id": "QH_BI8GjEolEsKppXsbEn0ZUcUA=", "properties": {"@spider": "usps_collection_boxes", "addr:city": "HONESDALE", "addr:country": "US", "addr:full": "645 MAIN ST", "addr:postcode": "18431", "addr:state": "PA", "amenity": "post_box", "brand": "United States Postal Service", "brand:wikidata": "Q668687", "collection_times": "Mo-Sa 09:00", "name": "USPS COLLECTION BOX - BLUE BOX", "nsi_id": "unitedstatespostalservice-a77078", "operator": "United States Postal Service", "operator:short": "USPS", "operator:type": "public", "operator:wikidata": "Q668687", "ref": "1843100034"}, "type": "Feature"}
{"dataset_attributes": {"@spider": "usps_collection_boxes"}, "geometry": {"coordinates": [-75.258713526, 41.578522339], "type": "Point"}, "id": "ZQqOX_HDcT2MhAs4m_0VBvM-A2Y=", "properties": {"@spider": "usps_collection_boxes", "addr:city": "HONESDALE", "addr:country": "US", "addr:full": "1301 N MAIN ST", "addr:postcode": "18431", "addr:state": "PA", "amenity": "post_box", "brand": "United States Postal Service", "brand:wikidata": "Q668687", "collection_times": "Mo-Sa 10:00", "name": "USPS COLLECTION BOX - BLUE BOX", "nsi_id": "unitedstatespostalservice-a77078", "operator": "United States Postal Service", "operator:short": "USPS", "operator:type": "public", "operator:wikidata": "Q668687", "ref": "1843100035"}, "type": "Feature"}
{"dataset_attributes": {"@spider": "usps_collection_boxes"}, "geometry": {"coordinates": [-75.226096, 41.552307], "type": "Point"}, "id": "S2Uwlzxx-440SyrnhyxTSG7ctc0=", "properties": {"@spider": "usps_collection_boxes", "addr:city": "HONESDALE", "addr:country": "US", "addr:full": "1199 TEXAS PALMYRA HWY", "addr:postcode": "18431", "addr:state": "PA", "amenity": "post_box", "brand": "United States Postal Service", "brand:wikidata": "Q668687", "collection_times": "Mo-Sa 10:00", "name": "USPS COLLECTION BOX - BLUE BOX", "nsi_id": "unitedstatespostalservice-a77078", "operator": "United States Postal Service", "operator:short": "USPS", "operator:type": "public", "operator:wikidata": "Q668687", "ref": "1843100041"}, "type": "Feature"}
{"dataset_attributes": {"@spider": "usps_collection_boxes"}, "geometry": {"coordinates": [-75.2552099, 41.576222], "type": "Point"}, "id": "p8Jd-Uc3jtVH7DSnksN857Vd0Vs=", "properties": {"@spider": "usps_collection_boxes", "addr:city": "HONESDALE", "addr:country": "US", "addr:full": "307 11TH ST", "addr:postcode": "18431", "addr:state": "PA", "amenity": "post_box", "brand": "United States Postal Service", "brand:wikidata": "Q668687", "collection_times": "Mo-Sa 09:00", "name": "USPS COLLECTION BOX - BLUE BOX", "nsi_id": "unitedstatespostalservice-a77078", "operator": "United States Postal Service", "operator:short": "USPS", "operator:type": "public", "operator:wikidata": "Q668687", "ref": "1843100042"}, "type": "Feature"}
{"dataset_attributes": {"@spider": "usps_collection_boxes"}, "geometry": {"coordinates": [-75.2268058, 41.556654], "type": "Point"}, "id": "emtpdkcRFPp1FfM8EzEWYPRPoSQ=", "properties": {"@spider": "usps_collection_boxes", "addr:city": "HONESDALE", "addr:country": "US", "addr:full": "777 OLD WILLOW AVE", "addr:postcode": "18431", "addr:state": "PA", "amenity": "post_box", "brand": "United States Postal Service", "brand:wikidata": "Q668687", "collection_times": "Mo-Sa 09:00", "name": "USPS COLLECTION BOX - BLUE BOX", "nsi_id": "unitedstatespostalservice-a77078", "operator": "United States Postal Service", "operator:short": "USPS", "operator:type": "public", "operator:wikidata": "Q668687", "ref": "1843100044"}, "type": "Feature"}
{"dataset_attributes": {"@spider": "usps_collection_boxes"}, "geometry": {"coordinates": [-75.2512349, 41.566503], "type": "Point"}, "id": "p6jIlooL3GKkkD-sO1cEK1KrahY=", "properties": {"@spider": "usps_collection_boxes", "addr:city": "HONESDALE", "addr:country": "US", "addr:full": "200 WILLOW AVE", "addr:postcode": "18431", "addr:state": "PA", "amenity": "post_box", "brand": "United States Postal Service", "brand:wikidata": "Q668687", "collection_times": "Mo-Sa 10:00", "name": "USPS COLLECTION BOX - BLUE BOX", "nsi_id": "unitedstatespostalservice-a77078", "operator": "United States Postal Service", "operator:short": "USPS", "operator:type": "public", "operator:wikidata": "Q668687", "ref": "1843100045"}, "type": "Feature"}
{"dataset_attributes": {"@spider": "usps_collection_boxes"}, "geometry": {"coordinates": [-75.25586, 41.572689], "type": "Point"}, "id": "z5ulfcE9DRNN2UO8CqjQa4I__ss=", "properties": {"@spider": "usps_collection_boxes", "addr:city": "HONESDALE", "addr:country": "US", "addr:full": "830 MAIN ST", "addr:postcode": "18431", "addr:state": "PA", "amenity": "post_box", "brand": "United States Postal Service", "brand:wikidata": "Q668687", "collection_times": "Mo-Fr 17:00; Sa 16:00", "name": "USPS COLLECTION BOX - PO LOBBY", "note": "ON 12/24 AND 12/31, THIS BOX MAY BE COLLECTED AS EARLY AS 12 NOON.", "nsi_id": "unitedstatespostalservice-a77078", "operator": "United States Postal Service", "operator:short": "USPS", "operator:type": "public", "operator:wikidata": "Q668687", "ref": "1843100046"}, "type": "Feature"}
{"dataset_attributes": {"@spider": "usps_collection_boxes"}, "geometry": {"coordinates": [-75.2556717, 41.574907], "type": "Point"}, "id": "9IyFry5VVQD_97323cATQO2tNxY=", "properties": {"@spider": "usps_collection_boxes", "addr:city": "HONESDALE", "addr:country": "US", "addr:full": "928 CHURCH ST", "addr:postcode": "18431", "addr:state": "PA", "amenity": "post_box", "brand": "United States Postal Service", "brand:wikidata": "Q668687", "collection_times": "Mo-Sa 09:00", "name": "USPS COLLECTION BOX - BLUE BOX", "nsi_id": "unitedstatespostalservice-a77078", "operator": "United States Postal Service", "operator:short": "USPS", "operator:type": "public", "operator:wikidata": "Q668687", "ref": "1843100048"}, "type": "Feature"}
{"dataset_attributes": {"@spider": "usps_collection_boxes"}, "geometry": {"coordinates": [-75.2513159, 41.561667], "type": "Point"}, "id": "J23sNnt4fHc-Jzeo03FnxJ7s6Zo=", "properties": {"@spider": "usps_collection_boxes", "addr:city": "HONESDALE", "addr:country": "US", "addr:full": "133 SUNRISE AVE", "addr:postcode": "18431", "addr:state": "PA", "amenity": "post_box", "brand": "United States Postal Service", "brand:wikidata": "Q668687", "collection_times": "Mo-Sa 09:00", "name": "USPS COLLECTION BOX - BLUE BOX", "nsi_id": "unitedstatespostalservice-a77078", "operator": "United States Postal Service", "operator:short": "USPS", "operator:type": "public", "operator:wikidata": "Q668687", "ref": "1843100049"}, "type": "Feature"}
{"dataset_attributes": {"@spider": "usps_collection_boxes"}, "geometry": {"coordinates": [-75.25586, 41.572689], "type": "Point"}, "id": "WHGbITsHh_JOdxv1BedI_SzK11o=", "properties": {"@spider": "usps_collection_boxes", "addr:city": "HONESDALE", "addr:country": "US", "addr:full": "830 MAIN ST", "addr:postcode": "18431", "addr:state": "PA", "amenity": "post_box", "brand": "United States Postal Service", "brand:wikidata": "Q668687", "collection_times": "Mo-Fr 17:00; Sa 16:00", "name": "USPS COLLECTION BOX - BLUE BOX", "note": "ON 12/24 AND 12/31, THIS BOX MAY BE COLLECTED AS EARLY AS 12 NOON.", "nsi_id": "unitedstatespostalservice-a77078", "operator": "United States Postal Service", "operator:short": "USPS", "operator:type": "public", "operator:wikidata": "Q668687", "ref": "1843100050"}, "type": "Feature"}
{"dataset_attributes": {"@spider": "usps_collection_boxes"}, "geometry": {"coordinates": [-75.255981688, 41.572810258], "type": "Point"}, "id": "Gb4fzNEvXFiYevH-Z1EobWlox6k=", "properties": {"@spider": "usps_collection_boxes", "addr:city": "HONESDALE", "addr:country": "US", "addr:full": "830 MAIN ST", "addr:postcode": "18431", "addr:state": "PA", "amenity": "post_box", "brand": "United States Postal Service", "brand:wikidata": "Q668687", "collection_times": "Mo-Fr 17:15; Sa 13:15", "name": "USPS COLLECTION BOX - PO LOBBY", "note": "ON 12/24 AND 12/31, THIS BOX MAY BE COLLECTED AS EARLY AS 12 NOON.", "nsi_id": "unitedstatespostalservice-a77078", "operator": "United States Postal Service", "operator:short": "USPS", "operator:type": "public", "operator:wikidata": "Q668687", "ref": "1843100054"}, "type": "Feature"}
{"dataset_attributes": {"@spider": "usps_collection_boxes"}, "geometry": {"coordinates": [-75.5393631, 41.536604], "type": "Point"}, "id": "UsSVlmcOUSJdk8zTC1vIhoWrsxg=", "properties": {"@spider": "usps_collection_boxes", "addr:city": "JERMYN", "addr:country": "US", "addr:full": "700 POPLAR ST", "addr:postcode": "18433", "addr:state": "PA", "amenity": "post_box", "brand": "United States Postal Service", "brand:wikidata": "Q668687", "collection_times": "Mo-Fr 13:00; Sa 12:30", "name": "USPS COLLECTION BOX - BLUE BOX", "note": "ON 12/24 AND 12/31, THIS BOX MAY BE COLLECTED AS EARLY AS 12 NOON.", "nsi_id": "unitedstatespostalservice-a77078", "operator": "United States Postal Service", "operator:short": "USPS", "operator:type": "public", "operator:wikidata": "Q668687", "ref": "1843300001"}, "type": "Feature"}
{"dataset_attributes": {"@spider": "usps_collection_boxes"}, "geometry": {"coordinates": [-75.545750405, 41.530076504], "type": "Point"}, "id": "lfNfbZcxlLgSOttFZrlBG9UsE3s=", "properties": {"@spider": "usps_collection_boxes", "addr:city": "JERMYN", "addr:country": "US", "addr:full": "551 WASHINGTON AVE", "addr:postcode": "18433", "addr:state": "PA", "amenity": "post_box", "brand": "United States Postal Service", "brand:wikidata": "Q668687", "collection_times": "Mo-Fr 16:30; Sa 11:30", "name": "USPS COLLECTION BOX - BLUE BOX", "note": "ON 12/24 AND 12/31, THIS BOX MAY BE COLLECTED AS EARLY AS 12 NOON.", "nsi_id": "unitedstatespostalservice-a77078", "operator": "United States Postal Service", "operator:short": "USPS", "operator:type": "public", "operator:wikidata": "Q668687", "ref": "1843300006"}, "type": "Feature"}
{"dataset_attributes": {"@spider": "usps_collection_boxes"}, "geometry": {"coordinates": [-75.545899, 41.529635], "type": "Point"}, "id": "_H4BiR8OzniOcLvaaP7gNaTQU4E=", "properties": {"@spider": "usps_collection_boxes", "addr:city": "JERMYN", "addr:country": "US", "addr:full": "551 WASHINGTON AVE", "addr:postcode": "18433", "addr:state": "PA", "amenity": "post_box", "brand": "United States Postal Service", "brand:wikidata": "Q668687", "collection_times": "Mo-Fr 16:30; Sa 11:30", "name": "USPS COLLECTION BOX - BLUE BOX", "note": "ON 12/24 AND 12/31, THIS BOX MAY BE COLLECTED AS EARLY AS 12 NOON.", "nsi_id": "unitedstatespostalservice-a77078", "operator": "United States Postal Service", "operator:short": "USPS", "operator:type": "public", "operator:wikidata": "Q668687", "ref": "1843300010"}, "type": "Feature"}
{"dataset_attributes": {"@spider": "usps_collection_boxes"}, "geometry": {"coordinates": [-75.545899, 41.529635], "type": "Point"}, "id": "-bPZLANgcqktZTphfBQ2Qk47UU8=", "properties": {"@spider": "usps_collection_boxes", "addr:city": "JERMYN", "addr:country": "US", "addr:full": "551 WASHINGTON AVE", "addr:postcode": "18433", "addr:state": "PA", "amenity": "post_box", "brand": "United States Postal Service", "brand:wikidata": "Q668687", "collection_times": "Mo-Fr 16:30; Sa 11:30", "name": "USPS COLLECTION BOX - PO LOBBY", "note": "ON 12/24 AND 12/31, THIS BOX MAY BE COLLECTED AS EARLY AS 12 NOON.", "nsi_id": "unitedstatespostalservice-a77078", "operator": "United States Postal Service", "operator:short": "USPS", "operator:type": "public", "operator:wikidata": "Q668687", "ref": "1843300014"}, "type": "Feature"}
{"dataset_attributes": {"@spider": "usps_collection_boxes"}, "geometry": {"coordinates": [-75.545960396, 41.529650979], "type": "Point"}, "id": "s277hl2lXv9AzGtkCO5-yTIrsbU=", "properties": {"@spider": "usps_collection_boxes", "addr:city": "JERMYN", "addr:country": "US", "addr:full": "551 WASHINGTON AVE", "addr:postcode": "18433", "addr:state": "PA", "amenity": "post_box", "brand": "United States Postal Service", "brand:wikidata": "Q668687", "collection_times": "Mo-Fr 17:00; Sa 11:45", "name": "USPS COLLECTION BOX - PO LOBBY", "note": "ON 12/24 AND 12/31, THIS BOX MAY BE COLLECTED AS EARLY AS 12 NOON.", "nsi_id": "unitedstatespostalservice-a77078", "operator": "United States Postal Service", "operator:short": "USPS", "operator:type": "public", "operator:wikidata": "Q668687", "ref": "1843300016"}, "type": "Feature"}
{"dataset_attributes": {"@spider": "usps_collection_boxes"}, "geometry": {"coordinates": [-75.5729899, 41.476212], "type": "Point"}, "id": "VmUn0xwnzotQgDF46vDffRaKypU=", "properties": {"@spider": "usps_collection_boxes", "addr:city": "JESSUP", "addr:country": "US", "addr:full": "95 CHURCH ST", "addr:postcode": "18434", "addr:state": "PA", "amenity": "post_box", "brand": "United States Postal Service", "brand:wikidata": "Q668687", "collection_times": "Mo-Fr 16:30; Sa 14:00", "name": "USPS COLLECTION BOX - BLUE BOX", "note": "ON 12/24 AND 12/31, THIS BOX MAY BE COLLECTED AS EARLY AS 12 NOON.", "nsi_id": "unitedstatespostalservice-a77078", "operator": "United States Postal Service", "operator:short": "USPS", "operator:type": "public", "operator:wikidata": "Q668687", "ref": "1843400001"}, "type": "Feature"}
{"dataset_attributes": {"@spider": "usps_collection_boxes"}, "geometry": {"coordinates": [-75.5691544, 41.480993], "type": "Point"}, "id": "TwE6oS87kEj1yQW9OjmyNXjTwT4=", "properties": {"@spider": "usps_collection_boxes", "addr:city": "JESSUP", "addr:country": "US", "addr:full": "10 HILL ST", "addr:postcode": "18434", "addr:state": "PA", "amenity": "post_box", "brand": "United States Postal Service", "brand:wikidata": "Q668687", "collection_times": "Mo-Sa 13:00", "name": "USPS COLLECTION BOX - BLUE BOX", "note": "ON 12/24 AND 12/31, THIS BOX MAY BE COLLECTED AS EARLY AS 12 NOON.", "nsi_id": "unitedstatespostalservice-a77078", "operator": "United States Postal Service", "operator:short": "USPS", "operator:type": "public", "operator:wikidata": "Q668687", "ref": "1843400003"}, "type": "Feature"}
{"dataset_attributes": {"@spider": "usps_collection_boxes"}, "geometry": {"coordinates": [-75.5713768, 41.47507], "type": "Point"}, "id": "SCF9UsmjYg3ifl0CDbk8aNtvhi8=", "properties": {"@spider": "usps_collection_boxes", "addr:city": "JESSUP", "addr:country": "US", "addr:full": "305 CHURCH ST", "addr:postcode": "18434", "addr:state": "PA", "amenity": "post_box", "brand": "United States Postal Service", "brand:wikidata": "Q668687", "collection_times": "Mo-Sa 12:00", "name": "USPS COLLECTION BOX - BLUE BOX", "nsi_id": "unitedstatespostalservice-a77078", "operator": "United States Postal Service", "operator:short": "USPS", "operator:type": "public", "operator:wikidata": "Q668687", "ref": "1843400011"}, "type": "Feature"}
{"dataset_attributes": {"@spider": "usps_collection_boxes"}, "geometry": {"coordinates": [-75.572932, 41.476143], "type": "Point"}, "id": "W1TppfSkfFFctp47UGo8z9d8DDs=", "properties": {"@spider": "usps_collection_boxes", "addr:city": "JESSUP", "addr:country": "US", "addr:full": "95 CHURCH ST", "addr:postcode": "18434", "addr:state": "PA", "amenity": "post_box", "brand": "United States Postal Service", "brand:wikidata": "Q668687", "collection_times": "Mo-Fr 16:30", "name": "USPS COLLECTION BOX - PO LOBBY", "note": "ON 12/24 AND 12/31, THIS BOX MAY BE COLLECTED AS EARLY AS 12 NOON.", "nsi_id": "unitedstatespostalservice-a77078", "operator": "United States Postal Service", "operator:short": "USPS", "operator:type": "public", "operator:wikidata": "Q668687", "ref": "1843400018"}, "type": "Feature"}
{"dataset_attributes": {"@spider": "usps_collection_boxes"}, "geometry": {"coordinates": [-75.5656061, 41.47199], "type": "Point"}, "id": "QTM0w540CtXivN3McWIALIGEfmg=", "properties": {"@spider": "usps_collection_boxes", "addr:city": "JESSUP", "addr:country": "US", "addr:full": "801 CHURCH ST", "addr:postcode": "18434", "addr:state": "PA", "amenity": "post_box", "brand": "United States Postal Service", "brand:wikidata": "Q668687", "collection_times": "Mo-Sa 08:30", "name": "USPS COLLECTION BOX - BLUE BOX", "nsi_id": "unitedstatespostalservice-a77078", "operator": "United States Postal Service", "operator:short": "USPS", "operator:type": "public", "operator:wikidata": "Q668687", "ref": "1843400019"}, "type": "Feature"}
{"dataset_attributes": {"@spider": "usps_collection_boxes"}, "geometry": {"coordinates": [-75.572927106, 41.476211425], "type": "Point"}, "id": "jxiNt1AfacK2EtEFmi1xymqKYiQ=", "properties": {"@spider": "usps_collection_boxes", "addr:city": "JESSUP", "addr:country": "US", "addr:full": "95 CHURCH ST", "addr:postcode": "18434", "addr:state": "PA", "amenity": "post_box", "brand": "United States Postal Service", "brand:wikidata": "Q668687", "collection_times": "Mo-Fr 16:30", "name": "USPS COLLECTION BOX - PO LOBBY", "note": "ON 12/24 AND 12/31, THIS BOX MAY BE COLLECTED AS EARLY AS 12 NOON.", "nsi_id": "unitedstatespostalservice-a77078", "operator": "United States Postal Service", "operator:short": "USPS", "operator:type": "public", "operator:wikidata": "Q668687", "ref": "1843400021"}, "type": "Feature"}
{"dataset_attributes": {"@spider": "usps_collection_boxes"}, "geometry": {"coordinates": [-74.985802, 41.481334], "type": "Point"}, "id": "F1fMMsgkHDSwTqXgVZWy4so_jjM=", "properties": {"@spider": "usps_collection_boxes", "addr:city": "LACKAWAXEN", "addr:country": "US", "addr:full": "178 SCENIC DR", "addr:postcode": "18435", "addr:state": "PA", "amenity": "post_box", "brand": "United States Postal Service", "brand:wikidata": "Q668687", "collection_times": "Mo-Fr 16:00; Sa 11:30", "name": "USPS COLLECTION BOX - BLUE BOX", "note": "ON 12/24 AND 12/31, THIS BOX MAY BE COLLECTED AS EARLY AS 12 NOON.", "nsi_id": "unitedstatespostalservice-a77078", "operator": "United States Postal Service", "operator:short": "USPS", "operator:type": "public", "operator:wikidata": "Q668687", "ref": "1843500001"}, "type": "Feature"}
{"dataset_attributes": {"@spider": "usps_collection_boxes"}, "geometry": {"coordinates": [-74.9856846, 41.48146], "type": "Point"}, "id": "VwI5RHLV4Cepgl6ha99JZKBLQMM=", "properties": {"@spider": "usps_collection_boxes", "addr:city": "LACKAWAXEN", "addr:country": "US", "addr:full": "178 SCENIC DR", "addr:postcode": "18435", "addr:state": "PA", "amenity": "post_box", "brand": "United States Postal Service", "brand:wikidata": "Q668687", "collection_times": "Mo-Fr 16:00; Sa 11:30", "name": "USPS COLLECTION BOX - PO LOBBY", "note": "ON 12/24 AND 12/31, THIS BOX MAY BE COLLECTED AS EARLY AS 12 NOON.", "nsi_id": "unitedstatespostalservice-a77078", "operator": "United States Postal Service", "operator:short": "USPS", "operator:type": "public", "operator:wikidata": "Q668687", "ref": "1843500003"}, "type": "Feature"}
{"dataset_attributes": {"@spider": "usps_collection_boxes"}, "geometry": {"coordinates": [-74.985800595, 41.481376868], "type": "Point"}, "id": "XgiSlwoMCCyYPdyPC3hKk694Aps=", "properties": {"@spider": "usps_collection_boxes", "addr:city": "LACKAWAXEN", "addr:country": "US", "addr:full": "178 SCENIC DR", "addr:postcode": "18435", "addr:state": "PA", "amenity": "post_box", "brand": "United States Postal Service", "brand:wikidata": "Q668687", "collection_times": "Mo-Fr 16:00; Sa 11:30", "name": "USPS COLLECTION BOX - PO LOBBY", "note": "ON 12/24 AND 12/31, THIS BOX MAY BE COLLECTED AS EARLY AS 12 NOON.", "nsi_id": "unitedstatespostalservice-a77078", "operator": "United States Postal Service", "operator:short": "USPS", "operator:type": "public", "operator:wikidata": "Q668687", "ref": "1843500005"}, "type": "Feature"}
{"dataset_attributes": {"@spider": "usps_collection_boxes"}, "geometry": {"coordinates": [-75.3472233, 41.449875], "type": "Point"}, "id": "lah5MYtaOyXSneeZABztA6e10nw=", "properties": {"@spider": "usps_collection_boxes", "addr:city": "LAKE ARIEL", "addr:country": "US", "addr:full": "640 THE HIDEOUT", "addr:postcode": "18436", "addr:state": "PA", "amenity": "post_box", "brand": "United States Postal Service", "brand:wikidata": "Q668687", "collection_times": "Mo-Sa 12:00", "name": "USPS COLLECTION BOX - BLUE BOX", "nsi_id": "unitedstatespostalservice-a77078", "operator": "United States Postal Service", "operator:short": "USPS", "operator:type": "public", "operator:wikidata": "Q668687", "ref": "1843600002"}, "type": "Feature"}
{"dataset_attributes": {"@spider": "usps_collection_boxes"}, "geometry": {"coordinates": [-75.3430747, 41.414013], "type": "Point"}, "id": "ygeBk3t7iIWf1T5-sMkmE1sjHdc=", "properties": {"@spider": "usps_collection_boxes", "addr:city": "LAKE ARIEL", "addr:country": "US", "addr:full": "640 THE HIDEOUT", "addr:postcode": "18436", "addr:state": "PA", "amenity": "post_box", "brand": "United States Postal Service", "brand:wikidata": "Q668687", "collection_times": "Mo-Sa 12:00", "name": "USPS COLLECTION BOX - BLUE BOX", "nsi_id": "unitedstatespostalservice-a77078", "operator": "United States Postal Service", "operator:short": "USPS", "operator:type": "public", "operator:wikidata": "Q668687", "ref": "1843600003"}, "type": "Feature"}
{"dataset_attributes": {"@spider": "usps_collection_boxes"}, "geometry": {"coordinates": [-75.2743663, 41.39907], "type": "Point"}, "id": "1QkjOe_DHTXU_1HewyJtuvXlZIc=", "properties": {"@spider": "usps_collection_boxes", "addr:city": "LAKE ARIEL", "addr:country": "US", "addr:full": "100 WALLENPAUPACK DR", "addr:postcode": "18436", "addr:state": "PA", "amenity": "post_box", "brand": "United States Postal Service", "brand:wikidata": "Q668687", "collection_times": "Mo-Sa 10:00", "name": "USPS COLLECTION BOX - BLUE BOX", "nsi_id": "unitedstatespostalservice-a77078", "operator": "United States Postal Service", "operator:short": "USPS", "operator:type": "public", "operator:wikidata": "Q668687", "ref": "1843600004"}, "type": "Feature"}
{"dataset_attributes": {"@spider": "usps_collection_boxes"}, "geometry": {"coordinates": [-75.2934569, 41.396994], "type": "Point"}, "id": "F5UpapvHOeEyOX4JwC_BITdUXeU=", "properties": {"@spider": "usps_collection_boxes", "addr:city": "LAKE ARIEL", "addr:country": "US", "addr:full": "100 WALLENPAUPACK DR", "addr:postcode": "18436", "addr:state": "PA", "amenity": "post_box", "brand": "United States Postal Service", "brand:wikidata": "Q668687", "collection_times": "Mo-Sa 10:00", "name": "USPS COLLECTION BOX - BLUE BOX", "nsi_id": "unitedstatespostalservice-a77078", "operator": "United States Postal Service", "operator:short": "USPS", "operator:type": "public", "operator:wikidata": "Q668687", "ref": "1843600005"}, "type": "Feature"}
{"dataset_attributes": {"@spider": "usps_collection_boxes"}, "geometry": {"coordinates": [-75.379137, 41.454632], "type": "Point"}, "id": "wViAVDhLAikObm-KkkiWM3Z1K4M=", "properties": {"@spider": "usps_collection_boxes", "addr:city": "LAKE ARIEL", "addr:country": "US", "addr:full": "1446 LAKE ARIEL HWY", "addr:postcode": "18436", "addr:state": "PA", "amenity": "post_box", "brand": "United States Postal Service", "brand:wikidata": "Q668687", "collection_times": "Mo-Fr 16:45; Sa 14:45", "name": "USPS COLLECTION BOX - BLUE BOX", "note": "ON 12/24 AND 12/31, THIS BOX MAY BE COLLECTED AS EARLY AS 12 NOON.", "nsi_id": "unitedstatespostalservice-a77078", "operator": "United States Postal Service", "operator:short": "USPS", "operator:type": "public", "operator:wikidata": "Q668687", "ref": "1843600010"}, "type": "Feature"}
{"dataset_attributes": {"@spider": "usps_collection_boxes"}, "geometry": {"coordinates": [-75.379249, 41.454674], "type": "Point"}, "id": "tZcfwExLLeu4Ob4TML3binp0hzo=", "properties": {"@spider": "usps_collection_boxes", "addr:city": "LAKE ARIEL", "addr:country": "US", "addr:full": "1446 LAKE ARIEL HWY", "addr:postcode": "18436", "addr:state": "PA", "amenity": "post_box", "brand": "United States Postal Service", "brand:wikidata": "Q668687", "collection_times": "Mo-Fr 16:45; Sa 14:45", "name": "USPS COLLECTION BOX - PO LOBBY", "note": "ON 12/24 AND 12/31, THIS BOX MAY BE COLLECTED AS EARLY AS 12 NOON.", "nsi_id": "unitedstatespostalservice-a77078", "operator": "United States Postal Service", "operator:short": "USPS", "operator:type": "public", "operator:wikidata": "Q668687", "ref": "1843600013"}, "type": "Feature"}
{"dataset_attributes": {"@spider": "usps_collection_boxes"}, "geometry": {"coordinates": [-75.379183564, 41.454627645], "type": "Point"}, "id": "XVLyBroQDGohj_IZahUoy-hxBTE=", "properties": {"@spider": "usps_collection_boxes", "addr:city": "LAKE ARIEL", "addr:country": "US", "addr:full": "1446 LAKE ARIEL HWY", "addr:postcode": "18436", "addr:state": "PA", "amenity": "post_box", "brand": "United States Postal Service", "brand:wikidata": "Q668687", "collection_times": "Mo-Fr 17:15; Sa 12:15", "name": "USPS COLLECTION BOX - PO LOBBY", "note": "ON 12/24 AND 12/31, THIS BOX MAY BE COLLECTED AS EARLY AS 12 NOON.", "nsi_id": "unitedstatespostalservice-a77078", "operator": "United States Postal Service", "operator:short": "USPS", "operator:type": "public", "operator:wikidata": "Q668687", "ref": "1843600016"}, "type": "Feature"}
{"dataset_attributes": {"@spider": "usps_collection_boxes"}, "geometry": {"coordinates": [-75.337021, 41.849852], "type": "Point"}, "id": "dOHG5yCVFXqbotH6x6k88mZ8zFc=", "properties": {"@spider": "usps_collection_boxes", "addr:city": "LAKE COMO", "addr:country": "US", "addr:full": "3177 CREAMTON DR", "addr:postcode": "18437", "addr:state": "PA", "amenity": "post_box", "brand": "United States Postal Service", "brand:wikidata": "Q668687", "collection_times": "Mo-Fr 16:00; Sa 11:45", "name": "USPS COLLECTION BOX - BLUE BOX", "note": "ON 12/24 AND 12/31, THIS BOX MAY BE COLLECTED AS EARLY AS 12 NOON.", "nsi_id": "unitedstatespostalservice-a77078", "operator": "United States Postal Service", "operator:short": "USPS", "operator:type": "public", "operator:wikidata": "Q668687", "ref": "1843700001"}, "type": "Feature"}
{"dataset_attributes": {"@spider": "usps_collection_boxes"}, "geometry": {"coordinates": [-75.336997, 41.84976], "type": "Point"}, "id": "1ag_oEgG2WWT5Of_Xk3PXLrKghE=", "properties": {"@spider": "usps_collection_boxes", "addr:city": "LAKE COMO", "addr:country": "US", "addr:full": "3177 CREAMTON DR", "addr:postcode": "18437", "addr:state": "PA", "amenity": "post_box", "brand": "United States Postal Service", "brand:wikidata": "Q668687", "collection_times": "Mo-Fr 16:15; Sa 11:45", "name": "USPS COLLECTION BOX - PO LOBBY", "note": "ON 12/24 AND 12/31, THIS BOX MAY BE COLLECTED AS EARLY AS 12 NOON.", "nsi_id": "unitedstatespostalservice-a77078", "operator": "United States Postal Service", "operator:short": "USPS", "operator:type": "public", "operator:wikidata": "Q668687", "ref": "1843700002"}, "type": "Feature"}
{"dataset_attributes": {"@spider": "usps_collection_boxes"}, "geometry": {"coordinates": [-75.337006629, 41.849902488], "type": "Point"}, "id": "ZfXoNKVv8cnxKS5Vv3vZMMD83R4=", "properties": {"@spider": "usps_collection_boxes", "addr:city": "LAKE COMO", "addr:country": "US", "addr:full": "3177 CREAMTON DR", "addr:postcode": "18437", "addr:state": "PA", "amenity": "post_box", "brand": "United States Postal Service", "brand:wikidata": "Q668687", "collection_times": "Mo-Fr 16:15; Sa 11:45", "name": "USPS COLLECTION BOX - PO LOBBY", "note": "ON 12/24 AND 12/31, THIS BOX MAY BE COLLECTED AS EARLY AS 12 NOON.", "nsi_id": "unitedstatespostalservice-a77078", "operator": "United States Postal Service", "operator:short": "USPS", "operator:type": "public", "operator:wikidata": "Q668687", "ref": "1843700004"}, "type": "Feature"}
{"dataset_attributes": {"@spider": "usps_collection_boxes"}, "geometry": {"coordinates": [-75.382482, 41.851757], "type": "Point"}, "id": "FdKD0Ivd60ULn-Wk9bhxkBredy8=", "properties": {"@spider": "usps_collection_boxes", "addr:city": "LAKEWOOD", "addr:country": "US", "addr:full": "1436 CROSSTOWN HWY", "addr:postcode": "18439", "addr:state": "PA", "amenity": "post_box", "brand": "United States Postal Service", "brand:wikidata": "Q668687", "collection_times": "Mo-Sa 12:00", "name": "USPS COLLECTION BOX - BLUE BOX", "nsi_id": "unitedstatespostalservice-a77078", "operator": "United States Postal Service", "operator:short": "USPS", "operator:type": "public", "operator:wikidata": "Q668687", "ref": "1843900001"}, "type": "Feature"}
{"dataset_attributes": {"@spider": "usps_collection_boxes"}, "geometry": {"coordinates": [-75.38257, 41.851763], "type": "Point"}, "id": "-VUtNgfU8awwaw8dcF_9QT0iYwo=", "properties": {"@spider": "usps_collection_boxes", "addr:city": "LAKEWOOD", "addr:country": "US", "addr:full": "1436 CROSSTOWN HWY", "addr:postcode": "18439", "addr:state": "PA", "amenity": "post_box", "brand": "United States Postal Service", "brand:wikidata": "Q668687", "collection_times": "Mo-Sa 12:00", "name": "USPS COLLECTION BOX - PO LOBBY", "nsi_id": "unitedstatespostalservice-a77078", "operator": "United States Postal Service", "operator:short": "USPS", "operator:type": "public", "operator:wikidata": "Q668687", "ref": "1843900002"}, "type": "Feature"}
{"dataset_attributes": {"@spider": "usps_collection_boxes"}, "geometry": {"coordinates": [-75.382354006, 41.851780021], "type": "Point"}, "id": "OucWKjqhkhXIcQ_o8DxTWeX05l8=", "properties": {"@spider": "usps_collection_boxes", "addr:city": "LAKEWOOD", "addr:country": "US", "addr:full": "1436 CROSSTOWN HWY", "addr:postcode": "18439", "addr:state": "PA", "amenity": "post_box", "brand": "United States Postal Service", "brand:wikidata": "Q668687", "collection_times": "Mo-Fr 12:00; Sa 12:15", "name": "USPS COLLECTION BOX - PO LOBBY", "note": "ON 12/24 AND 12/31, THIS BOX MAY BE COLLECTED AS EARLY AS 12 NOON.", "nsi_id": "unitedstatespostalservice-a77078", "operator": "United States Postal Service", "operator:short": "USPS", "operator:type": "public", "operator:wikidata": "Q668687", "ref": "1843900004"}, "type": "Feature"}
{"dataset_attributes": {"@spider": "usps_collection_boxes"}, "geometry": {"coordinates": [-75.75233, 41.558545], "type": "Point"}, "id": "TvkBxciYd1A06FslsMn6Xkzut9U=", "properties": {"@spider": "usps_collection_boxes", "addr:city": "LA PLUME", "addr:country": "US", "addr:full": "2092 E LA PLUME RD", "addr:postcode": "18440", "addr:state": "PA", "amenity": "post_box", "brand": "United States Postal Service", "brand:wikidata": "Q668687", "collection_times": "Mo-Fr 16:15; Sa 11:00", "name": "USPS COLLECTION BOX - BLUE BOX", "note": "ON 12/24 AND 12/31, THIS BOX MAY BE COLLECTED AS EARLY AS 12 NOON.", "nsi_id": "unitedstatespostalservice-a77078", "operator": "United States Postal Service", "operator:short": "USPS", "operator:type": "public", "operator:wikidata": "Q668687", "ref": "1844000001"}, "type": "Feature"}
{"dataset_attributes": {"@spider": "usps_collection_boxes"}, "geometry": {"coordinates": [-75.752281, 41.558631], "type": "Point"}, "id": "QM4d_IQilec1LKpMQYtrF9KV2WQ=", "properties": {"@spider": "usps_collection_boxes", "addr:city": "LA PLUME", "addr:country": "US", "addr:full": "2092 E LA PLUME RD", "addr:postcode": "18440", "addr:state": "PA", "amenity": "post_box", "brand": "United States Postal Service", "brand:wikidata": "Q668687", "collection_times": "Mo-Fr 16:15; Sa 11:00", "name": "USPS COLLECTION BOX - PO LOBBY", "note": "ON 12/24 AND 12/31, THIS BOX MAY BE COLLECTED AS EARLY AS 12 NOON.", "nsi_id": "unitedstatespostalservice-a77078", "operator": "United States Postal Service", "operator:short": "USPS", "operator:type": "public", "operator:wikidata": "Q668687", "ref": "1844000003"}, "type": "Feature"}
{"dataset_attributes": {"@spider": "usps_collection_boxes"}, "geometry": {"coordinates": [-75.752289583, 41.558531982], "type": "Point"}, "id": "_ZpP3EUaWUo2UAaCOz9lM6O2oMM=", "properties": {"@spider": "usps_collection_boxes", "addr:city": "LA PLUME", "addr:country": "US", "addr:full": "2092 E LA PLUME RD", "addr:postcode": "18440", "addr:state": "PA", "amenity": "post_box", "brand": "United States Postal Service", "brand:wikidata": "Q668687", "collection_times": "Mo-Fr 16:15; Sa 11:15", "name": "USPS COLLECTION BOX - PO LOBBY", "note": "ON 12/24 AND 12/31, THIS BOX MAY BE COLLECTED AS EARLY AS 12 NOON.", "nsi_id": "unitedstatespostalservice-a77078", "operator": "United States Postal Service", "operator:short": "USPS", "operator:type": "public", "operator:wikidata": "Q668687", "ref": "1844000005"}, "type": "Feature"}
{"dataset_attributes": {"@spider": "usps_collection_boxes"}, "geometry": {"coordinates": [-75.0652175, 41.672457], "type": "Point"}, "id": "4Y43tuvAIwrvlWjvXNxrCuLT4rA=", "properties": {"@spider": "usps_collection_boxes", "addr:city": "MILANVILLE", "addr:country": "US", "addr:full": "1143 RIVER RD STE B", "addr:postcode": "18443", "addr:state": "PA", "amenity": "post_box", "brand": "United States Postal Service", "brand:wikidata": "Q668687", "collection_times": "Mo-Fr 16:15; Sa 12:00", "name": "USPS COLLECTION BOX - BLUE BOX", "note": "ON 12/24 AND 12/31, THIS BOX MAY BE COLLECTED AS EARLY AS 12 NOON.", "nsi_id": "unitedstatespostalservice-a77078", "operator": "United States Postal Service", "operator:short": "USPS", "operator:type": "public", "operator:wikidata": "Q668687", "ref": "1844300001"}, "type": "Feature"}
{"dataset_attributes": {"@spider": "usps_collection_boxes"}, "geometry": {"coordinates": [-75.06503, 41.672274], "type": "Point"}, "id": "IHezpiEXNh303Uf5T09tMc0urKU=", "properties": {"@spider": "usps_collection_boxes", "addr:city": "MILANVILLE", "addr:country": "US", "addr:full": "1143 RIVER RD STE B", "addr:postcode": "18443", "addr:state": "PA", "amenity": "post_box", "brand": "United States Postal Service", "brand:wikidata": "Q668687", "collection_times": "Mo-Fr 13:00; Sa 12:00", "name": "USPS COLLECTION BOX - PO LOBBY", "note": "ON 12/24 AND 12/31, THIS BOX MAY BE COLLECTED AS EARLY AS 12 NOON.", "nsi_id": "unitedstatespostalservice-a77078", "operator": "United States Postal Service", "operator:short": "USPS", "operator:type": "public", "operator:wikidata": "Q668687", "ref": "1844300002"}, "type": "Feature"}
{"dataset_attributes": {"@spider": "usps_collection_boxes"}, "geometry": {"coordinates": [-75.064920479, 41.672487761], "type": "Point"}, "id": "ReOAs2tHWaXlJy0fwzOXmDVzF1E=", "properties": {"@spider": "usps_collection_boxes", "addr:city": "MILANVILLE", "addr:country": "US", "addr:full": "1143 RIVER RD STE B", "addr:postcode": "18443", "addr:state": "PA", "amenity": "post_box", "brand": "United States Postal Service", "brand:wikidata": "Q668687", "collection_times": "Mo-Fr 13:00; Sa 12:00", "name": "USPS COLLECTION BOX - PO LOBBY", "note": "ON 12/24 AND 12/31, THIS BOX MAY BE COLLECTED AS EARLY AS 12 NOON.", "nsi_id": "unitedstatespostalservice-a77078", "operator": "United States Postal Service", "operator:short": "USPS", "operator:type": "public", "operator:wikidata": "Q668687", "ref": "1844300004"}, "type": "Feature"}
{"dataset_attributes": {"@spider": "usps_collection_boxes"}, "geometry": {"coordinates": [-75.520014, 41.343233], "type": "Point"}, "id": "IauUFu4mpBB8QsIV3P8Hkb4zHaU=", "properties": {"@spider": "usps_collection_boxes", "addr:city": "MOSCOW", "addr:country": "US", "addr:full": "331 N MAIN ST", "addr:postcode": "18444", "addr:state": "PA", "amenity": "post_box", "brand": "United States Postal Service", "brand:wikidata": "Q668687", "collection_times": "Mo-Fr 17:00; Sa 15:30", "name": "USPS COLLECTION BOX - BLUE BOX", "note": "ON 12/24 AND 12/31, THIS BOX MAY BE COLLECTED AS EARLY AS 12 NOON.", "nsi_id": "unitedstatespostalservice-a77078", "operator": "United States Postal Service", "operator:short": "USPS", "operator:type": "public", "operator:wikidata": "Q668687", "ref": "1844400001"}, "type": "Feature"}
{"dataset_attributes": {"@spider": "usps_collection_boxes"}, "geometry": {"coordinates": [-75.5169016, 41.308165], "type": "Point"}, "id": "fFRKsu7i2Sf7kUfkZZtw-PU6I2M=", "properties": {"@spider": "usps_collection_boxes", "addr:city": "MOSCOW", "addr:country": "US", "addr:full": "921 DRINKER TPKE", "addr:postcode": "18444", "addr:state": "PA", "amenity": "post_box", "brand": "United States Postal Service", "brand:wikidata": "Q668687", "collection_times": "Mo-Sa 10:00", "name": "USPS COLLECTION BOX - BLUE BOX", "nsi_id": "unitedstatespostalservice-a77078", "operator": "United States Postal Service", "operator:short": "USPS", "operator:type": "public", "operator:wikidata": "Q668687", "ref": "1844400002"}, "type": "Feature"}
{"dataset_attributes": {"@spider": "usps_collection_boxes"}, "geometry": {"coordinates": [-75.5183738, 41.335833], "type": "Point"}, "id": "93aafI6RCMVv_bggpG6Ahu8Tdec=", "properties": {"@spider": "usps_collection_boxes", "addr:city": "MOSCOW", "addr:country": "US", "addr:full": "208 S MAIN ST", "addr:postcode": "18444", "addr:state": "PA", "amenity": "post_box", "brand": "United States Postal Service", "brand:wikidata": "Q668687", "collection_times": "Mo-Sa 10:30", "name": "USPS COLLECTION BOX - BLUE BOX", "nsi_id": "unitedstatespostalservice-a77078", "operator": "United States Postal Service", "operator:short": "USPS", "operator:type": "public", "operator:wikidata": "Q668687", "ref": "1844400005"}, "type": "Feature"}
{"dataset_attributes": {"@spider": "usps_collection_boxes"}, "geometry": {"coordinates": [-75.519961, 41.343212], "type": "Point"}, "id": "pnYhiGWGS56a6Vjj2_Dwt8MlsQI=", "properties": {"@spider": "usps_collection_boxes", "addr:city": "MOSCOW", "addr:country": "US", "addr:full": "331 N MAIN ST", "addr:postcode": "18444", "addr:state": "PA", "amenity": "post_box", "brand": "United States Postal Service", "brand:wikidata": "Q668687", "collection_times": "Mo-Fr 17:00; Sa 15:30", "name": "USPS COLLECTION BOX - PO LOBBY", "note": "ON 12/24 AND 12/31, THIS BOX MAY BE COLLECTED AS EARLY AS 12 NOON.", "nsi_id": "unitedstatespostalservice-a77078", "operator": "United States Postal Service", "operator:short": "USPS", "operator:type": "public", "operator:wikidata": "Q668687", "ref": "1844400006"}, "type": "Feature"}
{"dataset_attributes": {"@spider": "usps_collection_boxes"}, "geometry": {"coordinates": [-75.520028261, 41.343196336], "type": "Point"}, "id": "clGYYqz9ru-GzEIszALEhGZpIDQ=", "properties": {"@spider": "usps_collection_boxes", "addr:city": "MOSCOW", "addr:country": "US", "addr:full": "331 N MAIN ST", "addr:postcode": "18444", "addr:state": "PA", "amenity": "post_box", "brand": "United States Postal Service", "brand:wikidata": "Q668687", "collection_times": "Mo-Fr 17:15; Sa 12:15", "name": "USPS COLLECTION BOX - PO LOBBY", "note": "ON 12/24 AND 12/31, THIS BOX MAY BE COLLECTED AS EARLY AS 12 NOON.", "nsi_id": "unitedstatespostalservice-a77078", "operator": "United States Postal Service", "operator:short": "USPS", "operator:type": "public", "operator:wikidata": "Q668687", "ref": "1844400008"}, "type": "Feature"}
{"dataset_attributes": {"@spider": "usps_collection_boxes"}, "geometry": {"coordinates": [-75.319507, 41.307259], "type": "Point"}, "id": "nxjdmd8dyeIREPnt1AeXCf_OHHQ=", "properties": {"@spider": "usps_collection_boxes", "addr:city": "NEWFOUNDLAND", "addr:country": "US", "addr:full": "8 PANTHER RD", "addr:postcode": "18445", "addr:state": "PA", "amenity": "post_box", "brand": "United States Postal Service", "brand:wikidata": "Q668687", "collection_times": "Mo-Fr 16:30; Sa 11:45", "name": "USPS COLLECTION BOX - BLUE BOX", "note": "ON 12/24 AND 12/31, THIS BOX MAY BE COLLECTED AS EARLY AS 12 NOON.", "nsi_id": "unitedstatespostalservice-a77078", "operator": "United States Postal Service", "operator:short": "USPS", "operator:type": "public", "operator:wikidata": "Q668687", "ref": "1844500001"}, "type": "Feature"}
{"dataset_attributes": {"@spider": "usps_collection_boxes"}, "geometry": {"coordinates": [-75.319598, 41.307323], "type": "Point"}, "id": "nzoDSuPpergBK5RjXt1c467Imnc=", "properties": {"@spider": "usps_collection_boxes", "addr:city": "NEWFOUNDLAND", "addr:country": "US", "addr:full": "8 PANTHER RD", "addr:postcode": "18445", "addr:state": "PA", "amenity": "post_box", "brand": "United States Postal Service", "brand:wikidata": "Q668687", "collection_times": "Mo-Fr 16:30; Sa 11:45", "name": "USPS COLLECTION BOX - PO LOBBY", "note": "ON 12/24 AND 12/31, THIS BOX MAY BE COLLECTED AS EARLY AS 12 NOON.", "nsi_id": "unitedstatespostalservice-a77078", "operator": "United States Postal Service", "operator:short": "USPS", "operator:type": "public", "operator:wikidata": "Q668687", "ref": "1844500002"}, "type": "Feature"}
{"dataset_attributes": {"@spider": "usps_collection_boxes"}, "geometry": {"coordinates": [-75.319410541, 41.307218498], "type": "Point"}, "id": "L9rGSXXWkEVglgFC9z0o5HTA7bU=", "properties": {"@spider": "usps_collection_boxes", "addr:city": "NEWFOUNDLAND", "addr:country": "US", "addr:full": "8 PANTHER RD", "addr:postcode": "18445", "addr:state": "PA", "amenity": "post_box", "brand": "United States Postal Service", "brand:wikidata": "Q668687", "collection_times": "Mo-Fr 16:30; Sa 11:45", "name": "USPS COLLECTION BOX - PO LOBBY", "note": "ON 12/24 AND 12/31, THIS BOX MAY BE COLLECTED AS EARLY AS 12 NOON.", "nsi_id": "unitedstatespostalservice-a77078", "operator": "United States Postal Service", "operator:short": "USPS", "operator:type": "public", "operator:wikidata": "Q668687", "ref": "1844500004"}, "type": "Feature"}
{"dataset_attributes": {"@spider": "usps_collection_boxes"}, "geometry": {"coordinates": [-75.78063, 41.626445], "type": "Point"}, "id": "HQqexdAfTiOY2xONuwYbPIO3urM=", "properties": {"@spider": "usps_collection_boxes", "addr:city": "NICHOLSON", "addr:country": "US", "addr:full": "55 MAIN ST", "addr:postcode": "18446", "addr:state": "PA", "amenity": "post_box", "brand": "United States Postal Service", "brand:wikidata": "Q668687", "collection_times": "Mo-Fr 16:45; Sa 12:15", "name": "USPS COLLECTION BOX - BLUE BOX", "note": "ON 12/24 AND 12/31, THIS BOX MAY BE COLLECTED AS EARLY AS 12 NOON.", "nsi_id": "unitedstatespostalservice-a77078", "operator": "United States Postal Service", "operator:short": "USPS", "operator:type": "public", "operator:wikidata": "Q668687", "ref": "1844600001"}, "type": "Feature"}
{"dataset_attributes": {"@spider": "usps_collection_boxes"}, "geometry": {"coordinates": [-75.780662, 41.626424], "type": "Point"}, "id": "cXbVogn9dBxWc8L9zuxpeAOSgnY=", "properties": {"@spider": "usps_collection_boxes", "addr:city": "NICHOLSON", "addr:country": "US", "addr:full": "55 MAIN ST", "addr:postcode": "18446", "addr:state": "PA", "amenity": "post_box", "brand": "United States Postal Service", "brand:wikidata": "Q668687", "collection_times": "Mo-Fr 16:45; Sa 12:15", "name": "USPS COLLECTION BOX - PO LOBBY", "note": "ON 12/24 AND 12/31, THIS BOX MAY BE COLLECTED AS EARLY AS 12 NOON.", "nsi_id": "unitedstatespostalservice-a77078", "operator": "United States Postal Service", "operator:short": "USPS", "operator:type": "public", "operator:wikidata": "Q668687", "ref": "1844600002"}, "type": "Feature"}
{"dataset_attributes": {"@spider": "usps_collection_boxes"}, "geometry": {"coordinates": [-75.780609069, 41.626433503], "type": "Point"}, "id": "44GuIGumdWByY7SdmUSuxvURvC4=", "properties": {"@spider": "usps_collection_boxes", "addr:city": "NICHOLSON", "addr:country": "US", "addr:full": "55 MAIN ST", "addr:postcode": "18446", "addr:state": "PA", "amenity": "post_box", "brand": "United States Postal Service", "brand:wikidata": "Q668687", "collection_times": "Mo-Fr 16:45; Sa 12:15", "name": "USPS COLLECTION BOX - PO LOBBY", "note": "ON 12/24 AND 12/31, THIS BOX MAY BE COLLECTED AS EARLY AS 12 NOON.", "nsi_id": "unitedstatespostalservice-a77078", "operator": "United States Postal Service", "operator:short": "USPS", "operator:type": "public", "operator:wikidata": "Q668687", "ref": "1844600004"}, "type": "Feature"}
{"dataset_attributes": {"@spider": "usps_collection_boxes"}, "geometry": {"coordinates": [-75.6061211, 41.476351], "type": "Point"}, "id": "PCPsHuRJ_pYXhbGC6w9V53tEwlk=", "properties": {"@spider": "usps_collection_boxes", "addr:city": "OLYPHANT", "addr:country": "US", "addr:full": "2ND ST", "addr:postcode": "18447", "addr:state": "PA", "amenity": "post_box", "brand": "United States Postal Service", "brand:wikidata": "Q668687", "collection_times": "Mo-Sa 14:45", "name": "USPS COLLECTION BOX - BLUE BOX", "note": "ON 12/24 AND 12/31, THIS BOX MAY BE COLLECTED AS EARLY AS 12 NOON.", "nsi_id": "unitedstatespostalservice-a77078", "operator": "United States Postal Service", "operator:short": "USPS", "operator:type": "public", "operator:wikidata": "Q668687", "ref": "1844700007"}, "type": "Feature"}
{"dataset_attributes": {"@spider": "usps_collection_boxes"}, "geometry": {"coordinates": [-75.611899, 41.470635], "type": "Point"}, "id": "Fycv-ImJvNBT2af0LiWaP7ap248=", "properties": {"@spider": "usps_collection_boxes", "addr:city": "OLYPHANT", "addr:country": "US", "addr:full": "719 SUNSET DR", "addr:postcode": "18447", "addr:state": "PA", "amenity": "post_box", "brand": "United States Postal Service", "brand:wikidata": "Q668687", "collection_times": "Mo-Sa 10:00", "name": "USPS COLLECTION BOX - BLUE BOX", "nsi_id": "unitedstatespostalservice-a77078", "operator": "United States Postal Service", "operator:short": "USPS", "operator:type": "public", "operator:wikidata": "Q668687", "ref": "1844700009"}, "type": "Feature"}
{"dataset_attributes": {"@spider": "usps_collection_boxes"}, "geometry": {"coordinates": [-75.6127481419, 41.5355281486], "type": "Point"}, "id": "lY6aIT4LOa5C2LYD0UryoDsqjF0=", "properties": {"@spider": "usps_collection_boxes", "addr:city": "OLYPHANT", "addr:country": "US", "addr:full": "1038 MONTDALE RD", "addr:postcode": "18447", "addr:state": "PA", "amenity": "post_box", "brand": "United States Postal Service", "brand:wikidata": "Q668687", "collection_times": "Mo-Sa 12:00", "name": "USPS COLLECTION BOX - BLUE BOX", "nsi_id": "unitedstatespostalservice-a77078", "operator": "United States Postal Service", "operator:short": "USPS", "operator:type": "public", "operator:wikidata": "Q668687", "ref": "1844700010"}, "type": "Feature"}
{"dataset_attributes": {"@spider": "usps_collection_boxes"}, "geometry": {"coordinates": [-75.59785, 41.469995], "type": "Point"}, "id": "dvyZIwgcUfmtNqVbelEKg5kgwME=", "properties": {"@spider": "usps_collection_boxes", "addr:city": "OLYPHANT", "addr:country": "US", "addr:full": "517 BURKE BYP", "addr:postcode": "18447", "addr:state": "PA", "amenity": "post_box", "brand": "United States Postal Service", "brand:wikidata": "Q668687", "collection_times": "Mo-Fr 16:45; Sa 15:30", "name": "USPS COLLECTION BOX - BLUE BOX", "note": "ON 12/24 AND 12/31, THIS BOX MAY BE COLLECTED AS EARLY AS 12 NOON.", "nsi_id": "unitedstatespostalservice-a77078", "operator": "United States Postal Service", "operator:short": "USPS", "operator:type": "public", "operator:wikidata": "Q668687", "ref": "1844700011"}, "type": "Feature"}
{"dataset_attributes": {"@spider": "usps_collection_boxes"}, "geometry": {"coordinates": [-75.605753, 41.470103], "type": "Point"}, "id": "6u2O1utYFSGOaIKKNgRsTSp3agw=", "properties": {"@spider": "usps_collection_boxes", "addr:city": "OLYPHANT", "addr:country": "US", "addr:full": "115 LACKAWANNA AVE", "addr:postcode": "18447", "addr:state": "PA", "amenity": "post_box", "brand": "United States Postal Service", "brand:wikidata": "Q668687", "collection_times": "Mo-Sa 15:00", "name": "USPS COLLECTION BOX - BLUE BOX", "note": "ON 12/24 AND 12/31, THIS BOX MAY BE COLLECTED AS EARLY AS 12 NOON.", "nsi_id": "unitedstatespostalservice-a77078", "operator": "United States Postal Service", "operator:short": "USPS", "operator:type": "public", "operator:wikidata": "Q668687", "ref": "1844700013"}, "type": "Feature"}
{"dataset_attributes": {"@spider": "usps_collection_boxes"}, "geometry": {"coordinates": [-75.6022847, 41.469814], "type": "Point"}, "id": "gQmSBJFZ5AD6g4hPH5ti_nYFj2k=", "properties": {"@spider": "usps_collection_boxes", "addr:city": "OLYPHANT", "addr:country": "US", "addr:full": "134 DELAWARE AVE", "addr:postcode": "18447", "addr:state": "PA", "amenity": "post_box", "brand": "United States Postal Service", "brand:wikidata": "Q668687", "collection_times": "Mo-Sa 15:00", "name": "USPS COLLECTION BOX - BLUE BOX", "note": "ON 12/24 AND 12/31, THIS BOX MAY BE COLLECTED AS EARLY AS 12 NOON.", "nsi_id": "unitedstatespostalservice-a77078", "operator": "United States Postal Service", "operator:short": "USPS", "operator:type": "public", "operator:wikidata": "Q668687", "ref": "1844700022"}, "type": "Feature"}
{"dataset_attributes": {"@spider": "usps_collection_boxes"}, "geometry": {"coordinates": [-75.6045479, 41.470279], "type": "Point"}, "id": "dlUAeIoueMJe8IydxvhaIxsyvsI=", "properties": {"@spider": "usps_collection_boxes", "addr:city": "OLYPHANT", "addr:country": "US", "addr:full": "113 WILLOW AVE", "addr:postcode": "18447", "addr:state": "PA", "amenity": "post_box", "brand": "United States Postal Service", "brand:wikidata": "Q668687", "collection_times": "Mo-Sa 09:45", "name": "USPS COLLECTION BOX - BLUE BOX", "nsi_id": "unitedstatespostalservice-a77078", "operator": "United States Postal Service", "operator:short": "USPS", "operator:type": "public", "operator:wikidata": "Q668687", "ref": "1844700024"}, "type": "Feature"}
{"dataset_attributes": {"@spider": "usps_collection_boxes"}, "geometry": {"coordinates": [-75.6040738, 41.469205], "type": "Point"}, "id": "Jgn6Lhk_X1ufD4uZiBCRaqSF4c8=", "properties": {"@spider": "usps_collection_boxes", "addr:city": "OLYPHANT", "addr:country": "US", "addr:full": "307 LACKAWANNA AVE", "addr:postcode": "18447", "addr:state": "PA", "amenity": "post_box", "brand": "United States Postal Service", "brand:wikidata": "Q668687", "collection_times": "Mo-Sa 15:00", "name": "USPS COLLECTION BOX - BLUE BOX", "note": "ON 12/24 AND 12/31, THIS BOX MAY BE COLLECTED AS EARLY AS 12 NOON.", "nsi_id": "unitedstatespostalservice-a77078", "operator": "United States Postal Service", "operator:short": "USPS", "operator:type": "public", "operator:wikidata": "Q668687", "ref": "1844700027"}, "type": "Feature"}
{"dataset_attributes": {"@spider": "usps_collection_boxes"}, "geometry": {"coordinates": [-75.6488637, 41.530933], "type": "Point"}, "id": "MUZ-yYSireJSYJu9t4o_HztQJfg=", "properties": {"@spider": "usps_collection_boxes", "addr:city": "OLYPHANT", "addr:country": "US", "addr:full": "578 CARBONDALE RD", "addr:postcode": "18447", "addr:state": "PA", "amenity": "post_box", "brand": "United States Postal Service", "brand:wikidata": "Q668687", "collection_times": "Mo-Sa 12:00", "name": "USPS COLLECTION BOX - BLUE BOX", "nsi_id": "unitedstatespostalservice-a77078", "operator": "United States Postal Service", "operator:short": "USPS", "operator:type": "public", "operator:wikidata": "Q668687", "ref": "1844700031"}, "type": "Feature"}
{"dataset_attributes": {"@spider": "usps_collection_boxes"}, "geometry": {"coordinates": [-75.597849, 41.469993], "type": "Point"}, "id": "3R7MXdIdJcBPSKjlY6R18WgSAx0=", "properties": {"@spider": "usps_collection_boxes", "addr:city": "OLYPHANT", "addr:country": "US", "addr:full": "517 BURKE BY-PASS", "addr:postcode": "18447", "addr:state": "PA", "amenity": "post_box", "brand": "United States Postal Service", "brand:wikidata": "Q668687", "collection_times": "Mo-Fr 17:00; Sa 15:45", "name": "USPS COLLECTION BOX - PO LOBBY", "note": "ON 12/24 AND 12/31, THIS BOX MAY BE COLLECTED AS EARLY AS 12 NOON.", "nsi_id": "unitedstatespostalservice-a77078", "operator": "United States Postal Service", "operator:short": "USPS", "operator:type": "public", "operator:wikidata": "Q668687", "ref": "1844700033"}, "type": "Feature"}
{"dataset_attributes": {"@spider": "usps_collection_boxes"}, "geometry": {"coordinates": [-75.597853328, 41.469933315], "type": "Point"}, "id": "KqYdqiBKANgrPyg3H9SjQQdjFSw=", "properties": {"@spider": "usps_collection_boxes", "addr:city": "OLYPHANT", "addr:country": "US", "addr:full": "517 BURKE BYP", "addr:postcode": "18447", "addr:state": "PA", "amenity": "post_box", "brand": "United States Postal Service", "brand:wikidata": "Q668687", "collection_times": "Mo-Fr 17:00; Sa 12:15", "name": "USPS COLLECTION BOX - PO LOBBY", "note": "ON 12/24 AND 12/31, THIS BOX MAY BE COLLECTED AS EARLY AS 12 NOON.", "nsi_id": "unitedstatespostalservice-a77078", "operator": "United States Postal Service", "operator:short": "USPS", "operator:type": "public", "operator:wikidata": "Q668687", "ref": "1844700036"}, "type": "Feature"}
{"dataset_attributes": {"@spider": "usps_collection_boxes"}, "geometry": {"coordinates": [-75.2303779905, 41.406111606], "type": "Point"}, "id": "xLeDXwVzR3hLWYnoTeP18ChJ7ao=", "properties": {"@spider": "usps_collection_boxes", "addr:city": "PAUPACK", "addr:country": "US", "addr:full": "480 ROUTE 507", "addr:postcode": "18451", "addr:state": "PA", "amenity": "post_box", "brand": "United States Postal Service", "brand:wikidata": "Q668687", "collection_times": "Mo-Fr 16:45; Sa 11:30", "name": "USPS COLLECTION BOX - BLUE BOX", "note": "ON 12/24 AND 12/31, THIS BOX MAY BE COLLECTED AS EARLY AS 12 NOON.", "nsi_id": "unitedstatespostalservice-a77078", "operator": "United States Postal Service", "operator:short": "USPS", "operator:type": "public", "operator:wikidata": "Q668687", "ref": "1845100001"}, "type": "Feature"}
{"dataset_attributes": {"@spider": "usps_collection_boxes"}, "geometry": {"coordinates": [-75.2172191, 41.409764], "type": "Point"}, "id": "00LbSoQVHWTugOFuFj023a32UA0=", "properties": {"@spider": "usps_collection_boxes", "addr:city": "PAUPACK", "addr:country": "US", "addr:full": "480 ROUTE 507", "addr:postcode": "18451", "addr:state": "PA", "amenity": "post_box", "brand": "United States Postal Service", "brand:wikidata": "Q668687", "collection_times": "Mo-Fr 16:45; Sa 11:30", "name": "USPS COLLECTION BOX - PO LOBBY", "note": "ON 12/24 AND 12/31, THIS BOX MAY BE COLLECTED AS EARLY AS 12 NOON.", "nsi_id": "unitedstatespostalservice-a77078", "operator": "United States Postal Service", "operator:short": "USPS", "operator:type": "public", "operator:wikidata": "Q668687", "ref": "1845100002"}, "type": "Feature"}
{"dataset_attributes": {"@spider": "usps_collection_boxes"}, "geometry": {"coordinates": [-75.217040236, 41.409564812], "type": "Point"}, "id": "LupKJs9UP4JJAV7SQQXq-ASmdXU=", "properties": {"@spider": "usps_collection_boxes", "addr:city": "PAUPACK", "addr:country": "US", "addr:full": "480 ROUTE 507", "addr:postcode": "18451", "addr:state": "PA", "amenity": "post_box", "brand": "United States Postal Service", "brand:wikidata": "Q668687", "collection_times": "Mo-Fr 16:45; Sa 11:30", "name": "USPS COLLECTION BOX - PO LOBBY", "note": "ON 12/24 AND 12/31, THIS BOX MAY BE COLLECTED AS EARLY AS 12 NOON.", "nsi_id": "unitedstatespostalservice-a77078", "operator": "United States Postal Service", "operator:short": "USPS", "operator:type": "public", "operator:wikidata": "Q668687", "ref": "1845100004"}, "type": "Feature"}
{"dataset_attributes": {"@spider": "usps_collection_boxes"}, "geometry": {"coordinates": [-75.5831459, 41.479992], "type": "Point"}, "id": "_01LmJBZmGuDbD63vFPScTA_VkE=", "properties": {"@spider": "usps_collection_boxes", "addr:city": "PECKVILLE", "addr:country": "US", "addr:full": "323 KEYSTONE AVE", "addr:postcode": "18452", "addr:state": "PA", "amenity": "post_box", "brand": "United States Postal Service", "brand:wikidata": "Q668687", "collection_times": "Mo-Fr 16:45; Sa 15:45", "name": "USPS COLLECTION BOX - BLUE BOX", "note": "ON 12/24 AND 12/31, THIS BOX MAY BE COLLECTED AS EARLY AS 12 NOON.", "nsi_id": "unitedstatespostalservice-a77078", "operator": "United States Postal Service", "operator:short": "USPS", "operator:type": "public", "operator:wikidata": "Q668687", "ref": "1845200001"}, "type": "Feature"}
{"dataset_attributes": {"@spider": "usps_collection_boxes"}, "geometry": {"coordinates": [-75.5957165, 41.479451], "type": "Point"}, "id": "R7ubs0ZEcxatWnXnTQiXdchV1LI=", "properties": {"@spider": "usps_collection_boxes", "addr:city": "PECKVILLE", "addr:country": "US", "addr:full": "1437 MAIN ST", "addr:postcode": "18452", "addr:state": "PA", "amenity": "post_box", "brand": "United States Postal Service", "brand:wikidata": "Q668687", "collection_times": "Mo-Sa 11:45", "name": "USPS COLLECTION BOX - BLUE BOX", "nsi_id": "unitedstatespostalservice-a77078", "operator": "United States Postal Service", "operator:short": "USPS", "operator:type": "public", "operator:wikidata": "Q668687", "ref": "1845200016"}, "type": "Feature"}
{"dataset_attributes": {"@spider": "usps_collection_boxes"}, "geometry": {"coordinates": [-75.582989, 41.480001], "type": "Point"}, "id": "gOk8mIVam6Q42VV-jlMdLNU6VZk=", "properties": {"@spider": "usps_collection_boxes", "addr:city": "PECKVILLE", "addr:country": "US", "addr:full": "323 KEYSTONE AVE", "addr:postcode": "18452", "addr:state": "PA", "amenity": "post_box", "brand": "United States Postal Service", "brand:wikidata": "Q668687", "collection_times": "Mo-Fr 16:45; Sa 11:45", "name": "USPS COLLECTION BOX - PO LOBBY", "note": "ON 12/24 AND 12/31, THIS BOX MAY BE COLLECTED AS EARLY AS 12 NOON.", "nsi_id": "unitedstatespostalservice-a77078", "operator": "United States Postal Service", "operator:short": "USPS", "operator:type": "public", "operator:wikidata": "Q668687", "ref": "1845200017"}, "type": "Feature"}
{"dataset_attributes": {"@spider": "usps_collection_boxes"}, "geometry": {"coordinates": [-75.583003129, 41.479917098], "type": "Point"}, "id": "V1fGxYTeOAErqm4AbABs1qWx8Zs=", "properties": {"@spider": "usps_collection_boxes", "addr:city": "PECKVILLE", "addr:country": "US", "addr:full": "323 KEYSTONE AVE", "addr:postcode": "18452", "addr:state": "PA", "amenity": "post_box", "brand": "United States Postal Service", "brand:wikidata": "Q668687", "collection_times": "Mo-Fr 17:00; Sa 12:00", "name": "USPS COLLECTION BOX - PO LOBBY", "note": "ON 12/24 AND 12/31, THIS BOX MAY BE COLLECTED AS EARLY AS 12 NOON.", "nsi_id": "unitedstatespostalservice-a77078", "operator": "United States Postal Service", "operator:short": "USPS", "operator:type": "public", "operator:wikidata": "Q668687", "ref": "1845200019"}, "type": "Feature"}
{"dataset_attributes": {"@spider": "usps_collection_boxes"}, "geometry": {"coordinates": [-75.4202774093, 41.8205418245], "type": "Point"}, "id": "m1dYYxK8ZtE-nB-LtZ6M_-cZikk=", "properties": {"@spider": "usps_collection_boxes", "addr:city": "POYNTELLE", "addr:country": "US", "addr:full": "718 CROSSTOWN HWY", "addr:postcode": "18454", "addr:state": "PA", "amenity": "post_box", "brand": "United States Postal Service", "brand:wikidata": "Q668687", "collection_times": "Mo-Fr 16:15; Sa 11:15", "name": "USPS COLLECTION BOX - BLUE BOX", "note": "ON 12/24 AND 12/31, THIS BOX MAY BE COLLECTED AS EARLY AS 12 NOON.", "nsi_id": "unitedstatespostalservice-a77078", "operator": "United States Postal Service", "operator:short": "USPS", "operator:type": "public", "operator:wikidata": "Q668687", "ref": "1845400001"}, "type": "Feature"}
{"dataset_attributes": {"@spider": "usps_collection_boxes"}, "geometry": {"coordinates": [-75.4202774093, 41.8205418245], "type": "Point"}, "id": "7sXxOdE4ToiVktS_SM3371W8GRo=", "properties": {"@spider": "usps_collection_boxes", "addr:city": "POYNTELLE", "addr:country": "US", "addr:full": "718 CROSSTOWN HWY", "addr:postcode": "18454", "addr:state": "PA", "amenity": "post_box", "brand": "United States Postal Service", "brand:wikidata": "Q668687", "collection_times": "Mo-Fr 16:15; Sa 11:15", "name": "USPS COLLECTION BOX - PO LOBBY", "note": "ON 12/24 AND 12/31, THIS BOX MAY BE COLLECTED AS EARLY AS 12 NOON.", "nsi_id": "unitedstatespostalservice-a77078", "operator": "United States Postal Service", "operator:short": "USPS", "operator:type": "public", "operator:wikidata": "Q668687", "ref": "1845400002"}, "type": "Feature"}
{"dataset_attributes": {"@spider": "usps_collection_boxes"}, "geometry": {"coordinates": [-75.417740274, 41.824818231], "type": "Point"}, "id": "ZMVGkgMyAU_BmWDrTNa8skgC3nU=", "properties": {"@spider": "usps_collection_boxes", "addr:city": "POYNTELLE", "addr:country": "US", "addr:full": "718 CROSSTOWN HWY", "addr:postcode": "18454", "addr:state": "PA", "amenity": "post_box", "brand": "United States Postal Service", "brand:wikidata": "Q668687", "collection_times": "Mo-Fr 16:15; Sa 11:15", "name": "USPS COLLECTION BOX - PO LOBBY", "note": "ON 12/24 AND 12/31, THIS BOX MAY BE COLLECTED AS EARLY AS 12 NOON.", "nsi_id": "unitedstatespostalservice-a77078", "operator": "United States Postal Service", "operator:short": "USPS", "operator:type": "public", "operator:wikidata": "Q668687", "ref": "1845400004"}, "type": "Feature"}
{"dataset_attributes": {"@spider": "usps_collection_boxes"}, "geometry": {"coordinates": [-75.326114, 41.586209], "type": "Point"}, "id": "lfVXCy1-sqbZN-ROlp_TFA37k10=", "properties": {"@spider": "usps_collection_boxes", "addr:city": "PROMPTON", "addr:country": "US", "addr:full": "88 RIVER RD", "addr:postcode": "18456", "addr:state": "PA", "amenity": "post_box", "brand": "United States Postal Service", "brand:wikidata": "Q668687", "collection_times": "Mo-Fr 16:30; Sa 11:30", "name": "USPS COLLECTION BOX - BLUE BOX", "note": "ON 12/24 AND 12/31, THIS BOX MAY BE COLLECTED AS EARLY AS 12 NOON.", "nsi_id": "unitedstatespostalservice-a77078", "operator": "United States Postal Service", "operator:short": "USPS", "operator:type": "public", "operator:wikidata": "Q668687", "ref": "1845600001"}, "type": "Feature"}
{"dataset_attributes": {"@spider": "usps_collection_boxes"}, "geometry": {"coordinates": [-75.326171, 41.586243], "type": "Point"}, "id": "S78_3kPLztB-yQdEVbxExCoQi9I=", "properties": {"@spider": "usps_collection_boxes", "addr:city": "PROMPTON", "addr:country": "US", "addr:full": "88 RIVER RD", "addr:postcode": "18456", "addr:state": "PA", "amenity": "post_box", "brand": "United States Postal Service", "brand:wikidata": "Q668687", "collection_times": "Mo-Fr 11:45; Sa 11:30", "name": "USPS COLLECTION BOX - PO LOBBY", "nsi_id": "unitedstatespostalservice-a77078", "operator": "United States Postal Service", "operator:short": "USPS", "operator:type": "public", "operator:wikidata": "Q668687", "ref": "1845600002"}, "type": "Feature"}
{"dataset_attributes": {"@spider": "usps_collection_boxes"}, "geometry": {"coordinates": [-75.325767727, 41.585415611], "type": "Point"}, "id": "j7AuyIuqdMcSi7Lv4b8aTk0AtPs=", "properties": {"@spider": "usps_collection_boxes", "addr:city": "PROMPTON", "addr:country": "US", "addr:full": "88 RIVER RD", "addr:postcode": "18456", "addr:state": "PA", "amenity": "post_box", "brand": "United States Postal Service", "brand:wikidata": "Q668687", "collection_times": "Mo-Fr 12:00; Sa 11:45", "name": "USPS COLLECTION BOX - PO LOBBY", "nsi_id": "unitedstatespostalservice-a77078", "operator": "United States Postal Service", "operator:short": "USPS", "operator:type": "public", "operator:wikidata": "Q668687", "ref": "1845600004"}, "type": "Feature"}
{"dataset_attributes": {"@spider": "usps_collection_boxes"}, "geometry": {"coordinates": [-75.0405833, 41.47388], "type": "Point"}, "id": "p3eCSsnodrWWnP8E2qzC_KX4cFs=", "properties": {"@spider": "usps_collection_boxes", "addr:city": "ROWLAND", "addr:country": "US", "addr:full": "102 SOLVERSON RD", "addr:postcode": "18457", "addr:state": "PA", "amenity": "post_box", "brand": "United States Postal Service", "brand:wikidata": "Q668687", "collection_times": "Mo-Fr 16:30; Sa 11:30", "name": "USPS COLLECTION BOX - BLUE BOX", "note": "ON 12/24 AND 12/31, THIS BOX MAY BE COLLECTED AS EARLY AS 12 NOON.", "nsi_id": "unitedstatespostalservice-a77078", "operator": "United States Postal Service", "operator:short": "USPS", "operator:type": "public", "operator:wikidata": "Q668687", "ref": "1845700001"}, "type": "Feature"}
{"dataset_attributes": {"@spider": "usps_collection_boxes"}, "geometry": {"coordinates": [-75.040464, 41.473818], "type": "Point"}, "id": "nYRkRx0VQ8GLXJJ67I86N7cSkIs=", "properties": {"@spider": "usps_collection_boxes", "addr:city": "ROWLAND", "addr:country": "US", "addr:full": "102 SOLVERSON RD", "addr:postcode": "18457", "addr:state": "PA", "amenity": "post_box", "brand": "United States Postal Service", "brand:wikidata": "Q668687", "collection_times": "Mo-Fr 13:00; Sa 11:30", "name": "USPS COLLECTION BOX - PO LOBBY", "note": "ON 12/24 AND 12/31, THIS BOX MAY BE COLLECTED AS EARLY AS 12 NOON.", "nsi_id": "unitedstatespostalservice-a77078", "operator": "United States Postal Service", "operator:short": "USPS", "operator:type": "public", "operator:wikidata": "Q668687", "ref": "1845700002"}, "type": "Feature"}
{"dataset_attributes": {"@spider": "usps_collection_boxes"}, "geometry": {"coordinates": [-75.040145114, 41.474031233], "type": "Point"}, "id": "GpNLguAzbUv3W356HRcA_y9rM30=", "properties": {"@spider": "usps_collection_boxes", "addr:city": "ROWLAND", "addr:country": "US", "addr:full": "102 SOLVERSON RD", "addr:postcode": "18457", "addr:state": "PA", "amenity": "post_box", "brand": "United States Postal Service", "brand:wikidata": "Q668687", "collection_times": "Mo-Fr 13:00; Sa 11:45", "name": "USPS COLLECTION BOX - PO LOBBY", "note": "ON 12/24 AND 12/31, THIS BOX MAY BE COLLECTED AS EARLY AS 12 NOON.", "nsi_id": "unitedstatespostalservice-a77078", "operator": "United States Postal Service", "operator:short": "USPS", "operator:type": "public", "operator:wikidata": "Q668687", "ref": "1845700005"}, "type": "Feature"}
{"dataset_attributes": {"@spider": "usps_collection_boxes"}, "geometry": {"coordinates": [-74.916771, 41.473808], "type": "Point"}, "id": "s96LvRkh1gjQJxFWZEwEilib_0k=", "properties": {"@spider": "usps_collection_boxes", "addr:city": "SHOHOLA", "addr:country": "US", "addr:full": "118 RICHARDSON AVE", "addr:postcode": "18458", "addr:state": "PA", "amenity": "post_box", "brand": "United States Postal Service", "brand:wikidata": "Q668687", "collection_times": "Mo-Fr 16:00; Sa 11:15", "name": "USPS COLLECTION BOX - BLUE BOX", "note": "ON 12/24 AND 12/31, THIS BOX MAY BE COLLECTED AS EARLY AS 12 NOON.", "nsi_id": "unitedstatespostalservice-a77078", "operator": "United States Postal Service", "operator:short": "USPS", "operator:type": "public", "operator:wikidata": "Q668687", "ref": "1845800001"}, "type": "Feature"}
{"dataset_attributes": {"@spider": "usps_collection_boxes"}, "geometry": {"coordinates": [-74.916749, 41.473884], "type": "Point"}, "id": "7u7FmdHWZr5RKgMAUbXZuB3aKQc=", "properties": {"@spider": "usps_collection_boxes", "addr:city": "SHOHOLA", "addr:country": "US", "addr:full": "118 RICHARDSON AVE", "addr:postcode": "18458", "addr:state": "PA", "amenity": "post_box", "brand": "United States Postal Service", "brand:wikidata": "Q668687", "collection_times": "Mo-Fr 16:00; Sa 11:15", "name": "USPS COLLECTION BOX - PO LOBBY", "note": "ON 12/24 AND 12/31, THIS BOX MAY BE COLLECTED AS EARLY AS 12 NOON.", "nsi_id": "unitedstatespostalservice-a77078", "operator": "United States Postal Service", "operator:short": "USPS", "operator:type": "public", "operator:wikidata": "Q668687", "ref": "1845800004"}, "type": "Feature"}
{"dataset_attributes": {"@spider": "usps_collection_boxes"}, "geometry": {"coordinates": [-74.9233759, 41.368632], "type": "Point"}, "id": "7e7IVIwtvYPDOB4F7btKpdCXvfE=", "properties": {"@spider": "usps_collection_boxes", "addr:city": "SHOHOLA", "addr:country": "US", "addr:full": "837 ROUTE 6", "addr:postcode": "18458", "addr:state": "PA", "amenity": "post_box", "brand": "United States Postal Service", "brand:wikidata": "Q668687", "collection_times": "Mo-Sa 11:00", "name": "USPS COLLECTION BOX - BLUE BOX", "nsi_id": "unitedstatespostalservice-a77078", "operator": "United States Postal Service", "operator:short": "USPS", "operator:type": "public", "operator:wikidata": "Q668687", "ref": "1845800005"}, "type": "Feature"}
{"dataset_attributes": {"@spider": "usps_collection_boxes"}, "geometry": {"coordinates": [-74.916978398, 41.473526931], "type": "Point"}, "id": "riKYUIayzFptZ3DIiKhNs-AJEgM=", "properties": {"@spider": "usps_collection_boxes", "addr:city": "SHOHOLA", "addr:country": "US", "addr:full": "118 RICHARDSON AVE", "addr:postcode": "18458", "addr:state": "PA", "amenity": "post_box", "brand": "United States Postal Service", "brand:wikidata": "Q668687", "collection_times": "Mo-Fr 16:00; Sa 11:00", "name": "USPS COLLECTION BOX - PO LOBBY", "note": "ON 12/24 AND 12/31, THIS BOX MAY BE COLLECTED AS EARLY AS 12 NOON.", "nsi_id": "unitedstatespostalservice-a77078", "operator": "United States Postal Service", "operator:short": "USPS", "operator:type": "public", "operator:wikidata": "Q668687", "ref": "1845800007"}, "type": "Feature"}
{"dataset_attributes": {"@spider": "usps_collection_boxes"}, "geometry": {"coordinates": [-75.41207, 41.50495], "type": "Point"}, "id": "oiTL7-1XDbk5IiJcTUQ6gA3mhFQ=", "properties": {"@spider": "usps_collection_boxes", "addr:city": "SOUTH CANAAN", "addr:country": "US", "addr:full": "2159 EASTON TPKE UNIT 1", "addr:postcode": "18459", "addr:state": "PA", "amenity": "post_box", "brand": "United States Postal Service", "brand:wikidata": "Q668687", "collection_times": "Mo-Fr 16:30; Sa 11:30", "name": "USPS COLLECTION BOX - BLUE BOX", "note": "ON 12/24 AND 12/31, THIS BOX MAY BE COLLECTED AS EARLY AS 12 NOON.", "nsi_id": "unitedstatespostalservice-a77078", "operator": "United States Postal Service", "operator:short": "USPS", "operator:type": "public", "operator:wikidata": "Q668687", "ref": "1845900001"}, "type": "Feature"}
{"dataset_attributes": {"@spider": "usps_collection_boxes"}, "geometry": {"coordinates": [-75.412039, 41.504963], "type": "Point"}, "id": "vMyzps7Msfb_CdCLrSRhhJ_QFhA=", "properties": {"@spider": "usps_collection_boxes", "addr:city": "SOUTH CANAAN", "addr:country": "US", "addr:full": "2159 EASTON TPKE UNIT 1", "addr:postcode": "18459", "addr:state": "PA", "amenity": "post_box", "brand": "United States Postal Service", "brand:wikidata": "Q668687", "collection_times": "Mo-Fr 16:30; Sa 11:30", "name": "USPS COLLECTION BOX - PO LOBBY", "note": "ON 12/24 AND 12/31, THIS BOX MAY BE COLLECTED AS EARLY AS 12 NOON.", "nsi_id": "unitedstatespostalservice-a77078", "operator": "United States Postal Service", "operator:short": "USPS", "operator:type": "public", "operator:wikidata": "Q668687", "ref": "1845900002"}, "type": "Feature"}
{"dataset_attributes": {"@spider": "usps_collection_boxes"}, "geometry": {"coordinates": [-75.412028423, 41.504890506], "type": "Point"}, "id": "vw81V4f5CfB8ec4D_6dCnhoHlUQ=", "properties": {"@spider": "usps_collection_boxes", "addr:city": "SOUTH CANAAN", "addr:country": "US", "addr:full": "2159 EASTON TPKE UNIT 1", "addr:postcode": "18459", "addr:state": "PA", "amenity": "post_box", "brand": "United States Postal Service", "brand:wikidata": "Q668687", "collection_times": "Mo-Fr 16:30; Sa 11:45", "name": "USPS COLLECTION BOX - PO LOBBY", "note": "ON 12/24 AND 12/31, THIS BOX MAY BE COLLECTED AS EARLY AS 12 NOON.", "nsi_id": "unitedstatespostalservice-a77078", "operator": "United States Postal Service", "operator:short": "USPS", "operator:type": "public", "operator:wikidata": "Q668687", "ref": "1845900005"}, "type": "Feature"}
{"dataset_attributes": {"@spider": "usps_collection_boxes"}, "geometry": {"coordinates": [-75.472422, 41.899008], "type": "Point"}, "id": "GgYg2JabHjrTpdeicwFuNRcPQoU=", "properties": {"@spider": "usps_collection_boxes", "addr:city": "STARRUCCA", "addr:country": "US", "addr:full": "327 STARRUCCA CREEK RD", "addr:postcode": "18462", "addr:state": "PA", "amenity": "post_box", "brand": "United States Postal Service", "brand:wikidata": "Q668687", "collection_times": "Mo-Fr 13:00; Sa 11:15", "name": "USPS COLLECTION BOX - BLUE BOX", "note": "ON 12/24 AND 12/31, THIS BOX MAY BE COLLECTED AS EARLY AS 12 NOON.", "nsi_id": "unitedstatespostalservice-a77078", "operator": "United States Postal Service", "operator:short": "USPS", "operator:type": "public", "operator:wikidata": "Q668687", "ref": "1846200001"}, "type": "Feature"}
{"dataset_attributes": {"@spider": "usps_collection_boxes"}, "geometry": {"coordinates": [-75.472323, 41.899104], "type": "Point"}, "id": "X4KlxNH8vzaSDmeyDZT8rBzXwJg=", "properties": {"@spider": "usps_collection_boxes", "addr:city": "STARRUCCA", "addr:country": "US", "addr:full": "327 STARRUCCA CREEK RD", "addr:postcode": "18462", "addr:state": "PA", "amenity": "post_box", "brand": "United States Postal Service", "brand:wikidata": "Q668687", "collection_times": "Mo-Fr 13:00; Sa 11:15", "name": "USPS COLLECTION BOX - PO LOBBY", "note": "ON 12/24 AND 12/31, THIS BOX MAY BE COLLECTED AS EARLY AS 12 NOON.", "nsi_id": "unitedstatespostalservice-a77078", "operator": "United States Postal Service", "operator:short": "USPS", "operator:type": "public", "operator:wikidata": "Q668687", "ref": "1846200002"}, "type": "Feature"}
{"dataset_attributes": {"@spider": "usps_collection_boxes"}, "geometry": {"coordinates": [-75.47232317, 41.899097493], "type": "Point"}, "id": "yOZ3oqi69g8HwQYaRse7JiFEMcI=", "properties": {"@spider": "usps_collection_boxes", "addr:city": "STARRUCCA", "addr:country": "US", "addr:full": "327 STARRUCCA CREEK RD STE 101", "addr:postcode": "18462", "addr:state": "PA", "amenity": "post_box", "brand": "United States Postal Service", "brand:wikidata": "Q668687", "collection_times": "Mo-Fr 13:00; Sa 11:00", "name": "USPS COLLECTION BOX - PO LOBBY", "note": "ON 12/24 AND 12/31, THIS BOX MAY BE COLLECTED AS EARLY AS 12 NOON.", "nsi_id": "unitedstatespostalservice-a77078", "operator": "United States Postal Service", "operator:short": "USPS", "operator:type": "public", "operator:wikidata": "Q668687", "ref": "1846200004"}, "type": "Feature"}
{"dataset_attributes": {"@spider": "usps_collection_boxes"}, "geometry": {"coordinates": [-75.389529, 41.342666], "type": "Point"}, "id": "NZYh6bMcI24tZ_AffmS7NdMoet4=", "properties": {"@spider": "usps_collection_boxes", "addr:city": "STERLING", "addr:country": "US", "addr:full": "615 STERLING RD", "addr:postcode": "18463", "addr:state": "PA", "amenity": "post_box", "brand": "United States Postal Service", "brand:wikidata": "Q668687", "collection_times": "Mo-Fr 16:45; Sa 11:15", "name": "USPS COLLECTION BOX - BLUE BOX", "note": "ON 12/24 AND 12/31, THIS BOX MAY BE COLLECTED AS EARLY AS 12 NOON.", "nsi_id": "unitedstatespostalservice-a77078", "operator": "United States Postal Service", "operator:short": "USPS", "operator:type": "public", "operator:wikidata": "Q668687", "ref": "1846300001"}, "type": "Feature"}
{"dataset_attributes": {"@spider": "usps_collection_boxes"}, "geometry": {"coordinates": [-75.389516, 41.342597], "type": "Point"}, "id": "B5nEJVgNViMQ14jkF_YFlECqDyA=", "properties": {"@spider": "usps_collection_boxes", "addr:city": "STERLING", "addr:country": "US", "addr:full": "615 STERLING RD", "addr:postcode": "18463", "addr:state": "PA", "amenity": "post_box", "brand": "United States Postal Service", "brand:wikidata": "Q668687", "collection_times": "Mo-Fr 16:45; Sa 11:15", "name": "USPS COLLECTION BOX - PO LOBBY", "note": "ON 12/24 AND 12/31, THIS BOX MAY BE COLLECTED AS EARLY AS 12 NOON.", "nsi_id": "unitedstatespostalservice-a77078", "operator": "United States Postal Service", "operator:short": "USPS", "operator:type": "public", "operator:wikidata": "Q668687", "ref": "1846300002"}, "type": "Feature"}
{"dataset_attributes": {"@spider": "usps_collection_boxes"}, "geometry": {"coordinates": [-75.389403849, 41.343028334], "type": "Point"}, "id": "pdAhi7XOLEP_swCWuN66jHlUows=", "properties": {"@spider": "usps_collection_boxes", "addr:city": "STERLING", "addr:country": "US", "addr:full": "617 STERLING RD", "addr:postcode": "18463", "addr:state": "PA", "amenity": "post_box", "brand": "United States Postal Service", "brand:wikidata": "Q668687", "collection_times": "Mo-Fr 16:45; Sa 11:15", "name": "USPS COLLECTION BOX - PO LOBBY", "note": "ON 12/24 AND 12/31, THIS BOX MAY BE COLLECTED AS EARLY AS 12 NOON.", "nsi_id": "unitedstatespostalservice-a77078", "operator": "United States Postal Service", "operator:short": "USPS", "operator:type": "public", "operator:wikidata": "Q668687", "ref": "1846300004"}, "type": "Feature"}
{"dataset_attributes": {"@spider": "usps_collection_boxes"}, "geometry": {"coordinates": [-75.1897682, 41.422584], "type": "Point"}, "id": "3_KpMKNI1XQVnkK-MoJbpOBupPs=", "properties": {"@spider": "usps_collection_boxes", "addr:city": "TAFTON", "addr:country": "US", "addr:full": "287 ROUTE 507", "addr:postcode": "18464", "addr:state": "PA", "amenity": "post_box", "brand": "United States Postal Service", "brand:wikidata": "Q668687", "collection_times": "Mo-Fr 16:45; Sa 12:45", "name": "USPS COLLECTION BOX - BLUE BOX", "note": "ON 12/24 AND 12/31, THIS BOX MAY BE COLLECTED AS EARLY AS 12 NOON.", "nsi_id": "unitedstatespostalservice-a77078", "operator": "United States Postal Service", "operator:short": "USPS", "operator:type": "public", "operator:wikidata": "Q668687", "ref": "1846400001"}, "type": "Feature"}
{"dataset_attributes": {"@spider": "usps_collection_boxes"}, "geometry": {"coordinates": [-75.1898236, 41.422638], "type": "Point"}, "id": "a3MRiLZbOPkEtF99mCnOB2hlJZ4=", "properties": {"@spider": "usps_collection_boxes", "addr:city": "TAFTON", "addr:country": "US", "addr:full": "287 ROUTE 507", "addr:postcode": "18464", "addr:state": "PA", "amenity": "post_box", "brand": "United States Postal Service", "brand:wikidata": "Q668687", "collection_times": "Mo-Fr 16:45; Sa 12:45", "name": "USPS COLLECTION BOX - PO LOBBY", "note": "ON 12/24 AND 12/31, THIS BOX MAY BE COLLECTED AS EARLY AS 12 NOON.", "nsi_id": "unitedstatespostalservice-a77078", "operator": "United States Postal Service", "operator:short": "USPS", "operator:type": "public", "operator:wikidata": "Q668687", "ref": "1846400002"}, "type": "Feature"}
{"dataset_attributes": {"@spider": "usps_collection_boxes"}, "geometry": {"coordinates": [-75.195028685, 41.422945267], "type": "Point"}, "id": "lGhXifN7roAQpceLlyMJ64iBX8I=", "properties": {"@spider": "usps_collection_boxes", "addr:city": "TAFTON", "addr:country": "US", "addr:full": "287 ROUTE 507", "addr:postcode": "18464", "addr:state": "PA", "amenity": "post_box", "brand": "United States Postal Service", "brand:wikidata": "Q668687", "collection_times": "Mo-Fr 16:30; Sa 12:05", "name": "USPS COLLECTION BOX - PO LOBBY", "note": "ON 12/24 AND 12/31, THIS BOX MAY BE COLLECTED AS EARLY AS 12 NOON.", "nsi_id": "unitedstatespostalservice-a77078", "operator": "United States Postal Service", "operator:short": "USPS", "operator:type": "public", "operator:wikidata": "Q668687", "ref": "1846400004"}, "type": "Feature"}
{"dataset_attributes": {"@spider": "usps_collection_boxes"}, "geometry": {"coordinates": [-75.515278, 41.863336], "type": "Point"}, "id": "XuD2xuzinV0uuoR9OieN4kheR7E=", "properties": {"@spider": "usps_collection_boxes", "addr:city": "THOMPSON", "addr:country": "US", "addr:full": "412 JACKSON ST", "addr:postcode": "18465", "addr:state": "PA", "amenity": "post_box", "brand": "United States Postal Service", "brand:wikidata": "Q668687", "collection_times": "Mo-Fr 16:45; Sa 11:45", "name": "USPS COLLECTION BOX - BLUE BOX", "note": "ON 12/24 AND 12/31, THIS BOX MAY BE COLLECTED AS EARLY AS 12 NOON.", "nsi_id": "unitedstatespostalservice-a77078", "operator": "United States Postal Service", "operator:short": "USPS", "operator:type": "public", "operator:wikidata": "Q668687", "ref": "1846500001"}, "type": "Feature"}
{"dataset_attributes": {"@spider": "usps_collection_boxes"}, "geometry": {"coordinates": [-75.515307, 41.863358], "type": "Point"}, "id": "AQljvMsSU0aWvAHDYYGZgwe3Kw4=", "properties": {"@spider": "usps_collection_boxes", "addr:city": "THOMPSON", "addr:country": "US", "addr:full": "412 JACKSON ST", "addr:postcode": "18465", "addr:state": "PA", "amenity": "post_box", "brand": "United States Postal Service", "brand:wikidata": "Q668687", "collection_times": "Mo-Fr 16:45; Sa 12:00", "name": "USPS COLLECTION BOX - PO LOBBY", "note": "ON 12/24 AND 12/31, THIS BOX MAY BE COLLECTED AS EARLY AS 12 NOON.", "nsi_id": "unitedstatespostalservice-a77078", "operator": "United States Postal Service", "operator:short": "USPS", "operator:type": "public", "operator:wikidata": "Q668687", "ref": "1846500002"}, "type": "Feature"}
{"dataset_attributes": {"@spider": "usps_collection_boxes"}, "geometry": {"coordinates": [-75.515318714, 41.863266413], "type": "Point"}, "id": "1rPSYBBkPQSDL15Wi2cgGW8PwQo=", "properties": {"@spider": "usps_collection_boxes", "addr:city": "THOMPSON", "addr:country": "US", "addr:full": "412 JACKSON ST", "addr:postcode": "18465", "addr:state": "PA", "amenity": "post_box", "brand": "United States Postal Service", "brand:wikidata": "Q668687", "collection_times": "Mo-Fr 16:45; Sa 12:00", "name": "USPS COLLECTION BOX - PO LOBBY", "note": "ON 12/24 AND 12/31, THIS BOX MAY BE COLLECTED AS EARLY AS 12 NOON.", "nsi_id": "unitedstatespostalservice-a77078", "operator": "United States Postal Service", "operator:short": "USPS", "operator:type": "public", "operator:wikidata": "Q668687", "ref": "1846500004"}, "type": "Feature"}
{"dataset_attributes": {"@spider": "usps_collection_boxes"}, "geometry": {"coordinates": [-75.418773, 41.177718], "type": "Point"}, "id": "CGF3Rv-UMyqrWhPLf8v0_-sM6Sk=", "properties": {"@spider": "usps_collection_boxes", "addr:city": "TOBYHANNA", "addr:country": "US", "addr:full": "659 MAIN ST", "addr:postcode": "18466", "addr:state": "PA", "amenity": "post_box", "brand": "United States Postal Service", "brand:wikidata": "Q668687", "collection_times": "Mo-Fr 16:30; Sa 16:00", "name": "USPS COLLECTION BOX - BLUE BOX", "note": "ON 12/24 AND 12/31, THIS BOX MAY BE COLLECTED AS EARLY AS 12 NOON.", "nsi_id": "unitedstatespostalservice-a77078", "operator": "United States Postal Service", "operator:short": "USPS", "operator:type": "public", "operator:wikidata": "Q668687", "ref": "1846600001"}, "type": "Feature"}
{"dataset_attributes": {"@spider": "usps_collection_boxes"}, "geometry": {"coordinates": [-75.3575646, 41.18584], "type": "Point"}, "id": "AWSfEB7cc15xZtdsgzlGOdTAePo=", "properties": {"@spider": "usps_collection_boxes", "addr:city": "TOBYHANNA", "addr:country": "US", "addr:full": "1 POCONO COUNTRY PL", "addr:postcode": "18466", "addr:state": "PA", "amenity": "post_box", "brand": "United States Postal Service", "brand:wikidata": "Q668687", "collection_times": "Mo-Sa 11:00", "name": "USPS COLLECTION BOX - BLUE BOX", "nsi_id": "unitedstatespostalservice-a77078", "operator": "United States Postal Service", "operator:short": "USPS", "operator:type": "public", "operator:wikidata": "Q668687", "ref": "1846600005"}, "type": "Feature"}
{"dataset_attributes": {"@spider": "usps_collection_boxes"}, "geometry": {"coordinates": [-75.418769, 41.177748], "type": "Point"}, "id": "2W503kWVfnq-wOIA3dgNKjsjMzI=", "properties": {"@spider": "usps_collection_boxes", "addr:city": "TOBYHANNA", "addr:country": "US", "addr:full": "659 MAIN ST", "addr:postcode": "18466", "addr:state": "PA", "amenity": "post_box", "brand": "United States Postal Service", "brand:wikidata": "Q668687", "collection_times": "Mo-Fr 16:30; Sa 16:00", "name": "USPS COLLECTION BOX - PO LOBBY", "note": "ON 12/24 AND 12/31, THIS BOX MAY BE COLLECTED AS EARLY AS 12 NOON.", "nsi_id": "unitedstatespostalservice-a77078", "operator": "United States Postal Service", "operator:short": "USPS", "operator:type": "public", "operator:wikidata": "Q668687", "ref": "1846600009"}, "type": "Feature"}
{"dataset_attributes": {"@spider": "usps_collection_boxes"}, "geometry": {"coordinates": [-75.418892275, 41.177774077], "type": "Point"}, "id": "5BhUQgVxZbqFxQfnW_I3H7lorbY=", "properties": {"@spider": "usps_collection_boxes", "addr:city": "TOBYHANNA", "addr:country": "US", "addr:full": "659 MAIN ST", "addr:postcode": "18466", "addr:state": "PA", "amenity": "post_box", "brand": "United States Postal Service", "brand:wikidata": "Q668687", "collection_times": "Mo-Fr 17:15; Sa 12:15", "name": "USPS COLLECTION BOX - PO LOBBY", "note": "ON 12/24 AND 12/31, THIS BOX MAY BE COLLECTED AS EARLY AS 12 NOON.", "nsi_id": "unitedstatespostalservice-a77078", "operator": "United States Postal Service", "operator:short": "USPS", "operator:type": "public", "operator:wikidata": "Q668687", "ref": "1846600011"}, "type": "Feature"}
{"dataset_attributes": {"@spider": "usps_collection_boxes"}, "geometry": {"coordinates": [-75.131354, 41.691749], "type": "Point"}, "id": "51_5qcZ_Cs8xx-kjkZm-ntMWdAk=", "properties": {"@spider": "usps_collection_boxes", "addr:city": "TYLER HILL", "addr:country": "US", "addr:full": "1080 COCHECTON TPKE", "addr:postcode": "18469", "addr:state": "PA", "amenity": "post_box", "brand": "United States Postal Service", "brand:wikidata": "Q668687", "collection_times": "Mo-Fr 16:00; Sa 11:30", "name": "USPS COLLECTION BOX - BLUE BOX", "note": "ON 12/24 AND 12/31, THIS BOX MAY BE COLLECTED AS EARLY AS 12 NOON.", "nsi_id": "unitedstatespostalservice-a77078", "operator": "United States Postal Service", "operator:short": "USPS", "operator:type": "public", "operator:wikidata": "Q668687", "ref": "1846900001"}, "type": "Feature"}
{"dataset_attributes": {"@spider": "usps_collection_boxes"}, "geometry": {"coordinates": [-75.131379, 41.691782], "type": "Point"}, "id": "bwpWDd5uNhkupzToSvcA49H34-I=", "properties": {"@spider": "usps_collection_boxes", "addr:city": "TYLER HILL", "addr:country": "US", "addr:full": "1080 COCHECTON TPKE", "addr:postcode": "18469", "addr:state": "PA", "amenity": "post_box", "brand": "United States Postal Service", "brand:wikidata": "Q668687", "collection_times": "Mo-Fr 16:00; Sa 11:45", "name": "USPS COLLECTION BOX - PO LOBBY", "note": "ON 12/24 AND 12/31, THIS BOX MAY BE COLLECTED AS EARLY AS 12 NOON.", "nsi_id": "unitedstatespostalservice-a77078", "operator": "United States Postal Service", "operator:short": "USPS", "operator:type": "public", "operator:wikidata": "Q668687", "ref": "1846900002"}, "type": "Feature"}
{"dataset_attributes": {"@spider": "usps_collection_boxes"}, "geometry": {"coordinates": [-75.131959169, 41.69186686], "type": "Point"}, "id": "euMzk-4F_RiBVnKsoJACn6t1lTk=", "properties": {"@spider": "usps_collection_boxes", "addr:city": "TYLER HILL", "addr:country": "US", "addr:full": "1080 COCHECTON TPKE", "addr:postcode": "18469", "addr:state": "PA", "amenity": "post_box", "brand": "United States Postal Service", "brand:wikidata": "Q668687", "collection_times": "Mo-Fr 16:00; Sa 11:45", "name": "USPS COLLECTION BOX - PO LOBBY", "note": "ON 12/24 AND 12/31, THIS BOX MAY BE COLLECTED AS EARLY AS 12 NOON.", "nsi_id": "unitedstatespostalservice-a77078", "operator": "United States Postal Service", "operator:short": "USPS", "operator:type": "public", "operator:wikidata": "Q668687", "ref": "1846900004"}, "type": "Feature"}
{"dataset_attributes": {"@spider": "usps_collection_boxes"}, "geometry": {"coordinates": [-75.492077, 41.71565], "type": "Point"}, "id": "yu59yPEf-dZEqVO9a2b2inIsCi8=", "properties": {"@spider": "usps_collection_boxes", "addr:city": "UNION DALE", "addr:country": "US", "addr:full": "924 S MAIN ST", "addr:postcode": "18470", "addr:state": "PA", "amenity": "post_box", "brand": "United States Postal Service", "brand:wikidata": "Q668687", "collection_times": "Mo-Fr 16:30; Sa 11:30", "name": "USPS COLLECTION BOX - BLUE BOX", "note": "ON 12/24 AND 12/31, THIS BOX MAY BE COLLECTED AS EARLY AS 12 NOON.", "nsi_id": "unitedstatespostalservice-a77078", "operator": "United States Postal Service", "operator:short": "USPS", "operator:type": "public", "operator:wikidata": "Q668687", "ref": "1847000001"}, "type": "Feature"}
{"dataset_attributes": {"@spider": "usps_collection_boxes"}, "geometry": {"coordinates": [-75.49211, 41.715681], "type": "Point"}, "id": "I-1cqWkxy4XGY6ivFjbWraZ5U6Q=", "properties": {"@spider": "usps_collection_boxes", "addr:city": "UNION DALE", "addr:country": "US", "addr:full": "924 S MAIN ST", "addr:postcode": "18470", "addr:state": "PA", "amenity": "post_box", "brand": "United States Postal Service", "brand:wikidata": "Q668687", "collection_times": "Mo-Fr 16:30; Sa 11:30", "name": "USPS COLLECTION BOX - PO LOBBY", "note": "ON 12/24 AND 12/31, THIS BOX MAY BE COLLECTED AS EARLY AS 12 NOON.", "nsi_id": "unitedstatespostalservice-a77078", "operator": "United States Postal Service", "operator:short": "USPS", "operator:type": "public", "operator:wikidata": "Q668687", "ref": "1847000002"}, "type": "Feature"}
{"dataset_attributes": {"@spider": "usps_collection_boxes"}, "geometry": {"coordinates": [-75.492061721, 41.715643734], "type": "Point"}, "id": "5mAGhzBGSxNRiFUm3i_rb3QCsHU=", "properties": {"@spider": "usps_collection_boxes", "addr:city": "UNION DALE", "addr:country": "US", "addr:full": "924 S MAIN ST", "addr:postcode": "18470", "addr:state": "PA", "amenity": "post_box", "brand": "United States Postal Service", "brand:wikidata": "Q668687", "collection_times": "Mo-Fr 16:45; Sa 11:30", "name": "USPS COLLECTION BOX - PO LOBBY", "note": "ON 12/24 AND 12/31, THIS BOX MAY BE COLLECTED AS EARLY AS 12 NOON.", "nsi_id": "unitedstatespostalservice-a77078", "operator": "United States Postal Service", "operator:short": "USPS", "operator:type": "public", "operator:wikidata": "Q668687", "ref": "1847000004"}, "type": "Feature"}
{"dataset_attributes": {"@spider": "usps_collection_boxes"}, "geometry": {"coordinates": [-75.70568, 41.525723], "type": "Point"}, "id": "qIj5sKh1pIqMSLWLSTEG0nMJ8pU=", "properties": {"@spider": "usps_collection_boxes", "addr:city": "WAVERLY", "addr:country": "US", "addr:full": "1115 N ABINGTON RD", "addr:postcode": "18471", "addr:state": "PA", "amenity": "post_box", "brand": "United States Postal Service", "brand:wikidata": "Q668687", "collection_times": "Mo-Fr 16:15; Sa 11:45", "name": "USPS COLLECTION BOX - BLUE BOX", "note": "ON 12/24 AND 12/31, THIS BOX MAY BE COLLECTED AS EARLY AS 12 NOON.", "nsi_id": "unitedstatespostalservice-a77078", "operator": "United States Postal Service", "operator:short": "USPS", "operator:type": "public", "operator:wikidata": "Q668687", "ref": "1847100001"}, "type": "Feature"}
{"dataset_attributes": {"@spider": "usps_collection_boxes"}, "geometry": {"coordinates": [-75.705658, 41.525631], "type": "Point"}, "id": "uHoNEyZNDkO2RGEwhhJrejKwMF4=", "properties": {"@spider": "usps_collection_boxes", "addr:city": "WAVERLY", "addr:country": "US", "addr:full": "1115 N ABINGTON RD", "addr:postcode": "18471", "addr:state": "PA", "amenity": "post_box", "brand": "United States Postal Service", "brand:wikidata": "Q668687", "collection_times": "Mo-Fr 16:15; Sa 11:45", "name": "USPS COLLECTION BOX - PO LOBBY", "note": "ON 12/24 AND 12/31, THIS BOX MAY BE COLLECTED AS EARLY AS 12 NOON.", "nsi_id": "unitedstatespostalservice-a77078", "operator": "United States Postal Service", "operator:short": "USPS", "operator:type": "public", "operator:wikidata": "Q668687", "ref": "1847100003"}, "type": "Feature"}
{"dataset_attributes": {"@spider": "usps_collection_boxes"}, "geometry": {"coordinates": [-75.70570807, 41.525687874], "type": "Point"}, "id": "LY6XDIabtirzibSQAdEnWFXmisc=", "properties": {"@spider": "usps_collection_boxes", "addr:city": "WAVERLY", "addr:country": "US", "addr:full": "1115 N ABINGTON RD", "addr:postcode": "18471", "addr:state": "PA", "amenity": "post_box", "brand": "United States Postal Service", "brand:wikidata": "Q668687", "collection_times": "Mo-Fr 16:30; Sa 12:00", "name": "USPS COLLECTION BOX - PO LOBBY", "note": "ON 12/24 AND 12/31, THIS BOX MAY BE COLLECTED AS EARLY AS 12 NOON.", "nsi_id": "unitedstatespostalservice-a77078", "operator": "United States Postal Service", "operator:short": "USPS", "operator:type": "public", "operator:wikidata": "Q668687", "ref": "1847100005"}, "type": "Feature"}
{"dataset_attributes": {"@spider": "usps_collection_boxes"}, "geometry": {"coordinates": [-75.407264, 41.583395], "type": "Point"}, "id": "__eB0YxBa5LZ79TOSjT4MToi2k8=", "properties": {"@spider": "usps_collection_boxes", "addr:city": "WAYMART", "addr:country": "US", "addr:full": "310 HONESDALE RD", "addr:postcode": "18472", "addr:state": "PA", "amenity": "post_box", "brand": "United States Postal Service", "brand:wikidata": "Q668687", "collection_times": "Mo-Fr 16:45; Sa 12:00", "name": "USPS COLLECTION BOX - BLUE BOX", "note": "ON 12/24 AND 12/31, THIS BOX MAY BE COLLECTED AS EARLY AS 12 NOON.", "nsi_id": "unitedstatespostalservice-a77078", "operator": "United States Postal Service", "operator:short": "USPS", "operator:type": "public", "operator:wikidata": "Q668687", "ref": "1847200001"}, "type": "Feature"}
{"dataset_attributes": {"@spider": "usps_collection_boxes"}, "geometry": {"coordinates": [-75.407223, 41.583431], "type": "Point"}, "id": "eEg2qL0t3PD00C1ePmUW4-_GU7k=", "properties": {"@spider": "usps_collection_boxes", "addr:city": "WAYMART", "addr:country": "US", "addr:full": "310 HONESDALE RD", "addr:postcode": "18472", "addr:state": "PA", "amenity": "post_box", "brand": "United States Postal Service", "brand:wikidata": "Q668687", "collection_times": "Mo-Fr 16:45; Sa 12:00", "name": "USPS COLLECTION BOX - PO LOBBY", "note": "ON 12/24 AND 12/31, THIS BOX MAY BE COLLECTED AS EARLY AS 12 NOON.", "nsi_id": "unitedstatespostalservice-a77078", "operator": "United States Postal Service", "operator:short": "USPS", "operator:type": "public", "operator:wikidata": "Q668687", "ref": "1847200005"}, "type": "Feature"}
{"dataset_attributes": {"@spider": "usps_collection_boxes"}, "geometry": {"coordinates": [-75.407337063, 41.583355828], "type": "Point"}, "id": "d0D8BZFgZtEhf6qzoNY8CCVD8rY=", "properties": {"@spider": "usps_collection_boxes", "addr:city": "WAYMART", "addr:country": "US", "addr:full": "310 HONESDALE RD", "addr:postcode": "18472", "addr:state": "PA", "amenity": "post_box", "brand": "United States Postal Service", "brand:wikidata": "Q668687", "collection_times": "Mo-Fr 16:45; Sa 12:05", "name": "USPS COLLECTION BOX - PO LOBBY", "note": "ON 12/24 AND 12/31, THIS BOX MAY BE COLLECTED AS EARLY AS 12 NOON.", "nsi_id": "unitedstatespostalservice-a77078", "operator": "United States Postal Service", "operator:short": "USPS", "operator:type": "public", "operator:wikidata": "Q668687", "ref": "1847200007"}, "type": "Feature"}
{"dataset_attributes": {"@spider": "usps_collection_boxes"}, "geometry": {"coordinates": [-75.210753, 41.528763], "type": "Point"}, "id": "MSHyst9Vc3VW-RkA7TCiuW3IdHM=", "properties": {"@spider": "usps_collection_boxes", "addr:city": "WHITE MILLS", "addr:country": "US", "addr:full": "744 TEXAS PALMYRA HWY", "addr:postcode": "18473", "addr:state": "PA", "amenity": "post_box", "brand": "United States Postal Service", "brand:wikidata": "Q668687", "collection_times": "Mo-Fr 16:45; Sa 11:45", "name": "USPS COLLECTION BOX - BLUE BOX", "note": "ON 12/24 AND 12/31, THIS BOX MAY BE COLLECTED AS EARLY AS 12 NOON.", "nsi_id": "unitedstatespostalservice-a77078", "operator": "United States Postal Service", "operator:short": "USPS", "operator:type": "public", "operator:wikidata": "Q668687", "ref": "1847300001"}, "type": "Feature"}
{"dataset_attributes": {"@spider": "usps_collection_boxes"}, "geometry": {"coordinates": [-75.21078, 41.528745], "type": "Point"}, "id": "QBVKgY4T_vClvmcL2G9j4LQ-WBM=", "properties": {"@spider": "usps_collection_boxes", "addr:city": "WHITE MILLS", "addr:country": "US", "addr:full": "744 TEXAS PALMYRA HWY", "addr:postcode": "18473", "addr:state": "PA", "amenity": "post_box", "brand": "United States Postal Service", "brand:wikidata": "Q668687", "collection_times": "Mo-Fr 16:45; Sa 11:45", "name": "USPS COLLECTION BOX - PO LOBBY", "note": "ON 12/24 AND 12/31, THIS BOX MAY BE COLLECTED AS EARLY AS 12 NOON.", "nsi_id": "unitedstatespostalservice-a77078", "operator": "United States Postal Service", "operator:short": "USPS", "operator:type": "public", "operator:wikidata": "Q668687", "ref": "1847300002"}, "type": "Feature"}
{"dataset_attributes": {"@spider": "usps_collection_boxes"}, "geometry": {"coordinates": [-75.210559211, 41.528632157], "type": "Point"}, "id": "Y-DAODuOi8fc4XWUNPD6LYmGTmU=", "properties": {"@spider": "usps_collection_boxes", "addr:city": "WHITE MILLS", "addr:country": "US", "addr:full": "744 TEXAS PALMYRA HWY", "addr:postcode": "18473", "addr:state": "PA", "amenity": "post_box", "brand": "United States Postal Service", "brand:wikidata": "Q668687", "collection_times": "Mo-Fr 16:45; Sa 11:45", "name": "USPS COLLECTION BOX - PO LOBBY", "note": "ON 12/24 AND 12/31, THIS BOX MAY BE COLLECTED AS EARLY AS 12 NOON.", "nsi_id": "unitedstatespostalservice-a77078", "operator": "United States Postal Service", "operator:short": "USPS", "operator:type": "public", "operator:wikidata": "Q668687", "ref": "1847300004"}, "type": "Feature"}
