{"dataset_attributes": {"@spider": "usps_collection_boxes", "spider:collection_time": "2023-11-13T08:26:09.210319"}, "geometry": {"coordinates": [-75.6638763, 41.409771], "type": "Point"}, "id": "JmeEOqLk5kLURjbJV5PXRSAxcgY=", "properties": {"@spider": "usps_collection_boxes", "addr:city": "SCRANTON", "addr:country": "US", "addr:full": "204 WYOMING AVE", "addr:postcode": "18503", "addr:state": "PA", "amenity": "post_box", "brand": "United States Postal Service", "brand:wikidata": "Q668687", "collection_times": "Mo-Fr 16:45", "name": "USPS COLLECTION BOX - BLUE BOX", "note": "ON 12/24 AND 12/31, THIS BOX MAY BE COLLECTED AS EARLY AS 12 NOON.", "nsi_id": "unitedstatespostalservice-a77078", "operator": "United States Postal Service", "operator:short": "USPS", "operator:type": "public", "operator:wikidata": "Q668687", "ref": "1850300001"}, "type": "Feature"}
{"dataset_attributes": {"@spider": "usps_collection_boxes", "spider:collection_time": "2023-11-13T08:26:09.210319"}, "geometry": {"coordinates": [-75.6638927, 41.407812], "type": "Point"}, "id": "fT9SXL7MqYI_Mt9GLVTdd0qNgH8=", "properties": {"@spider": "usps_collection_boxes", "addr:city": "SCRANTON", "addr:country": "US", "addr:full": "142 N WASHINGTON AVE", "addr:postcode": "18503", "addr:state": "PA", "amenity": "post_box", "brand": "United States Postal Service", "brand:wikidata": "Q668687", "collection_times": "Mo-Fr 16:30", "name": "USPS COLLECTION BOX - BLUE BOX", "note": "ON 12/24 AND 12/31, THIS BOX MAY BE COLLECTED AS EARLY AS 12 NOON.", "nsi_id": "unitedstatespostalservice-a77078", "operator": "United States Postal Service", "operator:short": "USPS", "operator:type": "public", "operator:wikidata": "Q668687", "ref": "1850300004"}, "type": "Feature"}
{"dataset_attributes": {"@spider": "usps_collection_boxes", "spider:collection_time": "2023-11-13T08:26:09.210319"}, "geometry": {"coordinates": [-75.6646862, 41.407028], "type": "Point"}, "id": "HvI4j-dqeqJrRqT6yi0djoxVz0Y=", "properties": {"@spider": "usps_collection_boxes", "addr:city": "SCRANTON", "addr:country": "US", "addr:full": "108 N WASHINGTON AVE", "addr:postcode": "18503", "addr:state": "PA", "amenity": "post_box", "brand": "United States Postal Service", "brand:wikidata": "Q668687", "collection_times": "Mo-Fr 16:30", "name": "USPS COLLECTION BOX - BLUE BOX", "note": "ON 12/24 AND 12/31, THIS BOX MAY BE COLLECTED AS EARLY AS 12 NOON.", "nsi_id": "unitedstatespostalservice-a77078", "operator": "United States Postal Service", "operator:short": "USPS", "operator:type": "public", "operator:wikidata": "Q668687", "ref": "1850300005"}, "type": "Feature"}
{"dataset_attributes": {"@spider": "usps_collection_boxes", "spider:collection_time": "2023-11-13T08:26:09.210319"}, "geometry": {"coordinates": [-75.6639463, 41.411624], "type": "Point"}, "id": "vVflpUxIW2PG00WvcTRyaBw3xzs=", "properties": {"@spider": "usps_collection_boxes", "addr:city": "SCRANTON", "addr:country": "US", "addr:full": "338 PENN AVE", "addr:postcode": "18503", "addr:state": "PA", "amenity": "post_box", "brand": "United States Postal Service", "brand:wikidata": "Q668687", "collection_times": "Mo-Fr 17:00; Sa 11:00", "name": "USPS COLLECTION BOX - BLUE BOX", "note": "ON 12/24 AND 12/31, THIS BOX MAY BE COLLECTED AS EARLY AS 12 NOON.", "nsi_id": "unitedstatespostalservice-a77078", "operator": "United States Postal Service", "operator:short": "USPS", "operator:type": "public", "operator:wikidata": "Q668687", "ref": "1850300006"}, "type": "Feature"}
{"dataset_attributes": {"@spider": "usps_collection_boxes", "spider:collection_time": "2023-11-13T08:26:09.210319"}, "geometry": {"coordinates": [-75.6651703, 41.410795], "type": "Point"}, "id": "D-AuljeHtE9weUhQd9Yr566Dd1E=", "properties": {"@spider": "usps_collection_boxes", "addr:city": "SCRANTON", "addr:country": "US", "addr:full": "228 LINDEN ST", "addr:postcode": "18503", "addr:state": "PA", "amenity": "post_box", "brand": "United States Postal Service", "brand:wikidata": "Q668687", "collection_times": "Mo-Fr 17:00", "name": "USPS COLLECTION BOX - BLUE BOX", "note": "ON 12/24 AND 12/31, THIS BOX MAY BE COLLECTED AS EARLY AS 12 NOON.", "nsi_id": "unitedstatespostalservice-a77078", "operator": "United States Postal Service", "operator:short": "USPS", "operator:type": "public", "operator:wikidata": "Q668687", "ref": "1850300007"}, "type": "Feature"}
{"dataset_attributes": {"@spider": "usps_collection_boxes", "spider:collection_time": "2023-11-13T08:26:09.210319"}, "geometry": {"coordinates": [-75.6620989, 41.406822], "type": "Point"}, "id": "ogWhRBjZJutfGu1zX0V8XPQEl7Q=", "properties": {"@spider": "usps_collection_boxes", "addr:city": "SCRANTON", "addr:country": "US", "addr:full": "200 ADAMS AVE", "addr:postcode": "18503", "addr:state": "PA", "amenity": "post_box", "brand": "United States Postal Service", "brand:wikidata": "Q668687", "collection_times": "Mo-Fr 13:00", "name": "USPS COLLECTION BOX - BLUE BOX", "note": "ON 12/24 AND 12/31, THIS BOX MAY BE COLLECTED AS EARLY AS 12 NOON.", "nsi_id": "unitedstatespostalservice-a77078", "operator": "United States Postal Service", "operator:short": "USPS", "operator:type": "public", "operator:wikidata": "Q668687", "ref": "1850300010"}, "type": "Feature"}
{"dataset_attributes": {"@spider": "usps_collection_boxes", "spider:collection_time": "2023-11-13T08:26:09.210319"}, "geometry": {"coordinates": [-75.6624858, 41.407335], "type": "Point"}, "id": "7kbtBYIyADhIR07rivHKWsimXvw=", "properties": {"@spider": "usps_collection_boxes", "addr:city": "SCRANTON", "addr:country": "US", "addr:full": "538 SPRUCE ST", "addr:postcode": "18503", "addr:state": "PA", "amenity": "post_box", "brand": "United States Postal Service", "brand:wikidata": "Q668687", "collection_times": "Mo-Fr 16:45", "name": "USPS COLLECTION BOX - BLUE BOX", "note": "ON 12/24 AND 12/31, THIS BOX MAY BE COLLECTED AS EARLY AS 12 NOON.", "nsi_id": "unitedstatespostalservice-a77078", "operator": "United States Postal Service", "operator:short": "USPS", "operator:type": "public", "operator:wikidata": "Q668687", "ref": "1850300012"}, "type": "Feature"}
{"dataset_attributes": {"@spider": "usps_collection_boxes", "spider:collection_time": "2023-11-13T08:26:09.210319"}, "geometry": {"coordinates": [-75.6635129, 41.406032], "type": "Point"}, "id": "v8kGYWaWehOolfYBs_eJJupQFrI=", "properties": {"@spider": "usps_collection_boxes", "addr:city": "SCRANTON", "addr:country": "US", "addr:full": "100 ADAMS AVE", "addr:postcode": "18503", "addr:state": "PA", "amenity": "post_box", "brand": "United States Postal Service", "brand:wikidata": "Q668687", "collection_times": "Mo-Fr 13:45", "name": "USPS COLLECTION BOX - BLUE BOX", "note": "ON 12/24 AND 12/31, THIS BOX MAY BE COLLECTED AS EARLY AS 12 NOON.", "nsi_id": "unitedstatespostalservice-a77078", "operator": "United States Postal Service", "operator:short": "USPS", "operator:type": "public", "operator:wikidata": "Q668687", "ref": "1850300013"}, "type": "Feature"}
{"dataset_attributes": {"@spider": "usps_collection_boxes", "spider:collection_time": "2023-11-13T08:26:09.210319"}, "geometry": {"coordinates": [-75.6651976, 41.406884], "type": "Point"}, "id": "Z066aG79JFf4tfB7JboDw7ODROs=", "properties": {"@spider": "usps_collection_boxes", "addr:city": "SCRANTON", "addr:country": "US", "addr:full": "432 LACKAWANNA AVE", "addr:postcode": "18503", "addr:state": "PA", "amenity": "post_box", "brand": "United States Postal Service", "brand:wikidata": "Q668687", "collection_times": "Mo-Fr 17:00", "name": "USPS COLLECTION BOX - BLUE BOX", "note": "ON 12/24 AND 12/31, THIS BOX MAY BE COLLECTED AS EARLY AS 12 NOON.", "nsi_id": "unitedstatespostalservice-a77078", "operator": "United States Postal Service", "operator:short": "USPS", "operator:type": "public", "operator:wikidata": "Q668687", "ref": "1850300014"}, "type": "Feature"}
{"dataset_attributes": {"@spider": "usps_collection_boxes", "spider:collection_time": "2023-11-13T08:26:09.210319"}, "geometry": {"coordinates": [-75.6611752, 41.405805], "type": "Point"}, "id": "4sCjZ7k9XaA7RW1R8dGJ9opDT_w=", "properties": {"@spider": "usps_collection_boxes", "addr:city": "SCRANTON", "addr:country": "US", "addr:full": "700 LACKAWANNA AVE", "addr:postcode": "18503", "addr:state": "PA", "amenity": "post_box", "brand": "United States Postal Service", "brand:wikidata": "Q668687", "collection_times": "Mo-Fr 17:00", "name": "USPS COLLECTION BOX - BLUE BOX", "note": "ON 12/24 AND 12/31, THIS BOX MAY BE COLLECTED AS EARLY AS 12 NOON.", "nsi_id": "unitedstatespostalservice-a77078", "operator": "United States Postal Service", "operator:short": "USPS", "operator:type": "public", "operator:wikidata": "Q668687", "ref": "1850300015"}, "type": "Feature"}
{"dataset_attributes": {"@spider": "usps_collection_boxes", "spider:collection_time": "2023-11-13T08:26:09.210319"}, "geometry": {"coordinates": [-75.6610619, 41.410249], "type": "Point"}, "id": "J3qjBjjb30lUsyUnnZh9mhDSq0U=", "properties": {"@spider": "usps_collection_boxes", "addr:city": "SCRANTON", "addr:country": "US", "addr:full": "340 N WASHINGTON AVE", "addr:postcode": "18503", "addr:state": "PA", "amenity": "post_box", "brand": "United States Postal Service", "brand:wikidata": "Q668687", "collection_times": "Mo-Fr 16:15", "name": "USPS COLLECTION BOX - BLUE BOX", "note": "ON 12/24 AND 12/31, THIS BOX MAY BE COLLECTED AS EARLY AS 12 NOON.", "nsi_id": "unitedstatespostalservice-a77078", "operator": "United States Postal Service", "operator:short": "USPS", "operator:type": "public", "operator:wikidata": "Q668687", "ref": "1850300019"}, "type": "Feature"}
{"dataset_attributes": {"@spider": "usps_collection_boxes", "spider:collection_time": "2023-11-13T08:26:09.210319"}, "geometry": {"coordinates": [-75.6616886, 41.409778], "type": "Point"}, "id": "EkVUiKT2ojBKphUGNJqaSv1X0A8=", "properties": {"@spider": "usps_collection_boxes", "addr:city": "SCRANTON", "addr:country": "US", "addr:full": "327 N WASHINGTON AVE", "addr:postcode": "18503", "addr:state": "PA", "amenity": "post_box", "brand": "United States Postal Service", "brand:wikidata": "Q668687", "collection_times": "Mo-Fr 15:30", "name": "USPS COLLECTION BOX - BLUE BOX", "note": "ON 12/24 AND 12/31, THIS BOX MAY BE COLLECTED AS EARLY AS 12 NOON.", "nsi_id": "unitedstatespostalservice-a77078", "operator": "United States Postal Service", "operator:short": "USPS", "operator:type": "public", "operator:wikidata": "Q668687", "ref": "1850300020"}, "type": "Feature"}
{"dataset_attributes": {"@spider": "usps_collection_boxes", "spider:collection_time": "2023-11-13T08:26:09.210319"}, "geometry": {"coordinates": [-75.6622873, 41.408838], "type": "Point"}, "id": "fdZJqoC_wn3urJ6rBWCQtYizYa4=", "properties": {"@spider": "usps_collection_boxes", "addr:city": "SCRANTON", "addr:country": "US", "addr:full": "507 LINDEN ST", "addr:postcode": "18503", "addr:state": "PA", "amenity": "post_box", "brand": "United States Postal Service", "brand:wikidata": "Q668687", "collection_times": "Mo-Fr 14:00", "name": "USPS COLLECTION BOX - BLUE BOX", "note": "ON 12/24 AND 12/31, THIS BOX MAY BE COLLECTED AS EARLY AS 12 NOON.", "nsi_id": "unitedstatespostalservice-a77078", "operator": "United States Postal Service", "operator:short": "USPS", "operator:type": "public", "operator:wikidata": "Q668687", "ref": "1850300021"}, "type": "Feature"}
{"dataset_attributes": {"@spider": "usps_collection_boxes", "spider:collection_time": "2023-11-13T08:26:09.210319"}, "geometry": {"coordinates": [-75.6610213, 41.408422], "type": "Point"}, "id": "DKnxIHyPgswl3-d9xZBFOzrJg54=", "properties": {"@spider": "usps_collection_boxes", "addr:city": "SCRANTON", "addr:country": "US", "addr:full": "301 ADAMS AVE", "addr:postcode": "18503", "addr:state": "PA", "amenity": "post_box", "brand": "United States Postal Service", "brand:wikidata": "Q668687", "collection_times": "Mo-Fr 14:45", "name": "USPS COLLECTION BOX - BLUE BOX", "note": "ON 12/24 AND 12/31, THIS BOX MAY BE COLLECTED AS EARLY AS 12 NOON.", "nsi_id": "unitedstatespostalservice-a77078", "operator": "United States Postal Service", "operator:short": "USPS", "operator:type": "public", "operator:wikidata": "Q668687", "ref": "1850300022"}, "type": "Feature"}
{"dataset_attributes": {"@spider": "usps_collection_boxes", "spider:collection_time": "2023-11-13T08:26:09.210319"}, "geometry": {"coordinates": [-75.6656131, 41.409074], "type": "Point"}, "id": "9dEwj3kw9EXeV7wHap_z8GFCFrs=", "properties": {"@spider": "usps_collection_boxes", "addr:city": "SCRANTON", "addr:country": "US", "addr:full": "321 SPRUCE ST", "addr:postcode": "18503", "addr:state": "PA", "amenity": "post_box", "brand": "United States Postal Service", "brand:wikidata": "Q668687", "collection_times": "Mo-Sa 12:00", "name": "USPS COLLECTION BOX - BLUE BOX", "nsi_id": "unitedstatespostalservice-a77078", "operator": "United States Postal Service", "operator:short": "USPS", "operator:type": "public", "operator:wikidata": "Q668687", "ref": "1850300025"}, "type": "Feature"}
{"dataset_attributes": {"@spider": "usps_collection_boxes", "spider:collection_time": "2023-11-13T08:26:09.210319"}, "geometry": {"coordinates": [-75.6672654, 41.408662], "type": "Point"}, "id": "Ac03flXGcv0Z2L6AFtK7eVdD0dg=", "properties": {"@spider": "usps_collection_boxes", "addr:city": "SCRANTON", "addr:country": "US", "addr:full": "101 PENN AVE", "addr:postcode": "18503", "addr:state": "PA", "amenity": "post_box", "brand": "United States Postal Service", "brand:wikidata": "Q668687", "collection_times": "Mo-Fr 17:00", "name": "USPS COLLECTION BOX - BLUE BOX", "note": "ON 12/24 AND 12/31, THIS BOX MAY BE COLLECTED AS EARLY AS 12 NOON.", "nsi_id": "unitedstatespostalservice-a77078", "operator": "United States Postal Service", "operator:short": "USPS", "operator:type": "public", "operator:wikidata": "Q668687", "ref": "1850300026"}, "type": "Feature"}
{"dataset_attributes": {"@spider": "usps_collection_boxes", "spider:collection_time": "2023-11-13T08:26:09.210319"}, "geometry": {"coordinates": [-75.6674369, 41.410501], "type": "Point"}, "id": "iZ405EuyJK-8LVPK4Iu4Tf9WUuY=", "properties": {"@spider": "usps_collection_boxes", "addr:city": "SCRANTON", "addr:country": "US", "addr:full": "201 FRANKLIN AVE", "addr:postcode": "18503", "addr:state": "PA", "amenity": "post_box", "brand": "United States Postal Service", "brand:wikidata": "Q668687", "collection_times": "Mo-Fr 14:00", "name": "USPS COLLECTION BOX - BLUE BOX", "note": "ON 12/24 AND 12/31, THIS BOX MAY BE COLLECTED AS EARLY AS 12 NOON.", "nsi_id": "unitedstatespostalservice-a77078", "operator": "United States Postal Service", "operator:short": "USPS", "operator:type": "public", "operator:wikidata": "Q668687", "ref": "1850300028"}, "type": "Feature"}
{"dataset_attributes": {"@spider": "usps_collection_boxes", "spider:collection_time": "2023-11-13T08:26:09.210319"}, "geometry": {"coordinates": [-75.6679813, 41.410008], "type": "Point"}, "id": "FZomapfhrsrO8SRlhY5nl4qGFHc=", "properties": {"@spider": "usps_collection_boxes", "addr:city": "SCRANTON", "addr:country": "US", "addr:full": "135 FRANKLIN AVE", "addr:postcode": "18503", "addr:state": "PA", "amenity": "post_box", "brand": "United States Postal Service", "brand:wikidata": "Q668687", "collection_times": "Mo-Fr 14:00", "name": "USPS COLLECTION BOX - BLUE BOX", "note": "ON 12/24 AND 12/31, THIS BOX MAY BE COLLECTED AS EARLY AS 12 NOON.", "nsi_id": "unitedstatespostalservice-a77078", "operator": "United States Postal Service", "operator:short": "USPS", "operator:type": "public", "operator:wikidata": "Q668687", "ref": "1850300029"}, "type": "Feature"}
{"dataset_attributes": {"@spider": "usps_collection_boxes", "spider:collection_time": "2023-11-13T08:26:09.210319"}, "geometry": {"coordinates": [-75.6622606, 41.41118], "type": "Point"}, "id": "d_L340Q4UbB4QzCPFXJuWRuvdjU=", "properties": {"@spider": "usps_collection_boxes", "addr:city": "SCRANTON", "addr:country": "US", "addr:full": "400 WYOMING AVE", "addr:postcode": "18503", "addr:state": "PA", "amenity": "post_box", "brand": "United States Postal Service", "brand:wikidata": "Q668687", "collection_times": "Mo-Fr 16:45", "name": "USPS COLLECTION BOX - BLUE BOX", "note": "ON 12/24 AND 12/31, THIS BOX MAY BE COLLECTED AS EARLY AS 12 NOON.", "nsi_id": "unitedstatespostalservice-a77078", "operator": "United States Postal Service", "operator:short": "USPS", "operator:type": "public", "operator:wikidata": "Q668687", "ref": "1850300030"}, "type": "Feature"}
{"dataset_attributes": {"@spider": "usps_collection_boxes", "spider:collection_time": "2023-11-13T08:26:09.210319"}, "geometry": {"coordinates": [-75.661362, 41.41078], "type": "Point"}, "id": "z8a0RNquydLaPOSAJ7st4dBBcEo=", "properties": {"@spider": "usps_collection_boxes", "addr:city": "SCRANTON", "addr:country": "US", "addr:full": "499 MULBERRY ST", "addr:postcode": "18503", "addr:state": "PA", "amenity": "post_box", "brand": "United States Postal Service", "brand:wikidata": "Q668687", "collection_times": "Mo-Fr 15:15", "name": "USPS COLLECTION BOX - BLUE BOX", "note": "ON 12/24 AND 12/31, THIS BOX MAY BE COLLECTED AS EARLY AS 12 NOON.", "nsi_id": "unitedstatespostalservice-a77078", "operator": "United States Postal Service", "operator:short": "USPS", "operator:type": "public", "operator:wikidata": "Q668687", "ref": "1850300031"}, "type": "Feature"}
{"dataset_attributes": {"@spider": "usps_collection_boxes", "spider:collection_time": "2023-11-13T08:26:09.210319"}, "geometry": {"coordinates": [-75.6601733, 41.411148], "type": "Point"}, "id": "g3m4apvf85kvpLWnFVvyvqW0pws=", "properties": {"@spider": "usps_collection_boxes", "addr:city": "SCRANTON", "addr:country": "US", "addr:full": "425 N WASHINGTON AVE", "addr:postcode": "18503", "addr:state": "PA", "amenity": "post_box", "brand": "United States Postal Service", "brand:wikidata": "Q668687", "collection_times": "Mo-Fr 16:15", "name": "USPS COLLECTION BOX - BLUE BOX", "note": "ON 12/24 AND 12/31, THIS BOX MAY BE COLLECTED AS EARLY AS 12 NOON.", "nsi_id": "unitedstatespostalservice-a77078", "operator": "United States Postal Service", "operator:short": "USPS", "operator:type": "public", "operator:wikidata": "Q668687", "ref": "1850300032"}, "type": "Feature"}
{"dataset_attributes": {"@spider": "usps_collection_boxes", "spider:collection_time": "2023-11-13T08:26:09.210319"}, "geometry": {"coordinates": [-75.6633144, 41.410263], "type": "Point"}, "id": "fZaOpIZRrP9fKaAOTava0bmu-c0=", "properties": {"@spider": "usps_collection_boxes", "addr:city": "SCRANTON", "addr:country": "US", "addr:full": "310 WYOMING AVE", "addr:postcode": "18503", "addr:state": "PA", "amenity": "post_box", "brand": "United States Postal Service", "brand:wikidata": "Q668687", "collection_times": "Mo-Fr 16:45", "name": "USPS COLLECTION BOX - BLUE BOX", "note": "ON 12/24 AND 12/31, THIS BOX MAY BE COLLECTED AS EARLY AS 12 NOON.", "nsi_id": "unitedstatespostalservice-a77078", "operator": "United States Postal Service", "operator:short": "USPS", "operator:type": "public", "operator:wikidata": "Q668687", "ref": "1850300037"}, "type": "Feature"}
{"dataset_attributes": {"@spider": "usps_collection_boxes", "spider:collection_time": "2023-11-13T08:26:09.210319"}, "geometry": {"coordinates": [-75.6624679, 41.409266], "type": "Point"}, "id": "LcJmHdliipKHfVj5E0DT4gB1iOM=", "properties": {"@spider": "usps_collection_boxes", "addr:city": "SCRANTON", "addr:country": "US", "addr:full": "235 N WASHINGTON AVE", "addr:postcode": "18503", "addr:state": "PA", "amenity": "post_box", "brand": "United States Postal Service", "brand:wikidata": "Q668687", "collection_times": "Mo-Fr 17:00; Sa 14:00", "name": "USPS COLLECTION BOX - BLUE BOX", "note": "ON 12/24 AND 12/31, THIS BOX MAY BE COLLECTED AS EARLY AS 12 NOON.", "nsi_id": "unitedstatespostalservice-a77078", "operator": "United States Postal Service", "operator:short": "USPS", "operator:type": "public", "operator:wikidata": "Q668687", "ref": "1850300043"}, "type": "Feature"}
{"dataset_attributes": {"@spider": "usps_collection_boxes", "spider:collection_time": "2023-11-13T08:26:09.210319"}, "geometry": {"coordinates": [-75.6624749, 41.409261], "type": "Point"}, "id": "HmOoZrUwrG9a7GLHjxemyGb-TU8=", "properties": {"@spider": "usps_collection_boxes", "addr:city": "SCRANTON", "addr:country": "US", "addr:full": "235 N WASHINGTON AVE", "addr:postcode": "18503", "addr:state": "PA", "amenity": "post_box", "brand": "United States Postal Service", "brand:wikidata": "Q668687", "collection_times": "Mo-Fr 17:00; Sa 14:00", "name": "USPS COLLECTION BOX - BLUE BOX", "note": "ON 12/24 AND 12/31, THIS BOX MAY BE COLLECTED AS EARLY AS 12 NOON.", "nsi_id": "unitedstatespostalservice-a77078", "operator": "United States Postal Service", "operator:short": "USPS", "operator:type": "public", "operator:wikidata": "Q668687", "ref": "1850300044"}, "type": "Feature"}
{"dataset_attributes": {"@spider": "usps_collection_boxes", "spider:collection_time": "2023-11-13T08:26:09.210319"}, "geometry": {"coordinates": [-75.6659947, 41.407377], "type": "Point"}, "id": "IkcCmqh23mvJKOZprnclp39kxoA=", "properties": {"@spider": "usps_collection_boxes", "addr:city": "SCRANTON", "addr:country": "US", "addr:full": "409 LACKAWANNA AVE", "addr:postcode": "18503", "addr:state": "PA", "amenity": "post_box", "brand": "United States Postal Service", "brand:wikidata": "Q668687", "collection_times": "Mo-Fr 16:30", "name": "USPS COLLECTION BOX - BLUE BOX", "note": "ON 12/24 AND 12/31, THIS BOX MAY BE COLLECTED AS EARLY AS 12 NOON.", "nsi_id": "unitedstatespostalservice-a77078", "operator": "United States Postal Service", "operator:short": "USPS", "operator:type": "public", "operator:wikidata": "Q668687", "ref": "1850300047"}, "type": "Feature"}
{"dataset_attributes": {"@spider": "usps_collection_boxes", "spider:collection_time": "2023-11-13T08:26:09.210319"}, "geometry": {"coordinates": [-75.6633747, 41.41275], "type": "Point"}, "id": "Pct5WNTvW0RsStrZuxtHnDrcYfw=", "properties": {"@spider": "usps_collection_boxes", "addr:city": "SCRANTON", "addr:country": "US", "addr:full": "401 PENN AVE", "addr:postcode": "18503", "addr:state": "PA", "amenity": "post_box", "brand": "United States Postal Service", "brand:wikidata": "Q668687", "collection_times": "Mo-Fr 11:00", "name": "USPS COLLECTION BOX - BLUE BOX", "nsi_id": "unitedstatespostalservice-a77078", "operator": "United States Postal Service", "operator:short": "USPS", "operator:type": "public", "operator:wikidata": "Q668687", "ref": "1850300048"}, "type": "Feature"}
{"dataset_attributes": {"@spider": "usps_collection_boxes", "spider:collection_time": "2023-11-13T08:26:09.210319"}, "geometry": {"coordinates": [-75.6634547, 41.408149], "type": "Point"}, "id": "0cIFJThEFk81u76paqG58fL20cA=", "properties": {"@spider": "usps_collection_boxes", "addr:city": "SCRANTON", "addr:country": "US", "addr:full": "205 N WASHINGTON AVE", "addr:postcode": "18503", "addr:state": "PA", "amenity": "post_box", "brand": "United States Postal Service", "brand:wikidata": "Q668687", "collection_times": "Mo-Fr 16:15", "name": "USPS COLLECTION BOX - BLUE BOX", "note": "ON 12/24 AND 12/31, THIS BOX MAY BE COLLECTED AS EARLY AS 12 NOON.", "nsi_id": "unitedstatespostalservice-a77078", "operator": "United States Postal Service", "operator:short": "USPS", "operator:type": "public", "operator:wikidata": "Q668687", "ref": "1850300049"}, "type": "Feature"}
{"dataset_attributes": {"@spider": "usps_collection_boxes", "spider:collection_time": "2023-11-13T08:26:09.210319"}, "geometry": {"coordinates": [-75.6616012, 41.412075], "type": "Point"}, "id": "qE5_neFvnQe18UzRCx4ygi5NNzM=", "properties": {"@spider": "usps_collection_boxes", "addr:city": "SCRANTON", "addr:country": "US", "addr:full": "431 WYOMING AVE", "addr:postcode": "18503", "addr:state": "PA", "amenity": "post_box", "brand": "United States Postal Service", "brand:wikidata": "Q668687", "collection_times": "Mo-Fr 16:45", "name": "USPS COLLECTION BOX - BLUE BOX", "note": "ON 12/24 AND 12/31, THIS BOX MAY BE COLLECTED AS EARLY AS 12 NOON.", "nsi_id": "unitedstatespostalservice-a77078", "operator": "United States Postal Service", "operator:short": "USPS", "operator:type": "public", "operator:wikidata": "Q668687", "ref": "1850300052"}, "type": "Feature"}
{"dataset_attributes": {"@spider": "usps_collection_boxes", "spider:collection_time": "2023-11-13T08:26:09.210319"}, "geometry": {"coordinates": [-75.6626818, 41.411019], "type": "Point"}, "id": "5LtZikOEcIe2OxuP-uRTR6p58MQ=", "properties": {"@spider": "usps_collection_boxes", "addr:city": "SCRANTON", "addr:country": "US", "addr:full": "345 WYOMING AVE", "addr:postcode": "18503", "addr:state": "PA", "amenity": "post_box", "brand": "United States Postal Service", "brand:wikidata": "Q668687", "collection_times": "Mo-Fr 17:00", "name": "USPS COLLECTION BOX - BLUE BOX", "note": "ON 12/24 AND 12/31, THIS BOX MAY BE COLLECTED AS EARLY AS 12 NOON.", "nsi_id": "unitedstatespostalservice-a77078", "operator": "United States Postal Service", "operator:short": "USPS", "operator:type": "public", "operator:wikidata": "Q668687", "ref": "1850300056"}, "type": "Feature"}
{"dataset_attributes": {"@spider": "usps_collection_boxes", "spider:collection_time": "2023-11-13T08:26:09.210319"}, "geometry": {"coordinates": [-75.6666838, 41.407848], "type": "Point"}, "id": "w4KhCfqJcxd4-L7I5i2u--1sGRg=", "properties": {"@spider": "usps_collection_boxes", "addr:city": "SCRANTON", "addr:country": "US", "addr:full": "100 THE MALL AT STEAMTOWN", "addr:postcode": "18503", "addr:state": "PA", "amenity": "post_box", "brand": "United States Postal Service", "brand:wikidata": "Q668687", "collection_times": "Mo-Fr 17:00; Sa 12:45", "name": "USPS COLLECTION BOX - BLUE BOX", "note": "ON 12/24 AND 12/31, THIS BOX MAY BE COLLECTED AS EARLY AS 12 NOON.", "nsi_id": "unitedstatespostalservice-a77078", "operator": "United States Postal Service", "operator:short": "USPS", "operator:type": "public", "operator:wikidata": "Q668687", "ref": "1850300057"}, "type": "Feature"}
{"dataset_attributes": {"@spider": "usps_collection_boxes", "spider:collection_time": "2023-11-13T08:26:09.210319"}, "geometry": {"coordinates": [-75.6656258, 41.410028], "type": "Point"}, "id": "IsgsQMvUMBfd9iHADVA6zzSnPnU=", "properties": {"@spider": "usps_collection_boxes", "addr:city": "SCRANTON", "addr:country": "US", "addr:full": "220 PENN AVE", "addr:postcode": "18503", "addr:state": "PA", "amenity": "post_box", "brand": "United States Postal Service", "brand:wikidata": "Q668687", "collection_times": "Mo-Fr 14:45", "name": "USPS COLLECTION BOX - BLUE BOX", "note": "ON 12/24 AND 12/31, THIS BOX MAY BE COLLECTED AS EARLY AS 12 NOON.", "nsi_id": "unitedstatespostalservice-a77078", "operator": "United States Postal Service", "operator:short": "USPS", "operator:type": "public", "operator:wikidata": "Q668687", "ref": "1850300058"}, "type": "Feature"}
{"dataset_attributes": {"@spider": "usps_collection_boxes", "spider:collection_time": "2023-11-13T08:26:09.210319"}, "geometry": {"coordinates": [-75.6656199, 41.410008], "type": "Point"}, "id": "6xTEKFcHcGjHu_fiisZwTfZ2F5Y=", "properties": {"@spider": "usps_collection_boxes", "addr:city": "SCRANTON", "addr:country": "US", "addr:full": "220 PENN AVE", "addr:postcode": "18503", "addr:state": "PA", "amenity": "post_box", "brand": "United States Postal Service", "brand:wikidata": "Q668687", "collection_times": "Mo-Fr 14:45", "name": "USPS COLLECTION BOX - BLUE BOX", "note": "ON 12/24 AND 12/31, THIS BOX MAY BE COLLECTED AS EARLY AS 12 NOON.", "nsi_id": "unitedstatespostalservice-a77078", "operator": "United States Postal Service", "operator:short": "USPS", "operator:type": "public", "operator:wikidata": "Q668687", "ref": "1850300059"}, "type": "Feature"}
{"dataset_attributes": {"@spider": "usps_collection_boxes", "spider:collection_time": "2023-11-13T08:26:09.210319"}, "geometry": {"coordinates": [-75.6648046, 41.409076], "type": "Point"}, "id": "i2BgEabE-MbUBI5TmuzZTpfJQM0=", "properties": {"@spider": "usps_collection_boxes", "addr:city": "SCRANTON", "addr:country": "US", "addr:full": "207 WYOMING AVE", "addr:postcode": "18503", "addr:state": "PA", "amenity": "post_box", "brand": "United States Postal Service", "brand:wikidata": "Q668687", "collection_times": "Mo-Fr 17:00; Sa 12:45", "name": "USPS COLLECTION BOX - BLUE BOX", "note": "ON 12/24 AND 12/31, THIS BOX MAY BE COLLECTED AS EARLY AS 12 NOON.", "nsi_id": "unitedstatespostalservice-a77078", "operator": "United States Postal Service", "operator:short": "USPS", "operator:type": "public", "operator:wikidata": "Q668687", "ref": "1850300061"}, "type": "Feature"}
{"dataset_attributes": {"@spider": "usps_collection_boxes", "spider:collection_time": "2023-11-13T08:26:09.210319"}, "geometry": {"coordinates": [-75.6654436, 41.409087], "type": "Point"}, "id": "5RaIrPZVxn6AQfgYyosrW_cckHs=", "properties": {"@spider": "usps_collection_boxes", "addr:city": "SCRANTON", "addr:country": "US", "addr:full": "326 SPRUCE ST", "addr:postcode": "18503", "addr:state": "PA", "amenity": "post_box", "brand": "United States Postal Service", "brand:wikidata": "Q668687", "collection_times": "Mo-Fr 12:30", "name": "USPS COLLECTION BOX - BLUE BOX", "note": "ON 12/24 AND 12/31, THIS BOX MAY BE COLLECTED AS EARLY AS 12 NOON.", "nsi_id": "unitedstatespostalservice-a77078", "operator": "United States Postal Service", "operator:short": "USPS", "operator:type": "public", "operator:wikidata": "Q668687", "ref": "1850300065"}, "type": "Feature"}
{"dataset_attributes": {"@spider": "usps_collection_boxes", "spider:collection_time": "2023-11-13T08:26:09.210319"}, "geometry": {"coordinates": [-75.6645214, 41.40735], "type": "Point"}, "id": "S-_pge54ASa__E4DUDFcU8yJgYk=", "properties": {"@spider": "usps_collection_boxes", "addr:city": "SCRANTON", "addr:country": "US", "addr:full": "116 N WASHINGTON AVE", "addr:postcode": "18503", "addr:state": "PA", "amenity": "post_box", "brand": "United States Postal Service", "brand:wikidata": "Q668687", "collection_times": "Mo-Fr 16:30", "name": "USPS COLLECTION BOX - BLUE BOX", "note": "ON 12/24 AND 12/31, THIS BOX MAY BE COLLECTED AS EARLY AS 12 NOON.", "nsi_id": "unitedstatespostalservice-a77078", "operator": "United States Postal Service", "operator:short": "USPS", "operator:type": "public", "operator:wikidata": "Q668687", "ref": "1850300069"}, "type": "Feature"}
{"dataset_attributes": {"@spider": "usps_collection_boxes", "spider:collection_time": "2023-11-13T08:26:09.210319"}, "geometry": {"coordinates": [-75.663063, 41.409135], "type": "Point"}, "id": "XzW2rD7miY5jU1qBHF91k8An45M=", "properties": {"@spider": "usps_collection_boxes", "addr:city": "SCRANTON", "addr:country": "US", "addr:full": "235 N WASHINGTON AVE", "addr:postcode": "18503", "addr:state": "PA", "amenity": "post_box", "brand": "United States Postal Service", "brand:wikidata": "Q668687", "collection_times": "Mo-Fr 17:00", "name": "USPS COLLECTION BOX - PO LOBBY", "note": "ON 12/24 AND 12/31, THIS BOX MAY BE COLLECTED AS EARLY AS 12 NOON.", "nsi_id": "unitedstatespostalservice-a77078", "operator": "United States Postal Service", "operator:short": "USPS", "operator:type": "public", "operator:wikidata": "Q668687", "ref": "1850300073"}, "type": "Feature"}
{"dataset_attributes": {"@spider": "usps_collection_boxes", "spider:collection_time": "2023-11-13T08:26:09.210319"}, "geometry": {"coordinates": [-75.6691584, 41.409607], "type": "Point"}, "id": "WvopO8azqTyP7H4DvqqRNweEb_U=", "properties": {"@spider": "usps_collection_boxes", "addr:city": "SCRANTON", "addr:country": "US", "addr:full": "100 LACKAWANNA AVE", "addr:postcode": "18503", "addr:state": "PA", "amenity": "post_box", "brand": "United States Postal Service", "brand:wikidata": "Q668687", "collection_times": "Mo-Fr 12:45", "name": "USPS COLLECTION BOX - BLUE BOX", "note": "ON 12/24 AND 12/31, THIS BOX MAY BE COLLECTED AS EARLY AS 12 NOON.", "nsi_id": "unitedstatespostalservice-a77078", "operator": "United States Postal Service", "operator:short": "USPS", "operator:type": "public", "operator:wikidata": "Q668687", "ref": "1850300077"}, "type": "Feature"}
{"dataset_attributes": {"@spider": "usps_collection_boxes", "spider:collection_time": "2023-11-13T08:26:09.210319"}, "geometry": {"coordinates": [-75.6691429, 41.40964], "type": "Point"}, "id": "09XyC0hvPGbjxQJ8Otpxgg2wG0o=", "properties": {"@spider": "usps_collection_boxes", "addr:city": "SCRANTON", "addr:country": "US", "addr:full": "100 LACKAWANNA AVE", "addr:postcode": "18503", "addr:state": "PA", "amenity": "post_box", "brand": "United States Postal Service", "brand:wikidata": "Q668687", "collection_times": "Mo-Fr 12:45", "name": "USPS COLLECTION BOX - BLUE BOX", "note": "ON 12/24 AND 12/31, THIS BOX MAY BE COLLECTED AS EARLY AS 12 NOON.", "nsi_id": "unitedstatespostalservice-a77078", "operator": "United States Postal Service", "operator:short": "USPS", "operator:type": "public", "operator:wikidata": "Q668687", "ref": "1850300078"}, "type": "Feature"}
{"dataset_attributes": {"@spider": "usps_collection_boxes", "spider:collection_time": "2023-11-13T08:26:09.210319"}, "geometry": {"coordinates": [-75.670674, 41.409213], "type": "Point"}, "id": "KOd55K15onU-FV8U3nvUOU-5RnU=", "properties": {"@spider": "usps_collection_boxes", "addr:city": "SCRANTON", "addr:country": "US", "addr:full": "100 THE MALL AT STEAMTOWN", "addr:postcode": "18503", "addr:state": "PA", "amenity": "post_box", "brand": "United States Postal Service", "brand:wikidata": "Q668687", "collection_times": "Mo-Fr 17:00; Sa 12:45", "name": "USPS COLLECTION BOX - PO LOBBY", "note": "ON 12/24 AND 12/31, THIS BOX MAY BE COLLECTED AS EARLY AS 12 NOON.", "nsi_id": "unitedstatespostalservice-a77078", "operator": "United States Postal Service", "operator:short": "USPS", "operator:type": "public", "operator:wikidata": "Q668687", "ref": "1850300080"}, "type": "Feature"}
{"dataset_attributes": {"@spider": "usps_collection_boxes", "spider:collection_time": "2023-11-13T08:26:09.210319"}, "geometry": {"coordinates": [-75.6614572, 41.410697], "type": "Point"}, "id": "j3ydi0AV7xJBzZugGi65oDxfdXk=", "properties": {"@spider": "usps_collection_boxes", "addr:city": "SCRANTON", "addr:country": "US", "addr:full": "426 MULBERRY ST", "addr:postcode": "18503", "addr:state": "PA", "amenity": "post_box", "brand": "United States Postal Service", "brand:wikidata": "Q668687", "collection_times": "Mo-Fr 16:15", "name": "USPS COLLECTION BOX - BLUE BOX", "note": "ON 12/24 AND 12/31, THIS BOX MAY BE COLLECTED AS EARLY AS 12 NOON.", "nsi_id": "unitedstatespostalservice-a77078", "operator": "United States Postal Service", "operator:short": "USPS", "operator:type": "public", "operator:wikidata": "Q668687", "ref": "1850300081"}, "type": "Feature"}
{"dataset_attributes": {"@spider": "usps_collection_boxes", "spider:collection_time": "2023-11-13T08:26:09.210319"}, "geometry": {"coordinates": [-75.663063, 41.409135], "type": "Point"}, "id": "4PxRX8Q1s8VvTht1GL9QrcrQEnM=", "properties": {"@spider": "usps_collection_boxes", "addr:city": "SCRANTON", "addr:country": "US", "addr:full": "235 N WASHINGTON AVE OFC", "addr:postcode": "18503", "addr:state": "PA", "amenity": "post_box", "brand": "United States Postal Service", "brand:wikidata": "Q668687", "collection_times": "Mo-Fr 17:00", "name": "USPS COLLECTION BOX - PO LOBBY", "note": "ON 12/24 AND 12/31, THIS BOX MAY BE COLLECTED AS EARLY AS 12 NOON.", "nsi_id": "unitedstatespostalservice-a77078", "operator": "United States Postal Service", "operator:short": "USPS", "operator:type": "public", "operator:wikidata": "Q668687", "ref": "1850300084"}, "type": "Feature"}
{"dataset_attributes": {"@spider": "usps_collection_boxes", "spider:collection_time": "2023-11-13T08:26:09.210319"}, "geometry": {"coordinates": [-75.670705251, 41.409256027], "type": "Point"}, "id": "FL777D6h7e88Bt76DeUAxeAD-Z4=", "properties": {"@spider": "usps_collection_boxes", "addr:city": "SCRANTON", "addr:country": "US", "addr:full": "100 THE MALL AT STEAMTOWN", "addr:postcode": "18503", "addr:state": "PA", "amenity": "post_box", "brand": "United States Postal Service", "brand:wikidata": "Q668687", "collection_times": "Mo-Fr 18:00; Sa 16:00", "name": "USPS COLLECTION BOX - PO LOBBY", "note": "ON 12/24 AND 12/31, THIS BOX MAY BE COLLECTED AS EARLY AS 12 NOON.", "nsi_id": "unitedstatespostalservice-a77078", "operator": "United States Postal Service", "operator:short": "USPS", "operator:type": "public", "operator:wikidata": "Q668687", "ref": "1850300085"}, "type": "Feature"}
{"dataset_attributes": {"@spider": "usps_collection_boxes", "spider:collection_time": "2023-11-13T08:26:09.210319"}, "geometry": {"coordinates": [-75.6789913, 41.41345], "type": "Point"}, "id": "hTTqb0GlFqQjdB_YkPlktCDQu3o=", "properties": {"@spider": "usps_collection_boxes", "addr:city": "SCRANTON", "addr:country": "US", "addr:full": "198 N MAIN AVE", "addr:postcode": "18504", "addr:state": "PA", "amenity": "post_box", "brand": "United States Postal Service", "brand:wikidata": "Q668687", "collection_times": "Mo-Sa 10:30", "name": "USPS COLLECTION BOX - BLUE BOX", "nsi_id": "unitedstatespostalservice-a77078", "operator": "United States Postal Service", "operator:short": "USPS", "operator:type": "public", "operator:wikidata": "Q668687", "ref": "1850400001"}, "type": "Feature"}
{"dataset_attributes": {"@spider": "usps_collection_boxes", "spider:collection_time": "2023-11-13T08:26:09.210319"}, "geometry": {"coordinates": [-75.6752112, 41.418207], "type": "Point"}, "id": "E-r9CbkqKot7qaSfBV1BvkFXF3Q=", "properties": {"@spider": "usps_collection_boxes", "addr:city": "SCRANTON", "addr:country": "US", "addr:full": "601 N MAIN AVE", "addr:postcode": "18504", "addr:state": "PA", "amenity": "post_box", "brand": "United States Postal Service", "brand:wikidata": "Q668687", "collection_times": "Mo-Fr 11:00", "name": "USPS COLLECTION BOX - BLUE BOX", "nsi_id": "unitedstatespostalservice-a77078", "operator": "United States Postal Service", "operator:short": "USPS", "operator:type": "public", "operator:wikidata": "Q668687", "ref": "1850400002"}, "type": "Feature"}
{"dataset_attributes": {"@spider": "usps_collection_boxes", "spider:collection_time": "2023-11-13T08:26:09.210319"}, "geometry": {"coordinates": [-75.6758859, 41.426365], "type": "Point"}, "id": "gnjQvmxpu5YudpnrpH0tFEIpsnA=", "properties": {"@spider": "usps_collection_boxes", "addr:city": "SCRANTON", "addr:country": "US", "addr:full": "1526 FARR ST", "addr:postcode": "18504", "addr:state": "PA", "amenity": "post_box", "brand": "United States Postal Service", "brand:wikidata": "Q668687", "collection_times": "Mo-Sa 15:00", "name": "USPS COLLECTION BOX - BLUE BOX", "note": "ON 12/24 AND 12/31, THIS BOX MAY BE COLLECTED AS EARLY AS 12 NOON.", "nsi_id": "unitedstatespostalservice-a77078", "operator": "United States Postal Service", "operator:short": "USPS", "operator:type": "public", "operator:wikidata": "Q668687", "ref": "1850400004"}, "type": "Feature"}
{"dataset_attributes": {"@spider": "usps_collection_boxes", "spider:collection_time": "2023-11-13T08:26:09.210319"}, "geometry": {"coordinates": [-75.6978959, 41.421253], "type": "Point"}, "id": "gpO52Tjuv0U8jd88RBx03L9I4G0=", "properties": {"@spider": "usps_collection_boxes", "addr:city": "SCRANTON", "addr:country": "US", "addr:full": "2504 JACKSON ST", "addr:postcode": "18504", "addr:state": "PA", "amenity": "post_box", "brand": "United States Postal Service", "brand:wikidata": "Q668687", "collection_times": "Mo-Fr 10:30", "name": "USPS COLLECTION BOX - BLUE BOX", "nsi_id": "unitedstatespostalservice-a77078", "operator": "United States Postal Service", "operator:short": "USPS", "operator:type": "public", "operator:wikidata": "Q668687", "ref": "1850400015"}, "type": "Feature"}
{"dataset_attributes": {"@spider": "usps_collection_boxes", "spider:collection_time": "2023-11-13T08:26:09.210319"}, "geometry": {"coordinates": [-75.6844587, 41.414578], "type": "Point"}, "id": "J26j6hoDlUfH2hLaznujc2DGeEQ=", "properties": {"@spider": "usps_collection_boxes", "addr:city": "SCRANTON", "addr:country": "US", "addr:full": "1420 JACKSON ST", "addr:postcode": "18504", "addr:state": "PA", "amenity": "post_box", "brand": "United States Postal Service", "brand:wikidata": "Q668687", "collection_times": "Mo-Sa 11:45", "name": "USPS COLLECTION BOX - BLUE BOX", "nsi_id": "unitedstatespostalservice-a77078", "operator": "United States Postal Service", "operator:short": "USPS", "operator:type": "public", "operator:wikidata": "Q668687", "ref": "1850400019"}, "type": "Feature"}
{"dataset_attributes": {"@spider": "usps_collection_boxes", "spider:collection_time": "2023-11-13T08:26:09.210319"}, "geometry": {"coordinates": [-75.6851323, 41.412331], "type": "Point"}, "id": "S-B2a6FRsW-833PosD9g7VxP2P4=", "properties": {"@spider": "usps_collection_boxes", "addr:city": "SCRANTON", "addr:country": "US", "addr:full": "1402 WASHBURN ST", "addr:postcode": "18504", "addr:state": "PA", "amenity": "post_box", "brand": "United States Postal Service", "brand:wikidata": "Q668687", "collection_times": "Mo-Fr 12:00", "name": "USPS COLLECTION BOX - BLUE BOX", "nsi_id": "unitedstatespostalservice-a77078", "operator": "United States Postal Service", "operator:short": "USPS", "operator:type": "public", "operator:wikidata": "Q668687", "ref": "1850400024"}, "type": "Feature"}
{"dataset_attributes": {"@spider": "usps_collection_boxes", "spider:collection_time": "2023-11-13T08:26:09.210319"}, "geometry": {"coordinates": [-75.6934434, 41.412676], "type": "Point"}, "id": "_OmNyyQ_NhzShqgarxCucQWkxpU=", "properties": {"@spider": "usps_collection_boxes", "addr:city": "SCRANTON", "addr:country": "US", "addr:full": "1801 LUZERNE ST", "addr:postcode": "18504", "addr:state": "PA", "amenity": "post_box", "brand": "United States Postal Service", "brand:wikidata": "Q668687", "collection_times": "Mo-Sa 14:00", "name": "USPS COLLECTION BOX - BLUE BOX", "note": "ON 12/24 AND 12/31, THIS BOX MAY BE COLLECTED AS EARLY AS 12 NOON.", "nsi_id": "unitedstatespostalservice-a77078", "operator": "United States Postal Service", "operator:short": "USPS", "operator:type": "public", "operator:wikidata": "Q668687", "ref": "1850400027"}, "type": "Feature"}
{"dataset_attributes": {"@spider": "usps_collection_boxes", "spider:collection_time": "2023-11-13T08:26:09.210319"}, "geometry": {"coordinates": [-75.6925013, 41.41594], "type": "Point"}, "id": "ZfKLbAQ6mE3Nouk-9jll0UTTOIU=", "properties": {"@spider": "usps_collection_boxes", "addr:city": "SCRANTON", "addr:country": "US", "addr:full": "2002 WASHBURN ST", "addr:postcode": "18504", "addr:state": "PA", "amenity": "post_box", "brand": "United States Postal Service", "brand:wikidata": "Q668687", "collection_times": "Mo-Fr 11:30", "name": "USPS COLLECTION BOX - BLUE BOX", "nsi_id": "unitedstatespostalservice-a77078", "operator": "United States Postal Service", "operator:short": "USPS", "operator:type": "public", "operator:wikidata": "Q668687", "ref": "1850400030"}, "type": "Feature"}
{"dataset_attributes": {"@spider": "usps_collection_boxes", "spider:collection_time": "2023-11-13T08:26:09.210319"}, "geometry": {"coordinates": [-75.6872699, 41.40081], "type": "Point"}, "id": "rrUp6qbiRhIM_DyT72cU-fMOHnc=", "properties": {"@spider": "usps_collection_boxes", "addr:city": "SCRANTON", "addr:country": "US", "addr:full": "1101 S MAIN AVE", "addr:postcode": "18504", "addr:state": "PA", "amenity": "post_box", "brand": "United States Postal Service", "brand:wikidata": "Q668687", "collection_times": "Mo-Fr 10:00", "name": "USPS COLLECTION BOX - BLUE BOX", "nsi_id": "unitedstatespostalservice-a77078", "operator": "United States Postal Service", "operator:short": "USPS", "operator:type": "public", "operator:wikidata": "Q668687", "ref": "1850400041"}, "type": "Feature"}
{"dataset_attributes": {"@spider": "usps_collection_boxes", "spider:collection_time": "2023-11-13T08:26:09.210319"}, "geometry": {"coordinates": [-75.6807453, 41.411872], "type": "Point"}, "id": "PP719fHZYnnpXbPsmd6IIaVFe_k=", "properties": {"@spider": "usps_collection_boxes", "addr:city": "SCRANTON", "addr:country": "US", "addr:full": "127 S MAIN AVE", "addr:postcode": "18504", "addr:state": "PA", "amenity": "post_box", "brand": "United States Postal Service", "brand:wikidata": "Q668687", "collection_times": "Mo-Fr 17:00; Sa 14:00", "name": "USPS COLLECTION BOX - BLUE BOX", "note": "ON 12/24 AND 12/31, THIS BOX MAY BE COLLECTED AS EARLY AS 12 NOON.", "nsi_id": "unitedstatespostalservice-a77078", "operator": "United States Postal Service", "operator:short": "USPS", "operator:type": "public", "operator:wikidata": "Q668687", "ref": "1850400046"}, "type": "Feature"}
{"dataset_attributes": {"@spider": "usps_collection_boxes", "spider:collection_time": "2023-11-13T08:26:09.210319"}, "geometry": {"coordinates": [-75.6759899, 41.416217], "type": "Point"}, "id": "xw_cHXor4vflUSSHWpBSLTxCwcA=", "properties": {"@spider": "usps_collection_boxes", "addr:city": "SCRANTON", "addr:country": "US", "addr:full": "500 N MAIN AVE", "addr:postcode": "18504", "addr:state": "PA", "amenity": "post_box", "brand": "United States Postal Service", "brand:wikidata": "Q668687", "collection_times": "Mo-Sa 10:30", "name": "USPS COLLECTION BOX - BLUE BOX", "nsi_id": "unitedstatespostalservice-a77078", "operator": "United States Postal Service", "operator:short": "USPS", "operator:type": "public", "operator:wikidata": "Q668687", "ref": "1850400050"}, "type": "Feature"}
{"dataset_attributes": {"@spider": "usps_collection_boxes", "spider:collection_time": "2023-11-13T08:26:09.210319"}, "geometry": {"coordinates": [-75.6793877, 41.405161], "type": "Point"}, "id": "u42mcIs8KfORxgKfNgOILVf5gTk=", "properties": {"@spider": "usps_collection_boxes", "addr:city": "SCRANTON", "addr:country": "US", "addr:full": "611 LUZERNE ST", "addr:postcode": "18504", "addr:state": "PA", "amenity": "post_box", "brand": "United States Postal Service", "brand:wikidata": "Q668687", "collection_times": "Mo-Sa 12:30", "name": "USPS COLLECTION BOX - BLUE BOX", "note": "ON 12/24 AND 12/31, THIS BOX MAY BE COLLECTED AS EARLY AS 12 NOON.", "nsi_id": "unitedstatespostalservice-a77078", "operator": "United States Postal Service", "operator:short": "USPS", "operator:type": "public", "operator:wikidata": "Q668687", "ref": "1850400052"}, "type": "Feature"}
{"dataset_attributes": {"@spider": "usps_collection_boxes", "spider:collection_time": "2023-11-13T08:26:09.210319"}, "geometry": {"coordinates": [-75.68065, 41.411692], "type": "Point"}, "id": "JHWCISkoqmO-_2LYWniIsq_Zaxs=", "properties": {"@spider": "usps_collection_boxes", "addr:city": "SCRANTON", "addr:country": "US", "addr:full": "127 S MAIN AVE", "addr:postcode": "18504", "addr:state": "PA", "amenity": "post_box", "brand": "United States Postal Service", "brand:wikidata": "Q668687", "collection_times": "Mo-Fr 16:45; Sa 13:00", "name": "USPS COLLECTION BOX - PO LOBBY", "note": "ON 12/24 AND 12/31, THIS BOX MAY BE COLLECTED AS EARLY AS 12 NOON.", "nsi_id": "unitedstatespostalservice-a77078", "operator": "United States Postal Service", "operator:short": "USPS", "operator:type": "public", "operator:wikidata": "Q668687", "ref": "1850400054"}, "type": "Feature"}
{"dataset_attributes": {"@spider": "usps_collection_boxes", "spider:collection_time": "2023-11-13T08:26:09.210319"}, "geometry": {"coordinates": [-75.68086785, 41.411828589], "type": "Point"}, "id": "GWQwloqMd8AAp9zAAcJn6Y7hxCk=", "properties": {"@spider": "usps_collection_boxes", "addr:city": "SCRANTON", "addr:country": "US", "addr:full": "127 S MAIN AVE", "addr:postcode": "18504", "addr:state": "PA", "amenity": "post_box", "brand": "United States Postal Service", "brand:wikidata": "Q668687", "collection_times": "Mo-Fr 17:00; Sa 13:00", "name": "USPS COLLECTION BOX - PO LOBBY", "note": "ON 12/24 AND 12/31, THIS BOX MAY BE COLLECTED AS EARLY AS 12 NOON.", "nsi_id": "unitedstatespostalservice-a77078", "operator": "United States Postal Service", "operator:short": "USPS", "operator:type": "public", "operator:wikidata": "Q668687", "ref": "1850400057"}, "type": "Feature"}
{"dataset_attributes": {"@spider": "usps_collection_boxes", "spider:collection_time": "2023-11-13T08:26:09.210319"}, "geometry": {"coordinates": [-75.6636815, 41.397817], "type": "Point"}, "id": "WJeJXIioV5blT2bmAl3G0DyWR_M=", "properties": {"@spider": "usps_collection_boxes", "addr:city": "SCRANTON", "addr:country": "US", "addr:full": "609 PROSPECT AVE", "addr:postcode": "18505", "addr:state": "PA", "amenity": "post_box", "brand": "United States Postal Service", "brand:wikidata": "Q668687", "collection_times": "Mo-Sa 12:00", "name": "USPS COLLECTION BOX - BLUE BOX", "nsi_id": "unitedstatespostalservice-a77078", "operator": "United States Postal Service", "operator:short": "USPS", "operator:type": "public", "operator:wikidata": "Q668687", "ref": "1850500004"}, "type": "Feature"}
{"dataset_attributes": {"@spider": "usps_collection_boxes", "spider:collection_time": "2023-11-13T08:26:09.210319"}, "geometry": {"coordinates": [-75.6562918901, 41.3935260258], "type": "Point"}, "id": "39xrmvcyTi8JlpYYUnFp7wXHYgw=", "properties": {"@spider": "usps_collection_boxes", "addr:city": "SCRANTON", "addr:country": "US", "addr:full": "601 STAFFORD AVE", "addr:postcode": "18505", "addr:state": "PA", "amenity": "post_box", "brand": "United States Postal Service", "brand:wikidata": "Q668687", "collection_times": "Mo-Sa 09:00", "name": "USPS COLLECTION BOX - BLUE BOX", "nsi_id": "unitedstatespostalservice-a77078", "operator": "United States Postal Service", "operator:short": "USPS", "operator:type": "public", "operator:wikidata": "Q668687", "ref": "1850500016"}, "type": "Feature"}
{"dataset_attributes": {"@spider": "usps_collection_boxes", "spider:collection_time": "2023-11-13T08:26:09.210319"}, "geometry": {"coordinates": [-75.6688324, 41.403492], "type": "Point"}, "id": "l-abzZqdRmm3i6KYAlevZeW-qBk=", "properties": {"@spider": "usps_collection_boxes", "addr:city": "SCRANTON", "addr:country": "US", "addr:full": "400 S WASHINGTON AVE", "addr:postcode": "18505", "addr:state": "PA", "amenity": "post_box", "brand": "United States Postal Service", "brand:wikidata": "Q668687", "collection_times": "Mo-Fr 09:00", "name": "USPS COLLECTION BOX - BLUE BOX", "nsi_id": "unitedstatespostalservice-a77078", "operator": "United States Postal Service", "operator:short": "USPS", "operator:type": "public", "operator:wikidata": "Q668687", "ref": "1850500030"}, "type": "Feature"}
{"dataset_attributes": {"@spider": "usps_collection_boxes", "spider:collection_time": "2023-11-13T08:26:09.210319"}, "geometry": {"coordinates": [-75.6612543, 41.402713], "type": "Point"}, "id": "0y_aF9YWSq74CoNwD7zBW3P_bCQ=", "properties": {"@spider": "usps_collection_boxes", "addr:city": "SCRANTON", "addr:country": "US", "addr:full": "101 PITTSTON AVE", "addr:postcode": "18505", "addr:state": "PA", "amenity": "post_box", "brand": "United States Postal Service", "brand:wikidata": "Q668687", "collection_times": "Mo-Sa 10:00", "name": "USPS COLLECTION BOX - BLUE BOX", "nsi_id": "unitedstatespostalservice-a77078", "operator": "United States Postal Service", "operator:short": "USPS", "operator:type": "public", "operator:wikidata": "Q668687", "ref": "1850500034"}, "type": "Feature"}
{"dataset_attributes": {"@spider": "usps_collection_boxes", "spider:collection_time": "2023-11-13T08:26:09.210319"}, "geometry": {"coordinates": [-75.6273228, 41.40039], "type": "Point"}, "id": "NGOVpXBLPmkIGTJpq-1SdaKDMzk=", "properties": {"@spider": "usps_collection_boxes", "addr:city": "SCRANTON", "addr:country": "US", "addr:full": "56 LAUREL DR", "addr:postcode": "18505", "addr:state": "PA", "amenity": "post_box", "brand": "United States Postal Service", "brand:wikidata": "Q668687", "collection_times": "Mo-Sa 13:30", "name": "USPS COLLECTION BOX - BLUE BOX", "note": "ON 12/24 AND 12/31, THIS BOX MAY BE COLLECTED AS EARLY AS 12 NOON.", "nsi_id": "unitedstatespostalservice-a77078", "operator": "United States Postal Service", "operator:short": "USPS", "operator:type": "public", "operator:wikidata": "Q668687", "ref": "1850500043"}, "type": "Feature"}
{"dataset_attributes": {"@spider": "usps_collection_boxes", "spider:collection_time": "2023-11-13T08:26:09.210319"}, "geometry": {"coordinates": [-75.6736591, 41.391521], "type": "Point"}, "id": "u1KFiQnyTFuKu0YrO3zu9Zz6OUQ=", "properties": {"@spider": "usps_collection_boxes", "addr:city": "SCRANTON", "addr:country": "US", "addr:full": "1502 PITTSTON AVE", "addr:postcode": "18505", "addr:state": "PA", "amenity": "post_box", "brand": "United States Postal Service", "brand:wikidata": "Q668687", "collection_times": "Mo-Sa 09:00", "name": "USPS COLLECTION BOX - BLUE BOX", "nsi_id": "unitedstatespostalservice-a77078", "operator": "United States Postal Service", "operator:short": "USPS", "operator:type": "public", "operator:wikidata": "Q668687", "ref": "1850500046"}, "type": "Feature"}
{"dataset_attributes": {"@spider": "usps_collection_boxes", "spider:collection_time": "2023-11-13T08:26:09.210319"}, "geometry": {"coordinates": [-75.6741638, 41.399472], "type": "Point"}, "id": "vEEikZ-RVmUun41INULoZhgniIc=", "properties": {"@spider": "usps_collection_boxes", "addr:city": "SCRANTON", "addr:country": "US", "addr:full": "1000 S WASHINGTON AVE", "addr:postcode": "18505", "addr:state": "PA", "amenity": "post_box", "brand": "United States Postal Service", "brand:wikidata": "Q668687", "collection_times": "Mo-Sa 10:45", "name": "USPS COLLECTION BOX - BLUE BOX", "nsi_id": "unitedstatespostalservice-a77078", "operator": "United States Postal Service", "operator:short": "USPS", "operator:type": "public", "operator:wikidata": "Q668687", "ref": "1850500047"}, "type": "Feature"}
{"dataset_attributes": {"@spider": "usps_collection_boxes", "spider:collection_time": "2023-11-13T08:26:09.210319"}, "geometry": {"coordinates": [-75.651427, 41.395855], "type": "Point"}, "id": "3XLMD0y_kIb41HesKU3pFwSuyWU=", "properties": {"@spider": "usps_collection_boxes", "addr:city": "SCRANTON", "addr:country": "US", "addr:full": "208 MEADOW AVE", "addr:postcode": "18505", "addr:state": "PA", "amenity": "post_box", "brand": "United States Postal Service", "brand:wikidata": "Q668687", "collection_times": "Mo-Sa 09:30", "name": "USPS COLLECTION BOX - BLUE BOX", "nsi_id": "unitedstatespostalservice-a77078", "operator": "United States Postal Service", "operator:short": "USPS", "operator:type": "public", "operator:wikidata": "Q668687", "ref": "1850500048"}, "type": "Feature"}
{"dataset_attributes": {"@spider": "usps_collection_boxes", "spider:collection_time": "2023-11-13T08:26:09.210319"}, "geometry": {"coordinates": [-75.6492235, 41.396845], "type": "Point"}, "id": "f6hMqHFoWN7s5Nnmva0uwo6oGtM=", "properties": {"@spider": "usps_collection_boxes", "addr:city": "SCRANTON", "addr:country": "US", "addr:full": "1101 MOOSIC ST", "addr:postcode": "18505", "addr:state": "PA", "amenity": "post_box", "brand": "United States Postal Service", "brand:wikidata": "Q668687", "collection_times": "Mo-Sa 09:00", "name": "USPS COLLECTION BOX - BLUE BOX", "nsi_id": "unitedstatespostalservice-a77078", "operator": "United States Postal Service", "operator:short": "USPS", "operator:type": "public", "operator:wikidata": "Q668687", "ref": "1850500049"}, "type": "Feature"}
{"dataset_attributes": {"@spider": "usps_collection_boxes", "spider:collection_time": "2023-11-13T08:26:09.210319"}, "geometry": {"coordinates": [-75.6518799, 41.393982], "type": "Point"}, "id": "vNPfMcJEj0fEDd4Z4kyBZ9FLgys=", "properties": {"@spider": "usps_collection_boxes", "addr:city": "SCRANTON", "addr:country": "US", "addr:full": "300 MEADOW AVE", "addr:postcode": "18505", "addr:state": "PA", "amenity": "post_box", "brand": "United States Postal Service", "brand:wikidata": "Q668687", "collection_times": "Mo-Sa 09:00", "name": "USPS COLLECTION BOX - BLUE BOX", "nsi_id": "unitedstatespostalservice-a77078", "operator": "United States Postal Service", "operator:short": "USPS", "operator:type": "public", "operator:wikidata": "Q668687", "ref": "1850500051"}, "type": "Feature"}
{"dataset_attributes": {"@spider": "usps_collection_boxes", "spider:collection_time": "2023-11-13T08:26:09.210319"}, "geometry": {"coordinates": [-75.6764385, 41.388771], "type": "Point"}, "id": "ORRygPl5pLqK_e2iuW_NUURcmyE=", "properties": {"@spider": "usps_collection_boxes", "addr:city": "SCRANTON", "addr:country": "US", "addr:full": "1803 PITTSTON AVE", "addr:postcode": "18505", "addr:state": "PA", "amenity": "post_box", "brand": "United States Postal Service", "brand:wikidata": "Q668687", "collection_times": "Mo-Sa 11:30", "name": "USPS COLLECTION BOX - BLUE BOX", "nsi_id": "unitedstatespostalservice-a77078", "operator": "United States Postal Service", "operator:short": "USPS", "operator:type": "public", "operator:wikidata": "Q668687", "ref": "1850500054"}, "type": "Feature"}
{"dataset_attributes": {"@spider": "usps_collection_boxes", "spider:collection_time": "2023-11-13T08:26:09.210319"}, "geometry": {"coordinates": [-75.693308, 41.378092], "type": "Point"}, "id": "JbGq6_WIU8SXRXCBesqP-8bMTpI=", "properties": {"@spider": "usps_collection_boxes", "addr:city": "SCRANTON", "addr:country": "US", "addr:full": "509 DAVIS ST", "addr:postcode": "18505", "addr:state": "PA", "amenity": "post_box", "brand": "United States Postal Service", "brand:wikidata": "Q668687", "collection_times": "Mo-Fr 13:00; Sa 09:30", "name": "USPS COLLECTION BOX - BLUE BOX", "note": "ON 12/24 AND 12/31, THIS BOX MAY BE COLLECTED AS EARLY AS 12 NOON.", "nsi_id": "unitedstatespostalservice-a77078", "operator": "United States Postal Service", "operator:short": "USPS", "operator:type": "public", "operator:wikidata": "Q668687", "ref": "1850500063"}, "type": "Feature"}
{"dataset_attributes": {"@spider": "usps_collection_boxes", "spider:collection_time": "2023-11-13T08:26:09.210319"}, "geometry": {"coordinates": [-75.6921104, 41.377168], "type": "Point"}, "id": "lAif-3vmrt77oIU7Lv1jWLWmmks=", "properties": {"@spider": "usps_collection_boxes", "addr:city": "SCRANTON", "addr:country": "US", "addr:full": "605 DAVIS ST", "addr:postcode": "18505", "addr:state": "PA", "amenity": "post_box", "brand": "United States Postal Service", "brand:wikidata": "Q668687", "collection_times": "Mo-Fr 09:00", "name": "USPS COLLECTION BOX - BLUE BOX", "nsi_id": "unitedstatespostalservice-a77078", "operator": "United States Postal Service", "operator:short": "USPS", "operator:type": "public", "operator:wikidata": "Q668687", "ref": "1850500067"}, "type": "Feature"}
{"dataset_attributes": {"@spider": "usps_collection_boxes", "spider:collection_time": "2023-11-13T08:26:09.210319"}, "geometry": {"coordinates": [-75.6689399, 41.395773], "type": "Point"}, "id": "AOSRV9-uzSBaHb6EQcnXPTfH-f0=", "properties": {"@spider": "usps_collection_boxes", "addr:city": "SCRANTON", "addr:country": "US", "addr:full": "1002 PITTSTON AVE", "addr:postcode": "18505", "addr:state": "PA", "amenity": "post_box", "brand": "United States Postal Service", "brand:wikidata": "Q668687", "collection_times": "Mo-Sa 09:15", "name": "USPS COLLECTION BOX - BLUE BOX", "nsi_id": "unitedstatespostalservice-a77078", "operator": "United States Postal Service", "operator:short": "USPS", "operator:type": "public", "operator:wikidata": "Q668687", "ref": "1850500070"}, "type": "Feature"}
{"dataset_attributes": {"@spider": "usps_collection_boxes", "spider:collection_time": "2023-11-13T08:26:09.210319"}, "geometry": {"coordinates": [-75.682861, 41.372651], "type": "Point"}, "id": "fjy8CnDayeZ87oN0ipFFTLLEFks=", "properties": {"@spider": "usps_collection_boxes", "addr:city": "SCRANTON", "addr:country": "US", "addr:full": "2800 STAFFORD AVE", "addr:postcode": "18505", "addr:state": "PA", "amenity": "post_box", "brand": "United States Postal Service", "brand:wikidata": "Q668687", "collection_times": "Mo-Fr 19:00; Sa 18:30", "name": "USPS COLLECTION BOX - APC", "note": "ON 12/24 AND 12/31, THIS BOX MAY BE COLLECTED AS EARLY AS 12 NOON.", "nsi_id": "unitedstatespostalservice-a77078", "operator": "United States Postal Service", "operator:short": "USPS", "operator:type": "public", "operator:wikidata": "Q668687", "ref": "1850500071"}, "type": "Feature"}
{"dataset_attributes": {"@spider": "usps_collection_boxes", "spider:collection_time": "2023-11-13T08:26:09.210319"}, "geometry": {"coordinates": [-75.682861, 41.372651], "type": "Point"}, "id": "ogmaybkLa-qFEIuYbLeCMdeftC8=", "properties": {"@spider": "usps_collection_boxes", "addr:city": "SCRANTON", "addr:country": "US", "addr:full": "2800 STAFFORD AVE", "addr:postcode": "18505", "addr:state": "PA", "amenity": "post_box", "brand": "United States Postal Service", "brand:wikidata": "Q668687", "collection_times": "Mo-Fr 19:00; Sa 18:30", "name": "USPS COLLECTION BOX - PO LOBBY", "note": "ON 12/24 AND 12/31, THIS BOX MAY BE COLLECTED AS EARLY AS 12 NOON.", "nsi_id": "unitedstatespostalservice-a77078", "operator": "United States Postal Service", "operator:short": "USPS", "operator:type": "public", "operator:wikidata": "Q668687", "ref": "1850500073"}, "type": "Feature"}
{"dataset_attributes": {"@spider": "usps_collection_boxes", "spider:collection_time": "2023-11-13T08:26:09.210319"}, "geometry": {"coordinates": [-75.6689203, 41.395781], "type": "Point"}, "id": "ygACoHDcHH3rLQHaCdjk6ZIubb4=", "properties": {"@spider": "usps_collection_boxes", "addr:city": "SCRANTON", "addr:country": "US", "addr:full": "1002 PITTSTON AVE", "addr:postcode": "18505", "addr:state": "PA", "amenity": "post_box", "brand": "United States Postal Service", "brand:wikidata": "Q668687", "collection_times": "Mo-Sa 09:15", "name": "USPS COLLECTION BOX - BLUE BOX", "nsi_id": "unitedstatespostalservice-a77078", "operator": "United States Postal Service", "operator:short": "USPS", "operator:type": "public", "operator:wikidata": "Q668687", "ref": "1850500074"}, "type": "Feature"}
{"dataset_attributes": {"@spider": "usps_collection_boxes", "spider:collection_time": "2023-11-13T08:26:09.210319"}, "geometry": {"coordinates": [-75.682925916, 41.372735218], "type": "Point"}, "id": "c-i_sCpKdVfeMJgLv11dzXD8cTI=", "properties": {"@spider": "usps_collection_boxes", "addr:city": "SCRANTON", "addr:country": "US", "addr:full": "2800 STAFFORD AVE", "addr:postcode": "18505", "addr:state": "PA", "amenity": "post_box", "brand": "United States Postal Service", "brand:wikidata": "Q668687", "collection_times": "Mo-Fr 18:00; Sa 13:00", "name": "USPS COLLECTION BOX - PO LOBBY", "note": "ON 12/24 AND 12/31, THIS BOX MAY BE COLLECTED AS EARLY AS 12 NOON.", "nsi_id": "unitedstatespostalservice-a77078", "operator": "United States Postal Service", "operator:short": "USPS", "operator:type": "public", "operator:wikidata": "Q668687", "ref": "1850500083"}, "type": "Feature"}
{"dataset_attributes": {"@spider": "usps_collection_boxes", "spider:collection_time": "2023-11-13T08:26:09.210319"}, "geometry": {"coordinates": [-75.7329794, 41.35576], "type": "Point"}, "id": "GcnM_zvPFFxOybIhHOC2wmBkAQM=", "properties": {"@spider": "usps_collection_boxes", "addr:city": "MOOSIC", "addr:country": "US", "addr:full": "525 MAIN ST", "addr:postcode": "18507", "addr:state": "PA", "amenity": "post_box", "brand": "United States Postal Service", "brand:wikidata": "Q668687", "collection_times": "Mo-Sa 10:00", "name": "USPS COLLECTION BOX - BLUE BOX", "nsi_id": "unitedstatespostalservice-a77078", "operator": "United States Postal Service", "operator:short": "USPS", "operator:type": "public", "operator:wikidata": "Q668687", "ref": "1850700001"}, "type": "Feature"}
{"dataset_attributes": {"@spider": "usps_collection_boxes", "spider:collection_time": "2023-11-13T08:26:09.210319"}, "geometry": {"coordinates": [-75.7211957, 41.351828], "type": "Point"}, "id": "itEEYgyHc6wd_M0eDbahNl80veE=", "properties": {"@spider": "usps_collection_boxes", "addr:city": "MOOSIC", "addr:country": "US", "addr:full": "1025 SPRINGBROOK AVE", "addr:postcode": "18507", "addr:state": "PA", "amenity": "post_box", "brand": "United States Postal Service", "brand:wikidata": "Q668687", "collection_times": "Mo-Sa 12:30", "name": "USPS COLLECTION BOX - BLUE BOX", "note": "ON 12/24 AND 12/31, THIS BOX MAY BE COLLECTED AS EARLY AS 12 NOON.", "nsi_id": "unitedstatespostalservice-a77078", "operator": "United States Postal Service", "operator:short": "USPS", "operator:type": "public", "operator:wikidata": "Q668687", "ref": "1850700002"}, "type": "Feature"}
{"dataset_attributes": {"@spider": "usps_collection_boxes", "spider:collection_time": "2023-11-13T08:26:09.210319"}, "geometry": {"coordinates": [-75.7006197709, 41.3738912131], "type": "Point"}, "id": "s0LYQ_jmfWKT3dB5M5Yg8cV-a1Y=", "properties": {"@spider": "usps_collection_boxes", "addr:city": "MOOSIC", "addr:country": "US", "addr:full": "3382  BIRNEY AVE", "addr:postcode": "18507", "addr:state": "PA", "amenity": "post_box", "brand": "United States Postal Service", "brand:wikidata": "Q668687", "collection_times": "Mo-Sa 09:00", "name": "USPS COLLECTION BOX - BLUE BOX", "nsi_id": "unitedstatespostalservice-a77078", "operator": "United States Postal Service", "operator:short": "USPS", "operator:type": "public", "operator:wikidata": "Q668687", "ref": "1850700003"}, "type": "Feature"}
{"dataset_attributes": {"@spider": "usps_collection_boxes", "spider:collection_time": "2023-11-13T08:26:09.210319"}, "geometry": {"coordinates": [-75.7074488, 41.368147], "type": "Point"}, "id": "E13yib9582sRLD7In8gxUBnrJE0=", "properties": {"@spider": "usps_collection_boxes", "addr:city": "MOOSIC", "addr:country": "US", "addr:full": "3808 LAWRENCE AVE", "addr:postcode": "18507", "addr:state": "PA", "amenity": "post_box", "brand": "United States Postal Service", "brand:wikidata": "Q668687", "collection_times": "Mo-Fr 12:00", "name": "USPS COLLECTION BOX - BLUE BOX", "nsi_id": "unitedstatespostalservice-a77078", "operator": "United States Postal Service", "operator:short": "USPS", "operator:type": "public", "operator:wikidata": "Q668687", "ref": "1850700004"}, "type": "Feature"}
{"dataset_attributes": {"@spider": "usps_collection_boxes", "spider:collection_time": "2023-11-13T08:26:09.210319"}, "geometry": {"coordinates": [-75.6765404, 41.357757], "type": "Point"}, "id": "357bcIDcUJQ-jqQkQcipWx2215M=", "properties": {"@spider": "usps_collection_boxes", "addr:city": "MOOSIC", "addr:country": "US", "addr:full": "50 GLENMAURA NATL BLVD", "addr:postcode": "18507", "addr:state": "PA", "amenity": "post_box", "brand": "United States Postal Service", "brand:wikidata": "Q668687", "collection_times": "Mo-Sa 09:00", "name": "USPS COLLECTION BOX - BLUE BOX", "nsi_id": "unitedstatespostalservice-a77078", "operator": "United States Postal Service", "operator:short": "USPS", "operator:type": "public", "operator:wikidata": "Q668687", "ref": "1850700006"}, "type": "Feature"}
{"dataset_attributes": {"@spider": "usps_collection_boxes", "spider:collection_time": "2023-11-13T08:26:09.210319"}, "geometry": {"coordinates": [-75.7145999, 41.368177], "type": "Point"}, "id": "RFW_UGqQcCNhyq323PKyL3CeVHo=", "properties": {"@spider": "usps_collection_boxes", "addr:city": "MOOSIC", "addr:country": "US", "addr:full": "4124 BIRNEY AVE", "addr:postcode": "18507", "addr:state": "PA", "amenity": "post_box", "brand": "United States Postal Service", "brand:wikidata": "Q668687", "collection_times": "Mo-Fr 09:30", "name": "USPS COLLECTION BOX - BLUE BOX", "nsi_id": "unitedstatespostalservice-a77078", "operator": "United States Postal Service", "operator:short": "USPS", "operator:type": "public", "operator:wikidata": "Q668687", "ref": "1850700007"}, "type": "Feature"}
{"dataset_attributes": {"@spider": "usps_collection_boxes", "spider:collection_time": "2023-11-13T08:26:09.210319"}, "geometry": {"coordinates": [-75.7296105, 41.354947], "type": "Point"}, "id": "FhC1ynfI1fHWbylOPoi1qLop4Mk=", "properties": {"@spider": "usps_collection_boxes", "addr:city": "MOOSIC", "addr:country": "US", "addr:full": "704 MAIN ST", "addr:postcode": "18507", "addr:state": "PA", "amenity": "post_box", "brand": "United States Postal Service", "brand:wikidata": "Q668687", "collection_times": "Mo-Sa 12:00", "name": "USPS COLLECTION BOX - BLUE BOX", "nsi_id": "unitedstatespostalservice-a77078", "operator": "United States Postal Service", "operator:short": "USPS", "operator:type": "public", "operator:wikidata": "Q668687", "ref": "1850700010"}, "type": "Feature"}
{"dataset_attributes": {"@spider": "usps_collection_boxes", "spider:collection_time": "2023-11-13T08:26:09.210319"}, "geometry": {"coordinates": [-75.6751529, 41.35465], "type": "Point"}, "id": "kT7tYPFtgG459latB0IXAXNHdsk=", "properties": {"@spider": "usps_collection_boxes", "addr:city": "MOOSIC", "addr:country": "US", "addr:full": "1 FLEET WAY", "addr:postcode": "18507", "addr:state": "PA", "amenity": "post_box", "brand": "United States Postal Service", "brand:wikidata": "Q668687", "collection_times": "Mo-Sa 09:30", "name": "USPS COLLECTION BOX - BLUE BOX", "nsi_id": "unitedstatespostalservice-a77078", "operator": "United States Postal Service", "operator:short": "USPS", "operator:type": "public", "operator:wikidata": "Q668687", "ref": "1850700014"}, "type": "Feature"}
{"dataset_attributes": {"@spider": "usps_collection_boxes", "spider:collection_time": "2023-11-13T08:26:09.210319"}, "geometry": {"coordinates": [-75.7113669, 41.370004], "type": "Point"}, "id": "uaagErrPyli1-mXRsI6ILzAKZyY=", "properties": {"@spider": "usps_collection_boxes", "addr:city": "MOOSIC", "addr:country": "US", "addr:full": "4010 BIRNEY AVE", "addr:postcode": "18507", "addr:state": "PA", "amenity": "post_box", "brand": "United States Postal Service", "brand:wikidata": "Q668687", "collection_times": "Mo-Fr 09:30", "name": "USPS COLLECTION BOX - BLUE BOX", "nsi_id": "unitedstatespostalservice-a77078", "operator": "United States Postal Service", "operator:short": "USPS", "operator:type": "public", "operator:wikidata": "Q668687", "ref": "1850700015"}, "type": "Feature"}
{"dataset_attributes": {"@spider": "usps_collection_boxes", "spider:collection_time": "2023-11-13T08:26:09.210319"}, "geometry": {"coordinates": [-75.6765543, 41.357764], "type": "Point"}, "id": "sol2oMt70D8HdvPGlL35kZ6lv9s=", "properties": {"@spider": "usps_collection_boxes", "addr:city": "MOOSIC", "addr:country": "US", "addr:full": "50 GLENMAURA NATIONAL BLVD", "addr:postcode": "18507", "addr:state": "PA", "amenity": "post_box", "brand": "United States Postal Service", "brand:wikidata": "Q668687", "collection_times": "Mo-Sa 09:00", "name": "USPS COLLECTION BOX - BLUE BOX", "nsi_id": "unitedstatespostalservice-a77078", "operator": "United States Postal Service", "operator:short": "USPS", "operator:type": "public", "operator:wikidata": "Q668687", "ref": "1850700016"}, "type": "Feature"}
{"dataset_attributes": {"@spider": "usps_collection_boxes", "spider:collection_time": "2023-11-13T08:26:09.210319"}, "geometry": {"coordinates": [-75.6654837, 41.422452], "type": "Point"}, "id": "FQg2uMcMOfUHjyeVxF0E-pQjTcI=", "properties": {"@spider": "usps_collection_boxes", "addr:city": "SCRANTON", "addr:country": "US", "addr:full": "908 PROVIDENCE RD", "addr:postcode": "18508", "addr:state": "PA", "amenity": "post_box", "brand": "United States Postal Service", "brand:wikidata": "Q668687", "collection_times": "Mo-Sa 11:15", "name": "USPS COLLECTION BOX - BLUE BOX", "nsi_id": "unitedstatespostalservice-a77078", "operator": "United States Postal Service", "operator:short": "USPS", "operator:type": "public", "operator:wikidata": "Q668687", "ref": "1850800001"}, "type": "Feature"}
{"dataset_attributes": {"@spider": "usps_collection_boxes", "spider:collection_time": "2023-11-13T08:26:09.210319"}, "geometry": {"coordinates": [-75.6567404, 41.437961], "type": "Point"}, "id": "I42jBWegLKefH5Fq43RPCnGAGGw=", "properties": {"@spider": "usps_collection_boxes", "addr:city": "SCRANTON", "addr:country": "US", "addr:full": "1902 N MAIN AVE", "addr:postcode": "18508", "addr:state": "PA", "amenity": "post_box", "brand": "United States Postal Service", "brand:wikidata": "Q668687", "collection_times": "Mo-Fr 11:00", "name": "USPS COLLECTION BOX - BLUE BOX", "nsi_id": "unitedstatespostalservice-a77078", "operator": "United States Postal Service", "operator:short": "USPS", "operator:type": "public", "operator:wikidata": "Q668687", "ref": "1850800004"}, "type": "Feature"}
{"dataset_attributes": {"@spider": "usps_collection_boxes", "spider:collection_time": "2023-11-13T08:26:09.210319"}, "geometry": {"coordinates": [-75.6583589, 41.4372], "type": "Point"}, "id": "K6d8cpzWKDjS1wx3ZxRhAXx_7Hc=", "properties": {"@spider": "usps_collection_boxes", "addr:city": "SCRANTON", "addr:country": "US", "addr:full": "1812 N MAIN AVE", "addr:postcode": "18508", "addr:state": "PA", "amenity": "post_box", "brand": "United States Postal Service", "brand:wikidata": "Q668687", "collection_times": "Mo-Fr 11:00", "name": "USPS COLLECTION BOX - BLUE BOX", "nsi_id": "unitedstatespostalservice-a77078", "operator": "United States Postal Service", "operator:short": "USPS", "operator:type": "public", "operator:wikidata": "Q668687", "ref": "1850800007"}, "type": "Feature"}
{"dataset_attributes": {"@spider": "usps_collection_boxes", "spider:collection_time": "2023-11-13T08:26:09.210319"}, "geometry": {"coordinates": [-75.6446066589, 41.4468896647], "type": "Point"}, "id": "uyRQgRgVZyF-YCpV6fATMNEnVZI=", "properties": {"@spider": "usps_collection_boxes", "addr:city": "SCRANTON", "addr:country": "US", "addr:full": "3021 N MAIN AVE", "addr:postcode": "18508", "addr:state": "PA", "amenity": "post_box", "brand": "United States Postal Service", "brand:wikidata": "Q668687", "collection_times": "Mo-Sa 09:00", "name": "USPS COLLECTION BOX - BLUE BOX", "nsi_id": "unitedstatespostalservice-a77078", "operator": "United States Postal Service", "operator:short": "USPS", "operator:type": "public", "operator:wikidata": "Q668687", "ref": "1850800008"}, "type": "Feature"}
{"dataset_attributes": {"@spider": "usps_collection_boxes", "spider:collection_time": "2023-11-13T08:26:09.210319"}, "geometry": {"coordinates": [-75.6778963, 41.448943], "type": "Point"}, "id": "ez5kSDzNnO56NolzoPCWrJoqRWc=", "properties": {"@spider": "usps_collection_boxes", "addr:city": "SCRANTON", "addr:country": "US", "addr:full": "100 SMALLACOMBE DR", "addr:postcode": "18508", "addr:state": "PA", "amenity": "post_box", "brand": "United States Postal Service", "brand:wikidata": "Q668687", "collection_times": "Mo-Sa 09:00", "name": "USPS COLLECTION BOX - BLUE BOX", "nsi_id": "unitedstatespostalservice-a77078", "operator": "United States Postal Service", "operator:short": "USPS", "operator:type": "public", "operator:wikidata": "Q668687", "ref": "1850800011"}, "type": "Feature"}
{"dataset_attributes": {"@spider": "usps_collection_boxes", "spider:collection_time": "2023-11-13T08:26:09.210319"}, "geometry": {"coordinates": [-75.6753624, 41.447117], "type": "Point"}, "id": "cGikzpiwyazhgpjIkWNg3r_gBMk=", "properties": {"@spider": "usps_collection_boxes", "addr:city": "SCRANTON", "addr:country": "US", "addr:full": "475 MORGAN HWY", "addr:postcode": "18508", "addr:state": "PA", "amenity": "post_box", "brand": "United States Postal Service", "brand:wikidata": "Q668687", "collection_times": "Mo-Sa 09:00", "name": "USPS COLLECTION BOX - BLUE BOX", "nsi_id": "unitedstatespostalservice-a77078", "operator": "United States Postal Service", "operator:short": "USPS", "operator:type": "public", "operator:wikidata": "Q668687", "ref": "1850800013"}, "type": "Feature"}
{"dataset_attributes": {"@spider": "usps_collection_boxes", "spider:collection_time": "2023-11-13T08:26:09.210319"}, "geometry": {"coordinates": [-75.6615255, 41.440503], "type": "Point"}, "id": "h2V7R0rTgDW4ns1ZxDOSRjqcVz8=", "properties": {"@spider": "usps_collection_boxes", "addr:city": "SCRANTON", "addr:country": "US", "addr:full": "1803 BRICK AVE", "addr:postcode": "18508", "addr:state": "PA", "amenity": "post_box", "brand": "United States Postal Service", "brand:wikidata": "Q668687", "collection_times": "Mo-Fr 14:00", "name": "USPS COLLECTION BOX - BLUE BOX", "note": "ON 12/24 AND 12/31, THIS BOX MAY BE COLLECTED AS EARLY AS 12 NOON.", "nsi_id": "unitedstatespostalservice-a77078", "operator": "United States Postal Service", "operator:short": "USPS", "operator:type": "public", "operator:wikidata": "Q668687", "ref": "1850800015"}, "type": "Feature"}
{"dataset_attributes": {"@spider": "usps_collection_boxes", "spider:collection_time": "2023-11-13T08:26:09.210319"}, "geometry": {"coordinates": [-75.6677699, 41.443951], "type": "Point"}, "id": "mzXvEQi26IJGhI8eO5C2RYUgZ18=", "properties": {"@spider": "usps_collection_boxes", "addr:city": "SCRANTON", "addr:country": "US", "addr:full": "1760 N KEYSER AVE", "addr:postcode": "18508", "addr:state": "PA", "amenity": "post_box", "brand": "United States Postal Service", "brand:wikidata": "Q668687", "collection_times": "Mo-Sa 11:00", "name": "USPS COLLECTION BOX - BLUE BOX", "nsi_id": "unitedstatespostalservice-a77078", "operator": "United States Postal Service", "operator:short": "USPS", "operator:type": "public", "operator:wikidata": "Q668687", "ref": "1850800017"}, "type": "Feature"}
{"dataset_attributes": {"@spider": "usps_collection_boxes", "spider:collection_time": "2023-11-13T08:26:09.210319"}, "geometry": {"coordinates": [-75.6478179, 41.43311], "type": "Point"}, "id": "btPXY1HtBQEVbLpni1FZVJaHNs0=", "properties": {"@spider": "usps_collection_boxes", "addr:city": "SCRANTON", "addr:country": "US", "addr:full": "700 E MARKET ST", "addr:postcode": "18509", "addr:state": "PA", "amenity": "post_box", "brand": "United States Postal Service", "brand:wikidata": "Q668687", "collection_times": "Mo-Sa 11:45", "name": "USPS COLLECTION BOX - BLUE BOX", "nsi_id": "unitedstatespostalservice-a77078", "operator": "United States Postal Service", "operator:short": "USPS", "operator:type": "public", "operator:wikidata": "Q668687", "ref": "1850900001"}, "type": "Feature"}
{"dataset_attributes": {"@spider": "usps_collection_boxes", "spider:collection_time": "2023-11-13T08:26:09.210319"}, "geometry": {"coordinates": [-75.6529899, 41.427541], "type": "Point"}, "id": "SFcXPFdIp7gyFCDRSYo23onFAaU=", "properties": {"@spider": "usps_collection_boxes", "addr:city": "SCRANTON", "addr:country": "US", "addr:full": "1501 SANDERSON AVE", "addr:postcode": "18509", "addr:state": "PA", "amenity": "post_box", "brand": "United States Postal Service", "brand:wikidata": "Q668687", "collection_times": "Mo-Sa 13:00", "name": "USPS COLLECTION BOX - BLUE BOX", "note": "ON 12/24 AND 12/31, THIS BOX MAY BE COLLECTED AS EARLY AS 12 NOON.", "nsi_id": "unitedstatespostalservice-a77078", "operator": "United States Postal Service", "operator:short": "USPS", "operator:type": "public", "operator:wikidata": "Q668687", "ref": "1850900007"}, "type": "Feature"}
{"dataset_attributes": {"@spider": "usps_collection_boxes", "spider:collection_time": "2023-11-13T08:26:09.210319"}, "geometry": {"coordinates": [-75.6488558, 41.423705], "type": "Point"}, "id": "QHTF1MnsVeRLRbDXwvkCm3NfjaA=", "properties": {"@spider": "usps_collection_boxes", "addr:city": "SCRANTON", "addr:country": "US", "addr:full": "1371 WYOMING AVE", "addr:postcode": "18509", "addr:state": "PA", "amenity": "post_box", "brand": "United States Postal Service", "brand:wikidata": "Q668687", "collection_times": "Mo-Sa 12:00", "name": "USPS COLLECTION BOX - BLUE BOX", "nsi_id": "unitedstatespostalservice-a77078", "operator": "United States Postal Service", "operator:short": "USPS", "operator:type": "public", "operator:wikidata": "Q668687", "ref": "1850900013"}, "type": "Feature"}
{"dataset_attributes": {"@spider": "usps_collection_boxes", "spider:collection_time": "2023-11-13T08:26:09.210319"}, "geometry": {"coordinates": [-75.6520499, 41.418531], "type": "Point"}, "id": "vU9nW1sD6cI1NThJGLcn9PcH_T4=", "properties": {"@spider": "usps_collection_boxes", "addr:city": "SCRANTON", "addr:country": "US", "addr:full": "1035 N WASHINGTON AVE", "addr:postcode": "18509", "addr:state": "PA", "amenity": "post_box", "brand": "United States Postal Service", "brand:wikidata": "Q668687", "collection_times": "Mo-Sa 11:00", "name": "USPS COLLECTION BOX - BLUE BOX", "nsi_id": "unitedstatespostalservice-a77078", "operator": "United States Postal Service", "operator:short": "USPS", "operator:type": "public", "operator:wikidata": "Q668687", "ref": "1850900014"}, "type": "Feature"}
{"dataset_attributes": {"@spider": "usps_collection_boxes", "spider:collection_time": "2023-11-13T08:26:09.210319"}, "geometry": {"coordinates": [-75.6568163, 41.433992], "type": "Point"}, "id": "RkccKhakXKTbqsPjUh8T6N3m1eA=", "properties": {"@spider": "usps_collection_boxes", "addr:city": "SCRANTON", "addr:country": "US", "addr:full": "1610 NAY AUG AVE", "addr:postcode": "18509", "addr:state": "PA", "amenity": "post_box", "brand": "United States Postal Service", "brand:wikidata": "Q668687", "collection_times": "Mo-Sa 11:45", "name": "USPS COLLECTION BOX - BLUE BOX", "nsi_id": "unitedstatespostalservice-a77078", "operator": "United States Postal Service", "operator:short": "USPS", "operator:type": "public", "operator:wikidata": "Q668687", "ref": "1850900020"}, "type": "Feature"}
{"dataset_attributes": {"@spider": "usps_collection_boxes", "spider:collection_time": "2023-11-13T08:26:09.210319"}, "geometry": {"coordinates": [-75.6463666, 41.43784], "type": "Point"}, "id": "nuahXH598Mug4ev7xaoyTtPtwag=", "properties": {"@spider": "usps_collection_boxes", "addr:city": "SCRANTON", "addr:country": "US", "addr:full": "428 DEPOT ST", "addr:postcode": "18509", "addr:state": "PA", "amenity": "post_box", "brand": "United States Postal Service", "brand:wikidata": "Q668687", "collection_times": "Mo-Sa 10:30", "name": "USPS COLLECTION BOX - BLUE BOX", "nsi_id": "unitedstatespostalservice-a77078", "operator": "United States Postal Service", "operator:short": "USPS", "operator:type": "public", "operator:wikidata": "Q668687", "ref": "1850900025"}, "type": "Feature"}
{"dataset_attributes": {"@spider": "usps_collection_boxes", "spider:collection_time": "2023-11-13T08:26:09.210319"}, "geometry": {"coordinates": [-75.6425747, 41.426837], "type": "Point"}, "id": "H-Pu7K2hoo2xHrG8cPDjRaSrquQ=", "properties": {"@spider": "usps_collection_boxes", "addr:city": "SCRANTON", "addr:country": "US", "addr:full": "1217 DELAWARE ST", "addr:postcode": "18509", "addr:state": "PA", "amenity": "post_box", "brand": "United States Postal Service", "brand:wikidata": "Q668687", "collection_times": "Mo-Fr 12:30", "name": "USPS COLLECTION BOX - BLUE BOX", "note": "ON 12/24 AND 12/31, THIS BOX MAY BE COLLECTED AS EARLY AS 12 NOON.", "nsi_id": "unitedstatespostalservice-a77078", "operator": "United States Postal Service", "operator:short": "USPS", "operator:type": "public", "operator:wikidata": "Q668687", "ref": "1850900035"}, "type": "Feature"}
{"dataset_attributes": {"@spider": "usps_collection_boxes", "spider:collection_time": "2023-11-13T08:26:09.210319"}, "geometry": {"coordinates": [-75.6422339, 41.420084], "type": "Point"}, "id": "nt3L0snWByt3eGgeI2rqGMyKQTI=", "properties": {"@spider": "usps_collection_boxes", "addr:city": "SCRANTON", "addr:country": "US", "addr:full": "1414 MONROE AVE", "addr:postcode": "18509", "addr:state": "PA", "amenity": "post_box", "brand": "United States Postal Service", "brand:wikidata": "Q668687", "collection_times": "Mo-Fr 09:15", "name": "USPS COLLECTION BOX - BLUE BOX", "nsi_id": "unitedstatespostalservice-a77078", "operator": "United States Postal Service", "operator:short": "USPS", "operator:type": "public", "operator:wikidata": "Q668687", "ref": "1850900037"}, "type": "Feature"}
{"dataset_attributes": {"@spider": "usps_collection_boxes", "spider:collection_time": "2023-11-13T08:26:09.210319"}, "geometry": {"coordinates": [-75.6347724, 41.432343], "type": "Point"}, "id": "KdPIzFN3KiDE8s5ru5obwfzYAfI=", "properties": {"@spider": "usps_collection_boxes", "addr:city": "SCRANTON", "addr:country": "US", "addr:full": "2300 ADAMS AVE", "addr:postcode": "18509", "addr:state": "PA", "amenity": "post_box", "brand": "United States Postal Service", "brand:wikidata": "Q668687", "collection_times": "Mo-Sa 09:00", "name": "USPS COLLECTION BOX - BLUE BOX", "nsi_id": "unitedstatespostalservice-a77078", "operator": "United States Postal Service", "operator:short": "USPS", "operator:type": "public", "operator:wikidata": "Q668687", "ref": "1850900047"}, "type": "Feature"}
{"dataset_attributes": {"@spider": "usps_collection_boxes", "spider:collection_time": "2023-11-13T08:26:09.210319"}, "geometry": {"coordinates": [-75.6468704, 41.419177], "type": "Point"}, "id": "VNFTWWw0gf7O0adM0cuFHzFqGYc=", "properties": {"@spider": "usps_collection_boxes", "addr:city": "SCRANTON", "addr:country": "US", "addr:full": "600 LARCH ST", "addr:postcode": "18509", "addr:state": "PA", "amenity": "post_box", "brand": "United States Postal Service", "brand:wikidata": "Q668687", "collection_times": "Mo-Sa 10:15", "name": "USPS COLLECTION BOX - BLUE BOX", "nsi_id": "unitedstatespostalservice-a77078", "operator": "United States Postal Service", "operator:short": "USPS", "operator:type": "public", "operator:wikidata": "Q668687", "ref": "1850900048"}, "type": "Feature"}
{"dataset_attributes": {"@spider": "usps_collection_boxes", "spider:collection_time": "2023-11-13T08:26:09.210319"}, "geometry": {"coordinates": [-75.637063, 41.432974], "type": "Point"}, "id": "wXnUZCDGAc-fCJAk7o0eKgU6Pjs=", "properties": {"@spider": "usps_collection_boxes", "addr:city": "SCRANTON", "addr:country": "US", "addr:full": "2300 ADAMS AVE", "addr:postcode": "18509", "addr:state": "PA", "amenity": "post_box", "brand": "United States Postal Service", "brand:wikidata": "Q668687", "collection_times": "Mo-Sa 09:00", "name": "USPS COLLECTION BOX - BLUE BOX", "nsi_id": "unitedstatespostalservice-a77078", "operator": "United States Postal Service", "operator:short": "USPS", "operator:type": "public", "operator:wikidata": "Q668687", "ref": "1850900049"}, "type": "Feature"}
{"dataset_attributes": {"@spider": "usps_collection_boxes", "spider:collection_time": "2023-11-13T08:26:09.210319"}, "geometry": {"coordinates": [-75.656686, 41.413977], "type": "Point"}, "id": "GsL1_Lp1pb3ijycUe4GuFfYWJSw=", "properties": {"@spider": "usps_collection_boxes", "addr:city": "SCRANTON", "addr:country": "US", "addr:full": "501 PINE ST", "addr:postcode": "18509", "addr:state": "PA", "amenity": "post_box", "brand": "United States Postal Service", "brand:wikidata": "Q668687", "collection_times": "Mo-Fr 12:45", "name": "USPS COLLECTION BOX - BLUE BOX", "note": "ON 12/24 AND 12/31, THIS BOX MAY BE COLLECTED AS EARLY AS 12 NOON.", "nsi_id": "unitedstatespostalservice-a77078", "operator": "United States Postal Service", "operator:short": "USPS", "operator:type": "public", "operator:wikidata": "Q668687", "ref": "1850900052"}, "type": "Feature"}
{"dataset_attributes": {"@spider": "usps_collection_boxes", "spider:collection_time": "2023-11-13T08:26:09.210319"}, "geometry": {"coordinates": [-75.6573559, 41.409785], "type": "Point"}, "id": "GeM95TmateYB5juA55wh3eBwHnA=", "properties": {"@spider": "usps_collection_boxes", "addr:city": "SCRANTON", "addr:country": "US", "addr:full": "444 JEFFERSON AVE", "addr:postcode": "18510", "addr:state": "PA", "amenity": "post_box", "brand": "United States Postal Service", "brand:wikidata": "Q668687", "collection_times": "Mo-Fr 14:00", "name": "USPS COLLECTION BOX - BLUE BOX", "note": "ON 12/24 AND 12/31, THIS BOX MAY BE COLLECTED AS EARLY AS 12 NOON.", "nsi_id": "unitedstatespostalservice-a77078", "operator": "United States Postal Service", "operator:short": "USPS", "operator:type": "public", "operator:wikidata": "Q668687", "ref": "1851000003"}, "type": "Feature"}
{"dataset_attributes": {"@spider": "usps_collection_boxes", "spider:collection_time": "2023-11-13T08:26:09.210319"}, "geometry": {"coordinates": [-75.6558639, 41.411154], "type": "Point"}, "id": "jhdUjV9fsPaZjXNFmPvPZM5DXtQ=", "properties": {"@spider": "usps_collection_boxes", "addr:city": "SCRANTON", "addr:country": "US", "addr:full": "600 JEFFERSON AVE", "addr:postcode": "18510", "addr:state": "PA", "amenity": "post_box", "brand": "United States Postal Service", "brand:wikidata": "Q668687", "collection_times": "Mo-Fr 14:00", "name": "USPS COLLECTION BOX - BLUE BOX", "note": "ON 12/24 AND 12/31, THIS BOX MAY BE COLLECTED AS EARLY AS 12 NOON.", "nsi_id": "unitedstatespostalservice-a77078", "operator": "United States Postal Service", "operator:short": "USPS", "operator:type": "public", "operator:wikidata": "Q668687", "ref": "1851000004"}, "type": "Feature"}
{"dataset_attributes": {"@spider": "usps_collection_boxes", "spider:collection_time": "2023-11-13T08:26:09.210319"}, "geometry": {"coordinates": [-75.6416695, 41.410876], "type": "Point"}, "id": "dSRdM2nc7fbg4VPVrYzoe1ZIAM0=", "properties": {"@spider": "usps_collection_boxes", "addr:city": "SCRANTON", "addr:country": "US", "addr:full": "1428 ASH ST", "addr:postcode": "18510", "addr:state": "PA", "amenity": "post_box", "brand": "United States Postal Service", "brand:wikidata": "Q668687", "collection_times": "Mo-Sa 10:45", "name": "USPS COLLECTION BOX - BLUE BOX", "nsi_id": "unitedstatespostalservice-a77078", "operator": "United States Postal Service", "operator:short": "USPS", "operator:type": "public", "operator:wikidata": "Q668687", "ref": "1851000016"}, "type": "Feature"}
{"dataset_attributes": {"@spider": "usps_collection_boxes", "spider:collection_time": "2023-11-13T08:26:09.210319"}, "geometry": {"coordinates": [-75.6495705, 41.403227], "type": "Point"}, "id": "pMblQZ5GE47RF4o97AF5x_WrnbQ=", "properties": {"@spider": "usps_collection_boxes", "addr:city": "SCRANTON", "addr:country": "US", "addr:full": "402 PRESCOTT AVE", "addr:postcode": "18510", "addr:state": "PA", "amenity": "post_box", "brand": "United States Postal Service", "brand:wikidata": "Q668687", "collection_times": "Mo-Fr 09:30", "name": "USPS COLLECTION BOX - BLUE BOX", "nsi_id": "unitedstatespostalservice-a77078", "operator": "United States Postal Service", "operator:short": "USPS", "operator:type": "public", "operator:wikidata": "Q668687", "ref": "1851000017"}, "type": "Feature"}
{"dataset_attributes": {"@spider": "usps_collection_boxes", "spider:collection_time": "2023-11-13T08:26:09.210319"}, "geometry": {"coordinates": [-75.6438038, 41.40354], "type": "Point"}, "id": "HgzrOdWWK17Zo6j4b7J3Eo0Z_2A=", "properties": {"@spider": "usps_collection_boxes", "addr:city": "SCRANTON", "addr:country": "US", "addr:full": "601 COLFAX AVE", "addr:postcode": "18510", "addr:state": "PA", "amenity": "post_box", "brand": "United States Postal Service", "brand:wikidata": "Q668687", "collection_times": "Mo-Sa 14:30", "name": "USPS COLLECTION BOX - BLUE BOX", "note": "ON 12/24 AND 12/31, THIS BOX MAY BE COLLECTED AS EARLY AS 12 NOON.", "nsi_id": "unitedstatespostalservice-a77078", "operator": "United States Postal Service", "operator:short": "USPS", "operator:type": "public", "operator:wikidata": "Q668687", "ref": "1851000023"}, "type": "Feature"}
{"dataset_attributes": {"@spider": "usps_collection_boxes", "spider:collection_time": "2023-11-13T08:26:09.210319"}, "geometry": {"coordinates": [-75.6464087, 41.401183], "type": "Point"}, "id": "pq6wxhJnsh66hhUk6B3hMYUsdPw=", "properties": {"@spider": "usps_collection_boxes", "addr:city": "SCRANTON", "addr:country": "US", "addr:full": "1800 MULBERRY ST", "addr:postcode": "18510", "addr:state": "PA", "amenity": "post_box", "brand": "United States Postal Service", "brand:wikidata": "Q668687", "collection_times": "Mo-Fr 09:15", "name": "USPS COLLECTION BOX - BLUE BOX", "nsi_id": "unitedstatespostalservice-a77078", "operator": "United States Postal Service", "operator:short": "USPS", "operator:type": "public", "operator:wikidata": "Q668687", "ref": "1851000024"}, "type": "Feature"}
{"dataset_attributes": {"@spider": "usps_collection_boxes", "spider:collection_time": "2023-11-13T08:26:09.210319"}, "geometry": {"coordinates": [-75.6539881, 41.412776], "type": "Point"}, "id": "0GW3P_K6CjKlG2_fctPkUQiRAxs=", "properties": {"@spider": "usps_collection_boxes", "addr:city": "SCRANTON", "addr:country": "US", "addr:full": "743 JEFFERSON AVE", "addr:postcode": "18510", "addr:state": "PA", "amenity": "post_box", "brand": "United States Postal Service", "brand:wikidata": "Q668687", "collection_times": "Mo-Fr 15:00; Sa 10:00", "name": "USPS COLLECTION BOX - BLUE BOX", "note": "ON 12/24 AND 12/31, THIS BOX MAY BE COLLECTED AS EARLY AS 12 NOON.", "nsi_id": "unitedstatespostalservice-a77078", "operator": "United States Postal Service", "operator:short": "USPS", "operator:type": "public", "operator:wikidata": "Q668687", "ref": "1851000033"}, "type": "Feature"}
{"dataset_attributes": {"@spider": "usps_collection_boxes", "spider:collection_time": "2023-11-13T08:26:09.210319"}, "geometry": {"coordinates": [-75.6539747, 41.412819], "type": "Point"}, "id": "wlhjKtyt8i16SZxkgbpNvd1u6hA=", "properties": {"@spider": "usps_collection_boxes", "addr:city": "SCRANTON", "addr:country": "US", "addr:full": "743 JEFFERSON AVE", "addr:postcode": "18510", "addr:state": "PA", "amenity": "post_box", "brand": "United States Postal Service", "brand:wikidata": "Q668687", "collection_times": "Mo-Fr 15:00; Sa 10:00", "name": "USPS COLLECTION BOX - BLUE BOX", "note": "ON 12/24 AND 12/31, THIS BOX MAY BE COLLECTED AS EARLY AS 12 NOON.", "nsi_id": "unitedstatespostalservice-a77078", "operator": "United States Postal Service", "operator:short": "USPS", "operator:type": "public", "operator:wikidata": "Q668687", "ref": "1851000034"}, "type": "Feature"}
{"dataset_attributes": {"@spider": "usps_collection_boxes", "spider:collection_time": "2023-11-13T08:26:09.210319"}, "geometry": {"coordinates": [-75.6518176, 41.410729], "type": "Point"}, "id": "FArWevtwDdP3HJYJb09wBBOnNl0=", "properties": {"@spider": "usps_collection_boxes", "addr:city": "SCRANTON", "addr:country": "US", "addr:full": "HITCHCOCK CT", "addr:postcode": "18510", "addr:state": "PA", "amenity": "post_box", "brand": "United States Postal Service", "brand:wikidata": "Q668687", "collection_times": "Mo-Sa 14:00", "name": "USPS COLLECTION BOX - BLUE BOX", "note": "ON 12/24 AND 12/31, THIS BOX MAY BE COLLECTED AS EARLY AS 12 NOON.", "nsi_id": "unitedstatespostalservice-a77078", "operator": "United States Postal Service", "operator:short": "USPS", "operator:type": "public", "operator:wikidata": "Q668687", "ref": "1851000036"}, "type": "Feature"}
{"dataset_attributes": {"@spider": "usps_collection_boxes", "spider:collection_time": "2023-11-13T08:26:09.210319"}, "geometry": {"coordinates": [-75.6593586, 41.409706], "type": "Point"}, "id": "Pg-cKokmkkSLT9ITD4slWAwLReo=", "properties": {"@spider": "usps_collection_boxes", "addr:city": "SCRANTON", "addr:country": "US", "addr:full": "401 ADAMS AVE", "addr:postcode": "18510", "addr:state": "PA", "amenity": "post_box", "brand": "United States Postal Service", "brand:wikidata": "Q668687", "collection_times": "Mo-Fr 09:30", "name": "USPS COLLECTION BOX - BLUE BOX", "nsi_id": "unitedstatespostalservice-a77078", "operator": "United States Postal Service", "operator:short": "USPS", "operator:type": "public", "operator:wikidata": "Q668687", "ref": "1851000041"}, "type": "Feature"}
{"dataset_attributes": {"@spider": "usps_collection_boxes", "spider:collection_time": "2023-11-13T08:26:09.210319"}, "geometry": {"coordinates": [-75.6539861, 41.412772], "type": "Point"}, "id": "odRWRqMKwiBMEpvot8GMJixulog=", "properties": {"@spider": "usps_collection_boxes", "addr:city": "SCRANTON", "addr:country": "US", "addr:full": "743 JEFFERSON AVE", "addr:postcode": "18510", "addr:state": "PA", "amenity": "post_box", "brand": "United States Postal Service", "brand:wikidata": "Q668687", "collection_times": "Mo-Fr 15:00; Sa 10:00", "name": "USPS COLLECTION BOX - BLUE BOX", "note": "ON 12/24 AND 12/31, THIS BOX MAY BE COLLECTED AS EARLY AS 12 NOON.", "nsi_id": "unitedstatespostalservice-a77078", "operator": "United States Postal Service", "operator:short": "USPS", "operator:type": "public", "operator:wikidata": "Q668687", "ref": "1851000043"}, "type": "Feature"}
{"dataset_attributes": {"@spider": "usps_collection_boxes", "spider:collection_time": "2023-11-13T08:26:09.210319"}, "geometry": {"coordinates": [-75.651553, 41.408245], "type": "Point"}, "id": "gPZdqRP6JUDGHtlLCLjnsoJlOnA=", "properties": {"@spider": "usps_collection_boxes", "addr:city": "SCRANTON", "addr:country": "US", "addr:full": "550 CLAY AVE", "addr:postcode": "18510", "addr:state": "PA", "amenity": "post_box", "brand": "United States Postal Service", "brand:wikidata": "Q668687", "collection_times": "Mo-Sa 15:15", "name": "USPS COLLECTION BOX - BLUE BOX", "note": "ON 12/24 AND 12/31, THIS BOX MAY BE COLLECTED AS EARLY AS 12 NOON.", "nsi_id": "unitedstatespostalservice-a77078", "operator": "United States Postal Service", "operator:short": "USPS", "operator:type": "public", "operator:wikidata": "Q668687", "ref": "1851000044"}, "type": "Feature"}
{"dataset_attributes": {"@spider": "usps_collection_boxes", "spider:collection_time": "2023-11-13T08:26:09.210319"}, "geometry": {"coordinates": [-75.6197393, 41.440011], "type": "Point"}, "id": "XXDv2lfVcb5feEZF6vYCnbW_S1I=", "properties": {"@spider": "usps_collection_boxes", "addr:city": "DUNMORE", "addr:country": "US", "addr:full": "120 RIDGEVIEW DR", "addr:postcode": "18512", "addr:state": "PA", "amenity": "post_box", "brand": "United States Postal Service", "brand:wikidata": "Q668687", "collection_times": "Mo-Sa 10:15", "name": "USPS COLLECTION BOX - BLUE BOX", "nsi_id": "unitedstatespostalservice-a77078", "operator": "United States Postal Service", "operator:short": "USPS", "operator:type": "public", "operator:wikidata": "Q668687", "ref": "1851200020"}, "type": "Feature"}
{"dataset_attributes": {"@spider": "usps_collection_boxes", "spider:collection_time": "2023-11-13T08:26:09.210319"}, "geometry": {"coordinates": [-75.6345399, 41.417854], "type": "Point"}, "id": "eD9mZjt8BmMyWNXQaOW6tA_sMe4=", "properties": {"@spider": "usps_collection_boxes", "addr:city": "DUNMORE", "addr:country": "US", "addr:full": "401 S BLAKELY ST", "addr:postcode": "18512", "addr:state": "PA", "amenity": "post_box", "brand": "United States Postal Service", "brand:wikidata": "Q668687", "collection_times": "Mo-Sa 10:45", "name": "USPS COLLECTION BOX - BLUE BOX", "nsi_id": "unitedstatespostalservice-a77078", "operator": "United States Postal Service", "operator:short": "USPS", "operator:type": "public", "operator:wikidata": "Q668687", "ref": "1851200021"}, "type": "Feature"}
{"dataset_attributes": {"@spider": "usps_collection_boxes", "spider:collection_time": "2023-11-13T08:26:09.210319"}, "geometry": {"coordinates": [-75.620775994, 41.445967002], "type": "Point"}, "id": "AkzJOElDsRZCQTYir1igxlT3IMM=", "properties": {"@spider": "usps_collection_boxes", "addr:city": "DUNMORE", "addr:country": "US", "addr:full": "436 SANDERSON ST", "addr:postcode": "18512", "addr:state": "PA", "amenity": "post_box", "brand": "United States Postal Service", "brand:wikidata": "Q668687", "collection_times": "Mo-Sa 11:00", "name": "USPS COLLECTION BOX - BLUE BOX", "nsi_id": "unitedstatespostalservice-a77078", "operator": "United States Postal Service", "operator:short": "USPS", "operator:type": "public", "operator:wikidata": "Q668687", "ref": "1851200023"}, "type": "Feature"}
{"dataset_attributes": {"@spider": "usps_collection_boxes", "spider:collection_time": "2023-11-13T08:26:09.210319"}, "geometry": {"coordinates": [-75.6301677, 41.421833], "type": "Point"}, "id": "Wyp7zKoVdIJGr5gWx1X1xfw9aB4=", "properties": {"@spider": "usps_collection_boxes", "addr:city": "DUNMORE", "addr:country": "US", "addr:full": "108 E DRINKER ST", "addr:postcode": "18512", "addr:state": "PA", "amenity": "post_box", "brand": "United States Postal Service", "brand:wikidata": "Q668687", "collection_times": "Mo-Sa 10:30", "name": "USPS COLLECTION BOX - BLUE BOX", "nsi_id": "unitedstatespostalservice-a77078", "operator": "United States Postal Service", "operator:short": "USPS", "operator:type": "public", "operator:wikidata": "Q668687", "ref": "1851200031"}, "type": "Feature"}
{"dataset_attributes": {"@spider": "usps_collection_boxes", "spider:collection_time": "2023-11-13T08:26:09.210319"}, "geometry": {"coordinates": [-75.6148499, 41.435115], "type": "Point"}, "id": "myhUMVioEY7GLMawMjWHef-dRtE=", "properties": {"@spider": "usps_collection_boxes", "addr:city": "DUNMORE", "addr:country": "US", "addr:full": "85 KEYSTONE INDUSTRIAL PARK", "addr:postcode": "18512", "addr:state": "PA", "amenity": "post_box", "brand": "United States Postal Service", "brand:wikidata": "Q668687", "collection_times": "Mo-Sa 09:30", "name": "USPS COLLECTION BOX - BLUE BOX", "nsi_id": "unitedstatespostalservice-a77078", "operator": "United States Postal Service", "operator:short": "USPS", "operator:type": "public", "operator:wikidata": "Q668687", "ref": "1851200032"}, "type": "Feature"}
{"dataset_attributes": {"@spider": "usps_collection_boxes", "spider:collection_time": "2023-11-13T08:26:09.210319"}, "geometry": {"coordinates": [-75.630303, 41.421989], "type": "Point"}, "id": "DuwwNbySepLHoIavmTHsjKE0e2Y=", "properties": {"@spider": "usps_collection_boxes", "addr:city": "DUNMORE", "addr:country": "US", "addr:full": "114 N BLAKELY ST", "addr:postcode": "18512", "addr:state": "PA", "amenity": "post_box", "brand": "United States Postal Service", "brand:wikidata": "Q668687", "collection_times": "Mo-Fr 16:45; Sa 15:00", "name": "USPS COLLECTION BOX - BLUE BOX", "note": "ON 12/24 AND 12/31, THIS BOX MAY BE COLLECTED AS EARLY AS 12 NOON.", "nsi_id": "unitedstatespostalservice-a77078", "operator": "United States Postal Service", "operator:short": "USPS", "operator:type": "public", "operator:wikidata": "Q668687", "ref": "1851200033"}, "type": "Feature"}
{"dataset_attributes": {"@spider": "usps_collection_boxes", "spider:collection_time": "2023-11-13T08:26:09.210319"}, "geometry": {"coordinates": [-75.6175653, 41.435792], "type": "Point"}, "id": "kHe0JGJOzCQG5mTcAh87dWBQX7w=", "properties": {"@spider": "usps_collection_boxes", "addr:city": "DUNMORE", "addr:country": "US", "addr:full": "1228 ONEILL HWY", "addr:postcode": "18512", "addr:state": "PA", "amenity": "post_box", "brand": "United States Postal Service", "brand:wikidata": "Q668687", "collection_times": "Mo-Sa 09:30", "name": "USPS COLLECTION BOX - BLUE BOX", "nsi_id": "unitedstatespostalservice-a77078", "operator": "United States Postal Service", "operator:short": "USPS", "operator:type": "public", "operator:wikidata": "Q668687", "ref": "1851200039"}, "type": "Feature"}
{"dataset_attributes": {"@spider": "usps_collection_boxes", "spider:collection_time": "2023-11-13T08:26:09.210319"}, "geometry": {"coordinates": [-75.6301293, 41.422345], "type": "Point"}, "id": "yyKIi8GIoHI__o5vTdpKNBHJYVM=", "properties": {"@spider": "usps_collection_boxes", "addr:city": "DUNMORE", "addr:country": "US", "addr:full": "101 N BLAKELY ST", "addr:postcode": "18512", "addr:state": "PA", "amenity": "post_box", "brand": "United States Postal Service", "brand:wikidata": "Q668687", "collection_times": "Mo-Sa 09:30", "name": "USPS COLLECTION BOX - BLUE BOX", "nsi_id": "unitedstatespostalservice-a77078", "operator": "United States Postal Service", "operator:short": "USPS", "operator:type": "public", "operator:wikidata": "Q668687", "ref": "1851200041"}, "type": "Feature"}
{"dataset_attributes": {"@spider": "usps_collection_boxes", "spider:collection_time": "2023-11-13T08:26:09.210319"}, "geometry": {"coordinates": [-75.6141229, 41.418788], "type": "Point"}, "id": "TDIo3R7UP6e2nZtbnPCRmHgkjmk=", "properties": {"@spider": "usps_collection_boxes", "addr:city": "DUNMORE", "addr:country": "US", "addr:full": "771 E DRINKER ST", "addr:postcode": "18512", "addr:state": "PA", "amenity": "post_box", "brand": "United States Postal Service", "brand:wikidata": "Q668687", "collection_times": "Mo-Sa 12:45", "name": "USPS COLLECTION BOX - BLUE BOX", "note": "ON 12/24 AND 12/31, THIS BOX MAY BE COLLECTED AS EARLY AS 12 NOON.", "nsi_id": "unitedstatespostalservice-a77078", "operator": "United States Postal Service", "operator:short": "USPS", "operator:type": "public", "operator:wikidata": "Q668687", "ref": "1851200043"}, "type": "Feature"}
{"dataset_attributes": {"@spider": "usps_collection_boxes", "spider:collection_time": "2023-11-13T08:26:09.210319"}, "geometry": {"coordinates": [-75.630303, 41.421989], "type": "Point"}, "id": "kI8LcRNN-oabve3I41BExJhnXSk=", "properties": {"@spider": "usps_collection_boxes", "addr:city": "DUNMORE", "addr:country": "US", "addr:full": "114 N BLAKELY ST", "addr:postcode": "18512", "addr:state": "PA", "amenity": "post_box", "brand": "United States Postal Service", "brand:wikidata": "Q668687", "collection_times": "Mo-Fr 16:45; Sa 15:00", "name": "USPS COLLECTION BOX - BLUE BOX", "note": "ON 12/24 AND 12/31, THIS BOX MAY BE COLLECTED AS EARLY AS 12 NOON.", "nsi_id": "unitedstatespostalservice-a77078", "operator": "United States Postal Service", "operator:short": "USPS", "operator:type": "public", "operator:wikidata": "Q668687", "ref": "1851200045"}, "type": "Feature"}
{"dataset_attributes": {"@spider": "usps_collection_boxes", "spider:collection_time": "2023-11-13T08:26:09.210319"}, "geometry": {"coordinates": [-75.630303, 41.421989], "type": "Point"}, "id": "VFkAa-Fv0nFzfp2X3pcom48hG8Q=", "properties": {"@spider": "usps_collection_boxes", "addr:city": "DUNMORE", "addr:country": "US", "addr:full": "114 N BLAKELY ST", "addr:postcode": "18512", "addr:state": "PA", "amenity": "post_box", "brand": "United States Postal Service", "brand:wikidata": "Q668687", "collection_times": "Mo-Fr 17:00; Sa 16:00", "name": "USPS COLLECTION BOX - PO LOBBY", "note": "ON 12/24 AND 12/31, THIS BOX MAY BE COLLECTED AS EARLY AS 12 NOON.", "nsi_id": "unitedstatespostalservice-a77078", "operator": "United States Postal Service", "operator:short": "USPS", "operator:type": "public", "operator:wikidata": "Q668687", "ref": "1851200046"}, "type": "Feature"}
{"dataset_attributes": {"@spider": "usps_collection_boxes", "spider:collection_time": "2023-11-13T08:26:09.210319"}, "geometry": {"coordinates": [-75.630111863, 41.422132954], "type": "Point"}, "id": "iTTiiSPoMhhLMD78o23HCnQoubg=", "properties": {"@spider": "usps_collection_boxes", "addr:city": "DUNMORE", "addr:country": "US", "addr:full": "114 N BLAKELY ST", "addr:postcode": "18512", "addr:state": "PA", "amenity": "post_box", "brand": "United States Postal Service", "brand:wikidata": "Q668687", "collection_times": "Mo-Fr 17:00; Sa 13:00", "name": "USPS COLLECTION BOX - PO LOBBY", "note": "ON 12/24 AND 12/31, THIS BOX MAY BE COLLECTED AS EARLY AS 12 NOON.", "nsi_id": "unitedstatespostalservice-a77078", "operator": "United States Postal Service", "operator:short": "USPS", "operator:type": "public", "operator:wikidata": "Q668687", "ref": "1851200050"}, "type": "Feature"}
{"dataset_attributes": {"@spider": "usps_collection_boxes", "spider:collection_time": "2023-11-13T08:26:09.210319"}, "geometry": {"coordinates": [-75.7149363, 41.38413], "type": "Point"}, "id": "1laW1oW4K9wHQS3rmQwpZsdS0w0=", "properties": {"@spider": "usps_collection_boxes", "addr:city": "TAYLOR", "addr:country": "US", "addr:full": "400 W GROVE ST", "addr:postcode": "18517", "addr:state": "PA", "amenity": "post_box", "brand": "United States Postal Service", "brand:wikidata": "Q668687", "collection_times": "Mo-Fr 11:00", "name": "USPS COLLECTION BOX - BLUE BOX", "nsi_id": "unitedstatespostalservice-a77078", "operator": "United States Postal Service", "operator:short": "USPS", "operator:type": "public", "operator:wikidata": "Q668687", "ref": "1851700003"}, "type": "Feature"}
{"dataset_attributes": {"@spider": "usps_collection_boxes", "spider:collection_time": "2023-11-13T08:26:09.210319"}, "geometry": {"coordinates": [-75.72335, 41.376967], "type": "Point"}, "id": "Z36OAfMdCcOSbjZOMdw7dJ8KDQA=", "properties": {"@spider": "usps_collection_boxes", "addr:city": "TAYLOR", "addr:country": "US", "addr:full": "910 S MAIN ST", "addr:postcode": "18517", "addr:state": "PA", "amenity": "post_box", "brand": "United States Postal Service", "brand:wikidata": "Q668687", "collection_times": "Mo-Fr 16:30; Sa 15:30", "name": "USPS COLLECTION BOX - BLUE BOX", "note": "ON 12/24 AND 12/31, THIS BOX MAY BE COLLECTED AS EARLY AS 12 NOON.", "nsi_id": "unitedstatespostalservice-a77078", "operator": "United States Postal Service", "operator:short": "USPS", "operator:type": "public", "operator:wikidata": "Q668687", "ref": "1851700009"}, "type": "Feature"}
{"dataset_attributes": {"@spider": "usps_collection_boxes", "spider:collection_time": "2023-11-13T08:26:09.210319"}, "geometry": {"coordinates": [-75.7233359, 41.37694], "type": "Point"}, "id": "fg2jvuyWg9Czn8yALGDh6yXkdRY=", "properties": {"@spider": "usps_collection_boxes", "addr:city": "TAYLOR", "addr:country": "US", "addr:full": "910 S MAIN ST", "addr:postcode": "18517", "addr:state": "PA", "amenity": "post_box", "brand": "United States Postal Service", "brand:wikidata": "Q668687", "collection_times": "Mo-Fr 16:30; Sa 15:30", "name": "USPS COLLECTION BOX - BLUE BOX", "note": "ON 12/24 AND 12/31, THIS BOX MAY BE COLLECTED AS EARLY AS 12 NOON.", "nsi_id": "unitedstatespostalservice-a77078", "operator": "United States Postal Service", "operator:short": "USPS", "operator:type": "public", "operator:wikidata": "Q668687", "ref": "1851700010"}, "type": "Feature"}
{"dataset_attributes": {"@spider": "usps_collection_boxes", "spider:collection_time": "2023-11-13T08:26:09.210319"}, "geometry": {"coordinates": [-75.72215, 41.377169], "type": "Point"}, "id": "AZdn_YFiWfhjzB9dtoc76bTnuu4=", "properties": {"@spider": "usps_collection_boxes", "addr:city": "TAYLOR", "addr:country": "US", "addr:full": "910 S MAIN ST", "addr:postcode": "18517", "addr:state": "PA", "amenity": "post_box", "brand": "United States Postal Service", "brand:wikidata": "Q668687", "collection_times": "Mo-Fr 16:30; Sa 15:30", "name": "USPS COLLECTION BOX - PO LOBBY", "note": "ON 12/24 AND 12/31, THIS BOX MAY BE COLLECTED AS EARLY AS 12 NOON.", "nsi_id": "unitedstatespostalservice-a77078", "operator": "United States Postal Service", "operator:short": "USPS", "operator:type": "public", "operator:wikidata": "Q668687", "ref": "1851700012"}, "type": "Feature"}
{"dataset_attributes": {"@spider": "usps_collection_boxes", "spider:collection_time": "2023-11-13T08:26:09.210319"}, "geometry": {"coordinates": [-75.72238336, 41.377122847], "type": "Point"}, "id": "-ghWYqD0slhgYSWhmQjcVFW-KgU=", "properties": {"@spider": "usps_collection_boxes", "addr:city": "TAYLOR", "addr:country": "US", "addr:full": "910 S MAIN ST", "addr:postcode": "18517", "addr:state": "PA", "amenity": "post_box", "brand": "United States Postal Service", "brand:wikidata": "Q668687", "collection_times": "Mo-Fr 16:30; Sa 13:00", "name": "USPS COLLECTION BOX - PO LOBBY", "note": "ON 12/24 AND 12/31, THIS BOX MAY BE COLLECTED AS EARLY AS 12 NOON.", "nsi_id": "unitedstatespostalservice-a77078", "operator": "United States Postal Service", "operator:short": "USPS", "operator:type": "public", "operator:wikidata": "Q668687", "ref": "1851700016"}, "type": "Feature"}
{"dataset_attributes": {"@spider": "usps_collection_boxes", "spider:collection_time": "2023-11-13T08:26:09.210319"}, "geometry": {"coordinates": [-75.7382573, 41.36772], "type": "Point"}, "id": "_0GvifcODSajeRioBaPwpVnoM0k=", "properties": {"@spider": "usps_collection_boxes", "addr:city": "OLD FORGE", "addr:country": "US", "addr:full": "445 S MAIN ST", "addr:postcode": "18518", "addr:state": "PA", "amenity": "post_box", "brand": "United States Postal Service", "brand:wikidata": "Q668687", "collection_times": "Mo-Fr 09:15", "name": "USPS COLLECTION BOX - BLUE BOX", "nsi_id": "unitedstatespostalservice-a77078", "operator": "United States Postal Service", "operator:short": "USPS", "operator:type": "public", "operator:wikidata": "Q668687", "ref": "1851800002"}, "type": "Feature"}
{"dataset_attributes": {"@spider": "usps_collection_boxes", "spider:collection_time": "2023-11-13T08:26:09.210319"}, "geometry": {"coordinates": [-75.7356038, 41.370377], "type": "Point"}, "id": "_0Y7J2Y9391Sa_r_MyzkaYm6x6o=", "properties": {"@spider": "usps_collection_boxes", "addr:city": "OLD FORGE", "addr:country": "US", "addr:full": "216 S MAIN ST", "addr:postcode": "18518", "addr:state": "PA", "amenity": "post_box", "brand": "United States Postal Service", "brand:wikidata": "Q668687", "collection_times": "Mo-Sa 09:00", "name": "USPS COLLECTION BOX - BLUE BOX", "nsi_id": "unitedstatespostalservice-a77078", "operator": "United States Postal Service", "operator:short": "USPS", "operator:type": "public", "operator:wikidata": "Q668687", "ref": "1851800003"}, "type": "Feature"}
{"dataset_attributes": {"@spider": "usps_collection_boxes", "spider:collection_time": "2023-11-13T08:26:09.210319"}, "geometry": {"coordinates": [-75.7352862, 41.37114], "type": "Point"}, "id": "n_vETr7YS5zubUbBVHg-N3hIjPc=", "properties": {"@spider": "usps_collection_boxes", "addr:city": "OLD FORGE", "addr:country": "US", "addr:full": "101 S MAIN ST", "addr:postcode": "18518", "addr:state": "PA", "amenity": "post_box", "brand": "United States Postal Service", "brand:wikidata": "Q668687", "collection_times": "Mo-Sa 09:30", "name": "USPS COLLECTION BOX - BLUE BOX", "nsi_id": "unitedstatespostalservice-a77078", "operator": "United States Postal Service", "operator:short": "USPS", "operator:type": "public", "operator:wikidata": "Q668687", "ref": "1851800004"}, "type": "Feature"}
{"dataset_attributes": {"@spider": "usps_collection_boxes", "spider:collection_time": "2023-11-13T08:26:09.210319"}, "geometry": {"coordinates": [-75.7338936, 41.370136], "type": "Point"}, "id": "q-5VETXgyOW59Ojv5BozbrANCzM=", "properties": {"@spider": "usps_collection_boxes", "addr:city": "OLD FORGE", "addr:country": "US", "addr:full": "133 MOOSIC RD", "addr:postcode": "18518", "addr:state": "PA", "amenity": "post_box", "brand": "United States Postal Service", "brand:wikidata": "Q668687", "collection_times": "Mo-Sa 10:30", "name": "USPS COLLECTION BOX - BLUE BOX", "nsi_id": "unitedstatespostalservice-a77078", "operator": "United States Postal Service", "operator:short": "USPS", "operator:type": "public", "operator:wikidata": "Q668687", "ref": "1851800010"}, "type": "Feature"}
{"dataset_attributes": {"@spider": "usps_collection_boxes", "spider:collection_time": "2023-11-13T08:26:09.210319"}, "geometry": {"coordinates": [-75.7421127, 41.36314], "type": "Point"}, "id": "I_h2qVPGr8ryVXkN51WRUZO2JJo=", "properties": {"@spider": "usps_collection_boxes", "addr:city": "OLD FORGE", "addr:country": "US", "addr:full": "730 S MAIN ST", "addr:postcode": "18518", "addr:state": "PA", "amenity": "post_box", "brand": "United States Postal Service", "brand:wikidata": "Q668687", "collection_times": "Mo-Sa 09:00", "name": "USPS COLLECTION BOX - BLUE BOX", "nsi_id": "unitedstatespostalservice-a77078", "operator": "United States Postal Service", "operator:short": "USPS", "operator:type": "public", "operator:wikidata": "Q668687", "ref": "1851800014"}, "type": "Feature"}
{"dataset_attributes": {"@spider": "usps_collection_boxes", "spider:collection_time": "2023-11-13T08:26:09.210319"}, "geometry": {"coordinates": [-75.7491353, 41.354697], "type": "Point"}, "id": "ezZ5rWVuRmqQJsU1-NjG873xRkw=", "properties": {"@spider": "usps_collection_boxes", "addr:city": "OLD FORGE", "addr:country": "US", "addr:full": "401 BRIDGE ST", "addr:postcode": "18518", "addr:state": "PA", "amenity": "post_box", "brand": "United States Postal Service", "brand:wikidata": "Q668687", "collection_times": "Mo-Sa 11:00", "name": "USPS COLLECTION BOX - BLUE BOX", "nsi_id": "unitedstatespostalservice-a77078", "operator": "United States Postal Service", "operator:short": "USPS", "operator:type": "public", "operator:wikidata": "Q668687", "ref": "1851800017"}, "type": "Feature"}
{"dataset_attributes": {"@spider": "usps_collection_boxes", "spider:collection_time": "2023-11-13T08:26:09.210319"}, "geometry": {"coordinates": [-75.6236031, 41.45449], "type": "Point"}, "id": "lNNlALe_ZTh0WHnFgT9er7x_mIA=", "properties": {"@spider": "usps_collection_boxes", "addr:city": "SCRANTON", "addr:country": "US", "addr:full": "548 BOULEVARD AVE", "addr:postcode": "18519", "addr:state": "PA", "amenity": "post_box", "brand": "United States Postal Service", "brand:wikidata": "Q668687", "collection_times": "Mo-Sa 11:45", "name": "USPS COLLECTION BOX - BLUE BOX", "nsi_id": "unitedstatespostalservice-a77078", "operator": "United States Postal Service", "operator:short": "USPS", "operator:type": "public", "operator:wikidata": "Q668687", "ref": "1851900001"}, "type": "Feature"}
{"dataset_attributes": {"@spider": "usps_collection_boxes", "spider:collection_time": "2023-11-13T08:26:09.210319"}, "geometry": {"coordinates": [-75.6351764, 41.452749], "type": "Point"}, "id": "g-5BAAw5ZzrgNCWdbznFgN9W3VY=", "properties": {"@spider": "usps_collection_boxes", "addr:city": "SCRANTON", "addr:country": "US", "addr:full": "235 MAIN ST", "addr:postcode": "18519", "addr:state": "PA", "amenity": "post_box", "brand": "United States Postal Service", "brand:wikidata": "Q668687", "collection_times": "Mo-Sa 10:15", "name": "USPS COLLECTION BOX - BLUE BOX", "nsi_id": "unitedstatespostalservice-a77078", "operator": "United States Postal Service", "operator:short": "USPS", "operator:type": "public", "operator:wikidata": "Q668687", "ref": "1851900009"}, "type": "Feature"}
{"dataset_attributes": {"@spider": "usps_collection_boxes", "spider:collection_time": "2023-11-13T08:26:09.210319"}, "geometry": {"coordinates": [-75.6240431, 41.45898], "type": "Point"}, "id": "DBZudSxUOfFZ-hYPnvrW38g6G9o=", "properties": {"@spider": "usps_collection_boxes", "addr:city": "SCRANTON", "addr:country": "US", "addr:full": "801 BOULEVARD AVE", "addr:postcode": "18519", "addr:state": "PA", "amenity": "post_box", "brand": "United States Postal Service", "brand:wikidata": "Q668687", "collection_times": "Mo-Sa 09:15", "name": "USPS COLLECTION BOX - BLUE BOX", "nsi_id": "unitedstatespostalservice-a77078", "operator": "United States Postal Service", "operator:short": "USPS", "operator:type": "public", "operator:wikidata": "Q668687", "ref": "1851900015"}, "type": "Feature"}
