{"geometry": {"coordinates": [-75.7538057, 41.176846], "type": "Point"}, "id": "V7faFj5nL_vVvtrBG-1QaP6O90s=", "properties": {"@source_uri": "https://tools.usps.com/UspsToolsRestServices/rest/POLocator/findLocations", "@spider": "usps_collection_boxes", "addr:city": "WILKES BARRE", "addr:country": "US", "addr:postcode": "18602", "addr:state": "PA", "addr:street_address": "90 WHITE HAVEN RD", "amenity": "post_box", "collection_times": "Mo-Fr 16:00; Sa 14:30", "note": "ON 12/24 AND 12/31, THIS BOX MAY BE COLLECTED AS EARLY AS 12 NOON.", "nsi_id": "unitedstatespostalservice-a77078", "operator": "United States Postal Service", "operator:short": "USPS", "operator:type": "public", "operator:wikidata": "Q668687", "ref": "1860200000"}, "type": "Feature"}
{"geometry": {"coordinates": [-76.2327326, 41.057617], "type": "Point"}, "id": "N2nW-5gVXjn_SkogiENuVp4-KTE=", "properties": {"@source_uri": "https://tools.usps.com/UspsToolsRestServices/rest/POLocator/findLocations", "@spider": "usps_collection_boxes", "addr:city": "BERWICK", "addr:country": "US", "addr:postcode": "18603", "addr:state": "PA", "addr:street_address": "200 WYANDOTTE AVE", "amenity": "post_box", "collection_times": "Mo-Fr 17:00; Sa 16:00", "note": "ON 12/24 AND 12/31, THIS BOX MAY BE COLLECTED AS EARLY AS 12 NOON.", "nsi_id": "unitedstatespostalservice-a77078", "operator": "United States Postal Service", "operator:short": "USPS", "operator:type": "public", "operator:wikidata": "Q668687", "ref": "1860300001"}, "type": "Feature"}
{"geometry": {"coordinates": [-76.2266047, 41.06132], "type": "Point"}, "id": "qXY0YLSY6i0m0svWYfNHfAaUIcg=", "properties": {"@source_uri": "https://tools.usps.com/UspsToolsRestServices/rest/POLocator/findLocations", "@spider": "usps_collection_boxes", "addr:city": "BERWICK", "addr:country": "US", "addr:postcode": "18603", "addr:state": "PA", "addr:street_address": "400 FOWLER AVE", "amenity": "post_box", "collection_times": "Mo-Sa 09:00", "nsi_id": "unitedstatespostalservice-a77078", "operator": "United States Postal Service", "operator:short": "USPS", "operator:type": "public", "operator:wikidata": "Q668687", "ref": "1860300007"}, "type": "Feature"}
{"geometry": {"coordinates": [-76.2373829, 41.063423], "type": "Point"}, "id": "SUAI6tYBA523XysBq6RCyNR3qwo=", "properties": {"@source_uri": "https://tools.usps.com/UspsToolsRestServices/rest/POLocator/findLocations", "@spider": "usps_collection_boxes", "addr:city": "BERWICK", "addr:country": "US", "addr:postcode": "18603", "addr:state": "PA", "addr:street_address": "1205 CHESTNUT ST", "amenity": "post_box", "collection_times": "Mo-Sa 09:00", "nsi_id": "unitedstatespostalservice-a77078", "operator": "United States Postal Service", "operator:short": "USPS", "operator:type": "public", "operator:wikidata": "Q668687", "ref": "1860300014"}, "type": "Feature"}
{"geometry": {"coordinates": [-76.2374749, 41.052965], "type": "Point"}, "id": "Pq-vAomZ0OGxteeoBBtyfou5nWo=", "properties": {"@source_uri": "https://tools.usps.com/UspsToolsRestServices/rest/POLocator/findLocations", "@spider": "usps_collection_boxes", "addr:city": "BERWICK", "addr:country": "US", "addr:postcode": "18603", "addr:state": "PA", "addr:street_address": "317 W FRONT ST", "amenity": "post_box", "collection_times": "Mo-Sa 09:00", "nsi_id": "unitedstatespostalservice-a77078", "operator": "United States Postal Service", "operator:short": "USPS", "operator:type": "public", "operator:wikidata": "Q668687", "ref": "1860300023"}, "type": "Feature"}
{"geometry": {"coordinates": [-76.234437, 41.054431], "type": "Point"}, "id": "CR7g8O3MEwZVHf7gzA2p2ELxxNw=", "properties": {"@source_uri": "https://tools.usps.com/UspsToolsRestServices/rest/POLocator/findLocations", "@spider": "usps_collection_boxes", "addr:city": "BERWICK", "addr:country": "US", "addr:postcode": "18603", "addr:state": "PA", "addr:street_address": "123 W FRONT ST", "amenity": "post_box", "collection_times": "Mo-Sa 09:00", "nsi_id": "unitedstatespostalservice-a77078", "operator": "United States Postal Service", "operator:short": "USPS", "operator:type": "public", "operator:wikidata": "Q668687", "ref": "1860300024"}, "type": "Feature"}
{"geometry": {"coordinates": [-76.2337687, 41.054792], "type": "Point"}, "id": "HpA4KKYrGtI7CrwuymmgmgH0McY=", "properties": {"@source_uri": "https://tools.usps.com/UspsToolsRestServices/rest/POLocator/findLocations", "@spider": "usps_collection_boxes", "addr:city": "BERWICK", "addr:country": "US", "addr:postcode": "18603", "addr:state": "PA", "addr:street_address": "101 W FRONT ST", "amenity": "post_box", "collection_times": "Mo-Sa 09:00", "nsi_id": "unitedstatespostalservice-a77078", "operator": "United States Postal Service", "operator:short": "USPS", "operator:type": "public", "operator:wikidata": "Q668687", "ref": "1860300025"}, "type": "Feature"}
{"geometry": {"coordinates": [-76.2541461, 41.059509], "type": "Point"}, "id": "UYzCyzqaaORnraog2sszlFkuO5k=", "properties": {"@source_uri": "https://tools.usps.com/UspsToolsRestServices/rest/POLocator/findLocations", "@spider": "usps_collection_boxes", "addr:city": "BERWICK", "addr:country": "US", "addr:postcode": "18603", "addr:state": "PA", "addr:street_address": "1147 FREAS AVE", "amenity": "post_box", "collection_times": "Mo-Sa 12:00", "nsi_id": "unitedstatespostalservice-a77078", "operator": "United States Postal Service", "operator:short": "USPS", "operator:type": "public", "operator:wikidata": "Q668687", "ref": "1860300031"}, "type": "Feature"}
{"geometry": {"coordinates": [-76.2425128, 41.051077], "type": "Point"}, "id": "bAg7gdT2hFN3oxCGXLRxzWsI3s0=", "properties": {"@source_uri": "https://tools.usps.com/UspsToolsRestServices/rest/POLocator/findLocations", "@spider": "usps_collection_boxes", "addr:city": "BERWICK", "addr:country": "US", "addr:postcode": "18603", "addr:state": "PA", "addr:street_address": "543 W FRONT ST", "amenity": "post_box", "collection_times": "Mo-Sa 14:00", "note": "ON 12/24 AND 12/31, THIS BOX MAY BE COLLECTED AS EARLY AS 12 NOON.", "nsi_id": "unitedstatespostalservice-a77078", "operator": "United States Postal Service", "operator:short": "USPS", "operator:type": "public", "operator:wikidata": "Q668687", "ref": "1860300039"}, "type": "Feature"}
{"geometry": {"coordinates": [-76.230987056, 41.0701867901], "type": "Point"}, "id": "sh6GVLh4027qlXwcZ9PRKpfFMuQ=", "properties": {"@source_uri": "https://tools.usps.com/UspsToolsRestServices/rest/POLocator/findLocations", "@spider": "usps_collection_boxes", "addr:city": "BERWICK", "addr:country": "US", "addr:postcode": "18603", "addr:state": "PA", "addr:street_address": "701 E 16TH ST", "amenity": "post_box", "collection_times": "Mo-Sa 09:00", "nsi_id": "unitedstatespostalservice-a77078", "operator": "United States Postal Service", "operator:short": "USPS", "operator:type": "public", "operator:wikidata": "Q668687", "ref": "1860300045"}, "type": "Feature"}
{"geometry": {"coordinates": [-76.2327417, 41.057611], "type": "Point"}, "id": "z4hvnM7xWYdp-U_v-g_LPb5jwQw=", "properties": {"@source_uri": "https://tools.usps.com/UspsToolsRestServices/rest/POLocator/findLocations", "@spider": "usps_collection_boxes", "addr:city": "BERWICK", "addr:country": "US", "addr:postcode": "18603", "addr:state": "PA", "addr:street_address": "200 WYANDOTTE AVE", "amenity": "post_box", "collection_times": "Mo-Fr 17:00; Sa 16:00", "note": "ON 12/24 AND 12/31, THIS BOX MAY BE COLLECTED AS EARLY AS 12 NOON.", "nsi_id": "unitedstatespostalservice-a77078", "operator": "United States Postal Service", "operator:short": "USPS", "operator:type": "public", "operator:wikidata": "Q668687", "ref": "1860300049"}, "type": "Feature"}
{"geometry": {"coordinates": [-76.232918, 41.056972], "type": "Point"}, "id": "ldAzAQyPXlDlRwfzj6lxf4eGqr4=", "properties": {"@source_uri": "https://tools.usps.com/UspsToolsRestServices/rest/POLocator/findLocations", "@spider": "usps_collection_boxes", "addr:city": "BERWICK", "addr:country": "US", "addr:postcode": "18603", "addr:state": "PA", "addr:street_address": "330 PINE ST", "amenity": "post_box", "collection_times": "Mo-Fr 16:45; Sa 16:00", "indoor": "yes", "note": "ON 12/24 AND 12/31, THIS BOX MAY BE COLLECTED AS EARLY AS 12 NOON.", "nsi_id": "unitedstatespostalservice-a77078", "operator": "United States Postal Service", "operator:short": "USPS", "operator:type": "public", "operator:wikidata": "Q668687", "ref": "1860300050"}, "type": "Feature"}
{"geometry": {"coordinates": [-76.2745562, 41.049015], "type": "Point"}, "id": "lBEDndU3Xx9fibfh5_alMd-U-Vw=", "properties": {"@source_uri": "https://tools.usps.com/UspsToolsRestServices/rest/POLocator/findLocations", "@spider": "usps_collection_boxes", "addr:city": "BERWICK", "addr:country": "US", "addr:postcode": "18603", "addr:state": "PA", "addr:street_address": "45 BRIAR CREEK PLZ", "amenity": "post_box", "collection_times": "Mo-Sa 09:45", "nsi_id": "unitedstatespostalservice-a77078", "operator": "United States Postal Service", "operator:short": "USPS", "operator:type": "public", "operator:wikidata": "Q668687", "ref": "1860300052"}, "type": "Feature"}
{"geometry": {"coordinates": [-76.3593047, 41.048665], "type": "Point"}, "id": "DasGNKlZq48dfMc43pAdxXi7IAU=", "properties": {"@source_uri": "https://tools.usps.com/UspsToolsRestServices/rest/POLocator/findLocations", "@spider": "usps_collection_boxes", "addr:city": "BERWICK", "addr:country": "US", "addr:postcode": "18603", "addr:state": "PA", "addr:street_address": "202 SKYLINE DR", "amenity": "post_box", "collection_times": "Mo-Sa 11:30", "nsi_id": "unitedstatespostalservice-a77078", "operator": "United States Postal Service", "operator:short": "USPS", "operator:type": "public", "operator:wikidata": "Q668687", "ref": "1860300055"}, "type": "Feature"}
{"geometry": {"coordinates": [-76.1872229, 41.088237], "type": "Point"}, "id": "lkduOF0jqkAUiOp2kdLVEXx8UnA=", "properties": {"@source_uri": "https://tools.usps.com/UspsToolsRestServices/rest/POLocator/findLocations", "@spider": "usps_collection_boxes", "addr:city": "BERWICK", "addr:country": "US", "addr:postcode": "18603", "addr:state": "PA", "addr:street_address": "384 STONE CHURCH RD", "amenity": "post_box", "collection_times": "Mo-Sa 09:00", "nsi_id": "unitedstatespostalservice-a77078", "operator": "United States Postal Service", "operator:short": "USPS", "operator:type": "public", "operator:wikidata": "Q668687", "ref": "1860300056"}, "type": "Feature"}
{"geometry": {"coordinates": [-76.2339652, 41.053968], "type": "Point"}, "id": "uw8gPTjUWasy_O2nDBP0tLIV0Sw=", "properties": {"@source_uri": "https://tools.usps.com/UspsToolsRestServices/rest/POLocator/findLocations", "@spider": "usps_collection_boxes", "addr:city": "BERWICK", "addr:country": "US", "addr:postcode": "18603", "addr:state": "PA", "addr:street_address": "107 S MARKET ST", "amenity": "post_box", "collection_times": "Mo-Sa 09:00", "nsi_id": "unitedstatespostalservice-a77078", "operator": "United States Postal Service", "operator:short": "USPS", "operator:type": "public", "operator:wikidata": "Q668687", "ref": "1860300057"}, "type": "Feature"}
{"geometry": {"coordinates": [-76.23322788, 41.057300291], "type": "Point"}, "id": "PFk8U282reb8iVDicBxQq6iEQQ8=", "properties": {"@source_uri": "https://tools.usps.com/UspsToolsRestServices/rest/POLocator/findLocations", "@spider": "usps_collection_boxes", "addr:city": "BERWICK", "addr:country": "US", "addr:postcode": "18603", "addr:state": "PA", "addr:street_address": "330 PINE ST", "amenity": "post_box", "collection_times": "Mo-Fr 16:00; Sa 12:00", "indoor": "yes", "note": "ON 12/24 AND 12/31, THIS BOX MAY BE COLLECTED AS EARLY AS 12 NOON.", "nsi_id": "unitedstatespostalservice-a77078", "operator": "United States Postal Service", "operator:short": "USPS", "operator:type": "public", "operator:wikidata": "Q668687", "ref": "1860300061"}, "type": "Feature"}
{"geometry": {"coordinates": [-75.5947736, 41.0913278], "type": "Point"}, "id": "B9-PNBVL-vOL2UBNyJhHfyn8Xh8=", "properties": {"@source_uri": "https://tools.usps.com/UspsToolsRestServices/rest/POLocator/findLocations", "@spider": "usps_collection_boxes", "addr:city": "BLAKESLEE", "addr:country": "US", "addr:postcode": "18610", "addr:state": "PA", "addr:street_address": "5677 ROUTE 115", "amenity": "post_box", "collection_times": "Mo-Fr 16:00; Sa 13:00", "note": "ON 12/24 AND 12/31, THIS BOX MAY BE COLLECTED AS EARLY AS 12 NOON.", "nsi_id": "unitedstatespostalservice-a77078", "operator": "United States Postal Service", "operator:short": "USPS", "operator:type": "public", "operator:wikidata": "Q668687", "ref": "1861000001"}, "type": "Feature"}
{"geometry": {"coordinates": [-75.593062, 41.093088], "type": "Point"}, "id": "0ISlIRE0kDap0ARePoUw_DMsBFs=", "properties": {"@source_uri": "https://tools.usps.com/UspsToolsRestServices/rest/POLocator/findLocations", "@spider": "usps_collection_boxes", "addr:city": "BLAKESLEE", "addr:country": "US", "addr:postcode": "18610", "addr:state": "PA", "addr:street_address": "5677 ROUTE 115", "amenity": "post_box", "collection_times": "Mo-Fr 16:00; Sa 13:00", "indoor": "yes", "note": "ON 12/24 AND 12/31, THIS BOX MAY BE COLLECTED AS EARLY AS 12 NOON.", "nsi_id": "unitedstatespostalservice-a77078", "operator": "United States Postal Service", "operator:short": "USPS", "operator:type": "public", "operator:wikidata": "Q668687", "ref": "1861000004"}, "type": "Feature"}
{"geometry": {"coordinates": [-75.593393194, 41.093340321], "type": "Point"}, "id": "GrGMb6TSOUsrt8yQV_u7cLAugBE=", "properties": {"@source_uri": "https://tools.usps.com/UspsToolsRestServices/rest/POLocator/findLocations", "@spider": "usps_collection_boxes", "addr:city": "BLAKESLEE", "addr:country": "US", "addr:postcode": "18610", "addr:state": "PA", "addr:street_address": "5677 ROUTE 115", "amenity": "post_box", "collection_times": "Mo-Fr 17:00; Sa 13:00", "indoor": "yes", "note": "ON 12/24 AND 12/31, THIS BOX MAY BE COLLECTED AS EARLY AS 12 NOON.", "nsi_id": "unitedstatespostalservice-a77078", "operator": "United States Postal Service", "operator:short": "USPS", "operator:type": "public", "operator:wikidata": "Q668687", "ref": "1861000007"}, "type": "Feature"}
{"geometry": {"coordinates": [-76.3055600259, 41.1969322876], "type": "Point"}, "id": "aWqs-GGnyAntTnrt7Y2IOdLj9N4=", "properties": {"@source_uri": "https://tools.usps.com/UspsToolsRestServices/rest/POLocator/findLocations", "@spider": "usps_collection_boxes", "addr:city": "CAMBRA", "addr:country": "US", "addr:postcode": "18611", "addr:state": "PA", "addr:street_address": "1334 OLD TIOGA TPKE", "amenity": "post_box", "collection_times": "Mo-Fr 16:15; Sa 12:00", "indoor": "yes", "note": "ON 12/24 AND 12/31, THIS BOX MAY BE COLLECTED AS EARLY AS 12 NOON.", "nsi_id": "unitedstatespostalservice-a77078", "operator": "United States Postal Service", "operator:short": "USPS", "operator:type": "public", "operator:wikidata": "Q668687", "ref": "1861100002"}, "type": "Feature"}
{"geometry": {"coordinates": [-76.305822057, 41.197985371], "type": "Point"}, "id": "4aOexzpNwlmFdsXcuolmo3S20eY=", "properties": {"@source_uri": "https://tools.usps.com/UspsToolsRestServices/rest/POLocator/findLocations", "@spider": "usps_collection_boxes", "addr:city": "CAMBRA", "addr:country": "US", "addr:postcode": "18611", "addr:state": "PA", "addr:street_address": "1334 OLD TIOGA TPKE", "amenity": "post_box", "collection_times": "Mo-Fr 16:15; Sa 12:00", "indoor": "yes", "note": "ON 12/24 AND 12/31, THIS BOX MAY BE COLLECTED AS EARLY AS 12 NOON.", "nsi_id": "unitedstatespostalservice-a77078", "operator": "United States Postal Service", "operator:short": "USPS", "operator:type": "public", "operator:wikidata": "Q668687", "ref": "1861100004"}, "type": "Feature"}
{"geometry": {"coordinates": [-75.9568787, 41.333503], "type": "Point"}, "id": "i4l3tSoAmOvWoL7SK5g06X9EoQw=", "properties": {"@source_uri": "https://tools.usps.com/UspsToolsRestServices/rest/POLocator/findLocations", "@spider": "usps_collection_boxes", "addr:city": "DALLAS", "addr:country": "US", "addr:postcode": "18612", "addr:state": "PA", "addr:street_address": "2525 MEMORIAL HWY", "amenity": "post_box", "collection_times": "Mo-Sa 11:00", "nsi_id": "unitedstatespostalservice-a77078", "operator": "United States Postal Service", "operator:short": "USPS", "operator:type": "public", "operator:wikidata": "Q668687", "ref": "1861200004"}, "type": "Feature"}
{"geometry": {"coordinates": [-75.9694999, 41.341525], "type": "Point"}, "id": "64rUEPzS3m8Isr0BW5ate4wAoRA=", "properties": {"@source_uri": "https://tools.usps.com/UspsToolsRestServices/rest/POLocator/findLocations", "@spider": "usps_collection_boxes", "addr:city": "DALLAS", "addr:country": "US", "addr:postcode": "18612", "addr:state": "PA", "addr:street_address": "220 LAKE ST", "amenity": "post_box", "collection_times": "Mo-Fr 13:30; Sa 09:30", "note": "ON 12/24 AND 12/31, THIS BOX MAY BE COLLECTED AS EARLY AS 12 NOON.", "nsi_id": "unitedstatespostalservice-a77078", "operator": "United States Postal Service", "operator:short": "USPS", "operator:type": "public", "operator:wikidata": "Q668687", "ref": "1861200010"}, "type": "Feature"}
{"geometry": {"coordinates": [-75.972952, 41.340546], "type": "Point"}, "id": "D9WqauufBeDp30kJRhG_86grQqk=", "properties": {"@source_uri": "https://tools.usps.com/UspsToolsRestServices/rest/POLocator/findLocations", "@spider": "usps_collection_boxes", "addr:city": "DALLAS", "addr:country": "US", "addr:postcode": "18612", "addr:state": "PA", "addr:street_address": "2759 MEMORIAL HWY", "amenity": "post_box", "collection_times": "Mo-Fr 17:00; Sa 16:00", "note": "ON 12/24 AND 12/31, THIS BOX MAY BE COLLECTED AS EARLY AS 12 NOON.", "nsi_id": "unitedstatespostalservice-a77078", "operator": "United States Postal Service", "operator:short": "USPS", "operator:type": "public", "operator:wikidata": "Q668687", "ref": "1861200011"}, "type": "Feature"}
{"geometry": {"coordinates": [-75.973034, 41.340534], "type": "Point"}, "id": "AC2epfa-fTilqjnmN1uoEDPAUmA=", "properties": {"@source_uri": "https://tools.usps.com/UspsToolsRestServices/rest/POLocator/findLocations", "@spider": "usps_collection_boxes", "addr:city": "DALLAS", "addr:country": "US", "addr:postcode": "18612", "addr:state": "PA", "addr:street_address": "2759 MEMORIAL HWY", "amenity": "post_box", "collection_times": "Mo-Fr 16:45; Sa 16:00", "indoor": "yes", "note": "ON 12/24 AND 12/31, THIS BOX MAY BE COLLECTED AS EARLY AS 12 NOON.", "nsi_id": "unitedstatespostalservice-a77078", "operator": "United States Postal Service", "operator:short": "USPS", "operator:type": "public", "operator:wikidata": "Q668687", "ref": "1861200013"}, "type": "Feature"}
{"geometry": {"coordinates": [-75.97297409, 41.340585731], "type": "Point"}, "id": "JSO3ROgIGFToeWPKKgB3s5hbRM8=", "properties": {"@source_uri": "https://tools.usps.com/UspsToolsRestServices/rest/POLocator/findLocations", "@spider": "usps_collection_boxes", "addr:city": "DALLAS", "addr:country": "US", "addr:postcode": "18612", "addr:state": "PA", "addr:street_address": "2759 MEMORIAL HWY", "amenity": "post_box", "collection_times": "Mo-Fr 17:00; Sa 12:00", "indoor": "yes", "note": "ON 12/24 AND 12/31, THIS BOX MAY BE COLLECTED AS EARLY AS 12 NOON.", "nsi_id": "unitedstatespostalservice-a77078", "operator": "United States Postal Service", "operator:short": "USPS", "operator:type": "public", "operator:wikidata": "Q668687", "ref": "1861200020"}, "type": "Feature"}
{"geometry": {"coordinates": [-76.401839, 41.523962], "type": "Point"}, "id": "LD9zzBW9i7oZ7r_vR81AqROIzEw=", "properties": {"@source_uri": "https://tools.usps.com/UspsToolsRestServices/rest/POLocator/findLocations", "@spider": "usps_collection_boxes", "addr:city": "DUSHORE", "addr:country": "US", "addr:postcode": "18614", "addr:state": "PA", "addr:street_address": "205 CENTER ST", "amenity": "post_box", "collection_times": "Mo-Fr 16:30; Sa 11:00", "note": "ON 12/24 AND 12/31, THIS BOX MAY BE COLLECTED AS EARLY AS 12 NOON.", "nsi_id": "unitedstatespostalservice-a77078", "operator": "United States Postal Service", "operator:short": "USPS", "operator:type": "public", "operator:wikidata": "Q668687", "ref": "1861400001"}, "type": "Feature"}
{"geometry": {"coordinates": [-76.4002474, 41.526166], "type": "Point"}, "id": "4vi3XUjsJOVVzdKCYxAisIbRB7I=", "properties": {"@source_uri": "https://tools.usps.com/UspsToolsRestServices/rest/POLocator/findLocations", "@spider": "usps_collection_boxes", "addr:city": "DUSHORE", "addr:country": "US", "addr:postcode": "18614", "addr:state": "PA", "addr:street_address": "135 N GERMAN ST", "amenity": "post_box", "collection_times": "Mo-Sa 09:00", "nsi_id": "unitedstatespostalservice-a77078", "operator": "United States Postal Service", "operator:short": "USPS", "operator:type": "public", "operator:wikidata": "Q668687", "ref": "1861400002"}, "type": "Feature"}
{"geometry": {"coordinates": [-76.4519515438, 41.5428954314], "type": "Point"}, "id": "1LXm8tX90f4eIZUK_O1sFQznxPU=", "properties": {"@source_uri": "https://tools.usps.com/UspsToolsRestServices/rest/POLocator/findLocations", "@spider": "usps_collection_boxes", "addr:city": "DUSHORE", "addr:country": "US", "addr:postcode": "18614", "addr:state": "PA", "addr:street_address": "DUSHORE OVERTON ROAD", "amenity": "post_box", "collection_times": "Mo-Sa 12:30", "note": "ON 12/24 AND 12/31, THIS BOX MAY BE COLLECTED AS EARLY AS 12 NOON.", "nsi_id": "unitedstatespostalservice-a77078", "operator": "United States Postal Service", "operator:short": "USPS", "operator:type": "public", "operator:wikidata": "Q668687", "ref": "1861400003"}, "type": "Feature"}
{"geometry": {"coordinates": [-76.401921, 41.523891], "type": "Point"}, "id": "VbYcIDbjaFCAoHwe_sRRvWBSBB0=", "properties": {"@source_uri": "https://tools.usps.com/UspsToolsRestServices/rest/POLocator/findLocations", "@spider": "usps_collection_boxes", "addr:city": "DUSHORE", "addr:country": "US", "addr:postcode": "18614", "addr:state": "PA", "addr:street_address": "205 CENTER ST", "amenity": "post_box", "collection_times": "Mo-Fr 16:30; Sa 11:00", "indoor": "yes", "note": "ON 12/24 AND 12/31, THIS BOX MAY BE COLLECTED AS EARLY AS 12 NOON.", "nsi_id": "unitedstatespostalservice-a77078", "operator": "United States Postal Service", "operator:short": "USPS", "operator:type": "public", "operator:wikidata": "Q668687", "ref": "1861400005"}, "type": "Feature"}
{"geometry": {"coordinates": [-76.401853828, 41.523990549], "type": "Point"}, "id": "FQYj-NgcrlWDCAg1W_jIQpWE2Yo=", "properties": {"@source_uri": "https://tools.usps.com/UspsToolsRestServices/rest/POLocator/findLocations", "@spider": "usps_collection_boxes", "addr:city": "DUSHORE", "addr:country": "US", "addr:postcode": "18614", "addr:state": "PA", "addr:street_address": "205 CENTER ST", "amenity": "post_box", "collection_times": "Mo-Fr 16:45; Sa 11:00", "indoor": "yes", "note": "ON 12/24 AND 12/31, THIS BOX MAY BE COLLECTED AS EARLY AS 12 NOON.", "nsi_id": "unitedstatespostalservice-a77078", "operator": "United States Postal Service", "operator:short": "USPS", "operator:type": "public", "operator:wikidata": "Q668687", "ref": "1861400007"}, "type": "Feature"}
{"geometry": {"coordinates": [-75.8576250083, 41.4609901752], "type": "Point"}, "id": "TCFZQ7bXY2-6XpQTDL0PiOV4QPg=", "properties": {"@source_uri": "https://tools.usps.com/UspsToolsRestServices/rest/POLocator/findLocations", "@spider": "usps_collection_boxes", "addr:city": "FALLS", "addr:country": "US", "addr:postcode": "18615", "addr:state": "PA", "addr:street_address": "26 WOODSIDE DR", "amenity": "post_box", "collection_times": "Mo-Fr 16:15; Sa 11:30", "note": "ON 12/24 AND 12/31, THIS BOX MAY BE COLLECTED AS EARLY AS 12 NOON.", "nsi_id": "unitedstatespostalservice-a77078", "operator": "United States Postal Service", "operator:short": "USPS", "operator:type": "public", "operator:wikidata": "Q668687", "ref": "1861500001"}, "type": "Feature"}
{"geometry": {"coordinates": [-76.6012029, 41.487905], "type": "Point"}, "id": "JZPaae5MbjlqDCddr1vYsulGwfU=", "properties": {"@source_uri": "https://tools.usps.com/UspsToolsRestServices/rest/POLocator/findLocations", "@spider": "usps_collection_boxes", "addr:city": "FORKSVILLE", "addr:country": "US", "addr:postcode": "18616", "addr:state": "PA", "addr:street_address": "53 BRIDGE ST", "amenity": "post_box", "collection_times": "Mo-Sa 13:30", "indoor": "yes", "note": "ON 12/24 AND 12/31, THIS BOX MAY BE COLLECTED AS EARLY AS 12 NOON.", "nsi_id": "unitedstatespostalservice-a77078", "operator": "United States Postal Service", "operator:short": "USPS", "operator:type": "public", "operator:wikidata": "Q668687", "ref": "1861600002"}, "type": "Feature"}
{"geometry": {"coordinates": [-76.601257824, 41.487690364], "type": "Point"}, "id": "i_uogZkIVzQohbIH2Q1tCflUDYY=", "properties": {"@source_uri": "https://tools.usps.com/UspsToolsRestServices/rest/POLocator/findLocations", "@spider": "usps_collection_boxes", "addr:city": "FORKSVILLE", "addr:country": "US", "addr:postcode": "18616", "addr:state": "PA", "addr:street_address": "53 BRIDGE ST", "amenity": "post_box", "collection_times": "Mo-Fr 11:00; Sa 13:30", "indoor": "yes", "note": "ON 12/24 AND 12/31, THIS BOX MAY BE COLLECTED AS EARLY AS 12 NOON.", "nsi_id": "unitedstatespostalservice-a77078", "operator": "United States Postal Service", "operator:short": "USPS", "operator:type": "public", "operator:wikidata": "Q668687", "ref": "1861600004"}, "type": "Feature"}
{"geometry": {"coordinates": [-76.0680111, 41.175271], "type": "Point"}, "id": "vFt2VGwU4Eq80lZnOo7kzQ_aZvc=", "properties": {"@source_uri": "https://tools.usps.com/UspsToolsRestServices/rest/POLocator/findLocations", "@spider": "usps_collection_boxes", "addr:city": "GLEN LYON", "addr:country": "US", "addr:postcode": "18617", "addr:state": "PA", "addr:street_address": "64 E MAIN ST", "amenity": "post_box", "collection_times": "Mo-Sa 09:00", "nsi_id": "unitedstatespostalservice-a77078", "operator": "United States Postal Service", "operator:short": "USPS", "operator:type": "public", "operator:wikidata": "Q668687", "ref": "1861700002"}, "type": "Feature"}
{"geometry": {"coordinates": [-76.07455, 41.17475], "type": "Point"}, "id": "9ylcuaywELf8C1yRjhICIEYLmxw=", "properties": {"@source_uri": "https://tools.usps.com/UspsToolsRestServices/rest/POLocator/findLocations", "@spider": "usps_collection_boxes", "addr:city": "GLEN LYON", "addr:country": "US", "addr:postcode": "18617", "addr:state": "PA", "addr:street_address": "45 N MARKET ST", "amenity": "post_box", "collection_times": "Mo-Fr 16:00; Sa 12:00", "note": "ON 12/24 AND 12/31, THIS BOX MAY BE COLLECTED AS EARLY AS 12 NOON.", "nsi_id": "unitedstatespostalservice-a77078", "operator": "United States Postal Service", "operator:short": "USPS", "operator:type": "public", "operator:wikidata": "Q668687", "ref": "1861700005"}, "type": "Feature"}
{"geometry": {"coordinates": [-76.074816, 41.175137], "type": "Point"}, "id": "n4QXP8UeSuIUt_56is4FWL8janw=", "properties": {"@source_uri": "https://tools.usps.com/UspsToolsRestServices/rest/POLocator/findLocations", "@spider": "usps_collection_boxes", "addr:city": "GLEN LYON", "addr:country": "US", "addr:postcode": "18617", "addr:state": "PA", "addr:street_address": "45 N MARKET ST", "amenity": "post_box", "collection_times": "Mo-Fr 16:00; Sa 12:00", "indoor": "yes", "note": "ON 12/24 AND 12/31, THIS BOX MAY BE COLLECTED AS EARLY AS 12 NOON.", "nsi_id": "unitedstatespostalservice-a77078", "operator": "United States Postal Service", "operator:short": "USPS", "operator:type": "public", "operator:wikidata": "Q668687", "ref": "1861700006"}, "type": "Feature"}
{"geometry": {"coordinates": [-76.074647918, 41.174831421], "type": "Point"}, "id": "o384kcfGPwkypPoy4gstBml4LLM=", "properties": {"@source_uri": "https://tools.usps.com/UspsToolsRestServices/rest/POLocator/findLocations", "@spider": "usps_collection_boxes", "addr:city": "GLEN LYON", "addr:country": "US", "addr:postcode": "18617", "addr:state": "PA", "addr:street_address": "45 N MARKET ST", "amenity": "post_box", "collection_times": "Mo-Fr 16:30; Sa 12:00", "indoor": "yes", "note": "ON 12/24 AND 12/31, THIS BOX MAY BE COLLECTED AS EARLY AS 12 NOON.", "nsi_id": "unitedstatespostalservice-a77078", "operator": "United States Postal Service", "operator:short": "USPS", "operator:type": "public", "operator:wikidata": "Q668687", "ref": "1861700008"}, "type": "Feature"}
{"geometry": {"coordinates": [-76.059541, 41.364558], "type": "Point"}, "id": "AyEKmymjbAdp1pMYFluGQjTw_IA=", "properties": {"@source_uri": "https://tools.usps.com/UspsToolsRestServices/rest/POLocator/findLocations", "@spider": "usps_collection_boxes", "addr:city": "HARVEYS LAKE", "addr:country": "US", "addr:postcode": "18618", "addr:state": "PA", "addr:street_address": "2115 LAKESIDE DR", "amenity": "post_box", "collection_times": "Mo-Fr 15:45; Sa 10:45", "note": "ON 12/24 AND 12/31, THIS BOX MAY BE COLLECTED AS EARLY AS 12 NOON.", "nsi_id": "unitedstatespostalservice-a77078", "operator": "United States Postal Service", "operator:short": "USPS", "operator:type": "public", "operator:wikidata": "Q668687", "ref": "1861800001"}, "type": "Feature"}
{"geometry": {"coordinates": [-76.059499, 41.364588], "type": "Point"}, "id": "NJsZ6fWE3LCv02Ds8kXQCSqQQSs=", "properties": {"@source_uri": "https://tools.usps.com/UspsToolsRestServices/rest/POLocator/findLocations", "@spider": "usps_collection_boxes", "addr:city": "HARVEYS LAKE", "addr:country": "US", "addr:postcode": "18618", "addr:state": "PA", "addr:street_address": "2115 LAKESIDE DR", "amenity": "post_box", "collection_times": "Mo-Fr 15:45; Sa 10:45", "indoor": "yes", "note": "ON 12/24 AND 12/31, THIS BOX MAY BE COLLECTED AS EARLY AS 12 NOON.", "nsi_id": "unitedstatespostalservice-a77078", "operator": "United States Postal Service", "operator:short": "USPS", "operator:type": "public", "operator:wikidata": "Q668687", "ref": "1861800003"}, "type": "Feature"}
{"geometry": {"coordinates": [-76.059619457, 41.364189682], "type": "Point"}, "id": "SIUyavV-85kPzidphQVd9-1A3OA=", "properties": {"@source_uri": "https://tools.usps.com/UspsToolsRestServices/rest/POLocator/findLocations", "@spider": "usps_collection_boxes", "addr:city": "HARVEYS LAKE", "addr:country": "US", "addr:postcode": "18618", "addr:state": "PA", "addr:street_address": "2115 LAKESIDE DR", "amenity": "post_box", "collection_times": "Mo-Fr 16:00; Sa 11:00", "indoor": "yes", "note": "ON 12/24 AND 12/31, THIS BOX MAY BE COLLECTED AS EARLY AS 12 NOON.", "nsi_id": "unitedstatespostalservice-a77078", "operator": "United States Postal Service", "operator:short": "USPS", "operator:type": "public", "operator:wikidata": "Q668687", "ref": "1861800005"}, "type": "Feature"}
{"geometry": {"coordinates": [-76.7104354477, 41.4336805358], "type": "Point"}, "id": "T7S0CIUJQE-7voqqymPlQZTD_G8=", "properties": {"@source_uri": "https://tools.usps.com/UspsToolsRestServices/rest/POLocator/findLocations", "@spider": "usps_collection_boxes", "addr:city": "HILLSGROVE", "addr:country": "US", "addr:postcode": "18619", "addr:state": "PA", "addr:street_address": "1 MAIN ST", "amenity": "post_box", "collection_times": "Mo-Sa 10:30", "indoor": "yes", "nsi_id": "unitedstatespostalservice-a77078", "operator": "United States Postal Service", "operator:short": "USPS", "operator:type": "public", "operator:wikidata": "Q668687", "ref": "1861900003"}, "type": "Feature"}
{"geometry": {"coordinates": [-76.70699, 41.4428], "type": "Point"}, "id": "TSsJuuTOOju7JW5pmwgmpszNLVo=", "properties": {"@source_uri": "https://tools.usps.com/UspsToolsRestServices/rest/POLocator/findLocations", "@spider": "usps_collection_boxes", "addr:city": "HILLSGROVE", "addr:country": "US", "addr:postcode": "18619", "addr:state": "PA", "addr:street_address": "1 MAIN ST", "amenity": "post_box", "collection_times": "Mo-Fr 13:45; Sa 13:30", "indoor": "yes", "note": "ON 12/24 AND 12/31, THIS BOX MAY BE COLLECTED AS EARLY AS 12 NOON.", "nsi_id": "unitedstatespostalservice-a77078", "operator": "United States Postal Service", "operator:short": "USPS", "operator:type": "public", "operator:wikidata": "Q668687", "ref": "1861900005"}, "type": "Feature"}
{"geometry": {"coordinates": [-76.1129189, 41.308559], "type": "Point"}, "id": "wyJo1ee_0Teed3LjajbbehgvuXI=", "properties": {"@source_uri": "https://tools.usps.com/UspsToolsRestServices/rest/POLocator/findLocations", "@spider": "usps_collection_boxes", "addr:city": "HUNLOCK CREEK", "addr:country": "US", "addr:postcode": "18621", "addr:state": "PA", "addr:street_address": "2203 STATE ROUTE 118", "amenity": "post_box", "collection_times": "Mo-Sa 11:00", "nsi_id": "unitedstatespostalservice-a77078", "operator": "United States Postal Service", "operator:short": "USPS", "operator:type": "public", "operator:wikidata": "Q668687", "ref": "1862100002"}, "type": "Feature"}
{"geometry": {"coordinates": [-76.0946833, 41.305607], "type": "Point"}, "id": "1AD_czdPrfywK3HIYSAGI1noctA=", "properties": {"@source_uri": "https://tools.usps.com/UspsToolsRestServices/rest/POLocator/findLocations", "@spider": "usps_collection_boxes", "addr:city": "HUNLOCK CREEK", "addr:country": "US", "addr:postcode": "18621", "addr:state": "PA", "addr:street_address": "2399 STATE ROUTE 118", "amenity": "post_box", "collection_times": "Mo-Sa 10:30", "nsi_id": "unitedstatespostalservice-a77078", "operator": "United States Postal Service", "operator:short": "USPS", "operator:type": "public", "operator:wikidata": "Q668687", "ref": "1862100003"}, "type": "Feature"}
{"geometry": {"coordinates": [-76.096073, 41.216914], "type": "Point"}, "id": "nq4usL8wQB_3Nz4W9OMZ3Sk2Sqo=", "properties": {"@source_uri": "https://tools.usps.com/UspsToolsRestServices/rest/POLocator/findLocations", "@spider": "usps_collection_boxes", "addr:city": "HUNLOCK CREEK", "addr:country": "US", "addr:postcode": "18621", "addr:state": "PA", "addr:street_address": "1623 MAIN RD", "amenity": "post_box", "collection_times": "Mo-Fr 15:30; Sa 11:30", "indoor": "yes", "note": "ON 12/24 AND 12/31, THIS BOX MAY BE COLLECTED AS EARLY AS 12 NOON.", "nsi_id": "unitedstatespostalservice-a77078", "operator": "United States Postal Service", "operator:short": "USPS", "operator:type": "public", "operator:wikidata": "Q668687", "ref": "1862100004"}, "type": "Feature"}
{"geometry": {"coordinates": [-76.09608352, 41.216957663], "type": "Point"}, "id": "H7f6YBFxcEsQqr69JoNn1r2h-8U=", "properties": {"@source_uri": "https://tools.usps.com/UspsToolsRestServices/rest/POLocator/findLocations", "@spider": "usps_collection_boxes", "addr:city": "HUNLOCK CREEK", "addr:country": "US", "addr:postcode": "18621", "addr:state": "PA", "addr:street_address": "1623 MAIN RD", "amenity": "post_box", "collection_times": "Mo-Fr 16:00; Sa 12:00", "indoor": "yes", "note": "ON 12/24 AND 12/31, THIS BOX MAY BE COLLECTED AS EARLY AS 12 NOON.", "nsi_id": "unitedstatespostalservice-a77078", "operator": "United States Postal Service", "operator:short": "USPS", "operator:type": "public", "operator:wikidata": "Q668687", "ref": "1862100007"}, "type": "Feature"}
{"geometry": {"coordinates": [-76.233198, 41.190652], "type": "Point"}, "id": "qwQ5-RDMhpACIth8q-S_a7rU8MY=", "properties": {"@source_uri": "https://tools.usps.com/UspsToolsRestServices/rest/POLocator/findLocations", "@spider": "usps_collection_boxes", "addr:city": "HUNTINGTON ML", "addr:country": "US", "addr:postcode": "18622", "addr:state": "PA", "addr:street_address": "1059 STATE ROUTE 239", "amenity": "post_box", "collection_times": "Mo-Fr 16:15; Sa 10:30", "indoor": "yes", "note": "ON 12/24 AND 12/31, THIS BOX MAY BE COLLECTED AS EARLY AS 12 NOON.", "nsi_id": "unitedstatespostalservice-a77078", "operator": "United States Postal Service", "operator:short": "USPS", "operator:type": "public", "operator:wikidata": "Q668687", "ref": "1862200002"}, "type": "Feature"}
{"geometry": {"coordinates": [-76.233279943, 41.190717943], "type": "Point"}, "id": "kyjZu9iRraj9_d-Xljx9QOf4TGQ=", "properties": {"@source_uri": "https://tools.usps.com/UspsToolsRestServices/rest/POLocator/findLocations", "@spider": "usps_collection_boxes", "addr:city": "HUNTINGTON ML", "addr:country": "US", "addr:postcode": "18622", "addr:state": "PA", "addr:street_address": "1059 STATE ROUTE 239", "amenity": "post_box", "collection_times": "Mo-Fr 16:15; Sa 11:00", "indoor": "yes", "note": "ON 12/24 AND 12/31, THIS BOX MAY BE COLLECTED AS EARLY AS 12 NOON.", "nsi_id": "unitedstatespostalservice-a77078", "operator": "United States Postal Service", "operator:short": "USPS", "operator:type": "public", "operator:wikidata": "Q668687", "ref": "1862200004"}, "type": "Feature"}
{"geometry": {"coordinates": [-76.146763, 41.641353], "type": "Point"}, "id": "8XLy6su_U9rjahVk2dwA7wYZab0=", "properties": {"@source_uri": "https://tools.usps.com/UspsToolsRestServices/rest/POLocator/findLocations", "@spider": "usps_collection_boxes", "addr:city": "LACEYVILLE", "addr:country": "US", "addr:postcode": "18623", "addr:state": "PA", "addr:street_address": "1 E MAIN ST", "amenity": "post_box", "collection_times": "Mo-Fr 16:00; Sa 11:30", "note": "ON 12/24 AND 12/31, THIS BOX MAY BE COLLECTED AS EARLY AS 12 NOON.", "nsi_id": "unitedstatespostalservice-a77078", "operator": "United States Postal Service", "operator:short": "USPS", "operator:type": "public", "operator:wikidata": "Q668687", "ref": "1862300001"}, "type": "Feature"}
{"geometry": {"coordinates": [-76.146763, 41.641353], "type": "Point"}, "id": "mqzIaGYJdyn3fycfTnn3shILHE4=", "properties": {"@source_uri": "https://tools.usps.com/UspsToolsRestServices/rest/POLocator/findLocations", "@spider": "usps_collection_boxes", "addr:city": "LACEYVILLE", "addr:country": "US", "addr:postcode": "18623", "addr:state": "PA", "addr:street_address": "1 E MAIN ST", "amenity": "post_box", "collection_times": "Mo-Fr 16:00; Sa 11:30", "indoor": "yes", "note": "ON 12/24 AND 12/31, THIS BOX MAY BE COLLECTED AS EARLY AS 12 NOON.", "nsi_id": "unitedstatespostalservice-a77078", "operator": "United States Postal Service", "operator:short": "USPS", "operator:type": "public", "operator:wikidata": "Q668687", "ref": "1862300002"}, "type": "Feature"}
{"geometry": {"coordinates": [-76.161214152, 41.645745587], "type": "Point"}, "id": "kk0nW7ofjTWyeDs7NQD0vBu-AXk=", "properties": {"@source_uri": "https://tools.usps.com/UspsToolsRestServices/rest/POLocator/findLocations", "@spider": "usps_collection_boxes", "addr:city": "LACEYVILLE", "addr:country": "US", "addr:postcode": "18623", "addr:state": "PA", "addr:street_address": "445 MAIN ST OFC", "amenity": "post_box", "collection_times": "Mo-Fr 17:00; Sa 11:30", "indoor": "yes", "note": "ON 12/24 AND 12/31, THIS BOX MAY BE COLLECTED AS EARLY AS 12 NOON.", "nsi_id": "unitedstatespostalservice-a77078", "operator": "United States Postal Service", "operator:short": "USPS", "operator:type": "public", "operator:wikidata": "Q668687", "ref": "1862300004"}, "type": "Feature"}
{"geometry": {"coordinates": [-75.5882376889, 41.0599150907], "type": "Point"}, "id": "si7h4dqxWICS5ABN9AuWCB3fOS8=", "properties": {"@source_uri": "https://tools.usps.com/UspsToolsRestServices/rest/POLocator/findLocations", "@spider": "usps_collection_boxes", "addr:city": "LAKE HARMONY", "addr:country": "US", "addr:postcode": "18624", "addr:state": "PA", "addr:street_address": "8 KIRK ST", "amenity": "post_box", "collection_times": "Mo-Fr 16:30; Sa 12:00", "note": "ON 12/24 AND 12/31, THIS BOX MAY BE COLLECTED AS EARLY AS 12 NOON.", "nsi_id": "unitedstatespostalservice-a77078", "operator": "United States Postal Service", "operator:short": "USPS", "operator:type": "public", "operator:wikidata": "Q668687", "ref": "1862400001"}, "type": "Feature"}
{"geometry": {"coordinates": [-75.5882527171, 41.0599089589], "type": "Point"}, "id": "spi1ijekrtIN2xuraeP6FIubTs8=", "properties": {"@source_uri": "https://tools.usps.com/UspsToolsRestServices/rest/POLocator/findLocations", "@spider": "usps_collection_boxes", "addr:city": "LAKE HARMONY", "addr:country": "US", "addr:postcode": "18624", "addr:state": "PA", "addr:street_address": "8 KIRK ST", "amenity": "post_box", "collection_times": "Mo-Fr 16:30; Sa 12:00", "indoor": "yes", "note": "ON 12/24 AND 12/31, THIS BOX MAY BE COLLECTED AS EARLY AS 12 NOON.", "nsi_id": "unitedstatespostalservice-a77078", "operator": "United States Postal Service", "operator:short": "USPS", "operator:type": "public", "operator:wikidata": "Q668687", "ref": "1862400003"}, "type": "Feature"}
{"geometry": {"coordinates": [-75.5882527171, 41.0599089589], "type": "Point"}, "id": "RYk4n9lRfPD_8CpK63aIx6ys0iw=", "properties": {"@source_uri": "https://tools.usps.com/UspsToolsRestServices/rest/POLocator/findLocations", "@spider": "usps_collection_boxes", "addr:city": "LAKE HARMONY", "addr:country": "US", "addr:postcode": "18624", "addr:state": "PA", "addr:street_address": "8 KIRK ST", "amenity": "post_box", "collection_times": "Mo-Fr 16:30; Sa 12:00", "indoor": "yes", "note": "ON 12/24 AND 12/31, THIS BOX MAY BE COLLECTED AS EARLY AS 12 NOON.", "nsi_id": "unitedstatespostalservice-a77078", "operator": "United States Postal Service", "operator:short": "USPS", "operator:type": "public", "operator:wikidata": "Q668687", "ref": "1862400005"}, "type": "Feature"}
{"geometry": {"coordinates": [-75.85852, 41.509498], "type": "Point"}, "id": "szN7nFpU3l4nIkPtvVdX1wETieU=", "properties": {"@source_uri": "https://tools.usps.com/UspsToolsRestServices/rest/POLocator/findLocations", "@spider": "usps_collection_boxes", "addr:city": "LAKE WINOLA", "addr:country": "US", "addr:postcode": "18625", "addr:state": "PA", "addr:street_address": "104 POST OFFICE LN", "amenity": "post_box", "collection_times": "Mo-Fr 16:00; Sa 10:30", "note": "ON 12/24 AND 12/31, THIS BOX MAY BE COLLECTED AS EARLY AS 12 NOON.", "nsi_id": "unitedstatespostalservice-a77078", "operator": "United States Postal Service", "operator:short": "USPS", "operator:type": "public", "operator:wikidata": "Q668687", "ref": "1862500001"}, "type": "Feature"}
{"geometry": {"coordinates": [-75.858535, 41.509473], "type": "Point"}, "id": "c4ZzdE9Ohl4-bWxxw-SLxn5UvnU=", "properties": {"@source_uri": "https://tools.usps.com/UspsToolsRestServices/rest/POLocator/findLocations", "@spider": "usps_collection_boxes", "addr:city": "LAKE WINOLA", "addr:country": "US", "addr:postcode": "18625", "addr:state": "PA", "addr:street_address": "104 POST OFFICE LN", "amenity": "post_box", "collection_times": "Mo-Fr 16:00; Sa 10:30", "indoor": "yes", "note": "ON 12/24 AND 12/31, THIS BOX MAY BE COLLECTED AS EARLY AS 12 NOON.", "nsi_id": "unitedstatespostalservice-a77078", "operator": "United States Postal Service", "operator:short": "USPS", "operator:type": "public", "operator:wikidata": "Q668687", "ref": "1862500002"}, "type": "Feature"}
{"geometry": {"coordinates": [-75.858510916, 41.509530915], "type": "Point"}, "id": "pjXdob12YHloH8a4dzs1zTxG5II=", "properties": {"@source_uri": "https://tools.usps.com/UspsToolsRestServices/rest/POLocator/findLocations", "@spider": "usps_collection_boxes", "addr:city": "LAKE WINOLA", "addr:country": "US", "addr:postcode": "18625", "addr:state": "PA", "addr:street_address": "104 POST OFFICE LN", "amenity": "post_box", "collection_times": "Mo-Fr 16:15; Sa 10:30", "indoor": "yes", "note": "ON 12/24 AND 12/31, THIS BOX MAY BE COLLECTED AS EARLY AS 12 NOON.", "nsi_id": "unitedstatespostalservice-a77078", "operator": "United States Postal Service", "operator:short": "USPS", "operator:type": "public", "operator:wikidata": "Q668687", "ref": "1862500004"}, "type": "Feature"}
{"geometry": {"coordinates": [-76.48812, 41.423392], "type": "Point"}, "id": "psaLgBLopk83_Uiqjp3jCu9vHII=", "properties": {"@source_uri": "https://tools.usps.com/UspsToolsRestServices/rest/POLocator/findLocations", "@spider": "usps_collection_boxes", "addr:city": "LAPORTE", "addr:country": "US", "addr:postcode": "18626", "addr:state": "PA", "addr:street_address": "1 MAIN ST", "amenity": "post_box", "collection_times": "Mo-Fr 16:00; Sa 11:00", "note": "ON 12/24 AND 12/31, THIS BOX MAY BE COLLECTED AS EARLY AS 12 NOON.", "nsi_id": "unitedstatespostalservice-a77078", "operator": "United States Postal Service", "operator:short": "USPS", "operator:type": "public", "operator:wikidata": "Q668687", "ref": "1862600001"}, "type": "Feature"}
{"geometry": {"coordinates": [-76.48812, 41.423392], "type": "Point"}, "id": "tpIMRptiKrTMHKepA5et3V-zEC0=", "properties": {"@source_uri": "https://tools.usps.com/UspsToolsRestServices/rest/POLocator/findLocations", "@spider": "usps_collection_boxes", "addr:city": "LAPORTE", "addr:country": "US", "addr:postcode": "18626", "addr:state": "PA", "addr:street_address": "1 MAIN ST", "amenity": "post_box", "collection_times": "Mo-Fr 16:00; Sa 11:00", "indoor": "yes", "note": "ON 12/24 AND 12/31, THIS BOX MAY BE COLLECTED AS EARLY AS 12 NOON.", "nsi_id": "unitedstatespostalservice-a77078", "operator": "United States Postal Service", "operator:short": "USPS", "operator:type": "public", "operator:wikidata": "Q668687", "ref": "1862600002"}, "type": "Feature"}
{"geometry": {"coordinates": [-76.48819622, 41.42343162], "type": "Point"}, "id": "wFV3frpkdu603er7dbJ-bdXCNIA=", "properties": {"@source_uri": "https://tools.usps.com/UspsToolsRestServices/rest/POLocator/findLocations", "@spider": "usps_collection_boxes", "addr:city": "LAPORTE", "addr:country": "US", "addr:postcode": "18626", "addr:state": "PA", "addr:street_address": "1 MAIN ST", "amenity": "post_box", "collection_times": "Mo-Fr 16:15; Sa 11:00", "indoor": "yes", "note": "ON 12/24 AND 12/31, THIS BOX MAY BE COLLECTED AS EARLY AS 12 NOON.", "nsi_id": "unitedstatespostalservice-a77078", "operator": "United States Postal Service", "operator:short": "USPS", "operator:type": "public", "operator:wikidata": "Q668687", "ref": "1862600004"}, "type": "Feature"}
{"geometry": {"coordinates": [-76.022908, 41.315693], "type": "Point"}, "id": "lNRK5Ihiyl_XfT_GR8GjQyk7mGQ=", "properties": {"@source_uri": "https://tools.usps.com/UspsToolsRestServices/rest/POLocator/findLocations", "@spider": "usps_collection_boxes", "addr:city": "LEHMAN", "addr:country": "US", "addr:postcode": "18627", "addr:state": "PA", "addr:street_address": "1010 MOUNTAINVIEW DR", "amenity": "post_box", "collection_times": "Mo-Fr 16:45; Sa 12:00", "note": "ON 12/24 AND 12/31, THIS BOX MAY BE COLLECTED AS EARLY AS 12 NOON.", "nsi_id": "unitedstatespostalservice-a77078", "operator": "United States Postal Service", "operator:short": "USPS", "operator:type": "public", "operator:wikidata": "Q668687", "ref": "1862700001"}, "type": "Feature"}
{"geometry": {"coordinates": [-76.022954, 41.315685], "type": "Point"}, "id": "UZOyehdNTfYepEvHKrgdX9GoBQ0=", "properties": {"@source_uri": "https://tools.usps.com/UspsToolsRestServices/rest/POLocator/findLocations", "@spider": "usps_collection_boxes", "addr:city": "LEHMAN", "addr:country": "US", "addr:postcode": "18627", "addr:state": "PA", "addr:street_address": "1010 MOUNTAINVIEW DR", "amenity": "post_box", "collection_times": "Mo-Fr 16:45; Sa 12:00", "indoor": "yes", "note": "ON 12/24 AND 12/31, THIS BOX MAY BE COLLECTED AS EARLY AS 12 NOON.", "nsi_id": "unitedstatespostalservice-a77078", "operator": "United States Postal Service", "operator:short": "USPS", "operator:type": "public", "operator:wikidata": "Q668687", "ref": "1862700002"}, "type": "Feature"}
{"geometry": {"coordinates": [-76.022710577, 41.315914607], "type": "Point"}, "id": "RZJ32EkV03jBvuW_mZv-fuAih_g=", "properties": {"@source_uri": "https://tools.usps.com/UspsToolsRestServices/rest/POLocator/findLocations", "@spider": "usps_collection_boxes", "addr:city": "LEHMAN", "addr:country": "US", "addr:postcode": "18627", "addr:state": "PA", "addr:street_address": "1010 MOUNTAINVIEW DR", "amenity": "post_box", "collection_times": "Mo-Fr 16:45; Sa 12:00", "indoor": "yes", "note": "ON 12/24 AND 12/31, THIS BOX MAY BE COLLECTED AS EARLY AS 12 NOON.", "nsi_id": "unitedstatespostalservice-a77078", "operator": "United States Postal Service", "operator:short": "USPS", "operator:type": "public", "operator:wikidata": "Q668687", "ref": "1862700004"}, "type": "Feature"}
{"geometry": {"coordinates": [-76.33318, 41.457473], "type": "Point"}, "id": "9SfsC8wLSmpfkjwQF-lKOI54da4=", "properties": {"@source_uri": "https://tools.usps.com/UspsToolsRestServices/rest/POLocator/findLocations", "@spider": "usps_collection_boxes", "addr:city": "LOPEZ", "addr:country": "US", "addr:postcode": "18628", "addr:state": "PA", "addr:street_address": "61 MAIN ST", "amenity": "post_box", "collection_times": "Mo-Fr 16:30; Sa 09:45", "note": "ON 12/24 AND 12/31, THIS BOX MAY BE COLLECTED AS EARLY AS 12 NOON.", "nsi_id": "unitedstatespostalservice-a77078", "operator": "United States Postal Service", "operator:short": "USPS", "operator:type": "public", "operator:wikidata": "Q668687", "ref": "1862800001"}, "type": "Feature"}
{"geometry": {"coordinates": [-76.33318, 41.457473], "type": "Point"}, "id": "4qpWy4lk7D5EOJ9lHzUMSsV1qFo=", "properties": {"@source_uri": "https://tools.usps.com/UspsToolsRestServices/rest/POLocator/findLocations", "@spider": "usps_collection_boxes", "addr:city": "LOPEZ", "addr:country": "US", "addr:postcode": "18628", "addr:state": "PA", "addr:street_address": "61 MAIN ST", "amenity": "post_box", "collection_times": "Mo-Fr 16:30; Sa 09:45", "indoor": "yes", "note": "ON 12/24 AND 12/31, THIS BOX MAY BE COLLECTED AS EARLY AS 12 NOON.", "nsi_id": "unitedstatespostalservice-a77078", "operator": "United States Postal Service", "operator:short": "USPS", "operator:type": "public", "operator:wikidata": "Q668687", "ref": "1862800002"}, "type": "Feature"}
{"geometry": {"coordinates": [-76.333112199, 41.457465568], "type": "Point"}, "id": "ushvIlYHzYHhkyQbmuEkpYcPn4U=", "properties": {"@source_uri": "https://tools.usps.com/UspsToolsRestServices/rest/POLocator/findLocations", "@spider": "usps_collection_boxes", "addr:city": "LOPEZ", "addr:country": "US", "addr:postcode": "18628", "addr:state": "PA", "addr:street_address": "61 MAIN ST", "amenity": "post_box", "collection_times": "Mo-Fr 16:45; Sa 10:00", "indoor": "yes", "note": "ON 12/24 AND 12/31, THIS BOX MAY BE COLLECTED AS EARLY AS 12 NOON.", "nsi_id": "unitedstatespostalservice-a77078", "operator": "United States Postal Service", "operator:short": "USPS", "operator:type": "public", "operator:wikidata": "Q668687", "ref": "1862800004"}, "type": "Feature"}
{"geometry": {"coordinates": [-76.0635, 41.564833], "type": "Point"}, "id": "f7UddBYBn_7q86hggTikDJt9ymo=", "properties": {"@source_uri": "https://tools.usps.com/UspsToolsRestServices/rest/POLocator/findLocations", "@spider": "usps_collection_boxes", "addr:city": "MEHOOPANY", "addr:country": "US", "addr:postcode": "18629", "addr:state": "PA", "addr:street_address": "1 PEARL RD", "amenity": "post_box", "collection_times": "Mo-Fr 16:15; Sa 11:30", "note": "ON 12/24 AND 12/31, THIS BOX MAY BE COLLECTED AS EARLY AS 12 NOON.", "nsi_id": "unitedstatespostalservice-a77078", "operator": "United States Postal Service", "operator:short": "USPS", "operator:type": "public", "operator:wikidata": "Q668687", "ref": "1862900001"}, "type": "Feature"}
{"geometry": {"coordinates": [-76.161284991, 41.4851967795], "type": "Point"}, "id": "1ync78gfoEDTSEbju08OzZT6nBE=", "properties": {"@source_uri": "https://tools.usps.com/UspsToolsRestServices/rest/POLocator/findLocations", "@spider": "usps_collection_boxes", "addr:city": "MEHOOPANY", "addr:country": "US", "addr:postcode": "18629", "addr:state": "PA", "addr:street_address": "9999 TOWNSHIP RD 439", "amenity": "post_box", "collection_times": "Mo-Fr 16:15; Sa 11:30", "indoor": "yes", "note": "ON 12/24 AND 12/31, THIS BOX MAY BE COLLECTED AS EARLY AS 12 NOON.", "nsi_id": "unitedstatespostalservice-a77078", "operator": "United States Postal Service", "operator:short": "USPS", "operator:type": "public", "operator:wikidata": "Q668687", "ref": "1862900002"}, "type": "Feature"}
{"geometry": {"coordinates": [-76.063463625, 41.564772333], "type": "Point"}, "id": "bURpxidcBpX9KTLyAi6H_wJ-m-g=", "properties": {"@source_uri": "https://tools.usps.com/UspsToolsRestServices/rest/POLocator/findLocations", "@spider": "usps_collection_boxes", "addr:city": "MEHOOPANY", "addr:country": "US", "addr:postcode": "18629", "addr:state": "PA", "addr:street_address": "1 PEARL RD", "amenity": "post_box", "collection_times": "Mo-Fr 16:45; Sa 11:30", "indoor": "yes", "note": "ON 12/24 AND 12/31, THIS BOX MAY BE COLLECTED AS EARLY AS 12 NOON.", "nsi_id": "unitedstatespostalservice-a77078", "operator": "United States Postal Service", "operator:short": "USPS", "operator:type": "public", "operator:wikidata": "Q668687", "ref": "1862900004"}, "type": "Feature"}
{"geometry": {"coordinates": [-76.048947, 41.614689], "type": "Point"}, "id": "kPBrO2gvmh39l77bnQSQEfBS1OQ=", "properties": {"@source_uri": "https://tools.usps.com/UspsToolsRestServices/rest/POLocator/findLocations", "@spider": "usps_collection_boxes", "addr:city": "MESHOPPEN", "addr:country": "US", "addr:postcode": "18630", "addr:state": "PA", "addr:street_address": "149 CANAL ST", "amenity": "post_box", "collection_times": "Mo-Fr 16:15; Sa 11:15", "note": "ON 12/24 AND 12/31, THIS BOX MAY BE COLLECTED AS EARLY AS 12 NOON.", "nsi_id": "unitedstatespostalservice-a77078", "operator": "United States Postal Service", "operator:short": "USPS", "operator:type": "public", "operator:wikidata": "Q668687", "ref": "1863000001"}, "type": "Feature"}
{"geometry": {"coordinates": [-76.049023, 41.614622], "type": "Point"}, "id": "-WeUdUAI6q2jwUMh3hLVieBHrHY=", "properties": {"@source_uri": "https://tools.usps.com/UspsToolsRestServices/rest/POLocator/findLocations", "@spider": "usps_collection_boxes", "addr:city": "MESHOPPEN", "addr:country": "US", "addr:postcode": "18630", "addr:state": "PA", "addr:street_address": "149 CANAL ST", "amenity": "post_box", "collection_times": "Mo-Fr 16:15; Sa 11:15", "note": "ON 12/24 AND 12/31, THIS BOX MAY BE COLLECTED AS EARLY AS 12 NOON.", "nsi_id": "unitedstatespostalservice-a77078", "operator": "United States Postal Service", "operator:short": "USPS", "operator:type": "public", "operator:wikidata": "Q668687", "ref": "1863000002"}, "type": "Feature"}
{"geometry": {"coordinates": [-76.049023, 41.614622], "type": "Point"}, "id": "jHNIatHKbq6UqgyqkQb8qhkyyUo=", "properties": {"@source_uri": "https://tools.usps.com/UspsToolsRestServices/rest/POLocator/findLocations", "@spider": "usps_collection_boxes", "addr:city": "MESHOPPEN", "addr:country": "US", "addr:postcode": "18630", "addr:state": "PA", "addr:street_address": "149 CANAL ST", "amenity": "post_box", "collection_times": "Mo-Fr 16:15; Sa 11:00", "indoor": "yes", "note": "ON 12/24 AND 12/31, THIS BOX MAY BE COLLECTED AS EARLY AS 12 NOON.", "nsi_id": "unitedstatespostalservice-a77078", "operator": "United States Postal Service", "operator:short": "USPS", "operator:type": "public", "operator:wikidata": "Q668687", "ref": "1863000003"}, "type": "Feature"}
{"geometry": {"coordinates": [-76.048843519, 41.614730977], "type": "Point"}, "id": "JmnFtAhb-klMaZnrYgzs0Z34dms=", "properties": {"@source_uri": "https://tools.usps.com/UspsToolsRestServices/rest/POLocator/findLocations", "@spider": "usps_collection_boxes", "addr:city": "MESHOPPEN", "addr:country": "US", "addr:postcode": "18630", "addr:state": "PA", "addr:street_address": "149 CANAL ST", "amenity": "post_box", "collection_times": "Mo-Fr 17:00; Sa 11:00", "indoor": "yes", "note": "ON 12/24 AND 12/31, THIS BOX MAY BE COLLECTED AS EARLY AS 12 NOON.", "nsi_id": "unitedstatespostalservice-a77078", "operator": "United States Postal Service", "operator:short": "USPS", "operator:type": "public", "operator:wikidata": "Q668687", "ref": "1863000005"}, "type": "Feature"}
{"geometry": {"coordinates": [-76.308276, 41.032654], "type": "Point"}, "id": "sZ00Cg-U5zjviO3VUAROE9Il5FI=", "properties": {"@source_uri": "https://tools.usps.com/UspsToolsRestServices/rest/POLocator/findLocations", "@spider": "usps_collection_boxes", "addr:city": "MIFFLINVILLE", "addr:country": "US", "addr:postcode": "18631", "addr:state": "PA", "addr:street_address": "206 MARKET ST", "amenity": "post_box", "collection_times": "Mo-Fr 15:30; Sa 11:30", "note": "ON 12/24 AND 12/31, THIS BOX MAY BE COLLECTED AS EARLY AS 12 NOON.", "nsi_id": "unitedstatespostalservice-a77078", "operator": "United States Postal Service", "operator:short": "USPS", "operator:type": "public", "operator:wikidata": "Q668687", "ref": "1863100001"}, "type": "Feature"}
{"geometry": {"coordinates": [-76.308296, 41.032736], "type": "Point"}, "id": "JGOXOyc8Z2736zw9ZGJzaCgWAUY=", "properties": {"@source_uri": "https://tools.usps.com/UspsToolsRestServices/rest/POLocator/findLocations", "@spider": "usps_collection_boxes", "addr:city": "MIFFLINVILLE", "addr:country": "US", "addr:postcode": "18631", "addr:state": "PA", "addr:street_address": "206 MARKET ST", "amenity": "post_box", "collection_times": "Mo-Fr 16:00; Sa 12:00", "indoor": "yes", "note": "ON 12/24 AND 12/31, THIS BOX MAY BE COLLECTED AS EARLY AS 12 NOON.", "nsi_id": "unitedstatespostalservice-a77078", "operator": "United States Postal Service", "operator:short": "USPS", "operator:type": "public", "operator:wikidata": "Q668687", "ref": "1863100002"}, "type": "Feature"}
{"geometry": {"coordinates": [-76.308079043, 41.032386776], "type": "Point"}, "id": "p4qFtWIX-1WPydrY2UhXus8fKJQ=", "properties": {"@source_uri": "https://tools.usps.com/UspsToolsRestServices/rest/POLocator/findLocations", "@spider": "usps_collection_boxes", "addr:city": "MIFFLINVILLE", "addr:country": "US", "addr:postcode": "18631", "addr:state": "PA", "addr:street_address": "206 MARKET ST", "amenity": "post_box", "collection_times": "Mo-Fr 16:30; Sa 12:00", "indoor": "yes", "note": "ON 12/24 AND 12/31, THIS BOX MAY BE COLLECTED AS EARLY AS 12 NOON.", "nsi_id": "unitedstatespostalservice-a77078", "operator": "United States Postal Service", "operator:short": "USPS", "operator:type": "public", "operator:wikidata": "Q668687", "ref": "1863100004"}, "type": "Feature"}
{"geometry": {"coordinates": [-76.379723, 41.477084], "type": "Point"}, "id": "qjKN5Jq6kOBn0pptoYsdcgS7Iw8=", "properties": {"@source_uri": "https://tools.usps.com/UspsToolsRestServices/rest/POLocator/findLocations", "@spider": "usps_collection_boxes", "addr:city": "MILDRED", "addr:country": "US", "addr:postcode": "18632", "addr:state": "PA", "addr:street_address": "54 JACKSON ST", "amenity": "post_box", "collection_times": "Mo-Fr 16:30; Sa 10:00", "note": "ON 12/24 AND 12/31, THIS BOX MAY BE COLLECTED AS EARLY AS 12 NOON.", "nsi_id": "unitedstatespostalservice-a77078", "operator": "United States Postal Service", "operator:short": "USPS", "operator:type": "public", "operator:wikidata": "Q668687", "ref": "1863200001"}, "type": "Feature"}
{"geometry": {"coordinates": [-76.379709, 41.477048], "type": "Point"}, "id": "4Jf79JtIFPknSAIdiiDCjXu7bTQ=", "properties": {"@source_uri": "https://tools.usps.com/UspsToolsRestServices/rest/POLocator/findLocations", "@spider": "usps_collection_boxes", "addr:city": "MILDRED", "addr:country": "US", "addr:postcode": "18632", "addr:state": "PA", "addr:street_address": "54 JACKSON ST", "amenity": "post_box", "collection_times": "Mo-Fr 16:30; Sa 10:00", "indoor": "yes", "note": "ON 12/24 AND 12/31, THIS BOX MAY BE COLLECTED AS EARLY AS 12 NOON.", "nsi_id": "unitedstatespostalservice-a77078", "operator": "United States Postal Service", "operator:short": "USPS", "operator:type": "public", "operator:wikidata": "Q668687", "ref": "1863200002"}, "type": "Feature"}
{"geometry": {"coordinates": [-76.379751461, 41.477097708], "type": "Point"}, "id": "BU6qSSt-dE6gzZx8m8uRVsyPPRk=", "properties": {"@source_uri": "https://tools.usps.com/UspsToolsRestServices/rest/POLocator/findLocations", "@spider": "usps_collection_boxes", "addr:city": "MILDRED", "addr:country": "US", "addr:postcode": "18632", "addr:state": "PA", "addr:street_address": "54 JACKSON ST", "amenity": "post_box", "collection_times": "Mo-Fr 16:30; Sa 10:00", "indoor": "yes", "note": "ON 12/24 AND 12/31, THIS BOX MAY BE COLLECTED AS EARLY AS 12 NOON.", "nsi_id": "unitedstatespostalservice-a77078", "operator": "United States Postal Service", "operator:short": "USPS", "operator:type": "public", "operator:wikidata": "Q668687", "ref": "1863200004"}, "type": "Feature"}
{"geometry": {"coordinates": [-75.9833399, 41.18709], "type": "Point"}, "id": "gOLPbTsTfCnrDwzN8-mPOdhJb2M=", "properties": {"@source_uri": "https://tools.usps.com/UspsToolsRestServices/rest/POLocator/findLocations", "@spider": "usps_collection_boxes", "addr:city": "NANTICOKE", "addr:country": "US", "addr:postcode": "18634", "addr:state": "PA", "addr:street_address": "201 CENTER ST", "amenity": "post_box", "collection_times": "Mo-Sa 14:00", "note": "ON 12/24 AND 12/31, THIS BOX MAY BE COLLECTED AS EARLY AS 12 NOON.", "nsi_id": "unitedstatespostalservice-a77078", "operator": "United States Postal Service", "operator:short": "USPS", "operator:type": "public", "operator:wikidata": "Q668687", "ref": "1863400012"}, "type": "Feature"}
{"geometry": {"coordinates": [-76.0025329, 41.201753], "type": "Point"}, "id": "dqSaUevpnVdGPQ68o4n7owksY88=", "properties": {"@source_uri": "https://tools.usps.com/UspsToolsRestServices/rest/POLocator/findLocations", "@spider": "usps_collection_boxes", "addr:city": "NANTICOKE", "addr:country": "US", "addr:postcode": "18634", "addr:state": "PA", "addr:street_address": "1 E GREEN ST", "amenity": "post_box", "collection_times": "Mo-Sa 09:30", "nsi_id": "unitedstatespostalservice-a77078", "operator": "United States Postal Service", "operator:short": "USPS", "operator:type": "public", "operator:wikidata": "Q668687", "ref": "1863400014"}, "type": "Feature"}
{"geometry": {"coordinates": [-76.0027819, 41.19579], "type": "Point"}, "id": "-KnR1D7MYxB5MyNoAybRWgaYi1o=", "properties": {"@source_uri": "https://tools.usps.com/UspsToolsRestServices/rest/POLocator/findLocations", "@spider": "usps_collection_boxes", "addr:city": "NANTICOKE", "addr:country": "US", "addr:postcode": "18634", "addr:state": "PA", "addr:street_address": "126 W WASHINGTON ST", "amenity": "post_box", "collection_times": "Mo-Fr 14:45; Sa 14:30", "note": "ON 12/24 AND 12/31, THIS BOX MAY BE COLLECTED AS EARLY AS 12 NOON.", "nsi_id": "unitedstatespostalservice-a77078", "operator": "United States Postal Service", "operator:short": "USPS", "operator:type": "public", "operator:wikidata": "Q668687", "ref": "1863400020"}, "type": "Feature"}
{"geometry": {"coordinates": [-76.0002036, 41.203494], "type": "Point"}, "id": "zKH2AC0G_dV1raWQ48hL7jOUocc=", "properties": {"@source_uri": "https://tools.usps.com/UspsToolsRestServices/rest/POLocator/findLocations", "@spider": "usps_collection_boxes", "addr:city": "NANTICOKE", "addr:country": "US", "addr:postcode": "18634", "addr:state": "PA", "addr:street_address": "173 E BROAD ST", "amenity": "post_box", "collection_times": "Mo-Sa 10:45", "nsi_id": "unitedstatespostalservice-a77078", "operator": "United States Postal Service", "operator:short": "USPS", "operator:type": "public", "operator:wikidata": "Q668687", "ref": "1863400028"}, "type": "Feature"}
{"geometry": {"coordinates": [-76.002865, 41.199675], "type": "Point"}, "id": "r6B0paBLx89zttx8aYN0qzGctdg=", "properties": {"@source_uri": "https://tools.usps.com/UspsToolsRestServices/rest/POLocator/findLocations", "@spider": "usps_collection_boxes", "addr:city": "NANTICOKE", "addr:country": "US", "addr:postcode": "18634", "addr:state": "PA", "addr:street_address": "70 N MARKET ST", "amenity": "post_box", "collection_times": "Mo-Fr 16:30; Sa 14:30", "note": "ON 12/24 AND 12/31, THIS BOX MAY BE COLLECTED AS EARLY AS 12 NOON.", "nsi_id": "unitedstatespostalservice-a77078", "operator": "United States Postal Service", "operator:short": "USPS", "operator:type": "public", "operator:wikidata": "Q668687", "ref": "1863400030"}, "type": "Feature"}
{"geometry": {"coordinates": [-76.004688, 41.207083], "type": "Point"}, "id": "ZleKBpnbaT23J6p91aaRxrrohO4=", "properties": {"@source_uri": "https://tools.usps.com/UspsToolsRestServices/rest/POLocator/findLocations", "@spider": "usps_collection_boxes", "addr:city": "NANTICOKE", "addr:country": "US", "addr:postcode": "18634", "addr:state": "PA", "addr:street_address": "70 N MARKET ST", "amenity": "post_box", "collection_times": "Mo-Fr 16:30; Sa 14:30", "indoor": "yes", "note": "ON 12/24 AND 12/31, THIS BOX MAY BE COLLECTED AS EARLY AS 12 NOON.", "nsi_id": "unitedstatespostalservice-a77078", "operator": "United States Postal Service", "operator:short": "USPS", "operator:type": "public", "operator:wikidata": "Q668687", "ref": "1863400035"}, "type": "Feature"}
{"geometry": {"coordinates": [-76.008346864, 41.205947374], "type": "Point"}, "id": "V2uXwk-d6KKGrBG3Z9uu_G6EREU=", "properties": {"@source_uri": "https://tools.usps.com/UspsToolsRestServices/rest/POLocator/findLocations", "@spider": "usps_collection_boxes", "addr:city": "NANTICOKE", "addr:country": "US", "addr:postcode": "18634", "addr:state": "PA", "addr:street_address": "70 N MARKET ST", "amenity": "post_box", "collection_times": "Mo-Fr 17:15; Sa 12:15", "indoor": "yes", "note": "ON 12/24 AND 12/31, THIS BOX MAY BE COLLECTED AS EARLY AS 12 NOON.", "nsi_id": "unitedstatespostalservice-a77078", "operator": "United States Postal Service", "operator:short": "USPS", "operator:type": "public", "operator:wikidata": "Q668687", "ref": "1863400040"}, "type": "Feature"}
{"geometry": {"coordinates": [-76.22081, 41.051761], "type": "Point"}, "id": "spSe1tLx2iRn9gRZ13fOLmME08k=", "properties": {"@source_uri": "https://tools.usps.com/UspsToolsRestServices/rest/POLocator/findLocations", "@spider": "usps_collection_boxes", "addr:city": "NESCOPECK", "addr:country": "US", "addr:postcode": "18635", "addr:state": "PA", "addr:street_address": "311 BROAD ST", "amenity": "post_box", "collection_times": "Mo-Fr 16:00; Sa 11:00", "note": "ON 12/24 AND 12/31, THIS BOX MAY BE COLLECTED AS EARLY AS 12 NOON.", "nsi_id": "unitedstatespostalservice-a77078", "operator": "United States Postal Service", "operator:short": "USPS", "operator:type": "public", "operator:wikidata": "Q668687", "ref": "1863500001"}, "type": "Feature"}
{"geometry": {"coordinates": [-76.220772, 41.051724], "type": "Point"}, "id": "LwF78kIJEGVZnL0Ii_y60_TUu0Q=", "properties": {"@source_uri": "https://tools.usps.com/UspsToolsRestServices/rest/POLocator/findLocations", "@spider": "usps_collection_boxes", "addr:city": "NESCOPECK", "addr:country": "US", "addr:postcode": "18635", "addr:state": "PA", "addr:street_address": "311 BROAD ST", "amenity": "post_box", "collection_times": "Mo-Fr 16:00; Sa 11:00", "indoor": "yes", "note": "ON 12/24 AND 12/31, THIS BOX MAY BE COLLECTED AS EARLY AS 12 NOON.", "nsi_id": "unitedstatespostalservice-a77078", "operator": "United States Postal Service", "operator:short": "USPS", "operator:type": "public", "operator:wikidata": "Q668687", "ref": "1863500003"}, "type": "Feature"}
{"geometry": {"coordinates": [-76.220831207, 41.051722515], "type": "Point"}, "id": "D3qUPdVkbjZqo4lcHf_Bk9nmw3Y=", "properties": {"@source_uri": "https://tools.usps.com/UspsToolsRestServices/rest/POLocator/findLocations", "@spider": "usps_collection_boxes", "addr:city": "NESCOPECK", "addr:country": "US", "addr:postcode": "18635", "addr:state": "PA", "addr:street_address": "311 BROAD ST", "amenity": "post_box", "collection_times": "Mo-Fr 16:05; Sa 11:05", "indoor": "yes", "note": "ON 12/24 AND 12/31, THIS BOX MAY BE COLLECTED AS EARLY AS 12 NOON.", "nsi_id": "unitedstatespostalservice-a77078", "operator": "United States Postal Service", "operator:short": "USPS", "operator:type": "public", "operator:wikidata": "Q668687", "ref": "1863500005"}, "type": "Feature"}
{"geometry": {"coordinates": [-76.0567592, 41.42118], "type": "Point"}, "id": "dC2L3qaneQIFU6wIzLbIcam1XZM=", "properties": {"@source_uri": "https://tools.usps.com/UspsToolsRestServices/rest/POLocator/findLocations", "@spider": "usps_collection_boxes", "addr:city": "NOXEN", "addr:country": "US", "addr:postcode": "18636", "addr:state": "PA", "addr:street_address": "3592 SR 29 S", "amenity": "post_box", "collection_times": "Mo-Fr 13:00; Sa 10:45", "note": "ON 12/24 AND 12/31, THIS BOX MAY BE COLLECTED AS EARLY AS 12 NOON.", "nsi_id": "unitedstatespostalservice-a77078", "operator": "United States Postal Service", "operator:short": "USPS", "operator:type": "public", "operator:wikidata": "Q668687", "ref": "1863600001"}, "type": "Feature"}
{"geometry": {"coordinates": [-75.7942795, 41.319837], "type": "Point"}, "id": "fYeXoe5EuanFBG9tA04HZYfkvKU=", "properties": {"@source_uri": "https://tools.usps.com/UspsToolsRestServices/rest/POLocator/findLocations", "@spider": "usps_collection_boxes", "addr:city": "PITTSTON", "addr:country": "US", "addr:postcode": "18640", "addr:state": "PA", "addr:street_address": "500 KENNEDY BLVD", "amenity": "post_box", "collection_times": "Mo-Sa 09:00", "nsi_id": "unitedstatespostalservice-a77078", "operator": "United States Postal Service", "operator:short": "USPS", "operator:type": "public", "operator:wikidata": "Q668687", "ref": "1864000008"}, "type": "Feature"}
{"geometry": {"coordinates": [-75.7864976, 41.336231], "type": "Point"}, "id": "z6WWvBPEZmbm0rxLDyR4r4cu43I=", "properties": {"@source_uri": "https://tools.usps.com/UspsToolsRestServices/rest/POLocator/findLocations", "@spider": "usps_collection_boxes", "addr:city": "PITTSTON", "addr:country": "US", "addr:postcode": "18640", "addr:state": "PA", "addr:street_address": "490 N MAIN ST", "amenity": "post_box", "collection_times": "Mo-Sa 10:00", "nsi_id": "unitedstatespostalservice-a77078", "operator": "United States Postal Service", "operator:short": "USPS", "operator:type": "public", "operator:wikidata": "Q668687", "ref": "1864000011"}, "type": "Feature"}
{"geometry": {"coordinates": [-75.793948266, 41.3185005759], "type": "Point"}, "id": "2V_jSUKcAkv59ERZdICW7L-ExQE=", "properties": {"@source_uri": "https://tools.usps.com/UspsToolsRestServices/rest/POLocator/findLocations", "@spider": "usps_collection_boxes", "addr:city": "PITTSTON", "addr:country": "US", "addr:postcode": "18640", "addr:state": "PA", "addr:street_address": "161 S MAIN ST", "amenity": "post_box", "collection_times": "Mo-Sa 08:45", "nsi_id": "unitedstatespostalservice-a77078", "operator": "United States Postal Service", "operator:short": "USPS", "operator:type": "public", "operator:wikidata": "Q668687", "ref": "1864000012"}, "type": "Feature"}
{"geometry": {"coordinates": [-75.7920398, 41.32188], "type": "Point"}, "id": "UFc1Y_B05qQjMQWEt0NCpWkK7C0=", "properties": {"@source_uri": "https://tools.usps.com/UspsToolsRestServices/rest/POLocator/findLocations", "@spider": "usps_collection_boxes", "addr:city": "PITTSTON", "addr:country": "US", "addr:postcode": "18640", "addr:state": "PA", "addr:street_address": "11 DOCK ST", "amenity": "post_box", "collection_times": "Mo-Fr 17:00; Sa 16:30", "note": "ON 12/24 AND 12/31, THIS BOX MAY BE COLLECTED AS EARLY AS 12 NOON.", "nsi_id": "unitedstatespostalservice-a77078", "operator": "United States Postal Service", "operator:short": "USPS", "operator:type": "public", "operator:wikidata": "Q668687", "ref": "1864000015"}, "type": "Feature"}
{"geometry": {"coordinates": [-75.7894899, 41.32504], "type": "Point"}, "id": "69LQNjxoQ5A_-3oHeMjPJadXWzg=", "properties": {"@source_uri": "https://tools.usps.com/UspsToolsRestServices/rest/POLocator/findLocations", "@spider": "usps_collection_boxes", "addr:city": "PITTSTON", "addr:country": "US", "addr:postcode": "18640", "addr:state": "PA", "addr:street_address": "101 N MAIN ST", "amenity": "post_box", "collection_times": "Mo-Sa 09:30", "nsi_id": "unitedstatespostalservice-a77078", "operator": "United States Postal Service", "operator:short": "USPS", "operator:type": "public", "operator:wikidata": "Q668687", "ref": "1864000022"}, "type": "Feature"}
{"geometry": {"coordinates": [-75.7840366, 41.303989], "type": "Point"}, "id": "nd5mVaEdVAnY7Nu04lGUkIKoN38=", "properties": {"@source_uri": "https://tools.usps.com/UspsToolsRestServices/rest/POLocator/findLocations", "@spider": "usps_collection_boxes", "addr:city": "PITTSTON", "addr:country": "US", "addr:postcode": "18640", "addr:state": "PA", "addr:street_address": "39 PITTSTON AVE", "amenity": "post_box", "collection_times": "Mo-Sa 10:00", "nsi_id": "unitedstatespostalservice-a77078", "operator": "United States Postal Service", "operator:short": "USPS", "operator:type": "public", "operator:wikidata": "Q668687", "ref": "1864000025"}, "type": "Feature"}
{"geometry": {"coordinates": [-75.7733629, 41.326954], "type": "Point"}, "id": "aXEDH6bHN_aANOuigkI1HwCQF6g=", "properties": {"@source_uri": "https://tools.usps.com/UspsToolsRestServices/rest/POLocator/findLocations", "@spider": "usps_collection_boxes", "addr:city": "PITTSTON", "addr:country": "US", "addr:postcode": "18640", "addr:state": "PA", "addr:street_address": "82 CENTER ST", "amenity": "post_box", "collection_times": "Mo-Sa 12:30", "note": "ON 12/24 AND 12/31, THIS BOX MAY BE COLLECTED AS EARLY AS 12 NOON.", "nsi_id": "unitedstatespostalservice-a77078", "operator": "United States Postal Service", "operator:short": "USPS", "operator:type": "public", "operator:wikidata": "Q668687", "ref": "1864000026"}, "type": "Feature"}
{"geometry": {"coordinates": [-75.7891685, 41.322119], "type": "Point"}, "id": "MOaaeRReXj439HrLV8YCqhkELY8=", "properties": {"@source_uri": "https://tools.usps.com/UspsToolsRestServices/rest/POLocator/findLocations", "@spider": "usps_collection_boxes", "addr:city": "PITTSTON", "addr:country": "US", "addr:postcode": "18640", "addr:state": "PA", "addr:street_address": "37 BROAD ST", "amenity": "post_box", "collection_times": "Mo-Sa 09:00", "nsi_id": "unitedstatespostalservice-a77078", "operator": "United States Postal Service", "operator:short": "USPS", "operator:type": "public", "operator:wikidata": "Q668687", "ref": "1864000029"}, "type": "Feature"}
{"geometry": {"coordinates": [-75.8131005, 41.298474], "type": "Point"}, "id": "IxM_dID1DM00OlC6zFprtwphWBs=", "properties": {"@source_uri": "https://tools.usps.com/UspsToolsRestServices/rest/POLocator/findLocations", "@spider": "usps_collection_boxes", "addr:city": "PITTSTON", "addr:country": "US", "addr:postcode": "18640", "addr:state": "PA", "addr:street_address": "46 MAIN ST", "amenity": "post_box", "collection_times": "Mo-Sa 10:00", "nsi_id": "unitedstatespostalservice-a77078", "operator": "United States Postal Service", "operator:short": "USPS", "operator:type": "public", "operator:wikidata": "Q668687", "ref": "1864000031"}, "type": "Feature"}
{"geometry": {"coordinates": [-75.8207066, 41.297678], "type": "Point"}, "id": "JfpojN_sbgTl4FZxJpvYvKMEyVA=", "properties": {"@source_uri": "https://tools.usps.com/UspsToolsRestServices/rest/POLocator/findLocations", "@spider": "usps_collection_boxes", "addr:city": "PITTSTON", "addr:country": "US", "addr:postcode": "18640", "addr:state": "PA", "addr:street_address": "109 MAIN ST", "amenity": "post_box", "collection_times": "Mo-Sa 11:00", "nsi_id": "unitedstatespostalservice-a77078", "operator": "United States Postal Service", "operator:short": "USPS", "operator:type": "public", "operator:wikidata": "Q668687", "ref": "1864000032"}, "type": "Feature"}
{"geometry": {"coordinates": [-75.8167343, 41.295066], "type": "Point"}, "id": "GmhRvXjTtXfOSIJUZCC5Nr69h5o=", "properties": {"@source_uri": "https://tools.usps.com/UspsToolsRestServices/rest/POLocator/findLocations", "@spider": "usps_collection_boxes", "addr:city": "PITTSTON", "addr:country": "US", "addr:postcode": "18640", "addr:state": "PA", "addr:street_address": "211 ROBERTS RD", "amenity": "post_box", "collection_times": "Mo-Sa 09:30", "nsi_id": "unitedstatespostalservice-a77078", "operator": "United States Postal Service", "operator:short": "USPS", "operator:type": "public", "operator:wikidata": "Q668687", "ref": "1864000033"}, "type": "Feature"}
{"geometry": {"coordinates": [-75.7669822, 41.319621], "type": "Point"}, "id": "4BHkEAyEha6RweNIzSyDiNgl-tQ=", "properties": {"@source_uri": "https://tools.usps.com/UspsToolsRestServices/rest/POLocator/findLocations", "@spider": "usps_collection_boxes", "addr:city": "PITTSTON", "addr:country": "US", "addr:postcode": "18640", "addr:state": "PA", "addr:street_address": "2030 N TOWNSHIP BLVD", "amenity": "post_box", "collection_times": "Mo-Sa 09:00", "nsi_id": "unitedstatespostalservice-a77078", "operator": "United States Postal Service", "operator:short": "USPS", "operator:type": "public", "operator:wikidata": "Q668687", "ref": "1864000034"}, "type": "Feature"}
{"geometry": {"coordinates": [-75.7920515, 41.321896], "type": "Point"}, "id": "NB3WVp6_uKYA4mGS-pfcQYeR-34=", "properties": {"@source_uri": "https://tools.usps.com/UspsToolsRestServices/rest/POLocator/findLocations", "@spider": "usps_collection_boxes", "addr:city": "PITTSTON", "addr:country": "US", "addr:postcode": "18640", "addr:state": "PA", "addr:street_address": "11 DOCK ST", "amenity": "post_box", "collection_times": "Mo-Fr 17:00; Sa 16:30", "note": "ON 12/24 AND 12/31, THIS BOX MAY BE COLLECTED AS EARLY AS 12 NOON.", "nsi_id": "unitedstatespostalservice-a77078", "operator": "United States Postal Service", "operator:short": "USPS", "operator:type": "public", "operator:wikidata": "Q668687", "ref": "1864000036"}, "type": "Feature"}
{"geometry": {"coordinates": [-75.7920896, 41.321909], "type": "Point"}, "id": "WbdUtPrG05VFSLqtv-45JrwNwaI=", "properties": {"@source_uri": "https://tools.usps.com/UspsToolsRestServices/rest/POLocator/findLocations", "@spider": "usps_collection_boxes", "addr:city": "PITTSTON", "addr:country": "US", "addr:postcode": "18640", "addr:state": "PA", "addr:street_address": "11 DOCK ST", "amenity": "post_box", "collection_times": "Mo-Fr 17:00; Sa 16:30", "note": "ON 12/24 AND 12/31, THIS BOX MAY BE COLLECTED AS EARLY AS 12 NOON.", "nsi_id": "unitedstatespostalservice-a77078", "operator": "United States Postal Service", "operator:short": "USPS", "operator:type": "public", "operator:wikidata": "Q668687", "ref": "1864000037"}, "type": "Feature"}
{"geometry": {"coordinates": [-75.8054718, 41.314981], "type": "Point"}, "id": "DxYtVEKvDQl8qQQt-u7A8mqMUok=", "properties": {"@source_uri": "https://tools.usps.com/UspsToolsRestServices/rest/POLocator/findLocations", "@spider": "usps_collection_boxes", "addr:city": "PITTSTON", "addr:country": "US", "addr:postcode": "18640", "addr:state": "PA", "addr:street_address": "200 OVERLOOK DR", "amenity": "post_box", "collection_times": "Mo-Sa 09:30", "nsi_id": "unitedstatespostalservice-a77078", "operator": "United States Postal Service", "operator:short": "USPS", "operator:type": "public", "operator:wikidata": "Q668687", "ref": "1864000040"}, "type": "Feature"}
{"geometry": {"coordinates": [-75.7918806, 41.321954], "type": "Point"}, "id": "t_rRxdYG7JwNa9N1QnPK9G-naKY=", "properties": {"@source_uri": "https://tools.usps.com/UspsToolsRestServices/rest/POLocator/findLocations", "@spider": "usps_collection_boxes", "addr:city": "PITTSTON", "addr:country": "US", "addr:postcode": "18640", "addr:state": "PA", "addr:street_address": "11 DOCK ST", "amenity": "post_box", "collection_times": "Mo-Fr 17:00; Sa 16:30", "indoor": "yes", "note": "ON 12/24 AND 12/31, THIS BOX MAY BE COLLECTED AS EARLY AS 12 NOON.", "nsi_id": "unitedstatespostalservice-a77078", "operator": "United States Postal Service", "operator:short": "USPS", "operator:type": "public", "operator:wikidata": "Q668687", "ref": "1864000042"}, "type": "Feature"}
{"geometry": {"coordinates": [-75.791865593, 41.321710998], "type": "Point"}, "id": "a0OpSToF3hl285iPQ4bk0sxKUJA=", "properties": {"@source_uri": "https://tools.usps.com/UspsToolsRestServices/rest/POLocator/findLocations", "@spider": "usps_collection_boxes", "addr:city": "PITTSTON", "addr:country": "US", "addr:postcode": "18640", "addr:state": "PA", "addr:street_address": "11 DOCK ST", "amenity": "post_box", "collection_times": "Mo-Fr 17:15; Sa 12:15", "indoor": "yes", "note": "ON 12/24 AND 12/31, THIS BOX MAY BE COLLECTED AS EARLY AS 12 NOON.", "nsi_id": "unitedstatespostalservice-a77078", "operator": "United States Postal Service", "operator:short": "USPS", "operator:type": "public", "operator:wikidata": "Q668687", "ref": "1864000047"}, "type": "Feature"}
{"geometry": {"coordinates": [-75.7419891, 41.337846], "type": "Point"}, "id": "a8CvLDwkesObjodzwZLJ5pRsst4=", "properties": {"@source_uri": "https://tools.usps.com/UspsToolsRestServices/rest/POLocator/findLocations", "@spider": "usps_collection_boxes", "addr:city": "DUPONT", "addr:country": "US", "addr:postcode": "18641", "addr:state": "PA", "addr:street_address": "701 MAIN ST", "amenity": "post_box", "collection_times": "Mo-Fr 14:00; Sa 12:30", "note": "ON 12/24 AND 12/31, THIS BOX MAY BE COLLECTED AS EARLY AS 12 NOON.", "nsi_id": "unitedstatespostalservice-a77078", "operator": "United States Postal Service", "operator:short": "USPS", "operator:type": "public", "operator:wikidata": "Q668687", "ref": "1864100001"}, "type": "Feature"}
{"geometry": {"coordinates": [-75.729361, 41.335509], "type": "Point"}, "id": "9Ot7e74Be8OrCvMHBGOJVDTxzaU=", "properties": {"@source_uri": "https://tools.usps.com/UspsToolsRestServices/rest/POLocator/findLocations", "@spider": "usps_collection_boxes", "addr:city": "DUPONT", "addr:country": "US", "addr:postcode": "18641", "addr:state": "PA", "addr:street_address": "100 TERMINAL DR", "amenity": "post_box", "collection_times": "Mo-Sa 09:30", "nsi_id": "unitedstatespostalservice-a77078", "operator": "United States Postal Service", "operator:short": "USPS", "operator:type": "public", "operator:wikidata": "Q668687", "ref": "1864100003"}, "type": "Feature"}
{"geometry": {"coordinates": [-75.7547431, 41.322477], "type": "Point"}, "id": "Ux6svKkEXWpAUutXRYaReIdxvCg=", "properties": {"@source_uri": "https://tools.usps.com/UspsToolsRestServices/rest/POLocator/findLocations", "@spider": "usps_collection_boxes", "addr:city": "DUPONT", "addr:country": "US", "addr:postcode": "18641", "addr:state": "PA", "addr:street_address": "603 MAIN ST", "amenity": "post_box", "collection_times": "Mo-Sa 09:30", "nsi_id": "unitedstatespostalservice-a77078", "operator": "United States Postal Service", "operator:short": "USPS", "operator:type": "public", "operator:wikidata": "Q668687", "ref": "1864100007"}, "type": "Feature"}
{"geometry": {"coordinates": [-75.7509839, 41.319137], "type": "Point"}, "id": "kR7_kRBM1JbMU6C763kdvH77UVY=", "properties": {"@source_uri": "https://tools.usps.com/UspsToolsRestServices/rest/POLocator/findLocations", "@spider": "usps_collection_boxes", "addr:city": "DUPONT", "addr:country": "US", "addr:postcode": "18641", "addr:state": "PA", "addr:street_address": "237 ZIEGLER ST", "amenity": "post_box", "collection_times": "Mo-Sa 09:00", "nsi_id": "unitedstatespostalservice-a77078", "operator": "United States Postal Service", "operator:short": "USPS", "operator:type": "public", "operator:wikidata": "Q668687", "ref": "1864100008"}, "type": "Feature"}
{"geometry": {"coordinates": [-75.745962, 41.323516], "type": "Point"}, "id": "u6YGjYP7kp4upkDuVfBZwqOSZMw=", "properties": {"@source_uri": "https://tools.usps.com/UspsToolsRestServices/rest/POLocator/findLocations", "@spider": "usps_collection_boxes", "addr:city": "DUPONT", "addr:country": "US", "addr:postcode": "18641", "addr:state": "PA", "addr:street_address": "225 CHESTNUT ST", "amenity": "post_box", "collection_times": "Mo-Sa 13:00", "note": "ON 12/24 AND 12/31, THIS BOX MAY BE COLLECTED AS EARLY AS 12 NOON.", "nsi_id": "unitedstatespostalservice-a77078", "operator": "United States Postal Service", "operator:short": "USPS", "operator:type": "public", "operator:wikidata": "Q668687", "ref": "1864100009"}, "type": "Feature"}
{"geometry": {"coordinates": [-75.7484479, 41.321722], "type": "Point"}, "id": "EtPdWeSi1ANbcTpIUkceuHuYRCU=", "properties": {"@source_uri": "https://tools.usps.com/UspsToolsRestServices/rest/POLocator/findLocations", "@spider": "usps_collection_boxes", "addr:city": "DUPONT", "addr:country": "US", "addr:postcode": "18641", "addr:state": "PA", "addr:street_address": "278 MAIN ST", "amenity": "post_box", "collection_times": "Mo-Sa 13:00", "note": "ON 12/24 AND 12/31, THIS BOX MAY BE COLLECTED AS EARLY AS 12 NOON.", "nsi_id": "unitedstatespostalservice-a77078", "operator": "United States Postal Service", "operator:short": "USPS", "operator:type": "public", "operator:wikidata": "Q668687", "ref": "1864100010"}, "type": "Feature"}
{"geometry": {"coordinates": [-75.741213, 41.330297], "type": "Point"}, "id": "GDT-zlBHszcL2A9Nf7c0s7KydBw=", "properties": {"@source_uri": "https://tools.usps.com/UspsToolsRestServices/rest/POLocator/findLocations", "@spider": "usps_collection_boxes", "addr:city": "DUPONT", "addr:country": "US", "addr:postcode": "18641", "addr:state": "PA", "addr:street_address": "98 GROVE ST", "amenity": "post_box", "collection_times": "Mo-Sa 08:45", "nsi_id": "unitedstatespostalservice-a77078", "operator": "United States Postal Service", "operator:short": "USPS", "operator:type": "public", "operator:wikidata": "Q668687", "ref": "1864100011"}, "type": "Feature"}
{"geometry": {"coordinates": [-75.7607874, 41.350322], "type": "Point"}, "id": "lLMKXDV7gIxLg5VQ4rIjo5-5UQU=", "properties": {"@source_uri": "https://tools.usps.com/UspsToolsRestServices/rest/POLocator/findLocations", "@spider": "usps_collection_boxes", "addr:city": "PITTSTON", "addr:country": "US", "addr:postcode": "18642", "addr:state": "PA", "addr:street_address": "450 STEPHENSON ST", "amenity": "post_box", "collection_times": "Mo-Fr 16:45; Sa 12:15", "note": "ON 12/24 AND 12/31, THIS BOX MAY BE COLLECTED AS EARLY AS 12 NOON.", "nsi_id": "unitedstatespostalservice-a77078", "operator": "United States Postal Service", "operator:short": "USPS", "operator:type": "public", "operator:wikidata": "Q668687", "ref": "1864200002"}, "type": "Feature"}
{"geometry": {"coordinates": [-75.7681703, 41.349426], "type": "Point"}, "id": "movXjRPC0hMAGKrUbV6ngu04Irg=", "properties": {"@source_uri": "https://tools.usps.com/UspsToolsRestServices/rest/POLocator/findLocations", "@spider": "usps_collection_boxes", "addr:city": "PITTSTON", "addr:country": "US", "addr:postcode": "18642", "addr:state": "PA", "addr:street_address": "121 MAIN ST", "amenity": "post_box", "collection_times": "Mo-Sa 10:00", "nsi_id": "unitedstatespostalservice-a77078", "operator": "United States Postal Service", "operator:short": "USPS", "operator:type": "public", "operator:wikidata": "Q668687", "ref": "1864200004"}, "type": "Feature"}
{"geometry": {"coordinates": [-75.7626264, 41.351271], "type": "Point"}, "id": "zXobTSUs08hkxhiQQ2zTXzOEXYc=", "properties": {"@source_uri": "https://tools.usps.com/UspsToolsRestServices/rest/POLocator/findLocations", "@spider": "usps_collection_boxes", "addr:city": "PITTSTON", "addr:country": "US", "addr:postcode": "18642", "addr:state": "PA", "addr:street_address": "335 MAIN ST", "amenity": "post_box", "collection_times": "Mo-Sa 11:00", "nsi_id": "unitedstatespostalservice-a77078", "operator": "United States Postal Service", "operator:short": "USPS", "operator:type": "public", "operator:wikidata": "Q668687", "ref": "1864200005"}, "type": "Feature"}
{"geometry": {"coordinates": [-75.7485537, 41.348693], "type": "Point"}, "id": "ZEHjvxZyKozYbvzdCDjPp7UUmrw=", "properties": {"@source_uri": "https://tools.usps.com/UspsToolsRestServices/rest/POLocator/findLocations", "@spider": "usps_collection_boxes", "addr:city": "PITTSTON", "addr:country": "US", "addr:postcode": "18642", "addr:state": "PA", "addr:street_address": "400 YORK AVE", "amenity": "post_box", "collection_times": "Mo-Sa 13:00", "note": "ON 12/24 AND 12/31, THIS BOX MAY BE COLLECTED AS EARLY AS 12 NOON.", "nsi_id": "unitedstatespostalservice-a77078", "operator": "United States Postal Service", "operator:short": "USPS", "operator:type": "public", "operator:wikidata": "Q668687", "ref": "1864200007"}, "type": "Feature"}
{"geometry": {"coordinates": [-75.7616633, 41.342699], "type": "Point"}, "id": "VzikBuloOhE2iFuXiDiJXzMqcwM=", "properties": {"@source_uri": "https://tools.usps.com/UspsToolsRestServices/rest/POLocator/findLocations", "@spider": "usps_collection_boxes", "addr:city": "PITTSTON", "addr:country": "US", "addr:postcode": "18642", "addr:state": "PA", "addr:street_address": "201 FOOTE AVE", "amenity": "post_box", "collection_times": "Mo-Sa 09:00", "nsi_id": "unitedstatespostalservice-a77078", "operator": "United States Postal Service", "operator:short": "USPS", "operator:type": "public", "operator:wikidata": "Q668687", "ref": "1864200010"}, "type": "Feature"}
{"geometry": {"coordinates": [-75.7609084, 41.350241], "type": "Point"}, "id": "DnQYe6LjR4X42HfFBVCl5Acfe6c=", "properties": {"@source_uri": "https://tools.usps.com/UspsToolsRestServices/rest/POLocator/findLocations", "@spider": "usps_collection_boxes", "addr:city": "PITTSTON", "addr:country": "US", "addr:postcode": "18642", "addr:state": "PA", "addr:street_address": "450 STEPHENSON ST", "amenity": "post_box", "collection_times": "Mo-Fr 16:45; Sa 12:00", "indoor": "yes", "note": "ON 12/24 AND 12/31, THIS BOX MAY BE COLLECTED AS EARLY AS 12 NOON.", "nsi_id": "unitedstatespostalservice-a77078", "operator": "United States Postal Service", "operator:short": "USPS", "operator:type": "public", "operator:wikidata": "Q668687", "ref": "1864200011"}, "type": "Feature"}
{"geometry": {"coordinates": [-75.76034297, 41.350080696], "type": "Point"}, "id": "VXyXFsE3l4K-c1GG4_LSuEzsu-4=", "properties": {"@source_uri": "https://tools.usps.com/UspsToolsRestServices/rest/POLocator/findLocations", "@spider": "usps_collection_boxes", "addr:city": "PITTSTON", "addr:country": "US", "addr:postcode": "18642", "addr:state": "PA", "addr:street_address": "450 STEPHENSON ST", "amenity": "post_box", "collection_times": "Mo-Fr 16:15; Sa 12:15", "indoor": "yes", "note": "ON 12/24 AND 12/31, THIS BOX MAY BE COLLECTED AS EARLY AS 12 NOON.", "nsi_id": "unitedstatespostalservice-a77078", "operator": "United States Postal Service", "operator:short": "USPS", "operator:type": "public", "operator:wikidata": "Q668687", "ref": "1864200012"}, "type": "Feature"}
{"geometry": {"coordinates": [-75.8192026, 41.320369], "type": "Point"}, "id": "vDFPIre3gmJkj334h5WJtrKcodk=", "properties": {"@source_uri": "https://tools.usps.com/UspsToolsRestServices/rest/POLocator/findLocations", "@spider": "usps_collection_boxes", "addr:city": "WEST PITTSTON", "addr:country": "US", "addr:postcode": "18643", "addr:state": "PA", "addr:street_address": "1251 WYOMING AVE", "amenity": "post_box", "collection_times": "Mo-Sa 09:30", "nsi_id": "unitedstatespostalservice-a77078", "operator": "United States Postal Service", "operator:short": "USPS", "operator:type": "public", "operator:wikidata": "Q668687", "ref": "1864300002"}, "type": "Feature"}
{"geometry": {"coordinates": [-75.8245721, 41.317555], "type": "Point"}, "id": "MOiPsoJXWhdyemcWT6YquqW7YNY=", "properties": {"@source_uri": "https://tools.usps.com/UspsToolsRestServices/rest/POLocator/findLocations", "@spider": "usps_collection_boxes", "addr:city": "WEST PITTSTON", "addr:country": "US", "addr:postcode": "18643", "addr:state": "PA", "addr:street_address": "1701 WYOMING AVE", "amenity": "post_box", "collection_times": "Mo-Sa 10:30", "nsi_id": "unitedstatespostalservice-a77078", "operator": "United States Postal Service", "operator:short": "USPS", "operator:type": "public", "operator:wikidata": "Q668687", "ref": "1864300004"}, "type": "Feature"}
{"geometry": {"coordinates": [-75.8150699, 41.322206], "type": "Point"}, "id": "MsjJPau0vtH7YAWy_9MWxF3neco=", "properties": {"@source_uri": "https://tools.usps.com/UspsToolsRestServices/rest/POLocator/findLocations", "@spider": "usps_collection_boxes", "addr:city": "WEST PITTSTON", "addr:country": "US", "addr:postcode": "18643", "addr:state": "PA", "addr:street_address": "1091 WYOMING AVE", "amenity": "post_box", "collection_times": "Mo-Sa 09:00", "nsi_id": "unitedstatespostalservice-a77078", "operator": "United States Postal Service", "operator:short": "USPS", "operator:type": "public", "operator:wikidata": "Q668687", "ref": "1864300008"}, "type": "Feature"}
{"geometry": {"coordinates": [-75.8019706, 41.333285], "type": "Point"}, "id": "r8hQOFv_diEYP0z1CUoyci_V7xQ=", "properties": {"@source_uri": "https://tools.usps.com/UspsToolsRestServices/rest/POLocator/findLocations", "@spider": "usps_collection_boxes", "addr:city": "WEST PITTSTON", "addr:country": "US", "addr:postcode": "18643", "addr:state": "PA", "addr:street_address": "542 LUZERNE AVE", "amenity": "post_box", "collection_times": "Mo-Sa 09:00", "nsi_id": "unitedstatespostalservice-a77078", "operator": "United States Postal Service", "operator:short": "USPS", "operator:type": "public", "operator:wikidata": "Q668687", "ref": "1864300010"}, "type": "Feature"}
{"geometry": {"coordinates": [-75.7986568, 41.326866], "type": "Point"}, "id": "0DIm6w1NxPNdZ0MpRg8Aqwe-90Y=", "properties": {"@source_uri": "https://tools.usps.com/UspsToolsRestServices/rest/POLocator/findLocations", "@spider": "usps_collection_boxes", "addr:city": "WEST PITTSTON", "addr:country": "US", "addr:postcode": "18643", "addr:state": "PA", "addr:street_address": "341 WYOMING AVE", "amenity": "post_box", "collection_times": "Mo-Sa 08:00", "nsi_id": "unitedstatespostalservice-a77078", "operator": "United States Postal Service", "operator:short": "USPS", "operator:type": "public", "operator:wikidata": "Q668687", "ref": "1864300015"}, "type": "Feature"}
{"geometry": {"coordinates": [-75.8036157, 41.327399], "type": "Point"}, "id": "6mFCboSpP1YSzlq_4_Szgvvaauw=", "properties": {"@source_uri": "https://tools.usps.com/UspsToolsRestServices/rest/POLocator/findLocations", "@spider": "usps_collection_boxes", "addr:city": "WEST PITTSTON", "addr:country": "US", "addr:postcode": "18643", "addr:state": "PA", "addr:street_address": "300 PHILADELPHIA AVE", "amenity": "post_box", "collection_times": "Mo-Sa 14:00", "note": "ON 12/24 AND 12/31, THIS BOX MAY BE COLLECTED AS EARLY AS 12 NOON.", "nsi_id": "unitedstatespostalservice-a77078", "operator": "United States Postal Service", "operator:short": "USPS", "operator:type": "public", "operator:wikidata": "Q668687", "ref": "1864300020"}, "type": "Feature"}
{"geometry": {"coordinates": [-75.8054687, 41.324683], "type": "Point"}, "id": "ZvwDJkNGPWRf7dIIdcSu3oJBOSs=", "properties": {"@source_uri": "https://tools.usps.com/UspsToolsRestServices/rest/POLocator/findLocations", "@spider": "usps_collection_boxes", "addr:city": "WEST PITTSTON", "addr:country": "US", "addr:postcode": "18643", "addr:state": "PA", "addr:street_address": "801 WYOMING AVE", "amenity": "post_box", "collection_times": "Mo-Fr 16:45; Sa 12:30", "note": "ON 12/24 AND 12/31, THIS BOX MAY BE COLLECTED AS EARLY AS 12 NOON.", "nsi_id": "unitedstatespostalservice-a77078", "operator": "United States Postal Service", "operator:short": "USPS", "operator:type": "public", "operator:wikidata": "Q668687", "ref": "1864300023"}, "type": "Feature"}
{"geometry": {"coordinates": [-75.8055399, 41.324661], "type": "Point"}, "id": "3AQ8KAdOwBW__pWgDJKWMwC193o=", "properties": {"@source_uri": "https://tools.usps.com/UspsToolsRestServices/rest/POLocator/findLocations", "@spider": "usps_collection_boxes", "addr:city": "WEST PITTSTON", "addr:country": "US", "addr:postcode": "18643", "addr:state": "PA", "addr:street_address": "811 WYOMING AVE", "amenity": "post_box", "collection_times": "Mo-Fr 16:45; Sa 12:00", "indoor": "yes", "note": "ON 12/24 AND 12/31, THIS BOX MAY BE COLLECTED AS EARLY AS 12 NOON.", "nsi_id": "unitedstatespostalservice-a77078", "operator": "United States Postal Service", "operator:short": "USPS", "operator:type": "public", "operator:wikidata": "Q668687", "ref": "1864300025"}, "type": "Feature"}
{"geometry": {"coordinates": [-75.806359378, 41.325547742], "type": "Point"}, "id": "ltJMTBWqEaUiyYKm7riEbGjY4Ig=", "properties": {"@source_uri": "https://tools.usps.com/UspsToolsRestServices/rest/POLocator/findLocations", "@spider": "usps_collection_boxes", "addr:city": "WEST PITTSTON", "addr:country": "US", "addr:postcode": "18643", "addr:state": "PA", "addr:street_address": "801 WYOMING AVE STE 250", "amenity": "post_box", "collection_times": "Mo-Fr 15:45; Sa 12:15", "indoor": "yes", "note": "ON 12/24 AND 12/31, THIS BOX MAY BE COLLECTED AS EARLY AS 12 NOON.", "nsi_id": "unitedstatespostalservice-a77078", "operator": "United States Postal Service", "operator:short": "USPS", "operator:type": "public", "operator:wikidata": "Q668687", "ref": "1864300028"}, "type": "Feature"}
{"geometry": {"coordinates": [-75.8492652, 41.31783], "type": "Point"}, "id": "G2Eppe3TUXVEe9VELgT2mGYYAiQ=", "properties": {"@source_uri": "https://tools.usps.com/UspsToolsRestServices/rest/POLocator/findLocations", "@spider": "usps_collection_boxes", "addr:city": "PITTSTON", "addr:country": "US", "addr:postcode": "18644", "addr:state": "PA", "addr:street_address": "926 SHOEMAKER AVE", "amenity": "post_box", "collection_times": "Mo-Sa 09:00", "nsi_id": "unitedstatespostalservice-a77078", "operator": "United States Postal Service", "operator:short": "USPS", "operator:type": "public", "operator:wikidata": "Q668687", "ref": "1864400001"}, "type": "Feature"}
{"geometry": {"coordinates": [-75.8346168, 41.313265], "type": "Point"}, "id": "kKSXjXaPuK2ywpPnUEGOcPXeRDI=", "properties": {"@source_uri": "https://tools.usps.com/UspsToolsRestServices/rest/POLocator/findLocations", "@spider": "usps_collection_boxes", "addr:city": "PITTSTON", "addr:country": "US", "addr:postcode": "18644", "addr:state": "PA", "addr:street_address": "200 WYOMING AVE", "amenity": "post_box", "collection_times": "Mo-Fr 16:30; Sa 12:00", "indoor": "yes", "note": "ON 12/24 AND 12/31, THIS BOX MAY BE COLLECTED AS EARLY AS 12 NOON.", "nsi_id": "unitedstatespostalservice-a77078", "operator": "United States Postal Service", "operator:short": "USPS", "operator:type": "public", "operator:wikidata": "Q668687", "ref": "1864400005"}, "type": "Feature"}
{"geometry": {"coordinates": [-75.8509828, 41.300324], "type": "Point"}, "id": "s-SK0N4S_hl2JMU2Ax5hGe4jTo4=", "properties": {"@source_uri": "https://tools.usps.com/UspsToolsRestServices/rest/POLocator/findLocations", "@spider": "usps_collection_boxes", "addr:city": "PITTSTON", "addr:country": "US", "addr:postcode": "18644", "addr:state": "PA", "addr:street_address": "1056 WYOMING AVE", "amenity": "post_box", "collection_times": "Mo-Sa 11:00", "nsi_id": "unitedstatespostalservice-a77078", "operator": "United States Postal Service", "operator:short": "USPS", "operator:type": "public", "operator:wikidata": "Q668687", "ref": "1864400006"}, "type": "Feature"}
{"geometry": {"coordinates": [-75.8405268, 41.309411], "type": "Point"}, "id": "YojMd51hHeP7NawuSZohOKuOLuU=", "properties": {"@source_uri": "https://tools.usps.com/UspsToolsRestServices/rest/POLocator/findLocations", "@spider": "usps_collection_boxes", "addr:city": "PITTSTON", "addr:country": "US", "addr:postcode": "18644", "addr:state": "PA", "addr:street_address": "475 WYOMING AVE", "amenity": "post_box", "collection_times": "Mo-Sa 09:30", "nsi_id": "unitedstatespostalservice-a77078", "operator": "United States Postal Service", "operator:short": "USPS", "operator:type": "public", "operator:wikidata": "Q668687", "ref": "1864400007"}, "type": "Feature"}
{"geometry": {"coordinates": [-75.8372176, 41.31163], "type": "Point"}, "id": "pv0K8upH8nBamViN44at2bhwZ48=", "properties": {"@source_uri": "https://tools.usps.com/UspsToolsRestServices/rest/POLocator/findLocations", "@spider": "usps_collection_boxes", "addr:city": "PITTSTON", "addr:country": "US", "addr:postcode": "18644", "addr:state": "PA", "addr:street_address": "324 WYOMING AVE", "amenity": "post_box", "collection_times": "Mo-Sa 09:00", "nsi_id": "unitedstatespostalservice-a77078", "operator": "United States Postal Service", "operator:short": "USPS", "operator:type": "public", "operator:wikidata": "Q668687", "ref": "1864400010"}, "type": "Feature"}
{"geometry": {"coordinates": [-75.8347413, 41.313459], "type": "Point"}, "id": "nt9K0NgDp7CvHsbvn9OlRyXyiLQ=", "properties": {"@source_uri": "https://tools.usps.com/UspsToolsRestServices/rest/POLocator/findLocations", "@spider": "usps_collection_boxes", "addr:city": "PITTSTON", "addr:country": "US", "addr:postcode": "18644", "addr:state": "PA", "addr:street_address": "200 WYOMING AVE", "amenity": "post_box", "collection_times": "Mo-Fr 16:30; Sa 12:30", "note": "ON 12/24 AND 12/31, THIS BOX MAY BE COLLECTED AS EARLY AS 12 NOON.", "nsi_id": "unitedstatespostalservice-a77078", "operator": "United States Postal Service", "operator:short": "USPS", "operator:type": "public", "operator:wikidata": "Q668687", "ref": "1864400014"}, "type": "Feature"}
{"geometry": {"coordinates": [-75.834938638, 41.313352895], "type": "Point"}, "id": "aXkSlwcXcw3KA8m_IXlszeDFkwg=", "properties": {"@source_uri": "https://tools.usps.com/UspsToolsRestServices/rest/POLocator/findLocations", "@spider": "usps_collection_boxes", "addr:city": "PITTSTON", "addr:country": "US", "addr:postcode": "18644", "addr:state": "PA", "addr:street_address": "200 WYOMING AVE", "amenity": "post_box", "collection_times": "Mo-Fr 15:45; Sa 12:15", "indoor": "yes", "note": "ON 12/24 AND 12/31, THIS BOX MAY BE COLLECTED AS EARLY AS 12 NOON.", "nsi_id": "unitedstatespostalservice-a77078", "operator": "United States Postal Service", "operator:short": "USPS", "operator:type": "public", "operator:wikidata": "Q668687", "ref": "1864400017"}, "type": "Feature"}
{"geometry": {"coordinates": [-75.9479599, 41.239704], "type": "Point"}, "id": "SbUn4jZxrMLOUqw2Q8J-yYy7kMg=", "properties": {"@source_uri": "https://tools.usps.com/UspsToolsRestServices/rest/POLocator/findLocations", "@spider": "usps_collection_boxes", "addr:city": "PLYMOUTH", "addr:country": "US", "addr:postcode": "18651", "addr:state": "PA", "addr:street_address": "150 W MAIN ST", "amenity": "post_box", "collection_times": "Mo-Fr 15:30; Sa 15:00", "note": "ON 12/24 AND 12/31, THIS BOX MAY BE COLLECTED AS EARLY AS 12 NOON.", "nsi_id": "unitedstatespostalservice-a77078", "operator": "United States Postal Service", "operator:short": "USPS", "operator:type": "public", "operator:wikidata": "Q668687", "ref": "1865100001"}, "type": "Feature"}
{"geometry": {"coordinates": [-75.9493079, 41.243296], "type": "Point"}, "id": "zd73-LLuBH5DPp1CJ4F4GCcTsa8=", "properties": {"@source_uri": "https://tools.usps.com/UspsToolsRestServices/rest/POLocator/findLocations", "@spider": "usps_collection_boxes", "addr:city": "PLYMOUTH", "addr:country": "US", "addr:postcode": "18651", "addr:state": "PA", "addr:street_address": "30 W SHAWNEE AVE", "amenity": "post_box", "collection_times": "Mo-Sa 14:00", "note": "ON 12/24 AND 12/31, THIS BOX MAY BE COLLECTED AS EARLY AS 12 NOON.", "nsi_id": "unitedstatespostalservice-a77078", "operator": "United States Postal Service", "operator:short": "USPS", "operator:type": "public", "operator:wikidata": "Q668687", "ref": "1865100010"}, "type": "Feature"}
{"geometry": {"coordinates": [-75.9292529, 41.254383], "type": "Point"}, "id": "J9-8MCLNC7yo10WAc25sMyz3ops=", "properties": {"@source_uri": "https://tools.usps.com/UspsToolsRestServices/rest/POLocator/findLocations", "@spider": "usps_collection_boxes", "addr:city": "PLYMOUTH", "addr:country": "US", "addr:postcode": "18651", "addr:state": "PA", "addr:street_address": "2 NESBITT ST", "amenity": "post_box", "collection_times": "Mo-Sa 09:00", "nsi_id": "unitedstatespostalservice-a77078", "operator": "United States Postal Service", "operator:short": "USPS", "operator:type": "public", "operator:wikidata": "Q668687", "ref": "1865100012"}, "type": "Feature"}
{"geometry": {"coordinates": [-75.9403472, 41.254241], "type": "Point"}, "id": "pXAkeuGtqfYQbF8TAzKfBakpqEY=", "properties": {"@source_uri": "https://tools.usps.com/UspsToolsRestServices/rest/POLocator/findLocations", "@spider": "usps_collection_boxes", "addr:city": "PLYMOUTH", "addr:country": "US", "addr:postcode": "18651", "addr:state": "PA", "addr:street_address": "550 WASHINGTON AVE", "amenity": "post_box", "collection_times": "Mo-Sa 13:30", "note": "ON 12/24 AND 12/31, THIS BOX MAY BE COLLECTED AS EARLY AS 12 NOON.", "nsi_id": "unitedstatespostalservice-a77078", "operator": "United States Postal Service", "operator:short": "USPS", "operator:type": "public", "operator:wikidata": "Q668687", "ref": "1865100015"}, "type": "Feature"}
{"geometry": {"coordinates": [-75.9432222, 41.241394], "type": "Point"}, "id": "fvtcIogsDhYhJ8zQ-m7GGkPpEko=", "properties": {"@source_uri": "https://tools.usps.com/UspsToolsRestServices/rest/POLocator/findLocations", "@spider": "usps_collection_boxes", "addr:city": "PLYMOUTH", "addr:country": "US", "addr:postcode": "18651", "addr:state": "PA", "addr:street_address": "101 E MAIN ST", "amenity": "post_box", "collection_times": "Mo-Sa 15:00", "note": "ON 12/24 AND 12/31, THIS BOX MAY BE COLLECTED AS EARLY AS 12 NOON.", "nsi_id": "unitedstatespostalservice-a77078", "operator": "United States Postal Service", "operator:short": "USPS", "operator:type": "public", "operator:wikidata": "Q668687", "ref": "1865100017"}, "type": "Feature"}
{"geometry": {"coordinates": [-75.9417344, 41.241539], "type": "Point"}, "id": "1fEm4T8eobmUMOy3Z59-WUV2Rww=", "properties": {"@source_uri": "https://tools.usps.com/UspsToolsRestServices/rest/POLocator/findLocations", "@spider": "usps_collection_boxes", "addr:city": "PLYMOUTH", "addr:country": "US", "addr:postcode": "18651", "addr:state": "PA", "addr:street_address": "200 E MAIN ST", "amenity": "post_box", "collection_times": "Mo-Sa 09:00", "nsi_id": "unitedstatespostalservice-a77078", "operator": "United States Postal Service", "operator:short": "USPS", "operator:type": "public", "operator:wikidata": "Q668687", "ref": "1865100019"}, "type": "Feature"}
{"geometry": {"coordinates": [-75.9573509, 41.236952], "type": "Point"}, "id": "SwvWlth0PbKtMnfKptoKEAYouT0=", "properties": {"@source_uri": "https://tools.usps.com/UspsToolsRestServices/rest/POLocator/findLocations", "@spider": "usps_collection_boxes", "addr:city": "PLYMOUTH", "addr:country": "US", "addr:postcode": "18651", "addr:state": "PA", "addr:street_address": "535 W MAIN ST", "amenity": "post_box", "collection_times": "Mo-Sa 09:00", "nsi_id": "unitedstatespostalservice-a77078", "operator": "United States Postal Service", "operator:short": "USPS", "operator:type": "public", "operator:wikidata": "Q668687", "ref": "1865100020"}, "type": "Feature"}
{"geometry": {"coordinates": [-75.9395873, 41.249898], "type": "Point"}, "id": "O_RGAjV92QjAHtM3pi5awSvf3zs=", "properties": {"@source_uri": "https://tools.usps.com/UspsToolsRestServices/rest/POLocator/findLocations", "@spider": "usps_collection_boxes", "addr:city": "PLYMOUTH", "addr:country": "US", "addr:postcode": "18651", "addr:state": "PA", "addr:street_address": "1 MIDTOWN VLG", "amenity": "post_box", "collection_times": "Mo-Sa 09:30", "nsi_id": "unitedstatespostalservice-a77078", "operator": "United States Postal Service", "operator:short": "USPS", "operator:type": "public", "operator:wikidata": "Q668687", "ref": "1865100024"}, "type": "Feature"}
{"geometry": {"coordinates": [-75.9477999, 41.239626], "type": "Point"}, "id": "-7d9zDmx3TOls_dA2TniXWflD5k=", "properties": {"@source_uri": "https://tools.usps.com/UspsToolsRestServices/rest/POLocator/findLocations", "@spider": "usps_collection_boxes", "addr:city": "PLYMOUTH", "addr:country": "US", "addr:postcode": "18651", "addr:state": "PA", "addr:street_address": "150 W MAIN ST", "amenity": "post_box", "collection_times": "Mo-Fr 15:30; Sa 15:00", "note": "ON 12/24 AND 12/31, THIS BOX MAY BE COLLECTED AS EARLY AS 12 NOON.", "nsi_id": "unitedstatespostalservice-a77078", "operator": "United States Postal Service", "operator:short": "USPS", "operator:type": "public", "operator:wikidata": "Q668687", "ref": "1865100027"}, "type": "Feature"}
{"geometry": {"coordinates": [-75.94815, 41.239701], "type": "Point"}, "id": "S7qtrsH11fIYPEuowNaa1ahtY3c=", "properties": {"@source_uri": "https://tools.usps.com/UspsToolsRestServices/rest/POLocator/findLocations", "@spider": "usps_collection_boxes", "addr:city": "PLYMOUTH", "addr:country": "US", "addr:postcode": "18651", "addr:state": "PA", "addr:street_address": "150 W MAIN ST", "amenity": "post_box", "collection_times": "Mo-Fr 15:30; Sa 15:00", "indoor": "yes", "note": "ON 12/24 AND 12/31, THIS BOX MAY BE COLLECTED AS EARLY AS 12 NOON.", "nsi_id": "unitedstatespostalservice-a77078", "operator": "United States Postal Service", "operator:short": "USPS", "operator:type": "public", "operator:wikidata": "Q668687", "ref": "1865100030"}, "type": "Feature"}
{"geometry": {"coordinates": [-75.947994147, 41.239711835], "type": "Point"}, "id": "kxLzzufZT7DtpvRmnkLFahFo_GU=", "properties": {"@source_uri": "https://tools.usps.com/UspsToolsRestServices/rest/POLocator/findLocations", "@spider": "usps_collection_boxes", "addr:city": "PLYMOUTH", "addr:country": "US", "addr:postcode": "18651", "addr:state": "PA", "addr:street_address": "150 W MAIN ST", "amenity": "post_box", "collection_times": "Mo-Fr 16:15; Sa 12:15", "indoor": "yes", "note": "ON 12/24 AND 12/31, THIS BOX MAY BE COLLECTED AS EARLY AS 12 NOON.", "nsi_id": "unitedstatespostalservice-a77078", "operator": "United States Postal Service", "operator:short": "USPS", "operator:type": "public", "operator:wikidata": "Q668687", "ref": "1865100033"}, "type": "Feature"}
{"geometry": {"coordinates": [-75.823478, 41.394465], "type": "Point"}, "id": "BZouo9JPCpPyc0NiPLmTXIWR35E=", "properties": {"@source_uri": "https://tools.usps.com/UspsToolsRestServices/rest/POLocator/findLocations", "@spider": "usps_collection_boxes", "addr:city": "RANSOM", "addr:country": "US", "addr:postcode": "18653", "addr:state": "PA", "addr:street_address": "3063 MAIN ST", "amenity": "post_box", "collection_times": "Mo-Fr 15:45; Sa 10:45", "note": "ON 12/24 AND 12/31, THIS BOX MAY BE COLLECTED AS EARLY AS 12 NOON.", "nsi_id": "unitedstatespostalservice-a77078", "operator": "United States Postal Service", "operator:short": "USPS", "operator:type": "public", "operator:wikidata": "Q668687", "ref": "1865300001"}, "type": "Feature"}
{"geometry": {"coordinates": [-75.823433, 41.394487], "type": "Point"}, "id": "J5gJrVEyEgn0v_5yDf7Az1F9b7k=", "properties": {"@source_uri": "https://tools.usps.com/UspsToolsRestServices/rest/POLocator/findLocations", "@spider": "usps_collection_boxes", "addr:city": "RANSOM", "addr:country": "US", "addr:postcode": "18653", "addr:state": "PA", "addr:street_address": "3063 MAIN ST", "amenity": "post_box", "collection_times": "Mo-Fr 11:00; Sa 10:45", "indoor": "yes", "nsi_id": "unitedstatespostalservice-a77078", "operator": "United States Postal Service", "operator:short": "USPS", "operator:type": "public", "operator:wikidata": "Q668687", "ref": "1865300002"}, "type": "Feature"}
{"geometry": {"coordinates": [-75.823394372, 41.394397144], "type": "Point"}, "id": "T1OvXThNpdLRyIEcYcEBJFqQzaY=", "properties": {"@source_uri": "https://tools.usps.com/UspsToolsRestServices/rest/POLocator/findLocations", "@spider": "usps_collection_boxes", "addr:city": "RANSOM", "addr:country": "US", "addr:postcode": "18653", "addr:state": "PA", "addr:street_address": "3063 MAIN ST", "amenity": "post_box", "collection_times": "Mo-Fr 11:00; Sa 10:45", "indoor": "yes", "nsi_id": "unitedstatespostalservice-a77078", "operator": "United States Postal Service", "operator:short": "USPS", "operator:type": "public", "operator:wikidata": "Q668687", "ref": "1865300004"}, "type": "Feature"}
{"geometry": {"coordinates": [-76.1516045, 41.152674], "type": "Point"}, "id": "9eZ-MdMCoAmZ6-MCjhpren3k6kU=", "properties": {"@source_uri": "https://tools.usps.com/UspsToolsRestServices/rest/POLocator/findLocations", "@spider": "usps_collection_boxes", "addr:city": "SHICKSHINNY", "addr:country": "US", "addr:postcode": "18655", "addr:state": "PA", "addr:street_address": "19 W VINE ST", "amenity": "post_box", "collection_times": "Mo-Sa 09:30", "nsi_id": "unitedstatespostalservice-a77078", "operator": "United States Postal Service", "operator:short": "USPS", "operator:type": "public", "operator:wikidata": "Q668687", "ref": "1865500001"}, "type": "Feature"}
{"geometry": {"coordinates": [-76.1505947, 41.153344], "type": "Point"}, "id": "saxuJsZaTvNyBDv7DeHrF5aQyoc=", "properties": {"@source_uri": "https://tools.usps.com/UspsToolsRestServices/rest/POLocator/findLocations", "@spider": "usps_collection_boxes", "addr:city": "SHICKSHINNY", "addr:country": "US", "addr:postcode": "18655", "addr:state": "PA", "addr:street_address": "16 W UNION ST", "amenity": "post_box", "collection_times": "Mo-Sa 10:00", "nsi_id": "unitedstatespostalservice-a77078", "operator": "United States Postal Service", "operator:short": "USPS", "operator:type": "public", "operator:wikidata": "Q668687", "ref": "1865500003"}, "type": "Feature"}
{"geometry": {"coordinates": [-76.1405754, 41.141665], "type": "Point"}, "id": "GRj9NnXfWOEWg_JojzH36_D4lB0=", "properties": {"@source_uri": "https://tools.usps.com/UspsToolsRestServices/rest/POLocator/findLocations", "@spider": "usps_collection_boxes", "addr:city": "SHICKSHINNY", "addr:country": "US", "addr:postcode": "18655", "addr:state": "PA", "addr:street_address": "132 MAIN ST", "amenity": "post_box", "collection_times": "Mo-Sa 11:00", "nsi_id": "unitedstatespostalservice-a77078", "operator": "United States Postal Service", "operator:short": "USPS", "operator:type": "public", "operator:wikidata": "Q668687", "ref": "1865500006"}, "type": "Feature"}
{"geometry": {"coordinates": [-76.147512, 41.153563], "type": "Point"}, "id": "MNVTxS8EEJfjSoAZExGs1X6ms-E=", "properties": {"@source_uri": "https://tools.usps.com/UspsToolsRestServices/rest/POLocator/findLocations", "@spider": "usps_collection_boxes", "addr:city": "SHICKSHINNY", "addr:country": "US", "addr:postcode": "18655", "addr:state": "PA", "addr:street_address": "40 N CANAL ST", "amenity": "post_box", "collection_times": "Mo-Fr 16:45; Sa 14:30", "indoor": "yes", "note": "ON 12/24 AND 12/31, THIS BOX MAY BE COLLECTED AS EARLY AS 12 NOON.", "nsi_id": "unitedstatespostalservice-a77078", "operator": "United States Postal Service", "operator:short": "USPS", "operator:type": "public", "operator:wikidata": "Q668687", "ref": "1865500008"}, "type": "Feature"}
{"geometry": {"coordinates": [-76.14749076, 41.153729837], "type": "Point"}, "id": "303I_N1-EOXTXSTZBY-_UdH6auY=", "properties": {"@source_uri": "https://tools.usps.com/UspsToolsRestServices/rest/POLocator/findLocations", "@spider": "usps_collection_boxes", "addr:city": "SHICKSHINNY", "addr:country": "US", "addr:postcode": "18655", "addr:state": "PA", "addr:street_address": "40 N CANAL ST", "amenity": "post_box", "collection_times": "Mo-Fr 16:45; Sa 12:15", "indoor": "yes", "note": "ON 12/24 AND 12/31, THIS BOX MAY BE COLLECTED AS EARLY AS 12 NOON.", "nsi_id": "unitedstatespostalservice-a77078", "operator": "United States Postal Service", "operator:short": "USPS", "operator:type": "public", "operator:wikidata": "Q668687", "ref": "1865500012"}, "type": "Feature"}
{"geometry": {"coordinates": [-76.146072, 41.280882], "type": "Point"}, "id": "UZxxWazxSK6bgrE4YwUaEsWnbgc=", "properties": {"@source_uri": "https://tools.usps.com/UspsToolsRestServices/rest/POLocator/findLocations", "@spider": "usps_collection_boxes", "addr:city": "SWEET VALLEY", "addr:country": "US", "addr:postcode": "18656", "addr:state": "PA", "addr:street_address": "5319 MAIN RD", "amenity": "post_box", "collection_times": "Mo-Fr 16:15; Sa 11:30", "note": "ON 12/24 AND 12/31, THIS BOX MAY BE COLLECTED AS EARLY AS 12 NOON.", "nsi_id": "unitedstatespostalservice-a77078", "operator": "United States Postal Service", "operator:short": "USPS", "operator:type": "public", "operator:wikidata": "Q668687", "ref": "1865600001"}, "type": "Feature"}
{"geometry": {"coordinates": [-76.146058, 41.280942], "type": "Point"}, "id": "gmAN2Dqb4xS8O_XyTa7TvA0QQVI=", "properties": {"@source_uri": "https://tools.usps.com/UspsToolsRestServices/rest/POLocator/findLocations", "@spider": "usps_collection_boxes", "addr:city": "SWEET VALLEY", "addr:country": "US", "addr:postcode": "18656", "addr:state": "PA", "addr:street_address": "5319 MAIN RD", "amenity": "post_box", "collection_times": "Mo-Fr 16:15; Sa 11:30", "indoor": "yes", "note": "ON 12/24 AND 12/31, THIS BOX MAY BE COLLECTED AS EARLY AS 12 NOON.", "nsi_id": "unitedstatespostalservice-a77078", "operator": "United States Postal Service", "operator:short": "USPS", "operator:type": "public", "operator:wikidata": "Q668687", "ref": "1865600002"}, "type": "Feature"}
{"geometry": {"coordinates": [-76.145078962, 41.281832742], "type": "Point"}, "id": "3IPz_WTZisoj0MBt9Wnpo3Izu5o=", "properties": {"@source_uri": "https://tools.usps.com/UspsToolsRestServices/rest/POLocator/findLocations", "@spider": "usps_collection_boxes", "addr:city": "SWEET VALLEY", "addr:country": "US", "addr:postcode": "18656", "addr:state": "PA", "addr:street_address": "5319 MAIN RD", "amenity": "post_box", "collection_times": "Mo-Fr 16:30; Sa 11:30", "indoor": "yes", "note": "ON 12/24 AND 12/31, THIS BOX MAY BE COLLECTED AS EARLY AS 12 NOON.", "nsi_id": "unitedstatespostalservice-a77078", "operator": "United States Postal Service", "operator:short": "USPS", "operator:type": "public", "operator:wikidata": "Q668687", "ref": "1865600004"}, "type": "Feature"}
{"geometry": {"coordinates": [-75.9466850087, 41.5393030138], "type": "Point"}, "id": "BGbTGcBNisN47cUG8VdxCVzprW4=", "properties": {"@source_uri": "https://tools.usps.com/UspsToolsRestServices/rest/POLocator/findLocations", "@spider": "usps_collection_boxes", "addr:city": "TUNKHANNOCK", "addr:country": "US", "addr:postcode": "18657", "addr:state": "PA", "addr:street_address": "109 BRIDGE ST", "amenity": "post_box", "collection_times": "Mo-Fr 16:30; Sa 16:00", "note": "ON 12/24 AND 12/31, THIS BOX MAY BE COLLECTED AS EARLY AS 12 NOON.", "nsi_id": "unitedstatespostalservice-a77078", "operator": "United States Postal Service", "operator:short": "USPS", "operator:type": "public", "operator:wikidata": "Q668687", "ref": "1865700009"}, "type": "Feature"}
{"geometry": {"coordinates": [-75.9480034, 41.524422], "type": "Point"}, "id": "FdFP5vlMt0mXYo8jqtoq08lmXt8=", "properties": {"@source_uri": "https://tools.usps.com/UspsToolsRestServices/rest/POLocator/findLocations", "@spider": "usps_collection_boxes", "addr:city": "TUNKHANNOCK", "addr:country": "US", "addr:postcode": "18657", "addr:state": "PA", "addr:street_address": "808 SR 29 S", "amenity": "post_box", "collection_times": "Mo-Sa 13:00", "note": "ON 12/24 AND 12/31, THIS BOX MAY BE COLLECTED AS EARLY AS 12 NOON.", "nsi_id": "unitedstatespostalservice-a77078", "operator": "United States Postal Service", "operator:short": "USPS", "operator:type": "public", "operator:wikidata": "Q668687", "ref": "1865700010"}, "type": "Feature"}
{"geometry": {"coordinates": [-75.946386, 41.539196], "type": "Point"}, "id": "bmFaaDCkH86m803K2Z1spE-u3eU=", "properties": {"@source_uri": "https://tools.usps.com/UspsToolsRestServices/rest/POLocator/findLocations", "@spider": "usps_collection_boxes", "addr:city": "TUNKHANNOCK", "addr:country": "US", "addr:postcode": "18657", "addr:state": "PA", "addr:street_address": "109 BRIDGE ST", "amenity": "post_box", "collection_times": "Mo-Fr 16:30; Sa 16:00", "indoor": "yes", "note": "ON 12/24 AND 12/31, THIS BOX MAY BE COLLECTED AS EARLY AS 12 NOON.", "nsi_id": "unitedstatespostalservice-a77078", "operator": "United States Postal Service", "operator:short": "USPS", "operator:type": "public", "operator:wikidata": "Q668687", "ref": "1865700012"}, "type": "Feature"}
{"geometry": {"coordinates": [-75.946429145, 41.539191212], "type": "Point"}, "id": "9HL1RJLkakfxOK7X5d7zL9NW-YU=", "properties": {"@source_uri": "https://tools.usps.com/UspsToolsRestServices/rest/POLocator/findLocations", "@spider": "usps_collection_boxes", "addr:city": "TUNKHANNOCK", "addr:country": "US", "addr:postcode": "18657", "addr:state": "PA", "addr:street_address": "109 BRIDGE ST", "amenity": "post_box", "collection_times": "Mo-Fr 17:05; Sa 12:05", "indoor": "yes", "note": "ON 12/24 AND 12/31, THIS BOX MAY BE COLLECTED AS EARLY AS 12 NOON.", "nsi_id": "unitedstatespostalservice-a77078", "operator": "United States Postal Service", "operator:short": "USPS", "operator:type": "public", "operator:wikidata": "Q668687", "ref": "1865700017"}, "type": "Feature"}
{"geometry": {"coordinates": [-76.131244, 41.072067], "type": "Point"}, "id": "gIK7nHxj0vXjtDb60mBR2bh_GoE=", "properties": {"@source_uri": "https://tools.usps.com/UspsToolsRestServices/rest/POLocator/findLocations", "@spider": "usps_collection_boxes", "addr:city": "WAPWALLOPEN", "addr:country": "US", "addr:postcode": "18660", "addr:state": "PA", "addr:street_address": "435 S MAIN ST", "amenity": "post_box", "collection_times": "Mo-Fr 16:15; Sa 11:45", "note": "ON 12/24 AND 12/31, THIS BOX MAY BE COLLECTED AS EARLY AS 12 NOON.", "nsi_id": "unitedstatespostalservice-a77078", "operator": "United States Postal Service", "operator:short": "USPS", "operator:type": "public", "operator:wikidata": "Q668687", "ref": "1866000001"}, "type": "Feature"}
{"geometry": {"coordinates": [-76.131241, 41.072029], "type": "Point"}, "id": "tsiJzryi0HauVlbwD4K7Q85wyGk=", "properties": {"@source_uri": "https://tools.usps.com/UspsToolsRestServices/rest/POLocator/findLocations", "@spider": "usps_collection_boxes", "addr:city": "WAPWALLOPEN", "addr:country": "US", "addr:postcode": "18660", "addr:state": "PA", "addr:street_address": "435 S MAIN ST", "amenity": "post_box", "collection_times": "Mo-Fr 16:15; Sa 11:45", "indoor": "yes", "note": "ON 12/24 AND 12/31, THIS BOX MAY BE COLLECTED AS EARLY AS 12 NOON.", "nsi_id": "unitedstatespostalservice-a77078", "operator": "United States Postal Service", "operator:short": "USPS", "operator:type": "public", "operator:wikidata": "Q668687", "ref": "1866000002"}, "type": "Feature"}
{"geometry": {"coordinates": [-76.13122091, 41.072091903], "type": "Point"}, "id": "JwMK-bHGcIyhETshyx6RrDPZJCw=", "properties": {"@source_uri": "https://tools.usps.com/UspsToolsRestServices/rest/POLocator/findLocations", "@spider": "usps_collection_boxes", "addr:city": "WAPWALLOPEN", "addr:country": "US", "addr:postcode": "18660", "addr:state": "PA", "addr:street_address": "435 S MAIN ST", "amenity": "post_box", "collection_times": "Mo-Fr 16:15; Sa 11:45", "indoor": "yes", "note": "ON 12/24 AND 12/31, THIS BOX MAY BE COLLECTED AS EARLY AS 12 NOON.", "nsi_id": "unitedstatespostalservice-a77078", "operator": "United States Postal Service", "operator:short": "USPS", "operator:type": "public", "operator:wikidata": "Q668687", "ref": "1866000004"}, "type": "Feature"}
{"geometry": {"coordinates": [-75.773951, 41.060579], "type": "Point"}, "id": "8mx_2lMuoqTeTyFTk6UyB-o4kuc=", "properties": {"@source_uri": "https://tools.usps.com/UspsToolsRestServices/rest/POLocator/findLocations", "@spider": "usps_collection_boxes", "addr:city": "WHITE HAVEN", "addr:country": "US", "addr:postcode": "18661", "addr:state": "PA", "addr:street_address": "425 TOWANDA ST", "amenity": "post_box", "collection_times": "Mo-Fr 16:30; Sa 11:00", "note": "ON 12/24 AND 12/31, THIS BOX MAY BE COLLECTED AS EARLY AS 12 NOON.", "nsi_id": "unitedstatespostalservice-a77078", "operator": "United States Postal Service", "operator:short": "USPS", "operator:type": "public", "operator:wikidata": "Q668687", "ref": "1866100005"}, "type": "Feature"}
{"geometry": {"coordinates": [-75.7725742, 41.059581], "type": "Point"}, "id": "HuvzAO4cORV66FhbhlE8AyZp_tQ=", "properties": {"@source_uri": "https://tools.usps.com/UspsToolsRestServices/rest/POLocator/findLocations", "@spider": "usps_collection_boxes", "addr:city": "WHITE HAVEN", "addr:country": "US", "addr:postcode": "18661", "addr:state": "PA", "addr:street_address": "501 MAIN ST", "amenity": "post_box", "collection_times": "Mo-Sa 09:15", "nsi_id": "unitedstatespostalservice-a77078", "operator": "United States Postal Service", "operator:short": "USPS", "operator:type": "public", "operator:wikidata": "Q668687", "ref": "1866100008"}, "type": "Feature"}
{"geometry": {"coordinates": [-75.773998, 41.060618], "type": "Point"}, "id": "TWnnkxeuSy42Ff1ENaJ5Ctf4nO0=", "properties": {"@source_uri": "https://tools.usps.com/UspsToolsRestServices/rest/POLocator/findLocations", "@spider": "usps_collection_boxes", "addr:city": "WHITE HAVEN", "addr:country": "US", "addr:postcode": "18661", "addr:state": "PA", "addr:street_address": "425 TOWANDA ST", "amenity": "post_box", "collection_times": "Mo-Fr 16:30; Sa 11:00", "indoor": "yes", "note": "ON 12/24 AND 12/31, THIS BOX MAY BE COLLECTED AS EARLY AS 12 NOON.", "nsi_id": "unitedstatespostalservice-a77078", "operator": "United States Postal Service", "operator:short": "USPS", "operator:type": "public", "operator:wikidata": "Q668687", "ref": "1866100009"}, "type": "Feature"}
{"geometry": {"coordinates": [-75.8145905, 41.041068], "type": "Point"}, "id": "NOhMZwIjbjtbGX7qA7YhHqQzGng=", "properties": {"@source_uri": "https://tools.usps.com/UspsToolsRestServices/rest/POLocator/findLocations", "@spider": "usps_collection_boxes", "addr:city": "WHITE HAVEN", "addr:country": "US", "addr:postcode": "18661", "addr:state": "PA", "addr:street_address": "20 HICKORY HILLS DR", "amenity": "post_box", "collection_times": "Mo-Sa 11:00", "nsi_id": "unitedstatespostalservice-a77078", "operator": "United States Postal Service", "operator:short": "USPS", "operator:type": "public", "operator:wikidata": "Q668687", "ref": "1866100011"}, "type": "Feature"}
{"geometry": {"coordinates": [-75.773940355, 41.06059369], "type": "Point"}, "id": "-kyN--4lnGK-1bhVvSDNuGFCQk8=", "properties": {"@source_uri": "https://tools.usps.com/UspsToolsRestServices/rest/POLocator/findLocations", "@spider": "usps_collection_boxes", "addr:city": "WHITE HAVEN", "addr:country": "US", "addr:postcode": "18661", "addr:state": "PA", "addr:street_address": "425 TOWANDA ST", "amenity": "post_box", "collection_times": "Mo-Fr 17:00; Sa 11:00", "indoor": "yes", "note": "ON 12/24 AND 12/31, THIS BOX MAY BE COLLECTED AS EARLY AS 12 NOON.", "nsi_id": "unitedstatespostalservice-a77078", "operator": "United States Postal Service", "operator:short": "USPS", "operator:type": "public", "operator:wikidata": "Q668687", "ref": "1866100013"}, "type": "Feature"}
