{"geometry": {"coordinates": [-75.8856165, 41.242192], "type": "Point"}, "id": "XFkwbKuds5_8wcQ2S9VvLjm2T54=", "properties": {"@source_uri": "https://tools.usps.com/UspsToolsRestServices/rest/POLocator/findLocations", "@spider": "usps_collection_boxes", "addr:city": "WILKES BARRE", "addr:country": "US", "addr:postcode": "18701", "addr:state": "PA", "addr:street_address": "163 S WASHINGTON ST", "amenity": "post_box", "collection_times": "Mo-Sa 09:30", "nsi_id": "unitedstatespostalservice-a77078", "operator": "United States Postal Service", "operator:short": "USPS", "operator:type": "public", "operator:wikidata": "Q668687", "ref": "1870100004"}, "type": "Feature"}
{"geometry": {"coordinates": [-75.8826327, 41.24669], "type": "Point"}, "id": "8lZ0014wCqUgWkmB-RTSjFe1q7k=", "properties": {"@source_uri": "https://tools.usps.com/UspsToolsRestServices/rest/POLocator/findLocations", "@spider": "usps_collection_boxes", "addr:city": "WILKES BARRE", "addr:country": "US", "addr:postcode": "18701", "addr:state": "PA", "addr:street_address": "2 PUBLIC SQ", "amenity": "post_box", "collection_times": "Mo-Fr 16:30", "name": "USPS COLLECTION BOX - EXPRESS", "note": "ON 12/24 AND 12/31, THIS BOX MAY BE COLLECTED AS EARLY AS 12 NOON.", "nsi_id": "unitedstatespostalservice-a77078", "operator": "United States Postal Service", "operator:short": "USPS", "operator:type": "public", "operator:wikidata": "Q668687", "ref": "1870100005"}, "type": "Feature"}
{"geometry": {"coordinates": [-75.8826589, 41.24666], "type": "Point"}, "id": "nI7kaK0mls6JgyQxjD3I2TDHw3c=", "properties": {"@source_uri": "https://tools.usps.com/UspsToolsRestServices/rest/POLocator/findLocations", "@spider": "usps_collection_boxes", "addr:city": "WILKES BARRE", "addr:country": "US", "addr:postcode": "18701", "addr:state": "PA", "addr:street_address": "2 PUBLIC SQ", "amenity": "post_box", "collection_times": "Mo-Fr 16:30", "note": "ON 12/24 AND 12/31, THIS BOX MAY BE COLLECTED AS EARLY AS 12 NOON.", "nsi_id": "unitedstatespostalservice-a77078", "operator": "United States Postal Service", "operator:short": "USPS", "operator:type": "public", "operator:wikidata": "Q668687", "ref": "1870100006"}, "type": "Feature"}
{"geometry": {"coordinates": [-75.8838903, 41.242848], "type": "Point"}, "id": "1WadLKVO1lSrmU-DvH7bbTvwD_8=", "properties": {"@source_uri": "https://tools.usps.com/UspsToolsRestServices/rest/POLocator/findLocations", "@spider": "usps_collection_boxes", "addr:city": "WILKES BARRE", "addr:country": "US", "addr:postcode": "18701", "addr:state": "PA", "addr:street_address": "63 E NORTHAMPTON ST", "amenity": "post_box", "collection_times": "Mo-Sa 14:00", "note": "ON 12/24 AND 12/31, THIS BOX MAY BE COLLECTED AS EARLY AS 12 NOON.", "nsi_id": "unitedstatespostalservice-a77078", "operator": "United States Postal Service", "operator:short": "USPS", "operator:type": "public", "operator:wikidata": "Q668687", "ref": "1870100007"}, "type": "Feature"}
{"geometry": {"coordinates": [-75.8813344, 41.246192], "type": "Point"}, "id": "NUaSb3B63IQn5bJvNWBDFQkGPKU=", "properties": {"@source_uri": "https://tools.usps.com/UspsToolsRestServices/rest/POLocator/findLocations", "@spider": "usps_collection_boxes", "addr:city": "WILKES BARRE", "addr:country": "US", "addr:postcode": "18701", "addr:state": "PA", "addr:street_address": "1 N MAIN ST", "amenity": "post_box", "collection_times": "Mo-Fr 16:30; Sa 12:00", "note": "ON 12/24 AND 12/31, THIS BOX MAY BE COLLECTED AS EARLY AS 12 NOON.", "nsi_id": "unitedstatespostalservice-a77078", "operator": "United States Postal Service", "operator:short": "USPS", "operator:type": "public", "operator:wikidata": "Q668687", "ref": "1870100010"}, "type": "Feature"}
{"geometry": {"coordinates": [-75.8913818, 41.240689], "type": "Point"}, "id": "V6BB4rIYIXjqbVdApeRXAEX36Pg=", "properties": {"@source_uri": "https://tools.usps.com/UspsToolsRestServices/rest/POLocator/findLocations", "@spider": "usps_collection_boxes", "addr:city": "WILKES BARRE", "addr:country": "US", "addr:postcode": "18701", "addr:state": "PA", "addr:street_address": "300 S MAIN ST", "amenity": "post_box", "collection_times": "Mo-Fr 18:30; Sa 17:30", "note": "ON 12/24 AND 12/31, THIS BOX MAY BE COLLECTED AS EARLY AS 12 NOON.", "nsi_id": "unitedstatespostalservice-a77078", "operator": "United States Postal Service", "operator:short": "USPS", "operator:type": "public", "operator:wikidata": "Q668687", "ref": "1870100013"}, "type": "Feature"}
{"geometry": {"coordinates": [-75.8989064, 41.236291], "type": "Point"}, "id": "ksCyCvpTJ2e6b4k9RHdnsVZZdTY=", "properties": {"@source_uri": "https://tools.usps.com/UspsToolsRestServices/rest/POLocator/findLocations", "@spider": "usps_collection_boxes", "addr:city": "WILKES BARRE", "addr:country": "US", "addr:postcode": "18701", "addr:state": "PA", "addr:street_address": "566 S MAIN ST", "amenity": "post_box", "collection_times": "Mo-Sa 10:00", "nsi_id": "unitedstatespostalservice-a77078", "operator": "United States Postal Service", "operator:short": "USPS", "operator:type": "public", "operator:wikidata": "Q668687", "ref": "1870100019"}, "type": "Feature"}
{"geometry": {"coordinates": [-75.8833805, 41.244979], "type": "Point"}, "id": "jyYCpMhureKCZzPmI_a2uR95ITY=", "properties": {"@source_uri": "https://tools.usps.com/UspsToolsRestServices/rest/POLocator/findLocations", "@spider": "usps_collection_boxes", "addr:city": "WILKES BARRE", "addr:country": "US", "addr:postcode": "18701", "addr:state": "PA", "addr:street_address": "15 S MAIN ST", "amenity": "post_box", "collection_times": "Mo-Fr 13:00", "note": "ON 12/24 AND 12/31, THIS BOX MAY BE COLLECTED AS EARLY AS 12 NOON.", "nsi_id": "unitedstatespostalservice-a77078", "operator": "United States Postal Service", "operator:short": "USPS", "operator:type": "public", "operator:wikidata": "Q668687", "ref": "1870100021"}, "type": "Feature"}
{"geometry": {"coordinates": [-75.8881782, 41.242441], "type": "Point"}, "id": "9ecYWAqKj75Zjt6hnMJMwSzg7Dc=", "properties": {"@source_uri": "https://tools.usps.com/UspsToolsRestServices/rest/POLocator/findLocations", "@spider": "usps_collection_boxes", "addr:city": "WILKES BARRE", "addr:country": "US", "addr:postcode": "18701", "addr:state": "PA", "addr:street_address": "197 S MAIN ST", "amenity": "post_box", "collection_times": "Mo-Fr 10:00", "nsi_id": "unitedstatespostalservice-a77078", "operator": "United States Postal Service", "operator:short": "USPS", "operator:type": "public", "operator:wikidata": "Q668687", "ref": "1870100023"}, "type": "Feature"}
{"geometry": {"coordinates": [-75.8812929, 41.245509], "type": "Point"}, "id": "IEwKCo89DuGavsm0jm7bl_ROh7E=", "properties": {"@source_uri": "https://tools.usps.com/UspsToolsRestServices/rest/POLocator/findLocations", "@spider": "usps_collection_boxes", "addr:city": "WILKES BARRE", "addr:country": "US", "addr:postcode": "18701", "addr:state": "PA", "addr:street_address": "60 PUBLIC SQ", "amenity": "post_box", "collection_times": "Mo-Fr 16:30", "note": "ON 12/24 AND 12/31, THIS BOX MAY BE COLLECTED AS EARLY AS 12 NOON.", "nsi_id": "unitedstatespostalservice-a77078", "operator": "United States Postal Service", "operator:short": "USPS", "operator:type": "public", "operator:wikidata": "Q668687", "ref": "1870100024"}, "type": "Feature"}
{"geometry": {"coordinates": [-75.8809039, 41.248205], "type": "Point"}, "id": "OOf_ChaAtn25bcqEFB-3GvVmUzc=", "properties": {"@source_uri": "https://tools.usps.com/UspsToolsRestServices/rest/POLocator/findLocations", "@spider": "usps_collection_boxes", "addr:city": "WILKES BARRE", "addr:country": "US", "addr:postcode": "18701", "addr:state": "PA", "addr:street_address": "64 N FRANKLIN ST", "amenity": "post_box", "collection_times": "Mo-Sa 11:45", "nsi_id": "unitedstatespostalservice-a77078", "operator": "United States Postal Service", "operator:short": "USPS", "operator:type": "public", "operator:wikidata": "Q668687", "ref": "1870100029"}, "type": "Feature"}
{"geometry": {"coordinates": [-75.8835066, 41.246887], "type": "Point"}, "id": "c3K3NsjJo3QhRrr6KLaYeDNsYKA=", "properties": {"@source_uri": "https://tools.usps.com/UspsToolsRestServices/rest/POLocator/findLocations", "@spider": "usps_collection_boxes", "addr:city": "WILKES BARRE", "addr:country": "US", "addr:postcode": "18701", "addr:state": "PA", "addr:street_address": "15 S FRANKLIN ST", "amenity": "post_box", "collection_times": "Mo-Fr 10:00", "nsi_id": "unitedstatespostalservice-a77078", "operator": "United States Postal Service", "operator:short": "USPS", "operator:type": "public", "operator:wikidata": "Q668687", "ref": "1870100033"}, "type": "Feature"}
{"geometry": {"coordinates": [-75.8854668, 41.244778], "type": "Point"}, "id": "mRE9lYwllM8CYsWCrCvYPPocJtM=", "properties": {"@source_uri": "https://tools.usps.com/UspsToolsRestServices/rest/POLocator/findLocations", "@spider": "usps_collection_boxes", "addr:city": "WILKES BARRE", "addr:country": "US", "addr:postcode": "18701", "addr:state": "PA", "addr:street_address": "40 W NORTHAMPTON ST", "amenity": "post_box", "collection_times": "Mo-Sa 12:30", "note": "ON 12/24 AND 12/31, THIS BOX MAY BE COLLECTED AS EARLY AS 12 NOON.", "nsi_id": "unitedstatespostalservice-a77078", "operator": "United States Postal Service", "operator:short": "USPS", "operator:type": "public", "operator:wikidata": "Q668687", "ref": "1870100035"}, "type": "Feature"}
{"geometry": {"coordinates": [-75.8784557, 41.247166], "type": "Point"}, "id": "t-Kfr_T6-43LC2v3kfPKy8TubhA=", "properties": {"@source_uri": "https://tools.usps.com/UspsToolsRestServices/rest/POLocator/findLocations", "@spider": "usps_collection_boxes", "addr:city": "WILKES BARRE", "addr:country": "US", "addr:postcode": "18701", "addr:state": "PA", "addr:street_address": "22 E UNION ST", "amenity": "post_box", "collection_times": "Mo-Sa 13:00", "note": "ON 12/24 AND 12/31, THIS BOX MAY BE COLLECTED AS EARLY AS 12 NOON.", "nsi_id": "unitedstatespostalservice-a77078", "operator": "United States Postal Service", "operator:short": "USPS", "operator:type": "public", "operator:wikidata": "Q668687", "ref": "1870100043"}, "type": "Feature"}
{"geometry": {"coordinates": [-75.8803725, 41.245191], "type": "Point"}, "id": "XDzOVOUA9ArLv5NZDj9rrnMIH_8=", "properties": {"@source_uri": "https://tools.usps.com/UspsToolsRestServices/rest/POLocator/findLocations", "@spider": "usps_collection_boxes", "addr:city": "WILKES BARRE", "addr:country": "US", "addr:postcode": "18701", "addr:state": "PA", "addr:street_address": "40 E MARKET ST", "amenity": "post_box", "collection_times": "Mo-Fr 16:30", "note": "ON 12/24 AND 12/31, THIS BOX MAY BE COLLECTED AS EARLY AS 12 NOON.", "nsi_id": "unitedstatespostalservice-a77078", "operator": "United States Postal Service", "operator:short": "USPS", "operator:type": "public", "operator:wikidata": "Q668687", "ref": "1870100045"}, "type": "Feature"}
{"geometry": {"coordinates": [-75.8765084, 41.245406], "type": "Point"}, "id": "E2ce17BpgcmGpSNmXAifJlsCbJc=", "properties": {"@source_uri": "https://tools.usps.com/UspsToolsRestServices/rest/POLocator/findLocations", "@spider": "usps_collection_boxes", "addr:city": "WILKES BARRE", "addr:country": "US", "addr:postcode": "18701", "addr:state": "PA", "addr:street_address": "85 E UNION ST", "amenity": "post_box", "collection_times": "Mo-Fr 13:00", "note": "ON 12/24 AND 12/31, THIS BOX MAY BE COLLECTED AS EARLY AS 12 NOON.", "nsi_id": "unitedstatespostalservice-a77078", "operator": "United States Postal Service", "operator:short": "USPS", "operator:type": "public", "operator:wikidata": "Q668687", "ref": "1870100053"}, "type": "Feature"}
{"geometry": {"coordinates": [-75.8815233, 41.245553], "type": "Point"}, "id": "Jyp0on6OpXj0S79B40cQgrKjhK0=", "properties": {"@source_uri": "https://tools.usps.com/UspsToolsRestServices/rest/POLocator/findLocations", "@spider": "usps_collection_boxes", "addr:city": "WILKES BARRE", "addr:country": "US", "addr:postcode": "18701", "addr:state": "PA", "addr:street_address": "67 PUBLIC SQ", "amenity": "post_box", "collection_times": "Mo-Sa 11:30", "nsi_id": "unitedstatespostalservice-a77078", "operator": "United States Postal Service", "operator:short": "USPS", "operator:type": "public", "operator:wikidata": "Q668687", "ref": "1870100055"}, "type": "Feature"}
{"geometry": {"coordinates": [-75.8824638, 41.24653], "type": "Point"}, "id": "XQBNPvdDTEGIil6nPwC9lZPMgbw=", "properties": {"@source_uri": "https://tools.usps.com/UspsToolsRestServices/rest/POLocator/findLocations", "@spider": "usps_collection_boxes", "addr:city": "WILKES BARRE", "addr:country": "US", "addr:postcode": "18701", "addr:state": "PA", "addr:street_address": "1 PUBLIC SQ", "amenity": "post_box", "collection_times": "Mo-Fr 16:30; Sa 12:30", "note": "ON 12/24 AND 12/31, THIS BOX MAY BE COLLECTED AS EARLY AS 12 NOON.", "nsi_id": "unitedstatespostalservice-a77078", "operator": "United States Postal Service", "operator:short": "USPS", "operator:type": "public", "operator:wikidata": "Q668687", "ref": "1870100057"}, "type": "Feature"}
{"geometry": {"coordinates": [-75.8904986, 41.240406], "type": "Point"}, "id": "F9-E0yiT9yQbDalY0GWmbs-xwMY=", "properties": {"@source_uri": "https://tools.usps.com/UspsToolsRestServices/rest/POLocator/findLocations", "@spider": "usps_collection_boxes", "addr:city": "WILKES BARRE", "addr:country": "US", "addr:postcode": "18701", "addr:state": "PA", "addr:street_address": "300 S MAIN ST", "amenity": "post_box", "collection_times": "Mo-Fr 18:30; Sa 17:30", "note": "ON 12/24 AND 12/31, THIS BOX MAY BE COLLECTED AS EARLY AS 12 NOON.", "nsi_id": "unitedstatespostalservice-a77078", "operator": "United States Postal Service", "operator:short": "USPS", "operator:type": "public", "operator:wikidata": "Q668687", "ref": "1870100059"}, "type": "Feature"}
{"geometry": {"coordinates": [-75.8913099, 41.240544], "type": "Point"}, "id": "pevijGsVyfTnHtjFLkY_dhxGJVA=", "properties": {"@source_uri": "https://tools.usps.com/UspsToolsRestServices/rest/POLocator/findLocations", "@spider": "usps_collection_boxes", "addr:city": "WILKES BARRE", "addr:country": "US", "addr:postcode": "18701", "addr:state": "PA", "addr:street_address": "300 S MAIN ST", "amenity": "post_box", "collection_times": "Mo-Fr 18:30; Sa 17:30", "name": "USPS COLLECTION BOX - EXPRESS", "note": "ON 12/24 AND 12/31, THIS BOX MAY BE COLLECTED AS EARLY AS 12 NOON.", "nsi_id": "unitedstatespostalservice-a77078", "operator": "United States Postal Service", "operator:short": "USPS", "operator:type": "public", "operator:wikidata": "Q668687", "ref": "1870100061"}, "type": "Feature"}
{"geometry": {"coordinates": [-75.8809104, 41.248188], "type": "Point"}, "id": "dcnr2ihd1JHaTqOqVp9ne32kg2c=", "properties": {"@source_uri": "https://tools.usps.com/UspsToolsRestServices/rest/POLocator/findLocations", "@spider": "usps_collection_boxes", "addr:city": "WILKES BARRE", "addr:country": "US", "addr:postcode": "18701", "addr:state": "PA", "addr:street_address": "64 N FRANKLIN ST", "amenity": "post_box", "collection_times": "Mo-Sa 11:45", "name": "USPS COLLECTION BOX - EXPRESS", "nsi_id": "unitedstatespostalservice-a77078", "operator": "United States Postal Service", "operator:short": "USPS", "operator:type": "public", "operator:wikidata": "Q668687", "ref": "1870100062"}, "type": "Feature"}
{"geometry": {"coordinates": [-75.8826313, 41.246673], "type": "Point"}, "id": "mt1grCY2YxhFmD4GYCGKkfrq7eM=", "properties": {"@source_uri": "https://tools.usps.com/UspsToolsRestServices/rest/POLocator/findLocations", "@spider": "usps_collection_boxes", "addr:city": "WILKES BARRE", "addr:country": "US", "addr:postcode": "18701", "addr:state": "PA", "addr:street_address": "2 PUBLIC SQ", "amenity": "post_box", "collection_times": "Mo-Fr 16:30", "note": "ON 12/24 AND 12/31, THIS BOX MAY BE COLLECTED AS EARLY AS 12 NOON.", "nsi_id": "unitedstatespostalservice-a77078", "operator": "United States Postal Service", "operator:short": "USPS", "operator:type": "public", "operator:wikidata": "Q668687", "ref": "1870100066"}, "type": "Feature"}
{"geometry": {"coordinates": [-75.8813003, 41.246177], "type": "Point"}, "id": "QahygNXlZgBQZMYFLoA_t8vIyXQ=", "properties": {"@source_uri": "https://tools.usps.com/UspsToolsRestServices/rest/POLocator/findLocations", "@spider": "usps_collection_boxes", "addr:city": "WILKES BARRE", "addr:country": "US", "addr:postcode": "18701", "addr:state": "PA", "addr:street_address": "1 N MAIN ST", "amenity": "post_box", "collection_times": "Mo-Fr 16:30; Sa 12:00", "note": "ON 12/24 AND 12/31, THIS BOX MAY BE COLLECTED AS EARLY AS 12 NOON.", "nsi_id": "unitedstatespostalservice-a77078", "operator": "United States Postal Service", "operator:short": "USPS", "operator:type": "public", "operator:wikidata": "Q668687", "ref": "1870100067"}, "type": "Feature"}
{"geometry": {"coordinates": [-75.8797994, 41.243959], "type": "Point"}, "id": "s0h_IsEWFjdHimSAVOjd7gtLk7s=", "properties": {"@source_uri": "https://tools.usps.com/UspsToolsRestServices/rest/POLocator/findLocations", "@spider": "usps_collection_boxes", "addr:city": "WILKES BARRE", "addr:country": "US", "addr:postcode": "18701", "addr:state": "PA", "addr:street_address": "20 N PENNSYLVANIA AVE", "amenity": "post_box", "collection_times": "Mo-Fr 10:30", "nsi_id": "unitedstatespostalservice-a77078", "operator": "United States Postal Service", "operator:short": "USPS", "operator:type": "public", "operator:wikidata": "Q668687", "ref": "1870100070"}, "type": "Feature"}
{"geometry": {"coordinates": [-75.8862716, 41.24166], "type": "Point"}, "id": "kOQql6m5zDbR8GAWxOhuW-fxY3A=", "properties": {"@source_uri": "https://tools.usps.com/UspsToolsRestServices/rest/POLocator/findLocations", "@spider": "usps_collection_boxes", "addr:city": "WILKES BARRE", "addr:country": "US", "addr:postcode": "18701", "addr:state": "PA", "addr:street_address": "205 S WASHINGTON ST", "amenity": "post_box", "collection_times": "Mo-Sa 14:15", "note": "ON 12/24 AND 12/31, THIS BOX MAY BE COLLECTED AS EARLY AS 12 NOON.", "nsi_id": "unitedstatespostalservice-a77078", "operator": "United States Postal Service", "operator:short": "USPS", "operator:type": "public", "operator:wikidata": "Q668687", "ref": "1870100071"}, "type": "Feature"}
{"geometry": {"coordinates": [-75.8911674, 41.24046], "type": "Point"}, "id": "RjZp0srg97iMJgSJNjdmdORHhfA=", "properties": {"@source_uri": "https://tools.usps.com/UspsToolsRestServices/rest/POLocator/findLocations", "@spider": "usps_collection_boxes", "addr:city": "WILKES BARRE", "addr:country": "US", "addr:postcode": "18701", "addr:state": "PA", "addr:street_address": "300 S MAIN ST", "amenity": "post_box", "collection_times": "Mo-Fr 18:30; Sa 17:30", "indoor": "yes", "note": "ON 12/24 AND 12/31, THIS BOX MAY BE COLLECTED AS EARLY AS 12 NOON.", "nsi_id": "unitedstatespostalservice-a77078", "operator": "United States Postal Service", "operator:short": "USPS", "operator:type": "public", "operator:wikidata": "Q668687", "ref": "1870100073"}, "type": "Feature"}
{"geometry": {"coordinates": [-75.8911266, 41.240691], "type": "Point"}, "id": "JTgyj5iLCiQgMNS1RA71KbLFJjI=", "properties": {"@source_uri": "https://tools.usps.com/UspsToolsRestServices/rest/POLocator/findLocations", "@spider": "usps_collection_boxes", "addr:city": "WILKES BARRE", "addr:country": "US", "addr:postcode": "18701", "addr:state": "PA", "addr:street_address": "300 S MAIN ST", "amenity": "post_box", "collection_times": "Mo-Fr 18:30; Sa 17:30", "name": "USPS COLLECTION BOX - APC", "note": "ON 12/24 AND 12/31, THIS BOX MAY BE COLLECTED AS EARLY AS 12 NOON.", "nsi_id": "unitedstatespostalservice-a77078", "operator": "United States Postal Service", "operator:short": "USPS", "operator:type": "public", "operator:wikidata": "Q668687", "ref": "1870100074"}, "type": "Feature"}
{"geometry": {"coordinates": [-75.891427096, 41.240480542], "type": "Point"}, "id": "CfREePRCUe6av3oi-HDMxCf2-9A=", "properties": {"@source_uri": "https://tools.usps.com/UspsToolsRestServices/rest/POLocator/findLocations", "@spider": "usps_collection_boxes", "addr:city": "WILKES BARRE", "addr:country": "US", "addr:postcode": "18701", "addr:state": "PA", "addr:street_address": "300 S MAIN ST", "amenity": "post_box", "collection_times": "Mo-Fr 18:45; Sa 15:45", "indoor": "yes", "note": "ON 12/24 AND 12/31, THIS BOX MAY BE COLLECTED AS EARLY AS 12 NOON.", "nsi_id": "unitedstatespostalservice-a77078", "operator": "United States Postal Service", "operator:short": "USPS", "operator:type": "public", "operator:wikidata": "Q668687", "ref": "1870100079"}, "type": "Feature"}
{"geometry": {"coordinates": [-75.9184144, 41.234678], "type": "Point"}, "id": "jqDwpBNDDcgeSjul4nLqiv71lP8=", "properties": {"@source_uri": "https://tools.usps.com/UspsToolsRestServices/rest/POLocator/findLocations", "@spider": "usps_collection_boxes", "addr:city": "BEAR CREEK TW", "addr:country": "US", "addr:postcode": "18702", "addr:state": "PA", "addr:street_address": "665 CAREY AVE", "amenity": "post_box", "collection_times": "Mo-Sa 11:30", "nsi_id": "unitedstatespostalservice-a77078", "operator": "United States Postal Service", "operator:short": "USPS", "operator:type": "public", "operator:wikidata": "Q668687", "ref": "1870200004"}, "type": "Feature"}
{"geometry": {"coordinates": [-75.902637, 41.245596], "type": "Point"}, "id": "12DxSmVPNLTwuFLSt4lEmxmFWb8=", "properties": {"@source_uri": "https://tools.usps.com/UspsToolsRestServices/rest/POLocator/findLocations", "@spider": "usps_collection_boxes", "addr:city": "BEAR CREEK TW", "addr:country": "US", "addr:postcode": "18702", "addr:state": "PA", "addr:street_address": "39 OLD RIVER RD", "amenity": "post_box", "collection_times": "Mo-Sa 11:00", "nsi_id": "unitedstatespostalservice-a77078", "operator": "United States Postal Service", "operator:short": "USPS", "operator:type": "public", "operator:wikidata": "Q668687", "ref": "1870200011"}, "type": "Feature"}
{"geometry": {"coordinates": [-75.9081417, 41.236845], "type": "Point"}, "id": "pz3vnF3xUQbw5mKXD1NIzV1Nekc=", "properties": {"@source_uri": "https://tools.usps.com/UspsToolsRestServices/rest/POLocator/findLocations", "@spider": "usps_collection_boxes", "addr:city": "BEAR CREEK TW", "addr:country": "US", "addr:postcode": "18702", "addr:state": "PA", "addr:street_address": "25 CHURCH ST", "amenity": "post_box", "collection_times": "Mo-Sa 12:30", "note": "ON 12/24 AND 12/31, THIS BOX MAY BE COLLECTED AS EARLY AS 12 NOON.", "nsi_id": "unitedstatespostalservice-a77078", "operator": "United States Postal Service", "operator:short": "USPS", "operator:type": "public", "operator:wikidata": "Q668687", "ref": "1870200023"}, "type": "Feature"}
{"geometry": {"coordinates": [-75.9009673, 41.239455], "type": "Point"}, "id": "WMqFW8NPIXAIMpP8znxjRzvb3_I=", "properties": {"@source_uri": "https://tools.usps.com/UspsToolsRestServices/rest/POLocator/findLocations", "@spider": "usps_collection_boxes", "addr:city": "BEAR CREEK TW", "addr:country": "US", "addr:postcode": "18702", "addr:state": "PA", "addr:street_address": "60 MONROE ST", "amenity": "post_box", "collection_times": "Mo-Sa 12:30", "note": "ON 12/24 AND 12/31, THIS BOX MAY BE COLLECTED AS EARLY AS 12 NOON.", "nsi_id": "unitedstatespostalservice-a77078", "operator": "United States Postal Service", "operator:short": "USPS", "operator:type": "public", "operator:wikidata": "Q668687", "ref": "1870200030"}, "type": "Feature"}
{"geometry": {"coordinates": [-75.9038576, 41.233541], "type": "Point"}, "id": "WZqiIYzrk-K8ZQTMGyFHjfdEyNY=", "properties": {"@source_uri": "https://tools.usps.com/UspsToolsRestServices/rest/POLocator/findLocations", "@spider": "usps_collection_boxes", "addr:city": "BEAR CREEK TW", "addr:country": "US", "addr:postcode": "18702", "addr:state": "PA", "addr:street_address": "730 S MAIN ST", "amenity": "post_box", "collection_times": "Mo-Sa 12:15", "note": "ON 12/24 AND 12/31, THIS BOX MAY BE COLLECTED AS EARLY AS 12 NOON.", "nsi_id": "unitedstatespostalservice-a77078", "operator": "United States Postal Service", "operator:short": "USPS", "operator:type": "public", "operator:wikidata": "Q668687", "ref": "1870200036"}, "type": "Feature"}
{"geometry": {"coordinates": [-75.8679413, 41.238661], "type": "Point"}, "id": "DivIrsQLGyXEMKLBzg-znCDrdvg=", "properties": {"@source_uri": "https://tools.usps.com/UspsToolsRestServices/rest/POLocator/findLocations", "@spider": "usps_collection_boxes", "addr:city": "BEAR CREEK TW", "addr:country": "US", "addr:postcode": "18702", "addr:state": "PA", "addr:street_address": "127 CUSTER ST", "amenity": "post_box", "collection_times": "Mo-Sa 09:30", "nsi_id": "unitedstatespostalservice-a77078", "operator": "United States Postal Service", "operator:short": "USPS", "operator:type": "public", "operator:wikidata": "Q668687", "ref": "1870200046"}, "type": "Feature"}
{"geometry": {"coordinates": [-75.8856327127, 41.2353426559], "type": "Point"}, "id": "PqqyvtUQUOpL6O2eEpYdlXWqaNM=", "properties": {"@source_uri": "https://tools.usps.com/UspsToolsRestServices/rest/POLocator/findLocations", "@spider": "usps_collection_boxes", "addr:city": "BEAR CREEK TW", "addr:country": "US", "addr:postcode": "18702", "addr:state": "PA", "addr:street_address": "211 PARK AVE", "amenity": "post_box", "collection_times": "Mo-Sa 11:15", "nsi_id": "unitedstatespostalservice-a77078", "operator": "United States Postal Service", "operator:short": "USPS", "operator:type": "public", "operator:wikidata": "Q668687", "ref": "1870200051"}, "type": "Feature"}
{"geometry": {"coordinates": [-75.8717699, 41.225445], "type": "Point"}, "id": "lg04Y_hMobezFiS7e4LbvNPl_RY=", "properties": {"@source_uri": "https://tools.usps.com/UspsToolsRestServices/rest/POLocator/findLocations", "@spider": "usps_collection_boxes", "addr:city": "BEAR CREEK TW", "addr:country": "US", "addr:postcode": "18702", "addr:state": "PA", "addr:street_address": "723 METCALF ST", "amenity": "post_box", "collection_times": "Mo-Sa 10:00", "nsi_id": "unitedstatespostalservice-a77078", "operator": "United States Postal Service", "operator:short": "USPS", "operator:type": "public", "operator:wikidata": "Q668687", "ref": "1870200052"}, "type": "Feature"}
{"geometry": {"coordinates": [-75.8689088, 41.227338], "type": "Point"}, "id": "WkvHDfhZf5yaF-gr6xmqv34tzZY=", "properties": {"@source_uri": "https://tools.usps.com/UspsToolsRestServices/rest/POLocator/findLocations", "@spider": "usps_collection_boxes", "addr:city": "BEAR CREEK TW", "addr:country": "US", "addr:postcode": "18702", "addr:state": "PA", "addr:street_address": "729 E NORTHAMPTON ST", "amenity": "post_box", "collection_times": "Mo-Sa 09:30", "nsi_id": "unitedstatespostalservice-a77078", "operator": "United States Postal Service", "operator:short": "USPS", "operator:type": "public", "operator:wikidata": "Q668687", "ref": "1870200053"}, "type": "Feature"}
{"geometry": {"coordinates": [-75.8806959, 41.22479], "type": "Point"}, "id": "n0Tb4awmvGIqneBGJjqnym0kwc0=", "properties": {"@source_uri": "https://tools.usps.com/UspsToolsRestServices/rest/POLocator/findLocations", "@spider": "usps_collection_boxes", "addr:city": "BEAR CREEK TW", "addr:country": "US", "addr:postcode": "18702", "addr:state": "PA", "addr:street_address": "910 WLKES BAR TWP BLVD", "amenity": "post_box", "collection_times": "Mo-Sa 11:00", "nsi_id": "unitedstatespostalservice-a77078", "operator": "United States Postal Service", "operator:short": "USPS", "operator:type": "public", "operator:wikidata": "Q668687", "ref": "1870200056"}, "type": "Feature"}
{"geometry": {"coordinates": [-75.8561794, 41.249833], "type": "Point"}, "id": "Nodw3zIKlFfaBk9ryMdNer3MxtY=", "properties": {"@source_uri": "https://tools.usps.com/UspsToolsRestServices/rest/POLocator/findLocations", "@spider": "usps_collection_boxes", "addr:city": "BEAR CREEK TW", "addr:country": "US", "addr:postcode": "18702", "addr:state": "PA", "addr:street_address": "341 KIDDER ST", "amenity": "post_box", "collection_times": "Mo-Sa 13:30", "note": "ON 12/24 AND 12/31, THIS BOX MAY BE COLLECTED AS EARLY AS 12 NOON.", "nsi_id": "unitedstatespostalservice-a77078", "operator": "United States Postal Service", "operator:short": "USPS", "operator:type": "public", "operator:wikidata": "Q668687", "ref": "1870200059"}, "type": "Feature"}
{"geometry": {"coordinates": [-75.8742637, 41.238238], "type": "Point"}, "id": "rzwnJi4b7ywVrUpVKy1Iie7V-8I=", "properties": {"@source_uri": "https://tools.usps.com/UspsToolsRestServices/rest/POLocator/findLocations", "@spider": "usps_collection_boxes", "addr:city": "BEAR CREEK TW", "addr:country": "US", "addr:postcode": "18702", "addr:state": "PA", "addr:street_address": "5 N SHERMAN ST", "amenity": "post_box", "collection_times": "Mo-Sa 10:00", "nsi_id": "unitedstatespostalservice-a77078", "operator": "United States Postal Service", "operator:short": "USPS", "operator:type": "public", "operator:wikidata": "Q668687", "ref": "1870200063"}, "type": "Feature"}
{"geometry": {"coordinates": [-75.897667, 41.234658], "type": "Point"}, "id": "Ej5tZRA3Fir1xSG3c_gZK8gIY4Q=", "properties": {"@source_uri": "https://tools.usps.com/UspsToolsRestServices/rest/POLocator/findLocations", "@spider": "usps_collection_boxes", "addr:city": "BEAR CREEK TW", "addr:country": "US", "addr:postcode": "18702", "addr:state": "PA", "addr:street_address": "215 HIGH BLVD", "amenity": "post_box", "collection_times": "Mo-Sa 09:00", "nsi_id": "unitedstatespostalservice-a77078", "operator": "United States Postal Service", "operator:short": "USPS", "operator:type": "public", "operator:wikidata": "Q668687", "ref": "1870200070"}, "type": "Feature"}
{"geometry": {"coordinates": [-75.8674322, 41.258086], "type": "Point"}, "id": "-xD3KDj9xDFfMJ6AnjwcQC3mQCQ=", "properties": {"@source_uri": "https://tools.usps.com/UspsToolsRestServices/rest/POLocator/findLocations", "@spider": "usps_collection_boxes", "addr:city": "BEAR CREEK TW", "addr:country": "US", "addr:postcode": "18702", "addr:state": "PA", "addr:street_address": "575 N RIVER ST", "amenity": "post_box", "collection_times": "Mo-Sa 09:00", "nsi_id": "unitedstatespostalservice-a77078", "operator": "United States Postal Service", "operator:short": "USPS", "operator:type": "public", "operator:wikidata": "Q668687", "ref": "1870200074"}, "type": "Feature"}
{"geometry": {"coordinates": [-75.8362784, 41.246456], "type": "Point"}, "id": "lck8dBkQb1boq65oXo1jH53j51E=", "properties": {"@source_uri": "https://tools.usps.com/UspsToolsRestServices/rest/POLocator/findLocations", "@spider": "usps_collection_boxes", "addr:city": "BEAR CREEK TW", "addr:country": "US", "addr:postcode": "18702", "addr:state": "PA", "addr:street_address": "9 PRINCETON CT", "amenity": "post_box", "collection_times": "Mo-Fr 10:00", "nsi_id": "unitedstatespostalservice-a77078", "operator": "United States Postal Service", "operator:short": "USPS", "operator:type": "public", "operator:wikidata": "Q668687", "ref": "1870200080"}, "type": "Feature"}
{"geometry": {"coordinates": [-75.8459764, 41.245432], "type": "Point"}, "id": "RlE97BiTJt35R7TyWxdnT_18Tpc=", "properties": {"@source_uri": "https://tools.usps.com/UspsToolsRestServices/rest/POLocator/findLocations", "@spider": "usps_collection_boxes", "addr:city": "BEAR CREEK TW", "addr:country": "US", "addr:postcode": "18702", "addr:state": "PA", "addr:street_address": "34 WYOMING VALLEY MALL", "amenity": "post_box", "collection_times": "Mo-Sa 10:00", "nsi_id": "unitedstatespostalservice-a77078", "operator": "United States Postal Service", "operator:short": "USPS", "operator:type": "public", "operator:wikidata": "Q668687", "ref": "1870200081"}, "type": "Feature"}
{"geometry": {"coordinates": [-75.8447299, 41.247844], "type": "Point"}, "id": "uUjCPmLI_PPZ1T8YqKTdIIgbIVU=", "properties": {"@source_uri": "https://tools.usps.com/UspsToolsRestServices/rest/POLocator/findLocations", "@spider": "usps_collection_boxes", "addr:city": "BEAR CREEK TW", "addr:country": "US", "addr:postcode": "18702", "addr:state": "PA", "addr:street_address": "1 WYOMING VALLEY MALL", "amenity": "post_box", "collection_times": "Mo-Sa 10:00", "nsi_id": "unitedstatespostalservice-a77078", "operator": "United States Postal Service", "operator:short": "USPS", "operator:type": "public", "operator:wikidata": "Q668687", "ref": "1870200082"}, "type": "Feature"}
{"geometry": {"coordinates": [-75.8525515, 41.247619], "type": "Point"}, "id": "QVorNrG9l98bOJ5Jhy1Ce-sY-GA=", "properties": {"@source_uri": "https://tools.usps.com/UspsToolsRestServices/rest/POLocator/findLocations", "@spider": "usps_collection_boxes", "addr:city": "BEAR CREEK TW", "addr:country": "US", "addr:postcode": "18702", "addr:state": "PA", "addr:street_address": "230 E END CTR", "amenity": "post_box", "collection_times": "Mo-Sa 10:00", "nsi_id": "unitedstatespostalservice-a77078", "operator": "United States Postal Service", "operator:short": "USPS", "operator:type": "public", "operator:wikidata": "Q668687", "ref": "1870200085"}, "type": "Feature"}
{"geometry": {"coordinates": [-75.8264745, 41.253198], "type": "Point"}, "id": "3rdlQxZDczcMnQoCan69snjLGjQ=", "properties": {"@source_uri": "https://tools.usps.com/UspsToolsRestServices/rest/POLocator/findLocations", "@spider": "usps_collection_boxes", "addr:city": "BEAR CREEK TW", "addr:country": "US", "addr:postcode": "18702", "addr:state": "PA", "addr:street_address": "1065 HIGHWAY 315", "amenity": "post_box", "collection_times": "Mo-Fr 15:00", "note": "ON 12/24 AND 12/31, THIS BOX MAY BE COLLECTED AS EARLY AS 12 NOON.", "nsi_id": "unitedstatespostalservice-a77078", "operator": "United States Postal Service", "operator:short": "USPS", "operator:type": "public", "operator:wikidata": "Q668687", "ref": "1870200086"}, "type": "Feature"}
{"geometry": {"coordinates": [-75.8942087, 41.225646], "type": "Point"}, "id": "F_HWUtegcg4LKTbGrRAj90_xmqI=", "properties": {"@source_uri": "https://tools.usps.com/UspsToolsRestServices/rest/POLocator/findLocations", "@spider": "usps_collection_boxes", "addr:city": "BEAR CREEK TW", "addr:country": "US", "addr:postcode": "18702", "addr:state": "PA", "addr:street_address": "581 HAZLE ST", "amenity": "post_box", "collection_times": "Mo-Sa 11:15", "nsi_id": "unitedstatespostalservice-a77078", "operator": "United States Postal Service", "operator:short": "USPS", "operator:type": "public", "operator:wikidata": "Q668687", "ref": "1870200087"}, "type": "Feature"}
{"geometry": {"coordinates": [-75.8799319, 41.233267], "type": "Point"}, "id": "S6K6-yrbhcDtP6w1k4Uu6DjC32c=", "properties": {"@source_uri": "https://tools.usps.com/UspsToolsRestServices/rest/POLocator/findLocations", "@spider": "usps_collection_boxes", "addr:city": "BEAR CREEK TW", "addr:country": "US", "addr:postcode": "18702", "addr:state": "PA", "addr:street_address": "200 S MEADE ST", "amenity": "post_box", "collection_times": "Mo-Sa 09:30", "nsi_id": "unitedstatespostalservice-a77078", "operator": "United States Postal Service", "operator:short": "USPS", "operator:type": "public", "operator:wikidata": "Q668687", "ref": "1870200092"}, "type": "Feature"}
{"geometry": {"coordinates": [-75.8549316, 41.246026], "type": "Point"}, "id": "BZPXpb7sVECVO5r2oQmP4eACjRY=", "properties": {"@source_uri": "https://tools.usps.com/UspsToolsRestServices/rest/POLocator/findLocations", "@spider": "usps_collection_boxes", "addr:city": "BEAR CREEK TW", "addr:country": "US", "addr:postcode": "18702", "addr:state": "PA", "addr:street_address": "150 MUNDY ST", "amenity": "post_box", "collection_times": "Mo-Sa 09:30", "nsi_id": "unitedstatespostalservice-a77078", "operator": "United States Postal Service", "operator:short": "USPS", "operator:type": "public", "operator:wikidata": "Q668687", "ref": "1870200098"}, "type": "Feature"}
{"geometry": {"coordinates": [-75.8602599, 41.240767], "type": "Point"}, "id": "KP4gwW-UqjckBIiaOakBQwpTIhI=", "properties": {"@source_uri": "https://tools.usps.com/UspsToolsRestServices/rest/POLocator/findLocations", "@spider": "usps_collection_boxes", "addr:city": "BEAR CREEK TW", "addr:country": "US", "addr:postcode": "18702", "addr:state": "PA", "addr:street_address": "245 WILKES BARRE TOWNSHIP BLVD", "amenity": "post_box", "collection_times": "Mo-Sa 10:00", "nsi_id": "unitedstatespostalservice-a77078", "operator": "United States Postal Service", "operator:short": "USPS", "operator:type": "public", "operator:wikidata": "Q668687", "ref": "1870200099"}, "type": "Feature"}
{"geometry": {"coordinates": [-75.8732788, 41.237122], "type": "Point"}, "id": "l38grEbdhtc--pKIU6rZI76ktCc=", "properties": {"@source_uri": "https://tools.usps.com/UspsToolsRestServices/rest/POLocator/findLocations", "@spider": "usps_collection_boxes", "addr:city": "BEAR CREEK TW", "addr:country": "US", "addr:postcode": "18702", "addr:state": "PA", "addr:street_address": "374 NEW MARKET ST", "amenity": "post_box", "collection_times": "Mo-Sa 09:30", "nsi_id": "unitedstatespostalservice-a77078", "operator": "United States Postal Service", "operator:short": "USPS", "operator:type": "public", "operator:wikidata": "Q668687", "ref": "1870200104"}, "type": "Feature"}
{"geometry": {"coordinates": [-75.8708429, 41.235643], "type": "Point"}, "id": "4HS6fazaESzETo81Fr2Q2d1yKNc=", "properties": {"@source_uri": "https://tools.usps.com/UspsToolsRestServices/rest/POLocator/findLocations", "@spider": "usps_collection_boxes", "addr:city": "BEAR CREEK TW", "addr:country": "US", "addr:postcode": "18702", "addr:state": "PA", "addr:street_address": "2 S EMPIRE ST", "amenity": "post_box", "collection_times": "Mo-Sa 09:45", "nsi_id": "unitedstatespostalservice-a77078", "operator": "United States Postal Service", "operator:short": "USPS", "operator:type": "public", "operator:wikidata": "Q668687", "ref": "1870200105"}, "type": "Feature"}
{"geometry": {"coordinates": [-75.7962053, 41.291362], "type": "Point"}, "id": "0wgc6D6Gk_UdM7HaTCGeUSBescs=", "properties": {"@source_uri": "https://tools.usps.com/UspsToolsRestServices/rest/POLocator/findLocations", "@spider": "usps_collection_boxes", "addr:city": "BEAR CREEK TW", "addr:country": "US", "addr:postcode": "18702", "addr:state": "PA", "addr:street_address": "47 LAFLIN RD", "amenity": "post_box", "collection_times": "Mo-Sa 12:15", "note": "ON 12/24 AND 12/31, THIS BOX MAY BE COLLECTED AS EARLY AS 12 NOON.", "nsi_id": "unitedstatespostalservice-a77078", "operator": "United States Postal Service", "operator:short": "USPS", "operator:type": "public", "operator:wikidata": "Q668687", "ref": "1870200113"}, "type": "Feature"}
{"geometry": {"coordinates": [-75.8518035, 41.225138], "type": "Point"}, "id": "-nNYEPrBHT4OW91xSJgiJygSNlY=", "properties": {"@source_uri": "https://tools.usps.com/UspsToolsRestServices/rest/POLocator/findLocations", "@spider": "usps_collection_boxes", "addr:city": "BEAR CREEK TW", "addr:country": "US", "addr:postcode": "18702", "addr:state": "PA", "addr:street_address": "100 LAUREL RUN RD", "amenity": "post_box", "collection_times": "Mo-Sa 10:00", "nsi_id": "unitedstatespostalservice-a77078", "operator": "United States Postal Service", "operator:short": "USPS", "operator:type": "public", "operator:wikidata": "Q668687", "ref": "1870200114"}, "type": "Feature"}
{"geometry": {"coordinates": [-75.8796577, 41.240653], "type": "Point"}, "id": "TLnt5D9Cb4I_kxgv8P8gKQrJD_w=", "properties": {"@source_uri": "https://tools.usps.com/UspsToolsRestServices/rest/POLocator/findLocations", "@spider": "usps_collection_boxes", "addr:city": "BEAR CREEK TW", "addr:country": "US", "addr:postcode": "18702", "addr:state": "PA", "addr:street_address": "50 LINCOLN PLZ", "amenity": "post_box", "collection_times": "Mo-Sa 09:30", "nsi_id": "unitedstatespostalservice-a77078", "operator": "United States Postal Service", "operator:short": "USPS", "operator:type": "public", "operator:wikidata": "Q668687", "ref": "1870200117"}, "type": "Feature"}
{"geometry": {"coordinates": [-75.8999147, 41.230374], "type": "Point"}, "id": "17COYinISi3-b-nXMIEXGO3117g=", "properties": {"@source_uri": "https://tools.usps.com/UspsToolsRestServices/rest/POLocator/findLocations", "@spider": "usps_collection_boxes", "addr:city": "BEAR CREEK TW", "addr:country": "US", "addr:postcode": "18702", "addr:state": "PA", "addr:street_address": "161 BLACKMAN ST", "amenity": "post_box", "collection_times": "Mo-Sa 09:30", "nsi_id": "unitedstatespostalservice-a77078", "operator": "United States Postal Service", "operator:short": "USPS", "operator:type": "public", "operator:wikidata": "Q668687", "ref": "1870200119"}, "type": "Feature"}
{"geometry": {"coordinates": [-75.8147264, 41.253662], "type": "Point"}, "id": "Q0fJOARaTI0ovFfZTmMg-POReRg=", "properties": {"@source_uri": "https://tools.usps.com/UspsToolsRestServices/rest/POLocator/findLocations", "@spider": "usps_collection_boxes", "addr:city": "BEAR CREEK TW", "addr:country": "US", "addr:postcode": "18702", "addr:state": "PA", "addr:street_address": "680 WILDFLOWER DR", "amenity": "post_box", "collection_times": "Mo-Sa 10:00", "nsi_id": "unitedstatespostalservice-a77078", "operator": "United States Postal Service", "operator:short": "USPS", "operator:type": "public", "operator:wikidata": "Q668687", "ref": "1870200120"}, "type": "Feature"}
{"geometry": {"coordinates": [-75.8093031, 41.256962], "type": "Point"}, "id": "qIy4QY39nUv-xq-wj0KdtmHGwjQ=", "properties": {"@source_uri": "https://tools.usps.com/UspsToolsRestServices/rest/POLocator/findLocations", "@spider": "usps_collection_boxes", "addr:city": "BEAR CREEK TW", "addr:country": "US", "addr:postcode": "18702", "addr:state": "PA", "addr:street_address": "1010 E MOUNTAIN DR", "amenity": "post_box", "collection_times": "Mo-Sa 09:00", "nsi_id": "unitedstatespostalservice-a77078", "operator": "United States Postal Service", "operator:short": "USPS", "operator:type": "public", "operator:wikidata": "Q668687", "ref": "1870200121"}, "type": "Feature"}
{"geometry": {"coordinates": [-75.8076144, 41.252126], "type": "Point"}, "id": "6emS7LLAsfXdnGmGNtz0tJCr9NA=", "properties": {"@source_uri": "https://tools.usps.com/UspsToolsRestServices/rest/POLocator/findLocations", "@spider": "usps_collection_boxes", "addr:city": "BEAR CREEK TW", "addr:country": "US", "addr:postcode": "18702", "addr:state": "PA", "addr:street_address": "605 BALTIMORE DR", "amenity": "post_box", "collection_times": "Mo-Fr 15:00; Sa 10:00", "note": "ON 12/24 AND 12/31, THIS BOX MAY BE COLLECTED AS EARLY AS 12 NOON.", "nsi_id": "unitedstatespostalservice-a77078", "operator": "United States Postal Service", "operator:short": "USPS", "operator:type": "public", "operator:wikidata": "Q668687", "ref": "1870200122"}, "type": "Feature"}
{"geometry": {"coordinates": [-75.827539, 41.256316], "type": "Point"}, "id": "_3MYnNCN_GWcLtT8tQF02WSAiu8=", "properties": {"@source_uri": "https://tools.usps.com/UspsToolsRestServices/rest/POLocator/findLocations", "@spider": "usps_collection_boxes", "addr:city": "BEAR CREEK TW", "addr:country": "US", "addr:postcode": "18702", "addr:state": "PA", "addr:street_address": "300 LAIRD ST", "amenity": "post_box", "collection_times": "Mo-Sa 10:00", "nsi_id": "unitedstatespostalservice-a77078", "operator": "United States Postal Service", "operator:short": "USPS", "operator:type": "public", "operator:wikidata": "Q668687", "ref": "1870200124"}, "type": "Feature"}
{"geometry": {"coordinates": [-75.8040511, 41.261125], "type": "Point"}, "id": "yBmT7IcLU8QGYamDnDXK6f8A1ZM=", "properties": {"@source_uri": "https://tools.usps.com/UspsToolsRestServices/rest/POLocator/findLocations", "@spider": "usps_collection_boxes", "addr:city": "BEAR CREEK TW", "addr:country": "US", "addr:postcode": "18702", "addr:state": "PA", "addr:street_address": "100 E MOUNTAIN RIDGE MHP", "amenity": "post_box", "collection_times": "Mo-Sa 10:00", "nsi_id": "unitedstatespostalservice-a77078", "operator": "United States Postal Service", "operator:short": "USPS", "operator:type": "public", "operator:wikidata": "Q668687", "ref": "1870200125"}, "type": "Feature"}
{"geometry": {"coordinates": [-75.8174223, 41.263476], "type": "Point"}, "id": "ZJBAoQblFCSi5swwqbHqiy4KJB8=", "properties": {"@source_uri": "https://tools.usps.com/UspsToolsRestServices/rest/POLocator/findLocations", "@spider": "usps_collection_boxes", "addr:city": "BEAR CREEK TW", "addr:country": "US", "addr:postcode": "18702", "addr:state": "PA", "addr:street_address": "1230 HIGHWAY 315 BLVD", "amenity": "post_box", "collection_times": "Mo-Sa 10:00", "nsi_id": "unitedstatespostalservice-a77078", "operator": "United States Postal Service", "operator:short": "USPS", "operator:type": "public", "operator:wikidata": "Q668687", "ref": "1870200126"}, "type": "Feature"}
{"geometry": {"coordinates": [-75.8778232, 41.243227], "type": "Point"}, "id": "yui-ebLDENsaf6S6xz3kzEO60dw=", "properties": {"@source_uri": "https://tools.usps.com/UspsToolsRestServices/rest/POLocator/findLocations", "@spider": "usps_collection_boxes", "addr:city": "BEAR CREEK TW", "addr:country": "US", "addr:postcode": "18702", "addr:state": "PA", "addr:street_address": "100 N WILKES BARRE BLVD", "amenity": "post_box", "collection_times": "Mo-Fr 15:45; Sa 14:00", "note": "ON 12/24 AND 12/31, THIS BOX MAY BE COLLECTED AS EARLY AS 12 NOON.", "nsi_id": "unitedstatespostalservice-a77078", "operator": "United States Postal Service", "operator:short": "USPS", "operator:type": "public", "operator:wikidata": "Q668687", "ref": "1870200127"}, "type": "Feature"}
{"geometry": {"coordinates": [-75.837128, 41.248105], "type": "Point"}, "id": "nz4LSLyCYeij6zt3paUACa9oTo4=", "properties": {"@source_uri": "https://tools.usps.com/UspsToolsRestServices/rest/POLocator/findLocations", "@spider": "usps_collection_boxes", "addr:city": "BEAR CREEK TW", "addr:country": "US", "addr:postcode": "18702", "addr:state": "PA", "addr:street_address": "1111 E END BLVD", "amenity": "post_box", "collection_times": "Mo-Fr 10:00", "nsi_id": "unitedstatespostalservice-a77078", "operator": "United States Postal Service", "operator:short": "USPS", "operator:type": "public", "operator:wikidata": "Q668687", "ref": "1870200128"}, "type": "Feature"}
{"geometry": {"coordinates": [-75.8769272, 41.241856], "type": "Point"}, "id": "NdVaPGBnH0DcNDGgmoD0l_hguYM=", "properties": {"@source_uri": "https://tools.usps.com/UspsToolsRestServices/rest/POLocator/findLocations", "@spider": "usps_collection_boxes", "addr:city": "BEAR CREEK TW", "addr:country": "US", "addr:postcode": "18702", "addr:state": "PA", "addr:street_address": "7 N WILKES BARRE BLVD", "amenity": "post_box", "collection_times": "Mo-Fr 14:45", "note": "ON 12/24 AND 12/31, THIS BOX MAY BE COLLECTED AS EARLY AS 12 NOON.", "nsi_id": "unitedstatespostalservice-a77078", "operator": "United States Postal Service", "operator:short": "USPS", "operator:type": "public", "operator:wikidata": "Q668687", "ref": "1870200129"}, "type": "Feature"}
{"geometry": {"coordinates": [-75.8101771, 41.252402], "type": "Point"}, "id": "SHQavmrO9rEQDktqYXYaPfg6VLE=", "properties": {"@source_uri": "https://tools.usps.com/UspsToolsRestServices/rest/POLocator/findLocations", "@spider": "usps_collection_boxes", "addr:city": "BEAR CREEK TW", "addr:country": "US", "addr:postcode": "18702", "addr:state": "PA", "addr:street_address": "1150 E MOUNTAIN DR", "amenity": "post_box", "collection_times": "Mo-Sa 09:00", "nsi_id": "unitedstatespostalservice-a77078", "operator": "United States Postal Service", "operator:short": "USPS", "operator:type": "public", "operator:wikidata": "Q668687", "ref": "1870200137"}, "type": "Feature"}
{"geometry": {"coordinates": [-75.8623831, 41.246627], "type": "Point"}, "id": "GpqA6VX60Rhwj9d_t1v3tMXYDMg=", "properties": {"@source_uri": "https://tools.usps.com/UspsToolsRestServices/rest/POLocator/findLocations", "@spider": "usps_collection_boxes", "addr:city": "BEAR CREEK TW", "addr:country": "US", "addr:postcode": "18702", "addr:state": "PA", "addr:street_address": "295 SCOTT ST", "amenity": "post_box", "collection_times": "Mo-Sa 10:00", "nsi_id": "unitedstatespostalservice-a77078", "operator": "United States Postal Service", "operator:short": "USPS", "operator:type": "public", "operator:wikidata": "Q668687", "ref": "1870200139"}, "type": "Feature"}
{"geometry": {"coordinates": [-75.8916567, 41.266664], "type": "Point"}, "id": "-cXD84k42SfXpa1R4k2Nqqo-Vss=", "properties": {"@source_uri": "https://tools.usps.com/UspsToolsRestServices/rest/POLocator/findLocations", "@spider": "usps_collection_boxes", "addr:city": "EDWARDSVILLE", "addr:country": "US", "addr:postcode": "18704", "addr:state": "PA", "addr:street_address": "435 WYOMING AVE", "amenity": "post_box", "collection_times": "Mo-Sa 16:30", "note": "ON 12/24 AND 12/31, THIS BOX MAY BE COLLECTED AS EARLY AS 12 NOON.", "nsi_id": "unitedstatespostalservice-a77078", "operator": "United States Postal Service", "operator:short": "USPS", "operator:type": "public", "operator:wikidata": "Q668687", "ref": "1870400002"}, "type": "Feature"}
{"geometry": {"coordinates": [-75.8876189, 41.270768], "type": "Point"}, "id": "O50GF8Yc2aRfgirBfd-ysHeh8bU=", "properties": {"@source_uri": "https://tools.usps.com/UspsToolsRestServices/rest/POLocator/findLocations", "@spider": "usps_collection_boxes", "addr:city": "EDWARDSVILLE", "addr:country": "US", "addr:postcode": "18704", "addr:state": "PA", "addr:street_address": "618 WYOMING AVE", "amenity": "post_box", "collection_times": "Mo-Sa 12:00", "nsi_id": "unitedstatespostalservice-a77078", "operator": "United States Postal Service", "operator:short": "USPS", "operator:type": "public", "operator:wikidata": "Q668687", "ref": "1870400003"}, "type": "Feature"}
{"geometry": {"coordinates": [-75.8866678, 41.271583], "type": "Point"}, "id": "QvYJ7poTiVZZFnA4Fl5pQf4lfO0=", "properties": {"@source_uri": "https://tools.usps.com/UspsToolsRestServices/rest/POLocator/findLocations", "@spider": "usps_collection_boxes", "addr:city": "EDWARDSVILLE", "addr:country": "US", "addr:postcode": "18704", "addr:state": "PA", "addr:street_address": "664 WYOMING AVE", "amenity": "post_box", "collection_times": "Mo-Sa 12:00", "nsi_id": "unitedstatespostalservice-a77078", "operator": "United States Postal Service", "operator:short": "USPS", "operator:type": "public", "operator:wikidata": "Q668687", "ref": "1870400004"}, "type": "Feature"}
{"geometry": {"coordinates": [-75.8919782, 41.266734], "type": "Point"}, "id": "8SqOgRXuNYUXrKF2MhoUPaeC3R4=", "properties": {"@source_uri": "https://tools.usps.com/UspsToolsRestServices/rest/POLocator/findLocations", "@spider": "usps_collection_boxes", "addr:city": "EDWARDSVILLE", "addr:country": "US", "addr:postcode": "18704", "addr:state": "PA", "addr:street_address": "424 WYOMING AVE", "amenity": "post_box", "collection_times": "Mo-Sa 16:30", "note": "ON 12/24 AND 12/31, THIS BOX MAY BE COLLECTED AS EARLY AS 12 NOON.", "nsi_id": "unitedstatespostalservice-a77078", "operator": "United States Postal Service", "operator:short": "USPS", "operator:type": "public", "operator:wikidata": "Q668687", "ref": "1870400005"}, "type": "Feature"}
{"geometry": {"coordinates": [-75.8907118, 41.267863], "type": "Point"}, "id": "RNK2u_AZH_guQoSwDvzhe_dyn74=", "properties": {"@source_uri": "https://tools.usps.com/UspsToolsRestServices/rest/POLocator/findLocations", "@spider": "usps_collection_boxes", "addr:city": "EDWARDSVILLE", "addr:country": "US", "addr:postcode": "18704", "addr:state": "PA", "addr:street_address": "500 WYOMING AVE", "amenity": "post_box", "collection_times": "Mo-Sa 12:00", "nsi_id": "unitedstatespostalservice-a77078", "operator": "United States Postal Service", "operator:short": "USPS", "operator:type": "public", "operator:wikidata": "Q668687", "ref": "1870400006"}, "type": "Feature"}
{"geometry": {"coordinates": [-75.8838382, 41.273873], "type": "Point"}, "id": "FtKQV0WfIk1wjyrr2LqLMYdiPpI=", "properties": {"@source_uri": "https://tools.usps.com/UspsToolsRestServices/rest/POLocator/findLocations", "@spider": "usps_collection_boxes", "addr:city": "EDWARDSVILLE", "addr:country": "US", "addr:postcode": "18704", "addr:state": "PA", "addr:street_address": "777 WYOMING AVE", "amenity": "post_box", "collection_times": "Mo-Sa 12:15", "note": "ON 12/24 AND 12/31, THIS BOX MAY BE COLLECTED AS EARLY AS 12 NOON.", "nsi_id": "unitedstatespostalservice-a77078", "operator": "United States Postal Service", "operator:short": "USPS", "operator:type": "public", "operator:wikidata": "Q668687", "ref": "1870400007"}, "type": "Feature"}
{"geometry": {"coordinates": [-75.8894939, 41.268636], "type": "Point"}, "id": "C3YKnmCKrLqocB6Vvygk0SNwcIQ=", "properties": {"@source_uri": "https://tools.usps.com/UspsToolsRestServices/rest/POLocator/findLocations", "@spider": "usps_collection_boxes", "addr:city": "EDWARDSVILLE", "addr:country": "US", "addr:postcode": "18704", "addr:state": "PA", "addr:street_address": "527 WYOMING AVE", "amenity": "post_box", "collection_times": "Mo-Sa 11:00", "nsi_id": "unitedstatespostalservice-a77078", "operator": "United States Postal Service", "operator:short": "USPS", "operator:type": "public", "operator:wikidata": "Q668687", "ref": "1870400010"}, "type": "Feature"}
{"geometry": {"coordinates": [-75.8768005, 41.268913], "type": "Point"}, "id": "XrpbF-rke9a3ONPLz5YyMF5IeGI=", "properties": {"@source_uri": "https://tools.usps.com/UspsToolsRestServices/rest/POLocator/findLocations", "@spider": "usps_collection_boxes", "addr:city": "EDWARDSVILLE", "addr:country": "US", "addr:postcode": "18704", "addr:state": "PA", "addr:street_address": "255 CHURCH ST", "amenity": "post_box", "collection_times": "Mo-Sa 10:30", "nsi_id": "unitedstatespostalservice-a77078", "operator": "United States Postal Service", "operator:short": "USPS", "operator:type": "public", "operator:wikidata": "Q668687", "ref": "1870400016"}, "type": "Feature"}
{"geometry": {"coordinates": [-75.8836488, 41.25884], "type": "Point"}, "id": "tTXj8puZNqwLXeIZsyOTRvaXEHM=", "properties": {"@source_uri": "https://tools.usps.com/UspsToolsRestServices/rest/POLocator/findLocations", "@spider": "usps_collection_boxes", "addr:city": "EDWARDSVILLE", "addr:country": "US", "addr:postcode": "18704", "addr:state": "PA", "addr:street_address": "480 PIERCE ST", "amenity": "post_box", "collection_times": "Mo-Fr 15:00; Sa 11:30", "note": "ON 12/24 AND 12/31, THIS BOX MAY BE COLLECTED AS EARLY AS 12 NOON.", "nsi_id": "unitedstatespostalservice-a77078", "operator": "United States Postal Service", "operator:short": "USPS", "operator:type": "public", "operator:wikidata": "Q668687", "ref": "1870400017"}, "type": "Feature"}
{"geometry": {"coordinates": [-75.8827451, 41.259074], "type": "Point"}, "id": "CjLRk3MuJYTfD87gFInAeg839g0=", "properties": {"@source_uri": "https://tools.usps.com/UspsToolsRestServices/rest/POLocator/findLocations", "@spider": "usps_collection_boxes", "addr:city": "EDWARDSVILLE", "addr:country": "US", "addr:postcode": "18704", "addr:state": "PA", "addr:street_address": "400 3RD AVE", "amenity": "post_box", "collection_times": "Mo-Sa 11:30", "nsi_id": "unitedstatespostalservice-a77078", "operator": "United States Postal Service", "operator:short": "USPS", "operator:type": "public", "operator:wikidata": "Q668687", "ref": "1870400018"}, "type": "Feature"}
{"geometry": {"coordinates": [-75.8811449, 41.257461], "type": "Point"}, "id": "U4EfgJmGKI0I6guAbTAZCBpxgi0=", "properties": {"@source_uri": "https://tools.usps.com/UspsToolsRestServices/rest/POLocator/findLocations", "@spider": "usps_collection_boxes", "addr:city": "EDWARDSVILLE", "addr:country": "US", "addr:postcode": "18704", "addr:state": "PA", "addr:street_address": "250 1ST AVE", "amenity": "post_box", "collection_times": "Mo-Sa 11:00", "nsi_id": "unitedstatespostalservice-a77078", "operator": "United States Postal Service", "operator:short": "USPS", "operator:type": "public", "operator:wikidata": "Q668687", "ref": "1870400019"}, "type": "Feature"}
{"geometry": {"coordinates": [-75.8646469099, 41.299185887], "type": "Point"}, "id": "Bi2ffOjDnb5g7UQealjp7GDYU5Q=", "properties": {"@source_uri": "https://tools.usps.com/UspsToolsRestServices/rest/POLocator/findLocations", "@spider": "usps_collection_boxes", "addr:city": "EDWARDSVILLE", "addr:country": "US", "addr:postcode": "18704", "addr:state": "PA", "addr:street_address": "199 LACKAWANNA AVE", "amenity": "post_box", "collection_times": "Mo-Sa 12:30", "note": "ON 12/24 AND 12/31, THIS BOX MAY BE COLLECTED AS EARLY AS 12 NOON.", "nsi_id": "unitedstatespostalservice-a77078", "operator": "United States Postal Service", "operator:short": "USPS", "operator:type": "public", "operator:wikidata": "Q668687", "ref": "1870400029"}, "type": "Feature"}
{"geometry": {"coordinates": [-75.9124199, 41.279712], "type": "Point"}, "id": "wVJfFe23_2GQvEQbQMDduY2wC4g=", "properties": {"@source_uri": "https://tools.usps.com/UspsToolsRestServices/rest/POLocator/findLocations", "@spider": "usps_collection_boxes", "addr:city": "EDWARDSVILLE", "addr:country": "US", "addr:postcode": "18704", "addr:state": "PA", "addr:street_address": "257 COURTDALE AVE", "amenity": "post_box", "collection_times": "Mo-Sa 11:00", "nsi_id": "unitedstatespostalservice-a77078", "operator": "United States Postal Service", "operator:short": "USPS", "operator:type": "public", "operator:wikidata": "Q668687", "ref": "1870400038"}, "type": "Feature"}
{"geometry": {"coordinates": [-75.9030799, 41.275781], "type": "Point"}, "id": "M0lwCH6MulU054D0rJvOKclfBrc=", "properties": {"@source_uri": "https://tools.usps.com/UspsToolsRestServices/rest/POLocator/findLocations", "@spider": "usps_collection_boxes", "addr:city": "EDWARDSVILLE", "addr:country": "US", "addr:postcode": "18704", "addr:state": "PA", "addr:street_address": "418 PRINGLE ST", "amenity": "post_box", "collection_times": "Mo-Sa 11:00", "nsi_id": "unitedstatespostalservice-a77078", "operator": "United States Postal Service", "operator:short": "USPS", "operator:type": "public", "operator:wikidata": "Q668687", "ref": "1870400039"}, "type": "Feature"}
{"geometry": {"coordinates": [-75.8891659, 41.258257], "type": "Point"}, "id": "OPd-k-2IPu_NBKlxZAYYKb5N1uY=", "properties": {"@source_uri": "https://tools.usps.com/UspsToolsRestServices/rest/POLocator/findLocations", "@spider": "usps_collection_boxes", "addr:city": "EDWARDSVILLE", "addr:country": "US", "addr:postcode": "18704", "addr:state": "PA", "addr:street_address": "98 N THOMAS AVE", "amenity": "post_box", "collection_times": "Mo-Sa 11:00", "nsi_id": "unitedstatespostalservice-a77078", "operator": "United States Postal Service", "operator:short": "USPS", "operator:type": "public", "operator:wikidata": "Q668687", "ref": "1870400040"}, "type": "Feature"}
{"geometry": {"coordinates": [-75.8849411, 41.259526], "type": "Point"}, "id": "GJkkOmGb_gX1O2yqn2vwz_AAPkU=", "properties": {"@source_uri": "https://tools.usps.com/UspsToolsRestServices/rest/POLocator/findLocations", "@spider": "usps_collection_boxes", "addr:city": "EDWARDSVILLE", "addr:country": "US", "addr:postcode": "18704", "addr:state": "PA", "addr:street_address": "390 PIERCE ST", "amenity": "post_box", "collection_times": "Mo-Sa 10:00", "nsi_id": "unitedstatespostalservice-a77078", "operator": "United States Postal Service", "operator:short": "USPS", "operator:type": "public", "operator:wikidata": "Q668687", "ref": "1870400041"}, "type": "Feature"}
{"geometry": {"coordinates": [-75.8922858, 41.256298], "type": "Point"}, "id": "yeMdoAXXwVrhQA4IafWfYEvtG-o=", "properties": {"@source_uri": "https://tools.usps.com/UspsToolsRestServices/rest/POLocator/findLocations", "@spider": "usps_collection_boxes", "addr:city": "EDWARDSVILLE", "addr:country": "US", "addr:postcode": "18704", "addr:state": "PA", "addr:street_address": "390 MARKET ST", "amenity": "post_box", "collection_times": "Mo-Sa 10:00", "nsi_id": "unitedstatespostalservice-a77078", "operator": "United States Postal Service", "operator:short": "USPS", "operator:type": "public", "operator:wikidata": "Q668687", "ref": "1870400042"}, "type": "Feature"}
{"geometry": {"coordinates": [-75.8945494, 41.25899], "type": "Point"}, "id": "bOuUBYbrxTW7XEAE0PmD0btIvoM=", "properties": {"@source_uri": "https://tools.usps.com/UspsToolsRestServices/rest/POLocator/findLocations", "@spider": "usps_collection_boxes", "addr:city": "EDWARDSVILLE", "addr:country": "US", "addr:postcode": "18704", "addr:state": "PA", "addr:street_address": "503 MARKET ST", "amenity": "post_box", "collection_times": "Mo-Sa 09:00", "nsi_id": "unitedstatespostalservice-a77078", "operator": "United States Postal Service", "operator:short": "USPS", "operator:type": "public", "operator:wikidata": "Q668687", "ref": "1870400043"}, "type": "Feature"}
{"geometry": {"coordinates": [-75.8890296, 41.26334], "type": "Point"}, "id": "OcFajs2nferRGBq89JOEHGJttqY=", "properties": {"@source_uri": "https://tools.usps.com/UspsToolsRestServices/rest/POLocator/findLocations", "@spider": "usps_collection_boxes", "addr:city": "EDWARDSVILLE", "addr:country": "US", "addr:postcode": "18704", "addr:state": "PA", "addr:street_address": "250 PIERCE ST", "amenity": "post_box", "collection_times": "Mo-Sa 11:30", "nsi_id": "unitedstatespostalservice-a77078", "operator": "United States Postal Service", "operator:short": "USPS", "operator:type": "public", "operator:wikidata": "Q668687", "ref": "1870400045"}, "type": "Feature"}
{"geometry": {"coordinates": [-75.9010454, 41.268785], "type": "Point"}, "id": "Q5TH5i0YSGlnYc8UwWUSZqPwa_g=", "properties": {"@source_uri": "https://tools.usps.com/UspsToolsRestServices/rest/POLocator/findLocations", "@spider": "usps_collection_boxes", "addr:city": "EDWARDSVILLE", "addr:country": "US", "addr:postcode": "18704", "addr:state": "PA", "addr:street_address": "220 ZERBY AVE", "amenity": "post_box", "collection_times": "Mo-Sa 10:00", "nsi_id": "unitedstatespostalservice-a77078", "operator": "United States Postal Service", "operator:short": "USPS", "operator:type": "public", "operator:wikidata": "Q668687", "ref": "1870400050"}, "type": "Feature"}
{"geometry": {"coordinates": [-75.8902300205, 41.2713478302], "type": "Point"}, "id": "3YBID__HkiWAYCgb9lH0ytvIWRU=", "properties": {"@source_uri": "https://tools.usps.com/UspsToolsRestServices/rest/POLocator/findLocations", "@spider": "usps_collection_boxes", "addr:city": "EDWARDSVILLE", "addr:country": "US", "addr:postcode": "18704", "addr:state": "PA", "addr:street_address": "73 SHARPE ST", "amenity": "post_box", "collection_times": "Mo-Sa 12:00", "nsi_id": "unitedstatespostalservice-a77078", "operator": "United States Postal Service", "operator:short": "USPS", "operator:type": "public", "operator:wikidata": "Q668687", "ref": "1870400055"}, "type": "Feature"}
{"geometry": {"coordinates": [-75.9063816, 41.265703], "type": "Point"}, "id": "_yGXZRHv9jntgzr95vKmRl-0Jyc=", "properties": {"@source_uri": "https://tools.usps.com/UspsToolsRestServices/rest/POLocator/findLocations", "@spider": "usps_collection_boxes", "addr:city": "EDWARDSVILLE", "addr:country": "US", "addr:postcode": "18704", "addr:state": "PA", "addr:street_address": "531 MAIN ST", "amenity": "post_box", "collection_times": "Mo-Sa 11:45", "nsi_id": "unitedstatespostalservice-a77078", "operator": "United States Postal Service", "operator:short": "USPS", "operator:type": "public", "operator:wikidata": "Q668687", "ref": "1870400063"}, "type": "Feature"}
{"geometry": {"coordinates": [-75.9054712, 41.264592], "type": "Point"}, "id": "be86uUL_H4A15n2VzCud-cKPnMo=", "properties": {"@source_uri": "https://tools.usps.com/UspsToolsRestServices/rest/POLocator/findLocations", "@spider": "usps_collection_boxes", "addr:city": "EDWARDSVILLE", "addr:country": "US", "addr:postcode": "18704", "addr:state": "PA", "addr:street_address": "470 MAIN ST", "amenity": "post_box", "collection_times": "Mo-Sa 11:00", "nsi_id": "unitedstatespostalservice-a77078", "operator": "United States Postal Service", "operator:short": "USPS", "operator:type": "public", "operator:wikidata": "Q668687", "ref": "1870400065"}, "type": "Feature"}
{"geometry": {"coordinates": [-75.8791484, 41.278159], "type": "Point"}, "id": "Enm_8SIY6Be7yABmgeQTqS72ff0=", "properties": {"@source_uri": "https://tools.usps.com/UspsToolsRestServices/rest/POLocator/findLocations", "@spider": "usps_collection_boxes", "addr:city": "EDWARDSVILLE", "addr:country": "US", "addr:postcode": "18704", "addr:state": "PA", "addr:street_address": "983 WYOMING AVE", "amenity": "post_box", "collection_times": "Mo-Sa 11:00", "nsi_id": "unitedstatespostalservice-a77078", "operator": "United States Postal Service", "operator:short": "USPS", "operator:type": "public", "operator:wikidata": "Q668687", "ref": "1870400067"}, "type": "Feature"}
{"geometry": {"coordinates": [-75.8855288, 41.268339], "type": "Point"}, "id": "E3-nMvpKmT4lC0WKjjyUIBoXfW8=", "properties": {"@source_uri": "https://tools.usps.com/UspsToolsRestServices/rest/POLocator/findLocations", "@spider": "usps_collection_boxes", "addr:city": "EDWARDSVILLE", "addr:country": "US", "addr:postcode": "18704", "addr:state": "PA", "addr:street_address": "589 CHARLES AVE", "amenity": "post_box", "collection_times": "Mo-Sa 12:00", "nsi_id": "unitedstatespostalservice-a77078", "operator": "United States Postal Service", "operator:short": "USPS", "operator:type": "public", "operator:wikidata": "Q668687", "ref": "1870400070"}, "type": "Feature"}
{"geometry": {"coordinates": [-75.8934866, 41.262883], "type": "Point"}, "id": "zKejKNonoAy3SoQ5UWPalmceNrI=", "properties": {"@source_uri": "https://tools.usps.com/UspsToolsRestServices/rest/POLocator/findLocations", "@spider": "usps_collection_boxes", "addr:city": "EDWARDSVILLE", "addr:country": "US", "addr:postcode": "18704", "addr:state": "PA", "addr:street_address": "310 RUTTER AVE", "amenity": "post_box", "collection_times": "Mo-Sa 10:00", "nsi_id": "unitedstatespostalservice-a77078", "operator": "United States Postal Service", "operator:short": "USPS", "operator:type": "public", "operator:wikidata": "Q668687", "ref": "1870400071"}, "type": "Feature"}
{"geometry": {"coordinates": [-75.8969016, 41.261925], "type": "Point"}, "id": "fROeunto4FezQjZNlM-p18Z6Ph4=", "properties": {"@source_uri": "https://tools.usps.com/UspsToolsRestServices/rest/POLocator/findLocations", "@spider": "usps_collection_boxes", "addr:city": "EDWARDSVILLE", "addr:country": "US", "addr:postcode": "18704", "addr:state": "PA", "addr:street_address": "201 WYOMING AVE", "amenity": "post_box", "collection_times": "Mo-Sa 11:45", "nsi_id": "unitedstatespostalservice-a77078", "operator": "United States Postal Service", "operator:short": "USPS", "operator:type": "public", "operator:wikidata": "Q668687", "ref": "1870400074"}, "type": "Feature"}
{"geometry": {"coordinates": [-75.8960977, 41.262942], "type": "Point"}, "id": "Uo8xnooBvisIk8CRNmn3lEMweRE=", "properties": {"@source_uri": "https://tools.usps.com/UspsToolsRestServices/rest/POLocator/findLocations", "@spider": "usps_collection_boxes", "addr:city": "EDWARDSVILLE", "addr:country": "US", "addr:postcode": "18704", "addr:state": "PA", "addr:street_address": "250 WYOMING AVE", "amenity": "post_box", "collection_times": "Mo-Sa 10:00", "nsi_id": "unitedstatespostalservice-a77078", "operator": "United States Postal Service", "operator:short": "USPS", "operator:type": "public", "operator:wikidata": "Q668687", "ref": "1870400075"}, "type": "Feature"}
{"geometry": {"coordinates": [-75.8946589, 41.263938], "type": "Point"}, "id": "a4_tO6i-Y61-XJmscYSIcPTEK0k=", "properties": {"@source_uri": "https://tools.usps.com/UspsToolsRestServices/rest/POLocator/findLocations", "@spider": "usps_collection_boxes", "addr:city": "EDWARDSVILLE", "addr:country": "US", "addr:postcode": "18704", "addr:state": "PA", "addr:street_address": "303 WYOMING AVE", "amenity": "post_box", "collection_times": "Mo-Sa 10:00", "nsi_id": "unitedstatespostalservice-a77078", "operator": "United States Postal Service", "operator:short": "USPS", "operator:type": "public", "operator:wikidata": "Q668687", "ref": "1870400076"}, "type": "Feature"}
{"geometry": {"coordinates": [-75.9018045, 41.25737], "type": "Point"}, "id": "uv1kQEIbIZibu66Mc6L6FaVgROU=", "properties": {"@source_uri": "https://tools.usps.com/UspsToolsRestServices/rest/POLocator/findLocations", "@spider": "usps_collection_boxes", "addr:city": "EDWARDSVILLE", "addr:country": "US", "addr:postcode": "18704", "addr:state": "PA", "addr:street_address": "25 GATEWAY SHOPPING CTR", "amenity": "post_box", "collection_times": "Mo-Sa 09:45", "nsi_id": "unitedstatespostalservice-a77078", "operator": "United States Postal Service", "operator:short": "USPS", "operator:type": "public", "operator:wikidata": "Q668687", "ref": "1870400078"}, "type": "Feature"}
{"geometry": {"coordinates": [-75.90207747, 41.260781388], "type": "Point"}, "id": "eNF3EfolwGAK-5wehGtQPQfr4qU=", "properties": {"@source_uri": "https://tools.usps.com/UspsToolsRestServices/rest/POLocator/findLocations", "@spider": "usps_collection_boxes", "addr:city": "EDWARDSVILLE", "addr:country": "US", "addr:postcode": "18704", "addr:state": "PA", "addr:street_address": "14 W SIDE MALL", "amenity": "post_box", "collection_times": "Mo-Sa 11:45", "nsi_id": "unitedstatespostalservice-a77078", "operator": "United States Postal Service", "operator:short": "USPS", "operator:type": "public", "operator:wikidata": "Q668687", "ref": "1870400080"}, "type": "Feature"}
{"geometry": {"coordinates": [-75.9009138, 41.27266], "type": "Point"}, "id": "7jllnfP50DRXU4wNV8ry5Zr5msg=", "properties": {"@source_uri": "https://tools.usps.com/UspsToolsRestServices/rest/POLocator/findLocations", "@spider": "usps_collection_boxes", "addr:city": "EDWARDSVILLE", "addr:country": "US", "addr:postcode": "18704", "addr:state": "PA", "addr:street_address": "276 PRINGLE ST", "amenity": "post_box", "collection_times": "Mo-Sa 10:00", "nsi_id": "unitedstatespostalservice-a77078", "operator": "United States Postal Service", "operator:short": "USPS", "operator:type": "public", "operator:wikidata": "Q668687", "ref": "1870400087"}, "type": "Feature"}
{"geometry": {"coordinates": [-75.8773904, 41.286271], "type": "Point"}, "id": "CGty0TQqsCJgd0O89hk2u78a1QU=", "properties": {"@source_uri": "https://tools.usps.com/UspsToolsRestServices/rest/POLocator/findLocations", "@spider": "usps_collection_boxes", "addr:city": "EDWARDSVILLE", "addr:country": "US", "addr:postcode": "18704", "addr:state": "PA", "addr:street_address": "1223 MURRAY ST", "amenity": "post_box", "collection_times": "Mo-Sa 10:00", "nsi_id": "unitedstatespostalservice-a77078", "operator": "United States Postal Service", "operator:short": "USPS", "operator:type": "public", "operator:wikidata": "Q668687", "ref": "1870400094"}, "type": "Feature"}
{"geometry": {"coordinates": [-75.8824522, 41.282001], "type": "Point"}, "id": "w6ckDJ4UUQRPzBJyNIBGvV2n5OA=", "properties": {"@source_uri": "https://tools.usps.com/UspsToolsRestServices/rest/POLocator/findLocations", "@spider": "usps_collection_boxes", "addr:city": "EDWARDSVILLE", "addr:country": "US", "addr:postcode": "18704", "addr:state": "PA", "addr:street_address": "161 SLOCUM ST", "amenity": "post_box", "collection_times": "Mo-Sa 10:00", "nsi_id": "unitedstatespostalservice-a77078", "operator": "United States Postal Service", "operator:short": "USPS", "operator:type": "public", "operator:wikidata": "Q668687", "ref": "1870400096"}, "type": "Feature"}
{"geometry": {"coordinates": [-75.8815734, 41.289272], "type": "Point"}, "id": "QLRQhOmwV4dkady2YSpaK0wJsVM=", "properties": {"@source_uri": "https://tools.usps.com/UspsToolsRestServices/rest/POLocator/findLocations", "@spider": "usps_collection_boxes", "addr:city": "EDWARDSVILLE", "addr:country": "US", "addr:postcode": "18704", "addr:state": "PA", "addr:street_address": "534 CHURCH ST", "amenity": "post_box", "collection_times": "Mo-Sa 10:00", "nsi_id": "unitedstatespostalservice-a77078", "operator": "United States Postal Service", "operator:short": "USPS", "operator:type": "public", "operator:wikidata": "Q668687", "ref": "1870400097"}, "type": "Feature"}
{"geometry": {"coordinates": [-75.8829499, 41.295337], "type": "Point"}, "id": "SKE2SIHe6KzptwtKEvZgTMRwY3I=", "properties": {"@source_uri": "https://tools.usps.com/UspsToolsRestServices/rest/POLocator/findLocations", "@spider": "usps_collection_boxes", "addr:city": "EDWARDSVILLE", "addr:country": "US", "addr:postcode": "18704", "addr:state": "PA", "addr:street_address": "675 MAIN ST", "amenity": "post_box", "collection_times": "Mo-Sa 10:00", "nsi_id": "unitedstatespostalservice-a77078", "operator": "United States Postal Service", "operator:short": "USPS", "operator:type": "public", "operator:wikidata": "Q668687", "ref": "1870400098"}, "type": "Feature"}
{"geometry": {"coordinates": [-75.8792799, 41.292389], "type": "Point"}, "id": "qd0MdwvcFTMQJCzS7etg2WNiH14=", "properties": {"@source_uri": "https://tools.usps.com/UspsToolsRestServices/rest/POLocator/findLocations", "@spider": "usps_collection_boxes", "addr:city": "EDWARDSVILLE", "addr:country": "US", "addr:postcode": "18704", "addr:state": "PA", "addr:street_address": "283 SHOEMAKER ST", "amenity": "post_box", "collection_times": "Mo-Sa 10:30", "nsi_id": "unitedstatespostalservice-a77078", "operator": "United States Postal Service", "operator:short": "USPS", "operator:type": "public", "operator:wikidata": "Q668687", "ref": "1870400100"}, "type": "Feature"}
{"geometry": {"coordinates": [-75.8947778, 41.266347], "type": "Point"}, "id": "aCC4aUj5Z3vJvVbLRLXbVwwu6zg=", "properties": {"@source_uri": "https://tools.usps.com/UspsToolsRestServices/rest/POLocator/findLocations", "@spider": "usps_collection_boxes", "addr:city": "EDWARDSVILLE", "addr:country": "US", "addr:postcode": "18704", "addr:state": "PA", "addr:street_address": "350 N MAPLE AVE", "amenity": "post_box", "collection_times": "Mo-Sa 11:00", "nsi_id": "unitedstatespostalservice-a77078", "operator": "United States Postal Service", "operator:short": "USPS", "operator:type": "public", "operator:wikidata": "Q668687", "ref": "1870400103"}, "type": "Feature"}
{"geometry": {"coordinates": [-75.8750933, 41.274152], "type": "Point"}, "id": "IUQfhTZP9VMgog1t5kZ5wovVzPI=", "properties": {"@source_uri": "https://tools.usps.com/UspsToolsRestServices/rest/POLocator/findLocations", "@spider": "usps_collection_boxes", "addr:city": "EDWARDSVILLE", "addr:country": "US", "addr:postcode": "18704", "addr:state": "PA", "addr:street_address": "190 WELLES ST", "amenity": "post_box", "collection_times": "Mo-Fr 09:00; Sa 11:00", "nsi_id": "unitedstatespostalservice-a77078", "operator": "United States Postal Service", "operator:short": "USPS", "operator:type": "public", "operator:wikidata": "Q668687", "ref": "1870400110"}, "type": "Feature"}
{"geometry": {"coordinates": [-75.8823895, 41.265177], "type": "Point"}, "id": "9Isoc3d3oWnOUfOg3dfOwgBcboI=", "properties": {"@source_uri": "https://tools.usps.com/UspsToolsRestServices/rest/POLocator/findLocations", "@spider": "usps_collection_boxes", "addr:city": "EDWARDSVILLE", "addr:country": "US", "addr:postcode": "18704", "addr:state": "PA", "addr:street_address": "597 WARREN AVE", "amenity": "post_box", "collection_times": "Mo-Sa 10:30", "nsi_id": "unitedstatespostalservice-a77078", "operator": "United States Postal Service", "operator:short": "USPS", "operator:type": "public", "operator:wikidata": "Q668687", "ref": "1870400113"}, "type": "Feature"}
{"geometry": {"coordinates": [-75.8796272, 41.270657], "type": "Point"}, "id": "gTqDl8FrreVCnz5rtwq0saIMasY=", "properties": {"@source_uri": "https://tools.usps.com/UspsToolsRestServices/rest/POLocator/findLocations", "@spider": "usps_collection_boxes", "addr:city": "EDWARDSVILLE", "addr:country": "US", "addr:postcode": "18704", "addr:state": "PA", "addr:street_address": "790 RUTTER AVE", "amenity": "post_box", "collection_times": "Mo-Sa 10:00", "nsi_id": "unitedstatespostalservice-a77078", "operator": "United States Postal Service", "operator:short": "USPS", "operator:type": "public", "operator:wikidata": "Q668687", "ref": "1870400116"}, "type": "Feature"}
{"geometry": {"coordinates": [-75.8993074, 41.257814], "type": "Point"}, "id": "ImrRlmxs3anbXl7w5-4ECAI8D2Q=", "properties": {"@source_uri": "https://tools.usps.com/UspsToolsRestServices/rest/POLocator/findLocations", "@spider": "usps_collection_boxes", "addr:city": "EDWARDSVILLE", "addr:country": "US", "addr:postcode": "18704", "addr:state": "PA", "addr:street_address": "512 NORTHAMPTON ST", "amenity": "post_box", "collection_times": "Mo-Sa 09:45", "nsi_id": "unitedstatespostalservice-a77078", "operator": "United States Postal Service", "operator:short": "USPS", "operator:type": "public", "operator:wikidata": "Q668687", "ref": "1870400122"}, "type": "Feature"}
{"geometry": {"coordinates": [-75.8813054, 41.258415], "type": "Point"}, "id": "oLMJSfY88PyH0eJEVFb24VMsNLM=", "properties": {"@source_uri": "https://tools.usps.com/UspsToolsRestServices/rest/POLocator/findLocations", "@spider": "usps_collection_boxes", "addr:city": "EDWARDSVILLE", "addr:country": "US", "addr:postcode": "18704", "addr:state": "PA", "addr:street_address": "423 3RD AVE", "amenity": "post_box", "collection_times": "Mo-Sa 11:00", "nsi_id": "unitedstatespostalservice-a77078", "operator": "United States Postal Service", "operator:short": "USPS", "operator:type": "public", "operator:wikidata": "Q668687", "ref": "1870400123"}, "type": "Feature"}
{"geometry": {"coordinates": [-75.8949721, 41.273227], "type": "Point"}, "id": "39WGw8Al2h7jBQuu7wB768IT4z8=", "properties": {"@source_uri": "https://tools.usps.com/UspsToolsRestServices/rest/POLocator/findLocations", "@spider": "usps_collection_boxes", "addr:city": "EDWARDSVILLE", "addr:country": "US", "addr:postcode": "18704", "addr:state": "PA", "addr:street_address": "210 DIVISION ST", "amenity": "post_box", "collection_times": "Mo-Sa 11:00", "nsi_id": "unitedstatespostalservice-a77078", "operator": "United States Postal Service", "operator:short": "USPS", "operator:type": "public", "operator:wikidata": "Q668687", "ref": "1870400125"}, "type": "Feature"}
{"geometry": {"coordinates": [-75.8821003, 41.255485], "type": "Point"}, "id": "FXxbBpJaxw6SIdY763x3qqFkq8Q=", "properties": {"@source_uri": "https://tools.usps.com/UspsToolsRestServices/rest/POLocator/findLocations", "@spider": "usps_collection_boxes", "addr:city": "EDWARDSVILLE", "addr:country": "US", "addr:postcode": "18704", "addr:state": "PA", "addr:street_address": "575 PIERCE ST", "amenity": "post_box", "collection_times": "Mo-Fr 16:00; Sa 11:00", "note": "ON 12/24 AND 12/31, THIS BOX MAY BE COLLECTED AS EARLY AS 12 NOON.", "nsi_id": "unitedstatespostalservice-a77078", "operator": "United States Postal Service", "operator:short": "USPS", "operator:type": "public", "operator:wikidata": "Q668687", "ref": "1870400126"}, "type": "Feature"}
{"geometry": {"coordinates": [-75.8916486, 41.266664], "type": "Point"}, "id": "EyN20n5GVoD_UA80rRkdAS3NtIs=", "properties": {"@source_uri": "https://tools.usps.com/UspsToolsRestServices/rest/POLocator/findLocations", "@spider": "usps_collection_boxes", "addr:city": "EDWARDSVILLE", "addr:country": "US", "addr:postcode": "18704", "addr:state": "PA", "addr:street_address": "435 WYOMING AVE", "amenity": "post_box", "collection_times": "Mo-Sa 16:30", "note": "ON 12/24 AND 12/31, THIS BOX MAY BE COLLECTED AS EARLY AS 12 NOON.", "nsi_id": "unitedstatespostalservice-a77078", "operator": "United States Postal Service", "operator:short": "USPS", "operator:type": "public", "operator:wikidata": "Q668687", "ref": "1870400127"}, "type": "Feature"}
{"geometry": {"coordinates": [-75.8918, 41.266757], "type": "Point"}, "id": "q7yvM8GmPjmNZBijAgvg-t9KVHY=", "properties": {"@source_uri": "https://tools.usps.com/UspsToolsRestServices/rest/POLocator/findLocations", "@spider": "usps_collection_boxes", "addr:city": "EDWARDSVILLE", "addr:country": "US", "addr:postcode": "18704", "addr:state": "PA", "addr:street_address": "435 WYOMING AVE", "amenity": "post_box", "collection_times": "Mo-Fr 16:30; Sa 13:00", "indoor": "yes", "note": "ON 12/24 AND 12/31, THIS BOX MAY BE COLLECTED AS EARLY AS 12 NOON.", "nsi_id": "unitedstatespostalservice-a77078", "operator": "United States Postal Service", "operator:short": "USPS", "operator:type": "public", "operator:wikidata": "Q668687", "ref": "1870400128"}, "type": "Feature"}
{"geometry": {"coordinates": [-75.8978123, 41.25466], "type": "Point"}, "id": "ktYH5eJXNcN71FaWGo3MTknnhr8=", "properties": {"@source_uri": "https://tools.usps.com/UspsToolsRestServices/rest/POLocator/findLocations", "@spider": "usps_collection_boxes", "addr:city": "EDWARDSVILLE", "addr:country": "US", "addr:postcode": "18704", "addr:state": "PA", "addr:street_address": "10 HEISZ ST", "amenity": "post_box", "collection_times": "Mo-Sa 10:00", "nsi_id": "unitedstatespostalservice-a77078", "operator": "United States Postal Service", "operator:short": "USPS", "operator:type": "public", "operator:wikidata": "Q668687", "ref": "1870400130"}, "type": "Feature"}
{"geometry": {"coordinates": [-75.891890675, 41.266623124], "type": "Point"}, "id": "OADu5RT3Qt2s9pmr0tW5U9JHs6g=", "properties": {"@source_uri": "https://tools.usps.com/UspsToolsRestServices/rest/POLocator/findLocations", "@spider": "usps_collection_boxes", "addr:city": "EDWARDSVILLE", "addr:country": "US", "addr:postcode": "18704", "addr:state": "PA", "addr:street_address": "435 WYOMING AVE", "amenity": "post_box", "collection_times": "Mo-Fr 17:00; Sa 13:00", "indoor": "yes", "note": "ON 12/24 AND 12/31, THIS BOX MAY BE COLLECTED AS EARLY AS 12 NOON.", "nsi_id": "unitedstatespostalservice-a77078", "operator": "United States Postal Service", "operator:short": "USPS", "operator:type": "public", "operator:wikidata": "Q668687", "ref": "1870400134"}, "type": "Feature"}
{"geometry": {"coordinates": [-75.8562642, 41.280221], "type": "Point"}, "id": "wO-2W0dLNg7a6VAtohq67lj4Jy4=", "properties": {"@source_uri": "https://tools.usps.com/UspsToolsRestServices/rest/POLocator/findLocations", "@spider": "usps_collection_boxes", "addr:city": "PLAINS", "addr:country": "US", "addr:postcode": "18705", "addr:state": "PA", "addr:street_address": "29 N RIVER ST", "amenity": "post_box", "collection_times": "Mo-Fr 16:00; Sa 13:00", "note": "ON 12/24 AND 12/31, THIS BOX MAY BE COLLECTED AS EARLY AS 12 NOON.", "nsi_id": "unitedstatespostalservice-a77078", "operator": "United States Postal Service", "operator:short": "USPS", "operator:type": "public", "operator:wikidata": "Q668687", "ref": "1870500006"}, "type": "Feature"}
{"geometry": {"coordinates": [-75.8681087, 41.254098], "type": "Point"}, "id": "6dFDtzIHLOQpiXr39Ou_2b10efc=", "properties": {"@source_uri": "https://tools.usps.com/UspsToolsRestServices/rest/POLocator/findLocations", "@spider": "usps_collection_boxes", "addr:city": "PLAINS", "addr:country": "US", "addr:postcode": "18705", "addr:state": "PA", "addr:street_address": "453 N MAIN ST", "amenity": "post_box", "collection_times": "Mo-Sa 09:00", "nsi_id": "unitedstatespostalservice-a77078", "operator": "United States Postal Service", "operator:short": "USPS", "operator:type": "public", "operator:wikidata": "Q668687", "ref": "1870500013"}, "type": "Feature"}
{"geometry": {"coordinates": [-75.8507666, 41.261049], "type": "Point"}, "id": "z6_8uifZSu1PLCFko-16-mT3BJc=", "properties": {"@source_uri": "https://tools.usps.com/UspsToolsRestServices/rest/POLocator/findLocations", "@spider": "usps_collection_boxes", "addr:city": "PLAINS", "addr:country": "US", "addr:postcode": "18705", "addr:state": "PA", "addr:street_address": "1037 N WASHINGTON ST", "amenity": "post_box", "collection_times": "Mo-Sa 10:00", "nsi_id": "unitedstatespostalservice-a77078", "operator": "United States Postal Service", "operator:short": "USPS", "operator:type": "public", "operator:wikidata": "Q668687", "ref": "1870500020"}, "type": "Feature"}
{"geometry": {"coordinates": [-75.8384355, 41.269442], "type": "Point"}, "id": "Ngdgr9hGg3OTNQsfpXLCsRkYl0Q=", "properties": {"@source_uri": "https://tools.usps.com/UspsToolsRestServices/rest/POLocator/findLocations", "@spider": "usps_collection_boxes", "addr:city": "PLAINS", "addr:country": "US", "addr:postcode": "18705", "addr:state": "PA", "addr:street_address": "174 E MAIN ST", "amenity": "post_box", "collection_times": "Mo-Sa 13:30", "note": "ON 12/24 AND 12/31, THIS BOX MAY BE COLLECTED AS EARLY AS 12 NOON.", "nsi_id": "unitedstatespostalservice-a77078", "operator": "United States Postal Service", "operator:short": "USPS", "operator:type": "public", "operator:wikidata": "Q668687", "ref": "1870500026"}, "type": "Feature"}
{"geometry": {"coordinates": [-75.8291688, 41.276132], "type": "Point"}, "id": "oMrcxrryh3z4RJhNErpEWlweUTE=", "properties": {"@source_uri": "https://tools.usps.com/UspsToolsRestServices/rest/POLocator/findLocations", "@spider": "usps_collection_boxes", "addr:city": "PLAINS", "addr:country": "US", "addr:postcode": "18705", "addr:state": "PA", "addr:street_address": "49 SCHOOL ST", "amenity": "post_box", "collection_times": "Mo-Sa 12:30", "note": "ON 12/24 AND 12/31, THIS BOX MAY BE COLLECTED AS EARLY AS 12 NOON.", "nsi_id": "unitedstatespostalservice-a77078", "operator": "United States Postal Service", "operator:short": "USPS", "operator:type": "public", "operator:wikidata": "Q668687", "ref": "1870500027"}, "type": "Feature"}
{"geometry": {"coordinates": [-75.867811, 41.262298], "type": "Point"}, "id": "EbOKG0DUoQFqiXQq8u-8DNOqKgI=", "properties": {"@source_uri": "https://tools.usps.com/UspsToolsRestServices/rest/POLocator/findLocations", "@spider": "usps_collection_boxes", "addr:city": "PLAINS", "addr:country": "US", "addr:postcode": "18705", "addr:state": "PA", "addr:street_address": "670 N RIVER ST", "amenity": "post_box", "collection_times": "Mo-Fr 15:00", "note": "ON 12/24 AND 12/31, THIS BOX MAY BE COLLECTED AS EARLY AS 12 NOON.", "nsi_id": "unitedstatespostalservice-a77078", "operator": "United States Postal Service", "operator:short": "USPS", "operator:type": "public", "operator:wikidata": "Q668687", "ref": "1870500036"}, "type": "Feature"}
{"geometry": {"coordinates": [-75.856433, 41.278668], "type": "Point"}, "id": "mq5u3Je-borEehfZJVhWUKN1TNk=", "properties": {"@source_uri": "https://tools.usps.com/UspsToolsRestServices/rest/POLocator/findLocations", "@spider": "usps_collection_boxes", "addr:city": "PLAINS", "addr:country": "US", "addr:postcode": "18705", "addr:state": "PA", "addr:street_address": "29 N RIVER ST", "amenity": "post_box", "collection_times": "Mo-Fr 16:00; Sa 12:00", "indoor": "yes", "note": "ON 12/24 AND 12/31, THIS BOX MAY BE COLLECTED AS EARLY AS 12 NOON.", "nsi_id": "unitedstatespostalservice-a77078", "operator": "United States Postal Service", "operator:short": "USPS", "operator:type": "public", "operator:wikidata": "Q668687", "ref": "1870500044"}, "type": "Feature"}
{"geometry": {"coordinates": [-75.856241646, 41.278948487], "type": "Point"}, "id": "QrVLNiLgxs8QSoNWxah-CofPNSk=", "properties": {"@source_uri": "https://tools.usps.com/UspsToolsRestServices/rest/POLocator/findLocations", "@spider": "usps_collection_boxes", "addr:city": "PLAINS", "addr:country": "US", "addr:postcode": "18705", "addr:state": "PA", "addr:street_address": "29 N RIVER ST", "amenity": "post_box", "collection_times": "Mo-Fr 17:00; Sa 13:15", "indoor": "yes", "note": "ON 12/24 AND 12/31, THIS BOX MAY BE COLLECTED AS EARLY AS 12 NOON.", "nsi_id": "unitedstatespostalservice-a77078", "operator": "United States Postal Service", "operator:short": "USPS", "operator:type": "public", "operator:wikidata": "Q668687", "ref": "1870500045"}, "type": "Feature"}
{"geometry": {"coordinates": [-75.8991226, 41.214649], "type": "Point"}, "id": "MmQSIS8pfCZuKTr_Ztee_bJhSAg=", "properties": {"@source_uri": "https://tools.usps.com/UspsToolsRestServices/rest/POLocator/findLocations", "@spider": "usps_collection_boxes", "addr:city": "HANOVER TWP", "addr:country": "US", "addr:postcode": "18706", "addr:state": "PA", "addr:street_address": "31 N MAIN ST", "amenity": "post_box", "collection_times": "Mo-Fr 16:00; Sa 11:30", "note": "ON 12/24 AND 12/31, THIS BOX MAY BE COLLECTED AS EARLY AS 12 NOON.", "nsi_id": "unitedstatespostalservice-a77078", "operator": "United States Postal Service", "operator:short": "USPS", "operator:type": "public", "operator:wikidata": "Q668687", "ref": "1870600005"}, "type": "Feature"}
{"geometry": {"coordinates": [-75.8886637, 41.219896], "type": "Point"}, "id": "h1ZnkLwy4OuYO7hAYGWNC_9ReIU=", "properties": {"@source_uri": "https://tools.usps.com/UspsToolsRestServices/rest/POLocator/findLocations", "@spider": "usps_collection_boxes", "addr:city": "HANOVER TWP", "addr:country": "US", "addr:postcode": "18706", "addr:state": "PA", "addr:street_address": "141 EAGLE CT", "amenity": "post_box", "collection_times": "Mo-Sa 09:30", "nsi_id": "unitedstatespostalservice-a77078", "operator": "United States Postal Service", "operator:short": "USPS", "operator:type": "public", "operator:wikidata": "Q668687", "ref": "1870600015"}, "type": "Feature"}
{"geometry": {"coordinates": [-75.9363323, 41.204916], "type": "Point"}, "id": "GyOhd43IrOB4U269cDfSpT2Zpz0=", "properties": {"@source_uri": "https://tools.usps.com/UspsToolsRestServices/rest/POLocator/findLocations", "@spider": "usps_collection_boxes", "addr:city": "HANOVER TWP", "addr:country": "US", "addr:postcode": "18706", "addr:state": "PA", "addr:street_address": "1 ALLENBERRY DR", "amenity": "post_box", "collection_times": "Mo-Sa 11:30", "nsi_id": "unitedstatespostalservice-a77078", "operator": "United States Postal Service", "operator:short": "USPS", "operator:type": "public", "operator:wikidata": "Q668687", "ref": "1870600021"}, "type": "Feature"}
{"geometry": {"coordinates": [-75.9136342, 41.232831], "type": "Point"}, "id": "dqJyNTW1Md6adZfVi1sTVgYap50=", "properties": {"@source_uri": "https://tools.usps.com/UspsToolsRestServices/rest/POLocator/findLocations", "@spider": "usps_collection_boxes", "addr:city": "HANOVER TWP", "addr:country": "US", "addr:postcode": "18706", "addr:state": "PA", "addr:street_address": "143 W DIVISION ST", "amenity": "post_box", "collection_times": "Mo-Sa 11:30", "nsi_id": "unitedstatespostalservice-a77078", "operator": "United States Postal Service", "operator:short": "USPS", "operator:type": "public", "operator:wikidata": "Q668687", "ref": "1870600024"}, "type": "Feature"}
{"geometry": {"coordinates": [-75.9174494, 41.227999], "type": "Point"}, "id": "HSM7N7GrBRLdaXEVNcuYv1vDTmc=", "properties": {"@source_uri": "https://tools.usps.com/UspsToolsRestServices/rest/POLocator/findLocations", "@spider": "usps_collection_boxes", "addr:city": "HANOVER TWP", "addr:country": "US", "addr:postcode": "18706", "addr:state": "PA", "addr:street_address": "140 LEE PARK AVE", "amenity": "post_box", "collection_times": "Mo-Sa 11:30", "nsi_id": "unitedstatespostalservice-a77078", "operator": "United States Postal Service", "operator:short": "USPS", "operator:type": "public", "operator:wikidata": "Q668687", "ref": "1870600026"}, "type": "Feature"}
{"geometry": {"coordinates": [-75.9442713, 41.221733], "type": "Point"}, "id": "ciTIWpG80O3HDdilR1vZiYFU8Uc=", "properties": {"@source_uri": "https://tools.usps.com/UspsToolsRestServices/rest/POLocator/findLocations", "@spider": "usps_collection_boxes", "addr:city": "HANOVER TWP", "addr:country": "US", "addr:postcode": "18706", "addr:state": "PA", "addr:street_address": "437 MAIN RD", "amenity": "post_box", "collection_times": "Mo-Sa 10:00", "nsi_id": "unitedstatespostalservice-a77078", "operator": "United States Postal Service", "operator:short": "USPS", "operator:type": "public", "operator:wikidata": "Q668687", "ref": "1870600027"}, "type": "Feature"}
{"geometry": {"coordinates": [-75.9162595, 41.231458], "type": "Point"}, "id": "uT6u2KuykRW8yHjKeTd01kdoyyA=", "properties": {"@source_uri": "https://tools.usps.com/UspsToolsRestServices/rest/POLocator/findLocations", "@spider": "usps_collection_boxes", "addr:city": "HANOVER TWP", "addr:country": "US", "addr:postcode": "18706", "addr:state": "PA", "addr:street_address": "65 OXFORD ST", "amenity": "post_box", "collection_times": "Mo-Sa 09:30", "nsi_id": "unitedstatespostalservice-a77078", "operator": "United States Postal Service", "operator:short": "USPS", "operator:type": "public", "operator:wikidata": "Q668687", "ref": "1870600029"}, "type": "Feature"}
{"geometry": {"coordinates": [-75.9301899, 41.234663], "type": "Point"}, "id": "bFyA-5q-NxyuzXvSpUtjh_4s8J8=", "properties": {"@source_uri": "https://tools.usps.com/UspsToolsRestServices/rest/POLocator/findLocations", "@spider": "usps_collection_boxes", "addr:city": "HANOVER TWP", "addr:country": "US", "addr:postcode": "18706", "addr:state": "PA", "addr:street_address": "240 PHILLIPS ST", "amenity": "post_box", "collection_times": "Mo-Sa 10:00", "nsi_id": "unitedstatespostalservice-a77078", "operator": "United States Postal Service", "operator:short": "USPS", "operator:type": "public", "operator:wikidata": "Q668687", "ref": "1870600030"}, "type": "Feature"}
{"geometry": {"coordinates": [-75.9446725, 41.219512], "type": "Point"}, "id": "wAJoD04yBdS7G08Ox7_otS-xPVo=", "properties": {"@source_uri": "https://tools.usps.com/UspsToolsRestServices/rest/POLocator/findLocations", "@spider": "usps_collection_boxes", "addr:city": "HANOVER TWP", "addr:country": "US", "addr:postcode": "18706", "addr:state": "PA", "addr:street_address": "1548 SANS SOUCI PKWY", "amenity": "post_box", "collection_times": "Mo-Sa 09:00", "nsi_id": "unitedstatespostalservice-a77078", "operator": "United States Postal Service", "operator:short": "USPS", "operator:type": "public", "operator:wikidata": "Q668687", "ref": "1870600031"}, "type": "Feature"}
{"geometry": {"coordinates": [-75.9716599, 41.20895], "type": "Point"}, "id": "A5o8V0i-yes9dkyXMd4Q-FsURK8=", "properties": {"@source_uri": "https://tools.usps.com/UspsToolsRestServices/rest/POLocator/findLocations", "@spider": "usps_collection_boxes", "addr:city": "HANOVER TWP", "addr:country": "US", "addr:postcode": "18706", "addr:state": "PA", "addr:street_address": "2250 SANS SOUCI PKWY", "amenity": "post_box", "collection_times": "Mo-Sa 09:30", "nsi_id": "unitedstatespostalservice-a77078", "operator": "United States Postal Service", "operator:short": "USPS", "operator:type": "public", "operator:wikidata": "Q668687", "ref": "1870600032"}, "type": "Feature"}
{"geometry": {"coordinates": [-75.9346714, 41.232571], "type": "Point"}, "id": "o98qKNyn8kucCKv1CYNc8-iobhA=", "properties": {"@source_uri": "https://tools.usps.com/UspsToolsRestServices/rest/POLocator/findLocations", "@spider": "usps_collection_boxes", "addr:city": "HANOVER TWP", "addr:country": "US", "addr:postcode": "18706", "addr:state": "PA", "addr:street_address": "567 FELLOWS AVE", "amenity": "post_box", "collection_times": "Mo-Sa 11:30", "nsi_id": "unitedstatespostalservice-a77078", "operator": "United States Postal Service", "operator:short": "USPS", "operator:type": "public", "operator:wikidata": "Q668687", "ref": "1870600034"}, "type": "Feature"}
{"geometry": {"coordinates": [-75.8875574, 41.159946], "type": "Point"}, "id": "poRVX_G2ipxZEgZANlLarFU81tw=", "properties": {"@source_uri": "https://tools.usps.com/UspsToolsRestServices/rest/POLocator/findLocations", "@spider": "usps_collection_boxes", "addr:city": "WILKES BARRE", "addr:country": "US", "addr:postcode": "18707", "addr:state": "PA", "addr:street_address": "42 S MOUNTAIN BLVD", "amenity": "post_box", "collection_times": "Mo-Fr 17:00; Sa 13:00", "note": "ON 12/24 AND 12/31, THIS BOX MAY BE COLLECTED AS EARLY AS 12 NOON.", "nsi_id": "unitedstatespostalservice-a77078", "operator": "United States Postal Service", "operator:short": "USPS", "operator:type": "public", "operator:wikidata": "Q668687", "ref": "1870700001"}, "type": "Feature"}
{"geometry": {"coordinates": [-75.9097372, 41.119853], "type": "Point"}, "id": "-KFQtQLVc4mlKEgVRBCQFaDoHCk=", "properties": {"@source_uri": "https://tools.usps.com/UspsToolsRestServices/rest/POLocator/findLocations", "@spider": "usps_collection_boxes", "addr:city": "WILKES BARRE", "addr:country": "US", "addr:postcode": "18707", "addr:state": "PA", "addr:street_address": "432 S MOUNTAIN BLVD", "amenity": "post_box", "collection_times": "Mo-Sa 09:30", "nsi_id": "unitedstatespostalservice-a77078", "operator": "United States Postal Service", "operator:short": "USPS", "operator:type": "public", "operator:wikidata": "Q668687", "ref": "1870700007"}, "type": "Feature"}
{"geometry": {"coordinates": [-75.8996713, 41.146759], "type": "Point"}, "id": "POSKqg2pvPK8ziTkPrWqvPSRGkQ=", "properties": {"@source_uri": "https://tools.usps.com/UspsToolsRestServices/rest/POLocator/findLocations", "@spider": "usps_collection_boxes", "addr:city": "WILKES BARRE", "addr:country": "US", "addr:postcode": "18707", "addr:state": "PA", "addr:street_address": "237 S MOUNTAIN BLVD", "amenity": "post_box", "collection_times": "Mo-Sa 11:00", "nsi_id": "unitedstatespostalservice-a77078", "operator": "United States Postal Service", "operator:short": "USPS", "operator:type": "public", "operator:wikidata": "Q668687", "ref": "1870700009"}, "type": "Feature"}
{"geometry": {"coordinates": [-75.8912599, 41.155953], "type": "Point"}, "id": "i48ko4rl2Rm_A2-IHnxXoMV_Erc=", "properties": {"@source_uri": "https://tools.usps.com/UspsToolsRestServices/rest/POLocator/findLocations", "@spider": "usps_collection_boxes", "addr:city": "WILKES BARRE", "addr:country": "US", "addr:postcode": "18707", "addr:state": "PA", "addr:street_address": "101 S MOUNTAIN BLVD", "amenity": "post_box", "collection_times": "Mo-Sa 10:00", "nsi_id": "unitedstatespostalservice-a77078", "operator": "United States Postal Service", "operator:short": "USPS", "operator:type": "public", "operator:wikidata": "Q668687", "ref": "1870700010"}, "type": "Feature"}
{"geometry": {"coordinates": [-75.9195596, 41.140582], "type": "Point"}, "id": "wNiDSrgylzWdvcRy1vxogSWsuXk=", "properties": {"@source_uri": "https://tools.usps.com/UspsToolsRestServices/rest/POLocator/findLocations", "@spider": "usps_collection_boxes", "addr:city": "WILKES BARRE", "addr:country": "US", "addr:postcode": "18707", "addr:state": "PA", "addr:street_address": "4 PATRIOT WAY", "amenity": "post_box", "collection_times": "Mo-Sa 09:30", "nsi_id": "unitedstatespostalservice-a77078", "operator": "United States Postal Service", "operator:short": "USPS", "operator:type": "public", "operator:wikidata": "Q668687", "ref": "1870700011"}, "type": "Feature"}
{"geometry": {"coordinates": [-75.887954, 41.159809], "type": "Point"}, "id": "8HgQLrFnF876uoJ5Kd01zhikaho=", "properties": {"@source_uri": "https://tools.usps.com/UspsToolsRestServices/rest/POLocator/findLocations", "@spider": "usps_collection_boxes", "addr:city": "WILKES BARRE", "addr:country": "US", "addr:postcode": "18707", "addr:state": "PA", "addr:street_address": "42 S MOUNTAIN BLVD", "amenity": "post_box", "collection_times": "Mo-Fr 16:00; Sa 12:00", "indoor": "yes", "note": "ON 12/24 AND 12/31, THIS BOX MAY BE COLLECTED AS EARLY AS 12 NOON.", "nsi_id": "unitedstatespostalservice-a77078", "operator": "United States Postal Service", "operator:short": "USPS", "operator:type": "public", "operator:wikidata": "Q668687", "ref": "1870700012"}, "type": "Feature"}
{"geometry": {"coordinates": [-75.887821394, 41.159853166], "type": "Point"}, "id": "P-yf5HQilYtenJ9gZ1xws4DXl2E=", "properties": {"@source_uri": "https://tools.usps.com/UspsToolsRestServices/rest/POLocator/findLocations", "@spider": "usps_collection_boxes", "addr:city": "WILKES BARRE", "addr:country": "US", "addr:postcode": "18707", "addr:state": "PA", "addr:street_address": "42 S MOUNTAIN BLVD", "amenity": "post_box", "collection_times": "Mo-Fr 17:00; Sa 13:15", "indoor": "yes", "note": "ON 12/24 AND 12/31, THIS BOX MAY BE COLLECTED AS EARLY AS 12 NOON.", "nsi_id": "unitedstatespostalservice-a77078", "operator": "United States Postal Service", "operator:short": "USPS", "operator:type": "public", "operator:wikidata": "Q668687", "ref": "1870700013"}, "type": "Feature"}
{"geometry": {"coordinates": [-75.9388621, 41.311593], "type": "Point"}, "id": "OEdZGS8V7JQhEaQ-4yGKeIYqE-4=", "properties": {"@source_uri": "https://tools.usps.com/UspsToolsRestServices/rest/POLocator/findLocations", "@spider": "usps_collection_boxes", "addr:city": "WILKES BARRE", "addr:country": "US", "addr:postcode": "18708", "addr:state": "PA", "addr:street_address": "64 DAVIS ST", "amenity": "post_box", "collection_times": "Mo-Sa 11:00", "nsi_id": "unitedstatespostalservice-a77078", "operator": "United States Postal Service", "operator:short": "USPS", "operator:type": "public", "operator:wikidata": "Q668687", "ref": "1870800001"}, "type": "Feature"}
{"geometry": {"coordinates": [-75.9290359, 41.303042], "type": "Point"}, "id": "jG3V3-r5l52gB3UDvtXDalZsvQU=", "properties": {"@source_uri": "https://tools.usps.com/UspsToolsRestServices/rest/POLocator/findLocations", "@spider": "usps_collection_boxes", "addr:city": "WILKES BARRE", "addr:country": "US", "addr:postcode": "18708", "addr:state": "PA", "addr:street_address": "16 CARVERTON RD", "amenity": "post_box", "collection_times": "Mo-Sa 11:00", "nsi_id": "unitedstatespostalservice-a77078", "operator": "United States Postal Service", "operator:short": "USPS", "operator:type": "public", "operator:wikidata": "Q668687", "ref": "1870800002"}, "type": "Feature"}
{"geometry": {"coordinates": [-75.9415179, 41.321788], "type": "Point"}, "id": "euCx2bDnUA07qaId_ITz5-modr8=", "properties": {"@source_uri": "https://tools.usps.com/UspsToolsRestServices/rest/POLocator/findLocations", "@spider": "usps_collection_boxes", "addr:city": "WILKES BARRE", "addr:country": "US", "addr:postcode": "18708", "addr:state": "PA", "addr:street_address": "171 N MEMORIAL HWY", "amenity": "post_box", "collection_times": "Mo-Fr 17:00; Sa 12:30", "note": "ON 12/24 AND 12/31, THIS BOX MAY BE COLLECTED AS EARLY AS 12 NOON.", "nsi_id": "unitedstatespostalservice-a77078", "operator": "United States Postal Service", "operator:short": "USPS", "operator:type": "public", "operator:wikidata": "Q668687", "ref": "1870800004"}, "type": "Feature"}
{"geometry": {"coordinates": [-75.945209246, 41.325651494], "type": "Point"}, "id": "dr4IiKcldK2OgeV8vFBkZQwsh5Y=", "properties": {"@source_uri": "https://tools.usps.com/UspsToolsRestServices/rest/POLocator/findLocations", "@spider": "usps_collection_boxes", "addr:city": "WILKES BARRE", "addr:country": "US", "addr:postcode": "18708", "addr:state": "PA", "addr:street_address": "1900 MEMORIAL HWY STE 4", "amenity": "post_box", "collection_times": "Mo-Sa 10:30", "nsi_id": "unitedstatespostalservice-a77078", "operator": "United States Postal Service", "operator:short": "USPS", "operator:type": "public", "operator:wikidata": "Q668687", "ref": "1870800005"}, "type": "Feature"}
{"geometry": {"coordinates": [-75.941814, 41.322028], "type": "Point"}, "id": "9CV9D7incMOZU18i7Qnfn2mF4hA=", "properties": {"@source_uri": "https://tools.usps.com/UspsToolsRestServices/rest/POLocator/findLocations", "@spider": "usps_collection_boxes", "addr:city": "WILKES BARRE", "addr:country": "US", "addr:postcode": "18708", "addr:state": "PA", "addr:street_address": "171 N MEMORIAL HWY", "amenity": "post_box", "collection_times": "Mo-Fr 17:00; Sa 12:30", "note": "ON 12/24 AND 12/31, THIS BOX MAY BE COLLECTED AS EARLY AS 12 NOON.", "nsi_id": "unitedstatespostalservice-a77078", "operator": "United States Postal Service", "operator:short": "USPS", "operator:type": "public", "operator:wikidata": "Q668687", "ref": "1870800009"}, "type": "Feature"}
{"geometry": {"coordinates": [-75.941814, 41.322028], "type": "Point"}, "id": "yHntJ-y0EYfMEWspyeaCCjJdQ7o=", "properties": {"@source_uri": "https://tools.usps.com/UspsToolsRestServices/rest/POLocator/findLocations", "@spider": "usps_collection_boxes", "addr:city": "WILKES BARRE", "addr:country": "US", "addr:postcode": "18708", "addr:state": "PA", "addr:street_address": "171 N MEMORIAL HWY", "amenity": "post_box", "collection_times": "Mo-Fr 16:00", "indoor": "yes", "note": "ON 12/24 AND 12/31, THIS BOX MAY BE COLLECTED AS EARLY AS 12 NOON.", "nsi_id": "unitedstatespostalservice-a77078", "operator": "United States Postal Service", "operator:short": "USPS", "operator:type": "public", "operator:wikidata": "Q668687", "ref": "1870800010"}, "type": "Feature"}
{"geometry": {"coordinates": [-75.945041699, 41.325667534], "type": "Point"}, "id": "qI5CbJb0yg_3BZqaQgttVMGvRpo=", "properties": {"@source_uri": "https://tools.usps.com/UspsToolsRestServices/rest/POLocator/findLocations", "@spider": "usps_collection_boxes", "addr:city": "WILKES BARRE", "addr:country": "US", "addr:postcode": "18708", "addr:state": "PA", "addr:street_address": "1915 MEMORIAL HWY", "amenity": "post_box", "collection_times": "Mo-Fr 17:00", "indoor": "yes", "note": "ON 12/24 AND 12/31, THIS BOX MAY BE COLLECTED AS EARLY AS 12 NOON.", "nsi_id": "unitedstatespostalservice-a77078", "operator": "United States Postal Service", "operator:short": "USPS", "operator:type": "public", "operator:wikidata": "Q668687", "ref": "1870800011"}, "type": "Feature"}
{"geometry": {"coordinates": [-75.8945318, 41.285648], "type": "Point"}, "id": "joFvXolJHo5iWSDLteY2tf1lZGI=", "properties": {"@source_uri": "https://tools.usps.com/UspsToolsRestServices/rest/POLocator/findLocations", "@spider": "usps_collection_boxes", "addr:city": "WILKES BARRE", "addr:country": "US", "addr:postcode": "18709", "addr:state": "PA", "addr:street_address": "600 BENNETT ST", "amenity": "post_box", "collection_times": "Mo-Sa 10:00", "nsi_id": "unitedstatespostalservice-a77078", "operator": "United States Postal Service", "operator:short": "USPS", "operator:type": "public", "operator:wikidata": "Q668687", "ref": "1870900010"}, "type": "Feature"}
{"geometry": {"coordinates": [-75.897483, 41.282041], "type": "Point"}, "id": "KLzW4IVscdMNqVxCh8yXTOsJj2s=", "properties": {"@source_uri": "https://tools.usps.com/UspsToolsRestServices/rest/POLocator/findLocations", "@spider": "usps_collection_boxes", "addr:city": "WILKES BARRE", "addr:country": "US", "addr:postcode": "18709", "addr:state": "PA", "addr:street_address": "556 UNION ST", "amenity": "post_box", "collection_times": "Mo-Sa 10:30", "nsi_id": "unitedstatespostalservice-a77078", "operator": "United States Postal Service", "operator:short": "USPS", "operator:type": "public", "operator:wikidata": "Q668687", "ref": "1870900012"}, "type": "Feature"}
{"geometry": {"coordinates": [-75.8908462, 41.276011], "type": "Point"}, "id": "zXN3aTM3-Kv9JoD0k6tAaz2CVRY=", "properties": {"@source_uri": "https://tools.usps.com/UspsToolsRestServices/rest/POLocator/findLocations", "@spider": "usps_collection_boxes", "addr:city": "WILKES BARRE", "addr:country": "US", "addr:postcode": "18709", "addr:state": "PA", "addr:street_address": "221 UNION ST", "amenity": "post_box", "collection_times": "Mo-Sa 10:00", "nsi_id": "unitedstatespostalservice-a77078", "operator": "United States Postal Service", "operator:short": "USPS", "operator:type": "public", "operator:wikidata": "Q668687", "ref": "1870900014"}, "type": "Feature"}
{"geometry": {"coordinates": [-75.895442, 41.283535], "type": "Point"}, "id": "Iche2ZQxrQStKjz5iOUBGfee2FI=", "properties": {"@source_uri": "https://tools.usps.com/UspsToolsRestServices/rest/POLocator/findLocations", "@spider": "usps_collection_boxes", "addr:city": "WILKES BARRE", "addr:country": "US", "addr:postcode": "18709", "addr:state": "PA", "addr:street_address": "122 MAIN ST", "amenity": "post_box", "collection_times": "Mo-Sa 16:00", "note": "ON 12/24 AND 12/31, THIS BOX MAY BE COLLECTED AS EARLY AS 12 NOON.", "nsi_id": "unitedstatespostalservice-a77078", "operator": "United States Postal Service", "operator:short": "USPS", "operator:type": "public", "operator:wikidata": "Q668687", "ref": "1870900015"}, "type": "Feature"}
{"geometry": {"coordinates": [-75.895442, 41.283535], "type": "Point"}, "id": "xkEHvPChEJdsiIHJSlGYm2aUAFc=", "properties": {"@source_uri": "https://tools.usps.com/UspsToolsRestServices/rest/POLocator/findLocations", "@spider": "usps_collection_boxes", "addr:city": "WILKES BARRE", "addr:country": "US", "addr:postcode": "18709", "addr:state": "PA", "addr:street_address": "122 MAIN ST", "amenity": "post_box", "collection_times": "Mo-Fr 16:00", "indoor": "yes", "note": "ON 12/24 AND 12/31, THIS BOX MAY BE COLLECTED AS EARLY AS 12 NOON.", "nsi_id": "unitedstatespostalservice-a77078", "operator": "United States Postal Service", "operator:short": "USPS", "operator:type": "public", "operator:wikidata": "Q668687", "ref": "1870900019"}, "type": "Feature"}
{"geometry": {"coordinates": [-75.895466629, 41.283498627], "type": "Point"}, "id": "LT-fwSHW4trqZJOaJR1qHc0UIKk=", "properties": {"@source_uri": "https://tools.usps.com/UspsToolsRestServices/rest/POLocator/findLocations", "@spider": "usps_collection_boxes", "addr:city": "WILKES BARRE", "addr:country": "US", "addr:postcode": "18709", "addr:state": "PA", "addr:street_address": "122 MAIN ST", "amenity": "post_box", "collection_times": "Mo-Fr 17:00", "indoor": "yes", "note": "ON 12/24 AND 12/31, THIS BOX MAY BE COLLECTED AS EARLY AS 12 NOON.", "nsi_id": "unitedstatespostalservice-a77078", "operator": "United States Postal Service", "operator:short": "USPS", "operator:type": "public", "operator:wikidata": "Q668687", "ref": "1870900020"}, "type": "Feature"}
