{"dataset_attributes": {"@spider": "usps_collection_boxes", "spider:collection_time": "2023-11-10T08:24:40.300687"}, "geometry": {"coordinates": [-75.876299, 41.833914], "type": "Point"}, "id": "t6IuvZZjHvJpIDWjoLyqJmJxIY0=", "properties": {"@spider": "usps_collection_boxes", "addr:city": "MONTROSE", "addr:country": "US", "addr:full": "38 MONUMENT SQ", "addr:postcode": "18801", "addr:state": "PA", "amenity": "post_box", "brand": "United States Postal Service", "brand:wikidata": "Q668687", "collection_times": "Mo-Fr 17:00; Sa 14:00", "name": "USPS COLLECTION BOX - BLUE BOX", "note": "ON 12/24 AND 12/31, THIS BOX MAY BE COLLECTED AS EARLY AS 12 NOON.", "nsi_id": "unitedstatespostalservice-a77078", "operator": "United States Postal Service", "operator:short": "USPS", "operator:type": "public", "operator:wikidata": "Q668687", "ref": "1880100008"}, "type": "Feature"}
{"dataset_attributes": {"@spider": "usps_collection_boxes", "spider:collection_time": "2023-11-10T08:24:40.300687"}, "geometry": {"coordinates": [-75.8788121, 41.833405], "type": "Point"}, "id": "2qWeH5es3NPrrQwr6ufPkWq1A7k=", "properties": {"@spider": "usps_collection_boxes", "addr:city": "MONTROSE", "addr:country": "US", "addr:full": "CHURCH ST", "addr:postcode": "18801", "addr:state": "PA", "amenity": "post_box", "brand": "United States Postal Service", "brand:wikidata": "Q668687", "collection_times": "Mo-Sa 09:00", "name": "USPS COLLECTION BOX - BLUE BOX", "nsi_id": "unitedstatespostalservice-a77078", "operator": "United States Postal Service", "operator:short": "USPS", "operator:type": "public", "operator:wikidata": "Q668687", "ref": "1880100009"}, "type": "Feature"}
{"dataset_attributes": {"@spider": "usps_collection_boxes", "spider:collection_time": "2023-11-10T08:24:40.300687"}, "geometry": {"coordinates": [-75.87637, 41.83388], "type": "Point"}, "id": "bZqs6hxXWaDJY1uKV5wPJMnoWn4=", "properties": {"@spider": "usps_collection_boxes", "addr:city": "MONTROSE", "addr:country": "US", "addr:full": "38 MONUMENT SQ", "addr:postcode": "18801", "addr:state": "PA", "amenity": "post_box", "brand": "United States Postal Service", "brand:wikidata": "Q668687", "collection_times": "Mo-Fr 17:00; Sa 14:00", "name": "USPS COLLECTION BOX - PO LOBBY", "note": "ON 12/24 AND 12/31, THIS BOX MAY BE COLLECTED AS EARLY AS 12 NOON.", "nsi_id": "unitedstatespostalservice-a77078", "operator": "United States Postal Service", "operator:short": "USPS", "operator:type": "public", "operator:wikidata": "Q668687", "ref": "1880100019"}, "type": "Feature"}
{"dataset_attributes": {"@spider": "usps_collection_boxes", "spider:collection_time": "2023-11-10T08:24:40.300687"}, "geometry": {"coordinates": [-75.8776926, 41.833802], "type": "Point"}, "id": "ygIPLpDFZA1ZkqQLTPaMxAaHvGc=", "properties": {"@spider": "usps_collection_boxes", "addr:city": "MONTROSE", "addr:country": "US", "addr:full": "29 PUBLIC AVE", "addr:postcode": "18801", "addr:state": "PA", "amenity": "post_box", "brand": "United States Postal Service", "brand:wikidata": "Q668687", "collection_times": "Mo-Sa 12:00", "name": "USPS COLLECTION BOX - BLUE BOX", "nsi_id": "unitedstatespostalservice-a77078", "operator": "United States Postal Service", "operator:short": "USPS", "operator:type": "public", "operator:wikidata": "Q668687", "ref": "1880100021"}, "type": "Feature"}
{"dataset_attributes": {"@spider": "usps_collection_boxes", "spider:collection_time": "2023-11-10T08:24:40.300687"}, "geometry": {"coordinates": [-75.876296377, 41.833865843], "type": "Point"}, "id": "Zj5e5_lz62-bo6v5OXiJKPubWv4=", "properties": {"@spider": "usps_collection_boxes", "addr:city": "MONTROSE", "addr:country": "US", "addr:full": "38 MONUMENT SQ", "addr:postcode": "18801", "addr:state": "PA", "amenity": "post_box", "brand": "United States Postal Service", "brand:wikidata": "Q668687", "collection_times": "Mo-Fr 17:15; Sa 12:15", "name": "USPS COLLECTION BOX - PO LOBBY", "note": "ON 12/24 AND 12/31, THIS BOX MAY BE COLLECTED AS EARLY AS 12 NOON.", "nsi_id": "unitedstatespostalservice-a77078", "operator": "United States Postal Service", "operator:short": "USPS", "operator:type": "public", "operator:wikidata": "Q668687", "ref": "1880100023"}, "type": "Feature"}
{"dataset_attributes": {"@spider": "usps_collection_boxes", "spider:collection_time": "2023-11-10T08:24:40.300687"}, "geometry": {"coordinates": [-76.518469, 41.957623], "type": "Point"}, "id": "6W784NlztQxk9kX5hCnJbe6mFNA=", "properties": {"@spider": "usps_collection_boxes", "addr:city": "ATHENS", "addr:country": "US", "addr:full": "301 S MAIN ST", "addr:postcode": "18810", "addr:state": "PA", "amenity": "post_box", "brand": "United States Postal Service", "brand:wikidata": "Q668687", "collection_times": "Mo-Fr 16:30; Sa 12:00", "name": "USPS COLLECTION BOX - BLUE BOX", "note": "ON 12/24 AND 12/31, THIS BOX MAY BE COLLECTED AS EARLY AS 12 NOON.", "nsi_id": "unitedstatespostalservice-a77078", "operator": "United States Postal Service", "operator:short": "USPS", "operator:type": "public", "operator:wikidata": "Q668687", "ref": "1881000010"}, "type": "Feature"}
{"dataset_attributes": {"@spider": "usps_collection_boxes", "spider:collection_time": "2023-11-10T08:24:40.300687"}, "geometry": {"coordinates": [-76.5189144, 41.957808], "type": "Point"}, "id": "ORA45WnRBXmO9GGjYD6RUGoloc4=", "properties": {"@spider": "usps_collection_boxes", "addr:city": "ATHENS", "addr:country": "US", "addr:full": "103 CENTRAL AVE", "addr:postcode": "18810", "addr:state": "PA", "amenity": "post_box", "brand": "United States Postal Service", "brand:wikidata": "Q668687", "collection_times": "Mo-Fr 15:30; Sa 12:00", "name": "USPS COLLECTION BOX - BLUE BOX", "note": "ON 12/24 AND 12/31, THIS BOX MAY BE COLLECTED AS EARLY AS 12 NOON.", "nsi_id": "unitedstatespostalservice-a77078", "operator": "United States Postal Service", "operator:short": "USPS", "operator:type": "public", "operator:wikidata": "Q668687", "ref": "1881000017"}, "type": "Feature"}
{"dataset_attributes": {"@spider": "usps_collection_boxes", "spider:collection_time": "2023-11-10T08:24:40.300687"}, "geometry": {"coordinates": [-76.518539, 41.957703], "type": "Point"}, "id": "eOV0zJAP8uJvl9eAjDWWNVGuJdE=", "properties": {"@spider": "usps_collection_boxes", "addr:city": "ATHENS", "addr:country": "US", "addr:full": "301 S MAIN ST", "addr:postcode": "18810", "addr:state": "PA", "amenity": "post_box", "brand": "United States Postal Service", "brand:wikidata": "Q668687", "collection_times": "Mo-Fr 16:30; Sa 12:00", "name": "USPS COLLECTION BOX - PO LOBBY", "note": "ON 12/24 AND 12/31, THIS BOX MAY BE COLLECTED AS EARLY AS 12 NOON.", "nsi_id": "unitedstatespostalservice-a77078", "operator": "United States Postal Service", "operator:short": "USPS", "operator:type": "public", "operator:wikidata": "Q668687", "ref": "1881000035"}, "type": "Feature"}
{"dataset_attributes": {"@spider": "usps_collection_boxes", "spider:collection_time": "2023-11-10T08:24:40.300687"}, "geometry": {"coordinates": [-76.518436523, 41.957500882], "type": "Point"}, "id": "7SLcfN3t-7DQqiBMNGFKNwDEZx8=", "properties": {"@spider": "usps_collection_boxes", "addr:city": "ATHENS", "addr:country": "US", "addr:full": "301 S MAIN ST", "addr:postcode": "18810", "addr:state": "PA", "amenity": "post_box", "brand": "United States Postal Service", "brand:wikidata": "Q668687", "collection_times": "Mo-Fr 17:00; Sa 12:00", "name": "USPS COLLECTION BOX - PO LOBBY", "note": "ON 12/24 AND 12/31, THIS BOX MAY BE COLLECTED AS EARLY AS 12 NOON.", "nsi_id": "unitedstatespostalservice-a77078", "operator": "United States Postal Service", "operator:short": "USPS", "operator:type": "public", "operator:wikidata": "Q668687", "ref": "1881000037"}, "type": "Feature"}
{"dataset_attributes": {"@spider": "usps_collection_boxes", "spider:collection_time": "2023-11-10T08:24:40.300687"}, "geometry": {"coordinates": [-75.940286, 41.970918], "type": "Point"}, "id": "GJxMPOzUToPrVAHy33XNwPWtX3A=", "properties": {"@spider": "usps_collection_boxes", "addr:city": "BRACKNEY", "addr:country": "US", "addr:full": "3566 QUAKER LAKE RD", "addr:postcode": "18812", "addr:state": "PA", "amenity": "post_box", "brand": "United States Postal Service", "brand:wikidata": "Q668687", "collection_times": "Mo-Fr 16:00; Sa 11:00", "name": "USPS COLLECTION BOX - BLUE BOX", "note": "ON 12/24 AND 12/31, THIS BOX MAY BE COLLECTED AS EARLY AS 12 NOON.", "nsi_id": "unitedstatespostalservice-a77078", "operator": "United States Postal Service", "operator:short": "USPS", "operator:type": "public", "operator:wikidata": "Q668687", "ref": "1881200001"}, "type": "Feature"}
{"dataset_attributes": {"@spider": "usps_collection_boxes", "spider:collection_time": "2023-11-10T08:24:40.300687"}, "geometry": {"coordinates": [-75.94022, 41.970947], "type": "Point"}, "id": "hXwndydRLqxQJSTG7cpql4AXhPs=", "properties": {"@spider": "usps_collection_boxes", "addr:city": "BRACKNEY", "addr:country": "US", "addr:full": "3566 QUAKER LAKE RD", "addr:postcode": "18812", "addr:state": "PA", "amenity": "post_box", "brand": "United States Postal Service", "brand:wikidata": "Q668687", "collection_times": "Mo-Fr 16:00; Sa 11:00", "name": "USPS COLLECTION BOX - PO LOBBY", "note": "ON 12/24 AND 12/31, THIS BOX MAY BE COLLECTED AS EARLY AS 12 NOON.", "nsi_id": "unitedstatespostalservice-a77078", "operator": "United States Postal Service", "operator:short": "USPS", "operator:type": "public", "operator:wikidata": "Q668687", "ref": "1881200003"}, "type": "Feature"}
{"dataset_attributes": {"@spider": "usps_collection_boxes", "spider:collection_time": "2023-11-10T08:24:40.300687"}, "geometry": {"coordinates": [-75.940259537, 41.970857519], "type": "Point"}, "id": "F-bc-f6gzAd-KKEjEfKKObHdWfA=", "properties": {"@spider": "usps_collection_boxes", "addr:city": "BRACKNEY", "addr:country": "US", "addr:full": "3566 QUAKER LAKE RD", "addr:postcode": "18812", "addr:state": "PA", "amenity": "post_box", "brand": "United States Postal Service", "brand:wikidata": "Q668687", "collection_times": "Mo-Fr 16:00; Sa 11:30", "name": "USPS COLLECTION BOX - PO LOBBY", "note": "ON 12/24 AND 12/31, THIS BOX MAY BE COLLECTED AS EARLY AS 12 NOON.", "nsi_id": "unitedstatespostalservice-a77078", "operator": "United States Postal Service", "operator:short": "USPS", "operator:type": "public", "operator:wikidata": "Q668687", "ref": "1881200005"}, "type": "Feature"}
{"dataset_attributes": {"@spider": "usps_collection_boxes", "spider:collection_time": "2023-11-10T08:24:40.300687"}, "geometry": {"coordinates": [-75.807083154, 41.752828964], "type": "Point"}, "id": "jCypo1ErgQ9YPcBSTfap5L3v_UA=", "properties": {"@spider": "usps_collection_boxes", "addr:city": "BROOKLYN", "addr:country": "US", "addr:full": "6994 MAPLE ST", "addr:postcode": "18813", "addr:state": "PA", "amenity": "post_box", "brand": "United States Postal Service", "brand:wikidata": "Q668687", "collection_times": "Mo-Fr 12:00; Sa 13:00", "name": "USPS COLLECTION BOX - BLUE BOX", "note": "ON 12/24 AND 12/31, THIS BOX MAY BE COLLECTED AS EARLY AS 12 NOON.", "nsi_id": "unitedstatespostalservice-a77078", "operator": "United States Postal Service", "operator:short": "USPS", "operator:type": "public", "operator:wikidata": "Q668687", "ref": "1881300005"}, "type": "Feature"}
{"dataset_attributes": {"@spider": "usps_collection_boxes", "spider:collection_time": "2023-11-10T08:24:40.300687"}, "geometry": {"coordinates": [-75.807083154, 41.752828964], "type": "Point"}, "id": "-1ZmohyyEmgxAppqipAFLkyhw_o=", "properties": {"@spider": "usps_collection_boxes", "addr:city": "BROOKLYN", "addr:country": "US", "addr:full": "6994 MAPLE ST", "addr:postcode": "18813", "addr:state": "PA", "amenity": "post_box", "brand": "United States Postal Service", "brand:wikidata": "Q668687", "collection_times": "Mo-Fr 12:00; Sa 13:00", "name": "USPS COLLECTION BOX - PO LOBBY", "note": "ON 12/24 AND 12/31, THIS BOX MAY BE COLLECTED AS EARLY AS 12 NOON.", "nsi_id": "unitedstatespostalservice-a77078", "operator": "United States Postal Service", "operator:short": "USPS", "operator:type": "public", "operator:wikidata": "Q668687", "ref": "1881300006"}, "type": "Feature"}
{"dataset_attributes": {"@spider": "usps_collection_boxes", "spider:collection_time": "2023-11-10T08:24:40.300687"}, "geometry": {"coordinates": [-76.604821, 41.780861], "type": "Point"}, "id": "HiwUfrVNGXHQ-gC-dAST1C6sQ4g=", "properties": {"@spider": "usps_collection_boxes", "addr:city": "BURLINGTON", "addr:country": "US", "addr:full": "16658 ROUTE 6", "addr:postcode": "18814", "addr:state": "PA", "amenity": "post_box", "brand": "United States Postal Service", "brand:wikidata": "Q668687", "collection_times": "Mo-Fr 16:00; Sa 11:45", "name": "USPS COLLECTION BOX - BLUE BOX", "note": "ON 12/24 AND 12/31, THIS BOX MAY BE COLLECTED AS EARLY AS 12 NOON.", "nsi_id": "unitedstatespostalservice-a77078", "operator": "United States Postal Service", "operator:short": "USPS", "operator:type": "public", "operator:wikidata": "Q668687", "ref": "1881400001"}, "type": "Feature"}
{"dataset_attributes": {"@spider": "usps_collection_boxes", "spider:collection_time": "2023-11-10T08:24:40.300687"}, "geometry": {"coordinates": [-76.604821, 41.780861], "type": "Point"}, "id": "kx1eA2vIWVXNT0eMYbTDw_LGlJ0=", "properties": {"@spider": "usps_collection_boxes", "addr:city": "BURLINGTON", "addr:country": "US", "addr:full": "16658 ROUTE 6 ST", "addr:postcode": "18814", "addr:state": "PA", "amenity": "post_box", "brand": "United States Postal Service", "brand:wikidata": "Q668687", "collection_times": "Mo-Fr 16:00; Sa 11:45", "name": "USPS COLLECTION BOX - PO LOBBY", "note": "ON 12/24 AND 12/31, THIS BOX MAY BE COLLECTED AS EARLY AS 12 NOON.", "nsi_id": "unitedstatespostalservice-a77078", "operator": "United States Postal Service", "operator:short": "USPS", "operator:type": "public", "operator:wikidata": "Q668687", "ref": "1881400002"}, "type": "Feature"}
{"dataset_attributes": {"@spider": "usps_collection_boxes", "spider:collection_time": "2023-11-10T08:24:40.300687"}, "geometry": {"coordinates": [-76.60866284, 41.778770354], "type": "Point"}, "id": "t-mLCnxN1c202HaY3HMMM5MVHUA=", "properties": {"@spider": "usps_collection_boxes", "addr:city": "BURLINGTON", "addr:country": "US", "addr:full": "16658 ROUTE 6", "addr:postcode": "18814", "addr:state": "PA", "amenity": "post_box", "brand": "United States Postal Service", "brand:wikidata": "Q668687", "collection_times": "Mo-Fr 16:30; Sa 14:30", "name": "USPS COLLECTION BOX - PO LOBBY", "note": "ON 12/24 AND 12/31, THIS BOX MAY BE COLLECTED AS EARLY AS 12 NOON.", "nsi_id": "unitedstatespostalservice-a77078", "operator": "United States Postal Service", "operator:short": "USPS", "operator:type": "public", "operator:wikidata": "Q668687", "ref": "1881400004"}, "type": "Feature"}
{"dataset_attributes": {"@spider": "usps_collection_boxes", "spider:collection_time": "2023-11-10T08:24:40.300687"}, "geometry": {"coordinates": [-75.898511, 41.746117], "type": "Point"}, "id": "8oJ2M_44U5ykxUiiUbhpqZgvc2Q=", "properties": {"@spider": "usps_collection_boxes", "addr:city": "DIMOCK", "addr:country": "US", "addr:full": "7473 STATE ROUTE 29", "addr:postcode": "18816", "addr:state": "PA", "amenity": "post_box", "brand": "United States Postal Service", "brand:wikidata": "Q668687", "collection_times": "Mo-Fr 16:30; Sa 11:15", "name": "USPS COLLECTION BOX - BLUE BOX", "note": "ON 12/24 AND 12/31, THIS BOX MAY BE COLLECTED AS EARLY AS 12 NOON.", "nsi_id": "unitedstatespostalservice-a77078", "operator": "United States Postal Service", "operator:short": "USPS", "operator:type": "public", "operator:wikidata": "Q668687", "ref": "1881600001"}, "type": "Feature"}
{"dataset_attributes": {"@spider": "usps_collection_boxes", "spider:collection_time": "2023-11-10T08:24:40.300687"}, "geometry": {"coordinates": [-75.898479, 41.746185], "type": "Point"}, "id": "2etgFtLyL-SL0AH6ic84ViZ8e_Y=", "properties": {"@spider": "usps_collection_boxes", "addr:city": "DIMOCK", "addr:country": "US", "addr:full": "7473 STATE ROUTE 29", "addr:postcode": "18816", "addr:state": "PA", "amenity": "post_box", "brand": "United States Postal Service", "brand:wikidata": "Q668687", "collection_times": "Mo-Fr 16:30; Sa 11:15", "name": "USPS COLLECTION BOX - PO LOBBY", "note": "ON 12/24 AND 12/31, THIS BOX MAY BE COLLECTED AS EARLY AS 12 NOON.", "nsi_id": "unitedstatespostalservice-a77078", "operator": "United States Postal Service", "operator:short": "USPS", "operator:type": "public", "operator:wikidata": "Q668687", "ref": "1881600002"}, "type": "Feature"}
{"dataset_attributes": {"@spider": "usps_collection_boxes", "spider:collection_time": "2023-11-10T08:24:40.300687"}, "geometry": {"coordinates": [-75.898534674, 41.74613435], "type": "Point"}, "id": "eLdIsG2s3W8nNFbm6KHyIGlAHYo=", "properties": {"@spider": "usps_collection_boxes", "addr:city": "DIMOCK", "addr:country": "US", "addr:full": "7473 STATE ROUTE 29", "addr:postcode": "18816", "addr:state": "PA", "amenity": "post_box", "brand": "United States Postal Service", "brand:wikidata": "Q668687", "collection_times": "Mo-Fr 16:30; Sa 11:30", "name": "USPS COLLECTION BOX - PO LOBBY", "note": "ON 12/24 AND 12/31, THIS BOX MAY BE COLLECTED AS EARLY AS 12 NOON.", "nsi_id": "unitedstatespostalservice-a77078", "operator": "United States Postal Service", "operator:short": "USPS", "operator:type": "public", "operator:wikidata": "Q668687", "ref": "1881600004"}, "type": "Feature"}
{"dataset_attributes": {"@spider": "usps_collection_boxes", "spider:collection_time": "2023-11-10T08:24:40.300687"}, "geometry": {"coordinates": [-76.6262344, 41.863206], "type": "Point"}, "id": "GSLHmyD39rIG3uIhpk5CTiguKEo=", "properties": {"@spider": "usps_collection_boxes", "addr:city": "EAST SMITHFIELD", "addr:country": "US", "addr:full": "30 VILLAGE GREEN WAY", "addr:postcode": "18817", "addr:state": "PA", "amenity": "post_box", "brand": "United States Postal Service", "brand:wikidata": "Q668687", "collection_times": "Mo-Sa 12:00", "name": "USPS COLLECTION BOX - BLUE BOX", "nsi_id": "unitedstatespostalservice-a77078", "operator": "United States Postal Service", "operator:short": "USPS", "operator:type": "public", "operator:wikidata": "Q668687", "ref": "1881700001"}, "type": "Feature"}
{"dataset_attributes": {"@spider": "usps_collection_boxes", "spider:collection_time": "2023-11-10T08:24:40.300687"}, "geometry": {"coordinates": [-76.62659, 41.863691], "type": "Point"}, "id": "uT16Acl9Hxvmd_pv4k5NxlGs-nc=", "properties": {"@spider": "usps_collection_boxes", "addr:city": "EAST SMITHFIELD", "addr:country": "US", "addr:full": "30 VILLAGE GREEN WAY", "addr:postcode": "18817", "addr:state": "PA", "amenity": "post_box", "brand": "United States Postal Service", "brand:wikidata": "Q668687", "collection_times": "Mo-Sa 12:00", "name": "USPS COLLECTION BOX - PO LOBBY", "nsi_id": "unitedstatespostalservice-a77078", "operator": "United States Postal Service", "operator:short": "USPS", "operator:type": "public", "operator:wikidata": "Q668687", "ref": "1881700002"}, "type": "Feature"}
{"dataset_attributes": {"@spider": "usps_collection_boxes", "spider:collection_time": "2023-11-10T08:24:40.300687"}, "geometry": {"coordinates": [-76.626540186, 41.863607056], "type": "Point"}, "id": "8OsXKdzcD3CsHt9d-dstXtwgPs8=", "properties": {"@spider": "usps_collection_boxes", "addr:city": "EAST SMITHFIELD", "addr:country": "US", "addr:full": "30 VILLAGE GREEN WAY", "addr:postcode": "18817", "addr:state": "PA", "amenity": "post_box", "brand": "United States Postal Service", "brand:wikidata": "Q668687", "collection_times": "Mo-Sa 12:00", "name": "USPS COLLECTION BOX - PO LOBBY", "nsi_id": "unitedstatespostalservice-a77078", "operator": "United States Postal Service", "operator:short": "USPS", "operator:type": "public", "operator:wikidata": "Q668687", "ref": "1881700004"}, "type": "Feature"}
{"dataset_attributes": {"@spider": "usps_collection_boxes", "spider:collection_time": "2023-11-10T08:24:40.300687"}, "geometry": {"coordinates": [-76.04692, 41.918542], "type": "Point"}, "id": "_e3uRE00T6UEWcQUO8k5dXz2uGc=", "properties": {"@spider": "usps_collection_boxes", "addr:city": "FRIENDSVILLE", "addr:country": "US", "addr:full": "61 CROSS ST", "addr:postcode": "18818", "addr:state": "PA", "amenity": "post_box", "brand": "United States Postal Service", "brand:wikidata": "Q668687", "collection_times": "Mo-Sa 11:15", "name": "USPS COLLECTION BOX - BLUE BOX", "nsi_id": "unitedstatespostalservice-a77078", "operator": "United States Postal Service", "operator:short": "USPS", "operator:type": "public", "operator:wikidata": "Q668687", "ref": "1881800001"}, "type": "Feature"}
{"dataset_attributes": {"@spider": "usps_collection_boxes", "spider:collection_time": "2023-11-10T08:24:40.300687"}, "geometry": {"coordinates": [-76.0470125, 41.91842], "type": "Point"}, "id": "CUrHUD1yG8kVyWw_SkO6tR3fA5w=", "properties": {"@spider": "usps_collection_boxes", "addr:city": "FRIENDSVILLE", "addr:country": "US", "addr:full": "61 CROSS ST", "addr:postcode": "18818", "addr:state": "PA", "amenity": "post_box", "brand": "United States Postal Service", "brand:wikidata": "Q668687", "collection_times": "Mo-Sa 11:15", "name": "USPS COLLECTION BOX - PO LOBBY", "nsi_id": "unitedstatespostalservice-a77078", "operator": "United States Postal Service", "operator:short": "USPS", "operator:type": "public", "operator:wikidata": "Q668687", "ref": "1881800004"}, "type": "Feature"}
{"dataset_attributes": {"@spider": "usps_collection_boxes", "spider:collection_time": "2023-11-10T08:24:40.300687"}, "geometry": {"coordinates": [-76.046719514, 41.918603142], "type": "Point"}, "id": "w7dNvDQrzNZGiegnu0iylvBF0Uw=", "properties": {"@spider": "usps_collection_boxes", "addr:city": "FRIENDSVILLE", "addr:country": "US", "addr:full": "61 CROSS ST", "addr:postcode": "18818", "addr:state": "PA", "amenity": "post_box", "brand": "United States Postal Service", "brand:wikidata": "Q668687", "collection_times": "Mo-Sa 11:30", "name": "USPS COLLECTION BOX - PO LOBBY", "nsi_id": "unitedstatespostalservice-a77078", "operator": "United States Postal Service", "operator:short": "USPS", "operator:type": "public", "operator:wikidata": "Q668687", "ref": "1881800006"}, "type": "Feature"}
{"dataset_attributes": {"@spider": "usps_collection_boxes", "spider:collection_time": "2023-11-10T08:24:40.300687"}, "geometry": {"coordinates": [-75.648334766, 41.802340111], "type": "Point"}, "id": "z1VXebhzQ65IaEzTdGJdM3WC630=", "properties": {"@spider": "usps_collection_boxes", "addr:city": "GIBSON", "addr:country": "US", "addr:full": "7337 STATE ROUTE 547", "addr:postcode": "18820", "addr:state": "PA", "amenity": "post_box", "brand": "United States Postal Service", "brand:wikidata": "Q668687", "collection_times": "Mo-Fr 15:15; Sa 11:45", "name": "USPS COLLECTION BOX - BLUE BOX", "note": "ON 12/24 AND 12/31, THIS BOX MAY BE COLLECTED AS EARLY AS 12 NOON.", "nsi_id": "unitedstatespostalservice-a77078", "operator": "United States Postal Service", "operator:short": "USPS", "operator:type": "public", "operator:wikidata": "Q668687", "ref": "1882000004"}, "type": "Feature"}
{"dataset_attributes": {"@spider": "usps_collection_boxes", "spider:collection_time": "2023-11-10T08:24:40.300687"}, "geometry": {"coordinates": [-75.648334766, 41.802340111], "type": "Point"}, "id": "8rMC1au4z_o0VFVihLdgZpHzby8=", "properties": {"@spider": "usps_collection_boxes", "addr:city": "GIBSON", "addr:country": "US", "addr:full": "7337 STATE ROUTE 547", "addr:postcode": "18820", "addr:state": "PA", "amenity": "post_box", "brand": "United States Postal Service", "brand:wikidata": "Q668687", "collection_times": "Mo-Fr 15:15; Sa 11:45", "name": "USPS COLLECTION BOX - PO LOBBY", "note": "ON 12/24 AND 12/31, THIS BOX MAY BE COLLECTED AS EARLY AS 12 NOON.", "nsi_id": "unitedstatespostalservice-a77078", "operator": "United States Postal Service", "operator:short": "USPS", "operator:type": "public", "operator:wikidata": "Q668687", "ref": "1882000005"}, "type": "Feature"}
{"dataset_attributes": {"@spider": "usps_collection_boxes", "spider:collection_time": "2023-11-10T08:24:40.300687"}, "geometry": {"coordinates": [-75.648334766, 41.802340111], "type": "Point"}, "id": "-AUHePBszjuqWiiHqlr8faoS7zs=", "properties": {"@spider": "usps_collection_boxes", "addr:city": "GIBSON", "addr:country": "US", "addr:full": "7337 STATE ROUTE 547", "addr:postcode": "18820", "addr:state": "PA", "amenity": "post_box", "brand": "United States Postal Service", "brand:wikidata": "Q668687", "collection_times": "Mo-Fr 15:35; Sa 11:50", "name": "USPS COLLECTION BOX - PO LOBBY", "note": "ON 12/24 AND 12/31, THIS BOX MAY BE COLLECTED AS EARLY AS 12 NOON.", "nsi_id": "unitedstatespostalservice-a77078", "operator": "United States Postal Service", "operator:short": "USPS", "operator:type": "public", "operator:wikidata": "Q668687", "ref": "1882000007"}, "type": "Feature"}
{"dataset_attributes": {"@spider": "usps_collection_boxes", "spider:collection_time": "2023-11-10T08:24:40.300687"}, "geometry": {"coordinates": [-75.743826, 41.972101], "type": "Point"}, "id": "B2obM7cy7JkKjZP-8k7ZtpVg7Eg=", "properties": {"@spider": "usps_collection_boxes", "addr:city": "GREAT BEND", "addr:country": "US", "addr:full": "260 MAIN ST", "addr:postcode": "18821", "addr:state": "PA", "amenity": "post_box", "brand": "United States Postal Service", "brand:wikidata": "Q668687", "collection_times": "Mo-Fr 12:30; Sa 10:00", "name": "USPS COLLECTION BOX - PO LOBBY", "note": "ON 12/24 AND 12/31, THIS BOX MAY BE COLLECTED AS EARLY AS 12 NOON.", "nsi_id": "unitedstatespostalservice-a77078", "operator": "United States Postal Service", "operator:short": "USPS", "operator:type": "public", "operator:wikidata": "Q668687", "ref": "1882100002"}, "type": "Feature"}
{"dataset_attributes": {"@spider": "usps_collection_boxes", "spider:collection_time": "2023-11-10T08:24:40.300687"}, "geometry": {"coordinates": [-75.743805589, 41.972115706], "type": "Point"}, "id": "sJ-3yBxWNG1RhXo3atXIJL6K-C8=", "properties": {"@spider": "usps_collection_boxes", "addr:city": "GREAT BEND", "addr:country": "US", "addr:full": "260 MAIN ST", "addr:postcode": "18821", "addr:state": "PA", "amenity": "post_box", "brand": "United States Postal Service", "brand:wikidata": "Q668687", "collection_times": "Mo-Fr 12:30; Sa 10:00", "name": "USPS COLLECTION BOX - PO LOBBY", "note": "ON 12/24 AND 12/31, THIS BOX MAY BE COLLECTED AS EARLY AS 12 NOON.", "nsi_id": "unitedstatespostalservice-a77078", "operator": "United States Postal Service", "operator:short": "USPS", "operator:type": "public", "operator:wikidata": "Q668687", "ref": "1882100005"}, "type": "Feature"}
{"dataset_attributes": {"@spider": "usps_collection_boxes", "spider:collection_time": "2023-11-10T08:24:40.300687"}, "geometry": {"coordinates": [-75.7436615, 41.960674], "type": "Point"}, "id": "QI5xdoft6mvTTiZTgZcPzF1rvO8=", "properties": {"@spider": "usps_collection_boxes", "addr:city": "HALLSTEAD", "addr:country": "US", "addr:full": "587 MAIN ST", "addr:postcode": "18822", "addr:state": "PA", "amenity": "post_box", "brand": "United States Postal Service", "brand:wikidata": "Q668687", "collection_times": "Mo-Fr 17:00; Sa 12:15", "name": "USPS COLLECTION BOX - BLUE BOX", "note": "ON 12/24 AND 12/31, THIS BOX MAY BE COLLECTED AS EARLY AS 12 NOON.", "nsi_id": "unitedstatespostalservice-a77078", "operator": "United States Postal Service", "operator:short": "USPS", "operator:type": "public", "operator:wikidata": "Q668687", "ref": "1882200001"}, "type": "Feature"}
{"dataset_attributes": {"@spider": "usps_collection_boxes", "spider:collection_time": "2023-11-10T08:24:40.300687"}, "geometry": {"coordinates": [-75.7436971, 41.960515], "type": "Point"}, "id": "ZHvksRDLPjw7u7jW2CJQmA2JxMo=", "properties": {"@spider": "usps_collection_boxes", "addr:city": "HALLSTEAD", "addr:country": "US", "addr:full": "587 MAIN ST", "addr:postcode": "18822", "addr:state": "PA", "amenity": "post_box", "brand": "United States Postal Service", "brand:wikidata": "Q668687", "collection_times": "Mo-Fr 17:00; Sa 12:15", "name": "USPS COLLECTION BOX - PO LOBBY", "note": "ON 12/24 AND 12/31, THIS BOX MAY BE COLLECTED AS EARLY AS 12 NOON.", "nsi_id": "unitedstatespostalservice-a77078", "operator": "United States Postal Service", "operator:short": "USPS", "operator:type": "public", "operator:wikidata": "Q668687", "ref": "1882200004"}, "type": "Feature"}
{"dataset_attributes": {"@spider": "usps_collection_boxes", "spider:collection_time": "2023-11-10T08:24:40.300687"}, "geometry": {"coordinates": [-75.7394312, 41.965372], "type": "Point"}, "id": "r5Y-W4gseZ7hr7uwvwO6WGJLpFI=", "properties": {"@spider": "usps_collection_boxes", "addr:city": "HALLSTEAD", "addr:country": "US", "addr:full": "25066 SR 11 STE 7", "addr:postcode": "18822", "addr:state": "PA", "amenity": "post_box", "brand": "United States Postal Service", "brand:wikidata": "Q668687", "collection_times": "Mo-Sa 13:15", "name": "USPS COLLECTION BOX - BLUE BOX", "note": "ON 12/24 AND 12/31, THIS BOX MAY BE COLLECTED AS EARLY AS 12 NOON.", "nsi_id": "unitedstatespostalservice-a77078", "operator": "United States Postal Service", "operator:short": "USPS", "operator:type": "public", "operator:wikidata": "Q668687", "ref": "1882200005"}, "type": "Feature"}
{"dataset_attributes": {"@spider": "usps_collection_boxes", "spider:collection_time": "2023-11-10T08:24:40.300687"}, "geometry": {"coordinates": [-75.743523992, 41.960700039], "type": "Point"}, "id": "qVrW493SpjolVf_x9Lt9WG3F1hQ=", "properties": {"@spider": "usps_collection_boxes", "addr:city": "HALLSTEAD", "addr:country": "US", "addr:full": "587 MAIN ST", "addr:postcode": "18822", "addr:state": "PA", "amenity": "post_box", "brand": "United States Postal Service", "brand:wikidata": "Q668687", "collection_times": "Mo-Fr 17:05; Sa 12:15", "name": "USPS COLLECTION BOX - PO LOBBY", "note": "ON 12/24 AND 12/31, THIS BOX MAY BE COLLECTED AS EARLY AS 12 NOON.", "nsi_id": "unitedstatespostalservice-a77078", "operator": "United States Postal Service", "operator:short": "USPS", "operator:type": "public", "operator:wikidata": "Q668687", "ref": "1882200007"}, "type": "Feature"}
{"dataset_attributes": {"@spider": "usps_collection_boxes", "spider:collection_time": "2023-11-10T08:24:40.300687"}, "geometry": {"coordinates": [-75.76599, 41.705603], "type": "Point"}, "id": "8j0s5h-m5nBZmauxj-KULdKpYS8=", "properties": {"@spider": "usps_collection_boxes", "addr:city": "HOP BOTTOM", "addr:country": "US", "addr:full": "84 MAIN ST", "addr:postcode": "18824", "addr:state": "PA", "amenity": "post_box", "brand": "United States Postal Service", "brand:wikidata": "Q668687", "collection_times": "Mo-Fr 15:45; Sa 11:30", "name": "USPS COLLECTION BOX - BLUE BOX", "note": "ON 12/24 AND 12/31, THIS BOX MAY BE COLLECTED AS EARLY AS 12 NOON.", "nsi_id": "unitedstatespostalservice-a77078", "operator": "United States Postal Service", "operator:short": "USPS", "operator:type": "public", "operator:wikidata": "Q668687", "ref": "1882400001"}, "type": "Feature"}
{"dataset_attributes": {"@spider": "usps_collection_boxes", "spider:collection_time": "2023-11-10T08:24:40.300687"}, "geometry": {"coordinates": [-75.766038, 41.705621], "type": "Point"}, "id": "ZEGMe8xy0O30hwQBph97AHrzccc=", "properties": {"@spider": "usps_collection_boxes", "addr:city": "HOP BOTTOM", "addr:country": "US", "addr:full": "84 MAIN ST", "addr:postcode": "18824", "addr:state": "PA", "amenity": "post_box", "brand": "United States Postal Service", "brand:wikidata": "Q668687", "collection_times": "Mo-Fr 15:45; Sa 11:30", "name": "USPS COLLECTION BOX - PO LOBBY", "note": "ON 12/24 AND 12/31, THIS BOX MAY BE COLLECTED AS EARLY AS 12 NOON.", "nsi_id": "unitedstatespostalservice-a77078", "operator": "United States Postal Service", "operator:short": "USPS", "operator:type": "public", "operator:wikidata": "Q668687", "ref": "1882400002"}, "type": "Feature"}
{"dataset_attributes": {"@spider": "usps_collection_boxes", "spider:collection_time": "2023-11-10T08:24:40.300687"}, "geometry": {"coordinates": [-75.766004556, 41.705546974], "type": "Point"}, "id": "2g8IkpqWPplafNUGvUqakMOQEv4=", "properties": {"@spider": "usps_collection_boxes", "addr:city": "HOP BOTTOM", "addr:country": "US", "addr:full": "84 MAIN ST", "addr:postcode": "18824", "addr:state": "PA", "amenity": "post_box", "brand": "United States Postal Service", "brand:wikidata": "Q668687", "collection_times": "Mo-Fr 15:45; Sa 11:30", "name": "USPS COLLECTION BOX - PO LOBBY", "note": "ON 12/24 AND 12/31, THIS BOX MAY BE COLLECTED AS EARLY AS 12 NOON.", "nsi_id": "unitedstatespostalservice-a77078", "operator": "United States Postal Service", "operator:short": "USPS", "operator:type": "public", "operator:wikidata": "Q668687", "ref": "1882400004"}, "type": "Feature"}
{"dataset_attributes": {"@spider": "usps_collection_boxes", "spider:collection_time": "2023-11-10T08:24:40.300687"}, "geometry": {"coordinates": [-75.593055, 41.843078], "type": "Point"}, "id": "UGiP3Hp_Culx5gFDSccgvyq2S7A=", "properties": {"@spider": "usps_collection_boxes", "addr:city": "JACKSON", "addr:country": "US", "addr:full": "362 OLD MILL RD", "addr:postcode": "18825", "addr:state": "PA", "amenity": "post_box", "brand": "United States Postal Service", "brand:wikidata": "Q668687", "collection_times": "Mo-Fr 13:00; Sa 12:00", "name": "USPS COLLECTION BOX - BLUE BOX", "note": "ON 12/24 AND 12/31, THIS BOX MAY BE COLLECTED AS EARLY AS 12 NOON.", "nsi_id": "unitedstatespostalservice-a77078", "operator": "United States Postal Service", "operator:short": "USPS", "operator:type": "public", "operator:wikidata": "Q668687", "ref": "1882500001"}, "type": "Feature"}
{"dataset_attributes": {"@spider": "usps_collection_boxes", "spider:collection_time": "2023-11-10T08:24:40.300687"}, "geometry": {"coordinates": [-75.59299, 41.843075], "type": "Point"}, "id": "CbUlJgxHYlHv_BaZVqV5yyDLsjM=", "properties": {"@spider": "usps_collection_boxes", "addr:city": "JACKSON", "addr:country": "US", "addr:full": "362 OLD MILL RD", "addr:postcode": "18825", "addr:state": "PA", "amenity": "post_box", "brand": "United States Postal Service", "brand:wikidata": "Q668687", "collection_times": "Mo-Fr 13:00; Sa 12:15", "name": "USPS COLLECTION BOX - PO LOBBY", "note": "ON 12/24 AND 12/31, THIS BOX MAY BE COLLECTED AS EARLY AS 12 NOON.", "nsi_id": "unitedstatespostalservice-a77078", "operator": "United States Postal Service", "operator:short": "USPS", "operator:type": "public", "operator:wikidata": "Q668687", "ref": "1882500002"}, "type": "Feature"}
{"dataset_attributes": {"@spider": "usps_collection_boxes", "spider:collection_time": "2023-11-10T08:24:40.300687"}, "geometry": {"coordinates": [-75.593052689, 41.84302297], "type": "Point"}, "id": "gMR1CMPUlBSntS2qlDMiMvQqb34=", "properties": {"@spider": "usps_collection_boxes", "addr:city": "JACKSON", "addr:country": "US", "addr:full": "362 OLD MILL RD", "addr:postcode": "18825", "addr:state": "PA", "amenity": "post_box", "brand": "United States Postal Service", "brand:wikidata": "Q668687", "collection_times": "Mo-Fr 13:00; Sa 12:15", "name": "USPS COLLECTION BOX - PO LOBBY", "note": "ON 12/24 AND 12/31, THIS BOX MAY BE COLLECTED AS EARLY AS 12 NOON.", "nsi_id": "unitedstatespostalservice-a77078", "operator": "United States Postal Service", "operator:short": "USPS", "operator:type": "public", "operator:wikidata": "Q668687", "ref": "1882500005"}, "type": "Feature"}
{"dataset_attributes": {"@spider": "usps_collection_boxes", "spider:collection_time": "2023-11-10T08:24:40.300687"}, "geometry": {"coordinates": [-75.752082, 41.759529], "type": "Point"}, "id": "Pe_2_BB12aRnONbcbrwx_jvSsMU=", "properties": {"@spider": "usps_collection_boxes", "addr:city": "KINGSLEY", "addr:country": "US", "addr:full": "9560 MAIN ST", "addr:postcode": "18826", "addr:state": "PA", "amenity": "post_box", "brand": "United States Postal Service", "brand:wikidata": "Q668687", "collection_times": "Mo-Fr 15:45; Sa 12:00", "name": "USPS COLLECTION BOX - BLUE BOX", "note": "ON 12/24 AND 12/31, THIS BOX MAY BE COLLECTED AS EARLY AS 12 NOON.", "nsi_id": "unitedstatespostalservice-a77078", "operator": "United States Postal Service", "operator:short": "USPS", "operator:type": "public", "operator:wikidata": "Q668687", "ref": "1882600001"}, "type": "Feature"}
{"dataset_attributes": {"@spider": "usps_collection_boxes", "spider:collection_time": "2023-11-10T08:24:40.300687"}, "geometry": {"coordinates": [-75.6741743, 41.710903], "type": "Point"}, "id": "VH0AENTtsjBtlMaCa9rWsal6FDg=", "properties": {"@spider": "usps_collection_boxes", "addr:city": "KINGSLEY", "addr:country": "US", "addr:full": "5879 STATE ROUTE 92", "addr:postcode": "18826", "addr:state": "PA", "amenity": "post_box", "brand": "United States Postal Service", "brand:wikidata": "Q668687", "collection_times": "Mo-Sa 11:00", "name": "USPS COLLECTION BOX - BLUE BOX", "nsi_id": "unitedstatespostalservice-a77078", "operator": "United States Postal Service", "operator:short": "USPS", "operator:type": "public", "operator:wikidata": "Q668687", "ref": "1882600002"}, "type": "Feature"}
{"dataset_attributes": {"@spider": "usps_collection_boxes", "spider:collection_time": "2023-11-10T08:24:40.300687"}, "geometry": {"coordinates": [-75.752128, 41.759537], "type": "Point"}, "id": "r8Tnsg59tSUeitwEGegnF9Zu22o=", "properties": {"@spider": "usps_collection_boxes", "addr:city": "KINGSLEY", "addr:country": "US", "addr:full": "9560 MAIN ST", "addr:postcode": "18826", "addr:state": "PA", "amenity": "post_box", "brand": "United States Postal Service", "brand:wikidata": "Q668687", "collection_times": "Mo-Fr 16:00; Sa 12:00", "name": "USPS COLLECTION BOX - PO LOBBY", "note": "ON 12/24 AND 12/31, THIS BOX MAY BE COLLECTED AS EARLY AS 12 NOON.", "nsi_id": "unitedstatespostalservice-a77078", "operator": "United States Postal Service", "operator:short": "USPS", "operator:type": "public", "operator:wikidata": "Q668687", "ref": "1882600003"}, "type": "Feature"}
{"dataset_attributes": {"@spider": "usps_collection_boxes", "spider:collection_time": "2023-11-10T08:24:40.300687"}, "geometry": {"coordinates": [-75.75208337, 41.759476273], "type": "Point"}, "id": "UfdBSseWkB2Qo1wS32VnQovra7I=", "properties": {"@spider": "usps_collection_boxes", "addr:city": "KINGSLEY", "addr:country": "US", "addr:full": "9560 MAIN ST", "addr:postcode": "18826", "addr:state": "PA", "amenity": "post_box", "brand": "United States Postal Service", "brand:wikidata": "Q668687", "collection_times": "Mo-Fr 16:00; Sa 12:00", "name": "USPS COLLECTION BOX - PO LOBBY", "note": "ON 12/24 AND 12/31, THIS BOX MAY BE COLLECTED AS EARLY AS 12 NOON.", "nsi_id": "unitedstatespostalservice-a77078", "operator": "United States Postal Service", "operator:short": "USPS", "operator:type": "public", "operator:wikidata": "Q668687", "ref": "1882600005"}, "type": "Feature"}
{"dataset_attributes": {"@spider": "usps_collection_boxes", "spider:collection_time": "2023-11-10T08:24:40.300687"}, "geometry": {"coordinates": [-76.071175, 41.786291], "type": "Point"}, "id": "Y7_6Q5T74HsxX9is2zD07FqnTmg=", "properties": {"@spider": "usps_collection_boxes", "addr:city": "LAWTON", "addr:country": "US", "addr:full": "10727 STATE ROUTE 267", "addr:postcode": "18828", "addr:state": "PA", "amenity": "post_box", "brand": "United States Postal Service", "brand:wikidata": "Q668687", "collection_times": "Mo-Fr 13:00; Sa 11:45", "name": "USPS COLLECTION BOX - BLUE BOX", "note": "ON 12/24 AND 12/31, THIS BOX MAY BE COLLECTED AS EARLY AS 12 NOON.", "nsi_id": "unitedstatespostalservice-a77078", "operator": "United States Postal Service", "operator:short": "USPS", "operator:type": "public", "operator:wikidata": "Q668687", "ref": "1882800001"}, "type": "Feature"}
{"dataset_attributes": {"@spider": "usps_collection_boxes", "spider:collection_time": "2023-11-10T08:24:40.300687"}, "geometry": {"coordinates": [-76.071175198, 41.786238735], "type": "Point"}, "id": "Uokw1eVJt9jkzWSDS-2uzG2KLiQ=", "properties": {"@spider": "usps_collection_boxes", "addr:city": "LAWTON", "addr:country": "US", "addr:full": "10727 STATE ROUTE 267 OFC", "addr:postcode": "18828", "addr:state": "PA", "amenity": "post_box", "brand": "United States Postal Service", "brand:wikidata": "Q668687", "collection_times": "Mo-Fr 13:00; Sa 12:00", "name": "USPS COLLECTION BOX - PO LOBBY", "note": "ON 12/24 AND 12/31, THIS BOX MAY BE COLLECTED AS EARLY AS 12 NOON.", "nsi_id": "unitedstatespostalservice-a77078", "operator": "United States Postal Service", "operator:short": "USPS", "operator:type": "public", "operator:wikidata": "Q668687", "ref": "1882800003"}, "type": "Feature"}
{"dataset_attributes": {"@spider": "usps_collection_boxes", "spider:collection_time": "2023-11-10T08:24:40.300687"}, "geometry": {"coordinates": [-76.181758, 41.842483], "type": "Point"}, "id": "v0XJzoQrWecsH0O_2_ZM9k0uTOA=", "properties": {"@spider": "usps_collection_boxes", "addr:city": "LE RAYSVILLE", "addr:country": "US", "addr:full": "981 MAIN ST", "addr:postcode": "18829", "addr:state": "PA", "amenity": "post_box", "brand": "United States Postal Service", "brand:wikidata": "Q668687", "collection_times": "Mo-Fr 12:00; Sa 11:30", "name": "USPS COLLECTION BOX - BLUE BOX", "nsi_id": "unitedstatespostalservice-a77078", "operator": "United States Postal Service", "operator:short": "USPS", "operator:type": "public", "operator:wikidata": "Q668687", "ref": "1882900001"}, "type": "Feature"}
{"dataset_attributes": {"@spider": "usps_collection_boxes", "spider:collection_time": "2023-11-10T08:24:40.300687"}, "geometry": {"coordinates": [-76.181709, 41.84246], "type": "Point"}, "id": "4dN1bonQ02qXwwamYjP-A03Y9w4=", "properties": {"@spider": "usps_collection_boxes", "addr:city": "LE RAYSVILLE", "addr:country": "US", "addr:full": "981 MAIN ST", "addr:postcode": "18829", "addr:state": "PA", "amenity": "post_box", "brand": "United States Postal Service", "brand:wikidata": "Q668687", "collection_times": "Mo-Fr 12:00; Sa 11:30", "name": "USPS COLLECTION BOX - PO LOBBY", "nsi_id": "unitedstatespostalservice-a77078", "operator": "United States Postal Service", "operator:short": "USPS", "operator:type": "public", "operator:wikidata": "Q668687", "ref": "1882900002"}, "type": "Feature"}
{"dataset_attributes": {"@spider": "usps_collection_boxes", "spider:collection_time": "2023-11-10T08:24:40.300687"}, "geometry": {"coordinates": [-76.181773094, 41.842497269], "type": "Point"}, "id": "C8pRqaagcbjwRUoczp6Kk8scjVQ=", "properties": {"@spider": "usps_collection_boxes", "addr:city": "LE RAYSVILLE", "addr:country": "US", "addr:full": "981 MAIN ST", "addr:postcode": "18829", "addr:state": "PA", "amenity": "post_box", "brand": "United States Postal Service", "brand:wikidata": "Q668687", "collection_times": "Mo-Fr 13:00; Sa 12:00", "name": "USPS COLLECTION BOX - PO LOBBY", "note": "ON 12/24 AND 12/31, THIS BOX MAY BE COLLECTED AS EARLY AS 12 NOON.", "nsi_id": "unitedstatespostalservice-a77078", "operator": "United States Postal Service", "operator:short": "USPS", "operator:type": "public", "operator:wikidata": "Q668687", "ref": "1882900004"}, "type": "Feature"}
{"dataset_attributes": {"@spider": "usps_collection_boxes", "spider:collection_time": "2023-11-10T08:24:40.300687"}, "geometry": {"coordinates": [-76.13225, 41.990398], "type": "Point"}, "id": "hz7q5rVM6nJnZBggSTmRHeY_lTo=", "properties": {"@spider": "usps_collection_boxes", "addr:city": "LITTLE MEADOWS", "addr:country": "US", "addr:full": "1033 MAPLE ST STE 2", "addr:postcode": "18830", "addr:state": "PA", "amenity": "post_box", "brand": "United States Postal Service", "brand:wikidata": "Q668687", "collection_times": "Mo-Fr 15:30; Sa 11:30", "name": "USPS COLLECTION BOX - BLUE BOX", "note": "ON 12/24 AND 12/31, THIS BOX MAY BE COLLECTED AS EARLY AS 12 NOON.", "nsi_id": "unitedstatespostalservice-a77078", "operator": "United States Postal Service", "operator:short": "USPS", "operator:type": "public", "operator:wikidata": "Q668687", "ref": "1883000001"}, "type": "Feature"}
{"dataset_attributes": {"@spider": "usps_collection_boxes", "spider:collection_time": "2023-11-10T08:24:40.300687"}, "geometry": {"coordinates": [-76.132237, 41.990371], "type": "Point"}, "id": "vjk688RjdSk9LlkrjpNHe65_lPo=", "properties": {"@spider": "usps_collection_boxes", "addr:city": "LITTLE MEADOWS", "addr:country": "US", "addr:full": "1033 MAPLE ST STE 2", "addr:postcode": "18830", "addr:state": "PA", "amenity": "post_box", "brand": "United States Postal Service", "brand:wikidata": "Q668687", "collection_times": "Mo-Fr 15:30; Sa 11:30", "name": "USPS COLLECTION BOX - PO LOBBY", "note": "ON 12/24 AND 12/31, THIS BOX MAY BE COLLECTED AS EARLY AS 12 NOON.", "nsi_id": "unitedstatespostalservice-a77078", "operator": "United States Postal Service", "operator:short": "USPS", "operator:type": "public", "operator:wikidata": "Q668687", "ref": "1883000002"}, "type": "Feature"}
{"dataset_attributes": {"@spider": "usps_collection_boxes", "spider:collection_time": "2023-11-10T08:24:40.300687"}, "geometry": {"coordinates": [-76.132311898, 41.990440886], "type": "Point"}, "id": "try2xneePImUZ1bBh5WwxEW-w6w=", "properties": {"@spider": "usps_collection_boxes", "addr:city": "LITTLE MEADOWS", "addr:country": "US", "addr:full": "1033 MAPLE ST STE 2", "addr:postcode": "18830", "addr:state": "PA", "amenity": "post_box", "brand": "United States Postal Service", "brand:wikidata": "Q668687", "collection_times": "Mo-Fr 16:00; Sa 12:00", "name": "USPS COLLECTION BOX - PO LOBBY", "note": "ON 12/24 AND 12/31, THIS BOX MAY BE COLLECTED AS EARLY AS 12 NOON.", "nsi_id": "unitedstatespostalservice-a77078", "operator": "United States Postal Service", "operator:short": "USPS", "operator:type": "public", "operator:wikidata": "Q668687", "ref": "1883000004"}, "type": "Feature"}
{"dataset_attributes": {"@spider": "usps_collection_boxes", "spider:collection_time": "2023-11-10T08:24:40.300687"}, "geometry": {"coordinates": [-76.523456, 41.907658], "type": "Point"}, "id": "G5v5mr-8aAA5LkcZOBoohYU24r8=", "properties": {"@spider": "usps_collection_boxes", "addr:city": "MILAN", "addr:country": "US", "addr:full": "28364 ROUTE 220", "addr:postcode": "18831", "addr:state": "PA", "amenity": "post_box", "brand": "United States Postal Service", "brand:wikidata": "Q668687", "collection_times": "Mo-Fr 16:00; Sa 11:30", "name": "USPS COLLECTION BOX - BLUE BOX", "note": "ON 12/24 AND 12/31, THIS BOX MAY BE COLLECTED AS EARLY AS 12 NOON.", "nsi_id": "unitedstatespostalservice-a77078", "operator": "United States Postal Service", "operator:short": "USPS", "operator:type": "public", "operator:wikidata": "Q668687", "ref": "1883100001"}, "type": "Feature"}
{"dataset_attributes": {"@spider": "usps_collection_boxes", "spider:collection_time": "2023-11-10T08:24:40.300687"}, "geometry": {"coordinates": [-76.523454, 41.907741], "type": "Point"}, "id": "ap7o5Vd55C4tP1VbdjJO4RJ6WAA=", "properties": {"@spider": "usps_collection_boxes", "addr:city": "MILAN", "addr:country": "US", "addr:full": "28364 ROUTE 220", "addr:postcode": "18831", "addr:state": "PA", "amenity": "post_box", "brand": "United States Postal Service", "brand:wikidata": "Q668687", "collection_times": "Mo-Fr 16:00; Sa 11:45", "name": "USPS COLLECTION BOX - PO LOBBY", "note": "ON 12/24 AND 12/31, THIS BOX MAY BE COLLECTED AS EARLY AS 12 NOON.", "nsi_id": "unitedstatespostalservice-a77078", "operator": "United States Postal Service", "operator:short": "USPS", "operator:type": "public", "operator:wikidata": "Q668687", "ref": "1883100003"}, "type": "Feature"}
{"dataset_attributes": {"@spider": "usps_collection_boxes", "spider:collection_time": "2023-11-10T08:24:40.300687"}, "geometry": {"coordinates": [-76.523455549, 41.907734361], "type": "Point"}, "id": "1Y1TOKbcuYiCtrTDhy_tvfXybC0=", "properties": {"@spider": "usps_collection_boxes", "addr:city": "MILAN", "addr:country": "US", "addr:full": "28364 ROUTE 220", "addr:postcode": "18831", "addr:state": "PA", "amenity": "post_box", "brand": "United States Postal Service", "brand:wikidata": "Q668687", "collection_times": "Mo-Fr 16:30; Sa 14:30", "name": "USPS COLLECTION BOX - PO LOBBY", "note": "ON 12/24 AND 12/31, THIS BOX MAY BE COLLECTED AS EARLY AS 12 NOON.", "nsi_id": "unitedstatespostalservice-a77078", "operator": "United States Postal Service", "operator:short": "USPS", "operator:type": "public", "operator:wikidata": "Q668687", "ref": "1883100004"}, "type": "Feature"}
{"dataset_attributes": {"@spider": "usps_collection_boxes", "spider:collection_time": "2023-11-10T08:24:40.300687"}, "geometry": {"coordinates": [-76.473879, 41.714181], "type": "Point"}, "id": "ztvwz8g9Udwvac_1I3lxk-1A-5o=", "properties": {"@spider": "usps_collection_boxes", "addr:city": "MONROETON", "addr:country": "US", "addr:full": "264 SHAW BLVD", "addr:postcode": "18832", "addr:state": "PA", "amenity": "post_box", "brand": "United States Postal Service", "brand:wikidata": "Q668687", "collection_times": "Mo-Fr 16:15; Sa 11:15", "name": "USPS COLLECTION BOX - BLUE BOX", "note": "ON 12/24 AND 12/31, THIS BOX MAY BE COLLECTED AS EARLY AS 12 NOON.", "nsi_id": "unitedstatespostalservice-a77078", "operator": "United States Postal Service", "operator:short": "USPS", "operator:type": "public", "operator:wikidata": "Q668687", "ref": "1883200001"}, "type": "Feature"}
{"dataset_attributes": {"@spider": "usps_collection_boxes", "spider:collection_time": "2023-11-10T08:24:40.300687"}, "geometry": {"coordinates": [-76.473917, 41.71416], "type": "Point"}, "id": "WHlaYopneXFlTKOC6rFP2vBWBeY=", "properties": {"@spider": "usps_collection_boxes", "addr:city": "MONROETON", "addr:country": "US", "addr:full": "264 SHAW BLVD", "addr:postcode": "18832", "addr:state": "PA", "amenity": "post_box", "brand": "United States Postal Service", "brand:wikidata": "Q668687", "collection_times": "Mo-Fr 16:15; Sa 11:15", "name": "USPS COLLECTION BOX - PO LOBBY", "note": "ON 12/24 AND 12/31, THIS BOX MAY BE COLLECTED AS EARLY AS 12 NOON.", "nsi_id": "unitedstatespostalservice-a77078", "operator": "United States Postal Service", "operator:short": "USPS", "operator:type": "public", "operator:wikidata": "Q668687", "ref": "1883200002"}, "type": "Feature"}
{"dataset_attributes": {"@spider": "usps_collection_boxes", "spider:collection_time": "2023-11-10T08:24:40.300687"}, "geometry": {"coordinates": [-76.473860333, 41.714159676], "type": "Point"}, "id": "vYQPvCllhRC2-Vkcu6yyDCLSgjc=", "properties": {"@spider": "usps_collection_boxes", "addr:city": "MONROETON", "addr:country": "US", "addr:full": "264 SHAW BLVD", "addr:postcode": "18832", "addr:state": "PA", "amenity": "post_box", "brand": "United States Postal Service", "brand:wikidata": "Q668687", "collection_times": "Mo-Fr 16:15; Sa 12:00", "name": "USPS COLLECTION BOX - PO LOBBY", "note": "ON 12/24 AND 12/31, THIS BOX MAY BE COLLECTED AS EARLY AS 12 NOON.", "nsi_id": "unitedstatespostalservice-a77078", "operator": "United States Postal Service", "operator:short": "USPS", "operator:type": "public", "operator:wikidata": "Q668687", "ref": "1883200004"}, "type": "Feature"}
{"dataset_attributes": {"@spider": "usps_collection_boxes", "spider:collection_time": "2023-11-10T08:24:40.300687"}, "geometry": {"coordinates": [-76.442313, 41.598153], "type": "Point"}, "id": "0RnPP_ZojhFaqNKYGvdytuMiASo=", "properties": {"@spider": "usps_collection_boxes", "addr:city": "NEW ALBANY", "addr:country": "US", "addr:full": "360 FRONT ST", "addr:postcode": "18833", "addr:state": "PA", "amenity": "post_box", "brand": "United States Postal Service", "brand:wikidata": "Q668687", "collection_times": "Mo-Fr 15:45; Sa 11:45", "name": "USPS COLLECTION BOX - BLUE BOX", "note": "ON 12/24 AND 12/31, THIS BOX MAY BE COLLECTED AS EARLY AS 12 NOON.", "nsi_id": "unitedstatespostalservice-a77078", "operator": "United States Postal Service", "operator:short": "USPS", "operator:type": "public", "operator:wikidata": "Q668687", "ref": "1883300001"}, "type": "Feature"}
{"dataset_attributes": {"@spider": "usps_collection_boxes", "spider:collection_time": "2023-11-10T08:24:40.300687"}, "geometry": {"coordinates": [-76.442348, 41.598146], "type": "Point"}, "id": "mIt4AgA1N8aG_FQLoLwzz-aks1w=", "properties": {"@spider": "usps_collection_boxes", "addr:city": "NEW ALBANY", "addr:country": "US", "addr:full": "360 FRONT ST", "addr:postcode": "18833", "addr:state": "PA", "amenity": "post_box", "brand": "United States Postal Service", "brand:wikidata": "Q668687", "collection_times": "Mo-Fr 15:45; Sa 11:45", "name": "USPS COLLECTION BOX - PO LOBBY", "note": "ON 12/24 AND 12/31, THIS BOX MAY BE COLLECTED AS EARLY AS 12 NOON.", "nsi_id": "unitedstatespostalservice-a77078", "operator": "United States Postal Service", "operator:short": "USPS", "operator:type": "public", "operator:wikidata": "Q668687", "ref": "1883300002"}, "type": "Feature"}
{"dataset_attributes": {"@spider": "usps_collection_boxes", "spider:collection_time": "2023-11-10T08:24:40.300687"}, "geometry": {"coordinates": [-76.442307519, 41.598111436], "type": "Point"}, "id": "5Pk_GxKEXiutROD-A9Cza5dRTxM=", "properties": {"@spider": "usps_collection_boxes", "addr:city": "NEW ALBANY", "addr:country": "US", "addr:full": "360 FRONT ST", "addr:postcode": "18833", "addr:state": "PA", "amenity": "post_box", "brand": "United States Postal Service", "brand:wikidata": "Q668687", "collection_times": "Mo-Fr 16:00; Sa 11:30", "name": "USPS COLLECTION BOX - PO LOBBY", "note": "ON 12/24 AND 12/31, THIS BOX MAY BE COLLECTED AS EARLY AS 12 NOON.", "nsi_id": "unitedstatespostalservice-a77078", "operator": "United States Postal Service", "operator:short": "USPS", "operator:type": "public", "operator:wikidata": "Q668687", "ref": "1883300004"}, "type": "Feature"}
{"dataset_attributes": {"@spider": "usps_collection_boxes", "spider:collection_time": "2023-11-10T08:24:40.300687"}, "geometry": {"coordinates": [-75.7275969795, 41.8749090107], "type": "Point"}, "id": "PsM69SNIBrdVWj4SB2S9yGkGsuY=", "properties": {"@spider": "usps_collection_boxes", "addr:city": "NEW MILFORD", "addr:country": "US", "addr:full": "667 MAIN ST", "addr:postcode": "18834", "addr:state": "PA", "amenity": "post_box", "brand": "United States Postal Service", "brand:wikidata": "Q668687", "collection_times": "Mo-Fr 16:45; Sa 11:45", "name": "USPS COLLECTION BOX - BLUE BOX", "note": "ON 12/24 AND 12/31, THIS BOX MAY BE COLLECTED AS EARLY AS 12 NOON.", "nsi_id": "unitedstatespostalservice-a77078", "operator": "United States Postal Service", "operator:short": "USPS", "operator:type": "public", "operator:wikidata": "Q668687", "ref": "1883400001"}, "type": "Feature"}
{"dataset_attributes": {"@spider": "usps_collection_boxes", "spider:collection_time": "2023-11-10T08:24:40.300687"}, "geometry": {"coordinates": [-75.727338, 41.874974], "type": "Point"}, "id": "gDOk9bTq8WEH2by4a0Zc8C8gvLY=", "properties": {"@spider": "usps_collection_boxes", "addr:city": "NEW MILFORD", "addr:country": "US", "addr:full": "667 MAIN ST", "addr:postcode": "18834", "addr:state": "PA", "amenity": "post_box", "brand": "United States Postal Service", "brand:wikidata": "Q668687", "collection_times": "Mo-Fr 16:45; Sa 11:45", "name": "USPS COLLECTION BOX - PO LOBBY", "note": "ON 12/24 AND 12/31, THIS BOX MAY BE COLLECTED AS EARLY AS 12 NOON.", "nsi_id": "unitedstatespostalservice-a77078", "operator": "United States Postal Service", "operator:short": "USPS", "operator:type": "public", "operator:wikidata": "Q668687", "ref": "1883400004"}, "type": "Feature"}
{"dataset_attributes": {"@spider": "usps_collection_boxes", "spider:collection_time": "2023-11-10T08:24:40.300687"}, "geometry": {"coordinates": [-75.727359281, 41.874932353], "type": "Point"}, "id": "QNycPPQhmAu24P_SE_Rh4z3sB-o=", "properties": {"@spider": "usps_collection_boxes", "addr:city": "NEW MILFORD", "addr:country": "US", "addr:full": "667 MAIN ST", "addr:postcode": "18834", "addr:state": "PA", "amenity": "post_box", "brand": "United States Postal Service", "brand:wikidata": "Q668687", "collection_times": "Mo-Fr 17:00; Sa 12:05", "name": "USPS COLLECTION BOX - PO LOBBY", "note": "ON 12/24 AND 12/31, THIS BOX MAY BE COLLECTED AS EARLY AS 12 NOON.", "nsi_id": "unitedstatespostalservice-a77078", "operator": "United States Postal Service", "operator:short": "USPS", "operator:type": "public", "operator:wikidata": "Q668687", "ref": "1883400006"}, "type": "Feature"}
{"dataset_attributes": {"@spider": "usps_collection_boxes", "spider:collection_time": "2023-11-10T08:24:40.300687"}, "geometry": {"coordinates": [-76.347837, 41.846713], "type": "Point"}, "id": "Ne_s46b8is2DcVJwpt59wkVWdLE=", "properties": {"@spider": "usps_collection_boxes", "addr:city": "ROME", "addr:country": "US", "addr:full": "28075 MAIN ST", "addr:postcode": "18837", "addr:state": "PA", "amenity": "post_box", "brand": "United States Postal Service", "brand:wikidata": "Q668687", "collection_times": "Mo-Fr 15:30; Sa 11:30", "name": "USPS COLLECTION BOX - BLUE BOX", "note": "ON 12/24 AND 12/31, THIS BOX MAY BE COLLECTED AS EARLY AS 12 NOON.", "nsi_id": "unitedstatespostalservice-a77078", "operator": "United States Postal Service", "operator:short": "USPS", "operator:type": "public", "operator:wikidata": "Q668687", "ref": "1883700001"}, "type": "Feature"}
{"dataset_attributes": {"@spider": "usps_collection_boxes", "spider:collection_time": "2023-11-10T08:24:40.300687"}, "geometry": {"coordinates": [-76.347837, 41.846713], "type": "Point"}, "id": "j1MtfbLX8lDwK10uRqszaDH_maI=", "properties": {"@spider": "usps_collection_boxes", "addr:city": "ROME", "addr:country": "US", "addr:full": "28075 MAIN ST", "addr:postcode": "18837", "addr:state": "PA", "amenity": "post_box", "brand": "United States Postal Service", "brand:wikidata": "Q668687", "collection_times": "Mo-Fr 15:30; Sa 11:30", "name": "USPS COLLECTION BOX - PO LOBBY", "note": "ON 12/24 AND 12/31, THIS BOX MAY BE COLLECTED AS EARLY AS 12 NOON.", "nsi_id": "unitedstatespostalservice-a77078", "operator": "United States Postal Service", "operator:short": "USPS", "operator:type": "public", "operator:wikidata": "Q668687", "ref": "1883700002"}, "type": "Feature"}
{"dataset_attributes": {"@spider": "usps_collection_boxes", "spider:collection_time": "2023-11-10T08:24:40.300687"}, "geometry": {"coordinates": [-76.343348068, 41.856124186], "type": "Point"}, "id": "1sQrSSND7wiUAqN4JMa_QlayOSk=", "properties": {"@spider": "usps_collection_boxes", "addr:city": "ROME", "addr:country": "US", "addr:full": "811 MAIN ST", "addr:postcode": "18837", "addr:state": "PA", "amenity": "post_box", "brand": "United States Postal Service", "brand:wikidata": "Q668687", "collection_times": "Mo-Fr 16:05; Sa 11:35", "name": "USPS COLLECTION BOX - PO LOBBY", "note": "ON 12/24 AND 12/31, THIS BOX MAY BE COLLECTED AS EARLY AS 12 NOON.", "nsi_id": "unitedstatespostalservice-a77078", "operator": "United States Postal Service", "operator:short": "USPS", "operator:type": "public", "operator:wikidata": "Q668687", "ref": "1883700004"}, "type": "Feature"}
{"dataset_attributes": {"@spider": "usps_collection_boxes", "spider:collection_time": "2023-11-10T08:24:40.300687"}, "geometry": {"coordinates": [-76.5156853, 41.979381], "type": "Point"}, "id": "48Pxts_c3jaLqiwIAdakxMbZQm8=", "properties": {"@spider": "usps_collection_boxes", "addr:city": "SAYRE", "addr:country": "US", "addr:full": "240 DESMOND ST", "addr:postcode": "18840", "addr:state": "PA", "amenity": "post_box", "brand": "United States Postal Service", "brand:wikidata": "Q668687", "collection_times": "Mo-Fr 16:30; Sa 15:30", "name": "USPS COLLECTION BOX - BLUE BOX", "note": "ON 12/24 AND 12/31, THIS BOX MAY BE COLLECTED AS EARLY AS 12 NOON.", "nsi_id": "unitedstatespostalservice-a77078", "operator": "United States Postal Service", "operator:short": "USPS", "operator:type": "public", "operator:wikidata": "Q668687", "ref": "1884000001"}, "type": "Feature"}
{"dataset_attributes": {"@spider": "usps_collection_boxes", "spider:collection_time": "2023-11-10T08:24:40.300687"}, "geometry": {"coordinates": [-76.5165434286, 41.9822129554], "type": "Point"}, "id": "YigmzvnAZDcUltz6JUlWFDeF63U=", "properties": {"@spider": "usps_collection_boxes", "addr:city": "SAYRE", "addr:country": "US", "addr:full": "101 S ELMER AVE", "addr:postcode": "18840", "addr:state": "PA", "amenity": "post_box", "brand": "United States Postal Service", "brand:wikidata": "Q668687", "collection_times": "Mo-Sa 15:00", "name": "USPS COLLECTION BOX - BLUE BOX", "note": "ON 12/24 AND 12/31, THIS BOX MAY BE COLLECTED AS EARLY AS 12 NOON.", "nsi_id": "unitedstatespostalservice-a77078", "operator": "United States Postal Service", "operator:short": "USPS", "operator:type": "public", "operator:wikidata": "Q668687", "ref": "1884000007"}, "type": "Feature"}
{"dataset_attributes": {"@spider": "usps_collection_boxes", "spider:collection_time": "2023-11-10T08:24:40.300687"}, "geometry": {"coordinates": [-76.5458399, 41.990205], "type": "Point"}, "id": "IZXprYouCzKiChz9UNpbwQuk-VA=", "properties": {"@spider": "usps_collection_boxes", "addr:city": "SAYRE", "addr:country": "US", "addr:full": "2954 ELMIRA ST", "addr:postcode": "18840", "addr:state": "PA", "amenity": "post_box", "brand": "United States Postal Service", "brand:wikidata": "Q668687", "collection_times": "Mo-Sa 11:00", "name": "USPS COLLECTION BOX - BLUE BOX", "nsi_id": "unitedstatespostalservice-a77078", "operator": "United States Postal Service", "operator:short": "USPS", "operator:type": "public", "operator:wikidata": "Q668687", "ref": "1884000009"}, "type": "Feature"}
{"dataset_attributes": {"@spider": "usps_collection_boxes", "spider:collection_time": "2023-11-10T08:24:40.300687"}, "geometry": {"coordinates": [-76.5160646, 41.979136], "type": "Point"}, "id": "9sMjLNR_YIB3CMvOUjJTMJBaiVo=", "properties": {"@spider": "usps_collection_boxes", "addr:city": "SAYRE", "addr:country": "US", "addr:full": "240 DESMOND ST", "addr:postcode": "18840", "addr:state": "PA", "amenity": "post_box", "brand": "United States Postal Service", "brand:wikidata": "Q668687", "collection_times": "Mo-Fr 16:30; Sa 15:30", "name": "USPS COLLECTION BOX - BLUE BOX", "note": "ON 12/24 AND 12/31, THIS BOX MAY BE COLLECTED AS EARLY AS 12 NOON.", "nsi_id": "unitedstatespostalservice-a77078", "operator": "United States Postal Service", "operator:short": "USPS", "operator:type": "public", "operator:wikidata": "Q668687", "ref": "1884000022"}, "type": "Feature"}
{"dataset_attributes": {"@spider": "usps_collection_boxes", "spider:collection_time": "2023-11-10T08:24:40.300687"}, "geometry": {"coordinates": [-76.5434019, 41.976424], "type": "Point"}, "id": "5KECaOa6IHHvMeWh-IGCGcCiVj0=", "properties": {"@spider": "usps_collection_boxes", "addr:city": "SAYRE", "addr:country": "US", "addr:full": "1887 ELMIRA ST", "addr:postcode": "18840", "addr:state": "PA", "amenity": "post_box", "brand": "United States Postal Service", "brand:wikidata": "Q668687", "collection_times": "Mo-Sa 09:00", "name": "USPS COLLECTION BOX - BLUE BOX", "nsi_id": "unitedstatespostalservice-a77078", "operator": "United States Postal Service", "operator:short": "USPS", "operator:type": "public", "operator:wikidata": "Q668687", "ref": "1884000026"}, "type": "Feature"}
{"dataset_attributes": {"@spider": "usps_collection_boxes", "spider:collection_time": "2023-11-10T08:24:40.300687"}, "geometry": {"coordinates": [-76.5402865, 41.988146], "type": "Point"}, "id": "PrFBu9S9cDWWURmYGRskhwanEn8=", "properties": {"@spider": "usps_collection_boxes", "addr:city": "SAYRE", "addr:country": "US", "addr:full": "CESSNA ST", "addr:postcode": "18840", "addr:state": "PA", "amenity": "post_box", "brand": "United States Postal Service", "brand:wikidata": "Q668687", "collection_times": "Mo-Sa 11:00", "name": "USPS COLLECTION BOX - BLUE BOX", "nsi_id": "unitedstatespostalservice-a77078", "operator": "United States Postal Service", "operator:short": "USPS", "operator:type": "public", "operator:wikidata": "Q668687", "ref": "1884000027"}, "type": "Feature"}
{"dataset_attributes": {"@spider": "usps_collection_boxes", "spider:collection_time": "2023-11-10T08:24:40.300687"}, "geometry": {"coordinates": [-76.5158944, 41.97936], "type": "Point"}, "id": "Kz1-dj9zqtzMwxYcAXlJfDJqzM8=", "properties": {"@spider": "usps_collection_boxes", "addr:city": "SAYRE", "addr:country": "US", "addr:full": "240 DESMOND ST", "addr:postcode": "18840", "addr:state": "PA", "amenity": "post_box", "brand": "United States Postal Service", "brand:wikidata": "Q668687", "collection_times": "Mo-Fr 16:30; Sa 15:30", "name": "USPS COLLECTION BOX - PO LOBBY", "note": "ON 12/24 AND 12/31, THIS BOX MAY BE COLLECTED AS EARLY AS 12 NOON.", "nsi_id": "unitedstatespostalservice-a77078", "operator": "United States Postal Service", "operator:short": "USPS", "operator:type": "public", "operator:wikidata": "Q668687", "ref": "1884000028"}, "type": "Feature"}
{"dataset_attributes": {"@spider": "usps_collection_boxes", "spider:collection_time": "2023-11-10T08:24:40.300687"}, "geometry": {"coordinates": [-76.515659285, 41.979315174], "type": "Point"}, "id": "uoJ29woH5DjgePy6TYtMwVkfD3M=", "properties": {"@spider": "usps_collection_boxes", "addr:city": "SAYRE", "addr:country": "US", "addr:full": "240 DESMOND ST", "addr:postcode": "18840", "addr:state": "PA", "amenity": "post_box", "brand": "United States Postal Service", "brand:wikidata": "Q668687", "collection_times": "Mo-Fr 17:00; Sa 12:15", "name": "USPS COLLECTION BOX - PO LOBBY", "note": "ON 12/24 AND 12/31, THIS BOX MAY BE COLLECTED AS EARLY AS 12 NOON.", "nsi_id": "unitedstatespostalservice-a77078", "operator": "United States Postal Service", "operator:short": "USPS", "operator:type": "public", "operator:wikidata": "Q668687", "ref": "1884000033"}, "type": "Feature"}
{"dataset_attributes": {"@spider": "usps_collection_boxes", "spider:collection_time": "2023-11-10T08:24:40.300687"}, "geometry": {"coordinates": [-75.631285, 41.733778], "type": "Point"}, "id": "95oYS0sBNBNOOQx3lAgtqI79hP8=", "properties": {"@spider": "usps_collection_boxes", "addr:city": "SOUTH GIBSON", "addr:country": "US", "addr:full": "8917 ROUTE 92", "addr:postcode": "18842", "addr:state": "PA", "amenity": "post_box", "brand": "United States Postal Service", "brand:wikidata": "Q668687", "collection_times": "Mo-Fr 15:30; Sa 11:30", "name": "USPS COLLECTION BOX - BLUE BOX", "note": "ON 12/24 AND 12/31, THIS BOX MAY BE COLLECTED AS EARLY AS 12 NOON.", "nsi_id": "unitedstatespostalservice-a77078", "operator": "United States Postal Service", "operator:short": "USPS", "operator:type": "public", "operator:wikidata": "Q668687", "ref": "1884200001"}, "type": "Feature"}
{"dataset_attributes": {"@spider": "usps_collection_boxes", "spider:collection_time": "2023-11-10T08:24:40.300687"}, "geometry": {"coordinates": [-75.631236, 41.733758], "type": "Point"}, "id": "wOeCbu1lfZuOg2_PiRKpmEuWI8I=", "properties": {"@spider": "usps_collection_boxes", "addr:city": "SOUTH GIBSON", "addr:country": "US", "addr:full": "8917 ROUTE 92", "addr:postcode": "18842", "addr:state": "PA", "amenity": "post_box", "brand": "United States Postal Service", "brand:wikidata": "Q668687", "collection_times": "Mo-Fr 12:00; Sa 11:30", "name": "USPS COLLECTION BOX - PO LOBBY", "nsi_id": "unitedstatespostalservice-a77078", "operator": "United States Postal Service", "operator:short": "USPS", "operator:type": "public", "operator:wikidata": "Q668687", "ref": "1884200002"}, "type": "Feature"}
{"dataset_attributes": {"@spider": "usps_collection_boxes", "spider:collection_time": "2023-11-10T08:24:40.300687"}, "geometry": {"coordinates": [-75.631278106, 41.73381656], "type": "Point"}, "id": "B-fcr9b_lRbAYjK2OYJBM9ApV7E=", "properties": {"@spider": "usps_collection_boxes", "addr:city": "SOUTH GIBSON", "addr:country": "US", "addr:full": "8917 ROUTE 92", "addr:postcode": "18842", "addr:state": "PA", "amenity": "post_box", "brand": "United States Postal Service", "brand:wikidata": "Q668687", "collection_times": "Mo-Fr 16:30; Sa 12:00", "name": "USPS COLLECTION BOX - PO LOBBY", "note": "ON 12/24 AND 12/31, THIS BOX MAY BE COLLECTED AS EARLY AS 12 NOON.", "nsi_id": "unitedstatespostalservice-a77078", "operator": "United States Postal Service", "operator:short": "USPS", "operator:type": "public", "operator:wikidata": "Q668687", "ref": "1884200004"}, "type": "Feature"}
{"dataset_attributes": {"@spider": "usps_collection_boxes", "spider:collection_time": "2023-11-10T08:24:40.300687"}, "geometry": {"coordinates": [-75.890726, 41.799115], "type": "Point"}, "id": "KKcM4sak5ICW9qODZuVGBpvrhxM=", "properties": {"@spider": "usps_collection_boxes", "addr:city": "SOUTH MONTROSE", "addr:country": "US", "addr:full": "11187 STATE ROUTE 29", "addr:postcode": "18843", "addr:state": "PA", "amenity": "post_box", "brand": "United States Postal Service", "brand:wikidata": "Q668687", "collection_times": "Mo-Fr 16:30; Sa 11:45", "name": "USPS COLLECTION BOX - BLUE BOX", "note": "ON 12/24 AND 12/31, THIS BOX MAY BE COLLECTED AS EARLY AS 12 NOON.", "nsi_id": "unitedstatespostalservice-a77078", "operator": "United States Postal Service", "operator:short": "USPS", "operator:type": "public", "operator:wikidata": "Q668687", "ref": "1884300001"}, "type": "Feature"}
{"dataset_attributes": {"@spider": "usps_collection_boxes", "spider:collection_time": "2023-11-10T08:24:40.300687"}, "geometry": {"coordinates": [-75.890711, 41.799048], "type": "Point"}, "id": "6xcvgHVQ3F72_KntcrIFgT9wioE=", "properties": {"@spider": "usps_collection_boxes", "addr:city": "SOUTH MONTROSE", "addr:country": "US", "addr:full": "11187 STATE ROUTE 29", "addr:postcode": "18843", "addr:state": "PA", "amenity": "post_box", "brand": "United States Postal Service", "brand:wikidata": "Q668687", "collection_times": "Mo-Fr 16:30; Sa 11:45", "name": "USPS COLLECTION BOX - PO LOBBY", "note": "ON 12/24 AND 12/31, THIS BOX MAY BE COLLECTED AS EARLY AS 12 NOON.", "nsi_id": "unitedstatespostalservice-a77078", "operator": "United States Postal Service", "operator:short": "USPS", "operator:type": "public", "operator:wikidata": "Q668687", "ref": "1884300002"}, "type": "Feature"}
{"dataset_attributes": {"@spider": "usps_collection_boxes", "spider:collection_time": "2023-11-10T08:24:40.300687"}, "geometry": {"coordinates": [-75.89088626, 41.798716249], "type": "Point"}, "id": "20m9oPdunGmUnj7UMSjH9IlWc38=", "properties": {"@spider": "usps_collection_boxes", "addr:city": "SOUTH MONTROSE", "addr:country": "US", "addr:full": "11187 STATE ROUTE 29", "addr:postcode": "18843", "addr:state": "PA", "amenity": "post_box", "brand": "United States Postal Service", "brand:wikidata": "Q668687", "collection_times": "Mo-Fr 16:30; Sa 12:00", "name": "USPS COLLECTION BOX - PO LOBBY", "note": "ON 12/24 AND 12/31, THIS BOX MAY BE COLLECTED AS EARLY AS 12 NOON.", "nsi_id": "unitedstatespostalservice-a77078", "operator": "United States Postal Service", "operator:short": "USPS", "operator:type": "public", "operator:wikidata": "Q668687", "ref": "1884300004"}, "type": "Feature"}
{"dataset_attributes": {"@spider": "usps_collection_boxes", "spider:collection_time": "2023-11-10T08:24:40.300687"}, "geometry": {"coordinates": [-75.920245, 41.698168], "type": "Point"}, "id": "TWjLvx4UiAk3u28-seSJwHImczQ=", "properties": {"@spider": "usps_collection_boxes", "addr:city": "SPRINGVILLE", "addr:country": "US", "addr:full": "12180 STATE ROUTE 3004", "addr:postcode": "18844", "addr:state": "PA", "amenity": "post_box", "brand": "United States Postal Service", "brand:wikidata": "Q668687", "collection_times": "Mo-Fr 16:15; Sa 11:45", "name": "USPS COLLECTION BOX - BLUE BOX", "note": "ON 12/24 AND 12/31, THIS BOX MAY BE COLLECTED AS EARLY AS 12 NOON.", "nsi_id": "unitedstatespostalservice-a77078", "operator": "United States Postal Service", "operator:short": "USPS", "operator:type": "public", "operator:wikidata": "Q668687", "ref": "1884400001"}, "type": "Feature"}
{"dataset_attributes": {"@spider": "usps_collection_boxes", "spider:collection_time": "2023-11-10T08:24:40.300687"}, "geometry": {"coordinates": [-75.920244, 41.698196], "type": "Point"}, "id": "AOMDiDFfba4LPVg2ClG5zlJ6mdc=", "properties": {"@spider": "usps_collection_boxes", "addr:city": "SPRINGVILLE", "addr:country": "US", "addr:full": "12180 STATE ROUTE 3004", "addr:postcode": "18844", "addr:state": "PA", "amenity": "post_box", "brand": "United States Postal Service", "brand:wikidata": "Q668687", "collection_times": "Mo-Fr 16:15; Sa 11:45", "name": "USPS COLLECTION BOX - PO LOBBY", "note": "ON 12/24 AND 12/31, THIS BOX MAY BE COLLECTED AS EARLY AS 12 NOON.", "nsi_id": "unitedstatespostalservice-a77078", "operator": "United States Postal Service", "operator:short": "USPS", "operator:type": "public", "operator:wikidata": "Q668687", "ref": "1884400002"}, "type": "Feature"}
{"dataset_attributes": {"@spider": "usps_collection_boxes", "spider:collection_time": "2023-11-10T08:24:40.300687"}, "geometry": {"coordinates": [-75.920254825, 41.698117242], "type": "Point"}, "id": "A2tuH66ZI399HHj4IKPmmjUxvEA=", "properties": {"@spider": "usps_collection_boxes", "addr:city": "SPRINGVILLE", "addr:country": "US", "addr:full": "12180 STATE ROUTE 3004", "addr:postcode": "18844", "addr:state": "PA", "amenity": "post_box", "brand": "United States Postal Service", "brand:wikidata": "Q668687", "collection_times": "Mo-Fr 16:15; Sa 11:30", "name": "USPS COLLECTION BOX - PO LOBBY", "note": "ON 12/24 AND 12/31, THIS BOX MAY BE COLLECTED AS EARLY AS 12 NOON.", "nsi_id": "unitedstatespostalservice-a77078", "operator": "United States Postal Service", "operator:short": "USPS", "operator:type": "public", "operator:wikidata": "Q668687", "ref": "1884400004"}, "type": "Feature"}
{"dataset_attributes": {"@spider": "usps_collection_boxes", "spider:collection_time": "2023-11-10T08:24:40.300687"}, "geometry": {"coordinates": [-76.1769417, 41.760167], "type": "Point"}, "id": "TZ32VqO8UEcecRAHn7Eo14WeAaQ=", "properties": {"@spider": "usps_collection_boxes", "addr:city": "STEVENSVILLE", "addr:country": "US", "addr:full": "8979 ROUTE 706", "addr:postcode": "18845", "addr:state": "PA", "amenity": "post_box", "brand": "United States Postal Service", "brand:wikidata": "Q668687", "collection_times": "Mo-Sa 11:30", "name": "USPS COLLECTION BOX - BLUE BOX", "nsi_id": "unitedstatespostalservice-a77078", "operator": "United States Postal Service", "operator:short": "USPS", "operator:type": "public", "operator:wikidata": "Q668687", "ref": "1884500001"}, "type": "Feature"}
{"dataset_attributes": {"@spider": "usps_collection_boxes", "spider:collection_time": "2023-11-10T08:24:40.300687"}, "geometry": {"coordinates": [-76.17079, 41.762381], "type": "Point"}, "id": "uYvQcr7LREFIf_jvEnn0midnqeE=", "properties": {"@spider": "usps_collection_boxes", "addr:city": "STEVENSVILLE", "addr:country": "US", "addr:full": "8979 ROUTE 706", "addr:postcode": "18845", "addr:state": "PA", "amenity": "post_box", "brand": "United States Postal Service", "brand:wikidata": "Q668687", "collection_times": "Mo-Sa 11:30", "name": "USPS COLLECTION BOX - PO LOBBY", "nsi_id": "unitedstatespostalservice-a77078", "operator": "United States Postal Service", "operator:short": "USPS", "operator:type": "public", "operator:wikidata": "Q668687", "ref": "1884500002"}, "type": "Feature"}
{"dataset_attributes": {"@spider": "usps_collection_boxes", "spider:collection_time": "2023-11-10T08:24:40.300687"}, "geometry": {"coordinates": [-76.176972488, 41.760143212], "type": "Point"}, "id": "M-vyhvceW13h8X83-u-eTfQd8Y4=", "properties": {"@spider": "usps_collection_boxes", "addr:city": "STEVENSVILLE", "addr:country": "US", "addr:full": "8979 ROUTE 706", "addr:postcode": "18845", "addr:state": "PA", "amenity": "post_box", "brand": "United States Postal Service", "brand:wikidata": "Q668687", "collection_times": "Mo-Sa 11:30", "name": "USPS COLLECTION BOX - PO LOBBY", "nsi_id": "unitedstatespostalservice-a77078", "operator": "United States Postal Service", "operator:short": "USPS", "operator:type": "public", "operator:wikidata": "Q668687", "ref": "1884500004"}, "type": "Feature"}
{"dataset_attributes": {"@spider": "usps_collection_boxes", "spider:collection_time": "2023-11-10T08:24:40.300687"}, "geometry": {"coordinates": [-76.244942, 41.610475], "type": "Point"}, "id": "OmeJDaqmPgyVbn6vT_AvlB4OYHU=", "properties": {"@spider": "usps_collection_boxes", "addr:city": "SUGAR RUN", "addr:country": "US", "addr:full": "4873 ROUTE 187", "addr:postcode": "18846", "addr:state": "PA", "amenity": "post_box", "brand": "United States Postal Service", "brand:wikidata": "Q668687", "collection_times": "Mo-Fr 16:00; Sa 11:00", "name": "USPS COLLECTION BOX - BLUE BOX", "note": "ON 12/24 AND 12/31, THIS BOX MAY BE COLLECTED AS EARLY AS 12 NOON.", "nsi_id": "unitedstatespostalservice-a77078", "operator": "United States Postal Service", "operator:short": "USPS", "operator:type": "public", "operator:wikidata": "Q668687", "ref": "1884600001"}, "type": "Feature"}
{"dataset_attributes": {"@spider": "usps_collection_boxes", "spider:collection_time": "2023-11-10T08:24:40.300687"}, "geometry": {"coordinates": [-76.244944, 41.610474], "type": "Point"}, "id": "xgof85GoHE33hYMIA6PUdSUszrw=", "properties": {"@spider": "usps_collection_boxes", "addr:city": "SUGAR RUN", "addr:country": "US", "addr:full": "4873 ROUTE 187", "addr:postcode": "18846", "addr:state": "PA", "amenity": "post_box", "brand": "United States Postal Service", "brand:wikidata": "Q668687", "collection_times": "Mo-Fr 16:00; Sa 11:00", "name": "USPS COLLECTION BOX - PO LOBBY", "note": "ON 12/24 AND 12/31, THIS BOX MAY BE COLLECTED AS EARLY AS 12 NOON.", "nsi_id": "unitedstatespostalservice-a77078", "operator": "United States Postal Service", "operator:short": "USPS", "operator:type": "public", "operator:wikidata": "Q668687", "ref": "1884600002"}, "type": "Feature"}
{"dataset_attributes": {"@spider": "usps_collection_boxes", "spider:collection_time": "2023-11-10T08:24:40.300687"}, "geometry": {"coordinates": [-76.245001, 41.610407849], "type": "Point"}, "id": "fHbVvn2VS9-EGe6pkpi9n3b9nfY=", "properties": {"@spider": "usps_collection_boxes", "addr:city": "SUGAR RUN", "addr:country": "US", "addr:full": "4873 SR 187", "addr:postcode": "18846", "addr:state": "PA", "amenity": "post_box", "brand": "United States Postal Service", "brand:wikidata": "Q668687", "collection_times": "Mo-Fr 16:15; Sa 11:30", "name": "USPS COLLECTION BOX - PO LOBBY", "note": "ON 12/24 AND 12/31, THIS BOX MAY BE COLLECTED AS EARLY AS 12 NOON.", "nsi_id": "unitedstatespostalservice-a77078", "operator": "United States Postal Service", "operator:short": "USPS", "operator:type": "public", "operator:wikidata": "Q668687", "ref": "1884600004"}, "type": "Feature"}
{"dataset_attributes": {"@spider": "usps_collection_boxes", "spider:collection_time": "2023-11-10T08:24:40.300687"}, "geometry": {"coordinates": [-75.6044599, 41.946378], "type": "Point"}, "id": "aHqbn_O0ZZ0dwJGassDWSpcu5LU=", "properties": {"@spider": "usps_collection_boxes", "addr:city": "SUSQUEHANNA", "addr:country": "US", "addr:full": "191 ERIE BLVD", "addr:postcode": "18847", "addr:state": "PA", "amenity": "post_box", "brand": "United States Postal Service", "brand:wikidata": "Q668687", "collection_times": "Mo-Sa 13:00", "name": "USPS COLLECTION BOX - BLUE BOX", "note": "ON 12/24 AND 12/31, THIS BOX MAY BE COLLECTED AS EARLY AS 12 NOON.", "nsi_id": "unitedstatespostalservice-a77078", "operator": "United States Postal Service", "operator:short": "USPS", "operator:type": "public", "operator:wikidata": "Q668687", "ref": "1884700008"}, "type": "Feature"}
{"dataset_attributes": {"@spider": "usps_collection_boxes", "spider:collection_time": "2023-11-10T08:24:40.300687"}, "geometry": {"coordinates": [-75.605326, 41.945451], "type": "Point"}, "id": "t-0VwU92ghJ19kfOliyWbxSQT9o=", "properties": {"@spider": "usps_collection_boxes", "addr:city": "SUSQUEHANNA", "addr:country": "US", "addr:full": "1186 MAIN ST", "addr:postcode": "18847", "addr:state": "PA", "amenity": "post_box", "brand": "United States Postal Service", "brand:wikidata": "Q668687", "collection_times": "Mo-Fr 16:45; Sa 12:00", "name": "USPS COLLECTION BOX - BLUE BOX", "note": "ON 12/24 AND 12/31, THIS BOX MAY BE COLLECTED AS EARLY AS 12 NOON.", "nsi_id": "unitedstatespostalservice-a77078", "operator": "United States Postal Service", "operator:short": "USPS", "operator:type": "public", "operator:wikidata": "Q668687", "ref": "1884700009"}, "type": "Feature"}
{"dataset_attributes": {"@spider": "usps_collection_boxes", "spider:collection_time": "2023-11-10T08:24:40.300687"}, "geometry": {"coordinates": [-75.605426, 41.945442], "type": "Point"}, "id": "kwAgXmPTkRkIqM5NQ0uWw73NuYw=", "properties": {"@spider": "usps_collection_boxes", "addr:city": "SUSQUEHANNA", "addr:country": "US", "addr:full": "1186 MAIN ST", "addr:postcode": "18847", "addr:state": "PA", "amenity": "post_box", "brand": "United States Postal Service", "brand:wikidata": "Q668687", "collection_times": "Mo-Fr 16:45; Sa 12:00", "name": "USPS COLLECTION BOX - PO LOBBY", "note": "ON 12/24 AND 12/31, THIS BOX MAY BE COLLECTED AS EARLY AS 12 NOON.", "nsi_id": "unitedstatespostalservice-a77078", "operator": "United States Postal Service", "operator:short": "USPS", "operator:type": "public", "operator:wikidata": "Q668687", "ref": "1884700012"}, "type": "Feature"}
{"dataset_attributes": {"@spider": "usps_collection_boxes", "spider:collection_time": "2023-11-10T08:24:40.300687"}, "geometry": {"coordinates": [-75.605477864, 41.945336774], "type": "Point"}, "id": "_0htk1iNCeWVpPhdJ3G5jD39m_w=", "properties": {"@spider": "usps_collection_boxes", "addr:city": "SUSQUEHANNA", "addr:country": "US", "addr:full": "1186 MAIN ST", "addr:postcode": "18847", "addr:state": "PA", "amenity": "post_box", "brand": "United States Postal Service", "brand:wikidata": "Q668687", "collection_times": "Mo-Fr 17:00; Sa 12:15", "name": "USPS COLLECTION BOX - PO LOBBY", "note": "ON 12/24 AND 12/31, THIS BOX MAY BE COLLECTED AS EARLY AS 12 NOON.", "nsi_id": "unitedstatespostalservice-a77078", "operator": "United States Postal Service", "operator:short": "USPS", "operator:type": "public", "operator:wikidata": "Q668687", "ref": "1884700016"}, "type": "Feature"}
{"dataset_attributes": {"@spider": "usps_collection_boxes", "spider:collection_time": "2023-11-10T08:24:40.300687"}, "geometry": {"coordinates": [-76.4508238, 41.782566], "type": "Point"}, "id": "M32H7rkeOmV1lKkU-D2E21KSfLo=", "properties": {"@spider": "usps_collection_boxes", "addr:city": "TOWANDA", "addr:country": "US", "addr:full": "387 YORK AVE", "addr:postcode": "18848", "addr:state": "PA", "amenity": "post_box", "brand": "United States Postal Service", "brand:wikidata": "Q668687", "collection_times": "Mo-Sa 12:30", "name": "USPS COLLECTION BOX - BLUE BOX", "note": "ON 12/24 AND 12/31, THIS BOX MAY BE COLLECTED AS EARLY AS 12 NOON.", "nsi_id": "unitedstatespostalservice-a77078", "operator": "United States Postal Service", "operator:short": "USPS", "operator:type": "public", "operator:wikidata": "Q668687", "ref": "1884800007"}, "type": "Feature"}
{"dataset_attributes": {"@spider": "usps_collection_boxes", "spider:collection_time": "2023-11-10T08:24:40.300687"}, "geometry": {"coordinates": [-76.4430181, 41.767315], "type": "Point"}, "id": "RWHIefiOEv6h7UDuoM7BkkyrIEc=", "properties": {"@spider": "usps_collection_boxes", "addr:city": "TOWANDA", "addr:country": "US", "addr:full": "301 MAIN ST", "addr:postcode": "18848", "addr:state": "PA", "amenity": "post_box", "brand": "United States Postal Service", "brand:wikidata": "Q668687", "collection_times": "Mo-Sa 10:30", "name": "USPS COLLECTION BOX - BLUE BOX", "nsi_id": "unitedstatespostalservice-a77078", "operator": "United States Postal Service", "operator:short": "USPS", "operator:type": "public", "operator:wikidata": "Q668687", "ref": "1884800013"}, "type": "Feature"}
{"dataset_attributes": {"@spider": "usps_collection_boxes", "spider:collection_time": "2023-11-10T08:24:40.300687"}, "geometry": {"coordinates": [-76.4429845, 41.765497], "type": "Point"}, "id": "_Fj3XpOKWWb1XOSNKM_cLJ6OV7w=", "properties": {"@spider": "usps_collection_boxes", "addr:city": "TOWANDA", "addr:country": "US", "addr:full": "428 MAIN ST", "addr:postcode": "18848", "addr:state": "PA", "amenity": "post_box", "brand": "United States Postal Service", "brand:wikidata": "Q668687", "collection_times": "Mo-Sa 11:00", "name": "USPS COLLECTION BOX - BLUE BOX", "nsi_id": "unitedstatespostalservice-a77078", "operator": "United States Postal Service", "operator:short": "USPS", "operator:type": "public", "operator:wikidata": "Q668687", "ref": "1884800016"}, "type": "Feature"}
{"dataset_attributes": {"@spider": "usps_collection_boxes", "spider:collection_time": "2023-11-10T08:24:40.300687"}, "geometry": {"coordinates": [-76.4431461, 41.763369], "type": "Point"}, "id": "fVF8Sk-AWuNQuHZv7rxwoRb3Oqg=", "properties": {"@spider": "usps_collection_boxes", "addr:city": "TOWANDA", "addr:country": "US", "addr:full": "700 MAIN ST", "addr:postcode": "18848", "addr:state": "PA", "amenity": "post_box", "brand": "United States Postal Service", "brand:wikidata": "Q668687", "collection_times": "Mo-Fr 16:45; Sa 16:30", "name": "USPS COLLECTION BOX - BLUE BOX", "note": "ON 12/24 AND 12/31, THIS BOX MAY BE COLLECTED AS EARLY AS 12 NOON.", "nsi_id": "unitedstatespostalservice-a77078", "operator": "United States Postal Service", "operator:short": "USPS", "operator:type": "public", "operator:wikidata": "Q668687", "ref": "1884800018"}, "type": "Feature"}
{"dataset_attributes": {"@spider": "usps_collection_boxes", "spider:collection_time": "2023-11-10T08:24:40.300687"}, "geometry": {"coordinates": [-76.4210184, 41.767869], "type": "Point"}, "id": "qcHHdb7jmSDPHoVP2byEfxzCsjg=", "properties": {"@spider": "usps_collection_boxes", "addr:city": "TOWANDA", "addr:country": "US", "addr:full": "RR 6 BOX 1", "addr:postcode": "18848", "addr:state": "PA", "amenity": "post_box", "brand": "United States Postal Service", "brand:wikidata": "Q668687", "collection_times": "Mo-Sa 09:30", "name": "USPS COLLECTION BOX - BLUE BOX", "nsi_id": "unitedstatespostalservice-a77078", "operator": "United States Postal Service", "operator:short": "USPS", "operator:type": "public", "operator:wikidata": "Q668687", "ref": "1884800020"}, "type": "Feature"}
{"dataset_attributes": {"@spider": "usps_collection_boxes", "spider:collection_time": "2023-11-10T08:24:40.300687"}, "geometry": {"coordinates": [-76.4430611, 41.765076], "type": "Point"}, "id": "ngPqkZO6ErRxEQDKEFdLBCAG6MI=", "properties": {"@spider": "usps_collection_boxes", "addr:city": "TOWANDA", "addr:country": "US", "addr:full": "507 MAIN ST", "addr:postcode": "18848", "addr:state": "PA", "amenity": "post_box", "brand": "United States Postal Service", "brand:wikidata": "Q668687", "collection_times": "Mo-Sa 10:00", "name": "USPS COLLECTION BOX - BLUE BOX", "nsi_id": "unitedstatespostalservice-a77078", "operator": "United States Postal Service", "operator:short": "USPS", "operator:type": "public", "operator:wikidata": "Q668687", "ref": "1884800023"}, "type": "Feature"}
{"dataset_attributes": {"@spider": "usps_collection_boxes", "spider:collection_time": "2023-11-10T08:24:40.300687"}, "geometry": {"coordinates": [-76.4432517, 41.763258], "type": "Point"}, "id": "KM-3qKKFgJn_1N51LpjCClDbQqY=", "properties": {"@spider": "usps_collection_boxes", "addr:city": "TOWANDA", "addr:country": "US", "addr:full": "700 MAIN ST", "addr:postcode": "18848", "addr:state": "PA", "amenity": "post_box", "brand": "United States Postal Service", "brand:wikidata": "Q668687", "collection_times": "Mo-Fr 17:00; Sa 11:00", "name": "USPS COLLECTION BOX - PO LOBBY", "note": "ON 12/24 AND 12/31, THIS BOX MAY BE COLLECTED AS EARLY AS 12 NOON.", "nsi_id": "unitedstatespostalservice-a77078", "operator": "United States Postal Service", "operator:short": "USPS", "operator:type": "public", "operator:wikidata": "Q668687", "ref": "1884800024"}, "type": "Feature"}
{"dataset_attributes": {"@spider": "usps_collection_boxes", "spider:collection_time": "2023-11-10T08:24:40.300687"}, "geometry": {"coordinates": [-76.443090352, 41.763193994], "type": "Point"}, "id": "jb0DP_-gWwWsWQQpaNdaExyhZJ8=", "properties": {"@spider": "usps_collection_boxes", "addr:city": "TOWANDA", "addr:country": "US", "addr:full": "700 MAIN ST", "addr:postcode": "18848", "addr:state": "PA", "amenity": "post_box", "brand": "United States Postal Service", "brand:wikidata": "Q668687", "collection_times": "Mo-Fr 17:00; Sa 11:00", "name": "USPS COLLECTION BOX - PO LOBBY", "note": "ON 12/24 AND 12/31, THIS BOX MAY BE COLLECTED AS EARLY AS 12 NOON.", "nsi_id": "unitedstatespostalservice-a77078", "operator": "United States Postal Service", "operator:short": "USPS", "operator:type": "public", "operator:wikidata": "Q668687", "ref": "1884800028"}, "type": "Feature"}
{"dataset_attributes": {"@spider": "usps_collection_boxes", "spider:collection_time": "2023-11-10T08:24:40.300687"}, "geometry": {"coordinates": [-76.502234, 41.845527], "type": "Point"}, "id": "-sL__nHP_-2337tnjH5KZofO1As=", "properties": {"@spider": "usps_collection_boxes", "addr:city": "ULSTER", "addr:country": "US", "addr:full": "23848 ROUTE 220", "addr:postcode": "18850", "addr:state": "PA", "amenity": "post_box", "brand": "United States Postal Service", "brand:wikidata": "Q668687", "collection_times": "Mo-Fr 16:00; Sa 11:30", "name": "USPS COLLECTION BOX - BLUE BOX", "note": "ON 12/24 AND 12/31, THIS BOX MAY BE COLLECTED AS EARLY AS 12 NOON.", "nsi_id": "unitedstatespostalservice-a77078", "operator": "United States Postal Service", "operator:short": "USPS", "operator:type": "public", "operator:wikidata": "Q668687", "ref": "1885000001"}, "type": "Feature"}
{"dataset_attributes": {"@spider": "usps_collection_boxes", "spider:collection_time": "2023-11-10T08:24:40.300687"}, "geometry": {"coordinates": [-76.5020375, 41.845491], "type": "Point"}, "id": "UpxkunwEIef7g6MXkUgKKYZ1GEs=", "properties": {"@spider": "usps_collection_boxes", "addr:city": "ULSTER", "addr:country": "US", "addr:full": "23848 ROUTE 220", "addr:postcode": "18850", "addr:state": "PA", "amenity": "post_box", "brand": "United States Postal Service", "brand:wikidata": "Q668687", "collection_times": "Mo-Fr 16:00; Sa 11:30", "name": "USPS COLLECTION BOX - PO LOBBY", "note": "ON 12/24 AND 12/31, THIS BOX MAY BE COLLECTED AS EARLY AS 12 NOON.", "nsi_id": "unitedstatespostalservice-a77078", "operator": "United States Postal Service", "operator:short": "USPS", "operator:type": "public", "operator:wikidata": "Q668687", "ref": "1885000002"}, "type": "Feature"}
{"dataset_attributes": {"@spider": "usps_collection_boxes", "spider:collection_time": "2023-11-10T08:24:40.300687"}, "geometry": {"coordinates": [-76.502304377, 41.845458739], "type": "Point"}, "id": "_D9dFbJhmqdJkB8vptm9w9KrkYU=", "properties": {"@spider": "usps_collection_boxes", "addr:city": "ULSTER", "addr:country": "US", "addr:full": "23848 ROUTE 220", "addr:postcode": "18850", "addr:state": "PA", "amenity": "post_box", "brand": "United States Postal Service", "brand:wikidata": "Q668687", "collection_times": "Mo-Fr 16:30; Sa 11:30", "name": "USPS COLLECTION BOX - PO LOBBY", "note": "ON 12/24 AND 12/31, THIS BOX MAY BE COLLECTED AS EARLY AS 12 NOON.", "nsi_id": "unitedstatespostalservice-a77078", "operator": "United States Postal Service", "operator:short": "USPS", "operator:type": "public", "operator:wikidata": "Q668687", "ref": "1885000004"}, "type": "Feature"}
{"dataset_attributes": {"@spider": "usps_collection_boxes", "spider:collection_time": "2023-11-10T08:24:40.300687"}, "geometry": {"coordinates": [-76.182542, 41.938269], "type": "Point"}, "id": "SEgErfZyP7hN2XiZ-6frF4_M3Nc=", "properties": {"@spider": "usps_collection_boxes", "addr:city": "WARREN CENTER", "addr:country": "US", "addr:full": "1 SCHOOL HOUSE RD", "addr:postcode": "18851", "addr:state": "PA", "amenity": "post_box", "brand": "United States Postal Service", "brand:wikidata": "Q668687", "collection_times": "Mo-Fr 15:30; Sa 12:00", "name": "USPS COLLECTION BOX - BLUE BOX", "note": "ON 12/24 AND 12/31, THIS BOX MAY BE COLLECTED AS EARLY AS 12 NOON.", "nsi_id": "unitedstatespostalservice-a77078", "operator": "United States Postal Service", "operator:short": "USPS", "operator:type": "public", "operator:wikidata": "Q668687", "ref": "1885100001"}, "type": "Feature"}
{"dataset_attributes": {"@spider": "usps_collection_boxes", "spider:collection_time": "2023-11-10T08:24:40.300687"}, "geometry": {"coordinates": [-76.182541, 41.93827], "type": "Point"}, "id": "u2t2ACUg_x8kK2iyrQwjyZk68ek=", "properties": {"@spider": "usps_collection_boxes", "addr:city": "WARREN CENTER", "addr:country": "US", "addr:full": "1 SCHOOLHOUSE RD", "addr:postcode": "18851", "addr:state": "PA", "amenity": "post_box", "brand": "United States Postal Service", "brand:wikidata": "Q668687", "collection_times": "Mo-Fr 15:45; Sa 12:00", "name": "USPS COLLECTION BOX - PO LOBBY", "note": "ON 12/24 AND 12/31, THIS BOX MAY BE COLLECTED AS EARLY AS 12 NOON.", "nsi_id": "unitedstatespostalservice-a77078", "operator": "United States Postal Service", "operator:short": "USPS", "operator:type": "public", "operator:wikidata": "Q668687", "ref": "1885100002"}, "type": "Feature"}
{"dataset_attributes": {"@spider": "usps_collection_boxes", "spider:collection_time": "2023-11-10T08:24:40.300687"}, "geometry": {"coordinates": [-76.18258789, 41.938266126], "type": "Point"}, "id": "nPNnM5QvWYNtmHaCnbDrLIoq5_M=", "properties": {"@spider": "usps_collection_boxes", "addr:city": "WARREN CENTER", "addr:country": "US", "addr:full": "1 SCHOOL HOUSE RD", "addr:postcode": "18851", "addr:state": "PA", "amenity": "post_box", "brand": "United States Postal Service", "brand:wikidata": "Q668687", "collection_times": "Mo-Fr 15:45; Sa 12:00", "name": "USPS COLLECTION BOX - PO LOBBY", "note": "ON 12/24 AND 12/31, THIS BOX MAY BE COLLECTED AS EARLY AS 12 NOON.", "nsi_id": "unitedstatespostalservice-a77078", "operator": "United States Postal Service", "operator:short": "USPS", "operator:type": "public", "operator:wikidata": "Q668687", "ref": "1885100004"}, "type": "Feature"}
{"dataset_attributes": {"@spider": "usps_collection_boxes", "spider:collection_time": "2023-11-10T08:24:40.300687"}, "geometry": {"coordinates": [-76.2618583, 41.666607], "type": "Point"}, "id": "Pz5ByZ9-aT6hNsptb71gPCXEA_U=", "properties": {"@spider": "usps_collection_boxes", "addr:city": "WYALUSING", "addr:country": "US", "addr:full": "58 CHURCH ST", "addr:postcode": "18853", "addr:state": "PA", "amenity": "post_box", "brand": "United States Postal Service", "brand:wikidata": "Q668687", "collection_times": "Mo-Fr 16:45; Sa 11:45", "name": "USPS COLLECTION BOX - BLUE BOX", "note": "ON 12/24 AND 12/31, THIS BOX MAY BE COLLECTED AS EARLY AS 12 NOON.", "nsi_id": "unitedstatespostalservice-a77078", "operator": "United States Postal Service", "operator:short": "USPS", "operator:type": "public", "operator:wikidata": "Q668687", "ref": "1885300001"}, "type": "Feature"}
{"dataset_attributes": {"@spider": "usps_collection_boxes", "spider:collection_time": "2023-11-10T08:24:40.300687"}, "geometry": {"coordinates": [-76.26286, 41.66618], "type": "Point"}, "id": "HBj3hib78j_TRtEaXk5NmCqRnZ8=", "properties": {"@spider": "usps_collection_boxes", "addr:city": "WYALUSING", "addr:country": "US", "addr:full": "58 CHURCH ST", "addr:postcode": "18853", "addr:state": "PA", "amenity": "post_box", "brand": "United States Postal Service", "brand:wikidata": "Q668687", "collection_times": "Mo-Fr 17:00; Sa 12:00", "name": "USPS COLLECTION BOX - PO LOBBY", "note": "ON 12/24 AND 12/31, THIS BOX MAY BE COLLECTED AS EARLY AS 12 NOON.", "nsi_id": "unitedstatespostalservice-a77078", "operator": "United States Postal Service", "operator:short": "USPS", "operator:type": "public", "operator:wikidata": "Q668687", "ref": "1885300003"}, "type": "Feature"}
{"dataset_attributes": {"@spider": "usps_collection_boxes", "spider:collection_time": "2023-11-10T08:24:40.300687"}, "geometry": {"coordinates": [-76.2570726, 41.664264], "type": "Point"}, "id": "0GRAplgZq2W9nnVftfUE9C3fXVs=", "properties": {"@spider": "usps_collection_boxes", "addr:city": "WYALUSING", "addr:country": "US", "addr:full": "42621 ROUTE 6", "addr:postcode": "18853", "addr:state": "PA", "amenity": "post_box", "brand": "United States Postal Service", "brand:wikidata": "Q668687", "collection_times": "Mo-Sa 12:45", "name": "USPS COLLECTION BOX - BLUE BOX", "note": "ON 12/24 AND 12/31, THIS BOX MAY BE COLLECTED AS EARLY AS 12 NOON.", "nsi_id": "unitedstatespostalservice-a77078", "operator": "United States Postal Service", "operator:short": "USPS", "operator:type": "public", "operator:wikidata": "Q668687", "ref": "1885300004"}, "type": "Feature"}
{"dataset_attributes": {"@spider": "usps_collection_boxes", "spider:collection_time": "2023-11-10T08:24:40.300687"}, "geometry": {"coordinates": [-76.262767941, 41.666151391], "type": "Point"}, "id": "lzdXOt69rqNTMUYiqeeZB-gzR0o=", "properties": {"@spider": "usps_collection_boxes", "addr:city": "WYALUSING", "addr:country": "US", "addr:full": "58 CHURCH ST", "addr:postcode": "18853", "addr:state": "PA", "amenity": "post_box", "brand": "United States Postal Service", "brand:wikidata": "Q668687", "collection_times": "Mo-Fr 17:05; Sa 11:15", "name": "USPS COLLECTION BOX - PO LOBBY", "note": "ON 12/24 AND 12/31, THIS BOX MAY BE COLLECTED AS EARLY AS 12 NOON.", "nsi_id": "unitedstatespostalservice-a77078", "operator": "United States Postal Service", "operator:short": "USPS", "operator:type": "public", "operator:wikidata": "Q668687", "ref": "1885300006"}, "type": "Feature"}
{"dataset_attributes": {"@spider": "usps_collection_boxes", "spider:collection_time": "2023-11-10T08:24:40.300687"}, "geometry": {"coordinates": [-76.403395, 41.77346], "type": "Point"}, "id": "X_G80LOK3ZIDims3B_7Wfm-_WE4=", "properties": {"@spider": "usps_collection_boxes", "addr:city": "WYSOX", "addr:country": "US", "addr:full": "1800 GOLDEN MILE RD", "addr:postcode": "18854", "addr:state": "PA", "amenity": "post_box", "brand": "United States Postal Service", "brand:wikidata": "Q668687", "collection_times": "Mo-Fr 16:45; Sa 11:30", "name": "USPS COLLECTION BOX - BLUE BOX", "note": "ON 12/24 AND 12/31, THIS BOX MAY BE COLLECTED AS EARLY AS 12 NOON.", "nsi_id": "unitedstatespostalservice-a77078", "operator": "United States Postal Service", "operator:short": "USPS", "operator:type": "public", "operator:wikidata": "Q668687", "ref": "1885400001"}, "type": "Feature"}
{"dataset_attributes": {"@spider": "usps_collection_boxes", "spider:collection_time": "2023-11-10T08:24:40.300687"}, "geometry": {"coordinates": [-76.403383, 41.77349], "type": "Point"}, "id": "fqRGw9Khyp5-sJt2_zkn-TD4Eks=", "properties": {"@spider": "usps_collection_boxes", "addr:city": "WYSOX", "addr:country": "US", "addr:full": "1800 GOLDEN MILE RD", "addr:postcode": "18854", "addr:state": "PA", "amenity": "post_box", "brand": "United States Postal Service", "brand:wikidata": "Q668687", "collection_times": "Mo-Fr 16:45; Sa 11:30", "name": "USPS COLLECTION BOX - PO LOBBY", "note": "ON 12/24 AND 12/31, THIS BOX MAY BE COLLECTED AS EARLY AS 12 NOON.", "nsi_id": "unitedstatespostalservice-a77078", "operator": "United States Postal Service", "operator:short": "USPS", "operator:type": "public", "operator:wikidata": "Q668687", "ref": "1885400002"}, "type": "Feature"}
{"dataset_attributes": {"@spider": "usps_collection_boxes", "spider:collection_time": "2023-11-10T08:24:40.300687"}, "geometry": {"coordinates": [-76.403425244, 41.773449722], "type": "Point"}, "id": "T_26iP3qA_a3YVTibon4JHQUj1g=", "properties": {"@spider": "usps_collection_boxes", "addr:city": "WYSOX", "addr:country": "US", "addr:full": "1800 GOLDEN MILE RD", "addr:postcode": "18854", "addr:state": "PA", "amenity": "post_box", "brand": "United States Postal Service", "brand:wikidata": "Q668687", "collection_times": "Mo-Fr 16:45; Sa 11:30", "name": "USPS COLLECTION BOX - PO LOBBY", "note": "ON 12/24 AND 12/31, THIS BOX MAY BE COLLECTED AS EARLY AS 12 NOON.", "nsi_id": "unitedstatespostalservice-a77078", "operator": "United States Postal Service", "operator:short": "USPS", "operator:type": "public", "operator:wikidata": "Q668687", "ref": "1885400004"}, "type": "Feature"}
