{"geometry": {"coordinates": [-75.3469913, 40.128318], "type": "Point"}, "id": "6nXaOyQwqosv9PXRZN_rzEL-cTQ=", "properties": {"@spider": "usps_collection_boxes", "addr:city": "NORRISTOWN", "addr:country": "US", "addr:full": "1025 STANBRIDGE ST", "addr:postcode": "19401", "addr:state": "PA", "brand": "USPS", "collection_times": "Mo-Sa 09:00", "name": "USPS COLLECTION BOX - BLUE BOX", "ref": "1940100003"}, "type": "Feature"}
{"geometry": {"coordinates": [-75.3346878, 40.112158], "type": "Point"}, "id": "d-kNPp2rP9pEZu-nRsPZkL5Wqaw=", "properties": {"@spider": "usps_collection_boxes", "addr:city": "NORRISTOWN", "addr:country": "US", "addr:full": "300 WALNUT ST", "addr:postcode": "19401", "addr:state": "PA", "brand": "USPS", "collection_times": "Mo-Sa 09:00", "name": "USPS COLLECTION BOX - BLUE BOX", "ref": "1940100015"}, "type": "Feature"}
{"geometry": {"coordinates": [-75.3370815, 40.125884], "type": "Point"}, "id": "IvY80yNcer0tIo7fu-yI4snsmBs=", "properties": {"@spider": "usps_collection_boxes", "addr:city": "NORRISTOWN", "addr:country": "US", "addr:full": "122 W FORNANCE ST", "addr:postcode": "19401", "addr:state": "PA", "brand": "USPS", "collection_times": "Mo-Sa 09:00", "name": "USPS COLLECTION BOX - BLUE BOX", "ref": "1940100025"}, "type": "Feature"}
{"geometry": {"coordinates": [-75.3347729, 40.128902], "type": "Point"}, "id": "nuKg2KhWCdn1Rk70aOTWQDm1_0w=", "properties": {"@spider": "usps_collection_boxes", "addr:city": "NORRISTOWN", "addr:country": "US", "addr:full": "230 W BROWN ST", "addr:postcode": "19401", "addr:state": "PA", "brand": "USPS", "collection_times": "Mo-Sa 09:00", "name": "USPS COLLECTION BOX - BLUE BOX", "ref": "1940100031"}, "type": "Feature"}
{"geometry": {"coordinates": [-75.3336752, 40.125806], "type": "Point"}, "id": "Q68_umzgewYFB7LqSqjRx1OOYJE=", "properties": {"@spider": "usps_collection_boxes", "addr:city": "NORRISTOWN", "addr:country": "US", "addr:full": "1501 POWELL ST", "addr:postcode": "19401", "addr:state": "PA", "brand": "USPS", "collection_times": "Mo-Sa 09:00", "name": "USPS COLLECTION BOX - BLUE BOX", "ref": "1940100032"}, "type": "Feature"}
{"geometry": {"coordinates": [-75.3295976, 40.129834], "type": "Point"}, "id": "hQyAZJzo_pXoelIZL_KdMHaekSs=", "properties": {"@spider": "usps_collection_boxes", "addr:city": "NORRISTOWN", "addr:country": "US", "addr:full": "1790 LOCUST ST", "addr:postcode": "19401", "addr:state": "PA", "brand": "USPS", "collection_times": "Mo-Sa 09:00", "name": "USPS COLLECTION BOX - BLUE BOX", "ref": "1940100033"}, "type": "Feature"}
{"geometry": {"coordinates": [-75.3596887, 40.121793], "type": "Point"}, "id": "uNn9uc3r-swlQJ6GJDZBs8m2o_8=", "properties": {"@spider": "usps_collection_boxes", "addr:city": "NORRISTOWN", "addr:country": "US", "addr:full": "1200 W MAIN ST", "addr:postcode": "19401", "addr:state": "PA", "brand": "USPS", "collection_times": "Mo-Sa 09:00", "name": "USPS COLLECTION BOX - BLUE BOX", "ref": "1940100034"}, "type": "Feature"}
{"geometry": {"coordinates": [-75.3414013, 40.128934], "type": "Point"}, "id": "rXiqq1CHYZqjK-roORPT6QITeaM=", "properties": {"@spider": "usps_collection_boxes", "addr:city": "NORRISTOWN", "addr:country": "US", "addr:full": "1400 HARDING BLVD", "addr:postcode": "19401", "addr:state": "PA", "brand": "USPS", "collection_times": "Mo-Sa 09:00", "name": "USPS COLLECTION BOX - BLUE BOX", "ref": "1940100036"}, "type": "Feature"}
{"geometry": {"coordinates": [-75.3177741, 40.123723], "type": "Point"}, "id": "ZTw98lW3d-8-PcCeW04bw7po64E=", "properties": {"@spider": "usps_collection_boxes", "addr:city": "NORRISTOWN", "addr:country": "US", "addr:full": "1931 NEW HOPE ST", "addr:postcode": "19401", "addr:state": "PA", "brand": "USPS", "collection_times": "Mo-Fr 17:00; Sa 11:15", "name": "USPS COLLECTION BOX - BLUE BOX", "note": "ON 12/24 AND 12/31, THIS BOX MAY BE COLLECTED AS EARLY AS 12 NOON.", "ref": "1940100040"}, "type": "Feature"}
{"geometry": {"coordinates": [-75.3612978, 40.119987], "type": "Point"}, "id": "kNSo2qKDdBrux7c8s80iFTLnL6Y=", "properties": {"@spider": "usps_collection_boxes", "addr:city": "NORRISTOWN", "addr:country": "US", "addr:full": "1201 W WASHINGTON ST", "addr:postcode": "19401", "addr:state": "PA", "brand": "USPS", "collection_times": "Mo-Sa 09:00", "name": "USPS COLLECTION BOX - BLUE BOX", "ref": "1940100043"}, "type": "Feature"}
{"geometry": {"coordinates": [-75.3185679, 40.125844], "type": "Point"}, "id": "w5k9_sbw6zORkUVXU-enN8DIBwE=", "properties": {"@spider": "usps_collection_boxes", "addr:city": "NORRISTOWN", "addr:country": "US", "addr:full": "700 E JOHNSON HWY", "addr:postcode": "19401", "addr:state": "PA", "brand": "USPS", "collection_times": "Mo-Sa 09:00", "name": "USPS COLLECTION BOX - BLUE BOX", "ref": "1940100044"}, "type": "Feature"}
{"geometry": {"coordinates": [-75.3505751, 40.120974], "type": "Point"}, "id": "RqKct8cHAWmAiJN_ypc6LwUsJPw=", "properties": {"@spider": "usps_collection_boxes", "addr:city": "NORRISTOWN", "addr:country": "US", "addr:full": "621 W MARSHALL ST", "addr:postcode": "19401", "addr:state": "PA", "brand": "USPS", "collection_times": "Mo-Sa 09:00", "name": "USPS COLLECTION BOX - BLUE BOX", "ref": "1940100046"}, "type": "Feature"}
{"geometry": {"coordinates": [-75.3514768, 40.121469], "type": "Point"}, "id": "sg5sa1QeCbY9yPvHQUd0-lWzx-U=", "properties": {"@spider": "usps_collection_boxes", "addr:city": "NORRISTOWN", "addr:country": "US", "addr:full": "724 W MARSHALL ST", "addr:postcode": "19401", "addr:state": "PA", "brand": "USPS", "collection_times": "Mo-Sa 09:00", "name": "USPS COLLECTION BOX - BLUE BOX", "ref": "1940100052"}, "type": "Feature"}
{"geometry": {"coordinates": [-75.3394704, 40.118121], "type": "Point"}, "id": "IpcyAxQvYB7AatGp2tjvUNngA98=", "properties": {"@spider": "usps_collection_boxes", "addr:city": "NORRISTOWN", "addr:country": "US", "addr:full": "800 DEKALB ST", "addr:postcode": "19401", "addr:state": "PA", "brand": "USPS", "collection_times": "Mo-Sa 09:00", "name": "USPS COLLECTION BOX - BLUE BOX", "ref": "1940100056"}, "type": "Feature"}
{"geometry": {"coordinates": [-75.3513796, 40.127724], "type": "Point"}, "id": "rraz4KwRh9r9Dmkk2jGDSWR92HQ=", "properties": {"@spider": "usps_collection_boxes", "addr:city": "NORRISTOWN", "addr:country": "US", "addr:full": "900 BUTTONWOOD ST", "addr:postcode": "19401", "addr:state": "PA", "brand": "USPS", "collection_times": "Mo-Sa 09:00", "name": "USPS COLLECTION BOX - BLUE BOX", "ref": "1940100059"}, "type": "Feature"}
{"geometry": {"coordinates": [-75.3229604, 40.122349], "type": "Point"}, "id": "SjHZKyk2-_UiFmoankrWHQXck-I=", "properties": {"@spider": "usps_collection_boxes", "addr:city": "NORRISTOWN", "addr:country": "US", "addr:full": "601 E ROBERTS ST", "addr:postcode": "19401", "addr:state": "PA", "brand": "USPS", "collection_times": "Mo-Sa 09:00", "name": "USPS COLLECTION BOX - BLUE BOX", "ref": "1940100062"}, "type": "Feature"}
{"geometry": {"coordinates": [-75.3499971, 40.12525], "type": "Point"}, "id": "RazQcoQelfx2SXZ3hymP6QigmtE=", "properties": {"@spider": "usps_collection_boxes", "addr:city": "NORRISTOWN", "addr:country": "US", "addr:full": "754 STANBRIDGE ST", "addr:postcode": "19401", "addr:state": "PA", "brand": "USPS", "collection_times": "Mo-Sa 09:00", "name": "USPS COLLECTION BOX - BLUE BOX", "ref": "1940100063"}, "type": "Feature"}
{"geometry": {"coordinates": [-75.318605345, 40.145358253], "type": "Point"}, "id": "eAOCcqfogJFUXO9w-CDKqxC_Yx4=", "properties": {"@spider": "usps_collection_boxes", "addr:city": "NORRISTOWN", "addr:country": "US", "addr:full": "101 W GERMANTOWN PIKE", "addr:postcode": "19401", "addr:state": "PA", "brand": "USPS", "collection_times": "Mo-Sa 09:00", "name": "USPS COLLECTION BOX - BLUE BOX", "ref": "1940100067"}, "type": "Feature"}
{"geometry": {"coordinates": [-75.3309143, 40.145043], "type": "Point"}, "id": "403SoUF-IR57BoNOQRNs_BxvmHA=", "properties": {"@spider": "usps_collection_boxes", "addr:city": "NORRISTOWN", "addr:country": "US", "addr:full": "2803 STANBRIDGE ST", "addr:postcode": "19401", "addr:state": "PA", "brand": "USPS", "collection_times": "Mo-Sa 09:00", "name": "USPS COLLECTION BOX - BLUE BOX", "ref": "1940100086"}, "type": "Feature"}
{"geometry": {"coordinates": [-75.3329409, 40.144839], "type": "Point"}, "id": "ndd9JwS5p4WxnoL72BjOJCFcxi4=", "properties": {"@spider": "usps_collection_boxes", "addr:city": "NORRISTOWN", "addr:country": "US", "addr:full": "2801 STANBRIDGE ST", "addr:postcode": "19401", "addr:state": "PA", "brand": "USPS", "collection_times": "Mo-Sa 09:00", "name": "USPS COLLECTION BOX - BLUE BOX", "ref": "1940100089"}, "type": "Feature"}
{"geometry": {"coordinates": [-75.3424415, 40.115547], "type": "Point"}, "id": "vnXJjdxqliMGEvhQmbzmJLy2wk4=", "properties": {"@spider": "usps_collection_boxes", "addr:city": "NORRISTOWN", "addr:country": "US", "addr:full": "28 E AIRY ST", "addr:postcode": "19401", "addr:state": "PA", "brand": "USPS", "collection_times": "Mo-Fr 17:15; Sa 09:00", "name": "USPS COLLECTION BOX - BLUE BOX", "note": "ON 12/24 AND 12/31, THIS BOX MAY BE COLLECTED AS EARLY AS 12 NOON.", "ref": "1940100096"}, "type": "Feature"}
{"geometry": {"coordinates": [-75.3237008, 40.145612], "type": "Point"}, "id": "R1kSj1vV1MCupX4KgHtHxQ3oBsw=", "properties": {"@spider": "usps_collection_boxes", "addr:city": "NORRISTOWN", "addr:country": "US", "addr:full": "190 W GERMANTOWN PIKE", "addr:postcode": "19401", "addr:state": "PA", "brand": "USPS", "collection_times": "Mo-Sa 09:00", "name": "USPS COLLECTION BOX - BLUE BOX", "ref": "1940100097"}, "type": "Feature"}
{"geometry": {"coordinates": [-75.3436444, 40.116132], "type": "Point"}, "id": "os8SsCiPCKzK8HwWXf_eM-G33nQ=", "properties": {"@spider": "usps_collection_boxes", "addr:city": "NORRISTOWN", "addr:country": "US", "addr:full": "500 SWEDE ST", "addr:postcode": "19401", "addr:state": "PA", "brand": "USPS", "collection_times": "Mo-Sa 09:00", "name": "USPS COLLECTION BOX - BLUE BOX", "ref": "1940100101"}, "type": "Feature"}
{"geometry": {"coordinates": [-75.3162587, 40.140638], "type": "Point"}, "id": "Umxq3wEsK8PSBo9P6URZaSUKm0A=", "properties": {"@spider": "usps_collection_boxes", "addr:city": "NORRISTOWN", "addr:country": "US", "addr:full": "2705 DEKALB PIKE", "addr:postcode": "19401", "addr:state": "PA", "brand": "USPS", "collection_times": "Mo-Fr 17:00; Sa 09:00", "name": "USPS COLLECTION BOX - BLUE BOX", "note": "ON 12/24 AND 12/31, THIS BOX MAY BE COLLECTED AS EARLY AS 12 NOON.", "ref": "1940100105"}, "type": "Feature"}
{"geometry": {"coordinates": [-75.3051824, 40.139676], "type": "Point"}, "id": "j34ITIk2u_qTfcOIg7I68nYAIRU=", "properties": {"@spider": "usps_collection_boxes", "addr:city": "NORRISTOWN", "addr:country": "US", "addr:full": "301 E GERMANTOWN PIKE", "addr:postcode": "19401", "addr:state": "PA", "brand": "USPS", "collection_times": "Mo-Sa 09:00", "name": "USPS COLLECTION BOX - BLUE BOX", "ref": "1940100106"}, "type": "Feature"}
{"geometry": {"coordinates": [-75.3447567, 40.114661], "type": "Point"}, "id": "M7IUb04CyxiSC9yE-Yr4LhSle7g=", "properties": {"@spider": "usps_collection_boxes", "addr:city": "NORRISTOWN", "addr:country": "US", "addr:full": "2 W MAIN ST", "addr:postcode": "19401", "addr:state": "PA", "brand": "USPS", "collection_times": "Mo-Sa 09:00", "name": "USPS COLLECTION BOX - BLUE BOX", "ref": "1940100108"}, "type": "Feature"}
{"geometry": {"coordinates": [-75.342426, 40.115653], "type": "Point"}, "id": "F9W0Ker-GeEO2squuHiWNMJBb0U=", "properties": {"@spider": "usps_collection_boxes", "addr:city": "NORRISTOWN", "addr:country": "US", "addr:full": "28 E AIRY ST", "addr:postcode": "19401", "addr:state": "PA", "brand": "USPS", "collection_times": "Mo-Fr 17:00", "name": "USPS COLLECTION BOX - PO LOBBY", "note": "ON 12/24 AND 12/31, THIS BOX MAY BE COLLECTED AS EARLY AS 12 NOON.", "ref": "1940100111"}, "type": "Feature"}
{"geometry": {"coordinates": [-75.3224944, 40.151363], "type": "Point"}, "id": "YdPSUD_UJbmVg7dS6zjGifJ73SI=", "properties": {"@spider": "usps_collection_boxes", "addr:city": "NORRISTOWN", "addr:country": "US", "addr:full": "241 BROOKSIDE RD", "addr:postcode": "19401", "addr:state": "PA", "brand": "USPS", "collection_times": "Mo-Sa 09:00", "name": "USPS COLLECTION BOX - BLUE BOX", "ref": "1940100116"}, "type": "Feature"}
{"geometry": {"coordinates": [-75.342223366, 40.115530574], "type": "Point"}, "id": "vAzlf2jZSF7Oyg8AjVda4uSUTTA=", "properties": {"@spider": "usps_collection_boxes", "addr:city": "NORRISTOWN", "addr:country": "US", "addr:full": "28 E AIRY ST", "addr:postcode": "19401", "addr:state": "PA", "brand": "USPS", "collection_times": "Mo-Fr 17:00", "name": "USPS COLLECTION BOX - PO LOBBY", "note": "ON 12/24 AND 12/31, THIS BOX MAY BE COLLECTED AS EARLY AS 12 NOON.", "ref": "1940100122"}, "type": "Feature"}
{"geometry": {"coordinates": [-75.4034378, 40.126653], "type": "Point"}, "id": "kHyVP_FBSHeY2Wm9eQG4WamQoR8=", "properties": {"@spider": "usps_collection_boxes", "addr:city": "NORRISTOWN", "addr:country": "US", "addr:full": "2575 BLVD OF THE GENRLS", "addr:postcode": "19403", "addr:state": "PA", "brand": "USPS", "collection_times": "Mo-Fr 16:00; Sa 14:15", "name": "USPS COLLECTION BOX - BLUE BOX", "note": "ON 12/24 AND 12/31, THIS BOX MAY BE COLLECTED AS EARLY AS 12 NOON.", "ref": "1940300006"}, "type": "Feature"}
{"geometry": {"coordinates": [-75.3778719, 40.152783], "type": "Point"}, "id": "fk5o_RnOHf8PSR_bGMTyo5djayQ=", "properties": {"@spider": "usps_collection_boxes", "addr:city": "NORRISTOWN", "addr:country": "US", "addr:full": "402 SNOWFLAKE CIR", "addr:postcode": "19403", "addr:state": "PA", "brand": "USPS", "collection_times": "Mo-Sa 09:00", "name": "USPS COLLECTION BOX - BLUE BOX", "ref": "1940300007"}, "type": "Feature"}
{"geometry": {"coordinates": [-75.3937937, 40.14697], "type": "Point"}, "id": "0QUoTMNuVc3ikzF6C0tC524_S6Q=", "properties": {"@spider": "usps_collection_boxes", "addr:city": "NORRISTOWN", "addr:country": "US", "addr:full": "2717 W MAIN ST", "addr:postcode": "19403", "addr:state": "PA", "brand": "USPS", "collection_times": "Mo-Sa 09:00", "name": "USPS COLLECTION BOX - BLUE BOX", "ref": "1940300011"}, "type": "Feature"}
{"geometry": {"coordinates": [-75.40965, 40.152777], "type": "Point"}, "id": "tumx8ZEPKW-n9mHeBeE4Ntsjmmo=", "properties": {"@spider": "usps_collection_boxes", "addr:city": "NORRISTOWN", "addr:country": "US", "addr:full": "3218 MARILYN AVE", "addr:postcode": "19403", "addr:state": "PA", "brand": "USPS", "collection_times": "Mo-Sa 09:00", "name": "USPS COLLECTION BOX - BLUE BOX", "ref": "1940300013"}, "type": "Feature"}
{"geometry": {"coordinates": [-75.3565869, 40.147444], "type": "Point"}, "id": "Ep_77Q2TWcau9jE_EcpTaenVAUY=", "properties": {"@spider": "usps_collection_boxes", "addr:city": "NORRISTOWN", "addr:country": "US", "addr:full": "200 STONYBROOK DR", "addr:postcode": "19403", "addr:state": "PA", "brand": "USPS", "collection_times": "Mo-Sa 09:00", "name": "USPS COLLECTION BOX - BLUE BOX", "ref": "1940300016"}, "type": "Feature"}
{"geometry": {"coordinates": [-75.3697915, 40.155984], "type": "Point"}, "id": "LWDsmWjy1jg0rYm7PrchBQNTF3o=", "properties": {"@spider": "usps_collection_boxes", "addr:city": "NORRISTOWN", "addr:country": "US", "addr:full": "546 FOUNDRY RD", "addr:postcode": "19403", "addr:state": "PA", "brand": "USPS", "collection_times": "Mo-Sa 09:00", "name": "USPS COLLECTION BOX - BLUE BOX", "ref": "1940300018"}, "type": "Feature"}
{"geometry": {"coordinates": [-75.3827109, 40.123095], "type": "Point"}, "id": "NWOyjSbnh7YJe2FkL46soGoNp18=", "properties": {"@spider": "usps_collection_boxes", "addr:city": "NORRISTOWN", "addr:country": "US", "addr:full": "1 WESTOVER CLUB DR", "addr:postcode": "19403", "addr:state": "PA", "brand": "USPS", "collection_times": "Mo-Sa 09:00", "name": "USPS COLLECTION BOX - BLUE BOX", "ref": "1940300021"}, "type": "Feature"}
{"geometry": {"coordinates": [-75.3764881, 40.131295], "type": "Point"}, "id": "3WTBKaIgdecVeae7Z5gLo09_O28=", "properties": {"@spider": "usps_collection_boxes", "addr:city": "NORRISTOWN", "addr:country": "US", "addr:full": "1930 W MAIN ST", "addr:postcode": "19403", "addr:state": "PA", "brand": "USPS", "collection_times": "Mo-Sa 09:00", "name": "USPS COLLECTION BOX - BLUE BOX", "ref": "1940300022"}, "type": "Feature"}
{"geometry": {"coordinates": [-75.4027304, 40.130944], "type": "Point"}, "id": "xDSo58ct1AaTQVxSO7Nrv6dj4P4=", "properties": {"@spider": "usps_collection_boxes", "addr:city": "NORRISTOWN", "addr:country": "US", "addr:full": "2605 EGYPT RD", "addr:postcode": "19403", "addr:state": "PA", "brand": "USPS", "collection_times": "Mo-Fr 15:45; Sa 14:30", "name": "USPS COLLECTION BOX - BLUE BOX", "note": "ON 12/24 AND 12/31, THIS BOX MAY BE COLLECTED AS EARLY AS 12 NOON.", "ref": "1940300028"}, "type": "Feature"}
{"geometry": {"coordinates": [-75.4382787, 40.128724], "type": "Point"}, "id": "4kpldEYm7FUlXkl6MzCswEC0mbg=", "properties": {"@spider": "usps_collection_boxes", "addr:city": "NORRISTOWN", "addr:country": "US", "addr:full": "500 MILL GROVE DR", "addr:postcode": "19403", "addr:state": "PA", "brand": "USPS", "collection_times": "Mo-Sa 09:00", "name": "USPS COLLECTION BOX - BLUE BOX", "ref": "1940300031"}, "type": "Feature"}
{"geometry": {"coordinates": [-75.3857806, 40.121786], "type": "Point"}, "id": "Aru9EGDOdHMHd72sLitcDHVkjjg=", "properties": {"@spider": "usps_collection_boxes", "addr:city": "NORRISTOWN", "addr:country": "US", "addr:full": "1917 YORKTOWN N", "addr:postcode": "19403", "addr:state": "PA", "brand": "USPS", "collection_times": "Mo-Sa 09:00", "name": "USPS COLLECTION BOX - BLUE BOX", "ref": "1940300040"}, "type": "Feature"}
{"geometry": {"coordinates": [-75.3574268, 40.131435], "type": "Point"}, "id": "BjF9MbuZTHy6FyLWLFKWwrPgk3o=", "properties": {"@spider": "usps_collection_boxes", "addr:city": "NORRISTOWN", "addr:country": "US", "addr:full": "1400 BEECH ST", "addr:postcode": "19403", "addr:state": "PA", "brand": "USPS", "collection_times": "Mo-Sa 09:00", "name": "USPS COLLECTION BOX - BLUE BOX", "ref": "1940300041"}, "type": "Feature"}
{"geometry": {"coordinates": [-75.3277377, 40.154985], "type": "Point"}, "id": "EKuLiVPFcZMSfyo8NA2-wmUy2EI=", "properties": {"@spider": "usps_collection_boxes", "addr:city": "NORRISTOWN", "addr:country": "US", "addr:full": "300 DEER RUN", "addr:postcode": "19403", "addr:state": "PA", "brand": "USPS", "collection_times": "Mo-Sa 09:00", "name": "USPS COLLECTION BOX - BLUE BOX", "ref": "1940300043"}, "type": "Feature"}
{"geometry": {"coordinates": [-75.394474, 40.133828], "type": "Point"}, "id": "cMBtUr9eKN_8b0tpDH5XnzkUyiQ=", "properties": {"@spider": "usps_collection_boxes", "addr:city": "NORRISTOWN", "addr:country": "US", "addr:full": "301 WILLOWBROOK DR", "addr:postcode": "19403", "addr:state": "PA", "brand": "USPS", "collection_times": "Mo-Sa 09:00", "name": "USPS COLLECTION BOX - BLUE BOX", "ref": "1940300047"}, "type": "Feature"}
{"geometry": {"coordinates": [-75.405385, 40.158026], "type": "Point"}, "id": "zH-mggakVJQBkHZWp8xOKuFdxnQ=", "properties": {"@spider": "usps_collection_boxes", "addr:city": "NORRISTOWN", "addr:country": "US", "addr:full": "3200 RIDGE PIKE", "addr:postcode": "19403", "addr:state": "PA", "brand": "USPS", "collection_times": "Mo-Fr 16:45; Sa 15:45", "name": "USPS COLLECTION BOX - BLUE BOX", "note": "ON 12/24 AND 12/31, THIS BOX MAY BE COLLECTED AS EARLY AS 12 NOON.", "ref": "1940300049"}, "type": "Feature"}
{"geometry": {"coordinates": [-75.378571132, 40.163067102], "type": "Point"}, "id": "7_EmmAPw2mEeTl0bYkD9d2Tau8k=", "properties": {"@spider": "usps_collection_boxes", "addr:city": "NORRISTOWN", "addr:country": "US", "addr:full": "1025 VALLEY FORGE RD", "addr:postcode": "19403", "addr:state": "PA", "brand": "USPS", "collection_times": "Mo-Fr 16:45; Sa 15:15", "name": "USPS COLLECTION BOX - BLUE BOX", "note": "ON 12/24 AND 12/31, THIS BOX MAY BE COLLECTED AS EARLY AS 12 NOON.", "ref": "1940300053"}, "type": "Feature"}
{"geometry": {"coordinates": [-75.4348099, 40.127637], "type": "Point"}, "id": "Qf5juMIpYjbHWe8ZKwMztNyarmo=", "properties": {"@spider": "usps_collection_boxes", "addr:city": "NORRISTOWN", "addr:country": "US", "addr:full": "2838 AUDUBON VILLAGE DR", "addr:postcode": "19403", "addr:state": "PA", "brand": "USPS", "collection_times": "Mo-Fr 16:15; Sa 14:00", "name": "USPS COLLECTION BOX - BLUE BOX", "note": "ON 12/24 AND 12/31, THIS BOX MAY BE COLLECTED AS EARLY AS 12 NOON.", "ref": "1940300054"}, "type": "Feature"}
{"geometry": {"coordinates": [-75.405385, 40.158026], "type": "Point"}, "id": "-_nKP0MkdjPTOdWUkT_CPulZY44=", "properties": {"@spider": "usps_collection_boxes", "addr:city": "NORRISTOWN", "addr:country": "US", "addr:full": "3200 RIDGE PIKE", "addr:postcode": "19403", "addr:state": "PA", "brand": "USPS", "collection_times": "Mo-Fr 16:30; Sa 12:00", "name": "USPS COLLECTION BOX - PO LOBBY", "note": "ON 12/24 AND 12/31, THIS BOX MAY BE COLLECTED AS EARLY AS 12 NOON.", "ref": "1940300056"}, "type": "Feature"}
{"geometry": {"coordinates": [-75.4049593, 40.129711], "type": "Point"}, "id": "7Z_P7hV-j4uI9iJ9lUJCyvgiEjI=", "properties": {"@spider": "usps_collection_boxes", "addr:city": "NORRISTOWN", "addr:country": "US", "addr:full": "2670 EGYPT RD", "addr:postcode": "19403", "addr:state": "PA", "brand": "USPS", "collection_times": "Mo-Sa 09:00", "name": "USPS COLLECTION BOX - BLUE BOX", "ref": "1940300057"}, "type": "Feature"}
{"geometry": {"coordinates": [-75.4118405, 40.122884], "type": "Point"}, "id": "xdf-n_5S-nc4P57KiqSezCF1PmQ=", "properties": {"@spider": "usps_collection_boxes", "addr:city": "NORRISTOWN", "addr:country": "US", "addr:full": "940 MADISON AVE", "addr:postcode": "19403", "addr:state": "PA", "brand": "USPS", "collection_times": "Mo-Fr 16:00; Sa 14:15", "name": "USPS COLLECTION BOX - BLUE BOX", "note": "ON 12/24 AND 12/31, THIS BOX MAY BE COLLECTED AS EARLY AS 12 NOON.", "ref": "1940300058"}, "type": "Feature"}
{"geometry": {"coordinates": [-75.340985, 40.150317], "type": "Point"}, "id": "SMS-J-qWRS_gNP3K75Q8onTIxNc=", "properties": {"@spider": "usps_collection_boxes", "addr:city": "NORRISTOWN", "addr:country": "US", "addr:full": "539 W GERMANTOWN PIKE", "addr:postcode": "19403", "addr:state": "PA", "brand": "USPS", "collection_times": "Mo-Fr 15:30; Sa 15:15", "name": "USPS COLLECTION BOX - BLUE BOX", "note": "ON 12/24 AND 12/31, THIS BOX MAY BE COLLECTED AS EARLY AS 12 NOON.", "ref": "1940300060"}, "type": "Feature"}
{"geometry": {"coordinates": [-75.405387131, 40.158021852], "type": "Point"}, "id": "RZgcATCIVVXRB2Kr4sihWvlNP54=", "properties": {"@spider": "usps_collection_boxes", "addr:city": "NORRISTOWN", "addr:country": "US", "addr:full": "3200 RIDGE PIKE STE 300", "addr:postcode": "19403", "addr:state": "PA", "brand": "USPS", "collection_times": "Mo-Fr 16:30; Sa 12:00", "name": "USPS COLLECTION BOX - PO LOBBY", "note": "ON 12/24 AND 12/31, THIS BOX MAY BE COLLECTED AS EARLY AS 12 NOON.", "ref": "1940300064"}, "type": "Feature"}
{"geometry": {"coordinates": [-75.3458652, 40.101964], "type": "Point"}, "id": "c5IVz38RmRMTfdp2Pyy7SN-IUX0=", "properties": {"@spider": "usps_collection_boxes", "addr:city": "BRIDGEPORT", "addr:country": "US", "addr:full": "721 FORD ST", "addr:postcode": "19405", "addr:state": "PA", "brand": "USPS", "collection_times": "Mo-Fr 11:00; Sa 10:45", "name": "USPS COLLECTION BOX - BLUE BOX", "ref": "1940500001"}, "type": "Feature"}
{"geometry": {"coordinates": [-75.3321241, 40.104319], "type": "Point"}, "id": "BkQlJF9zomEtIcWs0E9hnfNoI-M=", "properties": {"@spider": "usps_collection_boxes", "addr:city": "BRIDGEPORT", "addr:country": "US", "addr:full": "401 E 4TH ST", "addr:postcode": "19405", "addr:state": "PA", "brand": "USPS", "collection_times": "Mo-Fr 11:00; Sa 10:30", "name": "USPS COLLECTION BOX - BLUE BOX", "ref": "1940500002"}, "type": "Feature"}
{"geometry": {"coordinates": [-75.3465249, 40.105739], "type": "Point"}, "id": "RePiEToRhP6Gqs1BKIEqKJyOzCM=", "properties": {"@spider": "usps_collection_boxes", "addr:city": "BRIDGEPORT", "addr:country": "US", "addr:full": "206 W 4TH ST", "addr:postcode": "19405", "addr:state": "PA", "brand": "USPS", "collection_times": "Mo-Sa 09:00", "name": "USPS COLLECTION BOX - BLUE BOX", "ref": "1940500008"}, "type": "Feature"}
{"geometry": {"coordinates": [-75.3424563, 40.103486], "type": "Point"}, "id": "WLKcYg37vorisVx1AVitDqO8R4o=", "properties": {"@spider": "usps_collection_boxes", "addr:city": "BRIDGEPORT", "addr:country": "US", "addr:full": "499 FORD ST", "addr:postcode": "19405", "addr:state": "PA", "brand": "USPS", "collection_times": "Mo-Fr 11:00; Sa 10:45", "name": "USPS COLLECTION BOX - BLUE BOX", "ref": "1940500012"}, "type": "Feature"}
{"geometry": {"coordinates": [-75.3443707, 40.105936], "type": "Point"}, "id": "pyhyEqosEMigpx1f5jkafE8LJzQ=", "properties": {"@spider": "usps_collection_boxes", "addr:city": "BRIDGEPORT", "addr:country": "US", "addr:full": "312 MILL ST", "addr:postcode": "19405", "addr:state": "PA", "brand": "USPS", "collection_times": "Mo-Fr 16:30; Sa 11:00", "name": "USPS COLLECTION BOX - BLUE BOX", "note": "ON 12/24 AND 12/31, THIS BOX MAY BE COLLECTED AS EARLY AS 12 NOON.", "ref": "1940500015"}, "type": "Feature"}
{"geometry": {"coordinates": [-75.3443216, 40.106165], "type": "Point"}, "id": "XPZ0WRx-r6aZLBjMLBwLvzpEtBk=", "properties": {"@spider": "usps_collection_boxes", "addr:city": "BRIDGEPORT", "addr:country": "US", "addr:full": "312 MILL ST", "addr:postcode": "19405", "addr:state": "PA", "brand": "USPS", "collection_times": "Mo-Fr 16:30", "name": "USPS COLLECTION BOX - PO LOBBY", "note": "ON 12/24 AND 12/31, THIS BOX MAY BE COLLECTED AS EARLY AS 12 NOON.", "ref": "1940500018"}, "type": "Feature"}
{"geometry": {"coordinates": [-75.34405216, 40.106432229], "type": "Point"}, "id": "ByhpKRSKzY9Dih3H0A1oZfR5PeY=", "properties": {"@spider": "usps_collection_boxes", "addr:city": "BRIDGEPORT", "addr:country": "US", "addr:full": "312 MILL ST", "addr:postcode": "19405", "addr:state": "PA", "brand": "USPS", "collection_times": "Mo-Fr 16:30", "name": "USPS COLLECTION BOX - PO LOBBY", "note": "ON 12/24 AND 12/31, THIS BOX MAY BE COLLECTED AS EARLY AS 12 NOON.", "ref": "1940500020"}, "type": "Feature"}
{"geometry": {"coordinates": [-75.3812803, 40.089718], "type": "Point"}, "id": "Pssr5CPlqQFLIi9TdFkG3C5o-VI=", "properties": {"@spider": "usps_collection_boxes", "addr:city": "KING OF PRUSSIA", "addr:country": "US", "addr:full": "570 W DEKALB PIKE", "addr:postcode": "19406", "addr:state": "PA", "brand": "USPS", "collection_times": "Mo-Sa 09:00", "name": "USPS COLLECTION BOX - BLUE BOX", "ref": "1940600001"}, "type": "Feature"}
{"geometry": {"coordinates": [-75.3698488, 40.079672], "type": "Point"}, "id": "50jheEO2uB4Or_hW3GIFtkIFFQ0=", "properties": {"@spider": "usps_collection_boxes", "addr:city": "KING OF PRUSSIA", "addr:country": "US", "addr:full": "367 S GULPH RD", "addr:postcode": "19406", "addr:state": "PA", "brand": "USPS", "collection_times": "Mo-Sa 09:00", "name": "USPS COLLECTION BOX - BLUE BOX", "ref": "1940600011"}, "type": "Feature"}
{"geometry": {"coordinates": [-75.366078, 40.077526], "type": "Point"}, "id": "719E5NIgfyRC22i91Fmiq2Hpuog=", "properties": {"@spider": "usps_collection_boxes", "addr:city": "KING OF PRUSSIA", "addr:country": "US", "addr:full": "455 S GULPH RD", "addr:postcode": "19406", "addr:state": "PA", "brand": "USPS", "collection_times": "Mo-Fr 09:00", "name": "USPS COLLECTION BOX - BLUE BOX", "ref": "1940600012"}, "type": "Feature"}
{"geometry": {"coordinates": [-75.3937062, 40.088536], "type": "Point"}, "id": "zisxEyI2-Wp7N3qMlNZRCxVNPgo=", "properties": {"@spider": "usps_collection_boxes", "addr:city": "KING OF PRUSSIA", "addr:country": "US", "addr:full": "160 N GULPH RD", "addr:postcode": "19406", "addr:state": "PA", "brand": "USPS", "collection_times": "Mo-Sa 09:00", "name": "USPS COLLECTION BOX - BLUE BOX", "ref": "1940600027"}, "type": "Feature"}
{"geometry": {"coordinates": [-75.3693344, 40.094281], "type": "Point"}, "id": "22RANylWxvn1o0KhDxY1zVU_Wq0=", "properties": {"@spider": "usps_collection_boxes", "addr:city": "KING OF PRUSSIA", "addr:country": "US", "addr:full": "255 TOWN CENTER RD", "addr:postcode": "19406", "addr:state": "PA", "brand": "USPS", "collection_times": "Mo-Sa 09:00", "name": "USPS COLLECTION BOX - BLUE BOX", "ref": "1940600029"}, "type": "Feature"}
{"geometry": {"coordinates": [-75.3714903, 40.104823], "type": "Point"}, "id": "Hc-rp2LMlYvOBKDXz8QVitavGJ4=", "properties": {"@spider": "usps_collection_boxes", "addr:city": "KING OF PRUSSIA", "addr:country": "US", "addr:full": "703 N HENDERSON RD", "addr:postcode": "19406", "addr:state": "PA", "brand": "USPS", "collection_times": "Mo-Sa 09:00", "name": "USPS COLLECTION BOX - BLUE BOX", "ref": "1940600032"}, "type": "Feature"}
{"geometry": {"coordinates": [-75.3607911197, 40.0777946314], "type": "Point"}, "id": "Lu2Tk_CH-kYowAOUmzX6Qsy54xg=", "properties": {"@spider": "usps_collection_boxes", "addr:city": "KING OF PRUSSIA", "addr:country": "US", "addr:full": "547 LEWIS RD", "addr:postcode": "19406", "addr:state": "PA", "brand": "USPS", "collection_times": "Mo-Sa 09:00", "name": "USPS COLLECTION BOX - BLUE BOX", "ref": "1940600033"}, "type": "Feature"}
{"geometry": {"coordinates": [-75.358868, 40.078882], "type": "Point"}, "id": "qVXedC4U-m1399ROCYvBBgj1Ftk=", "properties": {"@spider": "usps_collection_boxes", "addr:city": "KING OF PRUSSIA", "addr:country": "US", "addr:full": "580 SHOEMAKER RD", "addr:postcode": "19406", "addr:state": "PA", "brand": "USPS", "collection_times": "Mo-Sa 09:00", "name": "USPS COLLECTION BOX - BLUE BOX", "ref": "1940600036"}, "type": "Feature"}
{"geometry": {"coordinates": [-75.3521405, 40.076017], "type": "Point"}, "id": "zSfeop7Bq70XZBCZOQD7jf__2ok=", "properties": {"@spider": "usps_collection_boxes", "addr:city": "KING OF PRUSSIA", "addr:country": "US", "addr:full": "700 S HENDERSON RD", "addr:postcode": "19406", "addr:state": "PA", "brand": "USPS", "collection_times": "Mo-Sa 09:00", "name": "USPS COLLECTION BOX - BLUE BOX", "ref": "1940600037"}, "type": "Feature"}
{"geometry": {"coordinates": [-75.3554158, 40.078958], "type": "Point"}, "id": "STvIetGXP7tHo8B5giV9zHDifyo=", "properties": {"@spider": "usps_collection_boxes", "addr:city": "KING OF PRUSSIA", "addr:country": "US", "addr:full": "601 S HENDERSON RD", "addr:postcode": "19406", "addr:state": "PA", "brand": "USPS", "collection_times": "Mo-Sa 09:00", "name": "USPS COLLECTION BOX - BLUE BOX", "ref": "1940600038"}, "type": "Feature"}
{"geometry": {"coordinates": [-75.417522, 40.104891], "type": "Point"}, "id": "hAaRy9T_DyXKERcUshDNSnM243c=", "properties": {"@spider": "usps_collection_boxes", "addr:city": "KING OF PRUSSIA", "addr:country": "US", "addr:full": "941 PARKVIEW DR", "addr:postcode": "19406", "addr:state": "PA", "brand": "USPS", "collection_times": "Mo-Sa 09:00", "name": "USPS COLLECTION BOX - BLUE BOX", "ref": "1940600041"}, "type": "Feature"}
{"geometry": {"coordinates": [-75.4133879, 40.101267], "type": "Point"}, "id": "FJ3873alcZIvqyA3JSbNB7rDfNA=", "properties": {"@spider": "usps_collection_boxes", "addr:city": "KING OF PRUSSIA", "addr:country": "US", "addr:full": "1006 W 9TH AVE", "addr:postcode": "19406", "addr:state": "PA", "brand": "USPS", "collection_times": "Mo-Sa 09:00", "name": "USPS COLLECTION BOX - BLUE BOX", "ref": "1940600042"}, "type": "Feature"}
{"geometry": {"coordinates": [-75.4133764, 40.101258], "type": "Point"}, "id": "xSI3UdLF46q7lUasHSmHluK6My8=", "properties": {"@spider": "usps_collection_boxes", "addr:city": "KING OF PRUSSIA", "addr:country": "US", "addr:full": "1006 W 9TH AVE", "addr:postcode": "19406", "addr:state": "PA", "brand": "USPS", "collection_times": "Mo-Sa 09:00", "name": "USPS COLLECTION BOX - BLUE BOX", "ref": "1940600043"}, "type": "Feature"}
{"geometry": {"coordinates": [-75.4144494, 40.096734], "type": "Point"}, "id": "bgr15Z8rwW79lOasnGGbbqvPyVk=", "properties": {"@spider": "usps_collection_boxes", "addr:city": "KING OF PRUSSIA", "addr:country": "US", "addr:full": "1150 1ST AVE", "addr:postcode": "19406", "addr:state": "PA", "brand": "USPS", "collection_times": "Mo-Sa 09:00", "name": "USPS COLLECTION BOX - BLUE BOX", "ref": "1940600046"}, "type": "Feature"}
{"geometry": {"coordinates": [-75.411348, 40.094445], "type": "Point"}, "id": "kmUkhkr41pCVPHz4nZV7i2AedxY=", "properties": {"@spider": "usps_collection_boxes", "addr:city": "KING OF PRUSSIA", "addr:country": "US", "addr:full": "640 FREEDOM BUSINESS CTR DR", "addr:postcode": "19406", "addr:state": "PA", "brand": "USPS", "collection_times": "Mo-Sa 09:00", "name": "USPS COLLECTION BOX - BLUE BOX", "ref": "1940600050"}, "type": "Feature"}
{"geometry": {"coordinates": [-75.4025281, 40.09698], "type": "Point"}, "id": "TMD90_HDFhZ5qX-difv1sIZhGio=", "properties": {"@spider": "usps_collection_boxes", "addr:city": "KING OF PRUSSIA", "addr:country": "US", "addr:full": "643 CLARK AVE", "addr:postcode": "19406", "addr:state": "PA", "brand": "USPS", "collection_times": "Mo-Sa 09:00", "name": "USPS COLLECTION BOX - BLUE BOX", "ref": "1940600051"}, "type": "Feature"}
{"geometry": {"coordinates": [-75.3980228, 40.094994], "type": "Point"}, "id": "iKmXvLh8dLeRiYaJ7ixmFSSep7U=", "properties": {"@spider": "usps_collection_boxes", "addr:city": "KING OF PRUSSIA", "addr:country": "US", "addr:full": "440 AMERICAN AVE", "addr:postcode": "19406", "addr:state": "PA", "brand": "USPS", "collection_times": "Mo-Sa 09:00", "name": "USPS COLLECTION BOX - BLUE BOX", "ref": "1940600052"}, "type": "Feature"}
{"geometry": {"coordinates": [-75.4077619, 40.09566], "type": "Point"}, "id": "Bq0jOGeEwLXnNxtQrb3oKDNOYO4=", "properties": {"@spider": "usps_collection_boxes", "addr:city": "KING OF PRUSSIA", "addr:country": "US", "addr:full": "1000 1ST AVE", "addr:postcode": "19406", "addr:state": "PA", "brand": "USPS", "collection_times": "Mo-Sa 09:00", "name": "USPS COLLECTION BOX - BLUE BOX", "ref": "1940600053"}, "type": "Feature"}
{"geometry": {"coordinates": [-75.4125093187, 40.1033823685], "type": "Point"}, "id": "bjm3btF8wz2U4KGNXF_jxEOs-R4=", "properties": {"@spider": "usps_collection_boxes", "addr:city": "KING OF PRUSSIA", "addr:country": "US", "addr:full": "1000 VALLEY FORGE CIR", "addr:postcode": "19406", "addr:state": "PA", "brand": "USPS", "collection_times": "Mo-Sa 09:00", "name": "USPS COLLECTION BOX - BLUE BOX", "ref": "1940600055"}, "type": "Feature"}
{"geometry": {"coordinates": [-75.3998107, 40.084232], "type": "Point"}, "id": "zk0Z5xiSOHVLfuuEySIKyxruAo4=", "properties": {"@spider": "usps_collection_boxes", "addr:city": "KING OF PRUSSIA", "addr:country": "US", "addr:full": "200 N WARNER RD", "addr:postcode": "19406", "addr:state": "PA", "brand": "USPS", "collection_times": "Mo-Sa 09:00", "name": "USPS COLLECTION BOX - BLUE BOX", "ref": "1940600062"}, "type": "Feature"}
{"geometry": {"coordinates": [-75.3392189, 40.09225], "type": "Point"}, "id": "ds2a6zGKilysBKE1a2e5BMZOmKo=", "properties": {"@spider": "usps_collection_boxes", "addr:city": "KING OF PRUSSIA", "addr:country": "US", "addr:full": "400 FEHELEY DR", "addr:postcode": "19406", "addr:state": "PA", "brand": "USPS", "collection_times": "Mo-Sa 09:00", "name": "USPS COLLECTION BOX - BLUE BOX", "ref": "1940600068"}, "type": "Feature"}
{"geometry": {"coordinates": [-75.3930165, 40.096512], "type": "Point"}, "id": "s_spwnhZzTvWUWF66jH1AKNQgNk=", "properties": {"@spider": "usps_collection_boxes", "addr:city": "KING OF PRUSSIA", "addr:country": "US", "addr:full": "491 ALLENDALE RD", "addr:postcode": "19406", "addr:state": "PA", "brand": "USPS", "collection_times": "Mo-Sa 09:00", "name": "USPS COLLECTION BOX - BLUE BOX", "ref": "1940600074"}, "type": "Feature"}
{"geometry": {"coordinates": [-75.3338094, 40.084184], "type": "Point"}, "id": "BobUAIKpjOfgbS6OGZ9omf2p-sI=", "properties": {"@spider": "usps_collection_boxes", "addr:city": "KING OF PRUSSIA", "addr:country": "US", "addr:full": "2000 RENAISSANCE BLVD", "addr:postcode": "19406", "addr:state": "PA", "brand": "USPS", "collection_times": "Mo-Sa 09:00", "name": "USPS COLLECTION BOX - BLUE BOX", "ref": "1940600077"}, "type": "Feature"}
{"geometry": {"coordinates": [-75.3372138, 40.085673], "type": "Point"}, "id": "MDYGVm-zBBsBvDph4SWGitdZUQ8=", "properties": {"@spider": "usps_collection_boxes", "addr:city": "KING OF PRUSSIA", "addr:country": "US", "addr:full": "2200 RENAISSANCE BLVD", "addr:postcode": "19406", "addr:state": "PA", "brand": "USPS", "collection_times": "Mo-Sa 09:00", "name": "USPS COLLECTION BOX - BLUE BOX", "ref": "1940600079"}, "type": "Feature"}
{"geometry": {"coordinates": [-75.3305542, 40.087028], "type": "Point"}, "id": "M5weR554v0Ijs_wF4GsMH56yJmE=", "properties": {"@spider": "usps_collection_boxes", "addr:city": "KING OF PRUSSIA", "addr:country": "US", "addr:full": "605 FLINT HILL RD", "addr:postcode": "19406", "addr:state": "PA", "brand": "USPS", "collection_times": "Mo-Sa 09:00", "name": "USPS COLLECTION BOX - BLUE BOX", "ref": "1940600080"}, "type": "Feature"}
{"geometry": {"coordinates": [-75.4097299, 40.099834], "type": "Point"}, "id": "OtMO9fWWySX3jjUy10jZf1TUuSw=", "properties": {"@spider": "usps_collection_boxes", "addr:city": "KING OF PRUSSIA", "addr:country": "US", "addr:full": "900 E 8TH AVE", "addr:postcode": "19406", "addr:state": "PA", "brand": "USPS", "collection_times": "Mo-Sa 09:00", "name": "USPS COLLECTION BOX - BLUE BOX", "ref": "1940600082"}, "type": "Feature"}
{"geometry": {"coordinates": [-75.3715768, 40.102205], "type": "Point"}, "id": "XPzXOwt-7qHagdkl85Lqbz5AEbE=", "properties": {"@spider": "usps_collection_boxes", "addr:city": "KING OF PRUSSIA", "addr:country": "US", "addr:full": "175 W VALLEY FORGE RD", "addr:postcode": "19406", "addr:state": "PA", "brand": "USPS", "collection_times": "Mo-Fr 16:30; Sa 13:30", "name": "USPS COLLECTION BOX - BLUE BOX", "note": "ON 12/24 AND 12/31, THIS BOX MAY BE COLLECTED AS EARLY AS 12 NOON.", "ref": "1940600083"}, "type": "Feature"}
{"geometry": {"coordinates": [-75.4097799, 40.097493], "type": "Point"}, "id": "_Wo8IharwQYWW6UsCUKjc4q6rds=", "properties": {"@spider": "usps_collection_boxes", "addr:city": "KING OF PRUSSIA", "addr:country": "US", "addr:full": "1060 1ST AVE", "addr:postcode": "19406", "addr:state": "PA", "brand": "USPS", "collection_times": "Mo-Sa 10:00", "name": "USPS COLLECTION BOX - BLUE BOX", "ref": "1940600084"}, "type": "Feature"}
{"geometry": {"coordinates": [-75.3949837, 40.100118], "type": "Point"}, "id": "6dlmkTiW_crOFBiODL_rIr4RT5I=", "properties": {"@spider": "usps_collection_boxes", "addr:city": "KING OF PRUSSIA", "addr:country": "US", "addr:full": "620 ALLENDALE RD", "addr:postcode": "19406", "addr:state": "PA", "brand": "USPS", "collection_times": "Mo-Fr 17:00; Sa 15:00", "name": "USPS COLLECTION BOX - BLUE BOX", "note": "ON 12/24 AND 12/31, THIS BOX MAY BE COLLECTED AS EARLY AS 12 NOON.", "ref": "1940600085"}, "type": "Feature"}
{"geometry": {"coordinates": [-75.3949995, 40.100099], "type": "Point"}, "id": "mpeJImCkI8xUt3MxJFK7yKGZ4v8=", "properties": {"@spider": "usps_collection_boxes", "addr:city": "KING OF PRUSSIA", "addr:country": "US", "addr:full": "620 ALLENDALE RD", "addr:postcode": "19406", "addr:state": "PA", "brand": "USPS", "collection_times": "Mo-Fr 17:00; Sa 15:00", "name": "USPS COLLECTION BOX - BLUE BOX", "note": "ON 12/24 AND 12/31, THIS BOX MAY BE COLLECTED AS EARLY AS 12 NOON.", "ref": "1940600086"}, "type": "Feature"}
{"geometry": {"coordinates": [-75.3608989, 40.083891], "type": "Point"}, "id": "0rZ2XrgbZJhxdcu0a5fTfIp6KMQ=", "properties": {"@spider": "usps_collection_boxes", "addr:city": "KING OF PRUSSIA", "addr:country": "US", "addr:full": "215 W CHURCH RD", "addr:postcode": "19406", "addr:state": "PA", "brand": "USPS", "collection_times": "Mo-Sa 09:00", "name": "USPS COLLECTION BOX - BLUE BOX", "ref": "1940600101"}, "type": "Feature"}
{"geometry": {"coordinates": [-75.3895149, 40.087556], "type": "Point"}, "id": "4vC2A1u3cjoBohZxWKCdI94z0V4=", "properties": {"@spider": "usps_collection_boxes", "addr:city": "KING OF PRUSSIA", "addr:country": "US", "addr:full": "170 N GULPH RD", "addr:postcode": "19406", "addr:state": "PA", "brand": "USPS", "collection_times": "Mo-Sa 09:00", "name": "USPS COLLECTION BOX - BLUE BOX", "ref": "1940600103"}, "type": "Feature"}
{"geometry": {"coordinates": [-75.4005205, 40.080286], "type": "Point"}, "id": "OtQ-1Gq8uMw6kpXAyj5hOf1nggI=", "properties": {"@spider": "usps_collection_boxes", "addr:city": "KING OF PRUSSIA", "addr:country": "US", "addr:full": "150 S WARNER RD", "addr:postcode": "19406", "addr:state": "PA", "brand": "USPS", "collection_times": "Mo-Sa 09:00", "name": "USPS COLLECTION BOX - BLUE BOX", "ref": "1940600104"}, "type": "Feature"}
{"geometry": {"coordinates": [-75.3846714, 40.089311], "type": "Point"}, "id": "p1dy7lKFCSFhNzAdNQQ78kcwSF4=", "properties": {"@spider": "usps_collection_boxes", "addr:city": "KING OF PRUSSIA", "addr:country": "US", "addr:full": "640 W DEKALB PIKE", "addr:postcode": "19406", "addr:state": "PA", "brand": "USPS", "collection_times": "Mo-Sa 09:00", "name": "USPS COLLECTION BOX - BLUE BOX", "ref": "1940600107"}, "type": "Feature"}
{"geometry": {"coordinates": [-75.3403133, 40.088383], "type": "Point"}, "id": "n7wgV5g4fGONLnyowLobRwjjWcM=", "properties": {"@spider": "usps_collection_boxes", "addr:city": "KING OF PRUSSIA", "addr:country": "US", "addr:full": "3600 HORIZON DR", "addr:postcode": "19406", "addr:state": "PA", "brand": "USPS", "collection_times": "Mo-Sa 09:00", "name": "USPS COLLECTION BOX - BLUE BOX", "ref": "1940600109"}, "type": "Feature"}
{"geometry": {"coordinates": [-75.4122377, 40.099317], "type": "Point"}, "id": "cNkPca5-L_8aJD4crZ5L4Di5AW0=", "properties": {"@spider": "usps_collection_boxes", "addr:city": "KING OF PRUSSIA", "addr:country": "US", "addr:full": "1001 E 8TH AVE", "addr:postcode": "19406", "addr:state": "PA", "brand": "USPS", "collection_times": "Mo-Sa 09:00", "name": "USPS COLLECTION BOX - BLUE BOX", "ref": "1940600119"}, "type": "Feature"}
{"geometry": {"coordinates": [-75.3715961, 40.093364], "type": "Point"}, "id": "-EeZf4oLDiSLeKFoCWrwNHyJ-WE=", "properties": {"@spider": "usps_collection_boxes", "addr:city": "KING OF PRUSSIA", "addr:country": "US", "addr:full": "330 W DEKALB PIKE", "addr:postcode": "19406", "addr:state": "PA", "brand": "USPS", "collection_times": "Mo-Sa 09:00", "name": "USPS COLLECTION BOX - BLUE BOX", "ref": "1940600122"}, "type": "Feature"}
{"geometry": {"coordinates": [-75.389803, 40.090615], "type": "Point"}, "id": "dQ4YoLD_7L6iRrjrufuujcxMFSw=", "properties": {"@spider": "usps_collection_boxes", "addr:city": "KING OF PRUSSIA", "addr:country": "US", "addr:full": "258 MALL BLVD", "addr:postcode": "19406", "addr:state": "PA", "brand": "USPS", "collection_times": "Mo-Sa 10:00", "name": "USPS COLLECTION BOX - BLUE BOX", "ref": "1940600123"}, "type": "Feature"}
{"geometry": {"coordinates": [-75.396002, 40.099794], "type": "Point"}, "id": "-70QT-t3eIr_qByxH79m6XMWO3k=", "properties": {"@spider": "usps_collection_boxes", "addr:city": "KING OF PRUSSIA", "addr:country": "US", "addr:full": "620 ALLENDALE RD", "addr:postcode": "19406", "addr:state": "PA", "brand": "USPS", "collection_times": "Mo-Fr 17:00; Sa 15:00", "name": "USPS COLLECTION BOX - PO LOBBY", "note": "ON 12/24 AND 12/31, THIS BOX MAY BE COLLECTED AS EARLY AS 12 NOON.", "ref": "1940600125"}, "type": "Feature"}
{"geometry": {"coordinates": [-75.396002, 40.099794], "type": "Point"}, "id": "lW9MaYLL_q_EykQhlzGQMcXM-uQ=", "properties": {"@spider": "usps_collection_boxes", "addr:city": "KING OF PRUSSIA", "addr:country": "US", "addr:full": "620 ALLENDALE RD", "addr:postcode": "19406", "addr:state": "PA", "brand": "USPS", "collection_times": "Mo-Fr 17:00; Sa 15:00", "name": "USPS COLLECTION BOX - PO LOBBY", "note": "ON 12/24 AND 12/31, THIS BOX MAY BE COLLECTED AS EARLY AS 12 NOON.", "ref": "1940600126"}, "type": "Feature"}
{"geometry": {"coordinates": [-75.396002127, 40.099789904], "type": "Point"}, "id": "aEsJBpHHNjxVfVTXyVYeyqoYA_M=", "properties": {"@spider": "usps_collection_boxes", "addr:city": "KING OF PRUSSIA", "addr:country": "US", "addr:full": "620 ALLENDALE RD STE 125", "addr:postcode": "19406", "addr:state": "PA", "brand": "USPS", "collection_times": "Mo-Fr 17:00; Sa 14:00", "name": "USPS COLLECTION BOX - PO LOBBY", "note": "ON 12/24 AND 12/31, THIS BOX MAY BE COLLECTED AS EARLY AS 12 NOON.", "ref": "1940600132"}, "type": "Feature"}
{"geometry": {"coordinates": [-75.3792939, 40.162917], "type": "Point"}, "id": "RG6FwdnnvjJGhli_7ogCLnvwGxY=", "properties": {"@spider": "usps_collection_boxes", "addr:city": "NORRISTOWN", "addr:country": "US", "addr:full": "1025 VALLEY FORGE RD", "addr:postcode": "19409", "addr:state": "PA", "brand": "USPS", "collection_times": "Mo-Fr 16:45", "name": "USPS COLLECTION BOX - PO LOBBY", "note": "ON 12/24 AND 12/31, THIS BOX MAY BE COLLECTED AS EARLY AS 12 NOON.", "ref": "1940900001"}, "type": "Feature"}
{"geometry": {"coordinates": [-75.378571132, 40.163067102], "type": "Point"}, "id": "x4MUtw9KDWauGcdrS90QNvHzyTo=", "properties": {"@spider": "usps_collection_boxes", "addr:city": "NORRISTOWN", "addr:country": "US", "addr:full": "1025 VALLEY FORGE RD", "addr:postcode": "19409", "addr:state": "PA", "brand": "USPS", "collection_times": "Mo-Fr 16:15", "name": "USPS COLLECTION BOX - PO LOBBY", "note": "ON 12/24 AND 12/31, THIS BOX MAY BE COLLECTED AS EARLY AS 12 NOON.", "ref": "1940900002"}, "type": "Feature"}
{"geometry": {"coordinates": [-75.635946, 40.135263], "type": "Point"}, "id": "7lAemn2h9QS-DvyZZerlkws-D88=", "properties": {"@spider": "usps_collection_boxes", "addr:city": "BIRCHRUNVILLE", "addr:country": "US", "addr:full": "1405 HOLLOW RD", "addr:postcode": "19421", "addr:state": "PA", "brand": "USPS", "collection_times": "Mo-Fr 16:30; Sa 11:30", "name": "USPS COLLECTION BOX - BLUE BOX", "note": "ON 12/24 AND 12/31, THIS BOX MAY BE COLLECTED AS EARLY AS 12 NOON.", "ref": "1942100001"}, "type": "Feature"}
{"geometry": {"coordinates": [-75.635946, 40.135263], "type": "Point"}, "id": "HoHz7MccYv34zORc_U2Ya5wvdxY=", "properties": {"@spider": "usps_collection_boxes", "addr:city": "BIRCHRUNVILLE", "addr:country": "US", "addr:full": "1405 HOLLOW RD", "addr:postcode": "19421", "addr:state": "PA", "brand": "USPS", "collection_times": "Mo-Fr 16:30; Sa 11:30", "name": "USPS COLLECTION BOX - PO LOBBY", "note": "ON 12/24 AND 12/31, THIS BOX MAY BE COLLECTED AS EARLY AS 12 NOON.", "ref": "1942100003"}, "type": "Feature"}
{"geometry": {"coordinates": [-75.640009263, 40.130861877], "type": "Point"}, "id": "xnBR2Wp5TRtv_FVmi4n-Vc9FZG0=", "properties": {"@spider": "usps_collection_boxes", "addr:city": "BIRCHRUNVILLE", "addr:country": "US", "addr:full": "1405 HOLLOW RD", "addr:postcode": "19421", "addr:state": "PA", "brand": "USPS", "collection_times": "Mo-Fr 16:30; Sa 11:30", "name": "USPS COLLECTION BOX - PO LOBBY", "note": "ON 12/24 AND 12/31, THIS BOX MAY BE COLLECTED AS EARLY AS 12 NOON.", "ref": "1942100005"}, "type": "Feature"}
{"geometry": {"coordinates": [-75.3071305, 40.151382], "type": "Point"}, "id": "NLpwqcrCAz4KggMIJbD7cIFh0ws=", "properties": {"@spider": "usps_collection_boxes", "addr:city": "BLUE BELL", "addr:country": "US", "addr:full": "1701 SWEDE RD", "addr:postcode": "19422", "addr:state": "PA", "brand": "USPS", "collection_times": "Mo-Sa 09:00", "name": "USPS COLLECTION BOX - BLUE BOX", "ref": "1942200005"}, "type": "Feature"}
{"geometry": {"coordinates": [-75.3022009, 40.154464], "type": "Point"}, "id": "gml6iRXdHySNrDn32KWjxRLR8S0=", "properties": {"@spider": "usps_collection_boxes", "addr:city": "BLUE BELL", "addr:country": "US", "addr:full": "1510 DEKALB PIKE", "addr:postcode": "19422", "addr:state": "PA", "brand": "USPS", "collection_times": "Mo-Sa 09:00", "name": "USPS COLLECTION BOX - BLUE BOX", "ref": "1942200008"}, "type": "Feature"}
{"geometry": {"coordinates": [-75.3000652, 40.172491], "type": "Point"}, "id": "dRGF8QYRiTM1a3_XWxt6RB-qtrE=", "properties": {"@spider": "usps_collection_boxes", "addr:city": "BLUE BELL", "addr:country": "US", "addr:full": "1750 SKIPPACK PIKE", "addr:postcode": "19422", "addr:state": "PA", "brand": "USPS", "collection_times": "Mo-Sa 09:00", "name": "USPS COLLECTION BOX - BLUE BOX", "ref": "1942200009"}, "type": "Feature"}
{"geometry": {"coordinates": [-75.2866751, 40.16639], "type": "Point"}, "id": "jorj-1MlIy6eWGZkOooQOy9-ZpA=", "properties": {"@spider": "usps_collection_boxes", "addr:city": "BLUE BELL", "addr:country": "US", "addr:full": "1301 SKIPPACK PIKE", "addr:postcode": "19422", "addr:state": "PA", "brand": "USPS", "collection_times": "Mo-Sa 09:00", "name": "USPS COLLECTION BOX - BLUE BOX", "ref": "1942200010"}, "type": "Feature"}
{"geometry": {"coordinates": [-75.2691662, 40.155455], "type": "Point"}, "id": "XfSPIi5oc-pXwNXDsQDpVVi5SSA=", "properties": {"@spider": "usps_collection_boxes", "addr:city": "BLUE BELL", "addr:country": "US", "addr:full": "723 SKIPPACK PIKE", "addr:postcode": "19422", "addr:state": "PA", "brand": "USPS", "collection_times": "Mo-Sa 09:00", "name": "USPS COLLECTION BOX - BLUE BOX", "ref": "1942200012"}, "type": "Feature"}
{"geometry": {"coordinates": [-75.2681647, 40.15376], "type": "Point"}, "id": "r0u_E6itgU0djolfhgvUef3c3qY=", "properties": {"@spider": "usps_collection_boxes", "addr:city": "BLUE BELL", "addr:country": "US", "addr:full": "653 SKIPPACK PIKE", "addr:postcode": "19422", "addr:state": "PA", "brand": "USPS", "collection_times": "Mo-Sa 10:30", "name": "USPS COLLECTION BOX - BLUE BOX", "ref": "1942200013"}, "type": "Feature"}
{"geometry": {"coordinates": [-75.2637149, 40.154392], "type": "Point"}, "id": "Y3B7CgPPUSu-_Hnn0C_OV65nJdY=", "properties": {"@spider": "usps_collection_boxes", "addr:city": "BLUE BELL", "addr:country": "US", "addr:full": "790 PENLLYN PIKE", "addr:postcode": "19422", "addr:state": "PA", "brand": "USPS", "collection_times": "Mo-Sa 09:00", "name": "USPS COLLECTION BOX - BLUE BOX", "ref": "1942200014"}, "type": "Feature"}
{"geometry": {"coordinates": [-75.2637574, 40.153263], "type": "Point"}, "id": "-Q7PeLRecYo4cnYAFvzTmItkiuw=", "properties": {"@spider": "usps_collection_boxes", "addr:city": "BLUE BELL", "addr:country": "US", "addr:full": "595 SKIPPACK PIKE", "addr:postcode": "19422", "addr:state": "PA", "brand": "USPS", "collection_times": "Mo-Sa 09:00", "name": "USPS COLLECTION BOX - BLUE BOX", "ref": "1942200016"}, "type": "Feature"}
{"geometry": {"coordinates": [-75.2716911, 40.131658], "type": "Point"}, "id": "fLc6wRjwth40f_WQghiLDtnnY9s=", "properties": {"@spider": "usps_collection_boxes", "addr:city": "BLUE BELL", "addr:country": "US", "addr:full": "4 SENTRY PKWY", "addr:postcode": "19422", "addr:state": "PA", "brand": "USPS", "collection_times": "Mo-Sa 10:30", "name": "USPS COLLECTION BOX - BLUE BOX", "ref": "1942200020"}, "type": "Feature"}
{"geometry": {"coordinates": [-75.2752359, 40.133494], "type": "Point"}, "id": "mPVKS5VYkBpAVPLushhtM6u7ipw=", "properties": {"@spider": "usps_collection_boxes", "addr:city": "BLUE BELL", "addr:country": "US", "addr:full": "1 SENTRY PKWY E", "addr:postcode": "19422", "addr:state": "PA", "brand": "USPS", "collection_times": "Mo-Sa 10:30", "name": "USPS COLLECTION BOX - BLUE BOX", "ref": "1942200022"}, "type": "Feature"}
{"geometry": {"coordinates": [-75.2704117, 40.133002], "type": "Point"}, "id": "3zzPNf9NwHtskcyCmqb0sdSImYU=", "properties": {"@spider": "usps_collection_boxes", "addr:city": "BLUE BELL", "addr:country": "US", "addr:full": "6 SENTRY PARKWAY EAST", "addr:postcode": "19422", "addr:state": "PA", "brand": "USPS", "collection_times": "Mo-Sa 09:00", "name": "USPS COLLECTION BOX - BLUE BOX", "ref": "1942200023"}, "type": "Feature"}
{"geometry": {"coordinates": [-75.2781943, 40.132946], "type": "Point"}, "id": "hcM1tVeKG1UdhRGItdhf-xIL5gU=", "properties": {"@spider": "usps_collection_boxes", "addr:city": "BLUE BELL", "addr:country": "US", "addr:full": "1777 SENTRY PKWY W", "addr:postcode": "19422", "addr:state": "PA", "brand": "USPS", "collection_times": "Mo-Sa 09:00", "name": "USPS COLLECTION BOX - BLUE BOX", "ref": "1942200024"}, "type": "Feature"}
{"geometry": {"coordinates": [-75.2788449, 40.134603], "type": "Point"}, "id": "LaGc-AUqOmh3RZ78MXh8d7PYARs=", "properties": {"@spider": "usps_collection_boxes", "addr:city": "BLUE BELL", "addr:country": "US", "addr:full": "1777 SENTRY PKWY W", "addr:postcode": "19422", "addr:state": "PA", "brand": "USPS", "collection_times": "Mo-Sa 09:00", "name": "USPS COLLECTION BOX - BLUE BOX", "ref": "1942200025"}, "type": "Feature"}
{"geometry": {"coordinates": [-75.2834925, 40.130166], "type": "Point"}, "id": "TAXVYqInLc86Pu6184mbymIMhEo=", "properties": {"@spider": "usps_collection_boxes", "addr:city": "BLUE BELL", "addr:country": "US", "addr:full": "512 TOWNSHIP LINE RD", "addr:postcode": "19422", "addr:state": "PA", "brand": "USPS", "collection_times": "Mo-Sa 09:00", "name": "USPS COLLECTION BOX - BLUE BOX", "ref": "1942200026"}, "type": "Feature"}
{"geometry": {"coordinates": [-75.2734141, 40.134088], "type": "Point"}, "id": "_jgsioiGJTTel7ugaLMoqc_3-ig=", "properties": {"@spider": "usps_collection_boxes", "addr:city": "BLUE BELL", "addr:country": "US", "addr:full": "5 SENTRY PKWY W", "addr:postcode": "19422", "addr:state": "PA", "brand": "USPS", "collection_times": "Mo-Sa 09:00", "name": "USPS COLLECTION BOX - BLUE BOX", "ref": "1942200028"}, "type": "Feature"}
{"geometry": {"coordinates": [-75.2850508, 40.136233], "type": "Point"}, "id": "AfjIqqOxFlG-mTqR2u-n4yLxKcY=", "properties": {"@spider": "usps_collection_boxes", "addr:city": "BLUE BELL", "addr:country": "US", "addr:full": "651 E TOWNSHIP LINE RD", "addr:postcode": "19422", "addr:state": "PA", "brand": "USPS", "collection_times": "Mo-Fr 17:00; Sa 15:00", "name": "USPS COLLECTION BOX - BLUE BOX", "note": "ON 12/24 AND 12/31, THIS BOX MAY BE COLLECTED AS EARLY AS 12 NOON.", "ref": "1942200029"}, "type": "Feature"}
{"geometry": {"coordinates": [-75.2747929, 40.130208], "type": "Point"}, "id": "pe3N3kjIvHjr5B47MTXOL3dRjMI=", "properties": {"@spider": "usps_collection_boxes", "addr:city": "BLUE BELL", "addr:country": "US", "addr:full": "482 NORRISTOWN RD", "addr:postcode": "19422", "addr:state": "PA", "brand": "USPS", "collection_times": "Mo-Sa 09:00", "name": "USPS COLLECTION BOX - BLUE BOX", "ref": "1942200030"}, "type": "Feature"}
{"geometry": {"coordinates": [-75.2867768, 40.14721], "type": "Point"}, "id": "uyJ89rGKS3SMyeDncifoJgSFg3M=", "properties": {"@spider": "usps_collection_boxes", "addr:city": "BLUE BELL", "addr:country": "US", "addr:full": "1425 UNION MEETING RD", "addr:postcode": "19422", "addr:state": "PA", "brand": "USPS", "collection_times": "Mo-Sa 09:00", "name": "USPS COLLECTION BOX - BLUE BOX", "ref": "1942200031"}, "type": "Feature"}
{"geometry": {"coordinates": [-75.2891405, 40.181542], "type": "Point"}, "id": "PCW3JkxxyAGkCb2QRVYtbRp7aAo=", "properties": {"@spider": "usps_collection_boxes", "addr:city": "BLUE BELL", "addr:country": "US", "addr:full": "1810 TOURNAMENT DR", "addr:postcode": "19422", "addr:state": "PA", "brand": "USPS", "collection_times": "Mo-Sa 09:00", "name": "USPS COLLECTION BOX - BLUE BOX", "ref": "1942200034"}, "type": "Feature"}
{"geometry": {"coordinates": [-75.2851431, 40.136561], "type": "Point"}, "id": "DrONlWTPi9PrRy-hsxoi5oi-eEo=", "properties": {"@spider": "usps_collection_boxes", "addr:city": "BLUE BELL", "addr:country": "US", "addr:full": "651 E TOWNSHIP LINE RD", "addr:postcode": "19422", "addr:state": "PA", "brand": "USPS", "collection_times": "Mo-Fr 17:00; Sa 15:00", "name": "USPS COLLECTION BOX - PO LOBBY", "note": "ON 12/24 AND 12/31, THIS BOX MAY BE COLLECTED AS EARLY AS 12 NOON.", "ref": "1942200036"}, "type": "Feature"}
{"geometry": {"coordinates": [-75.2689583, 40.129377], "type": "Point"}, "id": "jVOgkDiQ9z7KjVV-c_qjwrkHR6E=", "properties": {"@spider": "usps_collection_boxes", "addr:city": "BLUE BELL", "addr:country": "US", "addr:full": "470 NORRISTOWN RD", "addr:postcode": "19422", "addr:state": "PA", "brand": "USPS", "collection_times": "Mo-Sa 09:00", "name": "USPS COLLECTION BOX - BLUE BOX", "ref": "1942200037"}, "type": "Feature"}
{"geometry": {"coordinates": [-75.2851431, 40.136561], "type": "Point"}, "id": "Y8lXatPlnVky0TDR4CKfDPhSwPU=", "properties": {"@spider": "usps_collection_boxes", "addr:city": "BLUE BELL", "addr:country": "US", "addr:full": "651 E TOWNSHIP LINE RD", "addr:postcode": "19422", "addr:state": "PA", "brand": "USPS", "collection_times": "Mo-Fr 17:00; Sa 15:00", "name": "USPS COLLECTION BOX - APC", "note": "ON 12/24 AND 12/31, THIS BOX MAY BE COLLECTED AS EARLY AS 12 NOON.", "ref": "1942200039"}, "type": "Feature"}
{"geometry": {"coordinates": [-75.2851185, 40.136519], "type": "Point"}, "id": "KbFbQ1IJfdQa6zCvJYZIUKYtR8Y=", "properties": {"@spider": "usps_collection_boxes", "addr:city": "BLUE BELL", "addr:country": "US", "addr:full": "651 E TOWNSHIP LINE RD", "addr:postcode": "19422", "addr:state": "PA", "brand": "USPS", "collection_times": "Mo-Fr 17:00; Sa 15:00", "name": "USPS COLLECTION BOX - PO LOBBY", "note": "ON 12/24 AND 12/31, THIS BOX MAY BE COLLECTED AS EARLY AS 12 NOON.", "ref": "1942200040"}, "type": "Feature"}
{"geometry": {"coordinates": [-75.285499337, 40.135993246], "type": "Point"}, "id": "hGveQymGB4-_AaA31rHSXNyeCN8=", "properties": {"@spider": "usps_collection_boxes", "addr:city": "BLUE BELL", "addr:country": "US", "addr:full": "651 E TOWNSHIP LINE RD", "addr:postcode": "19422", "addr:state": "PA", "brand": "USPS", "collection_times": "Mo-Fr 17:00; Sa 12:00", "name": "USPS COLLECTION BOX - PO LOBBY", "note": "ON 12/24 AND 12/31, THIS BOX MAY BE COLLECTED AS EARLY AS 12 NOON.", "ref": "1942200045"}, "type": "Feature"}
{"geometry": {"coordinates": [-75.3653896427, 40.2110481466], "type": "Point"}, "id": "0SuE-NSGJx1Zry6fo2BDjK6Wsa4=", "properties": {"@spider": "usps_collection_boxes", "addr:city": "CEDARS", "addr:country": "US", "addr:full": "3340 SKIPPACK PIKE", "addr:postcode": "19423", "addr:state": "PA", "brand": "USPS", "collection_times": "Mo-Fr 16:45; Sa 11:30", "name": "USPS COLLECTION BOX - BLUE BOX", "note": "ON 12/24 AND 12/31, THIS BOX MAY BE COLLECTED AS EARLY AS 12 NOON.", "ref": "1942300000"}, "type": "Feature"}
{"geometry": {"coordinates": [-75.3653896427, 40.2110481466], "type": "Point"}, "id": "Q0XQ6VAXnX2AkfBxkrf1sPr6Quo=", "properties": {"@spider": "usps_collection_boxes", "addr:city": "CEDARS", "addr:country": "US", "addr:full": "3340 SKIPPACK PIKE", "addr:postcode": "19423", "addr:state": "PA", "brand": "USPS", "collection_times": "Mo-Fr 16:45; Sa 11:30", "name": "USPS COLLECTION BOX - PO LOBBY", "note": "ON 12/24 AND 12/31, THIS BOX MAY BE COLLECTED AS EARLY AS 12 NOON.", "ref": "1942300001"}, "type": "Feature"}
{"geometry": {"coordinates": [-75.366245334, 40.211388935], "type": "Point"}, "id": "nENqc5D_oEEcEm7Nw3XVpyliCVk=", "properties": {"@spider": "usps_collection_boxes", "addr:city": "CEDARS", "addr:country": "US", "addr:full": "3340 SKIPPACK PIKE", "addr:postcode": "19423", "addr:state": "PA", "brand": "USPS", "collection_times": "Mo-Fr 16:45; Sa 11:30", "name": "USPS COLLECTION BOX - PO LOBBY", "note": "ON 12/24 AND 12/31, THIS BOX MAY BE COLLECTED AS EARLY AS 12 NOON.", "ref": "1942300003"}, "type": "Feature"}
{"geometry": {"coordinates": [-75.621621, 40.09383], "type": "Point"}, "id": "AyizWLEx-HnBqQ-uQeVHcF3yhJY=", "properties": {"@spider": "usps_collection_boxes", "addr:city": "CHESTER SPRINGS", "addr:country": "US", "addr:full": "1214 ROUTE 113", "addr:postcode": "19425", "addr:state": "PA", "brand": "USPS", "collection_times": "Mo-Fr 16:30; Sa 11:30", "name": "USPS COLLECTION BOX - BLUE BOX", "note": "ON 12/24 AND 12/31, THIS BOX MAY BE COLLECTED AS EARLY AS 12 NOON.", "ref": "1942500001"}, "type": "Feature"}
{"geometry": {"coordinates": [-75.621621, 40.093831], "type": "Point"}, "id": "MLSY2K-D_5lPNC4KN4kaBjPeerA=", "properties": {"@spider": "usps_collection_boxes", "addr:city": "CHESTER SPRINGS", "addr:country": "US", "addr:full": "1214 ROUTE 113", "addr:postcode": "19425", "addr:state": "PA", "brand": "USPS", "collection_times": "Mo-Fr 16:30; Sa 11:30", "name": "USPS COLLECTION BOX - PO LOBBY", "note": "ON 12/24 AND 12/31, THIS BOX MAY BE COLLECTED AS EARLY AS 12 NOON.", "ref": "1942500002"}, "type": "Feature"}
{"geometry": {"coordinates": [-75.621697525, 40.093787245], "type": "Point"}, "id": "MMfrr6VbDzv3Z2KlsmEmr8xijrU=", "properties": {"@spider": "usps_collection_boxes", "addr:city": "CHESTER SPRINGS", "addr:country": "US", "addr:full": "1214 KIMBERTON RD", "addr:postcode": "19425", "addr:state": "PA", "brand": "USPS", "collection_times": "Mo-Fr 16:30; Sa 11:30", "name": "USPS COLLECTION BOX - PO LOBBY", "note": "ON 12/24 AND 12/31, THIS BOX MAY BE COLLECTED AS EARLY AS 12 NOON.", "ref": "1942500005"}, "type": "Feature"}
{"geometry": {"coordinates": [-75.4534314, 40.187903], "type": "Point"}, "id": "X3qRBfS2NcEiYSKJZ2opU9thDQ8=", "properties": {"@spider": "usps_collection_boxes", "addr:city": "COLLEGEVILLE", "addr:country": "US", "addr:full": "54 W 4TH AVE", "addr:postcode": "19426", "addr:state": "PA", "brand": "USPS", "collection_times": "Mo-Sa 09:00", "name": "USPS COLLECTION BOX - BLUE BOX", "ref": "1942600002"}, "type": "Feature"}
{"geometry": {"coordinates": [-75.4568818, 40.23726], "type": "Point"}, "id": "zPXRr9YG3CT7Zp08KKhzLWZsBMM=", "properties": {"@spider": "usps_collection_boxes", "addr:city": "COLLEGEVILLE", "addr:country": "US", "addr:full": "845 GRAVEL PIKE", "addr:postcode": "19426", "addr:state": "PA", "brand": "USPS", "collection_times": "Mo-Sa 09:00", "name": "USPS COLLECTION BOX - BLUE BOX", "ref": "1942600003"}, "type": "Feature"}
{"geometry": {"coordinates": [-75.4383995, 40.178181], "type": "Point"}, "id": "_19l_lHla7Gu7pE03BMy7LpUGQo=", "properties": {"@spider": "usps_collection_boxes", "addr:city": "COLLEGEVILLE", "addr:country": "US", "addr:full": "3851 RIDGE PIKE", "addr:postcode": "19426", "addr:state": "PA", "brand": "USPS", "collection_times": "Mo-Sa 09:00", "name": "USPS COLLECTION BOX - BLUE BOX", "ref": "1942600004"}, "type": "Feature"}
{"geometry": {"coordinates": [-75.4539256, 40.191969], "type": "Point"}, "id": "cfyMRx_vIC3K1uUxl7AYg-k8ePk=", "properties": {"@spider": "usps_collection_boxes", "addr:city": "COLLEGEVILLE", "addr:country": "US", "addr:full": "74 E 5TH AVE", "addr:postcode": "19426", "addr:state": "PA", "brand": "USPS", "collection_times": "Mo-Sa 09:00", "name": "USPS COLLECTION BOX - BLUE BOX", "ref": "1942600005"}, "type": "Feature"}
{"geometry": {"coordinates": [-75.4553551, 40.190381], "type": "Point"}, "id": "g-NyD-nKJEES4__k9mrIzcCOG2k=", "properties": {"@spider": "usps_collection_boxes", "addr:city": "COLLEGEVILLE", "addr:country": "US", "addr:full": "491 E MAIN ST", "addr:postcode": "19426", "addr:state": "PA", "brand": "USPS", "collection_times": "Mo-Sa 09:00", "name": "USPS COLLECTION BOX - BLUE BOX", "ref": "1942600009"}, "type": "Feature"}
{"geometry": {"coordinates": [-75.4679451, 40.19417], "type": "Point"}, "id": "l4MbHFnxYy1cBFPIrNkUW990EY0=", "properties": {"@spider": "usps_collection_boxes", "addr:city": "COLLEGEVILLE", "addr:country": "US", "addr:full": "130 W MAIN ST", "addr:postcode": "19426", "addr:state": "PA", "brand": "USPS", "collection_times": "Mo-Sa 09:00", "name": "USPS COLLECTION BOX - BLUE BOX", "ref": "1942600010"}, "type": "Feature"}
{"geometry": {"coordinates": [-75.472316, 40.195323], "type": "Point"}, "id": "DOR0lz7YrFx0raF-McNWUjL9X5k=", "properties": {"@spider": "usps_collection_boxes", "addr:city": "COLLEGEVILLE", "addr:country": "US", "addr:full": "52 W 3RD AVE", "addr:postcode": "19426", "addr:state": "PA", "brand": "USPS", "collection_times": "Mo-Fr 17:00; Sa 15:00", "name": "USPS COLLECTION BOX - BLUE BOX", "note": "ON 12/24 AND 12/31, THIS BOX MAY BE COLLECTED AS EARLY AS 12 NOON.", "ref": "1942600011"}, "type": "Feature"}
{"geometry": {"coordinates": [-75.472347, 40.195336], "type": "Point"}, "id": "Aetyod00EWaEk1fK4NIcjuenEK0=", "properties": {"@spider": "usps_collection_boxes", "addr:city": "COLLEGEVILLE", "addr:country": "US", "addr:full": "52 W 3RD AVE", "addr:postcode": "19426", "addr:state": "PA", "brand": "USPS", "collection_times": "Mo-Fr 17:00; Sa 15:00", "name": "USPS COLLECTION BOX - BLUE BOX", "note": "ON 12/24 AND 12/31, THIS BOX MAY BE COLLECTED AS EARLY AS 12 NOON.", "ref": "1942600012"}, "type": "Feature"}
{"geometry": {"coordinates": [-75.4520669, 40.183111], "type": "Point"}, "id": "5zkRVuSSPZM_qyAmKEQVxZGtuWM=", "properties": {"@spider": "usps_collection_boxes", "addr:city": "COLLEGEVILLE", "addr:country": "US", "addr:full": "222 E MAIN ST", "addr:postcode": "19426", "addr:state": "PA", "brand": "USPS", "collection_times": "Mo-Sa 09:00", "name": "USPS COLLECTION BOX - BLUE BOX", "ref": "1942600016"}, "type": "Feature"}
{"geometry": {"coordinates": [-75.4522754, 40.181421], "type": "Point"}, "id": "HvhirKIsbHUdtAZfL6Z347qschc=", "properties": {"@spider": "usps_collection_boxes", "addr:city": "COLLEGEVILLE", "addr:country": "US", "addr:full": "201 2ND AVE", "addr:postcode": "19426", "addr:state": "PA", "brand": "USPS", "collection_times": "Mo-Sa 09:00", "name": "USPS COLLECTION BOX - BLUE BOX", "ref": "1942600017"}, "type": "Feature"}
{"geometry": {"coordinates": [-75.472347, 40.195336], "type": "Point"}, "id": "Qtm9nJRVbZ_yAey2Irco9aFRDcg=", "properties": {"@spider": "usps_collection_boxes", "addr:city": "COLLEGEVILLE", "addr:country": "US", "addr:full": "52 W 3RD AVE", "addr:postcode": "19426", "addr:state": "PA", "brand": "USPS", "collection_times": "Mo-Fr 17:00; Sa 14:45", "name": "USPS COLLECTION BOX - PO LOBBY", "note": "ON 12/24 AND 12/31, THIS BOX MAY BE COLLECTED AS EARLY AS 12 NOON.", "ref": "1942600018"}, "type": "Feature"}
{"geometry": {"coordinates": [-75.472347, 40.195336], "type": "Point"}, "id": "zyralDo-6gWvLTxlkkk8E4fAgnE=", "properties": {"@spider": "usps_collection_boxes", "addr:city": "COLLEGEVILLE", "addr:country": "US", "addr:full": "52 W 3RD AVE", "addr:postcode": "19426", "addr:state": "PA", "brand": "USPS", "collection_times": "Mo-Fr 17:00; Sa 15:00", "name": "USPS COLLECTION BOX - PO LOBBY", "note": "ON 12/24 AND 12/31, THIS BOX MAY BE COLLECTED AS EARLY AS 12 NOON.", "ref": "1942600021"}, "type": "Feature"}
{"geometry": {"coordinates": [-75.472429869, 40.195166169], "type": "Point"}, "id": "1EQ0Bk8inpkT1vnspZ0CGMu3o6s=", "properties": {"@spider": "usps_collection_boxes", "addr:city": "COLLEGEVILLE", "addr:country": "US", "addr:full": "52 W THIRD AVE", "addr:postcode": "19426", "addr:state": "PA", "brand": "USPS", "collection_times": "Mo-Fr 16:30; Sa 12:00", "name": "USPS COLLECTION BOX - PO LOBBY", "note": "ON 12/24 AND 12/31, THIS BOX MAY BE COLLECTED AS EARLY AS 12 NOON.", "ref": "1942600028"}, "type": "Feature"}
{"geometry": {"coordinates": [-75.2849209, 40.094493], "type": "Point"}, "id": "cNshriqmaSDAA5pmuuPMKtzHmTU=", "properties": {"@spider": "usps_collection_boxes", "addr:city": "CONSHOHOCKEN", "addr:country": "US", "addr:full": "15 E RIDGE PIKE", "addr:postcode": "19428", "addr:state": "PA", "brand": "USPS", "collection_times": "Mo-Sa 09:00", "name": "USPS COLLECTION BOX - BLUE BOX", "ref": "1942800003"}, "type": "Feature"}
{"geometry": {"coordinates": [-75.2884936, 40.095052], "type": "Point"}, "id": "DL0Yn_H4eZGTgGwwVbYpotbk_eg=", "properties": {"@spider": "usps_collection_boxes", "addr:city": "CONSHOHOCKEN", "addr:country": "US", "addr:full": "200 W RIDGE PIKE", "addr:postcode": "19428", "addr:state": "PA", "brand": "USPS", "collection_times": "Mo-Sa 09:00", "name": "USPS COLLECTION BOX - BLUE BOX", "ref": "1942800004"}, "type": "Feature"}
{"geometry": {"coordinates": [-75.2984496, 40.095391], "type": "Point"}, "id": "3-pUjXXFrbrDcqXuV0Mr4rHsUg0=", "properties": {"@spider": "usps_collection_boxes", "addr:city": "CONSHOHOCKEN", "addr:country": "US", "addr:full": "625 W RIDGE PIKE", "addr:postcode": "19428", "addr:state": "PA", "brand": "USPS", "collection_times": "Mo-Sa 09:00", "name": "USPS COLLECTION BOX - BLUE BOX", "ref": "1942800005"}, "type": "Feature"}
{"geometry": {"coordinates": [-75.2946923, 40.091099], "type": "Point"}, "id": "dBlcI3xqxlauADBF3IfZ8oSuGU4=", "properties": {"@spider": "usps_collection_boxes", "addr:city": "CONSHOHOCKEN", "addr:country": "US", "addr:full": "400 HALLMAN AVE", "addr:postcode": "19428", "addr:state": "PA", "brand": "USPS", "collection_times": "Mo-Sa 09:00", "name": "USPS COLLECTION BOX - BLUE BOX", "ref": "1942800008"}, "type": "Feature"}
{"geometry": {"coordinates": [-75.3058422, 40.086627], "type": "Point"}, "id": "eRmIGLrXtXwfaCWfyc21z0MGOFc=", "properties": {"@spider": "usps_collection_boxes", "addr:city": "CONSHOHOCKEN", "addr:country": "US", "addr:full": "1075 COLWELL LN", "addr:postcode": "19428", "addr:state": "PA", "brand": "USPS", "collection_times": "Mo-Sa 09:00", "name": "USPS COLLECTION BOX - BLUE BOX", "ref": "1942800011"}, "type": "Feature"}
{"geometry": {"coordinates": [-75.3021337, 40.081826], "type": "Point"}, "id": "bhP-eEH878CwlExr8DLvb9EgOGU=", "properties": {"@spider": "usps_collection_boxes", "addr:city": "CONSHOHOCKEN", "addr:country": "US", "addr:full": "151 W 9TH AVE", "addr:postcode": "19428", "addr:state": "PA", "brand": "USPS", "collection_times": "Mo-Sa 09:00", "name": "USPS COLLECTION BOX - BLUE BOX", "ref": "1942800015"}, "type": "Feature"}
{"geometry": {"coordinates": [-75.3054035, 40.078501], "type": "Point"}, "id": "sDI6lLkD6CyRH39YDGq9wFYg7vE=", "properties": {"@spider": "usps_collection_boxes", "addr:city": "CONSHOHOCKEN", "addr:country": "US", "addr:full": "145 W 5TH AVE", "addr:postcode": "19428", "addr:state": "PA", "brand": "USPS", "collection_times": "Mo-Sa 09:00", "name": "USPS COLLECTION BOX - BLUE BOX", "ref": "1942800018"}, "type": "Feature"}
{"geometry": {"coordinates": [-75.3032507, 40.077117], "type": "Point"}, "id": "U02rxXMYzZQGgr-99kCO4vPdZ6U=", "properties": {"@spider": "usps_collection_boxes", "addr:city": "CONSHOHOCKEN", "addr:country": "US", "addr:full": "426 FAYETTE ST", "addr:postcode": "19428", "addr:state": "PA", "brand": "USPS", "collection_times": "Mo-Fr 16:45; Sa 15:00", "name": "USPS COLLECTION BOX - BLUE BOX", "note": "ON 12/24 AND 12/31, THIS BOX MAY BE COLLECTED AS EARLY AS 12 NOON.", "ref": "1942800020"}, "type": "Feature"}
{"geometry": {"coordinates": [-75.3031205, 40.07683], "type": "Point"}, "id": "hHPNKLCZX8cmtWuvMibYjN4xPiU=", "properties": {"@spider": "usps_collection_boxes", "addr:city": "CONSHOHOCKEN", "addr:country": "US", "addr:full": "425 FAYETTE ST", "addr:postcode": "19428", "addr:state": "PA", "brand": "USPS", "collection_times": "Mo-Fr 17:00; Sa 15:00", "name": "USPS COLLECTION BOX - BLUE BOX", "note": "ON 12/24 AND 12/31, THIS BOX MAY BE COLLECTED AS EARLY AS 12 NOON.", "ref": "1942800021"}, "type": "Feature"}
{"geometry": {"coordinates": [-75.2868699, 40.076926], "type": "Point"}, "id": "kq3FPBhR5nirN6uqRXQShulFhzk=", "properties": {"@spider": "usps_collection_boxes", "addr:city": "CONSHOHOCKEN", "addr:country": "US", "addr:full": "555 E NORTH LN", "addr:postcode": "19428", "addr:state": "PA", "brand": "USPS", "collection_times": "Mo-Sa 09:00", "name": "USPS COLLECTION BOX - BLUE BOX", "ref": "1942800027"}, "type": "Feature"}
{"geometry": {"coordinates": [-75.3159123, 40.068505], "type": "Point"}, "id": "O4mlwNpzArwMuCJyhDhDM9KTu7k=", "properties": {"@spider": "usps_collection_boxes", "addr:city": "CONSHOHOCKEN", "addr:country": "US", "addr:full": "426 FORD ST", "addr:postcode": "19428", "addr:state": "PA", "brand": "USPS", "collection_times": "Mo-Sa 09:00", "name": "USPS COLLECTION BOX - BLUE BOX", "ref": "1942800032"}, "type": "Feature"}
{"geometry": {"coordinates": [-75.3254304, 40.067643], "type": "Point"}, "id": "F0K6VFl0p-3vHk58jl83QZzRvbk=", "properties": {"@spider": "usps_collection_boxes", "addr:city": "CONSHOHOCKEN", "addr:country": "US", "addr:full": "1 UNION HILL RD", "addr:postcode": "19428", "addr:state": "PA", "brand": "USPS", "collection_times": "Mo-Sa 09:00", "name": "USPS COLLECTION BOX - BLUE BOX", "ref": "1942800034"}, "type": "Feature"}
{"geometry": {"coordinates": [-75.2875761, 40.075688], "type": "Point"}, "id": "ZjNPinr8JSEqhyVmOfcKL7CBehY=", "properties": {"@spider": "usps_collection_boxes", "addr:city": "CONSHOHOCKEN", "addr:country": "US", "addr:full": "1100 E HECTOR ST", "addr:postcode": "19428", "addr:state": "PA", "brand": "USPS", "collection_times": "Mo-Sa 09:00", "name": "USPS COLLECTION BOX - BLUE BOX", "ref": "1942800038"}, "type": "Feature"}
{"geometry": {"coordinates": [-75.2965162, 40.07993], "type": "Point"}, "id": "rzNq3SNMGiBnCfXK2zTsLJxrhUQ=", "properties": {"@spider": "usps_collection_boxes", "addr:city": "CONSHOHOCKEN", "addr:country": "US", "addr:full": "151 E 10TH AVE", "addr:postcode": "19428", "addr:state": "PA", "brand": "USPS", "collection_times": "Mo-Sa 09:00", "name": "USPS COLLECTION BOX - BLUE BOX", "ref": "1942800046"}, "type": "Feature"}
{"geometry": {"coordinates": [-75.2976442, 40.073809], "type": "Point"}, "id": "u9MpQ8cxXAFMhmW5lAw6ZCmsh3c=", "properties": {"@spider": "usps_collection_boxes", "addr:city": "CONSHOHOCKEN", "addr:country": "US", "addr:full": "441 E HECTOR ST", "addr:postcode": "19428", "addr:state": "PA", "brand": "USPS", "collection_times": "Mo-Sa 09:00", "name": "USPS COLLECTION BOX - BLUE BOX", "ref": "1942800047"}, "type": "Feature"}
{"geometry": {"coordinates": [-75.2989591, 40.08146], "type": "Point"}, "id": "k1ZW84YxOdlRgb88tXrTXozTaFc=", "properties": {"@spider": "usps_collection_boxes", "addr:city": "CONSHOHOCKEN", "addr:country": "US", "addr:full": "1000 FAYETTE ST", "addr:postcode": "19428", "addr:state": "PA", "brand": "USPS", "collection_times": "Mo-Sa 09:00", "name": "USPS COLLECTION BOX - BLUE BOX", "ref": "1942800053"}, "type": "Feature"}
{"geometry": {"coordinates": [-75.2974484, 40.082988], "type": "Point"}, "id": "6JfxHd8fqcI0lyf1EPJv2c04mp8=", "properties": {"@spider": "usps_collection_boxes", "addr:city": "CONSHOHOCKEN", "addr:country": "US", "addr:full": "1200 FAYETTE ST", "addr:postcode": "19428", "addr:state": "PA", "brand": "USPS", "collection_times": "Mo-Sa 09:00", "name": "USPS COLLECTION BOX - BLUE BOX", "ref": "1942800054"}, "type": "Feature"}
{"geometry": {"coordinates": [-75.3096644, 40.07437], "type": "Point"}, "id": "UCQYvWtaQEgpQXqpdZzQBkkYDuc=", "properties": {"@spider": "usps_collection_boxes", "addr:city": "CONSHOHOCKEN", "addr:country": "US", "addr:full": "2 MAPLE ST", "addr:postcode": "19428", "addr:state": "PA", "brand": "USPS", "collection_times": "Mo-Sa 09:00", "name": "USPS COLLECTION BOX - BLUE BOX", "ref": "1942800056"}, "type": "Feature"}
{"geometry": {"coordinates": [-75.2916831, 40.089182], "type": "Point"}, "id": "SPi7eXmPYDqNW_9PIaz6jzrxX34=", "properties": {"@spider": "usps_collection_boxes", "addr:city": "CONSHOHOCKEN", "addr:country": "US", "addr:full": "1700 BUTLER PIKE", "addr:postcode": "19428", "addr:state": "PA", "brand": "USPS", "collection_times": "Mo-Sa 09:00", "name": "USPS COLLECTION BOX - BLUE BOX", "ref": "1942800057"}, "type": "Feature"}
{"geometry": {"coordinates": [-75.2884637, 40.091812], "type": "Point"}, "id": "1quabFAJGwgiMQFZkXtqyfPMfuQ=", "properties": {"@spider": "usps_collection_boxes", "addr:city": "CONSHOHOCKEN", "addr:country": "US", "addr:full": "1801 BUTLER PIKE", "addr:postcode": "19428", "addr:state": "PA", "brand": "USPS", "collection_times": "Mo-Sa 09:00", "name": "USPS COLLECTION BOX - BLUE BOX", "ref": "1942800058"}, "type": "Feature"}
{"geometry": {"coordinates": [-75.3013995, 40.079002], "type": "Point"}, "id": "OQkXZ4dlFyxysEtdlQPc9sCk7gA=", "properties": {"@spider": "usps_collection_boxes", "addr:city": "CONSHOHOCKEN", "addr:country": "US", "addr:full": "700 FAYETTE ST", "addr:postcode": "19428", "addr:state": "PA", "brand": "USPS", "collection_times": "Mo-Sa 09:00", "name": "USPS COLLECTION BOX - BLUE BOX", "ref": "1942800071"}, "type": "Feature"}
{"geometry": {"coordinates": [-75.285211, 40.093661], "type": "Point"}, "id": "4ytqz3t4DON_wXh2wqHaFV8tEng=", "properties": {"@spider": "usps_collection_boxes", "addr:city": "CONSHOHOCKEN", "addr:country": "US", "addr:full": "18 E RIDGE PIKE", "addr:postcode": "19428", "addr:state": "PA", "brand": "USPS", "collection_times": "Mo-Sa 09:00", "name": "USPS COLLECTION BOX - BLUE BOX", "ref": "1942800074"}, "type": "Feature"}
{"geometry": {"coordinates": [-75.3084847, 40.07278], "type": "Point"}, "id": "yMU57ISOGQKkpgDZ4vwHhpd1vbs=", "properties": {"@spider": "usps_collection_boxes", "addr:city": "CONSHOHOCKEN", "addr:country": "US", "addr:full": "101 W ELM ST", "addr:postcode": "19428", "addr:state": "PA", "brand": "USPS", "collection_times": "Mo-Sa 09:00", "name": "USPS COLLECTION BOX - BLUE BOX", "ref": "1942800084"}, "type": "Feature"}
{"geometry": {"coordinates": [-75.3112173, 40.069908], "type": "Point"}, "id": "npefKfBCUt4eql_swPZVBs6xirw=", "properties": {"@spider": "usps_collection_boxes", "addr:city": "CONSHOHOCKEN", "addr:country": "US", "addr:full": "300 BARR HARBOR DR", "addr:postcode": "19428", "addr:state": "PA", "brand": "USPS", "collection_times": "Mo-Fr 16:45; Sa 09:00", "name": "USPS COLLECTION BOX - BLUE BOX", "note": "ON 12/24 AND 12/31, THIS BOX MAY BE COLLECTED AS EARLY AS 12 NOON.", "ref": "1942800086"}, "type": "Feature"}
{"geometry": {"coordinates": [-75.3067013, 40.07143], "type": "Point"}, "id": "2EdoC1O_KYbvP5R2NNnmQWLBccs=", "properties": {"@spider": "usps_collection_boxes", "addr:city": "CONSHOHOCKEN", "addr:country": "US", "addr:full": "161 WASHINGTON ST", "addr:postcode": "19428", "addr:state": "PA", "brand": "USPS", "collection_times": "Mo-Sa 09:00", "name": "USPS COLLECTION BOX - BLUE BOX", "ref": "1942800087"}, "type": "Feature"}
{"geometry": {"coordinates": [-75.30363, 40.07659], "type": "Point"}, "id": "9DV31QTZhV1sENqAzxawIOAoqA8=", "properties": {"@spider": "usps_collection_boxes", "addr:city": "CONSHOHOCKEN", "addr:country": "US", "addr:full": "425 FAYETTE ST", "addr:postcode": "19428", "addr:state": "PA", "brand": "USPS", "collection_times": "Mo-Fr 17:00; Sa 12:00", "name": "USPS COLLECTION BOX - PO LOBBY", "note": "ON 12/24 AND 12/31, THIS BOX MAY BE COLLECTED AS EARLY AS 12 NOON.", "ref": "1942800089"}, "type": "Feature"}
{"geometry": {"coordinates": [-75.30363, 40.07659], "type": "Point"}, "id": "9qiPkixcapCNRS44AHHU0ofqq1A=", "properties": {"@spider": "usps_collection_boxes", "addr:city": "CONSHOHOCKEN", "addr:country": "US", "addr:full": "425 FAYETTE ST", "addr:postcode": "19428", "addr:state": "PA", "brand": "USPS", "collection_times": "Mo-Fr 17:00; Sa 12:00", "name": "USPS COLLECTION BOX - PO LOBBY", "note": "ON 12/24 AND 12/31, THIS BOX MAY BE COLLECTED AS EARLY AS 12 NOON.", "ref": "1942800090"}, "type": "Feature"}
{"geometry": {"coordinates": [-75.303119, 40.07682], "type": "Point"}, "id": "0M-OZ0x4L5XvpMIGxo1Sl90vSRc=", "properties": {"@spider": "usps_collection_boxes", "addr:city": "CONSHOHOCKEN", "addr:country": "US", "addr:full": "425 FAYETTE ST", "addr:postcode": "19428", "addr:state": "PA", "brand": "USPS", "collection_times": "Mo-Fr 16:45; Sa 15:00", "name": "USPS COLLECTION BOX - BLUE BOX", "note": "ON 12/24 AND 12/31, THIS BOX MAY BE COLLECTED AS EARLY AS 12 NOON.", "ref": "1942800091"}, "type": "Feature"}
{"geometry": {"coordinates": [-75.303268677, 40.076908199], "type": "Point"}, "id": "5v1oSKPFkuUJbM-C4-EeUfXZ18I=", "properties": {"@spider": "usps_collection_boxes", "addr:city": "CONSHOHOCKEN", "addr:country": "US", "addr:full": "425 FAYETTE ST", "addr:postcode": "19428", "addr:state": "PA", "brand": "USPS", "collection_times": "Mo-Fr 17:00; Sa 12:00", "name": "USPS COLLECTION BOX - PO LOBBY", "note": "ON 12/24 AND 12/31, THIS BOX MAY BE COLLECTED AS EARLY AS 12 NOON.", "ref": "1942800095"}, "type": "Feature"}
{"geometry": {"coordinates": [-75.4051773062, 40.2291034825], "type": "Point"}, "id": "vlWMCBm2hWeHJ5e_0j12YQnEN8M=", "properties": {"@spider": "usps_collection_boxes", "addr:city": "CREAMERY", "addr:country": "US", "addr:full": "1117 BRIDGE RD", "addr:postcode": "19430", "addr:state": "PA", "brand": "USPS", "collection_times": "Mo-Fr 16:45; Sa 11:15", "name": "USPS COLLECTION BOX - BLUE BOX", "note": "ON 12/24 AND 12/31, THIS BOX MAY BE COLLECTED AS EARLY AS 12 NOON.", "ref": "1943000001"}, "type": "Feature"}
{"geometry": {"coordinates": [-75.4051773062, 40.2291034825], "type": "Point"}, "id": "xiRdmvAjQNoHf0kuSeEbA5xZtIc=", "properties": {"@spider": "usps_collection_boxes", "addr:city": "CREAMERY", "addr:country": "US", "addr:full": "1117 BRIDGE RD", "addr:postcode": "19430", "addr:state": "PA", "brand": "USPS", "collection_times": "Mo-Fr 16:45; Sa 11:15", "name": "USPS COLLECTION BOX - PO LOBBY", "note": "ON 12/24 AND 12/31, THIS BOX MAY BE COLLECTED AS EARLY AS 12 NOON.", "ref": "1943000002"}, "type": "Feature"}
{"geometry": {"coordinates": [-75.4051773062, 40.2291034825], "type": "Point"}, "id": "oGHtCWhHsOmpYyawF8ilzk_j-IQ=", "properties": {"@spider": "usps_collection_boxes", "addr:city": "CREAMERY", "addr:country": "US", "addr:full": "1117 BRIDGE RD", "addr:postcode": "19430", "addr:state": "PA", "brand": "USPS", "collection_times": "Mo-Fr 16:45; Sa 11:15", "name": "USPS COLLECTION BOX - PO LOBBY", "note": "ON 12/24 AND 12/31, THIS BOX MAY BE COLLECTED AS EARLY AS 12 NOON.", "ref": "1943000003"}, "type": "Feature"}
{"geometry": {"coordinates": [-75.414115764, 40.220224564], "type": "Point"}, "id": "RaAaQ0v-yLdB43rcTRHVDEFJIlo=", "properties": {"@spider": "usps_collection_boxes", "addr:city": "CREAMERY", "addr:country": "US", "addr:full": "1117 BRIDGE RD", "addr:postcode": "19430", "addr:state": "PA", "brand": "USPS", "collection_times": "Mo-Fr 16:45; Sa 11:15", "name": "USPS COLLECTION BOX - PO LOBBY", "note": "ON 12/24 AND 12/31, THIS BOX MAY BE COLLECTED AS EARLY AS 12 NOON.", "ref": "1943000005"}, "type": "Feature"}
{"geometry": {"coordinates": [-75.534933339, 40.0783070444], "type": "Point"}, "id": "W8pLod2LwrqImO-rzcf0wohf2gg=", "properties": {"@spider": "usps_collection_boxes", "addr:city": "DEVAULT", "addr:country": "US", "addr:full": "4030 S WHITEHORSE RD", "addr:postcode": "19432", "addr:state": "PA", "brand": "USPS", "collection_times": "Mo-Fr 15:00; Sa 11:30", "name": "USPS COLLECTION BOX - BLUE BOX", "note": "ON 12/24 AND 12/31, THIS BOX MAY BE COLLECTED AS EARLY AS 12 NOON.", "ref": "1943200001"}, "type": "Feature"}
{"geometry": {"coordinates": [-75.534933339, 40.0783070444], "type": "Point"}, "id": "DixH_AOEDls404433TsFsriHGW8=", "properties": {"@spider": "usps_collection_boxes", "addr:city": "DEVAULT", "addr:country": "US", "addr:full": "4030 S WHITEHORSE RD", "addr:postcode": "19432", "addr:state": "PA", "brand": "USPS", "collection_times": "Mo-Fr 16:00; Sa 11:30", "name": "USPS COLLECTION BOX - PO LOBBY", "note": "ON 12/24 AND 12/31, THIS BOX MAY BE COLLECTED AS EARLY AS 12 NOON.", "ref": "1943200002"}, "type": "Feature"}
{"geometry": {"coordinates": [-75.534933339, 40.0783070444], "type": "Point"}, "id": "7KCQbmmgAHVc2DDZ6jbUeSqlKDY=", "properties": {"@spider": "usps_collection_boxes", "addr:city": "DEVAULT", "addr:country": "US", "addr:full": "4030 S WHITEHORSE RD", "addr:postcode": "19432", "addr:state": "PA", "brand": "USPS", "collection_times": "Mo-Fr 16:00; Sa 11:30", "name": "USPS COLLECTION BOX - PO LOBBY", "note": "ON 12/24 AND 12/31, THIS BOX MAY BE COLLECTED AS EARLY AS 12 NOON.", "ref": "1943200003"}, "type": "Feature"}
{"geometry": {"coordinates": [-75.534912446, 40.078310848], "type": "Point"}, "id": "FgNYhe_mX7p9pmffrRN1TSYUKtg=", "properties": {"@spider": "usps_collection_boxes", "addr:city": "DEVAULT", "addr:country": "US", "addr:full": "4030 S WHITEHORSE RD", "addr:postcode": "19432", "addr:state": "PA", "brand": "USPS", "collection_times": "Mo-Fr 16:00; Sa 11:30", "name": "USPS COLLECTION BOX - PO LOBBY", "note": "ON 12/24 AND 12/31, THIS BOX MAY BE COLLECTED AS EARLY AS 12 NOON.", "ref": "1943200005"}, "type": "Feature"}
{"geometry": {"coordinates": [-75.5393326667, 40.3109691962], "type": "Point"}, "id": "O6bIgUMaovdlsNT5y9hh8ffIAf8=", "properties": {"@spider": "usps_collection_boxes", "addr:city": "FREDERICK", "addr:country": "US", "addr:full": "2581 BIG RD", "addr:postcode": "19435", "addr:state": "PA", "brand": "USPS", "collection_times": "Mo-Fr 16:00; Sa 13:00", "name": "USPS COLLECTION BOX - BLUE BOX", "note": "ON 12/24 AND 12/31, THIS BOX MAY BE COLLECTED AS EARLY AS 12 NOON.", "ref": "1943500001"}, "type": "Feature"}
{"geometry": {"coordinates": [-75.539497, 40.311081], "type": "Point"}, "id": "QpPiS0YrEaUsngbE5lXjqpchEFY=", "properties": {"@spider": "usps_collection_boxes", "addr:city": "FREDERICK", "addr:country": "US", "addr:full": "2581 BIG RD", "addr:postcode": "19435", "addr:state": "PA", "brand": "USPS", "collection_times": "Mo-Fr 16:00; Sa 13:00", "name": "USPS COLLECTION BOX - PO LOBBY", "note": "ON 12/24 AND 12/31, THIS BOX MAY BE COLLECTED AS EARLY AS 12 NOON.", "ref": "1943500002"}, "type": "Feature"}
{"geometry": {"coordinates": [-75.539497, 40.311081], "type": "Point"}, "id": "4Eho2xOJ3cf3xdjmppU7Buda2nQ=", "properties": {"@spider": "usps_collection_boxes", "addr:city": "FREDERICK", "addr:country": "US", "addr:full": "2581 BIG RD", "addr:postcode": "19435", "addr:state": "PA", "brand": "USPS", "collection_times": "Mo-Fr 16:00; Sa 13:00", "name": "USPS COLLECTION BOX - PO LOBBY", "note": "ON 12/24 AND 12/31, THIS BOX MAY BE COLLECTED AS EARLY AS 12 NOON.", "ref": "1943500003"}, "type": "Feature"}
{"geometry": {"coordinates": [-75.539332667, 40.310969196], "type": "Point"}, "id": "E00dCnhcXCTfPmmrDtpnkZ9SLDI=", "properties": {"@spider": "usps_collection_boxes", "addr:city": "FREDERICK", "addr:country": "US", "addr:full": "2581 BIG RD", "addr:postcode": "19435", "addr:state": "PA", "brand": "USPS", "collection_times": "Mo-Fr 16:00; Sa 12:45", "name": "USPS COLLECTION BOX - PO LOBBY", "note": "ON 12/24 AND 12/31, THIS BOX MAY BE COLLECTED AS EARLY AS 12 NOON.", "ref": "1943500005"}, "type": "Feature"}
{"geometry": {"coordinates": [-75.25637, 40.184654], "type": "Point"}, "id": "CB3Ars8EzubcfVAUTlGBC979d7o=", "properties": {"@spider": "usps_collection_boxes", "addr:city": "GWYNEDD VALLEY", "addr:country": "US", "addr:full": "527 PLYMOUTH RD", "addr:postcode": "19437", "addr:state": "PA", "brand": "USPS", "collection_times": "Mo-Fr 17:00; Sa 11:30", "name": "USPS COLLECTION BOX - BLUE BOX", "note": "ON 12/24 AND 12/31, THIS BOX MAY BE COLLECTED AS EARLY AS 12 NOON.", "ref": "1943700001"}, "type": "Feature"}
{"geometry": {"coordinates": [-75.256398, 40.184576], "type": "Point"}, "id": "LS8LZoYtkVbnqfbxzv9LwgGrrZM=", "properties": {"@spider": "usps_collection_boxes", "addr:city": "GWYNEDD VALLEY", "addr:country": "US", "addr:full": "527 PLYMOUTH RD", "addr:postcode": "19437", "addr:state": "PA", "brand": "USPS", "collection_times": "Mo-Fr 17:00; Sa 11:30", "name": "USPS COLLECTION BOX - PO LOBBY", "note": "ON 12/24 AND 12/31, THIS BOX MAY BE COLLECTED AS EARLY AS 12 NOON.", "ref": "1943700002"}, "type": "Feature"}
{"geometry": {"coordinates": [-75.256216887, 40.184869221], "type": "Point"}, "id": "oERrFm7fHG8WdyqZNamBjttMBP8=", "properties": {"@spider": "usps_collection_boxes", "addr:city": "GWYNEDD VALLEY", "addr:country": "US", "addr:full": "527 PLYMOUTH RD", "addr:postcode": "19437", "addr:state": "PA", "brand": "USPS", "collection_times": "Mo-Fr 17:00; Sa 11:30", "name": "USPS COLLECTION BOX - PO LOBBY", "note": "ON 12/24 AND 12/31, THIS BOX MAY BE COLLECTED AS EARLY AS 12 NOON.", "ref": "1943700004"}, "type": "Feature"}
{"geometry": {"coordinates": [-75.396473, 40.278249], "type": "Point"}, "id": "j4syLkdlPlpZhYFkmVYXnN5bL4k=", "properties": {"@spider": "usps_collection_boxes", "addr:city": "HARLEYSVILLE", "addr:country": "US", "addr:full": "600 OAK DR", "addr:postcode": "19438", "addr:state": "PA", "brand": "USPS", "collection_times": "Mo-Fr 17:00; Sa 15:30", "name": "USPS COLLECTION BOX - BLUE BOX", "note": "ON 12/24 AND 12/31, THIS BOX MAY BE COLLECTED AS EARLY AS 12 NOON.", "ref": "1943800001"}, "type": "Feature"}
{"geometry": {"coordinates": [-75.3852252, 40.282134], "type": "Point"}, "id": "RVxHSvquSSZ8-UdIuHIJuUg2hDY=", "properties": {"@spider": "usps_collection_boxes", "addr:city": "HARLEYSVILLE", "addr:country": "US", "addr:full": "516 PARK AVE", "addr:postcode": "19438", "addr:state": "PA", "brand": "USPS", "collection_times": "Mo-Sa 09:00", "name": "USPS COLLECTION BOX - BLUE BOX", "ref": "1943800003"}, "type": "Feature"}
{"geometry": {"coordinates": [-75.3768095, 40.265908], "type": "Point"}, "id": "HiQZDBM1kM4aBZMzBrdfcJRGgw0=", "properties": {"@spider": "usps_collection_boxes", "addr:city": "HARLEYSVILLE", "addr:country": "US", "addr:full": "270 MAIN ST", "addr:postcode": "19438", "addr:state": "PA", "brand": "USPS", "collection_times": "Mo-Sa 09:00", "name": "USPS COLLECTION BOX - BLUE BOX", "ref": "1943800005"}, "type": "Feature"}
{"geometry": {"coordinates": [-75.39636, 40.278212], "type": "Point"}, "id": "RCm4sPoDCQ4K65GMjouzhR0OXik=", "properties": {"@spider": "usps_collection_boxes", "addr:city": "HARLEYSVILLE", "addr:country": "US", "addr:full": "600 OAK DR", "addr:postcode": "19438", "addr:state": "PA", "brand": "USPS", "collection_times": "Mo-Fr 17:00; Sa 15:30", "name": "USPS COLLECTION BOX - BLUE BOX", "note": "ON 12/24 AND 12/31, THIS BOX MAY BE COLLECTED AS EARLY AS 12 NOON.", "ref": "1943800007"}, "type": "Feature"}
{"geometry": {"coordinates": [-75.39636, 40.278212], "type": "Point"}, "id": "p9XVnhKxzyP7uWEmM2q56pT-60I=", "properties": {"@spider": "usps_collection_boxes", "addr:city": "HARLEYSVILLE", "addr:country": "US", "addr:full": "600 OAK DR", "addr:postcode": "19438", "addr:state": "PA", "brand": "USPS", "collection_times": "Mo-Fr 17:00; Sa 15:30", "name": "USPS COLLECTION BOX - PO LOBBY", "note": "ON 12/24 AND 12/31, THIS BOX MAY BE COLLECTED AS EARLY AS 12 NOON.", "ref": "1943800008"}, "type": "Feature"}
{"geometry": {"coordinates": [-75.3927918, 40.285765], "type": "Point"}, "id": "p19Vf227pHxS4Wgr30N_cBzQoVE=", "properties": {"@spider": "usps_collection_boxes", "addr:city": "HARLEYSVILLE", "addr:country": "US", "addr:full": "611 MAIN ST", "addr:postcode": "19438", "addr:state": "PA", "brand": "USPS", "collection_times": "Mo-Sa 09:00", "name": "USPS COLLECTION BOX - BLUE BOX", "ref": "1943800009"}, "type": "Feature"}
{"geometry": {"coordinates": [-75.39636, 40.278212], "type": "Point"}, "id": "dfzQ66Jy8tfDZwz6OqNA5u5bgfU=", "properties": {"@spider": "usps_collection_boxes", "addr:city": "HARLEYSVILLE", "addr:country": "US", "addr:full": "600 OAK DR", "addr:postcode": "19438", "addr:state": "PA", "brand": "USPS", "collection_times": "Mo-Fr 17:00; Sa 15:30", "name": "USPS COLLECTION BOX - PO LOBBY", "note": "ON 12/24 AND 12/31, THIS BOX MAY BE COLLECTED AS EARLY AS 12 NOON.", "ref": "1943800011"}, "type": "Feature"}
{"geometry": {"coordinates": [-75.397699694, 40.279018247], "type": "Point"}, "id": "2bVCzGn8W_8vDby85vuGdDy0Mqc=", "properties": {"@spider": "usps_collection_boxes", "addr:city": "HARLEYSVILLE", "addr:country": "US", "addr:full": "600 OAK DR", "addr:postcode": "19438", "addr:state": "PA", "brand": "USPS", "collection_times": "Mo-Fr 16:30; Sa 12:00", "name": "USPS COLLECTION BOX - PO LOBBY", "note": "ON 12/24 AND 12/31, THIS BOX MAY BE COLLECTED AS EARLY AS 12 NOON.", "ref": "1943800014"}, "type": "Feature"}
{"geometry": {"coordinates": [-75.3005689, 40.280353], "type": "Point"}, "id": "mBOGaX8G0s7HQpvPZtOZacr1L7s=", "properties": {"@spider": "usps_collection_boxes", "addr:city": "HATFIELD", "addr:country": "US", "addr:full": "45 N MAIN ST", "addr:postcode": "19440", "addr:state": "PA", "brand": "USPS", "collection_times": "Mo-Fr 17:00; Sa 15:00", "name": "USPS COLLECTION BOX - BLUE BOX", "note": "ON 12/24 AND 12/31, THIS BOX MAY BE COLLECTED AS EARLY AS 12 NOON.", "ref": "1944000026"}, "type": "Feature"}
{"geometry": {"coordinates": [-75.300427, 40.280183], "type": "Point"}, "id": "Rn73L8ruuyzN2ENMY-tclHcyyrM=", "properties": {"@spider": "usps_collection_boxes", "addr:city": "HATFIELD", "addr:country": "US", "addr:full": "45 N MAIN ST", "addr:postcode": "19440", "addr:state": "PA", "brand": "USPS", "collection_times": "Mo-Fr 16:30; Sa 12:30", "name": "USPS COLLECTION BOX - PO LOBBY", "note": "ON 12/24 AND 12/31, THIS BOX MAY BE COLLECTED AS EARLY AS 12 NOON.", "ref": "1944000027"}, "type": "Feature"}
{"geometry": {"coordinates": [-75.3004731, 40.280398], "type": "Point"}, "id": "FlAFZBNXBdfClN-L_7jQDIgK4SQ=", "properties": {"@spider": "usps_collection_boxes", "addr:city": "HATFIELD", "addr:country": "US", "addr:full": "45 N MAIN ST", "addr:postcode": "19440", "addr:state": "PA", "brand": "USPS", "collection_times": "Mo-Fr 16:30; Sa 12:30", "name": "USPS COLLECTION BOX - PO LOBBY", "note": "ON 12/24 AND 12/31, THIS BOX MAY BE COLLECTED AS EARLY AS 12 NOON.", "ref": "1944000028"}, "type": "Feature"}
{"geometry": {"coordinates": [-75.2912627, 40.272843], "type": "Point"}, "id": "ropODKqd2B17MSucvsKwBnO46JM=", "properties": {"@spider": "usps_collection_boxes", "addr:city": "HATFIELD", "addr:country": "US", "addr:full": "1700 HATFIELD VALLEY RD", "addr:postcode": "19440", "addr:state": "PA", "brand": "USPS", "collection_times": "Mo-Sa 09:00", "name": "USPS COLLECTION BOX - BLUE BOX", "ref": "1944000029"}, "type": "Feature"}
{"geometry": {"coordinates": [-75.2934015, 40.275837], "type": "Point"}, "id": "vCT1_zoX3TNl4_VY8OY37DYRDHM=", "properties": {"@spider": "usps_collection_boxes", "addr:city": "HATFIELD", "addr:country": "US", "addr:full": "467 S MAIN ST", "addr:postcode": "19440", "addr:state": "PA", "brand": "USPS", "collection_times": "Mo-Sa 09:00", "name": "USPS COLLECTION BOX - BLUE BOX", "ref": "1944000030"}, "type": "Feature"}
{"geometry": {"coordinates": [-75.2996342, 40.269912], "type": "Point"}, "id": "fMxQr5JefMdaSc5lDuteWLJXqUg=", "properties": {"@spider": "usps_collection_boxes", "addr:city": "HATFIELD", "addr:country": "US", "addr:full": "434 W VINE ST", "addr:postcode": "19440", "addr:state": "PA", "brand": "USPS", "collection_times": "Mo-Sa 09:00", "name": "USPS COLLECTION BOX - BLUE BOX", "ref": "1944000031"}, "type": "Feature"}
{"geometry": {"coordinates": [-75.3123229, 40.274619], "type": "Point"}, "id": "rd0ldMU_lvj16eAejHkHAMbzlTU=", "properties": {"@spider": "usps_collection_boxes", "addr:city": "HATFIELD", "addr:country": "US", "addr:full": "2700 ELROY RD", "addr:postcode": "19440", "addr:state": "PA", "brand": "USPS", "collection_times": "Mo-Sa 09:00", "name": "USPS COLLECTION BOX - BLUE BOX", "ref": "1944000032"}, "type": "Feature"}
{"geometry": {"coordinates": [-75.3034658, 40.27003], "type": "Point"}, "id": "2eXc24ZtbjPu4gBGN6QtjIFOqYU=", "properties": {"@spider": "usps_collection_boxes", "addr:city": "HATFIELD", "addr:country": "US", "addr:full": "2151 KOFFEL RD", "addr:postcode": "19440", "addr:state": "PA", "brand": "USPS", "collection_times": "Mo-Sa 11:00", "name": "USPS COLLECTION BOX - BLUE BOX", "ref": "1944000033"}, "type": "Feature"}
{"geometry": {"coordinates": [-75.293407, 40.281292], "type": "Point"}, "id": "cqoo0V6f9R0B7H5anCRns18lfOE=", "properties": {"@spider": "usps_collection_boxes", "addr:city": "HATFIELD", "addr:country": "US", "addr:full": "2058 MAPLE AVE", "addr:postcode": "19440", "addr:state": "PA", "brand": "USPS", "collection_times": "Mo-Sa 09:00", "name": "USPS COLLECTION BOX - BLUE BOX", "ref": "1944000034"}, "type": "Feature"}
{"geometry": {"coordinates": [-75.3127113, 40.277643], "type": "Point"}, "id": "iXPdgT6J9vLlNZymxdxN3HIwV2o=", "properties": {"@spider": "usps_collection_boxes", "addr:city": "HATFIELD", "addr:country": "US", "addr:full": "1361 FAIRGROUNDS RD", "addr:postcode": "19440", "addr:state": "PA", "brand": "USPS", "collection_times": "Mo-Sa 09:00", "name": "USPS COLLECTION BOX - BLUE BOX", "ref": "1944000035"}, "type": "Feature"}
{"geometry": {"coordinates": [-75.2884472, 40.286262], "type": "Point"}, "id": "iOWMXVKVwTs9G_Jzbn2Kc2b19cg=", "properties": {"@spider": "usps_collection_boxes", "addr:city": "HATFIELD", "addr:country": "US", "addr:full": "2058 MAPLE AVE", "addr:postcode": "19440", "addr:state": "PA", "brand": "USPS", "collection_times": "Mo-Sa 09:00", "name": "USPS COLLECTION BOX - BLUE BOX", "ref": "1944000036"}, "type": "Feature"}
{"geometry": {"coordinates": [-75.2636963, 40.290415], "type": "Point"}, "id": "E-tXMRr15woDdA9f-SU5EHP9k_Y=", "properties": {"@spider": "usps_collection_boxes", "addr:city": "HATFIELD", "addr:country": "US", "addr:full": "1515 BETHLEHEM PIKE", "addr:postcode": "19440", "addr:state": "PA", "brand": "USPS", "collection_times": "Mo-Sa 09:15", "name": "USPS COLLECTION BOX - BLUE BOX", "ref": "1944000037"}, "type": "Feature"}
{"geometry": {"coordinates": [-75.2844468, 40.290232], "type": "Point"}, "id": "LHULRYpEZEBf4iRGKwPSFbZPmWY=", "properties": {"@spider": "usps_collection_boxes", "addr:city": "HATFIELD", "addr:country": "US", "addr:full": "2287 N PENN RD", "addr:postcode": "19440", "addr:state": "PA", "brand": "USPS", "collection_times": "Mo-Sa 09:00", "name": "USPS COLLECTION BOX - BLUE BOX", "ref": "1944000038"}, "type": "Feature"}
{"geometry": {"coordinates": [-75.300634584, 40.280326804], "type": "Point"}, "id": "0n56jI0nMrz9UXGvrks3zqayug8=", "properties": {"@spider": "usps_collection_boxes", "addr:city": "HATFIELD", "addr:country": "US", "addr:full": "45 N MAIN ST", "addr:postcode": "19440", "addr:state": "PA", "brand": "USPS", "collection_times": "Mo-Fr 16:30; Sa 12:30", "name": "USPS COLLECTION BOX - PO LOBBY", "note": "ON 12/24 AND 12/31, THIS BOX MAY BE COLLECTED AS EARLY AS 12 NOON.", "ref": "1944000042"}, "type": "Feature"}
{"geometry": {"coordinates": [-75.517726, 40.131929], "type": "Point"}, "id": "9z1Wy--fJOUFX4D_MM8wZEtcvwY=", "properties": {"@spider": "usps_collection_boxes", "addr:city": "KIMBERTON", "addr:country": "US", "addr:full": "2102 KIMBERTON RD", "addr:postcode": "19442", "addr:state": "PA", "brand": "USPS", "collection_times": "Mo-Fr 16:45; Sa 11:30", "name": "USPS COLLECTION BOX - BLUE BOX", "note": "ON 12/24 AND 12/31, THIS BOX MAY BE COLLECTED AS EARLY AS 12 NOON.", "ref": "1944200001"}, "type": "Feature"}
{"geometry": {"coordinates": [-75.517726, 40.131929], "type": "Point"}, "id": "y7km0tj7-X-4632cdyi2uBJK-J8=", "properties": {"@spider": "usps_collection_boxes", "addr:city": "KIMBERTON", "addr:country": "US", "addr:full": "2102 KIMBERTON RD", "addr:postcode": "19442", "addr:state": "PA", "brand": "USPS", "collection_times": "Mo-Fr 16:45; Sa 11:30", "name": "USPS COLLECTION BOX - PO LOBBY", "note": "ON 12/24 AND 12/31, THIS BOX MAY BE COLLECTED AS EARLY AS 12 NOON.", "ref": "1944200002"}, "type": "Feature"}
{"geometry": {"coordinates": [-75.517726, 40.131929], "type": "Point"}, "id": "k-2DLYdX6nYFbCUNPWygvBzsOlw=", "properties": {"@spider": "usps_collection_boxes", "addr:city": "KIMBERTON", "addr:country": "US", "addr:full": "2102 KIMBERTON RD", "addr:postcode": "19442", "addr:state": "PA", "brand": "USPS", "collection_times": "Mo-Fr 16:45; Sa 11:30", "name": "USPS COLLECTION BOX - PO LOBBY", "note": "ON 12/24 AND 12/31, THIS BOX MAY BE COLLECTED AS EARLY AS 12 NOON.", "ref": "1944200003"}, "type": "Feature"}
{"geometry": {"coordinates": [-75.575316862, 40.130069611], "type": "Point"}, "id": "6XBXEs7Dt0MYlX4tHfa5x-fiiqI=", "properties": {"@spider": "usps_collection_boxes", "addr:city": "KIMBERTON", "addr:country": "US", "addr:full": "2102 KIMBERTON RD", "addr:postcode": "19442", "addr:state": "PA", "brand": "USPS", "collection_times": "Mo-Fr 16:30; Sa 11:30", "name": "USPS COLLECTION BOX - PO LOBBY", "note": "ON 12/24 AND 12/31, THIS BOX MAY BE COLLECTED AS EARLY AS 12 NOON.", "ref": "1944200005"}, "type": "Feature"}
{"geometry": {"coordinates": [-75.339627, 40.244543], "type": "Point"}, "id": "QDxhAgOvCfaeqPkx8iR2fRwZtP4=", "properties": {"@spider": "usps_collection_boxes", "addr:city": "KULPSVILLE", "addr:country": "US", "addr:full": "1586 SUMNEYTOWN PIKE", "addr:postcode": "19443", "addr:state": "PA", "brand": "USPS", "collection_times": "Mo-Fr 16:30; Sa 11:00", "name": "USPS COLLECTION BOX - BLUE BOX", "note": "ON 12/24 AND 12/31, THIS BOX MAY BE COLLECTED AS EARLY AS 12 NOON.", "ref": "1944300002"}, "type": "Feature"}
{"geometry": {"coordinates": [-75.339627, 40.244543], "type": "Point"}, "id": "3mVjIBSesuyHPYWi-TRa0-OPv3Y=", "properties": {"@spider": "usps_collection_boxes", "addr:city": "KULPSVILLE", "addr:country": "US", "addr:full": "1586 SUMNEYTOWN PIKE", "addr:postcode": "19443", "addr:state": "PA", "brand": "USPS", "collection_times": "Mo-Fr 16:30; Sa 11:00", "name": "USPS COLLECTION BOX - PO LOBBY", "note": "ON 12/24 AND 12/31, THIS BOX MAY BE COLLECTED AS EARLY AS 12 NOON.", "ref": "1944300003"}, "type": "Feature"}
{"geometry": {"coordinates": [-75.339627, 40.244543], "type": "Point"}, "id": "bi4tJRp2_wOfafkXrRpfzbMVKx0=", "properties": {"@spider": "usps_collection_boxes", "addr:city": "KULPSVILLE", "addr:country": "US", "addr:full": "1586 SUMNEYTOWN PIKE", "addr:postcode": "19443", "addr:state": "PA", "brand": "USPS", "collection_times": "Mo-Fr 16:30; Sa 11:00", "name": "USPS COLLECTION BOX - PO LOBBY", "note": "ON 12/24 AND 12/31, THIS BOX MAY BE COLLECTED AS EARLY AS 12 NOON.", "ref": "1944300004"}, "type": "Feature"}
{"geometry": {"coordinates": [-75.336656126, 40.242741897], "type": "Point"}, "id": "HY-74vV5NdFNldQlhdYbLAdWKq4=", "properties": {"@spider": "usps_collection_boxes", "addr:city": "KULPSVILLE", "addr:country": "US", "addr:full": "1586 SUMNEYTOWN PIKE", "addr:postcode": "19443", "addr:state": "PA", "brand": "USPS", "collection_times": "Mo-Fr 16:30; Sa 11:00", "name": "USPS COLLECTION BOX - PO LOBBY", "note": "ON 12/24 AND 12/31, THIS BOX MAY BE COLLECTED AS EARLY AS 12 NOON.", "ref": "1944300006"}, "type": "Feature"}
{"geometry": {"coordinates": [-75.2512617, 40.086232], "type": "Point"}, "id": "GhTcvf2zUVeQ_xFrQHQ43ArQDvU=", "properties": {"@spider": "usps_collection_boxes", "addr:city": "LAFAYETTE HILL", "addr:country": "US", "addr:full": "553 GERMANTOWN PIKE", "addr:postcode": "19444", "addr:state": "PA", "brand": "USPS", "collection_times": "Mo-Sa 12:00", "name": "USPS COLLECTION BOX - BLUE BOX", "ref": "1944400008"}, "type": "Feature"}
{"geometry": {"coordinates": [-75.2549318, 40.088188], "type": "Point"}, "id": "ne2PSOCTckzuInVVan_Fp66WTog=", "properties": {"@spider": "usps_collection_boxes", "addr:city": "LAFAYETTE HILL", "addr:country": "US", "addr:full": "600 GERMANTOWN PIKE", "addr:postcode": "19444", "addr:state": "PA", "brand": "USPS", "collection_times": "Mo-Sa 09:00", "name": "USPS COLLECTION BOX - BLUE BOX", "ref": "1944400010"}, "type": "Feature"}
{"geometry": {"coordinates": [-75.2613347, 40.092408], "type": "Point"}, "id": "uzFj86WoCqK52DcRSIgrK9YucC0=", "properties": {"@spider": "usps_collection_boxes", "addr:city": "LAFAYETTE HILL", "addr:country": "US", "addr:full": "412 GERMANTOWN PIKE", "addr:postcode": "19444", "addr:state": "PA", "brand": "USPS", "collection_times": "Mo-Sa 12:00", "name": "USPS COLLECTION BOX - BLUE BOX", "ref": "1944400012"}, "type": "Feature"}
{"geometry": {"coordinates": [-75.2592666, 40.091088], "type": "Point"}, "id": "GwB6Mj82-CynR0uvmPN6xQHh5UA=", "properties": {"@spider": "usps_collection_boxes", "addr:city": "LAFAYETTE HILL", "addr:country": "US", "addr:full": "446 GERMANTOWN PIKE", "addr:postcode": "19444", "addr:state": "PA", "brand": "USPS", "collection_times": "Mo-Fr 16:30; Sa 12:00", "name": "USPS COLLECTION BOX - BLUE BOX", "note": "ON 12/24 AND 12/31, THIS BOX MAY BE COLLECTED AS EARLY AS 12 NOON.", "ref": "1944400025"}, "type": "Feature"}
{"geometry": {"coordinates": [-75.259634, 40.091461], "type": "Point"}, "id": "2QIS5VAIILFLY8Dj4LnUjXLywb8=", "properties": {"@spider": "usps_collection_boxes", "addr:city": "LAFAYETTE HILL", "addr:country": "US", "addr:full": "446 GERMANTOWN PIKE", "addr:postcode": "19444", "addr:state": "PA", "brand": "USPS", "collection_times": "Mo-Fr 16:30; Sa 11:00", "name": "USPS COLLECTION BOX - PO LOBBY", "note": "ON 12/24 AND 12/31, THIS BOX MAY BE COLLECTED AS EARLY AS 12 NOON.", "ref": "1944400026"}, "type": "Feature"}
{"geometry": {"coordinates": [-75.259634, 40.091461], "type": "Point"}, "id": "XYqPPxG2lEFIAcxepcFT-EICwl0=", "properties": {"@spider": "usps_collection_boxes", "addr:city": "LAFAYETTE HILL", "addr:country": "US", "addr:full": "446 GERMANTOWN PIKE", "addr:postcode": "19444", "addr:state": "PA", "brand": "USPS", "collection_times": "Mo-Fr 16:30; Sa 11:00", "name": "USPS COLLECTION BOX - PO LOBBY", "note": "ON 12/24 AND 12/31, THIS BOX MAY BE COLLECTED AS EARLY AS 12 NOON.", "ref": "1944400030"}, "type": "Feature"}
{"geometry": {"coordinates": [-75.259655927, 40.091388409], "type": "Point"}, "id": "2Ttrcecp-sK5tXJYx5Ikz3T3f2Y=", "properties": {"@spider": "usps_collection_boxes", "addr:city": "LAFAYETTE HILL", "addr:country": "US", "addr:full": "446 GERMANTOWN PIKE", "addr:postcode": "19444", "addr:state": "PA", "brand": "USPS", "collection_times": "Mo-Fr 16:30; Sa 11:00", "name": "USPS COLLECTION BOX - PO LOBBY", "note": "ON 12/24 AND 12/31, THIS BOX MAY BE COLLECTED AS EARLY AS 12 NOON.", "ref": "1944400032"}, "type": "Feature"}
{"geometry": {"coordinates": [-75.2711849, 40.249787], "type": "Point"}, "id": "f21YSgCtfg0k8hmj_w3wBu3wcV4=", "properties": {"@spider": "usps_collection_boxes", "addr:city": "LANSDALE", "addr:country": "US", "addr:full": "100 CAMPUS DR", "addr:postcode": "19446", "addr:state": "PA", "brand": "USPS", "collection_times": "Mo-Sa 09:00", "name": "USPS COLLECTION BOX - BLUE BOX", "ref": "1944600008"}, "type": "Feature"}
{"geometry": {"coordinates": [-75.3043322, 40.240124], "type": "Point"}, "id": "q8SlZRUcftAEH6chPABYMOnf034=", "properties": {"@spider": "usps_collection_boxes", "addr:city": "LANSDALE", "addr:country": "US", "addr:full": "850 S VALLEY FORGE RD", "addr:postcode": "19446", "addr:state": "PA", "brand": "USPS", "collection_times": "Mo-Sa 09:00", "name": "USPS COLLECTION BOX - BLUE BOX", "ref": "1944600009"}, "type": "Feature"}
{"geometry": {"coordinates": [-75.2770911, 40.248447], "type": "Point"}, "id": "0j4B_CkMYn4kPL1xFXMD5fwNJBM=", "properties": {"@spider": "usps_collection_boxes", "addr:city": "LANSDALE", "addr:country": "US", "addr:full": "902 N BROAD ST", "addr:postcode": "19446", "addr:state": "PA", "brand": "USPS", "collection_times": "Mo-Sa 09:00", "name": "USPS COLLECTION BOX - BLUE BOX", "ref": "1944600015"}, "type": "Feature"}
{"geometry": {"coordinates": [-75.2863747, 40.25085], "type": "Point"}, "id": "8XG8DEDusxVEHs9bqyoo5rbPk5E=", "properties": {"@spider": "usps_collection_boxes", "addr:city": "LANSDALE", "addr:country": "US", "addr:full": "650 N CANNON AVE", "addr:postcode": "19446", "addr:state": "PA", "brand": "USPS", "collection_times": "Mo-Sa 09:00", "name": "USPS COLLECTION BOX - BLUE BOX", "ref": "1944600026"}, "type": "Feature"}
{"geometry": {"coordinates": [-75.2727573, 40.235612], "type": "Point"}, "id": "s4a3nGICRV0PBzuB2itHSSRGTP0=", "properties": {"@spider": "usps_collection_boxes", "addr:city": "LANSDALE", "addr:country": "US", "addr:full": "601 E MAIN ST", "addr:postcode": "19446", "addr:state": "PA", "brand": "USPS", "collection_times": "Mo-Sa 09:00", "name": "USPS COLLECTION BOX - BLUE BOX", "ref": "1944600027"}, "type": "Feature"}
{"geometry": {"coordinates": [-75.2714009, 40.233215], "type": "Point"}, "id": "XY3ntvK3uUSDxm8jBEskn-BuR1M=", "properties": {"@spider": "usps_collection_boxes", "addr:city": "LANSDALE", "addr:country": "US", "addr:full": "616 E MAIN ST", "addr:postcode": "19446", "addr:state": "PA", "brand": "USPS", "collection_times": "Mo-Sa 09:00", "name": "USPS COLLECTION BOX - BLUE BOX", "ref": "1944600030"}, "type": "Feature"}
{"geometry": {"coordinates": [-75.3068036, 40.224671], "type": "Point"}, "id": "W8b9-3MLBzTg-UZmf1JBVyOtNgE=", "properties": {"@spider": "usps_collection_boxes", "addr:city": "LANSDALE", "addr:country": "US", "addr:full": "1 MARLBROOK LN", "addr:postcode": "19446", "addr:state": "PA", "brand": "USPS", "collection_times": "Mo-Sa 09:00", "name": "USPS COLLECTION BOX - BLUE BOX", "ref": "1944600036"}, "type": "Feature"}
{"geometry": {"coordinates": [-75.3143618, 40.228553], "type": "Point"}, "id": "fghXXk5R_tOI7rQSkD5Ac79mfbM=", "properties": {"@spider": "usps_collection_boxes", "addr:city": "LANSDALE", "addr:country": "US", "addr:full": "1601 S VALLEY FORGE RD", "addr:postcode": "19446", "addr:state": "PA", "brand": "USPS", "collection_times": "Mo-Sa 09:00", "name": "USPS COLLECTION BOX - BLUE BOX", "ref": "1944600037"}, "type": "Feature"}
{"geometry": {"coordinates": [-75.3118695, 40.22996], "type": "Point"}, "id": "AKCPp5tbEaiUwYzarypvm-GZ_Ps=", "properties": {"@spider": "usps_collection_boxes", "addr:city": "LANSDALE", "addr:country": "US", "addr:full": "1551 S VALLEY FORGE RD", "addr:postcode": "19446", "addr:state": "PA", "brand": "USPS", "collection_times": "Mo-Sa 09:00", "name": "USPS COLLECTION BOX - BLUE BOX", "ref": "1944600038"}, "type": "Feature"}
{"geometry": {"coordinates": [-75.2626122, 40.261074], "type": "Point"}, "id": "Znl10GNbULk9owxiUPcUADfNQrg=", "properties": {"@spider": "usps_collection_boxes", "addr:city": "LANSDALE", "addr:country": "US", "addr:full": "2100 N BROAD ST", "addr:postcode": "19446", "addr:state": "PA", "brand": "USPS", "collection_times": "Mo-Sa 09:00", "name": "USPS COLLECTION BOX - BLUE BOX", "ref": "1944600041"}, "type": "Feature"}
{"geometry": {"coordinates": [-75.3153142, 40.262401], "type": "Point"}, "id": "2d0hcnPSUD5di4OTN42NFRbC0QI=", "properties": {"@spider": "usps_collection_boxes", "addr:city": "LANSDALE", "addr:country": "US", "addr:full": "2333 W MAIN ST", "addr:postcode": "19446", "addr:state": "PA", "brand": "USPS", "collection_times": "Mo-Sa 09:00", "name": "USPS COLLECTION BOX - BLUE BOX", "ref": "1944600046"}, "type": "Feature"}
{"geometry": {"coordinates": [-75.2861416, 40.240511], "type": "Point"}, "id": "er3gUSApvPmCobqp-lzuKXWBKr0=", "properties": {"@spider": "usps_collection_boxes", "addr:city": "LANSDALE", "addr:country": "US", "addr:full": "20 VINE ST", "addr:postcode": "19446", "addr:state": "PA", "brand": "USPS", "collection_times": "Mo-Fr 17:00; Sa 14:15", "name": "USPS COLLECTION BOX - BLUE BOX", "note": "ON 12/24 AND 12/31, THIS BOX MAY BE COLLECTED AS EARLY AS 12 NOON.", "ref": "1944600056"}, "type": "Feature"}
{"geometry": {"coordinates": [-75.324217632, 40.258921293], "type": "Point"}, "id": "__461ShRxTqaBCuDhEd0eLScuj0=", "properties": {"@spider": "usps_collection_boxes", "addr:city": "LANSDALE", "addr:country": "US", "addr:full": "1758 ALLENTOWN RD", "addr:postcode": "19446", "addr:state": "PA", "brand": "USPS", "collection_times": "Mo-Sa 09:00", "name": "USPS COLLECTION BOX - BLUE BOX", "ref": "1944600062"}, "type": "Feature"}
{"geometry": {"coordinates": [-75.261299, 40.259119], "type": "Point"}, "id": "E1wsYkwwgHayMZ4gpdhLkHyV3XI=", "properties": {"@spider": "usps_collection_boxes", "addr:city": "LANSDALE", "addr:country": "US", "addr:full": "2100 N LINE ST", "addr:postcode": "19446", "addr:state": "PA", "brand": "USPS", "collection_times": "Mo-Sa 09:00", "name": "USPS COLLECTION BOX - BLUE BOX", "ref": "1944600064"}, "type": "Feature"}
{"geometry": {"coordinates": [-75.28572, 40.240814], "type": "Point"}, "id": "pAqHVxPurCzXX6oCgfakW8elkbw=", "properties": {"@spider": "usps_collection_boxes", "addr:city": "LANSDALE", "addr:country": "US", "addr:full": "20 VINE ST", "addr:postcode": "19446", "addr:state": "PA", "brand": "USPS", "collection_times": "Mo-Fr 17:00; Sa 14:15", "name": "USPS COLLECTION BOX - PO LOBBY", "note": "ON 12/24 AND 12/31, THIS BOX MAY BE COLLECTED AS EARLY AS 12 NOON.", "ref": "1944600065"}, "type": "Feature"}
{"geometry": {"coordinates": [-75.286023751, 40.240932435], "type": "Point"}, "id": "YB6c-ylZqssq3QoJ_cdLyckNfIQ=", "properties": {"@spider": "usps_collection_boxes", "addr:city": "LANSDALE", "addr:country": "US", "addr:full": "20 VINE ST", "addr:postcode": "19446", "addr:state": "PA", "brand": "USPS", "collection_times": "Mo-Fr 18:00; Sa 16:00", "name": "USPS COLLECTION BOX - PO LOBBY", "note": "ON 12/24 AND 12/31, THIS BOX MAY BE COLLECTED AS EARLY AS 12 NOON.", "ref": "1944600074"}, "type": "Feature"}
{"geometry": {"coordinates": [-75.39788, 40.278548], "type": "Point"}, "id": "WDdFtO7_MoM5mM82QSLezPLBXWQ=", "properties": {"@spider": "usps_collection_boxes", "addr:city": "LEDERACH", "addr:country": "US", "addr:full": "690 HARLEYSVILLE PIKE", "addr:postcode": "19450", "addr:state": "PA", "brand": "USPS", "collection_times": "Mo-Fr 16:30; Sa 11:00", "name": "USPS COLLECTION BOX - BLUE BOX", "note": "ON 12/24 AND 12/31, THIS BOX MAY BE COLLECTED AS EARLY AS 12 NOON.", "ref": "1945000001"}, "type": "Feature"}
{"geometry": {"coordinates": [-75.39788, 40.278548], "type": "Point"}, "id": "YeCdJiEdhkDRUHLWdGI4nfSdQqE=", "properties": {"@spider": "usps_collection_boxes", "addr:city": "LEDERACH", "addr:country": "US", "addr:full": "690 HARLEYSVILLE PIKE", "addr:postcode": "19450", "addr:state": "PA", "brand": "USPS", "collection_times": "Mo-Fr 16:30; Sa 11:00", "name": "USPS COLLECTION BOX - PO LOBBY", "note": "ON 12/24 AND 12/31, THIS BOX MAY BE COLLECTED AS EARLY AS 12 NOON.", "ref": "1945000002"}, "type": "Feature"}
{"geometry": {"coordinates": [-75.39788, 40.278548], "type": "Point"}, "id": "amQRWDrBe3qHn1KNjPUGtHFMl9w=", "properties": {"@spider": "usps_collection_boxes", "addr:city": "LEDERACH", "addr:country": "US", "addr:full": "690 HARLEYSVILLE PIKE", "addr:postcode": "19450", "addr:state": "PA", "brand": "USPS", "collection_times": "Mo-Fr 16:30; Sa 11:00", "name": "USPS COLLECTION BOX - PO LOBBY", "note": "ON 12/24 AND 12/31, THIS BOX MAY BE COLLECTED AS EARLY AS 12 NOON.", "ref": "1945000003"}, "type": "Feature"}
{"geometry": {"coordinates": [-75.406277772, 40.262048364], "type": "Point"}, "id": "DHB_YhCFFUAU54y_YfOb73WBnjA=", "properties": {"@spider": "usps_collection_boxes", "addr:city": "LEDERACH", "addr:country": "US", "addr:full": "690 HARLEYSVILLE PIKE", "addr:postcode": "19450", "addr:state": "PA", "brand": "USPS", "collection_times": "Mo-Fr 16:30; Sa 11:00", "name": "USPS COLLECTION BOX - PO LOBBY", "note": "ON 12/24 AND 12/31, THIS BOX MAY BE COLLECTED AS EARLY AS 12 NOON.", "ref": "1945000005"}, "type": "Feature"}
{"geometry": {"coordinates": [-75.2781526, 40.210884], "type": "Point"}, "id": "NAdy1bBKhOLfhWrc4b6AyayInss=", "properties": {"@spider": "usps_collection_boxes", "addr:city": "NORTH WALES", "addr:country": "US", "addr:full": "107 S MAIN ST", "addr:postcode": "19454", "addr:state": "PA", "brand": "USPS", "collection_times": "Mo-Sa 09:00", "name": "USPS COLLECTION BOX - BLUE BOX", "ref": "1945400001"}, "type": "Feature"}
{"geometry": {"coordinates": [-75.2810694, 40.207512], "type": "Point"}, "id": "5cQWiAKLeUdi3y_9aZ1iE3IP4xw=", "properties": {"@spider": "usps_collection_boxes", "addr:city": "NORTH WALES", "addr:country": "US", "addr:full": "401 W WALNUT ST", "addr:postcode": "19454", "addr:state": "PA", "brand": "USPS", "collection_times": "Mo-Sa 09:00", "name": "USPS COLLECTION BOX - BLUE BOX", "ref": "1945400002"}, "type": "Feature"}
{"geometry": {"coordinates": [-75.2901161, 40.21941], "type": "Point"}, "id": "UTaBrWgecXtMOCAZFWlA5OIrCsE=", "properties": {"@spider": "usps_collection_boxes", "addr:city": "NORTH WALES", "addr:country": "US", "addr:full": "131 CHURCH RD", "addr:postcode": "19454", "addr:state": "PA", "brand": "USPS", "collection_times": "Mo-Sa 09:00", "name": "USPS COLLECTION BOX - BLUE BOX", "ref": "1945400004"}, "type": "Feature"}
{"geometry": {"coordinates": [-75.2277769, 40.232679], "type": "Point"}, "id": "RewcDrwVgQA6eR3uwfv6Y72osEY=", "properties": {"@spider": "usps_collection_boxes", "addr:city": "NORTH WALES", "addr:country": "US", "addr:full": "519 STUMP RD", "addr:postcode": "19454", "addr:state": "PA", "brand": "USPS", "collection_times": "Mo-Sa 09:00", "name": "USPS COLLECTION BOX - BLUE BOX", "ref": "1945400008"}, "type": "Feature"}
{"geometry": {"coordinates": [-75.2381735, 40.244449], "type": "Point"}, "id": "v2u3cqZEFxyCKkZtXvzTQjSNBfs=", "properties": {"@spider": "usps_collection_boxes", "addr:city": "NORTH WALES", "addr:country": "US", "addr:full": "411 FRANKLIN CT", "addr:postcode": "19454", "addr:state": "PA", "brand": "USPS", "collection_times": "Mo-Sa 09:00", "name": "USPS COLLECTION BOX - BLUE BOX", "ref": "1945400013"}, "type": "Feature"}
{"geometry": {"coordinates": [-75.2504924, 40.230545], "type": "Point"}, "id": "zocltzPpx08AMbpRRIAi9eraSwE=", "properties": {"@spider": "usps_collection_boxes", "addr:city": "NORTH WALES", "addr:country": "US", "addr:full": "1400 LIBERTY CT", "addr:postcode": "19454", "addr:state": "PA", "brand": "USPS", "collection_times": "Mo-Sa 09:00", "name": "USPS COLLECTION BOX - BLUE BOX", "ref": "1945400017"}, "type": "Feature"}
{"geometry": {"coordinates": [-75.278948, 40.214058], "type": "Point"}, "id": "2DI4f3u3s9DVUF3s7-nktJHpEl0=", "properties": {"@spider": "usps_collection_boxes", "addr:city": "NORTH WALES", "addr:country": "US", "addr:full": "450 BEAVER ST", "addr:postcode": "19454", "addr:state": "PA", "brand": "USPS", "collection_times": "Mo-Fr 17:00; Sa 14:30", "name": "USPS COLLECTION BOX - BLUE BOX", "note": "ON 12/24 AND 12/31, THIS BOX MAY BE COLLECTED AS EARLY AS 12 NOON.", "ref": "1945400018"}, "type": "Feature"}
{"geometry": {"coordinates": [-75.2315636, 40.208654], "type": "Point"}, "id": "YQFIR5J_KBsGqE29VrwmUZqlDAU=", "properties": {"@spider": "usps_collection_boxes", "addr:city": "NORTH WALES", "addr:country": "US", "addr:full": "10 HUNT CLUB TRL", "addr:postcode": "19454", "addr:state": "PA", "brand": "USPS", "collection_times": "Mo-Sa 09:00", "name": "USPS COLLECTION BOX - BLUE BOX", "ref": "1945400020"}, "type": "Feature"}
{"geometry": {"coordinates": [-75.278955, 40.214006], "type": "Point"}, "id": "dwfn74jglTU6KSkQP43fvzEP2x0=", "properties": {"@spider": "usps_collection_boxes", "addr:city": "NORTH WALES", "addr:country": "US", "addr:full": "450 BEAVER ST", "addr:postcode": "19454", "addr:state": "PA", "brand": "USPS", "collection_times": "Mo-Fr 17:00; Sa 14:30", "name": "USPS COLLECTION BOX - PO LOBBY", "note": "ON 12/24 AND 12/31, THIS BOX MAY BE COLLECTED AS EARLY AS 12 NOON.", "ref": "1945400025"}, "type": "Feature"}
{"geometry": {"coordinates": [-75.278955, 40.214006], "type": "Point"}, "id": "mFAI6F-iQt1wdt4B0W4SweRV86o=", "properties": {"@spider": "usps_collection_boxes", "addr:city": "NORTH WALES", "addr:country": "US", "addr:full": "450 BEAVER ST", "addr:postcode": "19454", "addr:state": "PA", "brand": "USPS", "collection_times": "Mo-Fr 17:00; Sa 14:30", "name": "USPS COLLECTION BOX - PO LOBBY", "note": "ON 12/24 AND 12/31, THIS BOX MAY BE COLLECTED AS EARLY AS 12 NOON.", "ref": "1945400026"}, "type": "Feature"}
{"geometry": {"coordinates": [-75.2203815, 40.236447], "type": "Point"}, "id": "DNCvzJVWQLOlkMyb4sjd0ePX7SU=", "properties": {"@spider": "usps_collection_boxes", "addr:city": "NORTH WALES", "addr:country": "US", "addr:full": "195 STUMP RD", "addr:postcode": "19454", "addr:state": "PA", "brand": "USPS", "collection_times": "Mo-Sa 09:00", "name": "USPS COLLECTION BOX - BLUE BOX", "ref": "1945400027"}, "type": "Feature"}
{"geometry": {"coordinates": [-75.2645791, 40.21643], "type": "Point"}, "id": "s1oHso69KU3aliOghoYsJDxmN8M=", "properties": {"@spider": "usps_collection_boxes", "addr:city": "NORTH WALES", "addr:country": "US", "addr:full": "359 FARM LN", "addr:postcode": "19454", "addr:state": "PA", "brand": "USPS", "collection_times": "Mo-Sa 09:00", "name": "USPS COLLECTION BOX - BLUE BOX", "ref": "1945400028"}, "type": "Feature"}
{"geometry": {"coordinates": [-75.279013361, 40.214101196], "type": "Point"}, "id": "hhH4fkbBE1l0uLQHTbAnT-jQZzk=", "properties": {"@spider": "usps_collection_boxes", "addr:city": "NORTH WALES", "addr:country": "US", "addr:full": "450 BEAVER ST", "addr:postcode": "19454", "addr:state": "PA", "brand": "USPS", "collection_times": "Mo-Fr 16:30; Sa 11:00", "name": "USPS COLLECTION BOX - PO LOBBY", "note": "ON 12/24 AND 12/31, THIS BOX MAY BE COLLECTED AS EARLY AS 12 NOON.", "ref": "1945400034"}, "type": "Feature"}
{"geometry": {"coordinates": [-75.450787, 40.133642], "type": "Point"}, "id": "EPpzA3GD3vLiYIK3w1jXsiDQwik=", "properties": {"@spider": "usps_collection_boxes", "addr:city": "OAKS", "addr:country": "US", "addr:full": "1310 EGYPT RD", "addr:postcode": "19456", "addr:state": "PA", "brand": "USPS", "collection_times": "Mo-Fr 16:30; Sa 11:30", "name": "USPS COLLECTION BOX - BLUE BOX", "note": "ON 12/24 AND 12/31, THIS BOX MAY BE COLLECTED AS EARLY AS 12 NOON.", "ref": "1945600001"}, "type": "Feature"}
{"geometry": {"coordinates": [-75.450787, 40.133642], "type": "Point"}, "id": "_fDf0M0bPCIxuoupKgRdBdk0qTY=", "properties": {"@spider": "usps_collection_boxes", "addr:city": "OAKS", "addr:country": "US", "addr:full": "1310 EGYPT RD", "addr:postcode": "19456", "addr:state": "PA", "brand": "USPS", "collection_times": "Mo-Fr 16:30; Sa 11:30", "name": "USPS COLLECTION BOX - PO LOBBY", "note": "ON 12/24 AND 12/31, THIS BOX MAY BE COLLECTED AS EARLY AS 12 NOON.", "ref": "1945600002"}, "type": "Feature"}
{"geometry": {"coordinates": [-75.450787, 40.133642], "type": "Point"}, "id": "Vq-DwdLeMH4Ar59eQsgxBy4eBIU=", "properties": {"@spider": "usps_collection_boxes", "addr:city": "OAKS", "addr:country": "US", "addr:full": "1310 EGYPT RD", "addr:postcode": "19456", "addr:state": "PA", "brand": "USPS", "collection_times": "Mo-Fr 16:30; Sa 11:30", "name": "USPS COLLECTION BOX - PO LOBBY", "note": "ON 12/24 AND 12/31, THIS BOX MAY BE COLLECTED AS EARLY AS 12 NOON.", "ref": "1945600003"}, "type": "Feature"}
{"geometry": {"coordinates": [-75.4553638966, 40.1329214094], "type": "Point"}, "id": "T_IoO4yZYPcM0S72SVCuBIxtgg4=", "properties": {"@spider": "usps_collection_boxes", "addr:city": "OAKS", "addr:country": "US", "addr:full": "1310 EGYPT RD", "addr:postcode": "19456", "addr:state": "PA", "brand": "USPS", "collection_times": "Mo-Fr 16:30; Sa 11:30", "name": "USPS COLLECTION BOX - PO LOBBY", "note": "ON 12/24 AND 12/31, THIS BOX MAY BE COLLECTED AS EARLY AS 12 NOON.", "ref": "1945600005"}, "type": "Feature"}
{"geometry": {"coordinates": [-75.593363, 40.20406], "type": "Point"}, "id": "HVVo0SflXLATZFRLHU8yaS8Ig_k=", "properties": {"@spider": "usps_collection_boxes", "addr:city": "PARKER FORD", "addr:country": "US", "addr:full": "1355 OLD SCHUYLKILL RD", "addr:postcode": "19457", "addr:state": "PA", "brand": "USPS", "collection_times": "Mo-Fr 16:30; Sa 11:30", "name": "USPS COLLECTION BOX - BLUE BOX", "note": "ON 12/24 AND 12/31, THIS BOX MAY BE COLLECTED AS EARLY AS 12 NOON.", "ref": "1945700001"}, "type": "Feature"}
{"geometry": {"coordinates": [-75.593447, 40.204067], "type": "Point"}, "id": "MugwToqmrvkQYbUER6Zt3XSDuTs=", "properties": {"@spider": "usps_collection_boxes", "addr:city": "PARKER FORD", "addr:country": "US", "addr:full": "1355 OLD SCHUYLKILL RD", "addr:postcode": "19457", "addr:state": "PA", "brand": "USPS", "collection_times": "Mo-Fr 16:30; Sa 11:30", "name": "USPS COLLECTION BOX - PO LOBBY", "note": "ON 12/24 AND 12/31, THIS BOX MAY BE COLLECTED AS EARLY AS 12 NOON.", "ref": "1945700002"}, "type": "Feature"}
{"geometry": {"coordinates": [-75.593363, 40.20406], "type": "Point"}, "id": "noOLZ2wHuEKUpKcpeniut6IoddA=", "properties": {"@spider": "usps_collection_boxes", "addr:city": "PARKER FORD", "addr:country": "US", "addr:full": "1355 OLD SCHUYKILL RD", "addr:postcode": "19457", "addr:state": "PA", "brand": "USPS", "collection_times": "Mo-Fr 16:30; Sa 11:30", "name": "USPS COLLECTION BOX - PO LOBBY", "note": "ON 12/24 AND 12/31, THIS BOX MAY BE COLLECTED AS EARLY AS 12 NOON.", "ref": "1945700003"}, "type": "Feature"}
{"geometry": {"coordinates": [-75.59288321, 40.203865465], "type": "Point"}, "id": "Jh0BUIMDpHcerXpmwrMeaWTuQ44=", "properties": {"@spider": "usps_collection_boxes", "addr:city": "PARKER FORD", "addr:country": "US", "addr:full": "1355 OLD SCHUYLKILL RD", "addr:postcode": "19457", "addr:state": "PA", "brand": "USPS", "collection_times": "Mo-Fr 16:30; Sa 11:30", "name": "USPS COLLECTION BOX - PO LOBBY", "note": "ON 12/24 AND 12/31, THIS BOX MAY BE COLLECTED AS EARLY AS 12 NOON.", "ref": "1945700005"}, "type": "Feature"}
{"geometry": {"coordinates": [-75.5150187, 40.124532], "type": "Point"}, "id": "doYT_sNRp0sWlQmcMBzFqz7FprI=", "properties": {"@spider": "usps_collection_boxes", "addr:city": "PHOENIXVILLE", "addr:country": "US", "addr:full": "159 NUTT RD", "addr:postcode": "19460", "addr:state": "PA", "brand": "USPS", "collection_times": "Mo-Sa 09:00", "name": "USPS COLLECTION BOX - BLUE BOX", "ref": "1946000024"}, "type": "Feature"}
{"geometry": {"coordinates": [-75.5151909, 40.124064], "type": "Point"}, "id": "0v90HlaA8kBq6fu-Ce-B7wx__24=", "properties": {"@spider": "usps_collection_boxes", "addr:city": "PHOENIXVILLE", "addr:country": "US", "addr:full": "140 NUTT RD", "addr:postcode": "19460", "addr:state": "PA", "brand": "USPS", "collection_times": "Mo-Sa 09:00", "name": "USPS COLLECTION BOX - BLUE BOX", "ref": "1946000025"}, "type": "Feature"}
{"geometry": {"coordinates": [-75.5143505, 40.128621], "type": "Point"}, "id": "zE8bepvDN01g0u7UYjNFRRzbC7Y=", "properties": {"@spider": "usps_collection_boxes", "addr:city": "PHOENIXVILLE", "addr:country": "US", "addr:full": "313 MAIN ST", "addr:postcode": "19460", "addr:state": "PA", "brand": "USPS", "collection_times": "Mo-Sa 09:00", "name": "USPS COLLECTION BOX - BLUE BOX", "ref": "1946000032"}, "type": "Feature"}
{"geometry": {"coordinates": [-75.5115103, 40.130895], "type": "Point"}, "id": "HSlmDOF-s1iXDAfmFZiTxwLzfek=", "properties": {"@spider": "usps_collection_boxes", "addr:city": "PHOENIXVILLE", "addr:country": "US", "addr:full": "200 STARR ST", "addr:postcode": "19460", "addr:state": "PA", "brand": "USPS", "collection_times": "Mo-Sa 09:00", "name": "USPS COLLECTION BOX - BLUE BOX", "ref": "1946000035"}, "type": "Feature"}
{"geometry": {"coordinates": [-75.5132294, 40.133147], "type": "Point"}, "id": "Z7tXaEx4_jqGoK0A5k9h_iEk8Ow=", "properties": {"@spider": "usps_collection_boxes", "addr:city": "PHOENIXVILLE", "addr:country": "US", "addr:full": "140 CHURCH ST", "addr:postcode": "19460", "addr:state": "PA", "brand": "USPS", "collection_times": "Mo-Sa 09:00", "name": "USPS COLLECTION BOX - BLUE BOX", "ref": "1946000038"}, "type": "Feature"}
{"geometry": {"coordinates": [-75.5182657, 40.132317], "type": "Point"}, "id": "3IMqBC3dQohi_0LrjJgoVMtl3Pw=", "properties": {"@spider": "usps_collection_boxes", "addr:city": "PHOENIXVILLE", "addr:country": "US", "addr:full": "116 GAY ST", "addr:postcode": "19460", "addr:state": "PA", "brand": "USPS", "collection_times": "Mo-Fr 17:00; Sa 16:00", "name": "USPS COLLECTION BOX - BLUE BOX", "note": "ON 12/24 AND 12/31, THIS BOX MAY BE COLLECTED AS EARLY AS 12 NOON.", "ref": "1946000049"}, "type": "Feature"}
{"geometry": {"coordinates": [-75.4861899, 40.116026], "type": "Point"}, "id": "1Ha6dw2JFKoh54YQ_i6PG--pgks=", "properties": {"@spider": "usps_collection_boxes", "addr:city": "PHOENIXVILLE", "addr:country": "US", "addr:full": "1260 VALLEY FORGE RD", "addr:postcode": "19460", "addr:state": "PA", "brand": "USPS", "collection_times": "Mo-Sa 09:00", "name": "USPS COLLECTION BOX - BLUE BOX", "ref": "1946000056"}, "type": "Feature"}
{"geometry": {"coordinates": [-75.5339279, 40.133797], "type": "Point"}, "id": "3Yw9UzeB7Y756RWvAJMRQnFAguE=", "properties": {"@spider": "usps_collection_boxes", "addr:city": "PHOENIXVILLE", "addr:country": "US", "addr:full": "700 NUTT RD", "addr:postcode": "19460", "addr:state": "PA", "brand": "USPS", "collection_times": "Mo-Sa 09:00", "name": "USPS COLLECTION BOX - BLUE BOX", "ref": "1946000059"}, "type": "Feature"}
{"geometry": {"coordinates": [-75.5479462, 40.130783], "type": "Point"}, "id": "PAcZrYu5ZTzd2-mRfQHxWikChkA=", "properties": {"@spider": "usps_collection_boxes", "addr:city": "PHOENIXVILLE", "addr:country": "US", "addr:full": "1038 RT 113", "addr:postcode": "19460", "addr:state": "PA", "brand": "USPS", "collection_times": "Mo-Sa 09:00", "name": "USPS COLLECTION BOX - BLUE BOX", "ref": "1946000064"}, "type": "Feature"}
{"geometry": {"coordinates": [-75.5383299, 40.122216], "type": "Point"}, "id": "he_svTTCJGEO7Ekq6_e080LQD1Q=", "properties": {"@spider": "usps_collection_boxes", "addr:city": "PHOENIXVILLE", "addr:country": "US", "addr:full": "1210 CHARLESTOWN RD", "addr:postcode": "19460", "addr:state": "PA", "brand": "USPS", "collection_times": "Mo-Sa 09:00", "name": "USPS COLLECTION BOX - BLUE BOX", "ref": "1946000065"}, "type": "Feature"}
{"geometry": {"coordinates": [-75.4871638, 40.115996], "type": "Point"}, "id": "DuRyF0Tt2-mRRQM_Ur-mGWp6qOo=", "properties": {"@spider": "usps_collection_boxes", "addr:city": "PHOENIXVILLE", "addr:country": "US", "addr:full": "1288 VALLEY FORGE RD", "addr:postcode": "19460", "addr:state": "PA", "brand": "USPS", "collection_times": "Mo-Sa 09:00", "name": "USPS COLLECTION BOX - BLUE BOX", "ref": "1946000066"}, "type": "Feature"}
{"geometry": {"coordinates": [-75.5163594, 40.133987], "type": "Point"}, "id": "-Ozx55OA4B-pqrgFHgUmfifSV54=", "properties": {"@spider": "usps_collection_boxes", "addr:city": "PHOENIXVILLE", "addr:country": "US", "addr:full": "197 BRIDGE ST", "addr:postcode": "19460", "addr:state": "PA", "brand": "USPS", "collection_times": "Mo-Sa 09:00", "name": "USPS COLLECTION BOX - BLUE BOX", "ref": "1946000068"}, "type": "Feature"}
{"geometry": {"coordinates": [-75.518123, 40.131923], "type": "Point"}, "id": "x_QDJ0KpkKxv2sPSIy9-OIer1iw=", "properties": {"@spider": "usps_collection_boxes", "addr:city": "PHOENIXVILLE", "addr:country": "US", "addr:full": "116 GAY ST", "addr:postcode": "19460", "addr:state": "PA", "brand": "USPS", "collection_times": "Mo-Fr 17:00; Sa 16:00", "name": "USPS COLLECTION BOX - PO LOBBY", "note": "ON 12/24 AND 12/31, THIS BOX MAY BE COLLECTED AS EARLY AS 12 NOON.", "ref": "1946000070"}, "type": "Feature"}
{"geometry": {"coordinates": [-75.518123, 40.131923], "type": "Point"}, "id": "4dQhjCijNo-UiYbzR0RTLS_88MQ=", "properties": {"@spider": "usps_collection_boxes", "addr:city": "PHOENIXVILLE", "addr:country": "US", "addr:full": "116 GAY ST", "addr:postcode": "19460", "addr:state": "PA", "brand": "USPS", "collection_times": "Mo-Fr 17:00; Sa 16:00", "name": "USPS COLLECTION BOX - PO LOBBY", "note": "ON 12/24 AND 12/31, THIS BOX MAY BE COLLECTED AS EARLY AS 12 NOON.", "ref": "1946000071"}, "type": "Feature"}
{"geometry": {"coordinates": [-75.5141257, 40.118648], "type": "Point"}, "id": "wg2KrycA8Q1-8O2AsK4lK9gHF9M=", "properties": {"@spider": "usps_collection_boxes", "addr:city": "PHOENIXVILLE", "addr:country": "US", "addr:full": "1201 DOROTHY AVE", "addr:postcode": "19460", "addr:state": "PA", "brand": "USPS", "collection_times": "Mo-Sa 09:00", "name": "USPS COLLECTION BOX - BLUE BOX", "ref": "1946000072"}, "type": "Feature"}
{"geometry": {"coordinates": [-75.518237559, 40.132338779], "type": "Point"}, "id": "fG_gy7eqk2TbAG9leD5zC0G1X5Y=", "properties": {"@spider": "usps_collection_boxes", "addr:city": "PHOENIXVILLE", "addr:country": "US", "addr:full": "116 GAY ST", "addr:postcode": "19460", "addr:state": "PA", "brand": "USPS", "collection_times": "Mo-Fr 16:30; Sa 12:00", "name": "USPS COLLECTION BOX - PO LOBBY", "note": "ON 12/24 AND 12/31, THIS BOX MAY BE COLLECTED AS EARLY AS 12 NOON.", "ref": "1946000078"}, "type": "Feature"}
{"geometry": {"coordinates": [-75.2844009, 40.118156], "type": "Point"}, "id": "YA4w3dWj-RG55n3WIPum51pIQP0=", "properties": {"@spider": "usps_collection_boxes", "addr:city": "PLYMOUTH MTNG", "addr:country": "US", "addr:full": "600 W GERMANTOWN PIKE", "addr:postcode": "19462", "addr:state": "PA", "brand": "USPS", "collection_times": "Mo-Fr 16:45; Sa 10:00", "name": "USPS COLLECTION BOX - BLUE BOX", "note": "ON 12/24 AND 12/31, THIS BOX MAY BE COLLECTED AS EARLY AS 12 NOON.", "ref": "1946200001"}, "type": "Feature"}
{"geometry": {"coordinates": [-75.2851499, 40.119403], "type": "Point"}, "id": "slhGR1A084zEzviUNkCFh0EOsSA=", "properties": {"@spider": "usps_collection_boxes", "addr:city": "PLYMOUTH MTNG", "addr:country": "US", "addr:full": "620 W GERMANTOWN PIKE", "addr:postcode": "19462", "addr:state": "PA", "brand": "USPS", "collection_times": "Mo-Fr 16:45; Sa 10:00", "name": "USPS COLLECTION BOX - BLUE BOX", "note": "ON 12/24 AND 12/31, THIS BOX MAY BE COLLECTED AS EARLY AS 12 NOON.", "ref": "1946200004"}, "type": "Feature"}
{"geometry": {"coordinates": [-75.289237, 40.122306], "type": "Point"}, "id": "rWmqyz6jRix9p3oi6UCqJRsg28A=", "properties": {"@spider": "usps_collection_boxes", "addr:city": "PLYMOUTH MTNG", "addr:country": "US", "addr:full": "777 W GERMANTOWN PIKE", "addr:postcode": "19462", "addr:state": "PA", "brand": "USPS", "collection_times": "Mo-Sa 09:00", "name": "USPS COLLECTION BOX - BLUE BOX", "ref": "1946200009"}, "type": "Feature"}
{"geometry": {"coordinates": [-75.2864674, 40.116455], "type": "Point"}, "id": "0t9vwPbIvO_ShXsaj2IBtIA57fg=", "properties": {"@spider": "usps_collection_boxes", "addr:city": "PLYMOUTH MTNG", "addr:country": "US", "addr:full": "531 W GERMANTOWN PIKE", "addr:postcode": "19462", "addr:state": "PA", "brand": "USPS", "collection_times": "Mo-Sa 09:00", "name": "USPS COLLECTION BOX - BLUE BOX", "ref": "1946200011"}, "type": "Feature"}
{"geometry": {"coordinates": [-75.2864423, 40.114676], "type": "Point"}, "id": "Mf6HO4OUZBlD9DZqCMU_rGYAU8A=", "properties": {"@spider": "usps_collection_boxes", "addr:city": "PLYMOUTH MTNG", "addr:country": "US", "addr:full": "481 W GERMANTOWN PIKE", "addr:postcode": "19462", "addr:state": "PA", "brand": "USPS", "collection_times": "Mo-Sa 09:00", "name": "USPS COLLECTION BOX - BLUE BOX", "ref": "1946200012"}, "type": "Feature"}
{"geometry": {"coordinates": [-75.2901553, 40.11948], "type": "Point"}, "id": "JkjMH6lNndDASsUn9RE5mRfWg80=", "properties": {"@spider": "usps_collection_boxes", "addr:city": "PLYMOUTH MTNG", "addr:country": "US", "addr:full": "632 WAYLAND RD", "addr:postcode": "19462", "addr:state": "PA", "brand": "USPS", "collection_times": "Mo-Sa 09:00", "name": "USPS COLLECTION BOX - BLUE BOX", "ref": "1946200013"}, "type": "Feature"}
{"geometry": {"coordinates": [-75.2951678, 40.112377], "type": "Point"}, "id": "xE0mkFCkbiJfWmij6xyl_RWeKro=", "properties": {"@spider": "usps_collection_boxes", "addr:city": "PLYMOUTH MTNG", "addr:country": "US", "addr:full": "521 PLYMOUTH RD", "addr:postcode": "19462", "addr:state": "PA", "brand": "USPS", "collection_times": "Mo-Fr 16:30; Sa 10:30", "name": "USPS COLLECTION BOX - BLUE BOX", "note": "ON 12/24 AND 12/31, THIS BOX MAY BE COLLECTED AS EARLY AS 12 NOON.", "ref": "1946200014"}, "type": "Feature"}
{"geometry": {"coordinates": [-75.2959814, 40.110371], "type": "Point"}, "id": "RXTLn_dSdqMUgft-ya2d69RP4c4=", "properties": {"@spider": "usps_collection_boxes", "addr:city": "PLYMOUTH MTNG", "addr:country": "US", "addr:full": "527 PLYMOUTH RD", "addr:postcode": "19462", "addr:state": "PA", "brand": "USPS", "collection_times": "Mo-Sa 09:00", "name": "USPS COLLECTION BOX - BLUE BOX", "ref": "1946200016"}, "type": "Feature"}
{"geometry": {"coordinates": [-75.276258, 40.101337], "type": "Point"}, "id": "9LZ9w5OMRmOqCHVKGRHpOxnXFjA=", "properties": {"@spider": "usps_collection_boxes", "addr:city": "PLYMOUTH MTNG", "addr:country": "US", "addr:full": "26 E GERMANTOWN PIKE", "addr:postcode": "19462", "addr:state": "PA", "brand": "USPS", "collection_times": "Mo-Fr 16:30; Sa 15:00", "name": "USPS COLLECTION BOX - BLUE BOX", "note": "ON 12/24 AND 12/31, THIS BOX MAY BE COLLECTED AS EARLY AS 12 NOON.", "ref": "1946200039"}, "type": "Feature"}
{"geometry": {"coordinates": [-75.2813761, 40.119033], "type": "Point"}, "id": "1awwpJ_Ae8j5lmnveSPmGstYdcE=", "properties": {"@spider": "usps_collection_boxes", "addr:city": "PLYMOUTH MTNG", "addr:country": "US", "addr:full": "2250 HICKORY RD", "addr:postcode": "19462", "addr:state": "PA", "brand": "USPS", "collection_times": "Mo-Fr 16:45; Sa 10:00", "name": "USPS COLLECTION BOX - BLUE BOX", "note": "ON 12/24 AND 12/31, THIS BOX MAY BE COLLECTED AS EARLY AS 12 NOON.", "ref": "1946200041"}, "type": "Feature"}
{"geometry": {"coordinates": [-75.276286, 40.101509], "type": "Point"}, "id": "ZOH5adc3djdPRc6Vpixx6sg0-FI=", "properties": {"@spider": "usps_collection_boxes", "addr:city": "PLYMOUTH MTNG", "addr:country": "US", "addr:full": "26 E GERMANTOWN PIKE", "addr:postcode": "19462", "addr:state": "PA", "brand": "USPS", "collection_times": "Mo-Fr 16:30; Sa 11:00", "name": "USPS COLLECTION BOX - PO LOBBY", "note": "ON 12/24 AND 12/31, THIS BOX MAY BE COLLECTED AS EARLY AS 12 NOON.", "ref": "1946200052"}, "type": "Feature"}
{"geometry": {"coordinates": [-75.3041466, 40.130446], "type": "Point"}, "id": "9B46HIfPKyXivq8uCJ5tInvTOCQ=", "properties": {"@spider": "usps_collection_boxes", "addr:city": "PLYMOUTH MTNG", "addr:country": "US", "addr:full": "101 VALLEY RD", "addr:postcode": "19462", "addr:state": "PA", "brand": "USPS", "collection_times": "Mo-Sa 09:00", "name": "USPS COLLECTION BOX - BLUE BOX", "ref": "1946200055"}, "type": "Feature"}
{"geometry": {"coordinates": [-75.3012483, 40.133247], "type": "Point"}, "id": "fPnV5URGf_Q_6qyjApb5oYKGH40=", "properties": {"@spider": "usps_collection_boxes", "addr:city": "PLYMOUTH MTNG", "addr:country": "US", "addr:full": "2901 SHEFFIELD DR", "addr:postcode": "19462", "addr:state": "PA", "brand": "USPS", "collection_times": "Mo-Sa 09:00", "name": "USPS COLLECTION BOX - BLUE BOX", "ref": "1946200056"}, "type": "Feature"}
{"geometry": {"coordinates": [-75.3200927, 40.11047], "type": "Point"}, "id": "JXNNCCOoW34KDak-Ehp5tXuBG4g=", "properties": {"@spider": "usps_collection_boxes", "addr:city": "PLYMOUTH MTNG", "addr:country": "US", "addr:full": "466 FAIRFIELD RD", "addr:postcode": "19462", "addr:state": "PA", "brand": "USPS", "collection_times": "Mo-Sa 09:00", "name": "USPS COLLECTION BOX - BLUE BOX", "ref": "1946200058"}, "type": "Feature"}
{"geometry": {"coordinates": [-75.2980625, 40.129148], "type": "Point"}, "id": "WoHgN8-EEbseX84E1QXw9GSefw8=", "properties": {"@spider": "usps_collection_boxes", "addr:city": "PLYMOUTH MTNG", "addr:country": "US", "addr:full": "1000 GERMANTOWN PIKE", "addr:postcode": "19462", "addr:state": "PA", "brand": "USPS", "collection_times": "Mo-Fr 16:30; Sa 09:00", "name": "USPS COLLECTION BOX - BLUE BOX", "note": "ON 12/24 AND 12/31, THIS BOX MAY BE COLLECTED AS EARLY AS 12 NOON.", "ref": "1946200059"}, "type": "Feature"}
{"geometry": {"coordinates": [-75.3021852, 40.134518], "type": "Point"}, "id": "T4lB46xbG6NfkIpqOaTPl7l5hDg=", "properties": {"@spider": "usps_collection_boxes", "addr:city": "PLYMOUTH MTNG", "addr:country": "US", "addr:full": "1250 GERMANTOWN PIKE", "addr:postcode": "19462", "addr:state": "PA", "brand": "USPS", "collection_times": "Mo-Sa 09:00", "name": "USPS COLLECTION BOX - BLUE BOX", "ref": "1946200063"}, "type": "Feature"}
{"geometry": {"coordinates": [-75.2840074, 40.102753], "type": "Point"}, "id": "uF0uDrgSPbwoaY0sNEPtbrJfY5Y=", "properties": {"@spider": "usps_collection_boxes", "addr:city": "PLYMOUTH MTNG", "addr:country": "US", "addr:full": "101 KINGS RD", "addr:postcode": "19462", "addr:state": "PA", "brand": "USPS", "collection_times": "Mo-Sa 09:00", "name": "USPS COLLECTION BOX - BLUE BOX", "ref": "1946200065"}, "type": "Feature"}
{"geometry": {"coordinates": [-75.2890479, 40.112025], "type": "Point"}, "id": "qs1SbxbzsBabKHVXGjGHFEDTZpE=", "properties": {"@spider": "usps_collection_boxes", "addr:city": "PLYMOUTH MTNG", "addr:country": "US", "addr:full": "401 PLYMOUTH RD", "addr:postcode": "19462", "addr:state": "PA", "brand": "USPS", "collection_times": "Mo-Sa 09:00", "name": "USPS COLLECTION BOX - BLUE BOX", "ref": "1946200066"}, "type": "Feature"}
{"geometry": {"coordinates": [-75.2862587, 40.121354], "type": "Point"}, "id": "zzFWAHIAuWsCo1hrx6uA0xb6JCI=", "properties": {"@spider": "usps_collection_boxes", "addr:city": "PLYMOUTH MTNG", "addr:country": "US", "addr:full": "666 W GERMANTOWN PIKE", "addr:postcode": "19462", "addr:state": "PA", "brand": "USPS", "collection_times": "Mo-Sa 09:00", "name": "USPS COLLECTION BOX - BLUE BOX", "ref": "1946200068"}, "type": "Feature"}
{"geometry": {"coordinates": [-75.2856652, 40.12161], "type": "Point"}, "id": "1lePfZDqZMUB82b0JPYiShgoqsw=", "properties": {"@spider": "usps_collection_boxes", "addr:city": "PLYMOUTH MTNG", "addr:country": "US", "addr:full": "666 W GERMANTOWN PIKE", "addr:postcode": "19462", "addr:state": "PA", "brand": "USPS", "collection_times": "Mo-Sa 09:00", "name": "USPS COLLECTION BOX - BLUE BOX", "ref": "1946200069"}, "type": "Feature"}
{"geometry": {"coordinates": [-75.276177211, 40.101409416], "type": "Point"}, "id": "xDSffx7EwayFN6Fkx21bPEMSZx8=", "properties": {"@spider": "usps_collection_boxes", "addr:city": "PLYMOUTH MTNG", "addr:country": "US", "addr:full": "26 E GERMANTOWN PIKE", "addr:postcode": "19462", "addr:state": "PA", "brand": "USPS", "collection_times": "Mo-Fr 16:30; Sa 11:00", "name": "USPS COLLECTION BOX - PO LOBBY", "note": "ON 12/24 AND 12/31, THIS BOX MAY BE COLLECTED AS EARLY AS 12 NOON.", "ref": "1946200076"}, "type": "Feature"}
{"geometry": {"coordinates": [-75.6348938, 40.243835], "type": "Point"}, "id": "LfNEoVru6Zp_-yLQV1d2GavGg-w=", "properties": {"@spider": "usps_collection_boxes", "addr:city": "POTTSTOWN", "addr:country": "US", "addr:full": "771 E HIGH ST", "addr:postcode": "19464", "addr:state": "PA", "brand": "USPS", "collection_times": "Mo-Fr 15:45; Sa 14:45", "name": "USPS COLLECTION BOX - BLUE BOX", "note": "ON 12/24 AND 12/31, THIS BOX MAY BE COLLECTED AS EARLY AS 12 NOON.", "ref": "1946400001"}, "type": "Feature"}
{"geometry": {"coordinates": [-75.6477009, 40.245446], "type": "Point"}, "id": "zmsoxppK0l_CMJ3SJ-8Rol-1dow=", "properties": {"@spider": "usps_collection_boxes", "addr:city": "POTTSTOWN", "addr:country": "US", "addr:full": "269 E HIGH ST", "addr:postcode": "19464", "addr:state": "PA", "brand": "USPS", "collection_times": "Mo-Sa 09:00", "name": "USPS COLLECTION BOX - BLUE BOX", "ref": "1946400004"}, "type": "Feature"}
{"geometry": {"coordinates": [-75.6505824, 40.245801], "type": "Point"}, "id": "-8DSrbsRD-rExtwURs9fP-zL_Sg=", "properties": {"@spider": "usps_collection_boxes", "addr:city": "POTTSTOWN", "addr:country": "US", "addr:full": "155 E HIGH ST", "addr:postcode": "19464", "addr:state": "PA", "brand": "USPS", "collection_times": "Mo-Sa 09:00", "name": "USPS COLLECTION BOX - BLUE BOX", "ref": "1946400009"}, "type": "Feature"}
{"geometry": {"coordinates": [-75.6483003, 40.24653], "type": "Point"}, "id": "e0fGEpB9rBv5IwQE6iXpxMM4BGw=", "properties": {"@spider": "usps_collection_boxes", "addr:city": "POTTSTOWN", "addr:country": "US", "addr:full": "248 KING ST", "addr:postcode": "19464", "addr:state": "PA", "brand": "USPS", "collection_times": "Mo-Fr 15:00; Sa 10:00", "name": "USPS COLLECTION BOX - BLUE BOX", "note": "ON 12/24 AND 12/31, THIS BOX MAY BE COLLECTED AS EARLY AS 12 NOON.", "ref": "1946400030"}, "type": "Feature"}
{"geometry": {"coordinates": [-75.6441617, 40.245813], "type": "Point"}, "id": "XozyXsa21yIAEUG9UW-DP5ESu08=", "properties": {"@spider": "usps_collection_boxes", "addr:city": "POTTSTOWN", "addr:country": "US", "addr:full": "25 N FRANKLIN ST", "addr:postcode": "19464", "addr:state": "PA", "brand": "USPS", "collection_times": "Mo-Sa 09:00", "name": "USPS COLLECTION BOX - BLUE BOX", "ref": "1946400036"}, "type": "Feature"}
{"geometry": {"coordinates": [-75.6338708, 40.259054], "type": "Point"}, "id": "wygjGXp6mHkSsRC8h4EaiafcaMA=", "properties": {"@spider": "usps_collection_boxes", "addr:city": "POTTSTOWN", "addr:country": "US", "addr:full": "300 PROSPECT ST", "addr:postcode": "19464", "addr:state": "PA", "brand": "USPS", "collection_times": "Mo-Sa 09:00", "name": "USPS COLLECTION BOX - BLUE BOX", "ref": "1946400048"}, "type": "Feature"}
{"geometry": {"coordinates": [-75.627619, 40.265487], "type": "Point"}, "id": "KFpZ1iESqVA3OhChpVIUric_se4=", "properties": {"@spider": "usps_collection_boxes", "addr:city": "POTTSTOWN", "addr:country": "US", "addr:full": "1300 N CHARLOTTE ST", "addr:postcode": "19464", "addr:state": "PA", "brand": "USPS", "collection_times": "Mo-Sa 09:00", "name": "USPS COLLECTION BOX - BLUE BOX", "ref": "1946400053"}, "type": "Feature"}
{"geometry": {"coordinates": [-75.6474433302, 40.2521528335], "type": "Point"}, "id": "0mWr_fX33yUkePGRy0QlmHvR7vk=", "properties": {"@spider": "usps_collection_boxes", "addr:city": "POTTSTOWN", "addr:country": "US", "addr:full": "331 N HANOVER ST", "addr:postcode": "19464", "addr:state": "PA", "brand": "USPS", "collection_times": "Mo-Sa 09:00", "name": "USPS COLLECTION BOX - BLUE BOX", "ref": "1946400058"}, "type": "Feature"}
{"geometry": {"coordinates": [-75.635828, 40.243858], "type": "Point"}, "id": "8ViPGspenGqqANa5tUlaTKdiI6k=", "properties": {"@spider": "usps_collection_boxes", "addr:city": "POTTSTOWN", "addr:country": "US", "addr:full": "717 E HIGH ST", "addr:postcode": "19464", "addr:state": "PA", "brand": "USPS", "collection_times": "Mo-Fr 15:00; Sa 10:00", "name": "USPS COLLECTION BOX - BLUE BOX", "note": "ON 12/24 AND 12/31, THIS BOX MAY BE COLLECTED AS EARLY AS 12 NOON.", "ref": "1946400062"}, "type": "Feature"}
{"geometry": {"coordinates": [-75.6228769, 40.243558], "type": "Point"}, "id": "wfSIEDf6_UsspGDRSnzLN5imfCU=", "properties": {"@spider": "usps_collection_boxes", "addr:city": "POTTSTOWN", "addr:country": "US", "addr:full": "1200 E HIGH ST", "addr:postcode": "19464", "addr:state": "PA", "brand": "USPS", "collection_times": "Mo-Sa 09:00", "name": "USPS COLLECTION BOX - BLUE BOX", "ref": "1946400066"}, "type": "Feature"}
{"geometry": {"coordinates": [-75.6413189, 40.255474], "type": "Point"}, "id": "hlYRAfp38YnyyARZHckEtg4cATA=", "properties": {"@spider": "usps_collection_boxes", "addr:city": "POTTSTOWN", "addr:country": "US", "addr:full": "616 N CHARLOTTE ST", "addr:postcode": "19464", "addr:state": "PA", "brand": "USPS", "collection_times": "Mo-Sa 09:00", "name": "USPS COLLECTION BOX - BLUE BOX", "ref": "1946400073"}, "type": "Feature"}
{"geometry": {"coordinates": [-75.632148, 40.253815], "type": "Point"}, "id": "9V11RtbMOH1mYKDyfs6B2loSQN0=", "properties": {"@spider": "usps_collection_boxes", "addr:city": "POTTSTOWN", "addr:country": "US", "addr:full": "724 N ADAMS ST", "addr:postcode": "19464", "addr:state": "PA", "brand": "USPS", "collection_times": "Mo-Sa 09:00", "name": "USPS COLLECTION BOX - BLUE BOX", "ref": "1946400081"}, "type": "Feature"}
{"geometry": {"coordinates": [-75.649338, 40.262675], "type": "Point"}, "id": "rGJQg_pcb_ohDpYfa0lwmm2pFQw=", "properties": {"@spider": "usps_collection_boxes", "addr:city": "POTTSTOWN", "addr:country": "US", "addr:full": "799 STATE ST", "addr:postcode": "19464", "addr:state": "PA", "brand": "USPS", "collection_times": "Mo-Sa 09:00", "name": "USPS COLLECTION BOX - BLUE BOX", "ref": "1946400086"}, "type": "Feature"}
{"geometry": {"coordinates": [-75.666405, 40.264158], "type": "Point"}, "id": "mBjoUMQBkWj_Y3LuZ7eWXirTjuw=", "properties": {"@spider": "usps_collection_boxes", "addr:city": "POTTSTOWN", "addr:country": "US", "addr:full": "398 CIRCLE OF PROGRESS DR", "addr:postcode": "19464", "addr:state": "PA", "brand": "USPS", "collection_times": "Mo-Sa 09:00", "name": "USPS COLLECTION BOX - BLUE BOX", "ref": "1946400087"}, "type": "Feature"}
{"geometry": {"coordinates": [-75.681883095, 40.24864012], "type": "Point"}, "id": "8jJid1UCGAlXDX0nwQaMcY0TT0o=", "properties": {"@spider": "usps_collection_boxes", "addr:city": "POTTSTOWN", "addr:country": "US", "addr:full": "60 LEMON ST", "addr:postcode": "19464", "addr:state": "PA", "brand": "USPS", "collection_times": "Mo-Fr 16:00; Sa 10:00", "name": "USPS COLLECTION BOX - BLUE BOX", "note": "ON 12/24 AND 12/31, THIS BOX MAY BE COLLECTED AS EARLY AS 12 NOON.", "ref": "1946400091"}, "type": "Feature"}
{"geometry": {"coordinates": [-75.5905049, 40.244485], "type": "Point"}, "id": "8z34nNwE4zT5Q0ah0MwFIHBj2Ho=", "properties": {"@spider": "usps_collection_boxes", "addr:city": "POTTSTOWN", "addr:country": "US", "addr:full": "2500 E HIGH ST", "addr:postcode": "19464", "addr:state": "PA", "brand": "USPS", "collection_times": "Mo-Sa 09:00", "name": "USPS COLLECTION BOX - BLUE BOX", "ref": "1946400092"}, "type": "Feature"}
{"geometry": {"coordinates": [-75.6167364569, 40.2585052076], "type": "Point"}, "id": "AJwIZUTAcAG8pAAEMOaLL8ykwnY=", "properties": {"@spider": "usps_collection_boxes", "addr:city": "POTTSTOWN", "addr:country": "US", "addr:full": "1 READING STATION PLZ", "addr:postcode": "19464", "addr:state": "PA", "brand": "USPS", "collection_times": "Mo-Sa 09:00", "name": "USPS COLLECTION BOX - BLUE BOX", "ref": "1946400094"}, "type": "Feature"}
{"geometry": {"coordinates": [-75.6349087, 40.243848], "type": "Point"}, "id": "6bgTU_UNECpNdr53GT0pdhr1osI=", "properties": {"@spider": "usps_collection_boxes", "addr:city": "POTTSTOWN", "addr:country": "US", "addr:full": "771 E HIGH ST", "addr:postcode": "19464", "addr:state": "PA", "brand": "USPS", "collection_times": "Mo-Fr 15:45; Sa 14:45", "name": "USPS COLLECTION BOX - BLUE BOX", "note": "ON 12/24 AND 12/31, THIS BOX MAY BE COLLECTED AS EARLY AS 12 NOON.", "ref": "1946400099"}, "type": "Feature"}
{"geometry": {"coordinates": [-75.6489024, 40.245423], "type": "Point"}, "id": "l2o3xwrwLlsAucOr3LNnmovCIVU=", "properties": {"@spider": "usps_collection_boxes", "addr:city": "POTTSTOWN", "addr:country": "US", "addr:full": "238 E HIGH ST", "addr:postcode": "19464", "addr:state": "PA", "brand": "USPS", "collection_times": "Mo-Sa 09:00", "name": "USPS COLLECTION BOX - BLUE BOX", "ref": "1946400106"}, "type": "Feature"}
{"geometry": {"coordinates": [-75.634951, 40.243644], "type": "Point"}, "id": "RzkCkDvbVAPQH92tYfVTH9-JF0M=", "properties": {"@spider": "usps_collection_boxes", "addr:city": "POTTSTOWN", "addr:country": "US", "addr:full": "770 E HIGH ST", "addr:postcode": "19464", "addr:state": "PA", "brand": "USPS", "collection_times": "Mo-Fr 17:00; Sa 14:45", "name": "USPS COLLECTION BOX - BLUE BOX", "note": "ON 12/24 AND 12/31, THIS BOX MAY BE COLLECTED AS EARLY AS 12 NOON.", "ref": "1946400109"}, "type": "Feature"}
{"geometry": {"coordinates": [-75.6171831, 40.243191], "type": "Point"}, "id": "W8i7xLHfnZtVkFHg3lAX7e9umUg=", "properties": {"@spider": "usps_collection_boxes", "addr:city": "POTTSTOWN", "addr:country": "US", "addr:full": "14 MOSER RD", "addr:postcode": "19464", "addr:state": "PA", "brand": "USPS", "collection_times": "Mo-Sa 09:00", "name": "USPS COLLECTION BOX - BLUE BOX", "ref": "1946400120"}, "type": "Feature"}
{"geometry": {"coordinates": [-75.662241, 40.25343], "type": "Point"}, "id": "plgY30tWwxIzdiFMkQiJX20fePc=", "properties": {"@spider": "usps_collection_boxes", "addr:city": "POTTSTOWN", "addr:country": "US", "addr:full": "223 SHOEMAKER RD", "addr:postcode": "19464", "addr:state": "PA", "brand": "USPS", "collection_times": "Mo-Sa 09:00", "name": "USPS COLLECTION BOX - BLUE BOX", "ref": "1946400121"}, "type": "Feature"}
{"geometry": {"coordinates": [-75.6528991, 40.246095], "type": "Point"}, "id": "lbQ-mC7-AheQAc8gCGqFrMnhMD4=", "properties": {"@spider": "usps_collection_boxes", "addr:city": "POTTSTOWN", "addr:country": "US", "addr:full": "71 E HIGH ST", "addr:postcode": "19464", "addr:state": "PA", "brand": "USPS", "collection_times": "Mo-Sa 09:00", "name": "USPS COLLECTION BOX - BLUE BOX", "ref": "1946400125"}, "type": "Feature"}
{"geometry": {"coordinates": [-75.6145261, 40.238759], "type": "Point"}, "id": "jXQw7_dQl9K8AlXcW9A6-kIQRDg=", "properties": {"@spider": "usps_collection_boxes", "addr:city": "POTTSTOWN", "addr:country": "US", "addr:full": "1550 MEDICAL DR", "addr:postcode": "19464", "addr:state": "PA", "brand": "USPS", "collection_times": "Mo-Sa 09:00", "name": "USPS COLLECTION BOX - BLUE BOX", "ref": "1946400127"}, "type": "Feature"}
{"geometry": {"coordinates": [-75.6352619, 40.243465], "type": "Point"}, "id": "M4WmhXCbRktK90rf49Ui66bCWeM=", "properties": {"@spider": "usps_collection_boxes", "addr:city": "POTTSTOWN", "addr:country": "US", "addr:full": "770 E HIGH ST", "addr:postcode": "19464", "addr:state": "PA", "brand": "USPS", "collection_times": "Mo-Fr 17:00; Sa 15:00", "name": "USPS COLLECTION BOX - PO LOBBY", "note": "ON 12/24 AND 12/31, THIS BOX MAY BE COLLECTED AS EARLY AS 12 NOON.", "ref": "1946400130"}, "type": "Feature"}
{"geometry": {"coordinates": [-75.681883095, 40.24864012], "type": "Point"}, "id": "duy0Ix3ssPAGbRfuORReWg2MMHI=", "properties": {"@spider": "usps_collection_boxes", "addr:city": "POTTSTOWN", "addr:country": "US", "addr:full": "60 LEMON ST", "addr:postcode": "19464", "addr:state": "PA", "brand": "USPS", "collection_times": "Mo-Fr 16:00; Sa 10:30", "name": "USPS COLLECTION BOX - PO LOBBY", "note": "ON 12/24 AND 12/31, THIS BOX MAY BE COLLECTED AS EARLY AS 12 NOON.", "ref": "1946400132"}, "type": "Feature"}
{"geometry": {"coordinates": [-75.634942, 40.243637], "type": "Point"}, "id": "M8p8d1l7upwXy7yzKTQzyE7J1F0=", "properties": {"@spider": "usps_collection_boxes", "addr:city": "POTTSTOWN", "addr:country": "US", "addr:full": "770 E HIGH ST", "addr:postcode": "19464", "addr:state": "PA", "brand": "USPS", "collection_times": "Mo-Fr 17:00; Sa 14:45", "name": "USPS COLLECTION BOX - BLUE BOX", "note": "ON 12/24 AND 12/31, THIS BOX MAY BE COLLECTED AS EARLY AS 12 NOON.", "ref": "1946400136"}, "type": "Feature"}
{"geometry": {"coordinates": [-75.6145221, 40.238752], "type": "Point"}, "id": "jiu83SO2V3eScY0TTQDqBvwQoSk=", "properties": {"@spider": "usps_collection_boxes", "addr:city": "POTTSTOWN", "addr:country": "US", "addr:full": "1550 MEDICAL DR", "addr:postcode": "19464", "addr:state": "PA", "brand": "USPS", "collection_times": "Mo-Sa 09:00", "name": "USPS COLLECTION BOX - BLUE BOX", "ref": "1946400137"}, "type": "Feature"}
{"geometry": {"coordinates": [-75.6350646124, 40.2437116122], "type": "Point"}, "id": "IvhJft06XfJQUK9phZWejbsl6uQ=", "properties": {"@spider": "usps_collection_boxes", "addr:city": "POTTSTOWN", "addr:country": "US", "addr:full": "770 E HIGH ST", "addr:postcode": "19464", "addr:state": "PA", "brand": "USPS", "collection_times": "Mo-Fr 17:30; Sa 15:00", "name": "USPS COLLECTION BOX - PO LOBBY", "note": "ON 12/24 AND 12/31, THIS BOX MAY BE COLLECTED AS EARLY AS 12 NOON.", "ref": "1946400145"}, "type": "Feature"}
{"geometry": {"coordinates": [-75.681883095, 40.24864012], "type": "Point"}, "id": "SSBvJexEQrKqC3-Cv016F1GKfD8=", "properties": {"@spider": "usps_collection_boxes", "addr:city": "POTTSTOWN", "addr:country": "US", "addr:full": "60 LEMON ST", "addr:postcode": "19464", "addr:state": "PA", "brand": "USPS", "collection_times": "Mo-Fr 16:00; Sa 10:30", "name": "USPS COLLECTION BOX - PO LOBBY", "note": "ON 12/24 AND 12/31, THIS BOX MAY BE COLLECTED AS EARLY AS 12 NOON.", "ref": "1946400146"}, "type": "Feature"}
{"geometry": {"coordinates": [-75.599528963, 40.24454675], "type": "Point"}, "id": "5wNT_FWjDQOkD3hcXeovJowGUPo=", "properties": {"@spider": "usps_collection_boxes", "addr:city": "POTTSTOWN", "addr:country": "US", "addr:full": "2190 E HIGH ST", "addr:postcode": "19464", "addr:state": "PA", "brand": "USPS", "collection_times": "Mo-Fr 16:00; Sa 13:00", "name": "USPS COLLECTION BOX - PO LOBBY", "note": "ON 12/24 AND 12/31, THIS BOX MAY BE COLLECTED AS EARLY AS 12 NOON.", "ref": "1946400148"}, "type": "Feature"}
{"geometry": {"coordinates": [-75.6589783, 40.209565], "type": "Point"}, "id": "Ssjs0PsC3Gi_eFYDVJy6h5Hgr9g=", "properties": {"@spider": "usps_collection_boxes", "addr:city": "POTTSTOWN", "addr:country": "US", "addr:full": "1408 S HANOVER ST", "addr:postcode": "19465", "addr:state": "PA", "brand": "USPS", "collection_times": "Mo-Sa 09:00", "name": "USPS COLLECTION BOX - BLUE BOX", "ref": "1946500000"}, "type": "Feature"}
{"geometry": {"coordinates": [-75.663659, 40.233375], "type": "Point"}, "id": "s8k3ur0mlhY_cFbiNgQpstcf5pI=", "properties": {"@spider": "usps_collection_boxes", "addr:city": "POTTSTOWN", "addr:country": "US", "addr:full": "351 W SCHUYLKILL RD", "addr:postcode": "19465", "addr:state": "PA", "brand": "USPS", "collection_times": "Mo-Sa 09:00", "name": "USPS COLLECTION BOX - BLUE BOX", "ref": "1946500002"}, "type": "Feature"}
{"geometry": {"coordinates": [-75.663659, 40.233375], "type": "Point"}, "id": "qaIOhdVFokB3iPrZY48Y0wagTnA=", "properties": {"@spider": "usps_collection_boxes", "addr:city": "POTTSTOWN", "addr:country": "US", "addr:full": "351 W SCHUYLKILL RD", "addr:postcode": "19465", "addr:state": "PA", "brand": "USPS", "collection_times": "Mo-Sa 09:00", "name": "USPS COLLECTION BOX - BLUE BOX", "ref": "1946500006"}, "type": "Feature"}
{"geometry": {"coordinates": [-75.5385424, 40.187346], "type": "Point"}, "id": "IV9GKO_xeXSgJ4mXgsmZ7VkkTY0=", "properties": {"@spider": "usps_collection_boxes", "addr:city": "ROYERSFORD", "addr:country": "US", "addr:full": "500 CHURCH ST", "addr:postcode": "19468", "addr:state": "PA", "brand": "USPS", "collection_times": "Mo-Sa 09:00", "name": "USPS COLLECTION BOX - BLUE BOX", "ref": "1946800002"}, "type": "Feature"}
{"geometry": {"coordinates": [-75.5404859, 40.184032], "type": "Point"}, "id": "3M3Mm7ZgTO5JlbQDBLBvmWisjfo=", "properties": {"@spider": "usps_collection_boxes", "addr:city": "ROYERSFORD", "addr:country": "US", "addr:full": "300 MAIN ST", "addr:postcode": "19468", "addr:state": "PA", "brand": "USPS", "collection_times": "Mo-Sa 09:00", "name": "USPS COLLECTION BOX - BLUE BOX", "ref": "1946800004"}, "type": "Feature"}
{"geometry": {"coordinates": [-75.5257183, 40.199592], "type": "Point"}, "id": "zgjhCaYZJmsusS8D6zjiKiz7l6o=", "properties": {"@spider": "usps_collection_boxes", "addr:city": "ROYERSFORD", "addr:country": "US", "addr:full": "70 BUCKWALTER RD", "addr:postcode": "19468", "addr:state": "PA", "brand": "USPS", "collection_times": "Mo-Sa 09:00", "name": "USPS COLLECTION BOX - BLUE BOX", "ref": "1946800014"}, "type": "Feature"}
{"geometry": {"coordinates": [-75.5246241, 40.179009], "type": "Point"}, "id": "3xqVHKXunLQAKLJtozKOsayPmqo=", "properties": {"@spider": "usps_collection_boxes", "addr:city": "ROYERSFORD", "addr:country": "US", "addr:full": "62 ROBODA BLVD", "addr:postcode": "19468", "addr:state": "PA", "brand": "USPS", "collection_times": "Mo-Sa 09:00", "name": "USPS COLLECTION BOX - BLUE BOX", "ref": "1946800021"}, "type": "Feature"}
{"geometry": {"coordinates": [-75.5236219, 40.183154], "type": "Point"}, "id": "fZYp5rqqNUVug5mih-TSlQTY2lE=", "properties": {"@spider": "usps_collection_boxes", "addr:city": "ROYERSFORD", "addr:country": "US", "addr:full": "217 PROVIDENCE FORGE RD", "addr:postcode": "19468", "addr:state": "PA", "brand": "USPS", "collection_times": "Mo-Sa 09:00", "name": "USPS COLLECTION BOX - BLUE BOX", "ref": "1946800022"}, "type": "Feature"}
{"geometry": {"coordinates": [-75.5364074, 40.198975], "type": "Point"}, "id": "YXaW_587yBVeov_IZger8bMjPDQ=", "properties": {"@spider": "usps_collection_boxes", "addr:city": "ROYERSFORD", "addr:country": "US", "addr:full": "354 N LEWIS RD", "addr:postcode": "19468", "addr:state": "PA", "brand": "USPS", "collection_times": "Mo-Fr 17:00; Sa 13:00", "name": "USPS COLLECTION BOX - BLUE BOX", "note": "ON 12/24 AND 12/31, THIS BOX MAY BE COLLECTED AS EARLY AS 12 NOON.", "ref": "1946800023"}, "type": "Feature"}
{"geometry": {"coordinates": [-75.5364549, 40.198973], "type": "Point"}, "id": "1waeI_bJGGtqQXZ-NoZP1yN31Pc=", "properties": {"@spider": "usps_collection_boxes", "addr:city": "ROYERSFORD", "addr:country": "US", "addr:full": "354 N LEWIS RD", "addr:postcode": "19468", "addr:state": "PA", "brand": "USPS", "collection_times": "Mo-Fr 17:00; Sa 13:00", "name": "USPS COLLECTION BOX - BLUE BOX", "note": "ON 12/24 AND 12/31, THIS BOX MAY BE COLLECTED AS EARLY AS 12 NOON.", "ref": "1946800024"}, "type": "Feature"}
{"geometry": {"coordinates": [-75.5364866, 40.198986], "type": "Point"}, "id": "WF74LmWaxJEl3YueYanIXKYzzXE=", "properties": {"@spider": "usps_collection_boxes", "addr:city": "ROYERSFORD", "addr:country": "US", "addr:full": "354 N LEWIS RD", "addr:postcode": "19468", "addr:state": "PA", "brand": "USPS", "collection_times": "Mo-Fr 17:00; Sa 13:00", "name": "USPS COLLECTION BOX - BLUE BOX", "note": "ON 12/24 AND 12/31, THIS BOX MAY BE COLLECTED AS EARLY AS 12 NOON.", "ref": "1946800025"}, "type": "Feature"}
{"geometry": {"coordinates": [-75.5199606, 40.229764], "type": "Point"}, "id": "yWC-XIu-fd7HYKasaKpBr0i5Akk=", "properties": {"@spider": "usps_collection_boxes", "addr:city": "ROYERSFORD", "addr:country": "US", "addr:full": "327 W RIDGE PIKE", "addr:postcode": "19468", "addr:state": "PA", "brand": "USPS", "collection_times": "Mo-Fr 16:30; Sa 11:00", "name": "USPS COLLECTION BOX - BLUE BOX", "note": "ON 12/24 AND 12/31, THIS BOX MAY BE COLLECTED AS EARLY AS 12 NOON.", "ref": "1946800026"}, "type": "Feature"}
{"geometry": {"coordinates": [-75.5359472, 40.198994], "type": "Point"}, "id": "nO4D07GTPhFYXN_lkojlaQVRqSA=", "properties": {"@spider": "usps_collection_boxes", "addr:city": "ROYERSFORD", "addr:country": "US", "addr:full": "354 N LEWIS RD", "addr:postcode": "19468", "addr:state": "PA", "brand": "USPS", "collection_times": "Mo-Fr 17:00; Sa 13:00", "name": "USPS COLLECTION BOX - PO LOBBY", "note": "ON 12/24 AND 12/31, THIS BOX MAY BE COLLECTED AS EARLY AS 12 NOON.", "ref": "1946800028"}, "type": "Feature"}
{"geometry": {"coordinates": [-75.5360349, 40.199033], "type": "Point"}, "id": "58iPsuNK3_yQkq6jlJ4kwA5pYZ0=", "properties": {"@spider": "usps_collection_boxes", "addr:city": "ROYERSFORD", "addr:country": "US", "addr:full": "354 N LEWIS RD", "addr:postcode": "19468", "addr:state": "PA", "brand": "USPS", "collection_times": "Mo-Fr 17:00; Sa 13:00", "name": "USPS COLLECTION BOX - PO LOBBY", "note": "ON 12/24 AND 12/31, THIS BOX MAY BE COLLECTED AS EARLY AS 12 NOON.", "ref": "1946800031"}, "type": "Feature"}
{"geometry": {"coordinates": [-75.536643181, 40.198540472], "type": "Point"}, "id": "k6C-QC5F29nNx_v9nT7b4oQyyDQ=", "properties": {"@spider": "usps_collection_boxes", "addr:city": "ROYERSFORD", "addr:country": "US", "addr:full": "354 N LEWIS RD", "addr:postcode": "19468", "addr:state": "PA", "brand": "USPS", "collection_times": "Mo-Fr 17:00; Sa 12:00", "name": "USPS COLLECTION BOX - PO LOBBY", "note": "ON 12/24 AND 12/31, THIS BOX MAY BE COLLECTED AS EARLY AS 12 NOON.", "ref": "1946800038"}, "type": "Feature"}
{"geometry": {"coordinates": [-75.519955094, 40.229810681], "type": "Point"}, "id": "9EsuiV-TTSRmIgfv8Ft23frB0H4=", "properties": {"@spider": "usps_collection_boxes", "addr:city": "ROYERSFORD", "addr:country": "US", "addr:full": "327 W RIDGE PIKE STE A", "addr:postcode": "19468", "addr:state": "PA", "brand": "USPS", "collection_times": "Mo-Fr 16:30", "name": "USPS COLLECTION BOX - PO LOBBY", "note": "ON 12/24 AND 12/31, THIS BOX MAY BE COLLECTED AS EARLY AS 12 NOON.", "ref": "1946800039"}, "type": "Feature"}
{"geometry": {"coordinates": [-75.7294288617, 40.1758723513], "type": "Point"}, "id": "yVrJ2YnhTjGg4KCa7NWUiNoEdNY=", "properties": {"@spider": "usps_collection_boxes", "addr:city": "SAINT PETERS", "addr:country": "US", "addr:full": "3300 SAINT PETERS RD", "addr:postcode": "19470", "addr:state": "PA", "brand": "USPS", "collection_times": "Mo-Fr 16:45; Sa 12:00", "name": "USPS COLLECTION BOX - BLUE BOX", "note": "ON 12/24 AND 12/31, THIS BOX MAY BE COLLECTED AS EARLY AS 12 NOON.", "ref": "1947000001"}, "type": "Feature"}
{"geometry": {"coordinates": [-75.7294288617, 40.1758723513], "type": "Point"}, "id": "3E7Q0u29mqwOA6Gu7dxa_PbX2eU=", "properties": {"@spider": "usps_collection_boxes", "addr:city": "SAINT PETERS", "addr:country": "US", "addr:full": "3300 SAINT PETERS RD", "addr:postcode": "19470", "addr:state": "PA", "brand": "USPS", "collection_times": "Mo-Fr 16:45; Sa 12:00", "name": "USPS COLLECTION BOX - PO LOBBY", "note": "ON 12/24 AND 12/31, THIS BOX MAY BE COLLECTED AS EARLY AS 12 NOON.", "ref": "1947000002"}, "type": "Feature"}
{"geometry": {"coordinates": [-75.7294288617, 40.1758723513], "type": "Point"}, "id": "FRkHk7UcQ2WcuC_cw62k_0-pl0g=", "properties": {"@spider": "usps_collection_boxes", "addr:city": "SAINT PETERS", "addr:country": "US", "addr:full": "3300 SAINT PETERS RD", "addr:postcode": "19470", "addr:state": "PA", "brand": "USPS", "collection_times": "Mo-Fr 16:45; Sa 12:00", "name": "USPS COLLECTION BOX - PO LOBBY", "note": "ON 12/24 AND 12/31, THIS BOX MAY BE COLLECTED AS EARLY AS 12 NOON.", "ref": "1947000003"}, "type": "Feature"}
{"geometry": {"coordinates": [-75.731297222, 40.179960757], "type": "Point"}, "id": "GTnBiFBDN9fm7e0e9xE3qG79jto=", "properties": {"@spider": "usps_collection_boxes", "addr:city": "SAINT PETERS", "addr:country": "US", "addr:full": "3300 SAINT PETERS RD", "addr:postcode": "19470", "addr:state": "PA", "brand": "USPS", "collection_times": "Mo-Fr 16:45; Sa 12:00", "name": "USPS COLLECTION BOX - PO LOBBY", "note": "ON 12/24 AND 12/31, THIS BOX MAY BE COLLECTED AS EARLY AS 12 NOON.", "ref": "1947000005"}, "type": "Feature"}
{"geometry": {"coordinates": [-75.5728967145, 40.3416467049], "type": "Point"}, "id": "8SfMkCK7PNuxHKC4ZoHI49odN9M=", "properties": {"@spider": "usps_collection_boxes", "addr:city": "SASSAMANSVILLE", "addr:country": "US", "addr:full": "140 HOFFMANSVILLE RD", "addr:postcode": "19472", "addr:state": "PA", "brand": "USPS", "collection_times": "Mo-Fr 16:30; Sa 11:30", "name": "USPS COLLECTION BOX - BLUE BOX", "note": "ON 12/24 AND 12/31, THIS BOX MAY BE COLLECTED AS EARLY AS 12 NOON.", "ref": "1947200001"}, "type": "Feature"}
{"geometry": {"coordinates": [-75.5728967145, 40.3416467049], "type": "Point"}, "id": "1s_1vtdckVGmT9_FOOozTrzhP8k=", "properties": {"@spider": "usps_collection_boxes", "addr:city": "SASSAMANSVILLE", "addr:country": "US", "addr:full": "140 HOFFMANSVILLE RD", "addr:postcode": "19472", "addr:state": "PA", "brand": "USPS", "collection_times": "Mo-Fr 16:30; Sa 11:30", "name": "USPS COLLECTION BOX - PO LOBBY", "note": "ON 12/24 AND 12/31, THIS BOX MAY BE COLLECTED AS EARLY AS 12 NOON.", "ref": "1947200002"}, "type": "Feature"}
{"geometry": {"coordinates": [-75.5728967145, 40.3416467049], "type": "Point"}, "id": "WsReCIag_Yd2EBe6f0_ue5cbyIg=", "properties": {"@spider": "usps_collection_boxes", "addr:city": "SASSAMANSVILLE", "addr:country": "US", "addr:full": "140 HOFFMANSVILLE RD", "addr:postcode": "19472", "addr:state": "PA", "brand": "USPS", "collection_times": "Mo-Fr 16:30; Sa 11:30", "name": "USPS COLLECTION BOX - PO LOBBY", "note": "ON 12/24 AND 12/31, THIS BOX MAY BE COLLECTED AS EARLY AS 12 NOON.", "ref": "1947200003"}, "type": "Feature"}
{"geometry": {"coordinates": [-75.573083956, 40.341899926], "type": "Point"}, "id": "kLlVAi09zqUO92BrJUTAoAywu7g=", "properties": {"@spider": "usps_collection_boxes", "addr:city": "SASSAMANSVILLE", "addr:country": "US", "addr:full": "140 HOFFMANSVILLE RD", "addr:postcode": "19472", "addr:state": "PA", "brand": "USPS", "collection_times": "Mo-Fr 16:30; Sa 11:30", "name": "USPS COLLECTION BOX - PO LOBBY", "note": "ON 12/24 AND 12/31, THIS BOX MAY BE COLLECTED AS EARLY AS 12 NOON.", "ref": "1947200005"}, "type": "Feature"}
{"geometry": {"coordinates": [-75.4646895, 40.256392], "type": "Point"}, "id": "y6sk9uk5RUIdw6i8cfGk1MRRx_o=", "properties": {"@spider": "usps_collection_boxes", "addr:city": "SCHWENKSVILLE", "addr:country": "US", "addr:full": "153 CENTENNIAL ST", "addr:postcode": "19473", "addr:state": "PA", "brand": "USPS", "collection_times": "Mo-Fr 16:30; Sa 11:30", "name": "USPS COLLECTION BOX - BLUE BOX", "note": "ON 12/24 AND 12/31, THIS BOX MAY BE COLLECTED AS EARLY AS 12 NOON.", "ref": "1947300001"}, "type": "Feature"}
{"geometry": {"coordinates": [-75.387569, 40.221644], "type": "Point"}, "id": "MMma0KxLXC9ZfvsGRpTsRQO4Tgc=", "properties": {"@spider": "usps_collection_boxes", "addr:city": "SKIPPACK", "addr:country": "US", "addr:full": "3801 SKIPPACK PIKE", "addr:postcode": "19474", "addr:state": "PA", "brand": "USPS", "collection_times": "Mo-Fr 16:45; Sa 11:00", "name": "USPS COLLECTION BOX - BLUE BOX", "note": "ON 12/24 AND 12/31, THIS BOX MAY BE COLLECTED AS EARLY AS 12 NOON.", "ref": "1947400001"}, "type": "Feature"}
{"geometry": {"coordinates": [-75.387468, 40.22159], "type": "Point"}, "id": "k2CQ89bDUEidMFKXQ9r-W-0VzwA=", "properties": {"@spider": "usps_collection_boxes", "addr:city": "SKIPPACK", "addr:country": "US", "addr:full": "3801 SKIPPACK PIKE", "addr:postcode": "19474", "addr:state": "PA", "brand": "USPS", "collection_times": "Mo-Fr 16:45; Sa 11:00", "name": "USPS COLLECTION BOX - PO LOBBY", "note": "ON 12/24 AND 12/31, THIS BOX MAY BE COLLECTED AS EARLY AS 12 NOON.", "ref": "1947400002"}, "type": "Feature"}
{"geometry": {"coordinates": [-75.387468, 40.22159], "type": "Point"}, "id": "ZkpGwtWL6HJo315Gq5e_v-s4XjE=", "properties": {"@spider": "usps_collection_boxes", "addr:city": "SKIPPACK", "addr:country": "US", "addr:full": "3801 SKIPPACK PIKE", "addr:postcode": "19474", "addr:state": "PA", "brand": "USPS", "collection_times": "Mo-Fr 16:45; Sa 11:00", "name": "USPS COLLECTION BOX - PO LOBBY", "note": "ON 12/24 AND 12/31, THIS BOX MAY BE COLLECTED AS EARLY AS 12 NOON.", "ref": "1947400003"}, "type": "Feature"}
{"geometry": {"coordinates": [-75.3879969071, 40.2217430269], "type": "Point"}, "id": "juQGKQk6_ae8tnr_KcKgHMJrXhs=", "properties": {"@spider": "usps_collection_boxes", "addr:city": "SKIPPACK", "addr:country": "US", "addr:full": "3801 SKIPPACK PIKE", "addr:postcode": "19474", "addr:state": "PA", "brand": "USPS", "collection_times": "Mo-Fr 16:45; Sa 12:30", "name": "USPS COLLECTION BOX - PO LOBBY", "note": "ON 12/24 AND 12/31, THIS BOX MAY BE COLLECTED AS EARLY AS 12 NOON.", "ref": "1947400005"}, "type": "Feature"}
{"geometry": {"coordinates": [-75.5449917, 40.176719], "type": "Point"}, "id": "yRoznP6MVNInoHfSmlGocfL0TnY=", "properties": {"@spider": "usps_collection_boxes", "addr:city": "SPRING CITY", "addr:country": "US", "addr:full": "100 S MAIN ST", "addr:postcode": "19475", "addr:state": "PA", "brand": "USPS", "collection_times": "Mo-Sa 09:00", "name": "USPS COLLECTION BOX - BLUE BOX", "ref": "1947500024"}, "type": "Feature"}
{"geometry": {"coordinates": [-75.5457441, 40.17788], "type": "Point"}, "id": "L59UfEcriwGFwfMRAd8Gz_ekqf0=", "properties": {"@spider": "usps_collection_boxes", "addr:city": "SPRING CITY", "addr:country": "US", "addr:full": "6 N MAIN ST", "addr:postcode": "19475", "addr:state": "PA", "brand": "USPS", "collection_times": "Mo-Sa 09:00", "name": "USPS COLLECTION BOX - BLUE BOX", "ref": "1947500025"}, "type": "Feature"}
{"geometry": {"coordinates": [-75.5526684, 40.182205], "type": "Point"}, "id": "TLLJ_vQQCWJHexGfvUoUkVuW5Og=", "properties": {"@spider": "usps_collection_boxes", "addr:city": "SPRING CITY", "addr:country": "US", "addr:full": "257 BRIDGE ST", "addr:postcode": "19475", "addr:state": "PA", "brand": "USPS", "collection_times": "Mo-Sa 09:00", "name": "USPS COLLECTION BOX - BLUE BOX", "ref": "1947500026"}, "type": "Feature"}
{"geometry": {"coordinates": [-75.5691099, 40.183267], "type": "Point"}, "id": "tILZROcFvOtJeGwzLhEMTsAuLik=", "properties": {"@spider": "usps_collection_boxes", "addr:city": "SPRING CITY", "addr:country": "US", "addr:full": "3380 SCHUYLKILL RD", "addr:postcode": "19475", "addr:state": "PA", "brand": "USPS", "collection_times": "Mo-Fr 14:45; Sa 09:00", "name": "USPS COLLECTION BOX - BLUE BOX", "note": "ON 12/24 AND 12/31, THIS BOX MAY BE COLLECTED AS EARLY AS 12 NOON.", "ref": "1947500027"}, "type": "Feature"}
{"geometry": {"coordinates": [-75.5538765, 40.176991], "type": "Point"}, "id": "CQ6MROBTc33wuKXDR3qHq4rEYZE=", "properties": {"@spider": "usps_collection_boxes", "addr:city": "SPRING CITY", "addr:country": "US", "addr:full": "500 NEW ST", "addr:postcode": "19475", "addr:state": "PA", "brand": "USPS", "collection_times": "Mo-Sa 09:00", "name": "USPS COLLECTION BOX - BLUE BOX", "ref": "1947500028"}, "type": "Feature"}
{"geometry": {"coordinates": [-75.5446817, 40.170945], "type": "Point"}, "id": "oMSV8r6Yi35xt5S2ngOTrR2NqGA=", "properties": {"@spider": "usps_collection_boxes", "addr:city": "SPRING CITY", "addr:country": "US", "addr:full": "330 PIKELAND AVE", "addr:postcode": "19475", "addr:state": "PA", "brand": "USPS", "collection_times": "Mo-Sa 09:00", "name": "USPS COLLECTION BOX - BLUE BOX", "ref": "1947500030"}, "type": "Feature"}
{"geometry": {"coordinates": [-75.54812, 40.179439], "type": "Point"}, "id": "-AKuW9UX2946N41RZe2gH9NwL7Y=", "properties": {"@spider": "usps_collection_boxes", "addr:city": "SPRING CITY", "addr:country": "US", "addr:full": "124 NEW ST", "addr:postcode": "19475", "addr:state": "PA", "brand": "USPS", "collection_times": "Mo-Fr 16:30; Sa 12:00", "name": "USPS COLLECTION BOX - BLUE BOX", "note": "ON 12/24 AND 12/31, THIS BOX MAY BE COLLECTED AS EARLY AS 12 NOON.", "ref": "1947500031"}, "type": "Feature"}
{"geometry": {"coordinates": [-75.548199, 40.179437], "type": "Point"}, "id": "hOpxCRmCm57K8wCLBOFL_QHXiC4=", "properties": {"@spider": "usps_collection_boxes", "addr:city": "SPRING CITY", "addr:country": "US", "addr:full": "124 NEW ST", "addr:postcode": "19475", "addr:state": "PA", "brand": "USPS", "collection_times": "Mo-Fr 16:30; Sa 12:00", "name": "USPS COLLECTION BOX - PO LOBBY", "note": "ON 12/24 AND 12/31, THIS BOX MAY BE COLLECTED AS EARLY AS 12 NOON.", "ref": "1947500033"}, "type": "Feature"}
{"geometry": {"coordinates": [-75.548199, 40.179437], "type": "Point"}, "id": "bllFvq0QPkQd0ZnHD5e1onlSeDA=", "properties": {"@spider": "usps_collection_boxes", "addr:city": "SPRING CITY", "addr:country": "US", "addr:full": "124 NEW ST", "addr:postcode": "19475", "addr:state": "PA", "brand": "USPS", "collection_times": "Mo-Fr 16:30; Sa 12:00", "name": "USPS COLLECTION BOX - PO LOBBY", "note": "ON 12/24 AND 12/31, THIS BOX MAY BE COLLECTED AS EARLY AS 12 NOON.", "ref": "1947500034"}, "type": "Feature"}
{"geometry": {"coordinates": [-75.548199, 40.179437], "type": "Point"}, "id": "Ng6kgUlHcqocZkTZ_0asxhS9dfA=", "properties": {"@spider": "usps_collection_boxes", "addr:city": "SPRING CITY", "addr:country": "US", "addr:full": "124 NEW ST", "addr:postcode": "19475", "addr:state": "PA", "brand": "USPS", "collection_times": "Mo-Fr 16:30; Sa 12:00", "name": "USPS COLLECTION BOX - PO LOBBY", "note": "ON 12/24 AND 12/31, THIS BOX MAY BE COLLECTED AS EARLY AS 12 NOON.", "ref": "1947500035"}, "type": "Feature"}
{"geometry": {"coordinates": [-75.548061446, 40.17945683], "type": "Point"}, "id": "iolMEjyG2u5XusTQogKGNwrEPag=", "properties": {"@spider": "usps_collection_boxes", "addr:city": "SPRING CITY", "addr:country": "US", "addr:full": "124 NEW ST", "addr:postcode": "19475", "addr:state": "PA", "brand": "USPS", "collection_times": "Mo-Fr 16:30; Sa 12:00", "name": "USPS COLLECTION BOX - PO LOBBY", "note": "ON 12/24 AND 12/31, THIS BOX MAY BE COLLECTED AS EARLY AS 12 NOON.", "ref": "1947500039"}, "type": "Feature"}
{"geometry": {"coordinates": [-75.239734, 40.234868], "type": "Point"}, "id": "UM_LM0sZTEbNwFp6c6qpoKC-_1Y=", "properties": {"@spider": "usps_collection_boxes", "addr:city": "NORTH WALES", "addr:country": "US", "addr:full": "905 BETHLEHEM PIKE", "addr:postcode": "19477", "addr:state": "PA", "brand": "USPS", "collection_times": "Mo-Fr 16:00; Sa 09:30", "name": "USPS COLLECTION BOX - PO LOBBY", "note": "ON 12/24 AND 12/31, THIS BOX MAY BE COLLECTED AS EARLY AS 12 NOON.", "ref": "1947700004"}, "type": "Feature"}
{"geometry": {"coordinates": [-75.239829756, 40.235033007], "type": "Point"}, "id": "bUDfyp3fCFdW7OhXirFnucr6zFo=", "properties": {"@spider": "usps_collection_boxes", "addr:city": "NORTH WALES", "addr:country": "US", "addr:full": "905 BETHLEHEM PIKE", "addr:postcode": "19477", "addr:state": "PA", "brand": "USPS", "collection_times": "Mo-Fr 16:30", "name": "USPS COLLECTION BOX - PO LOBBY", "note": "ON 12/24 AND 12/31, THIS BOX MAY BE COLLECTED AS EARLY AS 12 NOON.", "ref": "1947700006"}, "type": "Feature"}
{"geometry": {"coordinates": [-75.4615218, 40.272391], "type": "Point"}, "id": "fjJOfDjCp7Cx_tlwcmh4IaLvSEQ=", "properties": {"@spider": "usps_collection_boxes", "addr:city": "SPRING MOUNT", "addr:country": "US", "addr:full": "53 SPRING MOUNT RD", "addr:postcode": "19478", "addr:state": "PA", "brand": "USPS", "collection_times": "Mo-Sa 09:00", "name": "USPS COLLECTION BOX - BLUE BOX", "ref": "1947800003"}, "type": "Feature"}
{"geometry": {"coordinates": [-75.6925751193, 40.0894303703], "type": "Point"}, "id": "17w2hy0rlGQl-bcHdmsQwwuJYoA=", "properties": {"@spider": "usps_collection_boxes", "addr:city": "UWCHLAND", "addr:country": "US", "addr:full": "101 FELLOWSHIP RD STE 100", "addr:postcode": "19480", "addr:state": "PA", "brand": "USPS", "collection_times": "Mo-Fr 16:30; Sa 11:30", "name": "USPS COLLECTION BOX - BLUE BOX", "note": "ON 12/24 AND 12/31, THIS BOX MAY BE COLLECTED AS EARLY AS 12 NOON.", "ref": "1948000001"}, "type": "Feature"}
{"geometry": {"coordinates": [-75.6925751193, 40.0894303703], "type": "Point"}, "id": "ODl8-J4Uwgvd_iuGGFnao85ZDT8=", "properties": {"@spider": "usps_collection_boxes", "addr:city": "UWCHLAND", "addr:country": "US", "addr:full": "101 FELLOWSHIP RD STE 100", "addr:postcode": "19480", "addr:state": "PA", "brand": "USPS", "collection_times": "Mo-Fr 16:30; Sa 11:30", "name": "USPS COLLECTION BOX - PO LOBBY", "note": "ON 12/24 AND 12/31, THIS BOX MAY BE COLLECTED AS EARLY AS 12 NOON.", "ref": "1948000002"}, "type": "Feature"}
{"geometry": {"coordinates": [-75.6925751193, 40.0894303703], "type": "Point"}, "id": "FsVS3NGveVXgBaK3cRIUbPGomyo=", "properties": {"@spider": "usps_collection_boxes", "addr:city": "UWCHLAND", "addr:country": "US", "addr:full": "101 FELLOWSHIP RD STE 100", "addr:postcode": "19480", "addr:state": "PA", "brand": "USPS", "collection_times": "Mo-Fr 16:30; Sa 11:30", "name": "USPS COLLECTION BOX - PO LOBBY", "note": "ON 12/24 AND 12/31, THIS BOX MAY BE COLLECTED AS EARLY AS 12 NOON.", "ref": "1948000003"}, "type": "Feature"}
{"geometry": {"coordinates": [-75.692813686, 40.0900235888], "type": "Point"}, "id": "eGjgFiLQA7_aPEV02GNFAjl_82U=", "properties": {"@spider": "usps_collection_boxes", "addr:city": "UWCHLAND", "addr:country": "US", "addr:full": "101 FELLOWSHIP RD", "addr:postcode": "19480", "addr:state": "PA", "brand": "USPS", "collection_times": "Mo-Fr 16:30; Sa 11:30", "name": "USPS COLLECTION BOX - PO LOBBY", "note": "ON 12/24 AND 12/31, THIS BOX MAY BE COLLECTED AS EARLY AS 12 NOON.", "ref": "1948000005"}, "type": "Feature"}
{"geometry": {"coordinates": [-75.471092, 40.099121], "type": "Point"}, "id": "KQVvA-T0u5vxa9YDyRCYSYrXFPU=", "properties": {"@spider": "usps_collection_boxes", "addr:city": "VALLEY FORGE", "addr:country": "US", "addr:full": "1721 VALLEY FORGE RD", "addr:postcode": "19481", "addr:state": "PA", "brand": "USPS", "collection_times": "Mo-Fr 16:30; Sa 11:00", "name": "USPS COLLECTION BOX - BLUE BOX", "note": "ON 12/24 AND 12/31, THIS BOX MAY BE COLLECTED AS EARLY AS 12 NOON.", "ref": "1948100001"}, "type": "Feature"}
{"geometry": {"coordinates": [-75.47101, 40.099051], "type": "Point"}, "id": "CuyRJZKdi-OMQcdxn4qYlDraPPY=", "properties": {"@spider": "usps_collection_boxes", "addr:city": "VALLEY FORGE", "addr:country": "US", "addr:full": "1721 VALLEY FORGE RD", "addr:postcode": "19481", "addr:state": "PA", "brand": "USPS", "collection_times": "Mo-Fr 16:30; Sa 11:00", "name": "USPS COLLECTION BOX - BLUE BOX", "note": "ON 12/24 AND 12/31, THIS BOX MAY BE COLLECTED AS EARLY AS 12 NOON.", "ref": "1948100002"}, "type": "Feature"}
{"geometry": {"coordinates": [-75.47101, 40.099051], "type": "Point"}, "id": "OnxsLlffHIAkf7bsCfcEw47ECQw=", "properties": {"@spider": "usps_collection_boxes", "addr:city": "VALLEY FORGE", "addr:country": "US", "addr:full": "1721 VALLEY FORGE RD", "addr:postcode": "19481", "addr:state": "PA", "brand": "USPS", "collection_times": "Mo-Fr 16:30; Sa 11:00", "name": "USPS COLLECTION BOX - PO LOBBY", "note": "ON 12/24 AND 12/31, THIS BOX MAY BE COLLECTED AS EARLY AS 12 NOON.", "ref": "1948100004"}, "type": "Feature"}
{"geometry": {"coordinates": [-75.47101, 40.099051], "type": "Point"}, "id": "8wbfQ8SKnuw_iiw1QK1dBAbmiV8=", "properties": {"@spider": "usps_collection_boxes", "addr:city": "VALLEY FORGE", "addr:country": "US", "addr:full": "1721 VALLEY FORGE RD", "addr:postcode": "19481", "addr:state": "PA", "brand": "USPS", "collection_times": "Mo-Fr 16:30; Sa 11:00", "name": "USPS COLLECTION BOX - PO LOBBY", "note": "ON 12/24 AND 12/31, THIS BOX MAY BE COLLECTED AS EARLY AS 12 NOON.", "ref": "1948100005"}, "type": "Feature"}
{"geometry": {"coordinates": [-75.4710517591, 40.0991427712], "type": "Point"}, "id": "yy6mgAOBtniRRlRlELUiHDP5-gA=", "properties": {"@spider": "usps_collection_boxes", "addr:city": "VALLEY FORGE", "addr:country": "US", "addr:full": "1721 VALLEY FORGE RD", "addr:postcode": "19481", "addr:state": "PA", "brand": "USPS", "collection_times": "Mo-Fr 16:30; Sa 11:00", "name": "USPS COLLECTION BOX - PO LOBBY", "note": "ON 12/24 AND 12/31, THIS BOX MAY BE COLLECTED AS EARLY AS 12 NOON.", "ref": "1948100007"}, "type": "Feature"}
{"geometry": {"coordinates": [-75.298513, 40.206663], "type": "Point"}, "id": "1-6DyvLYWwdIl0GRyD4i4WM_J7s=", "properties": {"@spider": "usps_collection_boxes", "addr:city": "WEST POINT", "addr:country": "US", "addr:full": "1851 W POINT PIKE", "addr:postcode": "19486", "addr:state": "PA", "brand": "USPS", "collection_times": "Mo-Fr 16:30; Sa 10:00", "name": "USPS COLLECTION BOX - BLUE BOX", "note": "ON 12/24 AND 12/31, THIS BOX MAY BE COLLECTED AS EARLY AS 12 NOON.", "ref": "1948600001"}, "type": "Feature"}
{"geometry": {"coordinates": [-75.298513, 40.206663], "type": "Point"}, "id": "umrWpdEwT4ajm-S7zDrhrIvfMtU=", "properties": {"@spider": "usps_collection_boxes", "addr:city": "WEST POINT", "addr:country": "US", "addr:full": "1851 W POINT PIKE", "addr:postcode": "19486", "addr:state": "PA", "brand": "USPS", "collection_times": "Mo-Fr 16:30; Sa 10:00", "name": "USPS COLLECTION BOX - PO LOBBY", "note": "ON 12/24 AND 12/31, THIS BOX MAY BE COLLECTED AS EARLY AS 12 NOON.", "ref": "1948600002"}, "type": "Feature"}
{"geometry": {"coordinates": [-75.298159409, 40.207056198], "type": "Point"}, "id": "d99MZJ3TVXs0-M_86HMrDPD-IGk=", "properties": {"@spider": "usps_collection_boxes", "addr:city": "WEST POINT", "addr:country": "US", "addr:full": "1851 W POINT PIKE", "addr:postcode": "19486", "addr:state": "PA", "brand": "USPS", "collection_times": "Mo-Fr 16:30; Sa 10:00", "name": "USPS COLLECTION BOX - PO LOBBY", "note": "ON 12/24 AND 12/31, THIS BOX MAY BE COLLECTED AS EARLY AS 12 NOON.", "ref": "1948600005"}, "type": "Feature"}
{"geometry": {"coordinates": [-75.350005, 40.19527], "type": "Point"}, "id": "--kcaXTL4l6oPJxgzkuEHeAFtBU=", "properties": {"@spider": "usps_collection_boxes", "addr:city": "WORCESTER", "addr:country": "US", "addr:full": "1741 VALLEY FORGE RD", "addr:postcode": "19490", "addr:state": "PA", "brand": "USPS", "collection_times": "Mo-Fr 16:30; Sa 12:00", "name": "USPS COLLECTION BOX - BLUE BOX", "note": "ON 12/24 AND 12/31, THIS BOX MAY BE COLLECTED AS EARLY AS 12 NOON.", "ref": "1949000001"}, "type": "Feature"}
{"geometry": {"coordinates": [-75.349994, 40.19522], "type": "Point"}, "id": "Sg2zhRGsB6hiK9VaEEsaLnkY47o=", "properties": {"@spider": "usps_collection_boxes", "addr:city": "WORCESTER", "addr:country": "US", "addr:full": "1741 VALLEY FORGE RD", "addr:postcode": "19490", "addr:state": "PA", "brand": "USPS", "collection_times": "Mo-Fr 16:30; Sa 12:00", "name": "USPS COLLECTION BOX - PO LOBBY", "note": "ON 12/24 AND 12/31, THIS BOX MAY BE COLLECTED AS EARLY AS 12 NOON.", "ref": "1949000002"}, "type": "Feature"}
{"geometry": {"coordinates": [-75.349994, 40.19522], "type": "Point"}, "id": "icIESZtX5MwTz5FSU9rUQbnK7dI=", "properties": {"@spider": "usps_collection_boxes", "addr:city": "WORCESTER", "addr:country": "US", "addr:full": "1741 VALLEY FORGE RD", "addr:postcode": "19490", "addr:state": "PA", "brand": "USPS", "collection_times": "Mo-Fr 16:30; Sa 12:00", "name": "USPS COLLECTION BOX - PO LOBBY", "note": "ON 12/24 AND 12/31, THIS BOX MAY BE COLLECTED AS EARLY AS 12 NOON.", "ref": "1949000003"}, "type": "Feature"}
{"geometry": {"coordinates": [-75.349639435, 40.195948847], "type": "Point"}, "id": "4ZiUQ0_gF-gUpj0RXVpII9NBppU=", "properties": {"@spider": "usps_collection_boxes", "addr:city": "WORCESTER", "addr:country": "US", "addr:full": "1741 VALLEY FORGE RD", "addr:postcode": "19490", "addr:state": "PA", "brand": "USPS", "collection_times": "Mo-Fr 16:30; Sa 12:00", "name": "USPS COLLECTION BOX - PO LOBBY", "note": "ON 12/24 AND 12/31, THIS BOX MAY BE COLLECTED AS EARLY AS 12 NOON.", "ref": "1949000005"}, "type": "Feature"}
{"geometry": {"coordinates": [-75.5297519, 40.3028358], "type": "Point"}, "id": "kpXhLA0Iv8zie-cZkEPjn7bxpig=", "properties": {"@spider": "usps_collection_boxes", "addr:city": "ZIEGLERVILLE", "addr:country": "US", "addr:full": "1204 N GRAVEL PIKE", "addr:postcode": "19492", "addr:state": "PA", "brand": "USPS", "collection_times": "Mo-Fr 16:30; Sa 11:30", "name": "USPS COLLECTION BOX - BLUE BOX", "note": "ON 12/24 AND 12/31, THIS BOX MAY BE COLLECTED AS EARLY AS 12 NOON.", "ref": "1949200000"}, "type": "Feature"}
{"geometry": {"coordinates": [-75.5297519, 40.3028358], "type": "Point"}, "id": "EFJp73xMtUGp95GqpRrwISMdbIs=", "properties": {"@spider": "usps_collection_boxes", "addr:city": "ZIEGLERVILLE", "addr:country": "US", "addr:full": "1204 N GRAVEL PIKE", "addr:postcode": "19492", "addr:state": "PA", "brand": "USPS", "collection_times": "Mo-Fr 16:30; Sa 11:30", "name": "USPS COLLECTION BOX - PO LOBBY", "note": "ON 12/24 AND 12/31, THIS BOX MAY BE COLLECTED AS EARLY AS 12 NOON.", "ref": "1949200001"}, "type": "Feature"}
{"geometry": {"coordinates": [-75.5297519, 40.3028358], "type": "Point"}, "id": "u2Ayq7ilSRXGDJu4ZrQXgvRFDo8=", "properties": {"@spider": "usps_collection_boxes", "addr:city": "ZIEGLERVILLE", "addr:country": "US", "addr:full": "1204 N GRAVEL PIKE", "addr:postcode": "19492", "addr:state": "PA", "brand": "USPS", "collection_times": "Mo-Fr 16:30; Sa 11:30", "name": "USPS COLLECTION BOX - PO LOBBY", "note": "ON 12/24 AND 12/31, THIS BOX MAY BE COLLECTED AS EARLY AS 12 NOON.", "ref": "1949200002"}, "type": "Feature"}
{"geometry": {"coordinates": [-75.5297519, 40.3028358], "type": "Point"}, "id": "iQ7h8tomx6rl5RR3JR9XlELUeOM=", "properties": {"@spider": "usps_collection_boxes", "addr:city": "ZIEGLERVILLE", "addr:country": "US", "addr:full": "1204 N GRAVEL PIKE", "addr:postcode": "19492", "addr:state": "PA", "brand": "USPS", "collection_times": "Mo-Fr 16:30; Sa 11:30", "name": "USPS COLLECTION BOX - PO LOBBY", "note": "ON 12/24 AND 12/31, THIS BOX MAY BE COLLECTED AS EARLY AS 12 NOON.", "ref": "1949200004"}, "type": "Feature"}
