{"dataset_attributes": {"@spider": "usps_collection_boxes"}, "geometry": {"coordinates": [-76.058909, 40.242052], "type": "Point"}, "id": "CzLfJCa3D-b40m6eqYsq84fJOb0=", "properties": {"@spider": "usps_collection_boxes", "addr:city": "ADAMSTOWN", "addr:country": "US", "addr:full": "128 W MAIN ST", "addr:postcode": "19501", "addr:state": "PA", "amenity": "post_box", "brand": "United States Postal Service", "brand:wikidata": "Q668687", "collection_times": "Mo-Fr 16:15; Sa 12:00", "name": "USPS COLLECTION BOX - BLUE BOX", "note": "ON 12/24 AND 12/31, THIS BOX MAY BE COLLECTED AS EARLY AS 12 NOON.", "nsi_id": "unitedstatespostalservice-a77078", "operator": "United States Postal Service", "operator:short": "USPS", "operator:type": "public", "operator:wikidata": "Q668687", "ref": "1950100003"}, "type": "Feature"}
{"dataset_attributes": {"@spider": "usps_collection_boxes"}, "geometry": {"coordinates": [-76.058963, 40.242001], "type": "Point"}, "id": "ogKEME7q-1UPlNLtBtn9Lb8A2Io=", "properties": {"@spider": "usps_collection_boxes", "addr:city": "ADAMSTOWN", "addr:country": "US", "addr:full": "128 W MAIN ST", "addr:postcode": "19501", "addr:state": "PA", "amenity": "post_box", "brand": "United States Postal Service", "brand:wikidata": "Q668687", "collection_times": "Mo-Fr 16:30; Sa 12:00", "name": "USPS COLLECTION BOX - PO LOBBY", "note": "ON 12/24 AND 12/31, THIS BOX MAY BE COLLECTED AS EARLY AS 12 NOON.", "nsi_id": "unitedstatespostalservice-a77078", "operator": "United States Postal Service", "operator:short": "USPS", "operator:type": "public", "operator:wikidata": "Q668687", "ref": "1950100005"}, "type": "Feature"}
{"dataset_attributes": {"@spider": "usps_collection_boxes"}, "geometry": {"coordinates": [-76.058893968, 40.242049404], "type": "Point"}, "id": "xI52PGI--9dYOCPQL-E5KgefgB4=", "properties": {"@spider": "usps_collection_boxes", "addr:city": "ADAMSTOWN", "addr:country": "US", "addr:full": "128 W MAIN ST", "addr:postcode": "19501", "addr:state": "PA", "amenity": "post_box", "brand": "United States Postal Service", "brand:wikidata": "Q668687", "collection_times": "Mo-Fr 16:30; Sa 12:00", "name": "USPS COLLECTION BOX - PO LOBBY", "note": "ON 12/24 AND 12/31, THIS BOX MAY BE COLLECTED AS EARLY AS 12 NOON.", "nsi_id": "unitedstatespostalservice-a77078", "operator": "United States Postal Service", "operator:short": "USPS", "operator:type": "public", "operator:wikidata": "Q668687", "ref": "1950100007"}, "type": "Feature"}
{"dataset_attributes": {"@spider": "usps_collection_boxes"}, "geometry": {"coordinates": [-75.585863, 40.402639], "type": "Point"}, "id": "30qaZ80j4X8eKLLsbyXXf3kXSxE=", "properties": {"@spider": "usps_collection_boxes", "addr:city": "BALLY", "addr:country": "US", "addr:full": "9 S 7TH ST", "addr:postcode": "19503", "addr:state": "PA", "amenity": "post_box", "brand": "United States Postal Service", "brand:wikidata": "Q668687", "collection_times": "Mo-Fr 16:00; Sa 11:00", "name": "USPS COLLECTION BOX - BLUE BOX", "note": "ON 12/24 AND 12/31, THIS BOX MAY BE COLLECTED AS EARLY AS 12 NOON.", "nsi_id": "unitedstatespostalservice-a77078", "operator": "United States Postal Service", "operator:short": "USPS", "operator:type": "public", "operator:wikidata": "Q668687", "ref": "1950300002"}, "type": "Feature"}
{"dataset_attributes": {"@spider": "usps_collection_boxes"}, "geometry": {"coordinates": [-75.585863, 40.402639], "type": "Point"}, "id": "vsNR7nr1Z8BIBVQZBuI4OLDw4XE=", "properties": {"@spider": "usps_collection_boxes", "addr:city": "BALLY", "addr:country": "US", "addr:full": "9 S 7TH ST", "addr:postcode": "19503", "addr:state": "PA", "amenity": "post_box", "brand": "United States Postal Service", "brand:wikidata": "Q668687", "collection_times": "Mo-Fr 16:00; Sa 11:00", "name": "USPS COLLECTION BOX - PO LOBBY", "note": "ON 12/24 AND 12/31, THIS BOX MAY BE COLLECTED AS EARLY AS 12 NOON.", "nsi_id": "unitedstatespostalservice-a77078", "operator": "United States Postal Service", "operator:short": "USPS", "operator:type": "public", "operator:wikidata": "Q668687", "ref": "1950300003"}, "type": "Feature"}
{"dataset_attributes": {"@spider": "usps_collection_boxes"}, "geometry": {"coordinates": [-75.585879547, 40.402682856], "type": "Point"}, "id": "W7Z7ODgVybEPHSV2ZwRH9Ry24RU=", "properties": {"@spider": "usps_collection_boxes", "addr:city": "BALLY", "addr:country": "US", "addr:full": "9 S 7TH ST", "addr:postcode": "19503", "addr:state": "PA", "amenity": "post_box", "brand": "United States Postal Service", "brand:wikidata": "Q668687", "collection_times": "Mo-Fr 16:00; Sa 11:00", "name": "USPS COLLECTION BOX - PO LOBBY", "note": "ON 12/24 AND 12/31, THIS BOX MAY BE COLLECTED AS EARLY AS 12 NOON.", "nsi_id": "unitedstatespostalservice-a77078", "operator": "United States Postal Service", "operator:short": "USPS", "operator:type": "public", "operator:wikidata": "Q668687", "ref": "1950300005"}, "type": "Feature"}
{"dataset_attributes": {"@spider": "usps_collection_boxes"}, "geometry": {"coordinates": [-75.61459, 40.390773], "type": "Point"}, "id": "GsOBUj0aBdUTAXr6FKwMdLSFszU=", "properties": {"@spider": "usps_collection_boxes", "addr:city": "BARTO", "addr:country": "US", "addr:full": "2245 OLD ROUTE 100", "addr:postcode": "19504", "addr:state": "PA", "amenity": "post_box", "brand": "United States Postal Service", "brand:wikidata": "Q668687", "collection_times": "Mo-Fr 15:30; Sa 11:00", "name": "USPS COLLECTION BOX - BLUE BOX", "note": "ON 12/24 AND 12/31, THIS BOX MAY BE COLLECTED AS EARLY AS 12 NOON.", "nsi_id": "unitedstatespostalservice-a77078", "operator": "United States Postal Service", "operator:short": "USPS", "operator:type": "public", "operator:wikidata": "Q668687", "ref": "1950400000"}, "type": "Feature"}
{"dataset_attributes": {"@spider": "usps_collection_boxes"}, "geometry": {"coordinates": [-75.614558, 40.390843], "type": "Point"}, "id": "03gxgyjlRLSbCLMxd9v2gacz3W8=", "properties": {"@spider": "usps_collection_boxes", "addr:city": "BARTO", "addr:country": "US", "addr:full": "2245 OLD ROUTE 100", "addr:postcode": "19504", "addr:state": "PA", "amenity": "post_box", "brand": "United States Postal Service", "brand:wikidata": "Q668687", "collection_times": "Mo-Fr 15:30; Sa 11:00", "name": "USPS COLLECTION BOX - PO LOBBY", "note": "ON 12/24 AND 12/31, THIS BOX MAY BE COLLECTED AS EARLY AS 12 NOON.", "nsi_id": "unitedstatespostalservice-a77078", "operator": "United States Postal Service", "operator:short": "USPS", "operator:type": "public", "operator:wikidata": "Q668687", "ref": "1950400001"}, "type": "Feature"}
{"dataset_attributes": {"@spider": "usps_collection_boxes"}, "geometry": {"coordinates": [-75.614556649, 40.390751443], "type": "Point"}, "id": "x7JGhuPg6O3t3E2MDWm4Ona5xt8=", "properties": {"@spider": "usps_collection_boxes", "addr:city": "BARTO", "addr:country": "US", "addr:full": "2245 OLD ROUTE 100", "addr:postcode": "19504", "addr:state": "PA", "amenity": "post_box", "brand": "United States Postal Service", "brand:wikidata": "Q668687", "collection_times": "Mo-Fr 15:30; Sa 11:00", "name": "USPS COLLECTION BOX - PO LOBBY", "note": "ON 12/24 AND 12/31, THIS BOX MAY BE COLLECTED AS EARLY AS 12 NOON.", "nsi_id": "unitedstatespostalservice-a77078", "operator": "United States Postal Service", "operator:short": "USPS", "operator:type": "public", "operator:wikidata": "Q668687", "ref": "1950400003"}, "type": "Feature"}
{"dataset_attributes": {"@spider": "usps_collection_boxes"}, "geometry": {"coordinates": [-75.629857, 40.373274], "type": "Point"}, "id": "Wv4eAgMjLAFJTK7-JqrlauasfgQ=", "properties": {"@spider": "usps_collection_boxes", "addr:city": "BECHTELSVILLE", "addr:country": "US", "addr:full": "1811 N MAIN ST", "addr:postcode": "19505", "addr:state": "PA", "amenity": "post_box", "brand": "United States Postal Service", "brand:wikidata": "Q668687", "collection_times": "Mo-Fr 16:15; Sa 11:00", "name": "USPS COLLECTION BOX - BLUE BOX", "note": "ON 12/24 AND 12/31, THIS BOX MAY BE COLLECTED AS EARLY AS 12 NOON.", "nsi_id": "unitedstatespostalservice-a77078", "operator": "United States Postal Service", "operator:short": "USPS", "operator:type": "public", "operator:wikidata": "Q668687", "ref": "1950500001"}, "type": "Feature"}
{"dataset_attributes": {"@spider": "usps_collection_boxes"}, "geometry": {"coordinates": [-75.629829, 40.373257], "type": "Point"}, "id": "5Mct5QA2l7lv0iaPCMQK80SZG-g=", "properties": {"@spider": "usps_collection_boxes", "addr:city": "BECHTELSVILLE", "addr:country": "US", "addr:full": "1811 N MAIN ST", "addr:postcode": "19505", "addr:state": "PA", "amenity": "post_box", "brand": "United States Postal Service", "brand:wikidata": "Q668687", "collection_times": "Mo-Fr 16:30; Sa 11:00", "name": "USPS COLLECTION BOX - PO LOBBY", "note": "ON 12/24 AND 12/31, THIS BOX MAY BE COLLECTED AS EARLY AS 12 NOON.", "nsi_id": "unitedstatespostalservice-a77078", "operator": "United States Postal Service", "operator:short": "USPS", "operator:type": "public", "operator:wikidata": "Q668687", "ref": "1950500002"}, "type": "Feature"}
{"dataset_attributes": {"@spider": "usps_collection_boxes"}, "geometry": {"coordinates": [-75.62987765, 40.373295706], "type": "Point"}, "id": "KP9nQcHxaBN2AvO242mQTRITv-A=", "properties": {"@spider": "usps_collection_boxes", "addr:city": "BECHTELSVILLE", "addr:country": "US", "addr:full": "1811 N MAIN ST", "addr:postcode": "19505", "addr:state": "PA", "amenity": "post_box", "brand": "United States Postal Service", "brand:wikidata": "Q668687", "collection_times": "Mo-Fr 16:30; Sa 11:00", "name": "USPS COLLECTION BOX - PO LOBBY", "note": "ON 12/24 AND 12/31, THIS BOX MAY BE COLLECTED AS EARLY AS 12 NOON.", "nsi_id": "unitedstatespostalservice-a77078", "operator": "United States Postal Service", "operator:short": "USPS", "operator:type": "public", "operator:wikidata": "Q668687", "ref": "1950500004"}, "type": "Feature"}
{"dataset_attributes": {"@spider": "usps_collection_boxes"}, "geometry": {"coordinates": [-76.111557, 40.432691], "type": "Point"}, "id": "CneH48UVyXKbWVdmjWkm4Dppags=", "properties": {"@spider": "usps_collection_boxes", "addr:city": "BERNVILLE", "addr:country": "US", "addr:full": "125 E 3RD ST", "addr:postcode": "19506", "addr:state": "PA", "amenity": "post_box", "brand": "United States Postal Service", "brand:wikidata": "Q668687", "collection_times": "Mo-Fr 16:15; Sa 11:30", "name": "USPS COLLECTION BOX - BLUE BOX", "note": "ON 12/24 AND 12/31, THIS BOX MAY BE COLLECTED AS EARLY AS 12 NOON.", "nsi_id": "unitedstatespostalservice-a77078", "operator": "United States Postal Service", "operator:short": "USPS", "operator:type": "public", "operator:wikidata": "Q668687", "ref": "1950600004"}, "type": "Feature"}
{"dataset_attributes": {"@spider": "usps_collection_boxes"}, "geometry": {"coordinates": [-76.111627, 40.432689], "type": "Point"}, "id": "vK210pTyEHtamJgY9zEPEoMj1E4=", "properties": {"@spider": "usps_collection_boxes", "addr:city": "BERNVILLE", "addr:country": "US", "addr:full": "125 E 3RD ST", "addr:postcode": "19506", "addr:state": "PA", "amenity": "post_box", "brand": "United States Postal Service", "brand:wikidata": "Q668687", "collection_times": "Mo-Fr 16:15; Sa 11:30", "name": "USPS COLLECTION BOX - PO LOBBY", "note": "ON 12/24 AND 12/31, THIS BOX MAY BE COLLECTED AS EARLY AS 12 NOON.", "nsi_id": "unitedstatespostalservice-a77078", "operator": "United States Postal Service", "operator:short": "USPS", "operator:type": "public", "operator:wikidata": "Q668687", "ref": "1950600005"}, "type": "Feature"}
{"dataset_attributes": {"@spider": "usps_collection_boxes"}, "geometry": {"coordinates": [-76.110689159, 40.433104059], "type": "Point"}, "id": "vYSoCPSc6Vm7ors4y1e63NgZLsI=", "properties": {"@spider": "usps_collection_boxes", "addr:city": "BERNVILLE", "addr:country": "US", "addr:full": "125 E 3RD ST", "addr:postcode": "19506", "addr:state": "PA", "amenity": "post_box", "brand": "United States Postal Service", "brand:wikidata": "Q668687", "collection_times": "Mo-Fr 16:30; Sa 12:30", "name": "USPS COLLECTION BOX - PO LOBBY", "note": "ON 12/24 AND 12/31, THIS BOX MAY BE COLLECTED AS EARLY AS 12 NOON.", "nsi_id": "unitedstatespostalservice-a77078", "operator": "United States Postal Service", "operator:short": "USPS", "operator:type": "public", "operator:wikidata": "Q668687", "ref": "1950600007"}, "type": "Feature"}
{"dataset_attributes": {"@spider": "usps_collection_boxes"}, "geometry": {"coordinates": [-76.2923841, 40.474749], "type": "Point"}, "id": "OgQqHBMXeAlVdI2KeLauXFS5w78=", "properties": {"@spider": "usps_collection_boxes", "addr:city": "BETHEL", "addr:country": "US", "addr:full": "10 LEGION DR", "addr:postcode": "19507", "addr:state": "PA", "amenity": "post_box", "brand": "United States Postal Service", "brand:wikidata": "Q668687", "collection_times": "Mo-Fr 16:30; Sa 10:45", "name": "USPS COLLECTION BOX - BLUE BOX", "note": "ON 12/24 AND 12/31, THIS BOX MAY BE COLLECTED AS EARLY AS 12 NOON.", "nsi_id": "unitedstatespostalservice-a77078", "operator": "United States Postal Service", "operator:short": "USPS", "operator:type": "public", "operator:wikidata": "Q668687", "ref": "1950700000"}, "type": "Feature"}
{"dataset_attributes": {"@spider": "usps_collection_boxes"}, "geometry": {"coordinates": [-76.2925145, 40.474718], "type": "Point"}, "id": "Te_xnqdJIDO8YoNCECUYOpn4iqA=", "properties": {"@spider": "usps_collection_boxes", "addr:city": "BETHEL", "addr:country": "US", "addr:full": "10 LEGION DR", "addr:postcode": "19507", "addr:state": "PA", "amenity": "post_box", "brand": "United States Postal Service", "brand:wikidata": "Q668687", "collection_times": "Mo-Fr 16:30; Sa 10:45", "name": "USPS COLLECTION BOX - PO LOBBY", "note": "ON 12/24 AND 12/31, THIS BOX MAY BE COLLECTED AS EARLY AS 12 NOON.", "nsi_id": "unitedstatespostalservice-a77078", "operator": "United States Postal Service", "operator:short": "USPS", "operator:type": "public", "operator:wikidata": "Q668687", "ref": "1950700001"}, "type": "Feature"}
{"dataset_attributes": {"@spider": "usps_collection_boxes"}, "geometry": {"coordinates": [-76.292143272, 40.474791902], "type": "Point"}, "id": "bMx4Te3xIxwgCIzHC02TbpWLkBU=", "properties": {"@spider": "usps_collection_boxes", "addr:city": "BETHEL", "addr:country": "US", "addr:full": "10 LEGION DR", "addr:postcode": "19507", "addr:state": "PA", "amenity": "post_box", "brand": "United States Postal Service", "brand:wikidata": "Q668687", "collection_times": "Mo-Fr 16:30; Sa 10:30", "name": "USPS COLLECTION BOX - PO LOBBY", "note": "ON 12/24 AND 12/31, THIS BOX MAY BE COLLECTED AS EARLY AS 12 NOON.", "nsi_id": "unitedstatespostalservice-a77078", "operator": "United States Postal Service", "operator:short": "USPS", "operator:type": "public", "operator:wikidata": "Q668687", "ref": "1950700003"}, "type": "Feature"}
{"dataset_attributes": {"@spider": "usps_collection_boxes"}, "geometry": {"coordinates": [-75.8187933, 40.267665], "type": "Point"}, "id": "5oXYfioHWEye_HAd2CB0ehwN6e0=", "properties": {"@spider": "usps_collection_boxes", "addr:city": "BIRDSBORO", "addr:country": "US", "addr:full": "340 W MAIN ST", "addr:postcode": "19508", "addr:state": "PA", "amenity": "post_box", "brand": "United States Postal Service", "brand:wikidata": "Q668687", "collection_times": "Mo-Fr 16:00; Sa 14:00", "name": "USPS COLLECTION BOX - BLUE BOX", "note": "ON 12/24 AND 12/31, THIS BOX MAY BE COLLECTED AS EARLY AS 12 NOON.", "nsi_id": "unitedstatespostalservice-a77078", "operator": "United States Postal Service", "operator:short": "USPS", "operator:type": "public", "operator:wikidata": "Q668687", "ref": "1950800026"}, "type": "Feature"}
{"dataset_attributes": {"@spider": "usps_collection_boxes"}, "geometry": {"coordinates": [-75.8185999, 40.267438], "type": "Point"}, "id": "9wdTx-0AYnTxHj7TkSuMdHyl9Fg=", "properties": {"@spider": "usps_collection_boxes", "addr:city": "BIRDSBORO", "addr:country": "US", "addr:full": "340 W MAIN ST", "addr:postcode": "19508", "addr:state": "PA", "amenity": "post_box", "brand": "United States Postal Service", "brand:wikidata": "Q668687", "collection_times": "Mo-Fr 16:00; Sa 14:00", "name": "USPS COLLECTION BOX - PO LOBBY", "note": "ON 12/24 AND 12/31, THIS BOX MAY BE COLLECTED AS EARLY AS 12 NOON.", "nsi_id": "unitedstatespostalservice-a77078", "operator": "United States Postal Service", "operator:short": "USPS", "operator:type": "public", "operator:wikidata": "Q668687", "ref": "1950800029"}, "type": "Feature"}
{"dataset_attributes": {"@spider": "usps_collection_boxes"}, "geometry": {"coordinates": [-75.818426845, 40.267954692], "type": "Point"}, "id": "qt-lyqHlmgRnMumvpQYfWOxoZxU=", "properties": {"@spider": "usps_collection_boxes", "addr:city": "BIRDSBORO", "addr:country": "US", "addr:full": "340 W MAIN ST", "addr:postcode": "19508", "addr:state": "PA", "amenity": "post_box", "brand": "United States Postal Service", "brand:wikidata": "Q668687", "collection_times": "Mo-Fr 16:00; Sa 11:00", "name": "USPS COLLECTION BOX - PO LOBBY", "note": "ON 12/24 AND 12/31, THIS BOX MAY BE COLLECTED AS EARLY AS 12 NOON.", "nsi_id": "unitedstatespostalservice-a77078", "operator": "United States Postal Service", "operator:short": "USPS", "operator:type": "public", "operator:wikidata": "Q668687", "ref": "1950800032"}, "type": "Feature"}
{"dataset_attributes": {"@spider": "usps_collection_boxes"}, "geometry": {"coordinates": [-75.87934, 40.440796], "type": "Point"}, "id": "0WVdYkxU0X0_J2GsPA67OftEOlE=", "properties": {"@spider": "usps_collection_boxes", "addr:city": "BLANDON", "addr:country": "US", "addr:full": "120 E WESNER RD", "addr:postcode": "19510", "addr:state": "PA", "amenity": "post_box", "brand": "United States Postal Service", "brand:wikidata": "Q668687", "collection_times": "Mo-Fr 16:00; Sa 11:30", "name": "USPS COLLECTION BOX - BLUE BOX", "note": "ON 12/24 AND 12/31, THIS BOX MAY BE COLLECTED AS EARLY AS 12 NOON.", "nsi_id": "unitedstatespostalservice-a77078", "operator": "United States Postal Service", "operator:short": "USPS", "operator:type": "public", "operator:wikidata": "Q668687", "ref": "1951000002"}, "type": "Feature"}
{"dataset_attributes": {"@spider": "usps_collection_boxes"}, "geometry": {"coordinates": [-75.879357, 40.440737], "type": "Point"}, "id": "Ornre6KXQZBL-pXzxWxGydo1XFA=", "properties": {"@spider": "usps_collection_boxes", "addr:city": "BLANDON", "addr:country": "US", "addr:full": "120 E WESNER RD", "addr:postcode": "19510", "addr:state": "PA", "amenity": "post_box", "brand": "United States Postal Service", "brand:wikidata": "Q668687", "collection_times": "Mo-Fr 16:00; Sa 11:30", "name": "USPS COLLECTION BOX - PO LOBBY", "note": "ON 12/24 AND 12/31, THIS BOX MAY BE COLLECTED AS EARLY AS 12 NOON.", "nsi_id": "unitedstatespostalservice-a77078", "operator": "United States Postal Service", "operator:short": "USPS", "operator:type": "public", "operator:wikidata": "Q668687", "ref": "1951000003"}, "type": "Feature"}
{"dataset_attributes": {"@spider": "usps_collection_boxes"}, "geometry": {"coordinates": [-75.878703627, 40.441365544], "type": "Point"}, "id": "8r-wC2wySckpR8qSJtWZvk5jJTc=", "properties": {"@spider": "usps_collection_boxes", "addr:city": "BLANDON", "addr:country": "US", "addr:full": "120 E WESNER RD", "addr:postcode": "19510", "addr:state": "PA", "amenity": "post_box", "brand": "United States Postal Service", "brand:wikidata": "Q668687", "collection_times": "Mo-Fr 16:30; Sa 11:30", "name": "USPS COLLECTION BOX - PO LOBBY", "note": "ON 12/24 AND 12/31, THIS BOX MAY BE COLLECTED AS EARLY AS 12 NOON.", "nsi_id": "unitedstatespostalservice-a77078", "operator": "United States Postal Service", "operator:short": "USPS", "operator:type": "public", "operator:wikidata": "Q668687", "ref": "1951000006"}, "type": "Feature"}
{"dataset_attributes": {"@spider": "usps_collection_boxes"}, "geometry": {"coordinates": [-75.737118, 40.487635], "type": "Point"}, "id": "IHD4ARLCEduy2glei3g_TadWteo=", "properties": {"@spider": "usps_collection_boxes", "addr:city": "BOWERS", "addr:country": "US", "addr:full": "97 OLD BOWERS RD", "addr:postcode": "19511", "addr:state": "PA", "amenity": "post_box", "brand": "United States Postal Service", "brand:wikidata": "Q668687", "collection_times": "Mo-Fr 16:00; Sa 10:00", "name": "USPS COLLECTION BOX - BLUE BOX", "note": "ON 12/24 AND 12/31, THIS BOX MAY BE COLLECTED AS EARLY AS 12 NOON.", "nsi_id": "unitedstatespostalservice-a77078", "operator": "United States Postal Service", "operator:short": "USPS", "operator:type": "public", "operator:wikidata": "Q668687", "ref": "1951100003"}, "type": "Feature"}
{"dataset_attributes": {"@spider": "usps_collection_boxes"}, "geometry": {"coordinates": [-75.737051, 40.487613], "type": "Point"}, "id": "3GCA9IScNjGa_CLIjDJXOKf4gVY=", "properties": {"@spider": "usps_collection_boxes", "addr:city": "BOWERS", "addr:country": "US", "addr:full": "97 OLD BOWERS RD", "addr:postcode": "19511", "addr:state": "PA", "amenity": "post_box", "brand": "United States Postal Service", "brand:wikidata": "Q668687", "collection_times": "Mo-Fr 16:30; Sa 10:00", "name": "USPS COLLECTION BOX - PO LOBBY", "note": "ON 12/24 AND 12/31, THIS BOX MAY BE COLLECTED AS EARLY AS 12 NOON.", "nsi_id": "unitedstatespostalservice-a77078", "operator": "United States Postal Service", "operator:short": "USPS", "operator:type": "public", "operator:wikidata": "Q668687", "ref": "1951100004"}, "type": "Feature"}
{"dataset_attributes": {"@spider": "usps_collection_boxes"}, "geometry": {"coordinates": [-75.737031263, 40.487682316], "type": "Point"}, "id": "HRTkmr6Uf-hMLH5N2RNB_e69rYc=", "properties": {"@spider": "usps_collection_boxes", "addr:city": "BOWERS", "addr:country": "US", "addr:full": "97 OLD BOWERS RD", "addr:postcode": "19511", "addr:state": "PA", "amenity": "post_box", "brand": "United States Postal Service", "brand:wikidata": "Q668687", "collection_times": "Mo-Fr 16:30; Sa 10:00", "name": "USPS COLLECTION BOX - PO LOBBY", "note": "ON 12/24 AND 12/31, THIS BOX MAY BE COLLECTED AS EARLY AS 12 NOON.", "nsi_id": "unitedstatespostalservice-a77078", "operator": "United States Postal Service", "operator:short": "USPS", "operator:type": "public", "operator:wikidata": "Q668687", "ref": "1951100006"}, "type": "Feature"}
{"dataset_attributes": {"@spider": "usps_collection_boxes"}, "geometry": {"coordinates": [-75.637158, 40.329989], "type": "Point"}, "id": "AooWpIhaURcIUdJM-ZVcdarSwB4=", "properties": {"@spider": "usps_collection_boxes", "addr:city": "BOYERTOWN", "addr:country": "US", "addr:full": "128 S WASHINGTON ST", "addr:postcode": "19512", "addr:state": "PA", "amenity": "post_box", "brand": "United States Postal Service", "brand:wikidata": "Q668687", "collection_times": "Mo-Fr 16:30; Sa 15:15", "name": "USPS COLLECTION BOX - BLUE BOX", "note": "ON 12/24 AND 12/31, THIS BOX MAY BE COLLECTED AS EARLY AS 12 NOON.", "nsi_id": "unitedstatespostalservice-a77078", "operator": "United States Postal Service", "operator:short": "USPS", "operator:type": "public", "operator:wikidata": "Q668687", "ref": "1951200008"}, "type": "Feature"}
{"dataset_attributes": {"@spider": "usps_collection_boxes"}, "geometry": {"coordinates": [-75.6349917, 40.331971], "type": "Point"}, "id": "iWSd-7Yg0dyJBlaFZKxiNANVf_s=", "properties": {"@spider": "usps_collection_boxes", "addr:city": "BOYERTOWN", "addr:country": "US", "addr:full": "131 E PHILADELPHIA AVE", "addr:postcode": "19512", "addr:state": "PA", "amenity": "post_box", "brand": "United States Postal Service", "brand:wikidata": "Q668687", "collection_times": "Mo-Sa 09:30", "name": "USPS COLLECTION BOX - BLUE BOX", "nsi_id": "unitedstatespostalservice-a77078", "operator": "United States Postal Service", "operator:short": "USPS", "operator:type": "public", "operator:wikidata": "Q668687", "ref": "1951200011"}, "type": "Feature"}
{"dataset_attributes": {"@spider": "usps_collection_boxes"}, "geometry": {"coordinates": [-75.6368964, 40.334119], "type": "Point"}, "id": "fwoTnLh8PP-JwJapjH8_b9DnCx4=", "properties": {"@spider": "usps_collection_boxes", "addr:city": "BOYERTOWN", "addr:country": "US", "addr:full": "24 N READING AVE", "addr:postcode": "19512", "addr:state": "PA", "amenity": "post_box", "brand": "United States Postal Service", "brand:wikidata": "Q668687", "collection_times": "Mo-Sa 09:30", "name": "USPS COLLECTION BOX - BLUE BOX", "nsi_id": "unitedstatespostalservice-a77078", "operator": "United States Postal Service", "operator:short": "USPS", "operator:type": "public", "operator:wikidata": "Q668687", "ref": "1951200018"}, "type": "Feature"}
{"dataset_attributes": {"@spider": "usps_collection_boxes"}, "geometry": {"coordinates": [-75.63723, 40.329965], "type": "Point"}, "id": "K6gTCWFELX9DEwdCSrO9CzzKNOY=", "properties": {"@spider": "usps_collection_boxes", "addr:city": "BOYERTOWN", "addr:country": "US", "addr:full": "128 S WASHINGTON ST", "addr:postcode": "19512", "addr:state": "PA", "amenity": "post_box", "brand": "United States Postal Service", "brand:wikidata": "Q668687", "collection_times": "Mo-Fr 16:30; Sa 15:15", "name": "USPS COLLECTION BOX - BLUE BOX", "note": "ON 12/24 AND 12/31, THIS BOX MAY BE COLLECTED AS EARLY AS 12 NOON.", "nsi_id": "unitedstatespostalservice-a77078", "operator": "United States Postal Service", "operator:short": "USPS", "operator:type": "public", "operator:wikidata": "Q668687", "ref": "1951200036"}, "type": "Feature"}
{"dataset_attributes": {"@spider": "usps_collection_boxes"}, "geometry": {"coordinates": [-75.63723, 40.329965], "type": "Point"}, "id": "xu-735NsCV7PC3qgPfvWT7PT-zg=", "properties": {"@spider": "usps_collection_boxes", "addr:city": "BOYERTOWN", "addr:country": "US", "addr:full": "128 S WASHINGTON ST", "addr:postcode": "19512", "addr:state": "PA", "amenity": "post_box", "brand": "United States Postal Service", "brand:wikidata": "Q668687", "collection_times": "Mo-Fr 16:30; Sa 15:15", "name": "USPS COLLECTION BOX - PO LOBBY", "note": "ON 12/24 AND 12/31, THIS BOX MAY BE COLLECTED AS EARLY AS 12 NOON.", "nsi_id": "unitedstatespostalservice-a77078", "operator": "United States Postal Service", "operator:short": "USPS", "operator:type": "public", "operator:wikidata": "Q668687", "ref": "1951200040"}, "type": "Feature"}
{"dataset_attributes": {"@spider": "usps_collection_boxes"}, "geometry": {"coordinates": [-75.637161099, 40.329935956], "type": "Point"}, "id": "7haT4k5k7MpVzBwd6HdkYsO7l9U=", "properties": {"@spider": "usps_collection_boxes", "addr:city": "BOYERTOWN", "addr:country": "US", "addr:full": "128 S WASHINGTON ST", "addr:postcode": "19512", "addr:state": "PA", "amenity": "post_box", "brand": "United States Postal Service", "brand:wikidata": "Q668687", "collection_times": "Mo-Fr 16:30; Sa 11:30", "name": "USPS COLLECTION BOX - PO LOBBY", "note": "ON 12/24 AND 12/31, THIS BOX MAY BE COLLECTED AS EARLY AS 12 NOON.", "nsi_id": "unitedstatespostalservice-a77078", "operator": "United States Postal Service", "operator:short": "USPS", "operator:type": "public", "operator:wikidata": "Q668687", "ref": "1951200043"}, "type": "Feature"}
{"dataset_attributes": {"@spider": "usps_collection_boxes"}, "geometry": {"coordinates": [-76.0065830108, 40.4863850169], "type": "Point"}, "id": "X-4sGtvTLBwfbDDCcsYF06XgKm4=", "properties": {"@spider": "usps_collection_boxes", "addr:city": "CENTERPORT", "addr:country": "US", "addr:full": "106 E CHESTNUT ST", "addr:postcode": "19516", "addr:state": "PA", "amenity": "post_box", "brand": "United States Postal Service", "brand:wikidata": "Q668687", "collection_times": "Mo-Fr 15:45; Sa 10:15", "name": "USPS COLLECTION BOX - BLUE BOX", "note": "ON 12/24 AND 12/31, THIS BOX MAY BE COLLECTED AS EARLY AS 12 NOON.", "nsi_id": "unitedstatespostalservice-a77078", "operator": "United States Postal Service", "operator:short": "USPS", "operator:type": "public", "operator:wikidata": "Q668687", "ref": "1951600002"}, "type": "Feature"}
{"dataset_attributes": {"@spider": "usps_collection_boxes"}, "geometry": {"coordinates": [-76.006965, 40.486553], "type": "Point"}, "id": "cAI7uQel9LlGAlVpwop_C25vhbw=", "properties": {"@spider": "usps_collection_boxes", "addr:city": "CENTERPORT", "addr:country": "US", "addr:full": "106 E CHESTNUT ST", "addr:postcode": "19516", "addr:state": "PA", "amenity": "post_box", "brand": "United States Postal Service", "brand:wikidata": "Q668687", "collection_times": "Mo-Fr 15:45; Sa 10:15", "name": "USPS COLLECTION BOX - PO LOBBY", "note": "ON 12/24 AND 12/31, THIS BOX MAY BE COLLECTED AS EARLY AS 12 NOON.", "nsi_id": "unitedstatespostalservice-a77078", "operator": "United States Postal Service", "operator:short": "USPS", "operator:type": "public", "operator:wikidata": "Q668687", "ref": "1951600003"}, "type": "Feature"}
{"dataset_attributes": {"@spider": "usps_collection_boxes"}, "geometry": {"coordinates": [-76.006571831, 40.48654254], "type": "Point"}, "id": "mD_CH-YLwsy8HCt2ffzCSIOBd6U=", "properties": {"@spider": "usps_collection_boxes", "addr:city": "CENTERPORT", "addr:country": "US", "addr:full": "106 E CHESTNUT ST", "addr:postcode": "19516", "addr:state": "PA", "amenity": "post_box", "brand": "United States Postal Service", "brand:wikidata": "Q668687", "collection_times": "Mo-Fr 16:00; Sa 10:45", "name": "USPS COLLECTION BOX - PO LOBBY", "note": "ON 12/24 AND 12/31, THIS BOX MAY BE COLLECTED AS EARLY AS 12 NOON.", "nsi_id": "unitedstatespostalservice-a77078", "operator": "United States Postal Service", "operator:short": "USPS", "operator:type": "public", "operator:wikidata": "Q668687", "ref": "1951600005"}, "type": "Feature"}
{"dataset_attributes": {"@spider": "usps_collection_boxes"}, "geometry": {"coordinates": [-75.7251066, 40.262528], "type": "Point"}, "id": "U2HqiDujNIHoNFh1bSqvyap6s3k=", "properties": {"@spider": "usps_collection_boxes", "addr:city": "DOUGLASSVILLE", "addr:country": "US", "addr:full": "197 OLD SWEDE RD", "addr:postcode": "19518", "addr:state": "PA", "amenity": "post_box", "brand": "United States Postal Service", "brand:wikidata": "Q668687", "collection_times": "Mo-Fr 17:00; Sa 15:00", "name": "USPS COLLECTION BOX - BLUE BOX", "note": "ON 12/24 AND 12/31, THIS BOX MAY BE COLLECTED AS EARLY AS 12 NOON.", "nsi_id": "unitedstatespostalservice-a77078", "operator": "United States Postal Service", "operator:short": "USPS", "operator:type": "public", "operator:wikidata": "Q668687", "ref": "1951800014"}, "type": "Feature"}
{"dataset_attributes": {"@spider": "usps_collection_boxes"}, "geometry": {"coordinates": [-75.7251255, 40.26257], "type": "Point"}, "id": "RPcknZoCCfdt60QDRiclK9SUQ5U=", "properties": {"@spider": "usps_collection_boxes", "addr:city": "DOUGLASSVILLE", "addr:country": "US", "addr:full": "197 OLD SWEDE RD", "addr:postcode": "19518", "addr:state": "PA", "amenity": "post_box", "brand": "United States Postal Service", "brand:wikidata": "Q668687", "collection_times": "Mo-Fr 17:00; Sa 15:00", "name": "USPS COLLECTION BOX - PO LOBBY", "note": "ON 12/24 AND 12/31, THIS BOX MAY BE COLLECTED AS EARLY AS 12 NOON.", "nsi_id": "unitedstatespostalservice-a77078", "operator": "United States Postal Service", "operator:short": "USPS", "operator:type": "public", "operator:wikidata": "Q668687", "ref": "1951800018"}, "type": "Feature"}
{"dataset_attributes": {"@spider": "usps_collection_boxes"}, "geometry": {"coordinates": [-75.725907673, 40.262110018], "type": "Point"}, "id": "8jpH3EgNkGNCeqN6PVQ0zVO3dQg=", "properties": {"@spider": "usps_collection_boxes", "addr:city": "DOUGLASSVILLE", "addr:country": "US", "addr:full": "197 OLD SWEDE RD", "addr:postcode": "19518", "addr:state": "PA", "amenity": "post_box", "brand": "United States Postal Service", "brand:wikidata": "Q668687", "collection_times": "Mo-Fr 17:00; Sa 12:30", "name": "USPS COLLECTION BOX - PO LOBBY", "note": "ON 12/24 AND 12/31, THIS BOX MAY BE COLLECTED AS EARLY AS 12 NOON.", "nsi_id": "unitedstatespostalservice-a77078", "operator": "United States Postal Service", "operator:short": "USPS", "operator:type": "public", "operator:wikidata": "Q668687", "ref": "1951800021"}, "type": "Feature"}
{"dataset_attributes": {"@spider": "usps_collection_boxes"}, "geometry": {"coordinates": [-75.827161, 40.156587], "type": "Point"}, "id": "ytBpSV3QgIXj6w88O3CmSJNac7k=", "properties": {"@spider": "usps_collection_boxes", "addr:city": "ELVERSON", "addr:country": "US", "addr:full": "24 S PINE ST", "addr:postcode": "19520", "addr:state": "PA", "amenity": "post_box", "brand": "United States Postal Service", "brand:wikidata": "Q668687", "collection_times": "Mo-Fr 16:15; Sa 12:00", "name": "USPS COLLECTION BOX - BLUE BOX", "note": "ON 12/24 AND 12/31, THIS BOX MAY BE COLLECTED AS EARLY AS 12 NOON.", "nsi_id": "unitedstatespostalservice-a77078", "operator": "United States Postal Service", "operator:short": "USPS", "operator:type": "public", "operator:wikidata": "Q668687", "ref": "1952000002"}, "type": "Feature"}
{"dataset_attributes": {"@spider": "usps_collection_boxes"}, "geometry": {"coordinates": [-75.827161, 40.156587], "type": "Point"}, "id": "VqZ7kuCNEo_FLenKXel_y97gg8Q=", "properties": {"@spider": "usps_collection_boxes", "addr:city": "ELVERSON", "addr:country": "US", "addr:full": "24 S PINE ST", "addr:postcode": "19520", "addr:state": "PA", "amenity": "post_box", "brand": "United States Postal Service", "brand:wikidata": "Q668687", "collection_times": "Mo-Fr 16:15; Sa 12:00", "name": "USPS COLLECTION BOX - PO LOBBY", "note": "ON 12/24 AND 12/31, THIS BOX MAY BE COLLECTED AS EARLY AS 12 NOON.", "nsi_id": "unitedstatespostalservice-a77078", "operator": "United States Postal Service", "operator:short": "USPS", "operator:type": "public", "operator:wikidata": "Q668687", "ref": "1952000004"}, "type": "Feature"}
{"dataset_attributes": {"@spider": "usps_collection_boxes"}, "geometry": {"coordinates": [-75.827349, 40.156965], "type": "Point"}, "id": "SJdk-RipAukRYhRyQKHBqKcI_6U=", "properties": {"@spider": "usps_collection_boxes", "addr:city": "ELVERSON", "addr:country": "US", "addr:full": "24 S PINE ST", "addr:postcode": "19520", "addr:state": "PA", "amenity": "post_box", "brand": "United States Postal Service", "brand:wikidata": "Q668687", "collection_times": "Mo-Fr 16:00; Sa 12:00", "name": "USPS COLLECTION BOX - PO LOBBY", "note": "ON 12/24 AND 12/31, THIS BOX MAY BE COLLECTED AS EARLY AS 12 NOON.", "nsi_id": "unitedstatespostalservice-a77078", "operator": "United States Postal Service", "operator:short": "USPS", "operator:type": "public", "operator:wikidata": "Q668687", "ref": "1952000006"}, "type": "Feature"}
{"dataset_attributes": {"@spider": "usps_collection_boxes"}, "geometry": {"coordinates": [-75.834992, 40.449175], "type": "Point"}, "id": "j0yrA-xTibb7oTu5f1qyN2izzEM=", "properties": {"@spider": "usps_collection_boxes", "addr:city": "FLEETWOOD", "addr:country": "US", "addr:full": "9 LENHART RD", "addr:postcode": "19522", "addr:state": "PA", "amenity": "post_box", "brand": "United States Postal Service", "brand:wikidata": "Q668687", "collection_times": "Mo-Fr 16:30; Sa 12:00", "name": "USPS COLLECTION BOX - BLUE BOX", "note": "ON 12/24 AND 12/31, THIS BOX MAY BE COLLECTED AS EARLY AS 12 NOON.", "nsi_id": "unitedstatespostalservice-a77078", "operator": "United States Postal Service", "operator:short": "USPS", "operator:type": "public", "operator:wikidata": "Q668687", "ref": "1952200012"}, "type": "Feature"}
{"dataset_attributes": {"@spider": "usps_collection_boxes"}, "geometry": {"coordinates": [-75.8184346, 40.451035], "type": "Point"}, "id": "exHKe3p3tvZwXq6RpPnVYG5pr1E=", "properties": {"@spider": "usps_collection_boxes", "addr:city": "FLEETWOOD", "addr:country": "US", "addr:full": "123 S RICHMOND ST", "addr:postcode": "19522", "addr:state": "PA", "amenity": "post_box", "brand": "United States Postal Service", "brand:wikidata": "Q668687", "collection_times": "Mo-Sa 10:30", "name": "USPS COLLECTION BOX - BLUE BOX", "nsi_id": "unitedstatespostalservice-a77078", "operator": "United States Postal Service", "operator:short": "USPS", "operator:type": "public", "operator:wikidata": "Q668687", "ref": "1952200024"}, "type": "Feature"}
{"dataset_attributes": {"@spider": "usps_collection_boxes"}, "geometry": {"coordinates": [-75.8459247, 40.411575], "type": "Point"}, "id": "RPkPrJCvXuYnOLvix39v4Gh3XVc=", "properties": {"@spider": "usps_collection_boxes", "addr:city": "FLEETWOOD", "addr:country": "US", "addr:full": "3401 PRICETOWN RD", "addr:postcode": "19522", "addr:state": "PA", "amenity": "post_box", "brand": "United States Postal Service", "brand:wikidata": "Q668687", "collection_times": "Mo-Sa 10:00", "name": "USPS COLLECTION BOX - BLUE BOX", "nsi_id": "unitedstatespostalservice-a77078", "operator": "United States Postal Service", "operator:short": "USPS", "operator:type": "public", "operator:wikidata": "Q668687", "ref": "1952200037"}, "type": "Feature"}
{"dataset_attributes": {"@spider": "usps_collection_boxes"}, "geometry": {"coordinates": [-75.8308709, 40.449105], "type": "Point"}, "id": "BjDJzMOC9pYd8qBbrYi6dhygSWI=", "properties": {"@spider": "usps_collection_boxes", "addr:city": "FLEETWOOD", "addr:country": "US", "addr:full": "408 PARK RD", "addr:postcode": "19522", "addr:state": "PA", "amenity": "post_box", "brand": "United States Postal Service", "brand:wikidata": "Q668687", "collection_times": "Mo-Sa 08:30", "name": "USPS COLLECTION BOX - BLUE BOX", "nsi_id": "unitedstatespostalservice-a77078", "operator": "United States Postal Service", "operator:short": "USPS", "operator:type": "public", "operator:wikidata": "Q668687", "ref": "1952200038"}, "type": "Feature"}
{"dataset_attributes": {"@spider": "usps_collection_boxes"}, "geometry": {"coordinates": [-75.8202803, 40.455813], "type": "Point"}, "id": "hC4lCQm7Prra6Lk3mNIA3PgIuTc=", "properties": {"@spider": "usps_collection_boxes", "addr:city": "FLEETWOOD", "addr:country": "US", "addr:full": "110 W ARCH ST", "addr:postcode": "19522", "addr:state": "PA", "amenity": "post_box", "brand": "United States Postal Service", "brand:wikidata": "Q668687", "collection_times": "Mo-Sa 09:30", "name": "USPS COLLECTION BOX - BLUE BOX", "nsi_id": "unitedstatespostalservice-a77078", "operator": "United States Postal Service", "operator:short": "USPS", "operator:type": "public", "operator:wikidata": "Q668687", "ref": "1952200039"}, "type": "Feature"}
{"dataset_attributes": {"@spider": "usps_collection_boxes"}, "geometry": {"coordinates": [-75.834887, 40.449174], "type": "Point"}, "id": "neaAZG_NECKzlkSvAcyYwZm_3Pc=", "properties": {"@spider": "usps_collection_boxes", "addr:city": "FLEETWOOD", "addr:country": "US", "addr:full": "9 LENHART RD", "addr:postcode": "19522", "addr:state": "PA", "amenity": "post_box", "brand": "United States Postal Service", "brand:wikidata": "Q668687", "collection_times": "Mo-Fr 16:30; Sa 12:00", "name": "USPS COLLECTION BOX - PO LOBBY", "note": "ON 12/24 AND 12/31, THIS BOX MAY BE COLLECTED AS EARLY AS 12 NOON.", "nsi_id": "unitedstatespostalservice-a77078", "operator": "United States Postal Service", "operator:short": "USPS", "operator:type": "public", "operator:wikidata": "Q668687", "ref": "1952200040"}, "type": "Feature"}
{"dataset_attributes": {"@spider": "usps_collection_boxes"}, "geometry": {"coordinates": [-75.83497214, 40.449110176], "type": "Point"}, "id": "azr2l7QFWRAutuXtUpmc4-emGzQ=", "properties": {"@spider": "usps_collection_boxes", "addr:city": "FLEETWOOD", "addr:country": "US", "addr:full": "9 LENHART RD", "addr:postcode": "19522", "addr:state": "PA", "amenity": "post_box", "brand": "United States Postal Service", "brand:wikidata": "Q668687", "collection_times": "Mo-Fr 16:30; Sa 12:00", "name": "USPS COLLECTION BOX - PO LOBBY", "note": "ON 12/24 AND 12/31, THIS BOX MAY BE COLLECTED AS EARLY AS 12 NOON.", "nsi_id": "unitedstatespostalservice-a77078", "operator": "United States Postal Service", "operator:short": "USPS", "operator:type": "public", "operator:wikidata": "Q668687", "ref": "1952200042"}, "type": "Feature"}
{"dataset_attributes": {"@spider": "usps_collection_boxes"}, "geometry": {"coordinates": [-75.8369719, 40.205832], "type": "Point"}, "id": "N1jwMGPdjRgAMPpbACwvhlcMrXk=", "properties": {"@spider": "usps_collection_boxes", "addr:city": "GEIGERTOWN", "addr:country": "US", "addr:full": "3291 HAYCREEK RD", "addr:postcode": "19523", "addr:state": "PA", "amenity": "post_box", "brand": "United States Postal Service", "brand:wikidata": "Q668687", "collection_times": "Mo-Fr 16:00; Sa 10:45", "name": "USPS COLLECTION BOX - BLUE BOX", "note": "ON 12/24 AND 12/31, THIS BOX MAY BE COLLECTED AS EARLY AS 12 NOON.", "nsi_id": "unitedstatespostalservice-a77078", "operator": "United States Postal Service", "operator:short": "USPS", "operator:type": "public", "operator:wikidata": "Q668687", "ref": "1952300000"}, "type": "Feature"}
{"dataset_attributes": {"@spider": "usps_collection_boxes"}, "geometry": {"coordinates": [-75.8364992203, 40.2019622264], "type": "Point"}, "id": "0t9qzUUGR5LkzdvyN_Nu8uJ1sTo=", "properties": {"@spider": "usps_collection_boxes", "addr:city": "GEIGERTOWN", "addr:country": "US", "addr:full": "3291 HAYCREEK RD", "addr:postcode": "19523", "addr:state": "PA", "amenity": "post_box", "brand": "United States Postal Service", "brand:wikidata": "Q668687", "collection_times": "Mo-Fr 13:00; Sa 10:45", "name": "USPS COLLECTION BOX - PO LOBBY", "note": "ON 12/24 AND 12/31, THIS BOX MAY BE COLLECTED AS EARLY AS 12 NOON.", "nsi_id": "unitedstatespostalservice-a77078", "operator": "United States Postal Service", "operator:short": "USPS", "operator:type": "public", "operator:wikidata": "Q668687", "ref": "1952300001"}, "type": "Feature"}
{"dataset_attributes": {"@spider": "usps_collection_boxes"}, "geometry": {"coordinates": [-75.837074012, 40.20591536], "type": "Point"}, "id": "PIOgVLGTNuz8FLRUGu2cv_FXw2o=", "properties": {"@spider": "usps_collection_boxes", "addr:city": "GEIGERTOWN", "addr:country": "US", "addr:full": "3291 HAYCREEK RD", "addr:postcode": "19523", "addr:state": "PA", "amenity": "post_box", "brand": "United States Postal Service", "brand:wikidata": "Q668687", "collection_times": "Mo-Fr 13:00; Sa 11:00", "name": "USPS COLLECTION BOX - PO LOBBY", "note": "ON 12/24 AND 12/31, THIS BOX MAY BE COLLECTED AS EARLY AS 12 NOON.", "nsi_id": "unitedstatespostalservice-a77078", "operator": "United States Postal Service", "operator:short": "USPS", "operator:type": "public", "operator:wikidata": "Q668687", "ref": "1952300004"}, "type": "Feature"}
{"dataset_attributes": {"@spider": "usps_collection_boxes"}, "geometry": {"coordinates": [-75.6067241, 40.31475], "type": "Point"}, "id": "Cs5F94FMA5leIZC5LT0oZUYGVuc=", "properties": {"@spider": "usps_collection_boxes", "addr:city": "GILBERTSVILLE", "addr:country": "US", "addr:full": "1516 SWAMP PIKE", "addr:postcode": "19525", "addr:state": "PA", "amenity": "post_box", "brand": "United States Postal Service", "brand:wikidata": "Q668687", "collection_times": "Mo-Fr 16:15; Sa 12:00", "name": "USPS COLLECTION BOX - BLUE BOX", "note": "ON 12/24 AND 12/31, THIS BOX MAY BE COLLECTED AS EARLY AS 12 NOON.", "nsi_id": "unitedstatespostalservice-a77078", "operator": "United States Postal Service", "operator:short": "USPS", "operator:type": "public", "operator:wikidata": "Q668687", "ref": "1952500003"}, "type": "Feature"}
{"dataset_attributes": {"@spider": "usps_collection_boxes"}, "geometry": {"coordinates": [-75.6068135, 40.314803], "type": "Point"}, "id": "xL1vNUhJiDcEuAE3my4hs8sok6E=", "properties": {"@spider": "usps_collection_boxes", "addr:city": "GILBERTSVILLE", "addr:country": "US", "addr:full": "1516 SWAMP PIKE", "addr:postcode": "19525", "addr:state": "PA", "amenity": "post_box", "brand": "United States Postal Service", "brand:wikidata": "Q668687", "collection_times": "Mo-Fr 16:15; Sa 12:00", "name": "USPS COLLECTION BOX - BLUE BOX", "note": "ON 12/24 AND 12/31, THIS BOX MAY BE COLLECTED AS EARLY AS 12 NOON.", "nsi_id": "unitedstatespostalservice-a77078", "operator": "United States Postal Service", "operator:short": "USPS", "operator:type": "public", "operator:wikidata": "Q668687", "ref": "1952500004"}, "type": "Feature"}
{"dataset_attributes": {"@spider": "usps_collection_boxes"}, "geometry": {"coordinates": [-75.5864094, 40.301331], "type": "Point"}, "id": "Q6hVEZ_7E3KzWChzj3Flf0FXNCE=", "properties": {"@spider": "usps_collection_boxes", "addr:city": "GILBERTSVILLE", "addr:country": "US", "addr:full": "1885 SWAMP PIKE", "addr:postcode": "19525", "addr:state": "PA", "amenity": "post_box", "brand": "United States Postal Service", "brand:wikidata": "Q668687", "collection_times": "Mo-Sa 09:30", "name": "USPS COLLECTION BOX - BLUE BOX", "nsi_id": "unitedstatespostalservice-a77078", "operator": "United States Postal Service", "operator:short": "USPS", "operator:type": "public", "operator:wikidata": "Q668687", "ref": "1952500006"}, "type": "Feature"}
{"dataset_attributes": {"@spider": "usps_collection_boxes"}, "geometry": {"coordinates": [-75.6068353, 40.314702], "type": "Point"}, "id": "y1Hye15kMWJAj3mOEwklTwOed7c=", "properties": {"@spider": "usps_collection_boxes", "addr:city": "GILBERTSVILLE", "addr:country": "US", "addr:full": "1516 SWAMP PIKE", "addr:postcode": "19525", "addr:state": "PA", "amenity": "post_box", "brand": "United States Postal Service", "brand:wikidata": "Q668687", "collection_times": "Mo-Fr 16:15; Sa 12:00", "name": "USPS COLLECTION BOX - PO LOBBY", "note": "ON 12/24 AND 12/31, THIS BOX MAY BE COLLECTED AS EARLY AS 12 NOON.", "nsi_id": "unitedstatespostalservice-a77078", "operator": "United States Postal Service", "operator:short": "USPS", "operator:type": "public", "operator:wikidata": "Q668687", "ref": "1952500007"}, "type": "Feature"}
{"dataset_attributes": {"@spider": "usps_collection_boxes"}, "geometry": {"coordinates": [-75.60639985, 40.315016172], "type": "Point"}, "id": "Ey3NGYFTNP6EA3WH3SOazVWHjy4=", "properties": {"@spider": "usps_collection_boxes", "addr:city": "GILBERTSVILLE", "addr:country": "US", "addr:full": "1516 SWAMP PIKE", "addr:postcode": "19525", "addr:state": "PA", "amenity": "post_box", "brand": "United States Postal Service", "brand:wikidata": "Q668687", "collection_times": "Mo-Fr 16:15; Sa 12:00", "name": "USPS COLLECTION BOX - PO LOBBY", "note": "ON 12/24 AND 12/31, THIS BOX MAY BE COLLECTED AS EARLY AS 12 NOON.", "nsi_id": "unitedstatespostalservice-a77078", "operator": "United States Postal Service", "operator:short": "USPS", "operator:type": "public", "operator:wikidata": "Q668687", "ref": "1952500010"}, "type": "Feature"}
{"dataset_attributes": {"@spider": "usps_collection_boxes"}, "geometry": {"coordinates": [-75.9802719, 40.555624], "type": "Point"}, "id": "HvNpcCJ9fxvv2l0EIuePhRETXsE=", "properties": {"@spider": "usps_collection_boxes", "addr:city": "HAMBURG", "addr:country": "US", "addr:full": "552 STATE ST", "addr:postcode": "19526", "addr:state": "PA", "amenity": "post_box", "brand": "United States Postal Service", "brand:wikidata": "Q668687", "collection_times": "Mo-Sa 13:00", "name": "USPS COLLECTION BOX - BLUE BOX", "note": "ON 12/24 AND 12/31, THIS BOX MAY BE COLLECTED AS EARLY AS 12 NOON.", "nsi_id": "unitedstatespostalservice-a77078", "operator": "United States Postal Service", "operator:short": "USPS", "operator:type": "public", "operator:wikidata": "Q668687", "ref": "1952600029"}, "type": "Feature"}
{"dataset_attributes": {"@spider": "usps_collection_boxes"}, "geometry": {"coordinates": [-75.9841628, 40.55894], "type": "Point"}, "id": "ZfRh_hjMF8AYlAVUo7xst5FipJA=", "properties": {"@spider": "usps_collection_boxes", "addr:city": "HAMBURG", "addr:country": "US", "addr:full": "200 N 4TH ST", "addr:postcode": "19526", "addr:state": "PA", "amenity": "post_box", "brand": "United States Postal Service", "brand:wikidata": "Q668687", "collection_times": "Mo-Sa 12:00", "name": "USPS COLLECTION BOX - BLUE BOX", "nsi_id": "unitedstatespostalservice-a77078", "operator": "United States Postal Service", "operator:short": "USPS", "operator:type": "public", "operator:wikidata": "Q668687", "ref": "1952600032"}, "type": "Feature"}
{"dataset_attributes": {"@spider": "usps_collection_boxes"}, "geometry": {"coordinates": [-75.9816952, 40.553466], "type": "Point"}, "id": "0tDBlRRTHyWvU-NT6RbRs0Od6vM=", "properties": {"@spider": "usps_collection_boxes", "addr:city": "HAMBURG", "addr:country": "US", "addr:full": "81 S 4TH ST", "addr:postcode": "19526", "addr:state": "PA", "amenity": "post_box", "brand": "United States Postal Service", "brand:wikidata": "Q668687", "collection_times": "Mo-Sa 13:30", "name": "USPS COLLECTION BOX - BLUE BOX", "note": "ON 12/24 AND 12/31, THIS BOX MAY BE COLLECTED AS EARLY AS 12 NOON.", "nsi_id": "unitedstatespostalservice-a77078", "operator": "United States Postal Service", "operator:short": "USPS", "operator:type": "public", "operator:wikidata": "Q668687", "ref": "1952600037"}, "type": "Feature"}
{"dataset_attributes": {"@spider": "usps_collection_boxes"}, "geometry": {"coordinates": [-75.9876549, 40.562287], "type": "Point"}, "id": "z3ObjN3yjI8nvOeqY-l5A2DuU1U=", "properties": {"@spider": "usps_collection_boxes", "addr:city": "HAMBURG", "addr:country": "US", "addr:full": "100 CHESTNUT ST", "addr:postcode": "19526", "addr:state": "PA", "amenity": "post_box", "brand": "United States Postal Service", "brand:wikidata": "Q668687", "collection_times": "Mo-Sa 09:00", "name": "USPS COLLECTION BOX - BLUE BOX", "nsi_id": "unitedstatespostalservice-a77078", "operator": "United States Postal Service", "operator:short": "USPS", "operator:type": "public", "operator:wikidata": "Q668687", "ref": "1952600047"}, "type": "Feature"}
{"dataset_attributes": {"@spider": "usps_collection_boxes"}, "geometry": {"coordinates": [-75.984298, 40.555848], "type": "Point"}, "id": "mJwv_9WLiaiVhFianl721jp9MvI=", "properties": {"@spider": "usps_collection_boxes", "addr:city": "HAMBURG", "addr:country": "US", "addr:full": "50 N 3RD ST", "addr:postcode": "19526", "addr:state": "PA", "amenity": "post_box", "brand": "United States Postal Service", "brand:wikidata": "Q668687", "collection_times": "Mo-Fr 16:30; Sa 15:30", "name": "USPS COLLECTION BOX - BLUE BOX", "note": "ON 12/24 AND 12/31, THIS BOX MAY BE COLLECTED AS EARLY AS 12 NOON.", "nsi_id": "unitedstatespostalservice-a77078", "operator": "United States Postal Service", "operator:short": "USPS", "operator:type": "public", "operator:wikidata": "Q668687", "ref": "1952600052"}, "type": "Feature"}
{"dataset_attributes": {"@spider": "usps_collection_boxes"}, "geometry": {"coordinates": [-75.984253, 40.555826], "type": "Point"}, "id": "O6gQ6HpIoy0qipmlEvZRuzErwNI=", "properties": {"@spider": "usps_collection_boxes", "addr:city": "HAMBURG", "addr:country": "US", "addr:full": "50 N 3RD ST", "addr:postcode": "19526", "addr:state": "PA", "amenity": "post_box", "brand": "United States Postal Service", "brand:wikidata": "Q668687", "collection_times": "Mo-Fr 16:30; Sa 15:30", "name": "USPS COLLECTION BOX - BLUE BOX", "note": "ON 12/24 AND 12/31, THIS BOX MAY BE COLLECTED AS EARLY AS 12 NOON.", "nsi_id": "unitedstatespostalservice-a77078", "operator": "United States Postal Service", "operator:short": "USPS", "operator:type": "public", "operator:wikidata": "Q668687", "ref": "1952600054"}, "type": "Feature"}
{"dataset_attributes": {"@spider": "usps_collection_boxes"}, "geometry": {"coordinates": [-75.984253, 40.555826], "type": "Point"}, "id": "SRBfOp5CVFOugVfFzgTEfUYXs9U=", "properties": {"@spider": "usps_collection_boxes", "addr:city": "HAMBURG", "addr:country": "US", "addr:full": "50 N 3RD ST", "addr:postcode": "19526", "addr:state": "PA", "amenity": "post_box", "brand": "United States Postal Service", "brand:wikidata": "Q668687", "collection_times": "Mo-Fr 16:30; Sa 15:30", "name": "USPS COLLECTION BOX - PO LOBBY", "note": "ON 12/24 AND 12/31, THIS BOX MAY BE COLLECTED AS EARLY AS 12 NOON.", "nsi_id": "unitedstatespostalservice-a77078", "operator": "United States Postal Service", "operator:short": "USPS", "operator:type": "public", "operator:wikidata": "Q668687", "ref": "1952600057"}, "type": "Feature"}
{"dataset_attributes": {"@spider": "usps_collection_boxes"}, "geometry": {"coordinates": [-75.984317102, 40.555815266], "type": "Point"}, "id": "rrre-7fTpMw-gKQzLm5yYcpC7L0=", "properties": {"@spider": "usps_collection_boxes", "addr:city": "HAMBURG", "addr:country": "US", "addr:full": "50 N 3RD ST", "addr:postcode": "19526", "addr:state": "PA", "amenity": "post_box", "brand": "United States Postal Service", "brand:wikidata": "Q668687", "collection_times": "Mo-Fr 17:00; Sa 12:00", "name": "USPS COLLECTION BOX - PO LOBBY", "note": "ON 12/24 AND 12/31, THIS BOX MAY BE COLLECTED AS EARLY AS 12 NOON.", "nsi_id": "unitedstatespostalservice-a77078", "operator": "United States Postal Service", "operator:short": "USPS", "operator:type": "public", "operator:wikidata": "Q668687", "ref": "1952600060"}, "type": "Feature"}
{"dataset_attributes": {"@spider": "usps_collection_boxes"}, "geometry": {"coordinates": [-75.860591, 40.623945], "type": "Point"}, "id": "KtsaVW7_jMnDri5dt5Ly5PDgjoI=", "properties": {"@spider": "usps_collection_boxes", "addr:city": "KEMPTON", "addr:country": "US", "addr:full": "3759 ROUTE 737", "addr:postcode": "19529", "addr:state": "PA", "amenity": "post_box", "brand": "United States Postal Service", "brand:wikidata": "Q668687", "collection_times": "Mo-Fr 16:00; Sa 10:30", "name": "USPS COLLECTION BOX - BLUE BOX", "note": "ON 12/24 AND 12/31, THIS BOX MAY BE COLLECTED AS EARLY AS 12 NOON.", "nsi_id": "unitedstatespostalservice-a77078", "operator": "United States Postal Service", "operator:short": "USPS", "operator:type": "public", "operator:wikidata": "Q668687", "ref": "1952900001"}, "type": "Feature"}
{"dataset_attributes": {"@spider": "usps_collection_boxes"}, "geometry": {"coordinates": [-75.860583, 40.623919], "type": "Point"}, "id": "kp_YUthiLObBE5HIrLf49BumpMY=", "properties": {"@spider": "usps_collection_boxes", "addr:city": "KEMPTON", "addr:country": "US", "addr:full": "3759 ROUTE 737", "addr:postcode": "19529", "addr:state": "PA", "amenity": "post_box", "brand": "United States Postal Service", "brand:wikidata": "Q668687", "collection_times": "Mo-Fr 16:00; Sa 10:30", "name": "USPS COLLECTION BOX - PO LOBBY", "note": "ON 12/24 AND 12/31, THIS BOX MAY BE COLLECTED AS EARLY AS 12 NOON.", "nsi_id": "unitedstatespostalservice-a77078", "operator": "United States Postal Service", "operator:short": "USPS", "operator:type": "public", "operator:wikidata": "Q668687", "ref": "1952900002"}, "type": "Feature"}
{"dataset_attributes": {"@spider": "usps_collection_boxes"}, "geometry": {"coordinates": [-75.860094169, 40.623969497], "type": "Point"}, "id": "rD1xlW3FU9ar7O1QGnyxuJFEzGg=", "properties": {"@spider": "usps_collection_boxes", "addr:city": "KEMPTON", "addr:country": "US", "addr:full": "3759 ROUTE 737", "addr:postcode": "19529", "addr:state": "PA", "amenity": "post_box", "brand": "United States Postal Service", "brand:wikidata": "Q668687", "collection_times": "Mo-Fr 16:30; Sa 10:30", "name": "USPS COLLECTION BOX - PO LOBBY", "note": "ON 12/24 AND 12/31, THIS BOX MAY BE COLLECTED AS EARLY AS 12 NOON.", "nsi_id": "unitedstatespostalservice-a77078", "operator": "United States Postal Service", "operator:short": "USPS", "operator:type": "public", "operator:wikidata": "Q668687", "ref": "1952900004"}, "type": "Feature"}
{"dataset_attributes": {"@spider": "usps_collection_boxes"}, "geometry": {"coordinates": [-75.7831604, 40.509073], "type": "Point"}, "id": "Bp2cY_W1hSjto4P2xK2q4T9I9lk=", "properties": {"@spider": "usps_collection_boxes", "addr:city": "KUTZTOWN", "addr:country": "US", "addr:full": "15200 KUTZTOWN RD", "addr:postcode": "19530", "addr:state": "PA", "amenity": "post_box", "brand": "United States Postal Service", "brand:wikidata": "Q668687", "collection_times": "Mo-Fr 13:30; Sa 09:30", "name": "USPS COLLECTION BOX - BLUE BOX", "note": "ON 12/24 AND 12/31, THIS BOX MAY BE COLLECTED AS EARLY AS 12 NOON.", "nsi_id": "unitedstatespostalservice-a77078", "operator": "United States Postal Service", "operator:short": "USPS", "operator:type": "public", "operator:wikidata": "Q668687", "ref": "1953000015"}, "type": "Feature"}
{"dataset_attributes": {"@spider": "usps_collection_boxes"}, "geometry": {"coordinates": [-75.779963, 40.5145], "type": "Point"}, "id": "R7D_97xbfBvwey2vQ3jYJpHO4_o=", "properties": {"@spider": "usps_collection_boxes", "addr:city": "KUTZTOWN", "addr:country": "US", "addr:full": "357 W MAIN ST", "addr:postcode": "19530", "addr:state": "PA", "amenity": "post_box", "brand": "United States Postal Service", "brand:wikidata": "Q668687", "collection_times": "Mo-Sa 12:00", "name": "USPS COLLECTION BOX - BLUE BOX", "nsi_id": "unitedstatespostalservice-a77078", "operator": "United States Postal Service", "operator:short": "USPS", "operator:type": "public", "operator:wikidata": "Q668687", "ref": "1953000025"}, "type": "Feature"}
{"dataset_attributes": {"@spider": "usps_collection_boxes"}, "geometry": {"coordinates": [-75.771496, 40.521338], "type": "Point"}, "id": "0nzUz-0eorxL0nsmBt2WHudFqzo=", "properties": {"@spider": "usps_collection_boxes", "addr:city": "KUTZTOWN", "addr:country": "US", "addr:full": "235 GRIMLEY ST", "addr:postcode": "19530", "addr:state": "PA", "amenity": "post_box", "brand": "United States Postal Service", "brand:wikidata": "Q668687", "collection_times": "Mo-Fr 16:30; Sa 13:30", "name": "USPS COLLECTION BOX - BLUE BOX", "note": "ON 12/24 AND 12/31, THIS BOX MAY BE COLLECTED AS EARLY AS 12 NOON.", "nsi_id": "unitedstatespostalservice-a77078", "operator": "United States Postal Service", "operator:short": "USPS", "operator:type": "public", "operator:wikidata": "Q668687", "ref": "1953000032"}, "type": "Feature"}
{"dataset_attributes": {"@spider": "usps_collection_boxes"}, "geometry": {"coordinates": [-75.7753214, 40.51757], "type": "Point"}, "id": "IczWoZNRM2kn7KuuSD-fFR52zrI=", "properties": {"@spider": "usps_collection_boxes", "addr:city": "KUTZTOWN", "addr:country": "US", "addr:full": "45 CONSTITUTION BLVD", "addr:postcode": "19530", "addr:state": "PA", "amenity": "post_box", "brand": "United States Postal Service", "brand:wikidata": "Q668687", "collection_times": "Mo-Sa 12:00", "name": "USPS COLLECTION BOX - BLUE BOX", "nsi_id": "unitedstatespostalservice-a77078", "operator": "United States Postal Service", "operator:short": "USPS", "operator:type": "public", "operator:wikidata": "Q668687", "ref": "1953000035"}, "type": "Feature"}
{"dataset_attributes": {"@spider": "usps_collection_boxes"}, "geometry": {"coordinates": [-75.7770563, 40.518511], "type": "Point"}, "id": "nzrPc6YK5aVxSw5v2jlL5E5VhrI=", "properties": {"@spider": "usps_collection_boxes", "addr:city": "KUTZTOWN", "addr:country": "US", "addr:full": "13 GREENWICH ST", "addr:postcode": "19530", "addr:state": "PA", "amenity": "post_box", "brand": "United States Postal Service", "brand:wikidata": "Q668687", "collection_times": "Mo-Sa 09:30", "name": "USPS COLLECTION BOX - BLUE BOX", "nsi_id": "unitedstatespostalservice-a77078", "operator": "United States Postal Service", "operator:short": "USPS", "operator:type": "public", "operator:wikidata": "Q668687", "ref": "1953000039"}, "type": "Feature"}
{"dataset_attributes": {"@spider": "usps_collection_boxes"}, "geometry": {"coordinates": [-75.771497, 40.521292], "type": "Point"}, "id": "M3L-XiYcl-4Dszx6nKeCazz004I=", "properties": {"@spider": "usps_collection_boxes", "addr:city": "KUTZTOWN", "addr:country": "US", "addr:full": "235 GRIMLEY ST", "addr:postcode": "19530", "addr:state": "PA", "amenity": "post_box", "brand": "United States Postal Service", "brand:wikidata": "Q668687", "collection_times": "Mo-Fr 16:30; Sa 13:30", "name": "USPS COLLECTION BOX - PO LOBBY", "note": "ON 12/24 AND 12/31, THIS BOX MAY BE COLLECTED AS EARLY AS 12 NOON.", "nsi_id": "unitedstatespostalservice-a77078", "operator": "United States Postal Service", "operator:short": "USPS", "operator:type": "public", "operator:wikidata": "Q668687", "ref": "1953000041"}, "type": "Feature"}
{"dataset_attributes": {"@spider": "usps_collection_boxes"}, "geometry": {"coordinates": [-75.7528906, 40.582368], "type": "Point"}, "id": "IqN7-7NJ1tZP2Qzapc6FXBg8mzI=", "properties": {"@spider": "usps_collection_boxes", "addr:city": "KUTZTOWN", "addr:country": "US", "addr:full": "60 OLD 22", "addr:postcode": "19530", "addr:state": "PA", "amenity": "post_box", "brand": "United States Postal Service", "brand:wikidata": "Q668687", "collection_times": "Mo-Sa 11:00", "name": "USPS COLLECTION BOX - BLUE BOX", "nsi_id": "unitedstatespostalservice-a77078", "operator": "United States Postal Service", "operator:short": "USPS", "operator:type": "public", "operator:wikidata": "Q668687", "ref": "1953000042"}, "type": "Feature"}
{"dataset_attributes": {"@spider": "usps_collection_boxes"}, "geometry": {"coordinates": [-75.7766429, 40.518436], "type": "Point"}, "id": "YoahiESjJvcDBd-87r5VTtmakPM=", "properties": {"@spider": "usps_collection_boxes", "addr:city": "KUTZTOWN", "addr:country": "US", "addr:full": "125 W MAIN ST", "addr:postcode": "19530", "addr:state": "PA", "amenity": "post_box", "brand": "United States Postal Service", "brand:wikidata": "Q668687", "collection_times": "Mo-Fr 09:30; Sa 08:45", "name": "USPS COLLECTION BOX - BLUE BOX", "nsi_id": "unitedstatespostalservice-a77078", "operator": "United States Postal Service", "operator:short": "USPS", "operator:type": "public", "operator:wikidata": "Q668687", "ref": "1953000043"}, "type": "Feature"}
{"dataset_attributes": {"@spider": "usps_collection_boxes"}, "geometry": {"coordinates": [-75.771653407, 40.521173907], "type": "Point"}, "id": "jxdoffDZgCRGTUXkDnAsddbqFl0=", "properties": {"@spider": "usps_collection_boxes", "addr:city": "KUTZTOWN", "addr:country": "US", "addr:full": "235 GRIMLEY ST", "addr:postcode": "19530", "addr:state": "PA", "amenity": "post_box", "brand": "United States Postal Service", "brand:wikidata": "Q668687", "collection_times": "Mo-Fr 16:30; Sa 11:00", "name": "USPS COLLECTION BOX - PO LOBBY", "note": "ON 12/24 AND 12/31, THIS BOX MAY BE COLLECTED AS EARLY AS 12 NOON.", "nsi_id": "unitedstatespostalservice-a77078", "operator": "United States Postal Service", "operator:short": "USPS", "operator:type": "public", "operator:wikidata": "Q668687", "ref": "1953000046"}, "type": "Feature"}
{"dataset_attributes": {"@spider": "usps_collection_boxes"}, "geometry": {"coordinates": [-75.96781, 40.445997], "type": "Point"}, "id": "fFM7E2IFQfB2x-Mb17hDFIF7Z7c=", "properties": {"@spider": "usps_collection_boxes", "addr:city": "LEESPORT", "addr:country": "US", "addr:full": "4 E WALL ST", "addr:postcode": "19533", "addr:state": "PA", "amenity": "post_box", "brand": "United States Postal Service", "brand:wikidata": "Q668687", "collection_times": "Mo-Fr 16:30; Sa 11:00", "name": "USPS COLLECTION BOX - BLUE BOX", "note": "ON 12/24 AND 12/31, THIS BOX MAY BE COLLECTED AS EARLY AS 12 NOON.", "nsi_id": "unitedstatespostalservice-a77078", "operator": "United States Postal Service", "operator:short": "USPS", "operator:type": "public", "operator:wikidata": "Q668687", "ref": "1953300000"}, "type": "Feature"}
{"dataset_attributes": {"@spider": "usps_collection_boxes"}, "geometry": {"coordinates": [-75.967918, 40.445952], "type": "Point"}, "id": "x4Zn0LAp0_MaNLT4b4k87tGpaas=", "properties": {"@spider": "usps_collection_boxes", "addr:city": "LEESPORT", "addr:country": "US", "addr:full": "4 E WALL ST", "addr:postcode": "19533", "addr:state": "PA", "amenity": "post_box", "brand": "United States Postal Service", "brand:wikidata": "Q668687", "collection_times": "Mo-Fr 16:30; Sa 11:00", "name": "USPS COLLECTION BOX - PO LOBBY", "note": "ON 12/24 AND 12/31, THIS BOX MAY BE COLLECTED AS EARLY AS 12 NOON.", "nsi_id": "unitedstatespostalservice-a77078", "operator": "United States Postal Service", "operator:short": "USPS", "operator:type": "public", "operator:wikidata": "Q668687", "ref": "1953300001"}, "type": "Feature"}
{"dataset_attributes": {"@spider": "usps_collection_boxes"}, "geometry": {"coordinates": [-75.967843665, 40.445973253], "type": "Point"}, "id": "QF7ie7KFUiRGkPK90l-dLozoh2c=", "properties": {"@spider": "usps_collection_boxes", "addr:city": "LEESPORT", "addr:country": "US", "addr:full": "4 E WALL ST", "addr:postcode": "19533", "addr:state": "PA", "amenity": "post_box", "brand": "United States Postal Service", "brand:wikidata": "Q668687", "collection_times": "Mo-Fr 16:30; Sa 11:00", "name": "USPS COLLECTION BOX - PO LOBBY", "note": "ON 12/24 AND 12/31, THIS BOX MAY BE COLLECTED AS EARLY AS 12 NOON.", "nsi_id": "unitedstatespostalservice-a77078", "operator": "United States Postal Service", "operator:short": "USPS", "operator:type": "public", "operator:wikidata": "Q668687", "ref": "1953300005"}, "type": "Feature"}
{"dataset_attributes": {"@spider": "usps_collection_boxes"}, "geometry": {"coordinates": [-75.884289, 40.573332], "type": "Point"}, "id": "-k7q9x7NWzSwdv_xTALoS5F9wFo=", "properties": {"@spider": "usps_collection_boxes", "addr:city": "LENHARTSVILLE", "addr:country": "US", "addr:full": "83 PENN ST", "addr:postcode": "19534", "addr:state": "PA", "amenity": "post_box", "brand": "United States Postal Service", "brand:wikidata": "Q668687", "collection_times": "Mo-Fr 16:00; Sa 10:00", "name": "USPS COLLECTION BOX - BLUE BOX", "note": "ON 12/24 AND 12/31, THIS BOX MAY BE COLLECTED AS EARLY AS 12 NOON.", "nsi_id": "unitedstatespostalservice-a77078", "operator": "United States Postal Service", "operator:short": "USPS", "operator:type": "public", "operator:wikidata": "Q668687", "ref": "1953400001"}, "type": "Feature"}
{"dataset_attributes": {"@spider": "usps_collection_boxes"}, "geometry": {"coordinates": [-75.884371, 40.573308], "type": "Point"}, "id": "P3joxl9QGz4VkXBY7mnx5pCQMwc=", "properties": {"@spider": "usps_collection_boxes", "addr:city": "LENHARTSVILLE", "addr:country": "US", "addr:full": "83 PENN ST", "addr:postcode": "19534", "addr:state": "PA", "amenity": "post_box", "brand": "United States Postal Service", "brand:wikidata": "Q668687", "collection_times": "Mo-Fr 16:00; Sa 10:00", "name": "USPS COLLECTION BOX - PO LOBBY", "note": "ON 12/24 AND 12/31, THIS BOX MAY BE COLLECTED AS EARLY AS 12 NOON.", "nsi_id": "unitedstatespostalservice-a77078", "operator": "United States Postal Service", "operator:short": "USPS", "operator:type": "public", "operator:wikidata": "Q668687", "ref": "1953400002"}, "type": "Feature"}
{"dataset_attributes": {"@spider": "usps_collection_boxes"}, "geometry": {"coordinates": [-75.886976687, 40.572856831], "type": "Point"}, "id": "LpqWBSj1I0bhRDjGb7SYhCZCy9k=", "properties": {"@spider": "usps_collection_boxes", "addr:city": "LENHARTSVILLE", "addr:country": "US", "addr:full": "83 PENN ST", "addr:postcode": "19534", "addr:state": "PA", "amenity": "post_box", "brand": "United States Postal Service", "brand:wikidata": "Q668687", "collection_times": "Mo-Fr 16:00; Sa 11:00", "name": "USPS COLLECTION BOX - PO LOBBY", "note": "ON 12/24 AND 12/31, THIS BOX MAY BE COLLECTED AS EARLY AS 12 NOON.", "nsi_id": "unitedstatespostalservice-a77078", "operator": "United States Postal Service", "operator:short": "USPS", "operator:type": "public", "operator:wikidata": "Q668687", "ref": "1953400004"}, "type": "Feature"}
{"dataset_attributes": {"@spider": "usps_collection_boxes"}, "geometry": {"coordinates": [-75.804712, 40.34285], "type": "Point"}, "id": "ioxiRB9OytCYL6-DKBcF0IIbW0c=", "properties": {"@spider": "usps_collection_boxes", "addr:city": "LIMEKILN", "addr:country": "US", "addr:full": "820 LIMEKILN RD", "addr:postcode": "19535", "addr:state": "PA", "amenity": "post_box", "brand": "United States Postal Service", "brand:wikidata": "Q668687", "collection_times": "Mo-Fr 16:30; Sa 11:15", "name": "USPS COLLECTION BOX - BLUE BOX", "note": "ON 12/24 AND 12/31, THIS BOX MAY BE COLLECTED AS EARLY AS 12 NOON.", "nsi_id": "unitedstatespostalservice-a77078", "operator": "United States Postal Service", "operator:short": "USPS", "operator:type": "public", "operator:wikidata": "Q668687", "ref": "1953500002"}, "type": "Feature"}
{"dataset_attributes": {"@spider": "usps_collection_boxes"}, "geometry": {"coordinates": [-75.804724, 40.342926], "type": "Point"}, "id": "sYiD909utrwWxfZpIn7pvxIJ72U=", "properties": {"@spider": "usps_collection_boxes", "addr:city": "LIMEKILN", "addr:country": "US", "addr:full": "820 LIMEKILN RD", "addr:postcode": "19535", "addr:state": "PA", "amenity": "post_box", "brand": "United States Postal Service", "brand:wikidata": "Q668687", "collection_times": "Mo-Fr 16:30; Sa 11:15", "name": "USPS COLLECTION BOX - PO LOBBY", "note": "ON 12/24 AND 12/31, THIS BOX MAY BE COLLECTED AS EARLY AS 12 NOON.", "nsi_id": "unitedstatespostalservice-a77078", "operator": "United States Postal Service", "operator:short": "USPS", "operator:type": "public", "operator:wikidata": "Q668687", "ref": "1953500003"}, "type": "Feature"}
{"dataset_attributes": {"@spider": "usps_collection_boxes"}, "geometry": {"coordinates": [-75.80456995, 40.342668183], "type": "Point"}, "id": "TuUT9VUS4Hvm6fZSMCNSHEK9s1I=", "properties": {"@spider": "usps_collection_boxes", "addr:city": "LIMEKILN", "addr:country": "US", "addr:full": "820 LIMEKILN RD", "addr:postcode": "19535", "addr:state": "PA", "amenity": "post_box", "brand": "United States Postal Service", "brand:wikidata": "Q668687", "collection_times": "Mo-Fr 16:45; Sa 11:30", "name": "USPS COLLECTION BOX - PO LOBBY", "note": "ON 12/24 AND 12/31, THIS BOX MAY BE COLLECTED AS EARLY AS 12 NOON.", "nsi_id": "unitedstatespostalservice-a77078", "operator": "United States Postal Service", "operator:short": "USPS", "operator:type": "public", "operator:wikidata": "Q668687", "ref": "1953500005"}, "type": "Feature"}
{"dataset_attributes": {"@spider": "usps_collection_boxes"}, "geometry": {"coordinates": [-75.758415, 40.480346], "type": "Point"}, "id": "lyX7f1BRD31nmYYzASWcjClBJfU=", "properties": {"@spider": "usps_collection_boxes", "addr:city": "LYON STATION", "addr:country": "US", "addr:full": "104 S KEMP ST", "addr:postcode": "19536", "addr:state": "PA", "amenity": "post_box", "brand": "United States Postal Service", "brand:wikidata": "Q668687", "collection_times": "Mo-Fr 12:00; Sa 11:00", "name": "USPS COLLECTION BOX - BLUE BOX", "nsi_id": "unitedstatespostalservice-a77078", "operator": "United States Postal Service", "operator:short": "USPS", "operator:type": "public", "operator:wikidata": "Q668687", "ref": "1953600001"}, "type": "Feature"}
{"dataset_attributes": {"@spider": "usps_collection_boxes"}, "geometry": {"coordinates": [-75.758472, 40.480422], "type": "Point"}, "id": "BzIGzSjjp_wi4h4LQngao0vo3QM=", "properties": {"@spider": "usps_collection_boxes", "addr:city": "LYON STATION", "addr:country": "US", "addr:full": "104 S KEMP ST", "addr:postcode": "19536", "addr:state": "PA", "amenity": "post_box", "brand": "United States Postal Service", "brand:wikidata": "Q668687", "collection_times": "Mo-Fr 12:00; Sa 11:00", "name": "USPS COLLECTION BOX - PO LOBBY", "nsi_id": "unitedstatespostalservice-a77078", "operator": "United States Postal Service", "operator:short": "USPS", "operator:type": "public", "operator:wikidata": "Q668687", "ref": "1953600002"}, "type": "Feature"}
{"dataset_attributes": {"@spider": "usps_collection_boxes"}, "geometry": {"coordinates": [-75.758394465, 40.48023971], "type": "Point"}, "id": "F7u8UJC2vYhdtZKWFcBcaDUOcHE=", "properties": {"@spider": "usps_collection_boxes", "addr:city": "LYON STATION", "addr:country": "US", "addr:full": "104 S KEMP ST", "addr:postcode": "19536", "addr:state": "PA", "amenity": "post_box", "brand": "United States Postal Service", "brand:wikidata": "Q668687", "collection_times": "Mo-Fr 12:00; Sa 11:00", "name": "USPS COLLECTION BOX - PO LOBBY", "nsi_id": "unitedstatespostalservice-a77078", "operator": "United States Postal Service", "operator:short": "USPS", "operator:type": "public", "operator:wikidata": "Q668687", "ref": "1953600005"}, "type": "Feature"}
{"dataset_attributes": {"@spider": "usps_collection_boxes"}, "geometry": {"coordinates": [-75.6898309, 40.542628], "type": "Point"}, "id": "aKmEIanZKYYbB_2udZwOeimuihw=", "properties": {"@spider": "usps_collection_boxes", "addr:city": "MAXATAWNY", "addr:country": "US", "addr:full": "15881 KUTZTOWN RD", "addr:postcode": "19538", "addr:state": "PA", "amenity": "post_box", "brand": "United States Postal Service", "brand:wikidata": "Q668687", "collection_times": "Mo-Fr 16:30; Sa 09:30", "name": "USPS COLLECTION BOX - BLUE BOX", "note": "ON 12/24 AND 12/31, THIS BOX MAY BE COLLECTED AS EARLY AS 12 NOON.", "nsi_id": "unitedstatespostalservice-a77078", "operator": "United States Postal Service", "operator:short": "USPS", "operator:type": "public", "operator:wikidata": "Q668687", "ref": "1953800002"}, "type": "Feature"}
{"dataset_attributes": {"@spider": "usps_collection_boxes"}, "geometry": {"coordinates": [-75.690105, 40.542474], "type": "Point"}, "id": "C4ShsQOJBtd98kR2LG2mKN7NIBo=", "properties": {"@spider": "usps_collection_boxes", "addr:city": "MAXATAWNY", "addr:country": "US", "addr:full": "15881 KUTZTOWN RD", "addr:postcode": "19538", "addr:state": "PA", "amenity": "post_box", "brand": "United States Postal Service", "brand:wikidata": "Q668687", "collection_times": "Mo-Fr 13:30; Sa 09:30", "name": "USPS COLLECTION BOX - PO LOBBY", "note": "ON 12/24 AND 12/31, THIS BOX MAY BE COLLECTED AS EARLY AS 12 NOON.", "nsi_id": "unitedstatespostalservice-a77078", "operator": "United States Postal Service", "operator:short": "USPS", "operator:type": "public", "operator:wikidata": "Q668687", "ref": "1953800003"}, "type": "Feature"}
{"dataset_attributes": {"@spider": "usps_collection_boxes"}, "geometry": {"coordinates": [-75.689587702, 40.542569286], "type": "Point"}, "id": "CF3bsVxiCMijdCqqTCE2E-BJqd4=", "properties": {"@spider": "usps_collection_boxes", "addr:city": "MAXATAWNY", "addr:country": "US", "addr:full": "15881 KUTZTOWN RD", "addr:postcode": "19538", "addr:state": "PA", "amenity": "post_box", "brand": "United States Postal Service", "brand:wikidata": "Q668687", "collection_times": "Mo-Fr 13:30; Sa 10:00", "name": "USPS COLLECTION BOX - PO LOBBY", "note": "ON 12/24 AND 12/31, THIS BOX MAY BE COLLECTED AS EARLY AS 12 NOON.", "nsi_id": "unitedstatespostalservice-a77078", "operator": "United States Postal Service", "operator:short": "USPS", "operator:type": "public", "operator:wikidata": "Q668687", "ref": "1953800005"}, "type": "Feature"}
{"dataset_attributes": {"@spider": "usps_collection_boxes"}, "geometry": {"coordinates": [-75.66572788, 40.505479417], "type": "Point"}, "id": "fX_i-O7PFqLm0L2_idWulfj6vvo=", "properties": {"@spider": "usps_collection_boxes", "addr:city": "MERTZTOWN", "addr:country": "US", "addr:full": "1001 STATE ST", "addr:postcode": "19539", "addr:state": "PA", "amenity": "post_box", "brand": "United States Postal Service", "brand:wikidata": "Q668687", "collection_times": "Mo-Fr 16:30; Sa 11:00", "name": "USPS COLLECTION BOX - BLUE BOX", "note": "ON 12/24 AND 12/31, THIS BOX MAY BE COLLECTED AS EARLY AS 12 NOON.", "nsi_id": "unitedstatespostalservice-a77078", "operator": "United States Postal Service", "operator:short": "USPS", "operator:type": "public", "operator:wikidata": "Q668687", "ref": "1953900001"}, "type": "Feature"}
{"dataset_attributes": {"@spider": "usps_collection_boxes"}, "geometry": {"coordinates": [-75.66656, 40.505461], "type": "Point"}, "id": "09eH3YntM0msCyACgSD9I325JQU=", "properties": {"@spider": "usps_collection_boxes", "addr:city": "MERTZTOWN", "addr:country": "US", "addr:full": "1001 STATE ST", "addr:postcode": "19539", "addr:state": "PA", "amenity": "post_box", "brand": "United States Postal Service", "brand:wikidata": "Q668687", "collection_times": "Mo-Fr 16:30; Sa 11:00", "name": "USPS COLLECTION BOX - PO LOBBY", "note": "ON 12/24 AND 12/31, THIS BOX MAY BE COLLECTED AS EARLY AS 12 NOON.", "nsi_id": "unitedstatespostalservice-a77078", "operator": "United States Postal Service", "operator:short": "USPS", "operator:type": "public", "operator:wikidata": "Q668687", "ref": "1953900002"}, "type": "Feature"}
{"dataset_attributes": {"@spider": "usps_collection_boxes"}, "geometry": {"coordinates": [-75.66572788, 40.505479417], "type": "Point"}, "id": "EPJb1ZVf-4tBNckizrxdcSSY2XY=", "properties": {"@spider": "usps_collection_boxes", "addr:city": "MERTZTOWN", "addr:country": "US", "addr:full": "1001 STATE ST", "addr:postcode": "19539", "addr:state": "PA", "amenity": "post_box", "brand": "United States Postal Service", "brand:wikidata": "Q668687", "collection_times": "Mo-Fr 16:30; Sa 11:00", "name": "USPS COLLECTION BOX - PO LOBBY", "note": "ON 12/24 AND 12/31, THIS BOX MAY BE COLLECTED AS EARLY AS 12 NOON.", "nsi_id": "unitedstatespostalservice-a77078", "operator": "United States Postal Service", "operator:short": "USPS", "operator:type": "public", "operator:wikidata": "Q668687", "ref": "1953900004"}, "type": "Feature"}
{"dataset_attributes": {"@spider": "usps_collection_boxes"}, "geometry": {"coordinates": [-75.979051, 40.291388], "type": "Point"}, "id": "tjnkncNiFXge2LoM93XF4UyRRiI=", "properties": {"@spider": "usps_collection_boxes", "addr:city": "MOHNTON", "addr:country": "US", "addr:full": "328 E WYOMISSING AVE", "addr:postcode": "19540", "addr:state": "PA", "amenity": "post_box", "brand": "United States Postal Service", "brand:wikidata": "Q668687", "collection_times": "Mo-Fr 16:30; Sa 12:00", "name": "USPS COLLECTION BOX - PO LOBBY", "note": "ON 12/24 AND 12/31, THIS BOX MAY BE COLLECTED AS EARLY AS 12 NOON.", "nsi_id": "unitedstatespostalservice-a77078", "operator": "United States Postal Service", "operator:short": "USPS", "operator:type": "public", "operator:wikidata": "Q668687", "ref": "1954000011"}, "type": "Feature"}
{"dataset_attributes": {"@spider": "usps_collection_boxes"}, "geometry": {"coordinates": [-75.979088, 40.291395], "type": "Point"}, "id": "v0FRGUs0E1_csx5hB-3WlmKYrv0=", "properties": {"@spider": "usps_collection_boxes", "addr:city": "MOHNTON", "addr:country": "US", "addr:full": "328 E WYOMISSING AVE", "addr:postcode": "19540", "addr:state": "PA", "amenity": "post_box", "brand": "United States Postal Service", "brand:wikidata": "Q668687", "collection_times": "Mo-Fr 16:30; Sa 12:00", "name": "USPS COLLECTION BOX - BLUE BOX", "note": "ON 12/24 AND 12/31, THIS BOX MAY BE COLLECTED AS EARLY AS 12 NOON.", "nsi_id": "unitedstatespostalservice-a77078", "operator": "United States Postal Service", "operator:short": "USPS", "operator:type": "public", "operator:wikidata": "Q668687", "ref": "1954000013"}, "type": "Feature"}
{"dataset_attributes": {"@spider": "usps_collection_boxes"}, "geometry": {"coordinates": [-75.979030259, 40.291389111], "type": "Point"}, "id": "wQxf-MBwku5s_fcEt4vww1FX6bU=", "properties": {"@spider": "usps_collection_boxes", "addr:city": "MOHNTON", "addr:country": "US", "addr:full": "328 E WYOMISSING AVE", "addr:postcode": "19540", "addr:state": "PA", "amenity": "post_box", "brand": "United States Postal Service", "brand:wikidata": "Q668687", "collection_times": "Mo-Fr 15:30; Sa 11:00", "name": "USPS COLLECTION BOX - PO LOBBY", "note": "ON 12/24 AND 12/31, THIS BOX MAY BE COLLECTED AS EARLY AS 12 NOON.", "nsi_id": "unitedstatespostalservice-a77078", "operator": "United States Postal Service", "operator:short": "USPS", "operator:type": "public", "operator:wikidata": "Q668687", "ref": "1954000015"}, "type": "Feature"}
{"dataset_attributes": {"@spider": "usps_collection_boxes"}, "geometry": {"coordinates": [-75.979262, 40.47413], "type": "Point"}, "id": "YeWMS5hNrlF7T5Hk-MP7ZRl2DH0=", "properties": {"@spider": "usps_collection_boxes", "addr:city": "MOHRSVILLE", "addr:country": "US", "addr:full": "518 MAIN ST", "addr:postcode": "19541", "addr:state": "PA", "amenity": "post_box", "brand": "United States Postal Service", "brand:wikidata": "Q668687", "collection_times": "Mo-Fr 16:30; Sa 11:30", "name": "USPS COLLECTION BOX - BLUE BOX", "note": "ON 12/24 AND 12/31, THIS BOX MAY BE COLLECTED AS EARLY AS 12 NOON.", "nsi_id": "unitedstatespostalservice-a77078", "operator": "United States Postal Service", "operator:short": "USPS", "operator:type": "public", "operator:wikidata": "Q668687", "ref": "1954100002"}, "type": "Feature"}
{"dataset_attributes": {"@spider": "usps_collection_boxes"}, "geometry": {"coordinates": [-76.0169727, 40.483362], "type": "Point"}, "id": "DIkFseCrNeRVlNt3wgPnm0sg7nE=", "properties": {"@spider": "usps_collection_boxes", "addr:city": "MOHRSVILLE", "addr:country": "US", "addr:full": "552 IRISH CREEK RD", "addr:postcode": "19541", "addr:state": "PA", "amenity": "post_box", "brand": "United States Postal Service", "brand:wikidata": "Q668687", "collection_times": "Mo-Sa 10:00", "name": "USPS COLLECTION BOX - BLUE BOX", "nsi_id": "unitedstatespostalservice-a77078", "operator": "United States Postal Service", "operator:short": "USPS", "operator:type": "public", "operator:wikidata": "Q668687", "ref": "1954100003"}, "type": "Feature"}
{"dataset_attributes": {"@spider": "usps_collection_boxes"}, "geometry": {"coordinates": [-75.97922, 40.474103], "type": "Point"}, "id": "mYBKiu_lhLBVsOpK_Jm07g-wPaU=", "properties": {"@spider": "usps_collection_boxes", "addr:city": "MOHRSVILLE", "addr:country": "US", "addr:full": "518 MAIN ST", "addr:postcode": "19541", "addr:state": "PA", "amenity": "post_box", "brand": "United States Postal Service", "brand:wikidata": "Q668687", "collection_times": "Mo-Fr 16:30; Sa 11:30", "name": "USPS COLLECTION BOX - PO LOBBY", "note": "ON 12/24 AND 12/31, THIS BOX MAY BE COLLECTED AS EARLY AS 12 NOON.", "nsi_id": "unitedstatespostalservice-a77078", "operator": "United States Postal Service", "operator:short": "USPS", "operator:type": "public", "operator:wikidata": "Q668687", "ref": "1954100004"}, "type": "Feature"}
{"dataset_attributes": {"@spider": "usps_collection_boxes"}, "geometry": {"coordinates": [-75.979729802, 40.474139446], "type": "Point"}, "id": "AVCFjRAJ3qEREq37_a4q2g1PcOk=", "properties": {"@spider": "usps_collection_boxes", "addr:city": "MOHRSVILLE", "addr:country": "US", "addr:full": "518 MAIN ST", "addr:postcode": "19541", "addr:state": "PA", "amenity": "post_box", "brand": "United States Postal Service", "brand:wikidata": "Q668687", "collection_times": "Mo-Fr 16:30; Sa 11:00", "name": "USPS COLLECTION BOX - PO LOBBY", "note": "ON 12/24 AND 12/31, THIS BOX MAY BE COLLECTED AS EARLY AS 12 NOON.", "nsi_id": "unitedstatespostalservice-a77078", "operator": "United States Postal Service", "operator:short": "USPS", "operator:type": "public", "operator:wikidata": "Q668687", "ref": "1954100006"}, "type": "Feature"}
{"dataset_attributes": {"@spider": "usps_collection_boxes"}, "geometry": {"coordinates": [-75.891099, 40.15499], "type": "Point"}, "id": "MZm6jcsZ5YppLdnK5SxGC36mJy4=", "properties": {"@spider": "usps_collection_boxes", "addr:city": "MORGANTOWN", "addr:country": "US", "addr:full": "101 MULBERRY ST", "addr:postcode": "19543", "addr:state": "PA", "amenity": "post_box", "brand": "United States Postal Service", "brand:wikidata": "Q668687", "collection_times": "Mo-Fr 16:00; Sa 12:00", "name": "USPS COLLECTION BOX - BLUE BOX", "note": "ON 12/24 AND 12/31, THIS BOX MAY BE COLLECTED AS EARLY AS 12 NOON.", "nsi_id": "unitedstatespostalservice-a77078", "operator": "United States Postal Service", "operator:short": "USPS", "operator:type": "public", "operator:wikidata": "Q668687", "ref": "1954300001"}, "type": "Feature"}
{"dataset_attributes": {"@spider": "usps_collection_boxes"}, "geometry": {"coordinates": [-75.89116, 40.155071], "type": "Point"}, "id": "dnn1_bmkDuwfPgYxfnx-lSKtrjE=", "properties": {"@spider": "usps_collection_boxes", "addr:city": "MORGANTOWN", "addr:country": "US", "addr:full": "101 MULBERRY ST", "addr:postcode": "19543", "addr:state": "PA", "amenity": "post_box", "brand": "United States Postal Service", "brand:wikidata": "Q668687", "collection_times": "Mo-Fr 16:00; Sa 12:00", "name": "USPS COLLECTION BOX - PO LOBBY", "note": "ON 12/24 AND 12/31, THIS BOX MAY BE COLLECTED AS EARLY AS 12 NOON.", "nsi_id": "unitedstatespostalservice-a77078", "operator": "United States Postal Service", "operator:short": "USPS", "operator:type": "public", "operator:wikidata": "Q668687", "ref": "1954300004"}, "type": "Feature"}
{"dataset_attributes": {"@spider": "usps_collection_boxes"}, "geometry": {"coordinates": [-75.891086069, 40.155027207], "type": "Point"}, "id": "s9taQCW2CuLpm2o61iuCiK9LiLE=", "properties": {"@spider": "usps_collection_boxes", "addr:city": "MORGANTOWN", "addr:country": "US", "addr:full": "101 MULBERRY ST", "addr:postcode": "19543", "addr:state": "PA", "amenity": "post_box", "brand": "United States Postal Service", "brand:wikidata": "Q668687", "collection_times": "Mo-Fr 16:00; Sa 12:00", "name": "USPS COLLECTION BOX - PO LOBBY", "note": "ON 12/24 AND 12/31, THIS BOX MAY BE COLLECTED AS EARLY AS 12 NOON.", "nsi_id": "unitedstatespostalservice-a77078", "operator": "United States Postal Service", "operator:short": "USPS", "operator:type": "public", "operator:wikidata": "Q668687", "ref": "1954300006"}, "type": "Feature"}
{"dataset_attributes": {"@spider": "usps_collection_boxes"}, "geometry": {"coordinates": [-76.294814, 40.420018], "type": "Point"}, "id": "M7IEAcLd21g7cl9QEq0zEqUrkZU=", "properties": {"@spider": "usps_collection_boxes", "addr:city": "MOUNT AETNA", "addr:country": "US", "addr:full": "2 E MILL ST", "addr:postcode": "19544", "addr:state": "PA", "amenity": "post_box", "brand": "United States Postal Service", "brand:wikidata": "Q668687", "collection_times": "Mo-Fr 16:15; Sa 12:00", "name": "USPS COLLECTION BOX - BLUE BOX", "note": "ON 12/24 AND 12/31, THIS BOX MAY BE COLLECTED AS EARLY AS 12 NOON.", "nsi_id": "unitedstatespostalservice-a77078", "operator": "United States Postal Service", "operator:short": "USPS", "operator:type": "public", "operator:wikidata": "Q668687", "ref": "1954400002"}, "type": "Feature"}
{"dataset_attributes": {"@spider": "usps_collection_boxes"}, "geometry": {"coordinates": [-76.294279, 40.420054], "type": "Point"}, "id": "UIgKGJce7ik2_9aCHDN1uDvee5A=", "properties": {"@spider": "usps_collection_boxes", "addr:city": "MOUNT AETNA", "addr:country": "US", "addr:full": "2 E MILL ST", "addr:postcode": "19544", "addr:state": "PA", "amenity": "post_box", "brand": "United States Postal Service", "brand:wikidata": "Q668687", "collection_times": "Mo-Sa 11:00", "name": "USPS COLLECTION BOX - PO LOBBY", "nsi_id": "unitedstatespostalservice-a77078", "operator": "United States Postal Service", "operator:short": "USPS", "operator:type": "public", "operator:wikidata": "Q668687", "ref": "1954400003"}, "type": "Feature"}
{"dataset_attributes": {"@spider": "usps_collection_boxes"}, "geometry": {"coordinates": [-76.29416953, 40.419928533], "type": "Point"}, "id": "apDUgDnxz2PmTopmHlt8PBUGATA=", "properties": {"@spider": "usps_collection_boxes", "addr:city": "MOUNT AETNA", "addr:country": "US", "addr:full": "2 E MILL ST", "addr:postcode": "19544", "addr:state": "PA", "amenity": "post_box", "brand": "United States Postal Service", "brand:wikidata": "Q668687", "collection_times": "Mo-Fr 11:00; Sa 12:00", "name": "USPS COLLECTION BOX - PO LOBBY", "nsi_id": "unitedstatespostalservice-a77078", "operator": "United States Postal Service", "operator:short": "USPS", "operator:type": "public", "operator:wikidata": "Q668687", "ref": "1954400006"}, "type": "Feature"}
{"dataset_attributes": {"@spider": "usps_collection_boxes"}, "geometry": {"coordinates": [-75.627655, 40.344789], "type": "Point"}, "id": "TEDN6RXL6n9ClKqRTNCJtN90gwM=", "properties": {"@spider": "usps_collection_boxes", "addr:city": "NEW BERLINVILLE", "addr:country": "US", "addr:full": "721 N READING AVE", "addr:postcode": "19545", "addr:state": "PA", "amenity": "post_box", "brand": "United States Postal Service", "brand:wikidata": "Q668687", "collection_times": "Mo-Fr 16:15; Sa 10:30", "name": "USPS COLLECTION BOX - BLUE BOX", "note": "ON 12/24 AND 12/31, THIS BOX MAY BE COLLECTED AS EARLY AS 12 NOON.", "nsi_id": "unitedstatespostalservice-a77078", "operator": "United States Postal Service", "operator:short": "USPS", "operator:type": "public", "operator:wikidata": "Q668687", "ref": "1954500001"}, "type": "Feature"}
{"dataset_attributes": {"@spider": "usps_collection_boxes"}, "geometry": {"coordinates": [-75.627591, 40.344716], "type": "Point"}, "id": "C4fk63Xp1kb-e6mRV2mmj1L3dRw=", "properties": {"@spider": "usps_collection_boxes", "addr:city": "NEW BERLINVILLE", "addr:country": "US", "addr:full": "721 N READING AVE", "addr:postcode": "19545", "addr:state": "PA", "amenity": "post_box", "brand": "United States Postal Service", "brand:wikidata": "Q668687", "collection_times": "Mo-Fr 16:15; Sa 10:30", "name": "USPS COLLECTION BOX - PO LOBBY", "note": "ON 12/24 AND 12/31, THIS BOX MAY BE COLLECTED AS EARLY AS 12 NOON.", "nsi_id": "unitedstatespostalservice-a77078", "operator": "United States Postal Service", "operator:short": "USPS", "operator:type": "public", "operator:wikidata": "Q668687", "ref": "1954500002"}, "type": "Feature"}
{"dataset_attributes": {"@spider": "usps_collection_boxes"}, "geometry": {"coordinates": [-75.627470402, 40.343540938], "type": "Point"}, "id": "u9P8krQQIKuvYNDpTv8CBiHlfIE=", "properties": {"@spider": "usps_collection_boxes", "addr:city": "NEW BERLINVILLE", "addr:country": "US", "addr:full": "721 N READING AVE", "addr:postcode": "19545", "addr:state": "PA", "amenity": "post_box", "brand": "United States Postal Service", "brand:wikidata": "Q668687", "collection_times": "Mo-Fr 16:30; Sa 11:00", "name": "USPS COLLECTION BOX - PO LOBBY", "note": "ON 12/24 AND 12/31, THIS BOX MAY BE COLLECTED AS EARLY AS 12 NOON.", "nsi_id": "unitedstatespostalservice-a77078", "operator": "United States Postal Service", "operator:short": "USPS", "operator:type": "public", "operator:wikidata": "Q668687", "ref": "1954500004"}, "type": "Feature"}
{"dataset_attributes": {"@spider": "usps_collection_boxes"}, "geometry": {"coordinates": [-75.7829, 40.38381], "type": "Point"}, "id": "qLn013_O1kyqzRo8ioTFi8fgdyo=", "properties": {"@spider": "usps_collection_boxes", "addr:city": "OLEY", "addr:country": "US", "addr:full": "644 MAIN ST", "addr:postcode": "19547", "addr:state": "PA", "amenity": "post_box", "brand": "United States Postal Service", "brand:wikidata": "Q668687", "collection_times": "Mo-Fr 16:45; Sa 11:00", "name": "USPS COLLECTION BOX - PO LOBBY", "note": "ON 12/24 AND 12/31, THIS BOX MAY BE COLLECTED AS EARLY AS 12 NOON.", "nsi_id": "unitedstatespostalservice-a77078", "operator": "United States Postal Service", "operator:short": "USPS", "operator:type": "public", "operator:wikidata": "Q668687", "ref": "1954700001"}, "type": "Feature"}
{"dataset_attributes": {"@spider": "usps_collection_boxes"}, "geometry": {"coordinates": [-75.782987, 40.383867], "type": "Point"}, "id": "DngKCfWl7eD4x7eB5xJD3ZxmysI=", "properties": {"@spider": "usps_collection_boxes", "addr:city": "OLEY", "addr:country": "US", "addr:full": "644 MAIN ST", "addr:postcode": "19547", "addr:state": "PA", "amenity": "post_box", "brand": "United States Postal Service", "brand:wikidata": "Q668687", "collection_times": "Mo-Fr 16:45; Sa 11:00", "name": "USPS COLLECTION BOX - BLUE BOX", "note": "ON 12/24 AND 12/31, THIS BOX MAY BE COLLECTED AS EARLY AS 12 NOON.", "nsi_id": "unitedstatespostalservice-a77078", "operator": "United States Postal Service", "operator:short": "USPS", "operator:type": "public", "operator:wikidata": "Q668687", "ref": "1954700004"}, "type": "Feature"}
{"dataset_attributes": {"@spider": "usps_collection_boxes"}, "geometry": {"coordinates": [-75.782942158, 40.383768799], "type": "Point"}, "id": "k-2dTcSXhp2mJ85ey8C6eJ7zJn8=", "properties": {"@spider": "usps_collection_boxes", "addr:city": "OLEY", "addr:country": "US", "addr:full": "644 MAIN ST", "addr:postcode": "19547", "addr:state": "PA", "amenity": "post_box", "brand": "United States Postal Service", "brand:wikidata": "Q668687", "collection_times": "Mo-Fr 16:45; Sa 11:15", "name": "USPS COLLECTION BOX - PO LOBBY", "note": "ON 12/24 AND 12/31, THIS BOX MAY BE COLLECTED AS EARLY AS 12 NOON.", "nsi_id": "unitedstatespostalservice-a77078", "operator": "United States Postal Service", "operator:short": "USPS", "operator:type": "public", "operator:wikidata": "Q668687", "ref": "1954700007"}, "type": "Feature"}
{"dataset_attributes": {"@spider": "usps_collection_boxes"}, "geometry": {"coordinates": [-75.689114087, 40.2824752715], "type": "Point"}, "id": "W5yEXfwpcWi67eTRTui2TIksCfQ=", "properties": {"@spider": "usps_collection_boxes", "addr:city": "PINE FORGE", "addr:country": "US", "addr:full": "213 PINE FORGE RD", "addr:postcode": "19548", "addr:state": "PA", "amenity": "post_box", "brand": "United States Postal Service", "brand:wikidata": "Q668687", "collection_times": "Mo-Fr 16:15; Sa 11:00", "name": "USPS COLLECTION BOX - BLUE BOX", "note": "ON 12/24 AND 12/31, THIS BOX MAY BE COLLECTED AS EARLY AS 12 NOON.", "nsi_id": "unitedstatespostalservice-a77078", "operator": "United States Postal Service", "operator:short": "USPS", "operator:type": "public", "operator:wikidata": "Q668687", "ref": "1954800001"}, "type": "Feature"}
{"dataset_attributes": {"@spider": "usps_collection_boxes"}, "geometry": {"coordinates": [-75.689114087, 40.2824752715], "type": "Point"}, "id": "-AKMhRbFUVJPzTHd_-EOorUuxiM=", "properties": {"@spider": "usps_collection_boxes", "addr:city": "PINE FORGE", "addr:country": "US", "addr:full": "213 PINE FORGE RD", "addr:postcode": "19548", "addr:state": "PA", "amenity": "post_box", "brand": "United States Postal Service", "brand:wikidata": "Q668687", "collection_times": "Mo-Fr 16:15; Sa 11:00", "name": "USPS COLLECTION BOX - PO LOBBY", "note": "ON 12/24 AND 12/31, THIS BOX MAY BE COLLECTED AS EARLY AS 12 NOON.", "nsi_id": "unitedstatespostalservice-a77078", "operator": "United States Postal Service", "operator:short": "USPS", "operator:type": "public", "operator:wikidata": "Q668687", "ref": "1954800002"}, "type": "Feature"}
{"dataset_attributes": {"@spider": "usps_collection_boxes"}, "geometry": {"coordinates": [-75.691850976, 40.282203544], "type": "Point"}, "id": "x7ZTGSRXhGW6X6-bSLvN7hILxXM=", "properties": {"@spider": "usps_collection_boxes", "addr:city": "PINE FORGE", "addr:country": "US", "addr:full": "213 PINE FORGE RD", "addr:postcode": "19548", "addr:state": "PA", "amenity": "post_box", "brand": "United States Postal Service", "brand:wikidata": "Q668687", "collection_times": "Mo-Fr 16:30; Sa 11:00", "name": "USPS COLLECTION BOX - PO LOBBY", "note": "ON 12/24 AND 12/31, THIS BOX MAY BE COLLECTED AS EARLY AS 12 NOON.", "nsi_id": "unitedstatespostalservice-a77078", "operator": "United States Postal Service", "operator:short": "USPS", "operator:type": "public", "operator:wikidata": "Q668687", "ref": "1954800004"}, "type": "Feature"}
{"dataset_attributes": {"@spider": "usps_collection_boxes"}, "geometry": {"coordinates": [-76.024161, 40.580289], "type": "Point"}, "id": "nl4bSUdPri1ZmRm0phKqY_o4RQk=", "properties": {"@spider": "usps_collection_boxes", "addr:city": "PORT CLINTON", "addr:country": "US", "addr:full": "6 BROAD ST", "addr:postcode": "19549", "addr:state": "PA", "amenity": "post_box", "brand": "United States Postal Service", "brand:wikidata": "Q668687", "collection_times": "Mo-Fr 16:30; Sa 11:00", "name": "USPS COLLECTION BOX - BLUE BOX", "note": "ON 12/24 AND 12/31, THIS BOX MAY BE COLLECTED AS EARLY AS 12 NOON.", "nsi_id": "unitedstatespostalservice-a77078", "operator": "United States Postal Service", "operator:short": "USPS", "operator:type": "public", "operator:wikidata": "Q668687", "ref": "1954900001"}, "type": "Feature"}
{"dataset_attributes": {"@spider": "usps_collection_boxes"}, "geometry": {"coordinates": [-76.024059, 40.580327], "type": "Point"}, "id": "tqsI_Iv7BBQ4mgrGjJtWROWNIS8=", "properties": {"@spider": "usps_collection_boxes", "addr:city": "PORT CLINTON", "addr:country": "US", "addr:full": "6 BROAD ST", "addr:postcode": "19549", "addr:state": "PA", "amenity": "post_box", "brand": "United States Postal Service", "brand:wikidata": "Q668687", "collection_times": "Mo-Fr 16:30; Sa 11:00", "name": "USPS COLLECTION BOX - PO LOBBY", "note": "ON 12/24 AND 12/31, THIS BOX MAY BE COLLECTED AS EARLY AS 12 NOON.", "nsi_id": "unitedstatespostalservice-a77078", "operator": "United States Postal Service", "operator:short": "USPS", "operator:type": "public", "operator:wikidata": "Q668687", "ref": "1954900002"}, "type": "Feature"}
{"dataset_attributes": {"@spider": "usps_collection_boxes"}, "geometry": {"coordinates": [-76.024123365, 40.580238614], "type": "Point"}, "id": "i0tlSukZ01LnSzn2bbFBH0MkRsg=", "properties": {"@spider": "usps_collection_boxes", "addr:city": "PORT CLINTON", "addr:country": "US", "addr:full": "6 BROAD ST", "addr:postcode": "19549", "addr:state": "PA", "amenity": "post_box", "brand": "United States Postal Service", "brand:wikidata": "Q668687", "collection_times": "Mo-Fr 16:30; Sa 11:00", "name": "USPS COLLECTION BOX - PO LOBBY", "note": "ON 12/24 AND 12/31, THIS BOX MAY BE COLLECTED AS EARLY AS 12 NOON.", "nsi_id": "unitedstatespostalservice-a77078", "operator": "United States Postal Service", "operator:short": "USPS", "operator:type": "public", "operator:wikidata": "Q668687", "ref": "1954900004"}, "type": "Feature"}
{"dataset_attributes": {"@spider": "usps_collection_boxes"}, "geometry": {"coordinates": [-76.245183, 40.457863], "type": "Point"}, "id": "5Xw6P8ppUesaVDhCZirZf-ev7Wo=", "properties": {"@spider": "usps_collection_boxes", "addr:city": "REHRERSBURG", "addr:country": "US", "addr:full": "349 GODFREY ST", "addr:postcode": "19550", "addr:state": "PA", "amenity": "post_box", "brand": "United States Postal Service", "brand:wikidata": "Q668687", "collection_times": "Mo-Fr 16:00; Sa 10:30", "name": "USPS COLLECTION BOX - BLUE BOX", "note": "ON 12/24 AND 12/31, THIS BOX MAY BE COLLECTED AS EARLY AS 12 NOON.", "nsi_id": "unitedstatespostalservice-a77078", "operator": "United States Postal Service", "operator:short": "USPS", "operator:type": "public", "operator:wikidata": "Q668687", "ref": "1955000000"}, "type": "Feature"}
{"dataset_attributes": {"@spider": "usps_collection_boxes"}, "geometry": {"coordinates": [-76.245197, 40.457838], "type": "Point"}, "id": "ozbSxyUjlOhb31xIG9YfkfTPgKo=", "properties": {"@spider": "usps_collection_boxes", "addr:city": "REHRERSBURG", "addr:country": "US", "addr:full": "349 GODFREY ST", "addr:postcode": "19550", "addr:state": "PA", "amenity": "post_box", "brand": "United States Postal Service", "brand:wikidata": "Q668687", "collection_times": "Mo-Fr 16:00; Sa 10:30", "name": "USPS COLLECTION BOX - PO LOBBY", "note": "ON 12/24 AND 12/31, THIS BOX MAY BE COLLECTED AS EARLY AS 12 NOON.", "nsi_id": "unitedstatespostalservice-a77078", "operator": "United States Postal Service", "operator:short": "USPS", "operator:type": "public", "operator:wikidata": "Q668687", "ref": "1955000001"}, "type": "Feature"}
{"dataset_attributes": {"@spider": "usps_collection_boxes"}, "geometry": {"coordinates": [-76.245302809, 40.457882973], "type": "Point"}, "id": "v1EgdRs_XVQW0DrZ3OmmMMBPGs0=", "properties": {"@spider": "usps_collection_boxes", "addr:city": "REHRERSBURG", "addr:country": "US", "addr:full": "349 GODFREY ST", "addr:postcode": "19550", "addr:state": "PA", "amenity": "post_box", "brand": "United States Postal Service", "brand:wikidata": "Q668687", "collection_times": "Mo-Fr 16:00; Sa 10:30", "name": "USPS COLLECTION BOX - PO LOBBY", "note": "ON 12/24 AND 12/31, THIS BOX MAY BE COLLECTED AS EARLY AS 12 NOON.", "nsi_id": "unitedstatespostalservice-a77078", "operator": "United States Postal Service", "operator:short": "USPS", "operator:type": "public", "operator:wikidata": "Q668687", "ref": "1955000003"}, "type": "Feature"}
{"dataset_attributes": {"@spider": "usps_collection_boxes"}, "geometry": {"coordinates": [-76.133374, 40.351462], "type": "Point"}, "id": "lOBk3f5UmyB_rH6eD5T6Lh119q8=", "properties": {"@spider": "usps_collection_boxes", "addr:city": "ROBESONIA", "addr:country": "US", "addr:full": "37 E PENN AVE", "addr:postcode": "19551", "addr:state": "PA", "amenity": "post_box", "brand": "United States Postal Service", "brand:wikidata": "Q668687", "collection_times": "Mo-Fr 16:45; Sa 12:00", "name": "USPS COLLECTION BOX - BLUE BOX", "note": "ON 12/24 AND 12/31, THIS BOX MAY BE COLLECTED AS EARLY AS 12 NOON.", "nsi_id": "unitedstatespostalservice-a77078", "operator": "United States Postal Service", "operator:short": "USPS", "operator:type": "public", "operator:wikidata": "Q668687", "ref": "1955100009"}, "type": "Feature"}
{"dataset_attributes": {"@spider": "usps_collection_boxes"}, "geometry": {"coordinates": [-76.133497, 40.351471], "type": "Point"}, "id": "0s1-MJh5vPSnRRXUZ-XTUkmD0-8=", "properties": {"@spider": "usps_collection_boxes", "addr:city": "ROBESONIA", "addr:country": "US", "addr:full": "37 E PENN AVE", "addr:postcode": "19551", "addr:state": "PA", "amenity": "post_box", "brand": "United States Postal Service", "brand:wikidata": "Q668687", "collection_times": "Mo-Fr 16:45; Sa 12:00", "name": "USPS COLLECTION BOX - PO LOBBY", "note": "ON 12/24 AND 12/31, THIS BOX MAY BE COLLECTED AS EARLY AS 12 NOON.", "nsi_id": "unitedstatespostalservice-a77078", "operator": "United States Postal Service", "operator:short": "USPS", "operator:type": "public", "operator:wikidata": "Q668687", "ref": "1955100012"}, "type": "Feature"}
{"dataset_attributes": {"@spider": "usps_collection_boxes"}, "geometry": {"coordinates": [-76.133221582, 40.351398619], "type": "Point"}, "id": "jwwgFHpRj6IRpLrv3v5SRfUccJ0=", "properties": {"@spider": "usps_collection_boxes", "addr:city": "ROBESONIA", "addr:country": "US", "addr:full": "37 E PENN AVE", "addr:postcode": "19551", "addr:state": "PA", "amenity": "post_box", "brand": "United States Postal Service", "brand:wikidata": "Q668687", "collection_times": "Mo-Fr 17:00; Sa 12:00", "name": "USPS COLLECTION BOX - PO LOBBY", "note": "ON 12/24 AND 12/31, THIS BOX MAY BE COLLECTED AS EARLY AS 12 NOON.", "nsi_id": "unitedstatespostalservice-a77078", "operator": "United States Postal Service", "operator:short": "USPS", "operator:type": "public", "operator:wikidata": "Q668687", "ref": "1955100014"}, "type": "Feature"}
{"dataset_attributes": {"@spider": "usps_collection_boxes"}, "geometry": {"coordinates": [-76.109042, 40.514083], "type": "Point"}, "id": "Vu24Z_DA6A_7_K6r5fHi8HaVMp0=", "properties": {"@spider": "usps_collection_boxes", "addr:city": "SHARTLESVILLE", "addr:country": "US", "addr:full": "11 N 1ST ST", "addr:postcode": "19554", "addr:state": "PA", "amenity": "post_box", "brand": "United States Postal Service", "brand:wikidata": "Q668687", "collection_times": "Mo-Fr 16:00; Sa 11:00", "name": "USPS COLLECTION BOX - BLUE BOX", "note": "ON 12/24 AND 12/31, THIS BOX MAY BE COLLECTED AS EARLY AS 12 NOON.", "nsi_id": "unitedstatespostalservice-a77078", "operator": "United States Postal Service", "operator:short": "USPS", "operator:type": "public", "operator:wikidata": "Q668687", "ref": "1955400001"}, "type": "Feature"}
{"dataset_attributes": {"@spider": "usps_collection_boxes"}, "geometry": {"coordinates": [-76.109008, 40.514096], "type": "Point"}, "id": "3NYhvU1E5R6xbFfrXZ_DS_16K_Y=", "properties": {"@spider": "usps_collection_boxes", "addr:city": "SHARTLESVILLE", "addr:country": "US", "addr:full": "11 N 1ST ST", "addr:postcode": "19554", "addr:state": "PA", "amenity": "post_box", "brand": "United States Postal Service", "brand:wikidata": "Q668687", "collection_times": "Mo-Fr 16:00; Sa 11:00", "name": "USPS COLLECTION BOX - PO LOBBY", "note": "ON 12/24 AND 12/31, THIS BOX MAY BE COLLECTED AS EARLY AS 12 NOON.", "nsi_id": "unitedstatespostalservice-a77078", "operator": "United States Postal Service", "operator:short": "USPS", "operator:type": "public", "operator:wikidata": "Q668687", "ref": "1955400003"}, "type": "Feature"}
{"dataset_attributes": {"@spider": "usps_collection_boxes"}, "geometry": {"coordinates": [-76.109056106, 40.514182146], "type": "Point"}, "id": "kbZrItjz_hnugZ5YgJk81xJ8Ua0=", "properties": {"@spider": "usps_collection_boxes", "addr:city": "SHARTLESVILLE", "addr:country": "US", "addr:full": "11 N 1ST ST", "addr:postcode": "19554", "addr:state": "PA", "amenity": "post_box", "brand": "United States Postal Service", "brand:wikidata": "Q668687", "collection_times": "Mo-Fr 16:30; Sa 11:30", "name": "USPS COLLECTION BOX - PO LOBBY", "note": "ON 12/24 AND 12/31, THIS BOX MAY BE COLLECTED AS EARLY AS 12 NOON.", "nsi_id": "unitedstatespostalservice-a77078", "operator": "United States Postal Service", "operator:short": "USPS", "operator:type": "public", "operator:wikidata": "Q668687", "ref": "1955400005"}, "type": "Feature"}
{"dataset_attributes": {"@spider": "usps_collection_boxes"}, "geometry": {"coordinates": [-75.968745, 40.500802], "type": "Point"}, "id": "8Yavr1SkB_vmtTnbCpoPD6rN6Co=", "properties": {"@spider": "usps_collection_boxes", "addr:city": "SHOEMAKERSVILLE", "addr:country": "US", "addr:full": "511 FRANKLIN ST", "addr:postcode": "19555", "addr:state": "PA", "amenity": "post_box", "brand": "United States Postal Service", "brand:wikidata": "Q668687", "collection_times": "Mo-Fr 17:00; Sa 11:00", "name": "USPS COLLECTION BOX - BLUE BOX", "note": "ON 12/24 AND 12/31, THIS BOX MAY BE COLLECTED AS EARLY AS 12 NOON.", "nsi_id": "unitedstatespostalservice-a77078", "operator": "United States Postal Service", "operator:short": "USPS", "operator:type": "public", "operator:wikidata": "Q668687", "ref": "1955500007"}, "type": "Feature"}
{"dataset_attributes": {"@spider": "usps_collection_boxes"}, "geometry": {"coordinates": [-75.9672842, 40.502111], "type": "Point"}, "id": "8Paaj_kUGlYCdVeo16Gekw7-wG4=", "properties": {"@spider": "usps_collection_boxes", "addr:city": "SHOEMAKERSVILLE", "addr:country": "US", "addr:full": "125 E NOBLE AVE", "addr:postcode": "19555", "addr:state": "PA", "amenity": "post_box", "brand": "United States Postal Service", "brand:wikidata": "Q668687", "collection_times": "Mo-Sa 09:00", "name": "USPS COLLECTION BOX - BLUE BOX", "nsi_id": "unitedstatespostalservice-a77078", "operator": "United States Postal Service", "operator:short": "USPS", "operator:type": "public", "operator:wikidata": "Q668687", "ref": "1955500011"}, "type": "Feature"}
{"dataset_attributes": {"@spider": "usps_collection_boxes"}, "geometry": {"coordinates": [-75.9697871, 40.505222], "type": "Point"}, "id": "cNi49HTwySraqK-2r4B9XN0vyow=", "properties": {"@spider": "usps_collection_boxes", "addr:city": "SHOEMAKERSVILLE", "addr:country": "US", "addr:full": "842 MAIN ST", "addr:postcode": "19555", "addr:state": "PA", "amenity": "post_box", "brand": "United States Postal Service", "brand:wikidata": "Q668687", "collection_times": "Mo-Sa 10:00", "name": "USPS COLLECTION BOX - BLUE BOX", "nsi_id": "unitedstatespostalservice-a77078", "operator": "United States Postal Service", "operator:short": "USPS", "operator:type": "public", "operator:wikidata": "Q668687", "ref": "1955500012"}, "type": "Feature"}
{"dataset_attributes": {"@spider": "usps_collection_boxes"}, "geometry": {"coordinates": [-75.968735, 40.500712], "type": "Point"}, "id": "Hk05mAws3SQvmSos2faS_qj__aI=", "properties": {"@spider": "usps_collection_boxes", "addr:city": "SHOEMAKERSVILLE", "addr:country": "US", "addr:full": "511 FRANKLIN ST", "addr:postcode": "19555", "addr:state": "PA", "amenity": "post_box", "brand": "United States Postal Service", "brand:wikidata": "Q668687", "collection_times": "Mo-Fr 16:30; Sa 11:00", "name": "USPS COLLECTION BOX - PO LOBBY", "note": "ON 12/24 AND 12/31, THIS BOX MAY BE COLLECTED AS EARLY AS 12 NOON.", "nsi_id": "unitedstatespostalservice-a77078", "operator": "United States Postal Service", "operator:short": "USPS", "operator:type": "public", "operator:wikidata": "Q668687", "ref": "1955500014"}, "type": "Feature"}
{"dataset_attributes": {"@spider": "usps_collection_boxes"}, "geometry": {"coordinates": [-75.968701951, 40.50071382], "type": "Point"}, "id": "kNH8Tik7GX4wOhZ3J95C-Lb7VTI=", "properties": {"@spider": "usps_collection_boxes", "addr:city": "SHOEMAKERSVILLE", "addr:country": "US", "addr:full": "511 FRANKLIN ST", "addr:postcode": "19555", "addr:state": "PA", "amenity": "post_box", "brand": "United States Postal Service", "brand:wikidata": "Q668687", "collection_times": "Mo-Fr 17:15; Sa 11:15", "name": "USPS COLLECTION BOX - PO LOBBY", "note": "ON 12/24 AND 12/31, THIS BOX MAY BE COLLECTED AS EARLY AS 12 NOON.", "nsi_id": "unitedstatespostalservice-a77078", "operator": "United States Postal Service", "operator:short": "USPS", "operator:type": "public", "operator:wikidata": "Q668687", "ref": "1955500017"}, "type": "Feature"}
{"dataset_attributes": {"@spider": "usps_collection_boxes"}, "geometry": {"coordinates": [-76.1850904, 40.491531], "type": "Point"}, "id": "NNQAKkjnbFI0Bi6vFiCB-shL2sY=", "properties": {"@spider": "usps_collection_boxes", "addr:city": "STRAUSSTOWN", "addr:country": "US", "addr:full": "72 MAIN ST", "addr:postcode": "19559", "addr:state": "PA", "amenity": "post_box", "brand": "United States Postal Service", "brand:wikidata": "Q668687", "collection_times": "Mo-Fr 13:00; Sa 11:00", "name": "USPS COLLECTION BOX - BLUE BOX", "note": "ON 12/24 AND 12/31, THIS BOX MAY BE COLLECTED AS EARLY AS 12 NOON.", "nsi_id": "unitedstatespostalservice-a77078", "operator": "United States Postal Service", "operator:short": "USPS", "operator:type": "public", "operator:wikidata": "Q668687", "ref": "1955900001"}, "type": "Feature"}
{"dataset_attributes": {"@spider": "usps_collection_boxes"}, "geometry": {"coordinates": [-76.185123, 40.491566], "type": "Point"}, "id": "OCKTbZM7Tp1ce8LJxLA_eHixr30=", "properties": {"@spider": "usps_collection_boxes", "addr:city": "STRAUSSTOWN", "addr:country": "US", "addr:full": "72 MAIN ST", "addr:postcode": "19559", "addr:state": "PA", "amenity": "post_box", "brand": "United States Postal Service", "brand:wikidata": "Q668687", "collection_times": "Mo-Fr 13:00; Sa 11:00", "name": "USPS COLLECTION BOX - PO LOBBY", "note": "ON 12/24 AND 12/31, THIS BOX MAY BE COLLECTED AS EARLY AS 12 NOON.", "nsi_id": "unitedstatespostalservice-a77078", "operator": "United States Postal Service", "operator:short": "USPS", "operator:type": "public", "operator:wikidata": "Q668687", "ref": "1955900002"}, "type": "Feature"}
{"dataset_attributes": {"@spider": "usps_collection_boxes"}, "geometry": {"coordinates": [-76.185114352, 40.491528938], "type": "Point"}, "id": "s2NQHE7Ox60lXjbzD3YS8CiwXR4=", "properties": {"@spider": "usps_collection_boxes", "addr:city": "STRAUSSTOWN", "addr:country": "US", "addr:full": "72 MAIN ST", "addr:postcode": "19559", "addr:state": "PA", "amenity": "post_box", "brand": "United States Postal Service", "brand:wikidata": "Q668687", "collection_times": "Mo-Fr 13:00; Sa 11:00", "name": "USPS COLLECTION BOX - PO LOBBY", "note": "ON 12/24 AND 12/31, THIS BOX MAY BE COLLECTED AS EARLY AS 12 NOON.", "nsi_id": "unitedstatespostalservice-a77078", "operator": "United States Postal Service", "operator:short": "USPS", "operator:type": "public", "operator:wikidata": "Q668687", "ref": "1955900005"}, "type": "Feature"}
{"dataset_attributes": {"@spider": "usps_collection_boxes"}, "geometry": {"coordinates": [-75.9193295, 40.397075], "type": "Point"}, "id": "Il8lU44nJyz7EJJ5eDNIt5FXJqg=", "properties": {"@spider": "usps_collection_boxes", "addr:city": "TEMPLE", "addr:country": "US", "addr:full": "4100 KUTZTOWN RD", "addr:postcode": "19560", "addr:state": "PA", "amenity": "post_box", "brand": "United States Postal Service", "brand:wikidata": "Q668687", "collection_times": "Mo-Sa 09:30", "name": "USPS COLLECTION BOX - BLUE BOX", "nsi_id": "unitedstatespostalservice-a77078", "operator": "United States Postal Service", "operator:short": "USPS", "operator:type": "public", "operator:wikidata": "Q668687", "ref": "1956000001"}, "type": "Feature"}
{"dataset_attributes": {"@spider": "usps_collection_boxes"}, "geometry": {"coordinates": [-75.9239771, 40.407636], "type": "Point"}, "id": "A0FJZurRfC_ot8j60OSdv7iDXZI=", "properties": {"@spider": "usps_collection_boxes", "addr:city": "TEMPLE", "addr:country": "US", "addr:full": "4850 7TH AVE", "addr:postcode": "19560", "addr:state": "PA", "amenity": "post_box", "brand": "United States Postal Service", "brand:wikidata": "Q668687", "collection_times": "Mo-Sa 12:00", "name": "USPS COLLECTION BOX - BLUE BOX", "nsi_id": "unitedstatespostalservice-a77078", "operator": "United States Postal Service", "operator:short": "USPS", "operator:type": "public", "operator:wikidata": "Q668687", "ref": "1956000008"}, "type": "Feature"}
{"dataset_attributes": {"@spider": "usps_collection_boxes"}, "geometry": {"coordinates": [-75.9244094, 40.41106], "type": "Point"}, "id": "c5n8LEC8POAxtSaQ1tUDmJic_-c=", "properties": {"@spider": "usps_collection_boxes", "addr:city": "TEMPLE", "addr:country": "US", "addr:full": "706 HARTMAN AVE", "addr:postcode": "19560", "addr:state": "PA", "amenity": "post_box", "brand": "United States Postal Service", "brand:wikidata": "Q668687", "collection_times": "Mo-Sa 11:30", "name": "USPS COLLECTION BOX - BLUE BOX", "nsi_id": "unitedstatespostalservice-a77078", "operator": "United States Postal Service", "operator:short": "USPS", "operator:type": "public", "operator:wikidata": "Q668687", "ref": "1956000015"}, "type": "Feature"}
{"dataset_attributes": {"@spider": "usps_collection_boxes"}, "geometry": {"coordinates": [-75.9210379, 40.401631], "type": "Point"}, "id": "SM5DJ122K3nTx4yoOXMOdR2aUnw=", "properties": {"@spider": "usps_collection_boxes", "addr:city": "TEMPLE", "addr:country": "US", "addr:full": "804 N TEMPLE BLVD", "addr:postcode": "19560", "addr:state": "PA", "amenity": "post_box", "brand": "United States Postal Service", "brand:wikidata": "Q668687", "collection_times": "Mo-Sa 14:45", "name": "USPS COLLECTION BOX - BLUE BOX", "note": "ON 12/24 AND 12/31, THIS BOX MAY BE COLLECTED AS EARLY AS 12 NOON.", "nsi_id": "unitedstatespostalservice-a77078", "operator": "United States Postal Service", "operator:short": "USPS", "operator:type": "public", "operator:wikidata": "Q668687", "ref": "1956000017"}, "type": "Feature"}
{"dataset_attributes": {"@spider": "usps_collection_boxes"}, "geometry": {"coordinates": [-75.9202163, 40.409375], "type": "Point"}, "id": "YOq0VJDg5eeqU3CzuumEsNqsiGI=", "properties": {"@spider": "usps_collection_boxes", "addr:city": "TEMPLE", "addr:country": "US", "addr:full": "4917 KUTZTOWN RD", "addr:postcode": "19560", "addr:state": "PA", "amenity": "post_box", "brand": "United States Postal Service", "brand:wikidata": "Q668687", "collection_times": "Mo-Fr 16:30; Sa 14:30", "name": "USPS COLLECTION BOX - BLUE BOX", "note": "ON 12/24 AND 12/31, THIS BOX MAY BE COLLECTED AS EARLY AS 12 NOON.", "nsi_id": "unitedstatespostalservice-a77078", "operator": "United States Postal Service", "operator:short": "USPS", "operator:type": "public", "operator:wikidata": "Q668687", "ref": "1956000019"}, "type": "Feature"}
{"dataset_attributes": {"@spider": "usps_collection_boxes"}, "geometry": {"coordinates": [-75.9201126, 40.409406], "type": "Point"}, "id": "AImml_bGvNFu8f3XEddsGnExAAg=", "properties": {"@spider": "usps_collection_boxes", "addr:city": "TEMPLE", "addr:country": "US", "addr:full": "4917 KUTZTOWN RD", "addr:postcode": "19560", "addr:state": "PA", "amenity": "post_box", "brand": "United States Postal Service", "brand:wikidata": "Q668687", "collection_times": "Mo-Fr 16:30; Sa 14:30", "name": "USPS COLLECTION BOX - PO LOBBY", "note": "ON 12/24 AND 12/31, THIS BOX MAY BE COLLECTED AS EARLY AS 12 NOON.", "nsi_id": "unitedstatespostalservice-a77078", "operator": "United States Postal Service", "operator:short": "USPS", "operator:type": "public", "operator:wikidata": "Q668687", "ref": "1956000029"}, "type": "Feature"}
{"dataset_attributes": {"@spider": "usps_collection_boxes"}, "geometry": {"coordinates": [-75.9228584, 40.41101], "type": "Point"}, "id": "T385v6hXzMXuCnBfSBEZu8VKTJs=", "properties": {"@spider": "usps_collection_boxes", "addr:city": "TEMPLE", "addr:country": "US", "addr:full": "800 TUCKERTON AVE", "addr:postcode": "19560", "addr:state": "PA", "amenity": "post_box", "brand": "United States Postal Service", "brand:wikidata": "Q668687", "collection_times": "Mo-Sa 12:30", "name": "USPS COLLECTION BOX - BLUE BOX", "note": "ON 12/24 AND 12/31, THIS BOX MAY BE COLLECTED AS EARLY AS 12 NOON.", "nsi_id": "unitedstatespostalservice-a77078", "operator": "United States Postal Service", "operator:short": "USPS", "operator:type": "public", "operator:wikidata": "Q668687", "ref": "1956000030"}, "type": "Feature"}
{"dataset_attributes": {"@spider": "usps_collection_boxes"}, "geometry": {"coordinates": [-75.920222491, 40.409202446], "type": "Point"}, "id": "wDrtgsLaKz3sjZCk9h5PfPbehCM=", "properties": {"@spider": "usps_collection_boxes", "addr:city": "TEMPLE", "addr:country": "US", "addr:full": "4917 KUTZTOWN RD", "addr:postcode": "19560", "addr:state": "PA", "amenity": "post_box", "brand": "United States Postal Service", "brand:wikidata": "Q668687", "collection_times": "Mo-Fr 16:45; Sa 11:15", "name": "USPS COLLECTION BOX - PO LOBBY", "note": "ON 12/24 AND 12/31, THIS BOX MAY BE COLLECTED AS EARLY AS 12 NOON.", "nsi_id": "unitedstatespostalservice-a77078", "operator": "United States Postal Service", "operator:short": "USPS", "operator:type": "public", "operator:wikidata": "Q668687", "ref": "1956000035"}, "type": "Feature"}
{"dataset_attributes": {"@spider": "usps_collection_boxes"}, "geometry": {"coordinates": [-75.700732, 40.502801], "type": "Point"}, "id": "_5K4dSoqE0wFvP_8xrxWy-WZBVU=", "properties": {"@spider": "usps_collection_boxes", "addr:city": "TOPTON", "addr:country": "US", "addr:full": "33 S HOME AVE", "addr:postcode": "19562", "addr:state": "PA", "amenity": "post_box", "brand": "United States Postal Service", "brand:wikidata": "Q668687", "collection_times": "Mo-Fr 16:30; Sa 10:30", "name": "USPS COLLECTION BOX - BLUE BOX", "note": "ON 12/24 AND 12/31, THIS BOX MAY BE COLLECTED AS EARLY AS 12 NOON.", "nsi_id": "unitedstatespostalservice-a77078", "operator": "United States Postal Service", "operator:short": "USPS", "operator:type": "public", "operator:wikidata": "Q668687", "ref": "1956200011"}, "type": "Feature"}
{"dataset_attributes": {"@spider": "usps_collection_boxes"}, "geometry": {"coordinates": [-75.7000794, 40.496824], "type": "Point"}, "id": "ALkncUj7-v7rFJhfiSPCXMJXqec=", "properties": {"@spider": "usps_collection_boxes", "addr:city": "TOPTON", "addr:country": "US", "addr:full": "12 MACK DR", "addr:postcode": "19562", "addr:state": "PA", "amenity": "post_box", "brand": "United States Postal Service", "brand:wikidata": "Q668687", "collection_times": "Mo-Sa 10:00", "name": "USPS COLLECTION BOX - BLUE BOX", "nsi_id": "unitedstatespostalservice-a77078", "operator": "United States Postal Service", "operator:short": "USPS", "operator:type": "public", "operator:wikidata": "Q668687", "ref": "1956200013"}, "type": "Feature"}
{"dataset_attributes": {"@spider": "usps_collection_boxes"}, "geometry": {"coordinates": [-75.7034092, 40.499591], "type": "Point"}, "id": "rmneZEnKno345PxZHGUnSJoHvWQ=", "properties": {"@spider": "usps_collection_boxes", "addr:city": "TOPTON", "addr:country": "US", "addr:full": "203 W WEIS ST", "addr:postcode": "19562", "addr:state": "PA", "amenity": "post_box", "brand": "United States Postal Service", "brand:wikidata": "Q668687", "collection_times": "Mo-Sa 10:30", "name": "USPS COLLECTION BOX - BLUE BOX", "nsi_id": "unitedstatespostalservice-a77078", "operator": "United States Postal Service", "operator:short": "USPS", "operator:type": "public", "operator:wikidata": "Q668687", "ref": "1956200015"}, "type": "Feature"}
{"dataset_attributes": {"@spider": "usps_collection_boxes"}, "geometry": {"coordinates": [-75.700785, 40.502856], "type": "Point"}, "id": "WxYbDdJxiRtK6Pv12xMzBuSSX9c=", "properties": {"@spider": "usps_collection_boxes", "addr:city": "TOPTON", "addr:country": "US", "addr:full": "33 S HOME AVE", "addr:postcode": "19562", "addr:state": "PA", "amenity": "post_box", "brand": "United States Postal Service", "brand:wikidata": "Q668687", "collection_times": "Mo-Fr 16:30; Sa 10:30", "name": "USPS COLLECTION BOX - PO LOBBY", "note": "ON 12/24 AND 12/31, THIS BOX MAY BE COLLECTED AS EARLY AS 12 NOON.", "nsi_id": "unitedstatespostalservice-a77078", "operator": "United States Postal Service", "operator:short": "USPS", "operator:type": "public", "operator:wikidata": "Q668687", "ref": "1956200017"}, "type": "Feature"}
{"dataset_attributes": {"@spider": "usps_collection_boxes"}, "geometry": {"coordinates": [-75.700666249, 40.502568876], "type": "Point"}, "id": "q0DFm0J6epy7lhxkv8fMI3gqJ0M=", "properties": {"@spider": "usps_collection_boxes", "addr:city": "TOPTON", "addr:country": "US", "addr:full": "33 S HOME AVE", "addr:postcode": "19562", "addr:state": "PA", "amenity": "post_box", "brand": "United States Postal Service", "brand:wikidata": "Q668687", "collection_times": "Mo-Fr 16:30; Sa 10:30", "name": "USPS COLLECTION BOX - PO LOBBY", "note": "ON 12/24 AND 12/31, THIS BOX MAY BE COLLECTED AS EARLY AS 12 NOON.", "nsi_id": "unitedstatespostalservice-a77078", "operator": "United States Postal Service", "operator:short": "USPS", "operator:type": "public", "operator:wikidata": "Q668687", "ref": "1956200019"}, "type": "Feature"}
{"dataset_attributes": {"@spider": "usps_collection_boxes"}, "geometry": {"coordinates": [-75.873719, 40.524849], "type": "Point"}, "id": "r-zILRa4_RuqES4Jcnd9OA8lKDA=", "properties": {"@spider": "usps_collection_boxes", "addr:city": "VIRGINVILLE", "addr:country": "US", "addr:full": "475 MAIN ST", "addr:postcode": "19564", "addr:state": "PA", "amenity": "post_box", "brand": "United States Postal Service", "brand:wikidata": "Q668687", "collection_times": "Mo-Fr 15:30; Sa 10:30", "name": "USPS COLLECTION BOX - BLUE BOX", "note": "ON 12/24 AND 12/31, THIS BOX MAY BE COLLECTED AS EARLY AS 12 NOON.", "nsi_id": "unitedstatespostalservice-a77078", "operator": "United States Postal Service", "operator:short": "USPS", "operator:type": "public", "operator:wikidata": "Q668687", "ref": "1956400001"}, "type": "Feature"}
{"dataset_attributes": {"@spider": "usps_collection_boxes"}, "geometry": {"coordinates": [-75.873699, 40.524781], "type": "Point"}, "id": "_yCAXoyYV6hPY-homn13aI_Qe2Y=", "properties": {"@spider": "usps_collection_boxes", "addr:city": "VIRGINVILLE", "addr:country": "US", "addr:full": "475 MAIN ST", "addr:postcode": "19564", "addr:state": "PA", "amenity": "post_box", "brand": "United States Postal Service", "brand:wikidata": "Q668687", "collection_times": "Mo-Fr 15:30; Sa 10:30", "name": "USPS COLLECTION BOX - PO LOBBY", "note": "ON 12/24 AND 12/31, THIS BOX MAY BE COLLECTED AS EARLY AS 12 NOON.", "nsi_id": "unitedstatespostalservice-a77078", "operator": "United States Postal Service", "operator:short": "USPS", "operator:type": "public", "operator:wikidata": "Q668687", "ref": "1956400003"}, "type": "Feature"}
{"dataset_attributes": {"@spider": "usps_collection_boxes"}, "geometry": {"coordinates": [-75.873971448, 40.525176865], "type": "Point"}, "id": "A5Q0L73TJx0SMFe3JCQpdo9B5FE=", "properties": {"@spider": "usps_collection_boxes", "addr:city": "VIRGINVILLE", "addr:country": "US", "addr:full": "475 MAIN ST", "addr:postcode": "19564", "addr:state": "PA", "amenity": "post_box", "brand": "United States Postal Service", "brand:wikidata": "Q668687", "collection_times": "Mo-Fr 15:30; Sa 10:30", "name": "USPS COLLECTION BOX - PO LOBBY", "note": "ON 12/24 AND 12/31, THIS BOX MAY BE COLLECTED AS EARLY AS 12 NOON.", "nsi_id": "unitedstatespostalservice-a77078", "operator": "United States Postal Service", "operator:short": "USPS", "operator:type": "public", "operator:wikidata": "Q668687", "ref": "1956400005"}, "type": "Feature"}
{"dataset_attributes": {"@spider": "usps_collection_boxes"}, "geometry": {"coordinates": [-76.0724988, 40.327775], "type": "Point"}, "id": "f00GHYMF_1npHmalycN03mPtEz0=", "properties": {"@spider": "usps_collection_boxes", "addr:city": "WERNERSVILLE", "addr:country": "US", "addr:full": "55 S CHURCH RD", "addr:postcode": "19565", "addr:state": "PA", "amenity": "post_box", "brand": "United States Postal Service", "brand:wikidata": "Q668687", "collection_times": "Mo-Fr 16:45; Sa 12:00", "name": "USPS COLLECTION BOX - BLUE BOX", "note": "ON 12/24 AND 12/31, THIS BOX MAY BE COLLECTED AS EARLY AS 12 NOON.", "nsi_id": "unitedstatespostalservice-a77078", "operator": "United States Postal Service", "operator:short": "USPS", "operator:type": "public", "operator:wikidata": "Q668687", "ref": "1956500009"}, "type": "Feature"}
{"dataset_attributes": {"@spider": "usps_collection_boxes"}, "geometry": {"coordinates": [-76.073779, 40.327829], "type": "Point"}, "id": "tmxHKp2p9gWz21Lrfu1J9kAhG8M=", "properties": {"@spider": "usps_collection_boxes", "addr:city": "WERNERSVILLE", "addr:country": "US", "addr:full": "55 S CHURCH RD", "addr:postcode": "19565", "addr:state": "PA", "amenity": "post_box", "brand": "United States Postal Service", "brand:wikidata": "Q668687", "collection_times": "Mo-Fr 16:45; Sa 12:00", "name": "USPS COLLECTION BOX - PO LOBBY", "note": "ON 12/24 AND 12/31, THIS BOX MAY BE COLLECTED AS EARLY AS 12 NOON.", "nsi_id": "unitedstatespostalservice-a77078", "operator": "United States Postal Service", "operator:short": "USPS", "operator:type": "public", "operator:wikidata": "Q668687", "ref": "1956500010"}, "type": "Feature"}
{"dataset_attributes": {"@spider": "usps_collection_boxes"}, "geometry": {"coordinates": [-76.073749878, 40.327805056], "type": "Point"}, "id": "IIfaha3Ews7DvOB9TP_7m-w2VJM=", "properties": {"@spider": "usps_collection_boxes", "addr:city": "WERNERSVILLE", "addr:country": "US", "addr:full": "55 S CHURCH RD", "addr:postcode": "19565", "addr:state": "PA", "amenity": "post_box", "brand": "United States Postal Service", "brand:wikidata": "Q668687", "collection_times": "Mo-Fr 16:45; Sa 12:15", "name": "USPS COLLECTION BOX - PO LOBBY", "note": "ON 12/24 AND 12/31, THIS BOX MAY BE COLLECTED AS EARLY AS 12 NOON.", "nsi_id": "unitedstatespostalservice-a77078", "operator": "United States Postal Service", "operator:short": "USPS", "operator:type": "public", "operator:wikidata": "Q668687", "ref": "1956500012"}, "type": "Feature"}
{"dataset_attributes": {"@spider": "usps_collection_boxes"}, "geometry": {"coordinates": [-76.1893284, 40.370971], "type": "Point"}, "id": "5C7utPy2hxCoyrQoQD46Ng0tL50=", "properties": {"@spider": "usps_collection_boxes", "addr:city": "WOMELSDORF", "addr:country": "US", "addr:full": "410 N 3RD ST", "addr:postcode": "19567", "addr:state": "PA", "amenity": "post_box", "brand": "United States Postal Service", "brand:wikidata": "Q668687", "collection_times": "Mo-Sa 10:00", "name": "USPS COLLECTION BOX - BLUE BOX", "nsi_id": "unitedstatespostalservice-a77078", "operator": "United States Postal Service", "operator:short": "USPS", "operator:type": "public", "operator:wikidata": "Q668687", "ref": "1956700003"}, "type": "Feature"}
{"dataset_attributes": {"@spider": "usps_collection_boxes"}, "geometry": {"coordinates": [-76.1884706, 40.365262], "type": "Point"}, "id": "NnHkFLO8Zw0Oz64dSn3eSfD9CeQ=", "properties": {"@spider": "usps_collection_boxes", "addr:city": "WOMELSDORF", "addr:country": "US", "addr:full": "37 N 3RD ST", "addr:postcode": "19567", "addr:state": "PA", "amenity": "post_box", "brand": "United States Postal Service", "brand:wikidata": "Q668687", "collection_times": "Mo-Fr 16:30; Sa 12:00", "name": "USPS COLLECTION BOX - BLUE BOX", "note": "ON 12/24 AND 12/31, THIS BOX MAY BE COLLECTED AS EARLY AS 12 NOON.", "nsi_id": "unitedstatespostalservice-a77078", "operator": "United States Postal Service", "operator:short": "USPS", "operator:type": "public", "operator:wikidata": "Q668687", "ref": "1956700004"}, "type": "Feature"}
{"dataset_attributes": {"@spider": "usps_collection_boxes"}, "geometry": {"coordinates": [-76.1884226, 40.36516], "type": "Point"}, "id": "KIegnl7TC54o3UlYmIJSADKwPlo=", "properties": {"@spider": "usps_collection_boxes", "addr:city": "WOMELSDORF", "addr:country": "US", "addr:full": "37 N 3RD ST", "addr:postcode": "19567", "addr:state": "PA", "amenity": "post_box", "brand": "United States Postal Service", "brand:wikidata": "Q668687", "collection_times": "Mo-Fr 16:30; Sa 12:00", "name": "USPS COLLECTION BOX - PO LOBBY", "note": "ON 12/24 AND 12/31, THIS BOX MAY BE COLLECTED AS EARLY AS 12 NOON.", "nsi_id": "unitedstatespostalservice-a77078", "operator": "United States Postal Service", "operator:short": "USPS", "operator:type": "public", "operator:wikidata": "Q668687", "ref": "1956700010"}, "type": "Feature"}
{"dataset_attributes": {"@spider": "usps_collection_boxes"}, "geometry": {"coordinates": [-76.188520575, 40.365277901], "type": "Point"}, "id": "TlR2a7eq56A6lN1ov3fMHRHmA4Q=", "properties": {"@spider": "usps_collection_boxes", "addr:city": "WOMELSDORF", "addr:country": "US", "addr:full": "37 N 3RD ST", "addr:postcode": "19567", "addr:state": "PA", "amenity": "post_box", "brand": "United States Postal Service", "brand:wikidata": "Q668687", "collection_times": "Mo-Fr 16:30; Sa 12:00", "name": "USPS COLLECTION BOX - PO LOBBY", "note": "ON 12/24 AND 12/31, THIS BOX MAY BE COLLECTED AS EARLY AS 12 NOON.", "nsi_id": "unitedstatespostalservice-a77078", "operator": "United States Postal Service", "operator:short": "USPS", "operator:type": "public", "operator:wikidata": "Q668687", "ref": "1956700013"}, "type": "Feature"}
