{"geometry": {"coordinates": [-75.920057, 40.338372], "type": "Point"}, "id": "6Bv3X38oCEhUkMu0andxRDkqpC0=", "properties": {"@spider": "usps_collection_boxes", "addr:city": "READING", "addr:country": "US", "addr:full": "200 N 9TH ST", "addr:postcode": "19601", "addr:state": "PA", "amenity": "post_box", "brand": "United States Postal Service", "brand:wikidata": "Q668687", "collection_times": "Mo-Sa 10:30", "name": "USPS COLLECTION BOX - BLUE BOX", "nsi_id": "unitedstatespostalservice-a77078", "operator": "United States Postal Service", "operator:short": "USPS", "operator:type": "public", "operator:wikidata": "Q668687", "ref": "1960100001"}, "type": "Feature"}
{"geometry": {"coordinates": [-75.9277757, 40.338323], "type": "Point"}, "id": "IccNa_-DGnFYGFuTaAlGoxZuSTU=", "properties": {"@spider": "usps_collection_boxes", "addr:city": "READING", "addr:country": "US", "addr:full": "150 N 5TH ST", "addr:postcode": "19601", "addr:state": "PA", "amenity": "post_box", "brand": "United States Postal Service", "brand:wikidata": "Q668687", "collection_times": "Mo-Fr 09:00", "name": "USPS COLLECTION BOX - BLUE BOX", "nsi_id": "unitedstatespostalservice-a77078", "operator": "United States Postal Service", "operator:short": "USPS", "operator:type": "public", "operator:wikidata": "Q668687", "ref": "1960100007"}, "type": "Feature"}
{"geometry": {"coordinates": [-75.9355153, 40.337392], "type": "Point"}, "id": "oo7NwmobT4MdKfNE-rCFpDj657w=", "properties": {"@spider": "usps_collection_boxes", "addr:city": "READING", "addr:country": "US", "addr:full": "100 N FRONT ST", "addr:postcode": "19601", "addr:state": "PA", "amenity": "post_box", "brand": "United States Postal Service", "brand:wikidata": "Q668687", "collection_times": "Mo-Sa 09:00", "name": "USPS COLLECTION BOX - BLUE BOX", "nsi_id": "unitedstatespostalservice-a77078", "operator": "United States Postal Service", "operator:short": "USPS", "operator:type": "public", "operator:wikidata": "Q668687", "ref": "1960100013"}, "type": "Feature"}
{"geometry": {"coordinates": [-75.932975, 40.343975], "type": "Point"}, "id": "Axmo8Ku0C7cfgdlMV2wMRqQYw04=", "properties": {"@spider": "usps_collection_boxes", "addr:city": "READING", "addr:country": "US", "addr:full": "22 N 6TH ST", "addr:postcode": "19601", "addr:state": "PA", "amenity": "post_box", "brand": "United States Postal Service", "brand:wikidata": "Q668687", "collection_times": "Mo-Fr 09:00", "name": "USPS COLLECTION BOX - BLUE BOX", "nsi_id": "unitedstatespostalservice-a77078", "operator": "United States Postal Service", "operator:short": "USPS", "operator:type": "public", "operator:wikidata": "Q668687", "ref": "1960100022"}, "type": "Feature"}
{"geometry": {"coordinates": [-75.9217353, 40.336925], "type": "Point"}, "id": "WmH5kjcyx5JFZgoGLlO4OV7GsKI=", "properties": {"@spider": "usps_collection_boxes", "addr:city": "READING", "addr:country": "US", "addr:full": "800 WASHINGTON ST", "addr:postcode": "19601", "addr:state": "PA", "amenity": "post_box", "brand": "United States Postal Service", "brand:wikidata": "Q668687", "collection_times": "Mo-Sa 08:00", "name": "USPS COLLECTION BOX - BLUE BOX", "nsi_id": "unitedstatespostalservice-a77078", "operator": "United States Postal Service", "operator:short": "USPS", "operator:type": "public", "operator:wikidata": "Q668687", "ref": "1960100027"}, "type": "Feature"}
{"geometry": {"coordinates": [-75.9277049, 40.339933], "type": "Point"}, "id": "qZlynY-LTI8k-rV2Bhpp0R3frJ0=", "properties": {"@spider": "usps_collection_boxes", "addr:city": "READING", "addr:country": "US", "addr:full": "255 N 5TH ST", "addr:postcode": "19601", "addr:state": "PA", "amenity": "post_box", "brand": "United States Postal Service", "brand:wikidata": "Q668687", "collection_times": "Mo-Sa 08:00", "name": "USPS COLLECTION BOX - BLUE BOX", "nsi_id": "unitedstatespostalservice-a77078", "operator": "United States Postal Service", "operator:short": "USPS", "operator:type": "public", "operator:wikidata": "Q668687", "ref": "1960100039"}, "type": "Feature"}
{"geometry": {"coordinates": [-75.9257794, 40.338523], "type": "Point"}, "id": "Lmb2vU6VhmnHzR7_gJAqFW3zeYU=", "properties": {"@spider": "usps_collection_boxes", "addr:city": "READING", "addr:country": "US", "addr:full": "200 N 6TH ST", "addr:postcode": "19601", "addr:state": "PA", "amenity": "post_box", "brand": "United States Postal Service", "brand:wikidata": "Q668687", "collection_times": "Mo-Fr 11:00", "name": "USPS COLLECTION BOX - BLUE BOX", "nsi_id": "unitedstatespostalservice-a77078", "operator": "United States Postal Service", "operator:short": "USPS", "operator:type": "public", "operator:wikidata": "Q668687", "ref": "1960100041"}, "type": "Feature"}
{"geometry": {"coordinates": [-75.9273617, 40.346013], "type": "Point"}, "id": "MPMOgY2bIUHc6_Id4VXQvJYJEVs=", "properties": {"@spider": "usps_collection_boxes", "addr:city": "READING", "addr:country": "US", "addr:full": "505 OLEY ST", "addr:postcode": "19601", "addr:state": "PA", "amenity": "post_box", "brand": "United States Postal Service", "brand:wikidata": "Q668687", "collection_times": "Mo-Sa 14:00", "name": "USPS COLLECTION BOX - BLUE BOX", "note": "ON 12/24 AND 12/31, THIS BOX MAY BE COLLECTED AS EARLY AS 12 NOON.", "nsi_id": "unitedstatespostalservice-a77078", "operator": "United States Postal Service", "operator:short": "USPS", "operator:type": "public", "operator:wikidata": "Q668687", "ref": "1960100063"}, "type": "Feature"}
{"geometry": {"coordinates": [-75.9263654, 40.356395], "type": "Point"}, "id": "4sz9kQNKNTo4k6-P6SDDBd466E4=", "properties": {"@spider": "usps_collection_boxes", "addr:city": "READING", "addr:country": "US", "addr:full": "523 PIKE ST", "addr:postcode": "19601", "addr:state": "PA", "amenity": "post_box", "brand": "United States Postal Service", "brand:wikidata": "Q668687", "collection_times": "Mo-Sa 13:00", "name": "USPS COLLECTION BOX - BLUE BOX", "note": "ON 12/24 AND 12/31, THIS BOX MAY BE COLLECTED AS EARLY AS 12 NOON.", "nsi_id": "unitedstatespostalservice-a77078", "operator": "United States Postal Service", "operator:short": "USPS", "operator:type": "public", "operator:wikidata": "Q668687", "ref": "1960100071"}, "type": "Feature"}
{"geometry": {"coordinates": [-75.9587360062, 40.3677470146], "type": "Point"}, "id": "bbuEGEoEvo_1n54AWbY41xnvK6s=", "properties": {"@spider": "usps_collection_boxes", "addr:city": "READING", "addr:country": "US", "addr:full": "2124 BERNVILLE RD", "addr:postcode": "19601", "addr:state": "PA", "amenity": "post_box", "brand": "United States Postal Service", "brand:wikidata": "Q668687", "collection_times": "Mo-Sa 14:45", "name": "USPS COLLECTION BOX - BLUE BOX", "note": "ON 12/24 AND 12/31, THIS BOX MAY BE COLLECTED AS EARLY AS 12 NOON.", "nsi_id": "unitedstatespostalservice-a77078", "operator": "United States Postal Service", "operator:short": "USPS", "operator:type": "public", "operator:wikidata": "Q668687", "ref": "1960100072"}, "type": "Feature"}
{"geometry": {"coordinates": [-75.9465923, 40.358113], "type": "Point"}, "id": "aJIkmIFayZ0V0FZ1kHZAi8x2zAs=", "properties": {"@spider": "usps_collection_boxes", "addr:city": "READING", "addr:country": "US", "addr:full": "707 WARREN ST", "addr:postcode": "19601", "addr:state": "PA", "amenity": "post_box", "brand": "United States Postal Service", "brand:wikidata": "Q668687", "collection_times": "Mo-Fr 11:30", "name": "USPS COLLECTION BOX - BLUE BOX", "nsi_id": "unitedstatespostalservice-a77078", "operator": "United States Postal Service", "operator:short": "USPS", "operator:type": "public", "operator:wikidata": "Q668687", "ref": "1960100075"}, "type": "Feature"}
{"geometry": {"coordinates": [-75.9278205, 40.336915], "type": "Point"}, "id": "ReMMd8Q2PXH5GQze_akT_NB8lvk=", "properties": {"@spider": "usps_collection_boxes", "addr:city": "READING", "addr:country": "US", "addr:full": "59 N 5TH ST", "addr:postcode": "19601", "addr:state": "PA", "amenity": "post_box", "brand": "United States Postal Service", "brand:wikidata": "Q668687", "collection_times": "Mo-Fr 17:00; Sa 14:00", "name": "USPS COLLECTION BOX - BLUE BOX", "note": "ON 12/24 AND 12/31, THIS BOX MAY BE COLLECTED AS EARLY AS 12 NOON.", "nsi_id": "unitedstatespostalservice-a77078", "operator": "United States Postal Service", "operator:short": "USPS", "operator:type": "public", "operator:wikidata": "Q668687", "ref": "1960100082"}, "type": "Feature"}
{"geometry": {"coordinates": [-75.926914907, 40.336305218], "type": "Point"}, "id": "fSIpEuxLz969GfGZFamFfzes6hQ=", "properties": {"@spider": "usps_collection_boxes", "addr:city": "READING", "addr:country": "US", "addr:full": "525 COURT ST", "addr:postcode": "19601", "addr:state": "PA", "amenity": "post_box", "brand": "United States Postal Service", "brand:wikidata": "Q668687", "collection_times": "Mo-Fr 17:00; Sa 14:00", "name": "USPS COLLECTION BOX - BLUE BOX", "note": "ON 12/24 AND 12/31, THIS BOX MAY BE COLLECTED AS EARLY AS 12 NOON.", "nsi_id": "unitedstatespostalservice-a77078", "operator": "United States Postal Service", "operator:short": "USPS", "operator:type": "public", "operator:wikidata": "Q668687", "ref": "1960100086"}, "type": "Feature"}
{"geometry": {"coordinates": [-75.927844, 40.336556], "type": "Point"}, "id": "0SYitMv-bWxPBWO_eEbNDeT8wHQ=", "properties": {"@spider": "usps_collection_boxes", "addr:city": "READING", "addr:country": "US", "addr:full": "59 N 5TH ST", "addr:postcode": "19601", "addr:state": "PA", "amenity": "post_box", "brand": "United States Postal Service", "brand:wikidata": "Q668687", "collection_times": "Mo-Fr 17:00; Sa 14:00", "name": "USPS COLLECTION BOX - PO LOBBY", "note": "ON 12/24 AND 12/31, THIS BOX MAY BE COLLECTED AS EARLY AS 12 NOON.", "nsi_id": "unitedstatespostalservice-a77078", "operator": "United States Postal Service", "operator:short": "USPS", "operator:type": "public", "operator:wikidata": "Q668687", "ref": "1960100093"}, "type": "Feature"}
{"geometry": {"coordinates": [-75.9181694, 40.33528], "type": "Point"}, "id": "UjTUSS7qA_03W3bpS3VUud0ZRdo=", "properties": {"@spider": "usps_collection_boxes", "addr:city": "READING", "addr:country": "US", "addr:full": "2 N 10TH ST", "addr:postcode": "19601", "addr:state": "PA", "amenity": "post_box", "brand": "United States Postal Service", "brand:wikidata": "Q668687", "collection_times": "Mo-Fr 09:00", "name": "USPS COLLECTION BOX - BLUE BOX", "nsi_id": "unitedstatespostalservice-a77078", "operator": "United States Postal Service", "operator:short": "USPS", "operator:type": "public", "operator:wikidata": "Q668687", "ref": "1960100099"}, "type": "Feature"}
{"geometry": {"coordinates": [-75.9536824, 40.355561], "type": "Point"}, "id": "mW9ZK6vAn2TY_0tlIIiRhvdWfno=", "properties": {"@spider": "usps_collection_boxes", "addr:city": "READING", "addr:country": "US", "addr:full": "305 LACKAWANNA ST", "addr:postcode": "19601", "addr:state": "PA", "amenity": "post_box", "brand": "United States Postal Service", "brand:wikidata": "Q668687", "collection_times": "Mo-Sa 10:30", "name": "USPS COLLECTION BOX - BLUE BOX", "nsi_id": "unitedstatespostalservice-a77078", "operator": "United States Postal Service", "operator:short": "USPS", "operator:type": "public", "operator:wikidata": "Q668687", "ref": "1960100101"}, "type": "Feature"}
{"geometry": {"coordinates": [-75.9294349, 40.349462], "type": "Point"}, "id": "mv9PXEUQgu81-RMASmsf0C0_KoA=", "properties": {"@spider": "usps_collection_boxes", "addr:city": "READING", "addr:country": "US", "addr:full": "920 N 4TH ST", "addr:postcode": "19601", "addr:state": "PA", "amenity": "post_box", "brand": "United States Postal Service", "brand:wikidata": "Q668687", "collection_times": "Mo-Sa 10:30", "name": "USPS COLLECTION BOX - BLUE BOX", "nsi_id": "unitedstatespostalservice-a77078", "operator": "United States Postal Service", "operator:short": "USPS", "operator:type": "public", "operator:wikidata": "Q668687", "ref": "1960100106"}, "type": "Feature"}
{"geometry": {"coordinates": [-75.927788507, 40.336558231], "type": "Point"}, "id": "bV77eTWMUT97KypBXeVkCnn_zK8=", "properties": {"@spider": "usps_collection_boxes", "addr:city": "READING", "addr:country": "US", "addr:full": "59 N 5TH ST", "addr:postcode": "19601", "addr:state": "PA", "amenity": "post_box", "brand": "United States Postal Service", "brand:wikidata": "Q668687", "collection_times": "Mo-Fr 17:15; Sa 14:15", "name": "USPS COLLECTION BOX - PO LOBBY", "note": "ON 12/24 AND 12/31, THIS BOX MAY BE COLLECTED AS EARLY AS 12 NOON.", "nsi_id": "unitedstatespostalservice-a77078", "operator": "United States Postal Service", "operator:short": "USPS", "operator:type": "public", "operator:wikidata": "Q668687", "ref": "1960100111"}, "type": "Feature"}
{"geometry": {"coordinates": [-75.929791, 40.33515], "type": "Point"}, "id": "VCOiqWsz8iHVqxN6lAthQQbjyVc=", "properties": {"@spider": "usps_collection_boxes", "addr:city": "WEST READING", "addr:country": "US", "addr:full": "4 S 4TH ST", "addr:postcode": "19602", "addr:state": "PA", "amenity": "post_box", "brand": "United States Postal Service", "brand:wikidata": "Q668687", "collection_times": "Mo-Fr 09:00", "name": "USPS COLLECTION BOX - BLUE BOX", "nsi_id": "unitedstatespostalservice-a77078", "operator": "United States Postal Service", "operator:short": "USPS", "operator:type": "public", "operator:wikidata": "Q668687", "ref": "1960200000"}, "type": "Feature"}
{"geometry": {"coordinates": [-75.9261829, 40.332165], "type": "Point"}, "id": "Fb-GkkF4P3iQdC5lUm_BB29XXvo=", "properties": {"@spider": "usps_collection_boxes", "addr:city": "WEST READING", "addr:country": "US", "addr:full": "541 CHESTNUT ST", "addr:postcode": "19602", "addr:state": "PA", "amenity": "post_box", "brand": "United States Postal Service", "brand:wikidata": "Q668687", "collection_times": "Mo-Sa 09:00", "name": "USPS COLLECTION BOX - BLUE BOX", "nsi_id": "unitedstatespostalservice-a77078", "operator": "United States Postal Service", "operator:short": "USPS", "operator:type": "public", "operator:wikidata": "Q668687", "ref": "1960200001"}, "type": "Feature"}
{"geometry": {"coordinates": [-75.9280096, 40.333613], "type": "Point"}, "id": "nKZJxA8yiBwR9i-T3PdTnFL9TVU=", "properties": {"@spider": "usps_collection_boxes", "addr:city": "WEST READING", "addr:country": "US", "addr:full": "100 S 5TH ST", "addr:postcode": "19602", "addr:state": "PA", "amenity": "post_box", "brand": "United States Postal Service", "brand:wikidata": "Q668687", "collection_times": "Mo-Sa 09:00", "name": "USPS COLLECTION BOX - BLUE BOX", "nsi_id": "unitedstatespostalservice-a77078", "operator": "United States Postal Service", "operator:short": "USPS", "operator:type": "public", "operator:wikidata": "Q668687", "ref": "1960200004"}, "type": "Feature"}
{"geometry": {"coordinates": [-75.9170925, 40.333342], "type": "Point"}, "id": "M-s9Mm4xb1FITNb6uI_ixdS8_B8=", "properties": {"@spider": "usps_collection_boxes", "addr:city": "WEST READING", "addr:country": "US", "addr:full": "1026 FRANKLIN ST", "addr:postcode": "19602", "addr:state": "PA", "amenity": "post_box", "brand": "United States Postal Service", "brand:wikidata": "Q668687", "collection_times": "Mo-Sa 13:30", "name": "USPS COLLECTION BOX - BLUE BOX", "note": "ON 12/24 AND 12/31, THIS BOX MAY BE COLLECTED AS EARLY AS 12 NOON.", "nsi_id": "unitedstatespostalservice-a77078", "operator": "United States Postal Service", "operator:short": "USPS", "operator:type": "public", "operator:wikidata": "Q668687", "ref": "1960200007"}, "type": "Feature"}
{"geometry": {"coordinates": [-75.934208, 40.334394], "type": "Point"}, "id": "aruPYrcAZjHalMzu1WgkYde4ji0=", "properties": {"@spider": "usps_collection_boxes", "addr:city": "WEST READING", "addr:country": "US", "addr:full": "10 S 2ND ST", "addr:postcode": "19602", "addr:state": "PA", "amenity": "post_box", "brand": "United States Postal Service", "brand:wikidata": "Q668687", "collection_times": "Mo-Sa 09:00", "name": "USPS COLLECTION BOX - BLUE BOX", "nsi_id": "unitedstatespostalservice-a77078", "operator": "United States Postal Service", "operator:short": "USPS", "operator:type": "public", "operator:wikidata": "Q668687", "ref": "1960200013"}, "type": "Feature"}
{"geometry": {"coordinates": [-75.9279926, 40.330568], "type": "Point"}, "id": "5uAmQVHmSbIz6RlEFEY6ojpXe-8=", "properties": {"@spider": "usps_collection_boxes", "addr:city": "WEST READING", "addr:country": "US", "addr:full": "300 S 5TH ST", "addr:postcode": "19602", "addr:state": "PA", "amenity": "post_box", "brand": "United States Postal Service", "brand:wikidata": "Q668687", "collection_times": "Mo-Sa 09:00", "name": "USPS COLLECTION BOX - BLUE BOX", "nsi_id": "unitedstatespostalservice-a77078", "operator": "United States Postal Service", "operator:short": "USPS", "operator:type": "public", "operator:wikidata": "Q668687", "ref": "1960200020"}, "type": "Feature"}
{"geometry": {"coordinates": [-75.9271865, 40.326442], "type": "Point"}, "id": "hHuXXorS5nqIudcfKQT81yQ67-Y=", "properties": {"@spider": "usps_collection_boxes", "addr:city": "WEST READING", "addr:country": "US", "addr:full": "555 PEARL ST", "addr:postcode": "19602", "addr:state": "PA", "amenity": "post_box", "brand": "United States Postal Service", "brand:wikidata": "Q668687", "collection_times": "Mo-Sa 11:00", "name": "USPS COLLECTION BOX - BLUE BOX", "nsi_id": "unitedstatespostalservice-a77078", "operator": "United States Postal Service", "operator:short": "USPS", "operator:type": "public", "operator:wikidata": "Q668687", "ref": "1960200022"}, "type": "Feature"}
{"geometry": {"coordinates": [-75.9123495, 40.328529], "type": "Point"}, "id": "FdyjDZCnBKb7ZVkoSF91fVfYC2c=", "properties": {"@spider": "usps_collection_boxes", "addr:city": "WEST READING", "addr:country": "US", "addr:full": "1300 COTTON ST", "addr:postcode": "19602", "addr:state": "PA", "amenity": "post_box", "brand": "United States Postal Service", "brand:wikidata": "Q668687", "collection_times": "Mo-Sa 10:30", "name": "USPS COLLECTION BOX - BLUE BOX", "nsi_id": "unitedstatespostalservice-a77078", "operator": "United States Postal Service", "operator:short": "USPS", "operator:type": "public", "operator:wikidata": "Q668687", "ref": "1960200033"}, "type": "Feature"}
{"geometry": {"coordinates": [-75.9145011, 40.330538], "type": "Point"}, "id": "T2ePWcgqCibD_LwXvQcrX1qrrkM=", "properties": {"@spider": "usps_collection_boxes", "addr:city": "WEST READING", "addr:country": "US", "addr:full": "250 S 12TH ST", "addr:postcode": "19602", "addr:state": "PA", "amenity": "post_box", "brand": "United States Postal Service", "brand:wikidata": "Q668687", "collection_times": "Mo-Sa 11:30", "name": "USPS COLLECTION BOX - BLUE BOX", "nsi_id": "unitedstatespostalservice-a77078", "operator": "United States Postal Service", "operator:short": "USPS", "operator:type": "public", "operator:wikidata": "Q668687", "ref": "1960200035"}, "type": "Feature"}
{"geometry": {"coordinates": [-75.9249889, 40.334382], "type": "Point"}, "id": "nUMGtCNqE4Pzw0lJqvz1-eOgifo=", "properties": {"@spider": "usps_collection_boxes", "addr:city": "WEST READING", "addr:country": "US", "addr:full": "625 CHERRY ST", "addr:postcode": "19602", "addr:state": "PA", "amenity": "post_box", "brand": "United States Postal Service", "brand:wikidata": "Q668687", "collection_times": "Mo-Fr 16:00", "name": "USPS COLLECTION BOX - BLUE BOX", "note": "ON 12/24 AND 12/31, THIS BOX MAY BE COLLECTED AS EARLY AS 12 NOON.", "nsi_id": "unitedstatespostalservice-a77078", "operator": "United States Postal Service", "operator:short": "USPS", "operator:type": "public", "operator:wikidata": "Q668687", "ref": "1960200051"}, "type": "Feature"}
{"geometry": {"coordinates": [-75.9074674, 40.333954], "type": "Point"}, "id": "_dI8CqYrFy48MbpBIs6geW6YTXQ=", "properties": {"@spider": "usps_collection_boxes", "addr:city": "WEST READING", "addr:country": "US", "addr:full": "1517 HILL RD", "addr:postcode": "19602", "addr:state": "PA", "amenity": "post_box", "brand": "United States Postal Service", "brand:wikidata": "Q668687", "collection_times": "Mo-Sa 09:30", "name": "USPS COLLECTION BOX - BLUE BOX", "nsi_id": "unitedstatespostalservice-a77078", "operator": "United States Postal Service", "operator:short": "USPS", "operator:type": "public", "operator:wikidata": "Q668687", "ref": "1960200053"}, "type": "Feature"}
{"geometry": {"coordinates": [-75.9178092, 40.343341], "type": "Point"}, "id": "PYnN4XmJMnzCCSwww-FsQ7q8d00=", "properties": {"@spider": "usps_collection_boxes", "addr:city": "READING", "addr:country": "US", "addr:full": "505 N 10TH ST", "addr:postcode": "19604", "addr:state": "PA", "amenity": "post_box", "brand": "United States Postal Service", "brand:wikidata": "Q668687", "collection_times": "Mo-Fr 10:00", "name": "USPS COLLECTION BOX - BLUE BOX", "nsi_id": "unitedstatespostalservice-a77078", "operator": "United States Postal Service", "operator:short": "USPS", "operator:type": "public", "operator:wikidata": "Q668687", "ref": "1960400001"}, "type": "Feature"}
{"geometry": {"coordinates": [-75.9197399, 40.349951], "type": "Point"}, "id": "wfIb55r9Tt_Qcvi2W5bPgyIM2EQ=", "properties": {"@spider": "usps_collection_boxes", "addr:city": "READING", "addr:country": "US", "addr:full": "956 N 9TH ST", "addr:postcode": "19604", "addr:state": "PA", "amenity": "post_box", "brand": "United States Postal Service", "brand:wikidata": "Q668687", "collection_times": "Mo-Fr 09:30", "name": "USPS COLLECTION BOX - BLUE BOX", "nsi_id": "unitedstatespostalservice-a77078", "operator": "United States Postal Service", "operator:short": "USPS", "operator:type": "public", "operator:wikidata": "Q668687", "ref": "1960400011"}, "type": "Feature"}
{"geometry": {"coordinates": [-75.9176023, 40.354655], "type": "Point"}, "id": "WqV6u15XUPqeTyrP3M_CoaNzkMk=", "properties": {"@spider": "usps_collection_boxes", "addr:city": "READING", "addr:country": "US", "addr:full": "1259 N 10TH ST", "addr:postcode": "19604", "addr:state": "PA", "amenity": "post_box", "brand": "United States Postal Service", "brand:wikidata": "Q668687", "collection_times": "Mo-Fr 09:15", "name": "USPS COLLECTION BOX - BLUE BOX", "nsi_id": "unitedstatespostalservice-a77078", "operator": "United States Postal Service", "operator:short": "USPS", "operator:type": "public", "operator:wikidata": "Q668687", "ref": "1960400015"}, "type": "Feature"}
{"geometry": {"coordinates": [-75.9156784, 40.356073], "type": "Point"}, "id": "qoE5o1oti_PfVqGklxhrrkhMvgc=", "properties": {"@spider": "usps_collection_boxes", "addr:city": "READING", "addr:country": "US", "addr:full": "1348 N 11TH ST", "addr:postcode": "19604", "addr:state": "PA", "amenity": "post_box", "brand": "United States Postal Service", "brand:wikidata": "Q668687", "collection_times": "Mo-Fr 11:00", "name": "USPS COLLECTION BOX - BLUE BOX", "nsi_id": "unitedstatespostalservice-a77078", "operator": "United States Postal Service", "operator:short": "USPS", "operator:type": "public", "operator:wikidata": "Q668687", "ref": "1960400017"}, "type": "Feature"}
{"geometry": {"coordinates": [-75.9104977, 40.362505], "type": "Point"}, "id": "-44nQYT0nj4XCcAhhWvVAgAwRlE=", "properties": {"@spider": "usps_collection_boxes", "addr:city": "READING", "addr:country": "US", "addr:full": "1621 N 13TH ST", "addr:postcode": "19604", "addr:state": "PA", "amenity": "post_box", "brand": "United States Postal Service", "brand:wikidata": "Q668687", "collection_times": "Mo-Fr 17:15", "name": "USPS COLLECTION BOX - BLUE BOX", "note": "ON 12/24 AND 12/31, THIS BOX MAY BE COLLECTED AS EARLY AS 12 NOON.", "nsi_id": "unitedstatespostalservice-a77078", "operator": "United States Postal Service", "operator:short": "USPS", "operator:type": "public", "operator:wikidata": "Q668687", "ref": "1960400026"}, "type": "Feature"}
{"geometry": {"coordinates": [-75.9023557, 40.365241], "type": "Point"}, "id": "qAy4qx1XZOtlu3lT2HpNvXZueDI=", "properties": {"@spider": "usps_collection_boxes", "addr:city": "READING", "addr:country": "US", "addr:full": "2020 HAMPDEN BLVD", "addr:postcode": "19604", "addr:state": "PA", "amenity": "post_box", "brand": "United States Postal Service", "brand:wikidata": "Q668687", "collection_times": "Mo-Sa 09:15", "name": "USPS COLLECTION BOX - BLUE BOX", "nsi_id": "unitedstatespostalservice-a77078", "operator": "United States Postal Service", "operator:short": "USPS", "operator:type": "public", "operator:wikidata": "Q668687", "ref": "1960400028"}, "type": "Feature"}
{"geometry": {"coordinates": [-75.9212642, 40.37488], "type": "Point"}, "id": "dIEB0TGLSULIZFuFY2SrrNiUXNU=", "properties": {"@spider": "usps_collection_boxes", "addr:city": "READING", "addr:country": "US", "addr:full": "100 MADISON AVE", "addr:postcode": "19605", "addr:state": "PA", "amenity": "post_box", "brand": "United States Postal Service", "brand:wikidata": "Q668687", "collection_times": "Mo-Fr 11:00", "name": "USPS COLLECTION BOX - BLUE BOX", "nsi_id": "unitedstatespostalservice-a77078", "operator": "United States Postal Service", "operator:short": "USPS", "operator:type": "public", "operator:wikidata": "Q668687", "ref": "1960500000"}, "type": "Feature"}
{"geometry": {"coordinates": [-75.9095806, 40.39052], "type": "Point"}, "id": "6H_T0iyCG-7D6hynAhnS3FTpiaQ=", "properties": {"@spider": "usps_collection_boxes", "addr:city": "READING", "addr:country": "US", "addr:full": "1724 ELIZABETH AVE", "addr:postcode": "19605", "addr:state": "PA", "amenity": "post_box", "brand": "United States Postal Service", "brand:wikidata": "Q668687", "collection_times": "Mo-Sa 12:30", "name": "USPS COLLECTION BOX - BLUE BOX", "note": "ON 12/24 AND 12/31, THIS BOX MAY BE COLLECTED AS EARLY AS 12 NOON.", "nsi_id": "unitedstatespostalservice-a77078", "operator": "United States Postal Service", "operator:short": "USPS", "operator:type": "public", "operator:wikidata": "Q668687", "ref": "1960500002"}, "type": "Feature"}
{"geometry": {"coordinates": [-75.915366027, 40.390719003], "type": "Point"}, "id": "qPyd2EAoQME9t42gAMa9M4edRlM=", "properties": {"@spider": "usps_collection_boxes", "addr:city": "READING", "addr:country": "US", "addr:full": "1409 PARK PL", "addr:postcode": "19605", "addr:state": "PA", "amenity": "post_box", "brand": "United States Postal Service", "brand:wikidata": "Q668687", "collection_times": "Mo-Fr 12:15", "name": "USPS COLLECTION BOX - BLUE BOX", "note": "ON 12/24 AND 12/31, THIS BOX MAY BE COLLECTED AS EARLY AS 12 NOON.", "nsi_id": "unitedstatespostalservice-a77078", "operator": "United States Postal Service", "operator:short": "USPS", "operator:type": "public", "operator:wikidata": "Q668687", "ref": "1960500005"}, "type": "Feature"}
{"geometry": {"coordinates": [-75.9220026, 40.383574], "type": "Point"}, "id": "jee9pPLrx78IujBO-INkz4jZi0c=", "properties": {"@spider": "usps_collection_boxes", "addr:city": "READING", "addr:country": "US", "addr:full": "615 EMERSON AVE", "addr:postcode": "19605", "addr:state": "PA", "amenity": "post_box", "brand": "United States Postal Service", "brand:wikidata": "Q668687", "collection_times": "Mo-Sa 13:30", "name": "USPS COLLECTION BOX - BLUE BOX", "note": "ON 12/24 AND 12/31, THIS BOX MAY BE COLLECTED AS EARLY AS 12 NOON.", "nsi_id": "unitedstatespostalservice-a77078", "operator": "United States Postal Service", "operator:short": "USPS", "operator:type": "public", "operator:wikidata": "Q668687", "ref": "1960500006"}, "type": "Feature"}
{"geometry": {"coordinates": [-75.9190345, 40.377985], "type": "Point"}, "id": "9OWg9vpuyVGrmsZMzGhwX-ctQnQ=", "properties": {"@spider": "usps_collection_boxes", "addr:city": "READING", "addr:country": "US", "addr:full": "2840 KUTZTOWN RD", "addr:postcode": "19605", "addr:state": "PA", "amenity": "post_box", "brand": "United States Postal Service", "brand:wikidata": "Q668687", "collection_times": "Mo-Fr 09:45", "name": "USPS COLLECTION BOX - BLUE BOX", "nsi_id": "unitedstatespostalservice-a77078", "operator": "United States Postal Service", "operator:short": "USPS", "operator:type": "public", "operator:wikidata": "Q668687", "ref": "1960500007"}, "type": "Feature"}
{"geometry": {"coordinates": [-75.974357, 40.377164], "type": "Point"}, "id": "CHl-233HQuP1bug40sx6nTt5_8s=", "properties": {"@spider": "usps_collection_boxes", "addr:city": "READING", "addr:country": "US", "addr:full": "1017 MACARTHUR RD", "addr:postcode": "19605", "addr:state": "PA", "amenity": "post_box", "brand": "United States Postal Service", "brand:wikidata": "Q668687", "collection_times": "Mo-Fr 10:00", "name": "USPS COLLECTION BOX - BLUE BOX", "nsi_id": "unitedstatespostalservice-a77078", "operator": "United States Postal Service", "operator:short": "USPS", "operator:type": "public", "operator:wikidata": "Q668687", "ref": "1960500011"}, "type": "Feature"}
{"geometry": {"coordinates": [-75.9410235, 40.404357], "type": "Point"}, "id": "KXftz2UMPTn0lqeDR8VrXNeu_gQ=", "properties": {"@spider": "usps_collection_boxes", "addr:city": "READING", "addr:country": "US", "addr:full": "100 CORPORATE DR", "addr:postcode": "19605", "addr:state": "PA", "amenity": "post_box", "brand": "United States Postal Service", "brand:wikidata": "Q668687", "collection_times": "Mo-Fr 10:00", "name": "USPS COLLECTION BOX - BLUE BOX", "nsi_id": "unitedstatespostalservice-a77078", "operator": "United States Postal Service", "operator:short": "USPS", "operator:type": "public", "operator:wikidata": "Q668687", "ref": "1960500013"}, "type": "Feature"}
{"geometry": {"coordinates": [-75.9485699, 40.403086], "type": "Point"}, "id": "s9iMYLBHrPN_QeTeURj7C8o8U20=", "properties": {"@spider": "usps_collection_boxes", "addr:city": "READING", "addr:country": "US", "addr:full": "1001 SAGE AVE", "addr:postcode": "19605", "addr:state": "PA", "amenity": "post_box", "brand": "United States Postal Service", "brand:wikidata": "Q668687", "collection_times": "Mo-Fr 11:00", "name": "USPS COLLECTION BOX - BLUE BOX", "nsi_id": "unitedstatespostalservice-a77078", "operator": "United States Postal Service", "operator:short": "USPS", "operator:type": "public", "operator:wikidata": "Q668687", "ref": "1960500017"}, "type": "Feature"}
{"geometry": {"coordinates": [-75.9287372, 40.383126], "type": "Point"}, "id": "PQvoFE450YZ9MpVBs3pv4o59rXo=", "properties": {"@spider": "usps_collection_boxes", "addr:city": "READING", "addr:country": "US", "addr:full": "3270 N 5TH ST HWY", "addr:postcode": "19605", "addr:state": "PA", "amenity": "post_box", "brand": "United States Postal Service", "brand:wikidata": "Q668687", "collection_times": "Mo-Sa 10:15", "name": "USPS COLLECTION BOX - BLUE BOX", "nsi_id": "unitedstatespostalservice-a77078", "operator": "United States Postal Service", "operator:short": "USPS", "operator:type": "public", "operator:wikidata": "Q668687", "ref": "1960500022"}, "type": "Feature"}
{"geometry": {"coordinates": [-75.9330286, 40.367111], "type": "Point"}, "id": "AtRgLumQVx1-Vnp2OzWVJp6uwAY=", "properties": {"@spider": "usps_collection_boxes", "addr:city": "READING", "addr:country": "US", "addr:full": "2100 CENTRE AVE", "addr:postcode": "19605", "addr:state": "PA", "amenity": "post_box", "brand": "United States Postal Service", "brand:wikidata": "Q668687", "collection_times": "Mo-Fr 16:15", "name": "USPS COLLECTION BOX - BLUE BOX", "note": "ON 12/24 AND 12/31, THIS BOX MAY BE COLLECTED AS EARLY AS 12 NOON.", "nsi_id": "unitedstatespostalservice-a77078", "operator": "United States Postal Service", "operator:short": "USPS", "operator:type": "public", "operator:wikidata": "Q668687", "ref": "1960500026"}, "type": "Feature"}
{"geometry": {"coordinates": [-75.9518214, 40.400423], "type": "Point"}, "id": "D9lo_2jJ2Fuxm1_DBPNopWOY80g=", "properties": {"@spider": "usps_collection_boxes", "addr:city": "READING", "addr:country": "US", "addr:full": "1137 COMMONS BLVD", "addr:postcode": "19605", "addr:state": "PA", "amenity": "post_box", "brand": "United States Postal Service", "brand:wikidata": "Q668687", "collection_times": "Mo-Fr 10:00", "name": "USPS COLLECTION BOX - BLUE BOX", "nsi_id": "unitedstatespostalservice-a77078", "operator": "United States Postal Service", "operator:short": "USPS", "operator:type": "public", "operator:wikidata": "Q668687", "ref": "1960500031"}, "type": "Feature"}
{"geometry": {"coordinates": [-75.9204289, 40.387782], "type": "Point"}, "id": "d-EXOxMxc35ZdmcUZRKcpXQmDhU=", "properties": {"@spider": "usps_collection_boxes", "addr:city": "READING", "addr:country": "US", "addr:full": "3406 KUTZTOWN RD", "addr:postcode": "19605", "addr:state": "PA", "amenity": "post_box", "brand": "United States Postal Service", "brand:wikidata": "Q668687", "collection_times": "Mo-Fr 09:00", "name": "USPS COLLECTION BOX - BLUE BOX", "nsi_id": "unitedstatespostalservice-a77078", "operator": "United States Postal Service", "operator:short": "USPS", "operator:type": "public", "operator:wikidata": "Q668687", "ref": "1960500036"}, "type": "Feature"}
{"geometry": {"coordinates": [-75.8679055, 40.309692], "type": "Point"}, "id": "qRg5OD5-Gg4ons01pKO_oXNmOdo=", "properties": {"@spider": "usps_collection_boxes", "addr:city": "READING", "addr:country": "US", "addr:full": "4280 PERKIOMEN AVE", "addr:postcode": "19606", "addr:state": "PA", "amenity": "post_box", "brand": "United States Postal Service", "brand:wikidata": "Q668687", "collection_times": "Mo-Sa 11:00", "name": "USPS COLLECTION BOX - BLUE BOX", "nsi_id": "unitedstatespostalservice-a77078", "operator": "United States Postal Service", "operator:short": "USPS", "operator:type": "public", "operator:wikidata": "Q668687", "ref": "1960600003"}, "type": "Feature"}
{"geometry": {"coordinates": [-75.8747247, 40.31906], "type": "Point"}, "id": "kGS9aW95SRo2Tho0oOrPrT6b__w=", "properties": {"@spider": "usps_collection_boxes", "addr:city": "READING", "addr:country": "US", "addr:full": "3600 PERKIOMEN AVE", "addr:postcode": "19606", "addr:state": "PA", "amenity": "post_box", "brand": "United States Postal Service", "brand:wikidata": "Q668687", "collection_times": "Mo-Sa 09:30", "name": "USPS COLLECTION BOX - BLUE BOX", "nsi_id": "unitedstatespostalservice-a77078", "operator": "United States Postal Service", "operator:short": "USPS", "operator:type": "public", "operator:wikidata": "Q668687", "ref": "1960600005"}, "type": "Feature"}
{"geometry": {"coordinates": [-75.8781341, 40.299282], "type": "Point"}, "id": "Yac5LTmqYPVtwu46V-vPP-Wcia4=", "properties": {"@spider": "usps_collection_boxes", "addr:city": "READING", "addr:country": "US", "addr:full": "600 ORCHARD VIEW RD", "addr:postcode": "19606", "addr:state": "PA", "amenity": "post_box", "brand": "United States Postal Service", "brand:wikidata": "Q668687", "collection_times": "Mo-Fr 13:00", "name": "USPS COLLECTION BOX - BLUE BOX", "note": "ON 12/24 AND 12/31, THIS BOX MAY BE COLLECTED AS EARLY AS 12 NOON.", "nsi_id": "unitedstatespostalservice-a77078", "operator": "United States Postal Service", "operator:short": "USPS", "operator:type": "public", "operator:wikidata": "Q668687", "ref": "1960600036"}, "type": "Feature"}
{"geometry": {"coordinates": [-75.8783039, 40.340749], "type": "Point"}, "id": "TPNjDf9P9jAZCBBdG8OlaWXEZXc=", "properties": {"@spider": "usps_collection_boxes", "addr:city": "READING", "addr:country": "US", "addr:full": "850 CARSONIA AVE", "addr:postcode": "19606", "addr:state": "PA", "amenity": "post_box", "brand": "United States Postal Service", "brand:wikidata": "Q668687", "collection_times": "Mo-Sa 13:30", "name": "USPS COLLECTION BOX - BLUE BOX", "note": "ON 12/24 AND 12/31, THIS BOX MAY BE COLLECTED AS EARLY AS 12 NOON.", "nsi_id": "unitedstatespostalservice-a77078", "operator": "United States Postal Service", "operator:short": "USPS", "operator:type": "public", "operator:wikidata": "Q668687", "ref": "1960600037"}, "type": "Feature"}
{"geometry": {"coordinates": [-75.8917827, 40.326516], "type": "Point"}, "id": "lQK-a_mBEkepMUshhqMJFVpdsyk=", "properties": {"@spider": "usps_collection_boxes", "addr:city": "READING", "addr:country": "US", "addr:full": "2249 FAIRVIEW AVE", "addr:postcode": "19606", "addr:state": "PA", "amenity": "post_box", "brand": "United States Postal Service", "brand:wikidata": "Q668687", "collection_times": "Mo-Sa 13:30", "name": "USPS COLLECTION BOX - BLUE BOX", "note": "ON 12/24 AND 12/31, THIS BOX MAY BE COLLECTED AS EARLY AS 12 NOON.", "nsi_id": "unitedstatespostalservice-a77078", "operator": "United States Postal Service", "operator:short": "USPS", "operator:type": "public", "operator:wikidata": "Q668687", "ref": "1960600039"}, "type": "Feature"}
{"geometry": {"coordinates": [-75.8739786, 40.329158], "type": "Point"}, "id": "TAyI_9w05g_hh-Hpnxo4LBBg6go=", "properties": {"@spider": "usps_collection_boxes", "addr:city": "READING", "addr:country": "US", "addr:full": "3115 SAINT LAWRENCE AVE", "addr:postcode": "19606", "addr:state": "PA", "amenity": "post_box", "brand": "United States Postal Service", "brand:wikidata": "Q668687", "collection_times": "Mo-Fr 17:00; Sa 09:30", "name": "USPS COLLECTION BOX - BLUE BOX", "note": "ON 12/24 AND 12/31, THIS BOX MAY BE COLLECTED AS EARLY AS 12 NOON.", "nsi_id": "unitedstatespostalservice-a77078", "operator": "United States Postal Service", "operator:short": "USPS", "operator:type": "public", "operator:wikidata": "Q668687", "ref": "1960600046"}, "type": "Feature"}
{"geometry": {"coordinates": [-75.8739343, 40.329512], "type": "Point"}, "id": "7NMRTjCbYdlN9aiceLVoIC2rg_g=", "properties": {"@spider": "usps_collection_boxes", "addr:city": "READING", "addr:country": "US", "addr:full": "3115 SAINT LAWRENCE AVE", "addr:postcode": "19606", "addr:state": "PA", "amenity": "post_box", "brand": "United States Postal Service", "brand:wikidata": "Q668687", "collection_times": "Mo-Fr 17:00; Sa 15:00", "name": "USPS COLLECTION BOX - PO LOBBY", "note": "ON 12/24 AND 12/31, THIS BOX MAY BE COLLECTED AS EARLY AS 12 NOON.", "nsi_id": "unitedstatespostalservice-a77078", "operator": "United States Postal Service", "operator:short": "USPS", "operator:type": "public", "operator:wikidata": "Q668687", "ref": "1960600048"}, "type": "Feature"}
{"geometry": {"coordinates": [-75.8739699, 40.329561], "type": "Point"}, "id": "cAz5yI4W5tA_mCPAzf5KWnJBFlk=", "properties": {"@spider": "usps_collection_boxes", "addr:city": "READING", "addr:country": "US", "addr:full": "3115 SAINT LAWRENCE AVE", "addr:postcode": "19606", "addr:state": "PA", "amenity": "post_box", "brand": "United States Postal Service", "brand:wikidata": "Q668687", "collection_times": "Mo-Fr 17:00; Sa 15:00", "name": "USPS COLLECTION BOX - APC", "note": "ON 12/24 AND 12/31, THIS BOX MAY BE COLLECTED AS EARLY AS 12 NOON.", "nsi_id": "unitedstatespostalservice-a77078", "operator": "United States Postal Service", "operator:short": "USPS", "operator:type": "public", "operator:wikidata": "Q668687", "ref": "1960600049"}, "type": "Feature"}
{"geometry": {"coordinates": [-75.873897016, 40.328975739], "type": "Point"}, "id": "UCv6McsIxQ4yaNAMvFUgK9DNsaU=", "properties": {"@spider": "usps_collection_boxes", "addr:city": "READING", "addr:country": "US", "addr:full": "3115 SAINT LAWRENCE AVE", "addr:postcode": "19606", "addr:state": "PA", "amenity": "post_box", "brand": "United States Postal Service", "brand:wikidata": "Q668687", "collection_times": "Mo-Fr 17:15; Sa 15:15", "name": "USPS COLLECTION BOX - PO LOBBY", "note": "ON 12/24 AND 12/31, THIS BOX MAY BE COLLECTED AS EARLY AS 12 NOON.", "nsi_id": "unitedstatespostalservice-a77078", "operator": "United States Postal Service", "operator:short": "USPS", "operator:type": "public", "operator:wikidata": "Q668687", "ref": "1960600054"}, "type": "Feature"}
{"geometry": {"coordinates": [-75.9489687, 40.310965], "type": "Point"}, "id": "wvPQFgHA-evLwy-DrENWp6176Kg=", "properties": {"@spider": "usps_collection_boxes", "addr:city": "SHILLINGTON", "addr:country": "US", "addr:full": "1401 FERN AVE", "addr:postcode": "19607", "addr:state": "PA", "amenity": "post_box", "brand": "United States Postal Service", "brand:wikidata": "Q668687", "collection_times": "Mo-Sa 10:30", "name": "USPS COLLECTION BOX - BLUE BOX", "nsi_id": "unitedstatespostalservice-a77078", "operator": "United States Postal Service", "operator:short": "USPS", "operator:type": "public", "operator:wikidata": "Q668687", "ref": "1960700004"}, "type": "Feature"}
{"geometry": {"coordinates": [-75.9220462, 40.281182], "type": "Point"}, "id": "NP6q_uFDsc10l5d76OLRex3o9n4=", "properties": {"@spider": "usps_collection_boxes", "addr:city": "SHILLINGTON", "addr:country": "US", "addr:full": "18 VILLAGE CENTER DR", "addr:postcode": "19607", "addr:state": "PA", "amenity": "post_box", "brand": "United States Postal Service", "brand:wikidata": "Q668687", "collection_times": "Mo-Sa 09:30", "name": "USPS COLLECTION BOX - BLUE BOX", "nsi_id": "unitedstatespostalservice-a77078", "operator": "United States Postal Service", "operator:short": "USPS", "operator:type": "public", "operator:wikidata": "Q668687", "ref": "1960700014"}, "type": "Feature"}
{"geometry": {"coordinates": [-75.9634044, 40.299876], "type": "Point"}, "id": "wKJGGXkSwkXg30XAGUbhGgjf7pQ=", "properties": {"@spider": "usps_collection_boxes", "addr:city": "SHILLINGTON", "addr:country": "US", "addr:full": "101 SPRUCE ST", "addr:postcode": "19607", "addr:state": "PA", "amenity": "post_box", "brand": "United States Postal Service", "brand:wikidata": "Q668687", "collection_times": "Mo-Sa 13:00", "name": "USPS COLLECTION BOX - BLUE BOX", "note": "ON 12/24 AND 12/31, THIS BOX MAY BE COLLECTED AS EARLY AS 12 NOON.", "nsi_id": "unitedstatespostalservice-a77078", "operator": "United States Postal Service", "operator:short": "USPS", "operator:type": "public", "operator:wikidata": "Q668687", "ref": "1960700015"}, "type": "Feature"}
{"geometry": {"coordinates": [-75.9475924, 40.299276], "type": "Point"}, "id": "ZkRiiVUbU7z3syTZkUWkifyk3cE=", "properties": {"@spider": "usps_collection_boxes", "addr:city": "SHILLINGTON", "addr:country": "US", "addr:full": "700 KENHORST PLZ", "addr:postcode": "19607", "addr:state": "PA", "amenity": "post_box", "brand": "United States Postal Service", "brand:wikidata": "Q668687", "collection_times": "Mo-Sa 11:15", "name": "USPS COLLECTION BOX - BLUE BOX", "nsi_id": "unitedstatespostalservice-a77078", "operator": "United States Postal Service", "operator:short": "USPS", "operator:type": "public", "operator:wikidata": "Q668687", "ref": "1960700016"}, "type": "Feature"}
{"geometry": {"coordinates": [-75.9684138, 40.30466], "type": "Point"}, "id": "B-vVrGZgDYciFj-2Y-k6KrRccpk=", "properties": {"@spider": "usps_collection_boxes", "addr:city": "SHILLINGTON", "addr:country": "US", "addr:full": "100 LIBERTY ST", "addr:postcode": "19607", "addr:state": "PA", "amenity": "post_box", "brand": "United States Postal Service", "brand:wikidata": "Q668687", "collection_times": "Mo-Sa 09:30", "name": "USPS COLLECTION BOX - BLUE BOX", "nsi_id": "unitedstatespostalservice-a77078", "operator": "United States Postal Service", "operator:short": "USPS", "operator:type": "public", "operator:wikidata": "Q668687", "ref": "1960700022"}, "type": "Feature"}
{"geometry": {"coordinates": [-75.9744282, 40.302308], "type": "Point"}, "id": "44WV_tMtj3_i-1eOYczgOanfCsg=", "properties": {"@spider": "usps_collection_boxes", "addr:city": "SHILLINGTON", "addr:country": "US", "addr:full": "125 S WYOMISSING AVE", "addr:postcode": "19607", "addr:state": "PA", "amenity": "post_box", "brand": "United States Postal Service", "brand:wikidata": "Q668687", "collection_times": "Mo-Sa 09:30", "name": "USPS COLLECTION BOX - BLUE BOX", "nsi_id": "unitedstatespostalservice-a77078", "operator": "United States Postal Service", "operator:short": "USPS", "operator:type": "public", "operator:wikidata": "Q668687", "ref": "1960700025"}, "type": "Feature"}
{"geometry": {"coordinates": [-75.9572068, 40.30718], "type": "Point"}, "id": "8uTwuPPt-HMI9MHeySecuPvKY9o=", "properties": {"@spider": "usps_collection_boxes", "addr:city": "SHILLINGTON", "addr:country": "US", "addr:full": "516 E LANCASTER AVE", "addr:postcode": "19607", "addr:state": "PA", "amenity": "post_box", "brand": "United States Postal Service", "brand:wikidata": "Q668687", "collection_times": "Mo-Sa 10:45", "name": "USPS COLLECTION BOX - BLUE BOX", "nsi_id": "unitedstatespostalservice-a77078", "operator": "United States Postal Service", "operator:short": "USPS", "operator:type": "public", "operator:wikidata": "Q668687", "ref": "1960700032"}, "type": "Feature"}
{"geometry": {"coordinates": [-75.9370613, 40.310155], "type": "Point"}, "id": "IrunWBXivFTJ1K34bpYIl19whfY=", "properties": {"@spider": "usps_collection_boxes", "addr:city": "SHILLINGTON", "addr:country": "US", "addr:full": "400 SAINT BERNARDINE ST", "addr:postcode": "19607", "addr:state": "PA", "amenity": "post_box", "brand": "United States Postal Service", "brand:wikidata": "Q668687", "collection_times": "Mo-Fr 08:45", "name": "USPS COLLECTION BOX - BLUE BOX", "nsi_id": "unitedstatespostalservice-a77078", "operator": "United States Postal Service", "operator:short": "USPS", "operator:type": "public", "operator:wikidata": "Q668687", "ref": "1960700034"}, "type": "Feature"}
{"geometry": {"coordinates": [-75.9680599, 40.310247], "type": "Point"}, "id": "ip7zgEMu_SfrwO0lxaU7-l6mjz4=", "properties": {"@spider": "usps_collection_boxes", "addr:city": "SHILLINGTON", "addr:country": "US", "addr:full": "527 STATE ST", "addr:postcode": "19607", "addr:state": "PA", "amenity": "post_box", "brand": "United States Postal Service", "brand:wikidata": "Q668687", "collection_times": "Mo-Sa 12:00", "name": "USPS COLLECTION BOX - BLUE BOX", "nsi_id": "unitedstatespostalservice-a77078", "operator": "United States Postal Service", "operator:short": "USPS", "operator:type": "public", "operator:wikidata": "Q668687", "ref": "1960700041"}, "type": "Feature"}
{"geometry": {"coordinates": [-75.9637764, 40.307438], "type": "Point"}, "id": "VJzWPxdvd2MViarqtdpd6avZxFk=", "properties": {"@spider": "usps_collection_boxes", "addr:city": "SHILLINGTON", "addr:country": "US", "addr:full": "116 N WAVERLY ST", "addr:postcode": "19607", "addr:state": "PA", "amenity": "post_box", "brand": "United States Postal Service", "brand:wikidata": "Q668687", "collection_times": "Mo-Sa 09:00", "name": "USPS COLLECTION BOX - BLUE BOX", "nsi_id": "unitedstatespostalservice-a77078", "operator": "United States Postal Service", "operator:short": "USPS", "operator:type": "public", "operator:wikidata": "Q668687", "ref": "1960700048"}, "type": "Feature"}
{"geometry": {"coordinates": [-75.94723, 40.298907], "type": "Point"}, "id": "E1v7mduyXjOKgsiOknSvszX48iA=", "properties": {"@spider": "usps_collection_boxes", "addr:city": "SHILLINGTON", "addr:country": "US", "addr:full": "550 KENHORST PLZ", "addr:postcode": "19607", "addr:state": "PA", "amenity": "post_box", "brand": "United States Postal Service", "brand:wikidata": "Q668687", "collection_times": "Mo-Fr 17:00; Sa 15:00", "name": "USPS COLLECTION BOX - PO LOBBY", "note": "ON 12/24 AND 12/31, THIS BOX MAY BE COLLECTED AS EARLY AS 12 NOON.", "nsi_id": "unitedstatespostalservice-a77078", "operator": "United States Postal Service", "operator:short": "USPS", "operator:type": "public", "operator:wikidata": "Q668687", "ref": "1960700050"}, "type": "Feature"}
{"geometry": {"coordinates": [-75.947196, 40.298918], "type": "Point"}, "id": "30ClO543glSbdhwQm2q2cr7qoB4=", "properties": {"@spider": "usps_collection_boxes", "addr:city": "SHILLINGTON", "addr:country": "US", "addr:full": "550 KENHORST PLZ", "addr:postcode": "19607", "addr:state": "PA", "amenity": "post_box", "brand": "United States Postal Service", "brand:wikidata": "Q668687", "collection_times": "Mo-Fr 17:00; Sa 15:00", "name": "USPS COLLECTION BOX - APC", "note": "ON 12/24 AND 12/31, THIS BOX MAY BE COLLECTED AS EARLY AS 12 NOON.", "nsi_id": "unitedstatespostalservice-a77078", "operator": "United States Postal Service", "operator:short": "USPS", "operator:type": "public", "operator:wikidata": "Q668687", "ref": "1960700052"}, "type": "Feature"}
{"geometry": {"coordinates": [-75.947254636, 40.298903453], "type": "Point"}, "id": "gAakkgdrz5VzDzBIlqEF1ZLmiOc=", "properties": {"@spider": "usps_collection_boxes", "addr:city": "SHILLINGTON", "addr:country": "US", "addr:full": "550 KENHORST PLZ", "addr:postcode": "19607", "addr:state": "PA", "amenity": "post_box", "brand": "United States Postal Service", "brand:wikidata": "Q668687", "collection_times": "Mo-Fr 17:15; Sa 15:15", "name": "USPS COLLECTION BOX - PO LOBBY", "note": "ON 12/24 AND 12/31, THIS BOX MAY BE COLLECTED AS EARLY AS 12 NOON.", "nsi_id": "unitedstatespostalservice-a77078", "operator": "United States Postal Service", "operator:short": "USPS", "operator:type": "public", "operator:wikidata": "Q668687", "ref": "1960700057"}, "type": "Feature"}
{"geometry": {"coordinates": [-75.9997593, 40.316293], "type": "Point"}, "id": "LHSa890rUSFmtjxpJCg8B6ABcKU=", "properties": {"@spider": "usps_collection_boxes", "addr:city": "SINKING SPRING", "addr:country": "US", "addr:full": "2645 SHILLINGTON RD", "addr:postcode": "19608", "addr:state": "PA", "amenity": "post_box", "brand": "United States Postal Service", "brand:wikidata": "Q668687", "collection_times": "Mo-Sa 12:30", "name": "USPS COLLECTION BOX - BLUE BOX", "note": "ON 12/24 AND 12/31, THIS BOX MAY BE COLLECTED AS EARLY AS 12 NOON.", "nsi_id": "unitedstatespostalservice-a77078", "operator": "United States Postal Service", "operator:short": "USPS", "operator:type": "public", "operator:wikidata": "Q668687", "ref": "1960800003"}, "type": "Feature"}
{"geometry": {"coordinates": [-76.009063, 40.319687], "type": "Point"}, "id": "1yL4s028glC6FfGSfPFp7Ge-Dco=", "properties": {"@spider": "usps_collection_boxes", "addr:city": "SINKING SPRING", "addr:country": "US", "addr:full": "2900 WINDMILL RD", "addr:postcode": "19608", "addr:state": "PA", "amenity": "post_box", "brand": "United States Postal Service", "brand:wikidata": "Q668687", "collection_times": "Mo-Sa 09:00", "name": "USPS COLLECTION BOX - BLUE BOX", "nsi_id": "unitedstatespostalservice-a77078", "operator": "United States Postal Service", "operator:short": "USPS", "operator:type": "public", "operator:wikidata": "Q668687", "ref": "1960800005"}, "type": "Feature"}
{"geometry": {"coordinates": [-76.0134733, 40.328879], "type": "Point"}, "id": "MmeR0vxbYm2amop6ke_jeI7LIgs=", "properties": {"@spider": "usps_collection_boxes", "addr:city": "SINKING SPRING", "addr:country": "US", "addr:full": "294 WEIDMAN AVE", "addr:postcode": "19608", "addr:state": "PA", "amenity": "post_box", "brand": "United States Postal Service", "brand:wikidata": "Q668687", "collection_times": "Mo-Sa 12:00", "name": "USPS COLLECTION BOX - BLUE BOX", "nsi_id": "unitedstatespostalservice-a77078", "operator": "United States Postal Service", "operator:short": "USPS", "operator:type": "public", "operator:wikidata": "Q668687", "ref": "1960800006"}, "type": "Feature"}
{"geometry": {"coordinates": [-76.0150304, 40.322052], "type": "Point"}, "id": "EUKL5dXidvedQYNW6hZq1S41OAg=", "properties": {"@spider": "usps_collection_boxes", "addr:city": "SINKING SPRING", "addr:country": "US", "addr:full": "1601 JAMES ST", "addr:postcode": "19608", "addr:state": "PA", "amenity": "post_box", "brand": "United States Postal Service", "brand:wikidata": "Q668687", "collection_times": "Mo-Sa 14:00", "name": "USPS COLLECTION BOX - BLUE BOX", "note": "ON 12/24 AND 12/31, THIS BOX MAY BE COLLECTED AS EARLY AS 12 NOON.", "nsi_id": "unitedstatespostalservice-a77078", "operator": "United States Postal Service", "operator:short": "USPS", "operator:type": "public", "operator:wikidata": "Q668687", "ref": "1960800008"}, "type": "Feature"}
{"geometry": {"coordinates": [-76.026571, 40.325448], "type": "Point"}, "id": "aQ0AacKQQpqbnBMSRZIbyOxFEvs=", "properties": {"@spider": "usps_collection_boxes", "addr:city": "SINKING SPRING", "addr:country": "US", "addr:full": "4100 PENN AVE", "addr:postcode": "19608", "addr:state": "PA", "amenity": "post_box", "brand": "United States Postal Service", "brand:wikidata": "Q668687", "collection_times": "Mo-Fr 17:00; Sa 13:00", "name": "USPS COLLECTION BOX - BLUE BOX", "note": "ON 12/24 AND 12/31, THIS BOX MAY BE COLLECTED AS EARLY AS 12 NOON.", "nsi_id": "unitedstatespostalservice-a77078", "operator": "United States Postal Service", "operator:short": "USPS", "operator:type": "public", "operator:wikidata": "Q668687", "ref": "1960800013"}, "type": "Feature"}
{"geometry": {"coordinates": [-76.026449, 40.325454], "type": "Point"}, "id": "n8JM2Lo1AsbrxgEp0D8hL6fhPBY=", "properties": {"@spider": "usps_collection_boxes", "addr:city": "SINKING SPRING", "addr:country": "US", "addr:full": "4100 PENN AVE", "addr:postcode": "19608", "addr:state": "PA", "amenity": "post_box", "brand": "United States Postal Service", "brand:wikidata": "Q668687", "collection_times": "Mo-Fr 17:00; Sa 13:00", "name": "USPS COLLECTION BOX - PO LOBBY", "note": "ON 12/24 AND 12/31, THIS BOX MAY BE COLLECTED AS EARLY AS 12 NOON.", "nsi_id": "unitedstatespostalservice-a77078", "operator": "United States Postal Service", "operator:short": "USPS", "operator:type": "public", "operator:wikidata": "Q668687", "ref": "1960800024"}, "type": "Feature"}
{"geometry": {"coordinates": [-76.026715223, 40.325454736], "type": "Point"}, "id": "shg-0Eq1eaA3PolASoRWPY0EEBc=", "properties": {"@spider": "usps_collection_boxes", "addr:city": "SINKING SPRING", "addr:country": "US", "addr:full": "4100 PENN AVE", "addr:postcode": "19608", "addr:state": "PA", "amenity": "post_box", "brand": "United States Postal Service", "brand:wikidata": "Q668687", "collection_times": "Mo-Fr 17:15; Sa 13:15", "name": "USPS COLLECTION BOX - PO LOBBY", "note": "ON 12/24 AND 12/31, THIS BOX MAY BE COLLECTED AS EARLY AS 12 NOON.", "nsi_id": "unitedstatespostalservice-a77078", "operator": "United States Postal Service", "operator:short": "USPS", "operator:type": "public", "operator:wikidata": "Q668687", "ref": "1960800028"}, "type": "Feature"}
{"geometry": {"coordinates": [-75.9905347, 40.32532], "type": "Point"}, "id": "M0Y0-3lB7IlgU-x_rFm97zaDs8M=", "properties": {"@spider": "usps_collection_boxes", "addr:city": "WEST LAWN", "addr:country": "US", "addr:full": "125 W LAWN AVE", "addr:postcode": "19609", "addr:state": "PA", "amenity": "post_box", "brand": "United States Postal Service", "brand:wikidata": "Q668687", "collection_times": "Mo-Sa 11:30", "name": "USPS COLLECTION BOX - BLUE BOX", "nsi_id": "unitedstatespostalservice-a77078", "operator": "United States Postal Service", "operator:short": "USPS", "operator:type": "public", "operator:wikidata": "Q668687", "ref": "1960900001"}, "type": "Feature"}
{"geometry": {"coordinates": [-75.9856982, 40.315008], "type": "Point"}, "id": "krYO_RKUyfzZjOf5GQPEirGXPAw=", "properties": {"@spider": "usps_collection_boxes", "addr:city": "WEST LAWN", "addr:country": "US", "addr:full": "323 JEFFERSON BLVD", "addr:postcode": "19609", "addr:state": "PA", "amenity": "post_box", "brand": "United States Postal Service", "brand:wikidata": "Q668687", "collection_times": "Mo-Sa 11:00", "name": "USPS COLLECTION BOX - BLUE BOX", "nsi_id": "unitedstatespostalservice-a77078", "operator": "United States Postal Service", "operator:short": "USPS", "operator:type": "public", "operator:wikidata": "Q668687", "ref": "1960900002"}, "type": "Feature"}
{"geometry": {"coordinates": [-75.9867639, 40.312238], "type": "Point"}, "id": "kl4FJmUNl9BLZCUtjcUzoegUC3M=", "properties": {"@spider": "usps_collection_boxes", "addr:city": "WEST LAWN", "addr:country": "US", "addr:full": "217 AMHERST AVE", "addr:postcode": "19609", "addr:state": "PA", "amenity": "post_box", "brand": "United States Postal Service", "brand:wikidata": "Q668687", "collection_times": "Mo-Sa 14:30", "name": "USPS COLLECTION BOX - BLUE BOX", "note": "ON 12/24 AND 12/31, THIS BOX MAY BE COLLECTED AS EARLY AS 12 NOON.", "nsi_id": "unitedstatespostalservice-a77078", "operator": "United States Postal Service", "operator:short": "USPS", "operator:type": "public", "operator:wikidata": "Q668687", "ref": "1960900004"}, "type": "Feature"}
{"geometry": {"coordinates": [-76.0063923, 40.326064], "type": "Point"}, "id": "xWmnA2xVunDp_3DY5sjC7cQgm1Q=", "properties": {"@spider": "usps_collection_boxes", "addr:city": "WEST LAWN", "addr:country": "US", "addr:full": "3311 PENN AVE", "addr:postcode": "19609", "addr:state": "PA", "amenity": "post_box", "brand": "United States Postal Service", "brand:wikidata": "Q668687", "collection_times": "Mo-Sa 10:00", "name": "USPS COLLECTION BOX - BLUE BOX", "nsi_id": "unitedstatespostalservice-a77078", "operator": "United States Postal Service", "operator:short": "USPS", "operator:type": "public", "operator:wikidata": "Q668687", "ref": "1960900009"}, "type": "Feature"}
{"geometry": {"coordinates": [-75.9937514, 40.324133], "type": "Point"}, "id": "GwiKLM4P1iJFKvaeYBPXGUelXzM=", "properties": {"@spider": "usps_collection_boxes", "addr:city": "WEST LAWN", "addr:country": "US", "addr:full": "301 W WYOMISSING BLVD", "addr:postcode": "19609", "addr:state": "PA", "amenity": "post_box", "brand": "United States Postal Service", "brand:wikidata": "Q668687", "collection_times": "Mo-Sa 14:30", "name": "USPS COLLECTION BOX - BLUE BOX", "note": "ON 12/24 AND 12/31, THIS BOX MAY BE COLLECTED AS EARLY AS 12 NOON.", "nsi_id": "unitedstatespostalservice-a77078", "operator": "United States Postal Service", "operator:short": "USPS", "operator:type": "public", "operator:wikidata": "Q668687", "ref": "1960900012"}, "type": "Feature"}
{"geometry": {"coordinates": [-75.9922029, 40.331165], "type": "Point"}, "id": "fGNoauNvdpY9ZZoblqm1476YsnY=", "properties": {"@spider": "usps_collection_boxes", "addr:city": "WEST LAWN", "addr:country": "US", "addr:full": "319 TELFORD AVE", "addr:postcode": "19609", "addr:state": "PA", "amenity": "post_box", "brand": "United States Postal Service", "brand:wikidata": "Q668687", "collection_times": "Mo-Sa 09:00", "name": "USPS COLLECTION BOX - BLUE BOX", "nsi_id": "unitedstatespostalservice-a77078", "operator": "United States Postal Service", "operator:short": "USPS", "operator:type": "public", "operator:wikidata": "Q668687", "ref": "1960900023"}, "type": "Feature"}
{"geometry": {"coordinates": [-75.9941304, 40.328176], "type": "Point"}, "id": "1RJ5-n-dDWsFcP2xZCoUHbFVMFM=", "properties": {"@spider": "usps_collection_boxes", "addr:city": "WEST LAWN", "addr:country": "US", "addr:full": "101 WOODSIDE AVE", "addr:postcode": "19609", "addr:state": "PA", "amenity": "post_box", "brand": "United States Postal Service", "brand:wikidata": "Q668687", "collection_times": "Mo-Sa 11:30", "name": "USPS COLLECTION BOX - BLUE BOX", "nsi_id": "unitedstatespostalservice-a77078", "operator": "United States Postal Service", "operator:short": "USPS", "operator:type": "public", "operator:wikidata": "Q668687", "ref": "1960900024"}, "type": "Feature"}
{"geometry": {"coordinates": [-76.0034309, 40.341054], "type": "Point"}, "id": "LP8XpTzRq0KgrG2DAmWBezayvuw=", "properties": {"@spider": "usps_collection_boxes", "addr:city": "WEST LAWN", "addr:country": "US", "addr:full": "2208 QUARRY DR", "addr:postcode": "19609", "addr:state": "PA", "amenity": "post_box", "brand": "United States Postal Service", "brand:wikidata": "Q668687", "collection_times": "Mo-Fr 16:30", "name": "USPS COLLECTION BOX - BLUE BOX", "note": "ON 12/24 AND 12/31, THIS BOX MAY BE COLLECTED AS EARLY AS 12 NOON.", "nsi_id": "unitedstatespostalservice-a77078", "operator": "United States Postal Service", "operator:short": "USPS", "operator:type": "public", "operator:wikidata": "Q668687", "ref": "1960900030"}, "type": "Feature"}
{"geometry": {"coordinates": [-75.9669066, 40.327722], "type": "Point"}, "id": "oDi69AuGXBMhr-rqVdXbult5FV4=", "properties": {"@spider": "usps_collection_boxes", "addr:city": "WYOMISSING", "addr:country": "US", "addr:full": "1405 READING BLVD", "addr:postcode": "19610", "addr:state": "PA", "amenity": "post_box", "brand": "United States Postal Service", "brand:wikidata": "Q668687", "collection_times": "Mo-Sa 09:30", "name": "USPS COLLECTION BOX - BLUE BOX", "nsi_id": "unitedstatespostalservice-a77078", "operator": "United States Postal Service", "operator:short": "USPS", "operator:type": "public", "operator:wikidata": "Q668687", "ref": "1961000000"}, "type": "Feature"}
{"geometry": {"coordinates": [-75.9699408, 40.329239], "type": "Point"}, "id": "cV5OZO6hevM3aDLQzTDx2j8Dhzg=", "properties": {"@spider": "usps_collection_boxes", "addr:city": "WYOMISSING", "addr:country": "US", "addr:full": "205 WYOMING AVE", "addr:postcode": "19610", "addr:state": "PA", "amenity": "post_box", "brand": "United States Postal Service", "brand:wikidata": "Q668687", "collection_times": "Mo-Sa 12:00", "name": "USPS COLLECTION BOX - BLUE BOX", "nsi_id": "unitedstatespostalservice-a77078", "operator": "United States Postal Service", "operator:short": "USPS", "operator:type": "public", "operator:wikidata": "Q668687", "ref": "1961000003"}, "type": "Feature"}
{"geometry": {"coordinates": [-75.9579073, 40.344098], "type": "Point"}, "id": "ef9byyIe52-sUl12deAfEzHI8EY=", "properties": {"@spider": "usps_collection_boxes", "addr:city": "WYOMISSING", "addr:country": "US", "addr:full": "501 N WYOMISSING BLVD", "addr:postcode": "19610", "addr:state": "PA", "amenity": "post_box", "brand": "United States Postal Service", "brand:wikidata": "Q668687", "collection_times": "Mo-Fr 17:00", "name": "USPS COLLECTION BOX - BLUE BOX", "note": "ON 12/24 AND 12/31, THIS BOX MAY BE COLLECTED AS EARLY AS 12 NOON.", "nsi_id": "unitedstatespostalservice-a77078", "operator": "United States Postal Service", "operator:short": "USPS", "operator:type": "public", "operator:wikidata": "Q668687", "ref": "1961000008"}, "type": "Feature"}
{"geometry": {"coordinates": [-75.9950439, 40.34101], "type": "Point"}, "id": "6rZ98JrbbVVt8swdd_bT6z-KS4w=", "properties": {"@spider": "usps_collection_boxes", "addr:city": "WYOMISSING", "addr:country": "US", "addr:full": "911 CLOVER DR", "addr:postcode": "19610", "addr:state": "PA", "amenity": "post_box", "brand": "United States Postal Service", "brand:wikidata": "Q668687", "collection_times": "Mo-Sa 13:30", "name": "USPS COLLECTION BOX - BLUE BOX", "note": "ON 12/24 AND 12/31, THIS BOX MAY BE COLLECTED AS EARLY AS 12 NOON.", "nsi_id": "unitedstatespostalservice-a77078", "operator": "United States Postal Service", "operator:short": "USPS", "operator:type": "public", "operator:wikidata": "Q668687", "ref": "1961000014"}, "type": "Feature"}
{"geometry": {"coordinates": [-75.9699505, 40.35068], "type": "Point"}, "id": "CX6UQ9no9_nBmWQ6LfiDg_4p9hY=", "properties": {"@spider": "usps_collection_boxes", "addr:city": "WYOMISSING", "addr:country": "US", "addr:full": "825 BERKSHIRE BLVD", "addr:postcode": "19610", "addr:state": "PA", "amenity": "post_box", "brand": "United States Postal Service", "brand:wikidata": "Q668687", "collection_times": "Mo-Fr 17:00", "name": "USPS COLLECTION BOX - BLUE BOX", "note": "ON 12/24 AND 12/31, THIS BOX MAY BE COLLECTED AS EARLY AS 12 NOON.", "nsi_id": "unitedstatespostalservice-a77078", "operator": "United States Postal Service", "operator:short": "USPS", "operator:type": "public", "operator:wikidata": "Q668687", "ref": "1961000020"}, "type": "Feature"}
{"geometry": {"coordinates": [-75.9538094, 40.335899], "type": "Point"}, "id": "ZerwlO5EjgR3gkbSTGyRG4e_3IM=", "properties": {"@spider": "usps_collection_boxes", "addr:city": "WYOMISSING", "addr:country": "US", "addr:full": "800 PENN AVE", "addr:postcode": "19610", "addr:state": "PA", "amenity": "post_box", "brand": "United States Postal Service", "brand:wikidata": "Q668687", "collection_times": "Mo-Fr 10:30", "name": "USPS COLLECTION BOX - BLUE BOX", "nsi_id": "unitedstatespostalservice-a77078", "operator": "United States Postal Service", "operator:short": "USPS", "operator:type": "public", "operator:wikidata": "Q668687", "ref": "1961000047"}, "type": "Feature"}
{"geometry": {"coordinates": [-75.9584088, 40.346462], "type": "Point"}, "id": "uCMeQD2yY8WVvxdiwmaAg69f4Tw=", "properties": {"@spider": "usps_collection_boxes", "addr:city": "WYOMISSING", "addr:country": "US", "addr:full": "800 N PARK RD", "addr:postcode": "19610", "addr:state": "PA", "amenity": "post_box", "brand": "United States Postal Service", "brand:wikidata": "Q668687", "collection_times": "Mo-Fr 17:00", "name": "USPS COLLECTION BOX - BLUE BOX", "note": "ON 12/24 AND 12/31, THIS BOX MAY BE COLLECTED AS EARLY AS 12 NOON.", "nsi_id": "unitedstatespostalservice-a77078", "operator": "United States Postal Service", "operator:short": "USPS", "operator:type": "public", "operator:wikidata": "Q668687", "ref": "1961000049"}, "type": "Feature"}
{"geometry": {"coordinates": [-75.9606443, 40.335111], "type": "Point"}, "id": "AY3fmj36KT_w68nTvgQ9wnKJbh8=", "properties": {"@spider": "usps_collection_boxes", "addr:city": "WYOMISSING", "addr:country": "US", "addr:full": "1021 PENN AVE", "addr:postcode": "19610", "addr:state": "PA", "amenity": "post_box", "brand": "United States Postal Service", "brand:wikidata": "Q668687", "collection_times": "Mo-Fr 17:00; Sa 15:00", "name": "USPS COLLECTION BOX - BLUE BOX", "note": "ON 12/24 AND 12/31, THIS BOX MAY BE COLLECTED AS EARLY AS 12 NOON.", "nsi_id": "unitedstatespostalservice-a77078", "operator": "United States Postal Service", "operator:short": "USPS", "operator:type": "public", "operator:wikidata": "Q668687", "ref": "1961000057"}, "type": "Feature"}
{"geometry": {"coordinates": [-75.9767494, 40.339359], "type": "Point"}, "id": "wjNEHlNVAAP106Vd7tDOAIXMqvs=", "properties": {"@spider": "usps_collection_boxes", "addr:city": "WYOMISSING", "addr:country": "US", "addr:full": "2001 STATE HILL RD", "addr:postcode": "19610", "addr:state": "PA", "amenity": "post_box", "brand": "United States Postal Service", "brand:wikidata": "Q668687", "collection_times": "Mo-Fr 16:30", "name": "USPS COLLECTION BOX - BLUE BOX", "note": "ON 12/24 AND 12/31, THIS BOX MAY BE COLLECTED AS EARLY AS 12 NOON.", "nsi_id": "unitedstatespostalservice-a77078", "operator": "United States Postal Service", "operator:short": "USPS", "operator:type": "public", "operator:wikidata": "Q668687", "ref": "1961000068"}, "type": "Feature"}
{"geometry": {"coordinates": [-75.9888795, 40.344409], "type": "Point"}, "id": "o_qJo-xpy_a5qwzVNrJyk30UQfk=", "properties": {"@spider": "usps_collection_boxes", "addr:city": "WYOMISSING", "addr:country": "US", "addr:full": "2610 KEISER BLVD", "addr:postcode": "19610", "addr:state": "PA", "amenity": "post_box", "brand": "United States Postal Service", "brand:wikidata": "Q668687", "collection_times": "Mo-Fr 10:30", "name": "USPS COLLECTION BOX - BLUE BOX", "nsi_id": "unitedstatespostalservice-a77078", "operator": "United States Postal Service", "operator:short": "USPS", "operator:type": "public", "operator:wikidata": "Q668687", "ref": "1961000069"}, "type": "Feature"}
{"geometry": {"coordinates": [-75.975046016, 40.34673899], "type": "Point"}, "id": "rT57u3kDcPwAHrcjM0N4TkU807A=", "properties": {"@spider": "usps_collection_boxes", "addr:city": "WYOMISSING", "addr:country": "US", "addr:full": "2201 RIDGEWOOD RD", "addr:postcode": "19610", "addr:state": "PA", "amenity": "post_box", "brand": "United States Postal Service", "brand:wikidata": "Q668687", "collection_times": "Mo-Sa 10:00", "name": "USPS COLLECTION BOX - BLUE BOX", "nsi_id": "unitedstatespostalservice-a77078", "operator": "United States Postal Service", "operator:short": "USPS", "operator:type": "public", "operator:wikidata": "Q668687", "ref": "1961000072"}, "type": "Feature"}
{"geometry": {"coordinates": [-75.9833989, 40.354196], "type": "Point"}, "id": "xv773Z-SDViav16zFbyTqidnXhc=", "properties": {"@spider": "usps_collection_boxes", "addr:city": "WYOMISSING", "addr:country": "US", "addr:full": "2 MERIDIAN BLVD", "addr:postcode": "19610", "addr:state": "PA", "amenity": "post_box", "brand": "United States Postal Service", "brand:wikidata": "Q668687", "collection_times": "Mo-Fr 11:00", "name": "USPS COLLECTION BOX - BLUE BOX", "nsi_id": "unitedstatespostalservice-a77078", "operator": "United States Postal Service", "operator:short": "USPS", "operator:type": "public", "operator:wikidata": "Q668687", "ref": "1961000073"}, "type": "Feature"}
{"geometry": {"coordinates": [-75.9610059, 40.335008], "type": "Point"}, "id": "MHLMKIIjIQt3mlFvV5ph2X4DEEM=", "properties": {"@spider": "usps_collection_boxes", "addr:city": "WYOMISSING", "addr:country": "US", "addr:full": "1021 PENN AVE", "addr:postcode": "19610", "addr:state": "PA", "amenity": "post_box", "brand": "United States Postal Service", "brand:wikidata": "Q668687", "collection_times": "Mo-Fr 17:30; Sa 15:00", "name": "USPS COLLECTION BOX - PO LOBBY", "note": "ON 12/24 AND 12/31, THIS BOX MAY BE COLLECTED AS EARLY AS 12 NOON.", "nsi_id": "unitedstatespostalservice-a77078", "operator": "United States Postal Service", "operator:short": "USPS", "operator:type": "public", "operator:wikidata": "Q668687", "ref": "1961000074"}, "type": "Feature"}
{"geometry": {"coordinates": [-75.9711477, 40.339881], "type": "Point"}, "id": "YgDZkaUDKmakKFK3Mceekke4JNg=", "properties": {"@spider": "usps_collection_boxes", "addr:city": "WYOMISSING", "addr:country": "US", "addr:full": "1665 STATE HILL RD", "addr:postcode": "19610", "addr:state": "PA", "amenity": "post_box", "brand": "United States Postal Service", "brand:wikidata": "Q668687", "collection_times": "Mo-Fr 16:30; Sa 10:00", "name": "USPS COLLECTION BOX - BLUE BOX", "note": "ON 12/24 AND 12/31, THIS BOX MAY BE COLLECTED AS EARLY AS 12 NOON.", "nsi_id": "unitedstatespostalservice-a77078", "operator": "United States Postal Service", "operator:short": "USPS", "operator:type": "public", "operator:wikidata": "Q668687", "ref": "1961000075"}, "type": "Feature"}
{"geometry": {"coordinates": [-75.9904147, 40.346355], "type": "Point"}, "id": "3gTmKMXf9UfeM7IbW58OeKvs7aQ=", "properties": {"@spider": "usps_collection_boxes", "addr:city": "WYOMISSING", "addr:country": "US", "addr:full": "90 COMMERCE DR", "addr:postcode": "19610", "addr:state": "PA", "amenity": "post_box", "brand": "United States Postal Service", "brand:wikidata": "Q668687", "collection_times": "Mo-Fr 17:00; Sa 10:30", "name": "USPS COLLECTION BOX - BLUE BOX", "note": "ON 12/24 AND 12/31, THIS BOX MAY BE COLLECTED AS EARLY AS 12 NOON.", "nsi_id": "unitedstatespostalservice-a77078", "operator": "United States Postal Service", "operator:short": "USPS", "operator:type": "public", "operator:wikidata": "Q668687", "ref": "1961000079"}, "type": "Feature"}
{"geometry": {"coordinates": [-75.9610449, 40.335015], "type": "Point"}, "id": "Sj6fVV30q0DSfJsxrge0-Bah3gw=", "properties": {"@spider": "usps_collection_boxes", "addr:city": "WYOMISSING", "addr:country": "US", "addr:full": "1021 PENN AVE", "addr:postcode": "19610", "addr:state": "PA", "amenity": "post_box", "brand": "United States Postal Service", "brand:wikidata": "Q668687", "collection_times": "Mo-Fr 17:00; Sa 15:00", "name": "USPS COLLECTION BOX - APC", "note": "ON 12/24 AND 12/31, THIS BOX MAY BE COLLECTED AS EARLY AS 12 NOON.", "nsi_id": "unitedstatespostalservice-a77078", "operator": "United States Postal Service", "operator:short": "USPS", "operator:type": "public", "operator:wikidata": "Q668687", "ref": "1961000080"}, "type": "Feature"}
{"geometry": {"coordinates": [-75.9699335, 40.350677], "type": "Point"}, "id": "GtmGljyuQKeLR59SgNBTkASWUHU=", "properties": {"@spider": "usps_collection_boxes", "addr:city": "WYOMISSING", "addr:country": "US", "addr:full": "825 BERKSHIRE BLVD", "addr:postcode": "19610", "addr:state": "PA", "amenity": "post_box", "brand": "United States Postal Service", "brand:wikidata": "Q668687", "collection_times": "Mo-Fr 17:00", "name": "USPS COLLECTION BOX - BLUE BOX", "note": "ON 12/24 AND 12/31, THIS BOX MAY BE COLLECTED AS EARLY AS 12 NOON.", "nsi_id": "unitedstatespostalservice-a77078", "operator": "United States Postal Service", "operator:short": "USPS", "operator:type": "public", "operator:wikidata": "Q668687", "ref": "1961000081"}, "type": "Feature"}
{"geometry": {"coordinates": [-75.959805611, 40.335128539], "type": "Point"}, "id": "shjnklkwBWRBPiXX5TFawyrEmj0=", "properties": {"@spider": "usps_collection_boxes", "addr:city": "WYOMISSING", "addr:country": "US", "addr:full": "1021 PENN AVE", "addr:postcode": "19610", "addr:state": "PA", "amenity": "post_box", "brand": "United States Postal Service", "brand:wikidata": "Q668687", "collection_times": "Mo-Fr 17:45; Sa 15:15", "name": "USPS COLLECTION BOX - PO LOBBY", "note": "ON 12/24 AND 12/31, THIS BOX MAY BE COLLECTED AS EARLY AS 12 NOON.", "nsi_id": "unitedstatespostalservice-a77078", "operator": "United States Postal Service", "operator:short": "USPS", "operator:type": "public", "operator:wikidata": "Q668687", "ref": "1961000089"}, "type": "Feature"}
{"geometry": {"coordinates": [-75.9355945, 40.316092], "type": "Point"}, "id": "6v7BZdWrdm7pWHfaXcoiSOv74iU=", "properties": {"@spider": "usps_collection_boxes", "addr:city": "READING", "addr:country": "US", "addr:full": "640 PARK AVE", "addr:postcode": "19611", "addr:state": "PA", "amenity": "post_box", "brand": "United States Postal Service", "brand:wikidata": "Q668687", "collection_times": "Mo-Fr 17:00", "name": "USPS COLLECTION BOX - BLUE BOX", "note": "ON 12/24 AND 12/31, THIS BOX MAY BE COLLECTED AS EARLY AS 12 NOON.", "nsi_id": "unitedstatespostalservice-a77078", "operator": "United States Postal Service", "operator:short": "USPS", "operator:type": "public", "operator:wikidata": "Q668687", "ref": "1961100010"}, "type": "Feature"}
{"geometry": {"coordinates": [-75.9497023, 40.335896], "type": "Point"}, "id": "Nvq9O0371u-kXtq6HmoiMr7OYWQ=", "properties": {"@spider": "usps_collection_boxes", "addr:city": "READING", "addr:country": "US", "addr:full": "601 PENN AVE", "addr:postcode": "19611", "addr:state": "PA", "amenity": "post_box", "brand": "United States Postal Service", "brand:wikidata": "Q668687", "collection_times": "Mo-Fr 09:00", "name": "USPS COLLECTION BOX - BLUE BOX", "nsi_id": "unitedstatespostalservice-a77078", "operator": "United States Postal Service", "operator:short": "USPS", "operator:type": "public", "operator:wikidata": "Q668687", "ref": "1961100012"}, "type": "Feature"}
{"geometry": {"coordinates": [-75.9491468, 40.33692], "type": "Point"}, "id": "6VtNLE2JWB9SkbXg-uw79bq0ETk=", "properties": {"@spider": "usps_collection_boxes", "addr:city": "READING", "addr:country": "US", "addr:full": "529 READING AVE", "addr:postcode": "19611", "addr:state": "PA", "amenity": "post_box", "brand": "United States Postal Service", "brand:wikidata": "Q668687", "collection_times": "Mo-Sa 08:45", "name": "USPS COLLECTION BOX - BLUE BOX", "nsi_id": "unitedstatespostalservice-a77078", "operator": "United States Postal Service", "operator:short": "USPS", "operator:type": "public", "operator:wikidata": "Q668687", "ref": "1961100015"}, "type": "Feature"}
{"geometry": {"coordinates": [-75.9316852, 40.315595], "type": "Point"}, "id": "Efkom8NEGmLmyKhgv8IMQdp9oC0=", "properties": {"@spider": "usps_collection_boxes", "addr:city": "READING", "addr:country": "US", "addr:full": "540 UPLAND AVE", "addr:postcode": "19611", "addr:state": "PA", "amenity": "post_box", "brand": "United States Postal Service", "brand:wikidata": "Q668687", "collection_times": "Mo-Fr 17:00", "name": "USPS COLLECTION BOX - BLUE BOX", "note": "ON 12/24 AND 12/31, THIS BOX MAY BE COLLECTED AS EARLY AS 12 NOON.", "nsi_id": "unitedstatespostalservice-a77078", "operator": "United States Postal Service", "operator:short": "USPS", "operator:type": "public", "operator:wikidata": "Q668687", "ref": "1961100022"}, "type": "Feature"}
{"geometry": {"coordinates": [-75.9521656, 40.331835], "type": "Point"}, "id": "GgbSdUbnILWdz1cqdxTbFKy7XO0=", "properties": {"@spider": "usps_collection_boxes", "addr:city": "READING", "addr:country": "US", "addr:full": "301 S 7TH AVE", "addr:postcode": "19611", "addr:state": "PA", "amenity": "post_box", "brand": "United States Postal Service", "brand:wikidata": "Q668687", "collection_times": "Mo-Sa 09:00", "name": "USPS COLLECTION BOX - BLUE BOX", "nsi_id": "unitedstatespostalservice-a77078", "operator": "United States Postal Service", "operator:short": "USPS", "operator:type": "public", "operator:wikidata": "Q668687", "ref": "1961100030"}, "type": "Feature"}
{"geometry": {"coordinates": [-75.9118538, 40.367634], "type": "Point"}, "id": "cRJDibedRj6EU7Zp2N_37H7uDrs=", "properties": {"@spider": "usps_collection_boxes", "addr:city": "READING", "addr:country": "US", "addr:full": "2100 N 13TH ST", "addr:postcode": "19612", "addr:state": "PA", "amenity": "post_box", "brand": "United States Postal Service", "brand:wikidata": "Q668687", "collection_times": "Mo-Fr 18:00; Sa 15:00", "name": "USPS COLLECTION BOX - BLUE BOX", "note": "ON 12/24 AND 12/31, THIS BOX MAY BE COLLECTED AS EARLY AS 12 NOON.", "nsi_id": "unitedstatespostalservice-a77078", "operator": "United States Postal Service", "operator:short": "USPS", "operator:type": "public", "operator:wikidata": "Q668687", "ref": "1961200000"}, "type": "Feature"}
{"geometry": {"coordinates": [-75.9118199, 40.36762], "type": "Point"}, "id": "MKe26f3cZ_EELrjhjnff0CcZjNo=", "properties": {"@spider": "usps_collection_boxes", "addr:city": "READING", "addr:country": "US", "addr:full": "2100 N 13TH ST", "addr:postcode": "19612", "addr:state": "PA", "amenity": "post_box", "brand": "United States Postal Service", "brand:wikidata": "Q668687", "collection_times": "Mo-Fr 18:00; Sa 15:00", "name": "USPS COLLECTION BOX - BLUE BOX", "note": "ON 12/24 AND 12/31, THIS BOX MAY BE COLLECTED AS EARLY AS 12 NOON.", "nsi_id": "unitedstatespostalservice-a77078", "operator": "United States Postal Service", "operator:short": "USPS", "operator:type": "public", "operator:wikidata": "Q668687", "ref": "1961200002"}, "type": "Feature"}
{"geometry": {"coordinates": [-75.911398, 40.367002], "type": "Point"}, "id": "uH6JesyYh_0rZndBBawxm9OsBuo=", "properties": {"@spider": "usps_collection_boxes", "addr:city": "READING", "addr:country": "US", "addr:full": "2100 N 13TH ST", "addr:postcode": "19612", "addr:state": "PA", "amenity": "post_box", "brand": "United States Postal Service", "brand:wikidata": "Q668687", "collection_times": "Mo-Fr 18:00; Sa 15:00", "name": "USPS COLLECTION BOX - PO LOBBY", "note": "ON 12/24 AND 12/31, THIS BOX MAY BE COLLECTED AS EARLY AS 12 NOON.", "nsi_id": "unitedstatespostalservice-a77078", "operator": "United States Postal Service", "operator:short": "USPS", "operator:type": "public", "operator:wikidata": "Q668687", "ref": "1961200003"}, "type": "Feature"}
{"geometry": {"coordinates": [-75.911398, 40.367002], "type": "Point"}, "id": "vQnkA0WoG83RubMJKGoPriQbpbc=", "properties": {"@spider": "usps_collection_boxes", "addr:city": "READING", "addr:country": "US", "addr:full": "2100 N 13TH ST", "addr:postcode": "19612", "addr:state": "PA", "amenity": "post_box", "brand": "United States Postal Service", "brand:wikidata": "Q668687", "collection_times": "Mo-Fr 18:00; Sa 15:00", "name": "USPS COLLECTION BOX - APC", "note": "ON 12/24 AND 12/31, THIS BOX MAY BE COLLECTED AS EARLY AS 12 NOON.", "nsi_id": "unitedstatespostalservice-a77078", "operator": "United States Postal Service", "operator:short": "USPS", "operator:type": "public", "operator:wikidata": "Q668687", "ref": "1961200004"}, "type": "Feature"}
{"geometry": {"coordinates": [-75.911462894, 40.366941655], "type": "Point"}, "id": "9nlpQ15SU63LhmOuUKIOJryGz-k=", "properties": {"@spider": "usps_collection_boxes", "addr:city": "READING", "addr:country": "US", "addr:full": "2100 N 13TH ST", "addr:postcode": "19612", "addr:state": "PA", "amenity": "post_box", "brand": "United States Postal Service", "brand:wikidata": "Q668687", "collection_times": "Mo-Fr 18:15; Sa 15:00", "name": "USPS COLLECTION BOX - PO LOBBY", "note": "ON 12/24 AND 12/31, THIS BOX MAY BE COLLECTED AS EARLY AS 12 NOON.", "nsi_id": "unitedstatespostalservice-a77078", "operator": "United States Postal Service", "operator:short": "USPS", "operator:type": "public", "operator:wikidata": "Q668687", "ref": "1961200011"}, "type": "Feature"}
