{"dataset_attributes": {"@spider": "usps_collection_boxes", "spider:collection_time": "2024-01-04T08:25:05.301423"}, "geometry": {"coordinates": [-75.7080910335, 39.6079950079], "type": "Point"}, "id": "yYOhUKJyUuItN2SfB7lYoAuIO10=", "properties": {"@spider": "usps_collection_boxes", "addr:city": "BEAR", "addr:country": "US", "addr:full": "125 RICKEY BLVD", "addr:postcode": "19701", "addr:state": "DE", "amenity": "post_box", "brand": "United States Postal Service", "brand:wikidata": "Q668687", "collection_times": "Mo-Sa 17:00", "name": "USPS COLLECTION BOX - BLUE BOX", "note": "ON 12/24 AND 12/31, THIS BOX MAY BE COLLECTED AS EARLY AS 12 NOON.", "nsi_id": "unitedstatespostalservice-a77078", "operator": "United States Postal Service", "operator:short": "USPS", "operator:type": "public", "operator:wikidata": "Q668687", "ref": "1970100001"}, "type": "Feature"}
{"dataset_attributes": {"@spider": "usps_collection_boxes", "spider:collection_time": "2024-01-04T08:25:05.301423"}, "geometry": {"coordinates": [-75.6649378, 39.632589], "type": "Point"}, "id": "fpt9-txA1bNZaRXfBqLCXPqqRnc=", "properties": {"@spider": "usps_collection_boxes", "addr:city": "BEAR", "addr:country": "US", "addr:full": "1101 GOVERNORS PL ((RR#022))", "addr:postcode": "19701", "addr:state": "DE", "amenity": "post_box", "brand": "United States Postal Service", "brand:wikidata": "Q668687", "collection_times": "Mo-Sa 12:00", "name": "USPS COLLECTION BOX - BLUE BOX", "nsi_id": "unitedstatespostalservice-a77078", "operator": "United States Postal Service", "operator:short": "USPS", "operator:type": "public", "operator:wikidata": "Q668687", "ref": "1970100002"}, "type": "Feature"}
{"dataset_attributes": {"@spider": "usps_collection_boxes", "spider:collection_time": "2024-01-04T08:25:05.301423"}, "geometry": {"coordinates": [-75.6538166, 39.654727], "type": "Point"}, "id": "klwRkXaH2O_vtuxrcpulGTqKCFY=", "properties": {"@spider": "usps_collection_boxes", "addr:city": "BEAR", "addr:country": "US", "addr:full": "265 BEAR CHRISTIANA RD ((RR#009))", "addr:postcode": "19701", "addr:state": "DE", "amenity": "post_box", "brand": "United States Postal Service", "brand:wikidata": "Q668687", "collection_times": "Mo-Sa 10:00", "name": "USPS COLLECTION BOX - BLUE BOX", "nsi_id": "unitedstatespostalservice-a77078", "operator": "United States Postal Service", "operator:short": "USPS", "operator:type": "public", "operator:wikidata": "Q668687", "ref": "1970100003"}, "type": "Feature"}
{"dataset_attributes": {"@spider": "usps_collection_boxes", "spider:collection_time": "2024-01-04T08:25:05.301423"}, "geometry": {"coordinates": [-75.7145528, 39.607273], "type": "Point"}, "id": "UPins1HWKxmZeNzByy1wx5qYsdw=", "properties": {"@spider": "usps_collection_boxes", "addr:city": "BEAR", "addr:country": "US", "addr:full": "26 FOX HUNT DR ((RR#014))", "addr:postcode": "19701", "addr:state": "DE", "amenity": "post_box", "brand": "United States Postal Service", "brand:wikidata": "Q668687", "collection_times": "Mo-Sa 12:00", "name": "USPS COLLECTION BOX - BLUE BOX", "nsi_id": "unitedstatespostalservice-a77078", "operator": "United States Postal Service", "operator:short": "USPS", "operator:type": "public", "operator:wikidata": "Q668687", "ref": "1970100005"}, "type": "Feature"}
{"dataset_attributes": {"@spider": "usps_collection_boxes", "spider:collection_time": "2024-01-04T08:25:05.301423"}, "geometry": {"coordinates": [-75.6549879888, 39.6332490117], "type": "Point"}, "id": "j9JrKwG8HHOXUfpyMFAxC-rt6cI=", "properties": {"@spider": "usps_collection_boxes", "addr:city": "BEAR", "addr:country": "US", "addr:full": "300 EDEN SQ  ((RR#033))", "addr:postcode": "19701", "addr:state": "DE", "amenity": "post_box", "brand": "United States Postal Service", "brand:wikidata": "Q668687", "collection_times": "Mo-Sa 12:00", "name": "USPS COLLECTION BOX - BLUE BOX", "nsi_id": "unitedstatespostalservice-a77078", "operator": "United States Postal Service", "operator:short": "USPS", "operator:type": "public", "operator:wikidata": "Q668687", "ref": "1970100008"}, "type": "Feature"}
{"dataset_attributes": {"@spider": "usps_collection_boxes", "spider:collection_time": "2024-01-04T08:25:05.301423"}, "geometry": {"coordinates": [-75.70833, 39.604385], "type": "Point"}, "id": "AMLmxu7OoecUdte6vbZiqfMMzO4=", "properties": {"@spider": "usps_collection_boxes", "addr:city": "BEAR", "addr:country": "US", "addr:full": "125 RICKEY BLVD", "addr:postcode": "19701", "addr:state": "DE", "amenity": "post_box", "brand": "United States Postal Service", "brand:wikidata": "Q668687", "collection_times": "Mo-Fr 17:30; Sa 17:00", "name": "USPS COLLECTION BOX - PO LOBBY", "note": "ON 12/24 AND 12/31, THIS BOX MAY BE COLLECTED AS EARLY AS 12 NOON.", "nsi_id": "unitedstatespostalservice-a77078", "operator": "United States Postal Service", "operator:short": "USPS", "operator:type": "public", "operator:wikidata": "Q668687", "ref": "1970100011"}, "type": "Feature"}
{"dataset_attributes": {"@spider": "usps_collection_boxes", "spider:collection_time": "2024-01-04T08:25:05.301423"}, "geometry": {"coordinates": [-75.7080910335, 39.6079950079], "type": "Point"}, "id": "YMaFEmg5Lytaz-A4lbZDAOfOWVk=", "properties": {"@spider": "usps_collection_boxes", "addr:city": "BEAR", "addr:country": "US", "addr:full": "125 RICKEY BLVD", "addr:postcode": "19701", "addr:state": "DE", "amenity": "post_box", "brand": "United States Postal Service", "brand:wikidata": "Q668687", "collection_times": "Mo-Fr 17:30; Sa 17:00", "name": "USPS COLLECTION BOX - APC", "note": "ON 12/24 AND 12/31, THIS BOX MAY BE COLLECTED AS EARLY AS 12 NOON.", "nsi_id": "unitedstatespostalservice-a77078", "operator": "United States Postal Service", "operator:short": "USPS", "operator:type": "public", "operator:wikidata": "Q668687", "ref": "1970100012"}, "type": "Feature"}
{"dataset_attributes": {"@spider": "usps_collection_boxes", "spider:collection_time": "2024-01-04T08:25:05.301423"}, "geometry": {"coordinates": [-75.6936962, 39.6145147], "type": "Point"}, "id": "lAoV__dH6b3mRXpgpx3dQD0d6fc=", "properties": {"@spider": "usps_collection_boxes", "addr:city": "BEAR", "addr:country": "US", "addr:full": "125 RICKEY BLVD", "addr:postcode": "19701", "addr:state": "DE", "amenity": "post_box", "brand": "United States Postal Service", "brand:wikidata": "Q668687", "collection_times": "Mo-Sa 17:00", "name": "USPS COLLECTION BOX - BLUE BOX", "note": "ON 12/24 AND 12/31, THIS BOX MAY BE COLLECTED AS EARLY AS 12 NOON.", "nsi_id": "unitedstatespostalservice-a77078", "operator": "United States Postal Service", "operator:short": "USPS", "operator:type": "public", "operator:wikidata": "Q668687", "ref": "1970100013"}, "type": "Feature"}
{"dataset_attributes": {"@spider": "usps_collection_boxes", "spider:collection_time": "2024-01-04T08:25:05.301423"}, "geometry": {"coordinates": [-75.7085746536, 39.607747594], "type": "Point"}, "id": "anoSxl2PICst5jo1dsq8xRoc-gs=", "properties": {"@spider": "usps_collection_boxes", "addr:city": "BEAR", "addr:country": "US", "addr:full": "125 RICKEY BLVD", "addr:postcode": "19701", "addr:state": "DE", "amenity": "post_box", "brand": "United States Postal Service", "brand:wikidata": "Q668687", "collection_times": "Mo-Fr 18:00; Sa 13:00", "name": "USPS COLLECTION BOX - PO LOBBY", "note": "ON 12/24 AND 12/31, THIS BOX MAY BE COLLECTED AS EARLY AS 12 NOON.", "nsi_id": "unitedstatespostalservice-a77078", "operator": "United States Postal Service", "operator:short": "USPS", "operator:type": "public", "operator:wikidata": "Q668687", "ref": "1970100020"}, "type": "Feature"}
{"dataset_attributes": {"@spider": "usps_collection_boxes", "spider:collection_time": "2024-01-04T08:25:05.301423"}, "geometry": {"coordinates": [-75.6424678, 39.686413], "type": "Point"}, "id": "KpuaLheAZnGVry5se14HMl3gUgc=", "properties": {"@spider": "usps_collection_boxes", "addr:city": "NEWARK", "addr:country": "US", "addr:full": "100 CAPANO DR", "addr:postcode": "19702", "addr:state": "DE", "amenity": "post_box", "brand": "United States Postal Service", "brand:wikidata": "Q668687", "collection_times": "Mo-Sa 10:00", "name": "USPS COLLECTION BOX - BLUE BOX", "nsi_id": "unitedstatespostalservice-a77078", "operator": "United States Postal Service", "operator:short": "USPS", "operator:type": "public", "operator:wikidata": "Q668687", "ref": "1970200007"}, "type": "Feature"}
{"dataset_attributes": {"@spider": "usps_collection_boxes", "spider:collection_time": "2024-01-04T08:25:05.301423"}, "geometry": {"coordinates": [-75.7058985, 39.612618], "type": "Point"}, "id": "F4REZ5S6Vo0uCQgid44l1Sm_MCE=", "properties": {"@spider": "usps_collection_boxes", "addr:city": "NEWARK", "addr:country": "US", "addr:full": "2102 ASHKIRK DR", "addr:postcode": "19702", "addr:state": "DE", "amenity": "post_box", "brand": "United States Postal Service", "brand:wikidata": "Q668687", "collection_times": "Mo-Sa 10:00", "name": "USPS COLLECTION BOX - BLUE BOX", "nsi_id": "unitedstatespostalservice-a77078", "operator": "United States Postal Service", "operator:short": "USPS", "operator:type": "public", "operator:wikidata": "Q668687", "ref": "1970200010"}, "type": "Feature"}
{"dataset_attributes": {"@spider": "usps_collection_boxes", "spider:collection_time": "2024-01-04T08:25:05.301423"}, "geometry": {"coordinates": [-75.7454721, 39.627481], "type": "Point"}, "id": "oL70kv8JgygpBUBJaHyepN2givM=", "properties": {"@spider": "usps_collection_boxes", "addr:city": "NEWARK", "addr:country": "US", "addr:full": "700 PLAZA DR", "addr:postcode": "19702", "addr:state": "DE", "amenity": "post_box", "brand": "United States Postal Service", "brand:wikidata": "Q668687", "collection_times": "Mo-Sa 10:00", "name": "USPS COLLECTION BOX - BLUE BOX", "nsi_id": "unitedstatespostalservice-a77078", "operator": "United States Postal Service", "operator:short": "USPS", "operator:type": "public", "operator:wikidata": "Q668687", "ref": "1970200011"}, "type": "Feature"}
{"dataset_attributes": {"@spider": "usps_collection_boxes", "spider:collection_time": "2024-01-04T08:25:05.301423"}, "geometry": {"coordinates": [-75.6612494, 39.665535], "type": "Point"}, "id": "wUrsekAvNMbP4B6swpdMApJfXWM=", "properties": {"@spider": "usps_collection_boxes", "addr:city": "NEWARK", "addr:country": "US", "addr:full": "10 W MAIN ST", "addr:postcode": "19702", "addr:state": "DE", "amenity": "post_box", "brand": "United States Postal Service", "brand:wikidata": "Q668687", "collection_times": "Mo-Sa 10:00", "name": "USPS COLLECTION BOX - BLUE BOX", "nsi_id": "unitedstatespostalservice-a77078", "operator": "United States Postal Service", "operator:short": "USPS", "operator:type": "public", "operator:wikidata": "Q668687", "ref": "1970200013"}, "type": "Feature"}
{"dataset_attributes": {"@spider": "usps_collection_boxes", "spider:collection_time": "2024-01-04T08:25:05.301423"}, "geometry": {"coordinates": [-75.7454247, 39.601845], "type": "Point"}, "id": "3TCKfFZTh5tpaCBV9UFxqatfiAs=", "properties": {"@spider": "usps_collection_boxes", "addr:city": "NEWARK", "addr:country": "US", "addr:full": "300 PEOPLES PLZ", "addr:postcode": "19702", "addr:state": "DE", "amenity": "post_box", "brand": "United States Postal Service", "brand:wikidata": "Q668687", "collection_times": "Mo-Sa 10:00", "name": "USPS COLLECTION BOX - BLUE BOX", "nsi_id": "unitedstatespostalservice-a77078", "operator": "United States Postal Service", "operator:short": "USPS", "operator:type": "public", "operator:wikidata": "Q668687", "ref": "1970200014"}, "type": "Feature"}
{"dataset_attributes": {"@spider": "usps_collection_boxes", "spider:collection_time": "2024-01-04T08:25:05.301423"}, "geometry": {"coordinates": [-75.6741299, 39.667226], "type": "Point"}, "id": "phRyQ5phW7KzoYUtkmTEPbr1PGk=", "properties": {"@spider": "usps_collection_boxes", "addr:city": "NEWARK", "addr:country": "US", "addr:full": "261 CHAPMAN RD", "addr:postcode": "19702", "addr:state": "DE", "amenity": "post_box", "brand": "United States Postal Service", "brand:wikidata": "Q668687", "collection_times": "Mo-Sa 12:00", "name": "USPS COLLECTION BOX - BLUE BOX", "nsi_id": "unitedstatespostalservice-a77078", "operator": "United States Postal Service", "operator:short": "USPS", "operator:type": "public", "operator:wikidata": "Q668687", "ref": "1970200015"}, "type": "Feature"}
{"dataset_attributes": {"@spider": "usps_collection_boxes", "spider:collection_time": "2024-01-04T08:25:05.301423"}, "geometry": {"coordinates": [-75.6798418, 39.655825], "type": "Point"}, "id": "h2hASLv7Z6jm6cFiHRsa9YfVZwI=", "properties": {"@spider": "usps_collection_boxes", "addr:city": "NEWARK", "addr:country": "US", "addr:full": "1 WOODSHADE DR", "addr:postcode": "19702", "addr:state": "DE", "amenity": "post_box", "brand": "United States Postal Service", "brand:wikidata": "Q668687", "collection_times": "Mo-Sa 10:00", "name": "USPS COLLECTION BOX - BLUE BOX", "nsi_id": "unitedstatespostalservice-a77078", "operator": "United States Postal Service", "operator:short": "USPS", "operator:type": "public", "operator:wikidata": "Q668687", "ref": "1970200020"}, "type": "Feature"}
{"dataset_attributes": {"@spider": "usps_collection_boxes", "spider:collection_time": "2024-01-04T08:25:05.301423"}, "geometry": {"coordinates": [-75.6698463, 39.666555], "type": "Point"}, "id": "cFe0z3Xzgbe6KBaS7HO93uXfI0M=", "properties": {"@spider": "usps_collection_boxes", "addr:city": "NEWARK", "addr:country": "US", "addr:full": "100 UNIVERSITY PLZ", "addr:postcode": "19702", "addr:state": "DE", "amenity": "post_box", "brand": "United States Postal Service", "brand:wikidata": "Q668687", "collection_times": "Mo-Sa 14:00", "name": "USPS COLLECTION BOX - BLUE BOX", "note": "ON 12/24 AND 12/31, THIS BOX MAY BE COLLECTED AS EARLY AS 12 NOON.", "nsi_id": "unitedstatespostalservice-a77078", "operator": "United States Postal Service", "operator:short": "USPS", "operator:type": "public", "operator:wikidata": "Q668687", "ref": "1970200022"}, "type": "Feature"}
{"dataset_attributes": {"@spider": "usps_collection_boxes", "spider:collection_time": "2024-01-04T08:25:05.301423"}, "geometry": {"coordinates": [-75.7493588142, 39.6155495282], "type": "Point"}, "id": "sOxqOQgeVg_ASJMwyR-NzBzVU0c=", "properties": {"@spider": "usps_collection_boxes", "addr:city": "NEWARK", "addr:country": "US", "addr:full": "205 EXECUTIVE DR", "addr:postcode": "19702", "addr:state": "DE", "amenity": "post_box", "brand": "United States Postal Service", "brand:wikidata": "Q668687", "collection_times": "Mo-Sa 12:30", "name": "USPS COLLECTION BOX - BLUE BOX", "note": "ON 12/24 AND 12/31, THIS BOX MAY BE COLLECTED AS EARLY AS 12 NOON.", "nsi_id": "unitedstatespostalservice-a77078", "operator": "United States Postal Service", "operator:short": "USPS", "operator:type": "public", "operator:wikidata": "Q668687", "ref": "1970200029"}, "type": "Feature"}
{"dataset_attributes": {"@spider": "usps_collection_boxes", "spider:collection_time": "2024-01-04T08:25:05.301423"}, "geometry": {"coordinates": [-75.6655899, 39.666809], "type": "Point"}, "id": "VtXZc2M66VOBVAS65kt08SekTOo=", "properties": {"@spider": "usps_collection_boxes", "addr:city": "NEWARK", "addr:country": "US", "addr:full": "56 W MAIN ST", "addr:postcode": "19702", "addr:state": "DE", "amenity": "post_box", "brand": "United States Postal Service", "brand:wikidata": "Q668687", "collection_times": "Mo-Sa 11:00", "name": "USPS COLLECTION BOX - BLUE BOX", "nsi_id": "unitedstatespostalservice-a77078", "operator": "United States Postal Service", "operator:short": "USPS", "operator:type": "public", "operator:wikidata": "Q668687", "ref": "1970200033"}, "type": "Feature"}
{"dataset_attributes": {"@spider": "usps_collection_boxes", "spider:collection_time": "2024-01-04T08:25:05.301423"}, "geometry": {"coordinates": [-75.7500186, 39.602763], "type": "Point"}, "id": "JfunhrGSSLJVFEb_xt6JnK0pp34=", "properties": {"@spider": "usps_collection_boxes", "addr:city": "NEWARK", "addr:country": "US", "addr:full": "1400 PEOPLES PLZ", "addr:postcode": "19702", "addr:state": "DE", "amenity": "post_box", "brand": "United States Postal Service", "brand:wikidata": "Q668687", "collection_times": "Mo-Sa 10:00", "name": "USPS COLLECTION BOX - BLUE BOX", "nsi_id": "unitedstatespostalservice-a77078", "operator": "United States Postal Service", "operator:short": "USPS", "operator:type": "public", "operator:wikidata": "Q668687", "ref": "1970200034"}, "type": "Feature"}
{"dataset_attributes": {"@spider": "usps_collection_boxes", "spider:collection_time": "2024-01-04T08:25:05.301423"}, "geometry": {"coordinates": [-75.4619888, 39.82004], "type": "Point"}, "id": "-pAFDxHrlW9EhLlBpqD5km6CjFc=", "properties": {"@spider": "usps_collection_boxes", "addr:city": "CLAYMONT", "addr:country": "US", "addr:full": "1200 SOCIETY DR", "addr:postcode": "19703", "addr:state": "DE", "amenity": "post_box", "brand": "United States Postal Service", "brand:wikidata": "Q668687", "collection_times": "Mo-Sa 10:30", "name": "USPS COLLECTION BOX - BLUE BOX", "nsi_id": "unitedstatespostalservice-a77078", "operator": "United States Postal Service", "operator:short": "USPS", "operator:type": "public", "operator:wikidata": "Q668687", "ref": "1970300007"}, "type": "Feature"}
{"dataset_attributes": {"@spider": "usps_collection_boxes", "spider:collection_time": "2024-01-04T08:25:05.301423"}, "geometry": {"coordinates": [-75.4768336, 39.800808], "type": "Point"}, "id": "eJvqiNxBY8HfWnEDOTeRCWIM4uU=", "properties": {"@spider": "usps_collection_boxes", "addr:city": "CLAYMONT", "addr:country": "US", "addr:full": "1 GLENROCK DR", "addr:postcode": "19703", "addr:state": "DE", "amenity": "post_box", "brand": "United States Postal Service", "brand:wikidata": "Q668687", "collection_times": "Mo-Sa 10:30", "name": "USPS COLLECTION BOX - BLUE BOX", "nsi_id": "unitedstatespostalservice-a77078", "operator": "United States Postal Service", "operator:short": "USPS", "operator:type": "public", "operator:wikidata": "Q668687", "ref": "1970300016"}, "type": "Feature"}
{"dataset_attributes": {"@spider": "usps_collection_boxes", "spider:collection_time": "2024-01-04T08:25:05.301423"}, "geometry": {"coordinates": [-75.468868, 39.795457], "type": "Point"}, "id": "PGNTOUfEgOmJHjQ69uW8Vyh4MT4=", "properties": {"@spider": "usps_collection_boxes", "addr:city": "CLAYMONT", "addr:country": "US", "addr:full": "99 HARVEY RD", "addr:postcode": "19703", "addr:state": "DE", "amenity": "post_box", "brand": "United States Postal Service", "brand:wikidata": "Q668687", "collection_times": "Mo-Sa 10:00", "name": "USPS COLLECTION BOX - BLUE BOX", "nsi_id": "unitedstatespostalservice-a77078", "operator": "United States Postal Service", "operator:short": "USPS", "operator:type": "public", "operator:wikidata": "Q668687", "ref": "1970300018"}, "type": "Feature"}
{"dataset_attributes": {"@spider": "usps_collection_boxes", "spider:collection_time": "2024-01-04T08:25:05.301423"}, "geometry": {"coordinates": [-75.459, 39.801532], "type": "Point"}, "id": "B0q4OV_uvYE7SiRfJWedSuS1RLI=", "properties": {"@spider": "usps_collection_boxes", "addr:city": "CLAYMONT", "addr:country": "US", "addr:full": "3430 PHILADELPHIA PIKE", "addr:postcode": "19703", "addr:state": "DE", "amenity": "post_box", "brand": "United States Postal Service", "brand:wikidata": "Q668687", "collection_times": "Mo-Fr 17:00; Sa 12:30", "name": "USPS COLLECTION BOX - BLUE BOX", "note": "ON 12/24 AND 12/31, THIS BOX MAY BE COLLECTED AS EARLY AS 12 NOON.", "nsi_id": "unitedstatespostalservice-a77078", "operator": "United States Postal Service", "operator:short": "USPS", "operator:type": "public", "operator:wikidata": "Q668687", "ref": "1970300022"}, "type": "Feature"}
{"dataset_attributes": {"@spider": "usps_collection_boxes", "spider:collection_time": "2024-01-04T08:25:05.301423"}, "geometry": {"coordinates": [-75.459111, 39.801493], "type": "Point"}, "id": "61yQgWjrcqU0KEJVCnZtHptQvaQ=", "properties": {"@spider": "usps_collection_boxes", "addr:city": "CLAYMONT", "addr:country": "US", "addr:full": "3430 PHILADELPHIA PIKE", "addr:postcode": "19703", "addr:state": "DE", "amenity": "post_box", "brand": "United States Postal Service", "brand:wikidata": "Q668687", "collection_times": "Mo-Fr 17:00; Sa 12:30", "name": "USPS COLLECTION BOX - PO LOBBY", "note": "ON 12/24 AND 12/31, THIS BOX MAY BE COLLECTED AS EARLY AS 12 NOON.", "nsi_id": "unitedstatespostalservice-a77078", "operator": "United States Postal Service", "operator:short": "USPS", "operator:type": "public", "operator:wikidata": "Q668687", "ref": "1970300027"}, "type": "Feature"}
{"dataset_attributes": {"@spider": "usps_collection_boxes", "spider:collection_time": "2024-01-04T08:25:05.301423"}, "geometry": {"coordinates": [-75.4588932245, 39.8016016991], "type": "Point"}, "id": "_NS4Ke9_sgzgwR-E8w82wJ5YfYQ=", "properties": {"@spider": "usps_collection_boxes", "addr:city": "CLAYMONT", "addr:country": "US", "addr:full": "3430 PHILADELPHIA PIKE", "addr:postcode": "19703", "addr:state": "DE", "amenity": "post_box", "brand": "United States Postal Service", "brand:wikidata": "Q668687", "collection_times": "Mo-Fr 17:00; Sa 12:00", "name": "USPS COLLECTION BOX - PO LOBBY", "note": "ON 12/24 AND 12/31, THIS BOX MAY BE COLLECTED AS EARLY AS 12 NOON.", "nsi_id": "unitedstatespostalservice-a77078", "operator": "United States Postal Service", "operator:short": "USPS", "operator:type": "public", "operator:wikidata": "Q668687", "ref": "1970300035"}, "type": "Feature"}
{"dataset_attributes": {"@spider": "usps_collection_boxes", "spider:collection_time": "2024-01-04T08:25:05.301423"}, "geometry": {"coordinates": [-75.588512, 39.578643], "type": "Point"}, "id": "Qa3AKuxPMc3Xxmig_pHkhU5nwLo=", "properties": {"@spider": "usps_collection_boxes", "addr:city": "DELAWARE CITY", "addr:country": "US", "addr:full": "54 CLINTON ST", "addr:postcode": "19706", "addr:state": "DE", "amenity": "post_box", "brand": "United States Postal Service", "brand:wikidata": "Q668687", "collection_times": "Mo-Fr 17:00; Sa 12:00", "name": "USPS COLLECTION BOX - BLUE BOX", "note": "ON 12/24 AND 12/31, THIS BOX MAY BE COLLECTED AS EARLY AS 12 NOON.", "nsi_id": "unitedstatespostalservice-a77078", "operator": "United States Postal Service", "operator:short": "USPS", "operator:type": "public", "operator:wikidata": "Q668687", "ref": "1970600001"}, "type": "Feature"}
{"dataset_attributes": {"@spider": "usps_collection_boxes", "spider:collection_time": "2024-01-04T08:25:05.301423"}, "geometry": {"coordinates": [-75.58851, 39.578603], "type": "Point"}, "id": "fBxTOjAvBMAVIfzl172e5AENXYQ=", "properties": {"@spider": "usps_collection_boxes", "addr:city": "DELAWARE CITY", "addr:country": "US", "addr:full": "54 CLINTON ST", "addr:postcode": "19706", "addr:state": "DE", "amenity": "post_box", "brand": "United States Postal Service", "brand:wikidata": "Q668687", "collection_times": "Mo-Fr 17:00; Sa 12:00", "name": "USPS COLLECTION BOX - PO LOBBY", "note": "ON 12/24 AND 12/31, THIS BOX MAY BE COLLECTED AS EARLY AS 12 NOON.", "nsi_id": "unitedstatespostalservice-a77078", "operator": "United States Postal Service", "operator:short": "USPS", "operator:type": "public", "operator:wikidata": "Q668687", "ref": "1970600003"}, "type": "Feature"}
{"dataset_attributes": {"@spider": "usps_collection_boxes", "spider:collection_time": "2024-01-04T08:25:05.301423"}, "geometry": {"coordinates": [-75.588382285, 39.578751585], "type": "Point"}, "id": "5nB75XLqUG6HrsvDwZA6DYsiuYw=", "properties": {"@spider": "usps_collection_boxes", "addr:city": "DELAWARE CITY", "addr:country": "US", "addr:full": "54 CLINTON ST", "addr:postcode": "19706", "addr:state": "DE", "amenity": "post_box", "brand": "United States Postal Service", "brand:wikidata": "Q668687", "collection_times": "Mo-Fr 17:00; Sa 12:00", "name": "USPS COLLECTION BOX - PO LOBBY", "note": "ON 12/24 AND 12/31, THIS BOX MAY BE COLLECTED AS EARLY AS 12 NOON.", "nsi_id": "unitedstatespostalservice-a77078", "operator": "United States Postal Service", "operator:short": "USPS", "operator:type": "public", "operator:wikidata": "Q668687", "ref": "1970600006"}, "type": "Feature"}
{"dataset_attributes": {"@spider": "usps_collection_boxes", "spider:collection_time": "2024-01-04T08:25:05.301423"}, "geometry": {"coordinates": [-75.6968683, 39.786567], "type": "Point"}, "id": "j9rce3rOVgfGAMcn-VHmahHDxgU=", "properties": {"@spider": "usps_collection_boxes", "addr:city": "HOCKESSIN", "addr:country": "US", "addr:full": "500 HOCKESSIN CORS", "addr:postcode": "19707", "addr:state": "DE", "amenity": "post_box", "brand": "United States Postal Service", "brand:wikidata": "Q668687", "collection_times": "Mo-Sa 11:00", "name": "USPS COLLECTION BOX - BLUE BOX", "nsi_id": "unitedstatespostalservice-a77078", "operator": "United States Postal Service", "operator:short": "USPS", "operator:type": "public", "operator:wikidata": "Q668687", "ref": "1970700007"}, "type": "Feature"}
{"dataset_attributes": {"@spider": "usps_collection_boxes", "spider:collection_time": "2024-01-04T08:25:05.301423"}, "geometry": {"coordinates": [-75.6905409, 39.789788], "type": "Point"}, "id": "o4Fi8SgZFpMaTw6CrZmHdzyBXf8=", "properties": {"@spider": "usps_collection_boxes", "addr:city": "HOCKESSIN", "addr:country": "US", "addr:full": "724 YORKLYN RD  ((RR#011))", "addr:postcode": "19707", "addr:state": "DE", "amenity": "post_box", "brand": "United States Postal Service", "brand:wikidata": "Q668687", "collection_times": "Mo-Sa 11:00", "name": "USPS COLLECTION BOX - BLUE BOX", "nsi_id": "unitedstatespostalservice-a77078", "operator": "United States Postal Service", "operator:short": "USPS", "operator:type": "public", "operator:wikidata": "Q668687", "ref": "1970700011"}, "type": "Feature"}
{"dataset_attributes": {"@spider": "usps_collection_boxes", "spider:collection_time": "2024-01-04T08:25:05.301423"}, "geometry": {"coordinates": [-75.6965, 39.78765], "type": "Point"}, "id": "rp1hQayzivvINKpQQfUR8chL6sw=", "properties": {"@spider": "usps_collection_boxes", "addr:city": "HOCKESSIN", "addr:country": "US", "addr:full": "651 VALLEY RD", "addr:postcode": "19707", "addr:state": "DE", "amenity": "post_box", "brand": "United States Postal Service", "brand:wikidata": "Q668687", "collection_times": "Mo-Fr 16:30; Sa 14:45", "name": "USPS COLLECTION BOX - BLUE BOX", "note": "ON 12/24 AND 12/31, THIS BOX MAY BE COLLECTED AS EARLY AS 12 NOON.", "nsi_id": "unitedstatespostalservice-a77078", "operator": "United States Postal Service", "operator:short": "USPS", "operator:type": "public", "operator:wikidata": "Q668687", "ref": "1970700013"}, "type": "Feature"}
{"dataset_attributes": {"@spider": "usps_collection_boxes", "spider:collection_time": "2024-01-04T08:25:05.301423"}, "geometry": {"coordinates": [-75.6965, 39.78765], "type": "Point"}, "id": "sXb0xdw_ui7nh47NxPfxciwKJUo=", "properties": {"@spider": "usps_collection_boxes", "addr:city": "HOCKESSIN", "addr:country": "US", "addr:full": "651 VALLEY RD", "addr:postcode": "19707", "addr:state": "DE", "amenity": "post_box", "brand": "United States Postal Service", "brand:wikidata": "Q668687", "collection_times": "Mo-Fr 16:30; Sa 14:45", "name": "USPS COLLECTION BOX - BLUE BOX", "note": "ON 12/24 AND 12/31, THIS BOX MAY BE COLLECTED AS EARLY AS 12 NOON.", "nsi_id": "unitedstatespostalservice-a77078", "operator": "United States Postal Service", "operator:short": "USPS", "operator:type": "public", "operator:wikidata": "Q668687", "ref": "1970700014"}, "type": "Feature"}
{"dataset_attributes": {"@spider": "usps_collection_boxes", "spider:collection_time": "2024-01-04T08:25:05.301423"}, "geometry": {"coordinates": [-75.712902, 39.776915], "type": "Point"}, "id": "LdZfdp6mRLY9IByXRSUDfsxrw0Y=", "properties": {"@spider": "usps_collection_boxes", "addr:city": "HOCKESSIN", "addr:country": "US", "addr:full": "651 VALLEY RD", "addr:postcode": "19707", "addr:state": "DE", "amenity": "post_box", "brand": "United States Postal Service", "brand:wikidata": "Q668687", "collection_times": "Mo-Fr 16:30; Sa 14:45", "name": "USPS COLLECTION BOX - PO LOBBY", "note": "ON 12/24 AND 12/31, THIS BOX MAY BE COLLECTED AS EARLY AS 12 NOON.", "nsi_id": "unitedstatespostalservice-a77078", "operator": "United States Postal Service", "operator:short": "USPS", "operator:type": "public", "operator:wikidata": "Q668687", "ref": "1970700019"}, "type": "Feature"}
{"dataset_attributes": {"@spider": "usps_collection_boxes", "spider:collection_time": "2024-01-04T08:25:05.301423"}, "geometry": {"coordinates": [-75.712902, 39.776915], "type": "Point"}, "id": "wImzqN5wPbAfgL26LjoZzv68Bh0=", "properties": {"@spider": "usps_collection_boxes", "addr:city": "HOCKESSIN", "addr:country": "US", "addr:full": "651 VALLEY RD", "addr:postcode": "19707", "addr:state": "DE", "amenity": "post_box", "brand": "United States Postal Service", "brand:wikidata": "Q668687", "collection_times": "Mo-Fr 16:30; Sa 14:45", "name": "USPS COLLECTION BOX - APC", "note": "ON 12/24 AND 12/31, THIS BOX MAY BE COLLECTED AS EARLY AS 12 NOON.", "nsi_id": "unitedstatespostalservice-a77078", "operator": "United States Postal Service", "operator:short": "USPS", "operator:type": "public", "operator:wikidata": "Q668687", "ref": "1970700021"}, "type": "Feature"}
{"dataset_attributes": {"@spider": "usps_collection_boxes", "spider:collection_time": "2024-01-04T08:25:05.301423"}, "geometry": {"coordinates": [-75.713072911, 39.7767075131], "type": "Point"}, "id": "2ncksS2q-fSjO1-mqlvJwEWn0kI=", "properties": {"@spider": "usps_collection_boxes", "addr:city": "HOCKESSIN", "addr:country": "US", "addr:full": "651 VALLEY RD", "addr:postcode": "19707", "addr:state": "DE", "amenity": "post_box", "brand": "United States Postal Service", "brand:wikidata": "Q668687", "collection_times": "Mo-Fr 16:30; Sa 13:00", "name": "USPS COLLECTION BOX - PO LOBBY", "note": "ON 12/24 AND 12/31, THIS BOX MAY BE COLLECTED AS EARLY AS 12 NOON.", "nsi_id": "unitedstatespostalservice-a77078", "operator": "United States Postal Service", "operator:short": "USPS", "operator:type": "public", "operator:wikidata": "Q668687", "ref": "1970700024"}, "type": "Feature"}
{"dataset_attributes": {"@spider": "usps_collection_boxes", "spider:collection_time": "2024-01-04T08:25:05.301423"}, "geometry": {"coordinates": [-75.6977234279, 39.5704220075], "type": "Point"}, "id": "rR6y8OdbQ5q7khJ2NAQVfCGAES0=", "properties": {"@spider": "usps_collection_boxes", "addr:city": "KIRKWOOD", "addr:country": "US", "addr:full": "2501 RED LION RD", "addr:postcode": "19708", "addr:state": "DE", "amenity": "post_box", "brand": "United States Postal Service", "brand:wikidata": "Q668687", "collection_times": "Mo-Fr 16:15; Sa 11:30", "name": "USPS COLLECTION BOX - BLUE BOX", "note": "ON 12/24 AND 12/31, THIS BOX MAY BE COLLECTED AS EARLY AS 12 NOON.", "nsi_id": "unitedstatespostalservice-a77078", "operator": "United States Postal Service", "operator:short": "USPS", "operator:type": "public", "operator:wikidata": "Q668687", "ref": "1970800001"}, "type": "Feature"}
{"dataset_attributes": {"@spider": "usps_collection_boxes", "spider:collection_time": "2024-01-04T08:25:05.301423"}, "geometry": {"coordinates": [-75.6978739964, 39.5704910204], "type": "Point"}, "id": "b95TYsN-Wt16o09_2IXQa0E8wbk=", "properties": {"@spider": "usps_collection_boxes", "addr:city": "KIRKWOOD", "addr:country": "US", "addr:full": "2501 RED LION RD", "addr:postcode": "19708", "addr:state": "DE", "amenity": "post_box", "brand": "United States Postal Service", "brand:wikidata": "Q668687", "collection_times": "Mo-Fr 16:15; Sa 11:30", "name": "USPS COLLECTION BOX - PO LOBBY", "note": "ON 12/24 AND 12/31, THIS BOX MAY BE COLLECTED AS EARLY AS 12 NOON.", "nsi_id": "unitedstatespostalservice-a77078", "operator": "United States Postal Service", "operator:short": "USPS", "operator:type": "public", "operator:wikidata": "Q668687", "ref": "1970800002"}, "type": "Feature"}
{"dataset_attributes": {"@spider": "usps_collection_boxes", "spider:collection_time": "2024-01-04T08:25:05.301423"}, "geometry": {"coordinates": [-75.6978739964, 39.5704910204], "type": "Point"}, "id": "ilwxS8ZfefN3NCpz5CmvrJEF2Wk=", "properties": {"@spider": "usps_collection_boxes", "addr:city": "KIRKWOOD", "addr:country": "US", "addr:full": "2501 RED LION RD", "addr:postcode": "19708", "addr:state": "DE", "amenity": "post_box", "brand": "United States Postal Service", "brand:wikidata": "Q668687", "collection_times": "Mo-Fr 16:15; Sa 11:30", "name": "USPS COLLECTION BOX - PO LOBBY", "note": "ON 12/24 AND 12/31, THIS BOX MAY BE COLLECTED AS EARLY AS 12 NOON.", "nsi_id": "unitedstatespostalservice-a77078", "operator": "United States Postal Service", "operator:short": "USPS", "operator:type": "public", "operator:wikidata": "Q668687", "ref": "1970800005"}, "type": "Feature"}
{"dataset_attributes": {"@spider": "usps_collection_boxes", "spider:collection_time": "2024-01-04T08:25:05.301423"}, "geometry": {"coordinates": [-75.707862, 39.45009], "type": "Point"}, "id": "0Pdf3sZWAHucxWphSKPglFT_3E4=", "properties": {"@spider": "usps_collection_boxes", "addr:city": "MIDDLETOWN", "addr:country": "US", "addr:full": "298 E MAIN ST", "addr:postcode": "19709", "addr:state": "DE", "amenity": "post_box", "brand": "United States Postal Service", "brand:wikidata": "Q668687", "collection_times": "Mo-Fr 17:00; Sa 15:00", "name": "USPS COLLECTION BOX - PO LOBBY", "note": "ON 12/24 AND 12/31, THIS BOX MAY BE COLLECTED AS EARLY AS 12 NOON.", "nsi_id": "unitedstatespostalservice-a77078", "operator": "United States Postal Service", "operator:short": "USPS", "operator:type": "public", "operator:wikidata": "Q668687", "ref": "1970900013"}, "type": "Feature"}
{"dataset_attributes": {"@spider": "usps_collection_boxes", "spider:collection_time": "2024-01-04T08:25:05.301423"}, "geometry": {"coordinates": [-75.707749, 39.450124], "type": "Point"}, "id": "OLKcgLdOacNXUMySVCTUL3Gn-1s=", "properties": {"@spider": "usps_collection_boxes", "addr:city": "MIDDLETOWN", "addr:country": "US", "addr:full": "298 E MAIN ST", "addr:postcode": "19709", "addr:state": "DE", "amenity": "post_box", "brand": "United States Postal Service", "brand:wikidata": "Q668687", "collection_times": "Mo-Fr 17:00; Sa 15:00", "name": "USPS COLLECTION BOX - BLUE BOX", "note": "ON 12/24 AND 12/31, THIS BOX MAY BE COLLECTED AS EARLY AS 12 NOON.", "nsi_id": "unitedstatespostalservice-a77078", "operator": "United States Postal Service", "operator:short": "USPS", "operator:type": "public", "operator:wikidata": "Q668687", "ref": "1970900016"}, "type": "Feature"}
{"dataset_attributes": {"@spider": "usps_collection_boxes", "spider:collection_time": "2024-01-04T08:25:05.301423"}, "geometry": {"coordinates": [-75.707749, 39.450124], "type": "Point"}, "id": "JNDPMyoOu6Vi37GFo0DUjK9HcnY=", "properties": {"@spider": "usps_collection_boxes", "addr:city": "MIDDLETOWN", "addr:country": "US", "addr:full": "298 E MAIN ST", "addr:postcode": "19709", "addr:state": "DE", "amenity": "post_box", "brand": "United States Postal Service", "brand:wikidata": "Q668687", "collection_times": "Mo-Fr 17:00; Sa 15:00", "name": "USPS COLLECTION BOX - BLUE BOX", "note": "ON 12/24 AND 12/31, THIS BOX MAY BE COLLECTED AS EARLY AS 12 NOON.", "nsi_id": "unitedstatespostalservice-a77078", "operator": "United States Postal Service", "operator:short": "USPS", "operator:type": "public", "operator:wikidata": "Q668687", "ref": "1970900018"}, "type": "Feature"}
{"dataset_attributes": {"@spider": "usps_collection_boxes", "spider:collection_time": "2024-01-04T08:25:05.301423"}, "geometry": {"coordinates": [-75.707770338, 39.450075542], "type": "Point"}, "id": "7k06uHZNx84fuVJP2shZZL9kX1M=", "properties": {"@spider": "usps_collection_boxes", "addr:city": "MIDDLETOWN", "addr:country": "US", "addr:full": "298 E MAIN ST", "addr:postcode": "19709", "addr:state": "DE", "amenity": "post_box", "brand": "United States Postal Service", "brand:wikidata": "Q668687", "collection_times": "Mo-Fr 16:45; Sa 13:00", "name": "USPS COLLECTION BOX - PO LOBBY", "note": "ON 12/24 AND 12/31, THIS BOX MAY BE COLLECTED AS EARLY AS 12 NOON.", "nsi_id": "unitedstatespostalservice-a77078", "operator": "United States Postal Service", "operator:short": "USPS", "operator:type": "public", "operator:wikidata": "Q668687", "ref": "1970900023"}, "type": "Feature"}
{"dataset_attributes": {"@spider": "usps_collection_boxes", "spider:collection_time": "2024-01-04T08:25:05.301423"}, "geometry": {"coordinates": [-75.719929075, 39.459595324], "type": "Point"}, "id": "t0QOUVVFirgUSUNZSKLp8F5DF-A=", "properties": {"@spider": "usps_collection_boxes", "addr:city": "MIDDLETOWN", "addr:country": "US", "addr:full": "801 N BROAD ST", "addr:postcode": "19709", "addr:state": "DE", "amenity": "post_box", "brand": "United States Postal Service", "brand:wikidata": "Q668687", "collection_times": "Mo-Fr 16:00; Sa 15:30", "name": "USPS COLLECTION BOX - BLUE BOX", "note": "ON 12/24 AND 12/31, THIS BOX MAY BE COLLECTED AS EARLY AS 12 NOON.", "nsi_id": "unitedstatespostalservice-a77078", "operator": "United States Postal Service", "operator:short": "USPS", "operator:type": "public", "operator:wikidata": "Q668687", "ref": "1970900024"}, "type": "Feature"}
{"dataset_attributes": {"@spider": "usps_collection_boxes", "spider:collection_time": "2024-01-04T08:25:05.301423"}, "geometry": {"coordinates": [-75.587943333, 39.790336667], "type": "Point"}, "id": "yXv1r7DLnA8skU2RnkKfhCPZLYo=", "properties": {"@spider": "usps_collection_boxes", "addr:city": "MONTCHANIN", "addr:country": "US", "addr:full": "101 STONE BLOCK ROW", "addr:postcode": "19710", "addr:state": "DE", "amenity": "post_box", "brand": "United States Postal Service", "brand:wikidata": "Q668687", "collection_times": "Mo-Fr 16:30; Sa 11:00", "name": "USPS COLLECTION BOX - BLUE BOX", "note": "ON 12/24 AND 12/31, THIS BOX MAY BE COLLECTED AS EARLY AS 12 NOON.", "nsi_id": "unitedstatespostalservice-a77078", "operator": "United States Postal Service", "operator:short": "USPS", "operator:type": "public", "operator:wikidata": "Q668687", "ref": "1971000001"}, "type": "Feature"}
{"dataset_attributes": {"@spider": "usps_collection_boxes", "spider:collection_time": "2024-01-04T08:25:05.301423"}, "geometry": {"coordinates": [-75.587943333, 39.790336667], "type": "Point"}, "id": "4qlgJm6fnuaUhgMFllTHP48y4jU=", "properties": {"@spider": "usps_collection_boxes", "addr:city": "MONTCHANIN", "addr:country": "US", "addr:full": "101 STONE BLOCK ROW", "addr:postcode": "19710", "addr:state": "DE", "amenity": "post_box", "brand": "United States Postal Service", "brand:wikidata": "Q668687", "collection_times": "Mo-Fr 16:30; Sa 11:00", "name": "USPS COLLECTION BOX - PO LOBBY", "note": "ON 12/24 AND 12/31, THIS BOX MAY BE COLLECTED AS EARLY AS 12 NOON.", "nsi_id": "unitedstatespostalservice-a77078", "operator": "United States Postal Service", "operator:short": "USPS", "operator:type": "public", "operator:wikidata": "Q668687", "ref": "1971000002"}, "type": "Feature"}
{"dataset_attributes": {"@spider": "usps_collection_boxes", "spider:collection_time": "2024-01-04T08:25:05.301423"}, "geometry": {"coordinates": [-75.587943333, 39.790336667], "type": "Point"}, "id": "vop6lqbDN_oT4DLQL9uJwzIijAA=", "properties": {"@spider": "usps_collection_boxes", "addr:city": "MONTCHANIN", "addr:country": "US", "addr:full": "101 STONE BLOCK ROW", "addr:postcode": "19710", "addr:state": "DE", "amenity": "post_box", "brand": "United States Postal Service", "brand:wikidata": "Q668687", "collection_times": "Mo-Fr 16:30; Sa 11:00", "name": "USPS COLLECTION BOX - PO LOBBY", "note": "ON 12/24 AND 12/31, THIS BOX MAY BE COLLECTED AS EARLY AS 12 NOON.", "nsi_id": "unitedstatespostalservice-a77078", "operator": "United States Postal Service", "operator:short": "USPS", "operator:type": "public", "operator:wikidata": "Q668687", "ref": "1971000005"}, "type": "Feature"}
{"dataset_attributes": {"@spider": "usps_collection_boxes", "spider:collection_time": "2024-01-04T08:25:05.301423"}, "geometry": {"coordinates": [-75.735427, 39.68443], "type": "Point"}, "id": "2MXlZICN_CzOiPeEbtmQFQsJCOs=", "properties": {"@spider": "usps_collection_boxes", "addr:city": "NEWARK", "addr:country": "US", "addr:full": "401 OGLETOWN RD", "addr:postcode": "19711", "addr:state": "DE", "amenity": "post_box", "brand": "United States Postal Service", "brand:wikidata": "Q668687", "collection_times": "Mo-Fr 17:15; Sa 16:00", "name": "USPS COLLECTION BOX - BLUE BOX", "note": "ON 12/24 AND 12/31, THIS BOX MAY BE COLLECTED AS EARLY AS 12 NOON.", "nsi_id": "unitedstatespostalservice-a77078", "operator": "United States Postal Service", "operator:short": "USPS", "operator:type": "public", "operator:wikidata": "Q668687", "ref": "1971100000"}, "type": "Feature"}
{"dataset_attributes": {"@spider": "usps_collection_boxes", "spider:collection_time": "2024-01-04T08:25:05.301423"}, "geometry": {"coordinates": [-75.7353289, 39.684442], "type": "Point"}, "id": "CJujjhxNJ2iwhftRqLTpqJ-hUU0=", "properties": {"@spider": "usps_collection_boxes", "addr:city": "NEWARK", "addr:country": "US", "addr:full": "401 OGLETOWN RD", "addr:postcode": "19711", "addr:state": "DE", "amenity": "post_box", "brand": "United States Postal Service", "brand:wikidata": "Q668687", "collection_times": "Mo-Fr 17:15; Sa 16:00", "name": "USPS COLLECTION BOX - BLUE BOX", "note": "ON 12/24 AND 12/31, THIS BOX MAY BE COLLECTED AS EARLY AS 12 NOON.", "nsi_id": "unitedstatespostalservice-a77078", "operator": "United States Postal Service", "operator:short": "USPS", "operator:type": "public", "operator:wikidata": "Q668687", "ref": "1971100001"}, "type": "Feature"}
{"dataset_attributes": {"@spider": "usps_collection_boxes", "spider:collection_time": "2024-01-04T08:25:05.301423"}, "geometry": {"coordinates": [-75.7592776, 39.671905], "type": "Point"}, "id": "3j_DNGVyz-06SrevdqYpkL3zOX8=", "properties": {"@spider": "usps_collection_boxes", "addr:city": "NEWARK", "addr:country": "US", "addr:full": "443 BEVERLY RD", "addr:postcode": "19711", "addr:state": "DE", "amenity": "post_box", "brand": "United States Postal Service", "brand:wikidata": "Q668687", "collection_times": "Mo-Sa 11:00", "name": "USPS COLLECTION BOX - BLUE BOX", "nsi_id": "unitedstatespostalservice-a77078", "operator": "United States Postal Service", "operator:short": "USPS", "operator:type": "public", "operator:wikidata": "Q668687", "ref": "1971100005"}, "type": "Feature"}
{"dataset_attributes": {"@spider": "usps_collection_boxes", "spider:collection_time": "2024-01-04T08:25:05.301423"}, "geometry": {"coordinates": [-75.7434541, 39.684599], "type": "Point"}, "id": "DNQLRleyfh_rRzIqrTmbXqfoGPE=", "properties": {"@spider": "usps_collection_boxes", "addr:city": "NEWARK", "addr:country": "US", "addr:full": "230 E MAIN ST", "addr:postcode": "19711", "addr:state": "DE", "amenity": "post_box", "brand": "United States Postal Service", "brand:wikidata": "Q668687", "collection_times": "Mo-Sa 11:00", "name": "USPS COLLECTION BOX - BLUE BOX", "nsi_id": "unitedstatespostalservice-a77078", "operator": "United States Postal Service", "operator:short": "USPS", "operator:type": "public", "operator:wikidata": "Q668687", "ref": "1971100006"}, "type": "Feature"}
{"dataset_attributes": {"@spider": "usps_collection_boxes", "spider:collection_time": "2024-01-04T08:25:05.301423"}, "geometry": {"coordinates": [-75.7016633, 39.699916], "type": "Point"}, "id": "2vtzxsWfslxI237Hcj_HBGCGdEU=", "properties": {"@spider": "usps_collection_boxes", "addr:city": "NEWARK", "addr:country": "US", "addr:full": "2 DARWIN DR", "addr:postcode": "19711", "addr:state": "DE", "amenity": "post_box", "brand": "United States Postal Service", "brand:wikidata": "Q668687", "collection_times": "Mo-Sa 11:00", "name": "USPS COLLECTION BOX - BLUE BOX", "nsi_id": "unitedstatespostalservice-a77078", "operator": "United States Postal Service", "operator:short": "USPS", "operator:type": "public", "operator:wikidata": "Q668687", "ref": "1971100010"}, "type": "Feature"}
{"dataset_attributes": {"@spider": "usps_collection_boxes", "spider:collection_time": "2024-01-04T08:25:05.301423"}, "geometry": {"coordinates": [-75.6888773, 39.692853], "type": "Point"}, "id": "Lyu_XqVxZ6cmsfdKEmh7gWR34Zc=", "properties": {"@spider": "usps_collection_boxes", "addr:city": "NEWARK", "addr:country": "US", "addr:full": "9 E RUTHAR DR", "addr:postcode": "19711", "addr:state": "DE", "amenity": "post_box", "brand": "United States Postal Service", "brand:wikidata": "Q668687", "collection_times": "Mo-Sa 14:45", "name": "USPS COLLECTION BOX - BLUE BOX", "note": "ON 12/24 AND 12/31, THIS BOX MAY BE COLLECTED AS EARLY AS 12 NOON.", "nsi_id": "unitedstatespostalservice-a77078", "operator": "United States Postal Service", "operator:short": "USPS", "operator:type": "public", "operator:wikidata": "Q668687", "ref": "1971100017"}, "type": "Feature"}
{"dataset_attributes": {"@spider": "usps_collection_boxes", "spider:collection_time": "2024-01-04T08:25:05.301423"}, "geometry": {"coordinates": [-75.6852785, 39.707774], "type": "Point"}, "id": "YxPrHReUaPYHUg12qjZ1P2SIKvE=", "properties": {"@spider": "usps_collection_boxes", "addr:city": "NEWARK", "addr:country": "US", "addr:full": "31 MEADOWOOD DR", "addr:postcode": "19711", "addr:state": "DE", "amenity": "post_box", "brand": "United States Postal Service", "brand:wikidata": "Q668687", "collection_times": "Mo-Sa 14:45", "name": "USPS COLLECTION BOX - BLUE BOX", "note": "ON 12/24 AND 12/31, THIS BOX MAY BE COLLECTED AS EARLY AS 12 NOON.", "nsi_id": "unitedstatespostalservice-a77078", "operator": "United States Postal Service", "operator:short": "USPS", "operator:type": "public", "operator:wikidata": "Q668687", "ref": "1971100018"}, "type": "Feature"}
{"dataset_attributes": {"@spider": "usps_collection_boxes", "spider:collection_time": "2024-01-04T08:25:05.301423"}, "geometry": {"coordinates": [-75.764102401, 39.694286493], "type": "Point"}, "id": "lGgaxZqlgbp1LM4qypZKxS3crTo=", "properties": {"@spider": "usps_collection_boxes", "addr:city": "NEWARK", "addr:country": "US", "addr:full": "409 NEW LONDON RD", "addr:postcode": "19711", "addr:state": "DE", "amenity": "post_box", "brand": "United States Postal Service", "brand:wikidata": "Q668687", "collection_times": "Mo-Sa 12:15", "name": "USPS COLLECTION BOX - BLUE BOX", "note": "ON 12/24 AND 12/31, THIS BOX MAY BE COLLECTED AS EARLY AS 12 NOON.", "nsi_id": "unitedstatespostalservice-a77078", "operator": "United States Postal Service", "operator:short": "USPS", "operator:type": "public", "operator:wikidata": "Q668687", "ref": "1971100019"}, "type": "Feature"}
{"dataset_attributes": {"@spider": "usps_collection_boxes", "spider:collection_time": "2024-01-04T08:25:05.301423"}, "geometry": {"coordinates": [-75.6844079, 39.706414], "type": "Point"}, "id": "Zjru-DXlnKWDcMHFCnv8omEBoL4=", "properties": {"@spider": "usps_collection_boxes", "addr:city": "NEWARK", "addr:country": "US", "addr:full": "2624 KIRKWOOD HWY", "addr:postcode": "19711", "addr:state": "DE", "amenity": "post_box", "brand": "United States Postal Service", "brand:wikidata": "Q668687", "collection_times": "Mo-Sa 09:30", "name": "USPS COLLECTION BOX - BLUE BOX", "nsi_id": "unitedstatespostalservice-a77078", "operator": "United States Postal Service", "operator:short": "USPS", "operator:type": "public", "operator:wikidata": "Q668687", "ref": "1971100023"}, "type": "Feature"}
{"dataset_attributes": {"@spider": "usps_collection_boxes", "spider:collection_time": "2024-01-04T08:25:05.301423"}, "geometry": {"coordinates": [-75.709826, 39.718541], "type": "Point"}, "id": "tDrMU0iF_iMpwiBu1iZpYflcfbY=", "properties": {"@spider": "usps_collection_boxes", "addr:city": "NEWARK", "addr:country": "US", "addr:full": "1 POLLY DRUMMOND SHPG CTR", "addr:postcode": "19711", "addr:state": "DE", "amenity": "post_box", "brand": "United States Postal Service", "brand:wikidata": "Q668687", "collection_times": "Mo-Fr 16:45; Sa 15:00", "name": "USPS COLLECTION BOX - BLUE BOX", "note": "ON 12/24 AND 12/31, THIS BOX MAY BE COLLECTED AS EARLY AS 12 NOON.", "nsi_id": "unitedstatespostalservice-a77078", "operator": "United States Postal Service", "operator:short": "USPS", "operator:type": "public", "operator:wikidata": "Q668687", "ref": "1971100025"}, "type": "Feature"}
{"dataset_attributes": {"@spider": "usps_collection_boxes", "spider:collection_time": "2024-01-04T08:25:05.301423"}, "geometry": {"coordinates": [-75.7626491, 39.68372], "type": "Point"}, "id": "0BRrlJYG6SOmk0aRxZIwcxD_pPY=", "properties": {"@spider": "usps_collection_boxes", "addr:city": "NEWARK", "addr:country": "US", "addr:full": "200 DALLAM RD", "addr:postcode": "19711", "addr:state": "DE", "amenity": "post_box", "brand": "United States Postal Service", "brand:wikidata": "Q668687", "collection_times": "Mo-Sa 10:00", "name": "USPS COLLECTION BOX - BLUE BOX", "nsi_id": "unitedstatespostalservice-a77078", "operator": "United States Postal Service", "operator:short": "USPS", "operator:type": "public", "operator:wikidata": "Q668687", "ref": "1971100030"}, "type": "Feature"}
{"dataset_attributes": {"@spider": "usps_collection_boxes", "spider:collection_time": "2024-01-04T08:25:05.301423"}, "geometry": {"coordinates": [-75.7630559, 39.676617], "type": "Point"}, "id": "xlnWMPAW6cB-qf36kY2nFhubDoI=", "properties": {"@spider": "usps_collection_boxes", "addr:city": "NEWARK", "addr:country": "US", "addr:full": "267 S MAIN ST", "addr:postcode": "19711", "addr:state": "DE", "amenity": "post_box", "brand": "United States Postal Service", "brand:wikidata": "Q668687", "collection_times": "Mo-Sa 11:30", "name": "USPS COLLECTION BOX - BLUE BOX", "nsi_id": "unitedstatespostalservice-a77078", "operator": "United States Postal Service", "operator:short": "USPS", "operator:type": "public", "operator:wikidata": "Q668687", "ref": "1971100031"}, "type": "Feature"}
{"dataset_attributes": {"@spider": "usps_collection_boxes", "spider:collection_time": "2024-01-04T08:25:05.301423"}, "geometry": {"coordinates": [-75.7080741, 39.698798], "type": "Point"}, "id": "frCEm7icycRu18sp5DrYiDUHoO0=", "properties": {"@spider": "usps_collection_boxes", "addr:city": "NEWARK", "addr:country": "US", "addr:full": "1 POLLY DRUMMOND SHPG CTR", "addr:postcode": "19711", "addr:state": "DE", "amenity": "post_box", "brand": "United States Postal Service", "brand:wikidata": "Q668687", "collection_times": "Mo-Sa 15:00", "name": "USPS COLLECTION BOX - BLUE BOX", "note": "ON 12/24 AND 12/31, THIS BOX MAY BE COLLECTED AS EARLY AS 12 NOON.", "nsi_id": "unitedstatespostalservice-a77078", "operator": "United States Postal Service", "operator:short": "USPS", "operator:type": "public", "operator:wikidata": "Q668687", "ref": "1971100033"}, "type": "Feature"}
{"dataset_attributes": {"@spider": "usps_collection_boxes", "spider:collection_time": "2024-01-04T08:25:05.301423"}, "geometry": {"coordinates": [-75.7780849, 39.667925], "type": "Point"}, "id": "HoJWseYmO5Y-cf9vjm2CKP2IEKo=", "properties": {"@spider": "usps_collection_boxes", "addr:city": "NEWARK", "addr:country": "US", "addr:full": "216 SUBURBAN DR", "addr:postcode": "19711", "addr:state": "DE", "amenity": "post_box", "brand": "United States Postal Service", "brand:wikidata": "Q668687", "collection_times": "Mo-Sa 12:00", "name": "USPS COLLECTION BOX - BLUE BOX", "nsi_id": "unitedstatespostalservice-a77078", "operator": "United States Postal Service", "operator:short": "USPS", "operator:type": "public", "operator:wikidata": "Q668687", "ref": "1971100035"}, "type": "Feature"}
{"dataset_attributes": {"@spider": "usps_collection_boxes", "spider:collection_time": "2024-01-04T08:25:05.301423"}, "geometry": {"coordinates": [-75.7498396, 39.677048], "type": "Point"}, "id": "59J17IDGle1qPD4nu7EP_U3l0D4=", "properties": {"@spider": "usps_collection_boxes", "addr:city": "NEWARK", "addr:country": "US", "addr:full": "325 ACADEMY ST", "addr:postcode": "19711", "addr:state": "DE", "amenity": "post_box", "brand": "United States Postal Service", "brand:wikidata": "Q668687", "collection_times": "Mo-Sa 11:45", "name": "USPS COLLECTION BOX - BLUE BOX", "nsi_id": "unitedstatespostalservice-a77078", "operator": "United States Postal Service", "operator:short": "USPS", "operator:type": "public", "operator:wikidata": "Q668687", "ref": "1971100040"}, "type": "Feature"}
{"dataset_attributes": {"@spider": "usps_collection_boxes", "spider:collection_time": "2024-01-04T08:25:05.301423"}, "geometry": {"coordinates": [-75.7421199, 39.683837], "type": "Point"}, "id": "Qf_SNxyAuZJqXzvEhMuy9MGZYT0=", "properties": {"@spider": "usps_collection_boxes", "addr:city": "NEWARK", "addr:country": "US", "addr:full": "273 E MAIN ST", "addr:postcode": "19711", "addr:state": "DE", "amenity": "post_box", "brand": "United States Postal Service", "brand:wikidata": "Q668687", "collection_times": "Mo-Sa 11:00", "name": "USPS COLLECTION BOX - BLUE BOX", "nsi_id": "unitedstatespostalservice-a77078", "operator": "United States Postal Service", "operator:short": "USPS", "operator:type": "public", "operator:wikidata": "Q668687", "ref": "1971100041"}, "type": "Feature"}
{"dataset_attributes": {"@spider": "usps_collection_boxes", "spider:collection_time": "2024-01-04T08:25:05.301423"}, "geometry": {"coordinates": [-75.748662, 39.683637], "type": "Point"}, "id": "wAtx6KeOEMXwZNQ2UdxFyt3gqXI=", "properties": {"@spider": "usps_collection_boxes", "addr:city": "NEWARK", "addr:country": "US", "addr:full": "110 E MAIN ST", "addr:postcode": "19711", "addr:state": "DE", "amenity": "post_box", "brand": "United States Postal Service", "brand:wikidata": "Q668687", "collection_times": "Mo-Fr 17:00; Sa 15:15", "name": "USPS COLLECTION BOX - BLUE BOX", "note": "ON 12/24 AND 12/31, THIS BOX MAY BE COLLECTED AS EARLY AS 12 NOON.", "nsi_id": "unitedstatespostalservice-a77078", "operator": "United States Postal Service", "operator:short": "USPS", "operator:type": "public", "operator:wikidata": "Q668687", "ref": "1971100042"}, "type": "Feature"}
{"dataset_attributes": {"@spider": "usps_collection_boxes", "spider:collection_time": "2024-01-04T08:25:05.301423"}, "geometry": {"coordinates": [-75.735397, 39.684428], "type": "Point"}, "id": "V1GLxWbuJjk5l-1KRVMOsOrjgYA=", "properties": {"@spider": "usps_collection_boxes", "addr:city": "NEWARK", "addr:country": "US", "addr:full": "401 OGLETOWN RD", "addr:postcode": "19711", "addr:state": "DE", "amenity": "post_box", "brand": "United States Postal Service", "brand:wikidata": "Q668687", "collection_times": "Mo-Fr 17:15; Sa 16:00", "name": "USPS COLLECTION BOX - BLUE BOX", "note": "ON 12/24 AND 12/31, THIS BOX MAY BE COLLECTED AS EARLY AS 12 NOON.", "nsi_id": "unitedstatespostalservice-a77078", "operator": "United States Postal Service", "operator:short": "USPS", "operator:type": "public", "operator:wikidata": "Q668687", "ref": "1971100044"}, "type": "Feature"}
{"dataset_attributes": {"@spider": "usps_collection_boxes", "spider:collection_time": "2024-01-04T08:25:05.301423"}, "geometry": {"coordinates": [-75.7353581, 39.68445], "type": "Point"}, "id": "fHHPJF8KYU4u3XESgfue-OanXZY=", "properties": {"@spider": "usps_collection_boxes", "addr:city": "NEWARK", "addr:country": "US", "addr:full": "401 OGLETOWN RD", "addr:postcode": "19711", "addr:state": "DE", "amenity": "post_box", "brand": "United States Postal Service", "brand:wikidata": "Q668687", "collection_times": "Mo-Fr 17:15; Sa 16:00", "name": "USPS COLLECTION BOX - BLUE BOX", "note": "ON 12/24 AND 12/31, THIS BOX MAY BE COLLECTED AS EARLY AS 12 NOON.", "nsi_id": "unitedstatespostalservice-a77078", "operator": "United States Postal Service", "operator:short": "USPS", "operator:type": "public", "operator:wikidata": "Q668687", "ref": "1971100046"}, "type": "Feature"}
{"dataset_attributes": {"@spider": "usps_collection_boxes", "spider:collection_time": "2024-01-04T08:25:05.301423"}, "geometry": {"coordinates": [-75.748662, 39.683637], "type": "Point"}, "id": "XPu2V8ptD2425GSLLg-YcSXDEWY=", "properties": {"@spider": "usps_collection_boxes", "addr:city": "NEWARK", "addr:country": "US", "addr:full": "110 E MAIN ST", "addr:postcode": "19711", "addr:state": "DE", "amenity": "post_box", "brand": "United States Postal Service", "brand:wikidata": "Q668687", "collection_times": "Mo-Fr 17:00; Sa 15:15", "name": "USPS COLLECTION BOX - BLUE BOX", "note": "ON 12/24 AND 12/31, THIS BOX MAY BE COLLECTED AS EARLY AS 12 NOON.", "nsi_id": "unitedstatespostalservice-a77078", "operator": "United States Postal Service", "operator:short": "USPS", "operator:type": "public", "operator:wikidata": "Q668687", "ref": "1971100048"}, "type": "Feature"}
{"dataset_attributes": {"@spider": "usps_collection_boxes", "spider:collection_time": "2024-01-04T08:25:05.301423"}, "geometry": {"coordinates": [-75.7355249, 39.684068], "type": "Point"}, "id": "KTGNMB_fBOiA5VIbKgBRlhpZcHY=", "properties": {"@spider": "usps_collection_boxes", "addr:city": "NEWARK", "addr:country": "US", "addr:full": "401 OGLETOWN RD", "addr:postcode": "19711", "addr:state": "DE", "amenity": "post_box", "brand": "United States Postal Service", "brand:wikidata": "Q668687", "collection_times": "Mo-Fr 17:15; Sa 16:00", "name": "USPS COLLECTION BOX - PO LOBBY", "note": "ON 12/24 AND 12/31, THIS BOX MAY BE COLLECTED AS EARLY AS 12 NOON.", "nsi_id": "unitedstatespostalservice-a77078", "operator": "United States Postal Service", "operator:short": "USPS", "operator:type": "public", "operator:wikidata": "Q668687", "ref": "1971100054"}, "type": "Feature"}
{"dataset_attributes": {"@spider": "usps_collection_boxes", "spider:collection_time": "2024-01-04T08:25:05.301423"}, "geometry": {"coordinates": [-75.7486774, 39.683607], "type": "Point"}, "id": "OW2EFmoV9lR4fGeQrb9j6E6QkE4=", "properties": {"@spider": "usps_collection_boxes", "addr:city": "NEWARK", "addr:country": "US", "addr:full": "110 E MAIN ST", "addr:postcode": "19711", "addr:state": "DE", "amenity": "post_box", "brand": "United States Postal Service", "brand:wikidata": "Q668687", "collection_times": "Mo-Fr 16:00; Sa 12:00", "name": "USPS COLLECTION BOX - PO LOBBY", "note": "ON 12/24 AND 12/31, THIS BOX MAY BE COLLECTED AS EARLY AS 12 NOON.", "nsi_id": "unitedstatespostalservice-a77078", "operator": "United States Postal Service", "operator:short": "USPS", "operator:type": "public", "operator:wikidata": "Q668687", "ref": "1971100055"}, "type": "Feature"}
{"dataset_attributes": {"@spider": "usps_collection_boxes", "spider:collection_time": "2024-01-04T08:25:05.301423"}, "geometry": {"coordinates": [-75.7355718, 39.684229], "type": "Point"}, "id": "6MPA9QPzXHVO5M8TWemYW5o4rHI=", "properties": {"@spider": "usps_collection_boxes", "addr:city": "NEWARK", "addr:country": "US", "addr:full": "401 OGLETOWN RD", "addr:postcode": "19711", "addr:state": "DE", "amenity": "post_box", "brand": "United States Postal Service", "brand:wikidata": "Q668687", "collection_times": "Mo-Fr 17:15; Sa 16:00", "name": "USPS COLLECTION BOX - APC", "note": "ON 12/24 AND 12/31, THIS BOX MAY BE COLLECTED AS EARLY AS 12 NOON.", "nsi_id": "unitedstatespostalservice-a77078", "operator": "United States Postal Service", "operator:short": "USPS", "operator:type": "public", "operator:wikidata": "Q668687", "ref": "1971100057"}, "type": "Feature"}
{"dataset_attributes": {"@spider": "usps_collection_boxes", "spider:collection_time": "2024-01-04T08:25:05.301423"}, "geometry": {"coordinates": [-75.7098194, 39.718551], "type": "Point"}, "id": "eON4iI8TvBpADanY4flT_tIy2_o=", "properties": {"@spider": "usps_collection_boxes", "addr:city": "NEWARK", "addr:country": "US", "addr:full": "1 POLLY DRUMMOND SHPG CTR", "addr:postcode": "19711", "addr:state": "DE", "amenity": "post_box", "brand": "United States Postal Service", "brand:wikidata": "Q668687", "collection_times": "Mo-Fr 16:45; Sa 15:00", "name": "USPS COLLECTION BOX - BLUE BOX", "note": "ON 12/24 AND 12/31, THIS BOX MAY BE COLLECTED AS EARLY AS 12 NOON.", "nsi_id": "unitedstatespostalservice-a77078", "operator": "United States Postal Service", "operator:short": "USPS", "operator:type": "public", "operator:wikidata": "Q668687", "ref": "1971100059"}, "type": "Feature"}
{"dataset_attributes": {"@spider": "usps_collection_boxes", "spider:collection_time": "2024-01-04T08:25:05.301423"}, "geometry": {"coordinates": [-75.748672807, 39.683410395], "type": "Point"}, "id": "3aVdKrVh_spcKoxq91rbmA36asA=", "properties": {"@spider": "usps_collection_boxes", "addr:city": "NEWARK", "addr:country": "US", "addr:full": "110 E MAIN ST", "addr:postcode": "19711", "addr:state": "DE", "amenity": "post_box", "brand": "United States Postal Service", "brand:wikidata": "Q668687", "collection_times": "Mo-Fr 16:00; Sa 12:00", "name": "USPS COLLECTION BOX - PO LOBBY", "note": "ON 12/24 AND 12/31, THIS BOX MAY BE COLLECTED AS EARLY AS 12 NOON.", "nsi_id": "unitedstatespostalservice-a77078", "operator": "United States Postal Service", "operator:short": "USPS", "operator:type": "public", "operator:wikidata": "Q668687", "ref": "1971100065"}, "type": "Feature"}
{"dataset_attributes": {"@spider": "usps_collection_boxes", "spider:collection_time": "2024-01-04T08:25:05.301423"}, "geometry": {"coordinates": [-75.735833199, 39.68460099], "type": "Point"}, "id": "ztvLY564nyw7gq3ls-HGAVDehp8=", "properties": {"@spider": "usps_collection_boxes", "addr:city": "NEWARK", "addr:country": "US", "addr:full": "401 OGLETOWN RD", "addr:postcode": "19711", "addr:state": "DE", "amenity": "post_box", "brand": "United States Postal Service", "brand:wikidata": "Q668687", "collection_times": "Mo-Fr 18:45; Sa 13:00", "name": "USPS COLLECTION BOX - PO LOBBY", "note": "ON 12/24 AND 12/31, THIS BOX MAY BE COLLECTED AS EARLY AS 12 NOON.", "nsi_id": "unitedstatespostalservice-a77078", "operator": "United States Postal Service", "operator:short": "USPS", "operator:type": "public", "operator:wikidata": "Q668687", "ref": "1971100066"}, "type": "Feature"}
{"dataset_attributes": {"@spider": "usps_collection_boxes", "spider:collection_time": "2024-01-04T08:25:05.301423"}, "geometry": {"coordinates": [-75.7631469778, 39.6777170197], "type": "Point"}, "id": "G3d5ccB6ZUfKSwqcgtrW6rdGJY8=", "properties": {"@spider": "usps_collection_boxes", "addr:city": "NEWARK", "addr:country": "US", "addr:full": "220 S MAIN ST", "addr:postcode": "19711", "addr:state": "DE", "amenity": "post_box", "brand": "United States Postal Service", "brand:wikidata": "Q668687", "collection_times": "Mo-Sa 11:00", "name": "USPS COLLECTION BOX - BLUE BOX", "nsi_id": "unitedstatespostalservice-a77078", "operator": "United States Postal Service", "operator:short": "USPS", "operator:type": "public", "operator:wikidata": "Q668687", "ref": "1971100069"}, "type": "Feature"}
{"dataset_attributes": {"@spider": "usps_collection_boxes", "spider:collection_time": "2024-01-04T08:25:05.301423"}, "geometry": {"coordinates": [-75.7558769, 39.650153], "type": "Point"}, "id": "B_NGvJzKR2DoG2Ed8ul5Xv_5sJY=", "properties": {"@spider": "usps_collection_boxes", "addr:city": "NEWARK", "addr:country": "US", "addr:full": "68 WELSH TRACT RD", "addr:postcode": "19713", "addr:state": "DE", "amenity": "post_box", "brand": "United States Postal Service", "brand:wikidata": "Q668687", "collection_times": "Mo-Sa 10:00", "name": "USPS COLLECTION BOX - BLUE BOX", "nsi_id": "unitedstatespostalservice-a77078", "operator": "United States Postal Service", "operator:short": "USPS", "operator:type": "public", "operator:wikidata": "Q668687", "ref": "1971300018"}, "type": "Feature"}
{"dataset_attributes": {"@spider": "usps_collection_boxes", "spider:collection_time": "2024-01-04T08:25:05.301423"}, "geometry": {"coordinates": [-75.6712343, 39.686848], "type": "Point"}, "id": "83rmNuykDOLsPi2KiKD8J7UgFRQ=", "properties": {"@spider": "usps_collection_boxes", "addr:city": "NEWARK", "addr:country": "US", "addr:full": "4745 OGLETOWN STANTON RD", "addr:postcode": "19713", "addr:state": "DE", "amenity": "post_box", "brand": "United States Postal Service", "brand:wikidata": "Q668687", "collection_times": "Mo-Sa 12:00", "name": "USPS COLLECTION BOX - BLUE BOX", "nsi_id": "unitedstatespostalservice-a77078", "operator": "United States Postal Service", "operator:short": "USPS", "operator:type": "public", "operator:wikidata": "Q668687", "ref": "1971300023"}, "type": "Feature"}
{"dataset_attributes": {"@spider": "usps_collection_boxes", "spider:collection_time": "2024-01-04T08:25:05.301423"}, "geometry": {"coordinates": [-75.7806517, 39.647803], "type": "Point"}, "id": "hR9_A3OLUYGCD7eq9Ba32333ISo=", "properties": {"@spider": "usps_collection_boxes", "addr:city": "NEWARK", "addr:country": "US", "addr:full": "38 WENARK DR", "addr:postcode": "19713", "addr:state": "DE", "amenity": "post_box", "brand": "United States Postal Service", "brand:wikidata": "Q668687", "collection_times": "Mo-Sa 14:00", "name": "USPS COLLECTION BOX - BLUE BOX", "note": "ON 12/24 AND 12/31, THIS BOX MAY BE COLLECTED AS EARLY AS 12 NOON.", "nsi_id": "unitedstatespostalservice-a77078", "operator": "United States Postal Service", "operator:short": "USPS", "operator:type": "public", "operator:wikidata": "Q668687", "ref": "1971300025"}, "type": "Feature"}
{"dataset_attributes": {"@spider": "usps_collection_boxes", "spider:collection_time": "2024-01-04T08:25:05.301423"}, "geometry": {"coordinates": [-75.7437699, 39.658322], "type": "Point"}, "id": "om9ymWGxF5gXNjnMMbAEXXNlKSE=", "properties": {"@spider": "usps_collection_boxes", "addr:city": "NEWARK", "addr:country": "US", "addr:full": "1 ROBSCOTT TURN", "addr:postcode": "19713", "addr:state": "DE", "amenity": "post_box", "brand": "United States Postal Service", "brand:wikidata": "Q668687", "collection_times": "Mo-Sa 14:00", "name": "USPS COLLECTION BOX - BLUE BOX", "note": "ON 12/24 AND 12/31, THIS BOX MAY BE COLLECTED AS EARLY AS 12 NOON.", "nsi_id": "unitedstatespostalservice-a77078", "operator": "United States Postal Service", "operator:short": "USPS", "operator:type": "public", "operator:wikidata": "Q668687", "ref": "1971300030"}, "type": "Feature"}
{"dataset_attributes": {"@spider": "usps_collection_boxes", "spider:collection_time": "2024-01-04T08:25:05.301423"}, "geometry": {"coordinates": [-75.7204799, 39.665722], "type": "Point"}, "id": "8lXhCIlk7QJVdF2W0Eu8jbCqQ0Y=", "properties": {"@spider": "usps_collection_boxes", "addr:city": "NEWARK", "addr:country": "US", "addr:full": "146 CHESTNUT CROSSING DR", "addr:postcode": "19713", "addr:state": "DE", "amenity": "post_box", "brand": "United States Postal Service", "brand:wikidata": "Q668687", "collection_times": "Mo-Sa 14:15", "name": "USPS COLLECTION BOX - BLUE BOX", "note": "ON 12/24 AND 12/31, THIS BOX MAY BE COLLECTED AS EARLY AS 12 NOON.", "nsi_id": "unitedstatespostalservice-a77078", "operator": "United States Postal Service", "operator:short": "USPS", "operator:type": "public", "operator:wikidata": "Q668687", "ref": "1971300032"}, "type": "Feature"}
{"dataset_attributes": {"@spider": "usps_collection_boxes", "spider:collection_time": "2024-01-04T08:25:05.301423"}, "geometry": {"coordinates": [-75.7077799, 39.681212], "type": "Point"}, "id": "2Z4nTHBg1_FVz6b68rSuLjZAmfk=", "properties": {"@spider": "usps_collection_boxes", "addr:city": "NEWARK", "addr:country": "US", "addr:full": "3 AUGUSTA DR", "addr:postcode": "19713", "addr:state": "DE", "amenity": "post_box", "brand": "United States Postal Service", "brand:wikidata": "Q668687", "collection_times": "Mo-Sa 11:30", "name": "USPS COLLECTION BOX - BLUE BOX", "nsi_id": "unitedstatespostalservice-a77078", "operator": "United States Postal Service", "operator:short": "USPS", "operator:type": "public", "operator:wikidata": "Q668687", "ref": "1971300033"}, "type": "Feature"}
{"dataset_attributes": {"@spider": "usps_collection_boxes", "spider:collection_time": "2024-01-04T08:25:05.301423"}, "geometry": {"coordinates": [-75.7235515, 39.66203], "type": "Point"}, "id": "ENfk_WQIdErDDLO2woJLQdSK4MY=", "properties": {"@spider": "usps_collection_boxes", "addr:city": "NEWARK", "addr:country": "US", "addr:full": "19 CHESTNUT HILL PLZ", "addr:postcode": "19713", "addr:state": "DE", "amenity": "post_box", "brand": "United States Postal Service", "brand:wikidata": "Q668687", "collection_times": "Mo-Sa 10:00", "name": "USPS COLLECTION BOX - BLUE BOX", "nsi_id": "unitedstatespostalservice-a77078", "operator": "United States Postal Service", "operator:short": "USPS", "operator:type": "public", "operator:wikidata": "Q668687", "ref": "1971300038"}, "type": "Feature"}
{"dataset_attributes": {"@spider": "usps_collection_boxes", "spider:collection_time": "2024-01-04T08:25:05.301423"}, "geometry": {"coordinates": [-75.6696311, 39.688364], "type": "Point"}, "id": "qd1POUkZqQNuzGOdaAo7K8qL4ek=", "properties": {"@spider": "usps_collection_boxes", "addr:city": "NEWARK", "addr:country": "US", "addr:full": "4755 OGLETOWN STANTON RD", "addr:postcode": "19713", "addr:state": "DE", "amenity": "post_box", "brand": "United States Postal Service", "brand:wikidata": "Q668687", "collection_times": "Mo-Sa 14:00", "name": "USPS COLLECTION BOX - BLUE BOX", "note": "ON 12/24 AND 12/31, THIS BOX MAY BE COLLECTED AS EARLY AS 12 NOON.", "nsi_id": "unitedstatespostalservice-a77078", "operator": "United States Postal Service", "operator:short": "USPS", "operator:type": "public", "operator:wikidata": "Q668687", "ref": "1971300039"}, "type": "Feature"}
{"dataset_attributes": {"@spider": "usps_collection_boxes", "spider:collection_time": "2024-01-04T08:25:05.301423"}, "geometry": {"coordinates": [-75.6878635, 39.682295], "type": "Point"}, "id": "J1hDS9qu-iuVuzBaBQGXp1bx57c=", "properties": {"@spider": "usps_collection_boxes", "addr:city": "NEWARK", "addr:country": "US", "addr:full": "2 ALLANDALE DR", "addr:postcode": "19713", "addr:state": "DE", "amenity": "post_box", "brand": "United States Postal Service", "brand:wikidata": "Q668687", "collection_times": "Mo-Sa 12:30", "name": "USPS COLLECTION BOX - BLUE BOX", "note": "ON 12/24 AND 12/31, THIS BOX MAY BE COLLECTED AS EARLY AS 12 NOON.", "nsi_id": "unitedstatespostalservice-a77078", "operator": "United States Postal Service", "operator:short": "USPS", "operator:type": "public", "operator:wikidata": "Q668687", "ref": "1971300042"}, "type": "Feature"}
{"dataset_attributes": {"@spider": "usps_collection_boxes", "spider:collection_time": "2024-01-04T08:25:05.301423"}, "geometry": {"coordinates": [-75.6861589, 39.684511], "type": "Point"}, "id": "SAajhHL4lov9ArwmbuS0pJ5uUjE=", "properties": {"@spider": "usps_collection_boxes", "addr:city": "NEWARK", "addr:country": "US", "addr:full": "54 CHESWOLD BLVD", "addr:postcode": "19713", "addr:state": "DE", "amenity": "post_box", "brand": "United States Postal Service", "brand:wikidata": "Q668687", "collection_times": "Mo-Sa 14:45", "name": "USPS COLLECTION BOX - BLUE BOX", "note": "ON 12/24 AND 12/31, THIS BOX MAY BE COLLECTED AS EARLY AS 12 NOON.", "nsi_id": "unitedstatespostalservice-a77078", "operator": "United States Postal Service", "operator:short": "USPS", "operator:type": "public", "operator:wikidata": "Q668687", "ref": "1971300043"}, "type": "Feature"}
{"dataset_attributes": {"@spider": "usps_collection_boxes", "spider:collection_time": "2024-01-04T08:25:05.301423"}, "geometry": {"coordinates": [-75.74689, 39.656225], "type": "Point"}, "id": "pmAYXHCOkZcoDcfj4A7bTpenMME=", "properties": {"@spider": "usps_collection_boxes", "addr:city": "NEWARK", "addr:country": "US", "addr:full": "101 KENMARK RD", "addr:postcode": "19713", "addr:state": "DE", "amenity": "post_box", "brand": "United States Postal Service", "brand:wikidata": "Q668687", "collection_times": "Mo-Sa 10:00", "name": "USPS COLLECTION BOX - BLUE BOX", "nsi_id": "unitedstatespostalservice-a77078", "operator": "United States Postal Service", "operator:short": "USPS", "operator:type": "public", "operator:wikidata": "Q668687", "ref": "1971300046"}, "type": "Feature"}
{"dataset_attributes": {"@spider": "usps_collection_boxes", "spider:collection_time": "2024-01-04T08:25:05.301423"}, "geometry": {"coordinates": [-75.660457, 39.688748], "type": "Point"}, "id": "Y1x75hSdP8RgT1XoQ0672cT9-k0=", "properties": {"@spider": "usps_collection_boxes", "addr:city": "NEWARK", "addr:country": "US", "addr:full": "111 CONTINENTAL DR", "addr:postcode": "19713", "addr:state": "DE", "amenity": "post_box", "brand": "United States Postal Service", "brand:wikidata": "Q668687", "collection_times": "Mo-Sa 14:15", "name": "USPS COLLECTION BOX - BLUE BOX", "note": "ON 12/24 AND 12/31, THIS BOX MAY BE COLLECTED AS EARLY AS 12 NOON.", "nsi_id": "unitedstatespostalservice-a77078", "operator": "United States Postal Service", "operator:short": "USPS", "operator:type": "public", "operator:wikidata": "Q668687", "ref": "1971300056"}, "type": "Feature"}
{"dataset_attributes": {"@spider": "usps_collection_boxes", "spider:collection_time": "2024-01-04T08:25:05.301423"}, "geometry": {"coordinates": [-75.6591637, 39.686821], "type": "Point"}, "id": "CMvq2MMAbK7epE99OYdpQXOiAEQ=", "properties": {"@spider": "usps_collection_boxes", "addr:city": "NEWARK", "addr:country": "US", "addr:full": "220 CONTINENTAL DR", "addr:postcode": "19713", "addr:state": "DE", "amenity": "post_box", "brand": "United States Postal Service", "brand:wikidata": "Q668687", "collection_times": "Mo-Sa 14:30", "name": "USPS COLLECTION BOX - BLUE BOX", "note": "ON 12/24 AND 12/31, THIS BOX MAY BE COLLECTED AS EARLY AS 12 NOON.", "nsi_id": "unitedstatespostalservice-a77078", "operator": "United States Postal Service", "operator:short": "USPS", "operator:type": "public", "operator:wikidata": "Q668687", "ref": "1971300058"}, "type": "Feature"}
{"dataset_attributes": {"@spider": "usps_collection_boxes", "spider:collection_time": "2024-01-04T08:25:05.301423"}, "geometry": {"coordinates": [-75.6578747, 39.686941], "type": "Point"}, "id": "I-K0U9H66TgNQUf3nU9rA4ueL_w=", "properties": {"@spider": "usps_collection_boxes", "addr:city": "NEWARK", "addr:country": "US", "addr:full": "200 CONTINENTAL DR", "addr:postcode": "19713", "addr:state": "DE", "amenity": "post_box", "brand": "United States Postal Service", "brand:wikidata": "Q668687", "collection_times": "Mo-Sa 14:30", "name": "USPS COLLECTION BOX - BLUE BOX", "note": "ON 12/24 AND 12/31, THIS BOX MAY BE COLLECTED AS EARLY AS 12 NOON.", "nsi_id": "unitedstatespostalservice-a77078", "operator": "United States Postal Service", "operator:short": "USPS", "operator:type": "public", "operator:wikidata": "Q668687", "ref": "1971300059"}, "type": "Feature"}
{"dataset_attributes": {"@spider": "usps_collection_boxes", "spider:collection_time": "2024-01-04T08:25:05.301423"}, "geometry": {"coordinates": [-75.7460476, 39.657681], "type": "Point"}, "id": "0VnQrDpl9e8X2c4PEmxJGvI0iAE=", "properties": {"@spider": "usps_collection_boxes", "addr:city": "NEWARK", "addr:country": "US", "addr:full": "153 E CHESTNUT HILL RD", "addr:postcode": "19713", "addr:state": "DE", "amenity": "post_box", "brand": "United States Postal Service", "brand:wikidata": "Q668687", "collection_times": "Mo-Sa 11:00", "name": "USPS COLLECTION BOX - BLUE BOX", "nsi_id": "unitedstatespostalservice-a77078", "operator": "United States Postal Service", "operator:short": "USPS", "operator:type": "public", "operator:wikidata": "Q668687", "ref": "1971300060"}, "type": "Feature"}
{"dataset_attributes": {"@spider": "usps_collection_boxes", "spider:collection_time": "2024-01-04T08:25:05.301423"}, "geometry": {"coordinates": [-75.6729875, 39.686004], "type": "Point"}, "id": "bx-OKqmQEikvpDVE_luc6AgCYn4=", "properties": {"@spider": "usps_collection_boxes", "addr:city": "NEWARK", "addr:country": "US", "addr:full": "4735 OGLETOWN STANTON RD", "addr:postcode": "19713", "addr:state": "DE", "amenity": "post_box", "brand": "United States Postal Service", "brand:wikidata": "Q668687", "collection_times": "Mo-Sa 14:00", "name": "USPS COLLECTION BOX - BLUE BOX", "note": "ON 12/24 AND 12/31, THIS BOX MAY BE COLLECTED AS EARLY AS 12 NOON.", "nsi_id": "unitedstatespostalservice-a77078", "operator": "United States Postal Service", "operator:short": "USPS", "operator:type": "public", "operator:wikidata": "Q668687", "ref": "1971300065"}, "type": "Feature"}
{"dataset_attributes": {"@spider": "usps_collection_boxes", "spider:collection_time": "2024-01-04T08:25:05.301423"}, "geometry": {"coordinates": [-75.6607838, 39.687257], "type": "Point"}, "id": "uMjlp7g0PESUOoGvyfqmhEAqBrk=", "properties": {"@spider": "usps_collection_boxes", "addr:city": "NEWARK", "addr:country": "US", "addr:full": "131 CONTINENTAL DR", "addr:postcode": "19713", "addr:state": "DE", "amenity": "post_box", "brand": "United States Postal Service", "brand:wikidata": "Q668687", "collection_times": "Mo-Sa 14:30", "name": "USPS COLLECTION BOX - BLUE BOX", "note": "ON 12/24 AND 12/31, THIS BOX MAY BE COLLECTED AS EARLY AS 12 NOON.", "nsi_id": "unitedstatespostalservice-a77078", "operator": "United States Postal Service", "operator:short": "USPS", "operator:type": "public", "operator:wikidata": "Q668687", "ref": "1971300066"}, "type": "Feature"}
{"dataset_attributes": {"@spider": "usps_collection_boxes", "spider:collection_time": "2024-01-04T08:25:05.301423"}, "geometry": {"coordinates": [-75.7004483, 39.657888], "type": "Point"}, "id": "1n1z_RM6uvo-JomK3TTRWfNgjk0=", "properties": {"@spider": "usps_collection_boxes", "addr:city": "NEWARK", "addr:country": "US", "addr:full": "100 COMMERCE DR", "addr:postcode": "19713", "addr:state": "DE", "amenity": "post_box", "brand": "United States Postal Service", "brand:wikidata": "Q668687", "collection_times": "Mo-Sa 11:30", "name": "USPS COLLECTION BOX - BLUE BOX", "nsi_id": "unitedstatespostalservice-a77078", "operator": "United States Postal Service", "operator:short": "USPS", "operator:type": "public", "operator:wikidata": "Q668687", "ref": "1971300067"}, "type": "Feature"}
{"dataset_attributes": {"@spider": "usps_collection_boxes", "spider:collection_time": "2024-01-04T08:25:05.301423"}, "geometry": {"coordinates": [-75.6615646, 39.688072], "type": "Point"}, "id": "Oa6jYpxjwQHjIrguHfq-oLKJAIg=", "properties": {"@spider": "usps_collection_boxes", "addr:city": "NEWARK", "addr:country": "US", "addr:full": "121 CONTINENTAL DR", "addr:postcode": "19713", "addr:state": "DE", "amenity": "post_box", "brand": "United States Postal Service", "brand:wikidata": "Q668687", "collection_times": "Mo-Sa 14:15", "name": "USPS COLLECTION BOX - BLUE BOX", "note": "ON 12/24 AND 12/31, THIS BOX MAY BE COLLECTED AS EARLY AS 12 NOON.", "nsi_id": "unitedstatespostalservice-a77078", "operator": "United States Postal Service", "operator:short": "USPS", "operator:type": "public", "operator:wikidata": "Q668687", "ref": "1971300068"}, "type": "Feature"}
{"dataset_attributes": {"@spider": "usps_collection_boxes", "spider:collection_time": "2024-01-04T08:25:05.301423"}, "geometry": {"coordinates": [-75.6747164, 39.69136], "type": "Point"}, "id": "7CcoVRMM0F1fCz5WCwZANWWdWds=", "properties": {"@spider": "usps_collection_boxes", "addr:city": "NEWARK", "addr:country": "US", "addr:full": "200 HYGEIA DR", "addr:postcode": "19713", "addr:state": "DE", "amenity": "post_box", "brand": "United States Postal Service", "brand:wikidata": "Q668687", "collection_times": "Mo-Sa 14:00", "name": "USPS COLLECTION BOX - BLUE BOX", "note": "ON 12/24 AND 12/31, THIS BOX MAY BE COLLECTED AS EARLY AS 12 NOON.", "nsi_id": "unitedstatespostalservice-a77078", "operator": "United States Postal Service", "operator:short": "USPS", "operator:type": "public", "operator:wikidata": "Q668687", "ref": "1971300070"}, "type": "Feature"}
{"dataset_attributes": {"@spider": "usps_collection_boxes", "spider:collection_time": "2024-01-04T08:25:05.301423"}, "geometry": {"coordinates": [-75.6865099, 39.676872], "type": "Point"}, "id": "_abuz82s-mYXh8ZdCaZ9L0CMSME=", "properties": {"@spider": "usps_collection_boxes", "addr:city": "NEWARK", "addr:country": "US", "addr:full": "1100 BIRCHWOOD DR", "addr:postcode": "19713", "addr:state": "DE", "amenity": "post_box", "brand": "United States Postal Service", "brand:wikidata": "Q668687", "collection_times": "Mo-Sa 14:30", "name": "USPS COLLECTION BOX - BLUE BOX", "note": "ON 12/24 AND 12/31, THIS BOX MAY BE COLLECTED AS EARLY AS 12 NOON.", "nsi_id": "unitedstatespostalservice-a77078", "operator": "United States Postal Service", "operator:short": "USPS", "operator:type": "public", "operator:wikidata": "Q668687", "ref": "1971300073"}, "type": "Feature"}
{"dataset_attributes": {"@spider": "usps_collection_boxes", "spider:collection_time": "2024-01-04T08:25:05.301423"}, "geometry": {"coordinates": [-75.6604574, 39.688744], "type": "Point"}, "id": "6xl2t78hxJxaSz262UUo_IeefgI=", "properties": {"@spider": "usps_collection_boxes", "addr:city": "NEWARK", "addr:country": "US", "addr:full": "111 CONTINENTAL DR", "addr:postcode": "19713", "addr:state": "DE", "amenity": "post_box", "brand": "United States Postal Service", "brand:wikidata": "Q668687", "collection_times": "Mo-Sa 14:15", "name": "USPS COLLECTION BOX - BLUE BOX", "note": "ON 12/24 AND 12/31, THIS BOX MAY BE COLLECTED AS EARLY AS 12 NOON.", "nsi_id": "unitedstatespostalservice-a77078", "operator": "United States Postal Service", "operator:short": "USPS", "operator:type": "public", "operator:wikidata": "Q668687", "ref": "1971300075"}, "type": "Feature"}
{"dataset_attributes": {"@spider": "usps_collection_boxes", "spider:collection_time": "2024-01-04T08:25:05.301423"}, "geometry": {"coordinates": [-75.5657762, 39.66137], "type": "Point"}, "id": "2b3jYCKwxRb5zJj769iTtub9KYc=", "properties": {"@spider": "usps_collection_boxes", "addr:city": "NEW CASTLE", "addr:country": "US", "addr:full": "501 DELAWARE ST", "addr:postcode": "19720", "addr:state": "DE", "amenity": "post_box", "brand": "United States Postal Service", "brand:wikidata": "Q668687", "collection_times": "Mo-Fr 17:15; Sa 15:15", "name": "USPS COLLECTION BOX - BLUE BOX", "note": "ON 12/24 AND 12/31, THIS BOX MAY BE COLLECTED AS EARLY AS 12 NOON.", "nsi_id": "unitedstatespostalservice-a77078", "operator": "United States Postal Service", "operator:short": "USPS", "operator:type": "public", "operator:wikidata": "Q668687", "ref": "1972000000"}, "type": "Feature"}
{"dataset_attributes": {"@spider": "usps_collection_boxes", "spider:collection_time": "2024-01-04T08:25:05.301423"}, "geometry": {"coordinates": [-75.58539, 39.688015], "type": "Point"}, "id": "Qstt0KakMv7AwRt103gcinAwFrs=", "properties": {"@spider": "usps_collection_boxes", "addr:city": "NEW CASTLE", "addr:country": "US", "addr:full": "3 E 2ND ST", "addr:postcode": "19720", "addr:state": "DE", "amenity": "post_box", "brand": "United States Postal Service", "brand:wikidata": "Q668687", "collection_times": "Mo-Fr 13:45; Sa 13:30", "name": "USPS COLLECTION BOX - BLUE BOX", "note": "ON 12/24 AND 12/31, THIS BOX MAY BE COLLECTED AS EARLY AS 12 NOON.", "nsi_id": "unitedstatespostalservice-a77078", "operator": "United States Postal Service", "operator:short": "USPS", "operator:type": "public", "operator:wikidata": "Q668687", "ref": "1972000003"}, "type": "Feature"}
{"dataset_attributes": {"@spider": "usps_collection_boxes", "spider:collection_time": "2024-01-04T08:25:05.301423"}, "geometry": {"coordinates": [-75.5613079, 39.663236], "type": "Point"}, "id": "2x-WcsmjiSEjbKdoeviFCd_1amU=", "properties": {"@spider": "usps_collection_boxes", "addr:city": "NEW CASTLE", "addr:country": "US", "addr:full": "308 CHESTNUT ST", "addr:postcode": "19720", "addr:state": "DE", "amenity": "post_box", "brand": "United States Postal Service", "brand:wikidata": "Q668687", "collection_times": "Mo-Sa 13:30", "name": "USPS COLLECTION BOX - BLUE BOX", "note": "ON 12/24 AND 12/31, THIS BOX MAY BE COLLECTED AS EARLY AS 12 NOON.", "nsi_id": "unitedstatespostalservice-a77078", "operator": "United States Postal Service", "operator:short": "USPS", "operator:type": "public", "operator:wikidata": "Q668687", "ref": "1972000005"}, "type": "Feature"}
{"dataset_attributes": {"@spider": "usps_collection_boxes", "spider:collection_time": "2024-01-04T08:25:05.301423"}, "geometry": {"coordinates": [-75.565049, 39.691806], "type": "Point"}, "id": "OkxxE8AZ_QWAL48dvViYZcS4F_c=", "properties": {"@spider": "usps_collection_boxes", "addr:city": "NEW CASTLE", "addr:country": "US", "addr:full": "69 LANDERS LN", "addr:postcode": "19720", "addr:state": "DE", "amenity": "post_box", "brand": "United States Postal Service", "brand:wikidata": "Q668687", "collection_times": "Mo-Sa 12:00", "name": "USPS COLLECTION BOX - BLUE BOX", "nsi_id": "unitedstatespostalservice-a77078", "operator": "United States Postal Service", "operator:short": "USPS", "operator:type": "public", "operator:wikidata": "Q668687", "ref": "1972000009"}, "type": "Feature"}
{"dataset_attributes": {"@spider": "usps_collection_boxes", "spider:collection_time": "2024-01-04T08:25:05.301423"}, "geometry": {"coordinates": [-75.5559321, 39.69243], "type": "Point"}, "id": "TmkLmytlMZFl96HHKYXqyA6lbIc=", "properties": {"@spider": "usps_collection_boxes", "addr:city": "NEW CASTLE", "addr:country": "US", "addr:full": "2062 NEW CASTLE AVE", "addr:postcode": "19720", "addr:state": "DE", "amenity": "post_box", "brand": "United States Postal Service", "brand:wikidata": "Q668687", "collection_times": "Mo-Sa 12:30", "name": "USPS COLLECTION BOX - BLUE BOX", "note": "ON 12/24 AND 12/31, THIS BOX MAY BE COLLECTED AS EARLY AS 12 NOON.", "nsi_id": "unitedstatespostalservice-a77078", "operator": "United States Postal Service", "operator:short": "USPS", "operator:type": "public", "operator:wikidata": "Q668687", "ref": "1972000011"}, "type": "Feature"}
{"dataset_attributes": {"@spider": "usps_collection_boxes", "spider:collection_time": "2024-01-04T08:25:05.301423"}, "geometry": {"coordinates": [-75.5579977247, 39.7039031971], "type": "Point"}, "id": "bAEA2olSqb1RuJ1msGZerWkkzJs=", "properties": {"@spider": "usps_collection_boxes", "addr:city": "NEW CASTLE", "addr:country": "US", "addr:full": "61 MEMORIAL DR", "addr:postcode": "19720", "addr:state": "DE", "amenity": "post_box", "brand": "United States Postal Service", "brand:wikidata": "Q668687", "collection_times": "Mo-Sa 12:00", "name": "USPS COLLECTION BOX - BLUE BOX", "nsi_id": "unitedstatespostalservice-a77078", "operator": "United States Postal Service", "operator:short": "USPS", "operator:type": "public", "operator:wikidata": "Q668687", "ref": "1972000018"}, "type": "Feature"}
{"dataset_attributes": {"@spider": "usps_collection_boxes", "spider:collection_time": "2024-01-04T08:25:05.301423"}, "geometry": {"coordinates": [-75.5748994, 39.700223], "type": "Point"}, "id": "Spsk4bXiufrpfRMCr5jEYMAKt_A=", "properties": {"@spider": "usps_collection_boxes", "addr:city": "NEW CASTLE", "addr:country": "US", "addr:full": "1901 N DUPONT HWY", "addr:postcode": "19720", "addr:state": "DE", "amenity": "post_box", "brand": "United States Postal Service", "brand:wikidata": "Q668687", "collection_times": "Mo-Fr 17:00; Sa 14:15", "name": "USPS COLLECTION BOX - BLUE BOX", "note": "ON 12/24 AND 12/31, THIS BOX MAY BE COLLECTED AS EARLY AS 12 NOON.", "nsi_id": "unitedstatespostalservice-a77078", "operator": "United States Postal Service", "operator:short": "USPS", "operator:type": "public", "operator:wikidata": "Q668687", "ref": "1972000019"}, "type": "Feature"}
{"dataset_attributes": {"@spider": "usps_collection_boxes", "spider:collection_time": "2024-01-04T08:25:05.301423"}, "geometry": {"coordinates": [-75.5817609, 39.689372], "type": "Point"}, "id": "swWCxfIMl1gngTMBO11lsKlqX6M=", "properties": {"@spider": "usps_collection_boxes", "addr:city": "NEW CASTLE", "addr:country": "US", "addr:full": "1412 N DUPONT HWY", "addr:postcode": "19720", "addr:state": "DE", "amenity": "post_box", "brand": "United States Postal Service", "brand:wikidata": "Q668687", "collection_times": "Mo-Fr 17:00; Sa 13:45", "name": "USPS COLLECTION BOX - BLUE BOX", "note": "ON 12/24 AND 12/31, THIS BOX MAY BE COLLECTED AS EARLY AS 12 NOON.", "nsi_id": "unitedstatespostalservice-a77078", "operator": "United States Postal Service", "operator:short": "USPS", "operator:type": "public", "operator:wikidata": "Q668687", "ref": "1972000020"}, "type": "Feature"}
{"dataset_attributes": {"@spider": "usps_collection_boxes", "spider:collection_time": "2024-01-04T08:25:05.301423"}, "geometry": {"coordinates": [-75.5744135, 39.690535], "type": "Point"}, "id": "b0pvsLLLNqy4cUUHGwTZZWVf4EE=", "properties": {"@spider": "usps_collection_boxes", "addr:city": "NEW CASTLE", "addr:country": "US", "addr:full": "2 SOUTHGATE BLVD", "addr:postcode": "19720", "addr:state": "DE", "amenity": "post_box", "brand": "United States Postal Service", "brand:wikidata": "Q668687", "collection_times": "Mo-Fr 17:00; Sa 13:45", "name": "USPS COLLECTION BOX - BLUE BOX", "note": "ON 12/24 AND 12/31, THIS BOX MAY BE COLLECTED AS EARLY AS 12 NOON.", "nsi_id": "unitedstatespostalservice-a77078", "operator": "United States Postal Service", "operator:short": "USPS", "operator:type": "public", "operator:wikidata": "Q668687", "ref": "1972000022"}, "type": "Feature"}
{"dataset_attributes": {"@spider": "usps_collection_boxes", "spider:collection_time": "2024-01-04T08:25:05.301423"}, "geometry": {"coordinates": [-75.5794266, 39.693826], "type": "Point"}, "id": "8hav_YNRjgWK0ObmWmM34XuasPU=", "properties": {"@spider": "usps_collection_boxes", "addr:city": "NEW CASTLE", "addr:country": "US", "addr:full": "100 MCMULLEN AVE", "addr:postcode": "19720", "addr:state": "DE", "amenity": "post_box", "brand": "United States Postal Service", "brand:wikidata": "Q668687", "collection_times": "Mo-Fr 17:15; Sa 15:30", "name": "USPS COLLECTION BOX - BLUE BOX", "note": "ON 12/24 AND 12/31, THIS BOX MAY BE COLLECTED AS EARLY AS 12 NOON.", "nsi_id": "unitedstatespostalservice-a77078", "operator": "United States Postal Service", "operator:short": "USPS", "operator:type": "public", "operator:wikidata": "Q668687", "ref": "1972000023"}, "type": "Feature"}
{"dataset_attributes": {"@spider": "usps_collection_boxes", "spider:collection_time": "2024-01-04T08:25:05.301423"}, "geometry": {"coordinates": [-75.5824368, 39.689808], "type": "Point"}, "id": "IRFkfvQ70yNZ1s-60aksXwq-rdQ=", "properties": {"@spider": "usps_collection_boxes", "addr:city": "NEW CASTLE", "addr:country": "US", "addr:full": "1401 N DUPONT HWY", "addr:postcode": "19720", "addr:state": "DE", "amenity": "post_box", "brand": "United States Postal Service", "brand:wikidata": "Q668687", "collection_times": "Mo-Sa 13:00", "name": "USPS COLLECTION BOX - BLUE BOX", "note": "ON 12/24 AND 12/31, THIS BOX MAY BE COLLECTED AS EARLY AS 12 NOON.", "nsi_id": "unitedstatespostalservice-a77078", "operator": "United States Postal Service", "operator:short": "USPS", "operator:type": "public", "operator:wikidata": "Q668687", "ref": "1972000025"}, "type": "Feature"}
{"dataset_attributes": {"@spider": "usps_collection_boxes", "spider:collection_time": "2024-01-04T08:25:05.301423"}, "geometry": {"coordinates": [-75.5955487, 39.68908], "type": "Point"}, "id": "L51a5s1OFAMgGZIXNuS7V3Jzi8Y=", "properties": {"@spider": "usps_collection_boxes", "addr:city": "NEW CASTLE", "addr:country": "US", "addr:full": "33 MORRIS RD", "addr:postcode": "19720", "addr:state": "DE", "amenity": "post_box", "brand": "United States Postal Service", "brand:wikidata": "Q668687", "collection_times": "Mo-Sa 13:00", "name": "USPS COLLECTION BOX - BLUE BOX", "note": "ON 12/24 AND 12/31, THIS BOX MAY BE COLLECTED AS EARLY AS 12 NOON.", "nsi_id": "unitedstatespostalservice-a77078", "operator": "United States Postal Service", "operator:short": "USPS", "operator:type": "public", "operator:wikidata": "Q668687", "ref": "1972000026"}, "type": "Feature"}
{"dataset_attributes": {"@spider": "usps_collection_boxes", "spider:collection_time": "2024-01-04T08:25:05.301423"}, "geometry": {"coordinates": [-75.5862095, 39.674938], "type": "Point"}, "id": "8nEFDzr_D_a2qNa_RSSsySH1XKo=", "properties": {"@spider": "usps_collection_boxes", "addr:city": "NEW CASTLE", "addr:country": "US", "addr:full": "450 E BASIN RD", "addr:postcode": "19720", "addr:state": "DE", "amenity": "post_box", "brand": "United States Postal Service", "brand:wikidata": "Q668687", "collection_times": "Mo-Sa 12:00", "name": "USPS COLLECTION BOX - BLUE BOX", "nsi_id": "unitedstatespostalservice-a77078", "operator": "United States Postal Service", "operator:short": "USPS", "operator:type": "public", "operator:wikidata": "Q668687", "ref": "1972000031"}, "type": "Feature"}
{"dataset_attributes": {"@spider": "usps_collection_boxes", "spider:collection_time": "2024-01-04T08:25:05.301423"}, "geometry": {"coordinates": [-75.5875259, 39.67788], "type": "Point"}, "id": "RIV_aVOEJ3_so1tDPSj1gv1ubKE=", "properties": {"@spider": "usps_collection_boxes", "addr:city": "NEW CASTLE", "addr:country": "US", "addr:full": "40 CRIPPEN DR", "addr:postcode": "19720", "addr:state": "DE", "amenity": "post_box", "brand": "United States Postal Service", "brand:wikidata": "Q668687", "collection_times": "Mo-Sa 16:00", "name": "USPS COLLECTION BOX - BLUE BOX", "note": "ON 12/24 AND 12/31, THIS BOX MAY BE COLLECTED AS EARLY AS 12 NOON.", "nsi_id": "unitedstatespostalservice-a77078", "operator": "United States Postal Service", "operator:short": "USPS", "operator:type": "public", "operator:wikidata": "Q668687", "ref": "1972000032"}, "type": "Feature"}
{"dataset_attributes": {"@spider": "usps_collection_boxes", "spider:collection_time": "2024-01-04T08:25:05.301423"}, "geometry": {"coordinates": [-75.6105038, 39.686871], "type": "Point"}, "id": "Iv7euRQsRYhKyK94yCqDIoWRz4o=", "properties": {"@spider": "usps_collection_boxes", "addr:city": "NEW CASTLE", "addr:country": "US", "addr:full": "92 READS WAY", "addr:postcode": "19720", "addr:state": "DE", "amenity": "post_box", "brand": "United States Postal Service", "brand:wikidata": "Q668687", "collection_times": "Mo-Fr 16:45; Sa 14:30", "name": "USPS COLLECTION BOX - BLUE BOX", "note": "ON 12/24 AND 12/31, THIS BOX MAY BE COLLECTED AS EARLY AS 12 NOON.", "nsi_id": "unitedstatespostalservice-a77078", "operator": "United States Postal Service", "operator:short": "USPS", "operator:type": "public", "operator:wikidata": "Q668687", "ref": "1972000034"}, "type": "Feature"}
{"dataset_attributes": {"@spider": "usps_collection_boxes", "spider:collection_time": "2024-01-04T08:25:05.301423"}, "geometry": {"coordinates": [-75.6097274, 39.687397], "type": "Point"}, "id": "jVAOKca1hXPA5vigoIcO3Myc1-I=", "properties": {"@spider": "usps_collection_boxes", "addr:city": "NEW CASTLE", "addr:country": "US", "addr:full": "2 READS WAY", "addr:postcode": "19720", "addr:state": "DE", "amenity": "post_box", "brand": "United States Postal Service", "brand:wikidata": "Q668687", "collection_times": "Mo-Fr 16:45; Sa 14:30", "name": "USPS COLLECTION BOX - BLUE BOX", "note": "ON 12/24 AND 12/31, THIS BOX MAY BE COLLECTED AS EARLY AS 12 NOON.", "nsi_id": "unitedstatespostalservice-a77078", "operator": "United States Postal Service", "operator:short": "USPS", "operator:type": "public", "operator:wikidata": "Q668687", "ref": "1972000035"}, "type": "Feature"}
{"dataset_attributes": {"@spider": "usps_collection_boxes", "spider:collection_time": "2024-01-04T08:25:05.301423"}, "geometry": {"coordinates": [-75.617062, 39.664333], "type": "Point"}, "id": "4U5NCwkHRFerWfVwUKeX4NW2IZM=", "properties": {"@spider": "usps_collection_boxes", "addr:city": "NEW CASTLE", "addr:country": "US", "addr:full": "135 CHRISTIANA RD", "addr:postcode": "19720", "addr:state": "DE", "amenity": "post_box", "brand": "United States Postal Service", "brand:wikidata": "Q668687", "collection_times": "Mo-Fr 15:00; Sa 14:45", "name": "USPS COLLECTION BOX - BLUE BOX", "note": "ON 12/24 AND 12/31, THIS BOX MAY BE COLLECTED AS EARLY AS 12 NOON.", "nsi_id": "unitedstatespostalservice-a77078", "operator": "United States Postal Service", "operator:short": "USPS", "operator:type": "public", "operator:wikidata": "Q668687", "ref": "1972000041"}, "type": "Feature"}
{"dataset_attributes": {"@spider": "usps_collection_boxes", "spider:collection_time": "2024-01-04T08:25:05.301423"}, "geometry": {"coordinates": [-75.6339631, 39.669301], "type": "Point"}, "id": "fGkn7PFIMqsjbvpeqNr81YTtb3s=", "properties": {"@spider": "usps_collection_boxes", "addr:city": "NEW CASTLE", "addr:country": "US", "addr:full": "1 W EDINBURGH DR", "addr:postcode": "19720", "addr:state": "DE", "amenity": "post_box", "brand": "United States Postal Service", "brand:wikidata": "Q668687", "collection_times": "Mo-Sa 13:30", "name": "USPS COLLECTION BOX - BLUE BOX", "note": "ON 12/24 AND 12/31, THIS BOX MAY BE COLLECTED AS EARLY AS 12 NOON.", "nsi_id": "unitedstatespostalservice-a77078", "operator": "United States Postal Service", "operator:short": "USPS", "operator:type": "public", "operator:wikidata": "Q668687", "ref": "1972000043"}, "type": "Feature"}
{"dataset_attributes": {"@spider": "usps_collection_boxes", "spider:collection_time": "2024-01-04T08:25:05.301423"}, "geometry": {"coordinates": [-75.6406346, 39.66209], "type": "Point"}, "id": "gEVjVFN5x_G1VOrBfQm2__Sn0oM=", "properties": {"@spider": "usps_collection_boxes", "addr:city": "NEW CASTLE", "addr:country": "US", "addr:full": "287 CHRISTIANA RD", "addr:postcode": "19720", "addr:state": "DE", "amenity": "post_box", "brand": "United States Postal Service", "brand:wikidata": "Q668687", "collection_times": "Mo-Fr 15:00; Sa 14:45", "name": "USPS COLLECTION BOX - BLUE BOX", "note": "ON 12/24 AND 12/31, THIS BOX MAY BE COLLECTED AS EARLY AS 12 NOON.", "nsi_id": "unitedstatespostalservice-a77078", "operator": "United States Postal Service", "operator:short": "USPS", "operator:type": "public", "operator:wikidata": "Q668687", "ref": "1972000045"}, "type": "Feature"}
{"dataset_attributes": {"@spider": "usps_collection_boxes", "spider:collection_time": "2024-01-04T08:25:05.301423"}, "geometry": {"coordinates": [-75.6443876, 39.661446], "type": "Point"}, "id": "T4P3gY8B_w-O0B0BAwcFeAAMtUE=", "properties": {"@spider": "usps_collection_boxes", "addr:city": "NEW CASTLE", "addr:country": "US", "addr:full": "1 WEDGEFIELD DR", "addr:postcode": "19720", "addr:state": "DE", "amenity": "post_box", "brand": "United States Postal Service", "brand:wikidata": "Q668687", "collection_times": "Mo-Fr 15:15; Sa 14:45", "name": "USPS COLLECTION BOX - BLUE BOX", "note": "ON 12/24 AND 12/31, THIS BOX MAY BE COLLECTED AS EARLY AS 12 NOON.", "nsi_id": "unitedstatespostalservice-a77078", "operator": "United States Postal Service", "operator:short": "USPS", "operator:type": "public", "operator:wikidata": "Q668687", "ref": "1972000046"}, "type": "Feature"}
{"dataset_attributes": {"@spider": "usps_collection_boxes", "spider:collection_time": "2024-01-04T08:25:05.301423"}, "geometry": {"coordinates": [-75.6242937, 39.643313], "type": "Point"}, "id": "jnP5QpaBtPujz2a9OjEHm5h16Lg=", "properties": {"@spider": "usps_collection_boxes", "addr:city": "NEW CASTLE", "addr:country": "US", "addr:full": "100 SCHAFER BLVD", "addr:postcode": "19720", "addr:state": "DE", "amenity": "post_box", "brand": "United States Postal Service", "brand:wikidata": "Q668687", "collection_times": "Mo-Fr 15:15; Sa 15:00", "name": "USPS COLLECTION BOX - BLUE BOX", "note": "ON 12/24 AND 12/31, THIS BOX MAY BE COLLECTED AS EARLY AS 12 NOON.", "nsi_id": "unitedstatespostalservice-a77078", "operator": "United States Postal Service", "operator:short": "USPS", "operator:type": "public", "operator:wikidata": "Q668687", "ref": "1972000050"}, "type": "Feature"}
{"dataset_attributes": {"@spider": "usps_collection_boxes", "spider:collection_time": "2024-01-04T08:25:05.301423"}, "geometry": {"coordinates": [-75.5879673, 39.662683], "type": "Point"}, "id": "GQbSHDdPFhnNd1nH1Gp9AuGeEIk=", "properties": {"@spider": "usps_collection_boxes", "addr:city": "NEW CASTLE", "addr:country": "US", "addr:full": "101 JOHNSON WAY", "addr:postcode": "19720", "addr:state": "DE", "amenity": "post_box", "brand": "United States Postal Service", "brand:wikidata": "Q668687", "collection_times": "Mo-Fr 17:30; Sa 15:30", "name": "USPS COLLECTION BOX - BLUE BOX", "note": "ON 12/24 AND 12/31, THIS BOX MAY BE COLLECTED AS EARLY AS 12 NOON.", "nsi_id": "unitedstatespostalservice-a77078", "operator": "United States Postal Service", "operator:short": "USPS", "operator:type": "public", "operator:wikidata": "Q668687", "ref": "1972000053"}, "type": "Feature"}
{"dataset_attributes": {"@spider": "usps_collection_boxes", "spider:collection_time": "2024-01-04T08:25:05.301423"}, "geometry": {"coordinates": [-75.565764, 39.661375], "type": "Point"}, "id": "-4XEFz9-LzIVvg4Wj8Y6asmQ3G0=", "properties": {"@spider": "usps_collection_boxes", "addr:city": "NEW CASTLE", "addr:country": "US", "addr:full": "501 DELAWARE ST", "addr:postcode": "19720", "addr:state": "DE", "amenity": "post_box", "brand": "United States Postal Service", "brand:wikidata": "Q668687", "collection_times": "Mo-Fr 17:15; Sa 15:15", "name": "USPS COLLECTION BOX - BLUE BOX", "note": "ON 12/24 AND 12/31, THIS BOX MAY BE COLLECTED AS EARLY AS 12 NOON.", "nsi_id": "unitedstatespostalservice-a77078", "operator": "United States Postal Service", "operator:short": "USPS", "operator:type": "public", "operator:wikidata": "Q668687", "ref": "1972000054"}, "type": "Feature"}
{"dataset_attributes": {"@spider": "usps_collection_boxes", "spider:collection_time": "2024-01-04T08:25:05.301423"}, "geometry": {"coordinates": [-75.6071907, 39.689389], "type": "Point"}, "id": "I7noWpruEuDPaR2d2h2ozy_1eVg=", "properties": {"@spider": "usps_collection_boxes", "addr:city": "NEW CASTLE", "addr:country": "US", "addr:full": "100 W COMMONS BLVD", "addr:postcode": "19720", "addr:state": "DE", "amenity": "post_box", "brand": "United States Postal Service", "brand:wikidata": "Q668687", "collection_times": "Mo-Fr 16:45; Sa 14:15", "name": "USPS COLLECTION BOX - BLUE BOX", "note": "ON 12/24 AND 12/31, THIS BOX MAY BE COLLECTED AS EARLY AS 12 NOON.", "nsi_id": "unitedstatespostalservice-a77078", "operator": "United States Postal Service", "operator:short": "USPS", "operator:type": "public", "operator:wikidata": "Q668687", "ref": "1972000060"}, "type": "Feature"}
{"dataset_attributes": {"@spider": "usps_collection_boxes", "spider:collection_time": "2024-01-04T08:25:05.301423"}, "geometry": {"coordinates": [-75.5664520411, 39.6794359804], "type": "Point"}, "id": "nJMZXE7VRLQcNVZ73KAAQk3Z0-g=", "properties": {"@spider": "usps_collection_boxes", "addr:city": "NEW CASTLE", "addr:country": "US", "addr:full": "2 CONSTITUTION BLVD", "addr:postcode": "19720", "addr:state": "DE", "amenity": "post_box", "brand": "United States Postal Service", "brand:wikidata": "Q668687", "collection_times": "Mo-Sa 13:45", "name": "USPS COLLECTION BOX - BLUE BOX", "note": "ON 12/24 AND 12/31, THIS BOX MAY BE COLLECTED AS EARLY AS 12 NOON.", "nsi_id": "unitedstatespostalservice-a77078", "operator": "United States Postal Service", "operator:short": "USPS", "operator:type": "public", "operator:wikidata": "Q668687", "ref": "1972000061"}, "type": "Feature"}
{"dataset_attributes": {"@spider": "usps_collection_boxes", "spider:collection_time": "2024-01-04T08:25:05.301423"}, "geometry": {"coordinates": [-75.6300072, 39.664184], "type": "Point"}, "id": "XrlS3lPkvbEgq89HJMZQtIFCJXo=", "properties": {"@spider": "usps_collection_boxes", "addr:city": "NEW CASTLE", "addr:country": "US", "addr:full": "65 E EDINBURGH DR", "addr:postcode": "19720", "addr:state": "DE", "amenity": "post_box", "brand": "United States Postal Service", "brand:wikidata": "Q668687", "collection_times": "Mo-Fr 15:00; Sa 14:30", "name": "USPS COLLECTION BOX - BLUE BOX", "note": "ON 12/24 AND 12/31, THIS BOX MAY BE COLLECTED AS EARLY AS 12 NOON.", "nsi_id": "unitedstatespostalservice-a77078", "operator": "United States Postal Service", "operator:short": "USPS", "operator:type": "public", "operator:wikidata": "Q668687", "ref": "1972000064"}, "type": "Feature"}
{"dataset_attributes": {"@spider": "usps_collection_boxes", "spider:collection_time": "2024-01-04T08:25:05.301423"}, "geometry": {"coordinates": [-75.5674564, 39.685602], "type": "Point"}, "id": "RGQqncjDDESXyJHJ9_JVbVFCEdU=", "properties": {"@spider": "usps_collection_boxes", "addr:city": "NEW CASTLE", "addr:country": "US", "addr:full": "1 MIDFIELD RD", "addr:postcode": "19720", "addr:state": "DE", "amenity": "post_box", "brand": "United States Postal Service", "brand:wikidata": "Q668687", "collection_times": "Mo-Sa 13:30", "name": "USPS COLLECTION BOX - BLUE BOX", "note": "ON 12/24 AND 12/31, THIS BOX MAY BE COLLECTED AS EARLY AS 12 NOON.", "nsi_id": "unitedstatespostalservice-a77078", "operator": "United States Postal Service", "operator:short": "USPS", "operator:type": "public", "operator:wikidata": "Q668687", "ref": "1972000065"}, "type": "Feature"}
{"dataset_attributes": {"@spider": "usps_collection_boxes", "spider:collection_time": "2024-01-04T08:25:05.301423"}, "geometry": {"coordinates": [-75.5794213, 39.693834], "type": "Point"}, "id": "JRT7XEnZN0UKjYkMTKUNWwcawBM=", "properties": {"@spider": "usps_collection_boxes", "addr:city": "NEW CASTLE", "addr:country": "US", "addr:full": "100 MCMULLEN AVE", "addr:postcode": "19720", "addr:state": "DE", "amenity": "post_box", "brand": "United States Postal Service", "brand:wikidata": "Q668687", "collection_times": "Mo-Fr 17:15; Sa 15:30", "name": "USPS COLLECTION BOX - PO LOBBY", "note": "ON 12/24 AND 12/31, THIS BOX MAY BE COLLECTED AS EARLY AS 12 NOON.", "nsi_id": "unitedstatespostalservice-a77078", "operator": "United States Postal Service", "operator:short": "USPS", "operator:type": "public", "operator:wikidata": "Q668687", "ref": "1972000066"}, "type": "Feature"}
{"dataset_attributes": {"@spider": "usps_collection_boxes", "spider:collection_time": "2024-01-04T08:25:05.301423"}, "geometry": {"coordinates": [-75.565922, 39.661465], "type": "Point"}, "id": "uWvnnCvcaAnnunNHouc3AXBGjEc=", "properties": {"@spider": "usps_collection_boxes", "addr:city": "NEW CASTLE", "addr:country": "US", "addr:full": "501 DELAWARE ST", "addr:postcode": "19720", "addr:state": "DE", "amenity": "post_box", "brand": "United States Postal Service", "brand:wikidata": "Q668687", "collection_times": "Mo-Fr 17:15; Sa 15:15", "name": "USPS COLLECTION BOX - PO LOBBY", "note": "ON 12/24 AND 12/31, THIS BOX MAY BE COLLECTED AS EARLY AS 12 NOON.", "nsi_id": "unitedstatespostalservice-a77078", "operator": "United States Postal Service", "operator:short": "USPS", "operator:type": "public", "operator:wikidata": "Q668687", "ref": "1972000067"}, "type": "Feature"}
{"dataset_attributes": {"@spider": "usps_collection_boxes", "spider:collection_time": "2024-01-04T08:25:05.301423"}, "geometry": {"coordinates": [-75.579559279, 39.6937232523], "type": "Point"}, "id": "cUcNhWZwVJWnFuVD3Vj7fQuPUIM=", "properties": {"@spider": "usps_collection_boxes", "addr:city": "NEW CASTLE", "addr:country": "US", "addr:full": "100 MCMULLEN AVE", "addr:postcode": "19720", "addr:state": "DE", "amenity": "post_box", "brand": "United States Postal Service", "brand:wikidata": "Q668687", "collection_times": "Mo-Fr 17:00; Sa 11:30", "name": "USPS COLLECTION BOX - PO LOBBY", "note": "ON 12/24 AND 12/31, THIS BOX MAY BE COLLECTED AS EARLY AS 12 NOON.", "nsi_id": "unitedstatespostalservice-a77078", "operator": "United States Postal Service", "operator:short": "USPS", "operator:type": "public", "operator:wikidata": "Q668687", "ref": "1972000084"}, "type": "Feature"}
{"dataset_attributes": {"@spider": "usps_collection_boxes", "spider:collection_time": "2024-01-04T08:25:05.301423"}, "geometry": {"coordinates": [-75.5660143772, 39.661462466], "type": "Point"}, "id": "PDhteUMjkDc7dNygSX-Tr4lTOy4=", "properties": {"@spider": "usps_collection_boxes", "addr:city": "NEW CASTLE", "addr:country": "US", "addr:full": "501 DELAWARE ST", "addr:postcode": "19720", "addr:state": "DE", "amenity": "post_box", "brand": "United States Postal Service", "brand:wikidata": "Q668687", "collection_times": "Mo-Fr 17:00; Sa 13:30", "name": "USPS COLLECTION BOX - PO LOBBY", "note": "ON 12/24 AND 12/31, THIS BOX MAY BE COLLECTED AS EARLY AS 12 NOON.", "nsi_id": "unitedstatespostalservice-a77078", "operator": "United States Postal Service", "operator:short": "USPS", "operator:type": "public", "operator:wikidata": "Q668687", "ref": "1972000085"}, "type": "Feature"}
{"dataset_attributes": {"@spider": "usps_collection_boxes", "spider:collection_time": "2024-01-04T08:25:05.301423"}, "geometry": {"coordinates": [-75.598096671, 39.660516723], "type": "Point"}, "id": "Eu0DIppeRi2ff1Zoz77iRFO8MG8=", "properties": {"@spider": "usps_collection_boxes", "addr:city": "NEW CASTLE", "addr:country": "US", "addr:full": "147 QUIGLEY BLVD", "addr:postcode": "19720", "addr:state": "DE", "amenity": "post_box", "brand": "United States Postal Service", "brand:wikidata": "Q668687", "collection_times": "Mo-Fr 18:45; Sa 15:45", "name": "USPS COLLECTION BOX - PO LOBBY", "note": "ON 12/24 AND 12/31, THIS BOX MAY BE COLLECTED AS EARLY AS 12 NOON.", "nsi_id": "unitedstatespostalservice-a77078", "operator": "United States Postal Service", "operator:short": "USPS", "operator:type": "public", "operator:wikidata": "Q668687", "ref": "1972000086"}, "type": "Feature"}
{"dataset_attributes": {"@spider": "usps_collection_boxes", "spider:collection_time": "2024-01-04T08:25:05.301423"}, "geometry": {"coordinates": [-75.598096671, 39.660516723], "type": "Point"}, "id": "SfX_D8-IvRb2S1-unYoaxAYbKzc=", "properties": {"@spider": "usps_collection_boxes", "addr:city": "NEW CASTLE", "addr:country": "US", "addr:full": "147 QUIGLEY BLVD", "addr:postcode": "19720", "addr:state": "DE", "amenity": "post_box", "brand": "United States Postal Service", "brand:wikidata": "Q668687", "collection_times": "Mo-Fr 20:00; Sa 18:00", "name": "USPS COLLECTION BOX - EXPRESS", "note": "ON 12/24 AND 12/31, THIS BOX MAY BE COLLECTED AS EARLY AS 12 NOON.", "nsi_id": "unitedstatespostalservice-a77078", "operator": "United States Postal Service", "operator:short": "USPS", "operator:type": "public", "operator:wikidata": "Q668687", "ref": "1972000087"}, "type": "Feature"}
{"dataset_attributes": {"@spider": "usps_collection_boxes", "spider:collection_time": "2024-01-04T08:25:05.301423"}, "geometry": {"coordinates": [-75.598096671, 39.660516723], "type": "Point"}, "id": "PkYKTLAk-OxGOi1SIRvSwzi1_Po=", "properties": {"@spider": "usps_collection_boxes", "addr:city": "NEW CASTLE", "addr:country": "US", "addr:full": "147 QUIGLEY BLVD", "addr:postcode": "19720", "addr:state": "DE", "amenity": "post_box", "brand": "United States Postal Service", "brand:wikidata": "Q668687", "collection_times": "Mo-Fr 20:00; Sa 18:00", "name": "USPS COLLECTION BOX - BLUE BOX", "note": "ON 12/24 AND 12/31, THIS BOX MAY BE COLLECTED AS EARLY AS 12 NOON.", "nsi_id": "unitedstatespostalservice-a77078", "operator": "United States Postal Service", "operator:short": "USPS", "operator:type": "public", "operator:wikidata": "Q668687", "ref": "1972000088"}, "type": "Feature"}
{"dataset_attributes": {"@spider": "usps_collection_boxes", "spider:collection_time": "2024-01-04T08:25:05.301423"}, "geometry": {"coordinates": [-75.598096671, 39.660516723], "type": "Point"}, "id": "DyNPnv9Y8-qYJ1NB-3eYUfXbhhs=", "properties": {"@spider": "usps_collection_boxes", "addr:city": "NEW CASTLE", "addr:country": "US", "addr:full": "147 QUIGLEY BLVD", "addr:postcode": "19720", "addr:state": "DE", "amenity": "post_box", "brand": "United States Postal Service", "brand:wikidata": "Q668687", "collection_times": "Mo-Fr 20:00; Sa 18:00", "name": "USPS COLLECTION BOX - PO LOBBY", "note": "ON 12/24 AND 12/31, THIS BOX MAY BE COLLECTED AS EARLY AS 12 NOON.", "nsi_id": "unitedstatespostalservice-a77078", "operator": "United States Postal Service", "operator:short": "USPS", "operator:type": "public", "operator:wikidata": "Q668687", "ref": "1972000089"}, "type": "Feature"}
{"dataset_attributes": {"@spider": "usps_collection_boxes", "spider:collection_time": "2024-01-04T08:25:05.301423"}, "geometry": {"coordinates": [-75.598096671, 39.660516723], "type": "Point"}, "id": "QWW94i62QC-syCPJm-fETGxDd4U=", "properties": {"@spider": "usps_collection_boxes", "addr:city": "NEW CASTLE", "addr:country": "US", "addr:full": "147 QUIGLEY BLVD", "addr:postcode": "19720", "addr:state": "DE", "amenity": "post_box", "brand": "United States Postal Service", "brand:wikidata": "Q668687", "collection_times": "Mo-Fr 20:00; Sa 18:00", "name": "USPS COLLECTION BOX - BLUE BOX", "note": "ON 12/24 AND 12/31, THIS BOX MAY BE COLLECTED AS EARLY AS 12 NOON.", "nsi_id": "unitedstatespostalservice-a77078", "operator": "United States Postal Service", "operator:short": "USPS", "operator:type": "public", "operator:wikidata": "Q668687", "ref": "1972000090"}, "type": "Feature"}
{"dataset_attributes": {"@spider": "usps_collection_boxes", "spider:collection_time": "2024-01-04T08:25:05.301423"}, "geometry": {"coordinates": [-75.598096671, 39.660516723], "type": "Point"}, "id": "irvAyltmY4yECeGfl_2D6sgnDbk=", "properties": {"@spider": "usps_collection_boxes", "addr:city": "NEW CASTLE", "addr:country": "US", "addr:full": "147 QUIGLEY BLVD", "addr:postcode": "19720", "addr:state": "DE", "amenity": "post_box", "brand": "United States Postal Service", "brand:wikidata": "Q668687", "collection_times": "Mo-Fr 20:00; Sa 18:00", "name": "USPS COLLECTION BOX - APC", "note": "ON 12/24 AND 12/31, THIS BOX MAY BE COLLECTED AS EARLY AS 12 NOON.", "nsi_id": "unitedstatespostalservice-a77078", "operator": "United States Postal Service", "operator:short": "USPS", "operator:type": "public", "operator:wikidata": "Q668687", "ref": "1972000091"}, "type": "Feature"}
{"dataset_attributes": {"@spider": "usps_collection_boxes", "spider:collection_time": "2024-01-04T08:25:05.301423"}, "geometry": {"coordinates": [-75.658342, 39.455071], "type": "Point"}, "id": "1HUoSRCf6KWI5xjn_xbCU_hMzxs=", "properties": {"@spider": "usps_collection_boxes", "addr:city": "ODESSA", "addr:country": "US", "addr:full": "312 MAIN ST", "addr:postcode": "19730", "addr:state": "DE", "amenity": "post_box", "brand": "United States Postal Service", "brand:wikidata": "Q668687", "collection_times": "Mo-Fr 16:30; Sa 12:00", "name": "USPS COLLECTION BOX - BLUE BOX", "note": "ON 12/24 AND 12/31, THIS BOX MAY BE COLLECTED AS EARLY AS 12 NOON.", "nsi_id": "unitedstatespostalservice-a77078", "operator": "United States Postal Service", "operator:short": "USPS", "operator:type": "public", "operator:wikidata": "Q668687", "ref": "1973000001"}, "type": "Feature"}
{"dataset_attributes": {"@spider": "usps_collection_boxes", "spider:collection_time": "2024-01-04T08:25:05.301423"}, "geometry": {"coordinates": [-75.658251, 39.455051], "type": "Point"}, "id": "VmS53Rv6QjqxUR9X4UGTDym5w-c=", "properties": {"@spider": "usps_collection_boxes", "addr:city": "ODESSA", "addr:country": "US", "addr:full": "312 MAIN ST", "addr:postcode": "19730", "addr:state": "DE", "amenity": "post_box", "brand": "United States Postal Service", "brand:wikidata": "Q668687", "collection_times": "Mo-Fr 16:30; Sa 12:00", "name": "USPS COLLECTION BOX - PO LOBBY", "note": "ON 12/24 AND 12/31, THIS BOX MAY BE COLLECTED AS EARLY AS 12 NOON.", "nsi_id": "unitedstatespostalservice-a77078", "operator": "United States Postal Service", "operator:short": "USPS", "operator:type": "public", "operator:wikidata": "Q668687", "ref": "1973000002"}, "type": "Feature"}
{"dataset_attributes": {"@spider": "usps_collection_boxes", "spider:collection_time": "2024-01-04T08:25:05.301423"}, "geometry": {"coordinates": [-75.659056782, 39.455487966], "type": "Point"}, "id": "RBcMydYxnlzIb9j3yRH4ExDzcAo=", "properties": {"@spider": "usps_collection_boxes", "addr:city": "ODESSA", "addr:country": "US", "addr:full": "312 MAIN ST", "addr:postcode": "19730", "addr:state": "DE", "amenity": "post_box", "brand": "United States Postal Service", "brand:wikidata": "Q668687", "collection_times": "Mo-Fr 16:30; Sa 12:00", "name": "USPS COLLECTION BOX - PO LOBBY", "note": "ON 12/24 AND 12/31, THIS BOX MAY BE COLLECTED AS EARLY AS 12 NOON.", "nsi_id": "unitedstatespostalservice-a77078", "operator": "United States Postal Service", "operator:short": "USPS", "operator:type": "public", "operator:wikidata": "Q668687", "ref": "1973000005"}, "type": "Feature"}
{"dataset_attributes": {"@spider": "usps_collection_boxes", "spider:collection_time": "2024-01-04T08:25:05.301423"}, "geometry": {"coordinates": [-75.576685, 39.516645], "type": "Point"}, "id": "UwR1BoQVwarSKt9x_dZHGVOv318=", "properties": {"@spider": "usps_collection_boxes", "addr:city": "PORT PENN", "addr:country": "US", "addr:full": "3 S CONGRESS ST", "addr:postcode": "19731", "addr:state": "DE", "amenity": "post_box", "brand": "United States Postal Service", "brand:wikidata": "Q668687", "collection_times": "Mo-Fr 16:45; Sa 11:45", "name": "USPS COLLECTION BOX - BLUE BOX", "note": "ON 12/24 AND 12/31, THIS BOX MAY BE COLLECTED AS EARLY AS 12 NOON.", "nsi_id": "unitedstatespostalservice-a77078", "operator": "United States Postal Service", "operator:short": "USPS", "operator:type": "public", "operator:wikidata": "Q668687", "ref": "1973100000"}, "type": "Feature"}
{"dataset_attributes": {"@spider": "usps_collection_boxes", "spider:collection_time": "2024-01-04T08:25:05.301423"}, "geometry": {"coordinates": [-75.576626, 39.516717], "type": "Point"}, "id": "uQ0OZ8hcOznvc7ZxqWcmWWpu_Sc=", "properties": {"@spider": "usps_collection_boxes", "addr:city": "PORT PENN", "addr:country": "US", "addr:full": "3 S CONGRESS ST", "addr:postcode": "19731", "addr:state": "DE", "amenity": "post_box", "brand": "United States Postal Service", "brand:wikidata": "Q668687", "collection_times": "Mo-Fr 16:45; Sa 11:45", "name": "USPS COLLECTION BOX - PO LOBBY", "note": "ON 12/24 AND 12/31, THIS BOX MAY BE COLLECTED AS EARLY AS 12 NOON.", "nsi_id": "unitedstatespostalservice-a77078", "operator": "United States Postal Service", "operator:short": "USPS", "operator:type": "public", "operator:wikidata": "Q668687", "ref": "1973100001"}, "type": "Feature"}
{"dataset_attributes": {"@spider": "usps_collection_boxes", "spider:collection_time": "2024-01-04T08:25:05.301423"}, "geometry": {"coordinates": [-75.576825029, 39.516195321], "type": "Point"}, "id": "DiQ1UreKPUj1gwxq-1ST0WRGJwc=", "properties": {"@spider": "usps_collection_boxes", "addr:city": "PORT PENN", "addr:country": "US", "addr:full": "3 S CONGRESS ST", "addr:postcode": "19731", "addr:state": "DE", "amenity": "post_box", "brand": "United States Postal Service", "brand:wikidata": "Q668687", "collection_times": "Mo-Fr 12:30; Sa 11:30", "name": "USPS COLLECTION BOX - PO LOBBY", "note": "ON 12/24 AND 12/31, THIS BOX MAY BE COLLECTED AS EARLY AS 12 NOON.", "nsi_id": "unitedstatespostalservice-a77078", "operator": "United States Postal Service", "operator:short": "USPS", "operator:type": "public", "operator:wikidata": "Q668687", "ref": "1973100004"}, "type": "Feature"}
{"dataset_attributes": {"@spider": "usps_collection_boxes", "spider:collection_time": "2024-01-04T08:25:05.301423"}, "geometry": {"coordinates": [-75.572908, 39.793425], "type": "Point"}, "id": "HNZ-kU-77K5tv7CrDuFa7hEXW6Q=", "properties": {"@spider": "usps_collection_boxes", "addr:city": "ROCKLAND", "addr:country": "US", "addr:full": "700 ROCKLAND RD", "addr:postcode": "19732", "addr:state": "DE", "amenity": "post_box", "brand": "United States Postal Service", "brand:wikidata": "Q668687", "collection_times": "Mo-Fr 16:00; Sa 11:00", "name": "USPS COLLECTION BOX - BLUE BOX", "note": "ON 12/24 AND 12/31, THIS BOX MAY BE COLLECTED AS EARLY AS 12 NOON.", "nsi_id": "unitedstatespostalservice-a77078", "operator": "United States Postal Service", "operator:short": "USPS", "operator:type": "public", "operator:wikidata": "Q668687", "ref": "1973200001"}, "type": "Feature"}
{"dataset_attributes": {"@spider": "usps_collection_boxes", "spider:collection_time": "2024-01-04T08:25:05.301423"}, "geometry": {"coordinates": [-75.572899, 39.793331], "type": "Point"}, "id": "wNodx4-kUq9tWRQv3VRZoMMS0V8=", "properties": {"@spider": "usps_collection_boxes", "addr:city": "ROCKLAND", "addr:country": "US", "addr:full": "700 ROCKLAND RD", "addr:postcode": "19732", "addr:state": "DE", "amenity": "post_box", "brand": "United States Postal Service", "brand:wikidata": "Q668687", "collection_times": "Mo-Fr 16:00; Sa 11:00", "name": "USPS COLLECTION BOX - PO LOBBY", "note": "ON 12/24 AND 12/31, THIS BOX MAY BE COLLECTED AS EARLY AS 12 NOON.", "nsi_id": "unitedstatespostalservice-a77078", "operator": "United States Postal Service", "operator:short": "USPS", "operator:type": "public", "operator:wikidata": "Q668687", "ref": "1973200002"}, "type": "Feature"}
{"dataset_attributes": {"@spider": "usps_collection_boxes", "spider:collection_time": "2024-01-04T08:25:05.301423"}, "geometry": {"coordinates": [-75.572746602, 39.794012475], "type": "Point"}, "id": "eRQZlbroR440XL_kuoWqfNfpyLs=", "properties": {"@spider": "usps_collection_boxes", "addr:city": "ROCKLAND", "addr:country": "US", "addr:full": "700 ROCKLAND RD", "addr:postcode": "19732", "addr:state": "DE", "amenity": "post_box", "brand": "United States Postal Service", "brand:wikidata": "Q668687", "collection_times": "Mo-Fr 15:45; Sa 10:45", "name": "USPS COLLECTION BOX - PO LOBBY", "note": "ON 12/24 AND 12/31, THIS BOX MAY BE COLLECTED AS EARLY AS 12 NOON.", "nsi_id": "unitedstatespostalservice-a77078", "operator": "United States Postal Service", "operator:short": "USPS", "operator:type": "public", "operator:wikidata": "Q668687", "ref": "1973200005"}, "type": "Feature"}
{"dataset_attributes": {"@spider": "usps_collection_boxes", "spider:collection_time": "2024-01-04T08:25:05.301423"}, "geometry": {"coordinates": [-75.650735, 39.556716], "type": "Point"}, "id": "InyZ9PKamhaQhKOIlHBKtarvuao=", "properties": {"@spider": "usps_collection_boxes", "addr:city": "SAINT GEORGES", "addr:country": "US", "addr:full": "201 BROAD ST", "addr:postcode": "19733", "addr:state": "DE", "amenity": "post_box", "brand": "United States Postal Service", "brand:wikidata": "Q668687", "collection_times": "Mo-Fr 16:30; Sa 11:00", "name": "USPS COLLECTION BOX - BLUE BOX", "note": "ON 12/24 AND 12/31, THIS BOX MAY BE COLLECTED AS EARLY AS 12 NOON.", "nsi_id": "unitedstatespostalservice-a77078", "operator": "United States Postal Service", "operator:short": "USPS", "operator:type": "public", "operator:wikidata": "Q668687", "ref": "1973300001"}, "type": "Feature"}
{"dataset_attributes": {"@spider": "usps_collection_boxes", "spider:collection_time": "2024-01-04T08:25:05.301423"}, "geometry": {"coordinates": [-75.65068, 39.556632], "type": "Point"}, "id": "i9htquTVDxGNXoBoTjdYA8dtuS0=", "properties": {"@spider": "usps_collection_boxes", "addr:city": "SAINT GEORGES", "addr:country": "US", "addr:full": "201 BROAD ST", "addr:postcode": "19733", "addr:state": "DE", "amenity": "post_box", "brand": "United States Postal Service", "brand:wikidata": "Q668687", "collection_times": "Mo-Fr 16:30; Sa 11:00", "name": "USPS COLLECTION BOX - PO LOBBY", "note": "ON 12/24 AND 12/31, THIS BOX MAY BE COLLECTED AS EARLY AS 12 NOON.", "nsi_id": "unitedstatespostalservice-a77078", "operator": "United States Postal Service", "operator:short": "USPS", "operator:type": "public", "operator:wikidata": "Q668687", "ref": "1973300002"}, "type": "Feature"}
{"dataset_attributes": {"@spider": "usps_collection_boxes", "spider:collection_time": "2024-01-04T08:25:05.301423"}, "geometry": {"coordinates": [-75.650882136, 39.556833379], "type": "Point"}, "id": "Q7ShQ_qximQ8F7C-aEHf11rsR0A=", "properties": {"@spider": "usps_collection_boxes", "addr:city": "SAINT GEORGES", "addr:country": "US", "addr:full": "201 BROAD ST", "addr:postcode": "19733", "addr:state": "DE", "amenity": "post_box", "brand": "United States Postal Service", "brand:wikidata": "Q668687", "collection_times": "Mo-Fr 16:45; Sa 11:30", "name": "USPS COLLECTION BOX - PO LOBBY", "note": "ON 12/24 AND 12/31, THIS BOX MAY BE COLLECTED AS EARLY AS 12 NOON.", "nsi_id": "unitedstatespostalservice-a77078", "operator": "United States Postal Service", "operator:short": "USPS", "operator:type": "public", "operator:wikidata": "Q668687", "ref": "1973300005"}, "type": "Feature"}
{"dataset_attributes": {"@spider": "usps_collection_boxes", "spider:collection_time": "2024-01-04T08:25:05.301423"}, "geometry": {"coordinates": [-75.69392, 39.394334], "type": "Point"}, "id": "L9muB-q7OTNYHzhaLrkt5mcTK5k=", "properties": {"@spider": "usps_collection_boxes", "addr:city": "TOWNSEND", "addr:country": "US", "addr:full": "400 MAIN ST", "addr:postcode": "19734", "addr:state": "DE", "amenity": "post_box", "brand": "United States Postal Service", "brand:wikidata": "Q668687", "collection_times": "Mo-Fr 17:00; Sa 11:30", "name": "USPS COLLECTION BOX - BLUE BOX", "note": "ON 12/24 AND 12/31, THIS BOX MAY BE COLLECTED AS EARLY AS 12 NOON.", "nsi_id": "unitedstatespostalservice-a77078", "operator": "United States Postal Service", "operator:short": "USPS", "operator:type": "public", "operator:wikidata": "Q668687", "ref": "1973400001"}, "type": "Feature"}
{"dataset_attributes": {"@spider": "usps_collection_boxes", "spider:collection_time": "2024-01-04T08:25:05.301423"}, "geometry": {"coordinates": [-75.693939, 39.394357], "type": "Point"}, "id": "lqsqoUPbl93VgM644I6Hp1KwQD0=", "properties": {"@spider": "usps_collection_boxes", "addr:city": "TOWNSEND", "addr:country": "US", "addr:full": "400 MAIN ST", "addr:postcode": "19734", "addr:state": "DE", "amenity": "post_box", "brand": "United States Postal Service", "brand:wikidata": "Q668687", "collection_times": "Mo-Fr 17:00; Sa 11:30", "name": "USPS COLLECTION BOX - PO LOBBY", "note": "ON 12/24 AND 12/31, THIS BOX MAY BE COLLECTED AS EARLY AS 12 NOON.", "nsi_id": "unitedstatespostalservice-a77078", "operator": "United States Postal Service", "operator:short": "USPS", "operator:type": "public", "operator:wikidata": "Q668687", "ref": "1973400003"}, "type": "Feature"}
{"dataset_attributes": {"@spider": "usps_collection_boxes", "spider:collection_time": "2024-01-04T08:25:05.301423"}, "geometry": {"coordinates": [-75.6938801751, 39.3943473724], "type": "Point"}, "id": "algHgmEYfDcpH2zy5wSuABXzmeA=", "properties": {"@spider": "usps_collection_boxes", "addr:city": "TOWNSEND", "addr:country": "US", "addr:full": "400 MAIN ST", "addr:postcode": "19734", "addr:state": "DE", "amenity": "post_box", "brand": "United States Postal Service", "brand:wikidata": "Q668687", "collection_times": "Mo-Fr 17:00; Sa 11:30", "name": "USPS COLLECTION BOX - PO LOBBY", "note": "ON 12/24 AND 12/31, THIS BOX MAY BE COLLECTED AS EARLY AS 12 NOON.", "nsi_id": "unitedstatespostalservice-a77078", "operator": "United States Postal Service", "operator:short": "USPS", "operator:type": "public", "operator:wikidata": "Q668687", "ref": "1973400006"}, "type": "Feature"}
{"dataset_attributes": {"@spider": "usps_collection_boxes", "spider:collection_time": "2024-01-04T08:25:05.301423"}, "geometry": {"coordinates": [-75.6758407983, 39.8067825549], "type": "Point"}, "id": "tXE8CZXzYQaPiXlHApaCPD9osxA=", "properties": {"@spider": "usps_collection_boxes", "addr:city": "YORKLYN", "addr:country": "US", "addr:full": "1149 YORKLYN RD", "addr:postcode": "19736", "addr:state": "DE", "amenity": "post_box", "brand": "United States Postal Service", "brand:wikidata": "Q668687", "collection_times": "Mo-Fr 16:30; Sa 11:00", "name": "USPS COLLECTION BOX - BLUE BOX", "note": "ON 12/24 AND 12/31, THIS BOX MAY BE COLLECTED AS EARLY AS 12 NOON.", "nsi_id": "unitedstatespostalservice-a77078", "operator": "United States Postal Service", "operator:short": "USPS", "operator:type": "public", "operator:wikidata": "Q668687", "ref": "1973600001"}, "type": "Feature"}
{"dataset_attributes": {"@spider": "usps_collection_boxes", "spider:collection_time": "2024-01-04T08:25:05.301423"}, "geometry": {"coordinates": [-75.6758407983, 39.8067825549], "type": "Point"}, "id": "jhkhrJJCYaSfka5wvxiLDbQ4FEo=", "properties": {"@spider": "usps_collection_boxes", "addr:city": "YORKLYN", "addr:country": "US", "addr:full": "1149 YORKLYN RD", "addr:postcode": "19736", "addr:state": "DE", "amenity": "post_box", "brand": "United States Postal Service", "brand:wikidata": "Q668687", "collection_times": "Mo-Fr 16:30; Sa 11:00", "name": "USPS COLLECTION BOX - PO LOBBY", "note": "ON 12/24 AND 12/31, THIS BOX MAY BE COLLECTED AS EARLY AS 12 NOON.", "nsi_id": "unitedstatespostalservice-a77078", "operator": "United States Postal Service", "operator:short": "USPS", "operator:type": "public", "operator:wikidata": "Q668687", "ref": "1973600002"}, "type": "Feature"}
{"dataset_attributes": {"@spider": "usps_collection_boxes", "spider:collection_time": "2024-01-04T08:25:05.301423"}, "geometry": {"coordinates": [-75.6758407983, 39.8067825549], "type": "Point"}, "id": "QhYMS8ejQZS5hW6TVxDr9RXNwfM=", "properties": {"@spider": "usps_collection_boxes", "addr:city": "YORKLYN", "addr:country": "US", "addr:full": "1149 YORKLYN RD", "addr:postcode": "19736", "addr:state": "DE", "amenity": "post_box", "brand": "United States Postal Service", "brand:wikidata": "Q668687", "collection_times": "Mo-Fr 16:30; Sa 12:00", "name": "USPS COLLECTION BOX - PO LOBBY", "note": "ON 12/24 AND 12/31, THIS BOX MAY BE COLLECTED AS EARLY AS 12 NOON.", "nsi_id": "unitedstatespostalservice-a77078", "operator": "United States Postal Service", "operator:short": "USPS", "operator:type": "public", "operator:wikidata": "Q668687", "ref": "1973600005"}, "type": "Feature"}
