{"geometry": {"coordinates": [-75.5240778, 39.150177], "type": "Point"}, "id": "F2WhXgCiOdIPWq5kDnIkbFsr9rc=", "properties": {"@source_uri": "https://tools.usps.com/UspsToolsRestServices/rest/POLocator/findLocations", "@spider": "usps_collection_boxes", "addr:city": "DOVER", "addr:country": "US", "addr:postcode": "19901", "addr:state": "DE", "addr:street_address": "640 S STATE ST", "amenity": "post_box", "collection_times": "Mo-Sa 12:00", "nsi_id": "unitedstatespostalservice-a77078", "operator": "United States Postal Service", "operator:short": "USPS", "operator:type": "public", "operator:wikidata": "Q668687", "ref": "1990100007"}, "type": "Feature"}
{"geometry": {"coordinates": [-75.5207061, 39.176171], "type": "Point"}, "id": "O2if0epeNhllYmsNdTQu_HcXcMM=", "properties": {"@source_uri": "https://tools.usps.com/UspsToolsRestServices/rest/POLocator/findLocations", "@spider": "usps_collection_boxes", "addr:city": "DOVER", "addr:country": "US", "addr:postcode": "19901", "addr:state": "DE", "addr:street_address": "600 BUCKSON DR", "amenity": "post_box", "collection_times": "Mo-Fr 10:30; Sa 12:00", "nsi_id": "unitedstatespostalservice-a77078", "operator": "United States Postal Service", "operator:short": "USPS", "operator:type": "public", "operator:wikidata": "Q668687", "ref": "1990100022"}, "type": "Feature"}
{"geometry": {"coordinates": [-75.5241944, 39.157999], "type": "Point"}, "id": "Yd4E1TKwZyFhIyzyNKf0UWuRxHI=", "properties": {"@source_uri": "https://tools.usps.com/UspsToolsRestServices/rest/POLocator/findLocations", "@spider": "usps_collection_boxes", "addr:city": "DOVER", "addr:country": "US", "addr:postcode": "19901", "addr:state": "DE", "addr:street_address": "10 E LOOCKERMAN ST", "amenity": "post_box", "collection_times": "Mo-Fr 17:45; Sa 14:29", "note": "ON 12/24 AND 12/31, THIS BOX MAY BE COLLECTED AS EARLY AS 12 NOON.", "nsi_id": "unitedstatespostalservice-a77078", "operator": "United States Postal Service", "operator:short": "USPS", "operator:type": "public", "operator:wikidata": "Q668687", "ref": "1990100024"}, "type": "Feature"}
{"geometry": {"coordinates": [-75.5243843, 39.155909], "type": "Point"}, "id": "zmX_PUOoeCZlXO6OCJBu6Q8OmpA=", "properties": {"@source_uri": "https://tools.usps.com/UspsToolsRestServices/rest/POLocator/findLocations", "@spider": "usps_collection_boxes", "addr:city": "DOVER", "addr:country": "US", "addr:postcode": "19901", "addr:state": "DE", "addr:street_address": "200 S STATE ST", "amenity": "post_box", "collection_times": "Mo-Fr 17:45; Sa 14:15", "note": "ON 12/24 AND 12/31, THIS BOX MAY BE COLLECTED AS EARLY AS 12 NOON.", "nsi_id": "unitedstatespostalservice-a77078", "operator": "United States Postal Service", "operator:short": "USPS", "operator:type": "public", "operator:wikidata": "Q668687", "ref": "1990100026"}, "type": "Feature"}
{"geometry": {"coordinates": [-75.5038707, 39.147912], "type": "Point"}, "id": "rQsivcv0ZyEz4gHp301-qEAnR3I=", "properties": {"@source_uri": "https://tools.usps.com/UspsToolsRestServices/rest/POLocator/findLocations", "@spider": "usps_collection_boxes", "addr:city": "DOVER", "addr:country": "US", "addr:postcode": "19901", "addr:state": "DE", "addr:street_address": "700 BAY RD", "amenity": "post_box", "collection_times": "Mo-Fr 16:30; Sa 14:30", "note": "ON 12/24 AND 12/31, THIS BOX MAY BE COLLECTED AS EARLY AS 12 NOON.", "nsi_id": "unitedstatespostalservice-a77078", "operator": "United States Postal Service", "operator:short": "USPS", "operator:type": "public", "operator:wikidata": "Q668687", "ref": "1990100031"}, "type": "Feature"}
{"geometry": {"coordinates": [-75.5219552, 39.141858], "type": "Point"}, "id": "OMtMt7JbHeSLAnaT1Gm8a6EclSE=", "properties": {"@source_uri": "https://tools.usps.com/UspsToolsRestServices/rest/POLocator/findLocations", "@spider": "usps_collection_boxes", "addr:city": "DOVER", "addr:country": "US", "addr:postcode": "19901", "addr:state": "DE", "addr:street_address": "1255 S STATE ST", "amenity": "post_box", "collection_times": "Mo-Fr 14:30; Sa 14:15", "note": "ON 12/24 AND 12/31, THIS BOX MAY BE COLLECTED AS EARLY AS 12 NOON.", "nsi_id": "unitedstatespostalservice-a77078", "operator": "United States Postal Service", "operator:short": "USPS", "operator:type": "public", "operator:wikidata": "Q668687", "ref": "1990100037"}, "type": "Feature"}
{"geometry": {"coordinates": [-75.5252529124, 39.1603770514], "type": "Point"}, "id": "OaMMRQSj7f9_QDnELc2y8o-F444=", "properties": {"@source_uri": "https://tools.usps.com/UspsToolsRestServices/rest/POLocator/findLocations", "@spider": "usps_collection_boxes", "addr:city": "DOVER", "addr:country": "US", "addr:postcode": "19901", "addr:state": "DE", "addr:street_address": "45 S STATE ST", "amenity": "post_box", "collection_times": "Mo-Fr 10:15; Sa 11:45", "nsi_id": "unitedstatespostalservice-a77078", "operator": "United States Postal Service", "operator:short": "USPS", "operator:type": "public", "operator:wikidata": "Q668687", "ref": "1990100048"}, "type": "Feature"}
{"geometry": {"coordinates": [-75.5174987, 39.117516], "type": "Point"}, "id": "fZWtfUwLzzUVw8eZlBblXdFCv1E=", "properties": {"@source_uri": "https://tools.usps.com/UspsToolsRestServices/rest/POLocator/findLocations", "@spider": "usps_collection_boxes", "addr:city": "DOVER", "addr:country": "US", "addr:postcode": "19901", "addr:state": "DE", "addr:street_address": "10 LEBANON RD", "amenity": "post_box", "collection_times": "Mo-Sa 12:00", "nsi_id": "unitedstatespostalservice-a77078", "operator": "United States Postal Service", "operator:short": "USPS", "operator:type": "public", "operator:wikidata": "Q668687", "ref": "1990100056"}, "type": "Feature"}
{"geometry": {"coordinates": [-75.5030282, 39.151995], "type": "Point"}, "id": "VjrGmeptxR60y3uKSYGLBwiwcVQ=", "properties": {"@source_uri": "https://tools.usps.com/UspsToolsRestServices/rest/POLocator/findLocations", "@spider": "usps_collection_boxes", "addr:city": "DOVER", "addr:country": "US", "addr:postcode": "19901", "addr:state": "DE", "addr:street_address": "655 S BAY RD", "amenity": "post_box", "collection_times": "Mo-Fr 17:15; Sa 14:30", "note": "ON 12/24 AND 12/31, THIS BOX MAY BE COLLECTED AS EARLY AS 12 NOON.", "nsi_id": "unitedstatespostalservice-a77078", "operator": "United States Postal Service", "operator:short": "USPS", "operator:type": "public", "operator:wikidata": "Q668687", "ref": "1990100062"}, "type": "Feature"}
{"geometry": {"coordinates": [-75.5342633, 39.186049], "type": "Point"}, "id": "B2fDGSERFAuDh3OjXCfNS7-9csE=", "properties": {"@source_uri": "https://tools.usps.com/UspsToolsRestServices/rest/POLocator/findLocations", "@spider": "usps_collection_boxes", "addr:city": "DOVER", "addr:country": "US", "addr:postcode": "19901", "addr:state": "DE", "addr:street_address": "1051 N DUPONT HWY", "amenity": "post_box", "collection_times": "Mo-Sa 09:30", "nsi_id": "unitedstatespostalservice-a77078", "operator": "United States Postal Service", "operator:short": "USPS", "operator:type": "public", "operator:wikidata": "Q668687", "ref": "1990100066"}, "type": "Feature"}
{"geometry": {"coordinates": [-75.5183205, 39.1601351], "type": "Point"}, "id": "zoQ2SjmHsAeKymgw_aaAHT6_Rx8=", "properties": {"@source_uri": "https://tools.usps.com/UspsToolsRestServices/rest/POLocator/findLocations", "@spider": "usps_collection_boxes", "addr:city": "DOVER", "addr:country": "US", "addr:postcode": "19901", "addr:state": "DE", "addr:street_address": "1699 N DUPONT HWY", "amenity": "post_box", "collection_times": "Mo-Fr 10:45; Sa 12:15", "note": "ON 12/24 AND 12/31, THIS BOX MAY BE COLLECTED AS EARLY AS 12 NOON.", "nsi_id": "unitedstatespostalservice-a77078", "operator": "United States Postal Service", "operator:short": "USPS", "operator:type": "public", "operator:wikidata": "Q668687", "ref": "1990100067"}, "type": "Feature"}
{"geometry": {"coordinates": [-75.5270508, 39.15783], "type": "Point"}, "id": "i5YSDL2myoNDmcxHGhnnxsBmOb4=", "properties": {"@source_uri": "https://tools.usps.com/UspsToolsRestServices/rest/POLocator/findLocations", "@spider": "usps_collection_boxes", "addr:city": "DOVER", "addr:country": "US", "addr:postcode": "19901", "addr:state": "DE", "addr:street_address": "155 S GOVERNOR'S AVE", "amenity": "post_box", "collection_times": "Mo-Fr 10:00; Sa 14:15", "note": "ON 12/24 AND 12/31, THIS BOX MAY BE COLLECTED AS EARLY AS 12 NOON.", "nsi_id": "unitedstatespostalservice-a77078", "operator": "United States Postal Service", "operator:short": "USPS", "operator:type": "public", "operator:wikidata": "Q668687", "ref": "1990100095"}, "type": "Feature"}
{"geometry": {"coordinates": [-75.4800679, 39.123034], "type": "Point"}, "id": "9T_uigLl9g2vdxwcJrlPdYU0z9Y=", "properties": {"@source_uri": "https://tools.usps.com/UspsToolsRestServices/rest/POLocator/findLocations", "@spider": "usps_collection_boxes", "addr:city": "DOVER", "addr:country": "US", "addr:postcode": "19902", "addr:state": "DE", "addr:street_address": "442 13TH ST", "amenity": "post_box", "collection_times": "Mo-Fr 17:00; Sa 14:00", "note": "ON 12/24 AND 12/31, THIS BOX MAY BE COLLECTED AS EARLY AS 12 NOON.", "nsi_id": "unitedstatespostalservice-a77078", "operator": "United States Postal Service", "operator:short": "USPS", "operator:type": "public", "operator:wikidata": "Q668687", "ref": "1990200001"}, "type": "Feature"}
{"geometry": {"coordinates": [-75.4805919, 39.123062], "type": "Point"}, "id": "bEXxShu8sm2iigtyv86GXT-3L1o=", "properties": {"@source_uri": "https://tools.usps.com/UspsToolsRestServices/rest/POLocator/findLocations", "@spider": "usps_collection_boxes", "addr:city": "DOVER", "addr:country": "US", "addr:postcode": "19902", "addr:state": "DE", "addr:street_address": "442 13TH ST", "amenity": "post_box", "collection_times": "Mo-Fr 17:00", "indoor": "yes", "note": "ON 12/24 AND 12/31, THIS BOX MAY BE COLLECTED AS EARLY AS 12 NOON.", "nsi_id": "unitedstatespostalservice-a77078", "operator": "United States Postal Service", "operator:short": "USPS", "operator:type": "public", "operator:wikidata": "Q668687", "ref": "1990200004"}, "type": "Feature"}
{"geometry": {"coordinates": [-75.4763660373, 39.1233231777], "type": "Point"}, "id": "Gbla2Z4kn0Tgn3M7KzDkJD-6ocA=", "properties": {"@source_uri": "https://tools.usps.com/UspsToolsRestServices/rest/POLocator/findLocations", "@spider": "usps_collection_boxes", "addr:city": "DOVER", "addr:country": "US", "addr:postcode": "19902", "addr:state": "DE", "addr:street_address": "442 13TH ST", "amenity": "post_box", "collection_times": "Mo-Fr 16:30", "indoor": "yes", "note": "ON 12/24 AND 12/31, THIS BOX MAY BE COLLECTED AS EARLY AS 12 NOON.", "nsi_id": "unitedstatespostalservice-a77078", "operator": "United States Postal Service", "operator:short": "USPS", "operator:type": "public", "operator:wikidata": "Q668687", "ref": "1990200007"}, "type": "Feature"}
{"geometry": {"coordinates": [-75.5478883, 39.170033], "type": "Point"}, "id": "tcKlsalSRAUvE6BRA9geNHfHtRo=", "properties": {"@source_uri": "https://tools.usps.com/UspsToolsRestServices/rest/POLocator/findLocations", "@spider": "usps_collection_boxes", "addr:city": "DOVER", "addr:country": "US", "addr:postcode": "19904", "addr:state": "DE", "addr:street_address": "1000 WALKER RD", "amenity": "post_box", "collection_times": "Mo-Fr 12:00; Sa 12:30", "note": "ON 12/24 AND 12/31, THIS BOX MAY BE COLLECTED AS EARLY AS 12 NOON.", "nsi_id": "unitedstatespostalservice-a77078", "operator": "United States Postal Service", "operator:short": "USPS", "operator:type": "public", "operator:wikidata": "Q668687", "ref": "1990400001"}, "type": "Feature"}
{"geometry": {"coordinates": [-75.5275224, 39.155403], "type": "Point"}, "id": "dAQ9LMlG53O_TwUVPFAbYJ2sAfs=", "properties": {"@source_uri": "https://tools.usps.com/UspsToolsRestServices/rest/POLocator/findLocations", "@spider": "usps_collection_boxes", "addr:city": "DOVER", "addr:country": "US", "addr:postcode": "19904", "addr:state": "DE", "addr:street_address": "300 S NEW ST", "amenity": "post_box", "collection_times": "Mo-Fr 13:30; Sa 13:15", "note": "ON 12/24 AND 12/31, THIS BOX MAY BE COLLECTED AS EARLY AS 12 NOON.", "nsi_id": "unitedstatespostalservice-a77078", "operator": "United States Postal Service", "operator:short": "USPS", "operator:type": "public", "operator:wikidata": "Q668687", "ref": "1990400002"}, "type": "Feature"}
{"geometry": {"coordinates": [-75.5253586, 39.146641], "type": "Point"}, "id": "LqgJTDB3X6scfv3hdt9jaCNenuA=", "properties": {"@source_uri": "https://tools.usps.com/UspsToolsRestServices/rest/POLocator/findLocations", "@spider": "usps_collection_boxes", "addr:city": "DOVER", "addr:country": "US", "addr:postcode": "19904", "addr:state": "DE", "addr:street_address": "870 S GOVERNORS AVE", "amenity": "post_box", "collection_times": "Mo-Fr 13:30; Sa 13:15", "note": "ON 12/24 AND 12/31, THIS BOX MAY BE COLLECTED AS EARLY AS 12 NOON.", "nsi_id": "unitedstatespostalservice-a77078", "operator": "United States Postal Service", "operator:short": "USPS", "operator:type": "public", "operator:wikidata": "Q668687", "ref": "1990400003"}, "type": "Feature"}
{"geometry": {"coordinates": [-75.5239704, 39.146609], "type": "Point"}, "id": "1L3_onrHzHNPCSdoSl_gbaVQs14=", "properties": {"@source_uri": "https://tools.usps.com/UspsToolsRestServices/rest/POLocator/findLocations", "@spider": "usps_collection_boxes", "addr:city": "DOVER", "addr:country": "US", "addr:postcode": "19904", "addr:state": "DE", "addr:street_address": "1001 S BRADFORD ST", "amenity": "post_box", "collection_times": "Mo-Sa 12:00", "nsi_id": "unitedstatespostalservice-a77078", "operator": "United States Postal Service", "operator:short": "USPS", "operator:type": "public", "operator:wikidata": "Q668687", "ref": "1990400004"}, "type": "Feature"}
{"geometry": {"coordinates": [-75.5308536, 39.135466], "type": "Point"}, "id": "3m2CHFDoG4nUYG6uew4mAq--vqc=", "properties": {"@source_uri": "https://tools.usps.com/UspsToolsRestServices/rest/POLocator/findLocations", "@spider": "usps_collection_boxes", "addr:city": "DOVER", "addr:country": "US", "addr:postcode": "19904", "addr:state": "DE", "addr:street_address": "564 FIDDLERS GRN", "amenity": "post_box", "collection_times": "Mo-Fr 13:45; Sa 13:30", "note": "ON 12/24 AND 12/31, THIS BOX MAY BE COLLECTED AS EARLY AS 12 NOON.", "nsi_id": "unitedstatespostalservice-a77078", "operator": "United States Postal Service", "operator:short": "USPS", "operator:type": "public", "operator:wikidata": "Q668687", "ref": "1990400005"}, "type": "Feature"}
{"geometry": {"coordinates": [-75.5542884, 39.160232], "type": "Point"}, "id": "8gd0dwD0y8dIOkWNilR3VOpAERw=", "properties": {"@source_uri": "https://tools.usps.com/UspsToolsRestServices/rest/POLocator/findLocations", "@spider": "usps_collection_boxes", "addr:city": "DOVER", "addr:country": "US", "addr:postcode": "19904", "addr:state": "DE", "addr:street_address": "55 GREENTREE DR", "amenity": "post_box", "collection_times": "Mo-Fr 17:30; Sa 12:45", "note": "ON 12/24 AND 12/31, THIS BOX MAY BE COLLECTED AS EARLY AS 12 NOON.", "nsi_id": "unitedstatespostalservice-a77078", "operator": "United States Postal Service", "operator:short": "USPS", "operator:type": "public", "operator:wikidata": "Q668687", "ref": "1990400006"}, "type": "Feature"}
{"geometry": {"coordinates": [-75.5343149, 39.13293], "type": "Point"}, "id": "3T-jDaH1gPKTEbc0tmHvAr1-y6E=", "properties": {"@source_uri": "https://tools.usps.com/UspsToolsRestServices/rest/POLocator/findLocations", "@spider": "usps_collection_boxes", "addr:city": "DOVER", "addr:country": "US", "addr:postcode": "19904", "addr:state": "DE", "addr:street_address": "255 WEBBS LN", "amenity": "post_box", "collection_times": "Mo-Fr 13:45; Sa 13:30", "note": "ON 12/24 AND 12/31, THIS BOX MAY BE COLLECTED AS EARLY AS 12 NOON.", "nsi_id": "unitedstatespostalservice-a77078", "operator": "United States Postal Service", "operator:short": "USPS", "operator:type": "public", "operator:wikidata": "Q668687", "ref": "1990400009"}, "type": "Feature"}
{"geometry": {"coordinates": [-75.5533173, 39.156235], "type": "Point"}, "id": "kl_8STbLuFEiPavoDr2etMxn2BU=", "properties": {"@source_uri": "https://tools.usps.com/UspsToolsRestServices/rest/POLocator/findLocations", "@spider": "usps_collection_boxes", "addr:city": "DOVER", "addr:country": "US", "addr:postcode": "19904", "addr:state": "DE", "addr:street_address": "1300 S FARMVIEW DR", "amenity": "post_box", "collection_times": "Mo-Sa 12:00", "nsi_id": "unitedstatespostalservice-a77078", "operator": "United States Postal Service", "operator:short": "USPS", "operator:type": "public", "operator:wikidata": "Q668687", "ref": "1990400010"}, "type": "Feature"}
{"geometry": {"coordinates": [-75.5365333, 39.17259], "type": "Point"}, "id": "KCcIMA37J4reTLyyyeVWu97Yxwo=", "properties": {"@source_uri": "https://tools.usps.com/UspsToolsRestServices/rest/POLocator/findLocations", "@spider": "usps_collection_boxes", "addr:city": "DOVER", "addr:country": "US", "addr:postcode": "19904", "addr:state": "DE", "addr:street_address": "801 SILVER LAKE BLVD", "amenity": "post_box", "collection_times": "Mo-Fr 17:30; Sa 12:30", "note": "ON 12/24 AND 12/31, THIS BOX MAY BE COLLECTED AS EARLY AS 12 NOON.", "nsi_id": "unitedstatespostalservice-a77078", "operator": "United States Postal Service", "operator:short": "USPS", "operator:type": "public", "operator:wikidata": "Q668687", "ref": "1990400014"}, "type": "Feature"}
{"geometry": {"coordinates": [-75.532425, 39.15721], "type": "Point"}, "id": "F1mr-DExEEsnd2brHZbiiEPOJzo=", "properties": {"@source_uri": "https://tools.usps.com/UspsToolsRestServices/rest/POLocator/findLocations", "@spider": "usps_collection_boxes", "addr:city": "DOVER", "addr:country": "US", "addr:postcode": "19904", "addr:state": "DE", "addr:street_address": "2 WESTOVER DR", "amenity": "post_box", "collection_times": "Mo-Sa 11:30", "nsi_id": "unitedstatespostalservice-a77078", "operator": "United States Postal Service", "operator:short": "USPS", "operator:type": "public", "operator:wikidata": "Q668687", "ref": "1990400015"}, "type": "Feature"}
{"geometry": {"coordinates": [-75.5431588, 39.16942], "type": "Point"}, "id": "jgeCzzj3ChjuA22bA8WW9OzJk_M=", "properties": {"@source_uri": "https://tools.usps.com/UspsToolsRestServices/rest/POLocator/findLocations", "@spider": "usps_collection_boxes", "addr:city": "DOVER", "addr:country": "US", "addr:postcode": "19904", "addr:state": "DE", "addr:street_address": "830 WALKER RD", "amenity": "post_box", "collection_times": "Mo-Sa 09:30", "nsi_id": "unitedstatespostalservice-a77078", "operator": "United States Postal Service", "operator:short": "USPS", "operator:type": "public", "operator:wikidata": "Q668687", "ref": "1990400016"}, "type": "Feature"}
{"geometry": {"coordinates": [-75.5573231, 39.158635], "type": "Point"}, "id": "2QSMhed9u-HFxnMfhjestQg1DPU=", "properties": {"@source_uri": "https://tools.usps.com/UspsToolsRestServices/rest/POLocator/findLocations", "@spider": "usps_collection_boxes", "addr:city": "DOVER", "addr:country": "US", "addr:postcode": "19904", "addr:state": "DE", "addr:street_address": "1404 FORREST AVE", "amenity": "post_box", "collection_times": "Mo-Fr 13:15; Sa 13:00", "note": "ON 12/24 AND 12/31, THIS BOX MAY BE COLLECTED AS EARLY AS 12 NOON.", "nsi_id": "unitedstatespostalservice-a77078", "operator": "United States Postal Service", "operator:short": "USPS", "operator:type": "public", "operator:wikidata": "Q668687", "ref": "1990400018"}, "type": "Feature"}
{"geometry": {"coordinates": [-75.5474006, 39.152395], "type": "Point"}, "id": "muuBFra7pWRjhV-8qRet2DBUfGw=", "properties": {"@source_uri": "https://tools.usps.com/UspsToolsRestServices/rest/POLocator/findLocations", "@spider": "usps_collection_boxes", "addr:city": "DOVER", "addr:country": "US", "addr:postcode": "19904", "addr:state": "DE", "addr:street_address": "100 ENTERPRISE PL", "amenity": "post_box", "collection_times": "Mo-Sa 10:00", "nsi_id": "unitedstatespostalservice-a77078", "operator": "United States Postal Service", "operator:short": "USPS", "operator:type": "public", "operator:wikidata": "Q668687", "ref": "1990400019"}, "type": "Feature"}
{"geometry": {"coordinates": [-75.5361731, 39.153438], "type": "Point"}, "id": "Bl_71zV4DESW0avCopW_pPYULSQ=", "properties": {"@source_uri": "https://tools.usps.com/UspsToolsRestServices/rest/POLocator/findLocations", "@spider": "usps_collection_boxes", "addr:city": "DOVER", "addr:country": "US", "addr:postcode": "19904", "addr:state": "DE", "addr:street_address": "200 BANNING ST", "amenity": "post_box", "collection_times": "Mo-Fr 17:45; Sa 13:00", "note": "ON 12/24 AND 12/31, THIS BOX MAY BE COLLECTED AS EARLY AS 12 NOON.", "nsi_id": "unitedstatespostalservice-a77078", "operator": "United States Postal Service", "operator:short": "USPS", "operator:type": "public", "operator:wikidata": "Q668687", "ref": "1990400020"}, "type": "Feature"}
{"geometry": {"coordinates": [-75.5296775052, 39.1548548888], "type": "Point"}, "id": "ALTNe6W82hz-Je1BpdVBfH4R6pY=", "properties": {"@source_uri": "https://tools.usps.com/UspsToolsRestServices/rest/POLocator/findLocations", "@spider": "usps_collection_boxes", "addr:city": "DOVER", "addr:country": "US", "addr:postcode": "19904", "addr:state": "DE", "addr:street_address": "445 BANK LN", "amenity": "post_box", "collection_times": "Mo-Fr 18:00; Sa 14:45", "note": "ON 12/24 AND 12/31, THIS BOX MAY BE COLLECTED AS EARLY AS 12 NOON.", "nsi_id": "unitedstatespostalservice-a77078", "operator": "United States Postal Service", "operator:short": "USPS", "operator:type": "public", "operator:wikidata": "Q668687", "ref": "1990400023"}, "type": "Feature"}
{"geometry": {"coordinates": [-75.532425, 39.15721], "type": "Point"}, "id": "ZuFyaW3Ll0ztbZe0_Zacy9tfWC8=", "properties": {"@source_uri": "https://tools.usps.com/UspsToolsRestServices/rest/POLocator/findLocations", "@spider": "usps_collection_boxes", "addr:city": "DOVER", "addr:country": "US", "addr:postcode": "19904", "addr:state": "DE", "addr:street_address": "445 BANK LN", "amenity": "post_box", "collection_times": "Mo-Fr 18:00; Sa 14:45", "indoor": "yes", "note": "ON 12/24 AND 12/31, THIS BOX MAY BE COLLECTED AS EARLY AS 12 NOON.", "nsi_id": "unitedstatespostalservice-a77078", "operator": "United States Postal Service", "operator:short": "USPS", "operator:type": "public", "operator:wikidata": "Q668687", "ref": "1990400024"}, "type": "Feature"}
{"geometry": {"coordinates": [-75.5296775052, 39.1548548888], "type": "Point"}, "id": "WArIaxhjiTG-dyJmiVnxgQWn1-s=", "properties": {"@source_uri": "https://tools.usps.com/UspsToolsRestServices/rest/POLocator/findLocations", "@spider": "usps_collection_boxes", "addr:city": "DOVER", "addr:country": "US", "addr:postcode": "19904", "addr:state": "DE", "addr:street_address": "445 BANK LN", "amenity": "post_box", "collection_times": "Mo-Fr 18:00; Sa 14:45", "name": "USPS COLLECTION BOX - APC", "note": "ON 12/24 AND 12/31, THIS BOX MAY BE COLLECTED AS EARLY AS 12 NOON.", "nsi_id": "unitedstatespostalservice-a77078", "operator": "United States Postal Service", "operator:short": "USPS", "operator:type": "public", "operator:wikidata": "Q668687", "ref": "1990400026"}, "type": "Feature"}
{"geometry": {"coordinates": [-75.5296775052, 39.1548548888], "type": "Point"}, "id": "8X3EkMN3tmJ4lY27WZrWiBcFjtQ=", "properties": {"@source_uri": "https://tools.usps.com/UspsToolsRestServices/rest/POLocator/findLocations", "@spider": "usps_collection_boxes", "addr:city": "DOVER", "addr:country": "US", "addr:postcode": "19904", "addr:state": "DE", "addr:street_address": "445 BANK LN", "amenity": "post_box", "collection_times": "Mo-Fr 18:00; Sa 14:45", "indoor": "yes", "note": "ON 12/24 AND 12/31, THIS BOX MAY BE COLLECTED AS EARLY AS 12 NOON.", "nsi_id": "unitedstatespostalservice-a77078", "operator": "United States Postal Service", "operator:short": "USPS", "operator:type": "public", "operator:wikidata": "Q668687", "ref": "1990400027"}, "type": "Feature"}
{"geometry": {"coordinates": [-75.5296775052, 39.1548548888], "type": "Point"}, "id": "V2-lAg3wX4VZ1XyL3giskZFpPPs=", "properties": {"@source_uri": "https://tools.usps.com/UspsToolsRestServices/rest/POLocator/findLocations", "@spider": "usps_collection_boxes", "addr:city": "DOVER", "addr:country": "US", "addr:postcode": "19904", "addr:state": "DE", "addr:street_address": "445 BANK LN", "amenity": "post_box", "collection_times": "Mo-Fr 17:15; Sa 13:00", "indoor": "yes", "note": "ON 12/24 AND 12/31, THIS BOX MAY BE COLLECTED AS EARLY AS 12 NOON.", "nsi_id": "unitedstatespostalservice-a77078", "operator": "United States Postal Service", "operator:short": "USPS", "operator:type": "public", "operator:wikidata": "Q668687", "ref": "1990400028"}, "type": "Feature"}
{"geometry": {"coordinates": [-75.5296775052, 39.1548548888], "type": "Point"}, "id": "akw0mDc2xDKlt0yITn3EzxdN_hk=", "properties": {"@source_uri": "https://tools.usps.com/UspsToolsRestServices/rest/POLocator/findLocations", "@spider": "usps_collection_boxes", "addr:city": "DOVER", "addr:country": "US", "addr:postcode": "19904", "addr:state": "DE", "addr:street_address": "445 BANK LN", "amenity": "post_box", "collection_times": "Mo-Fr 18:00; Sa 14:45", "note": "ON 12/24 AND 12/31, THIS BOX MAY BE COLLECTED AS EARLY AS 12 NOON.", "nsi_id": "unitedstatespostalservice-a77078", "operator": "United States Postal Service", "operator:short": "USPS", "operator:type": "public", "operator:wikidata": "Q668687", "ref": "1990400029"}, "type": "Feature"}
{"geometry": {"coordinates": [-75.0551466, 38.510284], "type": "Point"}, "id": "AZghK-G3CgNXWgmTZyLrHvw26Tk=", "properties": {"@source_uri": "https://tools.usps.com/UspsToolsRestServices/rest/POLocator/findLocations", "@spider": "usps_collection_boxes", "addr:city": "BETHANY BEACH", "addr:country": "US", "addr:postcode": "19930", "addr:state": "DE", "addr:street_address": "34444 COASTAL HWY UNIT 1", "amenity": "post_box", "collection_times": "Mo-Sa 11:00", "nsi_id": "unitedstatespostalservice-a77078", "operator": "United States Postal Service", "operator:short": "USPS", "operator:type": "public", "operator:wikidata": "Q668687", "ref": "1993000002"}, "type": "Feature"}
{"geometry": {"coordinates": [-75.057091, 38.538122], "type": "Point"}, "id": "0PHJ9agtNYulwR6O2hZo6X0rPUY=", "properties": {"@source_uri": "https://tools.usps.com/UspsToolsRestServices/rest/POLocator/findLocations", "@spider": "usps_collection_boxes", "addr:city": "BETHANY BEACH", "addr:country": "US", "addr:postcode": "19930", "addr:state": "DE", "addr:street_address": "2 S PENNSYLVANIA AVE", "amenity": "post_box", "collection_times": "Mo-Sa 10:00", "nsi_id": "unitedstatespostalservice-a77078", "operator": "United States Postal Service", "operator:short": "USPS", "operator:type": "public", "operator:wikidata": "Q668687", "ref": "1993000004"}, "type": "Feature"}
{"geometry": {"coordinates": [-75.056974, 38.534501], "type": "Point"}, "id": "MOouCtEP8I2PcUDxKwdp6VrkYTM=", "properties": {"@source_uri": "https://tools.usps.com/UspsToolsRestServices/rest/POLocator/findLocations", "@spider": "usps_collection_boxes", "addr:city": "BETHANY BEACH", "addr:country": "US", "addr:postcode": "19930", "addr:state": "DE", "addr:street_address": "14 N PENNSYLVANIA AVE", "amenity": "post_box", "collection_times": "Mo-Fr 16:15; Sa 12:00", "note": "ON 12/24 AND 12/31, THIS BOX MAY BE COLLECTED AS EARLY AS 12 NOON.", "nsi_id": "unitedstatespostalservice-a77078", "operator": "United States Postal Service", "operator:short": "USPS", "operator:type": "public", "operator:wikidata": "Q668687", "ref": "1993000006"}, "type": "Feature"}
{"geometry": {"coordinates": [-75.056999, 38.5395], "type": "Point"}, "id": "yBfrMqZzl7fxwZS_aAm7S50XXlw=", "properties": {"@source_uri": "https://tools.usps.com/UspsToolsRestServices/rest/POLocator/findLocations", "@spider": "usps_collection_boxes", "addr:city": "BETHANY BEACH", "addr:country": "US", "addr:postcode": "19930", "addr:state": "DE", "addr:street_address": "14 N PENNSYLVANIA AVE", "amenity": "post_box", "collection_times": "Mo-Fr 16:30; Sa 12:00", "indoor": "yes", "note": "ON 12/24 AND 12/31, THIS BOX MAY BE COLLECTED AS EARLY AS 12 NOON.", "nsi_id": "unitedstatespostalservice-a77078", "operator": "United States Postal Service", "operator:short": "USPS", "operator:type": "public", "operator:wikidata": "Q668687", "ref": "1993000009"}, "type": "Feature"}
{"geometry": {"coordinates": [-75.083619459, 38.554509015], "type": "Point"}, "id": "yNRFZCpOtFoXcRSG9gkNplfb3bk=", "properties": {"@source_uri": "https://tools.usps.com/UspsToolsRestServices/rest/POLocator/findLocations", "@spider": "usps_collection_boxes", "addr:city": "BETHANY BEACH", "addr:country": "US", "addr:postcode": "19930", "addr:state": "DE", "addr:street_address": "695 BETHANY LOOP", "amenity": "post_box", "collection_times": "Mo-Sa 11:00", "nsi_id": "unitedstatespostalservice-a77078", "operator": "United States Postal Service", "operator:short": "USPS", "operator:type": "public", "operator:wikidata": "Q668687", "ref": "1993000012"}, "type": "Feature"}
{"geometry": {"coordinates": [-75.057299309, 38.539532242], "type": "Point"}, "id": "e7xZYiab6blfNxgj_vgItqHcAq4=", "properties": {"@source_uri": "https://tools.usps.com/UspsToolsRestServices/rest/POLocator/findLocations", "@spider": "usps_collection_boxes", "addr:city": "BETHANY BEACH", "addr:country": "US", "addr:postcode": "19930", "addr:state": "DE", "addr:street_address": "14 N PENNSYLVANIA AVE", "amenity": "post_box", "collection_times": "Mo-Fr 16:15; Sa 12:00", "indoor": "yes", "note": "ON 12/24 AND 12/31, THIS BOX MAY BE COLLECTED AS EARLY AS 12 NOON.", "nsi_id": "unitedstatespostalservice-a77078", "operator": "United States Postal Service", "operator:short": "USPS", "operator:type": "public", "operator:wikidata": "Q668687", "ref": "1993000014"}, "type": "Feature"}
{"geometry": {"coordinates": [-75.620142, 38.569781], "type": "Point"}, "id": "UOHNKcbaHVw9yMZ_R97lJgOkVwo=", "properties": {"@source_uri": "https://tools.usps.com/UspsToolsRestServices/rest/POLocator/findLocations", "@spider": "usps_collection_boxes", "addr:city": "BETHEL", "addr:country": "US", "addr:postcode": "19931", "addr:state": "DE", "addr:street_address": "7748 MAIN ST", "amenity": "post_box", "collection_times": "Mo-Fr 16:45; Sa 12:00", "note": "ON 12/24 AND 12/31, THIS BOX MAY BE COLLECTED AS EARLY AS 12 NOON.", "nsi_id": "unitedstatespostalservice-a77078", "operator": "United States Postal Service", "operator:short": "USPS", "operator:type": "public", "operator:wikidata": "Q668687", "ref": "1993100000"}, "type": "Feature"}
{"geometry": {"coordinates": [-75.62017, 38.569797], "type": "Point"}, "id": "9qxsjVi8l_-cBQEciwOPucZf9Z4=", "properties": {"@source_uri": "https://tools.usps.com/UspsToolsRestServices/rest/POLocator/findLocations", "@spider": "usps_collection_boxes", "addr:city": "BETHEL", "addr:country": "US", "addr:postcode": "19931", "addr:state": "DE", "addr:street_address": "7748 MAIN ST", "amenity": "post_box", "collection_times": "Mo-Fr 16:45; Sa 12:00", "indoor": "yes", "note": "ON 12/24 AND 12/31, THIS BOX MAY BE COLLECTED AS EARLY AS 12 NOON.", "nsi_id": "unitedstatespostalservice-a77078", "operator": "United States Postal Service", "operator:short": "USPS", "operator:type": "public", "operator:wikidata": "Q668687", "ref": "1993100001"}, "type": "Feature"}
{"geometry": {"coordinates": [-75.6198991852, 38.5700347205], "type": "Point"}, "id": "ZhnToJze3Xocq_5rSAjfJfWLeTA=", "properties": {"@source_uri": "https://tools.usps.com/UspsToolsRestServices/rest/POLocator/findLocations", "@spider": "usps_collection_boxes", "addr:city": "BETHEL", "addr:country": "US", "addr:postcode": "19931", "addr:state": "DE", "addr:street_address": "7748 MAIN ST", "amenity": "post_box", "collection_times": "Mo-Fr 16:45; Sa 11:45", "indoor": "yes", "note": "ON 12/24 AND 12/31, THIS BOX MAY BE COLLECTED AS EARLY AS 12 NOON.", "nsi_id": "unitedstatespostalservice-a77078", "operator": "United States Postal Service", "operator:short": "USPS", "operator:type": "public", "operator:wikidata": "Q668687", "ref": "1993100004"}, "type": "Feature"}
{"geometry": {"coordinates": [-75.602047, 38.741006], "type": "Point"}, "id": "z98nBf964kBnoZ_Qzxc_sfWIm5w=", "properties": {"@source_uri": "https://tools.usps.com/UspsToolsRestServices/rest/POLocator/findLocations", "@spider": "usps_collection_boxes", "addr:city": "BRIDGEVILLE", "addr:country": "US", "addr:postcode": "19933", "addr:state": "DE", "addr:street_address": "300 WALNUT ST", "amenity": "post_box", "collection_times": "Mo-Fr 17:00; Sa 13:00", "note": "ON 12/24 AND 12/31, THIS BOX MAY BE COLLECTED AS EARLY AS 12 NOON.", "nsi_id": "unitedstatespostalservice-a77078", "operator": "United States Postal Service", "operator:short": "USPS", "operator:type": "public", "operator:wikidata": "Q668687", "ref": "1993300000"}, "type": "Feature"}
{"geometry": {"coordinates": [-75.601927, 38.74101], "type": "Point"}, "id": "xIVwvtOOAnkiMptRaE16NJGQwF8=", "properties": {"@source_uri": "https://tools.usps.com/UspsToolsRestServices/rest/POLocator/findLocations", "@spider": "usps_collection_boxes", "addr:city": "BRIDGEVILLE", "addr:country": "US", "addr:postcode": "19933", "addr:state": "DE", "addr:street_address": "300 WALNUT ST", "amenity": "post_box", "collection_times": "Mo-Fr 17:00; Sa 13:00", "indoor": "yes", "note": "ON 12/24 AND 12/31, THIS BOX MAY BE COLLECTED AS EARLY AS 12 NOON.", "nsi_id": "unitedstatespostalservice-a77078", "operator": "United States Postal Service", "operator:short": "USPS", "operator:type": "public", "operator:wikidata": "Q668687", "ref": "1993300018"}, "type": "Feature"}
{"geometry": {"coordinates": [-75.6022198616, 38.7409488882], "type": "Point"}, "id": "JLOjaGsFMVQ-NThibuTBGPc_dsg=", "properties": {"@source_uri": "https://tools.usps.com/UspsToolsRestServices/rest/POLocator/findLocations", "@spider": "usps_collection_boxes", "addr:city": "BRIDGEVILLE", "addr:country": "US", "addr:postcode": "19933", "addr:state": "DE", "addr:street_address": "300 WALNUT ST", "amenity": "post_box", "collection_times": "Mo-Fr 17:00; Sa 13:00", "indoor": "yes", "note": "ON 12/24 AND 12/31, THIS BOX MAY BE COLLECTED AS EARLY AS 12 NOON.", "nsi_id": "unitedstatespostalservice-a77078", "operator": "United States Postal Service", "operator:short": "USPS", "operator:type": "public", "operator:wikidata": "Q668687", "ref": "1993300021"}, "type": "Feature"}
{"geometry": {"coordinates": [-75.585913, 39.095259], "type": "Point"}, "id": "r2OPQBQXzk84jce80vtqUw1NE2M=", "properties": {"@source_uri": "https://tools.usps.com/UspsToolsRestServices/rest/POLocator/findLocations", "@spider": "usps_collection_boxes", "addr:city": "CAMDEN WYOMING", "addr:country": "US", "addr:postcode": "19934", "addr:state": "DE", "addr:street_address": "2 OLD NORTH RD", "amenity": "post_box", "collection_times": "Mo-Fr 17:00; Sa 14:45", "note": "ON 12/24 AND 12/31, THIS BOX MAY BE COLLECTED AS EARLY AS 12 NOON.", "nsi_id": "unitedstatespostalservice-a77078", "operator": "United States Postal Service", "operator:short": "USPS", "operator:type": "public", "operator:wikidata": "Q668687", "ref": "1993400004"}, "type": "Feature"}
{"geometry": {"coordinates": [-75.553489, 39.120003], "type": "Point"}, "id": "ix1YUaKfviSmhR0zGRAr7HO8sEQ=", "properties": {"@source_uri": "https://tools.usps.com/UspsToolsRestServices/rest/POLocator/findLocations", "@spider": "usps_collection_boxes", "addr:city": "CAMDEN WYOMING", "addr:country": "US", "addr:postcode": "19934", "addr:state": "DE", "addr:street_address": "2 OLD NORTH RD", "amenity": "post_box", "collection_times": "Mo-Fr 17:00; Sa 12:00", "indoor": "yes", "note": "ON 12/24 AND 12/31, THIS BOX MAY BE COLLECTED AS EARLY AS 12 NOON.", "nsi_id": "unitedstatespostalservice-a77078", "operator": "United States Postal Service", "operator:short": "USPS", "operator:type": "public", "operator:wikidata": "Q668687", "ref": "1993400006"}, "type": "Feature"}
{"geometry": {"coordinates": [-75.5575314, 39.117553], "type": "Point"}, "id": "qqWsTInU08UMIyFS11zcWX0t1U4=", "properties": {"@source_uri": "https://tools.usps.com/UspsToolsRestServices/rest/POLocator/findLocations", "@spider": "usps_collection_boxes", "addr:city": "CAMDEN WYOMING", "addr:country": "US", "addr:postcode": "19934", "addr:state": "DE", "addr:street_address": "120 W CAMDEN-WYOMING AVE (CR02)", "amenity": "post_box", "collection_times": "Mo-Sa 14:30", "note": "ON 12/24 AND 12/31, THIS BOX MAY BE COLLECTED AS EARLY AS 12 NOON.", "nsi_id": "unitedstatespostalservice-a77078", "operator": "United States Postal Service", "operator:short": "USPS", "operator:type": "public", "operator:wikidata": "Q668687", "ref": "1993400008"}, "type": "Feature"}
{"geometry": {"coordinates": [-75.5518717919, 39.119121159], "type": "Point"}, "id": "OYd4SuJMbhIxyK_WrXv1eY185kc=", "properties": {"@source_uri": "https://tools.usps.com/UspsToolsRestServices/rest/POLocator/findLocations", "@spider": "usps_collection_boxes", "addr:city": "CAMDEN WYOMING", "addr:country": "US", "addr:postcode": "19934", "addr:state": "DE", "addr:street_address": "2 OLD NORTH RD", "amenity": "post_box", "collection_times": "Mo-Fr 17:00; Sa 12:00", "indoor": "yes", "note": "ON 12/24 AND 12/31, THIS BOX MAY BE COLLECTED AS EARLY AS 12 NOON.", "nsi_id": "unitedstatespostalservice-a77078", "operator": "United States Postal Service", "operator:short": "USPS", "operator:type": "public", "operator:wikidata": "Q668687", "ref": "1993400011"}, "type": "Feature"}
{"geometry": {"coordinates": [-75.585727, 39.219488], "type": "Point"}, "id": "FZakUyx4Raz6QakLTqlVcuyV37Y=", "properties": {"@source_uri": "https://tools.usps.com/UspsToolsRestServices/rest/POLocator/findLocations", "@spider": "usps_collection_boxes", "addr:city": "CHESWOLD", "addr:country": "US", "addr:postcode": "19936", "addr:state": "DE", "addr:street_address": "262 E MAIN ST", "amenity": "post_box", "collection_times": "Mo-Fr 16:30; Sa 12:00", "note": "ON 12/24 AND 12/31, THIS BOX MAY BE COLLECTED AS EARLY AS 12 NOON.", "nsi_id": "unitedstatespostalservice-a77078", "operator": "United States Postal Service", "operator:short": "USPS", "operator:type": "public", "operator:wikidata": "Q668687", "ref": "1993600000"}, "type": "Feature"}
{"geometry": {"coordinates": [-75.585818, 39.219483], "type": "Point"}, "id": "rK0KvlO0omac1FSR73-IKQh6BBY=", "properties": {"@source_uri": "https://tools.usps.com/UspsToolsRestServices/rest/POLocator/findLocations", "@spider": "usps_collection_boxes", "addr:city": "CHESWOLD", "addr:country": "US", "addr:postcode": "19936", "addr:state": "DE", "addr:street_address": "262 E MAIN ST", "amenity": "post_box", "collection_times": "Mo-Fr 16:45; Sa 12:00", "indoor": "yes", "note": "ON 12/24 AND 12/31, THIS BOX MAY BE COLLECTED AS EARLY AS 12 NOON.", "nsi_id": "unitedstatespostalservice-a77078", "operator": "United States Postal Service", "operator:short": "USPS", "operator:type": "public", "operator:wikidata": "Q668687", "ref": "1993600001"}, "type": "Feature"}
{"geometry": {"coordinates": [-75.585882752, 39.219421706], "type": "Point"}, "id": "IjyJtDuVPVRYomIDvcHHTuohOPQ=", "properties": {"@source_uri": "https://tools.usps.com/UspsToolsRestServices/rest/POLocator/findLocations", "@spider": "usps_collection_boxes", "addr:city": "CHESWOLD", "addr:country": "US", "addr:postcode": "19936", "addr:state": "DE", "addr:street_address": "262 E MAIN ST", "amenity": "post_box", "collection_times": "Mo-Fr 16:30; Sa 12:00", "indoor": "yes", "note": "ON 12/24 AND 12/31, THIS BOX MAY BE COLLECTED AS EARLY AS 12 NOON.", "nsi_id": "unitedstatespostalservice-a77078", "operator": "United States Postal Service", "operator:short": "USPS", "operator:type": "public", "operator:wikidata": "Q668687", "ref": "1993600004"}, "type": "Feature"}
{"geometry": {"coordinates": [-75.633816, 39.291744], "type": "Point"}, "id": "gqB7A0CVQPuOCi7EVYr1WFjqYM0=", "properties": {"@source_uri": "https://tools.usps.com/UspsToolsRestServices/rest/POLocator/findLocations", "@spider": "usps_collection_boxes", "addr:city": "CLAYTON", "addr:country": "US", "addr:postcode": "19938", "addr:state": "DE", "addr:street_address": "12 RAILROAD AVE", "amenity": "post_box", "collection_times": "Mo-Fr 17:00; Sa 12:30", "indoor": "yes", "note": "ON 12/24 AND 12/31, THIS BOX MAY BE COLLECTED AS EARLY AS 12 NOON.", "nsi_id": "unitedstatespostalservice-a77078", "operator": "United States Postal Service", "operator:short": "USPS", "operator:type": "public", "operator:wikidata": "Q668687", "ref": "1993800000"}, "type": "Feature"}
{"geometry": {"coordinates": [-75.633811, 39.291668], "type": "Point"}, "id": "qX4u98vhuzvPErI7Kb_4ZYrQpSE=", "properties": {"@source_uri": "https://tools.usps.com/UspsToolsRestServices/rest/POLocator/findLocations", "@spider": "usps_collection_boxes", "addr:city": "CLAYTON", "addr:country": "US", "addr:postcode": "19938", "addr:state": "DE", "addr:street_address": "12 RAILROAD AVE", "amenity": "post_box", "collection_times": "Mo-Fr 16:30; Sa 12:00", "note": "ON 12/24 AND 12/31, THIS BOX MAY BE COLLECTED AS EARLY AS 12 NOON.", "nsi_id": "unitedstatespostalservice-a77078", "operator": "United States Postal Service", "operator:short": "USPS", "operator:type": "public", "operator:wikidata": "Q668687", "ref": "1993800001"}, "type": "Feature"}
{"geometry": {"coordinates": [-75.6339611306, 39.2918457424], "type": "Point"}, "id": "o_0XnOgeuDcUBK3N8a5cll709dU=", "properties": {"@source_uri": "https://tools.usps.com/UspsToolsRestServices/rest/POLocator/findLocations", "@spider": "usps_collection_boxes", "addr:city": "CLAYTON", "addr:country": "US", "addr:postcode": "19938", "addr:state": "DE", "addr:street_address": "12 RAILROAD AVE", "amenity": "post_box", "collection_times": "Mo-Fr 17:00; Sa 12:30", "indoor": "yes", "note": "ON 12/24 AND 12/31, THIS BOX MAY BE COLLECTED AS EARLY AS 12 NOON.", "nsi_id": "unitedstatespostalservice-a77078", "operator": "United States Postal Service", "operator:short": "USPS", "operator:type": "public", "operator:wikidata": "Q668687", "ref": "1993800004"}, "type": "Feature"}
{"geometry": {"coordinates": [-75.246749, 38.548613], "type": "Point"}, "id": "Z8RXdSrJvLI1D_fkC3Gt14ri52Y=", "properties": {"@source_uri": "https://tools.usps.com/UspsToolsRestServices/rest/POLocator/findLocations", "@spider": "usps_collection_boxes", "addr:city": "MILLSBORO", "addr:country": "US", "addr:postcode": "19939", "addr:state": "DE", "addr:street_address": "28290 CLAYTON ST", "amenity": "post_box", "collection_times": "Mo-Fr 16:30; Sa 12:00", "note": "ON 12/24 AND 12/31, THIS BOX MAY BE COLLECTED AS EARLY AS 12 NOON.", "nsi_id": "unitedstatespostalservice-a77078", "operator": "United States Postal Service", "operator:short": "USPS", "operator:type": "public", "operator:wikidata": "Q668687", "ref": "1993900000"}, "type": "Feature"}
{"geometry": {"coordinates": [-75.246812, 38.54855], "type": "Point"}, "id": "ppuIMxHOnEC_7Q0c5vLbCfHQPz0=", "properties": {"@source_uri": "https://tools.usps.com/UspsToolsRestServices/rest/POLocator/findLocations", "@spider": "usps_collection_boxes", "addr:city": "MILLSBORO", "addr:country": "US", "addr:postcode": "19939", "addr:state": "DE", "addr:street_address": "28290 CLAYTON ST", "amenity": "post_box", "collection_times": "Mo-Fr 16:30; Sa 12:00", "indoor": "yes", "note": "ON 12/24 AND 12/31, THIS BOX MAY BE COLLECTED AS EARLY AS 12 NOON.", "nsi_id": "unitedstatespostalservice-a77078", "operator": "United States Postal Service", "operator:short": "USPS", "operator:type": "public", "operator:wikidata": "Q668687", "ref": "1993900004"}, "type": "Feature"}
{"geometry": {"coordinates": [-75.246246109, 38.548853664], "type": "Point"}, "id": "nkqFRzd4VGrcpUP_LFsFhoVUV0Y=", "properties": {"@source_uri": "https://tools.usps.com/UspsToolsRestServices/rest/POLocator/findLocations", "@spider": "usps_collection_boxes", "addr:city": "MILLSBORO", "addr:country": "US", "addr:postcode": "19939", "addr:state": "DE", "addr:street_address": "28290 CLAYTON ST", "amenity": "post_box", "collection_times": "Mo-Fr 16:30; Sa 12:00", "indoor": "yes", "note": "ON 12/24 AND 12/31, THIS BOX MAY BE COLLECTED AS EARLY AS 12 NOON.", "nsi_id": "unitedstatespostalservice-a77078", "operator": "United States Postal Service", "operator:short": "USPS", "operator:type": "public", "operator:wikidata": "Q668687", "ref": "1993900007"}, "type": "Feature"}
{"geometry": {"coordinates": [-75.576615, 38.457008], "type": "Point"}, "id": "a8OySuz7N0NFMcTTV8MuzPJ_-6A=", "properties": {"@source_uri": "https://tools.usps.com/UspsToolsRestServices/rest/POLocator/findLocations", "@spider": "usps_collection_boxes", "addr:city": "DELMAR", "addr:country": "US", "addr:postcode": "19940", "addr:state": "DE", "addr:street_address": "101 E GROVE ST", "amenity": "post_box", "collection_times": "Mo-Fr 17:00; Sa 13:00", "note": "ON 12/24 AND 12/31, THIS BOX MAY BE COLLECTED AS EARLY AS 12 NOON.", "nsi_id": "unitedstatespostalservice-a77078", "operator": "United States Postal Service", "operator:short": "USPS", "operator:type": "public", "operator:wikidata": "Q668687", "ref": "1994000000"}, "type": "Feature"}
{"geometry": {"coordinates": [-75.5598314, 38.456811], "type": "Point"}, "id": "t19rvOP-t-5PnaprBIATbgKLHnM=", "properties": {"@source_uri": "https://tools.usps.com/UspsToolsRestServices/rest/POLocator/findLocations", "@spider": "usps_collection_boxes", "addr:city": "DELMAR", "addr:country": "US", "addr:postcode": "19940", "addr:state": "DE", "addr:street_address": "38660 SUSSEX HWY", "amenity": "post_box", "collection_times": "Mo-Sa 12:00", "nsi_id": "unitedstatespostalservice-a77078", "operator": "United States Postal Service", "operator:short": "USPS", "operator:type": "public", "operator:wikidata": "Q668687", "ref": "1994000007"}, "type": "Feature"}
{"geometry": {"coordinates": [-75.576729, 38.456981], "type": "Point"}, "id": "BIbYmcaFDUfBoUs1jptYmz9JG_0=", "properties": {"@source_uri": "https://tools.usps.com/UspsToolsRestServices/rest/POLocator/findLocations", "@spider": "usps_collection_boxes", "addr:city": "DELMAR", "addr:country": "US", "addr:postcode": "19940", "addr:state": "DE", "addr:street_address": "101 E GROVE ST", "amenity": "post_box", "collection_times": "Mo-Fr 17:00; Sa 13:00", "indoor": "yes", "note": "ON 12/24 AND 12/31, THIS BOX MAY BE COLLECTED AS EARLY AS 12 NOON.", "nsi_id": "unitedstatespostalservice-a77078", "operator": "United States Postal Service", "operator:short": "USPS", "operator:type": "public", "operator:wikidata": "Q668687", "ref": "1994000013"}, "type": "Feature"}
{"geometry": {"coordinates": [-75.5765415, 38.457003519], "type": "Point"}, "id": "-59Zu7lU6c0TUrOo-KBE2adgjQw=", "properties": {"@source_uri": "https://tools.usps.com/UspsToolsRestServices/rest/POLocator/findLocations", "@spider": "usps_collection_boxes", "addr:city": "DELMAR", "addr:country": "US", "addr:postcode": "19940", "addr:state": "DE", "addr:street_address": "101 E GROVE ST", "amenity": "post_box", "collection_times": "Mo-Fr 17:00; Sa 13:00", "indoor": "yes", "note": "ON 12/24 AND 12/31, THIS BOX MAY BE COLLECTED AS EARLY AS 12 NOON.", "nsi_id": "unitedstatespostalservice-a77078", "operator": "United States Postal Service", "operator:short": "USPS", "operator:type": "public", "operator:wikidata": "Q668687", "ref": "1994000016"}, "type": "Feature"}
{"geometry": {"coordinates": [-75.424697366, 38.807110526], "type": "Point"}, "id": "TI0HQMFjBolMEIQYfurX3Cm5L3o=", "properties": {"@source_uri": "https://tools.usps.com/UspsToolsRestServices/rest/POLocator/findLocations", "@spider": "usps_collection_boxes", "addr:city": "ELLENDALE", "addr:country": "US", "addr:postcode": "19941", "addr:state": "DE", "addr:street_address": "508 MAIN ST", "amenity": "post_box", "collection_times": "Mo-Fr 16:00; Sa 11:00", "note": "ON 12/24 AND 12/31, THIS BOX MAY BE COLLECTED AS EARLY AS 12 NOON.", "nsi_id": "unitedstatespostalservice-a77078", "operator": "United States Postal Service", "operator:short": "USPS", "operator:type": "public", "operator:wikidata": "Q668687", "ref": "1994100000"}, "type": "Feature"}
{"geometry": {"coordinates": [-75.42463, 38.807043], "type": "Point"}, "id": "dR2B9YDFiod9s-Xpfvdu7KscznY=", "properties": {"@source_uri": "https://tools.usps.com/UspsToolsRestServices/rest/POLocator/findLocations", "@spider": "usps_collection_boxes", "addr:city": "ELLENDALE", "addr:country": "US", "addr:postcode": "19941", "addr:state": "DE", "addr:street_address": "508 MAIN ST", "amenity": "post_box", "collection_times": "Mo-Fr 16:00; Sa 11:00", "indoor": "yes", "note": "ON 12/24 AND 12/31, THIS BOX MAY BE COLLECTED AS EARLY AS 12 NOON.", "nsi_id": "unitedstatespostalservice-a77078", "operator": "United States Postal Service", "operator:short": "USPS", "operator:type": "public", "operator:wikidata": "Q668687", "ref": "1994100001"}, "type": "Feature"}
{"geometry": {"coordinates": [-75.4246972166, 38.8071103469], "type": "Point"}, "id": "GPDWo-iio4M8s-0UMwaVzLjXnBo=", "properties": {"@source_uri": "https://tools.usps.com/UspsToolsRestServices/rest/POLocator/findLocations", "@spider": "usps_collection_boxes", "addr:city": "ELLENDALE", "addr:country": "US", "addr:postcode": "19941", "addr:state": "DE", "addr:street_address": "508 MAIN ST", "amenity": "post_box", "collection_times": "Mo-Fr 16:00; Sa 11:00", "indoor": "yes", "note": "ON 12/24 AND 12/31, THIS BOX MAY BE COLLECTED AS EARLY AS 12 NOON.", "nsi_id": "unitedstatespostalservice-a77078", "operator": "United States Postal Service", "operator:short": "USPS", "operator:type": "public", "operator:wikidata": "Q668687", "ref": "1994100004"}, "type": "Feature"}
{"geometry": {"coordinates": [-75.57571, 39.0112], "type": "Point"}, "id": "tVZvw-T11bJ-7it4ZR8NkzfZlU4=", "properties": {"@source_uri": "https://tools.usps.com/UspsToolsRestServices/rest/POLocator/findLocations", "@spider": "usps_collection_boxes", "addr:city": "FELTON", "addr:country": "US", "addr:postcode": "19943", "addr:state": "DE", "addr:street_address": "1 W SEWELL ST", "amenity": "post_box", "collection_times": "Mo-Fr 16:30; Sa 11:45", "note": "ON 12/24 AND 12/31, THIS BOX MAY BE COLLECTED AS EARLY AS 12 NOON.", "nsi_id": "unitedstatespostalservice-a77078", "operator": "United States Postal Service", "operator:short": "USPS", "operator:type": "public", "operator:wikidata": "Q668687", "ref": "1994300000"}, "type": "Feature"}
{"geometry": {"coordinates": [-75.57583, 39.011202], "type": "Point"}, "id": "Bud42UIjYMPZuixymT8tyofcwg8=", "properties": {"@source_uri": "https://tools.usps.com/UspsToolsRestServices/rest/POLocator/findLocations", "@spider": "usps_collection_boxes", "addr:city": "FELTON", "addr:country": "US", "addr:postcode": "19943", "addr:state": "DE", "addr:street_address": "1 W SEWELL ST", "amenity": "post_box", "collection_times": "Mo-Fr 16:30; Sa 11:45", "indoor": "yes", "note": "ON 12/24 AND 12/31, THIS BOX MAY BE COLLECTED AS EARLY AS 12 NOON.", "nsi_id": "unitedstatespostalservice-a77078", "operator": "United States Postal Service", "operator:short": "USPS", "operator:type": "public", "operator:wikidata": "Q668687", "ref": "1994300003"}, "type": "Feature"}
{"geometry": {"coordinates": [-75.57583, 39.011202], "type": "Point"}, "id": "7fZ2hKBwe8NR8gDNfkxsJQlbGZY=", "properties": {"@source_uri": "https://tools.usps.com/UspsToolsRestServices/rest/POLocator/findLocations", "@spider": "usps_collection_boxes", "addr:city": "FELTON", "addr:country": "US", "addr:postcode": "19943", "addr:state": "DE", "addr:street_address": "1 W SEWELL ST", "amenity": "post_box", "collection_times": "Mo-Fr 16:30; Sa 11:45", "indoor": "yes", "note": "ON 12/24 AND 12/31, THIS BOX MAY BE COLLECTED AS EARLY AS 12 NOON.", "nsi_id": "unitedstatespostalservice-a77078", "operator": "United States Postal Service", "operator:short": "USPS", "operator:type": "public", "operator:wikidata": "Q668687", "ref": "1994300005"}, "type": "Feature"}
{"geometry": {"coordinates": [-75.576677753, 39.011326352], "type": "Point"}, "id": "-q6srzlmRPrNrymnifKO-EWeC8A=", "properties": {"@source_uri": "https://tools.usps.com/UspsToolsRestServices/rest/POLocator/findLocations", "@spider": "usps_collection_boxes", "addr:city": "FELTON", "addr:country": "US", "addr:postcode": "19943", "addr:state": "DE", "addr:street_address": "1 W SEWELL ST", "amenity": "post_box", "collection_times": "Mo-Fr 17:00; Sa 12:00", "indoor": "yes", "note": "ON 12/24 AND 12/31, THIS BOX MAY BE COLLECTED AS EARLY AS 12 NOON.", "nsi_id": "unitedstatespostalservice-a77078", "operator": "United States Postal Service", "operator:short": "USPS", "operator:type": "public", "operator:wikidata": "Q668687", "ref": "1994300007"}, "type": "Feature"}
{"geometry": {"coordinates": [-75.0523331, 38.462724], "type": "Point"}, "id": "szekiIIgJ5yHiznn-bLcK_iytAM=", "properties": {"@source_uri": "https://tools.usps.com/UspsToolsRestServices/rest/POLocator/findLocations", "@spider": "usps_collection_boxes", "addr:city": "SELBYVILLE", "addr:country": "US", "addr:postcode": "19944", "addr:state": "DE", "addr:street_address": "1300 COASTAL HWY", "amenity": "post_box", "collection_times": "Mo-Sa 10:30", "nsi_id": "unitedstatespostalservice-a77078", "operator": "United States Postal Service", "operator:short": "USPS", "operator:type": "public", "operator:wikidata": "Q668687", "ref": "1994400001"}, "type": "Feature"}
{"geometry": {"coordinates": [-75.0520017, 38.452878], "type": "Point"}, "id": "Bh4F3ZdKjpqm5drfw4GUBX2DqZA=", "properties": {"@source_uri": "https://tools.usps.com/UspsToolsRestServices/rest/POLocator/findLocations", "@spider": "usps_collection_boxes", "addr:city": "SELBYVILLE", "addr:country": "US", "addr:postcode": "19944", "addr:state": "DE", "addr:street_address": "101 COASTAL HWY", "amenity": "post_box", "collection_times": "Mo-Sa 09:30", "nsi_id": "unitedstatespostalservice-a77078", "operator": "United States Postal Service", "operator:short": "USPS", "operator:type": "public", "operator:wikidata": "Q668687", "ref": "1994400002"}, "type": "Feature"}
{"geometry": {"coordinates": [-75.235241, 38.517583], "type": "Point"}, "id": "5xiuhuuePreeRRURttVngJ0U8xM=", "properties": {"@source_uri": "https://tools.usps.com/UspsToolsRestServices/rest/POLocator/findLocations", "@spider": "usps_collection_boxes", "addr:city": "FRANKFORD", "addr:country": "US", "addr:postcode": "19945", "addr:state": "DE", "addr:street_address": "1 MAIN ST", "amenity": "post_box", "collection_times": "Mo-Fr 16:30; Sa 12:00", "note": "ON 12/24 AND 12/31, THIS BOX MAY BE COLLECTED AS EARLY AS 12 NOON.", "nsi_id": "unitedstatespostalservice-a77078", "operator": "United States Postal Service", "operator:short": "USPS", "operator:type": "public", "operator:wikidata": "Q668687", "ref": "1994500000"}, "type": "Feature"}
{"geometry": {"coordinates": [-75.235241, 38.517583], "type": "Point"}, "id": "ZSklsbIJ1iKdhaUDT-3o1OURiv8=", "properties": {"@source_uri": "https://tools.usps.com/UspsToolsRestServices/rest/POLocator/findLocations", "@spider": "usps_collection_boxes", "addr:city": "FRANKFORD", "addr:country": "US", "addr:postcode": "19945", "addr:state": "DE", "addr:street_address": "1 MAIN ST", "amenity": "post_box", "collection_times": "Mo-Fr 16:30; Sa 12:00", "indoor": "yes", "note": "ON 12/24 AND 12/31, THIS BOX MAY BE COLLECTED AS EARLY AS 12 NOON.", "nsi_id": "unitedstatespostalservice-a77078", "operator": "United States Postal Service", "operator:short": "USPS", "operator:type": "public", "operator:wikidata": "Q668687", "ref": "1994500001"}, "type": "Feature"}
{"geometry": {"coordinates": [-75.235525017, 38.51796514], "type": "Point"}, "id": "4iLXE1Rt3j7slHgKHEJwLXkq3O8=", "properties": {"@source_uri": "https://tools.usps.com/UspsToolsRestServices/rest/POLocator/findLocations", "@spider": "usps_collection_boxes", "addr:city": "FRANKFORD", "addr:country": "US", "addr:postcode": "19945", "addr:state": "DE", "addr:street_address": "1 MAIN ST", "amenity": "post_box", "collection_times": "Mo-Fr 16:30; Sa 12:00", "indoor": "yes", "note": "ON 12/24 AND 12/31, THIS BOX MAY BE COLLECTED AS EARLY AS 12 NOON.", "nsi_id": "unitedstatespostalservice-a77078", "operator": "United States Postal Service", "operator:short": "USPS", "operator:type": "public", "operator:wikidata": "Q668687", "ref": "1994500009"}, "type": "Feature"}
{"geometry": {"coordinates": [-75.473109, 39.007632], "type": "Point"}, "id": "xIyCaCQHKjyRYGJVivXO5eiXV60=", "properties": {"@source_uri": "https://tools.usps.com/UspsToolsRestServices/rest/POLocator/findLocations", "@spider": "usps_collection_boxes", "addr:city": "FREDERICA", "addr:country": "US", "addr:postcode": "19946", "addr:state": "DE", "addr:street_address": "128 W FRONT ST", "amenity": "post_box", "collection_times": "Mo-Fr 16:45; Sa 11:00", "indoor": "yes", "note": "ON 12/24 AND 12/31, THIS BOX MAY BE COLLECTED AS EARLY AS 12 NOON.", "nsi_id": "unitedstatespostalservice-a77078", "operator": "United States Postal Service", "operator:short": "USPS", "operator:type": "public", "operator:wikidata": "Q668687", "ref": "1994600003"}, "type": "Feature"}
{"geometry": {"coordinates": [-75.473109, 39.007632], "type": "Point"}, "id": "dc1Nwcpch8Lcmh391QTZYKhrKcY=", "properties": {"@source_uri": "https://tools.usps.com/UspsToolsRestServices/rest/POLocator/findLocations", "@spider": "usps_collection_boxes", "addr:city": "FREDERICA", "addr:country": "US", "addr:postcode": "19946", "addr:state": "DE", "addr:street_address": "128 W FRONT ST", "amenity": "post_box", "collection_times": "Mo-Fr 16:45; Sa 11:00", "indoor": "yes", "note": "ON 12/24 AND 12/31, THIS BOX MAY BE COLLECTED AS EARLY AS 12 NOON.", "nsi_id": "unitedstatespostalservice-a77078", "operator": "United States Postal Service", "operator:short": "USPS", "operator:type": "public", "operator:wikidata": "Q668687", "ref": "1994600005"}, "type": "Feature"}
{"geometry": {"coordinates": [-75.4749236889, 39.0075774984], "type": "Point"}, "id": "YNaU1EPQT06S7mVeR4KIFBx1Kvc=", "properties": {"@source_uri": "https://tools.usps.com/UspsToolsRestServices/rest/POLocator/findLocations", "@spider": "usps_collection_boxes", "addr:city": "FREDERICA", "addr:country": "US", "addr:postcode": "19946", "addr:state": "DE", "addr:street_address": "128 W FRONT ST", "amenity": "post_box", "collection_times": "Mo-Fr 17:00; Sa 11:00", "indoor": "yes", "note": "ON 12/24 AND 12/31, THIS BOX MAY BE COLLECTED AS EARLY AS 12 NOON.", "nsi_id": "unitedstatespostalservice-a77078", "operator": "United States Postal Service", "operator:short": "USPS", "operator:type": "public", "operator:wikidata": "Q668687", "ref": "1994600008"}, "type": "Feature"}
{"geometry": {"coordinates": [-75.3957299, 38.679654], "type": "Point"}, "id": "t_94E8s3B0XT0MrvPe-Y15_sXvI=", "properties": {"@source_uri": "https://tools.usps.com/UspsToolsRestServices/rest/POLocator/findLocations", "@spider": "usps_collection_boxes", "addr:city": "GEORGETOWN", "addr:country": "US", "addr:postcode": "19947", "addr:state": "DE", "addr:street_address": "8 GEORGETOWN PLZ", "amenity": "post_box", "collection_times": "Mo-Sa 09:30", "nsi_id": "unitedstatespostalservice-a77078", "operator": "United States Postal Service", "operator:short": "USPS", "operator:type": "public", "operator:wikidata": "Q668687", "ref": "1994700013"}, "type": "Feature"}
{"geometry": {"coordinates": [-75.38022, 38.691877], "type": "Point"}, "id": "_uxFyABKf7wxw7zQ2lgumuOYmSw=", "properties": {"@source_uri": "https://tools.usps.com/UspsToolsRestServices/rest/POLocator/findLocations", "@spider": "usps_collection_boxes", "addr:city": "GEORGETOWN", "addr:country": "US", "addr:postcode": "19947", "addr:state": "DE", "addr:street_address": "115 S KING ST", "amenity": "post_box", "collection_times": "Mo-Fr 17:00; Sa 16:00", "note": "ON 12/24 AND 12/31, THIS BOX MAY BE COLLECTED AS EARLY AS 12 NOON.", "nsi_id": "unitedstatespostalservice-a77078", "operator": "United States Postal Service", "operator:short": "USPS", "operator:type": "public", "operator:wikidata": "Q668687", "ref": "1994700015"}, "type": "Feature"}
{"geometry": {"coordinates": [-75.3855926, 38.68971], "type": "Point"}, "id": "i_KYwgtrsDqXSg7rlm0iqrDAtKc=", "properties": {"@source_uri": "https://tools.usps.com/UspsToolsRestServices/rest/POLocator/findLocations", "@spider": "usps_collection_boxes", "addr:city": "GEORGETOWN", "addr:country": "US", "addr:postcode": "19947", "addr:state": "DE", "addr:street_address": "13A THE CIR", "amenity": "post_box", "collection_times": "Mo-Fr 15:00; Sa 14:00", "note": "ON 12/24 AND 12/31, THIS BOX MAY BE COLLECTED AS EARLY AS 12 NOON.", "nsi_id": "unitedstatespostalservice-a77078", "operator": "United States Postal Service", "operator:short": "USPS", "operator:type": "public", "operator:wikidata": "Q668687", "ref": "1994700016"}, "type": "Feature"}
{"geometry": {"coordinates": [-75.380228, 38.691845], "type": "Point"}, "id": "oRxzVeZbBjrKsZZA38qgTbZOmcY=", "properties": {"@source_uri": "https://tools.usps.com/UspsToolsRestServices/rest/POLocator/findLocations", "@spider": "usps_collection_boxes", "addr:city": "GEORGETOWN", "addr:country": "US", "addr:postcode": "19947", "addr:state": "DE", "addr:street_address": "115 S KING ST", "amenity": "post_box", "collection_times": "Mo-Fr 17:00; Sa 16:00", "indoor": "yes", "note": "ON 12/24 AND 12/31, THIS BOX MAY BE COLLECTED AS EARLY AS 12 NOON.", "nsi_id": "unitedstatespostalservice-a77078", "operator": "United States Postal Service", "operator:short": "USPS", "operator:type": "public", "operator:wikidata": "Q668687", "ref": "1994700018"}, "type": "Feature"}
{"geometry": {"coordinates": [-75.3802360173, 38.6918838418], "type": "Point"}, "id": "gsL4F07s3UpjfboBKgMrMyOk16k=", "properties": {"@source_uri": "https://tools.usps.com/UspsToolsRestServices/rest/POLocator/findLocations", "@spider": "usps_collection_boxes", "addr:city": "GEORGETOWN", "addr:country": "US", "addr:postcode": "19947", "addr:state": "DE", "addr:street_address": "115 S KING ST", "amenity": "post_box", "collection_times": "Mo-Fr 17:00; Sa 12:00", "indoor": "yes", "note": "ON 12/24 AND 12/31, THIS BOX MAY BE COLLECTED AS EARLY AS 12 NOON.", "nsi_id": "unitedstatespostalservice-a77078", "operator": "United States Postal Service", "operator:short": "USPS", "operator:type": "public", "operator:wikidata": "Q668687", "ref": "1994700023"}, "type": "Feature"}
{"geometry": {"coordinates": [-75.592491, 38.807133], "type": "Point"}, "id": "AyRt-zmfBWFFARuWaapke5YjPUU=", "properties": {"@source_uri": "https://tools.usps.com/UspsToolsRestServices/rest/POLocator/findLocations", "@spider": "usps_collection_boxes", "addr:city": "GREENWOOD", "addr:country": "US", "addr:postcode": "19950", "addr:state": "DE", "addr:street_address": "2 E MARKET ST", "amenity": "post_box", "collection_times": "Mo-Fr 17:00; Sa 12:30", "note": "ON 12/24 AND 12/31, THIS BOX MAY BE COLLECTED AS EARLY AS 12 NOON.", "nsi_id": "unitedstatespostalservice-a77078", "operator": "United States Postal Service", "operator:short": "USPS", "operator:type": "public", "operator:wikidata": "Q668687", "ref": "1995000000"}, "type": "Feature"}
{"geometry": {"coordinates": [-75.592472, 38.807156], "type": "Point"}, "id": "BqsYmuuwceUHnUzYCB8mTN5e9EM=", "properties": {"@source_uri": "https://tools.usps.com/UspsToolsRestServices/rest/POLocator/findLocations", "@spider": "usps_collection_boxes", "addr:city": "GREENWOOD", "addr:country": "US", "addr:postcode": "19950", "addr:state": "DE", "addr:street_address": "2 E MARKET ST", "amenity": "post_box", "collection_times": "Mo-Fr 17:00; Sa 12:30", "indoor": "yes", "note": "ON 12/24 AND 12/31, THIS BOX MAY BE COLLECTED AS EARLY AS 12 NOON.", "nsi_id": "unitedstatespostalservice-a77078", "operator": "United States Postal Service", "operator:short": "USPS", "operator:type": "public", "operator:wikidata": "Q668687", "ref": "1995000002"}, "type": "Feature"}
{"geometry": {"coordinates": [-75.591713561, 38.806944623], "type": "Point"}, "id": "3sT1GZfcPNi3KLiALIbvmLsDpn8=", "properties": {"@source_uri": "https://tools.usps.com/UspsToolsRestServices/rest/POLocator/findLocations", "@spider": "usps_collection_boxes", "addr:city": "GREENWOOD", "addr:country": "US", "addr:postcode": "19950", "addr:state": "DE", "addr:street_address": "2 E MARKET ST", "amenity": "post_box", "collection_times": "Mo-Fr 17:00; Sa 12:30", "indoor": "yes", "note": "ON 12/24 AND 12/31, THIS BOX MAY BE COLLECTED AS EARLY AS 12 NOON.", "nsi_id": "unitedstatespostalservice-a77078", "operator": "United States Postal Service", "operator:short": "USPS", "operator:type": "public", "operator:wikidata": "Q668687", "ref": "1995000005"}, "type": "Feature"}
{"geometry": {"coordinates": [-75.2844716041, 38.7250571443], "type": "Point"}, "id": "2-oI21uQ94GaS2T114lkti4RYss=", "properties": {"@source_uri": "https://tools.usps.com/UspsToolsRestServices/rest/POLocator/findLocations", "@spider": "usps_collection_boxes", "addr:city": "GEORGETOWN", "addr:country": "US", "addr:postcode": "19951", "addr:state": "DE", "addr:street_address": "26474 LEWES GEORGETOWN HWY", "amenity": "post_box", "collection_times": "Mo-Sa 12:00", "nsi_id": "unitedstatespostalservice-a77078", "operator": "United States Postal Service", "operator:short": "USPS", "operator:type": "public", "operator:wikidata": "Q668687", "ref": "1995100005"}, "type": "Feature"}
{"geometry": {"coordinates": [-75.280622018, 38.71946101], "type": "Point"}, "id": "VEdzW2pis_MSOmnUSeDI-1otybU=", "properties": {"@source_uri": "https://tools.usps.com/UspsToolsRestServices/rest/POLocator/findLocations", "@spider": "usps_collection_boxes", "addr:city": "GEORGETOWN", "addr:country": "US", "addr:postcode": "19951", "addr:state": "DE", "addr:street_address": "18865 HARBESON RD", "amenity": "post_box", "collection_times": "Mo-Fr 16:00; Sa 12:30", "note": "ON 12/24 AND 12/31, THIS BOX MAY BE COLLECTED AS EARLY AS 12 NOON.", "nsi_id": "unitedstatespostalservice-a77078", "operator": "United States Postal Service", "operator:short": "USPS", "operator:type": "public", "operator:wikidata": "Q668687", "ref": "1995100007"}, "type": "Feature"}
{"geometry": {"coordinates": [-75.280622018, 38.71946101], "type": "Point"}, "id": "jFdpq2mNT4_OPRz5zbivleytDtg=", "properties": {"@source_uri": "https://tools.usps.com/UspsToolsRestServices/rest/POLocator/findLocations", "@spider": "usps_collection_boxes", "addr:city": "GEORGETOWN", "addr:country": "US", "addr:postcode": "19951", "addr:state": "DE", "addr:street_address": "18865 HARBESON RD", "amenity": "post_box", "collection_times": "Mo-Fr 16:00; Sa 12:30", "indoor": "yes", "note": "ON 12/24 AND 12/31, THIS BOX MAY BE COLLECTED AS EARLY AS 12 NOON.", "nsi_id": "unitedstatespostalservice-a77078", "operator": "United States Postal Service", "operator:short": "USPS", "operator:type": "public", "operator:wikidata": "Q668687", "ref": "1995100008"}, "type": "Feature"}
{"geometry": {"coordinates": [-75.5777, 38.924143], "type": "Point"}, "id": "DBu-HxvDAEY0UtbyzH52Utg7SIw=", "properties": {"@source_uri": "https://tools.usps.com/UspsToolsRestServices/rest/POLocator/findLocations", "@spider": "usps_collection_boxes", "addr:city": "HARRINGTON", "addr:country": "US", "addr:postcode": "19952", "addr:state": "DE", "addr:street_address": "2 COMMERCE ST", "amenity": "post_box", "collection_times": "Mo-Fr 17:00; Sa 13:00", "note": "ON 12/24 AND 12/31, THIS BOX MAY BE COLLECTED AS EARLY AS 12 NOON.", "nsi_id": "unitedstatespostalservice-a77078", "operator": "United States Postal Service", "operator:short": "USPS", "operator:type": "public", "operator:wikidata": "Q668687", "ref": "1995200007"}, "type": "Feature"}
{"geometry": {"coordinates": [-75.577637, 38.924223], "type": "Point"}, "id": "Om9Ar5n2nf7ApeGff_ow-9-gHHk=", "properties": {"@source_uri": "https://tools.usps.com/UspsToolsRestServices/rest/POLocator/findLocations", "@spider": "usps_collection_boxes", "addr:city": "HARRINGTON", "addr:country": "US", "addr:postcode": "19952", "addr:state": "DE", "addr:street_address": "2 COMMERCE ST", "amenity": "post_box", "collection_times": "Mo-Fr 17:00; Sa 13:00", "indoor": "yes", "note": "ON 12/24 AND 12/31, THIS BOX MAY BE COLLECTED AS EARLY AS 12 NOON.", "nsi_id": "unitedstatespostalservice-a77078", "operator": "United States Postal Service", "operator:short": "USPS", "operator:type": "public", "operator:wikidata": "Q668687", "ref": "1995200010"}, "type": "Feature"}
{"geometry": {"coordinates": [-75.578087527, 38.9236797563], "type": "Point"}, "id": "Y3hwbL-uA7lSfmclZ1wVGK5nOlo=", "properties": {"@source_uri": "https://tools.usps.com/UspsToolsRestServices/rest/POLocator/findLocations", "@spider": "usps_collection_boxes", "addr:city": "HARRINGTON", "addr:country": "US", "addr:postcode": "19952", "addr:state": "DE", "addr:street_address": "2 COMMERCE ST", "amenity": "post_box", "collection_times": "Mo-Fr 17:00; Sa 12:30", "indoor": "yes", "note": "ON 12/24 AND 12/31, THIS BOX MAY BE COLLECTED AS EARLY AS 12 NOON.", "nsi_id": "unitedstatespostalservice-a77078", "operator": "United States Postal Service", "operator:short": "USPS", "operator:type": "public", "operator:wikidata": "Q668687", "ref": "1995200014"}, "type": "Feature"}
{"geometry": {"coordinates": [-75.71051, 39.166689], "type": "Point"}, "id": "7bMYN3h0K0sk_SySgsnp9gOJLAU=", "properties": {"@source_uri": "https://tools.usps.com/UspsToolsRestServices/rest/POLocator/findLocations", "@spider": "usps_collection_boxes", "addr:city": "HARTLY", "addr:country": "US", "addr:postcode": "19953", "addr:state": "DE", "addr:street_address": "223 MAIN ST", "amenity": "post_box", "collection_times": "Mo-Fr 16:30; Sa 11:30", "note": "ON 12/24 AND 12/31, THIS BOX MAY BE COLLECTED AS EARLY AS 12 NOON.", "nsi_id": "unitedstatespostalservice-a77078", "operator": "United States Postal Service", "operator:short": "USPS", "operator:type": "public", "operator:wikidata": "Q668687", "ref": "1995300000"}, "type": "Feature"}
{"geometry": {"coordinates": [-75.71051, 39.166689], "type": "Point"}, "id": "M8KW9BwVWtX0lm27d_1R4_uLUA8=", "properties": {"@source_uri": "https://tools.usps.com/UspsToolsRestServices/rest/POLocator/findLocations", "@spider": "usps_collection_boxes", "addr:city": "HARTLY", "addr:country": "US", "addr:postcode": "19953", "addr:state": "DE", "addr:street_address": "223 MAIN ST", "amenity": "post_box", "collection_times": "Mo-Fr 17:00; Sa 11:30", "indoor": "yes", "note": "ON 12/24 AND 12/31, THIS BOX MAY BE COLLECTED AS EARLY AS 12 NOON.", "nsi_id": "unitedstatespostalservice-a77078", "operator": "United States Postal Service", "operator:short": "USPS", "operator:type": "public", "operator:wikidata": "Q668687", "ref": "1995300001"}, "type": "Feature"}
{"geometry": {"coordinates": [-75.710804534, 39.166897452], "type": "Point"}, "id": "lmCe3aCkv46a9jPsueuAsFpBKkU=", "properties": {"@source_uri": "https://tools.usps.com/UspsToolsRestServices/rest/POLocator/findLocations", "@spider": "usps_collection_boxes", "addr:city": "HARTLY", "addr:country": "US", "addr:postcode": "19953", "addr:state": "DE", "addr:street_address": "223 MAIN ST", "amenity": "post_box", "collection_times": "Mo-Fr 17:00; Sa 11:30", "indoor": "yes", "note": "ON 12/24 AND 12/31, THIS BOX MAY BE COLLECTED AS EARLY AS 12 NOON.", "nsi_id": "unitedstatespostalservice-a77078", "operator": "United States Postal Service", "operator:short": "USPS", "operator:type": "public", "operator:wikidata": "Q668687", "ref": "1995300004"}, "type": "Feature"}
{"geometry": {"coordinates": [-75.504965, 38.917587], "type": "Point"}, "id": "MxF7rubYcVJvb8GwTQGuDnBbLus=", "properties": {"@source_uri": "https://tools.usps.com/UspsToolsRestServices/rest/POLocator/findLocations", "@spider": "usps_collection_boxes", "addr:city": "HOUSTON", "addr:country": "US", "addr:postcode": "19954", "addr:state": "DE", "addr:street_address": "156 BROAD ST", "amenity": "post_box", "collection_times": "Mo-Fr 16:30; Sa 10:00", "note": "ON 12/24 AND 12/31, THIS BOX MAY BE COLLECTED AS EARLY AS 12 NOON.", "nsi_id": "unitedstatespostalservice-a77078", "operator": "United States Postal Service", "operator:short": "USPS", "operator:type": "public", "operator:wikidata": "Q668687", "ref": "1995400000"}, "type": "Feature"}
{"geometry": {"coordinates": [-75.504995, 38.917503], "type": "Point"}, "id": "L9-ObFDFjc7RDRoCiHyTdZnqXvM=", "properties": {"@source_uri": "https://tools.usps.com/UspsToolsRestServices/rest/POLocator/findLocations", "@spider": "usps_collection_boxes", "addr:city": "HOUSTON", "addr:country": "US", "addr:postcode": "19954", "addr:state": "DE", "addr:street_address": "156 BROAD ST", "amenity": "post_box", "collection_times": "Mo-Fr 16:45; Sa 10:00", "indoor": "yes", "note": "ON 12/24 AND 12/31, THIS BOX MAY BE COLLECTED AS EARLY AS 12 NOON.", "nsi_id": "unitedstatespostalservice-a77078", "operator": "United States Postal Service", "operator:short": "USPS", "operator:type": "public", "operator:wikidata": "Q668687", "ref": "1995400001"}, "type": "Feature"}
{"geometry": {"coordinates": [-75.5049672882, 38.9176482048], "type": "Point"}, "id": "H45SRScEdCUlYqNivr92YHIn_oU=", "properties": {"@source_uri": "https://tools.usps.com/UspsToolsRestServices/rest/POLocator/findLocations", "@spider": "usps_collection_boxes", "addr:city": "HOUSTON", "addr:country": "US", "addr:postcode": "19954", "addr:state": "DE", "addr:street_address": "156 BROAD ST", "amenity": "post_box", "collection_times": "Mo-Fr 16:45; Sa 10:00", "indoor": "yes", "note": "ON 12/24 AND 12/31, THIS BOX MAY BE COLLECTED AS EARLY AS 12 NOON.", "nsi_id": "unitedstatespostalservice-a77078", "operator": "United States Postal Service", "operator:short": "USPS", "operator:type": "public", "operator:wikidata": "Q668687", "ref": "1995400004"}, "type": "Feature"}
{"geometry": {"coordinates": [-75.664488, 39.22675], "type": "Point"}, "id": "s2LiNpgQoaEMrVI4R7F8M0MJ0lE=", "properties": {"@source_uri": "https://tools.usps.com/UspsToolsRestServices/rest/POLocator/findLocations", "@spider": "usps_collection_boxes", "addr:city": "KENTON", "addr:country": "US", "addr:postcode": "19955", "addr:state": "DE", "addr:street_address": "24 FRAZIER ST", "amenity": "post_box", "collection_times": "Mo-Fr 16:30; Sa 11:30", "note": "ON 12/24 AND 12/31, THIS BOX MAY BE COLLECTED AS EARLY AS 12 NOON.", "nsi_id": "unitedstatespostalservice-a77078", "operator": "United States Postal Service", "operator:short": "USPS", "operator:type": "public", "operator:wikidata": "Q668687", "ref": "1995500000"}, "type": "Feature"}
{"geometry": {"coordinates": [-75.664534, 39.226816], "type": "Point"}, "id": "FwwiCvQ0ZtKftdjEE9E4jdokh4c=", "properties": {"@source_uri": "https://tools.usps.com/UspsToolsRestServices/rest/POLocator/findLocations", "@spider": "usps_collection_boxes", "addr:city": "KENTON", "addr:country": "US", "addr:postcode": "19955", "addr:state": "DE", "addr:street_address": "24 FRAZIER ST", "amenity": "post_box", "collection_times": "Mo-Fr 16:30; Sa 11:30", "indoor": "yes", "note": "ON 12/24 AND 12/31, THIS BOX MAY BE COLLECTED AS EARLY AS 12 NOON.", "nsi_id": "unitedstatespostalservice-a77078", "operator": "United States Postal Service", "operator:short": "USPS", "operator:type": "public", "operator:wikidata": "Q668687", "ref": "1995500001"}, "type": "Feature"}
{"geometry": {"coordinates": [-75.664356076, 39.22665451], "type": "Point"}, "id": "n6SlmIeWoUsM0LgKoWm1nYbG1JA=", "properties": {"@source_uri": "https://tools.usps.com/UspsToolsRestServices/rest/POLocator/findLocations", "@spider": "usps_collection_boxes", "addr:city": "KENTON", "addr:country": "US", "addr:postcode": "19955", "addr:state": "DE", "addr:street_address": "24 FRAZIER ST", "amenity": "post_box", "collection_times": "Mo-Fr 16:30; Sa 11:30", "indoor": "yes", "note": "ON 12/24 AND 12/31, THIS BOX MAY BE COLLECTED AS EARLY AS 12 NOON.", "nsi_id": "unitedstatespostalservice-a77078", "operator": "United States Postal Service", "operator:short": "USPS", "operator:type": "public", "operator:wikidata": "Q668687", "ref": "1995500004"}, "type": "Feature"}
{"geometry": {"coordinates": [-75.5758887, 38.589646], "type": "Point"}, "id": "CpdUvnee1sbL1W9PqNQBwAPEmuo=", "properties": {"@source_uri": "https://tools.usps.com/UspsToolsRestServices/rest/POLocator/findLocations", "@spider": "usps_collection_boxes", "addr:city": "LAUREL", "addr:country": "US", "addr:postcode": "19956", "addr:state": "DE", "addr:street_address": "10159 PALMETTO ST UNIT 1", "amenity": "post_box", "collection_times": "Mo-Sa 10:00", "nsi_id": "unitedstatespostalservice-a77078", "operator": "United States Postal Service", "operator:short": "USPS", "operator:type": "public", "operator:wikidata": "Q668687", "ref": "1995600011"}, "type": "Feature"}
{"geometry": {"coordinates": [-75.5685760153, 38.5474050131], "type": "Point"}, "id": "vmWNxwMsld0nKy_hmF6I9gngoxk=", "properties": {"@source_uri": "https://tools.usps.com/UspsToolsRestServices/rest/POLocator/findLocations", "@spider": "usps_collection_boxes", "addr:city": "LAUREL", "addr:country": "US", "addr:postcode": "19956", "addr:state": "DE", "addr:street_address": "1121 S CENTRAL AVE", "amenity": "post_box", "collection_times": "Mo-Fr 17:00; Sa 15:15", "note": "ON 12/24 AND 12/31, THIS BOX MAY BE COLLECTED AS EARLY AS 12 NOON.", "nsi_id": "unitedstatespostalservice-a77078", "operator": "United States Postal Service", "operator:short": "USPS", "operator:type": "public", "operator:wikidata": "Q668687", "ref": "1995600014"}, "type": "Feature"}
{"geometry": {"coordinates": [-75.569415, 38.548712], "type": "Point"}, "id": "Mkd5pQbroEM2lLUYRHOJox61JR0=", "properties": {"@source_uri": "https://tools.usps.com/UspsToolsRestServices/rest/POLocator/findLocations", "@spider": "usps_collection_boxes", "addr:city": "LAUREL", "addr:country": "US", "addr:postcode": "19956", "addr:state": "DE", "addr:street_address": "1121 S CENTRAL AVE", "amenity": "post_box", "collection_times": "Mo-Fr 17:00; Sa 15:15", "indoor": "yes", "note": "ON 12/24 AND 12/31, THIS BOX MAY BE COLLECTED AS EARLY AS 12 NOON.", "nsi_id": "unitedstatespostalservice-a77078", "operator": "United States Postal Service", "operator:short": "USPS", "operator:type": "public", "operator:wikidata": "Q668687", "ref": "1995600015"}, "type": "Feature"}
{"geometry": {"coordinates": [-75.569415, 38.548712], "type": "Point"}, "id": "qxeG0Gdo_uWB4KrZJlQrMWu82ck=", "properties": {"@source_uri": "https://tools.usps.com/UspsToolsRestServices/rest/POLocator/findLocations", "@spider": "usps_collection_boxes", "addr:city": "LAUREL", "addr:country": "US", "addr:postcode": "19956", "addr:state": "DE", "addr:street_address": "1121 S CENTRAL AVE", "amenity": "post_box", "collection_times": "Mo-Fr 17:00; Sa 15:15", "indoor": "yes", "note": "ON 12/24 AND 12/31, THIS BOX MAY BE COLLECTED AS EARLY AS 12 NOON.", "nsi_id": "unitedstatespostalservice-a77078", "operator": "United States Postal Service", "operator:short": "USPS", "operator:type": "public", "operator:wikidata": "Q668687", "ref": "1995600016"}, "type": "Feature"}
{"geometry": {"coordinates": [-75.5694088703, 38.5474234716], "type": "Point"}, "id": "2rSkweZ-VMeANs4GHi6-9tXYow4=", "properties": {"@source_uri": "https://tools.usps.com/UspsToolsRestServices/rest/POLocator/findLocations", "@spider": "usps_collection_boxes", "addr:city": "LAUREL", "addr:country": "US", "addr:postcode": "19956", "addr:state": "DE", "addr:street_address": "1121 S CENTRAL AVE", "amenity": "post_box", "collection_times": "Mo-Fr 17:00; Sa 13:00", "indoor": "yes", "note": "ON 12/24 AND 12/31, THIS BOX MAY BE COLLECTED AS EARLY AS 12 NOON.", "nsi_id": "unitedstatespostalservice-a77078", "operator": "United States Postal Service", "operator:short": "USPS", "operator:type": "public", "operator:wikidata": "Q668687", "ref": "1995600020"}, "type": "Feature"}
{"geometry": {"coordinates": [-75.1493637, 38.765741], "type": "Point"}, "id": "RImtA4N01W3gSTyp9WdXraMVH2k=", "properties": {"@source_uri": "https://tools.usps.com/UspsToolsRestServices/rest/POLocator/findLocations", "@spider": "usps_collection_boxes", "addr:city": "LEWES", "addr:country": "US", "addr:postcode": "19958", "addr:state": "DE", "addr:street_address": "1140 SAVANNAH RD", "amenity": "post_box", "collection_times": "Mo-Sa 13:30", "note": "ON 12/24 AND 12/31, THIS BOX MAY BE COLLECTED AS EARLY AS 12 NOON.", "nsi_id": "unitedstatespostalservice-a77078", "operator": "United States Postal Service", "operator:short": "USPS", "operator:type": "public", "operator:wikidata": "Q668687", "ref": "1995800004"}, "type": "Feature"}
{"geometry": {"coordinates": [-75.1910546, 38.750213], "type": "Point"}, "id": "LXlt8B4bi_eW2qjoc1lSvJwdPjE=", "properties": {"@source_uri": "https://tools.usps.com/UspsToolsRestServices/rest/POLocator/findLocations", "@spider": "usps_collection_boxes", "addr:city": "LEWES", "addr:country": "US", "addr:postcode": "19958", "addr:state": "DE", "addr:street_address": "32045 JANICE RD", "amenity": "post_box", "collection_times": "Mo-Sa 13:30", "note": "ON 12/24 AND 12/31, THIS BOX MAY BE COLLECTED AS EARLY AS 12 NOON.", "nsi_id": "unitedstatespostalservice-a77078", "operator": "United States Postal Service", "operator:short": "USPS", "operator:type": "public", "operator:wikidata": "Q668687", "ref": "1995800008"}, "type": "Feature"}
{"geometry": {"coordinates": [-75.1353769, 38.778411], "type": "Point"}, "id": "bxmo9cTcSfeu7K0VeI1cApi_oSg=", "properties": {"@source_uri": "https://tools.usps.com/UspsToolsRestServices/rest/POLocator/findLocations", "@spider": "usps_collection_boxes", "addr:city": "LEWES", "addr:country": "US", "addr:postcode": "19958", "addr:state": "DE", "addr:street_address": "420 E SAVANNAH RD", "amenity": "post_box", "collection_times": "Mo-Sa 14:00", "note": "ON 12/24 AND 12/31, THIS BOX MAY BE COLLECTED AS EARLY AS 12 NOON.", "nsi_id": "unitedstatespostalservice-a77078", "operator": "United States Postal Service", "operator:short": "USPS", "operator:type": "public", "operator:wikidata": "Q668687", "ref": "1995800009"}, "type": "Feature"}
{"geometry": {"coordinates": [-75.1429662, 38.770658], "type": "Point"}, "id": "jYxkPVxBmOuev1DCHBoLyo1y3xM=", "properties": {"@source_uri": "https://tools.usps.com/UspsToolsRestServices/rest/POLocator/findLocations", "@spider": "usps_collection_boxes", "addr:city": "LEWES", "addr:country": "US", "addr:postcode": "19958", "addr:state": "DE", "addr:street_address": "441 SAVANNAH RD", "amenity": "post_box", "collection_times": "Mo-Sa 13:45", "note": "ON 12/24 AND 12/31, THIS BOX MAY BE COLLECTED AS EARLY AS 12 NOON.", "nsi_id": "unitedstatespostalservice-a77078", "operator": "United States Postal Service", "operator:short": "USPS", "operator:type": "public", "operator:wikidata": "Q668687", "ref": "1995800010"}, "type": "Feature"}
{"geometry": {"coordinates": [-75.1701004, 38.699796], "type": "Point"}, "id": "sThwU5X0_I_9XGRirdfj4Oe4fUM=", "properties": {"@source_uri": "https://tools.usps.com/UspsToolsRestServices/rest/POLocator/findLocations", "@spider": "usps_collection_boxes", "addr:city": "LEWES", "addr:country": "US", "addr:postcode": "19958", "addr:state": "DE", "addr:street_address": "20750 JOHN J WILLIAMS HWY", "amenity": "post_box", "collection_times": "Mo-Sa 11:00", "nsi_id": "unitedstatespostalservice-a77078", "operator": "United States Postal Service", "operator:short": "USPS", "operator:type": "public", "operator:wikidata": "Q668687", "ref": "1995800013"}, "type": "Feature"}
{"geometry": {"coordinates": [-75.1704308, 38.7360619], "type": "Point"}, "id": "8D7NhDAMTYOz7j6Sr3rnU1nM0pQ=", "properties": {"@source_uri": "https://tools.usps.com/UspsToolsRestServices/rest/POLocator/findLocations", "@spider": "usps_collection_boxes", "addr:city": "LEWES", "addr:country": "US", "addr:postcode": "19958", "addr:state": "DE", "addr:street_address": "116 FRONT ST", "amenity": "post_box", "collection_times": "Mo-Fr 17:00; Sa 14:00", "note": "ON 12/24 AND 12/31, THIS BOX MAY BE COLLECTED AS EARLY AS 12 NOON.", "nsi_id": "unitedstatespostalservice-a77078", "operator": "United States Postal Service", "operator:short": "USPS", "operator:type": "public", "operator:wikidata": "Q668687", "ref": "1995800015"}, "type": "Feature"}
{"geometry": {"coordinates": [-75.1666806, 38.671606], "type": "Point"}, "id": "RuLl_ktx4rPzAJ3GH1O8HsRTkIs=", "properties": {"@source_uri": "https://tools.usps.com/UspsToolsRestServices/rest/POLocator/findLocations", "@spider": "usps_collection_boxes", "addr:city": "LEWES", "addr:country": "US", "addr:postcode": "19958", "addr:state": "DE", "addr:street_address": "22971 SUBURBAN BLVD", "amenity": "post_box", "collection_times": "Mo-Sa 10:00", "nsi_id": "unitedstatespostalservice-a77078", "operator": "United States Postal Service", "operator:short": "USPS", "operator:type": "public", "operator:wikidata": "Q668687", "ref": "1995800017"}, "type": "Feature"}
{"geometry": {"coordinates": [-75.139024, 38.775824], "type": "Point"}, "id": "4OoA_1yswXMl5tMgoYYVpoMOxx0=", "properties": {"@source_uri": "https://tools.usps.com/UspsToolsRestServices/rest/POLocator/findLocations", "@spider": "usps_collection_boxes", "addr:city": "LEWES", "addr:country": "US", "addr:postcode": "19958", "addr:state": "DE", "addr:street_address": "116 FRONT ST", "amenity": "post_box", "collection_times": "Mo-Fr 17:00; Sa 12:15", "indoor": "yes", "note": "ON 12/24 AND 12/31, THIS BOX MAY BE COLLECTED AS EARLY AS 12 NOON.", "nsi_id": "unitedstatespostalservice-a77078", "operator": "United States Postal Service", "operator:short": "USPS", "operator:type": "public", "operator:wikidata": "Q668687", "ref": "1995800019"}, "type": "Feature"}
{"geometry": {"coordinates": [-75.139024, 38.775824], "type": "Point"}, "id": "kZxyJ3kTsx-42hzveElX3C-OTCc=", "properties": {"@source_uri": "https://tools.usps.com/UspsToolsRestServices/rest/POLocator/findLocations", "@spider": "usps_collection_boxes", "addr:city": "LEWES", "addr:country": "US", "addr:postcode": "19958", "addr:state": "DE", "addr:street_address": "116 FRONT ST", "amenity": "post_box", "collection_times": "Mo-Fr 17:00; Sa 12:15", "indoor": "yes", "note": "ON 12/24 AND 12/31, THIS BOX MAY BE COLLECTED AS EARLY AS 12 NOON.", "nsi_id": "unitedstatespostalservice-a77078", "operator": "United States Postal Service", "operator:short": "USPS", "operator:type": "public", "operator:wikidata": "Q668687", "ref": "1995800021"}, "type": "Feature"}
{"geometry": {"coordinates": [-75.139024, 38.775824], "type": "Point"}, "id": "CmY6X2dIRp0snFfznYSBcW2DMrk=", "properties": {"@source_uri": "https://tools.usps.com/UspsToolsRestServices/rest/POLocator/findLocations", "@spider": "usps_collection_boxes", "addr:city": "LEWES", "addr:country": "US", "addr:postcode": "19958", "addr:state": "DE", "addr:street_address": "116 FRONT ST", "amenity": "post_box", "collection_times": "Mo-Fr 17:00; Sa 12:15", "indoor": "yes", "note": "ON 12/24 AND 12/31, THIS BOX MAY BE COLLECTED AS EARLY AS 12 NOON.", "nsi_id": "unitedstatespostalservice-a77078", "operator": "United States Postal Service", "operator:short": "USPS", "operator:type": "public", "operator:wikidata": "Q668687", "ref": "1995800022"}, "type": "Feature"}
{"geometry": {"coordinates": [-75.139023467, 38.775819322], "type": "Point"}, "id": "aY4-ix2e0UfCzMalCYuw_V-TonU=", "properties": {"@source_uri": "https://tools.usps.com/UspsToolsRestServices/rest/POLocator/findLocations", "@spider": "usps_collection_boxes", "addr:city": "LEWES", "addr:country": "US", "addr:postcode": "19958", "addr:state": "DE", "addr:street_address": "116 FRONT ST STE 1", "amenity": "post_box", "collection_times": "Mo-Fr 17:00; Sa 12:30", "indoor": "yes", "note": "ON 12/24 AND 12/31, THIS BOX MAY BE COLLECTED AS EARLY AS 12 NOON.", "nsi_id": "unitedstatespostalservice-a77078", "operator": "United States Postal Service", "operator:short": "USPS", "operator:type": "public", "operator:wikidata": "Q668687", "ref": "1995800029"}, "type": "Feature"}
{"geometry": {"coordinates": [-75.423569, 38.870498], "type": "Point"}, "id": "0Q6ynWEjnxTKhIj7CJq5uxZCHPs=", "properties": {"@source_uri": "https://tools.usps.com/UspsToolsRestServices/rest/POLocator/findLocations", "@spider": "usps_collection_boxes", "addr:city": "LINCOLN", "addr:country": "US", "addr:postcode": "19960", "addr:state": "DE", "addr:street_address": "8419 FRONT ST", "amenity": "post_box", "collection_times": "Mo-Fr 16:30; Sa 12:00", "note": "ON 12/24 AND 12/31, THIS BOX MAY BE COLLECTED AS EARLY AS 12 NOON.", "nsi_id": "unitedstatespostalservice-a77078", "operator": "United States Postal Service", "operator:short": "USPS", "operator:type": "public", "operator:wikidata": "Q668687", "ref": "1996000000"}, "type": "Feature"}
{"geometry": {"coordinates": [-75.423604, 38.870503], "type": "Point"}, "id": "rthJYqHdSsIwS1lqKms6pKl4ybc=", "properties": {"@source_uri": "https://tools.usps.com/UspsToolsRestServices/rest/POLocator/findLocations", "@spider": "usps_collection_boxes", "addr:city": "LINCOLN", "addr:country": "US", "addr:postcode": "19960", "addr:state": "DE", "addr:street_address": "8419 FRONT ST", "amenity": "post_box", "collection_times": "Mo-Fr 17:00; Sa 12:30", "indoor": "yes", "note": "ON 12/24 AND 12/31, THIS BOX MAY BE COLLECTED AS EARLY AS 12 NOON.", "nsi_id": "unitedstatespostalservice-a77078", "operator": "United States Postal Service", "operator:short": "USPS", "operator:type": "public", "operator:wikidata": "Q668687", "ref": "1996000002"}, "type": "Feature"}
{"geometry": {"coordinates": [-75.423604, 38.870503], "type": "Point"}, "id": "1AUfqOWCCLTzKP044lnL7gISpEM=", "properties": {"@source_uri": "https://tools.usps.com/UspsToolsRestServices/rest/POLocator/findLocations", "@spider": "usps_collection_boxes", "addr:city": "LINCOLN", "addr:country": "US", "addr:postcode": "19960", "addr:state": "DE", "addr:street_address": "8419 FRONT ST", "amenity": "post_box", "collection_times": "Mo-Fr 17:00; Sa 12:30", "indoor": "yes", "note": "ON 12/24 AND 12/31, THIS BOX MAY BE COLLECTED AS EARLY AS 12 NOON.", "nsi_id": "unitedstatespostalservice-a77078", "operator": "United States Postal Service", "operator:short": "USPS", "operator:type": "public", "operator:wikidata": "Q668687", "ref": "1996000003"}, "type": "Feature"}
{"geometry": {"coordinates": [-75.423577675, 38.870667251], "type": "Point"}, "id": "mAmEhDBAJcvn3YesnoDN8Y-RRcE=", "properties": {"@source_uri": "https://tools.usps.com/UspsToolsRestServices/rest/POLocator/findLocations", "@spider": "usps_collection_boxes", "addr:city": "LINCOLN", "addr:country": "US", "addr:postcode": "19960", "addr:state": "DE", "addr:street_address": "8419 FRONT ST", "amenity": "post_box", "collection_times": "Mo-Fr 17:00; Sa 12:00", "indoor": "yes", "note": "ON 12/24 AND 12/31, THIS BOX MAY BE COLLECTED AS EARLY AS 12 NOON.", "nsi_id": "unitedstatespostalservice-a77078", "operator": "United States Postal Service", "operator:short": "USPS", "operator:type": "public", "operator:wikidata": "Q668687", "ref": "1996000006"}, "type": "Feature"}
{"geometry": {"coordinates": [-75.448224, 39.166775], "type": "Point"}, "id": "skR_Ns0cVOWVa8PucGbTfrfOYSE=", "properties": {"@source_uri": "https://tools.usps.com/UspsToolsRestServices/rest/POLocator/findLocations", "@spider": "usps_collection_boxes", "addr:city": "LITTLE CREEK", "addr:country": "US", "addr:postcode": "19961", "addr:state": "DE", "addr:street_address": "458 MAIN ST", "amenity": "post_box", "collection_times": "Mo-Fr 15:45; Sa 11:00", "note": "ON 12/24 AND 12/31, THIS BOX MAY BE COLLECTED AS EARLY AS 12 NOON.", "nsi_id": "unitedstatespostalservice-a77078", "operator": "United States Postal Service", "operator:short": "USPS", "operator:type": "public", "operator:wikidata": "Q668687", "ref": "1996100000"}, "type": "Feature"}
{"geometry": {"coordinates": [-75.448263, 39.166783], "type": "Point"}, "id": "ZntLcI1oscWtOJ0m-VMgmc3UFhc=", "properties": {"@source_uri": "https://tools.usps.com/UspsToolsRestServices/rest/POLocator/findLocations", "@spider": "usps_collection_boxes", "addr:city": "LITTLE CREEK", "addr:country": "US", "addr:postcode": "19961", "addr:state": "DE", "addr:street_address": "458 MAIN ST", "amenity": "post_box", "collection_times": "Mo-Fr 16:15; Sa 11:45", "indoor": "yes", "note": "ON 12/24 AND 12/31, THIS BOX MAY BE COLLECTED AS EARLY AS 12 NOON.", "nsi_id": "unitedstatespostalservice-a77078", "operator": "United States Postal Service", "operator:short": "USPS", "operator:type": "public", "operator:wikidata": "Q668687", "ref": "1996100001"}, "type": "Feature"}
{"geometry": {"coordinates": [-75.448160636, 39.166599803], "type": "Point"}, "id": "YNksYrIDe4pl7B4afhdBZqsUCus=", "properties": {"@source_uri": "https://tools.usps.com/UspsToolsRestServices/rest/POLocator/findLocations", "@spider": "usps_collection_boxes", "addr:city": "LITTLE CREEK", "addr:country": "US", "addr:postcode": "19961", "addr:state": "DE", "addr:street_address": "458 MAIN ST", "amenity": "post_box", "collection_times": "Mo-Fr 16:15; Sa 11:30", "indoor": "yes", "note": "ON 12/24 AND 12/31, THIS BOX MAY BE COLLECTED AS EARLY AS 12 NOON.", "nsi_id": "unitedstatespostalservice-a77078", "operator": "United States Postal Service", "operator:short": "USPS", "operator:type": "public", "operator:wikidata": "Q668687", "ref": "1996100004"}, "type": "Feature"}
{"geometry": {"coordinates": [-75.4765061, 39.072149], "type": "Point"}, "id": "wVpqhXWxVFS710_Ryzs9tbO5Dqk=", "properties": {"@source_uri": "https://tools.usps.com/UspsToolsRestServices/rest/POLocator/findLocations", "@spider": "usps_collection_boxes", "addr:city": "MAGNOLIA", "addr:country": "US", "addr:postcode": "19962", "addr:state": "DE", "addr:street_address": "8 N MAIN ST", "amenity": "post_box", "collection_times": "Mo-Fr 16:30; Sa 12:30", "note": "ON 12/24 AND 12/31, THIS BOX MAY BE COLLECTED AS EARLY AS 12 NOON.", "nsi_id": "unitedstatespostalservice-a77078", "operator": "United States Postal Service", "operator:short": "USPS", "operator:type": "public", "operator:wikidata": "Q668687", "ref": "1996200000"}, "type": "Feature"}
{"geometry": {"coordinates": [-75.476383, 39.072161], "type": "Point"}, "id": "IL-6Y4Ohkn-RQLA-yvn7mMBrp5s=", "properties": {"@source_uri": "https://tools.usps.com/UspsToolsRestServices/rest/POLocator/findLocations", "@spider": "usps_collection_boxes", "addr:city": "MAGNOLIA", "addr:country": "US", "addr:postcode": "19962", "addr:state": "DE", "addr:street_address": "8 N MAIN ST", "amenity": "post_box", "collection_times": "Mo-Fr 16:30; Sa 12:30", "indoor": "yes", "note": "ON 12/24 AND 12/31, THIS BOX MAY BE COLLECTED AS EARLY AS 12 NOON.", "nsi_id": "unitedstatespostalservice-a77078", "operator": "United States Postal Service", "operator:short": "USPS", "operator:type": "public", "operator:wikidata": "Q668687", "ref": "1996200001"}, "type": "Feature"}
{"geometry": {"coordinates": [-75.476486699, 39.072028379], "type": "Point"}, "id": "Nw6DyLUx0K-z-AY_ARKdBcoGqPw=", "properties": {"@source_uri": "https://tools.usps.com/UspsToolsRestServices/rest/POLocator/findLocations", "@spider": "usps_collection_boxes", "addr:city": "MAGNOLIA", "addr:country": "US", "addr:postcode": "19962", "addr:state": "DE", "addr:street_address": "8 N MAIN ST", "amenity": "post_box", "collection_times": "Mo-Fr 16:30; Sa 12:00", "indoor": "yes", "note": "ON 12/24 AND 12/31, THIS BOX MAY BE COLLECTED AS EARLY AS 12 NOON.", "nsi_id": "unitedstatespostalservice-a77078", "operator": "United States Postal Service", "operator:short": "USPS", "operator:type": "public", "operator:wikidata": "Q668687", "ref": "1996200004"}, "type": "Feature"}
{"geometry": {"coordinates": [-75.430984, 38.911585], "type": "Point"}, "id": "qyDmutY9k87pCERU3ITuUQPHjBA=", "properties": {"@source_uri": "https://tools.usps.com/UspsToolsRestServices/rest/POLocator/findLocations", "@spider": "usps_collection_boxes", "addr:city": "MILFORD", "addr:country": "US", "addr:postcode": "19963", "addr:state": "DE", "addr:street_address": "110 CAUSEY AVE", "amenity": "post_box", "collection_times": "Mo-Fr 17:00; Sa 15:30", "note": "ON 12/24 AND 12/31, THIS BOX MAY BE COLLECTED AS EARLY AS 12 NOON.", "nsi_id": "unitedstatespostalservice-a77078", "operator": "United States Postal Service", "operator:short": "USPS", "operator:type": "public", "operator:wikidata": "Q668687", "ref": "1996300000"}, "type": "Feature"}
{"geometry": {"coordinates": [-75.4280864, 38.911452], "type": "Point"}, "id": "FETfyHHduxlR6oMq3ir0lOlWEQ4=", "properties": {"@source_uri": "https://tools.usps.com/UspsToolsRestServices/rest/POLocator/findLocations", "@spider": "usps_collection_boxes", "addr:city": "MILFORD", "addr:country": "US", "addr:postcode": "19963", "addr:state": "DE", "addr:street_address": "201 S WALNUT ST", "amenity": "post_box", "collection_times": "Mo-Sa 09:00", "nsi_id": "unitedstatespostalservice-a77078", "operator": "United States Postal Service", "operator:short": "USPS", "operator:type": "public", "operator:wikidata": "Q668687", "ref": "1996300001"}, "type": "Feature"}
{"geometry": {"coordinates": [-75.4283576, 38.914569], "type": "Point"}, "id": "zj0WBIpumaZ10bYZ5G2HL3LBB0U=", "properties": {"@source_uri": "https://tools.usps.com/UspsToolsRestServices/rest/POLocator/findLocations", "@spider": "usps_collection_boxes", "addr:city": "MILFORD", "addr:country": "US", "addr:postcode": "19963", "addr:state": "DE", "addr:street_address": "1 NW FRONT ST", "amenity": "post_box", "collection_times": "Mo-Sa 11:00", "nsi_id": "unitedstatespostalservice-a77078", "operator": "United States Postal Service", "operator:short": "USPS", "operator:type": "public", "operator:wikidata": "Q668687", "ref": "1996300004"}, "type": "Feature"}
{"geometry": {"coordinates": [-75.4288809, 38.895378], "type": "Point"}, "id": "5M-UPTM8I2wbW7Z6mIPz6PhwAq8=", "properties": {"@source_uri": "https://tools.usps.com/UspsToolsRestServices/rest/POLocator/findLocations", "@spider": "usps_collection_boxes", "addr:city": "MILFORD", "addr:country": "US", "addr:postcode": "19963", "addr:state": "DE", "addr:street_address": "1029 S WALNUT ST", "amenity": "post_box", "collection_times": "Mo-Sa 12:00", "nsi_id": "unitedstatespostalservice-a77078", "operator": "United States Postal Service", "operator:short": "USPS", "operator:type": "public", "operator:wikidata": "Q668687", "ref": "1996300007"}, "type": "Feature"}
{"geometry": {"coordinates": [-75.4283034, 38.92642], "type": "Point"}, "id": "Fla_LEh8YBUcZafa_WwLdo9lNJk=", "properties": {"@source_uri": "https://tools.usps.com/UspsToolsRestServices/rest/POLocator/findLocations", "@spider": "usps_collection_boxes", "addr:city": "MILFORD", "addr:country": "US", "addr:postcode": "19963", "addr:state": "DE", "addr:street_address": "915 N WALNUT ST", "amenity": "post_box", "collection_times": "Mo-Sa 11:30", "nsi_id": "unitedstatespostalservice-a77078", "operator": "United States Postal Service", "operator:short": "USPS", "operator:type": "public", "operator:wikidata": "Q668687", "ref": "1996300008"}, "type": "Feature"}
{"geometry": {"coordinates": [-75.4432799, 38.917631], "type": "Point"}, "id": "_QhhpRNxnaJiI5KrFoKAZDM1-lM=", "properties": {"@source_uri": "https://tools.usps.com/UspsToolsRestServices/rest/POLocator/findLocations", "@spider": "usps_collection_boxes", "addr:city": "MILFORD", "addr:country": "US", "addr:postcode": "19963", "addr:state": "DE", "addr:street_address": "615 N DUPONT BLVD", "amenity": "post_box", "collection_times": "Mo-Sa 09:30", "nsi_id": "unitedstatespostalservice-a77078", "operator": "United States Postal Service", "operator:short": "USPS", "operator:type": "public", "operator:wikidata": "Q668687", "ref": "1996300009"}, "type": "Feature"}
{"geometry": {"coordinates": [-75.4397766, 38.917165], "type": "Point"}, "id": "TCAGqX0Vo_5kGRef5pjff03_NWc=", "properties": {"@source_uri": "https://tools.usps.com/UspsToolsRestServices/rest/POLocator/findLocations", "@spider": "usps_collection_boxes", "addr:city": "MILFORD", "addr:country": "US", "addr:postcode": "19963", "addr:state": "DE", "addr:street_address": "658 N DUPONT BLVD", "amenity": "post_box", "collection_times": "Mo-Sa 09:30", "nsi_id": "unitedstatespostalservice-a77078", "operator": "United States Postal Service", "operator:short": "USPS", "operator:type": "public", "operator:wikidata": "Q668687", "ref": "1996300010"}, "type": "Feature"}
{"geometry": {"coordinates": [-75.436245, 38.92968], "type": "Point"}, "id": "d0hgtBsmqQ8MGVYVhYzs-3uxAU0=", "properties": {"@source_uri": "https://tools.usps.com/UspsToolsRestServices/rest/POLocator/findLocations", "@spider": "usps_collection_boxes", "addr:city": "MILFORD", "addr:country": "US", "addr:postcode": "19963", "addr:state": "DE", "addr:street_address": "939 N DUPONT BLVD", "amenity": "post_box", "collection_times": "Mo-Sa 11:00", "nsi_id": "unitedstatespostalservice-a77078", "operator": "United States Postal Service", "operator:short": "USPS", "operator:type": "public", "operator:wikidata": "Q668687", "ref": "1996300012"}, "type": "Feature"}
{"geometry": {"coordinates": [-75.416479, 38.930345], "type": "Point"}, "id": "xuLrdem81yMW1lHDw1urmDTmN14=", "properties": {"@source_uri": "https://tools.usps.com/UspsToolsRestServices/rest/POLocator/findLocations", "@spider": "usps_collection_boxes", "addr:city": "MILFORD", "addr:country": "US", "addr:postcode": "19963", "addr:state": "DE", "addr:street_address": "40 S MAPLE AVE", "amenity": "post_box", "collection_times": "Mo-Fr 16:30; Sa 15:30", "note": "ON 12/24 AND 12/31, THIS BOX MAY BE COLLECTED AS EARLY AS 12 NOON.", "nsi_id": "unitedstatespostalservice-a77078", "operator": "United States Postal Service", "operator:short": "USPS", "operator:type": "public", "operator:wikidata": "Q668687", "ref": "1996300014"}, "type": "Feature"}
{"geometry": {"coordinates": [-75.430903, 38.911628], "type": "Point"}, "id": "CH717ofe6x-2XV07Y4ER_MiBu0Y=", "properties": {"@source_uri": "https://tools.usps.com/UspsToolsRestServices/rest/POLocator/findLocations", "@spider": "usps_collection_boxes", "addr:city": "MILFORD", "addr:country": "US", "addr:postcode": "19963", "addr:state": "DE", "addr:street_address": "110 CAUSEY AVE", "amenity": "post_box", "collection_times": "Mo-Fr 17:00; Sa 15:30", "indoor": "yes", "note": "ON 12/24 AND 12/31, THIS BOX MAY BE COLLECTED AS EARLY AS 12 NOON.", "nsi_id": "unitedstatespostalservice-a77078", "operator": "United States Postal Service", "operator:short": "USPS", "operator:type": "public", "operator:wikidata": "Q668687", "ref": "1996300017"}, "type": "Feature"}
{"geometry": {"coordinates": [-75.431916777, 38.91135813], "type": "Point"}, "id": "B4_3SuKtTB23yZVFooer8bZC0pI=", "properties": {"@source_uri": "https://tools.usps.com/UspsToolsRestServices/rest/POLocator/findLocations", "@spider": "usps_collection_boxes", "addr:city": "MILFORD", "addr:country": "US", "addr:postcode": "19963", "addr:state": "DE", "addr:street_address": "110 CAUSEY AVE", "amenity": "post_box", "collection_times": "Mo-Fr 17:00; Sa 13:00", "indoor": "yes", "note": "ON 12/24 AND 12/31, THIS BOX MAY BE COLLECTED AS EARLY AS 12 NOON.", "nsi_id": "unitedstatespostalservice-a77078", "operator": "United States Postal Service", "operator:short": "USPS", "operator:type": "public", "operator:wikidata": "Q668687", "ref": "1996300024"}, "type": "Feature"}
{"geometry": {"coordinates": [-75.1350206, 38.622068], "type": "Point"}, "id": "AoTCtfUB5SSMO_Y9jWal3FB8HxI=", "properties": {"@source_uri": "https://tools.usps.com/UspsToolsRestServices/rest/POLocator/findLocations", "@spider": "usps_collection_boxes", "addr:city": "MILLSBORO", "addr:country": "US", "addr:postcode": "19966", "addr:state": "DE", "addr:street_address": "34792 LONG NECK RD UNIT 3", "amenity": "post_box", "collection_times": "Mo-Sa 11:00", "nsi_id": "unitedstatespostalservice-a77078", "operator": "United States Postal Service", "operator:short": "USPS", "operator:type": "public", "operator:wikidata": "Q668687", "ref": "1996600001"}, "type": "Feature"}
{"geometry": {"coordinates": [-75.1806394, 38.632697], "type": "Point"}, "id": "6i4Crx0sZtZujit1xKFsXGYmf1g=", "properties": {"@source_uri": "https://tools.usps.com/UspsToolsRestServices/rest/POLocator/findLocations", "@spider": "usps_collection_boxes", "addr:city": "MILLSBORO", "addr:country": "US", "addr:postcode": "19966", "addr:state": "DE", "addr:street_address": "32369 LONG NECK RD UNIT 15", "amenity": "post_box", "collection_times": "Mo-Sa 11:30", "nsi_id": "unitedstatespostalservice-a77078", "operator": "United States Postal Service", "operator:short": "USPS", "operator:type": "public", "operator:wikidata": "Q668687", "ref": "1996600002"}, "type": "Feature"}
{"geometry": {"coordinates": [-75.292312, 38.589769], "type": "Point"}, "id": "KARDgBk2ZyjBmvvlmNwf3Y-5_lE=", "properties": {"@source_uri": "https://tools.usps.com/UspsToolsRestServices/rest/POLocator/findLocations", "@spider": "usps_collection_boxes", "addr:city": "MILLSBORO", "addr:country": "US", "addr:postcode": "19966", "addr:state": "DE", "addr:street_address": "100 MAIN ST", "amenity": "post_box", "collection_times": "Mo-Fr 16:45; Sa 15:15", "note": "ON 12/24 AND 12/31, THIS BOX MAY BE COLLECTED AS EARLY AS 12 NOON.", "nsi_id": "unitedstatespostalservice-a77078", "operator": "United States Postal Service", "operator:short": "USPS", "operator:type": "public", "operator:wikidata": "Q668687", "ref": "1996600005"}, "type": "Feature"}
{"geometry": {"coordinates": [-75.292312, 38.589769], "type": "Point"}, "id": "XAIOnCC2_SZaTT2S_UsXMLjC2mI=", "properties": {"@source_uri": "https://tools.usps.com/UspsToolsRestServices/rest/POLocator/findLocations", "@spider": "usps_collection_boxes", "addr:city": "MILLSBORO", "addr:country": "US", "addr:postcode": "19966", "addr:state": "DE", "addr:street_address": "100 MAIN ST", "amenity": "post_box", "collection_times": "Mo-Fr 16:45; Sa 15:15", "indoor": "yes", "note": "ON 12/24 AND 12/31, THIS BOX MAY BE COLLECTED AS EARLY AS 12 NOON.", "nsi_id": "unitedstatespostalservice-a77078", "operator": "United States Postal Service", "operator:short": "USPS", "operator:type": "public", "operator:wikidata": "Q668687", "ref": "1996600006"}, "type": "Feature"}
{"geometry": {"coordinates": [-75.292598072, 38.589417819], "type": "Point"}, "id": "7_Q7QjhSSHFeOlBcSKzPBCoQQrc=", "properties": {"@source_uri": "https://tools.usps.com/UspsToolsRestServices/rest/POLocator/findLocations", "@spider": "usps_collection_boxes", "addr:city": "MILLSBORO", "addr:country": "US", "addr:postcode": "19966", "addr:state": "DE", "addr:street_address": "100 MAIN ST", "amenity": "post_box", "collection_times": "Mo-Fr 17:00; Sa 13:00", "indoor": "yes", "note": "ON 12/24 AND 12/31, THIS BOX MAY BE COLLECTED AS EARLY AS 12 NOON.", "nsi_id": "unitedstatespostalservice-a77078", "operator": "United States Postal Service", "operator:short": "USPS", "operator:type": "public", "operator:wikidata": "Q668687", "ref": "1996600009"}, "type": "Feature"}
{"geometry": {"coordinates": [-75.101846045, 38.542855622], "type": "Point"}, "id": "8TTsnCz-6zacNOWwksSqk2NKS8M=", "properties": {"@source_uri": "https://tools.usps.com/UspsToolsRestServices/rest/POLocator/findLocations", "@spider": "usps_collection_boxes", "addr:city": "OCEAN VIEW", "addr:country": "US", "addr:postcode": "19967", "addr:state": "DE", "addr:street_address": "32782 CEDAR DR", "amenity": "post_box", "collection_times": "Mo-Sa 11:00", "nsi_id": "unitedstatespostalservice-a77078", "operator": "United States Postal Service", "operator:short": "USPS", "operator:type": "public", "operator:wikidata": "Q668687", "ref": "1996700001"}, "type": "Feature"}
{"geometry": {"coordinates": [-75.1077999, 38.545666], "type": "Point"}, "id": "NFZkkLR2wcJ8do3GGhUK2TU9IUE=", "properties": {"@source_uri": "https://tools.usps.com/UspsToolsRestServices/rest/POLocator/findLocations", "@spider": "usps_collection_boxes", "addr:city": "OCEAN VIEW", "addr:country": "US", "addr:postcode": "19967", "addr:state": "DE", "addr:street_address": "220 ATLANTIC AVE", "amenity": "post_box", "collection_times": "Mo-Sa 11:00", "nsi_id": "unitedstatespostalservice-a77078", "operator": "United States Postal Service", "operator:short": "USPS", "operator:type": "public", "operator:wikidata": "Q668687", "ref": "1996700002"}, "type": "Feature"}
{"geometry": {"coordinates": [-75.320602, 38.787667], "type": "Point"}, "id": "PShZaIp5o8mlQuamH_41uA4jeFo=", "properties": {"@source_uri": "https://tools.usps.com/UspsToolsRestServices/rest/POLocator/findLocations", "@spider": "usps_collection_boxes", "addr:city": "MILTON", "addr:country": "US", "addr:postcode": "19968", "addr:state": "DE", "addr:street_address": "219 MILTON ELLENDALE HWY", "amenity": "post_box", "collection_times": "Mo-Fr 17:00; Sa 12:00", "note": "ON 12/24 AND 12/31, THIS BOX MAY BE COLLECTED AS EARLY AS 12 NOON.", "nsi_id": "unitedstatespostalservice-a77078", "operator": "United States Postal Service", "operator:short": "USPS", "operator:type": "public", "operator:wikidata": "Q668687", "ref": "1996800000"}, "type": "Feature"}
{"geometry": {"coordinates": [-75.320494, 38.787701], "type": "Point"}, "id": "u_zZm7ielYxkjtYbzI_9Rws443E=", "properties": {"@source_uri": "https://tools.usps.com/UspsToolsRestServices/rest/POLocator/findLocations", "@spider": "usps_collection_boxes", "addr:city": "MILTON", "addr:country": "US", "addr:postcode": "19968", "addr:state": "DE", "addr:street_address": "219 MILTON ELLENDALE HWY", "amenity": "post_box", "collection_times": "Mo-Fr 17:00; Sa 12:00", "indoor": "yes", "note": "ON 12/24 AND 12/31, THIS BOX MAY BE COLLECTED AS EARLY AS 12 NOON.", "nsi_id": "unitedstatespostalservice-a77078", "operator": "United States Postal Service", "operator:short": "USPS", "operator:type": "public", "operator:wikidata": "Q668687", "ref": "1996800007"}, "type": "Feature"}
{"geometry": {"coordinates": [-75.3201515384, 38.7876845234], "type": "Point"}, "id": "xHOFVp3lYg7vUj_ejdgqIuIh49A=", "properties": {"@source_uri": "https://tools.usps.com/UspsToolsRestServices/rest/POLocator/findLocations", "@spider": "usps_collection_boxes", "addr:city": "MILTON", "addr:country": "US", "addr:postcode": "19968", "addr:state": "DE", "addr:street_address": "219 MILTON ELLENDALE HWY", "amenity": "post_box", "collection_times": "Mo-Fr 17:00; Sa 12:00", "indoor": "yes", "note": "ON 12/24 AND 12/31, THIS BOX MAY BE COLLECTED AS EARLY AS 12 NOON.", "nsi_id": "unitedstatespostalservice-a77078", "operator": "United States Postal Service", "operator:short": "USPS", "operator:type": "public", "operator:wikidata": "Q668687", "ref": "1996800010"}, "type": "Feature"}
{"geometry": {"coordinates": [-75.169956, 38.748675], "type": "Point"}, "id": "4wJIYqj1ftmJ5uu49gszVggY6HY=", "properties": {"@source_uri": "https://tools.usps.com/UspsToolsRestServices/rest/POLocator/findLocations", "@spider": "usps_collection_boxes", "addr:city": "NASSAU", "addr:country": "US", "addr:postcode": "19969", "addr:state": "DE", "addr:street_address": "17601 COASTAL HWY UNIT 11", "amenity": "post_box", "collection_times": "Mo-Fr 16:00; Sa 11:30", "note": "ON 12/24 AND 12/31, THIS BOX MAY BE COLLECTED AS EARLY AS 12 NOON.", "nsi_id": "unitedstatespostalservice-a77078", "operator": "United States Postal Service", "operator:short": "USPS", "operator:type": "public", "operator:wikidata": "Q668687", "ref": "1996900000"}, "type": "Feature"}
{"geometry": {"coordinates": [-75.169956, 38.748675], "type": "Point"}, "id": "gXLfiBbuL3YrXomMuIKh6pNIXj4=", "properties": {"@source_uri": "https://tools.usps.com/UspsToolsRestServices/rest/POLocator/findLocations", "@spider": "usps_collection_boxes", "addr:city": "NASSAU", "addr:country": "US", "addr:postcode": "19969", "addr:state": "DE", "addr:street_address": "17601 COASTAL HWY UNIT 11", "amenity": "post_box", "collection_times": "Mo-Fr 16:15; Sa 12:15", "indoor": "yes", "note": "ON 12/24 AND 12/31, THIS BOX MAY BE COLLECTED AS EARLY AS 12 NOON.", "nsi_id": "unitedstatespostalservice-a77078", "operator": "United States Postal Service", "operator:short": "USPS", "operator:type": "public", "operator:wikidata": "Q668687", "ref": "1996900001"}, "type": "Feature"}
{"geometry": {"coordinates": [-75.1707093621, 38.7495686083], "type": "Point"}, "id": "sSCMXLxFZWozycug1fKMHPypBUk=", "properties": {"@source_uri": "https://tools.usps.com/UspsToolsRestServices/rest/POLocator/findLocations", "@spider": "usps_collection_boxes", "addr:city": "NASSAU", "addr:country": "US", "addr:postcode": "19969", "addr:state": "DE", "addr:street_address": "17601 COASTAL HWY UNIT 11", "amenity": "post_box", "collection_times": "Mo-Fr 16:30; Sa 12:00", "indoor": "yes", "note": "ON 12/24 AND 12/31, THIS BOX MAY BE COLLECTED AS EARLY AS 12 NOON.", "nsi_id": "unitedstatespostalservice-a77078", "operator": "United States Postal Service", "operator:short": "USPS", "operator:type": "public", "operator:wikidata": "Q668687", "ref": "1996900004"}, "type": "Feature"}
{"geometry": {"coordinates": [-75.1304783, 38.549948], "type": "Point"}, "id": "sSFrnikMtNCMFVy7ANnc9OoYEbU=", "properties": {"@source_uri": "https://tools.usps.com/UspsToolsRestServices/rest/POLocator/findLocations", "@spider": "usps_collection_boxes", "addr:city": "OCEAN VIEW", "addr:country": "US", "addr:postcode": "19970", "addr:state": "DE", "addr:street_address": "34960 ATLANTIC AVE", "amenity": "post_box", "collection_times": "Mo-Sa 11:00", "nsi_id": "unitedstatespostalservice-a77078", "operator": "United States Postal Service", "operator:short": "USPS", "operator:type": "public", "operator:wikidata": "Q668687", "ref": "1997000002"}, "type": "Feature"}
{"geometry": {"coordinates": [-75.081403, 38.716236], "type": "Point"}, "id": "LEimZbK3FFEY9WIDE3ai_8ejUts=", "properties": {"@source_uri": "https://tools.usps.com/UspsToolsRestServices/rest/POLocator/findLocations", "@spider": "usps_collection_boxes", "addr:city": "REHOBOTH BEACH", "addr:country": "US", "addr:postcode": "19971", "addr:state": "DE", "addr:street_address": "179 REHOBOTH AVE", "amenity": "post_box", "collection_times": "Mo-Fr 17:00; Sa 13:00", "note": "ON 12/24 AND 12/31, THIS BOX MAY BE COLLECTED AS EARLY AS 12 NOON.", "nsi_id": "unitedstatespostalservice-a77078", "operator": "United States Postal Service", "operator:short": "USPS", "operator:type": "public", "operator:wikidata": "Q668687", "ref": "1997100001"}, "type": "Feature"}
{"geometry": {"coordinates": [-75.0830633, 38.715953], "type": "Point"}, "id": "AZiVEfelyNo8H-ehbyFMc_DGCGc=", "properties": {"@source_uri": "https://tools.usps.com/UspsToolsRestServices/rest/POLocator/findLocations", "@spider": "usps_collection_boxes", "addr:city": "REHOBOTH BEACH", "addr:country": "US", "addr:postcode": "19971", "addr:state": "DE", "addr:street_address": "229 REHOBOTH AVE", "amenity": "post_box", "collection_times": "Mo-Fr 14:30; Sa 13:00", "note": "ON 12/24 AND 12/31, THIS BOX MAY BE COLLECTED AS EARLY AS 12 NOON.", "nsi_id": "unitedstatespostalservice-a77078", "operator": "United States Postal Service", "operator:short": "USPS", "operator:type": "public", "operator:wikidata": "Q668687", "ref": "1997100007"}, "type": "Feature"}
{"geometry": {"coordinates": [-75.0828778, 38.702875], "type": "Point"}, "id": "2uxtST5U5moLBfCDojMrHba7P5o=", "properties": {"@source_uri": "https://tools.usps.com/UspsToolsRestServices/rest/POLocator/findLocations", "@spider": "usps_collection_boxes", "addr:city": "REHOBOTH BEACH", "addr:country": "US", "addr:postcode": "19971", "addr:state": "DE", "addr:street_address": "20853 COASTAL HWY", "amenity": "post_box", "collection_times": "Mo-Fr 14:15; Sa 12:45", "note": "ON 12/24 AND 12/31, THIS BOX MAY BE COLLECTED AS EARLY AS 12 NOON.", "nsi_id": "unitedstatespostalservice-a77078", "operator": "United States Postal Service", "operator:short": "USPS", "operator:type": "public", "operator:wikidata": "Q668687", "ref": "1997100012"}, "type": "Feature"}
{"geometry": {"coordinates": [-75.1410952, 38.737282], "type": "Point"}, "id": "EIRKzYQccVq_ebkuAvD0j3VGnMQ=", "properties": {"@source_uri": "https://tools.usps.com/UspsToolsRestServices/rest/POLocator/findLocations", "@spider": "usps_collection_boxes", "addr:city": "REHOBOTH BEACH", "addr:country": "US", "addr:postcode": "19971", "addr:state": "DE", "addr:street_address": "18585 COASTAL HWY", "amenity": "post_box", "collection_times": "Mo-Sa 10:30", "nsi_id": "unitedstatespostalservice-a77078", "operator": "United States Postal Service", "operator:short": "USPS", "operator:type": "public", "operator:wikidata": "Q668687", "ref": "1997100013"}, "type": "Feature"}
{"geometry": {"coordinates": [-75.081403, 38.716209], "type": "Point"}, "id": "YcE4bdAsWMPN0p0NHnycCxav6dU=", "properties": {"@source_uri": "https://tools.usps.com/UspsToolsRestServices/rest/POLocator/findLocations", "@spider": "usps_collection_boxes", "addr:city": "REHOBOTH BEACH", "addr:country": "US", "addr:postcode": "19971", "addr:state": "DE", "addr:street_address": "179 REHOBOTH AVE", "amenity": "post_box", "collection_times": "Mo-Fr 17:00; Sa 13:30", "indoor": "yes", "note": "ON 12/24 AND 12/31, THIS BOX MAY BE COLLECTED AS EARLY AS 12 NOON.", "nsi_id": "unitedstatespostalservice-a77078", "operator": "United States Postal Service", "operator:short": "USPS", "operator:type": "public", "operator:wikidata": "Q668687", "ref": "1997100022"}, "type": "Feature"}
{"geometry": {"coordinates": [-75.0814395, 38.711496], "type": "Point"}, "id": "MboKbIgYTWO5XHFmtTE4XhcFQ6w=", "properties": {"@source_uri": "https://tools.usps.com/UspsToolsRestServices/rest/POLocator/findLocations", "@spider": "usps_collection_boxes", "addr:city": "REHOBOTH BEACH", "addr:country": "US", "addr:postcode": "19971", "addr:state": "DE", "addr:street_address": "507 BAYARD AVE", "amenity": "post_box", "collection_times": "Mo-Fr 14:15; Sa 12:45", "note": "ON 12/24 AND 12/31, THIS BOX MAY BE COLLECTED AS EARLY AS 12 NOON.", "nsi_id": "unitedstatespostalservice-a77078", "operator": "United States Postal Service", "operator:short": "USPS", "operator:type": "public", "operator:wikidata": "Q668687", "ref": "1997100023"}, "type": "Feature"}
{"geometry": {"coordinates": [-75.1212799, 38.722896], "type": "Point"}, "id": "RKZBAsZQTNGJrndyr5ali7pqzjo=", "properties": {"@source_uri": "https://tools.usps.com/UspsToolsRestServices/rest/POLocator/findLocations", "@spider": "usps_collection_boxes", "addr:city": "REHOBOTH BEACH", "addr:country": "US", "addr:postcode": "19971", "addr:state": "DE", "addr:street_address": "19312 LIGHTHOUSE PLAZA BLVD", "amenity": "post_box", "collection_times": "Mo-Sa 09:30", "nsi_id": "unitedstatespostalservice-a77078", "operator": "United States Postal Service", "operator:short": "USPS", "operator:type": "public", "operator:wikidata": "Q668687", "ref": "1997100024"}, "type": "Feature"}
{"geometry": {"coordinates": [-75.1430057, 38.736504], "type": "Point"}, "id": "KBj46iSxU2e_BkIZGtYmz3BhTlQ=", "properties": {"@source_uri": "https://tools.usps.com/UspsToolsRestServices/rest/POLocator/findLocations", "@spider": "usps_collection_boxes", "addr:city": "REHOBOTH BEACH", "addr:country": "US", "addr:postcode": "19971", "addr:state": "DE", "addr:street_address": "18578 COASTAL HWY", "amenity": "post_box", "collection_times": "Mo-Sa 10:30", "nsi_id": "unitedstatespostalservice-a77078", "operator": "United States Postal Service", "operator:short": "USPS", "operator:type": "public", "operator:wikidata": "Q668687", "ref": "1997100025"}, "type": "Feature"}
{"geometry": {"coordinates": [-75.0816729009, 38.7161894166], "type": "Point"}, "id": "EflDMRj-WjPIC0wnv0t2R4CbJ4Q=", "properties": {"@source_uri": "https://tools.usps.com/UspsToolsRestServices/rest/POLocator/findLocations", "@spider": "usps_collection_boxes", "addr:city": "REHOBOTH BEACH", "addr:country": "US", "addr:postcode": "19971", "addr:state": "DE", "addr:street_address": "179 REHOBOTH AVE", "amenity": "post_box", "collection_times": "Mo-Fr 17:00; Sa 12:30", "indoor": "yes", "note": "ON 12/24 AND 12/31, THIS BOX MAY BE COLLECTED AS EARLY AS 12 NOON.", "nsi_id": "unitedstatespostalservice-a77078", "operator": "United States Postal Service", "operator:short": "USPS", "operator:type": "public", "operator:wikidata": "Q668687", "ref": "1997100036"}, "type": "Feature"}
{"geometry": {"coordinates": [-75.1330069802, 38.7287450157], "type": "Point"}, "id": "l9f-MCypcOBd_RupIbzm7AgY4eo=", "properties": {"@source_uri": "https://tools.usps.com/UspsToolsRestServices/rest/POLocator/findLocations", "@spider": "usps_collection_boxes", "addr:city": "REHOBOTH BEACH", "addr:country": "US", "addr:postcode": "19971", "addr:state": "DE", "addr:street_address": "18908 REHOBOTH MALL BLVD STE 15", "amenity": "post_box", "collection_times": "Mo-Sa 11:00", "nsi_id": "unitedstatespostalservice-a77078", "operator": "United States Postal Service", "operator:short": "USPS", "operator:type": "public", "operator:wikidata": "Q668687", "ref": "1997100039"}, "type": "Feature"}
{"geometry": {"coordinates": [-75.6132399, 38.640457], "type": "Point"}, "id": "gCwRL3XX23hi5t-plBw5fSSycF4=", "properties": {"@source_uri": "https://tools.usps.com/UspsToolsRestServices/rest/POLocator/findLocations", "@spider": "usps_collection_boxes", "addr:city": "SEAFORD", "addr:country": "US", "addr:postcode": "19973", "addr:state": "DE", "addr:street_address": "203 HIGH ST", "amenity": "post_box", "collection_times": "Mo-Sa 09:45", "nsi_id": "unitedstatespostalservice-a77078", "operator": "United States Postal Service", "operator:short": "USPS", "operator:type": "public", "operator:wikidata": "Q668687", "ref": "1997300000"}, "type": "Feature"}
{"geometry": {"coordinates": [-75.6195662, 38.642794], "type": "Point"}, "id": "cvBjGNkatKad5WN0HMcXHr0BlcY=", "properties": {"@source_uri": "https://tools.usps.com/UspsToolsRestServices/rest/POLocator/findLocations", "@spider": "usps_collection_boxes", "addr:city": "SEAFORD", "addr:country": "US", "addr:postcode": "19973", "addr:state": "DE", "addr:street_address": "402 N PORTER ST", "amenity": "post_box", "collection_times": "Mo-Fr 13:15; Sa 12:00", "note": "ON 12/24 AND 12/31, THIS BOX MAY BE COLLECTED AS EARLY AS 12 NOON.", "nsi_id": "unitedstatespostalservice-a77078", "operator": "United States Postal Service", "operator:short": "USPS", "operator:type": "public", "operator:wikidata": "Q668687", "ref": "1997300002"}, "type": "Feature"}
{"geometry": {"coordinates": [-75.6203433, 38.638391], "type": "Point"}, "id": "X9aw2JdWRuztaJB213vVhSRvGBg=", "properties": {"@source_uri": "https://tools.usps.com/UspsToolsRestServices/rest/POLocator/findLocations", "@spider": "usps_collection_boxes", "addr:city": "SEAFORD", "addr:country": "US", "addr:postcode": "19973", "addr:state": "DE", "addr:street_address": "104 N SHIPLEY ST", "amenity": "post_box", "collection_times": "Mo-Sa 10:00", "nsi_id": "unitedstatespostalservice-a77078", "operator": "United States Postal Service", "operator:short": "USPS", "operator:type": "public", "operator:wikidata": "Q668687", "ref": "1997300004"}, "type": "Feature"}
{"geometry": {"coordinates": [-75.61969, 38.643225], "type": "Point"}, "id": "MUzinHLkqGZI8PLnxqxWhJDHc_c=", "properties": {"@source_uri": "https://tools.usps.com/UspsToolsRestServices/rest/POLocator/findLocations", "@spider": "usps_collection_boxes", "addr:city": "SEAFORD", "addr:country": "US", "addr:postcode": "19973", "addr:state": "DE", "addr:street_address": "700 W IVY DR", "amenity": "post_box", "collection_times": "Mo-Fr 13:30; Sa 12:00", "note": "ON 12/24 AND 12/31, THIS BOX MAY BE COLLECTED AS EARLY AS 12 NOON.", "nsi_id": "unitedstatespostalservice-a77078", "operator": "United States Postal Service", "operator:short": "USPS", "operator:type": "public", "operator:wikidata": "Q668687", "ref": "1997300006"}, "type": "Feature"}
{"geometry": {"coordinates": [-75.6271873, 38.646578], "type": "Point"}, "id": "twHV3g-ZTJzNacWBt3u9WTyarAw=", "properties": {"@source_uri": "https://tools.usps.com/UspsToolsRestServices/rest/POLocator/findLocations", "@spider": "usps_collection_boxes", "addr:city": "SEAFORD", "addr:country": "US", "addr:postcode": "19973", "addr:state": "DE", "addr:street_address": "715 NYLON BLVD", "amenity": "post_box", "collection_times": "Mo-Fr 13:30; Sa 12:00", "note": "ON 12/24 AND 12/31, THIS BOX MAY BE COLLECTED AS EARLY AS 12 NOON.", "nsi_id": "unitedstatespostalservice-a77078", "operator": "United States Postal Service", "operator:short": "USPS", "operator:type": "public", "operator:wikidata": "Q668687", "ref": "1997300007"}, "type": "Feature"}
{"geometry": {"coordinates": [-75.6224809, 38.643333], "type": "Point"}, "id": "3syrK-p38xad8JiDLYpO-7NBDvE=", "properties": {"@source_uri": "https://tools.usps.com/UspsToolsRestServices/rest/POLocator/findLocations", "@spider": "usps_collection_boxes", "addr:city": "SEAFORD", "addr:country": "US", "addr:postcode": "19973", "addr:state": "DE", "addr:street_address": "501 N SHIPLEY ST", "amenity": "post_box", "collection_times": "Mo-Sa 10:00", "nsi_id": "unitedstatespostalservice-a77078", "operator": "United States Postal Service", "operator:short": "USPS", "operator:type": "public", "operator:wikidata": "Q668687", "ref": "1997300011"}, "type": "Feature"}
{"geometry": {"coordinates": [-75.6093344, 38.63861], "type": "Point"}, "id": "t_nrapcdgCru2F4Z5zHcnfVZbhk=", "properties": {"@source_uri": "https://tools.usps.com/UspsToolsRestServices/rest/POLocator/findLocations", "@spider": "usps_collection_boxes", "addr:city": "SEAFORD", "addr:country": "US", "addr:postcode": "19973", "addr:state": "DE", "addr:street_address": "35 S MARKET ST", "amenity": "post_box", "collection_times": "Mo-Fr 13:45; Sa 12:15", "note": "ON 12/24 AND 12/31, THIS BOX MAY BE COLLECTED AS EARLY AS 12 NOON.", "nsi_id": "unitedstatespostalservice-a77078", "operator": "United States Postal Service", "operator:short": "USPS", "operator:type": "public", "operator:wikidata": "Q668687", "ref": "1997300013"}, "type": "Feature"}
{"geometry": {"coordinates": [-75.6102088, 38.642233], "type": "Point"}, "id": "iGDy7KwovEsGSNnqaHrP9Okac3k=", "properties": {"@source_uri": "https://tools.usps.com/UspsToolsRestServices/rest/POLocator/findLocations", "@spider": "usps_collection_boxes", "addr:city": "SEAFORD", "addr:country": "US", "addr:postcode": "19973", "addr:state": "DE", "addr:street_address": "414 HIGH ST", "amenity": "post_box", "collection_times": "Mo-Sa 09:00", "nsi_id": "unitedstatespostalservice-a77078", "operator": "United States Postal Service", "operator:short": "USPS", "operator:type": "public", "operator:wikidata": "Q668687", "ref": "1997300014"}, "type": "Feature"}
{"geometry": {"coordinates": [-75.6047559, 38.641783], "type": "Point"}, "id": "jV44zONV0ULHmcyiRKSQkcCHeUc=", "properties": {"@source_uri": "https://tools.usps.com/UspsToolsRestServices/rest/POLocator/findLocations", "@spider": "usps_collection_boxes", "addr:city": "SEAFORD", "addr:country": "US", "addr:postcode": "19973", "addr:state": "DE", "addr:street_address": "801 MIDDLEFORD RD", "amenity": "post_box", "collection_times": "Mo-Sa 09:30", "nsi_id": "unitedstatespostalservice-a77078", "operator": "United States Postal Service", "operator:short": "USPS", "operator:type": "public", "operator:wikidata": "Q668687", "ref": "1997300015"}, "type": "Feature"}
{"geometry": {"coordinates": [-75.5966999, 38.657436], "type": "Point"}, "id": "7Ca-2-rsGZY4sAQXCZjgoE6fUhA=", "properties": {"@source_uri": "https://tools.usps.com/UspsToolsRestServices/rest/POLocator/findLocations", "@spider": "usps_collection_boxes", "addr:city": "SEAFORD", "addr:country": "US", "addr:postcode": "19973", "addr:state": "DE", "addr:street_address": "23000 SUSSEX HWY", "amenity": "post_box", "collection_times": "Mo-Fr 13:00; Sa 12:00", "note": "ON 12/24 AND 12/31, THIS BOX MAY BE COLLECTED AS EARLY AS 12 NOON.", "nsi_id": "unitedstatespostalservice-a77078", "operator": "United States Postal Service", "operator:short": "USPS", "operator:type": "public", "operator:wikidata": "Q668687", "ref": "1997300018"}, "type": "Feature"}
{"geometry": {"coordinates": [-75.5994599, 38.660978], "type": "Point"}, "id": "7N6tYtZWiKz4-_0fTRVwix8Mf9k=", "properties": {"@source_uri": "https://tools.usps.com/UspsToolsRestServices/rest/POLocator/findLocations", "@spider": "usps_collection_boxes", "addr:city": "SEAFORD", "addr:country": "US", "addr:postcode": "19973", "addr:state": "DE", "addr:street_address": "2001 BRIDGEVILLE HWY", "amenity": "post_box", "collection_times": "Mo-Fr 17:00; Sa 15:45", "note": "ON 12/24 AND 12/31, THIS BOX MAY BE COLLECTED AS EARLY AS 12 NOON.", "nsi_id": "unitedstatespostalservice-a77078", "operator": "United States Postal Service", "operator:short": "USPS", "operator:type": "public", "operator:wikidata": "Q668687", "ref": "1997300021"}, "type": "Feature"}
{"geometry": {"coordinates": [-75.599119, 38.661141], "type": "Point"}, "id": "7B3gwi2rR1j7OhX-ZOAqDSBMfZw=", "properties": {"@source_uri": "https://tools.usps.com/UspsToolsRestServices/rest/POLocator/findLocations", "@spider": "usps_collection_boxes", "addr:city": "SEAFORD", "addr:country": "US", "addr:postcode": "19973", "addr:state": "DE", "addr:street_address": "2001 BRIDGEVILLE HWY", "amenity": "post_box", "collection_times": "Mo-Fr 17:15; Sa 16:00", "indoor": "yes", "note": "ON 12/24 AND 12/31, THIS BOX MAY BE COLLECTED AS EARLY AS 12 NOON.", "nsi_id": "unitedstatespostalservice-a77078", "operator": "United States Postal Service", "operator:short": "USPS", "operator:type": "public", "operator:wikidata": "Q668687", "ref": "1997300022"}, "type": "Feature"}
{"geometry": {"coordinates": [-75.5911954, 38.661049], "type": "Point"}, "id": "sWnyzwXsIbaEXnIjyk5sfpa_jDg=", "properties": {"@source_uri": "https://tools.usps.com/UspsToolsRestServices/rest/POLocator/findLocations", "@spider": "usps_collection_boxes", "addr:city": "SEAFORD", "addr:country": "US", "addr:postcode": "19973", "addr:state": "DE", "addr:street_address": "22899 SUSSEX HWY", "amenity": "post_box", "collection_times": "Mo-Sa 12:00", "nsi_id": "unitedstatespostalservice-a77078", "operator": "United States Postal Service", "operator:short": "USPS", "operator:type": "public", "operator:wikidata": "Q668687", "ref": "1997300023"}, "type": "Feature"}
{"geometry": {"coordinates": [-75.5452478, 38.621139], "type": "Point"}, "id": "AQCGg9DkpUeKdpBGaGdhJ56vIwU=", "properties": {"@source_uri": "https://tools.usps.com/UspsToolsRestServices/rest/POLocator/findLocations", "@spider": "usps_collection_boxes", "addr:city": "SEAFORD", "addr:country": "US", "addr:postcode": "19973", "addr:state": "DE", "addr:street_address": "280 COOL BRANCH BLVD", "amenity": "post_box", "collection_times": "Mo-Sa 09:00", "nsi_id": "unitedstatespostalservice-a77078", "operator": "United States Postal Service", "operator:short": "USPS", "operator:type": "public", "operator:wikidata": "Q668687", "ref": "1997300024"}, "type": "Feature"}
{"geometry": {"coordinates": [-75.5704059, 38.651014], "type": "Point"}, "id": "BeoE251_oUWZinjeO_Q7nEe4U8w=", "properties": {"@source_uri": "https://tools.usps.com/UspsToolsRestServices/rest/POLocator/findLocations", "@spider": "usps_collection_boxes", "addr:city": "SEAFORD", "addr:country": "US", "addr:postcode": "19973", "addr:state": "DE", "addr:street_address": "1 RIVERS END DR", "amenity": "post_box", "collection_times": "Mo-Sa 09:00", "nsi_id": "unitedstatespostalservice-a77078", "operator": "United States Postal Service", "operator:short": "USPS", "operator:type": "public", "operator:wikidata": "Q668687", "ref": "1997300025"}, "type": "Feature"}
{"geometry": {"coordinates": [-75.6001779645, 38.6609050178], "type": "Point"}, "id": "Jqr1xhZ6HMPfBsYO6k15ZiILaeg=", "properties": {"@source_uri": "https://tools.usps.com/UspsToolsRestServices/rest/POLocator/findLocations", "@spider": "usps_collection_boxes", "addr:city": "SEAFORD", "addr:country": "US", "addr:postcode": "19973", "addr:state": "DE", "addr:street_address": "2001 BRIDGEVILLE HWY", "amenity": "post_box", "collection_times": "Mo-Fr 17:00; Sa 12:00", "indoor": "yes", "note": "ON 12/24 AND 12/31, THIS BOX MAY BE COLLECTED AS EARLY AS 12 NOON.", "nsi_id": "unitedstatespostalservice-a77078", "operator": "United States Postal Service", "operator:short": "USPS", "operator:type": "public", "operator:wikidata": "Q668687", "ref": "1997300032"}, "type": "Feature"}
{"geometry": {"coordinates": [-75.0957699, 38.472174], "type": "Point"}, "id": "0vMh5q-3duMng2DoI5OB38ScACA=", "properties": {"@source_uri": "https://tools.usps.com/UspsToolsRestServices/rest/POLocator/findLocations", "@spider": "usps_collection_boxes", "addr:city": "SELBYVILLE", "addr:country": "US", "addr:postcode": "19975", "addr:state": "DE", "addr:street_address": "37598 SHADY CIR", "amenity": "post_box", "collection_times": "Mo-Sa 10:00", "nsi_id": "unitedstatespostalservice-a77078", "operator": "United States Postal Service", "operator:short": "USPS", "operator:type": "public", "operator:wikidata": "Q668687", "ref": "1997500002"}, "type": "Feature"}
{"geometry": {"coordinates": [-75.2322031, 38.45909], "type": "Point"}, "id": "2zX98oT46PvEeUIJCgYbAmXHdoU=", "properties": {"@source_uri": "https://tools.usps.com/UspsToolsRestServices/rest/POLocator/findLocations", "@spider": "usps_collection_boxes", "addr:city": "SELBYVILLE", "addr:country": "US", "addr:postcode": "19975", "addr:state": "DE", "addr:street_address": "7 MASON DIXON SHOPPING CTR", "amenity": "post_box", "collection_times": "Mo-Sa 10:30", "nsi_id": "unitedstatespostalservice-a77078", "operator": "United States Postal Service", "operator:short": "USPS", "operator:type": "public", "operator:wikidata": "Q668687", "ref": "1997500007"}, "type": "Feature"}
{"geometry": {"coordinates": [-75.0861492, 38.465117], "type": "Point"}, "id": "SKm5jYQ2E7T2uYJDpMDfreYhoSU=", "properties": {"@source_uri": "https://tools.usps.com/UspsToolsRestServices/rest/POLocator/findLocations", "@spider": "usps_collection_boxes", "addr:city": "SELBYVILLE", "addr:country": "US", "addr:postcode": "19975", "addr:state": "DE", "addr:street_address": "37232 LIGHTHOUSE RD", "amenity": "post_box", "collection_times": "Mo-Sa 09:00", "nsi_id": "unitedstatespostalservice-a77078", "operator": "United States Postal Service", "operator:short": "USPS", "operator:type": "public", "operator:wikidata": "Q668687", "ref": "1997500008"}, "type": "Feature"}
{"geometry": {"coordinates": [-75.223427, 38.45937], "type": "Point"}, "id": "VOd62VHxKsKKsCiqVdHmNW6eIk4=", "properties": {"@source_uri": "https://tools.usps.com/UspsToolsRestServices/rest/POLocator/findLocations", "@spider": "usps_collection_boxes", "addr:city": "SELBYVILLE", "addr:country": "US", "addr:postcode": "19975", "addr:state": "DE", "addr:street_address": "23 W CHURCH ST", "amenity": "post_box", "collection_times": "Mo-Fr 16:00; Sa 11:30", "note": "ON 12/24 AND 12/31, THIS BOX MAY BE COLLECTED AS EARLY AS 12 NOON.", "nsi_id": "unitedstatespostalservice-a77078", "operator": "United States Postal Service", "operator:short": "USPS", "operator:type": "public", "operator:wikidata": "Q668687", "ref": "1997500009"}, "type": "Feature"}
{"geometry": {"coordinates": [-75.223311, 38.459394], "type": "Point"}, "id": "wReDDJC6wxVh_2R0uvYvwVGP2rE=", "properties": {"@source_uri": "https://tools.usps.com/UspsToolsRestServices/rest/POLocator/findLocations", "@spider": "usps_collection_boxes", "addr:city": "SELBYVILLE", "addr:country": "US", "addr:postcode": "19975", "addr:state": "DE", "addr:street_address": "23 W CHURCH ST", "amenity": "post_box", "collection_times": "Mo-Fr 16:30; Sa 12:00", "indoor": "yes", "note": "ON 12/24 AND 12/31, THIS BOX MAY BE COLLECTED AS EARLY AS 12 NOON.", "nsi_id": "unitedstatespostalservice-a77078", "operator": "United States Postal Service", "operator:short": "USPS", "operator:type": "public", "operator:wikidata": "Q668687", "ref": "1997500010"}, "type": "Feature"}
{"geometry": {"coordinates": [-75.1141458, 38.467574], "type": "Point"}, "id": "Q12D5sLJ8G8UYVMd9agBUZt6ojQ=", "properties": {"@source_uri": "https://tools.usps.com/UspsToolsRestServices/rest/POLocator/findLocations", "@spider": "usps_collection_boxes", "addr:city": "SELBYVILLE", "addr:country": "US", "addr:postcode": "19975", "addr:state": "DE", "addr:street_address": "31256 AMERICANA PKWY", "amenity": "post_box", "collection_times": "Mo-Sa 12:00", "nsi_id": "unitedstatespostalservice-a77078", "operator": "United States Postal Service", "operator:short": "USPS", "operator:type": "public", "operator:wikidata": "Q668687", "ref": "1997500013"}, "type": "Feature"}
{"geometry": {"coordinates": [-75.2235953253, 38.4592837147], "type": "Point"}, "id": "sdTgA3lyZKcIAxsFUPuKBnT344I=", "properties": {"@source_uri": "https://tools.usps.com/UspsToolsRestServices/rest/POLocator/findLocations", "@spider": "usps_collection_boxes", "addr:city": "SELBYVILLE", "addr:country": "US", "addr:postcode": "19975", "addr:state": "DE", "addr:street_address": "23 W CHURCH ST", "amenity": "post_box", "collection_times": "Mo-Fr 16:15; Sa 12:00", "indoor": "yes", "note": "ON 12/24 AND 12/31, THIS BOX MAY BE COLLECTED AS EARLY AS 12 NOON.", "nsi_id": "unitedstatespostalservice-a77078", "operator": "United States Postal Service", "operator:short": "USPS", "operator:type": "public", "operator:wikidata": "Q668687", "ref": "1997500015"}, "type": "Feature"}
{"geometry": {"coordinates": [-75.607224, 39.299806], "type": "Point"}, "id": "lkoDJuBAEGZKehPmvlJW_OYXrqA=", "properties": {"@source_uri": "https://tools.usps.com/UspsToolsRestServices/rest/POLocator/findLocations", "@spider": "usps_collection_boxes", "addr:city": "SMYRNA", "addr:country": "US", "addr:postcode": "19977", "addr:state": "DE", "addr:street_address": "13 S MARKET ST", "amenity": "post_box", "collection_times": "Mo-Sa 17:00", "note": "ON 12/24 AND 12/31, THIS BOX MAY BE COLLECTED AS EARLY AS 12 NOON.", "nsi_id": "unitedstatespostalservice-a77078", "operator": "United States Postal Service", "operator:short": "USPS", "operator:type": "public", "operator:wikidata": "Q668687", "ref": "1997700000"}, "type": "Feature"}
{"geometry": {"coordinates": [-75.607265, 39.299872], "type": "Point"}, "id": "0NQuBsrSahuc8ZF3kzHZtsKNuh4=", "properties": {"@source_uri": "https://tools.usps.com/UspsToolsRestServices/rest/POLocator/findLocations", "@spider": "usps_collection_boxes", "addr:city": "SMYRNA", "addr:country": "US", "addr:postcode": "19977", "addr:state": "DE", "addr:street_address": "13 S MARKET ST", "amenity": "post_box", "collection_times": "Mo-Sa 17:00", "indoor": "yes", "note": "ON 12/24 AND 12/31, THIS BOX MAY BE COLLECTED AS EARLY AS 12 NOON.", "nsi_id": "unitedstatespostalservice-a77078", "operator": "United States Postal Service", "operator:short": "USPS", "operator:type": "public", "operator:wikidata": "Q668687", "ref": "1997700009"}, "type": "Feature"}
{"geometry": {"coordinates": [-75.6068099392, 39.2995008451], "type": "Point"}, "id": "gGEBAmOL9QjDcBJO3wUuJOxm460=", "properties": {"@source_uri": "https://tools.usps.com/UspsToolsRestServices/rest/POLocator/findLocations", "@spider": "usps_collection_boxes", "addr:city": "SMYRNA", "addr:country": "US", "addr:postcode": "19977", "addr:state": "DE", "addr:street_address": "13 S MARKET ST", "amenity": "post_box", "collection_times": "Mo-Fr 17:00; Sa 12:00", "indoor": "yes", "note": "ON 12/24 AND 12/31, THIS BOX MAY BE COLLECTED AS EARLY AS 12 NOON.", "nsi_id": "unitedstatespostalservice-a77078", "operator": "United States Postal Service", "operator:short": "USPS", "operator:type": "public", "operator:wikidata": "Q668687", "ref": "1997700012"}, "type": "Feature"}
{"geometry": {"coordinates": [-75.572008, 39.042693], "type": "Point"}, "id": "lpQRhdUn8AxPzeNSWX5E4VBBA8A=", "properties": {"@source_uri": "https://tools.usps.com/UspsToolsRestServices/rest/POLocator/findLocations", "@spider": "usps_collection_boxes", "addr:city": "VIOLA", "addr:country": "US", "addr:postcode": "19979", "addr:state": "DE", "addr:street_address": "3 S MAIN ST", "amenity": "post_box", "collection_times": "Mo-Fr 16:00; Sa 11:00", "note": "ON 12/24 AND 12/31, THIS BOX MAY BE COLLECTED AS EARLY AS 12 NOON.", "nsi_id": "unitedstatespostalservice-a77078", "operator": "United States Postal Service", "operator:short": "USPS", "operator:type": "public", "operator:wikidata": "Q668687", "ref": "1997900000"}, "type": "Feature"}
{"geometry": {"coordinates": [-75.572033, 39.042779], "type": "Point"}, "id": "V10D0OOKVMmO-PXXCkjfF2r0Ta8=", "properties": {"@source_uri": "https://tools.usps.com/UspsToolsRestServices/rest/POLocator/findLocations", "@spider": "usps_collection_boxes", "addr:city": "VIOLA", "addr:country": "US", "addr:postcode": "19979", "addr:state": "DE", "addr:street_address": "3 S MAIN ST", "amenity": "post_box", "collection_times": "Mo-Fr 16:30; Sa 11:30", "indoor": "yes", "note": "ON 12/24 AND 12/31, THIS BOX MAY BE COLLECTED AS EARLY AS 12 NOON.", "nsi_id": "unitedstatespostalservice-a77078", "operator": "United States Postal Service", "operator:short": "USPS", "operator:type": "public", "operator:wikidata": "Q668687", "ref": "1997900001"}, "type": "Feature"}
{"geometry": {"coordinates": [-75.5719975286, 39.0427896525], "type": "Point"}, "id": "gvhCWlkdfvTVRhJ0KA9luXK9pcE=", "properties": {"@source_uri": "https://tools.usps.com/UspsToolsRestServices/rest/POLocator/findLocations", "@spider": "usps_collection_boxes", "addr:city": "VIOLA", "addr:country": "US", "addr:postcode": "19979", "addr:state": "DE", "addr:street_address": "3 S MAIN ST", "amenity": "post_box", "collection_times": "Mo-Fr 16:30; Sa 11:30", "indoor": "yes", "note": "ON 12/24 AND 12/31, THIS BOX MAY BE COLLECTED AS EARLY AS 12 NOON.", "nsi_id": "unitedstatespostalservice-a77078", "operator": "United States Postal Service", "operator:short": "USPS", "operator:type": "public", "operator:wikidata": "Q668687", "ref": "1997900004"}, "type": "Feature"}
{"geometry": {"coordinates": [-75.568918, 39.068532], "type": "Point"}, "id": "f7A83qA-0DoKUiZU1XcN_lSZg8E=", "properties": {"@source_uri": "https://tools.usps.com/UspsToolsRestServices/rest/POLocator/findLocations", "@spider": "usps_collection_boxes", "addr:city": "WOODSIDE", "addr:country": "US", "addr:postcode": "19980", "addr:state": "DE", "addr:street_address": "4568 TURKEY POINT RD", "amenity": "post_box", "collection_times": "Mo-Fr 16:45; Sa 11:15", "note": "ON 12/24 AND 12/31, THIS BOX MAY BE COLLECTED AS EARLY AS 12 NOON.", "nsi_id": "unitedstatespostalservice-a77078", "operator": "United States Postal Service", "operator:short": "USPS", "operator:type": "public", "operator:wikidata": "Q668687", "ref": "1998000000"}, "type": "Feature"}
{"geometry": {"coordinates": [-75.568918, 39.068532], "type": "Point"}, "id": "usUzf8h3HEkIAMX-dNPUlVgEW2c=", "properties": {"@source_uri": "https://tools.usps.com/UspsToolsRestServices/rest/POLocator/findLocations", "@spider": "usps_collection_boxes", "addr:city": "WOODSIDE", "addr:country": "US", "addr:postcode": "19980", "addr:state": "DE", "addr:street_address": "4568 TURKEY POINT RD", "amenity": "post_box", "collection_times": "Mo-Fr 16:45; Sa 11:30", "indoor": "yes", "note": "ON 12/24 AND 12/31, THIS BOX MAY BE COLLECTED AS EARLY AS 12 NOON.", "nsi_id": "unitedstatespostalservice-a77078", "operator": "United States Postal Service", "operator:short": "USPS", "operator:type": "public", "operator:wikidata": "Q668687", "ref": "1998000001"}, "type": "Feature"}
{"geometry": {"coordinates": [-75.56858819, 39.070383367], "type": "Point"}, "id": "ufpdW-NzA7Q2a9P0sG7S35E9bIA=", "properties": {"@source_uri": "https://tools.usps.com/UspsToolsRestServices/rest/POLocator/findLocations", "@spider": "usps_collection_boxes", "addr:city": "WOODSIDE", "addr:country": "US", "addr:postcode": "19980", "addr:state": "DE", "addr:street_address": "4568 TURKEY POINT RD", "amenity": "post_box", "collection_times": "Mo-Fr 16:30; Sa 11:30", "indoor": "yes", "note": "ON 12/24 AND 12/31, THIS BOX MAY BE COLLECTED AS EARLY AS 12 NOON.", "nsi_id": "unitedstatespostalservice-a77078", "operator": "United States Postal Service", "operator:short": "USPS", "operator:type": "public", "operator:wikidata": "Q668687", "ref": "1998000004"}, "type": "Feature"}
