{"geometry": {"coordinates": [-77.017563, 38.914263], "type": "Point"}, "id": "GBtrJrd7igjVBUbDxus_JEpM4w8=", "properties": {"@spider": "usps_collection_boxes", "addr:city": "WASHINGTON", "addr:country": "US", "addr:full": "416 FLORIDA AVE NW", "addr:postcode": "20001", "addr:state": "DC", "brand": "USPS", "collection_times": "Mo-Fr 17:00", "name": "USPS COLLECTION BOX - PO LOBBY", "note": "ON 12/24 AND 12/31, THIS BOX MAY BE COLLECTED AS EARLY AS 12 NOON.", "ref": "2000100407"}, "type": "Feature"}
{"geometry": {"coordinates": [-77.017563, 38.914263], "type": "Point"}, "id": "lLYRdygZho1j3iiY0_RO3MGfXyg=", "properties": {"@spider": "usps_collection_boxes", "addr:city": "WASHINGTON", "addr:country": "US", "addr:full": "416 FLORIDA AVE NW", "addr:postcode": "20001", "addr:state": "DC", "brand": "USPS", "collection_times": "Mo-Fr 17:00", "name": "USPS COLLECTION BOX - PO LOBBY", "note": "ON 12/24 AND 12/31, THIS BOX MAY BE COLLECTED AS EARLY AS 12 NOON.", "ref": "2000100443"}, "type": "Feature"}
{"geometry": {"coordinates": [-76.9977191, 38.874985], "type": "Point"}, "id": "Ub2l2tx2KjQIkzDbr5rRYrBjldQ=", "properties": {"@spider": "usps_collection_boxes", "addr:city": "WASHINGTON", "addr:country": "US", "addr:full": "1222 9TH ST SE", "addr:postcode": "20003", "addr:state": "DC", "brand": "USPS", "collection_times": "Sa 12:00", "name": "USPS COLLECTION BOX - BLUE BOX", "ref": "2000300131"}, "type": "Feature"}
{"geometry": {"coordinates": [-76.9977083602, 38.8856819034], "type": "Point"}, "id": "-dYbKCoqhQgNWqxGftjcRsoTYCE=", "properties": {"@spider": "usps_collection_boxes", "addr:city": "WASHINGTON", "addr:country": "US", "addr:full": "600 PENNSYLVANIA AVE SE", "addr:postcode": "20003", "addr:state": "DC", "brand": "USPS", "collection_times": "Mo-Fr 17:00; Sa 14:00", "name": "USPS COLLECTION BOX - PO LOBBY", "note": "ON 12/24 AND 12/31, THIS BOX MAY BE COLLECTED AS EARLY AS 12 NOON.", "ref": "2000300150"}, "type": "Feature"}
{"geometry": {"coordinates": [-76.9977083602, 38.8856819034], "type": "Point"}, "id": "aRmN72P1mMcdHT-2s74W-7WS74U=", "properties": {"@spider": "usps_collection_boxes", "addr:city": "WASHINGTON", "addr:country": "US", "addr:full": "600 PENNSYLVANIA AVE SE FRNT 2", "addr:postcode": "20003", "addr:state": "DC", "brand": "USPS", "collection_times": "Mo-Fr 17:00; Sa 14:00", "name": "USPS COLLECTION BOX - PO LOBBY", "note": "ON 12/24 AND 12/31, THIS BOX MAY BE COLLECTED AS EARLY AS 12 NOON.", "ref": "2000300158"}, "type": "Feature"}
{"geometry": {"coordinates": [-77.0289483, 38.894826266], "type": "Point"}, "id": "boD5D6cKt4csJqsbOJKDo-WqeQM=", "properties": {"@spider": "usps_collection_boxes", "addr:city": "WASHINGTON", "addr:country": "US", "addr:full": "1200 PENNSYLVANIA AVE NW", "addr:postcode": "20004", "addr:state": "DC", "brand": "USPS", "collection_times": "Mo-Fr 17:00", "name": "USPS COLLECTION BOX - PO LOBBY", "note": "ON 12/24 AND 12/31, THIS BOX MAY BE COLLECTED AS EARLY AS 12 NOON.", "ref": "2000400179"}, "type": "Feature"}
{"geometry": {"coordinates": [-77.0289483, 38.894826266], "type": "Point"}, "id": "2Z4-AZwGhQ73eRlwTpXYkRzTc4g=", "properties": {"@spider": "usps_collection_boxes", "addr:city": "WASHINGTON", "addr:country": "US", "addr:full": "1200 PENNSYLVANIA AVE NW", "addr:postcode": "20004", "addr:state": "DC", "brand": "USPS", "collection_times": "Mo-Fr 17:00", "name": "USPS COLLECTION BOX - PO LOBBY", "note": "ON 12/24 AND 12/31, THIS BOX MAY BE COLLECTED AS EARLY AS 12 NOON.", "ref": "2000400180"}, "type": "Feature"}
{"geometry": {"coordinates": [-77.032395, 38.903454], "type": "Point"}, "id": "LFbAtzCTYYM55bGjuiMnz6IqKXw=", "properties": {"@spider": "usps_collection_boxes", "addr:city": "WASHINGTON", "addr:country": "US", "addr:full": "1400 L ST NW", "addr:postcode": "20005", "addr:state": "DC", "brand": "USPS", "collection_times": "Mo-Fr 17:00; Sa 12:00", "name": "USPS COLLECTION BOX - APC", "note": "ON 12/24 AND 12/31, THIS BOX MAY BE COLLECTED AS EARLY AS 12 NOON.", "ref": "2000500234"}, "type": "Feature"}
{"geometry": {"coordinates": [-77.032395, 38.903454], "type": "Point"}, "id": "BTlHMXqdgtvBGAQP9miz18VR5X4=", "properties": {"@spider": "usps_collection_boxes", "addr:city": "WASHINGTON", "addr:country": "US", "addr:full": "1400 L ST NW", "addr:postcode": "20005", "addr:state": "DC", "brand": "USPS", "collection_times": "Mo-Fr 17:00; Sa 12:00", "name": "USPS COLLECTION BOX - PO LOBBY", "note": "ON 12/24 AND 12/31, THIS BOX MAY BE COLLECTED AS EARLY AS 12 NOON.", "ref": "2000500431"}, "type": "Feature"}
{"geometry": {"coordinates": [-77.032381, 38.903722], "type": "Point"}, "id": "CpJK3XbnG18twqCkuptnonSoQx0=", "properties": {"@spider": "usps_collection_boxes", "addr:city": "WASHINGTON", "addr:country": "US", "addr:full": "1400 L ST NW", "addr:postcode": "20005", "addr:state": "DC", "brand": "USPS", "collection_times": "Mo-Fr 17:00; Sa 12:00", "name": "USPS COLLECTION BOX - PO LOBBY", "note": "ON 12/24 AND 12/31, THIS BOX MAY BE COLLECTED AS EARLY AS 12 NOON.", "ref": "2000500432"}, "type": "Feature"}
{"geometry": {"coordinates": [-77.040765, 38.898945], "type": "Point"}, "id": "3zANgWVx1VN0fnQxsEoadKtJnYI=", "properties": {"@spider": "usps_collection_boxes", "addr:city": "WASHINGTON", "addr:country": "US", "addr:full": "1750 PENNSYLVANIA AVE NW", "addr:postcode": "20006", "addr:state": "DC", "brand": "USPS", "collection_times": "Mo-Fr 17:00", "name": "USPS COLLECTION BOX - PO LOBBY", "note": "ON 12/24 AND 12/31, THIS BOX MAY BE COLLECTED AS EARLY AS 12 NOON.", "ref": "2000600441"}, "type": "Feature"}
{"geometry": {"coordinates": [-77.040765, 38.898945], "type": "Point"}, "id": "AACYt2o6IuFKmtY0HoDMyZnGw0M=", "properties": {"@spider": "usps_collection_boxes", "addr:city": "WASHINGTON", "addr:country": "US", "addr:full": "1750 PENNSYLVANIA AVE NW", "addr:postcode": "20006", "addr:state": "DC", "brand": "USPS", "collection_times": "Mo-Fr 17:00", "name": "USPS COLLECTION BOX - PO LOBBY", "note": "ON 12/24 AND 12/31, THIS BOX MAY BE COLLECTED AS EARLY AS 12 NOON.", "ref": "2000600442"}, "type": "Feature"}
{"geometry": {"coordinates": [-77.0399595, 38.898648], "type": "Point"}, "id": "O9V-q5dQ8iSSZCyi8aQml_yfFrM=", "properties": {"@spider": "usps_collection_boxes", "addr:city": "WASHINGTON", "addr:country": "US", "addr:full": "1700 PENNSYLVANIA AVE NW", "addr:postcode": "20006", "addr:state": "DC", "brand": "USPS", "collection_times": "Mo-Fr 17:00", "name": "USPS COLLECTION BOX - PO LOBBY", "note": "ON 12/24 AND 12/31, THIS BOX MAY BE COLLECTED AS EARLY AS 12 NOON.", "ref": "2000600448"}, "type": "Feature"}
{"geometry": {"coordinates": [-77.0677234, 38.911695], "type": "Point"}, "id": "EnfgTsjJ6_iMfomHBzLKf42PI4Q=", "properties": {"@spider": "usps_collection_boxes", "addr:city": "WASHINGTON", "addr:country": "US", "addr:full": "3398 DENT PL NW", "addr:postcode": "20007", "addr:state": "DC", "brand": "USPS", "collection_times": "Mo-Sa 10:20", "name": "USPS COLLECTION BOX - BLUE BOX", "ref": "2000700070"}, "type": "Feature"}
{"geometry": {"coordinates": [-77.069054056, 38.90668048], "type": "Point"}, "id": "hg0ZM0-_RtHgRC-bxBT1VXncQhE=", "properties": {"@spider": "usps_collection_boxes", "addr:city": "WASHINGTON", "addr:country": "US", "addr:full": "1298 35TH ST NW", "addr:postcode": "20007", "addr:state": "DC", "brand": "USPS", "collection_times": "Mo-Fr 10:40; Sa 10:20", "name": "USPS COLLECTION BOX - BLUE BOX", "ref": "2000700072"}, "type": "Feature"}
{"geometry": {"coordinates": [-77.0691546, 38.909601], "type": "Point"}, "id": "izVdDdzjnlo-GA5wCYYN4VCcpOA=", "properties": {"@spider": "usps_collection_boxes", "addr:city": "WASHINGTON", "addr:country": "US", "addr:full": "1524 35TH ST NW", "addr:postcode": "20007", "addr:state": "DC", "brand": "USPS", "collection_times": "Mo-Sa 10:20", "name": "USPS COLLECTION BOX - BLUE BOX", "ref": "2000700077"}, "type": "Feature"}
{"geometry": {"coordinates": [-77.0654103, 38.905088], "type": "Point"}, "id": "PfUmuL8Dy0VDuejHc2BEpOwnuy0=", "properties": {"@spider": "usps_collection_boxes", "addr:city": "WASHINGTON", "addr:country": "US", "addr:full": "3200 M ST NW", "addr:postcode": "20007", "addr:state": "DC", "brand": "USPS", "collection_times": "Mo-Fr 10:45; Sa 11:00", "name": "USPS COLLECTION BOX - BLUE BOX", "ref": "2000700137"}, "type": "Feature"}
{"geometry": {"coordinates": [-77.0627165, 38.902709], "type": "Point"}, "id": "_hzuR_jijyouOrt3EsUD6Tybf3s=", "properties": {"@spider": "usps_collection_boxes", "addr:city": "WASHINGTON", "addr:country": "US", "addr:full": "1000 WISCONSIN AVE NW", "addr:postcode": "20007", "addr:state": "DC", "brand": "USPS", "collection_times": "Mo-Fr 11:00; Sa 10:40", "name": "USPS COLLECTION BOX - BLUE BOX", "ref": "2000700141"}, "type": "Feature"}
{"geometry": {"coordinates": [-77.0627074, 38.905583], "type": "Point"}, "id": "wpdTaMN4SQhK-rDInCp9YqBPLpM=", "properties": {"@spider": "usps_collection_boxes", "addr:city": "WASHINGTON", "addr:country": "US", "addr:full": "1201 WISCONSIN AVE NW", "addr:postcode": "20007", "addr:state": "DC", "brand": "USPS", "collection_times": "Mo-Fr 10:20; Sa 10:40", "name": "USPS COLLECTION BOX - BLUE BOX", "ref": "2000700142"}, "type": "Feature"}
{"geometry": {"coordinates": [-77.063742, 38.905002], "type": "Point"}, "id": "MRaJBIXT11T1sQcQ79EpYXfLHZA=", "properties": {"@spider": "usps_collection_boxes", "addr:city": "WASHINGTON", "addr:country": "US", "addr:full": "3222 M ST NW", "addr:postcode": "20007", "addr:state": "DC", "brand": "USPS", "collection_times": "Mo-Fr 10:00; Sa 10:40", "name": "USPS COLLECTION BOX - BLUE BOX", "ref": "2000700173"}, "type": "Feature"}
{"geometry": {"coordinates": [-77.0627262, 38.90272], "type": "Point"}, "id": "EXIUZoqnt9Yd_T3oGRn6uIbslPU=", "properties": {"@spider": "usps_collection_boxes", "addr:city": "WASHINGTON", "addr:country": "US", "addr:full": "1000 WISCONSIN AVE NW", "addr:postcode": "20007", "addr:state": "DC", "brand": "USPS", "collection_times": "Mo-Fr 11:00; Sa 10:40", "name": "USPS COLLECTION BOX - BLUE BOX", "ref": "2000700177"}, "type": "Feature"}
{"geometry": {"coordinates": [-77.0574776, 38.904983], "type": "Point"}, "id": "O1xUlfKi7iBVcsCwCvFLKgCJsBw=", "properties": {"@spider": "usps_collection_boxes", "addr:city": "WASHINGTON", "addr:country": "US", "addr:full": "2810 PENNSYLVANIA AVE NW", "addr:postcode": "20007", "addr:state": "DC", "brand": "USPS", "collection_times": "Mo-Fr 11:20; Sa 10:00", "name": "USPS COLLECTION BOX - BLUE BOX", "ref": "2000700192"}, "type": "Feature"}
{"geometry": {"coordinates": [-77.0720899, 38.920868], "type": "Point"}, "id": "pacDRD-QMcNDYoCsQj0UnHYGpH0=", "properties": {"@spider": "usps_collection_boxes", "addr:city": "WASHINGTON", "addr:country": "US", "addr:full": "2336 WISCONSIN AVE NW", "addr:postcode": "20007", "addr:state": "DC", "brand": "USPS", "collection_times": "Mo-Fr 17:00", "name": "USPS COLLECTION BOX - PO LOBBY", "note": "ON 12/24 AND 12/31, THIS BOX MAY BE COLLECTED AS EARLY AS 12 NOON.", "ref": "2000700232"}, "type": "Feature"}
{"geometry": {"coordinates": [-77.0721199, 38.92088], "type": "Point"}, "id": "U9PiaOrxjEIN7JErCZx_MnF5Lj8=", "properties": {"@spider": "usps_collection_boxes", "addr:city": "WASHINGTON", "addr:country": "US", "addr:full": "2336 WISCONSIN AVE NW", "addr:postcode": "20007", "addr:state": "DC", "brand": "USPS", "collection_times": "Mo-Fr 17:00", "name": "USPS COLLECTION BOX - PO LOBBY", "note": "ON 12/24 AND 12/31, THIS BOX MAY BE COLLECTED AS EARLY AS 12 NOON.", "ref": "2000700233"}, "type": "Feature"}
{"geometry": {"coordinates": [-77.0609745, 38.905794], "type": "Point"}, "id": "zMAxi87xRaLOYZWBm3fWxWsVLFM=", "properties": {"@spider": "usps_collection_boxes", "addr:city": "WASHINGTON", "addr:country": "US", "addr:full": "1215 31ST ST NW", "addr:postcode": "20007", "addr:state": "DC", "brand": "USPS", "collection_times": "Mo-Fr 17:00; Sa 12:00", "name": "USPS COLLECTION BOX - PO LOBBY", "note": "ON 12/24 AND 12/31, THIS BOX MAY BE COLLECTED AS EARLY AS 12 NOON.", "ref": "2000700234"}, "type": "Feature"}
{"geometry": {"coordinates": [-77.0609745, 38.905794], "type": "Point"}, "id": "jAFozHomliNaIcNDgw5I7PyzNuk=", "properties": {"@spider": "usps_collection_boxes", "addr:city": "WASHINGTON", "addr:country": "US", "addr:full": "1215 31ST ST NW", "addr:postcode": "20007", "addr:state": "DC", "brand": "USPS", "collection_times": "Mo-Fr 17:00", "name": "USPS COLLECTION BOX - PO LOBBY", "note": "ON 12/24 AND 12/31, THIS BOX MAY BE COLLECTED AS EARLY AS 12 NOON.", "ref": "2000700235"}, "type": "Feature"}
{"geometry": {"coordinates": [-77.0676899, 38.905042], "type": "Point"}, "id": "LydmutrZQ2A2Ek3be-e5egvVLg4=", "properties": {"@spider": "usps_collection_boxes", "addr:city": "WASHINGTON", "addr:country": "US", "addr:full": "3399 M ST NW", "addr:postcode": "20007", "addr:state": "DC", "brand": "USPS", "collection_times": "Mo-Fr 10:40; Sa 11:00", "name": "USPS COLLECTION BOX - BLUE BOX", "ref": "2000700236"}, "type": "Feature"}
{"geometry": {"coordinates": [-77.0721615, 38.92086], "type": "Point"}, "id": "uq1wy7-mfECYofkq-nF5le345rQ=", "properties": {"@spider": "usps_collection_boxes", "addr:city": "WASHINGTON", "addr:country": "US", "addr:full": "2336 WISCONSIN AVE NW", "addr:postcode": "20007", "addr:state": "DC", "brand": "USPS", "collection_times": "Mo-Fr 17:00", "name": "USPS COLLECTION BOX - PO LOBBY", "note": "ON 12/24 AND 12/31, THIS BOX MAY BE COLLECTED AS EARLY AS 12 NOON.", "ref": "2000700249"}, "type": "Feature"}
{"geometry": {"coordinates": [-77.0609727023, 38.9057912626], "type": "Point"}, "id": "J5YLCJd7iAHPKdylPsH_FNYHaas=", "properties": {"@spider": "usps_collection_boxes", "addr:city": "WASHINGTON", "addr:country": "US", "addr:full": "1215 31ST ST NW", "addr:postcode": "20007", "addr:state": "DC", "brand": "USPS", "collection_times": "Mo-Fr 17:00; Sa 14:00", "name": "USPS COLLECTION BOX - PO LOBBY", "note": "ON 12/24 AND 12/31, THIS BOX MAY BE COLLECTED AS EARLY AS 12 NOON.", "ref": "2000700250"}, "type": "Feature"}
{"geometry": {"coordinates": [-77.058693, 38.935098], "type": "Point"}, "id": "Ehl-0gcVfB0SbMFoXXtQ8Mnufj4=", "properties": {"@spider": "usps_collection_boxes", "addr:city": "WASHINGTON", "addr:country": "US", "addr:full": "3430 CONNECTICUT AVE NW", "addr:postcode": "20008", "addr:state": "DC", "brand": "USPS", "collection_times": "Mo-Fr 17:00; Sa 12:00", "name": "USPS COLLECTION BOX - PO LOBBY", "note": "ON 12/24 AND 12/31, THIS BOX MAY BE COLLECTED AS EARLY AS 12 NOON.", "ref": "2000800176"}, "type": "Feature"}
{"geometry": {"coordinates": [-77.058693, 38.935098], "type": "Point"}, "id": "8nP_7I-AuLC9StiJR3nqA2SRJ6w=", "properties": {"@spider": "usps_collection_boxes", "addr:city": "WASHINGTON", "addr:country": "US", "addr:full": "3430 CONNECTICUT AVE NW", "addr:postcode": "20008", "addr:state": "DC", "brand": "USPS", "collection_times": "Mo-Fr 17:00; Sa 12:00", "name": "USPS COLLECTION BOX - PO LOBBY", "note": "ON 12/24 AND 12/31, THIS BOX MAY BE COLLECTED AS EARLY AS 12 NOON.", "ref": "2000800177"}, "type": "Feature"}
{"geometry": {"coordinates": [-77.058693, 38.935098], "type": "Point"}, "id": "AHUElZbtgyqFjuao0S6F6dH_CgY=", "properties": {"@spider": "usps_collection_boxes", "addr:city": "WASHINGTON", "addr:country": "US", "addr:full": "3430 CONNECTICUT AVE NW", "addr:postcode": "20008", "addr:state": "DC", "brand": "USPS", "collection_times": "Mo-Fr 17:00; Sa 13:00", "name": "USPS COLLECTION BOX - PO LOBBY", "note": "ON 12/24 AND 12/31, THIS BOX MAY BE COLLECTED AS EARLY AS 12 NOON.", "ref": "2000800191"}, "type": "Feature"}
{"geometry": {"coordinates": [-77.041998, 38.919942], "type": "Point"}, "id": "zWnNR2WOy-WopU-8SsaYFS8fYE0=", "properties": {"@spider": "usps_collection_boxes", "addr:city": "WASHINGTON", "addr:country": "US", "addr:full": "2300 18TH ST NW", "addr:postcode": "20009", "addr:state": "DC", "brand": "USPS", "collection_times": "Mo-Fr 17:00; Sa 12:00", "name": "USPS COLLECTION BOX - PO LOBBY", "note": "ON 12/24 AND 12/31, THIS BOX MAY BE COLLECTED AS EARLY AS 12 NOON.", "ref": "2000900210"}, "type": "Feature"}
{"geometry": {"coordinates": [-77.044833, 38.91537], "type": "Point"}, "id": "Tkd4snd-xVEtHv55qZyaHUz5r-Y=", "properties": {"@spider": "usps_collection_boxes", "addr:city": "WASHINGTON", "addr:country": "US", "addr:full": "1921 FLORIDA AVE NW", "addr:postcode": "20009", "addr:state": "DC", "brand": "USPS", "collection_times": "Mo-Fr 17:00", "name": "USPS COLLECTION BOX - PO LOBBY", "note": "ON 12/24 AND 12/31, THIS BOX MAY BE COLLECTED AS EARLY AS 12 NOON.", "ref": "2000900212"}, "type": "Feature"}
{"geometry": {"coordinates": [-77.044833, 38.91537], "type": "Point"}, "id": "zX9JCit-p6-rNkYINieGhmYpcqk=", "properties": {"@spider": "usps_collection_boxes", "addr:city": "WASHINGTON", "addr:country": "US", "addr:full": "1921 FLORIDA AVE NW", "addr:postcode": "20009", "addr:state": "DC", "brand": "USPS", "collection_times": "Mo-Fr 17:00", "name": "USPS COLLECTION BOX - PO LOBBY", "note": "ON 12/24 AND 12/31, THIS BOX MAY BE COLLECTED AS EARLY AS 12 NOON.", "ref": "2000900213"}, "type": "Feature"}
{"geometry": {"coordinates": [-77.0235117533, 38.9314047765], "type": "Point"}, "id": "mT9l_9uNm_PiN9uLTmNVtl0tNAk=", "properties": {"@spider": "usps_collection_boxes", "addr:city": "WASHINGTON", "addr:country": "US", "addr:full": "3321 GEORGIA AVE NW", "addr:postcode": "20009", "addr:state": "DC", "brand": "USPS", "collection_times": "Mo-Fr 17:00", "name": "USPS COLLECTION BOX - PO LOBBY", "note": "ON 12/24 AND 12/31, THIS BOX MAY BE COLLECTED AS EARLY AS 12 NOON.", "ref": "2000900215"}, "type": "Feature"}
{"geometry": {"coordinates": [-77.0235117533, 38.9314047765], "type": "Point"}, "id": "JDJtJPM-YI_HeG_stGonft-YcYM=", "properties": {"@spider": "usps_collection_boxes", "addr:city": "WASHINGTON", "addr:country": "US", "addr:full": "3321 GEORGIA AVE NW", "addr:postcode": "20009", "addr:state": "DC", "brand": "USPS", "collection_times": "Mo-Fr 17:00", "name": "USPS COLLECTION BOX - PO LOBBY", "note": "ON 12/24 AND 12/31, THIS BOX MAY BE COLLECTED AS EARLY AS 12 NOON.", "ref": "2000900216"}, "type": "Feature"}
{"geometry": {"coordinates": [-77.041996744, 38.9199408372], "type": "Point"}, "id": "EkgrYJ8F1xBANkAvo9Wq2r1kkoo=", "properties": {"@spider": "usps_collection_boxes", "addr:city": "WASHINGTON", "addr:country": "US", "addr:full": "2300 18TH ST NW LBBY", "addr:postcode": "20009", "addr:state": "DC", "brand": "USPS", "collection_times": "Mo-Fr 17:00; Sa 12:00", "name": "USPS COLLECTION BOX - PO LOBBY", "note": "ON 12/24 AND 12/31, THIS BOX MAY BE COLLECTED AS EARLY AS 12 NOON.", "ref": "2000900228"}, "type": "Feature"}
{"geometry": {"coordinates": [-77.0232555, 38.931615], "type": "Point"}, "id": "lvF7hhj4hfI64N5CZfXaAjOg5IQ=", "properties": {"@spider": "usps_collection_boxes", "addr:city": "WASHINGTON", "addr:country": "US", "addr:full": "3321 GEORGIA AVE NW", "addr:postcode": "20010", "addr:state": "DC", "brand": "USPS", "collection_times": "Mo-Fr 17:00", "name": "USPS COLLECTION BOX - PO LOBBY", "note": "ON 12/24 AND 12/31, THIS BOX MAY BE COLLECTED AS EARLY AS 12 NOON.", "ref": "2001000113"}, "type": "Feature"}
{"geometry": {"coordinates": [-77.011532, 38.958667], "type": "Point"}, "id": "pKr006y0Wva6HHDRIBz6V1OYoJU=", "properties": {"@spider": "usps_collection_boxes", "addr:city": "WASHINGTON", "addr:country": "US", "addr:full": "56 MADISON ST NW", "addr:postcode": "20011", "addr:state": "DC", "brand": "USPS", "collection_times": "Mo-Fr 11:40; Sa 12:20", "name": "USPS COLLECTION BOX - BLUE BOX", "note": "ON 12/24 AND 12/31, THIS BOX MAY BE COLLECTED AS EARLY AS 12 NOON.", "ref": "2001100037"}, "type": "Feature"}
{"geometry": {"coordinates": [-77.0055013, 38.944393], "type": "Point"}, "id": "KD7N4bX0D22Utm7cR2-qug97hhs=", "properties": {"@spider": "usps_collection_boxes", "addr:city": "WASHINGTON", "addr:country": "US", "addr:full": "4501 1ST ST NE", "addr:postcode": "20011", "addr:state": "DC", "brand": "USPS", "collection_times": "Mo-Fr 10:20; Sa 12:00", "name": "USPS COLLECTION BOX - BLUE BOX", "ref": "2001100039"}, "type": "Feature"}
{"geometry": {"coordinates": [-77.0005113, 38.941176], "type": "Point"}, "id": "hm7REfO3abYdzTkmtLOQdPc988k=", "properties": {"@spider": "usps_collection_boxes", "addr:city": "WASHINGTON", "addr:country": "US", "addr:full": "333 HAWAII AVE NE", "addr:postcode": "20011", "addr:state": "DC", "brand": "USPS", "collection_times": "Mo-Fr 10:20; Sa 12:00", "name": "USPS COLLECTION BOX - BLUE BOX", "ref": "2001100043"}, "type": "Feature"}
{"geometry": {"coordinates": [-77.0162499, 38.960106], "type": "Point"}, "id": "wuw9KT4a8cmYvID2EF7X_iO7hOo=", "properties": {"@spider": "usps_collection_boxes", "addr:city": "WASHINGTON", "addr:country": "US", "addr:full": "5750 3RD ST NW", "addr:postcode": "20011", "addr:state": "DC", "brand": "USPS", "collection_times": "Mo-Fr 11:40; Sa 12:40", "name": "USPS COLLECTION BOX - BLUE BOX", "note": "ON 12/24 AND 12/31, THIS BOX MAY BE COLLECTED AS EARLY AS 12 NOON.", "ref": "2001100048"}, "type": "Feature"}
{"geometry": {"coordinates": [-77.0055779, 38.946176], "type": "Point"}, "id": "P35PVrxHD5wTEQk-Gub1UZp0IAg=", "properties": {"@spider": "usps_collection_boxes", "addr:city": "WASHINGTON", "addr:country": "US", "addr:full": "4530 FORT TOTTEN DR NE", "addr:postcode": "20011", "addr:state": "DC", "brand": "USPS", "collection_times": "Mo-Fr 10:20; Sa 12:00", "name": "USPS COLLECTION BOX - BLUE BOX", "ref": "2001100051"}, "type": "Feature"}
{"geometry": {"coordinates": [-77.0070643, 38.950343], "type": "Point"}, "id": "gGuP0_f7AkzQqg6DqHv4uaFt5Kg=", "properties": {"@spider": "usps_collection_boxes", "addr:city": "WASHINGTON", "addr:country": "US", "addr:full": "4900 FORT TOTTEN DR NE", "addr:postcode": "20011", "addr:state": "DC", "brand": "USPS", "collection_times": "Mo-Fr 10:20; Sa 12:00", "name": "USPS COLLECTION BOX - BLUE BOX", "ref": "2001100052"}, "type": "Feature"}
{"geometry": {"coordinates": [-76.9948241, 38.958797], "type": "Point"}, "id": "z3z91uqlC6KEM6XXUa_Tz28wgIU=", "properties": {"@spider": "usps_collection_boxes", "addr:city": "WASHINGTON", "addr:country": "US", "addr:full": "810 OGLETHORPE ST NE", "addr:postcode": "20011", "addr:state": "DC", "brand": "USPS", "collection_times": "Mo-Fr 11:00; Sa 14:20", "name": "USPS COLLECTION BOX - BLUE BOX", "note": "ON 12/24 AND 12/31, THIS BOX MAY BE COLLECTED AS EARLY AS 12 NOON.", "ref": "2001100082"}, "type": "Feature"}
{"geometry": {"coordinates": [-76.9975418, 38.957298], "type": "Point"}, "id": "XwsKETg3cRPPz6St9XKxXcyYp2Y=", "properties": {"@spider": "usps_collection_boxes", "addr:city": "WASHINGTON", "addr:country": "US", "addr:full": "553 MADISON ST NE", "addr:postcode": "20011", "addr:state": "DC", "brand": "USPS", "collection_times": "Mo-Fr 11:00; Sa 15:00", "name": "USPS COLLECTION BOX - BLUE BOX", "note": "ON 12/24 AND 12/31, THIS BOX MAY BE COLLECTED AS EARLY AS 12 NOON.", "ref": "2001100113"}, "type": "Feature"}
{"geometry": {"coordinates": [-77.0206519, 38.94104], "type": "Point"}, "id": "zH9JBciLJ0WFLFLUqeg97F-QxnU=", "properties": {"@spider": "usps_collection_boxes", "addr:city": "WASHINGTON", "addr:country": "US", "addr:full": "4101 NEW HAMPSHIRE AVE NW", "addr:postcode": "20011", "addr:state": "DC", "brand": "USPS", "collection_times": "Mo-Fr 10:00; Sa 11:20", "name": "USPS COLLECTION BOX - BLUE BOX", "ref": "2001100115"}, "type": "Feature"}
{"geometry": {"coordinates": [-77.0166839, 38.94637], "type": "Point"}, "id": "PO0P8j7TbhpkwJsZBhKbP3aBpH0=", "properties": {"@spider": "usps_collection_boxes", "addr:city": "WASHINGTON", "addr:country": "US", "addr:full": "4531 NEW HAMPSHIRE AVE NW", "addr:postcode": "20011", "addr:state": "DC", "brand": "USPS", "collection_times": "Mo-Fr 10:40; Sa 13:20", "name": "USPS COLLECTION BOX - BLUE BOX", "note": "ON 12/24 AND 12/31, THIS BOX MAY BE COLLECTED AS EARLY AS 12 NOON.", "ref": "2001100116"}, "type": "Feature"}
{"geometry": {"coordinates": [-77.0131143, 38.951249], "type": "Point"}, "id": "mmgurwYaW1dcLX7_19CWEhcrasw=", "properties": {"@spider": "usps_collection_boxes", "addr:city": "WASHINGTON", "addr:country": "US", "addr:full": "5001 NEW HAMPSHIRE AVE NW", "addr:postcode": "20011", "addr:state": "DC", "brand": "USPS", "collection_times": "Mo-Fr 10:40; Sa 13:20", "name": "USPS COLLECTION BOX - BLUE BOX", "note": "ON 12/24 AND 12/31, THIS BOX MAY BE COLLECTED AS EARLY AS 12 NOON.", "ref": "2001100119"}, "type": "Feature"}
{"geometry": {"coordinates": [-77.0091859, 38.952467], "type": "Point"}, "id": "v9dpvUkEo_1JvZuMNM0iXjzpLuA=", "properties": {"@spider": "usps_collection_boxes", "addr:city": "WASHINGTON", "addr:country": "US", "addr:full": "5100 N CAPITOL ST NW", "addr:postcode": "20011", "addr:state": "DC", "brand": "USPS", "collection_times": "Mo-Fr 10:20; Sa 13:20", "name": "USPS COLLECTION BOX - BLUE BOX", "note": "ON 12/24 AND 12/31, THIS BOX MAY BE COLLECTED AS EARLY AS 12 NOON.", "ref": "2001100126"}, "type": "Feature"}
{"geometry": {"coordinates": [-77.0089218, 38.96636], "type": "Point"}, "id": "DVv2s5rwIymoWg0SD56IBr0MySY=", "properties": {"@spider": "usps_collection_boxes", "addr:city": "WASHINGTON", "addr:country": "US", "addr:full": "6301 NORTH CAPITOL ST NE", "addr:postcode": "20011", "addr:state": "DC", "brand": "USPS", "collection_times": "Mo-Fr 11:20; Sa 14:20", "name": "USPS COLLECTION BOX - BLUE BOX", "note": "ON 12/24 AND 12/31, THIS BOX MAY BE COLLECTED AS EARLY AS 12 NOON.", "ref": "2001100128"}, "type": "Feature"}
{"geometry": {"coordinates": [-76.9879419, 38.954261], "type": "Point"}, "id": "iXBs2dKD9Uwlw9M56eTTImSpllM=", "properties": {"@spider": "usps_collection_boxes", "addr:city": "WASHINGTON", "addr:country": "US", "addr:full": "5182 EASTERN AVE NE", "addr:postcode": "20011", "addr:state": "DC", "brand": "USPS", "collection_times": "Mo-Fr 11:00; Sa 15:00", "name": "USPS COLLECTION BOX - BLUE BOX", "note": "ON 12/24 AND 12/31, THIS BOX MAY BE COLLECTED AS EARLY AS 12 NOON.", "ref": "2001100134"}, "type": "Feature"}
{"geometry": {"coordinates": [-77.0159475, 38.965707], "type": "Point"}, "id": "BmoOIqP1jHP2L2axDea3YV557Vk=", "properties": {"@spider": "usps_collection_boxes", "addr:city": "WASHINGTON", "addr:country": "US", "addr:full": "6217 3RD ST NW", "addr:postcode": "20011", "addr:state": "DC", "brand": "USPS", "collection_times": "Mo-Fr 11:40; Sa 13:00", "name": "USPS COLLECTION BOX - BLUE BOX", "note": "ON 12/24 AND 12/31, THIS BOX MAY BE COLLECTED AS EARLY AS 12 NOON.", "ref": "2001100146"}, "type": "Feature"}
{"geometry": {"coordinates": [-77.0118344, 38.953285], "type": "Point"}, "id": "65bUED1Aen0n_x1ftsnBnesCgos=", "properties": {"@spider": "usps_collection_boxes", "addr:city": "WASHINGTON", "addr:country": "US", "addr:full": "5132 NEW HAMPSHIRE AVE NW", "addr:postcode": "20011", "addr:state": "DC", "brand": "USPS", "collection_times": "Mo-Fr 10:40; Sa 13:20", "name": "USPS COLLECTION BOX - BLUE BOX", "note": "ON 12/24 AND 12/31, THIS BOX MAY BE COLLECTED AS EARLY AS 12 NOON.", "ref": "2001100150"}, "type": "Feature"}
{"geometry": {"coordinates": [-77.0117107, 38.963877], "type": "Point"}, "id": "h65mulRcC375yeMAxku8m3Bu2DI=", "properties": {"@spider": "usps_collection_boxes", "addr:city": "WASHINGTON", "addr:country": "US", "addr:full": "6100 BLAIR RD NW", "addr:postcode": "20011", "addr:state": "DC", "brand": "USPS", "collection_times": "Mo-Fr 11:40; Sa 14:20", "name": "USPS COLLECTION BOX - BLUE BOX", "note": "ON 12/24 AND 12/31, THIS BOX MAY BE COLLECTED AS EARLY AS 12 NOON.", "ref": "2001100156"}, "type": "Feature"}
{"geometry": {"coordinates": [-76.991693, 38.954471], "type": "Point"}, "id": "d5rPUjQlY7kHP7av7aOaujMi9ow=", "properties": {"@spider": "usps_collection_boxes", "addr:city": "WASHINGTON", "addr:country": "US", "addr:full": "5118 11TH ST NE", "addr:postcode": "20011", "addr:state": "DC", "brand": "USPS", "collection_times": "Mo-Fr 11:00; Sa 14:40", "name": "USPS COLLECTION BOX - BLUE BOX", "note": "ON 12/24 AND 12/31, THIS BOX MAY BE COLLECTED AS EARLY AS 12 NOON.", "ref": "2001100160"}, "type": "Feature"}
{"geometry": {"coordinates": [-76.998047, 38.9562], "type": "Point"}, "id": "Fa3A0UrneIVr-InJMoX1A_vYFFU=", "properties": {"@spider": "usps_collection_boxes", "addr:city": "WASHINGTON", "addr:country": "US", "addr:full": "520 JEFFERSON ST NE", "addr:postcode": "20011", "addr:state": "DC", "brand": "USPS", "collection_times": "Mo-Fr 11:00; Sa 15:00", "name": "USPS COLLECTION BOX - BLUE BOX", "note": "ON 12/24 AND 12/31, THIS BOX MAY BE COLLECTED AS EARLY AS 12 NOON.", "ref": "2001100166"}, "type": "Feature"}
{"geometry": {"coordinates": [-77.0021853, 38.952317], "type": "Point"}, "id": "gNZv_gLZzbhT79XaomxSPzheghY=", "properties": {"@spider": "usps_collection_boxes", "addr:city": "WASHINGTON", "addr:country": "US", "addr:full": "5100 4TH ST NE", "addr:postcode": "20011", "addr:state": "DC", "brand": "USPS", "collection_times": "Mo-Fr 10:40; Sa 14:40", "name": "USPS COLLECTION BOX - BLUE BOX", "note": "ON 12/24 AND 12/31, THIS BOX MAY BE COLLECTED AS EARLY AS 12 NOON.", "ref": "2001100167"}, "type": "Feature"}
{"geometry": {"coordinates": [-77.0091142, 38.96482], "type": "Point"}, "id": "h2uxuW2HyrtO9flET4TdxfLlLlI=", "properties": {"@spider": "usps_collection_boxes", "addr:city": "WASHINGTON", "addr:country": "US", "addr:full": "6200 CHILLUM PL NW", "addr:postcode": "20011", "addr:state": "DC", "brand": "USPS", "collection_times": "Mo-Fr 11:20; Sa 14:20", "name": "USPS COLLECTION BOX - BLUE BOX", "note": "ON 12/24 AND 12/31, THIS BOX MAY BE COLLECTED AS EARLY AS 12 NOON.", "ref": "2001100176"}, "type": "Feature"}
{"geometry": {"coordinates": [-77.0026504, 38.960573], "type": "Point"}, "id": "l8usaELdgfBs_n8EJXfwzwztz9E=", "properties": {"@spider": "usps_collection_boxes", "addr:city": "WASHINGTON", "addr:country": "US", "addr:full": "5801 3RD ST NE", "addr:postcode": "20011", "addr:state": "DC", "brand": "USPS", "collection_times": "Mo-Fr 11:20; Sa 14:40", "name": "USPS COLLECTION BOX - BLUE BOX", "note": "ON 12/24 AND 12/31, THIS BOX MAY BE COLLECTED AS EARLY AS 12 NOON.", "ref": "2001100180"}, "type": "Feature"}
{"geometry": {"coordinates": [-77.0136873, 38.942152], "type": "Point"}, "id": "BSg7XDYYA5g8nyVOI0QEKaQJfFo=", "properties": {"@spider": "usps_collection_boxes", "addr:city": "WASHINGTON", "addr:country": "US", "addr:full": "201 ROCK CREEK CHURCH RD NW", "addr:postcode": "20011", "addr:state": "DC", "brand": "USPS", "collection_times": "Mo-Fr 10:00; Sa 11:20", "name": "USPS COLLECTION BOX - BLUE BOX", "ref": "2001100193"}, "type": "Feature"}
{"geometry": {"coordinates": [-77.0270625, 38.966922], "type": "Point"}, "id": "dKmNEFNpdlKjrsr9cRZSeVhgmkg=", "properties": {"@spider": "usps_collection_boxes", "addr:city": "WASHINGTON", "addr:country": "US", "addr:full": "6323 GEORGIA AVE NW", "addr:postcode": "20011", "addr:state": "DC", "brand": "USPS", "collection_times": "Mo-Fr 17:00; Sa 12:00", "name": "USPS COLLECTION BOX - PO LOBBY", "note": "ON 12/24 AND 12/31, THIS BOX MAY BE COLLECTED AS EARLY AS 12 NOON.", "ref": "2001100197"}, "type": "Feature"}
{"geometry": {"coordinates": [-77.0270625, 38.966922], "type": "Point"}, "id": "xT8s-3wsQm7lBCZ0Vs94KiKeVjM=", "properties": {"@spider": "usps_collection_boxes", "addr:city": "WASHINGTON", "addr:country": "US", "addr:full": "6323 GEORGIA AVE NW", "addr:postcode": "20011", "addr:state": "DC", "brand": "USPS", "collection_times": "Mo-Fr 17:00; Sa 12:00", "name": "USPS COLLECTION BOX - PO LOBBY", "note": "ON 12/24 AND 12/31, THIS BOX MAY BE COLLECTED AS EARLY AS 12 NOON.", "ref": "2001100198"}, "type": "Feature"}
{"geometry": {"coordinates": [-77.0191938, 38.93986], "type": "Point"}, "id": "CapZyb00qSoJraxetL7degC63eQ=", "properties": {"@spider": "usps_collection_boxes", "addr:city": "WASHINGTON", "addr:country": "US", "addr:full": "500 SHEPHERD ST NW", "addr:postcode": "20011", "addr:state": "DC", "brand": "USPS", "collection_times": "Mo-Fr 10:00; Sa 13:00", "name": "USPS COLLECTION BOX - BLUE BOX", "note": "ON 12/24 AND 12/31, THIS BOX MAY BE COLLECTED AS EARLY AS 12 NOON.", "ref": "2001100201"}, "type": "Feature"}
{"geometry": {"coordinates": [-77.0085959, 38.948253], "type": "Point"}, "id": "02WAvYO4sJfl4emqidExtZY7084=", "properties": {"@spider": "usps_collection_boxes", "addr:city": "WASHINGTON", "addr:country": "US", "addr:full": "4701 N CAPITOL ST NE", "addr:postcode": "20011", "addr:state": "DC", "brand": "USPS", "collection_times": "Mo-Fr 10:20; Sa 12:00", "name": "USPS COLLECTION BOX - BLUE BOX", "ref": "2001100204"}, "type": "Feature"}
{"geometry": {"coordinates": [-77.0270625, 38.966922], "type": "Point"}, "id": "-VVfnS2ulc9I9GtDhMF0OvecFa0=", "properties": {"@spider": "usps_collection_boxes", "addr:city": "WASHINGTON", "addr:country": "US", "addr:full": "6323 GEORGIA AVE NW", "addr:postcode": "20011", "addr:state": "DC", "brand": "USPS", "collection_times": "Mo-Fr 17:00; Sa 12:00", "name": "USPS COLLECTION BOX - PO LOBBY", "note": "ON 12/24 AND 12/31, THIS BOX MAY BE COLLECTED AS EARLY AS 12 NOON.", "ref": "2001100208"}, "type": "Feature"}
{"geometry": {"coordinates": [-77.0133505, 38.973211], "type": "Point"}, "id": "pAMLmjgmJmO6xnZ423yGMJRLkys=", "properties": {"@spider": "usps_collection_boxes", "addr:city": "WASHINGTON", "addr:country": "US", "addr:full": "6752 2ND ST NW", "addr:postcode": "20012", "addr:state": "DC", "brand": "USPS", "collection_times": "Mo-Fr 11:20; Sa 13:20", "name": "USPS COLLECTION BOX - BLUE BOX", "note": "ON 12/24 AND 12/31, THIS BOX MAY BE COLLECTED AS EARLY AS 12 NOON.", "ref": "2001200018"}, "type": "Feature"}
{"geometry": {"coordinates": [-77.0162424, 38.971369], "type": "Point"}, "id": "lVNyWnhxooohDXUyMpSZNSqu5Dk=", "properties": {"@spider": "usps_collection_boxes", "addr:city": "WASHINGTON", "addr:country": "US", "addr:full": "301 WHITTIER ST NW", "addr:postcode": "20012", "addr:state": "DC", "brand": "USPS", "collection_times": "Mo-Fr 11:20; Sa 13:00", "name": "USPS COLLECTION BOX - BLUE BOX", "note": "ON 12/24 AND 12/31, THIS BOX MAY BE COLLECTED AS EARLY AS 12 NOON.", "ref": "2001200020"}, "type": "Feature"}
{"geometry": {"coordinates": [-77.1028569048, 38.9258517553], "type": "Point"}, "id": "1q3tZ0oI-gs-ZdY4OoTSDGTuy_Q=", "properties": {"@spider": "usps_collection_boxes", "addr:city": "WASHINGTON", "addr:country": "US", "addr:full": "5136 MACARTHUR BLVD NW", "addr:postcode": "20016", "addr:state": "DC", "brand": "USPS", "collection_times": "Mo-Fr 17:00; Sa 12:00", "name": "USPS COLLECTION BOX - PO LOBBY", "note": "ON 12/24 AND 12/31, THIS BOX MAY BE COLLECTED AS EARLY AS 12 NOON.", "ref": "2001600209"}, "type": "Feature"}
{"geometry": {"coordinates": [-77.0756976107, 38.9417247749], "type": "Point"}, "id": "Cz_2F4KyhNCGS97uYAIn9sg9T_I=", "properties": {"@spider": "usps_collection_boxes", "addr:city": "WASHINGTON", "addr:country": "US", "addr:full": "4005 WISCONSIN AVE NW", "addr:postcode": "20016", "addr:state": "DC", "brand": "USPS", "collection_times": "Mo-Fr 18:00; Sa 16:30", "name": "USPS COLLECTION BOX - PO LOBBY", "note": "ON 12/24 AND 12/31, THIS BOX MAY BE COLLECTED AS EARLY AS 12 NOON.", "ref": "2001600210"}, "type": "Feature"}
{"geometry": {"coordinates": [-77.0756976107, 38.9417247749], "type": "Point"}, "id": "A3P_DJPI0ZHe9ZsLIsKvud80UrM=", "properties": {"@spider": "usps_collection_boxes", "addr:city": "WASHINGTON", "addr:country": "US", "addr:full": "4005 WISCONSIN AVE NW", "addr:postcode": "20016", "addr:state": "DC", "brand": "USPS", "collection_times": "Mo-Fr 18:00; Sa 16:30", "name": "USPS COLLECTION BOX - PO LOBBY", "note": "ON 12/24 AND 12/31, THIS BOX MAY BE COLLECTED AS EARLY AS 12 NOON.", "ref": "2001600211"}, "type": "Feature"}
{"geometry": {"coordinates": [-77.1028605, 38.925846], "type": "Point"}, "id": "_ZHftvuo_ifkXpXo2cHUj4RkVow=", "properties": {"@spider": "usps_collection_boxes", "addr:city": "WASHINGTON", "addr:country": "US", "addr:full": "5136 MACARTHUR BLVD NW", "addr:postcode": "20016", "addr:state": "DC", "brand": "USPS", "collection_times": "Mo-Fr 17:00; Sa 12:00", "name": "USPS COLLECTION BOX - PO LOBBY", "note": "ON 12/24 AND 12/31, THIS BOX MAY BE COLLECTED AS EARLY AS 12 NOON.", "ref": "2001600212"}, "type": "Feature"}
{"geometry": {"coordinates": [-77.0756976107, 38.9417247749], "type": "Point"}, "id": "v3NSNcdcwzeIBua56rMOusD2lrg=", "properties": {"@spider": "usps_collection_boxes", "addr:city": "WASHINGTON", "addr:country": "US", "addr:full": "4005 WISCONSIN AVE NW", "addr:postcode": "20016", "addr:state": "DC", "brand": "USPS", "collection_times": "Mo-Fr 18:00; Sa 16:30", "name": "USPS COLLECTION BOX - APC", "note": "ON 12/24 AND 12/31, THIS BOX MAY BE COLLECTED AS EARLY AS 12 NOON.", "ref": "2001600213"}, "type": "Feature"}
{"geometry": {"coordinates": [-77.0756976107, 38.9417247749], "type": "Point"}, "id": "4_7-pd5PB-1xYp93aov0Sx_v_n8=", "properties": {"@spider": "usps_collection_boxes", "addr:city": "WASHINGTON", "addr:country": "US", "addr:full": "4005 WISCONSIN AVE NW", "addr:postcode": "20016", "addr:state": "DC", "brand": "USPS", "collection_times": "Mo-Fr 18:00; Sa 16:00", "name": "USPS COLLECTION BOX - PO LOBBY", "note": "ON 12/24 AND 12/31, THIS BOX MAY BE COLLECTED AS EARLY AS 12 NOON.", "ref": "2001600227"}, "type": "Feature"}
{"geometry": {"coordinates": [-77.1028569048, 38.9258517553], "type": "Point"}, "id": "UjklAkjtVdP-8AwFkda6MCs_fjo=", "properties": {"@spider": "usps_collection_boxes", "addr:city": "WASHINGTON", "addr:country": "US", "addr:full": "5136 MACARTHUR BLVD NW", "addr:postcode": "20016", "addr:state": "DC", "brand": "USPS", "collection_times": "Mo-Fr 17:00; Sa 12:00", "name": "USPS COLLECTION BOX - PO LOBBY", "note": "ON 12/24 AND 12/31, THIS BOX MAY BE COLLECTED AS EARLY AS 12 NOON.", "ref": "2001600228"}, "type": "Feature"}
{"geometry": {"coordinates": [-76.9905585, 38.931813], "type": "Point"}, "id": "wvfSZQJmHnq4Cyk2tv1FOVHg95E=", "properties": {"@spider": "usps_collection_boxes", "addr:city": "WASHINGTON", "addr:country": "US", "addr:full": "3401 12TH ST NE", "addr:postcode": "20017", "addr:state": "DC", "brand": "USPS", "collection_times": "Mo-Fr 17:00", "name": "USPS COLLECTION BOX - PO LOBBY", "note": "ON 12/24 AND 12/31, THIS BOX MAY BE COLLECTED AS EARLY AS 12 NOON.", "ref": "2001700098"}, "type": "Feature"}
{"geometry": {"coordinates": [-76.9905585, 38.931813], "type": "Point"}, "id": "zXx0lCG8WnVk8d-ndBbzyq9qfPI=", "properties": {"@spider": "usps_collection_boxes", "addr:city": "WASHINGTON", "addr:country": "US", "addr:full": "3401 12TH ST NE", "addr:postcode": "20017", "addr:state": "DC", "brand": "USPS", "collection_times": "Mo-Fr 17:00; Sa 12:00", "name": "USPS COLLECTION BOX - PO LOBBY", "note": "ON 12/24 AND 12/31, THIS BOX MAY BE COLLECTED AS EARLY AS 12 NOON.", "ref": "2001700101"}, "type": "Feature"}
{"geometry": {"coordinates": [-76.9602015, 38.929725], "type": "Point"}, "id": "_uCZj0p_jEN4JGtSwhXdKKjho3E=", "properties": {"@spider": "usps_collection_boxes", "addr:city": "WASHINGTON", "addr:country": "US", "addr:full": "3178 BLADENSBURG RD NE", "addr:postcode": "20018", "addr:state": "DC", "brand": "USPS", "collection_times": "Mo-Fr 17:00; Sa 13:30", "name": "USPS COLLECTION BOX - PO LOBBY", "note": "ON 12/24 AND 12/31, THIS BOX MAY BE COLLECTED AS EARLY AS 12 NOON.", "ref": "2001800113"}, "type": "Feature"}
{"geometry": {"coordinates": [-76.993602, 38.917406], "type": "Point"}, "id": "5UtCaoO7xz6PhmYRr-Lh439He48=", "properties": {"@spider": "usps_collection_boxes", "addr:city": "WASHINGTON", "addr:country": "US", "addr:full": "900 BRENTWOOD RD NE", "addr:postcode": "20018", "addr:state": "DC", "brand": "USPS", "collection_times": "Mo-Fr 17:00; Sa 16:00", "name": "USPS COLLECTION BOX - PO LOBBY", "note": "ON 12/24 AND 12/31, THIS BOX MAY BE COLLECTED AS EARLY AS 12 NOON.", "ref": "2001800114"}, "type": "Feature"}
{"geometry": {"coordinates": [-76.973751, 38.929914], "type": "Point"}, "id": "3BjxPendtekHaJeB1kQE4QLDDMk=", "properties": {"@spider": "usps_collection_boxes", "addr:city": "WASHINGTON", "addr:country": "US", "addr:full": "2211 RHODE ISLAND AVE NE", "addr:postcode": "20018", "addr:state": "DC", "brand": "USPS", "collection_times": "Mo-Fr 17:00", "name": "USPS COLLECTION BOX - PO LOBBY", "note": "ON 12/24 AND 12/31, THIS BOX MAY BE COLLECTED AS EARLY AS 12 NOON.", "ref": "2001800116"}, "type": "Feature"}
{"geometry": {"coordinates": [-76.9602015, 38.929725], "type": "Point"}, "id": "WyE74lNOqWuHM3iHJnWHIFamLDQ=", "properties": {"@spider": "usps_collection_boxes", "addr:city": "WASHINGTON", "addr:country": "US", "addr:full": "3178 BLADENSBURG RD NE", "addr:postcode": "20018", "addr:state": "DC", "brand": "USPS", "collection_times": "Mo-Fr 17:00; Sa 13:00", "name": "USPS COLLECTION BOX - PO LOBBY", "note": "ON 12/24 AND 12/31, THIS BOX MAY BE COLLECTED AS EARLY AS 12 NOON.", "ref": "2001800122"}, "type": "Feature"}
{"geometry": {"coordinates": [-76.973751, 38.929914], "type": "Point"}, "id": "AEfkGmwDccj-JOvAJgZs_VX-Riw=", "properties": {"@spider": "usps_collection_boxes", "addr:city": "WASHINGTON", "addr:country": "US", "addr:full": "2211 RHODE ISLAND AVE NE", "addr:postcode": "20018", "addr:state": "DC", "brand": "USPS", "collection_times": "Mo-Fr 17:00", "name": "USPS COLLECTION BOX - PO LOBBY", "note": "ON 12/24 AND 12/31, THIS BOX MAY BE COLLECTED AS EARLY AS 12 NOON.", "ref": "2001800123"}, "type": "Feature"}
{"geometry": {"coordinates": [-76.9954905, 38.917323], "type": "Point"}, "id": "F614W5qYIny6dXVV-LAGyM4PlIc=", "properties": {"@spider": "usps_collection_boxes", "addr:city": "WASHINGTON", "addr:country": "US", "addr:full": "900 BRENTWOOD RD NE", "addr:postcode": "20018", "addr:state": "DC", "brand": "USPS", "collection_times": "Mo-Fr 17:00; Sa 16:00", "name": "USPS COLLECTION BOX - PO LOBBY", "note": "ON 12/24 AND 12/31, THIS BOX MAY BE COLLECTED AS EARLY AS 12 NOON.", "ref": "2001800124"}, "type": "Feature"}
{"geometry": {"coordinates": [-76.9519607, 38.904679], "type": "Point"}, "id": "eHROUCKhXu-68pQaIvffuWIuJaA=", "properties": {"@spider": "usps_collection_boxes", "addr:city": "WASHINGTON", "addr:country": "US", "addr:full": "3688 HAYES ST NE", "addr:postcode": "20019", "addr:state": "DC", "brand": "USPS", "collection_times": "Mo-Fr 12:20; Sa 11:00", "name": "USPS COLLECTION BOX - BLUE BOX", "note": "ON 12/24 AND 12/31, THIS BOX MAY BE COLLECTED AS EARLY AS 12 NOON.", "ref": "2001900011"}, "type": "Feature"}
{"geometry": {"coordinates": [-76.94743, 38.890898], "type": "Point"}, "id": "2eFaUODLmPM2qboyqQQrV0zkiec=", "properties": {"@spider": "usps_collection_boxes", "addr:city": "WASHINGTON", "addr:country": "US", "addr:full": "3984 AMES ST NE", "addr:postcode": "20019", "addr:state": "DC", "brand": "USPS", "collection_times": "Mo-Fr 10:00; Sa 14:20", "name": "USPS COLLECTION BOX - BLUE BOX", "note": "ON 12/24 AND 12/31, THIS BOX MAY BE COLLECTED AS EARLY AS 12 NOON.", "ref": "2001900016"}, "type": "Feature"}
{"geometry": {"coordinates": [-76.949489, 38.894613], "type": "Point"}, "id": "QSuf6PEymY2yJV9ux7TGLJR-81Y=", "properties": {"@spider": "usps_collection_boxes", "addr:city": "WASHINGTON", "addr:country": "US", "addr:full": "3937 MINNESOTA AVE NE", "addr:postcode": "20019", "addr:state": "DC", "brand": "USPS", "collection_times": "Mo-Fr 17:00; Sa 12:00", "name": "USPS COLLECTION BOX - PO LOBBY", "note": "ON 12/24 AND 12/31, THIS BOX MAY BE COLLECTED AS EARLY AS 12 NOON.", "ref": "2001900136"}, "type": "Feature"}
{"geometry": {"coordinates": [-76.9533165, 38.895408], "type": "Point"}, "id": "xRe26QdaP-4s7MMw1pcPpLoNynk=", "properties": {"@spider": "usps_collection_boxes", "addr:city": "WASHINGTON", "addr:country": "US", "addr:full": "3621 BENNING RD NE", "addr:postcode": "20019", "addr:state": "DC", "brand": "USPS", "collection_times": "Mo-Fr 17:00; Sa 12:00", "name": "USPS COLLECTION BOX - PO LOBBY", "note": "ON 12/24 AND 12/31, THIS BOX MAY BE COLLECTED AS EARLY AS 12 NOON.", "ref": "2001900146"}, "type": "Feature"}
{"geometry": {"coordinates": [-76.951127, 38.86549], "type": "Point"}, "id": "Y7mhUxU3TwaclJNpgjsfvEBKUKg=", "properties": {"@spider": "usps_collection_boxes", "addr:city": "WASHINGTON", "addr:country": "US", "addr:full": "3843 PENNSYLVANIA AVE SE", "addr:postcode": "20020", "addr:state": "DC", "brand": "USPS", "collection_times": "Mo-Fr 17:00", "name": "USPS COLLECTION BOX - PO LOBBY", "note": "ON 12/24 AND 12/31, THIS BOX MAY BE COLLECTED AS EARLY AS 12 NOON.", "ref": "2002000134"}, "type": "Feature"}
{"geometry": {"coordinates": [-76.9672935, 38.858652], "type": "Point"}, "id": "TtnWPi6Wii3KS-GPQI7PlliSUXQ=", "properties": {"@spider": "usps_collection_boxes", "addr:city": "WASHINGTON", "addr:country": "US", "addr:full": "2833 ALABAMA AVE SE", "addr:postcode": "20020", "addr:state": "DC", "brand": "USPS", "collection_times": "Mo-Fr 17:00; Sa 12:00", "name": "USPS COLLECTION BOX - PO LOBBY", "note": "ON 12/24 AND 12/31, THIS BOX MAY BE COLLECTED AS EARLY AS 12 NOON.", "ref": "2002000135"}, "type": "Feature"}
{"geometry": {"coordinates": [-76.9672935, 38.858652], "type": "Point"}, "id": "Xw1JaOYX7MEgtzpirrYJ834GT78=", "properties": {"@spider": "usps_collection_boxes", "addr:city": "WASHINGTON", "addr:country": "US", "addr:full": "2833 ALABAMA AVE SE", "addr:postcode": "20020", "addr:state": "DC", "brand": "USPS", "collection_times": "Mo-Fr 17:00; Sa 12:00", "name": "USPS COLLECTION BOX - PO LOBBY", "note": "ON 12/24 AND 12/31, THIS BOX MAY BE COLLECTED AS EARLY AS 12 NOON.", "ref": "2002000136"}, "type": "Feature"}
{"geometry": {"coordinates": [-76.97169, 38.873863], "type": "Point"}, "id": "67Z-KUoivY8GMjTyZ2FzSeGyE2o=", "properties": {"@spider": "usps_collection_boxes", "addr:city": "WASHINGTON", "addr:country": "US", "addr:full": "2341 PENNSYLVANIA AVE SE", "addr:postcode": "20020", "addr:state": "DC", "brand": "USPS", "collection_times": "Mo-Fr 17:00", "name": "USPS COLLECTION BOX - PO LOBBY", "note": "ON 12/24 AND 12/31, THIS BOX MAY BE COLLECTED AS EARLY AS 12 NOON.", "ref": "2002000137"}, "type": "Feature"}
{"geometry": {"coordinates": [-76.9679775, 38.861514], "type": "Point"}, "id": "kVuiMK0dhUUddnbrmSIVpB39yXc=", "properties": {"@spider": "usps_collection_boxes", "addr:city": "WASHINGTON", "addr:country": "US", "addr:full": "2650 NAYLOR RD SE", "addr:postcode": "20020", "addr:state": "DC", "brand": "USPS", "collection_times": "Mo-Fr 17:00", "name": "USPS COLLECTION BOX - PO LOBBY", "note": "ON 12/24 AND 12/31, THIS BOX MAY BE COLLECTED AS EARLY AS 12 NOON.", "ref": "2002000145"}, "type": "Feature"}
{"geometry": {"coordinates": [-77.0102231, 38.877987], "type": "Point"}, "id": "rNMsFLfc1bv33dEw5VPcK5rpGfc=", "properties": {"@spider": "usps_collection_boxes", "addr:city": "WASHINGTON", "addr:country": "US", "addr:full": "45 L ST SW", "addr:postcode": "20024", "addr:state": "DC", "brand": "USPS", "collection_times": "Mo-Fr 17:00", "name": "USPS COLLECTION BOX - PO LOBBY", "note": "ON 12/24 AND 12/31, THIS BOX MAY BE COLLECTED AS EARLY AS 12 NOON.", "ref": "2002400236"}, "type": "Feature"}
{"geometry": {"coordinates": [-77.0256714788, 38.8838286227], "type": "Point"}, "id": "dG0M7ZYswS_WmtZYxjsstWP8KzY=", "properties": {"@spider": "usps_collection_boxes", "addr:city": "WASHINGTON", "addr:country": "US", "addr:full": "437 L'ENFANT PLZ SW", "addr:postcode": "20024", "addr:state": "DC", "brand": "USPS", "collection_times": "Mo-Fr 17:00", "name": "USPS COLLECTION BOX - PO LOBBY", "note": "ON 12/24 AND 12/31, THIS BOX MAY BE COLLECTED AS EARLY AS 12 NOON.", "ref": "2002400238"}, "type": "Feature"}
{"geometry": {"coordinates": [-77.025671479, 38.883828623], "type": "Point"}, "id": "kzUmmqMX4HTJUe-HCklroj5Z0A4=", "properties": {"@spider": "usps_collection_boxes", "addr:city": "WASHINGTON", "addr:country": "US", "addr:full": "437 L'ENFANT PLZ SW", "addr:postcode": "20024", "addr:state": "DC", "brand": "USPS", "collection_times": "Mo-Fr 17:00", "name": "USPS COLLECTION BOX - APC", "note": "ON 12/24 AND 12/31, THIS BOX MAY BE COLLECTED AS EARLY AS 12 NOON.", "ref": "2002400239"}, "type": "Feature"}
{"geometry": {"coordinates": [-77.010327, 38.877957], "type": "Point"}, "id": "bo1bj8KkSGJ2WjRkmYbwXd-0NSs=", "properties": {"@spider": "usps_collection_boxes", "addr:city": "WASHINGTON", "addr:country": "US", "addr:full": "45 L ST SW", "addr:postcode": "20024", "addr:state": "DC", "brand": "USPS", "collection_times": "Mo-Fr 17:00", "name": "USPS COLLECTION BOX - PO LOBBY", "note": "ON 12/24 AND 12/31, THIS BOX MAY BE COLLECTED AS EARLY AS 12 NOON.", "ref": "2002400242"}, "type": "Feature"}
{"geometry": {"coordinates": [-77.010327, 38.877948], "type": "Point"}, "id": "KctBe-ak1yPDJxttqS_5Wt3ZY3U=", "properties": {"@spider": "usps_collection_boxes", "addr:city": "WASHINGTON", "addr:country": "US", "addr:full": "45 L ST SW", "addr:postcode": "20024", "addr:state": "DC", "brand": "USPS", "collection_times": "Mo-Fr 17:00; Sa 12:00", "name": "USPS COLLECTION BOX - PO LOBBY", "note": "ON 12/24 AND 12/31, THIS BOX MAY BE COLLECTED AS EARLY AS 12 NOON.", "ref": "2002400250"}, "type": "Feature"}
{"geometry": {"coordinates": [-77.024522608, 38.884152746], "type": "Point"}, "id": "ravTHcbubF2R1HSILx9yHtKVikE=", "properties": {"@spider": "usps_collection_boxes", "addr:city": "WASHINGTON", "addr:country": "US", "addr:full": "470 LENFANT PLZ SW STE 604", "addr:postcode": "20026", "addr:state": "DC", "brand": "USPS", "collection_times": "Mo-Fr 17:00", "name": "USPS COLLECTION BOX - PO LOBBY", "note": "ON 12/24 AND 12/31, THIS BOX MAY BE COLLECTED AS EARLY AS 12 NOON.", "ref": "2002600001"}, "type": "Feature"}
{"geometry": {"coordinates": [-77.000382, 38.822373], "type": "Point"}, "id": "H8LO0IoaOj31Lg75g5exOIerAYo=", "properties": {"@spider": "usps_collection_boxes", "addr:city": "WASHINGTON", "addr:country": "US", "addr:full": "400 SOUTHERN AVE SE", "addr:postcode": "20032", "addr:state": "DC", "brand": "USPS", "collection_times": "Mo-Fr 17:00; Sa 14:00", "name": "USPS COLLECTION BOX - PO LOBBY", "note": "ON 12/24 AND 12/31, THIS BOX MAY BE COLLECTED AS EARLY AS 12 NOON.", "ref": "2003200099"}, "type": "Feature"}
{"geometry": {"coordinates": [-77.000382, 38.822373], "type": "Point"}, "id": "tT35Vqb4yy4_fmsh4XS3_B2Jys8=", "properties": {"@spider": "usps_collection_boxes", "addr:city": "WASHINGTON", "addr:country": "US", "addr:full": "400 SOUTHERN AVE SE", "addr:postcode": "20032", "addr:state": "DC", "brand": "USPS", "collection_times": "Mo-Fr 17:00; Sa 14:00", "name": "USPS COLLECTION BOX - PO LOBBY", "note": "ON 12/24 AND 12/31, THIS BOX MAY BE COLLECTED AS EARLY AS 12 NOON.", "ref": "2003200100"}, "type": "Feature"}
{"geometry": {"coordinates": [-77.0110961874, 38.844272871], "type": "Point"}, "id": "RU5gPDScZ65ygOTy56xQbIk5sys=", "properties": {"@spider": "usps_collection_boxes", "addr:city": "WASHINGTON", "addr:country": "US", "addr:full": "10 BROOKLEY AVE SW", "addr:postcode": "20032", "addr:state": "DC", "brand": "USPS", "collection_times": "Mo-Fr 17:00; Sa 12:00", "name": "USPS COLLECTION BOX - PO LOBBY", "note": "ON 12/24 AND 12/31, THIS BOX MAY BE COLLECTED AS EARLY AS 12 NOON.", "ref": "2003200105"}, "type": "Feature"}
{"geometry": {"coordinates": [-77.000382, 38.822373], "type": "Point"}, "id": "olwvkJQKv61f5GBUG-kn5mYnMpk=", "properties": {"@spider": "usps_collection_boxes", "addr:city": "WASHINGTON", "addr:country": "US", "addr:full": "400 SOUTHERN AVE SE", "addr:postcode": "20032", "addr:state": "DC", "brand": "USPS", "collection_times": "Mo-Fr 17:00; Sa 14:00", "name": "USPS COLLECTION BOX - PO LOBBY", "note": "ON 12/24 AND 12/31, THIS BOX MAY BE COLLECTED AS EARLY AS 12 NOON.", "ref": "2003200106"}, "type": "Feature"}
{"geometry": {"coordinates": [-77.042181, 38.905633], "type": "Point"}, "id": "lyMJeseoa9CkqNJfF12Gjv-DMKM=", "properties": {"@spider": "usps_collection_boxes", "addr:city": "WASHINGTON", "addr:country": "US", "addr:full": "1800 M ST NW", "addr:postcode": "20036", "addr:state": "DC", "brand": "USPS", "collection_times": "Mo-Fr 17:00", "name": "USPS COLLECTION BOX - PO LOBBY", "note": "ON 12/24 AND 12/31, THIS BOX MAY BE COLLECTED AS EARLY AS 12 NOON.", "ref": "2003600567"}, "type": "Feature"}
{"geometry": {"coordinates": [-77.042181, 38.905633], "type": "Point"}, "id": "x7JpT9tXSzJfUMdUiFbvLw_ftaw=", "properties": {"@spider": "usps_collection_boxes", "addr:city": "WASHINGTON", "addr:country": "US", "addr:full": "1800 M ST NW", "addr:postcode": "20036", "addr:state": "DC", "brand": "USPS", "collection_times": "Mo-Fr 17:00", "name": "USPS COLLECTION BOX - PO LOBBY", "note": "ON 12/24 AND 12/31, THIS BOX MAY BE COLLECTED AS EARLY AS 12 NOON.", "ref": "2003600568"}, "type": "Feature"}
{"geometry": {"coordinates": [-77.040351, 38.903517], "type": "Point"}, "id": "4QN4uKY1an1lMMxD50kYt6wiWHA=", "properties": {"@spider": "usps_collection_boxes", "addr:city": "WASHINGTON", "addr:country": "US", "addr:full": "1050 CONNECTICUT AVE NW", "addr:postcode": "20036", "addr:state": "DC", "brand": "USPS", "collection_times": "Mo-Fr 17:00", "name": "USPS COLLECTION BOX - PO LOBBY", "note": "ON 12/24 AND 12/31, THIS BOX MAY BE COLLECTED AS EARLY AS 12 NOON.", "ref": "2003600569"}, "type": "Feature"}
{"geometry": {"coordinates": [-77.040351, 38.903517], "type": "Point"}, "id": "POoqG-gpZUWXiIq7MBM7X7I5I8k=", "properties": {"@spider": "usps_collection_boxes", "addr:city": "WASHINGTON", "addr:country": "US", "addr:full": "1050 CONNECTICUT AVE NW", "addr:postcode": "20036", "addr:state": "DC", "brand": "USPS", "collection_times": "Mo-Fr 17:00", "name": "USPS COLLECTION BOX - PO LOBBY", "note": "ON 12/24 AND 12/31, THIS BOX MAY BE COLLECTED AS EARLY AS 12 NOON.", "ref": "2003600570"}, "type": "Feature"}
{"geometry": {"coordinates": [-77.048777, 38.90668], "type": "Point"}, "id": "7B7MhmjJejdZnEL3e3lbOlfXPaY=", "properties": {"@spider": "usps_collection_boxes", "addr:city": "WASHINGTON", "addr:country": "US", "addr:full": "1255 22ND ST NW", "addr:postcode": "20036", "addr:state": "DC", "brand": "USPS", "collection_times": "Mo-Fr 17:00", "name": "USPS COLLECTION BOX - PO LOBBY", "note": "ON 12/24 AND 12/31, THIS BOX MAY BE COLLECTED AS EARLY AS 12 NOON.", "ref": "2003600574"}, "type": "Feature"}
{"geometry": {"coordinates": [-77.040351, 38.903517], "type": "Point"}, "id": "iYtpEiuMNJqls6crtEvpZJYztbc=", "properties": {"@spider": "usps_collection_boxes", "addr:city": "WASHINGTON", "addr:country": "US", "addr:full": "1050 CONNECTICUT AVE NW", "addr:postcode": "20036", "addr:state": "DC", "brand": "USPS", "collection_times": "Mo-Fr 17:00", "name": "USPS COLLECTION BOX - APC", "note": "ON 12/24 AND 12/31, THIS BOX MAY BE COLLECTED AS EARLY AS 12 NOON.", "ref": "2003600577"}, "type": "Feature"}
{"geometry": {"coordinates": [-77.0503024, 38.903079], "type": "Point"}, "id": "R2FxODFIREU6EFGNh9D6M3QmKlw=", "properties": {"@spider": "usps_collection_boxes", "addr:city": "WASHINGTON", "addr:country": "US", "addr:full": "3 WASHINGTON CIR NW", "addr:postcode": "20037", "addr:state": "DC", "brand": "USPS", "collection_times": "Mo-Fr 10:00; Sa 14:00", "name": "USPS COLLECTION BOX - BLUE BOX", "note": "ON 12/24 AND 12/31, THIS BOX MAY BE COLLECTED AS EARLY AS 12 NOON.", "ref": "2003700002"}, "type": "Feature"}
{"geometry": {"coordinates": [-77.055354, 38.900295], "type": "Point"}, "id": "blTyXoJQxfvFHtXtO_WYiReEB64=", "properties": {"@spider": "usps_collection_boxes", "addr:city": "WASHINGTON", "addr:country": "US", "addr:full": "2601 VIRGINIA AVE NW", "addr:postcode": "20037", "addr:state": "DC", "brand": "USPS", "collection_times": "Mo-Fr 12:00; Sa 12:40", "name": "USPS COLLECTION BOX - BLUE BOX", "note": "ON 12/24 AND 12/31, THIS BOX MAY BE COLLECTED AS EARLY AS 12 NOON.", "ref": "2003700086"}, "type": "Feature"}
{"geometry": {"coordinates": [-77.054346, 38.899026], "type": "Point"}, "id": "IR7U8nzlU8fUZw92cLxPFoWeHfU=", "properties": {"@spider": "usps_collection_boxes", "addr:city": "WASHINGTON", "addr:country": "US", "addr:full": "2512 VIRGINIA AVE NW", "addr:postcode": "20037", "addr:state": "DC", "brand": "USPS", "collection_times": "Mo-Fr 17:00", "name": "USPS COLLECTION BOX - PO LOBBY", "note": "ON 12/24 AND 12/31, THIS BOX MAY BE COLLECTED AS EARLY AS 12 NOON.", "ref": "2003700253"}, "type": "Feature"}
{"geometry": {"coordinates": [-77.054346, 38.899026], "type": "Point"}, "id": "NB1IjBrPyMEhWEjNT0njbqJJyII=", "properties": {"@spider": "usps_collection_boxes", "addr:city": "WASHINGTON", "addr:country": "US", "addr:full": "2512 VIRGINIA AVE NW", "addr:postcode": "20037", "addr:state": "DC", "brand": "USPS", "collection_times": "Mo-Fr 17:00", "name": "USPS COLLECTION BOX - PO LOBBY", "note": "ON 12/24 AND 12/31, THIS BOX MAY BE COLLECTED AS EARLY AS 12 NOON.", "ref": "2003700254"}, "type": "Feature"}
{"geometry": {"coordinates": [-77.0483655, 38.906685], "type": "Point"}, "id": "yQjDeiLr3_3OrEYwInhWUGdt0r0=", "properties": {"@spider": "usps_collection_boxes", "addr:city": "WASHINGTON", "addr:country": "US", "addr:full": "1255 22ND ST NW", "addr:postcode": "20037", "addr:state": "DC", "brand": "USPS", "collection_times": "Mo-Fr 17:00; Sa 13:00", "name": "USPS COLLECTION BOX - PO LOBBY", "note": "ON 12/24 AND 12/31, THIS BOX MAY BE COLLECTED AS EARLY AS 12 NOON.", "ref": "2003700262"}, "type": "Feature"}
{"geometry": {"coordinates": [-77.054346, 38.899026], "type": "Point"}, "id": "ZQE-_n-Algotu8PFoeRMulTiPmc=", "properties": {"@spider": "usps_collection_boxes", "addr:city": "WASHINGTON", "addr:country": "US", "addr:full": "2512 VIRGINIA AVE NW", "addr:postcode": "20037", "addr:state": "DC", "brand": "USPS", "collection_times": "Mo-Fr 17:00", "name": "USPS COLLECTION BOX - PO LOBBY", "note": "ON 12/24 AND 12/31, THIS BOX MAY BE COLLECTED AS EARLY AS 12 NOON.", "ref": "2003700263"}, "type": "Feature"}
