{"geometry": {"coordinates": [-76.902208404, 38.616151964], "type": "Point"}, "id": "DKM6Lv5O79UDGHmUvP5iy9GGAKA=", "properties": {"@spider": "usps_collection_boxes", "addr:city": "WALDORF", "addr:country": "US", "addr:full": "150 POST OFFICE RD", "addr:postcode": "20601", "addr:state": "MD", "brand": "USPS", "collection_times": "Mo-Fr 17:00; Sa 14:30", "name": "USPS COLLECTION BOX - BLUE BOX", "note": "ON 12/24 AND 12/31, THIS BOX MAY BE COLLECTED AS EARLY AS 12 NOON.", "ref": "2060100001"}, "type": "Feature"}
{"geometry": {"coordinates": [-76.8758193, 38.654922], "type": "Point"}, "id": "WZNtWaE1n5gPSoE-qyijcp42kmQ=", "properties": {"@spider": "usps_collection_boxes", "addr:city": "WALDORF", "addr:country": "US", "addr:full": "12570 MATTAWOMAN BEANTOWN RD", "addr:postcode": "20601", "addr:state": "MD", "brand": "USPS", "collection_times": "Mo-Sa 09:00", "name": "USPS COLLECTION BOX - BLUE BOX", "ref": "2060100005"}, "type": "Feature"}
{"geometry": {"coordinates": [-76.8860984, 38.649568], "type": "Point"}, "id": "GqgDWO26NJtnFt2_QbddSM3NaLo=", "properties": {"@spider": "usps_collection_boxes", "addr:city": "WALDORF", "addr:country": "US", "addr:full": "2255 CRAIN HWY", "addr:postcode": "20601", "addr:state": "MD", "brand": "USPS", "collection_times": "Mo-Sa 09:00", "name": "USPS COLLECTION BOX - BLUE BOX", "ref": "2060100014"}, "type": "Feature"}
{"geometry": {"coordinates": [-76.8988995, 38.639174], "type": "Point"}, "id": "5b3aBHxSv6Tknsooe8APIEvqLDM=", "properties": {"@spider": "usps_collection_boxes", "addr:city": "WALDORF", "addr:country": "US", "addr:full": "2 BUSINESS PARK DR", "addr:postcode": "20601", "addr:state": "MD", "brand": "USPS", "collection_times": "Mo-Sa 09:00", "name": "USPS COLLECTION BOX - BLUE BOX", "ref": "2060100015"}, "type": "Feature"}
{"geometry": {"coordinates": [-76.9106126, 38.630933], "type": "Point"}, "id": "kXQnf7D0hgTpbTOu1f1Cjn3Sb1A=", "properties": {"@spider": "usps_collection_boxes", "addr:city": "WALDORF", "addr:country": "US", "addr:full": "2987 A FESTIVAL WAY", "addr:postcode": "20601", "addr:state": "MD", "brand": "USPS", "collection_times": "Mo-Sa 09:00", "name": "USPS COLLECTION BOX - BLUE BOX", "ref": "2060100020"}, "type": "Feature"}
{"geometry": {"coordinates": [-76.8810252, 38.651324], "type": "Point"}, "id": "DjE0tCNDbpo0WPqybhC7gJYUorg=", "properties": {"@spider": "usps_collection_boxes", "addr:city": "WALDORF", "addr:country": "US", "addr:full": "2170 OLD WASHINGTON RD", "addr:postcode": "20601", "addr:state": "MD", "brand": "USPS", "collection_times": "Mo-Sa 09:00", "name": "USPS COLLECTION BOX - BLUE BOX", "ref": "2060100021"}, "type": "Feature"}
{"geometry": {"coordinates": [-76.8940263, 38.618768], "type": "Point"}, "id": "9yJ6vjZv0lmDs1L8j1X2yGJswwA=", "properties": {"@spider": "usps_collection_boxes", "addr:city": "WALDORF", "addr:country": "US", "addr:full": "3600 LEONARDTOWN RD", "addr:postcode": "20601", "addr:state": "MD", "brand": "USPS", "collection_times": "Mo-Sa 09:00", "name": "USPS COLLECTION BOX - BLUE BOX", "ref": "2060100022"}, "type": "Feature"}
{"geometry": {"coordinates": [-76.902662, 38.616503], "type": "Point"}, "id": "ux1DmCW9Ur9JAcj3BIejm5bp1g0=", "properties": {"@spider": "usps_collection_boxes", "addr:city": "WALDORF", "addr:country": "US", "addr:full": "150 POST OFFICE RD", "addr:postcode": "20601", "addr:state": "MD", "brand": "USPS", "collection_times": "Mo-Fr 17:00; Sa 15:00", "name": "USPS COLLECTION BOX - APC", "note": "ON 12/24 AND 12/31, THIS BOX MAY BE COLLECTED AS EARLY AS 12 NOON.", "ref": "2060100025"}, "type": "Feature"}
{"geometry": {"coordinates": [-76.902662, 38.616503], "type": "Point"}, "id": "sK6s3B5uLWDItkzLrFi0uaqHWn4=", "properties": {"@spider": "usps_collection_boxes", "addr:city": "WALDORF", "addr:country": "US", "addr:full": "150 POST OFFICE RD", "addr:postcode": "20601", "addr:state": "MD", "brand": "USPS", "collection_times": "Mo-Fr 17:00; Sa 15:00", "name": "USPS COLLECTION BOX - PO LOBBY", "note": "ON 12/24 AND 12/31, THIS BOX MAY BE COLLECTED AS EARLY AS 12 NOON.", "ref": "2060100026"}, "type": "Feature"}
{"geometry": {"coordinates": [-76.8758499, 38.654435], "type": "Point"}, "id": "ux7BeesGnnxQQiHEDVE0Tp6eK54=", "properties": {"@spider": "usps_collection_boxes", "addr:city": "WALDORF", "addr:country": "US", "addr:full": "12549 MATTAWOMAN DR", "addr:postcode": "20601", "addr:state": "MD", "brand": "USPS", "collection_times": "Mo-Sa 09:00", "name": "USPS COLLECTION BOX - BLUE BOX", "ref": "2060100027"}, "type": "Feature"}
{"geometry": {"coordinates": [-76.8920446, 38.617451], "type": "Point"}, "id": "QJAtIInenwkAYsWnjcSESff5m5s=", "properties": {"@spider": "usps_collection_boxes", "addr:city": "WALDORF", "addr:country": "US", "addr:full": "3659 LEONARDTOWN RD", "addr:postcode": "20601", "addr:state": "MD", "brand": "USPS", "collection_times": "Mo-Sa 09:00", "name": "USPS COLLECTION BOX - BLUE BOX", "ref": "2060100028"}, "type": "Feature"}
{"geometry": {"coordinates": [-76.9022082616, 38.6161578213], "type": "Point"}, "id": "P4b8ZtOsrB3CWzrFj872CRgRdaA=", "properties": {"@spider": "usps_collection_boxes", "addr:city": "WALDORF", "addr:country": "US", "addr:full": "150 POST OFFICE RD", "addr:postcode": "20601", "addr:state": "MD", "brand": "USPS", "collection_times": "Mo-Fr 17:00; Sa 15:00", "name": "USPS COLLECTION BOX - PO LOBBY", "note": "ON 12/24 AND 12/31, THIS BOX MAY BE COLLECTED AS EARLY AS 12 NOON.", "ref": "2060100034"}, "type": "Feature"}
{"geometry": {"coordinates": [-76.8952650175, 38.6036731363], "type": "Point"}, "id": "6pfUtekONTXWSxyWPG0buZTt2ZI=", "properties": {"@spider": "usps_collection_boxes", "addr:city": "WALDORF", "addr:country": "US", "addr:full": "2000 AMBER LEAF PL", "addr:postcode": "20602", "addr:state": "MD", "brand": "USPS", "collection_times": "Mo-Sa 09:00", "name": "USPS COLLECTION BOX - BLUE BOX", "ref": "2060200003"}, "type": "Feature"}
{"geometry": {"coordinates": [-76.900568, 38.603221], "type": "Point"}, "id": "VKTvJxuKfeELL61tp9-ZNB0lVVU=", "properties": {"@spider": "usps_collection_boxes", "addr:city": "WALDORF", "addr:country": "US", "addr:full": "129 SMALLWOOD VILLAGE CTR", "addr:postcode": "20602", "addr:state": "MD", "brand": "USPS", "collection_times": "Mo-Sa 09:30", "name": "USPS COLLECTION BOX - BLUE BOX", "ref": "2060200004"}, "type": "Feature"}
{"geometry": {"coordinates": [-76.9042271, 38.602031], "type": "Point"}, "id": "Jo3DHIpwiohIPvgFFkRzXyKrNDE=", "properties": {"@spider": "usps_collection_boxes", "addr:city": "WALDORF", "addr:country": "US", "addr:full": "1057 SAINT IGNATIUS DR", "addr:postcode": "20602", "addr:state": "MD", "brand": "USPS", "collection_times": "Mo-Sa 09:30", "name": "USPS COLLECTION BOX - BLUE BOX", "ref": "2060200005"}, "type": "Feature"}
{"geometry": {"coordinates": [-76.9026526, 38.598895], "type": "Point"}, "id": "rM4AFNdAJ8PIxGmULBev9GPn8fA=", "properties": {"@spider": "usps_collection_boxes", "addr:city": "WALDORF", "addr:country": "US", "addr:full": "2660 HUSK PL", "addr:postcode": "20602", "addr:state": "MD", "brand": "USPS", "collection_times": "Mo-Sa 09:30", "name": "USPS COLLECTION BOX - BLUE BOX", "ref": "2060200007"}, "type": "Feature"}
{"geometry": {"coordinates": [-76.9010624, 38.604946], "type": "Point"}, "id": "BRK8mmkFGQd91pmfklrGnYok3X0=", "properties": {"@spider": "usps_collection_boxes", "addr:city": "WALDORF", "addr:country": "US", "addr:full": "603 POST OFFICE RD", "addr:postcode": "20602", "addr:state": "MD", "brand": "USPS", "collection_times": "Mo-Sa 09:30", "name": "USPS COLLECTION BOX - BLUE BOX", "ref": "2060200008"}, "type": "Feature"}
{"geometry": {"coordinates": [-76.9159219, 38.616456], "type": "Point"}, "id": "5qC5lfrSMX40UDKWXZEfmQcXtW8=", "properties": {"@spider": "usps_collection_boxes", "addr:city": "WALDORF", "addr:country": "US", "addr:full": "3500 OLD WASHINGTON RD", "addr:postcode": "20602", "addr:state": "MD", "brand": "USPS", "collection_times": "Mo-Sa 09:30", "name": "USPS COLLECTION BOX - BLUE BOX", "ref": "2060200009"}, "type": "Feature"}
{"geometry": {"coordinates": [-76.8911833, 38.615747], "type": "Point"}, "id": "jJcsc3yA8X34YwWx6E5lYrlFjLc=", "properties": {"@spider": "usps_collection_boxes", "addr:city": "WALDORF", "addr:country": "US", "addr:full": "12070 OLD LINE CTR", "addr:postcode": "20602", "addr:state": "MD", "brand": "USPS", "collection_times": "Mo-Sa 09:30", "name": "USPS COLLECTION BOX - BLUE BOX", "ref": "2060200010"}, "type": "Feature"}
{"geometry": {"coordinates": [-76.9138357, 38.624457], "type": "Point"}, "id": "RxozKkfcjJhxq10nOiTPEYqKPb8=", "properties": {"@spider": "usps_collection_boxes", "addr:city": "WALDORF", "addr:country": "US", "addr:full": "3225 CRAIN HWY", "addr:postcode": "20603", "addr:state": "MD", "brand": "USPS", "collection_times": "Mo-Sa 10:00", "name": "USPS COLLECTION BOX - BLUE BOX", "ref": "2060300001"}, "type": "Feature"}
{"geometry": {"coordinates": [-76.9139015, 38.621423], "type": "Point"}, "id": "kR37pDDNgu-gNwxNI7_PPi6yCi0=", "properties": {"@spider": "usps_collection_boxes", "addr:city": "WALDORF", "addr:country": "US", "addr:full": "3286 CRAIN HWY", "addr:postcode": "20603", "addr:state": "MD", "brand": "USPS", "collection_times": "Mo-Sa 10:00", "name": "USPS COLLECTION BOX - BLUE BOX", "ref": "2060300002"}, "type": "Feature"}
{"geometry": {"coordinates": [-76.929262882, 38.61368127], "type": "Point"}, "id": "2VxYZ4X48VhQAMxTdZzCUDb2N_U=", "properties": {"@spider": "usps_collection_boxes", "addr:city": "WALDORF", "addr:country": "US", "addr:full": "1240 SMALLWOOD DR W", "addr:postcode": "20603", "addr:state": "MD", "brand": "USPS", "collection_times": "Mo-Sa 10:00", "name": "USPS COLLECTION BOX - BLUE BOX", "ref": "2060300003"}, "type": "Feature"}
{"geometry": {"coordinates": [-76.927358923, 38.620498725], "type": "Point"}, "id": "LG55lF_M0s74TUOtBiOhJwjsJIs=", "properties": {"@spider": "usps_collection_boxes", "addr:city": "WALDORF", "addr:country": "US", "addr:full": "11110 MALL CIR", "addr:postcode": "20603", "addr:state": "MD", "brand": "USPS", "collection_times": "Mo-Sa 10:00", "name": "USPS COLLECTION BOX - BLUE BOX", "ref": "2060300006"}, "type": "Feature"}
{"geometry": {"coordinates": [-76.9599643, 38.617268], "type": "Point"}, "id": "nTeZ4berDpkE1z_ldmwgAB9-OyA=", "properties": {"@spider": "usps_collection_boxes", "addr:city": "WALDORF", "addr:country": "US", "addr:full": "6000 ST ANTHONYS DR", "addr:postcode": "20603", "addr:state": "MD", "brand": "USPS", "collection_times": "Mo-Sa 10:00", "name": "USPS COLLECTION BOX - BLUE BOX", "ref": "2060300010"}, "type": "Feature"}
{"geometry": {"coordinates": [-76.9459888, 38.618782], "type": "Point"}, "id": "tPb6Ga0Lh7l-RLBxG152x-On1ro=", "properties": {"@spider": "usps_collection_boxes", "addr:city": "WALDORF", "addr:country": "US", "addr:full": "1 ST JAMES DR", "addr:postcode": "20603", "addr:state": "MD", "brand": "USPS", "collection_times": "Mo-Fr 10:00", "name": "USPS COLLECTION BOX - BLUE BOX", "ref": "2060300011"}, "type": "Feature"}
{"geometry": {"coordinates": [-76.742075988, 38.25029299], "type": "Point"}, "id": "cfY8QeqtWUZirIvhnbNgUlv5aDc=", "properties": {"@spider": "usps_collection_boxes", "addr:city": "ABELL", "addr:country": "US", "addr:full": "21388 ABELL RD", "addr:postcode": "20606", "addr:state": "MD", "brand": "USPS", "collection_times": "Mo-Fr 16:00; Sa 12:00", "name": "USPS COLLECTION BOX - BLUE BOX", "note": "ON 12/24 AND 12/31, THIS BOX MAY BE COLLECTED AS EARLY AS 12 NOON.", "ref": "2060600000"}, "type": "Feature"}
{"geometry": {"coordinates": [-76.742075988, 38.25029299], "type": "Point"}, "id": "5hXHILoqosnN5Bo3-8NexwGNpTE=", "properties": {"@spider": "usps_collection_boxes", "addr:city": "ABELL", "addr:country": "US", "addr:full": "21388 ABELL RD", "addr:postcode": "20606", "addr:state": "MD", "brand": "USPS", "collection_times": "Mo-Fr 16:00; Sa 12:00", "name": "USPS COLLECTION BOX - PO LOBBY", "note": "ON 12/24 AND 12/31, THIS BOX MAY BE COLLECTED AS EARLY AS 12 NOON.", "ref": "2060600001"}, "type": "Feature"}
{"geometry": {"coordinates": [-76.742075988, 38.25029299], "type": "Point"}, "id": "IYTxRDSKePSEbhX0waE3pp8FX2w=", "properties": {"@spider": "usps_collection_boxes", "addr:city": "ABELL", "addr:country": "US", "addr:full": "21388 ABELL RD", "addr:postcode": "20606", "addr:state": "MD", "brand": "USPS", "collection_times": "Mo-Fr 16:00; Sa 12:00", "name": "USPS COLLECTION BOX - PO LOBBY", "note": "ON 12/24 AND 12/31, THIS BOX MAY BE COLLECTED AS EARLY AS 12 NOON.", "ref": "2060600002"}, "type": "Feature"}
{"geometry": {"coordinates": [-77.032814979, 38.664576094], "type": "Point"}, "id": "vrDKH53k5JYjL1nwWhrP2UdsDpA=", "properties": {"@spider": "usps_collection_boxes", "addr:city": "ACCOKEEK", "addr:country": "US", "addr:full": "16405 LIVINGSTON RD", "addr:postcode": "20607", "addr:state": "MD", "brand": "USPS", "collection_times": "Mo-Fr 17:00; Sa 13:00", "name": "USPS COLLECTION BOX - BLUE BOX", "note": "ON 12/24 AND 12/31, THIS BOX MAY BE COLLECTED AS EARLY AS 12 NOON.", "ref": "2060700000"}, "type": "Feature"}
{"geometry": {"coordinates": [-77.0093919, 38.67103], "type": "Point"}, "id": "_SPGJr-drYuX3F_hAj7AiPNoYqg=", "properties": {"@spider": "usps_collection_boxes", "addr:city": "ACCOKEEK", "addr:country": "US", "addr:full": "15789 LIVINGSTON RD", "addr:postcode": "20607", "addr:state": "MD", "brand": "USPS", "collection_times": "Mo-Sa 12:00", "name": "USPS COLLECTION BOX - BLUE BOX", "ref": "2060700001"}, "type": "Feature"}
{"geometry": {"coordinates": [-77.032814979, 38.664576094], "type": "Point"}, "id": "gmRK7W5VsRvmH_bMjHi7K3Q9iiA=", "properties": {"@spider": "usps_collection_boxes", "addr:city": "ACCOKEEK", "addr:country": "US", "addr:full": "16405 LIVINGSTON RD", "addr:postcode": "20607", "addr:state": "MD", "brand": "USPS", "collection_times": "Mo-Fr 17:00; Sa 13:00", "name": "USPS COLLECTION BOX - PO LOBBY", "note": "ON 12/24 AND 12/31, THIS BOX MAY BE COLLECTED AS EARLY AS 12 NOON.", "ref": "2060700002"}, "type": "Feature"}
{"geometry": {"coordinates": [-77.032814979, 38.664576094], "type": "Point"}, "id": "wcLOjWEv5XxkDtHLOlNmkI4RZRU=", "properties": {"@spider": "usps_collection_boxes", "addr:city": "ACCOKEEK", "addr:country": "US", "addr:full": "16405 LIVINGSTON RD", "addr:postcode": "20607", "addr:state": "MD", "brand": "USPS", "collection_times": "Mo-Fr 17:00; Sa 12:00", "name": "USPS COLLECTION BOX - PO LOBBY", "note": "ON 12/24 AND 12/31, THIS BOX MAY BE COLLECTED AS EARLY AS 12 NOON.", "ref": "2060700004"}, "type": "Feature"}
{"geometry": {"coordinates": [-76.766486017, 38.259960007], "type": "Point"}, "id": "LNKp3LCtBL4URK4iKh3KEAiCYEo=", "properties": {"@spider": "usps_collection_boxes", "addr:city": "AVENUE", "addr:country": "US", "addr:full": "21535 COLTON POINT RD", "addr:postcode": "20609", "addr:state": "MD", "brand": "USPS", "collection_times": "Mo-Fr 16:30; Sa 12:00", "name": "USPS COLLECTION BOX - BLUE BOX", "note": "ON 12/24 AND 12/31, THIS BOX MAY BE COLLECTED AS EARLY AS 12 NOON.", "ref": "2060900000"}, "type": "Feature"}
{"geometry": {"coordinates": [-76.766486017, 38.259960007], "type": "Point"}, "id": "AMzKNv00020LCGburRZ9yJA3FDU=", "properties": {"@spider": "usps_collection_boxes", "addr:city": "AVENUE", "addr:country": "US", "addr:full": "21535 COLTON POINT RD", "addr:postcode": "20609", "addr:state": "MD", "brand": "USPS", "collection_times": "Mo-Fr 17:00; Sa 12:00", "name": "USPS COLLECTION BOX - PO LOBBY", "note": "ON 12/24 AND 12/31, THIS BOX MAY BE COLLECTED AS EARLY AS 12 NOON.", "ref": "2060900001"}, "type": "Feature"}
{"geometry": {"coordinates": [-76.766486017, 38.259960007], "type": "Point"}, "id": "7Oadzg4sLzRVhat_Iyq4heI05gI=", "properties": {"@spider": "usps_collection_boxes", "addr:city": "AVENUE", "addr:country": "US", "addr:full": "21535 COLTON POINT RD", "addr:postcode": "20609", "addr:state": "MD", "brand": "USPS", "collection_times": "Mo-Fr 17:00; Sa 12:00", "name": "USPS COLLECTION BOX - PO LOBBY", "note": "ON 12/24 AND 12/31, THIS BOX MAY BE COLLECTED AS EARLY AS 12 NOON.", "ref": "2060900002"}, "type": "Feature"}
{"geometry": {"coordinates": [-76.612892571, 38.530082869], "type": "Point"}, "id": "9ecIc1Q5jyC6QvZMEEVoDK3WplI=", "properties": {"@spider": "usps_collection_boxes", "addr:city": "BARSTOW", "addr:country": "US", "addr:full": "2485 HALLOWING POINT RD", "addr:postcode": "20610", "addr:state": "MD", "brand": "USPS", "collection_times": "Mo-Fr 16:15; Sa 12:00", "name": "USPS COLLECTION BOX - BLUE BOX", "note": "ON 12/24 AND 12/31, THIS BOX MAY BE COLLECTED AS EARLY AS 12 NOON.", "ref": "2061000000"}, "type": "Feature"}
{"geometry": {"coordinates": [-76.612892571, 38.530082869], "type": "Point"}, "id": "r1IjAhhyMiqtdToIb0J6_KAYfVY=", "properties": {"@spider": "usps_collection_boxes", "addr:city": "BARSTOW", "addr:country": "US", "addr:full": "2485 HALLOWING POINT RD", "addr:postcode": "20610", "addr:state": "MD", "brand": "USPS", "collection_times": "Mo-Fr 16:30; Sa 12:00", "name": "USPS COLLECTION BOX - PO LOBBY", "note": "ON 12/24 AND 12/31, THIS BOX MAY BE COLLECTED AS EARLY AS 12 NOON.", "ref": "2061000001"}, "type": "Feature"}
{"geometry": {"coordinates": [-76.612892571, 38.530082869], "type": "Point"}, "id": "AbQJMQrazdutbeK9vM-cKK3eHl0=", "properties": {"@spider": "usps_collection_boxes", "addr:city": "BARSTOW", "addr:country": "US", "addr:full": "2485 HALLOWING POINT RD", "addr:postcode": "20610", "addr:state": "MD", "brand": "USPS", "collection_times": "Mo-Fr 16:30; Sa 12:00", "name": "USPS COLLECTION BOX - PO LOBBY", "note": "ON 12/24 AND 12/31, THIS BOX MAY BE COLLECTED AS EARLY AS 12 NOON.", "ref": "2061000002"}, "type": "Feature"}
{"geometry": {"coordinates": [-76.6780877, 38.511883907], "type": "Point"}, "id": "2QaEvo-O4QHbJSw9-z2cj1vOxUc=", "properties": {"@spider": "usps_collection_boxes", "addr:city": "BENEDICT", "addr:country": "US", "addr:full": "7240 BENEDICT AVE", "addr:postcode": "20612", "addr:state": "MD", "brand": "USPS", "collection_times": "Mo-Fr 16:15; Sa 11:00", "name": "USPS COLLECTION BOX - BLUE BOX", "note": "ON 12/24 AND 12/31, THIS BOX MAY BE COLLECTED AS EARLY AS 12 NOON.", "ref": "2061200000"}, "type": "Feature"}
{"geometry": {"coordinates": [-76.6780877, 38.511883907], "type": "Point"}, "id": "BgoUSgzEOMucbEbKnoyjQuAa7wg=", "properties": {"@spider": "usps_collection_boxes", "addr:city": "BENEDICT", "addr:country": "US", "addr:full": "7240 BENEDICT AVE", "addr:postcode": "20612", "addr:state": "MD", "brand": "USPS", "collection_times": "Mo-Fr 16:15; Sa 11:00", "name": "USPS COLLECTION BOX - PO LOBBY", "note": "ON 12/24 AND 12/31, THIS BOX MAY BE COLLECTED AS EARLY AS 12 NOON.", "ref": "2061200001"}, "type": "Feature"}
{"geometry": {"coordinates": [-76.6780877, 38.511883907], "type": "Point"}, "id": "stR2J4cNpg-4VbXdsMY1-e2WKBk=", "properties": {"@spider": "usps_collection_boxes", "addr:city": "BENEDICT", "addr:country": "US", "addr:full": "7240 BENEDICT AVE", "addr:postcode": "20612", "addr:state": "MD", "brand": "USPS", "collection_times": "Mo-Fr 16:30; Sa 12:00", "name": "USPS COLLECTION BOX - PO LOBBY", "note": "ON 12/24 AND 12/31, THIS BOX MAY BE COLLECTED AS EARLY AS 12 NOON.", "ref": "2061200002"}, "type": "Feature"}
{"geometry": {"coordinates": [-76.850234523, 38.697159535], "type": "Point"}, "id": "M3WQZUBl6wma7ipJVGT7Dw_zcuU=", "properties": {"@spider": "usps_collection_boxes", "addr:city": "BRANDYWINE", "addr:country": "US", "addr:full": "14109 BRANDYWINE RD", "addr:postcode": "20613", "addr:state": "MD", "brand": "USPS", "collection_times": "Mo-Fr 17:00; Sa 12:00", "name": "USPS COLLECTION BOX - BLUE BOX", "note": "ON 12/24 AND 12/31, THIS BOX MAY BE COLLECTED AS EARLY AS 12 NOON.", "ref": "2061300000"}, "type": "Feature"}
{"geometry": {"coordinates": [-76.850234523, 38.697159535], "type": "Point"}, "id": "tAe2nkBoh8JSfBhTFlPGC8yNAbs=", "properties": {"@spider": "usps_collection_boxes", "addr:city": "BRANDYWINE", "addr:country": "US", "addr:full": "14109 BRANDYWINE RD", "addr:postcode": "20613", "addr:state": "MD", "brand": "USPS", "collection_times": "Mo-Fr 17:00; Sa 12:00", "name": "USPS COLLECTION BOX - BLUE BOX", "note": "ON 12/24 AND 12/31, THIS BOX MAY BE COLLECTED AS EARLY AS 12 NOON.", "ref": "2061300001"}, "type": "Feature"}
{"geometry": {"coordinates": [-76.850367411, 38.69663868], "type": "Point"}, "id": "vAyL5pJUO2FuM1lWbxbJ689hYGc=", "properties": {"@spider": "usps_collection_boxes", "addr:city": "BRANDYWINE", "addr:country": "US", "addr:full": "14109 BRANDYWINE RD", "addr:postcode": "20613", "addr:state": "MD", "brand": "USPS", "collection_times": "Mo-Fr 17:00; Sa 12:00", "name": "USPS COLLECTION BOX - PO LOBBY", "note": "ON 12/24 AND 12/31, THIS BOX MAY BE COLLECTED AS EARLY AS 12 NOON.", "ref": "2061300003"}, "type": "Feature"}
{"geometry": {"coordinates": [-76.874391, 38.701737], "type": "Point"}, "id": "g5dP47rDEmq4EKrWVWMWMh7TFpA=", "properties": {"@spider": "usps_collection_boxes", "addr:city": "BRANDYWINE", "addr:country": "US", "addr:full": "13706 BRANDYWINE RD", "addr:postcode": "20613", "addr:state": "MD", "brand": "USPS", "collection_times": "Mo-Sa 11:00", "name": "USPS COLLECTION BOX - BLUE BOX", "ref": "2061300005"}, "type": "Feature"}
{"geometry": {"coordinates": [-76.850367411, 38.69663868], "type": "Point"}, "id": "BdL9OIqVJ6o-u8HXgGgwR0YIZ2A=", "properties": {"@spider": "usps_collection_boxes", "addr:city": "BRANDYWINE", "addr:country": "US", "addr:full": "14109 BRANDYWINE RD", "addr:postcode": "20613", "addr:state": "MD", "brand": "USPS", "collection_times": "Mo-Fr 17:00; Sa 12:00", "name": "USPS COLLECTION BOX - PO LOBBY", "note": "ON 12/24 AND 12/31, THIS BOX MAY BE COLLECTED AS EARLY AS 12 NOON.", "ref": "2061300009"}, "type": "Feature"}
{"geometry": {"coordinates": [-76.546254155, 38.422095548], "type": "Point"}, "id": "pEtfFp1SojsMt5kcDTsSPkUv4r0=", "properties": {"@spider": "usps_collection_boxes", "addr:city": "BROOMES ISLAND", "addr:country": "US", "addr:full": "8320 BROOMES ISLAND RD", "addr:postcode": "20615", "addr:state": "MD", "brand": "USPS", "collection_times": "Mo-Fr 14:15; Sa 12:00", "name": "USPS COLLECTION BOX - BLUE BOX", "note": "ON 12/24 AND 12/31, THIS BOX MAY BE COLLECTED AS EARLY AS 12 NOON.", "ref": "2061500000"}, "type": "Feature"}
{"geometry": {"coordinates": [-76.546254155, 38.422095548], "type": "Point"}, "id": "-uM1tFedWLOwsG00I3zeQHkG_30=", "properties": {"@spider": "usps_collection_boxes", "addr:city": "BROOMES ISLAND", "addr:country": "US", "addr:full": "8320 BROOMES ISLAND RD", "addr:postcode": "20615", "addr:state": "MD", "brand": "USPS", "collection_times": "Mo-Fr 14:15; Sa 12:00", "name": "USPS COLLECTION BOX - PO LOBBY", "note": "ON 12/24 AND 12/31, THIS BOX MAY BE COLLECTED AS EARLY AS 12 NOON.", "ref": "2061500001"}, "type": "Feature"}
{"geometry": {"coordinates": [-76.546254155, 38.422095548], "type": "Point"}, "id": "YC45SVj7sLObzP8W6lWJFZsYrkY=", "properties": {"@spider": "usps_collection_boxes", "addr:city": "BROOMES ISLAND", "addr:country": "US", "addr:full": "8320 BROOMES ISLAND RD", "addr:postcode": "20615", "addr:state": "MD", "brand": "USPS", "collection_times": "Mo-Fr 14:15; Sa 12:00", "name": "USPS COLLECTION BOX - PO LOBBY", "note": "ON 12/24 AND 12/31, THIS BOX MAY BE COLLECTED AS EARLY AS 12 NOON.", "ref": "2061500002"}, "type": "Feature"}
{"geometry": {"coordinates": [-77.0743479, 38.629272], "type": "Point"}, "id": "Mboj9u0WAlgEMCGOXDOw5H0VZzk=", "properties": {"@spider": "usps_collection_boxes", "addr:city": "BRYANS ROAD", "addr:country": "US", "addr:full": "3075 MARSHALL HALL RD", "addr:postcode": "20616", "addr:state": "MD", "brand": "USPS", "collection_times": "Mo-Sa 12:00", "name": "USPS COLLECTION BOX - BLUE BOX", "ref": "2061600000"}, "type": "Feature"}
{"geometry": {"coordinates": [-77.074524423, 38.626579098], "type": "Point"}, "id": "dG1vnvInrKFVHmUqwfEK5yR_FKo=", "properties": {"@spider": "usps_collection_boxes", "addr:city": "BRYANS ROAD", "addr:country": "US", "addr:full": "6960 INDIAN HEAD HWY", "addr:postcode": "20616", "addr:state": "MD", "brand": "USPS", "collection_times": "Mo-Fr 16:45; Sa 12:00", "name": "USPS COLLECTION BOX - BLUE BOX", "note": "ON 12/24 AND 12/31, THIS BOX MAY BE COLLECTED AS EARLY AS 12 NOON.", "ref": "2061600001"}, "type": "Feature"}
{"geometry": {"coordinates": [-77.074524423, 38.626579098], "type": "Point"}, "id": "GqPbvFMp-N3vOikNtzFObWXXzoM=", "properties": {"@spider": "usps_collection_boxes", "addr:city": "BRYANS ROAD", "addr:country": "US", "addr:full": "6960 INDIAN HEAD HWY", "addr:postcode": "20616", "addr:state": "MD", "brand": "USPS", "collection_times": "Mo-Fr 16:45; Sa 12:00", "name": "USPS COLLECTION BOX - PO LOBBY", "note": "ON 12/24 AND 12/31, THIS BOX MAY BE COLLECTED AS EARLY AS 12 NOON.", "ref": "2061600002"}, "type": "Feature"}
{"geometry": {"coordinates": [-77.074524423, 38.626579098], "type": "Point"}, "id": "K7RHaQo701DpD5-qe_0xQ7rf-PQ=", "properties": {"@spider": "usps_collection_boxes", "addr:city": "BRYANS ROAD", "addr:country": "US", "addr:full": "6960 INDIAN HEAD HWY", "addr:postcode": "20616", "addr:state": "MD", "brand": "USPS", "collection_times": "Mo-Fr 17:00; Sa 12:00", "name": "USPS COLLECTION BOX - PO LOBBY", "note": "ON 12/24 AND 12/31, THIS BOX MAY BE COLLECTED AS EARLY AS 12 NOON.", "ref": "2061600005"}, "type": "Feature"}
{"geometry": {"coordinates": [-76.845622191, 38.556659777], "type": "Point"}, "id": "9U_8EIuGOV7-dWXY9zZJaCNiXdU=", "properties": {"@spider": "usps_collection_boxes", "addr:city": "BRYANTOWN", "addr:country": "US", "addr:full": "6425 LEONARDTOWN RD", "addr:postcode": "20617", "addr:state": "MD", "brand": "USPS", "collection_times": "Mo-Fr 16:30; Sa 12:00", "name": "USPS COLLECTION BOX - BLUE BOX", "note": "ON 12/24 AND 12/31, THIS BOX MAY BE COLLECTED AS EARLY AS 12 NOON.", "ref": "2061700000"}, "type": "Feature"}
{"geometry": {"coordinates": [-76.845622191, 38.556659777], "type": "Point"}, "id": "IIkVjTfKSjQIz1fsNtylWufNTNw=", "properties": {"@spider": "usps_collection_boxes", "addr:city": "BRYANTOWN", "addr:country": "US", "addr:full": "6425 LEONARDTOWN RD", "addr:postcode": "20617", "addr:state": "MD", "brand": "USPS", "collection_times": "Mo-Fr 17:00; Sa 12:00", "name": "USPS COLLECTION BOX - PO LOBBY", "note": "ON 12/24 AND 12/31, THIS BOX MAY BE COLLECTED AS EARLY AS 12 NOON.", "ref": "2061700001"}, "type": "Feature"}
{"geometry": {"coordinates": [-76.845622191, 38.556659777], "type": "Point"}, "id": "hsbm44vpG52rN3JOlJpHfsFJPPw=", "properties": {"@spider": "usps_collection_boxes", "addr:city": "BRYANTOWN", "addr:country": "US", "addr:full": "6425 LEONARDTOWN RD", "addr:postcode": "20617", "addr:state": "MD", "brand": "USPS", "collection_times": "Mo-Fr 17:00; Sa 12:00", "name": "USPS COLLECTION BOX - PO LOBBY", "note": "ON 12/24 AND 12/31, THIS BOX MAY BE COLLECTED AS EARLY AS 12 NOON.", "ref": "2061700002"}, "type": "Feature"}
{"geometry": {"coordinates": [-76.779377971, 38.296593995], "type": "Point"}, "id": "eO_qTFWQcpgZ7-bdS-OsNJ9vgq0=", "properties": {"@spider": "usps_collection_boxes", "addr:city": "BUSHWOOD", "addr:country": "US", "addr:full": "22840 BUSHWOOD RD", "addr:postcode": "20618", "addr:state": "MD", "brand": "USPS", "collection_times": "Mo-Fr 16:00; Sa 12:00", "name": "USPS COLLECTION BOX - BLUE BOX", "note": "ON 12/24 AND 12/31, THIS BOX MAY BE COLLECTED AS EARLY AS 12 NOON.", "ref": "2061800000"}, "type": "Feature"}
{"geometry": {"coordinates": [-76.779377971, 38.296593995], "type": "Point"}, "id": "ccbmysRtOKWG9IcAe0hNUQrZiRQ=", "properties": {"@spider": "usps_collection_boxes", "addr:city": "BUSHWOOD", "addr:country": "US", "addr:full": "22840 BUSHWOOD RD", "addr:postcode": "20618", "addr:state": "MD", "brand": "USPS", "collection_times": "Mo-Fr 16:00; Sa 12:00", "name": "USPS COLLECTION BOX - PO LOBBY", "note": "ON 12/24 AND 12/31, THIS BOX MAY BE COLLECTED AS EARLY AS 12 NOON.", "ref": "2061800001"}, "type": "Feature"}
{"geometry": {"coordinates": [-76.485515358, 38.287055881], "type": "Point"}, "id": "qUYCOxs7CpeCWmnrm7nSdrHQ2Jk=", "properties": {"@spider": "usps_collection_boxes", "addr:city": "CALIFORNIA", "addr:country": "US", "addr:full": "22576 MACARTHUR BLVD", "addr:postcode": "20619", "addr:state": "MD", "brand": "USPS", "collection_times": "Mo-Fr 16:30; Sa 13:00", "name": "USPS COLLECTION BOX - BLUE BOX", "note": "ON 12/24 AND 12/31, THIS BOX MAY BE COLLECTED AS EARLY AS 12 NOON.", "ref": "2061900001"}, "type": "Feature"}
{"geometry": {"coordinates": [-76.5330685617, 38.3108514903], "type": "Point"}, "id": "5HRhZ930eSWMSU-7Gn4MXdG3_v8=", "properties": {"@spider": "usps_collection_boxes", "addr:city": "CALIFORNIA", "addr:country": "US", "addr:full": "23415 THREE NOTCH RD", "addr:postcode": "20619", "addr:state": "MD", "brand": "USPS", "collection_times": "Mo-Sa 11:00", "name": "USPS COLLECTION BOX - BLUE BOX", "ref": "2061900002"}, "type": "Feature"}
{"geometry": {"coordinates": [-76.4949707, 38.291066], "type": "Point"}, "id": "YQuZO6PzCuoBZE6Ev9O3dCyks98=", "properties": {"@spider": "usps_collection_boxes", "addr:city": "CALIFORNIA", "addr:country": "US", "addr:full": "22741 THREE NOTCH RD", "addr:postcode": "20619", "addr:state": "MD", "brand": "USPS", "collection_times": "Mo-Sa 12:15", "name": "USPS COLLECTION BOX - BLUE BOX", "note": "ON 12/24 AND 12/31, THIS BOX MAY BE COLLECTED AS EARLY AS 12 NOON.", "ref": "2061900003"}, "type": "Feature"}
{"geometry": {"coordinates": [-76.5073612, 38.294972], "type": "Point"}, "id": "GkpopO6aHQa8PFtusKzSg4k6N_k=", "properties": {"@spider": "usps_collection_boxes", "addr:city": "CALIFORNIA", "addr:country": "US", "addr:full": "16064 THREE NOTCH RD", "addr:postcode": "20619", "addr:state": "MD", "brand": "USPS", "collection_times": "Mo-Sa 12:00", "name": "USPS COLLECTION BOX - BLUE BOX", "ref": "2061900005"}, "type": "Feature"}
{"geometry": {"coordinates": [-76.5145974, 38.298074], "type": "Point"}, "id": "yZcxEOZ_3jXb82icvGyropCqZWI=", "properties": {"@spider": "usps_collection_boxes", "addr:city": "CALIFORNIA", "addr:country": "US", "addr:full": "45101 FIRST COLONY WAY", "addr:postcode": "20619", "addr:state": "MD", "brand": "USPS", "collection_times": "Mo-Sa 11:30", "name": "USPS COLLECTION BOX - BLUE BOX", "ref": "2061900008"}, "type": "Feature"}
{"geometry": {"coordinates": [-76.485539, 38.287069], "type": "Point"}, "id": "2gyROlDrfqdq50Ka5bkLsjJ32LA=", "properties": {"@spider": "usps_collection_boxes", "addr:city": "CALIFORNIA", "addr:country": "US", "addr:full": "22576 MAC ARTHUR BLVD", "addr:postcode": "20619", "addr:state": "MD", "brand": "USPS", "collection_times": "Mo-Fr 16:30; Sa 12:00", "name": "USPS COLLECTION BOX - PO LOBBY", "note": "ON 12/24 AND 12/31, THIS BOX MAY BE COLLECTED AS EARLY AS 12 NOON.", "ref": "2061900009"}, "type": "Feature"}
{"geometry": {"coordinates": [-76.485539, 38.287069], "type": "Point"}, "id": "ZCtprBf-nyVb6A67bZcUTRdr0aw=", "properties": {"@spider": "usps_collection_boxes", "addr:city": "CALIFORNIA", "addr:country": "US", "addr:full": "22576 MAC ARTHUR BLVD", "addr:postcode": "20619", "addr:state": "MD", "brand": "USPS", "collection_times": "Mo-Fr 16:30; Sa 13:00", "name": "USPS COLLECTION BOX - PO LOBBY", "note": "ON 12/24 AND 12/31, THIS BOX MAY BE COLLECTED AS EARLY AS 12 NOON.", "ref": "2061900010"}, "type": "Feature"}
{"geometry": {"coordinates": [-76.485539, 38.287069], "type": "Point"}, "id": "DffOporZ9DYcRJBDRHe-hvn4i-g=", "properties": {"@spider": "usps_collection_boxes", "addr:city": "CALIFORNIA", "addr:country": "US", "addr:full": "22576 MAC ARTHUR BLVD", "addr:postcode": "20619", "addr:state": "MD", "brand": "USPS", "collection_times": "Mo-Fr 16:30; Sa 13:00", "name": "USPS COLLECTION BOX - PO LOBBY", "note": "ON 12/24 AND 12/31, THIS BOX MAY BE COLLECTED AS EARLY AS 12 NOON.", "ref": "2061900011"}, "type": "Feature"}
{"geometry": {"coordinates": [-76.485515358, 38.287055881], "type": "Point"}, "id": "jkdx7apT5g5hw8-LjPqgY9Xz_-8=", "properties": {"@spider": "usps_collection_boxes", "addr:city": "CALIFORNIA", "addr:country": "US", "addr:full": "22576 MACARTHUR BLVD", "addr:postcode": "20619", "addr:state": "MD", "brand": "USPS", "collection_times": "Mo-Fr 16:30; Sa 13:00", "name": "USPS COLLECTION BOX - PO LOBBY", "note": "ON 12/24 AND 12/31, THIS BOX MAY BE COLLECTED AS EARLY AS 12 NOON.", "ref": "2061900018"}, "type": "Feature"}
{"geometry": {"coordinates": [-76.518409247, 38.224814544], "type": "Point"}, "id": "PMsfCsrHkHDNXF6YAmnr8XBucF8=", "properties": {"@spider": "usps_collection_boxes", "addr:city": "CALLAWAY", "addr:country": "US", "addr:full": "20293 PINEY POINT RD", "addr:postcode": "20620", "addr:state": "MD", "brand": "USPS", "collection_times": "Mo-Fr 16:30; Sa 12:00", "name": "USPS COLLECTION BOX - BLUE BOX", "note": "ON 12/24 AND 12/31, THIS BOX MAY BE COLLECTED AS EARLY AS 12 NOON.", "ref": "2062000000"}, "type": "Feature"}
{"geometry": {"coordinates": [-76.518409247, 38.224814544], "type": "Point"}, "id": "U0tAzKZ3y1xXY4uqCWQJAFA1N-Y=", "properties": {"@spider": "usps_collection_boxes", "addr:city": "CALLAWAY", "addr:country": "US", "addr:full": "20293 PINEY POINT RD", "addr:postcode": "20620", "addr:state": "MD", "brand": "USPS", "collection_times": "Mo-Fr 16:30; Sa 12:00", "name": "USPS COLLECTION BOX - PO LOBBY", "note": "ON 12/24 AND 12/31, THIS BOX MAY BE COLLECTED AS EARLY AS 12 NOON.", "ref": "2062000001"}, "type": "Feature"}
{"geometry": {"coordinates": [-76.518409247, 38.224814544], "type": "Point"}, "id": "tXruaDt0rH3K8M401FSwuLIWpQU=", "properties": {"@spider": "usps_collection_boxes", "addr:city": "CALLAWAY", "addr:country": "US", "addr:full": "20293 PINEY POINT RD", "addr:postcode": "20620", "addr:state": "MD", "brand": "USPS", "collection_times": "Mo-Fr 17:00; Sa 12:00", "name": "USPS COLLECTION BOX - PO LOBBY", "note": "ON 12/24 AND 12/31, THIS BOX MAY BE COLLECTED AS EARLY AS 12 NOON.", "ref": "2062000003"}, "type": "Feature"}
{"geometry": {"coordinates": [-76.782785969, 38.368440987], "type": "Point"}, "id": "dC-toh7mQ0OytQyXRaMmz3cEQa4=", "properties": {"@spider": "usps_collection_boxes", "addr:city": "CHAPTICO", "addr:country": "US", "addr:full": "25749 BUDDS CREEK RD", "addr:postcode": "20621", "addr:state": "MD", "brand": "USPS", "collection_times": "Mo-Fr 16:45; Sa 11:45", "name": "USPS COLLECTION BOX - BLUE BOX", "note": "ON 12/24 AND 12/31, THIS BOX MAY BE COLLECTED AS EARLY AS 12 NOON.", "ref": "2062100000"}, "type": "Feature"}
{"geometry": {"coordinates": [-76.782785969, 38.368440987], "type": "Point"}, "id": "3mblF_VRuR6sHV5EsU5HLUJESU0=", "properties": {"@spider": "usps_collection_boxes", "addr:city": "CHAPTICO", "addr:country": "US", "addr:full": "25749 BUDDS CREEK RD", "addr:postcode": "20621", "addr:state": "MD", "brand": "USPS", "collection_times": "Mo-Fr 17:00; Sa 12:00", "name": "USPS COLLECTION BOX - PO LOBBY", "note": "ON 12/24 AND 12/31, THIS BOX MAY BE COLLECTED AS EARLY AS 12 NOON.", "ref": "2062100001"}, "type": "Feature"}
{"geometry": {"coordinates": [-76.782785969, 38.368440987], "type": "Point"}, "id": "jX4w_k8ALQ-H8EXaOJrPypBUmvQ=", "properties": {"@spider": "usps_collection_boxes", "addr:city": "CHAPTICO", "addr:country": "US", "addr:full": "25749 BUDDS CREEK RD", "addr:postcode": "20621", "addr:state": "MD", "brand": "USPS", "collection_times": "Mo-Fr 17:00; Sa 12:00", "name": "USPS COLLECTION BOX - PO LOBBY", "note": "ON 12/24 AND 12/31, THIS BOX MAY BE COLLECTED AS EARLY AS 12 NOON.", "ref": "2062100002"}, "type": "Feature"}
{"geometry": {"coordinates": [-76.774957877, 38.491533168], "type": "Point"}, "id": "ZghvwVOXG7PwOLjBF7Jjx8zk3qw=", "properties": {"@spider": "usps_collection_boxes", "addr:city": "CHARLOTTE HALL", "addr:country": "US", "addr:full": "29948 THREE NOTCH RD", "addr:postcode": "20622", "addr:state": "MD", "brand": "USPS", "collection_times": "Mo-Fr 16:30; Sa 12:00", "name": "USPS COLLECTION BOX - BLUE BOX", "note": "ON 12/24 AND 12/31, THIS BOX MAY BE COLLECTED AS EARLY AS 12 NOON.", "ref": "2062200001"}, "type": "Feature"}
{"geometry": {"coordinates": [-76.774957877, 38.491533168], "type": "Point"}, "id": "JL7fRVmWaQ8CK-ckVFnHV5MLNRE=", "properties": {"@spider": "usps_collection_boxes", "addr:city": "CHARLOTTE HALL", "addr:country": "US", "addr:full": "29948 THREE NOTCH RD", "addr:postcode": "20622", "addr:state": "MD", "brand": "USPS", "collection_times": "Sa 12:00", "name": "USPS COLLECTION BOX - PO LOBBY", "ref": "2062200002"}, "type": "Feature"}
{"geometry": {"coordinates": [-76.774957877, 38.491533168], "type": "Point"}, "id": "U-c82WJY4Kp005veAbnCK2sYasg=", "properties": {"@spider": "usps_collection_boxes", "addr:city": "CHARLOTTE HALL", "addr:country": "US", "addr:full": "29948 THREE NOTCH RD", "addr:postcode": "20622", "addr:state": "MD", "brand": "USPS", "collection_times": "Mo-Fr 17:00; Sa 12:00", "name": "USPS COLLECTION BOX - PO LOBBY", "note": "ON 12/24 AND 12/31, THIS BOX MAY BE COLLECTED AS EARLY AS 12 NOON.", "ref": "2062200003"}, "type": "Feature"}
{"geometry": {"coordinates": [-76.82818868, 38.731338714], "type": "Point"}, "id": "8dYxc6kAyIgZI25F6p8dWx5Eld8=", "properties": {"@spider": "usps_collection_boxes", "addr:city": "CHELTENHAM", "addr:country": "US", "addr:full": "11505 CHERRY TREE CROSSING RD", "addr:postcode": "20623", "addr:state": "MD", "brand": "USPS", "collection_times": "Mo-Fr 17:00; Sa 12:00", "name": "USPS COLLECTION BOX - PO LOBBY", "note": "ON 12/24 AND 12/31, THIS BOX MAY BE COLLECTED AS EARLY AS 12 NOON.", "ref": "2062300002"}, "type": "Feature"}
{"geometry": {"coordinates": [-76.82818868, 38.731338714], "type": "Point"}, "id": "-zvktzB0sGzKiP-D-JcTcVEAJC8=", "properties": {"@spider": "usps_collection_boxes", "addr:city": "CHELTENHAM", "addr:country": "US", "addr:full": "11505 CHERRY TREE CROSSING RD", "addr:postcode": "20623", "addr:state": "MD", "brand": "USPS", "collection_times": "Mo-Fr 17:00; Sa 12:00", "name": "USPS COLLECTION BOX - PO LOBBY", "note": "ON 12/24 AND 12/31, THIS BOX MAY BE COLLECTED AS EARLY AS 12 NOON.", "ref": "2062300003"}, "type": "Feature"}
{"geometry": {"coordinates": [-76.82818868, 38.731338714], "type": "Point"}, "id": "luM9A0rsAZo-NLRXiQdHop9r7Ms=", "properties": {"@spider": "usps_collection_boxes", "addr:city": "CHELTENHAM", "addr:country": "US", "addr:full": "11505 CHERRY TREE CROSSING RD", "addr:postcode": "20623", "addr:state": "MD", "brand": "USPS", "collection_times": "Mo-Fr 17:00; Sa 12:00", "name": "USPS COLLECTION BOX - PO LOBBY", "note": "ON 12/24 AND 12/31, THIS BOX MAY BE COLLECTED AS EARLY AS 12 NOON.", "ref": "2062300004"}, "type": "Feature"}
{"geometry": {"coordinates": [-76.727513, 38.327072], "type": "Point"}, "id": "ePRyOt57PfwE5q1tQTuUf1sFlPs=", "properties": {"@spider": "usps_collection_boxes", "addr:city": "CLEMENTS", "addr:country": "US", "addr:full": "24015 COLTON POINT RD", "addr:postcode": "20624", "addr:state": "MD", "brand": "USPS", "collection_times": "Mo-Fr 16:15; Sa 12:00", "name": "USPS COLLECTION BOX - BLUE BOX", "note": "ON 12/24 AND 12/31, THIS BOX MAY BE COLLECTED AS EARLY AS 12 NOON.", "ref": "2062400000"}, "type": "Feature"}
{"geometry": {"coordinates": [-76.727484, 38.327], "type": "Point"}, "id": "AM87EwggcfEiFB_BZbCTUNRmOv0=", "properties": {"@spider": "usps_collection_boxes", "addr:city": "CLEMENTS", "addr:country": "US", "addr:full": "24015 COLTON POINT RD", "addr:postcode": "20624", "addr:state": "MD", "brand": "USPS", "collection_times": "Mo-Fr 16:15; Sa 12:00", "name": "USPS COLLECTION BOX - PO LOBBY", "note": "ON 12/24 AND 12/31, THIS BOX MAY BE COLLECTED AS EARLY AS 12 NOON.", "ref": "2062400001"}, "type": "Feature"}
{"geometry": {"coordinates": [-76.727561519, 38.32714832], "type": "Point"}, "id": "14GEOq0l5b944upb_LuSEeSedK0=", "properties": {"@spider": "usps_collection_boxes", "addr:city": "CLEMENTS", "addr:country": "US", "addr:full": "24015 COLTON POINT RD", "addr:postcode": "20624", "addr:state": "MD", "brand": "USPS", "collection_times": "Mo-Fr 16:15; Sa 12:00", "name": "USPS COLLECTION BOX - PO LOBBY", "note": "ON 12/24 AND 12/31, THIS BOX MAY BE COLLECTED AS EARLY AS 12 NOON.", "ref": "2062400002"}, "type": "Feature"}
{"geometry": {"coordinates": [-76.7531029679, 38.2247200134], "type": "Point"}, "id": "GEzDzkQs8W3FOCgyvfEVjf0pJ2Q=", "properties": {"@spider": "usps_collection_boxes", "addr:city": "COLTONS POINT", "addr:country": "US", "addr:full": "20254 COLTON POINT RD", "addr:postcode": "20626", "addr:state": "MD", "brand": "USPS", "collection_times": "Mo-Fr 16:30; Sa 11:45", "name": "USPS COLLECTION BOX - BLUE BOX", "note": "ON 12/24 AND 12/31, THIS BOX MAY BE COLLECTED AS EARLY AS 12 NOON.", "ref": "2062600000"}, "type": "Feature"}
{"geometry": {"coordinates": [-76.7531029679, 38.2247200134], "type": "Point"}, "id": "GN4Mob2TXi1fad4UJqOc0Z6xtaA=", "properties": {"@spider": "usps_collection_boxes", "addr:city": "COLTONS POINT", "addr:country": "US", "addr:full": "20254 COLTON POINT RD", "addr:postcode": "20626", "addr:state": "MD", "brand": "USPS", "collection_times": "Mo-Fr 16:30; Sa 12:00", "name": "USPS COLLECTION BOX - PO LOBBY", "note": "ON 12/24 AND 12/31, THIS BOX MAY BE COLLECTED AS EARLY AS 12 NOON.", "ref": "2062600001"}, "type": "Feature"}
{"geometry": {"coordinates": [-76.7531029679, 38.2247200134], "type": "Point"}, "id": "qEyqhzEIdCYVtA-SkKhPMXF9f1Q=", "properties": {"@spider": "usps_collection_boxes", "addr:city": "COLTONS POINT", "addr:country": "US", "addr:full": "20254 COLTON POINT RD", "addr:postcode": "20626", "addr:state": "MD", "brand": "USPS", "collection_times": "Mo-Fr 16:30; Sa 12:00", "name": "USPS COLLECTION BOX - PO LOBBY", "note": "ON 12/24 AND 12/31, THIS BOX MAY BE COLLECTED AS EARLY AS 12 NOON.", "ref": "2062600002"}, "type": "Feature"}
{"geometry": {"coordinates": [-76.692763978, 38.276985206], "type": "Point"}, "id": "ayYmOD54AyRaaUvNYb2XEJ-fQHg=", "properties": {"@spider": "usps_collection_boxes", "addr:city": "COMPTON", "addr:country": "US", "addr:full": "22173 BAYSIDE RD", "addr:postcode": "20627", "addr:state": "MD", "brand": "USPS", "collection_times": "Mo-Fr 16:20; Sa 11:45", "name": "USPS COLLECTION BOX - BLUE BOX", "note": "ON 12/24 AND 12/31, THIS BOX MAY BE COLLECTED AS EARLY AS 12 NOON.", "ref": "2062700000"}, "type": "Feature"}
{"geometry": {"coordinates": [-76.692763978, 38.276985206], "type": "Point"}, "id": "huZTydvC7uns-QDQHSeLeehALdU=", "properties": {"@spider": "usps_collection_boxes", "addr:city": "COMPTON", "addr:country": "US", "addr:full": "22173 BAYSIDE RD", "addr:postcode": "20627", "addr:state": "MD", "brand": "USPS", "collection_times": "Mo-Fr 16:20; Sa 12:00", "name": "USPS COLLECTION BOX - PO LOBBY", "note": "ON 12/24 AND 12/31, THIS BOX MAY BE COLLECTED AS EARLY AS 12 NOON.", "ref": "2062700001"}, "type": "Feature"}
{"geometry": {"coordinates": [-76.692763978, 38.276985206], "type": "Point"}, "id": "RvdCn3O-UldaauQhJG42tqOu5H4=", "properties": {"@spider": "usps_collection_boxes", "addr:city": "COMPTON", "addr:country": "US", "addr:full": "22173 BAYSIDE RD", "addr:postcode": "20627", "addr:state": "MD", "brand": "USPS", "collection_times": "Mo-Fr 16:15; Sa 12:00", "name": "USPS COLLECTION BOX - PO LOBBY", "note": "ON 12/24 AND 12/31, THIS BOX MAY BE COLLECTED AS EARLY AS 12 NOON.", "ref": "2062700002"}, "type": "Feature"}
{"geometry": {"coordinates": [-76.369237255, 38.152116134], "type": "Point"}, "id": "-WzPj4jP612ZtP2zLUVG8FsNY8M=", "properties": {"@spider": "usps_collection_boxes", "addr:city": "DAMERON", "addr:country": "US", "addr:full": "17679 THREE NOTCH RD", "addr:postcode": "20628", "addr:state": "MD", "brand": "USPS", "collection_times": "Mo-Fr 16:15; Sa 12:00", "name": "USPS COLLECTION BOX - BLUE BOX", "note": "ON 12/24 AND 12/31, THIS BOX MAY BE COLLECTED AS EARLY AS 12 NOON.", "ref": "2062800000"}, "type": "Feature"}
{"geometry": {"coordinates": [-76.369237255, 38.152116134], "type": "Point"}, "id": "P6V6ZTY0ZkI4VtpLnP26hGo7Wy8=", "properties": {"@spider": "usps_collection_boxes", "addr:city": "DAMERON", "addr:country": "US", "addr:full": "17679 THREE NOTCH RD", "addr:postcode": "20628", "addr:state": "MD", "brand": "USPS", "collection_times": "Mo-Fr 16:30; Sa 12:00", "name": "USPS COLLECTION BOX - PO LOBBY", "note": "ON 12/24 AND 12/31, THIS BOX MAY BE COLLECTED AS EARLY AS 12 NOON.", "ref": "2062800001"}, "type": "Feature"}
{"geometry": {"coordinates": [-76.369237255, 38.152116134], "type": "Point"}, "id": "d9ozbMQ7ko1umb1sli3OuFzp1wE=", "properties": {"@spider": "usps_collection_boxes", "addr:city": "DAMERON", "addr:country": "US", "addr:full": "17679 THREE NOTCH RD", "addr:postcode": "20628", "addr:state": "MD", "brand": "USPS", "collection_times": "Mo-Fr 16:30; Sa 12:00", "name": "USPS COLLECTION BOX - PO LOBBY", "note": "ON 12/24 AND 12/31, THIS BOX MAY BE COLLECTED AS EARLY AS 12 NOON.", "ref": "2062800002"}, "type": "Feature"}
{"geometry": {"coordinates": [-76.480980839, 38.179149098], "type": "Point"}, "id": "cddZvLSfOMiTpkRB5k5x5JUxhaM=", "properties": {"@spider": "usps_collection_boxes", "addr:city": "DRAYDEN", "addr:country": "US", "addr:full": "18552 CHERRYFIELD RD", "addr:postcode": "20630", "addr:state": "MD", "brand": "USPS", "collection_times": "Mo-Fr 16:30; Sa 12:00", "name": "USPS COLLECTION BOX - BLUE BOX", "note": "ON 12/24 AND 12/31, THIS BOX MAY BE COLLECTED AS EARLY AS 12 NOON.", "ref": "2063000000"}, "type": "Feature"}
{"geometry": {"coordinates": [-76.480980839, 38.179149098], "type": "Point"}, "id": "wE0gj7T4FLWMGC6kwpCFD0kXJnQ=", "properties": {"@spider": "usps_collection_boxes", "addr:city": "DRAYDEN", "addr:country": "US", "addr:full": "18552 CHERRYFIELD RD", "addr:postcode": "20630", "addr:state": "MD", "brand": "USPS", "collection_times": "Mo-Fr 16:30; Sa 12:00", "name": "USPS COLLECTION BOX - PO LOBBY", "note": "ON 12/24 AND 12/31, THIS BOX MAY BE COLLECTED AS EARLY AS 12 NOON.", "ref": "2063000001"}, "type": "Feature"}
{"geometry": {"coordinates": [-76.977196233, 38.438509433], "type": "Point"}, "id": "ZfCcak2M34ywGLEckexIVlgFqCY=", "properties": {"@spider": "usps_collection_boxes", "addr:city": "FAULKNER", "addr:country": "US", "addr:full": "9977 FAULKNER RD", "addr:postcode": "20632", "addr:state": "MD", "brand": "USPS", "collection_times": "Mo-Fr 16:15; Sa 12:00", "name": "USPS COLLECTION BOX - BLUE BOX", "note": "ON 12/24 AND 12/31, THIS BOX MAY BE COLLECTED AS EARLY AS 12 NOON.", "ref": "2063200000"}, "type": "Feature"}
{"geometry": {"coordinates": [-76.977196233, 38.438509433], "type": "Point"}, "id": "6pvT6rM-AKKcCNt4QErsuRzMVD8=", "properties": {"@spider": "usps_collection_boxes", "addr:city": "FAULKNER", "addr:country": "US", "addr:full": "9977 FAULKNER RD", "addr:postcode": "20632", "addr:state": "MD", "brand": "USPS", "collection_times": "Mo-Fr 16:00; Sa 12:00", "name": "USPS COLLECTION BOX - PO LOBBY", "note": "ON 12/24 AND 12/31, THIS BOX MAY BE COLLECTED AS EARLY AS 12 NOON.", "ref": "2063200001"}, "type": "Feature"}
{"geometry": {"coordinates": [-76.9800418, 38.439626], "type": "Point"}, "id": "82-hD0hix3YElPSQ2INxuo1DDKg=", "properties": {"@spider": "usps_collection_boxes", "addr:city": "FAULKNER", "addr:country": "US", "addr:full": "9940 CRAIN HWY", "addr:postcode": "20632", "addr:state": "MD", "brand": "USPS", "collection_times": "Mo-Sa 13:00", "name": "USPS COLLECTION BOX - BLUE BOX", "note": "ON 12/24 AND 12/31, THIS BOX MAY BE COLLECTED AS EARLY AS 12 NOON.", "ref": "2063200003"}, "type": "Feature"}
{"geometry": {"coordinates": [-76.977196233, 38.438509433], "type": "Point"}, "id": "facCLEoURI9RfrnKhYkphxLveUo=", "properties": {"@spider": "usps_collection_boxes", "addr:city": "FAULKNER", "addr:country": "US", "addr:full": "9977 FAULKNER RD", "addr:postcode": "20632", "addr:state": "MD", "brand": "USPS", "collection_times": "Mo-Fr 16:30; Sa 12:00", "name": "USPS COLLECTION BOX - PO LOBBY", "note": "ON 12/24 AND 12/31, THIS BOX MAY BE COLLECTED AS EARLY AS 12 NOON.", "ref": "2063200004"}, "type": "Feature"}
{"geometry": {"coordinates": [-76.498481034, 38.237465996], "type": "Point"}, "id": "4hnPOJBDRObjM7-R0IuABUIInkw=", "properties": {"@spider": "usps_collection_boxes", "addr:city": "GREAT MILLS", "addr:country": "US", "addr:full": "20210 POINT LOOKOUT RD", "addr:postcode": "20634", "addr:state": "MD", "brand": "USPS", "collection_times": "Mo-Fr 16:00; Sa 12:30", "name": "USPS COLLECTION BOX - BLUE BOX", "note": "ON 12/24 AND 12/31, THIS BOX MAY BE COLLECTED AS EARLY AS 12 NOON.", "ref": "2063400001"}, "type": "Feature"}
{"geometry": {"coordinates": [-76.498481034, 38.237465996], "type": "Point"}, "id": "bCjK-Xcd_2xFTuif7MDB8sr6n84=", "properties": {"@spider": "usps_collection_boxes", "addr:city": "GREAT MILLS", "addr:country": "US", "addr:full": "20210 POINT LOOKOUT RD", "addr:postcode": "20634", "addr:state": "MD", "brand": "USPS", "collection_times": "Mo-Fr 16:30; Sa 12:00", "name": "USPS COLLECTION BOX - PO LOBBY", "note": "ON 12/24 AND 12/31, THIS BOX MAY BE COLLECTED AS EARLY AS 12 NOON.", "ref": "2063400007"}, "type": "Feature"}
{"geometry": {"coordinates": [-76.498481034, 38.237465996], "type": "Point"}, "id": "6xmPmMsIH75FJjd-H4Aa8aOkE7E=", "properties": {"@spider": "usps_collection_boxes", "addr:city": "GREAT MILLS", "addr:country": "US", "addr:full": "20210 POINT LOOKOUT RD", "addr:postcode": "20634", "addr:state": "MD", "brand": "USPS", "collection_times": "Mo-Fr 16:30; Sa 12:00", "name": "USPS COLLECTION BOX - PO LOBBY", "note": "ON 12/24 AND 12/31, THIS BOX MAY BE COLLECTED AS EARLY AS 12 NOON.", "ref": "2063400008"}, "type": "Feature"}
{"geometry": {"coordinates": [-76.558441193, 38.336654727], "type": "Point"}, "id": "OaUvrYkIlVL3zoETCY3lOMZf6k8=", "properties": {"@spider": "usps_collection_boxes", "addr:city": "HOLLYWOOD", "addr:country": "US", "addr:full": "24351 MERVELL DEAN RD", "addr:postcode": "20636", "addr:state": "MD", "brand": "USPS", "collection_times": "Mo-Fr 16:30; Sa 12:00", "name": "USPS COLLECTION BOX - BLUE BOX", "note": "ON 12/24 AND 12/31, THIS BOX MAY BE COLLECTED AS EARLY AS 12 NOON.", "ref": "2063600000"}, "type": "Feature"}
{"geometry": {"coordinates": [-76.558441193, 38.336654727], "type": "Point"}, "id": "hCi0wnOvGJF4vcuM84QGlKq_gLg=", "properties": {"@spider": "usps_collection_boxes", "addr:city": "HOLLYWOOD", "addr:country": "US", "addr:full": "24351 MERVELL DEAN RD", "addr:postcode": "20636", "addr:state": "MD", "brand": "USPS", "collection_times": "Mo-Fr 16:30; Sa 12:00", "name": "USPS COLLECTION BOX - BLUE BOX", "note": "ON 12/24 AND 12/31, THIS BOX MAY BE COLLECTED AS EARLY AS 12 NOON.", "ref": "2063600001"}, "type": "Feature"}
{"geometry": {"coordinates": [-76.558441193, 38.336654727], "type": "Point"}, "id": "wDKpUtIzCh5gNkHPsDSX6s2_J1w=", "properties": {"@spider": "usps_collection_boxes", "addr:city": "HOLLYWOOD", "addr:country": "US", "addr:full": "24351 MERVELL DEAN RD", "addr:postcode": "20636", "addr:state": "MD", "brand": "USPS", "collection_times": "Mo-Fr 16:30; Sa 12:00", "name": "USPS COLLECTION BOX - PO LOBBY", "note": "ON 12/24 AND 12/31, THIS BOX MAY BE COLLECTED AS EARLY AS 12 NOON.", "ref": "2063600002"}, "type": "Feature"}
{"geometry": {"coordinates": [-76.558441193, 38.336654727], "type": "Point"}, "id": "w9-_-7f9-xRPfExlpDGVaXLWcdA=", "properties": {"@spider": "usps_collection_boxes", "addr:city": "HOLLYWOOD", "addr:country": "US", "addr:full": "24351 MERVELL DEAN RD", "addr:postcode": "20636", "addr:state": "MD", "brand": "USPS", "collection_times": "Mo-Fr 16:30; Sa 12:00", "name": "USPS COLLECTION BOX - PO LOBBY", "note": "ON 12/24 AND 12/31, THIS BOX MAY BE COLLECTED AS EARLY AS 12 NOON.", "ref": "2063600003"}, "type": "Feature"}
{"geometry": {"coordinates": [-76.558441193, 38.336654727], "type": "Point"}, "id": "csA1l21mOd9lIryXY2dRYwgl3mo=", "properties": {"@spider": "usps_collection_boxes", "addr:city": "HOLLYWOOD", "addr:country": "US", "addr:full": "24351 MERVELL DEAN RD", "addr:postcode": "20636", "addr:state": "MD", "brand": "USPS", "collection_times": "Mo-Fr 16:30; Sa 12:00", "name": "USPS COLLECTION BOX - PO LOBBY", "note": "ON 12/24 AND 12/31, THIS BOX MAY BE COLLECTED AS EARLY AS 12 NOON.", "ref": "2063600005"}, "type": "Feature"}
{"geometry": {"coordinates": [-76.773073203, 38.535538016], "type": "Point"}, "id": "m6kca6t1tio8HVwchDBiuBSOoAA=", "properties": {"@spider": "usps_collection_boxes", "addr:city": "HUGHESVILLE", "addr:country": "US", "addr:full": "15485 PRINCE FREDERICK RD", "addr:postcode": "20637", "addr:state": "MD", "brand": "USPS", "collection_times": "Mo-Fr 16:30; Sa 11:30", "name": "USPS COLLECTION BOX - BLUE BOX", "note": "ON 12/24 AND 12/31, THIS BOX MAY BE COLLECTED AS EARLY AS 12 NOON.", "ref": "2063700000"}, "type": "Feature"}
{"geometry": {"coordinates": [-76.773073203, 38.535538016], "type": "Point"}, "id": "VfdTqlwrzxip4gm9yWrqkvdyilM=", "properties": {"@spider": "usps_collection_boxes", "addr:city": "HUGHESVILLE", "addr:country": "US", "addr:full": "15485 PRINCE FREDERICK RD", "addr:postcode": "20637", "addr:state": "MD", "brand": "USPS", "collection_times": "Mo-Fr 16:30; Sa 11:30", "name": "USPS COLLECTION BOX - PO LOBBY", "note": "ON 12/24 AND 12/31, THIS BOX MAY BE COLLECTED AS EARLY AS 12 NOON.", "ref": "2063700001"}, "type": "Feature"}
{"geometry": {"coordinates": [-76.773073203, 38.535538016], "type": "Point"}, "id": "XazZ0T6u1re52ZtN_aOLmCOHzX0=", "properties": {"@spider": "usps_collection_boxes", "addr:city": "HUGHESVILLE", "addr:country": "US", "addr:full": "15485 PRINCE FREDERICK RD", "addr:postcode": "20637", "addr:state": "MD", "brand": "USPS", "collection_times": "Mo-Fr 17:00; Sa 12:00", "name": "USPS COLLECTION BOX - PO LOBBY", "note": "ON 12/24 AND 12/31, THIS BOX MAY BE COLLECTED AS EARLY AS 12 NOON.", "ref": "2063700002"}, "type": "Feature"}
{"geometry": {"coordinates": [-76.613477151, 38.618108581], "type": "Point"}, "id": "b3ozaiqFG0hG_XPl77tDhqQ1VEo=", "properties": {"@spider": "usps_collection_boxes", "addr:city": "HUNTINGTOWN", "addr:country": "US", "addr:full": "4020 OLD TOWN RD", "addr:postcode": "20639", "addr:state": "MD", "brand": "USPS", "collection_times": "Mo-Fr 16:30; Sa 12:00", "name": "USPS COLLECTION BOX - BLUE BOX", "note": "ON 12/24 AND 12/31, THIS BOX MAY BE COLLECTED AS EARLY AS 12 NOON.", "ref": "2063900000"}, "type": "Feature"}
{"geometry": {"coordinates": [-76.613477151, 38.618108581], "type": "Point"}, "id": "9kj7L1SPTa_swaNqpBYTStcRw9c=", "properties": {"@spider": "usps_collection_boxes", "addr:city": "HUNTINGTOWN", "addr:country": "US", "addr:full": "4020 OLD TOWN RD", "addr:postcode": "20639", "addr:state": "MD", "brand": "USPS", "collection_times": "Mo-Fr 16:30; Sa 12:00", "name": "USPS COLLECTION BOX - PO LOBBY", "note": "ON 12/24 AND 12/31, THIS BOX MAY BE COLLECTED AS EARLY AS 12 NOON.", "ref": "2063900001"}, "type": "Feature"}
{"geometry": {"coordinates": [-76.613477151, 38.618108581], "type": "Point"}, "id": "9zfi_72KOACAtrwpSHVQfbWyj_o=", "properties": {"@spider": "usps_collection_boxes", "addr:city": "HUNTINGTOWN", "addr:country": "US", "addr:full": "4020 OLD TOWN RD", "addr:postcode": "20639", "addr:state": "MD", "brand": "USPS", "collection_times": "Mo-Fr 16:30; Sa 12:00", "name": "USPS COLLECTION BOX - PO LOBBY", "note": "ON 12/24 AND 12/31, THIS BOX MAY BE COLLECTED AS EARLY AS 12 NOON.", "ref": "2063900002"}, "type": "Feature"}
{"geometry": {"coordinates": [-77.153019, 38.60083], "type": "Point"}, "id": "IL6_7Pmp19pwiYZymFC3G9X-JF8=", "properties": {"@spider": "usps_collection_boxes", "addr:city": "INDIAN HEAD", "addr:country": "US", "addr:full": "4457 INDIAN HEAD HWY", "addr:postcode": "20640", "addr:state": "MD", "brand": "USPS", "collection_times": "Mo-Sa 14:00", "name": "USPS COLLECTION BOX - BLUE BOX", "note": "ON 12/24 AND 12/31, THIS BOX MAY BE COLLECTED AS EARLY AS 12 NOON.", "ref": "2064000007"}, "type": "Feature"}
{"geometry": {"coordinates": [-77.140272, 38.607547], "type": "Point"}, "id": "BI-pgcpN_EjQRfpr1R3yV9JR4iE=", "properties": {"@spider": "usps_collection_boxes", "addr:city": "INDIAN HEAD", "addr:country": "US", "addr:full": "101 CEDAR LN", "addr:postcode": "20640", "addr:state": "MD", "brand": "USPS", "collection_times": "Mo-Sa 14:00", "name": "USPS COLLECTION BOX - BLUE BOX", "note": "ON 12/24 AND 12/31, THIS BOX MAY BE COLLECTED AS EARLY AS 12 NOON.", "ref": "2064000010"}, "type": "Feature"}
{"geometry": {"coordinates": [-77.1695036, 38.59898], "type": "Point"}, "id": "p7xSEDC6abNym1IZu4txCipIm2I=", "properties": {"@spider": "usps_collection_boxes", "addr:city": "INDIAN HEAD", "addr:country": "US", "addr:full": "4050 INDIAN HEAD HWY", "addr:postcode": "20640", "addr:state": "MD", "brand": "USPS", "collection_times": "Mo-Fr 17:00; Sa 14:00", "name": "USPS COLLECTION BOX - BLUE BOX", "note": "ON 12/24 AND 12/31, THIS BOX MAY BE COLLECTED AS EARLY AS 12 NOON.", "ref": "2064000014"}, "type": "Feature"}
{"geometry": {"coordinates": [-77.1543373, 38.60102], "type": "Point"}, "id": "GznGv7oSSXEA8MDNxk29mcanrH4=", "properties": {"@spider": "usps_collection_boxes", "addr:city": "INDIAN HEAD", "addr:country": "US", "addr:full": "4450 INDIAN HEAD HWY", "addr:postcode": "20640", "addr:state": "MD", "brand": "USPS", "collection_times": "Mo-Sa 14:00", "name": "USPS COLLECTION BOX - BLUE BOX", "note": "ON 12/24 AND 12/31, THIS BOX MAY BE COLLECTED AS EARLY AS 12 NOON.", "ref": "2064000016"}, "type": "Feature"}
{"geometry": {"coordinates": [-77.1692951, 38.598881], "type": "Point"}, "id": "wLD-QAAIVpMGvbpVRSn7iZlupJo=", "properties": {"@spider": "usps_collection_boxes", "addr:city": "INDIAN HEAD", "addr:country": "US", "addr:full": "4050 INDIAN HEAD HWY", "addr:postcode": "20640", "addr:state": "MD", "brand": "USPS", "collection_times": "Mo-Fr 17:00; Sa 14:00", "name": "USPS COLLECTION BOX - BLUE BOX", "note": "ON 12/24 AND 12/31, THIS BOX MAY BE COLLECTED AS EARLY AS 12 NOON.", "ref": "2064000017"}, "type": "Feature"}
{"geometry": {"coordinates": [-77.1737013, 38.599318], "type": "Point"}, "id": "yirjnikT7-c9mJCR3WgSdIyjmM8=", "properties": {"@spider": "usps_collection_boxes", "addr:city": "INDIAN HEAD", "addr:country": "US", "addr:full": "3 JACKSON RD", "addr:postcode": "20640", "addr:state": "MD", "brand": "USPS", "collection_times": "Mo-Sa 11:30", "name": "USPS COLLECTION BOX - BLUE BOX", "ref": "2064000019"}, "type": "Feature"}
{"geometry": {"coordinates": [-77.1695813, 38.599032], "type": "Point"}, "id": "RvwaiYonNlYGwrUXEQaGTExoH3c=", "properties": {"@spider": "usps_collection_boxes", "addr:city": "INDIAN HEAD", "addr:country": "US", "addr:full": "4050 INDIAN HEAD HWY", "addr:postcode": "20640", "addr:state": "MD", "brand": "USPS", "collection_times": "Mo-Fr 17:00; Sa 14:00", "name": "USPS COLLECTION BOX - PO LOBBY", "note": "ON 12/24 AND 12/31, THIS BOX MAY BE COLLECTED AS EARLY AS 12 NOON.", "ref": "2064000020"}, "type": "Feature"}
{"geometry": {"coordinates": [-76.91884, 38.304365], "type": "Point"}, "id": "lMoGPypVOpmpkqKqT33OEOYgNhw=", "properties": {"@spider": "usps_collection_boxes", "addr:city": "ISSUE", "addr:country": "US", "addr:full": "15800 COBB ISLAND RD", "addr:postcode": "20645", "addr:state": "MD", "brand": "USPS", "collection_times": "Mo-Sa 10:00", "name": "USPS COLLECTION BOX - BLUE BOX", "ref": "2064500000"}, "type": "Feature"}
{"geometry": {"coordinates": [-76.9862476, 38.542406], "type": "Point"}, "id": "PCixBZXGtBOhrmxca1MB3p_kyaA=", "properties": {"@spider": "usps_collection_boxes", "addr:city": "LA PLATA", "addr:country": "US", "addr:full": "9375 CHESAPEAKE ST", "addr:postcode": "20646", "addr:state": "MD", "brand": "USPS", "collection_times": "Mo-Sa 12:01", "name": "USPS COLLECTION BOX - BLUE BOX", "note": "ON 12/24 AND 12/31, THIS BOX MAY BE COLLECTED AS EARLY AS 12 NOON.", "ref": "2064600001"}, "type": "Feature"}
{"geometry": {"coordinates": [-76.9842192, 38.529435], "type": "Point"}, "id": "po7fu78bn6F5JDmmYnYZJgFdK4A=", "properties": {"@spider": "usps_collection_boxes", "addr:city": "LA PLATA", "addr:country": "US", "addr:full": "6643 CRAIN HWY", "addr:postcode": "20646", "addr:state": "MD", "brand": "USPS", "collection_times": "Mo-Sa 11:00", "name": "USPS COLLECTION BOX - BLUE BOX", "ref": "2064600003"}, "type": "Feature"}
{"geometry": {"coordinates": [-76.9853957, 38.540373], "type": "Point"}, "id": "ReFKgh6gC8PeFEfI7zY64DxJ750=", "properties": {"@spider": "usps_collection_boxes", "addr:city": "LA PLATA", "addr:country": "US", "addr:full": "6269 CRAIN HWY", "addr:postcode": "20646", "addr:state": "MD", "brand": "USPS", "collection_times": "Mo-Sa 12:01", "name": "USPS COLLECTION BOX - BLUE BOX", "note": "ON 12/24 AND 12/31, THIS BOX MAY BE COLLECTED AS EARLY AS 12 NOON.", "ref": "2064600004"}, "type": "Feature"}
{"geometry": {"coordinates": [-76.982187, 38.526803], "type": "Point"}, "id": "uriI5N5lRQfTVKM3QEk31BrEpjA=", "properties": {"@spider": "usps_collection_boxes", "addr:city": "LA PLATA", "addr:country": "US", "addr:full": "100 CENTENNIAL ST", "addr:postcode": "20646", "addr:state": "MD", "brand": "USPS", "collection_times": "Mo-Fr 17:00; Sa 15:00", "name": "USPS COLLECTION BOX - BLUE BOX", "note": "ON 12/24 AND 12/31, THIS BOX MAY BE COLLECTED AS EARLY AS 12 NOON.", "ref": "2064600005"}, "type": "Feature"}
{"geometry": {"coordinates": [-76.982301, 38.526772], "type": "Point"}, "id": "1NVsWWYtmFMEVUB4dqaNo0wbNRQ=", "properties": {"@spider": "usps_collection_boxes", "addr:city": "LA PLATA", "addr:country": "US", "addr:full": "100 CENTENNIAL ST", "addr:postcode": "20646", "addr:state": "MD", "brand": "USPS", "collection_times": "Mo-Fr 17:00; Sa 15:00", "name": "USPS COLLECTION BOX - BLUE BOX", "note": "ON 12/24 AND 12/31, THIS BOX MAY BE COLLECTED AS EARLY AS 12 NOON.", "ref": "2064600006"}, "type": "Feature"}
{"geometry": {"coordinates": [-76.982301, 38.526772], "type": "Point"}, "id": "ISG6hJ-Wej2nX01EvxYjwPXHrB0=", "properties": {"@spider": "usps_collection_boxes", "addr:city": "LA PLATA", "addr:country": "US", "addr:full": "100 CENTENNIAL ST", "addr:postcode": "20646", "addr:state": "MD", "brand": "USPS", "collection_times": "Mo-Fr 17:00; Sa 15:00", "name": "USPS COLLECTION BOX - PO LOBBY", "note": "ON 12/24 AND 12/31, THIS BOX MAY BE COLLECTED AS EARLY AS 12 NOON.", "ref": "2064600007"}, "type": "Feature"}
{"geometry": {"coordinates": [-76.8923569, 38.482041], "type": "Point"}, "id": "aj5BCiHWmTNyH-MQsJ7EskLRWfs=", "properties": {"@spider": "usps_collection_boxes", "addr:city": "LA PLATA", "addr:country": "US", "addr:full": "12090 CHARLES ST", "addr:postcode": "20646", "addr:state": "MD", "brand": "USPS", "collection_times": "Mo-Sa 11:00", "name": "USPS COLLECTION BOX - BLUE BOX", "ref": "2064600009"}, "type": "Feature"}
{"geometry": {"coordinates": [-76.8724813, 38.482536], "type": "Point"}, "id": "9WHIw2Q0Xue2SzaQKFE1XusFNYI=", "properties": {"@spider": "usps_collection_boxes", "addr:city": "LA PLATA", "addr:country": "US", "addr:full": "8350 OLIVERS SHOP RD", "addr:postcode": "20646", "addr:state": "MD", "brand": "USPS", "collection_times": "Mo-Sa 11:00", "name": "USPS COLLECTION BOX - BLUE BOX", "ref": "2064600010"}, "type": "Feature"}
{"geometry": {"coordinates": [-76.980716123, 38.527049376], "type": "Point"}, "id": "ZOZkDCB5sEOiFFij9W3uSs5bRg4=", "properties": {"@spider": "usps_collection_boxes", "addr:city": "LA PLATA", "addr:country": "US", "addr:full": "100 CENTENNIAL ST", "addr:postcode": "20646", "addr:state": "MD", "brand": "USPS", "collection_times": "Mo-Fr 17:00", "name": "USPS COLLECTION BOX - PO LOBBY", "note": "ON 12/24 AND 12/31, THIS BOX MAY BE COLLECTED AS EARLY AS 12 NOON.", "ref": "2064600014"}, "type": "Feature"}
{"geometry": {"coordinates": [-76.6606923, 38.304652], "type": "Point"}, "id": "VhhfJzJcjL0LbRn7RTpaCAGliJE=", "properties": {"@spider": "usps_collection_boxes", "addr:city": "LEONARDTOWN", "addr:country": "US", "addr:full": "40955 MERCHANTS LN UNIT 18", "addr:postcode": "20650", "addr:state": "MD", "brand": "USPS", "collection_times": "Mo-Sa 10:30", "name": "USPS COLLECTION BOX - BLUE BOX", "ref": "2065000002"}, "type": "Feature"}
{"geometry": {"coordinates": [-76.6407878, 38.304191], "type": "Point"}, "id": "cG-5QB2yS-syQOKzIhjXqBvy_2Q=", "properties": {"@spider": "usps_collection_boxes", "addr:city": "LEONARDTOWN", "addr:country": "US", "addr:full": "23160 MOAKLEY ST", "addr:postcode": "20650", "addr:state": "MD", "brand": "USPS", "collection_times": "Mo-Sa 10:30", "name": "USPS COLLECTION BOX - BLUE BOX", "ref": "2065000003"}, "type": "Feature"}
{"geometry": {"coordinates": [-76.6383072, 38.301612], "type": "Point"}, "id": "rI0anKRGkv2ziIxy0rlvy72L0VE=", "properties": {"@spider": "usps_collection_boxes", "addr:city": "LEONARDTOWN", "addr:country": "US", "addr:full": "25500 POINT LOOKOUT RD", "addr:postcode": "20650", "addr:state": "MD", "brand": "USPS", "collection_times": "Mo-Sa 10:30", "name": "USPS COLLECTION BOX - BLUE BOX", "ref": "2065000010"}, "type": "Feature"}
{"geometry": {"coordinates": [-76.635877, 38.291758], "type": "Point"}, "id": "QfFN8qY_7803YKkvYZWNWse8GF4=", "properties": {"@spider": "usps_collection_boxes", "addr:city": "LEONARDTOWN", "addr:country": "US", "addr:full": "22735 WASHINGTON ST", "addr:postcode": "20650", "addr:state": "MD", "brand": "USPS", "collection_times": "Mo-Fr 16:45; Sa 12:30", "name": "USPS COLLECTION BOX - BLUE BOX", "note": "ON 12/24 AND 12/31, THIS BOX MAY BE COLLECTED AS EARLY AS 12 NOON.", "ref": "2065000011"}, "type": "Feature"}
{"geometry": {"coordinates": [-76.635846, 38.291744], "type": "Point"}, "id": "CXkN0N2I4eUBjVoX3r9QitN9ABk=", "properties": {"@spider": "usps_collection_boxes", "addr:city": "LEONARDTOWN", "addr:country": "US", "addr:full": "22735 WASHINGTON ST", "addr:postcode": "20650", "addr:state": "MD", "brand": "USPS", "collection_times": "Mo-Fr 17:00; Sa 12:00", "name": "USPS COLLECTION BOX - PO LOBBY", "note": "ON 12/24 AND 12/31, THIS BOX MAY BE COLLECTED AS EARLY AS 12 NOON.", "ref": "2065000012"}, "type": "Feature"}
{"geometry": {"coordinates": [-76.635846, 38.291744], "type": "Point"}, "id": "3LcnpprhM31A8C2Xs5o1DLhwGzg=", "properties": {"@spider": "usps_collection_boxes", "addr:city": "LEONARDTOWN", "addr:country": "US", "addr:full": "22735 WASHINGTON ST", "addr:postcode": "20650", "addr:state": "MD", "brand": "USPS", "collection_times": "Mo-Fr 17:00; Sa 12:00", "name": "USPS COLLECTION BOX - PO LOBBY", "note": "ON 12/24 AND 12/31, THIS BOX MAY BE COLLECTED AS EARLY AS 12 NOON.", "ref": "2065000013"}, "type": "Feature"}
{"geometry": {"coordinates": [-76.4565993, 38.265787], "type": "Point"}, "id": "5H7sXI480QHxowkSShrVlBxJoJE=", "properties": {"@spider": "usps_collection_boxes", "addr:city": "LEXINGTON PARK", "addr:country": "US", "addr:full": "21800 MILLISON PLZ", "addr:postcode": "20653", "addr:state": "MD", "brand": "USPS", "collection_times": "Mo-Fr 15:30; Sa 13:45", "name": "USPS COLLECTION BOX - BLUE BOX", "note": "ON 12/24 AND 12/31, THIS BOX MAY BE COLLECTED AS EARLY AS 12 NOON.", "ref": "2065300001"}, "type": "Feature"}
{"geometry": {"coordinates": [-76.4590618, 38.263494], "type": "Point"}, "id": "as8v6DQiEuuCVXBa8dELUzMw3Ds=", "properties": {"@spider": "usps_collection_boxes", "addr:city": "LEXINGTON PARK", "addr:country": "US", "addr:full": "46727 MIDWAY DR", "addr:postcode": "20653", "addr:state": "MD", "brand": "USPS", "collection_times": "Mo-Fr 15:30; Sa 13:45", "name": "USPS COLLECTION BOX - BLUE BOX", "note": "ON 12/24 AND 12/31, THIS BOX MAY BE COLLECTED AS EARLY AS 12 NOON.", "ref": "2065300007"}, "type": "Feature"}
{"geometry": {"coordinates": [-76.4641905, 38.261341], "type": "Point"}, "id": "QWhpKbh-2j2Qc3PDZjzTv1QTQPI=", "properties": {"@spider": "usps_collection_boxes", "addr:city": "LEXINGTON PARK", "addr:country": "US", "addr:full": "21625 GREAT MILLS RD", "addr:postcode": "20653", "addr:state": "MD", "brand": "USPS", "collection_times": "Mo-Fr 15:30; Sa 13:45", "name": "USPS COLLECTION BOX - BLUE BOX", "note": "ON 12/24 AND 12/31, THIS BOX MAY BE COLLECTED AS EARLY AS 12 NOON.", "ref": "2065300008"}, "type": "Feature"}
{"geometry": {"coordinates": [-76.4546506, 38.26395], "type": "Point"}, "id": "wzUua7QXYp7xc62LrAF7DqFgf4M=", "properties": {"@spider": "usps_collection_boxes", "addr:city": "LEXINGTON PARK", "addr:country": "US", "addr:full": "46940 S SHANGRI LA DR", "addr:postcode": "20653", "addr:state": "MD", "brand": "USPS", "collection_times": "Mo-Fr 15:30; Sa 13:45", "name": "USPS COLLECTION BOX - BLUE BOX", "note": "ON 12/24 AND 12/31, THIS BOX MAY BE COLLECTED AS EARLY AS 12 NOON.", "ref": "2065300012"}, "type": "Feature"}
{"geometry": {"coordinates": [-76.45253, 38.264586], "type": "Point"}, "id": "Z2sVr_V3MY8sU9f4ri6XaMm_B8E=", "properties": {"@spider": "usps_collection_boxes", "addr:city": "LEXINGTON PARK", "addr:country": "US", "addr:full": "21745 S CORAL DR", "addr:postcode": "20653", "addr:state": "MD", "brand": "USPS", "collection_times": "Mo-Fr 16:30; Sa 15:30", "name": "USPS COLLECTION BOX - BLUE BOX", "note": "ON 12/24 AND 12/31, THIS BOX MAY BE COLLECTED AS EARLY AS 12 NOON.", "ref": "2065300015"}, "type": "Feature"}
{"geometry": {"coordinates": [-76.452436, 38.26455], "type": "Point"}, "id": "j8SJQWl4KTIkQP6Ihrx0ixDxOQ8=", "properties": {"@spider": "usps_collection_boxes", "addr:city": "LEXINGTON PARK", "addr:country": "US", "addr:full": "21745 S CORAL DR", "addr:postcode": "20653", "addr:state": "MD", "brand": "USPS", "collection_times": "Mo-Fr 16:30; Sa 15:30", "name": "USPS COLLECTION BOX - BLUE BOX", "note": "ON 12/24 AND 12/31, THIS BOX MAY BE COLLECTED AS EARLY AS 12 NOON.", "ref": "2065300017"}, "type": "Feature"}
{"geometry": {"coordinates": [-76.452436, 38.26455], "type": "Point"}, "id": "VNZ90Z137iFVA-7b67eYwyTVP_Q=", "properties": {"@spider": "usps_collection_boxes", "addr:city": "LEXINGTON PARK", "addr:country": "US", "addr:full": "21745 S CORAL DR", "addr:postcode": "20653", "addr:state": "MD", "brand": "USPS", "collection_times": "Mo-Fr 16:30; Sa 15:30", "name": "USPS COLLECTION BOX - BLUE BOX", "note": "ON 12/24 AND 12/31, THIS BOX MAY BE COLLECTED AS EARLY AS 12 NOON.", "ref": "2065300027"}, "type": "Feature"}
{"geometry": {"coordinates": [-76.452436, 38.26455], "type": "Point"}, "id": "LIn200GrIgu6PzAZO7i5KYYvZg8=", "properties": {"@spider": "usps_collection_boxes", "addr:city": "LEXINGTON PARK", "addr:country": "US", "addr:full": "21745 S CORAL DR", "addr:postcode": "20653", "addr:state": "MD", "brand": "USPS", "collection_times": "Mo-Fr 17:00; Sa 13:00", "name": "USPS COLLECTION BOX - PO LOBBY", "note": "ON 12/24 AND 12/31, THIS BOX MAY BE COLLECTED AS EARLY AS 12 NOON.", "ref": "2065300030"}, "type": "Feature"}
{"geometry": {"coordinates": [-76.675929, 38.346029], "type": "Point"}, "id": "Gs6_Eg3YHluUkXoAq-AFxAgvZjk=", "properties": {"@spider": "usps_collection_boxes", "addr:city": "LOVEVILLE", "addr:country": "US", "addr:full": "27780 POINT LOOKOUT RD", "addr:postcode": "20656", "addr:state": "MD", "brand": "USPS", "collection_times": "Mo-Fr 16:30; Sa 12:00", "name": "USPS COLLECTION BOX - BLUE BOX", "note": "ON 12/24 AND 12/31, THIS BOX MAY BE COLLECTED AS EARLY AS 12 NOON.", "ref": "2065600000"}, "type": "Feature"}
{"geometry": {"coordinates": [-76.675943, 38.345963], "type": "Point"}, "id": "Ha93GQJo0XprAi0ox38r024375w=", "properties": {"@spider": "usps_collection_boxes", "addr:city": "LOVEVILLE", "addr:country": "US", "addr:full": "27780 POINT LOOKOUT RD", "addr:postcode": "20656", "addr:state": "MD", "brand": "USPS", "collection_times": "Mo-Fr 16:30; Sa 12:00", "name": "USPS COLLECTION BOX - PO LOBBY", "note": "ON 12/24 AND 12/31, THIS BOX MAY BE COLLECTED AS EARLY AS 12 NOON.", "ref": "2065600001"}, "type": "Feature"}
{"geometry": {"coordinates": [-76.447859, 38.34827], "type": "Point"}, "id": "EUqPg9Ksp4Mt_K7XeUNO93NyHs0=", "properties": {"@spider": "usps_collection_boxes", "addr:city": "LUSBY", "addr:country": "US", "addr:full": "11575 LUSBY LN", "addr:postcode": "20657", "addr:state": "MD", "brand": "USPS", "collection_times": "Mo-Fr 16:30; Sa 12:00", "name": "USPS COLLECTION BOX - BLUE BOX", "note": "ON 12/24 AND 12/31, THIS BOX MAY BE COLLECTED AS EARLY AS 12 NOON.", "ref": "2065700001"}, "type": "Feature"}
{"geometry": {"coordinates": [-76.4078517, 38.364428], "type": "Point"}, "id": "lEe9woI0hC4X3puV2YRxG3wEdIs=", "properties": {"@spider": "usps_collection_boxes", "addr:city": "LUSBY", "addr:country": "US", "addr:full": "11705 BIG SANDY RUN RD", "addr:postcode": "20657", "addr:state": "MD", "brand": "USPS", "collection_times": "Mo-Sa 10:30", "name": "USPS COLLECTION BOX - BLUE BOX", "ref": "2065700007"}, "type": "Feature"}
{"geometry": {"coordinates": [-76.44789, 38.348318], "type": "Point"}, "id": "Y_Rat_EmsVukvMDBBRIlqEylWy4=", "properties": {"@spider": "usps_collection_boxes", "addr:city": "LUSBY", "addr:country": "US", "addr:full": "11575 LUSBY LN", "addr:postcode": "20657", "addr:state": "MD", "brand": "USPS", "collection_times": "Mo-Fr 16:30; Sa 12:00", "name": "USPS COLLECTION BOX - PO LOBBY", "note": "ON 12/24 AND 12/31, THIS BOX MAY BE COLLECTED AS EARLY AS 12 NOON.", "ref": "2065700009"}, "type": "Feature"}
{"geometry": {"coordinates": [-76.44789, 38.348318], "type": "Point"}, "id": "WcxnhSZTzHX0Aylgns3wnn70gAs=", "properties": {"@spider": "usps_collection_boxes", "addr:city": "LUSBY", "addr:country": "US", "addr:full": "11575 LUSBY LN", "addr:postcode": "20657", "addr:state": "MD", "brand": "USPS", "collection_times": "Mo-Fr 16:30; Sa 12:00", "name": "USPS COLLECTION BOX - PO LOBBY", "note": "ON 12/24 AND 12/31, THIS BOX MAY BE COLLECTED AS EARLY AS 12 NOON.", "ref": "2065700010"}, "type": "Feature"}
{"geometry": {"coordinates": [-76.44789, 38.348318], "type": "Point"}, "id": "LOqwbsnLUUdj1yZjGHStB7Pmo7c=", "properties": {"@spider": "usps_collection_boxes", "addr:city": "LUSBY", "addr:country": "US", "addr:full": "11575 LUSBY LN", "addr:postcode": "20657", "addr:state": "MD", "brand": "USPS", "collection_times": "Mo-Fr 16:30; Sa 12:00", "name": "USPS COLLECTION BOX - PO LOBBY", "note": "ON 12/24 AND 12/31, THIS BOX MAY BE COLLECTED AS EARLY AS 12 NOON.", "ref": "2065700011"}, "type": "Feature"}
{"geometry": {"coordinates": [-77.154817, 38.570777], "type": "Point"}, "id": "Uqxdwihe2NBJWtdClZ-AXifQrF4=", "properties": {"@spider": "usps_collection_boxes", "addr:city": "MARBURY", "addr:country": "US", "addr:full": "4570 BICKNELL RD", "addr:postcode": "20658", "addr:state": "MD", "brand": "USPS", "collection_times": "Mo-Fr 16:30; Sa 11:30", "name": "USPS COLLECTION BOX - BLUE BOX", "note": "ON 12/24 AND 12/31, THIS BOX MAY BE COLLECTED AS EARLY AS 12 NOON.", "ref": "2065800000"}, "type": "Feature"}
{"geometry": {"coordinates": [-77.154863, 38.570789], "type": "Point"}, "id": "0bzWC3Ui5STrU-rqWZF-ktyD5gQ=", "properties": {"@spider": "usps_collection_boxes", "addr:city": "MARBURY", "addr:country": "US", "addr:full": "4570 BICKNELL RD", "addr:postcode": "20658", "addr:state": "MD", "brand": "USPS", "collection_times": "Mo-Fr 17:00; Sa 12:00", "name": "USPS COLLECTION BOX - PO LOBBY", "note": "ON 12/24 AND 12/31, THIS BOX MAY BE COLLECTED AS EARLY AS 12 NOON.", "ref": "2065800001"}, "type": "Feature"}
{"geometry": {"coordinates": [-77.1605452, 38.56711], "type": "Point"}, "id": "g6N0DqFthaT6bEMMV2RkV3IbLQ4=", "properties": {"@spider": "usps_collection_boxes", "addr:city": "MARBURY", "addr:country": "US", "addr:full": "4000 CHICAMUXEN RD", "addr:postcode": "20658", "addr:state": "MD", "brand": "USPS", "collection_times": "Mo-Sa 14:00", "name": "USPS COLLECTION BOX - BLUE BOX", "note": "ON 12/24 AND 12/31, THIS BOX MAY BE COLLECTED AS EARLY AS 12 NOON.", "ref": "2065800002"}, "type": "Feature"}
{"geometry": {"coordinates": [-77.155352153, 38.571648852], "type": "Point"}, "id": "XYNbNFE1zMzHrN2apuUSOP--xtE=", "properties": {"@spider": "usps_collection_boxes", "addr:city": "MARBURY", "addr:country": "US", "addr:full": "4570 BICKNELL RD", "addr:postcode": "20658", "addr:state": "MD", "brand": "USPS", "collection_times": "Mo-Fr 12:00", "name": "USPS COLLECTION BOX - PO LOBBY", "ref": "2065800003"}, "type": "Feature"}
{"geometry": {"coordinates": [-76.76697, 38.463658], "type": "Point"}, "id": "dUgj1wQe6AQiDqtcTy9Lcbg_uJM=", "properties": {"@spider": "usps_collection_boxes", "addr:city": "MECHANICSVILLE", "addr:country": "US", "addr:full": "28948 THREE NOTCH RD", "addr:postcode": "20659", "addr:state": "MD", "brand": "USPS", "collection_times": "Mo-Fr 16:50; Sa 14:30", "name": "USPS COLLECTION BOX - BLUE BOX", "note": "ON 12/24 AND 12/31, THIS BOX MAY BE COLLECTED AS EARLY AS 12 NOON.", "ref": "2065900000"}, "type": "Feature"}
{"geometry": {"coordinates": [-76.766925, 38.463587], "type": "Point"}, "id": "9N5QP8aTx9NuRdjZDHQDCV2XSg4=", "properties": {"@spider": "usps_collection_boxes", "addr:city": "MECHANICSVILLE", "addr:country": "US", "addr:full": "28948 THREE NOTCH RD", "addr:postcode": "20659", "addr:state": "MD", "brand": "USPS", "collection_times": "Mo-Fr 17:00; Sa 14:30", "name": "USPS COLLECTION BOX - PO LOBBY", "note": "ON 12/24 AND 12/31, THIS BOX MAY BE COLLECTED AS EARLY AS 12 NOON.", "ref": "2065900001"}, "type": "Feature"}
{"geometry": {"coordinates": [-76.766925, 38.463587], "type": "Point"}, "id": "aiUL9bTBhiP2GWet_R7srYlDMbY=", "properties": {"@spider": "usps_collection_boxes", "addr:city": "MECHANICSVILLE", "addr:country": "US", "addr:full": "28948 THREE NOTCH RD", "addr:postcode": "20659", "addr:state": "MD", "brand": "USPS", "collection_times": "Mo-Fr 17:00; Sa 14:30", "name": "USPS COLLECTION BOX - PO LOBBY", "note": "ON 12/24 AND 12/31, THIS BOX MAY BE COLLECTED AS EARLY AS 12 NOON.", "ref": "2065900002"}, "type": "Feature"}
{"geometry": {"coordinates": [-76.766873562, 38.46358366], "type": "Point"}, "id": "Gql_lQuGqwkFIJcztq7qRxth8dU=", "properties": {"@spider": "usps_collection_boxes", "addr:city": "MECHANICSVILLE", "addr:country": "US", "addr:full": "28948 THREE NOTCH RD", "addr:postcode": "20659", "addr:state": "MD", "brand": "USPS", "collection_times": "Mo-Fr 17:00; Sa 12:00", "name": "USPS COLLECTION BOX - PO LOBBY", "note": "ON 12/24 AND 12/31, THIS BOX MAY BE COLLECTED AS EARLY AS 12 NOON.", "ref": "2065900004"}, "type": "Feature"}
{"geometry": {"coordinates": [-76.723101515, 38.367518895], "type": "Point"}, "id": "ZXWVWXbXDoUuO0tbbPsSMC531B8=", "properties": {"@spider": "usps_collection_boxes", "addr:city": "MORGANZA", "addr:country": "US", "addr:full": "39600 DOCTOR JOHNSON RD", "addr:postcode": "20660", "addr:state": "MD", "brand": "USPS", "collection_times": "Mo-Fr 16:00; Sa 12:00", "name": "USPS COLLECTION BOX - BLUE BOX", "note": "ON 12/24 AND 12/31, THIS BOX MAY BE COLLECTED AS EARLY AS 12 NOON.", "ref": "2066000000"}, "type": "Feature"}
{"geometry": {"coordinates": [-76.723101515, 38.367518895], "type": "Point"}, "id": "ZoB0TFzrY40GUvyjeoAHXUnFQ2w=", "properties": {"@spider": "usps_collection_boxes", "addr:city": "MORGANZA", "addr:country": "US", "addr:full": "39600 DOCTOR JOHNSON RD", "addr:postcode": "20660", "addr:state": "MD", "brand": "USPS", "collection_times": "Mo-Fr 16:00; Sa 12:00", "name": "USPS COLLECTION BOX - PO LOBBY", "note": "ON 12/24 AND 12/31, THIS BOX MAY BE COLLECTED AS EARLY AS 12 NOON.", "ref": "2066000001"}, "type": "Feature"}
{"geometry": {"coordinates": [-76.894161352, 38.347774151], "type": "Point"}, "id": "yHZ7AmcK0W-TejNuT-TyhelGaw8=", "properties": {"@spider": "usps_collection_boxes", "addr:city": "MT VICTORIA", "addr:country": "US", "addr:full": "12085 MOUNT VICTORIA RD", "addr:postcode": "20661", "addr:state": "MD", "brand": "USPS", "collection_times": "Mo-Fr 11:45", "name": "USPS COLLECTION BOX - BLUE BOX", "ref": "2066100000"}, "type": "Feature"}
{"geometry": {"coordinates": [-77.217031, 38.454006], "type": "Point"}, "id": "0IFp1p42beyqVvMrNKtnyaYprVQ=", "properties": {"@spider": "usps_collection_boxes", "addr:city": "NANJEMOY", "addr:country": "US", "addr:full": "9365 BEAVER DAM RD", "addr:postcode": "20662", "addr:state": "MD", "brand": "USPS", "collection_times": "Mo-Fr 16:45; Sa 12:00", "name": "USPS COLLECTION BOX - BLUE BOX", "note": "ON 12/24 AND 12/31, THIS BOX MAY BE COLLECTED AS EARLY AS 12 NOON.", "ref": "2066200000"}, "type": "Feature"}
{"geometry": {"coordinates": [-77.217045, 38.454749], "type": "Point"}, "id": "RqcS8uaSZDNjBliZ9wL8G_5hRvo=", "properties": {"@spider": "usps_collection_boxes", "addr:city": "NANJEMOY", "addr:country": "US", "addr:full": "9365 BEAVER DAM RD", "addr:postcode": "20662", "addr:state": "MD", "brand": "USPS", "collection_times": "Mo-Fr 17:00; Sa 12:00", "name": "USPS COLLECTION BOX - PO LOBBY", "note": "ON 12/24 AND 12/31, THIS BOX MAY BE COLLECTED AS EARLY AS 12 NOON.", "ref": "2066200001"}, "type": "Feature"}
{"geometry": {"coordinates": [-77.217106592, 38.454525], "type": "Point"}, "id": "xiPEO0VYuoWo5fpNynP4tOL0P4s=", "properties": {"@spider": "usps_collection_boxes", "addr:city": "NANJEMOY", "addr:country": "US", "addr:full": "9365 BEAVERDAM RD", "addr:postcode": "20662", "addr:state": "MD", "brand": "USPS", "collection_times": "Mo-Fr 16:45; Sa 12:00", "name": "USPS COLLECTION BOX - PO LOBBY", "note": "ON 12/24 AND 12/31, THIS BOX MAY BE COLLECTED AS EARLY AS 12 NOON.", "ref": "2066200003"}, "type": "Feature"}
{"geometry": {"coordinates": [-76.953835, 38.378189], "type": "Point"}, "id": "JMfFQKPQsWUCMb7TooNa2ZlEeVw=", "properties": {"@spider": "usps_collection_boxes", "addr:city": "NEWBURG", "addr:country": "US", "addr:full": "12179 ROCK POINT RD", "addr:postcode": "20664", "addr:state": "MD", "brand": "USPS", "collection_times": "Mo-Fr 16:00; Sa 12:00", "name": "USPS COLLECTION BOX - PO LOBBY", "note": "ON 12/24 AND 12/31, THIS BOX MAY BE COLLECTED AS EARLY AS 12 NOON.", "ref": "2066400001"}, "type": "Feature"}
{"geometry": {"coordinates": [-76.9536086728, 38.3778593969], "type": "Point"}, "id": "8rhWDdRSVWPb7q2wEkcghjJcqPM=", "properties": {"@spider": "usps_collection_boxes", "addr:city": "NEWBURG", "addr:country": "US", "addr:full": "12179 ROCK POINT RD", "addr:postcode": "20664", "addr:state": "MD", "brand": "USPS", "collection_times": "Mo-Fr 16:00; Sa 12:00", "name": "USPS COLLECTION BOX - BLUE BOX", "note": "ON 12/24 AND 12/31, THIS BOX MAY BE COLLECTED AS EARLY AS 12 NOON.", "ref": "2066400002"}, "type": "Feature"}
{"geometry": {"coordinates": [-76.440571, 38.221867], "type": "Point"}, "id": "MXdvW5O9Kdbiw7JEjetrSCC2YgU=", "properties": {"@spider": "usps_collection_boxes", "addr:city": "PARK HALL", "addr:country": "US", "addr:full": "18400 POINT LOOKOUT RD", "addr:postcode": "20667", "addr:state": "MD", "brand": "USPS", "collection_times": "Mo-Fr 16:15; Sa 11:45", "name": "USPS COLLECTION BOX - BLUE BOX", "note": "ON 12/24 AND 12/31, THIS BOX MAY BE COLLECTED AS EARLY AS 12 NOON.", "ref": "2066700000"}, "type": "Feature"}
{"geometry": {"coordinates": [-76.440457, 38.22184], "type": "Point"}, "id": "k6XDKc8HJdeKg6qc4KX-RgT85Gk=", "properties": {"@spider": "usps_collection_boxes", "addr:city": "PARK HALL", "addr:country": "US", "addr:full": "18400 POINT LOOKOUT RD", "addr:postcode": "20667", "addr:state": "MD", "brand": "USPS", "collection_times": "Mo-Fr 16:15; Sa 11:45", "name": "USPS COLLECTION BOX - PO LOBBY", "note": "ON 12/24 AND 12/31, THIS BOX MAY BE COLLECTED AS EARLY AS 12 NOON.", "ref": "2066700001"}, "type": "Feature"}
{"geometry": {"coordinates": [-76.441009437, 38.221891417], "type": "Point"}, "id": "3ygSTJNTpksZuS1ZGBf1oSIGi74=", "properties": {"@spider": "usps_collection_boxes", "addr:city": "PARK HALL", "addr:country": "US", "addr:full": "18400 POINT LOOKOUT RD", "addr:postcode": "20667", "addr:state": "MD", "brand": "USPS", "collection_times": "Mo-Fr 16:15", "name": "USPS COLLECTION BOX - PO LOBBY", "note": "ON 12/24 AND 12/31, THIS BOX MAY BE COLLECTED AS EARLY AS 12 NOON.", "ref": "2066700002"}, "type": "Feature"}
{"geometry": {"coordinates": [-76.377138, 38.298606], "type": "Point"}, "id": "FBfxQcfxS0xONVWQODUXRxdTkis=", "properties": {"@spider": "usps_collection_boxes", "addr:city": "PATUXENT RIVER", "addr:country": "US", "addr:full": "459 CEDAR POINT RD", "addr:postcode": "20670", "addr:state": "MD", "brand": "USPS", "collection_times": "Mo-Fr 16:45; Sa 13:30", "name": "USPS COLLECTION BOX - BLUE BOX", "note": "ON 12/24 AND 12/31, THIS BOX MAY BE COLLECTED AS EARLY AS 12 NOON.", "ref": "2067000001"}, "type": "Feature"}
{"geometry": {"coordinates": [-76.42964066, 38.270904707], "type": "Point"}, "id": "xPdFN7Lkzz1qS2HaKDKMtf_utA8=", "properties": {"@spider": "usps_collection_boxes", "addr:city": "PATUXENT RIVER", "addr:country": "US", "addr:full": "TATE RD", "addr:postcode": "20670", "addr:state": "MD", "brand": "USPS", "collection_times": "Mo-Fr 14:45; Sa 10:30", "name": "USPS COLLECTION BOX - BLUE BOX", "note": "ON 12/24 AND 12/31, THIS BOX MAY BE COLLECTED AS EARLY AS 12 NOON.", "ref": "2067000003"}, "type": "Feature"}
{"geometry": {"coordinates": [-76.4408489, 38.280245], "type": "Point"}, "id": "EjECY7CX2B9fnLrryd47ttF8cf8=", "properties": {"@spider": "usps_collection_boxes", "addr:city": "PATUXENT RIVER", "addr:country": "US", "addr:full": "47298 TATE RD # VX-1", "addr:postcode": "20670", "addr:state": "MD", "brand": "USPS", "collection_times": "Mo-Fr 15:00; Sa 10:30", "name": "USPS COLLECTION BOX - BLUE BOX", "note": "ON 12/24 AND 12/31, THIS BOX MAY BE COLLECTED AS EARLY AS 12 NOON.", "ref": "2067000005"}, "type": "Feature"}
{"geometry": {"coordinates": [-76.4414706, 38.271798], "type": "Point"}, "id": "eLWyg_eArmOI5UjMv4mUxjSioqk=", "properties": {"@spider": "usps_collection_boxes", "addr:city": "PATUXENT RIVER", "addr:country": "US", "addr:full": "22095 FORTIN CIR", "addr:postcode": "20670", "addr:state": "MD", "brand": "USPS", "collection_times": "Mo-Fr 15:05; Sa 10:30", "name": "USPS COLLECTION BOX - BLUE BOX", "note": "ON 12/24 AND 12/31, THIS BOX MAY BE COLLECTED AS EARLY AS 12 NOON.", "ref": "2067000007"}, "type": "Feature"}
{"geometry": {"coordinates": [-76.4461417, 38.271931], "type": "Point"}, "id": "gnea1P0W3EviARtmAtSJL1Ox4WM=", "properties": {"@spider": "usps_collection_boxes", "addr:city": "PATUXENT RIVER", "addr:country": "US", "addr:full": "47149 BUSE RD", "addr:postcode": "20670", "addr:state": "MD", "brand": "USPS", "collection_times": "Mo-Fr 14:25; Sa 10:30", "name": "USPS COLLECTION BOX - BLUE BOX", "note": "ON 12/24 AND 12/31, THIS BOX MAY BE COLLECTED AS EARLY AS 12 NOON.", "ref": "2067000008"}, "type": "Feature"}
{"geometry": {"coordinates": [-76.4356247, 38.277004], "type": "Point"}, "id": "OTGdbuC8cWZZnUPH_d4KVfCdXlo=", "properties": {"@spider": "usps_collection_boxes", "addr:city": "PATUXENT RIVER", "addr:country": "US", "addr:full": "22268 CEDAR POINT RD", "addr:postcode": "20670", "addr:state": "MD", "brand": "USPS", "collection_times": "Mo-Fr 15:20; Sa 10:30", "name": "USPS COLLECTION BOX - BLUE BOX", "note": "ON 12/24 AND 12/31, THIS BOX MAY BE COLLECTED AS EARLY AS 12 NOON.", "ref": "2067000013"}, "type": "Feature"}
{"geometry": {"coordinates": [-76.4569682, 38.271841], "type": "Point"}, "id": "6WOcBuWU9LG6ySTrU98C8v05_LA=", "properties": {"@spider": "usps_collection_boxes", "addr:city": "PATUXENT RIVER", "addr:country": "US", "addr:full": "22099 CUDDIHY ROAD-NEX", "addr:postcode": "20670", "addr:state": "MD", "brand": "USPS", "collection_times": "Mo-Fr 13:30; Sa 10:30", "name": "USPS COLLECTION BOX - BLUE BOX", "note": "ON 12/24 AND 12/31, THIS BOX MAY BE COLLECTED AS EARLY AS 12 NOON.", "ref": "2067000014"}, "type": "Feature"}
{"geometry": {"coordinates": [-76.4478007, 38.27328], "type": "Point"}, "id": "F4lYyDmCDhWM2jc3iTCDQ9en39E=", "properties": {"@spider": "usps_collection_boxes", "addr:city": "PATUXENT RIVER", "addr:country": "US", "addr:full": "47082 LILJENCRANTZ RD", "addr:postcode": "20670", "addr:state": "MD", "brand": "USPS", "collection_times": "Mo-Fr 14:35; Sa 10:30", "name": "USPS COLLECTION BOX - BLUE BOX", "note": "ON 12/24 AND 12/31, THIS BOX MAY BE COLLECTED AS EARLY AS 12 NOON.", "ref": "2067000015"}, "type": "Feature"}
{"geometry": {"coordinates": [-76.4495294, 38.278436], "type": "Point"}, "id": "eDjThx8gGJvSxXRpPnmRJTYu4qo=", "properties": {"@spider": "usps_collection_boxes", "addr:city": "PATUXENT RIVER", "addr:country": "US", "addr:full": "47033 MCLEOD RD", "addr:postcode": "20670", "addr:state": "MD", "brand": "USPS", "collection_times": "Mo-Fr 14:55; Sa 10:30", "name": "USPS COLLECTION BOX - BLUE BOX", "note": "ON 12/24 AND 12/31, THIS BOX MAY BE COLLECTED AS EARLY AS 12 NOON.", "ref": "2067000017"}, "type": "Feature"}
{"geometry": {"coordinates": [-76.4383073, 38.271204], "type": "Point"}, "id": "q03Yoq8hLjUMBn640asEIUfs9dU=", "properties": {"@spider": "usps_collection_boxes", "addr:city": "PATUXENT RIVER", "addr:country": "US", "addr:full": "1400 BUSE RD", "addr:postcode": "20670", "addr:state": "MD", "brand": "USPS", "collection_times": "Mo-Fr 12:00; Sa 10:30", "name": "USPS COLLECTION BOX - BLUE BOX", "ref": "2067000018"}, "type": "Feature"}
{"geometry": {"coordinates": [-76.4445688, 38.268462], "type": "Point"}, "id": "drmZogEpU3P8Si0--uQBMENtkN0=", "properties": {"@spider": "usps_collection_boxes", "addr:city": "PATUXENT RIVER", "addr:country": "US", "addr:full": "715 MEMQ", "addr:postcode": "20670", "addr:state": "MD", "brand": "USPS", "collection_times": "Mo-Fr 15:15; Sa 10:30", "name": "USPS COLLECTION BOX - BLUE BOX", "note": "ON 12/24 AND 12/31, THIS BOX MAY BE COLLECTED AS EARLY AS 12 NOON.", "ref": "2067000019"}, "type": "Feature"}
{"geometry": {"coordinates": [-76.4486447, 38.271798], "type": "Point"}, "id": "p8UrSNhIuWZW4-yz5WLcp7d-uVs=", "properties": {"@spider": "usps_collection_boxes", "addr:city": "PATUXENT RIVER", "addr:country": "US", "addr:full": "22103 MANDT RD", "addr:postcode": "20670", "addr:state": "MD", "brand": "USPS", "collection_times": "Mo-Fr 10:50; Sa 10:30", "name": "USPS COLLECTION BOX - BLUE BOX", "ref": "2067000021"}, "type": "Feature"}
{"geometry": {"coordinates": [-76.4345118, 38.278563], "type": "Point"}, "id": "lIey31iK_ICCItJQNon2fCOYWfg=", "properties": {"@spider": "usps_collection_boxes", "addr:city": "PATUXENT RIVER", "addr:country": "US", "addr:full": "22347 CEDAR POINT RD", "addr:postcode": "20670", "addr:state": "MD", "brand": "USPS", "collection_times": "Mo-Fr 14:50; Sa 10:30", "name": "USPS COLLECTION BOX - BLUE BOX", "note": "ON 12/24 AND 12/31, THIS BOX MAY BE COLLECTED AS EARLY AS 12 NOON.", "ref": "2067000022"}, "type": "Feature"}
{"geometry": {"coordinates": [-76.4107829, 38.273488], "type": "Point"}, "id": "nWYgJ6vYwwZsu9t6087G9XCk-34=", "properties": {"@spider": "usps_collection_boxes", "addr:city": "PATUXENT RIVER", "addr:country": "US", "addr:full": "48150 SHAW RD", "addr:postcode": "20670", "addr:state": "MD", "brand": "USPS", "collection_times": "Mo-Fr 10:15; Sa 10:30", "name": "USPS COLLECTION BOX - BLUE BOX", "ref": "2067000023"}, "type": "Feature"}
{"geometry": {"coordinates": [-76.4137006, 38.27491], "type": "Point"}, "id": "_7WGC-jAxiuTDBHgd7DaCKtZQh8=", "properties": {"@spider": "usps_collection_boxes", "addr:city": "PATUXENT RIVER", "addr:country": "US", "addr:full": "48110 SHAW RD", "addr:postcode": "20670", "addr:state": "MD", "brand": "USPS", "collection_times": "Mo-Fr 10:00; Sa 10:30", "name": "USPS COLLECTION BOX - BLUE BOX", "ref": "2067000024"}, "type": "Feature"}
{"geometry": {"coordinates": [-76.436891, 38.284146], "type": "Point"}, "id": "YdGZl6SkgGosoTy6vQ6ebENj1f8=", "properties": {"@spider": "usps_collection_boxes", "addr:city": "PATUXENT RIVER", "addr:country": "US", "addr:full": "22541 MILLSTONE RD", "addr:postcode": "20670", "addr:state": "MD", "brand": "USPS", "collection_times": "Mo-Fr 14:55; Sa 10:30", "name": "USPS COLLECTION BOX - BLUE BOX", "note": "ON 12/24 AND 12/31, THIS BOX MAY BE COLLECTED AS EARLY AS 12 NOON.", "ref": "2067000026"}, "type": "Feature"}
{"geometry": {"coordinates": [-76.377136, 38.29854], "type": "Point"}, "id": "8SaxcmzwWx_ttJvg-DbVBnJcUQk=", "properties": {"@spider": "usps_collection_boxes", "addr:city": "PATUXENT RIVER", "addr:country": "US", "addr:full": "459 CEDAR POINT RD", "addr:postcode": "20670", "addr:state": "MD", "brand": "USPS", "collection_times": "Mo-Fr 16:45; Sa 13:30", "name": "USPS COLLECTION BOX - PO LOBBY", "note": "ON 12/24 AND 12/31, THIS BOX MAY BE COLLECTED AS EARLY AS 12 NOON.", "ref": "2067000027"}, "type": "Feature"}
{"geometry": {"coordinates": [-76.448108355, 38.275813799], "type": "Point"}, "id": "gRxweFlHJQqoifZ7yurGspQLNNs=", "properties": {"@spider": "usps_collection_boxes", "addr:city": "PATUXENT RIVER", "addr:country": "US", "addr:full": "47123 BUSE RD", "addr:postcode": "20670", "addr:state": "MD", "brand": "USPS", "collection_times": "Mo-Fr 14:00; Sa 10:30", "name": "USPS COLLECTION BOX - BLUE BOX", "note": "ON 12/24 AND 12/31, THIS BOX MAY BE COLLECTED AS EARLY AS 12 NOON.", "ref": "2067000030"}, "type": "Feature"}
{"geometry": {"coordinates": [-76.503153462, 38.139898724], "type": "Point"}, "id": "taJDUmKk1E1-IFZvgNs06lKWgzM=", "properties": {"@spider": "usps_collection_boxes", "addr:city": "PINEY POINT", "addr:country": "US", "addr:full": "17160 PINEY POINT RD", "addr:postcode": "20674", "addr:state": "MD", "brand": "USPS", "collection_times": "Mo-Fr 16:20; Sa 12:00", "name": "USPS COLLECTION BOX - BLUE BOX", "note": "ON 12/24 AND 12/31, THIS BOX MAY BE COLLECTED AS EARLY AS 12 NOON.", "ref": "2067400000"}, "type": "Feature"}
{"geometry": {"coordinates": [-76.503153462, 38.139898724], "type": "Point"}, "id": "NxlJvl_nqkrmMZtAhJ5KKe4bTvc=", "properties": {"@spider": "usps_collection_boxes", "addr:city": "PINEY POINT", "addr:country": "US", "addr:full": "17160 PINEY POINT RD", "addr:postcode": "20674", "addr:state": "MD", "brand": "USPS", "collection_times": "Mo-Fr 16:15; Sa 12:00", "name": "USPS COLLECTION BOX - PO LOBBY", "note": "ON 12/24 AND 12/31, THIS BOX MAY BE COLLECTED AS EARLY AS 12 NOON.", "ref": "2067400001"}, "type": "Feature"}
{"geometry": {"coordinates": [-76.503153462, 38.139898724], "type": "Point"}, "id": "-cLU-phGPLJ7hBSRmSAg9JkTaWU=", "properties": {"@spider": "usps_collection_boxes", "addr:city": "PINEY POINT", "addr:country": "US", "addr:full": "17160 PINEY POINT RD", "addr:postcode": "20674", "addr:state": "MD", "brand": "USPS", "collection_times": "Mo-Fr 16:30; Sa 12:00", "name": "USPS COLLECTION BOX - PO LOBBY", "note": "ON 12/24 AND 12/31, THIS BOX MAY BE COLLECTED AS EARLY AS 12 NOON.", "ref": "2067400002"}, "type": "Feature"}
{"geometry": {"coordinates": [-77.026524002, 38.583100982], "type": "Point"}, "id": "ugyH5ULuAQCwTnXZoe3dDd3o--k=", "properties": {"@spider": "usps_collection_boxes", "addr:city": "POMFRET", "addr:country": "US", "addr:full": "8205 MARSHALL CORNER RD", "addr:postcode": "20675", "addr:state": "MD", "brand": "USPS", "collection_times": "Mo-Fr 17:00; Sa 12:00", "name": "USPS COLLECTION BOX - BLUE BOX", "note": "ON 12/24 AND 12/31, THIS BOX MAY BE COLLECTED AS EARLY AS 12 NOON.", "ref": "2067500000"}, "type": "Feature"}
{"geometry": {"coordinates": [-77.026524002, 38.583100982], "type": "Point"}, "id": "RGzWXKn-QSGavsxtf55z4AxFxeY=", "properties": {"@spider": "usps_collection_boxes", "addr:city": "POMFRET", "addr:country": "US", "addr:full": "8205 MARSHALL CORNER RD", "addr:postcode": "20675", "addr:state": "MD", "brand": "USPS", "collection_times": "Mo-Fr 17:00; Sa 12:00", "name": "USPS COLLECTION BOX - PO LOBBY", "note": "ON 12/24 AND 12/31, THIS BOX MAY BE COLLECTED AS EARLY AS 12 NOON.", "ref": "2067500001"}, "type": "Feature"}
{"geometry": {"coordinates": [-77.026524002, 38.583100982], "type": "Point"}, "id": "SJQDJj6hR6gFzMmKX59UnPGju1c=", "properties": {"@spider": "usps_collection_boxes", "addr:city": "POMFRET", "addr:country": "US", "addr:full": "8205 MARSHALL CORNER RD", "addr:postcode": "20675", "addr:state": "MD", "brand": "USPS", "collection_times": "Mo-Fr 17:00", "name": "USPS COLLECTION BOX - PO LOBBY", "note": "ON 12/24 AND 12/31, THIS BOX MAY BE COLLECTED AS EARLY AS 12 NOON.", "ref": "2067500002"}, "type": "Feature"}
{"geometry": {"coordinates": [-76.521567, 38.49912], "type": "Point"}, "id": "98WDg0Jjzpfas6MAAYuMsPyrOk8=", "properties": {"@spider": "usps_collection_boxes", "addr:city": "PORT REPUBLIC", "addr:country": "US", "addr:full": "3000 SAINT LEONARD RD", "addr:postcode": "20676", "addr:state": "MD", "brand": "USPS", "collection_times": "Mo-Fr 16:30; Sa 12:00", "name": "USPS COLLECTION BOX - BLUE BOX", "note": "ON 12/24 AND 12/31, THIS BOX MAY BE COLLECTED AS EARLY AS 12 NOON.", "ref": "2067600000"}, "type": "Feature"}
{"geometry": {"coordinates": [-76.521687, 38.499121], "type": "Point"}, "id": "aXD8jUaozupoIgb8BU8Gov-d5Lk=", "properties": {"@spider": "usps_collection_boxes", "addr:city": "PORT REPUBLIC", "addr:country": "US", "addr:full": "3000 SAINT LEONARD RD", "addr:postcode": "20676", "addr:state": "MD", "brand": "USPS", "collection_times": "Mo-Fr 16:30; Sa 12:00", "name": "USPS COLLECTION BOX - PO LOBBY", "note": "ON 12/24 AND 12/31, THIS BOX MAY BE COLLECTED AS EARLY AS 12 NOON.", "ref": "2067600001"}, "type": "Feature"}
{"geometry": {"coordinates": [-77.036503, 38.509584], "type": "Point"}, "id": "wm3L4YQYoKPX6LxWYBj0X0kEuXo=", "properties": {"@spider": "usps_collection_boxes", "addr:city": "PORT TOBACCO", "addr:country": "US", "addr:full": "8200 PORT TOBACCO RD", "addr:postcode": "20677", "addr:state": "MD", "brand": "USPS", "collection_times": "Mo-Fr 16:15; Sa 11:45", "name": "USPS COLLECTION BOX - BLUE BOX", "note": "ON 12/24 AND 12/31, THIS BOX MAY BE COLLECTED AS EARLY AS 12 NOON.", "ref": "2067700000"}, "type": "Feature"}
{"geometry": {"coordinates": [-77.036611, 38.509541], "type": "Point"}, "id": "KWKDwPIbsbI_18FM1XyL1NtjL2I=", "properties": {"@spider": "usps_collection_boxes", "addr:city": "PORT TOBACCO", "addr:country": "US", "addr:full": "8200 PORT TOBACCO RD", "addr:postcode": "20677", "addr:state": "MD", "brand": "USPS", "collection_times": "Mo-Fr 16:15; Sa 11:45", "name": "USPS COLLECTION BOX - PO LOBBY", "note": "ON 12/24 AND 12/31, THIS BOX MAY BE COLLECTED AS EARLY AS 12 NOON.", "ref": "2067700001"}, "type": "Feature"}
{"geometry": {"coordinates": [-76.5829099, 38.538725], "type": "Point"}, "id": "Ms547Gour8t0t5zfi7rPJYfMVYc=", "properties": {"@spider": "usps_collection_boxes", "addr:city": "PRNC FREDERCK", "addr:country": "US", "addr:full": "175 MAIN ST", "addr:postcode": "20678", "addr:state": "MD", "brand": "USPS", "collection_times": "Mo-Sa 10:00", "name": "USPS COLLECTION BOX - BLUE BOX", "ref": "2067800004"}, "type": "Feature"}
{"geometry": {"coordinates": [-76.5973004, 38.56025], "type": "Point"}, "id": "3ahg_71SuSHKE242FAqDiemgY-I=", "properties": {"@spider": "usps_collection_boxes", "addr:city": "PRNC FREDERCK", "addr:country": "US", "addr:full": "110 HOSPITAL RD", "addr:postcode": "20678", "addr:state": "MD", "brand": "USPS", "collection_times": "Mo-Sa 10:30", "name": "USPS COLLECTION BOX - BLUE BOX", "ref": "2067800005"}, "type": "Feature"}
{"geometry": {"coordinates": [-76.6420035, 38.508331], "type": "Point"}, "id": "Hsp3Nju7zzTEUM0lYlVYGw746nM=", "properties": {"@spider": "usps_collection_boxes", "addr:city": "PRNC FREDERCK", "addr:country": "US", "addr:full": "101 SKIPJACK RD", "addr:postcode": "20678", "addr:state": "MD", "brand": "USPS", "collection_times": "Mo-Fr 11:00; Sa 10:00", "name": "USPS COLLECTION BOX - BLUE BOX", "ref": "2067800006"}, "type": "Feature"}
{"geometry": {"coordinates": [-76.584512, 38.536706], "type": "Point"}, "id": "CnIam25raz4GtWa6RE0uprElkj8=", "properties": {"@spider": "usps_collection_boxes", "addr:city": "PRNC FREDERCK", "addr:country": "US", "addr:full": "35 DUKE ST", "addr:postcode": "20678", "addr:state": "MD", "brand": "USPS", "collection_times": "Mo-Fr 16:30; Sa 13:00", "name": "USPS COLLECTION BOX - BLUE BOX", "note": "ON 12/24 AND 12/31, THIS BOX MAY BE COLLECTED AS EARLY AS 12 NOON.", "ref": "2067800009"}, "type": "Feature"}
{"geometry": {"coordinates": [-76.5943043, 38.555095], "type": "Point"}, "id": "bTgCkz66Sv9DZcpWsC4Ka2vvlgc=", "properties": {"@spider": "usps_collection_boxes", "addr:city": "PRNC FREDERCK", "addr:country": "US", "addr:full": "770 SOLOMONS ISLAND RD N", "addr:postcode": "20678", "addr:state": "MD", "brand": "USPS", "collection_times": "Mo-Sa 10:00", "name": "USPS COLLECTION BOX - BLUE BOX", "ref": "2067800011"}, "type": "Feature"}
{"geometry": {"coordinates": [-76.5906405, 38.551344], "type": "Point"}, "id": "L0cThKa0d55YoCmq57P9oa5fh34=", "properties": {"@spider": "usps_collection_boxes", "addr:city": "PRNC FREDERCK", "addr:country": "US", "addr:full": "205 STEEPLE CHASE DR", "addr:postcode": "20678", "addr:state": "MD", "brand": "USPS", "collection_times": "Mo-Sa 10:30", "name": "USPS COLLECTION BOX - BLUE BOX", "ref": "2067800014"}, "type": "Feature"}
{"geometry": {"coordinates": [-76.584512, 38.536706], "type": "Point"}, "id": "JoACfwBY1dXjeXZyiVGo_vFHWdI=", "properties": {"@spider": "usps_collection_boxes", "addr:city": "PRNC FREDERCK", "addr:country": "US", "addr:full": "35 DUKE ST", "addr:postcode": "20678", "addr:state": "MD", "brand": "USPS", "collection_times": "Mo-Fr 17:00; Sa 12:30", "name": "USPS COLLECTION BOX - PO LOBBY", "note": "ON 12/24 AND 12/31, THIS BOX MAY BE COLLECTED AS EARLY AS 12 NOON.", "ref": "2067800015"}, "type": "Feature"}
{"geometry": {"coordinates": [-76.584512, 38.536706], "type": "Point"}, "id": "7ZaSXR5GUTbgTN-1xtMhEtmEQU8=", "properties": {"@spider": "usps_collection_boxes", "addr:city": "PRNC FREDERCK", "addr:country": "US", "addr:full": "35 DUKE ST", "addr:postcode": "20678", "addr:state": "MD", "brand": "USPS", "collection_times": "Mo-Fr 17:00; Sa 12:00", "name": "USPS COLLECTION BOX - PO LOBBY", "note": "ON 12/24 AND 12/31, THIS BOX MAY BE COLLECTED AS EARLY AS 12 NOON.", "ref": "2067800016"}, "type": "Feature"}
{"geometry": {"coordinates": [-76.366656, 38.108933], "type": "Point"}, "id": "I_4V9gN6ibcLMAKn4JRVEBGUtj0=", "properties": {"@spider": "usps_collection_boxes", "addr:city": "RIDGE", "addr:country": "US", "addr:full": "13274 POINT LOOKOUT RD", "addr:postcode": "20680", "addr:state": "MD", "brand": "USPS", "collection_times": "Mo-Fr 16:00; Sa 11:30", "name": "USPS COLLECTION BOX - BLUE BOX", "note": "ON 12/24 AND 12/31, THIS BOX MAY BE COLLECTED AS EARLY AS 12 NOON.", "ref": "2068000000"}, "type": "Feature"}
{"geometry": {"coordinates": [-76.366687, 38.10892], "type": "Point"}, "id": "AKethJo_P1NeFkDVUyyBmZv0Vjs=", "properties": {"@spider": "usps_collection_boxes", "addr:city": "RIDGE", "addr:country": "US", "addr:full": "13274 POINT LOOKOUT RD", "addr:postcode": "20680", "addr:state": "MD", "brand": "USPS", "collection_times": "Mo-Fr 16:00; Sa 12:00", "name": "USPS COLLECTION BOX - PO LOBBY", "note": "ON 12/24 AND 12/31, THIS BOX MAY BE COLLECTED AS EARLY AS 12 NOON.", "ref": "2068000001"}, "type": "Feature"}
{"geometry": {"coordinates": [-76.393989, 38.153174], "type": "Point"}, "id": "2v0D16MAq3Zamh3urceeSggWSxg=", "properties": {"@spider": "usps_collection_boxes", "addr:city": "SAINT INIGOES", "addr:country": "US", "addr:full": "15066 POINT LOOKOUT RD", "addr:postcode": "20684", "addr:state": "MD", "brand": "USPS", "collection_times": "Mo-Fr 16:30; Sa 12:00", "name": "USPS COLLECTION BOX - BLUE BOX", "note": "ON 12/24 AND 12/31, THIS BOX MAY BE COLLECTED AS EARLY AS 12 NOON.", "ref": "2068400000"}, "type": "Feature"}
{"geometry": {"coordinates": [-76.394032, 38.153189], "type": "Point"}, "id": "UaDto8IdGnmDziG6VedIeXL44Ds=", "properties": {"@spider": "usps_collection_boxes", "addr:city": "SAINT INIGOES", "addr:country": "US", "addr:full": "15066 POINT LOOKOUT RD", "addr:postcode": "20684", "addr:state": "MD", "brand": "USPS", "collection_times": "Mo-Fr 16:30; Sa 12:00", "name": "USPS COLLECTION BOX - PO LOBBY", "note": "ON 12/24 AND 12/31, THIS BOX MAY BE COLLECTED AS EARLY AS 12 NOON.", "ref": "2068400002"}, "type": "Feature"}
{"geometry": {"coordinates": [-76.393699944, 38.152507346], "type": "Point"}, "id": "ptd8_n6IPVZpBVEQrU0U8kM6eVg=", "properties": {"@spider": "usps_collection_boxes", "addr:city": "SAINT INIGOES", "addr:country": "US", "addr:full": "15066 POINT LOOKOUT RD", "addr:postcode": "20684", "addr:state": "MD", "brand": "USPS", "collection_times": "Mo-Fr 16:30; Sa 12:00", "name": "USPS COLLECTION BOX - PO LOBBY", "note": "ON 12/24 AND 12/31, THIS BOX MAY BE COLLECTED AS EARLY AS 12 NOON.", "ref": "2068400003"}, "type": "Feature"}
{"geometry": {"coordinates": [-76.509146, 38.482529], "type": "Point"}, "id": "yJ_Hn7HNxdx_h4Nang_ZIjCVtFk=", "properties": {"@spider": "usps_collection_boxes", "addr:city": "SAINT LEONARD", "addr:country": "US", "addr:full": "4244 SAINT LEONARD RD", "addr:postcode": "20685", "addr:state": "MD", "brand": "USPS", "collection_times": "Mo-Fr 16:30; Sa 12:00", "name": "USPS COLLECTION BOX - BLUE BOX", "note": "ON 12/24 AND 12/31, THIS BOX MAY BE COLLECTED AS EARLY AS 12 NOON.", "ref": "2068500000"}, "type": "Feature"}
{"geometry": {"coordinates": [-76.509146, 38.482529], "type": "Point"}, "id": "sPJduIuJvQGepegd1lNs-5xA1s4=", "properties": {"@spider": "usps_collection_boxes", "addr:city": "SAINT LEONARD", "addr:country": "US", "addr:full": "4244 SAINT LEONARD RD", "addr:postcode": "20685", "addr:state": "MD", "brand": "USPS", "collection_times": "Mo-Fr 16:30; Sa 12:00", "name": "USPS COLLECTION BOX - PO LOBBY", "note": "ON 12/24 AND 12/31, THIS BOX MAY BE COLLECTED AS EARLY AS 12 NOON.", "ref": "2068500001"}, "type": "Feature"}
{"geometry": {"coordinates": [-76.509146, 38.482529], "type": "Point"}, "id": "QDYLcCcvkuyP4gaauFRGac9Fp5M=", "properties": {"@spider": "usps_collection_boxes", "addr:city": "SAINT LEONARD", "addr:country": "US", "addr:full": "4244 SAINT LEONARD RD", "addr:postcode": "20685", "addr:state": "MD", "brand": "USPS", "collection_times": "Mo-Fr 16:30; Sa 12:00", "name": "USPS COLLECTION BOX - PO LOBBY", "note": "ON 12/24 AND 12/31, THIS BOX MAY BE COLLECTED AS EARLY AS 12 NOON.", "ref": "2068500002"}, "type": "Feature"}
{"geometry": {"coordinates": [-76.506679436, 38.47455395], "type": "Point"}, "id": "yVwuuCdTMD8C4WqN9l4Q2iy24sk=", "properties": {"@spider": "usps_collection_boxes", "addr:city": "SAINT LEONARD", "addr:country": "US", "addr:full": "4860 SAINT LEONARD RD", "addr:postcode": "20685", "addr:state": "MD", "brand": "USPS", "collection_times": "Mo-Fr 16:30; Sa 12:00", "name": "USPS COLLECTION BOX - PO LOBBY", "note": "ON 12/24 AND 12/31, THIS BOX MAY BE COLLECTED AS EARLY AS 12 NOON.", "ref": "2068500003"}, "type": "Feature"}
{"geometry": {"coordinates": [-76.432186, 38.188965], "type": "Point"}, "id": "POsPD_RyTTNfImPl-uWL-WBzgz8=", "properties": {"@spider": "usps_collection_boxes", "addr:city": "ST MARYS CITY", "addr:country": "US", "addr:full": "16855 POINT LOOKOUT RD", "addr:postcode": "20686", "addr:state": "MD", "brand": "USPS", "collection_times": "Mo-Fr 16:45; Sa 12:00", "name": "USPS COLLECTION BOX - BLUE BOX", "note": "ON 12/24 AND 12/31, THIS BOX MAY BE COLLECTED AS EARLY AS 12 NOON.", "ref": "2068600000"}, "type": "Feature"}
{"geometry": {"coordinates": [-76.432118, 38.189043], "type": "Point"}, "id": "6Hj6TffEhKtflkWNfz1rc45ferw=", "properties": {"@spider": "usps_collection_boxes", "addr:city": "ST MARYS CITY", "addr:country": "US", "addr:full": "16855 POINT LOOKOUT RD", "addr:postcode": "20686", "addr:state": "MD", "brand": "USPS", "collection_times": "Mo-Fr 16:45; Sa 12:00", "name": "USPS COLLECTION BOX - PO LOBBY", "note": "ON 12/24 AND 12/31, THIS BOX MAY BE COLLECTED AS EARLY AS 12 NOON.", "ref": "2068600001"}, "type": "Feature"}
{"geometry": {"coordinates": [-76.432447833, 38.187721121], "type": "Point"}, "id": "RnzFlyPYF4PGeABf1s-VfA1Ht9c=", "properties": {"@spider": "usps_collection_boxes", "addr:city": "ST MARYS CITY", "addr:country": "US", "addr:full": "16855 POINT LOOKOUT RD", "addr:postcode": "20686", "addr:state": "MD", "brand": "USPS", "collection_times": "Mo-Fr 12:00", "name": "USPS COLLECTION BOX - PO LOBBY", "ref": "2068600002"}, "type": "Feature"}
{"geometry": {"coordinates": [-76.4631166, 38.346965], "type": "Point"}, "id": "Wgn6NlPzVAgS3gxisztAEQ4aQ1s=", "properties": {"@spider": "usps_collection_boxes", "addr:city": "SOLOMONS", "addr:country": "US", "addr:full": "13401 SHIPWRIGHT CIR", "addr:postcode": "20688", "addr:state": "MD", "brand": "USPS", "collection_times": "Mo-Sa 10:00", "name": "USPS COLLECTION BOX - BLUE BOX", "ref": "2068800000"}, "type": "Feature"}
{"geometry": {"coordinates": [-76.46275, 38.34437], "type": "Point"}, "id": "kSBRR-GxCIXyAiRGSs7lRil6SIw=", "properties": {"@spider": "usps_collection_boxes", "addr:city": "SOLOMONS", "addr:country": "US", "addr:full": "13946 HG TRUEMAN RD", "addr:postcode": "20688", "addr:state": "MD", "brand": "USPS", "collection_times": "Mo-Fr 16:00; Sa 12:00", "name": "USPS COLLECTION BOX - BLUE BOX", "note": "ON 12/24 AND 12/31, THIS BOX MAY BE COLLECTED AS EARLY AS 12 NOON.", "ref": "2068800001"}, "type": "Feature"}
{"geometry": {"coordinates": [-76.46275, 38.34437], "type": "Point"}, "id": "SjPmy3CSIcU5G_IsCDK5zxpA6No=", "properties": {"@spider": "usps_collection_boxes", "addr:city": "SOLOMONS", "addr:country": "US", "addr:full": "13946 HG TRUEMAN RD", "addr:postcode": "20688", "addr:state": "MD", "brand": "USPS", "collection_times": "Mo-Fr 16:15; Sa 12:00", "name": "USPS COLLECTION BOX - PO LOBBY", "note": "ON 12/24 AND 12/31, THIS BOX MAY BE COLLECTED AS EARLY AS 12 NOON.", "ref": "2068800002"}, "type": "Feature"}
{"geometry": {"coordinates": [-76.465392451, 38.337110648], "type": "Point"}, "id": "WsJ8uasQPXZredbuGB9jlBT4SoU=", "properties": {"@spider": "usps_collection_boxes", "addr:city": "SOLOMONS", "addr:country": "US", "addr:full": "13946 HG TRUEMAN RD", "addr:postcode": "20688", "addr:state": "MD", "brand": "USPS", "collection_times": "Mo-Sa 12:00", "name": "USPS COLLECTION BOX - PO LOBBY", "ref": "2068800004"}, "type": "Feature"}
{"geometry": {"coordinates": [-76.515208, 38.193776], "type": "Point"}, "id": "LrKxq8EOu91NOn1uWKaNJ96mXA4=", "properties": {"@spider": "usps_collection_boxes", "addr:city": "VALLEY LEE", "addr:country": "US", "addr:full": "45150 BLAKE CREEK RD", "addr:postcode": "20692", "addr:state": "MD", "brand": "USPS", "collection_times": "Mo-Fr 16:15; Sa 12:00", "name": "USPS COLLECTION BOX - BLUE BOX", "note": "ON 12/24 AND 12/31, THIS BOX MAY BE COLLECTED AS EARLY AS 12 NOON.", "ref": "2069200000"}, "type": "Feature"}
{"geometry": {"coordinates": [-76.515167, 38.193749], "type": "Point"}, "id": "RsuHAuSmQj74zUNFnFwwxanCBAk=", "properties": {"@spider": "usps_collection_boxes", "addr:city": "VALLEY LEE", "addr:country": "US", "addr:full": "45150 BLAKE CREEK RD", "addr:postcode": "20692", "addr:state": "MD", "brand": "USPS", "collection_times": "Mo-Fr 16:15; Sa 12:00", "name": "USPS COLLECTION BOX - PO LOBBY", "note": "ON 12/24 AND 12/31, THIS BOX MAY BE COLLECTED AS EARLY AS 12 NOON.", "ref": "2069200002"}, "type": "Feature"}
{"geometry": {"coordinates": [-76.514070662, 38.193737489], "type": "Point"}, "id": "bYmhdeHNLmrB-u9cXl-UiYwPTAQ=", "properties": {"@spider": "usps_collection_boxes", "addr:city": "VALLEY LEE", "addr:country": "US", "addr:full": "45150 BLAKE CREEK RD", "addr:postcode": "20692", "addr:state": "MD", "brand": "USPS", "collection_times": "Mo-Fr 16:30", "name": "USPS COLLECTION BOX - PO LOBBY", "note": "ON 12/24 AND 12/31, THIS BOX MAY BE COLLECTED AS EARLY AS 12 NOON.", "ref": "2069200003"}, "type": "Feature"}
{"geometry": {"coordinates": [-77.098262, 38.482586], "type": "Point"}, "id": "AUzFtnss3qECaJHx_OmdG9JaM5c=", "properties": {"@spider": "usps_collection_boxes", "addr:city": "WELCOME", "addr:country": "US", "addr:full": "6204 WELCOME RD", "addr:postcode": "20693", "addr:state": "MD", "brand": "USPS", "collection_times": "Mo-Fr 17:00; Sa 12:00", "name": "USPS COLLECTION BOX - BLUE BOX", "note": "ON 12/24 AND 12/31, THIS BOX MAY BE COLLECTED AS EARLY AS 12 NOON.", "ref": "2069300000"}, "type": "Feature"}
{"geometry": {"coordinates": [-77.098373, 38.482561], "type": "Point"}, "id": "a0cw9gn4zT_rA5dR1DNnhqTj2I4=", "properties": {"@spider": "usps_collection_boxes", "addr:city": "WELCOME", "addr:country": "US", "addr:full": "6204 WELCOME RD", "addr:postcode": "20693", "addr:state": "MD", "brand": "USPS", "collection_times": "Mo-Fr 17:00; Sa 12:00", "name": "USPS COLLECTION BOX - PO LOBBY", "note": "ON 12/24 AND 12/31, THIS BOX MAY BE COLLECTED AS EARLY AS 12 NOON.", "ref": "2069300001"}, "type": "Feature"}
{"geometry": {"coordinates": [-77.097820909, 38.48256449], "type": "Point"}, "id": "SjjHexe3wdmAM7r_DNBfVvgQN1k=", "properties": {"@spider": "usps_collection_boxes", "addr:city": "WELCOME", "addr:country": "US", "addr:full": "6204 WELCOME RD", "addr:postcode": "20693", "addr:state": "MD", "brand": "USPS", "collection_times": "Mo-Fr 17:00; Sa 12:00", "name": "USPS COLLECTION BOX - PO LOBBY", "note": "ON 12/24 AND 12/31, THIS BOX MAY BE COLLECTED AS EARLY AS 12 NOON.", "ref": "2069300002"}, "type": "Feature"}
{"geometry": {"coordinates": [-76.9486630569, 38.5844680086], "type": "Point"}, "id": "TjuC6EJJ6i3uPxQ7cmCZDCQt820=", "properties": {"@spider": "usps_collection_boxes", "addr:city": "WHITE PLAINS", "addr:country": "US", "addr:full": "4660 CRAIN HWY", "addr:postcode": "20695", "addr:state": "MD", "brand": "USPS", "collection_times": "Mo-Fr 17:00; Sa 12:00", "name": "USPS COLLECTION BOX - BLUE BOX", "note": "ON 12/24 AND 12/31, THIS BOX MAY BE COLLECTED AS EARLY AS 12 NOON.", "ref": "2069500002"}, "type": "Feature"}
{"geometry": {"coordinates": [-76.948889, 38.584327], "type": "Point"}, "id": "7HI8g4NlhlIEUW2EJ6CfZnJkA3w=", "properties": {"@spider": "usps_collection_boxes", "addr:city": "WHITE PLAINS", "addr:country": "US", "addr:full": "4660 CRAIN HWY", "addr:postcode": "20695", "addr:state": "MD", "brand": "USPS", "collection_times": "Mo-Fr 17:00; Sa 12:00", "name": "USPS COLLECTION BOX - PO LOBBY", "note": "ON 12/24 AND 12/31, THIS BOX MAY BE COLLECTED AS EARLY AS 12 NOON.", "ref": "2069500004"}, "type": "Feature"}
