{"dataset_attributes": {"@spider": "usps_collection_boxes", "spider:collection_time": "2023-09-28T08:25:18.406184"}, "geometry": {"coordinates": [-77.0022323, 39.04054], "type": "Point"}, "id": "g9_Cyt1pdd83mBORms-pDXt64ro=", "properties": {"@spider": "usps_collection_boxes", "addr:city": "SILVER SPRING", "addr:country": "US", "addr:full": "11501 OAKLEAF", "addr:postcode": "20901", "addr:state": "MD", "amenity": "post_box", "brand": "United States Postal Service", "brand:wikidata": "Q668687", "collection_times": "Mo-Sa 10:00", "name": "USPS COLLECTION BOX - BLUE BOX", "nsi_id": "unitedstatespostalservice-a77078", "operator": "United States Postal Service", "operator:short": "USPS", "operator:type": "public", "operator:wikidata": "Q668687", "ref": "2090100006"}, "type": "Feature"}
{"dataset_attributes": {"@spider": "usps_collection_boxes", "spider:collection_time": "2023-09-28T08:25:18.406184"}, "geometry": {"coordinates": [-77.0154279, 39.026896], "type": "Point"}, "id": "CY12BXK7FQ5_fGEOnzdHpjHpaFM=", "properties": {"@spider": "usps_collection_boxes", "addr:city": "SILVER SPRING", "addr:country": "US", "addr:full": "10425 EDGEWOOD AVE", "addr:postcode": "20901", "addr:state": "MD", "amenity": "post_box", "brand": "United States Postal Service", "brand:wikidata": "Q668687", "collection_times": "Mo-Sa 10:00", "name": "USPS COLLECTION BOX - BLUE BOX", "nsi_id": "unitedstatespostalservice-a77078", "operator": "United States Postal Service", "operator:short": "USPS", "operator:type": "public", "operator:wikidata": "Q668687", "ref": "2090100009"}, "type": "Feature"}
{"dataset_attributes": {"@spider": "usps_collection_boxes", "spider:collection_time": "2023-09-28T08:25:18.406184"}, "geometry": {"coordinates": [-77.0107079, 39.030855], "type": "Point"}, "id": "IpIwu0YV9MfiohmBCZDUqCCUaXk=", "properties": {"@spider": "usps_collection_boxes", "addr:city": "SILVER SPRING", "addr:country": "US", "addr:full": "10800 GLENWILD", "addr:postcode": "20901", "addr:state": "MD", "amenity": "post_box", "brand": "United States Postal Service", "brand:wikidata": "Q668687", "collection_times": "Mo-Sa 10:00", "name": "USPS COLLECTION BOX - BLUE BOX", "nsi_id": "unitedstatespostalservice-a77078", "operator": "United States Postal Service", "operator:short": "USPS", "operator:type": "public", "operator:wikidata": "Q668687", "ref": "2090100010"}, "type": "Feature"}
{"dataset_attributes": {"@spider": "usps_collection_boxes", "spider:collection_time": "2023-09-28T08:25:18.406184"}, "geometry": {"coordinates": [-77.0081248114, 39.0122982613], "type": "Point"}, "id": "3fp4hwO4rypw1ZapzwFDSjZyBa4=", "properties": {"@spider": "usps_collection_boxes", "addr:city": "SILVER SPRING", "addr:country": "US", "addr:full": "5 E INDIAN SPRING DR", "addr:postcode": "20901", "addr:state": "MD", "amenity": "post_box", "brand": "United States Postal Service", "brand:wikidata": "Q668687", "collection_times": "Mo-Sa 10:00", "name": "USPS COLLECTION BOX - BLUE BOX", "nsi_id": "unitedstatespostalservice-a77078", "operator": "United States Postal Service", "operator:short": "USPS", "operator:type": "public", "operator:wikidata": "Q668687", "ref": "2090100011"}, "type": "Feature"}
{"dataset_attributes": {"@spider": "usps_collection_boxes", "spider:collection_time": "2023-09-28T08:25:18.406184"}, "geometry": {"coordinates": [-76.9995124, 39.013625], "type": "Point"}, "id": "1RgkwIsDv-SDSmG9q8ba_arqaYU=", "properties": {"@spider": "usps_collection_boxes", "addr:city": "SILVER SPRING", "addr:country": "US", "addr:full": "9601 BURGESS LN", "addr:postcode": "20901", "addr:state": "MD", "amenity": "post_box", "brand": "United States Postal Service", "brand:wikidata": "Q668687", "collection_times": "Mo-Sa 10:00", "name": "USPS COLLECTION BOX - BLUE BOX", "nsi_id": "unitedstatespostalservice-a77078", "operator": "United States Postal Service", "operator:short": "USPS", "operator:type": "public", "operator:wikidata": "Q668687", "ref": "2090100051"}, "type": "Feature"}
{"dataset_attributes": {"@spider": "usps_collection_boxes", "spider:collection_time": "2023-09-28T08:25:18.406184"}, "geometry": {"coordinates": [-77.0200281, 39.030399], "type": "Point"}, "id": "__i9c-piWJlTHeY9-KJjbGEhw7w=", "properties": {"@spider": "usps_collection_boxes", "addr:city": "SILVER SPRING", "addr:country": "US", "addr:full": "10701 EDGEWOOD AVE", "addr:postcode": "20901", "addr:state": "MD", "amenity": "post_box", "brand": "United States Postal Service", "brand:wikidata": "Q668687", "collection_times": "Mo-Sa 10:00", "name": "USPS COLLECTION BOX - BLUE BOX", "nsi_id": "unitedstatespostalservice-a77078", "operator": "United States Postal Service", "operator:short": "USPS", "operator:type": "public", "operator:wikidata": "Q668687", "ref": "2090100063"}, "type": "Feature"}
{"dataset_attributes": {"@spider": "usps_collection_boxes", "spider:collection_time": "2023-09-28T08:25:18.406184"}, "geometry": {"coordinates": [-77.003443, 39.011693], "type": "Point"}, "id": "Pt110GN31UzUY2btKzZi-_Fze3Q=", "properties": {"@spider": "usps_collection_boxes", "addr:city": "SILVER SPRING", "addr:country": "US", "addr:full": "300 E FRANKLIN AVE", "addr:postcode": "20901", "addr:state": "MD", "amenity": "post_box", "brand": "United States Postal Service", "brand:wikidata": "Q668687", "collection_times": "Mo-Sa 10:00", "name": "USPS COLLECTION BOX - BLUE BOX", "nsi_id": "unitedstatespostalservice-a77078", "operator": "United States Postal Service", "operator:short": "USPS", "operator:type": "public", "operator:wikidata": "Q668687", "ref": "2090100090"}, "type": "Feature"}
{"dataset_attributes": {"@spider": "usps_collection_boxes", "spider:collection_time": "2023-09-28T08:25:18.406184"}, "geometry": {"coordinates": [-76.9914250341, 39.0385029833], "type": "Point"}, "id": "U8VKmHNySiwgAWgk0OLpuiquGgQ=", "properties": {"@spider": "usps_collection_boxes", "addr:city": "SILVER SPRING", "addr:country": "US", "addr:full": "11243 LOCKWOOD DR", "addr:postcode": "20901", "addr:state": "MD", "amenity": "post_box", "brand": "United States Postal Service", "brand:wikidata": "Q668687", "collection_times": "Mo-Sa 09:00", "name": "USPS COLLECTION BOX - BLUE BOX", "nsi_id": "unitedstatespostalservice-a77078", "operator": "United States Postal Service", "operator:short": "USPS", "operator:type": "public", "operator:wikidata": "Q668687", "ref": "2090100141"}, "type": "Feature"}
{"dataset_attributes": {"@spider": "usps_collection_boxes", "spider:collection_time": "2023-09-28T08:25:18.406184"}, "geometry": {"coordinates": [-77.0041484, 39.032392], "type": "Point"}, "id": "hHm2hsK6UtQWpmlhh74fMBGGWos=", "properties": {"@spider": "usps_collection_boxes", "addr:city": "SILVER SPRING", "addr:country": "US", "addr:full": "10750 COLUMBIA PIKE", "addr:postcode": "20901", "addr:state": "MD", "amenity": "post_box", "brand": "United States Postal Service", "brand:wikidata": "Q668687", "collection_times": "Mo-Sa 10:00", "name": "USPS COLLECTION BOX - BLUE BOX", "nsi_id": "unitedstatespostalservice-a77078", "operator": "United States Postal Service", "operator:short": "USPS", "operator:type": "public", "operator:wikidata": "Q668687", "ref": "2090100145"}, "type": "Feature"}
{"dataset_attributes": {"@spider": "usps_collection_boxes", "spider:collection_time": "2023-09-28T08:25:18.406184"}, "geometry": {"coordinates": [-77.0039083475, 38.9995984113], "type": "Point"}, "id": "ilgtTuEoUBmcAy4EGN38xRaqf1o=", "properties": {"@spider": "usps_collection_boxes", "addr:city": "SILVER SPRING", "addr:country": "US", "addr:full": "8701 FLOWER AVE", "addr:postcode": "20901", "addr:state": "MD", "amenity": "post_box", "brand": "United States Postal Service", "brand:wikidata": "Q668687", "collection_times": "Mo-Sa 14:00", "name": "USPS COLLECTION BOX - BLUE BOX", "note": "ON 12/24 AND 12/31, THIS BOX MAY BE COLLECTED AS EARLY AS 12 NOON.", "nsi_id": "unitedstatespostalservice-a77078", "operator": "United States Postal Service", "operator:short": "USPS", "operator:type": "public", "operator:wikidata": "Q668687", "ref": "2090100155"}, "type": "Feature"}
{"dataset_attributes": {"@spider": "usps_collection_boxes", "spider:collection_time": "2023-09-28T08:25:18.406184"}, "geometry": {"coordinates": [-77.0023629, 39.03266], "type": "Point"}, "id": "7G7XlzG8EIahNGzW34rJc3_mDqc=", "properties": {"@spider": "usps_collection_boxes", "addr:city": "SILVER SPRING", "addr:country": "US", "addr:full": "10801 LOCKWOOD DR", "addr:postcode": "20901", "addr:state": "MD", "amenity": "post_box", "brand": "United States Postal Service", "brand:wikidata": "Q668687", "collection_times": "Mo-Sa 10:00", "name": "USPS COLLECTION BOX - BLUE BOX", "nsi_id": "unitedstatespostalservice-a77078", "operator": "United States Postal Service", "operator:short": "USPS", "operator:type": "public", "operator:wikidata": "Q668687", "ref": "2090100157"}, "type": "Feature"}
{"dataset_attributes": {"@spider": "usps_collection_boxes", "spider:collection_time": "2023-09-28T08:25:18.406184"}, "geometry": {"coordinates": [-77.012124, 39.020926], "type": "Point"}, "id": "5Tted7awtQj_qsNnKEbXfRO-28A=", "properties": {"@spider": "usps_collection_boxes", "addr:city": "SILVER SPRING", "addr:country": "US", "addr:full": "10121 COLESVILLE RD", "addr:postcode": "20901", "addr:state": "MD", "amenity": "post_box", "brand": "United States Postal Service", "brand:wikidata": "Q668687", "collection_times": "Mo-Sa 10:00", "name": "USPS COLLECTION BOX - BLUE BOX", "nsi_id": "unitedstatespostalservice-a77078", "operator": "United States Postal Service", "operator:short": "USPS", "operator:type": "public", "operator:wikidata": "Q668687", "ref": "2090100158"}, "type": "Feature"}
{"dataset_attributes": {"@spider": "usps_collection_boxes", "spider:collection_time": "2023-09-28T08:25:18.406184"}, "geometry": {"coordinates": [-77.0141234093, 39.0204410519], "type": "Point"}, "id": "9Hwt-gFtQfuTzvjro3Lvz6iwhRA=", "properties": {"@spider": "usps_collection_boxes", "addr:city": "SILVER SPRING", "addr:country": "US", "addr:full": "110 UNIVERSITY BLVD W", "addr:postcode": "20901", "addr:state": "MD", "amenity": "post_box", "brand": "United States Postal Service", "brand:wikidata": "Q668687", "collection_times": "Mo-Sa 17:00", "name": "USPS COLLECTION BOX - BLUE BOX", "note": "ON 12/24 AND 12/31, THIS BOX MAY BE COLLECTED AS EARLY AS 12 NOON.", "nsi_id": "unitedstatespostalservice-a77078", "operator": "United States Postal Service", "operator:short": "USPS", "operator:type": "public", "operator:wikidata": "Q668687", "ref": "2090100159"}, "type": "Feature"}
{"dataset_attributes": {"@spider": "usps_collection_boxes", "spider:collection_time": "2023-09-28T08:25:18.406184"}, "geometry": {"coordinates": [-77.0114749, 39.027007], "type": "Point"}, "id": "z59LjlHlD6kJ6DiQLtewKp3zo1w=", "properties": {"@spider": "usps_collection_boxes", "addr:city": "SILVER SPRING", "addr:country": "US", "addr:full": "10401 MOUNTAIN QUAIL RD", "addr:postcode": "20901", "addr:state": "MD", "amenity": "post_box", "brand": "United States Postal Service", "brand:wikidata": "Q668687", "collection_times": "Mo-Sa 10:00", "name": "USPS COLLECTION BOX - BLUE BOX", "nsi_id": "unitedstatespostalservice-a77078", "operator": "United States Postal Service", "operator:short": "USPS", "operator:type": "public", "operator:wikidata": "Q668687", "ref": "2090100166"}, "type": "Feature"}
{"dataset_attributes": {"@spider": "usps_collection_boxes", "spider:collection_time": "2023-09-28T08:25:18.406184"}, "geometry": {"coordinates": [-77.00777, 38.998535], "type": "Point"}, "id": "iLfq-kmpKenS1PCGhRyipkZYzz4=", "properties": {"@spider": "usps_collection_boxes", "addr:city": "SILVER SPRING", "addr:country": "US", "addr:full": "8601 MANCHESTER RD", "addr:postcode": "20901", "addr:state": "MD", "amenity": "post_box", "brand": "United States Postal Service", "brand:wikidata": "Q668687", "collection_times": "Mo-Sa 10:00", "name": "USPS COLLECTION BOX - BLUE BOX", "nsi_id": "unitedstatespostalservice-a77078", "operator": "United States Postal Service", "operator:short": "USPS", "operator:type": "public", "operator:wikidata": "Q668687", "ref": "2090100169"}, "type": "Feature"}
{"dataset_attributes": {"@spider": "usps_collection_boxes", "spider:collection_time": "2023-09-28T08:25:18.406184"}, "geometry": {"coordinates": [-76.9917809, 39.039626], "type": "Point"}, "id": "svB6PsJWGpEQtT6XWd9zom5_4dw=", "properties": {"@spider": "usps_collection_boxes", "addr:city": "SILVER SPRING", "addr:country": "US", "addr:full": "11200 LOCKWOOD DR", "addr:postcode": "20901", "addr:state": "MD", "amenity": "post_box", "brand": "United States Postal Service", "brand:wikidata": "Q668687", "collection_times": "Mo-Sa 09:30", "name": "USPS COLLECTION BOX - BLUE BOX", "nsi_id": "unitedstatespostalservice-a77078", "operator": "United States Postal Service", "operator:short": "USPS", "operator:type": "public", "operator:wikidata": "Q668687", "ref": "2090100171"}, "type": "Feature"}
{"dataset_attributes": {"@spider": "usps_collection_boxes", "spider:collection_time": "2023-09-28T08:25:18.406184"}, "geometry": {"coordinates": [-76.9935266, 39.041523], "type": "Point"}, "id": "9daLi1nnv71myy4Gk5sra4v1iJw=", "properties": {"@spider": "usps_collection_boxes", "addr:city": "SILVER SPRING", "addr:country": "US", "addr:full": "11235 OAK LEAF DR", "addr:postcode": "20901", "addr:state": "MD", "amenity": "post_box", "brand": "United States Postal Service", "brand:wikidata": "Q668687", "collection_times": "Mo-Sa 09:30", "name": "USPS COLLECTION BOX - BLUE BOX", "nsi_id": "unitedstatespostalservice-a77078", "operator": "United States Postal Service", "operator:short": "USPS", "operator:type": "public", "operator:wikidata": "Q668687", "ref": "2090100172"}, "type": "Feature"}
{"dataset_attributes": {"@spider": "usps_collection_boxes", "spider:collection_time": "2023-09-28T08:25:18.406184"}, "geometry": {"coordinates": [-76.9947409, 39.039615], "type": "Point"}, "id": "vmyntq8wJQ6LMx_TQt5Dp-QIaJg=", "properties": {"@spider": "usps_collection_boxes", "addr:city": "SILVER SPRING", "addr:country": "US", "addr:full": "11215 OAK LEAF DR", "addr:postcode": "20901", "addr:state": "MD", "amenity": "post_box", "brand": "United States Postal Service", "brand:wikidata": "Q668687", "collection_times": "Mo-Sa 09:30", "name": "USPS COLLECTION BOX - BLUE BOX", "nsi_id": "unitedstatespostalservice-a77078", "operator": "United States Postal Service", "operator:short": "USPS", "operator:type": "public", "operator:wikidata": "Q668687", "ref": "2090100173"}, "type": "Feature"}
{"dataset_attributes": {"@spider": "usps_collection_boxes", "spider:collection_time": "2023-09-28T08:25:18.406184"}, "geometry": {"coordinates": [-77.01426, 39.020643], "type": "Point"}, "id": "QX1JbINbJwTFFQhi8Y6TlngOtAs=", "properties": {"@spider": "usps_collection_boxes", "addr:city": "SILVER SPRING", "addr:country": "US", "addr:full": "110 UNIVERSITY BLVD W", "addr:postcode": "20901", "addr:state": "MD", "amenity": "post_box", "brand": "United States Postal Service", "brand:wikidata": "Q668687", "collection_times": "Mo-Fr 17:00; Sa 15:00", "name": "USPS COLLECTION BOX - PO LOBBY", "note": "ON 12/24 AND 12/31, THIS BOX MAY BE COLLECTED AS EARLY AS 12 NOON.", "nsi_id": "unitedstatespostalservice-a77078", "operator": "United States Postal Service", "operator:short": "USPS", "operator:type": "public", "operator:wikidata": "Q668687", "ref": "2090100174"}, "type": "Feature"}
{"dataset_attributes": {"@spider": "usps_collection_boxes", "spider:collection_time": "2023-09-28T08:25:18.406184"}, "geometry": {"coordinates": [-77.010759, 39.010095], "type": "Point"}, "id": "a92a6OmcY47eJWTCEVTeNuD4iuI=", "properties": {"@spider": "usps_collection_boxes", "addr:city": "SILVER SPRING", "addr:country": "US", "addr:full": "101 FRANKLIN AVE", "addr:postcode": "20901", "addr:state": "MD", "amenity": "post_box", "brand": "United States Postal Service", "brand:wikidata": "Q668687", "collection_times": "Mo-Sa 10:00", "name": "USPS COLLECTION BOX - BLUE BOX", "nsi_id": "unitedstatespostalservice-a77078", "operator": "United States Postal Service", "operator:short": "USPS", "operator:type": "public", "operator:wikidata": "Q668687", "ref": "2090100175"}, "type": "Feature"}
{"dataset_attributes": {"@spider": "usps_collection_boxes", "spider:collection_time": "2023-09-28T08:25:18.406184"}, "geometry": {"coordinates": [-77.01426, 39.020643], "type": "Point"}, "id": "kl9kHAgUh3mIaItc_aOJvqBfwNo=", "properties": {"@spider": "usps_collection_boxes", "addr:city": "SILVER SPRING", "addr:country": "US", "addr:full": "110 UNIVERSITY BLVD W", "addr:postcode": "20901", "addr:state": "MD", "amenity": "post_box", "brand": "United States Postal Service", "brand:wikidata": "Q668687", "collection_times": "Mo-Fr 17:00; Sa 15:00", "name": "USPS COLLECTION BOX - PO LOBBY", "note": "ON 12/24 AND 12/31, THIS BOX MAY BE COLLECTED AS EARLY AS 12 NOON.", "nsi_id": "unitedstatespostalservice-a77078", "operator": "United States Postal Service", "operator:short": "USPS", "operator:type": "public", "operator:wikidata": "Q668687", "ref": "2090100176"}, "type": "Feature"}
{"dataset_attributes": {"@spider": "usps_collection_boxes", "spider:collection_time": "2023-09-28T08:25:18.406184"}, "geometry": {"coordinates": [-77.0142157403, 39.0205226386], "type": "Point"}, "id": "KJJg9K6gIkiS_eUY0q6dsvLtX74=", "properties": {"@spider": "usps_collection_boxes", "addr:city": "SILVER SPRING", "addr:country": "US", "addr:full": "110 UNIVERSITY BLVD W", "addr:postcode": "20901", "addr:state": "MD", "amenity": "post_box", "brand": "United States Postal Service", "brand:wikidata": "Q668687", "collection_times": "Mo-Fr 17:00; Sa 15:00", "name": "USPS COLLECTION BOX - PO LOBBY", "note": "ON 12/24 AND 12/31, THIS BOX MAY BE COLLECTED AS EARLY AS 12 NOON.", "nsi_id": "unitedstatespostalservice-a77078", "operator": "United States Postal Service", "operator:short": "USPS", "operator:type": "public", "operator:wikidata": "Q668687", "ref": "2090100180"}, "type": "Feature"}
{"dataset_attributes": {"@spider": "usps_collection_boxes", "spider:collection_time": "2023-09-28T08:25:18.406184"}, "geometry": {"coordinates": [-77.041353, 39.020575], "type": "Point"}, "id": "YRkcGlbyyQmyeeUtlVcUkpMCtM0=", "properties": {"@spider": "usps_collection_boxes", "addr:city": "SILVER SPRING", "addr:country": "US", "addr:full": "1814 BRISBANE ST", "addr:postcode": "20902", "addr:state": "MD", "amenity": "post_box", "brand": "United States Postal Service", "brand:wikidata": "Q668687", "collection_times": "Mo-Sa 10:00", "name": "USPS COLLECTION BOX - BLUE BOX", "nsi_id": "unitedstatespostalservice-a77078", "operator": "United States Postal Service", "operator:short": "USPS", "operator:type": "public", "operator:wikidata": "Q668687", "ref": "2090200033"}, "type": "Feature"}
{"dataset_attributes": {"@spider": "usps_collection_boxes", "spider:collection_time": "2023-09-28T08:25:18.406184"}, "geometry": {"coordinates": [-77.0355295, 39.026073], "type": "Point"}, "id": "mSMz_OjTR_9JNRmel_c4mv7GpoI=", "properties": {"@spider": "usps_collection_boxes", "addr:city": "SILVER SPRING", "addr:country": "US", "addr:full": "1600 DENNIS AVE", "addr:postcode": "20902", "addr:state": "MD", "amenity": "post_box", "brand": "United States Postal Service", "brand:wikidata": "Q668687", "collection_times": "Mo-Sa 10:00", "name": "USPS COLLECTION BOX - BLUE BOX", "nsi_id": "unitedstatespostalservice-a77078", "operator": "United States Postal Service", "operator:short": "USPS", "operator:type": "public", "operator:wikidata": "Q668687", "ref": "2090200034"}, "type": "Feature"}
{"dataset_attributes": {"@spider": "usps_collection_boxes", "spider:collection_time": "2023-09-28T08:25:18.406184"}, "geometry": {"coordinates": [-77.0317959, 39.040822], "type": "Point"}, "id": "sx06gX07MwvQET_JFd-FuIeGZVQ=", "properties": {"@spider": "usps_collection_boxes", "addr:city": "SILVER SPRING", "addr:country": "US", "addr:full": "1361 LAMBERTON DR", "addr:postcode": "20902", "addr:state": "MD", "amenity": "post_box", "brand": "United States Postal Service", "brand:wikidata": "Q668687", "collection_times": "Mo-Sa 10:00", "name": "USPS COLLECTION BOX - BLUE BOX", "nsi_id": "unitedstatespostalservice-a77078", "operator": "United States Postal Service", "operator:short": "USPS", "operator:type": "public", "operator:wikidata": "Q668687", "ref": "2090200048"}, "type": "Feature"}
{"dataset_attributes": {"@spider": "usps_collection_boxes", "spider:collection_time": "2023-09-28T08:25:18.406184"}, "geometry": {"coordinates": [-77.042908, 39.016351], "type": "Point"}, "id": "_a0U4h9f-K41VCKOu7WQs_KXc4w=", "properties": {"@spider": "usps_collection_boxes", "addr:city": "SILVER SPRING", "addr:country": "US", "addr:full": "9801 GEORGIA AVE", "addr:postcode": "20902", "addr:state": "MD", "amenity": "post_box", "brand": "United States Postal Service", "brand:wikidata": "Q668687", "collection_times": "Mo-Sa 15:00", "name": "USPS COLLECTION BOX - BLUE BOX", "note": "ON 12/24 AND 12/31, THIS BOX MAY BE COLLECTED AS EARLY AS 12 NOON.", "nsi_id": "unitedstatespostalservice-a77078", "operator": "United States Postal Service", "operator:short": "USPS", "operator:type": "public", "operator:wikidata": "Q668687", "ref": "2090200050"}, "type": "Feature"}
{"dataset_attributes": {"@spider": "usps_collection_boxes", "spider:collection_time": "2023-09-28T08:25:18.406184"}, "geometry": {"coordinates": [-77.0479113, 39.04268], "type": "Point"}, "id": "EKhfDRGFEgIS1hzC-UMWY46HbWk=", "properties": {"@spider": "usps_collection_boxes", "addr:city": "SILVER SPRING", "addr:country": "US", "addr:full": "11431 AMHERST AVE", "addr:postcode": "20902", "addr:state": "MD", "amenity": "post_box", "brand": "United States Postal Service", "brand:wikidata": "Q668687", "collection_times": "Mo-Sa 17:00", "name": "USPS COLLECTION BOX - BLUE BOX", "note": "ON 12/24 AND 12/31, THIS BOX MAY BE COLLECTED AS EARLY AS 12 NOON.", "nsi_id": "unitedstatespostalservice-a77078", "operator": "United States Postal Service", "operator:short": "USPS", "operator:type": "public", "operator:wikidata": "Q668687", "ref": "2090200112"}, "type": "Feature"}
{"dataset_attributes": {"@spider": "usps_collection_boxes", "spider:collection_time": "2023-09-28T08:25:18.406184"}, "geometry": {"coordinates": [-77.0478764, 39.042648], "type": "Point"}, "id": "zQ7Xw8aCFUqKy4UWYNfujkwK5C0=", "properties": {"@spider": "usps_collection_boxes", "addr:city": "SILVER SPRING", "addr:country": "US", "addr:full": "11431 AMHERST AVE", "addr:postcode": "20902", "addr:state": "MD", "amenity": "post_box", "brand": "United States Postal Service", "brand:wikidata": "Q668687", "collection_times": "Mo-Sa 17:00", "name": "USPS COLLECTION BOX - BLUE BOX", "note": "ON 12/24 AND 12/31, THIS BOX MAY BE COLLECTED AS EARLY AS 12 NOON.", "nsi_id": "unitedstatespostalservice-a77078", "operator": "United States Postal Service", "operator:short": "USPS", "operator:type": "public", "operator:wikidata": "Q668687", "ref": "2090200113"}, "type": "Feature"}
{"dataset_attributes": {"@spider": "usps_collection_boxes", "spider:collection_time": "2023-09-28T08:25:18.406184"}, "geometry": {"coordinates": [-77.045748, 39.024998], "type": "Point"}, "id": "O8tLZhJGVfYOmUNbv2LiIycgH90=", "properties": {"@spider": "usps_collection_boxes", "addr:city": "SILVER SPRING", "addr:country": "US", "addr:full": "10313 GEORGIA AVE", "addr:postcode": "20902", "addr:state": "MD", "amenity": "post_box", "brand": "United States Postal Service", "brand:wikidata": "Q668687", "collection_times": "Mo-Sa 10:00", "name": "USPS COLLECTION BOX - BLUE BOX", "nsi_id": "unitedstatespostalservice-a77078", "operator": "United States Postal Service", "operator:short": "USPS", "operator:type": "public", "operator:wikidata": "Q668687", "ref": "2090200129"}, "type": "Feature"}
{"dataset_attributes": {"@spider": "usps_collection_boxes", "spider:collection_time": "2023-09-28T08:25:18.406184"}, "geometry": {"coordinates": [-77.0478894, 39.042139], "type": "Point"}, "id": "pbDwF5-Ae2gpOaEomIGT4lszaFA=", "properties": {"@spider": "usps_collection_boxes", "addr:city": "SILVER SPRING", "addr:country": "US", "addr:full": "11431 AMHERST AVE", "addr:postcode": "20902", "addr:state": "MD", "amenity": "post_box", "brand": "United States Postal Service", "brand:wikidata": "Q668687", "collection_times": "Mo-Sa 17:00", "name": "USPS COLLECTION BOX - BLUE BOX", "note": "ON 12/24 AND 12/31, THIS BOX MAY BE COLLECTED AS EARLY AS 12 NOON.", "nsi_id": "unitedstatespostalservice-a77078", "operator": "United States Postal Service", "operator:short": "USPS", "operator:type": "public", "operator:wikidata": "Q668687", "ref": "2090200147"}, "type": "Feature"}
{"dataset_attributes": {"@spider": "usps_collection_boxes", "spider:collection_time": "2023-09-28T08:25:18.406184"}, "geometry": {"coordinates": [-77.0507235, 39.036105], "type": "Point"}, "id": "taRDHQUxxXnyBiVJeJ6k6BfFJEI=", "properties": {"@spider": "usps_collection_boxes", "addr:city": "SILVER SPRING", "addr:country": "US", "addr:full": "11010 VEIRS MILL RD", "addr:postcode": "20902", "addr:state": "MD", "amenity": "post_box", "brand": "United States Postal Service", "brand:wikidata": "Q668687", "collection_times": "Mo-Sa 15:00", "name": "USPS COLLECTION BOX - BLUE BOX", "note": "ON 12/24 AND 12/31, THIS BOX MAY BE COLLECTED AS EARLY AS 12 NOON.", "nsi_id": "unitedstatespostalservice-a77078", "operator": "United States Postal Service", "operator:short": "USPS", "operator:type": "public", "operator:wikidata": "Q668687", "ref": "2090200151"}, "type": "Feature"}
{"dataset_attributes": {"@spider": "usps_collection_boxes", "spider:collection_time": "2023-09-28T08:25:18.406184"}, "geometry": {"coordinates": [-77.0269639, 39.03718], "type": "Point"}, "id": "4CiSPzLdskdMEr5uiS9cSWrG_Y8=", "properties": {"@spider": "usps_collection_boxes", "addr:city": "SILVER SPRING", "addr:country": "US", "addr:full": "1111 UNIVERSITY BLVD W", "addr:postcode": "20902", "addr:state": "MD", "amenity": "post_box", "brand": "United States Postal Service", "brand:wikidata": "Q668687", "collection_times": "Mo-Sa 15:00", "name": "USPS COLLECTION BOX - BLUE BOX", "note": "ON 12/24 AND 12/31, THIS BOX MAY BE COLLECTED AS EARLY AS 12 NOON.", "nsi_id": "unitedstatespostalservice-a77078", "operator": "United States Postal Service", "operator:short": "USPS", "operator:type": "public", "operator:wikidata": "Q668687", "ref": "2090200152"}, "type": "Feature"}
{"dataset_attributes": {"@spider": "usps_collection_boxes", "spider:collection_time": "2023-09-28T08:25:18.406184"}, "geometry": {"coordinates": [-77.0279614, 39.038615], "type": "Point"}, "id": "nQFHQpldF7uSnYKCS68rLTsD3xg=", "properties": {"@spider": "usps_collection_boxes", "addr:city": "SILVER SPRING", "addr:country": "US", "addr:full": "1121 UNIVERSITY BLVD W", "addr:postcode": "20902", "addr:state": "MD", "amenity": "post_box", "brand": "United States Postal Service", "brand:wikidata": "Q668687", "collection_times": "Mo-Sa 10:00", "name": "USPS COLLECTION BOX - BLUE BOX", "nsi_id": "unitedstatespostalservice-a77078", "operator": "United States Postal Service", "operator:short": "USPS", "operator:type": "public", "operator:wikidata": "Q668687", "ref": "2090200153"}, "type": "Feature"}
{"dataset_attributes": {"@spider": "usps_collection_boxes", "spider:collection_time": "2023-09-28T08:25:18.406184"}, "geometry": {"coordinates": [-77.0296699, 39.037362], "type": "Point"}, "id": "9LBfAZNO2yzvFRUTxSPMx6ld4Ps=", "properties": {"@spider": "usps_collection_boxes", "addr:city": "SILVER SPRING", "addr:country": "US", "addr:full": "1131 UNIVERSITY BLVD W", "addr:postcode": "20902", "addr:state": "MD", "amenity": "post_box", "brand": "United States Postal Service", "brand:wikidata": "Q668687", "collection_times": "Mo-Sa 10:00", "name": "USPS COLLECTION BOX - BLUE BOX", "nsi_id": "unitedstatespostalservice-a77078", "operator": "United States Postal Service", "operator:short": "USPS", "operator:type": "public", "operator:wikidata": "Q668687", "ref": "2090200154"}, "type": "Feature"}
{"dataset_attributes": {"@spider": "usps_collection_boxes", "spider:collection_time": "2023-09-28T08:25:18.406184"}, "geometry": {"coordinates": [-77.0504376, 39.037857], "type": "Point"}, "id": "dalc11ETT_9sHFhoC6cDrDfDWyk=", "properties": {"@spider": "usps_collection_boxes", "addr:city": "SILVER SPRING", "addr:country": "US", "addr:full": "11141 GEORGIA AVE", "addr:postcode": "20902", "addr:state": "MD", "amenity": "post_box", "brand": "United States Postal Service", "brand:wikidata": "Q668687", "collection_times": "Mo-Sa 10:00", "name": "USPS COLLECTION BOX - BLUE BOX", "nsi_id": "unitedstatespostalservice-a77078", "operator": "United States Postal Service", "operator:short": "USPS", "operator:type": "public", "operator:wikidata": "Q668687", "ref": "2090200156"}, "type": "Feature"}
{"dataset_attributes": {"@spider": "usps_collection_boxes", "spider:collection_time": "2023-09-28T08:25:18.406184"}, "geometry": {"coordinates": [-77.0560354, 39.039183], "type": "Point"}, "id": "gMiY6iktBgZBwLElUrhtGdOfUUo=", "properties": {"@spider": "usps_collection_boxes", "addr:city": "SILVER SPRING", "addr:country": "US", "addr:full": "2730 UNIVERSITY BLVD W", "addr:postcode": "20902", "addr:state": "MD", "amenity": "post_box", "brand": "United States Postal Service", "brand:wikidata": "Q668687", "collection_times": "Mo-Sa 15:00", "name": "USPS COLLECTION BOX - BLUE BOX", "note": "ON 12/24 AND 12/31, THIS BOX MAY BE COLLECTED AS EARLY AS 12 NOON.", "nsi_id": "unitedstatespostalservice-a77078", "operator": "United States Postal Service", "operator:short": "USPS", "operator:type": "public", "operator:wikidata": "Q668687", "ref": "2090200158"}, "type": "Feature"}
{"dataset_attributes": {"@spider": "usps_collection_boxes", "spider:collection_time": "2023-09-28T08:25:18.406184"}, "geometry": {"coordinates": [-77.0560235, 39.039185], "type": "Point"}, "id": "EZTH2KZIzd1jPDnegAm0EZkBxLo=", "properties": {"@spider": "usps_collection_boxes", "addr:city": "SILVER SPRING", "addr:country": "US", "addr:full": "2730 UNIVERSITY BLVD W", "addr:postcode": "20902", "addr:state": "MD", "amenity": "post_box", "brand": "United States Postal Service", "brand:wikidata": "Q668687", "collection_times": "Mo-Sa 15:00", "name": "USPS COLLECTION BOX - BLUE BOX", "note": "ON 12/24 AND 12/31, THIS BOX MAY BE COLLECTED AS EARLY AS 12 NOON.", "nsi_id": "unitedstatespostalservice-a77078", "operator": "United States Postal Service", "operator:short": "USPS", "operator:type": "public", "operator:wikidata": "Q668687", "ref": "2090200160"}, "type": "Feature"}
{"dataset_attributes": {"@spider": "usps_collection_boxes", "spider:collection_time": "2023-09-28T08:25:18.406184"}, "geometry": {"coordinates": [-77.0477059, 39.042566], "type": "Point"}, "id": "_Ulkg8tT8sA2QwpUYlfO3gSeIb4=", "properties": {"@spider": "usps_collection_boxes", "addr:city": "SILVER SPRING", "addr:country": "US", "addr:full": "11431 AMHERST AVE", "addr:postcode": "20902", "addr:state": "MD", "amenity": "post_box", "brand": "United States Postal Service", "brand:wikidata": "Q668687", "collection_times": "Mo-Fr 17:00; Sa 13:00", "name": "USPS COLLECTION BOX - PO LOBBY", "note": "ON 12/24 AND 12/31, THIS BOX MAY BE COLLECTED AS EARLY AS 12 NOON.", "nsi_id": "unitedstatespostalservice-a77078", "operator": "United States Postal Service", "operator:short": "USPS", "operator:type": "public", "operator:wikidata": "Q668687", "ref": "2090200162"}, "type": "Feature"}
{"dataset_attributes": {"@spider": "usps_collection_boxes", "spider:collection_time": "2023-09-28T08:25:18.406184"}, "geometry": {"coordinates": [-77.04786838, 39.0426838784], "type": "Point"}, "id": "IJ-aB--rHRd5B_3zls7MBgTbk2U=", "properties": {"@spider": "usps_collection_boxes", "addr:city": "SILVER SPRING", "addr:country": "US", "addr:full": "11431 AMHERST AVE", "addr:postcode": "20902", "addr:state": "MD", "amenity": "post_box", "brand": "United States Postal Service", "brand:wikidata": "Q668687", "collection_times": "Mo-Fr 17:00; Sa 13:00", "name": "USPS COLLECTION BOX - PO LOBBY", "note": "ON 12/24 AND 12/31, THIS BOX MAY BE COLLECTED AS EARLY AS 12 NOON.", "nsi_id": "unitedstatespostalservice-a77078", "operator": "United States Postal Service", "operator:short": "USPS", "operator:type": "public", "operator:wikidata": "Q668687", "ref": "2090200172"}, "type": "Feature"}
{"dataset_attributes": {"@spider": "usps_collection_boxes", "spider:collection_time": "2023-09-28T08:25:18.406184"}, "geometry": {"coordinates": [-77.0523209856, 39.0348990164], "type": "Point"}, "id": "7JkoeSWK9_FcGdpXimsTCOewH9s=", "properties": {"@spider": "usps_collection_boxes", "addr:city": "SILVER SPRING", "addr:country": "US", "addr:full": "11002 VEIRS MILL RD", "addr:postcode": "20902", "addr:state": "MD", "amenity": "post_box", "brand": "United States Postal Service", "brand:wikidata": "Q668687", "collection_times": "Mo-Sa 10:00", "name": "USPS COLLECTION BOX - BLUE BOX", "nsi_id": "unitedstatespostalservice-a77078", "operator": "United States Postal Service", "operator:short": "USPS", "operator:type": "public", "operator:wikidata": "Q668687", "ref": "2090200173"}, "type": "Feature"}
{"dataset_attributes": {"@spider": "usps_collection_boxes", "spider:collection_time": "2023-09-28T08:25:18.406184"}, "geometry": {"coordinates": [-77.055714, 39.057642], "type": "Point"}, "id": "I0QaAjO1OCESEGhVR6qSgRMVkY4=", "properties": {"@spider": "usps_collection_boxes", "addr:city": "SILVER SPRING", "addr:country": "US", "addr:full": "2627 NEWTON ST", "addr:postcode": "20902", "addr:state": "MD", "amenity": "post_box", "brand": "United States Postal Service", "brand:wikidata": "Q668687", "collection_times": "Mo-Fr 15:00", "name": "USPS COLLECTION BOX - BLUE BOX", "note": "ON 12/24 AND 12/31, THIS BOX MAY BE COLLECTED AS EARLY AS 12 NOON.", "nsi_id": "unitedstatespostalservice-a77078", "operator": "United States Postal Service", "operator:short": "USPS", "operator:type": "public", "operator:wikidata": "Q668687", "ref": "2090200174"}, "type": "Feature"}
{"dataset_attributes": {"@spider": "usps_collection_boxes", "spider:collection_time": "2023-09-28T08:25:18.406184"}, "geometry": {"coordinates": [-76.9843359, 39.006259], "type": "Point"}, "id": "LI6NUF67K8-uBTxW_4pKW8Fd95M=", "properties": {"@spider": "usps_collection_boxes", "addr:city": "SILVER SPRING", "addr:country": "US", "addr:full": "475 SOUTHAMPTON DR", "addr:postcode": "20903", "addr:state": "MD", "amenity": "post_box", "brand": "United States Postal Service", "brand:wikidata": "Q668687", "collection_times": "Mo-Sa 10:00", "name": "USPS COLLECTION BOX - BLUE BOX", "nsi_id": "unitedstatespostalservice-a77078", "operator": "United States Postal Service", "operator:short": "USPS", "operator:type": "public", "operator:wikidata": "Q668687", "ref": "2090300004"}, "type": "Feature"}
{"dataset_attributes": {"@spider": "usps_collection_boxes", "spider:collection_time": "2023-09-28T08:25:18.406184"}, "geometry": {"coordinates": [-76.986486389, 39.007182981], "type": "Point"}, "id": "oH-ryi9GjrnJdmzBHa7_aM4Ey7A=", "properties": {"@spider": "usps_collection_boxes", "addr:city": "SILVER SPRING", "addr:country": "US", "addr:full": "575 SOUTHAMPTON DR", "addr:postcode": "20903", "addr:state": "MD", "amenity": "post_box", "brand": "United States Postal Service", "brand:wikidata": "Q668687", "collection_times": "Mo-Sa 10:00", "name": "USPS COLLECTION BOX - BLUE BOX", "nsi_id": "unitedstatespostalservice-a77078", "operator": "United States Postal Service", "operator:short": "USPS", "operator:type": "public", "operator:wikidata": "Q668687", "ref": "2090300006"}, "type": "Feature"}
{"dataset_attributes": {"@spider": "usps_collection_boxes", "spider:collection_time": "2023-09-28T08:25:18.406184"}, "geometry": {"coordinates": [-76.9747810052, 39.0196820065], "type": "Point"}, "id": "2E_MdBZ8v5raMGFIZi3bST6pOaQ=", "properties": {"@spider": "usps_collection_boxes", "addr:city": "SILVER SPRING", "addr:country": "US", "addr:full": "1717 ELTON RD", "addr:postcode": "20903", "addr:state": "MD", "amenity": "post_box", "brand": "United States Postal Service", "brand:wikidata": "Q668687", "collection_times": "Mo-Sa 10:00", "name": "USPS COLLECTION BOX - BLUE BOX", "nsi_id": "unitedstatespostalservice-a77078", "operator": "United States Postal Service", "operator:short": "USPS", "operator:type": "public", "operator:wikidata": "Q668687", "ref": "2090300010"}, "type": "Feature"}
{"dataset_attributes": {"@spider": "usps_collection_boxes", "spider:collection_time": "2023-09-28T08:25:18.406184"}, "geometry": {"coordinates": [-76.972486, 39.019433], "type": "Point"}, "id": "OVBrabqJe4Gz5njZR2Y_GVstbq8=", "properties": {"@spider": "usps_collection_boxes", "addr:city": "SILVER SPRING", "addr:country": "US", "addr:full": "1751 ELTON RD", "addr:postcode": "20903", "addr:state": "MD", "amenity": "post_box", "brand": "United States Postal Service", "brand:wikidata": "Q668687", "collection_times": "Mo-Sa 09:30", "name": "USPS COLLECTION BOX - BLUE BOX", "nsi_id": "unitedstatespostalservice-a77078", "operator": "United States Postal Service", "operator:short": "USPS", "operator:type": "public", "operator:wikidata": "Q668687", "ref": "2090300014"}, "type": "Feature"}
{"dataset_attributes": {"@spider": "usps_collection_boxes", "spider:collection_time": "2023-09-28T08:25:18.406184"}, "geometry": {"coordinates": [-76.980778, 39.004531], "type": "Point"}, "id": "zpCq3MO1gLaD9TtqiFFUIUxJ5ro=", "properties": {"@spider": "usps_collection_boxes", "addr:city": "SILVER SPRING", "addr:country": "US", "addr:full": "9201 NEW HAMPSHIRE AVE", "addr:postcode": "20903", "addr:state": "MD", "amenity": "post_box", "brand": "United States Postal Service", "brand:wikidata": "Q668687", "collection_times": "Mo-Sa 10:00", "name": "USPS COLLECTION BOX - BLUE BOX", "nsi_id": "unitedstatespostalservice-a77078", "operator": "United States Postal Service", "operator:short": "USPS", "operator:type": "public", "operator:wikidata": "Q668687", "ref": "2090300016"}, "type": "Feature"}
{"dataset_attributes": {"@spider": "usps_collection_boxes", "spider:collection_time": "2023-09-28T08:25:18.406184"}, "geometry": {"coordinates": [-76.9771018079, 39.0145130845], "type": "Point"}, "id": "T-fguzFxxmuDGNdggpATNPDlq2A=", "properties": {"@spider": "usps_collection_boxes", "addr:city": "SILVER SPRING", "addr:country": "US", "addr:full": "9627 MOUNT PISGAH RD", "addr:postcode": "20903", "addr:state": "MD", "amenity": "post_box", "brand": "United States Postal Service", "brand:wikidata": "Q668687", "collection_times": "Mo-Sa 10:00", "name": "USPS COLLECTION BOX - BLUE BOX", "nsi_id": "unitedstatespostalservice-a77078", "operator": "United States Postal Service", "operator:short": "USPS", "operator:type": "public", "operator:wikidata": "Q668687", "ref": "2090300024"}, "type": "Feature"}
{"dataset_attributes": {"@spider": "usps_collection_boxes", "spider:collection_time": "2023-09-28T08:25:18.406184"}, "geometry": {"coordinates": [-76.977084, 39.021824], "type": "Point"}, "id": "BEbN_FH6H-OI7cX9-DrkzAkUcfI=", "properties": {"@spider": "usps_collection_boxes", "addr:city": "SILVER SPRING", "addr:country": "US", "addr:full": "10165 NEW HAMPSHIRE AVE", "addr:postcode": "20903", "addr:state": "MD", "amenity": "post_box", "brand": "United States Postal Service", "brand:wikidata": "Q668687", "collection_times": "Mo-Sa 10:00", "name": "USPS COLLECTION BOX - BLUE BOX", "nsi_id": "unitedstatespostalservice-a77078", "operator": "United States Postal Service", "operator:short": "USPS", "operator:type": "public", "operator:wikidata": "Q668687", "ref": "2090300029"}, "type": "Feature"}
{"dataset_attributes": {"@spider": "usps_collection_boxes", "spider:collection_time": "2023-09-28T08:25:18.406184"}, "geometry": {"coordinates": [-76.9915309, 39.000752], "type": "Point"}, "id": "SM7GV1o08_XL873MYrLNJYWQ4N4=", "properties": {"@spider": "usps_collection_boxes", "addr:city": "SILVER SPRING", "addr:country": "US", "addr:full": "8860 PINEY BRANCH RD", "addr:postcode": "20903", "addr:state": "MD", "amenity": "post_box", "brand": "United States Postal Service", "brand:wikidata": "Q668687", "collection_times": "Mo-Sa 09:30", "name": "USPS COLLECTION BOX - BLUE BOX", "nsi_id": "unitedstatespostalservice-a77078", "operator": "United States Postal Service", "operator:short": "USPS", "operator:type": "public", "operator:wikidata": "Q668687", "ref": "2090300031"}, "type": "Feature"}
{"dataset_attributes": {"@spider": "usps_collection_boxes", "spider:collection_time": "2023-09-28T08:25:18.406184"}, "geometry": {"coordinates": [-76.9889288, 39.002632], "type": "Point"}, "id": "aOeU-txHu7hlKC4acdUD9s4iE9A=", "properties": {"@spider": "usps_collection_boxes", "addr:city": "SILVER SPRING", "addr:country": "US", "addr:full": "9120 PINEY BRANCH RD", "addr:postcode": "20903", "addr:state": "MD", "amenity": "post_box", "brand": "United States Postal Service", "brand:wikidata": "Q668687", "collection_times": "Mo-Sa 10:00", "name": "USPS COLLECTION BOX - BLUE BOX", "nsi_id": "unitedstatespostalservice-a77078", "operator": "United States Postal Service", "operator:short": "USPS", "operator:type": "public", "operator:wikidata": "Q668687", "ref": "2090300033"}, "type": "Feature"}
{"dataset_attributes": {"@spider": "usps_collection_boxes", "spider:collection_time": "2023-09-28T08:25:18.406184"}, "geometry": {"coordinates": [-76.974485, 39.017512], "type": "Point"}, "id": "CWLaF7lMJBRSJLaDMqGPRIwxdPo=", "properties": {"@spider": "usps_collection_boxes", "addr:city": "SILVER SPRING", "addr:country": "US", "addr:full": "9727 MOUNT PISGAH RD", "addr:postcode": "20903", "addr:state": "MD", "amenity": "post_box", "brand": "United States Postal Service", "brand:wikidata": "Q668687", "collection_times": "Mo-Sa 14:00", "name": "USPS COLLECTION BOX - BLUE BOX", "note": "ON 12/24 AND 12/31, THIS BOX MAY BE COLLECTED AS EARLY AS 12 NOON.", "nsi_id": "unitedstatespostalservice-a77078", "operator": "United States Postal Service", "operator:short": "USPS", "operator:type": "public", "operator:wikidata": "Q668687", "ref": "2090300042"}, "type": "Feature"}
{"dataset_attributes": {"@spider": "usps_collection_boxes", "spider:collection_time": "2023-09-28T08:25:18.406184"}, "geometry": {"coordinates": [-76.973193, 39.017142], "type": "Point"}, "id": "Sx3NTKZgofVHBUV6CeDQDrnl8T4=", "properties": {"@spider": "usps_collection_boxes", "addr:city": "SILVER SPRING", "addr:country": "US", "addr:full": "9737 MOUNT PISGAH RD", "addr:postcode": "20903", "addr:state": "MD", "amenity": "post_box", "brand": "United States Postal Service", "brand:wikidata": "Q668687", "collection_times": "Mo-Sa 10:00", "name": "USPS COLLECTION BOX - BLUE BOX", "nsi_id": "unitedstatespostalservice-a77078", "operator": "United States Postal Service", "operator:short": "USPS", "operator:type": "public", "operator:wikidata": "Q668687", "ref": "2090300043"}, "type": "Feature"}
{"dataset_attributes": {"@spider": "usps_collection_boxes", "spider:collection_time": "2023-09-28T08:25:18.406184"}, "geometry": {"coordinates": [-76.9928499, 38.994318], "type": "Point"}, "id": "AIpndAx1-OW3wo6bxGxAumLLtjI=", "properties": {"@spider": "usps_collection_boxes", "addr:city": "SILVER SPRING", "addr:country": "US", "addr:full": "831 UNIVERSITY BLVD E", "addr:postcode": "20903", "addr:state": "MD", "amenity": "post_box", "brand": "United States Postal Service", "brand:wikidata": "Q668687", "collection_times": "Mo-Sa 10:00", "name": "USPS COLLECTION BOX - BLUE BOX", "nsi_id": "unitedstatespostalservice-a77078", "operator": "United States Postal Service", "operator:short": "USPS", "operator:type": "public", "operator:wikidata": "Q668687", "ref": "2090300044"}, "type": "Feature"}
{"dataset_attributes": {"@spider": "usps_collection_boxes", "spider:collection_time": "2023-09-28T08:25:18.406184"}, "geometry": {"coordinates": [-76.986129079, 39.033712053], "type": "Point"}, "id": "x3aJdau8x6sL7OPngG4pihBzMyE=", "properties": {"@spider": "usps_collection_boxes", "addr:city": "SILVER SPRING", "addr:country": "US", "addr:full": "10903 NEW HAMPSHIRE AVE", "addr:postcode": "20903", "addr:state": "MD", "amenity": "post_box", "brand": "United States Postal Service", "brand:wikidata": "Q668687", "collection_times": "Mo-Fr 15:00", "name": "USPS COLLECTION BOX - BLUE BOX", "note": "ON 12/24 AND 12/31, THIS BOX MAY BE COLLECTED AS EARLY AS 12 NOON.", "nsi_id": "unitedstatespostalservice-a77078", "operator": "United States Postal Service", "operator:short": "USPS", "operator:type": "public", "operator:wikidata": "Q668687", "ref": "2090300045"}, "type": "Feature"}
{"dataset_attributes": {"@spider": "usps_collection_boxes", "spider:collection_time": "2023-09-28T08:25:18.406184"}, "geometry": {"coordinates": [-76.986129079, 39.033712053], "type": "Point"}, "id": "sGeA7SEuskdlz7_D1bCyZL22FPY=", "properties": {"@spider": "usps_collection_boxes", "addr:city": "SILVER SPRING", "addr:country": "US", "addr:full": "10903 NEW HAMPSHIRE AVE", "addr:postcode": "20903", "addr:state": "MD", "amenity": "post_box", "brand": "United States Postal Service", "brand:wikidata": "Q668687", "collection_times": "Mo-Fr 15:00", "name": "USPS COLLECTION BOX - BLUE BOX", "note": "ON 12/24 AND 12/31, THIS BOX MAY BE COLLECTED AS EARLY AS 12 NOON.", "nsi_id": "unitedstatespostalservice-a77078", "operator": "United States Postal Service", "operator:short": "USPS", "operator:type": "public", "operator:wikidata": "Q668687", "ref": "2090300046"}, "type": "Feature"}
{"dataset_attributes": {"@spider": "usps_collection_boxes", "spider:collection_time": "2023-09-28T08:25:18.406184"}, "geometry": {"coordinates": [-76.969648, 39.054546], "type": "Point"}, "id": "Mw59dvSsg2TDMazi58Lsg5ezwbE=", "properties": {"@spider": "usps_collection_boxes", "addr:city": "SILVER SPRING", "addr:country": "US", "addr:full": "2120 INDUSTRIAL PKWY", "addr:postcode": "20904", "addr:state": "MD", "amenity": "post_box", "brand": "United States Postal Service", "brand:wikidata": "Q668687", "collection_times": "Mo-Sa 10:00", "name": "USPS COLLECTION BOX - BLUE BOX", "nsi_id": "unitedstatespostalservice-a77078", "operator": "United States Postal Service", "operator:short": "USPS", "operator:type": "public", "operator:wikidata": "Q668687", "ref": "2090400004"}, "type": "Feature"}
{"dataset_attributes": {"@spider": "usps_collection_boxes", "spider:collection_time": "2023-09-28T08:25:18.406184"}, "geometry": {"coordinates": [-76.958107, 39.070008], "type": "Point"}, "id": "Oqm_hcnIRPBvb1RE9Iy3faJ_o3s=", "properties": {"@spider": "usps_collection_boxes", "addr:city": "SILVER SPRING", "addr:country": "US", "addr:full": "13100 COLUMBIA PIKE", "addr:postcode": "20904", "addr:state": "MD", "amenity": "post_box", "brand": "United States Postal Service", "brand:wikidata": "Q668687", "collection_times": "Mo-Sa 15:00", "name": "USPS COLLECTION BOX - BLUE BOX", "note": "ON 12/24 AND 12/31, THIS BOX MAY BE COLLECTED AS EARLY AS 12 NOON.", "nsi_id": "unitedstatespostalservice-a77078", "operator": "United States Postal Service", "operator:short": "USPS", "operator:type": "public", "operator:wikidata": "Q668687", "ref": "2090400012"}, "type": "Feature"}
{"dataset_attributes": {"@spider": "usps_collection_boxes", "spider:collection_time": "2023-09-28T08:25:18.406184"}, "geometry": {"coordinates": [-76.9405447, 39.07627], "type": "Point"}, "id": "FADLPg8qSjuQhi71w3shrNTm75I=", "properties": {"@spider": "usps_collection_boxes", "addr:city": "SILVER SPRING", "addr:country": "US", "addr:full": "3343 HAMPTON POINT DR", "addr:postcode": "20904", "addr:state": "MD", "amenity": "post_box", "brand": "United States Postal Service", "brand:wikidata": "Q668687", "collection_times": "Mo-Sa 10:00", "name": "USPS COLLECTION BOX - BLUE BOX", "nsi_id": "unitedstatespostalservice-a77078", "operator": "United States Postal Service", "operator:short": "USPS", "operator:type": "public", "operator:wikidata": "Q668687", "ref": "2090400013"}, "type": "Feature"}
{"dataset_attributes": {"@spider": "usps_collection_boxes", "spider:collection_time": "2023-09-28T08:25:18.406184"}, "geometry": {"coordinates": [-76.961095, 39.055424], "type": "Point"}, "id": "Wji2aEOPtFST38ljjvm5-xZjsT0=", "properties": {"@spider": "usps_collection_boxes", "addr:city": "SILVER SPRING", "addr:country": "US", "addr:full": "2301 BROADBIRCH DR", "addr:postcode": "20904", "addr:state": "MD", "amenity": "post_box", "brand": "United States Postal Service", "brand:wikidata": "Q668687", "collection_times": "Mo-Sa 10:00", "name": "USPS COLLECTION BOX - BLUE BOX", "nsi_id": "unitedstatespostalservice-a77078", "operator": "United States Postal Service", "operator:short": "USPS", "operator:type": "public", "operator:wikidata": "Q668687", "ref": "2090400017"}, "type": "Feature"}
{"dataset_attributes": {"@spider": "usps_collection_boxes", "spider:collection_time": "2023-09-28T08:25:18.406184"}, "geometry": {"coordinates": [-76.9460273, 39.083732], "type": "Point"}, "id": "fuI2bV8l277Pfx3Ji_hNAASy0kg=", "properties": {"@spider": "usps_collection_boxes", "addr:city": "SILVER SPRING", "addr:country": "US", "addr:full": "13820 OUTLET DR", "addr:postcode": "20904", "addr:state": "MD", "amenity": "post_box", "brand": "United States Postal Service", "brand:wikidata": "Q668687", "collection_times": "Mo-Sa 10:00", "name": "USPS COLLECTION BOX - BLUE BOX", "nsi_id": "unitedstatespostalservice-a77078", "operator": "United States Postal Service", "operator:short": "USPS", "operator:type": "public", "operator:wikidata": "Q668687", "ref": "2090400018"}, "type": "Feature"}
{"dataset_attributes": {"@spider": "usps_collection_boxes", "spider:collection_time": "2023-09-28T08:25:18.406184"}, "geometry": {"coordinates": [-76.9886638, 39.041453], "type": "Point"}, "id": "2NDIOo84bg-ReVjzgKr8HenpU4I=", "properties": {"@spider": "usps_collection_boxes", "addr:city": "SILVER SPRING", "addr:country": "US", "addr:full": "11223 NEW HAMPSHIRE AVE", "addr:postcode": "20904", "addr:state": "MD", "amenity": "post_box", "brand": "United States Postal Service", "brand:wikidata": "Q668687", "collection_times": "Mo-Sa 10:00", "name": "USPS COLLECTION BOX - BLUE BOX", "nsi_id": "unitedstatespostalservice-a77078", "operator": "United States Postal Service", "operator:short": "USPS", "operator:type": "public", "operator:wikidata": "Q668687", "ref": "2090400038"}, "type": "Feature"}
{"dataset_attributes": {"@spider": "usps_collection_boxes", "spider:collection_time": "2023-09-28T08:25:18.406184"}, "geometry": {"coordinates": [-76.9844831, 39.041446], "type": "Point"}, "id": "Eg-W1RZ-DKoyzUOUF_qMEjhduCs=", "properties": {"@spider": "usps_collection_boxes", "addr:city": "SILVER SPRING", "addr:country": "US", "addr:full": "11600 LOCKWOOD DR", "addr:postcode": "20904", "addr:state": "MD", "amenity": "post_box", "brand": "United States Postal Service", "brand:wikidata": "Q668687", "collection_times": "Mo-Sa 11:00", "name": "USPS COLLECTION BOX - BLUE BOX", "nsi_id": "unitedstatespostalservice-a77078", "operator": "United States Postal Service", "operator:short": "USPS", "operator:type": "public", "operator:wikidata": "Q668687", "ref": "2090400040"}, "type": "Feature"}
{"dataset_attributes": {"@spider": "usps_collection_boxes", "spider:collection_time": "2023-09-28T08:25:18.406184"}, "geometry": {"coordinates": [-76.9847213, 39.042301], "type": "Point"}, "id": "d1rLcvMPk_rfM2GoLcKTRMb3GVg=", "properties": {"@spider": "usps_collection_boxes", "addr:city": "SILVER SPRING", "addr:country": "US", "addr:full": "11520 LOCKWOOD DR", "addr:postcode": "20904", "addr:state": "MD", "amenity": "post_box", "brand": "United States Postal Service", "brand:wikidata": "Q668687", "collection_times": "Mo-Sa 11:00", "name": "USPS COLLECTION BOX - BLUE BOX", "nsi_id": "unitedstatespostalservice-a77078", "operator": "United States Postal Service", "operator:short": "USPS", "operator:type": "public", "operator:wikidata": "Q668687", "ref": "2090400045"}, "type": "Feature"}
{"dataset_attributes": {"@spider": "usps_collection_boxes", "spider:collection_time": "2023-09-28T08:25:18.406184"}, "geometry": {"coordinates": [-76.967128, 39.06147], "type": "Point"}, "id": "4nIYUmStJIkOccuQRyoktAwUeiA=", "properties": {"@spider": "usps_collection_boxes", "addr:city": "SILVER SPRING", "addr:country": "US", "addr:full": "12501 OLD COLUMBIA PIKE", "addr:postcode": "20904", "addr:state": "MD", "amenity": "post_box", "brand": "United States Postal Service", "brand:wikidata": "Q668687", "collection_times": "Mo-Sa 10:00", "name": "USPS COLLECTION BOX - BLUE BOX", "nsi_id": "unitedstatespostalservice-a77078", "operator": "United States Postal Service", "operator:short": "USPS", "operator:type": "public", "operator:wikidata": "Q668687", "ref": "2090400050"}, "type": "Feature"}
{"dataset_attributes": {"@spider": "usps_collection_boxes", "spider:collection_time": "2023-09-28T08:25:18.406184"}, "geometry": {"coordinates": [-76.9876424, 39.044762], "type": "Point"}, "id": "z1nTtnbplHlcAXyYk7Dw_Z6vLNA=", "properties": {"@spider": "usps_collection_boxes", "addr:city": "SILVER SPRING", "addr:country": "US", "addr:full": "11407 COLUMBIA PIKE", "addr:postcode": "20904", "addr:state": "MD", "amenity": "post_box", "brand": "United States Postal Service", "brand:wikidata": "Q668687", "collection_times": "Mo-Sa 09:30", "name": "USPS COLLECTION BOX - BLUE BOX", "nsi_id": "unitedstatespostalservice-a77078", "operator": "United States Postal Service", "operator:short": "USPS", "operator:type": "public", "operator:wikidata": "Q668687", "ref": "2090400053"}, "type": "Feature"}
{"dataset_attributes": {"@spider": "usps_collection_boxes", "spider:collection_time": "2023-09-28T08:25:18.406184"}, "geometry": {"coordinates": [-76.9803882, 39.049245], "type": "Point"}, "id": "0mPLozjLcw449__gfZQmnL2A3wk=", "properties": {"@spider": "usps_collection_boxes", "addr:city": "SILVER SPRING", "addr:country": "US", "addr:full": "11700 OLD COLUMBIA PIKE", "addr:postcode": "20904", "addr:state": "MD", "amenity": "post_box", "brand": "United States Postal Service", "brand:wikidata": "Q668687", "collection_times": "Mo-Sa 11:00", "name": "USPS COLLECTION BOX - BLUE BOX", "nsi_id": "unitedstatespostalservice-a77078", "operator": "United States Postal Service", "operator:short": "USPS", "operator:type": "public", "operator:wikidata": "Q668687", "ref": "2090400060"}, "type": "Feature"}
{"dataset_attributes": {"@spider": "usps_collection_boxes", "spider:collection_time": "2023-09-28T08:25:18.406184"}, "geometry": {"coordinates": [-76.9768753, 39.046866], "type": "Point"}, "id": "_p-rU7OvbnrqIpOzRCFciZIHkBQ=", "properties": {"@spider": "usps_collection_boxes", "addr:city": "SILVER SPRING", "addr:country": "US", "addr:full": "11556 FEBRUARY CIR", "addr:postcode": "20904", "addr:state": "MD", "amenity": "post_box", "brand": "United States Postal Service", "brand:wikidata": "Q668687", "collection_times": "Mo-Sa 11:00", "name": "USPS COLLECTION BOX - BLUE BOX", "nsi_id": "unitedstatespostalservice-a77078", "operator": "United States Postal Service", "operator:short": "USPS", "operator:type": "public", "operator:wikidata": "Q668687", "ref": "2090400062"}, "type": "Feature"}
{"dataset_attributes": {"@spider": "usps_collection_boxes", "spider:collection_time": "2023-09-28T08:25:18.406184"}, "geometry": {"coordinates": [-76.960894, 39.067549], "type": "Point"}, "id": "TQync05vn8KVM5B-qxFQhldUStU=", "properties": {"@spider": "usps_collection_boxes", "addr:city": "SILVER SPRING", "addr:country": "US", "addr:full": "2415 MUSGROVE RD", "addr:postcode": "20904", "addr:state": "MD", "amenity": "post_box", "brand": "United States Postal Service", "brand:wikidata": "Q668687", "collection_times": "Mo-Sa 10:00", "name": "USPS COLLECTION BOX - BLUE BOX", "nsi_id": "unitedstatespostalservice-a77078", "operator": "United States Postal Service", "operator:short": "USPS", "operator:type": "public", "operator:wikidata": "Q668687", "ref": "2090400067"}, "type": "Feature"}
{"dataset_attributes": {"@spider": "usps_collection_boxes", "spider:collection_time": "2023-09-28T08:25:18.406184"}, "geometry": {"coordinates": [-76.9520895, 39.084166], "type": "Point"}, "id": "lYafiuBH-RfB-yrW3gg4aIMmNro=", "properties": {"@spider": "usps_collection_boxes", "addr:city": "SILVER SPRING", "addr:country": "US", "addr:full": "13872 OLD COLUMBIA PIKE", "addr:postcode": "20904", "addr:state": "MD", "amenity": "post_box", "brand": "United States Postal Service", "brand:wikidata": "Q668687", "collection_times": "Mo-Sa 10:00", "name": "USPS COLLECTION BOX - BLUE BOX", "nsi_id": "unitedstatespostalservice-a77078", "operator": "United States Postal Service", "operator:short": "USPS", "operator:type": "public", "operator:wikidata": "Q668687", "ref": "2090400068"}, "type": "Feature"}
{"dataset_attributes": {"@spider": "usps_collection_boxes", "spider:collection_time": "2023-09-28T08:25:18.406184"}, "geometry": {"coordinates": [-77.002281, 39.072645], "type": "Point"}, "id": "HNSmMrzmJlGGKcmjbXhhFGK-8BU=", "properties": {"@spider": "usps_collection_boxes", "addr:city": "SILVER SPRING", "addr:country": "US", "addr:full": "13217 NEW HAMPSHIRE AVE", "addr:postcode": "20904", "addr:state": "MD", "amenity": "post_box", "brand": "United States Postal Service", "brand:wikidata": "Q668687", "collection_times": "Mo-Sa 17:00", "name": "USPS COLLECTION BOX - BLUE BOX", "note": "ON 12/24 AND 12/31, THIS BOX MAY BE COLLECTED AS EARLY AS 12 NOON.", "nsi_id": "unitedstatespostalservice-a77078", "operator": "United States Postal Service", "operator:short": "USPS", "operator:type": "public", "operator:wikidata": "Q668687", "ref": "2090400071"}, "type": "Feature"}
{"dataset_attributes": {"@spider": "usps_collection_boxes", "spider:collection_time": "2023-09-28T08:25:18.406184"}, "geometry": {"coordinates": [-76.956563, 39.050633], "type": "Point"}, "id": "pwIp1PB2fFBKFkBzaeEEYMuPrFo=", "properties": {"@spider": "usps_collection_boxes", "addr:city": "SILVER SPRING", "addr:country": "US", "addr:full": "12010 PLUM ORCHARD DR", "addr:postcode": "20904", "addr:state": "MD", "amenity": "post_box", "brand": "United States Postal Service", "brand:wikidata": "Q668687", "collection_times": "Mo-Sa 15:00", "name": "USPS COLLECTION BOX - BLUE BOX", "note": "ON 12/24 AND 12/31, THIS BOX MAY BE COLLECTED AS EARLY AS 12 NOON.", "nsi_id": "unitedstatespostalservice-a77078", "operator": "United States Postal Service", "operator:short": "USPS", "operator:type": "public", "operator:wikidata": "Q668687", "ref": "2090400076"}, "type": "Feature"}
{"dataset_attributes": {"@spider": "usps_collection_boxes", "spider:collection_time": "2023-09-28T08:25:18.406184"}, "geometry": {"coordinates": [-76.953406, 39.053396], "type": "Point"}, "id": "uWUiorxMc7_Nrp3LinFn7gqsqjc=", "properties": {"@spider": "usps_collection_boxes", "addr:city": "SILVER SPRING", "addr:country": "US", "addr:full": "12028 CHERRY HILL RD", "addr:postcode": "20904", "addr:state": "MD", "amenity": "post_box", "brand": "United States Postal Service", "brand:wikidata": "Q668687", "collection_times": "Mo-Sa 10:00", "name": "USPS COLLECTION BOX - BLUE BOX", "nsi_id": "unitedstatespostalservice-a77078", "operator": "United States Postal Service", "operator:short": "USPS", "operator:type": "public", "operator:wikidata": "Q668687", "ref": "2090400079"}, "type": "Feature"}
{"dataset_attributes": {"@spider": "usps_collection_boxes", "spider:collection_time": "2023-09-28T08:25:18.406184"}, "geometry": {"coordinates": [-76.990122, 39.038356], "type": "Point"}, "id": "WkrXxUtzcZmLNaI_LmxADcyJiBs=", "properties": {"@spider": "usps_collection_boxes", "addr:city": "SILVER SPRING", "addr:country": "US", "addr:full": "11120 NEW HAMPSHIRE AVE", "addr:postcode": "20904", "addr:state": "MD", "amenity": "post_box", "brand": "United States Postal Service", "brand:wikidata": "Q668687", "collection_times": "Mo-Sa 10:00", "name": "USPS COLLECTION BOX - BLUE BOX", "nsi_id": "unitedstatespostalservice-a77078", "operator": "United States Postal Service", "operator:short": "USPS", "operator:type": "public", "operator:wikidata": "Q668687", "ref": "2090400080"}, "type": "Feature"}
{"dataset_attributes": {"@spider": "usps_collection_boxes", "spider:collection_time": "2023-09-28T08:25:18.406184"}, "geometry": {"coordinates": [-76.967731, 39.0554], "type": "Point"}, "id": "6zidHyR72LxFubkj9BPTnb70wWA=", "properties": {"@spider": "usps_collection_boxes", "addr:city": "SILVER SPRING", "addr:country": "US", "addr:full": "12200 TECH RD", "addr:postcode": "20904", "addr:state": "MD", "amenity": "post_box", "brand": "United States Postal Service", "brand:wikidata": "Q668687", "collection_times": "Mo-Sa 10:00", "name": "USPS COLLECTION BOX - BLUE BOX", "nsi_id": "unitedstatespostalservice-a77078", "operator": "United States Postal Service", "operator:short": "USPS", "operator:type": "public", "operator:wikidata": "Q668687", "ref": "2090400083"}, "type": "Feature"}
{"dataset_attributes": {"@spider": "usps_collection_boxes", "spider:collection_time": "2023-09-28T08:25:18.406184"}, "geometry": {"coordinates": [-76.96127, 39.061017], "type": "Point"}, "id": "1pA6x4gMGiEP9nZM4O2vvgHoqOw=", "properties": {"@spider": "usps_collection_boxes", "addr:city": "SILVER SPRING", "addr:country": "US", "addr:full": "12520 PROSPERITY DR", "addr:postcode": "20904", "addr:state": "MD", "amenity": "post_box", "brand": "United States Postal Service", "brand:wikidata": "Q668687", "collection_times": "Mo-Sa 10:00", "name": "USPS COLLECTION BOX - BLUE BOX", "nsi_id": "unitedstatespostalservice-a77078", "operator": "United States Postal Service", "operator:short": "USPS", "operator:type": "public", "operator:wikidata": "Q668687", "ref": "2090400084"}, "type": "Feature"}
{"dataset_attributes": {"@spider": "usps_collection_boxes", "spider:collection_time": "2023-09-28T08:25:18.406184"}, "geometry": {"coordinates": [-76.962561, 39.06129], "type": "Point"}, "id": "50Ld9b4YWilcbKspGzOjV-Kmgtc=", "properties": {"@spider": "usps_collection_boxes", "addr:city": "SILVER SPRING", "addr:country": "US", "addr:full": "12510 PROSPERITY DR", "addr:postcode": "20904", "addr:state": "MD", "amenity": "post_box", "brand": "United States Postal Service", "brand:wikidata": "Q668687", "collection_times": "Mo-Sa 10:00", "name": "USPS COLLECTION BOX - BLUE BOX", "nsi_id": "unitedstatespostalservice-a77078", "operator": "United States Postal Service", "operator:short": "USPS", "operator:type": "public", "operator:wikidata": "Q668687", "ref": "2090400085"}, "type": "Feature"}
{"dataset_attributes": {"@spider": "usps_collection_boxes", "spider:collection_time": "2023-09-28T08:25:18.406184"}, "geometry": {"coordinates": [-76.964112, 39.060107], "type": "Point"}, "id": "MV4vkjww_sslhURDT_w_RJ8biwU=", "properties": {"@spider": "usps_collection_boxes", "addr:city": "SILVER SPRING", "addr:country": "US", "addr:full": "12501 PROSPERITY DR", "addr:postcode": "20904", "addr:state": "MD", "amenity": "post_box", "brand": "United States Postal Service", "brand:wikidata": "Q668687", "collection_times": "Mo-Sa 10:00", "name": "USPS COLLECTION BOX - BLUE BOX", "nsi_id": "unitedstatespostalservice-a77078", "operator": "United States Postal Service", "operator:short": "USPS", "operator:type": "public", "operator:wikidata": "Q668687", "ref": "2090400086"}, "type": "Feature"}
{"dataset_attributes": {"@spider": "usps_collection_boxes", "spider:collection_time": "2023-09-28T08:25:18.406184"}, "geometry": {"coordinates": [-76.967352, 39.054527], "type": "Point"}, "id": "PIqeA8peoDCe5E4wdGCUI_yjsn4=", "properties": {"@spider": "usps_collection_boxes", "addr:city": "SILVER SPRING", "addr:country": "US", "addr:full": "12121 TECH RD", "addr:postcode": "20904", "addr:state": "MD", "amenity": "post_box", "brand": "United States Postal Service", "brand:wikidata": "Q668687", "collection_times": "Mo-Sa 10:00", "name": "USPS COLLECTION BOX - BLUE BOX", "nsi_id": "unitedstatespostalservice-a77078", "operator": "United States Postal Service", "operator:short": "USPS", "operator:type": "public", "operator:wikidata": "Q668687", "ref": "2090400087"}, "type": "Feature"}
{"dataset_attributes": {"@spider": "usps_collection_boxes", "spider:collection_time": "2023-09-28T08:25:18.406184"}, "geometry": {"coordinates": [-76.964112, 39.060107], "type": "Point"}, "id": "kgu1o4uEywVBfntZMkCJcqw6FL4=", "properties": {"@spider": "usps_collection_boxes", "addr:city": "SILVER SPRING", "addr:country": "US", "addr:full": "12501 PROSPERITY DR", "addr:postcode": "20904", "addr:state": "MD", "amenity": "post_box", "brand": "United States Postal Service", "brand:wikidata": "Q668687", "collection_times": "Mo-Sa 10:00", "name": "USPS COLLECTION BOX - BLUE BOX", "nsi_id": "unitedstatespostalservice-a77078", "operator": "United States Postal Service", "operator:short": "USPS", "operator:type": "public", "operator:wikidata": "Q668687", "ref": "2090400088"}, "type": "Feature"}
{"dataset_attributes": {"@spider": "usps_collection_boxes", "spider:collection_time": "2023-09-28T08:25:18.406184"}, "geometry": {"coordinates": [-77.002281, 39.072645], "type": "Point"}, "id": "j96vgAHowETAonHWGu_0CtROZV0=", "properties": {"@spider": "usps_collection_boxes", "addr:city": "SILVER SPRING", "addr:country": "US", "addr:full": "13217 NEW HAMPSHIRE AVE", "addr:postcode": "20904", "addr:state": "MD", "amenity": "post_box", "brand": "United States Postal Service", "brand:wikidata": "Q668687", "collection_times": "Mo-Fr 17:00; Sa 15:00", "name": "USPS COLLECTION BOX - PO LOBBY", "note": "ON 12/24 AND 12/31, THIS BOX MAY BE COLLECTED AS EARLY AS 12 NOON.", "nsi_id": "unitedstatespostalservice-a77078", "operator": "United States Postal Service", "operator:short": "USPS", "operator:type": "public", "operator:wikidata": "Q668687", "ref": "2090400089"}, "type": "Feature"}
{"dataset_attributes": {"@spider": "usps_collection_boxes", "spider:collection_time": "2023-09-28T08:25:18.406184"}, "geometry": {"coordinates": [-76.9874677, 39.043827], "type": "Point"}, "id": "vC2RAGFuFSeV0dW1EurN-8nQfBU=", "properties": {"@spider": "usps_collection_boxes", "addr:city": "SILVER SPRING", "addr:country": "US", "addr:full": "11353 COLUMBIA PIKE", "addr:postcode": "20904", "addr:state": "MD", "amenity": "post_box", "brand": "United States Postal Service", "brand:wikidata": "Q668687", "collection_times": "Mo-Sa 09:30", "name": "USPS COLLECTION BOX - BLUE BOX", "nsi_id": "unitedstatespostalservice-a77078", "operator": "United States Postal Service", "operator:short": "USPS", "operator:type": "public", "operator:wikidata": "Q668687", "ref": "2090400090"}, "type": "Feature"}
{"dataset_attributes": {"@spider": "usps_collection_boxes", "spider:collection_time": "2023-09-28T08:25:18.406184"}, "geometry": {"coordinates": [-77.002281, 39.072645], "type": "Point"}, "id": "UxPyY6x_uX3Dr3LIiKgYHzQwtX8=", "properties": {"@spider": "usps_collection_boxes", "addr:city": "SILVER SPRING", "addr:country": "US", "addr:full": "13217 NEW HAMPSHIRE AVE", "addr:postcode": "20904", "addr:state": "MD", "amenity": "post_box", "brand": "United States Postal Service", "brand:wikidata": "Q668687", "collection_times": "Mo-Fr 17:00; Sa 15:00", "name": "USPS COLLECTION BOX - APC", "note": "ON 12/24 AND 12/31, THIS BOX MAY BE COLLECTED AS EARLY AS 12 NOON.", "nsi_id": "unitedstatespostalservice-a77078", "operator": "United States Postal Service", "operator:short": "USPS", "operator:type": "public", "operator:wikidata": "Q668687", "ref": "2090400092"}, "type": "Feature"}
{"dataset_attributes": {"@spider": "usps_collection_boxes", "spider:collection_time": "2023-09-28T08:25:18.406184"}, "geometry": {"coordinates": [-77.0027694706, 39.0724702053], "type": "Point"}, "id": "wEZx0ebUH4ZHNhu4YXu3Q6zSxdY=", "properties": {"@spider": "usps_collection_boxes", "addr:city": "COLESVILLE", "addr:country": "US", "addr:full": "13217 NEW HAMPSHIRE AVE", "addr:postcode": "20905", "addr:state": "MD", "amenity": "post_box", "brand": "United States Postal Service", "brand:wikidata": "Q668687", "collection_times": "Mo-Fr 17:00; Sa 15:00", "name": "USPS COLLECTION BOX - PO LOBBY", "note": "ON 12/24 AND 12/31, THIS BOX MAY BE COLLECTED AS EARLY AS 12 NOON.", "nsi_id": "unitedstatespostalservice-a77078", "operator": "United States Postal Service", "operator:short": "USPS", "operator:type": "public", "operator:wikidata": "Q668687", "ref": "2090500002"}, "type": "Feature"}
{"dataset_attributes": {"@spider": "usps_collection_boxes", "spider:collection_time": "2023-09-28T08:25:18.406184"}, "geometry": {"coordinates": [-77.0765349, 39.05325], "type": "Point"}, "id": "JMOOSTQMKucYiTuttY4iU1ZyzZE=", "properties": {"@spider": "usps_collection_boxes", "addr:city": "SILVER SPRING", "addr:country": "US", "addr:full": "12013 VEIRS MILL RD", "addr:postcode": "20906", "addr:state": "MD", "amenity": "post_box", "brand": "United States Postal Service", "brand:wikidata": "Q668687", "collection_times": "Mo-Sa 10:00", "name": "USPS COLLECTION BOX - BLUE BOX", "nsi_id": "unitedstatespostalservice-a77078", "operator": "United States Postal Service", "operator:short": "USPS", "operator:type": "public", "operator:wikidata": "Q668687", "ref": "2090600006"}, "type": "Feature"}
{"dataset_attributes": {"@spider": "usps_collection_boxes", "spider:collection_time": "2023-09-28T08:25:18.406184"}, "geometry": {"coordinates": [-77.0805162, 39.055215], "type": "Point"}, "id": "bB_P_MYCKBm5-AWK0_qpp1HpHZE=", "properties": {"@spider": "usps_collection_boxes", "addr:city": "SILVER SPRING", "addr:country": "US", "addr:full": "12125 HERITAGE PARK CIR", "addr:postcode": "20906", "addr:state": "MD", "amenity": "post_box", "brand": "United States Postal Service", "brand:wikidata": "Q668687", "collection_times": "Mo-Sa 10:00", "name": "USPS COLLECTION BOX - BLUE BOX", "nsi_id": "unitedstatespostalservice-a77078", "operator": "United States Postal Service", "operator:short": "USPS", "operator:type": "public", "operator:wikidata": "Q668687", "ref": "2090600008"}, "type": "Feature"}
{"dataset_attributes": {"@spider": "usps_collection_boxes", "spider:collection_time": "2023-09-28T08:25:18.406184"}, "geometry": {"coordinates": [-77.0352595, 39.067106], "type": "Point"}, "id": "0jlXVVTNX3wg_DGLYuN0g_etK2s=", "properties": {"@spider": "usps_collection_boxes", "addr:city": "SILVER SPRING", "addr:country": "US", "addr:full": "2 WILCOX CT", "addr:postcode": "20906", "addr:state": "MD", "amenity": "post_box", "brand": "United States Postal Service", "brand:wikidata": "Q668687", "collection_times": "Mo-Sa 10:00", "name": "USPS COLLECTION BOX - BLUE BOX", "nsi_id": "unitedstatespostalservice-a77078", "operator": "United States Postal Service", "operator:short": "USPS", "operator:type": "public", "operator:wikidata": "Q668687", "ref": "2090600009"}, "type": "Feature"}
{"dataset_attributes": {"@spider": "usps_collection_boxes", "spider:collection_time": "2023-09-28T08:25:18.406184"}, "geometry": {"coordinates": [-77.0755321, 39.10347], "type": "Point"}, "id": "SCmtyquNQ11132PwWDfntBS7wKM=", "properties": {"@spider": "usps_collection_boxes", "addr:city": "SILVER SPRING", "addr:country": "US", "addr:full": "3802 INTERNATIONAL DR", "addr:postcode": "20906", "addr:state": "MD", "amenity": "post_box", "brand": "United States Postal Service", "brand:wikidata": "Q668687", "collection_times": "Mo-Sa 17:00", "name": "USPS COLLECTION BOX - BLUE BOX", "note": "ON 12/24 AND 12/31, THIS BOX MAY BE COLLECTED AS EARLY AS 12 NOON.", "nsi_id": "unitedstatespostalservice-a77078", "operator": "United States Postal Service", "operator:short": "USPS", "operator:type": "public", "operator:wikidata": "Q668687", "ref": "2090600018"}, "type": "Feature"}
{"dataset_attributes": {"@spider": "usps_collection_boxes", "spider:collection_time": "2023-09-28T08:25:18.406184"}, "geometry": {"coordinates": [-77.0827706, 39.057308], "type": "Point"}, "id": "I-eRHI2g_cPqj2pl4aVs9oRi5PQ=", "properties": {"@spider": "usps_collection_boxes", "addr:city": "SILVER SPRING", "addr:country": "US", "addr:full": "12209 VEIRS MILL RD", "addr:postcode": "20906", "addr:state": "MD", "amenity": "post_box", "brand": "United States Postal Service", "brand:wikidata": "Q668687", "collection_times": "Mo-Sa 10:00", "name": "USPS COLLECTION BOX - BLUE BOX", "nsi_id": "unitedstatespostalservice-a77078", "operator": "United States Postal Service", "operator:short": "USPS", "operator:type": "public", "operator:wikidata": "Q668687", "ref": "2090600023"}, "type": "Feature"}
{"dataset_attributes": {"@spider": "usps_collection_boxes", "spider:collection_time": "2023-09-28T08:25:18.406184"}, "geometry": {"coordinates": [-77.0728971, 39.10156], "type": "Point"}, "id": "bFC7f_iFRmfI7cNVQYkIvfsRAU8=", "properties": {"@spider": "usps_collection_boxes", "addr:city": "SILVER SPRING", "addr:country": "US", "addr:full": "3701 ROSSMOOR BLVD", "addr:postcode": "20906", "addr:state": "MD", "amenity": "post_box", "brand": "United States Postal Service", "brand:wikidata": "Q668687", "collection_times": "Mo-Sa 10:00", "name": "USPS COLLECTION BOX - BLUE BOX", "nsi_id": "unitedstatespostalservice-a77078", "operator": "United States Postal Service", "operator:short": "USPS", "operator:type": "public", "operator:wikidata": "Q668687", "ref": "2090600028"}, "type": "Feature"}
{"dataset_attributes": {"@spider": "usps_collection_boxes", "spider:collection_time": "2023-09-28T08:25:18.406184"}, "geometry": {"coordinates": [-77.070215901, 39.098765578], "type": "Point"}, "id": "Zzt65znpRFRnl2X16P5s6CavoFs=", "properties": {"@spider": "usps_collection_boxes", "addr:city": "SILVER SPRING", "addr:country": "US", "addr:full": "3514 CHISWICK CT", "addr:postcode": "20906", "addr:state": "MD", "amenity": "post_box", "brand": "United States Postal Service", "brand:wikidata": "Q668687", "collection_times": "Mo-Sa 10:00", "name": "USPS COLLECTION BOX - BLUE BOX", "nsi_id": "unitedstatespostalservice-a77078", "operator": "United States Postal Service", "operator:short": "USPS", "operator:type": "public", "operator:wikidata": "Q668687", "ref": "2090600029"}, "type": "Feature"}
{"dataset_attributes": {"@spider": "usps_collection_boxes", "spider:collection_time": "2023-09-28T08:25:18.406184"}, "geometry": {"coordinates": [-77.0749063, 39.079144], "type": "Point"}, "id": "Eeb4040bOC03v2qzFBJMJ18GLQI=", "properties": {"@spider": "usps_collection_boxes", "addr:city": "SILVER SPRING", "addr:country": "US", "addr:full": "13605 LOYOLA ST", "addr:postcode": "20906", "addr:state": "MD", "amenity": "post_box", "brand": "United States Postal Service", "brand:wikidata": "Q668687", "collection_times": "Mo-Sa 10:00", "name": "USPS COLLECTION BOX - BLUE BOX", "nsi_id": "unitedstatespostalservice-a77078", "operator": "United States Postal Service", "operator:short": "USPS", "operator:type": "public", "operator:wikidata": "Q668687", "ref": "2090600035"}, "type": "Feature"}
{"dataset_attributes": {"@spider": "usps_collection_boxes", "spider:collection_time": "2023-09-28T08:25:18.406184"}, "geometry": {"coordinates": [-77.0782355, 39.082714], "type": "Point"}, "id": "0nOX35YOYX-7Qp7RSGxqjFZ7cIU=", "properties": {"@spider": "usps_collection_boxes", "addr:city": "SILVER SPRING", "addr:country": "US", "addr:full": "13975 CONNECTICUT AVE", "addr:postcode": "20906", "addr:state": "MD", "amenity": "post_box", "brand": "United States Postal Service", "brand:wikidata": "Q668687", "collection_times": "Mo-Sa 10:00", "name": "USPS COLLECTION BOX - BLUE BOX", "nsi_id": "unitedstatespostalservice-a77078", "operator": "United States Postal Service", "operator:short": "USPS", "operator:type": "public", "operator:wikidata": "Q668687", "ref": "2090600036"}, "type": "Feature"}
{"dataset_attributes": {"@spider": "usps_collection_boxes", "spider:collection_time": "2023-09-28T08:25:18.406184"}, "geometry": {"coordinates": [-77.080494, 39.079851], "type": "Point"}, "id": "Ckta7kh0zz8UNM_0mbhfXMymaQM=", "properties": {"@spider": "usps_collection_boxes", "addr:city": "SILVER SPRING", "addr:country": "US", "addr:full": "13751 CONNECTICUT AVE", "addr:postcode": "20906", "addr:state": "MD", "amenity": "post_box", "brand": "United States Postal Service", "brand:wikidata": "Q668687", "collection_times": "Mo-Sa 17:00", "name": "USPS COLLECTION BOX - BLUE BOX", "note": "ON 12/24 AND 12/31, THIS BOX MAY BE COLLECTED AS EARLY AS 12 NOON.", "nsi_id": "unitedstatespostalservice-a77078", "operator": "United States Postal Service", "operator:short": "USPS", "operator:type": "public", "operator:wikidata": "Q668687", "ref": "2090600038"}, "type": "Feature"}
{"dataset_attributes": {"@spider": "usps_collection_boxes", "spider:collection_time": "2023-09-28T08:25:18.406184"}, "geometry": {"coordinates": [-77.0777144, 39.052281], "type": "Point"}, "id": "SyulBg1hL2HUhj3eFA3iq8reINw=", "properties": {"@spider": "usps_collection_boxes", "addr:city": "SILVER SPRING", "addr:country": "US", "addr:full": "3950 FERRARA DR", "addr:postcode": "20906", "addr:state": "MD", "amenity": "post_box", "brand": "United States Postal Service", "brand:wikidata": "Q668687", "collection_times": "Mo-Sa 10:00", "name": "USPS COLLECTION BOX - BLUE BOX", "nsi_id": "unitedstatespostalservice-a77078", "operator": "United States Postal Service", "operator:short": "USPS", "operator:type": "public", "operator:wikidata": "Q668687", "ref": "2090600041"}, "type": "Feature"}
{"dataset_attributes": {"@spider": "usps_collection_boxes", "spider:collection_time": "2023-09-28T08:25:18.406184"}, "geometry": {"coordinates": [-77.0622984, 39.090534], "type": "Point"}, "id": "5s_VqGIwUvkg8Kax1QcPfcahsSQ=", "properties": {"@spider": "usps_collection_boxes", "addr:city": "SILVER SPRING", "addr:country": "US", "addr:full": "2924 BEL PRE RD", "addr:postcode": "20906", "addr:state": "MD", "amenity": "post_box", "brand": "United States Postal Service", "brand:wikidata": "Q668687", "collection_times": "Mo-Sa 10:00", "name": "USPS COLLECTION BOX - BLUE BOX", "nsi_id": "unitedstatespostalservice-a77078", "operator": "United States Postal Service", "operator:short": "USPS", "operator:type": "public", "operator:wikidata": "Q668687", "ref": "2090600042"}, "type": "Feature"}
{"dataset_attributes": {"@spider": "usps_collection_boxes", "spider:collection_time": "2023-09-28T08:25:18.406184"}, "geometry": {"coordinates": [-77.0674899, 39.098716], "type": "Point"}, "id": "N2zrbyxgdoQLerLWNnIp04LO3lU=", "properties": {"@spider": "usps_collection_boxes", "addr:city": "SILVER SPRING", "addr:country": "US", "addr:full": "3358 CHISWICK CT", "addr:postcode": "20906", "addr:state": "MD", "amenity": "post_box", "brand": "United States Postal Service", "brand:wikidata": "Q668687", "collection_times": "Mo-Sa 10:00", "name": "USPS COLLECTION BOX - BLUE BOX", "nsi_id": "unitedstatespostalservice-a77078", "operator": "United States Postal Service", "operator:short": "USPS", "operator:type": "public", "operator:wikidata": "Q668687", "ref": "2090600048"}, "type": "Feature"}
{"dataset_attributes": {"@spider": "usps_collection_boxes", "spider:collection_time": "2023-09-28T08:25:18.406184"}, "geometry": {"coordinates": [-77.0623666, 39.079964], "type": "Point"}, "id": "fQiaZzC9MkH49J7LLJXh-66te0Q=", "properties": {"@spider": "usps_collection_boxes", "addr:city": "SILVER SPRING", "addr:country": "US", "addr:full": "3020 HEWITT AVE", "addr:postcode": "20906", "addr:state": "MD", "amenity": "post_box", "brand": "United States Postal Service", "brand:wikidata": "Q668687", "collection_times": "Mo-Sa 10:00", "name": "USPS COLLECTION BOX - BLUE BOX", "nsi_id": "unitedstatespostalservice-a77078", "operator": "United States Postal Service", "operator:short": "USPS", "operator:type": "public", "operator:wikidata": "Q668687", "ref": "2090600058"}, "type": "Feature"}
{"dataset_attributes": {"@spider": "usps_collection_boxes", "spider:collection_time": "2023-09-28T08:25:18.406184"}, "geometry": {"coordinates": [-77.0757525, 39.091437], "type": "Point"}, "id": "xSznbTuWiacQxWtoHvLhshB_Yoo=", "properties": {"@spider": "usps_collection_boxes", "addr:city": "SILVER SPRING", "addr:country": "US", "addr:full": "3840 BEL PRE RD", "addr:postcode": "20906", "addr:state": "MD", "amenity": "post_box", "brand": "United States Postal Service", "brand:wikidata": "Q668687", "collection_times": "Mo-Sa 10:00", "name": "USPS COLLECTION BOX - BLUE BOX", "nsi_id": "unitedstatespostalservice-a77078", "operator": "United States Postal Service", "operator:short": "USPS", "operator:type": "public", "operator:wikidata": "Q668687", "ref": "2090600061"}, "type": "Feature"}
{"dataset_attributes": {"@spider": "usps_collection_boxes", "spider:collection_time": "2023-09-28T08:25:18.406184"}, "geometry": {"coordinates": [-77.066795223, 39.089075679], "type": "Point"}, "id": "0A_rM2UH5d96nBUkjx40pnKNlTk=", "properties": {"@spider": "usps_collection_boxes", "addr:city": "SILVER SPRING", "addr:country": "US", "addr:full": "14115 WEEPING WILLOW DR", "addr:postcode": "20906", "addr:state": "MD", "amenity": "post_box", "brand": "United States Postal Service", "brand:wikidata": "Q668687", "collection_times": "Mo-Sa 10:00", "name": "USPS COLLECTION BOX - BLUE BOX", "nsi_id": "unitedstatespostalservice-a77078", "operator": "United States Postal Service", "operator:short": "USPS", "operator:type": "public", "operator:wikidata": "Q668687", "ref": "2090600063"}, "type": "Feature"}
{"dataset_attributes": {"@spider": "usps_collection_boxes", "spider:collection_time": "2023-09-28T08:25:18.406184"}, "geometry": {"coordinates": [-77.0642207, 39.075058], "type": "Point"}, "id": "PrE46yXJ9LAAmNOOabRi8Oweqhc=", "properties": {"@spider": "usps_collection_boxes", "addr:city": "SILVER SPRING", "addr:country": "US", "addr:full": "3117 REGINA DR", "addr:postcode": "20906", "addr:state": "MD", "amenity": "post_box", "brand": "United States Postal Service", "brand:wikidata": "Q668687", "collection_times": "Mo-Sa 13:00", "name": "USPS COLLECTION BOX - BLUE BOX", "note": "ON 12/24 AND 12/31, THIS BOX MAY BE COLLECTED AS EARLY AS 12 NOON.", "nsi_id": "unitedstatespostalservice-a77078", "operator": "United States Postal Service", "operator:short": "USPS", "operator:type": "public", "operator:wikidata": "Q668687", "ref": "2090600065"}, "type": "Feature"}
{"dataset_attributes": {"@spider": "usps_collection_boxes", "spider:collection_time": "2023-09-28T08:25:18.406184"}, "geometry": {"coordinates": [-77.0793263, 39.090491], "type": "Point"}, "id": "ILQB0IRcLEd375gZPiejQAlOqx8=", "properties": {"@spider": "usps_collection_boxes", "addr:city": "SILVER SPRING", "addr:country": "US", "addr:full": "14231 GEORGIA AVE", "addr:postcode": "20906", "addr:state": "MD", "amenity": "post_box", "brand": "United States Postal Service", "brand:wikidata": "Q668687", "collection_times": "Mo-Sa 10:00", "name": "USPS COLLECTION BOX - BLUE BOX", "nsi_id": "unitedstatespostalservice-a77078", "operator": "United States Postal Service", "operator:short": "USPS", "operator:type": "public", "operator:wikidata": "Q668687", "ref": "2090600069"}, "type": "Feature"}
{"dataset_attributes": {"@spider": "usps_collection_boxes", "spider:collection_time": "2023-09-28T08:25:18.406184"}, "geometry": {"coordinates": [-77.0479488, 39.091548], "type": "Point"}, "id": "tKfWjWZIriSf7xrClQLmfAw7bEY=", "properties": {"@spider": "usps_collection_boxes", "addr:city": "SILVER SPRING", "addr:country": "US", "addr:full": "2255 BEL PRE RD", "addr:postcode": "20906", "addr:state": "MD", "amenity": "post_box", "brand": "United States Postal Service", "brand:wikidata": "Q668687", "collection_times": "Mo-Sa 10:00", "name": "USPS COLLECTION BOX - BLUE BOX", "nsi_id": "unitedstatespostalservice-a77078", "operator": "United States Postal Service", "operator:short": "USPS", "operator:type": "public", "operator:wikidata": "Q668687", "ref": "2090600073"}, "type": "Feature"}
{"dataset_attributes": {"@spider": "usps_collection_boxes", "spider:collection_time": "2023-09-28T08:25:18.406184"}, "geometry": {"coordinates": [-77.0742686, 39.086356], "type": "Point"}, "id": "Ypp9wUTxD97sP59TFzuYdxtPgjc=", "properties": {"@spider": "usps_collection_boxes", "addr:city": "SILVER SPRING", "addr:country": "US", "addr:full": "14030 CONNECTICUT AVE", "addr:postcode": "20906", "addr:state": "MD", "amenity": "post_box", "brand": "United States Postal Service", "brand:wikidata": "Q668687", "collection_times": "Mo-Sa 17:00", "name": "USPS COLLECTION BOX - BLUE BOX", "note": "ON 12/24 AND 12/31, THIS BOX MAY BE COLLECTED AS EARLY AS 12 NOON.", "nsi_id": "unitedstatespostalservice-a77078", "operator": "United States Postal Service", "operator:short": "USPS", "operator:type": "public", "operator:wikidata": "Q668687", "ref": "2090600074"}, "type": "Feature"}
{"dataset_attributes": {"@spider": "usps_collection_boxes", "spider:collection_time": "2023-09-28T08:25:18.406184"}, "geometry": {"coordinates": [-77.074436652, 39.085915796], "type": "Point"}, "id": "iYRK7kay03bCnxSCwhCfw4WCxfc=", "properties": {"@spider": "usps_collection_boxes", "addr:city": "SILVER SPRING", "addr:country": "US", "addr:full": "14030 CONNECTICUT AVE", "addr:postcode": "20906", "addr:state": "MD", "amenity": "post_box", "brand": "United States Postal Service", "brand:wikidata": "Q668687", "collection_times": "Mo-Sa 17:00", "name": "USPS COLLECTION BOX - BLUE BOX", "note": "ON 12/24 AND 12/31, THIS BOX MAY BE COLLECTED AS EARLY AS 12 NOON.", "nsi_id": "unitedstatespostalservice-a77078", "operator": "United States Postal Service", "operator:short": "USPS", "operator:type": "public", "operator:wikidata": "Q668687", "ref": "2090600076"}, "type": "Feature"}
{"dataset_attributes": {"@spider": "usps_collection_boxes", "spider:collection_time": "2023-09-28T08:25:18.406184"}, "geometry": {"coordinates": [-77.0465953, 39.088816], "type": "Point"}, "id": "-r2yrCEoKniTcn-gisxcGznMfzQ=", "properties": {"@spider": "usps_collection_boxes", "addr:city": "SILVER SPRING", "addr:country": "US", "addr:full": "14118 PARKER FARM WAY", "addr:postcode": "20906", "addr:state": "MD", "amenity": "post_box", "brand": "United States Postal Service", "brand:wikidata": "Q668687", "collection_times": "Mo-Sa 10:00", "name": "USPS COLLECTION BOX - BLUE BOX", "nsi_id": "unitedstatespostalservice-a77078", "operator": "United States Postal Service", "operator:short": "USPS", "operator:type": "public", "operator:wikidata": "Q668687", "ref": "2090600107"}, "type": "Feature"}
{"dataset_attributes": {"@spider": "usps_collection_boxes", "spider:collection_time": "2023-09-28T08:25:18.406184"}, "geometry": {"coordinates": [-77.0676699, 39.09557], "type": "Point"}, "id": "-YDMciG8JKF-FZsuExoiC9PtA5E=", "properties": {"@spider": "usps_collection_boxes", "addr:city": "SILVER SPRING", "addr:country": "US", "addr:full": "3435 S LEISURE WORLD BLVD", "addr:postcode": "20906", "addr:state": "MD", "amenity": "post_box", "brand": "United States Postal Service", "brand:wikidata": "Q668687", "collection_times": "Mo-Sa 10:00", "name": "USPS COLLECTION BOX - BLUE BOX", "nsi_id": "unitedstatespostalservice-a77078", "operator": "United States Postal Service", "operator:short": "USPS", "operator:type": "public", "operator:wikidata": "Q668687", "ref": "2090600109"}, "type": "Feature"}
{"dataset_attributes": {"@spider": "usps_collection_boxes", "spider:collection_time": "2023-09-28T08:25:18.406184"}, "geometry": {"coordinates": [-77.0738139, 39.099213], "type": "Point"}, "id": "2NLe4_MuCPO62qPcGV6cXxY_V9M=", "properties": {"@spider": "usps_collection_boxes", "addr:city": "SILVER SPRING", "addr:country": "US", "addr:full": "3603 S LEISURE WORLD BLVD", "addr:postcode": "20906", "addr:state": "MD", "amenity": "post_box", "brand": "United States Postal Service", "brand:wikidata": "Q668687", "collection_times": "Mo-Sa 15:00", "name": "USPS COLLECTION BOX - BLUE BOX", "note": "ON 12/24 AND 12/31, THIS BOX MAY BE COLLECTED AS EARLY AS 12 NOON.", "nsi_id": "unitedstatespostalservice-a77078", "operator": "United States Postal Service", "operator:short": "USPS", "operator:type": "public", "operator:wikidata": "Q668687", "ref": "2090600110"}, "type": "Feature"}
{"dataset_attributes": {"@spider": "usps_collection_boxes", "spider:collection_time": "2023-09-28T08:25:18.406184"}, "geometry": {"coordinates": [-77.0518650101, 39.0626770207], "type": "Point"}, "id": "IDUKQoIV18_NFjmKRiapO5Vuuwc=", "properties": {"@spider": "usps_collection_boxes", "addr:city": "SILVER SPRING", "addr:country": "US", "addr:full": "12501 GEORGIA AVE", "addr:postcode": "20906", "addr:state": "MD", "amenity": "post_box", "brand": "United States Postal Service", "brand:wikidata": "Q668687", "collection_times": "Mo-Sa 15:00", "name": "USPS COLLECTION BOX - BLUE BOX", "note": "ON 12/24 AND 12/31, THIS BOX MAY BE COLLECTED AS EARLY AS 12 NOON.", "nsi_id": "unitedstatespostalservice-a77078", "operator": "United States Postal Service", "operator:short": "USPS", "operator:type": "public", "operator:wikidata": "Q668687", "ref": "2090600111"}, "type": "Feature"}
{"dataset_attributes": {"@spider": "usps_collection_boxes", "spider:collection_time": "2023-09-28T08:25:18.406184"}, "geometry": {"coordinates": [-77.0752698317, 39.1036430447], "type": "Point"}, "id": "ohZ-GEK5CO3cMpbk20ewW9g-o38=", "properties": {"@spider": "usps_collection_boxes", "addr:city": "SILVER SPRING", "addr:country": "US", "addr:full": "3802 INTERNATIONAL DR", "addr:postcode": "20906", "addr:state": "MD", "amenity": "post_box", "brand": "United States Postal Service", "brand:wikidata": "Q668687", "collection_times": "Mo-Sa 17:00", "name": "USPS COLLECTION BOX - PO LOBBY", "note": "ON 12/24 AND 12/31, THIS BOX MAY BE COLLECTED AS EARLY AS 12 NOON.", "nsi_id": "unitedstatespostalservice-a77078", "operator": "United States Postal Service", "operator:short": "USPS", "operator:type": "public", "operator:wikidata": "Q668687", "ref": "2090600121"}, "type": "Feature"}
{"dataset_attributes": {"@spider": "usps_collection_boxes", "spider:collection_time": "2023-09-28T08:25:18.406184"}, "geometry": {"coordinates": [-77.0742092265, 39.086294604], "type": "Point"}, "id": "ASNGRvQNPnz0sT3BNnJe6qFXEKQ=", "properties": {"@spider": "usps_collection_boxes", "addr:city": "SILVER SPRING", "addr:country": "US", "addr:full": "14030 CONNECTICUT AVE", "addr:postcode": "20906", "addr:state": "MD", "amenity": "post_box", "brand": "United States Postal Service", "brand:wikidata": "Q668687", "collection_times": "Mo-Fr 17:00", "name": "USPS COLLECTION BOX - PO LOBBY", "note": "ON 12/24 AND 12/31, THIS BOX MAY BE COLLECTED AS EARLY AS 12 NOON.", "nsi_id": "unitedstatespostalservice-a77078", "operator": "United States Postal Service", "operator:short": "USPS", "operator:type": "public", "operator:wikidata": "Q668687", "ref": "2090600128"}, "type": "Feature"}
{"dataset_attributes": {"@spider": "usps_collection_boxes", "spider:collection_time": "2023-09-28T08:25:18.406184"}, "geometry": {"coordinates": [-77.0752698317, 39.1036430447], "type": "Point"}, "id": "7RYBvHHtz07XADRvKIacAIa_-Ro=", "properties": {"@spider": "usps_collection_boxes", "addr:city": "SILVER SPRING", "addr:country": "US", "addr:full": "3802 INTERNATIONAL DR", "addr:postcode": "20906", "addr:state": "MD", "amenity": "post_box", "brand": "United States Postal Service", "brand:wikidata": "Q668687", "collection_times": "Mo-Sa 17:00", "name": "USPS COLLECTION BOX - PO LOBBY", "note": "ON 12/24 AND 12/31, THIS BOX MAY BE COLLECTED AS EARLY AS 12 NOON.", "nsi_id": "unitedstatespostalservice-a77078", "operator": "United States Postal Service", "operator:short": "USPS", "operator:type": "public", "operator:wikidata": "Q668687", "ref": "2090600129"}, "type": "Feature"}
{"dataset_attributes": {"@spider": "usps_collection_boxes", "spider:collection_time": "2023-09-28T08:25:18.406184"}, "geometry": {"coordinates": [-77.049102, 39.060808988], "type": "Point"}, "id": "050h7Zfhrw28OutANqJHzZfVJ0c=", "properties": {"@spider": "usps_collection_boxes", "addr:city": "SILVER SPRING", "addr:country": "US", "addr:full": "12345 GEORGIA AVE", "addr:postcode": "20906", "addr:state": "MD", "amenity": "post_box", "brand": "United States Postal Service", "brand:wikidata": "Q668687", "collection_times": "Mo-Sa 12:00", "name": "USPS COLLECTION BOX - BLUE BOX", "nsi_id": "unitedstatespostalservice-a77078", "operator": "United States Postal Service", "operator:short": "USPS", "operator:type": "public", "operator:wikidata": "Q668687", "ref": "2090600130"}, "type": "Feature"}
{"dataset_attributes": {"@spider": "usps_collection_boxes", "spider:collection_time": "2023-09-28T08:25:18.406184"}, "geometry": {"coordinates": [-77.014084, 38.991197], "type": "Point"}, "id": "XsPFIhtZDTBy-b-VhoZO8WwwoHo=", "properties": {"@spider": "usps_collection_boxes", "addr:city": "SILVER SPRING", "addr:country": "US", "addr:full": "617 SLIGO AVE", "addr:postcode": "20910", "addr:state": "MD", "amenity": "post_box", "brand": "United States Postal Service", "brand:wikidata": "Q668687", "collection_times": "Mo-Sa 10:00", "name": "USPS COLLECTION BOX - BLUE BOX", "nsi_id": "unitedstatespostalservice-a77078", "operator": "United States Postal Service", "operator:short": "USPS", "operator:type": "public", "operator:wikidata": "Q668687", "ref": "2091000009"}, "type": "Feature"}
{"dataset_attributes": {"@spider": "usps_collection_boxes", "spider:collection_time": "2023-09-28T08:25:18.406184"}, "geometry": {"coordinates": [-77.0571539, 39.014825], "type": "Point"}, "id": "LWg5pe0UcnK80bCVm56ZmcfG28E=", "properties": {"@spider": "usps_collection_boxes", "addr:city": "SILVER SPRING", "addr:country": "US", "addr:full": "2900 LINDEN LN", "addr:postcode": "20910", "addr:state": "MD", "amenity": "post_box", "brand": "United States Postal Service", "brand:wikidata": "Q668687", "collection_times": "Mo-Sa 10:00", "name": "USPS COLLECTION BOX - BLUE BOX", "nsi_id": "unitedstatespostalservice-a77078", "operator": "United States Postal Service", "operator:short": "USPS", "operator:type": "public", "operator:wikidata": "Q668687", "ref": "2091000028"}, "type": "Feature"}
{"dataset_attributes": {"@spider": "usps_collection_boxes", "spider:collection_time": "2023-09-28T08:25:18.406184"}, "geometry": {"coordinates": [-77.0430382, 38.997718], "type": "Point"}, "id": "QNJbmcL_UYwkQuGI_VKAceR98Uw=", "properties": {"@spider": "usps_collection_boxes", "addr:city": "SILVER SPRING", "addr:country": "US", "addr:full": "1900 ROSEMARY HILLS DR", "addr:postcode": "20910", "addr:state": "MD", "amenity": "post_box", "brand": "United States Postal Service", "brand:wikidata": "Q668687", "collection_times": "Mo-Sa 10:00", "name": "USPS COLLECTION BOX - BLUE BOX", "nsi_id": "unitedstatespostalservice-a77078", "operator": "United States Postal Service", "operator:short": "USPS", "operator:type": "public", "operator:wikidata": "Q668687", "ref": "2091000043"}, "type": "Feature"}
{"dataset_attributes": {"@spider": "usps_collection_boxes", "spider:collection_time": "2023-09-28T08:25:18.406184"}, "geometry": {"coordinates": [-77.0202720245, 39.0025349795], "type": "Point"}, "id": "AuZJ2Q5y643q7QxNfqy7wY8s_uU=", "properties": {"@spider": "usps_collection_boxes", "addr:city": "SILVER SPRING", "addr:country": "US", "addr:full": "501 PERSHING DRIVE", "addr:postcode": "20910", "addr:state": "MD", "amenity": "post_box", "brand": "United States Postal Service", "brand:wikidata": "Q668687", "collection_times": "Mo-Sa 10:00", "name": "USPS COLLECTION BOX - BLUE BOX", "nsi_id": "unitedstatespostalservice-a77078", "operator": "United States Postal Service", "operator:short": "USPS", "operator:type": "public", "operator:wikidata": "Q668687", "ref": "2091000049"}, "type": "Feature"}
{"dataset_attributes": {"@spider": "usps_collection_boxes", "spider:collection_time": "2023-09-28T08:25:18.406184"}, "geometry": {"coordinates": [-77.043604, 39.014722], "type": "Point"}, "id": "CCXTbV1ZnhyyLY_pdW4RaSCMRtA=", "properties": {"@spider": "usps_collection_boxes", "addr:city": "SILVER SPRING", "addr:country": "US", "addr:full": "2102 COLERIDGE DR", "addr:postcode": "20910", "addr:state": "MD", "amenity": "post_box", "brand": "United States Postal Service", "brand:wikidata": "Q668687", "collection_times": "Mo-Sa 15:00", "name": "USPS COLLECTION BOX - BLUE BOX", "note": "ON 12/24 AND 12/31, THIS BOX MAY BE COLLECTED AS EARLY AS 12 NOON.", "nsi_id": "unitedstatespostalservice-a77078", "operator": "United States Postal Service", "operator:short": "USPS", "operator:type": "public", "operator:wikidata": "Q668687", "ref": "2091000072"}, "type": "Feature"}
{"dataset_attributes": {"@spider": "usps_collection_boxes", "spider:collection_time": "2023-09-28T08:25:18.406184"}, "geometry": {"coordinates": [-77.038973, 39.015592], "type": "Point"}, "id": "giyWp8-MbKmEVFKl7_mUd3lVoac=", "properties": {"@spider": "usps_collection_boxes", "addr:city": "SILVER SPRING", "addr:country": "US", "addr:full": "9728 ADMIRALTY DR", "addr:postcode": "20910", "addr:state": "MD", "amenity": "post_box", "brand": "United States Postal Service", "brand:wikidata": "Q668687", "collection_times": "Mo-Sa 13:00", "name": "USPS COLLECTION BOX - BLUE BOX", "note": "ON 12/24 AND 12/31, THIS BOX MAY BE COLLECTED AS EARLY AS 12 NOON.", "nsi_id": "unitedstatespostalservice-a77078", "operator": "United States Postal Service", "operator:short": "USPS", "operator:type": "public", "operator:wikidata": "Q668687", "ref": "2091000073"}, "type": "Feature"}
{"dataset_attributes": {"@spider": "usps_collection_boxes", "spider:collection_time": "2023-09-28T08:25:18.406184"}, "geometry": {"coordinates": [-77.0391933406, 38.9980368401], "type": "Point"}, "id": "bvM8xIyh_hqIGWxlYtB_v8DCyZI=", "properties": {"@spider": "usps_collection_boxes", "addr:city": "SILVER SPRING", "addr:country": "US", "addr:full": "8508 16TH ST", "addr:postcode": "20910", "addr:state": "MD", "amenity": "post_box", "brand": "United States Postal Service", "brand:wikidata": "Q668687", "collection_times": "Mo-Sa 10:00", "name": "USPS COLLECTION BOX - BLUE BOX", "nsi_id": "unitedstatespostalservice-a77078", "operator": "United States Postal Service", "operator:short": "USPS", "operator:type": "public", "operator:wikidata": "Q668687", "ref": "2091000076"}, "type": "Feature"}
{"dataset_attributes": {"@spider": "usps_collection_boxes", "spider:collection_time": "2023-09-28T08:25:18.406184"}, "geometry": {"coordinates": [-77.0372243, 38.995698], "type": "Point"}, "id": "q-X0XSwN9bmauwwtmUBYTLsdTGs=", "properties": {"@spider": "usps_collection_boxes", "addr:city": "SILVER SPRING", "addr:country": "US", "addr:full": "8500 16TH ST", "addr:postcode": "20910", "addr:state": "MD", "amenity": "post_box", "brand": "United States Postal Service", "brand:wikidata": "Q668687", "collection_times": "Mo-Sa 10:00", "name": "USPS COLLECTION BOX - BLUE BOX", "nsi_id": "unitedstatespostalservice-a77078", "operator": "United States Postal Service", "operator:short": "USPS", "operator:type": "public", "operator:wikidata": "Q668687", "ref": "2091000078"}, "type": "Feature"}
{"dataset_attributes": {"@spider": "usps_collection_boxes", "spider:collection_time": "2023-09-28T08:25:18.406184"}, "geometry": {"coordinates": [-77.0548449, 39.000527], "type": "Point"}, "id": "JpQOPNJN30NjquwaXoQDWLEKd_4=", "properties": {"@spider": "usps_collection_boxes", "addr:city": "SILVER SPRING", "addr:country": "US", "addr:full": "8814 BROOKVILLE RD", "addr:postcode": "20910", "addr:state": "MD", "amenity": "post_box", "brand": "United States Postal Service", "brand:wikidata": "Q668687", "collection_times": "Mo-Sa 15:00", "name": "USPS COLLECTION BOX - BLUE BOX", "note": "ON 12/24 AND 12/31, THIS BOX MAY BE COLLECTED AS EARLY AS 12 NOON.", "nsi_id": "unitedstatespostalservice-a77078", "operator": "United States Postal Service", "operator:short": "USPS", "operator:type": "public", "operator:wikidata": "Q668687", "ref": "2091000093"}, "type": "Feature"}
{"dataset_attributes": {"@spider": "usps_collection_boxes", "spider:collection_time": "2023-09-28T08:25:18.406184"}, "geometry": {"coordinates": [-77.047653275, 39.009396386], "type": "Point"}, "id": "MrN0hYeEf1Hu5impi5-eGxLiolA=", "properties": {"@spider": "usps_collection_boxes", "addr:city": "SILVER SPRING", "addr:country": "US", "addr:full": "9400  MONROE ST", "addr:postcode": "20910", "addr:state": "MD", "amenity": "post_box", "brand": "United States Postal Service", "brand:wikidata": "Q668687", "collection_times": "Mo-Sa 10:00", "name": "USPS COLLECTION BOX - BLUE BOX", "nsi_id": "unitedstatespostalservice-a77078", "operator": "United States Postal Service", "operator:short": "USPS", "operator:type": "public", "operator:wikidata": "Q668687", "ref": "2091000094"}, "type": "Feature"}
{"dataset_attributes": {"@spider": "usps_collection_boxes", "spider:collection_time": "2023-09-28T08:25:18.406184"}, "geometry": {"coordinates": [-77.025619, 39.000298], "type": "Point"}, "id": "TGEN2KV-22i0LT7tvcmQ7GWrpmA=", "properties": {"@spider": "usps_collection_boxes", "addr:city": "SILVER SPRING", "addr:country": "US", "addr:full": "8901 COLESVILLE RD", "addr:postcode": "20910", "addr:state": "MD", "amenity": "post_box", "brand": "United States Postal Service", "brand:wikidata": "Q668687", "collection_times": "Mo-Sa 10:00", "name": "USPS COLLECTION BOX - BLUE BOX", "nsi_id": "unitedstatespostalservice-a77078", "operator": "United States Postal Service", "operator:short": "USPS", "operator:type": "public", "operator:wikidata": "Q668687", "ref": "2091000101"}, "type": "Feature"}
{"dataset_attributes": {"@spider": "usps_collection_boxes", "spider:collection_time": "2023-09-28T08:25:18.406184"}, "geometry": {"coordinates": [-77.0478327, 39.000471], "type": "Point"}, "id": "KOhrtiWOgldJT8jzBMevTbHC9GM=", "properties": {"@spider": "usps_collection_boxes", "addr:city": "SILVER SPRING", "addr:country": "US", "addr:full": "8800 LANIER DR", "addr:postcode": "20910", "addr:state": "MD", "amenity": "post_box", "brand": "United States Postal Service", "brand:wikidata": "Q668687", "collection_times": "Mo-Sa 10:00", "name": "USPS COLLECTION BOX - BLUE BOX", "nsi_id": "unitedstatespostalservice-a77078", "operator": "United States Postal Service", "operator:short": "USPS", "operator:type": "public", "operator:wikidata": "Q668687", "ref": "2091000103"}, "type": "Feature"}
{"dataset_attributes": {"@spider": "usps_collection_boxes", "spider:collection_time": "2023-09-28T08:25:18.406184"}, "geometry": {"coordinates": [-77.045847059, 38.99634278], "type": "Point"}, "id": "Vq3IBHgFDZqUT65HetRV_Tqa18I=", "properties": {"@spider": "usps_collection_boxes", "addr:city": "SILVER SPRING", "addr:country": "US", "addr:full": "8512 SUNDALE DR", "addr:postcode": "20910", "addr:state": "MD", "amenity": "post_box", "brand": "United States Postal Service", "brand:wikidata": "Q668687", "collection_times": "Mo-Sa 10:00", "name": "USPS COLLECTION BOX - BLUE BOX", "nsi_id": "unitedstatespostalservice-a77078", "operator": "United States Postal Service", "operator:short": "USPS", "operator:type": "public", "operator:wikidata": "Q668687", "ref": "2091000104"}, "type": "Feature"}
{"dataset_attributes": {"@spider": "usps_collection_boxes", "spider:collection_time": "2023-09-28T08:25:18.406184"}, "geometry": {"coordinates": [-77.0422119, 38.995892], "type": "Point"}, "id": "k7c-b5sqxrF8067P6rUn_SQ8Yu4=", "properties": {"@spider": "usps_collection_boxes", "addr:city": "SILVER SPRING", "addr:country": "US", "addr:full": "1901 E WEST HWY", "addr:postcode": "20910", "addr:state": "MD", "amenity": "post_box", "brand": "United States Postal Service", "brand:wikidata": "Q668687", "collection_times": "Mo-Sa 10:00", "name": "USPS COLLECTION BOX - BLUE BOX", "nsi_id": "unitedstatespostalservice-a77078", "operator": "United States Postal Service", "operator:short": "USPS", "operator:type": "public", "operator:wikidata": "Q668687", "ref": "2091000114"}, "type": "Feature"}
{"dataset_attributes": {"@spider": "usps_collection_boxes", "spider:collection_time": "2023-09-28T08:25:18.406184"}, "geometry": {"coordinates": [-77.0392842, 38.998818], "type": "Point"}, "id": "JFbGMx33_QaydWR1TR5hpIDqy8Y=", "properties": {"@spider": "usps_collection_boxes", "addr:city": "SILVER SPRING", "addr:country": "US", "addr:full": "900 WAYNE AVE", "addr:postcode": "20910", "addr:state": "MD", "amenity": "post_box", "brand": "United States Postal Service", "brand:wikidata": "Q668687", "collection_times": "Mo-Fr 17:00; Sa 14:00", "name": "USPS COLLECTION BOX - BLUE BOX", "note": "ON 12/24 AND 12/31, THIS BOX MAY BE COLLECTED AS EARLY AS 12 NOON.", "nsi_id": "unitedstatespostalservice-a77078", "operator": "United States Postal Service", "operator:short": "USPS", "operator:type": "public", "operator:wikidata": "Q668687", "ref": "2091000145"}, "type": "Feature"}
{"dataset_attributes": {"@spider": "usps_collection_boxes", "spider:collection_time": "2023-09-28T08:25:18.406184"}, "geometry": {"coordinates": [-77.029949, 38.997742], "type": "Point"}, "id": "21HYWAmLajmyj-yisiTIMtRCfNY=", "properties": {"@spider": "usps_collection_boxes", "addr:city": "SILVER SPRING", "addr:country": "US", "addr:full": "8701 GEORGIA AVE", "addr:postcode": "20910", "addr:state": "MD", "amenity": "post_box", "brand": "United States Postal Service", "brand:wikidata": "Q668687", "collection_times": "Mo-Sa 14:00", "name": "USPS COLLECTION BOX - BLUE BOX", "note": "ON 12/24 AND 12/31, THIS BOX MAY BE COLLECTED AS EARLY AS 12 NOON.", "nsi_id": "unitedstatespostalservice-a77078", "operator": "United States Postal Service", "operator:short": "USPS", "operator:type": "public", "operator:wikidata": "Q668687", "ref": "2091000149"}, "type": "Feature"}
{"dataset_attributes": {"@spider": "usps_collection_boxes", "spider:collection_time": "2023-09-28T08:25:18.406184"}, "geometry": {"coordinates": [-77.023552, 38.990144], "type": "Point"}, "id": "W45wXLb9Iv_dEKHp2rygFCdOd1s=", "properties": {"@spider": "usps_collection_boxes", "addr:city": "SILVER SPRING", "addr:country": "US", "addr:full": "850 SLIGO AVE", "addr:postcode": "20910", "addr:state": "MD", "amenity": "post_box", "brand": "United States Postal Service", "brand:wikidata": "Q668687", "collection_times": "Mo-Sa 10:00", "name": "USPS COLLECTION BOX - BLUE BOX", "nsi_id": "unitedstatespostalservice-a77078", "operator": "United States Postal Service", "operator:short": "USPS", "operator:type": "public", "operator:wikidata": "Q668687", "ref": "2091000184"}, "type": "Feature"}
{"dataset_attributes": {"@spider": "usps_collection_boxes", "spider:collection_time": "2023-09-28T08:25:18.406184"}, "geometry": {"coordinates": [-77.0241471, 38.992089], "type": "Point"}, "id": "bZhZM9z-YL2_vMek-2z_Z3kT9h4=", "properties": {"@spider": "usps_collection_boxes", "addr:city": "SILVER SPRING", "addr:country": "US", "addr:full": "8204 FENTON ST", "addr:postcode": "20910", "addr:state": "MD", "amenity": "post_box", "brand": "United States Postal Service", "brand:wikidata": "Q668687", "collection_times": "Mo-Sa 15:00", "name": "USPS COLLECTION BOX - BLUE BOX", "note": "ON 12/24 AND 12/31, THIS BOX MAY BE COLLECTED AS EARLY AS 12 NOON.", "nsi_id": "unitedstatespostalservice-a77078", "operator": "United States Postal Service", "operator:short": "USPS", "operator:type": "public", "operator:wikidata": "Q668687", "ref": "2091000230"}, "type": "Feature"}
{"dataset_attributes": {"@spider": "usps_collection_boxes", "spider:collection_time": "2023-09-28T08:25:18.406184"}, "geometry": {"coordinates": [-77.0240499, 38.991388], "type": "Point"}, "id": "_at7LgMCjXMmTRmLImlJdUj1vfk=", "properties": {"@spider": "usps_collection_boxes", "addr:city": "SILVER SPRING", "addr:country": "US", "addr:full": "8120 FENTON ST", "addr:postcode": "20910", "addr:state": "MD", "amenity": "post_box", "brand": "United States Postal Service", "brand:wikidata": "Q668687", "collection_times": "Mo-Sa 15:00", "name": "USPS COLLECTION BOX - BLUE BOX", "note": "ON 12/24 AND 12/31, THIS BOX MAY BE COLLECTED AS EARLY AS 12 NOON.", "nsi_id": "unitedstatespostalservice-a77078", "operator": "United States Postal Service", "operator:short": "USPS", "operator:type": "public", "operator:wikidata": "Q668687", "ref": "2091000231"}, "type": "Feature"}
{"dataset_attributes": {"@spider": "usps_collection_boxes", "spider:collection_time": "2023-09-28T08:25:18.406184"}, "geometry": {"coordinates": [-77.028512, 38.996383], "type": "Point"}, "id": "Vyc8t8_XLLOz3ptkHIHaNp4DN8Y=", "properties": {"@spider": "usps_collection_boxes", "addr:city": "SILVER SPRING", "addr:country": "US", "addr:full": "8601 GEORGIA AVE", "addr:postcode": "20910", "addr:state": "MD", "amenity": "post_box", "brand": "United States Postal Service", "brand:wikidata": "Q668687", "collection_times": "Mo-Sa 14:00", "name": "USPS COLLECTION BOX - BLUE BOX", "note": "ON 12/24 AND 12/31, THIS BOX MAY BE COLLECTED AS EARLY AS 12 NOON.", "nsi_id": "unitedstatespostalservice-a77078", "operator": "United States Postal Service", "operator:short": "USPS", "operator:type": "public", "operator:wikidata": "Q668687", "ref": "2091000301"}, "type": "Feature"}
{"dataset_attributes": {"@spider": "usps_collection_boxes", "spider:collection_time": "2023-09-28T08:25:18.406184"}, "geometry": {"coordinates": [-77.030302, 38.998012], "type": "Point"}, "id": "rnVryajShuZOKrEvaXh0Ek1JyT0=", "properties": {"@spider": "usps_collection_boxes", "addr:city": "SILVER SPRING", "addr:country": "US", "addr:full": "8726 GEORGIA AVE", "addr:postcode": "20910", "addr:state": "MD", "amenity": "post_box", "brand": "United States Postal Service", "brand:wikidata": "Q668687", "collection_times": "Mo-Sa 10:00", "name": "USPS COLLECTION BOX - BLUE BOX", "nsi_id": "unitedstatespostalservice-a77078", "operator": "United States Postal Service", "operator:short": "USPS", "operator:type": "public", "operator:wikidata": "Q668687", "ref": "2091000329"}, "type": "Feature"}
{"dataset_attributes": {"@spider": "usps_collection_boxes", "spider:collection_time": "2023-09-28T08:25:18.406184"}, "geometry": {"coordinates": [-77.024684007, 38.998834998], "type": "Point"}, "id": "LFxCqW8LBDWLxzt32ZA49wT62g8=", "properties": {"@spider": "usps_collection_boxes", "addr:city": "SILVER SPRING", "addr:country": "US", "addr:full": "900 SPRING RD", "addr:postcode": "20910", "addr:state": "MD", "amenity": "post_box", "brand": "United States Postal Service", "brand:wikidata": "Q668687", "collection_times": "Mo-Sa 10:00", "name": "USPS COLLECTION BOX - BLUE BOX", "nsi_id": "unitedstatespostalservice-a77078", "operator": "United States Postal Service", "operator:short": "USPS", "operator:type": "public", "operator:wikidata": "Q668687", "ref": "2091000337"}, "type": "Feature"}
{"dataset_attributes": {"@spider": "usps_collection_boxes", "spider:collection_time": "2023-09-28T08:25:18.406184"}, "geometry": {"coordinates": [-77.0515153, 39.009713], "type": "Point"}, "id": "24bzJp4U7sKPt7Fcb_IJ5PONlaE=", "properties": {"@spider": "usps_collection_boxes", "addr:city": "SILVER SPRING", "addr:country": "US", "addr:full": "2413 LINDEN LN", "addr:postcode": "20910", "addr:state": "MD", "amenity": "post_box", "brand": "United States Postal Service", "brand:wikidata": "Q668687", "collection_times": "Mo-Sa 15:00", "name": "USPS COLLECTION BOX - BLUE BOX", "note": "ON 12/24 AND 12/31, THIS BOX MAY BE COLLECTED AS EARLY AS 12 NOON.", "nsi_id": "unitedstatespostalservice-a77078", "operator": "United States Postal Service", "operator:short": "USPS", "operator:type": "public", "operator:wikidata": "Q668687", "ref": "2091000338"}, "type": "Feature"}
{"dataset_attributes": {"@spider": "usps_collection_boxes", "spider:collection_time": "2023-09-28T08:25:18.406184"}, "geometry": {"coordinates": [-77.032342, 38.997867], "type": "Point"}, "id": "2b8MlpklI4s3EWO579dbhaPC2Hw=", "properties": {"@spider": "usps_collection_boxes", "addr:city": "SILVER SPRING", "addr:country": "US", "addr:full": "8708 1ST AVE", "addr:postcode": "20910", "addr:state": "MD", "amenity": "post_box", "brand": "United States Postal Service", "brand:wikidata": "Q668687", "collection_times": "Mo-Sa 10:00", "name": "USPS COLLECTION BOX - BLUE BOX", "nsi_id": "unitedstatespostalservice-a77078", "operator": "United States Postal Service", "operator:short": "USPS", "operator:type": "public", "operator:wikidata": "Q668687", "ref": "2091000342"}, "type": "Feature"}
{"dataset_attributes": {"@spider": "usps_collection_boxes", "spider:collection_time": "2023-09-28T08:25:18.406184"}, "geometry": {"coordinates": [-77.028464, 38.999838], "type": "Point"}, "id": "eZJ48nUlNs4WFvuDk1JyoGspx-4=", "properties": {"@spider": "usps_collection_boxes", "addr:city": "SILVER SPRING", "addr:country": "US", "addr:full": "1109 SPRING ST", "addr:postcode": "20910", "addr:state": "MD", "amenity": "post_box", "brand": "United States Postal Service", "brand:wikidata": "Q668687", "collection_times": "Mo-Sa 13:00", "name": "USPS COLLECTION BOX - BLUE BOX", "note": "ON 12/24 AND 12/31, THIS BOX MAY BE COLLECTED AS EARLY AS 12 NOON.", "nsi_id": "unitedstatespostalservice-a77078", "operator": "United States Postal Service", "operator:short": "USPS", "operator:type": "public", "operator:wikidata": "Q668687", "ref": "2091000343"}, "type": "Feature"}
{"dataset_attributes": {"@spider": "usps_collection_boxes", "spider:collection_time": "2023-09-28T08:25:18.406184"}, "geometry": {"coordinates": [-77.046208, 39.015504], "type": "Point"}, "id": "Rp96E02n3WQ36nwi5tNhfc68BkU=", "properties": {"@spider": "usps_collection_boxes", "addr:city": "SILVER SPRING", "addr:country": "US", "addr:full": "2201 FOREST GLEN RD", "addr:postcode": "20910", "addr:state": "MD", "amenity": "post_box", "brand": "United States Postal Service", "brand:wikidata": "Q668687", "collection_times": "Mo-Sa 15:00", "name": "USPS COLLECTION BOX - BLUE BOX", "note": "ON 12/24 AND 12/31, THIS BOX MAY BE COLLECTED AS EARLY AS 12 NOON.", "nsi_id": "unitedstatespostalservice-a77078", "operator": "United States Postal Service", "operator:short": "USPS", "operator:type": "public", "operator:wikidata": "Q668687", "ref": "2091000345"}, "type": "Feature"}
{"dataset_attributes": {"@spider": "usps_collection_boxes", "spider:collection_time": "2023-09-28T08:25:18.406184"}, "geometry": {"coordinates": [-77.025648, 38.998029], "type": "Point"}, "id": "M4slzQ7LA7S912_ZLyBWjXAzmSs=", "properties": {"@spider": "usps_collection_boxes", "addr:city": "SILVER SPRING", "addr:country": "US", "addr:full": "801 ROEDER RD", "addr:postcode": "20910", "addr:state": "MD", "amenity": "post_box", "brand": "United States Postal Service", "brand:wikidata": "Q668687", "collection_times": "Mo-Sa 13:00", "name": "USPS COLLECTION BOX - BLUE BOX", "note": "ON 12/24 AND 12/31, THIS BOX MAY BE COLLECTED AS EARLY AS 12 NOON.", "nsi_id": "unitedstatespostalservice-a77078", "operator": "United States Postal Service", "operator:short": "USPS", "operator:type": "public", "operator:wikidata": "Q668687", "ref": "2091000347"}, "type": "Feature"}
{"dataset_attributes": {"@spider": "usps_collection_boxes", "spider:collection_time": "2023-09-28T08:25:18.406184"}, "geometry": {"coordinates": [-77.0221726, 38.997046], "type": "Point"}, "id": "Z-zLXRA0mypmNyojkHz7Q0cZq6Q=", "properties": {"@spider": "usps_collection_boxes", "addr:city": "SILVER SPRING", "addr:country": "US", "addr:full": "801 WAYNE AVE", "addr:postcode": "20910", "addr:state": "MD", "amenity": "post_box", "brand": "United States Postal Service", "brand:wikidata": "Q668687", "collection_times": "Mo-Sa 10:00", "name": "USPS COLLECTION BOX - BLUE BOX", "nsi_id": "unitedstatespostalservice-a77078", "operator": "United States Postal Service", "operator:short": "USPS", "operator:type": "public", "operator:wikidata": "Q668687", "ref": "2091000349"}, "type": "Feature"}
{"dataset_attributes": {"@spider": "usps_collection_boxes", "spider:collection_time": "2023-09-28T08:25:18.406184"}, "geometry": {"coordinates": [-77.0234938, 38.991795], "type": "Point"}, "id": "O_ClDKB1CB1Sgi2syvLoWOI6S-s=", "properties": {"@spider": "usps_collection_boxes", "addr:city": "SILVER SPRING", "addr:country": "US", "addr:full": "817 SILVER SPRING AVE", "addr:postcode": "20910", "addr:state": "MD", "amenity": "post_box", "brand": "United States Postal Service", "brand:wikidata": "Q668687", "collection_times": "Mo-Sa 15:00", "name": "USPS COLLECTION BOX - BLUE BOX", "note": "ON 12/24 AND 12/31, THIS BOX MAY BE COLLECTED AS EARLY AS 12 NOON.", "nsi_id": "unitedstatespostalservice-a77078", "operator": "United States Postal Service", "operator:short": "USPS", "operator:type": "public", "operator:wikidata": "Q668687", "ref": "2091000350"}, "type": "Feature"}
{"dataset_attributes": {"@spider": "usps_collection_boxes", "spider:collection_time": "2023-09-28T08:25:18.406184"}, "geometry": {"coordinates": [-77.0262434, 38.994273], "type": "Point"}, "id": "49qPCHS5JK3O7t2q8u7D-v904uo=", "properties": {"@spider": "usps_collection_boxes", "addr:city": "SILVER SPRING", "addr:country": "US", "addr:full": "962 WAYNE AVE", "addr:postcode": "20910", "addr:state": "MD", "amenity": "post_box", "brand": "United States Postal Service", "brand:wikidata": "Q668687", "collection_times": "Mo-Sa 14:00", "name": "USPS COLLECTION BOX - BLUE BOX", "note": "ON 12/24 AND 12/31, THIS BOX MAY BE COLLECTED AS EARLY AS 12 NOON.", "nsi_id": "unitedstatespostalservice-a77078", "operator": "United States Postal Service", "operator:short": "USPS", "operator:type": "public", "operator:wikidata": "Q668687", "ref": "2091000352"}, "type": "Feature"}
{"dataset_attributes": {"@spider": "usps_collection_boxes", "spider:collection_time": "2023-09-28T08:25:18.406184"}, "geometry": {"coordinates": [-77.0279359, 38.993581], "type": "Point"}, "id": "8bMr1diJ6tqwcWqtN1TqTKkqSnk=", "properties": {"@spider": "usps_collection_boxes", "addr:city": "SILVER SPRING", "addr:country": "US", "addr:full": "1010 WAYNE AVE", "addr:postcode": "20910", "addr:state": "MD", "amenity": "post_box", "brand": "United States Postal Service", "brand:wikidata": "Q668687", "collection_times": "Mo-Sa 14:00", "name": "USPS COLLECTION BOX - BLUE BOX", "note": "ON 12/24 AND 12/31, THIS BOX MAY BE COLLECTED AS EARLY AS 12 NOON.", "nsi_id": "unitedstatespostalservice-a77078", "operator": "United States Postal Service", "operator:short": "USPS", "operator:type": "public", "operator:wikidata": "Q668687", "ref": "2091000353"}, "type": "Feature"}
{"dataset_attributes": {"@spider": "usps_collection_boxes", "spider:collection_time": "2023-09-28T08:25:18.406184"}, "geometry": {"coordinates": [-77.0279147, 38.993542], "type": "Point"}, "id": "-PKwtk1icgDA6H4_6doo9dQnM8E=", "properties": {"@spider": "usps_collection_boxes", "addr:city": "SILVER SPRING", "addr:country": "US", "addr:full": "1010 WAYNE AVE", "addr:postcode": "20910", "addr:state": "MD", "amenity": "post_box", "brand": "United States Postal Service", "brand:wikidata": "Q668687", "collection_times": "Mo-Sa 14:00", "name": "USPS COLLECTION BOX - BLUE BOX", "note": "ON 12/24 AND 12/31, THIS BOX MAY BE COLLECTED AS EARLY AS 12 NOON.", "nsi_id": "unitedstatespostalservice-a77078", "operator": "United States Postal Service", "operator:short": "USPS", "operator:type": "public", "operator:wikidata": "Q668687", "ref": "2091000354"}, "type": "Feature"}
{"dataset_attributes": {"@spider": "usps_collection_boxes", "spider:collection_time": "2023-09-28T08:25:18.406184"}, "geometry": {"coordinates": [-77.029588, 38.996537], "type": "Point"}, "id": "X4NLrukCWIWDwruagss39UnqseY=", "properties": {"@spider": "usps_collection_boxes", "addr:city": "SILVER SPRING", "addr:country": "US", "addr:full": "1110 FIDLER LN", "addr:postcode": "20910", "addr:state": "MD", "amenity": "post_box", "brand": "United States Postal Service", "brand:wikidata": "Q668687", "collection_times": "Mo-Sa 10:00", "name": "USPS COLLECTION BOX - BLUE BOX", "nsi_id": "unitedstatespostalservice-a77078", "operator": "United States Postal Service", "operator:short": "USPS", "operator:type": "public", "operator:wikidata": "Q668687", "ref": "2091000357"}, "type": "Feature"}
{"dataset_attributes": {"@spider": "usps_collection_boxes", "spider:collection_time": "2023-09-28T08:25:18.406184"}, "geometry": {"coordinates": [-77.0322200083, 38.9988650051], "type": "Point"}, "id": "3nQjdFdROyQwiguKXVCpCkJB7I4=", "properties": {"@spider": "usps_collection_boxes", "addr:city": "SILVER SPRING", "addr:country": "US", "addr:full": "1300 SPRING ST", "addr:postcode": "20910", "addr:state": "MD", "amenity": "post_box", "brand": "United States Postal Service", "brand:wikidata": "Q668687", "collection_times": "Mo-Sa 14:00", "name": "USPS COLLECTION BOX - BLUE BOX", "note": "ON 12/24 AND 12/31, THIS BOX MAY BE COLLECTED AS EARLY AS 12 NOON.", "nsi_id": "unitedstatespostalservice-a77078", "operator": "United States Postal Service", "operator:short": "USPS", "operator:type": "public", "operator:wikidata": "Q668687", "ref": "2091000362"}, "type": "Feature"}
{"dataset_attributes": {"@spider": "usps_collection_boxes", "spider:collection_time": "2023-09-28T08:25:18.406184"}, "geometry": {"coordinates": [-77.0322723, 38.996938], "type": "Point"}, "id": "TrabnAfukrygLtmmGljallPdFkI=", "properties": {"@spider": "usps_collection_boxes", "addr:city": "SILVER SPRING", "addr:country": "US", "addr:full": "1320 FENWICK LN", "addr:postcode": "20910", "addr:state": "MD", "amenity": "post_box", "brand": "United States Postal Service", "brand:wikidata": "Q668687", "collection_times": "Mo-Sa 14:00", "name": "USPS COLLECTION BOX - BLUE BOX", "note": "ON 12/24 AND 12/31, THIS BOX MAY BE COLLECTED AS EARLY AS 12 NOON.", "nsi_id": "unitedstatespostalservice-a77078", "operator": "United States Postal Service", "operator:short": "USPS", "operator:type": "public", "operator:wikidata": "Q668687", "ref": "2091000364"}, "type": "Feature"}
{"dataset_attributes": {"@spider": "usps_collection_boxes", "spider:collection_time": "2023-09-28T08:25:18.406184"}, "geometry": {"coordinates": [-77.032891, 38.99709], "type": "Point"}, "id": "PShNRAsVUUHEPxKlp2L5YpwxgOs=", "properties": {"@spider": "usps_collection_boxes", "addr:city": "SILVER SPRING", "addr:country": "US", "addr:full": "1400 FENWICK LN", "addr:postcode": "20910", "addr:state": "MD", "amenity": "post_box", "brand": "United States Postal Service", "brand:wikidata": "Q668687", "collection_times": "Mo-Sa 10:00", "name": "USPS COLLECTION BOX - BLUE BOX", "nsi_id": "unitedstatespostalservice-a77078", "operator": "United States Postal Service", "operator:short": "USPS", "operator:type": "public", "operator:wikidata": "Q668687", "ref": "2091000365"}, "type": "Feature"}
{"dataset_attributes": {"@spider": "usps_collection_boxes", "spider:collection_time": "2023-09-28T08:25:18.406184"}, "geometry": {"coordinates": [-77.033311, 38.994275], "type": "Point"}, "id": "FjDlx5mLwNBD4Gp64fAx7Fa6yes=", "properties": {"@spider": "usps_collection_boxes", "addr:city": "SILVER SPRING", "addr:country": "US", "addr:full": "1400 E WEST HWY", "addr:postcode": "20910", "addr:state": "MD", "amenity": "post_box", "brand": "United States Postal Service", "brand:wikidata": "Q668687", "collection_times": "Mo-Sa 10:00", "name": "USPS COLLECTION BOX - BLUE BOX", "nsi_id": "unitedstatespostalservice-a77078", "operator": "United States Postal Service", "operator:short": "USPS", "operator:type": "public", "operator:wikidata": "Q668687", "ref": "2091000367"}, "type": "Feature"}
{"dataset_attributes": {"@spider": "usps_collection_boxes", "spider:collection_time": "2023-09-28T08:25:18.406184"}, "geometry": {"coordinates": [-77.0409363, 39.001736], "type": "Point"}, "id": "Ju63GzcOzCXqmj68_yTfK3WTr6w=", "properties": {"@spider": "usps_collection_boxes", "addr:city": "SILVER SPRING", "addr:country": "US", "addr:full": "1900 LYTTONSVILLE RD", "addr:postcode": "20910", "addr:state": "MD", "amenity": "post_box", "brand": "United States Postal Service", "brand:wikidata": "Q668687", "collection_times": "Mo-Sa 10:00", "name": "USPS COLLECTION BOX - BLUE BOX", "nsi_id": "unitedstatespostalservice-a77078", "operator": "United States Postal Service", "operator:short": "USPS", "operator:type": "public", "operator:wikidata": "Q668687", "ref": "2091000371"}, "type": "Feature"}
{"dataset_attributes": {"@spider": "usps_collection_boxes", "spider:collection_time": "2023-09-28T08:25:18.406184"}, "geometry": {"coordinates": [-77.052976333, 38.999494882], "type": "Point"}, "id": "tt8TkA2Sv21jpkXXjoXS0OaeLgg=", "properties": {"@spider": "usps_collection_boxes", "addr:city": "SILVER SPRING", "addr:country": "US", "addr:full": "2445 LYTTONSVILLE RD", "addr:postcode": "20910", "addr:state": "MD", "amenity": "post_box", "brand": "United States Postal Service", "brand:wikidata": "Q668687", "collection_times": "Mo-Sa 10:00", "name": "USPS COLLECTION BOX - BLUE BOX", "nsi_id": "unitedstatespostalservice-a77078", "operator": "United States Postal Service", "operator:short": "USPS", "operator:type": "public", "operator:wikidata": "Q668687", "ref": "2091000372"}, "type": "Feature"}
{"dataset_attributes": {"@spider": "usps_collection_boxes", "spider:collection_time": "2023-09-28T08:25:18.406184"}, "geometry": {"coordinates": [-77.03139, 38.994117], "type": "Point"}, "id": "6A43XDMtUo7vfCLhgD8pnh84D3g=", "properties": {"@spider": "usps_collection_boxes", "addr:city": "SILVER SPRING", "addr:country": "US", "addr:full": "8403 COLESVILLE RD", "addr:postcode": "20910", "addr:state": "MD", "amenity": "post_box", "brand": "United States Postal Service", "brand:wikidata": "Q668687", "collection_times": "Mo-Sa 17:00", "name": "USPS COLLECTION BOX - BLUE BOX", "note": "ON 12/24 AND 12/31, THIS BOX MAY BE COLLECTED AS EARLY AS 12 NOON.", "nsi_id": "unitedstatespostalservice-a77078", "operator": "United States Postal Service", "operator:short": "USPS", "operator:type": "public", "operator:wikidata": "Q668687", "ref": "2091000376"}, "type": "Feature"}
{"dataset_attributes": {"@spider": "usps_collection_boxes", "spider:collection_time": "2023-09-28T08:25:18.406184"}, "geometry": {"coordinates": [-77.0357765, 38.995925], "type": "Point"}, "id": "DIo_3gNKMBmvBo-UVrhvcc6Llfg=", "properties": {"@spider": "usps_collection_boxes", "addr:city": "SILVER SPRING", "addr:country": "US", "addr:full": "8555 16TH ST", "addr:postcode": "20910", "addr:state": "MD", "amenity": "post_box", "brand": "United States Postal Service", "brand:wikidata": "Q668687", "collection_times": "Mo-Sa 11:00", "name": "USPS COLLECTION BOX - BLUE BOX", "nsi_id": "unitedstatespostalservice-a77078", "operator": "United States Postal Service", "operator:short": "USPS", "operator:type": "public", "operator:wikidata": "Q668687", "ref": "2091000386"}, "type": "Feature"}
{"dataset_attributes": {"@spider": "usps_collection_boxes", "spider:collection_time": "2023-09-28T08:25:18.406184"}, "geometry": {"coordinates": [-77.032279389, 38.997891544], "type": "Point"}, "id": "0AwqEk3XG6oCBKc4uZnpXQPwahU=", "properties": {"@spider": "usps_collection_boxes", "addr:city": "SILVER SPRING", "addr:country": "US", "addr:full": "8715 1ST AVE", "addr:postcode": "20910", "addr:state": "MD", "amenity": "post_box", "brand": "United States Postal Service", "brand:wikidata": "Q668687", "collection_times": "Mo-Sa 10:00", "name": "USPS COLLECTION BOX - BLUE BOX", "nsi_id": "unitedstatespostalservice-a77078", "operator": "United States Postal Service", "operator:short": "USPS", "operator:type": "public", "operator:wikidata": "Q668687", "ref": "2091000394"}, "type": "Feature"}
{"dataset_attributes": {"@spider": "usps_collection_boxes", "spider:collection_time": "2023-09-28T08:25:18.406184"}, "geometry": {"coordinates": [-77.030941, 38.998683], "type": "Point"}, "id": "KBtBfl-NP7TpGaz_cgMo73q3rp4=", "properties": {"@spider": "usps_collection_boxes", "addr:city": "SILVER SPRING", "addr:country": "US", "addr:full": "8777 GEORGIA AVE", "addr:postcode": "20910", "addr:state": "MD", "amenity": "post_box", "brand": "United States Postal Service", "brand:wikidata": "Q668687", "collection_times": "Mo-Sa 14:00", "name": "USPS COLLECTION BOX - BLUE BOX", "note": "ON 12/24 AND 12/31, THIS BOX MAY BE COLLECTED AS EARLY AS 12 NOON.", "nsi_id": "unitedstatespostalservice-a77078", "operator": "United States Postal Service", "operator:short": "USPS", "operator:type": "public", "operator:wikidata": "Q668687", "ref": "2091000401"}, "type": "Feature"}
{"dataset_attributes": {"@spider": "usps_collection_boxes", "spider:collection_time": "2023-09-28T08:25:18.406184"}, "geometry": {"coordinates": [-77.02589, 38.999578], "type": "Point"}, "id": "CiULKiheGwII9sJ94_8ZhBplWvI=", "properties": {"@spider": "usps_collection_boxes", "addr:city": "SILVER SPRING", "addr:country": "US", "addr:full": "8811 COLESVILLE RD", "addr:postcode": "20910", "addr:state": "MD", "amenity": "post_box", "brand": "United States Postal Service", "brand:wikidata": "Q668687", "collection_times": "Mo-Sa 10:00", "name": "USPS COLLECTION BOX - BLUE BOX", "nsi_id": "unitedstatespostalservice-a77078", "operator": "United States Postal Service", "operator:short": "USPS", "operator:type": "public", "operator:wikidata": "Q668687", "ref": "2091000403"}, "type": "Feature"}
{"dataset_attributes": {"@spider": "usps_collection_boxes", "spider:collection_time": "2023-09-28T08:25:18.406184"}, "geometry": {"coordinates": [-77.027319, 39.000218], "type": "Point"}, "id": "FRt5yb7B5de9_vtjsfbf9nxOT64=", "properties": {"@spider": "usps_collection_boxes", "addr:city": "SILVER SPRING", "addr:country": "US", "addr:full": "8830 CAMERON ST", "addr:postcode": "20910", "addr:state": "MD", "amenity": "post_box", "brand": "United States Postal Service", "brand:wikidata": "Q668687", "collection_times": "Mo-Sa 13:00", "name": "USPS COLLECTION BOX - BLUE BOX", "note": "ON 12/24 AND 12/31, THIS BOX MAY BE COLLECTED AS EARLY AS 12 NOON.", "nsi_id": "unitedstatespostalservice-a77078", "operator": "United States Postal Service", "operator:short": "USPS", "operator:type": "public", "operator:wikidata": "Q668687", "ref": "2091000404"}, "type": "Feature"}
{"dataset_attributes": {"@spider": "usps_collection_boxes", "spider:collection_time": "2023-09-28T08:25:18.406184"}, "geometry": {"coordinates": [-77.02679, 38.999236], "type": "Point"}, "id": "jaQ30R6ZAHT3eKZN-s-KF2irGig=", "properties": {"@spider": "usps_collection_boxes", "addr:city": "SILVER SPRING", "addr:country": "US", "addr:full": "1001 SPRING ST", "addr:postcode": "20910", "addr:state": "MD", "amenity": "post_box", "brand": "United States Postal Service", "brand:wikidata": "Q668687", "collection_times": "Mo-Sa 10:00", "name": "USPS COLLECTION BOX - BLUE BOX", "nsi_id": "unitedstatespostalservice-a77078", "operator": "United States Postal Service", "operator:short": "USPS", "operator:type": "public", "operator:wikidata": "Q668687", "ref": "2091000406"}, "type": "Feature"}
{"dataset_attributes": {"@spider": "usps_collection_boxes", "spider:collection_time": "2023-09-28T08:25:18.406184"}, "geometry": {"coordinates": [-77.0285259, 38.994537], "type": "Point"}, "id": "TFj0plth3HSwnKcM7tN0Mjf9p9w=", "properties": {"@spider": "usps_collection_boxes", "addr:city": "SILVER SPRING", "addr:country": "US", "addr:full": "1100 WAYNE AVE", "addr:postcode": "20910", "addr:state": "MD", "amenity": "post_box", "brand": "United States Postal Service", "brand:wikidata": "Q668687", "collection_times": "Mo-Sa 14:00", "name": "USPS COLLECTION BOX - BLUE BOX", "note": "ON 12/24 AND 12/31, THIS BOX MAY BE COLLECTED AS EARLY AS 12 NOON.", "nsi_id": "unitedstatespostalservice-a77078", "operator": "United States Postal Service", "operator:short": "USPS", "operator:type": "public", "operator:wikidata": "Q668687", "ref": "2091000417"}, "type": "Feature"}
{"dataset_attributes": {"@spider": "usps_collection_boxes", "spider:collection_time": "2023-09-28T08:25:18.406184"}, "geometry": {"coordinates": [-77.028512, 38.996383], "type": "Point"}, "id": "AYllRSF3Jv-OKHgyujxeYG7pKyI=", "properties": {"@spider": "usps_collection_boxes", "addr:city": "SILVER SPRING", "addr:country": "US", "addr:full": "8601 GEORGIA AVE", "addr:postcode": "20910", "addr:state": "MD", "amenity": "post_box", "brand": "United States Postal Service", "brand:wikidata": "Q668687", "collection_times": "Mo-Fr 14:00; Sa 16:00", "name": "USPS COLLECTION BOX - BLUE BOX", "note": "ON 12/24 AND 12/31, THIS BOX MAY BE COLLECTED AS EARLY AS 12 NOON.", "nsi_id": "unitedstatespostalservice-a77078", "operator": "United States Postal Service", "operator:short": "USPS", "operator:type": "public", "operator:wikidata": "Q668687", "ref": "2091000421"}, "type": "Feature"}
{"dataset_attributes": {"@spider": "usps_collection_boxes", "spider:collection_time": "2023-09-28T08:25:18.406184"}, "geometry": {"coordinates": [-77.025648, 38.998029], "type": "Point"}, "id": "b8UPv8NnyDoL2bmtsoydm4M0S4c=", "properties": {"@spider": "usps_collection_boxes", "addr:city": "SILVER SPRING", "addr:country": "US", "addr:full": "801 ROEDER RD", "addr:postcode": "20910", "addr:state": "MD", "amenity": "post_box", "brand": "United States Postal Service", "brand:wikidata": "Q668687", "collection_times": "Mo-Sa 15:00", "name": "USPS COLLECTION BOX - BLUE BOX", "note": "ON 12/24 AND 12/31, THIS BOX MAY BE COLLECTED AS EARLY AS 12 NOON.", "nsi_id": "unitedstatespostalservice-a77078", "operator": "United States Postal Service", "operator:short": "USPS", "operator:type": "public", "operator:wikidata": "Q668687", "ref": "2091000431"}, "type": "Feature"}
{"dataset_attributes": {"@spider": "usps_collection_boxes", "spider:collection_time": "2023-09-28T08:25:18.406184"}, "geometry": {"coordinates": [-77.017984, 38.99047], "type": "Point"}, "id": "nWJ5TqFMpXCmebscLHu1wROLaaM=", "properties": {"@spider": "usps_collection_boxes", "addr:city": "SILVER SPRING", "addr:country": "US", "addr:full": "714 SLIGO AVE", "addr:postcode": "20910", "addr:state": "MD", "amenity": "post_box", "brand": "United States Postal Service", "brand:wikidata": "Q668687", "collection_times": "Mo-Sa 10:00", "name": "USPS COLLECTION BOX - BLUE BOX", "nsi_id": "unitedstatespostalservice-a77078", "operator": "United States Postal Service", "operator:short": "USPS", "operator:type": "public", "operator:wikidata": "Q668687", "ref": "2091000436"}, "type": "Feature"}
{"dataset_attributes": {"@spider": "usps_collection_boxes", "spider:collection_time": "2023-09-28T08:25:18.406184"}, "geometry": {"coordinates": [-77.049397, 39.005903], "type": "Point"}, "id": "vy1TJVG9_MYlAqlwsemtf1xLo6s=", "properties": {"@spider": "usps_collection_boxes", "addr:city": "SILVER SPRING", "addr:country": "US", "addr:full": "9170 BROOKVILLE RD", "addr:postcode": "20910", "addr:state": "MD", "amenity": "post_box", "brand": "United States Postal Service", "brand:wikidata": "Q668687", "collection_times": "Mo-Sa 11:00", "name": "USPS COLLECTION BOX - BLUE BOX", "nsi_id": "unitedstatespostalservice-a77078", "operator": "United States Postal Service", "operator:short": "USPS", "operator:type": "public", "operator:wikidata": "Q668687", "ref": "2091000437"}, "type": "Feature"}
{"dataset_attributes": {"@spider": "usps_collection_boxes", "spider:collection_time": "2023-09-28T08:25:18.406184"}, "geometry": {"coordinates": [-77.0261390214, 38.9919159883], "type": "Point"}, "id": "ZfYgpiopfPYotzNKp41wOju_ZUU=", "properties": {"@spider": "usps_collection_boxes", "addr:city": "SILVER SPRING", "addr:country": "US", "addr:full": "8205 GEORGIA AVE", "addr:postcode": "20910", "addr:state": "MD", "amenity": "post_box", "brand": "United States Postal Service", "brand:wikidata": "Q668687", "collection_times": "Mo-Sa 11:00", "name": "USPS COLLECTION BOX - BLUE BOX", "nsi_id": "unitedstatespostalservice-a77078", "operator": "United States Postal Service", "operator:short": "USPS", "operator:type": "public", "operator:wikidata": "Q668687", "ref": "2091000439"}, "type": "Feature"}
{"dataset_attributes": {"@spider": "usps_collection_boxes", "spider:collection_time": "2023-09-28T08:25:18.406184"}, "geometry": {"coordinates": [-77.0246478081, 38.9952226317], "type": "Point"}, "id": "XdKzyQcFY-NA-tsvD6dwdATkIRI=", "properties": {"@spider": "usps_collection_boxes", "addr:city": "SILVER SPRING", "addr:country": "US", "addr:full": "900 WAYNE AVE", "addr:postcode": "20910", "addr:state": "MD", "amenity": "post_box", "brand": "United States Postal Service", "brand:wikidata": "Q668687", "collection_times": "Mo-Fr 17:00; Sa 15:00", "name": "USPS COLLECTION BOX - PO LOBBY", "note": "ON 12/24 AND 12/31, THIS BOX MAY BE COLLECTED AS EARLY AS 12 NOON.", "nsi_id": "unitedstatespostalservice-a77078", "operator": "United States Postal Service", "operator:short": "USPS", "operator:type": "public", "operator:wikidata": "Q668687", "ref": "2091000444"}, "type": "Feature"}
{"dataset_attributes": {"@spider": "usps_collection_boxes", "spider:collection_time": "2023-09-28T08:25:18.406184"}, "geometry": {"coordinates": [-77.0331153518, 39.0079028892], "type": "Point"}, "id": "g1mcPAbNinz6NmgaHSiHL0aL5AI=", "properties": {"@spider": "usps_collection_boxes", "addr:city": "SILVER SPRING", "addr:country": "US", "addr:full": "1400 DALE DR", "addr:postcode": "20910", "addr:state": "MD", "amenity": "post_box", "brand": "United States Postal Service", "brand:wikidata": "Q668687", "collection_times": "Mo-Sa 15:00", "name": "USPS COLLECTION BOX - BLUE BOX", "note": "ON 12/24 AND 12/31, THIS BOX MAY BE COLLECTED AS EARLY AS 12 NOON.", "nsi_id": "unitedstatespostalservice-a77078", "operator": "United States Postal Service", "operator:short": "USPS", "operator:type": "public", "operator:wikidata": "Q668687", "ref": "2091000446"}, "type": "Feature"}
{"dataset_attributes": {"@spider": "usps_collection_boxes", "spider:collection_time": "2023-09-28T08:25:18.406184"}, "geometry": {"coordinates": [-77.040460006, 39.008268998], "type": "Point"}, "id": "0QqyIoi2YgeIXBi2pefj9GdoN7U=", "properties": {"@spider": "usps_collection_boxes", "addr:city": "SILVER SPRING", "addr:country": "US", "addr:full": "1900 SEMINARY RD", "addr:postcode": "20910", "addr:state": "MD", "amenity": "post_box", "brand": "United States Postal Service", "brand:wikidata": "Q668687", "collection_times": "Mo-Sa 12:00", "name": "USPS COLLECTION BOX - BLUE BOX", "nsi_id": "unitedstatespostalservice-a77078", "operator": "United States Postal Service", "operator:short": "USPS", "operator:type": "public", "operator:wikidata": "Q668687", "ref": "2091000447"}, "type": "Feature"}
{"dataset_attributes": {"@spider": "usps_collection_boxes", "spider:collection_time": "2023-09-28T08:25:18.406184"}, "geometry": {"coordinates": [-77.0347049912, 38.9950939869], "type": "Point"}, "id": "j2jW1XvIfcNMvqHwenCQT8jnVDg=", "properties": {"@spider": "usps_collection_boxes", "addr:city": "SILVER SPRING", "addr:country": "US", "addr:full": "1521 E FALKLAND LN", "addr:postcode": "20910", "addr:state": "MD", "amenity": "post_box", "brand": "United States Postal Service", "brand:wikidata": "Q668687", "collection_times": "Mo-Sa 10:00", "name": "USPS COLLECTION BOX - BLUE BOX", "nsi_id": "unitedstatespostalservice-a77078", "operator": "United States Postal Service", "operator:short": "USPS", "operator:type": "public", "operator:wikidata": "Q668687", "ref": "2091000448"}, "type": "Feature"}
{"dataset_attributes": {"@spider": "usps_collection_boxes", "spider:collection_time": "2023-09-28T08:25:18.406184"}, "geometry": {"coordinates": [-76.994895, 38.994365], "type": "Point"}, "id": "T26e-gqz0n_9vNh0zEwAp3_JHhM=", "properties": {"@spider": "usps_collection_boxes", "addr:city": "SILVER SPRING", "addr:country": "US", "addr:full": "804 FORSTON ST", "addr:postcode": "20912", "addr:state": "MD", "amenity": "post_box", "brand": "United States Postal Service", "brand:wikidata": "Q668687", "collection_times": "Mo-Sa 10:00", "name": "USPS COLLECTION BOX - BLUE BOX", "nsi_id": "unitedstatespostalservice-a77078", "operator": "United States Postal Service", "operator:short": "USPS", "operator:type": "public", "operator:wikidata": "Q668687", "ref": "2091200002"}, "type": "Feature"}
{"dataset_attributes": {"@spider": "usps_collection_boxes", "spider:collection_time": "2023-09-28T08:25:18.406184"}, "geometry": {"coordinates": [-76.997158, 38.998432], "type": "Point"}, "id": "5ZDxwSgzkqOJ6L8KAcWseULWXUs=", "properties": {"@spider": "usps_collection_boxes", "addr:city": "SILVER SPRING", "addr:country": "US", "addr:full": "8707 BARRON ST", "addr:postcode": "20912", "addr:state": "MD", "amenity": "post_box", "brand": "United States Postal Service", "brand:wikidata": "Q668687", "collection_times": "Mo-Sa 10:00", "name": "USPS COLLECTION BOX - BLUE BOX", "nsi_id": "unitedstatespostalservice-a77078", "operator": "United States Postal Service", "operator:short": "USPS", "operator:type": "public", "operator:wikidata": "Q668687", "ref": "2091200003"}, "type": "Feature"}
{"dataset_attributes": {"@spider": "usps_collection_boxes", "spider:collection_time": "2023-09-28T08:25:18.406184"}, "geometry": {"coordinates": [-77.001379068, 38.995019696], "type": "Point"}, "id": "TmGD94kIQgoMFDLk5-ylYc-LML4=", "properties": {"@spider": "usps_collection_boxes", "addr:city": "SILVER SPRING", "addr:country": "US", "addr:full": "8501 GREENWOOD AVE", "addr:postcode": "20912", "addr:state": "MD", "amenity": "post_box", "brand": "United States Postal Service", "brand:wikidata": "Q668687", "collection_times": "Mo-Sa 10:00", "name": "USPS COLLECTION BOX - BLUE BOX", "nsi_id": "unitedstatespostalservice-a77078", "operator": "United States Postal Service", "operator:short": "USPS", "operator:type": "public", "operator:wikidata": "Q668687", "ref": "2091200004"}, "type": "Feature"}
{"dataset_attributes": {"@spider": "usps_collection_boxes", "spider:collection_time": "2023-09-28T08:25:18.406184"}, "geometry": {"coordinates": [-76.9989847, 38.98681], "type": "Point"}, "id": "vDXoaCGJEEz2YRggm5ywl5We9-k=", "properties": {"@spider": "usps_collection_boxes", "addr:city": "SILVER SPRING", "addr:country": "US", "addr:full": "7910 GREENWOOD AVE", "addr:postcode": "20912", "addr:state": "MD", "amenity": "post_box", "brand": "United States Postal Service", "brand:wikidata": "Q668687", "collection_times": "Mo-Sa 10:00", "name": "USPS COLLECTION BOX - BLUE BOX", "nsi_id": "unitedstatespostalservice-a77078", "operator": "United States Postal Service", "operator:short": "USPS", "operator:type": "public", "operator:wikidata": "Q668687", "ref": "2091200005"}, "type": "Feature"}
{"dataset_attributes": {"@spider": "usps_collection_boxes", "spider:collection_time": "2023-09-28T08:25:18.406184"}, "geometry": {"coordinates": [-77.0049730395, 38.9891670174], "type": "Point"}, "id": "RoRpJV60YB01OWgob2LvJ9Zd848=", "properties": {"@spider": "usps_collection_boxes", "addr:city": "SILVER SPRING", "addr:country": "US", "addr:full": "600 KENNEBEC AVE", "addr:postcode": "20912", "addr:state": "MD", "amenity": "post_box", "brand": "United States Postal Service", "brand:wikidata": "Q668687", "collection_times": "Mo-Sa 11:00", "name": "USPS COLLECTION BOX - BLUE BOX", "nsi_id": "unitedstatespostalservice-a77078", "operator": "United States Postal Service", "operator:short": "USPS", "operator:type": "public", "operator:wikidata": "Q668687", "ref": "2091200007"}, "type": "Feature"}
{"dataset_attributes": {"@spider": "usps_collection_boxes", "spider:collection_time": "2023-09-28T08:25:18.406184"}, "geometry": {"coordinates": [-77.002206, 38.992289], "type": "Point"}, "id": "sHXdKJmPdF-ueFKejxnihiIWQV8=", "properties": {"@spider": "usps_collection_boxes", "addr:city": "SILVER SPRING", "addr:country": "US", "addr:full": "8240 FLOWER AVE", "addr:postcode": "20912", "addr:state": "MD", "amenity": "post_box", "brand": "United States Postal Service", "brand:wikidata": "Q668687", "collection_times": "Mo-Sa 10:00", "name": "USPS COLLECTION BOX - BLUE BOX", "nsi_id": "unitedstatespostalservice-a77078", "operator": "United States Postal Service", "operator:short": "USPS", "operator:type": "public", "operator:wikidata": "Q668687", "ref": "2091200015"}, "type": "Feature"}
{"dataset_attributes": {"@spider": "usps_collection_boxes", "spider:collection_time": "2023-09-28T08:25:18.406184"}, "geometry": {"coordinates": [-77.003102, 38.996277], "type": "Point"}, "id": "M4h7aytcDgM7kzoiugcW_FRaqsE=", "properties": {"@spider": "usps_collection_boxes", "addr:city": "SILVER SPRING", "addr:country": "US", "addr:full": "8514 FLOWER AVE", "addr:postcode": "20912", "addr:state": "MD", "amenity": "post_box", "brand": "United States Postal Service", "brand:wikidata": "Q668687", "collection_times": "Mo-Sa 10:00", "name": "USPS COLLECTION BOX - BLUE BOX", "nsi_id": "unitedstatespostalservice-a77078", "operator": "United States Postal Service", "operator:short": "USPS", "operator:type": "public", "operator:wikidata": "Q668687", "ref": "2091200018"}, "type": "Feature"}
{"dataset_attributes": {"@spider": "usps_collection_boxes", "spider:collection_time": "2023-09-28T08:25:18.406184"}, "geometry": {"coordinates": [-76.996272, 38.986321], "type": "Point"}, "id": "sFPgW0qeWP9Rhnal61ewSfeoEnc=", "properties": {"@spider": "usps_collection_boxes", "addr:city": "SILVER SPRING", "addr:country": "US", "addr:full": "7800 CARROLL AVE", "addr:postcode": "20912", "addr:state": "MD", "amenity": "post_box", "brand": "United States Postal Service", "brand:wikidata": "Q668687", "collection_times": "Mo-Sa 10:00", "name": "USPS COLLECTION BOX - BLUE BOX", "nsi_id": "unitedstatespostalservice-a77078", "operator": "United States Postal Service", "operator:short": "USPS", "operator:type": "public", "operator:wikidata": "Q668687", "ref": "2091200019"}, "type": "Feature"}
{"dataset_attributes": {"@spider": "usps_collection_boxes", "spider:collection_time": "2023-09-28T08:25:18.406184"}, "geometry": {"coordinates": [-77.006008, 38.971134], "type": "Point"}, "id": "VC1ZfFjjZD9jnPNxyq0OG7erJ7s=", "properties": {"@spider": "usps_collection_boxes", "addr:city": "SILVER SPRING", "addr:country": "US", "addr:full": "6600 ALLEGHENY AVE", "addr:postcode": "20912", "addr:state": "MD", "amenity": "post_box", "brand": "United States Postal Service", "brand:wikidata": "Q668687", "collection_times": "Mo-Sa 14:30", "name": "USPS COLLECTION BOX - BLUE BOX", "note": "ON 12/24 AND 12/31, THIS BOX MAY BE COLLECTED AS EARLY AS 12 NOON.", "nsi_id": "unitedstatespostalservice-a77078", "operator": "United States Postal Service", "operator:short": "USPS", "operator:type": "public", "operator:wikidata": "Q668687", "ref": "2091200021"}, "type": "Feature"}
{"dataset_attributes": {"@spider": "usps_collection_boxes", "spider:collection_time": "2023-09-28T08:25:18.406184"}, "geometry": {"coordinates": [-76.9972091, 38.977885], "type": "Point"}, "id": "mtBGNOF7h0YglSPXsMoUYPcO1gs=", "properties": {"@spider": "usps_collection_boxes", "addr:city": "SILVER SPRING", "addr:country": "US", "addr:full": "506 LINCOLN AVE", "addr:postcode": "20912", "addr:state": "MD", "amenity": "post_box", "brand": "United States Postal Service", "brand:wikidata": "Q668687", "collection_times": "Mo-Sa 12:30", "name": "USPS COLLECTION BOX - BLUE BOX", "note": "ON 12/24 AND 12/31, THIS BOX MAY BE COLLECTED AS EARLY AS 12 NOON.", "nsi_id": "unitedstatespostalservice-a77078", "operator": "United States Postal Service", "operator:short": "USPS", "operator:type": "public", "operator:wikidata": "Q668687", "ref": "2091200028"}, "type": "Feature"}
{"dataset_attributes": {"@spider": "usps_collection_boxes", "spider:collection_time": "2023-09-28T08:25:18.406184"}, "geometry": {"coordinates": [-77.0000116, 38.979808], "type": "Point"}, "id": "MVb_12-nMqjN97SZTGVGr2-PGKY=", "properties": {"@spider": "usps_collection_boxes", "addr:city": "SILVER SPRING", "addr:country": "US", "addr:full": "403 LINCOLN AVE", "addr:postcode": "20912", "addr:state": "MD", "amenity": "post_box", "brand": "United States Postal Service", "brand:wikidata": "Q668687", "collection_times": "Mo-Sa 11:00", "name": "USPS COLLECTION BOX - BLUE BOX", "nsi_id": "unitedstatespostalservice-a77078", "operator": "United States Postal Service", "operator:short": "USPS", "operator:type": "public", "operator:wikidata": "Q668687", "ref": "2091200030"}, "type": "Feature"}
{"dataset_attributes": {"@spider": "usps_collection_boxes", "spider:collection_time": "2023-09-28T08:25:18.406184"}, "geometry": {"coordinates": [-76.9941714, 38.97852], "type": "Point"}, "id": "AjwkPap_5Bkn96mowtSFd7y1MEE=", "properties": {"@spider": "usps_collection_boxes", "addr:city": "SILVER SPRING", "addr:country": "US", "addr:full": "1001 ELM AVE", "addr:postcode": "20912", "addr:state": "MD", "amenity": "post_box", "brand": "United States Postal Service", "brand:wikidata": "Q668687", "collection_times": "Mo-Sa 10:00", "name": "USPS COLLECTION BOX - BLUE BOX", "nsi_id": "unitedstatespostalservice-a77078", "operator": "United States Postal Service", "operator:short": "USPS", "operator:type": "public", "operator:wikidata": "Q668687", "ref": "2091200031"}, "type": "Feature"}
{"dataset_attributes": {"@spider": "usps_collection_boxes", "spider:collection_time": "2023-09-28T08:25:18.406184"}, "geometry": {"coordinates": [-77.0125584822, 38.9741189203], "type": "Point"}, "id": "wX3JBBdPvl4bNAF2EftyRG5GqHc=", "properties": {"@spider": "usps_collection_boxes", "addr:city": "SILVER SPRING", "addr:country": "US", "addr:full": "6909 LAUREL AVE", "addr:postcode": "20912", "addr:state": "MD", "amenity": "post_box", "brand": "United States Postal Service", "brand:wikidata": "Q668687", "collection_times": "Mo-Sa 15:00", "name": "USPS COLLECTION BOX - BLUE BOX", "note": "ON 12/24 AND 12/31, THIS BOX MAY BE COLLECTED AS EARLY AS 12 NOON.", "nsi_id": "unitedstatespostalservice-a77078", "operator": "United States Postal Service", "operator:short": "USPS", "operator:type": "public", "operator:wikidata": "Q668687", "ref": "2091200032"}, "type": "Feature"}
{"dataset_attributes": {"@spider": "usps_collection_boxes", "spider:collection_time": "2023-09-28T08:25:18.406184"}, "geometry": {"coordinates": [-77.0102220387, 38.9746649838], "type": "Point"}, "id": "Vw05P6em2KXqYeJM6_gvM4CI7Zo=", "properties": {"@spider": "usps_collection_boxes", "addr:city": "SILVER SPRING", "addr:country": "US", "addr:full": "7051 CARROLL AVE", "addr:postcode": "20912", "addr:state": "MD", "amenity": "post_box", "brand": "United States Postal Service", "brand:wikidata": "Q668687", "collection_times": "Mo-Sa 10:00", "name": "USPS COLLECTION BOX - BLUE BOX", "nsi_id": "unitedstatespostalservice-a77078", "operator": "United States Postal Service", "operator:short": "USPS", "operator:type": "public", "operator:wikidata": "Q668687", "ref": "2091200034"}, "type": "Feature"}
{"dataset_attributes": {"@spider": "usps_collection_boxes", "spider:collection_time": "2023-09-28T08:25:18.406184"}, "geometry": {"coordinates": [-77.004706, 38.973847], "type": "Point"}, "id": "b1dynDsWbgfDpYuHKL3konLnDP0=", "properties": {"@spider": "usps_collection_boxes", "addr:city": "SILVER SPRING", "addr:country": "US", "addr:full": "301 ELM AVE", "addr:postcode": "20912", "addr:state": "MD", "amenity": "post_box", "brand": "United States Postal Service", "brand:wikidata": "Q668687", "collection_times": "Mo-Sa 13:00", "name": "USPS COLLECTION BOX - BLUE BOX", "note": "ON 12/24 AND 12/31, THIS BOX MAY BE COLLECTED AS EARLY AS 12 NOON.", "nsi_id": "unitedstatespostalservice-a77078", "operator": "United States Postal Service", "operator:short": "USPS", "operator:type": "public", "operator:wikidata": "Q668687", "ref": "2091200038"}, "type": "Feature"}
{"dataset_attributes": {"@spider": "usps_collection_boxes", "spider:collection_time": "2023-09-28T08:25:18.406184"}, "geometry": {"coordinates": [-76.999023, 38.97296], "type": "Point"}, "id": "_Rct5FWu3BzZuKtfWVPWtRQ1q54=", "properties": {"@spider": "usps_collection_boxes", "addr:city": "SILVER SPRING", "addr:country": "US", "addr:full": "407 BELFORD PL", "addr:postcode": "20912", "addr:state": "MD", "amenity": "post_box", "brand": "United States Postal Service", "brand:wikidata": "Q668687", "collection_times": "Mo-Sa 10:00", "name": "USPS COLLECTION BOX - BLUE BOX", "nsi_id": "unitedstatespostalservice-a77078", "operator": "United States Postal Service", "operator:short": "USPS", "operator:type": "public", "operator:wikidata": "Q668687", "ref": "2091200040"}, "type": "Feature"}
{"dataset_attributes": {"@spider": "usps_collection_boxes", "spider:collection_time": "2023-09-28T08:25:18.406184"}, "geometry": {"coordinates": [-76.997052, 38.976244], "type": "Point"}, "id": "VgSUoypE1TXYO1A6OS5TPf8f2hA=", "properties": {"@spider": "usps_collection_boxes", "addr:city": "SILVER SPRING", "addr:country": "US", "addr:full": "517 ETHAN ALLEN AVE", "addr:postcode": "20912", "addr:state": "MD", "amenity": "post_box", "brand": "United States Postal Service", "brand:wikidata": "Q668687", "collection_times": "Mo-Sa 15:00", "name": "USPS COLLECTION BOX - BLUE BOX", "note": "ON 12/24 AND 12/31, THIS BOX MAY BE COLLECTED AS EARLY AS 12 NOON.", "nsi_id": "unitedstatespostalservice-a77078", "operator": "United States Postal Service", "operator:short": "USPS", "operator:type": "public", "operator:wikidata": "Q668687", "ref": "2091200044"}, "type": "Feature"}
{"dataset_attributes": {"@spider": "usps_collection_boxes", "spider:collection_time": "2023-09-28T08:25:18.406184"}, "geometry": {"coordinates": [-77.0108299, 38.981772], "type": "Point"}, "id": "1-21FyXCaiiVLOof91wIqEdOx80=", "properties": {"@spider": "usps_collection_boxes", "addr:city": "SILVER SPRING", "addr:country": "US", "addr:full": "7500 MAPLE AVE", "addr:postcode": "20912", "addr:state": "MD", "amenity": "post_box", "brand": "United States Postal Service", "brand:wikidata": "Q668687", "collection_times": "Mo-Sa 10:00", "name": "USPS COLLECTION BOX - BLUE BOX", "nsi_id": "unitedstatespostalservice-a77078", "operator": "United States Postal Service", "operator:short": "USPS", "operator:type": "public", "operator:wikidata": "Q668687", "ref": "2091200046"}, "type": "Feature"}
{"dataset_attributes": {"@spider": "usps_collection_boxes", "spider:collection_time": "2023-09-28T08:25:18.406184"}, "geometry": {"coordinates": [-77.013377, 38.976978], "type": "Point"}, "id": "gYLDGnHE_MObQ-EbsC7i6Lau0_w=", "properties": {"@spider": "usps_collection_boxes", "addr:city": "SILVER SPRING", "addr:country": "US", "addr:full": "7200 MAPLE AVE", "addr:postcode": "20912", "addr:state": "MD", "amenity": "post_box", "brand": "United States Postal Service", "brand:wikidata": "Q668687", "collection_times": "Mo-Sa 10:00", "name": "USPS COLLECTION BOX - BLUE BOX", "nsi_id": "unitedstatespostalservice-a77078", "operator": "United States Postal Service", "operator:short": "USPS", "operator:type": "public", "operator:wikidata": "Q668687", "ref": "2091200049"}, "type": "Feature"}
{"dataset_attributes": {"@spider": "usps_collection_boxes", "spider:collection_time": "2023-09-28T08:25:18.406184"}, "geometry": {"coordinates": [-76.9887631, 38.983478], "type": "Point"}, "id": "g1p3PE0wfuqKdhulXGa60Fv6law=", "properties": {"@spider": "usps_collection_boxes", "addr:city": "SILVER SPRING", "addr:country": "US", "addr:full": "7400 NEW HAMPSHIRE AVE", "addr:postcode": "20912", "addr:state": "MD", "amenity": "post_box", "brand": "United States Postal Service", "brand:wikidata": "Q668687", "collection_times": "Mo-Fr 15:00; Sa 15:15", "name": "USPS COLLECTION BOX - BLUE BOX", "note": "ON 12/24 AND 12/31, THIS BOX MAY BE COLLECTED AS EARLY AS 12 NOON.", "nsi_id": "unitedstatespostalservice-a77078", "operator": "United States Postal Service", "operator:short": "USPS", "operator:type": "public", "operator:wikidata": "Q668687", "ref": "2091200053"}, "type": "Feature"}
{"dataset_attributes": {"@spider": "usps_collection_boxes", "spider:collection_time": "2023-09-28T08:25:18.406184"}, "geometry": {"coordinates": [-77.005977, 38.978237], "type": "Point"}, "id": "Z0EtA1pXg4th6Vw7LI00_Lg7Gn0=", "properties": {"@spider": "usps_collection_boxes", "addr:city": "SILVER SPRING", "addr:country": "US", "addr:full": "7300 CARROLL AVE", "addr:postcode": "20912", "addr:state": "MD", "amenity": "post_box", "brand": "United States Postal Service", "brand:wikidata": "Q668687", "collection_times": "Mo-Sa 10:00", "name": "USPS COLLECTION BOX - BLUE BOX", "nsi_id": "unitedstatespostalservice-a77078", "operator": "United States Postal Service", "operator:short": "USPS", "operator:type": "public", "operator:wikidata": "Q668687", "ref": "2091200061"}, "type": "Feature"}
{"dataset_attributes": {"@spider": "usps_collection_boxes", "spider:collection_time": "2023-09-28T08:25:18.406184"}, "geometry": {"coordinates": [-76.9932413, 38.976572], "type": "Point"}, "id": "enQjyCSGa_-ScW0yUEmoQFhcWHQ=", "properties": {"@spider": "usps_collection_boxes", "addr:city": "SILVER SPRING", "addr:country": "US", "addr:full": "6912 NEW HAMPSHIRE AVE", "addr:postcode": "20912", "addr:state": "MD", "amenity": "post_box", "brand": "United States Postal Service", "brand:wikidata": "Q668687", "collection_times": "Mo-Sa 14:30", "name": "USPS COLLECTION BOX - BLUE BOX", "note": "ON 12/24 AND 12/31, THIS BOX MAY BE COLLECTED AS EARLY AS 12 NOON.", "nsi_id": "unitedstatespostalservice-a77078", "operator": "United States Postal Service", "operator:short": "USPS", "operator:type": "public", "operator:wikidata": "Q668687", "ref": "2091200065"}, "type": "Feature"}
{"dataset_attributes": {"@spider": "usps_collection_boxes", "spider:collection_time": "2023-09-28T08:25:18.406184"}, "geometry": {"coordinates": [-77.005027, 38.984626], "type": "Point"}, "id": "al9lKpdt9x1eZHyEZeQFys2F1Ls=", "properties": {"@spider": "usps_collection_boxes", "addr:city": "SILVER SPRING", "addr:country": "US", "addr:full": "7777 MAPLE AVE", "addr:postcode": "20912", "addr:state": "MD", "amenity": "post_box", "brand": "United States Postal Service", "brand:wikidata": "Q668687", "collection_times": "Mo-Sa 10:00", "name": "USPS COLLECTION BOX - BLUE BOX", "nsi_id": "unitedstatespostalservice-a77078", "operator": "United States Postal Service", "operator:short": "USPS", "operator:type": "public", "operator:wikidata": "Q668687", "ref": "2091200073"}, "type": "Feature"}
{"dataset_attributes": {"@spider": "usps_collection_boxes", "spider:collection_time": "2023-09-28T08:25:18.406184"}, "geometry": {"coordinates": [-77.005821, 38.983756], "type": "Point"}, "id": "GFBdseae_zNa8yiKgVAFnbGDKUQ=", "properties": {"@spider": "usps_collection_boxes", "addr:city": "SILVER SPRING", "addr:country": "US", "addr:full": "7620 MAPLE AVE", "addr:postcode": "20912", "addr:state": "MD", "amenity": "post_box", "brand": "United States Postal Service", "brand:wikidata": "Q668687", "collection_times": "Mo-Sa 10:00", "name": "USPS COLLECTION BOX - BLUE BOX", "nsi_id": "unitedstatespostalservice-a77078", "operator": "United States Postal Service", "operator:short": "USPS", "operator:type": "public", "operator:wikidata": "Q668687", "ref": "2091200074"}, "type": "Feature"}
{"dataset_attributes": {"@spider": "usps_collection_boxes", "spider:collection_time": "2023-09-28T08:25:18.406184"}, "geometry": {"coordinates": [-77.013882, 38.975417], "type": "Point"}, "id": "gbw_uzsT82vE2nUFf35t9eYCKZ4=", "properties": {"@spider": "usps_collection_boxes", "addr:city": "SILVER SPRING", "addr:country": "US", "addr:full": "6930 CARROLL AVE", "addr:postcode": "20912", "addr:state": "MD", "amenity": "post_box", "brand": "United States Postal Service", "brand:wikidata": "Q668687", "collection_times": "Mo-Sa 10:00", "name": "USPS COLLECTION BOX - BLUE BOX", "nsi_id": "unitedstatespostalservice-a77078", "operator": "United States Postal Service", "operator:short": "USPS", "operator:type": "public", "operator:wikidata": "Q668687", "ref": "2091200075"}, "type": "Feature"}
{"dataset_attributes": {"@spider": "usps_collection_boxes", "spider:collection_time": "2023-09-28T08:25:18.406184"}, "geometry": {"coordinates": [-77.0002007, 38.98455], "type": "Point"}, "id": "yigKTVXTHn-2tvPseCX_VdCMFKg=", "properties": {"@spider": "usps_collection_boxes", "addr:city": "SILVER SPRING", "addr:country": "US", "addr:full": "7610 CARROLL AVE", "addr:postcode": "20912", "addr:state": "MD", "amenity": "post_box", "brand": "United States Postal Service", "brand:wikidata": "Q668687", "collection_times": "Mo-Sa 15:00", "name": "USPS COLLECTION BOX - BLUE BOX", "note": "ON 12/24 AND 12/31, THIS BOX MAY BE COLLECTED AS EARLY AS 12 NOON.", "nsi_id": "unitedstatespostalservice-a77078", "operator": "United States Postal Service", "operator:short": "USPS", "operator:type": "public", "operator:wikidata": "Q668687", "ref": "2091200076"}, "type": "Feature"}
{"dataset_attributes": {"@spider": "usps_collection_boxes", "spider:collection_time": "2023-09-28T08:25:18.406184"}, "geometry": {"coordinates": [-77.00744, 38.982674], "type": "Point"}, "id": "HnV6V-ovFyPwteUlogmrRlTof3Q=", "properties": {"@spider": "usps_collection_boxes", "addr:city": "SILVER SPRING", "addr:country": "US", "addr:full": "7600 MAPLE AVE", "addr:postcode": "20912", "addr:state": "MD", "amenity": "post_box", "brand": "United States Postal Service", "brand:wikidata": "Q668687", "collection_times": "Mo-Sa 12:30", "name": "USPS COLLECTION BOX - BLUE BOX", "note": "ON 12/24 AND 12/31, THIS BOX MAY BE COLLECTED AS EARLY AS 12 NOON.", "nsi_id": "unitedstatespostalservice-a77078", "operator": "United States Postal Service", "operator:short": "USPS", "operator:type": "public", "operator:wikidata": "Q668687", "ref": "2091200080"}, "type": "Feature"}
{"dataset_attributes": {"@spider": "usps_collection_boxes", "spider:collection_time": "2023-09-28T08:25:18.406184"}, "geometry": {"coordinates": [-76.9876057, 38.987352], "type": "Point"}, "id": "0rt8sa_Xn17G44aoUiotUI7B3Eg=", "properties": {"@spider": "usps_collection_boxes", "addr:city": "SILVER SPRING", "addr:country": "US", "addr:full": "7653 NEW HAMPSHIRE AVE", "addr:postcode": "20912", "addr:state": "MD", "amenity": "post_box", "brand": "United States Postal Service", "brand:wikidata": "Q668687", "collection_times": "Mo-Sa 12:30", "name": "USPS COLLECTION BOX - BLUE BOX", "note": "ON 12/24 AND 12/31, THIS BOX MAY BE COLLECTED AS EARLY AS 12 NOON.", "nsi_id": "unitedstatespostalservice-a77078", "operator": "United States Postal Service", "operator:short": "USPS", "operator:type": "public", "operator:wikidata": "Q668687", "ref": "2091200082"}, "type": "Feature"}
{"dataset_attributes": {"@spider": "usps_collection_boxes", "spider:collection_time": "2023-09-28T08:25:18.406184"}, "geometry": {"coordinates": [-76.988287, 38.983355], "type": "Point"}, "id": "Shn1PQwX133dUKjBDgP_xeP-G58=", "properties": {"@spider": "usps_collection_boxes", "addr:city": "SILVER SPRING", "addr:country": "US", "addr:full": "7401 NEW HAMPSHIRE AVE", "addr:postcode": "20912", "addr:state": "MD", "amenity": "post_box", "brand": "United States Postal Service", "brand:wikidata": "Q668687", "collection_times": "Mo-Sa 10:00", "name": "USPS COLLECTION BOX - BLUE BOX", "nsi_id": "unitedstatespostalservice-a77078", "operator": "United States Postal Service", "operator:short": "USPS", "operator:type": "public", "operator:wikidata": "Q668687", "ref": "2091200085"}, "type": "Feature"}
{"dataset_attributes": {"@spider": "usps_collection_boxes", "spider:collection_time": "2023-09-28T08:25:18.406184"}, "geometry": {"coordinates": [-76.98857, 38.987352], "type": "Point"}, "id": "clYco7pcEw7uveYPIrVfcfsW0CE=", "properties": {"@spider": "usps_collection_boxes", "addr:city": "SILVER SPRING", "addr:country": "US", "addr:full": "7676 NEW HAMPSHIRE AVE", "addr:postcode": "20912", "addr:state": "MD", "amenity": "post_box", "brand": "United States Postal Service", "brand:wikidata": "Q668687", "collection_times": "Mo-Sa 10:00", "name": "USPS COLLECTION BOX - BLUE BOX", "nsi_id": "unitedstatespostalservice-a77078", "operator": "United States Postal Service", "operator:short": "USPS", "operator:type": "public", "operator:wikidata": "Q668687", "ref": "2091200086"}, "type": "Feature"}
{"dataset_attributes": {"@spider": "usps_collection_boxes", "spider:collection_time": "2023-09-28T08:25:18.406184"}, "geometry": {"coordinates": [-77.0125584822, 38.9741189203], "type": "Point"}, "id": "8qAFXixftCHXLIbpG3AX5dhZWEE=", "properties": {"@spider": "usps_collection_boxes", "addr:city": "SILVER SPRING", "addr:country": "US", "addr:full": "6909 LAUREL AVE", "addr:postcode": "20912", "addr:state": "MD", "amenity": "post_box", "brand": "United States Postal Service", "brand:wikidata": "Q668687", "collection_times": "Mo-Fr 17:00; Sa 15:00", "name": "USPS COLLECTION BOX - PO LOBBY", "note": "ON 12/24 AND 12/31, THIS BOX MAY BE COLLECTED AS EARLY AS 12 NOON.", "nsi_id": "unitedstatespostalservice-a77078", "operator": "United States Postal Service", "operator:short": "USPS", "operator:type": "public", "operator:wikidata": "Q668687", "ref": "2091200087"}, "type": "Feature"}
{"dataset_attributes": {"@spider": "usps_collection_boxes", "spider:collection_time": "2023-09-28T08:25:18.406184"}, "geometry": {"coordinates": [-77.0125584822, 38.9741189203], "type": "Point"}, "id": "C-tQyyHOUUmW-vABvIxcIuWEJbA=", "properties": {"@spider": "usps_collection_boxes", "addr:city": "SILVER SPRING", "addr:country": "US", "addr:full": "6909 LAUREL AVE", "addr:postcode": "20912", "addr:state": "MD", "amenity": "post_box", "brand": "United States Postal Service", "brand:wikidata": "Q668687", "collection_times": "Mo-Fr 17:00; Sa 15:00", "name": "USPS COLLECTION BOX - PO LOBBY", "note": "ON 12/24 AND 12/31, THIS BOX MAY BE COLLECTED AS EARLY AS 12 NOON.", "nsi_id": "unitedstatespostalservice-a77078", "operator": "United States Postal Service", "operator:short": "USPS", "operator:type": "public", "operator:wikidata": "Q668687", "ref": "2091200088"}, "type": "Feature"}
{"dataset_attributes": {"@spider": "usps_collection_boxes", "spider:collection_time": "2023-09-28T08:25:18.406184"}, "geometry": {"coordinates": [-77.0125584822, 38.9741189203], "type": "Point"}, "id": "Odmh-ugebsjh7l2qxR3iQI8n8Y4=", "properties": {"@spider": "usps_collection_boxes", "addr:city": "SILVER SPRING", "addr:country": "US", "addr:full": "6909 LAUREL AVE", "addr:postcode": "20912", "addr:state": "MD", "amenity": "post_box", "brand": "United States Postal Service", "brand:wikidata": "Q668687", "collection_times": "Mo-Fr 17:00; Sa 15:00", "name": "USPS COLLECTION BOX - PO LOBBY", "note": "ON 12/24 AND 12/31, THIS BOX MAY BE COLLECTED AS EARLY AS 12 NOON.", "nsi_id": "unitedstatespostalservice-a77078", "operator": "United States Postal Service", "operator:short": "USPS", "operator:type": "public", "operator:wikidata": "Q668687", "ref": "2091200089"}, "type": "Feature"}
