{"geometry": {"coordinates": [-76.885827069, 39.660749797], "type": "Point"}, "id": "rM-E1dNfRNutGj4v1r2oEyyZ32c=", "properties": {"@source_uri": "https://tools.usps.com/UspsToolsRestServices/rest/POLocator/findLocations", "@spider": "usps_collection_boxes", "addr:city": "MANCHESTER", "addr:country": "US", "addr:postcode": "21102", "addr:state": "MD", "addr:street_address": "3100 WESTMINSTER ST", "amenity": "post_box", "collection_times": "Mo-Fr 17:00; Sa 13:00", "note": "ON 12/24 AND 12/31, THIS BOX MAY BE COLLECTED AS EARLY AS 12 NOON.", "nsi_id": "unitedstatespostalservice-a77078", "operator": "United States Postal Service", "operator:short": "USPS", "operator:type": "public", "operator:wikidata": "Q668687", "ref": "2110200003"}, "type": "Feature"}
{"geometry": {"coordinates": [-76.885827069, 39.660749797], "type": "Point"}, "id": "oHuV_A4epDXnpfJwKNwhLgpA7fE=", "properties": {"@source_uri": "https://tools.usps.com/UspsToolsRestServices/rest/POLocator/findLocations", "@spider": "usps_collection_boxes", "addr:city": "MANCHESTER", "addr:country": "US", "addr:postcode": "21102", "addr:state": "MD", "addr:street_address": "3100 WESTMINSTER ST", "amenity": "post_box", "collection_times": "Mo-Fr 17:00; Sa 13:00", "indoor": "yes", "note": "ON 12/24 AND 12/31, THIS BOX MAY BE COLLECTED AS EARLY AS 12 NOON.", "nsi_id": "unitedstatespostalservice-a77078", "operator": "United States Postal Service", "operator:short": "USPS", "operator:type": "public", "operator:wikidata": "Q668687", "ref": "2110200005"}, "type": "Feature"}
{"geometry": {"coordinates": [-76.885827069, 39.660749797], "type": "Point"}, "id": "TnP4Bb6EOLDZKcYhJwKvRpjfPiE=", "properties": {"@source_uri": "https://tools.usps.com/UspsToolsRestServices/rest/POLocator/findLocations", "@spider": "usps_collection_boxes", "addr:city": "MANCHESTER", "addr:country": "US", "addr:postcode": "21102", "addr:state": "MD", "addr:street_address": "3100 WESTMINSTER ST", "amenity": "post_box", "collection_times": "Mo-Fr 17:00; Sa 13:00", "indoor": "yes", "note": "ON 12/24 AND 12/31, THIS BOX MAY BE COLLECTED AS EARLY AS 12 NOON.", "nsi_id": "unitedstatespostalservice-a77078", "operator": "United States Postal Service", "operator:short": "USPS", "operator:type": "public", "operator:wikidata": "Q668687", "ref": "2110200006"}, "type": "Feature"}
{"geometry": {"coordinates": [-76.885827069, 39.660749797], "type": "Point"}, "id": "U25F_gMTS2Dn6_fsIN0-L59b8fk=", "properties": {"@source_uri": "https://tools.usps.com/UspsToolsRestServices/rest/POLocator/findLocations", "@spider": "usps_collection_boxes", "addr:city": "MANCHESTER", "addr:country": "US", "addr:postcode": "21102", "addr:state": "MD", "addr:street_address": "3100 WESTMINSTER ST", "amenity": "post_box", "collection_times": "Mo-Fr 17:00; Sa 12:00", "indoor": "yes", "note": "ON 12/24 AND 12/31, THIS BOX MAY BE COLLECTED AS EARLY AS 12 NOON.", "nsi_id": "unitedstatespostalservice-a77078", "operator": "United States Postal Service", "operator:short": "USPS", "operator:type": "public", "operator:wikidata": "Q668687", "ref": "2110200008"}, "type": "Feature"}
{"geometry": {"coordinates": [-76.651681304, 39.711351259], "type": "Point"}, "id": "N-WZEU-29ZDNeqXly2oLAl6Usq4=", "properties": {"@source_uri": "https://tools.usps.com/UspsToolsRestServices/rest/POLocator/findLocations", "@spider": "usps_collection_boxes", "addr:city": "MARYLAND LINE", "addr:country": "US", "addr:postcode": "21105", "addr:state": "MD", "addr:street_address": "21400 YORK RD", "amenity": "post_box", "collection_times": "Mo-Fr 15:45; Sa 10:45", "note": "ON 12/24 AND 12/31, THIS BOX MAY BE COLLECTED AS EARLY AS 12 NOON.", "nsi_id": "unitedstatespostalservice-a77078", "operator": "United States Postal Service", "operator:short": "USPS", "operator:type": "public", "operator:wikidata": "Q668687", "ref": "2110500001"}, "type": "Feature"}
{"geometry": {"coordinates": [-76.651681304, 39.711351259], "type": "Point"}, "id": "sidgbbmx3P2_S_00LAHDpdToUM4=", "properties": {"@source_uri": "https://tools.usps.com/UspsToolsRestServices/rest/POLocator/findLocations", "@spider": "usps_collection_boxes", "addr:city": "MARYLAND LINE", "addr:country": "US", "addr:postcode": "21105", "addr:state": "MD", "addr:street_address": "21400 YORK RD", "amenity": "post_box", "collection_times": "Mo-Fr 16:00; Sa 11:00", "indoor": "yes", "note": "ON 12/24 AND 12/31, THIS BOX MAY BE COLLECTED AS EARLY AS 12 NOON.", "nsi_id": "unitedstatespostalservice-a77078", "operator": "United States Postal Service", "operator:short": "USPS", "operator:type": "public", "operator:wikidata": "Q668687", "ref": "2110500003"}, "type": "Feature"}
{"geometry": {"coordinates": [-76.651681304, 39.711351259], "type": "Point"}, "id": "7v89T3kdoOPYmEBcAhk3pGSr7ho=", "properties": {"@source_uri": "https://tools.usps.com/UspsToolsRestServices/rest/POLocator/findLocations", "@spider": "usps_collection_boxes", "addr:city": "MARYLAND LINE", "addr:country": "US", "addr:postcode": "21105", "addr:state": "MD", "addr:street_address": "21400 YORK RD", "amenity": "post_box", "collection_times": "Mo-Fr 16:00; Sa 11:00", "indoor": "yes", "note": "ON 12/24 AND 12/31, THIS BOX MAY BE COLLECTED AS EARLY AS 12 NOON.", "nsi_id": "unitedstatespostalservice-a77078", "operator": "United States Postal Service", "operator:short": "USPS", "operator:type": "public", "operator:wikidata": "Q668687", "ref": "2110500005"}, "type": "Feature"}
{"geometry": {"coordinates": [-76.511628709, 38.895498379], "type": "Point"}, "id": "BEMTg3lFuIXFrE2irUCeNiy4rgg=", "properties": {"@source_uri": "https://tools.usps.com/UspsToolsRestServices/rest/POLocator/findLocations", "@spider": "usps_collection_boxes", "addr:city": "MAYO", "addr:country": "US", "addr:postcode": "21106", "addr:state": "MD", "addr:street_address": "1157 MAYO RD", "amenity": "post_box", "collection_times": "Mo-Fr 16:30; Sa 11:45", "note": "ON 12/24 AND 12/31, THIS BOX MAY BE COLLECTED AS EARLY AS 12 NOON.", "nsi_id": "unitedstatespostalservice-a77078", "operator": "United States Postal Service", "operator:short": "USPS", "operator:type": "public", "operator:wikidata": "Q668687", "ref": "2110600001"}, "type": "Feature"}
{"geometry": {"coordinates": [-76.511628709, 38.895498379], "type": "Point"}, "id": "LnfiwhGEYthO4AsNdh-WITl2-nw=", "properties": {"@source_uri": "https://tools.usps.com/UspsToolsRestServices/rest/POLocator/findLocations", "@spider": "usps_collection_boxes", "addr:city": "MAYO", "addr:country": "US", "addr:postcode": "21106", "addr:state": "MD", "addr:street_address": "1157 MAYO RD", "amenity": "post_box", "collection_times": "Mo-Fr 17:00; Sa 11:30", "indoor": "yes", "note": "ON 12/24 AND 12/31, THIS BOX MAY BE COLLECTED AS EARLY AS 12 NOON.", "nsi_id": "unitedstatespostalservice-a77078", "operator": "United States Postal Service", "operator:short": "USPS", "operator:type": "public", "operator:wikidata": "Q668687", "ref": "2110600002"}, "type": "Feature"}
{"geometry": {"coordinates": [-76.511628709, 38.895498379], "type": "Point"}, "id": "zs7b8oFmllPNYhTxeMA9QpQWPJc=", "properties": {"@source_uri": "https://tools.usps.com/UspsToolsRestServices/rest/POLocator/findLocations", "@spider": "usps_collection_boxes", "addr:city": "MAYO", "addr:country": "US", "addr:postcode": "21106", "addr:state": "MD", "addr:street_address": "1157 MAYO RD", "amenity": "post_box", "collection_times": "Mo-Fr 17:00; Sa 11:30", "indoor": "yes", "note": "ON 12/24 AND 12/31, THIS BOX MAY BE COLLECTED AS EARLY AS 12 NOON.", "nsi_id": "unitedstatespostalservice-a77078", "operator": "United States Postal Service", "operator:short": "USPS", "operator:type": "public", "operator:wikidata": "Q668687", "ref": "2110600003"}, "type": "Feature"}
{"geometry": {"coordinates": [-76.511628709, 38.895498379], "type": "Point"}, "id": "dO8zkqsW4cmoJBiy_3Fxdl1qbqs=", "properties": {"@source_uri": "https://tools.usps.com/UspsToolsRestServices/rest/POLocator/findLocations", "@spider": "usps_collection_boxes", "addr:city": "MAYO", "addr:country": "US", "addr:postcode": "21106", "addr:state": "MD", "addr:street_address": "1157 MAYO RD", "amenity": "post_box", "collection_times": "Mo-Fr 17:00; Sa 12:00", "indoor": "yes", "note": "ON 12/24 AND 12/31, THIS BOX MAY BE COLLECTED AS EARLY AS 12 NOON.", "nsi_id": "unitedstatespostalservice-a77078", "operator": "United States Postal Service", "operator:short": "USPS", "operator:type": "public", "operator:wikidata": "Q668687", "ref": "2110600005"}, "type": "Feature"}
{"geometry": {"coordinates": [-76.6317599, 39.117502], "type": "Point"}, "id": "XGfqYQIydZOxPBZVAmUiK85jTzM=", "properties": {"@source_uri": "https://tools.usps.com/UspsToolsRestServices/rest/POLocator/findLocations", "@spider": "usps_collection_boxes", "addr:city": "MILLERSVILLE", "addr:country": "US", "addr:postcode": "21108", "addr:state": "MD", "addr:street_address": "659 OLD MILL RD", "amenity": "post_box", "collection_times": "Mo-Sa 12:00", "nsi_id": "unitedstatespostalservice-a77078", "operator": "United States Postal Service", "operator:short": "USPS", "operator:type": "public", "operator:wikidata": "Q668687", "ref": "2110800002"}, "type": "Feature"}
{"geometry": {"coordinates": [-76.6353336, 39.120376], "type": "Point"}, "id": "_CtNyh3MZ6od--KYyt8e4GA6Bi0=", "properties": {"@source_uri": "https://tools.usps.com/UspsToolsRestServices/rest/POLocator/findLocations", "@spider": "usps_collection_boxes", "addr:city": "MILLERSVILLE", "addr:country": "US", "addr:postcode": "21108", "addr:state": "MD", "addr:street_address": "8200 CLOVERLEAF DR", "amenity": "post_box", "collection_times": "Mo-Sa 10:00", "nsi_id": "unitedstatespostalservice-a77078", "operator": "United States Postal Service", "operator:short": "USPS", "operator:type": "public", "operator:wikidata": "Q668687", "ref": "2110800004"}, "type": "Feature"}
{"geometry": {"coordinates": [-76.629393034, 39.0966909933], "type": "Point"}, "id": "2G_Gd9K-viaXtQZrhDaw2oTSe6k=", "properties": {"@source_uri": "https://tools.usps.com/UspsToolsRestServices/rest/POLocator/findLocations", "@spider": "usps_collection_boxes", "addr:city": "MILLERSVILLE", "addr:country": "US", "addr:postcode": "21108", "addr:state": "MD", "addr:street_address": "221 NAJOLES RD", "amenity": "post_box", "collection_times": "Mo-Fr 16:45; Sa 14:00", "note": "ON 12/24 AND 12/31, THIS BOX MAY BE COLLECTED AS EARLY AS 12 NOON.", "nsi_id": "unitedstatespostalservice-a77078", "operator": "United States Postal Service", "operator:short": "USPS", "operator:type": "public", "operator:wikidata": "Q668687", "ref": "2110800006"}, "type": "Feature"}
{"geometry": {"coordinates": [-76.6304226587, 39.0971269619], "type": "Point"}, "id": "zjRPirfBL0xyo6wcLtbvttKZIPg=", "properties": {"@source_uri": "https://tools.usps.com/UspsToolsRestServices/rest/POLocator/findLocations", "@spider": "usps_collection_boxes", "addr:city": "MILLERSVILLE", "addr:country": "US", "addr:postcode": "21108", "addr:state": "MD", "addr:street_address": "221 NAJOLES RD", "amenity": "post_box", "collection_times": "Mo-Fr 17:00; Sa 16:00", "indoor": "yes", "note": "ON 12/24 AND 12/31, THIS BOX MAY BE COLLECTED AS EARLY AS 12 NOON.", "nsi_id": "unitedstatespostalservice-a77078", "operator": "United States Postal Service", "operator:short": "USPS", "operator:type": "public", "operator:wikidata": "Q668687", "ref": "2110800011"}, "type": "Feature"}
{"geometry": {"coordinates": [-76.6304226587, 39.0971269619], "type": "Point"}, "id": "_HUA1nrUMnAy9f8ym-lQuHmA0r8=", "properties": {"@source_uri": "https://tools.usps.com/UspsToolsRestServices/rest/POLocator/findLocations", "@spider": "usps_collection_boxes", "addr:city": "MILLERSVILLE", "addr:country": "US", "addr:postcode": "21108", "addr:state": "MD", "addr:street_address": "221 NAJOLES RD", "amenity": "post_box", "collection_times": "Mo-Fr 17:00; Sa 16:00", "indoor": "yes", "note": "ON 12/24 AND 12/31, THIS BOX MAY BE COLLECTED AS EARLY AS 12 NOON.", "nsi_id": "unitedstatespostalservice-a77078", "operator": "United States Postal Service", "operator:short": "USPS", "operator:type": "public", "operator:wikidata": "Q668687", "ref": "2110800012"}, "type": "Feature"}
{"geometry": {"coordinates": [-76.6304226587, 39.0971269619], "type": "Point"}, "id": "y7ep0syny2jJZrrJt5iW5zJCf-0=", "properties": {"@source_uri": "https://tools.usps.com/UspsToolsRestServices/rest/POLocator/findLocations", "@spider": "usps_collection_boxes", "addr:city": "MILLERSVILLE", "addr:country": "US", "addr:postcode": "21108", "addr:state": "MD", "addr:street_address": "221 NAJOLES RD", "amenity": "post_box", "collection_times": "Mo-Fr 17:00; Sa 14:00", "indoor": "yes", "note": "ON 12/24 AND 12/31, THIS BOX MAY BE COLLECTED AS EARLY AS 12 NOON.", "nsi_id": "unitedstatespostalservice-a77078", "operator": "United States Postal Service", "operator:short": "USPS", "operator:type": "public", "operator:wikidata": "Q668687", "ref": "2110800017"}, "type": "Feature"}
{"geometry": {"coordinates": [-76.663237468, 39.590037241], "type": "Point"}, "id": "2qbdTIQ42seMZ7RUGGCi78Ao8m8=", "properties": {"@source_uri": "https://tools.usps.com/UspsToolsRestServices/rest/POLocator/findLocations", "@spider": "usps_collection_boxes", "addr:city": "MONKTON", "addr:country": "US", "addr:postcode": "21111", "addr:state": "MD", "addr:street_address": "16944 YORK RD", "amenity": "post_box", "collection_times": "Mo-Fr 16:30; Sa 11:45", "note": "ON 12/24 AND 12/31, THIS BOX MAY BE COLLECTED AS EARLY AS 12 NOON.", "nsi_id": "unitedstatespostalservice-a77078", "operator": "United States Postal Service", "operator:short": "USPS", "operator:type": "public", "operator:wikidata": "Q668687", "ref": "2111100001"}, "type": "Feature"}
{"geometry": {"coordinates": [-76.663237468, 39.590037241], "type": "Point"}, "id": "BpJZrfcWBdpTanxfbkAaoD-3W3M=", "properties": {"@source_uri": "https://tools.usps.com/UspsToolsRestServices/rest/POLocator/findLocations", "@spider": "usps_collection_boxes", "addr:city": "MONKTON", "addr:country": "US", "addr:postcode": "21111", "addr:state": "MD", "addr:street_address": "16944 YORK RD", "amenity": "post_box", "collection_times": "Mo-Fr 16:30; Sa 11:45", "indoor": "yes", "note": "ON 12/24 AND 12/31, THIS BOX MAY BE COLLECTED AS EARLY AS 12 NOON.", "nsi_id": "unitedstatespostalservice-a77078", "operator": "United States Postal Service", "operator:short": "USPS", "operator:type": "public", "operator:wikidata": "Q668687", "ref": "2111100002"}, "type": "Feature"}
{"geometry": {"coordinates": [-76.663237468, 39.590037241], "type": "Point"}, "id": "Mx7zAWr2Fu96GfRxNZhZVjm6b0g=", "properties": {"@source_uri": "https://tools.usps.com/UspsToolsRestServices/rest/POLocator/findLocations", "@spider": "usps_collection_boxes", "addr:city": "MONKTON", "addr:country": "US", "addr:postcode": "21111", "addr:state": "MD", "addr:street_address": "16944 YORK RD", "amenity": "post_box", "collection_times": "Mo-Fr 16:30; Sa 11:45", "indoor": "yes", "note": "ON 12/24 AND 12/31, THIS BOX MAY BE COLLECTED AS EARLY AS 12 NOON.", "nsi_id": "unitedstatespostalservice-a77078", "operator": "United States Postal Service", "operator:short": "USPS", "operator:type": "public", "operator:wikidata": "Q668687", "ref": "2111100003"}, "type": "Feature"}
{"geometry": {"coordinates": [-76.663237468, 39.590037241], "type": "Point"}, "id": "PKdZELQ98Ocl9yUpaKFxLjA5I9M=", "properties": {"@source_uri": "https://tools.usps.com/UspsToolsRestServices/rest/POLocator/findLocations", "@spider": "usps_collection_boxes", "addr:city": "MONKTON", "addr:country": "US", "addr:postcode": "21111", "addr:state": "MD", "addr:street_address": "16944 YORK RD", "amenity": "post_box", "collection_times": "Mo-Fr 16:30; Sa 12:00", "indoor": "yes", "note": "ON 12/24 AND 12/31, THIS BOX MAY BE COLLECTED AS EARLY AS 12 NOON.", "nsi_id": "unitedstatespostalservice-a77078", "operator": "United States Postal Service", "operator:short": "USPS", "operator:type": "public", "operator:wikidata": "Q668687", "ref": "2111100005"}, "type": "Feature"}
{"geometry": {"coordinates": [-76.71976, 39.06382], "type": "Point"}, "id": "ybGhcRextgZzpYCuKK9iq4Xh_Tc=", "properties": {"@source_uri": "https://tools.usps.com/UspsToolsRestServices/rest/POLocator/findLocations", "@spider": "usps_collection_boxes", "addr:city": "ODENTON", "addr:country": "US", "addr:postcode": "21113", "addr:state": "MD", "addr:street_address": "8373 PINEY ORCHARD PKWY", "amenity": "post_box", "collection_times": "Mo-Sa 09:00", "nsi_id": "unitedstatespostalservice-a77078", "operator": "United States Postal Service", "operator:short": "USPS", "operator:type": "public", "operator:wikidata": "Q668687", "ref": "2111300001"}, "type": "Feature"}
{"geometry": {"coordinates": [-76.71976, 39.06382], "type": "Point"}, "id": "VrkheEgjRhYowJIkWsyjyUJ_vRM=", "properties": {"@source_uri": "https://tools.usps.com/UspsToolsRestServices/rest/POLocator/findLocations", "@spider": "usps_collection_boxes", "addr:city": "ODENTON", "addr:country": "US", "addr:postcode": "21113", "addr:state": "MD", "addr:street_address": "728 CHAPELGATE DR", "amenity": "post_box", "collection_times": "Mo-Sa 10:00", "nsi_id": "unitedstatespostalservice-a77078", "operator": "United States Postal Service", "operator:short": "USPS", "operator:type": "public", "operator:wikidata": "Q668687", "ref": "2111300002"}, "type": "Feature"}
{"geometry": {"coordinates": [-76.6851676, 39.077743], "type": "Point"}, "id": "6HY7zRbNgcsGZVCw-DY1Dr-e6JQ=", "properties": {"@source_uri": "https://tools.usps.com/UspsToolsRestServices/rest/POLocator/findLocations", "@spider": "usps_collection_boxes", "addr:city": "ODENTON", "addr:country": "US", "addr:postcode": "21113", "addr:state": "MD", "addr:street_address": "491 HIGGINS DR", "amenity": "post_box", "collection_times": "Mo-Sa 11:00", "nsi_id": "unitedstatespostalservice-a77078", "operator": "United States Postal Service", "operator:short": "USPS", "operator:type": "public", "operator:wikidata": "Q668687", "ref": "2111300003"}, "type": "Feature"}
{"geometry": {"coordinates": [-76.71976, 39.06382], "type": "Point"}, "id": "zG5xQeDfQpLc8z2Jbixe6-AQ240=", "properties": {"@source_uri": "https://tools.usps.com/UspsToolsRestServices/rest/POLocator/findLocations", "@spider": "usps_collection_boxes", "addr:city": "ODENTON", "addr:country": "US", "addr:postcode": "21113", "addr:state": "MD", "addr:street_address": "1206 STEHLIK DR", "amenity": "post_box", "collection_times": "Mo-Sa 12:00", "nsi_id": "unitedstatespostalservice-a77078", "operator": "United States Postal Service", "operator:short": "USPS", "operator:type": "public", "operator:wikidata": "Q668687", "ref": "2111300004"}, "type": "Feature"}
{"geometry": {"coordinates": [-76.6888106, 39.079995], "type": "Point"}, "id": "MOBkt9Rw5JyC36QDOdV7GLlV4vE=", "properties": {"@source_uri": "https://tools.usps.com/UspsToolsRestServices/rest/POLocator/findLocations", "@spider": "usps_collection_boxes", "addr:city": "ODENTON", "addr:country": "US", "addr:postcode": "21113", "addr:state": "MD", "addr:street_address": "1133 ANNAPOLIS RD", "amenity": "post_box", "collection_times": "Mo-Sa 09:00", "nsi_id": "unitedstatespostalservice-a77078", "operator": "United States Postal Service", "operator:short": "USPS", "operator:type": "public", "operator:wikidata": "Q668687", "ref": "2111300005"}, "type": "Feature"}
{"geometry": {"coordinates": [-76.7010653, 39.089544], "type": "Point"}, "id": "FEgZTSEWQ4FbvGCZ41NC4jHKiAE=", "properties": {"@source_uri": "https://tools.usps.com/UspsToolsRestServices/rest/POLocator/findLocations", "@spider": "usps_collection_boxes", "addr:city": "ODENTON", "addr:country": "US", "addr:postcode": "21113", "addr:state": "MD", "addr:street_address": "1350 BLAIR DR", "amenity": "post_box", "collection_times": "Mo-Sa 09:00", "nsi_id": "unitedstatespostalservice-a77078", "operator": "United States Postal Service", "operator:short": "USPS", "operator:type": "public", "operator:wikidata": "Q668687", "ref": "2111300008"}, "type": "Feature"}
{"geometry": {"coordinates": [-76.7151914, 39.068349], "type": "Point"}, "id": "M7h-9syk7j1QmGLo0SiyIrcwpeY=", "properties": {"@source_uri": "https://tools.usps.com/UspsToolsRestServices/rest/POLocator/findLocations", "@spider": "usps_collection_boxes", "addr:city": "ODENTON", "addr:country": "US", "addr:postcode": "21113", "addr:state": "MD", "addr:street_address": "2200 STREAM VALLEY DR", "amenity": "post_box", "collection_times": "Mo-Sa 12:00", "nsi_id": "unitedstatespostalservice-a77078", "operator": "United States Postal Service", "operator:short": "USPS", "operator:type": "public", "operator:wikidata": "Q668687", "ref": "2111300011"}, "type": "Feature"}
{"geometry": {"coordinates": [-76.689954943, 39.081783778], "type": "Point"}, "id": "8DcKW-GWIM3WcTX4Y9BvkU6zkJ8=", "properties": {"@source_uri": "https://tools.usps.com/UspsToolsRestServices/rest/POLocator/findLocations", "@spider": "usps_collection_boxes", "addr:city": "ODENTON", "addr:country": "US", "addr:postcode": "21113", "addr:state": "MD", "addr:street_address": "1177 ANNAPOLIS RD", "amenity": "post_box", "collection_times": "Mo-Fr 17:00; Sa 12:00", "note": "ON 12/24 AND 12/31, THIS BOX MAY BE COLLECTED AS EARLY AS 12 NOON.", "nsi_id": "unitedstatespostalservice-a77078", "operator": "United States Postal Service", "operator:short": "USPS", "operator:type": "public", "operator:wikidata": "Q668687", "ref": "2111300012"}, "type": "Feature"}
{"geometry": {"coordinates": [-76.7202299, 39.105708], "type": "Point"}, "id": "NLO5tunpSjGDHiYoZOnDnX9AuWw=", "properties": {"@source_uri": "https://tools.usps.com/UspsToolsRestServices/rest/POLocator/findLocations", "@spider": "usps_collection_boxes", "addr:city": "ODENTON", "addr:country": "US", "addr:postcode": "21113", "addr:state": "MD", "addr:street_address": "21 CHARTER OAKS BLVD", "amenity": "post_box", "collection_times": "Mo-Sa 10:00", "nsi_id": "unitedstatespostalservice-a77078", "operator": "United States Postal Service", "operator:short": "USPS", "operator:type": "public", "operator:wikidata": "Q668687", "ref": "2111300013"}, "type": "Feature"}
{"geometry": {"coordinates": [-76.7233614, 39.064774], "type": "Point"}, "id": "rOOoQVZ_6H5cHRTpaZYy_8KUX1k=", "properties": {"@source_uri": "https://tools.usps.com/UspsToolsRestServices/rest/POLocator/findLocations", "@spider": "usps_collection_boxes", "addr:city": "ODENTON", "addr:country": "US", "addr:postcode": "21113", "addr:state": "MD", "addr:street_address": "N/A STRAWBERRY LAKE WAY", "amenity": "post_box", "collection_times": "Mo-Sa 10:00", "nsi_id": "unitedstatespostalservice-a77078", "operator": "United States Postal Service", "operator:short": "USPS", "operator:type": "public", "operator:wikidata": "Q668687", "ref": "2111300014"}, "type": "Feature"}
{"geometry": {"coordinates": [-76.689954943, 39.081783778], "type": "Point"}, "id": "d4TH-k0odAwFL6i-HEFmfC6-o8s=", "properties": {"@source_uri": "https://tools.usps.com/UspsToolsRestServices/rest/POLocator/findLocations", "@spider": "usps_collection_boxes", "addr:city": "ODENTON", "addr:country": "US", "addr:postcode": "21113", "addr:state": "MD", "addr:street_address": "1177 ANNAPOLIS RD", "amenity": "post_box", "collection_times": "Mo-Fr 16:45; Sa 11:45", "indoor": "yes", "note": "ON 12/24 AND 12/31, THIS BOX MAY BE COLLECTED AS EARLY AS 12 NOON.", "nsi_id": "unitedstatespostalservice-a77078", "operator": "United States Postal Service", "operator:short": "USPS", "operator:type": "public", "operator:wikidata": "Q668687", "ref": "2111300015"}, "type": "Feature"}
{"geometry": {"coordinates": [-76.7092514, 39.08995], "type": "Point"}, "id": "Q3L5Yfv2y85B2uneZmwEKzqzdlI=", "properties": {"@source_uri": "https://tools.usps.com/UspsToolsRestServices/rest/POLocator/findLocations", "@spider": "usps_collection_boxes", "addr:city": "ODENTON", "addr:country": "US", "addr:postcode": "21113", "addr:state": "MD", "addr:street_address": "1413 ANNAPOLIS RD", "amenity": "post_box", "collection_times": "Mo-Fr 09:00", "nsi_id": "unitedstatespostalservice-a77078", "operator": "United States Postal Service", "operator:short": "USPS", "operator:type": "public", "operator:wikidata": "Q668687", "ref": "2111300016"}, "type": "Feature"}
{"geometry": {"coordinates": [-76.689954943, 39.081783778], "type": "Point"}, "id": "i3D4O8btAOTwqRna-o3O6A62uj4=", "properties": {"@source_uri": "https://tools.usps.com/UspsToolsRestServices/rest/POLocator/findLocations", "@spider": "usps_collection_boxes", "addr:city": "ODENTON", "addr:country": "US", "addr:postcode": "21113", "addr:state": "MD", "addr:street_address": "1177 ANNAPOLIS RD", "amenity": "post_box", "collection_times": "Mo-Fr 16:45; Sa 11:45", "indoor": "yes", "note": "ON 12/24 AND 12/31, THIS BOX MAY BE COLLECTED AS EARLY AS 12 NOON.", "nsi_id": "unitedstatespostalservice-a77078", "operator": "United States Postal Service", "operator:short": "USPS", "operator:type": "public", "operator:wikidata": "Q668687", "ref": "2111300018"}, "type": "Feature"}
{"geometry": {"coordinates": [-76.689954943, 39.081783778], "type": "Point"}, "id": "RKFce0Xwy7aMgaKr9lUZXZUSaw0=", "properties": {"@source_uri": "https://tools.usps.com/UspsToolsRestServices/rest/POLocator/findLocations", "@spider": "usps_collection_boxes", "addr:city": "ODENTON", "addr:country": "US", "addr:postcode": "21113", "addr:state": "MD", "addr:street_address": "1177 ANNAPOLIS RD", "amenity": "post_box", "collection_times": "Mo-Fr 16:45; Sa 11:45", "indoor": "yes", "note": "ON 12/24 AND 12/31, THIS BOX MAY BE COLLECTED AS EARLY AS 12 NOON.", "nsi_id": "unitedstatespostalservice-a77078", "operator": "United States Postal Service", "operator:short": "USPS", "operator:type": "public", "operator:wikidata": "Q668687", "ref": "2111300019"}, "type": "Feature"}
{"geometry": {"coordinates": [-76.689954943, 39.081783778], "type": "Point"}, "id": "4EUIOemNjxoVAUB8wSw7mC2oxjQ=", "properties": {"@source_uri": "https://tools.usps.com/UspsToolsRestServices/rest/POLocator/findLocations", "@spider": "usps_collection_boxes", "addr:city": "ODENTON", "addr:country": "US", "addr:postcode": "21113", "addr:state": "MD", "addr:street_address": "1177 ANNAPOLIS RD", "amenity": "post_box", "collection_times": "Mo-Fr 17:00; Sa 12:00", "indoor": "yes", "note": "ON 12/24 AND 12/31, THIS BOX MAY BE COLLECTED AS EARLY AS 12 NOON.", "nsi_id": "unitedstatespostalservice-a77078", "operator": "United States Postal Service", "operator:short": "USPS", "operator:type": "public", "operator:wikidata": "Q668687", "ref": "2111300022"}, "type": "Feature"}
{"geometry": {"coordinates": [-76.6972226, 39.005488], "type": "Point"}, "id": "TZUiy-VRGiw38cTWJu0PcXCRx20=", "properties": {"@source_uri": "https://tools.usps.com/UspsToolsRestServices/rest/POLocator/findLocations", "@spider": "usps_collection_boxes", "addr:city": "CROFTON", "addr:country": "US", "addr:postcode": "21114", "addr:state": "MD", "addr:street_address": "1691 CROFTON PKWY", "amenity": "post_box", "collection_times": "Mo-Sa 09:00", "nsi_id": "unitedstatespostalservice-a77078", "operator": "United States Postal Service", "operator:short": "USPS", "operator:type": "public", "operator:wikidata": "Q668687", "ref": "2111400002"}, "type": "Feature"}
{"geometry": {"coordinates": [-76.7010316, 38.990985], "type": "Point"}, "id": "DDk7UugPvv_p4x_UXYEaOP3uiOw=", "properties": {"@source_uri": "https://tools.usps.com/UspsToolsRestServices/rest/POLocator/findLocations", "@spider": "usps_collection_boxes", "addr:city": "CROFTON", "addr:country": "US", "addr:postcode": "21114", "addr:state": "MD", "addr:street_address": "2211 DEFENSE HWY", "amenity": "post_box", "collection_times": "Mo-Sa 09:00", "nsi_id": "unitedstatespostalservice-a77078", "operator": "United States Postal Service", "operator:short": "USPS", "operator:type": "public", "operator:wikidata": "Q668687", "ref": "2111400003"}, "type": "Feature"}
{"geometry": {"coordinates": [-76.6981939, 38.990754], "type": "Point"}, "id": "-8t0hDGRCIlp_4clfddUaE-dmIQ=", "properties": {"@source_uri": "https://tools.usps.com/UspsToolsRestServices/rest/POLocator/findLocations", "@spider": "usps_collection_boxes", "addr:city": "CROFTON", "addr:country": "US", "addr:postcode": "21114", "addr:state": "MD", "addr:street_address": "2110 PRIESTBRIDGE DR", "amenity": "post_box", "collection_times": "Mo-Sa 09:00", "name": "USPS COLLECTION BOX - EXPRESS", "nsi_id": "unitedstatespostalservice-a77078", "operator": "United States Postal Service", "operator:short": "USPS", "operator:type": "public", "operator:wikidata": "Q668687", "ref": "2111400004"}, "type": "Feature"}
{"geometry": {"coordinates": [-76.6953607, 38.990834], "type": "Point"}, "id": "7ZSils4oPDQ-eFLJNWCnXWYocbw=", "properties": {"@source_uri": "https://tools.usps.com/UspsToolsRestServices/rest/POLocator/findLocations", "@spider": "usps_collection_boxes", "addr:city": "CROFTON", "addr:country": "US", "addr:postcode": "21114", "addr:state": "MD", "addr:street_address": "2111 BALDWIN AVE", "amenity": "post_box", "collection_times": "Mo-Sa 09:00", "nsi_id": "unitedstatespostalservice-a77078", "operator": "United States Postal Service", "operator:short": "USPS", "operator:type": "public", "operator:wikidata": "Q668687", "ref": "2111400005"}, "type": "Feature"}
{"geometry": {"coordinates": [-76.6817604, 38.998528], "type": "Point"}, "id": "-mIZAa67DVNZicGiLjgXYY66duk=", "properties": {"@source_uri": "https://tools.usps.com/UspsToolsRestServices/rest/POLocator/findLocations", "@spider": "usps_collection_boxes", "addr:city": "CROFTON", "addr:country": "US", "addr:postcode": "21114", "addr:state": "MD", "addr:street_address": "1829 CROFTON PKWY", "amenity": "post_box", "collection_times": "Mo-Sa 09:00", "nsi_id": "unitedstatespostalservice-a77078", "operator": "United States Postal Service", "operator:short": "USPS", "operator:type": "public", "operator:wikidata": "Q668687", "ref": "2111400006"}, "type": "Feature"}
{"geometry": {"coordinates": [-76.693649961, 39.0160500021], "type": "Point"}, "id": "86_aO3Yqqc9-aOmTlEHy2U_Jpio=", "properties": {"@source_uri": "https://tools.usps.com/UspsToolsRestServices/rest/POLocator/findLocations", "@spider": "usps_collection_boxes", "addr:city": "CROFTON", "addr:country": "US", "addr:postcode": "21114", "addr:state": "MD", "addr:street_address": "1649 CROFTON CTR", "amenity": "post_box", "collection_times": "Mo-Sa 09:00", "nsi_id": "unitedstatespostalservice-a77078", "operator": "United States Postal Service", "operator:short": "USPS", "operator:type": "public", "operator:wikidata": "Q668687", "ref": "2111400008"}, "type": "Feature"}
{"geometry": {"coordinates": [-76.6978158, 39.015315], "type": "Point"}, "id": "p50MKPwW9Am0BmDwQms9wF4Toog=", "properties": {"@source_uri": "https://tools.usps.com/UspsToolsRestServices/rest/POLocator/findLocations", "@spider": "usps_collection_boxes", "addr:city": "CROFTON", "addr:country": "US", "addr:postcode": "21114", "addr:state": "MD", "addr:street_address": "2411 CROFTON LN", "amenity": "post_box", "collection_times": "Mo-Sa 09:00", "nsi_id": "unitedstatespostalservice-a77078", "operator": "United States Postal Service", "operator:short": "USPS", "operator:type": "public", "operator:wikidata": "Q668687", "ref": "2111400010"}, "type": "Feature"}
{"geometry": {"coordinates": [-76.698886906, 39.010081433], "type": "Point"}, "id": "_fAXa0Hp2BQkJI9us9FafitioK0=", "properties": {"@source_uri": "https://tools.usps.com/UspsToolsRestServices/rest/POLocator/findLocations", "@spider": "usps_collection_boxes", "addr:city": "CROFTON", "addr:country": "US", "addr:postcode": "21114", "addr:state": "MD", "addr:street_address": "1296 CRONSON BLVD", "amenity": "post_box", "collection_times": "Mo-Sa 17:00", "note": "ON 12/24 AND 12/31, THIS BOX MAY BE COLLECTED AS EARLY AS 12 NOON.", "nsi_id": "unitedstatespostalservice-a77078", "operator": "United States Postal Service", "operator:short": "USPS", "operator:type": "public", "operator:wikidata": "Q668687", "ref": "2111400013"}, "type": "Feature"}
{"geometry": {"coordinates": [-76.6982007, 38.990754], "type": "Point"}, "id": "cCVOrIsiDNhw5sgCf8xH2qXvkZA=", "properties": {"@source_uri": "https://tools.usps.com/UspsToolsRestServices/rest/POLocator/findLocations", "@spider": "usps_collection_boxes", "addr:city": "CROFTON", "addr:country": "US", "addr:postcode": "21114", "addr:state": "MD", "addr:street_address": "2110 PRIEST BRIDGE DR", "amenity": "post_box", "collection_times": "Mo-Sa 09:00", "nsi_id": "unitedstatespostalservice-a77078", "operator": "United States Postal Service", "operator:short": "USPS", "operator:type": "public", "operator:wikidata": "Q668687", "ref": "2111400015"}, "type": "Feature"}
{"geometry": {"coordinates": [-76.6941249, 39.011685], "type": "Point"}, "id": "Ztv5E77Zg3VbGspl_dSMRhmyByY=", "properties": {"@source_uri": "https://tools.usps.com/UspsToolsRestServices/rest/POLocator/findLocations", "@spider": "usps_collection_boxes", "addr:city": "CROFTON", "addr:country": "US", "addr:postcode": "21114", "addr:state": "MD", "addr:street_address": "1668 CARLYLE DR", "amenity": "post_box", "collection_times": "Mo-Sa 09:00", "nsi_id": "unitedstatespostalservice-a77078", "operator": "United States Postal Service", "operator:short": "USPS", "operator:type": "public", "operator:wikidata": "Q668687", "ref": "2111400016"}, "type": "Feature"}
{"geometry": {"coordinates": [-76.700682848, 38.991930437], "type": "Point"}, "id": "saVCywZ7yDGl2d16YloFMHF_x-o=", "properties": {"@source_uri": "https://tools.usps.com/UspsToolsRestServices/rest/POLocator/findLocations", "@spider": "usps_collection_boxes", "addr:city": "CROFTON", "addr:country": "US", "addr:postcode": "21114", "addr:state": "MD", "addr:street_address": "2200 DEFENSE HWY", "amenity": "post_box", "collection_times": "Mo-Sa 09:00", "nsi_id": "unitedstatespostalservice-a77078", "operator": "United States Postal Service", "operator:short": "USPS", "operator:type": "public", "operator:wikidata": "Q668687", "ref": "2111400017"}, "type": "Feature"}
{"geometry": {"coordinates": [-76.698886906, 39.010081433], "type": "Point"}, "id": "4NTSmjlmNHsgOGl95FKddXRc7Po=", "properties": {"@source_uri": "https://tools.usps.com/UspsToolsRestServices/rest/POLocator/findLocations", "@spider": "usps_collection_boxes", "addr:city": "CROFTON", "addr:country": "US", "addr:postcode": "21114", "addr:state": "MD", "addr:street_address": "1296 CRONSON BLVD", "amenity": "post_box", "collection_times": "Mo-Fr 17:00; Sa 13:45", "indoor": "yes", "note": "ON 12/24 AND 12/31, THIS BOX MAY BE COLLECTED AS EARLY AS 12 NOON.", "nsi_id": "unitedstatespostalservice-a77078", "operator": "United States Postal Service", "operator:short": "USPS", "operator:type": "public", "operator:wikidata": "Q668687", "ref": "2111400019"}, "type": "Feature"}
{"geometry": {"coordinates": [-76.698886906, 39.010081433], "type": "Point"}, "id": "VN-ZNWZbRnNObIOOZmc-_YCAs7Y=", "properties": {"@source_uri": "https://tools.usps.com/UspsToolsRestServices/rest/POLocator/findLocations", "@spider": "usps_collection_boxes", "addr:city": "CROFTON", "addr:country": "US", "addr:postcode": "21114", "addr:state": "MD", "addr:street_address": "1296 CRONSON BLVD", "amenity": "post_box", "collection_times": "Mo-Fr 17:00; Sa 13:45", "indoor": "yes", "note": "ON 12/24 AND 12/31, THIS BOX MAY BE COLLECTED AS EARLY AS 12 NOON.", "nsi_id": "unitedstatespostalservice-a77078", "operator": "United States Postal Service", "operator:short": "USPS", "operator:type": "public", "operator:wikidata": "Q668687", "ref": "2111400020"}, "type": "Feature"}
{"geometry": {"coordinates": [-76.6784224, 39.013641], "type": "Point"}, "id": "6A8qDA17QHKWrwB6eUPLIiiU8fs=", "properties": {"@source_uri": "https://tools.usps.com/UspsToolsRestServices/rest/POLocator/findLocations", "@spider": "usps_collection_boxes", "addr:city": "CROFTON", "addr:country": "US", "addr:postcode": "21114", "addr:state": "MD", "addr:street_address": "2225 ABERDEEN DR", "amenity": "post_box", "collection_times": "Mo-Sa 09:00", "nsi_id": "unitedstatespostalservice-a77078", "operator": "United States Postal Service", "operator:short": "USPS", "operator:type": "public", "operator:wikidata": "Q668687", "ref": "2111400021"}, "type": "Feature"}
{"geometry": {"coordinates": [-76.6810061, 39.031754], "type": "Point"}, "id": "AzDbwKs0npJLVUHf8NuQZTTBHUo=", "properties": {"@source_uri": "https://tools.usps.com/UspsToolsRestServices/rest/POLocator/findLocations", "@spider": "usps_collection_boxes", "addr:city": "CROFTON", "addr:country": "US", "addr:postcode": "21114", "addr:state": "MD", "addr:street_address": "1300 WELLFLEET LN", "amenity": "post_box", "collection_times": "Mo-Sa 09:00", "nsi_id": "unitedstatespostalservice-a77078", "operator": "United States Postal Service", "operator:short": "USPS", "operator:type": "public", "operator:wikidata": "Q668687", "ref": "2111400022"}, "type": "Feature"}
{"geometry": {"coordinates": [-76.698886906, 39.010081433], "type": "Point"}, "id": "g_XvdUQfRn55UESyBTvIMniR92c=", "properties": {"@source_uri": "https://tools.usps.com/UspsToolsRestServices/rest/POLocator/findLocations", "@spider": "usps_collection_boxes", "addr:city": "CROFTON", "addr:country": "US", "addr:postcode": "21114", "addr:state": "MD", "addr:street_address": "1296 CRONSON BLVD", "amenity": "post_box", "collection_times": "Mo-Fr 17:00; Sa 12:30", "indoor": "yes", "note": "ON 12/24 AND 12/31, THIS BOX MAY BE COLLECTED AS EARLY AS 12 NOON.", "nsi_id": "unitedstatespostalservice-a77078", "operator": "United States Postal Service", "operator:short": "USPS", "operator:type": "public", "operator:wikidata": "Q668687", "ref": "2111400025"}, "type": "Feature"}
{"geometry": {"coordinates": [-76.7840483, 39.428306], "type": "Point"}, "id": "q2Ox5dOptaY2rNgOc5g_BHYpD_c=", "properties": {"@source_uri": "https://tools.usps.com/UspsToolsRestServices/rest/POLocator/findLocations", "@spider": "usps_collection_boxes", "addr:city": "OWINGS MILLS", "addr:country": "US", "addr:postcode": "21117", "addr:state": "MD", "addr:street_address": "25 CUE CT", "amenity": "post_box", "collection_times": "Mo-Sa 09:00", "nsi_id": "unitedstatespostalservice-a77078", "operator": "United States Postal Service", "operator:short": "USPS", "operator:type": "public", "operator:wikidata": "Q668687", "ref": "2111700008"}, "type": "Feature"}
{"geometry": {"coordinates": [-76.8018889, 39.438514], "type": "Point"}, "id": "q42gQYXU-T9gSJEuKygdIMhbbeg=", "properties": {"@source_uri": "https://tools.usps.com/UspsToolsRestServices/rest/POLocator/findLocations", "@spider": "usps_collection_boxes", "addr:city": "OWINGS MILLS", "addr:country": "US", "addr:postcode": "21117", "addr:state": "MD", "addr:street_address": "1 HIGHFALCON RD", "amenity": "post_box", "collection_times": "Mo-Fr 09:00", "nsi_id": "unitedstatespostalservice-a77078", "operator": "United States Postal Service", "operator:short": "USPS", "operator:type": "public", "operator:wikidata": "Q668687", "ref": "2111700010"}, "type": "Feature"}
{"geometry": {"coordinates": [-76.7992859, 39.443476], "type": "Point"}, "id": "q4RrowaYsqYyvduAuAlYReoRCgU=", "properties": {"@source_uri": "https://tools.usps.com/UspsToolsRestServices/rest/POLocator/findLocations", "@spider": "usps_collection_boxes", "addr:city": "OWINGS MILLS", "addr:country": "US", "addr:postcode": "21117", "addr:state": "MD", "addr:street_address": "400 HAMMERSHIRE RD", "amenity": "post_box", "collection_times": "Mo-Sa 09:00", "nsi_id": "unitedstatespostalservice-a77078", "operator": "United States Postal Service", "operator:short": "USPS", "operator:type": "public", "operator:wikidata": "Q668687", "ref": "2111700011"}, "type": "Feature"}
{"geometry": {"coordinates": [-76.7858749, 39.417498], "type": "Point"}, "id": "r9AaEf5zGxxQkitUQ1pFo1tXyE8=", "properties": {"@source_uri": "https://tools.usps.com/UspsToolsRestServices/rest/POLocator/findLocations", "@spider": "usps_collection_boxes", "addr:city": "OWINGS MILLS", "addr:country": "US", "addr:postcode": "21117", "addr:state": "MD", "addr:street_address": "15 S RITTERS LN", "amenity": "post_box", "collection_times": "Mo-Sa 09:00", "nsi_id": "unitedstatespostalservice-a77078", "operator": "United States Postal Service", "operator:short": "USPS", "operator:type": "public", "operator:wikidata": "Q668687", "ref": "2111700014"}, "type": "Feature"}
{"geometry": {"coordinates": [-76.7745352, 39.419641], "type": "Point"}, "id": "0lIzenu-7rLpu7NR9i1jUZmAYLg=", "properties": {"@source_uri": "https://tools.usps.com/UspsToolsRestServices/rest/POLocator/findLocations", "@spider": "usps_collection_boxes", "addr:city": "OWINGS MILLS", "addr:country": "US", "addr:postcode": "21117", "addr:state": "MD", "addr:street_address": "12 BITTERROOT CT", "amenity": "post_box", "collection_times": "Mo-Sa 09:00", "nsi_id": "unitedstatespostalservice-a77078", "operator": "United States Postal Service", "operator:short": "USPS", "operator:type": "public", "operator:wikidata": "Q668687", "ref": "2111700015"}, "type": "Feature"}
{"geometry": {"coordinates": [-76.7985376, 39.434838], "type": "Point"}, "id": "oMUxNgT0qUcZmNTN3qtYtNqoKpg=", "properties": {"@source_uri": "https://tools.usps.com/UspsToolsRestServices/rest/POLocator/findLocations", "@spider": "usps_collection_boxes", "addr:city": "OWINGS MILLS", "addr:country": "US", "addr:postcode": "21117", "addr:state": "MD", "addr:street_address": "11201 REISTERSTOWN RD", "amenity": "post_box", "collection_times": "Mo-Sa 09:00", "nsi_id": "unitedstatespostalservice-a77078", "operator": "United States Postal Service", "operator:short": "USPS", "operator:type": "public", "operator:wikidata": "Q668687", "ref": "2111700018"}, "type": "Feature"}
{"geometry": {"coordinates": [-76.7473131, 39.396445], "type": "Point"}, "id": "N603cJe0QKCXRm38n9_lLLFE2WM=", "properties": {"@source_uri": "https://tools.usps.com/UspsToolsRestServices/rest/POLocator/findLocations", "@spider": "usps_collection_boxes", "addr:city": "OWINGS MILLS", "addr:country": "US", "addr:postcode": "21117", "addr:state": "MD", "addr:street_address": "9101 REISTERSTOWN RD", "amenity": "post_box", "collection_times": "Mo-Sa 10:00", "nsi_id": "unitedstatespostalservice-a77078", "operator": "United States Postal Service", "operator:short": "USPS", "operator:type": "public", "operator:wikidata": "Q668687", "ref": "2111700020"}, "type": "Feature"}
{"geometry": {"coordinates": [-76.760451631, 39.401633934], "type": "Point"}, "id": "hqz1yZo9Cmg7OYJb9lcMFwz-SCU=", "properties": {"@source_uri": "https://tools.usps.com/UspsToolsRestServices/rest/POLocator/findLocations", "@spider": "usps_collection_boxes", "addr:city": "OWINGS MILLS", "addr:country": "US", "addr:postcode": "21117", "addr:state": "MD", "addr:street_address": "8000 GREENSPRING VALLEY RD", "amenity": "post_box", "collection_times": "Mo-Sa 09:00", "nsi_id": "unitedstatespostalservice-a77078", "operator": "United States Postal Service", "operator:short": "USPS", "operator:type": "public", "operator:wikidata": "Q668687", "ref": "2111700022"}, "type": "Feature"}
{"geometry": {"coordinates": [-76.7951089, 39.406313], "type": "Point"}, "id": "CapB0MLZbOAEWJoNs3UCdAdwk0Q=", "properties": {"@source_uri": "https://tools.usps.com/UspsToolsRestServices/rest/POLocator/findLocations", "@spider": "usps_collection_boxes", "addr:city": "OWINGS MILLS", "addr:country": "US", "addr:postcode": "21117", "addr:state": "MD", "addr:street_address": "10461 MILL RUN CIR", "amenity": "post_box", "collection_times": "Mo-Fr 10:00", "nsi_id": "unitedstatespostalservice-a77078", "operator": "United States Postal Service", "operator:short": "USPS", "operator:type": "public", "operator:wikidata": "Q668687", "ref": "2111700027"}, "type": "Feature"}
{"geometry": {"coordinates": [-76.7509709, 39.397781], "type": "Point"}, "id": "4DEuvKg5CLMsEo7oOEysvrFxXOQ=", "properties": {"@source_uri": "https://tools.usps.com/UspsToolsRestServices/rest/POLocator/findLocations", "@spider": "usps_collection_boxes", "addr:city": "OWINGS MILLS", "addr:country": "US", "addr:postcode": "21117", "addr:state": "MD", "addr:street_address": "23 CROSSROADS DR", "amenity": "post_box", "collection_times": "Mo-Fr 13:45", "note": "ON 12/24 AND 12/31, THIS BOX MAY BE COLLECTED AS EARLY AS 12 NOON.", "nsi_id": "unitedstatespostalservice-a77078", "operator": "United States Postal Service", "operator:short": "USPS", "operator:type": "public", "operator:wikidata": "Q668687", "ref": "2111700031"}, "type": "Feature"}
{"geometry": {"coordinates": [-76.7728042, 39.435453], "type": "Point"}, "id": "5qTD9TRhbYf_zN9vgaYNyflGeH8=", "properties": {"@source_uri": "https://tools.usps.com/UspsToolsRestServices/rest/POLocator/findLocations", "@spider": "usps_collection_boxes", "addr:city": "OWINGS MILLS", "addr:country": "US", "addr:postcode": "21117", "addr:state": "MD", "addr:street_address": "11400 CRONHILL DR", "amenity": "post_box", "collection_times": "Mo-Sa 09:00", "nsi_id": "unitedstatespostalservice-a77078", "operator": "United States Postal Service", "operator:short": "USPS", "operator:type": "public", "operator:wikidata": "Q668687", "ref": "2111700033"}, "type": "Feature"}
{"geometry": {"coordinates": [-76.8100545, 39.406415], "type": "Point"}, "id": "-AeILEoPEOOpqLmkRZ0lufP41QI=", "properties": {"@source_uri": "https://tools.usps.com/UspsToolsRestServices/rest/POLocator/findLocations", "@spider": "usps_collection_boxes", "addr:city": "OWINGS MILLS", "addr:country": "US", "addr:postcode": "21117", "addr:state": "MD", "addr:street_address": "9724 GROFFS MILL DR", "amenity": "post_box", "collection_times": "Mo-Sa 10:00", "nsi_id": "unitedstatespostalservice-a77078", "operator": "United States Postal Service", "operator:short": "USPS", "operator:type": "public", "operator:wikidata": "Q668687", "ref": "2111700054"}, "type": "Feature"}
{"geometry": {"coordinates": [-76.7716526, 39.458709], "type": "Point"}, "id": "IUALV9lpmhOfWvG_xTenvOhW1Pk=", "properties": {"@source_uri": "https://tools.usps.com/UspsToolsRestServices/rest/POLocator/findLocations", "@spider": "usps_collection_boxes", "addr:city": "OWINGS MILLS", "addr:country": "US", "addr:postcode": "21117", "addr:state": "MD", "addr:street_address": "3500 AVERY HILL DR", "amenity": "post_box", "collection_times": "Mo-Sa 09:00", "nsi_id": "unitedstatespostalservice-a77078", "operator": "United States Postal Service", "operator:short": "USPS", "operator:type": "public", "operator:wikidata": "Q668687", "ref": "2111700056"}, "type": "Feature"}
{"geometry": {"coordinates": [-76.7766073, 39.437685], "type": "Point"}, "id": "UzEf1WQUk4moyJ0jmbBMoHVHgBI=", "properties": {"@source_uri": "https://tools.usps.com/UspsToolsRestServices/rest/POLocator/findLocations", "@spider": "usps_collection_boxes", "addr:city": "OWINGS MILLS", "addr:country": "US", "addr:postcode": "21117", "addr:state": "MD", "addr:street_address": "11438 CRONRIDGE DR", "amenity": "post_box", "collection_times": "Mo-Sa 09:00", "nsi_id": "unitedstatespostalservice-a77078", "operator": "United States Postal Service", "operator:short": "USPS", "operator:type": "public", "operator:wikidata": "Q668687", "ref": "2111700059"}, "type": "Feature"}
{"geometry": {"coordinates": [-76.801948121, 39.420757521], "type": "Point"}, "id": "6iIu80DuV_iyfwq3JEX0Eqnad_4=", "properties": {"@source_uri": "https://tools.usps.com/UspsToolsRestServices/rest/POLocator/findLocations", "@spider": "usps_collection_boxes", "addr:city": "OWINGS MILLS", "addr:country": "US", "addr:postcode": "21117", "addr:state": "MD", "addr:street_address": "10821 RED RUN BLVD", "amenity": "post_box", "collection_times": "Mo-Fr 16:45; Sa 13:30", "indoor": "yes", "note": "ON 12/24 AND 12/31, THIS BOX MAY BE COLLECTED AS EARLY AS 12 NOON.", "nsi_id": "unitedstatespostalservice-a77078", "operator": "United States Postal Service", "operator:short": "USPS", "operator:type": "public", "operator:wikidata": "Q668687", "ref": "2111700060"}, "type": "Feature"}
{"geometry": {"coordinates": [-76.801948121, 39.420757521], "type": "Point"}, "id": "lv8Zfvav_Ku-LE1VS_BDxBOaGeU=", "properties": {"@source_uri": "https://tools.usps.com/UspsToolsRestServices/rest/POLocator/findLocations", "@spider": "usps_collection_boxes", "addr:city": "OWINGS MILLS", "addr:country": "US", "addr:postcode": "21117", "addr:state": "MD", "addr:street_address": "10821 RED RUN BLVD", "amenity": "post_box", "collection_times": "Mo-Fr 16:45; Sa 13:30", "indoor": "yes", "note": "ON 12/24 AND 12/31, THIS BOX MAY BE COLLECTED AS EARLY AS 12 NOON.", "nsi_id": "unitedstatespostalservice-a77078", "operator": "United States Postal Service", "operator:short": "USPS", "operator:type": "public", "operator:wikidata": "Q668687", "ref": "2111700061"}, "type": "Feature"}
{"geometry": {"coordinates": [-76.7791463, 39.434331], "type": "Point"}, "id": "vMeB3sZnYtn4Q1B84A0zy7BJuj4=", "properties": {"@source_uri": "https://tools.usps.com/UspsToolsRestServices/rest/POLocator/findLocations", "@spider": "usps_collection_boxes", "addr:city": "OWINGS MILLS", "addr:country": "US", "addr:postcode": "21117", "addr:state": "MD", "addr:street_address": "11299 OWINGS MILLS BLVD", "amenity": "post_box", "collection_times": "Mo-Sa 10:00", "nsi_id": "unitedstatespostalservice-a77078", "operator": "United States Postal Service", "operator:short": "USPS", "operator:type": "public", "operator:wikidata": "Q668687", "ref": "2111700062"}, "type": "Feature"}
{"geometry": {"coordinates": [-76.801948121, 39.420757521], "type": "Point"}, "id": "IuYpJxUcLTjyBywVfrPmiv9xlWs=", "properties": {"@source_uri": "https://tools.usps.com/UspsToolsRestServices/rest/POLocator/findLocations", "@spider": "usps_collection_boxes", "addr:city": "OWINGS MILLS", "addr:country": "US", "addr:postcode": "21117", "addr:state": "MD", "addr:street_address": "10821 RED RUN BLVD", "amenity": "post_box", "collection_times": "Mo-Fr 16:45; Sa 15:00", "note": "ON 12/24 AND 12/31, THIS BOX MAY BE COLLECTED AS EARLY AS 12 NOON.", "nsi_id": "unitedstatespostalservice-a77078", "operator": "United States Postal Service", "operator:short": "USPS", "operator:type": "public", "operator:wikidata": "Q668687", "ref": "2111700064"}, "type": "Feature"}
{"geometry": {"coordinates": [-76.7770495, 39.41837], "type": "Point"}, "id": "yxqQ18EoMbY-sjWl1G8_YEvx__w=", "properties": {"@source_uri": "https://tools.usps.com/UspsToolsRestServices/rest/POLocator/findLocations", "@spider": "usps_collection_boxes", "addr:city": "OWINGS MILLS", "addr:country": "US", "addr:postcode": "21117", "addr:state": "MD", "addr:street_address": "10347 REISTERSTOWN RD", "amenity": "post_box", "collection_times": "Mo-Sa 09:00", "nsi_id": "unitedstatespostalservice-a77078", "operator": "United States Postal Service", "operator:short": "USPS", "operator:type": "public", "operator:wikidata": "Q668687", "ref": "2111700067"}, "type": "Feature"}
{"geometry": {"coordinates": [-76.7859342, 39.395726], "type": "Point"}, "id": "Ce_hUc-kE1obTNdJ50mopjFW1bw=", "properties": {"@source_uri": "https://tools.usps.com/UspsToolsRestServices/rest/POLocator/findLocations", "@spider": "usps_collection_boxes", "addr:city": "OWINGS MILLS", "addr:country": "US", "addr:postcode": "21117", "addr:state": "MD", "addr:street_address": "4555 PAINTERS MILL RD", "amenity": "post_box", "collection_times": "Mo-Fr 10:00", "nsi_id": "unitedstatespostalservice-a77078", "operator": "United States Postal Service", "operator:short": "USPS", "operator:type": "public", "operator:wikidata": "Q668687", "ref": "2111700068"}, "type": "Feature"}
{"geometry": {"coordinates": [-76.801948121, 39.420757521], "type": "Point"}, "id": "sdxJhKmmyNtixJxqgZia4dhVjXE=", "properties": {"@source_uri": "https://tools.usps.com/UspsToolsRestServices/rest/POLocator/findLocations", "@spider": "usps_collection_boxes", "addr:city": "OWINGS MILLS", "addr:country": "US", "addr:postcode": "21117", "addr:state": "MD", "addr:street_address": "10821 RED RUN BLVD", "amenity": "post_box", "collection_times": "Mo-Fr 16:45; Sa 13:30", "name": "USPS COLLECTION BOX - APC", "note": "ON 12/24 AND 12/31, THIS BOX MAY BE COLLECTED AS EARLY AS 12 NOON.", "nsi_id": "unitedstatespostalservice-a77078", "operator": "United States Postal Service", "operator:short": "USPS", "operator:type": "public", "operator:wikidata": "Q668687", "ref": "2111700069"}, "type": "Feature"}
{"geometry": {"coordinates": [-76.7801947, 39.413163], "type": "Point"}, "id": "0xlX7jmn5zKAkdsVvWyErMu7_r0=", "properties": {"@source_uri": "https://tools.usps.com/UspsToolsRestServices/rest/POLocator/findLocations", "@spider": "usps_collection_boxes", "addr:city": "OWINGS MILLS", "addr:country": "US", "addr:postcode": "21117", "addr:state": "MD", "addr:street_address": "10221 S DOLFIELD RD", "amenity": "post_box", "collection_times": "Mo-Fr 14:00", "note": "ON 12/24 AND 12/31, THIS BOX MAY BE COLLECTED AS EARLY AS 12 NOON.", "nsi_id": "unitedstatespostalservice-a77078", "operator": "United States Postal Service", "operator:short": "USPS", "operator:type": "public", "operator:wikidata": "Q668687", "ref": "2111700070"}, "type": "Feature"}
{"geometry": {"coordinates": [-76.801948121, 39.420757521], "type": "Point"}, "id": "HDDW4INKV4Y1_uJ04v20Q-ELGYk=", "properties": {"@source_uri": "https://tools.usps.com/UspsToolsRestServices/rest/POLocator/findLocations", "@spider": "usps_collection_boxes", "addr:city": "OWINGS MILLS", "addr:country": "US", "addr:postcode": "21117", "addr:state": "MD", "addr:street_address": "10821 RED RUN BLVD", "amenity": "post_box", "collection_times": "Mo-Fr 17:00; Sa 12:00", "indoor": "yes", "note": "ON 12/24 AND 12/31, THIS BOX MAY BE COLLECTED AS EARLY AS 12 NOON.", "nsi_id": "unitedstatespostalservice-a77078", "operator": "United States Postal Service", "operator:short": "USPS", "operator:type": "public", "operator:wikidata": "Q668687", "ref": "2111700081"}, "type": "Feature"}
{"geometry": {"coordinates": [-76.654441278, 39.652396536], "type": "Point"}, "id": "6gzvk8LG-83x5i0FDdtkJ6JqD2A=", "properties": {"@source_uri": "https://tools.usps.com/UspsToolsRestServices/rest/POLocator/findLocations", "@spider": "usps_collection_boxes", "addr:city": "PARKTON", "addr:country": "US", "addr:postcode": "21120", "addr:state": "MD", "addr:street_address": "645 HAPPY LN", "amenity": "post_box", "collection_times": "Mo-Fr 16:30; Sa 13:00", "note": "ON 12/24 AND 12/31, THIS BOX MAY BE COLLECTED AS EARLY AS 12 NOON.", "nsi_id": "unitedstatespostalservice-a77078", "operator": "United States Postal Service", "operator:short": "USPS", "operator:type": "public", "operator:wikidata": "Q668687", "ref": "2112000001"}, "type": "Feature"}
{"geometry": {"coordinates": [-76.6702304, 39.591767], "type": "Point"}, "id": "5rgFrLNxgAj1Cp08DAqRmDP2MJU=", "properties": {"@source_uri": "https://tools.usps.com/UspsToolsRestServices/rest/POLocator/findLocations", "@spider": "usps_collection_boxes", "addr:city": "PARKTON", "addr:country": "US", "addr:postcode": "21120", "addr:state": "MD", "addr:street_address": "212 MOUNT CARMEL RD", "amenity": "post_box", "collection_times": "Mo-Sa 10:00", "nsi_id": "unitedstatespostalservice-a77078", "operator": "United States Postal Service", "operator:short": "USPS", "operator:type": "public", "operator:wikidata": "Q668687", "ref": "2112000002"}, "type": "Feature"}
{"geometry": {"coordinates": [-76.654441278, 39.652396536], "type": "Point"}, "id": "ZeEvBdLBXVspt1EzTgdW9eD-F-k=", "properties": {"@source_uri": "https://tools.usps.com/UspsToolsRestServices/rest/POLocator/findLocations", "@spider": "usps_collection_boxes", "addr:city": "PARKTON", "addr:country": "US", "addr:postcode": "21120", "addr:state": "MD", "addr:street_address": "645 HAPPY LN", "amenity": "post_box", "collection_times": "Mo-Fr 16:30; Sa 13:00", "indoor": "yes", "note": "ON 12/24 AND 12/31, THIS BOX MAY BE COLLECTED AS EARLY AS 12 NOON.", "nsi_id": "unitedstatespostalservice-a77078", "operator": "United States Postal Service", "operator:short": "USPS", "operator:type": "public", "operator:wikidata": "Q668687", "ref": "2112000004"}, "type": "Feature"}
{"geometry": {"coordinates": [-76.654441278, 39.652396536], "type": "Point"}, "id": "YXHi9sYCYOmyAmOiqLk6Yx8lG5g=", "properties": {"@source_uri": "https://tools.usps.com/UspsToolsRestServices/rest/POLocator/findLocations", "@spider": "usps_collection_boxes", "addr:city": "PARKTON", "addr:country": "US", "addr:postcode": "21120", "addr:state": "MD", "addr:street_address": "645 HAPPY LN", "amenity": "post_box", "collection_times": "Mo-Fr 16:30; Sa 13:00", "indoor": "yes", "note": "ON 12/24 AND 12/31, THIS BOX MAY BE COLLECTED AS EARLY AS 12 NOON.", "nsi_id": "unitedstatespostalservice-a77078", "operator": "United States Postal Service", "operator:short": "USPS", "operator:type": "public", "operator:wikidata": "Q668687", "ref": "2112000005"}, "type": "Feature"}
{"geometry": {"coordinates": [-76.654441278, 39.652396536], "type": "Point"}, "id": "WwIb3efYbMFnu8UDXAcqHPsAFnA=", "properties": {"@source_uri": "https://tools.usps.com/UspsToolsRestServices/rest/POLocator/findLocations", "@spider": "usps_collection_boxes", "addr:city": "PARKTON", "addr:country": "US", "addr:postcode": "21120", "addr:state": "MD", "addr:street_address": "645 HAPPY LN", "amenity": "post_box", "collection_times": "Mo-Fr 16:00; Sa 13:00", "indoor": "yes", "note": "ON 12/24 AND 12/31, THIS BOX MAY BE COLLECTED AS EARLY AS 12 NOON.", "nsi_id": "unitedstatespostalservice-a77078", "operator": "United States Postal Service", "operator:short": "USPS", "operator:type": "public", "operator:wikidata": "Q668687", "ref": "2112000007"}, "type": "Feature"}
{"geometry": {"coordinates": [-76.532107981, 39.123093929], "type": "Point"}, "id": "G6OeawpvTZWkrvF-7QQIZkHbBFE=", "properties": {"@source_uri": "https://tools.usps.com/UspsToolsRestServices/rest/POLocator/findLocations", "@spider": "usps_collection_boxes", "addr:city": "PASADENA", "addr:country": "US", "addr:postcode": "21122", "addr:state": "MD", "addr:street_address": "600 DEERING RD", "amenity": "post_box", "collection_times": "Mo-Sa 10:00", "nsi_id": "unitedstatespostalservice-a77078", "operator": "United States Postal Service", "operator:short": "USPS", "operator:type": "public", "operator:wikidata": "Q668687", "ref": "2112200003"}, "type": "Feature"}
{"geometry": {"coordinates": [-76.516187, 39.157224], "type": "Point"}, "id": "tXU3_XfsX2GW99uItmrAKb8eWbA=", "properties": {"@source_uri": "https://tools.usps.com/UspsToolsRestServices/rest/POLocator/findLocations", "@spider": "usps_collection_boxes", "addr:city": "PASADENA", "addr:country": "US", "addr:postcode": "21122", "addr:state": "MD", "addr:street_address": "8477 RIVIERA PLZ", "amenity": "post_box", "collection_times": "Mo-Sa 10:00", "nsi_id": "unitedstatespostalservice-a77078", "operator": "United States Postal Service", "operator:short": "USPS", "operator:type": "public", "operator:wikidata": "Q668687", "ref": "2112200005"}, "type": "Feature"}
{"geometry": {"coordinates": [-76.525249, 39.144159], "type": "Point"}, "id": "2dNqR17JCxuFuDkMVt8-AgaUlmY=", "properties": {"@source_uri": "https://tools.usps.com/UspsToolsRestServices/rest/POLocator/findLocations", "@spider": "usps_collection_boxes", "addr:city": "PASADENA", "addr:country": "US", "addr:postcode": "21122", "addr:state": "MD", "addr:street_address": "8707 FORT SMALLWOOD RD", "amenity": "post_box", "collection_times": "Mo-Sa 10:00", "nsi_id": "unitedstatespostalservice-a77078", "operator": "United States Postal Service", "operator:short": "USPS", "operator:type": "public", "operator:wikidata": "Q668687", "ref": "2112200008"}, "type": "Feature"}
{"geometry": {"coordinates": [-76.570428, 39.10497], "type": "Point"}, "id": "FaVjvvQlnO2EbdO2DYsX9MjiVHI=", "properties": {"@source_uri": "https://tools.usps.com/UspsToolsRestServices/rest/POLocator/findLocations", "@spider": "usps_collection_boxes", "addr:city": "PASADENA", "addr:country": "US", "addr:postcode": "21122", "addr:state": "MD", "addr:street_address": "75 RITCHIE HWY", "amenity": "post_box", "collection_times": "Mo-Sa 10:00", "nsi_id": "unitedstatespostalservice-a77078", "operator": "United States Postal Service", "operator:short": "USPS", "operator:type": "public", "operator:wikidata": "Q668687", "ref": "2112200009"}, "type": "Feature"}
{"geometry": {"coordinates": [-76.5407421, 39.118442], "type": "Point"}, "id": "m-rh3jfnvKIccKhcK-lQOK_-cf0=", "properties": {"@source_uri": "https://tools.usps.com/UspsToolsRestServices/rest/POLocator/findLocations", "@spider": "usps_collection_boxes", "addr:city": "PASADENA", "addr:country": "US", "addr:postcode": "21122", "addr:state": "MD", "addr:street_address": "603 ELIOT RD", "amenity": "post_box", "collection_times": "Mo-Sa 10:00", "nsi_id": "unitedstatespostalservice-a77078", "operator": "United States Postal Service", "operator:short": "USPS", "operator:type": "public", "operator:wikidata": "Q668687", "ref": "2112200011"}, "type": "Feature"}
{"geometry": {"coordinates": [-76.5080537, 39.161421], "type": "Point"}, "id": "-lXxAaJz-8t8RweVctKKvFf0zfY=", "properties": {"@source_uri": "https://tools.usps.com/UspsToolsRestServices/rest/POLocator/findLocations", "@spider": "usps_collection_boxes", "addr:city": "PASADENA", "addr:country": "US", "addr:postcode": "21122", "addr:state": "MD", "addr:street_address": "8546 MAIN AVE", "amenity": "post_box", "collection_times": "Mo-Sa 10:00", "nsi_id": "unitedstatespostalservice-a77078", "operator": "United States Postal Service", "operator:short": "USPS", "operator:type": "public", "operator:wikidata": "Q668687", "ref": "2112200016"}, "type": "Feature"}
{"geometry": {"coordinates": [-76.5356844008, 39.1263188452], "type": "Point"}, "id": "psqzPYW3mYYgW-05EMTqzBr6uDs=", "properties": {"@source_uri": "https://tools.usps.com/UspsToolsRestServices/rest/POLocator/findLocations", "@spider": "usps_collection_boxes", "addr:city": "PASADENA", "addr:country": "US", "addr:postcode": "21122", "addr:state": "MD", "addr:street_address": "3120 MOUNTAIN RD", "amenity": "post_box", "collection_times": "Mo-Sa 10:00", "nsi_id": "unitedstatespostalservice-a77078", "operator": "United States Postal Service", "operator:short": "USPS", "operator:type": "public", "operator:wikidata": "Q668687", "ref": "2112200017"}, "type": "Feature"}
{"geometry": {"coordinates": [-76.5194190277, 39.1515380187], "type": "Point"}, "id": "kOpbu9H9jcGnHd3mUGRxH2jP_Ps=", "properties": {"@source_uri": "https://tools.usps.com/UspsToolsRestServices/rest/POLocator/findLocations", "@spider": "usps_collection_boxes", "addr:city": "PASADENA", "addr:country": "US", "addr:postcode": "21122", "addr:state": "MD", "addr:street_address": "8579 FORT SMALLWOOD RD", "amenity": "post_box", "collection_times": "Mo-Sa 09:00", "nsi_id": "unitedstatespostalservice-a77078", "operator": "United States Postal Service", "operator:short": "USPS", "operator:type": "public", "operator:wikidata": "Q668687", "ref": "2112200018"}, "type": "Feature"}
{"geometry": {"coordinates": [-76.517489, 39.158296], "type": "Point"}, "id": "lbIyT6yFYZ7z_9cdi-DpztfT3Kc=", "properties": {"@source_uri": "https://tools.usps.com/UspsToolsRestServices/rest/POLocator/findLocations", "@spider": "usps_collection_boxes", "addr:city": "PASADENA", "addr:country": "US", "addr:postcode": "21122", "addr:state": "MD", "addr:street_address": "8480 FORT SMALLWOOD RD", "amenity": "post_box", "collection_times": "Mo-Sa 09:00", "nsi_id": "unitedstatespostalservice-a77078", "operator": "United States Postal Service", "operator:short": "USPS", "operator:type": "public", "operator:wikidata": "Q668687", "ref": "2112200019"}, "type": "Feature"}
{"geometry": {"coordinates": [-76.505835302, 39.1221656169], "type": "Point"}, "id": "9m0jVhQiZB4_TCw-XRPOX42L55w=", "properties": {"@source_uri": "https://tools.usps.com/UspsToolsRestServices/rest/POLocator/findLocations", "@spider": "usps_collection_boxes", "addr:city": "PASADENA", "addr:country": "US", "addr:postcode": "21122", "addr:state": "MD", "addr:street_address": "534 BROADWATER WAY", "amenity": "post_box", "collection_times": "Mo-Fr 17:00; Sa 12:30", "note": "ON 12/24 AND 12/31, THIS BOX MAY BE COLLECTED AS EARLY AS 12 NOON.", "nsi_id": "unitedstatespostalservice-a77078", "operator": "United States Postal Service", "operator:short": "USPS", "operator:type": "public", "operator:wikidata": "Q668687", "ref": "2112200021"}, "type": "Feature"}
{"geometry": {"coordinates": [-76.465934, 39.105323], "type": "Point"}, "id": "LRuAyf0zNMh3nywqMRL1AMUtHTc=", "properties": {"@source_uri": "https://tools.usps.com/UspsToolsRestServices/rest/POLocator/findLocations", "@spider": "usps_collection_boxes", "addr:city": "PASADENA", "addr:country": "US", "addr:postcode": "21122", "addr:state": "MD", "addr:street_address": "4730 MOUNTAIN RD", "amenity": "post_box", "collection_times": "Mo-Sa 10:00", "nsi_id": "unitedstatespostalservice-a77078", "operator": "United States Postal Service", "operator:short": "USPS", "operator:type": "public", "operator:wikidata": "Q668687", "ref": "2112200022"}, "type": "Feature"}
{"geometry": {"coordinates": [-76.54782, 39.128763], "type": "Point"}, "id": "bcLU7djNgpBe4whXNQ9GC45fgJk=", "properties": {"@source_uri": "https://tools.usps.com/UspsToolsRestServices/rest/POLocator/findLocations", "@spider": "usps_collection_boxes", "addr:city": "PASADENA", "addr:country": "US", "addr:postcode": "21122", "addr:state": "MD", "addr:street_address": "2435 MOUNTAIN RD", "amenity": "post_box", "collection_times": "Mo-Sa 09:00", "nsi_id": "unitedstatespostalservice-a77078", "operator": "United States Postal Service", "operator:short": "USPS", "operator:type": "public", "operator:wikidata": "Q668687", "ref": "2112200023"}, "type": "Feature"}
{"geometry": {"coordinates": [-76.512964324, 39.12153796], "type": "Point"}, "id": "punhEh67nm3__06A0UyESbOgCOo=", "properties": {"@source_uri": "https://tools.usps.com/UspsToolsRestServices/rest/POLocator/findLocations", "@spider": "usps_collection_boxes", "addr:city": "PASADENA", "addr:country": "US", "addr:postcode": "21122", "addr:state": "MD", "addr:street_address": "4301 MOUNTAIN RD", "amenity": "post_box", "collection_times": "Mo-Fr 17:00; Sa 14:30", "note": "ON 12/24 AND 12/31, THIS BOX MAY BE COLLECTED AS EARLY AS 12 NOON.", "nsi_id": "unitedstatespostalservice-a77078", "operator": "United States Postal Service", "operator:short": "USPS", "operator:type": "public", "operator:wikidata": "Q668687", "ref": "2112200025"}, "type": "Feature"}
{"geometry": {"coordinates": [-76.587979, 39.124431], "type": "Point"}, "id": "q8YnLKd0e_uaSbA_t40K6c8LT1o=", "properties": {"@source_uri": "https://tools.usps.com/UspsToolsRestServices/rest/POLocator/findLocations", "@spider": "usps_collection_boxes", "addr:city": "PASADENA", "addr:country": "US", "addr:postcode": "21122", "addr:state": "MD", "addr:street_address": "8125 RITCHIE HWY", "amenity": "post_box", "collection_times": "Mo-Sa 10:00", "nsi_id": "unitedstatespostalservice-a77078", "operator": "United States Postal Service", "operator:short": "USPS", "operator:type": "public", "operator:wikidata": "Q668687", "ref": "2112200027"}, "type": "Feature"}
{"geometry": {"coordinates": [-76.592719, 39.129218], "type": "Point"}, "id": "8pRyVRODYJXrpqCWdhW-FlQBnDY=", "properties": {"@source_uri": "https://tools.usps.com/UspsToolsRestServices/rest/POLocator/findLocations", "@spider": "usps_collection_boxes", "addr:city": "PASADENA", "addr:country": "US", "addr:postcode": "21122", "addr:state": "MD", "addr:street_address": "8028 RITCHIE HWY", "amenity": "post_box", "collection_times": "Mo-Sa 10:00", "nsi_id": "unitedstatespostalservice-a77078", "operator": "United States Postal Service", "operator:short": "USPS", "operator:type": "public", "operator:wikidata": "Q668687", "ref": "2112200028"}, "type": "Feature"}
{"geometry": {"coordinates": [-76.512964324, 39.12153796], "type": "Point"}, "id": "tWwEMzscf0pDk71EsxAabbCW34A=", "properties": {"@source_uri": "https://tools.usps.com/UspsToolsRestServices/rest/POLocator/findLocations", "@spider": "usps_collection_boxes", "addr:city": "PASADENA", "addr:country": "US", "addr:postcode": "21122", "addr:state": "MD", "addr:street_address": "4301 MOUNTAIN RD", "amenity": "post_box", "collection_times": "Mo-Fr 17:00; Sa 14:30", "indoor": "yes", "note": "ON 12/24 AND 12/31, THIS BOX MAY BE COLLECTED AS EARLY AS 12 NOON.", "nsi_id": "unitedstatespostalservice-a77078", "operator": "United States Postal Service", "operator:short": "USPS", "operator:type": "public", "operator:wikidata": "Q668687", "ref": "2112200031"}, "type": "Feature"}
{"geometry": {"coordinates": [-76.512964324, 39.12153796], "type": "Point"}, "id": "ox5c5nM1WPQsBpG9x1-v0PZwq-c=", "properties": {"@source_uri": "https://tools.usps.com/UspsToolsRestServices/rest/POLocator/findLocations", "@spider": "usps_collection_boxes", "addr:city": "PASADENA", "addr:country": "US", "addr:postcode": "21122", "addr:state": "MD", "addr:street_address": "4301 MOUNTAIN RD", "amenity": "post_box", "collection_times": "Mo-Fr 17:00; Sa 14:30", "indoor": "yes", "note": "ON 12/24 AND 12/31, THIS BOX MAY BE COLLECTED AS EARLY AS 12 NOON.", "nsi_id": "unitedstatespostalservice-a77078", "operator": "United States Postal Service", "operator:short": "USPS", "operator:type": "public", "operator:wikidata": "Q668687", "ref": "2112200034"}, "type": "Feature"}
{"geometry": {"coordinates": [-76.512964324, 39.12153796], "type": "Point"}, "id": "usfTCHeMHXvWDkoNUd68hx9HgoE=", "properties": {"@source_uri": "https://tools.usps.com/UspsToolsRestServices/rest/POLocator/findLocations", "@spider": "usps_collection_boxes", "addr:city": "PASADENA", "addr:country": "US", "addr:postcode": "21122", "addr:state": "MD", "addr:street_address": "4301 MOUNTAIN RD", "amenity": "post_box", "collection_times": "Mo-Fr 17:00; Sa 14:30", "name": "USPS COLLECTION BOX - APC", "note": "ON 12/24 AND 12/31, THIS BOX MAY BE COLLECTED AS EARLY AS 12 NOON.", "nsi_id": "unitedstatespostalservice-a77078", "operator": "United States Postal Service", "operator:short": "USPS", "operator:type": "public", "operator:wikidata": "Q668687", "ref": "2112200035"}, "type": "Feature"}
{"geometry": {"coordinates": [-76.512964324, 39.12153796], "type": "Point"}, "id": "W_OS7F2vIZHlbY8FWw5oU7vJOV8=", "properties": {"@source_uri": "https://tools.usps.com/UspsToolsRestServices/rest/POLocator/findLocations", "@spider": "usps_collection_boxes", "addr:city": "PASADENA", "addr:country": "US", "addr:postcode": "21122", "addr:state": "MD", "addr:street_address": "4301 MOUNTAIN RD", "amenity": "post_box", "collection_times": "Mo-Fr 17:00; Sa 13:00", "indoor": "yes", "note": "ON 12/24 AND 12/31, THIS BOX MAY BE COLLECTED AS EARLY AS 12 NOON.", "nsi_id": "unitedstatespostalservice-a77078", "operator": "United States Postal Service", "operator:short": "USPS", "operator:type": "public", "operator:wikidata": "Q668687", "ref": "2112200042"}, "type": "Feature"}
{"geometry": {"coordinates": [-76.4874321, 39.392858395], "type": "Point"}, "id": "ZOlLiyPcKQyYQ8B_oonjUyfdbeY=", "properties": {"@source_uri": "https://tools.usps.com/UspsToolsRestServices/rest/POLocator/findLocations", "@spider": "usps_collection_boxes", "addr:city": "PERRY HALL", "addr:country": "US", "addr:postcode": "21128", "addr:state": "MD", "addr:street_address": "8744 BELAIR RD", "amenity": "post_box", "collection_times": "Mo-Fr 16:45; Sa 12:15", "indoor": "yes", "note": "ON 12/24 AND 12/31, THIS BOX MAY BE COLLECTED AS EARLY AS 12 NOON.", "nsi_id": "unitedstatespostalservice-a77078", "operator": "United States Postal Service", "operator:short": "USPS", "operator:type": "public", "operator:wikidata": "Q668687", "ref": "2112800000"}, "type": "Feature"}
{"geometry": {"coordinates": [-76.4874321, 39.392858395], "type": "Point"}, "id": "BOi4iEnV2c4Hlwav5JQK1WEF99k=", "properties": {"@source_uri": "https://tools.usps.com/UspsToolsRestServices/rest/POLocator/findLocations", "@spider": "usps_collection_boxes", "addr:city": "PERRY HALL", "addr:country": "US", "addr:postcode": "21128", "addr:state": "MD", "addr:street_address": "8744 BELAIR RD", "amenity": "post_box", "collection_times": "Mo-Fr 16:45; Sa 12:15", "indoor": "yes", "note": "ON 12/24 AND 12/31, THIS BOX MAY BE COLLECTED AS EARLY AS 12 NOON.", "nsi_id": "unitedstatespostalservice-a77078", "operator": "United States Postal Service", "operator:short": "USPS", "operator:type": "public", "operator:wikidata": "Q668687", "ref": "2112800001"}, "type": "Feature"}
{"geometry": {"coordinates": [-76.4874321, 39.392858395], "type": "Point"}, "id": "rcnwDXjVuvUbBiDUanlRuSp2VhE=", "properties": {"@source_uri": "https://tools.usps.com/UspsToolsRestServices/rest/POLocator/findLocations", "@spider": "usps_collection_boxes", "addr:city": "PERRY HALL", "addr:country": "US", "addr:postcode": "21128", "addr:state": "MD", "addr:street_address": "8744 BELAIR RD", "amenity": "post_box", "collection_times": "Mo-Fr 17:00; Sa 12:30", "indoor": "yes", "note": "ON 12/24 AND 12/31, THIS BOX MAY BE COLLECTED AS EARLY AS 12 NOON.", "nsi_id": "unitedstatespostalservice-a77078", "operator": "United States Postal Service", "operator:short": "USPS", "operator:type": "public", "operator:wikidata": "Q668687", "ref": "2112800004"}, "type": "Feature"}
{"geometry": {"coordinates": [-76.201219303, 39.465892206], "type": "Point"}, "id": "3lwJ_4EAtDRyMMlL8qdPQX8YzRc=", "properties": {"@source_uri": "https://tools.usps.com/UspsToolsRestServices/rest/POLocator/findLocations", "@spider": "usps_collection_boxes", "addr:city": "PERRYMAN", "addr:country": "US", "addr:postcode": "21130", "addr:state": "MD", "addr:street_address": "428 MICHAELSVILLE RD", "amenity": "post_box", "collection_times": "Mo-Fr 16:00; Sa 11:30", "note": "ON 12/24 AND 12/31, THIS BOX MAY BE COLLECTED AS EARLY AS 12 NOON.", "nsi_id": "unitedstatespostalservice-a77078", "operator": "United States Postal Service", "operator:short": "USPS", "operator:type": "public", "operator:wikidata": "Q668687", "ref": "2113000000"}, "type": "Feature"}
{"geometry": {"coordinates": [-76.201219303, 39.465892206], "type": "Point"}, "id": "_ruCHOuOv4Rbs1I96w-4bny3dTo=", "properties": {"@source_uri": "https://tools.usps.com/UspsToolsRestServices/rest/POLocator/findLocations", "@spider": "usps_collection_boxes", "addr:city": "PERRYMAN", "addr:country": "US", "addr:postcode": "21130", "addr:state": "MD", "addr:street_address": "428 MICHAELSVILLE RD", "amenity": "post_box", "collection_times": "Mo-Fr 16:00; Sa 11:30", "indoor": "yes", "note": "ON 12/24 AND 12/31, THIS BOX MAY BE COLLECTED AS EARLY AS 12 NOON.", "nsi_id": "unitedstatespostalservice-a77078", "operator": "United States Postal Service", "operator:short": "USPS", "operator:type": "public", "operator:wikidata": "Q668687", "ref": "2113000001"}, "type": "Feature"}
{"geometry": {"coordinates": [-76.201219303, 39.465892206], "type": "Point"}, "id": "pL0ldnOasDKzGRMupN7AdktopRo=", "properties": {"@source_uri": "https://tools.usps.com/UspsToolsRestServices/rest/POLocator/findLocations", "@spider": "usps_collection_boxes", "addr:city": "PERRYMAN", "addr:country": "US", "addr:postcode": "21130", "addr:state": "MD", "addr:street_address": "428 MICHAELSVILLE RD", "amenity": "post_box", "collection_times": "Mo-Fr 16:00; Sa 11:30", "indoor": "yes", "note": "ON 12/24 AND 12/31, THIS BOX MAY BE COLLECTED AS EARLY AS 12 NOON.", "nsi_id": "unitedstatespostalservice-a77078", "operator": "United States Postal Service", "operator:short": "USPS", "operator:type": "public", "operator:wikidata": "Q668687", "ref": "2113000002"}, "type": "Feature"}
{"geometry": {"coordinates": [-76.201219303, 39.465892206], "type": "Point"}, "id": "0fLHam5Mv_cqnfGXY_v7sYzS8R4=", "properties": {"@source_uri": "https://tools.usps.com/UspsToolsRestServices/rest/POLocator/findLocations", "@spider": "usps_collection_boxes", "addr:city": "PERRYMAN", "addr:country": "US", "addr:postcode": "21130", "addr:state": "MD", "addr:street_address": "428 MICHAELSVILLE RD", "amenity": "post_box", "collection_times": "Mo-Fr 16:00; Sa 12:00", "indoor": "yes", "note": "ON 12/24 AND 12/31, THIS BOX MAY BE COLLECTED AS EARLY AS 12 NOON.", "nsi_id": "unitedstatespostalservice-a77078", "operator": "United States Postal Service", "operator:short": "USPS", "operator:type": "public", "operator:wikidata": "Q668687", "ref": "2113000004"}, "type": "Feature"}
{"geometry": {"coordinates": [-76.557163, 39.515946], "type": "Point"}, "id": "TP38QzT2S3MgcFwrd0WbCzOnd2E=", "properties": {"@source_uri": "https://tools.usps.com/UspsToolsRestServices/rest/POLocator/findLocations", "@spider": "usps_collection_boxes", "addr:city": "PHOENIX", "addr:country": "US", "addr:postcode": "21131", "addr:state": "MD", "addr:street_address": "3461 SWEET AIR RD", "amenity": "post_box", "collection_times": "Mo-Sa 09:00", "nsi_id": "unitedstatespostalservice-a77078", "operator": "United States Postal Service", "operator:short": "USPS", "operator:type": "public", "operator:wikidata": "Q668687", "ref": "2113100001"}, "type": "Feature"}
{"geometry": {"coordinates": [-76.559287142, 39.519684], "type": "Point"}, "id": "ZtIfITkYbgoN1kwL_goLTP56N2I=", "properties": {"@source_uri": "https://tools.usps.com/UspsToolsRestServices/rest/POLocator/findLocations", "@spider": "usps_collection_boxes", "addr:city": "PHOENIX", "addr:country": "US", "addr:postcode": "21131", "addr:state": "MD", "addr:street_address": "14320 JARRETTSVILLE PIKE", "amenity": "post_box", "collection_times": "Mo-Fr 17:00; Sa 12:30", "note": "ON 12/24 AND 12/31, THIS BOX MAY BE COLLECTED AS EARLY AS 12 NOON.", "nsi_id": "unitedstatespostalservice-a77078", "operator": "United States Postal Service", "operator:short": "USPS", "operator:type": "public", "operator:wikidata": "Q668687", "ref": "2113100002"}, "type": "Feature"}
{"geometry": {"coordinates": [-76.559287142, 39.519684], "type": "Point"}, "id": "jKbjp6NGGbUwAeNiRzrObkmzPw4=", "properties": {"@source_uri": "https://tools.usps.com/UspsToolsRestServices/rest/POLocator/findLocations", "@spider": "usps_collection_boxes", "addr:city": "PHOENIX", "addr:country": "US", "addr:postcode": "21131", "addr:state": "MD", "addr:street_address": "14320 JARRETTSVILLE PIKE", "amenity": "post_box", "collection_times": "Mo-Fr 17:00; Sa 12:30", "indoor": "yes", "note": "ON 12/24 AND 12/31, THIS BOX MAY BE COLLECTED AS EARLY AS 12 NOON.", "nsi_id": "unitedstatespostalservice-a77078", "operator": "United States Postal Service", "operator:short": "USPS", "operator:type": "public", "operator:wikidata": "Q668687", "ref": "2113100005"}, "type": "Feature"}
{"geometry": {"coordinates": [-76.5598619, 39.520537], "type": "Point"}, "id": "xs2y2QImgSKoHZW8TAU7jgEUTVs=", "properties": {"@source_uri": "https://tools.usps.com/UspsToolsRestServices/rest/POLocator/findLocations", "@spider": "usps_collection_boxes", "addr:city": "PHOENIX", "addr:country": "US", "addr:postcode": "21131", "addr:state": "MD", "addr:street_address": "14330 JARRETTSVILLE PIKE", "amenity": "post_box", "collection_times": "Mo-Sa 09:00", "nsi_id": "unitedstatespostalservice-a77078", "operator": "United States Postal Service", "operator:short": "USPS", "operator:type": "public", "operator:wikidata": "Q668687", "ref": "2113100007"}, "type": "Feature"}
{"geometry": {"coordinates": [-76.559287142, 39.519684], "type": "Point"}, "id": "Gwp2VYP7_UlD6bX2jAcZJEKoJIU=", "properties": {"@source_uri": "https://tools.usps.com/UspsToolsRestServices/rest/POLocator/findLocations", "@spider": "usps_collection_boxes", "addr:city": "PHOENIX", "addr:country": "US", "addr:postcode": "21131", "addr:state": "MD", "addr:street_address": "14320 JARRETTSVILLE PIKE", "amenity": "post_box", "collection_times": "Mo-Fr 17:00; Sa 12:30", "indoor": "yes", "note": "ON 12/24 AND 12/31, THIS BOX MAY BE COLLECTED AS EARLY AS 12 NOON.", "nsi_id": "unitedstatespostalservice-a77078", "operator": "United States Postal Service", "operator:short": "USPS", "operator:type": "public", "operator:wikidata": "Q668687", "ref": "2113100009"}, "type": "Feature"}
{"geometry": {"coordinates": [-76.373110401, 39.682529988], "type": "Point"}, "id": "cE2iGe_KCwYQIvjCtBZcpgoKAkU=", "properties": {"@source_uri": "https://tools.usps.com/UspsToolsRestServices/rest/POLocator/findLocations", "@spider": "usps_collection_boxes", "addr:city": "PYLESVILLE", "addr:country": "US", "addr:postcode": "21132", "addr:state": "MD", "addr:street_address": "3965 ADY RD", "amenity": "post_box", "collection_times": "Mo-Fr 15:45; Sa 11:30", "note": "ON 12/24 AND 12/31, THIS BOX MAY BE COLLECTED AS EARLY AS 12 NOON.", "nsi_id": "unitedstatespostalservice-a77078", "operator": "United States Postal Service", "operator:short": "USPS", "operator:type": "public", "operator:wikidata": "Q668687", "ref": "2113200002"}, "type": "Feature"}
{"geometry": {"coordinates": [-76.373110401, 39.682529988], "type": "Point"}, "id": "ksnK71tnowIqiTJBJvuNeflqlHQ=", "properties": {"@source_uri": "https://tools.usps.com/UspsToolsRestServices/rest/POLocator/findLocations", "@spider": "usps_collection_boxes", "addr:city": "PYLESVILLE", "addr:country": "US", "addr:postcode": "21132", "addr:state": "MD", "addr:street_address": "3965 ADY RD", "amenity": "post_box", "collection_times": "Mo-Fr 15:45; Sa 11:30", "indoor": "yes", "note": "ON 12/24 AND 12/31, THIS BOX MAY BE COLLECTED AS EARLY AS 12 NOON.", "nsi_id": "unitedstatespostalservice-a77078", "operator": "United States Postal Service", "operator:short": "USPS", "operator:type": "public", "operator:wikidata": "Q668687", "ref": "2113200003"}, "type": "Feature"}
{"geometry": {"coordinates": [-76.373110401, 39.682529988], "type": "Point"}, "id": "xZ60TGnBe5w1KNMBnzl4IaBHhEw=", "properties": {"@source_uri": "https://tools.usps.com/UspsToolsRestServices/rest/POLocator/findLocations", "@spider": "usps_collection_boxes", "addr:city": "PYLESVILLE", "addr:country": "US", "addr:postcode": "21132", "addr:state": "MD", "addr:street_address": "3965 ADY RD", "amenity": "post_box", "collection_times": "Mo-Fr 15:45; Sa 11:30", "indoor": "yes", "note": "ON 12/24 AND 12/31, THIS BOX MAY BE COLLECTED AS EARLY AS 12 NOON.", "nsi_id": "unitedstatespostalservice-a77078", "operator": "United States Postal Service", "operator:short": "USPS", "operator:type": "public", "operator:wikidata": "Q668687", "ref": "2113200004"}, "type": "Feature"}
{"geometry": {"coordinates": [-76.373110401, 39.682529988], "type": "Point"}, "id": "bEIyDDKanZAkS1yh3F5ZCbvXRDs=", "properties": {"@source_uri": "https://tools.usps.com/UspsToolsRestServices/rest/POLocator/findLocations", "@spider": "usps_collection_boxes", "addr:city": "PYLESVILLE", "addr:country": "US", "addr:postcode": "21132", "addr:state": "MD", "addr:street_address": "3965 ADY RD", "amenity": "post_box", "collection_times": "Mo-Fr 16:00; Sa 11:30", "indoor": "yes", "note": "ON 12/24 AND 12/31, THIS BOX MAY BE COLLECTED AS EARLY AS 12 NOON.", "nsi_id": "unitedstatespostalservice-a77078", "operator": "United States Postal Service", "operator:short": "USPS", "operator:type": "public", "operator:wikidata": "Q668687", "ref": "2113200006"}, "type": "Feature"}
{"geometry": {"coordinates": [-76.8194865, 39.380589], "type": "Point"}, "id": "QcxVS9OgeB-Y1iuXSne9najoUUA=", "properties": {"@source_uri": "https://tools.usps.com/UspsToolsRestServices/rest/POLocator/findLocations", "@spider": "usps_collection_boxes", "addr:city": "RANDALLSTOWN", "addr:country": "US", "addr:postcode": "21133", "addr:state": "MD", "addr:street_address": "3906 TIVERTON RD", "amenity": "post_box", "collection_times": "Mo-Sa 10:00", "nsi_id": "unitedstatespostalservice-a77078", "operator": "United States Postal Service", "operator:short": "USPS", "operator:type": "public", "operator:wikidata": "Q668687", "ref": "2113300002"}, "type": "Feature"}
{"geometry": {"coordinates": [-76.8275728, 39.375126], "type": "Point"}, "id": "2EkitMNWcaxgmIZYOR-3l9ogpZE=", "properties": {"@source_uri": "https://tools.usps.com/UspsToolsRestServices/rest/POLocator/findLocations", "@spider": "usps_collection_boxes", "addr:city": "RANDALLSTOWN", "addr:country": "US", "addr:postcode": "21133", "addr:state": "MD", "addr:street_address": "3701 KINGS POINT RD", "amenity": "post_box", "collection_times": "Mo-Sa 10:00", "nsi_id": "unitedstatespostalservice-a77078", "operator": "United States Postal Service", "operator:short": "USPS", "operator:type": "public", "operator:wikidata": "Q668687", "ref": "2113300005"}, "type": "Feature"}
{"geometry": {"coordinates": [-76.8114199, 39.371456], "type": "Point"}, "id": "F1wLZu_lbNLcUsLxHyGc1T8R5DA=", "properties": {"@source_uri": "https://tools.usps.com/UspsToolsRestServices/rest/POLocator/findLocations", "@spider": "usps_collection_boxes", "addr:city": "RANDALLSTOWN", "addr:country": "US", "addr:postcode": "21133", "addr:state": "MD", "addr:street_address": "3456 CARRIAGE HILL CIR", "amenity": "post_box", "collection_times": "Mo-Sa 10:00", "nsi_id": "unitedstatespostalservice-a77078", "operator": "United States Postal Service", "operator:short": "USPS", "operator:type": "public", "operator:wikidata": "Q668687", "ref": "2113300006"}, "type": "Feature"}
{"geometry": {"coordinates": [-76.7864499, 39.360703], "type": "Point"}, "id": "UGfCJXwY2gC3-0s525BET9sOsBk=", "properties": {"@source_uri": "https://tools.usps.com/UspsToolsRestServices/rest/POLocator/findLocations", "@spider": "usps_collection_boxes", "addr:city": "RANDALLSTOWN", "addr:country": "US", "addr:postcode": "21133", "addr:state": "MD", "addr:street_address": "11 CINNAMON CIR", "amenity": "post_box", "collection_times": "Mo-Sa 09:00", "nsi_id": "unitedstatespostalservice-a77078", "operator": "United States Postal Service", "operator:short": "USPS", "operator:type": "public", "operator:wikidata": "Q668687", "ref": "2113300009"}, "type": "Feature"}
{"geometry": {"coordinates": [-76.7798599, 39.36095], "type": "Point"}, "id": "GdIbedh6LkadLLoPaG3p0ZhoqW0=", "properties": {"@source_uri": "https://tools.usps.com/UspsToolsRestServices/rest/POLocator/findLocations", "@spider": "usps_collection_boxes", "addr:city": "RANDALLSTOWN", "addr:country": "US", "addr:postcode": "21133", "addr:state": "MD", "addr:street_address": "5310 OLD COURT RD", "amenity": "post_box", "collection_times": "Mo-Sa 09:00", "nsi_id": "unitedstatespostalservice-a77078", "operator": "United States Postal Service", "operator:short": "USPS", "operator:type": "public", "operator:wikidata": "Q668687", "ref": "2113300011"}, "type": "Feature"}
{"geometry": {"coordinates": [-76.7830028, 39.3593], "type": "Point"}, "id": "a2VW4lWLi-QLJ_EGic3zsPckbs4=", "properties": {"@source_uri": "https://tools.usps.com/UspsToolsRestServices/rest/POLocator/findLocations", "@spider": "usps_collection_boxes", "addr:city": "RANDALLSTOWN", "addr:country": "US", "addr:postcode": "21133", "addr:state": "MD", "addr:street_address": "5400 OLD COURT RD", "amenity": "post_box", "collection_times": "Mo-Sa 09:00", "nsi_id": "unitedstatespostalservice-a77078", "operator": "United States Postal Service", "operator:short": "USPS", "operator:type": "public", "operator:wikidata": "Q668687", "ref": "2113300012"}, "type": "Feature"}
{"geometry": {"coordinates": [-76.7797959, 39.363244], "type": "Point"}, "id": "5Ej2kQVQ85JaXilrvmWEcDZpUMo=", "properties": {"@source_uri": "https://tools.usps.com/UspsToolsRestServices/rest/POLocator/findLocations", "@spider": "usps_collection_boxes", "addr:city": "RANDALLSTOWN", "addr:country": "US", "addr:postcode": "21133", "addr:state": "MD", "addr:street_address": "8630 LIBERTY RD", "amenity": "post_box", "collection_times": "Mo-Sa 09:00", "nsi_id": "unitedstatespostalservice-a77078", "operator": "United States Postal Service", "operator:short": "USPS", "operator:type": "public", "operator:wikidata": "Q668687", "ref": "2113300016"}, "type": "Feature"}
{"geometry": {"coordinates": [-76.7765709, 39.379401], "type": "Point"}, "id": "gF46a7mDZkxfeoyOyZWsjQKgaTM=", "properties": {"@source_uri": "https://tools.usps.com/UspsToolsRestServices/rest/POLocator/findLocations", "@spider": "usps_collection_boxes", "addr:city": "RANDALLSTOWN", "addr:country": "US", "addr:postcode": "21133", "addr:state": "MD", "addr:street_address": "4100 CENTURY TOWNE RD", "amenity": "post_box", "collection_times": "Mo-Sa 10:00", "nsi_id": "unitedstatespostalservice-a77078", "operator": "United States Postal Service", "operator:short": "USPS", "operator:type": "public", "operator:wikidata": "Q668687", "ref": "2113300029"}, "type": "Feature"}
{"geometry": {"coordinates": [-76.8227849, 39.386913], "type": "Point"}, "id": "TCBj7g2RONamnTy7nHI-fwiLFKU=", "properties": {"@source_uri": "https://tools.usps.com/UspsToolsRestServices/rest/POLocator/findLocations", "@spider": "usps_collection_boxes", "addr:city": "RANDALLSTOWN", "addr:country": "US", "addr:postcode": "21133", "addr:state": "MD", "addr:street_address": "9901 WINANDS RD", "amenity": "post_box", "collection_times": "Mo-Sa 10:00", "nsi_id": "unitedstatespostalservice-a77078", "operator": "United States Postal Service", "operator:short": "USPS", "operator:type": "public", "operator:wikidata": "Q668687", "ref": "2113300030"}, "type": "Feature"}
{"geometry": {"coordinates": [-76.7877112, 39.363252], "type": "Point"}, "id": "gn1zB9vJ6-w0seWcx3r1B9QBpiE=", "properties": {"@source_uri": "https://tools.usps.com/UspsToolsRestServices/rest/POLocator/findLocations", "@spider": "usps_collection_boxes", "addr:city": "RANDALLSTOWN", "addr:country": "US", "addr:postcode": "21133", "addr:state": "MD", "addr:street_address": "3525 RESOURCE DR", "amenity": "post_box", "collection_times": "Mo-Sa 09:00", "nsi_id": "unitedstatespostalservice-a77078", "operator": "United States Postal Service", "operator:short": "USPS", "operator:type": "public", "operator:wikidata": "Q668687", "ref": "2113300036"}, "type": "Feature"}
{"geometry": {"coordinates": [-76.7755916, 39.360993], "type": "Point"}, "id": "17E3mNf0fBh_FDKraAPEdwf-HBs=", "properties": {"@source_uri": "https://tools.usps.com/UspsToolsRestServices/rest/POLocator/findLocations", "@spider": "usps_collection_boxes", "addr:city": "RANDALLSTOWN", "addr:country": "US", "addr:postcode": "21133", "addr:state": "MD", "addr:street_address": "8514 LIBERTY RD", "amenity": "post_box", "collection_times": "Mo-Sa 09:00", "nsi_id": "unitedstatespostalservice-a77078", "operator": "United States Postal Service", "operator:short": "USPS", "operator:type": "public", "operator:wikidata": "Q668687", "ref": "2113300043"}, "type": "Feature"}
{"geometry": {"coordinates": [-76.798462172, 39.370239911], "type": "Point"}, "id": "FlaHmydDrMJIFwqoX9Xpasx-t-Q=", "properties": {"@source_uri": "https://tools.usps.com/UspsToolsRestServices/rest/POLocator/findLocations", "@spider": "usps_collection_boxes", "addr:city": "RANDALLSTOWN", "addr:country": "US", "addr:postcode": "21133", "addr:state": "MD", "addr:street_address": "3608 OFFUTT RD", "amenity": "post_box", "collection_times": "Mo-Fr 17:00; Sa 16:30", "note": "ON 12/24 AND 12/31, THIS BOX MAY BE COLLECTED AS EARLY AS 12 NOON.", "nsi_id": "unitedstatespostalservice-a77078", "operator": "United States Postal Service", "operator:short": "USPS", "operator:type": "public", "operator:wikidata": "Q668687", "ref": "2113300046"}, "type": "Feature"}
{"geometry": {"coordinates": [-76.798462172, 39.370239911], "type": "Point"}, "id": "zrse3sRVvISrsjS7U3BaHexkpY8=", "properties": {"@source_uri": "https://tools.usps.com/UspsToolsRestServices/rest/POLocator/findLocations", "@spider": "usps_collection_boxes", "addr:city": "RANDALLSTOWN", "addr:country": "US", "addr:postcode": "21133", "addr:state": "MD", "addr:street_address": "3608 OFFUTT RD", "amenity": "post_box", "collection_times": "Mo-Fr 17:00; Sa 16:45", "indoor": "yes", "note": "ON 12/24 AND 12/31, THIS BOX MAY BE COLLECTED AS EARLY AS 12 NOON.", "nsi_id": "unitedstatespostalservice-a77078", "operator": "United States Postal Service", "operator:short": "USPS", "operator:type": "public", "operator:wikidata": "Q668687", "ref": "2113300048"}, "type": "Feature"}
{"geometry": {"coordinates": [-76.798462172, 39.370239911], "type": "Point"}, "id": "L2swbRerMjWdClqnSahfw02Y45M=", "properties": {"@source_uri": "https://tools.usps.com/UspsToolsRestServices/rest/POLocator/findLocations", "@spider": "usps_collection_boxes", "addr:city": "RANDALLSTOWN", "addr:country": "US", "addr:postcode": "21133", "addr:state": "MD", "addr:street_address": "3608 OFFUTT RD", "amenity": "post_box", "collection_times": "Mo-Fr 17:00; Sa 16:45", "indoor": "yes", "note": "ON 12/24 AND 12/31, THIS BOX MAY BE COLLECTED AS EARLY AS 12 NOON.", "nsi_id": "unitedstatespostalservice-a77078", "operator": "United States Postal Service", "operator:short": "USPS", "operator:type": "public", "operator:wikidata": "Q668687", "ref": "2113300049"}, "type": "Feature"}
{"geometry": {"coordinates": [-76.7827162, 39.357916], "type": "Point"}, "id": "xU66yosB6TS8TN4xhhZhRG6-UtE=", "properties": {"@source_uri": "https://tools.usps.com/UspsToolsRestServices/rest/POLocator/findLocations", "@spider": "usps_collection_boxes", "addr:city": "RANDALLSTOWN", "addr:country": "US", "addr:postcode": "21133", "addr:state": "MD", "addr:street_address": "5401 OLD COURT RD", "amenity": "post_box", "collection_times": "Mo-Sa 09:00", "nsi_id": "unitedstatespostalservice-a77078", "operator": "United States Postal Service", "operator:short": "USPS", "operator:type": "public", "operator:wikidata": "Q668687", "ref": "2113300050"}, "type": "Feature"}
{"geometry": {"coordinates": [-76.798462172, 39.370239911], "type": "Point"}, "id": "IIlhLSGfJycThmDvrijHsO7LDts=", "properties": {"@source_uri": "https://tools.usps.com/UspsToolsRestServices/rest/POLocator/findLocations", "@spider": "usps_collection_boxes", "addr:city": "RANDALLSTOWN", "addr:country": "US", "addr:postcode": "21133", "addr:state": "MD", "addr:street_address": "3608 OFFUTT RD", "amenity": "post_box", "collection_times": "Mo-Fr 17:00; Sa 12:30", "indoor": "yes", "note": "ON 12/24 AND 12/31, THIS BOX MAY BE COLLECTED AS EARLY AS 12 NOON.", "nsi_id": "unitedstatespostalservice-a77078", "operator": "United States Postal Service", "operator:short": "USPS", "operator:type": "public", "operator:wikidata": "Q668687", "ref": "2113300053"}, "type": "Feature"}
{"geometry": {"coordinates": [-76.8232834, 39.457329], "type": "Point"}, "id": "PVR8z2bwyeNLqgjM8TwuWHMFLdU=", "properties": {"@source_uri": "https://tools.usps.com/UspsToolsRestServices/rest/POLocator/findLocations", "@spider": "usps_collection_boxes", "addr:city": "GLYNDON", "addr:country": "US", "addr:postcode": "21136", "addr:state": "MD", "addr:street_address": "122 CHARTLEY DR", "amenity": "post_box", "collection_times": "Mo-Sa 09:00", "nsi_id": "unitedstatespostalservice-a77078", "operator": "United States Postal Service", "operator:short": "USPS", "operator:type": "public", "operator:wikidata": "Q668687", "ref": "2113600017"}, "type": "Feature"}
{"geometry": {"coordinates": [-76.8198353, 39.476033], "type": "Point"}, "id": "N7HxSHljYFjATE83YmcJePug308=", "properties": {"@source_uri": "https://tools.usps.com/UspsToolsRestServices/rest/POLocator/findLocations", "@spider": "usps_collection_boxes", "addr:city": "GLYNDON", "addr:country": "US", "addr:postcode": "21136", "addr:state": "MD", "addr:street_address": "4854 BUTLER RD", "amenity": "post_box", "collection_times": "Mo-Sa 09:00", "nsi_id": "unitedstatespostalservice-a77078", "operator": "United States Postal Service", "operator:short": "USPS", "operator:type": "public", "operator:wikidata": "Q668687", "ref": "2113600027"}, "type": "Feature"}
{"geometry": {"coordinates": [-76.8141099, 39.449221], "type": "Point"}, "id": "pFDu2n7M_sh0414y4Hjf3c1A0CQ=", "properties": {"@source_uri": "https://tools.usps.com/UspsToolsRestServices/rest/POLocator/findLocations", "@spider": "usps_collection_boxes", "addr:city": "GLYNDON", "addr:country": "US", "addr:postcode": "21136", "addr:state": "MD", "addr:street_address": "11931 REISTERSTOWN RD", "amenity": "post_box", "collection_times": "Mo-Sa 09:00", "nsi_id": "unitedstatespostalservice-a77078", "operator": "United States Postal Service", "operator:short": "USPS", "operator:type": "public", "operator:wikidata": "Q668687", "ref": "2113600029"}, "type": "Feature"}
{"geometry": {"coordinates": [-76.829153, 39.465296], "type": "Point"}, "id": "MGmjlKx138aCj2urn3fUIfZbP_c=", "properties": {"@source_uri": "https://tools.usps.com/UspsToolsRestServices/rest/POLocator/findLocations", "@spider": "usps_collection_boxes", "addr:city": "GLYNDON", "addr:country": "US", "addr:postcode": "21136", "addr:state": "MD", "addr:street_address": "127 MAIN ST", "amenity": "post_box", "collection_times": "Mo-Sa 09:00", "nsi_id": "unitedstatespostalservice-a77078", "operator": "United States Postal Service", "operator:short": "USPS", "operator:type": "public", "operator:wikidata": "Q668687", "ref": "2113600030"}, "type": "Feature"}
{"geometry": {"coordinates": [-76.82595278, 39.459907521], "type": "Point"}, "id": "m_VXP6_fucvJiHuSscXAF6uIwKs=", "properties": {"@source_uri": "https://tools.usps.com/UspsToolsRestServices/rest/POLocator/findLocations", "@spider": "usps_collection_boxes", "addr:city": "GLYNDON", "addr:country": "US", "addr:postcode": "21136", "addr:state": "MD", "addr:street_address": "5 GLYNDON DR", "amenity": "post_box", "collection_times": "Mo-Fr 17:00; Sa 15:30", "indoor": "yes", "note": "ON 12/24 AND 12/31, THIS BOX MAY BE COLLECTED AS EARLY AS 12 NOON.", "nsi_id": "unitedstatespostalservice-a77078", "operator": "United States Postal Service", "operator:short": "USPS", "operator:type": "public", "operator:wikidata": "Q668687", "ref": "2113600031"}, "type": "Feature"}
{"geometry": {"coordinates": [-76.82595278, 39.459907521], "type": "Point"}, "id": "lQVti3KuoYwhOyeCHNyAGWQIS04=", "properties": {"@source_uri": "https://tools.usps.com/UspsToolsRestServices/rest/POLocator/findLocations", "@spider": "usps_collection_boxes", "addr:city": "GLYNDON", "addr:country": "US", "addr:postcode": "21136", "addr:state": "MD", "addr:street_address": "5 GLYNDON DR", "amenity": "post_box", "collection_times": "Mo-Fr 17:00; Sa 15:30", "indoor": "yes", "note": "ON 12/24 AND 12/31, THIS BOX MAY BE COLLECTED AS EARLY AS 12 NOON.", "nsi_id": "unitedstatespostalservice-a77078", "operator": "United States Postal Service", "operator:short": "USPS", "operator:type": "public", "operator:wikidata": "Q668687", "ref": "2113600032"}, "type": "Feature"}
{"geometry": {"coordinates": [-76.82595278, 39.459907521], "type": "Point"}, "id": "u5Eu0l10NxEYIzsdkau3GFDqdN4=", "properties": {"@source_uri": "https://tools.usps.com/UspsToolsRestServices/rest/POLocator/findLocations", "@spider": "usps_collection_boxes", "addr:city": "GLYNDON", "addr:country": "US", "addr:postcode": "21136", "addr:state": "MD", "addr:street_address": "5 GLYNDON DR", "amenity": "post_box", "collection_times": "Mo-Fr 17:00; Sa 15:30", "note": "ON 12/24 AND 12/31, THIS BOX MAY BE COLLECTED AS EARLY AS 12 NOON.", "nsi_id": "unitedstatespostalservice-a77078", "operator": "United States Postal Service", "operator:short": "USPS", "operator:type": "public", "operator:wikidata": "Q668687", "ref": "2113600034"}, "type": "Feature"}
{"geometry": {"coordinates": [-76.8087299, 39.441281], "type": "Point"}, "id": "Y0I8ROe_Svpax011KKPsdKZf818=", "properties": {"@source_uri": "https://tools.usps.com/UspsToolsRestServices/rest/POLocator/findLocations", "@spider": "usps_collection_boxes", "addr:city": "GLYNDON", "addr:country": "US", "addr:postcode": "21136", "addr:state": "MD", "addr:street_address": "11620 REISTERSTOWN RD", "amenity": "post_box", "collection_times": "Mo-Sa 09:00", "nsi_id": "unitedstatespostalservice-a77078", "operator": "United States Postal Service", "operator:short": "USPS", "operator:type": "public", "operator:wikidata": "Q668687", "ref": "2113600037"}, "type": "Feature"}
{"geometry": {"coordinates": [-76.82595278, 39.459907521], "type": "Point"}, "id": "xWUD5t9AGm6cShgpoQSaCgKXemk=", "properties": {"@source_uri": "https://tools.usps.com/UspsToolsRestServices/rest/POLocator/findLocations", "@spider": "usps_collection_boxes", "addr:city": "GLYNDON", "addr:country": "US", "addr:postcode": "21136", "addr:state": "MD", "addr:street_address": "5 GLYNDON DR", "amenity": "post_box", "collection_times": "Mo-Fr 16:30; Sa 15:30", "name": "USPS COLLECTION BOX - APC", "note": "ON 12/24 AND 12/31, THIS BOX MAY BE COLLECTED AS EARLY AS 12 NOON.", "nsi_id": "unitedstatespostalservice-a77078", "operator": "United States Postal Service", "operator:short": "USPS", "operator:type": "public", "operator:wikidata": "Q668687", "ref": "2113600049"}, "type": "Feature"}
{"geometry": {"coordinates": [-76.82595278, 39.459907521], "type": "Point"}, "id": "vBgFeK7yPIP0q6sJPIUdtgl1ONk=", "properties": {"@source_uri": "https://tools.usps.com/UspsToolsRestServices/rest/POLocator/findLocations", "@spider": "usps_collection_boxes", "addr:city": "GLYNDON", "addr:country": "US", "addr:postcode": "21136", "addr:state": "MD", "addr:street_address": "5 GLYNDON DR", "amenity": "post_box", "collection_times": "Mo-Fr 17:00; Sa 12:30", "indoor": "yes", "note": "ON 12/24 AND 12/31, THIS BOX MAY BE COLLECTED AS EARLY AS 12 NOON.", "nsi_id": "unitedstatespostalservice-a77078", "operator": "United States Postal Service", "operator:short": "USPS", "operator:type": "public", "operator:wikidata": "Q668687", "ref": "2113600053"}, "type": "Feature"}
{"geometry": {"coordinates": [-76.644477989, 39.410763098], "type": "Point"}, "id": "PXoRGR7af4tcT0Z5K7S3sQfrq04=", "properties": {"@source_uri": "https://tools.usps.com/UspsToolsRestServices/rest/POLocator/findLocations", "@spider": "usps_collection_boxes", "addr:city": "RIDERWOOD", "addr:country": "US", "addr:postcode": "21139", "addr:state": "MD", "addr:street_address": "8016 BELLONA AVE", "amenity": "post_box", "collection_times": "Mo-Fr 17:45; Sa 13:00", "indoor": "yes", "note": "ON 12/24 AND 12/31, THIS BOX MAY BE COLLECTED AS EARLY AS 12 NOON.", "nsi_id": "unitedstatespostalservice-a77078", "operator": "United States Postal Service", "operator:short": "USPS", "operator:type": "public", "operator:wikidata": "Q668687", "ref": "2113900000"}, "type": "Feature"}
{"geometry": {"coordinates": [-76.644477989, 39.410763098], "type": "Point"}, "id": "euTWo_eB5WbLZUs7Q-7HB4kyupc=", "properties": {"@source_uri": "https://tools.usps.com/UspsToolsRestServices/rest/POLocator/findLocations", "@spider": "usps_collection_boxes", "addr:city": "RIDERWOOD", "addr:country": "US", "addr:postcode": "21139", "addr:state": "MD", "addr:street_address": "8016 BELLONA AVE", "amenity": "post_box", "collection_times": "Mo-Fr 17:45; Sa 13:00", "indoor": "yes", "note": "ON 12/24 AND 12/31, THIS BOX MAY BE COLLECTED AS EARLY AS 12 NOON.", "nsi_id": "unitedstatespostalservice-a77078", "operator": "United States Postal Service", "operator:short": "USPS", "operator:type": "public", "operator:wikidata": "Q668687", "ref": "2113900001"}, "type": "Feature"}
{"geometry": {"coordinates": [-76.644477989, 39.410763098], "type": "Point"}, "id": "Qad-8zCXjL2zI2I9AUU5Sm62d4g=", "properties": {"@source_uri": "https://tools.usps.com/UspsToolsRestServices/rest/POLocator/findLocations", "@spider": "usps_collection_boxes", "addr:city": "RIDERWOOD", "addr:country": "US", "addr:postcode": "21139", "addr:state": "MD", "addr:street_address": "8016 BELLONA AVE", "amenity": "post_box", "collection_times": "Mo-Fr 17:45; Sa 13:00", "note": "ON 12/24 AND 12/31, THIS BOX MAY BE COLLECTED AS EARLY AS 12 NOON.", "nsi_id": "unitedstatespostalservice-a77078", "operator": "United States Postal Service", "operator:short": "USPS", "operator:type": "public", "operator:wikidata": "Q668687", "ref": "2113900003"}, "type": "Feature"}
{"geometry": {"coordinates": [-76.644477989, 39.410763098], "type": "Point"}, "id": "KnlMIhfDbk5ZED6m4PyLBolNcJk=", "properties": {"@source_uri": "https://tools.usps.com/UspsToolsRestServices/rest/POLocator/findLocations", "@spider": "usps_collection_boxes", "addr:city": "RIDERWOOD", "addr:country": "US", "addr:postcode": "21139", "addr:state": "MD", "addr:street_address": "8016 BELLONA AVE", "amenity": "post_box", "collection_times": "Mo-Fr 17:00; Sa 12:00", "indoor": "yes", "note": "ON 12/24 AND 12/31, THIS BOX MAY BE COLLECTED AS EARLY AS 12 NOON.", "nsi_id": "unitedstatespostalservice-a77078", "operator": "United States Postal Service", "operator:short": "USPS", "operator:type": "public", "operator:wikidata": "Q668687", "ref": "2113900008"}, "type": "Feature"}
{"geometry": {"coordinates": [-76.582385796, 38.951254856], "type": "Point"}, "id": "TjD0668Il71yAnEpbK8Nv2Do3Tw=", "properties": {"@source_uri": "https://tools.usps.com/UspsToolsRestServices/rest/POLocator/findLocations", "@spider": "usps_collection_boxes", "addr:city": "RIVA", "addr:country": "US", "addr:postcode": "21140", "addr:state": "MD", "addr:street_address": "3123 RIVA RD", "amenity": "post_box", "collection_times": "Mo-Fr 16:30; Sa 13:00", "note": "ON 12/24 AND 12/31, THIS BOX MAY BE COLLECTED AS EARLY AS 12 NOON.", "nsi_id": "unitedstatespostalservice-a77078", "operator": "United States Postal Service", "operator:short": "USPS", "operator:type": "public", "operator:wikidata": "Q668687", "ref": "2114000003"}, "type": "Feature"}
{"geometry": {"coordinates": [-76.582385796, 38.951254856], "type": "Point"}, "id": "8KsghEUMyxNdyWwa3Zxrlcl5GF8=", "properties": {"@source_uri": "https://tools.usps.com/UspsToolsRestServices/rest/POLocator/findLocations", "@spider": "usps_collection_boxes", "addr:city": "RIVA", "addr:country": "US", "addr:postcode": "21140", "addr:state": "MD", "addr:street_address": "3123 RIVA RD", "amenity": "post_box", "collection_times": "Mo-Fr 16:45; Sa 12:30", "indoor": "yes", "note": "ON 12/24 AND 12/31, THIS BOX MAY BE COLLECTED AS EARLY AS 12 NOON.", "nsi_id": "unitedstatespostalservice-a77078", "operator": "United States Postal Service", "operator:short": "USPS", "operator:type": "public", "operator:wikidata": "Q668687", "ref": "2114000004"}, "type": "Feature"}
{"geometry": {"coordinates": [-76.582385796, 38.951254856], "type": "Point"}, "id": "uevkY8hegblpTOi5A33H9NIDGuY=", "properties": {"@source_uri": "https://tools.usps.com/UspsToolsRestServices/rest/POLocator/findLocations", "@spider": "usps_collection_boxes", "addr:city": "RIVA", "addr:country": "US", "addr:postcode": "21140", "addr:state": "MD", "addr:street_address": "3123 RIVA RD", "amenity": "post_box", "collection_times": "Mo-Fr 16:45; Sa 12:30", "indoor": "yes", "note": "ON 12/24 AND 12/31, THIS BOX MAY BE COLLECTED AS EARLY AS 12 NOON.", "nsi_id": "unitedstatespostalservice-a77078", "operator": "United States Postal Service", "operator:short": "USPS", "operator:type": "public", "operator:wikidata": "Q668687", "ref": "2114000005"}, "type": "Feature"}
{"geometry": {"coordinates": [-76.582385796, 38.951254856], "type": "Point"}, "id": "vYqenIRy0bebDihESrgaKtr9vV0=", "properties": {"@source_uri": "https://tools.usps.com/UspsToolsRestServices/rest/POLocator/findLocations", "@spider": "usps_collection_boxes", "addr:city": "RIVA", "addr:country": "US", "addr:postcode": "21140", "addr:state": "MD", "addr:street_address": "3123 RIVA RD", "amenity": "post_box", "collection_times": "Mo-Fr 17:00; Sa 13:00", "indoor": "yes", "note": "ON 12/24 AND 12/31, THIS BOX MAY BE COLLECTED AS EARLY AS 12 NOON.", "nsi_id": "unitedstatespostalservice-a77078", "operator": "United States Postal Service", "operator:short": "USPS", "operator:type": "public", "operator:wikidata": "Q668687", "ref": "2114000007"}, "type": "Feature"}
{"geometry": {"coordinates": [-76.7034107, 39.124156], "type": "Point"}, "id": "LwrOrrQscLnEn7N6X0-P8u4pOnc=", "properties": {"@source_uri": "https://tools.usps.com/UspsToolsRestServices/rest/POLocator/findLocations", "@spider": "usps_collection_boxes", "addr:city": "SEVERN", "addr:country": "US", "addr:postcode": "21144", "addr:state": "MD", "addr:street_address": "1100 REECE RD", "amenity": "post_box", "collection_times": "Mo-Sa 10:30", "nsi_id": "unitedstatespostalservice-a77078", "operator": "United States Postal Service", "operator:short": "USPS", "operator:type": "public", "operator:wikidata": "Q668687", "ref": "2114400002"}, "type": "Feature"}
{"geometry": {"coordinates": [-76.6881239, 39.12808], "type": "Point"}, "id": "yi-r0kTk2rMnDYpIIDBue3hDIT8=", "properties": {"@source_uri": "https://tools.usps.com/UspsToolsRestServices/rest/POLocator/findLocations", "@spider": "usps_collection_boxes", "addr:city": "SEVERN", "addr:country": "US", "addr:postcode": "21144", "addr:state": "MD", "addr:street_address": "7959 TELEGRAPH RD", "amenity": "post_box", "collection_times": "Mo-Sa 10:00", "nsi_id": "unitedstatespostalservice-a77078", "operator": "United States Postal Service", "operator:short": "USPS", "operator:type": "public", "operator:wikidata": "Q668687", "ref": "2114400003"}, "type": "Feature"}
{"geometry": {"coordinates": [-76.7363808, 39.130093], "type": "Point"}, "id": "X2zDIkCZDrWFrvRbJ_PJ9EixCf0=", "properties": {"@source_uri": "https://tools.usps.com/UspsToolsRestServices/rest/POLocator/findLocations", "@spider": "usps_collection_boxes", "addr:city": "SEVERN", "addr:country": "US", "addr:postcode": "21144", "addr:state": "MD", "addr:street_address": "2620 ANNAPOLIS RD", "amenity": "post_box", "collection_times": "Mo-Sa 10:30", "nsi_id": "unitedstatespostalservice-a77078", "operator": "United States Postal Service", "operator:short": "USPS", "operator:type": "public", "operator:wikidata": "Q668687", "ref": "2114400004"}, "type": "Feature"}
{"geometry": {"coordinates": [-76.688023861, 39.136858557], "type": "Point"}, "id": "y4VSqIN3vyPuWtg0LrtwSb6mo5s=", "properties": {"@source_uri": "https://tools.usps.com/UspsToolsRestServices/rest/POLocator/findLocations", "@spider": "usps_collection_boxes", "addr:city": "SEVERN", "addr:country": "US", "addr:postcode": "21144", "addr:state": "MD", "addr:street_address": "819 REECE RD", "amenity": "post_box", "collection_times": "Mo-Fr 17:00; Sa 12:00", "note": "ON 12/24 AND 12/31, THIS BOX MAY BE COLLECTED AS EARLY AS 12 NOON.", "nsi_id": "unitedstatespostalservice-a77078", "operator": "United States Postal Service", "operator:short": "USPS", "operator:type": "public", "operator:wikidata": "Q668687", "ref": "2114400005"}, "type": "Feature"}
{"geometry": {"coordinates": [-76.688023861, 39.136858557], "type": "Point"}, "id": "DvQnd1uh0Lx4pXsunElbLifgQJw=", "properties": {"@source_uri": "https://tools.usps.com/UspsToolsRestServices/rest/POLocator/findLocations", "@spider": "usps_collection_boxes", "addr:city": "SEVERN", "addr:country": "US", "addr:postcode": "21144", "addr:state": "MD", "addr:street_address": "819 REECE RD", "amenity": "post_box", "collection_times": "Mo-Fr 17:00; Sa 12:00", "indoor": "yes", "note": "ON 12/24 AND 12/31, THIS BOX MAY BE COLLECTED AS EARLY AS 12 NOON.", "nsi_id": "unitedstatespostalservice-a77078", "operator": "United States Postal Service", "operator:short": "USPS", "operator:type": "public", "operator:wikidata": "Q668687", "ref": "2114400007"}, "type": "Feature"}
{"geometry": {"coordinates": [-76.688023861, 39.136858557], "type": "Point"}, "id": "Or8lGlRBcvj-qPP5iROB1WwKdj4=", "properties": {"@source_uri": "https://tools.usps.com/UspsToolsRestServices/rest/POLocator/findLocations", "@spider": "usps_collection_boxes", "addr:city": "SEVERN", "addr:country": "US", "addr:postcode": "21144", "addr:state": "MD", "addr:street_address": "819 REECE RD", "amenity": "post_box", "collection_times": "Mo-Fr 17:00; Sa 12:00", "indoor": "yes", "note": "ON 12/24 AND 12/31, THIS BOX MAY BE COLLECTED AS EARLY AS 12 NOON.", "nsi_id": "unitedstatespostalservice-a77078", "operator": "United States Postal Service", "operator:short": "USPS", "operator:type": "public", "operator:wikidata": "Q668687", "ref": "2114400008"}, "type": "Feature"}
{"geometry": {"coordinates": [-76.691698, 39.109906], "type": "Point"}, "id": "g08z5a0w4n_J0AfYrqSTszxZ8gM=", "properties": {"@source_uri": "https://tools.usps.com/UspsToolsRestServices/rest/POLocator/findLocations", "@spider": "usps_collection_boxes", "addr:city": "SEVERN", "addr:country": "US", "addr:postcode": "21144", "addr:state": "MD", "addr:street_address": "8141 TELEGRAPH RD", "amenity": "post_box", "collection_times": "Mo-Sa 10:30", "nsi_id": "unitedstatespostalservice-a77078", "operator": "United States Postal Service", "operator:short": "USPS", "operator:type": "public", "operator:wikidata": "Q668687", "ref": "2114400009"}, "type": "Feature"}
{"geometry": {"coordinates": [-76.688023861, 39.136858557], "type": "Point"}, "id": "vd7Eb3pxmIS-N5x-D49oG8GgvOE=", "properties": {"@source_uri": "https://tools.usps.com/UspsToolsRestServices/rest/POLocator/findLocations", "@spider": "usps_collection_boxes", "addr:city": "SEVERN", "addr:country": "US", "addr:postcode": "21144", "addr:state": "MD", "addr:street_address": "819 REECE RD", "amenity": "post_box", "collection_times": "Mo-Fr 17:00; Sa 12:00", "indoor": "yes", "note": "ON 12/24 AND 12/31, THIS BOX MAY BE COLLECTED AS EARLY AS 12 NOON.", "nsi_id": "unitedstatespostalservice-a77078", "operator": "United States Postal Service", "operator:short": "USPS", "operator:type": "public", "operator:wikidata": "Q668687", "ref": "2114400013"}, "type": "Feature"}
{"geometry": {"coordinates": [-76.5645164, 39.07739], "type": "Point"}, "id": "cxKQ6HZ0qS20AWegm_AmfYDKxvQ=", "properties": {"@source_uri": "https://tools.usps.com/UspsToolsRestServices/rest/POLocator/findLocations", "@spider": "usps_collection_boxes", "addr:city": "SEVERNA PARK", "addr:country": "US", "addr:postcode": "21146", "addr:state": "MD", "addr:street_address": "102 BALSAM DR", "amenity": "post_box", "collection_times": "Mo-Fr 15:00; Sa 12:00", "note": "ON 12/24 AND 12/31, THIS BOX MAY BE COLLECTED AS EARLY AS 12 NOON.", "nsi_id": "unitedstatespostalservice-a77078", "operator": "United States Postal Service", "operator:short": "USPS", "operator:type": "public", "operator:wikidata": "Q668687", "ref": "2114600002"}, "type": "Feature"}
{"geometry": {"coordinates": [-76.6061264, 39.088194], "type": "Point"}, "id": "T2WTZfdQb3sRV_XjRPuLwXqWj_8=", "properties": {"@source_uri": "https://tools.usps.com/UspsToolsRestServices/rest/POLocator/findLocations", "@spider": "usps_collection_boxes", "addr:city": "SEVERNA PARK", "addr:country": "US", "addr:postcode": "21146", "addr:state": "MD", "addr:street_address": "2 SAINT IVES DR", "amenity": "post_box", "collection_times": "Mo-Fr 15:00; Sa 12:00", "note": "ON 12/24 AND 12/31, THIS BOX MAY BE COLLECTED AS EARLY AS 12 NOON.", "nsi_id": "unitedstatespostalservice-a77078", "operator": "United States Postal Service", "operator:short": "USPS", "operator:type": "public", "operator:wikidata": "Q668687", "ref": "2114600004"}, "type": "Feature"}
{"geometry": {"coordinates": [-76.548659, 39.088148], "type": "Point"}, "id": "cYCIwwnNOvvzY0AJtVBUPnvLvpE=", "properties": {"@source_uri": "https://tools.usps.com/UspsToolsRestServices/rest/POLocator/findLocations", "@spider": "usps_collection_boxes", "addr:city": "SEVERNA PARK", "addr:country": "US", "addr:postcode": "21146", "addr:state": "MD", "addr:street_address": "96 BERRYWOOD DR", "amenity": "post_box", "collection_times": "Mo-Sa 12:00", "nsi_id": "unitedstatespostalservice-a77078", "operator": "United States Postal Service", "operator:short": "USPS", "operator:type": "public", "operator:wikidata": "Q668687", "ref": "2114600005"}, "type": "Feature"}
{"geometry": {"coordinates": [-76.5835644, 39.082417], "type": "Point"}, "id": "LQFf5L5DJK3Y9db_5cREz1vrdUQ=", "properties": {"@source_uri": "https://tools.usps.com/UspsToolsRestServices/rest/POLocator/findLocations", "@spider": "usps_collection_boxes", "addr:city": "SEVERNA PARK", "addr:country": "US", "addr:postcode": "21146", "addr:state": "MD", "addr:street_address": "544 BENFIELD RD", "amenity": "post_box", "collection_times": "Mo-Sa 15:00", "note": "ON 12/24 AND 12/31, THIS BOX MAY BE COLLECTED AS EARLY AS 12 NOON.", "nsi_id": "unitedstatespostalservice-a77078", "operator": "United States Postal Service", "operator:short": "USPS", "operator:type": "public", "operator:wikidata": "Q668687", "ref": "2114600008"}, "type": "Feature"}
{"geometry": {"coordinates": [-76.5822004, 39.079446], "type": "Point"}, "id": "8J2wi0RtTaaWyd-Ch_nSZpAroac=", "properties": {"@source_uri": "https://tools.usps.com/UspsToolsRestServices/rest/POLocator/findLocations", "@spider": "usps_collection_boxes", "addr:city": "SEVERNA PARK", "addr:country": "US", "addr:postcode": "21146", "addr:state": "MD", "addr:street_address": "537 CENTER DR", "amenity": "post_box", "collection_times": "Mo-Fr 15:00; Sa 12:00", "note": "ON 12/24 AND 12/31, THIS BOX MAY BE COLLECTED AS EARLY AS 12 NOON.", "nsi_id": "unitedstatespostalservice-a77078", "operator": "United States Postal Service", "operator:short": "USPS", "operator:type": "public", "operator:wikidata": "Q668687", "ref": "2114600017"}, "type": "Feature"}
{"geometry": {"coordinates": [-76.5421664, 39.075568], "type": "Point"}, "id": "fL65T3EYznhXTl2JMV3W31tX9-4=", "properties": {"@source_uri": "https://tools.usps.com/UspsToolsRestServices/rest/POLocator/findLocations", "@spider": "usps_collection_boxes", "addr:city": "SEVERNA PARK", "addr:country": "US", "addr:postcode": "21146", "addr:state": "MD", "addr:street_address": "575 RITCHIE HWY", "amenity": "post_box", "collection_times": "Mo-Sa 10:15", "nsi_id": "unitedstatespostalservice-a77078", "operator": "United States Postal Service", "operator:short": "USPS", "operator:type": "public", "operator:wikidata": "Q668687", "ref": "2114600031"}, "type": "Feature"}
{"geometry": {"coordinates": [-76.563723827, 39.099458177], "type": "Point"}, "id": "Gy-8TeI_33hXarLSh8d1f6FEGJU=", "properties": {"@source_uri": "https://tools.usps.com/UspsToolsRestServices/rest/POLocator/findLocations", "@spider": "usps_collection_boxes", "addr:city": "SEVERNA PARK", "addr:country": "US", "addr:postcode": "21146", "addr:state": "MD", "addr:street_address": "21 MAGOTHY BRIDGE RD", "amenity": "post_box", "collection_times": "Mo-Fr 17:00; Sa 16:00", "note": "ON 12/24 AND 12/31, THIS BOX MAY BE COLLECTED AS EARLY AS 12 NOON.", "nsi_id": "unitedstatespostalservice-a77078", "operator": "United States Postal Service", "operator:short": "USPS", "operator:type": "public", "operator:wikidata": "Q668687", "ref": "2114600036"}, "type": "Feature"}
{"geometry": {"coordinates": [-76.563723827, 39.099458177], "type": "Point"}, "id": "Ajdms5Q34o5yRtijboBhZMjnoFs=", "properties": {"@source_uri": "https://tools.usps.com/UspsToolsRestServices/rest/POLocator/findLocations", "@spider": "usps_collection_boxes", "addr:city": "SEVERNA PARK", "addr:country": "US", "addr:postcode": "21146", "addr:state": "MD", "addr:street_address": "21 MAGOTHY BRIDGE RD", "amenity": "post_box", "collection_times": "Mo-Fr 17:00; Sa 16:00", "indoor": "yes", "note": "ON 12/24 AND 12/31, THIS BOX MAY BE COLLECTED AS EARLY AS 12 NOON.", "nsi_id": "unitedstatespostalservice-a77078", "operator": "United States Postal Service", "operator:short": "USPS", "operator:type": "public", "operator:wikidata": "Q668687", "ref": "2114600039"}, "type": "Feature"}
{"geometry": {"coordinates": [-76.563723827, 39.099458177], "type": "Point"}, "id": "UZMuOBhkRWdeVlJBvq7Oyce-06E=", "properties": {"@source_uri": "https://tools.usps.com/UspsToolsRestServices/rest/POLocator/findLocations", "@spider": "usps_collection_boxes", "addr:city": "SEVERNA PARK", "addr:country": "US", "addr:postcode": "21146", "addr:state": "MD", "addr:street_address": "21 MAGOTHY BRIDGE RD", "amenity": "post_box", "collection_times": "Mo-Fr 17:00; Sa 16:00", "name": "USPS COLLECTION BOX - APC", "note": "ON 12/24 AND 12/31, THIS BOX MAY BE COLLECTED AS EARLY AS 12 NOON.", "nsi_id": "unitedstatespostalservice-a77078", "operator": "United States Postal Service", "operator:short": "USPS", "operator:type": "public", "operator:wikidata": "Q668687", "ref": "2114600040"}, "type": "Feature"}
{"geometry": {"coordinates": [-76.563723827, 39.099458177], "type": "Point"}, "id": "R75v7wphIngLjZjRzna5De5EH1s=", "properties": {"@source_uri": "https://tools.usps.com/UspsToolsRestServices/rest/POLocator/findLocations", "@spider": "usps_collection_boxes", "addr:city": "SEVERNA PARK", "addr:country": "US", "addr:postcode": "21146", "addr:state": "MD", "addr:street_address": "21 MAGOTHY BRIDGE RD", "amenity": "post_box", "collection_times": "Mo-Fr 17:00; Sa 16:00", "indoor": "yes", "note": "ON 12/24 AND 12/31, THIS BOX MAY BE COLLECTED AS EARLY AS 12 NOON.", "nsi_id": "unitedstatespostalservice-a77078", "operator": "United States Postal Service", "operator:short": "USPS", "operator:type": "public", "operator:wikidata": "Q668687", "ref": "2114600041"}, "type": "Feature"}
{"geometry": {"coordinates": [-76.563723827, 39.099458177], "type": "Point"}, "id": "mUk4BKs3LpEyGcu6EnVfC1q0veM=", "properties": {"@source_uri": "https://tools.usps.com/UspsToolsRestServices/rest/POLocator/findLocations", "@spider": "usps_collection_boxes", "addr:city": "SEVERNA PARK", "addr:country": "US", "addr:postcode": "21146", "addr:state": "MD", "addr:street_address": "21 MAGOTHY BRIDGE RD", "amenity": "post_box", "collection_times": "Mo-Fr 17:00; Sa 14:00", "indoor": "yes", "note": "ON 12/24 AND 12/31, THIS BOX MAY BE COLLECTED AS EARLY AS 12 NOON.", "nsi_id": "unitedstatespostalservice-a77078", "operator": "United States Postal Service", "operator:short": "USPS", "operator:type": "public", "operator:wikidata": "Q668687", "ref": "2114600046"}, "type": "Feature"}
{"geometry": {"coordinates": [-76.871563013, 39.184625317], "type": "Point"}, "id": "_14sxUuXW6CX__H2MpkmknLNL5o=", "properties": {"@source_uri": "https://tools.usps.com/UspsToolsRestServices/rest/POLocator/findLocations", "@spider": "usps_collection_boxes", "addr:city": "SIMPSONVILLE", "addr:country": "US", "addr:postcode": "21150", "addr:state": "MD", "addr:street_address": "10400 SHAKER DR", "amenity": "post_box", "collection_times": "Mo-Fr 17:00; Sa 12:30", "indoor": "yes", "note": "ON 12/24 AND 12/31, THIS BOX MAY BE COLLECTED AS EARLY AS 12 NOON.", "nsi_id": "unitedstatespostalservice-a77078", "operator": "United States Postal Service", "operator:short": "USPS", "operator:type": "public", "operator:wikidata": "Q668687", "ref": "2115000001"}, "type": "Feature"}
{"geometry": {"coordinates": [-76.871563013, 39.184625317], "type": "Point"}, "id": "QBnPRJxHOHPyXSM3YsUPOMT-Cqc=", "properties": {"@source_uri": "https://tools.usps.com/UspsToolsRestServices/rest/POLocator/findLocations", "@spider": "usps_collection_boxes", "addr:city": "SIMPSONVILLE", "addr:country": "US", "addr:postcode": "21150", "addr:state": "MD", "addr:street_address": "10400 SHAKER DR", "amenity": "post_box", "collection_times": "Mo-Fr 17:00; Sa 12:30", "indoor": "yes", "note": "ON 12/24 AND 12/31, THIS BOX MAY BE COLLECTED AS EARLY AS 12 NOON.", "nsi_id": "unitedstatespostalservice-a77078", "operator": "United States Postal Service", "operator:short": "USPS", "operator:type": "public", "operator:wikidata": "Q668687", "ref": "2115000003"}, "type": "Feature"}
{"geometry": {"coordinates": [-76.88358, 39.18695], "type": "Point"}, "id": "EZP2GOELzuFSlBou8DEy5WyyHTs=", "properties": {"@source_uri": "https://tools.usps.com/UspsToolsRestServices/rest/POLocator/findLocations", "@spider": "usps_collection_boxes", "addr:city": "SIMPSONVILLE", "addr:country": "US", "addr:postcode": "21150", "addr:state": "MD", "addr:street_address": "10400 SHAKER DR", "amenity": "post_box", "collection_times": "Mo-Fr 16:45; Sa 12:15", "note": "ON 12/24 AND 12/31, THIS BOX MAY BE COLLECTED AS EARLY AS 12 NOON.", "nsi_id": "unitedstatespostalservice-a77078", "operator": "United States Postal Service", "operator:short": "USPS", "operator:type": "public", "operator:wikidata": "Q668687", "ref": "2115000004"}, "type": "Feature"}
{"geometry": {"coordinates": [-76.6441341, 39.515185], "type": "Point"}, "id": "dUbKlaieufPtd4yTLzjijinQ-iI=", "properties": {"@source_uri": "https://tools.usps.com/UspsToolsRestServices/rest/POLocator/findLocations", "@spider": "usps_collection_boxes", "addr:city": "SPARKS GLENCOE", "addr:country": "US", "addr:postcode": "21152", "addr:state": "MD", "addr:street_address": "72 LOVETON CIR", "amenity": "post_box", "collection_times": "Mo-Sa 11:00", "nsi_id": "unitedstatespostalservice-a77078", "operator": "United States Postal Service", "operator:short": "USPS", "operator:type": "public", "operator:wikidata": "Q668687", "ref": "2115200003"}, "type": "Feature"}
{"geometry": {"coordinates": [-76.6421583, 39.520754], "type": "Point"}, "id": "TSlvMHhwU0sVqoRMM93ydywH-Dc=", "properties": {"@source_uri": "https://tools.usps.com/UspsToolsRestServices/rest/POLocator/findLocations", "@spider": "usps_collection_boxes", "addr:city": "SPARKS GLENCOE", "addr:country": "US", "addr:postcode": "21152", "addr:state": "MD", "addr:street_address": "16 CROSS FALLS WAY", "amenity": "post_box", "collection_times": "Mo-Sa 12:00", "nsi_id": "unitedstatespostalservice-a77078", "operator": "United States Postal Service", "operator:short": "USPS", "operator:type": "public", "operator:wikidata": "Q668687", "ref": "2115200005"}, "type": "Feature"}
{"geometry": {"coordinates": [-76.645406758, 39.529599412], "type": "Point"}, "id": "BOYvjrw8iUXr5XAoWxUuJVpndyI=", "properties": {"@source_uri": "https://tools.usps.com/UspsToolsRestServices/rest/POLocator/findLocations", "@spider": "usps_collection_boxes", "addr:city": "SPARKS GLENCOE", "addr:country": "US", "addr:postcode": "21152", "addr:state": "MD", "addr:street_address": "14800 YORK RD", "amenity": "post_box", "collection_times": "Mo-Fr 17:00; Sa 14:15", "indoor": "yes", "note": "ON 12/24 AND 12/31, THIS BOX MAY BE COLLECTED AS EARLY AS 12 NOON.", "nsi_id": "unitedstatespostalservice-a77078", "operator": "United States Postal Service", "operator:short": "USPS", "operator:type": "public", "operator:wikidata": "Q668687", "ref": "2115200007"}, "type": "Feature"}
{"geometry": {"coordinates": [-76.645406758, 39.529599412], "type": "Point"}, "id": "Zos_fmcvsrvMUjlHzkefpY0Tkqo=", "properties": {"@source_uri": "https://tools.usps.com/UspsToolsRestServices/rest/POLocator/findLocations", "@spider": "usps_collection_boxes", "addr:city": "SPARKS GLENCOE", "addr:country": "US", "addr:postcode": "21152", "addr:state": "MD", "addr:street_address": "14800 YORK RD", "amenity": "post_box", "collection_times": "Mo-Fr 17:00; Sa 14:15", "indoor": "yes", "note": "ON 12/24 AND 12/31, THIS BOX MAY BE COLLECTED AS EARLY AS 12 NOON.", "nsi_id": "unitedstatespostalservice-a77078", "operator": "United States Postal Service", "operator:short": "USPS", "operator:type": "public", "operator:wikidata": "Q668687", "ref": "2115200008"}, "type": "Feature"}
{"geometry": {"coordinates": [-76.645406758, 39.529599412], "type": "Point"}, "id": "jkvoe3tsUolPvMzdBTmBO3wR7A0=", "properties": {"@source_uri": "https://tools.usps.com/UspsToolsRestServices/rest/POLocator/findLocations", "@spider": "usps_collection_boxes", "addr:city": "SPARKS GLENCOE", "addr:country": "US", "addr:postcode": "21152", "addr:state": "MD", "addr:street_address": "14800 YORK RD", "amenity": "post_box", "collection_times": "Mo-Fr 17:00; Sa 12:30", "indoor": "yes", "note": "ON 12/24 AND 12/31, THIS BOX MAY BE COLLECTED AS EARLY AS 12 NOON.", "nsi_id": "unitedstatespostalservice-a77078", "operator": "United States Postal Service", "operator:short": "USPS", "operator:type": "public", "operator:wikidata": "Q668687", "ref": "2115200010"}, "type": "Feature"}
{"geometry": {"coordinates": [-76.713536704, 39.41089662], "type": "Point"}, "id": "18qpFdyABC5Ryug4gCRYCgGMlII=", "properties": {"@source_uri": "https://tools.usps.com/UspsToolsRestServices/rest/POLocator/findLocations", "@spider": "usps_collection_boxes", "addr:city": "STEVENSON", "addr:country": "US", "addr:postcode": "21153", "addr:state": "MD", "addr:street_address": "10421 STEVENSON RD", "amenity": "post_box", "collection_times": "Mo-Fr 16:45; Sa 11:45", "note": "ON 12/24 AND 12/31, THIS BOX MAY BE COLLECTED AS EARLY AS 12 NOON.", "nsi_id": "unitedstatespostalservice-a77078", "operator": "United States Postal Service", "operator:short": "USPS", "operator:type": "public", "operator:wikidata": "Q668687", "ref": "2115300000"}, "type": "Feature"}
{"geometry": {"coordinates": [-76.713536704, 39.41089662], "type": "Point"}, "id": "_UCzl49AvejUiI6-QeprdwWjWCA=", "properties": {"@source_uri": "https://tools.usps.com/UspsToolsRestServices/rest/POLocator/findLocations", "@spider": "usps_collection_boxes", "addr:city": "STEVENSON", "addr:country": "US", "addr:postcode": "21153", "addr:state": "MD", "addr:street_address": "10421 STEVENSON RD", "amenity": "post_box", "collection_times": "Mo-Fr 16:45; Sa 12:00", "indoor": "yes", "note": "ON 12/24 AND 12/31, THIS BOX MAY BE COLLECTED AS EARLY AS 12 NOON.", "nsi_id": "unitedstatespostalservice-a77078", "operator": "United States Postal Service", "operator:short": "USPS", "operator:type": "public", "operator:wikidata": "Q668687", "ref": "2115300001"}, "type": "Feature"}
{"geometry": {"coordinates": [-76.713536704, 39.41089662], "type": "Point"}, "id": "aRcLlGG9LqJF8ERYSV9h12gCyjA=", "properties": {"@source_uri": "https://tools.usps.com/UspsToolsRestServices/rest/POLocator/findLocations", "@spider": "usps_collection_boxes", "addr:city": "STEVENSON", "addr:country": "US", "addr:postcode": "21153", "addr:state": "MD", "addr:street_address": "10421 STEVENSON RD", "amenity": "post_box", "collection_times": "Mo-Fr 16:45; Sa 12:00", "indoor": "yes", "note": "ON 12/24 AND 12/31, THIS BOX MAY BE COLLECTED AS EARLY AS 12 NOON.", "nsi_id": "unitedstatespostalservice-a77078", "operator": "United States Postal Service", "operator:short": "USPS", "operator:type": "public", "operator:wikidata": "Q668687", "ref": "2115300002"}, "type": "Feature"}
{"geometry": {"coordinates": [-76.713536704, 39.41089662], "type": "Point"}, "id": "DVHRofaMhu4-JpZVniBxVQ-3YuI=", "properties": {"@source_uri": "https://tools.usps.com/UspsToolsRestServices/rest/POLocator/findLocations", "@spider": "usps_collection_boxes", "addr:city": "STEVENSON", "addr:country": "US", "addr:postcode": "21153", "addr:state": "MD", "addr:street_address": "10421 STEVENSON RD", "amenity": "post_box", "collection_times": "Mo-Fr 17:00; Sa 12:00", "indoor": "yes", "note": "ON 12/24 AND 12/31, THIS BOX MAY BE COLLECTED AS EARLY AS 12 NOON.", "nsi_id": "unitedstatespostalservice-a77078", "operator": "United States Postal Service", "operator:short": "USPS", "operator:type": "public", "operator:wikidata": "Q668687", "ref": "2115300004"}, "type": "Feature"}
{"geometry": {"coordinates": [-76.377802934, 39.668075486], "type": "Point"}, "id": "JCh81jcRKORjf88nOLmUuGfgS9U=", "properties": {"@source_uri": "https://tools.usps.com/UspsToolsRestServices/rest/POLocator/findLocations", "@spider": "usps_collection_boxes", "addr:city": "STREET", "addr:country": "US", "addr:postcode": "21154", "addr:state": "MD", "addr:street_address": "708 HIGHLAND RD", "amenity": "post_box", "collection_times": "Mo-Fr 16:45; Sa 11:45", "note": "ON 12/24 AND 12/31, THIS BOX MAY BE COLLECTED AS EARLY AS 12 NOON.", "nsi_id": "unitedstatespostalservice-a77078", "operator": "United States Postal Service", "operator:short": "USPS", "operator:type": "public", "operator:wikidata": "Q668687", "ref": "2115400002"}, "type": "Feature"}
{"geometry": {"coordinates": [-76.377802934, 39.668075486], "type": "Point"}, "id": "Z1AxIiujazM-PMw8arbAwiowFXQ=", "properties": {"@source_uri": "https://tools.usps.com/UspsToolsRestServices/rest/POLocator/findLocations", "@spider": "usps_collection_boxes", "addr:city": "STREET", "addr:country": "US", "addr:postcode": "21154", "addr:state": "MD", "addr:street_address": "708 HIGHLAND RD", "amenity": "post_box", "collection_times": "Mo-Fr 16:45; Sa 11:45", "indoor": "yes", "note": "ON 12/24 AND 12/31, THIS BOX MAY BE COLLECTED AS EARLY AS 12 NOON.", "nsi_id": "unitedstatespostalservice-a77078", "operator": "United States Postal Service", "operator:short": "USPS", "operator:type": "public", "operator:wikidata": "Q668687", "ref": "2115400003"}, "type": "Feature"}
{"geometry": {"coordinates": [-76.377802934, 39.668075486], "type": "Point"}, "id": "1BmpOpnMns8TQdTJwtQClUHOD0o=", "properties": {"@source_uri": "https://tools.usps.com/UspsToolsRestServices/rest/POLocator/findLocations", "@spider": "usps_collection_boxes", "addr:city": "STREET", "addr:country": "US", "addr:postcode": "21154", "addr:state": "MD", "addr:street_address": "708 HIGHLAND RD", "amenity": "post_box", "collection_times": "Mo-Fr 17:00; Sa 12:00", "indoor": "yes", "note": "ON 12/24 AND 12/31, THIS BOX MAY BE COLLECTED AS EARLY AS 12 NOON.", "nsi_id": "unitedstatespostalservice-a77078", "operator": "United States Postal Service", "operator:short": "USPS", "operator:type": "public", "operator:wikidata": "Q668687", "ref": "2115400006"}, "type": "Feature"}
{"geometry": {"coordinates": [-76.837419859, 39.563752493], "type": "Point"}, "id": "JkjmCk97Fug6RDidoKc7y_TzV4Y=", "properties": {"@source_uri": "https://tools.usps.com/UspsToolsRestServices/rest/POLocator/findLocations", "@spider": "usps_collection_boxes", "addr:city": "UPPERCO", "addr:country": "US", "addr:postcode": "21155", "addr:state": "MD", "addr:street_address": "5420 ARCADIA AVE", "amenity": "post_box", "collection_times": "Mo-Fr 16:30; Sa 11:15", "note": "ON 12/24 AND 12/31, THIS BOX MAY BE COLLECTED AS EARLY AS 12 NOON.", "nsi_id": "unitedstatespostalservice-a77078", "operator": "United States Postal Service", "operator:short": "USPS", "operator:type": "public", "operator:wikidata": "Q668687", "ref": "2115500000"}, "type": "Feature"}
{"geometry": {"coordinates": [-76.837419859, 39.563752493], "type": "Point"}, "id": "lkHHAQf8TwAv2sbI_1qIc0VxNhI=", "properties": {"@source_uri": "https://tools.usps.com/UspsToolsRestServices/rest/POLocator/findLocations", "@spider": "usps_collection_boxes", "addr:city": "UPPERCO", "addr:country": "US", "addr:postcode": "21155", "addr:state": "MD", "addr:street_address": "5420 ARCADIA AVE", "amenity": "post_box", "collection_times": "Mo-Fr 16:30; Sa 12:00", "indoor": "yes", "note": "ON 12/24 AND 12/31, THIS BOX MAY BE COLLECTED AS EARLY AS 12 NOON.", "nsi_id": "unitedstatespostalservice-a77078", "operator": "United States Postal Service", "operator:short": "USPS", "operator:type": "public", "operator:wikidata": "Q668687", "ref": "2115500002"}, "type": "Feature"}
{"geometry": {"coordinates": [-76.837419859, 39.563752493], "type": "Point"}, "id": "w3boOVEZQYXorAHrKU4KcQEyGhU=", "properties": {"@source_uri": "https://tools.usps.com/UspsToolsRestServices/rest/POLocator/findLocations", "@spider": "usps_collection_boxes", "addr:city": "UPPERCO", "addr:country": "US", "addr:postcode": "21155", "addr:state": "MD", "addr:street_address": "5420 ARCADIA AVE", "amenity": "post_box", "collection_times": "Mo-Fr 16:45; Sa 12:00", "indoor": "yes", "note": "ON 12/24 AND 12/31, THIS BOX MAY BE COLLECTED AS EARLY AS 12 NOON.", "nsi_id": "unitedstatespostalservice-a77078", "operator": "United States Postal Service", "operator:short": "USPS", "operator:type": "public", "operator:wikidata": "Q668687", "ref": "2115500005"}, "type": "Feature"}
{"geometry": {"coordinates": [-76.40349637, 39.437459585], "type": "Point"}, "id": "a6BqgULnXN3oItCGfl10zL-AJcE=", "properties": {"@source_uri": "https://tools.usps.com/UspsToolsRestServices/rest/POLocator/findLocations", "@spider": "usps_collection_boxes", "addr:city": "UPPER FALLS", "addr:country": "US", "addr:postcode": "21156", "addr:state": "MD", "addr:street_address": "7755 BRADSHAW RD", "amenity": "post_box", "collection_times": "Mo-Fr 16:45; Sa 12:00", "note": "ON 12/24 AND 12/31, THIS BOX MAY BE COLLECTED AS EARLY AS 12 NOON.", "nsi_id": "unitedstatespostalservice-a77078", "operator": "United States Postal Service", "operator:short": "USPS", "operator:type": "public", "operator:wikidata": "Q668687", "ref": "2115600000"}, "type": "Feature"}
{"geometry": {"coordinates": [-76.40349637, 39.437459585], "type": "Point"}, "id": "NuowXuD2mAAjWLAze92I1Fv0UwI=", "properties": {"@source_uri": "https://tools.usps.com/UspsToolsRestServices/rest/POLocator/findLocations", "@spider": "usps_collection_boxes", "addr:city": "UPPER FALLS", "addr:country": "US", "addr:postcode": "21156", "addr:state": "MD", "addr:street_address": "7755 BRADSHAW RD", "amenity": "post_box", "collection_times": "Mo-Fr 16:45; Sa 12:00", "indoor": "yes", "note": "ON 12/24 AND 12/31, THIS BOX MAY BE COLLECTED AS EARLY AS 12 NOON.", "nsi_id": "unitedstatespostalservice-a77078", "operator": "United States Postal Service", "operator:short": "USPS", "operator:type": "public", "operator:wikidata": "Q668687", "ref": "2115600002"}, "type": "Feature"}
{"geometry": {"coordinates": [-76.40349637, 39.437459585], "type": "Point"}, "id": "eYzMS3Y0EwdhojpkxFKTi9YD6PM=", "properties": {"@source_uri": "https://tools.usps.com/UspsToolsRestServices/rest/POLocator/findLocations", "@spider": "usps_collection_boxes", "addr:city": "UPPER FALLS", "addr:country": "US", "addr:postcode": "21156", "addr:state": "MD", "addr:street_address": "7755 BRADSHAW RD", "amenity": "post_box", "collection_times": "Mo-Fr 16:45; Sa 12:00", "indoor": "yes", "note": "ON 12/24 AND 12/31, THIS BOX MAY BE COLLECTED AS EARLY AS 12 NOON.", "nsi_id": "unitedstatespostalservice-a77078", "operator": "United States Postal Service", "operator:short": "USPS", "operator:type": "public", "operator:wikidata": "Q668687", "ref": "2115600003"}, "type": "Feature"}
{"geometry": {"coordinates": [-76.40349637, 39.437459585], "type": "Point"}, "id": "wzDFpf8gdui5T8BQZ_JZktG0tw0=", "properties": {"@source_uri": "https://tools.usps.com/UspsToolsRestServices/rest/POLocator/findLocations", "@spider": "usps_collection_boxes", "addr:city": "UPPER FALLS", "addr:country": "US", "addr:postcode": "21156", "addr:state": "MD", "addr:street_address": "7755 BRADSHAW RD", "amenity": "post_box", "collection_times": "Mo-Fr 16:45; Sa 12:00", "indoor": "yes", "note": "ON 12/24 AND 12/31, THIS BOX MAY BE COLLECTED AS EARLY AS 12 NOON.", "nsi_id": "unitedstatespostalservice-a77078", "operator": "United States Postal Service", "operator:short": "USPS", "operator:type": "public", "operator:wikidata": "Q668687", "ref": "2115600005"}, "type": "Feature"}
{"geometry": {"coordinates": [-76.9902773858, 39.5674826836], "type": "Point"}, "id": "6NVwKrQ54mzewHdNv_Sg0gP95_w=", "properties": {"@source_uri": "https://tools.usps.com/UspsToolsRestServices/rest/POLocator/findLocations", "@spider": "usps_collection_boxes", "addr:city": "WESTMINSTER", "addr:country": "US", "addr:postcode": "21157", "addr:state": "MD", "addr:street_address": "246 E GREEN ST", "amenity": "post_box", "collection_times": "Mo-Sa 10:00", "nsi_id": "unitedstatespostalservice-a77078", "operator": "United States Postal Service", "operator:short": "USPS", "operator:type": "public", "operator:wikidata": "Q668687", "ref": "2115700008"}, "type": "Feature"}
{"geometry": {"coordinates": [-76.9800049, 39.562699], "type": "Point"}, "id": "0ZxFR4gySb3ios64SRTgbgHoMMM=", "properties": {"@source_uri": "https://tools.usps.com/UspsToolsRestServices/rest/POLocator/findLocations", "@spider": "usps_collection_boxes", "addr:city": "WESTMINSTER", "addr:country": "US", "addr:postcode": "21157", "addr:state": "MD", "addr:street_address": "412 MALCOLM DR", "amenity": "post_box", "collection_times": "Mo-Fr 15:45; Sa 13:30", "note": "ON 12/24 AND 12/31, THIS BOX MAY BE COLLECTED AS EARLY AS 12 NOON.", "nsi_id": "unitedstatespostalservice-a77078", "operator": "United States Postal Service", "operator:short": "USPS", "operator:type": "public", "operator:wikidata": "Q668687", "ref": "2115700015"}, "type": "Feature"}
{"geometry": {"coordinates": [-76.996215, 39.571485], "type": "Point"}, "id": "X-9CwMnOz05dk0wQFKUQip1PVJo=", "properties": {"@source_uri": "https://tools.usps.com/UspsToolsRestServices/rest/POLocator/findLocations", "@spider": "usps_collection_boxes", "addr:city": "WESTMINSTER", "addr:country": "US", "addr:postcode": "21157", "addr:state": "MD", "addr:street_address": "625 BALTIMORE BLVD", "amenity": "post_box", "collection_times": "Mo-Fr 15:45; Sa 13:45", "note": "ON 12/24 AND 12/31, THIS BOX MAY BE COLLECTED AS EARLY AS 12 NOON.", "nsi_id": "unitedstatespostalservice-a77078", "operator": "United States Postal Service", "operator:short": "USPS", "operator:type": "public", "operator:wikidata": "Q668687", "ref": "2115700016"}, "type": "Feature"}
{"geometry": {"coordinates": [-76.9777685, 39.567374], "type": "Point"}, "id": "It1sWbwCKyGIyKH2IJHTgxd0ZQ0=", "properties": {"@source_uri": "https://tools.usps.com/UspsToolsRestServices/rest/POLocator/findLocations", "@spider": "usps_collection_boxes", "addr:city": "WESTMINSTER", "addr:country": "US", "addr:postcode": "21157", "addr:state": "MD", "addr:street_address": "532 BALTIMORE BLVD", "amenity": "post_box", "collection_times": "Mo-Fr 15:45; Sa 13:30", "note": "ON 12/24 AND 12/31, THIS BOX MAY BE COLLECTED AS EARLY AS 12 NOON.", "nsi_id": "unitedstatespostalservice-a77078", "operator": "United States Postal Service", "operator:short": "USPS", "operator:type": "public", "operator:wikidata": "Q668687", "ref": "2115700018"}, "type": "Feature"}
{"geometry": {"coordinates": [-76.9871442, 39.573281], "type": "Point"}, "id": "_Bgav8q2pzpeiFbhLk8pCkjHoyA=", "properties": {"@source_uri": "https://tools.usps.com/UspsToolsRestServices/rest/POLocator/findLocations", "@spider": "usps_collection_boxes", "addr:city": "WESTMINSTER", "addr:country": "US", "addr:postcode": "21157", "addr:state": "MD", "addr:street_address": "225 N CENTER ST", "amenity": "post_box", "collection_times": "Mo-Fr 15:45; Sa 13:30", "note": "ON 12/24 AND 12/31, THIS BOX MAY BE COLLECTED AS EARLY AS 12 NOON.", "nsi_id": "unitedstatespostalservice-a77078", "operator": "United States Postal Service", "operator:short": "USPS", "operator:type": "public", "operator:wikidata": "Q668687", "ref": "2115700020"}, "type": "Feature"}
{"geometry": {"coordinates": [-76.9874535, 39.571092], "type": "Point"}, "id": "ve9fYB6fa6kVmOtwLHSaDeydRtQ=", "properties": {"@source_uri": "https://tools.usps.com/UspsToolsRestServices/rest/POLocator/findLocations", "@spider": "usps_collection_boxes", "addr:city": "WESTMINSTER", "addr:country": "US", "addr:postcode": "21157", "addr:state": "MD", "addr:street_address": "55 N COURT ST", "amenity": "post_box", "collection_times": "Mo-Fr 15:45; Sa 13:30", "note": "ON 12/24 AND 12/31, THIS BOX MAY BE COLLECTED AS EARLY AS 12 NOON.", "nsi_id": "unitedstatespostalservice-a77078", "operator": "United States Postal Service", "operator:short": "USPS", "operator:type": "public", "operator:wikidata": "Q668687", "ref": "2115700021"}, "type": "Feature"}
{"geometry": {"coordinates": [-76.9887177, 39.568219], "type": "Point"}, "id": "NmDjG9OYhSdwWg86mUjM3Vsufrw=", "properties": {"@source_uri": "https://tools.usps.com/UspsToolsRestServices/rest/POLocator/findLocations", "@spider": "usps_collection_boxes", "addr:city": "WESTMINSTER", "addr:country": "US", "addr:postcode": "21157", "addr:state": "MD", "addr:street_address": "255 E MAIN ST", "amenity": "post_box", "collection_times": "Mo-Fr 15:45; Sa 13:30", "note": "ON 12/24 AND 12/31, THIS BOX MAY BE COLLECTED AS EARLY AS 12 NOON.", "nsi_id": "unitedstatespostalservice-a77078", "operator": "United States Postal Service", "operator:short": "USPS", "operator:type": "public", "operator:wikidata": "Q668687", "ref": "2115700023"}, "type": "Feature"}
{"geometry": {"coordinates": [-76.9903654659, 39.570093869], "type": "Point"}, "id": "I-kypFrdYGCXsZ0YPQ8qrGDAyiA=", "properties": {"@source_uri": "https://tools.usps.com/UspsToolsRestServices/rest/POLocator/findLocations", "@spider": "usps_collection_boxes", "addr:city": "WESTMINSTER", "addr:country": "US", "addr:postcode": "21157", "addr:state": "MD", "addr:street_address": "2 N COURT ST", "amenity": "post_box", "collection_times": "Mo-Fr 15:45; Sa 13:30", "note": "ON 12/24 AND 12/31, THIS BOX MAY BE COLLECTED AS EARLY AS 12 NOON.", "nsi_id": "unitedstatespostalservice-a77078", "operator": "United States Postal Service", "operator:short": "USPS", "operator:type": "public", "operator:wikidata": "Q668687", "ref": "2115700024"}, "type": "Feature"}
{"geometry": {"coordinates": [-76.9931265, 39.572397], "type": "Point"}, "id": "uHFCqow66aX63whnncVIDnn9Emk=", "properties": {"@source_uri": "https://tools.usps.com/UspsToolsRestServices/rest/POLocator/findLocations", "@spider": "usps_collection_boxes", "addr:city": "WESTMINSTER", "addr:country": "US", "addr:postcode": "21157", "addr:state": "MD", "addr:street_address": "117 E MAIN ST", "amenity": "post_box", "collection_times": "Mo-Fr 15:45; Sa 13:45", "note": "ON 12/24 AND 12/31, THIS BOX MAY BE COLLECTED AS EARLY AS 12 NOON.", "nsi_id": "unitedstatespostalservice-a77078", "operator": "United States Postal Service", "operator:short": "USPS", "operator:type": "public", "operator:wikidata": "Q668687", "ref": "2115700026"}, "type": "Feature"}
{"geometry": {"coordinates": [-76.9977304, 39.577024], "type": "Point"}, "id": "pbbjhzpl3ROVdbPlrqPFU6hwsD4=", "properties": {"@source_uri": "https://tools.usps.com/UspsToolsRestServices/rest/POLocator/findLocations", "@spider": "usps_collection_boxes", "addr:city": "WESTMINSTER", "addr:country": "US", "addr:postcode": "21157", "addr:state": "MD", "addr:street_address": "74 W MAIN ST", "amenity": "post_box", "collection_times": "Mo-Fr 15:45; Sa 13:45", "note": "ON 12/24 AND 12/31, THIS BOX MAY BE COLLECTED AS EARLY AS 12 NOON.", "nsi_id": "unitedstatespostalservice-a77078", "operator": "United States Postal Service", "operator:short": "USPS", "operator:type": "public", "operator:wikidata": "Q668687", "ref": "2115700035"}, "type": "Feature"}
{"geometry": {"coordinates": [-76.9989021, 39.577949], "type": "Point"}, "id": "iycfVwLl8b4VZkU6eMKxFoMEO-w=", "properties": {"@source_uri": "https://tools.usps.com/UspsToolsRestServices/rest/POLocator/findLocations", "@spider": "usps_collection_boxes", "addr:city": "WESTMINSTER", "addr:country": "US", "addr:postcode": "21157", "addr:state": "MD", "addr:street_address": "101 W MAIN ST", "amenity": "post_box", "collection_times": "Mo-Fr 15:45; Sa 13:15", "note": "ON 12/24 AND 12/31, THIS BOX MAY BE COLLECTED AS EARLY AS 12 NOON.", "nsi_id": "unitedstatespostalservice-a77078", "operator": "United States Postal Service", "operator:short": "USPS", "operator:type": "public", "operator:wikidata": "Q668687", "ref": "2115700036"}, "type": "Feature"}
{"geometry": {"coordinates": [-76.9915074, 39.583447], "type": "Point"}, "id": "wWLeSbpAWU_v5QhrsoimhaA2ARM=", "properties": {"@source_uri": "https://tools.usps.com/UspsToolsRestServices/rest/POLocator/findLocations", "@spider": "usps_collection_boxes", "addr:city": "WESTMINSTER", "addr:country": "US", "addr:postcode": "21157", "addr:state": "MD", "addr:street_address": "250 ENGLAR RD", "amenity": "post_box", "collection_times": "Mo-Fr 15:45; Sa 13:45", "note": "ON 12/24 AND 12/31, THIS BOX MAY BE COLLECTED AS EARLY AS 12 NOON.", "nsi_id": "unitedstatespostalservice-a77078", "operator": "United States Postal Service", "operator:short": "USPS", "operator:type": "public", "operator:wikidata": "Q668687", "ref": "2115700043"}, "type": "Feature"}
{"geometry": {"coordinates": [-76.9894952, 39.581574], "type": "Point"}, "id": "-XbNhTpJfaJY09vATjJ4kAmqTiw=", "properties": {"@source_uri": "https://tools.usps.com/UspsToolsRestServices/rest/POLocator/findLocations", "@spider": "usps_collection_boxes", "addr:city": "WESTMINSTER", "addr:country": "US", "addr:postcode": "21157", "addr:state": "MD", "addr:street_address": "7 ENGLAR RD", "amenity": "post_box", "collection_times": "Mo-Fr 15:45; Sa 13:45", "note": "ON 12/24 AND 12/31, THIS BOX MAY BE COLLECTED AS EARLY AS 12 NOON.", "nsi_id": "unitedstatespostalservice-a77078", "operator": "United States Postal Service", "operator:short": "USPS", "operator:type": "public", "operator:wikidata": "Q668687", "ref": "2115700044"}, "type": "Feature"}
{"geometry": {"coordinates": [-76.9934927, 39.575375], "type": "Point"}, "id": "hQm-BUE_6jBsl-POaKbSUv1R6yQ=", "properties": {"@source_uri": "https://tools.usps.com/UspsToolsRestServices/rest/POLocator/findLocations", "@spider": "usps_collection_boxes", "addr:city": "WESTMINSTER", "addr:country": "US", "addr:postcode": "21157", "addr:state": "MD", "addr:street_address": "30 LOCUST ST", "amenity": "post_box", "collection_times": "Mo-Sa 10:00", "nsi_id": "unitedstatespostalservice-a77078", "operator": "United States Postal Service", "operator:short": "USPS", "operator:type": "public", "operator:wikidata": "Q668687", "ref": "2115700048"}, "type": "Feature"}
{"geometry": {"coordinates": [-76.9895363, 39.585559], "type": "Point"}, "id": "e7NH-eEQd-AEPwlb0c8eNVPGf7I=", "properties": {"@source_uri": "https://tools.usps.com/UspsToolsRestServices/rest/POLocator/findLocations", "@spider": "usps_collection_boxes", "addr:city": "WESTMINSTER", "addr:country": "US", "addr:postcode": "21157", "addr:state": "MD", "addr:street_address": "400 ENGLAR RD", "amenity": "post_box", "collection_times": "Mo-Fr 15:45; Sa 13:00", "note": "ON 12/24 AND 12/31, THIS BOX MAY BE COLLECTED AS EARLY AS 12 NOON.", "nsi_id": "unitedstatespostalservice-a77078", "operator": "United States Postal Service", "operator:short": "USPS", "operator:type": "public", "operator:wikidata": "Q668687", "ref": "2115700050"}, "type": "Feature"}
{"geometry": {"coordinates": [-76.9729055829, 39.5842754991], "type": "Point"}, "id": "a-sR6_PFBjgY4kowz3tiHGf5lBk=", "properties": {"@source_uri": "https://tools.usps.com/UspsToolsRestServices/rest/POLocator/findLocations", "@spider": "usps_collection_boxes", "addr:city": "WESTMINSTER", "addr:country": "US", "addr:postcode": "21157", "addr:state": "MD", "addr:street_address": "405 N CRANBERRY RD", "amenity": "post_box", "collection_times": "Mo-Fr 15:45; Sa 13:30", "note": "ON 12/24 AND 12/31, THIS BOX MAY BE COLLECTED AS EARLY AS 12 NOON.", "nsi_id": "unitedstatespostalservice-a77078", "operator": "United States Postal Service", "operator:short": "USPS", "operator:type": "public", "operator:wikidata": "Q668687", "ref": "2115700052"}, "type": "Feature"}
{"geometry": {"coordinates": [-76.9923519, 39.548891], "type": "Point"}, "id": "luBCiYlyyRxT0OAAecV1gq0E8Ko=", "properties": {"@source_uri": "https://tools.usps.com/UspsToolsRestServices/rest/POLocator/findLocations", "@spider": "usps_collection_boxes", "addr:city": "WESTMINSTER", "addr:country": "US", "addr:postcode": "21157", "addr:state": "MD", "addr:street_address": "908 WASHINGTON RD", "amenity": "post_box", "collection_times": "Mo-Fr 15:45; Sa 13:15", "note": "ON 12/24 AND 12/31, THIS BOX MAY BE COLLECTED AS EARLY AS 12 NOON.", "nsi_id": "unitedstatespostalservice-a77078", "operator": "United States Postal Service", "operator:short": "USPS", "operator:type": "public", "operator:wikidata": "Q668687", "ref": "2115700057"}, "type": "Feature"}
{"geometry": {"coordinates": [-76.9872253, 39.563328], "type": "Point"}, "id": "YkuWL85PZ8mvprgI8E250VUrsnQ=", "properties": {"@source_uri": "https://tools.usps.com/UspsToolsRestServices/rest/POLocator/findLocations", "@spider": "usps_collection_boxes", "addr:city": "WESTMINSTER", "addr:country": "US", "addr:postcode": "21157", "addr:state": "MD", "addr:street_address": "210 WASHINGTON HEIGHTS MED CTR", "amenity": "post_box", "collection_times": "Mo-Fr 15:45; Sa 13:15", "note": "ON 12/24 AND 12/31, THIS BOX MAY BE COLLECTED AS EARLY AS 12 NOON.", "nsi_id": "unitedstatespostalservice-a77078", "operator": "United States Postal Service", "operator:short": "USPS", "operator:type": "public", "operator:wikidata": "Q668687", "ref": "2115700061"}, "type": "Feature"}
{"geometry": {"coordinates": [-76.982797367, 39.585463727], "type": "Point"}, "id": "v2a_EYPF3OUNgkwt7tHW8cs4Beg=", "properties": {"@source_uri": "https://tools.usps.com/UspsToolsRestServices/rest/POLocator/findLocations", "@spider": "usps_collection_boxes", "addr:city": "WESTMINSTER", "addr:country": "US", "addr:postcode": "21157", "addr:state": "MD", "addr:street_address": "345 WOODWARD RD", "amenity": "post_box", "collection_times": "Mo-Fr 17:00; Sa 13:45", "note": "ON 12/24 AND 12/31, THIS BOX MAY BE COLLECTED AS EARLY AS 12 NOON.", "nsi_id": "unitedstatespostalservice-a77078", "operator": "United States Postal Service", "operator:short": "USPS", "operator:type": "public", "operator:wikidata": "Q668687", "ref": "2115700068"}, "type": "Feature"}
{"geometry": {"coordinates": [-76.982797367, 39.585463727], "type": "Point"}, "id": "ijIAHlPq2oDhPDCPTx2TkZdAG6c=", "properties": {"@source_uri": "https://tools.usps.com/UspsToolsRestServices/rest/POLocator/findLocations", "@spider": "usps_collection_boxes", "addr:city": "WESTMINSTER", "addr:country": "US", "addr:postcode": "21157", "addr:state": "MD", "addr:street_address": "345 WOODWARD RD", "amenity": "post_box", "collection_times": "Mo-Fr 17:00; Sa 13:45", "note": "ON 12/24 AND 12/31, THIS BOX MAY BE COLLECTED AS EARLY AS 12 NOON.", "nsi_id": "unitedstatespostalservice-a77078", "operator": "United States Postal Service", "operator:short": "USPS", "operator:type": "public", "operator:wikidata": "Q668687", "ref": "2115700070"}, "type": "Feature"}
{"geometry": {"coordinates": [-76.9941145, 39.573393], "type": "Point"}, "id": "tqrBIBSBFNQ1djaXcdlVFbAxi9c=", "properties": {"@source_uri": "https://tools.usps.com/UspsToolsRestServices/rest/POLocator/findLocations", "@spider": "usps_collection_boxes", "addr:city": "WESTMINSTER", "addr:country": "US", "addr:postcode": "21157", "addr:state": "MD", "addr:street_address": "83 E MAIN ST", "amenity": "post_box", "collection_times": "Mo-Fr 15:45; Sa 13:45", "note": "ON 12/24 AND 12/31, THIS BOX MAY BE COLLECTED AS EARLY AS 12 NOON.", "nsi_id": "unitedstatespostalservice-a77078", "operator": "United States Postal Service", "operator:short": "USPS", "operator:type": "public", "operator:wikidata": "Q668687", "ref": "2115700071"}, "type": "Feature"}
{"geometry": {"coordinates": [-76.982797367, 39.585463727], "type": "Point"}, "id": "0KcN-ZRPIIrkuKIDxrsQkrlDkkA=", "properties": {"@source_uri": "https://tools.usps.com/UspsToolsRestServices/rest/POLocator/findLocations", "@spider": "usps_collection_boxes", "addr:city": "WESTMINSTER", "addr:country": "US", "addr:postcode": "21157", "addr:state": "MD", "addr:street_address": "345 WOODWARD RD", "amenity": "post_box", "collection_times": "Mo-Fr 17:00; Sa 13:00", "indoor": "yes", "note": "ON 12/24 AND 12/31, THIS BOX MAY BE COLLECTED AS EARLY AS 12 NOON.", "nsi_id": "unitedstatespostalservice-a77078", "operator": "United States Postal Service", "operator:short": "USPS", "operator:type": "public", "operator:wikidata": "Q668687", "ref": "2115700073"}, "type": "Feature"}
{"geometry": {"coordinates": [-76.982797367, 39.585463727], "type": "Point"}, "id": "q0zpRF537A1qPPqDb9dWY6r5ybI=", "properties": {"@source_uri": "https://tools.usps.com/UspsToolsRestServices/rest/POLocator/findLocations", "@spider": "usps_collection_boxes", "addr:city": "WESTMINSTER", "addr:country": "US", "addr:postcode": "21157", "addr:state": "MD", "addr:street_address": "345 WOODWARD RD", "amenity": "post_box", "collection_times": "Mo-Fr 17:00; Sa 13:00", "indoor": "yes", "note": "ON 12/24 AND 12/31, THIS BOX MAY BE COLLECTED AS EARLY AS 12 NOON.", "nsi_id": "unitedstatespostalservice-a77078", "operator": "United States Postal Service", "operator:short": "USPS", "operator:type": "public", "operator:wikidata": "Q668687", "ref": "2115700075"}, "type": "Feature"}
{"geometry": {"coordinates": [-77.0124391, 39.585926], "type": "Point"}, "id": "03fOzNl2PaumBtGr_meU63V2-KA=", "properties": {"@source_uri": "https://tools.usps.com/UspsToolsRestServices/rest/POLocator/findLocations", "@spider": "usps_collection_boxes", "addr:city": "WESTMINSTER", "addr:country": "US", "addr:postcode": "21157", "addr:state": "MD", "addr:street_address": "444 WMC DR", "amenity": "post_box", "collection_times": "Mo-Sa 10:00", "nsi_id": "unitedstatespostalservice-a77078", "operator": "United States Postal Service", "operator:short": "USPS", "operator:type": "public", "operator:wikidata": "Q668687", "ref": "2115700076"}, "type": "Feature"}
{"geometry": {"coordinates": [-76.9832513, 39.577345], "type": "Point"}, "id": "Gst-AQLVYxH-bENpv39TjsKT9yA=", "properties": {"@source_uri": "https://tools.usps.com/UspsToolsRestServices/rest/POLocator/findLocations", "@spider": "usps_collection_boxes", "addr:city": "WESTMINSTER", "addr:country": "US", "addr:postcode": "21157", "addr:state": "MD", "addr:street_address": "400 N CENTER ST", "amenity": "post_box", "collection_times": "Mo-Fr 15:45; Sa 13:30", "note": "ON 12/24 AND 12/31, THIS BOX MAY BE COLLECTED AS EARLY AS 12 NOON.", "nsi_id": "unitedstatespostalservice-a77078", "operator": "United States Postal Service", "operator:short": "USPS", "operator:type": "public", "operator:wikidata": "Q668687", "ref": "2115700077"}, "type": "Feature"}
{"geometry": {"coordinates": [-76.982797367, 39.585463727], "type": "Point"}, "id": "bHIC7qheCNsLGYSdgN1hiYnnI0w=", "properties": {"@source_uri": "https://tools.usps.com/UspsToolsRestServices/rest/POLocator/findLocations", "@spider": "usps_collection_boxes", "addr:city": "WESTMINSTER", "addr:country": "US", "addr:postcode": "21157", "addr:state": "MD", "addr:street_address": "345 WOODWARD RD", "amenity": "post_box", "collection_times": "Mo-Fr 17:00; Sa 13:00", "name": "USPS COLLECTION BOX - APC", "note": "ON 12/24 AND 12/31, THIS BOX MAY BE COLLECTED AS EARLY AS 12 NOON.", "nsi_id": "unitedstatespostalservice-a77078", "operator": "United States Postal Service", "operator:short": "USPS", "operator:type": "public", "operator:wikidata": "Q668687", "ref": "2115700078"}, "type": "Feature"}
{"geometry": {"coordinates": [-76.982797367, 39.585463727], "type": "Point"}, "id": "9buzBBczvqf4uaeT9qwgAoDw2EU=", "properties": {"@source_uri": "https://tools.usps.com/UspsToolsRestServices/rest/POLocator/findLocations", "@spider": "usps_collection_boxes", "addr:city": "WESTMINSTER", "addr:country": "US", "addr:postcode": "21157", "addr:state": "MD", "addr:street_address": "345 WOODWARD RD", "amenity": "post_box", "collection_times": "Mo-Fr 17:00; Sa 13:00", "indoor": "yes", "note": "ON 12/24 AND 12/31, THIS BOX MAY BE COLLECTED AS EARLY AS 12 NOON.", "nsi_id": "unitedstatespostalservice-a77078", "operator": "United States Postal Service", "operator:short": "USPS", "operator:type": "public", "operator:wikidata": "Q668687", "ref": "2115700085"}, "type": "Feature"}
{"geometry": {"coordinates": [-76.342441, 39.72013], "type": "Point"}, "id": "0Z0zeG2TNxKUmF8Vok_U_p93mi8=", "properties": {"@source_uri": "https://tools.usps.com/UspsToolsRestServices/rest/POLocator/findLocations", "@spider": "usps_collection_boxes", "addr:city": "WHITEFORD", "addr:country": "US", "addr:postcode": "21160", "addr:state": "MD", "addr:street_address": "1606 DOOLEY RD", "amenity": "post_box", "collection_times": "Mo-Sa 09:00", "nsi_id": "unitedstatespostalservice-a77078", "operator": "United States Postal Service", "operator:short": "USPS", "operator:type": "public", "operator:wikidata": "Q668687", "ref": "2116000002"}, "type": "Feature"}
{"geometry": {"coordinates": [-76.3926063, 39.717706], "type": "Point"}, "id": "5F1W2kFS4cOQ3aA3qpmFvGrUdmg=", "properties": {"@source_uri": "https://tools.usps.com/UspsToolsRestServices/rest/POLocator/findLocations", "@spider": "usps_collection_boxes", "addr:city": "WHITEFORD", "addr:country": "US", "addr:postcode": "21160", "addr:state": "MD", "addr:street_address": "2902 WHITEFORD RD", "amenity": "post_box", "collection_times": "Mo-Sa 10:00", "nsi_id": "unitedstatespostalservice-a77078", "operator": "United States Postal Service", "operator:short": "USPS", "operator:type": "public", "operator:wikidata": "Q668687", "ref": "2116000003"}, "type": "Feature"}
{"geometry": {"coordinates": [-76.344912134, 39.709578109], "type": "Point"}, "id": "2Er1rOulmbDIEkna4iXultdDTjk=", "properties": {"@source_uri": "https://tools.usps.com/UspsToolsRestServices/rest/POLocator/findLocations", "@spider": "usps_collection_boxes", "addr:city": "WHITEFORD", "addr:country": "US", "addr:postcode": "21160", "addr:state": "MD", "addr:street_address": "1508 MAIN ST", "amenity": "post_box", "collection_times": "Mo-Fr 16:30; Sa 12:00", "note": "ON 12/24 AND 12/31, THIS BOX MAY BE COLLECTED AS EARLY AS 12 NOON.", "nsi_id": "unitedstatespostalservice-a77078", "operator": "United States Postal Service", "operator:short": "USPS", "operator:type": "public", "operator:wikidata": "Q668687", "ref": "2116000004"}, "type": "Feature"}
{"geometry": {"coordinates": [-76.344912134, 39.709578109], "type": "Point"}, "id": "R227QuPYLpg7JeQE3wPn1lw7zmo=", "properties": {"@source_uri": "https://tools.usps.com/UspsToolsRestServices/rest/POLocator/findLocations", "@spider": "usps_collection_boxes", "addr:city": "WHITEFORD", "addr:country": "US", "addr:postcode": "21160", "addr:state": "MD", "addr:street_address": "1508 MAIN ST", "amenity": "post_box", "collection_times": "Mo-Fr 16:30; Sa 12:00", "indoor": "yes", "note": "ON 12/24 AND 12/31, THIS BOX MAY BE COLLECTED AS EARLY AS 12 NOON.", "nsi_id": "unitedstatespostalservice-a77078", "operator": "United States Postal Service", "operator:short": "USPS", "operator:type": "public", "operator:wikidata": "Q668687", "ref": "2116000005"}, "type": "Feature"}
{"geometry": {"coordinates": [-76.344912134, 39.709578109], "type": "Point"}, "id": "8n7Xkmm2zK6kavFlwoPLJFYEDAM=", "properties": {"@source_uri": "https://tools.usps.com/UspsToolsRestServices/rest/POLocator/findLocations", "@spider": "usps_collection_boxes", "addr:city": "WHITEFORD", "addr:country": "US", "addr:postcode": "21160", "addr:state": "MD", "addr:street_address": "1508 MAIN ST", "amenity": "post_box", "collection_times": "Mo-Fr 16:30; Sa 12:00", "indoor": "yes", "note": "ON 12/24 AND 12/31, THIS BOX MAY BE COLLECTED AS EARLY AS 12 NOON.", "nsi_id": "unitedstatespostalservice-a77078", "operator": "United States Postal Service", "operator:short": "USPS", "operator:type": "public", "operator:wikidata": "Q668687", "ref": "2116000006"}, "type": "Feature"}
{"geometry": {"coordinates": [-76.344912134, 39.709578109], "type": "Point"}, "id": "wEX1D7E6i4NGpehbMMXMm7xqQy0=", "properties": {"@source_uri": "https://tools.usps.com/UspsToolsRestServices/rest/POLocator/findLocations", "@spider": "usps_collection_boxes", "addr:city": "WHITEFORD", "addr:country": "US", "addr:postcode": "21160", "addr:state": "MD", "addr:street_address": "1508 MAIN ST", "amenity": "post_box", "collection_times": "Mo-Fr 17:00; Sa 12:00", "indoor": "yes", "note": "ON 12/24 AND 12/31, THIS BOX MAY BE COLLECTED AS EARLY AS 12 NOON.", "nsi_id": "unitedstatespostalservice-a77078", "operator": "United States Postal Service", "operator:short": "USPS", "operator:type": "public", "operator:wikidata": "Q668687", "ref": "2116000008"}, "type": "Feature"}
{"geometry": {"coordinates": [-76.628965866, 39.62100995], "type": "Point"}, "id": "yU4vQ7v0ovnZrzojjT9sGkfLOdo=", "properties": {"@source_uri": "https://tools.usps.com/UspsToolsRestServices/rest/POLocator/findLocations", "@spider": "usps_collection_boxes", "addr:city": "WHITE HALL", "addr:country": "US", "addr:postcode": "21161", "addr:state": "MD", "addr:street_address": "1415 WISEBURG RD", "amenity": "post_box", "collection_times": "Mo-Fr 16:30; Sa 12:00", "note": "ON 12/24 AND 12/31, THIS BOX MAY BE COLLECTED AS EARLY AS 12 NOON.", "nsi_id": "unitedstatespostalservice-a77078", "operator": "United States Postal Service", "operator:short": "USPS", "operator:type": "public", "operator:wikidata": "Q668687", "ref": "2116100005"}, "type": "Feature"}
{"geometry": {"coordinates": [-76.628965866, 39.62100995], "type": "Point"}, "id": "TWtGsqDwIlTATBY6_6F8-3V4ZD8=", "properties": {"@source_uri": "https://tools.usps.com/UspsToolsRestServices/rest/POLocator/findLocations", "@spider": "usps_collection_boxes", "addr:city": "WHITE HALL", "addr:country": "US", "addr:postcode": "21161", "addr:state": "MD", "addr:street_address": "1415 WISEBURG RD", "amenity": "post_box", "collection_times": "Mo-Fr 16:30; Sa 12:00", "indoor": "yes", "note": "ON 12/24 AND 12/31, THIS BOX MAY BE COLLECTED AS EARLY AS 12 NOON.", "nsi_id": "unitedstatespostalservice-a77078", "operator": "United States Postal Service", "operator:short": "USPS", "operator:type": "public", "operator:wikidata": "Q668687", "ref": "2116100006"}, "type": "Feature"}
{"geometry": {"coordinates": [-76.628965866, 39.62100995], "type": "Point"}, "id": "g4qdttWE7EZuOGHX2VTgcn4LLsM=", "properties": {"@source_uri": "https://tools.usps.com/UspsToolsRestServices/rest/POLocator/findLocations", "@spider": "usps_collection_boxes", "addr:city": "WHITE HALL", "addr:country": "US", "addr:postcode": "21161", "addr:state": "MD", "addr:street_address": "1415 WISEBURG RD", "amenity": "post_box", "collection_times": "Mo-Fr 16:30; Sa 12:00", "indoor": "yes", "note": "ON 12/24 AND 12/31, THIS BOX MAY BE COLLECTED AS EARLY AS 12 NOON.", "nsi_id": "unitedstatespostalservice-a77078", "operator": "United States Postal Service", "operator:short": "USPS", "operator:type": "public", "operator:wikidata": "Q668687", "ref": "2116100008"}, "type": "Feature"}
{"geometry": {"coordinates": [-76.430097007, 39.382708797], "type": "Point"}, "id": "n7-ieYSyxDxernBlfe37Yf1SpJE=", "properties": {"@source_uri": "https://tools.usps.com/UspsToolsRestServices/rest/POLocator/findLocations", "@spider": "usps_collection_boxes", "addr:city": "WHITE MARSH", "addr:country": "US", "addr:postcode": "21162", "addr:state": "MD", "addr:street_address": "5422 EBENEZER RD", "amenity": "post_box", "collection_times": "Mo-Fr 16:30; Sa 11:30", "note": "ON 12/24 AND 12/31, THIS BOX MAY BE COLLECTED AS EARLY AS 12 NOON.", "nsi_id": "unitedstatespostalservice-a77078", "operator": "United States Postal Service", "operator:short": "USPS", "operator:type": "public", "operator:wikidata": "Q668687", "ref": "2116200001"}, "type": "Feature"}
{"geometry": {"coordinates": [-76.430097007, 39.382708797], "type": "Point"}, "id": "d16v6Y-VUBvehNkxJWWDX5-WrOQ=", "properties": {"@source_uri": "https://tools.usps.com/UspsToolsRestServices/rest/POLocator/findLocations", "@spider": "usps_collection_boxes", "addr:city": "WHITE MARSH", "addr:country": "US", "addr:postcode": "21162", "addr:state": "MD", "addr:street_address": "5422 EBENEZER RD", "amenity": "post_box", "collection_times": "Mo-Fr 16:30", "indoor": "yes", "note": "ON 12/24 AND 12/31, THIS BOX MAY BE COLLECTED AS EARLY AS 12 NOON.", "nsi_id": "unitedstatespostalservice-a77078", "operator": "United States Postal Service", "operator:short": "USPS", "operator:type": "public", "operator:wikidata": "Q668687", "ref": "2116200003"}, "type": "Feature"}
{"geometry": {"coordinates": [-76.430097007, 39.382708797], "type": "Point"}, "id": "FluptJFDnpaVQxxQOkzCmcPNtJ0=", "properties": {"@source_uri": "https://tools.usps.com/UspsToolsRestServices/rest/POLocator/findLocations", "@spider": "usps_collection_boxes", "addr:city": "WHITE MARSH", "addr:country": "US", "addr:postcode": "21162", "addr:state": "MD", "addr:street_address": "5422 EBENEZER RD", "amenity": "post_box", "collection_times": "Mo-Fr 17:00", "indoor": "yes", "note": "ON 12/24 AND 12/31, THIS BOX MAY BE COLLECTED AS EARLY AS 12 NOON.", "nsi_id": "unitedstatespostalservice-a77078", "operator": "United States Postal Service", "operator:short": "USPS", "operator:type": "public", "operator:wikidata": "Q668687", "ref": "2116200005"}, "type": "Feature"}
{"geometry": {"coordinates": [-76.889512088, 39.308542992], "type": "Point"}, "id": "sJD2PPOfq2r0X85BYcu3jMJjQh0=", "properties": {"@source_uri": "https://tools.usps.com/UspsToolsRestServices/rest/POLocator/findLocations", "@spider": "usps_collection_boxes", "addr:city": "WOODSTOCK", "addr:country": "US", "addr:postcode": "21163", "addr:state": "MD", "addr:street_address": "10805 BIRMINGHAM WAY STE 25", "amenity": "post_box", "collection_times": "Mo-Fr 16:00; Sa 12:00", "note": "ON 12/24 AND 12/31, THIS BOX MAY BE COLLECTED AS EARLY AS 12 NOON.", "nsi_id": "unitedstatespostalservice-a77078", "operator": "United States Postal Service", "operator:short": "USPS", "operator:type": "public", "operator:wikidata": "Q668687", "ref": "2116300001"}, "type": "Feature"}
{"geometry": {"coordinates": [-76.8889524, 39.307325], "type": "Point"}, "id": "tzN7HXux1uKVGb7moo9BvHswt3M=", "properties": {"@source_uri": "https://tools.usps.com/UspsToolsRestServices/rest/POLocator/findLocations", "@spider": "usps_collection_boxes", "addr:city": "WOODSTOCK", "addr:country": "US", "addr:postcode": "21163", "addr:state": "MD", "addr:street_address": "10775 BIRMINGHAM WAY", "amenity": "post_box", "collection_times": "Mo-Sa 10:00", "nsi_id": "unitedstatespostalservice-a77078", "operator": "United States Postal Service", "operator:short": "USPS", "operator:type": "public", "operator:wikidata": "Q668687", "ref": "2116300005"}, "type": "Feature"}
{"geometry": {"coordinates": [-76.889512088, 39.308542992], "type": "Point"}, "id": "2xR20Rc9wX0juUCej2gxJpU-WZg=", "properties": {"@source_uri": "https://tools.usps.com/UspsToolsRestServices/rest/POLocator/findLocations", "@spider": "usps_collection_boxes", "addr:city": "WOODSTOCK", "addr:country": "US", "addr:postcode": "21163", "addr:state": "MD", "addr:street_address": "10805 BIRMINGHAM WAY STE 25", "amenity": "post_box", "collection_times": "Mo-Fr 16:45; Sa 12:30", "indoor": "yes", "note": "ON 12/24 AND 12/31, THIS BOX MAY BE COLLECTED AS EARLY AS 12 NOON.", "nsi_id": "unitedstatespostalservice-a77078", "operator": "United States Postal Service", "operator:short": "USPS", "operator:type": "public", "operator:wikidata": "Q668687", "ref": "2116300006"}, "type": "Feature"}
{"geometry": {"coordinates": [-76.889512088, 39.308542992], "type": "Point"}, "id": "PHFxoSIDB8PsncR0oR4-WaT40MM=", "properties": {"@source_uri": "https://tools.usps.com/UspsToolsRestServices/rest/POLocator/findLocations", "@spider": "usps_collection_boxes", "addr:city": "WOODSTOCK", "addr:country": "US", "addr:postcode": "21163", "addr:state": "MD", "addr:street_address": "10805 BIRMINGHAM WAY STE 25", "amenity": "post_box", "collection_times": "Mo-Fr 17:00; Sa 12:30", "indoor": "yes", "note": "ON 12/24 AND 12/31, THIS BOX MAY BE COLLECTED AS EARLY AS 12 NOON.", "nsi_id": "unitedstatespostalservice-a77078", "operator": "United States Postal Service", "operator:short": "USPS", "operator:type": "public", "operator:wikidata": "Q668687", "ref": "2116300008"}, "type": "Feature"}
