{"dataset_attributes": {"@spider": "usps_collection_boxes", "spider:collection_time": "2023-08-31T08:24:48.849802"}, "geometry": {"coordinates": [-76.4878854, 38.977632], "type": "Point"}, "id": "S1Nqp2NljCuo79y9yoJ-iIVSpfU=", "properties": {"@spider": "usps_collection_boxes", "addr:city": "ANNAPOLIS", "addr:country": "US", "addr:full": "100 MAIN ST", "addr:postcode": "21401", "addr:state": "MD", "amenity": "post_box", "brand": "United States Postal Service", "brand:wikidata": "Q668687", "collection_times": "Mo-Sa 09:00", "name": "USPS COLLECTION BOX - BLUE BOX", "nsi_id": "unitedstatespostalservice-a77078", "operator": "United States Postal Service", "operator:short": "USPS", "operator:type": "public", "operator:wikidata": "Q668687", "ref": "2140100001"}, "type": "Feature"}
{"dataset_attributes": {"@spider": "usps_collection_boxes", "spider:collection_time": "2023-08-31T08:24:48.849802"}, "geometry": {"coordinates": [-76.5039168, 38.986617], "type": "Point"}, "id": "p3fVX31vFau74gTBlk3iIkxym78=", "properties": {"@spider": "usps_collection_boxes", "addr:city": "ANNAPOLIS", "addr:country": "US", "addr:full": "251 ROWE BLVD", "addr:postcode": "21401", "addr:state": "MD", "amenity": "post_box", "brand": "United States Postal Service", "brand:wikidata": "Q668687", "collection_times": "Mo-Sa 09:00", "name": "USPS COLLECTION BOX - BLUE BOX", "nsi_id": "unitedstatespostalservice-a77078", "operator": "United States Postal Service", "operator:short": "USPS", "operator:type": "public", "operator:wikidata": "Q668687", "ref": "2140100009"}, "type": "Feature"}
{"dataset_attributes": {"@spider": "usps_collection_boxes", "spider:collection_time": "2023-08-31T08:24:48.849802"}, "geometry": {"coordinates": [-76.4937383, 38.979106], "type": "Point"}, "id": "NrNLydZHfP1n3AUzk74mfa-fPq8=", "properties": {"@spider": "usps_collection_boxes", "addr:city": "ANNAPOLIS", "addr:country": "US", "addr:full": "1 CHURCH CIR", "addr:postcode": "21401", "addr:state": "MD", "amenity": "post_box", "brand": "United States Postal Service", "brand:wikidata": "Q668687", "collection_times": "Mo-Sa 09:00", "name": "USPS COLLECTION BOX - BLUE BOX", "nsi_id": "unitedstatespostalservice-a77078", "operator": "United States Postal Service", "operator:short": "USPS", "operator:type": "public", "operator:wikidata": "Q668687", "ref": "2140100014"}, "type": "Feature"}
{"dataset_attributes": {"@spider": "usps_collection_boxes", "spider:collection_time": "2023-08-31T08:24:48.849802"}, "geometry": {"coordinates": [-76.4937429, 38.979093], "type": "Point"}, "id": "fAn5HJa1R6u8HWxYXgMTkDtkThE=", "properties": {"@spider": "usps_collection_boxes", "addr:city": "ANNAPOLIS", "addr:country": "US", "addr:full": "1 CHURCH CIR", "addr:postcode": "21401", "addr:state": "MD", "amenity": "post_box", "brand": "United States Postal Service", "brand:wikidata": "Q668687", "collection_times": "Mo-Sa 09:00", "name": "USPS COLLECTION BOX - BLUE BOX", "nsi_id": "unitedstatespostalservice-a77078", "operator": "United States Postal Service", "operator:short": "USPS", "operator:type": "public", "operator:wikidata": "Q668687", "ref": "2140100015"}, "type": "Feature"}
{"dataset_attributes": {"@spider": "usps_collection_boxes", "spider:collection_time": "2023-08-31T08:24:48.849802"}, "geometry": {"coordinates": [-76.489845997, 38.9784849943], "type": "Point"}, "id": "XCz-HQUdyQRNZPyjVA8SGNc6vY8=", "properties": {"@spider": "usps_collection_boxes", "addr:city": "ANNAPOLIS", "addr:country": "US", "addr:full": "44 STATE CIR", "addr:postcode": "21401", "addr:state": "MD", "amenity": "post_box", "brand": "United States Postal Service", "brand:wikidata": "Q668687", "collection_times": "Mo-Sa 09:00", "name": "USPS COLLECTION BOX - BLUE BOX", "nsi_id": "unitedstatespostalservice-a77078", "operator": "United States Postal Service", "operator:short": "USPS", "operator:type": "public", "operator:wikidata": "Q668687", "ref": "2140100024"}, "type": "Feature"}
{"dataset_attributes": {"@spider": "usps_collection_boxes", "spider:collection_time": "2023-08-31T08:24:48.849802"}, "geometry": {"coordinates": [-76.4913037, 38.978124], "type": "Point"}, "id": "LomB3HC2Q7FQLja30wDGTQjk5A0=", "properties": {"@spider": "usps_collection_boxes", "addr:city": "ANNAPOLIS", "addr:country": "US", "addr:full": "210 MAIN ST", "addr:postcode": "21401", "addr:state": "MD", "amenity": "post_box", "brand": "United States Postal Service", "brand:wikidata": "Q668687", "collection_times": "Mo-Sa 09:00", "name": "USPS COLLECTION BOX - BLUE BOX", "nsi_id": "unitedstatespostalservice-a77078", "operator": "United States Postal Service", "operator:short": "USPS", "operator:type": "public", "operator:wikidata": "Q668687", "ref": "2140100025"}, "type": "Feature"}
{"dataset_attributes": {"@spider": "usps_collection_boxes", "spider:collection_time": "2023-08-31T08:24:48.849802"}, "geometry": {"coordinates": [-76.5159704, 38.984313], "type": "Point"}, "id": "sHFxM2EeCVll1YZZldKaDBL7_ms=", "properties": {"@spider": "usps_collection_boxes", "addr:city": "ANNAPOLIS", "addr:country": "US", "addr:full": "5 SAMPSON PL", "addr:postcode": "21401", "addr:state": "MD", "amenity": "post_box", "brand": "United States Postal Service", "brand:wikidata": "Q668687", "collection_times": "Mo-Sa 09:00", "name": "USPS COLLECTION BOX - BLUE BOX", "nsi_id": "unitedstatespostalservice-a77078", "operator": "United States Postal Service", "operator:short": "USPS", "operator:type": "public", "operator:wikidata": "Q668687", "ref": "2140100035"}, "type": "Feature"}
{"dataset_attributes": {"@spider": "usps_collection_boxes", "spider:collection_time": "2023-08-31T08:24:48.849802"}, "geometry": {"coordinates": [-76.5137147, 38.997468], "type": "Point"}, "id": "n-23MJMH6nG93VidsyBj182mBYk=", "properties": {"@spider": "usps_collection_boxes", "addr:city": "ANNAPOLIS", "addr:country": "US", "addr:full": "600 RIDGELY AVE", "addr:postcode": "21401", "addr:state": "MD", "amenity": "post_box", "brand": "United States Postal Service", "brand:wikidata": "Q668687", "collection_times": "Mo-Fr 09:00; Sa 09:09", "name": "USPS COLLECTION BOX - BLUE BOX", "nsi_id": "unitedstatespostalservice-a77078", "operator": "United States Postal Service", "operator:short": "USPS", "operator:type": "public", "operator:wikidata": "Q668687", "ref": "2140100044"}, "type": "Feature"}
{"dataset_attributes": {"@spider": "usps_collection_boxes", "spider:collection_time": "2023-08-31T08:24:48.849802"}, "geometry": {"coordinates": [-76.5025931, 38.991598], "type": "Point"}, "id": "r62RbAktFhuDhSYkEWGkipM797E=", "properties": {"@spider": "usps_collection_boxes", "addr:city": "ANNAPOLIS", "addr:country": "US", "addr:full": "411 MELVIN AVE", "addr:postcode": "21401", "addr:state": "MD", "amenity": "post_box", "brand": "United States Postal Service", "brand:wikidata": "Q668687", "collection_times": "Mo-Sa 09:00", "name": "USPS COLLECTION BOX - BLUE BOX", "nsi_id": "unitedstatespostalservice-a77078", "operator": "United States Postal Service", "operator:short": "USPS", "operator:type": "public", "operator:wikidata": "Q668687", "ref": "2140100049"}, "type": "Feature"}
{"dataset_attributes": {"@spider": "usps_collection_boxes", "spider:collection_time": "2023-08-31T08:24:48.849802"}, "geometry": {"coordinates": [-76.5046642, 38.988618], "type": "Point"}, "id": "z4VSOforXAFlKAHJTeVHpqCCINw=", "properties": {"@spider": "usps_collection_boxes", "addr:city": "ANNAPOLIS", "addr:country": "US", "addr:full": "108 FORBES ST", "addr:postcode": "21401", "addr:state": "MD", "amenity": "post_box", "brand": "United States Postal Service", "brand:wikidata": "Q668687", "collection_times": "Mo-Sa 09:00", "name": "USPS COLLECTION BOX - BLUE BOX", "nsi_id": "unitedstatespostalservice-a77078", "operator": "United States Postal Service", "operator:short": "USPS", "operator:type": "public", "operator:wikidata": "Q668687", "ref": "2140100050"}, "type": "Feature"}
{"dataset_attributes": {"@spider": "usps_collection_boxes", "spider:collection_time": "2023-08-31T08:24:48.849802"}, "geometry": {"coordinates": [-76.545334, 38.979718], "type": "Point"}, "id": "Smw1_P9OEAtkw_euoTghkG7oyXo=", "properties": {"@spider": "usps_collection_boxes", "addr:city": "ANNAPOLIS", "addr:country": "US", "addr:full": "2341 FOREST DR STE O", "addr:postcode": "21401", "addr:state": "MD", "amenity": "post_box", "brand": "United States Postal Service", "brand:wikidata": "Q668687", "collection_times": "Mo-Sa 09:00", "name": "USPS COLLECTION BOX - BLUE BOX", "nsi_id": "unitedstatespostalservice-a77078", "operator": "United States Postal Service", "operator:short": "USPS", "operator:type": "public", "operator:wikidata": "Q668687", "ref": "2140100054"}, "type": "Feature"}
{"dataset_attributes": {"@spider": "usps_collection_boxes", "spider:collection_time": "2023-08-31T08:24:48.849802"}, "geometry": {"coordinates": [-76.4875631, 38.975122], "type": "Point"}, "id": "rwOEg-uSKz7I7IseSqgS-BeRYME=", "properties": {"@spider": "usps_collection_boxes", "addr:city": "ANNAPOLIS", "addr:country": "US", "addr:full": "104 DUKE OF GLOUCESTER ST", "addr:postcode": "21401", "addr:state": "MD", "amenity": "post_box", "brand": "United States Postal Service", "brand:wikidata": "Q668687", "collection_times": "Mo-Sa 09:00", "name": "USPS COLLECTION BOX - BLUE BOX", "nsi_id": "unitedstatespostalservice-a77078", "operator": "United States Postal Service", "operator:short": "USPS", "operator:type": "public", "operator:wikidata": "Q668687", "ref": "2140100060"}, "type": "Feature"}
{"dataset_attributes": {"@spider": "usps_collection_boxes", "spider:collection_time": "2023-08-31T08:24:48.849802"}, "geometry": {"coordinates": [-76.5031713, 38.97642], "type": "Point"}, "id": "rTjUfzebVGfhTOKAC4LjcB46vu8=", "properties": {"@spider": "usps_collection_boxes", "addr:city": "ANNAPOLIS", "addr:country": "US", "addr:full": "275 WEST ST", "addr:postcode": "21401", "addr:state": "MD", "amenity": "post_box", "brand": "United States Postal Service", "brand:wikidata": "Q668687", "collection_times": "Mo-Sa 09:00", "name": "USPS COLLECTION BOX - BLUE BOX", "nsi_id": "unitedstatespostalservice-a77078", "operator": "United States Postal Service", "operator:short": "USPS", "operator:type": "public", "operator:wikidata": "Q668687", "ref": "2140100061"}, "type": "Feature"}
{"dataset_attributes": {"@spider": "usps_collection_boxes", "spider:collection_time": "2023-08-31T08:24:48.849802"}, "geometry": {"coordinates": [-76.5266282, 38.975115], "type": "Point"}, "id": "tCuQ0LhM6ncsgoLy74HPBiYZoFc=", "properties": {"@spider": "usps_collection_boxes", "addr:city": "ANNAPOLIS", "addr:country": "US", "addr:full": "1914 FOREST DR", "addr:postcode": "21401", "addr:state": "MD", "amenity": "post_box", "brand": "United States Postal Service", "brand:wikidata": "Q668687", "collection_times": "Mo-Sa 09:00", "name": "USPS COLLECTION BOX - BLUE BOX", "nsi_id": "unitedstatespostalservice-a77078", "operator": "United States Postal Service", "operator:short": "USPS", "operator:type": "public", "operator:wikidata": "Q668687", "ref": "2140100067"}, "type": "Feature"}
{"dataset_attributes": {"@spider": "usps_collection_boxes", "spider:collection_time": "2023-08-31T08:24:48.849802"}, "geometry": {"coordinates": [-76.5194952, 38.969694], "type": "Point"}, "id": "7aJN1pWYV_qfMORAt_hu2z8T_rc=", "properties": {"@spider": "usps_collection_boxes", "addr:city": "ANNAPOLIS", "addr:country": "US", "addr:full": "1 S CHERRY GROVE AVE", "addr:postcode": "21401", "addr:state": "MD", "amenity": "post_box", "brand": "United States Postal Service", "brand:wikidata": "Q668687", "collection_times": "Mo-Sa 09:00", "name": "USPS COLLECTION BOX - BLUE BOX", "nsi_id": "unitedstatespostalservice-a77078", "operator": "United States Postal Service", "operator:short": "USPS", "operator:type": "public", "operator:wikidata": "Q668687", "ref": "2140100068"}, "type": "Feature"}
{"dataset_attributes": {"@spider": "usps_collection_boxes", "spider:collection_time": "2023-08-31T08:24:48.849802"}, "geometry": {"coordinates": [-76.5098219, 38.987882], "type": "Point"}, "id": "jUx9i2K_p18aTcoTWS9-TXHht8o=", "properties": {"@spider": "usps_collection_boxes", "addr:city": "ANNAPOLIS", "addr:country": "US", "addr:full": "416 DEWEY DR", "addr:postcode": "21401", "addr:state": "MD", "amenity": "post_box", "brand": "United States Postal Service", "brand:wikidata": "Q668687", "collection_times": "Mo-Sa 09:00", "name": "USPS COLLECTION BOX - BLUE BOX", "nsi_id": "unitedstatespostalservice-a77078", "operator": "United States Postal Service", "operator:short": "USPS", "operator:type": "public", "operator:wikidata": "Q668687", "ref": "2140100070"}, "type": "Feature"}
{"dataset_attributes": {"@spider": "usps_collection_boxes", "spider:collection_time": "2023-08-31T08:24:48.849802"}, "geometry": {"coordinates": [-76.5598535, 38.973376], "type": "Point"}, "id": "Q7fFb4Y22PDi0zbwdJF79nMXRFw=", "properties": {"@spider": "usps_collection_boxes", "addr:city": "ANNAPOLIS", "addr:country": "US", "addr:full": "2661 RIVA RD", "addr:postcode": "21401", "addr:state": "MD", "amenity": "post_box", "brand": "United States Postal Service", "brand:wikidata": "Q668687", "collection_times": "Mo-Sa 09:00", "name": "USPS COLLECTION BOX - BLUE BOX", "nsi_id": "unitedstatespostalservice-a77078", "operator": "United States Postal Service", "operator:short": "USPS", "operator:type": "public", "operator:wikidata": "Q668687", "ref": "2140100086"}, "type": "Feature"}
{"dataset_attributes": {"@spider": "usps_collection_boxes", "spider:collection_time": "2023-08-31T08:24:48.849802"}, "geometry": {"coordinates": [-76.5664699, 38.966525], "type": "Point"}, "id": "bfLXSW07Jtr02iy4zioKB_95EpQ=", "properties": {"@spider": "usps_collection_boxes", "addr:city": "ANNAPOLIS", "addr:country": "US", "addr:full": "2973 RIVA TRACE PKWY", "addr:postcode": "21401", "addr:state": "MD", "amenity": "post_box", "brand": "United States Postal Service", "brand:wikidata": "Q668687", "collection_times": "Mo-Sa 09:00", "name": "USPS COLLECTION BOX - BLUE BOX", "nsi_id": "unitedstatespostalservice-a77078", "operator": "United States Postal Service", "operator:short": "USPS", "operator:type": "public", "operator:wikidata": "Q668687", "ref": "2140100090"}, "type": "Feature"}
{"dataset_attributes": {"@spider": "usps_collection_boxes", "spider:collection_time": "2023-08-31T08:24:48.849802"}, "geometry": {"coordinates": [-76.5887408, 38.976212], "type": "Point"}, "id": "q6s-KIuiWWCJZnzm0ICwagCTtFM=", "properties": {"@spider": "usps_collection_boxes", "addr:city": "ANNAPOLIS", "addr:country": "US", "addr:full": "801 COMPASS WAY STE 5", "addr:postcode": "21401", "addr:state": "MD", "amenity": "post_box", "brand": "United States Postal Service", "brand:wikidata": "Q668687", "collection_times": "Mo-Sa 09:00", "name": "USPS COLLECTION BOX - BLUE BOX", "nsi_id": "unitedstatespostalservice-a77078", "operator": "United States Postal Service", "operator:short": "USPS", "operator:type": "public", "operator:wikidata": "Q668687", "ref": "2140100092"}, "type": "Feature"}
{"dataset_attributes": {"@spider": "usps_collection_boxes", "spider:collection_time": "2023-08-31T08:24:48.849802"}, "geometry": {"coordinates": [-76.5465158, 38.979665], "type": "Point"}, "id": "W-NBdnbv17cKRZzHhDrT5FK-Pg0=", "properties": {"@spider": "usps_collection_boxes", "addr:city": "ANNAPOLIS", "addr:country": "US", "addr:full": "130 HEARNE RD", "addr:postcode": "21401", "addr:state": "MD", "amenity": "post_box", "brand": "United States Postal Service", "brand:wikidata": "Q668687", "collection_times": "Mo-Sa 09:00", "name": "USPS COLLECTION BOX - BLUE BOX", "nsi_id": "unitedstatespostalservice-a77078", "operator": "United States Postal Service", "operator:short": "USPS", "operator:type": "public", "operator:wikidata": "Q668687", "ref": "2140100100"}, "type": "Feature"}
{"dataset_attributes": {"@spider": "usps_collection_boxes", "spider:collection_time": "2023-08-31T08:24:48.849802"}, "geometry": {"coordinates": [-76.590809, 38.980632], "type": "Point"}, "id": "2qgVBN-zW-S2pQpQG7DrsUlfwVQ=", "properties": {"@spider": "usps_collection_boxes", "addr:city": "ANNAPOLIS", "addr:country": "US", "addr:full": "901 MASTLINE DR", "addr:postcode": "21401", "addr:state": "MD", "amenity": "post_box", "brand": "United States Postal Service", "brand:wikidata": "Q668687", "collection_times": "Mo-Sa 09:00", "name": "USPS COLLECTION BOX - BLUE BOX", "nsi_id": "unitedstatespostalservice-a77078", "operator": "United States Postal Service", "operator:short": "USPS", "operator:type": "public", "operator:wikidata": "Q668687", "ref": "2140100102"}, "type": "Feature"}
{"dataset_attributes": {"@spider": "usps_collection_boxes", "spider:collection_time": "2023-08-31T08:24:48.849802"}, "geometry": {"coordinates": [-76.5611134, 38.975735], "type": "Point"}, "id": "y82EELFBk2ngFRigbY8iWNV6x_Q=", "properties": {"@spider": "usps_collection_boxes", "addr:city": "ANNAPOLIS", "addr:country": "US", "addr:full": "2660 RIVA RD", "addr:postcode": "21401", "addr:state": "MD", "amenity": "post_box", "brand": "United States Postal Service", "brand:wikidata": "Q668687", "collection_times": "Mo-Sa 09:00", "name": "USPS COLLECTION BOX - BLUE BOX", "nsi_id": "unitedstatespostalservice-a77078", "operator": "United States Postal Service", "operator:short": "USPS", "operator:type": "public", "operator:wikidata": "Q668687", "ref": "2140100118"}, "type": "Feature"}
{"dataset_attributes": {"@spider": "usps_collection_boxes", "spider:collection_time": "2023-08-31T08:24:48.849802"}, "geometry": {"coordinates": [-76.5483524, 38.975143], "type": "Point"}, "id": "Mn-ZI9FBkbm9VxwQBhoVi73nm00=", "properties": {"@spider": "usps_collection_boxes", "addr:city": "ANNAPOLIS", "addr:country": "US", "addr:full": "1 WOMACK DR", "addr:postcode": "21401", "addr:state": "MD", "amenity": "post_box", "brand": "United States Postal Service", "brand:wikidata": "Q668687", "collection_times": "Mo-Sa 09:00", "name": "USPS COLLECTION BOX - BLUE BOX", "nsi_id": "unitedstatespostalservice-a77078", "operator": "United States Postal Service", "operator:short": "USPS", "operator:type": "public", "operator:wikidata": "Q668687", "ref": "2140100124"}, "type": "Feature"}
{"dataset_attributes": {"@spider": "usps_collection_boxes", "spider:collection_time": "2023-08-31T08:24:48.849802"}, "geometry": {"coordinates": [-76.501111, 38.989304], "type": "Point"}, "id": "AiRzzYBV3R5Cilf5RTO1Yj3I2Ys=", "properties": {"@spider": "usps_collection_boxes", "addr:city": "ANNAPOLIS", "addr:country": "US", "addr:full": "26 ANNAPOLIS MALL", "addr:postcode": "21401", "addr:state": "MD", "amenity": "post_box", "brand": "United States Postal Service", "brand:wikidata": "Q668687", "collection_times": "Mo-Sa 09:00", "name": "USPS COLLECTION BOX - BLUE BOX", "nsi_id": "unitedstatespostalservice-a77078", "operator": "United States Postal Service", "operator:short": "USPS", "operator:type": "public", "operator:wikidata": "Q668687", "ref": "2140100126"}, "type": "Feature"}
{"dataset_attributes": {"@spider": "usps_collection_boxes", "spider:collection_time": "2023-08-31T08:24:48.849802"}, "geometry": {"coordinates": [-76.5526569, 38.984644], "type": "Point"}, "id": "NLdwuaqALbsBF_yrwHElXRjM36k=", "properties": {"@spider": "usps_collection_boxes", "addr:city": "ANNAPOLIS", "addr:country": "US", "addr:full": "133 DEFENSE HWY", "addr:postcode": "21401", "addr:state": "MD", "amenity": "post_box", "brand": "United States Postal Service", "brand:wikidata": "Q668687", "collection_times": "Mo-Sa 09:00", "name": "USPS COLLECTION BOX - BLUE BOX", "nsi_id": "unitedstatespostalservice-a77078", "operator": "United States Postal Service", "operator:short": "USPS", "operator:type": "public", "operator:wikidata": "Q668687", "ref": "2140100133"}, "type": "Feature"}
{"dataset_attributes": {"@spider": "usps_collection_boxes", "spider:collection_time": "2023-08-31T08:24:48.849802"}, "geometry": {"coordinates": [-76.5556909, 38.976853], "type": "Point"}, "id": "QXzbCMyLTHdn1jjBsk9mKt3XdMM=", "properties": {"@spider": "usps_collection_boxes", "addr:city": "ANNAPOLIS", "addr:country": "US", "addr:full": "200 HARRY S TRUMAN PKWY", "addr:postcode": "21401", "addr:state": "MD", "amenity": "post_box", "brand": "United States Postal Service", "brand:wikidata": "Q668687", "collection_times": "Mo-Sa 09:00", "name": "USPS COLLECTION BOX - BLUE BOX", "nsi_id": "unitedstatespostalservice-a77078", "operator": "United States Postal Service", "operator:short": "USPS", "operator:type": "public", "operator:wikidata": "Q668687", "ref": "2140100138"}, "type": "Feature"}
{"dataset_attributes": {"@spider": "usps_collection_boxes", "spider:collection_time": "2023-08-31T08:24:48.849802"}, "geometry": {"coordinates": [-76.535352, 38.983446], "type": "Point"}, "id": "GpOSK1QOtvS4n-8xuPgK1CyOgS4=", "properties": {"@spider": "usps_collection_boxes", "addr:city": "ANNAPOLIS", "addr:country": "US", "addr:full": "2024 WEST ST", "addr:postcode": "21401", "addr:state": "MD", "amenity": "post_box", "brand": "United States Postal Service", "brand:wikidata": "Q668687", "collection_times": "Mo-Sa 09:00", "name": "USPS COLLECTION BOX - BLUE BOX", "nsi_id": "unitedstatespostalservice-a77078", "operator": "United States Postal Service", "operator:short": "USPS", "operator:type": "public", "operator:wikidata": "Q668687", "ref": "2140100149"}, "type": "Feature"}
{"dataset_attributes": {"@spider": "usps_collection_boxes", "spider:collection_time": "2023-08-31T08:24:48.849802"}, "geometry": {"coordinates": [-76.5028773, 38.989237], "type": "Point"}, "id": "13wFopzaHvS5db5KspIBB6G_8qA=", "properties": {"@spider": "usps_collection_boxes", "addr:city": "ANNAPOLIS", "addr:country": "US", "addr:full": "20 RIDGELY AVE", "addr:postcode": "21401", "addr:state": "MD", "amenity": "post_box", "brand": "United States Postal Service", "brand:wikidata": "Q668687", "collection_times": "Mo-Sa 09:00", "name": "USPS COLLECTION BOX - BLUE BOX", "nsi_id": "unitedstatespostalservice-a77078", "operator": "United States Postal Service", "operator:short": "USPS", "operator:type": "public", "operator:wikidata": "Q668687", "ref": "2140100167"}, "type": "Feature"}
{"dataset_attributes": {"@spider": "usps_collection_boxes", "spider:collection_time": "2023-08-31T08:24:48.849802"}, "geometry": {"coordinates": [-76.5020471, 38.984737], "type": "Point"}, "id": "Gf8Hx8tXWUHHhyF3eKQKoz-wlNM=", "properties": {"@spider": "usps_collection_boxes", "addr:city": "ANNAPOLIS", "addr:country": "US", "addr:full": "361 ROWE BLVD", "addr:postcode": "21401", "addr:state": "MD", "amenity": "post_box", "brand": "United States Postal Service", "brand:wikidata": "Q668687", "collection_times": "Mo-Sa 09:00", "name": "USPS COLLECTION BOX - BLUE BOX", "nsi_id": "unitedstatespostalservice-a77078", "operator": "United States Postal Service", "operator:short": "USPS", "operator:type": "public", "operator:wikidata": "Q668687", "ref": "2140100168"}, "type": "Feature"}
{"dataset_attributes": {"@spider": "usps_collection_boxes", "spider:collection_time": "2023-08-31T08:24:48.849802"}, "geometry": {"coordinates": [-76.52028142, 38.976559009], "type": "Point"}, "id": "Nn_rip8faO-VlYUHJW5l8R27VFw=", "properties": {"@spider": "usps_collection_boxes", "addr:city": "ANNAPOLIS", "addr:country": "US", "addr:full": "210 LEGION AVE", "addr:postcode": "21401", "addr:state": "MD", "amenity": "post_box", "brand": "United States Postal Service", "brand:wikidata": "Q668687", "collection_times": "Mo-Fr 16:45; Sa 12:00", "name": "USPS COLLECTION BOX - BLUE BOX", "note": "ON 12/24 AND 12/31, THIS BOX MAY BE COLLECTED AS EARLY AS 12 NOON.", "nsi_id": "unitedstatespostalservice-a77078", "operator": "United States Postal Service", "operator:short": "USPS", "operator:type": "public", "operator:wikidata": "Q668687", "ref": "2140100176"}, "type": "Feature"}
{"dataset_attributes": {"@spider": "usps_collection_boxes", "spider:collection_time": "2023-08-31T08:24:48.849802"}, "geometry": {"coordinates": [-76.52028142, 38.976559009], "type": "Point"}, "id": "06nZecQwhl2xF_t6zFM1wixevqE=", "properties": {"@spider": "usps_collection_boxes", "addr:city": "ANNAPOLIS", "addr:country": "US", "addr:full": "210 LEGION AVE", "addr:postcode": "21401", "addr:state": "MD", "amenity": "post_box", "brand": "United States Postal Service", "brand:wikidata": "Q668687", "collection_times": "Mo-Fr 16:45; Sa 12:00", "name": "USPS COLLECTION BOX - BLUE BOX", "note": "ON 12/24 AND 12/31, THIS BOX MAY BE COLLECTED AS EARLY AS 12 NOON.", "nsi_id": "unitedstatespostalservice-a77078", "operator": "United States Postal Service", "operator:short": "USPS", "operator:type": "public", "operator:wikidata": "Q668687", "ref": "2140100178"}, "type": "Feature"}
{"dataset_attributes": {"@spider": "usps_collection_boxes", "spider:collection_time": "2023-08-31T08:24:48.849802"}, "geometry": {"coordinates": [-76.4937509, 38.979095], "type": "Point"}, "id": "_yggU_Ly_lL04o0ywI1Q8kYjd8E=", "properties": {"@spider": "usps_collection_boxes", "addr:city": "ANNAPOLIS", "addr:country": "US", "addr:full": "1 CHURCH CIR", "addr:postcode": "21401", "addr:state": "MD", "amenity": "post_box", "brand": "United States Postal Service", "brand:wikidata": "Q668687", "collection_times": "Mo-Sa 09:00", "name": "USPS COLLECTION BOX - BLUE BOX", "nsi_id": "unitedstatespostalservice-a77078", "operator": "United States Postal Service", "operator:short": "USPS", "operator:type": "public", "operator:wikidata": "Q668687", "ref": "2140100185"}, "type": "Feature"}
{"dataset_attributes": {"@spider": "usps_collection_boxes", "spider:collection_time": "2023-08-31T08:24:48.849802"}, "geometry": {"coordinates": [-76.5164416, 38.996961], "type": "Point"}, "id": "181qheASWZdoa1L-CDpqtgdkIIg=", "properties": {"@spider": "usps_collection_boxes", "addr:city": "ANNAPOLIS", "addr:country": "US", "addr:full": "621 RIDGELY AVE", "addr:postcode": "21401", "addr:state": "MD", "amenity": "post_box", "brand": "United States Postal Service", "brand:wikidata": "Q668687", "collection_times": "Mo-Sa 09:00", "name": "USPS COLLECTION BOX - BLUE BOX", "nsi_id": "unitedstatespostalservice-a77078", "operator": "United States Postal Service", "operator:short": "USPS", "operator:type": "public", "operator:wikidata": "Q668687", "ref": "2140100186"}, "type": "Feature"}
{"dataset_attributes": {"@spider": "usps_collection_boxes", "spider:collection_time": "2023-08-31T08:24:48.849802"}, "geometry": {"coordinates": [-76.5379826, 38.983826], "type": "Point"}, "id": "DRkHr0odKEGbKH7WbPMFawmAAJs=", "properties": {"@spider": "usps_collection_boxes", "addr:city": "ANNAPOLIS", "addr:country": "US", "addr:full": "2448 HOLLY AVE", "addr:postcode": "21401", "addr:state": "MD", "amenity": "post_box", "brand": "United States Postal Service", "brand:wikidata": "Q668687", "collection_times": "Mo-Sa 09:00", "name": "USPS COLLECTION BOX - BLUE BOX", "nsi_id": "unitedstatespostalservice-a77078", "operator": "United States Postal Service", "operator:short": "USPS", "operator:type": "public", "operator:wikidata": "Q668687", "ref": "2140100187"}, "type": "Feature"}
{"dataset_attributes": {"@spider": "usps_collection_boxes", "spider:collection_time": "2023-08-31T08:24:48.849802"}, "geometry": {"coordinates": [-76.492898, 38.978763], "type": "Point"}, "id": "Ahl3YYQ8Kk1GjAGzwZ1LQFk5Wb4=", "properties": {"@spider": "usps_collection_boxes", "addr:city": "ANNAPOLIS", "addr:country": "US", "addr:full": "60 WEST ST", "addr:postcode": "21401", "addr:state": "MD", "amenity": "post_box", "brand": "United States Postal Service", "brand:wikidata": "Q668687", "collection_times": "Mo-Fr 17:00", "name": "USPS COLLECTION BOX - PO LOBBY", "note": "ON 12/24 AND 12/31, THIS BOX MAY BE COLLECTED AS EARLY AS 12 NOON.", "nsi_id": "unitedstatespostalservice-a77078", "operator": "United States Postal Service", "operator:short": "USPS", "operator:type": "public", "operator:wikidata": "Q668687", "ref": "2140100188"}, "type": "Feature"}
{"dataset_attributes": {"@spider": "usps_collection_boxes", "spider:collection_time": "2023-08-31T08:24:48.849802"}, "geometry": {"coordinates": [-76.52028142, 38.976559009], "type": "Point"}, "id": "GiurDGDA7GtT2OXG__KKiG7yAlk=", "properties": {"@spider": "usps_collection_boxes", "addr:city": "ANNAPOLIS", "addr:country": "US", "addr:full": "210 LEGION AVE", "addr:postcode": "21401", "addr:state": "MD", "amenity": "post_box", "brand": "United States Postal Service", "brand:wikidata": "Q668687", "collection_times": "Mo-Fr 17:00; Sa 13:00", "name": "USPS COLLECTION BOX - PO LOBBY", "note": "ON 12/24 AND 12/31, THIS BOX MAY BE COLLECTED AS EARLY AS 12 NOON.", "nsi_id": "unitedstatespostalservice-a77078", "operator": "United States Postal Service", "operator:short": "USPS", "operator:type": "public", "operator:wikidata": "Q668687", "ref": "2140100189"}, "type": "Feature"}
{"dataset_attributes": {"@spider": "usps_collection_boxes", "spider:collection_time": "2023-08-31T08:24:48.849802"}, "geometry": {"coordinates": [-76.5436305, 38.973488], "type": "Point"}, "id": "82B-fbua73qC-21-S1L4FCbxOXs=", "properties": {"@spider": "usps_collection_boxes", "addr:city": "ANNAPOLIS", "addr:country": "US", "addr:full": "2558 SOLOMONS ISLAND RD", "addr:postcode": "21401", "addr:state": "MD", "amenity": "post_box", "brand": "United States Postal Service", "brand:wikidata": "Q668687", "collection_times": "Mo-Sa 09:00", "name": "USPS COLLECTION BOX - BLUE BOX", "nsi_id": "unitedstatespostalservice-a77078", "operator": "United States Postal Service", "operator:short": "USPS", "operator:type": "public", "operator:wikidata": "Q668687", "ref": "2140100190"}, "type": "Feature"}
{"dataset_attributes": {"@spider": "usps_collection_boxes", "spider:collection_time": "2023-08-31T08:24:48.849802"}, "geometry": {"coordinates": [-76.52028142, 38.976559009], "type": "Point"}, "id": "lnZFHjQSDBQdyhP3293t9NNP270=", "properties": {"@spider": "usps_collection_boxes", "addr:city": "ANNAPOLIS", "addr:country": "US", "addr:full": "210 LEGION AVE", "addr:postcode": "21401", "addr:state": "MD", "amenity": "post_box", "brand": "United States Postal Service", "brand:wikidata": "Q668687", "collection_times": "Mo-Fr 17:00; Sa 13:00", "name": "USPS COLLECTION BOX - PO LOBBY", "note": "ON 12/24 AND 12/31, THIS BOX MAY BE COLLECTED AS EARLY AS 12 NOON.", "nsi_id": "unitedstatespostalservice-a77078", "operator": "United States Postal Service", "operator:short": "USPS", "operator:type": "public", "operator:wikidata": "Q668687", "ref": "2140100192"}, "type": "Feature"}
{"dataset_attributes": {"@spider": "usps_collection_boxes", "spider:collection_time": "2023-08-31T08:24:48.849802"}, "geometry": {"coordinates": [-76.501875, 38.987974], "type": "Point"}, "id": "tPpMjLGK-dDah9vV8euTLcheVrg=", "properties": {"@spider": "usps_collection_boxes", "addr:city": "ANNAPOLIS", "addr:country": "US", "addr:full": "609 TAYLOR AVE", "addr:postcode": "21401", "addr:state": "MD", "amenity": "post_box", "brand": "United States Postal Service", "brand:wikidata": "Q668687", "collection_times": "Mo-Sa 09:00", "name": "USPS COLLECTION BOX - BLUE BOX", "nsi_id": "unitedstatespostalservice-a77078", "operator": "United States Postal Service", "operator:short": "USPS", "operator:type": "public", "operator:wikidata": "Q668687", "ref": "2140100193"}, "type": "Feature"}
{"dataset_attributes": {"@spider": "usps_collection_boxes", "spider:collection_time": "2023-08-31T08:24:48.849802"}, "geometry": {"coordinates": [-76.5210599, 38.996141], "type": "Point"}, "id": "TXJlk52WraFihYlv7N_-WVtIQnY=", "properties": {"@spider": "usps_collection_boxes", "addr:city": "ANNAPOLIS", "addr:country": "US", "addr:full": "2001 TIDEWATER COLONY DR", "addr:postcode": "21401", "addr:state": "MD", "amenity": "post_box", "brand": "United States Postal Service", "brand:wikidata": "Q668687", "collection_times": "Mo-Sa 09:00", "name": "USPS COLLECTION BOX - BLUE BOX", "nsi_id": "unitedstatespostalservice-a77078", "operator": "United States Postal Service", "operator:short": "USPS", "operator:type": "public", "operator:wikidata": "Q668687", "ref": "2140100195"}, "type": "Feature"}
{"dataset_attributes": {"@spider": "usps_collection_boxes", "spider:collection_time": "2023-08-31T08:24:48.849802"}, "geometry": {"coordinates": [-76.5451722, 38.989287], "type": "Point"}, "id": "l7kZp396W8HN0wikVoTVSZQhhMY=", "properties": {"@spider": "usps_collection_boxes", "addr:city": "ANNAPOLIS", "addr:country": "US", "addr:full": "2002 MEDICAL PKWY", "addr:postcode": "21401", "addr:state": "MD", "amenity": "post_box", "brand": "United States Postal Service", "brand:wikidata": "Q668687", "collection_times": "Mo-Sa 09:00", "name": "USPS COLLECTION BOX - BLUE BOX", "nsi_id": "unitedstatespostalservice-a77078", "operator": "United States Postal Service", "operator:short": "USPS", "operator:type": "public", "operator:wikidata": "Q668687", "ref": "2140100196"}, "type": "Feature"}
{"dataset_attributes": {"@spider": "usps_collection_boxes", "spider:collection_time": "2023-08-31T08:24:48.849802"}, "geometry": {"coordinates": [-76.5453544, 38.99298], "type": "Point"}, "id": "p0654yNbAGs9qwdb-XKg8H83m-w=", "properties": {"@spider": "usps_collection_boxes", "addr:city": "ANNAPOLIS", "addr:country": "US", "addr:full": "900 BESTGATE RD", "addr:postcode": "21401", "addr:state": "MD", "amenity": "post_box", "brand": "United States Postal Service", "brand:wikidata": "Q668687", "collection_times": "Mo-Sa 09:00", "name": "USPS COLLECTION BOX - BLUE BOX", "nsi_id": "unitedstatespostalservice-a77078", "operator": "United States Postal Service", "operator:short": "USPS", "operator:type": "public", "operator:wikidata": "Q668687", "ref": "2140100197"}, "type": "Feature"}
{"dataset_attributes": {"@spider": "usps_collection_boxes", "spider:collection_time": "2023-08-31T08:24:48.849802"}, "geometry": {"coordinates": [-76.4894719, 38.980196], "type": "Point"}, "id": "oYpXhezNJvNK3zpcNx3Qf1aIiNU=", "properties": {"@spider": "usps_collection_boxes", "addr:city": "ANNAPOLIS", "addr:country": "US", "addr:full": "45 MARYLAND AVE", "addr:postcode": "21401", "addr:state": "MD", "amenity": "post_box", "brand": "United States Postal Service", "brand:wikidata": "Q668687", "collection_times": "Mo-Sa 09:00", "name": "USPS COLLECTION BOX - BLUE BOX", "nsi_id": "unitedstatespostalservice-a77078", "operator": "United States Postal Service", "operator:short": "USPS", "operator:type": "public", "operator:wikidata": "Q668687", "ref": "2140100201"}, "type": "Feature"}
{"dataset_attributes": {"@spider": "usps_collection_boxes", "spider:collection_time": "2023-08-31T08:24:48.849802"}, "geometry": {"coordinates": [-76.4916841, 38.979828], "type": "Point"}, "id": "vZuzPj-mwolNdFIBkV6_GiwY9_U=", "properties": {"@spider": "usps_collection_boxes", "addr:city": "ANNAPOLIS", "addr:country": "US", "addr:full": "85 COLLEGE AVE", "addr:postcode": "21401", "addr:state": "MD", "amenity": "post_box", "brand": "United States Postal Service", "brand:wikidata": "Q668687", "collection_times": "Mo-Sa 09:00", "name": "USPS COLLECTION BOX - BLUE BOX", "nsi_id": "unitedstatespostalservice-a77078", "operator": "United States Postal Service", "operator:short": "USPS", "operator:type": "public", "operator:wikidata": "Q668687", "ref": "2140100218"}, "type": "Feature"}
{"dataset_attributes": {"@spider": "usps_collection_boxes", "spider:collection_time": "2023-08-31T08:24:48.849802"}, "geometry": {"coordinates": [-76.4958437, 38.978579], "type": "Point"}, "id": "oijkiL6sKCG4uA2VwYh1GOIu3tk=", "properties": {"@spider": "usps_collection_boxes", "addr:city": "ANNAPOLIS", "addr:country": "US", "addr:full": "60 WEST ST", "addr:postcode": "21401", "addr:state": "MD", "amenity": "post_box", "brand": "United States Postal Service", "brand:wikidata": "Q668687", "collection_times": "Mo-Sa 09:00", "name": "USPS COLLECTION BOX - BLUE BOX", "nsi_id": "unitedstatespostalservice-a77078", "operator": "United States Postal Service", "operator:short": "USPS", "operator:type": "public", "operator:wikidata": "Q668687", "ref": "2140100222"}, "type": "Feature"}
{"dataset_attributes": {"@spider": "usps_collection_boxes", "spider:collection_time": "2023-08-31T08:24:48.849802"}, "geometry": {"coordinates": [-76.5507344, 38.989334], "type": "Point"}, "id": "q-Sbx1wM6VwBBOuR2SfToP274uw=", "properties": {"@spider": "usps_collection_boxes", "addr:city": "ANNAPOLIS", "addr:country": "US", "addr:full": "2100 GENERALS HWY", "addr:postcode": "21401", "addr:state": "MD", "amenity": "post_box", "brand": "United States Postal Service", "brand:wikidata": "Q668687", "collection_times": "Mo-Sa 09:00", "name": "USPS COLLECTION BOX - BLUE BOX", "nsi_id": "unitedstatespostalservice-a77078", "operator": "United States Postal Service", "operator:short": "USPS", "operator:type": "public", "operator:wikidata": "Q668687", "ref": "2140100228"}, "type": "Feature"}
{"dataset_attributes": {"@spider": "usps_collection_boxes", "spider:collection_time": "2023-08-31T08:24:48.849802"}, "geometry": {"coordinates": [-76.5020649, 38.984744], "type": "Point"}, "id": "XpZMZx5nBn7ADsQSvUlhnxz6hIo=", "properties": {"@spider": "usps_collection_boxes", "addr:city": "ANNAPOLIS", "addr:country": "US", "addr:full": "361 ROWE BLVD", "addr:postcode": "21401", "addr:state": "MD", "amenity": "post_box", "brand": "United States Postal Service", "brand:wikidata": "Q668687", "collection_times": "Mo-Sa 09:00", "name": "USPS COLLECTION BOX - BLUE BOX", "nsi_id": "unitedstatespostalservice-a77078", "operator": "United States Postal Service", "operator:short": "USPS", "operator:type": "public", "operator:wikidata": "Q668687", "ref": "2140100236"}, "type": "Feature"}
{"dataset_attributes": {"@spider": "usps_collection_boxes", "spider:collection_time": "2023-08-31T08:24:48.849802"}, "geometry": {"coordinates": [-76.495635534, 38.978329431], "type": "Point"}, "id": "Vswj3bCMSC3SbX8ZdXISM_7GqAI=", "properties": {"@spider": "usps_collection_boxes", "addr:city": "ANNAPOLIS", "addr:country": "US", "addr:full": "60 WEST ST STE 101", "addr:postcode": "21401", "addr:state": "MD", "amenity": "post_box", "brand": "United States Postal Service", "brand:wikidata": "Q668687", "collection_times": "Mo-Fr 17:00", "name": "USPS COLLECTION BOX - PO LOBBY", "note": "ON 12/24 AND 12/31, THIS BOX MAY BE COLLECTED AS EARLY AS 12 NOON.", "nsi_id": "unitedstatespostalservice-a77078", "operator": "United States Postal Service", "operator:short": "USPS", "operator:type": "public", "operator:wikidata": "Q668687", "ref": "2140100252"}, "type": "Feature"}
{"dataset_attributes": {"@spider": "usps_collection_boxes", "spider:collection_time": "2023-08-31T08:24:48.849802"}, "geometry": {"coordinates": [-76.52028142, 38.976559009], "type": "Point"}, "id": "p0x9WvCuVeu8mdXhP4fCqma983A=", "properties": {"@spider": "usps_collection_boxes", "addr:city": "ANNAPOLIS", "addr:country": "US", "addr:full": "210 LEGION AVE", "addr:postcode": "21401", "addr:state": "MD", "amenity": "post_box", "brand": "United States Postal Service", "brand:wikidata": "Q668687", "collection_times": "Mo-Fr 17:00", "name": "USPS COLLECTION BOX - PO LOBBY", "note": "ON 12/24 AND 12/31, THIS BOX MAY BE COLLECTED AS EARLY AS 12 NOON.", "nsi_id": "unitedstatespostalservice-a77078", "operator": "United States Postal Service", "operator:short": "USPS", "operator:type": "public", "operator:wikidata": "Q668687", "ref": "2140100253"}, "type": "Feature"}
{"dataset_attributes": {"@spider": "usps_collection_boxes", "spider:collection_time": "2023-08-31T08:24:48.849802"}, "geometry": {"coordinates": [-76.5096031, 38.96109], "type": "Point"}, "id": "zB13CZFR6aZ2UD8ynWx0JTTKWRk=", "properties": {"@spider": "usps_collection_boxes", "addr:city": "ANNAPOLIS", "addr:country": "US", "addr:full": "1410 FOREST DR", "addr:postcode": "21403", "addr:state": "MD", "amenity": "post_box", "brand": "United States Postal Service", "brand:wikidata": "Q668687", "collection_times": "Mo-Sa 09:00", "name": "USPS COLLECTION BOX - BLUE BOX", "nsi_id": "unitedstatespostalservice-a77078", "operator": "United States Postal Service", "operator:short": "USPS", "operator:type": "public", "operator:wikidata": "Q668687", "ref": "2140300002"}, "type": "Feature"}
{"dataset_attributes": {"@spider": "usps_collection_boxes", "spider:collection_time": "2023-08-31T08:24:48.849802"}, "geometry": {"coordinates": [-76.5116517, 38.96203], "type": "Point"}, "id": "w0DhhfYShust02kkqjAkrwEYAqs=", "properties": {"@spider": "usps_collection_boxes", "addr:city": "ANNAPOLIS", "addr:country": "US", "addr:full": "1419 FOREST DR", "addr:postcode": "21403", "addr:state": "MD", "amenity": "post_box", "brand": "United States Postal Service", "brand:wikidata": "Q668687", "collection_times": "Mo-Sa 09:00", "name": "USPS COLLECTION BOX - BLUE BOX", "nsi_id": "unitedstatespostalservice-a77078", "operator": "United States Postal Service", "operator:short": "USPS", "operator:type": "public", "operator:wikidata": "Q668687", "ref": "2140300003"}, "type": "Feature"}
{"dataset_attributes": {"@spider": "usps_collection_boxes", "spider:collection_time": "2023-08-31T08:24:48.849802"}, "geometry": {"coordinates": [-76.4937543, 38.962269], "type": "Point"}, "id": "ZE5PzVO2OpSyDsGlk-LgJuX7buA=", "properties": {"@spider": "usps_collection_boxes", "addr:city": "ANNAPOLIS", "addr:country": "US", "addr:full": "1101 VAN BUREN ST", "addr:postcode": "21403", "addr:state": "MD", "amenity": "post_box", "brand": "United States Postal Service", "brand:wikidata": "Q668687", "collection_times": "Mo-Sa 09:00", "name": "USPS COLLECTION BOX - BLUE BOX", "nsi_id": "unitedstatespostalservice-a77078", "operator": "United States Postal Service", "operator:short": "USPS", "operator:type": "public", "operator:wikidata": "Q668687", "ref": "2140300006"}, "type": "Feature"}
{"dataset_attributes": {"@spider": "usps_collection_boxes", "spider:collection_time": "2023-08-31T08:24:48.849802"}, "geometry": {"coordinates": [-76.478696, 38.952992], "type": "Point"}, "id": "PHfnRw0rzWwEb9HKyqgf4YhXSGk=", "properties": {"@spider": "usps_collection_boxes", "addr:city": "ANNAPOLIS", "addr:country": "US", "addr:full": "1000 EAGLEWOOD RD", "addr:postcode": "21403", "addr:state": "MD", "amenity": "post_box", "brand": "United States Postal Service", "brand:wikidata": "Q668687", "collection_times": "Mo-Sa 09:00", "name": "USPS COLLECTION BOX - BLUE BOX", "nsi_id": "unitedstatespostalservice-a77078", "operator": "United States Postal Service", "operator:short": "USPS", "operator:type": "public", "operator:wikidata": "Q668687", "ref": "2140300008"}, "type": "Feature"}
{"dataset_attributes": {"@spider": "usps_collection_boxes", "spider:collection_time": "2023-08-31T08:24:48.849802"}, "geometry": {"coordinates": [-76.4810575403, 38.9705329165], "type": "Point"}, "id": "VzwxlpEhXAsjwe-QffwkETyx69E=", "properties": {"@spider": "usps_collection_boxes", "addr:city": "ANNAPOLIS", "addr:country": "US", "addr:full": "318 CHESAPEAKE AVE", "addr:postcode": "21403", "addr:state": "MD", "amenity": "post_box", "brand": "United States Postal Service", "brand:wikidata": "Q668687", "collection_times": "Mo-Sa 09:00", "name": "USPS COLLECTION BOX - BLUE BOX", "nsi_id": "unitedstatespostalservice-a77078", "operator": "United States Postal Service", "operator:short": "USPS", "operator:type": "public", "operator:wikidata": "Q668687", "ref": "2140300013"}, "type": "Feature"}
{"dataset_attributes": {"@spider": "usps_collection_boxes", "spider:collection_time": "2023-08-31T08:24:48.849802"}, "geometry": {"coordinates": [-76.4839721, 38.964201], "type": "Point"}, "id": "Sv1f_pnUfEsjDlJ_IjItWd_fHHY=", "properties": {"@spider": "usps_collection_boxes", "addr:city": "ANNAPOLIS", "addr:country": "US", "addr:full": "660 AMERICANA DR", "addr:postcode": "21403", "addr:state": "MD", "amenity": "post_box", "brand": "United States Postal Service", "brand:wikidata": "Q668687", "collection_times": "Mo-Sa 09:00", "name": "USPS COLLECTION BOX - BLUE BOX", "nsi_id": "unitedstatespostalservice-a77078", "operator": "United States Postal Service", "operator:short": "USPS", "operator:type": "public", "operator:wikidata": "Q668687", "ref": "2140300019"}, "type": "Feature"}
{"dataset_attributes": {"@spider": "usps_collection_boxes", "spider:collection_time": "2023-08-31T08:24:48.849802"}, "geometry": {"coordinates": [-76.5127443, 38.968787], "type": "Point"}, "id": "UWvsbcA7Rw2mr-lF_mBmBGqtZZU=", "properties": {"@spider": "usps_collection_boxes", "addr:city": "ANNAPOLIS", "addr:country": "US", "addr:full": "1029 SPA RD", "addr:postcode": "21403", "addr:state": "MD", "amenity": "post_box", "brand": "United States Postal Service", "brand:wikidata": "Q668687", "collection_times": "Mo-Sa 09:00", "name": "USPS COLLECTION BOX - BLUE BOX", "nsi_id": "unitedstatespostalservice-a77078", "operator": "United States Postal Service", "operator:short": "USPS", "operator:type": "public", "operator:wikidata": "Q668687", "ref": "2140300023"}, "type": "Feature"}
{"dataset_attributes": {"@spider": "usps_collection_boxes", "spider:collection_time": "2023-08-31T08:24:48.849802"}, "geometry": {"coordinates": [-76.4933543, 38.94857], "type": "Point"}, "id": "SHpwQadQZwgjhatMVTrzeL4k5JY=", "properties": {"@spider": "usps_collection_boxes", "addr:city": "ANNAPOLIS", "addr:country": "US", "addr:full": "100 HILLSMERE CT", "addr:postcode": "21403", "addr:state": "MD", "amenity": "post_box", "brand": "United States Postal Service", "brand:wikidata": "Q668687", "collection_times": "Mo-Sa 09:00", "name": "USPS COLLECTION BOX - BLUE BOX", "nsi_id": "unitedstatespostalservice-a77078", "operator": "United States Postal Service", "operator:short": "USPS", "operator:type": "public", "operator:wikidata": "Q668687", "ref": "2140300025"}, "type": "Feature"}
{"dataset_attributes": {"@spider": "usps_collection_boxes", "spider:collection_time": "2023-08-31T08:24:48.849802"}, "geometry": {"coordinates": [-76.4888469, 38.964636], "type": "Point"}, "id": "QKUNiRco65eUxx061Zjo3r7fp3M=", "properties": {"@spider": "usps_collection_boxes", "addr:city": "ANNAPOLIS", "addr:country": "US", "addr:full": "1017 BAY RIDGE AVE", "addr:postcode": "21403", "addr:state": "MD", "amenity": "post_box", "brand": "United States Postal Service", "brand:wikidata": "Q668687", "collection_times": "Mo-Sa 09:00", "name": "USPS COLLECTION BOX - BLUE BOX", "nsi_id": "unitedstatespostalservice-a77078", "operator": "United States Postal Service", "operator:short": "USPS", "operator:type": "public", "operator:wikidata": "Q668687", "ref": "2140300027"}, "type": "Feature"}
{"dataset_attributes": {"@spider": "usps_collection_boxes", "spider:collection_time": "2023-08-31T08:24:48.849802"}, "geometry": {"coordinates": [-76.487113, 38.948974], "type": "Point"}, "id": "MPuBAEL0lB9bm0DokTLdRQ89nZ0=", "properties": {"@spider": "usps_collection_boxes", "addr:city": "ANNAPOLIS", "addr:country": "US", "addr:full": "948 BAY RIDGE RD", "addr:postcode": "21403", "addr:state": "MD", "amenity": "post_box", "brand": "United States Postal Service", "brand:wikidata": "Q668687", "collection_times": "Mo-Sa 09:00", "name": "USPS COLLECTION BOX - BLUE BOX", "nsi_id": "unitedstatespostalservice-a77078", "operator": "United States Postal Service", "operator:short": "USPS", "operator:type": "public", "operator:wikidata": "Q668687", "ref": "2140300031"}, "type": "Feature"}
{"dataset_attributes": {"@spider": "usps_collection_boxes", "spider:collection_time": "2023-08-31T08:24:48.849802"}, "geometry": {"coordinates": [-76.4833769, 38.971917], "type": "Point"}, "id": "X_c9WrWTvDUFVJ1cJDsYTEQClEI=", "properties": {"@spider": "usps_collection_boxes", "addr:city": "ANNAPOLIS", "addr:country": "US", "addr:full": "410 SEVERN AVE", "addr:postcode": "21403", "addr:state": "MD", "amenity": "post_box", "brand": "United States Postal Service", "brand:wikidata": "Q668687", "collection_times": "Mo-Sa 09:00", "name": "USPS COLLECTION BOX - BLUE BOX", "nsi_id": "unitedstatespostalservice-a77078", "operator": "United States Postal Service", "operator:short": "USPS", "operator:type": "public", "operator:wikidata": "Q668687", "ref": "2140300043"}, "type": "Feature"}
{"dataset_attributes": {"@spider": "usps_collection_boxes", "spider:collection_time": "2023-08-31T08:24:48.849802"}, "geometry": {"coordinates": [-76.4803929, 38.972816], "type": "Point"}, "id": "BCk_x2GQxC0P97FTPP4ve68UGbI=", "properties": {"@spider": "usps_collection_boxes", "addr:city": "ANNAPOLIS", "addr:country": "US", "addr:full": "417 SECOND ST", "addr:postcode": "21403", "addr:state": "MD", "amenity": "post_box", "brand": "United States Postal Service", "brand:wikidata": "Q668687", "collection_times": "Mo-Sa 09:00", "name": "USPS COLLECTION BOX - BLUE BOX", "nsi_id": "unitedstatespostalservice-a77078", "operator": "United States Postal Service", "operator:short": "USPS", "operator:type": "public", "operator:wikidata": "Q668687", "ref": "2140300044"}, "type": "Feature"}
{"dataset_attributes": {"@spider": "usps_collection_boxes", "spider:collection_time": "2023-08-31T08:24:48.849802"}, "geometry": {"coordinates": [-76.4773794, 38.957261], "type": "Point"}, "id": "Ka6DlTdf-TEtW8EocTL5LBmu8s4=", "properties": {"@spider": "usps_collection_boxes", "addr:city": "ANNAPOLIS", "addr:country": "US", "addr:full": "1030 CHESAPEAKE HARBOUR DR", "addr:postcode": "21403", "addr:state": "MD", "amenity": "post_box", "brand": "United States Postal Service", "brand:wikidata": "Q668687", "collection_times": "Mo-Sa 09:00", "name": "USPS COLLECTION BOX - BLUE BOX", "nsi_id": "unitedstatespostalservice-a77078", "operator": "United States Postal Service", "operator:short": "USPS", "operator:type": "public", "operator:wikidata": "Q668687", "ref": "2140300050"}, "type": "Feature"}
{"dataset_attributes": {"@spider": "usps_collection_boxes", "spider:collection_time": "2023-08-31T08:24:48.849802"}, "geometry": {"coordinates": [-76.487007496, 38.96690308], "type": "Point"}, "id": "d9Ae0r8BT06E-_9IqSriVK8st0Q=", "properties": {"@spider": "usps_collection_boxes", "addr:city": "ANNAPOLIS", "addr:country": "US", "addr:full": "821 CHESAPEAKE AVE", "addr:postcode": "21403", "addr:state": "MD", "amenity": "post_box", "brand": "United States Postal Service", "brand:wikidata": "Q668687", "collection_times": "Mo-Fr 16:45; Sa 14:45", "name": "USPS COLLECTION BOX - BLUE BOX", "note": "ON 12/24 AND 12/31, THIS BOX MAY BE COLLECTED AS EARLY AS 12 NOON.", "nsi_id": "unitedstatespostalservice-a77078", "operator": "United States Postal Service", "operator:short": "USPS", "operator:type": "public", "operator:wikidata": "Q668687", "ref": "2140300053"}, "type": "Feature"}
{"dataset_attributes": {"@spider": "usps_collection_boxes", "spider:collection_time": "2023-08-31T08:24:48.849802"}, "geometry": {"coordinates": [-76.487007496, 38.96690308], "type": "Point"}, "id": "fPSQv_7ydRJWH4EZhPEf3wQZ2ts=", "properties": {"@spider": "usps_collection_boxes", "addr:city": "ANNAPOLIS", "addr:country": "US", "addr:full": "821 CHESAPEAKE AVE", "addr:postcode": "21403", "addr:state": "MD", "amenity": "post_box", "brand": "United States Postal Service", "brand:wikidata": "Q668687", "collection_times": "Mo-Fr 16:45; Sa 14:45", "name": "USPS COLLECTION BOX - BLUE BOX", "note": "ON 12/24 AND 12/31, THIS BOX MAY BE COLLECTED AS EARLY AS 12 NOON.", "nsi_id": "unitedstatespostalservice-a77078", "operator": "United States Postal Service", "operator:short": "USPS", "operator:type": "public", "operator:wikidata": "Q668687", "ref": "2140300054"}, "type": "Feature"}
{"dataset_attributes": {"@spider": "usps_collection_boxes", "spider:collection_time": "2023-08-31T08:24:48.849802"}, "geometry": {"coordinates": [-76.487007496, 38.96690308], "type": "Point"}, "id": "6j-bUhdfeTvAVf-ckx8jPASqjmQ=", "properties": {"@spider": "usps_collection_boxes", "addr:city": "ANNAPOLIS", "addr:country": "US", "addr:full": "821 CHESAPEAKE AVE", "addr:postcode": "21403", "addr:state": "MD", "amenity": "post_box", "brand": "United States Postal Service", "brand:wikidata": "Q668687", "collection_times": "Mo-Fr 16:45; Sa 14:45", "name": "USPS COLLECTION BOX - BLUE BOX", "note": "ON 12/24 AND 12/31, THIS BOX MAY BE COLLECTED AS EARLY AS 12 NOON.", "nsi_id": "unitedstatespostalservice-a77078", "operator": "United States Postal Service", "operator:short": "USPS", "operator:type": "public", "operator:wikidata": "Q668687", "ref": "2140300056"}, "type": "Feature"}
{"dataset_attributes": {"@spider": "usps_collection_boxes", "spider:collection_time": "2023-08-31T08:24:48.849802"}, "geometry": {"coordinates": [-76.487007496, 38.96690308], "type": "Point"}, "id": "78rYQnetgrEFpu6kYl6UbtNPULc=", "properties": {"@spider": "usps_collection_boxes", "addr:city": "ANNAPOLIS", "addr:country": "US", "addr:full": "821 CHESAPEAKE AVE", "addr:postcode": "21403", "addr:state": "MD", "amenity": "post_box", "brand": "United States Postal Service", "brand:wikidata": "Q668687", "collection_times": "Mo-Fr 17:00; Sa 15:00", "name": "USPS COLLECTION BOX - PO LOBBY", "note": "ON 12/24 AND 12/31, THIS BOX MAY BE COLLECTED AS EARLY AS 12 NOON.", "nsi_id": "unitedstatespostalservice-a77078", "operator": "United States Postal Service", "operator:short": "USPS", "operator:type": "public", "operator:wikidata": "Q668687", "ref": "2140300057"}, "type": "Feature"}
{"dataset_attributes": {"@spider": "usps_collection_boxes", "spider:collection_time": "2023-08-31T08:24:48.849802"}, "geometry": {"coordinates": [-76.487007496, 38.96690308], "type": "Point"}, "id": "ZnPBFjazvfAl2XNMFV-3G5uWqyo=", "properties": {"@spider": "usps_collection_boxes", "addr:city": "ANNAPOLIS", "addr:country": "US", "addr:full": "821 CHESAPEAKE AVE", "addr:postcode": "21403", "addr:state": "MD", "amenity": "post_box", "brand": "United States Postal Service", "brand:wikidata": "Q668687", "collection_times": "Mo-Fr 17:00; Sa 15:00", "name": "USPS COLLECTION BOX - PO LOBBY", "note": "ON 12/24 AND 12/31, THIS BOX MAY BE COLLECTED AS EARLY AS 12 NOON.", "nsi_id": "unitedstatespostalservice-a77078", "operator": "United States Postal Service", "operator:short": "USPS", "operator:type": "public", "operator:wikidata": "Q668687", "ref": "2140300058"}, "type": "Feature"}
{"dataset_attributes": {"@spider": "usps_collection_boxes", "spider:collection_time": "2023-08-31T08:24:48.849802"}, "geometry": {"coordinates": [-76.487007496, 38.96690308], "type": "Point"}, "id": "JZAtIb6t6lHQRIGXhpPYHL9WhkQ=", "properties": {"@spider": "usps_collection_boxes", "addr:city": "ANNAPOLIS", "addr:country": "US", "addr:full": "821 CHESAPEAKE AVE", "addr:postcode": "21403", "addr:state": "MD", "amenity": "post_box", "brand": "United States Postal Service", "brand:wikidata": "Q668687", "collection_times": "Mo-Fr 17:00; Sa 15:00", "name": "USPS COLLECTION BOX - PO LOBBY", "note": "ON 12/24 AND 12/31, THIS BOX MAY BE COLLECTED AS EARLY AS 12 NOON.", "nsi_id": "unitedstatespostalservice-a77078", "operator": "United States Postal Service", "operator:short": "USPS", "operator:type": "public", "operator:wikidata": "Q668687", "ref": "2140300059"}, "type": "Feature"}
{"dataset_attributes": {"@spider": "usps_collection_boxes", "spider:collection_time": "2023-08-31T08:24:48.849802"}, "geometry": {"coordinates": [-76.5037061, 38.953679], "type": "Point"}, "id": "dXGrh9sJP0VkXS6EEMrM3ZY8flA=", "properties": {"@spider": "usps_collection_boxes", "addr:city": "ANNAPOLIS", "addr:country": "US", "addr:full": "50 AMBERSTONE CT", "addr:postcode": "21403", "addr:state": "MD", "amenity": "post_box", "brand": "United States Postal Service", "brand:wikidata": "Q668687", "collection_times": "Mo-Sa 09:00", "name": "USPS COLLECTION BOX - BLUE BOX", "nsi_id": "unitedstatespostalservice-a77078", "operator": "United States Postal Service", "operator:short": "USPS", "operator:type": "public", "operator:wikidata": "Q668687", "ref": "2140300060"}, "type": "Feature"}
{"dataset_attributes": {"@spider": "usps_collection_boxes", "spider:collection_time": "2023-08-31T08:24:48.849802"}, "geometry": {"coordinates": [-76.487007496, 38.96690308], "type": "Point"}, "id": "1BOgl7mQ12BzGZ7V-TdXzHi7s70=", "properties": {"@spider": "usps_collection_boxes", "addr:city": "ANNAPOLIS", "addr:country": "US", "addr:full": "821 CHESAPEAKE AVE", "addr:postcode": "21403", "addr:state": "MD", "amenity": "post_box", "brand": "United States Postal Service", "brand:wikidata": "Q668687", "collection_times": "Mo-Fr 17:00; Sa 15:00", "name": "USPS COLLECTION BOX - APC", "note": "ON 12/24 AND 12/31, THIS BOX MAY BE COLLECTED AS EARLY AS 12 NOON.", "nsi_id": "unitedstatespostalservice-a77078", "operator": "United States Postal Service", "operator:short": "USPS", "operator:type": "public", "operator:wikidata": "Q668687", "ref": "2140300062"}, "type": "Feature"}
{"dataset_attributes": {"@spider": "usps_collection_boxes", "spider:collection_time": "2023-08-31T08:24:48.849802"}, "geometry": {"coordinates": [-76.4902485, 38.949367], "type": "Point"}, "id": "k9xOIFq8wqObz3FMeJrkfYgfz5E=", "properties": {"@spider": "usps_collection_boxes", "addr:city": "ANNAPOLIS", "addr:country": "US", "addr:full": "914 BAY RIDGE RD", "addr:postcode": "21403", "addr:state": "MD", "amenity": "post_box", "brand": "United States Postal Service", "brand:wikidata": "Q668687", "collection_times": "Mo-Sa 09:00", "name": "USPS COLLECTION BOX - BLUE BOX", "nsi_id": "unitedstatespostalservice-a77078", "operator": "United States Postal Service", "operator:short": "USPS", "operator:type": "public", "operator:wikidata": "Q668687", "ref": "2140300064"}, "type": "Feature"}
{"dataset_attributes": {"@spider": "usps_collection_boxes", "spider:collection_time": "2023-08-31T08:24:48.849802"}, "geometry": {"coordinates": [-76.487007496, 38.96690308], "type": "Point"}, "id": "w5_I2oEDDAclYoh-z_felP25D4U=", "properties": {"@spider": "usps_collection_boxes", "addr:city": "ANNAPOLIS", "addr:country": "US", "addr:full": "821 CHESAPEAKE AVE", "addr:postcode": "21403", "addr:state": "MD", "amenity": "post_box", "brand": "United States Postal Service", "brand:wikidata": "Q668687", "collection_times": "Mo-Fr 17:00; Sa 14:00", "name": "USPS COLLECTION BOX - PO LOBBY", "note": "ON 12/24 AND 12/31, THIS BOX MAY BE COLLECTED AS EARLY AS 12 NOON.", "nsi_id": "unitedstatespostalservice-a77078", "operator": "United States Postal Service", "operator:short": "USPS", "operator:type": "public", "operator:wikidata": "Q668687", "ref": "2140300067"}, "type": "Feature"}
{"dataset_attributes": {"@spider": "usps_collection_boxes", "spider:collection_time": "2023-08-31T08:24:48.849802"}, "geometry": {"coordinates": [-76.4625824, 39.019795], "type": "Point"}, "id": "eusWe3ZavcYfBfCsdsrxFtvle_I=", "properties": {"@spider": "usps_collection_boxes", "addr:city": "ANNAPOLIS", "addr:country": "US", "addr:full": "1601 PLEASANT PLAINS RD", "addr:postcode": "21409", "addr:state": "MD", "amenity": "post_box", "brand": "United States Postal Service", "brand:wikidata": "Q668687", "collection_times": "Mo-Sa 09:00", "name": "USPS COLLECTION BOX - BLUE BOX", "nsi_id": "unitedstatespostalservice-a77078", "operator": "United States Postal Service", "operator:short": "USPS", "operator:type": "public", "operator:wikidata": "Q668687", "ref": "2140900001"}, "type": "Feature"}
{"dataset_attributes": {"@spider": "usps_collection_boxes", "spider:collection_time": "2023-08-31T08:24:48.849802"}, "geometry": {"coordinates": [-76.4247204, 39.022319], "type": "Point"}, "id": "yYRD4Z3ylPIIdTv8JR4aWn6lh9Y=", "properties": {"@spider": "usps_collection_boxes", "addr:city": "ANNAPOLIS", "addr:country": "US", "addr:full": "1550 WHITEHALL RD", "addr:postcode": "21409", "addr:state": "MD", "amenity": "post_box", "brand": "United States Postal Service", "brand:wikidata": "Q668687", "collection_times": "Mo-Sa 09:00", "name": "USPS COLLECTION BOX - BLUE BOX", "nsi_id": "unitedstatespostalservice-a77078", "operator": "United States Postal Service", "operator:short": "USPS", "operator:type": "public", "operator:wikidata": "Q668687", "ref": "2140900002"}, "type": "Feature"}
{"dataset_attributes": {"@spider": "usps_collection_boxes", "spider:collection_time": "2023-08-31T08:24:48.849802"}, "geometry": {"coordinates": [-76.4390163, 39.039336], "type": "Point"}, "id": "B360GNUwz18hx3v6tf7JPNuInOk=", "properties": {"@spider": "usps_collection_boxes", "addr:city": "ANNAPOLIS", "addr:country": "US", "addr:full": "1332 CAPE ST CLAIRE RD", "addr:postcode": "21409", "addr:state": "MD", "amenity": "post_box", "brand": "United States Postal Service", "brand:wikidata": "Q668687", "collection_times": "Mo-Sa 09:00", "name": "USPS COLLECTION BOX - BLUE BOX", "nsi_id": "unitedstatespostalservice-a77078", "operator": "United States Postal Service", "operator:short": "USPS", "operator:type": "public", "operator:wikidata": "Q668687", "ref": "2140900003"}, "type": "Feature"}
{"dataset_attributes": {"@spider": "usps_collection_boxes", "spider:collection_time": "2023-08-31T08:24:48.849802"}, "geometry": {"coordinates": [-76.4388999, 39.039325], "type": "Point"}, "id": "DaW1DXmaytVlJZnXWJxtAiucWrQ=", "properties": {"@spider": "usps_collection_boxes", "addr:city": "ANNAPOLIS", "addr:country": "US", "addr:full": "1332 CAPE ST CLAIRE RD", "addr:postcode": "21409", "addr:state": "MD", "amenity": "post_box", "brand": "United States Postal Service", "brand:wikidata": "Q668687", "collection_times": "Mo-Sa 09:00", "name": "USPS COLLECTION BOX - BLUE BOX", "nsi_id": "unitedstatespostalservice-a77078", "operator": "United States Postal Service", "operator:short": "USPS", "operator:type": "public", "operator:wikidata": "Q668687", "ref": "2140900004"}, "type": "Feature"}
{"dataset_attributes": {"@spider": "usps_collection_boxes", "spider:collection_time": "2023-08-31T08:24:48.849802"}, "geometry": {"coordinates": [-76.4759670304, 39.0261186053], "type": "Point"}, "id": "OFmv-6mR-xKSsPU5tYoNcgk9U_A=", "properties": {"@spider": "usps_collection_boxes", "addr:city": "ANNAPOLIS", "addr:country": "US", "addr:full": "347 ELDERWOOD CT", "addr:postcode": "21409", "addr:state": "MD", "amenity": "post_box", "brand": "United States Postal Service", "brand:wikidata": "Q668687", "collection_times": "Mo-Sa 09:00", "name": "USPS COLLECTION BOX - BLUE BOX", "nsi_id": "unitedstatespostalservice-a77078", "operator": "United States Postal Service", "operator:short": "USPS", "operator:type": "public", "operator:wikidata": "Q668687", "ref": "2140900005"}, "type": "Feature"}
