{"geometry": {"coordinates": [-78.757176741, 39.650654871], "type": "Point"}, "id": "tz6_qE4k8MtqM6iiEPYmdXf20fg=", "properties": {"@source_uri": "https://tools.usps.com/UspsToolsRestServices/rest/POLocator/findLocations", "@spider": "usps_collection_boxes", "addr:city": "CUMBERLAND", "addr:country": "US", "addr:postcode": "21502", "addr:state": "MD", "addr:street_address": "215 PARK ST", "amenity": "post_box", "collection_times": "Mo-Fr 17:00; Sa 15:00", "note": "ON 12/24 AND 12/31, THIS BOX MAY BE COLLECTED AS EARLY AS 12 NOON.", "nsi_id": "unitedstatespostalservice-a77078", "operator": "United States Postal Service", "operator:short": "USPS", "operator:type": "public", "operator:wikidata": "Q668687", "ref": "2150200000"}, "type": "Feature"}
{"geometry": {"coordinates": [-78.7512984, 39.631221], "type": "Point"}, "id": "yAKIiU7MWuHnIuyv8-FqAJzF7ck=", "properties": {"@source_uri": "https://tools.usps.com/UspsToolsRestServices/rest/POLocator/findLocations", "@spider": "usps_collection_boxes", "addr:city": "CUMBERLAND", "addr:country": "US", "addr:postcode": "21502", "addr:state": "MD", "addr:street_address": "1050 W INDUSTRIAL BLVD", "amenity": "post_box", "collection_times": "Mo-Sa 10:30", "nsi_id": "unitedstatespostalservice-a77078", "operator": "United States Postal Service", "operator:short": "USPS", "operator:type": "public", "operator:wikidata": "Q668687", "ref": "2150200039"}, "type": "Feature"}
{"geometry": {"coordinates": [-78.7687699, 39.65018], "type": "Point"}, "id": "L5MSdmVc94V4aosTxznW_vFWYQg=", "properties": {"@source_uri": "https://tools.usps.com/UspsToolsRestServices/rest/POLocator/findLocations", "@spider": "usps_collection_boxes", "addr:city": "CUMBERLAND", "addr:country": "US", "addr:postcode": "21502", "addr:state": "MD", "addr:street_address": "203 GREENE ST", "amenity": "post_box", "collection_times": "Mo-Sa 12:00", "nsi_id": "unitedstatespostalservice-a77078", "operator": "United States Postal Service", "operator:short": "USPS", "operator:type": "public", "operator:wikidata": "Q668687", "ref": "2150200042"}, "type": "Feature"}
{"geometry": {"coordinates": [-78.7435522, 39.630492], "type": "Point"}, "id": "2rLQEesgbAigRlmm4cAoLZ5WDck=", "properties": {"@source_uri": "https://tools.usps.com/UspsToolsRestServices/rest/POLocator/findLocations", "@spider": "usps_collection_boxes", "addr:city": "CUMBERLAND", "addr:country": "US", "addr:postcode": "21502", "addr:state": "MD", "addr:street_address": "1600 OLDTOWN RD", "amenity": "post_box", "collection_times": "Mo-Sa 12:00", "nsi_id": "unitedstatespostalservice-a77078", "operator": "United States Postal Service", "operator:short": "USPS", "operator:type": "public", "operator:wikidata": "Q668687", "ref": "2150200045"}, "type": "Feature"}
{"geometry": {"coordinates": [-78.7438064, 39.63438], "type": "Point"}, "id": "Cwej8qDquDfx-plDnad99prn82E=", "properties": {"@source_uri": "https://tools.usps.com/UspsToolsRestServices/rest/POLocator/findLocations", "@spider": "usps_collection_boxes", "addr:city": "CUMBERLAND", "addr:country": "US", "addr:postcode": "21502", "addr:state": "MD", "addr:street_address": "1500 E OLDTOWN RD", "amenity": "post_box", "collection_times": "Mo-Sa 09:00", "nsi_id": "unitedstatespostalservice-a77078", "operator": "United States Postal Service", "operator:short": "USPS", "operator:type": "public", "operator:wikidata": "Q668687", "ref": "2150200048"}, "type": "Feature"}
{"geometry": {"coordinates": [-78.7525499, 39.640583], "type": "Point"}, "id": "VPJJXCLl4oTJL5TbGVpFOIlTMXA=", "properties": {"@source_uri": "https://tools.usps.com/UspsToolsRestServices/rest/POLocator/findLocations", "@spider": "usps_collection_boxes", "addr:city": "CUMBERLAND", "addr:country": "US", "addr:postcode": "21502", "addr:state": "MD", "addr:street_address": "625 KENT AVE", "amenity": "post_box", "collection_times": "Mo-Sa 12:30", "note": "ON 12/24 AND 12/31, THIS BOX MAY BE COLLECTED AS EARLY AS 12 NOON.", "nsi_id": "unitedstatespostalservice-a77078", "operator": "United States Postal Service", "operator:short": "USPS", "operator:type": "public", "operator:wikidata": "Q668687", "ref": "2150200065"}, "type": "Feature"}
{"geometry": {"coordinates": [-78.7624872, 39.63724], "type": "Point"}, "id": "nxzeiMarD6sWaXr8uZMki1IVBhc=", "properties": {"@source_uri": "https://tools.usps.com/UspsToolsRestServices/rest/POLocator/findLocations", "@spider": "usps_collection_boxes", "addr:city": "CUMBERLAND", "addr:country": "US", "addr:postcode": "21502", "addr:state": "MD", "addr:street_address": "119 VIRGINIA AVE", "amenity": "post_box", "collection_times": "Mo-Sa 10:00", "nsi_id": "unitedstatespostalservice-a77078", "operator": "United States Postal Service", "operator:short": "USPS", "operator:type": "public", "operator:wikidata": "Q668687", "ref": "2150200076"}, "type": "Feature"}
{"geometry": {"coordinates": [-78.769878, 39.62622], "type": "Point"}, "id": "KjDyC8ay8sx5ZkVDMOLTmrjgpiI=", "properties": {"@source_uri": "https://tools.usps.com/UspsToolsRestServices/rest/POLocator/findLocations", "@spider": "usps_collection_boxes", "addr:city": "CUMBERLAND", "addr:country": "US", "addr:postcode": "21502", "addr:state": "MD", "addr:street_address": "1308 RIVER AVE", "amenity": "post_box", "collection_times": "Mo-Sa 10:30", "nsi_id": "unitedstatespostalservice-a77078", "operator": "United States Postal Service", "operator:short": "USPS", "operator:type": "public", "operator:wikidata": "Q668687", "ref": "2150200087"}, "type": "Feature"}
{"geometry": {"coordinates": [-78.835699, 39.624978], "type": "Point"}, "id": "_d_eb0aD_8AOPvKHGjsxXS-L3bk=", "properties": {"@source_uri": "https://tools.usps.com/UspsToolsRestServices/rest/POLocator/findLocations", "@spider": "usps_collection_boxes", "addr:city": "CUMBERLAND", "addr:country": "US", "addr:postcode": "21502", "addr:state": "MD", "addr:street_address": "12500 COUNTRY CLUB MALL RD", "amenity": "post_box", "collection_times": "Mo-Sa 09:30", "nsi_id": "unitedstatespostalservice-a77078", "operator": "United States Postal Service", "operator:short": "USPS", "operator:type": "public", "operator:wikidata": "Q668687", "ref": "2150200097"}, "type": "Feature"}
{"geometry": {"coordinates": [-78.8409514, 39.632642], "type": "Point"}, "id": "qd2rEiAC2NpvVBBBRUdXae9H414=", "properties": {"@source_uri": "https://tools.usps.com/UspsToolsRestServices/rest/POLocator/findLocations", "@spider": "usps_collection_boxes", "addr:city": "CUMBERLAND", "addr:country": "US", "addr:postcode": "21502", "addr:state": "MD", "addr:street_address": "12109 WINCHESTER RD SW", "amenity": "post_box", "collection_times": "Mo-Sa 11:00", "nsi_id": "unitedstatespostalservice-a77078", "operator": "United States Postal Service", "operator:short": "USPS", "operator:type": "public", "operator:wikidata": "Q668687", "ref": "2150200098"}, "type": "Feature"}
{"geometry": {"coordinates": [-78.8481072, 39.638358], "type": "Point"}, "id": "GS7qsZxttWpPCJ-oOSA1w3fHEqs=", "properties": {"@source_uri": "https://tools.usps.com/UspsToolsRestServices/rest/POLocator/findLocations", "@spider": "usps_collection_boxes", "addr:city": "CUMBERLAND", "addr:country": "US", "addr:postcode": "21502", "addr:state": "MD", "addr:street_address": "1313 NATIONAL HWY", "amenity": "post_box", "collection_times": "Mo-Sa 13:30", "note": "ON 12/24 AND 12/31, THIS BOX MAY BE COLLECTED AS EARLY AS 12 NOON.", "nsi_id": "unitedstatespostalservice-a77078", "operator": "United States Postal Service", "operator:short": "USPS", "operator:type": "public", "operator:wikidata": "Q668687", "ref": "2150200100"}, "type": "Feature"}
{"geometry": {"coordinates": [-78.8346779, 39.637581], "type": "Point"}, "id": "tWd8pTir0OtbnETAxT6cchXjOwE=", "properties": {"@source_uri": "https://tools.usps.com/UspsToolsRestServices/rest/POLocator/findLocations", "@spider": "usps_collection_boxes", "addr:city": "CUMBERLAND", "addr:country": "US", "addr:postcode": "21502", "addr:state": "MD", "addr:street_address": "1223A NATIONAL HWY", "amenity": "post_box", "collection_times": "Mo-Sa 13:00", "note": "ON 12/24 AND 12/31, THIS BOX MAY BE COLLECTED AS EARLY AS 12 NOON.", "nsi_id": "unitedstatespostalservice-a77078", "operator": "United States Postal Service", "operator:short": "USPS", "operator:type": "public", "operator:wikidata": "Q668687", "ref": "2150200101"}, "type": "Feature"}
{"geometry": {"coordinates": [-78.8272273, 39.596061], "type": "Point"}, "id": "uGwll6j3hc4bjnFBxv_j-yVG3AQ=", "properties": {"@source_uri": "https://tools.usps.com/UspsToolsRestServices/rest/POLocator/findLocations", "@spider": "usps_collection_boxes", "addr:city": "CUMBERLAND", "addr:country": "US", "addr:postcode": "21502", "addr:state": "MD", "addr:street_address": "12836 DARROWS LN SW", "amenity": "post_box", "collection_times": "Mo-Sa 13:00", "note": "ON 12/24 AND 12/31, THIS BOX MAY BE COLLECTED AS EARLY AS 12 NOON.", "nsi_id": "unitedstatespostalservice-a77078", "operator": "United States Postal Service", "operator:short": "USPS", "operator:type": "public", "operator:wikidata": "Q668687", "ref": "2150200108"}, "type": "Feature"}
{"geometry": {"coordinates": [-78.8049614, 39.660992], "type": "Point"}, "id": "KP9tw6WGACms1Zs-uX2uitifRo8=", "properties": {"@source_uri": "https://tools.usps.com/UspsToolsRestServices/rest/POLocator/findLocations", "@spider": "usps_collection_boxes", "addr:city": "CUMBERLAND", "addr:country": "US", "addr:postcode": "21502", "addr:state": "MD", "addr:street_address": "401 NATIONAL HWY", "amenity": "post_box", "collection_times": "Mo-Sa 16:00", "note": "ON 12/24 AND 12/31, THIS BOX MAY BE COLLECTED AS EARLY AS 12 NOON.", "nsi_id": "unitedstatespostalservice-a77078", "operator": "United States Postal Service", "operator:short": "USPS", "operator:type": "public", "operator:wikidata": "Q668687", "ref": "2150200111"}, "type": "Feature"}
{"geometry": {"coordinates": [-78.7628309, 39.652713], "type": "Point"}, "id": "U6O4jha4rFnmOOf6IEDWb5omHWA=", "properties": {"@source_uri": "https://tools.usps.com/UspsToolsRestServices/rest/POLocator/findLocations", "@spider": "usps_collection_boxes", "addr:city": "CUMBERLAND", "addr:country": "US", "addr:postcode": "21502", "addr:state": "MD", "addr:street_address": "19 FREDERICK ST", "amenity": "post_box", "collection_times": "Mo-Fr 09:35", "nsi_id": "unitedstatespostalservice-a77078", "operator": "United States Postal Service", "operator:short": "USPS", "operator:type": "public", "operator:wikidata": "Q668687", "ref": "2150200115"}, "type": "Feature"}
{"geometry": {"coordinates": [-78.7608304, 39.65118], "type": "Point"}, "id": "qfXgDzlyKPfx56BcqzOvuCLU6_A=", "properties": {"@source_uri": "https://tools.usps.com/UspsToolsRestServices/rest/POLocator/findLocations", "@spider": "usps_collection_boxes", "addr:city": "CUMBERLAND", "addr:country": "US", "addr:postcode": "21502", "addr:state": "MD", "addr:street_address": "81 N CENTRE ST", "amenity": "post_box", "collection_times": "Mo-Sa 11:30", "nsi_id": "unitedstatespostalservice-a77078", "operator": "United States Postal Service", "operator:short": "USPS", "operator:type": "public", "operator:wikidata": "Q668687", "ref": "2150200122"}, "type": "Feature"}
{"geometry": {"coordinates": [-78.7632647, 39.652749], "type": "Point"}, "id": "lyTHtdWSlZOK1-0DetelwBg_U08=", "properties": {"@source_uri": "https://tools.usps.com/UspsToolsRestServices/rest/POLocator/findLocations", "@spider": "usps_collection_boxes", "addr:city": "CUMBERLAND", "addr:country": "US", "addr:postcode": "21502", "addr:state": "MD", "addr:street_address": "20 BEDFORD ST", "amenity": "post_box", "collection_times": "Mo-Sa 09:40", "nsi_id": "unitedstatespostalservice-a77078", "operator": "United States Postal Service", "operator:short": "USPS", "operator:type": "public", "operator:wikidata": "Q668687", "ref": "2150200125"}, "type": "Feature"}
{"geometry": {"coordinates": [-78.7618522, 39.651628], "type": "Point"}, "id": "DX5rDtQT8sVbKkRp0CGdMAtxnb0=", "properties": {"@source_uri": "https://tools.usps.com/UspsToolsRestServices/rest/POLocator/findLocations", "@spider": "usps_collection_boxes", "addr:city": "CUMBERLAND", "addr:country": "US", "addr:postcode": "21502", "addr:state": "MD", "addr:street_address": "80 BALTIMORE ST", "amenity": "post_box", "collection_times": "Mo-Sa 11:30", "nsi_id": "unitedstatespostalservice-a77078", "operator": "United States Postal Service", "operator:short": "USPS", "operator:type": "public", "operator:wikidata": "Q668687", "ref": "2150200126"}, "type": "Feature"}
{"geometry": {"coordinates": [-78.7616233, 39.650818], "type": "Point"}, "id": "BDrRpPGrl6BYoXiVQdGSAwOqStA=", "properties": {"@source_uri": "https://tools.usps.com/UspsToolsRestServices/rest/POLocator/findLocations", "@spider": "usps_collection_boxes", "addr:city": "CUMBERLAND", "addr:country": "US", "addr:postcode": "21502", "addr:state": "MD", "addr:street_address": "72 PERSHING ST", "amenity": "post_box", "collection_times": "Mo-Sa 09:00", "nsi_id": "unitedstatespostalservice-a77078", "operator": "United States Postal Service", "operator:short": "USPS", "operator:type": "public", "operator:wikidata": "Q668687", "ref": "2150200127"}, "type": "Feature"}
{"geometry": {"coordinates": [-78.7710304, 39.64914], "type": "Point"}, "id": "uRdTcjXDHP2KeJIPOaEFeA2t9aA=", "properties": {"@source_uri": "https://tools.usps.com/UspsToolsRestServices/rest/POLocator/findLocations", "@spider": "usps_collection_boxes", "addr:city": "CUMBERLAND", "addr:country": "US", "addr:postcode": "21502", "addr:state": "MD", "addr:street_address": "316 PACA ST", "amenity": "post_box", "collection_times": "Mo-Sa 10:00", "nsi_id": "unitedstatespostalservice-a77078", "operator": "United States Postal Service", "operator:short": "USPS", "operator:type": "public", "operator:wikidata": "Q668687", "ref": "2150200129"}, "type": "Feature"}
{"geometry": {"coordinates": [-78.768069, 39.651088], "type": "Point"}, "id": "0uJJJr9Q5WgpVn35y55Vh8QfAT0=", "properties": {"@source_uri": "https://tools.usps.com/UspsToolsRestServices/rest/POLocator/findLocations", "@spider": "usps_collection_boxes", "addr:city": "CUMBERLAND", "addr:country": "US", "addr:postcode": "21502", "addr:state": "MD", "addr:street_address": "108 WASHINGTON ST", "amenity": "post_box", "collection_times": "Mo-Sa 10:00", "nsi_id": "unitedstatespostalservice-a77078", "operator": "United States Postal Service", "operator:short": "USPS", "operator:type": "public", "operator:wikidata": "Q668687", "ref": "2150200132"}, "type": "Feature"}
{"geometry": {"coordinates": [-78.7668694, 39.650981], "type": "Point"}, "id": "aUi-i-ITmbq59c_mzDgZo2NdlXU=", "properties": {"@source_uri": "https://tools.usps.com/UspsToolsRestServices/rest/POLocator/findLocations", "@spider": "usps_collection_boxes", "addr:city": "CUMBERLAND", "addr:country": "US", "addr:postcode": "21502", "addr:state": "MD", "addr:street_address": "100 WASHINGTON ST", "amenity": "post_box", "collection_times": "Mo-Sa 10:00", "nsi_id": "unitedstatespostalservice-a77078", "operator": "United States Postal Service", "operator:short": "USPS", "operator:type": "public", "operator:wikidata": "Q668687", "ref": "2150200134"}, "type": "Feature"}
{"geometry": {"coordinates": [-78.7700193, 39.651401], "type": "Point"}, "id": "USj3NG0e0bjBb3qmJ3AJoEZ96eQ=", "properties": {"@source_uri": "https://tools.usps.com/UspsToolsRestServices/rest/POLocator/findLocations", "@spider": "usps_collection_boxes", "addr:city": "CUMBERLAND", "addr:country": "US", "addr:postcode": "21502", "addr:state": "MD", "addr:street_address": "224 WASHINGTON ST", "amenity": "post_box", "collection_times": "Mo-Sa 10:30", "nsi_id": "unitedstatespostalservice-a77078", "operator": "United States Postal Service", "operator:short": "USPS", "operator:type": "public", "operator:wikidata": "Q668687", "ref": "2150200135"}, "type": "Feature"}
{"geometry": {"coordinates": [-78.769895, 39.654825], "type": "Point"}, "id": "Y-EZrf-5W47KAI8nr34fzUxOgzQ=", "properties": {"@source_uri": "https://tools.usps.com/UspsToolsRestServices/rest/POLocator/findLocations", "@spider": "usps_collection_boxes", "addr:city": "CUMBERLAND", "addr:country": "US", "addr:postcode": "21502", "addr:state": "MD", "addr:street_address": "64 GREENE ST", "amenity": "post_box", "collection_times": "Mo-Sa 10:00", "nsi_id": "unitedstatespostalservice-a77078", "operator": "United States Postal Service", "operator:short": "USPS", "operator:type": "public", "operator:wikidata": "Q668687", "ref": "2150200136"}, "type": "Feature"}
{"geometry": {"coordinates": [-78.7628766, 39.649347], "type": "Point"}, "id": "BBh8nOAJvZ6gmr4c0ayL4vd06bY=", "properties": {"@source_uri": "https://tools.usps.com/UspsToolsRestServices/rest/POLocator/findLocations", "@spider": "usps_collection_boxes", "addr:city": "CUMBERLAND", "addr:country": "US", "addr:postcode": "21502", "addr:state": "MD", "addr:street_address": "13 CANAL ST", "amenity": "post_box", "collection_times": "Mo-Sa 10:30", "nsi_id": "unitedstatespostalservice-a77078", "operator": "United States Postal Service", "operator:short": "USPS", "operator:type": "public", "operator:wikidata": "Q668687", "ref": "2150200138"}, "type": "Feature"}
{"geometry": {"coordinates": [-78.7360165, 39.678965], "type": "Point"}, "id": "Hu6BRIET3d0UBBsoj2jgUQP4MDw=", "properties": {"@source_uri": "https://tools.usps.com/UspsToolsRestServices/rest/POLocator/findLocations", "@spider": "usps_collection_boxes", "addr:city": "CUMBERLAND", "addr:country": "US", "addr:postcode": "21502", "addr:state": "MD", "addr:street_address": "11306 BEDFORD RD NE", "amenity": "post_box", "collection_times": "Mo-Sa 10:05", "nsi_id": "unitedstatespostalservice-a77078", "operator": "United States Postal Service", "operator:short": "USPS", "operator:type": "public", "operator:wikidata": "Q668687", "ref": "2150200140"}, "type": "Feature"}
{"geometry": {"coordinates": [-78.7367119, 39.656188], "type": "Point"}, "id": "s5iECuVSlvPcP1_Wp4ZfUFmmDaQ=", "properties": {"@source_uri": "https://tools.usps.com/UspsToolsRestServices/rest/POLocator/findLocations", "@spider": "usps_collection_boxes", "addr:city": "CUMBERLAND", "addr:country": "US", "addr:postcode": "21502", "addr:state": "MD", "addr:street_address": "10100 COUNTRY CLUB RD SE", "amenity": "post_box", "collection_times": "Mo-Sa 10:00", "nsi_id": "unitedstatespostalservice-a77078", "operator": "United States Postal Service", "operator:short": "USPS", "operator:type": "public", "operator:wikidata": "Q668687", "ref": "2150200144"}, "type": "Feature"}
{"geometry": {"coordinates": [-78.7299779, 39.651454], "type": "Point"}, "id": "HfdLTA7-otUDfasCfKKrO8qnHO0=", "properties": {"@source_uri": "https://tools.usps.com/UspsToolsRestServices/rest/POLocator/findLocations", "@spider": "usps_collection_boxes", "addr:city": "CUMBERLAND", "addr:country": "US", "addr:postcode": "21502", "addr:state": "MD", "addr:street_address": "12401 WILLOWBROOK RD", "amenity": "post_box", "collection_times": "Mo-Sa 09:45", "nsi_id": "unitedstatespostalservice-a77078", "operator": "United States Postal Service", "operator:short": "USPS", "operator:type": "public", "operator:wikidata": "Q668687", "ref": "2150200146"}, "type": "Feature"}
{"geometry": {"coordinates": [-78.7610523, 39.650382], "type": "Point"}, "id": "duaGaxenUX3C65RCBPwQR_oPpc4=", "properties": {"@source_uri": "https://tools.usps.com/UspsToolsRestServices/rest/POLocator/findLocations", "@spider": "usps_collection_boxes", "addr:city": "CUMBERLAND", "addr:country": "US", "addr:postcode": "21502", "addr:state": "MD", "addr:street_address": "132 S LIBERTY ST", "amenity": "post_box", "collection_times": "Mo-Sa 11:45", "nsi_id": "unitedstatespostalservice-a77078", "operator": "United States Postal Service", "operator:short": "USPS", "operator:type": "public", "operator:wikidata": "Q668687", "ref": "2150200159"}, "type": "Feature"}
{"geometry": {"coordinates": [-78.757176741, 39.650654871], "type": "Point"}, "id": "XIJQXpug7E-5FJ2jje4SrMTkoNk=", "properties": {"@source_uri": "https://tools.usps.com/UspsToolsRestServices/rest/POLocator/findLocations", "@spider": "usps_collection_boxes", "addr:city": "CUMBERLAND", "addr:country": "US", "addr:postcode": "21502", "addr:state": "MD", "addr:street_address": "215 PARK ST", "amenity": "post_box", "collection_times": "Mo-Fr 17:00; Sa 12:45", "indoor": "yes", "note": "ON 12/24 AND 12/31, THIS BOX MAY BE COLLECTED AS EARLY AS 12 NOON.", "nsi_id": "unitedstatespostalservice-a77078", "operator": "United States Postal Service", "operator:short": "USPS", "operator:type": "public", "operator:wikidata": "Q668687", "ref": "2150200161"}, "type": "Feature"}
{"geometry": {"coordinates": [-78.762335, 39.637566], "type": "Point"}, "id": "NDKNNG2X32x5DkJL9KdkDydDNeM=", "properties": {"@source_uri": "https://tools.usps.com/UspsToolsRestServices/rest/POLocator/findLocations", "@spider": "usps_collection_boxes", "addr:city": "CUMBERLAND", "addr:country": "US", "addr:postcode": "21502", "addr:state": "MD", "addr:street_address": "119 VIRGINIA AVE", "amenity": "post_box", "collection_times": "Mo-Fr 12:30", "indoor": "yes", "note": "ON 12/24 AND 12/31, THIS BOX MAY BE COLLECTED AS EARLY AS 12 NOON.", "nsi_id": "unitedstatespostalservice-a77078", "operator": "United States Postal Service", "operator:short": "USPS", "operator:type": "public", "operator:wikidata": "Q668687", "ref": "2150200162"}, "type": "Feature"}
{"geometry": {"coordinates": [-78.804765, 39.661085], "type": "Point"}, "id": "SrJGiPNtGIPk71_G4i3kSM6zW38=", "properties": {"@source_uri": "https://tools.usps.com/UspsToolsRestServices/rest/POLocator/findLocations", "@spider": "usps_collection_boxes", "addr:city": "CUMBERLAND", "addr:country": "US", "addr:postcode": "21502", "addr:state": "MD", "addr:street_address": "401 NATIONAL HWY", "amenity": "post_box", "collection_times": "Mo-Fr 16:15", "indoor": "yes", "note": "ON 12/24 AND 12/31, THIS BOX MAY BE COLLECTED AS EARLY AS 12 NOON.", "nsi_id": "unitedstatespostalservice-a77078", "operator": "United States Postal Service", "operator:short": "USPS", "operator:type": "public", "operator:wikidata": "Q668687", "ref": "2150200163"}, "type": "Feature"}
{"geometry": {"coordinates": [-78.824675, 39.596355], "type": "Point"}, "id": "ItI0p485icvzp2IKlXDCncCwBTE=", "properties": {"@source_uri": "https://tools.usps.com/UspsToolsRestServices/rest/POLocator/findLocations", "@spider": "usps_collection_boxes", "addr:city": "CUMBERLAND", "addr:country": "US", "addr:postcode": "21502", "addr:state": "MD", "addr:street_address": "12836 DARROWS LN", "amenity": "post_box", "collection_times": "Mo-Fr 12:30", "indoor": "yes", "note": "ON 12/24 AND 12/31, THIS BOX MAY BE COLLECTED AS EARLY AS 12 NOON.", "nsi_id": "unitedstatespostalservice-a77078", "operator": "United States Postal Service", "operator:short": "USPS", "operator:type": "public", "operator:wikidata": "Q668687", "ref": "2150200164"}, "type": "Feature"}
{"geometry": {"coordinates": [-78.7629891, 39.652486], "type": "Point"}, "id": "y-DTwI9dIXCJkmrEU1t0n0K0hr8=", "properties": {"@source_uri": "https://tools.usps.com/UspsToolsRestServices/rest/POLocator/findLocations", "@spider": "usps_collection_boxes", "addr:city": "CUMBERLAND", "addr:country": "US", "addr:postcode": "21502", "addr:state": "MD", "addr:street_address": "1 FREDERICK ST", "amenity": "post_box", "collection_times": "Mo-Sa 09:30", "nsi_id": "unitedstatespostalservice-a77078", "operator": "United States Postal Service", "operator:short": "USPS", "operator:type": "public", "operator:wikidata": "Q668687", "ref": "2150200165"}, "type": "Feature"}
{"geometry": {"coordinates": [-78.7802254, 39.643753], "type": "Point"}, "id": "Ok6tr11VdRSGYXqM3Yc7h48EmS4=", "properties": {"@source_uri": "https://tools.usps.com/UspsToolsRestServices/rest/POLocator/findLocations", "@spider": "usps_collection_boxes", "addr:city": "CUMBERLAND", "addr:country": "US", "addr:postcode": "21502", "addr:state": "MD", "addr:street_address": "701 KELLY RD", "amenity": "post_box", "collection_times": "Mo-Sa 09:45", "nsi_id": "unitedstatespostalservice-a77078", "operator": "United States Postal Service", "operator:short": "USPS", "operator:type": "public", "operator:wikidata": "Q668687", "ref": "2150200166"}, "type": "Feature"}
{"geometry": {"coordinates": [-78.7579523, 39.646449], "type": "Point"}, "id": "ozRblBUKg68-8ww8PdejOltU1mo=", "properties": {"@source_uri": "https://tools.usps.com/UspsToolsRestServices/rest/POLocator/findLocations", "@spider": "usps_collection_boxes", "addr:city": "CUMBERLAND", "addr:country": "US", "addr:postcode": "21502", "addr:state": "MD", "addr:street_address": "739 PARK ST", "amenity": "post_box", "collection_times": "Mo-Sa 09:00", "nsi_id": "unitedstatespostalservice-a77078", "operator": "United States Postal Service", "operator:short": "USPS", "operator:type": "public", "operator:wikidata": "Q668687", "ref": "2150200167"}, "type": "Feature"}
{"geometry": {"coordinates": [-78.7985383, 39.632628], "type": "Point"}, "id": "DXDtpggTdOZFu9g_yzFmQvDDQ1I=", "properties": {"@source_uri": "https://tools.usps.com/UspsToolsRestServices/rest/POLocator/findLocations", "@spider": "usps_collection_boxes", "addr:city": "CUMBERLAND", "addr:country": "US", "addr:postcode": "21502", "addr:state": "MD", "addr:street_address": "12101 UPPER POTOMAC INDSTRL PARK ST SW", "amenity": "post_box", "collection_times": "Mo-Sa 09:30", "nsi_id": "unitedstatespostalservice-a77078", "operator": "United States Postal Service", "operator:short": "USPS", "operator:type": "public", "operator:wikidata": "Q668687", "ref": "2150200168"}, "type": "Feature"}
{"geometry": {"coordinates": [-78.757176741, 39.650654871], "type": "Point"}, "id": "_wqV_NAj_Z8Ye_MuF1U7qQV2RzM=", "properties": {"@source_uri": "https://tools.usps.com/UspsToolsRestServices/rest/POLocator/findLocations", "@spider": "usps_collection_boxes", "addr:city": "CUMBERLAND", "addr:country": "US", "addr:postcode": "21502", "addr:state": "MD", "addr:street_address": "215 PARK ST", "amenity": "post_box", "collection_times": "Mo-Fr 17:00; Sa 12:45", "indoor": "yes", "note": "ON 12/24 AND 12/31, THIS BOX MAY BE COLLECTED AS EARLY AS 12 NOON.", "nsi_id": "unitedstatespostalservice-a77078", "operator": "United States Postal Service", "operator:short": "USPS", "operator:type": "public", "operator:wikidata": "Q668687", "ref": "2150200169"}, "type": "Feature"}
{"geometry": {"coordinates": [-78.8390783, 39.586085], "type": "Point"}, "id": "wjtdCIi9_Z4HZMV4DAznbY1PFpg=", "properties": {"@source_uri": "https://tools.usps.com/UspsToolsRestServices/rest/POLocator/findLocations", "@spider": "usps_collection_boxes", "addr:city": "CUMBERLAND", "addr:country": "US", "addr:postcode": "21502", "addr:state": "MD", "addr:street_address": "15300 MCMULLEN HWY SW", "amenity": "post_box", "collection_times": "Mo-Sa 13:15", "note": "ON 12/24 AND 12/31, THIS BOX MAY BE COLLECTED AS EARLY AS 12 NOON.", "nsi_id": "unitedstatespostalservice-a77078", "operator": "United States Postal Service", "operator:short": "USPS", "operator:type": "public", "operator:wikidata": "Q668687", "ref": "2150200172"}, "type": "Feature"}
{"geometry": {"coordinates": [-78.8353899, 39.627851], "type": "Point"}, "id": "bCP1n5LSbhUrL4Z9IUj5dWrd74A=", "properties": {"@source_uri": "https://tools.usps.com/UspsToolsRestServices/rest/POLocator/findLocations", "@spider": "usps_collection_boxes", "addr:city": "CUMBERLAND", "addr:country": "US", "addr:postcode": "21502", "addr:state": "MD", "addr:street_address": "1262 VOCKE RD", "amenity": "post_box", "collection_times": "Mo-Sa 09:30", "nsi_id": "unitedstatespostalservice-a77078", "operator": "United States Postal Service", "operator:short": "USPS", "operator:type": "public", "operator:wikidata": "Q668687", "ref": "2150200175"}, "type": "Feature"}
{"geometry": {"coordinates": [-78.7311851, 39.647631], "type": "Point"}, "id": "jcPVX8O02o9Hcd9enUhiJa-vvcY=", "properties": {"@source_uri": "https://tools.usps.com/UspsToolsRestServices/rest/POLocator/findLocations", "@spider": "usps_collection_boxes", "addr:city": "CUMBERLAND", "addr:country": "US", "addr:postcode": "21502", "addr:state": "MD", "addr:street_address": "12501 WILLOWBROOK RD", "amenity": "post_box", "collection_times": "Mo-Sa 09:40", "nsi_id": "unitedstatespostalservice-a77078", "operator": "United States Postal Service", "operator:short": "USPS", "operator:type": "public", "operator:wikidata": "Q668687", "ref": "2150200177"}, "type": "Feature"}
{"geometry": {"coordinates": [-78.769895, 39.654825], "type": "Point"}, "id": "tvmR6g_irmmQv0S7Yo-OF25OEZM=", "properties": {"@source_uri": "https://tools.usps.com/UspsToolsRestServices/rest/POLocator/findLocations", "@spider": "usps_collection_boxes", "addr:city": "CUMBERLAND", "addr:country": "US", "addr:postcode": "21502", "addr:state": "MD", "addr:street_address": "138 BALTIMORE ST", "amenity": "post_box", "collection_times": "Mo-Sa 10:00", "nsi_id": "unitedstatespostalservice-a77078", "operator": "United States Postal Service", "operator:short": "USPS", "operator:type": "public", "operator:wikidata": "Q668687", "ref": "2150200182"}, "type": "Feature"}
{"geometry": {"coordinates": [-78.7336339, 39.648407], "type": "Point"}, "id": "kJlku_xlFXu3GTj99N8CUJyhJ1s=", "properties": {"@source_uri": "https://tools.usps.com/UspsToolsRestServices/rest/POLocator/findLocations", "@spider": "usps_collection_boxes", "addr:city": "CUMBERLAND", "addr:country": "US", "addr:postcode": "21502", "addr:state": "MD", "addr:street_address": "12502 WILLOWBROOK RD", "amenity": "post_box", "collection_times": "Mo-Sa 09:30", "nsi_id": "unitedstatespostalservice-a77078", "operator": "United States Postal Service", "operator:short": "USPS", "operator:type": "public", "operator:wikidata": "Q668687", "ref": "2150200186"}, "type": "Feature"}
{"geometry": {"coordinates": [-78.757176741, 39.650654871], "type": "Point"}, "id": "y4NsIlcJxYoc7bo2No7qWUgiA04=", "properties": {"@source_uri": "https://tools.usps.com/UspsToolsRestServices/rest/POLocator/findLocations", "@spider": "usps_collection_boxes", "addr:city": "CUMBERLAND", "addr:country": "US", "addr:postcode": "21502", "addr:state": "MD", "addr:street_address": "215 PARK ST", "amenity": "post_box", "collection_times": "Mo-Fr 17:00; Sa 12:00", "indoor": "yes", "note": "ON 12/24 AND 12/31, THIS BOX MAY BE COLLECTED AS EARLY AS 12 NOON.", "nsi_id": "unitedstatespostalservice-a77078", "operator": "United States Postal Service", "operator:short": "USPS", "operator:type": "public", "operator:wikidata": "Q668687", "ref": "2150200191"}, "type": "Feature"}
{"geometry": {"coordinates": [-78.7571767407, 39.6506548712], "type": "Point"}, "id": "QqdywNlzgJ_OQ4T6Sa86iT_21h8=", "properties": {"@source_uri": "https://tools.usps.com/UspsToolsRestServices/rest/POLocator/findLocations", "@spider": "usps_collection_boxes", "addr:city": "CUMBERLAND", "addr:country": "US", "addr:postcode": "21502", "addr:state": "MD", "addr:street_address": "215 PARK ST", "amenity": "post_box", "collection_times": "Mo-Fr 17:00; Sa 15:00", "note": "ON 12/24 AND 12/31, THIS BOX MAY BE COLLECTED AS EARLY AS 12 NOON.", "nsi_id": "unitedstatespostalservice-a77078", "operator": "United States Postal Service", "operator:short": "USPS", "operator:type": "public", "operator:wikidata": "Q668687", "ref": "2150200192"}, "type": "Feature"}
{"geometry": {"coordinates": [-78.76240524, 39.6375448], "type": "Point"}, "id": "u6mTe_oKLG8rsleLtoKCKGFsr1g=", "properties": {"@source_uri": "https://tools.usps.com/UspsToolsRestServices/rest/POLocator/findLocations", "@spider": "usps_collection_boxes", "addr:city": "CUMBERLAND", "addr:country": "US", "addr:postcode": "21503", "addr:state": "MD", "addr:street_address": "119 VIRGINIA AVE", "amenity": "post_box", "collection_times": "Mo-Fr 12:00", "indoor": "yes", "nsi_id": "unitedstatespostalservice-a77078", "operator": "United States Postal Service", "operator:short": "USPS", "operator:type": "public", "operator:wikidata": "Q668687", "ref": "2150300001"}, "type": "Feature"}
{"geometry": {"coordinates": [-78.804588839, 39.661446869], "type": "Point"}, "id": "6lOUzE5jeDoEa7aOmcfmituD6-s=", "properties": {"@source_uri": "https://tools.usps.com/UspsToolsRestServices/rest/POLocator/findLocations", "@spider": "usps_collection_boxes", "addr:city": "LAVALE", "addr:country": "US", "addr:postcode": "21504", "addr:state": "MD", "addr:street_address": "401 NATIONAL HWY", "amenity": "post_box", "collection_times": "Mo-Fr 16:30", "indoor": "yes", "note": "ON 12/24 AND 12/31, THIS BOX MAY BE COLLECTED AS EARLY AS 12 NOON.", "nsi_id": "unitedstatespostalservice-a77078", "operator": "United States Postal Service", "operator:short": "USPS", "operator:type": "public", "operator:wikidata": "Q668687", "ref": "2150400001"}, "type": "Feature"}
{"geometry": {"coordinates": [-78.827191544, 39.596223502], "type": "Point"}, "id": "SmI7JcQnPteTVaHAK9ClvCdFT2M=", "properties": {"@source_uri": "https://tools.usps.com/UspsToolsRestServices/rest/POLocator/findLocations", "@spider": "usps_collection_boxes", "addr:city": "CRESAPTOWN", "addr:country": "US", "addr:postcode": "21505", "addr:state": "MD", "addr:street_address": "12836 DARROWS AVE", "amenity": "post_box", "collection_times": "Mo-Fr 12:00", "indoor": "yes", "nsi_id": "unitedstatespostalservice-a77078", "operator": "United States Postal Service", "operator:short": "USPS", "operator:type": "public", "operator:wikidata": "Q668687", "ref": "2150500001"}, "type": "Feature"}
{"geometry": {"coordinates": [-79.319334533, 39.628370725], "type": "Point"}, "id": "NfnUmuojwsx0ViZJdmjHbAKfdK0=", "properties": {"@source_uri": "https://tools.usps.com/UspsToolsRestServices/rest/POLocator/findLocations", "@spider": "usps_collection_boxes", "addr:city": "ACCIDENT", "addr:country": "US", "addr:postcode": "21520", "addr:state": "MD", "addr:street_address": "103 SOUTH ST", "amenity": "post_box", "collection_times": "Mo-Fr 16:15; Sa 11:45", "note": "ON 12/24 AND 12/31, THIS BOX MAY BE COLLECTED AS EARLY AS 12 NOON.", "nsi_id": "unitedstatespostalservice-a77078", "operator": "United States Postal Service", "operator:short": "USPS", "operator:type": "public", "operator:wikidata": "Q668687", "ref": "2152000000"}, "type": "Feature"}
{"geometry": {"coordinates": [-79.319334533, 39.628370725], "type": "Point"}, "id": "TDakazxewVu0kffv8INFZD47cxs=", "properties": {"@source_uri": "https://tools.usps.com/UspsToolsRestServices/rest/POLocator/findLocations", "@spider": "usps_collection_boxes", "addr:city": "ACCIDENT", "addr:country": "US", "addr:postcode": "21520", "addr:state": "MD", "addr:street_address": "103 SOUTH ST", "amenity": "post_box", "collection_times": "Mo-Fr 16:30; Sa 11:45", "indoor": "yes", "note": "ON 12/24 AND 12/31, THIS BOX MAY BE COLLECTED AS EARLY AS 12 NOON.", "nsi_id": "unitedstatespostalservice-a77078", "operator": "United States Postal Service", "operator:short": "USPS", "operator:type": "public", "operator:wikidata": "Q668687", "ref": "2152000001"}, "type": "Feature"}
{"geometry": {"coordinates": [-79.319334533, 39.628370725], "type": "Point"}, "id": "Qh7zkZ7OWfrfLs8885JuZGnDcVI=", "properties": {"@source_uri": "https://tools.usps.com/UspsToolsRestServices/rest/POLocator/findLocations", "@spider": "usps_collection_boxes", "addr:city": "ACCIDENT", "addr:country": "US", "addr:postcode": "21520", "addr:state": "MD", "addr:street_address": "103 SOUTH ST", "amenity": "post_box", "collection_times": "Mo-Fr 16:30; Sa 11:45", "indoor": "yes", "note": "ON 12/24 AND 12/31, THIS BOX MAY BE COLLECTED AS EARLY AS 12 NOON.", "nsi_id": "unitedstatespostalservice-a77078", "operator": "United States Postal Service", "operator:short": "USPS", "operator:type": "public", "operator:wikidata": "Q668687", "ref": "2152000002"}, "type": "Feature"}
{"geometry": {"coordinates": [-79.319334533, 39.628370725], "type": "Point"}, "id": "dV9QW1ZyZlwETKNZV0AqwiXYE7o=", "properties": {"@source_uri": "https://tools.usps.com/UspsToolsRestServices/rest/POLocator/findLocations", "@spider": "usps_collection_boxes", "addr:city": "ACCIDENT", "addr:country": "US", "addr:postcode": "21520", "addr:state": "MD", "addr:street_address": "103 SOUTH ST", "amenity": "post_box", "collection_times": "Mo-Fr 16:30; Sa 12:00", "indoor": "yes", "note": "ON 12/24 AND 12/31, THIS BOX MAY BE COLLECTED AS EARLY AS 12 NOON.", "nsi_id": "unitedstatespostalservice-a77078", "operator": "United States Postal Service", "operator:short": "USPS", "operator:type": "public", "operator:wikidata": "Q668687", "ref": "2152000004"}, "type": "Feature"}
{"geometry": {"coordinates": [-79.017797458, 39.530294943], "type": "Point"}, "id": "KkwLHJMLt0YIg2poBVD9pV-TRpk=", "properties": {"@source_uri": "https://tools.usps.com/UspsToolsRestServices/rest/POLocator/findLocations", "@spider": "usps_collection_boxes", "addr:city": "BARTON", "addr:country": "US", "addr:postcode": "21521", "addr:state": "MD", "addr:street_address": "19112 S RAILROAD ST SW", "amenity": "post_box", "collection_times": "Mo-Fr 16:00; Sa 11:45", "note": "ON 12/24 AND 12/31, THIS BOX MAY BE COLLECTED AS EARLY AS 12 NOON.", "nsi_id": "unitedstatespostalservice-a77078", "operator": "United States Postal Service", "operator:short": "USPS", "operator:type": "public", "operator:wikidata": "Q668687", "ref": "2152100000"}, "type": "Feature"}
{"geometry": {"coordinates": [-79.017827, 39.530307], "type": "Point"}, "id": "d4axgApSD4qvN-3-FA0NCKXopFY=", "properties": {"@source_uri": "https://tools.usps.com/UspsToolsRestServices/rest/POLocator/findLocations", "@spider": "usps_collection_boxes", "addr:city": "BARTON", "addr:country": "US", "addr:postcode": "21521", "addr:state": "MD", "addr:street_address": "19112 S RAILROAD ST", "amenity": "post_box", "collection_times": "Mo-Fr 16:00; Sa 11:45", "indoor": "yes", "note": "ON 12/24 AND 12/31, THIS BOX MAY BE COLLECTED AS EARLY AS 12 NOON.", "nsi_id": "unitedstatespostalservice-a77078", "operator": "United States Postal Service", "operator:short": "USPS", "operator:type": "public", "operator:wikidata": "Q668687", "ref": "2152100001"}, "type": "Feature"}
{"geometry": {"coordinates": [-79.017797458, 39.530294943], "type": "Point"}, "id": "3L6hG_qUs3Co1dNlwi_9vQ5QpWg=", "properties": {"@source_uri": "https://tools.usps.com/UspsToolsRestServices/rest/POLocator/findLocations", "@spider": "usps_collection_boxes", "addr:city": "BARTON", "addr:country": "US", "addr:postcode": "21521", "addr:state": "MD", "addr:street_address": "19112 S RAILROAD ST SW", "amenity": "post_box", "collection_times": "Mo-Fr 16:00; Sa 11:45", "indoor": "yes", "note": "ON 12/24 AND 12/31, THIS BOX MAY BE COLLECTED AS EARLY AS 12 NOON.", "nsi_id": "unitedstatespostalservice-a77078", "operator": "United States Postal Service", "operator:short": "USPS", "operator:type": "public", "operator:wikidata": "Q668687", "ref": "2152100003"}, "type": "Feature"}
{"geometry": {"coordinates": [-79.071006636, 39.479509394], "type": "Point"}, "id": "62F00P7MLDwVWoxuFRjVizxu_wA=", "properties": {"@source_uri": "https://tools.usps.com/UspsToolsRestServices/rest/POLocator/findLocations", "@spider": "usps_collection_boxes", "addr:city": "BLOOMINGTON", "addr:country": "US", "addr:postcode": "21523", "addr:state": "MD", "addr:street_address": "35 N HAMILL AVE", "amenity": "post_box", "collection_times": "Mo-Fr 16:15; Sa 11:45", "note": "ON 12/24 AND 12/31, THIS BOX MAY BE COLLECTED AS EARLY AS 12 NOON.", "nsi_id": "unitedstatespostalservice-a77078", "operator": "United States Postal Service", "operator:short": "USPS", "operator:type": "public", "operator:wikidata": "Q668687", "ref": "2152300000"}, "type": "Feature"}
{"geometry": {"coordinates": [-79.071006636, 39.479509394], "type": "Point"}, "id": "WNgiJ_-VWvrz3Gj2w40tyDVgDBU=", "properties": {"@source_uri": "https://tools.usps.com/UspsToolsRestServices/rest/POLocator/findLocations", "@spider": "usps_collection_boxes", "addr:city": "BLOOMINGTON", "addr:country": "US", "addr:postcode": "21523", "addr:state": "MD", "addr:street_address": "35 N HAMILL AVE", "amenity": "post_box", "collection_times": "Mo-Fr 16:15; Sa 11:45", "indoor": "yes", "note": "ON 12/24 AND 12/31, THIS BOX MAY BE COLLECTED AS EARLY AS 12 NOON.", "nsi_id": "unitedstatespostalservice-a77078", "operator": "United States Postal Service", "operator:short": "USPS", "operator:type": "public", "operator:wikidata": "Q668687", "ref": "2152300001"}, "type": "Feature"}
{"geometry": {"coordinates": [-79.071006636, 39.479509394], "type": "Point"}, "id": "uTNstxwKhl6cy3Qj7hYkRl6_iGs=", "properties": {"@source_uri": "https://tools.usps.com/UspsToolsRestServices/rest/POLocator/findLocations", "@spider": "usps_collection_boxes", "addr:city": "BLOOMINGTON", "addr:country": "US", "addr:postcode": "21523", "addr:state": "MD", "addr:street_address": "35 N HAMILL AVE", "amenity": "post_box", "collection_times": "Mo-Fr 16:30; Sa 12:00", "indoor": "yes", "note": "ON 12/24 AND 12/31, THIS BOX MAY BE COLLECTED AS EARLY AS 12 NOON.", "nsi_id": "unitedstatespostalservice-a77078", "operator": "United States Postal Service", "operator:short": "USPS", "operator:type": "public", "operator:wikidata": "Q668687", "ref": "2152300003"}, "type": "Feature"}
{"geometry": {"coordinates": [-78.791998694, 39.693228623], "type": "Point"}, "id": "SquqP18djUM8EYPd0KixGlwD5BE=", "properties": {"@source_uri": "https://tools.usps.com/UspsToolsRestServices/rest/POLocator/findLocations", "@spider": "usps_collection_boxes", "addr:city": "CORRIGANVILLE", "addr:country": "US", "addr:postcode": "21524", "addr:state": "MD", "addr:street_address": "10810 KREIGHBAUM RD", "amenity": "post_box", "collection_times": "Mo-Fr 16:45; Sa 11:45", "note": "ON 12/24 AND 12/31, THIS BOX MAY BE COLLECTED AS EARLY AS 12 NOON.", "nsi_id": "unitedstatespostalservice-a77078", "operator": "United States Postal Service", "operator:short": "USPS", "operator:type": "public", "operator:wikidata": "Q668687", "ref": "2152400000"}, "type": "Feature"}
{"geometry": {"coordinates": [-78.791998694, 39.693228623], "type": "Point"}, "id": "dylR6YXUIyPKsT0-_9qAnpFcI-I=", "properties": {"@source_uri": "https://tools.usps.com/UspsToolsRestServices/rest/POLocator/findLocations", "@spider": "usps_collection_boxes", "addr:city": "CORRIGANVILLE", "addr:country": "US", "addr:postcode": "21524", "addr:state": "MD", "addr:street_address": "10810 KREIGHBAUM RD", "amenity": "post_box", "collection_times": "Mo-Fr 16:45; Sa 11:45", "indoor": "yes", "note": "ON 12/24 AND 12/31, THIS BOX MAY BE COLLECTED AS EARLY AS 12 NOON.", "nsi_id": "unitedstatespostalservice-a77078", "operator": "United States Postal Service", "operator:short": "USPS", "operator:type": "public", "operator:wikidata": "Q668687", "ref": "2152400001"}, "type": "Feature"}
{"geometry": {"coordinates": [-78.791998694, 39.693228623], "type": "Point"}, "id": "avJCEO4db3LGmX9neijQU3T9AQ4=", "properties": {"@source_uri": "https://tools.usps.com/UspsToolsRestServices/rest/POLocator/findLocations", "@spider": "usps_collection_boxes", "addr:city": "CORRIGANVILLE", "addr:country": "US", "addr:postcode": "21524", "addr:state": "MD", "addr:street_address": "10810 KREIGHBAUM RD", "amenity": "post_box", "collection_times": "Mo-Fr 16:45; Sa 11:45", "indoor": "yes", "note": "ON 12/24 AND 12/31, THIS BOX MAY BE COLLECTED AS EARLY AS 12 NOON.", "nsi_id": "unitedstatespostalservice-a77078", "operator": "United States Postal Service", "operator:short": "USPS", "operator:type": "public", "operator:wikidata": "Q668687", "ref": "2152400002"}, "type": "Feature"}
{"geometry": {"coordinates": [-78.791998694, 39.693228623], "type": "Point"}, "id": "_keGWTbOeAwNqDl1fSVhxbPQuzA=", "properties": {"@source_uri": "https://tools.usps.com/UspsToolsRestServices/rest/POLocator/findLocations", "@spider": "usps_collection_boxes", "addr:city": "CORRIGANVILLE", "addr:country": "US", "addr:postcode": "21524", "addr:state": "MD", "addr:street_address": "10810 KREIGHBAUM RD", "amenity": "post_box", "collection_times": "Mo-Fr 16:45; Sa 11:30", "indoor": "yes", "note": "ON 12/24 AND 12/31, THIS BOX MAY BE COLLECTED AS EARLY AS 12 NOON.", "nsi_id": "unitedstatespostalservice-a77078", "operator": "United States Postal Service", "operator:short": "USPS", "operator:type": "public", "operator:wikidata": "Q668687", "ref": "2152400004"}, "type": "Feature"}
{"geometry": {"coordinates": [-78.9007949, 39.651692], "type": "Point"}, "id": "6EjutkjkYos-v4Uy9qbpKe21EVU=", "properties": {"@source_uri": "https://tools.usps.com/UspsToolsRestServices/rest/POLocator/findLocations", "@spider": "usps_collection_boxes", "addr:city": "ECKHART MINES", "addr:country": "US", "addr:postcode": "21528", "addr:state": "MD", "addr:street_address": "10501 ECKHART MINES ST", "amenity": "post_box", "collection_times": "Mo-Fr 16:00; Sa 11:00", "note": "ON 12/24 AND 12/31, THIS BOX MAY BE COLLECTED AS EARLY AS 12 NOON.", "nsi_id": "unitedstatespostalservice-a77078", "operator": "United States Postal Service", "operator:short": "USPS", "operator:type": "public", "operator:wikidata": "Q668687", "ref": "2152800000"}, "type": "Feature"}
{"geometry": {"coordinates": [-78.776166, 39.719111], "type": "Point"}, "id": "mMEzy6oZG4plQD3cgvfG3g2OWWE=", "properties": {"@source_uri": "https://tools.usps.com/UspsToolsRestServices/rest/POLocator/findLocations", "@spider": "usps_collection_boxes", "addr:city": "ELLERSLIE", "addr:country": "US", "addr:postcode": "21529", "addr:state": "MD", "addr:street_address": "14302 ELLERSLIE RD NW", "amenity": "post_box", "collection_times": "Mo-Fr 16:45; Sa 11:00", "note": "ON 12/24 AND 12/31, THIS BOX MAY BE COLLECTED AS EARLY AS 12 NOON.", "nsi_id": "unitedstatespostalservice-a77078", "operator": "United States Postal Service", "operator:short": "USPS", "operator:type": "public", "operator:wikidata": "Q668687", "ref": "2152900000"}, "type": "Feature"}
{"geometry": {"coordinates": [-78.776156, 39.719202], "type": "Point"}, "id": "QzxHJKUVRTbgN5lLFSrUZKapNgo=", "properties": {"@source_uri": "https://tools.usps.com/UspsToolsRestServices/rest/POLocator/findLocations", "@spider": "usps_collection_boxes", "addr:city": "ELLERSLIE", "addr:country": "US", "addr:postcode": "21529", "addr:state": "MD", "addr:street_address": "14302 ELLERSLIE RD NW", "amenity": "post_box", "collection_times": "Mo-Fr 16:45; Sa 11:00", "indoor": "yes", "note": "ON 12/24 AND 12/31, THIS BOX MAY BE COLLECTED AS EARLY AS 12 NOON.", "nsi_id": "unitedstatespostalservice-a77078", "operator": "United States Postal Service", "operator:short": "USPS", "operator:type": "public", "operator:wikidata": "Q668687", "ref": "2152900001"}, "type": "Feature"}
{"geometry": {"coordinates": [-78.776156, 39.719202], "type": "Point"}, "id": "PDjWZ1uRYLYhzH_51hnPYCt4rKE=", "properties": {"@source_uri": "https://tools.usps.com/UspsToolsRestServices/rest/POLocator/findLocations", "@spider": "usps_collection_boxes", "addr:city": "ELLERSLIE", "addr:country": "US", "addr:postcode": "21529", "addr:state": "MD", "addr:street_address": "14302 ELLERSLIE RD NW", "amenity": "post_box", "collection_times": "Mo-Fr 16:45; Sa 11:00", "indoor": "yes", "note": "ON 12/24 AND 12/31, THIS BOX MAY BE COLLECTED AS EARLY AS 12 NOON.", "nsi_id": "unitedstatespostalservice-a77078", "operator": "United States Postal Service", "operator:short": "USPS", "operator:type": "public", "operator:wikidata": "Q668687", "ref": "2152900002"}, "type": "Feature"}
{"geometry": {"coordinates": [-78.7761337662, 39.7191153482], "type": "Point"}, "id": "aBjP7VPHeStRA_iTbH7GUR7XXWQ=", "properties": {"@source_uri": "https://tools.usps.com/UspsToolsRestServices/rest/POLocator/findLocations", "@spider": "usps_collection_boxes", "addr:city": "ELLERSLIE", "addr:country": "US", "addr:postcode": "21529", "addr:state": "MD", "addr:street_address": "14302 ELLERSLIE RD NW", "amenity": "post_box", "collection_times": "Mo-Fr 16:45", "indoor": "yes", "note": "ON 12/24 AND 12/31, THIS BOX MAY BE COLLECTED AS EARLY AS 12 NOON.", "nsi_id": "unitedstatespostalservice-a77078", "operator": "United States Postal Service", "operator:short": "USPS", "operator:type": "public", "operator:wikidata": "Q668687", "ref": "2152900004"}, "type": "Feature"}
{"geometry": {"coordinates": [-78.571151239, 39.704308316], "type": "Point"}, "id": "JAo6MysLFNcVz55sW6oPiMuXsUw=", "properties": {"@source_uri": "https://tools.usps.com/UspsToolsRestServices/rest/POLocator/findLocations", "@spider": "usps_collection_boxes", "addr:city": "FLINTSTONE", "addr:country": "US", "addr:postcode": "21530", "addr:state": "MD", "addr:street_address": "21600 NATIONAL PIKE NE", "amenity": "post_box", "collection_times": "Mo-Fr 16:15; Sa 11:45", "note": "ON 12/24 AND 12/31, THIS BOX MAY BE COLLECTED AS EARLY AS 12 NOON.", "nsi_id": "unitedstatespostalservice-a77078", "operator": "United States Postal Service", "operator:short": "USPS", "operator:type": "public", "operator:wikidata": "Q668687", "ref": "2153000000"}, "type": "Feature"}
{"geometry": {"coordinates": [-78.6495435, 39.695982], "type": "Point"}, "id": "u8H8GiN11WQBUJDcdoT6uEZ9Zl4=", "properties": {"@source_uri": "https://tools.usps.com/UspsToolsRestServices/rest/POLocator/findLocations", "@spider": "usps_collection_boxes", "addr:city": "FLINTSTONE", "addr:country": "US", "addr:postcode": "21530", "addr:state": "MD", "addr:street_address": "12500 PLEASANT VALLEY RD NE", "amenity": "post_box", "collection_times": "Mo-Sa 10:00", "nsi_id": "unitedstatespostalservice-a77078", "operator": "United States Postal Service", "operator:short": "USPS", "operator:type": "public", "operator:wikidata": "Q668687", "ref": "2153000002"}, "type": "Feature"}
{"geometry": {"coordinates": [-78.571151239, 39.704308316], "type": "Point"}, "id": "lZW47e2zP7rVCYfRbInaY1NagCc=", "properties": {"@source_uri": "https://tools.usps.com/UspsToolsRestServices/rest/POLocator/findLocations", "@spider": "usps_collection_boxes", "addr:city": "FLINTSTONE", "addr:country": "US", "addr:postcode": "21530", "addr:state": "MD", "addr:street_address": "21600 NATIONAL PIKE NE", "amenity": "post_box", "collection_times": "Mo-Fr 16:15; Sa 11:45", "indoor": "yes", "note": "ON 12/24 AND 12/31, THIS BOX MAY BE COLLECTED AS EARLY AS 12 NOON.", "nsi_id": "unitedstatespostalservice-a77078", "operator": "United States Postal Service", "operator:short": "USPS", "operator:type": "public", "operator:wikidata": "Q668687", "ref": "2153000003"}, "type": "Feature"}
{"geometry": {"coordinates": [-78.571151239, 39.704308316], "type": "Point"}, "id": "SyAtMC4Zp7WFtcmilTqQkyeUYfY=", "properties": {"@source_uri": "https://tools.usps.com/UspsToolsRestServices/rest/POLocator/findLocations", "@spider": "usps_collection_boxes", "addr:city": "FLINTSTONE", "addr:country": "US", "addr:postcode": "21530", "addr:state": "MD", "addr:street_address": "21600 NATIONAL PIKE NE", "amenity": "post_box", "collection_times": "Mo-Fr 16:15; Sa 12:00", "indoor": "yes", "note": "ON 12/24 AND 12/31, THIS BOX MAY BE COLLECTED AS EARLY AS 12 NOON.", "nsi_id": "unitedstatespostalservice-a77078", "operator": "United States Postal Service", "operator:short": "USPS", "operator:type": "public", "operator:wikidata": "Q668687", "ref": "2153000005"}, "type": "Feature"}
{"geometry": {"coordinates": [-79.405160433, 39.664385853], "type": "Point"}, "id": "954gD1cIHDJ4vSFuVA3lZdjpnO0=", "properties": {"@source_uri": "https://tools.usps.com/UspsToolsRestServices/rest/POLocator/findLocations", "@spider": "usps_collection_boxes", "addr:city": "FRIENDSVILLE", "addr:country": "US", "addr:postcode": "21531", "addr:state": "MD", "addr:street_address": "836 1ST AVE", "amenity": "post_box", "collection_times": "Mo-Fr 16:00; Sa 12:00", "note": "ON 12/24 AND 12/31, THIS BOX MAY BE COLLECTED AS EARLY AS 12 NOON.", "nsi_id": "unitedstatespostalservice-a77078", "operator": "United States Postal Service", "operator:short": "USPS", "operator:type": "public", "operator:wikidata": "Q668687", "ref": "2153100000"}, "type": "Feature"}
{"geometry": {"coordinates": [-79.405160433, 39.664385853], "type": "Point"}, "id": "k_je9vMcUaElf8dU0n8vc60jMEk=", "properties": {"@source_uri": "https://tools.usps.com/UspsToolsRestServices/rest/POLocator/findLocations", "@spider": "usps_collection_boxes", "addr:city": "FRIENDSVILLE", "addr:country": "US", "addr:postcode": "21531", "addr:state": "MD", "addr:street_address": "836 1ST AVE", "amenity": "post_box", "collection_times": "Mo-Fr 16:00; Sa 11:45", "indoor": "yes", "note": "ON 12/24 AND 12/31, THIS BOX MAY BE COLLECTED AS EARLY AS 12 NOON.", "nsi_id": "unitedstatespostalservice-a77078", "operator": "United States Postal Service", "operator:short": "USPS", "operator:type": "public", "operator:wikidata": "Q668687", "ref": "2153100001"}, "type": "Feature"}
{"geometry": {"coordinates": [-79.405160433, 39.664385853], "type": "Point"}, "id": "WWGYTUUrtCqJYUTKaeG4ZHST-NM=", "properties": {"@source_uri": "https://tools.usps.com/UspsToolsRestServices/rest/POLocator/findLocations", "@spider": "usps_collection_boxes", "addr:city": "FRIENDSVILLE", "addr:country": "US", "addr:postcode": "21531", "addr:state": "MD", "addr:street_address": "836 1ST AVE", "amenity": "post_box", "collection_times": "Mo-Fr 16:00; Sa 11:45", "indoor": "yes", "note": "ON 12/24 AND 12/31, THIS BOX MAY BE COLLECTED AS EARLY AS 12 NOON.", "nsi_id": "unitedstatespostalservice-a77078", "operator": "United States Postal Service", "operator:short": "USPS", "operator:type": "public", "operator:wikidata": "Q668687", "ref": "2153100002"}, "type": "Feature"}
{"geometry": {"coordinates": [-79.405160433, 39.664385853], "type": "Point"}, "id": "0joNLRG80HhwJoi3Bq-QormhNPM=", "properties": {"@source_uri": "https://tools.usps.com/UspsToolsRestServices/rest/POLocator/findLocations", "@spider": "usps_collection_boxes", "addr:city": "FRIENDSVILLE", "addr:country": "US", "addr:postcode": "21531", "addr:state": "MD", "addr:street_address": "836 1ST AVE", "amenity": "post_box", "collection_times": "Mo-Fr 16:00; Sa 12:00", "indoor": "yes", "note": "ON 12/24 AND 12/31, THIS BOX MAY BE COLLECTED AS EARLY AS 12 NOON.", "nsi_id": "unitedstatespostalservice-a77078", "operator": "United States Postal Service", "operator:short": "USPS", "operator:type": "public", "operator:wikidata": "Q668687", "ref": "2153100004"}, "type": "Feature"}
{"geometry": {"coordinates": [-78.928831573, 39.658020537], "type": "Point"}, "id": "W3lzpdc0cICbetOrN8ZWX8xaVG8=", "properties": {"@source_uri": "https://tools.usps.com/UspsToolsRestServices/rest/POLocator/findLocations", "@spider": "usps_collection_boxes", "addr:city": "FROSTBURG", "addr:country": "US", "addr:postcode": "21532", "addr:state": "MD", "addr:street_address": "37 W MAIN ST", "amenity": "post_box", "collection_times": "Mo-Fr 17:00; Sa 16:15", "note": "ON 12/24 AND 12/31, THIS BOX MAY BE COLLECTED AS EARLY AS 12 NOON.", "nsi_id": "unitedstatespostalservice-a77078", "operator": "United States Postal Service", "operator:short": "USPS", "operator:type": "public", "operator:wikidata": "Q668687", "ref": "2153200000"}, "type": "Feature"}
{"geometry": {"coordinates": [-78.9198433, 39.652595], "type": "Point"}, "id": "9e5RgTwh2-3He7CLusJKKm4wK-w=", "properties": {"@source_uri": "https://tools.usps.com/UspsToolsRestServices/rest/POLocator/findLocations", "@spider": "usps_collection_boxes", "addr:city": "FROSTBURG", "addr:country": "US", "addr:postcode": "21532", "addr:state": "MD", "addr:street_address": "96 WASHINGTON ST", "amenity": "post_box", "collection_times": "Mo-Sa 10:00", "nsi_id": "unitedstatespostalservice-a77078", "operator": "United States Postal Service", "operator:short": "USPS", "operator:type": "public", "operator:wikidata": "Q668687", "ref": "2153200008"}, "type": "Feature"}
{"geometry": {"coordinates": [-78.9116506, 39.649363], "type": "Point"}, "id": "FISks8YmONk-7W51HpG5fXgqBBQ=", "properties": {"@source_uri": "https://tools.usps.com/UspsToolsRestServices/rest/POLocator/findLocations", "@spider": "usps_collection_boxes", "addr:city": "FROSTBURG", "addr:country": "US", "addr:postcode": "21532", "addr:state": "MD", "addr:street_address": "10601 NEW GEORGES CREEK RD SW", "amenity": "post_box", "collection_times": "Mo-Sa 16:00", "note": "ON 12/24 AND 12/31, THIS BOX MAY BE COLLECTED AS EARLY AS 12 NOON.", "nsi_id": "unitedstatespostalservice-a77078", "operator": "United States Postal Service", "operator:short": "USPS", "operator:type": "public", "operator:wikidata": "Q668687", "ref": "2153200011"}, "type": "Feature"}
{"geometry": {"coordinates": [-78.9109858, 39.647351], "type": "Point"}, "id": "FCVMSW3eBM-R1DB2_ZD-1USuM_I=", "properties": {"@source_uri": "https://tools.usps.com/UspsToolsRestServices/rest/POLocator/findLocations", "@spider": "usps_collection_boxes", "addr:city": "FROSTBURG", "addr:country": "US", "addr:postcode": "21532", "addr:state": "MD", "addr:street_address": "10701 NEW GEORGES CREEK RD SW", "amenity": "post_box", "collection_times": "Mo-Sa 16:00", "note": "ON 12/24 AND 12/31, THIS BOX MAY BE COLLECTED AS EARLY AS 12 NOON.", "nsi_id": "unitedstatespostalservice-a77078", "operator": "United States Postal Service", "operator:short": "USPS", "operator:type": "public", "operator:wikidata": "Q668687", "ref": "2153200012"}, "type": "Feature"}
{"geometry": {"coordinates": [-78.9209342, 39.654135], "type": "Point"}, "id": "J_dcpp-keG70CKdjlYLuAUytUSA=", "properties": {"@source_uri": "https://tools.usps.com/UspsToolsRestServices/rest/POLocator/findLocations", "@spider": "usps_collection_boxes", "addr:city": "FROSTBURG", "addr:country": "US", "addr:postcode": "21532", "addr:state": "MD", "addr:street_address": "215 E MAIN ST", "amenity": "post_box", "collection_times": "Mo-Sa 15:45", "note": "ON 12/24 AND 12/31, THIS BOX MAY BE COLLECTED AS EARLY AS 12 NOON.", "nsi_id": "unitedstatespostalservice-a77078", "operator": "United States Postal Service", "operator:short": "USPS", "operator:type": "public", "operator:wikidata": "Q668687", "ref": "2153200013"}, "type": "Feature"}
{"geometry": {"coordinates": [-78.9275986, 39.656893], "type": "Point"}, "id": "1suXzFeMSe5yy3VgRq3tYLT54sA=", "properties": {"@source_uri": "https://tools.usps.com/UspsToolsRestServices/rest/POLocator/findLocations", "@spider": "usps_collection_boxes", "addr:city": "FROSTBURG", "addr:country": "US", "addr:postcode": "21532", "addr:state": "MD", "addr:street_address": "27 E MAIN ST", "amenity": "post_box", "collection_times": "Mo-Sa 15:45", "note": "ON 12/24 AND 12/31, THIS BOX MAY BE COLLECTED AS EARLY AS 12 NOON.", "nsi_id": "unitedstatespostalservice-a77078", "operator": "United States Postal Service", "operator:short": "USPS", "operator:type": "public", "operator:wikidata": "Q668687", "ref": "2153200015"}, "type": "Feature"}
{"geometry": {"coordinates": [-78.9283034, 39.657398], "type": "Point"}, "id": "zQngmAD_l8TYzCxRlmN5j0pF7jc=", "properties": {"@source_uri": "https://tools.usps.com/UspsToolsRestServices/rest/POLocator/findLocations", "@spider": "usps_collection_boxes", "addr:city": "FROSTBURG", "addr:country": "US", "addr:postcode": "21532", "addr:state": "MD", "addr:street_address": "1 W MAIN ST", "amenity": "post_box", "collection_times": "Mo-Sa 15:45", "note": "ON 12/24 AND 12/31, THIS BOX MAY BE COLLECTED AS EARLY AS 12 NOON.", "nsi_id": "unitedstatespostalservice-a77078", "operator": "United States Postal Service", "operator:short": "USPS", "operator:type": "public", "operator:wikidata": "Q668687", "ref": "2153200018"}, "type": "Feature"}
{"geometry": {"coordinates": [-78.933933, 39.655002], "type": "Point"}, "id": "q73ohl2nmbbBWcXG7f86hjVkIso=", "properties": {"@source_uri": "https://tools.usps.com/UspsToolsRestServices/rest/POLocator/findLocations", "@spider": "usps_collection_boxes", "addr:city": "FROSTBURG", "addr:country": "US", "addr:postcode": "21532", "addr:state": "MD", "addr:street_address": "137 S WATER ST", "amenity": "post_box", "collection_times": "Mo-Sa 10:00", "nsi_id": "unitedstatespostalservice-a77078", "operator": "United States Postal Service", "operator:short": "USPS", "operator:type": "public", "operator:wikidata": "Q668687", "ref": "2153200019"}, "type": "Feature"}
{"geometry": {"coordinates": [-78.9353785, 39.651481], "type": "Point"}, "id": "Y1GMUdYVKiSEXQxpwaxtyE3cHTQ=", "properties": {"@source_uri": "https://tools.usps.com/UspsToolsRestServices/rest/POLocator/findLocations", "@spider": "usps_collection_boxes", "addr:city": "FROSTBURG", "addr:country": "US", "addr:postcode": "21532", "addr:state": "MD", "addr:street_address": "1 LOOP RD", "amenity": "post_box", "collection_times": "Mo-Sa 15:30", "note": "ON 12/24 AND 12/31, THIS BOX MAY BE COLLECTED AS EARLY AS 12 NOON.", "nsi_id": "unitedstatespostalservice-a77078", "operator": "United States Postal Service", "operator:short": "USPS", "operator:type": "public", "operator:wikidata": "Q668687", "ref": "2153200020"}, "type": "Feature"}
{"geometry": {"coordinates": [-78.9342585, 39.663796], "type": "Point"}, "id": "aPJfTHvXhSflAaIG3Y0k6Z9GSo8=", "properties": {"@source_uri": "https://tools.usps.com/UspsToolsRestServices/rest/POLocator/findLocations", "@spider": "usps_collection_boxes", "addr:city": "FROSTBURG", "addr:country": "US", "addr:postcode": "21532", "addr:state": "MD", "addr:street_address": "184 W MAIN ST", "amenity": "post_box", "collection_times": "Mo-Sa 10:00", "nsi_id": "unitedstatespostalservice-a77078", "operator": "United States Postal Service", "operator:short": "USPS", "operator:type": "public", "operator:wikidata": "Q668687", "ref": "2153200028"}, "type": "Feature"}
{"geometry": {"coordinates": [-78.9301284, 39.650531], "type": "Point"}, "id": "BhyJBGBCndRy6cRh6WMu0-cvuII=", "properties": {"@source_uri": "https://tools.usps.com/UspsToolsRestServices/rest/POLocator/findLocations", "@spider": "usps_collection_boxes", "addr:city": "FROSTBURG", "addr:country": "US", "addr:postcode": "21532", "addr:state": "MD", "addr:street_address": "1 STADIUM DR", "amenity": "post_box", "collection_times": "Mo-Sa 15:30", "note": "ON 12/24 AND 12/31, THIS BOX MAY BE COLLECTED AS EARLY AS 12 NOON.", "nsi_id": "unitedstatespostalservice-a77078", "operator": "United States Postal Service", "operator:short": "USPS", "operator:type": "public", "operator:wikidata": "Q668687", "ref": "2153200029"}, "type": "Feature"}
{"geometry": {"coordinates": [-78.928831573, 39.658020537], "type": "Point"}, "id": "z2IPgGsPf6U2Rd4Ph9KbcWNC62k=", "properties": {"@source_uri": "https://tools.usps.com/UspsToolsRestServices/rest/POLocator/findLocations", "@spider": "usps_collection_boxes", "addr:city": "FROSTBURG", "addr:country": "US", "addr:postcode": "21532", "addr:state": "MD", "addr:street_address": "37 W MAIN ST", "amenity": "post_box", "collection_times": "Mo-Fr 16:45; Sa 12:45", "indoor": "yes", "note": "ON 12/24 AND 12/31, THIS BOX MAY BE COLLECTED AS EARLY AS 12 NOON.", "nsi_id": "unitedstatespostalservice-a77078", "operator": "United States Postal Service", "operator:short": "USPS", "operator:type": "public", "operator:wikidata": "Q668687", "ref": "2153200031"}, "type": "Feature"}
{"geometry": {"coordinates": [-78.9072723, 39.645511], "type": "Point"}, "id": "ibFk-mE1J1nZoT687bTMeRRpCow=", "properties": {"@source_uri": "https://tools.usps.com/UspsToolsRestServices/rest/POLocator/findLocations", "@spider": "usps_collection_boxes", "addr:city": "FROSTBURG", "addr:country": "US", "addr:postcode": "21532", "addr:state": "MD", "addr:street_address": "1 KAYLOR CIR", "amenity": "post_box", "collection_times": "Mo-Sa 16:00", "note": "ON 12/24 AND 12/31, THIS BOX MAY BE COLLECTED AS EARLY AS 12 NOON.", "nsi_id": "unitedstatespostalservice-a77078", "operator": "United States Postal Service", "operator:short": "USPS", "operator:type": "public", "operator:wikidata": "Q668687", "ref": "2153200034"}, "type": "Feature"}
{"geometry": {"coordinates": [-78.9063759, 39.645565], "type": "Point"}, "id": "qCIaSOKX7MgAS3LFATKALc4bFDw=", "properties": {"@source_uri": "https://tools.usps.com/UspsToolsRestServices/rest/POLocator/findLocations", "@spider": "usps_collection_boxes", "addr:city": "FROSTBURG", "addr:country": "US", "addr:postcode": "21532", "addr:state": "MD", "addr:street_address": "100 HONEYSUCKLE LN", "amenity": "post_box", "collection_times": "Mo-Sa 16:00", "note": "ON 12/24 AND 12/31, THIS BOX MAY BE COLLECTED AS EARLY AS 12 NOON.", "nsi_id": "unitedstatespostalservice-a77078", "operator": "United States Postal Service", "operator:short": "USPS", "operator:type": "public", "operator:wikidata": "Q668687", "ref": "2153200035"}, "type": "Feature"}
{"geometry": {"coordinates": [-78.950164, 39.590611], "type": "Point"}, "id": "a83V91gYpzzaYKWRqZa7ZrGElY0=", "properties": {"@source_uri": "https://tools.usps.com/UspsToolsRestServices/rest/POLocator/findLocations", "@spider": "usps_collection_boxes", "addr:city": "FROSTBURG", "addr:country": "US", "addr:postcode": "21532", "addr:state": "MD", "addr:street_address": "14811 BROADWAY AVE APT A", "amenity": "post_box", "collection_times": "Mo-Sa 12:00", "nsi_id": "unitedstatespostalservice-a77078", "operator": "United States Postal Service", "operator:short": "USPS", "operator:type": "public", "operator:wikidata": "Q668687", "ref": "2153200040"}, "type": "Feature"}
{"geometry": {"coordinates": [-78.928831573, 39.658020537], "type": "Point"}, "id": "uDJC8UrM-IrKYmxKI9r6xJnpHRc=", "properties": {"@source_uri": "https://tools.usps.com/UspsToolsRestServices/rest/POLocator/findLocations", "@spider": "usps_collection_boxes", "addr:city": "FROSTBURG", "addr:country": "US", "addr:postcode": "21532", "addr:state": "MD", "addr:street_address": "37 W MAIN ST", "amenity": "post_box", "collection_times": "Mo-Fr 17:00; Sa 12:00", "indoor": "yes", "note": "ON 12/24 AND 12/31, THIS BOX MAY BE COLLECTED AS EARLY AS 12 NOON.", "nsi_id": "unitedstatespostalservice-a77078", "operator": "United States Postal Service", "operator:short": "USPS", "operator:type": "public", "operator:wikidata": "Q668687", "ref": "2153200041"}, "type": "Feature"}
{"geometry": {"coordinates": [-79.156795129, 39.696902118], "type": "Point"}, "id": "NLmvfjfA9yb-CBlvDx_F0X8jKnY=", "properties": {"@source_uri": "https://tools.usps.com/UspsToolsRestServices/rest/POLocator/findLocations", "@spider": "usps_collection_boxes", "addr:city": "GRANTSVILLE", "addr:country": "US", "addr:postcode": "21536", "addr:state": "MD", "addr:street_address": "159 MAIN ST", "amenity": "post_box", "collection_times": "Mo-Fr 16:45; Sa 12:00", "note": "ON 12/24 AND 12/31, THIS BOX MAY BE COLLECTED AS EARLY AS 12 NOON.", "nsi_id": "unitedstatespostalservice-a77078", "operator": "United States Postal Service", "operator:short": "USPS", "operator:type": "public", "operator:wikidata": "Q668687", "ref": "2153600000"}, "type": "Feature"}
{"geometry": {"coordinates": [-79.0998409, 39.696517], "type": "Point"}, "id": "MabuWOC9zZtSNfxTCkomuekCymU=", "properties": {"@source_uri": "https://tools.usps.com/UspsToolsRestServices/rest/POLocator/findLocations", "@spider": "usps_collection_boxes", "addr:city": "GRANTSVILLE", "addr:country": "US", "addr:postcode": "21536", "addr:state": "MD", "addr:street_address": "3227 CHESTNUT RIDGE RD", "amenity": "post_box", "collection_times": "Mo-Fr 13:00; Sa 12:00", "note": "ON 12/24 AND 12/31, THIS BOX MAY BE COLLECTED AS EARLY AS 12 NOON.", "nsi_id": "unitedstatespostalservice-a77078", "operator": "United States Postal Service", "operator:short": "USPS", "operator:type": "public", "operator:wikidata": "Q668687", "ref": "2153600001"}, "type": "Feature"}
{"geometry": {"coordinates": [-79.156795129, 39.696902118], "type": "Point"}, "id": "XvxQQUFhx0MPJZLV6W0_5WRruHs=", "properties": {"@source_uri": "https://tools.usps.com/UspsToolsRestServices/rest/POLocator/findLocations", "@spider": "usps_collection_boxes", "addr:city": "GRANTSVILLE", "addr:country": "US", "addr:postcode": "21536", "addr:state": "MD", "addr:street_address": "159 MAIN ST", "amenity": "post_box", "collection_times": "Mo-Fr 16:15; Sa 11:45", "indoor": "yes", "note": "ON 12/24 AND 12/31, THIS BOX MAY BE COLLECTED AS EARLY AS 12 NOON.", "nsi_id": "unitedstatespostalservice-a77078", "operator": "United States Postal Service", "operator:short": "USPS", "operator:type": "public", "operator:wikidata": "Q668687", "ref": "2153600004"}, "type": "Feature"}
{"geometry": {"coordinates": [-79.156795129, 39.696902118], "type": "Point"}, "id": "SS8Oxek7JIOnq5CIURL4hg2u49g=", "properties": {"@source_uri": "https://tools.usps.com/UspsToolsRestServices/rest/POLocator/findLocations", "@spider": "usps_collection_boxes", "addr:city": "GRANTSVILLE", "addr:country": "US", "addr:postcode": "21536", "addr:state": "MD", "addr:street_address": "159 MAIN ST", "amenity": "post_box", "collection_times": "Mo-Fr 16:15; Sa 11:45", "indoor": "yes", "note": "ON 12/24 AND 12/31, THIS BOX MAY BE COLLECTED AS EARLY AS 12 NOON.", "nsi_id": "unitedstatespostalservice-a77078", "operator": "United States Postal Service", "operator:short": "USPS", "operator:type": "public", "operator:wikidata": "Q668687", "ref": "2153600005"}, "type": "Feature"}
{"geometry": {"coordinates": [-79.156795129, 39.696902118], "type": "Point"}, "id": "qJ4GU_hi-TpkWfSNpwejNd9-o48=", "properties": {"@source_uri": "https://tools.usps.com/UspsToolsRestServices/rest/POLocator/findLocations", "@spider": "usps_collection_boxes", "addr:city": "GRANTSVILLE", "addr:country": "US", "addr:postcode": "21536", "addr:state": "MD", "addr:street_address": "159 MAIN ST", "amenity": "post_box", "collection_times": "Mo-Fr 16:30; Sa 12:00", "indoor": "yes", "note": "ON 12/24 AND 12/31, THIS BOX MAY BE COLLECTED AS EARLY AS 12 NOON.", "nsi_id": "unitedstatespostalservice-a77078", "operator": "United States Postal Service", "operator:short": "USPS", "operator:type": "public", "operator:wikidata": "Q668687", "ref": "2153600007"}, "type": "Feature"}
{"geometry": {"coordinates": [-79.182202122, 39.387042973], "type": "Point"}, "id": "cU-bjp-BrtHjOv3m6rU55pF9rfA=", "properties": {"@source_uri": "https://tools.usps.com/UspsToolsRestServices/rest/POLocator/findLocations", "@spider": "usps_collection_boxes", "addr:city": "KITZMILLER", "addr:country": "US", "addr:postcode": "21538", "addr:state": "MD", "addr:street_address": "103 W CENTER ST", "amenity": "post_box", "collection_times": "Mo-Fr 16:00; Sa 10:00", "note": "ON 12/24 AND 12/31, THIS BOX MAY BE COLLECTED AS EARLY AS 12 NOON.", "nsi_id": "unitedstatespostalservice-a77078", "operator": "United States Postal Service", "operator:short": "USPS", "operator:type": "public", "operator:wikidata": "Q668687", "ref": "2153800000"}, "type": "Feature"}
{"geometry": {"coordinates": [-79.182202122, 39.387042973], "type": "Point"}, "id": "00nbJl1Y04edBrzMCBH3J_uP1Nw=", "properties": {"@source_uri": "https://tools.usps.com/UspsToolsRestServices/rest/POLocator/findLocations", "@spider": "usps_collection_boxes", "addr:city": "KITZMILLER", "addr:country": "US", "addr:postcode": "21538", "addr:state": "MD", "addr:street_address": "103 W CENTER ST", "amenity": "post_box", "collection_times": "Mo-Fr 16:15; Sa 10:00", "indoor": "yes", "note": "ON 12/24 AND 12/31, THIS BOX MAY BE COLLECTED AS EARLY AS 12 NOON.", "nsi_id": "unitedstatespostalservice-a77078", "operator": "United States Postal Service", "operator:short": "USPS", "operator:type": "public", "operator:wikidata": "Q668687", "ref": "2153800001"}, "type": "Feature"}
{"geometry": {"coordinates": [-79.182202122, 39.387042973], "type": "Point"}, "id": "ZSyBhQ2GR6DFzIAKrBkZko_HHGw=", "properties": {"@source_uri": "https://tools.usps.com/UspsToolsRestServices/rest/POLocator/findLocations", "@spider": "usps_collection_boxes", "addr:city": "KITZMILLER", "addr:country": "US", "addr:postcode": "21538", "addr:state": "MD", "addr:street_address": "103 W CENTER ST", "amenity": "post_box", "collection_times": "Mo-Fr 16:15; Sa 10:00", "indoor": "yes", "note": "ON 12/24 AND 12/31, THIS BOX MAY BE COLLECTED AS EARLY AS 12 NOON.", "nsi_id": "unitedstatespostalservice-a77078", "operator": "United States Postal Service", "operator:short": "USPS", "operator:type": "public", "operator:wikidata": "Q668687", "ref": "2153800002"}, "type": "Feature"}
{"geometry": {"coordinates": [-79.182202122, 39.387042973], "type": "Point"}, "id": "pxO9muITIOh5ujJKpGWa8k5tWwM=", "properties": {"@source_uri": "https://tools.usps.com/UspsToolsRestServices/rest/POLocator/findLocations", "@spider": "usps_collection_boxes", "addr:city": "KITZMILLER", "addr:country": "US", "addr:postcode": "21538", "addr:state": "MD", "addr:street_address": "103 W CENTER ST", "amenity": "post_box", "collection_times": "Mo-Fr 16:00", "indoor": "yes", "note": "ON 12/24 AND 12/31, THIS BOX MAY BE COLLECTED AS EARLY AS 12 NOON.", "nsi_id": "unitedstatespostalservice-a77078", "operator": "United States Postal Service", "operator:short": "USPS", "operator:type": "public", "operator:wikidata": "Q668687", "ref": "2153800004"}, "type": "Feature"}
{"geometry": {"coordinates": [-78.979088648, 39.568063353], "type": "Point"}, "id": "u5P8mSX0ATjZTfElCmH2dMGGk9o=", "properties": {"@source_uri": "https://tools.usps.com/UspsToolsRestServices/rest/POLocator/findLocations", "@spider": "usps_collection_boxes", "addr:city": "LONACONING", "addr:country": "US", "addr:postcode": "21539", "addr:state": "MD", "addr:street_address": "9 E MAIN ST", "amenity": "post_box", "collection_times": "Mo-Fr 16:30; Sa 15:30", "note": "ON 12/24 AND 12/31, THIS BOX MAY BE COLLECTED AS EARLY AS 12 NOON.", "nsi_id": "unitedstatespostalservice-a77078", "operator": "United States Postal Service", "operator:short": "USPS", "operator:type": "public", "operator:wikidata": "Q668687", "ref": "2153900000"}, "type": "Feature"}
{"geometry": {"coordinates": [-78.9804919, 39.565765], "type": "Point"}, "id": "OgrGVsqnCLEJu1k4rhkc0uGNxsI=", "properties": {"@source_uri": "https://tools.usps.com/UspsToolsRestServices/rest/POLocator/findLocations", "@spider": "usps_collection_boxes", "addr:city": "LONACONING", "addr:country": "US", "addr:postcode": "21539", "addr:state": "MD", "addr:street_address": "8 UNION ST", "amenity": "post_box", "collection_times": "Mo-Sa 11:00", "nsi_id": "unitedstatespostalservice-a77078", "operator": "United States Postal Service", "operator:short": "USPS", "operator:type": "public", "operator:wikidata": "Q668687", "ref": "2153900001"}, "type": "Feature"}
{"geometry": {"coordinates": [-78.9776649, 39.569604], "type": "Point"}, "id": "NxEozyntry6hlx6-fJlY8cUrkDk=", "properties": {"@source_uri": "https://tools.usps.com/UspsToolsRestServices/rest/POLocator/findLocations", "@spider": "usps_collection_boxes", "addr:city": "LONACONING", "addr:country": "US", "addr:postcode": "21539", "addr:state": "MD", "addr:street_address": "35 E MAIN ST", "amenity": "post_box", "collection_times": "Mo-Sa 14:15", "note": "ON 12/24 AND 12/31, THIS BOX MAY BE COLLECTED AS EARLY AS 12 NOON.", "nsi_id": "unitedstatespostalservice-a77078", "operator": "United States Postal Service", "operator:short": "USPS", "operator:type": "public", "operator:wikidata": "Q668687", "ref": "2153900002"}, "type": "Feature"}
{"geometry": {"coordinates": [-78.9788516, 39.563483], "type": "Point"}, "id": "vocinjnZSFky-_sdMyPiv0jsQmM=", "properties": {"@source_uri": "https://tools.usps.com/UspsToolsRestServices/rest/POLocator/findLocations", "@spider": "usps_collection_boxes", "addr:city": "LONACONING", "addr:country": "US", "addr:postcode": "21539", "addr:state": "MD", "addr:street_address": "47 JACKSON ST", "amenity": "post_box", "collection_times": "Mo-Sa 10:00", "nsi_id": "unitedstatespostalservice-a77078", "operator": "United States Postal Service", "operator:short": "USPS", "operator:type": "public", "operator:wikidata": "Q668687", "ref": "2153900007"}, "type": "Feature"}
{"geometry": {"coordinates": [-78.977575, 39.5679554], "type": "Point"}, "id": "26aUuLl-PXmyuRRADuNQvRxpeYA=", "properties": {"@source_uri": "https://tools.usps.com/UspsToolsRestServices/rest/POLocator/findLocations", "@spider": "usps_collection_boxes", "addr:city": "LONACONING", "addr:country": "US", "addr:postcode": "21539", "addr:state": "MD", "addr:street_address": "35 MAIN ST", "amenity": "post_box", "collection_times": "Mo-Sa 11:15", "nsi_id": "unitedstatespostalservice-a77078", "operator": "United States Postal Service", "operator:short": "USPS", "operator:type": "public", "operator:wikidata": "Q668687", "ref": "2153900008"}, "type": "Feature"}
{"geometry": {"coordinates": [-78.9826327, 39.569212], "type": "Point"}, "id": "eSsnVHk-LaA4zgN95Ez-4YGj1kk=", "properties": {"@source_uri": "https://tools.usps.com/UspsToolsRestServices/rest/POLocator/findLocations", "@spider": "usps_collection_boxes", "addr:city": "LONACONING", "addr:country": "US", "addr:postcode": "21539", "addr:state": "MD", "addr:street_address": "60 DOUGLAS AVE", "amenity": "post_box", "collection_times": "Mo-Sa 09:15", "nsi_id": "unitedstatespostalservice-a77078", "operator": "United States Postal Service", "operator:short": "USPS", "operator:type": "public", "operator:wikidata": "Q668687", "ref": "2153900009"}, "type": "Feature"}
{"geometry": {"coordinates": [-78.979088648, 39.568063353], "type": "Point"}, "id": "SpxeSpujaqwbMIw12u8SiW5Ze0o=", "properties": {"@source_uri": "https://tools.usps.com/UspsToolsRestServices/rest/POLocator/findLocations", "@spider": "usps_collection_boxes", "addr:city": "LONACONING", "addr:country": "US", "addr:postcode": "21539", "addr:state": "MD", "addr:street_address": "9 E MAIN ST", "amenity": "post_box", "collection_times": "Mo-Fr 16:00; Sa 15:30", "indoor": "yes", "note": "ON 12/24 AND 12/31, THIS BOX MAY BE COLLECTED AS EARLY AS 12 NOON.", "nsi_id": "unitedstatespostalservice-a77078", "operator": "United States Postal Service", "operator:short": "USPS", "operator:type": "public", "operator:wikidata": "Q668687", "ref": "2153900011"}, "type": "Feature"}
{"geometry": {"coordinates": [-78.979088648, 39.568063353], "type": "Point"}, "id": "0GllBE3eXdV2QYUHCFnjKTHp1do=", "properties": {"@source_uri": "https://tools.usps.com/UspsToolsRestServices/rest/POLocator/findLocations", "@spider": "usps_collection_boxes", "addr:city": "LONACONING", "addr:country": "US", "addr:postcode": "21539", "addr:state": "MD", "addr:street_address": "9 E MAIN ST", "amenity": "post_box", "collection_times": "Mo-Fr 16:30", "indoor": "yes", "note": "ON 12/24 AND 12/31, THIS BOX MAY BE COLLECTED AS EARLY AS 12 NOON.", "nsi_id": "unitedstatespostalservice-a77078", "operator": "United States Postal Service", "operator:short": "USPS", "operator:type": "public", "operator:wikidata": "Q668687", "ref": "2153900014"}, "type": "Feature"}
{"geometry": {"coordinates": [-79.352164804, 39.555780663], "type": "Point"}, "id": "SY1qpndR8xOfstsk8jCBc3r_Q4E=", "properties": {"@source_uri": "https://tools.usps.com/UspsToolsRestServices/rest/POLocator/findLocations", "@spider": "usps_collection_boxes", "addr:city": "MC HENRY", "addr:country": "US", "addr:postcode": "21541", "addr:state": "MD", "addr:street_address": "1914 DEEP CREEK DR", "amenity": "post_box", "collection_times": "Mo-Fr 16:00; Sa 11:30", "note": "ON 12/24 AND 12/31, THIS BOX MAY BE COLLECTED AS EARLY AS 12 NOON.", "nsi_id": "unitedstatespostalservice-a77078", "operator": "United States Postal Service", "operator:short": "USPS", "operator:type": "public", "operator:wikidata": "Q668687", "ref": "2154100000"}, "type": "Feature"}
{"geometry": {"coordinates": [-79.352164804, 39.555780663], "type": "Point"}, "id": "sw1wmmxvmx0XfVzprfkdiDHkZ6Y=", "properties": {"@source_uri": "https://tools.usps.com/UspsToolsRestServices/rest/POLocator/findLocations", "@spider": "usps_collection_boxes", "addr:city": "MC HENRY", "addr:country": "US", "addr:postcode": "21541", "addr:state": "MD", "addr:street_address": "1914 DEEP CREEK DR", "amenity": "post_box", "collection_times": "Mo-Fr 16:00; Sa 11:45", "indoor": "yes", "note": "ON 12/24 AND 12/31, THIS BOX MAY BE COLLECTED AS EARLY AS 12 NOON.", "nsi_id": "unitedstatespostalservice-a77078", "operator": "United States Postal Service", "operator:short": "USPS", "operator:type": "public", "operator:wikidata": "Q668687", "ref": "2154100002"}, "type": "Feature"}
{"geometry": {"coordinates": [-79.352164804, 39.555780663], "type": "Point"}, "id": "j9fHWKnoVzOVeJ7VbNkdxRr7JCA=", "properties": {"@source_uri": "https://tools.usps.com/UspsToolsRestServices/rest/POLocator/findLocations", "@spider": "usps_collection_boxes", "addr:city": "MC HENRY", "addr:country": "US", "addr:postcode": "21541", "addr:state": "MD", "addr:street_address": "1914 DEEP CREEK DR", "amenity": "post_box", "collection_times": "Mo-Fr 16:00; Sa 11:45", "indoor": "yes", "note": "ON 12/24 AND 12/31, THIS BOX MAY BE COLLECTED AS EARLY AS 12 NOON.", "nsi_id": "unitedstatespostalservice-a77078", "operator": "United States Postal Service", "operator:short": "USPS", "operator:type": "public", "operator:wikidata": "Q668687", "ref": "2154100003"}, "type": "Feature"}
{"geometry": {"coordinates": [-79.3559994, 39.562771], "type": "Point"}, "id": "2228RBPHC5_mhCdsfZ9tGPUNb-c=", "properties": {"@source_uri": "https://tools.usps.com/UspsToolsRestServices/rest/POLocator/findLocations", "@spider": "usps_collection_boxes", "addr:city": "MC HENRY", "addr:country": "US", "addr:postcode": "21541", "addr:state": "MD", "addr:street_address": "24586 GARRETT HWY", "amenity": "post_box", "collection_times": "Mo-Sa 10:15", "nsi_id": "unitedstatespostalservice-a77078", "operator": "United States Postal Service", "operator:short": "USPS", "operator:type": "public", "operator:wikidata": "Q668687", "ref": "2154100004"}, "type": "Feature"}
{"geometry": {"coordinates": [-79.352164804, 39.555780663], "type": "Point"}, "id": "Mu038uwn5od4w1ITpFtcJPYFJVc=", "properties": {"@source_uri": "https://tools.usps.com/UspsToolsRestServices/rest/POLocator/findLocations", "@spider": "usps_collection_boxes", "addr:city": "MC HENRY", "addr:country": "US", "addr:postcode": "21541", "addr:state": "MD", "addr:street_address": "1914 DEEP CREEK DR", "amenity": "post_box", "collection_times": "Mo-Fr 16:00; Sa 12:00", "indoor": "yes", "note": "ON 12/24 AND 12/31, THIS BOX MAY BE COLLECTED AS EARLY AS 12 NOON.", "nsi_id": "unitedstatespostalservice-a77078", "operator": "United States Postal Service", "operator:short": "USPS", "operator:type": "public", "operator:wikidata": "Q668687", "ref": "2154100007"}, "type": "Feature"}
{"geometry": {"coordinates": [-78.951566683, 39.634318629], "type": "Point"}, "id": "XyS54ZDUxRUyBegqKAKD3vb3gdQ=", "properties": {"@source_uri": "https://tools.usps.com/UspsToolsRestServices/rest/POLocator/findLocations", "@spider": "usps_collection_boxes", "addr:city": "MIDLOTHIAN", "addr:country": "US", "addr:postcode": "21543", "addr:state": "MD", "addr:street_address": "19911 OLD MIDLOTHIAN RD SW", "amenity": "post_box", "collection_times": "Mo-Fr 16:45; Sa 12:00", "note": "ON 12/24 AND 12/31, THIS BOX MAY BE COLLECTED AS EARLY AS 12 NOON.", "nsi_id": "unitedstatespostalservice-a77078", "operator": "United States Postal Service", "operator:short": "USPS", "operator:type": "public", "operator:wikidata": "Q668687", "ref": "2154300000"}, "type": "Feature"}
{"geometry": {"coordinates": [-78.951566683, 39.634318629], "type": "Point"}, "id": "f9AukcaCx5NWq4j14ALSDGYXn5Q=", "properties": {"@source_uri": "https://tools.usps.com/UspsToolsRestServices/rest/POLocator/findLocations", "@spider": "usps_collection_boxes", "addr:city": "MIDLOTHIAN", "addr:country": "US", "addr:postcode": "21543", "addr:state": "MD", "addr:street_address": "19911 OLD MIDLOTHIAN RD SW", "amenity": "post_box", "collection_times": "Mo-Fr 16:45; Sa 11:45", "indoor": "yes", "note": "ON 12/24 AND 12/31, THIS BOX MAY BE COLLECTED AS EARLY AS 12 NOON.", "nsi_id": "unitedstatespostalservice-a77078", "operator": "United States Postal Service", "operator:short": "USPS", "operator:type": "public", "operator:wikidata": "Q668687", "ref": "2154300001"}, "type": "Feature"}
{"geometry": {"coordinates": [-78.951566683, 39.634318629], "type": "Point"}, "id": "vnHqPsqtVAgzdqiH2smGPmDWFAc=", "properties": {"@source_uri": "https://tools.usps.com/UspsToolsRestServices/rest/POLocator/findLocations", "@spider": "usps_collection_boxes", "addr:city": "MIDLOTHIAN", "addr:country": "US", "addr:postcode": "21543", "addr:state": "MD", "addr:street_address": "19911 OLD MIDLOTHIAN RD SW", "amenity": "post_box", "collection_times": "Mo-Fr 16:45; Sa 11:30", "indoor": "yes", "note": "ON 12/24 AND 12/31, THIS BOX MAY BE COLLECTED AS EARLY AS 12 NOON.", "nsi_id": "unitedstatespostalservice-a77078", "operator": "United States Postal Service", "operator:short": "USPS", "operator:type": "public", "operator:wikidata": "Q668687", "ref": "2154300004"}, "type": "Feature"}
{"geometry": {"coordinates": [-78.881153465, 39.695718861], "type": "Point"}, "id": "hGkPBLGP5rh0bEbkxkOWU8pkGrU=", "properties": {"@source_uri": "https://tools.usps.com/UspsToolsRestServices/rest/POLocator/findLocations", "@spider": "usps_collection_boxes", "addr:city": "MOUNT SAVAGE", "addr:country": "US", "addr:postcode": "21545", "addr:state": "MD", "addr:street_address": "12700 NEW SCHOOL RD NW", "amenity": "post_box", "collection_times": "Mo-Fr 16:15; Sa 11:45", "note": "ON 12/24 AND 12/31, THIS BOX MAY BE COLLECTED AS EARLY AS 12 NOON.", "nsi_id": "unitedstatespostalservice-a77078", "operator": "United States Postal Service", "operator:short": "USPS", "operator:type": "public", "operator:wikidata": "Q668687", "ref": "2154500000"}, "type": "Feature"}
{"geometry": {"coordinates": [-78.881153465, 39.695718861], "type": "Point"}, "id": "qGr1Hm9zFfMCe5rbGH8e_7CiP1Y=", "properties": {"@source_uri": "https://tools.usps.com/UspsToolsRestServices/rest/POLocator/findLocations", "@spider": "usps_collection_boxes", "addr:city": "MOUNT SAVAGE", "addr:country": "US", "addr:postcode": "21545", "addr:state": "MD", "addr:street_address": "12700 NEW SCHOOL RD NW", "amenity": "post_box", "collection_times": "Mo-Fr 16:15; Sa 11:45", "indoor": "yes", "note": "ON 12/24 AND 12/31, THIS BOX MAY BE COLLECTED AS EARLY AS 12 NOON.", "nsi_id": "unitedstatespostalservice-a77078", "operator": "United States Postal Service", "operator:short": "USPS", "operator:type": "public", "operator:wikidata": "Q668687", "ref": "2154500001"}, "type": "Feature"}
{"geometry": {"coordinates": [-78.881153465, 39.695718861], "type": "Point"}, "id": "gHrTrbL5VbGVbPoVZNoAOAzlYWg=", "properties": {"@source_uri": "https://tools.usps.com/UspsToolsRestServices/rest/POLocator/findLocations", "@spider": "usps_collection_boxes", "addr:city": "MOUNT SAVAGE", "addr:country": "US", "addr:postcode": "21545", "addr:state": "MD", "addr:street_address": "12700 NEW SCHOOL RD NW", "amenity": "post_box", "collection_times": "Mo-Fr 16:30; Sa 11:30", "indoor": "yes", "note": "ON 12/24 AND 12/31, THIS BOX MAY BE COLLECTED AS EARLY AS 12 NOON.", "nsi_id": "unitedstatespostalservice-a77078", "operator": "United States Postal Service", "operator:short": "USPS", "operator:type": "public", "operator:wikidata": "Q668687", "ref": "2154500003"}, "type": "Feature"}
{"geometry": {"coordinates": [-79.407291743, 39.410032296], "type": "Point"}, "id": "4ZfSyrpDcDteJpq7EsKxb2rzdUE=", "properties": {"@source_uri": "https://tools.usps.com/UspsToolsRestServices/rest/POLocator/findLocations", "@spider": "usps_collection_boxes", "addr:city": "OAKLAND", "addr:country": "US", "addr:postcode": "21550", "addr:state": "MD", "addr:street_address": "22 S 2ND ST", "amenity": "post_box", "collection_times": "Mo-Fr 17:00; Sa 13:00", "note": "ON 12/24 AND 12/31, THIS BOX MAY BE COLLECTED AS EARLY AS 12 NOON.", "nsi_id": "unitedstatespostalservice-a77078", "operator": "United States Postal Service", "operator:short": "USPS", "operator:type": "public", "operator:wikidata": "Q668687", "ref": "2155000001"}, "type": "Feature"}
{"geometry": {"coordinates": [-79.4080064, 39.411706], "type": "Point"}, "id": "jANph5n-jBXnc56Zj-2FxlQnXpY=", "properties": {"@source_uri": "https://tools.usps.com/UspsToolsRestServices/rest/POLocator/findLocations", "@spider": "usps_collection_boxes", "addr:city": "OAKLAND", "addr:country": "US", "addr:postcode": "21550", "addr:state": "MD", "addr:street_address": "104 E CENTER ST", "amenity": "post_box", "collection_times": "Mo-Fr 16:15; Sa 12:15", "note": "ON 12/24 AND 12/31, THIS BOX MAY BE COLLECTED AS EARLY AS 12 NOON.", "nsi_id": "unitedstatespostalservice-a77078", "operator": "United States Postal Service", "operator:short": "USPS", "operator:type": "public", "operator:wikidata": "Q668687", "ref": "2155000005"}, "type": "Feature"}
{"geometry": {"coordinates": [-79.374115723, 39.396005432], "type": "Point"}, "id": "je8HOU4sYLCg5Z2XuVPNrJhS7m8=", "properties": {"@source_uri": "https://tools.usps.com/UspsToolsRestServices/rest/POLocator/findLocations", "@spider": "usps_collection_boxes", "addr:city": "OAKLAND", "addr:country": "US", "addr:postcode": "21550", "addr:state": "MD", "addr:street_address": "1325 MARYLAND HWY", "amenity": "post_box", "collection_times": "Mo-Fr 16:30; Sa 12:30", "note": "ON 12/24 AND 12/31, THIS BOX MAY BE COLLECTED AS EARLY AS 12 NOON.", "nsi_id": "unitedstatespostalservice-a77078", "operator": "United States Postal Service", "operator:short": "USPS", "operator:type": "public", "operator:wikidata": "Q668687", "ref": "2155000008"}, "type": "Feature"}
{"geometry": {"coordinates": [-79.4064553, 39.407291], "type": "Point"}, "id": "vuMFNSsDyxyc9OqVhWLFFfetUwE=", "properties": {"@source_uri": "https://tools.usps.com/UspsToolsRestServices/rest/POLocator/findLocations", "@spider": "usps_collection_boxes", "addr:city": "OAKLAND", "addr:country": "US", "addr:postcode": "21550", "addr:state": "MD", "addr:street_address": "313 E ALDER ST", "amenity": "post_box", "collection_times": "Mo-Fr 16:45; Sa 12:45", "note": "ON 12/24 AND 12/31, THIS BOX MAY BE COLLECTED AS EARLY AS 12 NOON.", "nsi_id": "unitedstatespostalservice-a77078", "operator": "United States Postal Service", "operator:short": "USPS", "operator:type": "public", "operator:wikidata": "Q668687", "ref": "2155000010"}, "type": "Feature"}
{"geometry": {"coordinates": [-79.3255552, 39.503781], "type": "Point"}, "id": "0kONVyWuskoY4MEDgtdYZSWsxXM=", "properties": {"@source_uri": "https://tools.usps.com/UspsToolsRestServices/rest/POLocator/findLocations", "@spider": "usps_collection_boxes", "addr:city": "OAKLAND", "addr:country": "US", "addr:postcode": "21550", "addr:state": "MD", "addr:street_address": "19746 GARRETT HWY", "amenity": "post_box", "collection_times": "Mo-Sa 10:00", "nsi_id": "unitedstatespostalservice-a77078", "operator": "United States Postal Service", "operator:short": "USPS", "operator:type": "public", "operator:wikidata": "Q668687", "ref": "2155000017"}, "type": "Feature"}
{"geometry": {"coordinates": [-79.4081807, 39.408229], "type": "Point"}, "id": "-Na_8tZo37yDRe1nfgztnfvsQRU=", "properties": {"@source_uri": "https://tools.usps.com/UspsToolsRestServices/rest/POLocator/findLocations", "@spider": "usps_collection_boxes", "addr:city": "OAKLAND", "addr:country": "US", "addr:postcode": "21550", "addr:state": "MD", "addr:street_address": "200 S 2ND ST", "amenity": "post_box", "collection_times": "Mo-Fr 16:15; Sa 12:15", "note": "ON 12/24 AND 12/31, THIS BOX MAY BE COLLECTED AS EARLY AS 12 NOON.", "nsi_id": "unitedstatespostalservice-a77078", "operator": "United States Postal Service", "operator:short": "USPS", "operator:type": "public", "operator:wikidata": "Q668687", "ref": "2155000019"}, "type": "Feature"}
{"geometry": {"coordinates": [-79.408789, 39.407212], "type": "Point"}, "id": "Fs_VleXstjDpbv_HgTsfZBolykU=", "properties": {"@source_uri": "https://tools.usps.com/UspsToolsRestServices/rest/POLocator/findLocations", "@spider": "usps_collection_boxes", "addr:city": "OAKLAND", "addr:country": "US", "addr:postcode": "21550", "addr:state": "MD", "addr:street_address": "308 S 2ND ST", "amenity": "post_box", "collection_times": "Mo-Fr 16:15; Sa 12:15", "note": "ON 12/24 AND 12/31, THIS BOX MAY BE COLLECTED AS EARLY AS 12 NOON.", "nsi_id": "unitedstatespostalservice-a77078", "operator": "United States Postal Service", "operator:short": "USPS", "operator:type": "public", "operator:wikidata": "Q668687", "ref": "2155000021"}, "type": "Feature"}
{"geometry": {"coordinates": [-79.407291743, 39.410032296], "type": "Point"}, "id": "kHvgC0KXMRym6P6Wf0sS1_APOaI=", "properties": {"@source_uri": "https://tools.usps.com/UspsToolsRestServices/rest/POLocator/findLocations", "@spider": "usps_collection_boxes", "addr:city": "OAKLAND", "addr:country": "US", "addr:postcode": "21550", "addr:state": "MD", "addr:street_address": "22 S 2ND ST", "amenity": "post_box", "collection_times": "Mo-Fr 17:00; Sa 13:00", "indoor": "yes", "note": "ON 12/24 AND 12/31, THIS BOX MAY BE COLLECTED AS EARLY AS 12 NOON.", "nsi_id": "unitedstatespostalservice-a77078", "operator": "United States Postal Service", "operator:short": "USPS", "operator:type": "public", "operator:wikidata": "Q668687", "ref": "2155000022"}, "type": "Feature"}
{"geometry": {"coordinates": [-79.4070709, 39.41], "type": "Point"}, "id": "8zu3xre8gV8VO_rxpAHTMsI_NPM=", "properties": {"@source_uri": "https://tools.usps.com/UspsToolsRestServices/rest/POLocator/findLocations", "@spider": "usps_collection_boxes", "addr:city": "OAKLAND", "addr:country": "US", "addr:postcode": "21550", "addr:state": "MD", "addr:street_address": "22 S 22ND ST", "amenity": "post_box", "collection_times": "Mo-Fr 17:00; Sa 13:00", "indoor": "yes", "note": "ON 12/24 AND 12/31, THIS BOX MAY BE COLLECTED AS EARLY AS 12 NOON.", "nsi_id": "unitedstatespostalservice-a77078", "operator": "United States Postal Service", "operator:short": "USPS", "operator:type": "public", "operator:wikidata": "Q668687", "ref": "2155000023"}, "type": "Feature"}
{"geometry": {"coordinates": [-79.374161, 39.396324], "type": "Point"}, "id": "JwejldOcoxTOfPuwxZo-C7G5e6E=", "properties": {"@source_uri": "https://tools.usps.com/UspsToolsRestServices/rest/POLocator/findLocations", "@spider": "usps_collection_boxes", "addr:city": "OAKLAND", "addr:country": "US", "addr:postcode": "21550", "addr:state": "MD", "addr:street_address": "1325 MD HWY", "amenity": "post_box", "collection_times": "Mo-Fr 16:30; Sa 12:30", "indoor": "yes", "note": "ON 12/24 AND 12/31, THIS BOX MAY BE COLLECTED AS EARLY AS 12 NOON.", "nsi_id": "unitedstatespostalservice-a77078", "operator": "United States Postal Service", "operator:short": "USPS", "operator:type": "public", "operator:wikidata": "Q668687", "ref": "2155000024"}, "type": "Feature"}
{"geometry": {"coordinates": [-79.3741324, 39.396311], "type": "Point"}, "id": "6pmMj0wffa_BPpXtXJDDjc5phhs=", "properties": {"@source_uri": "https://tools.usps.com/UspsToolsRestServices/rest/POLocator/findLocations", "@spider": "usps_collection_boxes", "addr:city": "OAKLAND", "addr:country": "US", "addr:postcode": "21550", "addr:state": "MD", "addr:street_address": "1325 MD HWY", "amenity": "post_box", "collection_times": "Mo-Fr 16:30; Sa 12:30", "indoor": "yes", "note": "ON 12/24 AND 12/31, THIS BOX MAY BE COLLECTED AS EARLY AS 12 NOON.", "nsi_id": "unitedstatespostalservice-a77078", "operator": "United States Postal Service", "operator:short": "USPS", "operator:type": "public", "operator:wikidata": "Q668687", "ref": "2155000025"}, "type": "Feature"}
{"geometry": {"coordinates": [-79.4012749, 39.413393], "type": "Point"}, "id": "0sd9co0o2ebQmn0yDXOJP5qG61Y=", "properties": {"@source_uri": "https://tools.usps.com/UspsToolsRestServices/rest/POLocator/findLocations", "@spider": "usps_collection_boxes", "addr:city": "OAKLAND", "addr:country": "US", "addr:postcode": "21550", "addr:state": "MD", "addr:street_address": "251 N 4TH ST", "amenity": "post_box", "collection_times": "Mo-Fr 16:00; Sa 12:00", "note": "ON 12/24 AND 12/31, THIS BOX MAY BE COLLECTED AS EARLY AS 12 NOON.", "nsi_id": "unitedstatespostalservice-a77078", "operator": "United States Postal Service", "operator:short": "USPS", "operator:type": "public", "operator:wikidata": "Q668687", "ref": "2155000029"}, "type": "Feature"}
{"geometry": {"coordinates": [-79.3654481, 39.399955], "type": "Point"}, "id": "xXEyeGuTyGthjJwIHEXHQ420tAk=", "properties": {"@source_uri": "https://tools.usps.com/UspsToolsRestServices/rest/POLocator/findLocations", "@spider": "usps_collection_boxes", "addr:city": "OAKLAND", "addr:country": "US", "addr:postcode": "21550", "addr:state": "MD", "addr:street_address": "1916 MARYLAND HWY", "amenity": "post_box", "collection_times": "Mo-Fr 16:15; Sa 12:15", "note": "ON 12/24 AND 12/31, THIS BOX MAY BE COLLECTED AS EARLY AS 12 NOON.", "nsi_id": "unitedstatespostalservice-a77078", "operator": "United States Postal Service", "operator:short": "USPS", "operator:type": "public", "operator:wikidata": "Q668687", "ref": "2155000030"}, "type": "Feature"}
{"geometry": {"coordinates": [-79.3915199, 39.401507], "type": "Point"}, "id": "zgpff2H3BMpvFNlqahxf7iHNL8A=", "properties": {"@source_uri": "https://tools.usps.com/UspsToolsRestServices/rest/POLocator/findLocations", "@spider": "usps_collection_boxes", "addr:city": "OAKLAND", "addr:country": "US", "addr:postcode": "21550", "addr:state": "MD", "addr:street_address": "406 WEBER RD", "amenity": "post_box", "collection_times": "Mo-Fr 16:15; Sa 12:15", "note": "ON 12/24 AND 12/31, THIS BOX MAY BE COLLECTED AS EARLY AS 12 NOON.", "nsi_id": "unitedstatespostalservice-a77078", "operator": "United States Postal Service", "operator:short": "USPS", "operator:type": "public", "operator:wikidata": "Q668687", "ref": "2155000031"}, "type": "Feature"}
{"geometry": {"coordinates": [-79.407291743, 39.410032296], "type": "Point"}, "id": "lcMVg7dwJsZ4h8faAmbxBEjaSC4=", "properties": {"@source_uri": "https://tools.usps.com/UspsToolsRestServices/rest/POLocator/findLocations", "@spider": "usps_collection_boxes", "addr:city": "OAKLAND", "addr:country": "US", "addr:postcode": "21550", "addr:state": "MD", "addr:street_address": "22 S 2ND ST", "amenity": "post_box", "collection_times": "Mo-Fr 16:30; Sa 12:00", "indoor": "yes", "note": "ON 12/24 AND 12/31, THIS BOX MAY BE COLLECTED AS EARLY AS 12 NOON.", "nsi_id": "unitedstatespostalservice-a77078", "operator": "United States Postal Service", "operator:short": "USPS", "operator:type": "public", "operator:wikidata": "Q668687", "ref": "2155000034"}, "type": "Feature"}
{"geometry": {"coordinates": [-79.374115723, 39.396005432], "type": "Point"}, "id": "iG0RAbQxVsVQLG4aUu2SNYx6o0w=", "properties": {"@source_uri": "https://tools.usps.com/UspsToolsRestServices/rest/POLocator/findLocations", "@spider": "usps_collection_boxes", "addr:city": "OAKLAND", "addr:country": "US", "addr:postcode": "21550", "addr:state": "MD", "addr:street_address": "1325 MARYLAND HWY", "amenity": "post_box", "collection_times": "Mo-Fr 12:00", "indoor": "yes", "nsi_id": "unitedstatespostalservice-a77078", "operator": "United States Postal Service", "operator:short": "USPS", "operator:type": "public", "operator:wikidata": "Q668687", "ref": "2155000035"}, "type": "Feature"}
{"geometry": {"coordinates": [-78.61011148, 39.541532262], "type": "Point"}, "id": "l1L7kxKMLCdkobECQmzbeBtbor0=", "properties": {"@source_uri": "https://tools.usps.com/UspsToolsRestServices/rest/POLocator/findLocations", "@spider": "usps_collection_boxes", "addr:city": "OLD TOWN", "addr:country": "US", "addr:postcode": "21555", "addr:state": "MD", "addr:street_address": "19104 OPESSA ST SE", "amenity": "post_box", "collection_times": "Mo-Fr 16:00; Sa 11:30", "note": "ON 12/24 AND 12/31, THIS BOX MAY BE COLLECTED AS EARLY AS 12 NOON.", "nsi_id": "unitedstatespostalservice-a77078", "operator": "United States Postal Service", "operator:short": "USPS", "operator:type": "public", "operator:wikidata": "Q668687", "ref": "2155500000"}, "type": "Feature"}
{"geometry": {"coordinates": [-78.61011148, 39.541532262], "type": "Point"}, "id": "856oVkubHOFY0DkJuoxHHsUTO6A=", "properties": {"@source_uri": "https://tools.usps.com/UspsToolsRestServices/rest/POLocator/findLocations", "@spider": "usps_collection_boxes", "addr:city": "OLD TOWN", "addr:country": "US", "addr:postcode": "21555", "addr:state": "MD", "addr:street_address": "19104 OPESSA ST SE", "amenity": "post_box", "collection_times": "Mo-Sa 11:30", "indoor": "yes", "nsi_id": "unitedstatespostalservice-a77078", "operator": "United States Postal Service", "operator:short": "USPS", "operator:type": "public", "operator:wikidata": "Q668687", "ref": "2155500001"}, "type": "Feature"}
{"geometry": {"coordinates": [-78.61011148, 39.541532262], "type": "Point"}, "id": "U5vI8y0ciKt7DLAkZEcWT_YudkA=", "properties": {"@source_uri": "https://tools.usps.com/UspsToolsRestServices/rest/POLocator/findLocations", "@spider": "usps_collection_boxes", "addr:city": "OLD TOWN", "addr:country": "US", "addr:postcode": "21555", "addr:state": "MD", "addr:street_address": "19104 OPESSA ST SE", "amenity": "post_box", "collection_times": "Mo-Sa 11:30", "indoor": "yes", "nsi_id": "unitedstatespostalservice-a77078", "operator": "United States Postal Service", "operator:short": "USPS", "operator:type": "public", "operator:wikidata": "Q668687", "ref": "2155500003"}, "type": "Feature"}
{"geometry": {"coordinates": [-78.84948009, 39.574042199], "type": "Point"}, "id": "5qcg2kcLpHErszcqJDhqqS4yg0Q=", "properties": {"@source_uri": "https://tools.usps.com/UspsToolsRestServices/rest/POLocator/findLocations", "@spider": "usps_collection_boxes", "addr:city": "PINTO", "addr:country": "US", "addr:postcode": "21556", "addr:state": "MD", "addr:street_address": "16111 MCMULLEN HWY", "amenity": "post_box", "collection_times": "Mo-Fr 16:30; Sa 11:30", "note": "ON 12/24 AND 12/31, THIS BOX MAY BE COLLECTED AS EARLY AS 12 NOON.", "nsi_id": "unitedstatespostalservice-a77078", "operator": "United States Postal Service", "operator:short": "USPS", "operator:type": "public", "operator:wikidata": "Q668687", "ref": "2155600000"}, "type": "Feature"}
{"geometry": {"coordinates": [-78.84948009, 39.574042199], "type": "Point"}, "id": "Nog6dbvDDgIc1dOstu7kuqqvdS8=", "properties": {"@source_uri": "https://tools.usps.com/UspsToolsRestServices/rest/POLocator/findLocations", "@spider": "usps_collection_boxes", "addr:city": "PINTO", "addr:country": "US", "addr:postcode": "21556", "addr:state": "MD", "addr:street_address": "16111 MCMULLEN HWY", "amenity": "post_box", "collection_times": "Mo-Fr 16:30; Sa 11:30", "indoor": "yes", "note": "ON 12/24 AND 12/31, THIS BOX MAY BE COLLECTED AS EARLY AS 12 NOON.", "nsi_id": "unitedstatespostalservice-a77078", "operator": "United States Postal Service", "operator:short": "USPS", "operator:type": "public", "operator:wikidata": "Q668687", "ref": "2155600001"}, "type": "Feature"}
{"geometry": {"coordinates": [-78.84948009, 39.574042199], "type": "Point"}, "id": "D9tdKlQ22jnYAcPG0vkxkYV6FdQ=", "properties": {"@source_uri": "https://tools.usps.com/UspsToolsRestServices/rest/POLocator/findLocations", "@spider": "usps_collection_boxes", "addr:city": "PINTO", "addr:country": "US", "addr:postcode": "21556", "addr:state": "MD", "addr:street_address": "16111 MCMULLEN HWY", "amenity": "post_box", "collection_times": "Mo-Fr 16:30; Sa 11:30", "indoor": "yes", "note": "ON 12/24 AND 12/31, THIS BOX MAY BE COLLECTED AS EARLY AS 12 NOON.", "nsi_id": "unitedstatespostalservice-a77078", "operator": "United States Postal Service", "operator:short": "USPS", "operator:type": "public", "operator:wikidata": "Q668687", "ref": "2155600002"}, "type": "Feature"}
{"geometry": {"coordinates": [-78.84948009, 39.574042199], "type": "Point"}, "id": "KZnhUFRKqb_zikXkuq-vUvJ3iGY=", "properties": {"@source_uri": "https://tools.usps.com/UspsToolsRestServices/rest/POLocator/findLocations", "@spider": "usps_collection_boxes", "addr:city": "PINTO", "addr:country": "US", "addr:postcode": "21556", "addr:state": "MD", "addr:street_address": "16111 MCMULLEN HWY", "amenity": "post_box", "collection_times": "Mo-Fr 16:30; Sa 12:00", "indoor": "yes", "note": "ON 12/24 AND 12/31, THIS BOX MAY BE COLLECTED AS EARLY AS 12 NOON.", "nsi_id": "unitedstatespostalservice-a77078", "operator": "United States Postal Service", "operator:short": "USPS", "operator:type": "public", "operator:wikidata": "Q668687", "ref": "2155600005"}, "type": "Feature"}
{"geometry": {"coordinates": [-78.883168017, 39.534593879], "type": "Point"}, "id": "YBMitnucrfEC-U8_g01CV4CXUok=", "properties": {"@source_uri": "https://tools.usps.com/UspsToolsRestServices/rest/POLocator/findLocations", "@spider": "usps_collection_boxes", "addr:city": "RAWLINGS", "addr:country": "US", "addr:postcode": "21557", "addr:state": "MD", "addr:street_address": "19000 MCMULLEN HWY SW", "amenity": "post_box", "collection_times": "Mo-Fr 16:15; Sa 11:15", "note": "ON 12/24 AND 12/31, THIS BOX MAY BE COLLECTED AS EARLY AS 12 NOON.", "nsi_id": "unitedstatespostalservice-a77078", "operator": "United States Postal Service", "operator:short": "USPS", "operator:type": "public", "operator:wikidata": "Q668687", "ref": "2155700000"}, "type": "Feature"}
{"geometry": {"coordinates": [-78.883168017, 39.534593879], "type": "Point"}, "id": "lhsOFxmEaSPKMFG55qnGU5vm1VE=", "properties": {"@source_uri": "https://tools.usps.com/UspsToolsRestServices/rest/POLocator/findLocations", "@spider": "usps_collection_boxes", "addr:city": "RAWLINGS", "addr:country": "US", "addr:postcode": "21557", "addr:state": "MD", "addr:street_address": "19000 MCMULLEN HWY SW", "amenity": "post_box", "collection_times": "Mo-Fr 16:15; Sa 11:15", "indoor": "yes", "note": "ON 12/24 AND 12/31, THIS BOX MAY BE COLLECTED AS EARLY AS 12 NOON.", "nsi_id": "unitedstatespostalservice-a77078", "operator": "United States Postal Service", "operator:short": "USPS", "operator:type": "public", "operator:wikidata": "Q668687", "ref": "2155700001"}, "type": "Feature"}
{"geometry": {"coordinates": [-78.883168017, 39.534593879], "type": "Point"}, "id": "A1ALaFYRXxv104sRyGJjxseY8AY=", "properties": {"@source_uri": "https://tools.usps.com/UspsToolsRestServices/rest/POLocator/findLocations", "@spider": "usps_collection_boxes", "addr:city": "RAWLINGS", "addr:country": "US", "addr:postcode": "21557", "addr:state": "MD", "addr:street_address": "19000 MCMULLEN HWY SW", "amenity": "post_box", "collection_times": "Mo-Fr 16:30; Sa 11:00", "indoor": "yes", "note": "ON 12/24 AND 12/31, THIS BOX MAY BE COLLECTED AS EARLY AS 12 NOON.", "nsi_id": "unitedstatespostalservice-a77078", "operator": "United States Postal Service", "operator:short": "USPS", "operator:type": "public", "operator:wikidata": "Q668687", "ref": "2155700004"}, "type": "Feature"}
{"geometry": {"coordinates": [-78.748622695, 39.637116831], "type": "Point"}, "id": "Rmn2z_MAaDIYAjKq-JL1zlW_pzU=", "properties": {"@source_uri": "https://tools.usps.com/UspsToolsRestServices/rest/POLocator/findLocations", "@spider": "usps_collection_boxes", "addr:city": "SPRING GAP", "addr:country": "US", "addr:postcode": "21560", "addr:state": "MD", "addr:street_address": "13400 OLDTOWN RD", "amenity": "post_box", "collection_times": "Mo-Fr 16:00; Sa 11:30", "note": "ON 12/24 AND 12/31, THIS BOX MAY BE COLLECTED AS EARLY AS 12 NOON.", "nsi_id": "unitedstatespostalservice-a77078", "operator": "United States Postal Service", "operator:short": "USPS", "operator:type": "public", "operator:wikidata": "Q668687", "ref": "2156000000"}, "type": "Feature"}
{"geometry": {"coordinates": [-78.748622695, 39.637116831], "type": "Point"}, "id": "gzjGjwu53CpH4lxWYQoaoK4Guz0=", "properties": {"@source_uri": "https://tools.usps.com/UspsToolsRestServices/rest/POLocator/findLocations", "@spider": "usps_collection_boxes", "addr:city": "SPRING GAP", "addr:country": "US", "addr:postcode": "21560", "addr:state": "MD", "addr:street_address": "13400 OLDTOWN RD", "amenity": "post_box", "collection_times": "Mo-Fr 16:00; Sa 11:30", "indoor": "yes", "note": "ON 12/24 AND 12/31, THIS BOX MAY BE COLLECTED AS EARLY AS 12 NOON.", "nsi_id": "unitedstatespostalservice-a77078", "operator": "United States Postal Service", "operator:short": "USPS", "operator:type": "public", "operator:wikidata": "Q668687", "ref": "2156000001"}, "type": "Feature"}
{"geometry": {"coordinates": [-78.748622695, 39.637116831], "type": "Point"}, "id": "zx9-OKKmmGFG8adIup4c7D9-95o=", "properties": {"@source_uri": "https://tools.usps.com/UspsToolsRestServices/rest/POLocator/findLocations", "@spider": "usps_collection_boxes", "addr:city": "SPRING GAP", "addr:country": "US", "addr:postcode": "21560", "addr:state": "MD", "addr:street_address": "13400 OLDTOWN RD", "amenity": "post_box", "collection_times": "Mo-Fr 16:00; Sa 12:00", "indoor": "yes", "note": "ON 12/24 AND 12/31, THIS BOX MAY BE COLLECTED AS EARLY AS 12 NOON.", "nsi_id": "unitedstatespostalservice-a77078", "operator": "United States Postal Service", "operator:short": "USPS", "operator:type": "public", "operator:wikidata": "Q668687", "ref": "2156000003"}, "type": "Feature"}
{"geometry": {"coordinates": [-79.234393144, 39.459866543], "type": "Point"}, "id": "huYTlpzHk-wNj2UgYubDkoQ0_ss=", "properties": {"@source_uri": "https://tools.usps.com/UspsToolsRestServices/rest/POLocator/findLocations", "@spider": "usps_collection_boxes", "addr:city": "SWANTON", "addr:country": "US", "addr:postcode": "21561", "addr:state": "MD", "addr:street_address": "3320 SWANTON RD", "amenity": "post_box", "collection_times": "Mo-Fr 16:15; Sa 11:45", "note": "ON 12/24 AND 12/31, THIS BOX MAY BE COLLECTED AS EARLY AS 12 NOON.", "nsi_id": "unitedstatespostalservice-a77078", "operator": "United States Postal Service", "operator:short": "USPS", "operator:type": "public", "operator:wikidata": "Q668687", "ref": "2156100000"}, "type": "Feature"}
{"geometry": {"coordinates": [-79.234393144, 39.459866543], "type": "Point"}, "id": "s2NSGnoq_Vlcs5z6yZqdpY9sOa8=", "properties": {"@source_uri": "https://tools.usps.com/UspsToolsRestServices/rest/POLocator/findLocations", "@spider": "usps_collection_boxes", "addr:city": "SWANTON", "addr:country": "US", "addr:postcode": "21561", "addr:state": "MD", "addr:street_address": "3320 SWANTON RD", "amenity": "post_box", "collection_times": "Mo-Fr 16:15; Sa 11:45", "indoor": "yes", "note": "ON 12/24 AND 12/31, THIS BOX MAY BE COLLECTED AS EARLY AS 12 NOON.", "nsi_id": "unitedstatespostalservice-a77078", "operator": "United States Postal Service", "operator:short": "USPS", "operator:type": "public", "operator:wikidata": "Q668687", "ref": "2156100001"}, "type": "Feature"}
{"geometry": {"coordinates": [-79.234393144, 39.459866543], "type": "Point"}, "id": "cePbH7IwnJA7tYHk2DhakY4U09s=", "properties": {"@source_uri": "https://tools.usps.com/UspsToolsRestServices/rest/POLocator/findLocations", "@spider": "usps_collection_boxes", "addr:city": "SWANTON", "addr:country": "US", "addr:postcode": "21561", "addr:state": "MD", "addr:street_address": "3320 SWANTON RD", "amenity": "post_box", "collection_times": "Mo-Fr 16:30; Sa 12:00", "indoor": "yes", "note": "ON 12/24 AND 12/31, THIS BOX MAY BE COLLECTED AS EARLY AS 12 NOON.", "nsi_id": "unitedstatespostalservice-a77078", "operator": "United States Postal Service", "operator:short": "USPS", "operator:type": "public", "operator:wikidata": "Q668687", "ref": "2156100003"}, "type": "Feature"}
{"geometry": {"coordinates": [-79.044699587, 39.485664703], "type": "Point"}, "id": "uLKRsvIq_O15mPmiWIoUHg4oZBc=", "properties": {"@source_uri": "https://tools.usps.com/UspsToolsRestServices/rest/POLocator/findLocations", "@spider": "usps_collection_boxes", "addr:city": "WESTERNPORT", "addr:country": "US", "addr:postcode": "21562", "addr:state": "MD", "addr:street_address": "72 MAIN ST", "amenity": "post_box", "collection_times": "Mo-Fr 16:30; Sa 12:00", "note": "ON 12/24 AND 12/31, THIS BOX MAY BE COLLECTED AS EARLY AS 12 NOON.", "nsi_id": "unitedstatespostalservice-a77078", "operator": "United States Postal Service", "operator:short": "USPS", "operator:type": "public", "operator:wikidata": "Q668687", "ref": "2156200000"}, "type": "Feature"}
{"geometry": {"coordinates": [-79.044699587, 39.485664703], "type": "Point"}, "id": "BvMXAncf-3cpNzux8KfKeRRpjns=", "properties": {"@source_uri": "https://tools.usps.com/UspsToolsRestServices/rest/POLocator/findLocations", "@spider": "usps_collection_boxes", "addr:city": "WESTERNPORT", "addr:country": "US", "addr:postcode": "21562", "addr:state": "MD", "addr:street_address": "72 MAIN ST", "amenity": "post_box", "collection_times": "Mo-Fr 16:30; Sa 12:00", "indoor": "yes", "note": "ON 12/24 AND 12/31, THIS BOX MAY BE COLLECTED AS EARLY AS 12 NOON.", "nsi_id": "unitedstatespostalservice-a77078", "operator": "United States Postal Service", "operator:short": "USPS", "operator:type": "public", "operator:wikidata": "Q668687", "ref": "2156200019"}, "type": "Feature"}
{"geometry": {"coordinates": [-79.044699587, 39.485664703], "type": "Point"}, "id": "eopiqAUNYZE_fQNg-_VBpEWyK6I=", "properties": {"@source_uri": "https://tools.usps.com/UspsToolsRestServices/rest/POLocator/findLocations", "@spider": "usps_collection_boxes", "addr:city": "WESTERNPORT", "addr:country": "US", "addr:postcode": "21562", "addr:state": "MD", "addr:street_address": "72 MAIN ST", "amenity": "post_box", "collection_times": "Mo-Fr 16:30; Sa 12:00", "indoor": "yes", "note": "ON 12/24 AND 12/31, THIS BOX MAY BE COLLECTED AS EARLY AS 12 NOON.", "nsi_id": "unitedstatespostalservice-a77078", "operator": "United States Postal Service", "operator:short": "USPS", "operator:type": "public", "operator:wikidata": "Q668687", "ref": "2156200023"}, "type": "Feature"}
