{"geometry": {"coordinates": [-76.073964304, 38.774071797], "type": "Point"}, "id": "FU4bxix6GPNhtyNuf-akksE7m4U=", "properties": {"@source_uri": "https://tools.usps.com/UspsToolsRestServices/rest/POLocator/findLocations", "@spider": "usps_collection_boxes", "addr:city": "EASTON", "addr:country": "US", "addr:postcode": "21601", "addr:state": "MD", "addr:street_address": "116 E DOVER ST", "amenity": "post_box", "brand": "United States Postal Service", "brand:wikidata": "Q668687", "collection_times": "Mo-Fr 17:00; Sa 16:00", "note": "ON 12/24 AND 12/31, THIS BOX MAY BE COLLECTED AS EARLY AS 12 NOON.", "nsi_id": "unitedstatespostalservice-a77078", "operator": "United States Postal Service", "operator:short": "USPS", "operator:type": "public", "operator:wikidata": "Q668687", "ref": "2160100000"}, "type": "Feature"}
{"geometry": {"coordinates": [-76.0737919, 38.77339], "type": "Point"}, "id": "QQgV0nm36bWFy_juRTKllG53vW0=", "properties": {"@source_uri": "https://tools.usps.com/UspsToolsRestServices/rest/POLocator/findLocations", "@spider": "usps_collection_boxes", "addr:city": "EASTON", "addr:country": "US", "addr:postcode": "21601", "addr:state": "MD", "addr:street_address": "10 TALBOT LN", "amenity": "post_box", "brand": "United States Postal Service", "brand:wikidata": "Q668687", "collection_times": "Mo-Fr 17:00; Sa 16:00", "note": "ON 12/24 AND 12/31, THIS BOX MAY BE COLLECTED AS EARLY AS 12 NOON.", "nsi_id": "unitedstatespostalservice-a77078", "operator": "United States Postal Service", "operator:short": "USPS", "operator:type": "public", "operator:wikidata": "Q668687", "ref": "2160100003"}, "type": "Feature"}
{"geometry": {"coordinates": [-76.0761575, 38.769743], "type": "Point"}, "id": "ksufbTw0PayXtMEgaqB8r1GfbSI=", "properties": {"@source_uri": "https://tools.usps.com/UspsToolsRestServices/rest/POLocator/findLocations", "@spider": "usps_collection_boxes", "addr:city": "EASTON", "addr:country": "US", "addr:postcode": "21601", "addr:state": "MD", "addr:street_address": "219 S WASHINGTON ST", "amenity": "post_box", "brand": "United States Postal Service", "brand:wikidata": "Q668687", "collection_times": "Mo-Sa 09:00", "nsi_id": "unitedstatespostalservice-a77078", "operator": "United States Postal Service", "operator:short": "USPS", "operator:type": "public", "operator:wikidata": "Q668687", "ref": "2160100005"}, "type": "Feature"}
{"geometry": {"coordinates": [-76.0767611, 38.781444], "type": "Point"}, "id": "MId2rrexXCy6PS_UKLD5TGQM7PQ=", "properties": {"@source_uri": "https://tools.usps.com/UspsToolsRestServices/rest/POLocator/findLocations", "@spider": "usps_collection_boxes", "addr:city": "EASTON", "addr:country": "US", "addr:postcode": "21601", "addr:state": "MD", "addr:street_address": "101 MARLBORO AVE", "amenity": "post_box", "brand": "United States Postal Service", "brand:wikidata": "Q668687", "collection_times": "Mo-Sa 09:00", "nsi_id": "unitedstatespostalservice-a77078", "operator": "United States Postal Service", "operator:short": "USPS", "operator:type": "public", "operator:wikidata": "Q668687", "ref": "2160100013"}, "type": "Feature"}
{"geometry": {"coordinates": [-76.0820355, 38.779844], "type": "Point"}, "id": "KNMg93YaE8Bv2MLVKIOVV-cm3wM=", "properties": {"@source_uri": "https://tools.usps.com/UspsToolsRestServices/rest/POLocator/findLocations", "@spider": "usps_collection_boxes", "addr:city": "EASTON", "addr:country": "US", "addr:postcode": "21601", "addr:state": "MD", "addr:street_address": "210 MARLBORO AVE", "amenity": "post_box", "brand": "United States Postal Service", "brand:wikidata": "Q668687", "collection_times": "Mo-Sa 09:00", "nsi_id": "unitedstatespostalservice-a77078", "operator": "United States Postal Service", "operator:short": "USPS", "operator:type": "public", "operator:wikidata": "Q668687", "ref": "2160100014"}, "type": "Feature"}
{"geometry": {"coordinates": [-76.0819700156, 38.7818770198], "type": "Point"}, "id": "tdeAtdFwPSNgUPu0QzfiuF-QTfA=", "properties": {"@source_uri": "https://tools.usps.com/UspsToolsRestServices/rest/POLocator/findLocations", "@spider": "usps_collection_boxes", "addr:city": "EASTON", "addr:country": "US", "addr:postcode": "21601", "addr:state": "MD", "addr:street_address": "219 MARLBORO AVE", "amenity": "post_box", "brand": "United States Postal Service", "brand:wikidata": "Q668687", "collection_times": "Mo-Fr 09:00", "nsi_id": "unitedstatespostalservice-a77078", "operator": "United States Postal Service", "operator:short": "USPS", "operator:type": "public", "operator:wikidata": "Q668687", "ref": "2160100015"}, "type": "Feature"}
{"geometry": {"coordinates": [-76.0774466, 38.775283], "type": "Point"}, "id": "tKlV649CxiTq0BSrJcu8hir_nFw=", "properties": {"@source_uri": "https://tools.usps.com/UspsToolsRestServices/rest/POLocator/findLocations", "@spider": "usps_collection_boxes", "addr:city": "EASTON", "addr:country": "US", "addr:postcode": "21601", "addr:state": "MD", "addr:street_address": "19 FEDERAL ST", "amenity": "post_box", "brand": "United States Postal Service", "brand:wikidata": "Q668687", "collection_times": "Mo-Sa 09:00", "nsi_id": "unitedstatespostalservice-a77078", "operator": "United States Postal Service", "operator:short": "USPS", "operator:type": "public", "operator:wikidata": "Q668687", "ref": "2160100017"}, "type": "Feature"}
{"geometry": {"coordinates": [-76.0763761, 38.775476], "type": "Point"}, "id": "v-o3pD_8oY4pqRRKRDBb7QAx37M=", "properties": {"@source_uri": "https://tools.usps.com/UspsToolsRestServices/rest/POLocator/findLocations", "@spider": "usps_collection_boxes", "addr:city": "EASTON", "addr:country": "US", "addr:postcode": "21601", "addr:state": "MD", "addr:street_address": "36 N WASHINGTON ST", "amenity": "post_box", "brand": "United States Postal Service", "brand:wikidata": "Q668687", "collection_times": "Mo-Sa 09:00", "nsi_id": "unitedstatespostalservice-a77078", "operator": "United States Postal Service", "operator:short": "USPS", "operator:type": "public", "operator:wikidata": "Q668687", "ref": "2160100018"}, "type": "Feature"}
{"geometry": {"coordinates": [-76.0755546, 38.774393], "type": "Point"}, "id": "8NTU_1xa9-GerSZR_oN9wQmxCDs=", "properties": {"@source_uri": "https://tools.usps.com/UspsToolsRestServices/rest/POLocator/findLocations", "@spider": "usps_collection_boxes", "addr:city": "EASTON", "addr:country": "US", "addr:postcode": "21601", "addr:state": "MD", "addr:street_address": "18 E DOVER ST", "amenity": "post_box", "brand": "United States Postal Service", "brand:wikidata": "Q668687", "collection_times": "Mo-Sa 09:00", "nsi_id": "unitedstatespostalservice-a77078", "operator": "United States Postal Service", "operator:short": "USPS", "operator:type": "public", "operator:wikidata": "Q668687", "ref": "2160100020"}, "type": "Feature"}
{"geometry": {"coordinates": [-76.0750109, 38.778294], "type": "Point"}, "id": "eCHfq04f6kzFN7RLF1_Mz__3uWw=", "properties": {"@source_uri": "https://tools.usps.com/UspsToolsRestServices/rest/POLocator/findLocations", "@spider": "usps_collection_boxes", "addr:city": "EASTON", "addr:country": "US", "addr:postcode": "21601", "addr:state": "MD", "addr:street_address": "218 N WASHINGTON ST", "amenity": "post_box", "brand": "United States Postal Service", "brand:wikidata": "Q668687", "collection_times": "Mo-Sa 09:00", "nsi_id": "unitedstatespostalservice-a77078", "operator": "United States Postal Service", "operator:short": "USPS", "operator:type": "public", "operator:wikidata": "Q668687", "ref": "2160100021"}, "type": "Feature"}
{"geometry": {"coordinates": [-76.0697899, 38.749645], "type": "Point"}, "id": "93SlUt_-BLOK5KWBnRlPS3Iparg=", "properties": {"@source_uri": "https://tools.usps.com/UspsToolsRestServices/rest/POLocator/findLocations", "@spider": "usps_collection_boxes", "addr:city": "EASTON", "addr:country": "US", "addr:postcode": "21601", "addr:state": "MD", "addr:street_address": "1200 S WASHINGTON ST", "amenity": "post_box", "brand": "United States Postal Service", "brand:wikidata": "Q668687", "collection_times": "Mo-Sa 09:00", "nsi_id": "unitedstatespostalservice-a77078", "operator": "United States Postal Service", "operator:short": "USPS", "operator:type": "public", "operator:wikidata": "Q668687", "ref": "2160100023"}, "type": "Feature"}
{"geometry": {"coordinates": [-76.0784178, 38.776969], "type": "Point"}, "id": "b2l_E8qxrIEI_l_dJCNg5IEqfyA=", "properties": {"@source_uri": "https://tools.usps.com/UspsToolsRestServices/rest/POLocator/findLocations", "@spider": "usps_collection_boxes", "addr:city": "EASTON", "addr:country": "US", "addr:postcode": "21601", "addr:state": "MD", "addr:street_address": "101 BAY ST", "amenity": "post_box", "brand": "United States Postal Service", "brand:wikidata": "Q668687", "collection_times": "Mo-Sa 09:00", "nsi_id": "unitedstatespostalservice-a77078", "operator": "United States Postal Service", "operator:short": "USPS", "operator:type": "public", "operator:wikidata": "Q668687", "ref": "2160100025"}, "type": "Feature"}
{"geometry": {"coordinates": [-76.0549291, 38.814312], "type": "Point"}, "id": "klLArsVE3q_xeq0x4zsh5zZFpS4=", "properties": {"@source_uri": "https://tools.usps.com/UspsToolsRestServices/rest/POLocator/findLocations", "@spider": "usps_collection_boxes", "addr:city": "EASTON", "addr:country": "US", "addr:postcode": "21601", "addr:state": "MD", "addr:street_address": "9618 CORDOVA RD", "amenity": "post_box", "brand": "United States Postal Service", "brand:wikidata": "Q668687", "collection_times": "Mo-Sa 10:30", "nsi_id": "unitedstatespostalservice-a77078", "operator": "United States Postal Service", "operator:short": "USPS", "operator:type": "public", "operator:wikidata": "Q668687", "ref": "2160100026"}, "type": "Feature"}
{"geometry": {"coordinates": [-76.0505649, 38.750029], "type": "Point"}, "id": "fnUmNCguyRcL-K_wusweo4H5_wU=", "properties": {"@source_uri": "https://tools.usps.com/UspsToolsRestServices/rest/POLocator/findLocations", "@spider": "usps_collection_boxes", "addr:city": "EASTON", "addr:country": "US", "addr:postcode": "21601", "addr:state": "MD", "addr:street_address": "29595 DUTCHMANS LN", "amenity": "post_box", "brand": "United States Postal Service", "brand:wikidata": "Q668687", "collection_times": "Mo-Sa 10:00", "nsi_id": "unitedstatespostalservice-a77078", "operator": "United States Postal Service", "operator:short": "USPS", "operator:type": "public", "operator:wikidata": "Q668687", "ref": "2160100027"}, "type": "Feature"}
{"geometry": {"coordinates": [-76.0535902, 38.799149], "type": "Point"}, "id": "jTgA0BCzwZat8bSzW3SNswm8aqk=", "properties": {"@source_uri": "https://tools.usps.com/UspsToolsRestServices/rest/POLocator/findLocations", "@spider": "usps_collection_boxes", "addr:city": "EASTON", "addr:country": "US", "addr:postcode": "21601", "addr:state": "MD", "addr:street_address": "9100 HONEYSUCKLE DR", "amenity": "post_box", "brand": "United States Postal Service", "brand:wikidata": "Q668687", "collection_times": "Mo-Sa 09:00", "nsi_id": "unitedstatespostalservice-a77078", "operator": "United States Postal Service", "operator:short": "USPS", "operator:type": "public", "operator:wikidata": "Q668687", "ref": "2160100029"}, "type": "Feature"}
{"geometry": {"coordinates": [-76.0648944, 38.811346], "type": "Point"}, "id": "SSQU-Xl9VfzvvkDwkzDRz47lH9A=", "properties": {"@source_uri": "https://tools.usps.com/UspsToolsRestServices/rest/POLocator/findLocations", "@spider": "usps_collection_boxes", "addr:city": "EASTON", "addr:country": "US", "addr:postcode": "21601", "addr:state": "MD", "addr:street_address": "29137 NEWNAM RD", "amenity": "post_box", "brand": "United States Postal Service", "brand:wikidata": "Q668687", "collection_times": "Mo-Sa 09:00", "nsi_id": "unitedstatespostalservice-a77078", "operator": "United States Postal Service", "operator:short": "USPS", "operator:type": "public", "operator:wikidata": "Q668687", "ref": "2160100030"}, "type": "Feature"}
{"geometry": {"coordinates": [-76.0546443, 38.774524], "type": "Point"}, "id": "a2GfrZE4ylcCyYoejsyQB-RnYXU=", "properties": {"@source_uri": "https://tools.usps.com/UspsToolsRestServices/rest/POLocator/findLocations", "@spider": "usps_collection_boxes", "addr:city": "EASTON", "addr:country": "US", "addr:postcode": "21601", "addr:state": "MD", "addr:street_address": "8223 ELLIOTT RD", "amenity": "post_box", "brand": "United States Postal Service", "brand:wikidata": "Q668687", "collection_times": "Mo-Sa 09:00", "nsi_id": "unitedstatespostalservice-a77078", "operator": "United States Postal Service", "operator:short": "USPS", "operator:type": "public", "operator:wikidata": "Q668687", "ref": "2160100032"}, "type": "Feature"}
{"geometry": {"coordinates": [-76.0730506, 38.745926], "type": "Point"}, "id": "CSk6yxpOE_o1VuA-SxSOMRqlbi0=", "properties": {"@source_uri": "https://tools.usps.com/UspsToolsRestServices/rest/POLocator/findLocations", "@spider": "usps_collection_boxes", "addr:city": "EASTON", "addr:country": "US", "addr:postcode": "21601", "addr:state": "MD", "addr:street_address": "7166 LAUREN LN", "amenity": "post_box", "brand": "United States Postal Service", "brand:wikidata": "Q668687", "collection_times": "Mo-Sa 09:45", "nsi_id": "unitedstatespostalservice-a77078", "operator": "United States Postal Service", "operator:short": "USPS", "operator:type": "public", "operator:wikidata": "Q668687", "ref": "2160100033"}, "type": "Feature"}
{"geometry": {"coordinates": [-76.0680666, 38.796814], "type": "Point"}, "id": "Uur_ddcQIhXEmfMruBQQ3vqcvzo=", "properties": {"@source_uri": "https://tools.usps.com/UspsToolsRestServices/rest/POLocator/findLocations", "@spider": "usps_collection_boxes", "addr:city": "EASTON", "addr:country": "US", "addr:postcode": "21601", "addr:state": "MD", "addr:street_address": "29060 AIRPARK DR", "amenity": "post_box", "brand": "United States Postal Service", "brand:wikidata": "Q668687", "collection_times": "Mo-Fr 17:00; Sa 16:00", "note": "ON 12/24 AND 12/31, THIS BOX MAY BE COLLECTED AS EARLY AS 12 NOON.", "nsi_id": "unitedstatespostalservice-a77078", "operator": "United States Postal Service", "operator:short": "USPS", "operator:type": "public", "operator:wikidata": "Q668687", "ref": "2160100034"}, "type": "Feature"}
{"geometry": {"coordinates": [-76.056928, 38.772342], "type": "Point"}, "id": "eQMgBHsKdJ6VcJG6Ac0SUh0vwqU=", "properties": {"@source_uri": "https://tools.usps.com/UspsToolsRestServices/rest/POLocator/findLocations", "@spider": "usps_collection_boxes", "addr:city": "EASTON", "addr:country": "US", "addr:postcode": "21601", "addr:state": "MD", "addr:street_address": "8133 ELLIOTT RD", "amenity": "post_box", "brand": "United States Postal Service", "brand:wikidata": "Q668687", "collection_times": "Mo-Sa 09:00", "nsi_id": "unitedstatespostalservice-a77078", "operator": "United States Postal Service", "operator:short": "USPS", "operator:type": "public", "operator:wikidata": "Q668687", "ref": "2160100038"}, "type": "Feature"}
{"geometry": {"coordinates": [-76.0820374, 38.778331], "type": "Point"}, "id": "sSxBAxGIaoNAvhUlJCPEBI5Tcng=", "properties": {"@source_uri": "https://tools.usps.com/UspsToolsRestServices/rest/POLocator/findLocations", "@spider": "usps_collection_boxes", "addr:city": "EASTON", "addr:country": "US", "addr:postcode": "21601", "addr:state": "MD", "addr:street_address": "301 BAY ST", "amenity": "post_box", "brand": "United States Postal Service", "brand:wikidata": "Q668687", "collection_times": "Mo-Sa 09:00", "nsi_id": "unitedstatespostalservice-a77078", "operator": "United States Postal Service", "operator:short": "USPS", "operator:type": "public", "operator:wikidata": "Q668687", "ref": "2160100039"}, "type": "Feature"}
{"geometry": {"coordinates": [-76.0795698283, 38.7880747252], "type": "Point"}, "id": "LqZWf2m6MXKySIPLVYVWACATSqc=", "properties": {"@source_uri": "https://tools.usps.com/UspsToolsRestServices/rest/POLocator/findLocations", "@spider": "usps_collection_boxes", "addr:city": "EASTON", "addr:country": "US", "addr:postcode": "21601", "addr:state": "MD", "addr:street_address": "8695 COMMERCE DR", "amenity": "post_box", "brand": "United States Postal Service", "brand:wikidata": "Q668687", "collection_times": "Mo-Sa 09:00", "nsi_id": "unitedstatespostalservice-a77078", "operator": "United States Postal Service", "operator:short": "USPS", "operator:type": "public", "operator:wikidata": "Q668687", "ref": "2160100043"}, "type": "Feature"}
{"geometry": {"coordinates": [-76.073964304, 38.774071797], "type": "Point"}, "id": "6VIXLe5DEJnkEZ7XWEoeLhGbt0o=", "properties": {"@source_uri": "https://tools.usps.com/UspsToolsRestServices/rest/POLocator/findLocations", "@spider": "usps_collection_boxes", "addr:city": "EASTON", "addr:country": "US", "addr:postcode": "21601", "addr:state": "MD", "addr:street_address": "116 E DOVER ST", "amenity": "post_box", "brand": "United States Postal Service", "brand:wikidata": "Q668687", "collection_times": "Mo-Fr 16:45; Sa 15:45", "indoor": "yes", "note": "ON 12/24 AND 12/31, THIS BOX MAY BE COLLECTED AS EARLY AS 12 NOON.", "nsi_id": "unitedstatespostalservice-a77078", "operator": "United States Postal Service", "operator:short": "USPS", "operator:type": "public", "operator:wikidata": "Q668687", "ref": "2160100044"}, "type": "Feature"}
{"geometry": {"coordinates": [-76.0874512, 38.758631], "type": "Point"}, "id": "OC4TuKgSRhqT2VPP_-EGlLshUp4=", "properties": {"@source_uri": "https://tools.usps.com/UspsToolsRestServices/rest/POLocator/findLocations", "@spider": "usps_collection_boxes", "addr:city": "EASTON", "addr:country": "US", "addr:postcode": "21601", "addr:state": "MD", "addr:street_address": "28501 AUGUSTA CT", "amenity": "post_box", "brand": "United States Postal Service", "brand:wikidata": "Q668687", "collection_times": "Mo-Sa 10:00", "nsi_id": "unitedstatespostalservice-a77078", "operator": "United States Postal Service", "operator:short": "USPS", "operator:type": "public", "operator:wikidata": "Q668687", "ref": "2160100045"}, "type": "Feature"}
{"geometry": {"coordinates": [-76.0811766, 38.741985], "type": "Point"}, "id": "_ez2UVqgAG-JoYvEgSGOSS64iQ0=", "properties": {"@source_uri": "https://tools.usps.com/UspsToolsRestServices/rest/POLocator/findLocations", "@spider": "usps_collection_boxes", "addr:city": "EASTON", "addr:country": "US", "addr:postcode": "21601", "addr:state": "MD", "addr:street_address": "6967 COOKES HOPE RD", "amenity": "post_box", "brand": "United States Postal Service", "brand:wikidata": "Q668687", "collection_times": "Mo-Sa 09:30", "nsi_id": "unitedstatespostalservice-a77078", "operator": "United States Postal Service", "operator:short": "USPS", "operator:type": "public", "operator:wikidata": "Q668687", "ref": "2160100047"}, "type": "Feature"}
{"geometry": {"coordinates": [-76.0880894, 38.767848], "type": "Point"}, "id": "-vXqMPFJmOjeUC-PfZwuHf-l8JI=", "properties": {"@source_uri": "https://tools.usps.com/UspsToolsRestServices/rest/POLocator/findLocations", "@spider": "usps_collection_boxes", "addr:city": "EASTON", "addr:country": "US", "addr:postcode": "21601", "addr:state": "MD", "addr:street_address": "700 PORT ST", "amenity": "post_box", "brand": "United States Postal Service", "brand:wikidata": "Q668687", "collection_times": "Mo-Sa 09:15", "nsi_id": "unitedstatespostalservice-a77078", "operator": "United States Postal Service", "operator:short": "USPS", "operator:type": "public", "operator:wikidata": "Q668687", "ref": "2160100049"}, "type": "Feature"}
{"geometry": {"coordinates": [-76.073964304, 38.774071797], "type": "Point"}, "id": "blAqFzytY4dabgalhvAsV2s4k0o=", "properties": {"@source_uri": "https://tools.usps.com/UspsToolsRestServices/rest/POLocator/findLocations", "@spider": "usps_collection_boxes", "addr:city": "EASTON", "addr:country": "US", "addr:postcode": "21601", "addr:state": "MD", "addr:street_address": "116 E DOVER ST", "amenity": "post_box", "brand": "United States Postal Service", "brand:wikidata": "Q668687", "collection_times": "Mo-Fr 16:45; Sa 15:45", "indoor": "yes", "note": "ON 12/24 AND 12/31, THIS BOX MAY BE COLLECTED AS EARLY AS 12 NOON.", "nsi_id": "unitedstatespostalservice-a77078", "operator": "United States Postal Service", "operator:short": "USPS", "operator:type": "public", "operator:wikidata": "Q668687", "ref": "2160100053"}, "type": "Feature"}
{"geometry": {"coordinates": [-76.0606012, 38.778391], "type": "Point"}, "id": "-DIbAd1bUrgWawzrPGl_x_yCgA4=", "properties": {"@source_uri": "https://tools.usps.com/UspsToolsRestServices/rest/POLocator/findLocations", "@spider": "usps_collection_boxes", "addr:city": "EASTON", "addr:country": "US", "addr:postcode": "21601", "addr:state": "MD", "addr:street_address": "8356 OCEAN GTWY", "amenity": "post_box", "brand": "United States Postal Service", "brand:wikidata": "Q668687", "collection_times": "Mo-Sa 09:00", "nsi_id": "unitedstatespostalservice-a77078", "operator": "United States Postal Service", "operator:short": "USPS", "operator:type": "public", "operator:wikidata": "Q668687", "ref": "2160100055"}, "type": "Feature"}
{"geometry": {"coordinates": [-76.073964304, 38.774071797], "type": "Point"}, "id": "LOLb-wXr2AVt2mlPsDb-JzhVC1k=", "properties": {"@source_uri": "https://tools.usps.com/UspsToolsRestServices/rest/POLocator/findLocations", "@spider": "usps_collection_boxes", "addr:city": "EASTON", "addr:country": "US", "addr:postcode": "21601", "addr:state": "MD", "addr:street_address": "116 E DOVER ST", "amenity": "post_box", "brand": "United States Postal Service", "brand:wikidata": "Q668687", "collection_times": "Mo-Fr 17:00; Sa 12:00", "indoor": "yes", "note": "ON 12/24 AND 12/31, THIS BOX MAY BE COLLECTED AS EARLY AS 12 NOON.", "nsi_id": "unitedstatespostalservice-a77078", "operator": "United States Postal Service", "operator:short": "USPS", "operator:type": "public", "operator:wikidata": "Q668687", "ref": "2160100061"}, "type": "Feature"}
{"geometry": {"coordinates": [-75.863845711, 39.138442406], "type": "Point"}, "id": "1120AT1GCz_x8y9l50HLoaP7hIU=", "properties": {"@source_uri": "https://tools.usps.com/UspsToolsRestServices/rest/POLocator/findLocations", "@spider": "usps_collection_boxes", "addr:city": "BARCLAY", "addr:country": "US", "addr:postcode": "21607", "addr:state": "MD", "addr:street_address": "1325 GOLDSBORO RD", "amenity": "post_box", "brand": "United States Postal Service", "brand:wikidata": "Q668687", "collection_times": "Mo-Fr 15:30; Sa 12:00", "note": "ON 12/24 AND 12/31, THIS BOX MAY BE COLLECTED AS EARLY AS 12 NOON.", "nsi_id": "unitedstatespostalservice-a77078", "operator": "United States Postal Service", "operator:short": "USPS", "operator:type": "public", "operator:wikidata": "Q668687", "ref": "2160700000"}, "type": "Feature"}
{"geometry": {"coordinates": [-75.863845711, 39.138442406], "type": "Point"}, "id": "sLsRmPLBpgWg8avE2zQqHKe6Pik=", "properties": {"@source_uri": "https://tools.usps.com/UspsToolsRestServices/rest/POLocator/findLocations", "@spider": "usps_collection_boxes", "addr:city": "BARCLAY", "addr:country": "US", "addr:postcode": "21607", "addr:state": "MD", "addr:street_address": "1325 GOLDSBORO RD", "amenity": "post_box", "brand": "United States Postal Service", "brand:wikidata": "Q668687", "collection_times": "Mo-Fr 15:30; Sa 12:00", "indoor": "yes", "note": "ON 12/24 AND 12/31, THIS BOX MAY BE COLLECTED AS EARLY AS 12 NOON.", "nsi_id": "unitedstatespostalservice-a77078", "operator": "United States Postal Service", "operator:short": "USPS", "operator:type": "public", "operator:wikidata": "Q668687", "ref": "2160700001"}, "type": "Feature"}
{"geometry": {"coordinates": [-75.863845711, 39.138442406], "type": "Point"}, "id": "01JgfMpW4faDatuPVBBDwzBWOKE=", "properties": {"@source_uri": "https://tools.usps.com/UspsToolsRestServices/rest/POLocator/findLocations", "@spider": "usps_collection_boxes", "addr:city": "BARCLAY", "addr:country": "US", "addr:postcode": "21607", "addr:state": "MD", "addr:street_address": "1325 GOLDSBORO RD", "amenity": "post_box", "brand": "United States Postal Service", "brand:wikidata": "Q668687", "collection_times": "Mo-Fr 15:30; Sa 12:00", "indoor": "yes", "note": "ON 12/24 AND 12/31, THIS BOX MAY BE COLLECTED AS EARLY AS 12 NOON.", "nsi_id": "unitedstatespostalservice-a77078", "operator": "United States Postal Service", "operator:short": "USPS", "operator:type": "public", "operator:wikidata": "Q668687", "ref": "2160700002"}, "type": "Feature"}
{"geometry": {"coordinates": [-75.863845711, 39.138442406], "type": "Point"}, "id": "2u2pOOz817A5tOjUaweSGp_TSrI=", "properties": {"@source_uri": "https://tools.usps.com/UspsToolsRestServices/rest/POLocator/findLocations", "@spider": "usps_collection_boxes", "addr:city": "BARCLAY", "addr:country": "US", "addr:postcode": "21607", "addr:state": "MD", "addr:street_address": "1325 GOLDSBORO RD", "amenity": "post_box", "brand": "United States Postal Service", "brand:wikidata": "Q668687", "collection_times": "Mo-Fr 16:00; Sa 12:30", "indoor": "yes", "note": "ON 12/24 AND 12/31, THIS BOX MAY BE COLLECTED AS EARLY AS 12 NOON.", "nsi_id": "unitedstatespostalservice-a77078", "operator": "United States Postal Service", "operator:short": "USPS", "operator:type": "public", "operator:wikidata": "Q668687", "ref": "2160700004"}, "type": "Feature"}
{"geometry": {"coordinates": [-75.944035618, 38.746181663], "type": "Point"}, "id": "B5XySs67eRlV_qtFCqcc1_leM_c=", "properties": {"@source_uri": "https://tools.usps.com/UspsToolsRestServices/rest/POLocator/findLocations", "@spider": "usps_collection_boxes", "addr:city": "BETHLEHEM", "addr:country": "US", "addr:postcode": "21609", "addr:state": "MD", "addr:street_address": "22015 DOVER BRIDGE RD", "amenity": "post_box", "brand": "United States Postal Service", "brand:wikidata": "Q668687", "collection_times": "Mo-Fr 16:30; Sa 10:30", "note": "ON 12/24 AND 12/31, THIS BOX MAY BE COLLECTED AS EARLY AS 12 NOON.", "nsi_id": "unitedstatespostalservice-a77078", "operator": "United States Postal Service", "operator:short": "USPS", "operator:type": "public", "operator:wikidata": "Q668687", "ref": "2160900000"}, "type": "Feature"}
{"geometry": {"coordinates": [-75.944035618, 38.746181663], "type": "Point"}, "id": "uTnnQzEGLm_UNQqDdYhCYF3aUj8=", "properties": {"@source_uri": "https://tools.usps.com/UspsToolsRestServices/rest/POLocator/findLocations", "@spider": "usps_collection_boxes", "addr:city": "BETHLEHEM", "addr:country": "US", "addr:postcode": "21609", "addr:state": "MD", "addr:street_address": "22015 DOVER BRIDGE RD", "amenity": "post_box", "brand": "United States Postal Service", "brand:wikidata": "Q668687", "collection_times": "Mo-Fr 16:30; Sa 10:30", "indoor": "yes", "note": "ON 12/24 AND 12/31, THIS BOX MAY BE COLLECTED AS EARLY AS 12 NOON.", "nsi_id": "unitedstatespostalservice-a77078", "operator": "United States Postal Service", "operator:short": "USPS", "operator:type": "public", "operator:wikidata": "Q668687", "ref": "2160900001"}, "type": "Feature"}
{"geometry": {"coordinates": [-75.944035618, 38.746181663], "type": "Point"}, "id": "oCmdosriumLOGQdut6OzvoXjqQ0=", "properties": {"@source_uri": "https://tools.usps.com/UspsToolsRestServices/rest/POLocator/findLocations", "@spider": "usps_collection_boxes", "addr:city": "BETHLEHEM", "addr:country": "US", "addr:postcode": "21609", "addr:state": "MD", "addr:street_address": "22015 DOVER BRIDGE RD", "amenity": "post_box", "brand": "United States Postal Service", "brand:wikidata": "Q668687", "collection_times": "Mo-Fr 16:30; Sa 10:30", "indoor": "yes", "note": "ON 12/24 AND 12/31, THIS BOX MAY BE COLLECTED AS EARLY AS 12 NOON.", "nsi_id": "unitedstatespostalservice-a77078", "operator": "United States Postal Service", "operator:short": "USPS", "operator:type": "public", "operator:wikidata": "Q668687", "ref": "2160900002"}, "type": "Feature"}
{"geometry": {"coordinates": [-75.944035618, 38.746181663], "type": "Point"}, "id": "fKw1VhQiHXyRJeEBRE1AvGMfqiE=", "properties": {"@source_uri": "https://tools.usps.com/UspsToolsRestServices/rest/POLocator/findLocations", "@spider": "usps_collection_boxes", "addr:city": "BETHLEHEM", "addr:country": "US", "addr:postcode": "21609", "addr:state": "MD", "addr:street_address": "22015 DOVER BRIDGE RD", "amenity": "post_box", "brand": "United States Postal Service", "brand:wikidata": "Q668687", "collection_times": "Mo-Fr 16:45; Sa 11:00", "indoor": "yes", "note": "ON 12/24 AND 12/31, THIS BOX MAY BE COLLECTED AS EARLY AS 12 NOON.", "nsi_id": "unitedstatespostalservice-a77078", "operator": "United States Postal Service", "operator:short": "USPS", "operator:type": "public", "operator:wikidata": "Q668687", "ref": "2160900004"}, "type": "Feature"}
{"geometry": {"coordinates": [-76.06167322, 39.367042514], "type": "Point"}, "id": "pj8cTWfO_9M3gGbXd3IPCBvzx1U=", "properties": {"@source_uri": "https://tools.usps.com/UspsToolsRestServices/rest/POLocator/findLocations", "@spider": "usps_collection_boxes", "addr:city": "BETTERTON", "addr:country": "US", "addr:postcode": "21610", "addr:state": "MD", "addr:street_address": "3 3RD AVE", "amenity": "post_box", "brand": "United States Postal Service", "brand:wikidata": "Q668687", "collection_times": "Mo-Fr 16:00; Sa 11:00", "note": "ON 12/24 AND 12/31, THIS BOX MAY BE COLLECTED AS EARLY AS 12 NOON.", "nsi_id": "unitedstatespostalservice-a77078", "operator": "United States Postal Service", "operator:short": "USPS", "operator:type": "public", "operator:wikidata": "Q668687", "ref": "2161000000"}, "type": "Feature"}
{"geometry": {"coordinates": [-76.06167322, 39.367042514], "type": "Point"}, "id": "fl2Ln-HySd_cGOCrPz1qltdBVFI=", "properties": {"@source_uri": "https://tools.usps.com/UspsToolsRestServices/rest/POLocator/findLocations", "@spider": "usps_collection_boxes", "addr:city": "BETTERTON", "addr:country": "US", "addr:postcode": "21610", "addr:state": "MD", "addr:street_address": "3 3RD AVE", "amenity": "post_box", "brand": "United States Postal Service", "brand:wikidata": "Q668687", "collection_times": "Mo-Fr 16:00; Sa 11:00", "indoor": "yes", "note": "ON 12/24 AND 12/31, THIS BOX MAY BE COLLECTED AS EARLY AS 12 NOON.", "nsi_id": "unitedstatespostalservice-a77078", "operator": "United States Postal Service", "operator:short": "USPS", "operator:type": "public", "operator:wikidata": "Q668687", "ref": "2161000004"}, "type": "Feature"}
{"geometry": {"coordinates": [-76.270719878, 38.768808386], "type": "Point"}, "id": "Adj51osj8Wpa7XGgxxAB1PeYxVM=", "properties": {"@source_uri": "https://tools.usps.com/UspsToolsRestServices/rest/POLocator/findLocations", "@spider": "usps_collection_boxes", "addr:city": "BOZMAN", "addr:country": "US", "addr:postcode": "21612", "addr:state": "MD", "addr:street_address": "7983 QUAKER NECK RD", "amenity": "post_box", "brand": "United States Postal Service", "brand:wikidata": "Q668687", "collection_times": "Mo-Fr 16:30; Sa 11:30", "note": "ON 12/24 AND 12/31, THIS BOX MAY BE COLLECTED AS EARLY AS 12 NOON.", "nsi_id": "unitedstatespostalservice-a77078", "operator": "United States Postal Service", "operator:short": "USPS", "operator:type": "public", "operator:wikidata": "Q668687", "ref": "2161200000"}, "type": "Feature"}
{"geometry": {"coordinates": [-76.270719878, 38.768808386], "type": "Point"}, "id": "VB3xQ5hfnYrOg2RiYONXIl5YZ8o=", "properties": {"@source_uri": "https://tools.usps.com/UspsToolsRestServices/rest/POLocator/findLocations", "@spider": "usps_collection_boxes", "addr:city": "BOZMAN", "addr:country": "US", "addr:postcode": "21612", "addr:state": "MD", "addr:street_address": "7983 QUAKER NECK RD", "amenity": "post_box", "brand": "United States Postal Service", "brand:wikidata": "Q668687", "collection_times": "Mo-Fr 16:30; Sa 11:30", "indoor": "yes", "note": "ON 12/24 AND 12/31, THIS BOX MAY BE COLLECTED AS EARLY AS 12 NOON.", "nsi_id": "unitedstatespostalservice-a77078", "operator": "United States Postal Service", "operator:short": "USPS", "operator:type": "public", "operator:wikidata": "Q668687", "ref": "2161200001"}, "type": "Feature"}
{"geometry": {"coordinates": [-76.270719878, 38.768808386], "type": "Point"}, "id": "ZFjFyX9Q_15cCRKj3YkaaMU_Nf4=", "properties": {"@source_uri": "https://tools.usps.com/UspsToolsRestServices/rest/POLocator/findLocations", "@spider": "usps_collection_boxes", "addr:city": "BOZMAN", "addr:country": "US", "addr:postcode": "21612", "addr:state": "MD", "addr:street_address": "7983 QUAKER NECK RD", "amenity": "post_box", "brand": "United States Postal Service", "brand:wikidata": "Q668687", "collection_times": "Mo-Fr 16:30; Sa 11:30", "indoor": "yes", "note": "ON 12/24 AND 12/31, THIS BOX MAY BE COLLECTED AS EARLY AS 12 NOON.", "nsi_id": "unitedstatespostalservice-a77078", "operator": "United States Postal Service", "operator:short": "USPS", "operator:type": "public", "operator:wikidata": "Q668687", "ref": "2161200002"}, "type": "Feature"}
{"geometry": {"coordinates": [-76.270719878, 38.768808386], "type": "Point"}, "id": "M_ZDbII_rjNfkrft8B0uQfAldvg=", "properties": {"@source_uri": "https://tools.usps.com/UspsToolsRestServices/rest/POLocator/findLocations", "@spider": "usps_collection_boxes", "addr:city": "BOZMAN", "addr:country": "US", "addr:postcode": "21612", "addr:state": "MD", "addr:street_address": "7983 QUAKER NECK RD", "amenity": "post_box", "brand": "United States Postal Service", "brand:wikidata": "Q668687", "collection_times": "Mo-Fr 16:30; Sa 11:30", "indoor": "yes", "note": "ON 12/24 AND 12/31, THIS BOX MAY BE COLLECTED AS EARLY AS 12 NOON.", "nsi_id": "unitedstatespostalservice-a77078", "operator": "United States Postal Service", "operator:short": "USPS", "operator:type": "public", "operator:wikidata": "Q668687", "ref": "2161200005"}, "type": "Feature"}
{"geometry": {"coordinates": [-76.076668558, 38.571838332], "type": "Point"}, "id": "1wj7Y0Bi4fZE8AHaMXmu6FTl7yw=", "properties": {"@source_uri": "https://tools.usps.com/UspsToolsRestServices/rest/POLocator/findLocations", "@spider": "usps_collection_boxes", "addr:city": "CAMBRIDGE", "addr:country": "US", "addr:postcode": "21613", "addr:state": "MD", "addr:street_address": "301 HIGH ST", "amenity": "post_box", "brand": "United States Postal Service", "brand:wikidata": "Q668687", "collection_times": "Mo-Sa 17:00", "note": "ON 12/24 AND 12/31, THIS BOX MAY BE COLLECTED AS EARLY AS 12 NOON.", "nsi_id": "unitedstatespostalservice-a77078", "operator": "United States Postal Service", "operator:short": "USPS", "operator:type": "public", "operator:wikidata": "Q668687", "ref": "2161300000"}, "type": "Feature"}
{"geometry": {"coordinates": [-76.0660538, 38.568519], "type": "Point"}, "id": "s3bWgJ_N58n4aMq09tHcze3gCL8=", "properties": {"@source_uri": "https://tools.usps.com/UspsToolsRestServices/rest/POLocator/findLocations", "@spider": "usps_collection_boxes", "addr:city": "CAMBRIDGE", "addr:country": "US", "addr:postcode": "21613", "addr:state": "MD", "addr:street_address": "501 MARYLAND AVE", "amenity": "post_box", "brand": "United States Postal Service", "brand:wikidata": "Q668687", "collection_times": "Mo-Sa 09:00", "nsi_id": "unitedstatespostalservice-a77078", "operator": "United States Postal Service", "operator:short": "USPS", "operator:type": "public", "operator:wikidata": "Q668687", "ref": "2161300004"}, "type": "Feature"}
{"geometry": {"coordinates": [-76.0778241, 38.571295], "type": "Point"}, "id": "RPA72qVj57BM3OJ05iktIZD8n9k=", "properties": {"@source_uri": "https://tools.usps.com/UspsToolsRestServices/rest/POLocator/findLocations", "@spider": "usps_collection_boxes", "addr:city": "CAMBRIDGE", "addr:country": "US", "addr:postcode": "21613", "addr:state": "MD", "addr:street_address": "600 LOCUST ST", "amenity": "post_box", "brand": "United States Postal Service", "brand:wikidata": "Q668687", "collection_times": "Mo-Sa 09:00", "nsi_id": "unitedstatespostalservice-a77078", "operator": "United States Postal Service", "operator:short": "USPS", "operator:type": "public", "operator:wikidata": "Q668687", "ref": "2161300007"}, "type": "Feature"}
{"geometry": {"coordinates": [-76.091739, 38.580548], "type": "Point"}, "id": "-NrgLML3MppRSA9M_RXidbF15lI=", "properties": {"@source_uri": "https://tools.usps.com/UspsToolsRestServices/rest/POLocator/findLocations", "@spider": "usps_collection_boxes", "addr:city": "CAMBRIDGE", "addr:country": "US", "addr:postcode": "21613", "addr:state": "MD", "addr:street_address": "1502 GLASGOW ST", "amenity": "post_box", "brand": "United States Postal Service", "brand:wikidata": "Q668687", "collection_times": "Mo-Sa 09:00", "nsi_id": "unitedstatespostalservice-a77078", "operator": "United States Postal Service", "operator:short": "USPS", "operator:type": "public", "operator:wikidata": "Q668687", "ref": "2161300014"}, "type": "Feature"}
{"geometry": {"coordinates": [-76.0752227, 38.569521], "type": "Point"}, "id": "pw4lF8_eaDyuMCOSzM8hbGp3WA4=", "properties": {"@source_uri": "https://tools.usps.com/UspsToolsRestServices/rest/POLocator/findLocations", "@spider": "usps_collection_boxes", "addr:city": "CAMBRIDGE", "addr:country": "US", "addr:postcode": "21613", "addr:state": "MD", "addr:street_address": "102 MARKET SQ", "amenity": "post_box", "brand": "United States Postal Service", "brand:wikidata": "Q668687", "collection_times": "Mo-Sa 09:00", "nsi_id": "unitedstatespostalservice-a77078", "operator": "United States Postal Service", "operator:short": "USPS", "operator:type": "public", "operator:wikidata": "Q668687", "ref": "2161300017"}, "type": "Feature"}
{"geometry": {"coordinates": [-76.075583689, 38.572227932], "type": "Point"}, "id": "uANLdZWRYMOxQNWI4_YEgBdxuFE=", "properties": {"@source_uri": "https://tools.usps.com/UspsToolsRestServices/rest/POLocator/findLocations", "@spider": "usps_collection_boxes", "addr:city": "CAMBRIDGE", "addr:country": "US", "addr:postcode": "21613", "addr:state": "MD", "addr:street_address": "511 COURT LN", "amenity": "post_box", "brand": "United States Postal Service", "brand:wikidata": "Q668687", "collection_times": "Mo-Sa 09:00", "nsi_id": "unitedstatespostalservice-a77078", "operator": "United States Postal Service", "operator:short": "USPS", "operator:type": "public", "operator:wikidata": "Q668687", "ref": "2161300018"}, "type": "Feature"}
{"geometry": {"coordinates": [-76.0647284, 38.56297], "type": "Point"}, "id": "maP2QYhCV4SyefRmu76BgNIrRno=", "properties": {"@source_uri": "https://tools.usps.com/UspsToolsRestServices/rest/POLocator/findLocations", "@spider": "usps_collection_boxes", "addr:city": "CAMBRIDGE", "addr:country": "US", "addr:postcode": "21613", "addr:state": "MD", "addr:street_address": "618 SHOAL CREEK MALL", "amenity": "post_box", "brand": "United States Postal Service", "brand:wikidata": "Q668687", "collection_times": "Mo-Sa 09:00", "nsi_id": "unitedstatespostalservice-a77078", "operator": "United States Postal Service", "operator:short": "USPS", "operator:type": "public", "operator:wikidata": "Q668687", "ref": "2161300020"}, "type": "Feature"}
{"geometry": {"coordinates": [-76.0628349, 38.561822], "type": "Point"}, "id": "f0iw2A8hzNFQWq9a-Tmf0HzldhM=", "properties": {"@source_uri": "https://tools.usps.com/UspsToolsRestServices/rest/POLocator/findLocations", "@spider": "usps_collection_boxes", "addr:city": "CAMBRIDGE", "addr:country": "US", "addr:postcode": "21613", "addr:state": "MD", "addr:street_address": "716 CAMBRIDGE PLZ", "amenity": "post_box", "brand": "United States Postal Service", "brand:wikidata": "Q668687", "collection_times": "Mo-Sa 09:00", "nsi_id": "unitedstatespostalservice-a77078", "operator": "United States Postal Service", "operator:short": "USPS", "operator:type": "public", "operator:wikidata": "Q668687", "ref": "2161300021"}, "type": "Feature"}
{"geometry": {"coordinates": [-76.0778191225, 38.5669212748], "type": "Point"}, "id": "q_1qidA7bhHvgyezB82u6lhcshk=", "properties": {"@source_uri": "https://tools.usps.com/UspsToolsRestServices/rest/POLocator/findLocations", "@spider": "usps_collection_boxes", "addr:city": "CAMBRIDGE", "addr:country": "US", "addr:postcode": "21613", "addr:state": "MD", "addr:street_address": "600 RACE ST", "amenity": "post_box", "brand": "United States Postal Service", "brand:wikidata": "Q668687", "collection_times": "Mo-Sa 09:00", "nsi_id": "unitedstatespostalservice-a77078", "operator": "United States Postal Service", "operator:short": "USPS", "operator:type": "public", "operator:wikidata": "Q668687", "ref": "2161300027"}, "type": "Feature"}
{"geometry": {"coordinates": [-76.0756024, 38.562537], "type": "Point"}, "id": "jgiJwdc-s7gK4lHpo4QUVRpoQRQ=", "properties": {"@source_uri": "https://tools.usps.com/UspsToolsRestServices/rest/POLocator/findLocations", "@spider": "usps_collection_boxes", "addr:city": "CAMBRIDGE", "addr:country": "US", "addr:postcode": "21613", "addr:state": "MD", "addr:street_address": "724 PEACHBLOSSOM AVE", "amenity": "post_box", "brand": "United States Postal Service", "brand:wikidata": "Q668687", "collection_times": "Mo-Sa 09:00", "nsi_id": "unitedstatespostalservice-a77078", "operator": "United States Postal Service", "operator:short": "USPS", "operator:type": "public", "operator:wikidata": "Q668687", "ref": "2161300029"}, "type": "Feature"}
{"geometry": {"coordinates": [-76.0539049, 38.553681], "type": "Point"}, "id": "ZoPMPy2T1_pmI8NGbZ424ebTKjo=", "properties": {"@source_uri": "https://tools.usps.com/UspsToolsRestServices/rest/POLocator/findLocations", "@spider": "usps_collection_boxes", "addr:city": "CAMBRIDGE", "addr:country": "US", "addr:postcode": "21613", "addr:state": "MD", "addr:street_address": "2759 DORCHESTER SQ", "amenity": "post_box", "brand": "United States Postal Service", "brand:wikidata": "Q668687", "collection_times": "Mo-Sa 10:00", "nsi_id": "unitedstatespostalservice-a77078", "operator": "United States Postal Service", "operator:short": "USPS", "operator:type": "public", "operator:wikidata": "Q668687", "ref": "2161300030"}, "type": "Feature"}
{"geometry": {"coordinates": [-76.0730106, 38.547012], "type": "Point"}, "id": "CPa3MwoXf0jmtlVntetSkUXE77E=", "properties": {"@source_uri": "https://tools.usps.com/UspsToolsRestServices/rest/POLocator/findLocations", "@spider": "usps_collection_boxes", "addr:city": "CAMBRIDGE", "addr:country": "US", "addr:postcode": "21613", "addr:state": "MD", "addr:street_address": "2600 CAMBRIDGE BELTWAY", "amenity": "post_box", "brand": "United States Postal Service", "brand:wikidata": "Q668687", "collection_times": "Mo-Sa 09:00", "nsi_id": "unitedstatespostalservice-a77078", "operator": "United States Postal Service", "operator:short": "USPS", "operator:type": "public", "operator:wikidata": "Q668687", "ref": "2161300032"}, "type": "Feature"}
{"geometry": {"coordinates": [-76.0780639, 38.566193], "type": "Point"}, "id": "Yz92zxvCquZj9hu5y_f6u_tINd8=", "properties": {"@source_uri": "https://tools.usps.com/UspsToolsRestServices/rest/POLocator/findLocations", "@spider": "usps_collection_boxes", "addr:city": "CAMBRIDGE", "addr:country": "US", "addr:postcode": "21613", "addr:state": "MD", "addr:street_address": "627 RACE ST", "amenity": "post_box", "brand": "United States Postal Service", "brand:wikidata": "Q668687", "collection_times": "Mo-Sa 09:00", "nsi_id": "unitedstatespostalservice-a77078", "operator": "United States Postal Service", "operator:short": "USPS", "operator:type": "public", "operator:wikidata": "Q668687", "ref": "2161300035"}, "type": "Feature"}
{"geometry": {"coordinates": [-76.076668558, 38.571838332], "type": "Point"}, "id": "524V50lYDCvC8MMmDa7kzAu0uy4=", "properties": {"@source_uri": "https://tools.usps.com/UspsToolsRestServices/rest/POLocator/findLocations", "@spider": "usps_collection_boxes", "addr:city": "CAMBRIDGE", "addr:country": "US", "addr:postcode": "21613", "addr:state": "MD", "addr:street_address": "301 HIGH ST", "amenity": "post_box", "brand": "United States Postal Service", "brand:wikidata": "Q668687", "collection_times": "Mo-Fr 17:00; Sa 16:30", "indoor": "yes", "note": "ON 12/24 AND 12/31, THIS BOX MAY BE COLLECTED AS EARLY AS 12 NOON.", "nsi_id": "unitedstatespostalservice-a77078", "operator": "United States Postal Service", "operator:short": "USPS", "operator:type": "public", "operator:wikidata": "Q668687", "ref": "2161300037"}, "type": "Feature"}
{"geometry": {"coordinates": [-76.076668558, 38.571838332], "type": "Point"}, "id": "l4WVAomzshASUhdxTC7ylrgCo9s=", "properties": {"@source_uri": "https://tools.usps.com/UspsToolsRestServices/rest/POLocator/findLocations", "@spider": "usps_collection_boxes", "addr:city": "CAMBRIDGE", "addr:country": "US", "addr:postcode": "21613", "addr:state": "MD", "addr:street_address": "301 HIGH ST", "amenity": "post_box", "brand": "United States Postal Service", "brand:wikidata": "Q668687", "collection_times": "Mo-Fr 17:00; Sa 12:00", "indoor": "yes", "note": "ON 12/24 AND 12/31, THIS BOX MAY BE COLLECTED AS EARLY AS 12 NOON.", "nsi_id": "unitedstatespostalservice-a77078", "operator": "United States Postal Service", "operator:short": "USPS", "operator:type": "public", "operator:wikidata": "Q668687", "ref": "2161300041"}, "type": "Feature"}
{"geometry": {"coordinates": [-76.063953964, 39.043557274], "type": "Point"}, "id": "Ly_MQdvgjLtDXb_lu1H8uGmmkkw=", "properties": {"@source_uri": "https://tools.usps.com/UspsToolsRestServices/rest/POLocator/findLocations", "@spider": "usps_collection_boxes", "addr:city": "CENTREVILLE", "addr:country": "US", "addr:postcode": "21617", "addr:state": "MD", "addr:street_address": "202 E WATER ST", "amenity": "post_box", "brand": "United States Postal Service", "brand:wikidata": "Q668687", "collection_times": "Mo-Fr 17:00; Sa 15:00", "note": "ON 12/24 AND 12/31, THIS BOX MAY BE COLLECTED AS EARLY AS 12 NOON.", "nsi_id": "unitedstatespostalservice-a77078", "operator": "United States Postal Service", "operator:short": "USPS", "operator:type": "public", "operator:wikidata": "Q668687", "ref": "2161700001"}, "type": "Feature"}
{"geometry": {"coordinates": [-76.0659146, 39.04559], "type": "Point"}, "id": "NPKQyznm2d5jyM2SRkKztRQbsSo=", "properties": {"@source_uri": "https://tools.usps.com/UspsToolsRestServices/rest/POLocator/findLocations", "@spider": "usps_collection_boxes", "addr:city": "CENTREVILLE", "addr:country": "US", "addr:postcode": "21617", "addr:state": "MD", "addr:street_address": "107 N LIBERTY ST", "amenity": "post_box", "brand": "United States Postal Service", "brand:wikidata": "Q668687", "collection_times": "Mo-Sa 15:00", "note": "ON 12/24 AND 12/31, THIS BOX MAY BE COLLECTED AS EARLY AS 12 NOON.", "nsi_id": "unitedstatespostalservice-a77078", "operator": "United States Postal Service", "operator:short": "USPS", "operator:type": "public", "operator:wikidata": "Q668687", "ref": "2161700004"}, "type": "Feature"}
{"geometry": {"coordinates": [-76.0665253, 39.044701], "type": "Point"}, "id": "omYQ0hpv5K6A7MmcPraU730EfpI=", "properties": {"@source_uri": "https://tools.usps.com/UspsToolsRestServices/rest/POLocator/findLocations", "@spider": "usps_collection_boxes", "addr:city": "CENTREVILLE", "addr:country": "US", "addr:postcode": "21617", "addr:state": "MD", "addr:street_address": "101 S LIBERTY ST", "amenity": "post_box", "brand": "United States Postal Service", "brand:wikidata": "Q668687", "collection_times": "Mo-Sa 15:00", "note": "ON 12/24 AND 12/31, THIS BOX MAY BE COLLECTED AS EARLY AS 12 NOON.", "nsi_id": "unitedstatespostalservice-a77078", "operator": "United States Postal Service", "operator:short": "USPS", "operator:type": "public", "operator:wikidata": "Q668687", "ref": "2161700005"}, "type": "Feature"}
{"geometry": {"coordinates": [-76.0654799, 39.044146], "type": "Point"}, "id": "sl3JU4vdPv8XBFwEt5ELBmdlxUM=", "properties": {"@source_uri": "https://tools.usps.com/UspsToolsRestServices/rest/POLocator/findLocations", "@spider": "usps_collection_boxes", "addr:city": "CENTREVILLE", "addr:country": "US", "addr:postcode": "21617", "addr:state": "MD", "addr:street_address": "102 S COMMERCE ST", "amenity": "post_box", "brand": "United States Postal Service", "brand:wikidata": "Q668687", "collection_times": "Mo-Sa 15:00", "note": "ON 12/24 AND 12/31, THIS BOX MAY BE COLLECTED AS EARLY AS 12 NOON.", "nsi_id": "unitedstatespostalservice-a77078", "operator": "United States Postal Service", "operator:short": "USPS", "operator:type": "public", "operator:wikidata": "Q668687", "ref": "2161700006"}, "type": "Feature"}
{"geometry": {"coordinates": [-76.063953964, 39.043557274], "type": "Point"}, "id": "-RbJdyWBoVJBMXiGUm3_uV7tduk=", "properties": {"@source_uri": "https://tools.usps.com/UspsToolsRestServices/rest/POLocator/findLocations", "@spider": "usps_collection_boxes", "addr:city": "CENTREVILLE", "addr:country": "US", "addr:postcode": "21617", "addr:state": "MD", "addr:street_address": "202 E WATER ST", "amenity": "post_box", "brand": "United States Postal Service", "brand:wikidata": "Q668687", "collection_times": "Mo-Fr 17:00; Sa 15:00", "indoor": "yes", "note": "ON 12/24 AND 12/31, THIS BOX MAY BE COLLECTED AS EARLY AS 12 NOON.", "nsi_id": "unitedstatespostalservice-a77078", "operator": "United States Postal Service", "operator:short": "USPS", "operator:type": "public", "operator:wikidata": "Q668687", "ref": "2161700009"}, "type": "Feature"}
{"geometry": {"coordinates": [-76.0743186, 39.031914], "type": "Point"}, "id": "tj9ur5DkNtr6IFelzaoMWvHugq4=", "properties": {"@source_uri": "https://tools.usps.com/UspsToolsRestServices/rest/POLocator/findLocations", "@spider": "usps_collection_boxes", "addr:city": "CENTREVILLE", "addr:country": "US", "addr:postcode": "21617", "addr:state": "MD", "addr:street_address": "2400 CENTREVILLE RD", "amenity": "post_box", "brand": "United States Postal Service", "brand:wikidata": "Q668687", "collection_times": "Mo-Sa 10:00", "nsi_id": "unitedstatespostalservice-a77078", "operator": "United States Postal Service", "operator:short": "USPS", "operator:type": "public", "operator:wikidata": "Q668687", "ref": "2161700010"}, "type": "Feature"}
{"geometry": {"coordinates": [-76.063953964, 39.043557274], "type": "Point"}, "id": "t598_ORwHsmTOZbTZOS_iR9Irgc=", "properties": {"@source_uri": "https://tools.usps.com/UspsToolsRestServices/rest/POLocator/findLocations", "@spider": "usps_collection_boxes", "addr:city": "CENTREVILLE", "addr:country": "US", "addr:postcode": "21617", "addr:state": "MD", "addr:street_address": "202 E WATER ST", "amenity": "post_box", "brand": "United States Postal Service", "brand:wikidata": "Q668687", "collection_times": "Mo-Fr 17:00; Sa 15:00", "indoor": "yes", "note": "ON 12/24 AND 12/31, THIS BOX MAY BE COLLECTED AS EARLY AS 12 NOON.", "nsi_id": "unitedstatespostalservice-a77078", "operator": "United States Postal Service", "operator:short": "USPS", "operator:type": "public", "operator:wikidata": "Q668687", "ref": "2161700012"}, "type": "Feature"}
{"geometry": {"coordinates": [-76.063953964, 39.043557274], "type": "Point"}, "id": "yyzlzBW-h7sK1tVSOiyuEOdYGKQ=", "properties": {"@source_uri": "https://tools.usps.com/UspsToolsRestServices/rest/POLocator/findLocations", "@spider": "usps_collection_boxes", "addr:city": "CENTREVILLE", "addr:country": "US", "addr:postcode": "21617", "addr:state": "MD", "addr:street_address": "202 E WATER ST", "amenity": "post_box", "brand": "United States Postal Service", "brand:wikidata": "Q668687", "collection_times": "Mo-Fr 17:00; Sa 11:30", "indoor": "yes", "note": "ON 12/24 AND 12/31, THIS BOX MAY BE COLLECTED AS EARLY AS 12 NOON.", "nsi_id": "unitedstatespostalservice-a77078", "operator": "United States Postal Service", "operator:short": "USPS", "operator:type": "public", "operator:wikidata": "Q668687", "ref": "2161700014"}, "type": "Feature"}
{"geometry": {"coordinates": [-76.286636169, 38.974956733], "type": "Point"}, "id": "CVe0wuKF8znjKip0pyoYM_Z5YuQ=", "properties": {"@source_uri": "https://tools.usps.com/UspsToolsRestServices/rest/POLocator/findLocations", "@spider": "usps_collection_boxes", "addr:city": "CHESTER", "addr:country": "US", "addr:postcode": "21619", "addr:state": "MD", "addr:street_address": "1575 POSTAL RD", "amenity": "post_box", "brand": "United States Postal Service", "brand:wikidata": "Q668687", "collection_times": "Mo-Fr 16:30; Sa 12:00", "note": "ON 12/24 AND 12/31, THIS BOX MAY BE COLLECTED AS EARLY AS 12 NOON.", "nsi_id": "unitedstatespostalservice-a77078", "operator": "United States Postal Service", "operator:short": "USPS", "operator:type": "public", "operator:wikidata": "Q668687", "ref": "2161900000"}, "type": "Feature"}
{"geometry": {"coordinates": [-76.2783533, 38.974318], "type": "Point"}, "id": "lvyiqsFW6lT3JB-XQQ9b33X4OPk=", "properties": {"@source_uri": "https://tools.usps.com/UspsToolsRestServices/rest/POLocator/findLocations", "@spider": "usps_collection_boxes", "addr:city": "CHESTER", "addr:country": "US", "addr:postcode": "21619", "addr:state": "MD", "addr:street_address": "18 KENT TOWN MARKET", "amenity": "post_box", "brand": "United States Postal Service", "brand:wikidata": "Q668687", "collection_times": "Mo-Sa 10:00", "nsi_id": "unitedstatespostalservice-a77078", "operator": "United States Postal Service", "operator:short": "USPS", "operator:type": "public", "operator:wikidata": "Q668687", "ref": "2161900001"}, "type": "Feature"}
{"geometry": {"coordinates": [-76.286636169, 38.974956733], "type": "Point"}, "id": "DPNW9jGu8uuIcVHU7L0wRXsJeHc=", "properties": {"@source_uri": "https://tools.usps.com/UspsToolsRestServices/rest/POLocator/findLocations", "@spider": "usps_collection_boxes", "addr:city": "CHESTER", "addr:country": "US", "addr:postcode": "21619", "addr:state": "MD", "addr:street_address": "1575 POSTAL RD", "amenity": "post_box", "brand": "United States Postal Service", "brand:wikidata": "Q668687", "collection_times": "Mo-Fr 16:30; Sa 12:00", "indoor": "yes", "note": "ON 12/24 AND 12/31, THIS BOX MAY BE COLLECTED AS EARLY AS 12 NOON.", "nsi_id": "unitedstatespostalservice-a77078", "operator": "United States Postal Service", "operator:short": "USPS", "operator:type": "public", "operator:wikidata": "Q668687", "ref": "2161900008"}, "type": "Feature"}
{"geometry": {"coordinates": [-76.286636169, 38.974956733], "type": "Point"}, "id": "bZ5tMIUJ-1hstqXsahsnxn7KJ4E=", "properties": {"@source_uri": "https://tools.usps.com/UspsToolsRestServices/rest/POLocator/findLocations", "@spider": "usps_collection_boxes", "addr:city": "CHESTER", "addr:country": "US", "addr:postcode": "21619", "addr:state": "MD", "addr:street_address": "1575 POSTAL RD", "amenity": "post_box", "brand": "United States Postal Service", "brand:wikidata": "Q668687", "collection_times": "Mo-Fr 16:30; Sa 12:00", "indoor": "yes", "note": "ON 12/24 AND 12/31, THIS BOX MAY BE COLLECTED AS EARLY AS 12 NOON.", "nsi_id": "unitedstatespostalservice-a77078", "operator": "United States Postal Service", "operator:short": "USPS", "operator:type": "public", "operator:wikidata": "Q668687", "ref": "2161900009"}, "type": "Feature"}
{"geometry": {"coordinates": [-76.286636169, 38.974956733], "type": "Point"}, "id": "zbV8WDeuQktnJbv7tmxGy9ShMsI=", "properties": {"@source_uri": "https://tools.usps.com/UspsToolsRestServices/rest/POLocator/findLocations", "@spider": "usps_collection_boxes", "addr:city": "CHESTER", "addr:country": "US", "addr:postcode": "21619", "addr:state": "MD", "addr:street_address": "1575 POSTAL RD", "amenity": "post_box", "brand": "United States Postal Service", "brand:wikidata": "Q668687", "collection_times": "Mo-Fr 16:30; Sa 12:00", "indoor": "yes", "note": "ON 12/24 AND 12/31, THIS BOX MAY BE COLLECTED AS EARLY AS 12 NOON.", "nsi_id": "unitedstatespostalservice-a77078", "operator": "United States Postal Service", "operator:short": "USPS", "operator:type": "public", "operator:wikidata": "Q668687", "ref": "2161900013"}, "type": "Feature"}
{"geometry": {"coordinates": [-76.066815796, 39.210154396], "type": "Point"}, "id": "yqPiB2HoBINi4Kqpj5UJyOdYq9s=", "properties": {"@source_uri": "https://tools.usps.com/UspsToolsRestServices/rest/POLocator/findLocations", "@spider": "usps_collection_boxes", "addr:city": "CHESTERTOWN", "addr:country": "US", "addr:postcode": "21620", "addr:state": "MD", "addr:street_address": "104 SPRING AVE", "amenity": "post_box", "brand": "United States Postal Service", "brand:wikidata": "Q668687", "collection_times": "Mo-Fr 17:00; Sa 16:00", "note": "ON 12/24 AND 12/31, THIS BOX MAY BE COLLECTED AS EARLY AS 12 NOON.", "nsi_id": "unitedstatespostalservice-a77078", "operator": "United States Postal Service", "operator:short": "USPS", "operator:type": "public", "operator:wikidata": "Q668687", "ref": "2162000001"}, "type": "Feature"}
{"geometry": {"coordinates": [-76.0652072, 39.217197], "type": "Point"}, "id": "HceBDWUj3a5rfgrqDiQLxdbMPJo=", "properties": {"@source_uri": "https://tools.usps.com/UspsToolsRestServices/rest/POLocator/findLocations", "@spider": "usps_collection_boxes", "addr:city": "CHESTERTOWN", "addr:country": "US", "addr:postcode": "21620", "addr:state": "MD", "addr:street_address": "100 BROWN ST", "amenity": "post_box", "brand": "United States Postal Service", "brand:wikidata": "Q668687", "collection_times": "Mo-Sa 10:00", "nsi_id": "unitedstatespostalservice-a77078", "operator": "United States Postal Service", "operator:short": "USPS", "operator:type": "public", "operator:wikidata": "Q668687", "ref": "2162000007"}, "type": "Feature"}
{"geometry": {"coordinates": [-76.0771868, 39.219106], "type": "Point"}, "id": "V4hDPNAMjIkSQ9FVVwGdn-kDZXU=", "properties": {"@source_uri": "https://tools.usps.com/UspsToolsRestServices/rest/POLocator/findLocations", "@spider": "usps_collection_boxes", "addr:city": "CHESTERTOWN", "addr:country": "US", "addr:postcode": "21620", "addr:state": "MD", "addr:street_address": "101 MORGNEC RD", "amenity": "post_box", "brand": "United States Postal Service", "brand:wikidata": "Q668687", "collection_times": "Mo-Sa 10:00", "nsi_id": "unitedstatespostalservice-a77078", "operator": "United States Postal Service", "operator:short": "USPS", "operator:type": "public", "operator:wikidata": "Q668687", "ref": "2162000011"}, "type": "Feature"}
{"geometry": {"coordinates": [-76.0655276, 39.210147], "type": "Point"}, "id": "jY_CKHVkJhaFrQaaZsUmvhnmIPM=", "properties": {"@source_uri": "https://tools.usps.com/UspsToolsRestServices/rest/POLocator/findLocations", "@spider": "usps_collection_boxes", "addr:city": "CHESTERTOWN", "addr:country": "US", "addr:postcode": "21620", "addr:state": "MD", "addr:street_address": "118 N CROSS ST", "amenity": "post_box", "brand": "United States Postal Service", "brand:wikidata": "Q668687", "collection_times": "Mo-Sa 11:00", "nsi_id": "unitedstatespostalservice-a77078", "operator": "United States Postal Service", "operator:short": "USPS", "operator:type": "public", "operator:wikidata": "Q668687", "ref": "2162000015"}, "type": "Feature"}
{"geometry": {"coordinates": [-76.0655985, 39.208573], "type": "Point"}, "id": "eNLo46Kmf_HDFaHIfbotjahmOaY=", "properties": {"@source_uri": "https://tools.usps.com/UspsToolsRestServices/rest/POLocator/findLocations", "@spider": "usps_collection_boxes", "addr:city": "CHESTERTOWN", "addr:country": "US", "addr:postcode": "21620", "addr:state": "MD", "addr:street_address": "200 HIGH ST", "amenity": "post_box", "brand": "United States Postal Service", "brand:wikidata": "Q668687", "collection_times": "Mo-Sa 12:00", "nsi_id": "unitedstatespostalservice-a77078", "operator": "United States Postal Service", "operator:short": "USPS", "operator:type": "public", "operator:wikidata": "Q668687", "ref": "2162000018"}, "type": "Feature"}
{"geometry": {"coordinates": [-76.0688951, 39.225202], "type": "Point"}, "id": "syX3gj3V9Ovlsv4D1c1rLXDC7jA=", "properties": {"@source_uri": "https://tools.usps.com/UspsToolsRestServices/rest/POLocator/findLocations", "@spider": "usps_collection_boxes", "addr:city": "CHESTERTOWN", "addr:country": "US", "addr:postcode": "21620", "addr:state": "MD", "addr:street_address": "711 WASHINGTON AVE #12", "amenity": "post_box", "brand": "United States Postal Service", "brand:wikidata": "Q668687", "collection_times": "Mo-Sa 11:00", "nsi_id": "unitedstatespostalservice-a77078", "operator": "United States Postal Service", "operator:short": "USPS", "operator:type": "public", "operator:wikidata": "Q668687", "ref": "2162000020"}, "type": "Feature"}
{"geometry": {"coordinates": [-76.0704608, 39.230155], "type": "Point"}, "id": "fG9qCu_nFnbOCbz8vjMbZYycmEQ=", "properties": {"@source_uri": "https://tools.usps.com/UspsToolsRestServices/rest/POLocator/findLocations", "@spider": "usps_collection_boxes", "addr:city": "CHESTERTOWN", "addr:country": "US", "addr:postcode": "21620", "addr:state": "MD", "addr:street_address": "17 WASHINGTON SQ", "amenity": "post_box", "brand": "United States Postal Service", "brand:wikidata": "Q668687", "collection_times": "Mo-Sa 11:30", "nsi_id": "unitedstatespostalservice-a77078", "operator": "United States Postal Service", "operator:short": "USPS", "operator:type": "public", "operator:wikidata": "Q668687", "ref": "2162000024"}, "type": "Feature"}
{"geometry": {"coordinates": [-76.0367165, 39.197556], "type": "Point"}, "id": "ofswf4asDsS1VoquqbNdcmVouy8=", "properties": {"@source_uri": "https://tools.usps.com/UspsToolsRestServices/rest/POLocator/findLocations", "@spider": "usps_collection_boxes", "addr:city": "CHESTERTOWN", "addr:country": "US", "addr:postcode": "21620", "addr:state": "MD", "addr:street_address": "6602 CHURCH HILL RD", "amenity": "post_box", "brand": "United States Postal Service", "brand:wikidata": "Q668687", "collection_times": "Mo-Sa 09:30", "nsi_id": "unitedstatespostalservice-a77078", "operator": "United States Postal Service", "operator:short": "USPS", "operator:type": "public", "operator:wikidata": "Q668687", "ref": "2162000025"}, "type": "Feature"}
{"geometry": {"coordinates": [-76.066815796, 39.210154396], "type": "Point"}, "id": "IL9T4OoA6iWfN_o-h0bHu5mUrPk=", "properties": {"@source_uri": "https://tools.usps.com/UspsToolsRestServices/rest/POLocator/findLocations", "@spider": "usps_collection_boxes", "addr:city": "CHESTERTOWN", "addr:country": "US", "addr:postcode": "21620", "addr:state": "MD", "addr:street_address": "104 SPRING AVE", "amenity": "post_box", "brand": "United States Postal Service", "brand:wikidata": "Q668687", "collection_times": "Mo-Fr 17:00; Sa 16:00", "indoor": "yes", "note": "ON 12/24 AND 12/31, THIS BOX MAY BE COLLECTED AS EARLY AS 12 NOON.", "nsi_id": "unitedstatespostalservice-a77078", "operator": "United States Postal Service", "operator:short": "USPS", "operator:type": "public", "operator:wikidata": "Q668687", "ref": "2162000026"}, "type": "Feature"}
{"geometry": {"coordinates": [-76.066815796, 39.210154396], "type": "Point"}, "id": "w5mmiB7PJ1BQ1v-Vj7Y7sl0gI20=", "properties": {"@source_uri": "https://tools.usps.com/UspsToolsRestServices/rest/POLocator/findLocations", "@spider": "usps_collection_boxes", "addr:city": "CHESTERTOWN", "addr:country": "US", "addr:postcode": "21620", "addr:state": "MD", "addr:street_address": "104 SPRING AVE", "amenity": "post_box", "brand": "United States Postal Service", "brand:wikidata": "Q668687", "collection_times": "Mo-Fr 17:00; Sa 16:00", "indoor": "yes", "note": "ON 12/24 AND 12/31, THIS BOX MAY BE COLLECTED AS EARLY AS 12 NOON.", "nsi_id": "unitedstatespostalservice-a77078", "operator": "United States Postal Service", "operator:short": "USPS", "operator:type": "public", "operator:wikidata": "Q668687", "ref": "2162000028"}, "type": "Feature"}
{"geometry": {"coordinates": [-76.066815796, 39.210154396], "type": "Point"}, "id": "dprz_fEacy02jxIa-W4JAKOybT4=", "properties": {"@source_uri": "https://tools.usps.com/UspsToolsRestServices/rest/POLocator/findLocations", "@spider": "usps_collection_boxes", "addr:city": "CHESTERTOWN", "addr:country": "US", "addr:postcode": "21620", "addr:state": "MD", "addr:street_address": "104 SPRING AVE", "amenity": "post_box", "brand": "United States Postal Service", "brand:wikidata": "Q668687", "collection_times": "Mo-Fr 17:00; Sa 12:00", "indoor": "yes", "note": "ON 12/24 AND 12/31, THIS BOX MAY BE COLLECTED AS EARLY AS 12 NOON.", "nsi_id": "unitedstatespostalservice-a77078", "operator": "United States Postal Service", "operator:short": "USPS", "operator:type": "public", "operator:wikidata": "Q668687", "ref": "2162000032"}, "type": "Feature"}
{"geometry": {"coordinates": [-76.152601, 38.502022], "type": "Point"}, "id": "SFtkOXMGmBZ7tWQIa_TY6PmG4MU=", "properties": {"@source_uri": "https://tools.usps.com/UspsToolsRestServices/rest/POLocator/findLocations", "@spider": "usps_collection_boxes", "addr:city": "CHURCH CREEK", "addr:country": "US", "addr:postcode": "21622", "addr:state": "MD", "addr:street_address": "4681 CHURCH CREEK RD", "amenity": "post_box", "brand": "United States Postal Service", "brand:wikidata": "Q668687", "collection_times": "Mo-Fr 15:45; Sa 11:30", "note": "ON 12/24 AND 12/31, THIS BOX MAY BE COLLECTED AS EARLY AS 12 NOON.", "nsi_id": "unitedstatespostalservice-a77078", "operator": "United States Postal Service", "operator:short": "USPS", "operator:type": "public", "operator:wikidata": "Q668687", "ref": "2162200000"}, "type": "Feature"}
{"geometry": {"coordinates": [-76.152201, 38.50219], "type": "Point"}, "id": "IAF9Dkb29-hiVL5hgs71qaNuFnk=", "properties": {"@source_uri": "https://tools.usps.com/UspsToolsRestServices/rest/POLocator/findLocations", "@spider": "usps_collection_boxes", "addr:city": "CHURCH CREEK", "addr:country": "US", "addr:postcode": "21622", "addr:state": "MD", "addr:street_address": "4681 CHURCH CREEK RD", "amenity": "post_box", "brand": "United States Postal Service", "brand:wikidata": "Q668687", "collection_times": "Mo-Fr 15:45; Sa 11:30", "indoor": "yes", "note": "ON 12/24 AND 12/31, THIS BOX MAY BE COLLECTED AS EARLY AS 12 NOON.", "nsi_id": "unitedstatespostalservice-a77078", "operator": "United States Postal Service", "operator:short": "USPS", "operator:type": "public", "operator:wikidata": "Q668687", "ref": "2162200001"}, "type": "Feature"}
{"geometry": {"coordinates": [-76.2308119, 38.343868], "type": "Point"}, "id": "aDs5DKEArJEbYwUhyplg-XcGxYk=", "properties": {"@source_uri": "https://tools.usps.com/UspsToolsRestServices/rest/POLocator/findLocations", "@spider": "usps_collection_boxes", "addr:city": "CHURCH CREEK", "addr:country": "US", "addr:postcode": "21622", "addr:state": "MD", "addr:street_address": "2806 HOOPERS ISLAND RD", "amenity": "post_box", "brand": "United States Postal Service", "brand:wikidata": "Q668687", "collection_times": "Mo-Fr 14:30; Sa 12:00", "note": "ON 12/24 AND 12/31, THIS BOX MAY BE COLLECTED AS EARLY AS 12 NOON.", "nsi_id": "unitedstatespostalservice-a77078", "operator": "United States Postal Service", "operator:short": "USPS", "operator:type": "public", "operator:wikidata": "Q668687", "ref": "2162200003"}, "type": "Feature"}
{"geometry": {"coordinates": [-76.152319917, 38.501802311], "type": "Point"}, "id": "4EUO_fPvSiGmONIO2ejsLVOuqJ8=", "properties": {"@source_uri": "https://tools.usps.com/UspsToolsRestServices/rest/POLocator/findLocations", "@spider": "usps_collection_boxes", "addr:city": "CHURCH CREEK", "addr:country": "US", "addr:postcode": "21622", "addr:state": "MD", "addr:street_address": "4681 GOLDEN HILL RD", "amenity": "post_box", "brand": "United States Postal Service", "brand:wikidata": "Q668687", "collection_times": "Mo-Fr 16:00; Sa 12:00", "indoor": "yes", "note": "ON 12/24 AND 12/31, THIS BOX MAY BE COLLECTED AS EARLY AS 12 NOON.", "nsi_id": "unitedstatespostalservice-a77078", "operator": "United States Postal Service", "operator:short": "USPS", "operator:type": "public", "operator:wikidata": "Q668687", "ref": "2162200004"}, "type": "Feature"}
{"geometry": {"coordinates": [-75.981545169, 39.145060615], "type": "Point"}, "id": "mSvyyiJlkWvab1EOqcGPAFRV17A=", "properties": {"@source_uri": "https://tools.usps.com/UspsToolsRestServices/rest/POLocator/findLocations", "@spider": "usps_collection_boxes", "addr:city": "CHURCH HILL", "addr:country": "US", "addr:postcode": "21623", "addr:state": "MD", "addr:street_address": "558 MAIN ST", "amenity": "post_box", "brand": "United States Postal Service", "brand:wikidata": "Q668687", "collection_times": "Mo-Fr 16:30; Sa 10:30", "note": "ON 12/24 AND 12/31, THIS BOX MAY BE COLLECTED AS EARLY AS 12 NOON.", "nsi_id": "unitedstatespostalservice-a77078", "operator": "United States Postal Service", "operator:short": "USPS", "operator:type": "public", "operator:wikidata": "Q668687", "ref": "2162300000"}, "type": "Feature"}
{"geometry": {"coordinates": [-75.981545169, 39.145060615], "type": "Point"}, "id": "27HyYMaRuXKhKHBQnKCWWFm_5w0=", "properties": {"@source_uri": "https://tools.usps.com/UspsToolsRestServices/rest/POLocator/findLocations", "@spider": "usps_collection_boxes", "addr:city": "CHURCH HILL", "addr:country": "US", "addr:postcode": "21623", "addr:state": "MD", "addr:street_address": "558 MAIN ST", "amenity": "post_box", "brand": "United States Postal Service", "brand:wikidata": "Q668687", "collection_times": "Mo-Fr 16:30; Sa 10:30", "indoor": "yes", "note": "ON 12/24 AND 12/31, THIS BOX MAY BE COLLECTED AS EARLY AS 12 NOON.", "nsi_id": "unitedstatespostalservice-a77078", "operator": "United States Postal Service", "operator:short": "USPS", "operator:type": "public", "operator:wikidata": "Q668687", "ref": "2162300001"}, "type": "Feature"}
{"geometry": {"coordinates": [-75.981545169, 39.145060615], "type": "Point"}, "id": "HM4sQJvH5M6R2E7lG-IWmjqubuw=", "properties": {"@source_uri": "https://tools.usps.com/UspsToolsRestServices/rest/POLocator/findLocations", "@spider": "usps_collection_boxes", "addr:city": "CHURCH HILL", "addr:country": "US", "addr:postcode": "21623", "addr:state": "MD", "addr:street_address": "558 MAIN ST", "amenity": "post_box", "brand": "United States Postal Service", "brand:wikidata": "Q668687", "collection_times": "Mo-Fr 16:30; Sa 10:30", "indoor": "yes", "note": "ON 12/24 AND 12/31, THIS BOX MAY BE COLLECTED AS EARLY AS 12 NOON.", "nsi_id": "unitedstatespostalservice-a77078", "operator": "United States Postal Service", "operator:short": "USPS", "operator:type": "public", "operator:wikidata": "Q668687", "ref": "2162300002"}, "type": "Feature"}
{"geometry": {"coordinates": [-75.981545169, 39.145060615], "type": "Point"}, "id": "5gJGu8Hfjymw-5bYP0dXO82rVzA=", "properties": {"@source_uri": "https://tools.usps.com/UspsToolsRestServices/rest/POLocator/findLocations", "@spider": "usps_collection_boxes", "addr:city": "CHURCH HILL", "addr:country": "US", "addr:postcode": "21623", "addr:state": "MD", "addr:street_address": "558 MAIN ST", "amenity": "post_box", "brand": "United States Postal Service", "brand:wikidata": "Q668687", "collection_times": "Mo-Fr 16:30; Sa 10:00", "indoor": "yes", "note": "ON 12/24 AND 12/31, THIS BOX MAY BE COLLECTED AS EARLY AS 12 NOON.", "nsi_id": "unitedstatespostalservice-a77078", "operator": "United States Postal Service", "operator:short": "USPS", "operator:type": "public", "operator:wikidata": "Q668687", "ref": "2162300004"}, "type": "Feature"}
{"geometry": {"coordinates": [-75.995020012, 38.87370151], "type": "Point"}, "id": "KHWgjvzh8DoZX5StdPmtnT-ewqg=", "properties": {"@source_uri": "https://tools.usps.com/UspsToolsRestServices/rest/POLocator/findLocations", "@spider": "usps_collection_boxes", "addr:city": "CORDOVA", "addr:country": "US", "addr:postcode": "21625", "addr:state": "MD", "addr:street_address": "11836 KITTYS CORNER RD", "amenity": "post_box", "brand": "United States Postal Service", "brand:wikidata": "Q668687", "collection_times": "Mo-Fr 16:30; Sa 11:00", "note": "ON 12/24 AND 12/31, THIS BOX MAY BE COLLECTED AS EARLY AS 12 NOON.", "nsi_id": "unitedstatespostalservice-a77078", "operator": "United States Postal Service", "operator:short": "USPS", "operator:type": "public", "operator:wikidata": "Q668687", "ref": "2162500000"}, "type": "Feature"}
{"geometry": {"coordinates": [-75.995020012, 38.87370151], "type": "Point"}, "id": "pDexPRd8oufirmsXKuZ_qcS-jCc=", "properties": {"@source_uri": "https://tools.usps.com/UspsToolsRestServices/rest/POLocator/findLocations", "@spider": "usps_collection_boxes", "addr:city": "CORDOVA", "addr:country": "US", "addr:postcode": "21625", "addr:state": "MD", "addr:street_address": "11836 KITTYS CORNER RD", "amenity": "post_box", "brand": "United States Postal Service", "brand:wikidata": "Q668687", "collection_times": "Mo-Fr 16:15; Sa 11:00", "indoor": "yes", "note": "ON 12/24 AND 12/31, THIS BOX MAY BE COLLECTED AS EARLY AS 12 NOON.", "nsi_id": "unitedstatespostalservice-a77078", "operator": "United States Postal Service", "operator:short": "USPS", "operator:type": "public", "operator:wikidata": "Q668687", "ref": "2162500001"}, "type": "Feature"}
{"geometry": {"coordinates": [-75.995020012, 38.87370151], "type": "Point"}, "id": "HGDrBATfvFzprUSb812ZGaiWa68=", "properties": {"@source_uri": "https://tools.usps.com/UspsToolsRestServices/rest/POLocator/findLocations", "@spider": "usps_collection_boxes", "addr:city": "CORDOVA", "addr:country": "US", "addr:postcode": "21625", "addr:state": "MD", "addr:street_address": "11836 KITTYS CORNER RD", "amenity": "post_box", "brand": "United States Postal Service", "brand:wikidata": "Q668687", "collection_times": "Mo-Fr 16:15; Sa 11:00", "indoor": "yes", "note": "ON 12/24 AND 12/31, THIS BOX MAY BE COLLECTED AS EARLY AS 12 NOON.", "nsi_id": "unitedstatespostalservice-a77078", "operator": "United States Postal Service", "operator:short": "USPS", "operator:type": "public", "operator:wikidata": "Q668687", "ref": "2162500002"}, "type": "Feature"}
{"geometry": {"coordinates": [-75.995020012, 38.87370151], "type": "Point"}, "id": "1R3xRs1UHa3j1Sc0OINA2GTyxVA=", "properties": {"@source_uri": "https://tools.usps.com/UspsToolsRestServices/rest/POLocator/findLocations", "@spider": "usps_collection_boxes", "addr:city": "CORDOVA", "addr:country": "US", "addr:postcode": "21625", "addr:state": "MD", "addr:street_address": "11836 KITTYS CORNER RD", "amenity": "post_box", "brand": "United States Postal Service", "brand:wikidata": "Q668687", "collection_times": "Mo-Fr 16:30", "indoor": "yes", "note": "ON 12/24 AND 12/31, THIS BOX MAY BE COLLECTED AS EARLY AS 12 NOON.", "nsi_id": "unitedstatespostalservice-a77078", "operator": "United States Postal Service", "operator:short": "USPS", "operator:type": "public", "operator:wikidata": "Q668687", "ref": "2162500005"}, "type": "Feature"}
{"geometry": {"coordinates": [-76.123446396, 38.318581599], "type": "Point"}, "id": "K2Pmc6dVOSuMo02LDuNWWCMt3ps=", "properties": {"@source_uri": "https://tools.usps.com/UspsToolsRestServices/rest/POLocator/findLocations", "@spider": "usps_collection_boxes", "addr:city": "CRAPO", "addr:country": "US", "addr:postcode": "21626", "addr:state": "MD", "addr:street_address": "2568 LAKESVILLE CRAPO RD", "amenity": "post_box", "brand": "United States Postal Service", "brand:wikidata": "Q668687", "collection_times": "Mo-Fr 15:00; Sa 12:45", "note": "ON 12/24 AND 12/31, THIS BOX MAY BE COLLECTED AS EARLY AS 12 NOON.", "nsi_id": "unitedstatespostalservice-a77078", "operator": "United States Postal Service", "operator:short": "USPS", "operator:type": "public", "operator:wikidata": "Q668687", "ref": "2162600000"}, "type": "Feature"}
{"geometry": {"coordinates": [-76.123446396, 38.318581599], "type": "Point"}, "id": "Yadzm2HgQMFHvMj1z-NDUufB8kk=", "properties": {"@source_uri": "https://tools.usps.com/UspsToolsRestServices/rest/POLocator/findLocations", "@spider": "usps_collection_boxes", "addr:city": "CRAPO", "addr:country": "US", "addr:postcode": "21626", "addr:state": "MD", "addr:street_address": "2568 LAKESVILLE CRAPO RD", "amenity": "post_box", "brand": "United States Postal Service", "brand:wikidata": "Q668687", "collection_times": "Mo-Fr 16:00; Sa 14:00", "indoor": "yes", "note": "ON 12/24 AND 12/31, THIS BOX MAY BE COLLECTED AS EARLY AS 12 NOON.", "nsi_id": "unitedstatespostalservice-a77078", "operator": "United States Postal Service", "operator:short": "USPS", "operator:type": "public", "operator:wikidata": "Q668687", "ref": "2162600002"}, "type": "Feature"}
{"geometry": {"coordinates": [-75.921493607, 39.240565808], "type": "Point"}, "id": "frLK72oK2jcj7bC-ctBjFGzzwCA=", "properties": {"@source_uri": "https://tools.usps.com/UspsToolsRestServices/rest/POLocator/findLocations", "@spider": "usps_collection_boxes", "addr:city": "CRUMPTON", "addr:country": "US", "addr:postcode": "21628", "addr:state": "MD", "addr:street_address": "213 BROAD ST", "amenity": "post_box", "brand": "United States Postal Service", "brand:wikidata": "Q668687", "collection_times": "Mo-Fr 16:00; Sa 11:00", "note": "ON 12/24 AND 12/31, THIS BOX MAY BE COLLECTED AS EARLY AS 12 NOON.", "nsi_id": "unitedstatespostalservice-a77078", "operator": "United States Postal Service", "operator:short": "USPS", "operator:type": "public", "operator:wikidata": "Q668687", "ref": "2162800000"}, "type": "Feature"}
{"geometry": {"coordinates": [-75.921493607, 39.240565808], "type": "Point"}, "id": "juMNJ5fVexHH_awj22y8LGP5B7g=", "properties": {"@source_uri": "https://tools.usps.com/UspsToolsRestServices/rest/POLocator/findLocations", "@spider": "usps_collection_boxes", "addr:city": "CRUMPTON", "addr:country": "US", "addr:postcode": "21628", "addr:state": "MD", "addr:street_address": "213 BROAD ST", "amenity": "post_box", "brand": "United States Postal Service", "brand:wikidata": "Q668687", "collection_times": "Mo-Fr 16:00; Sa 11:00", "indoor": "yes", "note": "ON 12/24 AND 12/31, THIS BOX MAY BE COLLECTED AS EARLY AS 12 NOON.", "nsi_id": "unitedstatespostalservice-a77078", "operator": "United States Postal Service", "operator:short": "USPS", "operator:type": "public", "operator:wikidata": "Q668687", "ref": "2162800001"}, "type": "Feature"}
{"geometry": {"coordinates": [-75.921493607, 39.240565808], "type": "Point"}, "id": "2F9CsS9W8IsiPMTEEVJjQfmnISA=", "properties": {"@source_uri": "https://tools.usps.com/UspsToolsRestServices/rest/POLocator/findLocations", "@spider": "usps_collection_boxes", "addr:city": "CRUMPTON", "addr:country": "US", "addr:postcode": "21628", "addr:state": "MD", "addr:street_address": "213 BROAD ST", "amenity": "post_box", "brand": "United States Postal Service", "brand:wikidata": "Q668687", "collection_times": "Mo-Fr 16:00; Sa 11:00", "indoor": "yes", "note": "ON 12/24 AND 12/31, THIS BOX MAY BE COLLECTED AS EARLY AS 12 NOON.", "nsi_id": "unitedstatespostalservice-a77078", "operator": "United States Postal Service", "operator:short": "USPS", "operator:type": "public", "operator:wikidata": "Q668687", "ref": "2162800002"}, "type": "Feature"}
{"geometry": {"coordinates": [-75.921493607, 39.240565808], "type": "Point"}, "id": "KCE1vOx-B2-k9K4M3WGgKigSgY8=", "properties": {"@source_uri": "https://tools.usps.com/UspsToolsRestServices/rest/POLocator/findLocations", "@spider": "usps_collection_boxes", "addr:city": "CRUMPTON", "addr:country": "US", "addr:postcode": "21628", "addr:state": "MD", "addr:street_address": "213 BROAD ST", "amenity": "post_box", "brand": "United States Postal Service", "brand:wikidata": "Q668687", "collection_times": "Mo-Fr 16:00; Sa 11:00", "indoor": "yes", "note": "ON 12/24 AND 12/31, THIS BOX MAY BE COLLECTED AS EARLY AS 12 NOON.", "nsi_id": "unitedstatespostalservice-a77078", "operator": "United States Postal Service", "operator:short": "USPS", "operator:type": "public", "operator:wikidata": "Q668687", "ref": "2162800004"}, "type": "Feature"}
{"geometry": {"coordinates": [-75.8323999, 38.883768], "type": "Point"}, "id": "RfT66yM4QNXA9ob6BwMBq4CPVrM=", "properties": {"@source_uri": "https://tools.usps.com/UspsToolsRestServices/rest/POLocator/findLocations", "@spider": "usps_collection_boxes", "addr:city": "DENTON", "addr:country": "US", "addr:postcode": "21629", "addr:state": "MD", "addr:street_address": "207 S 3RD ST", "amenity": "post_box", "brand": "United States Postal Service", "brand:wikidata": "Q668687", "collection_times": "Mo-Fr 17:00; Sa 12:00", "note": "ON 12/24 AND 12/31, THIS BOX MAY BE COLLECTED AS EARLY AS 12 NOON.", "nsi_id": "unitedstatespostalservice-a77078", "operator": "United States Postal Service", "operator:short": "USPS", "operator:type": "public", "operator:wikidata": "Q668687", "ref": "2162900003"}, "type": "Feature"}
{"geometry": {"coordinates": [-75.8330882, 38.885314], "type": "Point"}, "id": "QBSPyQQX8RwxhqjjrH3oSmi4kAw=", "properties": {"@source_uri": "https://tools.usps.com/UspsToolsRestServices/rest/POLocator/findLocations", "@spider": "usps_collection_boxes", "addr:city": "DENTON", "addr:country": "US", "addr:postcode": "21629", "addr:state": "MD", "addr:street_address": "100 S 2ND ST", "amenity": "post_box", "brand": "United States Postal Service", "brand:wikidata": "Q668687", "collection_times": "Mo-Fr 17:00; Sa 12:00", "note": "ON 12/24 AND 12/31, THIS BOX MAY BE COLLECTED AS EARLY AS 12 NOON.", "nsi_id": "unitedstatespostalservice-a77078", "operator": "United States Postal Service", "operator:short": "USPS", "operator:type": "public", "operator:wikidata": "Q668687", "ref": "2162900004"}, "type": "Feature"}
{"geometry": {"coordinates": [-75.8317686, 38.886056], "type": "Point"}, "id": "vl-FR7pkBppXi04H65nrg1Fpfdc=", "properties": {"@source_uri": "https://tools.usps.com/UspsToolsRestServices/rest/POLocator/findLocations", "@spider": "usps_collection_boxes", "addr:city": "DENTON", "addr:country": "US", "addr:postcode": "21629", "addr:state": "MD", "addr:street_address": "224 MARKET ST", "amenity": "post_box", "brand": "United States Postal Service", "brand:wikidata": "Q668687", "collection_times": "Mo-Fr 17:00; Sa 12:00", "note": "ON 12/24 AND 12/31, THIS BOX MAY BE COLLECTED AS EARLY AS 12 NOON.", "nsi_id": "unitedstatespostalservice-a77078", "operator": "United States Postal Service", "operator:short": "USPS", "operator:type": "public", "operator:wikidata": "Q668687", "ref": "2162900005"}, "type": "Feature"}
{"geometry": {"coordinates": [-75.8239638, 38.873686], "type": "Point"}, "id": "Gx5Vlr3X0iBppzUdRtVE4kHcymY=", "properties": {"@source_uri": "https://tools.usps.com/UspsToolsRestServices/rest/POLocator/findLocations", "@spider": "usps_collection_boxes", "addr:city": "DENTON", "addr:country": "US", "addr:postcode": "21629", "addr:state": "MD", "addr:street_address": "34 DENTON PLZ", "amenity": "post_box", "brand": "United States Postal Service", "brand:wikidata": "Q668687", "collection_times": "Mo-Fr 15:30; Sa 12:00", "note": "ON 12/24 AND 12/31, THIS BOX MAY BE COLLECTED AS EARLY AS 12 NOON.", "nsi_id": "unitedstatespostalservice-a77078", "operator": "United States Postal Service", "operator:short": "USPS", "operator:type": "public", "operator:wikidata": "Q668687", "ref": "2162900009"}, "type": "Feature"}
{"geometry": {"coordinates": [-75.8330916, 38.886469], "type": "Point"}, "id": "F8-_9tlrXp_wwM82Z4sJthNSMRc=", "properties": {"@source_uri": "https://tools.usps.com/UspsToolsRestServices/rest/POLocator/findLocations", "@spider": "usps_collection_boxes", "addr:city": "DENTON", "addr:country": "US", "addr:postcode": "21629", "addr:state": "MD", "addr:street_address": "112 MARKET ST", "amenity": "post_box", "brand": "United States Postal Service", "brand:wikidata": "Q668687", "collection_times": "Mo-Fr 17:00; Sa 12:00", "note": "ON 12/24 AND 12/31, THIS BOX MAY BE COLLECTED AS EARLY AS 12 NOON.", "nsi_id": "unitedstatespostalservice-a77078", "operator": "United States Postal Service", "operator:short": "USPS", "operator:type": "public", "operator:wikidata": "Q668687", "ref": "2162900010"}, "type": "Feature"}
{"geometry": {"coordinates": [-75.8273939, 38.880182], "type": "Point"}, "id": "O02uu7wFQ5QN10XyZDJYreQu4r4=", "properties": {"@source_uri": "https://tools.usps.com/UspsToolsRestServices/rest/POLocator/findLocations", "@spider": "usps_collection_boxes", "addr:city": "DENTON", "addr:country": "US", "addr:postcode": "21629", "addr:state": "MD", "addr:street_address": "403 S 7TH ST", "amenity": "post_box", "brand": "United States Postal Service", "brand:wikidata": "Q668687", "collection_times": "Mo-Fr 17:00; Sa 12:00", "note": "ON 12/24 AND 12/31, THIS BOX MAY BE COLLECTED AS EARLY AS 12 NOON.", "nsi_id": "unitedstatespostalservice-a77078", "operator": "United States Postal Service", "operator:short": "USPS", "operator:type": "public", "operator:wikidata": "Q668687", "ref": "2162900015"}, "type": "Feature"}
{"geometry": {"coordinates": [-75.829248604, 38.885417216], "type": "Point"}, "id": "247enp3GezGW5AimFi9vpkdqT4E=", "properties": {"@source_uri": "https://tools.usps.com/UspsToolsRestServices/rest/POLocator/findLocations", "@spider": "usps_collection_boxes", "addr:city": "DENTON", "addr:country": "US", "addr:postcode": "21629", "addr:state": "MD", "addr:street_address": "503 MARKET ST", "amenity": "post_box", "brand": "United States Postal Service", "brand:wikidata": "Q668687", "collection_times": "Mo-Fr 17:00; Sa 12:00", "indoor": "yes", "note": "ON 12/24 AND 12/31, THIS BOX MAY BE COLLECTED AS EARLY AS 12 NOON.", "nsi_id": "unitedstatespostalservice-a77078", "operator": "United States Postal Service", "operator:short": "USPS", "operator:type": "public", "operator:wikidata": "Q668687", "ref": "2162900016"}, "type": "Feature"}
{"geometry": {"coordinates": [-75.8293111, 38.885565], "type": "Point"}, "id": "XJJEhS5VojEgZTa_Q_WatLlDOOc=", "properties": {"@source_uri": "https://tools.usps.com/UspsToolsRestServices/rest/POLocator/findLocations", "@spider": "usps_collection_boxes", "addr:city": "DENTON", "addr:country": "US", "addr:postcode": "21629", "addr:state": "MD", "addr:street_address": "3 N 5TH ST", "amenity": "post_box", "brand": "United States Postal Service", "brand:wikidata": "Q668687", "collection_times": "Mo-Fr 17:00; Sa 12:00", "note": "ON 12/24 AND 12/31, THIS BOX MAY BE COLLECTED AS EARLY AS 12 NOON.", "nsi_id": "unitedstatespostalservice-a77078", "operator": "United States Postal Service", "operator:short": "USPS", "operator:type": "public", "operator:wikidata": "Q668687", "ref": "2162900017"}, "type": "Feature"}
{"geometry": {"coordinates": [-75.8272007, 38.87207], "type": "Point"}, "id": "0Qdfsz1Bm6eoGRu8hedrtFx8ygw=", "properties": {"@source_uri": "https://tools.usps.com/UspsToolsRestServices/rest/POLocator/findLocations", "@spider": "usps_collection_boxes", "addr:city": "DENTON", "addr:country": "US", "addr:postcode": "21629", "addr:state": "MD", "addr:street_address": "840 S 5 TH AVE.", "amenity": "post_box", "brand": "United States Postal Service", "brand:wikidata": "Q668687", "collection_times": "Mo-Fr 15:15; Sa 12:00", "note": "ON 12/24 AND 12/31, THIS BOX MAY BE COLLECTED AS EARLY AS 12 NOON.", "nsi_id": "unitedstatespostalservice-a77078", "operator": "United States Postal Service", "operator:short": "USPS", "operator:type": "public", "operator:wikidata": "Q668687", "ref": "2162900018"}, "type": "Feature"}
{"geometry": {"coordinates": [-75.829248604, 38.885417216], "type": "Point"}, "id": "4Jv2mjEW4DsPfH_7iA_UpQ9_Qao=", "properties": {"@source_uri": "https://tools.usps.com/UspsToolsRestServices/rest/POLocator/findLocations", "@spider": "usps_collection_boxes", "addr:city": "DENTON", "addr:country": "US", "addr:postcode": "21629", "addr:state": "MD", "addr:street_address": "503 MARKET ST", "amenity": "post_box", "brand": "United States Postal Service", "brand:wikidata": "Q668687", "collection_times": "Mo-Fr 17:00; Sa 12:00", "indoor": "yes", "note": "ON 12/24 AND 12/31, THIS BOX MAY BE COLLECTED AS EARLY AS 12 NOON.", "nsi_id": "unitedstatespostalservice-a77078", "operator": "United States Postal Service", "operator:short": "USPS", "operator:type": "public", "operator:wikidata": "Q668687", "ref": "2162900019"}, "type": "Feature"}
{"geometry": {"coordinates": [-75.829248604, 38.885417216], "type": "Point"}, "id": "D2TW4_rGLdgeFa3EXTLLfGu6GaU=", "properties": {"@source_uri": "https://tools.usps.com/UspsToolsRestServices/rest/POLocator/findLocations", "@spider": "usps_collection_boxes", "addr:city": "DENTON", "addr:country": "US", "addr:postcode": "21629", "addr:state": "MD", "addr:street_address": "503 MARKET ST", "amenity": "post_box", "brand": "United States Postal Service", "brand:wikidata": "Q668687", "collection_times": "Mo-Fr 17:00; Sa 12:00", "indoor": "yes", "note": "ON 12/24 AND 12/31, THIS BOX MAY BE COLLECTED AS EARLY AS 12 NOON.", "nsi_id": "unitedstatespostalservice-a77078", "operator": "United States Postal Service", "operator:short": "USPS", "operator:type": "public", "operator:wikidata": "Q668687", "ref": "2162900021"}, "type": "Feature"}
{"geometry": {"coordinates": [-75.923587732, 38.598414528], "type": "Point"}, "id": "b7hSnjyiPyhKG4YN3ii0phJDPV8=", "properties": {"@source_uri": "https://tools.usps.com/UspsToolsRestServices/rest/POLocator/findLocations", "@spider": "usps_collection_boxes", "addr:city": "EAST NEW MARKET", "addr:country": "US", "addr:postcode": "21631", "addr:state": "MD", "addr:street_address": "101 RAILROAD AVE", "amenity": "post_box", "brand": "United States Postal Service", "brand:wikidata": "Q668687", "collection_times": "Mo-Fr 16:00; Sa 11:00", "note": "ON 12/24 AND 12/31, THIS BOX MAY BE COLLECTED AS EARLY AS 12 NOON.", "nsi_id": "unitedstatespostalservice-a77078", "operator": "United States Postal Service", "operator:short": "USPS", "operator:type": "public", "operator:wikidata": "Q668687", "ref": "2163100000"}, "type": "Feature"}
{"geometry": {"coordinates": [-75.923587732, 38.598414528], "type": "Point"}, "id": "KF0xBWMNx0O28G1Jb-JbyNO9I8s=", "properties": {"@source_uri": "https://tools.usps.com/UspsToolsRestServices/rest/POLocator/findLocations", "@spider": "usps_collection_boxes", "addr:city": "EAST NEW MARKET", "addr:country": "US", "addr:postcode": "21631", "addr:state": "MD", "addr:street_address": "101 RAILROAD AVE", "amenity": "post_box", "brand": "United States Postal Service", "brand:wikidata": "Q668687", "collection_times": "Mo-Fr 16:15; Sa 11:30", "indoor": "yes", "note": "ON 12/24 AND 12/31, THIS BOX MAY BE COLLECTED AS EARLY AS 12 NOON.", "nsi_id": "unitedstatespostalservice-a77078", "operator": "United States Postal Service", "operator:short": "USPS", "operator:type": "public", "operator:wikidata": "Q668687", "ref": "2163100003"}, "type": "Feature"}
{"geometry": {"coordinates": [-75.923587732, 38.598414528], "type": "Point"}, "id": "9ZlQDM2wuFQcab5AIjyGEmrc4QQ=", "properties": {"@source_uri": "https://tools.usps.com/UspsToolsRestServices/rest/POLocator/findLocations", "@spider": "usps_collection_boxes", "addr:city": "EAST NEW MARKET", "addr:country": "US", "addr:postcode": "21631", "addr:state": "MD", "addr:street_address": "101 RAILROAD AVE", "amenity": "post_box", "brand": "United States Postal Service", "brand:wikidata": "Q668687", "collection_times": "Mo-Fr 16:15; Sa 11:30", "indoor": "yes", "note": "ON 12/24 AND 12/31, THIS BOX MAY BE COLLECTED AS EARLY AS 12 NOON.", "nsi_id": "unitedstatespostalservice-a77078", "operator": "United States Postal Service", "operator:short": "USPS", "operator:type": "public", "operator:wikidata": "Q668687", "ref": "2163100004"}, "type": "Feature"}
{"geometry": {"coordinates": [-75.923587732, 38.598414528], "type": "Point"}, "id": "UYk1Lq-had2gpnhyWaLLY4vQibs=", "properties": {"@source_uri": "https://tools.usps.com/UspsToolsRestServices/rest/POLocator/findLocations", "@spider": "usps_collection_boxes", "addr:city": "EAST NEW MARKET", "addr:country": "US", "addr:postcode": "21631", "addr:state": "MD", "addr:street_address": "101 RAILROAD AVE", "amenity": "post_box", "brand": "United States Postal Service", "brand:wikidata": "Q668687", "collection_times": "Mo-Fr 16:30; Sa 11:00", "indoor": "yes", "note": "ON 12/24 AND 12/31, THIS BOX MAY BE COLLECTED AS EARLY AS 12 NOON.", "nsi_id": "unitedstatespostalservice-a77078", "operator": "United States Postal Service", "operator:short": "USPS", "operator:type": "public", "operator:wikidata": "Q668687", "ref": "2163100007"}, "type": "Feature"}
{"geometry": {"coordinates": [-75.781214, 38.702043], "type": "Point"}, "id": "vh42itrngx3Xlrnh1_2V-WmqeN0=", "properties": {"@source_uri": "https://tools.usps.com/UspsToolsRestServices/rest/POLocator/findLocations", "@spider": "usps_collection_boxes", "addr:city": "FEDERALSBURG", "addr:country": "US", "addr:postcode": "21632", "addr:state": "MD", "addr:street_address": "122 MORRIS AVE", "amenity": "post_box", "brand": "United States Postal Service", "brand:wikidata": "Q668687", "collection_times": "Mo-Fr 17:00; Sa 12:15", "note": "ON 12/24 AND 12/31, THIS BOX MAY BE COLLECTED AS EARLY AS 12 NOON.", "nsi_id": "unitedstatespostalservice-a77078", "operator": "United States Postal Service", "operator:short": "USPS", "operator:type": "public", "operator:wikidata": "Q668687", "ref": "2163200000"}, "type": "Feature"}
{"geometry": {"coordinates": [-75.7880209, 38.69888], "type": "Point"}, "id": "lcu1sxRweMuYHIT_slFJlxVaHsw=", "properties": {"@source_uri": "https://tools.usps.com/UspsToolsRestServices/rest/POLocator/findLocations", "@spider": "usps_collection_boxes", "addr:city": "FEDERALSBURG", "addr:country": "US", "addr:postcode": "21632", "addr:state": "MD", "addr:street_address": "3350 HAYMAN DR", "amenity": "post_box", "brand": "United States Postal Service", "brand:wikidata": "Q668687", "collection_times": "Mo-Sa 10:00", "nsi_id": "unitedstatespostalservice-a77078", "operator": "United States Postal Service", "operator:short": "USPS", "operator:type": "public", "operator:wikidata": "Q668687", "ref": "2163200014"}, "type": "Feature"}
{"geometry": {"coordinates": [-75.775836217, 38.694860656], "type": "Point"}, "id": "MaGTVP6UZIsa4YszREC_UwclHoo=", "properties": {"@source_uri": "https://tools.usps.com/UspsToolsRestServices/rest/POLocator/findLocations", "@spider": "usps_collection_boxes", "addr:city": "FEDERALSBURG", "addr:country": "US", "addr:postcode": "21632", "addr:state": "MD", "addr:street_address": "122 MORRIS AVE", "amenity": "post_box", "brand": "United States Postal Service", "brand:wikidata": "Q668687", "collection_times": "Mo-Fr 16:45; Sa 11:45", "indoor": "yes", "note": "ON 12/24 AND 12/31, THIS BOX MAY BE COLLECTED AS EARLY AS 12 NOON.", "nsi_id": "unitedstatespostalservice-a77078", "operator": "United States Postal Service", "operator:short": "USPS", "operator:type": "public", "operator:wikidata": "Q668687", "ref": "2163200015"}, "type": "Feature"}
{"geometry": {"coordinates": [-75.775836217, 38.694860656], "type": "Point"}, "id": "oax45PFGycppzWL2lZyLE-AZJhg=", "properties": {"@source_uri": "https://tools.usps.com/UspsToolsRestServices/rest/POLocator/findLocations", "@spider": "usps_collection_boxes", "addr:city": "FEDERALSBURG", "addr:country": "US", "addr:postcode": "21632", "addr:state": "MD", "addr:street_address": "122 MORRIS AVE", "amenity": "post_box", "brand": "United States Postal Service", "brand:wikidata": "Q668687", "collection_times": "Mo-Fr 16:45; Sa 11:45", "indoor": "yes", "note": "ON 12/24 AND 12/31, THIS BOX MAY BE COLLECTED AS EARLY AS 12 NOON.", "nsi_id": "unitedstatespostalservice-a77078", "operator": "United States Postal Service", "operator:short": "USPS", "operator:type": "public", "operator:wikidata": "Q668687", "ref": "2163200016"}, "type": "Feature"}
{"geometry": {"coordinates": [-75.775836217, 38.694860656], "type": "Point"}, "id": "FJaBc8Ulbpemk2RjXUENQR2VFGQ=", "properties": {"@source_uri": "https://tools.usps.com/UspsToolsRestServices/rest/POLocator/findLocations", "@spider": "usps_collection_boxes", "addr:city": "FEDERALSBURG", "addr:country": "US", "addr:postcode": "21632", "addr:state": "MD", "addr:street_address": "122 MORRIS AVE", "amenity": "post_box", "brand": "United States Postal Service", "brand:wikidata": "Q668687", "collection_times": "Mo-Fr 17:00; Sa 12:00", "indoor": "yes", "note": "ON 12/24 AND 12/31, THIS BOX MAY BE COLLECTED AS EARLY AS 12 NOON.", "nsi_id": "unitedstatespostalservice-a77078", "operator": "United States Postal Service", "operator:short": "USPS", "operator:type": "public", "operator:wikidata": "Q668687", "ref": "2163200018"}, "type": "Feature"}
{"geometry": {"coordinates": [-76.230282395, 38.333093855], "type": "Point"}, "id": "tsVDQ9ea2XdvUDFffojara4zE7A=", "properties": {"@source_uri": "https://tools.usps.com/UspsToolsRestServices/rest/POLocator/findLocations", "@spider": "usps_collection_boxes", "addr:city": "FISHING CREEK", "addr:country": "US", "addr:postcode": "21634", "addr:state": "MD", "addr:street_address": "2654 HOOPERS ISLAND RD", "amenity": "post_box", "brand": "United States Postal Service", "brand:wikidata": "Q668687", "collection_times": "Mo-Fr 15:15; Sa 12:45", "note": "ON 12/24 AND 12/31, THIS BOX MAY BE COLLECTED AS EARLY AS 12 NOON.", "nsi_id": "unitedstatespostalservice-a77078", "operator": "United States Postal Service", "operator:short": "USPS", "operator:type": "public", "operator:wikidata": "Q668687", "ref": "2163400000"}, "type": "Feature"}
{"geometry": {"coordinates": [-76.230282395, 38.333093855], "type": "Point"}, "id": "kNLgkWZZNAXdRseK9gwuCKqQcEE=", "properties": {"@source_uri": "https://tools.usps.com/UspsToolsRestServices/rest/POLocator/findLocations", "@spider": "usps_collection_boxes", "addr:city": "FISHING CREEK", "addr:country": "US", "addr:postcode": "21634", "addr:state": "MD", "addr:street_address": "2654 HOOPERS ISLAND RD", "amenity": "post_box", "brand": "United States Postal Service", "brand:wikidata": "Q668687", "collection_times": "Mo-Fr 15:15; Sa 12:45", "indoor": "yes", "note": "ON 12/24 AND 12/31, THIS BOX MAY BE COLLECTED AS EARLY AS 12 NOON.", "nsi_id": "unitedstatespostalservice-a77078", "operator": "United States Postal Service", "operator:short": "USPS", "operator:type": "public", "operator:wikidata": "Q668687", "ref": "2163400001"}, "type": "Feature"}
{"geometry": {"coordinates": [-76.230282395, 38.333093855], "type": "Point"}, "id": "dEpohFysF6HzdZfqHvNBrGoaPpc=", "properties": {"@source_uri": "https://tools.usps.com/UspsToolsRestServices/rest/POLocator/findLocations", "@spider": "usps_collection_boxes", "addr:city": "FISHING CREEK", "addr:country": "US", "addr:postcode": "21634", "addr:state": "MD", "addr:street_address": "2654 HOOPERS ISLAND RD", "amenity": "post_box", "brand": "United States Postal Service", "brand:wikidata": "Q668687", "collection_times": "Mo-Fr 16:15; Sa 14:15", "indoor": "yes", "note": "ON 12/24 AND 12/31, THIS BOX MAY BE COLLECTED AS EARLY AS 12 NOON.", "nsi_id": "unitedstatespostalservice-a77078", "operator": "United States Postal Service", "operator:short": "USPS", "operator:type": "public", "operator:wikidata": "Q668687", "ref": "2163400003"}, "type": "Feature"}
{"geometry": {"coordinates": [-75.881054768, 39.340618434], "type": "Point"}, "id": "Vsuo1jTbP8fEUWj4SZIrl6-hZ_Q=", "properties": {"@source_uri": "https://tools.usps.com/UspsToolsRestServices/rest/POLocator/findLocations", "@spider": "usps_collection_boxes", "addr:city": "GALENA", "addr:country": "US", "addr:postcode": "21635", "addr:state": "MD", "addr:street_address": "124 W CROSS ST", "amenity": "post_box", "brand": "United States Postal Service", "brand:wikidata": "Q668687", "collection_times": "Mo-Fr 16:00; Sa 11:00", "note": "ON 12/24 AND 12/31, THIS BOX MAY BE COLLECTED AS EARLY AS 12 NOON.", "nsi_id": "unitedstatespostalservice-a77078", "operator": "United States Postal Service", "operator:short": "USPS", "operator:type": "public", "operator:wikidata": "Q668687", "ref": "2163500000"}, "type": "Feature"}
{"geometry": {"coordinates": [-75.881054768, 39.340618434], "type": "Point"}, "id": "u2ISike_cpYtNB0cSUkpj7OUH7s=", "properties": {"@source_uri": "https://tools.usps.com/UspsToolsRestServices/rest/POLocator/findLocations", "@spider": "usps_collection_boxes", "addr:city": "GALENA", "addr:country": "US", "addr:postcode": "21635", "addr:state": "MD", "addr:street_address": "124 W CROSS ST", "amenity": "post_box", "brand": "United States Postal Service", "brand:wikidata": "Q668687", "collection_times": "Mo-Fr 16:00; Sa 11:00", "indoor": "yes", "note": "ON 12/24 AND 12/31, THIS BOX MAY BE COLLECTED AS EARLY AS 12 NOON.", "nsi_id": "unitedstatespostalservice-a77078", "operator": "United States Postal Service", "operator:short": "USPS", "operator:type": "public", "operator:wikidata": "Q668687", "ref": "2163500001"}, "type": "Feature"}
{"geometry": {"coordinates": [-75.881054768, 39.340618434], "type": "Point"}, "id": "P2u73IEAHxCppnmAwEy_VgCQXTc=", "properties": {"@source_uri": "https://tools.usps.com/UspsToolsRestServices/rest/POLocator/findLocations", "@spider": "usps_collection_boxes", "addr:city": "GALENA", "addr:country": "US", "addr:postcode": "21635", "addr:state": "MD", "addr:street_address": "124 W CROSS ST", "amenity": "post_box", "brand": "United States Postal Service", "brand:wikidata": "Q668687", "collection_times": "Mo-Fr 16:00; Sa 11:00", "indoor": "yes", "note": "ON 12/24 AND 12/31, THIS BOX MAY BE COLLECTED AS EARLY AS 12 NOON.", "nsi_id": "unitedstatespostalservice-a77078", "operator": "United States Postal Service", "operator:short": "USPS", "operator:type": "public", "operator:wikidata": "Q668687", "ref": "2163500002"}, "type": "Feature"}
{"geometry": {"coordinates": [-75.881054768, 39.340618434], "type": "Point"}, "id": "3dI-a4mAP6uSltAqvM9YhKWXJxI=", "properties": {"@source_uri": "https://tools.usps.com/UspsToolsRestServices/rest/POLocator/findLocations", "@spider": "usps_collection_boxes", "addr:city": "GALENA", "addr:country": "US", "addr:postcode": "21635", "addr:state": "MD", "addr:street_address": "124 W CROSS ST", "amenity": "post_box", "brand": "United States Postal Service", "brand:wikidata": "Q668687", "collection_times": "Mo-Fr 16:00; Sa 11:00", "indoor": "yes", "note": "ON 12/24 AND 12/31, THIS BOX MAY BE COLLECTED AS EARLY AS 12 NOON.", "nsi_id": "unitedstatespostalservice-a77078", "operator": "United States Postal Service", "operator:short": "USPS", "operator:type": "public", "operator:wikidata": "Q668687", "ref": "2163500005"}, "type": "Feature"}
{"geometry": {"coordinates": [-75.787039685, 39.034895345], "type": "Point"}, "id": "8ELr1L9AFcXb8ZyFOxvA4cJVhD8=", "properties": {"@source_uri": "https://tools.usps.com/UspsToolsRestServices/rest/POLocator/findLocations", "@spider": "usps_collection_boxes", "addr:city": "GOLDSBORO", "addr:country": "US", "addr:postcode": "21636", "addr:state": "MD", "addr:street_address": "507 OLDTOWN RD", "amenity": "post_box", "brand": "United States Postal Service", "brand:wikidata": "Q668687", "collection_times": "Mo-Fr 12:00; Sa 11:00", "nsi_id": "unitedstatespostalservice-a77078", "operator": "United States Postal Service", "operator:short": "USPS", "operator:type": "public", "operator:wikidata": "Q668687", "ref": "2163600000"}, "type": "Feature"}
{"geometry": {"coordinates": [-75.787039685, 39.034895345], "type": "Point"}, "id": "Of7UXoJzvEqUIzh5-cnoEQNTbAQ=", "properties": {"@source_uri": "https://tools.usps.com/UspsToolsRestServices/rest/POLocator/findLocations", "@spider": "usps_collection_boxes", "addr:city": "GOLDSBORO", "addr:country": "US", "addr:postcode": "21636", "addr:state": "MD", "addr:street_address": "507 OLDTOWN RD", "amenity": "post_box", "brand": "United States Postal Service", "brand:wikidata": "Q668687", "collection_times": "Mo-Fr 12:00; Sa 11:00", "indoor": "yes", "nsi_id": "unitedstatespostalservice-a77078", "operator": "United States Postal Service", "operator:short": "USPS", "operator:type": "public", "operator:wikidata": "Q668687", "ref": "2163600001"}, "type": "Feature"}
{"geometry": {"coordinates": [-75.787039685, 39.034895345], "type": "Point"}, "id": "wooEjs5Q2r07_i73sQZGofl2mT8=", "properties": {"@source_uri": "https://tools.usps.com/UspsToolsRestServices/rest/POLocator/findLocations", "@spider": "usps_collection_boxes", "addr:city": "GOLDSBORO", "addr:country": "US", "addr:postcode": "21636", "addr:state": "MD", "addr:street_address": "507 OLDTOWN RD", "amenity": "post_box", "brand": "United States Postal Service", "brand:wikidata": "Q668687", "collection_times": "Mo-Fr 12:00; Sa 11:00", "indoor": "yes", "nsi_id": "unitedstatespostalservice-a77078", "operator": "United States Postal Service", "operator:short": "USPS", "operator:type": "public", "operator:wikidata": "Q668687", "ref": "2163600003"}, "type": "Feature"}
{"geometry": {"coordinates": [-76.20758551, 38.958720358], "type": "Point"}, "id": "U8TVwe7XJbv5aIXWU2wgsNf6qE0=", "properties": {"@source_uri": "https://tools.usps.com/UspsToolsRestServices/rest/POLocator/findLocations", "@spider": "usps_collection_boxes", "addr:city": "GRASONVILLE", "addr:country": "US", "addr:postcode": "21638", "addr:state": "MD", "addr:street_address": "4307 MAIN ST", "amenity": "post_box", "brand": "United States Postal Service", "brand:wikidata": "Q668687", "collection_times": "Mo-Fr 16:45; Sa 11:00", "note": "ON 12/24 AND 12/31, THIS BOX MAY BE COLLECTED AS EARLY AS 12 NOON.", "nsi_id": "unitedstatespostalservice-a77078", "operator": "United States Postal Service", "operator:short": "USPS", "operator:type": "public", "operator:wikidata": "Q668687", "ref": "2163800000"}, "type": "Feature"}
{"geometry": {"coordinates": [-76.20758551, 38.958720358], "type": "Point"}, "id": "zU7y2u3HyoiKqEacINk_rhjO2zQ=", "properties": {"@source_uri": "https://tools.usps.com/UspsToolsRestServices/rest/POLocator/findLocations", "@spider": "usps_collection_boxes", "addr:city": "GRASONVILLE", "addr:country": "US", "addr:postcode": "21638", "addr:state": "MD", "addr:street_address": "4307 MAIN ST", "amenity": "post_box", "brand": "United States Postal Service", "brand:wikidata": "Q668687", "collection_times": "Mo-Fr 16:45; Sa 11:00", "indoor": "yes", "note": "ON 12/24 AND 12/31, THIS BOX MAY BE COLLECTED AS EARLY AS 12 NOON.", "nsi_id": "unitedstatespostalservice-a77078", "operator": "United States Postal Service", "operator:short": "USPS", "operator:type": "public", "operator:wikidata": "Q668687", "ref": "2163800002"}, "type": "Feature"}
{"geometry": {"coordinates": [-76.20758551, 38.958720358], "type": "Point"}, "id": "EG-hEPT32WKDQMoJtI4iBHD0UtI=", "properties": {"@source_uri": "https://tools.usps.com/UspsToolsRestServices/rest/POLocator/findLocations", "@spider": "usps_collection_boxes", "addr:city": "GRASONVILLE", "addr:country": "US", "addr:postcode": "21638", "addr:state": "MD", "addr:street_address": "4307 MAIN ST", "amenity": "post_box", "brand": "United States Postal Service", "brand:wikidata": "Q668687", "collection_times": "Mo-Fr 17:00; Sa 11:00", "indoor": "yes", "note": "ON 12/24 AND 12/31, THIS BOX MAY BE COLLECTED AS EARLY AS 12 NOON.", "nsi_id": "unitedstatespostalservice-a77078", "operator": "United States Postal Service", "operator:short": "USPS", "operator:type": "public", "operator:wikidata": "Q668687", "ref": "2163800005"}, "type": "Feature"}
{"geometry": {"coordinates": [-75.807390196, 38.974532436], "type": "Point"}, "id": "3PkFgPDrAaEbJ_ZMfhsyzEkTxAA=", "properties": {"@source_uri": "https://tools.usps.com/UspsToolsRestServices/rest/POLocator/findLocations", "@spider": "usps_collection_boxes", "addr:city": "GREENSBORO", "addr:country": "US", "addr:postcode": "21639", "addr:state": "MD", "addr:street_address": "202 W SUNSET AVE", "amenity": "post_box", "brand": "United States Postal Service", "brand:wikidata": "Q668687", "collection_times": "Mo-Fr 16:00; Sa 11:30", "note": "ON 12/24 AND 12/31, THIS BOX MAY BE COLLECTED AS EARLY AS 12 NOON.", "nsi_id": "unitedstatespostalservice-a77078", "operator": "United States Postal Service", "operator:short": "USPS", "operator:type": "public", "operator:wikidata": "Q668687", "ref": "2163900000"}, "type": "Feature"}
{"geometry": {"coordinates": [-75.807390196, 38.974532436], "type": "Point"}, "id": "w2FLLSkuc2yhqmB3LKxnWniGIp8=", "properties": {"@source_uri": "https://tools.usps.com/UspsToolsRestServices/rest/POLocator/findLocations", "@spider": "usps_collection_boxes", "addr:city": "GREENSBORO", "addr:country": "US", "addr:postcode": "21639", "addr:state": "MD", "addr:street_address": "202 W SUNSET AVE", "amenity": "post_box", "brand": "United States Postal Service", "brand:wikidata": "Q668687", "collection_times": "Mo-Fr 16:00; Sa 11:30", "indoor": "yes", "note": "ON 12/24 AND 12/31, THIS BOX MAY BE COLLECTED AS EARLY AS 12 NOON.", "nsi_id": "unitedstatespostalservice-a77078", "operator": "United States Postal Service", "operator:short": "USPS", "operator:type": "public", "operator:wikidata": "Q668687", "ref": "2163900001"}, "type": "Feature"}
{"geometry": {"coordinates": [-75.807390196, 38.974532436], "type": "Point"}, "id": "r3BkJpwYU8_qIvIffPhv8N34X4A=", "properties": {"@source_uri": "https://tools.usps.com/UspsToolsRestServices/rest/POLocator/findLocations", "@spider": "usps_collection_boxes", "addr:city": "GREENSBORO", "addr:country": "US", "addr:postcode": "21639", "addr:state": "MD", "addr:street_address": "202 W SUNSET AVE", "amenity": "post_box", "brand": "United States Postal Service", "brand:wikidata": "Q668687", "collection_times": "Mo-Fr 16:00; Sa 11:30", "indoor": "yes", "note": "ON 12/24 AND 12/31, THIS BOX MAY BE COLLECTED AS EARLY AS 12 NOON.", "nsi_id": "unitedstatespostalservice-a77078", "operator": "United States Postal Service", "operator:short": "USPS", "operator:type": "public", "operator:wikidata": "Q668687", "ref": "2163900002"}, "type": "Feature"}
{"geometry": {"coordinates": [-75.807390196, 38.974532436], "type": "Point"}, "id": "qkOVeyjjckQqikMFNxZtXWg4QWU=", "properties": {"@source_uri": "https://tools.usps.com/UspsToolsRestServices/rest/POLocator/findLocations", "@spider": "usps_collection_boxes", "addr:city": "GREENSBORO", "addr:country": "US", "addr:postcode": "21639", "addr:state": "MD", "addr:street_address": "202 W SUNSET AVE", "amenity": "post_box", "brand": "United States Postal Service", "brand:wikidata": "Q668687", "collection_times": "Mo-Fr 16:30; Sa 11:30", "indoor": "yes", "note": "ON 12/24 AND 12/31, THIS BOX MAY BE COLLECTED AS EARLY AS 12 NOON.", "nsi_id": "unitedstatespostalservice-a77078", "operator": "United States Postal Service", "operator:short": "USPS", "operator:type": "public", "operator:wikidata": "Q668687", "ref": "2163900004"}, "type": "Feature"}
{"geometry": {"coordinates": [-75.765036176, 39.074077997], "type": "Point"}, "id": "vnqXN7ubJy--F7OyG9qKC75L5Is=", "properties": {"@source_uri": "https://tools.usps.com/UspsToolsRestServices/rest/POLocator/findLocations", "@spider": "usps_collection_boxes", "addr:city": "HENDERSON", "addr:country": "US", "addr:postcode": "21640", "addr:state": "MD", "addr:street_address": "321 BEE TREE RD", "amenity": "post_box", "brand": "United States Postal Service", "brand:wikidata": "Q668687", "collection_times": "Mo-Fr 13:00; Sa 14:00", "note": "ON 12/24 AND 12/31, THIS BOX MAY BE COLLECTED AS EARLY AS 12 NOON.", "nsi_id": "unitedstatespostalservice-a77078", "operator": "United States Postal Service", "operator:short": "USPS", "operator:type": "public", "operator:wikidata": "Q668687", "ref": "2164000000"}, "type": "Feature"}
{"geometry": {"coordinates": [-75.765036176, 39.074077997], "type": "Point"}, "id": "gxVNSdQujHTDeWcfYSg9mtO6y-g=", "properties": {"@source_uri": "https://tools.usps.com/UspsToolsRestServices/rest/POLocator/findLocations", "@spider": "usps_collection_boxes", "addr:city": "HENDERSON", "addr:country": "US", "addr:postcode": "21640", "addr:state": "MD", "addr:street_address": "321 BEE TREE RD", "amenity": "post_box", "brand": "United States Postal Service", "brand:wikidata": "Q668687", "collection_times": "Mo-Fr 13:00; Sa 14:00", "indoor": "yes", "note": "ON 12/24 AND 12/31, THIS BOX MAY BE COLLECTED AS EARLY AS 12 NOON.", "nsi_id": "unitedstatespostalservice-a77078", "operator": "United States Postal Service", "operator:short": "USPS", "operator:type": "public", "operator:wikidata": "Q668687", "ref": "2164000001"}, "type": "Feature"}
{"geometry": {"coordinates": [-75.765036176, 39.074077997], "type": "Point"}, "id": "N48D1d1HlPGCG48uUWlOtGFrVrk=", "properties": {"@source_uri": "https://tools.usps.com/UspsToolsRestServices/rest/POLocator/findLocations", "@spider": "usps_collection_boxes", "addr:city": "HENDERSON", "addr:country": "US", "addr:postcode": "21640", "addr:state": "MD", "addr:street_address": "321 BEE TREE RD", "amenity": "post_box", "brand": "United States Postal Service", "brand:wikidata": "Q668687", "collection_times": "Mo-Fr 13:00; Sa 14:00", "indoor": "yes", "note": "ON 12/24 AND 12/31, THIS BOX MAY BE COLLECTED AS EARLY AS 12 NOON.", "nsi_id": "unitedstatespostalservice-a77078", "operator": "United States Postal Service", "operator:short": "USPS", "operator:type": "public", "operator:wikidata": "Q668687", "ref": "2164000002"}, "type": "Feature"}
{"geometry": {"coordinates": [-75.765036176, 39.074077997], "type": "Point"}, "id": "S2sYl3-U_MRDj857o70YzeJRpSw=", "properties": {"@source_uri": "https://tools.usps.com/UspsToolsRestServices/rest/POLocator/findLocations", "@spider": "usps_collection_boxes", "addr:city": "HENDERSON", "addr:country": "US", "addr:postcode": "21640", "addr:state": "MD", "addr:street_address": "321 BEE TREE RD", "amenity": "post_box", "brand": "United States Postal Service", "brand:wikidata": "Q668687", "collection_times": "Mo-Fr 13:00; Sa 14:45", "indoor": "yes", "note": "ON 12/24 AND 12/31, THIS BOX MAY BE COLLECTED AS EARLY AS 12 NOON.", "nsi_id": "unitedstatespostalservice-a77078", "operator": "United States Postal Service", "operator:short": "USPS", "operator:type": "public", "operator:wikidata": "Q668687", "ref": "2164000004"}, "type": "Feature"}
{"geometry": {"coordinates": [-75.940785031, 38.91697151], "type": "Point"}, "id": "AEGTZvANKZ_SxZExUsUDlLiIvO4=", "properties": {"@source_uri": "https://tools.usps.com/UspsToolsRestServices/rest/POLocator/findLocations", "@spider": "usps_collection_boxes", "addr:city": "HILLSBORO", "addr:country": "US", "addr:postcode": "21641", "addr:state": "MD", "addr:street_address": "22043 MAIN ST", "amenity": "post_box", "brand": "United States Postal Service", "brand:wikidata": "Q668687", "collection_times": "Mo-Fr 16:15; Sa 10:45", "note": "ON 12/24 AND 12/31, THIS BOX MAY BE COLLECTED AS EARLY AS 12 NOON.", "nsi_id": "unitedstatespostalservice-a77078", "operator": "United States Postal Service", "operator:short": "USPS", "operator:type": "public", "operator:wikidata": "Q668687", "ref": "2164100000"}, "type": "Feature"}
{"geometry": {"coordinates": [-75.940785031, 38.91697151], "type": "Point"}, "id": "Me3Ejm1QAQNOLD60Xat_tFf-EDk=", "properties": {"@source_uri": "https://tools.usps.com/UspsToolsRestServices/rest/POLocator/findLocations", "@spider": "usps_collection_boxes", "addr:city": "HILLSBORO", "addr:country": "US", "addr:postcode": "21641", "addr:state": "MD", "addr:street_address": "22043 MAIN ST", "amenity": "post_box", "brand": "United States Postal Service", "brand:wikidata": "Q668687", "collection_times": "Mo-Fr 12:00; Sa 10:45", "indoor": "yes", "nsi_id": "unitedstatespostalservice-a77078", "operator": "United States Postal Service", "operator:short": "USPS", "operator:type": "public", "operator:wikidata": "Q668687", "ref": "2164100001"}, "type": "Feature"}
{"geometry": {"coordinates": [-75.940785031, 38.91697151], "type": "Point"}, "id": "cyb6iy8UzKid_FQRmr3R1EWdTz8=", "properties": {"@source_uri": "https://tools.usps.com/UspsToolsRestServices/rest/POLocator/findLocations", "@spider": "usps_collection_boxes", "addr:city": "HILLSBORO", "addr:country": "US", "addr:postcode": "21641", "addr:state": "MD", "addr:street_address": "22043 MAIN ST", "amenity": "post_box", "brand": "United States Postal Service", "brand:wikidata": "Q668687", "collection_times": "Mo-Fr 16:00; Sa 14:00", "indoor": "yes", "note": "ON 12/24 AND 12/31, THIS BOX MAY BE COLLECTED AS EARLY AS 12 NOON.", "nsi_id": "unitedstatespostalservice-a77078", "operator": "United States Postal Service", "operator:short": "USPS", "operator:type": "public", "operator:wikidata": "Q668687", "ref": "2164100003"}, "type": "Feature"}
{"geometry": {"coordinates": [-75.86468994, 38.633333268], "type": "Point"}, "id": "femPyoS-26xAfP0Z4jwbhe_X6w4=", "properties": {"@source_uri": "https://tools.usps.com/UspsToolsRestServices/rest/POLocator/findLocations", "@spider": "usps_collection_boxes", "addr:city": "HURLOCK", "addr:country": "US", "addr:postcode": "21643", "addr:state": "MD", "addr:street_address": "111 POPLAR ST", "amenity": "post_box", "brand": "United States Postal Service", "brand:wikidata": "Q668687", "collection_times": "Mo-Fr 16:45; Sa 11:45", "indoor": "yes", "note": "ON 12/24 AND 12/31, THIS BOX MAY BE COLLECTED AS EARLY AS 12 NOON.", "nsi_id": "unitedstatespostalservice-a77078", "operator": "United States Postal Service", "operator:short": "USPS", "operator:type": "public", "operator:wikidata": "Q668687", "ref": "2164300001"}, "type": "Feature"}
{"geometry": {"coordinates": [-75.86468994, 38.633333268], "type": "Point"}, "id": "-Vwne6-QV534ojx4tf4rVm5DOjc=", "properties": {"@source_uri": "https://tools.usps.com/UspsToolsRestServices/rest/POLocator/findLocations", "@spider": "usps_collection_boxes", "addr:city": "HURLOCK", "addr:country": "US", "addr:postcode": "21643", "addr:state": "MD", "addr:street_address": "111 POPLAR ST", "amenity": "post_box", "brand": "United States Postal Service", "brand:wikidata": "Q668687", "collection_times": "Mo-Fr 16:45; Sa 11:45", "indoor": "yes", "note": "ON 12/24 AND 12/31, THIS BOX MAY BE COLLECTED AS EARLY AS 12 NOON.", "nsi_id": "unitedstatespostalservice-a77078", "operator": "United States Postal Service", "operator:short": "USPS", "operator:type": "public", "operator:wikidata": "Q668687", "ref": "2164300002"}, "type": "Feature"}
{"geometry": {"coordinates": [-75.86468994, 38.633333268], "type": "Point"}, "id": "3cZdIgG8_oX5MVbkQJz5PiX3XFA=", "properties": {"@source_uri": "https://tools.usps.com/UspsToolsRestServices/rest/POLocator/findLocations", "@spider": "usps_collection_boxes", "addr:city": "HURLOCK", "addr:country": "US", "addr:postcode": "21643", "addr:state": "MD", "addr:street_address": "111 POPLAR ST", "amenity": "post_box", "brand": "United States Postal Service", "brand:wikidata": "Q668687", "collection_times": "Mo-Fr 16:45; Sa 11:45", "note": "ON 12/24 AND 12/31, THIS BOX MAY BE COLLECTED AS EARLY AS 12 NOON.", "nsi_id": "unitedstatespostalservice-a77078", "operator": "United States Postal Service", "operator:short": "USPS", "operator:type": "public", "operator:wikidata": "Q668687", "ref": "2164300003"}, "type": "Feature"}
{"geometry": {"coordinates": [-75.86468994, 38.633333268], "type": "Point"}, "id": "DlMVZpb1YJ-27onJt9KWexHe9s8=", "properties": {"@source_uri": "https://tools.usps.com/UspsToolsRestServices/rest/POLocator/findLocations", "@spider": "usps_collection_boxes", "addr:city": "HURLOCK", "addr:country": "US", "addr:postcode": "21643", "addr:state": "MD", "addr:street_address": "111 POPLAR ST", "amenity": "post_box", "brand": "United States Postal Service", "brand:wikidata": "Q668687", "collection_times": "Mo-Fr 17:00; Sa 12:00", "indoor": "yes", "note": "ON 12/24 AND 12/31, THIS BOX MAY BE COLLECTED AS EARLY AS 12 NOON.", "nsi_id": "unitedstatespostalservice-a77078", "operator": "United States Postal Service", "operator:short": "USPS", "operator:type": "public", "operator:wikidata": "Q668687", "ref": "2164300005"}, "type": "Feature"}
{"geometry": {"coordinates": [-75.875696088, 39.092220525], "type": "Point"}, "id": "MDySxZRbqkrCK3nKaFJxv7h91Ec=", "properties": {"@source_uri": "https://tools.usps.com/UspsToolsRestServices/rest/POLocator/findLocations", "@spider": "usps_collection_boxes", "addr:city": "INGLESIDE", "addr:country": "US", "addr:postcode": "21644", "addr:state": "MD", "addr:street_address": "2626 ROBERTS STATION RD", "amenity": "post_box", "brand": "United States Postal Service", "brand:wikidata": "Q668687", "collection_times": "Mo-Fr 14:00; Sa 11:00", "note": "ON 12/24 AND 12/31, THIS BOX MAY BE COLLECTED AS EARLY AS 12 NOON.", "nsi_id": "unitedstatespostalservice-a77078", "operator": "United States Postal Service", "operator:short": "USPS", "operator:type": "public", "operator:wikidata": "Q668687", "ref": "2164400002"}, "type": "Feature"}
{"geometry": {"coordinates": [-75.875696088, 39.092220525], "type": "Point"}, "id": "Ew6PXunRfqFxmZak4nJ7sxEz7KA=", "properties": {"@source_uri": "https://tools.usps.com/UspsToolsRestServices/rest/POLocator/findLocations", "@spider": "usps_collection_boxes", "addr:city": "INGLESIDE", "addr:country": "US", "addr:postcode": "21644", "addr:state": "MD", "addr:street_address": "2626 ROBERTS STATION RD", "amenity": "post_box", "brand": "United States Postal Service", "brand:wikidata": "Q668687", "collection_times": "Mo-Fr 14:00", "indoor": "yes", "note": "ON 12/24 AND 12/31, THIS BOX MAY BE COLLECTED AS EARLY AS 12 NOON.", "nsi_id": "unitedstatespostalservice-a77078", "operator": "United States Postal Service", "operator:short": "USPS", "operator:type": "public", "operator:wikidata": "Q668687", "ref": "2164400004"}, "type": "Feature"}
{"geometry": {"coordinates": [-75.995099918, 39.305427392], "type": "Point"}, "id": "a6hUPJjJOh4ft73LsY6OaqOY6Gc=", "properties": {"@source_uri": "https://tools.usps.com/UspsToolsRestServices/rest/POLocator/findLocations", "@spider": "usps_collection_boxes", "addr:city": "KENNEDYVILLE", "addr:country": "US", "addr:postcode": "21645", "addr:state": "MD", "addr:street_address": "11959 AUGUSTINE HERMAN HWY", "amenity": "post_box", "brand": "United States Postal Service", "brand:wikidata": "Q668687", "collection_times": "Mo-Fr 16:00; Sa 11:00", "note": "ON 12/24 AND 12/31, THIS BOX MAY BE COLLECTED AS EARLY AS 12 NOON.", "nsi_id": "unitedstatespostalservice-a77078", "operator": "United States Postal Service", "operator:short": "USPS", "operator:type": "public", "operator:wikidata": "Q668687", "ref": "2164500000"}, "type": "Feature"}
{"geometry": {"coordinates": [-75.995099918, 39.305427392], "type": "Point"}, "id": "Tf0F7YU0QJ0Q6ZKSSdN4yjrs1rU=", "properties": {"@source_uri": "https://tools.usps.com/UspsToolsRestServices/rest/POLocator/findLocations", "@spider": "usps_collection_boxes", "addr:city": "KENNEDYVILLE", "addr:country": "US", "addr:postcode": "21645", "addr:state": "MD", "addr:street_address": "11959 AUGUSTINE HERMAN HWY", "amenity": "post_box", "brand": "United States Postal Service", "brand:wikidata": "Q668687", "collection_times": "Mo-Fr 13:00; Sa 11:00", "indoor": "yes", "note": "ON 12/24 AND 12/31, THIS BOX MAY BE COLLECTED AS EARLY AS 12 NOON.", "nsi_id": "unitedstatespostalservice-a77078", "operator": "United States Postal Service", "operator:short": "USPS", "operator:type": "public", "operator:wikidata": "Q668687", "ref": "2164500001"}, "type": "Feature"}
{"geometry": {"coordinates": [-75.995099918, 39.305427392], "type": "Point"}, "id": "R7YVbVNaoevFt39xnX-JR9w9iB8=", "properties": {"@source_uri": "https://tools.usps.com/UspsToolsRestServices/rest/POLocator/findLocations", "@spider": "usps_collection_boxes", "addr:city": "KENNEDYVILLE", "addr:country": "US", "addr:postcode": "21645", "addr:state": "MD", "addr:street_address": "11959 AUGUSTINE HERMAN HWY", "amenity": "post_box", "brand": "United States Postal Service", "brand:wikidata": "Q668687", "collection_times": "Mo-Fr 13:00; Sa 11:00", "indoor": "yes", "note": "ON 12/24 AND 12/31, THIS BOX MAY BE COLLECTED AS EARLY AS 12 NOON.", "nsi_id": "unitedstatespostalservice-a77078", "operator": "United States Postal Service", "operator:short": "USPS", "operator:type": "public", "operator:wikidata": "Q668687", "ref": "2164500002"}, "type": "Feature"}
{"geometry": {"coordinates": [-75.995099918, 39.305427392], "type": "Point"}, "id": "6qHECHaGJBpZRrS6RJb2u86pOZM=", "properties": {"@source_uri": "https://tools.usps.com/UspsToolsRestServices/rest/POLocator/findLocations", "@spider": "usps_collection_boxes", "addr:city": "KENNEDYVILLE", "addr:country": "US", "addr:postcode": "21645", "addr:state": "MD", "addr:street_address": "11959 AUGUSTINE HERMAN HWY", "amenity": "post_box", "brand": "United States Postal Service", "brand:wikidata": "Q668687", "collection_times": "Mo-Fr 16:00; Sa 11:00", "indoor": "yes", "note": "ON 12/24 AND 12/31, THIS BOX MAY BE COLLECTED AS EARLY AS 12 NOON.", "nsi_id": "unitedstatespostalservice-a77078", "operator": "United States Postal Service", "operator:short": "USPS", "operator:type": "public", "operator:wikidata": "Q668687", "ref": "2164500004"}, "type": "Feature"}
{"geometry": {"coordinates": [-75.749494098, 39.111988428], "type": "Point"}, "id": "c2DUB-x2qCqaJ1k5XkJpJy96474=", "properties": {"@source_uri": "https://tools.usps.com/UspsToolsRestServices/rest/POLocator/findLocations", "@spider": "usps_collection_boxes", "addr:city": "MARYDEL", "addr:country": "US", "addr:postcode": "21649", "addr:state": "MD", "addr:street_address": "114 HALLTOWN RD", "amenity": "post_box", "brand": "United States Postal Service", "brand:wikidata": "Q668687", "collection_times": "Mo-Fr 15:30; Sa 12:00", "note": "ON 12/24 AND 12/31, THIS BOX MAY BE COLLECTED AS EARLY AS 12 NOON.", "nsi_id": "unitedstatespostalservice-a77078", "operator": "United States Postal Service", "operator:short": "USPS", "operator:type": "public", "operator:wikidata": "Q668687", "ref": "2164900000"}, "type": "Feature"}
{"geometry": {"coordinates": [-75.749494098, 39.111988428], "type": "Point"}, "id": "jg3LqN3FHefTCuup694KiuBg8jk=", "properties": {"@source_uri": "https://tools.usps.com/UspsToolsRestServices/rest/POLocator/findLocations", "@spider": "usps_collection_boxes", "addr:city": "MARYDEL", "addr:country": "US", "addr:postcode": "21649", "addr:state": "MD", "addr:street_address": "114 HALLTOWN RD", "amenity": "post_box", "brand": "United States Postal Service", "brand:wikidata": "Q668687", "collection_times": "Mo-Fr 15:30; Sa 12:00", "indoor": "yes", "note": "ON 12/24 AND 12/31, THIS BOX MAY BE COLLECTED AS EARLY AS 12 NOON.", "nsi_id": "unitedstatespostalservice-a77078", "operator": "United States Postal Service", "operator:short": "USPS", "operator:type": "public", "operator:wikidata": "Q668687", "ref": "2164900001"}, "type": "Feature"}
{"geometry": {"coordinates": [-75.749494098, 39.111988428], "type": "Point"}, "id": "6rdqOwsaFGWFyWP_J4VhMZV0VKc=", "properties": {"@source_uri": "https://tools.usps.com/UspsToolsRestServices/rest/POLocator/findLocations", "@spider": "usps_collection_boxes", "addr:city": "MARYDEL", "addr:country": "US", "addr:postcode": "21649", "addr:state": "MD", "addr:street_address": "114 HALLTOWN RD", "amenity": "post_box", "brand": "United States Postal Service", "brand:wikidata": "Q668687", "collection_times": "Mo-Fr 15:45; Sa 12:00", "indoor": "yes", "note": "ON 12/24 AND 12/31, THIS BOX MAY BE COLLECTED AS EARLY AS 12 NOON.", "nsi_id": "unitedstatespostalservice-a77078", "operator": "United States Postal Service", "operator:short": "USPS", "operator:type": "public", "operator:wikidata": "Q668687", "ref": "2164900004"}, "type": "Feature"}
{"geometry": {"coordinates": [-75.835619, 39.258296], "type": "Point"}, "id": "mvXgSrLi7bsLePfggXJ7BS1w7Jk=", "properties": {"@source_uri": "https://tools.usps.com/UspsToolsRestServices/rest/POLocator/findLocations", "@spider": "usps_collection_boxes", "addr:city": "MILLINGTON", "addr:country": "US", "addr:postcode": "21651", "addr:state": "MD", "addr:street_address": "412 CYPRESS ST", "amenity": "post_box", "brand": "United States Postal Service", "brand:wikidata": "Q668687", "collection_times": "Mo-Fr 16:15; Sa 10:45", "note": "ON 12/24 AND 12/31, THIS BOX MAY BE COLLECTED AS EARLY AS 12 NOON.", "nsi_id": "unitedstatespostalservice-a77078", "operator": "United States Postal Service", "operator:short": "USPS", "operator:type": "public", "operator:wikidata": "Q668687", "ref": "2165100000"}, "type": "Feature"}
{"geometry": {"coordinates": [-75.835649, 39.258273], "type": "Point"}, "id": "2QIAWvHFqNrxNDIbeJ2l_Jpz3bg=", "properties": {"@source_uri": "https://tools.usps.com/UspsToolsRestServices/rest/POLocator/findLocations", "@spider": "usps_collection_boxes", "addr:city": "MILLINGTON", "addr:country": "US", "addr:postcode": "21651", "addr:state": "MD", "addr:street_address": "412 CYPRESS ST", "amenity": "post_box", "brand": "United States Postal Service", "brand:wikidata": "Q668687", "collection_times": "Mo-Fr 16:15; Sa 10:45", "indoor": "yes", "note": "ON 12/24 AND 12/31, THIS BOX MAY BE COLLECTED AS EARLY AS 12 NOON.", "nsi_id": "unitedstatespostalservice-a77078", "operator": "United States Postal Service", "operator:short": "USPS", "operator:type": "public", "operator:wikidata": "Q668687", "ref": "2165100003"}, "type": "Feature"}
{"geometry": {"coordinates": [-75.835649, 39.258273], "type": "Point"}, "id": "7KbSiZemPGPZMvScos1Xjf1cB2Q=", "properties": {"@source_uri": "https://tools.usps.com/UspsToolsRestServices/rest/POLocator/findLocations", "@spider": "usps_collection_boxes", "addr:city": "MILLINGTON", "addr:country": "US", "addr:postcode": "21651", "addr:state": "MD", "addr:street_address": "412 CYPRESS ST", "amenity": "post_box", "brand": "United States Postal Service", "brand:wikidata": "Q668687", "collection_times": "Mo-Fr 16:15; Sa 10:45", "indoor": "yes", "note": "ON 12/24 AND 12/31, THIS BOX MAY BE COLLECTED AS EARLY AS 12 NOON.", "nsi_id": "unitedstatespostalservice-a77078", "operator": "United States Postal Service", "operator:short": "USPS", "operator:type": "public", "operator:wikidata": "Q668687", "ref": "2165100004"}, "type": "Feature"}
{"geometry": {"coordinates": [-75.835649, 39.258273], "type": "Point"}, "id": "Vz-npipOGi9yUZCtkAhBZC6V5bA=", "properties": {"@source_uri": "https://tools.usps.com/UspsToolsRestServices/rest/POLocator/findLocations", "@spider": "usps_collection_boxes", "addr:city": "MILLINGTON", "addr:country": "US", "addr:postcode": "21651", "addr:state": "MD", "addr:street_address": "412 CYPRESS ST", "amenity": "post_box", "brand": "United States Postal Service", "brand:wikidata": "Q668687", "collection_times": "Mo-Fr 16:15; Sa 10:45", "indoor": "yes", "note": "ON 12/24 AND 12/31, THIS BOX MAY BE COLLECTED AS EARLY AS 12 NOON.", "nsi_id": "unitedstatespostalservice-a77078", "operator": "United States Postal Service", "operator:short": "USPS", "operator:type": "public", "operator:wikidata": "Q668687", "ref": "2165100006"}, "type": "Feature"}
{"geometry": {"coordinates": [-75.8356281886, 39.2582923039], "type": "Point"}, "id": "aHYN2UuQjAA8dCfmbuimkOcZM6o=", "properties": {"@source_uri": "https://tools.usps.com/UspsToolsRestServices/rest/POLocator/findLocations", "@spider": "usps_collection_boxes", "addr:city": "MILLINGTON", "addr:country": "US", "addr:postcode": "21651", "addr:state": "MD", "addr:street_address": "412 CYPRESS ST", "amenity": "post_box", "brand": "United States Postal Service", "brand:wikidata": "Q668687", "collection_times": "Mo-Fr 16:30; Sa 11:00", "indoor": "yes", "note": "ON 12/24 AND 12/31, THIS BOX MAY BE COLLECTED AS EARLY AS 12 NOON.", "nsi_id": "unitedstatespostalservice-a77078", "operator": "United States Postal Service", "operator:short": "USPS", "operator:type": "public", "operator:wikidata": "Q668687", "ref": "2165100008"}, "type": "Feature"}
{"geometry": {"coordinates": [-76.2850404, 38.725274], "type": "Point"}, "id": "3iy9__t0UeRGjo8pIHKMKmw8-p4=", "properties": {"@source_uri": "https://tools.usps.com/UspsToolsRestServices/rest/POLocator/findLocations", "@spider": "usps_collection_boxes", "addr:city": "NEAVITT", "addr:country": "US", "addr:postcode": "21652", "addr:state": "MD", "addr:street_address": "1 BOZMAN NEAVITT RD", "amenity": "post_box", "brand": "United States Postal Service", "brand:wikidata": "Q668687", "collection_times": "Mo-Sa 10:00", "nsi_id": "unitedstatespostalservice-a77078", "operator": "United States Postal Service", "operator:short": "USPS", "operator:type": "public", "operator:wikidata": "Q668687", "ref": "2165200002"}, "type": "Feature"}
{"geometry": {"coordinates": [-76.1762892721, 38.7533202218], "type": "Point"}, "id": "7abqp71VFy-2YfHYTY-ITX1_sxo=", "properties": {"@source_uri": "https://tools.usps.com/UspsToolsRestServices/rest/POLocator/findLocations", "@spider": "usps_collection_boxes", "addr:city": "NEWCOMB", "addr:country": "US", "addr:postcode": "21653", "addr:state": "MD", "addr:street_address": "7414 BACK ST", "amenity": "post_box", "brand": "United States Postal Service", "brand:wikidata": "Q668687", "collection_times": "Mo-Fr 12:00; Sa 10:00", "nsi_id": "unitedstatespostalservice-a77078", "operator": "United States Postal Service", "operator:short": "USPS", "operator:type": "public", "operator:wikidata": "Q668687", "ref": "2165300000"}, "type": "Feature"}
{"geometry": {"coordinates": [-76.176814898, 38.752955903], "type": "Point"}, "id": "ehUwMt6KngP5VegVtu8jA3R7BGQ=", "properties": {"@source_uri": "https://tools.usps.com/UspsToolsRestServices/rest/POLocator/findLocations", "@spider": "usps_collection_boxes", "addr:city": "NEWCOMB", "addr:country": "US", "addr:postcode": "21653", "addr:state": "MD", "addr:street_address": "7414 BACK ST", "amenity": "post_box", "brand": "United States Postal Service", "brand:wikidata": "Q668687", "collection_times": "Mo-Fr 12:00; Sa 10:00", "indoor": "yes", "nsi_id": "unitedstatespostalservice-a77078", "operator": "United States Postal Service", "operator:short": "USPS", "operator:type": "public", "operator:wikidata": "Q668687", "ref": "2165300001"}, "type": "Feature"}
{"geometry": {"coordinates": [-76.176814898, 38.752955903], "type": "Point"}, "id": "7W5UtN-BrEXPiu6KYgusZwVE_x8=", "properties": {"@source_uri": "https://tools.usps.com/UspsToolsRestServices/rest/POLocator/findLocations", "@spider": "usps_collection_boxes", "addr:city": "NEWCOMB", "addr:country": "US", "addr:postcode": "21653", "addr:state": "MD", "addr:street_address": "7414 BACK ST", "amenity": "post_box", "brand": "United States Postal Service", "brand:wikidata": "Q668687", "collection_times": "Mo-Fr 14:30; Sa 10:00", "indoor": "yes", "note": "ON 12/24 AND 12/31, THIS BOX MAY BE COLLECTED AS EARLY AS 12 NOON.", "nsi_id": "unitedstatespostalservice-a77078", "operator": "United States Postal Service", "operator:short": "USPS", "operator:type": "public", "operator:wikidata": "Q668687", "ref": "2165300003"}, "type": "Feature"}
{"geometry": {"coordinates": [-76.173220724, 38.689938315], "type": "Point"}, "id": "4ZDafcmbuBDsyDHFpSba9ExyraI=", "properties": {"@source_uri": "https://tools.usps.com/UspsToolsRestServices/rest/POLocator/findLocations", "@spider": "usps_collection_boxes", "addr:city": "OXFORD", "addr:country": "US", "addr:postcode": "21654", "addr:state": "MD", "addr:street_address": "101 WILSON ST", "amenity": "post_box", "brand": "United States Postal Service", "brand:wikidata": "Q668687", "collection_times": "Mo-Fr 16:15; Sa 10:15", "note": "ON 12/24 AND 12/31, THIS BOX MAY BE COLLECTED AS EARLY AS 12 NOON.", "nsi_id": "unitedstatespostalservice-a77078", "operator": "United States Postal Service", "operator:short": "USPS", "operator:type": "public", "operator:wikidata": "Q668687", "ref": "2165400000"}, "type": "Feature"}
{"geometry": {"coordinates": [-76.173220724, 38.689938315], "type": "Point"}, "id": "wjtDQeoBo8wiSH98MHQWN0wzowM=", "properties": {"@source_uri": "https://tools.usps.com/UspsToolsRestServices/rest/POLocator/findLocations", "@spider": "usps_collection_boxes", "addr:city": "OXFORD", "addr:country": "US", "addr:postcode": "21654", "addr:state": "MD", "addr:street_address": "101 WILSON ST", "amenity": "post_box", "brand": "United States Postal Service", "brand:wikidata": "Q668687", "collection_times": "Mo-Fr 16:15; Sa 10:15", "indoor": "yes", "note": "ON 12/24 AND 12/31, THIS BOX MAY BE COLLECTED AS EARLY AS 12 NOON.", "nsi_id": "unitedstatespostalservice-a77078", "operator": "United States Postal Service", "operator:short": "USPS", "operator:type": "public", "operator:wikidata": "Q668687", "ref": "2165400001"}, "type": "Feature"}
{"geometry": {"coordinates": [-76.173220724, 38.689938315], "type": "Point"}, "id": "BlUd08t_bkSfUeL9jOgMZCaQTsM=", "properties": {"@source_uri": "https://tools.usps.com/UspsToolsRestServices/rest/POLocator/findLocations", "@spider": "usps_collection_boxes", "addr:city": "OXFORD", "addr:country": "US", "addr:postcode": "21654", "addr:state": "MD", "addr:street_address": "101 WILSON ST", "amenity": "post_box", "brand": "United States Postal Service", "brand:wikidata": "Q668687", "collection_times": "Mo-Fr 16:15; Sa 10:15", "indoor": "yes", "note": "ON 12/24 AND 12/31, THIS BOX MAY BE COLLECTED AS EARLY AS 12 NOON.", "nsi_id": "unitedstatespostalservice-a77078", "operator": "United States Postal Service", "operator:short": "USPS", "operator:type": "public", "operator:wikidata": "Q668687", "ref": "2165400002"}, "type": "Feature"}
{"geometry": {"coordinates": [-76.173220724, 38.689938315], "type": "Point"}, "id": "VNCRjop9o2La6iIAFMnwxQmxNY4=", "properties": {"@source_uri": "https://tools.usps.com/UspsToolsRestServices/rest/POLocator/findLocations", "@spider": "usps_collection_boxes", "addr:city": "OXFORD", "addr:country": "US", "addr:postcode": "21654", "addr:state": "MD", "addr:street_address": "101 WILSON ST", "amenity": "post_box", "brand": "United States Postal Service", "brand:wikidata": "Q668687", "collection_times": "Mo-Fr 16:15; Sa 10:30", "indoor": "yes", "note": "ON 12/24 AND 12/31, THIS BOX MAY BE COLLECTED AS EARLY AS 12 NOON.", "nsi_id": "unitedstatespostalservice-a77078", "operator": "United States Postal Service", "operator:short": "USPS", "operator:type": "public", "operator:wikidata": "Q668687", "ref": "2165400004"}, "type": "Feature"}
{"geometry": {"coordinates": [-75.905124394, 38.708627824], "type": "Point"}, "id": "7g0qD5NCsSFohyty7mQXyv4tm3U=", "properties": {"@source_uri": "https://tools.usps.com/UspsToolsRestServices/rest/POLocator/findLocations", "@spider": "usps_collection_boxes", "addr:city": "PRESTON", "addr:country": "US", "addr:postcode": "21655", "addr:state": "MD", "addr:street_address": "301 MAIN ST", "amenity": "post_box", "brand": "United States Postal Service", "brand:wikidata": "Q668687", "collection_times": "Mo-Fr 17:00; Sa 12:00", "note": "ON 12/24 AND 12/31, THIS BOX MAY BE COLLECTED AS EARLY AS 12 NOON.", "nsi_id": "unitedstatespostalservice-a77078", "operator": "United States Postal Service", "operator:short": "USPS", "operator:type": "public", "operator:wikidata": "Q668687", "ref": "2165500000"}, "type": "Feature"}
{"geometry": {"coordinates": [-75.905124394, 38.708627824], "type": "Point"}, "id": "aDq8s0LLTnhjYoIwG_Nm4PDtwuQ=", "properties": {"@source_uri": "https://tools.usps.com/UspsToolsRestServices/rest/POLocator/findLocations", "@spider": "usps_collection_boxes", "addr:city": "PRESTON", "addr:country": "US", "addr:postcode": "21655", "addr:state": "MD", "addr:street_address": "301 MAIN ST", "amenity": "post_box", "brand": "United States Postal Service", "brand:wikidata": "Q668687", "collection_times": "Mo-Fr 17:00; Sa 12:00", "indoor": "yes", "note": "ON 12/24 AND 12/31, THIS BOX MAY BE COLLECTED AS EARLY AS 12 NOON.", "nsi_id": "unitedstatespostalservice-a77078", "operator": "United States Postal Service", "operator:short": "USPS", "operator:type": "public", "operator:wikidata": "Q668687", "ref": "2165500001"}, "type": "Feature"}
{"geometry": {"coordinates": [-75.905124394, 38.708627824], "type": "Point"}, "id": "YSrKJLU57i7kH5KyuBTZk1vdKqo=", "properties": {"@source_uri": "https://tools.usps.com/UspsToolsRestServices/rest/POLocator/findLocations", "@spider": "usps_collection_boxes", "addr:city": "PRESTON", "addr:country": "US", "addr:postcode": "21655", "addr:state": "MD", "addr:street_address": "301 MAIN ST", "amenity": "post_box", "brand": "United States Postal Service", "brand:wikidata": "Q668687", "collection_times": "Mo-Fr 17:00; Sa 12:00", "indoor": "yes", "note": "ON 12/24 AND 12/31, THIS BOX MAY BE COLLECTED AS EARLY AS 12 NOON.", "nsi_id": "unitedstatespostalservice-a77078", "operator": "United States Postal Service", "operator:short": "USPS", "operator:type": "public", "operator:wikidata": "Q668687", "ref": "2165500002"}, "type": "Feature"}
{"geometry": {"coordinates": [-75.905124394, 38.708627824], "type": "Point"}, "id": "y0Ha6-xPiC-iZUqBl0EVK6j8iwY=", "properties": {"@source_uri": "https://tools.usps.com/UspsToolsRestServices/rest/POLocator/findLocations", "@spider": "usps_collection_boxes", "addr:city": "PRESTON", "addr:country": "US", "addr:postcode": "21655", "addr:state": "MD", "addr:street_address": "301 MAIN ST", "amenity": "post_box", "brand": "United States Postal Service", "brand:wikidata": "Q668687", "collection_times": "Mo-Fr 17:00; Sa 12:00", "indoor": "yes", "note": "ON 12/24 AND 12/31, THIS BOX MAY BE COLLECTED AS EARLY AS 12 NOON.", "nsi_id": "unitedstatespostalservice-a77078", "operator": "United States Postal Service", "operator:short": "USPS", "operator:type": "public", "operator:wikidata": "Q668687", "ref": "2165500005"}, "type": "Feature"}
{"geometry": {"coordinates": [-75.955130892, 38.919218954], "type": "Point"}, "id": "qPEcmZH0-qzyGAQjJ53bwaoeWRY=", "properties": {"@source_uri": "https://tools.usps.com/UspsToolsRestServices/rest/POLocator/findLocations", "@spider": "usps_collection_boxes", "addr:city": "QUEEN ANNE", "addr:country": "US", "addr:postcode": "21657", "addr:state": "MD", "addr:street_address": "32209 PARK AVE", "amenity": "post_box", "brand": "United States Postal Service", "brand:wikidata": "Q668687", "collection_times": "Mo-Fr 16:00; Sa 11:00", "note": "ON 12/24 AND 12/31, THIS BOX MAY BE COLLECTED AS EARLY AS 12 NOON.", "nsi_id": "unitedstatespostalservice-a77078", "operator": "United States Postal Service", "operator:short": "USPS", "operator:type": "public", "operator:wikidata": "Q668687", "ref": "2165700000"}, "type": "Feature"}
{"geometry": {"coordinates": [-75.955130892, 38.919218954], "type": "Point"}, "id": "LA3YZVp_VWHCWXrA7uZOJV5rjCE=", "properties": {"@source_uri": "https://tools.usps.com/UspsToolsRestServices/rest/POLocator/findLocations", "@spider": "usps_collection_boxes", "addr:city": "QUEEN ANNE", "addr:country": "US", "addr:postcode": "21657", "addr:state": "MD", "addr:street_address": "32209 PARK AVE", "amenity": "post_box", "brand": "United States Postal Service", "brand:wikidata": "Q668687", "collection_times": "Mo-Fr 11:30; Sa 11:00", "indoor": "yes", "nsi_id": "unitedstatespostalservice-a77078", "operator": "United States Postal Service", "operator:short": "USPS", "operator:type": "public", "operator:wikidata": "Q668687", "ref": "2165700001"}, "type": "Feature"}
{"geometry": {"coordinates": [-75.955130892, 38.919218954], "type": "Point"}, "id": "GlgYUddbR9Cxs-Yevr-sBb5SRVc=", "properties": {"@source_uri": "https://tools.usps.com/UspsToolsRestServices/rest/POLocator/findLocations", "@spider": "usps_collection_boxes", "addr:city": "QUEEN ANNE", "addr:country": "US", "addr:postcode": "21657", "addr:state": "MD", "addr:street_address": "32209 PARK AVE", "amenity": "post_box", "brand": "United States Postal Service", "brand:wikidata": "Q668687", "collection_times": "Mo-Fr 11:30; Sa 11:00", "indoor": "yes", "nsi_id": "unitedstatespostalservice-a77078", "operator": "United States Postal Service", "operator:short": "USPS", "operator:type": "public", "operator:wikidata": "Q668687", "ref": "2165700002"}, "type": "Feature"}
{"geometry": {"coordinates": [-75.955130892, 38.919218954], "type": "Point"}, "id": "gEmAWwN8B26kSh8jnEohC7gq9Xk=", "properties": {"@source_uri": "https://tools.usps.com/UspsToolsRestServices/rest/POLocator/findLocations", "@spider": "usps_collection_boxes", "addr:city": "QUEEN ANNE", "addr:country": "US", "addr:postcode": "21657", "addr:state": "MD", "addr:street_address": "32209 PARK AVE", "amenity": "post_box", "brand": "United States Postal Service", "brand:wikidata": "Q668687", "collection_times": "Mo-Fr 11:30; Sa 11:00", "indoor": "yes", "nsi_id": "unitedstatespostalservice-a77078", "operator": "United States Postal Service", "operator:short": "USPS", "operator:type": "public", "operator:wikidata": "Q668687", "ref": "2165700005"}, "type": "Feature"}
{"geometry": {"coordinates": [-76.157443489, 38.990617713], "type": "Point"}, "id": "8ogujG4SBOoFMGIovtTX31XBxwk=", "properties": {"@source_uri": "https://tools.usps.com/UspsToolsRestServices/rest/POLocator/findLocations", "@spider": "usps_collection_boxes", "addr:city": "QUEENSTOWN", "addr:country": "US", "addr:postcode": "21658", "addr:state": "MD", "addr:street_address": "7100 MAIN ST", "amenity": "post_box", "brand": "United States Postal Service", "brand:wikidata": "Q668687", "collection_times": "Mo-Fr 17:00; Sa 13:00", "note": "ON 12/24 AND 12/31, THIS BOX MAY BE COLLECTED AS EARLY AS 12 NOON.", "nsi_id": "unitedstatespostalservice-a77078", "operator": "United States Postal Service", "operator:short": "USPS", "operator:type": "public", "operator:wikidata": "Q668687", "ref": "2165800000"}, "type": "Feature"}
{"geometry": {"coordinates": [-76.157229, 38.984305], "type": "Point"}, "id": "9YfLwnLbivx8opbLwSh4h9zAccQ=", "properties": {"@source_uri": "https://tools.usps.com/UspsToolsRestServices/rest/POLocator/findLocations", "@spider": "usps_collection_boxes", "addr:city": "QUEENSTOWN", "addr:country": "US", "addr:postcode": "21658", "addr:state": "MD", "addr:street_address": "400 OUTLET CENTER DR", "amenity": "post_box", "brand": "United States Postal Service", "brand:wikidata": "Q668687", "collection_times": "Mo-Sa 12:00", "nsi_id": "unitedstatespostalservice-a77078", "operator": "United States Postal Service", "operator:short": "USPS", "operator:type": "public", "operator:wikidata": "Q668687", "ref": "2165800002"}, "type": "Feature"}
{"geometry": {"coordinates": [-76.157443489, 38.990617713], "type": "Point"}, "id": "iq-Pkhq56w_D8ib5_cZ_2dYjt-g=", "properties": {"@source_uri": "https://tools.usps.com/UspsToolsRestServices/rest/POLocator/findLocations", "@spider": "usps_collection_boxes", "addr:city": "QUEENSTOWN", "addr:country": "US", "addr:postcode": "21658", "addr:state": "MD", "addr:street_address": "7100 MAIN ST", "amenity": "post_box", "brand": "United States Postal Service", "brand:wikidata": "Q668687", "collection_times": "Mo-Fr 17:00; Sa 13:00", "indoor": "yes", "note": "ON 12/24 AND 12/31, THIS BOX MAY BE COLLECTED AS EARLY AS 12 NOON.", "nsi_id": "unitedstatespostalservice-a77078", "operator": "United States Postal Service", "operator:short": "USPS", "operator:type": "public", "operator:wikidata": "Q668687", "ref": "2165800004"}, "type": "Feature"}
{"geometry": {"coordinates": [-76.157443489, 38.990617713], "type": "Point"}, "id": "QFhCAkY7Vaoi4YlXVEILzdsc8V4=", "properties": {"@source_uri": "https://tools.usps.com/UspsToolsRestServices/rest/POLocator/findLocations", "@spider": "usps_collection_boxes", "addr:city": "QUEENSTOWN", "addr:country": "US", "addr:postcode": "21658", "addr:state": "MD", "addr:street_address": "7100 MAIN ST", "amenity": "post_box", "brand": "United States Postal Service", "brand:wikidata": "Q668687", "collection_times": "Mo-Fr 17:00; Sa 13:00", "indoor": "yes", "note": "ON 12/24 AND 12/31, THIS BOX MAY BE COLLECTED AS EARLY AS 12 NOON.", "nsi_id": "unitedstatespostalservice-a77078", "operator": "United States Postal Service", "operator:short": "USPS", "operator:type": "public", "operator:wikidata": "Q668687", "ref": "2165800005"}, "type": "Feature"}
{"geometry": {"coordinates": [-76.157443489, 38.990617713], "type": "Point"}, "id": "aoVp4s-sGQ5cJcJMJnljQNt44wk=", "properties": {"@source_uri": "https://tools.usps.com/UspsToolsRestServices/rest/POLocator/findLocations", "@spider": "usps_collection_boxes", "addr:city": "QUEENSTOWN", "addr:country": "US", "addr:postcode": "21658", "addr:state": "MD", "addr:street_address": "7100 MAIN ST", "amenity": "post_box", "brand": "United States Postal Service", "brand:wikidata": "Q668687", "collection_times": "Mo-Fr 17:00; Sa 13:00", "indoor": "yes", "note": "ON 12/24 AND 12/31, THIS BOX MAY BE COLLECTED AS EARLY AS 12 NOON.", "nsi_id": "unitedstatespostalservice-a77078", "operator": "United States Postal Service", "operator:short": "USPS", "operator:type": "public", "operator:wikidata": "Q668687", "ref": "2165800007"}, "type": "Feature"}
{"geometry": {"coordinates": [-75.835381392, 38.572718842], "type": "Point"}, "id": "hhabjSTbpqi_4ZR77j4dN2w_TG4=", "properties": {"@source_uri": "https://tools.usps.com/UspsToolsRestServices/rest/POLocator/findLocations", "@spider": "usps_collection_boxes", "addr:city": "RHODESDALE", "addr:country": "US", "addr:postcode": "21659", "addr:state": "MD", "addr:street_address": "5664 RHODESDALE VIENNA RD", "amenity": "post_box", "brand": "United States Postal Service", "brand:wikidata": "Q668687", "collection_times": "Mo-Fr 16:30; Sa 11:00", "note": "ON 12/24 AND 12/31, THIS BOX MAY BE COLLECTED AS EARLY AS 12 NOON.", "nsi_id": "unitedstatespostalservice-a77078", "operator": "United States Postal Service", "operator:short": "USPS", "operator:type": "public", "operator:wikidata": "Q668687", "ref": "2165900000"}, "type": "Feature"}
{"geometry": {"coordinates": [-75.835381392, 38.572718842], "type": "Point"}, "id": "ywu_bLFLGeJrHns7LvDqLo6p8C4=", "properties": {"@source_uri": "https://tools.usps.com/UspsToolsRestServices/rest/POLocator/findLocations", "@spider": "usps_collection_boxes", "addr:city": "RHODESDALE", "addr:country": "US", "addr:postcode": "21659", "addr:state": "MD", "addr:street_address": "5664 RHODESDALE VIENNA RD", "amenity": "post_box", "brand": "United States Postal Service", "brand:wikidata": "Q668687", "collection_times": "Mo-Fr 16:30; Sa 11:00", "indoor": "yes", "note": "ON 12/24 AND 12/31, THIS BOX MAY BE COLLECTED AS EARLY AS 12 NOON.", "nsi_id": "unitedstatespostalservice-a77078", "operator": "United States Postal Service", "operator:short": "USPS", "operator:type": "public", "operator:wikidata": "Q668687", "ref": "2165900001"}, "type": "Feature"}
{"geometry": {"coordinates": [-75.835381392, 38.572718842], "type": "Point"}, "id": "JnO3njWZXUyj1GSPJBLbnMukn9g=", "properties": {"@source_uri": "https://tools.usps.com/UspsToolsRestServices/rest/POLocator/findLocations", "@spider": "usps_collection_boxes", "addr:city": "RHODESDALE", "addr:country": "US", "addr:postcode": "21659", "addr:state": "MD", "addr:street_address": "5664 RHODESDALE VIENNA RD", "amenity": "post_box", "brand": "United States Postal Service", "brand:wikidata": "Q668687", "collection_times": "Mo-Fr 16:30; Sa 11:00", "indoor": "yes", "note": "ON 12/24 AND 12/31, THIS BOX MAY BE COLLECTED AS EARLY AS 12 NOON.", "nsi_id": "unitedstatespostalservice-a77078", "operator": "United States Postal Service", "operator:short": "USPS", "operator:type": "public", "operator:wikidata": "Q668687", "ref": "2165900002"}, "type": "Feature"}
{"geometry": {"coordinates": [-75.835381392, 38.572718842], "type": "Point"}, "id": "xKOVtV_pyb9dn26pohJo31P_I7g=", "properties": {"@source_uri": "https://tools.usps.com/UspsToolsRestServices/rest/POLocator/findLocations", "@spider": "usps_collection_boxes", "addr:city": "RHODESDALE", "addr:country": "US", "addr:postcode": "21659", "addr:state": "MD", "addr:street_address": "5664 RHODESDALE VIENNA RD", "amenity": "post_box", "brand": "United States Postal Service", "brand:wikidata": "Q668687", "collection_times": "Mo-Fr 16:30; Sa 12:00", "indoor": "yes", "note": "ON 12/24 AND 12/31, THIS BOX MAY BE COLLECTED AS EARLY AS 12 NOON.", "nsi_id": "unitedstatespostalservice-a77078", "operator": "United States Postal Service", "operator:short": "USPS", "operator:type": "public", "operator:wikidata": "Q668687", "ref": "2165900005"}, "type": "Feature"}
{"geometry": {"coordinates": [-75.882930477, 38.942448053], "type": "Point"}, "id": "C9mSnVkpv6AMzzd8qqXpb7J9XWM=", "properties": {"@source_uri": "https://tools.usps.com/UspsToolsRestServices/rest/POLocator/findLocations", "@spider": "usps_collection_boxes", "addr:city": "RIDGELY", "addr:country": "US", "addr:postcode": "21660", "addr:state": "MD", "addr:street_address": "502 MARYLAND AVE", "amenity": "post_box", "brand": "United States Postal Service", "brand:wikidata": "Q668687", "collection_times": "Mo-Fr 16:30; Sa 11:00", "note": "ON 12/24 AND 12/31, THIS BOX MAY BE COLLECTED AS EARLY AS 12 NOON.", "nsi_id": "unitedstatespostalservice-a77078", "operator": "United States Postal Service", "operator:short": "USPS", "operator:type": "public", "operator:wikidata": "Q668687", "ref": "2166000000"}, "type": "Feature"}
{"geometry": {"coordinates": [-75.882930477, 38.942448053], "type": "Point"}, "id": "uQBFSae3Ei56xwUKOAovtr9FXOc=", "properties": {"@source_uri": "https://tools.usps.com/UspsToolsRestServices/rest/POLocator/findLocations", "@spider": "usps_collection_boxes", "addr:city": "RIDGELY", "addr:country": "US", "addr:postcode": "21660", "addr:state": "MD", "addr:street_address": "502 MARYLAND AVE", "amenity": "post_box", "brand": "United States Postal Service", "brand:wikidata": "Q668687", "collection_times": "Mo-Fr 16:30; Sa 10:45", "indoor": "yes", "note": "ON 12/24 AND 12/31, THIS BOX MAY BE COLLECTED AS EARLY AS 12 NOON.", "nsi_id": "unitedstatespostalservice-a77078", "operator": "United States Postal Service", "operator:short": "USPS", "operator:type": "public", "operator:wikidata": "Q668687", "ref": "2166000001"}, "type": "Feature"}
{"geometry": {"coordinates": [-75.882930477, 38.942448053], "type": "Point"}, "id": "cwT7fVeo03ijJ5CkFnqQPmwk7bQ=", "properties": {"@source_uri": "https://tools.usps.com/UspsToolsRestServices/rest/POLocator/findLocations", "@spider": "usps_collection_boxes", "addr:city": "RIDGELY", "addr:country": "US", "addr:postcode": "21660", "addr:state": "MD", "addr:street_address": "502 MARYLAND AVE", "amenity": "post_box", "brand": "United States Postal Service", "brand:wikidata": "Q668687", "collection_times": "Mo-Fr 16:30; Sa 12:00", "indoor": "yes", "note": "ON 12/24 AND 12/31, THIS BOX MAY BE COLLECTED AS EARLY AS 12 NOON.", "nsi_id": "unitedstatespostalservice-a77078", "operator": "United States Postal Service", "operator:short": "USPS", "operator:type": "public", "operator:wikidata": "Q668687", "ref": "2166000006"}, "type": "Feature"}
{"geometry": {"coordinates": [-76.235646, 39.135779], "type": "Point"}, "id": "FTBtWH2qBBAhDzXUwXVezDaW_5E=", "properties": {"@source_uri": "https://tools.usps.com/UspsToolsRestServices/rest/POLocator/findLocations", "@spider": "usps_collection_boxes", "addr:city": "ROCK HALL", "addr:country": "US", "addr:postcode": "21661", "addr:state": "MD", "addr:street_address": "5691 LIBERTY ST", "amenity": "post_box", "brand": "United States Postal Service", "brand:wikidata": "Q668687", "collection_times": "Mo-Fr 16:15; Sa 11:30", "note": "ON 12/24 AND 12/31, THIS BOX MAY BE COLLECTED AS EARLY AS 12 NOON.", "nsi_id": "unitedstatespostalservice-a77078", "operator": "United States Postal Service", "operator:short": "USPS", "operator:type": "public", "operator:wikidata": "Q668687", "ref": "2166100000"}, "type": "Feature"}
{"geometry": {"coordinates": [-76.235689, 39.135793], "type": "Point"}, "id": "QkMy2Id5Ry2XrgTLq6wunJVcxXk=", "properties": {"@source_uri": "https://tools.usps.com/UspsToolsRestServices/rest/POLocator/findLocations", "@spider": "usps_collection_boxes", "addr:city": "ROCK HALL", "addr:country": "US", "addr:postcode": "21661", "addr:state": "MD", "addr:street_address": "5691 LIBERTY ST", "amenity": "post_box", "brand": "United States Postal Service", "brand:wikidata": "Q668687", "collection_times": "Mo-Fr 16:15; Sa 12:00", "indoor": "yes", "note": "ON 12/24 AND 12/31, THIS BOX MAY BE COLLECTED AS EARLY AS 12 NOON.", "nsi_id": "unitedstatespostalservice-a77078", "operator": "United States Postal Service", "operator:short": "USPS", "operator:type": "public", "operator:wikidata": "Q668687", "ref": "2166100001"}, "type": "Feature"}
{"geometry": {"coordinates": [-76.235689, 39.135793], "type": "Point"}, "id": "gUB3BP5N_Ff5e1UdurcRYY4l10E=", "properties": {"@source_uri": "https://tools.usps.com/UspsToolsRestServices/rest/POLocator/findLocations", "@spider": "usps_collection_boxes", "addr:city": "ROCK HALL", "addr:country": "US", "addr:postcode": "21661", "addr:state": "MD", "addr:street_address": "5691 LIBERTY ST", "amenity": "post_box", "brand": "United States Postal Service", "brand:wikidata": "Q668687", "collection_times": "Mo-Fr 16:15; Sa 12:00", "indoor": "yes", "note": "ON 12/24 AND 12/31, THIS BOX MAY BE COLLECTED AS EARLY AS 12 NOON.", "nsi_id": "unitedstatespostalservice-a77078", "operator": "United States Postal Service", "operator:short": "USPS", "operator:type": "public", "operator:wikidata": "Q668687", "ref": "2166100002"}, "type": "Feature"}
{"geometry": {"coordinates": [-76.235422602, 39.1352801693], "type": "Point"}, "id": "X4OYhLMDGwLDH3ErzEYPsBSLEmQ=", "properties": {"@source_uri": "https://tools.usps.com/UspsToolsRestServices/rest/POLocator/findLocations", "@spider": "usps_collection_boxes", "addr:city": "ROCK HALL", "addr:country": "US", "addr:postcode": "21661", "addr:state": "MD", "addr:street_address": "5691 LIBERTY ST", "amenity": "post_box", "brand": "United States Postal Service", "brand:wikidata": "Q668687", "collection_times": "Mo-Fr 16:30; Sa 12:00", "indoor": "yes", "note": "ON 12/24 AND 12/31, THIS BOX MAY BE COLLECTED AS EARLY AS 12 NOON.", "nsi_id": "unitedstatespostalservice-a77078", "operator": "United States Postal Service", "operator:short": "USPS", "operator:type": "public", "operator:wikidata": "Q668687", "ref": "2166100006"}, "type": "Feature"}
{"geometry": {"coordinates": [-76.180129604, 38.744043106], "type": "Point"}, "id": "LBJ32SSxQikc8li2GP50dxorFJQ=", "properties": {"@source_uri": "https://tools.usps.com/UspsToolsRestServices/rest/POLocator/findLocations", "@spider": "usps_collection_boxes", "addr:city": "ROYAL OAK", "addr:country": "US", "addr:postcode": "21662", "addr:state": "MD", "addr:street_address": "25897 ROYAL OAK RD", "amenity": "post_box", "brand": "United States Postal Service", "brand:wikidata": "Q668687", "collection_times": "Mo-Fr 16:15; Sa 11:00", "note": "ON 12/24 AND 12/31, THIS BOX MAY BE COLLECTED AS EARLY AS 12 NOON.", "nsi_id": "unitedstatespostalservice-a77078", "operator": "United States Postal Service", "operator:short": "USPS", "operator:type": "public", "operator:wikidata": "Q668687", "ref": "2166200000"}, "type": "Feature"}
{"geometry": {"coordinates": [-76.180129604, 38.744043106], "type": "Point"}, "id": "BPEL7HR7YlcfhRe9b09LXIlstxE=", "properties": {"@source_uri": "https://tools.usps.com/UspsToolsRestServices/rest/POLocator/findLocations", "@spider": "usps_collection_boxes", "addr:city": "ROYAL OAK", "addr:country": "US", "addr:postcode": "21662", "addr:state": "MD", "addr:street_address": "25897 ROYAL OAK RD", "amenity": "post_box", "brand": "United States Postal Service", "brand:wikidata": "Q668687", "collection_times": "Mo-Fr 16:15; Sa 11:00", "indoor": "yes", "note": "ON 12/24 AND 12/31, THIS BOX MAY BE COLLECTED AS EARLY AS 12 NOON.", "nsi_id": "unitedstatespostalservice-a77078", "operator": "United States Postal Service", "operator:short": "USPS", "operator:type": "public", "operator:wikidata": "Q668687", "ref": "2166200003"}, "type": "Feature"}
{"geometry": {"coordinates": [-76.180129604, 38.744043106], "type": "Point"}, "id": "i_lti0RHQbnOxqnTiPUHeneZyag=", "properties": {"@source_uri": "https://tools.usps.com/UspsToolsRestServices/rest/POLocator/findLocations", "@spider": "usps_collection_boxes", "addr:city": "ROYAL OAK", "addr:country": "US", "addr:postcode": "21662", "addr:state": "MD", "addr:street_address": "25897 ROYAL OAK RD", "amenity": "post_box", "brand": "United States Postal Service", "brand:wikidata": "Q668687", "collection_times": "Mo-Fr 16:30; Sa 11:00", "indoor": "yes", "note": "ON 12/24 AND 12/31, THIS BOX MAY BE COLLECTED AS EARLY AS 12 NOON.", "nsi_id": "unitedstatespostalservice-a77078", "operator": "United States Postal Service", "operator:short": "USPS", "operator:type": "public", "operator:wikidata": "Q668687", "ref": "2166200005"}, "type": "Feature"}
{"geometry": {"coordinates": [-76.223884596, 38.784191762], "type": "Point"}, "id": "bD9Wj9LPodiGmjYkuivBcPRb2gU=", "properties": {"@source_uri": "https://tools.usps.com/UspsToolsRestServices/rest/POLocator/findLocations", "@spider": "usps_collection_boxes", "addr:city": "SAINT MICHAELS", "addr:country": "US", "addr:postcode": "21663", "addr:state": "MD", "addr:street_address": "303 S TALBOT ST", "amenity": "post_box", "brand": "United States Postal Service", "brand:wikidata": "Q668687", "collection_times": "Mo-Fr 16:30; Sa 12:00", "note": "ON 12/24 AND 12/31, THIS BOX MAY BE COLLECTED AS EARLY AS 12 NOON.", "nsi_id": "unitedstatespostalservice-a77078", "operator": "United States Postal Service", "operator:short": "USPS", "operator:type": "public", "operator:wikidata": "Q668687", "ref": "2166300001"}, "type": "Feature"}
{"geometry": {"coordinates": [-76.212453, 38.774529], "type": "Point"}, "id": "swzB_Fd7SWwLyDE1dlINUeXxG7Q=", "properties": {"@source_uri": "https://tools.usps.com/UspsToolsRestServices/rest/POLocator/findLocations", "@spider": "usps_collection_boxes", "addr:city": "SAINT MICHAELS", "addr:country": "US", "addr:postcode": "21663", "addr:state": "MD", "addr:street_address": "1013 S TALBOT ST", "amenity": "post_box", "brand": "United States Postal Service", "brand:wikidata": "Q668687", "collection_times": "Mo-Sa 10:00", "nsi_id": "unitedstatespostalservice-a77078", "operator": "United States Postal Service", "operator:short": "USPS", "operator:type": "public", "operator:wikidata": "Q668687", "ref": "2166300002"}, "type": "Feature"}
{"geometry": {"coordinates": [-76.2081253, 38.770637], "type": "Point"}, "id": "8YFIT_uadr1jagppgrHzI4kNbZs=", "properties": {"@source_uri": "https://tools.usps.com/UspsToolsRestServices/rest/POLocator/findLocations", "@spider": "usps_collection_boxes", "addr:city": "SAINT MICHAELS", "addr:country": "US", "addr:postcode": "21663", "addr:state": "MD", "addr:street_address": "1212 S TALBOT ST", "amenity": "post_box", "brand": "United States Postal Service", "brand:wikidata": "Q668687", "collection_times": "Mo-Sa 09:00", "nsi_id": "unitedstatespostalservice-a77078", "operator": "United States Postal Service", "operator:short": "USPS", "operator:type": "public", "operator:wikidata": "Q668687", "ref": "2166300005"}, "type": "Feature"}
{"geometry": {"coordinates": [-76.223884596, 38.784191762], "type": "Point"}, "id": "CAFUvBEPvDoTRtMM_Sz5Fyy-_oQ=", "properties": {"@source_uri": "https://tools.usps.com/UspsToolsRestServices/rest/POLocator/findLocations", "@spider": "usps_collection_boxes", "addr:city": "SAINT MICHAELS", "addr:country": "US", "addr:postcode": "21663", "addr:state": "MD", "addr:street_address": "303 S TALBOT ST", "amenity": "post_box", "brand": "United States Postal Service", "brand:wikidata": "Q668687", "collection_times": "Mo-Fr 16:30; Sa 12:00", "indoor": "yes", "note": "ON 12/24 AND 12/31, THIS BOX MAY BE COLLECTED AS EARLY AS 12 NOON.", "nsi_id": "unitedstatespostalservice-a77078", "operator": "United States Postal Service", "operator:short": "USPS", "operator:type": "public", "operator:wikidata": "Q668687", "ref": "2166300007"}, "type": "Feature"}
{"geometry": {"coordinates": [-76.223884596, 38.784191762], "type": "Point"}, "id": "w8KI5buorhE4C3R96A0konj5o78=", "properties": {"@source_uri": "https://tools.usps.com/UspsToolsRestServices/rest/POLocator/findLocations", "@spider": "usps_collection_boxes", "addr:city": "SAINT MICHAELS", "addr:country": "US", "addr:postcode": "21663", "addr:state": "MD", "addr:street_address": "303 S TALBOT ST", "amenity": "post_box", "brand": "United States Postal Service", "brand:wikidata": "Q668687", "collection_times": "Mo-Fr 16:30; Sa 12:00", "indoor": "yes", "note": "ON 12/24 AND 12/31, THIS BOX MAY BE COLLECTED AS EARLY AS 12 NOON.", "nsi_id": "unitedstatespostalservice-a77078", "operator": "United States Postal Service", "operator:short": "USPS", "operator:type": "public", "operator:wikidata": "Q668687", "ref": "2166300009"}, "type": "Feature"}
{"geometry": {"coordinates": [-75.947306439, 38.609364162], "type": "Point"}, "id": "j1kFPWLo_8G9i26kQh4kTHkL7yY=", "properties": {"@source_uri": "https://tools.usps.com/UspsToolsRestServices/rest/POLocator/findLocations", "@spider": "usps_collection_boxes", "addr:city": "SECRETARY", "addr:country": "US", "addr:postcode": "21664", "addr:state": "MD", "addr:street_address": "145 MAIN ST", "amenity": "post_box", "brand": "United States Postal Service", "brand:wikidata": "Q668687", "collection_times": "Mo-Fr 16:00; Sa 10:15", "note": "ON 12/24 AND 12/31, THIS BOX MAY BE COLLECTED AS EARLY AS 12 NOON.", "nsi_id": "unitedstatespostalservice-a77078", "operator": "United States Postal Service", "operator:short": "USPS", "operator:type": "public", "operator:wikidata": "Q668687", "ref": "2166400000"}, "type": "Feature"}
{"geometry": {"coordinates": [-75.947306439, 38.609364162], "type": "Point"}, "id": "xfcJzGy5OjfqCxOGCGn-mPVHgX8=", "properties": {"@source_uri": "https://tools.usps.com/UspsToolsRestServices/rest/POLocator/findLocations", "@spider": "usps_collection_boxes", "addr:city": "SECRETARY", "addr:country": "US", "addr:postcode": "21664", "addr:state": "MD", "addr:street_address": "145 MAIN ST", "amenity": "post_box", "brand": "United States Postal Service", "brand:wikidata": "Q668687", "collection_times": "Mo-Fr 16:00; Sa 10:15", "indoor": "yes", "note": "ON 12/24 AND 12/31, THIS BOX MAY BE COLLECTED AS EARLY AS 12 NOON.", "nsi_id": "unitedstatespostalservice-a77078", "operator": "United States Postal Service", "operator:short": "USPS", "operator:type": "public", "operator:wikidata": "Q668687", "ref": "2166400001"}, "type": "Feature"}
{"geometry": {"coordinates": [-75.947306439, 38.609364162], "type": "Point"}, "id": "kL4R9mTucDY9x2vVrZHib6zRGH0=", "properties": {"@source_uri": "https://tools.usps.com/UspsToolsRestServices/rest/POLocator/findLocations", "@spider": "usps_collection_boxes", "addr:city": "SECRETARY", "addr:country": "US", "addr:postcode": "21664", "addr:state": "MD", "addr:street_address": "145 MAIN ST", "amenity": "post_box", "brand": "United States Postal Service", "brand:wikidata": "Q668687", "collection_times": "Mo-Fr 16:00; Sa 10:15", "indoor": "yes", "note": "ON 12/24 AND 12/31, THIS BOX MAY BE COLLECTED AS EARLY AS 12 NOON.", "nsi_id": "unitedstatespostalservice-a77078", "operator": "United States Postal Service", "operator:short": "USPS", "operator:type": "public", "operator:wikidata": "Q668687", "ref": "2166400002"}, "type": "Feature"}
{"geometry": {"coordinates": [-75.947306439, 38.609364162], "type": "Point"}, "id": "GHIY--3jWksYnCFL1ZACfqEJ6XI=", "properties": {"@source_uri": "https://tools.usps.com/UspsToolsRestServices/rest/POLocator/findLocations", "@spider": "usps_collection_boxes", "addr:city": "SECRETARY", "addr:country": "US", "addr:postcode": "21664", "addr:state": "MD", "addr:street_address": "145 MAIN ST", "amenity": "post_box", "brand": "United States Postal Service", "brand:wikidata": "Q668687", "collection_times": "Mo-Fr 16:30; Sa 10:30", "indoor": "yes", "note": "ON 12/24 AND 12/31, THIS BOX MAY BE COLLECTED AS EARLY AS 12 NOON.", "nsi_id": "unitedstatespostalservice-a77078", "operator": "United States Postal Service", "operator:short": "USPS", "operator:type": "public", "operator:wikidata": "Q668687", "ref": "2166400004"}, "type": "Feature"}
{"geometry": {"coordinates": [-76.3129395, 38.975589], "type": "Point"}, "id": "uIU1XvKhBZ1M-EJqscGlizvjD94=", "properties": {"@source_uri": "https://tools.usps.com/UspsToolsRestServices/rest/POLocator/findLocations", "@spider": "usps_collection_boxes", "addr:city": "STEVENSVILLE", "addr:country": "US", "addr:postcode": "21666", "addr:state": "MD", "addr:street_address": "366 THOMPSON CREEK MALL", "amenity": "post_box", "brand": "United States Postal Service", "brand:wikidata": "Q668687", "collection_times": "Mo-Fr 16:45; Sa 12:00", "note": "ON 12/24 AND 12/31, THIS BOX MAY BE COLLECTED AS EARLY AS 12 NOON.", "nsi_id": "unitedstatespostalservice-a77078", "operator": "United States Postal Service", "operator:short": "USPS", "operator:type": "public", "operator:wikidata": "Q668687", "ref": "2166600000"}, "type": "Feature"}
{"geometry": {"coordinates": [-76.2965959, 38.975605], "type": "Point"}, "id": "viu48R73Smr_lslwhUzUFiceIxY=", "properties": {"@source_uri": "https://tools.usps.com/UspsToolsRestServices/rest/POLocator/findLocations", "@spider": "usps_collection_boxes", "addr:city": "STEVENSVILLE", "addr:country": "US", "addr:postcode": "21666", "addr:state": "MD", "addr:street_address": "1213 SHOPPING CENTER RD", "amenity": "post_box", "brand": "United States Postal Service", "brand:wikidata": "Q668687", "collection_times": "Mo-Sa 09:00", "nsi_id": "unitedstatespostalservice-a77078", "operator": "United States Postal Service", "operator:short": "USPS", "operator:type": "public", "operator:wikidata": "Q668687", "ref": "2166600003"}, "type": "Feature"}
{"geometry": {"coordinates": [-76.314099, 38.975973], "type": "Point"}, "id": "13fugkpShpGwwRZ39vBLZ0kHs58=", "properties": {"@source_uri": "https://tools.usps.com/UspsToolsRestServices/rest/POLocator/findLocations", "@spider": "usps_collection_boxes", "addr:city": "STEVENSVILLE", "addr:country": "US", "addr:postcode": "21666", "addr:state": "MD", "addr:street_address": "366 THOMPSON CREEK MALL", "amenity": "post_box", "brand": "United States Postal Service", "brand:wikidata": "Q668687", "collection_times": "Mo-Fr 16:45; Sa 12:00", "indoor": "yes", "note": "ON 12/24 AND 12/31, THIS BOX MAY BE COLLECTED AS EARLY AS 12 NOON.", "nsi_id": "unitedstatespostalservice-a77078", "operator": "United States Postal Service", "operator:short": "USPS", "operator:type": "public", "operator:wikidata": "Q668687", "ref": "2166600006"}, "type": "Feature"}
{"geometry": {"coordinates": [-76.3265139, 38.973597], "type": "Point"}, "id": "HpekBv7eQsHxV6LJPXbvtbnI0I8=", "properties": {"@source_uri": "https://tools.usps.com/UspsToolsRestServices/rest/POLocator/findLocations", "@spider": "usps_collection_boxes", "addr:city": "STEVENSVILLE", "addr:country": "US", "addr:postcode": "21666", "addr:state": "MD", "addr:street_address": "320 ROMANCOKE RD", "amenity": "post_box", "brand": "United States Postal Service", "brand:wikidata": "Q668687", "collection_times": "Mo-Sa 09:30", "nsi_id": "unitedstatespostalservice-a77078", "operator": "United States Postal Service", "operator:short": "USPS", "operator:type": "public", "operator:wikidata": "Q668687", "ref": "2166600007"}, "type": "Feature"}
{"geometry": {"coordinates": [-76.3140879196, 38.9758986387], "type": "Point"}, "id": "Y6uAZ6oVzZz2okt0ZhiTUMF13mQ=", "properties": {"@source_uri": "https://tools.usps.com/UspsToolsRestServices/rest/POLocator/findLocations", "@spider": "usps_collection_boxes", "addr:city": "STEVENSVILLE", "addr:country": "US", "addr:postcode": "21666", "addr:state": "MD", "addr:street_address": "366 THOMPSON CREEK MALL", "amenity": "post_box", "brand": "United States Postal Service", "brand:wikidata": "Q668687", "collection_times": "Mo-Fr 17:00; Sa 12:00", "indoor": "yes", "note": "ON 12/24 AND 12/31, THIS BOX MAY BE COLLECTED AS EARLY AS 12 NOON.", "nsi_id": "unitedstatespostalservice-a77078", "operator": "United States Postal Service", "operator:short": "USPS", "operator:type": "public", "operator:wikidata": "Q668687", "ref": "2166600012"}, "type": "Feature"}
{"geometry": {"coordinates": [-75.858517013, 39.185345472], "type": "Point"}, "id": "wSxO-Dqx40l7DfD0lKAxJAx7KyM=", "properties": {"@source_uri": "https://tools.usps.com/UspsToolsRestServices/rest/POLocator/findLocations", "@spider": "usps_collection_boxes", "addr:city": "SUDLERSVILLE", "addr:country": "US", "addr:postcode": "21668", "addr:state": "MD", "addr:street_address": "117 S CHURCH ST", "amenity": "post_box", "brand": "United States Postal Service", "brand:wikidata": "Q668687", "collection_times": "Mo-Fr 16:00; Sa 11:00", "note": "ON 12/24 AND 12/31, THIS BOX MAY BE COLLECTED AS EARLY AS 12 NOON.", "nsi_id": "unitedstatespostalservice-a77078", "operator": "United States Postal Service", "operator:short": "USPS", "operator:type": "public", "operator:wikidata": "Q668687", "ref": "2166800000"}, "type": "Feature"}
{"geometry": {"coordinates": [-75.858517013, 39.185345472], "type": "Point"}, "id": "dYXiPiIF44XTqDmgKl1SWV5UThI=", "properties": {"@source_uri": "https://tools.usps.com/UspsToolsRestServices/rest/POLocator/findLocations", "@spider": "usps_collection_boxes", "addr:city": "SUDLERSVILLE", "addr:country": "US", "addr:postcode": "21668", "addr:state": "MD", "addr:street_address": "117 S CHURCH ST", "amenity": "post_box", "brand": "United States Postal Service", "brand:wikidata": "Q668687", "collection_times": "Mo-Fr 16:00; Sa 11:00", "indoor": "yes", "note": "ON 12/24 AND 12/31, THIS BOX MAY BE COLLECTED AS EARLY AS 12 NOON.", "nsi_id": "unitedstatespostalservice-a77078", "operator": "United States Postal Service", "operator:short": "USPS", "operator:type": "public", "operator:wikidata": "Q668687", "ref": "2166800001"}, "type": "Feature"}
{"geometry": {"coordinates": [-75.858517013, 39.185345472], "type": "Point"}, "id": "61P3RUIpC-so8Wlhrg8QBhqukqE=", "properties": {"@source_uri": "https://tools.usps.com/UspsToolsRestServices/rest/POLocator/findLocations", "@spider": "usps_collection_boxes", "addr:city": "SUDLERSVILLE", "addr:country": "US", "addr:postcode": "21668", "addr:state": "MD", "addr:street_address": "117 S CHURCH ST", "amenity": "post_box", "brand": "United States Postal Service", "brand:wikidata": "Q668687", "collection_times": "Mo-Fr 16:00; Sa 11:00", "indoor": "yes", "note": "ON 12/24 AND 12/31, THIS BOX MAY BE COLLECTED AS EARLY AS 12 NOON.", "nsi_id": "unitedstatespostalservice-a77078", "operator": "United States Postal Service", "operator:short": "USPS", "operator:type": "public", "operator:wikidata": "Q668687", "ref": "2166800002"}, "type": "Feature"}
{"geometry": {"coordinates": [-75.858517013, 39.185345472], "type": "Point"}, "id": "J8F0DuKIUnwfOjktypvKRRrtR5M=", "properties": {"@source_uri": "https://tools.usps.com/UspsToolsRestServices/rest/POLocator/findLocations", "@spider": "usps_collection_boxes", "addr:city": "SUDLERSVILLE", "addr:country": "US", "addr:postcode": "21668", "addr:state": "MD", "addr:street_address": "117 S CHURCH ST", "amenity": "post_box", "brand": "United States Postal Service", "brand:wikidata": "Q668687", "collection_times": "Mo-Fr 16:00; Sa 11:00", "indoor": "yes", "note": "ON 12/24 AND 12/31, THIS BOX MAY BE COLLECTED AS EARLY AS 12 NOON.", "nsi_id": "unitedstatespostalservice-a77078", "operator": "United States Postal Service", "operator:short": "USPS", "operator:type": "public", "operator:wikidata": "Q668687", "ref": "2166800004"}, "type": "Feature"}
{"geometry": {"coordinates": [-76.296719993, 38.469531084], "type": "Point"}, "id": "7xVicNr4R7Jw7LHkkjn1Uz-o4qE=", "properties": {"@source_uri": "https://tools.usps.com/UspsToolsRestServices/rest/POLocator/findLocations", "@spider": "usps_collection_boxes", "addr:city": "TAYLORS ISLAND", "addr:country": "US", "addr:postcode": "21669", "addr:state": "MD", "addr:street_address": "517 TAYLORS ISLAND RD", "amenity": "post_box", "brand": "United States Postal Service", "brand:wikidata": "Q668687", "collection_times": "Mo-Fr 11:30; Sa 10:30", "nsi_id": "unitedstatespostalservice-a77078", "operator": "United States Postal Service", "operator:short": "USPS", "operator:type": "public", "operator:wikidata": "Q668687", "ref": "2166900000"}, "type": "Feature"}
{"geometry": {"coordinates": [-76.296719993, 38.469531084], "type": "Point"}, "id": "KA3jPkV-EUqSuuAuYWAu2q5XFVM=", "properties": {"@source_uri": "https://tools.usps.com/UspsToolsRestServices/rest/POLocator/findLocations", "@spider": "usps_collection_boxes", "addr:city": "TAYLORS ISLAND", "addr:country": "US", "addr:postcode": "21669", "addr:state": "MD", "addr:street_address": "517 TAYLORS ISLAND RD", "amenity": "post_box", "brand": "United States Postal Service", "brand:wikidata": "Q668687", "collection_times": "Mo-Fr 11:30; Sa 10:30", "indoor": "yes", "nsi_id": "unitedstatespostalservice-a77078", "operator": "United States Postal Service", "operator:short": "USPS", "operator:type": "public", "operator:wikidata": "Q668687", "ref": "2166900001"}, "type": "Feature"}
{"geometry": {"coordinates": [-76.296719993, 38.469531084], "type": "Point"}, "id": "iEmy6H62re7HC9_ycMEmozYVSAI=", "properties": {"@source_uri": "https://tools.usps.com/UspsToolsRestServices/rest/POLocator/findLocations", "@spider": "usps_collection_boxes", "addr:city": "TAYLORS ISLAND", "addr:country": "US", "addr:postcode": "21669", "addr:state": "MD", "addr:street_address": "517 TAYLORS ISLAND RD", "amenity": "post_box", "brand": "United States Postal Service", "brand:wikidata": "Q668687", "collection_times": "Mo-Fr 11:30; Sa 10:30", "indoor": "yes", "nsi_id": "unitedstatespostalservice-a77078", "operator": "United States Postal Service", "operator:short": "USPS", "operator:type": "public", "operator:wikidata": "Q668687", "ref": "2166900002"}, "type": "Feature"}
{"geometry": {"coordinates": [-76.296719993, 38.469531084], "type": "Point"}, "id": "XIXAMb7dDbL_zoiRcANXhlDm2GE=", "properties": {"@source_uri": "https://tools.usps.com/UspsToolsRestServices/rest/POLocator/findLocations", "@spider": "usps_collection_boxes", "addr:city": "TAYLORS ISLAND", "addr:country": "US", "addr:postcode": "21669", "addr:state": "MD", "addr:street_address": "517 TAYLORS ISLAND RD", "amenity": "post_box", "brand": "United States Postal Service", "brand:wikidata": "Q668687", "collection_times": "Mo-Fr 11:30; Sa 10:30", "indoor": "yes", "nsi_id": "unitedstatespostalservice-a77078", "operator": "United States Postal Service", "operator:short": "USPS", "operator:type": "public", "operator:wikidata": "Q668687", "ref": "2166900004"}, "type": "Feature"}
{"geometry": {"coordinates": [-75.768639196, 39.135960155], "type": "Point"}, "id": "kUHrUxKvOrhhBOE_3Kq2Od6xias=", "properties": {"@source_uri": "https://tools.usps.com/UspsToolsRestServices/rest/POLocator/findLocations", "@spider": "usps_collection_boxes", "addr:city": "TEMPLEVILLE", "addr:country": "US", "addr:postcode": "21670", "addr:state": "MD", "addr:street_address": "3711 BARCLAY RD", "amenity": "post_box", "brand": "United States Postal Service", "brand:wikidata": "Q668687", "collection_times": "Mo-Fr 15:30; Sa 11:15", "note": "ON 12/24 AND 12/31, THIS BOX MAY BE COLLECTED AS EARLY AS 12 NOON.", "nsi_id": "unitedstatespostalservice-a77078", "operator": "United States Postal Service", "operator:short": "USPS", "operator:type": "public", "operator:wikidata": "Q668687", "ref": "2167000000"}, "type": "Feature"}
{"geometry": {"coordinates": [-75.768639196, 39.135960155], "type": "Point"}, "id": "6Lzsdqo9Q2Iu-jD__FwZsIKys3o=", "properties": {"@source_uri": "https://tools.usps.com/UspsToolsRestServices/rest/POLocator/findLocations", "@spider": "usps_collection_boxes", "addr:city": "TEMPLEVILLE", "addr:country": "US", "addr:postcode": "21670", "addr:state": "MD", "addr:street_address": "3711 BARCLAY RD", "amenity": "post_box", "brand": "United States Postal Service", "brand:wikidata": "Q668687", "collection_times": "Mo-Fr 16:15; Sa 11:30", "indoor": "yes", "note": "ON 12/24 AND 12/31, THIS BOX MAY BE COLLECTED AS EARLY AS 12 NOON.", "nsi_id": "unitedstatespostalservice-a77078", "operator": "United States Postal Service", "operator:short": "USPS", "operator:type": "public", "operator:wikidata": "Q668687", "ref": "2167000002"}, "type": "Feature"}
{"geometry": {"coordinates": [-76.337995535, 38.710532096], "type": "Point"}, "id": "1AQqHO7-T5snk1LkGA-Swncyz0I=", "properties": {"@source_uri": "https://tools.usps.com/UspsToolsRestServices/rest/POLocator/findLocations", "@spider": "usps_collection_boxes", "addr:city": "TILGHMAN", "addr:country": "US", "addr:postcode": "21671", "addr:state": "MD", "addr:street_address": "5806 TILGHMAN ISLAND RD", "amenity": "post_box", "brand": "United States Postal Service", "brand:wikidata": "Q668687", "collection_times": "Mo-Fr 15:40; Sa 11:00", "note": "ON 12/24 AND 12/31, THIS BOX MAY BE COLLECTED AS EARLY AS 12 NOON.", "nsi_id": "unitedstatespostalservice-a77078", "operator": "United States Postal Service", "operator:short": "USPS", "operator:type": "public", "operator:wikidata": "Q668687", "ref": "2167100000"}, "type": "Feature"}
{"geometry": {"coordinates": [-76.337995535, 38.710532096], "type": "Point"}, "id": "ZRfKoPwJdGLhc-PyRiUYpzZP5tk=", "properties": {"@source_uri": "https://tools.usps.com/UspsToolsRestServices/rest/POLocator/findLocations", "@spider": "usps_collection_boxes", "addr:city": "TILGHMAN", "addr:country": "US", "addr:postcode": "21671", "addr:state": "MD", "addr:street_address": "5806 TILGHMAN ISLAND RD", "amenity": "post_box", "brand": "United States Postal Service", "brand:wikidata": "Q668687", "collection_times": "Mo-Fr 15:40; Sa 11:00", "indoor": "yes", "note": "ON 12/24 AND 12/31, THIS BOX MAY BE COLLECTED AS EARLY AS 12 NOON.", "nsi_id": "unitedstatespostalservice-a77078", "operator": "United States Postal Service", "operator:short": "USPS", "operator:type": "public", "operator:wikidata": "Q668687", "ref": "2167100001"}, "type": "Feature"}
{"geometry": {"coordinates": [-76.337995535, 38.710532096], "type": "Point"}, "id": "WsSNl-SIcRFDUXtd3C32BFADtT0=", "properties": {"@source_uri": "https://tools.usps.com/UspsToolsRestServices/rest/POLocator/findLocations", "@spider": "usps_collection_boxes", "addr:city": "TILGHMAN", "addr:country": "US", "addr:postcode": "21671", "addr:state": "MD", "addr:street_address": "5806 TILGHMAN ISLAND RD", "amenity": "post_box", "brand": "United States Postal Service", "brand:wikidata": "Q668687", "collection_times": "Mo-Fr 15:40; Sa 11:00", "indoor": "yes", "note": "ON 12/24 AND 12/31, THIS BOX MAY BE COLLECTED AS EARLY AS 12 NOON.", "nsi_id": "unitedstatespostalservice-a77078", "operator": "United States Postal Service", "operator:short": "USPS", "operator:type": "public", "operator:wikidata": "Q668687", "ref": "2167100002"}, "type": "Feature"}
{"geometry": {"coordinates": [-76.3360399, 38.714274], "type": "Point"}, "id": "ZcRSfCkdkKuthmCocPo45amdI5c=", "properties": {"@source_uri": "https://tools.usps.com/UspsToolsRestServices/rest/POLocator/findLocations", "@spider": "usps_collection_boxes", "addr:city": "TILGHMAN", "addr:country": "US", "addr:postcode": "21671", "addr:state": "MD", "addr:street_address": "5949 TILGHMAN ISLAND RD", "amenity": "post_box", "brand": "United States Postal Service", "brand:wikidata": "Q668687", "collection_times": "Mo-Sa 11:00", "nsi_id": "unitedstatespostalservice-a77078", "operator": "United States Postal Service", "operator:short": "USPS", "operator:type": "public", "operator:wikidata": "Q668687", "ref": "2167100004"}, "type": "Feature"}
{"geometry": {"coordinates": [-76.337995535, 38.710532096], "type": "Point"}, "id": "XYTWploqX1-1KYyBGGpIwtPrrTo=", "properties": {"@source_uri": "https://tools.usps.com/UspsToolsRestServices/rest/POLocator/findLocations", "@spider": "usps_collection_boxes", "addr:city": "TILGHMAN", "addr:country": "US", "addr:postcode": "21671", "addr:state": "MD", "addr:street_address": "5806 TILGHMAN ISLAND RD", "amenity": "post_box", "brand": "United States Postal Service", "brand:wikidata": "Q668687", "collection_times": "Mo-Fr 15:30; Sa 11:00", "indoor": "yes", "note": "ON 12/24 AND 12/31, THIS BOX MAY BE COLLECTED AS EARLY AS 12 NOON.", "nsi_id": "unitedstatespostalservice-a77078", "operator": "United States Postal Service", "operator:short": "USPS", "operator:type": "public", "operator:wikidata": "Q668687", "ref": "2167100005"}, "type": "Feature"}
{"geometry": {"coordinates": [-76.055556, 38.670995], "type": "Point"}, "id": "isq305F3qZfHO4FAXlumDD0LoWY=", "properties": {"@source_uri": "https://tools.usps.com/UspsToolsRestServices/rest/POLocator/findLocations", "@spider": "usps_collection_boxes", "addr:city": "TRAPPE", "addr:country": "US", "addr:postcode": "21673", "addr:state": "MD", "addr:street_address": "29381 GREENFIELD AVE", "amenity": "post_box", "brand": "United States Postal Service", "brand:wikidata": "Q668687", "collection_times": "Mo-Fr 16:15; Sa 10:45", "indoor": "yes", "note": "ON 12/24 AND 12/31, THIS BOX MAY BE COLLECTED AS EARLY AS 12 NOON.", "nsi_id": "unitedstatespostalservice-a77078", "operator": "United States Postal Service", "operator:short": "USPS", "operator:type": "public", "operator:wikidata": "Q668687", "ref": "2167300005"}, "type": "Feature"}
{"geometry": {"coordinates": [-76.055556, 38.670995], "type": "Point"}, "id": "9hcXyfUihH3K8gMMbE1uvnR1YcY=", "properties": {"@source_uri": "https://tools.usps.com/UspsToolsRestServices/rest/POLocator/findLocations", "@spider": "usps_collection_boxes", "addr:city": "TRAPPE", "addr:country": "US", "addr:postcode": "21673", "addr:state": "MD", "addr:street_address": "29381 GREENFIELD AVE", "amenity": "post_box", "brand": "United States Postal Service", "brand:wikidata": "Q668687", "collection_times": "Mo-Fr 16:15; Sa 10:45", "indoor": "yes", "note": "ON 12/24 AND 12/31, THIS BOX MAY BE COLLECTED AS EARLY AS 12 NOON.", "nsi_id": "unitedstatespostalservice-a77078", "operator": "United States Postal Service", "operator:short": "USPS", "operator:type": "public", "operator:wikidata": "Q668687", "ref": "2167300006"}, "type": "Feature"}
{"geometry": {"coordinates": [-76.055556, 38.670995], "type": "Point"}, "id": "KuHK5tELGj_WrW2ihfS42fTg9tA=", "properties": {"@source_uri": "https://tools.usps.com/UspsToolsRestServices/rest/POLocator/findLocations", "@spider": "usps_collection_boxes", "addr:city": "TRAPPE", "addr:country": "US", "addr:postcode": "21673", "addr:state": "MD", "addr:street_address": "29381 GREENFIELD AVE", "amenity": "post_box", "brand": "United States Postal Service", "brand:wikidata": "Q668687", "collection_times": "Mo-Fr 16:15; Sa 10:45", "note": "ON 12/24 AND 12/31, THIS BOX MAY BE COLLECTED AS EARLY AS 12 NOON.", "nsi_id": "unitedstatespostalservice-a77078", "operator": "United States Postal Service", "operator:short": "USPS", "operator:type": "public", "operator:wikidata": "Q668687", "ref": "2167300007"}, "type": "Feature"}
{"geometry": {"coordinates": [-76.055556, 38.670995], "type": "Point"}, "id": "REN_jRMfI84QCM9bW0i9j8BpQss=", "properties": {"@source_uri": "https://tools.usps.com/UspsToolsRestServices/rest/POLocator/findLocations", "@spider": "usps_collection_boxes", "addr:city": "TRAPPE", "addr:country": "US", "addr:postcode": "21673", "addr:state": "MD", "addr:street_address": "29381 GREENFIELD AVE", "amenity": "post_box", "brand": "United States Postal Service", "brand:wikidata": "Q668687", "collection_times": "Mo-Fr 16:30; Sa 11:00", "indoor": "yes", "note": "ON 12/24 AND 12/31, THIS BOX MAY BE COLLECTED AS EARLY AS 12 NOON.", "nsi_id": "unitedstatespostalservice-a77078", "operator": "United States Postal Service", "operator:short": "USPS", "operator:type": "public", "operator:wikidata": "Q668687", "ref": "2167300009"}, "type": "Feature"}
{"geometry": {"coordinates": [-76.2908621, 38.789135], "type": "Point"}, "id": "0oltiGFia7AMnMxKMo2NRPs4b0g=", "properties": {"@source_uri": "https://tools.usps.com/UspsToolsRestServices/rest/POLocator/findLocations", "@spider": "usps_collection_boxes", "addr:city": "WITTMAN", "addr:country": "US", "addr:postcode": "21676", "addr:state": "MD", "addr:street_address": "22611 POT PIE RD", "amenity": "post_box", "brand": "United States Postal Service", "brand:wikidata": "Q668687", "collection_times": "Mo-Fr 14:00; Sa 11:15", "note": "ON 12/24 AND 12/31, THIS BOX MAY BE COLLECTED AS EARLY AS 12 NOON.", "nsi_id": "unitedstatespostalservice-a77078", "operator": "United States Postal Service", "operator:short": "USPS", "operator:type": "public", "operator:wikidata": "Q668687", "ref": "2167600005"}, "type": "Feature"}
{"geometry": {"coordinates": [-76.2908621, 38.789135], "type": "Point"}, "id": "vzettd8g6sxH2OwSw-fkiVIahz4=", "properties": {"@source_uri": "https://tools.usps.com/UspsToolsRestServices/rest/POLocator/findLocations", "@spider": "usps_collection_boxes", "addr:city": "WITTMAN", "addr:country": "US", "addr:postcode": "21676", "addr:state": "MD", "addr:street_address": "22611 POT PIE RD", "amenity": "post_box", "brand": "United States Postal Service", "brand:wikidata": "Q668687", "collection_times": "Mo-Fr 14:00; Sa 11:15", "indoor": "yes", "note": "ON 12/24 AND 12/31, THIS BOX MAY BE COLLECTED AS EARLY AS 12 NOON.", "nsi_id": "unitedstatespostalservice-a77078", "operator": "United States Postal Service", "operator:short": "USPS", "operator:type": "public", "operator:wikidata": "Q668687", "ref": "2167600006"}, "type": "Feature"}
{"geometry": {"coordinates": [-76.2908621, 38.789135], "type": "Point"}, "id": "3OWElvK7PBMa8cig7Ths-xjhIE0=", "properties": {"@source_uri": "https://tools.usps.com/UspsToolsRestServices/rest/POLocator/findLocations", "@spider": "usps_collection_boxes", "addr:city": "WITTMAN", "addr:country": "US", "addr:postcode": "21676", "addr:state": "MD", "addr:street_address": "22611 POT PIE RD", "amenity": "post_box", "brand": "United States Postal Service", "brand:wikidata": "Q668687", "collection_times": "Mo-Fr 14:00; Sa 11:15", "indoor": "yes", "note": "ON 12/24 AND 12/31, THIS BOX MAY BE COLLECTED AS EARLY AS 12 NOON.", "nsi_id": "unitedstatespostalservice-a77078", "operator": "United States Postal Service", "operator:short": "USPS", "operator:type": "public", "operator:wikidata": "Q668687", "ref": "2167600007"}, "type": "Feature"}
{"geometry": {"coordinates": [-76.2908621, 38.789135], "type": "Point"}, "id": "_V0hl3FFOku6iCA2EYfmxGXUMno=", "properties": {"@source_uri": "https://tools.usps.com/UspsToolsRestServices/rest/POLocator/findLocations", "@spider": "usps_collection_boxes", "addr:city": "WITTMAN", "addr:country": "US", "addr:postcode": "21676", "addr:state": "MD", "addr:street_address": "22611 POT PIE RD", "amenity": "post_box", "brand": "United States Postal Service", "brand:wikidata": "Q668687", "collection_times": "Mo-Fr 14:30; Sa 11:30", "indoor": "yes", "note": "ON 12/24 AND 12/31, THIS BOX MAY BE COLLECTED AS EARLY AS 12 NOON.", "nsi_id": "unitedstatespostalservice-a77078", "operator": "United States Postal Service", "operator:short": "USPS", "operator:type": "public", "operator:wikidata": "Q668687", "ref": "2167600009"}, "type": "Feature"}
{"geometry": {"coordinates": [-76.178055, 38.503607], "type": "Point"}, "id": "HgvTCe-bv871Gq4WwS0GgNaKUKI=", "properties": {"@source_uri": "https://tools.usps.com/UspsToolsRestServices/rest/POLocator/findLocations", "@spider": "usps_collection_boxes", "addr:city": "WOOLFORD", "addr:country": "US", "addr:postcode": "21677", "addr:state": "MD", "addr:street_address": "1614 TAYLORS ISLAND RD # 1", "amenity": "post_box", "brand": "United States Postal Service", "brand:wikidata": "Q668687", "collection_times": "Mo-Fr 13:30; Sa 12:00", "note": "ON 12/24 AND 12/31, THIS BOX MAY BE COLLECTED AS EARLY AS 12 NOON.", "nsi_id": "unitedstatespostalservice-a77078", "operator": "United States Postal Service", "operator:short": "USPS", "operator:type": "public", "operator:wikidata": "Q668687", "ref": "2167700000"}, "type": "Feature"}
{"geometry": {"coordinates": [-76.178055, 38.503607], "type": "Point"}, "id": "LMsXLhRECHD81JAn-cQcTcLG2bI=", "properties": {"@source_uri": "https://tools.usps.com/UspsToolsRestServices/rest/POLocator/findLocations", "@spider": "usps_collection_boxes", "addr:city": "WOOLFORD", "addr:country": "US", "addr:postcode": "21677", "addr:state": "MD", "addr:street_address": "1614 TAYLORS ISLAND RD # 1", "amenity": "post_box", "brand": "United States Postal Service", "brand:wikidata": "Q668687", "collection_times": "Mo-Fr 13:30; Sa 12:00", "indoor": "yes", "note": "ON 12/24 AND 12/31, THIS BOX MAY BE COLLECTED AS EARLY AS 12 NOON.", "nsi_id": "unitedstatespostalservice-a77078", "operator": "United States Postal Service", "operator:short": "USPS", "operator:type": "public", "operator:wikidata": "Q668687", "ref": "2167700001"}, "type": "Feature"}
{"geometry": {"coordinates": [-76.178057072, 38.503599976], "type": "Point"}, "id": "GL_-y6kLYSQbtVhWCuT2JBp7rnA=", "properties": {"@source_uri": "https://tools.usps.com/UspsToolsRestServices/rest/POLocator/findLocations", "@spider": "usps_collection_boxes", "addr:city": "WOOLFORD", "addr:country": "US", "addr:postcode": "21677", "addr:state": "MD", "addr:street_address": "1614 TAYLORS ISLAND RD STE 1", "amenity": "post_box", "brand": "United States Postal Service", "brand:wikidata": "Q668687", "collection_times": "Mo-Fr 14:00; Sa 12:00", "indoor": "yes", "note": "ON 12/24 AND 12/31, THIS BOX MAY BE COLLECTED AS EARLY AS 12 NOON.", "nsi_id": "unitedstatespostalservice-a77078", "operator": "United States Postal Service", "operator:short": "USPS", "operator:type": "public", "operator:wikidata": "Q668687", "ref": "2167700003"}, "type": "Feature"}
{"geometry": {"coordinates": [-76.091934688, 39.274122469], "type": "Point"}, "id": "DXnIIY1F85uHrNOO6gOjwBOJenk=", "properties": {"@source_uri": "https://tools.usps.com/UspsToolsRestServices/rest/POLocator/findLocations", "@spider": "usps_collection_boxes", "addr:city": "WORTON", "addr:country": "US", "addr:postcode": "21678", "addr:state": "MD", "addr:street_address": "10802 WORTON RD", "amenity": "post_box", "brand": "United States Postal Service", "brand:wikidata": "Q668687", "collection_times": "Mo-Fr 16:00; Sa 11:00", "note": "ON 12/24 AND 12/31, THIS BOX MAY BE COLLECTED AS EARLY AS 12 NOON.", "nsi_id": "unitedstatespostalservice-a77078", "operator": "United States Postal Service", "operator:short": "USPS", "operator:type": "public", "operator:wikidata": "Q668687", "ref": "2167800000"}, "type": "Feature"}
{"geometry": {"coordinates": [-76.091934688, 39.274122469], "type": "Point"}, "id": "VNs_LGeuio5l6b3uQ3CjUs9k2iU=", "properties": {"@source_uri": "https://tools.usps.com/UspsToolsRestServices/rest/POLocator/findLocations", "@spider": "usps_collection_boxes", "addr:city": "WORTON", "addr:country": "US", "addr:postcode": "21678", "addr:state": "MD", "addr:street_address": "10802 WORTON RD", "amenity": "post_box", "brand": "United States Postal Service", "brand:wikidata": "Q668687", "collection_times": "Mo-Fr 16:15; Sa 11:00", "indoor": "yes", "note": "ON 12/24 AND 12/31, THIS BOX MAY BE COLLECTED AS EARLY AS 12 NOON.", "nsi_id": "unitedstatespostalservice-a77078", "operator": "United States Postal Service", "operator:short": "USPS", "operator:type": "public", "operator:wikidata": "Q668687", "ref": "2167800001"}, "type": "Feature"}
{"geometry": {"coordinates": [-76.091934688, 39.274122469], "type": "Point"}, "id": "w6qegRLgcOqL1MMBlMWivoSAPf8=", "properties": {"@source_uri": "https://tools.usps.com/UspsToolsRestServices/rest/POLocator/findLocations", "@spider": "usps_collection_boxes", "addr:city": "WORTON", "addr:country": "US", "addr:postcode": "21678", "addr:state": "MD", "addr:street_address": "10802 WORTON RD", "amenity": "post_box", "brand": "United States Postal Service", "brand:wikidata": "Q668687", "collection_times": "Mo-Fr 16:15; Sa 11:00", "indoor": "yes", "note": "ON 12/24 AND 12/31, THIS BOX MAY BE COLLECTED AS EARLY AS 12 NOON.", "nsi_id": "unitedstatespostalservice-a77078", "operator": "United States Postal Service", "operator:short": "USPS", "operator:type": "public", "operator:wikidata": "Q668687", "ref": "2167800002"}, "type": "Feature"}
{"geometry": {"coordinates": [-76.091934688, 39.274122469], "type": "Point"}, "id": "rr6IfkIX9yJWtGCb74ZBdKShrSs=", "properties": {"@source_uri": "https://tools.usps.com/UspsToolsRestServices/rest/POLocator/findLocations", "@spider": "usps_collection_boxes", "addr:city": "WORTON", "addr:country": "US", "addr:postcode": "21678", "addr:state": "MD", "addr:street_address": "10802 WORTON RD", "amenity": "post_box", "brand": "United States Postal Service", "brand:wikidata": "Q668687", "collection_times": "Mo-Fr 16:15; Sa 11:00", "indoor": "yes", "note": "ON 12/24 AND 12/31, THIS BOX MAY BE COLLECTED AS EARLY AS 12 NOON.", "nsi_id": "unitedstatespostalservice-a77078", "operator": "United States Postal Service", "operator:short": "USPS", "operator:type": "public", "operator:wikidata": "Q668687", "ref": "2167800004"}, "type": "Feature"}
{"geometry": {"coordinates": [-76.081013181, 38.941727123], "type": "Point"}, "id": "IyfBQYaQ3tvqjnvgF1Xflk1Q4bk=", "properties": {"@source_uri": "https://tools.usps.com/UspsToolsRestServices/rest/POLocator/findLocations", "@spider": "usps_collection_boxes", "addr:city": "WYE MILLS", "addr:country": "US", "addr:postcode": "21679", "addr:state": "MD", "addr:street_address": "14278 OLD WYE MILLS RD", "amenity": "post_box", "brand": "United States Postal Service", "brand:wikidata": "Q668687", "collection_times": "Mo-Fr 16:00; Sa 10:45", "note": "ON 12/24 AND 12/31, THIS BOX MAY BE COLLECTED AS EARLY AS 12 NOON.", "nsi_id": "unitedstatespostalservice-a77078", "operator": "United States Postal Service", "operator:short": "USPS", "operator:type": "public", "operator:wikidata": "Q668687", "ref": "2167900000"}, "type": "Feature"}
{"geometry": {"coordinates": [-76.081013181, 38.941727123], "type": "Point"}, "id": "fdjBl4kIGI_Wa4OTjnjWezRpluA=", "properties": {"@source_uri": "https://tools.usps.com/UspsToolsRestServices/rest/POLocator/findLocations", "@spider": "usps_collection_boxes", "addr:city": "WYE MILLS", "addr:country": "US", "addr:postcode": "21679", "addr:state": "MD", "addr:street_address": "14278 OLD WYE MILLS RD", "amenity": "post_box", "brand": "United States Postal Service", "brand:wikidata": "Q668687", "collection_times": "Mo-Fr 16:00; Sa 10:45", "indoor": "yes", "note": "ON 12/24 AND 12/31, THIS BOX MAY BE COLLECTED AS EARLY AS 12 NOON.", "nsi_id": "unitedstatespostalservice-a77078", "operator": "United States Postal Service", "operator:short": "USPS", "operator:type": "public", "operator:wikidata": "Q668687", "ref": "2167900001"}, "type": "Feature"}
{"geometry": {"coordinates": [-76.081013181, 38.941727123], "type": "Point"}, "id": "qyL8JXlziD6IOeNZjxA0RxHkrcA=", "properties": {"@source_uri": "https://tools.usps.com/UspsToolsRestServices/rest/POLocator/findLocations", "@spider": "usps_collection_boxes", "addr:city": "WYE MILLS", "addr:country": "US", "addr:postcode": "21679", "addr:state": "MD", "addr:street_address": "14278 OLD WYE MILLS RD", "amenity": "post_box", "brand": "United States Postal Service", "brand:wikidata": "Q668687", "collection_times": "Mo-Fr 16:00; Sa 10:45", "indoor": "yes", "note": "ON 12/24 AND 12/31, THIS BOX MAY BE COLLECTED AS EARLY AS 12 NOON.", "nsi_id": "unitedstatespostalservice-a77078", "operator": "United States Postal Service", "operator:short": "USPS", "operator:type": "public", "operator:wikidata": "Q668687", "ref": "2167900002"}, "type": "Feature"}
{"geometry": {"coordinates": [-76.081013181, 38.941727123], "type": "Point"}, "id": "T8GIPwtho12bty9jBuPF1yQ6zYg=", "properties": {"@source_uri": "https://tools.usps.com/UspsToolsRestServices/rest/POLocator/findLocations", "@spider": "usps_collection_boxes", "addr:city": "WYE MILLS", "addr:country": "US", "addr:postcode": "21679", "addr:state": "MD", "addr:street_address": "14278 OLD WYE MILLS RD", "amenity": "post_box", "brand": "United States Postal Service", "brand:wikidata": "Q668687", "collection_times": "Mo-Fr 16:15", "indoor": "yes", "note": "ON 12/24 AND 12/31, THIS BOX MAY BE COLLECTED AS EARLY AS 12 NOON.", "nsi_id": "unitedstatespostalservice-a77078", "operator": "United States Postal Service", "operator:short": "USPS", "operator:type": "public", "operator:wikidata": "Q668687", "ref": "2167900004"}, "type": "Feature"}
