{"geometry": {"coordinates": [-75.6214199, 38.367591], "type": "Point"}, "id": "Mq-Ij6D5z5W8tWjlzVA2-xziOFM=", "properties": {"@source_uri": "https://tools.usps.com/UspsToolsRestServices/rest/POLocator/findLocations", "@spider": "usps_collection_boxes", "addr:city": "SALISBURY", "addr:country": "US", "addr:full": "1214 NANTICOKE RD", "addr:postcode": "21801", "addr:state": "MD", "amenity": "post_box", "brand": "United States Postal Service", "brand:wikidata": "Q668687", "collection_times": "Mo-Sa 09:00", "nsi_id": "unitedstatespostalservice-a77078", "operator": "United States Postal Service", "operator:short": "USPS", "operator:type": "public", "operator:wikidata": "Q668687", "ref": "2180100009"}, "type": "Feature"}
{"geometry": {"coordinates": [-75.6139038, 38.330812], "type": "Point"}, "id": "XL37zmbGxMzY6qfRHAFRYi4ys7s=", "properties": {"@source_uri": "https://tools.usps.com/UspsToolsRestServices/rest/POLocator/findLocations", "@spider": "usps_collection_boxes", "addr:city": "SALISBURY", "addr:country": "US", "addr:full": "404 N FRUITLAND BLVD", "addr:postcode": "21801", "addr:state": "MD", "amenity": "post_box", "brand": "United States Postal Service", "brand:wikidata": "Q668687", "collection_times": "Mo-Sa 09:00", "nsi_id": "unitedstatespostalservice-a77078", "operator": "United States Postal Service", "operator:short": "USPS", "operator:type": "public", "operator:wikidata": "Q668687", "ref": "2180100014"}, "type": "Feature"}
{"geometry": {"coordinates": [-75.5998399, 38.354336], "type": "Point"}, "id": "TlZoguTxxVOgMbwamfhQkknGVCo=", "properties": {"@source_uri": "https://tools.usps.com/UspsToolsRestServices/rest/POLocator/findLocations", "@spider": "usps_collection_boxes", "addr:city": "SALISBURY", "addr:country": "US", "addr:full": "805 S SALISBURY BLVD", "addr:postcode": "21801", "addr:state": "MD", "amenity": "post_box", "brand": "United States Postal Service", "brand:wikidata": "Q668687", "collection_times": "Mo-Fr 13:00; Sa 13:15", "note": "ON 12/24 AND 12/31, THIS BOX MAY BE COLLECTED AS EARLY AS 12 NOON.", "nsi_id": "unitedstatespostalservice-a77078", "operator": "United States Postal Service", "operator:short": "USPS", "operator:type": "public", "operator:wikidata": "Q668687", "ref": "2180100022"}, "type": "Feature"}
{"geometry": {"coordinates": [-75.5657654, 38.399295], "type": "Point"}, "id": "0W2AensQDMDJnd4Ic0XnPgreB0I=", "properties": {"@source_uri": "https://tools.usps.com/UspsToolsRestServices/rest/POLocator/findLocations", "@spider": "usps_collection_boxes", "addr:city": "SALISBURY", "addr:country": "US", "addr:full": "2300 N SALISBURY BLVD", "addr:postcode": "21801", "addr:state": "MD", "amenity": "post_box", "brand": "United States Postal Service", "brand:wikidata": "Q668687", "collection_times": "Mo-Sa 09:00", "nsi_id": "unitedstatespostalservice-a77078", "operator": "United States Postal Service", "operator:short": "USPS", "operator:type": "public", "operator:wikidata": "Q668687", "ref": "2180100046"}, "type": "Feature"}
{"geometry": {"coordinates": [-75.5938405, 38.375508], "type": "Point"}, "id": "4-kkSQZbhlCSoYxsYns1IuFtTP8=", "properties": {"@source_uri": "https://tools.usps.com/UspsToolsRestServices/rest/POLocator/findLocations", "@spider": "usps_collection_boxes", "addr:city": "SALISBURY", "addr:country": "US", "addr:full": "922 N DIVISION ST", "addr:postcode": "21801", "addr:state": "MD", "amenity": "post_box", "brand": "United States Postal Service", "brand:wikidata": "Q668687", "collection_times": "Mo-Sa 10:00", "nsi_id": "unitedstatespostalservice-a77078", "operator": "United States Postal Service", "operator:short": "USPS", "operator:type": "public", "operator:wikidata": "Q668687", "ref": "2180100047"}, "type": "Feature"}
{"geometry": {"coordinates": [-75.6133168, 38.369758], "type": "Point"}, "id": "_J6ogicFYUrFhuvEQmNozV1PhKo=", "properties": {"@source_uri": "https://tools.usps.com/UspsToolsRestServices/rest/POLocator/findLocations", "@spider": "usps_collection_boxes", "addr:city": "SALISBURY", "addr:country": "US", "addr:full": "932 W ISABELLA ST", "addr:postcode": "21801", "addr:state": "MD", "amenity": "post_box", "brand": "United States Postal Service", "brand:wikidata": "Q668687", "collection_times": "Mo-Sa 09:00", "nsi_id": "unitedstatespostalservice-a77078", "operator": "United States Postal Service", "operator:short": "USPS", "operator:type": "public", "operator:wikidata": "Q668687", "ref": "2180100049"}, "type": "Feature"}
{"geometry": {"coordinates": [-75.6022286, 38.362563], "type": "Point"}, "id": "7C5H7bwZBnbKJQKRO9tb4N_AI9w=", "properties": {"@source_uri": "https://tools.usps.com/UspsToolsRestServices/rest/POLocator/findLocations", "@spider": "usps_collection_boxes", "addr:city": "SALISBURY", "addr:country": "US", "addr:full": "300 W CARROLL ST", "addr:postcode": "21801", "addr:state": "MD", "amenity": "post_box", "brand": "United States Postal Service", "brand:wikidata": "Q668687", "collection_times": "Mo-Sa 09:00", "nsi_id": "unitedstatespostalservice-a77078", "operator": "United States Postal Service", "operator:short": "USPS", "operator:type": "public", "operator:wikidata": "Q668687", "ref": "2180100053"}, "type": "Feature"}
{"geometry": {"coordinates": [-75.6097483, 38.358166], "type": "Point"}, "id": "HwI4WsPzpzadFyWUV99c6Sr-OkQ=", "properties": {"@source_uri": "https://tools.usps.com/UspsToolsRestServices/rest/POLocator/findLocations", "@spider": "usps_collection_boxes", "addr:city": "SALISBURY", "addr:country": "US", "addr:full": "714 RIVERSIDE DR", "addr:postcode": "21801", "addr:state": "MD", "amenity": "post_box", "brand": "United States Postal Service", "brand:wikidata": "Q668687", "collection_times": "Mo-Sa 09:00", "nsi_id": "unitedstatespostalservice-a77078", "operator": "United States Postal Service", "operator:short": "USPS", "operator:type": "public", "operator:wikidata": "Q668687", "ref": "2180100054"}, "type": "Feature"}
{"geometry": {"coordinates": [-75.6071391, 38.34739], "type": "Point"}, "id": "WrfrtDbbRk7a9w68T4rKA9eed5o=", "properties": {"@source_uri": "https://tools.usps.com/UspsToolsRestServices/rest/POLocator/findLocations", "@spider": "usps_collection_boxes", "addr:city": "SALISBURY", "addr:country": "US", "addr:full": "1101 CAMDEN AVE", "addr:postcode": "21801", "addr:state": "MD", "amenity": "post_box", "brand": "United States Postal Service", "brand:wikidata": "Q668687", "collection_times": "Mo-Sa 09:00", "nsi_id": "unitedstatespostalservice-a77078", "operator": "United States Postal Service", "operator:short": "USPS", "operator:type": "public", "operator:wikidata": "Q668687", "ref": "2180100062"}, "type": "Feature"}
{"geometry": {"coordinates": [-75.60175927, 38.364011256], "type": "Point"}, "id": "cIDYTIQy7_YOEpxox5Ilw_rNZR8=", "properties": {"@source_uri": "https://tools.usps.com/UspsToolsRestServices/rest/POLocator/findLocations", "@spider": "usps_collection_boxes", "addr:city": "SALISBURY", "addr:country": "US", "addr:full": "106 CIRCLE AVE", "addr:postcode": "21801", "addr:state": "MD", "amenity": "post_box", "brand": "United States Postal Service", "brand:wikidata": "Q668687", "collection_times": "Mo-Sa 09:00", "nsi_id": "unitedstatespostalservice-a77078", "operator": "United States Postal Service", "operator:short": "USPS", "operator:type": "public", "operator:wikidata": "Q668687", "ref": "2180100067"}, "type": "Feature"}
{"geometry": {"coordinates": [-75.6067488, 38.362171], "type": "Point"}, "id": "2fH3_zq1aki8gJDmwYBc8HxGrks=", "properties": {"@source_uri": "https://tools.usps.com/UspsToolsRestServices/rest/POLocator/findLocations", "@spider": "usps_collection_boxes", "addr:city": "SALISBURY", "addr:country": "US", "addr:full": "540 RIVERSIDE DR", "addr:postcode": "21801", "addr:state": "MD", "amenity": "post_box", "brand": "United States Postal Service", "brand:wikidata": "Q668687", "collection_times": "Mo-Sa 09:00", "nsi_id": "unitedstatespostalservice-a77078", "operator": "United States Postal Service", "operator:short": "USPS", "operator:type": "public", "operator:wikidata": "Q668687", "ref": "2180100081"}, "type": "Feature"}
{"geometry": {"coordinates": [-75.6013671, 38.354896], "type": "Point"}, "id": "ht-tdHlDEmGfi37D4jHJAgzRbrk=", "properties": {"@source_uri": "https://tools.usps.com/UspsToolsRestServices/rest/POLocator/findLocations", "@spider": "usps_collection_boxes", "addr:city": "SALISBURY", "addr:country": "US", "addr:full": "800 S SALISBURY BLVD", "addr:postcode": "21801", "addr:state": "MD", "amenity": "post_box", "brand": "United States Postal Service", "brand:wikidata": "Q668687", "collection_times": "Mo-Sa 09:00", "nsi_id": "unitedstatespostalservice-a77078", "operator": "United States Postal Service", "operator:short": "USPS", "operator:type": "public", "operator:wikidata": "Q668687", "ref": "2180100082"}, "type": "Feature"}
{"geometry": {"coordinates": [-75.5688599, 38.416542], "type": "Point"}, "id": "ywThMvmDV60wc-JjAE8EFmnR6LM=", "properties": {"@source_uri": "https://tools.usps.com/UspsToolsRestServices/rest/POLocator/findLocations", "@spider": "usps_collection_boxes", "addr:city": "SALISBURY", "addr:country": "US", "addr:full": "2702 N SALISBURY BLVD", "addr:postcode": "21801", "addr:state": "MD", "amenity": "post_box", "brand": "United States Postal Service", "brand:wikidata": "Q668687", "collection_times": "Sa 09:00", "nsi_id": "unitedstatespostalservice-a77078", "operator": "United States Postal Service", "operator:short": "USPS", "operator:type": "public", "operator:wikidata": "Q668687", "ref": "2180100083"}, "type": "Feature"}
{"geometry": {"coordinates": [-75.573983281, 38.397784345], "type": "Point"}, "id": "ze-rGyTh5MPLcU0a1KlqLtkni0k=", "properties": {"@source_uri": "https://tools.usps.com/UspsToolsRestServices/rest/POLocator/findLocations", "@spider": "usps_collection_boxes", "addr:city": "SALISBURY", "addr:country": "US", "addr:full": "2410 W ZION RD", "addr:postcode": "21801", "addr:state": "MD", "amenity": "post_box", "brand": "United States Postal Service", "brand:wikidata": "Q668687", "collection_times": "Mo-Sa 09:00", "nsi_id": "unitedstatespostalservice-a77078", "operator": "United States Postal Service", "operator:short": "USPS", "operator:type": "public", "operator:wikidata": "Q668687", "ref": "2180100086"}, "type": "Feature"}
{"geometry": {"coordinates": [-75.5825404, 38.39498], "type": "Point"}, "id": "8yMrc1xvWj2nxdPqT6aM1r_7tMg=", "properties": {"@source_uri": "https://tools.usps.com/UspsToolsRestServices/rest/POLocator/findLocations", "@spider": "usps_collection_boxes", "addr:city": "SALISBURY", "addr:country": "US", "addr:full": "2020 NORTHWOOD DR", "addr:postcode": "21801", "addr:state": "MD", "amenity": "post_box", "brand": "United States Postal Service", "brand:wikidata": "Q668687", "collection_times": "Mo-Sa 09:00", "nsi_id": "unitedstatespostalservice-a77078", "operator": "United States Postal Service", "operator:short": "USPS", "operator:type": "public", "operator:wikidata": "Q668687", "ref": "2180100089"}, "type": "Feature"}
{"geometry": {"coordinates": [-75.6072605, 38.341514], "type": "Point"}, "id": "LHE5NxN0v14SKg3xbdbPnFurhm8=", "properties": {"@source_uri": "https://tools.usps.com/UspsToolsRestServices/rest/POLocator/findLocations", "@spider": "usps_collection_boxes", "addr:city": "SALISBURY", "addr:country": "US", "addr:full": "1405 WESLEY DR", "addr:postcode": "21801", "addr:state": "MD", "amenity": "post_box", "brand": "United States Postal Service", "brand:wikidata": "Q668687", "collection_times": "Mo-Sa 09:00", "nsi_id": "unitedstatespostalservice-a77078", "operator": "United States Postal Service", "operator:short": "USPS", "operator:type": "public", "operator:wikidata": "Q668687", "ref": "2180100091"}, "type": "Feature"}
{"geometry": {"coordinates": [-75.5712999, 38.410664], "type": "Point"}, "id": "l_-mKC6A3_z3Dzy2SeZ8pqn1E5A=", "properties": {"@source_uri": "https://tools.usps.com/UspsToolsRestServices/rest/POLocator/findLocations", "@spider": "usps_collection_boxes", "addr:city": "SALISBURY", "addr:country": "US", "addr:full": "119 NAYLOR MILL RD", "addr:postcode": "21801", "addr:state": "MD", "amenity": "post_box", "brand": "United States Postal Service", "brand:wikidata": "Q668687", "collection_times": "Mo-Fr 09:00", "nsi_id": "unitedstatespostalservice-a77078", "operator": "United States Postal Service", "operator:short": "USPS", "operator:type": "public", "operator:wikidata": "Q668687", "ref": "2180100092"}, "type": "Feature"}
{"geometry": {"coordinates": [-75.5674615, 38.406588], "type": "Point"}, "id": "WxgdJHv5KHzwp0q444-R0qSnhtk=", "properties": {"@source_uri": "https://tools.usps.com/UspsToolsRestServices/rest/POLocator/findLocations", "@spider": "usps_collection_boxes", "addr:city": "SALISBURY", "addr:country": "US", "addr:full": "2505 N SALISBURY BLVD", "addr:postcode": "21801", "addr:state": "MD", "amenity": "post_box", "brand": "United States Postal Service", "brand:wikidata": "Q668687", "collection_times": "Mo-Fr 16:30; Sa 11:45", "note": "ON 12/24 AND 12/31, THIS BOX MAY BE COLLECTED AS EARLY AS 12 NOON.", "nsi_id": "unitedstatespostalservice-a77078", "operator": "United States Postal Service", "operator:short": "USPS", "operator:type": "public", "operator:wikidata": "Q668687", "ref": "2180100093"}, "type": "Feature"}
{"geometry": {"coordinates": [-75.6106299, 38.329853], "type": "Point"}, "id": "aGwc7AgXrCBrAN9jUmRLPuiBPVA=", "properties": {"@source_uri": "https://tools.usps.com/UspsToolsRestServices/rest/POLocator/findLocations", "@spider": "usps_collection_boxes", "addr:city": "SALISBURY", "addr:country": "US", "addr:full": "411 N FRUITLAND BLVD", "addr:postcode": "21801", "addr:state": "MD", "amenity": "post_box", "brand": "United States Postal Service", "brand:wikidata": "Q668687", "collection_times": "Mo-Sa 09:00", "nsi_id": "unitedstatespostalservice-a77078", "operator": "United States Postal Service", "operator:short": "USPS", "operator:type": "public", "operator:wikidata": "Q668687", "ref": "2180100095"}, "type": "Feature"}
{"geometry": {"coordinates": [-75.5930851, 38.372614], "type": "Point"}, "id": "mt7Ee0P7h_l1TCnDSHskObclAfM=", "properties": {"@source_uri": "https://tools.usps.com/UspsToolsRestServices/rest/POLocator/findLocations", "@spider": "usps_collection_boxes", "addr:city": "SALISBURY", "addr:country": "US", "addr:full": "801 N SALISBURY BLVD", "addr:postcode": "21801", "addr:state": "MD", "amenity": "post_box", "brand": "United States Postal Service", "brand:wikidata": "Q668687", "collection_times": "Mo-Sa 09:00", "nsi_id": "unitedstatespostalservice-a77078", "operator": "United States Postal Service", "operator:short": "USPS", "operator:type": "public", "operator:wikidata": "Q668687", "ref": "2180100096"}, "type": "Feature"}
{"geometry": {"coordinates": [-75.6004258, 38.337227], "type": "Point"}, "id": "Gd8rQlffiE51ggwN4jmise8hF4U=", "properties": {"@source_uri": "https://tools.usps.com/UspsToolsRestServices/rest/POLocator/findLocations", "@spider": "usps_collection_boxes", "addr:city": "SALISBURY", "addr:country": "US", "addr:full": "1346 S DIVISION ST", "addr:postcode": "21801", "addr:state": "MD", "amenity": "post_box", "brand": "United States Postal Service", "brand:wikidata": "Q668687", "collection_times": "Mo-Fr 14:30; Sa 13:00", "note": "ON 12/24 AND 12/31, THIS BOX MAY BE COLLECTED AS EARLY AS 12 NOON.", "nsi_id": "unitedstatespostalservice-a77078", "operator": "United States Postal Service", "operator:short": "USPS", "operator:type": "public", "operator:wikidata": "Q668687", "ref": "2180100099"}, "type": "Feature"}
{"geometry": {"coordinates": [-75.59994623, 38.365536457], "type": "Point"}, "id": "4N9saUHOV7yaY7bB-jw8_uGvbQA=", "properties": {"@source_uri": "https://tools.usps.com/UspsToolsRestServices/rest/POLocator/findLocations", "@spider": "usps_collection_boxes", "addr:city": "SALISBURY", "addr:country": "US", "addr:full": "129 E MAIN ST", "addr:postcode": "21801", "addr:state": "MD", "amenity": "post_box", "brand": "United States Postal Service", "brand:wikidata": "Q668687", "collection_times": "Mo-Fr 17:00; Sa 13:45", "indoor": "yes", "note": "ON 12/24 AND 12/31, THIS BOX MAY BE COLLECTED AS EARLY AS 12 NOON.", "nsi_id": "unitedstatespostalservice-a77078", "operator": "United States Postal Service", "operator:short": "USPS", "operator:type": "public", "operator:wikidata": "Q668687", "ref": "2180100100"}, "type": "Feature"}
{"geometry": {"coordinates": [-75.6189195, 38.367156], "type": "Point"}, "id": "0kEaISb2IEXLaUPgYJGfacl6e6M=", "properties": {"@source_uri": "https://tools.usps.com/UspsToolsRestServices/rest/POLocator/findLocations", "@spider": "usps_collection_boxes", "addr:city": "SALISBURY", "addr:country": "US", "addr:full": "1205 PEMBERTON DR", "addr:postcode": "21801", "addr:state": "MD", "amenity": "post_box", "brand": "United States Postal Service", "brand:wikidata": "Q668687", "collection_times": "Mo-Sa 09:00", "nsi_id": "unitedstatespostalservice-a77078", "operator": "United States Postal Service", "operator:short": "USPS", "operator:type": "public", "operator:wikidata": "Q668687", "ref": "2180100101"}, "type": "Feature"}
{"geometry": {"coordinates": [-75.5978281, 38.366283], "type": "Point"}, "id": "Oo6irjdhto2dknZCNm66ULDxdsQ=", "properties": {"@source_uri": "https://tools.usps.com/UspsToolsRestServices/rest/POLocator/findLocations", "@spider": "usps_collection_boxes", "addr:city": "SALISBURY", "addr:country": "US", "addr:full": "201 BAPTIST ST", "addr:postcode": "21801", "addr:state": "MD", "amenity": "post_box", "brand": "United States Postal Service", "brand:wikidata": "Q668687", "collection_times": "Mo-Fr 16:27; Sa 10:00", "note": "ON 12/24 AND 12/31, THIS BOX MAY BE COLLECTED AS EARLY AS 12 NOON.", "nsi_id": "unitedstatespostalservice-a77078", "operator": "United States Postal Service", "operator:short": "USPS", "operator:type": "public", "operator:wikidata": "Q668687", "ref": "2180100102"}, "type": "Feature"}
{"geometry": {"coordinates": [-75.595219717, 38.367501921], "type": "Point"}, "id": "O8OxKqKRSTB_1lcwIssBiB0lIn4=", "properties": {"@source_uri": "https://tools.usps.com/UspsToolsRestServices/rest/POLocator/findLocations", "@spider": "usps_collection_boxes", "addr:city": "SALISBURY", "addr:country": "US", "addr:full": "816 E SALISBURY PKWY", "addr:postcode": "21801", "addr:state": "MD", "amenity": "post_box", "brand": "United States Postal Service", "brand:wikidata": "Q668687", "collection_times": "Mo-Fr 17:00; Sa 13:30", "indoor": "yes", "note": "ON 12/24 AND 12/31, THIS BOX MAY BE COLLECTED AS EARLY AS 12 NOON.", "nsi_id": "unitedstatespostalservice-a77078", "operator": "United States Postal Service", "operator:short": "USPS", "operator:type": "public", "operator:wikidata": "Q668687", "ref": "2180100110"}, "type": "Feature"}
{"geometry": {"coordinates": [-75.59994623, 38.365536457], "type": "Point"}, "id": "bImhgeJIry35noE9uxPDb11lWdA=", "properties": {"@source_uri": "https://tools.usps.com/UspsToolsRestServices/rest/POLocator/findLocations", "@spider": "usps_collection_boxes", "addr:city": "SALISBURY", "addr:country": "US", "addr:full": "129 E MAIN ST", "addr:postcode": "21801", "addr:state": "MD", "amenity": "post_box", "brand": "United States Postal Service", "brand:wikidata": "Q668687", "collection_times": "Mo-Fr 15:30", "indoor": "yes", "note": "ON 12/24 AND 12/31, THIS BOX MAY BE COLLECTED AS EARLY AS 12 NOON.", "nsi_id": "unitedstatespostalservice-a77078", "operator": "United States Postal Service", "operator:short": "USPS", "operator:type": "public", "operator:wikidata": "Q668687", "ref": "2180100111"}, "type": "Feature"}
{"geometry": {"coordinates": [-75.567689527, 38.406409167], "type": "Point"}, "id": "RqEgbJVPb_MYpTnvejRx4YcWqlA=", "properties": {"@source_uri": "https://tools.usps.com/UspsToolsRestServices/rest/POLocator/findLocations", "@spider": "usps_collection_boxes", "addr:city": "SALISBURY", "addr:country": "US", "addr:full": "2505 N SALISBURY BLVD UNIT 1", "addr:postcode": "21801", "addr:state": "MD", "amenity": "post_box", "brand": "United States Postal Service", "brand:wikidata": "Q668687", "collection_times": "Mo-Fr 13:00", "indoor": "yes", "note": "ON 12/24 AND 12/31, THIS BOX MAY BE COLLECTED AS EARLY AS 12 NOON.", "nsi_id": "unitedstatespostalservice-a77078", "operator": "United States Postal Service", "operator:short": "USPS", "operator:type": "public", "operator:wikidata": "Q668687", "ref": "2180100112"}, "type": "Feature"}
{"geometry": {"coordinates": [-75.6008813, 38.338393], "type": "Point"}, "id": "z64O7mZxff39VCY9502-C-Swx5A=", "properties": {"@source_uri": "https://tools.usps.com/UspsToolsRestServices/rest/POLocator/findLocations", "@spider": "usps_collection_boxes", "addr:city": "SALISBURY", "addr:country": "US", "addr:full": "106 MILFORD ST", "addr:postcode": "21804", "addr:state": "MD", "amenity": "post_box", "brand": "United States Postal Service", "brand:wikidata": "Q668687", "collection_times": "Mo-Fr 14:30; Sa 13:00", "note": "ON 12/24 AND 12/31, THIS BOX MAY BE COLLECTED AS EARLY AS 12 NOON.", "nsi_id": "unitedstatespostalservice-a77078", "operator": "United States Postal Service", "operator:short": "USPS", "operator:type": "public", "operator:wikidata": "Q668687", "ref": "2180400014"}, "type": "Feature"}
{"geometry": {"coordinates": [-75.5796792, 38.368505], "type": "Point"}, "id": "cp5mZjB54wbAVfUU1nNhd9FpSKg=", "properties": {"@source_uri": "https://tools.usps.com/UspsToolsRestServices/rest/POLocator/findLocations", "@spider": "usps_collection_boxes", "addr:city": "SALISBURY", "addr:country": "US", "addr:full": "933 MOUNT HERMON RD", "addr:postcode": "21804", "addr:state": "MD", "amenity": "post_box", "brand": "United States Postal Service", "brand:wikidata": "Q668687", "collection_times": "Mo-Sa 10:15", "nsi_id": "unitedstatespostalservice-a77078", "operator": "United States Postal Service", "operator:short": "USPS", "operator:type": "public", "operator:wikidata": "Q668687", "ref": "2180400017"}, "type": "Feature"}
{"geometry": {"coordinates": [-75.5826111918, 38.3828252197], "type": "Point"}, "id": "CIoqBG8pRRHwpquf6TqbWn5vFrs=", "properties": {"@source_uri": "https://tools.usps.com/UspsToolsRestServices/rest/POLocator/findLocations", "@spider": "usps_collection_boxes", "addr:city": "SALISBURY", "addr:country": "US", "addr:full": "811 PRISCILLA ST", "addr:postcode": "21804", "addr:state": "MD", "amenity": "post_box", "brand": "United States Postal Service", "brand:wikidata": "Q668687", "collection_times": "Mo-Sa 09:00", "nsi_id": "unitedstatespostalservice-a77078", "operator": "United States Postal Service", "operator:short": "USPS", "operator:type": "public", "operator:wikidata": "Q668687", "ref": "2180400022"}, "type": "Feature"}
{"geometry": {"coordinates": [-75.5844657, 38.369673], "type": "Point"}, "id": "bOdh-P0R__X5uJGm-08nkjXecig=", "properties": {"@source_uri": "https://tools.usps.com/UspsToolsRestServices/rest/POLocator/findLocations", "@spider": "usps_collection_boxes", "addr:city": "SALISBURY", "addr:country": "US", "addr:full": "816 E SALISBURY PKWY", "addr:postcode": "21804", "addr:state": "MD", "amenity": "post_box", "brand": "United States Postal Service", "brand:wikidata": "Q668687", "collection_times": "Mo-Fr 17:00; Sa 14:00", "note": "ON 12/24 AND 12/31, THIS BOX MAY BE COLLECTED AS EARLY AS 12 NOON.", "nsi_id": "unitedstatespostalservice-a77078", "operator": "United States Postal Service", "operator:short": "USPS", "operator:type": "public", "operator:wikidata": "Q668687", "ref": "2180400026"}, "type": "Feature"}
{"geometry": {"coordinates": [-75.5856957, 38.368808], "type": "Point"}, "id": "tFw8Y0PVG-yBXxARiGuMFJNzVII=", "properties": {"@source_uri": "https://tools.usps.com/UspsToolsRestServices/rest/POLocator/findLocations", "@spider": "usps_collection_boxes", "addr:city": "SALISBURY", "addr:country": "US", "addr:full": "816 E SALISBURY PKWY", "addr:postcode": "21804", "addr:state": "MD", "amenity": "post_box", "brand": "United States Postal Service", "brand:wikidata": "Q668687", "collection_times": "Mo-Fr 17:00; Sa 14:00", "note": "ON 12/24 AND 12/31, THIS BOX MAY BE COLLECTED AS EARLY AS 12 NOON.", "nsi_id": "unitedstatespostalservice-a77078", "operator": "United States Postal Service", "operator:short": "USPS", "operator:type": "public", "operator:wikidata": "Q668687", "ref": "2180400029"}, "type": "Feature"}
{"geometry": {"coordinates": [-75.5458676, 38.36425], "type": "Point"}, "id": "nJUaPYwRIqaS8AUfaam4uE0zE4o=", "properties": {"@source_uri": "https://tools.usps.com/UspsToolsRestServices/rest/POLocator/findLocations", "@spider": "usps_collection_boxes", "addr:city": "SALISBURY", "addr:country": "US", "addr:full": "329 TILGHMAN RD", "addr:postcode": "21804", "addr:state": "MD", "amenity": "post_box", "brand": "United States Postal Service", "brand:wikidata": "Q668687", "collection_times": "Mo-Sa 10:00", "nsi_id": "unitedstatespostalservice-a77078", "operator": "United States Postal Service", "operator:short": "USPS", "operator:type": "public", "operator:wikidata": "Q668687", "ref": "2180400035"}, "type": "Feature"}
{"geometry": {"coordinates": [-75.5876166, 38.357176], "type": "Point"}, "id": "wcqjmkiSBwNvAdw9VFffLouzZ-Q=", "properties": {"@source_uri": "https://tools.usps.com/UspsToolsRestServices/rest/POLocator/findLocations", "@spider": "usps_collection_boxes", "addr:city": "SALISBURY", "addr:country": "US", "addr:full": "520 SNOW HILL RD", "addr:postcode": "21804", "addr:state": "MD", "amenity": "post_box", "brand": "United States Postal Service", "brand:wikidata": "Q668687", "collection_times": "Mo-Sa 09:00", "nsi_id": "unitedstatespostalservice-a77078", "operator": "United States Postal Service", "operator:short": "USPS", "operator:type": "public", "operator:wikidata": "Q668687", "ref": "2180400036"}, "type": "Feature"}
{"geometry": {"coordinates": [-75.5724496, 38.366691], "type": "Point"}, "id": "PlxFNxpKU0NLUyOPBPu3NFuErH4=", "properties": {"@source_uri": "https://tools.usps.com/UspsToolsRestServices/rest/POLocator/findLocations", "@spider": "usps_collection_boxes", "addr:city": "SALISBURY", "addr:country": "US", "addr:full": "315 CIVIC AVE", "addr:postcode": "21804", "addr:state": "MD", "amenity": "post_box", "brand": "United States Postal Service", "brand:wikidata": "Q668687", "collection_times": "Mo-Sa 10:15", "nsi_id": "unitedstatespostalservice-a77078", "operator": "United States Postal Service", "operator:short": "USPS", "operator:type": "public", "operator:wikidata": "Q668687", "ref": "2180400038"}, "type": "Feature"}
{"geometry": {"coordinates": [-75.5821405, 38.348208], "type": "Point"}, "id": "FWbngKdVsccjQuzhpDk3plm48Fs=", "properties": {"@source_uri": "https://tools.usps.com/UspsToolsRestServices/rest/POLocator/findLocations", "@spider": "usps_collection_boxes", "addr:city": "SALISBURY", "addr:country": "US", "addr:full": "835 SNOW HILL RD", "addr:postcode": "21804", "addr:state": "MD", "amenity": "post_box", "brand": "United States Postal Service", "brand:wikidata": "Q668687", "collection_times": "Mo-Sa 09:00", "nsi_id": "unitedstatespostalservice-a77078", "operator": "United States Postal Service", "operator:short": "USPS", "operator:type": "public", "operator:wikidata": "Q668687", "ref": "2180400042"}, "type": "Feature"}
{"geometry": {"coordinates": [-75.5654759, 38.366445], "type": "Point"}, "id": "qTVy_aSjdOK-dpB-PTPWWAYOaI4=", "properties": {"@source_uri": "https://tools.usps.com/UspsToolsRestServices/rest/POLocator/findLocations", "@spider": "usps_collection_boxes", "addr:city": "SALISBURY", "addr:country": "US", "addr:full": "1323 MOUNT HERMON RD", "addr:postcode": "21804", "addr:state": "MD", "amenity": "post_box", "brand": "United States Postal Service", "brand:wikidata": "Q668687", "collection_times": "Mo-Sa 10:15", "nsi_id": "unitedstatespostalservice-a77078", "operator": "United States Postal Service", "operator:short": "USPS", "operator:type": "public", "operator:wikidata": "Q668687", "ref": "2180400043"}, "type": "Feature"}
{"geometry": {"coordinates": [-75.5783217, 38.35054], "type": "Point"}, "id": "5RuVENNO6zF9N2yMLyfM-uHeWho=", "properties": {"@source_uri": "https://tools.usps.com/UspsToolsRestServices/rest/POLocator/findLocations", "@spider": "usps_collection_boxes", "addr:city": "SALISBURY", "addr:country": "US", "addr:full": "710 COLLEGE LN", "addr:postcode": "21804", "addr:state": "MD", "amenity": "post_box", "brand": "United States Postal Service", "brand:wikidata": "Q668687", "collection_times": "Mo-Sa 10:00", "nsi_id": "unitedstatespostalservice-a77078", "operator": "United States Postal Service", "operator:short": "USPS", "operator:type": "public", "operator:wikidata": "Q668687", "ref": "2180400046"}, "type": "Feature"}
{"geometry": {"coordinates": [-75.5503433, 38.367518], "type": "Point"}, "id": "Mb-3ArQ-C7grPbqlzSTEsEiBSRA=", "properties": {"@source_uri": "https://tools.usps.com/UspsToolsRestServices/rest/POLocator/findLocations", "@spider": "usps_collection_boxes", "addr:city": "SALISBURY", "addr:country": "US", "addr:full": "258 TILGHMAN RD", "addr:postcode": "21804", "addr:state": "MD", "amenity": "post_box", "brand": "United States Postal Service", "brand:wikidata": "Q668687", "collection_times": "Mo-Sa 09:00", "nsi_id": "unitedstatespostalservice-a77078", "operator": "United States Postal Service", "operator:short": "USPS", "operator:type": "public", "operator:wikidata": "Q668687", "ref": "2180400047"}, "type": "Feature"}
{"geometry": {"coordinates": [-75.5558947, 38.367231], "type": "Point"}, "id": "aEJ9pXuCt2lzWkbOMIbW0gwLAMw=", "properties": {"@source_uri": "https://tools.usps.com/UspsToolsRestServices/rest/POLocator/findLocations", "@spider": "usps_collection_boxes", "addr:city": "SALISBURY", "addr:country": "US", "addr:full": "224 PHILLIP MORRIS DR", "addr:postcode": "21804", "addr:state": "MD", "amenity": "post_box", "brand": "United States Postal Service", "brand:wikidata": "Q668687", "collection_times": "Mo-Sa 09:00", "nsi_id": "unitedstatespostalservice-a77078", "operator": "United States Postal Service", "operator:short": "USPS", "operator:type": "public", "operator:wikidata": "Q668687", "ref": "2180400048"}, "type": "Feature"}
{"geometry": {"coordinates": [-75.5847512, 38.369145], "type": "Point"}, "id": "Ymlva2EBkf_kPeQvLwAWS74g810=", "properties": {"@source_uri": "https://tools.usps.com/UspsToolsRestServices/rest/POLocator/findLocations", "@spider": "usps_collection_boxes", "addr:city": "SALISBURY", "addr:country": "US", "addr:full": "816 E SALISBURY PKWY", "addr:postcode": "21804", "addr:state": "MD", "amenity": "post_box", "brand": "United States Postal Service", "brand:wikidata": "Q668687", "collection_times": "Mo-Fr 17:15; Sa 14:00", "indoor": "yes", "note": "ON 12/24 AND 12/31, THIS BOX MAY BE COLLECTED AS EARLY AS 12 NOON.", "nsi_id": "unitedstatespostalservice-a77078", "operator": "United States Postal Service", "operator:short": "USPS", "operator:type": "public", "operator:wikidata": "Q668687", "ref": "2180400051"}, "type": "Feature"}
{"geometry": {"coordinates": [-75.5984168, 38.349055], "type": "Point"}, "id": "fM7oXhVyySjG3zykbvqEUXA7JcI=", "properties": {"@source_uri": "https://tools.usps.com/UspsToolsRestServices/rest/POLocator/findLocations", "@spider": "usps_collection_boxes", "addr:city": "SALISBURY", "addr:country": "US", "addr:full": "119 E COLLEGE AVE", "addr:postcode": "21804", "addr:state": "MD", "amenity": "post_box", "brand": "United States Postal Service", "brand:wikidata": "Q668687", "collection_times": "Mo-Fr 12:45; Sa 13:15", "note": "ON 12/24 AND 12/31, THIS BOX MAY BE COLLECTED AS EARLY AS 12 NOON.", "nsi_id": "unitedstatespostalservice-a77078", "operator": "United States Postal Service", "operator:short": "USPS", "operator:type": "public", "operator:wikidata": "Q668687", "ref": "2180400052"}, "type": "Feature"}
{"geometry": {"coordinates": [-75.5984742, 38.348666], "type": "Point"}, "id": "niWnILSojTp_0I3_pU6yQfTgQOY=", "properties": {"@source_uri": "https://tools.usps.com/UspsToolsRestServices/rest/POLocator/findLocations", "@spider": "usps_collection_boxes", "addr:city": "SALISBURY", "addr:country": "US", "addr:full": "119 E COLLEGE AVE", "addr:postcode": "21804", "addr:state": "MD", "amenity": "post_box", "brand": "United States Postal Service", "brand:wikidata": "Q668687", "collection_times": "Mo-Fr 16:30", "indoor": "yes", "note": "ON 12/24 AND 12/31, THIS BOX MAY BE COLLECTED AS EARLY AS 12 NOON.", "nsi_id": "unitedstatespostalservice-a77078", "operator": "United States Postal Service", "operator:short": "USPS", "operator:type": "public", "operator:wikidata": "Q668687", "ref": "2180400054"}, "type": "Feature"}
{"geometry": {"coordinates": [-75.5188133, 38.371804], "type": "Point"}, "id": "BzRp1HPg8gc-1dur8boK4uEL-6M=", "properties": {"@source_uri": "https://tools.usps.com/UspsToolsRestServices/rest/POLocator/findLocations", "@spider": "usps_collection_boxes", "addr:city": "SALISBURY", "addr:country": "US", "addr:full": "6508 DEER POINTE DR", "addr:postcode": "21804", "addr:state": "MD", "amenity": "post_box", "brand": "United States Postal Service", "brand:wikidata": "Q668687", "collection_times": "Mo-Fr 16:00; Sa 10:30", "note": "ON 12/24 AND 12/31, THIS BOX MAY BE COLLECTED AS EARLY AS 12 NOON.", "nsi_id": "unitedstatespostalservice-a77078", "operator": "United States Postal Service", "operator:short": "USPS", "operator:type": "public", "operator:wikidata": "Q668687", "ref": "2180400055"}, "type": "Feature"}
{"geometry": {"coordinates": [-75.5063922, 38.376447], "type": "Point"}, "id": "kwKg0KR4d7M2SyKZSbZzDr2SsXQ=", "properties": {"@source_uri": "https://tools.usps.com/UspsToolsRestServices/rest/POLocator/findLocations", "@spider": "usps_collection_boxes", "addr:city": "SALISBURY", "addr:country": "US", "addr:full": "31901 TRI COUNTY WAY", "addr:postcode": "21804", "addr:state": "MD", "amenity": "post_box", "brand": "United States Postal Service", "brand:wikidata": "Q668687", "collection_times": "Mo-Fr 16:00; Sa 10:30", "note": "ON 12/24 AND 12/31, THIS BOX MAY BE COLLECTED AS EARLY AS 12 NOON.", "nsi_id": "unitedstatespostalservice-a77078", "operator": "United States Postal Service", "operator:short": "USPS", "operator:type": "public", "operator:wikidata": "Q668687", "ref": "2180400056"}, "type": "Feature"}
{"geometry": {"coordinates": [-75.598747335, 38.348272275], "type": "Point"}, "id": "rgKJD8Quo2jmw1nqtegEQay-gto=", "properties": {"@source_uri": "https://tools.usps.com/UspsToolsRestServices/rest/POLocator/findLocations", "@spider": "usps_collection_boxes", "addr:city": "SALISBURY", "addr:country": "US", "addr:full": "119 W COLLEGE AVE STE 204", "addr:postcode": "21804", "addr:state": "MD", "amenity": "post_box", "brand": "United States Postal Service", "brand:wikidata": "Q668687", "collection_times": "Mo-Fr 16:30", "indoor": "yes", "note": "ON 12/24 AND 12/31, THIS BOX MAY BE COLLECTED AS EARLY AS 12 NOON.", "nsi_id": "unitedstatespostalservice-a77078", "operator": "United States Postal Service", "operator:short": "USPS", "operator:type": "public", "operator:wikidata": "Q668687", "ref": "2180400060"}, "type": "Feature"}
{"geometry": {"coordinates": [-75.688038819, 38.290660936], "type": "Point"}, "id": "IeoT8nhUSVNzyjQCM-7auxJBTiY=", "properties": {"@source_uri": "https://tools.usps.com/UspsToolsRestServices/rest/POLocator/findLocations", "@spider": "usps_collection_boxes", "addr:city": "ALLEN", "addr:country": "US", "addr:full": "3519 ALLEN RD", "addr:postcode": "21810", "addr:state": "MD", "amenity": "post_box", "brand": "United States Postal Service", "brand:wikidata": "Q668687", "collection_times": "Mo-Sa 11:45", "nsi_id": "unitedstatespostalservice-a77078", "operator": "United States Postal Service", "operator:short": "USPS", "operator:type": "public", "operator:wikidata": "Q668687", "ref": "2181000000"}, "type": "Feature"}
{"geometry": {"coordinates": [-75.688038819, 38.290660936], "type": "Point"}, "id": "CuEyM7PNEXMLPfw5rjI7ebPdfKo=", "properties": {"@source_uri": "https://tools.usps.com/UspsToolsRestServices/rest/POLocator/findLocations", "@spider": "usps_collection_boxes", "addr:city": "ALLEN", "addr:country": "US", "addr:full": "3519 ALLEN RD", "addr:postcode": "21810", "addr:state": "MD", "amenity": "post_box", "brand": "United States Postal Service", "brand:wikidata": "Q668687", "collection_times": "Mo-Sa 11:45", "indoor": "yes", "nsi_id": "unitedstatespostalservice-a77078", "operator": "United States Postal Service", "operator:short": "USPS", "operator:type": "public", "operator:wikidata": "Q668687", "ref": "2181000001"}, "type": "Feature"}
{"geometry": {"coordinates": [-75.688038819, 38.290660936], "type": "Point"}, "id": "JtSqRLLyxcTXteD4jim5BTgLwE0=", "properties": {"@source_uri": "https://tools.usps.com/UspsToolsRestServices/rest/POLocator/findLocations", "@spider": "usps_collection_boxes", "addr:city": "ALLEN", "addr:country": "US", "addr:full": "3519 ALLEN RD", "addr:postcode": "21810", "addr:state": "MD", "amenity": "post_box", "brand": "United States Postal Service", "brand:wikidata": "Q668687", "collection_times": "Mo-Sa 12:00", "indoor": "yes", "nsi_id": "unitedstatespostalservice-a77078", "operator": "United States Postal Service", "operator:short": "USPS", "operator:type": "public", "operator:wikidata": "Q668687", "ref": "2181000003"}, "type": "Feature"}
{"geometry": {"coordinates": [-75.1696089, 38.377858], "type": "Point"}, "id": "45wZt3Zbm4RanET4ubSFZLNaXZE=", "properties": {"@source_uri": "https://tools.usps.com/UspsToolsRestServices/rest/POLocator/findLocations", "@spider": "usps_collection_boxes", "addr:city": "BERLIN", "addr:country": "US", "addr:full": "11070 CATHELL RD", "addr:postcode": "21811", "addr:state": "MD", "amenity": "post_box", "brand": "United States Postal Service", "brand:wikidata": "Q668687", "collection_times": "Mo-Sa 10:00", "nsi_id": "unitedstatespostalservice-a77078", "operator": "United States Postal Service", "operator:short": "USPS", "operator:type": "public", "operator:wikidata": "Q668687", "ref": "2181100001"}, "type": "Feature"}
{"geometry": {"coordinates": [-75.1758726, 38.386045], "type": "Point"}, "id": "7qLinr8MfyUGiXGyOU8X9XF0SRA=", "properties": {"@source_uri": "https://tools.usps.com/UspsToolsRestServices/rest/POLocator/findLocations", "@spider": "usps_collection_boxes", "addr:city": "BERLIN", "addr:country": "US", "addr:full": "29 OCEAN PKWY", "addr:postcode": "21811", "addr:state": "MD", "amenity": "post_box", "brand": "United States Postal Service", "brand:wikidata": "Q668687", "collection_times": "Mo-Sa 10:00", "nsi_id": "unitedstatespostalservice-a77078", "operator": "United States Postal Service", "operator:short": "USPS", "operator:type": "public", "operator:wikidata": "Q668687", "ref": "2181100003"}, "type": "Feature"}
{"geometry": {"coordinates": [-75.1609987, 38.377449], "type": "Point"}, "id": "IMfiATaL6nB3ebScPwFIBWwlMbQ=", "properties": {"@source_uri": "https://tools.usps.com/UspsToolsRestServices/rest/POLocator/findLocations", "@spider": "usps_collection_boxes", "addr:city": "BERLIN", "addr:country": "US", "addr:full": "7 OCEAN PKWY", "addr:postcode": "21811", "addr:state": "MD", "amenity": "post_box", "brand": "United States Postal Service", "brand:wikidata": "Q668687", "collection_times": "Mo-Sa 10:00", "nsi_id": "unitedstatespostalservice-a77078", "operator": "United States Postal Service", "operator:short": "USPS", "operator:type": "public", "operator:wikidata": "Q668687", "ref": "2181100004"}, "type": "Feature"}
{"geometry": {"coordinates": [-75.1985721, 38.339867], "type": "Point"}, "id": "jEPaT5JvpLekZHg4Mx6z41ovBh0=", "properties": {"@source_uri": "https://tools.usps.com/UspsToolsRestServices/rest/POLocator/findLocations", "@spider": "usps_collection_boxes", "addr:city": "BERLIN", "addr:country": "US", "addr:full": "10452 OLD OCEAN CITY BLVD", "addr:postcode": "21811", "addr:state": "MD", "amenity": "post_box", "brand": "United States Postal Service", "brand:wikidata": "Q668687", "collection_times": "Mo-Sa 10:00", "nsi_id": "unitedstatespostalservice-a77078", "operator": "United States Postal Service", "operator:short": "USPS", "operator:type": "public", "operator:wikidata": "Q668687", "ref": "2181100006"}, "type": "Feature"}
{"geometry": {"coordinates": [-75.1596824, 38.398934], "type": "Point"}, "id": "32czYBGli6PrH0iG6r9WfUDuJ0I=", "properties": {"@source_uri": "https://tools.usps.com/UspsToolsRestServices/rest/POLocator/findLocations", "@spider": "usps_collection_boxes", "addr:city": "BERLIN", "addr:country": "US", "addr:full": "239 OCEAN PKWY", "addr:postcode": "21811", "addr:state": "MD", "amenity": "post_box", "brand": "United States Postal Service", "brand:wikidata": "Q668687", "collection_times": "Mo-Sa 10:00", "nsi_id": "unitedstatespostalservice-a77078", "operator": "United States Postal Service", "operator:short": "USPS", "operator:type": "public", "operator:wikidata": "Q668687", "ref": "2181100010"}, "type": "Feature"}
{"geometry": {"coordinates": [-75.2122255, 38.329788], "type": "Point"}, "id": "N_8jxWcg444wK9eLvoHUe7SBES4=", "properties": {"@source_uri": "https://tools.usps.com/UspsToolsRestServices/rest/POLocator/findLocations", "@spider": "usps_collection_boxes", "addr:city": "BERLIN", "addr:country": "US", "addr:full": "314 FRANKLIN AVE", "addr:postcode": "21811", "addr:state": "MD", "amenity": "post_box", "brand": "United States Postal Service", "brand:wikidata": "Q668687", "collection_times": "Mo-Sa 10:00", "nsi_id": "unitedstatespostalservice-a77078", "operator": "United States Postal Service", "operator:short": "USPS", "operator:type": "public", "operator:wikidata": "Q668687", "ref": "2181100013"}, "type": "Feature"}
{"geometry": {"coordinates": [-75.2116453, 38.33383], "type": "Point"}, "id": "dZLqp2WoJfNmNOmHA8p0WzhkU5Q=", "properties": {"@source_uri": "https://tools.usps.com/UspsToolsRestServices/rest/POLocator/findLocations", "@spider": "usps_collection_boxes", "addr:city": "BERLIN", "addr:country": "US", "addr:full": "10136 OLD OCEAN CITY BLVD", "addr:postcode": "21811", "addr:state": "MD", "amenity": "post_box", "brand": "United States Postal Service", "brand:wikidata": "Q668687", "collection_times": "Mo-Sa 09:00", "nsi_id": "unitedstatespostalservice-a77078", "operator": "United States Postal Service", "operator:short": "USPS", "operator:type": "public", "operator:wikidata": "Q668687", "ref": "2181100015"}, "type": "Feature"}
{"geometry": {"coordinates": [-75.220373654, 38.325199687], "type": "Point"}, "id": "A8cGayKU10BDy_BirpOpQC_DcyU=", "properties": {"@source_uri": "https://tools.usps.com/UspsToolsRestServices/rest/POLocator/findLocations", "@spider": "usps_collection_boxes", "addr:city": "BERLIN", "addr:country": "US", "addr:full": "20 BROAD ST", "addr:postcode": "21811", "addr:state": "MD", "amenity": "post_box", "brand": "United States Postal Service", "brand:wikidata": "Q668687", "collection_times": "Mo-Fr 16:30; Sa 12:00", "note": "ON 12/24 AND 12/31, THIS BOX MAY BE COLLECTED AS EARLY AS 12 NOON.", "nsi_id": "unitedstatespostalservice-a77078", "operator": "United States Postal Service", "operator:short": "USPS", "operator:type": "public", "operator:wikidata": "Q668687", "ref": "2181100016"}, "type": "Feature"}
{"geometry": {"coordinates": [-75.220373654, 38.325199687], "type": "Point"}, "id": "vzPsYilWBcalvsIrC91LFozzIRc=", "properties": {"@source_uri": "https://tools.usps.com/UspsToolsRestServices/rest/POLocator/findLocations", "@spider": "usps_collection_boxes", "addr:city": "BERLIN", "addr:country": "US", "addr:full": "20 BROAD ST", "addr:postcode": "21811", "addr:state": "MD", "amenity": "post_box", "brand": "United States Postal Service", "brand:wikidata": "Q668687", "collection_times": "Mo-Fr 16:30; Sa 12:00", "indoor": "yes", "note": "ON 12/24 AND 12/31, THIS BOX MAY BE COLLECTED AS EARLY AS 12 NOON.", "nsi_id": "unitedstatespostalservice-a77078", "operator": "United States Postal Service", "operator:short": "USPS", "operator:type": "public", "operator:wikidata": "Q668687", "ref": "2181100017"}, "type": "Feature"}
{"geometry": {"coordinates": [-75.1598642, 38.371893], "type": "Point"}, "id": "a8S-RrqT1c_MhM0yg3mmScbY_m8=", "properties": {"@source_uri": "https://tools.usps.com/UspsToolsRestServices/rest/POLocator/findLocations", "@spider": "usps_collection_boxes", "addr:city": "BERLIN", "addr:country": "US", "addr:full": "1 OCEAN PINES/SOUTH GATE", "addr:postcode": "21811", "addr:state": "MD", "amenity": "post_box", "brand": "United States Postal Service", "brand:wikidata": "Q668687", "collection_times": "Mo-Sa 10:00", "nsi_id": "unitedstatespostalservice-a77078", "operator": "United States Postal Service", "operator:short": "USPS", "operator:type": "public", "operator:wikidata": "Q668687", "ref": "2181100018"}, "type": "Feature"}
{"geometry": {"coordinates": [-75.167412126, 38.379829996], "type": "Point"}, "id": "KRREdcQ_-7Uv4ixdMHatPJZbjgk=", "properties": {"@source_uri": "https://tools.usps.com/UspsToolsRestServices/rest/POLocator/findLocations", "@spider": "usps_collection_boxes", "addr:city": "BERLIN", "addr:country": "US", "addr:full": "11115 LAKE VIEW LN", "addr:postcode": "21811", "addr:state": "MD", "amenity": "post_box", "brand": "United States Postal Service", "brand:wikidata": "Q668687", "collection_times": "Mo-Fr 17:00; Sa 15:00", "note": "ON 12/24 AND 12/31, THIS BOX MAY BE COLLECTED AS EARLY AS 12 NOON.", "nsi_id": "unitedstatespostalservice-a77078", "operator": "United States Postal Service", "operator:short": "USPS", "operator:type": "public", "operator:wikidata": "Q668687", "ref": "2181100019"}, "type": "Feature"}
{"geometry": {"coordinates": [-75.167412126, 38.379829996], "type": "Point"}, "id": "rhal4PIlH6yVnlr_Du4ykHmtzoI=", "properties": {"@source_uri": "https://tools.usps.com/UspsToolsRestServices/rest/POLocator/findLocations", "@spider": "usps_collection_boxes", "addr:city": "BERLIN", "addr:country": "US", "addr:full": "11115 LAKE VIEW LN", "addr:postcode": "21811", "addr:state": "MD", "amenity": "post_box", "brand": "United States Postal Service", "brand:wikidata": "Q668687", "collection_times": "Mo-Fr 17:00; Sa 15:00", "indoor": "yes", "note": "ON 12/24 AND 12/31, THIS BOX MAY BE COLLECTED AS EARLY AS 12 NOON.", "nsi_id": "unitedstatespostalservice-a77078", "operator": "United States Postal Service", "operator:short": "USPS", "operator:type": "public", "operator:wikidata": "Q668687", "ref": "2181100021"}, "type": "Feature"}
{"geometry": {"coordinates": [-75.167412126, 38.379829996], "type": "Point"}, "id": "RftW0XxNeo-LGC-iONtQrDfxEfo=", "properties": {"@source_uri": "https://tools.usps.com/UspsToolsRestServices/rest/POLocator/findLocations", "@spider": "usps_collection_boxes", "addr:city": "BERLIN", "addr:country": "US", "addr:full": "11115 LAKE VIEW LN", "addr:postcode": "21811", "addr:state": "MD", "amenity": "post_box", "brand": "United States Postal Service", "brand:wikidata": "Q668687", "collection_times": "Mo-Fr 17:00; Sa 15:00", "indoor": "yes", "note": "ON 12/24 AND 12/31, THIS BOX MAY BE COLLECTED AS EARLY AS 12 NOON.", "nsi_id": "unitedstatespostalservice-a77078", "operator": "United States Postal Service", "operator:short": "USPS", "operator:type": "public", "operator:wikidata": "Q668687", "ref": "2181100022"}, "type": "Feature"}
{"geometry": {"coordinates": [-75.167412126, 38.379829996], "type": "Point"}, "id": "FudOP2k4CCNRaDFXOmTNqPZ9j5U=", "properties": {"@source_uri": "https://tools.usps.com/UspsToolsRestServices/rest/POLocator/findLocations", "@spider": "usps_collection_boxes", "addr:city": "BERLIN", "addr:country": "US", "addr:full": "11115 LAKE VIEW LN", "addr:postcode": "21811", "addr:state": "MD", "amenity": "post_box", "brand": "United States Postal Service", "brand:wikidata": "Q668687", "collection_times": "Mo-Fr 17:00; Sa 12:00", "indoor": "yes", "note": "ON 12/24 AND 12/31, THIS BOX MAY BE COLLECTED AS EARLY AS 12 NOON.", "nsi_id": "unitedstatespostalservice-a77078", "operator": "United States Postal Service", "operator:short": "USPS", "operator:type": "public", "operator:wikidata": "Q668687", "ref": "2181100024"}, "type": "Feature"}
{"geometry": {"coordinates": [-75.220373654, 38.325199687], "type": "Point"}, "id": "fk-1TyY_skd3LDmIFMPoNEz62GA=", "properties": {"@source_uri": "https://tools.usps.com/UspsToolsRestServices/rest/POLocator/findLocations", "@spider": "usps_collection_boxes", "addr:city": "BERLIN", "addr:country": "US", "addr:full": "20 BROAD ST", "addr:postcode": "21811", "addr:state": "MD", "amenity": "post_box", "brand": "United States Postal Service", "brand:wikidata": "Q668687", "collection_times": "Mo-Fr 16:30; Sa 12:00", "indoor": "yes", "note": "ON 12/24 AND 12/31, THIS BOX MAY BE COLLECTED AS EARLY AS 12 NOON.", "nsi_id": "unitedstatespostalservice-a77078", "operator": "United States Postal Service", "operator:short": "USPS", "operator:type": "public", "operator:wikidata": "Q668687", "ref": "2181100025"}, "type": "Feature"}
{"geometry": {"coordinates": [-75.193543434, 38.443223505], "type": "Point"}, "id": "91s88HlIbBiu3NzhjUuarR7AF1w=", "properties": {"@source_uri": "https://tools.usps.com/UspsToolsRestServices/rest/POLocator/findLocations", "@spider": "usps_collection_boxes", "addr:city": "BISHOPVILLE", "addr:country": "US", "addr:full": "10656 BISHOPVILLE RD", "addr:postcode": "21813", "addr:state": "MD", "amenity": "post_box", "brand": "United States Postal Service", "brand:wikidata": "Q668687", "collection_times": "Mo-Fr 16:15; Sa 10:30", "note": "ON 12/24 AND 12/31, THIS BOX MAY BE COLLECTED AS EARLY AS 12 NOON.", "nsi_id": "unitedstatespostalservice-a77078", "operator": "United States Postal Service", "operator:short": "USPS", "operator:type": "public", "operator:wikidata": "Q668687", "ref": "2181300000"}, "type": "Feature"}
{"geometry": {"coordinates": [-75.193543434, 38.443223505], "type": "Point"}, "id": "5LsbZLODWRskYiTkXMmzLO3dRmY=", "properties": {"@source_uri": "https://tools.usps.com/UspsToolsRestServices/rest/POLocator/findLocations", "@spider": "usps_collection_boxes", "addr:city": "BISHOPVILLE", "addr:country": "US", "addr:full": "10656 BISHOPVILLE RD", "addr:postcode": "21813", "addr:state": "MD", "amenity": "post_box", "brand": "United States Postal Service", "brand:wikidata": "Q668687", "collection_times": "Mo-Fr 16:00; Sa 10:30", "indoor": "yes", "note": "ON 12/24 AND 12/31, THIS BOX MAY BE COLLECTED AS EARLY AS 12 NOON.", "nsi_id": "unitedstatespostalservice-a77078", "operator": "United States Postal Service", "operator:short": "USPS", "operator:type": "public", "operator:wikidata": "Q668687", "ref": "2181300001"}, "type": "Feature"}
{"geometry": {"coordinates": [-75.193543434, 38.443223505], "type": "Point"}, "id": "8QnpFflW06guUXy2iGxsoIErzTg=", "properties": {"@source_uri": "https://tools.usps.com/UspsToolsRestServices/rest/POLocator/findLocations", "@spider": "usps_collection_boxes", "addr:city": "BISHOPVILLE", "addr:country": "US", "addr:full": "10656 BISHOPVILLE RD", "addr:postcode": "21813", "addr:state": "MD", "amenity": "post_box", "brand": "United States Postal Service", "brand:wikidata": "Q668687", "collection_times": "Mo-Fr 16:00; Sa 10:30", "indoor": "yes", "note": "ON 12/24 AND 12/31, THIS BOX MAY BE COLLECTED AS EARLY AS 12 NOON.", "nsi_id": "unitedstatespostalservice-a77078", "operator": "United States Postal Service", "operator:short": "USPS", "operator:type": "public", "operator:wikidata": "Q668687", "ref": "2181300002"}, "type": "Feature"}
{"geometry": {"coordinates": [-75.193543434, 38.443223505], "type": "Point"}, "id": "kqy7Z4NY2gYYzGN4ccda3JcTJr8=", "properties": {"@source_uri": "https://tools.usps.com/UspsToolsRestServices/rest/POLocator/findLocations", "@spider": "usps_collection_boxes", "addr:city": "BISHOPVILLE", "addr:country": "US", "addr:full": "10656 BISHOPVILLE RD", "addr:postcode": "21813", "addr:state": "MD", "amenity": "post_box", "brand": "United States Postal Service", "brand:wikidata": "Q668687", "collection_times": "Mo-Fr 16:15; Sa 12:00", "indoor": "yes", "note": "ON 12/24 AND 12/31, THIS BOX MAY BE COLLECTED AS EARLY AS 12 NOON.", "nsi_id": "unitedstatespostalservice-a77078", "operator": "United States Postal Service", "operator:short": "USPS", "operator:type": "public", "operator:wikidata": "Q668687", "ref": "2181300004"}, "type": "Feature"}
{"geometry": {"coordinates": [-75.889461681, 38.306041449], "type": "Point"}, "id": "0BTPAI2Y7QKxX9HYMnNFKcuNLKY=", "properties": {"@source_uri": "https://tools.usps.com/UspsToolsRestServices/rest/POLocator/findLocations", "@spider": "usps_collection_boxes", "addr:city": "BIVALVE", "addr:country": "US", "addr:full": "20972 NANTICOKE RD", "addr:postcode": "21814", "addr:state": "MD", "amenity": "post_box", "brand": "United States Postal Service", "brand:wikidata": "Q668687", "collection_times": "Mo-Fr 16:00; Sa 10:30", "indoor": "yes", "note": "ON 12/24 AND 12/31, THIS BOX MAY BE COLLECTED AS EARLY AS 12 NOON.", "nsi_id": "unitedstatespostalservice-a77078", "operator": "United States Postal Service", "operator:short": "USPS", "operator:type": "public", "operator:wikidata": "Q668687", "ref": "2181400001"}, "type": "Feature"}
{"geometry": {"coordinates": [-75.889461681, 38.306041449], "type": "Point"}, "id": "ywxJwgm70hbTZv4S5zuILdxomT0=", "properties": {"@source_uri": "https://tools.usps.com/UspsToolsRestServices/rest/POLocator/findLocations", "@spider": "usps_collection_boxes", "addr:city": "BIVALVE", "addr:country": "US", "addr:full": "20972 NANTICOKE RD", "addr:postcode": "21814", "addr:state": "MD", "amenity": "post_box", "brand": "United States Postal Service", "brand:wikidata": "Q668687", "collection_times": "Mo-Fr 16:00; Sa 10:45", "indoor": "yes", "note": "ON 12/24 AND 12/31, THIS BOX MAY BE COLLECTED AS EARLY AS 12 NOON.", "nsi_id": "unitedstatespostalservice-a77078", "operator": "United States Postal Service", "operator:short": "USPS", "operator:type": "public", "operator:wikidata": "Q668687", "ref": "2181400004"}, "type": "Feature"}
{"geometry": {"coordinates": [-75.855001699, 37.981967468], "type": "Point"}, "id": "G86xfgX0BX18SnKljibVUMmKNjw=", "properties": {"@source_uri": "https://tools.usps.com/UspsToolsRestServices/rest/POLocator/findLocations", "@spider": "usps_collection_boxes", "addr:city": "CRISFIELD", "addr:country": "US", "addr:full": "400 W MAIN ST", "addr:postcode": "21817", "addr:state": "MD", "amenity": "post_box", "brand": "United States Postal Service", "brand:wikidata": "Q668687", "collection_times": "Mo-Fr 17:00; Sa 15:30", "note": "ON 12/24 AND 12/31, THIS BOX MAY BE COLLECTED AS EARLY AS 12 NOON.", "nsi_id": "unitedstatespostalservice-a77078", "operator": "United States Postal Service", "operator:short": "USPS", "operator:type": "public", "operator:wikidata": "Q668687", "ref": "2181700001"}, "type": "Feature"}
{"geometry": {"coordinates": [-75.8568264, 37.981311], "type": "Point"}, "id": "cD9Ze8lAvaae-70nJUrjGVI6LCE=", "properties": {"@source_uri": "https://tools.usps.com/UspsToolsRestServices/rest/POLocator/findLocations", "@spider": "usps_collection_boxes", "addr:city": "CRISFIELD", "addr:country": "US", "addr:full": "619 W MAIN ST", "addr:postcode": "21817", "addr:state": "MD", "amenity": "post_box", "brand": "United States Postal Service", "brand:wikidata": "Q668687", "collection_times": "Mo-Fr 10:00; Sa 10:02", "nsi_id": "unitedstatespostalservice-a77078", "operator": "United States Postal Service", "operator:short": "USPS", "operator:type": "public", "operator:wikidata": "Q668687", "ref": "2181700002"}, "type": "Feature"}
{"geometry": {"coordinates": [-75.8619858, 37.978724], "type": "Point"}, "id": "LVpSU_Vo-JrcWv55zKrBy_z9QaY=", "properties": {"@source_uri": "https://tools.usps.com/UspsToolsRestServices/rest/POLocator/findLocations", "@spider": "usps_collection_boxes", "addr:city": "CRISFIELD", "addr:country": "US", "addr:full": "952 W MAIN ST", "addr:postcode": "21817", "addr:state": "MD", "amenity": "post_box", "brand": "United States Postal Service", "brand:wikidata": "Q668687", "collection_times": "Mo-Sa 10:00", "nsi_id": "unitedstatespostalservice-a77078", "operator": "United States Postal Service", "operator:short": "USPS", "operator:type": "public", "operator:wikidata": "Q668687", "ref": "2181700003"}, "type": "Feature"}
{"geometry": {"coordinates": [-75.8447417, 37.981808], "type": "Point"}, "id": "_jxLkRqGoF0G9TpSYd5dagkBG3w=", "properties": {"@source_uri": "https://tools.usps.com/UspsToolsRestServices/rest/POLocator/findLocations", "@spider": "usps_collection_boxes", "addr:city": "CRISFIELD", "addr:country": "US", "addr:full": "2 N SOMERSET AVE", "addr:postcode": "21817", "addr:state": "MD", "amenity": "post_box", "brand": "United States Postal Service", "brand:wikidata": "Q668687", "collection_times": "Mo-Sa 10:00", "nsi_id": "unitedstatespostalservice-a77078", "operator": "United States Postal Service", "operator:short": "USPS", "operator:type": "public", "operator:wikidata": "Q668687", "ref": "2181700007"}, "type": "Feature"}
{"geometry": {"coordinates": [-75.8481311, 37.983196], "type": "Point"}, "id": "OKb7raRiJQmRjl-iEGfBR5I3FDI=", "properties": {"@source_uri": "https://tools.usps.com/UspsToolsRestServices/rest/POLocator/findLocations", "@spider": "usps_collection_boxes", "addr:city": "CRISFIELD", "addr:country": "US", "addr:full": "46 W CHESAPEAKE AVE", "addr:postcode": "21817", "addr:state": "MD", "amenity": "post_box", "brand": "United States Postal Service", "brand:wikidata": "Q668687", "collection_times": "Mo-Sa 10:00", "nsi_id": "unitedstatespostalservice-a77078", "operator": "United States Postal Service", "operator:short": "USPS", "operator:type": "public", "operator:wikidata": "Q668687", "ref": "2181700009"}, "type": "Feature"}
{"geometry": {"coordinates": [-75.8444388, 37.990866], "type": "Point"}, "id": "LBlWyCv3skvIFWc8vM3pmIanKcw=", "properties": {"@source_uri": "https://tools.usps.com/UspsToolsRestServices/rest/POLocator/findLocations", "@spider": "usps_collection_boxes", "addr:city": "CRISFIELD", "addr:country": "US", "addr:full": "12 MARYLAND AVE", "addr:postcode": "21817", "addr:state": "MD", "amenity": "post_box", "brand": "United States Postal Service", "brand:wikidata": "Q668687", "collection_times": "Mo-Sa 10:00", "nsi_id": "unitedstatespostalservice-a77078", "operator": "United States Postal Service", "operator:short": "USPS", "operator:type": "public", "operator:wikidata": "Q668687", "ref": "2181700010"}, "type": "Feature"}
{"geometry": {"coordinates": [-75.8482084, 37.987919], "type": "Point"}, "id": "1HpDiDEGXj8kT22y8loSSEoXsE8=", "properties": {"@source_uri": "https://tools.usps.com/UspsToolsRestServices/rest/POLocator/findLocations", "@spider": "usps_collection_boxes", "addr:city": "CRISFIELD", "addr:country": "US", "addr:full": "101 POTOMAC ST", "addr:postcode": "21817", "addr:state": "MD", "amenity": "post_box", "brand": "United States Postal Service", "brand:wikidata": "Q668687", "collection_times": "Mo-Sa 10:00", "nsi_id": "unitedstatespostalservice-a77078", "operator": "United States Postal Service", "operator:short": "USPS", "operator:type": "public", "operator:wikidata": "Q668687", "ref": "2181700011"}, "type": "Feature"}
{"geometry": {"coordinates": [-75.855001699, 37.981967468], "type": "Point"}, "id": "JSIAqGRiRWpM9NCIBJg8YfN0574=", "properties": {"@source_uri": "https://tools.usps.com/UspsToolsRestServices/rest/POLocator/findLocations", "@spider": "usps_collection_boxes", "addr:city": "CRISFIELD", "addr:country": "US", "addr:full": "400 W MAIN ST", "addr:postcode": "21817", "addr:state": "MD", "amenity": "post_box", "brand": "United States Postal Service", "brand:wikidata": "Q668687", "collection_times": "Mo-Fr 16:45; Sa 15:30", "indoor": "yes", "note": "ON 12/24 AND 12/31, THIS BOX MAY BE COLLECTED AS EARLY AS 12 NOON.", "nsi_id": "unitedstatespostalservice-a77078", "operator": "United States Postal Service", "operator:short": "USPS", "operator:type": "public", "operator:wikidata": "Q668687", "ref": "2181700012"}, "type": "Feature"}
{"geometry": {"coordinates": [-75.855001699, 37.981967468], "type": "Point"}, "id": "-Z_rIRwsg68_6Ll6C-JnlYE7zEE=", "properties": {"@source_uri": "https://tools.usps.com/UspsToolsRestServices/rest/POLocator/findLocations", "@spider": "usps_collection_boxes", "addr:city": "CRISFIELD", "addr:country": "US", "addr:full": "400 W MAIN ST", "addr:postcode": "21817", "addr:state": "MD", "amenity": "post_box", "brand": "United States Postal Service", "brand:wikidata": "Q668687", "collection_times": "Mo-Fr 16:45; Sa 12:00", "indoor": "yes", "note": "ON 12/24 AND 12/31, THIS BOX MAY BE COLLECTED AS EARLY AS 12 NOON.", "nsi_id": "unitedstatespostalservice-a77078", "operator": "United States Postal Service", "operator:short": "USPS", "operator:type": "public", "operator:wikidata": "Q668687", "ref": "2181700016"}, "type": "Feature"}
{"geometry": {"coordinates": [-75.948620159, 38.159128636], "type": "Point"}, "id": "v_Mt0MGZZBEQzBK21goGGWRa-V8=", "properties": {"@source_uri": "https://tools.usps.com/UspsToolsRestServices/rest/POLocator/findLocations", "@spider": "usps_collection_boxes", "addr:city": "DEAL ISLAND", "addr:country": "US", "addr:full": "10051 DEAL ISLAND RD", "addr:postcode": "21821", "addr:state": "MD", "amenity": "post_box", "brand": "United States Postal Service", "brand:wikidata": "Q668687", "collection_times": "Mo-Fr 15:45; Sa 10:45", "note": "ON 12/24 AND 12/31, THIS BOX MAY BE COLLECTED AS EARLY AS 12 NOON.", "nsi_id": "unitedstatespostalservice-a77078", "operator": "United States Postal Service", "operator:short": "USPS", "operator:type": "public", "operator:wikidata": "Q668687", "ref": "2182100000"}, "type": "Feature"}
{"geometry": {"coordinates": [-75.948620159, 38.159128636], "type": "Point"}, "id": "K0VAedMOR4qKCyBLF2xMRhrPL0s=", "properties": {"@source_uri": "https://tools.usps.com/UspsToolsRestServices/rest/POLocator/findLocations", "@spider": "usps_collection_boxes", "addr:city": "DEAL ISLAND", "addr:country": "US", "addr:full": "10051 DEAL ISLAND RD", "addr:postcode": "21821", "addr:state": "MD", "amenity": "post_box", "brand": "United States Postal Service", "brand:wikidata": "Q668687", "collection_times": "Mo-Fr 15:45; Sa 10:45", "indoor": "yes", "note": "ON 12/24 AND 12/31, THIS BOX MAY BE COLLECTED AS EARLY AS 12 NOON.", "nsi_id": "unitedstatespostalservice-a77078", "operator": "United States Postal Service", "operator:short": "USPS", "operator:type": "public", "operator:wikidata": "Q668687", "ref": "2182100001"}, "type": "Feature"}
{"geometry": {"coordinates": [-75.948620159, 38.159128636], "type": "Point"}, "id": "3IE7aW-_006fIdsFHKXVeg4DA2I=", "properties": {"@source_uri": "https://tools.usps.com/UspsToolsRestServices/rest/POLocator/findLocations", "@spider": "usps_collection_boxes", "addr:city": "DEAL ISLAND", "addr:country": "US", "addr:full": "10051 DEAL ISLAND RD", "addr:postcode": "21821", "addr:state": "MD", "amenity": "post_box", "brand": "United States Postal Service", "brand:wikidata": "Q668687", "collection_times": "Mo-Fr 15:30; Sa 11:00", "indoor": "yes", "note": "ON 12/24 AND 12/31, THIS BOX MAY BE COLLECTED AS EARLY AS 12 NOON.", "nsi_id": "unitedstatespostalservice-a77078", "operator": "United States Postal Service", "operator:short": "USPS", "operator:type": "public", "operator:wikidata": "Q668687", "ref": "2182100003"}, "type": "Feature"}
{"geometry": {"coordinates": [-75.652283881, 38.280430691], "type": "Point"}, "id": "oTViRQ-TIllYzLx5ujUkxJuYgYY=", "properties": {"@source_uri": "https://tools.usps.com/UspsToolsRestServices/rest/POLocator/findLocations", "@spider": "usps_collection_boxes", "addr:city": "EDEN", "addr:country": "US", "addr:full": "31676 EDEN ALLEN RD", "addr:postcode": "21822", "addr:state": "MD", "amenity": "post_box", "brand": "United States Postal Service", "brand:wikidata": "Q668687", "collection_times": "Mo-Fr 16:45; Sa 11:00", "note": "ON 12/24 AND 12/31, THIS BOX MAY BE COLLECTED AS EARLY AS 12 NOON.", "nsi_id": "unitedstatespostalservice-a77078", "operator": "United States Postal Service", "operator:short": "USPS", "operator:type": "public", "operator:wikidata": "Q668687", "ref": "2182200000"}, "type": "Feature"}
{"geometry": {"coordinates": [-75.652283881, 38.280430691], "type": "Point"}, "id": "AAm0_u-BEI343HLg0XHH0Wx-cJg=", "properties": {"@source_uri": "https://tools.usps.com/UspsToolsRestServices/rest/POLocator/findLocations", "@spider": "usps_collection_boxes", "addr:city": "EDEN", "addr:country": "US", "addr:full": "31676 EDEN ALLEN RD", "addr:postcode": "21822", "addr:state": "MD", "amenity": "post_box", "brand": "United States Postal Service", "brand:wikidata": "Q668687", "collection_times": "Mo-Fr 16:45; Sa 11:00", "indoor": "yes", "note": "ON 12/24 AND 12/31, THIS BOX MAY BE COLLECTED AS EARLY AS 12 NOON.", "nsi_id": "unitedstatespostalservice-a77078", "operator": "United States Postal Service", "operator:short": "USPS", "operator:type": "public", "operator:wikidata": "Q668687", "ref": "2182200001"}, "type": "Feature"}
{"geometry": {"coordinates": [-75.652283881, 38.280430691], "type": "Point"}, "id": "e52M-r5qNXZBEhPytkrtqeGC-Oo=", "properties": {"@source_uri": "https://tools.usps.com/UspsToolsRestServices/rest/POLocator/findLocations", "@spider": "usps_collection_boxes", "addr:city": "EDEN", "addr:country": "US", "addr:full": "31676 EDEN ALLEN RD", "addr:postcode": "21822", "addr:state": "MD", "amenity": "post_box", "brand": "United States Postal Service", "brand:wikidata": "Q668687", "collection_times": "Mo-Fr 16:45; Sa 11:00", "indoor": "yes", "note": "ON 12/24 AND 12/31, THIS BOX MAY BE COLLECTED AS EARLY AS 12 NOON.", "nsi_id": "unitedstatespostalservice-a77078", "operator": "United States Postal Service", "operator:short": "USPS", "operator:type": "public", "operator:wikidata": "Q668687", "ref": "2182200002"}, "type": "Feature"}
{"geometry": {"coordinates": [-75.652283881, 38.280430691], "type": "Point"}, "id": "FLZvmPhEUq5KfTYUSqCbAGr3c-k=", "properties": {"@source_uri": "https://tools.usps.com/UspsToolsRestServices/rest/POLocator/findLocations", "@spider": "usps_collection_boxes", "addr:city": "EDEN", "addr:country": "US", "addr:full": "31676 EDEN ALLEN RD", "addr:postcode": "21822", "addr:state": "MD", "amenity": "post_box", "brand": "United States Postal Service", "brand:wikidata": "Q668687", "collection_times": "Mo-Fr 17:00; Sa 12:00", "indoor": "yes", "note": "ON 12/24 AND 12/31, THIS BOX MAY BE COLLECTED AS EARLY AS 12 NOON.", "nsi_id": "unitedstatespostalservice-a77078", "operator": "United States Postal Service", "operator:short": "USPS", "operator:type": "public", "operator:wikidata": "Q668687", "ref": "2182200004"}, "type": "Feature"}
{"geometry": {"coordinates": [-76.030900569, 37.99455145], "type": "Point"}, "id": "QdLuPC1ypH5ZGS06Tn4x3LhDm5s=", "properties": {"@source_uri": "https://tools.usps.com/UspsToolsRestServices/rest/POLocator/findLocations", "@spider": "usps_collection_boxes", "addr:city": "EWELL", "addr:country": "US", "addr:full": "20925 CALEB JONES RD", "addr:postcode": "21824", "addr:state": "MD", "amenity": "post_box", "brand": "United States Postal Service", "brand:wikidata": "Q668687", "collection_times": "Mo-Sa 07:00", "nsi_id": "unitedstatespostalservice-a77078", "operator": "United States Postal Service", "operator:short": "USPS", "operator:type": "public", "operator:wikidata": "Q668687", "ref": "2182400000"}, "type": "Feature"}
{"geometry": {"coordinates": [-76.030900569, 37.99455145], "type": "Point"}, "id": "B0tT_T9tLN_TnpURhGrW9dvjsiY=", "properties": {"@source_uri": "https://tools.usps.com/UspsToolsRestServices/rest/POLocator/findLocations", "@spider": "usps_collection_boxes", "addr:city": "EWELL", "addr:country": "US", "addr:full": "20925 CALEB JONES RD", "addr:postcode": "21824", "addr:state": "MD", "amenity": "post_box", "brand": "United States Postal Service", "brand:wikidata": "Q668687", "collection_times": "Mo-Sa 07:00", "indoor": "yes", "nsi_id": "unitedstatespostalservice-a77078", "operator": "United States Postal Service", "operator:short": "USPS", "operator:type": "public", "operator:wikidata": "Q668687", "ref": "2182400001"}, "type": "Feature"}
{"geometry": {"coordinates": [-76.030900569, 37.99455145], "type": "Point"}, "id": "uAB80JMmhzAEp4JkffRtsizHGlY=", "properties": {"@source_uri": "https://tools.usps.com/UspsToolsRestServices/rest/POLocator/findLocations", "@spider": "usps_collection_boxes", "addr:city": "EWELL", "addr:country": "US", "addr:full": "20925 CALEB JONES RD", "addr:postcode": "21824", "addr:state": "MD", "amenity": "post_box", "brand": "United States Postal Service", "brand:wikidata": "Q668687", "collection_times": "Mo-Fr 16:00; Sa 15:00", "indoor": "yes", "note": "ON 12/24 AND 12/31, THIS BOX MAY BE COLLECTED AS EARLY AS 12 NOON.", "nsi_id": "unitedstatespostalservice-a77078", "operator": "United States Postal Service", "operator:short": "USPS", "operator:type": "public", "operator:wikidata": "Q668687", "ref": "2182400003"}, "type": "Feature"}
{"geometry": {"coordinates": [-75.619016, 38.3228757], "type": "Point"}, "id": "Eo-mkq1Nq-Ed8PoIrs0QS8EY9eQ=", "properties": {"@source_uri": "https://tools.usps.com/UspsToolsRestServices/rest/POLocator/findLocations", "@spider": "usps_collection_boxes", "addr:city": "FRUITLAND", "addr:country": "US", "addr:full": "103 N DULANY AVE", "addr:postcode": "21826", "addr:state": "MD", "amenity": "post_box", "brand": "United States Postal Service", "brand:wikidata": "Q668687", "collection_times": "Mo-Fr 17:15; Sa 12:15", "note": "ON 12/24 AND 12/31, THIS BOX MAY BE COLLECTED AS EARLY AS 12 NOON.", "nsi_id": "unitedstatespostalservice-a77078", "operator": "United States Postal Service", "operator:short": "USPS", "operator:type": "public", "operator:wikidata": "Q668687", "ref": "2182600000"}, "type": "Feature"}
{"geometry": {"coordinates": [-75.618624669, 38.320628185], "type": "Point"}, "id": "K5-FWjHtVcN7_ciKsnhFJMMeXDE=", "properties": {"@source_uri": "https://tools.usps.com/UspsToolsRestServices/rest/POLocator/findLocations", "@spider": "usps_collection_boxes", "addr:city": "FRUITLAND", "addr:country": "US", "addr:full": "201 E MAIN ST", "addr:postcode": "21826", "addr:state": "MD", "amenity": "post_box", "brand": "United States Postal Service", "brand:wikidata": "Q668687", "collection_times": "Mo-Fr 17:15; Sa 12:15", "indoor": "yes", "note": "ON 12/24 AND 12/31, THIS BOX MAY BE COLLECTED AS EARLY AS 12 NOON.", "nsi_id": "unitedstatespostalservice-a77078", "operator": "United States Postal Service", "operator:short": "USPS", "operator:type": "public", "operator:wikidata": "Q668687", "ref": "2182600002"}, "type": "Feature"}
{"geometry": {"coordinates": [-75.618624669, 38.320628185], "type": "Point"}, "id": "p5kIS9-VCP1iOlScoSJg-hUB22Y=", "properties": {"@source_uri": "https://tools.usps.com/UspsToolsRestServices/rest/POLocator/findLocations", "@spider": "usps_collection_boxes", "addr:city": "FRUITLAND", "addr:country": "US", "addr:full": "201 E MAIN ST", "addr:postcode": "21826", "addr:state": "MD", "amenity": "post_box", "brand": "United States Postal Service", "brand:wikidata": "Q668687", "collection_times": "Mo-Fr 17:15; Sa 12:15", "indoor": "yes", "note": "ON 12/24 AND 12/31, THIS BOX MAY BE COLLECTED AS EARLY AS 12 NOON.", "nsi_id": "unitedstatespostalservice-a77078", "operator": "United States Postal Service", "operator:short": "USPS", "operator:type": "public", "operator:wikidata": "Q668687", "ref": "2182600003"}, "type": "Feature"}
{"geometry": {"coordinates": [-75.618624669, 38.320628185], "type": "Point"}, "id": "fqDTKGexgVygW8ur6FHMu9nAVNk=", "properties": {"@source_uri": "https://tools.usps.com/UspsToolsRestServices/rest/POLocator/findLocations", "@spider": "usps_collection_boxes", "addr:city": "FRUITLAND", "addr:country": "US", "addr:full": "201 E MAIN ST", "addr:postcode": "21826", "addr:state": "MD", "amenity": "post_box", "brand": "United States Postal Service", "brand:wikidata": "Q668687", "collection_times": "Mo-Fr 17:00; Sa 12:00", "indoor": "yes", "note": "ON 12/24 AND 12/31, THIS BOX MAY BE COLLECTED AS EARLY AS 12 NOON.", "nsi_id": "unitedstatespostalservice-a77078", "operator": "United States Postal Service", "operator:short": "USPS", "operator:type": "public", "operator:wikidata": "Q668687", "ref": "2182600005"}, "type": "Feature"}
{"geometry": {"coordinates": [-75.397635594, 38.093400922], "type": "Point"}, "id": "00z0Vl0tAvop7coHFxHvAPv24f0=", "properties": {"@source_uri": "https://tools.usps.com/UspsToolsRestServices/rest/POLocator/findLocations", "@spider": "usps_collection_boxes", "addr:city": "GIRDLETREE", "addr:country": "US", "addr:full": "2744 SNOW HILL RD", "addr:postcode": "21829", "addr:state": "MD", "amenity": "post_box", "brand": "United States Postal Service", "brand:wikidata": "Q668687", "collection_times": "Mo-Fr 16:30; Sa 11:45", "note": "ON 12/24 AND 12/31, THIS BOX MAY BE COLLECTED AS EARLY AS 12 NOON.", "nsi_id": "unitedstatespostalservice-a77078", "operator": "United States Postal Service", "operator:short": "USPS", "operator:type": "public", "operator:wikidata": "Q668687", "ref": "2182900000"}, "type": "Feature"}
{"geometry": {"coordinates": [-75.397635594, 38.093400922], "type": "Point"}, "id": "2P4IIvImILqQBKe3LfiRI1z5i8k=", "properties": {"@source_uri": "https://tools.usps.com/UspsToolsRestServices/rest/POLocator/findLocations", "@spider": "usps_collection_boxes", "addr:city": "GIRDLETREE", "addr:country": "US", "addr:full": "2744 SNOW HILL RD", "addr:postcode": "21829", "addr:state": "MD", "amenity": "post_box", "brand": "United States Postal Service", "brand:wikidata": "Q668687", "collection_times": "Mo-Fr 13:30; Sa 11:45", "indoor": "yes", "note": "ON 12/24 AND 12/31, THIS BOX MAY BE COLLECTED AS EARLY AS 12 NOON.", "nsi_id": "unitedstatespostalservice-a77078", "operator": "United States Postal Service", "operator:short": "USPS", "operator:type": "public", "operator:wikidata": "Q668687", "ref": "2182900001"}, "type": "Feature"}
{"geometry": {"coordinates": [-75.397635594, 38.093400922], "type": "Point"}, "id": "LjqYUjjHKIc-Am-rwuizJC8gnWE=", "properties": {"@source_uri": "https://tools.usps.com/UspsToolsRestServices/rest/POLocator/findLocations", "@spider": "usps_collection_boxes", "addr:city": "GIRDLETREE", "addr:country": "US", "addr:full": "2744 SNOW HILL RD", "addr:postcode": "21829", "addr:state": "MD", "amenity": "post_box", "brand": "United States Postal Service", "brand:wikidata": "Q668687", "collection_times": "Mo-Fr 13:30; Sa 11:45", "indoor": "yes", "note": "ON 12/24 AND 12/31, THIS BOX MAY BE COLLECTED AS EARLY AS 12 NOON.", "nsi_id": "unitedstatespostalservice-a77078", "operator": "United States Postal Service", "operator:short": "USPS", "operator:type": "public", "operator:wikidata": "Q668687", "ref": "2182900002"}, "type": "Feature"}
{"geometry": {"coordinates": [-75.397635594, 38.093400922], "type": "Point"}, "id": "kXnoqoO5v-m6FneThqFsU6130Tw=", "properties": {"@source_uri": "https://tools.usps.com/UspsToolsRestServices/rest/POLocator/findLocations", "@spider": "usps_collection_boxes", "addr:city": "GIRDLETREE", "addr:country": "US", "addr:full": "2744 SNOW HILL RD", "addr:postcode": "21829", "addr:state": "MD", "amenity": "post_box", "brand": "United States Postal Service", "brand:wikidata": "Q668687", "collection_times": "Mo-Fr 13:30; Sa 12:00", "indoor": "yes", "note": "ON 12/24 AND 12/31, THIS BOX MAY BE COLLECTED AS EARLY AS 12 NOON.", "nsi_id": "unitedstatespostalservice-a77078", "operator": "United States Postal Service", "operator:short": "USPS", "operator:type": "public", "operator:wikidata": "Q668687", "ref": "2182900004"}, "type": "Feature"}
{"geometry": {"coordinates": [-75.688809849, 38.419166327], "type": "Point"}, "id": "aDGPz5UVopOTr06JUfCs5erX2oY=", "properties": {"@source_uri": "https://tools.usps.com/UspsToolsRestServices/rest/POLocator/findLocations", "@spider": "usps_collection_boxes", "addr:city": "HEBRON", "addr:country": "US", "addr:full": "102 N MAIN ST", "addr:postcode": "21830", "addr:state": "MD", "amenity": "post_box", "brand": "United States Postal Service", "brand:wikidata": "Q668687", "collection_times": "Mo-Fr 16:45; Sa 10:45", "note": "ON 12/24 AND 12/31, THIS BOX MAY BE COLLECTED AS EARLY AS 12 NOON.", "nsi_id": "unitedstatespostalservice-a77078", "operator": "United States Postal Service", "operator:short": "USPS", "operator:type": "public", "operator:wikidata": "Q668687", "ref": "2183000000"}, "type": "Feature"}
{"geometry": {"coordinates": [-75.688809849, 38.419166327], "type": "Point"}, "id": "KfVsCdz1cPbvJ0LJ98TfoLOXNJs=", "properties": {"@source_uri": "https://tools.usps.com/UspsToolsRestServices/rest/POLocator/findLocations", "@spider": "usps_collection_boxes", "addr:city": "HEBRON", "addr:country": "US", "addr:full": "102 N MAIN ST", "addr:postcode": "21830", "addr:state": "MD", "amenity": "post_box", "brand": "United States Postal Service", "brand:wikidata": "Q668687", "collection_times": "Mo-Fr 16:45; Sa 10:45", "indoor": "yes", "note": "ON 12/24 AND 12/31, THIS BOX MAY BE COLLECTED AS EARLY AS 12 NOON.", "nsi_id": "unitedstatespostalservice-a77078", "operator": "United States Postal Service", "operator:short": "USPS", "operator:type": "public", "operator:wikidata": "Q668687", "ref": "2183000001"}, "type": "Feature"}
{"geometry": {"coordinates": [-75.688809849, 38.419166327], "type": "Point"}, "id": "W1SkMEby24SP3pZjEz_Y6irtFAE=", "properties": {"@source_uri": "https://tools.usps.com/UspsToolsRestServices/rest/POLocator/findLocations", "@spider": "usps_collection_boxes", "addr:city": "HEBRON", "addr:country": "US", "addr:full": "102 N MAIN ST", "addr:postcode": "21830", "addr:state": "MD", "amenity": "post_box", "brand": "United States Postal Service", "brand:wikidata": "Q668687", "collection_times": "Mo-Fr 16:45; Sa 10:45", "indoor": "yes", "note": "ON 12/24 AND 12/31, THIS BOX MAY BE COLLECTED AS EARLY AS 12 NOON.", "nsi_id": "unitedstatespostalservice-a77078", "operator": "United States Postal Service", "operator:short": "USPS", "operator:type": "public", "operator:wikidata": "Q668687", "ref": "2183000002"}, "type": "Feature"}
{"geometry": {"coordinates": [-75.688809849, 38.419166327], "type": "Point"}, "id": "vnmnNp4LsipcWwlSP_cyngg6IG8=", "properties": {"@source_uri": "https://tools.usps.com/UspsToolsRestServices/rest/POLocator/findLocations", "@spider": "usps_collection_boxes", "addr:city": "HEBRON", "addr:country": "US", "addr:full": "102 N MAIN ST", "addr:postcode": "21830", "addr:state": "MD", "amenity": "post_box", "brand": "United States Postal Service", "brand:wikidata": "Q668687", "collection_times": "Mo-Fr 16:45; Sa 11:30", "indoor": "yes", "note": "ON 12/24 AND 12/31, THIS BOX MAY BE COLLECTED AS EARLY AS 12 NOON.", "nsi_id": "unitedstatespostalservice-a77078", "operator": "United States Postal Service", "operator:short": "USPS", "operator:type": "public", "operator:wikidata": "Q668687", "ref": "2183000004"}, "type": "Feature"}
{"geometry": {"coordinates": [-75.947375024, 38.543645863], "type": "Point"}, "id": "7LY60Mtbsa1qx_K9uzRPnt2OAGw=", "properties": {"@source_uri": "https://tools.usps.com/UspsToolsRestServices/rest/POLocator/findLocations", "@spider": "usps_collection_boxes", "addr:city": "LINKWOOD", "addr:country": "US", "addr:full": "3843 OCEAN GTWY", "addr:postcode": "21835", "addr:state": "MD", "amenity": "post_box", "brand": "United States Postal Service", "brand:wikidata": "Q668687", "collection_times": "Mo-Fr 16:30; Sa 11:00", "note": "ON 12/24 AND 12/31, THIS BOX MAY BE COLLECTED AS EARLY AS 12 NOON.", "nsi_id": "unitedstatespostalservice-a77078", "operator": "United States Postal Service", "operator:short": "USPS", "operator:type": "public", "operator:wikidata": "Q668687", "ref": "2183500000"}, "type": "Feature"}
{"geometry": {"coordinates": [-75.947375024, 38.543645863], "type": "Point"}, "id": "BoSu9g8lFFhCBs7DLzAVxdv6Buo=", "properties": {"@source_uri": "https://tools.usps.com/UspsToolsRestServices/rest/POLocator/findLocations", "@spider": "usps_collection_boxes", "addr:city": "LINKWOOD", "addr:country": "US", "addr:full": "3843 OCEAN GTWY", "addr:postcode": "21835", "addr:state": "MD", "amenity": "post_box", "brand": "United States Postal Service", "brand:wikidata": "Q668687", "collection_times": "Mo-Fr 16:30; Sa 11:00", "indoor": "yes", "note": "ON 12/24 AND 12/31, THIS BOX MAY BE COLLECTED AS EARLY AS 12 NOON.", "nsi_id": "unitedstatespostalservice-a77078", "operator": "United States Postal Service", "operator:short": "USPS", "operator:type": "public", "operator:wikidata": "Q668687", "ref": "2183500001"}, "type": "Feature"}
{"geometry": {"coordinates": [-75.947375024, 38.543645863], "type": "Point"}, "id": "iBe2KvDhCJclCMWgxtDfFBkeLLI=", "properties": {"@source_uri": "https://tools.usps.com/UspsToolsRestServices/rest/POLocator/findLocations", "@spider": "usps_collection_boxes", "addr:city": "LINKWOOD", "addr:country": "US", "addr:full": "3843 OCEAN GTWY", "addr:postcode": "21835", "addr:state": "MD", "amenity": "post_box", "brand": "United States Postal Service", "brand:wikidata": "Q668687", "collection_times": "Mo-Fr 16:30; Sa 11:00", "indoor": "yes", "note": "ON 12/24 AND 12/31, THIS BOX MAY BE COLLECTED AS EARLY AS 12 NOON.", "nsi_id": "unitedstatespostalservice-a77078", "operator": "United States Postal Service", "operator:short": "USPS", "operator:type": "public", "operator:wikidata": "Q668687", "ref": "2183500003"}, "type": "Feature"}
{"geometry": {"coordinates": [-75.7478633, 38.462149], "type": "Point"}, "id": "Ku50eyd6a_HDAYhi_n33oUgNZ8U=", "properties": {"@source_uri": "https://tools.usps.com/UspsToolsRestServices/rest/POLocator/findLocations", "@spider": "usps_collection_boxes", "addr:city": "MARDELA SPRINGS", "addr:country": "US", "addr:full": "24948 OCEAN GTWY", "addr:postcode": "21837", "addr:state": "MD", "amenity": "post_box", "brand": "United States Postal Service", "brand:wikidata": "Q668687", "collection_times": "Mo-Sa 09:30", "nsi_id": "unitedstatespostalservice-a77078", "operator": "United States Postal Service", "operator:short": "USPS", "operator:type": "public", "operator:wikidata": "Q668687", "ref": "2183700000"}, "type": "Feature"}
{"geometry": {"coordinates": [-75.7555672358, 38.4621973012], "type": "Point"}, "id": "tznQCLswqsvTLB0WgSN3he6Iyog=", "properties": {"@source_uri": "https://tools.usps.com/UspsToolsRestServices/rest/POLocator/findLocations", "@spider": "usps_collection_boxes", "addr:city": "MARDELA SPRINGS", "addr:country": "US", "addr:full": "301 RAILROAD AVE", "addr:postcode": "21837", "addr:state": "MD", "amenity": "post_box", "brand": "United States Postal Service", "brand:wikidata": "Q668687", "collection_times": "Mo-Fr 16:45; Sa 11:00", "note": "ON 12/24 AND 12/31, THIS BOX MAY BE COLLECTED AS EARLY AS 12 NOON.", "nsi_id": "unitedstatespostalservice-a77078", "operator": "United States Postal Service", "operator:short": "USPS", "operator:type": "public", "operator:wikidata": "Q668687", "ref": "2183700001"}, "type": "Feature"}
{"geometry": {"coordinates": [-75.755567236, 38.462197301], "type": "Point"}, "id": "Q2S1LkGRsRVzJpfhg0nOlaz3fvE=", "properties": {"@source_uri": "https://tools.usps.com/UspsToolsRestServices/rest/POLocator/findLocations", "@spider": "usps_collection_boxes", "addr:city": "MARDELA SPRINGS", "addr:country": "US", "addr:full": "301 RAILROAD AVE", "addr:postcode": "21837", "addr:state": "MD", "amenity": "post_box", "brand": "United States Postal Service", "brand:wikidata": "Q668687", "collection_times": "Mo-Fr 16:45; Sa 11:00", "indoor": "yes", "note": "ON 12/24 AND 12/31, THIS BOX MAY BE COLLECTED AS EARLY AS 12 NOON.", "nsi_id": "unitedstatespostalservice-a77078", "operator": "United States Postal Service", "operator:short": "USPS", "operator:type": "public", "operator:wikidata": "Q668687", "ref": "2183700002"}, "type": "Feature"}
{"geometry": {"coordinates": [-75.755567236, 38.462197301], "type": "Point"}, "id": "hpq54LSOcq0A4z-g0LUU-tqr33E=", "properties": {"@source_uri": "https://tools.usps.com/UspsToolsRestServices/rest/POLocator/findLocations", "@spider": "usps_collection_boxes", "addr:city": "MARDELA SPRINGS", "addr:country": "US", "addr:full": "301 RAILROAD AVE", "addr:postcode": "21837", "addr:state": "MD", "amenity": "post_box", "brand": "United States Postal Service", "brand:wikidata": "Q668687", "collection_times": "Mo-Fr 16:45; Sa 11:00", "indoor": "yes", "note": "ON 12/24 AND 12/31, THIS BOX MAY BE COLLECTED AS EARLY AS 12 NOON.", "nsi_id": "unitedstatespostalservice-a77078", "operator": "United States Postal Service", "operator:short": "USPS", "operator:type": "public", "operator:wikidata": "Q668687", "ref": "2183700003"}, "type": "Feature"}
{"geometry": {"coordinates": [-75.755567236, 38.462197301], "type": "Point"}, "id": "zyE6hc3lSE_e1BfrgL1Aw8Z24qM=", "properties": {"@source_uri": "https://tools.usps.com/UspsToolsRestServices/rest/POLocator/findLocations", "@spider": "usps_collection_boxes", "addr:city": "MARDELA SPRINGS", "addr:country": "US", "addr:full": "301 RAILROAD AVE", "addr:postcode": "21837", "addr:state": "MD", "amenity": "post_box", "brand": "United States Postal Service", "brand:wikidata": "Q668687", "collection_times": "Mo-Fr 16:30; Sa 11:30", "indoor": "yes", "note": "ON 12/24 AND 12/31, THIS BOX MAY BE COLLECTED AS EARLY AS 12 NOON.", "nsi_id": "unitedstatespostalservice-a77078", "operator": "United States Postal Service", "operator:short": "USPS", "operator:type": "public", "operator:wikidata": "Q668687", "ref": "2183700005"}, "type": "Feature"}
{"geometry": {"coordinates": [-75.764962, 38.039949], "type": "Point"}, "id": "v69tn045H0CB9PxuHbzUvMtZ4JA=", "properties": {"@source_uri": "https://tools.usps.com/UspsToolsRestServices/rest/POLocator/findLocations", "@spider": "usps_collection_boxes", "addr:city": "MARION STATION", "addr:country": "US", "addr:full": "28530 HUDSON CORNER RD", "addr:postcode": "21838", "addr:state": "MD", "amenity": "post_box", "brand": "United States Postal Service", "brand:wikidata": "Q668687", "collection_times": "Mo-Fr 16:30; Sa 11:45", "note": "ON 12/24 AND 12/31, THIS BOX MAY BE COLLECTED AS EARLY AS 12 NOON.", "nsi_id": "unitedstatespostalservice-a77078", "operator": "United States Postal Service", "operator:short": "USPS", "operator:type": "public", "operator:wikidata": "Q668687", "ref": "2183800000"}, "type": "Feature"}
{"geometry": {"coordinates": [-75.7325759005, 38.0160631729], "type": "Point"}, "id": "AV7lCKAQTRH69FaihZHS0vhB_tE=", "properties": {"@source_uri": "https://tools.usps.com/UspsToolsRestServices/rest/POLocator/findLocations", "@spider": "usps_collection_boxes", "addr:city": "MARION STATION", "addr:country": "US", "addr:full": "28530 HUDSON CORNER RD", "addr:postcode": "21838", "addr:state": "MD", "amenity": "post_box", "brand": "United States Postal Service", "brand:wikidata": "Q668687", "collection_times": "Mo-Fr 16:30; Sa 11:45", "indoor": "yes", "note": "ON 12/24 AND 12/31, THIS BOX MAY BE COLLECTED AS EARLY AS 12 NOON.", "nsi_id": "unitedstatespostalservice-a77078", "operator": "United States Postal Service", "operator:short": "USPS", "operator:type": "public", "operator:wikidata": "Q668687", "ref": "2183800001"}, "type": "Feature"}
{"geometry": {"coordinates": [-75.7325759005, 38.0160631729], "type": "Point"}, "id": "v7ViIuZFF_TzVQF2LTG3UOZCygk=", "properties": {"@source_uri": "https://tools.usps.com/UspsToolsRestServices/rest/POLocator/findLocations", "@spider": "usps_collection_boxes", "addr:city": "MARION STATION", "addr:country": "US", "addr:full": "28530 HUDSON CORNER RD", "addr:postcode": "21838", "addr:state": "MD", "amenity": "post_box", "brand": "United States Postal Service", "brand:wikidata": "Q668687", "collection_times": "Mo-Fr 16:30; Sa 11:45", "indoor": "yes", "note": "ON 12/24 AND 12/31, THIS BOX MAY BE COLLECTED AS EARLY AS 12 NOON.", "nsi_id": "unitedstatespostalservice-a77078", "operator": "United States Postal Service", "operator:short": "USPS", "operator:type": "public", "operator:wikidata": "Q668687", "ref": "2183800002"}, "type": "Feature"}
{"geometry": {"coordinates": [-75.769219678, 38.039637185], "type": "Point"}, "id": "zOQwjit6DlGUtaaPYrt9Ecll9vA=", "properties": {"@source_uri": "https://tools.usps.com/UspsToolsRestServices/rest/POLocator/findLocations", "@spider": "usps_collection_boxes", "addr:city": "MARION STATION", "addr:country": "US", "addr:full": "28350 HUDSON CORNER RD", "addr:postcode": "21838", "addr:state": "MD", "amenity": "post_box", "brand": "United States Postal Service", "brand:wikidata": "Q668687", "collection_times": "Mo-Fr 16:30; Sa 12:00", "indoor": "yes", "note": "ON 12/24 AND 12/31, THIS BOX MAY BE COLLECTED AS EARLY AS 12 NOON.", "nsi_id": "unitedstatespostalservice-a77078", "operator": "United States Postal Service", "operator:short": "USPS", "operator:type": "public", "operator:wikidata": "Q668687", "ref": "2183800004"}, "type": "Feature"}
{"geometry": {"coordinates": [-75.906469151, 38.270959649], "type": "Point"}, "id": "RLDxPtFgztVe2MtBhj5gRzEXuPo=", "properties": {"@source_uri": "https://tools.usps.com/UspsToolsRestServices/rest/POLocator/findLocations", "@spider": "usps_collection_boxes", "addr:city": "NANTICOKE", "addr:country": "US", "addr:full": "20501 NANTICOKE RD", "addr:postcode": "21840", "addr:state": "MD", "amenity": "post_box", "brand": "United States Postal Service", "brand:wikidata": "Q668687", "collection_times": "Mo-Fr 16:00; Sa 09:30", "note": "ON 12/24 AND 12/31, THIS BOX MAY BE COLLECTED AS EARLY AS 12 NOON.", "nsi_id": "unitedstatespostalservice-a77078", "operator": "United States Postal Service", "operator:short": "USPS", "operator:type": "public", "operator:wikidata": "Q668687", "ref": "2184000000"}, "type": "Feature"}
{"geometry": {"coordinates": [-75.906469151, 38.270959649], "type": "Point"}, "id": "kqrh6dEX7dTqjFgfJ_vcyYgpIVI=", "properties": {"@source_uri": "https://tools.usps.com/UspsToolsRestServices/rest/POLocator/findLocations", "@spider": "usps_collection_boxes", "addr:city": "NANTICOKE", "addr:country": "US", "addr:full": "20501 NANTICOKE RD", "addr:postcode": "21840", "addr:state": "MD", "amenity": "post_box", "brand": "United States Postal Service", "brand:wikidata": "Q668687", "collection_times": "Mo-Fr 16:15; Sa 09:45", "indoor": "yes", "note": "ON 12/24 AND 12/31, THIS BOX MAY BE COLLECTED AS EARLY AS 12 NOON.", "nsi_id": "unitedstatespostalservice-a77078", "operator": "United States Postal Service", "operator:short": "USPS", "operator:type": "public", "operator:wikidata": "Q668687", "ref": "2184000002"}, "type": "Feature"}
{"geometry": {"coordinates": [-75.906469151, 38.270959649], "type": "Point"}, "id": "vq_VOC3PpLT46cPhrbHqZ2wowP0=", "properties": {"@source_uri": "https://tools.usps.com/UspsToolsRestServices/rest/POLocator/findLocations", "@spider": "usps_collection_boxes", "addr:city": "NANTICOKE", "addr:country": "US", "addr:full": "20501 NANTICOKE RD", "addr:postcode": "21840", "addr:state": "MD", "amenity": "post_box", "brand": "United States Postal Service", "brand:wikidata": "Q668687", "collection_times": "Mo-Fr 16:15; Sa 09:45", "indoor": "yes", "note": "ON 12/24 AND 12/31, THIS BOX MAY BE COLLECTED AS EARLY AS 12 NOON.", "nsi_id": "unitedstatespostalservice-a77078", "operator": "United States Postal Service", "operator:short": "USPS", "operator:type": "public", "operator:wikidata": "Q668687", "ref": "2184000003"}, "type": "Feature"}
{"geometry": {"coordinates": [-75.906469151, 38.270959649], "type": "Point"}, "id": "jde-XmLNPigjPYSUG9LardohqR4=", "properties": {"@source_uri": "https://tools.usps.com/UspsToolsRestServices/rest/POLocator/findLocations", "@spider": "usps_collection_boxes", "addr:city": "NANTICOKE", "addr:country": "US", "addr:full": "20501 NANTICOKE RD", "addr:postcode": "21840", "addr:state": "MD", "amenity": "post_box", "brand": "United States Postal Service", "brand:wikidata": "Q668687", "collection_times": "Mo-Fr 12:00", "indoor": "yes", "nsi_id": "unitedstatespostalservice-a77078", "operator": "United States Postal Service", "operator:short": "USPS", "operator:type": "public", "operator:wikidata": "Q668687", "ref": "2184000005"}, "type": "Feature"}
{"geometry": {"coordinates": [-75.290185363, 38.251027363], "type": "Point"}, "id": "Alo5MXxQoJip_Nv6fdV1O1WB6xo=", "properties": {"@source_uri": "https://tools.usps.com/UspsToolsRestServices/rest/POLocator/findLocations", "@spider": "usps_collection_boxes", "addr:city": "NEWARK", "addr:country": "US", "addr:full": "8420 NEWARK RD", "addr:postcode": "21841", "addr:state": "MD", "amenity": "post_box", "brand": "United States Postal Service", "brand:wikidata": "Q668687", "collection_times": "Mo-Fr 16:15; Sa 11:00", "note": "ON 12/24 AND 12/31, THIS BOX MAY BE COLLECTED AS EARLY AS 12 NOON.", "nsi_id": "unitedstatespostalservice-a77078", "operator": "United States Postal Service", "operator:short": "USPS", "operator:type": "public", "operator:wikidata": "Q668687", "ref": "2184100000"}, "type": "Feature"}
{"geometry": {"coordinates": [-75.290185363, 38.251027363], "type": "Point"}, "id": "tZblSY2oO4WGi9hzbvUAPP2agG8=", "properties": {"@source_uri": "https://tools.usps.com/UspsToolsRestServices/rest/POLocator/findLocations", "@spider": "usps_collection_boxes", "addr:city": "NEWARK", "addr:country": "US", "addr:full": "8420 NEWARK RD", "addr:postcode": "21841", "addr:state": "MD", "amenity": "post_box", "brand": "United States Postal Service", "brand:wikidata": "Q668687", "collection_times": "Mo-Fr 16:15; Sa 11:00", "indoor": "yes", "note": "ON 12/24 AND 12/31, THIS BOX MAY BE COLLECTED AS EARLY AS 12 NOON.", "nsi_id": "unitedstatespostalservice-a77078", "operator": "United States Postal Service", "operator:short": "USPS", "operator:type": "public", "operator:wikidata": "Q668687", "ref": "2184100003"}, "type": "Feature"}
{"geometry": {"coordinates": [-75.290185363, 38.251027363], "type": "Point"}, "id": "pp2KPnl7iMxjx9UgMbCABDDCCHw=", "properties": {"@source_uri": "https://tools.usps.com/UspsToolsRestServices/rest/POLocator/findLocations", "@spider": "usps_collection_boxes", "addr:city": "NEWARK", "addr:country": "US", "addr:full": "8420 NEWARK RD", "addr:postcode": "21841", "addr:state": "MD", "amenity": "post_box", "brand": "United States Postal Service", "brand:wikidata": "Q668687", "collection_times": "Mo-Fr 16:15; Sa 11:00", "indoor": "yes", "note": "ON 12/24 AND 12/31, THIS BOX MAY BE COLLECTED AS EARLY AS 12 NOON.", "nsi_id": "unitedstatespostalservice-a77078", "operator": "United States Postal Service", "operator:short": "USPS", "operator:type": "public", "operator:wikidata": "Q668687", "ref": "2184100004"}, "type": "Feature"}
{"geometry": {"coordinates": [-75.290185363, 38.251027363], "type": "Point"}, "id": "T4fjnmY9pv0buutnZ_PUOfGdFYg=", "properties": {"@source_uri": "https://tools.usps.com/UspsToolsRestServices/rest/POLocator/findLocations", "@spider": "usps_collection_boxes", "addr:city": "NEWARK", "addr:country": "US", "addr:full": "8420 NEWARK RD", "addr:postcode": "21841", "addr:state": "MD", "amenity": "post_box", "brand": "United States Postal Service", "brand:wikidata": "Q668687", "collection_times": "Mo-Fr 16:15; Sa 12:00", "indoor": "yes", "note": "ON 12/24 AND 12/31, THIS BOX MAY BE COLLECTED AS EARLY AS 12 NOON.", "nsi_id": "unitedstatespostalservice-a77078", "operator": "United States Postal Service", "operator:short": "USPS", "operator:type": "public", "operator:wikidata": "Q668687", "ref": "2184100006"}, "type": "Feature"}
{"geometry": {"coordinates": [-75.0849604, 38.336224], "type": "Point"}, "id": "YjaIWWlNuUx-daMr0NoRMTLTzIk=", "properties": {"@source_uri": "https://tools.usps.com/UspsToolsRestServices/rest/POLocator/findLocations", "@spider": "usps_collection_boxes", "addr:city": "OCEAN CITY", "addr:country": "US", "addr:full": "408 PHILADELPHIA AVE", "addr:postcode": "21842", "addr:state": "MD", "amenity": "post_box", "brand": "United States Postal Service", "brand:wikidata": "Q668687", "collection_times": "Mo-Fr 14:00; Sa 10:30", "note": "ON 12/24 AND 12/31, THIS BOX MAY BE COLLECTED AS EARLY AS 12 NOON.", "nsi_id": "unitedstatespostalservice-a77078", "operator": "United States Postal Service", "operator:short": "USPS", "operator:type": "public", "operator:wikidata": "Q668687", "ref": "2184200001"}, "type": "Feature"}
{"geometry": {"coordinates": [-75.1125015, 38.335081], "type": "Point"}, "id": "WycxXIrH9hewrKiuHklnROXamAg=", "properties": {"@source_uri": "https://tools.usps.com/UspsToolsRestServices/rest/POLocator/findLocations", "@spider": "usps_collection_boxes", "addr:city": "OCEAN CITY", "addr:country": "US", "addr:full": "9936 STEPHEN DECATUR HWY", "addr:postcode": "21842", "addr:state": "MD", "amenity": "post_box", "brand": "United States Postal Service", "brand:wikidata": "Q668687", "collection_times": "Mo-Sa 10:00", "nsi_id": "unitedstatespostalservice-a77078", "operator": "United States Postal Service", "operator:short": "USPS", "operator:type": "public", "operator:wikidata": "Q668687", "ref": "2184200007"}, "type": "Feature"}
{"geometry": {"coordinates": [-75.1089286, 38.339626], "type": "Point"}, "id": "2AA8CnN3X-IA82z2sjqqz-axeeM=", "properties": {"@source_uri": "https://tools.usps.com/UspsToolsRestServices/rest/POLocator/findLocations", "@spider": "usps_collection_boxes", "addr:city": "OCEAN CITY", "addr:country": "US", "addr:full": "12641 OCEAN GTWY", "addr:postcode": "21842", "addr:state": "MD", "amenity": "post_box", "brand": "United States Postal Service", "brand:wikidata": "Q668687", "collection_times": "Mo-Sa 10:00", "nsi_id": "unitedstatespostalservice-a77078", "operator": "United States Postal Service", "operator:short": "USPS", "operator:type": "public", "operator:wikidata": "Q668687", "ref": "2184200009"}, "type": "Feature"}
{"geometry": {"coordinates": [-75.0822488, 38.341767], "type": "Point"}, "id": "d2xqTUSp62lfFLzWVQmeeGBxLIU=", "properties": {"@source_uri": "https://tools.usps.com/UspsToolsRestServices/rest/POLocator/findLocations", "@spider": "usps_collection_boxes", "addr:city": "OCEAN CITY", "addr:country": "US", "addr:full": "1003 PHILADELPHIA AVE", "addr:postcode": "21842", "addr:state": "MD", "amenity": "post_box", "brand": "United States Postal Service", "brand:wikidata": "Q668687", "collection_times": "Mo-Sa 10:00", "nsi_id": "unitedstatespostalservice-a77078", "operator": "United States Postal Service", "operator:short": "USPS", "operator:type": "public", "operator:wikidata": "Q668687", "ref": "2184200011"}, "type": "Feature"}
{"geometry": {"coordinates": [-75.0797526173, 38.3463784005], "type": "Point"}, "id": "i1QFm8svPx9J6ZuCs4TqKXUkwWE=", "properties": {"@source_uri": "https://tools.usps.com/UspsToolsRestServices/rest/POLocator/findLocations", "@spider": "usps_collection_boxes", "addr:city": "OCEAN CITY", "addr:country": "US", "addr:full": "1601 PHILADELPHIA AVE", "addr:postcode": "21842", "addr:state": "MD", "amenity": "post_box", "brand": "United States Postal Service", "brand:wikidata": "Q668687", "collection_times": "Mo-Sa 10:00", "nsi_id": "unitedstatespostalservice-a77078", "operator": "United States Postal Service", "operator:short": "USPS", "operator:type": "public", "operator:wikidata": "Q668687", "ref": "2184200012"}, "type": "Feature"}
{"geometry": {"coordinates": [-75.0523147, 38.449246], "type": "Point"}, "id": "xTDAYFxk5OEdQGpPVf0DtAxceL4=", "properties": {"@source_uri": "https://tools.usps.com/UspsToolsRestServices/rest/POLocator/findLocations", "@spider": "usps_collection_boxes", "addr:city": "OCEAN CITY", "addr:country": "US", "addr:full": "14314 COASTAL HWY", "addr:postcode": "21842", "addr:state": "MD", "amenity": "post_box", "brand": "United States Postal Service", "brand:wikidata": "Q668687", "collection_times": "Mo-Sa 10:00", "nsi_id": "unitedstatespostalservice-a77078", "operator": "United States Postal Service", "operator:short": "USPS", "operator:type": "public", "operator:wikidata": "Q668687", "ref": "2184200025"}, "type": "Feature"}
{"geometry": {"coordinates": [-75.0533031, 38.443484], "type": "Point"}, "id": "UHiDBZrJaTmnKgB_HerS2-X8io4=", "properties": {"@source_uri": "https://tools.usps.com/UspsToolsRestServices/rest/POLocator/findLocations", "@spider": "usps_collection_boxes", "addr:city": "OCEAN CITY", "addr:country": "US", "addr:full": "13801 COASTAL HWY", "addr:postcode": "21842", "addr:state": "MD", "amenity": "post_box", "brand": "United States Postal Service", "brand:wikidata": "Q668687", "collection_times": "Mo-Sa 10:00", "nsi_id": "unitedstatespostalservice-a77078", "operator": "United States Postal Service", "operator:short": "USPS", "operator:type": "public", "operator:wikidata": "Q668687", "ref": "2184200026"}, "type": "Feature"}
{"geometry": {"coordinates": [-75.0556683, 38.434956], "type": "Point"}, "id": "UwJndTt5yVBd7wHNlebrI-HTNBk=", "properties": {"@source_uri": "https://tools.usps.com/UspsToolsRestServices/rest/POLocator/findLocations", "@spider": "usps_collection_boxes", "addr:city": "OCEAN CITY", "addr:country": "US", "addr:full": "12913 COASTAL HWY", "addr:postcode": "21842", "addr:state": "MD", "amenity": "post_box", "brand": "United States Postal Service", "brand:wikidata": "Q668687", "collection_times": "Mo-Sa 10:00", "nsi_id": "unitedstatespostalservice-a77078", "operator": "United States Postal Service", "operator:short": "USPS", "operator:type": "public", "operator:wikidata": "Q668687", "ref": "2184200028"}, "type": "Feature"}
{"geometry": {"coordinates": [-75.064092987, 38.392499409], "type": "Point"}, "id": "IPo98HybnqAIYkGbXq3hfjjn8xg=", "properties": {"@source_uri": "https://tools.usps.com/UspsToolsRestServices/rest/POLocator/findLocations", "@spider": "usps_collection_boxes", "addr:city": "OCEAN CITY", "addr:country": "US", "addr:full": "7101 COASTAL HWY", "addr:postcode": "21842", "addr:state": "MD", "amenity": "post_box", "brand": "United States Postal Service", "brand:wikidata": "Q668687", "collection_times": "Mo-Fr 17:00; Sa 11:30", "note": "ON 12/24 AND 12/31, THIS BOX MAY BE COLLECTED AS EARLY AS 12 NOON.", "nsi_id": "unitedstatespostalservice-a77078", "operator": "United States Postal Service", "operator:short": "USPS", "operator:type": "public", "operator:wikidata": "Q668687", "ref": "2184200030"}, "type": "Feature"}
{"geometry": {"coordinates": [-75.064092987, 38.392499409], "type": "Point"}, "id": "2KJb91Tatii23FFO4Dtr4IUZhik=", "properties": {"@source_uri": "https://tools.usps.com/UspsToolsRestServices/rest/POLocator/findLocations", "@spider": "usps_collection_boxes", "addr:city": "OCEAN CITY", "addr:country": "US", "addr:full": "7101 COASTAL HWY", "addr:postcode": "21842", "addr:state": "MD", "amenity": "post_box", "brand": "United States Postal Service", "brand:wikidata": "Q668687", "collection_times": "Mo-Fr 17:00; Sa 11:30", "name": "USPS COLLECTION BOX - EXPRESS", "note": "ON 12/24 AND 12/31, THIS BOX MAY BE COLLECTED AS EARLY AS 12 NOON.", "nsi_id": "unitedstatespostalservice-a77078", "operator": "United States Postal Service", "operator:short": "USPS", "operator:type": "public", "operator:wikidata": "Q668687", "ref": "2184200033"}, "type": "Feature"}
{"geometry": {"coordinates": [-75.0577741, 38.415624], "type": "Point"}, "id": "JC94RnpgM0ArorVneVLEoQelu0k=", "properties": {"@source_uri": "https://tools.usps.com/UspsToolsRestServices/rest/POLocator/findLocations", "@spider": "usps_collection_boxes", "addr:city": "OCEAN CITY", "addr:country": "US", "addr:full": "10501 COASTAL HWY", "addr:postcode": "21842", "addr:state": "MD", "amenity": "post_box", "brand": "United States Postal Service", "brand:wikidata": "Q668687", "collection_times": "Mo-Sa 10:00", "nsi_id": "unitedstatespostalservice-a77078", "operator": "United States Postal Service", "operator:short": "USPS", "operator:type": "public", "operator:wikidata": "Q668687", "ref": "2184200034"}, "type": "Feature"}
{"geometry": {"coordinates": [-75.0591033, 38.408176], "type": "Point"}, "id": "mS8hVi8y_OucM1atoI3go1KS6Kg=", "properties": {"@source_uri": "https://tools.usps.com/UspsToolsRestServices/rest/POLocator/findLocations", "@spider": "usps_collection_boxes", "addr:city": "OCEAN CITY", "addr:country": "US", "addr:full": "9201 COASTAL HWY", "addr:postcode": "21842", "addr:state": "MD", "amenity": "post_box", "brand": "United States Postal Service", "brand:wikidata": "Q668687", "collection_times": "Mo-Sa 10:00", "nsi_id": "unitedstatespostalservice-a77078", "operator": "United States Postal Service", "operator:short": "USPS", "operator:type": "public", "operator:wikidata": "Q668687", "ref": "2184200037"}, "type": "Feature"}
{"geometry": {"coordinates": [-75.0673534, 38.382783], "type": "Point"}, "id": "bzIeu3yo1Uuokqg0fBncZhA0Tmw=", "properties": {"@source_uri": "https://tools.usps.com/UspsToolsRestServices/rest/POLocator/findLocations", "@spider": "usps_collection_boxes", "addr:city": "OCEAN CITY", "addr:country": "US", "addr:full": "5901 COASTAL HWY", "addr:postcode": "21842", "addr:state": "MD", "amenity": "post_box", "brand": "United States Postal Service", "brand:wikidata": "Q668687", "collection_times": "Mo-Sa 10:00", "nsi_id": "unitedstatespostalservice-a77078", "operator": "United States Postal Service", "operator:short": "USPS", "operator:type": "public", "operator:wikidata": "Q668687", "ref": "2184200041"}, "type": "Feature"}
{"geometry": {"coordinates": [-75.0724582, 38.364339], "type": "Point"}, "id": "qyBsKfd7jPfIZyjmOPcLmRr4UDQ=", "properties": {"@source_uri": "https://tools.usps.com/UspsToolsRestServices/rest/POLocator/findLocations", "@spider": "usps_collection_boxes", "addr:city": "OCEAN CITY", "addr:country": "US", "addr:full": "3509 COASTAL HWY", "addr:postcode": "21842", "addr:state": "MD", "amenity": "post_box", "brand": "United States Postal Service", "brand:wikidata": "Q668687", "collection_times": "Mo-Sa 10:00", "nsi_id": "unitedstatespostalservice-a77078", "operator": "United States Postal Service", "operator:short": "USPS", "operator:type": "public", "operator:wikidata": "Q668687", "ref": "2184200045"}, "type": "Feature"}
{"geometry": {"coordinates": [-75.117843988, 38.3281768824], "type": "Point"}, "id": "vJsFt8djDWUSElXtyLcyQQCcaBg=", "properties": {"@source_uri": "https://tools.usps.com/UspsToolsRestServices/rest/POLocator/findLocations", "@spider": "usps_collection_boxes", "addr:city": "OCEAN CITY", "addr:country": "US", "addr:full": "9636 STEPHEN DECATUR HWY", "addr:postcode": "21842", "addr:state": "MD", "amenity": "post_box", "brand": "United States Postal Service", "brand:wikidata": "Q668687", "collection_times": "Mo-Sa 10:00", "nsi_id": "unitedstatespostalservice-a77078", "operator": "United States Postal Service", "operator:short": "USPS", "operator:type": "public", "operator:wikidata": "Q668687", "ref": "2184200048"}, "type": "Feature"}
{"geometry": {"coordinates": [-75.0576804, 38.424402], "type": "Point"}, "id": "MnepORkE-a5hR-AEjGoT9UNHnuM=", "properties": {"@source_uri": "https://tools.usps.com/UspsToolsRestServices/rest/POLocator/findLocations", "@spider": "usps_collection_boxes", "addr:city": "OCEAN CITY", "addr:country": "US", "addr:full": "11805 COASTAL HWY", "addr:postcode": "21842", "addr:state": "MD", "amenity": "post_box", "brand": "United States Postal Service", "brand:wikidata": "Q668687", "collection_times": "Mo-Sa 10:00", "nsi_id": "unitedstatespostalservice-a77078", "operator": "United States Postal Service", "operator:short": "USPS", "operator:type": "public", "operator:wikidata": "Q668687", "ref": "2184200049"}, "type": "Feature"}
{"geometry": {"coordinates": [-75.0619224, 38.426032], "type": "Point"}, "id": "Nnf8CpdVyTRKK-FvBW9QoYdL8E4=", "properties": {"@source_uri": "https://tools.usps.com/UspsToolsRestServices/rest/POLocator/findLocations", "@spider": "usps_collection_boxes", "addr:city": "OCEAN CITY", "addr:country": "US", "addr:full": "201 N HERON DR", "addr:postcode": "21842", "addr:state": "MD", "amenity": "post_box", "brand": "United States Postal Service", "brand:wikidata": "Q668687", "collection_times": "Mo-Sa 10:00", "nsi_id": "unitedstatespostalservice-a77078", "operator": "United States Postal Service", "operator:short": "USPS", "operator:type": "public", "operator:wikidata": "Q668687", "ref": "2184200051"}, "type": "Feature"}
{"geometry": {"coordinates": [-75.1197161, 38.339904], "type": "Point"}, "id": "JJCByQOwSU9DaW-i69geqNDg3NI=", "properties": {"@source_uri": "https://tools.usps.com/UspsToolsRestServices/rest/POLocator/findLocations", "@spider": "usps_collection_boxes", "addr:city": "OCEAN CITY", "addr:country": "US", "addr:full": "12445 OCEAN GTWY", "addr:postcode": "21842", "addr:state": "MD", "amenity": "post_box", "brand": "United States Postal Service", "brand:wikidata": "Q668687", "collection_times": "Mo-Sa 10:00", "nsi_id": "unitedstatespostalservice-a77078", "operator": "United States Postal Service", "operator:short": "USPS", "operator:type": "public", "operator:wikidata": "Q668687", "ref": "2184200052"}, "type": "Feature"}
{"geometry": {"coordinates": [-75.064092987, 38.392499409], "type": "Point"}, "id": "vJFPOaDduIv69UDJX28_p4sfFGU=", "properties": {"@source_uri": "https://tools.usps.com/UspsToolsRestServices/rest/POLocator/findLocations", "@spider": "usps_collection_boxes", "addr:city": "OCEAN CITY", "addr:country": "US", "addr:full": "7101 COASTAL HWY", "addr:postcode": "21842", "addr:state": "MD", "amenity": "post_box", "brand": "United States Postal Service", "brand:wikidata": "Q668687", "collection_times": "Mo-Fr 17:00; Sa 11:30", "indoor": "yes", "note": "ON 12/24 AND 12/31, THIS BOX MAY BE COLLECTED AS EARLY AS 12 NOON.", "nsi_id": "unitedstatespostalservice-a77078", "operator": "United States Postal Service", "operator:short": "USPS", "operator:type": "public", "operator:wikidata": "Q668687", "ref": "2184200055"}, "type": "Feature"}
{"geometry": {"coordinates": [-75.0845641, 38.33636], "type": "Point"}, "id": "esbvwQ7wDaIK019U35R9yb_bnTk=", "properties": {"@source_uri": "https://tools.usps.com/UspsToolsRestServices/rest/POLocator/findLocations", "@spider": "usps_collection_boxes", "addr:city": "OCEAN CITY", "addr:country": "US", "addr:full": "408 PHILADELPHIA AVE", "addr:postcode": "21842", "addr:state": "MD", "amenity": "post_box", "brand": "United States Postal Service", "brand:wikidata": "Q668687", "collection_times": "Mo-Fr 14:00; Sa 10:30", "indoor": "yes", "note": "ON 12/24 AND 12/31, THIS BOX MAY BE COLLECTED AS EARLY AS 12 NOON.", "nsi_id": "unitedstatespostalservice-a77078", "operator": "United States Postal Service", "operator:short": "USPS", "operator:type": "public", "operator:wikidata": "Q668687", "ref": "2184200056"}, "type": "Feature"}
{"geometry": {"coordinates": [-75.064092987, 38.392499409], "type": "Point"}, "id": "CIuoXHFciyZ7r0DZ9MqzCM6w7oc=", "properties": {"@source_uri": "https://tools.usps.com/UspsToolsRestServices/rest/POLocator/findLocations", "@spider": "usps_collection_boxes", "addr:city": "OCEAN CITY", "addr:country": "US", "addr:full": "7101 COASTAL HWY", "addr:postcode": "21842", "addr:state": "MD", "amenity": "post_box", "brand": "United States Postal Service", "brand:wikidata": "Q668687", "collection_times": "Mo-Fr 17:00; Sa 11:30", "note": "ON 12/24 AND 12/31, THIS BOX MAY BE COLLECTED AS EARLY AS 12 NOON.", "nsi_id": "unitedstatespostalservice-a77078", "operator": "United States Postal Service", "operator:short": "USPS", "operator:type": "public", "operator:wikidata": "Q668687", "ref": "2184200058"}, "type": "Feature"}
{"geometry": {"coordinates": [-75.0874639, 38.329318], "type": "Point"}, "id": "jN6mS2B0K0lul9WQEhbRKCdPfLc=", "properties": {"@source_uri": "https://tools.usps.com/UspsToolsRestServices/rest/POLocator/findLocations", "@spider": "usps_collection_boxes", "addr:city": "OCEAN CITY", "addr:country": "US", "addr:full": "400 S BALTIMORE AVE", "addr:postcode": "21842", "addr:state": "MD", "amenity": "post_box", "brand": "United States Postal Service", "brand:wikidata": "Q668687", "collection_times": "Mo-Sa 10:00", "nsi_id": "unitedstatespostalservice-a77078", "operator": "United States Postal Service", "operator:short": "USPS", "operator:type": "public", "operator:wikidata": "Q668687", "ref": "2184200059"}, "type": "Feature"}
{"geometry": {"coordinates": [-75.1256694, 38.339053], "type": "Point"}, "id": "v2KilBxDEUB5Jw9-mDf7_NO7a3o=", "properties": {"@source_uri": "https://tools.usps.com/UspsToolsRestServices/rest/POLocator/findLocations", "@spider": "usps_collection_boxes", "addr:city": "OCEAN CITY", "addr:country": "US", "addr:full": "12320 OCEAN GTWY", "addr:postcode": "21842", "addr:state": "MD", "amenity": "post_box", "brand": "United States Postal Service", "brand:wikidata": "Q668687", "collection_times": "Mo-Sa 10:00", "nsi_id": "unitedstatespostalservice-a77078", "operator": "United States Postal Service", "operator:short": "USPS", "operator:type": "public", "operator:wikidata": "Q668687", "ref": "2184200060"}, "type": "Feature"}
{"geometry": {"coordinates": [-75.064092987, 38.392499409], "type": "Point"}, "id": "3mYekZD1wenACaU5lbmWD6JftuE=", "properties": {"@source_uri": "https://tools.usps.com/UspsToolsRestServices/rest/POLocator/findLocations", "@spider": "usps_collection_boxes", "addr:city": "OCEAN CITY", "addr:country": "US", "addr:full": "7101 COASTAL HWY", "addr:postcode": "21842", "addr:state": "MD", "amenity": "post_box", "brand": "United States Postal Service", "brand:wikidata": "Q668687", "collection_times": "Mo-Fr 17:00; Sa 11:30", "indoor": "yes", "note": "ON 12/24 AND 12/31, THIS BOX MAY BE COLLECTED AS EARLY AS 12 NOON.", "nsi_id": "unitedstatespostalservice-a77078", "operator": "United States Postal Service", "operator:short": "USPS", "operator:type": "public", "operator:wikidata": "Q668687", "ref": "2184200062"}, "type": "Feature"}
{"geometry": {"coordinates": [-75.064092987, 38.392499409], "type": "Point"}, "id": "U8gCFGOS2SXCiYubz6hHjMc6mQQ=", "properties": {"@source_uri": "https://tools.usps.com/UspsToolsRestServices/rest/POLocator/findLocations", "@spider": "usps_collection_boxes", "addr:city": "OCEAN CITY", "addr:country": "US", "addr:full": "7101 COASTAL HWY", "addr:postcode": "21842", "addr:state": "MD", "amenity": "post_box", "brand": "United States Postal Service", "brand:wikidata": "Q668687", "collection_times": "Mo-Fr 17:00; Sa 11:30", "indoor": "yes", "note": "ON 12/24 AND 12/31, THIS BOX MAY BE COLLECTED AS EARLY AS 12 NOON.", "nsi_id": "unitedstatespostalservice-a77078", "operator": "United States Postal Service", "operator:short": "USPS", "operator:type": "public", "operator:wikidata": "Q668687", "ref": "2184200063"}, "type": "Feature"}
{"geometry": {"coordinates": [-75.0851743625, 38.3359116257], "type": "Point"}, "id": "wMr-MEbMMUC63gAJktAa2tlr6vM=", "properties": {"@source_uri": "https://tools.usps.com/UspsToolsRestServices/rest/POLocator/findLocations", "@spider": "usps_collection_boxes", "addr:city": "OCEAN CITY", "addr:country": "US", "addr:full": "408 PHILADELPHIA AVE", "addr:postcode": "21842", "addr:state": "MD", "amenity": "post_box", "brand": "United States Postal Service", "brand:wikidata": "Q668687", "collection_times": "Mo-Fr 14:00; Sa 12:00", "indoor": "yes", "note": "ON 12/24 AND 12/31, THIS BOX MAY BE COLLECTED AS EARLY AS 12 NOON.", "nsi_id": "unitedstatespostalservice-a77078", "operator": "United States Postal Service", "operator:short": "USPS", "operator:type": "public", "operator:wikidata": "Q668687", "ref": "2184200070"}, "type": "Feature"}
{"geometry": {"coordinates": [-75.064092987, 38.392499409], "type": "Point"}, "id": "4BGrsYd4sqzTcs_ftqxRyKiJubw=", "properties": {"@source_uri": "https://tools.usps.com/UspsToolsRestServices/rest/POLocator/findLocations", "@spider": "usps_collection_boxes", "addr:city": "OCEAN CITY", "addr:country": "US", "addr:full": "7101 COASTAL HWY", "addr:postcode": "21842", "addr:state": "MD", "amenity": "post_box", "brand": "United States Postal Service", "brand:wikidata": "Q668687", "collection_times": "Mo-Fr 17:00; Sa 12:00", "indoor": "yes", "note": "ON 12/24 AND 12/31, THIS BOX MAY BE COLLECTED AS EARLY AS 12 NOON.", "nsi_id": "unitedstatespostalservice-a77078", "operator": "United States Postal Service", "operator:short": "USPS", "operator:type": "public", "operator:wikidata": "Q668687", "ref": "2184200071"}, "type": "Feature"}
{"geometry": {"coordinates": [-75.470308692, 38.389836247], "type": "Point"}, "id": "6f9Rop1JrtkqEpHPc7uGsU7S4pM=", "properties": {"@source_uri": "https://tools.usps.com/UspsToolsRestServices/rest/POLocator/findLocations", "@spider": "usps_collection_boxes", "addr:city": "PARSONSBURG", "addr:country": "US", "addr:full": "7237 PARSONSBURG RD", "addr:postcode": "21849", "addr:state": "MD", "amenity": "post_box", "brand": "United States Postal Service", "brand:wikidata": "Q668687", "collection_times": "Mo-Fr 17:00; Sa 11:00", "note": "ON 12/24 AND 12/31, THIS BOX MAY BE COLLECTED AS EARLY AS 12 NOON.", "nsi_id": "unitedstatespostalservice-a77078", "operator": "United States Postal Service", "operator:short": "USPS", "operator:type": "public", "operator:wikidata": "Q668687", "ref": "2184900000"}, "type": "Feature"}
{"geometry": {"coordinates": [-75.470308692, 38.389836247], "type": "Point"}, "id": "L1LiUUkfNM1QdoZnpOOJHrmRilU=", "properties": {"@source_uri": "https://tools.usps.com/UspsToolsRestServices/rest/POLocator/findLocations", "@spider": "usps_collection_boxes", "addr:city": "PARSONSBURG", "addr:country": "US", "addr:full": "7237 PARSONSBURG RD", "addr:postcode": "21849", "addr:state": "MD", "amenity": "post_box", "brand": "United States Postal Service", "brand:wikidata": "Q668687", "collection_times": "Mo-Fr 17:00; Sa 11:00", "indoor": "yes", "note": "ON 12/24 AND 12/31, THIS BOX MAY BE COLLECTED AS EARLY AS 12 NOON.", "nsi_id": "unitedstatespostalservice-a77078", "operator": "United States Postal Service", "operator:short": "USPS", "operator:type": "public", "operator:wikidata": "Q668687", "ref": "2184900001"}, "type": "Feature"}
{"geometry": {"coordinates": [-75.470308692, 38.389836247], "type": "Point"}, "id": "rBSlKIRaSavBr79SNofrekEkP-g=", "properties": {"@source_uri": "https://tools.usps.com/UspsToolsRestServices/rest/POLocator/findLocations", "@spider": "usps_collection_boxes", "addr:city": "PARSONSBURG", "addr:country": "US", "addr:full": "7237 PARSONSBURG RD", "addr:postcode": "21849", "addr:state": "MD", "amenity": "post_box", "brand": "United States Postal Service", "brand:wikidata": "Q668687", "collection_times": "Mo-Fr 16:45; Sa 11:00", "indoor": "yes", "note": "ON 12/24 AND 12/31, THIS BOX MAY BE COLLECTED AS EARLY AS 12 NOON.", "nsi_id": "unitedstatespostalservice-a77078", "operator": "United States Postal Service", "operator:short": "USPS", "operator:type": "public", "operator:wikidata": "Q668687", "ref": "2184900003"}, "type": "Feature"}
{"geometry": {"coordinates": [-75.411059729, 38.393500213], "type": "Point"}, "id": "0VnyZTvytD1Wdegz1Y-2LAzdxVI=", "properties": {"@source_uri": "https://tools.usps.com/UspsToolsRestServices/rest/POLocator/findLocations", "@spider": "usps_collection_boxes", "addr:city": "PITTSVILLE", "addr:country": "US", "addr:full": "7390 PINE ST", "addr:postcode": "21850", "addr:state": "MD", "amenity": "post_box", "brand": "United States Postal Service", "brand:wikidata": "Q668687", "collection_times": "Mo-Fr 16:00; Sa 10:45", "note": "ON 12/24 AND 12/31, THIS BOX MAY BE COLLECTED AS EARLY AS 12 NOON.", "nsi_id": "unitedstatespostalservice-a77078", "operator": "United States Postal Service", "operator:short": "USPS", "operator:type": "public", "operator:wikidata": "Q668687", "ref": "2185000000"}, "type": "Feature"}
{"geometry": {"coordinates": [-75.411059729, 38.393500213], "type": "Point"}, "id": "G1O9QxkEO2X48tqIUwPzoW_4Jd8=", "properties": {"@source_uri": "https://tools.usps.com/UspsToolsRestServices/rest/POLocator/findLocations", "@spider": "usps_collection_boxes", "addr:city": "PITTSVILLE", "addr:country": "US", "addr:full": "7390 PINE ST", "addr:postcode": "21850", "addr:state": "MD", "amenity": "post_box", "brand": "United States Postal Service", "brand:wikidata": "Q668687", "collection_times": "Mo-Fr 16:00; Sa 10:45", "indoor": "yes", "note": "ON 12/24 AND 12/31, THIS BOX MAY BE COLLECTED AS EARLY AS 12 NOON.", "nsi_id": "unitedstatespostalservice-a77078", "operator": "United States Postal Service", "operator:short": "USPS", "operator:type": "public", "operator:wikidata": "Q668687", "ref": "2185000001"}, "type": "Feature"}
{"geometry": {"coordinates": [-75.411059729, 38.393500213], "type": "Point"}, "id": "GPFcz6sRcjDRN5Vz2gZA_TDw000=", "properties": {"@source_uri": "https://tools.usps.com/UspsToolsRestServices/rest/POLocator/findLocations", "@spider": "usps_collection_boxes", "addr:city": "PITTSVILLE", "addr:country": "US", "addr:full": "7390 PINE ST", "addr:postcode": "21850", "addr:state": "MD", "amenity": "post_box", "brand": "United States Postal Service", "brand:wikidata": "Q668687", "collection_times": "Mo-Fr 16:00; Sa 11:00", "indoor": "yes", "note": "ON 12/24 AND 12/31, THIS BOX MAY BE COLLECTED AS EARLY AS 12 NOON.", "nsi_id": "unitedstatespostalservice-a77078", "operator": "United States Postal Service", "operator:short": "USPS", "operator:type": "public", "operator:wikidata": "Q668687", "ref": "2185000003"}, "type": "Feature"}
{"geometry": {"coordinates": [-75.567463818, 38.074700345], "type": "Point"}, "id": "p1rHr8-GmuaBB0kaYPmI-O22JJI=", "properties": {"@source_uri": "https://tools.usps.com/UspsToolsRestServices/rest/POLocator/findLocations", "@spider": "usps_collection_boxes", "addr:city": "POCOMOKE CITY", "addr:country": "US", "addr:full": "207 MARKET ST", "addr:postcode": "21851", "addr:state": "MD", "amenity": "post_box", "brand": "United States Postal Service", "brand:wikidata": "Q668687", "collection_times": "Mo-Fr 17:00; Sa 15:00", "note": "ON 12/24 AND 12/31, THIS BOX MAY BE COLLECTED AS EARLY AS 12 NOON.", "nsi_id": "unitedstatespostalservice-a77078", "operator": "United States Postal Service", "operator:short": "USPS", "operator:type": "public", "operator:wikidata": "Q668687", "ref": "2185100001"}, "type": "Feature"}
{"geometry": {"coordinates": [-75.5609539, 38.07572], "type": "Point"}, "id": "X6QnOwZ7s2U92x10do6FFhjYgKs=", "properties": {"@source_uri": "https://tools.usps.com/UspsToolsRestServices/rest/POLocator/findLocations", "@spider": "usps_collection_boxes", "addr:city": "POCOMOKE CITY", "addr:country": "US", "addr:full": "509 LINDEN AVE", "addr:postcode": "21851", "addr:state": "MD", "amenity": "post_box", "brand": "United States Postal Service", "brand:wikidata": "Q668687", "collection_times": "Mo-Sa 09:00", "nsi_id": "unitedstatespostalservice-a77078", "operator": "United States Postal Service", "operator:short": "USPS", "operator:type": "public", "operator:wikidata": "Q668687", "ref": "2185100004"}, "type": "Feature"}
{"geometry": {"coordinates": [-75.547903979, 38.0626319852], "type": "Point"}, "id": "8RgwYdpC8KTLGOrNODeH-xSLGbA=", "properties": {"@source_uri": "https://tools.usps.com/UspsToolsRestServices/rest/POLocator/findLocations", "@spider": "usps_collection_boxes", "addr:city": "POCOMOKE CITY", "addr:country": "US", "addr:full": "1701 MARKET ST", "addr:postcode": "21851", "addr:state": "MD", "amenity": "post_box", "brand": "United States Postal Service", "brand:wikidata": "Q668687", "collection_times": "Mo-Sa 09:00", "nsi_id": "unitedstatespostalservice-a77078", "operator": "United States Postal Service", "operator:short": "USPS", "operator:type": "public", "operator:wikidata": "Q668687", "ref": "2185100006"}, "type": "Feature"}
{"geometry": {"coordinates": [-75.5677231, 38.075425], "type": "Point"}, "id": "t5zKNAwcbhyqBvGXNra8QhdH0co=", "properties": {"@source_uri": "https://tools.usps.com/UspsToolsRestServices/rest/POLocator/findLocations", "@spider": "usps_collection_boxes", "addr:city": "POCOMOKE CITY", "addr:country": "US", "addr:full": "153 MARKET ST", "addr:postcode": "21851", "addr:state": "MD", "amenity": "post_box", "brand": "United States Postal Service", "brand:wikidata": "Q668687", "collection_times": "Mo-Fr 16:45; Sa 12:45", "note": "ON 12/24 AND 12/31, THIS BOX MAY BE COLLECTED AS EARLY AS 12 NOON.", "nsi_id": "unitedstatespostalservice-a77078", "operator": "United States Postal Service", "operator:short": "USPS", "operator:type": "public", "operator:wikidata": "Q668687", "ref": "2185100016"}, "type": "Feature"}
{"geometry": {"coordinates": [-75.5538231, 38.073527], "type": "Point"}, "id": "UHEKGMZnHaGrfffue4Yh4zkjYF0=", "properties": {"@source_uri": "https://tools.usps.com/UspsToolsRestServices/rest/POLocator/findLocations", "@spider": "usps_collection_boxes", "addr:city": "POCOMOKE CITY", "addr:country": "US", "addr:full": "2146 OLD SNOW HILL RD", "addr:postcode": "21851", "addr:state": "MD", "amenity": "post_box", "brand": "United States Postal Service", "brand:wikidata": "Q668687", "collection_times": "Mo-Sa 09:30", "nsi_id": "unitedstatespostalservice-a77078", "operator": "United States Postal Service", "operator:short": "USPS", "operator:type": "public", "operator:wikidata": "Q668687", "ref": "2185100017"}, "type": "Feature"}
{"geometry": {"coordinates": [-75.567463818, 38.074700345], "type": "Point"}, "id": "V22_QlZ4sF_XGH03aB4qNJEV6sY=", "properties": {"@source_uri": "https://tools.usps.com/UspsToolsRestServices/rest/POLocator/findLocations", "@spider": "usps_collection_boxes", "addr:city": "POCOMOKE CITY", "addr:country": "US", "addr:full": "207 MARKET ST", "addr:postcode": "21851", "addr:state": "MD", "amenity": "post_box", "brand": "United States Postal Service", "brand:wikidata": "Q668687", "collection_times": "Mo-Fr 16:45; Sa 15:00", "indoor": "yes", "note": "ON 12/24 AND 12/31, THIS BOX MAY BE COLLECTED AS EARLY AS 12 NOON.", "nsi_id": "unitedstatespostalservice-a77078", "operator": "United States Postal Service", "operator:short": "USPS", "operator:type": "public", "operator:wikidata": "Q668687", "ref": "2185100018"}, "type": "Feature"}
{"geometry": {"coordinates": [-75.567463818, 38.074700345], "type": "Point"}, "id": "mOLKEp_FDCNqp4eSG_eiLmVvHwQ=", "properties": {"@source_uri": "https://tools.usps.com/UspsToolsRestServices/rest/POLocator/findLocations", "@spider": "usps_collection_boxes", "addr:city": "POCOMOKE CITY", "addr:country": "US", "addr:full": "207 MARKET ST", "addr:postcode": "21851", "addr:state": "MD", "amenity": "post_box", "brand": "United States Postal Service", "brand:wikidata": "Q668687", "collection_times": "Mo-Fr 16:45; Sa 15:00", "indoor": "yes", "note": "ON 12/24 AND 12/31, THIS BOX MAY BE COLLECTED AS EARLY AS 12 NOON.", "nsi_id": "unitedstatespostalservice-a77078", "operator": "United States Postal Service", "operator:short": "USPS", "operator:type": "public", "operator:wikidata": "Q668687", "ref": "2185100019"}, "type": "Feature"}
{"geometry": {"coordinates": [-75.567463818, 38.074700345], "type": "Point"}, "id": "KO0tv5xy9xDqdnac9mhmzu173l4=", "properties": {"@source_uri": "https://tools.usps.com/UspsToolsRestServices/rest/POLocator/findLocations", "@spider": "usps_collection_boxes", "addr:city": "POCOMOKE CITY", "addr:country": "US", "addr:full": "207 MARKET ST", "addr:postcode": "21851", "addr:state": "MD", "amenity": "post_box", "brand": "United States Postal Service", "brand:wikidata": "Q668687", "collection_times": "Mo-Fr 17:00; Sa 12:00", "indoor": "yes", "note": "ON 12/24 AND 12/31, THIS BOX MAY BE COLLECTED AS EARLY AS 12 NOON.", "nsi_id": "unitedstatespostalservice-a77078", "operator": "United States Postal Service", "operator:short": "USPS", "operator:type": "public", "operator:wikidata": "Q668687", "ref": "2185100021"}, "type": "Feature"}
{"geometry": {"coordinates": [-75.692701736, 38.202253429], "type": "Point"}, "id": "swzLKZr3ERwPyjB_jnIKScn3Jbw=", "properties": {"@source_uri": "https://tools.usps.com/UspsToolsRestServices/rest/POLocator/findLocations", "@spider": "usps_collection_boxes", "addr:city": "PRINCESS ANNE", "addr:country": "US", "addr:full": "11690 SOMERSET AVE", "addr:postcode": "21853", "addr:state": "MD", "amenity": "post_box", "brand": "United States Postal Service", "brand:wikidata": "Q668687", "collection_times": "Mo-Fr 17:15; Sa 13:15", "note": "ON 12/24 AND 12/31, THIS BOX MAY BE COLLECTED AS EARLY AS 12 NOON.", "nsi_id": "unitedstatespostalservice-a77078", "operator": "United States Postal Service", "operator:short": "USPS", "operator:type": "public", "operator:wikidata": "Q668687", "ref": "2185300000"}, "type": "Feature"}
{"geometry": {"coordinates": [-75.6937721, 38.204888], "type": "Point"}, "id": "hhDwx11dBdguML3DrZlqd3_4Gyc=", "properties": {"@source_uri": "https://tools.usps.com/UspsToolsRestServices/rest/POLocator/findLocations", "@spider": "usps_collection_boxes", "addr:city": "PRINCESS ANNE", "addr:country": "US", "addr:full": "11794 SOMERSET AVE", "addr:postcode": "21853", "addr:state": "MD", "amenity": "post_box", "brand": "United States Postal Service", "brand:wikidata": "Q668687", "collection_times": "Mo-Sa 09:00", "nsi_id": "unitedstatespostalservice-a77078", "operator": "United States Postal Service", "operator:short": "USPS", "operator:type": "public", "operator:wikidata": "Q668687", "ref": "2185300001"}, "type": "Feature"}
{"geometry": {"coordinates": [-75.6923890461, 38.2043832429], "type": "Point"}, "id": "Ki907OY_HtFQpFGIZLjg6qct3eM=", "properties": {"@source_uri": "https://tools.usps.com/UspsToolsRestServices/rest/POLocator/findLocations", "@spider": "usps_collection_boxes", "addr:city": "PRINCESS ANNE", "addr:country": "US", "addr:full": "11767 BEECHWOOD ST", "addr:postcode": "21853", "addr:state": "MD", "amenity": "post_box", "brand": "United States Postal Service", "brand:wikidata": "Q668687", "collection_times": "Mo-Sa 09:00", "nsi_id": "unitedstatespostalservice-a77078", "operator": "United States Postal Service", "operator:short": "USPS", "operator:type": "public", "operator:wikidata": "Q668687", "ref": "2185300002"}, "type": "Feature"}
{"geometry": {"coordinates": [-75.6942621, 38.20406], "type": "Point"}, "id": "to3iPRgZgJTyGqMfn7FbOnIZvGw=", "properties": {"@source_uri": "https://tools.usps.com/UspsToolsRestServices/rest/POLocator/findLocations", "@spider": "usps_collection_boxes", "addr:city": "PRINCESS ANNE", "addr:country": "US", "addr:full": "30500 PRINCE WILLIAM ST", "addr:postcode": "21853", "addr:state": "MD", "amenity": "post_box", "brand": "United States Postal Service", "brand:wikidata": "Q668687", "collection_times": "Mo-Sa 09:00", "nsi_id": "unitedstatespostalservice-a77078", "operator": "United States Postal Service", "operator:short": "USPS", "operator:type": "public", "operator:wikidata": "Q668687", "ref": "2185300003"}, "type": "Feature"}
{"geometry": {"coordinates": [-75.6953554, 38.208526], "type": "Point"}, "id": "B4s7qf0UC5dfg-e4ctGU80dQfz4=", "properties": {"@source_uri": "https://tools.usps.com/UspsToolsRestServices/rest/POLocator/findLocations", "@spider": "usps_collection_boxes", "addr:city": "PRINCESS ANNE", "addr:country": "US", "addr:full": "11916 SOMERSET AVE", "addr:postcode": "21853", "addr:state": "MD", "amenity": "post_box", "brand": "United States Postal Service", "brand:wikidata": "Q668687", "collection_times": "Mo-Sa 09:00", "nsi_id": "unitedstatespostalservice-a77078", "operator": "United States Postal Service", "operator:short": "USPS", "operator:type": "public", "operator:wikidata": "Q668687", "ref": "2185300008"}, "type": "Feature"}
{"geometry": {"coordinates": [-75.692701736, 38.202253429], "type": "Point"}, "id": "GotD0zocLLLI0LIjZ5TGlOfgI3o=", "properties": {"@source_uri": "https://tools.usps.com/UspsToolsRestServices/rest/POLocator/findLocations", "@spider": "usps_collection_boxes", "addr:city": "PRINCESS ANNE", "addr:country": "US", "addr:full": "11690 SOMERSET AVE", "addr:postcode": "21853", "addr:state": "MD", "amenity": "post_box", "brand": "United States Postal Service", "brand:wikidata": "Q668687", "collection_times": "Mo-Fr 17:15; Sa 13:15", "indoor": "yes", "note": "ON 12/24 AND 12/31, THIS BOX MAY BE COLLECTED AS EARLY AS 12 NOON.", "nsi_id": "unitedstatespostalservice-a77078", "operator": "United States Postal Service", "operator:short": "USPS", "operator:type": "public", "operator:wikidata": "Q668687", "ref": "2185300011"}, "type": "Feature"}
{"geometry": {"coordinates": [-75.692701736, 38.202253429], "type": "Point"}, "id": "i7aMrLyj3oHC4Bv7S063oxj_Pjg=", "properties": {"@source_uri": "https://tools.usps.com/UspsToolsRestServices/rest/POLocator/findLocations", "@spider": "usps_collection_boxes", "addr:city": "PRINCESS ANNE", "addr:country": "US", "addr:full": "11690 SOMERSET AVE", "addr:postcode": "21853", "addr:state": "MD", "amenity": "post_box", "brand": "United States Postal Service", "brand:wikidata": "Q668687", "collection_times": "Mo-Fr 17:15; Sa 13:15", "indoor": "yes", "note": "ON 12/24 AND 12/31, THIS BOX MAY BE COLLECTED AS EARLY AS 12 NOON.", "nsi_id": "unitedstatespostalservice-a77078", "operator": "United States Postal Service", "operator:short": "USPS", "operator:type": "public", "operator:wikidata": "Q668687", "ref": "2185300012"}, "type": "Feature"}
{"geometry": {"coordinates": [-75.692701736, 38.202253429], "type": "Point"}, "id": "8byIIjcn6v1hl6IjO4Prv3GLauc=", "properties": {"@source_uri": "https://tools.usps.com/UspsToolsRestServices/rest/POLocator/findLocations", "@spider": "usps_collection_boxes", "addr:city": "PRINCESS ANNE", "addr:country": "US", "addr:full": "11690 SOMERSET AVE", "addr:postcode": "21853", "addr:state": "MD", "amenity": "post_box", "brand": "United States Postal Service", "brand:wikidata": "Q668687", "collection_times": "Mo-Fr 17:00; Sa 12:00", "indoor": "yes", "note": "ON 12/24 AND 12/31, THIS BOX MAY BE COLLECTED AS EARLY AS 12 NOON.", "nsi_id": "unitedstatespostalservice-a77078", "operator": "United States Postal Service", "operator:short": "USPS", "operator:type": "public", "operator:wikidata": "Q668687", "ref": "2185300018"}, "type": "Feature"}
{"geometry": {"coordinates": [-75.743235453, 38.374278344], "type": "Point"}, "id": "jowFiTG7UEdgsyT5xRcuPSZ6XW8=", "properties": {"@source_uri": "https://tools.usps.com/UspsToolsRestServices/rest/POLocator/findLocations", "@spider": "usps_collection_boxes", "addr:city": "QUANTICO", "addr:country": "US", "addr:full": "6300 CHERRY WALK RD", "addr:postcode": "21856", "addr:state": "MD", "amenity": "post_box", "brand": "United States Postal Service", "brand:wikidata": "Q668687", "collection_times": "Mo-Fr 16:00; Sa 11:00", "note": "ON 12/24 AND 12/31, THIS BOX MAY BE COLLECTED AS EARLY AS 12 NOON.", "nsi_id": "unitedstatespostalservice-a77078", "operator": "United States Postal Service", "operator:short": "USPS", "operator:type": "public", "operator:wikidata": "Q668687", "ref": "2185600000"}, "type": "Feature"}
{"geometry": {"coordinates": [-75.743235453, 38.374278344], "type": "Point"}, "id": "PBI430U8d-V3gcvBmnhMD1tesT0=", "properties": {"@source_uri": "https://tools.usps.com/UspsToolsRestServices/rest/POLocator/findLocations", "@spider": "usps_collection_boxes", "addr:city": "QUANTICO", "addr:country": "US", "addr:full": "6300 CHERRY WALK RD", "addr:postcode": "21856", "addr:state": "MD", "amenity": "post_box", "brand": "United States Postal Service", "brand:wikidata": "Q668687", "collection_times": "Mo-Fr 14:00; Sa 11:00", "indoor": "yes", "note": "ON 12/24 AND 12/31, THIS BOX MAY BE COLLECTED AS EARLY AS 12 NOON.", "nsi_id": "unitedstatespostalservice-a77078", "operator": "United States Postal Service", "operator:short": "USPS", "operator:type": "public", "operator:wikidata": "Q668687", "ref": "2185600001"}, "type": "Feature"}
{"geometry": {"coordinates": [-75.743235453, 38.374278344], "type": "Point"}, "id": "YtvH2tA-TubBOzr4HCDYqyhPbpM=", "properties": {"@source_uri": "https://tools.usps.com/UspsToolsRestServices/rest/POLocator/findLocations", "@spider": "usps_collection_boxes", "addr:city": "QUANTICO", "addr:country": "US", "addr:full": "6300 CHERRY WALK RD", "addr:postcode": "21856", "addr:state": "MD", "amenity": "post_box", "brand": "United States Postal Service", "brand:wikidata": "Q668687", "collection_times": "Mo-Fr 14:00; Sa 11:00", "indoor": "yes", "note": "ON 12/24 AND 12/31, THIS BOX MAY BE COLLECTED AS EARLY AS 12 NOON.", "nsi_id": "unitedstatespostalservice-a77078", "operator": "United States Postal Service", "operator:short": "USPS", "operator:type": "public", "operator:wikidata": "Q668687", "ref": "2185600002"}, "type": "Feature"}
{"geometry": {"coordinates": [-75.743235453, 38.374278344], "type": "Point"}, "id": "Kalsidq7iLgw7hIJxRD7R-l5VlE=", "properties": {"@source_uri": "https://tools.usps.com/UspsToolsRestServices/rest/POLocator/findLocations", "@spider": "usps_collection_boxes", "addr:city": "QUANTICO", "addr:country": "US", "addr:full": "6300 CHERRY WALK RD", "addr:postcode": "21856", "addr:state": "MD", "amenity": "post_box", "brand": "United States Postal Service", "brand:wikidata": "Q668687", "collection_times": "Mo-Fr 16:00; Sa 11:15", "indoor": "yes", "note": "ON 12/24 AND 12/31, THIS BOX MAY BE COLLECTED AS EARLY AS 12 NOON.", "nsi_id": "unitedstatespostalservice-a77078", "operator": "United States Postal Service", "operator:short": "USPS", "operator:type": "public", "operator:wikidata": "Q668687", "ref": "2185600004"}, "type": "Feature"}
{"geometry": {"coordinates": [-75.715834, 38.541133], "type": "Point"}, "id": "iL0qdZRM-0EO1dbqx9ffrV47s6k=", "properties": {"@source_uri": "https://tools.usps.com/UspsToolsRestServices/rest/POLocator/findLocations", "@spider": "usps_collection_boxes", "addr:city": "SHARPTOWN", "addr:country": "US", "addr:full": "103 4TH ST", "addr:postcode": "21861", "addr:state": "MD", "amenity": "post_box", "brand": "United States Postal Service", "brand:wikidata": "Q668687", "collection_times": "Mo-Fr 16:00; Sa 11:00", "note": "ON 12/24 AND 12/31, THIS BOX MAY BE COLLECTED AS EARLY AS 12 NOON.", "nsi_id": "unitedstatespostalservice-a77078", "operator": "United States Postal Service", "operator:short": "USPS", "operator:type": "public", "operator:wikidata": "Q668687", "ref": "2186100000"}, "type": "Feature"}
{"geometry": {"coordinates": [-75.715834, 38.541133], "type": "Point"}, "id": "Zj3cg0-rL657IdsR6LL1LYHlJD4=", "properties": {"@source_uri": "https://tools.usps.com/UspsToolsRestServices/rest/POLocator/findLocations", "@spider": "usps_collection_boxes", "addr:city": "SHARPTOWN", "addr:country": "US", "addr:full": "103 4TH ST", "addr:postcode": "21861", "addr:state": "MD", "amenity": "post_box", "brand": "United States Postal Service", "brand:wikidata": "Q668687", "collection_times": "Mo-Fr 16:00; Sa 11:00", "indoor": "yes", "note": "ON 12/24 AND 12/31, THIS BOX MAY BE COLLECTED AS EARLY AS 12 NOON.", "nsi_id": "unitedstatespostalservice-a77078", "operator": "United States Postal Service", "operator:short": "USPS", "operator:type": "public", "operator:wikidata": "Q668687", "ref": "2186100001"}, "type": "Feature"}
{"geometry": {"coordinates": [-75.715834, 38.541133], "type": "Point"}, "id": "6yIatX3le02TrUHVxQjsZQswXbc=", "properties": {"@source_uri": "https://tools.usps.com/UspsToolsRestServices/rest/POLocator/findLocations", "@spider": "usps_collection_boxes", "addr:city": "SHARPTOWN", "addr:country": "US", "addr:full": "103 4TH ST", "addr:postcode": "21861", "addr:state": "MD", "amenity": "post_box", "brand": "United States Postal Service", "brand:wikidata": "Q668687", "collection_times": "Mo-Fr 16:00; Sa 11:00", "indoor": "yes", "note": "ON 12/24 AND 12/31, THIS BOX MAY BE COLLECTED AS EARLY AS 12 NOON.", "nsi_id": "unitedstatespostalservice-a77078", "operator": "United States Postal Service", "operator:short": "USPS", "operator:type": "public", "operator:wikidata": "Q668687", "ref": "2186100002"}, "type": "Feature"}
{"geometry": {"coordinates": [-75.718603499, 38.540107531], "type": "Point"}, "id": "3Jm7Kd_woxLFUcyD__Oz6KwLskY=", "properties": {"@source_uri": "https://tools.usps.com/UspsToolsRestServices/rest/POLocator/findLocations", "@spider": "usps_collection_boxes", "addr:city": "SHARPTOWN", "addr:country": "US", "addr:full": "403 4TH ST", "addr:postcode": "21861", "addr:state": "MD", "amenity": "post_box", "brand": "United States Postal Service", "brand:wikidata": "Q668687", "collection_times": "Mo-Fr 16:00; Sa 11:00", "indoor": "yes", "note": "ON 12/24 AND 12/31, THIS BOX MAY BE COLLECTED AS EARLY AS 12 NOON.", "nsi_id": "unitedstatespostalservice-a77078", "operator": "United States Postal Service", "operator:short": "USPS", "operator:type": "public", "operator:wikidata": "Q668687", "ref": "2186100005"}, "type": "Feature"}
{"geometry": {"coordinates": [-75.393768648, 38.17818572], "type": "Point"}, "id": "5P0BEVRMoYqbfq-wiX_mlMmzpVQ=", "properties": {"@source_uri": "https://tools.usps.com/UspsToolsRestServices/rest/POLocator/findLocations", "@spider": "usps_collection_boxes", "addr:city": "SNOW HILL", "addr:country": "US", "addr:full": "306 N WASHINGTON ST", "addr:postcode": "21863", "addr:state": "MD", "amenity": "post_box", "brand": "United States Postal Service", "brand:wikidata": "Q668687", "collection_times": "Mo-Fr 17:00; Sa 15:00", "note": "ON 12/24 AND 12/31, THIS BOX MAY BE COLLECTED AS EARLY AS 12 NOON.", "nsi_id": "unitedstatespostalservice-a77078", "operator": "United States Postal Service", "operator:short": "USPS", "operator:type": "public", "operator:wikidata": "Q668687", "ref": "2186300000"}, "type": "Feature"}
{"geometry": {"coordinates": [-75.3935457, 38.176996], "type": "Point"}, "id": "eh05_qPntrkee6QmDT8B4UVaeVc=", "properties": {"@source_uri": "https://tools.usps.com/UspsToolsRestServices/rest/POLocator/findLocations", "@spider": "usps_collection_boxes", "addr:city": "SNOW HILL", "addr:country": "US", "addr:full": "107 PEARL ST", "addr:postcode": "21863", "addr:state": "MD", "amenity": "post_box", "brand": "United States Postal Service", "brand:wikidata": "Q668687", "collection_times": "Mo-Fr 12:15; Sa 14:30", "note": "ON 12/24 AND 12/31, THIS BOX MAY BE COLLECTED AS EARLY AS 12 NOON.", "nsi_id": "unitedstatespostalservice-a77078", "operator": "United States Postal Service", "operator:short": "USPS", "operator:type": "public", "operator:wikidata": "Q668687", "ref": "2186300003"}, "type": "Feature"}
{"geometry": {"coordinates": [-75.393768648, 38.17818572], "type": "Point"}, "id": "utCCmGlnHuDLWnwaSwaKB3DpTAk=", "properties": {"@source_uri": "https://tools.usps.com/UspsToolsRestServices/rest/POLocator/findLocations", "@spider": "usps_collection_boxes", "addr:city": "SNOW HILL", "addr:country": "US", "addr:full": "306 N WASHINGTON ST", "addr:postcode": "21863", "addr:state": "MD", "amenity": "post_box", "brand": "United States Postal Service", "brand:wikidata": "Q668687", "collection_times": "Mo-Fr 17:00; Sa 12:00", "indoor": "yes", "note": "ON 12/24 AND 12/31, THIS BOX MAY BE COLLECTED AS EARLY AS 12 NOON.", "nsi_id": "unitedstatespostalservice-a77078", "operator": "United States Postal Service", "operator:short": "USPS", "operator:type": "public", "operator:wikidata": "Q668687", "ref": "2186300007"}, "type": "Feature"}
{"geometry": {"coordinates": [-75.393768648, 38.17818572], "type": "Point"}, "id": "PNwKAjTLUH_xUWbro7c-afgCsa8=", "properties": {"@source_uri": "https://tools.usps.com/UspsToolsRestServices/rest/POLocator/findLocations", "@spider": "usps_collection_boxes", "addr:city": "SNOW HILL", "addr:country": "US", "addr:full": "306 N WASHINGTON ST", "addr:postcode": "21863", "addr:state": "MD", "amenity": "post_box", "brand": "United States Postal Service", "brand:wikidata": "Q668687", "collection_times": "Mo-Fr 16:30; Sa 12:00", "indoor": "yes", "note": "ON 12/24 AND 12/31, THIS BOX MAY BE COLLECTED AS EARLY AS 12 NOON.", "nsi_id": "unitedstatespostalservice-a77078", "operator": "United States Postal Service", "operator:short": "USPS", "operator:type": "public", "operator:wikidata": "Q668687", "ref": "2186300010"}, "type": "Feature"}
{"geometry": {"coordinates": [-75.874365711, 38.324998613], "type": "Point"}, "id": "O7mbSUwSvd7trewYSzDrBykisl8=", "properties": {"@source_uri": "https://tools.usps.com/UspsToolsRestServices/rest/POLocator/findLocations", "@spider": "usps_collection_boxes", "addr:city": "TYASKIN", "addr:country": "US", "addr:full": "4693 TYASKIN RD", "addr:postcode": "21865", "addr:state": "MD", "amenity": "post_box", "brand": "United States Postal Service", "brand:wikidata": "Q668687", "collection_times": "Mo-Fr 16:00; Sa 09:30", "note": "ON 12/24 AND 12/31, THIS BOX MAY BE COLLECTED AS EARLY AS 12 NOON.", "nsi_id": "unitedstatespostalservice-a77078", "operator": "United States Postal Service", "operator:short": "USPS", "operator:type": "public", "operator:wikidata": "Q668687", "ref": "2186500000"}, "type": "Feature"}
{"geometry": {"coordinates": [-75.874365711, 38.324998613], "type": "Point"}, "id": "JRE4Yewa7zWJPjvM4GiZyogeJGM=", "properties": {"@source_uri": "https://tools.usps.com/UspsToolsRestServices/rest/POLocator/findLocations", "@spider": "usps_collection_boxes", "addr:city": "TYASKIN", "addr:country": "US", "addr:full": "4693 TYASKIN RD", "addr:postcode": "21865", "addr:state": "MD", "amenity": "post_box", "brand": "United States Postal Service", "brand:wikidata": "Q668687", "collection_times": "Mo-Fr 16:00; Sa 09:30", "indoor": "yes", "note": "ON 12/24 AND 12/31, THIS BOX MAY BE COLLECTED AS EARLY AS 12 NOON.", "nsi_id": "unitedstatespostalservice-a77078", "operator": "United States Postal Service", "operator:short": "USPS", "operator:type": "public", "operator:wikidata": "Q668687", "ref": "2186500001"}, "type": "Feature"}
{"geometry": {"coordinates": [-75.874365711, 38.324998613], "type": "Point"}, "id": "_dkbe26LUK-os87Tvad18l59K7M=", "properties": {"@source_uri": "https://tools.usps.com/UspsToolsRestServices/rest/POLocator/findLocations", "@spider": "usps_collection_boxes", "addr:city": "TYASKIN", "addr:country": "US", "addr:full": "4693 TYASKIN RD", "addr:postcode": "21865", "addr:state": "MD", "amenity": "post_box", "brand": "United States Postal Service", "brand:wikidata": "Q668687", "collection_times": "Mo-Fr 16:30", "indoor": "yes", "note": "ON 12/24 AND 12/31, THIS BOX MAY BE COLLECTED AS EARLY AS 12 NOON.", "nsi_id": "unitedstatespostalservice-a77078", "operator": "United States Postal Service", "operator:short": "USPS", "operator:type": "public", "operator:wikidata": "Q668687", "ref": "2186500004"}, "type": "Feature"}
{"geometry": {"coordinates": [-76.023121845, 37.968354769], "type": "Point"}, "id": "N7IokOsppWk7sGF6jwIZO_PTDbU=", "properties": {"@source_uri": "https://tools.usps.com/UspsToolsRestServices/rest/POLocator/findLocations", "@spider": "usps_collection_boxes", "addr:city": "TYLERTON", "addr:country": "US", "addr:full": "3071 UNION CHURCH RD", "addr:postcode": "21866", "addr:state": "MD", "amenity": "post_box", "brand": "United States Postal Service", "brand:wikidata": "Q668687", "collection_times": "Mo-Sa 15:30", "indoor": "yes", "note": "ON 12/24 AND 12/31, THIS BOX MAY BE COLLECTED AS EARLY AS 12 NOON.", "nsi_id": "unitedstatespostalservice-a77078", "operator": "United States Postal Service", "operator:short": "USPS", "operator:type": "public", "operator:wikidata": "Q668687", "ref": "2186600002"}, "type": "Feature"}
{"geometry": {"coordinates": [-75.7860798225, 38.1036389403], "type": "Point"}, "id": "SwZvnggRlWPyVUXU-KH-iuGMDFU=", "properties": {"@source_uri": "https://tools.usps.com/UspsToolsRestServices/rest/POLocator/findLocations", "@spider": "usps_collection_boxes", "addr:city": "UPPER FAIRMOUNT", "addr:country": "US", "addr:full": "27741 FAIRMOUNT RD", "addr:postcode": "21867", "addr:state": "MD", "amenity": "post_box", "brand": "United States Postal Service", "brand:wikidata": "Q668687", "collection_times": "Mo-Fr 16:15; Sa 11:00", "note": "ON 12/24 AND 12/31, THIS BOX MAY BE COLLECTED AS EARLY AS 12 NOON.", "nsi_id": "unitedstatespostalservice-a77078", "operator": "United States Postal Service", "operator:short": "USPS", "operator:type": "public", "operator:wikidata": "Q668687", "ref": "2186700000"}, "type": "Feature"}
{"geometry": {"coordinates": [-75.7860798225, 38.1036389403], "type": "Point"}, "id": "1bewfQ7geUcL1rseMZxa6j2Ph78=", "properties": {"@source_uri": "https://tools.usps.com/UspsToolsRestServices/rest/POLocator/findLocations", "@spider": "usps_collection_boxes", "addr:city": "UPPER FAIRMOUNT", "addr:country": "US", "addr:full": "27741 FAIRMOUNT RD", "addr:postcode": "21867", "addr:state": "MD", "amenity": "post_box", "brand": "United States Postal Service", "brand:wikidata": "Q668687", "collection_times": "Mo-Fr 16:15; Sa 11:00", "indoor": "yes", "note": "ON 12/24 AND 12/31, THIS BOX MAY BE COLLECTED AS EARLY AS 12 NOON.", "nsi_id": "unitedstatespostalservice-a77078", "operator": "United States Postal Service", "operator:short": "USPS", "operator:type": "public", "operator:wikidata": "Q668687", "ref": "2186700001"}, "type": "Feature"}
{"geometry": {"coordinates": [-75.7921874392, 38.1047419289], "type": "Point"}, "id": "GpA1gf2I3MtsMv5N5w6zkI8XMxc=", "properties": {"@source_uri": "https://tools.usps.com/UspsToolsRestServices/rest/POLocator/findLocations", "@spider": "usps_collection_boxes", "addr:city": "UPPER FAIRMOUNT", "addr:country": "US", "addr:full": "27741 FAIRMOUNT RD", "addr:postcode": "21867", "addr:state": "MD", "amenity": "post_box", "brand": "United States Postal Service", "brand:wikidata": "Q668687", "collection_times": "Mo-Fr 16:30; Sa 11:45", "indoor": "yes", "note": "ON 12/24 AND 12/31, THIS BOX MAY BE COLLECTED AS EARLY AS 12 NOON.", "nsi_id": "unitedstatespostalservice-a77078", "operator": "United States Postal Service", "operator:short": "USPS", "operator:type": "public", "operator:wikidata": "Q668687", "ref": "2186700003"}, "type": "Feature"}
{"geometry": {"coordinates": [-75.82699342, 38.483915395], "type": "Point"}, "id": "v4CQquOughhzQmrkef_HLyFGJVQ=", "properties": {"@source_uri": "https://tools.usps.com/UspsToolsRestServices/rest/POLocator/findLocations", "@spider": "usps_collection_boxes", "addr:city": "VIENNA", "addr:country": "US", "addr:full": "121 MARKET ST", "addr:postcode": "21869", "addr:state": "MD", "amenity": "post_box", "brand": "United States Postal Service", "brand:wikidata": "Q668687", "collection_times": "Mo-Fr 15:45; Sa 11:30", "note": "ON 12/24 AND 12/31, THIS BOX MAY BE COLLECTED AS EARLY AS 12 NOON.", "nsi_id": "unitedstatespostalservice-a77078", "operator": "United States Postal Service", "operator:short": "USPS", "operator:type": "public", "operator:wikidata": "Q668687", "ref": "2186900000"}, "type": "Feature"}
{"geometry": {"coordinates": [-75.82699342, 38.483915395], "type": "Point"}, "id": "XGBknKrCB8Bru8tfHyL3VOH58e4=", "properties": {"@source_uri": "https://tools.usps.com/UspsToolsRestServices/rest/POLocator/findLocations", "@spider": "usps_collection_boxes", "addr:city": "VIENNA", "addr:country": "US", "addr:full": "121 MARKET ST", "addr:postcode": "21869", "addr:state": "MD", "amenity": "post_box", "brand": "United States Postal Service", "brand:wikidata": "Q668687", "collection_times": "Mo-Fr 15:45; Sa 11:45", "indoor": "yes", "note": "ON 12/24 AND 12/31, THIS BOX MAY BE COLLECTED AS EARLY AS 12 NOON.", "nsi_id": "unitedstatespostalservice-a77078", "operator": "United States Postal Service", "operator:short": "USPS", "operator:type": "public", "operator:wikidata": "Q668687", "ref": "2186900001"}, "type": "Feature"}
{"geometry": {"coordinates": [-75.82699342, 38.483915395], "type": "Point"}, "id": "pRfzMSWDNGq4swAVvf1lcmx7qA0=", "properties": {"@source_uri": "https://tools.usps.com/UspsToolsRestServices/rest/POLocator/findLocations", "@spider": "usps_collection_boxes", "addr:city": "VIENNA", "addr:country": "US", "addr:full": "121 MARKET ST", "addr:postcode": "21869", "addr:state": "MD", "amenity": "post_box", "brand": "United States Postal Service", "brand:wikidata": "Q668687", "collection_times": "Mo-Fr 15:45; Sa 11:45", "indoor": "yes", "note": "ON 12/24 AND 12/31, THIS BOX MAY BE COLLECTED AS EARLY AS 12 NOON.", "nsi_id": "unitedstatespostalservice-a77078", "operator": "United States Postal Service", "operator:short": "USPS", "operator:type": "public", "operator:wikidata": "Q668687", "ref": "2186900002"}, "type": "Feature"}
{"geometry": {"coordinates": [-75.82699342, 38.483915395], "type": "Point"}, "id": "l4Dnyg6c6LMLpHxF6NNs4A4Dax4=", "properties": {"@source_uri": "https://tools.usps.com/UspsToolsRestServices/rest/POLocator/findLocations", "@spider": "usps_collection_boxes", "addr:city": "VIENNA", "addr:country": "US", "addr:full": "121 MARKET ST", "addr:postcode": "21869", "addr:state": "MD", "amenity": "post_box", "brand": "United States Postal Service", "brand:wikidata": "Q668687", "collection_times": "Mo-Fr 16:00; Sa 12:00", "indoor": "yes", "note": "ON 12/24 AND 12/31, THIS BOX MAY BE COLLECTED AS EARLY AS 12 NOON.", "nsi_id": "unitedstatespostalservice-a77078", "operator": "United States Postal Service", "operator:short": "USPS", "operator:type": "public", "operator:wikidata": "Q668687", "ref": "2186900005"}, "type": "Feature"}
{"geometry": {"coordinates": [-75.705411259, 38.125822985], "type": "Point"}, "id": "0RjGxhUXcv2CoyZxH_3P6ti7BSY=", "properties": {"@source_uri": "https://tools.usps.com/UspsToolsRestServices/rest/POLocator/findLocations", "@spider": "usps_collection_boxes", "addr:city": "WESTOVER", "addr:country": "US", "addr:full": "8930 CRISFIELD HWY", "addr:postcode": "21871", "addr:state": "MD", "amenity": "post_box", "brand": "United States Postal Service", "brand:wikidata": "Q668687", "collection_times": "Mo-Fr 16:30; Sa 11:45", "note": "ON 12/24 AND 12/31, THIS BOX MAY BE COLLECTED AS EARLY AS 12 NOON.", "nsi_id": "unitedstatespostalservice-a77078", "operator": "United States Postal Service", "operator:short": "USPS", "operator:type": "public", "operator:wikidata": "Q668687", "ref": "2187100000"}, "type": "Feature"}
{"geometry": {"coordinates": [-75.705411259, 38.125822985], "type": "Point"}, "id": "WpOJDRTNRnGdgudQMskO89msOFU=", "properties": {"@source_uri": "https://tools.usps.com/UspsToolsRestServices/rest/POLocator/findLocations", "@spider": "usps_collection_boxes", "addr:city": "WESTOVER", "addr:country": "US", "addr:full": "8930 CRISFIELD HWY", "addr:postcode": "21871", "addr:state": "MD", "amenity": "post_box", "brand": "United States Postal Service", "brand:wikidata": "Q668687", "collection_times": "Mo-Fr 16:30; Sa 11:45", "indoor": "yes", "note": "ON 12/24 AND 12/31, THIS BOX MAY BE COLLECTED AS EARLY AS 12 NOON.", "nsi_id": "unitedstatespostalservice-a77078", "operator": "United States Postal Service", "operator:short": "USPS", "operator:type": "public", "operator:wikidata": "Q668687", "ref": "2187100002"}, "type": "Feature"}
{"geometry": {"coordinates": [-75.705411259, 38.125822985], "type": "Point"}, "id": "Ekicvuuki7lgcjMzjr9yYYD9Zac=", "properties": {"@source_uri": "https://tools.usps.com/UspsToolsRestServices/rest/POLocator/findLocations", "@spider": "usps_collection_boxes", "addr:city": "WESTOVER", "addr:country": "US", "addr:full": "8930 CRISFIELD HWY", "addr:postcode": "21871", "addr:state": "MD", "amenity": "post_box", "brand": "United States Postal Service", "brand:wikidata": "Q668687", "collection_times": "Mo-Fr 16:30; Sa 11:45", "indoor": "yes", "note": "ON 12/24 AND 12/31, THIS BOX MAY BE COLLECTED AS EARLY AS 12 NOON.", "nsi_id": "unitedstatespostalservice-a77078", "operator": "United States Postal Service", "operator:short": "USPS", "operator:type": "public", "operator:wikidata": "Q668687", "ref": "2187100003"}, "type": "Feature"}
{"geometry": {"coordinates": [-75.705411259, 38.125822985], "type": "Point"}, "id": "RQGV6X24PUZ5LxmGj3roaBRaxzo=", "properties": {"@source_uri": "https://tools.usps.com/UspsToolsRestServices/rest/POLocator/findLocations", "@spider": "usps_collection_boxes", "addr:city": "WESTOVER", "addr:country": "US", "addr:full": "8930 CRISFIELD HWY", "addr:postcode": "21871", "addr:state": "MD", "amenity": "post_box", "brand": "United States Postal Service", "brand:wikidata": "Q668687", "collection_times": "Mo-Fr 16:30; Sa 11:30", "indoor": "yes", "note": "ON 12/24 AND 12/31, THIS BOX MAY BE COLLECTED AS EARLY AS 12 NOON.", "nsi_id": "unitedstatespostalservice-a77078", "operator": "United States Postal Service", "operator:short": "USPS", "operator:type": "public", "operator:wikidata": "Q668687", "ref": "2187100005"}, "type": "Feature"}
{"geometry": {"coordinates": [-75.303516201, 38.400320086], "type": "Point"}, "id": "YmzjiCGe43jzzAhEFC-m176bfTc=", "properties": {"@source_uri": "https://tools.usps.com/UspsToolsRestServices/rest/POLocator/findLocations", "@spider": "usps_collection_boxes", "addr:city": "WHALEYVILLE", "addr:country": "US", "addr:full": "11721 SHEPPARDS CROSSING RD", "addr:postcode": "21872", "addr:state": "MD", "amenity": "post_box", "brand": "United States Postal Service", "brand:wikidata": "Q668687", "collection_times": "Mo-Fr 16:30; Sa 10:00", "note": "ON 12/24 AND 12/31, THIS BOX MAY BE COLLECTED AS EARLY AS 12 NOON.", "nsi_id": "unitedstatespostalservice-a77078", "operator": "United States Postal Service", "operator:short": "USPS", "operator:type": "public", "operator:wikidata": "Q668687", "ref": "2187200000"}, "type": "Feature"}
{"geometry": {"coordinates": [-75.303516201, 38.400320086], "type": "Point"}, "id": "CAW80icqsFKRyRLsAXBT3eMMSwA=", "properties": {"@source_uri": "https://tools.usps.com/UspsToolsRestServices/rest/POLocator/findLocations", "@spider": "usps_collection_boxes", "addr:city": "WHALEYVILLE", "addr:country": "US", "addr:full": "11721 SHEPPARDS CROSSING RD", "addr:postcode": "21872", "addr:state": "MD", "amenity": "post_box", "brand": "United States Postal Service", "brand:wikidata": "Q668687", "collection_times": "Mo-Fr 16:30; Sa 10:00", "indoor": "yes", "note": "ON 12/24 AND 12/31, THIS BOX MAY BE COLLECTED AS EARLY AS 12 NOON.", "nsi_id": "unitedstatespostalservice-a77078", "operator": "United States Postal Service", "operator:short": "USPS", "operator:type": "public", "operator:wikidata": "Q668687", "ref": "2187200001"}, "type": "Feature"}
{"geometry": {"coordinates": [-75.303516201, 38.400320086], "type": "Point"}, "id": "zX6wUypoMtnLaQyJf1ksw6lf4pg=", "properties": {"@source_uri": "https://tools.usps.com/UspsToolsRestServices/rest/POLocator/findLocations", "@spider": "usps_collection_boxes", "addr:city": "WHALEYVILLE", "addr:country": "US", "addr:full": "11721 SHEPPARDS CROSSING RD", "addr:postcode": "21872", "addr:state": "MD", "amenity": "post_box", "brand": "United States Postal Service", "brand:wikidata": "Q668687", "collection_times": "Mo-Fr 16:30; Sa 10:00", "indoor": "yes", "note": "ON 12/24 AND 12/31, THIS BOX MAY BE COLLECTED AS EARLY AS 12 NOON.", "nsi_id": "unitedstatespostalservice-a77078", "operator": "United States Postal Service", "operator:short": "USPS", "operator:type": "public", "operator:wikidata": "Q668687", "ref": "2187200002"}, "type": "Feature"}
{"geometry": {"coordinates": [-75.303516201, 38.400320086], "type": "Point"}, "id": "D5GNfqInsLnSrs4Ogwh8k6obwPo=", "properties": {"@source_uri": "https://tools.usps.com/UspsToolsRestServices/rest/POLocator/findLocations", "@spider": "usps_collection_boxes", "addr:city": "WHALEYVILLE", "addr:country": "US", "addr:full": "11721 SHEPPARDS CROSSING RD", "addr:postcode": "21872", "addr:state": "MD", "amenity": "post_box", "brand": "United States Postal Service", "brand:wikidata": "Q668687", "collection_times": "Mo-Fr 16:30; Sa 11:00", "indoor": "yes", "note": "ON 12/24 AND 12/31, THIS BOX MAY BE COLLECTED AS EARLY AS 12 NOON.", "nsi_id": "unitedstatespostalservice-a77078", "operator": "United States Postal Service", "operator:short": "USPS", "operator:type": "public", "operator:wikidata": "Q668687", "ref": "2187200004"}, "type": "Feature"}
{"geometry": {"coordinates": [-75.3519825, 38.395775517], "type": "Point"}, "id": "jTwR2Y1g9YtolqNWALb0EmDgyos=", "properties": {"@source_uri": "https://tools.usps.com/UspsToolsRestServices/rest/POLocator/findLocations", "@spider": "usps_collection_boxes", "addr:city": "WILLARDS", "addr:country": "US", "addr:full": "36311 RICHLAND RD", "addr:postcode": "21874", "addr:state": "MD", "amenity": "post_box", "brand": "United States Postal Service", "brand:wikidata": "Q668687", "collection_times": "Mo-Fr 16:00; Sa 11:00", "note": "ON 12/24 AND 12/31, THIS BOX MAY BE COLLECTED AS EARLY AS 12 NOON.", "nsi_id": "unitedstatespostalservice-a77078", "operator": "United States Postal Service", "operator:short": "USPS", "operator:type": "public", "operator:wikidata": "Q668687", "ref": "2187400000"}, "type": "Feature"}
{"geometry": {"coordinates": [-75.3519825, 38.395775517], "type": "Point"}, "id": "U9TTinAVfJQaSrr5DKoWxq-EHjw=", "properties": {"@source_uri": "https://tools.usps.com/UspsToolsRestServices/rest/POLocator/findLocations", "@spider": "usps_collection_boxes", "addr:city": "WILLARDS", "addr:country": "US", "addr:full": "36311 RICHLAND RD", "addr:postcode": "21874", "addr:state": "MD", "amenity": "post_box", "brand": "United States Postal Service", "brand:wikidata": "Q668687", "collection_times": "Mo-Fr 16:30; Sa 11:30", "indoor": "yes", "note": "ON 12/24 AND 12/31, THIS BOX MAY BE COLLECTED AS EARLY AS 12 NOON.", "nsi_id": "unitedstatespostalservice-a77078", "operator": "United States Postal Service", "operator:short": "USPS", "operator:type": "public", "operator:wikidata": "Q668687", "ref": "2187400001"}, "type": "Feature"}
{"geometry": {"coordinates": [-75.3519825, 38.395775517], "type": "Point"}, "id": "i8WkIxArO5xUdCScDE_VQ14UZDw=", "properties": {"@source_uri": "https://tools.usps.com/UspsToolsRestServices/rest/POLocator/findLocations", "@spider": "usps_collection_boxes", "addr:city": "WILLARDS", "addr:country": "US", "addr:full": "36311 RICHLAND RD", "addr:postcode": "21874", "addr:state": "MD", "amenity": "post_box", "brand": "United States Postal Service", "brand:wikidata": "Q668687", "collection_times": "Mo-Fr 16:30; Sa 11:30", "indoor": "yes", "note": "ON 12/24 AND 12/31, THIS BOX MAY BE COLLECTED AS EARLY AS 12 NOON.", "nsi_id": "unitedstatespostalservice-a77078", "operator": "United States Postal Service", "operator:short": "USPS", "operator:type": "public", "operator:wikidata": "Q668687", "ref": "2187400002"}, "type": "Feature"}
{"geometry": {"coordinates": [-75.3519825, 38.395775517], "type": "Point"}, "id": "PnHFbRinf1IspuMGzuO4XfDrk0M=", "properties": {"@source_uri": "https://tools.usps.com/UspsToolsRestServices/rest/POLocator/findLocations", "@spider": "usps_collection_boxes", "addr:city": "WILLARDS", "addr:country": "US", "addr:full": "36311 RICHLAND RD", "addr:postcode": "21874", "addr:state": "MD", "amenity": "post_box", "brand": "United States Postal Service", "brand:wikidata": "Q668687", "collection_times": "Mo-Fr 16:45; Sa 11:30", "indoor": "yes", "note": "ON 12/24 AND 12/31, THIS BOX MAY BE COLLECTED AS EARLY AS 12 NOON.", "nsi_id": "unitedstatespostalservice-a77078", "operator": "United States Postal Service", "operator:short": "USPS", "operator:type": "public", "operator:wikidata": "Q668687", "ref": "2187400004"}, "type": "Feature"}
