{"geometry": {"coordinates": [-75.9427815, 39.600497], "type": "Point"}, "id": "5S289yZhUFHD13O1FOrDcHKVBE8=", "properties": {"@source_uri": "https://tools.usps.com/UspsToolsRestServices/rest/POLocator/findLocations", "@spider": "usps_collection_boxes", "addr:city": "NORTHEAST", "addr:country": "US", "addr:postcode": "21901", "addr:state": "MD", "addr:street_address": "14 S MAIN ST", "amenity": "post_box", "collection_times": "Mo-Sa 09:00", "nsi_id": "unitedstatespostalservice-a77078", "operator": "United States Postal Service", "operator:short": "USPS", "operator:type": "public", "operator:wikidata": "Q668687", "ref": "2190100004"}, "type": "Feature"}
{"geometry": {"coordinates": [-75.941750202, 39.596224903], "type": "Point"}, "id": "vTuVaZ8DxQIf0PH59_FCv-XhPqQ=", "properties": {"@source_uri": "https://tools.usps.com/UspsToolsRestServices/rest/POLocator/findLocations", "@spider": "usps_collection_boxes", "addr:city": "NORTHEAST", "addr:country": "US", "addr:postcode": "21901", "addr:state": "MD", "addr:street_address": "406 S MAIN ST", "amenity": "post_box", "collection_times": "Mo-Fr 17:00; Sa 11:30", "note": "ON 12/24 AND 12/31, THIS BOX MAY BE COLLECTED AS EARLY AS 12 NOON.", "nsi_id": "unitedstatespostalservice-a77078", "operator": "United States Postal Service", "operator:short": "USPS", "operator:type": "public", "operator:wikidata": "Q668687", "ref": "2190100005"}, "type": "Feature"}
{"geometry": {"coordinates": [-75.9499641, 39.625335], "type": "Point"}, "id": "k9XZJw90njDYhOXt88sGJzkMf44=", "properties": {"@source_uri": "https://tools.usps.com/UspsToolsRestServices/rest/POLocator/findLocations", "@spider": "usps_collection_boxes", "addr:city": "NORTHEAST", "addr:country": "US", "addr:postcode": "21901", "addr:state": "MD", "addr:street_address": "1 CENTER DR", "amenity": "post_box", "collection_times": "Mo-Sa 09:00", "nsi_id": "unitedstatespostalservice-a77078", "operator": "United States Postal Service", "operator:short": "USPS", "operator:type": "public", "operator:wikidata": "Q668687", "ref": "2190100008"}, "type": "Feature"}
{"geometry": {"coordinates": [-75.941750202, 39.596224903], "type": "Point"}, "id": "R6f9SQ0holwipfF7DOwUfk_HJgA=", "properties": {"@source_uri": "https://tools.usps.com/UspsToolsRestServices/rest/POLocator/findLocations", "@spider": "usps_collection_boxes", "addr:city": "NORTHEAST", "addr:country": "US", "addr:postcode": "21901", "addr:state": "MD", "addr:street_address": "406 S MAIN ST", "amenity": "post_box", "collection_times": "Mo-Fr 16:45; Sa 11:30", "indoor": "yes", "note": "ON 12/24 AND 12/31, THIS BOX MAY BE COLLECTED AS EARLY AS 12 NOON.", "nsi_id": "unitedstatespostalservice-a77078", "operator": "United States Postal Service", "operator:short": "USPS", "operator:type": "public", "operator:wikidata": "Q668687", "ref": "2190100010"}, "type": "Feature"}
{"geometry": {"coordinates": [-75.941750202, 39.596224903], "type": "Point"}, "id": "QbnvxXC6WlJ9KPDZb6K16KeK8uQ=", "properties": {"@source_uri": "https://tools.usps.com/UspsToolsRestServices/rest/POLocator/findLocations", "@spider": "usps_collection_boxes", "addr:city": "NORTHEAST", "addr:country": "US", "addr:postcode": "21901", "addr:state": "MD", "addr:street_address": "406 S MAIN ST", "amenity": "post_box", "collection_times": "Mo-Fr 16:45; Sa 11:30", "indoor": "yes", "note": "ON 12/24 AND 12/31, THIS BOX MAY BE COLLECTED AS EARLY AS 12 NOON.", "nsi_id": "unitedstatespostalservice-a77078", "operator": "United States Postal Service", "operator:short": "USPS", "operator:type": "public", "operator:wikidata": "Q668687", "ref": "2190100011"}, "type": "Feature"}
{"geometry": {"coordinates": [-75.9419368, 39.599066], "type": "Point"}, "id": "Vp5Dn15ViOfwBJdazUeSRnsdJXc=", "properties": {"@source_uri": "https://tools.usps.com/UspsToolsRestServices/rest/POLocator/findLocations", "@spider": "usps_collection_boxes", "addr:city": "NORTHEAST", "addr:country": "US", "addr:postcode": "21901", "addr:state": "MD", "addr:street_address": "106 S MAIN ST", "amenity": "post_box", "collection_times": "Mo-Sa 09:00", "nsi_id": "unitedstatespostalservice-a77078", "operator": "United States Postal Service", "operator:short": "USPS", "operator:type": "public", "operator:wikidata": "Q668687", "ref": "2190100012"}, "type": "Feature"}
{"geometry": {"coordinates": [-75.9499717, 39.606255], "type": "Point"}, "id": "mIwvXzsR15U5XLXdM-haLALITNw=", "properties": {"@source_uri": "https://tools.usps.com/UspsToolsRestServices/rest/POLocator/findLocations", "@spider": "usps_collection_boxes", "addr:city": "NORTHEAST", "addr:country": "US", "addr:postcode": "21901", "addr:state": "MD", "addr:street_address": "2544 PULASKI HWY", "amenity": "post_box", "collection_times": "Mo-Sa 09:00", "nsi_id": "unitedstatespostalservice-a77078", "operator": "United States Postal Service", "operator:short": "USPS", "operator:type": "public", "operator:wikidata": "Q668687", "ref": "2190100013"}, "type": "Feature"}
{"geometry": {"coordinates": [-75.941750202, 39.596224903], "type": "Point"}, "id": "E3qBKJcnEe1x-9-goaJT1_SuKmU=", "properties": {"@source_uri": "https://tools.usps.com/UspsToolsRestServices/rest/POLocator/findLocations", "@spider": "usps_collection_boxes", "addr:city": "NORTHEAST", "addr:country": "US", "addr:postcode": "21901", "addr:state": "MD", "addr:street_address": "406 S MAIN ST", "amenity": "post_box", "collection_times": "Mo-Fr 17:00; Sa 12:00", "indoor": "yes", "note": "ON 12/24 AND 12/31, THIS BOX MAY BE COLLECTED AS EARLY AS 12 NOON.", "nsi_id": "unitedstatespostalservice-a77078", "operator": "United States Postal Service", "operator:short": "USPS", "operator:type": "public", "operator:wikidata": "Q668687", "ref": "2190100016"}, "type": "Feature"}
{"geometry": {"coordinates": [-76.0725456007, 39.5556172878], "type": "Point"}, "id": "LPEzHCkNVUCtCSSgkExV1o7BmrA=", "properties": {"@source_uri": "https://tools.usps.com/UspsToolsRestServices/rest/POLocator/findLocations", "@spider": "usps_collection_boxes", "addr:city": "PERRY POINT", "addr:country": "US", "addr:postcode": "21902", "addr:state": "MD", "addr:street_address": "N/A AVENUE D", "amenity": "post_box", "collection_times": "Mo-Fr 16:00; Sa 10:15", "note": "ON 12/24 AND 12/31, THIS BOX MAY BE COLLECTED AS EARLY AS 12 NOON.", "nsi_id": "unitedstatespostalservice-a77078", "operator": "United States Postal Service", "operator:short": "USPS", "operator:type": "public", "operator:wikidata": "Q668687", "ref": "2190200000"}, "type": "Feature"}
{"geometry": {"coordinates": [-76.0725456007, 39.5556172878], "type": "Point"}, "id": "7F7O8rjT74cxhduLTCod1VPE8Zc=", "properties": {"@source_uri": "https://tools.usps.com/UspsToolsRestServices/rest/POLocator/findLocations", "@spider": "usps_collection_boxes", "addr:city": "PERRY POINT", "addr:country": "US", "addr:postcode": "21902", "addr:state": "MD", "addr:street_address": "1 AVENUE D BLDG 59", "amenity": "post_box", "collection_times": "Mo-Fr 16:00; Sa 10:15", "indoor": "yes", "note": "ON 12/24 AND 12/31, THIS BOX MAY BE COLLECTED AS EARLY AS 12 NOON.", "nsi_id": "unitedstatespostalservice-a77078", "operator": "United States Postal Service", "operator:short": "USPS", "operator:type": "public", "operator:wikidata": "Q668687", "ref": "2190200003"}, "type": "Feature"}
{"geometry": {"coordinates": [-76.0725456007, 39.5556172878], "type": "Point"}, "id": "qjOnQyErd8LFCuewlab8vGj9A_o=", "properties": {"@source_uri": "https://tools.usps.com/UspsToolsRestServices/rest/POLocator/findLocations", "@spider": "usps_collection_boxes", "addr:city": "PERRY POINT", "addr:country": "US", "addr:postcode": "21902", "addr:state": "MD", "addr:street_address": "1 AVENUE D BLDG 59", "amenity": "post_box", "collection_times": "Mo-Fr 16:00; Sa 10:15", "indoor": "yes", "note": "ON 12/24 AND 12/31, THIS BOX MAY BE COLLECTED AS EARLY AS 12 NOON.", "nsi_id": "unitedstatespostalservice-a77078", "operator": "United States Postal Service", "operator:short": "USPS", "operator:type": "public", "operator:wikidata": "Q668687", "ref": "2190200004"}, "type": "Feature"}
{"geometry": {"coordinates": [-76.0723409, 39.5549194], "type": "Point"}, "id": "jneq9OkEAcQad5cvdntnV5uel0U=", "properties": {"@source_uri": "https://tools.usps.com/UspsToolsRestServices/rest/POLocator/findLocations", "@spider": "usps_collection_boxes", "addr:city": "PERRY POINT", "addr:country": "US", "addr:postcode": "21902", "addr:state": "MD", "addr:street_address": "AVE D BLDG 59 VA MEDICAL CTR", "amenity": "post_box", "collection_times": "Mo-Fr 16:30", "indoor": "yes", "note": "ON 12/24 AND 12/31, THIS BOX MAY BE COLLECTED AS EARLY AS 12 NOON.", "nsi_id": "unitedstatespostalservice-a77078", "operator": "United States Postal Service", "operator:short": "USPS", "operator:type": "public", "operator:wikidata": "Q668687", "ref": "2190200006"}, "type": "Feature"}
{"geometry": {"coordinates": [-76.071979542, 39.559810004], "type": "Point"}, "id": "4pvMXn1XR2xbM7tJn_8aHORcw8o=", "properties": {"@source_uri": "https://tools.usps.com/UspsToolsRestServices/rest/POLocator/findLocations", "@spider": "usps_collection_boxes", "addr:city": "PERRYVILLE", "addr:country": "US", "addr:postcode": "21903", "addr:state": "MD", "addr:street_address": "620 BROAD ST", "amenity": "post_box", "collection_times": "Mo-Fr 16:45; Sa 10:45", "note": "ON 12/24 AND 12/31, THIS BOX MAY BE COLLECTED AS EARLY AS 12 NOON.", "nsi_id": "unitedstatespostalservice-a77078", "operator": "United States Postal Service", "operator:short": "USPS", "operator:type": "public", "operator:wikidata": "Q668687", "ref": "2190300001"}, "type": "Feature"}
{"geometry": {"coordinates": [-76.0722506, 39.562476], "type": "Point"}, "id": "WHAUuRWvkC3yQaCjIJme3_pTGqg=", "properties": {"@source_uri": "https://tools.usps.com/UspsToolsRestServices/rest/POLocator/findLocations", "@spider": "usps_collection_boxes", "addr:city": "PERRYVILLE", "addr:country": "US", "addr:postcode": "21903", "addr:state": "MD", "addr:street_address": "600 CONCORD DR", "amenity": "post_box", "collection_times": "Mo-Sa 10:30", "nsi_id": "unitedstatespostalservice-a77078", "operator": "United States Postal Service", "operator:short": "USPS", "operator:type": "public", "operator:wikidata": "Q668687", "ref": "2190300002"}, "type": "Feature"}
{"geometry": {"coordinates": [-76.0553308, 39.57421], "type": "Point"}, "id": "sbAGCJkAD3guIypfOg3RQ7KmehM=", "properties": {"@source_uri": "https://tools.usps.com/UspsToolsRestServices/rest/POLocator/findLocations", "@spider": "usps_collection_boxes", "addr:city": "PERRYVILLE", "addr:country": "US", "addr:postcode": "21903", "addr:state": "MD", "addr:street_address": "152 MILL CREEK LN", "amenity": "post_box", "collection_times": "Mo-Sa 11:30", "nsi_id": "unitedstatespostalservice-a77078", "operator": "United States Postal Service", "operator:short": "USPS", "operator:type": "public", "operator:wikidata": "Q668687", "ref": "2190300003"}, "type": "Feature"}
{"geometry": {"coordinates": [-76.0733799, 39.569146], "type": "Point"}, "id": "ysFwDARAEBq4S28ktEDVU19yhRI=", "properties": {"@source_uri": "https://tools.usps.com/UspsToolsRestServices/rest/POLocator/findLocations", "@spider": "usps_collection_boxes", "addr:city": "PERRYVILLE", "addr:country": "US", "addr:postcode": "21903", "addr:state": "MD", "addr:street_address": "302 MANSION DR", "amenity": "post_box", "collection_times": "Mo-Sa 10:00", "nsi_id": "unitedstatespostalservice-a77078", "operator": "United States Postal Service", "operator:short": "USPS", "operator:type": "public", "operator:wikidata": "Q668687", "ref": "2190300004"}, "type": "Feature"}
{"geometry": {"coordinates": [-76.0500678, 39.575868], "type": "Point"}, "id": "PoH5oUDlLpUk46Gg3xf9tbHcZiM=", "properties": {"@source_uri": "https://tools.usps.com/UspsToolsRestServices/rest/POLocator/findLocations", "@spider": "usps_collection_boxes", "addr:city": "PERRYVILLE", "addr:country": "US", "addr:postcode": "21903", "addr:state": "MD", "addr:street_address": "2 BAYCIRCLE DR", "amenity": "post_box", "collection_times": "Mo-Sa 11:00", "nsi_id": "unitedstatespostalservice-a77078", "operator": "United States Postal Service", "operator:short": "USPS", "operator:type": "public", "operator:wikidata": "Q668687", "ref": "2190300006"}, "type": "Feature"}
{"geometry": {"coordinates": [-76.0797392, 39.558977], "type": "Point"}, "id": "QuU33WQcjt8MZ_1X_78-kOrOKWE=", "properties": {"@source_uri": "https://tools.usps.com/UspsToolsRestServices/rest/POLocator/findLocations", "@spider": "usps_collection_boxes", "addr:city": "PERRYVILLE", "addr:country": "US", "addr:postcode": "21903", "addr:state": "MD", "addr:street_address": "12 RIVER RD", "amenity": "post_box", "collection_times": "Mo-Sa 10:00", "nsi_id": "unitedstatespostalservice-a77078", "operator": "United States Postal Service", "operator:short": "USPS", "operator:type": "public", "operator:wikidata": "Q668687", "ref": "2190300009"}, "type": "Feature"}
{"geometry": {"coordinates": [-76.071979542, 39.559810004], "type": "Point"}, "id": "_oRT128_98o0kSVD8_hbMH5OIiQ=", "properties": {"@source_uri": "https://tools.usps.com/UspsToolsRestServices/rest/POLocator/findLocations", "@spider": "usps_collection_boxes", "addr:city": "PERRYVILLE", "addr:country": "US", "addr:postcode": "21903", "addr:state": "MD", "addr:street_address": "620 BROAD ST", "amenity": "post_box", "collection_times": "Mo-Fr 16:45; Sa 10:45", "indoor": "yes", "note": "ON 12/24 AND 12/31, THIS BOX MAY BE COLLECTED AS EARLY AS 12 NOON.", "nsi_id": "unitedstatespostalservice-a77078", "operator": "United States Postal Service", "operator:short": "USPS", "operator:type": "public", "operator:wikidata": "Q668687", "ref": "2190300010"}, "type": "Feature"}
{"geometry": {"coordinates": [-76.071979542, 39.559810004], "type": "Point"}, "id": "LzycuDtqPD_QcsbX9upK3CH7mwE=", "properties": {"@source_uri": "https://tools.usps.com/UspsToolsRestServices/rest/POLocator/findLocations", "@spider": "usps_collection_boxes", "addr:city": "PERRYVILLE", "addr:country": "US", "addr:postcode": "21903", "addr:state": "MD", "addr:street_address": "620 BROAD ST", "amenity": "post_box", "collection_times": "Mo-Fr 16:45; Sa 10:45", "indoor": "yes", "note": "ON 12/24 AND 12/31, THIS BOX MAY BE COLLECTED AS EARLY AS 12 NOON.", "nsi_id": "unitedstatespostalservice-a77078", "operator": "United States Postal Service", "operator:short": "USPS", "operator:type": "public", "operator:wikidata": "Q668687", "ref": "2190300011"}, "type": "Feature"}
{"geometry": {"coordinates": [-76.071979542, 39.559810004], "type": "Point"}, "id": "0floYsoe3JGZLVvXAv6-Pfsjr6I=", "properties": {"@source_uri": "https://tools.usps.com/UspsToolsRestServices/rest/POLocator/findLocations", "@spider": "usps_collection_boxes", "addr:city": "PERRYVILLE", "addr:country": "US", "addr:postcode": "21903", "addr:state": "MD", "addr:street_address": "620 BROAD ST", "amenity": "post_box", "collection_times": "Mo-Fr 17:00; Sa 11:00", "indoor": "yes", "note": "ON 12/24 AND 12/31, THIS BOX MAY BE COLLECTED AS EARLY AS 12 NOON.", "nsi_id": "unitedstatespostalservice-a77078", "operator": "United States Postal Service", "operator:short": "USPS", "operator:type": "public", "operator:wikidata": "Q668687", "ref": "2190300013"}, "type": "Feature"}
{"geometry": {"coordinates": [-76.115111766, 39.604553372], "type": "Point"}, "id": "t3NKDzeRYCd112fX3LgPBftCpbg=", "properties": {"@source_uri": "https://tools.usps.com/UspsToolsRestServices/rest/POLocator/findLocations", "@spider": "usps_collection_boxes", "addr:city": "PORT DEPOSIT", "addr:country": "US", "addr:postcode": "21904", "addr:state": "MD", "addr:street_address": "11 S MAIN ST", "amenity": "post_box", "collection_times": "Mo-Fr 17:00; Sa 11:30", "note": "ON 12/24 AND 12/31, THIS BOX MAY BE COLLECTED AS EARLY AS 12 NOON.", "nsi_id": "unitedstatespostalservice-a77078", "operator": "United States Postal Service", "operator:short": "USPS", "operator:type": "public", "operator:wikidata": "Q668687", "ref": "2190400004"}, "type": "Feature"}
{"geometry": {"coordinates": [-76.115111766, 39.604553372], "type": "Point"}, "id": "rmzoISmfXOw6SudsCf0kQZktECA=", "properties": {"@source_uri": "https://tools.usps.com/UspsToolsRestServices/rest/POLocator/findLocations", "@spider": "usps_collection_boxes", "addr:city": "PORT DEPOSIT", "addr:country": "US", "addr:postcode": "21904", "addr:state": "MD", "addr:street_address": "11 S MAIN ST", "amenity": "post_box", "collection_times": "Mo-Fr 17:00; Sa 11:30", "indoor": "yes", "note": "ON 12/24 AND 12/31, THIS BOX MAY BE COLLECTED AS EARLY AS 12 NOON.", "nsi_id": "unitedstatespostalservice-a77078", "operator": "United States Postal Service", "operator:short": "USPS", "operator:type": "public", "operator:wikidata": "Q668687", "ref": "2190400006"}, "type": "Feature"}
{"geometry": {"coordinates": [-76.115111766, 39.604553372], "type": "Point"}, "id": "Cjs66yS8n4KDYO4fOyQN56-VKSw=", "properties": {"@source_uri": "https://tools.usps.com/UspsToolsRestServices/rest/POLocator/findLocations", "@spider": "usps_collection_boxes", "addr:city": "PORT DEPOSIT", "addr:country": "US", "addr:postcode": "21904", "addr:state": "MD", "addr:street_address": "11 S MAIN ST", "amenity": "post_box", "collection_times": "Mo-Fr 17:00; Sa 11:30", "indoor": "yes", "note": "ON 12/24 AND 12/31, THIS BOX MAY BE COLLECTED AS EARLY AS 12 NOON.", "nsi_id": "unitedstatespostalservice-a77078", "operator": "United States Postal Service", "operator:short": "USPS", "operator:type": "public", "operator:wikidata": "Q668687", "ref": "2190400007"}, "type": "Feature"}
{"geometry": {"coordinates": [-76.115111766, 39.604553372], "type": "Point"}, "id": "2YaoDEsJgLkDIrK9TvTGiPs_mKE=", "properties": {"@source_uri": "https://tools.usps.com/UspsToolsRestServices/rest/POLocator/findLocations", "@spider": "usps_collection_boxes", "addr:city": "PORT DEPOSIT", "addr:country": "US", "addr:postcode": "21904", "addr:state": "MD", "addr:street_address": "11 S MAIN ST", "amenity": "post_box", "collection_times": "Mo-Fr 17:00; Sa 11:30", "indoor": "yes", "note": "ON 12/24 AND 12/31, THIS BOX MAY BE COLLECTED AS EARLY AS 12 NOON.", "nsi_id": "unitedstatespostalservice-a77078", "operator": "United States Postal Service", "operator:short": "USPS", "operator:type": "public", "operator:wikidata": "Q668687", "ref": "2190400010"}, "type": "Feature"}
{"geometry": {"coordinates": [-76.061896536, 39.700045236], "type": "Point"}, "id": "AAJpJaUS9CDo_5ek-jgdHT5P8U8=", "properties": {"@source_uri": "https://tools.usps.com/UspsToolsRestServices/rest/POLocator/findLocations", "@spider": "usps_collection_boxes", "addr:city": "RISING SUN", "addr:country": "US", "addr:postcode": "21911", "addr:state": "MD", "addr:street_address": "105 N WALNUT ST", "amenity": "post_box", "collection_times": "Mo-Fr 16:30; Sa 12:00", "note": "ON 12/24 AND 12/31, THIS BOX MAY BE COLLECTED AS EARLY AS 12 NOON.", "nsi_id": "unitedstatespostalservice-a77078", "operator": "United States Postal Service", "operator:short": "USPS", "operator:type": "public", "operator:wikidata": "Q668687", "ref": "2191100001"}, "type": "Feature"}
{"geometry": {"coordinates": [-76.061896536, 39.700045236], "type": "Point"}, "id": "gHawuNq_iO2iF7kVT5N_TXreB7I=", "properties": {"@source_uri": "https://tools.usps.com/UspsToolsRestServices/rest/POLocator/findLocations", "@spider": "usps_collection_boxes", "addr:city": "RISING SUN", "addr:country": "US", "addr:postcode": "21911", "addr:state": "MD", "addr:street_address": "105 N WALNUT ST", "amenity": "post_box", "collection_times": "Mo-Fr 17:00; Sa 12:00", "indoor": "yes", "note": "ON 12/24 AND 12/31, THIS BOX MAY BE COLLECTED AS EARLY AS 12 NOON.", "nsi_id": "unitedstatespostalservice-a77078", "operator": "United States Postal Service", "operator:short": "USPS", "operator:type": "public", "operator:wikidata": "Q668687", "ref": "2191100005"}, "type": "Feature"}
{"geometry": {"coordinates": [-76.061896536, 39.700045236], "type": "Point"}, "id": "Axx9T96vI_y4RKHmlUVBvy089lU=", "properties": {"@source_uri": "https://tools.usps.com/UspsToolsRestServices/rest/POLocator/findLocations", "@spider": "usps_collection_boxes", "addr:city": "RISING SUN", "addr:country": "US", "addr:postcode": "21911", "addr:state": "MD", "addr:street_address": "105 N WALNUT ST", "amenity": "post_box", "collection_times": "Mo-Fr 17:00; Sa 12:00", "indoor": "yes", "note": "ON 12/24 AND 12/31, THIS BOX MAY BE COLLECTED AS EARLY AS 12 NOON.", "nsi_id": "unitedstatespostalservice-a77078", "operator": "United States Postal Service", "operator:short": "USPS", "operator:type": "public", "operator:wikidata": "Q668687", "ref": "2191100006"}, "type": "Feature"}
{"geometry": {"coordinates": [-76.0600097, 39.69811], "type": "Point"}, "id": "FNsw3u6jhdzaz83zacOEVwbYYps=", "properties": {"@source_uri": "https://tools.usps.com/UspsToolsRestServices/rest/POLocator/findLocations", "@spider": "usps_collection_boxes", "addr:city": "RISING SUN", "addr:country": "US", "addr:postcode": "21911", "addr:state": "MD", "addr:street_address": "58 RISING SUN TOWN CTR", "amenity": "post_box", "collection_times": "Mo-Sa 10:00", "nsi_id": "unitedstatespostalservice-a77078", "operator": "United States Postal Service", "operator:short": "USPS", "operator:type": "public", "operator:wikidata": "Q668687", "ref": "2191100007"}, "type": "Feature"}
{"geometry": {"coordinates": [-76.061896536, 39.700045236], "type": "Point"}, "id": "xXmi8B4YYvSwUULi3cDbdGRx5JE=", "properties": {"@source_uri": "https://tools.usps.com/UspsToolsRestServices/rest/POLocator/findLocations", "@spider": "usps_collection_boxes", "addr:city": "RISING SUN", "addr:country": "US", "addr:postcode": "21911", "addr:state": "MD", "addr:street_address": "105 N WALNUT ST", "amenity": "post_box", "collection_times": "Mo-Fr 17:00; Sa 12:00", "indoor": "yes", "note": "ON 12/24 AND 12/31, THIS BOX MAY BE COLLECTED AS EARLY AS 12 NOON.", "nsi_id": "unitedstatespostalservice-a77078", "operator": "United States Postal Service", "operator:short": "USPS", "operator:type": "public", "operator:wikidata": "Q668687", "ref": "2191100009"}, "type": "Feature"}
{"geometry": {"coordinates": [-75.777787235, 39.417168089], "type": "Point"}, "id": "Fdq8s68Nuf9ZWrKvpZmVmubaMw8=", "properties": {"@source_uri": "https://tools.usps.com/UspsToolsRestServices/rest/POLocator/findLocations", "@spider": "usps_collection_boxes", "addr:city": "WARWICK", "addr:country": "US", "addr:postcode": "21912", "addr:state": "MD", "addr:street_address": "77 MAIN ST", "amenity": "post_box", "collection_times": "Mo-Sa 12:00", "nsi_id": "unitedstatespostalservice-a77078", "operator": "United States Postal Service", "operator:short": "USPS", "operator:type": "public", "operator:wikidata": "Q668687", "ref": "2191200001"}, "type": "Feature"}
{"geometry": {"coordinates": [-75.777787235, 39.417168089], "type": "Point"}, "id": "yyenwGiYV3fnu-TXQV25SJcJPtM=", "properties": {"@source_uri": "https://tools.usps.com/UspsToolsRestServices/rest/POLocator/findLocations", "@spider": "usps_collection_boxes", "addr:city": "WARWICK", "addr:country": "US", "addr:postcode": "21912", "addr:state": "MD", "addr:street_address": "77 MAIN ST", "amenity": "post_box", "collection_times": "Mo-Sa 12:00", "indoor": "yes", "nsi_id": "unitedstatespostalservice-a77078", "operator": "United States Postal Service", "operator:short": "USPS", "operator:type": "public", "operator:wikidata": "Q668687", "ref": "2191200002"}, "type": "Feature"}
{"geometry": {"coordinates": [-75.777787235, 39.417168089], "type": "Point"}, "id": "iOi6eH6t4210HRoCZP2wDqqp1f0=", "properties": {"@source_uri": "https://tools.usps.com/UspsToolsRestServices/rest/POLocator/findLocations", "@spider": "usps_collection_boxes", "addr:city": "WARWICK", "addr:country": "US", "addr:postcode": "21912", "addr:state": "MD", "addr:street_address": "77 MAIN ST", "amenity": "post_box", "collection_times": "Mo-Sa 12:00", "indoor": "yes", "nsi_id": "unitedstatespostalservice-a77078", "operator": "United States Postal Service", "operator:short": "USPS", "operator:type": "public", "operator:wikidata": "Q668687", "ref": "2191200004"}, "type": "Feature"}
{"geometry": {"coordinates": [-75.86905, 39.404347], "type": "Point"}, "id": "xS-pW97jnYQVF_X-P336uCaxkkY=", "properties": {"@source_uri": "https://tools.usps.com/UspsToolsRestServices/rest/POLocator/findLocations", "@spider": "usps_collection_boxes", "addr:city": "CECILTON", "addr:country": "US", "addr:postcode": "21913", "addr:state": "MD", "addr:street_address": "127 W MAIN ST", "amenity": "post_box", "collection_times": "Mo-Fr 16:30; Sa 11:15", "note": "ON 12/24 AND 12/31, THIS BOX MAY BE COLLECTED AS EARLY AS 12 NOON.", "nsi_id": "unitedstatespostalservice-a77078", "operator": "United States Postal Service", "operator:short": "USPS", "operator:type": "public", "operator:wikidata": "Q668687", "ref": "2191300000"}, "type": "Feature"}
{"geometry": {"coordinates": [-75.86905, 39.404347], "type": "Point"}, "id": "r5cUmg2kZD8erla8rUKDsGfb4OQ=", "properties": {"@source_uri": "https://tools.usps.com/UspsToolsRestServices/rest/POLocator/findLocations", "@spider": "usps_collection_boxes", "addr:city": "CECILTON", "addr:country": "US", "addr:postcode": "21913", "addr:state": "MD", "addr:street_address": "127 W MAIN ST", "amenity": "post_box", "collection_times": "Mo-Fr 16:15; Sa 11:15", "indoor": "yes", "note": "ON 12/24 AND 12/31, THIS BOX MAY BE COLLECTED AS EARLY AS 12 NOON.", "nsi_id": "unitedstatespostalservice-a77078", "operator": "United States Postal Service", "operator:short": "USPS", "operator:type": "public", "operator:wikidata": "Q668687", "ref": "2191300002"}, "type": "Feature"}
{"geometry": {"coordinates": [-75.869222003, 39.404295525], "type": "Point"}, "id": "0pQaZ36Ql_SfkmR3nd5waOWH-h8=", "properties": {"@source_uri": "https://tools.usps.com/UspsToolsRestServices/rest/POLocator/findLocations", "@spider": "usps_collection_boxes", "addr:city": "CECILTON", "addr:country": "US", "addr:postcode": "21913", "addr:state": "MD", "addr:street_address": "128 W MAIN ST", "amenity": "post_box", "collection_times": "Mo-Fr 16:30; Sa 11:30", "indoor": "yes", "note": "ON 12/24 AND 12/31, THIS BOX MAY BE COLLECTED AS EARLY AS 12 NOON.", "nsi_id": "unitedstatespostalservice-a77078", "operator": "United States Postal Service", "operator:short": "USPS", "operator:type": "public", "operator:wikidata": "Q668687", "ref": "2191300004"}, "type": "Feature"}
{"geometry": {"coordinates": [-75.975956303, 39.573401921], "type": "Point"}, "id": "m9XOOsb6UVfb4aUdKPvDLZT9EWg=", "properties": {"@source_uri": "https://tools.usps.com/UspsToolsRestServices/rest/POLocator/findLocations", "@spider": "usps_collection_boxes", "addr:city": "CHARLESTOWN", "addr:country": "US", "addr:postcode": "21914", "addr:state": "MD", "addr:street_address": "241 MARKET ST", "amenity": "post_box", "collection_times": "Mo-Fr 16:45; Sa 11:15", "note": "ON 12/24 AND 12/31, THIS BOX MAY BE COLLECTED AS EARLY AS 12 NOON.", "nsi_id": "unitedstatespostalservice-a77078", "operator": "United States Postal Service", "operator:short": "USPS", "operator:type": "public", "operator:wikidata": "Q668687", "ref": "2191400000"}, "type": "Feature"}
{"geometry": {"coordinates": [-75.97597457, 39.573404278], "type": "Point"}, "id": "lkkOYVB_DfNXoVaDen2zUkfSSPo=", "properties": {"@source_uri": "https://tools.usps.com/UspsToolsRestServices/rest/POLocator/findLocations", "@spider": "usps_collection_boxes", "addr:city": "CHARLESTOWN", "addr:country": "US", "addr:postcode": "21914", "addr:state": "MD", "addr:street_address": "241 MARKET ST", "amenity": "post_box", "collection_times": "Mo-Fr 16:45; Sa 11:15", "indoor": "yes", "note": "ON 12/24 AND 12/31, THIS BOX MAY BE COLLECTED AS EARLY AS 12 NOON.", "nsi_id": "unitedstatespostalservice-a77078", "operator": "United States Postal Service", "operator:short": "USPS", "operator:type": "public", "operator:wikidata": "Q668687", "ref": "2191400001"}, "type": "Feature"}
{"geometry": {"coordinates": [-75.97597457, 39.573404278], "type": "Point"}, "id": "ZrSTKeXCZ4gRMnLZl4vVo1R80ag=", "properties": {"@source_uri": "https://tools.usps.com/UspsToolsRestServices/rest/POLocator/findLocations", "@spider": "usps_collection_boxes", "addr:city": "CHARLESTOWN", "addr:country": "US", "addr:postcode": "21914", "addr:state": "MD", "addr:street_address": "241 MARKET ST", "amenity": "post_box", "collection_times": "Mo-Fr 16:45; Sa 11:15", "indoor": "yes", "note": "ON 12/24 AND 12/31, THIS BOX MAY BE COLLECTED AS EARLY AS 12 NOON.", "nsi_id": "unitedstatespostalservice-a77078", "operator": "United States Postal Service", "operator:short": "USPS", "operator:type": "public", "operator:wikidata": "Q668687", "ref": "2191400002"}, "type": "Feature"}
{"geometry": {"coordinates": [-75.97597457, 39.573404278], "type": "Point"}, "id": "fziT6LViMzF_W1scNLbIkAq-y2E=", "properties": {"@source_uri": "https://tools.usps.com/UspsToolsRestServices/rest/POLocator/findLocations", "@spider": "usps_collection_boxes", "addr:city": "CHARLESTOWN", "addr:country": "US", "addr:postcode": "21914", "addr:state": "MD", "addr:street_address": "241 MARKET ST", "amenity": "post_box", "collection_times": "Mo-Fr 17:00; Sa 11:30", "indoor": "yes", "note": "ON 12/24 AND 12/31, THIS BOX MAY BE COLLECTED AS EARLY AS 12 NOON.", "nsi_id": "unitedstatespostalservice-a77078", "operator": "United States Postal Service", "operator:short": "USPS", "operator:type": "public", "operator:wikidata": "Q668687", "ref": "2191400004"}, "type": "Feature"}
{"geometry": {"coordinates": [-75.819952919, 39.518810023], "type": "Point"}, "id": "Jztb8c2ec_IZGgXBnMctLGLhD94=", "properties": {"@source_uri": "https://tools.usps.com/UspsToolsRestServices/rest/POLocator/findLocations", "@spider": "usps_collection_boxes", "addr:city": "CHESAPEAKE CITY", "addr:country": "US", "addr:postcode": "21915", "addr:state": "MD", "addr:street_address": "2551 AUGUSTINE HERMAN HWY", "amenity": "post_box", "collection_times": "Mo-Fr 16:45; Sa 12:00", "note": "ON 12/24 AND 12/31, THIS BOX MAY BE COLLECTED AS EARLY AS 12 NOON.", "nsi_id": "unitedstatespostalservice-a77078", "operator": "United States Postal Service", "operator:short": "USPS", "operator:type": "public", "operator:wikidata": "Q668687", "ref": "2191500001"}, "type": "Feature"}
{"geometry": {"coordinates": [-75.819952919, 39.518810023], "type": "Point"}, "id": "5wR5lTfdo9OL05lOzai2Dtpsydg=", "properties": {"@source_uri": "https://tools.usps.com/UspsToolsRestServices/rest/POLocator/findLocations", "@spider": "usps_collection_boxes", "addr:city": "CHESAPEAKE CITY", "addr:country": "US", "addr:postcode": "21915", "addr:state": "MD", "addr:street_address": "2551 AUGUSTINE HERMAN HWY", "amenity": "post_box", "collection_times": "Mo-Fr 17:00; Sa 12:00", "indoor": "yes", "note": "ON 12/24 AND 12/31, THIS BOX MAY BE COLLECTED AS EARLY AS 12 NOON.", "nsi_id": "unitedstatespostalservice-a77078", "operator": "United States Postal Service", "operator:short": "USPS", "operator:type": "public", "operator:wikidata": "Q668687", "ref": "2191500005"}, "type": "Feature"}
{"geometry": {"coordinates": [-75.819952919, 39.518810023], "type": "Point"}, "id": "RCOs4AuE10snGyFkeliXs7oyRXo=", "properties": {"@source_uri": "https://tools.usps.com/UspsToolsRestServices/rest/POLocator/findLocations", "@spider": "usps_collection_boxes", "addr:city": "CHESAPEAKE CITY", "addr:country": "US", "addr:postcode": "21915", "addr:state": "MD", "addr:street_address": "2551 AUGUSTINE HERMAN HWY", "amenity": "post_box", "collection_times": "Mo-Fr 17:00; Sa 11:45", "indoor": "yes", "note": "ON 12/24 AND 12/31, THIS BOX MAY BE COLLECTED AS EARLY AS 12 NOON.", "nsi_id": "unitedstatespostalservice-a77078", "operator": "United States Postal Service", "operator:short": "USPS", "operator:type": "public", "operator:wikidata": "Q668687", "ref": "2191500007"}, "type": "Feature"}
{"geometry": {"coordinates": [-75.875548722, 39.64966203], "type": "Point"}, "id": "aj4TrghpZTjKOXg2ktCRpoPCgM4=", "properties": {"@source_uri": "https://tools.usps.com/UspsToolsRestServices/rest/POLocator/findLocations", "@spider": "usps_collection_boxes", "addr:city": "CHILDS", "addr:country": "US", "addr:postcode": "21916", "addr:state": "MD", "addr:street_address": "1470 BLUE BALL RD", "amenity": "post_box", "collection_times": "Mo-Fr 15:30; Sa 10:00", "note": "ON 12/24 AND 12/31, THIS BOX MAY BE COLLECTED AS EARLY AS 12 NOON.", "nsi_id": "unitedstatespostalservice-a77078", "operator": "United States Postal Service", "operator:short": "USPS", "operator:type": "public", "operator:wikidata": "Q668687", "ref": "2191600000"}, "type": "Feature"}
{"geometry": {"coordinates": [-75.875548722, 39.64966203], "type": "Point"}, "id": "QT9kN6RVHrgfk-K8SrSbu8RYD64=", "properties": {"@source_uri": "https://tools.usps.com/UspsToolsRestServices/rest/POLocator/findLocations", "@spider": "usps_collection_boxes", "addr:city": "CHILDS", "addr:country": "US", "addr:postcode": "21916", "addr:state": "MD", "addr:street_address": "1470 BLUE BALL RD", "amenity": "post_box", "collection_times": "Mo-Fr 15:30; Sa 10:00", "indoor": "yes", "note": "ON 12/24 AND 12/31, THIS BOX MAY BE COLLECTED AS EARLY AS 12 NOON.", "nsi_id": "unitedstatespostalservice-a77078", "operator": "United States Postal Service", "operator:short": "USPS", "operator:type": "public", "operator:wikidata": "Q668687", "ref": "2191600001"}, "type": "Feature"}
{"geometry": {"coordinates": [-75.875548722, 39.64966203], "type": "Point"}, "id": "Akn-Tn_V7br04EQPdBYr7Ocv6ao=", "properties": {"@source_uri": "https://tools.usps.com/UspsToolsRestServices/rest/POLocator/findLocations", "@spider": "usps_collection_boxes", "addr:city": "CHILDS", "addr:country": "US", "addr:postcode": "21916", "addr:state": "MD", "addr:street_address": "1470 BLUE BALL RD", "amenity": "post_box", "collection_times": "Mo-Fr 15:30; Sa 10:00", "indoor": "yes", "note": "ON 12/24 AND 12/31, THIS BOX MAY BE COLLECTED AS EARLY AS 12 NOON.", "nsi_id": "unitedstatespostalservice-a77078", "operator": "United States Postal Service", "operator:short": "USPS", "operator:type": "public", "operator:wikidata": "Q668687", "ref": "2191600002"}, "type": "Feature"}
{"geometry": {"coordinates": [-75.875548722, 39.64966203], "type": "Point"}, "id": "9ebWPWn0_uz-YtJAaW0-oHUJv94=", "properties": {"@source_uri": "https://tools.usps.com/UspsToolsRestServices/rest/POLocator/findLocations", "@spider": "usps_collection_boxes", "addr:city": "CHILDS", "addr:country": "US", "addr:postcode": "21916", "addr:state": "MD", "addr:street_address": "1470 BLUE BALL RD", "amenity": "post_box", "collection_times": "Mo-Fr 16:30; Sa 11:30", "indoor": "yes", "note": "ON 12/24 AND 12/31, THIS BOX MAY BE COLLECTED AS EARLY AS 12 NOON.", "nsi_id": "unitedstatespostalservice-a77078", "operator": "United States Postal Service", "operator:short": "USPS", "operator:type": "public", "operator:wikidata": "Q668687", "ref": "2191600004"}, "type": "Feature"}
{"geometry": {"coordinates": [-76.094537112, 39.672674432], "type": "Point"}, "id": "fmL_kxxAbyxBH3WGFfB7RTnE48k=", "properties": {"@source_uri": "https://tools.usps.com/UspsToolsRestServices/rest/POLocator/findLocations", "@spider": "usps_collection_boxes", "addr:city": "COLORA", "addr:country": "US", "addr:postcode": "21917", "addr:state": "MD", "addr:street_address": "2167 LIBERTY GROVE RD", "amenity": "post_box", "collection_times": "Mo-Fr 16:15; Sa 11:30", "note": "ON 12/24 AND 12/31, THIS BOX MAY BE COLLECTED AS EARLY AS 12 NOON.", "nsi_id": "unitedstatespostalservice-a77078", "operator": "United States Postal Service", "operator:short": "USPS", "operator:type": "public", "operator:wikidata": "Q668687", "ref": "2191700001"}, "type": "Feature"}
{"geometry": {"coordinates": [-76.094537112, 39.672674432], "type": "Point"}, "id": "uMX1Q_iAV34u7zAd2FgjKVS-k7s=", "properties": {"@source_uri": "https://tools.usps.com/UspsToolsRestServices/rest/POLocator/findLocations", "@spider": "usps_collection_boxes", "addr:city": "COLORA", "addr:country": "US", "addr:postcode": "21917", "addr:state": "MD", "addr:street_address": "2167 LIBERTY GROVE RD", "amenity": "post_box", "collection_times": "Mo-Fr 16:15; Sa 11:30", "indoor": "yes", "note": "ON 12/24 AND 12/31, THIS BOX MAY BE COLLECTED AS EARLY AS 12 NOON.", "nsi_id": "unitedstatespostalservice-a77078", "operator": "United States Postal Service", "operator:short": "USPS", "operator:type": "public", "operator:wikidata": "Q668687", "ref": "2191700002"}, "type": "Feature"}
{"geometry": {"coordinates": [-76.094537112, 39.672674432], "type": "Point"}, "id": "DIx9HUYMUABsT1XdjJhaw6xfk1A=", "properties": {"@source_uri": "https://tools.usps.com/UspsToolsRestServices/rest/POLocator/findLocations", "@spider": "usps_collection_boxes", "addr:city": "COLORA", "addr:country": "US", "addr:postcode": "21917", "addr:state": "MD", "addr:street_address": "2167 LIBERTY GROVE RD", "amenity": "post_box", "collection_times": "Mo-Fr 16:15; Sa 11:30", "indoor": "yes", "note": "ON 12/24 AND 12/31, THIS BOX MAY BE COLLECTED AS EARLY AS 12 NOON.", "nsi_id": "unitedstatespostalservice-a77078", "operator": "United States Postal Service", "operator:short": "USPS", "operator:type": "public", "operator:wikidata": "Q668687", "ref": "2191700003"}, "type": "Feature"}
{"geometry": {"coordinates": [-76.094537112, 39.672674432], "type": "Point"}, "id": "ljgqBaYn7nvmcrwoEcO3-Uk-9Ko=", "properties": {"@source_uri": "https://tools.usps.com/UspsToolsRestServices/rest/POLocator/findLocations", "@spider": "usps_collection_boxes", "addr:city": "COLORA", "addr:country": "US", "addr:postcode": "21917", "addr:state": "MD", "addr:street_address": "2167 LIBERTY GROVE RD", "amenity": "post_box", "collection_times": "Mo-Fr 16:30; Sa 11:30", "indoor": "yes", "note": "ON 12/24 AND 12/31, THIS BOX MAY BE COLLECTED AS EARLY AS 12 NOON.", "nsi_id": "unitedstatespostalservice-a77078", "operator": "United States Postal Service", "operator:short": "USPS", "operator:type": "public", "operator:wikidata": "Q668687", "ref": "2191700005"}, "type": "Feature"}
{"geometry": {"coordinates": [-76.162255322, 39.676423828], "type": "Point"}, "id": "bMky-MCE-Mq3WPeYpoNDui4oq58=", "properties": {"@source_uri": "https://tools.usps.com/UspsToolsRestServices/rest/POLocator/findLocations", "@spider": "usps_collection_boxes", "addr:city": "CONOWINGO", "addr:country": "US", "addr:postcode": "21918", "addr:state": "MD", "addr:street_address": "305 CONOWINGO RD", "amenity": "post_box", "collection_times": "Mo-Fr 16:00; Sa 11:30", "note": "ON 12/24 AND 12/31, THIS BOX MAY BE COLLECTED AS EARLY AS 12 NOON.", "nsi_id": "unitedstatespostalservice-a77078", "operator": "United States Postal Service", "operator:short": "USPS", "operator:type": "public", "operator:wikidata": "Q668687", "ref": "2191800000"}, "type": "Feature"}
{"geometry": {"coordinates": [-76.162255322, 39.676423828], "type": "Point"}, "id": "XgAfsTwFMhPp1bRcfei6O1x0PKw=", "properties": {"@source_uri": "https://tools.usps.com/UspsToolsRestServices/rest/POLocator/findLocations", "@spider": "usps_collection_boxes", "addr:city": "CONOWINGO", "addr:country": "US", "addr:postcode": "21918", "addr:state": "MD", "addr:street_address": "305 CONOWINGO RD", "amenity": "post_box", "collection_times": "Mo-Fr 16:00; Sa 11:30", "indoor": "yes", "note": "ON 12/24 AND 12/31, THIS BOX MAY BE COLLECTED AS EARLY AS 12 NOON.", "nsi_id": "unitedstatespostalservice-a77078", "operator": "United States Postal Service", "operator:short": "USPS", "operator:type": "public", "operator:wikidata": "Q668687", "ref": "2191800002"}, "type": "Feature"}
{"geometry": {"coordinates": [-76.162255322, 39.676423828], "type": "Point"}, "id": "qN_E-zyWGw-9eFPplnKOoSGdcQE=", "properties": {"@source_uri": "https://tools.usps.com/UspsToolsRestServices/rest/POLocator/findLocations", "@spider": "usps_collection_boxes", "addr:city": "CONOWINGO", "addr:country": "US", "addr:postcode": "21918", "addr:state": "MD", "addr:street_address": "305 CONOWINGO RD", "amenity": "post_box", "collection_times": "Mo-Fr 16:45; Sa 11:00", "indoor": "yes", "note": "ON 12/24 AND 12/31, THIS BOX MAY BE COLLECTED AS EARLY AS 12 NOON.", "nsi_id": "unitedstatespostalservice-a77078", "operator": "United States Postal Service", "operator:short": "USPS", "operator:type": "public", "operator:wikidata": "Q668687", "ref": "2191800004"}, "type": "Feature"}
{"geometry": {"coordinates": [-75.915934343, 39.414736489], "type": "Point"}, "id": "ScZthMRap3xKOuEl-F1WVXw6MZc=", "properties": {"@source_uri": "https://tools.usps.com/UspsToolsRestServices/rest/POLocator/findLocations", "@spider": "usps_collection_boxes", "addr:city": "EARLEVILLE", "addr:country": "US", "addr:postcode": "21919", "addr:state": "MD", "addr:street_address": "1244 CRYSTAL BEACH RD", "amenity": "post_box", "collection_times": "Mo-Fr 16:15; Sa 10:45", "note": "ON 12/24 AND 12/31, THIS BOX MAY BE COLLECTED AS EARLY AS 12 NOON.", "nsi_id": "unitedstatespostalservice-a77078", "operator": "United States Postal Service", "operator:short": "USPS", "operator:type": "public", "operator:wikidata": "Q668687", "ref": "2191900001"}, "type": "Feature"}
{"geometry": {"coordinates": [-75.915934343, 39.414736489], "type": "Point"}, "id": "7mdNb4VzHtfdsvKximBtgAQCfd8=", "properties": {"@source_uri": "https://tools.usps.com/UspsToolsRestServices/rest/POLocator/findLocations", "@spider": "usps_collection_boxes", "addr:city": "EARLEVILLE", "addr:country": "US", "addr:postcode": "21919", "addr:state": "MD", "addr:street_address": "1244 CRYSTAL BEACH RD", "amenity": "post_box", "collection_times": "Mo-Fr 16:15; Sa 10:45", "indoor": "yes", "note": "ON 12/24 AND 12/31, THIS BOX MAY BE COLLECTED AS EARLY AS 12 NOON.", "nsi_id": "unitedstatespostalservice-a77078", "operator": "United States Postal Service", "operator:short": "USPS", "operator:type": "public", "operator:wikidata": "Q668687", "ref": "2191900003"}, "type": "Feature"}
{"geometry": {"coordinates": [-75.915934343, 39.414736489], "type": "Point"}, "id": "8aM2nmPD0TimauB_OdUe3YFbUF8=", "properties": {"@source_uri": "https://tools.usps.com/UspsToolsRestServices/rest/POLocator/findLocations", "@spider": "usps_collection_boxes", "addr:city": "EARLEVILLE", "addr:country": "US", "addr:postcode": "21919", "addr:state": "MD", "addr:street_address": "1244 CRYSTAL BEACH RD", "amenity": "post_box", "collection_times": "Mo-Fr 16:30; Sa 11:00", "indoor": "yes", "note": "ON 12/24 AND 12/31, THIS BOX MAY BE COLLECTED AS EARLY AS 12 NOON.", "nsi_id": "unitedstatespostalservice-a77078", "operator": "United States Postal Service", "operator:short": "USPS", "operator:type": "public", "operator:wikidata": "Q668687", "ref": "2191900005"}, "type": "Feature"}
{"geometry": {"coordinates": [-75.825889966, 39.65827849], "type": "Point"}, "id": "f9hMIYZmIOzgs4cEj8XIe_1u_Hk=", "properties": {"@source_uri": "https://tools.usps.com/UspsToolsRestServices/rest/POLocator/findLocations", "@spider": "usps_collection_boxes", "addr:city": "ELK MILLS", "addr:country": "US", "addr:postcode": "21920", "addr:state": "MD", "addr:street_address": "732 ELK MILLS RD", "amenity": "post_box", "collection_times": "Mo-Fr 16:15; Sa 11:45", "note": "ON 12/24 AND 12/31, THIS BOX MAY BE COLLECTED AS EARLY AS 12 NOON.", "nsi_id": "unitedstatespostalservice-a77078", "operator": "United States Postal Service", "operator:short": "USPS", "operator:type": "public", "operator:wikidata": "Q668687", "ref": "2192000000"}, "type": "Feature"}
{"geometry": {"coordinates": [-75.825889966, 39.65827849], "type": "Point"}, "id": "3ryGW_bgtGvs78z9Mp8VnKpJ3Hs=", "properties": {"@source_uri": "https://tools.usps.com/UspsToolsRestServices/rest/POLocator/findLocations", "@spider": "usps_collection_boxes", "addr:city": "ELK MILLS", "addr:country": "US", "addr:postcode": "21920", "addr:state": "MD", "addr:street_address": "732 ELK MILLS RD", "amenity": "post_box", "collection_times": "Mo-Fr 16:30; Sa 12:00", "indoor": "yes", "note": "ON 12/24 AND 12/31, THIS BOX MAY BE COLLECTED AS EARLY AS 12 NOON.", "nsi_id": "unitedstatespostalservice-a77078", "operator": "United States Postal Service", "operator:short": "USPS", "operator:type": "public", "operator:wikidata": "Q668687", "ref": "2192000001"}, "type": "Feature"}
{"geometry": {"coordinates": [-75.825889966, 39.65827849], "type": "Point"}, "id": "P-crM8dCUUS8Sa0eSpS91NXr3Sk=", "properties": {"@source_uri": "https://tools.usps.com/UspsToolsRestServices/rest/POLocator/findLocations", "@spider": "usps_collection_boxes", "addr:city": "ELK MILLS", "addr:country": "US", "addr:postcode": "21920", "addr:state": "MD", "addr:street_address": "732 ELK MILLS RD", "amenity": "post_box", "collection_times": "Mo-Fr 16:30; Sa 12:00", "indoor": "yes", "note": "ON 12/24 AND 12/31, THIS BOX MAY BE COLLECTED AS EARLY AS 12 NOON.", "nsi_id": "unitedstatespostalservice-a77078", "operator": "United States Postal Service", "operator:short": "USPS", "operator:type": "public", "operator:wikidata": "Q668687", "ref": "2192000003"}, "type": "Feature"}
{"geometry": {"coordinates": [-75.832761, 39.609021], "type": "Point"}, "id": "aoiX6IEKWqQ0u96QSNbqXeIszY8=", "properties": {"@source_uri": "https://tools.usps.com/UspsToolsRestServices/rest/POLocator/findLocations", "@spider": "usps_collection_boxes", "addr:city": "ELKTON", "addr:country": "US", "addr:postcode": "21921", "addr:state": "MD", "addr:street_address": "111 W HIGH ST", "amenity": "post_box", "collection_times": "Mo-Sa 13:30", "note": "ON 12/24 AND 12/31, THIS BOX MAY BE COLLECTED AS EARLY AS 12 NOON.", "nsi_id": "unitedstatespostalservice-a77078", "operator": "United States Postal Service", "operator:short": "USPS", "operator:type": "public", "operator:wikidata": "Q668687", "ref": "2192100002"}, "type": "Feature"}
{"geometry": {"coordinates": [-75.8287759, 39.608248], "type": "Point"}, "id": "6BXq4zFuS8HcoFOZnJ5n35bZuT8=", "properties": {"@source_uri": "https://tools.usps.com/UspsToolsRestServices/rest/POLocator/findLocations", "@spider": "usps_collection_boxes", "addr:city": "ELKTON", "addr:country": "US", "addr:postcode": "21921", "addr:state": "MD", "addr:street_address": "129 E MAIN ST", "amenity": "post_box", "collection_times": "Mo-Sa 10:45", "nsi_id": "unitedstatespostalservice-a77078", "operator": "United States Postal Service", "operator:short": "USPS", "operator:type": "public", "operator:wikidata": "Q668687", "ref": "2192100008"}, "type": "Feature"}
{"geometry": {"coordinates": [-75.8262868, 39.597573], "type": "Point"}, "id": "bdRdLmIIh_K-q36SwvlPUs7QbNw=", "properties": {"@source_uri": "https://tools.usps.com/UspsToolsRestServices/rest/POLocator/findLocations", "@spider": "usps_collection_boxes", "addr:city": "ELKTON", "addr:country": "US", "addr:postcode": "21921", "addr:state": "MD", "addr:street_address": "7 NORMAN ALLEN ST", "amenity": "post_box", "collection_times": "Mo-Sa 12:00", "nsi_id": "unitedstatespostalservice-a77078", "operator": "United States Postal Service", "operator:short": "USPS", "operator:type": "public", "operator:wikidata": "Q668687", "ref": "2192100011"}, "type": "Feature"}
{"geometry": {"coordinates": [-75.7972427, 39.643946], "type": "Point"}, "id": "pTy7TwmTIh4et5y91igqIaFqFd0=", "properties": {"@source_uri": "https://tools.usps.com/UspsToolsRestServices/rest/POLocator/findLocations", "@spider": "usps_collection_boxes", "addr:city": "ELKTON", "addr:country": "US", "addr:postcode": "21921", "addr:state": "MD", "addr:street_address": "1400 ELKTON RD", "amenity": "post_box", "collection_times": "Mo-Sa 09:45", "nsi_id": "unitedstatespostalservice-a77078", "operator": "United States Postal Service", "operator:short": "USPS", "operator:type": "public", "operator:wikidata": "Q668687", "ref": "2192100028"}, "type": "Feature"}
{"geometry": {"coordinates": [-75.8039338, 39.602368], "type": "Point"}, "id": "9Z75jFR4MWxkgJgr5t_DwksLZmg=", "properties": {"@source_uri": "https://tools.usps.com/UspsToolsRestServices/rest/POLocator/findLocations", "@spider": "usps_collection_boxes", "addr:city": "ELKTON", "addr:country": "US", "addr:postcode": "21921", "addr:state": "MD", "addr:street_address": "101 VILLAGE AT ELKTON", "amenity": "post_box", "collection_times": "Mo-Sa 13:30", "note": "ON 12/24 AND 12/31, THIS BOX MAY BE COLLECTED AS EARLY AS 12 NOON.", "nsi_id": "unitedstatespostalservice-a77078", "operator": "United States Postal Service", "operator:short": "USPS", "operator:type": "public", "operator:wikidata": "Q668687", "ref": "2192100030"}, "type": "Feature"}
{"geometry": {"coordinates": [-75.832321671, 39.606876207], "type": "Point"}, "id": "kaBxkTBJMTZP7Xg7TpnsRw0_jvw=", "properties": {"@source_uri": "https://tools.usps.com/UspsToolsRestServices/rest/POLocator/findLocations", "@spider": "usps_collection_boxes", "addr:city": "ELKTON", "addr:country": "US", "addr:postcode": "21921", "addr:state": "MD", "addr:street_address": "137 W MAIN ST", "amenity": "post_box", "collection_times": "Mo-Fr 17:00; Sa 15:00", "note": "ON 12/24 AND 12/31, THIS BOX MAY BE COLLECTED AS EARLY AS 12 NOON.", "nsi_id": "unitedstatespostalservice-a77078", "operator": "United States Postal Service", "operator:short": "USPS", "operator:type": "public", "operator:wikidata": "Q668687", "ref": "2192100034"}, "type": "Feature"}
{"geometry": {"coordinates": [-75.8060889, 39.63831], "type": "Point"}, "id": "g3V9ChG9Dr2zCCUE6kS6CEwZZMs=", "properties": {"@source_uri": "https://tools.usps.com/UspsToolsRestServices/rest/POLocator/findLocations", "@spider": "usps_collection_boxes", "addr:city": "ELKTON", "addr:country": "US", "addr:postcode": "21921", "addr:state": "MD", "addr:street_address": "221 BELLE HILL RD", "amenity": "post_box", "collection_times": "Mo-Sa 10:00", "nsi_id": "unitedstatespostalservice-a77078", "operator": "United States Postal Service", "operator:short": "USPS", "operator:type": "public", "operator:wikidata": "Q668687", "ref": "2192100042"}, "type": "Feature"}
{"geometry": {"coordinates": [-75.8304019, 39.609293], "type": "Point"}, "id": "8DvwNLmh-cXvbaluewnsqPfV_DM=", "properties": {"@source_uri": "https://tools.usps.com/UspsToolsRestServices/rest/POLocator/findLocations", "@spider": "usps_collection_boxes", "addr:city": "ELKTON", "addr:country": "US", "addr:postcode": "21921", "addr:state": "MD", "addr:street_address": "140 NORTH ST", "amenity": "post_box", "collection_times": "Mo-Sa 13:45", "note": "ON 12/24 AND 12/31, THIS BOX MAY BE COLLECTED AS EARLY AS 12 NOON.", "nsi_id": "unitedstatespostalservice-a77078", "operator": "United States Postal Service", "operator:short": "USPS", "operator:type": "public", "operator:wikidata": "Q668687", "ref": "2192100054"}, "type": "Feature"}
{"geometry": {"coordinates": [-75.8266023, 39.60903], "type": "Point"}, "id": "uhyDGmKq49126McNn5DThZSJVhY=", "properties": {"@source_uri": "https://tools.usps.com/UspsToolsRestServices/rest/POLocator/findLocations", "@spider": "usps_collection_boxes", "addr:city": "ELKTON", "addr:country": "US", "addr:postcode": "21921", "addr:state": "MD", "addr:street_address": "190 E MAIN ST", "amenity": "post_box", "collection_times": "Mo-Sa 11:15", "nsi_id": "unitedstatespostalservice-a77078", "operator": "United States Postal Service", "operator:short": "USPS", "operator:type": "public", "operator:wikidata": "Q668687", "ref": "2192100056"}, "type": "Feature"}
{"geometry": {"coordinates": [-75.832321671, 39.606876207], "type": "Point"}, "id": "x_y_THNykNvmEKwDqqpT_MZEGlc=", "properties": {"@source_uri": "https://tools.usps.com/UspsToolsRestServices/rest/POLocator/findLocations", "@spider": "usps_collection_boxes", "addr:city": "ELKTON", "addr:country": "US", "addr:postcode": "21921", "addr:state": "MD", "addr:street_address": "137 W MAIN ST", "amenity": "post_box", "collection_times": "Mo-Fr 17:00; Sa 15:00", "indoor": "yes", "note": "ON 12/24 AND 12/31, THIS BOX MAY BE COLLECTED AS EARLY AS 12 NOON.", "nsi_id": "unitedstatespostalservice-a77078", "operator": "United States Postal Service", "operator:short": "USPS", "operator:type": "public", "operator:wikidata": "Q668687", "ref": "2192100060"}, "type": "Feature"}
{"geometry": {"coordinates": [-75.829708006, 39.60501302], "type": "Point"}, "id": "eEOvzJbnWvP-gAU-tdCk14rdvFg=", "properties": {"@source_uri": "https://tools.usps.com/UspsToolsRestServices/rest/POLocator/findLocations", "@spider": "usps_collection_boxes", "addr:city": "ELKTON", "addr:country": "US", "addr:postcode": "21921", "addr:state": "MD", "addr:street_address": "14 COMMERCIAL PLZ", "amenity": "post_box", "collection_times": "Mo-Sa 11:30", "nsi_id": "unitedstatespostalservice-a77078", "operator": "United States Postal Service", "operator:short": "USPS", "operator:type": "public", "operator:wikidata": "Q668687", "ref": "2192100062"}, "type": "Feature"}
{"geometry": {"coordinates": [-75.832321671, 39.606876207], "type": "Point"}, "id": "ujFmKrzX2E8Y2ewZNpTGIPU0wBw=", "properties": {"@source_uri": "https://tools.usps.com/UspsToolsRestServices/rest/POLocator/findLocations", "@spider": "usps_collection_boxes", "addr:city": "ELKTON", "addr:country": "US", "addr:postcode": "21921", "addr:state": "MD", "addr:street_address": "137 W MAIN ST", "amenity": "post_box", "collection_times": "Mo-Fr 17:00; Sa 12:00", "indoor": "yes", "note": "ON 12/24 AND 12/31, THIS BOX MAY BE COLLECTED AS EARLY AS 12 NOON.", "nsi_id": "unitedstatespostalservice-a77078", "operator": "United States Postal Service", "operator:short": "USPS", "operator:type": "public", "operator:wikidata": "Q668687", "ref": "2192100070"}, "type": "Feature"}
{"geometry": {"coordinates": [-75.883444629, 39.365838607], "type": "Point"}, "id": "8SbCoLTsjUBR3F1OkKsxsLHf6Gg=", "properties": {"@source_uri": "https://tools.usps.com/UspsToolsRestServices/rest/POLocator/findLocations", "@spider": "usps_collection_boxes", "addr:city": "GEORGETOWN", "addr:country": "US", "addr:postcode": "21930", "addr:state": "MD", "addr:street_address": "7480 AUGUSTINE HERMAN HWY", "amenity": "post_box", "collection_times": "Mo-Fr 16:00; Sa 11:15", "note": "ON 12/24 AND 12/31, THIS BOX MAY BE COLLECTED AS EARLY AS 12 NOON.", "nsi_id": "unitedstatespostalservice-a77078", "operator": "United States Postal Service", "operator:short": "USPS", "operator:type": "public", "operator:wikidata": "Q668687", "ref": "2193000001"}, "type": "Feature"}
{"geometry": {"coordinates": [-75.883444629, 39.365838607], "type": "Point"}, "id": "Q0q-IK2YxUrbvlnwgsePpVL-s5Q=", "properties": {"@source_uri": "https://tools.usps.com/UspsToolsRestServices/rest/POLocator/findLocations", "@spider": "usps_collection_boxes", "addr:city": "GEORGETOWN", "addr:country": "US", "addr:postcode": "21930", "addr:state": "MD", "addr:street_address": "7480 AUGUSTINE HERMAN HWY", "amenity": "post_box", "collection_times": "Mo-Fr 16:00; Sa 11:15", "indoor": "yes", "note": "ON 12/24 AND 12/31, THIS BOX MAY BE COLLECTED AS EARLY AS 12 NOON.", "nsi_id": "unitedstatespostalservice-a77078", "operator": "United States Postal Service", "operator:short": "USPS", "operator:type": "public", "operator:wikidata": "Q668687", "ref": "2193000002"}, "type": "Feature"}
{"geometry": {"coordinates": [-75.883444629, 39.365838607], "type": "Point"}, "id": "uXvw0P-VZiQscGW2oC0XeIShquQ=", "properties": {"@source_uri": "https://tools.usps.com/UspsToolsRestServices/rest/POLocator/findLocations", "@spider": "usps_collection_boxes", "addr:city": "GEORGETOWN", "addr:country": "US", "addr:postcode": "21930", "addr:state": "MD", "addr:street_address": "7480 AUGUSTINE HERMAN HWY", "amenity": "post_box", "collection_times": "Mo-Fr 16:00; Sa 11:00", "indoor": "yes", "note": "ON 12/24 AND 12/31, THIS BOX MAY BE COLLECTED AS EARLY AS 12 NOON.", "nsi_id": "unitedstatespostalservice-a77078", "operator": "United States Postal Service", "operator:short": "USPS", "operator:type": "public", "operator:wikidata": "Q668687", "ref": "2193000004"}, "type": "Feature"}
