{"dataset_attributes": {"@spider": "usps_collection_boxes"}, "geometry": {"coordinates": [-77.3415799, 38.603358], "type": "Point"}, "id": "-PtOhET05jkAFCqMJTD7geRcfmA=", "properties": {"@spider": "usps_collection_boxes", "addr:city": "DUMFRIES", "addr:country": "US", "addr:full": "4384 KEVIN WALKER DR", "addr:postcode": "22025", "addr:state": "VA", "amenity": "post_box", "brand": "United States Postal Service", "brand:wikidata": "Q668687", "collection_times": "Mo-Sa 11:00", "name": "USPS COLLECTION BOX - BLUE BOX", "nsi_id": "unitedstatespostalservice-a77078", "operator": "United States Postal Service", "operator:short": "USPS", "operator:type": "public", "operator:wikidata": "Q668687", "ref": "2202500002"}, "type": "Feature"}
{"dataset_attributes": {"@spider": "usps_collection_boxes"}, "geometry": {"coordinates": [-77.3416055, 38.603358], "type": "Point"}, "id": "muwhqE3srIfiJRxoFzGizD_hSXQ=", "properties": {"@spider": "usps_collection_boxes", "addr:city": "DUMFRIES", "addr:country": "US", "addr:full": "4384 KEVIN WALKER DR", "addr:postcode": "22025", "addr:state": "VA", "amenity": "post_box", "brand": "United States Postal Service", "brand:wikidata": "Q668687", "collection_times": "Mo-Sa 11:00", "name": "USPS COLLECTION BOX - BLUE BOX", "nsi_id": "unitedstatespostalservice-a77078", "operator": "United States Postal Service", "operator:short": "USPS", "operator:type": "public", "operator:wikidata": "Q668687", "ref": "2202500003"}, "type": "Feature"}
{"dataset_attributes": {"@spider": "usps_collection_boxes"}, "geometry": {"coordinates": [-77.3297802533, 38.5626384516], "type": "Point"}, "id": "Q9ZlOmQXGU2wB-eD9IheuIGQzFA=", "properties": {"@spider": "usps_collection_boxes", "addr:city": "DUMFRIES", "addr:country": "US", "addr:full": "17949 MAIN ST", "addr:postcode": "22026", "addr:state": "VA", "amenity": "post_box", "brand": "United States Postal Service", "brand:wikidata": "Q668687", "collection_times": "Mo-Fr 17:00; Sa 14:00", "name": "USPS COLLECTION BOX - BLUE BOX", "note": "ON 12/24 AND 12/31, THIS BOX MAY BE COLLECTED AS EARLY AS 12 NOON.", "nsi_id": "unitedstatespostalservice-a77078", "operator": "United States Postal Service", "operator:short": "USPS", "operator:type": "public", "operator:wikidata": "Q668687", "ref": "2202600008"}, "type": "Feature"}
{"dataset_attributes": {"@spider": "usps_collection_boxes"}, "geometry": {"coordinates": [-77.330148, 38.563471], "type": "Point"}, "id": "dg_712Kqk0u7e2UUwr2iDZnwq4s=", "properties": {"@spider": "usps_collection_boxes", "addr:city": "DUMFRIES", "addr:country": "US", "addr:full": "17949 MAIN ST", "addr:postcode": "22026", "addr:state": "VA", "amenity": "post_box", "brand": "United States Postal Service", "brand:wikidata": "Q668687", "collection_times": "Mo-Fr 17:00; Sa 14:00", "name": "USPS COLLECTION BOX - BLUE BOX", "note": "ON 12/24 AND 12/31, THIS BOX MAY BE COLLECTED AS EARLY AS 12 NOON.", "nsi_id": "unitedstatespostalservice-a77078", "operator": "United States Postal Service", "operator:short": "USPS", "operator:type": "public", "operator:wikidata": "Q668687", "ref": "2202600010"}, "type": "Feature"}
{"dataset_attributes": {"@spider": "usps_collection_boxes"}, "geometry": {"coordinates": [-77.330148, 38.563471], "type": "Point"}, "id": "IgwMQZmwa7ETQlkNDtvJ3c7JoYQ=", "properties": {"@spider": "usps_collection_boxes", "addr:city": "DUMFRIES", "addr:country": "US", "addr:full": "17949 MAIN ST", "addr:postcode": "22026", "addr:state": "VA", "amenity": "post_box", "brand": "United States Postal Service", "brand:wikidata": "Q668687", "collection_times": "Mo-Fr 17:00; Sa 14:00", "name": "USPS COLLECTION BOX - PO LOBBY", "note": "ON 12/24 AND 12/31, THIS BOX MAY BE COLLECTED AS EARLY AS 12 NOON.", "nsi_id": "unitedstatespostalservice-a77078", "operator": "United States Postal Service", "operator:short": "USPS", "operator:type": "public", "operator:wikidata": "Q668687", "ref": "2202600014"}, "type": "Feature"}
{"dataset_attributes": {"@spider": "usps_collection_boxes"}, "geometry": {"coordinates": [-77.329782, 38.562642], "type": "Point"}, "id": "1XJ8KNNKiwNqDkTUIHFnFLK-FzM=", "properties": {"@spider": "usps_collection_boxes", "addr:city": "DUMFRIES", "addr:country": "US", "addr:full": "17949 MAIN ST", "addr:postcode": "22026", "addr:state": "VA", "amenity": "post_box", "brand": "United States Postal Service", "brand:wikidata": "Q668687", "collection_times": "Mo-Fr 17:00; Sa 14:00", "name": "USPS COLLECTION BOX - PO LOBBY", "note": "ON 12/24 AND 12/31, THIS BOX MAY BE COLLECTED AS EARLY AS 12 NOON.", "nsi_id": "unitedstatespostalservice-a77078", "operator": "United States Postal Service", "operator:short": "USPS", "operator:type": "public", "operator:wikidata": "Q668687", "ref": "2202600016"}, "type": "Feature"}
{"dataset_attributes": {"@spider": "usps_collection_boxes"}, "geometry": {"coordinates": [-77.1335772, 38.685603], "type": "Point"}, "id": "j5YtYhei4aytPUPTVk4XOeKkBNo=", "properties": {"@spider": "usps_collection_boxes", "addr:city": "FORT BELVOIR", "addr:country": "US", "addr:full": "10010 FORNEY LOOP", "addr:postcode": "22060", "addr:state": "VA", "amenity": "post_box", "brand": "United States Postal Service", "brand:wikidata": "Q668687", "collection_times": "Mo-Sa 09:00", "name": "USPS COLLECTION BOX - BLUE BOX", "nsi_id": "unitedstatespostalservice-a77078", "operator": "United States Postal Service", "operator:short": "USPS", "operator:type": "public", "operator:wikidata": "Q668687", "ref": "2206000001"}, "type": "Feature"}
{"dataset_attributes": {"@spider": "usps_collection_boxes"}, "geometry": {"coordinates": [-77.1370281, 38.692687], "type": "Point"}, "id": "UOkVaIRLvu2X6vB4qdxXLeuX2EM=", "properties": {"@spider": "usps_collection_boxes", "addr:city": "FORT BELVOIR", "addr:country": "US", "addr:full": "9800 BELVOIR RD", "addr:postcode": "22060", "addr:state": "VA", "amenity": "post_box", "brand": "United States Postal Service", "brand:wikidata": "Q668687", "collection_times": "Mo-Sa 09:00", "name": "USPS COLLECTION BOX - BLUE BOX", "nsi_id": "unitedstatespostalservice-a77078", "operator": "United States Postal Service", "operator:short": "USPS", "operator:type": "public", "operator:wikidata": "Q668687", "ref": "2206000002"}, "type": "Feature"}
{"dataset_attributes": {"@spider": "usps_collection_boxes"}, "geometry": {"coordinates": [-77.1316347, 38.692706], "type": "Point"}, "id": "obJ5j4947KwFxA05yt5bUDcb7wg=", "properties": {"@spider": "usps_collection_boxes", "addr:city": "FORT BELVOIR", "addr:country": "US", "addr:full": "9775 GAILLARD RD", "addr:postcode": "22060", "addr:state": "VA", "amenity": "post_box", "brand": "United States Postal Service", "brand:wikidata": "Q668687", "collection_times": "Mo-Sa 09:00", "name": "USPS COLLECTION BOX - BLUE BOX", "nsi_id": "unitedstatespostalservice-a77078", "operator": "United States Postal Service", "operator:short": "USPS", "operator:type": "public", "operator:wikidata": "Q668687", "ref": "2206000004"}, "type": "Feature"}
{"dataset_attributes": {"@spider": "usps_collection_boxes"}, "geometry": {"coordinates": [-77.1310866, 38.709236], "type": "Point"}, "id": "vOysh_ONzejyvUsTRAoTuQerN_Y=", "properties": {"@spider": "usps_collection_boxes", "addr:city": "FORT BELVOIR", "addr:country": "US", "addr:full": "5454 HUDSON RD", "addr:postcode": "22060", "addr:state": "VA", "amenity": "post_box", "brand": "United States Postal Service", "brand:wikidata": "Q668687", "collection_times": "Mo-Sa 09:00", "name": "USPS COLLECTION BOX - BLUE BOX", "nsi_id": "unitedstatespostalservice-a77078", "operator": "United States Postal Service", "operator:short": "USPS", "operator:type": "public", "operator:wikidata": "Q668687", "ref": "2206000008"}, "type": "Feature"}
{"dataset_attributes": {"@spider": "usps_collection_boxes"}, "geometry": {"coordinates": [-77.1611195, 38.709325], "type": "Point"}, "id": "bWxHNy1QGR8hpbXuDUM_s86CrHo=", "properties": {"@spider": "usps_collection_boxes", "addr:city": "FORT BELVOIR", "addr:country": "US", "addr:full": "9196 RICHMOND HWY", "addr:postcode": "22060", "addr:state": "VA", "amenity": "post_box", "brand": "United States Postal Service", "brand:wikidata": "Q668687", "collection_times": "Mo-Sa 09:00", "name": "USPS COLLECTION BOX - BLUE BOX", "nsi_id": "unitedstatespostalservice-a77078", "operator": "United States Postal Service", "operator:short": "USPS", "operator:type": "public", "operator:wikidata": "Q668687", "ref": "2206000009"}, "type": "Feature"}
{"dataset_attributes": {"@spider": "usps_collection_boxes"}, "geometry": {"coordinates": [-77.1299369, 38.697542], "type": "Point"}, "id": "1T7iZQQ8apPCuaSsZ3DhCHzfbqI=", "properties": {"@spider": "usps_collection_boxes", "addr:city": "FORT BELVOIR", "addr:country": "US", "addr:full": "9585 BARLOW RD", "addr:postcode": "22060", "addr:state": "VA", "amenity": "post_box", "brand": "United States Postal Service", "brand:wikidata": "Q668687", "collection_times": "Mo-Sa 09:00", "name": "USPS COLLECTION BOX - BLUE BOX", "nsi_id": "unitedstatespostalservice-a77078", "operator": "United States Postal Service", "operator:short": "USPS", "operator:type": "public", "operator:wikidata": "Q668687", "ref": "2206000010"}, "type": "Feature"}
{"dataset_attributes": {"@spider": "usps_collection_boxes"}, "geometry": {"coordinates": [-77.1419443, 38.695713], "type": "Point"}, "id": "dKgeammUE8MTbpfMBVTFddP23gU=", "properties": {"@spider": "usps_collection_boxes", "addr:city": "FORT BELVOIR", "addr:country": "US", "addr:full": "9625 MIDDLETON RD", "addr:postcode": "22060", "addr:state": "VA", "amenity": "post_box", "brand": "United States Postal Service", "brand:wikidata": "Q668687", "collection_times": "Mo-Sa 09:00", "name": "USPS COLLECTION BOX - BLUE BOX", "nsi_id": "unitedstatespostalservice-a77078", "operator": "United States Postal Service", "operator:short": "USPS", "operator:type": "public", "operator:wikidata": "Q668687", "ref": "2206000012"}, "type": "Feature"}
{"dataset_attributes": {"@spider": "usps_collection_boxes"}, "geometry": {"coordinates": [-77.1284222, 38.682153], "type": "Point"}, "id": "FeQSgmPDXTGRdxUkFD8KJpWPf1o=", "properties": {"@spider": "usps_collection_boxes", "addr:city": "FORT BELVOIR", "addr:country": "US", "addr:full": "10170 BELVOIR DR", "addr:postcode": "22060", "addr:state": "VA", "amenity": "post_box", "brand": "United States Postal Service", "brand:wikidata": "Q668687", "collection_times": "Mo-Sa 09:00", "name": "USPS COLLECTION BOX - BLUE BOX", "nsi_id": "unitedstatespostalservice-a77078", "operator": "United States Postal Service", "operator:short": "USPS", "operator:type": "public", "operator:wikidata": "Q668687", "ref": "2206000014"}, "type": "Feature"}
{"dataset_attributes": {"@spider": "usps_collection_boxes"}, "geometry": {"coordinates": [-77.1464536, 38.70367], "type": "Point"}, "id": "XVqjy-HXTHjUAal0k_31N-6AEsQ=", "properties": {"@spider": "usps_collection_boxes", "addr:city": "FORT BELVOIR", "addr:country": "US", "addr:full": "9325 GUNSTON RD", "addr:postcode": "22060", "addr:state": "VA", "amenity": "post_box", "brand": "United States Postal Service", "brand:wikidata": "Q668687", "collection_times": "Mo-Sa 09:00", "name": "USPS COLLECTION BOX - BLUE BOX", "nsi_id": "unitedstatespostalservice-a77078", "operator": "United States Postal Service", "operator:short": "USPS", "operator:type": "public", "operator:wikidata": "Q668687", "ref": "2206000015"}, "type": "Feature"}
{"dataset_attributes": {"@spider": "usps_collection_boxes"}, "geometry": {"coordinates": [-77.1580491, 38.719901], "type": "Point"}, "id": "8s5bTLr90onKQCOJ8uVpzrvfVAI=", "properties": {"@spider": "usps_collection_boxes", "addr:city": "FORT BELVOIR", "addr:country": "US", "addr:full": "8825 BEULAH ST", "addr:postcode": "22060", "addr:state": "VA", "amenity": "post_box", "brand": "United States Postal Service", "brand:wikidata": "Q668687", "collection_times": "Mo-Sa 09:00", "name": "USPS COLLECTION BOX - BLUE BOX", "nsi_id": "unitedstatespostalservice-a77078", "operator": "United States Postal Service", "operator:short": "USPS", "operator:type": "public", "operator:wikidata": "Q668687", "ref": "2206000016"}, "type": "Feature"}
{"dataset_attributes": {"@spider": "usps_collection_boxes"}, "geometry": {"coordinates": [-77.1525681, 38.71445], "type": "Point"}, "id": "2UpNIB1TXEz_uNWbUDyvIoEMo_w=", "properties": {"@spider": "usps_collection_boxes", "addr:city": "FORT BELVOIR", "addr:country": "US", "addr:full": "9001 GUNSTON RD", "addr:postcode": "22060", "addr:state": "VA", "amenity": "post_box", "brand": "United States Postal Service", "brand:wikidata": "Q668687", "collection_times": "Mo-Fr 17:00; Sa 13:00", "name": "USPS COLLECTION BOX - BLUE BOX", "note": "ON 12/24 AND 12/31, THIS BOX MAY BE COLLECTED AS EARLY AS 12 NOON.", "nsi_id": "unitedstatespostalservice-a77078", "operator": "United States Postal Service", "operator:short": "USPS", "operator:type": "public", "operator:wikidata": "Q668687", "ref": "2206000017"}, "type": "Feature"}
{"dataset_attributes": {"@spider": "usps_collection_boxes"}, "geometry": {"coordinates": [-77.1364674, 38.687855], "type": "Point"}, "id": "Gf4IRIoHyLCiETFUqd7OWtlZ0dE=", "properties": {"@spider": "usps_collection_boxes", "addr:city": "FORT BELVOIR", "addr:country": "US", "addr:full": "5875 21ST ST", "addr:postcode": "22060", "addr:state": "VA", "amenity": "post_box", "brand": "United States Postal Service", "brand:wikidata": "Q668687", "collection_times": "Mo-Fr 17:00; Sa 15:00", "name": "USPS COLLECTION BOX - BLUE BOX", "note": "ON 12/24 AND 12/31, THIS BOX MAY BE COLLECTED AS EARLY AS 12 NOON.", "nsi_id": "unitedstatespostalservice-a77078", "operator": "United States Postal Service", "operator:short": "USPS", "operator:type": "public", "operator:wikidata": "Q668687", "ref": "2206000018"}, "type": "Feature"}
{"dataset_attributes": {"@spider": "usps_collection_boxes"}, "geometry": {"coordinates": [-77.1509009, 38.723663], "type": "Point"}, "id": "NcuJTOm0AF2ek3nN5u-aYuW3YjA=", "properties": {"@spider": "usps_collection_boxes", "addr:city": "FORT BELVOIR", "addr:country": "US", "addr:full": "6050 GORGAS RD", "addr:postcode": "22060", "addr:state": "VA", "amenity": "post_box", "brand": "United States Postal Service", "brand:wikidata": "Q668687", "collection_times": "Mo-Sa 09:00", "name": "USPS COLLECTION BOX - BLUE BOX", "nsi_id": "unitedstatespostalservice-a77078", "operator": "United States Postal Service", "operator:short": "USPS", "operator:type": "public", "operator:wikidata": "Q668687", "ref": "2206000020"}, "type": "Feature"}
{"dataset_attributes": {"@spider": "usps_collection_boxes"}, "geometry": {"coordinates": [-77.1375734, 38.700168], "type": "Point"}, "id": "rhhEUulyi-EVvfp4iyS3W8LVLiw=", "properties": {"@spider": "usps_collection_boxes", "addr:city": "FORT BELVOIR", "addr:country": "US", "addr:full": "9501 FARRELL RD", "addr:postcode": "22060", "addr:state": "VA", "amenity": "post_box", "brand": "United States Postal Service", "brand:wikidata": "Q668687", "collection_times": "Mo-Sa 09:00", "name": "USPS COLLECTION BOX - BLUE BOX", "nsi_id": "unitedstatespostalservice-a77078", "operator": "United States Postal Service", "operator:short": "USPS", "operator:type": "public", "operator:wikidata": "Q668687", "ref": "2206000021"}, "type": "Feature"}
{"dataset_attributes": {"@spider": "usps_collection_boxes"}, "geometry": {"coordinates": [-77.1618366, 38.717747], "type": "Point"}, "id": "VWw_hdMqOFI54nci2J9K8YRLILQ=", "properties": {"@spider": "usps_collection_boxes", "addr:city": "FORT BELVOIR", "addr:country": "US", "addr:full": "8725 JOHN J KINGMAN RD", "addr:postcode": "22060", "addr:state": "VA", "amenity": "post_box", "brand": "United States Postal Service", "brand:wikidata": "Q668687", "collection_times": "Mo-Fr 15:00; Sa 13:00", "name": "USPS COLLECTION BOX - BLUE BOX", "note": "ON 12/24 AND 12/31, THIS BOX MAY BE COLLECTED AS EARLY AS 12 NOON.", "nsi_id": "unitedstatespostalservice-a77078", "operator": "United States Postal Service", "operator:short": "USPS", "operator:type": "public", "operator:wikidata": "Q668687", "ref": "2206000022"}, "type": "Feature"}
{"dataset_attributes": {"@spider": "usps_collection_boxes"}, "geometry": {"coordinates": [-77.1641569, 38.719698], "type": "Point"}, "id": "u0b1fefuBaUwLjoVM5-aOzvBrfA=", "properties": {"@spider": "usps_collection_boxes", "addr:city": "FORT BELVOIR", "addr:country": "US", "addr:full": "8725 JOHN J KINGMAN RD", "addr:postcode": "22060", "addr:state": "VA", "amenity": "post_box", "brand": "United States Postal Service", "brand:wikidata": "Q668687", "collection_times": "Mo-Fr 15:00; Sa 13:00", "name": "USPS COLLECTION BOX - BLUE BOX", "note": "ON 12/24 AND 12/31, THIS BOX MAY BE COLLECTED AS EARLY AS 12 NOON.", "nsi_id": "unitedstatespostalservice-a77078", "operator": "United States Postal Service", "operator:short": "USPS", "operator:type": "public", "operator:wikidata": "Q668687", "ref": "2206000023"}, "type": "Feature"}
{"dataset_attributes": {"@spider": "usps_collection_boxes"}, "geometry": {"coordinates": [-77.1529637677, 38.72145169], "type": "Point"}, "id": "TN9x_QhFFHsYRRnrD4HTHG44WY4=", "properties": {"@spider": "usps_collection_boxes", "addr:city": "FORT BELVOIR", "addr:country": "US", "addr:full": "6050 GORGAS RD", "addr:postcode": "22060", "addr:state": "VA", "amenity": "post_box", "brand": "United States Postal Service", "brand:wikidata": "Q668687", "collection_times": "Mo-Sa 09:00", "name": "USPS COLLECTION BOX - BLUE BOX", "nsi_id": "unitedstatespostalservice-a77078", "operator": "United States Postal Service", "operator:short": "USPS", "operator:type": "public", "operator:wikidata": "Q668687", "ref": "2206000025"}, "type": "Feature"}
{"dataset_attributes": {"@spider": "usps_collection_boxes"}, "geometry": {"coordinates": [-77.1525875, 38.714471], "type": "Point"}, "id": "PaZYb4aehxBOIxZJBw0xnkMhr3Y=", "properties": {"@spider": "usps_collection_boxes", "addr:city": "FORT BELVOIR", "addr:country": "US", "addr:full": "9001 GUNSTON RD", "addr:postcode": "22060", "addr:state": "VA", "amenity": "post_box", "brand": "United States Postal Service", "brand:wikidata": "Q668687", "collection_times": "Mo-Fr 15:30; Sa 13:00", "name": "USPS COLLECTION BOX - PO LOBBY", "note": "ON 12/24 AND 12/31, THIS BOX MAY BE COLLECTED AS EARLY AS 12 NOON.", "nsi_id": "unitedstatespostalservice-a77078", "operator": "United States Postal Service", "operator:short": "USPS", "operator:type": "public", "operator:wikidata": "Q668687", "ref": "2206000026"}, "type": "Feature"}
{"dataset_attributes": {"@spider": "usps_collection_boxes"}, "geometry": {"coordinates": [-77.1467654, 38.705979], "type": "Point"}, "id": "nZJYA-0p7Xd5h1adpvKToOtwiNA=", "properties": {"@spider": "usps_collection_boxes", "addr:city": "FORT BELVOIR", "addr:country": "US", "addr:full": "9301 CHAPEK RD", "addr:postcode": "22060", "addr:state": "VA", "amenity": "post_box", "brand": "United States Postal Service", "brand:wikidata": "Q668687", "collection_times": "Mo-Sa 09:00", "name": "USPS COLLECTION BOX - BLUE BOX", "nsi_id": "unitedstatespostalservice-a77078", "operator": "United States Postal Service", "operator:short": "USPS", "operator:type": "public", "operator:wikidata": "Q668687", "ref": "2206000028"}, "type": "Feature"}
{"dataset_attributes": {"@spider": "usps_collection_boxes"}, "geometry": {"coordinates": [-77.1367716, 38.687681], "type": "Point"}, "id": "KVF7eGhnlNOtW7r0WSoQY0EJ9kk=", "properties": {"@spider": "usps_collection_boxes", "addr:city": "FORT BELVOIR", "addr:country": "US", "addr:full": "5875 21ST ST", "addr:postcode": "22060", "addr:state": "VA", "amenity": "post_box", "brand": "United States Postal Service", "brand:wikidata": "Q668687", "collection_times": "Mo-Fr 17:00; Sa 13:00", "name": "USPS COLLECTION BOX - PO LOBBY", "note": "ON 12/24 AND 12/31, THIS BOX MAY BE COLLECTED AS EARLY AS 12 NOON.", "nsi_id": "unitedstatespostalservice-a77078", "operator": "United States Postal Service", "operator:short": "USPS", "operator:type": "public", "operator:wikidata": "Q668687", "ref": "2206000030"}, "type": "Feature"}
{"dataset_attributes": {"@spider": "usps_collection_boxes"}, "geometry": {"coordinates": [-77.1424713, 38.705876], "type": "Point"}, "id": "J_k73An5Xf3LLfJaYNZWD_a4SCg=", "properties": {"@spider": "usps_collection_boxes", "addr:city": "FORT BELVOIR", "addr:country": "US", "addr:full": "9300 DEWITT LOOP", "addr:postcode": "22060", "addr:state": "VA", "amenity": "post_box", "brand": "United States Postal Service", "brand:wikidata": "Q668687", "collection_times": "Mo-Fr 15:00; Sa 13:00", "name": "USPS COLLECTION BOX - BLUE BOX", "note": "ON 12/24 AND 12/31, THIS BOX MAY BE COLLECTED AS EARLY AS 12 NOON.", "nsi_id": "unitedstatespostalservice-a77078", "operator": "United States Postal Service", "operator:short": "USPS", "operator:type": "public", "operator:wikidata": "Q668687", "ref": "2206000032"}, "type": "Feature"}
{"dataset_attributes": {"@spider": "usps_collection_boxes"}, "geometry": {"coordinates": [-77.136902847, 38.687789768], "type": "Point"}, "id": "qhuCZw1D-ZRLV1vykby-lwZjGx0=", "properties": {"@spider": "usps_collection_boxes", "addr:city": "FORT BELVOIR", "addr:country": "US", "addr:full": "5875 21ST ST", "addr:postcode": "22060", "addr:state": "VA", "amenity": "post_box", "brand": "United States Postal Service", "brand:wikidata": "Q668687", "collection_times": "Mo-Fr 17:00; Sa 13:00", "name": "USPS COLLECTION BOX - PO LOBBY", "note": "ON 12/24 AND 12/31, THIS BOX MAY BE COLLECTED AS EARLY AS 12 NOON.", "nsi_id": "unitedstatespostalservice-a77078", "operator": "United States Postal Service", "operator:short": "USPS", "operator:type": "public", "operator:wikidata": "Q668687", "ref": "2206000033"}, "type": "Feature"}
{"dataset_attributes": {"@spider": "usps_collection_boxes"}, "geometry": {"coordinates": [-77.153526009, 38.71502308], "type": "Point"}, "id": "gn9nHrSikpOUw9GcYr6ysbqdQII=", "properties": {"@spider": "usps_collection_boxes", "addr:city": "FORT BELVOIR", "addr:country": "US", "addr:full": "9001 GUNSTON RD", "addr:postcode": "22060", "addr:state": "VA", "amenity": "post_box", "brand": "United States Postal Service", "brand:wikidata": "Q668687", "collection_times": "Mo-Fr 17:00", "name": "USPS COLLECTION BOX - PO LOBBY", "note": "ON 12/24 AND 12/31, THIS BOX MAY BE COLLECTED AS EARLY AS 12 NOON.", "nsi_id": "unitedstatespostalservice-a77078", "operator": "United States Postal Service", "operator:short": "USPS", "operator:type": "public", "operator:wikidata": "Q668687", "ref": "2206000034"}, "type": "Feature"}
{"dataset_attributes": {"@spider": "usps_collection_boxes"}, "geometry": {"coordinates": [-77.1928628, 38.731224], "type": "Point"}, "id": "-BE4TWcA7h7JwbanH8xrk5dvn5Q=", "properties": {"@spider": "usps_collection_boxes", "addr:city": "LORTON", "addr:country": "US", "addr:full": "8219 TERMINAL RD", "addr:postcode": "22079", "addr:state": "VA", "amenity": "post_box", "brand": "United States Postal Service", "brand:wikidata": "Q668687", "collection_times": "Mo-Fr 12:15; Sa 13:15", "name": "USPS COLLECTION BOX - BLUE BOX", "note": "ON 12/24 AND 12/31, THIS BOX MAY BE COLLECTED AS EARLY AS 12 NOON.", "nsi_id": "unitedstatespostalservice-a77078", "operator": "United States Postal Service", "operator:short": "USPS", "operator:type": "public", "operator:wikidata": "Q668687", "ref": "2207900002"}, "type": "Feature"}
{"dataset_attributes": {"@spider": "usps_collection_boxes"}, "geometry": {"coordinates": [-77.1937184, 38.717344], "type": "Point"}, "id": "N8NR5ILy-OgIQ-DVRaiyUmfVk74=", "properties": {"@spider": "usps_collection_boxes", "addr:city": "LORTON", "addr:country": "US", "addr:full": "7200 TELEGRAPH SQUARE DR", "addr:postcode": "22079", "addr:state": "VA", "amenity": "post_box", "brand": "United States Postal Service", "brand:wikidata": "Q668687", "collection_times": "Mo-Fr 12:15; Sa 13:15", "name": "USPS COLLECTION BOX - BLUE BOX", "note": "ON 12/24 AND 12/31, THIS BOX MAY BE COLLECTED AS EARLY AS 12 NOON.", "nsi_id": "unitedstatespostalservice-a77078", "operator": "United States Postal Service", "operator:short": "USPS", "operator:type": "public", "operator:wikidata": "Q668687", "ref": "2207900003"}, "type": "Feature"}
{"dataset_attributes": {"@spider": "usps_collection_boxes"}, "geometry": {"coordinates": [-77.208448, 38.705075], "type": "Point"}, "id": "0si9O8SQNyUDQ6rlPp-SogaOE_Y=", "properties": {"@spider": "usps_collection_boxes", "addr:city": "LORTON", "addr:country": "US", "addr:full": "7726 GUNSTON PLZ", "addr:postcode": "22079", "addr:state": "VA", "amenity": "post_box", "brand": "United States Postal Service", "brand:wikidata": "Q668687", "collection_times": "Mo-Fr 16:45; Sa 13:15", "name": "USPS COLLECTION BOX - BLUE BOX", "note": "ON 12/24 AND 12/31, THIS BOX MAY BE COLLECTED AS EARLY AS 12 NOON.", "nsi_id": "unitedstatespostalservice-a77078", "operator": "United States Postal Service", "operator:short": "USPS", "operator:type": "public", "operator:wikidata": "Q668687", "ref": "2207900004"}, "type": "Feature"}
{"dataset_attributes": {"@spider": "usps_collection_boxes"}, "geometry": {"coordinates": [-77.2083454134, 38.7051211665], "type": "Point"}, "id": "VWXNRIW2VqONS9w15fSw62fFqKQ=", "properties": {"@spider": "usps_collection_boxes", "addr:city": "LORTON", "addr:country": "US", "addr:full": "7726 GUNSTON PLZ", "addr:postcode": "22079", "addr:state": "VA", "amenity": "post_box", "brand": "United States Postal Service", "brand:wikidata": "Q668687", "collection_times": "Mo-Fr 16:45; Sa 13:15", "name": "USPS COLLECTION BOX - BLUE BOX", "note": "ON 12/24 AND 12/31, THIS BOX MAY BE COLLECTED AS EARLY AS 12 NOON.", "nsi_id": "unitedstatespostalservice-a77078", "operator": "United States Postal Service", "operator:short": "USPS", "operator:type": "public", "operator:wikidata": "Q668687", "ref": "2207900006"}, "type": "Feature"}
{"dataset_attributes": {"@spider": "usps_collection_boxes"}, "geometry": {"coordinates": [-77.1880361, 38.727043], "type": "Point"}, "id": "9CVBULKo0Ev4AZbE3Ftxo_CyCuI=", "properties": {"@spider": "usps_collection_boxes", "addr:city": "LORTON", "addr:country": "US", "addr:full": "8500 CINDER BED RD", "addr:postcode": "22079", "addr:state": "VA", "amenity": "post_box", "brand": "United States Postal Service", "brand:wikidata": "Q668687", "collection_times": "Mo-Fr 12:15; Sa 13:15", "name": "USPS COLLECTION BOX - BLUE BOX", "note": "ON 12/24 AND 12/31, THIS BOX MAY BE COLLECTED AS EARLY AS 12 NOON.", "nsi_id": "unitedstatespostalservice-a77078", "operator": "United States Postal Service", "operator:short": "USPS", "operator:type": "public", "operator:wikidata": "Q668687", "ref": "2207900007"}, "type": "Feature"}
{"dataset_attributes": {"@spider": "usps_collection_boxes"}, "geometry": {"coordinates": [-77.2069992, 38.707078], "type": "Point"}, "id": "tg5PH68UUNawK3q1C9tbkLyb_34=", "properties": {"@spider": "usps_collection_boxes", "addr:city": "LORTON", "addr:country": "US", "addr:full": "7630 FAIRFIELD WOODS CT", "addr:postcode": "22079", "addr:state": "VA", "amenity": "post_box", "brand": "United States Postal Service", "brand:wikidata": "Q668687", "collection_times": "Mo-Fr 12:00; Sa 13:15", "name": "USPS COLLECTION BOX - BLUE BOX", "note": "ON 12/24 AND 12/31, THIS BOX MAY BE COLLECTED AS EARLY AS 12 NOON.", "nsi_id": "unitedstatespostalservice-a77078", "operator": "United States Postal Service", "operator:short": "USPS", "operator:type": "public", "operator:wikidata": "Q668687", "ref": "2207900009"}, "type": "Feature"}
{"dataset_attributes": {"@spider": "usps_collection_boxes"}, "geometry": {"coordinates": [-77.2152154, 38.696555], "type": "Point"}, "id": "v9ZKStxuvDN0X8vylBm5ywE7TkU=", "properties": {"@spider": "usps_collection_boxes", "addr:city": "LORTON", "addr:country": "US", "addr:full": "9600 RICHMOND HWY", "addr:postcode": "22079", "addr:state": "VA", "amenity": "post_box", "brand": "United States Postal Service", "brand:wikidata": "Q668687", "collection_times": "Mo-Fr 12:00; Sa 13:15", "name": "USPS COLLECTION BOX - BLUE BOX", "note": "ON 12/24 AND 12/31, THIS BOX MAY BE COLLECTED AS EARLY AS 12 NOON.", "nsi_id": "unitedstatespostalservice-a77078", "operator": "United States Postal Service", "operator:short": "USPS", "operator:type": "public", "operator:wikidata": "Q668687", "ref": "2207900011"}, "type": "Feature"}
{"dataset_attributes": {"@spider": "usps_collection_boxes"}, "geometry": {"coordinates": [-77.2133863, 38.714868], "type": "Point"}, "id": "IHn2sdyvJ0QZJuldPVbAMyBEZwU=", "properties": {"@spider": "usps_collection_boxes", "addr:city": "LORTON", "addr:country": "US", "addr:full": "8988 LORTON STATION BLVD", "addr:postcode": "22079", "addr:state": "VA", "amenity": "post_box", "brand": "United States Postal Service", "brand:wikidata": "Q668687", "collection_times": "Mo-Fr 12:00; Sa 13:15", "name": "USPS COLLECTION BOX - BLUE BOX", "note": "ON 12/24 AND 12/31, THIS BOX MAY BE COLLECTED AS EARLY AS 12 NOON.", "nsi_id": "unitedstatespostalservice-a77078", "operator": "United States Postal Service", "operator:short": "USPS", "operator:type": "public", "operator:wikidata": "Q668687", "ref": "2207900018"}, "type": "Feature"}
{"dataset_attributes": {"@spider": "usps_collection_boxes"}, "geometry": {"coordinates": [-77.208448, 38.705075], "type": "Point"}, "id": "2c-JjoWfnOnKFO7SyMraDS-VcUs=", "properties": {"@spider": "usps_collection_boxes", "addr:city": "LORTON", "addr:country": "US", "addr:full": "7726 GUNSTON PLZ", "addr:postcode": "22079", "addr:state": "VA", "amenity": "post_box", "brand": "United States Postal Service", "brand:wikidata": "Q668687", "collection_times": "Mo-Fr 16:45; Sa 13:15", "name": "USPS COLLECTION BOX - PO LOBBY", "note": "ON 12/24 AND 12/31, THIS BOX MAY BE COLLECTED AS EARLY AS 12 NOON.", "nsi_id": "unitedstatespostalservice-a77078", "operator": "United States Postal Service", "operator:short": "USPS", "operator:type": "public", "operator:wikidata": "Q668687", "ref": "2207900020"}, "type": "Feature"}
{"dataset_attributes": {"@spider": "usps_collection_boxes"}, "geometry": {"coordinates": [-77.208448, 38.705075], "type": "Point"}, "id": "txrCmx4ZpPDrIZOCGp_DLPrlxLw=", "properties": {"@spider": "usps_collection_boxes", "addr:city": "LORTON", "addr:country": "US", "addr:full": "7726 GUNSTON PLZ", "addr:postcode": "22079", "addr:state": "VA", "amenity": "post_box", "brand": "United States Postal Service", "brand:wikidata": "Q668687", "collection_times": "Mo-Fr 16:45; Sa 13:15", "name": "USPS COLLECTION BOX - PO LOBBY", "note": "ON 12/24 AND 12/31, THIS BOX MAY BE COLLECTED AS EARLY AS 12 NOON.", "nsi_id": "unitedstatespostalservice-a77078", "operator": "United States Postal Service", "operator:short": "USPS", "operator:type": "public", "operator:wikidata": "Q668687", "ref": "2207900021"}, "type": "Feature"}
{"dataset_attributes": {"@spider": "usps_collection_boxes"}, "geometry": {"coordinates": [-77.208438788, 38.705119994], "type": "Point"}, "id": "EA8Uf-l8BEx7XZCohKsGaCZ0RpA=", "properties": {"@spider": "usps_collection_boxes", "addr:city": "LORTON", "addr:country": "US", "addr:full": "7726 GUNSTON PLZ", "addr:postcode": "22079", "addr:state": "VA", "amenity": "post_box", "brand": "United States Postal Service", "brand:wikidata": "Q668687", "collection_times": "Mo-Fr 17:00; Sa 13:00", "name": "USPS COLLECTION BOX - PO LOBBY", "note": "ON 12/24 AND 12/31, THIS BOX MAY BE COLLECTED AS EARLY AS 12 NOON.", "nsi_id": "unitedstatespostalservice-a77078", "operator": "United States Postal Service", "operator:short": "USPS", "operator:type": "public", "operator:wikidata": "Q668687", "ref": "2207900023"}, "type": "Feature"}
