{"dataset_attributes": {"@spider": "usps_collection_boxes"}, "geometry": {"coordinates": [-77.089255, 38.71256], "type": "Point"}, "id": "wjxKTUwqEoTnz2riil_X46SIkGk=", "properties": {"@spider": "usps_collection_boxes", "addr:city": "MOUNT VERNON", "addr:country": "US", "addr:full": "3500T MOUNT VERNON MEMORIAL HWY", "addr:postcode": "22121", "addr:state": "VA", "amenity": "post_box", "brand": "United States Postal Service", "brand:wikidata": "Q668687", "collection_times": "Mo-Fr 16:30; Sa 11:45", "name": "USPS COLLECTION BOX - BLUE BOX", "note": "ON 12/24 AND 12/31, THIS BOX MAY BE COLLECTED AS EARLY AS 12 NOON.", "nsi_id": "unitedstatespostalservice-a77078", "operator": "United States Postal Service", "operator:short": "USPS", "operator:type": "public", "operator:wikidata": "Q668687", "ref": "2212100002"}, "type": "Feature"}
{"dataset_attributes": {"@spider": "usps_collection_boxes"}, "geometry": {"coordinates": [-77.0861492572, 38.71219526], "type": "Point"}, "id": "6zQm8PiZt2OlAqqLtces_ukumK0=", "properties": {"@spider": "usps_collection_boxes", "addr:city": "MOUNT VERNON", "addr:country": "US", "addr:full": "3500T GEORGE WASHINGTON PKWY", "addr:postcode": "22121", "addr:state": "VA", "amenity": "post_box", "brand": "United States Postal Service", "brand:wikidata": "Q668687", "collection_times": "Mo-Fr 16:30; Sa 11:45", "name": "USPS COLLECTION BOX - PO LOBBY", "note": "ON 12/24 AND 12/31, THIS BOX MAY BE COLLECTED AS EARLY AS 12 NOON.", "nsi_id": "unitedstatespostalservice-a77078", "operator": "United States Postal Service", "operator:short": "USPS", "operator:type": "public", "operator:wikidata": "Q668687", "ref": "2212100003"}, "type": "Feature"}
{"dataset_attributes": {"@spider": "usps_collection_boxes"}, "geometry": {"coordinates": [-77.089819687, 38.712839982], "type": "Point"}, "id": "V5cu3h1aE-kSfg60F5GnGJFSMU4=", "properties": {"@spider": "usps_collection_boxes", "addr:city": "MOUNT VERNON", "addr:country": "US", "addr:full": "3500T MOUNT VERNON MEMORIAL HWY", "addr:postcode": "22121", "addr:state": "VA", "amenity": "post_box", "brand": "United States Postal Service", "brand:wikidata": "Q668687", "collection_times": "Mo-Fr 16:30; Sa 12:00", "name": "USPS COLLECTION BOX - PO LOBBY", "note": "ON 12/24 AND 12/31, THIS BOX MAY BE COLLECTED AS EARLY AS 12 NOON.", "nsi_id": "unitedstatespostalservice-a77078", "operator": "United States Postal Service", "operator:short": "USPS", "operator:type": "public", "operator:wikidata": "Q668687", "ref": "2212100004"}, "type": "Feature"}
{"dataset_attributes": {"@spider": "usps_collection_boxes"}, "geometry": {"coordinates": [-77.189253, 38.733984], "type": "Point"}, "id": "CNVTEPL_RiOhjNH5hl4jKpCCqD0=", "properties": {"@spider": "usps_collection_boxes", "addr:city": "NEWINGTON", "addr:country": "US", "addr:full": "8253A BACKLICK RD", "addr:postcode": "22122", "addr:state": "VA", "amenity": "post_box", "brand": "United States Postal Service", "brand:wikidata": "Q668687", "collection_times": "Mo-Fr 17:00; Sa 11:00", "name": "USPS COLLECTION BOX - BLUE BOX", "note": "ON 12/24 AND 12/31, THIS BOX MAY BE COLLECTED AS EARLY AS 12 NOON.", "nsi_id": "unitedstatespostalservice-a77078", "operator": "United States Postal Service", "operator:short": "USPS", "operator:type": "public", "operator:wikidata": "Q668687", "ref": "2212200001"}, "type": "Feature"}
{"dataset_attributes": {"@spider": "usps_collection_boxes"}, "geometry": {"coordinates": [-77.189253, 38.733984], "type": "Point"}, "id": "s8XaMrABPRpYt12VZ3aM6dZOYa4=", "properties": {"@spider": "usps_collection_boxes", "addr:city": "NEWINGTON", "addr:country": "US", "addr:full": "8253A BACKLICK RD", "addr:postcode": "22122", "addr:state": "VA", "amenity": "post_box", "brand": "United States Postal Service", "brand:wikidata": "Q668687", "collection_times": "Mo-Fr 17:00; Sa 11:00", "name": "USPS COLLECTION BOX - PO LOBBY", "note": "ON 12/24 AND 12/31, THIS BOX MAY BE COLLECTED AS EARLY AS 12 NOON.", "nsi_id": "unitedstatespostalservice-a77078", "operator": "United States Postal Service", "operator:short": "USPS", "operator:type": "public", "operator:wikidata": "Q668687", "ref": "2212200002"}, "type": "Feature"}
{"dataset_attributes": {"@spider": "usps_collection_boxes"}, "geometry": {"coordinates": [-77.1887295, 38.730780351], "type": "Point"}, "id": "jMEispkxt4ndDUj3DqY6TlWg_vk=", "properties": {"@spider": "usps_collection_boxes", "addr:city": "NEWINGTON", "addr:country": "US", "addr:full": "8253A BACKLICK RD", "addr:postcode": "22122", "addr:state": "VA", "amenity": "post_box", "brand": "United States Postal Service", "brand:wikidata": "Q668687", "collection_times": "Mo-Fr 17:00; Sa 11:00", "name": "USPS COLLECTION BOX - PO LOBBY", "note": "ON 12/24 AND 12/31, THIS BOX MAY BE COLLECTED AS EARLY AS 12 NOON.", "nsi_id": "unitedstatespostalservice-a77078", "operator": "United States Postal Service", "operator:short": "USPS", "operator:type": "public", "operator:wikidata": "Q668687", "ref": "2212200004"}, "type": "Feature"}
{"dataset_attributes": {"@spider": "usps_collection_boxes"}, "geometry": {"coordinates": [-77.259803, 38.683579], "type": "Point"}, "id": "IsLnw1JdjrX15FlAYNRZrvnL0PQ=", "properties": {"@spider": "usps_collection_boxes", "addr:city": "OCCOQUAN", "addr:country": "US", "addr:full": "202 MILL ST", "addr:postcode": "22125", "addr:state": "VA", "amenity": "post_box", "brand": "United States Postal Service", "brand:wikidata": "Q668687", "collection_times": "Mo-Fr 17:00; Sa 13:00", "name": "USPS COLLECTION BOX - BLUE BOX", "note": "ON 12/24 AND 12/31, THIS BOX MAY BE COLLECTED AS EARLY AS 12 NOON.", "nsi_id": "unitedstatespostalservice-a77078", "operator": "United States Postal Service", "operator:short": "USPS", "operator:type": "public", "operator:wikidata": "Q668687", "ref": "2212500001"}, "type": "Feature"}
{"dataset_attributes": {"@spider": "usps_collection_boxes"}, "geometry": {"coordinates": [-77.259779, 38.683598], "type": "Point"}, "id": "ZqKBatr4p_JQctfZ5irTfVxqdUU=", "properties": {"@spider": "usps_collection_boxes", "addr:city": "OCCOQUAN", "addr:country": "US", "addr:full": "202 MILL ST", "addr:postcode": "22125", "addr:state": "VA", "amenity": "post_box", "brand": "United States Postal Service", "brand:wikidata": "Q668687", "collection_times": "Mo-Fr 17:00; Sa 13:00", "name": "USPS COLLECTION BOX - PO LOBBY", "note": "ON 12/24 AND 12/31, THIS BOX MAY BE COLLECTED AS EARLY AS 12 NOON.", "nsi_id": "unitedstatespostalservice-a77078", "operator": "United States Postal Service", "operator:short": "USPS", "operator:type": "public", "operator:wikidata": "Q668687", "ref": "2212500002"}, "type": "Feature"}
{"dataset_attributes": {"@spider": "usps_collection_boxes"}, "geometry": {"coordinates": [-77.2599825, 38.683566], "type": "Point"}, "id": "RLvcipJS7EnHLc6I32I96yVGO0c=", "properties": {"@spider": "usps_collection_boxes", "addr:city": "OCCOQUAN", "addr:country": "US", "addr:full": "202 MILL ST", "addr:postcode": "22125", "addr:state": "VA", "amenity": "post_box", "brand": "United States Postal Service", "brand:wikidata": "Q668687", "collection_times": "Mo-Fr 17:00; Sa 13:00", "name": "USPS COLLECTION BOX - PO LOBBY", "note": "ON 12/24 AND 12/31, THIS BOX MAY BE COLLECTED AS EARLY AS 12 NOON.", "nsi_id": "unitedstatespostalservice-a77078", "operator": "United States Postal Service", "operator:short": "USPS", "operator:type": "public", "operator:wikidata": "Q668687", "ref": "2212500003"}, "type": "Feature"}
{"dataset_attributes": {"@spider": "usps_collection_boxes"}, "geometry": {"coordinates": [-77.292879, 38.52139], "type": "Point"}, "id": "EqE-OaJL6PqY1s9914zhOXTjItY=", "properties": {"@spider": "usps_collection_boxes", "addr:city": "QUANTICO", "addr:country": "US", "addr:full": "400 5TH AVE", "addr:postcode": "22134", "addr:state": "VA", "amenity": "post_box", "brand": "United States Postal Service", "brand:wikidata": "Q668687", "collection_times": "Mo-Fr 17:00; Sa 15:00", "name": "USPS COLLECTION BOX - BLUE BOX", "note": "ON 12/24 AND 12/31, THIS BOX MAY BE COLLECTED AS EARLY AS 12 NOON.", "nsi_id": "unitedstatespostalservice-a77078", "operator": "United States Postal Service", "operator:short": "USPS", "operator:type": "public", "operator:wikidata": "Q668687", "ref": "2213400002"}, "type": "Feature"}
{"dataset_attributes": {"@spider": "usps_collection_boxes"}, "geometry": {"coordinates": [-77.2972972, 38.518437], "type": "Point"}, "id": "DDMXTCVLV7K4qLA2peKMqlHXXAM=", "properties": {"@spider": "usps_collection_boxes", "addr:city": "QUANTICO", "addr:country": "US", "addr:full": "3048 BORDOLEON ST", "addr:postcode": "22134", "addr:state": "VA", "amenity": "post_box", "brand": "United States Postal Service", "brand:wikidata": "Q668687", "collection_times": "Mo-Sa 14:45", "name": "USPS COLLECTION BOX - BLUE BOX", "note": "ON 12/24 AND 12/31, THIS BOX MAY BE COLLECTED AS EARLY AS 12 NOON.", "nsi_id": "unitedstatespostalservice-a77078", "operator": "United States Postal Service", "operator:short": "USPS", "operator:type": "public", "operator:wikidata": "Q668687", "ref": "2213400004"}, "type": "Feature"}
{"dataset_attributes": {"@spider": "usps_collection_boxes"}, "geometry": {"coordinates": [-77.2948241, 38.521449], "type": "Point"}, "id": "BIrJXJpAtMoa96mQXfUd4yLAkqY=", "properties": {"@spider": "usps_collection_boxes", "addr:city": "QUANTICO", "addr:country": "US", "addr:full": "2034 BARNETT AVE", "addr:postcode": "22134", "addr:state": "VA", "amenity": "post_box", "brand": "United States Postal Service", "brand:wikidata": "Q668687", "collection_times": "Mo-Sa 15:00", "name": "USPS COLLECTION BOX - BLUE BOX", "note": "ON 12/24 AND 12/31, THIS BOX MAY BE COLLECTED AS EARLY AS 12 NOON.", "nsi_id": "unitedstatespostalservice-a77078", "operator": "United States Postal Service", "operator:short": "USPS", "operator:type": "public", "operator:wikidata": "Q668687", "ref": "2213400006"}, "type": "Feature"}
{"dataset_attributes": {"@spider": "usps_collection_boxes"}, "geometry": {"coordinates": [-77.3109535, 38.514019], "type": "Point"}, "id": "ysguOV-gkNu5CHTnppGUB42iIL0=", "properties": {"@spider": "usps_collection_boxes", "addr:city": "QUANTICO", "addr:country": "US", "addr:full": "3250 CATLIN AVE", "addr:postcode": "22134", "addr:state": "VA", "amenity": "post_box", "brand": "United States Postal Service", "brand:wikidata": "Q668687", "collection_times": "Mo-Sa 14:15", "name": "USPS COLLECTION BOX - BLUE BOX", "note": "ON 12/24 AND 12/31, THIS BOX MAY BE COLLECTED AS EARLY AS 12 NOON.", "nsi_id": "unitedstatespostalservice-a77078", "operator": "United States Postal Service", "operator:short": "USPS", "operator:type": "public", "operator:wikidata": "Q668687", "ref": "2213400007"}, "type": "Feature"}
{"dataset_attributes": {"@spider": "usps_collection_boxes"}, "geometry": {"coordinates": [-77.2992321, 38.520714], "type": "Point"}, "id": "e7-WsSzk8fBy2ystJDbsLbdCxVk=", "properties": {"@spider": "usps_collection_boxes", "addr:city": "QUANTICO", "addr:country": "US", "addr:full": "2008 ELLIOT RD", "addr:postcode": "22134", "addr:state": "VA", "amenity": "post_box", "brand": "United States Postal Service", "brand:wikidata": "Q668687", "collection_times": "Mo-Sa 14:00", "name": "USPS COLLECTION BOX - BLUE BOX", "note": "ON 12/24 AND 12/31, THIS BOX MAY BE COLLECTED AS EARLY AS 12 NOON.", "nsi_id": "unitedstatespostalservice-a77078", "operator": "United States Postal Service", "operator:short": "USPS", "operator:type": "public", "operator:wikidata": "Q668687", "ref": "2213400008"}, "type": "Feature"}
{"dataset_attributes": {"@spider": "usps_collection_boxes"}, "geometry": {"coordinates": [-77.3482236, 38.519759], "type": "Point"}, "id": "bYRBy6KdnOY2bb-G4DsZKlHFvVk=", "properties": {"@spider": "usps_collection_boxes", "addr:city": "QUANTICO", "addr:country": "US", "addr:full": "3500 RUSSELL RD", "addr:postcode": "22134", "addr:state": "VA", "amenity": "post_box", "brand": "United States Postal Service", "brand:wikidata": "Q668687", "collection_times": "Mo-Sa 14:30", "name": "USPS COLLECTION BOX - BLUE BOX", "note": "ON 12/24 AND 12/31, THIS BOX MAY BE COLLECTED AS EARLY AS 12 NOON.", "nsi_id": "unitedstatespostalservice-a77078", "operator": "United States Postal Service", "operator:short": "USPS", "operator:type": "public", "operator:wikidata": "Q668687", "ref": "2213400009"}, "type": "Feature"}
{"dataset_attributes": {"@spider": "usps_collection_boxes"}, "geometry": {"coordinates": [-77.301934157, 38.517162759], "type": "Point"}, "id": "wApRCViog7XuZvqGyDg2aRAn6C4=", "properties": {"@spider": "usps_collection_boxes", "addr:city": "QUANTICO", "addr:country": "US", "addr:full": "2000 HAWKINS AVE", "addr:postcode": "22134", "addr:state": "VA", "amenity": "post_box", "brand": "United States Postal Service", "brand:wikidata": "Q668687", "collection_times": "Mo-Sa 14:00", "name": "USPS COLLECTION BOX - BLUE BOX", "note": "ON 12/24 AND 12/31, THIS BOX MAY BE COLLECTED AS EARLY AS 12 NOON.", "nsi_id": "unitedstatespostalservice-a77078", "operator": "United States Postal Service", "operator:short": "USPS", "operator:type": "public", "operator:wikidata": "Q668687", "ref": "2213400011"}, "type": "Feature"}
{"dataset_attributes": {"@spider": "usps_collection_boxes"}, "geometry": {"coordinates": [-77.3147809, 38.491062], "type": "Point"}, "id": "EpW2s2JF09FdD8efcTV8Fx2gTqA=", "properties": {"@spider": "usps_collection_boxes", "addr:city": "QUANTICO", "addr:country": "US", "addr:full": "5005 ELROD AVE", "addr:postcode": "22134", "addr:state": "VA", "amenity": "post_box", "brand": "United States Postal Service", "brand:wikidata": "Q668687", "collection_times": "Mo-Sa 14:30", "name": "USPS COLLECTION BOX - BLUE BOX", "note": "ON 12/24 AND 12/31, THIS BOX MAY BE COLLECTED AS EARLY AS 12 NOON.", "nsi_id": "unitedstatespostalservice-a77078", "operator": "United States Postal Service", "operator:short": "USPS", "operator:type": "public", "operator:wikidata": "Q668687", "ref": "2213400014"}, "type": "Feature"}
{"dataset_attributes": {"@spider": "usps_collection_boxes"}, "geometry": {"coordinates": [-77.2911434, 38.521797], "type": "Point"}, "id": "ITCkF-ZXyW2nqyMIf-le9ajk3Ms=", "properties": {"@spider": "usps_collection_boxes", "addr:city": "QUANTICO", "addr:country": "US", "addr:full": "301 POTOMAC AVE", "addr:postcode": "22134", "addr:state": "VA", "amenity": "post_box", "brand": "United States Postal Service", "brand:wikidata": "Q668687", "collection_times": "Mo-Sa 15:00", "name": "USPS COLLECTION BOX - BLUE BOX", "note": "ON 12/24 AND 12/31, THIS BOX MAY BE COLLECTED AS EARLY AS 12 NOON.", "nsi_id": "unitedstatespostalservice-a77078", "operator": "United States Postal Service", "operator:short": "USPS", "operator:type": "public", "operator:wikidata": "Q668687", "ref": "2213400017"}, "type": "Feature"}
{"dataset_attributes": {"@spider": "usps_collection_boxes"}, "geometry": {"coordinates": [-77.3477454, 38.526371], "type": "Point"}, "id": "5uTOx-xFozkEEHwf4Vklxyd9ZVc=", "properties": {"@spider": "usps_collection_boxes", "addr:city": "QUANTICO", "addr:country": "US", "addr:full": "3300 PURVIS RD", "addr:postcode": "22134", "addr:state": "VA", "amenity": "post_box", "brand": "United States Postal Service", "brand:wikidata": "Q668687", "collection_times": "Mo-Sa 14:15", "name": "USPS COLLECTION BOX - BLUE BOX", "note": "ON 12/24 AND 12/31, THIS BOX MAY BE COLLECTED AS EARLY AS 12 NOON.", "nsi_id": "unitedstatespostalservice-a77078", "operator": "United States Postal Service", "operator:short": "USPS", "operator:type": "public", "operator:wikidata": "Q668687", "ref": "2213400020"}, "type": "Feature"}
{"dataset_attributes": {"@spider": "usps_collection_boxes"}, "geometry": {"coordinates": [-77.3293627, 38.51393], "type": "Point"}, "id": "sOSyAfJaNetpMPWKNQtbTA8cqRQ=", "properties": {"@spider": "usps_collection_boxes", "addr:city": "QUANTICO", "addr:country": "US", "addr:full": "3280 RUSSELL RD", "addr:postcode": "22134", "addr:state": "VA", "amenity": "post_box", "brand": "United States Postal Service", "brand:wikidata": "Q668687", "collection_times": "Mo-Sa 14:15", "name": "USPS COLLECTION BOX - BLUE BOX", "note": "ON 12/24 AND 12/31, THIS BOX MAY BE COLLECTED AS EARLY AS 12 NOON.", "nsi_id": "unitedstatespostalservice-a77078", "operator": "United States Postal Service", "operator:short": "USPS", "operator:type": "public", "operator:wikidata": "Q668687", "ref": "2213400027"}, "type": "Feature"}
{"dataset_attributes": {"@spider": "usps_collection_boxes"}, "geometry": {"coordinates": [-77.3067154, 38.513444], "type": "Point"}, "id": "28HiJd_-B3nxh8-HRJiQFTwsZgY=", "properties": {"@spider": "usps_collection_boxes", "addr:city": "QUANTICO", "addr:country": "US", "addr:full": "3259 CATLIN AVE", "addr:postcode": "22134", "addr:state": "VA", "amenity": "post_box", "brand": "United States Postal Service", "brand:wikidata": "Q668687", "collection_times": "Mo-Sa 14:00", "name": "USPS COLLECTION BOX - BLUE BOX", "note": "ON 12/24 AND 12/31, THIS BOX MAY BE COLLECTED AS EARLY AS 12 NOON.", "nsi_id": "unitedstatespostalservice-a77078", "operator": "United States Postal Service", "operator:short": "USPS", "operator:type": "public", "operator:wikidata": "Q668687", "ref": "2213400029"}, "type": "Feature"}
{"dataset_attributes": {"@spider": "usps_collection_boxes"}, "geometry": {"coordinates": [-77.2848008576, 38.5260969274], "type": "Point"}, "id": "B5zjl7OOrQFPSn8VX4N_NxpsTjU=", "properties": {"@spider": "usps_collection_boxes", "addr:city": "QUANTICO", "addr:country": "US", "addr:full": "2200 LESTER ST", "addr:postcode": "22134", "addr:state": "VA", "amenity": "post_box", "brand": "United States Postal Service", "brand:wikidata": "Q668687", "collection_times": "Mo-Fr 15:00", "name": "USPS COLLECTION BOX - BLUE BOX", "note": "ON 12/24 AND 12/31, THIS BOX MAY BE COLLECTED AS EARLY AS 12 NOON.", "nsi_id": "unitedstatespostalservice-a77078", "operator": "United States Postal Service", "operator:short": "USPS", "operator:type": "public", "operator:wikidata": "Q668687", "ref": "2213400031"}, "type": "Feature"}
{"dataset_attributes": {"@spider": "usps_collection_boxes"}, "geometry": {"coordinates": [-77.292759, 38.521383], "type": "Point"}, "id": "qOA2Y-W1WaHVY4xYw1ZyW9o0KAo=", "properties": {"@spider": "usps_collection_boxes", "addr:city": "QUANTICO", "addr:country": "US", "addr:full": "400 5TH AVE", "addr:postcode": "22134", "addr:state": "VA", "amenity": "post_box", "brand": "United States Postal Service", "brand:wikidata": "Q668687", "collection_times": "Mo-Fr 17:00; Sa 12:30", "name": "USPS COLLECTION BOX - PO LOBBY", "note": "ON 12/24 AND 12/31, THIS BOX MAY BE COLLECTED AS EARLY AS 12 NOON.", "nsi_id": "unitedstatespostalservice-a77078", "operator": "United States Postal Service", "operator:short": "USPS", "operator:type": "public", "operator:wikidata": "Q668687", "ref": "2213400032"}, "type": "Feature"}
{"dataset_attributes": {"@spider": "usps_collection_boxes"}, "geometry": {"coordinates": [-77.292759, 38.521383], "type": "Point"}, "id": "5NWoSarELQ0IYhXclQ-FI3HsnDg=", "properties": {"@spider": "usps_collection_boxes", "addr:city": "QUANTICO", "addr:country": "US", "addr:full": "400 5TH AVE", "addr:postcode": "22134", "addr:state": "VA", "amenity": "post_box", "brand": "United States Postal Service", "brand:wikidata": "Q668687", "collection_times": "Mo-Fr 17:00; Sa 12:30", "name": "USPS COLLECTION BOX - PO LOBBY", "note": "ON 12/24 AND 12/31, THIS BOX MAY BE COLLECTED AS EARLY AS 12 NOON.", "nsi_id": "unitedstatespostalservice-a77078", "operator": "United States Postal Service", "operator:short": "USPS", "operator:type": "public", "operator:wikidata": "Q668687", "ref": "2213400033"}, "type": "Feature"}
{"dataset_attributes": {"@spider": "usps_collection_boxes"}, "geometry": {"coordinates": [-77.292849433, 38.521329257], "type": "Point"}, "id": "mIalN0tmDQpNAZ-ltwevojCImbg=", "properties": {"@spider": "usps_collection_boxes", "addr:city": "QUANTICO", "addr:country": "US", "addr:full": "400 5TH AVE", "addr:postcode": "22134", "addr:state": "VA", "amenity": "post_box", "brand": "United States Postal Service", "brand:wikidata": "Q668687", "collection_times": "Mo-Fr 17:00; Sa 12:00", "name": "USPS COLLECTION BOX - PO LOBBY", "note": "ON 12/24 AND 12/31, THIS BOX MAY BE COLLECTED AS EARLY AS 12 NOON.", "nsi_id": "unitedstatespostalservice-a77078", "operator": "United States Postal Service", "operator:short": "USPS", "operator:type": "public", "operator:wikidata": "Q668687", "ref": "2213400035"}, "type": "Feature"}
{"dataset_attributes": {"@spider": "usps_collection_boxes"}, "geometry": {"coordinates": [-77.305923, 38.513109], "type": "Point"}, "id": "F44wmDjXJJfVrNrsLAMAWZ-lSk0=", "properties": {"@spider": "usps_collection_boxes", "addr:city": "QUANTICO", "addr:country": "US", "addr:full": "1 FBI", "addr:postcode": "22135", "addr:state": "VA", "amenity": "post_box", "brand": "United States Postal Service", "brand:wikidata": "Q668687", "collection_times": "Mo-Fr 11:00", "name": "USPS COLLECTION BOX - BLUE BOX", "nsi_id": "unitedstatespostalservice-a77078", "operator": "United States Postal Service", "operator:short": "USPS", "operator:type": "public", "operator:wikidata": "Q668687", "ref": "2213500000"}, "type": "Feature"}
{"dataset_attributes": {"@spider": "usps_collection_boxes"}, "geometry": {"coordinates": [-77.1973647, 38.733289], "type": "Point"}, "id": "W8OlCbZbzFVVRMTDLiUHtXzxMzU=", "properties": {"@spider": "usps_collection_boxes", "addr:city": "SPRINGFIELD", "addr:country": "US", "addr:full": "7406 ALBAN STATION CT", "addr:postcode": "22150", "addr:state": "VA", "amenity": "post_box", "brand": "United States Postal Service", "brand:wikidata": "Q668687", "collection_times": "Mo-Sa 10:30", "name": "USPS COLLECTION BOX - BLUE BOX", "nsi_id": "unitedstatespostalservice-a77078", "operator": "United States Postal Service", "operator:short": "USPS", "operator:type": "public", "operator:wikidata": "Q668687", "ref": "2215000028"}, "type": "Feature"}
{"dataset_attributes": {"@spider": "usps_collection_boxes"}, "geometry": {"coordinates": [-77.3324538, 38.545724], "type": "Point"}, "id": "gejZpohUd6RS3FdzTX7ZZDhxLSk=", "properties": {"@spider": "usps_collection_boxes", "addr:city": "TRIANGLE", "addr:country": "US", "addr:full": "18627 OLD TRIANGLE RD", "addr:postcode": "22172", "addr:state": "VA", "amenity": "post_box", "brand": "United States Postal Service", "brand:wikidata": "Q668687", "collection_times": "Mo-Fr 17:00; Sa 14:00", "name": "USPS COLLECTION BOX - BLUE BOX", "note": "ON 12/24 AND 12/31, THIS BOX MAY BE COLLECTED AS EARLY AS 12 NOON.", "nsi_id": "unitedstatespostalservice-a77078", "operator": "United States Postal Service", "operator:short": "USPS", "operator:type": "public", "operator:wikidata": "Q668687", "ref": "2217200001"}, "type": "Feature"}
{"dataset_attributes": {"@spider": "usps_collection_boxes"}, "geometry": {"coordinates": [-77.332371, 38.54573], "type": "Point"}, "id": "mLM4Q3kv6AVDIX_mgr7geERs9Wo=", "properties": {"@spider": "usps_collection_boxes", "addr:city": "TRIANGLE", "addr:country": "US", "addr:full": "18627 OLD TRIANGLE RD", "addr:postcode": "22172", "addr:state": "VA", "amenity": "post_box", "brand": "United States Postal Service", "brand:wikidata": "Q668687", "collection_times": "Mo-Fr 17:00; Sa 14:00", "name": "USPS COLLECTION BOX - PO LOBBY", "note": "ON 12/24 AND 12/31, THIS BOX MAY BE COLLECTED AS EARLY AS 12 NOON.", "nsi_id": "unitedstatespostalservice-a77078", "operator": "United States Postal Service", "operator:short": "USPS", "operator:type": "public", "operator:wikidata": "Q668687", "ref": "2217200002"}, "type": "Feature"}
{"dataset_attributes": {"@spider": "usps_collection_boxes"}, "geometry": {"coordinates": [-77.267839, 38.631772], "type": "Point"}, "id": "CH1LtYfnJ7uGiMzfcJc3jP9OAWk=", "properties": {"@spider": "usps_collection_boxes", "addr:city": "WOODBRIDGE", "addr:country": "US", "addr:full": "1810 REDDY DR", "addr:postcode": "22191", "addr:state": "VA", "amenity": "post_box", "brand": "United States Postal Service", "brand:wikidata": "Q668687", "collection_times": "Mo-Sa 17:00", "name": "USPS COLLECTION BOX - BLUE BOX", "note": "ON 12/24 AND 12/31, THIS BOX MAY BE COLLECTED AS EARLY AS 12 NOON.", "nsi_id": "unitedstatespostalservice-a77078", "operator": "United States Postal Service", "operator:short": "USPS", "operator:type": "public", "operator:wikidata": "Q668687", "ref": "2219100004"}, "type": "Feature"}
{"dataset_attributes": {"@spider": "usps_collection_boxes"}, "geometry": {"coordinates": [-77.273819, 38.632728], "type": "Point"}, "id": "15VotF8g0mVNiv2fLeTB51f2t_U=", "properties": {"@spider": "usps_collection_boxes", "addr:city": "WOODBRIDGE", "addr:country": "US", "addr:full": "2026 DANIEL STUART SQ", "addr:postcode": "22191", "addr:state": "VA", "amenity": "post_box", "brand": "United States Postal Service", "brand:wikidata": "Q668687", "collection_times": "Mo-Sa 09:00", "name": "USPS COLLECTION BOX - BLUE BOX", "nsi_id": "unitedstatespostalservice-a77078", "operator": "United States Postal Service", "operator:short": "USPS", "operator:type": "public", "operator:wikidata": "Q668687", "ref": "2219100022"}, "type": "Feature"}
{"dataset_attributes": {"@spider": "usps_collection_boxes"}, "geometry": {"coordinates": [-77.2755088, 38.62964], "type": "Point"}, "id": "__fIq0QW4jgH3FByHG3I2VI72cE=", "properties": {"@spider": "usps_collection_boxes", "addr:city": "WOODBRIDGE", "addr:country": "US", "addr:full": "14904 JEFFERSON DAVIS HWY", "addr:postcode": "22191", "addr:state": "VA", "amenity": "post_box", "brand": "United States Postal Service", "brand:wikidata": "Q668687", "collection_times": "Mo-Sa 09:30", "name": "USPS COLLECTION BOX - BLUE BOX", "nsi_id": "unitedstatespostalservice-a77078", "operator": "United States Postal Service", "operator:short": "USPS", "operator:type": "public", "operator:wikidata": "Q668687", "ref": "2219100024"}, "type": "Feature"}
{"dataset_attributes": {"@spider": "usps_collection_boxes"}, "geometry": {"coordinates": [-77.2857056, 38.637133], "type": "Point"}, "id": "ki1jezL0g0D9cA5bED05W_nUskE=", "properties": {"@spider": "usps_collection_boxes", "addr:city": "WOODBRIDGE", "addr:country": "US", "addr:full": "2300 OPITZ BLVD", "addr:postcode": "22191", "addr:state": "VA", "amenity": "post_box", "brand": "United States Postal Service", "brand:wikidata": "Q668687", "collection_times": "Mo-Sa 11:00", "name": "USPS COLLECTION BOX - BLUE BOX", "nsi_id": "unitedstatespostalservice-a77078", "operator": "United States Postal Service", "operator:short": "USPS", "operator:type": "public", "operator:wikidata": "Q668687", "ref": "2219100025"}, "type": "Feature"}
{"dataset_attributes": {"@spider": "usps_collection_boxes"}, "geometry": {"coordinates": [-77.267759, 38.631714], "type": "Point"}, "id": "1MbolQ1sDzB9psInDfil6D6LmW0=", "properties": {"@spider": "usps_collection_boxes", "addr:city": "WOODBRIDGE", "addr:country": "US", "addr:full": "1810 REDDY DR", "addr:postcode": "22191", "addr:state": "VA", "amenity": "post_box", "brand": "United States Postal Service", "brand:wikidata": "Q668687", "collection_times": "Mo-Sa 17:00", "name": "USPS COLLECTION BOX - PO LOBBY", "note": "ON 12/24 AND 12/31, THIS BOX MAY BE COLLECTED AS EARLY AS 12 NOON.", "nsi_id": "unitedstatespostalservice-a77078", "operator": "United States Postal Service", "operator:short": "USPS", "operator:type": "public", "operator:wikidata": "Q668687", "ref": "2219100029"}, "type": "Feature"}
{"dataset_attributes": {"@spider": "usps_collection_boxes"}, "geometry": {"coordinates": [-77.2857154, 38.637141], "type": "Point"}, "id": "cDnq1N4ollNaNHDYhO9W517GXDg=", "properties": {"@spider": "usps_collection_boxes", "addr:city": "WOODBRIDGE", "addr:country": "US", "addr:full": "2300 OPITZ BLVD", "addr:postcode": "22191", "addr:state": "VA", "amenity": "post_box", "brand": "United States Postal Service", "brand:wikidata": "Q668687", "collection_times": "Mo-Sa 11:00", "name": "USPS COLLECTION BOX - BLUE BOX", "nsi_id": "unitedstatespostalservice-a77078", "operator": "United States Postal Service", "operator:short": "USPS", "operator:type": "public", "operator:wikidata": "Q668687", "ref": "2219100031"}, "type": "Feature"}
{"dataset_attributes": {"@spider": "usps_collection_boxes"}, "geometry": {"coordinates": [-77.2488195, 38.66071], "type": "Point"}, "id": "EozLhsMzcoacvE5yR7FgW1SJRCo=", "properties": {"@spider": "usps_collection_boxes", "addr:city": "WOODBRIDGE", "addr:country": "US", "addr:full": "13438 JEFFERSON DAVIS HWY", "addr:postcode": "22191", "addr:state": "VA", "amenity": "post_box", "brand": "United States Postal Service", "brand:wikidata": "Q668687", "collection_times": "Mo-Sa 09:00", "name": "USPS COLLECTION BOX - BLUE BOX", "nsi_id": "unitedstatespostalservice-a77078", "operator": "United States Postal Service", "operator:short": "USPS", "operator:type": "public", "operator:wikidata": "Q668687", "ref": "2219100044"}, "type": "Feature"}
{"dataset_attributes": {"@spider": "usps_collection_boxes"}, "geometry": {"coordinates": [-77.2565429, 38.650658], "type": "Point"}, "id": "4QozrfxbX1tb3kiNub8_ycieW-4=", "properties": {"@spider": "usps_collection_boxes", "addr:city": "WOODBRIDGE", "addr:country": "US", "addr:full": "13915 JEFFERSON DAVIS HWY", "addr:postcode": "22191", "addr:state": "VA", "amenity": "post_box", "brand": "United States Postal Service", "brand:wikidata": "Q668687", "collection_times": "Mo-Sa 09:30", "name": "USPS COLLECTION BOX - BLUE BOX", "nsi_id": "unitedstatespostalservice-a77078", "operator": "United States Postal Service", "operator:short": "USPS", "operator:type": "public", "operator:wikidata": "Q668687", "ref": "2219100046"}, "type": "Feature"}
{"dataset_attributes": {"@spider": "usps_collection_boxes"}, "geometry": {"coordinates": [-77.2947263, 38.608285], "type": "Point"}, "id": "P0EYL5FsNCg2Jrw6hBPerXMbJg8=", "properties": {"@spider": "usps_collection_boxes", "addr:city": "WOODBRIDGE", "addr:country": "US", "addr:full": "15941 DONALD CURTIS DR", "addr:postcode": "22191", "addr:state": "VA", "amenity": "post_box", "brand": "United States Postal Service", "brand:wikidata": "Q668687", "collection_times": "Mo-Sa 14:45", "name": "USPS COLLECTION BOX - BLUE BOX", "note": "ON 12/24 AND 12/31, THIS BOX MAY BE COLLECTED AS EARLY AS 12 NOON.", "nsi_id": "unitedstatespostalservice-a77078", "operator": "United States Postal Service", "operator:short": "USPS", "operator:type": "public", "operator:wikidata": "Q668687", "ref": "2219100051"}, "type": "Feature"}
{"dataset_attributes": {"@spider": "usps_collection_boxes"}, "geometry": {"coordinates": [-77.2832099, 38.635391], "type": "Point"}, "id": "bNORXGaVlnbJzyJ1b7sf52OuZuc=", "properties": {"@spider": "usps_collection_boxes", "addr:city": "WOODBRIDGE", "addr:country": "US", "addr:full": "2280 OPITZ BLVD", "addr:postcode": "22191", "addr:state": "VA", "amenity": "post_box", "brand": "United States Postal Service", "brand:wikidata": "Q668687", "collection_times": "Mo-Sa 11:00", "name": "USPS COLLECTION BOX - BLUE BOX", "nsi_id": "unitedstatespostalservice-a77078", "operator": "United States Postal Service", "operator:short": "USPS", "operator:type": "public", "operator:wikidata": "Q668687", "ref": "2219100052"}, "type": "Feature"}
{"dataset_attributes": {"@spider": "usps_collection_boxes"}, "geometry": {"coordinates": [-77.267759, 38.631714], "type": "Point"}, "id": "zLAEjCtXvogdosny3QxRhbkVW-E=", "properties": {"@spider": "usps_collection_boxes", "addr:city": "WOODBRIDGE", "addr:country": "US", "addr:full": "1810 REDDY DR", "addr:postcode": "22191", "addr:state": "VA", "amenity": "post_box", "brand": "United States Postal Service", "brand:wikidata": "Q668687", "collection_times": "Mo-Sa 17:00", "name": "USPS COLLECTION BOX - APC", "note": "ON 12/24 AND 12/31, THIS BOX MAY BE COLLECTED AS EARLY AS 12 NOON.", "nsi_id": "unitedstatespostalservice-a77078", "operator": "United States Postal Service", "operator:short": "USPS", "operator:type": "public", "operator:wikidata": "Q668687", "ref": "2219100053"}, "type": "Feature"}
{"dataset_attributes": {"@spider": "usps_collection_boxes"}, "geometry": {"coordinates": [-77.2689375, 38.633058], "type": "Point"}, "id": "XohubCinwk2kxZjDct84gARTLcA=", "properties": {"@spider": "usps_collection_boxes", "addr:city": "WOODBRIDGE", "addr:country": "US", "addr:full": "1810 REDDY DR", "addr:postcode": "22191", "addr:state": "VA", "amenity": "post_box", "brand": "United States Postal Service", "brand:wikidata": "Q668687", "collection_times": "Mo-Fr 17:00; Sa 14:00", "name": "USPS COLLECTION BOX - PO LOBBY", "note": "ON 12/24 AND 12/31, THIS BOX MAY BE COLLECTED AS EARLY AS 12 NOON.", "nsi_id": "unitedstatespostalservice-a77078", "operator": "United States Postal Service", "operator:short": "USPS", "operator:type": "public", "operator:wikidata": "Q668687", "ref": "2219100060"}, "type": "Feature"}
{"dataset_attributes": {"@spider": "usps_collection_boxes"}, "geometry": {"coordinates": [-77.2666147339, 38.6747019406], "type": "Point"}, "id": "lC4zKynuKS5nB3KpeTaH7MGYk6I=", "properties": {"@spider": "usps_collection_boxes", "addr:city": "WOODBRIDGE", "addr:country": "US", "addr:full": "1719 SHADY RIVER CT", "addr:postcode": "22192", "addr:state": "VA", "amenity": "post_box", "brand": "United States Postal Service", "brand:wikidata": "Q668687", "collection_times": "Mo-Sa 13:30", "name": "USPS COLLECTION BOX - BLUE BOX", "note": "ON 12/24 AND 12/31, THIS BOX MAY BE COLLECTED AS EARLY AS 12 NOON.", "nsi_id": "unitedstatespostalservice-a77078", "operator": "United States Postal Service", "operator:short": "USPS", "operator:type": "public", "operator:wikidata": "Q668687", "ref": "2219200013"}, "type": "Feature"}
{"dataset_attributes": {"@spider": "usps_collection_boxes"}, "geometry": {"coordinates": [-77.3063268, 38.651768], "type": "Point"}, "id": "bf_Ju0Ws68acqGclbJWpjifpjKA=", "properties": {"@spider": "usps_collection_boxes", "addr:city": "WOODBRIDGE", "addr:country": "US", "addr:full": "3146 GOLANSKY BLVD", "addr:postcode": "22192", "addr:state": "VA", "amenity": "post_box", "brand": "United States Postal Service", "brand:wikidata": "Q668687", "collection_times": "Mo-Sa 10:00", "name": "USPS COLLECTION BOX - BLUE BOX", "nsi_id": "unitedstatespostalservice-a77078", "operator": "United States Postal Service", "operator:short": "USPS", "operator:type": "public", "operator:wikidata": "Q668687", "ref": "2219200018"}, "type": "Feature"}
{"dataset_attributes": {"@spider": "usps_collection_boxes"}, "geometry": {"coordinates": [-77.2656399, 38.675653], "type": "Point"}, "id": "Ep6dH7WRhxlny9lo_IjTqpzDvuc=", "properties": {"@spider": "usps_collection_boxes", "addr:city": "WOODBRIDGE", "addr:country": "US", "addr:full": "1708 OLD BRIDGE RD", "addr:postcode": "22192", "addr:state": "VA", "amenity": "post_box", "brand": "United States Postal Service", "brand:wikidata": "Q668687", "collection_times": "Mo-Sa 10:00", "name": "USPS COLLECTION BOX - BLUE BOX", "nsi_id": "unitedstatespostalservice-a77078", "operator": "United States Postal Service", "operator:short": "USPS", "operator:type": "public", "operator:wikidata": "Q668687", "ref": "2219200037"}, "type": "Feature"}
{"dataset_attributes": {"@spider": "usps_collection_boxes"}, "geometry": {"coordinates": [-77.2533808, 38.662794], "type": "Point"}, "id": "nFlgZVJy-sDdi0623NM3A4LupIU=", "properties": {"@spider": "usps_collection_boxes", "addr:city": "WOODBRIDGE", "addr:country": "US", "addr:full": "13316 OCCOQUAN RD", "addr:postcode": "22192", "addr:state": "VA", "amenity": "post_box", "brand": "United States Postal Service", "brand:wikidata": "Q668687", "collection_times": "Mo-Sa 11:00", "name": "USPS COLLECTION BOX - BLUE BOX", "nsi_id": "unitedstatespostalservice-a77078", "operator": "United States Postal Service", "operator:short": "USPS", "operator:type": "public", "operator:wikidata": "Q668687", "ref": "2219200038"}, "type": "Feature"}
{"dataset_attributes": {"@spider": "usps_collection_boxes"}, "geometry": {"coordinates": [-77.3048768, 38.65732], "type": "Point"}, "id": "_QMKYYhCRpJwfw8ic3Tbej4ke8A=", "properties": {"@spider": "usps_collection_boxes", "addr:city": "WOODBRIDGE", "addr:country": "US", "addr:full": "13662 OFFICE PL", "addr:postcode": "22192", "addr:state": "VA", "amenity": "post_box", "brand": "United States Postal Service", "brand:wikidata": "Q668687", "collection_times": "Mo-Sa 12:00", "name": "USPS COLLECTION BOX - BLUE BOX", "nsi_id": "unitedstatespostalservice-a77078", "operator": "United States Postal Service", "operator:short": "USPS", "operator:type": "public", "operator:wikidata": "Q668687", "ref": "2219200039"}, "type": "Feature"}
{"dataset_attributes": {"@spider": "usps_collection_boxes"}, "geometry": {"coordinates": [-77.2555834, 38.673343], "type": "Point"}, "id": "g9Kfb7aLQJ4baeUJD_c-DeNtQwk=", "properties": {"@spider": "usps_collection_boxes", "addr:city": "WOODBRIDGE", "addr:country": "US", "addr:full": "1308 DEVILS REACH RD", "addr:postcode": "22192", "addr:state": "VA", "amenity": "post_box", "brand": "United States Postal Service", "brand:wikidata": "Q668687", "collection_times": "Mo-Sa 09:00", "name": "USPS COLLECTION BOX - BLUE BOX", "nsi_id": "unitedstatespostalservice-a77078", "operator": "United States Postal Service", "operator:short": "USPS", "operator:type": "public", "operator:wikidata": "Q668687", "ref": "2219200044"}, "type": "Feature"}
{"dataset_attributes": {"@spider": "usps_collection_boxes"}, "geometry": {"coordinates": [-77.312336842, 38.650986477], "type": "Point"}, "id": "PUlO_Ti-QDaQgw6AFYNfDKdlqm0=", "properties": {"@spider": "usps_collection_boxes", "addr:city": "WOODBRIDGE", "addr:country": "US", "addr:full": "3360 POST OFFICE RD", "addr:postcode": "22192", "addr:state": "VA", "amenity": "post_box", "brand": "United States Postal Service", "brand:wikidata": "Q668687", "collection_times": "Mo-Sa 17:00", "name": "USPS COLLECTION BOX - EXPRESS", "note": "ON 12/24 AND 12/31, THIS BOX MAY BE COLLECTED AS EARLY AS 12 NOON.", "nsi_id": "unitedstatespostalservice-a77078", "operator": "United States Postal Service", "operator:short": "USPS", "operator:type": "public", "operator:wikidata": "Q668687", "ref": "2219200050"}, "type": "Feature"}
{"dataset_attributes": {"@spider": "usps_collection_boxes"}, "geometry": {"coordinates": [-77.312336842, 38.650986477], "type": "Point"}, "id": "Oc5tCUvxjh0XBu9QJ9DstlPvqwQ=", "properties": {"@spider": "usps_collection_boxes", "addr:city": "WOODBRIDGE", "addr:country": "US", "addr:full": "3360 POST OFFICE RD", "addr:postcode": "22192", "addr:state": "VA", "amenity": "post_box", "brand": "United States Postal Service", "brand:wikidata": "Q668687", "collection_times": "Mo-Sa 17:00", "name": "USPS COLLECTION BOX - PO LOBBY", "note": "ON 12/24 AND 12/31, THIS BOX MAY BE COLLECTED AS EARLY AS 12 NOON.", "nsi_id": "unitedstatespostalservice-a77078", "operator": "United States Postal Service", "operator:short": "USPS", "operator:type": "public", "operator:wikidata": "Q668687", "ref": "2219200051"}, "type": "Feature"}
{"dataset_attributes": {"@spider": "usps_collection_boxes"}, "geometry": {"coordinates": [-77.312336842, 38.650986477], "type": "Point"}, "id": "aeEldp2P-etfWOn1iXBNm3XVN7U=", "properties": {"@spider": "usps_collection_boxes", "addr:city": "WOODBRIDGE", "addr:country": "US", "addr:full": "3360 POST OFFICE RD", "addr:postcode": "22192", "addr:state": "VA", "amenity": "post_box", "brand": "United States Postal Service", "brand:wikidata": "Q668687", "collection_times": "Mo-Sa 17:00", "name": "USPS COLLECTION BOX - APC", "note": "ON 12/24 AND 12/31, THIS BOX MAY BE COLLECTED AS EARLY AS 12 NOON.", "nsi_id": "unitedstatespostalservice-a77078", "operator": "United States Postal Service", "operator:short": "USPS", "operator:type": "public", "operator:wikidata": "Q668687", "ref": "2219200053"}, "type": "Feature"}
{"dataset_attributes": {"@spider": "usps_collection_boxes"}, "geometry": {"coordinates": [-77.3065336, 38.653194], "type": "Point"}, "id": "bJ_Ehmh5OmpGxpTWVo9W8uJrTjg=", "properties": {"@spider": "usps_collection_boxes", "addr:city": "WOODBRIDGE", "addr:country": "US", "addr:full": "13792 SMOKETOWN RD", "addr:postcode": "22192", "addr:state": "VA", "amenity": "post_box", "brand": "United States Postal Service", "brand:wikidata": "Q668687", "collection_times": "Mo-Sa 10:00", "name": "USPS COLLECTION BOX - BLUE BOX", "nsi_id": "unitedstatespostalservice-a77078", "operator": "United States Postal Service", "operator:short": "USPS", "operator:type": "public", "operator:wikidata": "Q668687", "ref": "2219200056"}, "type": "Feature"}
{"dataset_attributes": {"@spider": "usps_collection_boxes"}, "geometry": {"coordinates": [-77.2996759, 38.627971], "type": "Point"}, "id": "WOvkcZXxbGF2V77llfgyZyg8ZUw=", "properties": {"@spider": "usps_collection_boxes", "addr:city": "DALE CITY", "addr:country": "US", "addr:full": "2888 DALE BLVD", "addr:postcode": "22193", "addr:state": "VA", "amenity": "post_box", "brand": "United States Postal Service", "brand:wikidata": "Q668687", "collection_times": "Mo-Sa 09:00", "name": "USPS COLLECTION BOX - BLUE BOX", "nsi_id": "unitedstatespostalservice-a77078", "operator": "United States Postal Service", "operator:short": "USPS", "operator:type": "public", "operator:wikidata": "Q668687", "ref": "2219300007"}, "type": "Feature"}
{"dataset_attributes": {"@spider": "usps_collection_boxes"}, "geometry": {"coordinates": [-77.3346161, 38.64269], "type": "Point"}, "id": "1ovnCDi55Qjlc_7pag32vvNKZgc=", "properties": {"@spider": "usps_collection_boxes", "addr:city": "DALE CITY", "addr:country": "US", "addr:full": "4116 DALE BLVD", "addr:postcode": "22193", "addr:state": "VA", "amenity": "post_box", "brand": "United States Postal Service", "brand:wikidata": "Q668687", "collection_times": "Mo-Sa 09:00", "name": "USPS COLLECTION BOX - BLUE BOX", "nsi_id": "unitedstatespostalservice-a77078", "operator": "United States Postal Service", "operator:short": "USPS", "operator:type": "public", "operator:wikidata": "Q668687", "ref": "2219300008"}, "type": "Feature"}
{"dataset_attributes": {"@spider": "usps_collection_boxes"}, "geometry": {"coordinates": [-77.3396666, 38.646478], "type": "Point"}, "id": "dOTeiGY6xzQOCbISZ115kikWKrY=", "properties": {"@spider": "usps_collection_boxes", "addr:city": "DALE CITY", "addr:country": "US", "addr:full": "4319 DALE BLVD", "addr:postcode": "22193", "addr:state": "VA", "amenity": "post_box", "brand": "United States Postal Service", "brand:wikidata": "Q668687", "collection_times": "Mo-Sa 14:30", "name": "USPS COLLECTION BOX - BLUE BOX", "note": "ON 12/24 AND 12/31, THIS BOX MAY BE COLLECTED AS EARLY AS 12 NOON.", "nsi_id": "unitedstatespostalservice-a77078", "operator": "United States Postal Service", "operator:short": "USPS", "operator:type": "public", "operator:wikidata": "Q668687", "ref": "2219300009"}, "type": "Feature"}
{"dataset_attributes": {"@spider": "usps_collection_boxes"}, "geometry": {"coordinates": [-77.3383311, 38.647921], "type": "Point"}, "id": "voLp7qIvI0yoZEKlYzdc_51DAys=", "properties": {"@spider": "usps_collection_boxes", "addr:city": "DALE CITY", "addr:country": "US", "addr:full": "4320 DALE BLVD", "addr:postcode": "22193", "addr:state": "VA", "amenity": "post_box", "brand": "United States Postal Service", "brand:wikidata": "Q668687", "collection_times": "Mo-Sa 09:15", "name": "USPS COLLECTION BOX - BLUE BOX", "nsi_id": "unitedstatespostalservice-a77078", "operator": "United States Postal Service", "operator:short": "USPS", "operator:type": "public", "operator:wikidata": "Q668687", "ref": "2219300010"}, "type": "Feature"}
{"dataset_attributes": {"@spider": "usps_collection_boxes"}, "geometry": {"coordinates": [-77.3172124, 38.651175], "type": "Point"}, "id": "TxdLSjXEH6stJsuF79IAAYGs3pw=", "properties": {"@spider": "usps_collection_boxes", "addr:city": "DALE CITY", "addr:country": "US", "addr:full": "13895 HEDGEWOOD DR STE 117", "addr:postcode": "22193", "addr:state": "VA", "amenity": "post_box", "brand": "United States Postal Service", "brand:wikidata": "Q668687", "collection_times": "Mo-Sa 09:00", "name": "USPS COLLECTION BOX - BLUE BOX", "nsi_id": "unitedstatespostalservice-a77078", "operator": "United States Postal Service", "operator:short": "USPS", "operator:type": "public", "operator:wikidata": "Q668687", "ref": "2219300014"}, "type": "Feature"}
{"dataset_attributes": {"@spider": "usps_collection_boxes"}, "geometry": {"coordinates": [-77.3123355, 38.650986], "type": "Point"}, "id": "oiqp6PZAXp2OcGW1-uMXEvpT4rQ=", "properties": {"@spider": "usps_collection_boxes", "addr:city": "DALE CITY", "addr:country": "US", "addr:full": "3360 POST OFFICE RD", "addr:postcode": "22193", "addr:state": "VA", "amenity": "post_box", "brand": "United States Postal Service", "brand:wikidata": "Q668687", "collection_times": "Mo-Fr 18:00; Sa 14:00", "name": "USPS COLLECTION BOX - PO LOBBY", "note": "ON 12/24 AND 12/31, THIS BOX MAY BE COLLECTED AS EARLY AS 12 NOON.", "nsi_id": "unitedstatespostalservice-a77078", "operator": "United States Postal Service", "operator:short": "USPS", "operator:type": "public", "operator:wikidata": "Q668687", "ref": "2219300016"}, "type": "Feature"}
