{"dataset_attributes": {"@spider": "usps_collection_boxes"}, "geometry": {"coordinates": [-77.086592, 38.75088], "type": "Point"}, "id": "AoUs2IGt3Mllxpd5By4TdZE22Mk=", "properties": {"@spider": "usps_collection_boxes", "addr:city": "ALEXANDRIA", "addr:country": "US", "addr:full": "7676 RICHMOND HWY", "addr:postcode": "22306", "addr:state": "VA", "amenity": "post_box", "brand": "United States Postal Service", "brand:wikidata": "Q668687", "collection_times": "Mo-Fr 17:00; Sa 15:30", "name": "USPS COLLECTION BOX - EXPRESS", "note": "ON 12/24 AND 12/31, THIS BOX MAY BE COLLECTED AS EARLY AS 12 NOON.", "nsi_id": "unitedstatespostalservice-a77078", "operator": "United States Postal Service", "operator:short": "USPS", "operator:type": "public", "operator:wikidata": "Q668687", "ref": "2230600001"}, "type": "Feature"}
{"dataset_attributes": {"@spider": "usps_collection_boxes"}, "geometry": {"coordinates": [-77.0802568, 38.754822], "type": "Point"}, "id": "3eXpqfDtkSzWV4o1Ha6ftieouwY=", "properties": {"@spider": "usps_collection_boxes", "addr:city": "ALEXANDRIA", "addr:country": "US", "addr:full": "7429 VERNON SQUARE DR", "addr:postcode": "22306", "addr:state": "VA", "amenity": "post_box", "brand": "United States Postal Service", "brand:wikidata": "Q668687", "collection_times": "Mo-Fr 11:15; Sa 14:00", "name": "USPS COLLECTION BOX - BLUE BOX", "note": "ON 12/24 AND 12/31, THIS BOX MAY BE COLLECTED AS EARLY AS 12 NOON.", "nsi_id": "unitedstatespostalservice-a77078", "operator": "United States Postal Service", "operator:short": "USPS", "operator:type": "public", "operator:wikidata": "Q668687", "ref": "2230600002"}, "type": "Feature"}
{"dataset_attributes": {"@spider": "usps_collection_boxes"}, "geometry": {"coordinates": [-77.083906, 38.763272], "type": "Point"}, "id": "U-R6Sa1YZf5wPUR8USRj30SJYBw=", "properties": {"@spider": "usps_collection_boxes", "addr:city": "ALEXANDRIA", "addr:country": "US", "addr:full": "7131 RICHMOND HWY", "addr:postcode": "22306", "addr:state": "VA", "amenity": "post_box", "brand": "United States Postal Service", "brand:wikidata": "Q668687", "collection_times": "Mo-Sa 09:30", "name": "USPS COLLECTION BOX - BLUE BOX", "nsi_id": "unitedstatespostalservice-a77078", "operator": "United States Postal Service", "operator:short": "USPS", "operator:type": "public", "operator:wikidata": "Q668687", "ref": "2230600003"}, "type": "Feature"}
{"dataset_attributes": {"@spider": "usps_collection_boxes"}, "geometry": {"coordinates": [-77.0866491, 38.750799], "type": "Point"}, "id": "S_hLDCvW8nHC09aJEF995xEG1RM=", "properties": {"@spider": "usps_collection_boxes", "addr:city": "ALEXANDRIA", "addr:country": "US", "addr:full": "7676 RICHMOND HWY", "addr:postcode": "22306", "addr:state": "VA", "amenity": "post_box", "brand": "United States Postal Service", "brand:wikidata": "Q668687", "collection_times": "Mo-Fr 17:00; Sa 15:30", "name": "USPS COLLECTION BOX - BLUE BOX", "note": "ON 12/24 AND 12/31, THIS BOX MAY BE COLLECTED AS EARLY AS 12 NOON.", "nsi_id": "unitedstatespostalservice-a77078", "operator": "United States Postal Service", "operator:short": "USPS", "operator:type": "public", "operator:wikidata": "Q668687", "ref": "2230600010"}, "type": "Feature"}
{"dataset_attributes": {"@spider": "usps_collection_boxes"}, "geometry": {"coordinates": [-77.0897342, 38.742269], "type": "Point"}, "id": "xk8M36bgHsBnhNISpBcEEe1BECs=", "properties": {"@spider": "usps_collection_boxes", "addr:city": "ALEXANDRIA", "addr:country": "US", "addr:full": "7927 AUDUBON AVE", "addr:postcode": "22306", "addr:state": "VA", "amenity": "post_box", "brand": "United States Postal Service", "brand:wikidata": "Q668687", "collection_times": "Mo-Sa 09:30", "name": "USPS COLLECTION BOX - BLUE BOX", "nsi_id": "unitedstatespostalservice-a77078", "operator": "United States Postal Service", "operator:short": "USPS", "operator:type": "public", "operator:wikidata": "Q668687", "ref": "2230600011"}, "type": "Feature"}
{"dataset_attributes": {"@spider": "usps_collection_boxes"}, "geometry": {"coordinates": [-77.0772358, 38.743635], "type": "Point"}, "id": "aM855feyohVoxaKjCKn7Evm_4Ik=", "properties": {"@spider": "usps_collection_boxes", "addr:city": "ALEXANDRIA", "addr:country": "US", "addr:full": "2616 SHERWOOD HALL LN", "addr:postcode": "22306", "addr:state": "VA", "amenity": "post_box", "brand": "United States Postal Service", "brand:wikidata": "Q668687", "collection_times": "Mo-Sa 09:30", "name": "USPS COLLECTION BOX - BLUE BOX", "nsi_id": "unitedstatespostalservice-a77078", "operator": "United States Postal Service", "operator:short": "USPS", "operator:type": "public", "operator:wikidata": "Q668687", "ref": "2230600013"}, "type": "Feature"}
{"dataset_attributes": {"@spider": "usps_collection_boxes"}, "geometry": {"coordinates": [-77.0760922, 38.739585], "type": "Point"}, "id": "opX9TmfAABJEy8FU2xsYdFPb878=", "properties": {"@spider": "usps_collection_boxes", "addr:city": "ALEXANDRIA", "addr:country": "US", "addr:full": "2501 PARKERS LN", "addr:postcode": "22306", "addr:state": "VA", "amenity": "post_box", "brand": "United States Postal Service", "brand:wikidata": "Q668687", "collection_times": "Mo-Fr 10:30; Sa 13:30", "name": "USPS COLLECTION BOX - BLUE BOX", "note": "ON 12/24 AND 12/31, THIS BOX MAY BE COLLECTED AS EARLY AS 12 NOON.", "nsi_id": "unitedstatespostalservice-a77078", "operator": "United States Postal Service", "operator:short": "USPS", "operator:type": "public", "operator:wikidata": "Q668687", "ref": "2230600014"}, "type": "Feature"}
{"dataset_attributes": {"@spider": "usps_collection_boxes"}, "geometry": {"coordinates": [-77.079977, 38.743195], "type": "Point"}, "id": "_vadJmSjBR4TXZ04Mm2bDcYzLvU=", "properties": {"@spider": "usps_collection_boxes", "addr:city": "ALEXANDRIA", "addr:country": "US", "addr:full": "7900 ANDRUS RD", "addr:postcode": "22306", "addr:state": "VA", "amenity": "post_box", "brand": "United States Postal Service", "brand:wikidata": "Q668687", "collection_times": "Mo-Fr 10:30; Sa 13:30", "name": "USPS COLLECTION BOX - BLUE BOX", "note": "ON 12/24 AND 12/31, THIS BOX MAY BE COLLECTED AS EARLY AS 12 NOON.", "nsi_id": "unitedstatespostalservice-a77078", "operator": "United States Postal Service", "operator:short": "USPS", "operator:type": "public", "operator:wikidata": "Q668687", "ref": "2230600017"}, "type": "Feature"}
{"dataset_attributes": {"@spider": "usps_collection_boxes"}, "geometry": {"coordinates": [-77.0856833, 38.740561], "type": "Point"}, "id": "y3IyTRbKDwpB0poF1aRT1vux6Oo=", "properties": {"@spider": "usps_collection_boxes", "addr:city": "ALEXANDRIA", "addr:country": "US", "addr:full": "7959 RICHMOND HWY", "addr:postcode": "22306", "addr:state": "VA", "amenity": "post_box", "brand": "United States Postal Service", "brand:wikidata": "Q668687", "collection_times": "Mo-Sa 09:30", "name": "USPS COLLECTION BOX - BLUE BOX", "nsi_id": "unitedstatespostalservice-a77078", "operator": "United States Postal Service", "operator:short": "USPS", "operator:type": "public", "operator:wikidata": "Q668687", "ref": "2230600018"}, "type": "Feature"}
{"dataset_attributes": {"@spider": "usps_collection_boxes"}, "geometry": {"coordinates": [-77.0866285, 38.750691], "type": "Point"}, "id": "LPRqMWI3At83agR-uPamvw6Almg=", "properties": {"@spider": "usps_collection_boxes", "addr:city": "ALEXANDRIA", "addr:country": "US", "addr:full": "7676 RICHMOND HWY", "addr:postcode": "22306", "addr:state": "VA", "amenity": "post_box", "brand": "United States Postal Service", "brand:wikidata": "Q668687", "collection_times": "Mo-Fr 17:00; Sa 15:30", "name": "USPS COLLECTION BOX - PO LOBBY", "note": "ON 12/24 AND 12/31, THIS BOX MAY BE COLLECTED AS EARLY AS 12 NOON.", "nsi_id": "unitedstatespostalservice-a77078", "operator": "United States Postal Service", "operator:short": "USPS", "operator:type": "public", "operator:wikidata": "Q668687", "ref": "2230600021"}, "type": "Feature"}
{"dataset_attributes": {"@spider": "usps_collection_boxes"}, "geometry": {"coordinates": [-77.0855284, 38.746475], "type": "Point"}, "id": "PixajgXjevtv8OH3FV_8awj6Ekg=", "properties": {"@spider": "usps_collection_boxes", "addr:city": "ALEXANDRIA", "addr:country": "US", "addr:full": "7800 BELFORD DR", "addr:postcode": "22306", "addr:state": "VA", "amenity": "post_box", "brand": "United States Postal Service", "brand:wikidata": "Q668687", "collection_times": "Mo-Sa 09:30", "name": "USPS COLLECTION BOX - BLUE BOX", "nsi_id": "unitedstatespostalservice-a77078", "operator": "United States Postal Service", "operator:short": "USPS", "operator:type": "public", "operator:wikidata": "Q668687", "ref": "2230600022"}, "type": "Feature"}
{"dataset_attributes": {"@spider": "usps_collection_boxes"}, "geometry": {"coordinates": [-77.0755499, 38.743504], "type": "Point"}, "id": "zoh9Am0tYt1mA0N4HmVD8dkWZL8=", "properties": {"@spider": "usps_collection_boxes", "addr:city": "ALEXANDRIA", "addr:country": "US", "addr:full": "2501 SHERWOOD HALL LN", "addr:postcode": "22306", "addr:state": "VA", "amenity": "post_box", "brand": "United States Postal Service", "brand:wikidata": "Q668687", "collection_times": "Mo-Fr 11:15; Sa 14:00", "name": "USPS COLLECTION BOX - BLUE BOX", "note": "ON 12/24 AND 12/31, THIS BOX MAY BE COLLECTED AS EARLY AS 12 NOON.", "nsi_id": "unitedstatespostalservice-a77078", "operator": "United States Postal Service", "operator:short": "USPS", "operator:type": "public", "operator:wikidata": "Q668687", "ref": "2230600024"}, "type": "Feature"}
{"dataset_attributes": {"@spider": "usps_collection_boxes"}, "geometry": {"coordinates": [-77.0845139, 38.745465], "type": "Point"}, "id": "QYQUY1ANo0hOHd7KwueSwi92gGU=", "properties": {"@spider": "usps_collection_boxes", "addr:city": "ALEXANDRIA", "addr:country": "US", "addr:full": "7824 RICHMOND HWY", "addr:postcode": "22306", "addr:state": "VA", "amenity": "post_box", "brand": "United States Postal Service", "brand:wikidata": "Q668687", "collection_times": "Mo-Sa 09:30", "name": "USPS COLLECTION BOX - BLUE BOX", "nsi_id": "unitedstatespostalservice-a77078", "operator": "United States Postal Service", "operator:short": "USPS", "operator:type": "public", "operator:wikidata": "Q668687", "ref": "2230600026"}, "type": "Feature"}
{"dataset_attributes": {"@spider": "usps_collection_boxes"}, "geometry": {"coordinates": [-77.0964544, 38.761446], "type": "Point"}, "id": "2Z3EHG_kO7V_6n07HtdiUH5QCQc=", "properties": {"@spider": "usps_collection_boxes", "addr:city": "ALEXANDRIA", "addr:country": "US", "addr:full": "7200 BEDROCK RD", "addr:postcode": "22306", "addr:state": "VA", "amenity": "post_box", "brand": "United States Postal Service", "brand:wikidata": "Q668687", "collection_times": "Mo-Fr 11:30; Sa 15:00", "name": "USPS COLLECTION BOX - BLUE BOX", "note": "ON 12/24 AND 12/31, THIS BOX MAY BE COLLECTED AS EARLY AS 12 NOON.", "nsi_id": "unitedstatespostalservice-a77078", "operator": "United States Postal Service", "operator:short": "USPS", "operator:type": "public", "operator:wikidata": "Q668687", "ref": "2230600030"}, "type": "Feature"}
{"dataset_attributes": {"@spider": "usps_collection_boxes"}, "geometry": {"coordinates": [-77.0879764, 38.75959], "type": "Point"}, "id": "JGSluKwuR5QoIVRbccRsSaM-Pdw=", "properties": {"@spider": "usps_collection_boxes", "addr:city": "ALEXANDRIA", "addr:country": "US", "addr:full": "3308 LOCKHEED BLVD", "addr:postcode": "22306", "addr:state": "VA", "amenity": "post_box", "brand": "United States Postal Service", "brand:wikidata": "Q668687", "collection_times": "Mo-Fr 11:15; Sa 15:00", "name": "USPS COLLECTION BOX - BLUE BOX", "note": "ON 12/24 AND 12/31, THIS BOX MAY BE COLLECTED AS EARLY AS 12 NOON.", "nsi_id": "unitedstatespostalservice-a77078", "operator": "United States Postal Service", "operator:short": "USPS", "operator:type": "public", "operator:wikidata": "Q668687", "ref": "2230600031"}, "type": "Feature"}
{"dataset_attributes": {"@spider": "usps_collection_boxes"}, "geometry": {"coordinates": [-77.0776377, 38.73776], "type": "Point"}, "id": "7dZ0zecxdtnmSgkY8MMxyJyHp_0=", "properties": {"@spider": "usps_collection_boxes", "addr:city": "ALEXANDRIA", "addr:country": "US", "addr:full": "8101 HINSON FARM RD", "addr:postcode": "22306", "addr:state": "VA", "amenity": "post_box", "brand": "United States Postal Service", "brand:wikidata": "Q668687", "collection_times": "Mo-Sa 09:30", "name": "USPS COLLECTION BOX - BLUE BOX", "nsi_id": "unitedstatespostalservice-a77078", "operator": "United States Postal Service", "operator:short": "USPS", "operator:type": "public", "operator:wikidata": "Q668687", "ref": "2230600036"}, "type": "Feature"}
{"dataset_attributes": {"@spider": "usps_collection_boxes"}, "geometry": {"coordinates": [-77.0779478, 38.737267], "type": "Point"}, "id": "-2sgbLXU3ZYBZkuadWWAwWamKPk=", "properties": {"@spider": "usps_collection_boxes", "addr:city": "ALEXANDRIA", "addr:country": "US", "addr:full": "8101 TIS WELL DR", "addr:postcode": "22306", "addr:state": "VA", "amenity": "post_box", "brand": "United States Postal Service", "brand:wikidata": "Q668687", "collection_times": "Mo-Fr 14:00; Sa 13:30", "name": "USPS COLLECTION BOX - BLUE BOX", "note": "ON 12/24 AND 12/31, THIS BOX MAY BE COLLECTED AS EARLY AS 12 NOON.", "nsi_id": "unitedstatespostalservice-a77078", "operator": "United States Postal Service", "operator:short": "USPS", "operator:type": "public", "operator:wikidata": "Q668687", "ref": "2230600039"}, "type": "Feature"}
{"dataset_attributes": {"@spider": "usps_collection_boxes"}, "geometry": {"coordinates": [-77.0836026, 38.752597], "type": "Point"}, "id": "Vi5iudUVsBWClJgP_HQEcceOPZg=", "properties": {"@spider": "usps_collection_boxes", "addr:city": "ALEXANDRIA", "addr:country": "US", "addr:full": "7524 RICHMOND HWY", "addr:postcode": "22306", "addr:state": "VA", "amenity": "post_box", "brand": "United States Postal Service", "brand:wikidata": "Q668687", "collection_times": "Mo-Sa 09:30", "name": "USPS COLLECTION BOX - BLUE BOX", "nsi_id": "unitedstatespostalservice-a77078", "operator": "United States Postal Service", "operator:short": "USPS", "operator:type": "public", "operator:wikidata": "Q668687", "ref": "2230600042"}, "type": "Feature"}
{"dataset_attributes": {"@spider": "usps_collection_boxes"}, "geometry": {"coordinates": [-77.0776449, 38.737764], "type": "Point"}, "id": "vLsmLgIJfGh5mdf-Ptbswkwlxjg=", "properties": {"@spider": "usps_collection_boxes", "addr:city": "ALEXANDRIA", "addr:country": "US", "addr:full": "8101 HINSON FARM RD", "addr:postcode": "22306", "addr:state": "VA", "amenity": "post_box", "brand": "United States Postal Service", "brand:wikidata": "Q668687", "collection_times": "Mo-Fr 14:00; Sa 13:30", "name": "USPS COLLECTION BOX - EXPRESS", "note": "ON 12/24 AND 12/31, THIS BOX MAY BE COLLECTED AS EARLY AS 12 NOON.", "nsi_id": "unitedstatespostalservice-a77078", "operator": "United States Postal Service", "operator:short": "USPS", "operator:type": "public", "operator:wikidata": "Q668687", "ref": "2230600044"}, "type": "Feature"}
{"dataset_attributes": {"@spider": "usps_collection_boxes"}, "geometry": {"coordinates": [-77.0866891, 38.751166], "type": "Point"}, "id": "TK4Dg7q5O4NDSngHyFhT4AAVkkU=", "properties": {"@spider": "usps_collection_boxes", "addr:city": "ALEXANDRIA", "addr:country": "US", "addr:full": "7676 RICHMOND HWY", "addr:postcode": "22306", "addr:state": "VA", "amenity": "post_box", "brand": "United States Postal Service", "brand:wikidata": "Q668687", "collection_times": "Mo-Fr 17:00; Sa 15:00", "name": "USPS COLLECTION BOX - PO LOBBY", "note": "ON 12/24 AND 12/31, THIS BOX MAY BE COLLECTED AS EARLY AS 12 NOON.", "nsi_id": "unitedstatespostalservice-a77078", "operator": "United States Postal Service", "operator:short": "USPS", "operator:type": "public", "operator:wikidata": "Q668687", "ref": "2230600054"}, "type": "Feature"}
{"dataset_attributes": {"@spider": "usps_collection_boxes"}, "geometry": {"coordinates": [-77.083240039, 38.7497577], "type": "Point"}, "id": "BriV52bUfgjwRoab8m6J0Ru9r9s=", "properties": {"@spider": "usps_collection_boxes", "addr:city": "ALEXANDRIA", "addr:country": "US", "addr:full": "7676 RICHMOND HWY", "addr:postcode": "22306", "addr:state": "VA", "amenity": "post_box", "brand": "United States Postal Service", "brand:wikidata": "Q668687", "collection_times": "Mo-Fr 17:00; Sa 13:00", "name": "USPS COLLECTION BOX - PO LOBBY", "note": "ON 12/24 AND 12/31, THIS BOX MAY BE COLLECTED AS EARLY AS 12 NOON.", "nsi_id": "unitedstatespostalservice-a77078", "operator": "United States Postal Service", "operator:short": "USPS", "operator:type": "public", "operator:wikidata": "Q668687", "ref": "2230600059"}, "type": "Feature"}
{"dataset_attributes": {"@spider": "usps_collection_boxes"}, "geometry": {"coordinates": [-77.0538609, 38.764963], "type": "Point"}, "id": "D4QoKrYmX-_TbL80-v_HR74RBpw=", "properties": {"@spider": "usps_collection_boxes", "addr:city": "ALEXANDRIA", "addr:country": "US", "addr:full": "7004 PARK TERRACE DR", "addr:postcode": "22307", "addr:state": "VA", "amenity": "post_box", "brand": "United States Postal Service", "brand:wikidata": "Q668687", "collection_times": "Mo-Sa 09:30", "name": "USPS COLLECTION BOX - BLUE BOX", "nsi_id": "unitedstatespostalservice-a77078", "operator": "United States Postal Service", "operator:short": "USPS", "operator:type": "public", "operator:wikidata": "Q668687", "ref": "2230700001"}, "type": "Feature"}
{"dataset_attributes": {"@spider": "usps_collection_boxes"}, "geometry": {"coordinates": [-77.0577049, 38.779872], "type": "Point"}, "id": "lX5RtjkFqyD5DwzHPK204AvefOs=", "properties": {"@spider": "usps_collection_boxes", "addr:city": "ALEXANDRIA", "addr:country": "US", "addr:full": "1451 BELLE HAVEN RD", "addr:postcode": "22307", "addr:state": "VA", "amenity": "post_box", "brand": "United States Postal Service", "brand:wikidata": "Q668687", "collection_times": "Mo-Fr 13:30; Sa 14:00", "name": "USPS COLLECTION BOX - BLUE BOX", "note": "ON 12/24 AND 12/31, THIS BOX MAY BE COLLECTED AS EARLY AS 12 NOON.", "nsi_id": "unitedstatespostalservice-a77078", "operator": "United States Postal Service", "operator:short": "USPS", "operator:type": "public", "operator:wikidata": "Q668687", "ref": "2230700006"}, "type": "Feature"}
{"dataset_attributes": {"@spider": "usps_collection_boxes"}, "geometry": {"coordinates": [-77.060573975, 38.776189018], "type": "Point"}, "id": "0rZnQS6k4X-sHYd480oPgp7NTnM=", "properties": {"@spider": "usps_collection_boxes", "addr:city": "ALEXANDRIA", "addr:country": "US", "addr:full": "1626 BELLE VIEW BLVD", "addr:postcode": "22307", "addr:state": "VA", "amenity": "post_box", "brand": "United States Postal Service", "brand:wikidata": "Q668687", "collection_times": "Mo-Fr 17:00; Sa 15:00", "name": "USPS COLLECTION BOX - BLUE BOX", "note": "ON 12/24 AND 12/31, THIS BOX MAY BE COLLECTED AS EARLY AS 12 NOON.", "nsi_id": "unitedstatespostalservice-a77078", "operator": "United States Postal Service", "operator:short": "USPS", "operator:type": "public", "operator:wikidata": "Q668687", "ref": "2230700008"}, "type": "Feature"}
{"dataset_attributes": {"@spider": "usps_collection_boxes"}, "geometry": {"coordinates": [-77.060573975, 38.776189018], "type": "Point"}, "id": "rMe7nJcebHMwMbi3hRKlSK5QBzo=", "properties": {"@spider": "usps_collection_boxes", "addr:city": "ALEXANDRIA", "addr:country": "US", "addr:full": "1626 BELLE VIEW BLVD", "addr:postcode": "22307", "addr:state": "VA", "amenity": "post_box", "brand": "United States Postal Service", "brand:wikidata": "Q668687", "collection_times": "Mo-Fr 17:00; Sa 15:00", "name": "USPS COLLECTION BOX - BLUE BOX", "note": "ON 12/24 AND 12/31, THIS BOX MAY BE COLLECTED AS EARLY AS 12 NOON.", "nsi_id": "unitedstatespostalservice-a77078", "operator": "United States Postal Service", "operator:short": "USPS", "operator:type": "public", "operator:wikidata": "Q668687", "ref": "2230700013"}, "type": "Feature"}
{"dataset_attributes": {"@spider": "usps_collection_boxes"}, "geometry": {"coordinates": [-77.060573975, 38.776189018], "type": "Point"}, "id": "qKdH_BKAqkpPuInW3pqWXXrsbyE=", "properties": {"@spider": "usps_collection_boxes", "addr:city": "ALEXANDRIA", "addr:country": "US", "addr:full": "1626 BELLE VIEW BLVD", "addr:postcode": "22307", "addr:state": "VA", "amenity": "post_box", "brand": "United States Postal Service", "brand:wikidata": "Q668687", "collection_times": "Mo-Fr 17:00; Sa 15:00", "name": "USPS COLLECTION BOX - EXPRESS", "note": "ON 12/24 AND 12/31, THIS BOX MAY BE COLLECTED AS EARLY AS 12 NOON.", "nsi_id": "unitedstatespostalservice-a77078", "operator": "United States Postal Service", "operator:short": "USPS", "operator:type": "public", "operator:wikidata": "Q668687", "ref": "2230700015"}, "type": "Feature"}
{"dataset_attributes": {"@spider": "usps_collection_boxes"}, "geometry": {"coordinates": [-77.0571369, 38.759814], "type": "Point"}, "id": "GndZLAvyVtOH2c7ZkWMNPWDoe2Q=", "properties": {"@spider": "usps_collection_boxes", "addr:city": "ALEXANDRIA", "addr:country": "US", "addr:full": "7212 MARLAN DR", "addr:postcode": "22307", "addr:state": "VA", "amenity": "post_box", "brand": "United States Postal Service", "brand:wikidata": "Q668687", "collection_times": "Mo-Sa 09:30", "name": "USPS COLLECTION BOX - BLUE BOX", "nsi_id": "unitedstatespostalservice-a77078", "operator": "United States Postal Service", "operator:short": "USPS", "operator:type": "public", "operator:wikidata": "Q668687", "ref": "2230700020"}, "type": "Feature"}
{"dataset_attributes": {"@spider": "usps_collection_boxes"}, "geometry": {"coordinates": [-77.0660578, 38.765448], "type": "Point"}, "id": "DHSWA8RLfo4CzKU_-B1mvfxr6Yk=", "properties": {"@spider": "usps_collection_boxes", "addr:city": "ALEXANDRIA", "addr:country": "US", "addr:full": "6936 COLUMBIA DR", "addr:postcode": "22307", "addr:state": "VA", "amenity": "post_box", "brand": "United States Postal Service", "brand:wikidata": "Q668687", "collection_times": "Mo-Fr 13:45; Sa 13:30", "name": "USPS COLLECTION BOX - BLUE BOX", "note": "ON 12/24 AND 12/31, THIS BOX MAY BE COLLECTED AS EARLY AS 12 NOON.", "nsi_id": "unitedstatespostalservice-a77078", "operator": "United States Postal Service", "operator:short": "USPS", "operator:type": "public", "operator:wikidata": "Q668687", "ref": "2230700023"}, "type": "Feature"}
{"dataset_attributes": {"@spider": "usps_collection_boxes"}, "geometry": {"coordinates": [-77.0749523, 38.766174], "type": "Point"}, "id": "ZLdZoIGlGpYlDELqFuLZzlQJG24=", "properties": {"@spider": "usps_collection_boxes", "addr:city": "ALEXANDRIA", "addr:country": "US", "addr:full": "6944 UNIVERSITY DR", "addr:postcode": "22307", "addr:state": "VA", "amenity": "post_box", "brand": "United States Postal Service", "brand:wikidata": "Q668687", "collection_times": "Mo-Sa 09:30", "name": "USPS COLLECTION BOX - BLUE BOX", "nsi_id": "unitedstatespostalservice-a77078", "operator": "United States Postal Service", "operator:short": "USPS", "operator:type": "public", "operator:wikidata": "Q668687", "ref": "2230700024"}, "type": "Feature"}
{"dataset_attributes": {"@spider": "usps_collection_boxes"}, "geometry": {"coordinates": [-77.0542494, 38.775203], "type": "Point"}, "id": "y9HHtERNKEP4CBY0-wZ8Pepk_pc=", "properties": {"@spider": "usps_collection_boxes", "addr:city": "ALEXANDRIA", "addr:country": "US", "addr:full": "6540 10TH ST", "addr:postcode": "22307", "addr:state": "VA", "amenity": "post_box", "brand": "United States Postal Service", "brand:wikidata": "Q668687", "collection_times": "Mo-Fr 13:30; Sa 14:00", "name": "USPS COLLECTION BOX - BLUE BOX", "note": "ON 12/24 AND 12/31, THIS BOX MAY BE COLLECTED AS EARLY AS 12 NOON.", "nsi_id": "unitedstatespostalservice-a77078", "operator": "United States Postal Service", "operator:short": "USPS", "operator:type": "public", "operator:wikidata": "Q668687", "ref": "2230700028"}, "type": "Feature"}
{"dataset_attributes": {"@spider": "usps_collection_boxes"}, "geometry": {"coordinates": [-77.0501176, 38.757717], "type": "Point"}, "id": "zkKs8jU-n1OpC1KV6bFWulptUYk=", "properties": {"@spider": "usps_collection_boxes", "addr:city": "ALEXANDRIA", "addr:country": "US", "addr:full": "7310 PARK TERRACE DR", "addr:postcode": "22307", "addr:state": "VA", "amenity": "post_box", "brand": "United States Postal Service", "brand:wikidata": "Q668687", "collection_times": "Mo-Sa 09:30", "name": "USPS COLLECTION BOX - BLUE BOX", "nsi_id": "unitedstatespostalservice-a77078", "operator": "United States Postal Service", "operator:short": "USPS", "operator:type": "public", "operator:wikidata": "Q668687", "ref": "2230700029"}, "type": "Feature"}
{"dataset_attributes": {"@spider": "usps_collection_boxes"}, "geometry": {"coordinates": [-77.0626257, 38.773749], "type": "Point"}, "id": "Q9sUlu4d4MAk8_Osh169pB2RIOc=", "properties": {"@spider": "usps_collection_boxes", "addr:city": "ALEXANDRIA", "addr:country": "US", "addr:full": "6614 FORT HUNT RD", "addr:postcode": "22307", "addr:state": "VA", "amenity": "post_box", "brand": "United States Postal Service", "brand:wikidata": "Q668687", "collection_times": "Mo-Sa 13:30", "name": "USPS COLLECTION BOX - BLUE BOX", "note": "ON 12/24 AND 12/31, THIS BOX MAY BE COLLECTED AS EARLY AS 12 NOON.", "nsi_id": "unitedstatespostalservice-a77078", "operator": "United States Postal Service", "operator:short": "USPS", "operator:type": "public", "operator:wikidata": "Q668687", "ref": "2230700032"}, "type": "Feature"}
{"dataset_attributes": {"@spider": "usps_collection_boxes"}, "geometry": {"coordinates": [-77.060573975, 38.776189018], "type": "Point"}, "id": "9nfor4SwUfSu_QaoLUwztfS1ZNY=", "properties": {"@spider": "usps_collection_boxes", "addr:city": "ALEXANDRIA", "addr:country": "US", "addr:full": "1626 BELLE VIEW BLVD", "addr:postcode": "22307", "addr:state": "VA", "amenity": "post_box", "brand": "United States Postal Service", "brand:wikidata": "Q668687", "collection_times": "Mo-Fr 17:00; Sa 15:00", "name": "USPS COLLECTION BOX - PO LOBBY", "note": "ON 12/24 AND 12/31, THIS BOX MAY BE COLLECTED AS EARLY AS 12 NOON.", "nsi_id": "unitedstatespostalservice-a77078", "operator": "United States Postal Service", "operator:short": "USPS", "operator:type": "public", "operator:wikidata": "Q668687", "ref": "2230700035"}, "type": "Feature"}
{"dataset_attributes": {"@spider": "usps_collection_boxes"}, "geometry": {"coordinates": [-77.060573975, 38.776189018], "type": "Point"}, "id": "anoIWDLIyMm2DyoIDqL4G-888PU=", "properties": {"@spider": "usps_collection_boxes", "addr:city": "ALEXANDRIA", "addr:country": "US", "addr:full": "1626 BELLE VIEW BLVD", "addr:postcode": "22307", "addr:state": "VA", "amenity": "post_box", "brand": "United States Postal Service", "brand:wikidata": "Q668687", "collection_times": "Mo-Fr 17:00; Sa 13:00", "name": "USPS COLLECTION BOX - PO LOBBY", "note": "ON 12/24 AND 12/31, THIS BOX MAY BE COLLECTED AS EARLY AS 12 NOON.", "nsi_id": "unitedstatespostalservice-a77078", "operator": "United States Postal Service", "operator:short": "USPS", "operator:type": "public", "operator:wikidata": "Q668687", "ref": "2230700037"}, "type": "Feature"}
{"dataset_attributes": {"@spider": "usps_collection_boxes"}, "geometry": {"coordinates": [-77.0625971, 38.71543], "type": "Point"}, "id": "zXJ-GCY7N5_gXY7vc7YkdUKQQtw=", "properties": {"@spider": "usps_collection_boxes", "addr:city": "ALEXANDRIA", "addr:country": "US", "addr:full": "8907 VERNON VIEW DR", "addr:postcode": "22308", "addr:state": "VA", "amenity": "post_box", "brand": "United States Postal Service", "brand:wikidata": "Q668687", "collection_times": "Mo-Sa 09:30", "name": "USPS COLLECTION BOX - BLUE BOX", "nsi_id": "unitedstatespostalservice-a77078", "operator": "United States Postal Service", "operator:short": "USPS", "operator:type": "public", "operator:wikidata": "Q668687", "ref": "2230800001"}, "type": "Feature"}
{"dataset_attributes": {"@spider": "usps_collection_boxes"}, "geometry": {"coordinates": [-77.0481186, 38.731874], "type": "Point"}, "id": "R_11hNiyXElK_Ryxxw4N_v3jU68=", "properties": {"@spider": "usps_collection_boxes", "addr:city": "ALEXANDRIA", "addr:country": "US", "addr:full": "8303 W BOULEVARD DR", "addr:postcode": "22308", "addr:state": "VA", "amenity": "post_box", "brand": "United States Postal Service", "brand:wikidata": "Q668687", "collection_times": "Mo-Fr 11:00; Sa 14:00", "name": "USPS COLLECTION BOX - BLUE BOX", "note": "ON 12/24 AND 12/31, THIS BOX MAY BE COLLECTED AS EARLY AS 12 NOON.", "nsi_id": "unitedstatespostalservice-a77078", "operator": "United States Postal Service", "operator:short": "USPS", "operator:type": "public", "operator:wikidata": "Q668687", "ref": "2230800002"}, "type": "Feature"}
{"dataset_attributes": {"@spider": "usps_collection_boxes"}, "geometry": {"coordinates": [-77.0602299, 38.725361], "type": "Point"}, "id": "zbUMQP_mHM41l8xBMEq_og7LEFw=", "properties": {"@spider": "usps_collection_boxes", "addr:city": "ALEXANDRIA", "addr:country": "US", "addr:full": "8510 BUCKBOARD DR", "addr:postcode": "22308", "addr:state": "VA", "amenity": "post_box", "brand": "United States Postal Service", "brand:wikidata": "Q668687", "collection_times": "Mo-Sa 09:30", "name": "USPS COLLECTION BOX - BLUE BOX", "nsi_id": "unitedstatespostalservice-a77078", "operator": "United States Postal Service", "operator:short": "USPS", "operator:type": "public", "operator:wikidata": "Q668687", "ref": "2230800004"}, "type": "Feature"}
{"dataset_attributes": {"@spider": "usps_collection_boxes"}, "geometry": {"coordinates": [-77.0701973, 38.723615], "type": "Point"}, "id": "BVQLgYZTzzmdjCj-XhjetunM76s=", "properties": {"@spider": "usps_collection_boxes", "addr:city": "ALEXANDRIA", "addr:country": "US", "addr:full": "8610 YARDLEY DR", "addr:postcode": "22308", "addr:state": "VA", "amenity": "post_box", "brand": "United States Postal Service", "brand:wikidata": "Q668687", "collection_times": "Mo-Fr 10:45; Sa 13:30", "name": "USPS COLLECTION BOX - BLUE BOX", "note": "ON 12/24 AND 12/31, THIS BOX MAY BE COLLECTED AS EARLY AS 12 NOON.", "nsi_id": "unitedstatespostalservice-a77078", "operator": "United States Postal Service", "operator:short": "USPS", "operator:type": "public", "operator:wikidata": "Q668687", "ref": "2230800006"}, "type": "Feature"}
{"dataset_attributes": {"@spider": "usps_collection_boxes"}, "geometry": {"coordinates": [-77.0506523, 38.724316], "type": "Point"}, "id": "R533l7GD0c715rEVE-DemAKIbxU=", "properties": {"@spider": "usps_collection_boxes", "addr:city": "ALEXANDRIA", "addr:country": "US", "addr:full": "8528 CYRUS PL", "addr:postcode": "22308", "addr:state": "VA", "amenity": "post_box", "brand": "United States Postal Service", "brand:wikidata": "Q668687", "collection_times": "Mo-Fr 11:00; Sa 14:00", "name": "USPS COLLECTION BOX - BLUE BOX", "note": "ON 12/24 AND 12/31, THIS BOX MAY BE COLLECTED AS EARLY AS 12 NOON.", "nsi_id": "unitedstatespostalservice-a77078", "operator": "United States Postal Service", "operator:short": "USPS", "operator:type": "public", "operator:wikidata": "Q668687", "ref": "2230800007"}, "type": "Feature"}
{"dataset_attributes": {"@spider": "usps_collection_boxes"}, "geometry": {"coordinates": [-77.0569599, 38.742851], "type": "Point"}, "id": "B2vDx8yMFdTuA_N0R6fHxJ-Ie20=", "properties": {"@spider": "usps_collection_boxes", "addr:city": "ALEXANDRIA", "addr:country": "US", "addr:full": "7910 FORT HUNT RD", "addr:postcode": "22308", "addr:state": "VA", "amenity": "post_box", "brand": "United States Postal Service", "brand:wikidata": "Q668687", "collection_times": "Mo-Sa 14:00", "name": "USPS COLLECTION BOX - BLUE BOX", "note": "ON 12/24 AND 12/31, THIS BOX MAY BE COLLECTED AS EARLY AS 12 NOON.", "nsi_id": "unitedstatespostalservice-a77078", "operator": "United States Postal Service", "operator:short": "USPS", "operator:type": "public", "operator:wikidata": "Q668687", "ref": "2230800010"}, "type": "Feature"}
{"dataset_attributes": {"@spider": "usps_collection_boxes"}, "geometry": {"coordinates": [-77.0692099, 38.734701], "type": "Point"}, "id": "K0cRGSI4xFhZwYlH6I5RroDjxdM=", "properties": {"@spider": "usps_collection_boxes", "addr:city": "ALEXANDRIA", "addr:country": "US", "addr:full": "8215 CROWN COURT RD", "addr:postcode": "22308", "addr:state": "VA", "amenity": "post_box", "brand": "United States Postal Service", "brand:wikidata": "Q668687", "collection_times": "Mo-Sa 09:30", "name": "USPS COLLECTION BOX - BLUE BOX", "nsi_id": "unitedstatespostalservice-a77078", "operator": "United States Postal Service", "operator:short": "USPS", "operator:type": "public", "operator:wikidata": "Q668687", "ref": "2230800011"}, "type": "Feature"}
{"dataset_attributes": {"@spider": "usps_collection_boxes"}, "geometry": {"coordinates": [-77.1148688, 38.727516], "type": "Point"}, "id": "Clm6Cc1Ox-LJZbFZ8Gar-qB_9JQ=", "properties": {"@spider": "usps_collection_boxes", "addr:city": "ALEXANDRIA", "addr:country": "US", "addr:full": "8424 SKY VIEW DR", "addr:postcode": "22309", "addr:state": "VA", "amenity": "post_box", "brand": "United States Postal Service", "brand:wikidata": "Q668687", "collection_times": "Mo-Sa 09:30", "name": "USPS COLLECTION BOX - BLUE BOX", "nsi_id": "unitedstatespostalservice-a77078", "operator": "United States Postal Service", "operator:short": "USPS", "operator:type": "public", "operator:wikidata": "Q668687", "ref": "2230900003"}, "type": "Feature"}
{"dataset_attributes": {"@spider": "usps_collection_boxes"}, "geometry": {"coordinates": [-77.114688, 38.734769], "type": "Point"}, "id": "rWYmELKdJKSGvqnpeNyQ5Y5Jee4=", "properties": {"@spider": "usps_collection_boxes", "addr:city": "ALEXANDRIA", "addr:country": "US", "addr:full": "8200 FRYE RD", "addr:postcode": "22309", "addr:state": "VA", "amenity": "post_box", "brand": "United States Postal Service", "brand:wikidata": "Q668687", "collection_times": "Mo-Sa 09:30", "name": "USPS COLLECTION BOX - BLUE BOX", "nsi_id": "unitedstatespostalservice-a77078", "operator": "United States Postal Service", "operator:short": "USPS", "operator:type": "public", "operator:wikidata": "Q668687", "ref": "2230900010"}, "type": "Feature"}
{"dataset_attributes": {"@spider": "usps_collection_boxes"}, "geometry": {"coordinates": [-77.1294968, 38.727708], "type": "Point"}, "id": "CKx85khXvDr3bJA8U4SkIWYAXy4=", "properties": {"@spider": "usps_collection_boxes", "addr:city": "ALEXANDRIA", "addr:country": "US", "addr:full": "8400 DEL NORTE CT", "addr:postcode": "22309", "addr:state": "VA", "amenity": "post_box", "brand": "United States Postal Service", "brand:wikidata": "Q668687", "collection_times": "Mo-Sa 09:30", "name": "USPS COLLECTION BOX - BLUE BOX", "nsi_id": "unitedstatespostalservice-a77078", "operator": "United States Postal Service", "operator:short": "USPS", "operator:type": "public", "operator:wikidata": "Q668687", "ref": "2230900011"}, "type": "Feature"}
{"dataset_attributes": {"@spider": "usps_collection_boxes"}, "geometry": {"coordinates": [-77.1083389, 38.729202], "type": "Point"}, "id": "LncPYNt8PHGsTnSv4cj3qHjp86w=", "properties": {"@spider": "usps_collection_boxes", "addr:city": "ALEXANDRIA", "addr:country": "US", "addr:full": "8420 RICHMOND HWY", "addr:postcode": "22309", "addr:state": "VA", "amenity": "post_box", "brand": "United States Postal Service", "brand:wikidata": "Q668687", "collection_times": "Mo-Sa 09:30", "name": "USPS COLLECTION BOX - BLUE BOX", "nsi_id": "unitedstatespostalservice-a77078", "operator": "United States Postal Service", "operator:short": "USPS", "operator:type": "public", "operator:wikidata": "Q668687", "ref": "2230900015"}, "type": "Feature"}
{"dataset_attributes": {"@spider": "usps_collection_boxes"}, "geometry": {"coordinates": [-77.1333989, 38.719447], "type": "Point"}, "id": "J9S8ZdhNqR_JafKMRZ-vXwdmJaI=", "properties": {"@spider": "usps_collection_boxes", "addr:city": "ALEXANDRIA", "addr:country": "US", "addr:full": "8799 OLD COLONY WAY", "addr:postcode": "22309", "addr:state": "VA", "amenity": "post_box", "brand": "United States Postal Service", "brand:wikidata": "Q668687", "collection_times": "Mo-Sa 09:30", "name": "USPS COLLECTION BOX - BLUE BOX", "nsi_id": "unitedstatespostalservice-a77078", "operator": "United States Postal Service", "operator:short": "USPS", "operator:type": "public", "operator:wikidata": "Q668687", "ref": "2230900016"}, "type": "Feature"}
{"dataset_attributes": {"@spider": "usps_collection_boxes"}, "geometry": {"coordinates": [-77.0899317, 38.72798], "type": "Point"}, "id": "bAtqePyiR05oiLHhHBKab44vn2Y=", "properties": {"@spider": "usps_collection_boxes", "addr:city": "ALEXANDRIA", "addr:country": "US", "addr:full": "8418 WAGON WHEEL RD", "addr:postcode": "22309", "addr:state": "VA", "amenity": "post_box", "brand": "United States Postal Service", "brand:wikidata": "Q668687", "collection_times": "Mo-Fr 10:30; Sa 14:00", "name": "USPS COLLECTION BOX - BLUE BOX", "note": "ON 12/24 AND 12/31, THIS BOX MAY BE COLLECTED AS EARLY AS 12 NOON.", "nsi_id": "unitedstatespostalservice-a77078", "operator": "United States Postal Service", "operator:short": "USPS", "operator:type": "public", "operator:wikidata": "Q668687", "ref": "2230900020"}, "type": "Feature"}
{"dataset_attributes": {"@spider": "usps_collection_boxes"}, "geometry": {"coordinates": [-77.1014899, 38.713404], "type": "Point"}, "id": "V8iRkBPPzn5EqudxBNdd9mb3Cq4=", "properties": {"@spider": "usps_collection_boxes", "addr:city": "ALEXANDRIA", "addr:country": "US", "addr:full": "9001 CHERRYTREE DR", "addr:postcode": "22309", "addr:state": "VA", "amenity": "post_box", "brand": "United States Postal Service", "brand:wikidata": "Q668687", "collection_times": "Mo-Sa 09:30", "name": "USPS COLLECTION BOX - BLUE BOX", "nsi_id": "unitedstatespostalservice-a77078", "operator": "United States Postal Service", "operator:short": "USPS", "operator:type": "public", "operator:wikidata": "Q668687", "ref": "2230900021"}, "type": "Feature"}
{"dataset_attributes": {"@spider": "usps_collection_boxes"}, "geometry": {"coordinates": [-77.1100452, 38.738385], "type": "Point"}, "id": "BebzEK3sEcmxy8yDeu4DBcBg9LY=", "properties": {"@spider": "usps_collection_boxes", "addr:city": "ALEXANDRIA", "addr:country": "US", "addr:full": "8101 PINELAKE CT", "addr:postcode": "22309", "addr:state": "VA", "amenity": "post_box", "brand": "United States Postal Service", "brand:wikidata": "Q668687", "collection_times": "Mo-Sa 09:30", "name": "USPS COLLECTION BOX - BLUE BOX", "nsi_id": "unitedstatespostalservice-a77078", "operator": "United States Postal Service", "operator:short": "USPS", "operator:type": "public", "operator:wikidata": "Q668687", "ref": "2230900022"}, "type": "Feature"}
{"dataset_attributes": {"@spider": "usps_collection_boxes"}, "geometry": {"coordinates": [-77.1207724, 38.72407], "type": "Point"}, "id": "Pim1APIVhon0xyqwU3A9MVNxvkQ=", "properties": {"@spider": "usps_collection_boxes", "addr:city": "ALEXANDRIA", "addr:country": "US", "addr:full": "8634 RICHMOND HWY", "addr:postcode": "22309", "addr:state": "VA", "amenity": "post_box", "brand": "United States Postal Service", "brand:wikidata": "Q668687", "collection_times": "Mo-Sa 09:30", "name": "USPS COLLECTION BOX - BLUE BOX", "nsi_id": "unitedstatespostalservice-a77078", "operator": "United States Postal Service", "operator:short": "USPS", "operator:type": "public", "operator:wikidata": "Q668687", "ref": "2230900023"}, "type": "Feature"}
{"dataset_attributes": {"@spider": "usps_collection_boxes"}, "geometry": {"coordinates": [-77.116252, 38.725354], "type": "Point"}, "id": "Unr2AcF4lour1fkKWkjou1C0rgg=", "properties": {"@spider": "usps_collection_boxes", "addr:city": "ALEXANDRIA", "addr:country": "US", "addr:full": "8588 RICHMOND HWY", "addr:postcode": "22309", "addr:state": "VA", "amenity": "post_box", "brand": "United States Postal Service", "brand:wikidata": "Q668687", "collection_times": "Mo-Fr 17:00; Sa 15:00", "name": "USPS COLLECTION BOX - EXPRESS", "note": "ON 12/24 AND 12/31, THIS BOX MAY BE COLLECTED AS EARLY AS 12 NOON.", "nsi_id": "unitedstatespostalservice-a77078", "operator": "United States Postal Service", "operator:short": "USPS", "operator:type": "public", "operator:wikidata": "Q668687", "ref": "2230900024"}, "type": "Feature"}
{"dataset_attributes": {"@spider": "usps_collection_boxes"}, "geometry": {"coordinates": [-77.1161540398, 38.7260069832], "type": "Point"}, "id": "gStvPpIWvpDWb5HkY3paj5e4nFk=", "properties": {"@spider": "usps_collection_boxes", "addr:city": "ALEXANDRIA", "addr:country": "US", "addr:full": "8588 RICHMOND HWY", "addr:postcode": "22309", "addr:state": "VA", "amenity": "post_box", "brand": "United States Postal Service", "brand:wikidata": "Q668687", "collection_times": "Mo-Fr 17:00; Sa 15:00", "name": "USPS COLLECTION BOX - BLUE BOX", "note": "ON 12/24 AND 12/31, THIS BOX MAY BE COLLECTED AS EARLY AS 12 NOON.", "nsi_id": "unitedstatespostalservice-a77078", "operator": "United States Postal Service", "operator:short": "USPS", "operator:type": "public", "operator:wikidata": "Q668687", "ref": "2230900025"}, "type": "Feature"}
{"dataset_attributes": {"@spider": "usps_collection_boxes"}, "geometry": {"coordinates": [-77.1162763, 38.725314], "type": "Point"}, "id": "a4hJr8LjdhYjLqM-3dOvi-uMEGg=", "properties": {"@spider": "usps_collection_boxes", "addr:city": "ALEXANDRIA", "addr:country": "US", "addr:full": "8588 RICHMOND HWY", "addr:postcode": "22309", "addr:state": "VA", "amenity": "post_box", "brand": "United States Postal Service", "brand:wikidata": "Q668687", "collection_times": "Mo-Fr 17:00; Sa 15:00", "name": "USPS COLLECTION BOX - BLUE BOX", "note": "ON 12/24 AND 12/31, THIS BOX MAY BE COLLECTED AS EARLY AS 12 NOON.", "nsi_id": "unitedstatespostalservice-a77078", "operator": "United States Postal Service", "operator:short": "USPS", "operator:type": "public", "operator:wikidata": "Q668687", "ref": "2230900026"}, "type": "Feature"}
{"dataset_attributes": {"@spider": "usps_collection_boxes"}, "geometry": {"coordinates": [-77.112193004, 38.705145013], "type": "Point"}, "id": "XN541T_45M2ABfxgRi0jA4yzJ9k=", "properties": {"@spider": "usps_collection_boxes", "addr:city": "ALEXANDRIA", "addr:country": "US", "addr:full": "4509 FERRY LANDING RD", "addr:postcode": "22309", "addr:state": "VA", "amenity": "post_box", "brand": "United States Postal Service", "brand:wikidata": "Q668687", "collection_times": "Mo-Sa 09:30", "name": "USPS COLLECTION BOX - BLUE BOX", "nsi_id": "unitedstatespostalservice-a77078", "operator": "United States Postal Service", "operator:short": "USPS", "operator:type": "public", "operator:wikidata": "Q668687", "ref": "2230900028"}, "type": "Feature"}
{"dataset_attributes": {"@spider": "usps_collection_boxes"}, "geometry": {"coordinates": [-77.0990983, 38.740798], "type": "Point"}, "id": "KEWSuyRsUTwOTtdL5e4mX3k1dXQ=", "properties": {"@spider": "usps_collection_boxes", "addr:city": "ALEXANDRIA", "addr:country": "US", "addr:full": "8010 SEVEN WOODS DR", "addr:postcode": "22309", "addr:state": "VA", "amenity": "post_box", "brand": "United States Postal Service", "brand:wikidata": "Q668687", "collection_times": "Mo-Fr 09:45; Sa 13:30", "name": "USPS COLLECTION BOX - BLUE BOX", "note": "ON 12/24 AND 12/31, THIS BOX MAY BE COLLECTED AS EARLY AS 12 NOON.", "nsi_id": "unitedstatespostalservice-a77078", "operator": "United States Postal Service", "operator:short": "USPS", "operator:type": "public", "operator:wikidata": "Q668687", "ref": "2230900029"}, "type": "Feature"}
{"dataset_attributes": {"@spider": "usps_collection_boxes"}, "geometry": {"coordinates": [-77.11615404, 38.726006983], "type": "Point"}, "id": "GCqXLwc0GKRxPko8JicumGHKo5s=", "properties": {"@spider": "usps_collection_boxes", "addr:city": "ALEXANDRIA", "addr:country": "US", "addr:full": "8588 RICHMOND HWY", "addr:postcode": "22309", "addr:state": "VA", "amenity": "post_box", "brand": "United States Postal Service", "brand:wikidata": "Q668687", "collection_times": "Mo-Sa 17:00", "name": "USPS COLLECTION BOX - PO LOBBY", "note": "ON 12/24 AND 12/31, THIS BOX MAY BE COLLECTED AS EARLY AS 12 NOON.", "nsi_id": "unitedstatespostalservice-a77078", "operator": "United States Postal Service", "operator:short": "USPS", "operator:type": "public", "operator:wikidata": "Q668687", "ref": "2230900030"}, "type": "Feature"}
{"dataset_attributes": {"@spider": "usps_collection_boxes"}, "geometry": {"coordinates": [-77.1161540398, 38.7260069832], "type": "Point"}, "id": "CbnG1ogpfkucEuuAIner-yxMEto=", "properties": {"@spider": "usps_collection_boxes", "addr:city": "ALEXANDRIA", "addr:country": "US", "addr:full": "8588 RICHMOND HWY", "addr:postcode": "22309", "addr:state": "VA", "amenity": "post_box", "brand": "United States Postal Service", "brand:wikidata": "Q668687", "collection_times": "Mo-Sa 17:00", "name": "USPS COLLECTION BOX - PO LOBBY", "note": "ON 12/24 AND 12/31, THIS BOX MAY BE COLLECTED AS EARLY AS 12 NOON.", "nsi_id": "unitedstatespostalservice-a77078", "operator": "United States Postal Service", "operator:short": "USPS", "operator:type": "public", "operator:wikidata": "Q668687", "ref": "2230900031"}, "type": "Feature"}
{"dataset_attributes": {"@spider": "usps_collection_boxes"}, "geometry": {"coordinates": [-77.1161956, 38.725625], "type": "Point"}, "id": "XpmdQWp80q3MqXcJkHcESx4hnQY=", "properties": {"@spider": "usps_collection_boxes", "addr:city": "ALEXANDRIA", "addr:country": "US", "addr:full": "8588 RICHMOND HWY", "addr:postcode": "22309", "addr:state": "VA", "amenity": "post_box", "brand": "United States Postal Service", "brand:wikidata": "Q668687", "collection_times": "Mo-Sa 17:00", "name": "USPS COLLECTION BOX - PO LOBBY", "note": "ON 12/24 AND 12/31, THIS BOX MAY BE COLLECTED AS EARLY AS 12 NOON.", "nsi_id": "unitedstatespostalservice-a77078", "operator": "United States Postal Service", "operator:short": "USPS", "operator:type": "public", "operator:wikidata": "Q668687", "ref": "2230900032"}, "type": "Feature"}
{"dataset_attributes": {"@spider": "usps_collection_boxes"}, "geometry": {"coordinates": [-77.11596052, 38.725153727], "type": "Point"}, "id": "Q8sGbNoJBer49Xbrk84yxx9UtLg=", "properties": {"@spider": "usps_collection_boxes", "addr:city": "ALEXANDRIA", "addr:country": "US", "addr:full": "8588 RICHMOND HWY", "addr:postcode": "22309", "addr:state": "VA", "amenity": "post_box", "brand": "United States Postal Service", "brand:wikidata": "Q668687", "collection_times": "Mo-Fr 17:00; Sa 13:00", "name": "USPS COLLECTION BOX - PO LOBBY", "note": "ON 12/24 AND 12/31, THIS BOX MAY BE COLLECTED AS EARLY AS 12 NOON.", "nsi_id": "unitedstatespostalservice-a77078", "operator": "United States Postal Service", "operator:short": "USPS", "operator:type": "public", "operator:wikidata": "Q668687", "ref": "2230900036"}, "type": "Feature"}
{"dataset_attributes": {"@spider": "usps_collection_boxes"}, "geometry": {"coordinates": [-77.1396878, 38.75357], "type": "Point"}, "id": "Yo-bNotR9mVpp-K0f-IVHzB37gU=", "properties": {"@spider": "usps_collection_boxes", "addr:city": "ALEXANDRIA", "addr:country": "US", "addr:full": "7500 TELEGRAPH RD", "addr:postcode": "22315", "addr:state": "VA", "amenity": "post_box", "brand": "United States Postal Service", "brand:wikidata": "Q668687", "collection_times": "Mo-Fr 10:45; Sa 13:30", "name": "USPS COLLECTION BOX - BLUE BOX", "note": "ON 12/24 AND 12/31, THIS BOX MAY BE COLLECTED AS EARLY AS 12 NOON.", "nsi_id": "unitedstatespostalservice-a77078", "operator": "United States Postal Service", "operator:short": "USPS", "operator:type": "public", "operator:wikidata": "Q668687", "ref": "2231500003"}, "type": "Feature"}
{"dataset_attributes": {"@spider": "usps_collection_boxes"}, "geometry": {"coordinates": [-77.1466530194, 38.7107380054], "type": "Point"}, "id": "8t0t6yf6-kXR0py2XdwbrsrS3nU=", "properties": {"@spider": "usps_collection_boxes", "addr:city": "ALEXANDRIA", "addr:country": "US", "addr:full": "7701 TELEGRAPH RD", "addr:postcode": "22315", "addr:state": "VA", "amenity": "post_box", "brand": "United States Postal Service", "brand:wikidata": "Q668687", "collection_times": "Mo-Fr 10:45; Sa 13:30", "name": "USPS COLLECTION BOX - BLUE BOX", "note": "ON 12/24 AND 12/31, THIS BOX MAY BE COLLECTED AS EARLY AS 12 NOON.", "nsi_id": "unitedstatespostalservice-a77078", "operator": "United States Postal Service", "operator:short": "USPS", "operator:type": "public", "operator:wikidata": "Q668687", "ref": "2231500006"}, "type": "Feature"}
{"dataset_attributes": {"@spider": "usps_collection_boxes"}, "geometry": {"coordinates": [-77.1670306, 38.742656], "type": "Point"}, "id": "usB5tpnMVYEp-yXI7Ts09OXABsw=", "properties": {"@spider": "usps_collection_boxes", "addr:city": "ALEXANDRIA", "addr:country": "US", "addr:full": "6542 MORNING GLEN CT", "addr:postcode": "22315", "addr:state": "VA", "amenity": "post_box", "brand": "United States Postal Service", "brand:wikidata": "Q668687", "collection_times": "Mo-Fr 10:45; Sa 13:30", "name": "USPS COLLECTION BOX - BLUE BOX", "note": "ON 12/24 AND 12/31, THIS BOX MAY BE COLLECTED AS EARLY AS 12 NOON.", "nsi_id": "unitedstatespostalservice-a77078", "operator": "United States Postal Service", "operator:short": "USPS", "operator:type": "public", "operator:wikidata": "Q668687", "ref": "2231500010"}, "type": "Feature"}
