{"geometry": {"coordinates": [-77.458005, 38.299716], "type": "Point"}, "id": "8mMkredjym0KhfYVTYdqtLdkuk8=", "properties": {"@source_uri": "https://tools.usps.com/UspsToolsRestServices/rest/POLocator/findLocations", "@spider": "usps_collection_boxes", "addr:city": "FREDERICKSBURG", "addr:country": "US", "addr:postcode": "22401", "addr:state": "VA", "addr:street_address": "601 PRINCESS ANNE ST", "amenity": "post_box", "collection_times": "Mo-Fr 17:00; Sa 16:00", "note": "ON 12/24 AND 12/31, THIS BOX MAY BE COLLECTED AS EARLY AS 12 NOON.", "nsi_id": "unitedstatespostalservice-a77078", "operator": "United States Postal Service", "operator:short": "USPS", "operator:type": "public", "operator:wikidata": "Q668687", "ref": "2240100002"}, "type": "Feature"}
{"geometry": {"coordinates": [-77.4954537, 38.296581], "type": "Point"}, "id": "szOv-KFqnMW2-EMj3u9R7oQOqqQ=", "properties": {"@source_uri": "https://tools.usps.com/UspsToolsRestServices/rest/POLocator/findLocations", "@spider": "usps_collection_boxes", "addr:city": "FREDERICKSBURG", "addr:country": "US", "addr:postcode": "22401", "addr:state": "VA", "addr:street_address": "308 WESTWOOD OFFICE PARK", "amenity": "post_box", "collection_times": "Mo-Fr 15:45; Sa 16:00", "note": "ON 12/24 AND 12/31, THIS BOX MAY BE COLLECTED AS EARLY AS 12 NOON.", "nsi_id": "unitedstatespostalservice-a77078", "operator": "United States Postal Service", "operator:short": "USPS", "operator:type": "public", "operator:wikidata": "Q668687", "ref": "2240100016"}, "type": "Feature"}
{"geometry": {"coordinates": [-77.4820853, 38.305095], "type": "Point"}, "id": "-E4WMEKip1cEp5-eXqwQDfzrsLk=", "properties": {"@source_uri": "https://tools.usps.com/UspsToolsRestServices/rest/POLocator/findLocations", "@spider": "usps_collection_boxes", "addr:city": "FREDERICKSBURG", "addr:country": "US", "addr:postcode": "22401", "addr:state": "VA", "addr:street_address": "1285 JEFF DAVIS HWY", "amenity": "post_box", "collection_times": "Mo-Fr 17:00; Sa 14:00", "note": "ON 12/24 AND 12/31, THIS BOX MAY BE COLLECTED AS EARLY AS 12 NOON.", "nsi_id": "unitedstatespostalservice-a77078", "operator": "United States Postal Service", "operator:short": "USPS", "operator:type": "public", "operator:wikidata": "Q668687", "ref": "2240100017"}, "type": "Feature"}
{"geometry": {"coordinates": [-77.4679411, 38.309418], "type": "Point"}, "id": "TH3vUAkoJGaSxL3tAI66i6YzppY=", "properties": {"@source_uri": "https://tools.usps.com/UspsToolsRestServices/rest/POLocator/findLocations", "@spider": "usps_collection_boxes", "addr:city": "FREDERICKSBURG", "addr:country": "US", "addr:postcode": "22401", "addr:state": "VA", "addr:street_address": "1701 FALL HILL AVE", "amenity": "post_box", "collection_times": "Mo-Sa 12:00", "nsi_id": "unitedstatespostalservice-a77078", "operator": "United States Postal Service", "operator:short": "USPS", "operator:type": "public", "operator:wikidata": "Q668687", "ref": "2240100018"}, "type": "Feature"}
{"geometry": {"coordinates": [-77.4603409, 38.302633], "type": "Point"}, "id": "weOEcmq3D2lgjOc8L4Cj8JGGok4=", "properties": {"@source_uri": "https://tools.usps.com/UspsToolsRestServices/rest/POLocator/findLocations", "@spider": "usps_collection_boxes", "addr:city": "FREDERICKSBURG", "addr:country": "US", "addr:postcode": "22401", "addr:state": "VA", "addr:street_address": "904 PRINCESS ANNE ST", "amenity": "post_box", "collection_times": "Mo-Fr 13:32; Sa 13:30", "note": "ON 12/24 AND 12/31, THIS BOX MAY BE COLLECTED AS EARLY AS 12 NOON.", "nsi_id": "unitedstatespostalservice-a77078", "operator": "United States Postal Service", "operator:short": "USPS", "operator:type": "public", "operator:wikidata": "Q668687", "ref": "2240100056"}, "type": "Feature"}
{"geometry": {"coordinates": [-77.5146563, 38.298924], "type": "Point"}, "id": "Mcj1qxt8tdsqXY9JN_pYflGThGM=", "properties": {"@source_uri": "https://tools.usps.com/UspsToolsRestServices/rest/POLocator/findLocations", "@spider": "usps_collection_boxes", "addr:city": "FREDERICKSBURG", "addr:country": "US", "addr:postcode": "22401", "addr:state": "VA", "addr:street_address": "1201 CENTRAL PARK BLVD", "amenity": "post_box", "collection_times": "Mo-Fr 16:45; Sa 15:00", "note": "ON 12/24 AND 12/31, THIS BOX MAY BE COLLECTED AS EARLY AS 12 NOON.", "nsi_id": "unitedstatespostalservice-a77078", "operator": "United States Postal Service", "operator:short": "USPS", "operator:type": "public", "operator:wikidata": "Q668687", "ref": "2240100059"}, "type": "Feature"}
{"geometry": {"coordinates": [-77.458591481, 38.299925936], "type": "Point"}, "id": "TNghNF20dDCIqulDEc9GtXRhjmg=", "properties": {"@source_uri": "https://tools.usps.com/UspsToolsRestServices/rest/POLocator/findLocations", "@spider": "usps_collection_boxes", "addr:city": "FREDERICKSBURG", "addr:country": "US", "addr:postcode": "22401", "addr:state": "VA", "addr:street_address": "600 PRINCESS ANNE ST", "amenity": "post_box", "collection_times": "Mo-Sa 17:30", "indoor": "yes", "note": "ON 12/24 AND 12/31, THIS BOX MAY BE COLLECTED AS EARLY AS 12 NOON.", "nsi_id": "unitedstatespostalservice-a77078", "operator": "United States Postal Service", "operator:short": "USPS", "operator:type": "public", "operator:wikidata": "Q668687", "ref": "2240100063"}, "type": "Feature"}
{"geometry": {"coordinates": [-77.4788754, 38.310735], "type": "Point"}, "id": "GA2cteodhlKgVzoP1tqMS0JiAvA=", "properties": {"@source_uri": "https://tools.usps.com/UspsToolsRestServices/rest/POLocator/findLocations", "@spider": "usps_collection_boxes", "addr:city": "FREDERICKSBURG", "addr:country": "US", "addr:postcode": "22401", "addr:state": "VA", "addr:street_address": "601 JEFFERSON DAVIS HWY", "amenity": "post_box", "collection_times": "Mo-Fr 15:00; Sa 14:00", "note": "ON 12/24 AND 12/31, THIS BOX MAY BE COLLECTED AS EARLY AS 12 NOON.", "nsi_id": "unitedstatespostalservice-a77078", "operator": "United States Postal Service", "operator:short": "USPS", "operator:type": "public", "operator:wikidata": "Q668687", "ref": "2240100069"}, "type": "Feature"}
{"geometry": {"coordinates": [-77.4861328, 38.312889], "type": "Point"}, "id": "SThjkSuI-B6TMZCkPw2nIMRdrnQ=", "properties": {"@source_uri": "https://tools.usps.com/UspsToolsRestServices/rest/POLocator/findLocations", "@spider": "usps_collection_boxes", "addr:city": "FREDERICKSBURG", "addr:country": "US", "addr:postcode": "22401", "addr:state": "VA", "addr:street_address": "201 PARK HILL DR", "amenity": "post_box", "collection_times": "Mo-Sa 10:00", "nsi_id": "unitedstatespostalservice-a77078", "operator": "United States Postal Service", "operator:short": "USPS", "operator:type": "public", "operator:wikidata": "Q668687", "ref": "2240100070"}, "type": "Feature"}
{"geometry": {"coordinates": [-77.458586981, 38.299934936], "type": "Point"}, "id": "k7eW66k3Zxp37_brEnTxvomwEv4=", "properties": {"@source_uri": "https://tools.usps.com/UspsToolsRestServices/rest/POLocator/findLocations", "@spider": "usps_collection_boxes", "addr:city": "FREDERICKSBURG", "addr:country": "US", "addr:postcode": "22401", "addr:state": "VA", "addr:street_address": "600 PRINCESS ANNE ST", "amenity": "post_box", "collection_times": "Mo-Sa 17:30", "name": "USPS COLLECTION BOX - APC", "note": "ON 12/24 AND 12/31, THIS BOX MAY BE COLLECTED AS EARLY AS 12 NOON.", "nsi_id": "unitedstatespostalservice-a77078", "operator": "United States Postal Service", "operator:short": "USPS", "operator:type": "public", "operator:wikidata": "Q668687", "ref": "2240100073"}, "type": "Feature"}
{"geometry": {"coordinates": [-77.458591481, 38.299925936], "type": "Point"}, "id": "X-JXKVdd9IVzbLDKuy7q7ykBCJs=", "properties": {"@source_uri": "https://tools.usps.com/UspsToolsRestServices/rest/POLocator/findLocations", "@spider": "usps_collection_boxes", "addr:city": "FREDERICKSBURG", "addr:country": "US", "addr:postcode": "22401", "addr:state": "VA", "addr:street_address": "600 PRINCESS ANNE ST", "amenity": "post_box", "collection_times": "Mo-Sa 17:30", "indoor": "yes", "note": "ON 12/24 AND 12/31, THIS BOX MAY BE COLLECTED AS EARLY AS 12 NOON.", "nsi_id": "unitedstatespostalservice-a77078", "operator": "United States Postal Service", "operator:short": "USPS", "operator:type": "public", "operator:wikidata": "Q668687", "ref": "2240100105"}, "type": "Feature"}
{"geometry": {"coordinates": [-77.458591481, 38.299925936], "type": "Point"}, "id": "T5OjokUHuJCb_glMySlPRDBuIqg=", "properties": {"@source_uri": "https://tools.usps.com/UspsToolsRestServices/rest/POLocator/findLocations", "@spider": "usps_collection_boxes", "addr:city": "FREDERICKSBURG", "addr:country": "US", "addr:postcode": "22401", "addr:state": "VA", "addr:street_address": "600 PRINCESS ANNE ST", "amenity": "post_box", "collection_times": "Mo-Fr 17:00; Sa 14:30", "indoor": "yes", "note": "ON 12/24 AND 12/31, THIS BOX MAY BE COLLECTED AS EARLY AS 12 NOON.", "nsi_id": "unitedstatespostalservice-a77078", "operator": "United States Postal Service", "operator:short": "USPS", "operator:type": "public", "operator:wikidata": "Q668687", "ref": "2240100112"}, "type": "Feature"}
{"geometry": {"coordinates": [-77.458591481, 38.299925936], "type": "Point"}, "id": "iVpeTrEyftI9z7tpYxTzbPnzQLU=", "properties": {"@source_uri": "https://tools.usps.com/UspsToolsRestServices/rest/POLocator/findLocations", "@spider": "usps_collection_boxes", "addr:city": "FREDERICKSBURG", "addr:country": "US", "addr:postcode": "22401", "addr:state": "VA", "addr:street_address": "600 PRINCESS ANNE ST", "amenity": "post_box", "collection_times": "Mo-Fr 17:00; Sa 14:30", "indoor": "yes", "note": "ON 12/24 AND 12/31, THIS BOX MAY BE COLLECTED AS EARLY AS 12 NOON.", "nsi_id": "unitedstatespostalservice-a77078", "operator": "United States Postal Service", "operator:short": "USPS", "operator:type": "public", "operator:wikidata": "Q668687", "ref": "2240100114"}, "type": "Feature"}
{"geometry": {"coordinates": [-77.447949, 38.30954], "type": "Point"}, "id": "lpL-7hCsANSrE7luRLAm9nQMqDk=", "properties": {"@source_uri": "https://tools.usps.com/UspsToolsRestServices/rest/POLocator/findLocations", "@spider": "usps_collection_boxes", "addr:city": "FREDERICKSBURG", "addr:country": "US", "addr:postcode": "22405", "addr:state": "VA", "addr:street_address": "300 CHATHAM HEIGHTS RD", "amenity": "post_box", "collection_times": "Mo-Fr 17:00", "note": "ON 12/24 AND 12/31, THIS BOX MAY BE COLLECTED AS EARLY AS 12 NOON.", "nsi_id": "unitedstatespostalservice-a77078", "operator": "United States Postal Service", "operator:short": "USPS", "operator:type": "public", "operator:wikidata": "Q668687", "ref": "2240500004"}, "type": "Feature"}
{"geometry": {"coordinates": [-77.50927188, 38.355182741], "type": "Point"}, "id": "00o8JE0FcbDpVZitf9Anx4q2Dq4=", "properties": {"@source_uri": "https://tools.usps.com/UspsToolsRestServices/rest/POLocator/findLocations", "@spider": "usps_collection_boxes", "addr:city": "FREDERICKSBURG", "addr:country": "US", "addr:postcode": "22406", "addr:state": "VA", "addr:street_address": "16 LICHFIELD BLVD", "amenity": "post_box", "collection_times": "Mo-Sa 16:45", "note": "ON 12/24 AND 12/31, THIS BOX MAY BE COLLECTED AS EARLY AS 12 NOON.", "nsi_id": "unitedstatespostalservice-a77078", "operator": "United States Postal Service", "operator:short": "USPS", "operator:type": "public", "operator:wikidata": "Q668687", "ref": "2240600002"}, "type": "Feature"}
{"geometry": {"coordinates": [-77.50927188, 38.355182741], "type": "Point"}, "id": "o6JcTZRk8_ODuw5lFw9loTrW2wM=", "properties": {"@source_uri": "https://tools.usps.com/UspsToolsRestServices/rest/POLocator/findLocations", "@spider": "usps_collection_boxes", "addr:city": "FREDERICKSBURG", "addr:country": "US", "addr:postcode": "22406", "addr:state": "VA", "addr:street_address": "16 LICHFIELD BLVD", "amenity": "post_box", "collection_times": "Mo-Sa 17:00", "indoor": "yes", "note": "ON 12/24 AND 12/31, THIS BOX MAY BE COLLECTED AS EARLY AS 12 NOON.", "nsi_id": "unitedstatespostalservice-a77078", "operator": "United States Postal Service", "operator:short": "USPS", "operator:type": "public", "operator:wikidata": "Q668687", "ref": "2240600003"}, "type": "Feature"}
{"geometry": {"coordinates": [-77.50927188, 38.355182741], "type": "Point"}, "id": "c0lqMM8UYoHqyY4W7JhABhJ8yVU=", "properties": {"@source_uri": "https://tools.usps.com/UspsToolsRestServices/rest/POLocator/findLocations", "@spider": "usps_collection_boxes", "addr:city": "FREDERICKSBURG", "addr:country": "US", "addr:postcode": "22406", "addr:state": "VA", "addr:street_address": "16 LICHFIELD BLVD", "amenity": "post_box", "collection_times": "Mo-Sa 16:45", "note": "ON 12/24 AND 12/31, THIS BOX MAY BE COLLECTED AS EARLY AS 12 NOON.", "nsi_id": "unitedstatespostalservice-a77078", "operator": "United States Postal Service", "operator:short": "USPS", "operator:type": "public", "operator:wikidata": "Q668687", "ref": "2240600006"}, "type": "Feature"}
{"geometry": {"coordinates": [-77.50927188, 38.355182741], "type": "Point"}, "id": "69kyHVL1_ut_aQmUKeyjlP2sZwQ=", "properties": {"@source_uri": "https://tools.usps.com/UspsToolsRestServices/rest/POLocator/findLocations", "@spider": "usps_collection_boxes", "addr:city": "FREDERICKSBURG", "addr:country": "US", "addr:postcode": "22406", "addr:state": "VA", "addr:street_address": "16 LICHFIELD BLVD", "amenity": "post_box", "collection_times": "Mo-Fr 17:00; Sa 13:00", "indoor": "yes", "note": "ON 12/24 AND 12/31, THIS BOX MAY BE COLLECTED AS EARLY AS 12 NOON.", "nsi_id": "unitedstatespostalservice-a77078", "operator": "United States Postal Service", "operator:short": "USPS", "operator:type": "public", "operator:wikidata": "Q668687", "ref": "2240600010"}, "type": "Feature"}
{"geometry": {"coordinates": [-77.5087440282, 38.3548420194], "type": "Point"}, "id": "6xOEG9KDNABY9bOLp_vnYNwk_B8=", "properties": {"@source_uri": "https://tools.usps.com/UspsToolsRestServices/rest/POLocator/findLocations", "@spider": "usps_collection_boxes", "addr:city": "FREDERICKSBURG", "addr:country": "US", "addr:postcode": "22406", "addr:state": "VA", "addr:street_address": "16 LICHFIELD BLVD", "amenity": "post_box", "collection_times": "Mo-Sa 17:00", "indoor": "yes", "note": "ON 12/24 AND 12/31, THIS BOX MAY BE COLLECTED AS EARLY AS 12 NOON.", "nsi_id": "unitedstatespostalservice-a77078", "operator": "United States Postal Service", "operator:short": "USPS", "operator:type": "public", "operator:wikidata": "Q668687", "ref": "2240600013"}, "type": "Feature"}
{"geometry": {"coordinates": [-77.5087440282, 38.3548420194], "type": "Point"}, "id": "pZRrWtAHrI06QmOGB2ZkCnZPBHM=", "properties": {"@source_uri": "https://tools.usps.com/UspsToolsRestServices/rest/POLocator/findLocations", "@spider": "usps_collection_boxes", "addr:city": "FREDERICKSBURG", "addr:country": "US", "addr:postcode": "22406", "addr:state": "VA", "addr:street_address": "16 LICHFIELD BLVD", "amenity": "post_box", "collection_times": "Mo-Sa 17:00", "indoor": "yes", "note": "ON 12/24 AND 12/31, THIS BOX MAY BE COLLECTED AS EARLY AS 12 NOON.", "nsi_id": "unitedstatespostalservice-a77078", "operator": "United States Postal Service", "operator:short": "USPS", "operator:type": "public", "operator:wikidata": "Q668687", "ref": "2240600014"}, "type": "Feature"}
{"geometry": {"coordinates": [-77.532531, 38.290066], "type": "Point"}, "id": "nt5FHxdweOBSf2m5YOeVXc8bnOE=", "properties": {"@source_uri": "https://tools.usps.com/UspsToolsRestServices/rest/POLocator/findLocations", "@spider": "usps_collection_boxes", "addr:city": "FREDERICKSBURG", "addr:country": "US", "addr:postcode": "22407", "addr:state": "VA", "addr:street_address": "4201 PLANK RD", "amenity": "post_box", "collection_times": "Mo-Fr 16:30; Sa 15:00", "note": "ON 12/24 AND 12/31, THIS BOX MAY BE COLLECTED AS EARLY AS 12 NOON.", "nsi_id": "unitedstatespostalservice-a77078", "operator": "United States Postal Service", "operator:short": "USPS", "operator:type": "public", "operator:wikidata": "Q668687", "ref": "2240700005"}, "type": "Feature"}
{"geometry": {"coordinates": [-77.5023736, 38.232598], "type": "Point"}, "id": "wZ0UqXbfDOUaywwJ2iZaQ2qcXko=", "properties": {"@source_uri": "https://tools.usps.com/UspsToolsRestServices/rest/POLocator/findLocations", "@spider": "usps_collection_boxes", "addr:city": "FREDERICKSBURG", "addr:country": "US", "addr:postcode": "22407", "addr:state": "VA", "addr:street_address": "5422 SOUTHPOINT PLAZA WAY", "amenity": "post_box", "collection_times": "Mo-Sa 13:00", "note": "ON 12/24 AND 12/31, THIS BOX MAY BE COLLECTED AS EARLY AS 12 NOON.", "nsi_id": "unitedstatespostalservice-a77078", "operator": "United States Postal Service", "operator:short": "USPS", "operator:type": "public", "operator:wikidata": "Q668687", "ref": "2240700010"}, "type": "Feature"}
{"geometry": {"coordinates": [-77.516112308, 38.294949902], "type": "Point"}, "id": "zYrlo7Ss0tubWwUaPoluMVufpIg=", "properties": {"@source_uri": "https://tools.usps.com/UspsToolsRestServices/rest/POLocator/findLocations", "@spider": "usps_collection_boxes", "addr:city": "FREDERICKSBURG", "addr:country": "US", "addr:postcode": "22407", "addr:state": "VA", "addr:street_address": "3102 PLANK RD", "amenity": "post_box", "collection_times": "Mo-Fr 17:00", "indoor": "yes", "note": "ON 12/24 AND 12/31, THIS BOX MAY BE COLLECTED AS EARLY AS 12 NOON.", "nsi_id": "unitedstatespostalservice-a77078", "operator": "United States Postal Service", "operator:short": "USPS", "operator:type": "public", "operator:wikidata": "Q668687", "ref": "2240700023"}, "type": "Feature"}
{"geometry": {"coordinates": [-77.4985674, 38.255353], "type": "Point"}, "id": "bzrn3EyhEcvmhsAzPohqALbqnr8=", "properties": {"@source_uri": "https://tools.usps.com/UspsToolsRestServices/rest/POLocator/findLocations", "@spider": "usps_collection_boxes", "addr:city": "FREDERICKSBURG", "addr:country": "US", "addr:postcode": "22408", "addr:state": "VA", "addr:street_address": "5061 JEFF DAVIS HWY", "amenity": "post_box", "collection_times": "Mo-Fr 16:30; Sa 14:30", "note": "ON 12/24 AND 12/31, THIS BOX MAY BE COLLECTED AS EARLY AS 12 NOON.", "nsi_id": "unitedstatespostalservice-a77078", "operator": "United States Postal Service", "operator:short": "USPS", "operator:type": "public", "operator:wikidata": "Q668687", "ref": "2240800005"}, "type": "Feature"}
{"geometry": {"coordinates": [-77.4942121, 38.247781], "type": "Point"}, "id": "S38KAJm-3aCN68_R3LeE_8zBZLU=", "properties": {"@source_uri": "https://tools.usps.com/UspsToolsRestServices/rest/POLocator/findLocations", "@spider": "usps_collection_boxes", "addr:city": "FREDERICKSBURG", "addr:country": "US", "addr:postcode": "22408", "addr:state": "VA", "addr:street_address": "10611 SPOTSYLVANIA AVE", "amenity": "post_box", "collection_times": "Mo-Sa 12:00", "nsi_id": "unitedstatespostalservice-a77078", "operator": "United States Postal Service", "operator:short": "USPS", "operator:type": "public", "operator:wikidata": "Q668687", "ref": "2240800011"}, "type": "Feature"}
{"geometry": {"coordinates": [-77.4957119, 38.253369], "type": "Point"}, "id": "9ltgR96E-JXlGAKpoQev9qONLtU=", "properties": {"@source_uri": "https://tools.usps.com/UspsToolsRestServices/rest/POLocator/findLocations", "@spider": "usps_collection_boxes", "addr:city": "FREDERICKSBURG", "addr:country": "US", "addr:postcode": "22408", "addr:state": "VA", "addr:street_address": "4609 CARR DR", "amenity": "post_box", "collection_times": "Mo-Sa 12:00", "nsi_id": "unitedstatespostalservice-a77078", "operator": "United States Postal Service", "operator:short": "USPS", "operator:type": "public", "operator:wikidata": "Q668687", "ref": "2240800014"}, "type": "Feature"}
{"geometry": {"coordinates": [-77.4485474, 38.275655], "type": "Point"}, "id": "sp58tGG1Mi61ThWpi_eVGZ-zyoY=", "properties": {"@source_uri": "https://tools.usps.com/UspsToolsRestServices/rest/POLocator/findLocations", "@spider": "usps_collection_boxes", "addr:city": "FREDERICKSBURG", "addr:country": "US", "addr:postcode": "22408", "addr:state": "VA", "addr:street_address": "55 JOSEPH MILLS DR", "amenity": "post_box", "collection_times": "Mo-Fr 10:00", "nsi_id": "unitedstatespostalservice-a77078", "operator": "United States Postal Service", "operator:short": "USPS", "operator:type": "public", "operator:wikidata": "Q668687", "ref": "2240800015"}, "type": "Feature"}
{"geometry": {"coordinates": [-77.348452687, 38.049198777], "type": "Point"}, "id": "Om9iSWzVwU16OBciWBLpzVRu1K0=", "properties": {"@source_uri": "https://tools.usps.com/UspsToolsRestServices/rest/POLocator/findLocations", "@spider": "usps_collection_boxes", "addr:city": "BOWLING GREEN", "addr:country": "US", "addr:postcode": "22427", "addr:state": "VA", "addr:street_address": "117 MILFORD ST", "amenity": "post_box", "collection_times": "Mo-Fr 16:45; Sa 11:15", "note": "ON 12/24 AND 12/31, THIS BOX MAY BE COLLECTED AS EARLY AS 12 NOON.", "nsi_id": "unitedstatespostalservice-a77078", "operator": "United States Postal Service", "operator:short": "USPS", "operator:type": "public", "operator:wikidata": "Q668687", "ref": "2242700002"}, "type": "Feature"}
{"geometry": {"coordinates": [-76.345660172, 37.882882071], "type": "Point"}, "id": "IZ_DhsSa5Fmp6b23mor522bLAfE=", "properties": {"@source_uri": "https://tools.usps.com/UspsToolsRestServices/rest/POLocator/findLocations", "@spider": "usps_collection_boxes", "addr:city": "BURGESS", "addr:country": "US", "addr:postcode": "22432", "addr:state": "VA", "addr:street_address": "15096 NORTHUMBERLAND HWY", "amenity": "post_box", "collection_times": "Mo-Fr 16:15; Sa 12:00", "note": "ON 12/24 AND 12/31, THIS BOX MAY BE COLLECTED AS EARLY AS 12 NOON.", "nsi_id": "unitedstatespostalservice-a77078", "operator": "United States Postal Service", "operator:short": "USPS", "operator:type": "public", "operator:wikidata": "Q668687", "ref": "2243200001"}, "type": "Feature"}
{"geometry": {"coordinates": [-76.345660172, 37.882882071], "type": "Point"}, "id": "ySNlvxXtk3R8UFbW_TGhLP4rj7M=", "properties": {"@source_uri": "https://tools.usps.com/UspsToolsRestServices/rest/POLocator/findLocations", "@spider": "usps_collection_boxes", "addr:city": "BURGESS", "addr:country": "US", "addr:postcode": "22432", "addr:state": "VA", "addr:street_address": "15096 NORTHUMBERLAND HWY", "amenity": "post_box", "collection_times": "Mo-Fr 16:30; Sa 12:00", "indoor": "yes", "note": "ON 12/24 AND 12/31, THIS BOX MAY BE COLLECTED AS EARLY AS 12 NOON.", "nsi_id": "unitedstatespostalservice-a77078", "operator": "United States Postal Service", "operator:short": "USPS", "operator:type": "public", "operator:wikidata": "Q668687", "ref": "2243200002"}, "type": "Feature"}
{"geometry": {"coordinates": [-76.345660172, 37.882882071], "type": "Point"}, "id": "KaH0hBtSR0yRAKt0trlKY81mzb4=", "properties": {"@source_uri": "https://tools.usps.com/UspsToolsRestServices/rest/POLocator/findLocations", "@spider": "usps_collection_boxes", "addr:city": "BURGESS", "addr:country": "US", "addr:postcode": "22432", "addr:state": "VA", "addr:street_address": "15096 NORTHUMBERLAND HWY", "amenity": "post_box", "collection_times": "Mo-Fr 16:30; Sa 12:00", "indoor": "yes", "note": "ON 12/24 AND 12/31, THIS BOX MAY BE COLLECTED AS EARLY AS 12 NOON.", "nsi_id": "unitedstatespostalservice-a77078", "operator": "United States Postal Service", "operator:short": "USPS", "operator:type": "public", "operator:wikidata": "Q668687", "ref": "2243200004"}, "type": "Feature"}
{"geometry": {"coordinates": [-76.558661424, 37.968663853], "type": "Point"}, "id": "Co7SKnRxCts7-k3zloxGxm1XkKc=", "properties": {"@source_uri": "https://tools.usps.com/UspsToolsRestServices/rest/POLocator/findLocations", "@spider": "usps_collection_boxes", "addr:city": "CALLAO", "addr:country": "US", "addr:postcode": "22435", "addr:state": "VA", "addr:street_address": "72 NORTHUMBERLAND HWY", "amenity": "post_box", "collection_times": "Mo-Fr 16:20; Sa 11:30", "note": "ON 12/24 AND 12/31, THIS BOX MAY BE COLLECTED AS EARLY AS 12 NOON.", "nsi_id": "unitedstatespostalservice-a77078", "operator": "United States Postal Service", "operator:short": "USPS", "operator:type": "public", "operator:wikidata": "Q668687", "ref": "2243500001"}, "type": "Feature"}
{"geometry": {"coordinates": [-76.558661424, 37.968663853], "type": "Point"}, "id": "2LCFf39IVPoXqfsq_e6iovfb4tQ=", "properties": {"@source_uri": "https://tools.usps.com/UspsToolsRestServices/rest/POLocator/findLocations", "@spider": "usps_collection_boxes", "addr:city": "CALLAO", "addr:country": "US", "addr:postcode": "22435", "addr:state": "VA", "addr:street_address": "72 NORTHUMBERLAND HWY", "amenity": "post_box", "collection_times": "Mo-Fr 16:20; Sa 11:30", "indoor": "yes", "note": "ON 12/24 AND 12/31, THIS BOX MAY BE COLLECTED AS EARLY AS 12 NOON.", "nsi_id": "unitedstatespostalservice-a77078", "operator": "United States Postal Service", "operator:short": "USPS", "operator:type": "public", "operator:wikidata": "Q668687", "ref": "2243500002"}, "type": "Feature"}
{"geometry": {"coordinates": [-76.558661424, 37.968663853], "type": "Point"}, "id": "d3z-VZ7iSZoGXYnav9U4LKSVP_w=", "properties": {"@source_uri": "https://tools.usps.com/UspsToolsRestServices/rest/POLocator/findLocations", "@spider": "usps_collection_boxes", "addr:city": "CALLAO", "addr:country": "US", "addr:postcode": "22435", "addr:state": "VA", "addr:street_address": "72 NORTHUMBERLAND HWY", "amenity": "post_box", "collection_times": "Mo-Fr 16:30; Sa 11:30", "indoor": "yes", "note": "ON 12/24 AND 12/31, THIS BOX MAY BE COLLECTED AS EARLY AS 12 NOON.", "nsi_id": "unitedstatespostalservice-a77078", "operator": "United States Postal Service", "operator:short": "USPS", "operator:type": "public", "operator:wikidata": "Q668687", "ref": "2243500004"}, "type": "Feature"}
{"geometry": {"coordinates": [-76.96243, 37.982804], "type": "Point"}, "id": "dN0BBb0xf7RetUjEpruaCC97B8c=", "properties": {"@source_uri": "https://tools.usps.com/UspsToolsRestServices/rest/POLocator/findLocations", "@spider": "usps_collection_boxes", "addr:city": "CARET", "addr:country": "US", "addr:postcode": "22436", "addr:state": "VA", "addr:street_address": "13854 TIDEWATER TRL", "amenity": "post_box", "collection_times": "Mo-Fr 13:30; Sa 11:45", "note": "ON 12/24 AND 12/31, THIS BOX MAY BE COLLECTED AS EARLY AS 12 NOON.", "nsi_id": "unitedstatespostalservice-a77078", "operator": "United States Postal Service", "operator:short": "USPS", "operator:type": "public", "operator:wikidata": "Q668687", "ref": "2243600001"}, "type": "Feature"}
{"geometry": {"coordinates": [-76.96243, 37.982804], "type": "Point"}, "id": "Jogk-t119nBoOZSwBzkX7dJs9c8=", "properties": {"@source_uri": "https://tools.usps.com/UspsToolsRestServices/rest/POLocator/findLocations", "@spider": "usps_collection_boxes", "addr:city": "CARET", "addr:country": "US", "addr:postcode": "22436", "addr:state": "VA", "addr:street_address": "13854 TIDEWATER TRL", "amenity": "post_box", "collection_times": "Mo-Fr 13:30; Sa 11:45", "indoor": "yes", "note": "ON 12/24 AND 12/31, THIS BOX MAY BE COLLECTED AS EARLY AS 12 NOON.", "nsi_id": "unitedstatespostalservice-a77078", "operator": "United States Postal Service", "operator:short": "USPS", "operator:type": "public", "operator:wikidata": "Q668687", "ref": "2243600002"}, "type": "Feature"}
{"geometry": {"coordinates": [-76.778469828, 37.804652276], "type": "Point"}, "id": "wxO2ckuypcnM-X2CtKw3EcbbdzY=", "properties": {"@source_uri": "https://tools.usps.com/UspsToolsRestServices/rest/POLocator/findLocations", "@spider": "usps_collection_boxes", "addr:city": "CENTER CROSS", "addr:country": "US", "addr:postcode": "22437", "addr:state": "VA", "addr:street_address": "31837 TIDEWATER TRL", "amenity": "post_box", "collection_times": "Mo-Sa 10:30", "nsi_id": "unitedstatespostalservice-a77078", "operator": "United States Postal Service", "operator:short": "USPS", "operator:type": "public", "operator:wikidata": "Q668687", "ref": "2243700001"}, "type": "Feature"}
{"geometry": {"coordinates": [-76.778554, 37.804676], "type": "Point"}, "id": "xsaa6MlUzfFwEQ2UinKu2-kUMrs=", "properties": {"@source_uri": "https://tools.usps.com/UspsToolsRestServices/rest/POLocator/findLocations", "@spider": "usps_collection_boxes", "addr:city": "CENTER CROSS", "addr:country": "US", "addr:postcode": "22437", "addr:state": "VA", "addr:street_address": "31837 TIDEWATER TRL", "amenity": "post_box", "collection_times": "Mo-Sa 10:30", "indoor": "yes", "nsi_id": "unitedstatespostalservice-a77078", "operator": "United States Postal Service", "operator:short": "USPS", "operator:type": "public", "operator:wikidata": "Q668687", "ref": "2243700002"}, "type": "Feature"}
{"geometry": {"coordinates": [-76.991348581, 38.012285013], "type": "Point"}, "id": "ndXgWAfJ-lu5t2ekmVQaQVAO_XA=", "properties": {"@source_uri": "https://tools.usps.com/UspsToolsRestServices/rest/POLocator/findLocations", "@spider": "usps_collection_boxes", "addr:city": "CHAMPLAIN", "addr:country": "US", "addr:postcode": "22438", "addr:state": "VA", "addr:street_address": "11246 TIDEWATER TRL", "amenity": "post_box", "collection_times": "Mo-Sa 13:00", "note": "ON 12/24 AND 12/31, THIS BOX MAY BE COLLECTED AS EARLY AS 12 NOON.", "nsi_id": "unitedstatespostalservice-a77078", "operator": "United States Postal Service", "operator:short": "USPS", "operator:type": "public", "operator:wikidata": "Q668687", "ref": "2243800001"}, "type": "Feature"}
{"geometry": {"coordinates": [-76.991348581, 38.012285013], "type": "Point"}, "id": "GlCOfWAkYV5pQOFN6P9eWw_O86c=", "properties": {"@source_uri": "https://tools.usps.com/UspsToolsRestServices/rest/POLocator/findLocations", "@spider": "usps_collection_boxes", "addr:city": "CHAMPLAIN", "addr:country": "US", "addr:postcode": "22438", "addr:state": "VA", "addr:street_address": "11246 TIDEWATER TRL", "amenity": "post_box", "collection_times": "Mo-Sa 13:00", "indoor": "yes", "note": "ON 12/24 AND 12/31, THIS BOX MAY BE COLLECTED AS EARLY AS 12 NOON.", "nsi_id": "unitedstatespostalservice-a77078", "operator": "United States Postal Service", "operator:short": "USPS", "operator:type": "public", "operator:wikidata": "Q668687", "ref": "2243800002"}, "type": "Feature"}
{"geometry": {"coordinates": [-76.991348581, 38.012285013], "type": "Point"}, "id": "nZmdjYtN7sty4qdeNwgWtbGcO_E=", "properties": {"@source_uri": "https://tools.usps.com/UspsToolsRestServices/rest/POLocator/findLocations", "@spider": "usps_collection_boxes", "addr:city": "CHAMPLAIN", "addr:country": "US", "addr:postcode": "22438", "addr:state": "VA", "addr:street_address": "11246 TIDEWATER TRL", "amenity": "post_box", "collection_times": "Mo-Fr 13:00; Sa 12:00", "indoor": "yes", "note": "ON 12/24 AND 12/31, THIS BOX MAY BE COLLECTED AS EARLY AS 12 NOON.", "nsi_id": "unitedstatespostalservice-a77078", "operator": "United States Postal Service", "operator:short": "USPS", "operator:type": "public", "operator:wikidata": "Q668687", "ref": "2243800004"}, "type": "Feature"}
{"geometry": {"coordinates": [-76.6374341, 38.1431763], "type": "Point"}, "id": "Utvtaa8rQa0XV6KQA9B2KyaFsug=", "properties": {"@source_uri": "https://tools.usps.com/UspsToolsRestServices/rest/POLocator/findLocations", "@spider": "usps_collection_boxes", "addr:city": "COLES POINT", "addr:country": "US", "addr:postcode": "22442", "addr:state": "VA", "addr:street_address": "256 LONG POINT RD", "amenity": "post_box", "collection_times": "Mo-Sa 11:45", "indoor": "yes", "nsi_id": "unitedstatespostalservice-a77078", "operator": "United States Postal Service", "operator:short": "USPS", "operator:type": "public", "operator:wikidata": "Q668687", "ref": "2244200004"}, "type": "Feature"}
{"geometry": {"coordinates": [-76.6374341, 38.1431763], "type": "Point"}, "id": "krffYJFadeGrG0Gt_OhDMWWPEJg=", "properties": {"@source_uri": "https://tools.usps.com/UspsToolsRestServices/rest/POLocator/findLocations", "@spider": "usps_collection_boxes", "addr:city": "COLES POINT", "addr:country": "US", "addr:postcode": "22442", "addr:state": "VA", "addr:street_address": "256 LONG POINT RD", "amenity": "post_box", "collection_times": "Mo-Sa 11:45", "nsi_id": "unitedstatespostalservice-a77078", "operator": "United States Postal Service", "operator:short": "USPS", "operator:type": "public", "operator:wikidata": "Q668687", "ref": "2244200005"}, "type": "Feature"}
{"geometry": {"coordinates": [-76.6374341, 38.1431763], "type": "Point"}, "id": "8GeDqh9i9m7-1CDsVQSW9inklgA=", "properties": {"@source_uri": "https://tools.usps.com/UspsToolsRestServices/rest/POLocator/findLocations", "@spider": "usps_collection_boxes", "addr:city": "COLES POINT", "addr:country": "US", "addr:postcode": "22442", "addr:state": "VA", "addr:street_address": "256 LONG POINT RD", "amenity": "post_box", "collection_times": "Mo-Sa 12:00", "indoor": "yes", "nsi_id": "unitedstatespostalservice-a77078", "operator": "United States Postal Service", "operator:short": "USPS", "operator:type": "public", "operator:wikidata": "Q668687", "ref": "2244200007"}, "type": "Feature"}
{"geometry": {"coordinates": [-76.970331475, 38.257981517], "type": "Point"}, "id": "nIylyK1QUaallWYUO3sNLeNQK44=", "properties": {"@source_uri": "https://tools.usps.com/UspsToolsRestServices/rest/POLocator/findLocations", "@spider": "usps_collection_boxes", "addr:city": "COLONIAL BEACH", "addr:country": "US", "addr:postcode": "22443", "addr:state": "VA", "addr:street_address": "1000 DWIGHT AVE", "amenity": "post_box", "collection_times": "Mo-Fr 17:00; Sa 12:00", "note": "ON 12/24 AND 12/31, THIS BOX MAY BE COLLECTED AS EARLY AS 12 NOON.", "nsi_id": "unitedstatespostalservice-a77078", "operator": "United States Postal Service", "operator:short": "USPS", "operator:type": "public", "operator:wikidata": "Q668687", "ref": "2244300001"}, "type": "Feature"}
{"geometry": {"coordinates": [-76.970331475, 38.257981517], "type": "Point"}, "id": "DRQpptAIzj-F1vbaKq7fYX7j-Eo=", "properties": {"@source_uri": "https://tools.usps.com/UspsToolsRestServices/rest/POLocator/findLocations", "@spider": "usps_collection_boxes", "addr:city": "COLONIAL BEACH", "addr:country": "US", "addr:postcode": "22443", "addr:state": "VA", "addr:street_address": "1000 DWIGHT AVE", "amenity": "post_box", "collection_times": "Mo-Fr 17:00; Sa 12:00", "indoor": "yes", "note": "ON 12/24 AND 12/31, THIS BOX MAY BE COLLECTED AS EARLY AS 12 NOON.", "nsi_id": "unitedstatespostalservice-a77078", "operator": "United States Postal Service", "operator:short": "USPS", "operator:type": "public", "operator:wikidata": "Q668687", "ref": "2244300006"}, "type": "Feature"}
{"geometry": {"coordinates": [-76.970331475, 38.257981517], "type": "Point"}, "id": "yJDNffZgnMXcEQnSlMDkJf3Kl5w=", "properties": {"@source_uri": "https://tools.usps.com/UspsToolsRestServices/rest/POLocator/findLocations", "@spider": "usps_collection_boxes", "addr:city": "COLONIAL BEACH", "addr:country": "US", "addr:postcode": "22443", "addr:state": "VA", "addr:street_address": "1000 DWIGHT AVE", "amenity": "post_box", "collection_times": "Mo-Fr 17:00; Sa 12:00", "indoor": "yes", "note": "ON 12/24 AND 12/31, THIS BOX MAY BE COLLECTED AS EARLY AS 12 NOON.", "nsi_id": "unitedstatespostalservice-a77078", "operator": "United States Postal Service", "operator:short": "USPS", "operator:type": "public", "operator:wikidata": "Q668687", "ref": "2244300007"}, "type": "Feature"}
{"geometry": {"coordinates": [-76.970331475, 38.257981517], "type": "Point"}, "id": "eaGIpq9OxwS2bujGOUDTQX37LAs=", "properties": {"@source_uri": "https://tools.usps.com/UspsToolsRestServices/rest/POLocator/findLocations", "@spider": "usps_collection_boxes", "addr:city": "COLONIAL BEACH", "addr:country": "US", "addr:postcode": "22443", "addr:state": "VA", "addr:street_address": "1000 DWIGHT AVE", "amenity": "post_box", "collection_times": "Mo-Fr 16:30; Sa 12:00", "indoor": "yes", "note": "ON 12/24 AND 12/31, THIS BOX MAY BE COLLECTED AS EARLY AS 12 NOON.", "nsi_id": "unitedstatespostalservice-a77078", "operator": "United States Postal Service", "operator:short": "USPS", "operator:type": "public", "operator:wikidata": "Q668687", "ref": "2244300011"}, "type": "Feature"}
{"geometry": {"coordinates": [-77.389024758, 38.200347073], "type": "Point"}, "id": "Q6rMnKGPuiA0HxeOu4F1IQDyA88=", "properties": {"@source_uri": "https://tools.usps.com/UspsToolsRestServices/rest/POLocator/findLocations", "@spider": "usps_collection_boxes", "addr:city": "CORBIN", "addr:country": "US", "addr:postcode": "22446", "addr:state": "VA", "addr:street_address": "4519 FREDERICKSBURG TPKE", "amenity": "post_box", "collection_times": "Mo-Fr 16:45; Sa 11:45", "note": "ON 12/24 AND 12/31, THIS BOX MAY BE COLLECTED AS EARLY AS 12 NOON.", "nsi_id": "unitedstatespostalservice-a77078", "operator": "United States Postal Service", "operator:short": "USPS", "operator:type": "public", "operator:wikidata": "Q668687", "ref": "2244600001"}, "type": "Feature"}
{"geometry": {"coordinates": [-77.389024758, 38.200347073], "type": "Point"}, "id": "mQ_SvBqHHwAH0rZBomGTFUglqt0=", "properties": {"@source_uri": "https://tools.usps.com/UspsToolsRestServices/rest/POLocator/findLocations", "@spider": "usps_collection_boxes", "addr:city": "CORBIN", "addr:country": "US", "addr:postcode": "22446", "addr:state": "VA", "addr:street_address": "4519 FREDERICKSBURG TPKE", "amenity": "post_box", "collection_times": "Mo-Fr 16:45; Sa 11:45", "indoor": "yes", "note": "ON 12/24 AND 12/31, THIS BOX MAY BE COLLECTED AS EARLY AS 12 NOON.", "nsi_id": "unitedstatespostalservice-a77078", "operator": "United States Postal Service", "operator:short": "USPS", "operator:type": "public", "operator:wikidata": "Q668687", "ref": "2244600002"}, "type": "Feature"}
{"geometry": {"coordinates": [-77.389024758, 38.200347073], "type": "Point"}, "id": "VFdcmZGCZ3qFEcHIUs_GqoddKUQ=", "properties": {"@source_uri": "https://tools.usps.com/UspsToolsRestServices/rest/POLocator/findLocations", "@spider": "usps_collection_boxes", "addr:city": "CORBIN", "addr:country": "US", "addr:postcode": "22446", "addr:state": "VA", "addr:street_address": "4519 FREDERICKSBURG TPKE", "amenity": "post_box", "collection_times": "Mo-Fr 16:45; Sa 12:00", "indoor": "yes", "note": "ON 12/24 AND 12/31, THIS BOX MAY BE COLLECTED AS EARLY AS 12 NOON.", "nsi_id": "unitedstatespostalservice-a77078", "operator": "United States Postal Service", "operator:short": "USPS", "operator:type": "public", "operator:wikidata": "Q668687", "ref": "2244600004"}, "type": "Feature"}
{"geometry": {"coordinates": [-77.046877811, 38.331205093], "type": "Point"}, "id": "7neKkacHlrrIDmd-6-ciSyMK2XA=", "properties": {"@source_uri": "https://tools.usps.com/UspsToolsRestServices/rest/POLocator/findLocations", "@spider": "usps_collection_boxes", "addr:city": "DAHLGREN", "addr:country": "US", "addr:postcode": "22448", "addr:state": "VA", "addr:street_address": "17285 DAHLGREN RD", "amenity": "post_box", "collection_times": "Mo-Fr 16:00; Sa 10:00", "note": "ON 12/24 AND 12/31, THIS BOX MAY BE COLLECTED AS EARLY AS 12 NOON.", "nsi_id": "unitedstatespostalservice-a77078", "operator": "United States Postal Service", "operator:short": "USPS", "operator:type": "public", "operator:wikidata": "Q668687", "ref": "2244800001"}, "type": "Feature"}
{"geometry": {"coordinates": [-77.046877811, 38.331205093], "type": "Point"}, "id": "fcdVD3NbZ-6UGSPWyVqouOjUzf4=", "properties": {"@source_uri": "https://tools.usps.com/UspsToolsRestServices/rest/POLocator/findLocations", "@spider": "usps_collection_boxes", "addr:city": "DAHLGREN", "addr:country": "US", "addr:postcode": "22448", "addr:state": "VA", "addr:street_address": "17285 DAHLGREN RD", "amenity": "post_box", "collection_times": "Mo-Fr 16:00; Sa 10:00", "indoor": "yes", "note": "ON 12/24 AND 12/31, THIS BOX MAY BE COLLECTED AS EARLY AS 12 NOON.", "nsi_id": "unitedstatespostalservice-a77078", "operator": "United States Postal Service", "operator:short": "USPS", "operator:type": "public", "operator:wikidata": "Q668687", "ref": "2244800004"}, "type": "Feature"}
{"geometry": {"coordinates": [-77.046877811, 38.331205093], "type": "Point"}, "id": "p13gxwbAwEN0VDGAeQUpquLAd7Q=", "properties": {"@source_uri": "https://tools.usps.com/UspsToolsRestServices/rest/POLocator/findLocations", "@spider": "usps_collection_boxes", "addr:city": "DAHLGREN", "addr:country": "US", "addr:postcode": "22448", "addr:state": "VA", "addr:street_address": "17285 DAHLGREN RD", "amenity": "post_box", "collection_times": "Mo-Fr 16:00", "indoor": "yes", "note": "ON 12/24 AND 12/31, THIS BOX MAY BE COLLECTED AS EARLY AS 12 NOON.", "nsi_id": "unitedstatespostalservice-a77078", "operator": "United States Postal Service", "operator:short": "USPS", "operator:type": "public", "operator:wikidata": "Q668687", "ref": "2244800006"}, "type": "Feature"}
{"geometry": {"coordinates": [-77.216877805, 38.23153423], "type": "Point"}, "id": "VoEVJfemlphSoXWluG5MF8zOdU8=", "properties": {"@source_uri": "https://tools.usps.com/UspsToolsRestServices/rest/POLocator/findLocations", "@spider": "usps_collection_boxes", "addr:city": "DOGUE", "addr:country": "US", "addr:postcode": "22451", "addr:state": "VA", "addr:street_address": "13218 CLEVE DR", "amenity": "post_box", "collection_times": "Mo-Fr 15:00; Sa 11:45", "note": "ON 12/24 AND 12/31, THIS BOX MAY BE COLLECTED AS EARLY AS 12 NOON.", "nsi_id": "unitedstatespostalservice-a77078", "operator": "United States Postal Service", "operator:short": "USPS", "operator:type": "public", "operator:wikidata": "Q668687", "ref": "2245100001"}, "type": "Feature"}
{"geometry": {"coordinates": [-77.216877805, 38.23153423], "type": "Point"}, "id": "yPL5TwwGjfXL8AtBgS_7J-EDwEE=", "properties": {"@source_uri": "https://tools.usps.com/UspsToolsRestServices/rest/POLocator/findLocations", "@spider": "usps_collection_boxes", "addr:city": "DOGUE", "addr:country": "US", "addr:postcode": "22451", "addr:state": "VA", "addr:street_address": "13218 CLEVE DR", "amenity": "post_box", "collection_times": "Mo-Fr 15:00; Sa 11:45", "indoor": "yes", "note": "ON 12/24 AND 12/31, THIS BOX MAY BE COLLECTED AS EARLY AS 12 NOON.", "nsi_id": "unitedstatespostalservice-a77078", "operator": "United States Postal Service", "operator:short": "USPS", "operator:type": "public", "operator:wikidata": "Q668687", "ref": "2245100002"}, "type": "Feature"}
{"geometry": {"coordinates": [-77.216877805, 38.23153423], "type": "Point"}, "id": "RwAX5FjJsXRLPH5QmU1d9aEBAvY=", "properties": {"@source_uri": "https://tools.usps.com/UspsToolsRestServices/rest/POLocator/findLocations", "@spider": "usps_collection_boxes", "addr:city": "DOGUE", "addr:country": "US", "addr:postcode": "22451", "addr:state": "VA", "addr:street_address": "13218 CLEVE DR", "amenity": "post_box", "collection_times": "Mo-Fr 15:00; Sa 12:00", "indoor": "yes", "note": "ON 12/24 AND 12/31, THIS BOX MAY BE COLLECTED AS EARLY AS 12 NOON.", "nsi_id": "unitedstatespostalservice-a77078", "operator": "United States Postal Service", "operator:short": "USPS", "operator:type": "public", "operator:wikidata": "Q668687", "ref": "2245100004"}, "type": "Feature"}
{"geometry": {"coordinates": [-76.821489, 37.858116], "type": "Point"}, "id": "D6VVI5jtzfCYJmKiAU5889lPYR0=", "properties": {"@source_uri": "https://tools.usps.com/UspsToolsRestServices/rest/POLocator/findLocations", "@spider": "usps_collection_boxes", "addr:city": "DUNNSVILLE", "addr:country": "US", "addr:postcode": "22454", "addr:state": "VA", "addr:street_address": "27081 TIDEWATER TRL", "amenity": "post_box", "collection_times": "Mo-Fr 13:00; Sa 12:00", "note": "ON 12/24 AND 12/31, THIS BOX MAY BE COLLECTED AS EARLY AS 12 NOON.", "nsi_id": "unitedstatespostalservice-a77078", "operator": "United States Postal Service", "operator:short": "USPS", "operator:type": "public", "operator:wikidata": "Q668687", "ref": "2245400001"}, "type": "Feature"}
{"geometry": {"coordinates": [-76.821489, 37.858116], "type": "Point"}, "id": "NDTy69bRxwzJW_H6HYcmgmr_ptk=", "properties": {"@source_uri": "https://tools.usps.com/UspsToolsRestServices/rest/POLocator/findLocations", "@spider": "usps_collection_boxes", "addr:city": "DUNNSVILLE", "addr:country": "US", "addr:postcode": "22454", "addr:state": "VA", "addr:street_address": "27081 TIDEWATER TRL", "amenity": "post_box", "collection_times": "Mo-Fr 13:00; Sa 12:00", "indoor": "yes", "note": "ON 12/24 AND 12/31, THIS BOX MAY BE COLLECTED AS EARLY AS 12 NOON.", "nsi_id": "unitedstatespostalservice-a77078", "operator": "United States Postal Service", "operator:short": "USPS", "operator:type": "public", "operator:wikidata": "Q668687", "ref": "2245400002"}, "type": "Feature"}
{"geometry": {"coordinates": [-76.6247797614, 37.8856722263], "type": "Point"}, "id": "n27YhBJkPMBVmm1VPZlErV0F2KU=", "properties": {"@source_uri": "https://tools.usps.com/UspsToolsRestServices/rest/POLocator/findLocations", "@spider": "usps_collection_boxes", "addr:city": "FARNHAM", "addr:country": "US", "addr:postcode": "22460", "addr:state": "VA", "addr:street_address": "193 CEDAR GROVE RD", "amenity": "post_box", "collection_times": "Mo-Fr 16:15; Sa 11:45", "note": "ON 12/24 AND 12/31, THIS BOX MAY BE COLLECTED AS EARLY AS 12 NOON.", "nsi_id": "unitedstatespostalservice-a77078", "operator": "United States Postal Service", "operator:short": "USPS", "operator:type": "public", "operator:wikidata": "Q668687", "ref": "2246000001"}, "type": "Feature"}
{"geometry": {"coordinates": [-76.624775, 37.885632], "type": "Point"}, "id": "1oZ915qP6GJaiUG6iuRt1BIuEMs=", "properties": {"@source_uri": "https://tools.usps.com/UspsToolsRestServices/rest/POLocator/findLocations", "@spider": "usps_collection_boxes", "addr:city": "FARNHAM", "addr:country": "US", "addr:postcode": "22460", "addr:state": "VA", "addr:street_address": "193 CEDAR GROVE RD", "amenity": "post_box", "collection_times": "Mo-Fr 16:15; Sa 11:45", "indoor": "yes", "note": "ON 12/24 AND 12/31, THIS BOX MAY BE COLLECTED AS EARLY AS 12 NOON.", "nsi_id": "unitedstatespostalservice-a77078", "operator": "United States Postal Service", "operator:short": "USPS", "operator:type": "public", "operator:wikidata": "Q668687", "ref": "2246000002"}, "type": "Feature"}
{"geometry": {"coordinates": [-77.435273142, 38.474139413], "type": "Point"}, "id": "DmlOaGsp4oekqhBiZj2OYKYf0WU=", "properties": {"@source_uri": "https://tools.usps.com/UspsToolsRestServices/rest/POLocator/findLocations", "@spider": "usps_collection_boxes", "addr:city": "GARRISONVILLE", "addr:country": "US", "addr:postcode": "22463", "addr:state": "VA", "addr:street_address": "524 GARRISONVILLE RD", "amenity": "post_box", "collection_times": "Mo-Fr 16:15; Sa 12:00", "note": "ON 12/24 AND 12/31, THIS BOX MAY BE COLLECTED AS EARLY AS 12 NOON.", "nsi_id": "unitedstatespostalservice-a77078", "operator": "United States Postal Service", "operator:short": "USPS", "operator:type": "public", "operator:wikidata": "Q668687", "ref": "2246300001"}, "type": "Feature"}
{"geometry": {"coordinates": [-77.435273142, 38.474139413], "type": "Point"}, "id": "GYmllmTI-EhJDHbrLclp0pqK5z4=", "properties": {"@source_uri": "https://tools.usps.com/UspsToolsRestServices/rest/POLocator/findLocations", "@spider": "usps_collection_boxes", "addr:city": "GARRISONVILLE", "addr:country": "US", "addr:postcode": "22463", "addr:state": "VA", "addr:street_address": "524 GARRISONVILLE RD", "amenity": "post_box", "collection_times": "Mo-Fr 16:15; Sa 12:00", "indoor": "yes", "note": "ON 12/24 AND 12/31, THIS BOX MAY BE COLLECTED AS EARLY AS 12 NOON.", "nsi_id": "unitedstatespostalservice-a77078", "operator": "United States Postal Service", "operator:short": "USPS", "operator:type": "public", "operator:wikidata": "Q668687", "ref": "2246300002"}, "type": "Feature"}
{"geometry": {"coordinates": [-77.435273142, 38.474139413], "type": "Point"}, "id": "RFGdEUpfrYCPltVUo_h6Qsq_HWk=", "properties": {"@source_uri": "https://tools.usps.com/UspsToolsRestServices/rest/POLocator/findLocations", "@spider": "usps_collection_boxes", "addr:city": "GARRISONVILLE", "addr:country": "US", "addr:postcode": "22463", "addr:state": "VA", "addr:street_address": "524 GARRISONVILLE RD", "amenity": "post_box", "collection_times": "Mo-Fr 16:45; Sa 12:30", "indoor": "yes", "note": "ON 12/24 AND 12/31, THIS BOX MAY BE COLLECTED AS EARLY AS 12 NOON.", "nsi_id": "unitedstatespostalservice-a77078", "operator": "United States Postal Service", "operator:short": "USPS", "operator:type": "public", "operator:wikidata": "Q668687", "ref": "2246300004"}, "type": "Feature"}
{"geometry": {"coordinates": [-76.652385906, 38.072689783], "type": "Point"}, "id": "34YaFWgFhSTfsPZlUxdhpjYsxcE=", "properties": {"@source_uri": "https://tools.usps.com/UspsToolsRestServices/rest/POLocator/findLocations", "@spider": "usps_collection_boxes", "addr:city": "HAGUE", "addr:country": "US", "addr:postcode": "22469", "addr:state": "VA", "addr:street_address": "8433 COPLE HWY", "amenity": "post_box", "collection_times": "Mo-Fr 16:15; Sa 11:45", "indoor": "yes", "note": "ON 12/24 AND 12/31, THIS BOX MAY BE COLLECTED AS EARLY AS 12 NOON.", "nsi_id": "unitedstatespostalservice-a77078", "operator": "United States Postal Service", "operator:short": "USPS", "operator:type": "public", "operator:wikidata": "Q668687", "ref": "2246900002"}, "type": "Feature"}
{"geometry": {"coordinates": [-76.652385906, 38.072689783], "type": "Point"}, "id": "dTaWx3YcssAH9Hj0TZSWcs6_MSs=", "properties": {"@source_uri": "https://tools.usps.com/UspsToolsRestServices/rest/POLocator/findLocations", "@spider": "usps_collection_boxes", "addr:city": "HAGUE", "addr:country": "US", "addr:postcode": "22469", "addr:state": "VA", "addr:street_address": "8433 COPLE HWY", "amenity": "post_box", "collection_times": "Mo-Fr 16:15; Sa 11:45", "note": "ON 12/24 AND 12/31, THIS BOX MAY BE COLLECTED AS EARLY AS 12 NOON.", "nsi_id": "unitedstatespostalservice-a77078", "operator": "United States Postal Service", "operator:short": "USPS", "operator:type": "public", "operator:wikidata": "Q668687", "ref": "2246900003"}, "type": "Feature"}
{"geometry": {"coordinates": [-76.652385906, 38.072689783], "type": "Point"}, "id": "cYVZv-DkPivpd6Gle08D9AQ3SGE=", "properties": {"@source_uri": "https://tools.usps.com/UspsToolsRestServices/rest/POLocator/findLocations", "@spider": "usps_collection_boxes", "addr:city": "HAGUE", "addr:country": "US", "addr:postcode": "22469", "addr:state": "VA", "addr:street_address": "8433 COPLE HWY", "amenity": "post_box", "collection_times": "Mo-Fr 16:30; Sa 12:45", "indoor": "yes", "note": "ON 12/24 AND 12/31, THIS BOX MAY BE COLLECTED AS EARLY AS 12 NOON.", "nsi_id": "unitedstatespostalservice-a77078", "operator": "United States Postal Service", "operator:short": "USPS", "operator:type": "public", "operator:wikidata": "Q668687", "ref": "2246900005"}, "type": "Feature"}
{"geometry": {"coordinates": [-77.56385, 38.400632], "type": "Point"}, "id": "x6kBQZcLYf4YB6XO0hePzL8kDlQ=", "properties": {"@source_uri": "https://tools.usps.com/UspsToolsRestServices/rest/POLocator/findLocations", "@spider": "usps_collection_boxes", "addr:city": "HARTWOOD", "addr:country": "US", "addr:postcode": "22471", "addr:state": "VA", "addr:street_address": "6 HARTWOOD CHURCH RD", "amenity": "post_box", "collection_times": "Mo-Fr 16:00; Sa 11:30", "note": "ON 12/24 AND 12/31, THIS BOX MAY BE COLLECTED AS EARLY AS 12 NOON.", "nsi_id": "unitedstatespostalservice-a77078", "operator": "United States Postal Service", "operator:short": "USPS", "operator:type": "public", "operator:wikidata": "Q668687", "ref": "2247100001"}, "type": "Feature"}
{"geometry": {"coordinates": [-77.56385, 38.400632], "type": "Point"}, "id": "M59JBZ3O7fbhF9CyO5Muj9grgIk=", "properties": {"@source_uri": "https://tools.usps.com/UspsToolsRestServices/rest/POLocator/findLocations", "@spider": "usps_collection_boxes", "addr:city": "HARTWOOD", "addr:country": "US", "addr:postcode": "22471", "addr:state": "VA", "addr:street_address": "6 HARTWOOD CHURCH RD", "amenity": "post_box", "collection_times": "Mo-Fr 16:00; Sa 11:30", "indoor": "yes", "note": "ON 12/24 AND 12/31, THIS BOX MAY BE COLLECTED AS EARLY AS 12 NOON.", "nsi_id": "unitedstatespostalservice-a77078", "operator": "United States Postal Service", "operator:short": "USPS", "operator:type": "public", "operator:wikidata": "Q668687", "ref": "2247100002"}, "type": "Feature"}
{"geometry": {"coordinates": [-77.565567915, 38.401497295], "type": "Point"}, "id": "kqNlYmdnTjIc-y4eNPAH9VtQgzI=", "properties": {"@source_uri": "https://tools.usps.com/UspsToolsRestServices/rest/POLocator/findLocations", "@spider": "usps_collection_boxes", "addr:city": "HARTWOOD", "addr:country": "US", "addr:postcode": "22471", "addr:state": "VA", "addr:street_address": "6 HARTWOOD CHURCH RD", "amenity": "post_box", "collection_times": "Mo-Fr 15:45; Sa 11:30", "indoor": "yes", "note": "ON 12/24 AND 12/31, THIS BOX MAY BE COLLECTED AS EARLY AS 12 NOON.", "nsi_id": "unitedstatespostalservice-a77078", "operator": "United States Postal Service", "operator:short": "USPS", "operator:type": "public", "operator:wikidata": "Q668687", "ref": "2247100004"}, "type": "Feature"}
{"geometry": {"coordinates": [-76.66149, 37.950033], "type": "Point"}, "id": "f4Ulk57a6C47g93b1kA0mDxng3c=", "properties": {"@source_uri": "https://tools.usps.com/UspsToolsRestServices/rest/POLocator/findLocations", "@spider": "usps_collection_boxes", "addr:city": "HAYNESVILLE", "addr:country": "US", "addr:postcode": "22472", "addr:state": "VA", "addr:street_address": "11320 RICHMOND RD", "amenity": "post_box", "collection_times": "Mo-Fr 16:45; Sa 10:30", "note": "ON 12/24 AND 12/31, THIS BOX MAY BE COLLECTED AS EARLY AS 12 NOON.", "nsi_id": "unitedstatespostalservice-a77078", "operator": "United States Postal Service", "operator:short": "USPS", "operator:type": "public", "operator:wikidata": "Q668687", "ref": "2247200001"}, "type": "Feature"}
{"geometry": {"coordinates": [-76.66149, 37.950033], "type": "Point"}, "id": "0BF5Yx4ku5efdWBEtUY-KhUTz9U=", "properties": {"@source_uri": "https://tools.usps.com/UspsToolsRestServices/rest/POLocator/findLocations", "@spider": "usps_collection_boxes", "addr:city": "HAYNESVILLE", "addr:country": "US", "addr:postcode": "22472", "addr:state": "VA", "addr:street_address": "11320 RICHMOND RD", "amenity": "post_box", "collection_times": "Mo-Fr 16:45; Sa 10:30", "indoor": "yes", "note": "ON 12/24 AND 12/31, THIS BOX MAY BE COLLECTED AS EARLY AS 12 NOON.", "nsi_id": "unitedstatespostalservice-a77078", "operator": "United States Postal Service", "operator:short": "USPS", "operator:type": "public", "operator:wikidata": "Q668687", "ref": "2247200002"}, "type": "Feature"}
{"geometry": {"coordinates": [-76.6645528331, 37.9500995986], "type": "Point"}, "id": "0rXzJ7RMRMZaQ6MDQy6_JeOeqFQ=", "properties": {"@source_uri": "https://tools.usps.com/UspsToolsRestServices/rest/POLocator/findLocations", "@spider": "usps_collection_boxes", "addr:city": "HAYNESVILLE", "addr:country": "US", "addr:postcode": "22472", "addr:state": "VA", "addr:street_address": "11320 RICHMOND RD", "amenity": "post_box", "collection_times": "Mo-Fr 16:45; Sa 10:45", "indoor": "yes", "note": "ON 12/24 AND 12/31, THIS BOX MAY BE COLLECTED AS EARLY AS 12 NOON.", "nsi_id": "unitedstatespostalservice-a77078", "operator": "United States Postal Service", "operator:short": "USPS", "operator:type": "public", "operator:wikidata": "Q668687", "ref": "2247200004"}, "type": "Feature"}
{"geometry": {"coordinates": [-76.472235184, 37.916877973], "type": "Point"}, "id": "zrugbN_Yrro5f6h7h0EIQ4sBgTk=", "properties": {"@source_uri": "https://tools.usps.com/UspsToolsRestServices/rest/POLocator/findLocations", "@spider": "usps_collection_boxes", "addr:city": "HEATHSVILLE", "addr:country": "US", "addr:postcode": "22473", "addr:state": "VA", "addr:street_address": "27 MONUMENT PL", "amenity": "post_box", "collection_times": "Mo-Fr 16:00; Sa 11:00", "note": "ON 12/24 AND 12/31, THIS BOX MAY BE COLLECTED AS EARLY AS 12 NOON.", "nsi_id": "unitedstatespostalservice-a77078", "operator": "United States Postal Service", "operator:short": "USPS", "operator:type": "public", "operator:wikidata": "Q668687", "ref": "2247300001"}, "type": "Feature"}
{"geometry": {"coordinates": [-76.472235184, 37.916877973], "type": "Point"}, "id": "LsLarxGqCNkIWuAFAt09dmOPpBE=", "properties": {"@source_uri": "https://tools.usps.com/UspsToolsRestServices/rest/POLocator/findLocations", "@spider": "usps_collection_boxes", "addr:city": "HEATHSVILLE", "addr:country": "US", "addr:postcode": "22473", "addr:state": "VA", "addr:street_address": "27 MONUMENT PL", "amenity": "post_box", "collection_times": "Mo-Fr 16:00; Sa 11:00", "indoor": "yes", "note": "ON 12/24 AND 12/31, THIS BOX MAY BE COLLECTED AS EARLY AS 12 NOON.", "nsi_id": "unitedstatespostalservice-a77078", "operator": "United States Postal Service", "operator:short": "USPS", "operator:type": "public", "operator:wikidata": "Q668687", "ref": "2247300002"}, "type": "Feature"}
{"geometry": {"coordinates": [-76.472235184, 37.916877973], "type": "Point"}, "id": "f-dHSe3APQwNFMQCU2c6Du0LBbA=", "properties": {"@source_uri": "https://tools.usps.com/UspsToolsRestServices/rest/POLocator/findLocations", "@spider": "usps_collection_boxes", "addr:city": "HEATHSVILLE", "addr:country": "US", "addr:postcode": "22473", "addr:state": "VA", "addr:street_address": "27 MONUMENT PL", "amenity": "post_box", "collection_times": "Mo-Fr 16:30; Sa 11:30", "indoor": "yes", "note": "ON 12/24 AND 12/31, THIS BOX MAY BE COLLECTED AS EARLY AS 12 NOON.", "nsi_id": "unitedstatespostalservice-a77078", "operator": "United States Postal Service", "operator:short": "USPS", "operator:type": "public", "operator:wikidata": "Q668687", "ref": "2247300004"}, "type": "Feature"}
{"geometry": {"coordinates": [-76.419433887, 37.66103913], "type": "Point"}, "id": "WBNYUn7o3DoJ_hE6Ndcww1DnP1M=", "properties": {"@source_uri": "https://tools.usps.com/UspsToolsRestServices/rest/POLocator/findLocations", "@spider": "usps_collection_boxes", "addr:city": "IRVINGTON", "addr:country": "US", "addr:postcode": "22480", "addr:state": "VA", "addr:street_address": "4473 IRVINGTON RD", "amenity": "post_box", "collection_times": "Mo-Fr 15:30; Sa 11:30", "note": "ON 12/24 AND 12/31, THIS BOX MAY BE COLLECTED AS EARLY AS 12 NOON.", "nsi_id": "unitedstatespostalservice-a77078", "operator": "United States Postal Service", "operator:short": "USPS", "operator:type": "public", "operator:wikidata": "Q668687", "ref": "2248000001"}, "type": "Feature"}
{"geometry": {"coordinates": [-76.419433887, 37.66103913], "type": "Point"}, "id": "rDYP3irXtm_Gf9HWKo1l5zgwqD8=", "properties": {"@source_uri": "https://tools.usps.com/UspsToolsRestServices/rest/POLocator/findLocations", "@spider": "usps_collection_boxes", "addr:city": "IRVINGTON", "addr:country": "US", "addr:postcode": "22480", "addr:state": "VA", "addr:street_address": "4473 IRVINGTON RD", "amenity": "post_box", "collection_times": "Mo-Fr 16:15; Sa 11:30", "indoor": "yes", "note": "ON 12/24 AND 12/31, THIS BOX MAY BE COLLECTED AS EARLY AS 12 NOON.", "nsi_id": "unitedstatespostalservice-a77078", "operator": "United States Postal Service", "operator:short": "USPS", "operator:type": "public", "operator:wikidata": "Q668687", "ref": "2248000002"}, "type": "Feature"}
{"geometry": {"coordinates": [-76.419433887, 37.66103913], "type": "Point"}, "id": "ZH8PYUyOQQkd6z0LWyx_ZEHBWgY=", "properties": {"@source_uri": "https://tools.usps.com/UspsToolsRestServices/rest/POLocator/findLocations", "@spider": "usps_collection_boxes", "addr:city": "IRVINGTON", "addr:country": "US", "addr:postcode": "22480", "addr:state": "VA", "addr:street_address": "4473 IRVINGTON RD", "amenity": "post_box", "collection_times": "Mo-Fr 16:30; Sa 11:30", "indoor": "yes", "note": "ON 12/24 AND 12/31, THIS BOX MAY BE COLLECTED AS EARLY AS 12 NOON.", "nsi_id": "unitedstatespostalservice-a77078", "operator": "United States Postal Service", "operator:short": "USPS", "operator:type": "public", "operator:wikidata": "Q668687", "ref": "2248000004"}, "type": "Feature"}
{"geometry": {"coordinates": [-77.13984923, 38.211462125], "type": "Point"}, "id": "DDfmQbJchie72ZmDXia57_TGTpA=", "properties": {"@source_uri": "https://tools.usps.com/UspsToolsRestServices/rest/POLocator/findLocations", "@spider": "usps_collection_boxes", "addr:city": "JERSEY", "addr:country": "US", "addr:postcode": "22481", "addr:state": "VA", "addr:street_address": "12079 JERSEY RD", "amenity": "post_box", "collection_times": "Mo-Fr 14:30; Sa 11:45", "note": "ON 12/24 AND 12/31, THIS BOX MAY BE COLLECTED AS EARLY AS 12 NOON.", "nsi_id": "unitedstatespostalservice-a77078", "operator": "United States Postal Service", "operator:short": "USPS", "operator:type": "public", "operator:wikidata": "Q668687", "ref": "2248100001"}, "type": "Feature"}
{"geometry": {"coordinates": [-77.13984923, 38.211462125], "type": "Point"}, "id": "WFyFOUIKgsKN8qmg9JxYkP_pN0w=", "properties": {"@source_uri": "https://tools.usps.com/UspsToolsRestServices/rest/POLocator/findLocations", "@spider": "usps_collection_boxes", "addr:city": "JERSEY", "addr:country": "US", "addr:postcode": "22481", "addr:state": "VA", "addr:street_address": "12079 JERSEY RD", "amenity": "post_box", "collection_times": "Mo-Fr 14:30; Sa 11:45", "indoor": "yes", "note": "ON 12/24 AND 12/31, THIS BOX MAY BE COLLECTED AS EARLY AS 12 NOON.", "nsi_id": "unitedstatespostalservice-a77078", "operator": "United States Postal Service", "operator:short": "USPS", "operator:type": "public", "operator:wikidata": "Q668687", "ref": "2248100002"}, "type": "Feature"}
{"geometry": {"coordinates": [-77.13984923, 38.211462125], "type": "Point"}, "id": "Jq6kXSIVSgmeM38gD8Je11kxvyY=", "properties": {"@source_uri": "https://tools.usps.com/UspsToolsRestServices/rest/POLocator/findLocations", "@spider": "usps_collection_boxes", "addr:city": "JERSEY", "addr:country": "US", "addr:postcode": "22481", "addr:state": "VA", "addr:street_address": "12079 JERSEY RD", "amenity": "post_box", "collection_times": "Mo-Fr 14:30; Sa 12:00", "indoor": "yes", "note": "ON 12/24 AND 12/31, THIS BOX MAY BE COLLECTED AS EARLY AS 12 NOON.", "nsi_id": "unitedstatespostalservice-a77078", "operator": "United States Postal Service", "operator:short": "USPS", "operator:type": "public", "operator:wikidata": "Q668687", "ref": "2248100004"}, "type": "Feature"}
{"geometry": {"coordinates": [-76.381523, 37.71598], "type": "Point"}, "id": "11-_egqeeX_OFoYj9KRH8SMfjXE=", "properties": {"@source_uri": "https://tools.usps.com/UspsToolsRestServices/rest/POLocator/findLocations", "@spider": "usps_collection_boxes", "addr:city": "KILMARNOCK", "addr:country": "US", "addr:postcode": "22482", "addr:state": "VA", "addr:street_address": "239 N MAIN ST", "amenity": "post_box", "collection_times": "Mo-Fr 16:30; Sa 11:15", "note": "ON 12/24 AND 12/31, THIS BOX MAY BE COLLECTED AS EARLY AS 12 NOON.", "nsi_id": "unitedstatespostalservice-a77078", "operator": "United States Postal Service", "operator:short": "USPS", "operator:type": "public", "operator:wikidata": "Q668687", "ref": "2248200004"}, "type": "Feature"}
{"geometry": {"coordinates": [-76.381523, 37.71598], "type": "Point"}, "id": "BoyQkfUle_svzuPmIJZ-CGIpdBg=", "properties": {"@source_uri": "https://tools.usps.com/UspsToolsRestServices/rest/POLocator/findLocations", "@spider": "usps_collection_boxes", "addr:city": "KILMARNOCK", "addr:country": "US", "addr:postcode": "22482", "addr:state": "VA", "addr:street_address": "239 N MAIN ST", "amenity": "post_box", "collection_times": "Mo-Fr 16:30; Sa 11:15", "indoor": "yes", "note": "ON 12/24 AND 12/31, THIS BOX MAY BE COLLECTED AS EARLY AS 12 NOON.", "nsi_id": "unitedstatespostalservice-a77078", "operator": "United States Postal Service", "operator:short": "USPS", "operator:type": "public", "operator:wikidata": "Q668687", "ref": "2248200005"}, "type": "Feature"}
{"geometry": {"coordinates": [-76.3815246467, 37.7159735173], "type": "Point"}, "id": "iMbcZJhx1DWHZDqszSAb2sfdq0w=", "properties": {"@source_uri": "https://tools.usps.com/UspsToolsRestServices/rest/POLocator/findLocations", "@spider": "usps_collection_boxes", "addr:city": "KILMARNOCK", "addr:country": "US", "addr:postcode": "22482", "addr:state": "VA", "addr:street_address": "239 N MAIN ST", "amenity": "post_box", "collection_times": "Mo-Fr 16:30; Sa 11:00", "indoor": "yes", "note": "ON 12/24 AND 12/31, THIS BOX MAY BE COLLECTED AS EARLY AS 12 NOON.", "nsi_id": "unitedstatespostalservice-a77078", "operator": "United States Postal Service", "operator:short": "USPS", "operator:type": "public", "operator:wikidata": "Q668687", "ref": "2248200009"}, "type": "Feature"}
{"geometry": {"coordinates": [-77.21110642, 38.278067488], "type": "Point"}, "id": "JU8j_BzidVh7i220cdZYUiJ1OBo=", "properties": {"@source_uri": "https://tools.usps.com/UspsToolsRestServices/rest/POLocator/findLocations", "@spider": "usps_collection_boxes", "addr:city": "KING GEORGE", "addr:country": "US", "addr:postcode": "22485", "addr:state": "VA", "addr:street_address": "7993 KINGS HWY", "amenity": "post_box", "collection_times": "Mo-Fr 17:00; Sa 12:00", "note": "ON 12/24 AND 12/31, THIS BOX MAY BE COLLECTED AS EARLY AS 12 NOON.", "nsi_id": "unitedstatespostalservice-a77078", "operator": "United States Postal Service", "operator:short": "USPS", "operator:type": "public", "operator:wikidata": "Q668687", "ref": "2248500001"}, "type": "Feature"}
{"geometry": {"coordinates": [-77.21110642, 38.278067488], "type": "Point"}, "id": "wF3xjFcbkRTOwT3hszMN0Z4-Xfc=", "properties": {"@source_uri": "https://tools.usps.com/UspsToolsRestServices/rest/POLocator/findLocations", "@spider": "usps_collection_boxes", "addr:city": "KING GEORGE", "addr:country": "US", "addr:postcode": "22485", "addr:state": "VA", "addr:street_address": "7993 KINGS HWY", "amenity": "post_box", "collection_times": "Mo-Fr 17:00; Sa 12:00", "indoor": "yes", "note": "ON 12/24 AND 12/31, THIS BOX MAY BE COLLECTED AS EARLY AS 12 NOON.", "nsi_id": "unitedstatespostalservice-a77078", "operator": "United States Postal Service", "operator:short": "USPS", "operator:type": "public", "operator:wikidata": "Q668687", "ref": "2248500005"}, "type": "Feature"}
{"geometry": {"coordinates": [-77.21110642, 38.278067488], "type": "Point"}, "id": "1DO1XMwDjQzBSZJTulrImu9VMCE=", "properties": {"@source_uri": "https://tools.usps.com/UspsToolsRestServices/rest/POLocator/findLocations", "@spider": "usps_collection_boxes", "addr:city": "KING GEORGE", "addr:country": "US", "addr:postcode": "22485", "addr:state": "VA", "addr:street_address": "7993 KINGS HWY", "amenity": "post_box", "collection_times": "Mo-Fr 17:00; Sa 12:00", "indoor": "yes", "note": "ON 12/24 AND 12/31, THIS BOX MAY BE COLLECTED AS EARLY AS 12 NOON.", "nsi_id": "unitedstatespostalservice-a77078", "operator": "United States Postal Service", "operator:short": "USPS", "operator:type": "public", "operator:wikidata": "Q668687", "ref": "2248500006"}, "type": "Feature"}
{"geometry": {"coordinates": [-77.21110642, 38.278067488], "type": "Point"}, "id": "WLaPKJMFohnX1QPoUFlpSj38RoE=", "properties": {"@source_uri": "https://tools.usps.com/UspsToolsRestServices/rest/POLocator/findLocations", "@spider": "usps_collection_boxes", "addr:city": "KING GEORGE", "addr:country": "US", "addr:postcode": "22485", "addr:state": "VA", "addr:street_address": "7993 KINGS HWY", "amenity": "post_box", "collection_times": "Mo-Fr 17:00; Sa 12:00", "indoor": "yes", "note": "ON 12/24 AND 12/31, THIS BOX MAY BE COLLECTED AS EARLY AS 12 NOON.", "nsi_id": "unitedstatespostalservice-a77078", "operator": "United States Postal Service", "operator:short": "USPS", "operator:type": "public", "operator:wikidata": "Q668687", "ref": "2248500007"}, "type": "Feature"}
{"geometry": {"coordinates": [-77.1788608, 38.266649], "type": "Point"}, "id": "AzI5Ex-hS5Ljht0jhfiAz_OUeZY=", "properties": {"@source_uri": "https://tools.usps.com/UspsToolsRestServices/rest/POLocator/findLocations", "@spider": "usps_collection_boxes", "addr:city": "KING GEORGE", "addr:country": "US", "addr:postcode": "22485", "addr:state": "VA", "addr:street_address": "10459 COURTHOUSE DR", "amenity": "post_box", "collection_times": "Mo-Sa 09:15", "nsi_id": "unitedstatespostalservice-a77078", "operator": "United States Postal Service", "operator:short": "USPS", "operator:type": "public", "operator:wikidata": "Q668687", "ref": "2248500008"}, "type": "Feature"}
{"geometry": {"coordinates": [-77.21110642, 38.278067488], "type": "Point"}, "id": "FYLeZ5z0CSX5B0T-ilfZJ1oI-_Q=", "properties": {"@source_uri": "https://tools.usps.com/UspsToolsRestServices/rest/POLocator/findLocations", "@spider": "usps_collection_boxes", "addr:city": "KING GEORGE", "addr:country": "US", "addr:postcode": "22485", "addr:state": "VA", "addr:street_address": "7993 KINGS HWY", "amenity": "post_box", "collection_times": "Mo-Fr 17:00; Sa 12:00", "indoor": "yes", "note": "ON 12/24 AND 12/31, THIS BOX MAY BE COLLECTED AS EARLY AS 12 NOON.", "nsi_id": "unitedstatespostalservice-a77078", "operator": "United States Postal Service", "operator:short": "USPS", "operator:type": "public", "operator:wikidata": "Q668687", "ref": "2248500012"}, "type": "Feature"}
{"geometry": {"coordinates": [-76.578965203, 38.029596358], "type": "Point"}, "id": "PalSMqfhuNyS7S3QZ9rNij_v3ig=", "properties": {"@source_uri": "https://tools.usps.com/UspsToolsRestServices/rest/POLocator/findLocations", "@spider": "usps_collection_boxes", "addr:city": "KINSALE", "addr:country": "US", "addr:postcode": "22488", "addr:state": "VA", "addr:street_address": "490 KINSALE RD", "amenity": "post_box", "collection_times": "Mo-Fr 15:45; Sa 11:45", "note": "ON 12/24 AND 12/31, THIS BOX MAY BE COLLECTED AS EARLY AS 12 NOON.", "nsi_id": "unitedstatespostalservice-a77078", "operator": "United States Postal Service", "operator:short": "USPS", "operator:type": "public", "operator:wikidata": "Q668687", "ref": "2248800001"}, "type": "Feature"}
{"geometry": {"coordinates": [-76.578965203, 38.029596358], "type": "Point"}, "id": "3NqFiQgO-b8DR0riTqW0-kKcavc=", "properties": {"@source_uri": "https://tools.usps.com/UspsToolsRestServices/rest/POLocator/findLocations", "@spider": "usps_collection_boxes", "addr:city": "KINSALE", "addr:country": "US", "addr:postcode": "22488", "addr:state": "VA", "addr:street_address": "490 KINSALE RD", "amenity": "post_box", "collection_times": "Mo-Fr 15:45; Sa 11:45", "indoor": "yes", "note": "ON 12/24 AND 12/31, THIS BOX MAY BE COLLECTED AS EARLY AS 12 NOON.", "nsi_id": "unitedstatespostalservice-a77078", "operator": "United States Postal Service", "operator:short": "USPS", "operator:type": "public", "operator:wikidata": "Q668687", "ref": "2248800002"}, "type": "Feature"}
{"geometry": {"coordinates": [-76.578965203, 38.029596358], "type": "Point"}, "id": "F3h3CfgfQvVtzdtuhYrFxZdcBfY=", "properties": {"@source_uri": "https://tools.usps.com/UspsToolsRestServices/rest/POLocator/findLocations", "@spider": "usps_collection_boxes", "addr:city": "KINSALE", "addr:country": "US", "addr:postcode": "22488", "addr:state": "VA", "addr:street_address": "490 KINSALE RD", "amenity": "post_box", "collection_times": "Mo-Fr 16:00; Sa 11:30", "indoor": "yes", "note": "ON 12/24 AND 12/31, THIS BOX MAY BE COLLECTED AS EARLY AS 12 NOON.", "nsi_id": "unitedstatespostalservice-a77078", "operator": "United States Postal Service", "operator:short": "USPS", "operator:type": "public", "operator:wikidata": "Q668687", "ref": "2248800004"}, "type": "Feature"}
