{"dataset_attributes": {"@spider": "usps_collection_boxes", "spider:collection_time": "2023-08-25T08:24:09.950024"}, "geometry": {"coordinates": [-77.515494742, 38.018808611], "type": "Point"}, "id": "kFWAlTpqA70wClcdJr9WmlcEBFM=", "properties": {"@spider": "usps_collection_boxes", "addr:city": "LADYSMITH", "addr:country": "US", "addr:full": "18014 JEFFERSON DAVIS HWY", "addr:postcode": "22501", "addr:state": "VA", "amenity": "post_box", "brand": "United States Postal Service", "brand:wikidata": "Q668687", "collection_times": "Mo-Fr 16:00; Sa 11:30", "name": "USPS COLLECTION BOX - BLUE BOX", "note": "ON 12/24 AND 12/31, THIS BOX MAY BE COLLECTED AS EARLY AS 12 NOON.", "nsi_id": "unitedstatespostalservice-a77078", "operator": "United States Postal Service", "operator:short": "USPS", "operator:type": "public", "operator:wikidata": "Q668687", "ref": "2250100001"}, "type": "Feature"}
{"dataset_attributes": {"@spider": "usps_collection_boxes", "spider:collection_time": "2023-08-25T08:24:09.950024"}, "geometry": {"coordinates": [-77.515494742, 38.018808611], "type": "Point"}, "id": "KFQqjYmHMMhN9Hfp9nfixz1fiLo=", "properties": {"@spider": "usps_collection_boxes", "addr:city": "LADYSMITH", "addr:country": "US", "addr:full": "18014 JEFFERSON DAVIS HWY", "addr:postcode": "22501", "addr:state": "VA", "amenity": "post_box", "brand": "United States Postal Service", "brand:wikidata": "Q668687", "collection_times": "Mo-Fr 16:00; Sa 11:30", "name": "USPS COLLECTION BOX - PO LOBBY", "note": "ON 12/24 AND 12/31, THIS BOX MAY BE COLLECTED AS EARLY AS 12 NOON.", "nsi_id": "unitedstatespostalservice-a77078", "operator": "United States Postal Service", "operator:short": "USPS", "operator:type": "public", "operator:wikidata": "Q668687", "ref": "2250100003"}, "type": "Feature"}
{"dataset_attributes": {"@spider": "usps_collection_boxes", "spider:collection_time": "2023-08-25T08:24:09.950024"}, "geometry": {"coordinates": [-77.515494742, 38.018808611], "type": "Point"}, "id": "UQU2u4HG7HhW4-PV1CkQ_mqfHAI=", "properties": {"@spider": "usps_collection_boxes", "addr:city": "LADYSMITH", "addr:country": "US", "addr:full": "18014 JEFFERSON DAVIS HWY", "addr:postcode": "22501", "addr:state": "VA", "amenity": "post_box", "brand": "United States Postal Service", "brand:wikidata": "Q668687", "collection_times": "Mo-Fr 16:00; Sa 11:30", "name": "USPS COLLECTION BOX - PO LOBBY", "note": "ON 12/24 AND 12/31, THIS BOX MAY BE COLLECTED AS EARLY AS 12 NOON.", "nsi_id": "unitedstatespostalservice-a77078", "operator": "United States Postal Service", "operator:short": "USPS", "operator:type": "public", "operator:wikidata": "Q668687", "ref": "2250100005"}, "type": "Feature"}
{"dataset_attributes": {"@spider": "usps_collection_boxes", "spider:collection_time": "2023-08-25T08:24:09.950024"}, "geometry": {"coordinates": [-76.4522311, 37.767428], "type": "Point"}, "id": "Ys5FR9YTDKSfuEdntCJUYpwUiQE=", "properties": {"@spider": "usps_collection_boxes", "addr:city": "LANCASTER", "addr:country": "US", "addr:full": "9054 MARY BALL RD", "addr:postcode": "22503", "addr:state": "VA", "amenity": "post_box", "brand": "United States Postal Service", "brand:wikidata": "Q668687", "collection_times": "Mo-Fr 16:30; Sa 11:00", "name": "USPS COLLECTION BOX - BLUE BOX", "note": "ON 12/24 AND 12/31, THIS BOX MAY BE COLLECTED AS EARLY AS 12 NOON.", "nsi_id": "unitedstatespostalservice-a77078", "operator": "United States Postal Service", "operator:short": "USPS", "operator:type": "public", "operator:wikidata": "Q668687", "ref": "2250300002"}, "type": "Feature"}
{"dataset_attributes": {"@spider": "usps_collection_boxes", "spider:collection_time": "2023-08-25T08:24:09.950024"}, "geometry": {"coordinates": [-76.4523249, 37.767366], "type": "Point"}, "id": "ZCynbuAk3Jf_VxQkSYPmyNwf6SI=", "properties": {"@spider": "usps_collection_boxes", "addr:city": "LANCASTER", "addr:country": "US", "addr:full": "9054 MARY BALL RD", "addr:postcode": "22503", "addr:state": "VA", "amenity": "post_box", "brand": "United States Postal Service", "brand:wikidata": "Q668687", "collection_times": "Mo-Fr 16:30; Sa 11:00", "name": "USPS COLLECTION BOX - PO LOBBY", "note": "ON 12/24 AND 12/31, THIS BOX MAY BE COLLECTED AS EARLY AS 12 NOON.", "nsi_id": "unitedstatespostalservice-a77078", "operator": "United States Postal Service", "operator:short": "USPS", "operator:type": "public", "operator:wikidata": "Q668687", "ref": "2250300003"}, "type": "Feature"}
{"dataset_attributes": {"@spider": "usps_collection_boxes", "spider:collection_time": "2023-08-25T08:24:09.950024"}, "geometry": {"coordinates": [-76.4522609774, 37.7677355278], "type": "Point"}, "id": "v8LkYixZKLyDz3iqDQpkvcDfrY8=", "properties": {"@spider": "usps_collection_boxes", "addr:city": "LANCASTER", "addr:country": "US", "addr:full": "9054 MARY BALL RD", "addr:postcode": "22503", "addr:state": "VA", "amenity": "post_box", "brand": "United States Postal Service", "brand:wikidata": "Q668687", "collection_times": "Mo-Fr 16:30; Sa 11:00", "name": "USPS COLLECTION BOX - PO LOBBY", "note": "ON 12/24 AND 12/31, THIS BOX MAY BE COLLECTED AS EARLY AS 12 NOON.", "nsi_id": "unitedstatespostalservice-a77078", "operator": "United States Postal Service", "operator:short": "USPS", "operator:type": "public", "operator:wikidata": "Q668687", "ref": "2250300009"}, "type": "Feature"}
{"dataset_attributes": {"@spider": "usps_collection_boxes", "spider:collection_time": "2023-08-25T08:24:09.950024"}, "geometry": {"coordinates": [-76.514063493, 37.778586057], "type": "Point"}, "id": "YHddd803-lO3w81rJcCV_BSN5Kw=", "properties": {"@spider": "usps_collection_boxes", "addr:city": "LIVELY", "addr:country": "US", "addr:full": "5316 MARY BALL RD", "addr:postcode": "22507", "addr:state": "VA", "amenity": "post_box", "brand": "United States Postal Service", "brand:wikidata": "Q668687", "collection_times": "Mo-Fr 16:15; Sa 11:15", "name": "USPS COLLECTION BOX - BLUE BOX", "note": "ON 12/24 AND 12/31, THIS BOX MAY BE COLLECTED AS EARLY AS 12 NOON.", "nsi_id": "unitedstatespostalservice-a77078", "operator": "United States Postal Service", "operator:short": "USPS", "operator:type": "public", "operator:wikidata": "Q668687", "ref": "2250700001"}, "type": "Feature"}
{"dataset_attributes": {"@spider": "usps_collection_boxes", "spider:collection_time": "2023-08-25T08:24:09.950024"}, "geometry": {"coordinates": [-76.514063493, 37.778586057], "type": "Point"}, "id": "ye4edSz7XzYn7OB6T2hI0QZzDMM=", "properties": {"@spider": "usps_collection_boxes", "addr:city": "LIVELY", "addr:country": "US", "addr:full": "5316 MARY BALL RD", "addr:postcode": "22507", "addr:state": "VA", "amenity": "post_box", "brand": "United States Postal Service", "brand:wikidata": "Q668687", "collection_times": "Mo-Fr 16:15; Sa 11:15", "name": "USPS COLLECTION BOX - PO LOBBY", "note": "ON 12/24 AND 12/31, THIS BOX MAY BE COLLECTED AS EARLY AS 12 NOON.", "nsi_id": "unitedstatespostalservice-a77078", "operator": "United States Postal Service", "operator:short": "USPS", "operator:type": "public", "operator:wikidata": "Q668687", "ref": "2250700002"}, "type": "Feature"}
{"dataset_attributes": {"@spider": "usps_collection_boxes", "spider:collection_time": "2023-08-25T08:24:09.950024"}, "geometry": {"coordinates": [-76.514063493, 37.778586057], "type": "Point"}, "id": "mRyMAFhJ77UTunsQLlNlRx1YErs=", "properties": {"@spider": "usps_collection_boxes", "addr:city": "LIVELY", "addr:country": "US", "addr:full": "5316 MARY BALL RD", "addr:postcode": "22507", "addr:state": "VA", "amenity": "post_box", "brand": "United States Postal Service", "brand:wikidata": "Q668687", "collection_times": "Mo-Fr 16:30; Sa 11:45", "name": "USPS COLLECTION BOX - PO LOBBY", "note": "ON 12/24 AND 12/31, THIS BOX MAY BE COLLECTED AS EARLY AS 12 NOON.", "nsi_id": "unitedstatespostalservice-a77078", "operator": "United States Postal Service", "operator:short": "USPS", "operator:type": "public", "operator:wikidata": "Q668687", "ref": "2250700004"}, "type": "Feature"}
{"dataset_attributes": {"@spider": "usps_collection_boxes", "spider:collection_time": "2023-08-25T08:24:09.950024"}, "geometry": {"coordinates": [-77.740992593, 38.340207576], "type": "Point"}, "id": "E8ZW24CjLq_s7Ur4kVkbf361jc0=", "properties": {"@spider": "usps_collection_boxes", "addr:city": "LOCUST GROVE", "addr:country": "US", "addr:full": "4447 GERMANNA HWY", "addr:postcode": "22508", "addr:state": "VA", "amenity": "post_box", "brand": "United States Postal Service", "brand:wikidata": "Q668687", "collection_times": "Mo-Fr 16:15; Sa 12:00", "name": "USPS COLLECTION BOX - BLUE BOX", "note": "ON 12/24 AND 12/31, THIS BOX MAY BE COLLECTED AS EARLY AS 12 NOON.", "nsi_id": "unitedstatespostalservice-a77078", "operator": "United States Postal Service", "operator:short": "USPS", "operator:type": "public", "operator:wikidata": "Q668687", "ref": "2250800002"}, "type": "Feature"}
{"dataset_attributes": {"@spider": "usps_collection_boxes", "spider:collection_time": "2023-08-25T08:24:09.950024"}, "geometry": {"coordinates": [-77.7491843678, 38.3471252073], "type": "Point"}, "id": "9yK6XBDiWSpVcXfTiiuy2dcX-wI=", "properties": {"@spider": "usps_collection_boxes", "addr:city": "LOCUST GROVE", "addr:country": "US", "addr:full": "100 LAKEVIEW PARKWAY", "addr:postcode": "22508", "addr:state": "VA", "amenity": "post_box", "brand": "United States Postal Service", "brand:wikidata": "Q668687", "collection_times": "Mo-Fr 11:00", "name": "USPS COLLECTION BOX - BLUE BOX", "nsi_id": "unitedstatespostalservice-a77078", "operator": "United States Postal Service", "operator:short": "USPS", "operator:type": "public", "operator:wikidata": "Q668687", "ref": "2250800005"}, "type": "Feature"}
{"dataset_attributes": {"@spider": "usps_collection_boxes", "spider:collection_time": "2023-08-25T08:24:09.950024"}, "geometry": {"coordinates": [-77.740992593, 38.340207576], "type": "Point"}, "id": "Fn8mR4tH7Ku6CDcE9pZ5hAwUtdw=", "properties": {"@spider": "usps_collection_boxes", "addr:city": "LOCUST GROVE", "addr:country": "US", "addr:full": "4447 GERMANNA HWY", "addr:postcode": "22508", "addr:state": "VA", "amenity": "post_box", "brand": "United States Postal Service", "brand:wikidata": "Q668687", "collection_times": "Mo-Fr 16:30; Sa 12:00", "name": "USPS COLLECTION BOX - PO LOBBY", "note": "ON 12/24 AND 12/31, THIS BOX MAY BE COLLECTED AS EARLY AS 12 NOON.", "nsi_id": "unitedstatespostalservice-a77078", "operator": "United States Postal Service", "operator:short": "USPS", "operator:type": "public", "operator:wikidata": "Q668687", "ref": "2250800006"}, "type": "Feature"}
{"dataset_attributes": {"@spider": "usps_collection_boxes", "spider:collection_time": "2023-08-25T08:24:09.950024"}, "geometry": {"coordinates": [-77.8100129, 38.305199], "type": "Point"}, "id": "eeasGufYipUkP3ZQLzxI9LDXAK8=", "properties": {"@spider": "usps_collection_boxes", "addr:city": "LOCUST GROVE", "addr:country": "US", "addr:full": "32301 CONSTITUTION HWY", "addr:postcode": "22508", "addr:state": "VA", "amenity": "post_box", "brand": "United States Postal Service", "brand:wikidata": "Q668687", "collection_times": "Mo-Fr 10:00", "name": "USPS COLLECTION BOX - BLUE BOX", "nsi_id": "unitedstatespostalservice-a77078", "operator": "United States Postal Service", "operator:short": "USPS", "operator:type": "public", "operator:wikidata": "Q668687", "ref": "2250800007"}, "type": "Feature"}
{"dataset_attributes": {"@spider": "usps_collection_boxes", "spider:collection_time": "2023-08-25T08:24:09.950024"}, "geometry": {"coordinates": [-77.7471218, 38.34935], "type": "Point"}, "id": "798eviXTNgcawI074iXrD9K-tFQ=", "properties": {"@spider": "usps_collection_boxes", "addr:city": "LOCUST GROVE", "addr:country": "US", "addr:full": "1 GOODWIN DR", "addr:postcode": "22508", "addr:state": "VA", "amenity": "post_box", "brand": "United States Postal Service", "brand:wikidata": "Q668687", "collection_times": "Mo-Fr 10:00", "name": "USPS COLLECTION BOX - BLUE BOX", "nsi_id": "unitedstatespostalservice-a77078", "operator": "United States Postal Service", "operator:short": "USPS", "operator:type": "public", "operator:wikidata": "Q668687", "ref": "2250800008"}, "type": "Feature"}
{"dataset_attributes": {"@spider": "usps_collection_boxes", "spider:collection_time": "2023-08-25T08:24:09.950024"}, "geometry": {"coordinates": [-77.740992593, 38.340207576], "type": "Point"}, "id": "YkSxHwD9Yptg70vEzlojTCMKV2E=", "properties": {"@spider": "usps_collection_boxes", "addr:city": "LOCUST GROVE", "addr:country": "US", "addr:full": "4447 GERMANNA HWY", "addr:postcode": "22508", "addr:state": "VA", "amenity": "post_box", "brand": "United States Postal Service", "brand:wikidata": "Q668687", "collection_times": "Mo-Fr 16:30; Sa 13:00", "name": "USPS COLLECTION BOX - PO LOBBY", "note": "ON 12/24 AND 12/31, THIS BOX MAY BE COLLECTED AS EARLY AS 12 NOON.", "nsi_id": "unitedstatespostalservice-a77078", "operator": "United States Postal Service", "operator:short": "USPS", "operator:type": "public", "operator:wikidata": "Q668687", "ref": "2250800014"}, "type": "Feature"}
{"dataset_attributes": {"@spider": "usps_collection_boxes", "spider:collection_time": "2023-08-25T08:24:09.950024"}, "geometry": {"coordinates": [-76.522005683, 37.966212386], "type": "Point"}, "id": "68r_atLXhZezelZziRiAVkK-Yzc=", "properties": {"@spider": "usps_collection_boxes", "addr:city": "LOTTSBURG", "addr:country": "US", "addr:full": "2217 NORTHUMBERLAND HWY", "addr:postcode": "22511", "addr:state": "VA", "amenity": "post_box", "brand": "United States Postal Service", "brand:wikidata": "Q668687", "collection_times": "Mo-Fr 16:15; Sa 11:15", "name": "USPS COLLECTION BOX - BLUE BOX", "note": "ON 12/24 AND 12/31, THIS BOX MAY BE COLLECTED AS EARLY AS 12 NOON.", "nsi_id": "unitedstatespostalservice-a77078", "operator": "United States Postal Service", "operator:short": "USPS", "operator:type": "public", "operator:wikidata": "Q668687", "ref": "2251100001"}, "type": "Feature"}
{"dataset_attributes": {"@spider": "usps_collection_boxes", "spider:collection_time": "2023-08-25T08:24:09.950024"}, "geometry": {"coordinates": [-76.522005683, 37.966212386], "type": "Point"}, "id": "HF25p4AwiuArPikc__K97CMCncc=", "properties": {"@spider": "usps_collection_boxes", "addr:city": "LOTTSBURG", "addr:country": "US", "addr:full": "2217 NORTHUMBERLAND HWY", "addr:postcode": "22511", "addr:state": "VA", "amenity": "post_box", "brand": "United States Postal Service", "brand:wikidata": "Q668687", "collection_times": "Mo-Fr 16:15; Sa 11:15", "name": "USPS COLLECTION BOX - PO LOBBY", "note": "ON 12/24 AND 12/31, THIS BOX MAY BE COLLECTED AS EARLY AS 12 NOON.", "nsi_id": "unitedstatespostalservice-a77078", "operator": "United States Postal Service", "operator:short": "USPS", "operator:type": "public", "operator:wikidata": "Q668687", "ref": "2251100002"}, "type": "Feature"}
{"dataset_attributes": {"@spider": "usps_collection_boxes", "spider:collection_time": "2023-08-25T08:24:09.950024"}, "geometry": {"coordinates": [-76.522005683, 37.966212386], "type": "Point"}, "id": "Kbpuy7UdxG-gBEF2q99T-ZfbkDU=", "properties": {"@spider": "usps_collection_boxes", "addr:city": "LOTTSBURG", "addr:country": "US", "addr:full": "2217 NORTHUMBERLAND HWY", "addr:postcode": "22511", "addr:state": "VA", "amenity": "post_box", "brand": "United States Postal Service", "brand:wikidata": "Q668687", "collection_times": "Mo-Fr 16:30; Sa 13:00", "name": "USPS COLLECTION BOX - PO LOBBY", "note": "ON 12/24 AND 12/31, THIS BOX MAY BE COLLECTED AS EARLY AS 12 NOON.", "nsi_id": "unitedstatespostalservice-a77078", "operator": "United States Postal Service", "operator:short": "USPS", "operator:type": "public", "operator:wikidata": "Q668687", "ref": "2251100004"}, "type": "Feature"}
{"dataset_attributes": {"@spider": "usps_collection_boxes", "spider:collection_time": "2023-08-25T08:24:09.950024"}, "geometry": {"coordinates": [-76.482294, 37.732953], "type": "Point"}, "id": "YHwbb0BsyY969RXkZiPK0FQvsE8=", "properties": {"@spider": "usps_collection_boxes", "addr:city": "MERRY POINT", "addr:country": "US", "addr:full": "2717 MERRY POINT RD", "addr:postcode": "22513", "addr:state": "VA", "amenity": "post_box", "brand": "United States Postal Service", "brand:wikidata": "Q668687", "collection_times": "Mo-Sa 10:00", "name": "USPS COLLECTION BOX - BLUE BOX", "nsi_id": "unitedstatespostalservice-a77078", "operator": "United States Postal Service", "operator:short": "USPS", "operator:type": "public", "operator:wikidata": "Q668687", "ref": "2251300001"}, "type": "Feature"}
{"dataset_attributes": {"@spider": "usps_collection_boxes", "spider:collection_time": "2023-08-25T08:24:09.950024"}, "geometry": {"coordinates": [-76.482294, 37.732953], "type": "Point"}, "id": "IFVnZ5-cPiZODfd_I-nGWUYxNH0=", "properties": {"@spider": "usps_collection_boxes", "addr:city": "MERRY POINT", "addr:country": "US", "addr:full": "2717 MERRY POINT RD", "addr:postcode": "22513", "addr:state": "VA", "amenity": "post_box", "brand": "United States Postal Service", "brand:wikidata": "Q668687", "collection_times": "Mo-Sa 10:00", "name": "USPS COLLECTION BOX - PO LOBBY", "nsi_id": "unitedstatespostalservice-a77078", "operator": "United States Postal Service", "operator:short": "USPS", "operator:type": "public", "operator:wikidata": "Q668687", "ref": "2251300002"}, "type": "Feature"}
{"dataset_attributes": {"@spider": "usps_collection_boxes", "spider:collection_time": "2023-08-25T08:24:09.950024"}, "geometry": {"coordinates": [-77.373321079, 38.022719625], "type": "Point"}, "id": "yzmuugL6uHIQa6igz9UkyePc-xk=", "properties": {"@spider": "usps_collection_boxes", "addr:city": "MILFORD", "addr:country": "US", "addr:full": "15429 ANTIOCH RD", "addr:postcode": "22514", "addr:state": "VA", "amenity": "post_box", "brand": "United States Postal Service", "brand:wikidata": "Q668687", "collection_times": "Mo-Fr 16:30; Sa 11:00", "name": "USPS COLLECTION BOX - BLUE BOX", "note": "ON 12/24 AND 12/31, THIS BOX MAY BE COLLECTED AS EARLY AS 12 NOON.", "nsi_id": "unitedstatespostalservice-a77078", "operator": "United States Postal Service", "operator:short": "USPS", "operator:type": "public", "operator:wikidata": "Q668687", "ref": "2251400001"}, "type": "Feature"}
{"dataset_attributes": {"@spider": "usps_collection_boxes", "spider:collection_time": "2023-08-25T08:24:09.950024"}, "geometry": {"coordinates": [-77.373321079, 38.022719625], "type": "Point"}, "id": "4GJBd0pZyXnFlL-smXBAwYovBbM=", "properties": {"@spider": "usps_collection_boxes", "addr:city": "MILFORD", "addr:country": "US", "addr:full": "15429 ANTIOCH RD", "addr:postcode": "22514", "addr:state": "VA", "amenity": "post_box", "brand": "United States Postal Service", "brand:wikidata": "Q668687", "collection_times": "Mo-Fr 16:45; Sa 11:45", "name": "USPS COLLECTION BOX - PO LOBBY", "note": "ON 12/24 AND 12/31, THIS BOX MAY BE COLLECTED AS EARLY AS 12 NOON.", "nsi_id": "unitedstatespostalservice-a77078", "operator": "United States Postal Service", "operator:short": "USPS", "operator:type": "public", "operator:wikidata": "Q668687", "ref": "2251400002"}, "type": "Feature"}
{"dataset_attributes": {"@spider": "usps_collection_boxes", "spider:collection_time": "2023-08-25T08:24:09.950024"}, "geometry": {"coordinates": [-77.373321079, 38.022719625], "type": "Point"}, "id": "cxGR1D8ujge6iisxPqRfdNnSWrU=", "properties": {"@spider": "usps_collection_boxes", "addr:city": "MILFORD", "addr:country": "US", "addr:full": "15429 ANTIOCH RD", "addr:postcode": "22514", "addr:state": "VA", "amenity": "post_box", "brand": "United States Postal Service", "brand:wikidata": "Q668687", "collection_times": "Mo-Fr 16:45; Sa 11:45", "name": "USPS COLLECTION BOX - PO LOBBY", "note": "ON 12/24 AND 12/31, THIS BOX MAY BE COLLECTED AS EARLY AS 12 NOON.", "nsi_id": "unitedstatespostalservice-a77078", "operator": "United States Postal Service", "operator:short": "USPS", "operator:type": "public", "operator:wikidata": "Q668687", "ref": "2251400003"}, "type": "Feature"}
{"dataset_attributes": {"@spider": "usps_collection_boxes", "spider:collection_time": "2023-08-25T08:24:09.950024"}, "geometry": {"coordinates": [-77.373321079, 38.022719625], "type": "Point"}, "id": "ccIqOFjtp64hAxTLF07upoy1L3k=", "properties": {"@spider": "usps_collection_boxes", "addr:city": "MILFORD", "addr:country": "US", "addr:full": "15429 ANTIOCH RD", "addr:postcode": "22514", "addr:state": "VA", "amenity": "post_box", "brand": "United States Postal Service", "brand:wikidata": "Q668687", "collection_times": "Mo-Fr 17:00; Sa 12:30", "name": "USPS COLLECTION BOX - PO LOBBY", "note": "ON 12/24 AND 12/31, THIS BOX MAY BE COLLECTED AS EARLY AS 12 NOON.", "nsi_id": "unitedstatespostalservice-a77078", "operator": "United States Postal Service", "operator:short": "USPS", "operator:type": "public", "operator:wikidata": "Q668687", "ref": "2251400005"}, "type": "Feature"}
{"dataset_attributes": {"@spider": "usps_collection_boxes", "spider:collection_time": "2023-08-25T08:24:09.950024"}, "geometry": {"coordinates": [-76.5408399871, 37.7325390176], "type": "Point"}, "id": "6QOq1SvB-bezPCMyP8pOYRdhr54=", "properties": {"@spider": "usps_collection_boxes", "addr:city": "MOLLUSK", "addr:country": "US", "addr:full": "7377 RIVER RD", "addr:postcode": "22517", "addr:state": "VA", "amenity": "post_box", "brand": "United States Postal Service", "brand:wikidata": "Q668687", "collection_times": "Mo-Fr 14:00; Sa 12:00", "name": "USPS COLLECTION BOX - BLUE BOX", "note": "ON 12/24 AND 12/31, THIS BOX MAY BE COLLECTED AS EARLY AS 12 NOON.", "nsi_id": "unitedstatespostalservice-a77078", "operator": "United States Postal Service", "operator:short": "USPS", "operator:type": "public", "operator:wikidata": "Q668687", "ref": "2251700001"}, "type": "Feature"}
{"dataset_attributes": {"@spider": "usps_collection_boxes", "spider:collection_time": "2023-08-25T08:24:09.950024"}, "geometry": {"coordinates": [-76.5408399871, 37.7325390176], "type": "Point"}, "id": "jSVb_1WkdIeEuSlk6a9udPEbbps=", "properties": {"@spider": "usps_collection_boxes", "addr:city": "MOLLUSK", "addr:country": "US", "addr:full": "7377 RIVER RD", "addr:postcode": "22517", "addr:state": "VA", "amenity": "post_box", "brand": "United States Postal Service", "brand:wikidata": "Q668687", "collection_times": "Mo-Fr 14:00; Sa 12:00", "name": "USPS COLLECTION BOX - PO LOBBY", "note": "ON 12/24 AND 12/31, THIS BOX MAY BE COLLECTED AS EARLY AS 12 NOON.", "nsi_id": "unitedstatespostalservice-a77078", "operator": "United States Postal Service", "operator:short": "USPS", "operator:type": "public", "operator:wikidata": "Q668687", "ref": "2251700002"}, "type": "Feature"}
{"dataset_attributes": {"@spider": "usps_collection_boxes", "spider:collection_time": "2023-08-25T08:24:09.950024"}, "geometry": {"coordinates": [-76.5408399871, 37.7325390176], "type": "Point"}, "id": "1bewH033coe0u1mYj6WqjhDxKVY=", "properties": {"@spider": "usps_collection_boxes", "addr:city": "MOLLUSK", "addr:country": "US", "addr:full": "7377 RIVER RD", "addr:postcode": "22517", "addr:state": "VA", "amenity": "post_box", "brand": "United States Postal Service", "brand:wikidata": "Q668687", "collection_times": "Mo-Fr 16:00; Sa 13:00", "name": "USPS COLLECTION BOX - PO LOBBY", "note": "ON 12/24 AND 12/31, THIS BOX MAY BE COLLECTED AS EARLY AS 12 NOON.", "nsi_id": "unitedstatespostalservice-a77078", "operator": "United States Postal Service", "operator:short": "USPS", "operator:type": "public", "operator:wikidata": "Q668687", "ref": "2251700004"}, "type": "Feature"}
{"dataset_attributes": {"@spider": "usps_collection_boxes", "spider:collection_time": "2023-08-25T08:24:09.950024"}, "geometry": {"coordinates": [-76.826183648, 38.094945473], "type": "Point"}, "id": "LTouwKnfIXQJ-F0c-3gg2JePaEg=", "properties": {"@spider": "usps_collection_boxes", "addr:city": "MONTROSS", "addr:country": "US", "addr:full": "15917 KINGS HWY", "addr:postcode": "22520", "addr:state": "VA", "amenity": "post_box", "brand": "United States Postal Service", "brand:wikidata": "Q668687", "collection_times": "Mo-Fr 16:30; Sa 11:30", "name": "USPS COLLECTION BOX - BLUE BOX", "note": "ON 12/24 AND 12/31, THIS BOX MAY BE COLLECTED AS EARLY AS 12 NOON.", "nsi_id": "unitedstatespostalservice-a77078", "operator": "United States Postal Service", "operator:short": "USPS", "operator:type": "public", "operator:wikidata": "Q668687", "ref": "2252000001"}, "type": "Feature"}
{"dataset_attributes": {"@spider": "usps_collection_boxes", "spider:collection_time": "2023-08-25T08:24:09.950024"}, "geometry": {"coordinates": [-76.826183648, 38.094945473], "type": "Point"}, "id": "20pGJRJaMP4bzvR9bJY3qBC2HwI=", "properties": {"@spider": "usps_collection_boxes", "addr:city": "MONTROSS", "addr:country": "US", "addr:full": "15917 KINGS HWY", "addr:postcode": "22520", "addr:state": "VA", "amenity": "post_box", "brand": "United States Postal Service", "brand:wikidata": "Q668687", "collection_times": "Mo-Fr 16:45; Sa 11:45", "name": "USPS COLLECTION BOX - PO LOBBY", "note": "ON 12/24 AND 12/31, THIS BOX MAY BE COLLECTED AS EARLY AS 12 NOON.", "nsi_id": "unitedstatespostalservice-a77078", "operator": "United States Postal Service", "operator:short": "USPS", "operator:type": "public", "operator:wikidata": "Q668687", "ref": "2252000002"}, "type": "Feature"}
{"dataset_attributes": {"@spider": "usps_collection_boxes", "spider:collection_time": "2023-08-25T08:24:09.950024"}, "geometry": {"coordinates": [-76.8303224, 38.096134], "type": "Point"}, "id": "_ThCTZBH9wDBByg6zeJ4laQOpys=", "properties": {"@spider": "usps_collection_boxes", "addr:city": "MONTROSS", "addr:country": "US", "addr:full": "111 POLK ST", "addr:postcode": "22520", "addr:state": "VA", "amenity": "post_box", "brand": "United States Postal Service", "brand:wikidata": "Q668687", "collection_times": "Mo-Fr 13:30", "name": "USPS COLLECTION BOX - BLUE BOX", "note": "ON 12/24 AND 12/31, THIS BOX MAY BE COLLECTED AS EARLY AS 12 NOON.", "nsi_id": "unitedstatespostalservice-a77078", "operator": "United States Postal Service", "operator:short": "USPS", "operator:type": "public", "operator:wikidata": "Q668687", "ref": "2252000003"}, "type": "Feature"}
{"dataset_attributes": {"@spider": "usps_collection_boxes", "spider:collection_time": "2023-08-25T08:24:09.950024"}, "geometry": {"coordinates": [-76.7102224, 38.086575], "type": "Point"}, "id": "q0VqPMH8xw4w0SZw7RMrhyBgEhk=", "properties": {"@spider": "usps_collection_boxes", "addr:city": "MONTROSS", "addr:country": "US", "addr:full": "5005 COPLE HWY", "addr:postcode": "22520", "addr:state": "VA", "amenity": "post_box", "brand": "United States Postal Service", "brand:wikidata": "Q668687", "collection_times": "Mo-Sa 13:00", "name": "USPS COLLECTION BOX - BLUE BOX", "note": "ON 12/24 AND 12/31, THIS BOX MAY BE COLLECTED AS EARLY AS 12 NOON.", "nsi_id": "unitedstatespostalservice-a77078", "operator": "United States Postal Service", "operator:short": "USPS", "operator:type": "public", "operator:wikidata": "Q668687", "ref": "2252000007"}, "type": "Feature"}
{"dataset_attributes": {"@spider": "usps_collection_boxes", "spider:collection_time": "2023-08-25T08:24:09.950024"}, "geometry": {"coordinates": [-76.826183648, 38.094945473], "type": "Point"}, "id": "zSCBtkIm1Tui4kfwyEBYE4DGROY=", "properties": {"@spider": "usps_collection_boxes", "addr:city": "MONTROSS", "addr:country": "US", "addr:full": "15917 KINGS HWY", "addr:postcode": "22520", "addr:state": "VA", "amenity": "post_box", "brand": "United States Postal Service", "brand:wikidata": "Q668687", "collection_times": "Mo-Fr 17:00; Sa 12:00", "name": "USPS COLLECTION BOX - PO LOBBY", "note": "ON 12/24 AND 12/31, THIS BOX MAY BE COLLECTED AS EARLY AS 12 NOON.", "nsi_id": "unitedstatespostalservice-a77078", "operator": "United States Postal Service", "operator:short": "USPS", "operator:type": "public", "operator:wikidata": "Q668687", "ref": "2252000008"}, "type": "Feature"}
{"dataset_attributes": {"@spider": "usps_collection_boxes", "spider:collection_time": "2023-08-25T08:24:09.950024"}, "geometry": {"coordinates": [-76.629741269, 37.788463144], "type": "Point"}, "id": "wNTsQeePNZpgfiAVcYGHuKAdb9s=", "properties": {"@spider": "usps_collection_boxes", "addr:city": "MORATTICO", "addr:country": "US", "addr:full": "6569 MORATTICO RD", "addr:postcode": "22523", "addr:state": "VA", "amenity": "post_box", "brand": "United States Postal Service", "brand:wikidata": "Q668687", "collection_times": "Mo-Sa 10:30", "name": "USPS COLLECTION BOX - BLUE BOX", "nsi_id": "unitedstatespostalservice-a77078", "operator": "United States Postal Service", "operator:short": "USPS", "operator:type": "public", "operator:wikidata": "Q668687", "ref": "2252300001"}, "type": "Feature"}
{"dataset_attributes": {"@spider": "usps_collection_boxes", "spider:collection_time": "2023-08-25T08:24:09.950024"}, "geometry": {"coordinates": [-76.629741269, 37.788463144], "type": "Point"}, "id": "iFNSv0IZ3_MoCYsD4-MbNDpVMy0=", "properties": {"@spider": "usps_collection_boxes", "addr:city": "MORATTICO", "addr:country": "US", "addr:full": "6569 MORATTICO RD", "addr:postcode": "22523", "addr:state": "VA", "amenity": "post_box", "brand": "United States Postal Service", "brand:wikidata": "Q668687", "collection_times": "Mo-Sa 10:30", "name": "USPS COLLECTION BOX - PO LOBBY", "nsi_id": "unitedstatespostalservice-a77078", "operator": "United States Postal Service", "operator:short": "USPS", "operator:type": "public", "operator:wikidata": "Q668687", "ref": "2252300002"}, "type": "Feature"}
{"dataset_attributes": {"@spider": "usps_collection_boxes", "spider:collection_time": "2023-08-25T08:24:09.950024"}, "geometry": {"coordinates": [-76.629741269, 37.788463144], "type": "Point"}, "id": "2b5oyn1GqSTq8Ose1mxjTkhEqyw=", "properties": {"@spider": "usps_collection_boxes", "addr:city": "MORATTICO", "addr:country": "US", "addr:full": "6569 MORATTICO RD", "addr:postcode": "22523", "addr:state": "VA", "amenity": "post_box", "brand": "United States Postal Service", "brand:wikidata": "Q668687", "collection_times": "Mo-Fr 14:00; Sa 15:30", "name": "USPS COLLECTION BOX - PO LOBBY", "note": "ON 12/24 AND 12/31, THIS BOX MAY BE COLLECTED AS EARLY AS 12 NOON.", "nsi_id": "unitedstatespostalservice-a77078", "operator": "United States Postal Service", "operator:short": "USPS", "operator:type": "public", "operator:wikidata": "Q668687", "ref": "2252300004"}, "type": "Feature"}
{"dataset_attributes": {"@spider": "usps_collection_boxes", "spider:collection_time": "2023-08-25T08:24:09.950024"}, "geometry": {"coordinates": [-76.719523208, 38.092014376], "type": "Point"}, "id": "bDzLk16HcH8zJ14uRO3IWiIJgBY=", "properties": {"@spider": "usps_collection_boxes", "addr:city": "MOUNT HOLLY", "addr:country": "US", "addr:full": "4375 COPLE HWY", "addr:postcode": "22524", "addr:state": "VA", "amenity": "post_box", "brand": "United States Postal Service", "brand:wikidata": "Q668687", "collection_times": "Mo-Fr 16:30; Sa 12:00", "name": "USPS COLLECTION BOX - BLUE BOX", "note": "ON 12/24 AND 12/31, THIS BOX MAY BE COLLECTED AS EARLY AS 12 NOON.", "nsi_id": "unitedstatespostalservice-a77078", "operator": "United States Postal Service", "operator:short": "USPS", "operator:type": "public", "operator:wikidata": "Q668687", "ref": "2252400001"}, "type": "Feature"}
{"dataset_attributes": {"@spider": "usps_collection_boxes", "spider:collection_time": "2023-08-25T08:24:09.950024"}, "geometry": {"coordinates": [-76.719523208, 38.092014376], "type": "Point"}, "id": "ThjxRuK4Zo6uvY34JJLKy4sBusM=", "properties": {"@spider": "usps_collection_boxes", "addr:city": "MOUNT HOLLY", "addr:country": "US", "addr:full": "4375 COPLE HWY", "addr:postcode": "22524", "addr:state": "VA", "amenity": "post_box", "brand": "United States Postal Service", "brand:wikidata": "Q668687", "collection_times": "Mo-Fr 16:30; Sa 12:00", "name": "USPS COLLECTION BOX - PO LOBBY", "note": "ON 12/24 AND 12/31, THIS BOX MAY BE COLLECTED AS EARLY AS 12 NOON.", "nsi_id": "unitedstatespostalservice-a77078", "operator": "United States Postal Service", "operator:short": "USPS", "operator:type": "public", "operator:wikidata": "Q668687", "ref": "2252400002"}, "type": "Feature"}
{"dataset_attributes": {"@spider": "usps_collection_boxes", "spider:collection_time": "2023-08-25T08:24:09.950024"}, "geometry": {"coordinates": [-76.719523208, 38.092014376], "type": "Point"}, "id": "7RPrtkVxAeBqGL7e1zka4xUxSmg=", "properties": {"@spider": "usps_collection_boxes", "addr:city": "MOUNT HOLLY", "addr:country": "US", "addr:full": "4375 COPLE HWY", "addr:postcode": "22524", "addr:state": "VA", "amenity": "post_box", "brand": "United States Postal Service", "brand:wikidata": "Q668687", "collection_times": "Mo-Fr 16:30; Sa 12:00", "name": "USPS COLLECTION BOX - PO LOBBY", "note": "ON 12/24 AND 12/31, THIS BOX MAY BE COLLECTED AS EARLY AS 12 NOON.", "nsi_id": "unitedstatespostalservice-a77078", "operator": "United States Postal Service", "operator:short": "USPS", "operator:type": "public", "operator:wikidata": "Q668687", "ref": "2252400004"}, "type": "Feature"}
{"dataset_attributes": {"@spider": "usps_collection_boxes", "spider:collection_time": "2023-08-25T08:24:09.950024"}, "geometry": {"coordinates": [-77.07208159, 38.274287543], "type": "Point"}, "id": "BGeh5YBJZNfi6qs23BqslpSHzGM=", "properties": {"@spider": "usps_collection_boxes", "addr:city": "NINDE", "addr:country": "US", "addr:full": "15488 RIDGE RD", "addr:postcode": "22526", "addr:state": "VA", "amenity": "post_box", "brand": "United States Postal Service", "brand:wikidata": "Q668687", "collection_times": "Mo-Fr 16:00; Sa 11:45", "name": "USPS COLLECTION BOX - BLUE BOX", "note": "ON 12/24 AND 12/31, THIS BOX MAY BE COLLECTED AS EARLY AS 12 NOON.", "nsi_id": "unitedstatespostalservice-a77078", "operator": "United States Postal Service", "operator:short": "USPS", "operator:type": "public", "operator:wikidata": "Q668687", "ref": "2252600001"}, "type": "Feature"}
{"dataset_attributes": {"@spider": "usps_collection_boxes", "spider:collection_time": "2023-08-25T08:24:09.950024"}, "geometry": {"coordinates": [-77.07208159, 38.274287543], "type": "Point"}, "id": "aZK1FmeXWRm_Ut5kOU3_jqZSfqg=", "properties": {"@spider": "usps_collection_boxes", "addr:city": "NINDE", "addr:country": "US", "addr:full": "15488 RIDGE RD", "addr:postcode": "22526", "addr:state": "VA", "amenity": "post_box", "brand": "United States Postal Service", "brand:wikidata": "Q668687", "collection_times": "Mo-Fr 16:00; Sa 11:45", "name": "USPS COLLECTION BOX - PO LOBBY", "note": "ON 12/24 AND 12/31, THIS BOX MAY BE COLLECTED AS EARLY AS 12 NOON.", "nsi_id": "unitedstatespostalservice-a77078", "operator": "United States Postal Service", "operator:short": "USPS", "operator:type": "public", "operator:wikidata": "Q668687", "ref": "2252600002"}, "type": "Feature"}
{"dataset_attributes": {"@spider": "usps_collection_boxes", "spider:collection_time": "2023-08-25T08:24:09.950024"}, "geometry": {"coordinates": [-77.07208159, 38.274287543], "type": "Point"}, "id": "tfuoezrh-BuJSeEaX2eH7vGzkpM=", "properties": {"@spider": "usps_collection_boxes", "addr:city": "NINDE", "addr:country": "US", "addr:full": "15488 RIDGE RD", "addr:postcode": "22526", "addr:state": "VA", "amenity": "post_box", "brand": "United States Postal Service", "brand:wikidata": "Q668687", "collection_times": "Mo-Fr 16:00; Sa 12:00", "name": "USPS COLLECTION BOX - PO LOBBY", "note": "ON 12/24 AND 12/31, THIS BOX MAY BE COLLECTED AS EARLY AS 12 NOON.", "nsi_id": "unitedstatespostalservice-a77078", "operator": "United States Postal Service", "operator:short": "USPS", "operator:type": "public", "operator:wikidata": "Q668687", "ref": "2252600004"}, "type": "Feature"}
{"dataset_attributes": {"@spider": "usps_collection_boxes", "spider:collection_time": "2023-08-25T08:24:09.950024"}, "geometry": {"coordinates": [-76.666806, 38.004161], "type": "Point"}, "id": "HGKw_vE7byHtsUOc3VRNA_gIQjA=", "properties": {"@spider": "usps_collection_boxes", "addr:city": "OLDHAMS", "addr:country": "US", "addr:full": "3498 OLDHAMS RD", "addr:postcode": "22529", "addr:state": "VA", "amenity": "post_box", "brand": "United States Postal Service", "brand:wikidata": "Q668687", "collection_times": "Mo-Fr 15:45; Sa 12:00", "name": "USPS COLLECTION BOX - PO LOBBY", "note": "ON 12/24 AND 12/31, THIS BOX MAY BE COLLECTED AS EARLY AS 12 NOON.", "nsi_id": "unitedstatespostalservice-a77078", "operator": "United States Postal Service", "operator:short": "USPS", "operator:type": "public", "operator:wikidata": "Q668687", "ref": "2252900001"}, "type": "Feature"}
{"dataset_attributes": {"@spider": "usps_collection_boxes", "spider:collection_time": "2023-08-25T08:24:09.950024"}, "geometry": {"coordinates": [-76.283299963, 37.910582332], "type": "Point"}, "id": "9u8TbMdAHIN-312BZSgKPm_JxcA=", "properties": {"@spider": "usps_collection_boxes", "addr:city": "OPHELIA", "addr:country": "US", "addr:full": "22 LIGHTHOUSE VIEW DR STE B", "addr:postcode": "22530", "addr:state": "VA", "amenity": "post_box", "brand": "United States Postal Service", "brand:wikidata": "Q668687", "collection_times": "Mo-Sa 11:00", "name": "USPS COLLECTION BOX - PO LOBBY", "nsi_id": "unitedstatespostalservice-a77078", "operator": "United States Postal Service", "operator:short": "USPS", "operator:type": "public", "operator:wikidata": "Q668687", "ref": "2253000000"}, "type": "Feature"}
{"dataset_attributes": {"@spider": "usps_collection_boxes", "spider:collection_time": "2023-08-25T08:24:09.950024"}, "geometry": {"coordinates": [-76.283299963, 37.910582332], "type": "Point"}, "id": "N6m9fLNTmjLAVU-DRjUR0MDX9VM=", "properties": {"@spider": "usps_collection_boxes", "addr:city": "OPHELIA", "addr:country": "US", "addr:full": "22 LIGHTHOUSE VIEW DR STE B", "addr:postcode": "22530", "addr:state": "VA", "amenity": "post_box", "brand": "United States Postal Service", "brand:wikidata": "Q668687", "collection_times": "Mo-Sa 11:00", "name": "USPS COLLECTION BOX - BLUE BOX", "nsi_id": "unitedstatespostalservice-a77078", "operator": "United States Postal Service", "operator:short": "USPS", "operator:type": "public", "operator:wikidata": "Q668687", "ref": "2253000001"}, "type": "Feature"}
{"dataset_attributes": {"@spider": "usps_collection_boxes", "spider:collection_time": "2023-08-25T08:24:09.950024"}, "geometry": {"coordinates": [-76.283299963, 37.910582332], "type": "Point"}, "id": "0l1iDFVgJhTDGaMtQ8L5QDB13aM=", "properties": {"@spider": "usps_collection_boxes", "addr:city": "OPHELIA", "addr:country": "US", "addr:full": "22 LIGHTHOUSE VIEW DR STE B", "addr:postcode": "22530", "addr:state": "VA", "amenity": "post_box", "brand": "United States Postal Service", "brand:wikidata": "Q668687", "collection_times": "Mo-Fr 14:00; Sa 12:30", "name": "USPS COLLECTION BOX - PO LOBBY", "note": "ON 12/24 AND 12/31, THIS BOX MAY BE COLLECTED AS EARLY AS 12 NOON.", "nsi_id": "unitedstatespostalservice-a77078", "operator": "United States Postal Service", "operator:short": "USPS", "operator:type": "public", "operator:wikidata": "Q668687", "ref": "2253000003"}, "type": "Feature"}
{"dataset_attributes": {"@spider": "usps_collection_boxes", "spider:collection_time": "2023-08-25T08:24:09.950024"}, "geometry": {"coordinates": [-77.639325945, 38.038887557], "type": "Point"}, "id": "doRG2Nm6vtMF5-JzOafncZmWQ5Q=", "properties": {"@spider": "usps_collection_boxes", "addr:city": "PARTLOW", "addr:country": "US", "addr:full": "2920 PARTLOW RD", "addr:postcode": "22534", "addr:state": "VA", "amenity": "post_box", "brand": "United States Postal Service", "brand:wikidata": "Q668687", "collection_times": "Mo-Fr 16:00; Sa 10:00", "name": "USPS COLLECTION BOX - BLUE BOX", "note": "ON 12/24 AND 12/31, THIS BOX MAY BE COLLECTED AS EARLY AS 12 NOON.", "nsi_id": "unitedstatespostalservice-a77078", "operator": "United States Postal Service", "operator:short": "USPS", "operator:type": "public", "operator:wikidata": "Q668687", "ref": "2253400001"}, "type": "Feature"}
{"dataset_attributes": {"@spider": "usps_collection_boxes", "spider:collection_time": "2023-08-25T08:24:09.950024"}, "geometry": {"coordinates": [-77.639325945, 38.038887557], "type": "Point"}, "id": "-l5QT7Vj2gzusxGUZZz9q7HnqAg=", "properties": {"@spider": "usps_collection_boxes", "addr:city": "PARTLOW", "addr:country": "US", "addr:full": "2920 PARTLOW RD", "addr:postcode": "22534", "addr:state": "VA", "amenity": "post_box", "brand": "United States Postal Service", "brand:wikidata": "Q668687", "collection_times": "Mo-Fr 16:00; Sa 10:00", "name": "USPS COLLECTION BOX - PO LOBBY", "note": "ON 12/24 AND 12/31, THIS BOX MAY BE COLLECTED AS EARLY AS 12 NOON.", "nsi_id": "unitedstatespostalservice-a77078", "operator": "United States Postal Service", "operator:short": "USPS", "operator:type": "public", "operator:wikidata": "Q668687", "ref": "2253400002"}, "type": "Feature"}
{"dataset_attributes": {"@spider": "usps_collection_boxes", "spider:collection_time": "2023-08-25T08:24:09.950024"}, "geometry": {"coordinates": [-77.639325945, 38.038887557], "type": "Point"}, "id": "ohXS36N4Cx86CvPP37ZQgqRGdgE=", "properties": {"@spider": "usps_collection_boxes", "addr:city": "PARTLOW", "addr:country": "US", "addr:full": "2920 PARTLOW RD", "addr:postcode": "22534", "addr:state": "VA", "amenity": "post_box", "brand": "United States Postal Service", "brand:wikidata": "Q668687", "collection_times": "Mo-Fr 16:00", "name": "USPS COLLECTION BOX - PO LOBBY", "note": "ON 12/24 AND 12/31, THIS BOX MAY BE COLLECTED AS EARLY AS 12 NOON.", "nsi_id": "unitedstatespostalservice-a77078", "operator": "United States Postal Service", "operator:short": "USPS", "operator:type": "public", "operator:wikidata": "Q668687", "ref": "2253400004"}, "type": "Feature"}
{"dataset_attributes": {"@spider": "usps_collection_boxes", "spider:collection_time": "2023-08-25T08:24:09.950024"}, "geometry": {"coordinates": [-77.194513414, 38.168476223], "type": "Point"}, "id": "1OqY3toqJS3WdIDNvH6m01gApMs=", "properties": {"@spider": "usps_collection_boxes", "addr:city": "PORT ROYAL", "addr:country": "US", "addr:full": "602 MAIN ST", "addr:postcode": "22535", "addr:state": "VA", "amenity": "post_box", "brand": "United States Postal Service", "brand:wikidata": "Q668687", "collection_times": "Mo-Fr 16:15; Sa 11:45", "name": "USPS COLLECTION BOX - BLUE BOX", "note": "ON 12/24 AND 12/31, THIS BOX MAY BE COLLECTED AS EARLY AS 12 NOON.", "nsi_id": "unitedstatespostalservice-a77078", "operator": "United States Postal Service", "operator:short": "USPS", "operator:type": "public", "operator:wikidata": "Q668687", "ref": "2253500001"}, "type": "Feature"}
{"dataset_attributes": {"@spider": "usps_collection_boxes", "spider:collection_time": "2023-08-25T08:24:09.950024"}, "geometry": {"coordinates": [-77.194513414, 38.168476223], "type": "Point"}, "id": "12iCeZ9AJf3CG47ocHh4p3ryxGw=", "properties": {"@spider": "usps_collection_boxes", "addr:city": "PORT ROYAL", "addr:country": "US", "addr:full": "602 MAIN ST", "addr:postcode": "22535", "addr:state": "VA", "amenity": "post_box", "brand": "United States Postal Service", "brand:wikidata": "Q668687", "collection_times": "Mo-Fr 16:15; Sa 11:45", "name": "USPS COLLECTION BOX - PO LOBBY", "note": "ON 12/24 AND 12/31, THIS BOX MAY BE COLLECTED AS EARLY AS 12 NOON.", "nsi_id": "unitedstatespostalservice-a77078", "operator": "United States Postal Service", "operator:short": "USPS", "operator:type": "public", "operator:wikidata": "Q668687", "ref": "2253500002"}, "type": "Feature"}
{"dataset_attributes": {"@spider": "usps_collection_boxes", "spider:collection_time": "2023-08-25T08:24:09.950024"}, "geometry": {"coordinates": [-77.194513414, 38.168476223], "type": "Point"}, "id": "rv1xIOhCpr8wKDE_W751-NFMPjY=", "properties": {"@spider": "usps_collection_boxes", "addr:city": "PORT ROYAL", "addr:country": "US", "addr:full": "602 MAIN ST", "addr:postcode": "22535", "addr:state": "VA", "amenity": "post_box", "brand": "United States Postal Service", "brand:wikidata": "Q668687", "collection_times": "Mo-Fr 16:15; Sa 12:00", "name": "USPS COLLECTION BOX - PO LOBBY", "note": "ON 12/24 AND 12/31, THIS BOX MAY BE COLLECTED AS EARLY AS 12 NOON.", "nsi_id": "unitedstatespostalservice-a77078", "operator": "United States Postal Service", "operator:short": "USPS", "operator:type": "public", "operator:wikidata": "Q668687", "ref": "2253500004"}, "type": "Feature"}
{"dataset_attributes": {"@spider": "usps_collection_boxes", "spider:collection_time": "2023-08-25T08:24:09.950024"}, "geometry": {"coordinates": [-77.261221, 38.173054], "type": "Point"}, "id": "N814EIpNtD-HeZ2NAwrzWzbk4q4=", "properties": {"@spider": "usps_collection_boxes", "addr:city": "RAPHANCK ACAD", "addr:country": "US", "addr:full": "22173 TIDEWATER TRL", "addr:postcode": "22538", "addr:state": "VA", "amenity": "post_box", "brand": "United States Postal Service", "brand:wikidata": "Q668687", "collection_times": "Mo-Sa 11:00", "name": "USPS COLLECTION BOX - BLUE BOX", "nsi_id": "unitedstatespostalservice-a77078", "operator": "United States Postal Service", "operator:short": "USPS", "operator:type": "public", "operator:wikidata": "Q668687", "ref": "2253800001"}, "type": "Feature"}
{"dataset_attributes": {"@spider": "usps_collection_boxes", "spider:collection_time": "2023-08-25T08:24:09.950024"}, "geometry": {"coordinates": [-77.261221, 38.173054], "type": "Point"}, "id": "DS0yZshBashhOGbJsn0AjH1eSsE=", "properties": {"@spider": "usps_collection_boxes", "addr:city": "RAPHANCK ACAD", "addr:country": "US", "addr:full": "22173 TIDEWATER TRL", "addr:postcode": "22538", "addr:state": "VA", "amenity": "post_box", "brand": "United States Postal Service", "brand:wikidata": "Q668687", "collection_times": "Mo-Sa 11:00", "name": "USPS COLLECTION BOX - PO LOBBY", "nsi_id": "unitedstatespostalservice-a77078", "operator": "United States Postal Service", "operator:short": "USPS", "operator:type": "public", "operator:wikidata": "Q668687", "ref": "2253800002"}, "type": "Feature"}
{"dataset_attributes": {"@spider": "usps_collection_boxes", "spider:collection_time": "2023-08-25T08:24:09.950024"}, "geometry": {"coordinates": [-76.274010576, 37.850522984], "type": "Point"}, "id": "SoCmMDHX8ADtXAuM6PVbQSBRM6M=", "properties": {"@spider": "usps_collection_boxes", "addr:city": "REEDVILLE", "addr:country": "US", "addr:full": "284 MORRIS AVE", "addr:postcode": "22539", "addr:state": "VA", "amenity": "post_box", "brand": "United States Postal Service", "brand:wikidata": "Q668687", "collection_times": "Mo-Fr 16:00; Sa 11:15", "name": "USPS COLLECTION BOX - BLUE BOX", "note": "ON 12/24 AND 12/31, THIS BOX MAY BE COLLECTED AS EARLY AS 12 NOON.", "nsi_id": "unitedstatespostalservice-a77078", "operator": "United States Postal Service", "operator:short": "USPS", "operator:type": "public", "operator:wikidata": "Q668687", "ref": "2253900001"}, "type": "Feature"}
{"dataset_attributes": {"@spider": "usps_collection_boxes", "spider:collection_time": "2023-08-25T08:24:09.950024"}, "geometry": {"coordinates": [-76.274010576, 37.850522984], "type": "Point"}, "id": "UJaMDmZfHKUv1aOE_IpuLd1GqQk=", "properties": {"@spider": "usps_collection_boxes", "addr:city": "REEDVILLE", "addr:country": "US", "addr:full": "284 MORRIS AVE", "addr:postcode": "22539", "addr:state": "VA", "amenity": "post_box", "brand": "United States Postal Service", "brand:wikidata": "Q668687", "collection_times": "Mo-Fr 16:00; Sa 11:30", "name": "USPS COLLECTION BOX - PO LOBBY", "note": "ON 12/24 AND 12/31, THIS BOX MAY BE COLLECTED AS EARLY AS 12 NOON.", "nsi_id": "unitedstatespostalservice-a77078", "operator": "United States Postal Service", "operator:short": "USPS", "operator:type": "public", "operator:wikidata": "Q668687", "ref": "2253900002"}, "type": "Feature"}
{"dataset_attributes": {"@spider": "usps_collection_boxes", "spider:collection_time": "2023-08-25T08:24:09.950024"}, "geometry": {"coordinates": [-76.274010576, 37.850522984], "type": "Point"}, "id": "vQ4LB542aW868UzAtX0YxMM0qEg=", "properties": {"@spider": "usps_collection_boxes", "addr:city": "REEDVILLE", "addr:country": "US", "addr:full": "284 MORRIS AVE", "addr:postcode": "22539", "addr:state": "VA", "amenity": "post_box", "brand": "United States Postal Service", "brand:wikidata": "Q668687", "collection_times": "Mo-Fr 16:00; Sa 11:30", "name": "USPS COLLECTION BOX - PO LOBBY", "note": "ON 12/24 AND 12/31, THIS BOX MAY BE COLLECTED AS EARLY AS 12 NOON.", "nsi_id": "unitedstatespostalservice-a77078", "operator": "United States Postal Service", "operator:short": "USPS", "operator:type": "public", "operator:wikidata": "Q668687", "ref": "2253900004"}, "type": "Feature"}
{"dataset_attributes": {"@spider": "usps_collection_boxes", "spider:collection_time": "2023-08-25T08:24:09.950024"}, "geometry": {"coordinates": [-77.928389, 38.273426], "type": "Point"}, "id": "0NL_iyvP0Z6Mwhw2b1SJwrlS6kQ=", "properties": {"@spider": "usps_collection_boxes", "addr:city": "RHOADESVILLE", "addr:country": "US", "addr:full": "25433 LAFAYETTE DR", "addr:postcode": "22542", "addr:state": "VA", "amenity": "post_box", "brand": "United States Postal Service", "brand:wikidata": "Q668687", "collection_times": "Mo-Fr 16:15; Sa 11:45", "name": "USPS COLLECTION BOX - BLUE BOX", "note": "ON 12/24 AND 12/31, THIS BOX MAY BE COLLECTED AS EARLY AS 12 NOON.", "nsi_id": "unitedstatespostalservice-a77078", "operator": "United States Postal Service", "operator:short": "USPS", "operator:type": "public", "operator:wikidata": "Q668687", "ref": "2254200000"}, "type": "Feature"}
{"dataset_attributes": {"@spider": "usps_collection_boxes", "spider:collection_time": "2023-08-25T08:24:09.950024"}, "geometry": {"coordinates": [-77.536296837, 38.507956417], "type": "Point"}, "id": "wmfcUZadty-twTrQkN_i9EF-F3Y=", "properties": {"@spider": "usps_collection_boxes", "addr:city": "RUBY", "addr:country": "US", "addr:full": "32 ARROWHEAD DR STE 101", "addr:postcode": "22545", "addr:state": "VA", "amenity": "post_box", "brand": "United States Postal Service", "brand:wikidata": "Q668687", "collection_times": "Mo-Sa 10:00", "name": "USPS COLLECTION BOX - BLUE BOX", "nsi_id": "unitedstatespostalservice-a77078", "operator": "United States Postal Service", "operator:short": "USPS", "operator:type": "public", "operator:wikidata": "Q668687", "ref": "2254500001"}, "type": "Feature"}
{"dataset_attributes": {"@spider": "usps_collection_boxes", "spider:collection_time": "2023-08-25T08:24:09.950024"}, "geometry": {"coordinates": [-77.537999, 38.506123], "type": "Point"}, "id": "YFO78hGsZ8xWFCp4Czw0M0o8FUk=", "properties": {"@spider": "usps_collection_boxes", "addr:city": "RUBY", "addr:country": "US", "addr:full": "32 ARROWHEAD DR", "addr:postcode": "22545", "addr:state": "VA", "amenity": "post_box", "brand": "United States Postal Service", "brand:wikidata": "Q668687", "collection_times": "Mo-Sa 10:00", "name": "USPS COLLECTION BOX - PO LOBBY", "nsi_id": "unitedstatespostalservice-a77078", "operator": "United States Postal Service", "operator:short": "USPS", "operator:type": "public", "operator:wikidata": "Q668687", "ref": "2254500002"}, "type": "Feature"}
{"dataset_attributes": {"@spider": "usps_collection_boxes", "spider:collection_time": "2023-08-25T08:24:09.950024"}, "geometry": {"coordinates": [-77.536296837, 38.507956417], "type": "Point"}, "id": "sy91g44sIs261do5zqthPKAZIIU=", "properties": {"@spider": "usps_collection_boxes", "addr:city": "RUBY", "addr:country": "US", "addr:full": "32 ARROWHEAD DR STE 101", "addr:postcode": "22545", "addr:state": "VA", "amenity": "post_box", "brand": "United States Postal Service", "brand:wikidata": "Q668687", "collection_times": "Mo-Sa 13:45", "name": "USPS COLLECTION BOX - PO LOBBY", "note": "ON 12/24 AND 12/31, THIS BOX MAY BE COLLECTED AS EARLY AS 12 NOON.", "nsi_id": "unitedstatespostalservice-a77078", "operator": "United States Postal Service", "operator:short": "USPS", "operator:type": "public", "operator:wikidata": "Q668687", "ref": "2254500004"}, "type": "Feature"}
{"dataset_attributes": {"@spider": "usps_collection_boxes", "spider:collection_time": "2023-08-25T08:24:09.950024"}, "geometry": {"coordinates": [-77.474756543, 37.934432347], "type": "Point"}, "id": "gS-Dtqh4WcZgbOeCFBN6dmOE-qo=", "properties": {"@spider": "usps_collection_boxes", "addr:city": "RUTHER GLEN", "addr:country": "US", "addr:full": "24134 WELCOME WAY DR", "addr:postcode": "22546", "addr:state": "VA", "amenity": "post_box", "brand": "United States Postal Service", "brand:wikidata": "Q668687", "collection_times": "Mo-Fr 16:00; Sa 11:45", "name": "USPS COLLECTION BOX - BLUE BOX", "note": "ON 12/24 AND 12/31, THIS BOX MAY BE COLLECTED AS EARLY AS 12 NOON.", "nsi_id": "unitedstatespostalservice-a77078", "operator": "United States Postal Service", "operator:short": "USPS", "operator:type": "public", "operator:wikidata": "Q668687", "ref": "2254600001"}, "type": "Feature"}
{"dataset_attributes": {"@spider": "usps_collection_boxes", "spider:collection_time": "2023-08-25T08:24:09.950024"}, "geometry": {"coordinates": [-77.474756543, 37.934432347], "type": "Point"}, "id": "9xQNNskHXNpGPzuJNalTTLTd0G8=", "properties": {"@spider": "usps_collection_boxes", "addr:city": "RUTHER GLEN", "addr:country": "US", "addr:full": "24134 WELCOME WAY DR", "addr:postcode": "22546", "addr:state": "VA", "amenity": "post_box", "brand": "United States Postal Service", "brand:wikidata": "Q668687", "collection_times": "Mo-Fr 16:00; Sa 12:00", "name": "USPS COLLECTION BOX - PO LOBBY", "note": "ON 12/24 AND 12/31, THIS BOX MAY BE COLLECTED AS EARLY AS 12 NOON.", "nsi_id": "unitedstatespostalservice-a77078", "operator": "United States Postal Service", "operator:short": "USPS", "operator:type": "public", "operator:wikidata": "Q668687", "ref": "2254600005"}, "type": "Feature"}
{"dataset_attributes": {"@spider": "usps_collection_boxes", "spider:collection_time": "2023-08-25T08:24:09.950024"}, "geometry": {"coordinates": [-77.474756543, 37.934432347], "type": "Point"}, "id": "-7QtJ-XDnqevx43_e7AOk6q58PA=", "properties": {"@spider": "usps_collection_boxes", "addr:city": "RUTHER GLEN", "addr:country": "US", "addr:full": "24134 WELCOME WAY DR", "addr:postcode": "22546", "addr:state": "VA", "amenity": "post_box", "brand": "United States Postal Service", "brand:wikidata": "Q668687", "collection_times": "Mo-Fr 16:30; Sa 12:00", "name": "USPS COLLECTION BOX - PO LOBBY", "note": "ON 12/24 AND 12/31, THIS BOX MAY BE COLLECTED AS EARLY AS 12 NOON.", "nsi_id": "unitedstatespostalservice-a77078", "operator": "United States Postal Service", "operator:short": "USPS", "operator:type": "public", "operator:wikidata": "Q668687", "ref": "2254600010"}, "type": "Feature"}
{"dataset_attributes": {"@spider": "usps_collection_boxes", "spider:collection_time": "2023-08-25T08:24:09.950024"}, "geometry": {"coordinates": [-77.33024472, 38.260774722], "type": "Point"}, "id": "HMLgBWOP7jkohbvzyTrR8wJO6JI=", "properties": {"@spider": "usps_collection_boxes", "addr:city": "SEALSTON", "addr:country": "US", "addr:full": "1130 KINGS HWY", "addr:postcode": "22547", "addr:state": "VA", "amenity": "post_box", "brand": "United States Postal Service", "brand:wikidata": "Q668687", "collection_times": "Mo-Fr 15:00; Sa 12:00", "name": "USPS COLLECTION BOX - BLUE BOX", "note": "ON 12/24 AND 12/31, THIS BOX MAY BE COLLECTED AS EARLY AS 12 NOON.", "nsi_id": "unitedstatespostalservice-a77078", "operator": "United States Postal Service", "operator:short": "USPS", "operator:type": "public", "operator:wikidata": "Q668687", "ref": "2254700002"}, "type": "Feature"}
{"dataset_attributes": {"@spider": "usps_collection_boxes", "spider:collection_time": "2023-08-25T08:24:09.950024"}, "geometry": {"coordinates": [-77.33024472, 38.260774722], "type": "Point"}, "id": "NdnLVlg59Vk4opEBqYBzqNIp-AI=", "properties": {"@spider": "usps_collection_boxes", "addr:city": "SEALSTON", "addr:country": "US", "addr:full": "1130 KINGS HWY", "addr:postcode": "22547", "addr:state": "VA", "amenity": "post_box", "brand": "United States Postal Service", "brand:wikidata": "Q668687", "collection_times": "Mo-Fr 15:00; Sa 12:00", "name": "USPS COLLECTION BOX - PO LOBBY", "note": "ON 12/24 AND 12/31, THIS BOX MAY BE COLLECTED AS EARLY AS 12 NOON.", "nsi_id": "unitedstatespostalservice-a77078", "operator": "United States Postal Service", "operator:short": "USPS", "operator:type": "public", "operator:wikidata": "Q668687", "ref": "2254700003"}, "type": "Feature"}
{"dataset_attributes": {"@spider": "usps_collection_boxes", "spider:collection_time": "2023-08-25T08:24:09.950024"}, "geometry": {"coordinates": [-77.33024472, 38.260774722], "type": "Point"}, "id": "UTUrEtZZh6FBYSh12Z1YZKqBGEo=", "properties": {"@spider": "usps_collection_boxes", "addr:city": "SEALSTON", "addr:country": "US", "addr:full": "1130 KINGS HWY", "addr:postcode": "22547", "addr:state": "VA", "amenity": "post_box", "brand": "United States Postal Service", "brand:wikidata": "Q668687", "collection_times": "Mo-Fr 15:30; Sa 12:15", "name": "USPS COLLECTION BOX - PO LOBBY", "note": "ON 12/24 AND 12/31, THIS BOX MAY BE COLLECTED AS EARLY AS 12 NOON.", "nsi_id": "unitedstatespostalservice-a77078", "operator": "United States Postal Service", "operator:short": "USPS", "operator:type": "public", "operator:wikidata": "Q668687", "ref": "2254700005"}, "type": "Feature"}
{"dataset_attributes": {"@spider": "usps_collection_boxes", "spider:collection_time": "2023-08-25T08:24:09.950024"}, "geometry": {"coordinates": [-76.693414992, 37.833916035], "type": "Point"}, "id": "4w_PT4PeKOhJJflCd1xoOlBE9Go=", "properties": {"@spider": "usps_collection_boxes", "addr:city": "SHARPS", "addr:country": "US", "addr:full": "5231 SHARPS RD", "addr:postcode": "22548", "addr:state": "VA", "amenity": "post_box", "brand": "United States Postal Service", "brand:wikidata": "Q668687", "collection_times": "Mo-Sa 09:30", "name": "USPS COLLECTION BOX - BLUE BOX", "nsi_id": "unitedstatespostalservice-a77078", "operator": "United States Postal Service", "operator:short": "USPS", "operator:type": "public", "operator:wikidata": "Q668687", "ref": "2254800000"}, "type": "Feature"}
{"dataset_attributes": {"@spider": "usps_collection_boxes", "spider:collection_time": "2023-08-25T08:24:09.950024"}, "geometry": {"coordinates": [-76.693414992, 37.833916035], "type": "Point"}, "id": "JHmsD_3M5d4YB_Z6_DP3pSclFrU=", "properties": {"@spider": "usps_collection_boxes", "addr:city": "SHARPS", "addr:country": "US", "addr:full": "5231 SHARPS RD", "addr:postcode": "22548", "addr:state": "VA", "amenity": "post_box", "brand": "United States Postal Service", "brand:wikidata": "Q668687", "collection_times": "Mo-Sa 09:30", "name": "USPS COLLECTION BOX - PO LOBBY", "nsi_id": "unitedstatespostalservice-a77078", "operator": "United States Postal Service", "operator:short": "USPS", "operator:type": "public", "operator:wikidata": "Q668687", "ref": "2254800001"}, "type": "Feature"}
{"dataset_attributes": {"@spider": "usps_collection_boxes", "spider:collection_time": "2023-08-25T08:24:09.950024"}, "geometry": {"coordinates": [-76.693414992, 37.833916035], "type": "Point"}, "id": "M62kC3VGm0d5wqebsfchjcSfAio=", "properties": {"@spider": "usps_collection_boxes", "addr:city": "SHARPS", "addr:country": "US", "addr:full": "5231 SHARPS RD", "addr:postcode": "22548", "addr:state": "VA", "amenity": "post_box", "brand": "United States Postal Service", "brand:wikidata": "Q668687", "collection_times": "Mo-Fr 13:00; Sa 14:00", "name": "USPS COLLECTION BOX - PO LOBBY", "note": "ON 12/24 AND 12/31, THIS BOX MAY BE COLLECTED AS EARLY AS 12 NOON.", "nsi_id": "unitedstatespostalservice-a77078", "operator": "United States Postal Service", "operator:short": "USPS", "operator:type": "public", "operator:wikidata": "Q668687", "ref": "2254800003"}, "type": "Feature"}
{"dataset_attributes": {"@spider": "usps_collection_boxes", "spider:collection_time": "2023-08-25T08:24:09.950024"}, "geometry": {"coordinates": [-77.230737003, 37.991034984], "type": "Point"}, "id": "6hKuIrt5cCMhNJ43lhd67lhl78k=", "properties": {"@spider": "usps_collection_boxes", "addr:city": "SPARTA", "addr:country": "US", "addr:full": "24100 SPARTA RD", "addr:postcode": "22552", "addr:state": "VA", "amenity": "post_box", "brand": "United States Postal Service", "brand:wikidata": "Q668687", "collection_times": "Mo-Sa 13:30", "name": "USPS COLLECTION BOX - PO LOBBY", "note": "ON 12/24 AND 12/31, THIS BOX MAY BE COLLECTED AS EARLY AS 12 NOON.", "nsi_id": "unitedstatespostalservice-a77078", "operator": "United States Postal Service", "operator:short": "USPS", "operator:type": "public", "operator:wikidata": "Q668687", "ref": "2255200004"}, "type": "Feature"}
{"dataset_attributes": {"@spider": "usps_collection_boxes", "spider:collection_time": "2023-08-25T08:24:09.950024"}, "geometry": {"coordinates": [-77.591820377, 38.202599654], "type": "Point"}, "id": "uQj_tfzwV5cae6pxN92NfqwPNJg=", "properties": {"@spider": "usps_collection_boxes", "addr:city": "SPOTSYLVANIA", "addr:country": "US", "addr:full": "7420 BROCK RD", "addr:postcode": "22553", "addr:state": "VA", "amenity": "post_box", "brand": "United States Postal Service", "brand:wikidata": "Q668687", "collection_times": "Mo-Fr 17:00; Sa 12:00", "name": "USPS COLLECTION BOX - BLUE BOX", "note": "ON 12/24 AND 12/31, THIS BOX MAY BE COLLECTED AS EARLY AS 12 NOON.", "nsi_id": "unitedstatespostalservice-a77078", "operator": "United States Postal Service", "operator:short": "USPS", "operator:type": "public", "operator:wikidata": "Q668687", "ref": "2255300001"}, "type": "Feature"}
{"dataset_attributes": {"@spider": "usps_collection_boxes", "spider:collection_time": "2023-08-25T08:24:09.950024"}, "geometry": {"coordinates": [-77.527869, 38.244305], "type": "Point"}, "id": "X6JZ4bi1cNulpWX1CHa-PrI40zk=", "properties": {"@spider": "usps_collection_boxes", "addr:city": "SPOTSYLVANIA", "addr:country": "US", "addr:full": "10400 COURTHOUSE RD", "addr:postcode": "22553", "addr:state": "VA", "amenity": "post_box", "brand": "United States Postal Service", "brand:wikidata": "Q668687", "collection_times": "Mo-Sa 10:45", "name": "USPS COLLECTION BOX - BLUE BOX", "nsi_id": "unitedstatespostalservice-a77078", "operator": "United States Postal Service", "operator:short": "USPS", "operator:type": "public", "operator:wikidata": "Q668687", "ref": "2255300002"}, "type": "Feature"}
{"dataset_attributes": {"@spider": "usps_collection_boxes", "spider:collection_time": "2023-08-25T08:24:09.950024"}, "geometry": {"coordinates": [-77.5574055, 38.233043], "type": "Point"}, "id": "UcumutaWUpF6EXG6CWDs5HY1dIw=", "properties": {"@spider": "usps_collection_boxes", "addr:city": "SPOTSYLVANIA", "addr:country": "US", "addr:full": "9801 COURTHOUSE RD", "addr:postcode": "22553", "addr:state": "VA", "amenity": "post_box", "brand": "United States Postal Service", "brand:wikidata": "Q668687", "collection_times": "Mo-Sa 10:00", "name": "USPS COLLECTION BOX - BLUE BOX", "nsi_id": "unitedstatespostalservice-a77078", "operator": "United States Postal Service", "operator:short": "USPS", "operator:type": "public", "operator:wikidata": "Q668687", "ref": "2255300005"}, "type": "Feature"}
{"dataset_attributes": {"@spider": "usps_collection_boxes", "spider:collection_time": "2023-08-25T08:24:09.950024"}, "geometry": {"coordinates": [-77.591820377, 38.202599654], "type": "Point"}, "id": "SB1G47ZyPmqEGqDf0DkmLohze9Y=", "properties": {"@spider": "usps_collection_boxes", "addr:city": "SPOTSYLVANIA", "addr:country": "US", "addr:full": "7420 BROCK RD", "addr:postcode": "22553", "addr:state": "VA", "amenity": "post_box", "brand": "United States Postal Service", "brand:wikidata": "Q668687", "collection_times": "Mo-Fr 17:00; Sa 12:00", "name": "USPS COLLECTION BOX - PO LOBBY", "note": "ON 12/24 AND 12/31, THIS BOX MAY BE COLLECTED AS EARLY AS 12 NOON.", "nsi_id": "unitedstatespostalservice-a77078", "operator": "United States Postal Service", "operator:short": "USPS", "operator:type": "public", "operator:wikidata": "Q668687", "ref": "2255300007"}, "type": "Feature"}
{"dataset_attributes": {"@spider": "usps_collection_boxes", "spider:collection_time": "2023-08-25T08:24:09.950024"}, "geometry": {"coordinates": [-77.591820377, 38.202599654], "type": "Point"}, "id": "psGW10WB-3tBikfb9JAXb01W-sM=", "properties": {"@spider": "usps_collection_boxes", "addr:city": "SPOTSYLVANIA", "addr:country": "US", "addr:full": "7420 BROCK RD", "addr:postcode": "22553", "addr:state": "VA", "amenity": "post_box", "brand": "United States Postal Service", "brand:wikidata": "Q668687", "collection_times": "Mo-Fr 17:00; Sa 12:00", "name": "USPS COLLECTION BOX - PO LOBBY", "note": "ON 12/24 AND 12/31, THIS BOX MAY BE COLLECTED AS EARLY AS 12 NOON.", "nsi_id": "unitedstatespostalservice-a77078", "operator": "United States Postal Service", "operator:short": "USPS", "operator:type": "public", "operator:wikidata": "Q668687", "ref": "2255300008"}, "type": "Feature"}
{"dataset_attributes": {"@spider": "usps_collection_boxes", "spider:collection_time": "2023-08-25T08:24:09.950024"}, "geometry": {"coordinates": [-77.591820377, 38.202599654], "type": "Point"}, "id": "LQt2q_A28Y94qVqhybb_RJp6t-s=", "properties": {"@spider": "usps_collection_boxes", "addr:city": "SPOTSYLVANIA", "addr:country": "US", "addr:full": "7420 BROCK RD", "addr:postcode": "22553", "addr:state": "VA", "amenity": "post_box", "brand": "United States Postal Service", "brand:wikidata": "Q668687", "collection_times": "Mo-Fr 17:00; Sa 12:00", "name": "USPS COLLECTION BOX - PO LOBBY", "note": "ON 12/24 AND 12/31, THIS BOX MAY BE COLLECTED AS EARLY AS 12 NOON.", "nsi_id": "unitedstatespostalservice-a77078", "operator": "United States Postal Service", "operator:short": "USPS", "operator:type": "public", "operator:wikidata": "Q668687", "ref": "2255300009"}, "type": "Feature"}
{"dataset_attributes": {"@spider": "usps_collection_boxes", "spider:collection_time": "2023-08-25T08:24:09.950024"}, "geometry": {"coordinates": [-77.591820377, 38.202599654], "type": "Point"}, "id": "vSTkR6MGjO7Oc8FnJoM6NRlU5a8=", "properties": {"@spider": "usps_collection_boxes", "addr:city": "SPOTSYLVANIA", "addr:country": "US", "addr:full": "7420 BROCK RD", "addr:postcode": "22553", "addr:state": "VA", "amenity": "post_box", "brand": "United States Postal Service", "brand:wikidata": "Q668687", "collection_times": "Mo-Fr 17:00; Sa 12:00", "name": "USPS COLLECTION BOX - PO LOBBY", "note": "ON 12/24 AND 12/31, THIS BOX MAY BE COLLECTED AS EARLY AS 12 NOON.", "nsi_id": "unitedstatespostalservice-a77078", "operator": "United States Postal Service", "operator:short": "USPS", "operator:type": "public", "operator:wikidata": "Q668687", "ref": "2255300013"}, "type": "Feature"}
{"dataset_attributes": {"@spider": "usps_collection_boxes", "spider:collection_time": "2023-08-25T08:24:09.950024"}, "geometry": {"coordinates": [-77.4254428, 38.475108], "type": "Point"}, "id": "bnykKa9-0lXesf-l4Kzc3IaV48U=", "properties": {"@spider": "usps_collection_boxes", "addr:city": "STAFFORD", "addr:country": "US", "addr:full": "385 GARRISONVILLE RD", "addr:postcode": "22554", "addr:state": "VA", "amenity": "post_box", "brand": "United States Postal Service", "brand:wikidata": "Q668687", "collection_times": "Mo-Sa 11:00", "name": "USPS COLLECTION BOX - BLUE BOX", "nsi_id": "unitedstatespostalservice-a77078", "operator": "United States Postal Service", "operator:short": "USPS", "operator:type": "public", "operator:wikidata": "Q668687", "ref": "2255400004"}, "type": "Feature"}
{"dataset_attributes": {"@spider": "usps_collection_boxes", "spider:collection_time": "2023-08-25T08:24:09.950024"}, "geometry": {"coordinates": [-77.402687037, 38.449676669], "type": "Point"}, "id": "XBybBYZNAcxq2fNbDGUMT8RaegM=", "properties": {"@spider": "usps_collection_boxes", "addr:city": "STAFFORD", "addr:country": "US", "addr:full": "2650 JEFFERSON DAVIS HWY", "addr:postcode": "22554", "addr:state": "VA", "amenity": "post_box", "brand": "United States Postal Service", "brand:wikidata": "Q668687", "collection_times": "Mo-Fr 17:00; Sa 16:30", "name": "USPS COLLECTION BOX - BLUE BOX", "note": "ON 12/24 AND 12/31, THIS BOX MAY BE COLLECTED AS EARLY AS 12 NOON.", "nsi_id": "unitedstatespostalservice-a77078", "operator": "United States Postal Service", "operator:short": "USPS", "operator:type": "public", "operator:wikidata": "Q668687", "ref": "2255400006"}, "type": "Feature"}
{"dataset_attributes": {"@spider": "usps_collection_boxes", "spider:collection_time": "2023-08-25T08:24:09.950024"}, "geometry": {"coordinates": [-77.4097847, 38.423369], "type": "Point"}, "id": "LqhQuLXRr4aJjQJQLdlNMmmplGU=", "properties": {"@spider": "usps_collection_boxes", "addr:city": "STAFFORD", "addr:country": "US", "addr:full": "1300 COURTHOUSE RD", "addr:postcode": "22554", "addr:state": "VA", "amenity": "post_box", "brand": "United States Postal Service", "brand:wikidata": "Q668687", "collection_times": "Mo-Sa 11:00", "name": "USPS COLLECTION BOX - BLUE BOX", "nsi_id": "unitedstatespostalservice-a77078", "operator": "United States Postal Service", "operator:short": "USPS", "operator:type": "public", "operator:wikidata": "Q668687", "ref": "2255400007"}, "type": "Feature"}
{"dataset_attributes": {"@spider": "usps_collection_boxes", "spider:collection_time": "2023-08-25T08:24:09.950024"}, "geometry": {"coordinates": [-77.402687037, 38.449676669], "type": "Point"}, "id": "vCK5rsSyU041IEpPuDBN-xfRgkA=", "properties": {"@spider": "usps_collection_boxes", "addr:city": "STAFFORD", "addr:country": "US", "addr:full": "2650 JEFFERSON DAVIS HWY", "addr:postcode": "22554", "addr:state": "VA", "amenity": "post_box", "brand": "United States Postal Service", "brand:wikidata": "Q668687", "collection_times": "Mo-Fr 17:00; Sa 16:30", "name": "USPS COLLECTION BOX - PO LOBBY", "note": "ON 12/24 AND 12/31, THIS BOX MAY BE COLLECTED AS EARLY AS 12 NOON.", "nsi_id": "unitedstatespostalservice-a77078", "operator": "United States Postal Service", "operator:short": "USPS", "operator:type": "public", "operator:wikidata": "Q668687", "ref": "2255400010"}, "type": "Feature"}
{"dataset_attributes": {"@spider": "usps_collection_boxes", "spider:collection_time": "2023-08-25T08:24:09.950024"}, "geometry": {"coordinates": [-77.402687037, 38.449676669], "type": "Point"}, "id": "0BKcONEfdqUiGXk8ir0fmlxzyQ4=", "properties": {"@spider": "usps_collection_boxes", "addr:city": "STAFFORD", "addr:country": "US", "addr:full": "2650 JEFFERSON DAVIS HWY", "addr:postcode": "22554", "addr:state": "VA", "amenity": "post_box", "brand": "United States Postal Service", "brand:wikidata": "Q668687", "collection_times": "Mo-Fr 17:00; Sa 16:30", "name": "USPS COLLECTION BOX - APC", "note": "ON 12/24 AND 12/31, THIS BOX MAY BE COLLECTED AS EARLY AS 12 NOON.", "nsi_id": "unitedstatespostalservice-a77078", "operator": "United States Postal Service", "operator:short": "USPS", "operator:type": "public", "operator:wikidata": "Q668687", "ref": "2255400013"}, "type": "Feature"}
{"dataset_attributes": {"@spider": "usps_collection_boxes", "spider:collection_time": "2023-08-25T08:24:09.950024"}, "geometry": {"coordinates": [-77.402687037, 38.449676669], "type": "Point"}, "id": "gfp3ZzT5fHq1KSkSSPRzE-SQMQs=", "properties": {"@spider": "usps_collection_boxes", "addr:city": "STAFFORD", "addr:country": "US", "addr:full": "2650 JEFFERSON DAVIS HWY", "addr:postcode": "22554", "addr:state": "VA", "amenity": "post_box", "brand": "United States Postal Service", "brand:wikidata": "Q668687", "collection_times": "Mo-Fr 17:00; Sa 14:00", "name": "USPS COLLECTION BOX - PO LOBBY", "note": "ON 12/24 AND 12/31, THIS BOX MAY BE COLLECTED AS EARLY AS 12 NOON.", "nsi_id": "unitedstatespostalservice-a77078", "operator": "United States Postal Service", "operator:short": "USPS", "operator:type": "public", "operator:wikidata": "Q668687", "ref": "2255400025"}, "type": "Feature"}
{"dataset_attributes": {"@spider": "usps_collection_boxes", "spider:collection_time": "2023-08-25T08:24:09.950024"}, "geometry": {"coordinates": [-77.4083584, 38.476274], "type": "Point"}, "id": "vJqZJ_ZhMhx1zFn6ZE1hKXEgRyA=", "properties": {"@spider": "usps_collection_boxes", "addr:city": "STAFFORD", "addr:country": "US", "addr:full": "1 FOXWOOD DR", "addr:postcode": "22556", "addr:state": "VA", "amenity": "post_box", "brand": "United States Postal Service", "brand:wikidata": "Q668687", "collection_times": "Mo-Sa 11:00", "name": "USPS COLLECTION BOX - BLUE BOX", "nsi_id": "unitedstatespostalservice-a77078", "operator": "United States Postal Service", "operator:short": "USPS", "operator:type": "public", "operator:wikidata": "Q668687", "ref": "2255600001"}, "type": "Feature"}
{"dataset_attributes": {"@spider": "usps_collection_boxes", "spider:collection_time": "2023-08-25T08:24:09.950024"}, "geometry": {"coordinates": [-77.4616027, 38.467886], "type": "Point"}, "id": "0-vsM4z8DzHojO-EPUgQyHDB_lE=", "properties": {"@spider": "usps_collection_boxes", "addr:city": "STAFFORD", "addr:country": "US", "addr:full": "901 GARRISONVILLE RD", "addr:postcode": "22556", "addr:state": "VA", "amenity": "post_box", "brand": "United States Postal Service", "brand:wikidata": "Q668687", "collection_times": "Mo-Sa 12:00", "name": "USPS COLLECTION BOX - BLUE BOX", "nsi_id": "unitedstatespostalservice-a77078", "operator": "United States Postal Service", "operator:short": "USPS", "operator:type": "public", "operator:wikidata": "Q668687", "ref": "2255600002"}, "type": "Feature"}
{"dataset_attributes": {"@spider": "usps_collection_boxes", "spider:collection_time": "2023-08-25T08:24:09.950024"}, "geometry": {"coordinates": [-76.8661128, 37.902335], "type": "Point"}, "id": "4xFjM2QxpeRvW8V6RkZqLZ1WCW8=", "properties": {"@spider": "usps_collection_boxes", "addr:city": "TAPPAHANNOCK", "addr:country": "US", "addr:full": "1840 TAPPAHANNOCK BLVD", "addr:postcode": "22560", "addr:state": "VA", "amenity": "post_box", "brand": "United States Postal Service", "brand:wikidata": "Q668687", "collection_times": "Mo-Fr 14:00", "name": "USPS COLLECTION BOX - BLUE BOX", "note": "ON 12/24 AND 12/31, THIS BOX MAY BE COLLECTED AS EARLY AS 12 NOON.", "nsi_id": "unitedstatespostalservice-a77078", "operator": "United States Postal Service", "operator:short": "USPS", "operator:type": "public", "operator:wikidata": "Q668687", "ref": "2256000003"}, "type": "Feature"}
{"dataset_attributes": {"@spider": "usps_collection_boxes", "spider:collection_time": "2023-08-25T08:24:09.950024"}, "geometry": {"coordinates": [-76.8605694, 37.928203], "type": "Point"}, "id": "EHdy9Ik9szxGhuXMzWTBKIpFLLA=", "properties": {"@spider": "usps_collection_boxes", "addr:city": "TAPPAHANNOCK", "addr:country": "US", "addr:full": "128 PRINCE ST", "addr:postcode": "22560", "addr:state": "VA", "amenity": "post_box", "brand": "United States Postal Service", "brand:wikidata": "Q668687", "collection_times": "Mo-Fr 14:00", "name": "USPS COLLECTION BOX - BLUE BOX", "note": "ON 12/24 AND 12/31, THIS BOX MAY BE COLLECTED AS EARLY AS 12 NOON.", "nsi_id": "unitedstatespostalservice-a77078", "operator": "United States Postal Service", "operator:short": "USPS", "operator:type": "public", "operator:wikidata": "Q668687", "ref": "2256000004"}, "type": "Feature"}
{"dataset_attributes": {"@spider": "usps_collection_boxes", "spider:collection_time": "2023-08-25T08:24:09.950024"}, "geometry": {"coordinates": [-76.857991451, 37.924192081], "type": "Point"}, "id": "ID9ILYZb-p2s0TRvYxtrT4Vmi_E=", "properties": {"@spider": "usps_collection_boxes", "addr:city": "TAPPAHANNOCK", "addr:country": "US", "addr:full": "400 WRIGHT ST", "addr:postcode": "22560", "addr:state": "VA", "amenity": "post_box", "brand": "United States Postal Service", "brand:wikidata": "Q668687", "collection_times": "Mo-Fr 17:00; Sa 12:00", "name": "USPS COLLECTION BOX - BLUE BOX", "note": "ON 12/24 AND 12/31, THIS BOX MAY BE COLLECTED AS EARLY AS 12 NOON.", "nsi_id": "unitedstatespostalservice-a77078", "operator": "United States Postal Service", "operator:short": "USPS", "operator:type": "public", "operator:wikidata": "Q668687", "ref": "2256000006"}, "type": "Feature"}
{"dataset_attributes": {"@spider": "usps_collection_boxes", "spider:collection_time": "2023-08-25T08:24:09.950024"}, "geometry": {"coordinates": [-76.857991451, 37.924192081], "type": "Point"}, "id": "UU-iY9hKqbZskX00DE1y1bqqWQE=", "properties": {"@spider": "usps_collection_boxes", "addr:city": "TAPPAHANNOCK", "addr:country": "US", "addr:full": "400 WRIGHT ST", "addr:postcode": "22560", "addr:state": "VA", "amenity": "post_box", "brand": "United States Postal Service", "brand:wikidata": "Q668687", "collection_times": "Mo-Fr 17:00; Sa 12:00", "name": "USPS COLLECTION BOX - PO LOBBY", "note": "ON 12/24 AND 12/31, THIS BOX MAY BE COLLECTED AS EARLY AS 12 NOON.", "nsi_id": "unitedstatespostalservice-a77078", "operator": "United States Postal Service", "operator:short": "USPS", "operator:type": "public", "operator:wikidata": "Q668687", "ref": "2256000007"}, "type": "Feature"}
{"dataset_attributes": {"@spider": "usps_collection_boxes", "spider:collection_time": "2023-08-25T08:24:09.950024"}, "geometry": {"coordinates": [-76.857991451, 37.924192081], "type": "Point"}, "id": "n7y3cPl8XL6Uti2QVN5vgfJXmwE=", "properties": {"@spider": "usps_collection_boxes", "addr:city": "TAPPAHANNOCK", "addr:country": "US", "addr:full": "400 WRIGHT ST", "addr:postcode": "22560", "addr:state": "VA", "amenity": "post_box", "brand": "United States Postal Service", "brand:wikidata": "Q668687", "collection_times": "Mo-Fr 17:00; Sa 12:00", "name": "USPS COLLECTION BOX - PO LOBBY", "note": "ON 12/24 AND 12/31, THIS BOX MAY BE COLLECTED AS EARLY AS 12 NOON.", "nsi_id": "unitedstatespostalservice-a77078", "operator": "United States Postal Service", "operator:short": "USPS", "operator:type": "public", "operator:wikidata": "Q668687", "ref": "2256000010"}, "type": "Feature"}
{"dataset_attributes": {"@spider": "usps_collection_boxes", "spider:collection_time": "2023-08-25T08:24:09.950024"}, "geometry": {"coordinates": [-77.519428925, 38.133192973], "type": "Point"}, "id": "TakcF6G9g2345TpUHoVjquqn-uo=", "properties": {"@spider": "usps_collection_boxes", "addr:city": "THORNBURG", "addr:country": "US", "addr:full": "5314 MUDD TAVERN RD", "addr:postcode": "22565", "addr:state": "VA", "amenity": "post_box", "brand": "United States Postal Service", "brand:wikidata": "Q668687", "collection_times": "Mo-Fr 16:00; Sa 11:30", "name": "USPS COLLECTION BOX - BLUE BOX", "note": "ON 12/24 AND 12/31, THIS BOX MAY BE COLLECTED AS EARLY AS 12 NOON.", "nsi_id": "unitedstatespostalservice-a77078", "operator": "United States Postal Service", "operator:short": "USPS", "operator:type": "public", "operator:wikidata": "Q668687", "ref": "2256500001"}, "type": "Feature"}
{"dataset_attributes": {"@spider": "usps_collection_boxes", "spider:collection_time": "2023-08-25T08:24:09.950024"}, "geometry": {"coordinates": [-77.519428925, 38.133192973], "type": "Point"}, "id": "VFO1X1Wwk09k2IdvM_iaMBrXCPo=", "properties": {"@spider": "usps_collection_boxes", "addr:city": "THORNBURG", "addr:country": "US", "addr:full": "5314 MUDD TAVERN RD", "addr:postcode": "22565", "addr:state": "VA", "amenity": "post_box", "brand": "United States Postal Service", "brand:wikidata": "Q668687", "collection_times": "Mo-Fr 16:30; Sa 11:30", "name": "USPS COLLECTION BOX - PO LOBBY", "note": "ON 12/24 AND 12/31, THIS BOX MAY BE COLLECTED AS EARLY AS 12 NOON.", "nsi_id": "unitedstatespostalservice-a77078", "operator": "United States Postal Service", "operator:short": "USPS", "operator:type": "public", "operator:wikidata": "Q668687", "ref": "2256500002"}, "type": "Feature"}
{"dataset_attributes": {"@spider": "usps_collection_boxes", "spider:collection_time": "2023-08-25T08:24:09.950024"}, "geometry": {"coordinates": [-77.519428925, 38.133192973], "type": "Point"}, "id": "uUk_jJ6B35F4HAi5WlHKS1FpH2k=", "properties": {"@spider": "usps_collection_boxes", "addr:city": "THORNBURG", "addr:country": "US", "addr:full": "5314 MUDD TAVERN RD", "addr:postcode": "22565", "addr:state": "VA", "amenity": "post_box", "brand": "United States Postal Service", "brand:wikidata": "Q668687", "collection_times": "Mo-Fr 16:30; Sa 11:30", "name": "USPS COLLECTION BOX - PO LOBBY", "note": "ON 12/24 AND 12/31, THIS BOX MAY BE COLLECTED AS EARLY AS 12 NOON.", "nsi_id": "unitedstatespostalservice-a77078", "operator": "United States Postal Service", "operator:short": "USPS", "operator:type": "public", "operator:wikidata": "Q668687", "ref": "2256500004"}, "type": "Feature"}
{"dataset_attributes": {"@spider": "usps_collection_boxes", "spider:collection_time": "2023-08-25T08:24:09.950024"}, "geometry": {"coordinates": [-77.970364, 38.259858], "type": "Point"}, "id": "dO75DlPkC8YZk9VukI95Kp8Zg9k=", "properties": {"@spider": "usps_collection_boxes", "addr:city": "UNIONVILLE", "addr:country": "US", "addr:full": "23209 VILLAGE RD", "addr:postcode": "22567", "addr:state": "VA", "amenity": "post_box", "brand": "United States Postal Service", "brand:wikidata": "Q668687", "collection_times": "Mo-Fr 16:00; Sa 10:30", "name": "USPS COLLECTION BOX - BLUE BOX", "note": "ON 12/24 AND 12/31, THIS BOX MAY BE COLLECTED AS EARLY AS 12 NOON.", "nsi_id": "unitedstatespostalservice-a77078", "operator": "United States Postal Service", "operator:short": "USPS", "operator:type": "public", "operator:wikidata": "Q668687", "ref": "2256700001"}, "type": "Feature"}
{"dataset_attributes": {"@spider": "usps_collection_boxes", "spider:collection_time": "2023-08-25T08:24:09.950024"}, "geometry": {"coordinates": [-77.970364, 38.259858], "type": "Point"}, "id": "e-xf-2k3Tm01ZDb3PZmPrXg4Xj0=", "properties": {"@spider": "usps_collection_boxes", "addr:city": "UNIONVILLE", "addr:country": "US", "addr:full": "23209 VILLAGE RD", "addr:postcode": "22567", "addr:state": "VA", "amenity": "post_box", "brand": "United States Postal Service", "brand:wikidata": "Q668687", "collection_times": "Mo-Fr 16:00; Sa 10:30", "name": "USPS COLLECTION BOX - PO LOBBY", "note": "ON 12/24 AND 12/31, THIS BOX MAY BE COLLECTED AS EARLY AS 12 NOON.", "nsi_id": "unitedstatespostalservice-a77078", "operator": "United States Postal Service", "operator:short": "USPS", "operator:type": "public", "operator:wikidata": "Q668687", "ref": "2256700002"}, "type": "Feature"}
{"dataset_attributes": {"@spider": "usps_collection_boxes", "spider:collection_time": "2023-08-25T08:24:09.950024"}, "geometry": {"coordinates": [-76.7774834, 37.963392], "type": "Point"}, "id": "DePCGHCwg9Uh9OFNdP8Ogl7hhCE=", "properties": {"@spider": "usps_collection_boxes", "addr:city": "WARSAW", "addr:country": "US", "addr:full": "4665 RICHMOND RD", "addr:postcode": "22572", "addr:state": "VA", "amenity": "post_box", "brand": "United States Postal Service", "brand:wikidata": "Q668687", "collection_times": "Mo-Sa 10:00", "name": "USPS COLLECTION BOX - BLUE BOX", "nsi_id": "unitedstatespostalservice-a77078", "operator": "United States Postal Service", "operator:short": "USPS", "operator:type": "public", "operator:wikidata": "Q668687", "ref": "2257200002"}, "type": "Feature"}
{"dataset_attributes": {"@spider": "usps_collection_boxes", "spider:collection_time": "2023-08-25T08:24:09.950024"}, "geometry": {"coordinates": [-76.755367591, 37.963159911], "type": "Point"}, "id": "Rsj8ClOBsjwVPqySNSYTL07NzPQ=", "properties": {"@spider": "usps_collection_boxes", "addr:city": "WARSAW", "addr:country": "US", "addr:full": "360 MAIN ST", "addr:postcode": "22572", "addr:state": "VA", "amenity": "post_box", "brand": "United States Postal Service", "brand:wikidata": "Q668687", "collection_times": "Mo-Fr 16:30; Sa 12:00", "name": "USPS COLLECTION BOX - BLUE BOX", "note": "ON 12/24 AND 12/31, THIS BOX MAY BE COLLECTED AS EARLY AS 12 NOON.", "nsi_id": "unitedstatespostalservice-a77078", "operator": "United States Postal Service", "operator:short": "USPS", "operator:type": "public", "operator:wikidata": "Q668687", "ref": "2257200003"}, "type": "Feature"}
{"dataset_attributes": {"@spider": "usps_collection_boxes", "spider:collection_time": "2023-08-25T08:24:09.950024"}, "geometry": {"coordinates": [-76.7574036, 37.95771], "type": "Point"}, "id": "WYGVYV8jntAuwKxTMBqEbQJjQGc=", "properties": {"@spider": "usps_collection_boxes", "addr:city": "WARSAW", "addr:country": "US", "addr:full": "100 COURT ST", "addr:postcode": "22572", "addr:state": "VA", "amenity": "post_box", "brand": "United States Postal Service", "brand:wikidata": "Q668687", "collection_times": "Mo-Sa 11:30", "name": "USPS COLLECTION BOX - BLUE BOX", "nsi_id": "unitedstatespostalservice-a77078", "operator": "United States Postal Service", "operator:short": "USPS", "operator:type": "public", "operator:wikidata": "Q668687", "ref": "2257200005"}, "type": "Feature"}
{"dataset_attributes": {"@spider": "usps_collection_boxes", "spider:collection_time": "2023-08-25T08:24:09.950024"}, "geometry": {"coordinates": [-76.755367591, 37.963159911], "type": "Point"}, "id": "rDZPGYVFTE4p1ORq6w08-p5naX0=", "properties": {"@spider": "usps_collection_boxes", "addr:city": "WARSAW", "addr:country": "US", "addr:full": "360 MAIN ST", "addr:postcode": "22572", "addr:state": "VA", "amenity": "post_box", "brand": "United States Postal Service", "brand:wikidata": "Q668687", "collection_times": "Mo-Fr 16:30; Sa 12:00", "name": "USPS COLLECTION BOX - PO LOBBY", "note": "ON 12/24 AND 12/31, THIS BOX MAY BE COLLECTED AS EARLY AS 12 NOON.", "nsi_id": "unitedstatespostalservice-a77078", "operator": "United States Postal Service", "operator:short": "USPS", "operator:type": "public", "operator:wikidata": "Q668687", "ref": "2257200008"}, "type": "Feature"}
{"dataset_attributes": {"@spider": "usps_collection_boxes", "spider:collection_time": "2023-08-25T08:24:09.950024"}, "geometry": {"coordinates": [-76.755367591, 37.963159911], "type": "Point"}, "id": "58xxRouzT8Aph33e0H9Dlia3ACc=", "properties": {"@spider": "usps_collection_boxes", "addr:city": "WARSAW", "addr:country": "US", "addr:full": "360 MAIN ST", "addr:postcode": "22572", "addr:state": "VA", "amenity": "post_box", "brand": "United States Postal Service", "brand:wikidata": "Q668687", "collection_times": "Mo-Fr 17:00; Sa 12:00", "name": "USPS COLLECTION BOX - PO LOBBY", "note": "ON 12/24 AND 12/31, THIS BOX MAY BE COLLECTED AS EARLY AS 12 NOON.", "nsi_id": "unitedstatespostalservice-a77078", "operator": "United States Postal Service", "operator:short": "USPS", "operator:type": "public", "operator:wikidata": "Q668687", "ref": "2257200012"}, "type": "Feature"}
{"dataset_attributes": {"@spider": "usps_collection_boxes", "spider:collection_time": "2023-08-25T08:24:09.950024"}, "geometry": {"coordinates": [-76.552892948, 38.064045532], "type": "Point"}, "id": "LhSFGMh2-xsmx1dbgNm6xMNjZ08=", "properties": {"@spider": "usps_collection_boxes", "addr:city": "SANDY POINT", "addr:country": "US", "addr:full": "951 SANDY POINT RD", "addr:postcode": "22577", "addr:state": "VA", "amenity": "post_box", "brand": "United States Postal Service", "brand:wikidata": "Q668687", "collection_times": "Mo-Sa 13:15", "name": "USPS COLLECTION BOX - BLUE BOX", "note": "ON 12/24 AND 12/31, THIS BOX MAY BE COLLECTED AS EARLY AS 12 NOON.", "nsi_id": "unitedstatespostalservice-a77078", "operator": "United States Postal Service", "operator:short": "USPS", "operator:type": "public", "operator:wikidata": "Q668687", "ref": "2257700001"}, "type": "Feature"}
{"dataset_attributes": {"@spider": "usps_collection_boxes", "spider:collection_time": "2023-08-25T08:24:09.950024"}, "geometry": {"coordinates": [-76.552892948, 38.064045532], "type": "Point"}, "id": "JaVmZEzO5-P-U53m8kM34nRBk8s=", "properties": {"@spider": "usps_collection_boxes", "addr:city": "SANDY POINT", "addr:country": "US", "addr:full": "951 SANDY POINT RD", "addr:postcode": "22577", "addr:state": "VA", "amenity": "post_box", "brand": "United States Postal Service", "brand:wikidata": "Q668687", "collection_times": "Mo-Sa 13:15", "name": "USPS COLLECTION BOX - PO LOBBY", "note": "ON 12/24 AND 12/31, THIS BOX MAY BE COLLECTED AS EARLY AS 12 NOON.", "nsi_id": "unitedstatespostalservice-a77078", "operator": "United States Postal Service", "operator:short": "USPS", "operator:type": "public", "operator:wikidata": "Q668687", "ref": "2257700002"}, "type": "Feature"}
{"dataset_attributes": {"@spider": "usps_collection_boxes", "spider:collection_time": "2023-08-25T08:24:09.950024"}, "geometry": {"coordinates": [-76.552892948, 38.064045532], "type": "Point"}, "id": "cR_GtfzFV-bquE9O_nK8p30XWU4=", "properties": {"@spider": "usps_collection_boxes", "addr:city": "SANDY POINT", "addr:country": "US", "addr:full": "951 SANDY POINT RD", "addr:postcode": "22577", "addr:state": "VA", "amenity": "post_box", "brand": "United States Postal Service", "brand:wikidata": "Q668687", "collection_times": "Mo-Sa 13:15", "name": "USPS COLLECTION BOX - PO LOBBY", "note": "ON 12/24 AND 12/31, THIS BOX MAY BE COLLECTED AS EARLY AS 12 NOON.", "nsi_id": "unitedstatespostalservice-a77078", "operator": "United States Postal Service", "operator:short": "USPS", "operator:type": "public", "operator:wikidata": "Q668687", "ref": "2257700005"}, "type": "Feature"}
{"dataset_attributes": {"@spider": "usps_collection_boxes", "spider:collection_time": "2023-08-25T08:24:09.950024"}, "geometry": {"coordinates": [-76.389935143, 37.648127733], "type": "Point"}, "id": "DhSjrHWfjiabqyMb51TrR5QdFxQ=", "properties": {"@spider": "usps_collection_boxes", "addr:city": "WHITE STONE", "addr:country": "US", "addr:full": "564 RAPPAHANNOCK DR", "addr:postcode": "22578", "addr:state": "VA", "amenity": "post_box", "brand": "United States Postal Service", "brand:wikidata": "Q668687", "collection_times": "Mo-Fr 16:00; Sa 12:00", "name": "USPS COLLECTION BOX - BLUE BOX", "note": "ON 12/24 AND 12/31, THIS BOX MAY BE COLLECTED AS EARLY AS 12 NOON.", "nsi_id": "unitedstatespostalservice-a77078", "operator": "United States Postal Service", "operator:short": "USPS", "operator:type": "public", "operator:wikidata": "Q668687", "ref": "2257800001"}, "type": "Feature"}
{"dataset_attributes": {"@spider": "usps_collection_boxes", "spider:collection_time": "2023-08-25T08:24:09.950024"}, "geometry": {"coordinates": [-76.389935143, 37.648127733], "type": "Point"}, "id": "PGEa8SaI5yVmmfKQ3Q-paRP3Cio=", "properties": {"@spider": "usps_collection_boxes", "addr:city": "WHITE STONE", "addr:country": "US", "addr:full": "564 RAPPAHANNOCK DR", "addr:postcode": "22578", "addr:state": "VA", "amenity": "post_box", "brand": "United States Postal Service", "brand:wikidata": "Q668687", "collection_times": "Mo-Fr 16:15; Sa 12:00", "name": "USPS COLLECTION BOX - PO LOBBY", "note": "ON 12/24 AND 12/31, THIS BOX MAY BE COLLECTED AS EARLY AS 12 NOON.", "nsi_id": "unitedstatespostalservice-a77078", "operator": "United States Postal Service", "operator:short": "USPS", "operator:type": "public", "operator:wikidata": "Q668687", "ref": "2257800004"}, "type": "Feature"}
{"dataset_attributes": {"@spider": "usps_collection_boxes", "spider:collection_time": "2023-08-25T08:24:09.950024"}, "geometry": {"coordinates": [-76.389935143, 37.648127733], "type": "Point"}, "id": "_w5SX6QH_YYDG99YtxvukGvhMRI=", "properties": {"@spider": "usps_collection_boxes", "addr:city": "WHITE STONE", "addr:country": "US", "addr:full": "564 RAPPAHANNOCK DR", "addr:postcode": "22578", "addr:state": "VA", "amenity": "post_box", "brand": "United States Postal Service", "brand:wikidata": "Q668687", "collection_times": "Mo-Fr 16:15; Sa 12:00", "name": "USPS COLLECTION BOX - PO LOBBY", "note": "ON 12/24 AND 12/31, THIS BOX MAY BE COLLECTED AS EARLY AS 12 NOON.", "nsi_id": "unitedstatespostalservice-a77078", "operator": "United States Postal Service", "operator:short": "USPS", "operator:type": "public", "operator:wikidata": "Q668687", "ref": "2257800005"}, "type": "Feature"}
{"dataset_attributes": {"@spider": "usps_collection_boxes", "spider:collection_time": "2023-08-25T08:24:09.950024"}, "geometry": {"coordinates": [-76.389935143, 37.648127733], "type": "Point"}, "id": "3e_hnbxstIpmqIhZ7dXqjEt9vDU=", "properties": {"@spider": "usps_collection_boxes", "addr:city": "WHITE STONE", "addr:country": "US", "addr:full": "564 RAPPAHANNOCK DR", "addr:postcode": "22578", "addr:state": "VA", "amenity": "post_box", "brand": "United States Postal Service", "brand:wikidata": "Q668687", "collection_times": "Mo-Fr 16:30; Sa 12:00", "name": "USPS COLLECTION BOX - PO LOBBY", "note": "ON 12/24 AND 12/31, THIS BOX MAY BE COLLECTED AS EARLY AS 12 NOON.", "nsi_id": "unitedstatespostalservice-a77078", "operator": "United States Postal Service", "operator:short": "USPS", "operator:type": "public", "operator:wikidata": "Q668687", "ref": "2257800007"}, "type": "Feature"}
{"dataset_attributes": {"@spider": "usps_collection_boxes", "spider:collection_time": "2023-08-25T08:24:09.950024"}, "geometry": {"coordinates": [-76.378402561, 37.814318948], "type": "Point"}, "id": "3cRUB6-8DcQFZq37ps4FenUJmWk=", "properties": {"@spider": "usps_collection_boxes", "addr:city": "WICOMICO CHURCH", "addr:country": "US", "addr:full": "5148 JESSE DUPONT MEMORIAL HWY", "addr:postcode": "22579", "addr:state": "VA", "amenity": "post_box", "brand": "United States Postal Service", "brand:wikidata": "Q668687", "collection_times": "Mo-Fr 16:00; Sa 12:00", "name": "USPS COLLECTION BOX - BLUE BOX", "note": "ON 12/24 AND 12/31, THIS BOX MAY BE COLLECTED AS EARLY AS 12 NOON.", "nsi_id": "unitedstatespostalservice-a77078", "operator": "United States Postal Service", "operator:short": "USPS", "operator:type": "public", "operator:wikidata": "Q668687", "ref": "2257900001"}, "type": "Feature"}
{"dataset_attributes": {"@spider": "usps_collection_boxes", "spider:collection_time": "2023-08-25T08:24:09.950024"}, "geometry": {"coordinates": [-76.378402561, 37.814318948], "type": "Point"}, "id": "C7cbJCCW-rmApk5PgupZAE2CvMQ=", "properties": {"@spider": "usps_collection_boxes", "addr:city": "WICOMICO CHURCH", "addr:country": "US", "addr:full": "5148 JESSE DUPONT MEMORIAL HWY", "addr:postcode": "22579", "addr:state": "VA", "amenity": "post_box", "brand": "United States Postal Service", "brand:wikidata": "Q668687", "collection_times": "Mo-Fr 16:00; Sa 12:00", "name": "USPS COLLECTION BOX - PO LOBBY", "note": "ON 12/24 AND 12/31, THIS BOX MAY BE COLLECTED AS EARLY AS 12 NOON.", "nsi_id": "unitedstatespostalservice-a77078", "operator": "United States Postal Service", "operator:short": "USPS", "operator:type": "public", "operator:wikidata": "Q668687", "ref": "2257900002"}, "type": "Feature"}
{"dataset_attributes": {"@spider": "usps_collection_boxes", "spider:collection_time": "2023-08-25T08:24:09.950024"}, "geometry": {"coordinates": [-76.378402561, 37.814318948], "type": "Point"}, "id": "YFXl5bzJCJ78vnk70zhewhQQNgc=", "properties": {"@spider": "usps_collection_boxes", "addr:city": "WICOMICO CHURCH", "addr:country": "US", "addr:full": "5148 JESSE DUPONT MEMORIAL HWY", "addr:postcode": "22579", "addr:state": "VA", "amenity": "post_box", "brand": "United States Postal Service", "brand:wikidata": "Q668687", "collection_times": "Mo-Fr 16:00; Sa 12:00", "name": "USPS COLLECTION BOX - PO LOBBY", "note": "ON 12/24 AND 12/31, THIS BOX MAY BE COLLECTED AS EARLY AS 12 NOON.", "nsi_id": "unitedstatespostalservice-a77078", "operator": "United States Postal Service", "operator:short": "USPS", "operator:type": "public", "operator:wikidata": "Q668687", "ref": "2257900003"}, "type": "Feature"}
{"dataset_attributes": {"@spider": "usps_collection_boxes", "spider:collection_time": "2023-08-25T08:24:09.950024"}, "geometry": {"coordinates": [-77.409309167, 38.112128382], "type": "Point"}, "id": "C4hNFzTLvVIau84JxRQuOAjO2-A=", "properties": {"@spider": "usps_collection_boxes", "addr:city": "WOODFORD", "addr:country": "US", "addr:full": "11087 WOODFORD RD", "addr:postcode": "22580", "addr:state": "VA", "amenity": "post_box", "brand": "United States Postal Service", "brand:wikidata": "Q668687", "collection_times": "Mo-Fr 16:15; Sa 10:15", "name": "USPS COLLECTION BOX - BLUE BOX", "note": "ON 12/24 AND 12/31, THIS BOX MAY BE COLLECTED AS EARLY AS 12 NOON.", "nsi_id": "unitedstatespostalservice-a77078", "operator": "United States Postal Service", "operator:short": "USPS", "operator:type": "public", "operator:wikidata": "Q668687", "ref": "2258000001"}, "type": "Feature"}
{"dataset_attributes": {"@spider": "usps_collection_boxes", "spider:collection_time": "2023-08-25T08:24:09.950024"}, "geometry": {"coordinates": [-77.409309167, 38.112128382], "type": "Point"}, "id": "E3rXZxkXVs9cTuTqRILQA8EXHW4=", "properties": {"@spider": "usps_collection_boxes", "addr:city": "WOODFORD", "addr:country": "US", "addr:full": "11087 WOODFORD RD", "addr:postcode": "22580", "addr:state": "VA", "amenity": "post_box", "brand": "United States Postal Service", "brand:wikidata": "Q668687", "collection_times": "Mo-Fr 16:15; Sa 10:15", "name": "USPS COLLECTION BOX - PO LOBBY", "note": "ON 12/24 AND 12/31, THIS BOX MAY BE COLLECTED AS EARLY AS 12 NOON.", "nsi_id": "unitedstatespostalservice-a77078", "operator": "United States Postal Service", "operator:short": "USPS", "operator:type": "public", "operator:wikidata": "Q668687", "ref": "2258000002"}, "type": "Feature"}
{"dataset_attributes": {"@spider": "usps_collection_boxes", "spider:collection_time": "2023-08-25T08:24:09.950024"}, "geometry": {"coordinates": [-77.409309167, 38.112128382], "type": "Point"}, "id": "QERPZeHq8wQ5uFI0IkIWXmjDuks=", "properties": {"@spider": "usps_collection_boxes", "addr:city": "WOODFORD", "addr:country": "US", "addr:full": "11087 WOODFORD RD", "addr:postcode": "22580", "addr:state": "VA", "amenity": "post_box", "brand": "United States Postal Service", "brand:wikidata": "Q668687", "collection_times": "Mo-Fr 16:30; Sa 10:30", "name": "USPS COLLECTION BOX - PO LOBBY", "note": "ON 12/24 AND 12/31, THIS BOX MAY BE COLLECTED AS EARLY AS 12 NOON.", "nsi_id": "unitedstatespostalservice-a77078", "operator": "United States Postal Service", "operator:short": "USPS", "operator:type": "public", "operator:wikidata": "Q668687", "ref": "2258000004"}, "type": "Feature"}
