{"dataset_attributes": {"@spider": "usps_collection_boxes", "spider:collection_time": "2023-10-13T08:25:25.513886"}, "geometry": {"coordinates": [-78.1669369983, 39.1845299859], "type": "Point"}, "id": "9j1U8etlX7vhQ_akmxf2HG7i9wA=", "properties": {"@spider": "usps_collection_boxes", "addr:city": "WINCHESTER", "addr:country": "US", "addr:full": "48 W BOSCAWEN ST", "addr:postcode": "22601", "addr:state": "VA", "amenity": "post_box", "brand": "United States Postal Service", "brand:wikidata": "Q668687", "collection_times": "Mo-Fr 12:00", "name": "USPS COLLECTION BOX - BLUE BOX", "nsi_id": "unitedstatespostalservice-a77078", "operator": "United States Postal Service", "operator:short": "USPS", "operator:type": "public", "operator:wikidata": "Q668687", "ref": "2260100049"}, "type": "Feature"}
{"dataset_attributes": {"@spider": "usps_collection_boxes", "spider:collection_time": "2023-10-13T08:25:25.513886"}, "geometry": {"coordinates": [-78.1661580143, 39.186755229], "type": "Point"}, "id": "XrcLklMgNFEVtwYT9picVq-pfG4=", "properties": {"@spider": "usps_collection_boxes", "addr:city": "WINCHESTER", "addr:country": "US", "addr:full": "204 N BRADDOCK ST", "addr:postcode": "22601", "addr:state": "VA", "amenity": "post_box", "brand": "United States Postal Service", "brand:wikidata": "Q668687", "collection_times": "Mo-Sa 12:00", "name": "USPS COLLECTION BOX - BLUE BOX", "nsi_id": "unitedstatespostalservice-a77078", "operator": "United States Postal Service", "operator:short": "USPS", "operator:type": "public", "operator:wikidata": "Q668687", "ref": "2260100050"}, "type": "Feature"}
{"dataset_attributes": {"@spider": "usps_collection_boxes", "spider:collection_time": "2023-10-13T08:25:25.513886"}, "geometry": {"coordinates": [-78.153429, 39.185214], "type": "Point"}, "id": "q7JEQ0L4SocDQgh8DXQuuwN09eI=", "properties": {"@spider": "usps_collection_boxes", "addr:city": "WINCHESTER", "addr:country": "US", "addr:full": "340 N PLEASANT VALLEY RD", "addr:postcode": "22601", "addr:state": "VA", "amenity": "post_box", "brand": "United States Postal Service", "brand:wikidata": "Q668687", "collection_times": "Mo-Sa 17:00", "name": "USPS COLLECTION BOX - BLUE BOX", "note": "ON 12/24 AND 12/31, THIS BOX MAY BE COLLECTED AS EARLY AS 12 NOON.", "nsi_id": "unitedstatespostalservice-a77078", "operator": "United States Postal Service", "operator:short": "USPS", "operator:type": "public", "operator:wikidata": "Q668687", "ref": "2260100063"}, "type": "Feature"}
{"dataset_attributes": {"@spider": "usps_collection_boxes", "spider:collection_time": "2023-10-13T08:25:25.513886"}, "geometry": {"coordinates": [-78.1834199, 39.160971], "type": "Point"}, "id": "1DhgizG_2ecUjIi_nzdcuvH0cBc=", "properties": {"@spider": "usps_collection_boxes", "addr:city": "WINCHESTER", "addr:country": "US", "addr:full": "2232 VALLEY AVE", "addr:postcode": "22601", "addr:state": "VA", "amenity": "post_box", "brand": "United States Postal Service", "brand:wikidata": "Q668687", "collection_times": "Mo-Fr 15:00; Sa 16:00", "name": "USPS COLLECTION BOX - BLUE BOX", "note": "ON 12/24 AND 12/31, THIS BOX MAY BE COLLECTED AS EARLY AS 12 NOON.", "nsi_id": "unitedstatespostalservice-a77078", "operator": "United States Postal Service", "operator:short": "USPS", "operator:type": "public", "operator:wikidata": "Q668687", "ref": "2260100068"}, "type": "Feature"}
{"dataset_attributes": {"@spider": "usps_collection_boxes", "spider:collection_time": "2023-10-13T08:25:25.513886"}, "geometry": {"coordinates": [-78.1835354, 39.160979], "type": "Point"}, "id": "ljhpDpuuZTGhQzCC9a2zcKs30IU=", "properties": {"@spider": "usps_collection_boxes", "addr:city": "WINCHESTER", "addr:country": "US", "addr:full": "2232 VALLEY AVE", "addr:postcode": "22601", "addr:state": "VA", "amenity": "post_box", "brand": "United States Postal Service", "brand:wikidata": "Q668687", "collection_times": "Mo-Fr 15:00; Sa 16:00", "name": "USPS COLLECTION BOX - BLUE BOX", "note": "ON 12/24 AND 12/31, THIS BOX MAY BE COLLECTED AS EARLY AS 12 NOON.", "nsi_id": "unitedstatespostalservice-a77078", "operator": "United States Postal Service", "operator:short": "USPS", "operator:type": "public", "operator:wikidata": "Q668687", "ref": "2260100069"}, "type": "Feature"}
{"dataset_attributes": {"@spider": "usps_collection_boxes", "spider:collection_time": "2023-10-13T08:25:25.513886"}, "geometry": {"coordinates": [-78.1670739586, 39.1853680085], "type": "Point"}, "id": "ZkVFvAntWEF_-cbmEa-H7q7ogCw=", "properties": {"@spider": "usps_collection_boxes", "addr:city": "WINCHESTER", "addr:country": "US", "addr:full": "35 N BRADDOCK ST", "addr:postcode": "22601", "addr:state": "VA", "amenity": "post_box", "brand": "United States Postal Service", "brand:wikidata": "Q668687", "collection_times": "Mo-Fr 09:00", "name": "USPS COLLECTION BOX - BLUE BOX", "nsi_id": "unitedstatespostalservice-a77078", "operator": "United States Postal Service", "operator:short": "USPS", "operator:type": "public", "operator:wikidata": "Q668687", "ref": "2260100076"}, "type": "Feature"}
{"dataset_attributes": {"@spider": "usps_collection_boxes", "spider:collection_time": "2023-10-13T08:25:25.513886"}, "geometry": {"coordinates": [-78.1620795, 39.183489], "type": "Point"}, "id": "sDsUNPAKZnFiCggGY0NboX414a0=", "properties": {"@spider": "usps_collection_boxes", "addr:city": "WINCHESTER", "addr:country": "US", "addr:full": "2 N KENT ST", "addr:postcode": "22601", "addr:state": "VA", "amenity": "post_box", "brand": "United States Postal Service", "brand:wikidata": "Q668687", "collection_times": "Mo-Fr 14:00", "name": "USPS COLLECTION BOX - BLUE BOX", "note": "ON 12/24 AND 12/31, THIS BOX MAY BE COLLECTED AS EARLY AS 12 NOON.", "nsi_id": "unitedstatespostalservice-a77078", "operator": "United States Postal Service", "operator:short": "USPS", "operator:type": "public", "operator:wikidata": "Q668687", "ref": "2260100078"}, "type": "Feature"}
{"dataset_attributes": {"@spider": "usps_collection_boxes", "spider:collection_time": "2023-10-13T08:25:25.513886"}, "geometry": {"coordinates": [-78.1612189, 39.198376], "type": "Point"}, "id": "Bdj-DesFMX2K1T_mm-qgAIUCoKA=", "properties": {"@spider": "usps_collection_boxes", "addr:city": "WINCHESTER", "addr:country": "US", "addr:full": "717 N BRADDOCK ST", "addr:postcode": "22601", "addr:state": "VA", "amenity": "post_box", "brand": "United States Postal Service", "brand:wikidata": "Q668687", "collection_times": "Mo-Sa 10:45", "name": "USPS COLLECTION BOX - BLUE BOX", "nsi_id": "unitedstatespostalservice-a77078", "operator": "United States Postal Service", "operator:short": "USPS", "operator:type": "public", "operator:wikidata": "Q668687", "ref": "2260100082"}, "type": "Feature"}
{"dataset_attributes": {"@spider": "usps_collection_boxes", "spider:collection_time": "2023-10-13T08:25:25.513886"}, "geometry": {"coordinates": [-78.1633481962, 39.1814487625], "type": "Point"}, "id": "QQ-CJpFXORpxs-v4FV6YIzVdZYk=", "properties": {"@spider": "usps_collection_boxes", "addr:city": "WINCHESTER", "addr:country": "US", "addr:full": "200 E CORK ST", "addr:postcode": "22601", "addr:state": "VA", "amenity": "post_box", "brand": "United States Postal Service", "brand:wikidata": "Q668687", "collection_times": "Mo-Fr 11:00", "name": "USPS COLLECTION BOX - BLUE BOX", "nsi_id": "unitedstatespostalservice-a77078", "operator": "United States Postal Service", "operator:short": "USPS", "operator:type": "public", "operator:wikidata": "Q668687", "ref": "2260100088"}, "type": "Feature"}
{"dataset_attributes": {"@spider": "usps_collection_boxes", "spider:collection_time": "2023-10-13T08:25:25.513886"}, "geometry": {"coordinates": [-78.1665070067, 39.1822130183], "type": "Point"}, "id": "OoaU-HkyET2_A-hnRPsK9AIe4aU=", "properties": {"@spider": "usps_collection_boxes", "addr:city": "WINCHESTER", "addr:country": "US", "addr:full": "141 S LOUDOUN ST", "addr:postcode": "22601", "addr:state": "VA", "amenity": "post_box", "brand": "United States Postal Service", "brand:wikidata": "Q668687", "collection_times": "Mo-Fr 11:30", "name": "USPS COLLECTION BOX - BLUE BOX", "nsi_id": "unitedstatespostalservice-a77078", "operator": "United States Postal Service", "operator:short": "USPS", "operator:type": "public", "operator:wikidata": "Q668687", "ref": "2260100089"}, "type": "Feature"}
{"dataset_attributes": {"@spider": "usps_collection_boxes", "spider:collection_time": "2023-10-13T08:25:25.513886"}, "geometry": {"coordinates": [-78.1839804, 39.155339], "type": "Point"}, "id": "m1TAin5PrWtoUlKkyIYW-JLW0As=", "properties": {"@spider": "usps_collection_boxes", "addr:city": "WINCHESTER", "addr:country": "US", "addr:full": "221 PEPPERTREE LN", "addr:postcode": "22601", "addr:state": "VA", "amenity": "post_box", "brand": "United States Postal Service", "brand:wikidata": "Q668687", "collection_times": "Mo-Sa 09:45", "name": "USPS COLLECTION BOX - BLUE BOX", "nsi_id": "unitedstatespostalservice-a77078", "operator": "United States Postal Service", "operator:short": "USPS", "operator:type": "public", "operator:wikidata": "Q668687", "ref": "2260100100"}, "type": "Feature"}
{"dataset_attributes": {"@spider": "usps_collection_boxes", "spider:collection_time": "2023-10-13T08:25:25.513886"}, "geometry": {"coordinates": [-78.163314517, 39.186142938], "type": "Point"}, "id": "fqIeiS87KpEjIBe6ZUj4yuFL7ow=", "properties": {"@spider": "usps_collection_boxes", "addr:city": "WINCHESTER", "addr:country": "US", "addr:full": "205 N CAMERON ST", "addr:postcode": "22601", "addr:state": "VA", "amenity": "post_box", "brand": "United States Postal Service", "brand:wikidata": "Q668687", "collection_times": "Mo-Fr 12:00", "name": "USPS COLLECTION BOX - BLUE BOX", "nsi_id": "unitedstatespostalservice-a77078", "operator": "United States Postal Service", "operator:short": "USPS", "operator:type": "public", "operator:wikidata": "Q668687", "ref": "2260100101"}, "type": "Feature"}
{"dataset_attributes": {"@spider": "usps_collection_boxes", "spider:collection_time": "2023-10-13T08:25:25.513886"}, "geometry": {"coordinates": [-78.1706849663, 39.184705], "type": "Point"}, "id": "-qksZfLROLwi_5sh3qkHO8HKHCI=", "properties": {"@spider": "usps_collection_boxes", "addr:city": "WINCHESTER", "addr:country": "US", "addr:full": "9 S STEWART ST", "addr:postcode": "22601", "addr:state": "VA", "amenity": "post_box", "brand": "United States Postal Service", "brand:wikidata": "Q668687", "collection_times": "Mo-Fr 14:00", "name": "USPS COLLECTION BOX - BLUE BOX", "note": "ON 12/24 AND 12/31, THIS BOX MAY BE COLLECTED AS EARLY AS 12 NOON.", "nsi_id": "unitedstatespostalservice-a77078", "operator": "United States Postal Service", "operator:short": "USPS", "operator:type": "public", "operator:wikidata": "Q668687", "ref": "2260100106"}, "type": "Feature"}
{"dataset_attributes": {"@spider": "usps_collection_boxes", "spider:collection_time": "2023-10-13T08:25:25.513886"}, "geometry": {"coordinates": [-78.178804, 39.158854], "type": "Point"}, "id": "Uau_PN7kTsCbW7JjTlYGceM8-Eo=", "properties": {"@spider": "usps_collection_boxes", "addr:city": "WINCHESTER", "addr:country": "US", "addr:full": "114 TAFT AVE", "addr:postcode": "22601", "addr:state": "VA", "amenity": "post_box", "brand": "United States Postal Service", "brand:wikidata": "Q668687", "collection_times": "Mo-Sa 09:45", "name": "USPS COLLECTION BOX - BLUE BOX", "nsi_id": "unitedstatespostalservice-a77078", "operator": "United States Postal Service", "operator:short": "USPS", "operator:type": "public", "operator:wikidata": "Q668687", "ref": "2260100107"}, "type": "Feature"}
{"dataset_attributes": {"@spider": "usps_collection_boxes", "spider:collection_time": "2023-10-13T08:25:25.513886"}, "geometry": {"coordinates": [-78.1685759957, 39.1845589872], "type": "Point"}, "id": "Oj6CfCG6kYsl9Hz7vr_0zE53FZY=", "properties": {"@spider": "usps_collection_boxes", "addr:city": "WINCHESTER", "addr:country": "US", "addr:full": "4 S WASHINGTON ST", "addr:postcode": "22601", "addr:state": "VA", "amenity": "post_box", "brand": "United States Postal Service", "brand:wikidata": "Q668687", "collection_times": "Mo-Fr 09:00", "name": "USPS COLLECTION BOX - BLUE BOX", "nsi_id": "unitedstatespostalservice-a77078", "operator": "United States Postal Service", "operator:short": "USPS", "operator:type": "public", "operator:wikidata": "Q668687", "ref": "2260100108"}, "type": "Feature"}
{"dataset_attributes": {"@spider": "usps_collection_boxes", "spider:collection_time": "2023-10-13T08:25:25.513886"}, "geometry": {"coordinates": [-78.1874376, 39.147052], "type": "Point"}, "id": "wSWPYYDqwpUOIVb6fHCTSQlb2qY=", "properties": {"@spider": "usps_collection_boxes", "addr:city": "WINCHESTER", "addr:country": "US", "addr:full": "412 PIN OAK LN", "addr:postcode": "22601", "addr:state": "VA", "amenity": "post_box", "brand": "United States Postal Service", "brand:wikidata": "Q668687", "collection_times": "Mo-Fr 11:00; Sa 10:00", "name": "USPS COLLECTION BOX - BLUE BOX", "nsi_id": "unitedstatespostalservice-a77078", "operator": "United States Postal Service", "operator:short": "USPS", "operator:type": "public", "operator:wikidata": "Q668687", "ref": "2260100109"}, "type": "Feature"}
{"dataset_attributes": {"@spider": "usps_collection_boxes", "spider:collection_time": "2023-10-13T08:25:25.513886"}, "geometry": {"coordinates": [-78.1723711, 39.18355], "type": "Point"}, "id": "xTpsPAMmuoCHYTt79GYzb-Z1zVA=", "properties": {"@spider": "usps_collection_boxes", "addr:city": "WINCHESTER", "addr:country": "US", "addr:full": "333 W CORK ST", "addr:postcode": "22601", "addr:state": "VA", "amenity": "post_box", "brand": "United States Postal Service", "brand:wikidata": "Q668687", "collection_times": "Mo-Fr 14:30", "name": "USPS COLLECTION BOX - BLUE BOX", "note": "ON 12/24 AND 12/31, THIS BOX MAY BE COLLECTED AS EARLY AS 12 NOON.", "nsi_id": "unitedstatespostalservice-a77078", "operator": "United States Postal Service", "operator:short": "USPS", "operator:type": "public", "operator:wikidata": "Q668687", "ref": "2260100119"}, "type": "Feature"}
{"dataset_attributes": {"@spider": "usps_collection_boxes", "spider:collection_time": "2023-10-13T08:25:25.513886"}, "geometry": {"coordinates": [-78.1946374, 39.193613], "type": "Point"}, "id": "AkpJ3ung65WKACBIUbHY8czqU6o=", "properties": {"@spider": "usps_collection_boxes", "addr:city": "WINCHESTER", "addr:country": "US", "addr:full": "1870 AMHERST ST", "addr:postcode": "22601", "addr:state": "VA", "amenity": "post_box", "brand": "United States Postal Service", "brand:wikidata": "Q668687", "collection_times": "Mo-Fr 09:00", "name": "USPS COLLECTION BOX - BLUE BOX", "nsi_id": "unitedstatespostalservice-a77078", "operator": "United States Postal Service", "operator:short": "USPS", "operator:type": "public", "operator:wikidata": "Q668687", "ref": "2260100120"}, "type": "Feature"}
{"dataset_attributes": {"@spider": "usps_collection_boxes", "spider:collection_time": "2023-10-13T08:25:25.513886"}, "geometry": {"coordinates": [-78.1933661, 39.19573], "type": "Point"}, "id": "2wLCwnMSmYGSle_jSnI_HuwirUM=", "properties": {"@spider": "usps_collection_boxes", "addr:city": "WINCHESTER", "addr:country": "US", "addr:full": "190 CAMPUS BLVD", "addr:postcode": "22601", "addr:state": "VA", "amenity": "post_box", "brand": "United States Postal Service", "brand:wikidata": "Q668687", "collection_times": "Mo-Fr 14:00", "name": "USPS COLLECTION BOX - BLUE BOX", "note": "ON 12/24 AND 12/31, THIS BOX MAY BE COLLECTED AS EARLY AS 12 NOON.", "nsi_id": "unitedstatespostalservice-a77078", "operator": "United States Postal Service", "operator:short": "USPS", "operator:type": "public", "operator:wikidata": "Q668687", "ref": "2260100121"}, "type": "Feature"}
{"dataset_attributes": {"@spider": "usps_collection_boxes", "spider:collection_time": "2023-10-13T08:25:25.513886"}, "geometry": {"coordinates": [-78.153468, 39.185206], "type": "Point"}, "id": "yC7o4BXdXlnm8mRh6QhXrHBL2ow=", "properties": {"@spider": "usps_collection_boxes", "addr:city": "WINCHESTER", "addr:country": "US", "addr:full": "340 N PLEASANT VALLEY RD", "addr:postcode": "22601", "addr:state": "VA", "amenity": "post_box", "brand": "United States Postal Service", "brand:wikidata": "Q668687", "collection_times": "Mo-Sa 17:00", "name": "USPS COLLECTION BOX - BLUE BOX", "note": "ON 12/24 AND 12/31, THIS BOX MAY BE COLLECTED AS EARLY AS 12 NOON.", "nsi_id": "unitedstatespostalservice-a77078", "operator": "United States Postal Service", "operator:short": "USPS", "operator:type": "public", "operator:wikidata": "Q668687", "ref": "2260100124"}, "type": "Feature"}
{"dataset_attributes": {"@spider": "usps_collection_boxes", "spider:collection_time": "2023-10-13T08:25:25.513886"}, "geometry": {"coordinates": [-78.1814413, 39.170146], "type": "Point"}, "id": "8UHkUDS6U8u_GwYeUYXx0L0Nwd4=", "properties": {"@spider": "usps_collection_boxes", "addr:city": "WINCHESTER", "addr:country": "US", "addr:full": "440 W JUBAL EARLY DR", "addr:postcode": "22601", "addr:state": "VA", "amenity": "post_box", "brand": "United States Postal Service", "brand:wikidata": "Q668687", "collection_times": "Mo-Fr 14:30", "name": "USPS COLLECTION BOX - BLUE BOX", "note": "ON 12/24 AND 12/31, THIS BOX MAY BE COLLECTED AS EARLY AS 12 NOON.", "nsi_id": "unitedstatespostalservice-a77078", "operator": "United States Postal Service", "operator:short": "USPS", "operator:type": "public", "operator:wikidata": "Q668687", "ref": "2260100130"}, "type": "Feature"}
{"dataset_attributes": {"@spider": "usps_collection_boxes", "spider:collection_time": "2023-10-13T08:25:25.513886"}, "geometry": {"coordinates": [-78.1721083, 39.156524], "type": "Point"}, "id": "77medzvoA76GAiVZ2M6-PJtaR_A=", "properties": {"@spider": "usps_collection_boxes", "addr:city": "WINCHESTER", "addr:country": "US", "addr:full": "2300 S PLEASANT VALLEY RD", "addr:postcode": "22601", "addr:state": "VA", "amenity": "post_box", "brand": "United States Postal Service", "brand:wikidata": "Q668687", "collection_times": "Mo-Sa 09:00", "name": "USPS COLLECTION BOX - BLUE BOX", "nsi_id": "unitedstatespostalservice-a77078", "operator": "United States Postal Service", "operator:short": "USPS", "operator:type": "public", "operator:wikidata": "Q668687", "ref": "2260100131"}, "type": "Feature"}
{"dataset_attributes": {"@spider": "usps_collection_boxes", "spider:collection_time": "2023-10-13T08:25:25.513886"}, "geometry": {"coordinates": [-78.153468, 39.185206], "type": "Point"}, "id": "BFoiFdYjKXgITkQNvCSaV_MeVLg=", "properties": {"@spider": "usps_collection_boxes", "addr:city": "WINCHESTER", "addr:country": "US", "addr:full": "340 N PLEASANT VALLEY RD", "addr:postcode": "22601", "addr:state": "VA", "amenity": "post_box", "brand": "United States Postal Service", "brand:wikidata": "Q668687", "collection_times": "Mo-Fr 17:30; Sa 17:00", "name": "USPS COLLECTION BOX - APC", "note": "ON 12/24 AND 12/31, THIS BOX MAY BE COLLECTED AS EARLY AS 12 NOON.", "nsi_id": "unitedstatespostalservice-a77078", "operator": "United States Postal Service", "operator:short": "USPS", "operator:type": "public", "operator:wikidata": "Q668687", "ref": "2260100132"}, "type": "Feature"}
{"dataset_attributes": {"@spider": "usps_collection_boxes", "spider:collection_time": "2023-10-13T08:25:25.513886"}, "geometry": {"coordinates": [-78.153468, 39.185206], "type": "Point"}, "id": "Nj4VD9yav1-qekHf0u4nFTsEBw0=", "properties": {"@spider": "usps_collection_boxes", "addr:city": "WINCHESTER", "addr:country": "US", "addr:full": "340 N PLEASANT VALLEY RD", "addr:postcode": "22601", "addr:state": "VA", "amenity": "post_box", "brand": "United States Postal Service", "brand:wikidata": "Q668687", "collection_times": "Mo-Fr 17:30; Sa 17:00", "name": "USPS COLLECTION BOX - PO LOBBY", "note": "ON 12/24 AND 12/31, THIS BOX MAY BE COLLECTED AS EARLY AS 12 NOON.", "nsi_id": "unitedstatespostalservice-a77078", "operator": "United States Postal Service", "operator:short": "USPS", "operator:type": "public", "operator:wikidata": "Q668687", "ref": "2260100133"}, "type": "Feature"}
{"dataset_attributes": {"@spider": "usps_collection_boxes", "spider:collection_time": "2023-10-13T08:25:25.513886"}, "geometry": {"coordinates": [-78.153468, 39.185206], "type": "Point"}, "id": "poKyfiVGZWTNbYBaJ0mZUdob_hQ=", "properties": {"@spider": "usps_collection_boxes", "addr:city": "WINCHESTER", "addr:country": "US", "addr:full": "340 N PLEASANT VALLEY RD", "addr:postcode": "22601", "addr:state": "VA", "amenity": "post_box", "brand": "United States Postal Service", "brand:wikidata": "Q668687", "collection_times": "Mo-Fr 17:30; Sa 17:00", "name": "USPS COLLECTION BOX - PO LOBBY", "note": "ON 12/24 AND 12/31, THIS BOX MAY BE COLLECTED AS EARLY AS 12 NOON.", "nsi_id": "unitedstatespostalservice-a77078", "operator": "United States Postal Service", "operator:short": "USPS", "operator:type": "public", "operator:wikidata": "Q668687", "ref": "2260100134"}, "type": "Feature"}
{"dataset_attributes": {"@spider": "usps_collection_boxes", "spider:collection_time": "2023-10-13T08:25:25.513886"}, "geometry": {"coordinates": [-78.164055194, 39.183829507], "type": "Point"}, "id": "Kh0sHA9oUCoQKUQi5BLiQTn2UgU=", "properties": {"@spider": "usps_collection_boxes", "addr:city": "WINCHESTER", "addr:country": "US", "addr:full": "22 N CAMERON ST", "addr:postcode": "22601", "addr:state": "VA", "amenity": "post_box", "brand": "United States Postal Service", "brand:wikidata": "Q668687", "collection_times": "Mo-Fr 10:00", "name": "USPS COLLECTION BOX - BLUE BOX", "nsi_id": "unitedstatespostalservice-a77078", "operator": "United States Postal Service", "operator:short": "USPS", "operator:type": "public", "operator:wikidata": "Q668687", "ref": "2260100136"}, "type": "Feature"}
{"dataset_attributes": {"@spider": "usps_collection_boxes", "spider:collection_time": "2023-10-13T08:25:25.513886"}, "geometry": {"coordinates": [-78.162353091, 39.184398994], "type": "Point"}, "id": "zkXFQuxyGnmW89HkvjN0ZHHol44=", "properties": {"@spider": "usps_collection_boxes", "addr:city": "WINCHESTER", "addr:country": "US", "addr:full": "107 N KENT ST", "addr:postcode": "22601", "addr:state": "VA", "amenity": "post_box", "brand": "United States Postal Service", "brand:wikidata": "Q668687", "collection_times": "Mo-Fr 12:00", "name": "USPS COLLECTION BOX - BLUE BOX", "nsi_id": "unitedstatespostalservice-a77078", "operator": "United States Postal Service", "operator:short": "USPS", "operator:type": "public", "operator:wikidata": "Q668687", "ref": "2260100137"}, "type": "Feature"}
{"dataset_attributes": {"@spider": "usps_collection_boxes", "spider:collection_time": "2023-10-13T08:25:25.513886"}, "geometry": {"coordinates": [-78.1813399, 39.189756], "type": "Point"}, "id": "2aC3lJWfTjvovUJj4BP7hpjDYPM=", "properties": {"@spider": "usps_collection_boxes", "addr:city": "WINCHESTER", "addr:country": "US", "addr:full": "1104 AMHERST ST", "addr:postcode": "22601", "addr:state": "VA", "amenity": "post_box", "brand": "United States Postal Service", "brand:wikidata": "Q668687", "collection_times": "Mo-Fr 09:30", "name": "USPS COLLECTION BOX - BLUE BOX", "nsi_id": "unitedstatespostalservice-a77078", "operator": "United States Postal Service", "operator:short": "USPS", "operator:type": "public", "operator:wikidata": "Q668687", "ref": "2260100140"}, "type": "Feature"}
{"dataset_attributes": {"@spider": "usps_collection_boxes", "spider:collection_time": "2023-10-13T08:25:25.513886"}, "geometry": {"coordinates": [-78.1880017, 39.162439], "type": "Point"}, "id": "hif_TOXJWWwAWt9NHaD4I8knSdk=", "properties": {"@spider": "usps_collection_boxes", "addr:city": "WINCHESTER", "addr:country": "US", "addr:full": "629 CEDAR CREEK GRADE", "addr:postcode": "22601", "addr:state": "VA", "amenity": "post_box", "brand": "United States Postal Service", "brand:wikidata": "Q668687", "collection_times": "Mo-Fr 14:30", "name": "USPS COLLECTION BOX - BLUE BOX", "note": "ON 12/24 AND 12/31, THIS BOX MAY BE COLLECTED AS EARLY AS 12 NOON.", "nsi_id": "unitedstatespostalservice-a77078", "operator": "United States Postal Service", "operator:short": "USPS", "operator:type": "public", "operator:wikidata": "Q668687", "ref": "2260100141"}, "type": "Feature"}
{"dataset_attributes": {"@spider": "usps_collection_boxes", "spider:collection_time": "2023-10-13T08:25:25.513886"}, "geometry": {"coordinates": [-78.153468, 39.185206], "type": "Point"}, "id": "dNYAACy_1fedeLzFdktjX_P5SSc=", "properties": {"@spider": "usps_collection_boxes", "addr:city": "WINCHESTER", "addr:country": "US", "addr:full": "340 N PLEASANT VALLEY RD", "addr:postcode": "22601", "addr:state": "VA", "amenity": "post_box", "brand": "United States Postal Service", "brand:wikidata": "Q668687", "collection_times": "Mo-Fr 17:30; Sa 17:00", "name": "USPS COLLECTION BOX - APC", "note": "ON 12/24 AND 12/31, THIS BOX MAY BE COLLECTED AS EARLY AS 12 NOON.", "nsi_id": "unitedstatespostalservice-a77078", "operator": "United States Postal Service", "operator:short": "USPS", "operator:type": "public", "operator:wikidata": "Q668687", "ref": "2260100143"}, "type": "Feature"}
{"dataset_attributes": {"@spider": "usps_collection_boxes", "spider:collection_time": "2023-10-13T08:25:25.513886"}, "geometry": {"coordinates": [-78.153299, 39.185548], "type": "Point"}, "id": "W5mfntqzWq1sfbG_VZDJkKH3WoA=", "properties": {"@spider": "usps_collection_boxes", "addr:city": "WINCHESTER", "addr:country": "US", "addr:full": "340 N PLEASANT VALLEY RD", "addr:postcode": "22601", "addr:state": "VA", "amenity": "post_box", "brand": "United States Postal Service", "brand:wikidata": "Q668687", "collection_times": "Mo-Fr 17:30; Sa 17:00", "name": "USPS COLLECTION BOX - APC", "note": "ON 12/24 AND 12/31, THIS BOX MAY BE COLLECTED AS EARLY AS 12 NOON.", "nsi_id": "unitedstatespostalservice-a77078", "operator": "United States Postal Service", "operator:short": "USPS", "operator:type": "public", "operator:wikidata": "Q668687", "ref": "2260100144"}, "type": "Feature"}
{"dataset_attributes": {"@spider": "usps_collection_boxes", "spider:collection_time": "2023-10-13T08:25:25.513886"}, "geometry": {"coordinates": [-78.153299, 39.185548], "type": "Point"}, "id": "LDm7qO61qePsYEEQ9eaMBMdXuw0=", "properties": {"@spider": "usps_collection_boxes", "addr:city": "WINCHESTER", "addr:country": "US", "addr:full": "340 N PLEASANT VALLEY RD", "addr:postcode": "22601", "addr:state": "VA", "amenity": "post_box", "brand": "United States Postal Service", "brand:wikidata": "Q668687", "collection_times": "Mo-Fr 17:30; Sa 17:00", "name": "USPS COLLECTION BOX - APC", "note": "ON 12/24 AND 12/31, THIS BOX MAY BE COLLECTED AS EARLY AS 12 NOON.", "nsi_id": "unitedstatespostalservice-a77078", "operator": "United States Postal Service", "operator:short": "USPS", "operator:type": "public", "operator:wikidata": "Q668687", "ref": "2260100145"}, "type": "Feature"}
{"dataset_attributes": {"@spider": "usps_collection_boxes", "spider:collection_time": "2023-10-13T08:25:25.513886"}, "geometry": {"coordinates": [-78.153299198, 39.185543882], "type": "Point"}, "id": "GW-zXnAYL4mex7xcObHhdBMEm2c=", "properties": {"@spider": "usps_collection_boxes", "addr:city": "WINCHESTER", "addr:country": "US", "addr:full": "340 N PLEASANT VALLEY RD", "addr:postcode": "22601", "addr:state": "VA", "amenity": "post_box", "brand": "United States Postal Service", "brand:wikidata": "Q668687", "collection_times": "Mo-Fr 18:00; Sa 14:00", "name": "USPS COLLECTION BOX - PO LOBBY", "note": "ON 12/24 AND 12/31, THIS BOX MAY BE COLLECTED AS EARLY AS 12 NOON.", "nsi_id": "unitedstatespostalservice-a77078", "operator": "United States Postal Service", "operator:short": "USPS", "operator:type": "public", "operator:wikidata": "Q668687", "ref": "2260100153"}, "type": "Feature"}
{"dataset_attributes": {"@spider": "usps_collection_boxes", "spider:collection_time": "2023-10-13T08:25:25.513886"}, "geometry": {"coordinates": [-78.1647720366, 39.1852729997], "type": "Point"}, "id": "aNIvVo2rWfMNJgaF_GZ6eY0x4HU=", "properties": {"@spider": "usps_collection_boxes", "addr:city": "WINCHESTER", "addr:country": "US", "addr:full": "132 N LOUDOUN ST", "addr:postcode": "22601", "addr:state": "VA", "amenity": "post_box", "brand": "United States Postal Service", "brand:wikidata": "Q668687", "collection_times": "Mo-Fr 16:00", "name": "USPS COLLECTION BOX - PO LOBBY", "note": "ON 12/24 AND 12/31, THIS BOX MAY BE COLLECTED AS EARLY AS 12 NOON.", "nsi_id": "unitedstatespostalservice-a77078", "operator": "United States Postal Service", "operator:short": "USPS", "operator:type": "public", "operator:wikidata": "Q668687", "ref": "2260100154"}, "type": "Feature"}
{"dataset_attributes": {"@spider": "usps_collection_boxes", "spider:collection_time": "2023-10-13T08:25:25.513886"}, "geometry": {"coordinates": [-78.1249726, 39.181963], "type": "Point"}, "id": "kX--r4Au_XoMuwBGynqCwHzHzDc=", "properties": {"@spider": "usps_collection_boxes", "addr:city": "WINCHESTER", "addr:country": "US", "addr:full": "100 ASH HOLLOW DR", "addr:postcode": "22602", "addr:state": "VA", "amenity": "post_box", "brand": "United States Postal Service", "brand:wikidata": "Q668687", "collection_times": "Mo-Sa 12:45", "name": "USPS COLLECTION BOX - BLUE BOX", "note": "ON 12/24 AND 12/31, THIS BOX MAY BE COLLECTED AS EARLY AS 12 NOON.", "nsi_id": "unitedstatespostalservice-a77078", "operator": "United States Postal Service", "operator:short": "USPS", "operator:type": "public", "operator:wikidata": "Q668687", "ref": "2260200000"}, "type": "Feature"}
{"dataset_attributes": {"@spider": "usps_collection_boxes", "spider:collection_time": "2023-10-13T08:25:25.513886"}, "geometry": {"coordinates": [-78.1921317, 39.140652], "type": "Point"}, "id": "MHwmlD5rrIHwIesI-vf3GXaspi8=", "properties": {"@spider": "usps_collection_boxes", "addr:city": "WINCHESTER", "addr:country": "US", "addr:full": "126 CREEKSIDE LN", "addr:postcode": "22602", "addr:state": "VA", "amenity": "post_box", "brand": "United States Postal Service", "brand:wikidata": "Q668687", "collection_times": "Mo-Fr 09:00; Sa 10:00", "name": "USPS COLLECTION BOX - BLUE BOX", "nsi_id": "unitedstatespostalservice-a77078", "operator": "United States Postal Service", "operator:short": "USPS", "operator:type": "public", "operator:wikidata": "Q668687", "ref": "2260200001"}, "type": "Feature"}
{"dataset_attributes": {"@spider": "usps_collection_boxes", "spider:collection_time": "2023-10-13T08:25:25.513886"}, "geometry": {"coordinates": [-78.1328644, 39.169862], "type": "Point"}, "id": "rEmNuFS7G3WkYyFXaHHa8r8etSs=", "properties": {"@spider": "usps_collection_boxes", "addr:city": "WINCHESTER", "addr:country": "US", "addr:full": "301 KASSIE LN", "addr:postcode": "22602", "addr:state": "VA", "amenity": "post_box", "brand": "United States Postal Service", "brand:wikidata": "Q668687", "collection_times": "Mo-Sa 10:30", "name": "USPS COLLECTION BOX - BLUE BOX", "nsi_id": "unitedstatespostalservice-a77078", "operator": "United States Postal Service", "operator:short": "USPS", "operator:type": "public", "operator:wikidata": "Q668687", "ref": "2260200005"}, "type": "Feature"}
{"dataset_attributes": {"@spider": "usps_collection_boxes", "spider:collection_time": "2023-10-13T08:25:25.513886"}, "geometry": {"coordinates": [-78.1542614, 39.158972], "type": "Point"}, "id": "fq5owoM_nE68pceYmzCts00JKNU=", "properties": {"@spider": "usps_collection_boxes", "addr:city": "WINCHESTER", "addr:country": "US", "addr:full": "170 DELCO PLZ STE 4", "addr:postcode": "22602", "addr:state": "VA", "amenity": "post_box", "brand": "United States Postal Service", "brand:wikidata": "Q668687", "collection_times": "Mo-Sa 09:00", "name": "USPS COLLECTION BOX - BLUE BOX", "nsi_id": "unitedstatespostalservice-a77078", "operator": "United States Postal Service", "operator:short": "USPS", "operator:type": "public", "operator:wikidata": "Q668687", "ref": "2260200006"}, "type": "Feature"}
{"dataset_attributes": {"@spider": "usps_collection_boxes", "spider:collection_time": "2023-10-13T08:25:25.513886"}, "geometry": {"coordinates": [-78.1235004, 39.189896], "type": "Point"}, "id": "ydn-JlwiSMnIlNmOlED-j6_GA1c=", "properties": {"@spider": "usps_collection_boxes", "addr:city": "WINCHESTER", "addr:country": "US", "addr:full": "216 REGENCY LAKES DR", "addr:postcode": "22603", "addr:state": "VA", "amenity": "post_box", "brand": "United States Postal Service", "brand:wikidata": "Q668687", "collection_times": "Mo-Sa 10:00", "name": "USPS COLLECTION BOX - BLUE BOX", "nsi_id": "unitedstatespostalservice-a77078", "operator": "United States Postal Service", "operator:short": "USPS", "operator:type": "public", "operator:wikidata": "Q668687", "ref": "2260300001"}, "type": "Feature"}
{"dataset_attributes": {"@spider": "usps_collection_boxes", "spider:collection_time": "2023-10-13T08:25:25.513886"}, "geometry": {"coordinates": [-78.2828236, 39.228164], "type": "Point"}, "id": "Z3ADF2ojUE5jnch-NpcZB9Ue7n0=", "properties": {"@spider": "usps_collection_boxes", "addr:city": "WINCHESTER", "addr:country": "US", "addr:full": "4780 NORTHWESTERN PIKE", "addr:postcode": "22603", "addr:state": "VA", "amenity": "post_box", "brand": "United States Postal Service", "brand:wikidata": "Q668687", "collection_times": "Mo-Sa 10:00", "name": "USPS COLLECTION BOX - BLUE BOX", "nsi_id": "unitedstatespostalservice-a77078", "operator": "United States Postal Service", "operator:short": "USPS", "operator:type": "public", "operator:wikidata": "Q668687", "ref": "2260300003"}, "type": "Feature"}
{"dataset_attributes": {"@spider": "usps_collection_boxes", "spider:collection_time": "2023-10-13T08:25:25.513886"}, "geometry": {"coordinates": [-78.1471291, 39.221651], "type": "Point"}, "id": "rdLgBPlOL-4OFBtPjFBcwwvanZc=", "properties": {"@spider": "usps_collection_boxes", "addr:city": "WINCHESTER", "addr:country": "US", "addr:full": "275 MCGHEE RD", "addr:postcode": "22603", "addr:state": "VA", "amenity": "post_box", "brand": "United States Postal Service", "brand:wikidata": "Q668687", "collection_times": "Mo-Sa 12:00", "name": "USPS COLLECTION BOX - BLUE BOX", "nsi_id": "unitedstatespostalservice-a77078", "operator": "United States Postal Service", "operator:short": "USPS", "operator:type": "public", "operator:wikidata": "Q668687", "ref": "2260300004"}, "type": "Feature"}
{"dataset_attributes": {"@spider": "usps_collection_boxes", "spider:collection_time": "2023-10-13T08:25:25.513886"}, "geometry": {"coordinates": [-78.1765329, 39.210688], "type": "Point"}, "id": "wv6eIi3wnZQfWyoo8kD1a8C66gA=", "properties": {"@spider": "usps_collection_boxes", "addr:city": "WINCHESTER", "addr:country": "US", "addr:full": "160 EXETER DR", "addr:postcode": "22603", "addr:state": "VA", "amenity": "post_box", "brand": "United States Postal Service", "brand:wikidata": "Q668687", "collection_times": "Mo-Fr 10:00", "name": "USPS COLLECTION BOX - BLUE BOX", "nsi_id": "unitedstatespostalservice-a77078", "operator": "United States Postal Service", "operator:short": "USPS", "operator:type": "public", "operator:wikidata": "Q668687", "ref": "2260300006"}, "type": "Feature"}
{"dataset_attributes": {"@spider": "usps_collection_boxes", "spider:collection_time": "2023-10-13T08:25:25.513886"}, "geometry": {"coordinates": [-78.2293114, 39.194285], "type": "Point"}, "id": "plydHUDwJ7nXMMff5EJKngVTMv4=", "properties": {"@spider": "usps_collection_boxes", "addr:city": "WINCHESTER", "addr:country": "US", "addr:full": "2765 NORTHWESTERN PIKE", "addr:postcode": "22603", "addr:state": "VA", "amenity": "post_box", "brand": "United States Postal Service", "brand:wikidata": "Q668687", "collection_times": "Mo-Sa 11:00", "name": "USPS COLLECTION BOX - BLUE BOX", "nsi_id": "unitedstatespostalservice-a77078", "operator": "United States Postal Service", "operator:short": "USPS", "operator:type": "public", "operator:wikidata": "Q668687", "ref": "2260300007"}, "type": "Feature"}
{"dataset_attributes": {"@spider": "usps_collection_boxes", "spider:collection_time": "2023-10-13T08:25:25.513886"}, "geometry": {"coordinates": [-78.317641, 38.831498], "type": "Point"}, "id": "GfAsrX4UkeNw3_Kbf_GbbfZBSHY=", "properties": {"@spider": "usps_collection_boxes", "addr:city": "BENTONVILLE", "addr:country": "US", "addr:full": "2590 STONEWALL JACKSON HWY", "addr:postcode": "22610", "addr:state": "VA", "amenity": "post_box", "brand": "United States Postal Service", "brand:wikidata": "Q668687", "collection_times": "Mo-Fr 16:15; Sa 11:30", "name": "USPS COLLECTION BOX - BLUE BOX", "note": "ON 12/24 AND 12/31, THIS BOX MAY BE COLLECTED AS EARLY AS 12 NOON.", "nsi_id": "unitedstatespostalservice-a77078", "operator": "United States Postal Service", "operator:short": "USPS", "operator:type": "public", "operator:wikidata": "Q668687", "ref": "2261000000"}, "type": "Feature"}
{"dataset_attributes": {"@spider": "usps_collection_boxes", "spider:collection_time": "2023-10-13T08:25:25.513886"}, "geometry": {"coordinates": [-78.317566, 38.831563], "type": "Point"}, "id": "7WWjPFUJutRiq8Qu92qZUqVdEE0=", "properties": {"@spider": "usps_collection_boxes", "addr:city": "BENTONVILLE", "addr:country": "US", "addr:full": "2590 STONEWALL JACKSON HWY", "addr:postcode": "22610", "addr:state": "VA", "amenity": "post_box", "brand": "United States Postal Service", "brand:wikidata": "Q668687", "collection_times": "Mo-Fr 16:15; Sa 12:15", "name": "USPS COLLECTION BOX - PO LOBBY", "note": "ON 12/24 AND 12/31, THIS BOX MAY BE COLLECTED AS EARLY AS 12 NOON.", "nsi_id": "unitedstatespostalservice-a77078", "operator": "United States Postal Service", "operator:short": "USPS", "operator:type": "public", "operator:wikidata": "Q668687", "ref": "2261000001"}, "type": "Feature"}
{"dataset_attributes": {"@spider": "usps_collection_boxes", "spider:collection_time": "2023-10-13T08:25:25.513886"}, "geometry": {"coordinates": [-78.3131339, 38.833403], "type": "Point"}, "id": "cdNAXZBaHS-A7iuhzcsSgtrGdSA=", "properties": {"@spider": "usps_collection_boxes", "addr:city": "BENTONVILLE", "addr:country": "US", "addr:full": "2868 STONEWALL JACKSON HWY", "addr:postcode": "22610", "addr:state": "VA", "amenity": "post_box", "brand": "United States Postal Service", "brand:wikidata": "Q668687", "collection_times": "Mo-Sa 10:00", "name": "USPS COLLECTION BOX - BLUE BOX", "nsi_id": "unitedstatespostalservice-a77078", "operator": "United States Postal Service", "operator:short": "USPS", "operator:type": "public", "operator:wikidata": "Q668687", "ref": "2261000002"}, "type": "Feature"}
{"dataset_attributes": {"@spider": "usps_collection_boxes", "spider:collection_time": "2023-10-13T08:25:25.513886"}, "geometry": {"coordinates": [-77.98368, 39.154993], "type": "Point"}, "id": "swb_76PSU1jh9WtSOoyQyWBnjwE=", "properties": {"@spider": "usps_collection_boxes", "addr:city": "BERRYVILLE", "addr:country": "US", "addr:full": "12 ACADEMY ST", "addr:postcode": "22611", "addr:state": "VA", "amenity": "post_box", "brand": "United States Postal Service", "brand:wikidata": "Q668687", "collection_times": "Mo-Fr 17:00; Sa 15:30", "name": "USPS COLLECTION BOX - BLUE BOX", "note": "ON 12/24 AND 12/31, THIS BOX MAY BE COLLECTED AS EARLY AS 12 NOON.", "nsi_id": "unitedstatespostalservice-a77078", "operator": "United States Postal Service", "operator:short": "USPS", "operator:type": "public", "operator:wikidata": "Q668687", "ref": "2261100003"}, "type": "Feature"}
{"dataset_attributes": {"@spider": "usps_collection_boxes", "spider:collection_time": "2023-10-13T08:25:25.513886"}, "geometry": {"coordinates": [-77.9796144052, 39.1585263181], "type": "Point"}, "id": "46jKOTmQXe_v-OgOJGpKgjltsdg=", "properties": {"@spider": "usps_collection_boxes", "addr:city": "BERRYVILLE", "addr:country": "US", "addr:full": "409 MCNEIL DR", "addr:postcode": "22611", "addr:state": "VA", "amenity": "post_box", "brand": "United States Postal Service", "brand:wikidata": "Q668687", "collection_times": "Mo-Sa 10:00", "name": "USPS COLLECTION BOX - BLUE BOX", "nsi_id": "unitedstatespostalservice-a77078", "operator": "United States Postal Service", "operator:short": "USPS", "operator:type": "public", "operator:wikidata": "Q668687", "ref": "2261100015"}, "type": "Feature"}
{"dataset_attributes": {"@spider": "usps_collection_boxes", "spider:collection_time": "2023-10-13T08:25:25.513886"}, "geometry": {"coordinates": [-77.981235, 39.151324], "type": "Point"}, "id": "-R4DEWrW_saoT654Y42XgO3kNuI=", "properties": {"@spider": "usps_collection_boxes", "addr:city": "BERRYVILLE", "addr:country": "US", "addr:full": "27 N CHURCH ST", "addr:postcode": "22611", "addr:state": "VA", "amenity": "post_box", "brand": "United States Postal Service", "brand:wikidata": "Q668687", "collection_times": "Mo-Fr 17:00; Sa 16:00", "name": "USPS COLLECTION BOX - PO LOBBY", "note": "ON 12/24 AND 12/31, THIS BOX MAY BE COLLECTED AS EARLY AS 12 NOON.", "nsi_id": "unitedstatespostalservice-a77078", "operator": "United States Postal Service", "operator:short": "USPS", "operator:type": "public", "operator:wikidata": "Q668687", "ref": "2261100019"}, "type": "Feature"}
{"dataset_attributes": {"@spider": "usps_collection_boxes", "spider:collection_time": "2023-10-13T08:25:25.513886"}, "geometry": {"coordinates": [-77.981235, 39.151324], "type": "Point"}, "id": "K8VDvjiRsJ0ve4tx9p8eaazIR7M=", "properties": {"@spider": "usps_collection_boxes", "addr:city": "BERRYVILLE", "addr:country": "US", "addr:full": "27 N CHURCH ST", "addr:postcode": "22611", "addr:state": "VA", "amenity": "post_box", "brand": "United States Postal Service", "brand:wikidata": "Q668687", "collection_times": "Mo-Fr 17:00; Sa 16:00", "name": "USPS COLLECTION BOX - PO LOBBY", "note": "ON 12/24 AND 12/31, THIS BOX MAY BE COLLECTED AS EARLY AS 12 NOON.", "nsi_id": "unitedstatespostalservice-a77078", "operator": "United States Postal Service", "operator:short": "USPS", "operator:type": "public", "operator:wikidata": "Q668687", "ref": "2261100020"}, "type": "Feature"}
{"dataset_attributes": {"@spider": "usps_collection_boxes", "spider:collection_time": "2023-10-13T08:25:25.513886"}, "geometry": {"coordinates": [-77.980912536, 39.151732944], "type": "Point"}, "id": "3SCIcvNp7AP2xkcFqq8_LtJD_gk=", "properties": {"@spider": "usps_collection_boxes", "addr:city": "BERRYVILLE", "addr:country": "US", "addr:full": "27 N CHURCH ST", "addr:postcode": "22611", "addr:state": "VA", "amenity": "post_box", "brand": "United States Postal Service", "brand:wikidata": "Q668687", "collection_times": "Mo-Fr 17:00; Sa 12:30", "name": "USPS COLLECTION BOX - PO LOBBY", "note": "ON 12/24 AND 12/31, THIS BOX MAY BE COLLECTED AS EARLY AS 12 NOON.", "nsi_id": "unitedstatespostalservice-a77078", "operator": "United States Postal Service", "operator:short": "USPS", "operator:type": "public", "operator:wikidata": "Q668687", "ref": "2261100021"}, "type": "Feature"}
{"dataset_attributes": {"@spider": "usps_collection_boxes", "spider:collection_time": "2023-10-13T08:25:25.513886"}, "geometry": {"coordinates": [-78.0632466, 39.095491], "type": "Point"}, "id": "r7auKwSy7w-v2ol7CBsb7cD2GbU=", "properties": {"@spider": "usps_collection_boxes", "addr:city": "BOYCE", "addr:country": "US", "addr:full": "112 W MAIN ST", "addr:postcode": "22620", "addr:state": "VA", "amenity": "post_box", "brand": "United States Postal Service", "brand:wikidata": "Q668687", "collection_times": "Mo-Fr 16:15; Sa 11:30", "name": "USPS COLLECTION BOX - BLUE BOX", "note": "ON 12/24 AND 12/31, THIS BOX MAY BE COLLECTED AS EARLY AS 12 NOON.", "nsi_id": "unitedstatespostalservice-a77078", "operator": "United States Postal Service", "operator:short": "USPS", "operator:type": "public", "operator:wikidata": "Q668687", "ref": "2262000001"}, "type": "Feature"}
{"dataset_attributes": {"@spider": "usps_collection_boxes", "spider:collection_time": "2023-10-13T08:25:25.513886"}, "geometry": {"coordinates": [-78.063194, 39.095547], "type": "Point"}, "id": "IskrJFqd2dS8wLUyKOi6f2IBs7A=", "properties": {"@spider": "usps_collection_boxes", "addr:city": "BOYCE", "addr:country": "US", "addr:full": "112 W MAIN ST", "addr:postcode": "22620", "addr:state": "VA", "amenity": "post_box", "brand": "United States Postal Service", "brand:wikidata": "Q668687", "collection_times": "Mo-Fr 16:15; Sa 11:30", "name": "USPS COLLECTION BOX - PO LOBBY", "note": "ON 12/24 AND 12/31, THIS BOX MAY BE COLLECTED AS EARLY AS 12 NOON.", "nsi_id": "unitedstatespostalservice-a77078", "operator": "United States Postal Service", "operator:short": "USPS", "operator:type": "public", "operator:wikidata": "Q668687", "ref": "2262000002"}, "type": "Feature"}
{"dataset_attributes": {"@spider": "usps_collection_boxes", "spider:collection_time": "2023-10-13T08:25:25.513886"}, "geometry": {"coordinates": [-78.0833823, 39.082968], "type": "Point"}, "id": "12ghkO_cBqYe1bk3XXZ4Q11XMnw=", "properties": {"@spider": "usps_collection_boxes", "addr:city": "BOYCE", "addr:country": "US", "addr:full": "8204 JOHN MOSBY HWY", "addr:postcode": "22620", "addr:state": "VA", "amenity": "post_box", "brand": "United States Postal Service", "brand:wikidata": "Q668687", "collection_times": "Mo-Sa 10:00", "name": "USPS COLLECTION BOX - BLUE BOX", "nsi_id": "unitedstatespostalservice-a77078", "operator": "United States Postal Service", "operator:short": "USPS", "operator:type": "public", "operator:wikidata": "Q668687", "ref": "2262000003"}, "type": "Feature"}
{"dataset_attributes": {"@spider": "usps_collection_boxes", "spider:collection_time": "2023-10-13T08:25:25.513886"}, "geometry": {"coordinates": [-78.063494042, 39.095264292], "type": "Point"}, "id": "8srD0RCCXlshmWvsnGvEaZDh6Ww=", "properties": {"@spider": "usps_collection_boxes", "addr:city": "BOYCE", "addr:country": "US", "addr:full": "112 W MAIN ST", "addr:postcode": "22620", "addr:state": "VA", "amenity": "post_box", "brand": "United States Postal Service", "brand:wikidata": "Q668687", "collection_times": "Mo-Fr 17:00; Sa 12:00", "name": "USPS COLLECTION BOX - PO LOBBY", "note": "ON 12/24 AND 12/31, THIS BOX MAY BE COLLECTED AS EARLY AS 12 NOON.", "nsi_id": "unitedstatespostalservice-a77078", "operator": "United States Postal Service", "operator:short": "USPS", "operator:type": "public", "operator:wikidata": "Q668687", "ref": "2262000005"}, "type": "Feature"}
{"dataset_attributes": {"@spider": "usps_collection_boxes", "spider:collection_time": "2023-10-13T08:25:25.513886"}, "geometry": {"coordinates": [-78.094592, 39.256522], "type": "Point"}, "id": "3x6CUBYkcxVOoijD4pMsa_vAekE=", "properties": {"@spider": "usps_collection_boxes", "addr:city": "CLEAR BROOK", "addr:country": "US", "addr:full": "1164 BRUCETOWN RD", "addr:postcode": "22624", "addr:state": "VA", "amenity": "post_box", "brand": "United States Postal Service", "brand:wikidata": "Q668687", "collection_times": "Mo-Fr 16:30; Sa 11:30", "name": "USPS COLLECTION BOX - BLUE BOX", "note": "ON 12/24 AND 12/31, THIS BOX MAY BE COLLECTED AS EARLY AS 12 NOON.", "nsi_id": "unitedstatespostalservice-a77078", "operator": "United States Postal Service", "operator:short": "USPS", "operator:type": "public", "operator:wikidata": "Q668687", "ref": "2262400000"}, "type": "Feature"}
{"dataset_attributes": {"@spider": "usps_collection_boxes", "spider:collection_time": "2023-10-13T08:25:25.513886"}, "geometry": {"coordinates": [-78.0865778535, 39.2911106091], "type": "Point"}, "id": "CrvSrresX-xztSOCSZc0__VQUEo=", "properties": {"@spider": "usps_collection_boxes", "addr:city": "CLEAR BROOK", "addr:country": "US", "addr:full": "1530 REST CHURCH RD", "addr:postcode": "22624", "addr:state": "VA", "amenity": "post_box", "brand": "United States Postal Service", "brand:wikidata": "Q668687", "collection_times": "Mo-Sa 12:00", "name": "USPS COLLECTION BOX - BLUE BOX", "nsi_id": "unitedstatespostalservice-a77078", "operator": "United States Postal Service", "operator:short": "USPS", "operator:type": "public", "operator:wikidata": "Q668687", "ref": "2262400001"}, "type": "Feature"}
{"dataset_attributes": {"@spider": "usps_collection_boxes", "spider:collection_time": "2023-10-13T08:25:25.513886"}, "geometry": {"coordinates": [-78.094558, 39.256553], "type": "Point"}, "id": "D2tmXWlfLuOgNKnL1PaVeAMOfT8=", "properties": {"@spider": "usps_collection_boxes", "addr:city": "CLEAR BROOK", "addr:country": "US", "addr:full": "1164 BRUCETOWN RD", "addr:postcode": "22624", "addr:state": "VA", "amenity": "post_box", "brand": "United States Postal Service", "brand:wikidata": "Q668687", "collection_times": "Mo-Fr 16:30; Sa 11:30", "name": "USPS COLLECTION BOX - PO LOBBY", "note": "ON 12/24 AND 12/31, THIS BOX MAY BE COLLECTED AS EARLY AS 12 NOON.", "nsi_id": "unitedstatespostalservice-a77078", "operator": "United States Postal Service", "operator:short": "USPS", "operator:type": "public", "operator:wikidata": "Q668687", "ref": "2262400002"}, "type": "Feature"}
{"dataset_attributes": {"@spider": "usps_collection_boxes", "spider:collection_time": "2023-10-13T08:25:25.513886"}, "geometry": {"coordinates": [-78.094877883, 39.256493565], "type": "Point"}, "id": "qS9Oy5Xlm1N8r_6cpw7aczAMpJk=", "properties": {"@spider": "usps_collection_boxes", "addr:city": "CLEAR BROOK", "addr:country": "US", "addr:full": "1164 BRUCETOWN RD", "addr:postcode": "22624", "addr:state": "VA", "amenity": "post_box", "brand": "United States Postal Service", "brand:wikidata": "Q668687", "collection_times": "Mo-Fr 17:00; Sa 12:00", "name": "USPS COLLECTION BOX - PO LOBBY", "note": "ON 12/24 AND 12/31, THIS BOX MAY BE COLLECTED AS EARLY AS 12 NOON.", "nsi_id": "unitedstatespostalservice-a77078", "operator": "United States Postal Service", "operator:short": "USPS", "operator:type": "public", "operator:wikidata": "Q668687", "ref": "2262400005"}, "type": "Feature"}
{"dataset_attributes": {"@spider": "usps_collection_boxes", "spider:collection_time": "2023-10-13T08:25:25.513886"}, "geometry": {"coordinates": [-78.291345, 39.315664], "type": "Point"}, "id": "Ob4wqqv4faCeshzHGaELhXrLrPk=", "properties": {"@spider": "usps_collection_boxes", "addr:city": "CROSS JUNCTION", "addr:country": "US", "addr:full": "6654 N FREDERICK PIKE", "addr:postcode": "22625", "addr:state": "VA", "amenity": "post_box", "brand": "United States Postal Service", "brand:wikidata": "Q668687", "collection_times": "Mo-Fr 16:00; Sa 12:00", "name": "USPS COLLECTION BOX - BLUE BOX", "note": "ON 12/24 AND 12/31, THIS BOX MAY BE COLLECTED AS EARLY AS 12 NOON.", "nsi_id": "unitedstatespostalservice-a77078", "operator": "United States Postal Service", "operator:short": "USPS", "operator:type": "public", "operator:wikidata": "Q668687", "ref": "2262500001"}, "type": "Feature"}
{"dataset_attributes": {"@spider": "usps_collection_boxes", "spider:collection_time": "2023-10-13T08:25:25.513886"}, "geometry": {"coordinates": [-78.3148595, 39.323824], "type": "Point"}, "id": "6_ceuLyczaLCcDV-4-2-IiU7L1U=", "properties": {"@spider": "usps_collection_boxes", "addr:city": "CROSS JUNCTION", "addr:country": "US", "addr:full": "100 MASTERS DR", "addr:postcode": "22625", "addr:state": "VA", "amenity": "post_box", "brand": "United States Postal Service", "brand:wikidata": "Q668687", "collection_times": "Mo-Sa 11:00", "name": "USPS COLLECTION BOX - BLUE BOX", "nsi_id": "unitedstatespostalservice-a77078", "operator": "United States Postal Service", "operator:short": "USPS", "operator:type": "public", "operator:wikidata": "Q668687", "ref": "2262500002"}, "type": "Feature"}
{"dataset_attributes": {"@spider": "usps_collection_boxes", "spider:collection_time": "2023-10-13T08:25:25.513886"}, "geometry": {"coordinates": [-78.2990765, 39.38247], "type": "Point"}, "id": "vxwERSIdnd9jCw1Hdn-u7zs3bOk=", "properties": {"@spider": "usps_collection_boxes", "addr:city": "CROSS JUNCTION", "addr:country": "US", "addr:full": "9181 N FREDERICK PIKE", "addr:postcode": "22625", "addr:state": "VA", "amenity": "post_box", "brand": "United States Postal Service", "brand:wikidata": "Q668687", "collection_times": "Mo-Sa 10:00", "name": "USPS COLLECTION BOX - BLUE BOX", "nsi_id": "unitedstatespostalservice-a77078", "operator": "United States Postal Service", "operator:short": "USPS", "operator:type": "public", "operator:wikidata": "Q668687", "ref": "2262500003"}, "type": "Feature"}
{"dataset_attributes": {"@spider": "usps_collection_boxes", "spider:collection_time": "2023-10-13T08:25:25.513886"}, "geometry": {"coordinates": [-78.291354, 39.315627], "type": "Point"}, "id": "c5INoawnPZKLdHSrSo6o_bISEsI=", "properties": {"@spider": "usps_collection_boxes", "addr:city": "CROSS JUNCTION", "addr:country": "US", "addr:full": "6654 N FREDERICK PIKE", "addr:postcode": "22625", "addr:state": "VA", "amenity": "post_box", "brand": "United States Postal Service", "brand:wikidata": "Q668687", "collection_times": "Mo-Fr 16:30; Sa 12:00", "name": "USPS COLLECTION BOX - PO LOBBY", "note": "ON 12/24 AND 12/31, THIS BOX MAY BE COLLECTED AS EARLY AS 12 NOON.", "nsi_id": "unitedstatespostalservice-a77078", "operator": "United States Postal Service", "operator:short": "USPS", "operator:type": "public", "operator:wikidata": "Q668687", "ref": "2262500004"}, "type": "Feature"}
{"dataset_attributes": {"@spider": "usps_collection_boxes", "spider:collection_time": "2023-10-13T08:25:25.513886"}, "geometry": {"coordinates": [-78.3618927, 39.357924], "type": "Point"}, "id": "cx2Co-2k8IALmIkkn__RlQx0tsM=", "properties": {"@spider": "usps_collection_boxes", "addr:city": "CROSS JUNCTION", "addr:country": "US", "addr:full": "1778 BLOOMERY PIKE", "addr:postcode": "22625", "addr:state": "VA", "amenity": "post_box", "brand": "United States Postal Service", "brand:wikidata": "Q668687", "collection_times": "Mo-Sa 11:00", "name": "USPS COLLECTION BOX - BLUE BOX", "nsi_id": "unitedstatespostalservice-a77078", "operator": "United States Postal Service", "operator:short": "USPS", "operator:type": "public", "operator:wikidata": "Q668687", "ref": "2262500008"}, "type": "Feature"}
{"dataset_attributes": {"@spider": "usps_collection_boxes", "spider:collection_time": "2023-10-13T08:25:25.513886"}, "geometry": {"coordinates": [-78.292439605, 39.316716501], "type": "Point"}, "id": "hwjI7iBMTviWjvLI2dwXlJK7tP0=", "properties": {"@spider": "usps_collection_boxes", "addr:city": "CROSS JUNCTION", "addr:country": "US", "addr:full": "6654 N FREDERICK PIKE", "addr:postcode": "22625", "addr:state": "VA", "amenity": "post_box", "brand": "United States Postal Service", "brand:wikidata": "Q668687", "collection_times": "Mo-Fr 17:00; Sa 12:00", "name": "USPS COLLECTION BOX - PO LOBBY", "note": "ON 12/24 AND 12/31, THIS BOX MAY BE COLLECTED AS EARLY AS 12 NOON.", "nsi_id": "unitedstatespostalservice-a77078", "operator": "United States Postal Service", "operator:short": "USPS", "operator:type": "public", "operator:wikidata": "Q668687", "ref": "2262500010"}, "type": "Feature"}
{"dataset_attributes": {"@spider": "usps_collection_boxes", "spider:collection_time": "2023-10-13T08:25:25.513886"}, "geometry": {"coordinates": [-78.100687, 38.766455], "type": "Point"}, "id": "nxFQ0_B60NFCKqfflGc9HevTF-g=", "properties": {"@spider": "usps_collection_boxes", "addr:city": "FLINT HILL", "addr:country": "US", "addr:full": "664F ZACHARY TAYLOR HWY", "addr:postcode": "22627", "addr:state": "VA", "amenity": "post_box", "brand": "United States Postal Service", "brand:wikidata": "Q668687", "collection_times": "Mo-Fr 16:00; Sa 12:00", "name": "USPS COLLECTION BOX - BLUE BOX", "note": "ON 12/24 AND 12/31, THIS BOX MAY BE COLLECTED AS EARLY AS 12 NOON.", "nsi_id": "unitedstatespostalservice-a77078", "operator": "United States Postal Service", "operator:short": "USPS", "operator:type": "public", "operator:wikidata": "Q668687", "ref": "2262700001"}, "type": "Feature"}
{"dataset_attributes": {"@spider": "usps_collection_boxes", "spider:collection_time": "2023-10-13T08:25:25.513886"}, "geometry": {"coordinates": [-78.100746, 38.766516], "type": "Point"}, "id": "BHcTAnhBvtFkSQH3I0RzQlKZLL8=", "properties": {"@spider": "usps_collection_boxes", "addr:city": "FLINT HILL", "addr:country": "US", "addr:full": "664F ZACHARY TAYLOR HWY", "addr:postcode": "22627", "addr:state": "VA", "amenity": "post_box", "brand": "United States Postal Service", "brand:wikidata": "Q668687", "collection_times": "Mo-Fr 16:00; Sa 12:00", "name": "USPS COLLECTION BOX - PO LOBBY", "note": "ON 12/24 AND 12/31, THIS BOX MAY BE COLLECTED AS EARLY AS 12 NOON.", "nsi_id": "unitedstatespostalservice-a77078", "operator": "United States Postal Service", "operator:short": "USPS", "operator:type": "public", "operator:wikidata": "Q668687", "ref": "2262700002"}, "type": "Feature"}
{"dataset_attributes": {"@spider": "usps_collection_boxes", "spider:collection_time": "2023-10-13T08:25:25.513886"}, "geometry": {"coordinates": [-78.100643437, 38.76639292], "type": "Point"}, "id": "Oc82nVvOag8lCYTXucAY_Hn_Ee0=", "properties": {"@spider": "usps_collection_boxes", "addr:city": "FLINT HILL", "addr:country": "US", "addr:full": "664F ZACHARY TAYLOR HWY", "addr:postcode": "22627", "addr:state": "VA", "amenity": "post_box", "brand": "United States Postal Service", "brand:wikidata": "Q668687", "collection_times": "Mo-Fr 16:00; Sa 12:00", "name": "USPS COLLECTION BOX - PO LOBBY", "note": "ON 12/24 AND 12/31, THIS BOX MAY BE COLLECTED AS EARLY AS 12 NOON.", "nsi_id": "unitedstatespostalservice-a77078", "operator": "United States Postal Service", "operator:short": "USPS", "operator:type": "public", "operator:wikidata": "Q668687", "ref": "2262700003"}, "type": "Feature"}
{"dataset_attributes": {"@spider": "usps_collection_boxes", "spider:collection_time": "2023-10-13T08:25:25.513886"}, "geometry": {"coordinates": [-78.192201, 38.92294], "type": "Point"}, "id": "a6Sowes421ZxOLhqnTxl9p7lQaQ=", "properties": {"@spider": "usps_collection_boxes", "addr:city": "FRONT ROYAL", "addr:country": "US", "addr:full": "120 E 3RD ST", "addr:postcode": "22630", "addr:state": "VA", "amenity": "post_box", "brand": "United States Postal Service", "brand:wikidata": "Q668687", "collection_times": "Mo-Fr 17:00; Sa 16:15", "name": "USPS COLLECTION BOX - BLUE BOX", "note": "ON 12/24 AND 12/31, THIS BOX MAY BE COLLECTED AS EARLY AS 12 NOON.", "nsi_id": "unitedstatespostalservice-a77078", "operator": "United States Postal Service", "operator:short": "USPS", "operator:type": "public", "operator:wikidata": "Q668687", "ref": "2263000001"}, "type": "Feature"}
{"dataset_attributes": {"@spider": "usps_collection_boxes", "spider:collection_time": "2023-10-13T08:25:25.513886"}, "geometry": {"coordinates": [-78.1882613, 38.909807], "type": "Point"}, "id": "oTRG1yyQdrxykJOrCmxRXIsevs0=", "properties": {"@spider": "usps_collection_boxes", "addr:city": "FRONT ROYAL", "addr:country": "US", "addr:full": "423 SOUTH ST", "addr:postcode": "22630", "addr:state": "VA", "amenity": "post_box", "brand": "United States Postal Service", "brand:wikidata": "Q668687", "collection_times": "Mo-Sa 10:00", "name": "USPS COLLECTION BOX - BLUE BOX", "nsi_id": "unitedstatespostalservice-a77078", "operator": "United States Postal Service", "operator:short": "USPS", "operator:type": "public", "operator:wikidata": "Q668687", "ref": "2263000003"}, "type": "Feature"}
{"dataset_attributes": {"@spider": "usps_collection_boxes", "spider:collection_time": "2023-10-13T08:25:25.513886"}, "geometry": {"coordinates": [-78.1835224, 38.908062], "type": "Point"}, "id": "evdkEkcpAKIxeMfnGU6AxutDPcg=", "properties": {"@spider": "usps_collection_boxes", "addr:city": "FRONT ROYAL", "addr:country": "US", "addr:full": "300 REMOUNT RD", "addr:postcode": "22630", "addr:state": "VA", "amenity": "post_box", "brand": "United States Postal Service", "brand:wikidata": "Q668687", "collection_times": "Mo-Sa 10:00", "name": "USPS COLLECTION BOX - BLUE BOX", "nsi_id": "unitedstatespostalservice-a77078", "operator": "United States Postal Service", "operator:short": "USPS", "operator:type": "public", "operator:wikidata": "Q668687", "ref": "2263000004"}, "type": "Feature"}
{"dataset_attributes": {"@spider": "usps_collection_boxes", "spider:collection_time": "2023-10-13T08:25:25.513886"}, "geometry": {"coordinates": [-78.1454847, 38.952146], "type": "Point"}, "id": "7DMt14A9WVpU90ynDvt1KORFAag=", "properties": {"@spider": "usps_collection_boxes", "addr:city": "FRONT ROYAL", "addr:country": "US", "addr:full": "134 CHRISTENDOM DR", "addr:postcode": "22630", "addr:state": "VA", "amenity": "post_box", "brand": "United States Postal Service", "brand:wikidata": "Q668687", "collection_times": "Mo-Sa 10:00", "name": "USPS COLLECTION BOX - BLUE BOX", "nsi_id": "unitedstatespostalservice-a77078", "operator": "United States Postal Service", "operator:short": "USPS", "operator:type": "public", "operator:wikidata": "Q668687", "ref": "2263000008"}, "type": "Feature"}
{"dataset_attributes": {"@spider": "usps_collection_boxes", "spider:collection_time": "2023-10-13T08:25:25.513886"}, "geometry": {"coordinates": [-78.192268, 38.922911], "type": "Point"}, "id": "TD_Dd5fyXiu5tBmueqgNs51HEGA=", "properties": {"@spider": "usps_collection_boxes", "addr:city": "FRONT ROYAL", "addr:country": "US", "addr:full": "120 E 3RD ST", "addr:postcode": "22630", "addr:state": "VA", "amenity": "post_box", "brand": "United States Postal Service", "brand:wikidata": "Q668687", "collection_times": "Mo-Fr 17:00; Sa 16:15", "name": "USPS COLLECTION BOX - BLUE BOX", "note": "ON 12/24 AND 12/31, THIS BOX MAY BE COLLECTED AS EARLY AS 12 NOON.", "nsi_id": "unitedstatespostalservice-a77078", "operator": "United States Postal Service", "operator:short": "USPS", "operator:type": "public", "operator:wikidata": "Q668687", "ref": "2263000012"}, "type": "Feature"}
{"dataset_attributes": {"@spider": "usps_collection_boxes", "spider:collection_time": "2023-10-13T08:25:25.513886"}, "geometry": {"coordinates": [-78.199542, 38.936961], "type": "Point"}, "id": "6EjpwYt7Fpx_FZ9GHhYko-yzFoY=", "properties": {"@spider": "usps_collection_boxes", "addr:city": "FRONT ROYAL", "addr:country": "US", "addr:full": "1516 N. SHENANDOAH AVE ST D", "addr:postcode": "22630", "addr:state": "VA", "amenity": "post_box", "brand": "United States Postal Service", "brand:wikidata": "Q668687", "collection_times": "Mo-Sa 10:00", "name": "USPS COLLECTION BOX - BLUE BOX", "nsi_id": "unitedstatespostalservice-a77078", "operator": "United States Postal Service", "operator:short": "USPS", "operator:type": "public", "operator:wikidata": "Q668687", "ref": "2263000014"}, "type": "Feature"}
{"dataset_attributes": {"@spider": "usps_collection_boxes", "spider:collection_time": "2023-10-13T08:25:25.513886"}, "geometry": {"coordinates": [-78.1919555, 38.917908], "type": "Point"}, "id": "ENXmX1wZ23pCMGwZTcv5ZD2DFtY=", "properties": {"@spider": "usps_collection_boxes", "addr:city": "FRONT ROYAL", "addr:country": "US", "addr:full": "131 E MAIN ST", "addr:postcode": "22630", "addr:state": "VA", "amenity": "post_box", "brand": "United States Postal Service", "brand:wikidata": "Q668687", "collection_times": "Mo-Sa 10:00", "name": "USPS COLLECTION BOX - BLUE BOX", "nsi_id": "unitedstatespostalservice-a77078", "operator": "United States Postal Service", "operator:short": "USPS", "operator:type": "public", "operator:wikidata": "Q668687", "ref": "2263000017"}, "type": "Feature"}
{"dataset_attributes": {"@spider": "usps_collection_boxes", "spider:collection_time": "2023-10-13T08:25:25.513886"}, "geometry": {"coordinates": [-78.1929489, 38.91798], "type": "Point"}, "id": "rS8A4v2uos2BIRm1AcLxI1hc42U=", "properties": {"@spider": "usps_collection_boxes", "addr:city": "FRONT ROYAL", "addr:country": "US", "addr:full": "3 E MAIN ST", "addr:postcode": "22630", "addr:state": "VA", "amenity": "post_box", "brand": "United States Postal Service", "brand:wikidata": "Q668687", "collection_times": "Mo-Fr 15:00; Sa 12:00", "name": "USPS COLLECTION BOX - BLUE BOX", "note": "ON 12/24 AND 12/31, THIS BOX MAY BE COLLECTED AS EARLY AS 12 NOON.", "nsi_id": "unitedstatespostalservice-a77078", "operator": "United States Postal Service", "operator:short": "USPS", "operator:type": "public", "operator:wikidata": "Q668687", "ref": "2263000018"}, "type": "Feature"}
{"dataset_attributes": {"@spider": "usps_collection_boxes", "spider:collection_time": "2023-10-13T08:25:25.513886"}, "geometry": {"coordinates": [-78.1842519, 38.911509], "type": "Point"}, "id": "DO57B6bRKigesU4DK7KXfJrDE_s=", "properties": {"@spider": "usps_collection_boxes", "addr:city": "FRONT ROYAL", "addr:country": "US", "addr:full": "490 S COMMERCE AVE", "addr:postcode": "22630", "addr:state": "VA", "amenity": "post_box", "brand": "United States Postal Service", "brand:wikidata": "Q668687", "collection_times": "Mo-Sa 10:00", "name": "USPS COLLECTION BOX - BLUE BOX", "nsi_id": "unitedstatespostalservice-a77078", "operator": "United States Postal Service", "operator:short": "USPS", "operator:type": "public", "operator:wikidata": "Q668687", "ref": "2263000027"}, "type": "Feature"}
{"dataset_attributes": {"@spider": "usps_collection_boxes", "spider:collection_time": "2023-10-13T08:25:25.513886"}, "geometry": {"coordinates": [-78.192268, 38.922911], "type": "Point"}, "id": "hqMR2g_lIqwiQlcXqLcaZXDBGIo=", "properties": {"@spider": "usps_collection_boxes", "addr:city": "FRONT ROYAL", "addr:country": "US", "addr:full": "120 E 3RD ST", "addr:postcode": "22630", "addr:state": "VA", "amenity": "post_box", "brand": "United States Postal Service", "brand:wikidata": "Q668687", "collection_times": "Mo-Fr 17:00; Sa 16:15", "name": "USPS COLLECTION BOX - PO LOBBY", "note": "ON 12/24 AND 12/31, THIS BOX MAY BE COLLECTED AS EARLY AS 12 NOON.", "nsi_id": "unitedstatespostalservice-a77078", "operator": "United States Postal Service", "operator:short": "USPS", "operator:type": "public", "operator:wikidata": "Q668687", "ref": "2263000032"}, "type": "Feature"}
{"dataset_attributes": {"@spider": "usps_collection_boxes", "spider:collection_time": "2023-10-13T08:25:25.513886"}, "geometry": {"coordinates": [-78.192320217, 38.922931462], "type": "Point"}, "id": "fAvq_moQd9r9l66ife-aNTNUang=", "properties": {"@spider": "usps_collection_boxes", "addr:city": "FRONT ROYAL", "addr:country": "US", "addr:full": "120 E 3RD ST", "addr:postcode": "22630", "addr:state": "VA", "amenity": "post_box", "brand": "United States Postal Service", "brand:wikidata": "Q668687", "collection_times": "Mo-Fr 17:00; Sa 13:00", "name": "USPS COLLECTION BOX - PO LOBBY", "note": "ON 12/24 AND 12/31, THIS BOX MAY BE COLLECTED AS EARLY AS 12 NOON.", "nsi_id": "unitedstatespostalservice-a77078", "operator": "United States Postal Service", "operator:short": "USPS", "operator:type": "public", "operator:wikidata": "Q668687", "ref": "2263000038"}, "type": "Feature"}
{"dataset_attributes": {"@spider": "usps_collection_boxes", "spider:collection_time": "2023-10-13T08:25:25.513886"}, "geometry": {"coordinates": [-78.323702, 39.267329], "type": "Point"}, "id": "N-KtTkYs4lPlB58Eoo0u6FBnU80=", "properties": {"@spider": "usps_collection_boxes", "addr:city": "GORE", "addr:country": "US", "addr:full": "6819 NORTHWESTERN PIKE", "addr:postcode": "22637", "addr:state": "VA", "amenity": "post_box", "brand": "United States Postal Service", "brand:wikidata": "Q668687", "collection_times": "Mo-Fr 16:30; Sa 12:30", "name": "USPS COLLECTION BOX - BLUE BOX", "note": "ON 12/24 AND 12/31, THIS BOX MAY BE COLLECTED AS EARLY AS 12 NOON.", "nsi_id": "unitedstatespostalservice-a77078", "operator": "United States Postal Service", "operator:short": "USPS", "operator:type": "public", "operator:wikidata": "Q668687", "ref": "2263700001"}, "type": "Feature"}
{"dataset_attributes": {"@spider": "usps_collection_boxes", "spider:collection_time": "2023-10-13T08:25:25.513886"}, "geometry": {"coordinates": [-78.323721, 39.267353], "type": "Point"}, "id": "JgG2KK9Y2Y8Ime5zJeA1AT4fjUY=", "properties": {"@spider": "usps_collection_boxes", "addr:city": "GORE", "addr:country": "US", "addr:full": "6819 NORTHWESTERN PIKE", "addr:postcode": "22637", "addr:state": "VA", "amenity": "post_box", "brand": "United States Postal Service", "brand:wikidata": "Q668687", "collection_times": "Mo-Fr 16:30; Sa 13:00", "name": "USPS COLLECTION BOX - PO LOBBY", "note": "ON 12/24 AND 12/31, THIS BOX MAY BE COLLECTED AS EARLY AS 12 NOON.", "nsi_id": "unitedstatespostalservice-a77078", "operator": "United States Postal Service", "operator:short": "USPS", "operator:type": "public", "operator:wikidata": "Q668687", "ref": "2263700002"}, "type": "Feature"}
{"dataset_attributes": {"@spider": "usps_collection_boxes", "spider:collection_time": "2023-10-13T08:25:25.513886"}, "geometry": {"coordinates": [-78.323721, 39.267353], "type": "Point"}, "id": "b_PwvudOQiMRx06hUd4Ox1o9o0Q=", "properties": {"@spider": "usps_collection_boxes", "addr:city": "GORE", "addr:country": "US", "addr:full": "6819 NORTHWESTERN PIKE", "addr:postcode": "22637", "addr:state": "VA", "amenity": "post_box", "brand": "United States Postal Service", "brand:wikidata": "Q668687", "collection_times": "Mo-Fr 16:30; Sa 13:00", "name": "USPS COLLECTION BOX - PO LOBBY", "note": "ON 12/24 AND 12/31, THIS BOX MAY BE COLLECTED AS EARLY AS 12 NOON.", "nsi_id": "unitedstatespostalservice-a77078", "operator": "United States Postal Service", "operator:short": "USPS", "operator:type": "public", "operator:wikidata": "Q668687", "ref": "2263700003"}, "type": "Feature"}
{"dataset_attributes": {"@spider": "usps_collection_boxes", "spider:collection_time": "2023-10-13T08:25:25.513886"}, "geometry": {"coordinates": [-78.322788588, 39.267388388], "type": "Point"}, "id": "Zk1j16qLsejQ9KKo7AQf71Aul0Q=", "properties": {"@spider": "usps_collection_boxes", "addr:city": "GORE", "addr:country": "US", "addr:full": "6819 NORTHWESTERN PIKE", "addr:postcode": "22637", "addr:state": "VA", "amenity": "post_box", "brand": "United States Postal Service", "brand:wikidata": "Q668687", "collection_times": "Mo-Fr 16:30; Sa 13:00", "name": "USPS COLLECTION BOX - PO LOBBY", "note": "ON 12/24 AND 12/31, THIS BOX MAY BE COLLECTED AS EARLY AS 12 NOON.", "nsi_id": "unitedstatespostalservice-a77078", "operator": "United States Postal Service", "operator:short": "USPS", "operator:type": "public", "operator:wikidata": "Q668687", "ref": "2263700005"}, "type": "Feature"}
{"dataset_attributes": {"@spider": "usps_collection_boxes", "spider:collection_time": "2023-10-13T08:25:25.513886"}, "geometry": {"coordinates": [-77.999191, 38.83078], "type": "Point"}, "id": "MII4pc7pQG86gOnbeJLtfVA5yzw=", "properties": {"@spider": "usps_collection_boxes", "addr:city": "HUME", "addr:country": "US", "addr:full": "5046 LEEDS MANOR RD", "addr:postcode": "22639", "addr:state": "VA", "amenity": "post_box", "brand": "United States Postal Service", "brand:wikidata": "Q668687", "collection_times": "Mo-Fr 16:00; Sa 11:30", "name": "USPS COLLECTION BOX - BLUE BOX", "note": "ON 12/24 AND 12/31, THIS BOX MAY BE COLLECTED AS EARLY AS 12 NOON.", "nsi_id": "unitedstatespostalservice-a77078", "operator": "United States Postal Service", "operator:short": "USPS", "operator:type": "public", "operator:wikidata": "Q668687", "ref": "2263900001"}, "type": "Feature"}
{"dataset_attributes": {"@spider": "usps_collection_boxes", "spider:collection_time": "2023-10-13T08:25:25.513886"}, "geometry": {"coordinates": [-77.999148, 38.830758], "type": "Point"}, "id": "qLAw8WM2qPtHs316uK7L7pjAHTQ=", "properties": {"@spider": "usps_collection_boxes", "addr:city": "HUME", "addr:country": "US", "addr:full": "5046 LEEDS MANOR RD", "addr:postcode": "22639", "addr:state": "VA", "amenity": "post_box", "brand": "United States Postal Service", "brand:wikidata": "Q668687", "collection_times": "Mo-Fr 16:00; Sa 11:30", "name": "USPS COLLECTION BOX - PO LOBBY", "note": "ON 12/24 AND 12/31, THIS BOX MAY BE COLLECTED AS EARLY AS 12 NOON.", "nsi_id": "unitedstatespostalservice-a77078", "operator": "United States Postal Service", "operator:short": "USPS", "operator:type": "public", "operator:wikidata": "Q668687", "ref": "2263900002"}, "type": "Feature"}
{"dataset_attributes": {"@spider": "usps_collection_boxes", "spider:collection_time": "2023-10-13T08:25:25.513886"}, "geometry": {"coordinates": [-77.99927284, 38.831017034], "type": "Point"}, "id": "nJQ-3DNOfVjjfOagaa7rh_On09w=", "properties": {"@spider": "usps_collection_boxes", "addr:city": "HUME", "addr:country": "US", "addr:full": "5046 LEEDS MANOR RD", "addr:postcode": "22639", "addr:state": "VA", "amenity": "post_box", "brand": "United States Postal Service", "brand:wikidata": "Q668687", "collection_times": "Mo-Fr 17:00; Sa 13:00", "name": "USPS COLLECTION BOX - PO LOBBY", "note": "ON 12/24 AND 12/31, THIS BOX MAY BE COLLECTED AS EARLY AS 12 NOON.", "nsi_id": "unitedstatespostalservice-a77078", "operator": "United States Postal Service", "operator:short": "USPS", "operator:type": "public", "operator:wikidata": "Q668687", "ref": "2263900003"}, "type": "Feature"}
{"dataset_attributes": {"@spider": "usps_collection_boxes", "spider:collection_time": "2023-10-13T08:25:25.513886"}, "geometry": {"coordinates": [-78.073395, 38.909481], "type": "Point"}, "id": "c2qtP6UyOgxh2nIb0ayiRWrTmfo=", "properties": {"@spider": "usps_collection_boxes", "addr:city": "LINDEN", "addr:country": "US", "addr:full": "13474 JOHN MARSHALL HWY", "addr:postcode": "22642", "addr:state": "VA", "amenity": "post_box", "brand": "United States Postal Service", "brand:wikidata": "Q668687", "collection_times": "Mo-Fr 16:30; Sa 12:00", "name": "USPS COLLECTION BOX - BLUE BOX", "note": "ON 12/24 AND 12/31, THIS BOX MAY BE COLLECTED AS EARLY AS 12 NOON.", "nsi_id": "unitedstatespostalservice-a77078", "operator": "United States Postal Service", "operator:short": "USPS", "operator:type": "public", "operator:wikidata": "Q668687", "ref": "2264200001"}, "type": "Feature"}
{"dataset_attributes": {"@spider": "usps_collection_boxes", "spider:collection_time": "2023-10-13T08:25:25.513886"}, "geometry": {"coordinates": [-78.073414, 38.909453], "type": "Point"}, "id": "2hs4IhILAtpxACKCybKHyzIbsZg=", "properties": {"@spider": "usps_collection_boxes", "addr:city": "LINDEN", "addr:country": "US", "addr:full": "13474 JOHN MARSHALL HWY", "addr:postcode": "22642", "addr:state": "VA", "amenity": "post_box", "brand": "United States Postal Service", "brand:wikidata": "Q668687", "collection_times": "Mo-Fr 16:45; Sa 12:00", "name": "USPS COLLECTION BOX - PO LOBBY", "note": "ON 12/24 AND 12/31, THIS BOX MAY BE COLLECTED AS EARLY AS 12 NOON.", "nsi_id": "unitedstatespostalservice-a77078", "operator": "United States Postal Service", "operator:short": "USPS", "operator:type": "public", "operator:wikidata": "Q668687", "ref": "2264200003"}, "type": "Feature"}
{"dataset_attributes": {"@spider": "usps_collection_boxes", "spider:collection_time": "2023-10-13T08:25:25.513886"}, "geometry": {"coordinates": [-78.074881805, 38.909438494], "type": "Point"}, "id": "1MUIfcS_z77BpgoO52E1K0meIU8=", "properties": {"@spider": "usps_collection_boxes", "addr:city": "LINDEN", "addr:country": "US", "addr:full": "13474 JOHN MARSHALL HWY", "addr:postcode": "22642", "addr:state": "VA", "amenity": "post_box", "brand": "United States Postal Service", "brand:wikidata": "Q668687", "collection_times": "Mo-Fr 17:00; Sa 12:00", "name": "USPS COLLECTION BOX - PO LOBBY", "note": "ON 12/24 AND 12/31, THIS BOX MAY BE COLLECTED AS EARLY AS 12 NOON.", "nsi_id": "unitedstatespostalservice-a77078", "operator": "United States Postal Service", "operator:short": "USPS", "operator:type": "public", "operator:wikidata": "Q668687", "ref": "2264200005"}, "type": "Feature"}
{"dataset_attributes": {"@spider": "usps_collection_boxes", "spider:collection_time": "2023-10-13T08:25:25.513886"}, "geometry": {"coordinates": [-77.994346, 38.904931], "type": "Point"}, "id": "AFiohG50n4vTmIirACJMMSlRy5s=", "properties": {"@spider": "usps_collection_boxes", "addr:city": "MARKHAM", "addr:country": "US", "addr:full": "11524 OLD MARKHAM RD", "addr:postcode": "22643", "addr:state": "VA", "amenity": "post_box", "brand": "United States Postal Service", "brand:wikidata": "Q668687", "collection_times": "Mo-Sa 12:30", "name": "USPS COLLECTION BOX - BLUE BOX", "note": "ON 12/24 AND 12/31, THIS BOX MAY BE COLLECTED AS EARLY AS 12 NOON.", "nsi_id": "unitedstatespostalservice-a77078", "operator": "United States Postal Service", "operator:short": "USPS", "operator:type": "public", "operator:wikidata": "Q668687", "ref": "2264300001"}, "type": "Feature"}
{"dataset_attributes": {"@spider": "usps_collection_boxes", "spider:collection_time": "2023-10-13T08:25:25.513886"}, "geometry": {"coordinates": [-77.994408, 38.904896], "type": "Point"}, "id": "K5slQlNCD6Cb3nMgfJ5fqibq-pY=", "properties": {"@spider": "usps_collection_boxes", "addr:city": "MARKHAM", "addr:country": "US", "addr:full": "11524 OLD MARKHAM RD", "addr:postcode": "22643", "addr:state": "VA", "amenity": "post_box", "brand": "United States Postal Service", "brand:wikidata": "Q668687", "collection_times": "Mo-Sa 12:30", "name": "USPS COLLECTION BOX - PO LOBBY", "note": "ON 12/24 AND 12/31, THIS BOX MAY BE COLLECTED AS EARLY AS 12 NOON.", "nsi_id": "unitedstatespostalservice-a77078", "operator": "United States Postal Service", "operator:short": "USPS", "operator:type": "public", "operator:wikidata": "Q668687", "ref": "2264300002"}, "type": "Feature"}
{"dataset_attributes": {"@spider": "usps_collection_boxes", "spider:collection_time": "2023-10-13T08:25:25.513886"}, "geometry": {"coordinates": [-77.994491789, 38.904913424], "type": "Point"}, "id": "L1UwgbkaNpmExcKNWvVETh7-kCQ=", "properties": {"@spider": "usps_collection_boxes", "addr:city": "MARKHAM", "addr:country": "US", "addr:full": "11524 OLD MARKHAM RD", "addr:postcode": "22643", "addr:state": "VA", "amenity": "post_box", "brand": "United States Postal Service", "brand:wikidata": "Q668687", "collection_times": "Mo-Sa 12:30", "name": "USPS COLLECTION BOX - PO LOBBY", "note": "ON 12/24 AND 12/31, THIS BOX MAY BE COLLECTED AS EARLY AS 12 NOON.", "nsi_id": "unitedstatespostalservice-a77078", "operator": "United States Postal Service", "operator:short": "USPS", "operator:type": "public", "operator:wikidata": "Q668687", "ref": "2264300004"}, "type": "Feature"}
{"dataset_attributes": {"@spider": "usps_collection_boxes", "spider:collection_time": "2023-10-13T08:25:25.513886"}, "geometry": {"coordinates": [-78.46443, 38.928471], "type": "Point"}, "id": "u-pAG9nFY6ZyH2tlPjnuvNsJzro=", "properties": {"@spider": "usps_collection_boxes", "addr:city": "MAURERTOWN", "addr:country": "US", "addr:full": "24784 OLD VALLEY PIKE", "addr:postcode": "22644", "addr:state": "VA", "amenity": "post_box", "brand": "United States Postal Service", "brand:wikidata": "Q668687", "collection_times": "Mo-Fr 15:45; Sa 11:00", "name": "USPS COLLECTION BOX - BLUE BOX", "note": "ON 12/24 AND 12/31, THIS BOX MAY BE COLLECTED AS EARLY AS 12 NOON.", "nsi_id": "unitedstatespostalservice-a77078", "operator": "United States Postal Service", "operator:short": "USPS", "operator:type": "public", "operator:wikidata": "Q668687", "ref": "2264400003"}, "type": "Feature"}
{"dataset_attributes": {"@spider": "usps_collection_boxes", "spider:collection_time": "2023-10-13T08:25:25.513886"}, "geometry": {"coordinates": [-78.4380426, 38.96674], "type": "Point"}, "id": "qzkOLqNl7LlADM3f9CtrGGtjp90=", "properties": {"@spider": "usps_collection_boxes", "addr:city": "MAURERTOWN", "addr:country": "US", "addr:full": "24784 OLD VALLEY PIKE", "addr:postcode": "22644", "addr:state": "VA", "amenity": "post_box", "brand": "United States Postal Service", "brand:wikidata": "Q668687", "collection_times": "Mo-Fr 16:15; Sa 11:45", "name": "USPS COLLECTION BOX - PO LOBBY", "note": "ON 12/24 AND 12/31, THIS BOX MAY BE COLLECTED AS EARLY AS 12 NOON.", "nsi_id": "unitedstatespostalservice-a77078", "operator": "United States Postal Service", "operator:short": "USPS", "operator:type": "public", "operator:wikidata": "Q668687", "ref": "2264400004"}, "type": "Feature"}
{"dataset_attributes": {"@spider": "usps_collection_boxes", "spider:collection_time": "2023-10-13T08:25:25.513886"}, "geometry": {"coordinates": [-78.4644122172, 38.9285085551], "type": "Point"}, "id": "ZwiioY7Psb6EjuC7mPijr8fexHc=", "properties": {"@spider": "usps_collection_boxes", "addr:city": "MAURERTOWN", "addr:country": "US", "addr:full": "24784 OLD VALLEY PIKE", "addr:postcode": "22644", "addr:state": "VA", "amenity": "post_box", "brand": "United States Postal Service", "brand:wikidata": "Q668687", "collection_times": "Mo-Fr 16:30; Sa 12:00", "name": "USPS COLLECTION BOX - PO LOBBY", "note": "ON 12/24 AND 12/31, THIS BOX MAY BE COLLECTED AS EARLY AS 12 NOON.", "nsi_id": "unitedstatespostalservice-a77078", "operator": "United States Postal Service", "operator:short": "USPS", "operator:type": "public", "operator:wikidata": "Q668687", "ref": "2264400006"}, "type": "Feature"}
{"dataset_attributes": {"@spider": "usps_collection_boxes", "spider:collection_time": "2023-10-13T08:25:25.513886"}, "geometry": {"coordinates": [-78.280795, 39.027246], "type": "Point"}, "id": "PzX3ejaE0UdkD_SxlKQHsXUDG0I=", "properties": {"@spider": "usps_collection_boxes", "addr:city": "MIDDLETOWN", "addr:country": "US", "addr:full": "7922 MAIN ST", "addr:postcode": "22645", "addr:state": "VA", "amenity": "post_box", "brand": "United States Postal Service", "brand:wikidata": "Q668687", "collection_times": "Mo-Fr 16:00; Sa 11:30", "name": "USPS COLLECTION BOX - BLUE BOX", "note": "ON 12/24 AND 12/31, THIS BOX MAY BE COLLECTED AS EARLY AS 12 NOON.", "nsi_id": "unitedstatespostalservice-a77078", "operator": "United States Postal Service", "operator:short": "USPS", "operator:type": "public", "operator:wikidata": "Q668687", "ref": "2264500001"}, "type": "Feature"}
{"dataset_attributes": {"@spider": "usps_collection_boxes", "spider:collection_time": "2023-10-13T08:25:25.513886"}, "geometry": {"coordinates": [-78.2739605, 39.034412], "type": "Point"}, "id": "CfTiZ6ce1xGoM3lWFEGKDOGbWuM=", "properties": {"@spider": "usps_collection_boxes", "addr:city": "MIDDLETOWN", "addr:country": "US", "addr:full": "7601 MAIN ST", "addr:postcode": "22645", "addr:state": "VA", "amenity": "post_box", "brand": "United States Postal Service", "brand:wikidata": "Q668687", "collection_times": "Mo-Sa 09:30", "name": "USPS COLLECTION BOX - BLUE BOX", "nsi_id": "unitedstatespostalservice-a77078", "operator": "United States Postal Service", "operator:short": "USPS", "operator:type": "public", "operator:wikidata": "Q668687", "ref": "2264500002"}, "type": "Feature"}
{"dataset_attributes": {"@spider": "usps_collection_boxes", "spider:collection_time": "2023-10-13T08:25:25.513886"}, "geometry": {"coordinates": [-78.280813, 39.02727], "type": "Point"}, "id": "ZLfWlKq5wATphBhB8m-RS4Ah930=", "properties": {"@spider": "usps_collection_boxes", "addr:city": "MIDDLETOWN", "addr:country": "US", "addr:full": "7922 MAIN ST", "addr:postcode": "22645", "addr:state": "VA", "amenity": "post_box", "brand": "United States Postal Service", "brand:wikidata": "Q668687", "collection_times": "Mo-Fr 16:00; Sa 11:00", "name": "USPS COLLECTION BOX - PO LOBBY", "note": "ON 12/24 AND 12/31, THIS BOX MAY BE COLLECTED AS EARLY AS 12 NOON.", "nsi_id": "unitedstatespostalservice-a77078", "operator": "United States Postal Service", "operator:short": "USPS", "operator:type": "public", "operator:wikidata": "Q668687", "ref": "2264500003"}, "type": "Feature"}
{"dataset_attributes": {"@spider": "usps_collection_boxes", "spider:collection_time": "2023-10-13T08:25:25.513886"}, "geometry": {"coordinates": [-78.280782005, 39.027208083], "type": "Point"}, "id": "0S67AsGc_YeTCCkAUoWy16kYt54=", "properties": {"@spider": "usps_collection_boxes", "addr:city": "MIDDLETOWN", "addr:country": "US", "addr:full": "7922 MAIN ST", "addr:postcode": "22645", "addr:state": "VA", "amenity": "post_box", "brand": "United States Postal Service", "brand:wikidata": "Q668687", "collection_times": "Mo-Fr 17:00; Sa 12:00", "name": "USPS COLLECTION BOX - PO LOBBY", "note": "ON 12/24 AND 12/31, THIS BOX MAY BE COLLECTED AS EARLY AS 12 NOON.", "nsi_id": "unitedstatespostalservice-a77078", "operator": "United States Postal Service", "operator:short": "USPS", "operator:type": "public", "operator:wikidata": "Q668687", "ref": "2264500005"}, "type": "Feature"}
{"dataset_attributes": {"@spider": "usps_collection_boxes", "spider:collection_time": "2023-10-13T08:25:25.513886"}, "geometry": {"coordinates": [-78.038337, 39.069803], "type": "Point"}, "id": "SSvJRl9ILbA-1KGU3PjLhyiG0ug=", "properties": {"@spider": "usps_collection_boxes", "addr:city": "MILLWOOD", "addr:country": "US", "addr:full": "2009 MILLWOOD RD", "addr:postcode": "22646", "addr:state": "VA", "amenity": "post_box", "brand": "United States Postal Service", "brand:wikidata": "Q668687", "collection_times": "Mo-Fr 16:20; Sa 11:30", "name": "USPS COLLECTION BOX - BLUE BOX", "note": "ON 12/24 AND 12/31, THIS BOX MAY BE COLLECTED AS EARLY AS 12 NOON.", "nsi_id": "unitedstatespostalservice-a77078", "operator": "United States Postal Service", "operator:short": "USPS", "operator:type": "public", "operator:wikidata": "Q668687", "ref": "2264600001"}, "type": "Feature"}
{"dataset_attributes": {"@spider": "usps_collection_boxes", "spider:collection_time": "2023-10-13T08:25:25.513886"}, "geometry": {"coordinates": [-78.038297, 39.069714], "type": "Point"}, "id": "W7IbHlwnY5JeZnoVn6U85yltfIU=", "properties": {"@spider": "usps_collection_boxes", "addr:city": "MILLWOOD", "addr:country": "US", "addr:full": "2009 MILLWOOD RD", "addr:postcode": "22646", "addr:state": "VA", "amenity": "post_box", "brand": "United States Postal Service", "brand:wikidata": "Q668687", "collection_times": "Mo-Fr 16:15; Sa 12:00", "name": "USPS COLLECTION BOX - PO LOBBY", "note": "ON 12/24 AND 12/31, THIS BOX MAY BE COLLECTED AS EARLY AS 12 NOON.", "nsi_id": "unitedstatespostalservice-a77078", "operator": "United States Postal Service", "operator:short": "USPS", "operator:type": "public", "operator:wikidata": "Q668687", "ref": "2264600002"}, "type": "Feature"}
{"dataset_attributes": {"@spider": "usps_collection_boxes", "spider:collection_time": "2023-10-13T08:25:25.513886"}, "geometry": {"coordinates": [-78.038397263, 39.069859075], "type": "Point"}, "id": "qZoAN1UJk1l38QCXiLzRjy144y8=", "properties": {"@spider": "usps_collection_boxes", "addr:city": "MILLWOOD", "addr:country": "US", "addr:full": "2009 MILLWOOD RD", "addr:postcode": "22646", "addr:state": "VA", "amenity": "post_box", "brand": "United States Postal Service", "brand:wikidata": "Q668687", "collection_times": "Mo-Fr 16:30; Sa 12:00", "name": "USPS COLLECTION BOX - PO LOBBY", "note": "ON 12/24 AND 12/31, THIS BOX MAY BE COLLECTED AS EARLY AS 12 NOON.", "nsi_id": "unitedstatespostalservice-a77078", "operator": "United States Postal Service", "operator:short": "USPS", "operator:type": "public", "operator:wikidata": "Q668687", "ref": "2264600003"}, "type": "Feature"}
{"dataset_attributes": {"@spider": "usps_collection_boxes", "spider:collection_time": "2023-10-13T08:25:25.513886"}, "geometry": {"coordinates": [-78.387623, 38.76342], "type": "Point"}, "id": "eKslK4A8iQWZLh2uhx_kJyuvyuE=", "properties": {"@spider": "usps_collection_boxes", "addr:city": "RILEYVILLE", "addr:country": "US", "addr:full": "560 RILEYVILLE RD", "addr:postcode": "22650", "addr:state": "VA", "amenity": "post_box", "brand": "United States Postal Service", "brand:wikidata": "Q668687", "collection_times": "Mo-Fr 16:15; Sa 11:30", "name": "USPS COLLECTION BOX - BLUE BOX", "note": "ON 12/24 AND 12/31, THIS BOX MAY BE COLLECTED AS EARLY AS 12 NOON.", "nsi_id": "unitedstatespostalservice-a77078", "operator": "United States Postal Service", "operator:short": "USPS", "operator:type": "public", "operator:wikidata": "Q668687", "ref": "2265000001"}, "type": "Feature"}
{"dataset_attributes": {"@spider": "usps_collection_boxes", "spider:collection_time": "2023-10-13T08:25:25.513886"}, "geometry": {"coordinates": [-78.387571, 38.763416], "type": "Point"}, "id": "6uRTgSzvICWxpcGEAemvwFiO2wo=", "properties": {"@spider": "usps_collection_boxes", "addr:city": "RILEYVILLE", "addr:country": "US", "addr:full": "560 RILEYVILLE RD", "addr:postcode": "22650", "addr:state": "VA", "amenity": "post_box", "brand": "United States Postal Service", "brand:wikidata": "Q668687", "collection_times": "Mo-Fr 16:15; Sa 11:30", "name": "USPS COLLECTION BOX - PO LOBBY", "note": "ON 12/24 AND 12/31, THIS BOX MAY BE COLLECTED AS EARLY AS 12 NOON.", "nsi_id": "unitedstatespostalservice-a77078", "operator": "United States Postal Service", "operator:short": "USPS", "operator:type": "public", "operator:wikidata": "Q668687", "ref": "2265000002"}, "type": "Feature"}
{"dataset_attributes": {"@spider": "usps_collection_boxes", "spider:collection_time": "2023-10-13T08:25:25.513886"}, "geometry": {"coordinates": [-78.387644643, 38.763390777], "type": "Point"}, "id": "i6rtj_ufS4_3YzD5ahe8YeTSDns=", "properties": {"@spider": "usps_collection_boxes", "addr:city": "RILEYVILLE", "addr:country": "US", "addr:full": "560 RILEYVILLE RD", "addr:postcode": "22650", "addr:state": "VA", "amenity": "post_box", "brand": "United States Postal Service", "brand:wikidata": "Q668687", "collection_times": "Mo-Fr 16:30; Sa 12:00", "name": "USPS COLLECTION BOX - PO LOBBY", "note": "ON 12/24 AND 12/31, THIS BOX MAY BE COLLECTED AS EARLY AS 12 NOON.", "nsi_id": "unitedstatespostalservice-a77078", "operator": "United States Postal Service", "operator:short": "USPS", "operator:type": "public", "operator:wikidata": "Q668687", "ref": "2265000003"}, "type": "Feature"}
{"dataset_attributes": {"@spider": "usps_collection_boxes", "spider:collection_time": "2023-10-13T08:25:25.513886"}, "geometry": {"coordinates": [-78.415895029, 38.845300995], "type": "Point"}, "id": "HW14UMze494AxO2DBz-uE5G9AKM=", "properties": {"@spider": "usps_collection_boxes", "addr:city": "FORT VALLEY", "addr:country": "US", "addr:full": "7151 FORT VALLEY RD", "addr:postcode": "22652", "addr:state": "VA", "amenity": "post_box", "brand": "United States Postal Service", "brand:wikidata": "Q668687", "collection_times": "Mo-Sa 14:00", "name": "USPS COLLECTION BOX - BLUE BOX", "note": "ON 12/24 AND 12/31, THIS BOX MAY BE COLLECTED AS EARLY AS 12 NOON.", "nsi_id": "unitedstatespostalservice-a77078", "operator": "United States Postal Service", "operator:short": "USPS", "operator:type": "public", "operator:wikidata": "Q668687", "ref": "2265200001"}, "type": "Feature"}
{"dataset_attributes": {"@spider": "usps_collection_boxes", "spider:collection_time": "2023-10-13T08:25:25.513886"}, "geometry": {"coordinates": [-78.415895029, 38.845300995], "type": "Point"}, "id": "KKLvWjq-vxdW9jwBtXSzG9A47DY=", "properties": {"@spider": "usps_collection_boxes", "addr:city": "FORT VALLEY", "addr:country": "US", "addr:full": "7151 FORT VALLEY RD", "addr:postcode": "22652", "addr:state": "VA", "amenity": "post_box", "brand": "United States Postal Service", "brand:wikidata": "Q668687", "collection_times": "Mo-Sa 14:15", "name": "USPS COLLECTION BOX - PO LOBBY", "note": "ON 12/24 AND 12/31, THIS BOX MAY BE COLLECTED AS EARLY AS 12 NOON.", "nsi_id": "unitedstatespostalservice-a77078", "operator": "United States Postal Service", "operator:short": "USPS", "operator:type": "public", "operator:wikidata": "Q668687", "ref": "2265200002"}, "type": "Feature"}
{"dataset_attributes": {"@spider": "usps_collection_boxes", "spider:collection_time": "2023-10-13T08:25:25.513886"}, "geometry": {"coordinates": [-78.415895029, 38.845300995], "type": "Point"}, "id": "gntrDjABByveP9DYPXiOA65EVxw=", "properties": {"@spider": "usps_collection_boxes", "addr:city": "FORT VALLEY", "addr:country": "US", "addr:full": "7151 FORT VALLEY RD", "addr:postcode": "22652", "addr:state": "VA", "amenity": "post_box", "brand": "United States Postal Service", "brand:wikidata": "Q668687", "collection_times": "Mo-Sa 14:15", "name": "USPS COLLECTION BOX - PO LOBBY", "note": "ON 12/24 AND 12/31, THIS BOX MAY BE COLLECTED AS EARLY AS 12 NOON.", "nsi_id": "unitedstatespostalservice-a77078", "operator": "United States Postal Service", "operator:short": "USPS", "operator:type": "public", "operator:wikidata": "Q668687", "ref": "2265200003"}, "type": "Feature"}
{"dataset_attributes": {"@spider": "usps_collection_boxes", "spider:collection_time": "2023-10-13T08:25:25.513886"}, "geometry": {"coordinates": [-78.443563021, 39.076099004], "type": "Point"}, "id": "E_C_2vXmNEctm_M1_iV4OIQnOV4=", "properties": {"@spider": "usps_collection_boxes", "addr:city": "STAR TANNERY", "addr:country": "US", "addr:full": "950 BRILL RD", "addr:postcode": "22654", "addr:state": "VA", "amenity": "post_box", "brand": "United States Postal Service", "brand:wikidata": "Q668687", "collection_times": "Mo-Sa 12:30", "name": "USPS COLLECTION BOX - BLUE BOX", "note": "ON 12/24 AND 12/31, THIS BOX MAY BE COLLECTED AS EARLY AS 12 NOON.", "nsi_id": "unitedstatespostalservice-a77078", "operator": "United States Postal Service", "operator:short": "USPS", "operator:type": "public", "operator:wikidata": "Q668687", "ref": "2265400000"}, "type": "Feature"}
{"dataset_attributes": {"@spider": "usps_collection_boxes", "spider:collection_time": "2023-10-13T08:25:25.513886"}, "geometry": {"coordinates": [-78.211421, 39.090786], "type": "Point"}, "id": "wyqDNr_AB6gnQv8sO0Bnu3Qaz1U=", "properties": {"@spider": "usps_collection_boxes", "addr:city": "STEPHENS CITY", "addr:country": "US", "addr:full": "5071 MAIN ST", "addr:postcode": "22655", "addr:state": "VA", "amenity": "post_box", "brand": "United States Postal Service", "brand:wikidata": "Q668687", "collection_times": "Mo-Fr 17:00; Sa 14:30", "name": "USPS COLLECTION BOX - BLUE BOX", "note": "ON 12/24 AND 12/31, THIS BOX MAY BE COLLECTED AS EARLY AS 12 NOON.", "nsi_id": "unitedstatespostalservice-a77078", "operator": "United States Postal Service", "operator:short": "USPS", "operator:type": "public", "operator:wikidata": "Q668687", "ref": "2265500001"}, "type": "Feature"}
{"dataset_attributes": {"@spider": "usps_collection_boxes", "spider:collection_time": "2023-10-13T08:25:25.513886"}, "geometry": {"coordinates": [-78.1907184, 39.107906], "type": "Point"}, "id": "UfAZBCXh_JOka7ryTgsaRPSXAHY=", "properties": {"@spider": "usps_collection_boxes", "addr:city": "STEPHENS CITY", "addr:country": "US", "addr:full": "109 LAKERIDGE DR", "addr:postcode": "22655", "addr:state": "VA", "amenity": "post_box", "brand": "United States Postal Service", "brand:wikidata": "Q668687", "collection_times": "Mo-Sa 09:30", "name": "USPS COLLECTION BOX - BLUE BOX", "nsi_id": "unitedstatespostalservice-a77078", "operator": "United States Postal Service", "operator:short": "USPS", "operator:type": "public", "operator:wikidata": "Q668687", "ref": "2265500002"}, "type": "Feature"}
{"dataset_attributes": {"@spider": "usps_collection_boxes", "spider:collection_time": "2023-10-13T08:25:25.513886"}, "geometry": {"coordinates": [-78.1930486, 39.105302], "type": "Point"}, "id": "Lqw0oIgJkdEo-wfhLXOVbortj8c=", "properties": {"@spider": "usps_collection_boxes", "addr:city": "STEPHENS CITY", "addr:country": "US", "addr:full": "100-1 TIMBERLAKE TER", "addr:postcode": "22655", "addr:state": "VA", "amenity": "post_box", "brand": "United States Postal Service", "brand:wikidata": "Q668687", "collection_times": "Mo-Sa 09:30", "name": "USPS COLLECTION BOX - BLUE BOX", "nsi_id": "unitedstatespostalservice-a77078", "operator": "United States Postal Service", "operator:short": "USPS", "operator:type": "public", "operator:wikidata": "Q668687", "ref": "2265500003"}, "type": "Feature"}
{"dataset_attributes": {"@spider": "usps_collection_boxes", "spider:collection_time": "2023-10-13T08:25:25.513886"}, "geometry": {"coordinates": [-78.2061399, 39.079554], "type": "Point"}, "id": "HHz93bCT3qCtEfBWBECapvCBUPA=", "properties": {"@spider": "usps_collection_boxes", "addr:city": "STEPHENS CITY", "addr:country": "US", "addr:full": "358 FAIRFAX PIKE", "addr:postcode": "22655", "addr:state": "VA", "amenity": "post_box", "brand": "United States Postal Service", "brand:wikidata": "Q668687", "collection_times": "Mo-Sa 09:30", "name": "USPS COLLECTION BOX - BLUE BOX", "nsi_id": "unitedstatespostalservice-a77078", "operator": "United States Postal Service", "operator:short": "USPS", "operator:type": "public", "operator:wikidata": "Q668687", "ref": "2265500004"}, "type": "Feature"}
{"dataset_attributes": {"@spider": "usps_collection_boxes", "spider:collection_time": "2023-10-13T08:25:25.513886"}, "geometry": {"coordinates": [-78.211389, 39.090775], "type": "Point"}, "id": "S4jmN0kCuZ6MN4pnrFrypslVVOg=", "properties": {"@spider": "usps_collection_boxes", "addr:city": "STEPHENS CITY", "addr:country": "US", "addr:full": "5071 MAIN ST", "addr:postcode": "22655", "addr:state": "VA", "amenity": "post_box", "brand": "United States Postal Service", "brand:wikidata": "Q668687", "collection_times": "Mo-Fr 17:00; Sa 14:30", "name": "USPS COLLECTION BOX - PO LOBBY", "note": "ON 12/24 AND 12/31, THIS BOX MAY BE COLLECTED AS EARLY AS 12 NOON.", "nsi_id": "unitedstatespostalservice-a77078", "operator": "United States Postal Service", "operator:short": "USPS", "operator:type": "public", "operator:wikidata": "Q668687", "ref": "2265500005"}, "type": "Feature"}
{"dataset_attributes": {"@spider": "usps_collection_boxes", "spider:collection_time": "2023-10-13T08:25:25.513886"}, "geometry": {"coordinates": [-78.211394636, 39.090826319], "type": "Point"}, "id": "yt0Ogk1HZ9prYP80tYm-f8RI3kw=", "properties": {"@spider": "usps_collection_boxes", "addr:city": "STEPHENS CITY", "addr:country": "US", "addr:full": "5071 MAIN ST", "addr:postcode": "22655", "addr:state": "VA", "amenity": "post_box", "brand": "United States Postal Service", "brand:wikidata": "Q668687", "collection_times": "Mo-Fr 17:00; Sa 12:30", "name": "USPS COLLECTION BOX - PO LOBBY", "note": "ON 12/24 AND 12/31, THIS BOX MAY BE COLLECTED AS EARLY AS 12 NOON.", "nsi_id": "unitedstatespostalservice-a77078", "operator": "United States Postal Service", "operator:short": "USPS", "operator:type": "public", "operator:wikidata": "Q668687", "ref": "2265500008"}, "type": "Feature"}
{"dataset_attributes": {"@spider": "usps_collection_boxes", "spider:collection_time": "2023-10-13T08:25:25.513886"}, "geometry": {"coordinates": [-78.112951004, 39.233546015], "type": "Point"}, "id": "EUrRNw4suEaNC-LAgWXFPHK0NEc=", "properties": {"@spider": "usps_collection_boxes", "addr:city": "STEPHENSON", "addr:country": "US", "addr:full": "2546-2 MARTINSBURG PIKE", "addr:postcode": "22656", "addr:state": "VA", "amenity": "post_box", "brand": "United States Postal Service", "brand:wikidata": "Q668687", "collection_times": "Mo-Fr 16:30; Sa 11:30", "name": "USPS COLLECTION BOX - BLUE BOX", "note": "ON 12/24 AND 12/31, THIS BOX MAY BE COLLECTED AS EARLY AS 12 NOON.", "nsi_id": "unitedstatespostalservice-a77078", "operator": "United States Postal Service", "operator:short": "USPS", "operator:type": "public", "operator:wikidata": "Q668687", "ref": "2265600001"}, "type": "Feature"}
{"dataset_attributes": {"@spider": "usps_collection_boxes", "spider:collection_time": "2023-10-13T08:25:25.513886"}, "geometry": {"coordinates": [-78.112951004, 39.233546015], "type": "Point"}, "id": "cQSTPYCxANr_EWYQ0gYWH66Wl2s=", "properties": {"@spider": "usps_collection_boxes", "addr:city": "STEPHENSON", "addr:country": "US", "addr:full": "2546-2 MARTINSBURG PIKE", "addr:postcode": "22656", "addr:state": "VA", "amenity": "post_box", "brand": "United States Postal Service", "brand:wikidata": "Q668687", "collection_times": "Mo-Fr 16:30; Sa 12:00", "name": "USPS COLLECTION BOX - PO LOBBY", "note": "ON 12/24 AND 12/31, THIS BOX MAY BE COLLECTED AS EARLY AS 12 NOON.", "nsi_id": "unitedstatespostalservice-a77078", "operator": "United States Postal Service", "operator:short": "USPS", "operator:type": "public", "operator:wikidata": "Q668687", "ref": "2265600002"}, "type": "Feature"}
{"dataset_attributes": {"@spider": "usps_collection_boxes", "spider:collection_time": "2023-10-13T08:25:25.513886"}, "geometry": {"coordinates": [-78.113490944, 39.234047876], "type": "Point"}, "id": "LYEgHB3zvbZLqZejfydyYQyie8c=", "properties": {"@spider": "usps_collection_boxes", "addr:city": "STEPHENSON", "addr:country": "US", "addr:full": "2546C MARTINSBURG PIKE", "addr:postcode": "22656", "addr:state": "VA", "amenity": "post_box", "brand": "United States Postal Service", "brand:wikidata": "Q668687", "collection_times": "Mo-Fr 17:00; Sa 12:00", "name": "USPS COLLECTION BOX - PO LOBBY", "note": "ON 12/24 AND 12/31, THIS BOX MAY BE COLLECTED AS EARLY AS 12 NOON.", "nsi_id": "unitedstatespostalservice-a77078", "operator": "United States Postal Service", "operator:short": "USPS", "operator:type": "public", "operator:wikidata": "Q668687", "ref": "2265600003"}, "type": "Feature"}
{"dataset_attributes": {"@spider": "usps_collection_boxes", "spider:collection_time": "2023-10-13T08:25:25.513886"}, "geometry": {"coordinates": [-78.3493163, 38.99726], "type": "Point"}, "id": "N1eeLU35HkS8FcriSuIWFKbNXYw=", "properties": {"@spider": "usps_collection_boxes", "addr:city": "STRASBURG", "addr:country": "US", "addr:full": "792 SHOPPING CENTER RD", "addr:postcode": "22657", "addr:state": "VA", "amenity": "post_box", "brand": "United States Postal Service", "brand:wikidata": "Q668687", "collection_times": "Mo-Sa 09:00", "name": "USPS COLLECTION BOX - BLUE BOX", "nsi_id": "unitedstatespostalservice-a77078", "operator": "United States Postal Service", "operator:short": "USPS", "operator:type": "public", "operator:wikidata": "Q668687", "ref": "2265700008"}, "type": "Feature"}
{"dataset_attributes": {"@spider": "usps_collection_boxes", "spider:collection_time": "2023-10-13T08:25:25.513886"}, "geometry": {"coordinates": [-78.363619, 38.989655], "type": "Point"}, "id": "FoTWLj1Q0qCb2vWnH0H0FiswyP8=", "properties": {"@spider": "usps_collection_boxes", "addr:city": "STRASBURG", "addr:country": "US", "addr:full": "100 S FORT ST", "addr:postcode": "22657", "addr:state": "VA", "amenity": "post_box", "brand": "United States Postal Service", "brand:wikidata": "Q668687", "collection_times": "Mo-Sa 14:30", "name": "USPS COLLECTION BOX - BLUE BOX", "note": "ON 12/24 AND 12/31, THIS BOX MAY BE COLLECTED AS EARLY AS 12 NOON.", "nsi_id": "unitedstatespostalservice-a77078", "operator": "United States Postal Service", "operator:short": "USPS", "operator:type": "public", "operator:wikidata": "Q668687", "ref": "2265700009"}, "type": "Feature"}
{"dataset_attributes": {"@spider": "usps_collection_boxes", "spider:collection_time": "2023-10-13T08:25:25.513886"}, "geometry": {"coordinates": [-78.362715, 38.989554], "type": "Point"}, "id": "dzonro5qYUxNZ5ToEVgTlHysXSI=", "properties": {"@spider": "usps_collection_boxes", "addr:city": "STRASBURG", "addr:country": "US", "addr:full": "152 W KING ST", "addr:postcode": "22657", "addr:state": "VA", "amenity": "post_box", "brand": "United States Postal Service", "brand:wikidata": "Q668687", "collection_times": "Mo-Fr 17:00; Sa 15:00", "name": "USPS COLLECTION BOX - BLUE BOX", "note": "ON 12/24 AND 12/31, THIS BOX MAY BE COLLECTED AS EARLY AS 12 NOON.", "nsi_id": "unitedstatespostalservice-a77078", "operator": "United States Postal Service", "operator:short": "USPS", "operator:type": "public", "operator:wikidata": "Q668687", "ref": "2265700010"}, "type": "Feature"}
{"dataset_attributes": {"@spider": "usps_collection_boxes", "spider:collection_time": "2023-10-13T08:25:25.513886"}, "geometry": {"coordinates": [-78.362732, 38.98953], "type": "Point"}, "id": "4AFOgJ8TrDsj3apWlQUTqftHc1s=", "properties": {"@spider": "usps_collection_boxes", "addr:city": "STRASBURG", "addr:country": "US", "addr:full": "152 W KING ST", "addr:postcode": "22657", "addr:state": "VA", "amenity": "post_box", "brand": "United States Postal Service", "brand:wikidata": "Q668687", "collection_times": "Mo-Fr 16:30; Sa 15:00", "name": "USPS COLLECTION BOX - PO LOBBY", "note": "ON 12/24 AND 12/31, THIS BOX MAY BE COLLECTED AS EARLY AS 12 NOON.", "nsi_id": "unitedstatespostalservice-a77078", "operator": "United States Postal Service", "operator:short": "USPS", "operator:type": "public", "operator:wikidata": "Q668687", "ref": "2265700016"}, "type": "Feature"}
{"dataset_attributes": {"@spider": "usps_collection_boxes", "spider:collection_time": "2023-10-13T08:25:25.513886"}, "geometry": {"coordinates": [-78.36270156, 38.989546615], "type": "Point"}, "id": "Ye-X10SjLgWkoJ_ALQgk3NZcQXk=", "properties": {"@spider": "usps_collection_boxes", "addr:city": "STRASBURG", "addr:country": "US", "addr:full": "152 W KING ST", "addr:postcode": "22657", "addr:state": "VA", "amenity": "post_box", "brand": "United States Postal Service", "brand:wikidata": "Q668687", "collection_times": "Mo-Fr 17:00; Sa 12:00", "name": "USPS COLLECTION BOX - PO LOBBY", "note": "ON 12/24 AND 12/31, THIS BOX MAY BE COLLECTED AS EARLY AS 12 NOON.", "nsi_id": "unitedstatespostalservice-a77078", "operator": "United States Postal Service", "operator:short": "USPS", "operator:type": "public", "operator:wikidata": "Q668687", "ref": "2265700018"}, "type": "Feature"}
{"dataset_attributes": {"@spider": "usps_collection_boxes", "spider:collection_time": "2023-10-13T08:25:25.513886"}, "geometry": {"coordinates": [-78.440427, 38.946071], "type": "Point"}, "id": "4MmLNk11j4kF_yF18UbVZFRQzhQ=", "properties": {"@spider": "usps_collection_boxes", "addr:city": "TOMS BROOK", "addr:country": "US", "addr:full": "3374 S MAIN ST", "addr:postcode": "22660", "addr:state": "VA", "amenity": "post_box", "brand": "United States Postal Service", "brand:wikidata": "Q668687", "collection_times": "Mo-Fr 16:00; Sa 11:45", "name": "USPS COLLECTION BOX - BLUE BOX", "note": "ON 12/24 AND 12/31, THIS BOX MAY BE COLLECTED AS EARLY AS 12 NOON.", "nsi_id": "unitedstatespostalservice-a77078", "operator": "United States Postal Service", "operator:short": "USPS", "operator:type": "public", "operator:wikidata": "Q668687", "ref": "2266000001"}, "type": "Feature"}
{"dataset_attributes": {"@spider": "usps_collection_boxes", "spider:collection_time": "2023-10-13T08:25:25.513886"}, "geometry": {"coordinates": [-78.4395692, 38.965807], "type": "Point"}, "id": "hgNP_80q4LhfW8bgR5zqYaBa85E=", "properties": {"@spider": "usps_collection_boxes", "addr:city": "TOMS BROOK", "addr:country": "US", "addr:full": "1015 MOUNT OLIVE RD", "addr:postcode": "22660", "addr:state": "VA", "amenity": "post_box", "brand": "United States Postal Service", "brand:wikidata": "Q668687", "collection_times": "Mo-Sa 10:30", "name": "USPS COLLECTION BOX - BLUE BOX", "nsi_id": "unitedstatespostalservice-a77078", "operator": "United States Postal Service", "operator:short": "USPS", "operator:type": "public", "operator:wikidata": "Q668687", "ref": "2266000002"}, "type": "Feature"}
{"dataset_attributes": {"@spider": "usps_collection_boxes", "spider:collection_time": "2023-10-13T08:25:25.513886"}, "geometry": {"coordinates": [-78.4380949, 38.966713], "type": "Point"}, "id": "bHR1MncfaAbALaUtLsqq1MuEwHI=", "properties": {"@spider": "usps_collection_boxes", "addr:city": "TOMS BROOK", "addr:country": "US", "addr:full": "1014 MOUNT OLIVE RD", "addr:postcode": "22660", "addr:state": "VA", "amenity": "post_box", "brand": "United States Postal Service", "brand:wikidata": "Q668687", "collection_times": "Mo-Sa 10:30", "name": "USPS COLLECTION BOX - BLUE BOX", "nsi_id": "unitedstatespostalservice-a77078", "operator": "United States Postal Service", "operator:short": "USPS", "operator:type": "public", "operator:wikidata": "Q668687", "ref": "2266000004"}, "type": "Feature"}
{"dataset_attributes": {"@spider": "usps_collection_boxes", "spider:collection_time": "2023-10-13T08:25:25.513886"}, "geometry": {"coordinates": [-78.4399963479, 38.9463515426], "type": "Point"}, "id": "PKU659MKoW2U_e2ykOBnA2BdquA=", "properties": {"@spider": "usps_collection_boxes", "addr:city": "TOMS BROOK", "addr:country": "US", "addr:full": "3374 S MAIN ST", "addr:postcode": "22660", "addr:state": "VA", "amenity": "post_box", "brand": "United States Postal Service", "brand:wikidata": "Q668687", "collection_times": "Mo-Fr 16:00; Sa 12:15", "name": "USPS COLLECTION BOX - PO LOBBY", "note": "ON 12/24 AND 12/31, THIS BOX MAY BE COLLECTED AS EARLY AS 12 NOON.", "nsi_id": "unitedstatespostalservice-a77078", "operator": "United States Postal Service", "operator:short": "USPS", "operator:type": "public", "operator:wikidata": "Q668687", "ref": "2266000005"}, "type": "Feature"}
{"dataset_attributes": {"@spider": "usps_collection_boxes", "spider:collection_time": "2023-10-13T08:25:25.513886"}, "geometry": {"coordinates": [-78.439991848, 38.946351543], "type": "Point"}, "id": "_CpeDBJtgHJmfVzFKxpZDMePsqI=", "properties": {"@spider": "usps_collection_boxes", "addr:city": "TOMS BROOK", "addr:country": "US", "addr:full": "3374 S MAIN ST", "addr:postcode": "22660", "addr:state": "VA", "amenity": "post_box", "brand": "United States Postal Service", "brand:wikidata": "Q668687", "collection_times": "Mo-Fr 16:00; Sa 12:15", "name": "USPS COLLECTION BOX - PO LOBBY", "note": "ON 12/24 AND 12/31, THIS BOX MAY BE COLLECTED AS EARLY AS 12 NOON.", "nsi_id": "unitedstatespostalservice-a77078", "operator": "United States Postal Service", "operator:short": "USPS", "operator:type": "public", "operator:wikidata": "Q668687", "ref": "2266000007"}, "type": "Feature"}
{"dataset_attributes": {"@spider": "usps_collection_boxes", "spider:collection_time": "2023-10-13T08:25:25.513886"}, "geometry": {"coordinates": [-78.104715, 39.058436], "type": "Point"}, "id": "gOMBUnQPG70_IC9z0g3_TvsjmsE=", "properties": {"@spider": "usps_collection_boxes", "addr:city": "WHITE POST", "addr:country": "US", "addr:full": "14725 LORD FAIRFAX HWY", "addr:postcode": "22663", "addr:state": "VA", "amenity": "post_box", "brand": "United States Postal Service", "brand:wikidata": "Q668687", "collection_times": "Mo-Fr 16:15; Sa 12:45", "name": "USPS COLLECTION BOX - BLUE BOX", "note": "ON 12/24 AND 12/31, THIS BOX MAY BE COLLECTED AS EARLY AS 12 NOON.", "nsi_id": "unitedstatespostalservice-a77078", "operator": "United States Postal Service", "operator:short": "USPS", "operator:type": "public", "operator:wikidata": "Q668687", "ref": "2266300001"}, "type": "Feature"}
{"dataset_attributes": {"@spider": "usps_collection_boxes", "spider:collection_time": "2023-10-13T08:25:25.513886"}, "geometry": {"coordinates": [-78.104748, 39.058455], "type": "Point"}, "id": "WjixPJH7QRlfTE9u0BZ6rVzCS6U=", "properties": {"@spider": "usps_collection_boxes", "addr:city": "WHITE POST", "addr:country": "US", "addr:full": "14725 LORD FAIRFAX HWY", "addr:postcode": "22663", "addr:state": "VA", "amenity": "post_box", "brand": "United States Postal Service", "brand:wikidata": "Q668687", "collection_times": "Mo-Fr 16:15; Sa 12:45", "name": "USPS COLLECTION BOX - PO LOBBY", "note": "ON 12/24 AND 12/31, THIS BOX MAY BE COLLECTED AS EARLY AS 12 NOON.", "nsi_id": "unitedstatespostalservice-a77078", "operator": "United States Postal Service", "operator:short": "USPS", "operator:type": "public", "operator:wikidata": "Q668687", "ref": "2266300002"}, "type": "Feature"}
{"dataset_attributes": {"@spider": "usps_collection_boxes", "spider:collection_time": "2023-10-13T08:25:25.513886"}, "geometry": {"coordinates": [-78.105965019, 39.058042864], "type": "Point"}, "id": "xh-LTYuhTx9vvvL_ngkCET1fgBU=", "properties": {"@spider": "usps_collection_boxes", "addr:city": "WHITE POST", "addr:country": "US", "addr:full": "14725 LORD FAIRFAX HWY", "addr:postcode": "22663", "addr:state": "VA", "amenity": "post_box", "brand": "United States Postal Service", "brand:wikidata": "Q668687", "collection_times": "Mo-Fr 16:15; Sa 13:15", "name": "USPS COLLECTION BOX - PO LOBBY", "note": "ON 12/24 AND 12/31, THIS BOX MAY BE COLLECTED AS EARLY AS 12 NOON.", "nsi_id": "unitedstatespostalservice-a77078", "operator": "United States Postal Service", "operator:short": "USPS", "operator:type": "public", "operator:wikidata": "Q668687", "ref": "2266300003"}, "type": "Feature"}
{"dataset_attributes": {"@spider": "usps_collection_boxes", "spider:collection_time": "2023-10-13T08:25:25.513886"}, "geometry": {"coordinates": [-78.507398, 38.881903], "type": "Point"}, "id": "SVL29x_PfXeuA4JNwxd-8uY4hbo=", "properties": {"@spider": "usps_collection_boxes", "addr:city": "WOODSTOCK", "addr:country": "US", "addr:full": "120 S MUHLENBERG ST", "addr:postcode": "22664", "addr:state": "VA", "amenity": "post_box", "brand": "United States Postal Service", "brand:wikidata": "Q668687", "collection_times": "Mo-Fr 17:00; Sa 16:00", "name": "USPS COLLECTION BOX - BLUE BOX", "note": "ON 12/24 AND 12/31, THIS BOX MAY BE COLLECTED AS EARLY AS 12 NOON.", "nsi_id": "unitedstatespostalservice-a77078", "operator": "United States Postal Service", "operator:short": "USPS", "operator:type": "public", "operator:wikidata": "Q668687", "ref": "2266400001"}, "type": "Feature"}
{"dataset_attributes": {"@spider": "usps_collection_boxes", "spider:collection_time": "2023-10-13T08:25:25.513886"}, "geometry": {"coordinates": [-78.5136368, 38.866029], "type": "Point"}, "id": "grDgfedP_2hFNCB4pOQAz66hc5U=", "properties": {"@spider": "usps_collection_boxes", "addr:city": "WOODSTOCK", "addr:country": "US", "addr:full": "170 E RESERVOIR RD", "addr:postcode": "22664", "addr:state": "VA", "amenity": "post_box", "brand": "United States Postal Service", "brand:wikidata": "Q668687", "collection_times": "Mo-Sa 09:00", "name": "USPS COLLECTION BOX - BLUE BOX", "nsi_id": "unitedstatespostalservice-a77078", "operator": "United States Postal Service", "operator:short": "USPS", "operator:type": "public", "operator:wikidata": "Q668687", "ref": "2266400003"}, "type": "Feature"}
{"dataset_attributes": {"@spider": "usps_collection_boxes", "spider:collection_time": "2023-10-13T08:25:25.513886"}, "geometry": {"coordinates": [-78.5160817, 38.865346], "type": "Point"}, "id": "4wKpOzZy29LVGmuJ74AZuGGIrmk=", "properties": {"@spider": "usps_collection_boxes", "addr:city": "WOODSTOCK", "addr:country": "US", "addr:full": "1101 S MAIN ST", "addr:postcode": "22664", "addr:state": "VA", "amenity": "post_box", "brand": "United States Postal Service", "brand:wikidata": "Q668687", "collection_times": "Mo-Sa 11:30", "name": "USPS COLLECTION BOX - BLUE BOX", "nsi_id": "unitedstatespostalservice-a77078", "operator": "United States Postal Service", "operator:short": "USPS", "operator:type": "public", "operator:wikidata": "Q668687", "ref": "2266400005"}, "type": "Feature"}
{"dataset_attributes": {"@spider": "usps_collection_boxes", "spider:collection_time": "2023-10-13T08:25:25.513886"}, "geometry": {"coordinates": [-78.5052553, 38.882015], "type": "Point"}, "id": "MyEQIEQqwaEtVAQy5Rb7CfBahiM=", "properties": {"@spider": "usps_collection_boxes", "addr:city": "WOODSTOCK", "addr:country": "US", "addr:full": "100 N MAIN ST", "addr:postcode": "22664", "addr:state": "VA", "amenity": "post_box", "brand": "United States Postal Service", "brand:wikidata": "Q668687", "collection_times": "Mo-Sa 10:00", "name": "USPS COLLECTION BOX - BLUE BOX", "nsi_id": "unitedstatespostalservice-a77078", "operator": "United States Postal Service", "operator:short": "USPS", "operator:type": "public", "operator:wikidata": "Q668687", "ref": "2266400006"}, "type": "Feature"}
{"dataset_attributes": {"@spider": "usps_collection_boxes", "spider:collection_time": "2023-10-13T08:25:25.513886"}, "geometry": {"coordinates": [-78.5002053, 38.88676], "type": "Point"}, "id": "8kpUjIVFd30XcNEBYnyIUOKZOKk=", "properties": {"@spider": "usps_collection_boxes", "addr:city": "WOODSTOCK", "addr:country": "US", "addr:full": "476 N MAIN ST", "addr:postcode": "22664", "addr:state": "VA", "amenity": "post_box", "brand": "United States Postal Service", "brand:wikidata": "Q668687", "collection_times": "Mo-Sa 10:00", "name": "USPS COLLECTION BOX - BLUE BOX", "nsi_id": "unitedstatespostalservice-a77078", "operator": "United States Postal Service", "operator:short": "USPS", "operator:type": "public", "operator:wikidata": "Q668687", "ref": "2266400007"}, "type": "Feature"}
{"dataset_attributes": {"@spider": "usps_collection_boxes", "spider:collection_time": "2023-10-13T08:25:25.513886"}, "geometry": {"coordinates": [-78.4992248, 38.888743], "type": "Point"}, "id": "bDh9KdHPoi4l72YZO_SXI70MjMg=", "properties": {"@spider": "usps_collection_boxes", "addr:city": "WOODSTOCK", "addr:country": "US", "addr:full": "600 N MAIN ST", "addr:postcode": "22664", "addr:state": "VA", "amenity": "post_box", "brand": "United States Postal Service", "brand:wikidata": "Q668687", "collection_times": "Mo-Fr 10:00; Sa 09:00", "name": "USPS COLLECTION BOX - BLUE BOX", "nsi_id": "unitedstatespostalservice-a77078", "operator": "United States Postal Service", "operator:short": "USPS", "operator:type": "public", "operator:wikidata": "Q668687", "ref": "2266400018"}, "type": "Feature"}
{"dataset_attributes": {"@spider": "usps_collection_boxes", "spider:collection_time": "2023-10-13T08:25:25.513886"}, "geometry": {"coordinates": [-78.5311599, 38.86961], "type": "Point"}, "id": "aNxiXJbrgIHnWFwTChj3sW4Xgg8=", "properties": {"@spider": "usps_collection_boxes", "addr:city": "WOODSTOCK", "addr:country": "US", "addr:full": "465 W RESERVOIR RD", "addr:postcode": "22664", "addr:state": "VA", "amenity": "post_box", "brand": "United States Postal Service", "brand:wikidata": "Q668687", "collection_times": "Mo-Sa 10:30", "name": "USPS COLLECTION BOX - BLUE BOX", "nsi_id": "unitedstatespostalservice-a77078", "operator": "United States Postal Service", "operator:short": "USPS", "operator:type": "public", "operator:wikidata": "Q668687", "ref": "2266400020"}, "type": "Feature"}
{"dataset_attributes": {"@spider": "usps_collection_boxes", "spider:collection_time": "2023-10-13T08:25:25.513886"}, "geometry": {"coordinates": [-78.50743, 38.881812], "type": "Point"}, "id": "Q76F0xTGbZWbnB-_ZSsxkQajn3c=", "properties": {"@spider": "usps_collection_boxes", "addr:city": "WOODSTOCK", "addr:country": "US", "addr:full": "120 S MUHLENBERG ST", "addr:postcode": "22664", "addr:state": "VA", "amenity": "post_box", "brand": "United States Postal Service", "brand:wikidata": "Q668687", "collection_times": "Mo-Fr 16:45; Sa 16:00", "name": "USPS COLLECTION BOX - PO LOBBY", "note": "ON 12/24 AND 12/31, THIS BOX MAY BE COLLECTED AS EARLY AS 12 NOON.", "nsi_id": "unitedstatespostalservice-a77078", "operator": "United States Postal Service", "operator:short": "USPS", "operator:type": "public", "operator:wikidata": "Q668687", "ref": "2266400021"}, "type": "Feature"}
{"dataset_attributes": {"@spider": "usps_collection_boxes", "spider:collection_time": "2023-10-13T08:25:25.513886"}, "geometry": {"coordinates": [-78.507315067, 38.882007701], "type": "Point"}, "id": "EIRnet0CjrQD4SDWws6DjZDA5c0=", "properties": {"@spider": "usps_collection_boxes", "addr:city": "WOODSTOCK", "addr:country": "US", "addr:full": "120 S MUHLENBERG ST", "addr:postcode": "22664", "addr:state": "VA", "amenity": "post_box", "brand": "United States Postal Service", "brand:wikidata": "Q668687", "collection_times": "Mo-Fr 17:00; Sa 12:00", "name": "USPS COLLECTION BOX - PO LOBBY", "note": "ON 12/24 AND 12/31, THIS BOX MAY BE COLLECTED AS EARLY AS 12 NOON.", "nsi_id": "unitedstatespostalservice-a77078", "operator": "United States Postal Service", "operator:short": "USPS", "operator:type": "public", "operator:wikidata": "Q668687", "ref": "2266400024"}, "type": "Feature"}
