{"dataset_attributes": {"@spider": "usps_collection_boxes"}, "geometry": {"coordinates": [-77.826808, 38.41592], "type": "Point"}, "id": "ihqah6UzhDlnGqfE8CFpnIf8NN4=", "properties": {"@spider": "usps_collection_boxes", "addr:city": "LIGNUM", "addr:country": "US", "addr:full": "23395 LIGNUM RD", "addr:postcode": "22726", "addr:state": "VA", "amenity": "post_box", "brand": "United States Postal Service", "brand:wikidata": "Q668687", "collection_times": "Mo-Fr 16:30; Sa 12:00", "name": "USPS COLLECTION BOX - BLUE BOX", "note": "ON 12/24 AND 12/31, THIS BOX MAY BE COLLECTED AS EARLY AS 12 NOON.", "nsi_id": "unitedstatespostalservice-a77078", "operator": "United States Postal Service", "operator:short": "USPS", "operator:type": "public", "operator:wikidata": "Q668687", "ref": "2272600000"}, "type": "Feature"}
{"dataset_attributes": {"@spider": "usps_collection_boxes"}, "geometry": {"coordinates": [-77.826899, 38.415944], "type": "Point"}, "id": "ko-3gq-KFSgHDO2lmCKWP8Mg-sc=", "properties": {"@spider": "usps_collection_boxes", "addr:city": "LIGNUM", "addr:country": "US", "addr:full": "23395 LIGNUM RD", "addr:postcode": "22726", "addr:state": "VA", "amenity": "post_box", "brand": "United States Postal Service", "brand:wikidata": "Q668687", "collection_times": "Mo-Fr 16:30; Sa 12:00", "name": "USPS COLLECTION BOX - PO LOBBY", "note": "ON 12/24 AND 12/31, THIS BOX MAY BE COLLECTED AS EARLY AS 12 NOON.", "nsi_id": "unitedstatespostalservice-a77078", "operator": "United States Postal Service", "operator:short": "USPS", "operator:type": "public", "operator:wikidata": "Q668687", "ref": "2272600001"}, "type": "Feature"}
{"dataset_attributes": {"@spider": "usps_collection_boxes"}, "geometry": {"coordinates": [-77.8268423, 38.415934643], "type": "Point"}, "id": "YBTUxsZYKlEdLSXAqPtldjuHvDM=", "properties": {"@spider": "usps_collection_boxes", "addr:city": "LIGNUM", "addr:country": "US", "addr:full": "23395 LIGNUM RD", "addr:postcode": "22726", "addr:state": "VA", "amenity": "post_box", "brand": "United States Postal Service", "brand:wikidata": "Q668687", "collection_times": "Mo-Fr 16:30; Sa 13:00", "name": "USPS COLLECTION BOX - PO LOBBY", "note": "ON 12/24 AND 12/31, THIS BOX MAY BE COLLECTED AS EARLY AS 12 NOON.", "nsi_id": "unitedstatespostalservice-a77078", "operator": "United States Postal Service", "operator:short": "USPS", "operator:type": "public", "operator:wikidata": "Q668687", "ref": "2272600002"}, "type": "Feature"}
{"dataset_attributes": {"@spider": "usps_collection_boxes"}, "geometry": {"coordinates": [-77.6100845, 38.521755], "type": "Point"}, "id": "OIa7JhE37CqwOGCE8mu3h1cU4Cc=", "properties": {"@spider": "usps_collection_boxes", "addr:city": "MIDLAND", "addr:country": "US", "addr:full": "2392 MIDLAND RD", "addr:postcode": "22728", "addr:state": "VA", "amenity": "post_box", "brand": "United States Postal Service", "brand:wikidata": "Q668687", "collection_times": "Mo-Sa 12:00", "name": "USPS COLLECTION BOX - BLUE BOX", "nsi_id": "unitedstatespostalservice-a77078", "operator": "United States Postal Service", "operator:short": "USPS", "operator:type": "public", "operator:wikidata": "Q668687", "ref": "2272800002"}, "type": "Feature"}
{"dataset_attributes": {"@spider": "usps_collection_boxes"}, "geometry": {"coordinates": [-78.066558169, 38.313847561], "type": "Point"}, "id": "lUr9xw7XtxN0F1mjm3dtSDng2KA=", "properties": {"@spider": "usps_collection_boxes", "addr:city": "RAPIDAN", "addr:country": "US", "addr:full": "9767 LOCUST DALE RD", "addr:postcode": "22733", "addr:state": "VA", "amenity": "post_box", "brand": "United States Postal Service", "brand:wikidata": "Q668687", "collection_times": "Mo-Fr 12:00; Sa 11:30", "name": "USPS COLLECTION BOX - BLUE BOX", "nsi_id": "unitedstatespostalservice-a77078", "operator": "United States Postal Service", "operator:short": "USPS", "operator:type": "public", "operator:wikidata": "Q668687", "ref": "2273300002"}, "type": "Feature"}
{"dataset_attributes": {"@spider": "usps_collection_boxes"}, "geometry": {"coordinates": [-78.066558169, 38.313847561], "type": "Point"}, "id": "vKMcBSDOVpIT_-kAlRnUElDd-C4=", "properties": {"@spider": "usps_collection_boxes", "addr:city": "RAPIDAN", "addr:country": "US", "addr:full": "9767 LOCUST DALE RD", "addr:postcode": "22733", "addr:state": "VA", "amenity": "post_box", "brand": "United States Postal Service", "brand:wikidata": "Q668687", "collection_times": "Mo-Fr 13:45; Sa 11:45", "name": "USPS COLLECTION BOX - PO LOBBY", "note": "ON 12/24 AND 12/31, THIS BOX MAY BE COLLECTED AS EARLY AS 12 NOON.", "nsi_id": "unitedstatespostalservice-a77078", "operator": "United States Postal Service", "operator:short": "USPS", "operator:type": "public", "operator:wikidata": "Q668687", "ref": "2273300004"}, "type": "Feature"}
{"dataset_attributes": {"@spider": "usps_collection_boxes"}, "geometry": {"coordinates": [-78.066653209, 38.313971612], "type": "Point"}, "id": "8TfhYUwTWhr9tPLo7tWaHk4eegY=", "properties": {"@spider": "usps_collection_boxes", "addr:city": "RAPIDAN", "addr:country": "US", "addr:full": "9767 LOCUST DALE RD", "addr:postcode": "22733", "addr:state": "VA", "amenity": "post_box", "brand": "United States Postal Service", "brand:wikidata": "Q668687", "collection_times": "Mo-Fr 14:00; Sa 12:00", "name": "USPS COLLECTION BOX - PO LOBBY", "note": "ON 12/24 AND 12/31, THIS BOX MAY BE COLLECTED AS EARLY AS 12 NOON.", "nsi_id": "unitedstatespostalservice-a77078", "operator": "United States Postal Service", "operator:short": "USPS", "operator:type": "public", "operator:wikidata": "Q668687", "ref": "2273300005"}, "type": "Feature"}
{"dataset_attributes": {"@spider": "usps_collection_boxes"}, "geometry": {"coordinates": [-77.897358, 38.440948], "type": "Point"}, "id": "6IWPmkBWC2QfYrYGe6uu_6vZUfE=", "properties": {"@spider": "usps_collection_boxes", "addr:city": "STEVENSBURG", "addr:country": "US", "addr:full": "19312 GERMANNA HWY", "addr:postcode": "22741", "addr:state": "VA", "amenity": "post_box", "brand": "United States Postal Service", "brand:wikidata": "Q668687", "collection_times": "Mo-Fr 13:30; Sa 13:00", "name": "USPS COLLECTION BOX - BLUE BOX", "note": "ON 12/24 AND 12/31, THIS BOX MAY BE COLLECTED AS EARLY AS 12 NOON.", "nsi_id": "unitedstatespostalservice-a77078", "operator": "United States Postal Service", "operator:short": "USPS", "operator:type": "public", "operator:wikidata": "Q668687", "ref": "2274100000"}, "type": "Feature"}
{"dataset_attributes": {"@spider": "usps_collection_boxes"}, "geometry": {"coordinates": [-77.726716, 38.455116], "type": "Point"}, "id": "qM4y_xBCp5MJb4cJKq3PwgbX55I=", "properties": {"@spider": "usps_collection_boxes", "addr:city": "SUMERDUCK", "addr:country": "US", "addr:full": "5338 SUMERDUCK RD", "addr:postcode": "22742", "addr:state": "VA", "amenity": "post_box", "brand": "United States Postal Service", "brand:wikidata": "Q668687", "collection_times": "Mo-Fr 15:00; Sa 12:00", "name": "USPS COLLECTION BOX - BLUE BOX", "note": "ON 12/24 AND 12/31, THIS BOX MAY BE COLLECTED AS EARLY AS 12 NOON.", "nsi_id": "unitedstatespostalservice-a77078", "operator": "United States Postal Service", "operator:short": "USPS", "operator:type": "public", "operator:wikidata": "Q668687", "ref": "2274200000"}, "type": "Feature"}
{"dataset_attributes": {"@spider": "usps_collection_boxes"}, "geometry": {"coordinates": [-77.726773, 38.455189], "type": "Point"}, "id": "pQzfALSoXZFS-4hvQ_ihBodkQDE=", "properties": {"@spider": "usps_collection_boxes", "addr:city": "SUMERDUCK", "addr:country": "US", "addr:full": "5338 SUMERDUCK RD", "addr:postcode": "22742", "addr:state": "VA", "amenity": "post_box", "brand": "United States Postal Service", "brand:wikidata": "Q668687", "collection_times": "Mo-Fr 15:30; Sa 12:30", "name": "USPS COLLECTION BOX - PO LOBBY", "note": "ON 12/24 AND 12/31, THIS BOX MAY BE COLLECTED AS EARLY AS 12 NOON.", "nsi_id": "unitedstatespostalservice-a77078", "operator": "United States Postal Service", "operator:short": "USPS", "operator:type": "public", "operator:wikidata": "Q668687", "ref": "2274200001"}, "type": "Feature"}
{"dataset_attributes": {"@spider": "usps_collection_boxes"}, "geometry": {"coordinates": [-77.726729277, 38.455166011], "type": "Point"}, "id": "oo8JLR-_9SKZGb9eR2_IUIZiIXY=", "properties": {"@spider": "usps_collection_boxes", "addr:city": "SUMERDUCK", "addr:country": "US", "addr:full": "5338 SUMERDUCK RD", "addr:postcode": "22742", "addr:state": "VA", "amenity": "post_box", "brand": "United States Postal Service", "brand:wikidata": "Q668687", "collection_times": "Mo-Fr 15:30; Sa 12:30", "name": "USPS COLLECTION BOX - PO LOBBY", "note": "ON 12/24 AND 12/31, THIS BOX MAY BE COLLECTED AS EARLY AS 12 NOON.", "nsi_id": "unitedstatespostalservice-a77078", "operator": "United States Postal Service", "operator:short": "USPS", "operator:type": "public", "operator:wikidata": "Q668687", "ref": "2274200002"}, "type": "Feature"}
