{"geometry": {"coordinates": [-78.8554457, 38.443195], "type": "Point"}, "id": "0xSAoMGrMVJ8sJ9GXYfZ3Mw2qow=", "properties": {"@spider": "usps_collection_boxes", "addr:city": "HARRISONBURG", "addr:country": "US", "addr:full": "31 S CARLTON ST", "addr:postcode": "22801", "addr:state": "VA", "brand": "USPS", "brand:wikidata": "Q668687", "collection_times": "Mo-Sa 13:00", "name": "USPS COLLECTION BOX - BLUE BOX", "note": "ON 12/24 AND 12/31, THIS BOX MAY BE COLLECTED AS EARLY AS 12 NOON.", "ref": "2280100007"}, "type": "Feature"}
{"geometry": {"coordinates": [-78.8461504, 38.427018], "type": "Point"}, "id": "sG3iYUO5YzpcG6PSioYYE0p6WSQ=", "properties": {"@spider": "usps_collection_boxes", "addr:city": "HARRISONBURG", "addr:country": "US", "addr:full": "182 NEFF AVE", "addr:postcode": "22801", "addr:state": "VA", "brand": "USPS", "brand:wikidata": "Q668687", "collection_times": "Mo-Sa 13:00", "name": "USPS COLLECTION BOX - BLUE BOX", "note": "ON 12/24 AND 12/31, THIS BOX MAY BE COLLECTED AS EARLY AS 12 NOON.", "ref": "2280100011"}, "type": "Feature"}
{"geometry": {"coordinates": [-78.8438429864, 38.4282050042], "type": "Point"}, "id": "PixbTmIbZ2jWF-wuGjn4fSP2Z9M=", "properties": {"@spider": "usps_collection_boxes", "addr:city": "HARRISONBURG", "addr:country": "US", "addr:full": "1925 E MARKET ST", "addr:postcode": "22801", "addr:state": "VA", "brand": "USPS", "brand:wikidata": "Q668687", "collection_times": "Mo-Sa 10:00", "name": "USPS COLLECTION BOX - BLUE BOX", "ref": "2280100013"}, "type": "Feature"}
{"geometry": {"coordinates": [-78.8807538, 38.43356], "type": "Point"}, "id": "pJyf8e13BVK8J4442UiOh-hSH_s=", "properties": {"@spider": "usps_collection_boxes", "addr:city": "HARRISONBURG", "addr:country": "US", "addr:full": "1356 S MAIN ST", "addr:postcode": "22801", "addr:state": "VA", "brand": "USPS", "brand:wikidata": "Q668687", "collection_times": "Mo-Sa 13:00", "name": "USPS COLLECTION BOX - BLUE BOX", "note": "ON 12/24 AND 12/31, THIS BOX MAY BE COLLECTED AS EARLY AS 12 NOON.", "ref": "2280100028"}, "type": "Feature"}
{"geometry": {"coordinates": [-78.872088, 38.443462], "type": "Point"}, "id": "x_VDY_zgzY-mmvIIfahj8mExzpQ=", "properties": {"@spider": "usps_collection_boxes", "addr:city": "HARRISONBURG", "addr:country": "US", "addr:full": "501 S MAIN ST", "addr:postcode": "22801", "addr:state": "VA", "brand": "USPS", "brand:wikidata": "Q668687", "collection_times": "Mo-Sa 10:00", "name": "USPS COLLECTION BOX - BLUE BOX", "ref": "2280100033"}, "type": "Feature"}
{"geometry": {"coordinates": [-78.8694834, 38.446194], "type": "Point"}, "id": "nfu4nxp8SCQPthMGim2uRqXGMOs=", "properties": {"@spider": "usps_collection_boxes", "addr:city": "HARRISONBURG", "addr:country": "US", "addr:full": "345 S MAIN ST", "addr:postcode": "22801", "addr:state": "VA", "brand": "USPS", "brand:wikidata": "Q668687", "collection_times": "Mo-Sa 10:00", "name": "USPS COLLECTION BOX - BLUE BOX", "ref": "2280100034"}, "type": "Feature"}
{"geometry": {"coordinates": [-78.8689273, 38.449031], "type": "Point"}, "id": "f_5flY_YHvIrbCe1ZRP_fvrHQxQ=", "properties": {"@spider": "usps_collection_boxes", "addr:city": "HARRISONBURG", "addr:country": "US", "addr:full": "57 S MAIN ST", "addr:postcode": "22801", "addr:state": "VA", "brand": "USPS", "brand:wikidata": "Q668687", "collection_times": "Mo-Sa 10:00", "name": "USPS COLLECTION BOX - BLUE BOX", "ref": "2280100036"}, "type": "Feature"}
{"geometry": {"coordinates": [-78.8530909, 38.41786], "type": "Point"}, "id": "VenasvT80ydYXJCPhe6Uv7bTEKM=", "properties": {"@spider": "usps_collection_boxes", "addr:city": "HARRISONBURG", "addr:country": "US", "addr:full": "2389 BRECKENRIDGE CT", "addr:postcode": "22801", "addr:state": "VA", "brand": "USPS", "brand:wikidata": "Q668687", "collection_times": "Mo-Sa 10:00", "name": "USPS COLLECTION BOX - BLUE BOX", "ref": "2280100045"}, "type": "Feature"}
{"geometry": {"coordinates": [-78.8834634, 38.434006], "type": "Point"}, "id": "d1qZ7kGmmoeMteAV3OFSzd4-wao=", "properties": {"@spider": "usps_collection_boxes", "addr:city": "HARRISONBURG", "addr:country": "US", "addr:full": "11 SOUTH AVE", "addr:postcode": "22801", "addr:state": "VA", "brand": "USPS", "brand:wikidata": "Q668687", "collection_times": "Mo-Sa 13:00", "name": "USPS COLLECTION BOX - BLUE BOX", "note": "ON 12/24 AND 12/31, THIS BOX MAY BE COLLECTED AS EARLY AS 12 NOON.", "ref": "2280100047"}, "type": "Feature"}
{"geometry": {"coordinates": [-78.8476613, 38.43018], "type": "Point"}, "id": "pb_Baygq4l2ZHh40BkiYqdodB-s=", "properties": {"@spider": "usps_collection_boxes", "addr:city": "HARRISONBURG", "addr:country": "US", "addr:full": "129 UNIVERSITY BLVD", "addr:postcode": "22801", "addr:state": "VA", "brand": "USPS", "brand:wikidata": "Q668687", "collection_times": "Mo-Sa 12:00", "name": "USPS COLLECTION BOX - BLUE BOX", "ref": "2280100051"}, "type": "Feature"}
{"geometry": {"coordinates": [-78.8695789, 38.449182], "type": "Point"}, "id": "r3Df8NqSzwYoxu4qSx5KMeMK1PA=", "properties": {"@spider": "usps_collection_boxes", "addr:city": "HARRISONBURG", "addr:country": "US", "addr:full": "61 COURT SQ", "addr:postcode": "22801", "addr:state": "VA", "brand": "USPS", "brand:wikidata": "Q668687", "collection_times": "Mo-Sa 10:00", "name": "USPS COLLECTION BOX - BLUE BOX", "ref": "2280100055"}, "type": "Feature"}
{"geometry": {"coordinates": [-78.8418827, 38.432223], "type": "Point"}, "id": "gMB2G5jq40fzDrxDkdbVWHsM0XM=", "properties": {"@spider": "usps_collection_boxes", "addr:city": "HARRISONBURG", "addr:country": "US", "addr:full": "1790 E MARKET ST", "addr:postcode": "22801", "addr:state": "VA", "brand": "USPS", "brand:wikidata": "Q668687", "collection_times": "Mo-Sa 11:00", "name": "USPS COLLECTION BOX - BLUE BOX", "ref": "2280100056"}, "type": "Feature"}
{"geometry": {"coordinates": [-78.914026, 38.397804], "type": "Point"}, "id": "HmGN6b9TvuunrdpmKsE-Vo-q2so=", "properties": {"@spider": "usps_collection_boxes", "addr:city": "HARRISONBURG", "addr:country": "US", "addr:full": "3811 S MAIN ST", "addr:postcode": "22801", "addr:state": "VA", "brand": "USPS", "brand:wikidata": "Q668687", "collection_times": "Mo-Fr 17:30; Sa 17:00", "name": "USPS COLLECTION BOX - BLUE BOX", "note": "ON 12/24 AND 12/31, THIS BOX MAY BE COLLECTED AS EARLY AS 12 NOON.", "ref": "2280100057"}, "type": "Feature"}
{"geometry": {"coordinates": [-78.91402, 38.397747], "type": "Point"}, "id": "ifHCl2vx-KP-UEyKYurPZTZU-VE=", "properties": {"@spider": "usps_collection_boxes", "addr:city": "HARRISONBURG", "addr:country": "US", "addr:full": "3811 S MAIN ST", "addr:postcode": "22801", "addr:state": "VA", "brand": "USPS", "brand:wikidata": "Q668687", "collection_times": "Mo-Fr 14:30", "name": "USPS COLLECTION BOX - EXPRESS", "note": "ON 12/24 AND 12/31, THIS BOX MAY BE COLLECTED AS EARLY AS 12 NOON.", "ref": "2280100059"}, "type": "Feature"}
{"geometry": {"coordinates": [-78.914989, 38.398069003], "type": "Point"}, "id": "IPXEQ9UfPoedP9jsXEZfAATa5nw=", "properties": {"@spider": "usps_collection_boxes", "addr:city": "HARRISONBURG", "addr:country": "US", "addr:full": "3811 S MAIN ST", "addr:postcode": "22801", "addr:state": "VA", "brand": "USPS", "brand:wikidata": "Q668687", "collection_times": "Mo-Fr 17:30; Sa 17:00", "name": "USPS COLLECTION BOX - PO LOBBY", "note": "ON 12/24 AND 12/31, THIS BOX MAY BE COLLECTED AS EARLY AS 12 NOON.", "ref": "2280100060"}, "type": "Feature"}
{"geometry": {"coordinates": [-78.91507, 38.398012], "type": "Point"}, "id": "Fk24SizAIUIqaYMrhWdaVOuXcbc=", "properties": {"@spider": "usps_collection_boxes", "addr:city": "HARRISONBURG", "addr:country": "US", "addr:full": "3811 S MAIN ST", "addr:postcode": "22801", "addr:state": "VA", "brand": "USPS", "brand:wikidata": "Q668687", "collection_times": "Mo-Fr 17:30; Sa 17:00", "name": "USPS COLLECTION BOX - PO LOBBY", "note": "ON 12/24 AND 12/31, THIS BOX MAY BE COLLECTED AS EARLY AS 12 NOON.", "ref": "2280100084"}, "type": "Feature"}
{"geometry": {"coordinates": [-78.91507, 38.398012], "type": "Point"}, "id": "qleQXFYNb90E7dreeFnsThAyzZM=", "properties": {"@spider": "usps_collection_boxes", "addr:city": "HARRISONBURG", "addr:country": "US", "addr:full": "3811 S MAIN ST", "addr:postcode": "22801", "addr:state": "VA", "brand": "USPS", "brand:wikidata": "Q668687", "collection_times": "Mo-Fr 17:30; Sa 17:00", "name": "USPS COLLECTION BOX - PO LOBBY", "note": "ON 12/24 AND 12/31, THIS BOX MAY BE COLLECTED AS EARLY AS 12 NOON.", "ref": "2280100085"}, "type": "Feature"}
{"geometry": {"coordinates": [-78.9141316507, 38.3976228901], "type": "Point"}, "id": "nWRIaJ6F-dWp1xwKku-lK24Z7Qk=", "properties": {"@spider": "usps_collection_boxes", "addr:city": "HARRISONBURG", "addr:country": "US", "addr:full": "3811 S MAIN ST", "addr:postcode": "22801", "addr:state": "VA", "brand": "USPS", "brand:wikidata": "Q668687", "collection_times": "Mo-Fr 16:00; Sa 13:00", "name": "USPS COLLECTION BOX - PO LOBBY", "note": "ON 12/24 AND 12/31, THIS BOX MAY BE COLLECTED AS EARLY AS 12 NOON.", "ref": "2280100091"}, "type": "Feature"}
{"geometry": {"coordinates": [-78.8664912, 38.452096], "type": "Point"}, "id": "0oFSXxIw1ZokS_cBXfH0YmrZOC0=", "properties": {"@spider": "usps_collection_boxes", "addr:city": "HARRISONBURG", "addr:country": "US", "addr:full": "281 N MASON ST", "addr:postcode": "22802", "addr:state": "VA", "brand": "USPS", "brand:wikidata": "Q668687", "collection_times": "Mo-Fr 17:15; Sa 16:00", "name": "USPS COLLECTION BOX - BLUE BOX", "note": "ON 12/24 AND 12/31, THIS BOX MAY BE COLLECTED AS EARLY AS 12 NOON.", "ref": "2280200001"}, "type": "Feature"}
{"geometry": {"coordinates": [-78.8665599, 38.45212], "type": "Point"}, "id": "DXR5x2X1kLdetqXGxQNulqDXBZY=", "properties": {"@spider": "usps_collection_boxes", "addr:city": "HARRISONBURG", "addr:country": "US", "addr:full": "281 N MASON ST", "addr:postcode": "22802", "addr:state": "VA", "brand": "USPS", "brand:wikidata": "Q668687", "collection_times": "Mo-Fr 17:15; Sa 16:00", "name": "USPS COLLECTION BOX - BLUE BOX", "note": "ON 12/24 AND 12/31, THIS BOX MAY BE COLLECTED AS EARLY AS 12 NOON.", "ref": "2280200002"}, "type": "Feature"}
{"geometry": {"coordinates": [-78.866045, 38.451849], "type": "Point"}, "id": "nCy9sE45q9vjdV3861dkYsmXF9U=", "properties": {"@spider": "usps_collection_boxes", "addr:city": "HARRISONBURG", "addr:country": "US", "addr:full": "281 N MASON ST", "addr:postcode": "22802", "addr:state": "VA", "brand": "USPS", "brand:wikidata": "Q668687", "collection_times": "Mo-Fr 14:30", "name": "USPS COLLECTION BOX - EXPRESS", "note": "ON 12/24 AND 12/31, THIS BOX MAY BE COLLECTED AS EARLY AS 12 NOON.", "ref": "2280200003"}, "type": "Feature"}
{"geometry": {"coordinates": [-78.8713299, 38.480836], "type": "Point"}, "id": "Usa3XDE9t-Vs43iZW2ThCkspjl8=", "properties": {"@spider": "usps_collection_boxes", "addr:city": "HARRISONBURG", "addr:country": "US", "addr:full": "1751 VIRGINIA AVE", "addr:postcode": "22802", "addr:state": "VA", "brand": "USPS", "brand:wikidata": "Q668687", "collection_times": "Mo-Sa 09:30", "name": "USPS COLLECTION BOX - BLUE BOX", "ref": "2280200005"}, "type": "Feature"}
{"geometry": {"coordinates": [-78.867903288, 38.452161677], "type": "Point"}, "id": "Kf8cLkuJtjp2qC4FQ4q5mdJARP0=", "properties": {"@spider": "usps_collection_boxes", "addr:city": "HARRISONBURG", "addr:country": "US", "addr:full": "281 N MAIN ST", "addr:postcode": "22802", "addr:state": "VA", "brand": "USPS", "brand:wikidata": "Q668687", "collection_times": "Mo-Fr 16:15", "name": "USPS COLLECTION BOX - PO LOBBY", "note": "ON 12/24 AND 12/31, THIS BOX MAY BE COLLECTED AS EARLY AS 12 NOON.", "ref": "2280200006"}, "type": "Feature"}
{"geometry": {"coordinates": [-78.789554194, 38.807526911], "type": "Point"}, "id": "deT1zT8iVdkAeeKWX58X9yH55eQ=", "properties": {"@spider": "usps_collection_boxes", "addr:city": "BASYE", "addr:country": "US", "addr:full": "1540 ORKNEY GRADE", "addr:postcode": "22810", "addr:state": "VA", "brand": "USPS", "brand:wikidata": "Q668687", "collection_times": "Mo-Fr 15:45; Sa 11:00", "name": "USPS COLLECTION BOX - BLUE BOX", "note": "ON 12/24 AND 12/31, THIS BOX MAY BE COLLECTED AS EARLY AS 12 NOON.", "ref": "2281000000"}, "type": "Feature"}
{"geometry": {"coordinates": [-78.789554194, 38.807526911], "type": "Point"}, "id": "_fJQtXIaZcPLUYUFLt4C5J3V4ec=", "properties": {"@spider": "usps_collection_boxes", "addr:city": "BASYE", "addr:country": "US", "addr:full": "1540 ORKNEY GRADE", "addr:postcode": "22810", "addr:state": "VA", "brand": "USPS", "brand:wikidata": "Q668687", "collection_times": "Mo-Fr 16:00; Sa 11:00", "name": "USPS COLLECTION BOX - PO LOBBY", "note": "ON 12/24 AND 12/31, THIS BOX MAY BE COLLECTED AS EARLY AS 12 NOON.", "ref": "2281000001"}, "type": "Feature"}
{"geometry": {"coordinates": [-78.789554194, 38.807526911], "type": "Point"}, "id": "Caoq0ciTMMtmh81dFCOkznUE4NY=", "properties": {"@spider": "usps_collection_boxes", "addr:city": "BASYE", "addr:country": "US", "addr:full": "1540 ORKNEY GRADE", "addr:postcode": "22810", "addr:state": "VA", "brand": "USPS", "brand:wikidata": "Q668687", "collection_times": "Mo-Fr 16:00; Sa 11:00", "name": "USPS COLLECTION BOX - PO LOBBY", "note": "ON 12/24 AND 12/31, THIS BOX MAY BE COLLECTED AS EARLY AS 12 NOON.", "ref": "2281000003"}, "type": "Feature"}
{"geometry": {"coordinates": [-78.946976618, 38.771024564], "type": "Point"}, "id": "opiUwFvP1KcZHhFmkatISnng0Xg=", "properties": {"@spider": "usps_collection_boxes", "addr:city": "BERGTON", "addr:country": "US", "addr:full": "17175 BERGTON RD", "addr:postcode": "22811", "addr:state": "VA", "brand": "USPS", "brand:wikidata": "Q668687", "collection_times": "Mo-Fr 15:55; Sa 10:55", "name": "USPS COLLECTION BOX - BLUE BOX", "note": "ON 12/24 AND 12/31, THIS BOX MAY BE COLLECTED AS EARLY AS 12 NOON.", "ref": "2281100000"}, "type": "Feature"}
{"geometry": {"coordinates": [-78.946976618, 38.771024564], "type": "Point"}, "id": "NJpoQ1n14448NNwM7L3YBGob8n8=", "properties": {"@spider": "usps_collection_boxes", "addr:city": "BERGTON", "addr:country": "US", "addr:full": "17175 BERGTON RD", "addr:postcode": "22811", "addr:state": "VA", "brand": "USPS", "brand:wikidata": "Q668687", "collection_times": "Mo-Fr 15:55; Sa 10:55", "name": "USPS COLLECTION BOX - PO LOBBY", "note": "ON 12/24 AND 12/31, THIS BOX MAY BE COLLECTED AS EARLY AS 12 NOON.", "ref": "2281100001"}, "type": "Feature"}
{"geometry": {"coordinates": [-78.946976618, 38.771024564], "type": "Point"}, "id": "jqF_KJzREYb5FOmVUzla3iKJCVk=", "properties": {"@spider": "usps_collection_boxes", "addr:city": "BERGTON", "addr:country": "US", "addr:full": "17175 BERGTON RD", "addr:postcode": "22811", "addr:state": "VA", "brand": "USPS", "brand:wikidata": "Q668687", "collection_times": "Mo-Fr 16:00; Sa 12:00", "name": "USPS COLLECTION BOX - PO LOBBY", "note": "ON 12/24 AND 12/31, THIS BOX MAY BE COLLECTED AS EARLY AS 12 NOON.", "ref": "2281100004"}, "type": "Feature"}
{"geometry": {"coordinates": [-78.977291497, 38.382581751], "type": "Point"}, "id": "aY6TcclcS1XUsY4KAITpylj0ckM=", "properties": {"@spider": "usps_collection_boxes", "addr:city": "BRIDGEWATER", "addr:country": "US", "addr:full": "100 W COLLEGE ST", "addr:postcode": "22812", "addr:state": "VA", "brand": "USPS", "brand:wikidata": "Q668687", "collection_times": "Mo-Fr 16:30; Sa 11:00", "name": "USPS COLLECTION BOX - BLUE BOX", "note": "ON 12/24 AND 12/31, THIS BOX MAY BE COLLECTED AS EARLY AS 12 NOON.", "ref": "2281200001"}, "type": "Feature"}
{"geometry": {"coordinates": [-78.9699757, 38.377845], "type": "Point"}, "id": "VqNspl_Ya2mhCqK6aaNESXP6RlM=", "properties": {"@spider": "usps_collection_boxes", "addr:city": "BRIDGEWATER", "addr:country": "US", "addr:full": "402 E COLLEGE ST", "addr:postcode": "22812", "addr:state": "VA", "brand": "USPS", "brand:wikidata": "Q668687", "collection_times": "Mo-Sa 09:00", "name": "USPS COLLECTION BOX - BLUE BOX", "ref": "2281200002"}, "type": "Feature"}
{"geometry": {"coordinates": [-78.9666535, 38.38995], "type": "Point"}, "id": "S-a01vNrAHdG61Rxm4DiPOJT6Mo=", "properties": {"@spider": "usps_collection_boxes", "addr:city": "BRIDGEWATER", "addr:country": "US", "addr:full": "610 N MAIN ST", "addr:postcode": "22812", "addr:state": "VA", "brand": "USPS", "brand:wikidata": "Q668687", "collection_times": "Mo-Sa 09:00", "name": "USPS COLLECTION BOX - BLUE BOX", "ref": "2281200004"}, "type": "Feature"}
{"geometry": {"coordinates": [-78.977147, 38.38256], "type": "Point"}, "id": "Fc_geilEDyl96eMnzbGFM2vt8x8=", "properties": {"@spider": "usps_collection_boxes", "addr:city": "BRIDGEWATER", "addr:country": "US", "addr:full": "102 N GROVE ST", "addr:postcode": "22812", "addr:state": "VA", "brand": "USPS", "brand:wikidata": "Q668687", "collection_times": "Mo-Fr 16:30; Sa 11:00", "name": "USPS COLLECTION BOX - BLUE BOX", "note": "ON 12/24 AND 12/31, THIS BOX MAY BE COLLECTED AS EARLY AS 12 NOON.", "ref": "2281200006"}, "type": "Feature"}
{"geometry": {"coordinates": [-78.977291497, 38.382581751], "type": "Point"}, "id": "33rzFoxn1oErfusrzl7OlrV9rlI=", "properties": {"@spider": "usps_collection_boxes", "addr:city": "BRIDGEWATER", "addr:country": "US", "addr:full": "100 W COLLEGE ST", "addr:postcode": "22812", "addr:state": "VA", "brand": "USPS", "brand:wikidata": "Q668687", "collection_times": "Mo-Fr 16:30; Sa 11:00", "name": "USPS COLLECTION BOX - PO LOBBY", "note": "ON 12/24 AND 12/31, THIS BOX MAY BE COLLECTED AS EARLY AS 12 NOON.", "ref": "2281200007"}, "type": "Feature"}
{"geometry": {"coordinates": [-78.977291497, 38.382581751], "type": "Point"}, "id": "Ol0IDIi4XVevdoAXJqHeSLtTmbw=", "properties": {"@spider": "usps_collection_boxes", "addr:city": "BRIDGEWATER", "addr:country": "US", "addr:full": "100 W COLLEGE ST", "addr:postcode": "22812", "addr:state": "VA", "brand": "USPS", "brand:wikidata": "Q668687", "collection_times": "Mo-Fr 16:30", "name": "USPS COLLECTION BOX - PO LOBBY", "note": "ON 12/24 AND 12/31, THIS BOX MAY BE COLLECTED AS EARLY AS 12 NOON.", "ref": "2281200011"}, "type": "Feature"}
{"geometry": {"coordinates": [-78.797692238, 38.614262103], "type": "Point"}, "id": "xUfgRvQkxxVAHBPKgt0eg1n_gpw=", "properties": {"@spider": "usps_collection_boxes", "addr:city": "BROADWAY", "addr:country": "US", "addr:full": "151 N CENTRAL ST", "addr:postcode": "22815", "addr:state": "VA", "brand": "USPS", "brand:wikidata": "Q668687", "collection_times": "Mo-Fr 16:30; Sa 11:00", "name": "USPS COLLECTION BOX - BLUE BOX", "note": "ON 12/24 AND 12/31, THIS BOX MAY BE COLLECTED AS EARLY AS 12 NOON.", "ref": "2281500001"}, "type": "Feature"}
{"geometry": {"coordinates": [-78.79733, 38.615046], "type": "Point"}, "id": "VmabqJnDKF0lFdlbwMBtL7iCGUM=", "properties": {"@spider": "usps_collection_boxes", "addr:city": "BROADWAY", "addr:country": "US", "addr:full": "182 N CENTRAL ST", "addr:postcode": "22815", "addr:state": "VA", "brand": "USPS", "brand:wikidata": "Q668687", "collection_times": "Mo-Fr 12:00; Sa 11:00", "name": "USPS COLLECTION BOX - BLUE BOX", "ref": "2281500002"}, "type": "Feature"}
{"geometry": {"coordinates": [-78.797692238, 38.614262103], "type": "Point"}, "id": "DrSKLbdCEqfy-TAri38HelCRkm0=", "properties": {"@spider": "usps_collection_boxes", "addr:city": "BROADWAY", "addr:country": "US", "addr:full": "151 N CENTRAL ST", "addr:postcode": "22815", "addr:state": "VA", "brand": "USPS", "brand:wikidata": "Q668687", "collection_times": "Mo-Fr 16:30; Sa 11:00", "name": "USPS COLLECTION BOX - PO LOBBY", "note": "ON 12/24 AND 12/31, THIS BOX MAY BE COLLECTED AS EARLY AS 12 NOON.", "ref": "2281500003"}, "type": "Feature"}
{"geometry": {"coordinates": [-78.797692238, 38.614262103], "type": "Point"}, "id": "fWWjYec28ne692PBwQXB9nfdJZ8=", "properties": {"@spider": "usps_collection_boxes", "addr:city": "BROADWAY", "addr:country": "US", "addr:full": "151 N CENTRAL ST", "addr:postcode": "22815", "addr:state": "VA", "brand": "USPS", "brand:wikidata": "Q668687", "collection_times": "Mo-Fr 16:30; Sa 11:00", "name": "USPS COLLECTION BOX - PO LOBBY", "note": "ON 12/24 AND 12/31, THIS BOX MAY BE COLLECTED AS EARLY AS 12 NOON.", "ref": "2281500004"}, "type": "Feature"}
{"geometry": {"coordinates": [-78.797692238, 38.614262103], "type": "Point"}, "id": "CdDWTj4uA5-_c_VJ03H8Yg2se3Y=", "properties": {"@spider": "usps_collection_boxes", "addr:city": "BROADWAY", "addr:country": "US", "addr:full": "151 N CENTRAL ST", "addr:postcode": "22815", "addr:state": "VA", "brand": "USPS", "brand:wikidata": "Q668687", "collection_times": "Mo-Fr 16:30; Sa 11:00", "name": "USPS COLLECTION BOX - PO LOBBY", "note": "ON 12/24 AND 12/31, THIS BOX MAY BE COLLECTED AS EARLY AS 12 NOON.", "ref": "2281500005"}, "type": "Feature"}
{"geometry": {"coordinates": [-78.797692238, 38.614262103], "type": "Point"}, "id": "VshC4CIaHFvw5uqhxK_e7lfe7oc=", "properties": {"@spider": "usps_collection_boxes", "addr:city": "BROADWAY", "addr:country": "US", "addr:full": "151 N CENTRAL ST", "addr:postcode": "22815", "addr:state": "VA", "brand": "USPS", "brand:wikidata": "Q668687", "collection_times": "Mo-Fr 16:30; Sa 11:00", "name": "USPS COLLECTION BOX - PO LOBBY", "note": "ON 12/24 AND 12/31, THIS BOX MAY BE COLLECTED AS EARLY AS 12 NOON.", "ref": "2281500008"}, "type": "Feature"}
{"geometry": {"coordinates": [-79.006192464, 38.752141129], "type": "Point"}, "id": "decGMUZ4s4Mpqm21_xuDZHEipT8=", "properties": {"@spider": "usps_collection_boxes", "addr:city": "CRIDERS", "addr:country": "US", "addr:full": "20856 CRIDERS RD", "addr:postcode": "22820", "addr:state": "VA", "brand": "USPS", "brand:wikidata": "Q668687", "collection_times": "Mo-Sa 11:30", "name": "USPS COLLECTION BOX - PO LOBBY", "ref": "2282000001"}, "type": "Feature"}
{"geometry": {"coordinates": [-79.006192464, 38.752141129], "type": "Point"}, "id": "JFIjaUcBjYjg84Wcmm4BY8xesc0=", "properties": {"@spider": "usps_collection_boxes", "addr:city": "CRIDERS", "addr:country": "US", "addr:full": "20856 CRIDERS RD", "addr:postcode": "22820", "addr:state": "VA", "brand": "USPS", "brand:wikidata": "Q668687", "collection_times": "Mo-Sa 12:00", "name": "USPS COLLECTION BOX - PO LOBBY", "ref": "2282000003"}, "type": "Feature"}
{"geometry": {"coordinates": [-78.938440692, 38.415003812], "type": "Point"}, "id": "2nhP8q15300rMopcLlM2x5aXAUA=", "properties": {"@spider": "usps_collection_boxes", "addr:city": "DAYTON", "addr:country": "US", "addr:full": "242 MAIN ST", "addr:postcode": "22821", "addr:state": "VA", "brand": "USPS", "brand:wikidata": "Q668687", "collection_times": "Mo-Fr 17:00; Sa 09:00", "name": "USPS COLLECTION BOX - BLUE BOX", "note": "ON 12/24 AND 12/31, THIS BOX MAY BE COLLECTED AS EARLY AS 12 NOON.", "ref": "2282100001"}, "type": "Feature"}
{"geometry": {"coordinates": [-78.937754, 38.414856], "type": "Point"}, "id": "jW7nBOndAOQgswdSEn5FxbX1qho=", "properties": {"@spider": "usps_collection_boxes", "addr:city": "DAYTON", "addr:country": "US", "addr:full": "275 DINGLEDINE LN", "addr:postcode": "22821", "addr:state": "VA", "brand": "USPS", "brand:wikidata": "Q668687", "collection_times": "Mo-Fr 16:45; Sa 09:00", "name": "USPS COLLECTION BOX - BLUE BOX", "note": "ON 12/24 AND 12/31, THIS BOX MAY BE COLLECTED AS EARLY AS 12 NOON.", "ref": "2282100002"}, "type": "Feature"}
{"geometry": {"coordinates": [-78.938440692, 38.415003812], "type": "Point"}, "id": "6RuZbz1MiAzYOGxaNuR4wAyVtIo=", "properties": {"@spider": "usps_collection_boxes", "addr:city": "DAYTON", "addr:country": "US", "addr:full": "242 MAIN ST", "addr:postcode": "22821", "addr:state": "VA", "brand": "USPS", "brand:wikidata": "Q668687", "collection_times": "Mo-Fr 17:00; Sa 09:00", "name": "USPS COLLECTION BOX - PO LOBBY", "note": "ON 12/24 AND 12/31, THIS BOX MAY BE COLLECTED AS EARLY AS 12 NOON.", "ref": "2282100003"}, "type": "Feature"}
{"geometry": {"coordinates": [-78.938440692, 38.415003812], "type": "Point"}, "id": "qh84ujpHsAkpXIqb4hyYqb6MSUQ=", "properties": {"@spider": "usps_collection_boxes", "addr:city": "DAYTON", "addr:country": "US", "addr:full": "242 MAIN ST", "addr:postcode": "22821", "addr:state": "VA", "brand": "USPS", "brand:wikidata": "Q668687", "collection_times": "Mo-Fr 17:00; Sa 11:00", "name": "USPS COLLECTION BOX - PO LOBBY", "note": "ON 12/24 AND 12/31, THIS BOX MAY BE COLLECTED AS EARLY AS 12 NOON.", "ref": "2282100005"}, "type": "Feature"}
{"geometry": {"coordinates": [-78.562639299, 38.821308623], "type": "Point"}, "id": "6R1h4pgdj2Z2X9xl8kTJlDuj1mI=", "properties": {"@spider": "usps_collection_boxes", "addr:city": "EDINBURG", "addr:country": "US", "addr:full": "205 N MAIN ST", "addr:postcode": "22824", "addr:state": "VA", "brand": "USPS", "brand:wikidata": "Q668687", "collection_times": "Mo-Fr 16:15; Sa 10:45", "name": "USPS COLLECTION BOX - BLUE BOX", "note": "ON 12/24 AND 12/31, THIS BOX MAY BE COLLECTED AS EARLY AS 12 NOON.", "ref": "2282400000"}, "type": "Feature"}
{"geometry": {"coordinates": [-78.562639299, 38.821308623], "type": "Point"}, "id": "A4r7yuTaowqNs4t_DXSvyI8wtFc=", "properties": {"@spider": "usps_collection_boxes", "addr:city": "EDINBURG", "addr:country": "US", "addr:full": "205 N MAIN ST", "addr:postcode": "22824", "addr:state": "VA", "brand": "USPS", "brand:wikidata": "Q668687", "collection_times": "Mo-Fr 16:25; Sa 10:45", "name": "USPS COLLECTION BOX - PO LOBBY", "note": "ON 12/24 AND 12/31, THIS BOX MAY BE COLLECTED AS EARLY AS 12 NOON.", "ref": "2282400002"}, "type": "Feature"}
{"geometry": {"coordinates": [-78.562639299, 38.821308623], "type": "Point"}, "id": "7oNh1TydPkg-2HkNQSvM8gxSdQA=", "properties": {"@spider": "usps_collection_boxes", "addr:city": "EDINBURG", "addr:country": "US", "addr:full": "205 N MAIN ST", "addr:postcode": "22824", "addr:state": "VA", "brand": "USPS", "brand:wikidata": "Q668687", "collection_times": "Mo-Fr 16:30; Sa 11:00", "name": "USPS COLLECTION BOX - PO LOBBY", "note": "ON 12/24 AND 12/31, THIS BOX MAY BE COLLECTED AS EARLY AS 12 NOON.", "ref": "2282400004"}, "type": "Feature"}
{"geometry": {"coordinates": [-78.619056, 38.408397], "type": "Point"}, "id": "zQ339saWjs7Ldikw4jw5C91JMbw=", "properties": {"@spider": "usps_collection_boxes", "addr:city": "ELKTON", "addr:country": "US", "addr:full": "102 W ROCKINGHAM ST", "addr:postcode": "22827", "addr:state": "VA", "brand": "USPS", "brand:wikidata": "Q668687", "collection_times": "Mo-Fr 16:45; Sa 11:00", "name": "USPS COLLECTION BOX - BLUE BOX", "note": "ON 12/24 AND 12/31, THIS BOX MAY BE COLLECTED AS EARLY AS 12 NOON.", "ref": "2282700004"}, "type": "Feature"}
{"geometry": {"coordinates": [-78.619056, 38.408397], "type": "Point"}, "id": "CGETT_S9y1XgXjpW6duDszvN5jw=", "properties": {"@spider": "usps_collection_boxes", "addr:city": "ELKTON", "addr:country": "US", "addr:full": "102 W ROCKINGHAM ST", "addr:postcode": "22827", "addr:state": "VA", "brand": "USPS", "brand:wikidata": "Q668687", "collection_times": "Mo-Fr 16:45; Sa 11:00", "name": "USPS COLLECTION BOX - PO LOBBY", "note": "ON 12/24 AND 12/31, THIS BOX MAY BE COLLECTED AS EARLY AS 12 NOON.", "ref": "2282700007"}, "type": "Feature"}
{"geometry": {"coordinates": [-78.619056, 38.408397], "type": "Point"}, "id": "gNpKnhRFKfbbNN1cpVtE2_3h9UY=", "properties": {"@spider": "usps_collection_boxes", "addr:city": "ELKTON", "addr:country": "US", "addr:full": "102 W ROCKINGHAM ST", "addr:postcode": "22827", "addr:state": "VA", "brand": "USPS", "brand:wikidata": "Q668687", "collection_times": "Mo-Fr 16:45; Sa 11:00", "name": "USPS COLLECTION BOX - PO LOBBY", "note": "ON 12/24 AND 12/31, THIS BOX MAY BE COLLECTED AS EARLY AS 12 NOON.", "ref": "2282700008"}, "type": "Feature"}
{"geometry": {"coordinates": [-78.6190580147, 38.4083961946], "type": "Point"}, "id": "RPRGpQ7pQRdB-AuaPO772uOxg_s=", "properties": {"@spider": "usps_collection_boxes", "addr:city": "ELKTON", "addr:country": "US", "addr:full": "102 W ROCKINGHAM ST", "addr:postcode": "22827", "addr:state": "VA", "brand": "USPS", "brand:wikidata": "Q668687", "collection_times": "Mo-Fr 16:30; Sa 11:00", "name": "USPS COLLECTION BOX - PO LOBBY", "note": "ON 12/24 AND 12/31, THIS BOX MAY BE COLLECTED AS EARLY AS 12 NOON.", "ref": "2282700011"}, "type": "Feature"}
{"geometry": {"coordinates": [-78.916101442, 38.662497162], "type": "Point"}, "id": "7HuFHRa962cVN6Oe7EZXao1cHZs=", "properties": {"@spider": "usps_collection_boxes", "addr:city": "FULKS RUN", "addr:country": "US", "addr:full": "12046 BROCKS GAP RD", "addr:postcode": "22830", "addr:state": "VA", "brand": "USPS", "brand:wikidata": "Q668687", "collection_times": "Mo-Fr 15:45; Sa 10:30", "name": "USPS COLLECTION BOX - PO LOBBY", "note": "ON 12/24 AND 12/31, THIS BOX MAY BE COLLECTED AS EARLY AS 12 NOON.", "ref": "2283000001"}, "type": "Feature"}
{"geometry": {"coordinates": [-78.916101442, 38.662497162], "type": "Point"}, "id": "dGMvSz_Ayq-NXIAGUlLxfUsUgLQ=", "properties": {"@spider": "usps_collection_boxes", "addr:city": "FULKS RUN", "addr:country": "US", "addr:full": "12046 BROCKS GAP RD", "addr:postcode": "22830", "addr:state": "VA", "brand": "USPS", "brand:wikidata": "Q668687", "collection_times": "Mo-Fr 15:45; Sa 10:30", "name": "USPS COLLECTION BOX - BLUE BOX", "note": "ON 12/24 AND 12/31, THIS BOX MAY BE COLLECTED AS EARLY AS 12 NOON.", "ref": "2283000002"}, "type": "Feature"}
{"geometry": {"coordinates": [-78.916101442, 38.662497162], "type": "Point"}, "id": "DB34zjHhnaM9R_-E6xYRA9Aez6g=", "properties": {"@spider": "usps_collection_boxes", "addr:city": "FULKS RUN", "addr:country": "US", "addr:full": "12046 BROCKS GAP RD", "addr:postcode": "22830", "addr:state": "VA", "brand": "USPS", "brand:wikidata": "Q668687", "collection_times": "Mo-Fr 16:00; Sa 12:00", "name": "USPS COLLECTION BOX - PO LOBBY", "note": "ON 12/24 AND 12/31, THIS BOX MAY BE COLLECTED AS EARLY AS 12 NOON.", "ref": "2283000004"}, "type": "Feature"}
{"geometry": {"coordinates": [-78.973216772, 38.466198693], "type": "Point"}, "id": "K_ifbzDA35VSFXd2ddT-iroDEb0=", "properties": {"@spider": "usps_collection_boxes", "addr:city": "HINTON", "addr:country": "US", "addr:full": "6121 RAWLEY PIKE", "addr:postcode": "22831", "addr:state": "VA", "brand": "USPS", "brand:wikidata": "Q668687", "collection_times": "Mo-Fr 16:15; Sa 11:15", "name": "USPS COLLECTION BOX - BLUE BOX", "note": "ON 12/24 AND 12/31, THIS BOX MAY BE COLLECTED AS EARLY AS 12 NOON.", "ref": "2283100000"}, "type": "Feature"}
{"geometry": {"coordinates": [-78.973216772, 38.466198693], "type": "Point"}, "id": "d23oAowIL1o1FusaU_yIz2rCYEg=", "properties": {"@spider": "usps_collection_boxes", "addr:city": "HINTON", "addr:country": "US", "addr:full": "6121 RAWLEY PIKE", "addr:postcode": "22831", "addr:state": "VA", "brand": "USPS", "brand:wikidata": "Q668687", "collection_times": "Mo-Fr 16:15; Sa 11:15", "name": "USPS COLLECTION BOX - PO LOBBY", "note": "ON 12/24 AND 12/31, THIS BOX MAY BE COLLECTED AS EARLY AS 12 NOON.", "ref": "2283100001"}, "type": "Feature"}
{"geometry": {"coordinates": [-78.973216772, 38.466198693], "type": "Point"}, "id": "WjwBmn4nb6I1ePpZbKtvfRxNKZ4=", "properties": {"@spider": "usps_collection_boxes", "addr:city": "HINTON", "addr:country": "US", "addr:full": "6121 RAWLEY PIKE", "addr:postcode": "22831", "addr:state": "VA", "brand": "USPS", "brand:wikidata": "Q668687", "collection_times": "Mo-Fr 16:15; Sa 12:00", "name": "USPS COLLECTION BOX - PO LOBBY", "note": "ON 12/24 AND 12/31, THIS BOX MAY BE COLLECTED AS EARLY AS 12 NOON.", "ref": "2283100003"}, "type": "Feature"}
{"geometry": {"coordinates": [-78.764428218, 38.543739533], "type": "Point"}, "id": "e1X6puWEFb74rdfHzl_xgm4bRtk=", "properties": {"@spider": "usps_collection_boxes", "addr:city": "LACEY SPRING", "addr:country": "US", "addr:full": "8975 N VALLEY PIKE", "addr:postcode": "22833", "addr:state": "VA", "brand": "USPS", "brand:wikidata": "Q668687", "collection_times": "Mo-Fr 16:15; Sa 10:30", "name": "USPS COLLECTION BOX - BLUE BOX", "note": "ON 12/24 AND 12/31, THIS BOX MAY BE COLLECTED AS EARLY AS 12 NOON.", "ref": "2283300000"}, "type": "Feature"}
{"geometry": {"coordinates": [-78.764428218, 38.543739533], "type": "Point"}, "id": "GzSFaC_xzfqvFhQAQE_5qxjePIY=", "properties": {"@spider": "usps_collection_boxes", "addr:city": "LACEY SPRING", "addr:country": "US", "addr:full": "8975 N VALLEY PIKE", "addr:postcode": "22833", "addr:state": "VA", "brand": "USPS", "brand:wikidata": "Q668687", "collection_times": "Mo-Fr 16:15; Sa 10:30", "name": "USPS COLLECTION BOX - PO LOBBY", "note": "ON 12/24 AND 12/31, THIS BOX MAY BE COLLECTED AS EARLY AS 12 NOON.", "ref": "2283300001"}, "type": "Feature"}
{"geometry": {"coordinates": [-78.764428218, 38.543739533], "type": "Point"}, "id": "I4Iwo8BiVAi9yyuXpS6Fc7eWeGs=", "properties": {"@spider": "usps_collection_boxes", "addr:city": "LACEY SPRING", "addr:country": "US", "addr:full": "8975 N VALLEY PIKE", "addr:postcode": "22833", "addr:state": "VA", "brand": "USPS", "brand:wikidata": "Q668687", "collection_times": "Mo-Fr 16:30; Sa 10:45", "name": "USPS COLLECTION BOX - PO LOBBY", "note": "ON 12/24 AND 12/31, THIS BOX MAY BE COLLECTED AS EARLY AS 12 NOON.", "ref": "2283300003"}, "type": "Feature"}
{"geometry": {"coordinates": [-78.851241, 38.522906], "type": "Point"}, "id": "ykBc-QnwxB6xJJ13xTwTHtj1p58=", "properties": {"@spider": "usps_collection_boxes", "addr:city": "LINVILLE", "addr:country": "US", "addr:full": "3754 LINVILLE EDOM RD", "addr:postcode": "22834", "addr:state": "VA", "brand": "USPS", "brand:wikidata": "Q668687", "collection_times": "Mo-Fr 16:15; Sa 11:00", "name": "USPS COLLECTION BOX - PO LOBBY", "note": "ON 12/24 AND 12/31, THIS BOX MAY BE COLLECTED AS EARLY AS 12 NOON.", "ref": "2283400001"}, "type": "Feature"}
{"geometry": {"coordinates": [-78.851241, 38.522906], "type": "Point"}, "id": "0_aO-86NRZOJVbUaUHk781tFy5w=", "properties": {"@spider": "usps_collection_boxes", "addr:city": "LINVILLE", "addr:country": "US", "addr:full": "3754 LINVILLE EDOM RD", "addr:postcode": "22834", "addr:state": "VA", "brand": "USPS", "brand:wikidata": "Q668687", "collection_times": "Mo-Fr 16:15; Sa 10:45", "name": "USPS COLLECTION BOX - BLUE BOX", "note": "ON 12/24 AND 12/31, THIS BOX MAY BE COLLECTED AS EARLY AS 12 NOON.", "ref": "2283400002"}, "type": "Feature"}
{"geometry": {"coordinates": [-78.4646819, 38.664489], "type": "Point"}, "id": "X3d4QSxoFYzPG1OLWWLl8ZfghxI=", "properties": {"@spider": "usps_collection_boxes", "addr:city": "LURAY", "addr:country": "US", "addr:full": "116 S COURT ST STE A", "addr:postcode": "22835", "addr:state": "VA", "brand": "USPS", "brand:wikidata": "Q668687", "collection_times": "Mo-Fr 16:45; Sa 10:30", "name": "USPS COLLECTION BOX - BLUE BOX", "note": "ON 12/24 AND 12/31, THIS BOX MAY BE COLLECTED AS EARLY AS 12 NOON.", "ref": "2283500002"}, "type": "Feature"}
{"geometry": {"coordinates": [-78.4468581, 38.664028], "type": "Point"}, "id": "avuoLTvNMN8sdCpmObRKA118XJQ=", "properties": {"@spider": "usps_collection_boxes", "addr:city": "LURAY", "addr:country": "US", "addr:full": "7 E LURAY SHOPPING CTR", "addr:postcode": "22835", "addr:state": "VA", "brand": "USPS", "brand:wikidata": "Q668687", "collection_times": "Mo-Fr 16:45; Sa 10:00", "name": "USPS COLLECTION BOX - BLUE BOX", "note": "ON 12/24 AND 12/31, THIS BOX MAY BE COLLECTED AS EARLY AS 12 NOON.", "ref": "2283500005"}, "type": "Feature"}
{"geometry": {"coordinates": [-78.4608542, 38.665064], "type": "Point"}, "id": "W80_lmDTiAdoUSSJ4meNRyZNgSo=", "properties": {"@spider": "usps_collection_boxes", "addr:city": "LURAY", "addr:country": "US", "addr:full": "18 VOGT ST", "addr:postcode": "22835", "addr:state": "VA", "brand": "USPS", "brand:wikidata": "Q668687", "collection_times": "Mo-Fr 16:45; Sa 10:00", "name": "USPS COLLECTION BOX - BLUE BOX", "note": "ON 12/24 AND 12/31, THIS BOX MAY BE COLLECTED AS EARLY AS 12 NOON.", "ref": "2283500007"}, "type": "Feature"}
{"geometry": {"coordinates": [-78.460434, 38.664738], "type": "Point"}, "id": "J5gpq7nYOaRgvf0hUIxtv05YiRw=", "properties": {"@spider": "usps_collection_boxes", "addr:city": "LURAY", "addr:country": "US", "addr:full": "102 S BROAD ST", "addr:postcode": "22835", "addr:state": "VA", "brand": "USPS", "brand:wikidata": "Q668687", "collection_times": "Mo-Fr 17:00; Sa 10:00", "name": "USPS COLLECTION BOX - BLUE BOX", "note": "ON 12/24 AND 12/31, THIS BOX MAY BE COLLECTED AS EARLY AS 12 NOON.", "ref": "2283500008"}, "type": "Feature"}
{"geometry": {"coordinates": [-78.460400001, 38.664733008], "type": "Point"}, "id": "bc-sankp3Y4Ue3bscuc1zaw05fI=", "properties": {"@spider": "usps_collection_boxes", "addr:city": "LURAY", "addr:country": "US", "addr:full": "102 S BROAD ST", "addr:postcode": "22835", "addr:state": "VA", "brand": "USPS", "brand:wikidata": "Q668687", "collection_times": "Mo-Fr 17:00; Sa 10:00", "name": "USPS COLLECTION BOX - PO LOBBY", "note": "ON 12/24 AND 12/31, THIS BOX MAY BE COLLECTED AS EARLY AS 12 NOON.", "ref": "2283500012"}, "type": "Feature"}
{"geometry": {"coordinates": [-78.458202723, 38.6655335188], "type": "Point"}, "id": "wJwELa9GBD2tCP9c1CBkjhEBKJA=", "properties": {"@spider": "usps_collection_boxes", "addr:city": "LURAY", "addr:country": "US", "addr:full": "45 E MAIN ST", "addr:postcode": "22835", "addr:state": "VA", "brand": "USPS", "brand:wikidata": "Q668687", "collection_times": "Mo-Fr 16:45; Sa 10:00", "name": "USPS COLLECTION BOX - BLUE BOX", "note": "ON 12/24 AND 12/31, THIS BOX MAY BE COLLECTED AS EARLY AS 12 NOON.", "ref": "2283500018"}, "type": "Feature"}
{"geometry": {"coordinates": [-78.460400001, 38.664733008], "type": "Point"}, "id": "LdTlnOyLUZf8Y7BhlLDg7tZYeKg=", "properties": {"@spider": "usps_collection_boxes", "addr:city": "LURAY", "addr:country": "US", "addr:full": "102 S BROAD ST", "addr:postcode": "22835", "addr:state": "VA", "brand": "USPS", "brand:wikidata": "Q668687", "collection_times": "Mo-Fr 16:30", "name": "USPS COLLECTION BOX - PO LOBBY", "note": "ON 12/24 AND 12/31, THIS BOX MAY BE COLLECTED AS EARLY AS 12 NOON.", "ref": "2283500020"}, "type": "Feature"}
{"geometry": {"coordinates": [-78.732554878, 38.370874567], "type": "Point"}, "id": "fFeiq5xS6k8PX0EDUpplnLmrzKQ=", "properties": {"@spider": "usps_collection_boxes", "addr:city": "MCGAHEYSVILLE", "addr:country": "US", "addr:full": "419 JACOB BURNER DR", "addr:postcode": "22840", "addr:state": "VA", "brand": "USPS", "brand:wikidata": "Q668687", "collection_times": "Mo-Fr 16:15; Sa 11:00", "name": "USPS COLLECTION BOX - BLUE BOX", "note": "ON 12/24 AND 12/31, THIS BOX MAY BE COLLECTED AS EARLY AS 12 NOON.", "ref": "2284000000"}, "type": "Feature"}
{"geometry": {"coordinates": [-78.732554878, 38.370874567], "type": "Point"}, "id": "gVzY0wqnhrwY2Z5Y9EjVSAxiIhs=", "properties": {"@spider": "usps_collection_boxes", "addr:city": "MCGAHEYSVILLE", "addr:country": "US", "addr:full": "419 JACOB BURNER DR", "addr:postcode": "22840", "addr:state": "VA", "brand": "USPS", "brand:wikidata": "Q668687", "collection_times": "Mo-Fr 16:15; Sa 11:00", "name": "USPS COLLECTION BOX - PO LOBBY", "note": "ON 12/24 AND 12/31, THIS BOX MAY BE COLLECTED AS EARLY AS 12 NOON.", "ref": "2284000002"}, "type": "Feature"}
{"geometry": {"coordinates": [-78.732554878, 38.370874567], "type": "Point"}, "id": "Ri8Mfa84EgC_cqiztFfLrUnD_-k=", "properties": {"@spider": "usps_collection_boxes", "addr:city": "MCGAHEYSVILLE", "addr:country": "US", "addr:full": "419 JACOB BURNER DR", "addr:postcode": "22840", "addr:state": "VA", "brand": "USPS", "brand:wikidata": "Q668687", "collection_times": "Mo-Fr 16:30; Sa 10:00", "name": "USPS COLLECTION BOX - PO LOBBY", "note": "ON 12/24 AND 12/31, THIS BOX MAY BE COLLECTED AS EARLY AS 12 NOON.", "ref": "2284000004"}, "type": "Feature"}
{"geometry": {"coordinates": [-78.940447751, 38.358218241], "type": "Point"}, "id": "7X0P3AsFkP6XegDgho_YynFXwP4=", "properties": {"@spider": "usps_collection_boxes", "addr:city": "MOUNT CRAWFORD", "addr:country": "US", "addr:full": "411 N MAIN ST", "addr:postcode": "22841", "addr:state": "VA", "brand": "USPS", "brand:wikidata": "Q668687", "collection_times": "Mo-Fr 16:00; Sa 10:45", "name": "USPS COLLECTION BOX - BLUE BOX", "note": "ON 12/24 AND 12/31, THIS BOX MAY BE COLLECTED AS EARLY AS 12 NOON.", "ref": "2284100000"}, "type": "Feature"}
{"geometry": {"coordinates": [-78.940447751, 38.358218241], "type": "Point"}, "id": "a1QKOlMx5NFBk-Uc-HRf-6nNDCo=", "properties": {"@spider": "usps_collection_boxes", "addr:city": "MOUNT CRAWFORD", "addr:country": "US", "addr:full": "411 N MAIN ST", "addr:postcode": "22841", "addr:state": "VA", "brand": "USPS", "brand:wikidata": "Q668687", "collection_times": "Mo-Fr 16:00; Sa 10:45", "name": "USPS COLLECTION BOX - PO LOBBY", "note": "ON 12/24 AND 12/31, THIS BOX MAY BE COLLECTED AS EARLY AS 12 NOON.", "ref": "2284100001"}, "type": "Feature"}
{"geometry": {"coordinates": [-78.940447751, 38.358218241], "type": "Point"}, "id": "G6cwGJ4JmB-JKaWhxmYwaUowKuM=", "properties": {"@spider": "usps_collection_boxes", "addr:city": "MOUNT CRAWFORD", "addr:country": "US", "addr:full": "411 N MAIN ST", "addr:postcode": "22841", "addr:state": "VA", "brand": "USPS", "brand:wikidata": "Q668687", "collection_times": "Mo-Fr 16:00; Sa 12:00", "name": "USPS COLLECTION BOX - PO LOBBY", "note": "ON 12/24 AND 12/31, THIS BOX MAY BE COLLECTED AS EARLY AS 12 NOON.", "ref": "2284100003"}, "type": "Feature"}
{"geometry": {"coordinates": [-78.627153103, 38.761002756], "type": "Point"}, "id": "Qkqt3m7thWcRWQ6yeakG0bWMKmw=", "properties": {"@spider": "usps_collection_boxes", "addr:city": "MOUNT JACKSON", "addr:country": "US", "addr:full": "5240 MAIN ST", "addr:postcode": "22842", "addr:state": "VA", "brand": "USPS", "brand:wikidata": "Q668687", "collection_times": "Mo-Fr 16:30; Sa 11:00", "name": "USPS COLLECTION BOX - BLUE BOX", "note": "ON 12/24 AND 12/31, THIS BOX MAY BE COLLECTED AS EARLY AS 12 NOON.", "ref": "2284200001"}, "type": "Feature"}
{"geometry": {"coordinates": [-78.627153103, 38.761002756], "type": "Point"}, "id": "RsZ0JiGWqN6mUAxJG0unIdFifGg=", "properties": {"@spider": "usps_collection_boxes", "addr:city": "MOUNT JACKSON", "addr:country": "US", "addr:full": "5240 MAIN ST", "addr:postcode": "22842", "addr:state": "VA", "brand": "USPS", "brand:wikidata": "Q668687", "collection_times": "Mo-Fr 16:30; Sa 11:00", "name": "USPS COLLECTION BOX - PO LOBBY", "note": "ON 12/24 AND 12/31, THIS BOX MAY BE COLLECTED AS EARLY AS 12 NOON.", "ref": "2284200003"}, "type": "Feature"}
{"geometry": {"coordinates": [-78.627153103, 38.761002756], "type": "Point"}, "id": "l7WmRayB9e_ejJUu_qAHR3r0sRg=", "properties": {"@spider": "usps_collection_boxes", "addr:city": "MOUNT JACKSON", "addr:country": "US", "addr:full": "5240 MAIN ST", "addr:postcode": "22842", "addr:state": "VA", "brand": "USPS", "brand:wikidata": "Q668687", "collection_times": "Mo-Fr 16:45", "name": "USPS COLLECTION BOX - PO LOBBY", "note": "ON 12/24 AND 12/31, THIS BOX MAY BE COLLECTED AS EARLY AS 12 NOON.", "ref": "2284200007"}, "type": "Feature"}
{"geometry": {"coordinates": [-79.084854973, 38.34271898], "type": "Point"}, "id": "lqDywYT-7Iy5otoJkuK5iAniggY=", "properties": {"@spider": "usps_collection_boxes", "addr:city": "MOUNT SOLON", "addr:country": "US", "addr:full": "885 NATURAL CHIMNEYS RD", "addr:postcode": "22843", "addr:state": "VA", "brand": "USPS", "brand:wikidata": "Q668687", "collection_times": "Mo-Fr 16:15; Sa 10:30", "name": "USPS COLLECTION BOX - PO LOBBY", "note": "ON 12/24 AND 12/31, THIS BOX MAY BE COLLECTED AS EARLY AS 12 NOON.", "ref": "2284300001"}, "type": "Feature"}
{"geometry": {"coordinates": [-79.085010186, 38.342543573], "type": "Point"}, "id": "SSzJJ-p_FIB67M6iJ3BVeBL2UA4=", "properties": {"@spider": "usps_collection_boxes", "addr:city": "MOUNT SOLON", "addr:country": "US", "addr:full": "885 NATURAL CHIMNEYS RD", "addr:postcode": "22843", "addr:state": "VA", "brand": "USPS", "brand:wikidata": "Q668687", "collection_times": "Mo-Fr 16:30; Sa 12:00", "name": "USPS COLLECTION BOX - PO LOBBY", "note": "ON 12/24 AND 12/31, THIS BOX MAY BE COLLECTED AS EARLY AS 12 NOON.", "ref": "2284300004"}, "type": "Feature"}
{"geometry": {"coordinates": [-78.671905436, 38.645800409], "type": "Point"}, "id": "0ZkCQeiJDuNwFNOeIHjYJgSyp4U=", "properties": {"@spider": "usps_collection_boxes", "addr:city": "NEW MARKET", "addr:country": "US", "addr:full": "9444 JOHN SEVIER RD", "addr:postcode": "22844", "addr:state": "VA", "brand": "USPS", "brand:wikidata": "Q668687", "collection_times": "Mo-Fr 16:45; Sa 10:30", "name": "USPS COLLECTION BOX - BLUE BOX", "note": "ON 12/24 AND 12/31, THIS BOX MAY BE COLLECTED AS EARLY AS 12 NOON.", "ref": "2284400000"}, "type": "Feature"}
{"geometry": {"coordinates": [-78.671905436, 38.645800409], "type": "Point"}, "id": "PI8eTu9MkYAN67EjGgOy-O-I60o=", "properties": {"@spider": "usps_collection_boxes", "addr:city": "NEW MARKET", "addr:country": "US", "addr:full": "9444 JOHN SEVIER RD", "addr:postcode": "22844", "addr:state": "VA", "brand": "USPS", "brand:wikidata": "Q668687", "collection_times": "Mo-Fr 16:45; Sa 10:30", "name": "USPS COLLECTION BOX - PO LOBBY", "note": "ON 12/24 AND 12/31, THIS BOX MAY BE COLLECTED AS EARLY AS 12 NOON.", "ref": "2284400001"}, "type": "Feature"}
{"geometry": {"coordinates": [-78.671905436, 38.645800409], "type": "Point"}, "id": "qZFc0otIwwh6c2p2UiOwrq_0kBU=", "properties": {"@spider": "usps_collection_boxes", "addr:city": "NEW MARKET", "addr:country": "US", "addr:full": "9444 JOHN SEVIER RD", "addr:postcode": "22844", "addr:state": "VA", "brand": "USPS", "brand:wikidata": "Q668687", "collection_times": "Mo-Fr 16:30; Sa 10:30", "name": "USPS COLLECTION BOX - PO LOBBY", "note": "ON 12/24 AND 12/31, THIS BOX MAY BE COLLECTED AS EARLY AS 12 NOON.", "ref": "2284400004"}, "type": "Feature"}
{"geometry": {"coordinates": [-78.814400929, 38.795301338], "type": "Point"}, "id": "5MvRcOPBdjTbudczr6MqbVS0pGs=", "properties": {"@spider": "usps_collection_boxes", "addr:city": "ORKNEY SPRINGS", "addr:country": "US", "addr:full": "4506 ORKNEY SPRINGS RD", "addr:postcode": "22845", "addr:state": "VA", "brand": "USPS", "brand:wikidata": "Q668687", "collection_times": "Mo-Fr 14:45; Sa 12:15", "name": "USPS COLLECTION BOX - BLUE BOX", "note": "ON 12/24 AND 12/31, THIS BOX MAY BE COLLECTED AS EARLY AS 12 NOON.", "ref": "2284500000"}, "type": "Feature"}
{"geometry": {"coordinates": [-78.814400929, 38.795301338], "type": "Point"}, "id": "ZwGydVupMsxoRSlZ-TndbNFNN9k=", "properties": {"@spider": "usps_collection_boxes", "addr:city": "ORKNEY SPRINGS", "addr:country": "US", "addr:full": "4506 ORKNEY SPRINGS RD", "addr:postcode": "22845", "addr:state": "VA", "brand": "USPS", "brand:wikidata": "Q668687", "collection_times": "Mo-Fr 15:00; Sa 12:30", "name": "USPS COLLECTION BOX - PO LOBBY", "note": "ON 12/24 AND 12/31, THIS BOX MAY BE COLLECTED AS EARLY AS 12 NOON.", "ref": "2284500002"}, "type": "Feature"}
{"geometry": {"coordinates": [-78.803170975, 38.387322984], "type": "Point"}, "id": "QrOeG3hpIPUd0P1c0pKKzqf125c=", "properties": {"@spider": "usps_collection_boxes", "addr:city": "PENN LAIRD", "addr:country": "US", "addr:full": "5375 SPOTSWOOD TRL", "addr:postcode": "22846", "addr:state": "VA", "brand": "USPS", "brand:wikidata": "Q668687", "collection_times": "Mo-Fr 16:15; Sa 11:15", "name": "USPS COLLECTION BOX - BLUE BOX", "note": "ON 12/24 AND 12/31, THIS BOX MAY BE COLLECTED AS EARLY AS 12 NOON.", "ref": "2284600000"}, "type": "Feature"}
{"geometry": {"coordinates": [-78.803170975, 38.387322984], "type": "Point"}, "id": "6N-ZAtdIeOKvrUZN3YHdDrPKBEI=", "properties": {"@spider": "usps_collection_boxes", "addr:city": "PENN LAIRD", "addr:country": "US", "addr:full": "5375 SPOTSWOOD TRL", "addr:postcode": "22846", "addr:state": "VA", "brand": "USPS", "brand:wikidata": "Q668687", "collection_times": "Mo-Fr 16:30; Sa 11:15", "name": "USPS COLLECTION BOX - PO LOBBY", "note": "ON 12/24 AND 12/31, THIS BOX MAY BE COLLECTED AS EARLY AS 12 NOON.", "ref": "2284600001"}, "type": "Feature"}
{"geometry": {"coordinates": [-78.803170975, 38.387322984], "type": "Point"}, "id": "P6Qz2B57GxufWG-Wtfq8iKY1Rgw=", "properties": {"@spider": "usps_collection_boxes", "addr:city": "PENN LAIRD", "addr:country": "US", "addr:full": "5375 SPOTSWOOD TRL", "addr:postcode": "22846", "addr:state": "VA", "brand": "USPS", "brand:wikidata": "Q668687", "collection_times": "Mo-Fr 16:30; Sa 11:00", "name": "USPS COLLECTION BOX - PO LOBBY", "note": "ON 12/24 AND 12/31, THIS BOX MAY BE COLLECTED AS EARLY AS 12 NOON.", "ref": "2284600003"}, "type": "Feature"}
{"geometry": {"coordinates": [-78.683615744, 38.693031253], "type": "Point"}, "id": "pBZgCOf6DQY_4blv6pPQJPrWPgE=", "properties": {"@spider": "usps_collection_boxes", "addr:city": "QUICKSBURG", "addr:country": "US", "addr:full": "4199 RIDGE RD", "addr:postcode": "22847", "addr:state": "VA", "brand": "USPS", "brand:wikidata": "Q668687", "collection_times": "Mo-Fr 15:45; Sa 11:20", "name": "USPS COLLECTION BOX - PO LOBBY", "note": "ON 12/24 AND 12/31, THIS BOX MAY BE COLLECTED AS EARLY AS 12 NOON.", "ref": "2284700001"}, "type": "Feature"}
{"geometry": {"coordinates": [-78.683615744, 38.693031253], "type": "Point"}, "id": "Mj6hw33gcBya7rbIlTT5_Y27JYc=", "properties": {"@spider": "usps_collection_boxes", "addr:city": "QUICKSBURG", "addr:country": "US", "addr:full": "4199 RIDGE RD", "addr:postcode": "22847", "addr:state": "VA", "brand": "USPS", "brand:wikidata": "Q668687", "collection_times": "Mo-Fr 15:45; Sa 11:20", "name": "USPS COLLECTION BOX - BLUE BOX", "note": "ON 12/24 AND 12/31, THIS BOX MAY BE COLLECTED AS EARLY AS 12 NOON.", "ref": "2284700002"}, "type": "Feature"}
{"geometry": {"coordinates": [-78.6698810407, 38.7146699307], "type": "Point"}, "id": "kZgTxPDxAR0ETgvod-kO-z0B-3Y=", "properties": {"@spider": "usps_collection_boxes", "addr:city": "QUICKSBURG", "addr:country": "US", "addr:full": "261 CAVERNS RD", "addr:postcode": "22847", "addr:state": "VA", "brand": "USPS", "brand:wikidata": "Q668687", "collection_times": "Mo-Sa 10:30", "name": "USPS COLLECTION BOX - BLUE BOX", "ref": "2284700005"}, "type": "Feature"}
{"geometry": {"coordinates": [-78.683615744, 38.693031253], "type": "Point"}, "id": "Ar5SkqRVrmX0G96y6x8YSPHqpzs=", "properties": {"@spider": "usps_collection_boxes", "addr:city": "QUICKSBURG", "addr:country": "US", "addr:full": "4199 RIDGE RD", "addr:postcode": "22847", "addr:state": "VA", "brand": "USPS", "brand:wikidata": "Q668687", "collection_times": "Mo-Fr 16:00; Sa 13:30", "name": "USPS COLLECTION BOX - PO LOBBY", "note": "ON 12/24 AND 12/31, THIS BOX MAY BE COLLECTED AS EARLY AS 12 NOON.", "ref": "2284700006"}, "type": "Feature"}
{"geometry": {"coordinates": [-78.625128741, 38.486840218], "type": "Point"}, "id": "O4LcSRxnfb6VDm-UE-Y45z5_tws=", "properties": {"@spider": "usps_collection_boxes", "addr:city": "SHENANDOAH", "addr:country": "US", "addr:full": "206 VIRGINIA AVE", "addr:postcode": "22849", "addr:state": "VA", "brand": "USPS", "brand:wikidata": "Q668687", "collection_times": "Mo-Fr 16:45; Sa 11:00", "name": "USPS COLLECTION BOX - BLUE BOX", "note": "ON 12/24 AND 12/31, THIS BOX MAY BE COLLECTED AS EARLY AS 12 NOON.", "ref": "2284900006"}, "type": "Feature"}
{"geometry": {"coordinates": [-78.625128741, 38.486840218], "type": "Point"}, "id": "UYxk2IM6DOu9ExKxZHI12zZmoU0=", "properties": {"@spider": "usps_collection_boxes", "addr:city": "SHENANDOAH", "addr:country": "US", "addr:full": "206 VIRGINIA AVE", "addr:postcode": "22849", "addr:state": "VA", "brand": "USPS", "brand:wikidata": "Q668687", "collection_times": "Mo-Fr 17:00; Sa 11:00", "name": "USPS COLLECTION BOX - PO LOBBY", "note": "ON 12/24 AND 12/31, THIS BOX MAY BE COLLECTED AS EARLY AS 12 NOON.", "ref": "2284900007"}, "type": "Feature"}
{"geometry": {"coordinates": [-78.6257693, 38.485223], "type": "Point"}, "id": "u6me_94xXVcZ0a6VLypAeltwu0Y=", "properties": {"@spider": "usps_collection_boxes", "addr:city": "SHENANDOAH", "addr:country": "US", "addr:full": "426 1ST ST", "addr:postcode": "22849", "addr:state": "VA", "brand": "USPS", "brand:wikidata": "Q668687", "collection_times": "Mo-Fr 15:00; Sa 12:00", "name": "USPS COLLECTION BOX - BLUE BOX", "note": "ON 12/24 AND 12/31, THIS BOX MAY BE COLLECTED AS EARLY AS 12 NOON.", "ref": "2284900010"}, "type": "Feature"}
{"geometry": {"coordinates": [-78.625128741, 38.486840218], "type": "Point"}, "id": "Re2-jUxZkVGaj2w83f-jAEj2obc=", "properties": {"@spider": "usps_collection_boxes", "addr:city": "SHENANDOAH", "addr:country": "US", "addr:full": "206 VIRGINIA AVE", "addr:postcode": "22849", "addr:state": "VA", "brand": "USPS", "brand:wikidata": "Q668687", "collection_times": "Mo-Fr 17:00; Sa 11:00", "name": "USPS COLLECTION BOX - PO LOBBY", "note": "ON 12/24 AND 12/31, THIS BOX MAY BE COLLECTED AS EARLY AS 12 NOON.", "ref": "2284900011"}, "type": "Feature"}
{"geometry": {"coordinates": [-78.913719567, 38.552904588], "type": "Point"}, "id": "62zSMXF7d2za0gBvmSEw0RssOuc=", "properties": {"@spider": "usps_collection_boxes", "addr:city": "SINGERS GLEN", "addr:country": "US", "addr:full": "9858 SINGERS GLEN RD", "addr:postcode": "22850", "addr:state": "VA", "brand": "USPS", "brand:wikidata": "Q668687", "collection_times": "Mo-Fr 16:15; Sa 10:45", "name": "USPS COLLECTION BOX - BLUE BOX", "note": "ON 12/24 AND 12/31, THIS BOX MAY BE COLLECTED AS EARLY AS 12 NOON.", "ref": "2285000000"}, "type": "Feature"}
{"geometry": {"coordinates": [-78.913719567, 38.552904588], "type": "Point"}, "id": "1M7wfKtrcLKIBZKz5gY282MZ7I0=", "properties": {"@spider": "usps_collection_boxes", "addr:city": "SINGERS GLEN", "addr:country": "US", "addr:full": "9858 SINGERS GLEN RD", "addr:postcode": "22850", "addr:state": "VA", "brand": "USPS", "brand:wikidata": "Q668687", "collection_times": "Mo-Fr 16:15; Sa 10:45", "name": "USPS COLLECTION BOX - PO LOBBY", "note": "ON 12/24 AND 12/31, THIS BOX MAY BE COLLECTED AS EARLY AS 12 NOON.", "ref": "2285000001"}, "type": "Feature"}
{"geometry": {"coordinates": [-78.913719567, 38.552904588], "type": "Point"}, "id": "_pG07IIJOWOj6jMvO8TRRB7J_M0=", "properties": {"@spider": "usps_collection_boxes", "addr:city": "SINGERS GLEN", "addr:country": "US", "addr:full": "9858 SINGERS GLEN RD", "addr:postcode": "22850", "addr:state": "VA", "brand": "USPS", "brand:wikidata": "Q668687", "collection_times": "Mo-Fr 16:30; Sa 11:00", "name": "USPS COLLECTION BOX - PO LOBBY", "note": "ON 12/24 AND 12/31, THIS BOX MAY BE COLLECTED AS EARLY AS 12 NOON.", "ref": "2285000003"}, "type": "Feature"}
{"geometry": {"coordinates": [-78.504036393, 38.575675281], "type": "Point"}, "id": "UyjCIxw7dsMtrwzurBj5LvKIkH0=", "properties": {"@spider": "usps_collection_boxes", "addr:city": "STANLEY", "addr:country": "US", "addr:full": "151 E MAIN ST", "addr:postcode": "22851", "addr:state": "VA", "brand": "USPS", "brand:wikidata": "Q668687", "collection_times": "Mo-Fr 17:00; Sa 09:00", "name": "USPS COLLECTION BOX - PO LOBBY", "note": "ON 12/24 AND 12/31, THIS BOX MAY BE COLLECTED AS EARLY AS 12 NOON.", "ref": "2285100000"}, "type": "Feature"}
{"geometry": {"coordinates": [-78.504036393, 38.575675281], "type": "Point"}, "id": "oiw6_yV6VaPy0EmYcAweT0JadIA=", "properties": {"@spider": "usps_collection_boxes", "addr:city": "STANLEY", "addr:country": "US", "addr:full": "151 E MAIN ST", "addr:postcode": "22851", "addr:state": "VA", "brand": "USPS", "brand:wikidata": "Q668687", "collection_times": "Mo-Fr 16:55; Sa 09:00", "name": "USPS COLLECTION BOX - BLUE BOX", "note": "ON 12/24 AND 12/31, THIS BOX MAY BE COLLECTED AS EARLY AS 12 NOON.", "ref": "2285100001"}, "type": "Feature"}
{"geometry": {"coordinates": [-78.504036393, 38.575675281], "type": "Point"}, "id": "n_EwEb40N1afG6BtIrFAexCsItI=", "properties": {"@spider": "usps_collection_boxes", "addr:city": "STANLEY", "addr:country": "US", "addr:full": "151 E MAIN ST", "addr:postcode": "22851", "addr:state": "VA", "brand": "USPS", "brand:wikidata": "Q668687", "collection_times": "Mo-Fr 17:00", "name": "USPS COLLECTION BOX - PO LOBBY", "note": "ON 12/24 AND 12/31, THIS BOX MAY BE COLLECTED AS EARLY AS 12 NOON.", "ref": "2285100003"}, "type": "Feature"}
{"geometry": {"coordinates": [-78.77441617, 38.635663379], "type": "Point"}, "id": "HcoPdLJJyaeuf9mzj_0K3DZycxg=", "properties": {"@spider": "usps_collection_boxes", "addr:city": "TIMBERVILLE", "addr:country": "US", "addr:full": "172 S MAIN ST", "addr:postcode": "22853", "addr:state": "VA", "brand": "USPS", "brand:wikidata": "Q668687", "collection_times": "Mo-Fr 16:30; Sa 09:30", "name": "USPS COLLECTION BOX - BLUE BOX", "note": "ON 12/24 AND 12/31, THIS BOX MAY BE COLLECTED AS EARLY AS 12 NOON.", "ref": "2285300000"}, "type": "Feature"}
{"geometry": {"coordinates": [-78.77441617, 38.635663379], "type": "Point"}, "id": "SsD0Bovhq-shu4YDgbAcc1EfhiQ=", "properties": {"@spider": "usps_collection_boxes", "addr:city": "TIMBERVILLE", "addr:country": "US", "addr:full": "172 S MAIN ST", "addr:postcode": "22853", "addr:state": "VA", "brand": "USPS", "brand:wikidata": "Q668687", "collection_times": "Mo-Fr 16:30; Sa 09:30", "name": "USPS COLLECTION BOX - PO LOBBY", "note": "ON 12/24 AND 12/31, THIS BOX MAY BE COLLECTED AS EARLY AS 12 NOON.", "ref": "2285300001"}, "type": "Feature"}
{"geometry": {"coordinates": [-78.77441617, 38.635663379], "type": "Point"}, "id": "gLmE05JQcfZURBFPm3FFPIHe578=", "properties": {"@spider": "usps_collection_boxes", "addr:city": "TIMBERVILLE", "addr:country": "US", "addr:full": "172 S MAIN ST", "addr:postcode": "22853", "addr:state": "VA", "brand": "USPS", "brand:wikidata": "Q668687", "collection_times": "Mo-Fr 16:30", "name": "USPS COLLECTION BOX - PO LOBBY", "note": "ON 12/24 AND 12/31, THIS BOX MAY BE COLLECTED AS EARLY AS 12 NOON.", "ref": "2285300003"}, "type": "Feature"}
