{"dataset_attributes": {"@spider": "usps_collection_boxes"}, "geometry": {"coordinates": [-78.0976599, 38.245287], "type": "Point"}, "id": "bZ4W2r0sqZx5xgPVRUegnDH0Zkg=", "properties": {"@spider": "usps_collection_boxes", "addr:city": "ORANGE", "addr:country": "US", "addr:full": "200 SELMA RD", "addr:postcode": "22960", "addr:state": "VA", "amenity": "post_box", "brand": "United States Postal Service", "brand:wikidata": "Q668687", "collection_times": "Mo-Fr 16:00; Sa 12:00", "name": "USPS COLLECTION BOX - BLUE BOX", "note": "ON 12/24 AND 12/31, THIS BOX MAY BE COLLECTED AS EARLY AS 12 NOON.", "nsi_id": "unitedstatespostalservice-a77078", "operator": "United States Postal Service", "operator:short": "USPS", "operator:type": "public", "operator:wikidata": "Q668687", "ref": "2296000001"}, "type": "Feature"}
{"dataset_attributes": {"@spider": "usps_collection_boxes"}, "geometry": {"coordinates": [-78.111739, 38.248579], "type": "Point"}, "id": "Vvt5Nh-GrEsGvzVqx56SYNQoFao=", "properties": {"@spider": "usps_collection_boxes", "addr:city": "ORANGE", "addr:country": "US", "addr:full": "195 MADISON RD", "addr:postcode": "22960", "addr:state": "VA", "amenity": "post_box", "brand": "United States Postal Service", "brand:wikidata": "Q668687", "collection_times": "Mo-Fr 16:00; Sa 12:00", "name": "USPS COLLECTION BOX - BLUE BOX", "note": "ON 12/24 AND 12/31, THIS BOX MAY BE COLLECTED AS EARLY AS 12 NOON.", "nsi_id": "unitedstatespostalservice-a77078", "operator": "United States Postal Service", "operator:short": "USPS", "operator:type": "public", "operator:wikidata": "Q668687", "ref": "2296000003"}, "type": "Feature"}
{"dataset_attributes": {"@spider": "usps_collection_boxes"}, "geometry": {"coordinates": [-78.1122207, 38.244052], "type": "Point"}, "id": "vESULRGm0Sh5dY8kmflvFiwsf0k=", "properties": {"@spider": "usps_collection_boxes", "addr:city": "ORANGE", "addr:country": "US", "addr:full": "100 S MADISON RD", "addr:postcode": "22960", "addr:state": "VA", "amenity": "post_box", "brand": "United States Postal Service", "brand:wikidata": "Q668687", "collection_times": "Mo-Fr 16:00; Sa 12:00", "name": "USPS COLLECTION BOX - BLUE BOX", "note": "ON 12/24 AND 12/31, THIS BOX MAY BE COLLECTED AS EARLY AS 12 NOON.", "nsi_id": "unitedstatespostalservice-a77078", "operator": "United States Postal Service", "operator:short": "USPS", "operator:type": "public", "operator:wikidata": "Q668687", "ref": "2296000005"}, "type": "Feature"}
{"dataset_attributes": {"@spider": "usps_collection_boxes"}, "geometry": {"coordinates": [-78.112608448, 38.244713793], "type": "Point"}, "id": "HVwDR0itafv1ODeitSBQEHaZTbA=", "properties": {"@spider": "usps_collection_boxes", "addr:city": "ORANGE", "addr:country": "US", "addr:full": "129 W MAIN ST", "addr:postcode": "22960", "addr:state": "VA", "amenity": "post_box", "brand": "United States Postal Service", "brand:wikidata": "Q668687", "collection_times": "Mo-Fr 17:00; Sa 12:00", "name": "USPS COLLECTION BOX - BLUE BOX", "note": "ON 12/24 AND 12/31, THIS BOX MAY BE COLLECTED AS EARLY AS 12 NOON.", "nsi_id": "unitedstatespostalservice-a77078", "operator": "United States Postal Service", "operator:short": "USPS", "operator:type": "public", "operator:wikidata": "Q668687", "ref": "2296000006"}, "type": "Feature"}
{"dataset_attributes": {"@spider": "usps_collection_boxes"}, "geometry": {"coordinates": [-78.112608448, 38.244713793], "type": "Point"}, "id": "Dk3-0Ef_GufsP5dQpbMss-vFNkQ=", "properties": {"@spider": "usps_collection_boxes", "addr:city": "ORANGE", "addr:country": "US", "addr:full": "129 W MAIN ST", "addr:postcode": "22960", "addr:state": "VA", "amenity": "post_box", "brand": "United States Postal Service", "brand:wikidata": "Q668687", "collection_times": "Mo-Fr 17:00; Sa 12:00", "name": "USPS COLLECTION BOX - PO LOBBY", "note": "ON 12/24 AND 12/31, THIS BOX MAY BE COLLECTED AS EARLY AS 12 NOON.", "nsi_id": "unitedstatespostalservice-a77078", "operator": "United States Postal Service", "operator:short": "USPS", "operator:type": "public", "operator:wikidata": "Q668687", "ref": "2296000007"}, "type": "Feature"}
{"dataset_attributes": {"@spider": "usps_collection_boxes"}, "geometry": {"coordinates": [-78.112608448, 38.244713793], "type": "Point"}, "id": "AxFDrfJSNcgYX95VFbLQ1MjvH_0=", "properties": {"@spider": "usps_collection_boxes", "addr:city": "ORANGE", "addr:country": "US", "addr:full": "129 W MAIN ST", "addr:postcode": "22960", "addr:state": "VA", "amenity": "post_box", "brand": "United States Postal Service", "brand:wikidata": "Q668687", "collection_times": "Mo-Fr 17:00; Sa 12:00", "name": "USPS COLLECTION BOX - PO LOBBY", "note": "ON 12/24 AND 12/31, THIS BOX MAY BE COLLECTED AS EARLY AS 12 NOON.", "nsi_id": "unitedstatespostalservice-a77078", "operator": "United States Postal Service", "operator:short": "USPS", "operator:type": "public", "operator:wikidata": "Q668687", "ref": "2296000011"}, "type": "Feature"}
