{"geometry": {"coordinates": [-76.44138713, 37.279797932], "type": "Point"}, "id": "2XAL6qWGSpWceASzhd0waFH6Wnc=", "properties": {"@source_uri": "https://tools.usps.com/UspsToolsRestServices/rest/POLocator/findLocations", "@spider": "usps_collection_boxes", "addr:city": "ACHILLES", "addr:country": "US", "addr:postcode": "23001", "addr:state": "VA", "addr:street_address": "9363 GUINEA RD", "amenity": "post_box", "collection_times": "Mo-Fr 15:45; Sa 11:30", "note": "ON 12/24 AND 12/31, THIS BOX MAY BE COLLECTED AS EARLY AS 12 NOON.", "nsi_id": "unitedstatespostalservice-a77078", "operator": "United States Postal Service", "operator:short": "USPS", "operator:type": "public", "operator:wikidata": "Q668687", "ref": "2300100001"}, "type": "Feature"}
{"geometry": {"coordinates": [-76.44138713, 37.279797932], "type": "Point"}, "id": "HRxgtNTrcPifGtT-XOSH3IvhskU=", "properties": {"@source_uri": "https://tools.usps.com/UspsToolsRestServices/rest/POLocator/findLocations", "@spider": "usps_collection_boxes", "addr:city": "ACHILLES", "addr:country": "US", "addr:postcode": "23001", "addr:state": "VA", "addr:street_address": "9363 GUINEA RD", "amenity": "post_box", "collection_times": "Mo-Fr 15:45; Sa 11:30", "indoor": "yes", "note": "ON 12/24 AND 12/31, THIS BOX MAY BE COLLECTED AS EARLY AS 12 NOON.", "nsi_id": "unitedstatespostalservice-a77078", "operator": "United States Postal Service", "operator:short": "USPS", "operator:type": "public", "operator:wikidata": "Q668687", "ref": "2300100002"}, "type": "Feature"}
{"geometry": {"coordinates": [-76.44138713, 37.279797932], "type": "Point"}, "id": "D3g0ViAn05PvExFQwMi_Ob-dgLk=", "properties": {"@source_uri": "https://tools.usps.com/UspsToolsRestServices/rest/POLocator/findLocations", "@spider": "usps_collection_boxes", "addr:city": "ACHILLES", "addr:country": "US", "addr:postcode": "23001", "addr:state": "VA", "addr:street_address": "9363 GUINEA RD", "amenity": "post_box", "collection_times": "Mo-Fr 15:45; Sa 11:30", "indoor": "yes", "note": "ON 12/24 AND 12/31, THIS BOX MAY BE COLLECTED AS EARLY AS 12 NOON.", "nsi_id": "unitedstatespostalservice-a77078", "operator": "United States Postal Service", "operator:short": "USPS", "operator:type": "public", "operator:wikidata": "Q668687", "ref": "2300100004"}, "type": "Feature"}
{"geometry": {"coordinates": [-77.9528876, 37.360551], "type": "Point"}, "id": "fQFuvJELBGz-rlLCVb2wZ7ztvZ0=", "properties": {"@source_uri": "https://tools.usps.com/UspsToolsRestServices/rest/POLocator/findLocations", "@spider": "usps_collection_boxes", "addr:city": "AMELIA CT HSE", "addr:country": "US", "addr:postcode": "23002", "addr:state": "VA", "addr:street_address": "15103 PATRICK HENRY HWY", "amenity": "post_box", "collection_times": "Mo-Sa 14:00", "note": "ON 12/24 AND 12/31, THIS BOX MAY BE COLLECTED AS EARLY AS 12 NOON.", "nsi_id": "unitedstatespostalservice-a77078", "operator": "United States Postal Service", "operator:short": "USPS", "operator:type": "public", "operator:wikidata": "Q668687", "ref": "2300200003"}, "type": "Feature"}
{"geometry": {"coordinates": [-77.979148688, 37.341365352], "type": "Point"}, "id": "WWZVNwHLFtMbXE0FtJT7oqHR6-o=", "properties": {"@source_uri": "https://tools.usps.com/UspsToolsRestServices/rest/POLocator/findLocations", "@spider": "usps_collection_boxes", "addr:city": "AMELIA CT HSE", "addr:country": "US", "addr:postcode": "23002", "addr:state": "VA", "addr:street_address": "16400 CHURCH ST", "amenity": "post_box", "collection_times": "Mo-Fr 17:00; Sa 11:45", "indoor": "yes", "note": "ON 12/24 AND 12/31, THIS BOX MAY BE COLLECTED AS EARLY AS 12 NOON.", "nsi_id": "unitedstatespostalservice-a77078", "operator": "United States Postal Service", "operator:short": "USPS", "operator:type": "public", "operator:wikidata": "Q668687", "ref": "2300200004"}, "type": "Feature"}
{"geometry": {"coordinates": [-77.979148688, 37.341365352], "type": "Point"}, "id": "jshQFiyKHU2XTaIsr7QyoT7D-hw=", "properties": {"@source_uri": "https://tools.usps.com/UspsToolsRestServices/rest/POLocator/findLocations", "@spider": "usps_collection_boxes", "addr:city": "AMELIA CT HSE", "addr:country": "US", "addr:postcode": "23002", "addr:state": "VA", "addr:street_address": "16400 CHURCH ST", "amenity": "post_box", "collection_times": "Mo-Fr 17:00; Sa 12:00", "indoor": "yes", "note": "ON 12/24 AND 12/31, THIS BOX MAY BE COLLECTED AS EARLY AS 12 NOON.", "nsi_id": "unitedstatespostalservice-a77078", "operator": "United States Postal Service", "operator:short": "USPS", "operator:type": "public", "operator:wikidata": "Q668687", "ref": "2300200008"}, "type": "Feature"}
{"geometry": {"coordinates": [-76.576547207, 37.437549478], "type": "Point"}, "id": "Un3kMPTItX_wLHeObpMJCqHKXiM=", "properties": {"@source_uri": "https://tools.usps.com/UspsToolsRestServices/rest/POLocator/findLocations", "@spider": "usps_collection_boxes", "addr:city": "ARK", "addr:country": "US", "addr:postcode": "23003", "addr:state": "VA", "addr:street_address": "9458 GEORGE WASHINGTON MEMORIAL HWY", "amenity": "post_box", "collection_times": "Mo-Fr 16:15; Sa 11:15", "note": "ON 12/24 AND 12/31, THIS BOX MAY BE COLLECTED AS EARLY AS 12 NOON.", "nsi_id": "unitedstatespostalservice-a77078", "operator": "United States Postal Service", "operator:short": "USPS", "operator:type": "public", "operator:wikidata": "Q668687", "ref": "2300300001"}, "type": "Feature"}
{"geometry": {"coordinates": [-76.576547207, 37.437549478], "type": "Point"}, "id": "Kkh-VMBFnAkfJa2xOq3yyUNBQV8=", "properties": {"@source_uri": "https://tools.usps.com/UspsToolsRestServices/rest/POLocator/findLocations", "@spider": "usps_collection_boxes", "addr:city": "ARK", "addr:country": "US", "addr:postcode": "23003", "addr:state": "VA", "addr:street_address": "9458 GEORGE WASHINGTON MEMORIAL HWY", "amenity": "post_box", "collection_times": "Mo-Fr 16:15; Sa 11:15", "indoor": "yes", "note": "ON 12/24 AND 12/31, THIS BOX MAY BE COLLECTED AS EARLY AS 12 NOON.", "nsi_id": "unitedstatespostalservice-a77078", "operator": "United States Postal Service", "operator:short": "USPS", "operator:type": "public", "operator:wikidata": "Q668687", "ref": "2300300002"}, "type": "Feature"}
{"geometry": {"coordinates": [-76.576547207, 37.437549478], "type": "Point"}, "id": "BY50UKlD0IRpumGukXxwMg6mFDI=", "properties": {"@source_uri": "https://tools.usps.com/UspsToolsRestServices/rest/POLocator/findLocations", "@spider": "usps_collection_boxes", "addr:city": "ARK", "addr:country": "US", "addr:postcode": "23003", "addr:state": "VA", "addr:street_address": "9458 GEORGE WASHINGTON MEMORIAL HWY", "amenity": "post_box", "collection_times": "Mo-Fr 16:30; Sa 11:30", "indoor": "yes", "note": "ON 12/24 AND 12/31, THIS BOX MAY BE COLLECTED AS EARLY AS 12 NOON.", "nsi_id": "unitedstatespostalservice-a77078", "operator": "United States Postal Service", "operator:short": "USPS", "operator:type": "public", "operator:wikidata": "Q668687", "ref": "2300300004"}, "type": "Feature"}
{"geometry": {"coordinates": [-78.337648822, 37.680754125], "type": "Point"}, "id": "k-FdOguTX7dvyOWke6BEbBYMy58=", "properties": {"@source_uri": "https://tools.usps.com/UspsToolsRestServices/rest/POLocator/findLocations", "@spider": "usps_collection_boxes", "addr:city": "ARVONIA", "addr:country": "US", "addr:postcode": "23004", "addr:state": "VA", "addr:street_address": "36 ARVON RD", "amenity": "post_box", "collection_times": "Mo-Fr 16:00; Sa 11:00", "note": "ON 12/24 AND 12/31, THIS BOX MAY BE COLLECTED AS EARLY AS 12 NOON.", "nsi_id": "unitedstatespostalservice-a77078", "operator": "United States Postal Service", "operator:short": "USPS", "operator:type": "public", "operator:wikidata": "Q668687", "ref": "2300400001"}, "type": "Feature"}
{"geometry": {"coordinates": [-78.337648822, 37.680754125], "type": "Point"}, "id": "8FQ8rSECFJEECpXDvCVo0cBJpX8=", "properties": {"@source_uri": "https://tools.usps.com/UspsToolsRestServices/rest/POLocator/findLocations", "@spider": "usps_collection_boxes", "addr:city": "ARVONIA", "addr:country": "US", "addr:postcode": "23004", "addr:state": "VA", "addr:street_address": "36 ARVON RD", "amenity": "post_box", "collection_times": "Mo-Fr 16:00; Sa 11:00", "indoor": "yes", "note": "ON 12/24 AND 12/31, THIS BOX MAY BE COLLECTED AS EARLY AS 12 NOON.", "nsi_id": "unitedstatespostalservice-a77078", "operator": "United States Postal Service", "operator:short": "USPS", "operator:type": "public", "operator:wikidata": "Q668687", "ref": "2300400002"}, "type": "Feature"}
{"geometry": {"coordinates": [-78.337648822, 37.680754125], "type": "Point"}, "id": "odD7rhay2m4c7Y4oPiS76bFBsqg=", "properties": {"@source_uri": "https://tools.usps.com/UspsToolsRestServices/rest/POLocator/findLocations", "@spider": "usps_collection_boxes", "addr:city": "ARVONIA", "addr:country": "US", "addr:postcode": "23004", "addr:state": "VA", "addr:street_address": "36 ARVON RD", "amenity": "post_box", "collection_times": "Mo-Fr 16:00; Sa 12:00", "indoor": "yes", "note": "ON 12/24 AND 12/31, THIS BOX MAY BE COLLECTED AS EARLY AS 12 NOON.", "nsi_id": "unitedstatespostalservice-a77078", "operator": "United States Postal Service", "operator:short": "USPS", "operator:type": "public", "operator:wikidata": "Q668687", "ref": "2300400004"}, "type": "Feature"}
{"geometry": {"coordinates": [-77.478261443, 37.758750521], "type": "Point"}, "id": "Ww28sAd0jRkvLcrXbzWutXcCBEc=", "properties": {"@source_uri": "https://tools.usps.com/UspsToolsRestServices/rest/POLocator/findLocations", "@spider": "usps_collection_boxes", "addr:city": "ASHLAND", "addr:country": "US", "addr:postcode": "23005", "addr:state": "VA", "addr:street_address": "301 ENGLAND ST", "amenity": "post_box", "collection_times": "Mo-Fr 17:00; Sa 15:00", "note": "ON 12/24 AND 12/31, THIS BOX MAY BE COLLECTED AS EARLY AS 12 NOON.", "nsi_id": "unitedstatespostalservice-a77078", "operator": "United States Postal Service", "operator:short": "USPS", "operator:type": "public", "operator:wikidata": "Q668687", "ref": "2300500010"}, "type": "Feature"}
{"geometry": {"coordinates": [-77.4388811, 37.691429], "type": "Point"}, "id": "waUrAGXYL0hRnMHRa76QbLzwNas=", "properties": {"@source_uri": "https://tools.usps.com/UspsToolsRestServices/rest/POLocator/findLocations", "@spider": "usps_collection_boxes", "addr:city": "ASHLAND", "addr:country": "US", "addr:postcode": "23005", "addr:state": "VA", "addr:street_address": "10030 SLIDING HILL RD", "amenity": "post_box", "collection_times": "Mo-Fr 17:00; Sa 15:00", "note": "ON 12/24 AND 12/31, THIS BOX MAY BE COLLECTED AS EARLY AS 12 NOON.", "nsi_id": "unitedstatespostalservice-a77078", "operator": "United States Postal Service", "operator:short": "USPS", "operator:type": "public", "operator:wikidata": "Q668687", "ref": "2300500013"}, "type": "Feature"}
{"geometry": {"coordinates": [-77.4535176, 37.696793], "type": "Point"}, "id": "kxaeJj-xQpfqnyCpL1QYoMFzeYE=", "properties": {"@source_uri": "https://tools.usps.com/UspsToolsRestServices/rest/POLocator/findLocations", "@spider": "usps_collection_boxes", "addr:city": "ASHLAND", "addr:country": "US", "addr:postcode": "23005", "addr:state": "VA", "addr:street_address": "10487 LAKERIDGE PKWY", "amenity": "post_box", "collection_times": "Mo-Sa 16:00", "note": "ON 12/24 AND 12/31, THIS BOX MAY BE COLLECTED AS EARLY AS 12 NOON.", "nsi_id": "unitedstatespostalservice-a77078", "operator": "United States Postal Service", "operator:short": "USPS", "operator:type": "public", "operator:wikidata": "Q668687", "ref": "2300500020"}, "type": "Feature"}
{"geometry": {"coordinates": [-77.478261443, 37.758750521], "type": "Point"}, "id": "M3jBBdryFf58Oh9H33O1DOp6G6Q=", "properties": {"@source_uri": "https://tools.usps.com/UspsToolsRestServices/rest/POLocator/findLocations", "@spider": "usps_collection_boxes", "addr:city": "ASHLAND", "addr:country": "US", "addr:postcode": "23005", "addr:state": "VA", "addr:street_address": "301 ENGLAND ST", "amenity": "post_box", "collection_times": "Mo-Fr 17:00; Sa 15:00", "indoor": "yes", "note": "ON 12/24 AND 12/31, THIS BOX MAY BE COLLECTED AS EARLY AS 12 NOON.", "nsi_id": "unitedstatespostalservice-a77078", "operator": "United States Postal Service", "operator:short": "USPS", "operator:type": "public", "operator:wikidata": "Q668687", "ref": "2300500021"}, "type": "Feature"}
{"geometry": {"coordinates": [-77.470464, 37.760046], "type": "Point"}, "id": "arIR6mxM2w3SInMzP-nFQk19xy0=", "properties": {"@source_uri": "https://tools.usps.com/UspsToolsRestServices/rest/POLocator/findLocations", "@spider": "usps_collection_boxes", "addr:city": "ASHLAND", "addr:country": "US", "addr:postcode": "23005", "addr:state": "VA", "addr:street_address": "201 N WASHINGTON HWY", "amenity": "post_box", "collection_times": "Mo-Sa 10:00", "nsi_id": "unitedstatespostalservice-a77078", "operator": "United States Postal Service", "operator:short": "USPS", "operator:type": "public", "operator:wikidata": "Q668687", "ref": "2300500023"}, "type": "Feature"}
{"geometry": {"coordinates": [-77.478261443, 37.758750521], "type": "Point"}, "id": "Djq-ESfH_Vd4T0don2c6qGegohU=", "properties": {"@source_uri": "https://tools.usps.com/UspsToolsRestServices/rest/POLocator/findLocations", "@spider": "usps_collection_boxes", "addr:city": "ASHLAND", "addr:country": "US", "addr:postcode": "23005", "addr:state": "VA", "addr:street_address": "301 ENGLAND ST", "amenity": "post_box", "collection_times": "Mo-Fr 17:00; Sa 12:00", "indoor": "yes", "note": "ON 12/24 AND 12/31, THIS BOX MAY BE COLLECTED AS EARLY AS 12 NOON.", "nsi_id": "unitedstatespostalservice-a77078", "operator": "United States Postal Service", "operator:short": "USPS", "operator:type": "public", "operator:wikidata": "Q668687", "ref": "2300500028"}, "type": "Feature"}
{"geometry": {"coordinates": [-77.1157384, 37.763400017], "type": "Point"}, "id": "EUErKRDgTGHTW2HmllEP7q87yII=", "properties": {"@source_uri": "https://tools.usps.com/UspsToolsRestServices/rest/POLocator/findLocations", "@spider": "usps_collection_boxes", "addr:city": "AYLETT", "addr:country": "US", "addr:postcode": "23009", "addr:state": "VA", "addr:street_address": "56 MILL RD", "amenity": "post_box", "collection_times": "Mo-Fr 16:45; Sa 11:45", "note": "ON 12/24 AND 12/31, THIS BOX MAY BE COLLECTED AS EARLY AS 12 NOON.", "nsi_id": "unitedstatespostalservice-a77078", "operator": "United States Postal Service", "operator:short": "USPS", "operator:type": "public", "operator:wikidata": "Q668687", "ref": "2300900001"}, "type": "Feature"}
{"geometry": {"coordinates": [-77.1157384, 37.763400017], "type": "Point"}, "id": "VKy9NsGjGkSEQXVQKHVfR9Buwvw=", "properties": {"@source_uri": "https://tools.usps.com/UspsToolsRestServices/rest/POLocator/findLocations", "@spider": "usps_collection_boxes", "addr:city": "AYLETT", "addr:country": "US", "addr:postcode": "23009", "addr:state": "VA", "addr:street_address": "56 MILL RD", "amenity": "post_box", "collection_times": "Mo-Fr 16:45; Sa 11:45", "indoor": "yes", "note": "ON 12/24 AND 12/31, THIS BOX MAY BE COLLECTED AS EARLY AS 12 NOON.", "nsi_id": "unitedstatespostalservice-a77078", "operator": "United States Postal Service", "operator:short": "USPS", "operator:type": "public", "operator:wikidata": "Q668687", "ref": "2300900002"}, "type": "Feature"}
{"geometry": {"coordinates": [-77.1157384, 37.763400017], "type": "Point"}, "id": "iQYUs-gIlC50nOYkgs_KvSf-USA=", "properties": {"@source_uri": "https://tools.usps.com/UspsToolsRestServices/rest/POLocator/findLocations", "@spider": "usps_collection_boxes", "addr:city": "AYLETT", "addr:country": "US", "addr:postcode": "23009", "addr:state": "VA", "addr:street_address": "56 MILL RD", "amenity": "post_box", "collection_times": "Mo-Fr 16:45; Sa 11:45", "indoor": "yes", "note": "ON 12/24 AND 12/31, THIS BOX MAY BE COLLECTED AS EARLY AS 12 NOON.", "nsi_id": "unitedstatespostalservice-a77078", "operator": "United States Postal Service", "operator:short": "USPS", "operator:type": "public", "operator:wikidata": "Q668687", "ref": "2300900004"}, "type": "Feature"}
{"geometry": {"coordinates": [-77.1157384, 37.763400017], "type": "Point"}, "id": "g5t2_O4gxzUyrNEyfVFuVYfYNwg=", "properties": {"@source_uri": "https://tools.usps.com/UspsToolsRestServices/rest/POLocator/findLocations", "@spider": "usps_collection_boxes", "addr:city": "AYLETT", "addr:country": "US", "addr:postcode": "23009", "addr:state": "VA", "addr:street_address": "56 MILL RD", "amenity": "post_box", "collection_times": "Mo-Fr 17:00; Sa 12:00", "indoor": "yes", "note": "ON 12/24 AND 12/31, THIS BOX MAY BE COLLECTED AS EARLY AS 12 NOON.", "nsi_id": "unitedstatespostalservice-a77078", "operator": "United States Postal Service", "operator:short": "USPS", "operator:type": "public", "operator:wikidata": "Q668687", "ref": "2300900005"}, "type": "Feature"}
{"geometry": {"coordinates": [-76.840917165, 37.455632769], "type": "Point"}, "id": "izsAVL8rZVg8WPxHA7zntwKf44A=", "properties": {"@source_uri": "https://tools.usps.com/UspsToolsRestServices/rest/POLocator/findLocations", "@spider": "usps_collection_boxes", "addr:city": "BARHAMSVILLE", "addr:country": "US", "addr:postcode": "23011", "addr:state": "VA", "addr:street_address": "18428 NEW KENT HWY", "amenity": "post_box", "collection_times": "Mo-Fr 15:00; Sa 10:45", "note": "ON 12/24 AND 12/31, THIS BOX MAY BE COLLECTED AS EARLY AS 12 NOON.", "nsi_id": "unitedstatespostalservice-a77078", "operator": "United States Postal Service", "operator:short": "USPS", "operator:type": "public", "operator:wikidata": "Q668687", "ref": "2301100001"}, "type": "Feature"}
{"geometry": {"coordinates": [-76.840917165, 37.455632769], "type": "Point"}, "id": "p9JkiQCA41xJ8s3t_cOJu8Tk4ys=", "properties": {"@source_uri": "https://tools.usps.com/UspsToolsRestServices/rest/POLocator/findLocations", "@spider": "usps_collection_boxes", "addr:city": "BARHAMSVILLE", "addr:country": "US", "addr:postcode": "23011", "addr:state": "VA", "addr:street_address": "18428 NEW KENT HWY", "amenity": "post_box", "collection_times": "Mo-Fr 15:00; Sa 10:45", "indoor": "yes", "note": "ON 12/24 AND 12/31, THIS BOX MAY BE COLLECTED AS EARLY AS 12 NOON.", "nsi_id": "unitedstatespostalservice-a77078", "operator": "United States Postal Service", "operator:short": "USPS", "operator:type": "public", "operator:wikidata": "Q668687", "ref": "2301100002"}, "type": "Feature"}
{"geometry": {"coordinates": [-76.84036604, 37.455694982], "type": "Point"}, "id": "hbakpFumj0gcwFPVUOY7ZhHnwZc=", "properties": {"@source_uri": "https://tools.usps.com/UspsToolsRestServices/rest/POLocator/findLocations", "@spider": "usps_collection_boxes", "addr:city": "BARHAMSVILLE", "addr:country": "US", "addr:postcode": "23011", "addr:state": "VA", "addr:street_address": "18428 NEW KENT HWY", "amenity": "post_box", "collection_times": "Mo-Fr 15:00; Sa 12:00", "indoor": "yes", "note": "ON 12/24 AND 12/31, THIS BOX MAY BE COLLECTED AS EARLY AS 12 NOON.", "nsi_id": "unitedstatespostalservice-a77078", "operator": "United States Postal Service", "operator:short": "USPS", "operator:type": "public", "operator:wikidata": "Q668687", "ref": "2301100004"}, "type": "Feature"}
{"geometry": {"coordinates": [-77.652311, 37.940443], "type": "Point"}, "id": "eq8xl9tPg4PqeHLVmlRIx3Ribsg=", "properties": {"@source_uri": "https://tools.usps.com/UspsToolsRestServices/rest/POLocator/findLocations", "@spider": "usps_collection_boxes", "addr:city": "BEAVERDAM", "addr:country": "US", "addr:postcode": "23015", "addr:state": "VA", "addr:street_address": "16176 BEAVERDAM SCHOOL RD", "amenity": "post_box", "collection_times": "Mo-Fr 16:30; Sa 12:00", "note": "ON 12/24 AND 12/31, THIS BOX MAY BE COLLECTED AS EARLY AS 12 NOON.", "nsi_id": "unitedstatespostalservice-a77078", "operator": "United States Postal Service", "operator:short": "USPS", "operator:type": "public", "operator:wikidata": "Q668687", "ref": "2301500001"}, "type": "Feature"}
{"geometry": {"coordinates": [-77.652311, 37.940443], "type": "Point"}, "id": "YkGVioX7QYdX2fgAAekqTxkkk1E=", "properties": {"@source_uri": "https://tools.usps.com/UspsToolsRestServices/rest/POLocator/findLocations", "@spider": "usps_collection_boxes", "addr:city": "BEAVERDAM", "addr:country": "US", "addr:postcode": "23015", "addr:state": "VA", "addr:street_address": "16176 BEAVERDAM SCHOOL RD", "amenity": "post_box", "collection_times": "Mo-Fr 16:30; Sa 12:00", "indoor": "yes", "note": "ON 12/24 AND 12/31, THIS BOX MAY BE COLLECTED AS EARLY AS 12 NOON.", "nsi_id": "unitedstatespostalservice-a77078", "operator": "United States Postal Service", "operator:short": "USPS", "operator:type": "public", "operator:wikidata": "Q668687", "ref": "2301500002"}, "type": "Feature"}
{"geometry": {"coordinates": [-77.6523141372, 37.9404319231], "type": "Point"}, "id": "kBjwdyK-fmgqA1ihC3ejIAhB0RI=", "properties": {"@source_uri": "https://tools.usps.com/UspsToolsRestServices/rest/POLocator/findLocations", "@spider": "usps_collection_boxes", "addr:city": "BEAVERDAM", "addr:country": "US", "addr:postcode": "23015", "addr:state": "VA", "addr:street_address": "16176 BEAVERDAM SCHOOL RD", "amenity": "post_box", "collection_times": "Mo-Fr 16:30; Sa 12:00", "indoor": "yes", "note": "ON 12/24 AND 12/31, THIS BOX MAY BE COLLECTED AS EARLY AS 12 NOON.", "nsi_id": "unitedstatespostalservice-a77078", "operator": "United States Postal Service", "operator:short": "USPS", "operator:type": "public", "operator:wikidata": "Q668687", "ref": "2301500005"}, "type": "Feature"}
{"geometry": {"coordinates": [-76.456077484, 37.271089356], "type": "Point"}, "id": "ep6vjyHHqIz0ks_EVcCFGP90wBU=", "properties": {"@source_uri": "https://tools.usps.com/UspsToolsRestServices/rest/POLocator/findLocations", "@spider": "usps_collection_boxes", "addr:city": "BENA", "addr:country": "US", "addr:postcode": "23018", "addr:state": "VA", "addr:street_address": "8833 GUINEA RD", "amenity": "post_box", "collection_times": "Mo-Fr 15:45; Sa 11:45", "note": "ON 12/24 AND 12/31, THIS BOX MAY BE COLLECTED AS EARLY AS 12 NOON.", "nsi_id": "unitedstatespostalservice-a77078", "operator": "United States Postal Service", "operator:short": "USPS", "operator:type": "public", "operator:wikidata": "Q668687", "ref": "2301800001"}, "type": "Feature"}
{"geometry": {"coordinates": [-76.456077484, 37.271089356], "type": "Point"}, "id": "QJk189Kbg2KQjaV2JSyMXL9UpSA=", "properties": {"@source_uri": "https://tools.usps.com/UspsToolsRestServices/rest/POLocator/findLocations", "@spider": "usps_collection_boxes", "addr:city": "BENA", "addr:country": "US", "addr:postcode": "23018", "addr:state": "VA", "addr:street_address": "8833 GUINEA RD", "amenity": "post_box", "collection_times": "Mo-Fr 15:45; Sa 11:45", "indoor": "yes", "note": "ON 12/24 AND 12/31, THIS BOX MAY BE COLLECTED AS EARLY AS 12 NOON.", "nsi_id": "unitedstatespostalservice-a77078", "operator": "United States Postal Service", "operator:short": "USPS", "operator:type": "public", "operator:wikidata": "Q668687", "ref": "2301800002"}, "type": "Feature"}
{"geometry": {"coordinates": [-76.456077484, 37.271089356], "type": "Point"}, "id": "eXP6BHqQEcgJB_yt_urcKfH2xFc=", "properties": {"@source_uri": "https://tools.usps.com/UspsToolsRestServices/rest/POLocator/findLocations", "@spider": "usps_collection_boxes", "addr:city": "BENA", "addr:country": "US", "addr:postcode": "23018", "addr:state": "VA", "addr:street_address": "8833 GUINEA RD", "amenity": "post_box", "collection_times": "Sa 11:30", "indoor": "yes", "nsi_id": "unitedstatespostalservice-a77078", "operator": "United States Postal Service", "operator:short": "USPS", "operator:type": "public", "operator:wikidata": "Q668687", "ref": "2301800004"}, "type": "Feature"}
{"geometry": {"coordinates": [-78.296909327, 37.712425904], "type": "Point"}, "id": "hENSTei-0PkkyOaHeeJYq_uTOoc=", "properties": {"@source_uri": "https://tools.usps.com/UspsToolsRestServices/rest/POLocator/findLocations", "@spider": "usps_collection_boxes", "addr:city": "BREMO BLUFF", "addr:country": "US", "addr:postcode": "23022", "addr:state": "VA", "addr:street_address": "538 BREMO RD", "amenity": "post_box", "collection_times": "Mo-Fr 16:00; Sa 11:00", "note": "ON 12/24 AND 12/31, THIS BOX MAY BE COLLECTED AS EARLY AS 12 NOON.", "nsi_id": "unitedstatespostalservice-a77078", "operator": "United States Postal Service", "operator:short": "USPS", "operator:type": "public", "operator:wikidata": "Q668687", "ref": "2302200001"}, "type": "Feature"}
{"geometry": {"coordinates": [-78.296909327, 37.712425904], "type": "Point"}, "id": "NVav7pgyCEBKbzpze3asVHh9GLQ=", "properties": {"@source_uri": "https://tools.usps.com/UspsToolsRestServices/rest/POLocator/findLocations", "@spider": "usps_collection_boxes", "addr:city": "BREMO BLUFF", "addr:country": "US", "addr:postcode": "23022", "addr:state": "VA", "addr:street_address": "538 BREMO RD", "amenity": "post_box", "collection_times": "Mo-Fr 16:00; Sa 11:00", "indoor": "yes", "note": "ON 12/24 AND 12/31, THIS BOX MAY BE COLLECTED AS EARLY AS 12 NOON.", "nsi_id": "unitedstatespostalservice-a77078", "operator": "United States Postal Service", "operator:short": "USPS", "operator:type": "public", "operator:wikidata": "Q668687", "ref": "2302200002"}, "type": "Feature"}
{"geometry": {"coordinates": [-78.296909327, 37.712425904], "type": "Point"}, "id": "1qUMTUwZfzFJmtSM5RRmB8nWSk0=", "properties": {"@source_uri": "https://tools.usps.com/UspsToolsRestServices/rest/POLocator/findLocations", "@spider": "usps_collection_boxes", "addr:city": "BREMO BLUFF", "addr:country": "US", "addr:postcode": "23022", "addr:state": "VA", "addr:street_address": "538 BREMO RD", "amenity": "post_box", "collection_times": "Mo-Fr 16:00; Sa 12:00", "indoor": "yes", "note": "ON 12/24 AND 12/31, THIS BOX MAY BE COLLECTED AS EARLY AS 12 NOON.", "nsi_id": "unitedstatespostalservice-a77078", "operator": "United States Postal Service", "operator:short": "USPS", "operator:type": "public", "operator:wikidata": "Q668687", "ref": "2302200004"}, "type": "Feature"}
{"geometry": {"coordinates": [-77.755321846, 37.957415395], "type": "Point"}, "id": "7SGHDf02-H7AfKWOMMoWKioqtuw=", "properties": {"@source_uri": "https://tools.usps.com/UspsToolsRestServices/rest/POLocator/findLocations", "@spider": "usps_collection_boxes", "addr:city": "BUMPASS", "addr:country": "US", "addr:postcode": "23024", "addr:state": "VA", "addr:street_address": "68 FREDERICKS HALL RD", "amenity": "post_box", "collection_times": "Mo-Fr 16:30; Sa 11:30", "note": "ON 12/24 AND 12/31, THIS BOX MAY BE COLLECTED AS EARLY AS 12 NOON.", "nsi_id": "unitedstatespostalservice-a77078", "operator": "United States Postal Service", "operator:short": "USPS", "operator:type": "public", "operator:wikidata": "Q668687", "ref": "2302400001"}, "type": "Feature"}
{"geometry": {"coordinates": [-77.755321846, 37.957415395], "type": "Point"}, "id": "xbZ3954u-WwqrQnnfr_oD377EOg=", "properties": {"@source_uri": "https://tools.usps.com/UspsToolsRestServices/rest/POLocator/findLocations", "@spider": "usps_collection_boxes", "addr:city": "BUMPASS", "addr:country": "US", "addr:postcode": "23024", "addr:state": "VA", "addr:street_address": "68 FREDERICKS HALL RD", "amenity": "post_box", "collection_times": "Mo-Fr 16:30; Sa 11:30", "indoor": "yes", "note": "ON 12/24 AND 12/31, THIS BOX MAY BE COLLECTED AS EARLY AS 12 NOON.", "nsi_id": "unitedstatespostalservice-a77078", "operator": "United States Postal Service", "operator:short": "USPS", "operator:type": "public", "operator:wikidata": "Q668687", "ref": "2302400002"}, "type": "Feature"}
{"geometry": {"coordinates": [-77.755321846, 37.957415395], "type": "Point"}, "id": "ypwICqLTXiyjxBD7SfPNxXC3n1E=", "properties": {"@source_uri": "https://tools.usps.com/UspsToolsRestServices/rest/POLocator/findLocations", "@spider": "usps_collection_boxes", "addr:city": "BUMPASS", "addr:country": "US", "addr:postcode": "23024", "addr:state": "VA", "addr:street_address": "68 FREDERICKS HALL RD", "amenity": "post_box", "collection_times": "Mo-Fr 16:30; Sa 11:30", "indoor": "yes", "note": "ON 12/24 AND 12/31, THIS BOX MAY BE COLLECTED AS EARLY AS 12 NOON.", "nsi_id": "unitedstatespostalservice-a77078", "operator": "United States Postal Service", "operator:short": "USPS", "operator:type": "public", "operator:wikidata": "Q668687", "ref": "2302400004"}, "type": "Feature"}
{"geometry": {"coordinates": [-78.090433, 37.667124], "type": "Point"}, "id": "-ToDPlQUHksuPA5t-aY101SB6dU=", "properties": {"@source_uri": "https://tools.usps.com/UspsToolsRestServices/rest/POLocator/findLocations", "@spider": "usps_collection_boxes", "addr:city": "CARTERSVILLE", "addr:country": "US", "addr:postcode": "23027", "addr:state": "VA", "addr:street_address": "28 HIGH ST", "amenity": "post_box", "collection_times": "Mo-Fr 16:15; Sa 11:15", "note": "ON 12/24 AND 12/31, THIS BOX MAY BE COLLECTED AS EARLY AS 12 NOON.", "nsi_id": "unitedstatespostalservice-a77078", "operator": "United States Postal Service", "operator:short": "USPS", "operator:type": "public", "operator:wikidata": "Q668687", "ref": "2302700001"}, "type": "Feature"}
{"geometry": {"coordinates": [-78.090433, 37.667124], "type": "Point"}, "id": "guhOcmSfWEy0T_Y_dadK_KnbdVo=", "properties": {"@source_uri": "https://tools.usps.com/UspsToolsRestServices/rest/POLocator/findLocations", "@spider": "usps_collection_boxes", "addr:city": "CARTERSVILLE", "addr:country": "US", "addr:postcode": "23027", "addr:state": "VA", "addr:street_address": "28 HIGH ST", "amenity": "post_box", "collection_times": "Mo-Fr 16:15; Sa 11:15", "indoor": "yes", "note": "ON 12/24 AND 12/31, THIS BOX MAY BE COLLECTED AS EARLY AS 12 NOON.", "nsi_id": "unitedstatespostalservice-a77078", "operator": "United States Postal Service", "operator:short": "USPS", "operator:type": "public", "operator:wikidata": "Q668687", "ref": "2302700002"}, "type": "Feature"}
{"geometry": {"coordinates": [-78.1244900348, 37.6588340093], "type": "Point"}, "id": "_8gUwScCIC74kUwIdrPZ2oTb-14=", "properties": {"@source_uri": "https://tools.usps.com/UspsToolsRestServices/rest/POLocator/findLocations", "@spider": "usps_collection_boxes", "addr:city": "CARTERSVILLE", "addr:country": "US", "addr:postcode": "23027", "addr:state": "VA", "addr:street_address": "1942 CARTERSVILLE RD", "amenity": "post_box", "collection_times": "Mo-Sa 11:00", "nsi_id": "unitedstatespostalservice-a77078", "operator": "United States Postal Service", "operator:short": "USPS", "operator:type": "public", "operator:wikidata": "Q668687", "ref": "2302700004"}, "type": "Feature"}
{"geometry": {"coordinates": [-78.0894917499, 37.6671994918], "type": "Point"}, "id": "yYrXUFLip4F7a7pbMAa3Ostioh0=", "properties": {"@source_uri": "https://tools.usps.com/UspsToolsRestServices/rest/POLocator/findLocations", "@spider": "usps_collection_boxes", "addr:city": "CARTERSVILLE", "addr:country": "US", "addr:postcode": "23027", "addr:state": "VA", "addr:street_address": "28 HIGH ST", "amenity": "post_box", "collection_times": "Mo-Fr 16:15; Sa 12:15", "indoor": "yes", "note": "ON 12/24 AND 12/31, THIS BOX MAY BE COLLECTED AS EARLY AS 12 NOON.", "nsi_id": "unitedstatespostalservice-a77078", "operator": "United States Postal Service", "operator:short": "USPS", "operator:type": "public", "operator:wikidata": "Q668687", "ref": "2302700005"}, "type": "Feature"}
{"geometry": {"coordinates": [-77.073305, 37.341473], "type": "Point"}, "id": "sPbdUzv62Jz02EE9cVgErKq6Oew=", "properties": {"@source_uri": "https://tools.usps.com/UspsToolsRestServices/rest/POLocator/findLocations", "@spider": "usps_collection_boxes", "addr:city": "CHARLES CITY", "addr:country": "US", "addr:postcode": "23030", "addr:state": "VA", "addr:street_address": "10800 COURTHOUSE RD", "amenity": "post_box", "collection_times": "Mo-Fr 16:30; Sa 11:30", "note": "ON 12/24 AND 12/31, THIS BOX MAY BE COLLECTED AS EARLY AS 12 NOON.", "nsi_id": "unitedstatespostalservice-a77078", "operator": "United States Postal Service", "operator:short": "USPS", "operator:type": "public", "operator:wikidata": "Q668687", "ref": "2303000001"}, "type": "Feature"}
{"geometry": {"coordinates": [-77.073305, 37.341473], "type": "Point"}, "id": "UQrMrZhtYgF1dyX0SE7jix8dq2o=", "properties": {"@source_uri": "https://tools.usps.com/UspsToolsRestServices/rest/POLocator/findLocations", "@spider": "usps_collection_boxes", "addr:city": "CHARLES CITY", "addr:country": "US", "addr:postcode": "23030", "addr:state": "VA", "addr:street_address": "10800 COURTHOUSE RD", "amenity": "post_box", "collection_times": "Mo-Fr 16:30; Sa 11:30", "indoor": "yes", "note": "ON 12/24 AND 12/31, THIS BOX MAY BE COLLECTED AS EARLY AS 12 NOON.", "nsi_id": "unitedstatespostalservice-a77078", "operator": "United States Postal Service", "operator:short": "USPS", "operator:type": "public", "operator:wikidata": "Q668687", "ref": "2303000002"}, "type": "Feature"}
{"geometry": {"coordinates": [-77.0733044327, 37.3414690497], "type": "Point"}, "id": "gNxr_NokwQykPM7TUaEJartCpoc=", "properties": {"@source_uri": "https://tools.usps.com/UspsToolsRestServices/rest/POLocator/findLocations", "@spider": "usps_collection_boxes", "addr:city": "CHARLES CITY", "addr:country": "US", "addr:postcode": "23030", "addr:state": "VA", "addr:street_address": "10800 COURTHOUSE RD", "amenity": "post_box", "collection_times": "Mo-Fr 16:30; Sa 11:30", "indoor": "yes", "note": "ON 12/24 AND 12/31, THIS BOX MAY BE COLLECTED AS EARLY AS 12 NOON.", "nsi_id": "unitedstatespostalservice-a77078", "operator": "United States Postal Service", "operator:short": "USPS", "operator:type": "public", "operator:wikidata": "Q668687", "ref": "2303000004"}, "type": "Feature"}
{"geometry": {"coordinates": [-76.679314, 37.67793], "type": "Point"}, "id": "3hsFYS6Vax-pHbJJCUEzHvGVekU=", "properties": {"@source_uri": "https://tools.usps.com/UspsToolsRestServices/rest/POLocator/findLocations", "@spider": "usps_collection_boxes", "addr:city": "CHURCH VIEW", "addr:country": "US", "addr:postcode": "23032", "addr:state": "VA", "addr:street_address": "51 WARES BRIDGE RD", "amenity": "post_box", "collection_times": "Mo-Fr 14:45; Sa 11:45", "note": "ON 12/24 AND 12/31, THIS BOX MAY BE COLLECTED AS EARLY AS 12 NOON.", "nsi_id": "unitedstatespostalservice-a77078", "operator": "United States Postal Service", "operator:short": "USPS", "operator:type": "public", "operator:wikidata": "Q668687", "ref": "2303200001"}, "type": "Feature"}
{"geometry": {"coordinates": [-76.398220045, 37.504374803], "type": "Point"}, "id": "KTtvzI8rk1Jb7TRHCiQ2DUHvzHg=", "properties": {"@source_uri": "https://tools.usps.com/UspsToolsRestServices/rest/POLocator/findLocations", "@spider": "usps_collection_boxes", "addr:city": "COBBS CREEK", "addr:country": "US", "addr:postcode": "23035", "addr:state": "VA", "addr:street_address": "2963 BUCKLEY HALL RD", "amenity": "post_box", "collection_times": "Mo-Fr 16:15; Sa 12:00", "note": "ON 12/24 AND 12/31, THIS BOX MAY BE COLLECTED AS EARLY AS 12 NOON.", "nsi_id": "unitedstatespostalservice-a77078", "operator": "United States Postal Service", "operator:short": "USPS", "operator:type": "public", "operator:wikidata": "Q668687", "ref": "2303500001"}, "type": "Feature"}
{"geometry": {"coordinates": [-76.398220045, 37.504374803], "type": "Point"}, "id": "3R48u8InkK69aoE5IWoVLYK1Ohg=", "properties": {"@source_uri": "https://tools.usps.com/UspsToolsRestServices/rest/POLocator/findLocations", "@spider": "usps_collection_boxes", "addr:city": "COBBS CREEK", "addr:country": "US", "addr:postcode": "23035", "addr:state": "VA", "addr:street_address": "2963 BUCKLEY HALL RD", "amenity": "post_box", "collection_times": "Mo-Fr 16:15; Sa 12:00", "indoor": "yes", "note": "ON 12/24 AND 12/31, THIS BOX MAY BE COLLECTED AS EARLY AS 12 NOON.", "nsi_id": "unitedstatespostalservice-a77078", "operator": "United States Postal Service", "operator:short": "USPS", "operator:type": "public", "operator:wikidata": "Q668687", "ref": "2303500002"}, "type": "Feature"}
{"geometry": {"coordinates": [-76.398220045, 37.504374803], "type": "Point"}, "id": "QH_UmC3hxqGjBZpXK75uArgDtxI=", "properties": {"@source_uri": "https://tools.usps.com/UspsToolsRestServices/rest/POLocator/findLocations", "@spider": "usps_collection_boxes", "addr:city": "COBBS CREEK", "addr:country": "US", "addr:postcode": "23035", "addr:state": "VA", "addr:street_address": "2963 BUCKLEY HALL RD", "amenity": "post_box", "collection_times": "Mo-Fr 16:15; Sa 11:30", "indoor": "yes", "note": "ON 12/24 AND 12/31, THIS BOX MAY BE COLLECTED AS EARLY AS 12 NOON.", "nsi_id": "unitedstatespostalservice-a77078", "operator": "United States Postal Service", "operator:short": "USPS", "operator:type": "public", "operator:wikidata": "Q668687", "ref": "2303500004"}, "type": "Feature"}
{"geometry": {"coordinates": [-78.161520454, 37.753756112], "type": "Point"}, "id": "UI6FKsamN1cki-8lPA0HKZO5oP4=", "properties": {"@source_uri": "https://tools.usps.com/UspsToolsRestServices/rest/POLocator/findLocations", "@spider": "usps_collection_boxes", "addr:city": "COLUMBIA", "addr:country": "US", "addr:postcode": "23038", "addr:state": "VA", "addr:street_address": "17 CAMERON ST", "amenity": "post_box", "collection_times": "Mo-Fr 14:45; Sa 10:45", "note": "ON 12/24 AND 12/31, THIS BOX MAY BE COLLECTED AS EARLY AS 12 NOON.", "nsi_id": "unitedstatespostalservice-a77078", "operator": "United States Postal Service", "operator:short": "USPS", "operator:type": "public", "operator:wikidata": "Q668687", "ref": "2303800001"}, "type": "Feature"}
{"geometry": {"coordinates": [-78.161548, 37.75377], "type": "Point"}, "id": "2-0DZLiTpWTjPMQ3qjh8vBIxXkg=", "properties": {"@source_uri": "https://tools.usps.com/UspsToolsRestServices/rest/POLocator/findLocations", "@spider": "usps_collection_boxes", "addr:city": "COLUMBIA", "addr:country": "US", "addr:postcode": "23038", "addr:state": "VA", "addr:street_address": "17 CAMERON STEET", "amenity": "post_box", "collection_times": "Mo-Fr 14:45; Sa 10:45", "indoor": "yes", "note": "ON 12/24 AND 12/31, THIS BOX MAY BE COLLECTED AS EARLY AS 12 NOON.", "nsi_id": "unitedstatespostalservice-a77078", "operator": "United States Postal Service", "operator:short": "USPS", "operator:type": "public", "operator:wikidata": "Q668687", "ref": "2303800002"}, "type": "Feature"}
{"geometry": {"coordinates": [-78.161520454, 37.753756112], "type": "Point"}, "id": "iBVsSrl1hWv_GY3Xo2VM394Bt44=", "properties": {"@source_uri": "https://tools.usps.com/UspsToolsRestServices/rest/POLocator/findLocations", "@spider": "usps_collection_boxes", "addr:city": "COLUMBIA", "addr:country": "US", "addr:postcode": "23038", "addr:state": "VA", "addr:street_address": "17 CAMERON ST", "amenity": "post_box", "collection_times": "Mo-Fr 15:00; Sa 11:00", "indoor": "yes", "note": "ON 12/24 AND 12/31, THIS BOX MAY BE COLLECTED AS EARLY AS 12 NOON.", "nsi_id": "unitedstatespostalservice-a77078", "operator": "United States Postal Service", "operator:short": "USPS", "operator:type": "public", "operator:wikidata": "Q668687", "ref": "2303800004"}, "type": "Feature"}
{"geometry": {"coordinates": [-77.797036708, 37.637175868], "type": "Point"}, "id": "4i7JF3cTMTLKtrOTj8EHjihJIjk=", "properties": {"@source_uri": "https://tools.usps.com/UspsToolsRestServices/rest/POLocator/findLocations", "@spider": "usps_collection_boxes", "addr:city": "CROZIER", "addr:country": "US", "addr:postcode": "23039", "addr:state": "VA", "addr:street_address": "1531 RIVER RD WEST", "amenity": "post_box", "collection_times": "Mo-Fr 16:15; Sa 11:00", "note": "ON 12/24 AND 12/31, THIS BOX MAY BE COLLECTED AS EARLY AS 12 NOON.", "nsi_id": "unitedstatespostalservice-a77078", "operator": "United States Postal Service", "operator:short": "USPS", "operator:type": "public", "operator:wikidata": "Q668687", "ref": "2303900001"}, "type": "Feature"}
{"geometry": {"coordinates": [-77.797036708, 37.637175868], "type": "Point"}, "id": "azac2tQQ3rUFNP0ixbV92UExxys=", "properties": {"@source_uri": "https://tools.usps.com/UspsToolsRestServices/rest/POLocator/findLocations", "@spider": "usps_collection_boxes", "addr:city": "CROZIER", "addr:country": "US", "addr:postcode": "23039", "addr:state": "VA", "addr:street_address": "1531 RIVER RD WEST", "amenity": "post_box", "collection_times": "Mo-Fr 16:15; Sa 10:45", "indoor": "yes", "note": "ON 12/24 AND 12/31, THIS BOX MAY BE COLLECTED AS EARLY AS 12 NOON.", "nsi_id": "unitedstatespostalservice-a77078", "operator": "United States Postal Service", "operator:short": "USPS", "operator:type": "public", "operator:wikidata": "Q668687", "ref": "2303900002"}, "type": "Feature"}
{"geometry": {"coordinates": [-77.797036708, 37.637175868], "type": "Point"}, "id": "ZB4madPccrWtJlUkhnRGTbJr_bA=", "properties": {"@source_uri": "https://tools.usps.com/UspsToolsRestServices/rest/POLocator/findLocations", "@spider": "usps_collection_boxes", "addr:city": "CROZIER", "addr:country": "US", "addr:postcode": "23039", "addr:state": "VA", "addr:street_address": "1531 RIVER RD WEST", "amenity": "post_box", "collection_times": "Mo-Fr 16:30; Sa 11:00", "indoor": "yes", "note": "ON 12/24 AND 12/31, THIS BOX MAY BE COLLECTED AS EARLY AS 12 NOON.", "nsi_id": "unitedstatespostalservice-a77078", "operator": "United States Postal Service", "operator:short": "USPS", "operator:type": "public", "operator:wikidata": "Q668687", "ref": "2303900004"}, "type": "Feature"}
{"geometry": {"coordinates": [-78.244504504, 37.496596738], "type": "Point"}, "id": "n9kxvSKT3Y1V9miA7LNEUEQp9mc=", "properties": {"@source_uri": "https://tools.usps.com/UspsToolsRestServices/rest/POLocator/findLocations", "@spider": "usps_collection_boxes", "addr:city": "CUMBERLAND", "addr:country": "US", "addr:postcode": "23040", "addr:state": "VA", "addr:street_address": "1489 ANDERSON HWY", "amenity": "post_box", "collection_times": "Mo-Fr 16:30; Sa 11:45", "note": "ON 12/24 AND 12/31, THIS BOX MAY BE COLLECTED AS EARLY AS 12 NOON.", "nsi_id": "unitedstatespostalservice-a77078", "operator": "United States Postal Service", "operator:short": "USPS", "operator:type": "public", "operator:wikidata": "Q668687", "ref": "2304000001"}, "type": "Feature"}
{"geometry": {"coordinates": [-78.244504504, 37.496596738], "type": "Point"}, "id": "nmXJCGX8_Mqv_HqB7jvMIW12Xdg=", "properties": {"@source_uri": "https://tools.usps.com/UspsToolsRestServices/rest/POLocator/findLocations", "@spider": "usps_collection_boxes", "addr:city": "CUMBERLAND", "addr:country": "US", "addr:postcode": "23040", "addr:state": "VA", "addr:street_address": "1489 ANDERSON HWY", "amenity": "post_box", "collection_times": "Mo-Fr 16:45; Sa 12:00", "indoor": "yes", "note": "ON 12/24 AND 12/31, THIS BOX MAY BE COLLECTED AS EARLY AS 12 NOON.", "nsi_id": "unitedstatespostalservice-a77078", "operator": "United States Postal Service", "operator:short": "USPS", "operator:type": "public", "operator:wikidata": "Q668687", "ref": "2304000002"}, "type": "Feature"}
{"geometry": {"coordinates": [-78.244504504, 37.496596738], "type": "Point"}, "id": "Tii-FPEQ-hvNqKXwSO1-nqv7bmo=", "properties": {"@source_uri": "https://tools.usps.com/UspsToolsRestServices/rest/POLocator/findLocations", "@spider": "usps_collection_boxes", "addr:city": "CUMBERLAND", "addr:country": "US", "addr:postcode": "23040", "addr:state": "VA", "addr:street_address": "1489 ANDERSON HWY", "amenity": "post_box", "collection_times": "Mo-Fr 16:30; Sa 12:00", "indoor": "yes", "note": "ON 12/24 AND 12/31, THIS BOX MAY BE COLLECTED AS EARLY AS 12 NOON.", "nsi_id": "unitedstatespostalservice-a77078", "operator": "United States Postal Service", "operator:short": "USPS", "operator:type": "public", "operator:wikidata": "Q668687", "ref": "2304000004"}, "type": "Feature"}
{"geometry": {"coordinates": [-76.33853081, 37.554836747], "type": "Point"}, "id": "yWnsMju3AJT_8gC1vhwVVXNVQnI=", "properties": {"@source_uri": "https://tools.usps.com/UspsToolsRestServices/rest/POLocator/findLocations", "@spider": "usps_collection_boxes", "addr:city": "DELTAVILLE", "addr:country": "US", "addr:postcode": "23043", "addr:state": "VA", "addr:street_address": "17283 GENERAL PULLER HWY", "amenity": "post_box", "collection_times": "Mo-Fr 16:45; Sa 11:30", "note": "ON 12/24 AND 12/31, THIS BOX MAY BE COLLECTED AS EARLY AS 12 NOON.", "nsi_id": "unitedstatespostalservice-a77078", "operator": "United States Postal Service", "operator:short": "USPS", "operator:type": "public", "operator:wikidata": "Q668687", "ref": "2304300002"}, "type": "Feature"}
{"geometry": {"coordinates": [-76.33853081, 37.554836747], "type": "Point"}, "id": "DWVelqyd9wzSCA56kbSIBqT5j1k=", "properties": {"@source_uri": "https://tools.usps.com/UspsToolsRestServices/rest/POLocator/findLocations", "@spider": "usps_collection_boxes", "addr:city": "DELTAVILLE", "addr:country": "US", "addr:postcode": "23043", "addr:state": "VA", "addr:street_address": "17283 GENERAL PULLER HWY", "amenity": "post_box", "collection_times": "Mo-Fr 16:45; Sa 11:30", "indoor": "yes", "note": "ON 12/24 AND 12/31, THIS BOX MAY BE COLLECTED AS EARLY AS 12 NOON.", "nsi_id": "unitedstatespostalservice-a77078", "operator": "United States Postal Service", "operator:short": "USPS", "operator:type": "public", "operator:wikidata": "Q668687", "ref": "2304300004"}, "type": "Feature"}
{"geometry": {"coordinates": [-76.33853081, 37.554836747], "type": "Point"}, "id": "RyLtuLD48-vNCLngWhmFo_67CLo=", "properties": {"@source_uri": "https://tools.usps.com/UspsToolsRestServices/rest/POLocator/findLocations", "@spider": "usps_collection_boxes", "addr:city": "DELTAVILLE", "addr:country": "US", "addr:postcode": "23043", "addr:state": "VA", "addr:street_address": "17283 GENERAL PULLER HWY", "amenity": "post_box", "collection_times": "Mo-Fr 16:45; Sa 11:30", "indoor": "yes", "note": "ON 12/24 AND 12/31, THIS BOX MAY BE COLLECTED AS EARLY AS 12 NOON.", "nsi_id": "unitedstatespostalservice-a77078", "operator": "United States Postal Service", "operator:short": "USPS", "operator:type": "public", "operator:wikidata": "Q668687", "ref": "2304300005"}, "type": "Feature"}
{"geometry": {"coordinates": [-76.33853081, 37.554836747], "type": "Point"}, "id": "2VQ8nxPr3Y7PTcwNBDryq3DTwZU=", "properties": {"@source_uri": "https://tools.usps.com/UspsToolsRestServices/rest/POLocator/findLocations", "@spider": "usps_collection_boxes", "addr:city": "DELTAVILLE", "addr:country": "US", "addr:postcode": "23043", "addr:state": "VA", "addr:street_address": "17283 GENERAL PULLER HWY", "amenity": "post_box", "collection_times": "Mo-Fr 16:30; Sa 11:30", "indoor": "yes", "note": "ON 12/24 AND 12/31, THIS BOX MAY BE COLLECTED AS EARLY AS 12 NOON.", "nsi_id": "unitedstatespostalservice-a77078", "operator": "United States Postal Service", "operator:short": "USPS", "operator:type": "public", "operator:wikidata": "Q668687", "ref": "2304300010"}, "type": "Feature"}
{"geometry": {"coordinates": [-77.464385188, 37.859372696], "type": "Point"}, "id": "m-gtKA-6WQQAxnNY2n-EGGhobtA=", "properties": {"@source_uri": "https://tools.usps.com/UspsToolsRestServices/rest/POLocator/findLocations", "@spider": "usps_collection_boxes", "addr:city": "DOSWELL", "addr:country": "US", "addr:postcode": "23047", "addr:state": "VA", "addr:street_address": "16410 WASHINGTON HWY", "amenity": "post_box", "collection_times": "Mo-Fr 16:15; Sa 11:45", "note": "ON 12/24 AND 12/31, THIS BOX MAY BE COLLECTED AS EARLY AS 12 NOON.", "nsi_id": "unitedstatespostalservice-a77078", "operator": "United States Postal Service", "operator:short": "USPS", "operator:type": "public", "operator:wikidata": "Q668687", "ref": "2304700001"}, "type": "Feature"}
{"geometry": {"coordinates": [-77.464385188, 37.859372696], "type": "Point"}, "id": "DRWTotaHObN7Cw5o-QWp9BpTD7Q=", "properties": {"@source_uri": "https://tools.usps.com/UspsToolsRestServices/rest/POLocator/findLocations", "@spider": "usps_collection_boxes", "addr:city": "DOSWELL", "addr:country": "US", "addr:postcode": "23047", "addr:state": "VA", "addr:street_address": "16410 WASHINGTON HWY", "amenity": "post_box", "collection_times": "Mo-Fr 16:15; Sa 11:45", "indoor": "yes", "note": "ON 12/24 AND 12/31, THIS BOX MAY BE COLLECTED AS EARLY AS 12 NOON.", "nsi_id": "unitedstatespostalservice-a77078", "operator": "United States Postal Service", "operator:short": "USPS", "operator:type": "public", "operator:wikidata": "Q668687", "ref": "2304700002"}, "type": "Feature"}
{"geometry": {"coordinates": [-77.464385188, 37.859372696], "type": "Point"}, "id": "3O8Nka8592le6Be_N76gXlkrens=", "properties": {"@source_uri": "https://tools.usps.com/UspsToolsRestServices/rest/POLocator/findLocations", "@spider": "usps_collection_boxes", "addr:city": "DOSWELL", "addr:country": "US", "addr:postcode": "23047", "addr:state": "VA", "addr:street_address": "16410 WASHINGTON HWY", "amenity": "post_box", "collection_times": "Mo-Fr 16:30; Sa 12:00", "indoor": "yes", "note": "ON 12/24 AND 12/31, THIS BOX MAY BE COLLECTED AS EARLY AS 12 NOON.", "nsi_id": "unitedstatespostalservice-a77078", "operator": "United States Postal Service", "operator:short": "USPS", "operator:type": "public", "operator:wikidata": "Q668687", "ref": "2304700004"}, "type": "Feature"}
{"geometry": {"coordinates": [-76.454845097, 37.497453145], "type": "Point"}, "id": "0-qpuU7WdBGfybg6V9L-x3RPWwI=", "properties": {"@source_uri": "https://tools.usps.com/UspsToolsRestServices/rest/POLocator/findLocations", "@spider": "usps_collection_boxes", "addr:city": "DUTTON", "addr:country": "US", "addr:postcode": "23050", "addr:state": "VA", "addr:street_address": "9226 DUTTON RD", "amenity": "post_box", "collection_times": "Mo-Fr 16:15; Sa 13:15", "note": "ON 12/24 AND 12/31, THIS BOX MAY BE COLLECTED AS EARLY AS 12 NOON.", "nsi_id": "unitedstatespostalservice-a77078", "operator": "United States Postal Service", "operator:short": "USPS", "operator:type": "public", "operator:wikidata": "Q668687", "ref": "2305000001"}, "type": "Feature"}
{"geometry": {"coordinates": [-76.454845097, 37.497453145], "type": "Point"}, "id": "DVLqPNTmkb_IrmHsVplzJHcZeSA=", "properties": {"@source_uri": "https://tools.usps.com/UspsToolsRestServices/rest/POLocator/findLocations", "@spider": "usps_collection_boxes", "addr:city": "DUTTON", "addr:country": "US", "addr:postcode": "23050", "addr:state": "VA", "addr:street_address": "9226 DUTTON RD", "amenity": "post_box", "collection_times": "Mo-Fr 16:15; Sa 13:15", "indoor": "yes", "note": "ON 12/24 AND 12/31, THIS BOX MAY BE COLLECTED AS EARLY AS 12 NOON.", "nsi_id": "unitedstatespostalservice-a77078", "operator": "United States Postal Service", "operator:short": "USPS", "operator:type": "public", "operator:wikidata": "Q668687", "ref": "2305000002"}, "type": "Feature"}
{"geometry": {"coordinates": [-76.454845097, 37.497453145], "type": "Point"}, "id": "5W4TgWCErwKmIRSpihTqEDy8R7Q=", "properties": {"@source_uri": "https://tools.usps.com/UspsToolsRestServices/rest/POLocator/findLocations", "@spider": "usps_collection_boxes", "addr:city": "DUTTON", "addr:country": "US", "addr:postcode": "23050", "addr:state": "VA", "addr:street_address": "9226 DUTTON RD", "amenity": "post_box", "collection_times": "Mo-Fr 16:15; Sa 13:15", "indoor": "yes", "note": "ON 12/24 AND 12/31, THIS BOX MAY BE COLLECTED AS EARLY AS 12 NOON.", "nsi_id": "unitedstatespostalservice-a77078", "operator": "United States Postal Service", "operator:short": "USPS", "operator:type": "public", "operator:wikidata": "Q668687", "ref": "2305000004"}, "type": "Feature"}
{"geometry": {"coordinates": [-78.261217, 37.764125], "type": "Point"}, "id": "TXblQTrIwS-qMSnA4YE52Xbzxlo=", "properties": {"@source_uri": "https://tools.usps.com/UspsToolsRestServices/rest/POLocator/findLocations", "@spider": "usps_collection_boxes", "addr:city": "FORK UNION", "addr:country": "US", "addr:postcode": "23055", "addr:state": "VA", "addr:street_address": "4885 JAMES MADISON HWY", "amenity": "post_box", "collection_times": "Mo-Fr 16:30; Sa 10:30", "note": "ON 12/24 AND 12/31, THIS BOX MAY BE COLLECTED AS EARLY AS 12 NOON.", "nsi_id": "unitedstatespostalservice-a77078", "operator": "United States Postal Service", "operator:short": "USPS", "operator:type": "public", "operator:wikidata": "Q668687", "ref": "2305500001"}, "type": "Feature"}
{"geometry": {"coordinates": [-78.261217, 37.764125], "type": "Point"}, "id": "kcI0JffgvYPyAgw86GrqShYFANA=", "properties": {"@source_uri": "https://tools.usps.com/UspsToolsRestServices/rest/POLocator/findLocations", "@spider": "usps_collection_boxes", "addr:city": "FORK UNION", "addr:country": "US", "addr:postcode": "23055", "addr:state": "VA", "addr:street_address": "4885 JAMES MADISON HWY", "amenity": "post_box", "collection_times": "Mo-Fr 16:30; Sa 10:30", "indoor": "yes", "note": "ON 12/24 AND 12/31, THIS BOX MAY BE COLLECTED AS EARLY AS 12 NOON.", "nsi_id": "unitedstatespostalservice-a77078", "operator": "United States Postal Service", "operator:short": "USPS", "operator:type": "public", "operator:wikidata": "Q668687", "ref": "2305500002"}, "type": "Feature"}
{"geometry": {"coordinates": [-76.384772, 37.453133], "type": "Point"}, "id": "hldEFrnPLSsZKqMfMb9sCQFKzlU=", "properties": {"@source_uri": "https://tools.usps.com/UspsToolsRestServices/rest/POLocator/findLocations", "@spider": "usps_collection_boxes", "addr:city": "FOSTER", "addr:country": "US", "addr:postcode": "23056", "addr:state": "VA", "addr:street_address": "15315 JOHN CLAYTON MEMORIAL HWY", "amenity": "post_box", "collection_times": "Mo-Fr 16:15; Sa 11:45", "note": "ON 12/24 AND 12/31, THIS BOX MAY BE COLLECTED AS EARLY AS 12 NOON.", "nsi_id": "unitedstatespostalservice-a77078", "operator": "United States Postal Service", "operator:short": "USPS", "operator:type": "public", "operator:wikidata": "Q668687", "ref": "2305600001"}, "type": "Feature"}
{"geometry": {"coordinates": [-76.3848721818, 37.4530190945], "type": "Point"}, "id": "TuureAawFuuHwJb6ttwCNa3nGPw=", "properties": {"@source_uri": "https://tools.usps.com/UspsToolsRestServices/rest/POLocator/findLocations", "@spider": "usps_collection_boxes", "addr:city": "FOSTER", "addr:country": "US", "addr:postcode": "23056", "addr:state": "VA", "addr:street_address": "15315 JOHN CLAYTON MEMORIAL HWY", "amenity": "post_box", "collection_times": "Mo-Fr 16:15; Sa 12:00", "indoor": "yes", "note": "ON 12/24 AND 12/31, THIS BOX MAY BE COLLECTED AS EARLY AS 12 NOON.", "nsi_id": "unitedstatespostalservice-a77078", "operator": "United States Postal Service", "operator:short": "USPS", "operator:type": "public", "operator:wikidata": "Q668687", "ref": "2305600004"}, "type": "Feature"}
{"geometry": {"coordinates": [-77.5903437, 37.688343], "type": "Point"}, "id": "h-4NwX1bop4ZCA2-d1KoPVUtNjo=", "properties": {"@source_uri": "https://tools.usps.com/UspsToolsRestServices/rest/POLocator/findLocations", "@spider": "usps_collection_boxes", "addr:city": "GLEN ALLEN", "addr:country": "US", "addr:postcode": "23059", "addr:state": "VA", "addr:street_address": "200 CONCOURSE BLVD", "amenity": "post_box", "collection_times": "Mo-Fr 15:00", "note": "ON 12/24 AND 12/31, THIS BOX MAY BE COLLECTED AS EARLY AS 12 NOON.", "nsi_id": "unitedstatespostalservice-a77078", "operator": "United States Postal Service", "operator:short": "USPS", "operator:type": "public", "operator:wikidata": "Q668687", "ref": "2305900000"}, "type": "Feature"}
{"geometry": {"coordinates": [-77.5946197, 37.6831214], "type": "Point"}, "id": "DGDSM_ps-lsHuPZPTBO6EBN86nE=", "properties": {"@source_uri": "https://tools.usps.com/UspsToolsRestServices/rest/POLocator/findLocations", "@spider": "usps_collection_boxes", "addr:city": "GLEN ALLEN", "addr:country": "US", "addr:postcode": "23059", "addr:state": "VA", "addr:street_address": "10101 BROOK RD", "amenity": "post_box", "collection_times": "Mo-Fr 15:00; Sa 10:00", "note": "ON 12/24 AND 12/31, THIS BOX MAY BE COLLECTED AS EARLY AS 12 NOON.", "nsi_id": "unitedstatespostalservice-a77078", "operator": "United States Postal Service", "operator:short": "USPS", "operator:type": "public", "operator:wikidata": "Q668687", "ref": "2305900002"}, "type": "Feature"}
{"geometry": {"coordinates": [-77.4554320227, 37.6674299863], "type": "Point"}, "id": "jD6vBq1ieYtVVVKdGshtYdTKMh0=", "properties": {"@source_uri": "https://tools.usps.com/UspsToolsRestServices/rest/POLocator/findLocations", "@spider": "usps_collection_boxes", "addr:city": "GLEN ALLEN", "addr:country": "US", "addr:postcode": "23059", "addr:state": "VA", "addr:street_address": "1031 TECHNOLOGY PARK DR", "amenity": "post_box", "collection_times": "Mo-Fr 15:00", "note": "ON 12/24 AND 12/31, THIS BOX MAY BE COLLECTED AS EARLY AS 12 NOON.", "nsi_id": "unitedstatespostalservice-a77078", "operator": "United States Postal Service", "operator:short": "USPS", "operator:type": "public", "operator:wikidata": "Q668687", "ref": "2305900003"}, "type": "Feature"}
{"geometry": {"coordinates": [-77.5616148072, 37.6411108561], "type": "Point"}, "id": "MyptX6dhgCaYdiApF8wjHCpjC4Q=", "properties": {"@source_uri": "https://tools.usps.com/UspsToolsRestServices/rest/POLocator/findLocations", "@spider": "usps_collection_boxes", "addr:city": "GLEN ALLEN", "addr:country": "US", "addr:postcode": "23060", "addr:state": "VA", "addr:street_address": "9621 W BROAD ST", "amenity": "post_box", "collection_times": "Mo-Fr 15:00; Sa 10:00", "note": "ON 12/24 AND 12/31, THIS BOX MAY BE COLLECTED AS EARLY AS 12 NOON.", "nsi_id": "unitedstatespostalservice-a77078", "operator": "United States Postal Service", "operator:short": "USPS", "operator:type": "public", "operator:wikidata": "Q668687", "ref": "2306000011"}, "type": "Feature"}
{"geometry": {"coordinates": [-77.5819757, 37.651512], "type": "Point"}, "id": "iwLUNBVnF7a6580p3zTZPmeVqXg=", "properties": {"@source_uri": "https://tools.usps.com/UspsToolsRestServices/rest/POLocator/findLocations", "@spider": "usps_collection_boxes", "addr:city": "GLEN ALLEN", "addr:country": "US", "addr:postcode": "23060", "addr:state": "VA", "addr:street_address": "4200 INNSLAKE DR", "amenity": "post_box", "collection_times": "Mo-Fr 17:00; Sa 10:00", "note": "ON 12/24 AND 12/31, THIS BOX MAY BE COLLECTED AS EARLY AS 12 NOON.", "nsi_id": "unitedstatespostalservice-a77078", "operator": "United States Postal Service", "operator:short": "USPS", "operator:type": "public", "operator:wikidata": "Q668687", "ref": "2306000020"}, "type": "Feature"}
{"geometry": {"coordinates": [-77.575731296, 37.664676783], "type": "Point"}, "id": "ZAQNLSiWV6opujbIE2e6mVepAjg=", "properties": {"@source_uri": "https://tools.usps.com/UspsToolsRestServices/rest/POLocator/findLocations", "@spider": "usps_collection_boxes", "addr:city": "GLEN ALLEN", "addr:country": "US", "addr:postcode": "23060", "addr:state": "VA", "addr:street_address": "4990 SADLER PL", "amenity": "post_box", "collection_times": "Mo-Fr 17:00; Sa 15:30", "indoor": "yes", "note": "ON 12/24 AND 12/31, THIS BOX MAY BE COLLECTED AS EARLY AS 12 NOON.", "nsi_id": "unitedstatespostalservice-a77078", "operator": "United States Postal Service", "operator:short": "USPS", "operator:type": "public", "operator:wikidata": "Q668687", "ref": "2306000025"}, "type": "Feature"}
{"geometry": {"coordinates": [-77.575731296, 37.664676783], "type": "Point"}, "id": "3AuYZ53tHwmfwPMjdhgBlIvEKu0=", "properties": {"@source_uri": "https://tools.usps.com/UspsToolsRestServices/rest/POLocator/findLocations", "@spider": "usps_collection_boxes", "addr:city": "GLEN ALLEN", "addr:country": "US", "addr:postcode": "23060", "addr:state": "VA", "addr:street_address": "4990 SADLER PL", "amenity": "post_box", "collection_times": "Mo-Fr 17:00; Sa 15:30", "name": "USPS COLLECTION BOX - APC", "note": "ON 12/24 AND 12/31, THIS BOX MAY BE COLLECTED AS EARLY AS 12 NOON.", "nsi_id": "unitedstatespostalservice-a77078", "operator": "United States Postal Service", "operator:short": "USPS", "operator:type": "public", "operator:wikidata": "Q668687", "ref": "2306000028"}, "type": "Feature"}
{"geometry": {"coordinates": [-77.575731296, 37.664676783], "type": "Point"}, "id": "DtcO2VEKJzfNGwHPtGs3JFO2-sg=", "properties": {"@source_uri": "https://tools.usps.com/UspsToolsRestServices/rest/POLocator/findLocations", "@spider": "usps_collection_boxes", "addr:city": "GLEN ALLEN", "addr:country": "US", "addr:postcode": "23060", "addr:state": "VA", "addr:street_address": "4990 SADLER PL", "amenity": "post_box", "collection_times": "Mo-Fr 17:00; Sa 14:30", "indoor": "yes", "note": "ON 12/24 AND 12/31, THIS BOX MAY BE COLLECTED AS EARLY AS 12 NOON.", "nsi_id": "unitedstatespostalservice-a77078", "operator": "United States Postal Service", "operator:short": "USPS", "operator:type": "public", "operator:wikidata": "Q668687", "ref": "2306000043"}, "type": "Feature"}
{"geometry": {"coordinates": [-77.507423401, 37.666488753], "type": "Point"}, "id": "4mok3XFa-t1Fw23E8vG63Wyy2So=", "properties": {"@source_uri": "https://tools.usps.com/UspsToolsRestServices/rest/POLocator/findLocations", "@spider": "usps_collection_boxes", "addr:city": "GLEN ALLEN", "addr:country": "US", "addr:postcode": "23060", "addr:state": "VA", "addr:street_address": "3017 MOUNTAIN RD", "amenity": "post_box", "collection_times": "Mo-Fr 17:00", "indoor": "yes", "note": "ON 12/24 AND 12/31, THIS BOX MAY BE COLLECTED AS EARLY AS 12 NOON.", "nsi_id": "unitedstatespostalservice-a77078", "operator": "United States Postal Service", "operator:short": "USPS", "operator:type": "public", "operator:wikidata": "Q668687", "ref": "2306000044"}, "type": "Feature"}
{"geometry": {"coordinates": [-76.518608167, 37.410214724], "type": "Point"}, "id": "ahmkYtBNa9glwCGo8ZjOaUEpo14=", "properties": {"@source_uri": "https://tools.usps.com/UspsToolsRestServices/rest/POLocator/findLocations", "@spider": "usps_collection_boxes", "addr:city": "GLOUCESTER", "addr:country": "US", "addr:postcode": "23061", "addr:state": "VA", "addr:street_address": "6892 MAIN ST", "amenity": "post_box", "collection_times": "Mo-Fr 17:00; Sa 12:00", "indoor": "yes", "note": "ON 12/24 AND 12/31, THIS BOX MAY BE COLLECTED AS EARLY AS 12 NOON.", "nsi_id": "unitedstatespostalservice-a77078", "operator": "United States Postal Service", "operator:short": "USPS", "operator:type": "public", "operator:wikidata": "Q668687", "ref": "2306100002"}, "type": "Feature"}
{"geometry": {"coordinates": [-76.518608167, 37.410214724], "type": "Point"}, "id": "0R73Tcg3y-mGstJAyaLM7xLUkps=", "properties": {"@source_uri": "https://tools.usps.com/UspsToolsRestServices/rest/POLocator/findLocations", "@spider": "usps_collection_boxes", "addr:city": "GLOUCESTER", "addr:country": "US", "addr:postcode": "23061", "addr:state": "VA", "addr:street_address": "6892 MAIN ST", "amenity": "post_box", "collection_times": "Mo-Fr 16:30; Sa 12:00", "note": "ON 12/24 AND 12/31, THIS BOX MAY BE COLLECTED AS EARLY AS 12 NOON.", "nsi_id": "unitedstatespostalservice-a77078", "operator": "United States Postal Service", "operator:short": "USPS", "operator:type": "public", "operator:wikidata": "Q668687", "ref": "2306100003"}, "type": "Feature"}
{"geometry": {"coordinates": [-76.518608167, 37.410214724], "type": "Point"}, "id": "xBz6YWX_bqhzLs7_BUXh3Vxo_jw=", "properties": {"@source_uri": "https://tools.usps.com/UspsToolsRestServices/rest/POLocator/findLocations", "@spider": "usps_collection_boxes", "addr:city": "GLOUCESTER", "addr:country": "US", "addr:postcode": "23061", "addr:state": "VA", "addr:street_address": "6892 MAIN ST", "amenity": "post_box", "collection_times": "Mo-Fr 17:00; Sa 12:00", "indoor": "yes", "note": "ON 12/24 AND 12/31, THIS BOX MAY BE COLLECTED AS EARLY AS 12 NOON.", "nsi_id": "unitedstatespostalservice-a77078", "operator": "United States Postal Service", "operator:short": "USPS", "operator:type": "public", "operator:wikidata": "Q668687", "ref": "2306100007"}, "type": "Feature"}
{"geometry": {"coordinates": [-76.518608167, 37.410214724], "type": "Point"}, "id": "mectk52wHJPtpUR1IdbWlXNsvQg=", "properties": {"@source_uri": "https://tools.usps.com/UspsToolsRestServices/rest/POLocator/findLocations", "@spider": "usps_collection_boxes", "addr:city": "GLOUCESTER", "addr:country": "US", "addr:postcode": "23061", "addr:state": "VA", "addr:street_address": "6892 MAIN ST", "amenity": "post_box", "collection_times": "Mo-Fr 17:00; Sa 12:00", "indoor": "yes", "note": "ON 12/24 AND 12/31, THIS BOX MAY BE COLLECTED AS EARLY AS 12 NOON.", "nsi_id": "unitedstatespostalservice-a77078", "operator": "United States Postal Service", "operator:short": "USPS", "operator:type": "public", "operator:wikidata": "Q668687", "ref": "2306100008"}, "type": "Feature"}
{"geometry": {"coordinates": [-76.499509064, 37.252194561], "type": "Point"}, "id": "uXOtxknkb3ROOKnlDvgT7o_5Sco=", "properties": {"@source_uri": "https://tools.usps.com/UspsToolsRestServices/rest/POLocator/findLocations", "@spider": "usps_collection_boxes", "addr:city": "GLOUCESTER PT", "addr:country": "US", "addr:postcode": "23062", "addr:state": "VA", "addr:street_address": "1451 GEORGE WASHINGTON MEMORIAL HWY", "amenity": "post_box", "collection_times": "Mo-Fr 16:45; Sa 11:45", "note": "ON 12/24 AND 12/31, THIS BOX MAY BE COLLECTED AS EARLY AS 12 NOON.", "nsi_id": "unitedstatespostalservice-a77078", "operator": "United States Postal Service", "operator:short": "USPS", "operator:type": "public", "operator:wikidata": "Q668687", "ref": "2306200001"}, "type": "Feature"}
{"geometry": {"coordinates": [-76.499509064, 37.252194561], "type": "Point"}, "id": "QDy98dvc3UQOGHW6Q8dnV_wiD5c=", "properties": {"@source_uri": "https://tools.usps.com/UspsToolsRestServices/rest/POLocator/findLocations", "@spider": "usps_collection_boxes", "addr:city": "GLOUCESTER PT", "addr:country": "US", "addr:postcode": "23062", "addr:state": "VA", "addr:street_address": "1451 GEORGE WASHINGTON MEMORIAL HWY", "amenity": "post_box", "collection_times": "Mo-Fr 16:45; Sa 11:45", "indoor": "yes", "note": "ON 12/24 AND 12/31, THIS BOX MAY BE COLLECTED AS EARLY AS 12 NOON.", "nsi_id": "unitedstatespostalservice-a77078", "operator": "United States Postal Service", "operator:short": "USPS", "operator:type": "public", "operator:wikidata": "Q668687", "ref": "2306200002"}, "type": "Feature"}
{"geometry": {"coordinates": [-76.499509064, 37.252194561], "type": "Point"}, "id": "zFmCrrc_77eT5HL7sDdeqdZdF0A=", "properties": {"@source_uri": "https://tools.usps.com/UspsToolsRestServices/rest/POLocator/findLocations", "@spider": "usps_collection_boxes", "addr:city": "GLOUCESTER PT", "addr:country": "US", "addr:postcode": "23062", "addr:state": "VA", "addr:street_address": "1451 GEORGE WASHINGTON MEMORIAL HWY", "amenity": "post_box", "collection_times": "Mo-Fr 16:45; Sa 11:45", "indoor": "yes", "note": "ON 12/24 AND 12/31, THIS BOX MAY BE COLLECTED AS EARLY AS 12 NOON.", "nsi_id": "unitedstatespostalservice-a77078", "operator": "United States Postal Service", "operator:short": "USPS", "operator:type": "public", "operator:wikidata": "Q668687", "ref": "2306200003"}, "type": "Feature"}
{"geometry": {"coordinates": [-76.499509064, 37.252194561], "type": "Point"}, "id": "mOfFQReKzh_pwbOtWbOisCSykUQ=", "properties": {"@source_uri": "https://tools.usps.com/UspsToolsRestServices/rest/POLocator/findLocations", "@spider": "usps_collection_boxes", "addr:city": "GLOUCESTER PT", "addr:country": "US", "addr:postcode": "23062", "addr:state": "VA", "addr:street_address": "1451 GEORGE WASHINGTON MEMORIAL HWY", "amenity": "post_box", "collection_times": "Mo-Fr 16:45; Sa 11:45", "indoor": "yes", "note": "ON 12/24 AND 12/31, THIS BOX MAY BE COLLECTED AS EARLY AS 12 NOON.", "nsi_id": "unitedstatespostalservice-a77078", "operator": "United States Postal Service", "operator:short": "USPS", "operator:type": "public", "operator:wikidata": "Q668687", "ref": "2306200004"}, "type": "Feature"}
{"geometry": {"coordinates": [-76.499509064, 37.252194561], "type": "Point"}, "id": "ipjoWmyyKxtfp8CJ_wjMhpRHQaA=", "properties": {"@source_uri": "https://tools.usps.com/UspsToolsRestServices/rest/POLocator/findLocations", "@spider": "usps_collection_boxes", "addr:city": "GLOUCESTER PT", "addr:country": "US", "addr:postcode": "23062", "addr:state": "VA", "addr:street_address": "1451 GEORGE WASHINGTON MEMORIAL HWY", "amenity": "post_box", "collection_times": "Mo-Fr 16:45; Sa 12:00", "indoor": "yes", "note": "ON 12/24 AND 12/31, THIS BOX MAY BE COLLECTED AS EARLY AS 12 NOON.", "nsi_id": "unitedstatespostalservice-a77078", "operator": "United States Postal Service", "operator:short": "USPS", "operator:type": "public", "operator:wikidata": "Q668687", "ref": "2306200006"}, "type": "Feature"}
{"geometry": {"coordinates": [-77.885347943, 37.684409741], "type": "Point"}, "id": "ncCVwuMphoeIil_SvDRCRWZs050=", "properties": {"@source_uri": "https://tools.usps.com/UspsToolsRestServices/rest/POLocator/findLocations", "@spider": "usps_collection_boxes", "addr:city": "GOOCHLAND", "addr:country": "US", "addr:postcode": "23063", "addr:state": "VA", "addr:street_address": "2972 RIVER RD W", "amenity": "post_box", "collection_times": "Mo-Fr 16:45; Sa 11:45", "note": "ON 12/24 AND 12/31, THIS BOX MAY BE COLLECTED AS EARLY AS 12 NOON.", "nsi_id": "unitedstatespostalservice-a77078", "operator": "United States Postal Service", "operator:short": "USPS", "operator:type": "public", "operator:wikidata": "Q668687", "ref": "2306300001"}, "type": "Feature"}
{"geometry": {"coordinates": [-77.885347943, 37.684409741], "type": "Point"}, "id": "_UoD36zAu3ldYlYSpmRVgcWLV2U=", "properties": {"@source_uri": "https://tools.usps.com/UspsToolsRestServices/rest/POLocator/findLocations", "@spider": "usps_collection_boxes", "addr:city": "GOOCHLAND", "addr:country": "US", "addr:postcode": "23063", "addr:state": "VA", "addr:street_address": "2972 RIVER RD W", "amenity": "post_box", "collection_times": "Mo-Fr 17:00; Sa 12:00", "indoor": "yes", "note": "ON 12/24 AND 12/31, THIS BOX MAY BE COLLECTED AS EARLY AS 12 NOON.", "nsi_id": "unitedstatespostalservice-a77078", "operator": "United States Postal Service", "operator:short": "USPS", "operator:type": "public", "operator:wikidata": "Q668687", "ref": "2306300003"}, "type": "Feature"}
{"geometry": {"coordinates": [-77.885347943, 37.684409741], "type": "Point"}, "id": "YjKlPyEN3AsthFj4GYdazh47B_A=", "properties": {"@source_uri": "https://tools.usps.com/UspsToolsRestServices/rest/POLocator/findLocations", "@spider": "usps_collection_boxes", "addr:city": "GOOCHLAND", "addr:country": "US", "addr:postcode": "23063", "addr:state": "VA", "addr:street_address": "2972 RIVER RD W", "amenity": "post_box", "collection_times": "Mo-Fr 17:00; Sa 12:00", "indoor": "yes", "note": "ON 12/24 AND 12/31, THIS BOX MAY BE COLLECTED AS EARLY AS 12 NOON.", "nsi_id": "unitedstatespostalservice-a77078", "operator": "United States Postal Service", "operator:short": "USPS", "operator:type": "public", "operator:wikidata": "Q668687", "ref": "2306300006"}, "type": "Feature"}
{"geometry": {"coordinates": [-76.30091826, 37.500131725], "type": "Point"}, "id": "qjzOvyvGZZ7n5XPjCHiYwIgzVSs=", "properties": {"@source_uri": "https://tools.usps.com/UspsToolsRestServices/rest/POLocator/findLocations", "@spider": "usps_collection_boxes", "addr:city": "GRIMSTEAD", "addr:country": "US", "addr:postcode": "23064", "addr:state": "VA", "addr:street_address": "1150 OLD FERRY RD", "amenity": "post_box", "collection_times": "Mo-Sa 12:45", "indoor": "yes", "note": "ON 12/24 AND 12/31, THIS BOX MAY BE COLLECTED AS EARLY AS 12 NOON.", "nsi_id": "unitedstatespostalservice-a77078", "operator": "United States Postal Service", "operator:short": "USPS", "operator:type": "public", "operator:wikidata": "Q668687", "ref": "2306400002"}, "type": "Feature"}
{"geometry": {"coordinates": [-77.829593334, 37.723582832], "type": "Point"}, "id": "i4LEXLm6E_QMK0GjDV_Iq1tKXMo=", "properties": {"@source_uri": "https://tools.usps.com/UspsToolsRestServices/rest/POLocator/findLocations", "@spider": "usps_collection_boxes", "addr:city": "GUM SPRING", "addr:country": "US", "addr:postcode": "23065", "addr:state": "VA", "addr:street_address": "3250 BROAD STREET RD", "amenity": "post_box", "collection_times": "Mo-Sa 11:00", "nsi_id": "unitedstatespostalservice-a77078", "operator": "United States Postal Service", "operator:short": "USPS", "operator:type": "public", "operator:wikidata": "Q668687", "ref": "2306500001"}, "type": "Feature"}
{"geometry": {"coordinates": [-77.829593334, 37.723582832], "type": "Point"}, "id": "t6k8ddIdyggzqAQ7BFGSCFAdacI=", "properties": {"@source_uri": "https://tools.usps.com/UspsToolsRestServices/rest/POLocator/findLocations", "@spider": "usps_collection_boxes", "addr:city": "GUM SPRING", "addr:country": "US", "addr:postcode": "23065", "addr:state": "VA", "addr:street_address": "3250 BROAD STREET RD", "amenity": "post_box", "collection_times": "Mo-Sa 11:00", "indoor": "yes", "nsi_id": "unitedstatespostalservice-a77078", "operator": "United States Postal Service", "operator:short": "USPS", "operator:type": "public", "operator:wikidata": "Q668687", "ref": "2306500003"}, "type": "Feature"}
{"geometry": {"coordinates": [-77.829593334, 37.723582832], "type": "Point"}, "id": "3362CW2Ek1nnkF0UcCecYwR-FMA=", "properties": {"@source_uri": "https://tools.usps.com/UspsToolsRestServices/rest/POLocator/findLocations", "@spider": "usps_collection_boxes", "addr:city": "GUM SPRING", "addr:country": "US", "addr:postcode": "23065", "addr:state": "VA", "addr:street_address": "3250 BROAD STREET RD", "amenity": "post_box", "collection_times": "Mo-Fr 16:00; Sa 12:00", "indoor": "yes", "note": "ON 12/24 AND 12/31, THIS BOX MAY BE COLLECTED AS EARLY AS 12 NOON.", "nsi_id": "unitedstatespostalservice-a77078", "operator": "United States Postal Service", "operator:short": "USPS", "operator:type": "public", "operator:wikidata": "Q668687", "ref": "2306500004"}, "type": "Feature"}
{"geometry": {"coordinates": [-76.285111593, 37.503719015], "type": "Point"}, "id": "LvisjXsNunUPv3cfO9M29C_lQYk=", "properties": {"@source_uri": "https://tools.usps.com/UspsToolsRestServices/rest/POLocator/findLocations", "@spider": "usps_collection_boxes", "addr:city": "GWYNN", "addr:country": "US", "addr:postcode": "23066", "addr:state": "VA", "addr:street_address": "11 NORTH BAY HAVEN RD", "amenity": "post_box", "collection_times": "Mo-Sa 12:45", "indoor": "yes", "note": "ON 12/24 AND 12/31, THIS BOX MAY BE COLLECTED AS EARLY AS 12 NOON.", "nsi_id": "unitedstatespostalservice-a77078", "operator": "United States Postal Service", "operator:short": "USPS", "operator:type": "public", "operator:wikidata": "Q668687", "ref": "2306600002"}, "type": "Feature"}
{"geometry": {"coordinates": [-77.999500207, 37.825732805], "type": "Point"}, "id": "s5cv5JIL4cP3TT9EzIzFlDB7sC0=", "properties": {"@source_uri": "https://tools.usps.com/UspsToolsRestServices/rest/POLocator/findLocations", "@spider": "usps_collection_boxes", "addr:city": "HADENSVILLE", "addr:country": "US", "addr:postcode": "23067", "addr:state": "VA", "addr:street_address": "4650 THREE CHOPT RD", "amenity": "post_box", "collection_times": "Mo-Fr 11:15", "indoor": "yes", "nsi_id": "unitedstatespostalservice-a77078", "operator": "United States Postal Service", "operator:short": "USPS", "operator:type": "public", "operator:wikidata": "Q668687", "ref": "2306700002"}, "type": "Feature"}
{"geometry": {"coordinates": [-77.999342, 37.8262269], "type": "Point"}, "id": "yxE1ivIPtOaf3nrVcII5aAGQzdM=", "properties": {"@source_uri": "https://tools.usps.com/UspsToolsRestServices/rest/POLocator/findLocations", "@spider": "usps_collection_boxes", "addr:city": "HADENSVILLE", "addr:country": "US", "addr:postcode": "23067", "addr:state": "VA", "addr:street_address": "4650 THREE CHOPT RD", "amenity": "post_box", "collection_times": "Mo-Sa 11:00", "nsi_id": "unitedstatespostalservice-a77078", "operator": "United States Postal Service", "operator:short": "USPS", "operator:type": "public", "operator:wikidata": "Q668687", "ref": "2306700003"}, "type": "Feature"}
{"geometry": {"coordinates": [-76.340937, 37.493521], "type": "Point"}, "id": "5XaBW_1Ix3kR98b_Wv0ec1xN4Tc=", "properties": {"@source_uri": "https://tools.usps.com/UspsToolsRestServices/rest/POLocator/findLocations", "@spider": "usps_collection_boxes", "addr:city": "HALLIEFORD", "addr:country": "US", "addr:postcode": "23068", "addr:state": "VA", "addr:street_address": "1811 HALLIEFORD RD", "amenity": "post_box", "collection_times": "Mo-Fr 13:00; Sa 11:00", "indoor": "yes", "note": "ON 12/24 AND 12/31, THIS BOX MAY BE COLLECTED AS EARLY AS 12 NOON.", "nsi_id": "unitedstatespostalservice-a77078", "operator": "United States Postal Service", "operator:short": "USPS", "operator:type": "public", "operator:wikidata": "Q668687", "ref": "2306800002"}, "type": "Feature"}
{"geometry": {"coordinates": [-77.369073201, 37.764627966], "type": "Point"}, "id": "WGpNfQ5QZkpSBDg6syq16oMCDoo=", "properties": {"@source_uri": "https://tools.usps.com/UspsToolsRestServices/rest/POLocator/findLocations", "@spider": "usps_collection_boxes", "addr:city": "HANOVER", "addr:country": "US", "addr:postcode": "23069", "addr:state": "VA", "addr:street_address": "13228 HANOVER COURTHOUSE RD", "amenity": "post_box", "collection_times": "Mo-Fr 16:30; Sa 10:30", "note": "ON 12/24 AND 12/31, THIS BOX MAY BE COLLECTED AS EARLY AS 12 NOON.", "nsi_id": "unitedstatespostalservice-a77078", "operator": "United States Postal Service", "operator:short": "USPS", "operator:type": "public", "operator:wikidata": "Q668687", "ref": "2306900001"}, "type": "Feature"}
{"geometry": {"coordinates": [-77.3686680092, 37.764787007], "type": "Point"}, "id": "NvfK38Z2IP8d8H_5muAUvorEDnw=", "properties": {"@source_uri": "https://tools.usps.com/UspsToolsRestServices/rest/POLocator/findLocations", "@spider": "usps_collection_boxes", "addr:city": "HANOVER", "addr:country": "US", "addr:postcode": "23069", "addr:state": "VA", "addr:street_address": "13228 HANOVER COURTHOUSE RD", "amenity": "post_box", "collection_times": "Mo-Fr 16:30; Sa 10:30", "indoor": "yes", "note": "ON 12/24 AND 12/31, THIS BOX MAY BE COLLECTED AS EARLY AS 12 NOON.", "nsi_id": "unitedstatespostalservice-a77078", "operator": "United States Postal Service", "operator:short": "USPS", "operator:type": "public", "operator:wikidata": "Q668687", "ref": "2306900002"}, "type": "Feature"}
{"geometry": {"coordinates": [-77.3686680092, 37.764787007], "type": "Point"}, "id": "KQln0peh3pn0oOemLgmBxBRL-T4=", "properties": {"@source_uri": "https://tools.usps.com/UspsToolsRestServices/rest/POLocator/findLocations", "@spider": "usps_collection_boxes", "addr:city": "HANOVER", "addr:country": "US", "addr:postcode": "23069", "addr:state": "VA", "addr:street_address": "13228 HANOVER COURTHOUSE RD", "amenity": "post_box", "collection_times": "Mo-Fr 16:30", "indoor": "yes", "note": "ON 12/24 AND 12/31, THIS BOX MAY BE COLLECTED AS EARLY AS 12 NOON.", "nsi_id": "unitedstatespostalservice-a77078", "operator": "United States Postal Service", "operator:short": "USPS", "operator:type": "public", "operator:wikidata": "Q668687", "ref": "2306900004"}, "type": "Feature"}
{"geometry": {"coordinates": [-76.374871224, 37.556347488], "type": "Point"}, "id": "Zk13Bk7E9V7Cqe9Q1DB7eyTMtY4=", "properties": {"@source_uri": "https://tools.usps.com/UspsToolsRestServices/rest/POLocator/findLocations", "@spider": "usps_collection_boxes", "addr:city": "HARDYVILLE", "addr:country": "US", "addr:postcode": "23070", "addr:state": "VA", "addr:street_address": "15224 GENERAL PULLER HWY", "amenity": "post_box", "collection_times": "Mo-Fr 16:00; Sa 11:30", "note": "ON 12/24 AND 12/31, THIS BOX MAY BE COLLECTED AS EARLY AS 12 NOON.", "nsi_id": "unitedstatespostalservice-a77078", "operator": "United States Postal Service", "operator:short": "USPS", "operator:type": "public", "operator:wikidata": "Q668687", "ref": "2307000001"}, "type": "Feature"}
{"geometry": {"coordinates": [-76.374871224, 37.556347488], "type": "Point"}, "id": "yAAlVZda5zVCaGW2BkMMIAnw9Nc=", "properties": {"@source_uri": "https://tools.usps.com/UspsToolsRestServices/rest/POLocator/findLocations", "@spider": "usps_collection_boxes", "addr:city": "HARDYVILLE", "addr:country": "US", "addr:postcode": "23070", "addr:state": "VA", "addr:street_address": "15224 GENERAL PULLER HWY", "amenity": "post_box", "collection_times": "Mo-Fr 16:00; Sa 11:30", "indoor": "yes", "note": "ON 12/24 AND 12/31, THIS BOX MAY BE COLLECTED AS EARLY AS 12 NOON.", "nsi_id": "unitedstatespostalservice-a77078", "operator": "United States Postal Service", "operator:short": "USPS", "operator:type": "public", "operator:wikidata": "Q668687", "ref": "2307000002"}, "type": "Feature"}
{"geometry": {"coordinates": [-76.374871224, 37.556347488], "type": "Point"}, "id": "Hh_zlu1iqK3IdS5Q-6-eGXpCgO4=", "properties": {"@source_uri": "https://tools.usps.com/UspsToolsRestServices/rest/POLocator/findLocations", "@spider": "usps_collection_boxes", "addr:city": "HARDYVILLE", "addr:country": "US", "addr:postcode": "23070", "addr:state": "VA", "addr:street_address": "15224 GENERAL PULLER HWY", "amenity": "post_box", "collection_times": "Mo-Fr 16:00; Sa 12:30", "indoor": "yes", "note": "ON 12/24 AND 12/31, THIS BOX MAY BE COLLECTED AS EARLY AS 12 NOON.", "nsi_id": "unitedstatespostalservice-a77078", "operator": "United States Postal Service", "operator:short": "USPS", "operator:type": "public", "operator:wikidata": "Q668687", "ref": "2307000004"}, "type": "Feature"}
{"geometry": {"coordinates": [-76.465578353, 37.555920032], "type": "Point"}, "id": "m4zquZG21-z7SifEA40mE4T4ZSg=", "properties": {"@source_uri": "https://tools.usps.com/UspsToolsRestServices/rest/POLocator/findLocations", "@spider": "usps_collection_boxes", "addr:city": "HARTFIELD", "addr:country": "US", "addr:postcode": "23071", "addr:state": "VA", "addr:street_address": "11 GRAFTON CHURCH RD", "amenity": "post_box", "collection_times": "Mo-Fr 16:30; Sa 11:30", "note": "ON 12/24 AND 12/31, THIS BOX MAY BE COLLECTED AS EARLY AS 12 NOON.", "nsi_id": "unitedstatespostalservice-a77078", "operator": "United States Postal Service", "operator:short": "USPS", "operator:type": "public", "operator:wikidata": "Q668687", "ref": "2307100001"}, "type": "Feature"}
{"geometry": {"coordinates": [-76.465578353, 37.555920032], "type": "Point"}, "id": "0yWgRtNkwruarOhlwR-jwQsY6Yg=", "properties": {"@source_uri": "https://tools.usps.com/UspsToolsRestServices/rest/POLocator/findLocations", "@spider": "usps_collection_boxes", "addr:city": "HARTFIELD", "addr:country": "US", "addr:postcode": "23071", "addr:state": "VA", "addr:street_address": "11 GRAFTON CHURCH RD", "amenity": "post_box", "collection_times": "Mo-Fr 16:30; Sa 11:30", "indoor": "yes", "note": "ON 12/24 AND 12/31, THIS BOX MAY BE COLLECTED AS EARLY AS 12 NOON.", "nsi_id": "unitedstatespostalservice-a77078", "operator": "United States Postal Service", "operator:short": "USPS", "operator:type": "public", "operator:wikidata": "Q668687", "ref": "2307100002"}, "type": "Feature"}
{"geometry": {"coordinates": [-76.465578353, 37.555920032], "type": "Point"}, "id": "XdePRKaCIL2-QQbSBNp13coZ_2U=", "properties": {"@source_uri": "https://tools.usps.com/UspsToolsRestServices/rest/POLocator/findLocations", "@spider": "usps_collection_boxes", "addr:city": "HARTFIELD", "addr:country": "US", "addr:postcode": "23071", "addr:state": "VA", "addr:street_address": "11 GRAFTON CHURCH RD", "amenity": "post_box", "collection_times": "Mo-Fr 16:30; Sa 11:30", "indoor": "yes", "note": "ON 12/24 AND 12/31, THIS BOX MAY BE COLLECTED AS EARLY AS 12 NOON.", "nsi_id": "unitedstatespostalservice-a77078", "operator": "United States Postal Service", "operator:short": "USPS", "operator:type": "public", "operator:wikidata": "Q668687", "ref": "2307100004"}, "type": "Feature"}
{"geometry": {"coordinates": [-76.4997529874, 37.2739160188], "type": "Point"}, "id": "V2oBi2rp-BDR13zGbWK6ibdY6I0=", "properties": {"@source_uri": "https://tools.usps.com/UspsToolsRestServices/rest/POLocator/findLocations", "@spider": "usps_collection_boxes", "addr:city": "HAYES", "addr:country": "US", "addr:postcode": "23072", "addr:state": "VA", "addr:street_address": "2344 GEORGE WASHINGTON MEM HWY", "amenity": "post_box", "collection_times": "Mo-Fr 16:45; Sa 11:45", "note": "ON 12/24 AND 12/31, THIS BOX MAY BE COLLECTED AS EARLY AS 12 NOON.", "nsi_id": "unitedstatespostalservice-a77078", "operator": "United States Postal Service", "operator:short": "USPS", "operator:type": "public", "operator:wikidata": "Q668687", "ref": "2307200001"}, "type": "Feature"}
{"geometry": {"coordinates": [-76.499752987, 37.273916019], "type": "Point"}, "id": "S2PvD0wHDs48VDTLjZ9WuOxnJRc=", "properties": {"@source_uri": "https://tools.usps.com/UspsToolsRestServices/rest/POLocator/findLocations", "@spider": "usps_collection_boxes", "addr:city": "HAYES", "addr:country": "US", "addr:postcode": "23072", "addr:state": "VA", "addr:street_address": "2344 GEORGE WASHINGTON MEM HWY", "amenity": "post_box", "collection_times": "Mo-Fr 16:45; Sa 12:00", "indoor": "yes", "note": "ON 12/24 AND 12/31, THIS BOX MAY BE COLLECTED AS EARLY AS 12 NOON.", "nsi_id": "unitedstatespostalservice-a77078", "operator": "United States Postal Service", "operator:short": "USPS", "operator:type": "public", "operator:wikidata": "Q668687", "ref": "2307200002"}, "type": "Feature"}
{"geometry": {"coordinates": [-76.4997529874, 37.2739160188], "type": "Point"}, "id": "Ya28cVtXinSyofqrubxdsYWv2H8=", "properties": {"@source_uri": "https://tools.usps.com/UspsToolsRestServices/rest/POLocator/findLocations", "@spider": "usps_collection_boxes", "addr:city": "HAYES", "addr:country": "US", "addr:postcode": "23072", "addr:state": "VA", "addr:street_address": "2344 GEORGE WASHINGTON MEMORIAL HWY", "amenity": "post_box", "collection_times": "Mo-Fr 17:00; Sa 12:00", "indoor": "yes", "note": "ON 12/24 AND 12/31, THIS BOX MAY BE COLLECTED AS EARLY AS 12 NOON.", "nsi_id": "unitedstatespostalservice-a77078", "operator": "United States Postal Service", "operator:short": "USPS", "operator:type": "public", "operator:wikidata": "Q668687", "ref": "2307200004"}, "type": "Feature"}
{"geometry": {"coordinates": [-77.324895112, 37.543216214], "type": "Point"}, "id": "7NigSJdba8R6ZAwVWahvUZ84scg=", "properties": {"@source_uri": "https://tools.usps.com/UspsToolsRestServices/rest/POLocator/findLocations", "@spider": "usps_collection_boxes", "addr:city": "HENRICO", "addr:country": "US", "addr:postcode": "23075", "addr:state": "VA", "addr:street_address": "405 E NINE MILE RD", "amenity": "post_box", "collection_times": "Mo-Fr 17:00; Sa 13:00", "note": "ON 12/24 AND 12/31, THIS BOX MAY BE COLLECTED AS EARLY AS 12 NOON.", "nsi_id": "unitedstatespostalservice-a77078", "operator": "United States Postal Service", "operator:short": "USPS", "operator:type": "public", "operator:wikidata": "Q668687", "ref": "2307500001"}, "type": "Feature"}
{"geometry": {"coordinates": [-77.3276318, 37.545894], "type": "Point"}, "id": "zxCCxO2LgW8898MPvalP1zV5s-s=", "properties": {"@source_uri": "https://tools.usps.com/UspsToolsRestServices/rest/POLocator/findLocations", "@spider": "usps_collection_boxes", "addr:city": "HENRICO", "addr:country": "US", "addr:postcode": "23075", "addr:state": "VA", "addr:street_address": "1 E NINE MILE RD", "amenity": "post_box", "collection_times": "Mo-Sa 13:00", "note": "ON 12/24 AND 12/31, THIS BOX MAY BE COLLECTED AS EARLY AS 12 NOON.", "nsi_id": "unitedstatespostalservice-a77078", "operator": "United States Postal Service", "operator:short": "USPS", "operator:type": "public", "operator:wikidata": "Q668687", "ref": "2307500003"}, "type": "Feature"}
{"geometry": {"coordinates": [-77.324895112, 37.543216214], "type": "Point"}, "id": "Wh62UtNCI8bJPD8xF5eJdL40KI4=", "properties": {"@source_uri": "https://tools.usps.com/UspsToolsRestServices/rest/POLocator/findLocations", "@spider": "usps_collection_boxes", "addr:city": "HENRICO", "addr:country": "US", "addr:postcode": "23075", "addr:state": "VA", "addr:street_address": "405 E NINE MILE RD", "amenity": "post_box", "collection_times": "Mo-Fr 16:30", "indoor": "yes", "note": "ON 12/24 AND 12/31, THIS BOX MAY BE COLLECTED AS EARLY AS 12 NOON.", "nsi_id": "unitedstatespostalservice-a77078", "operator": "United States Postal Service", "operator:short": "USPS", "operator:type": "public", "operator:wikidata": "Q668687", "ref": "2307500006"}, "type": "Feature"}
{"geometry": {"coordinates": [-77.324895112, 37.543216214], "type": "Point"}, "id": "PU7P06eF-lTBN4rLZ6SukiOIQcQ=", "properties": {"@source_uri": "https://tools.usps.com/UspsToolsRestServices/rest/POLocator/findLocations", "@spider": "usps_collection_boxes", "addr:city": "HENRICO", "addr:country": "US", "addr:postcode": "23075", "addr:state": "VA", "addr:street_address": "405 E NINE MILE RD", "amenity": "post_box", "collection_times": "Mo-Fr 16:30", "indoor": "yes", "note": "ON 12/24 AND 12/31, THIS BOX MAY BE COLLECTED AS EARLY AS 12 NOON.", "nsi_id": "unitedstatespostalservice-a77078", "operator": "United States Postal Service", "operator:short": "USPS", "operator:type": "public", "operator:wikidata": "Q668687", "ref": "2307500009"}, "type": "Feature"}
{"geometry": {"coordinates": [-76.32674569, 37.471472465], "type": "Point"}, "id": "bKmgnbPFKjg9vwVfE9bd3BLj18M=", "properties": {"@source_uri": "https://tools.usps.com/UspsToolsRestServices/rest/POLocator/findLocations", "@spider": "usps_collection_boxes", "addr:city": "HUDGINS", "addr:country": "US", "addr:postcode": "23076", "addr:state": "VA", "addr:street_address": "8251 BUCKLEY HALL RD", "amenity": "post_box", "collection_times": "Mo-Fr 16:15; Sa 11:15", "indoor": "yes", "note": "ON 12/24 AND 12/31, THIS BOX MAY BE COLLECTED AS EARLY AS 12 NOON.", "nsi_id": "unitedstatespostalservice-a77078", "operator": "United States Postal Service", "operator:short": "USPS", "operator:type": "public", "operator:wikidata": "Q668687", "ref": "2307600003"}, "type": "Feature"}
{"geometry": {"coordinates": [-76.32674569, 37.471472465], "type": "Point"}, "id": "AvjB9GcAXTuZsSlEgP6pkrAjYuA=", "properties": {"@source_uri": "https://tools.usps.com/UspsToolsRestServices/rest/POLocator/findLocations", "@spider": "usps_collection_boxes", "addr:city": "HUDGINS", "addr:country": "US", "addr:postcode": "23076", "addr:state": "VA", "addr:street_address": "8251 BUCKLEY HALL RD", "amenity": "post_box", "collection_times": "Mo-Fr 16:15; Sa 12:00", "indoor": "yes", "note": "ON 12/24 AND 12/31, THIS BOX MAY BE COLLECTED AS EARLY AS 12 NOON.", "nsi_id": "unitedstatespostalservice-a77078", "operator": "United States Postal Service", "operator:short": "USPS", "operator:type": "public", "operator:wikidata": "Q668687", "ref": "2307600005"}, "type": "Feature"}
{"geometry": {"coordinates": [-78.089895559, 37.300032028], "type": "Point"}, "id": "pkXDsIx_9Arf-G4evfybiFtq-3k=", "properties": {"@source_uri": "https://tools.usps.com/UspsToolsRestServices/rest/POLocator/findLocations", "@spider": "usps_collection_boxes", "addr:city": "JETERSVILLE", "addr:country": "US", "addr:postcode": "23083", "addr:state": "VA", "addr:street_address": "21595 JETERSVILLE RD", "amenity": "post_box", "collection_times": "Mo-Fr 16:00; Sa 11:00", "note": "ON 12/24 AND 12/31, THIS BOX MAY BE COLLECTED AS EARLY AS 12 NOON.", "nsi_id": "unitedstatespostalservice-a77078", "operator": "United States Postal Service", "operator:short": "USPS", "operator:type": "public", "operator:wikidata": "Q668687", "ref": "2308300001"}, "type": "Feature"}
{"geometry": {"coordinates": [-78.089895559, 37.300032028], "type": "Point"}, "id": "vXUU856-4qrUF97OAhfRk58E3b8=", "properties": {"@source_uri": "https://tools.usps.com/UspsToolsRestServices/rest/POLocator/findLocations", "@spider": "usps_collection_boxes", "addr:city": "JETERSVILLE", "addr:country": "US", "addr:postcode": "23083", "addr:state": "VA", "addr:street_address": "21595 JETERSVILLE RD", "amenity": "post_box", "collection_times": "Mo-Fr 16:15; Sa 11:15", "indoor": "yes", "note": "ON 12/24 AND 12/31, THIS BOX MAY BE COLLECTED AS EARLY AS 12 NOON.", "nsi_id": "unitedstatespostalservice-a77078", "operator": "United States Postal Service", "operator:short": "USPS", "operator:type": "public", "operator:wikidata": "Q668687", "ref": "2308300002"}, "type": "Feature"}
{"geometry": {"coordinates": [-78.089895559, 37.300032028], "type": "Point"}, "id": "1AxWsVtjTZlo1jzwBGqZ8DHAleo=", "properties": {"@source_uri": "https://tools.usps.com/UspsToolsRestServices/rest/POLocator/findLocations", "@spider": "usps_collection_boxes", "addr:city": "JETERSVILLE", "addr:country": "US", "addr:postcode": "23083", "addr:state": "VA", "addr:street_address": "21595 JETERSVILLE RD", "amenity": "post_box", "collection_times": "Mo-Fr 16:00; Sa 12:15", "indoor": "yes", "note": "ON 12/24 AND 12/31, THIS BOX MAY BE COLLECTED AS EARLY AS 12 NOON.", "nsi_id": "unitedstatespostalservice-a77078", "operator": "United States Postal Service", "operator:short": "USPS", "operator:type": "public", "operator:wikidata": "Q668687", "ref": "2308300004"}, "type": "Feature"}
{"geometry": {"coordinates": [-78.129584892, 37.878603736], "type": "Point"}, "id": "GgtAjAPraDI1G61CxR-y4IDWzvI=", "properties": {"@source_uri": "https://tools.usps.com/UspsToolsRestServices/rest/POLocator/findLocations", "@spider": "usps_collection_boxes", "addr:city": "KENTS STORE", "addr:country": "US", "addr:postcode": "23084", "addr:state": "VA", "addr:street_address": "16 KENTS STORE WAY", "amenity": "post_box", "collection_times": "Mo-Fr 16:30; Sa 11:30", "indoor": "yes", "note": "ON 12/24 AND 12/31, THIS BOX MAY BE COLLECTED AS EARLY AS 12 NOON.", "nsi_id": "unitedstatespostalservice-a77078", "operator": "United States Postal Service", "operator:short": "USPS", "operator:type": "public", "operator:wikidata": "Q668687", "ref": "2308400001"}, "type": "Feature"}
{"geometry": {"coordinates": [-78.1295764259, 37.8785754369], "type": "Point"}, "id": "6aUC_onqhhJeLSQJpDLMhDjw0-M=", "properties": {"@source_uri": "https://tools.usps.com/UspsToolsRestServices/rest/POLocator/findLocations", "@spider": "usps_collection_boxes", "addr:city": "KENTS STORE", "addr:country": "US", "addr:postcode": "23084", "addr:state": "VA", "addr:street_address": "16 KENTS STORE WAY", "amenity": "post_box", "collection_times": "Mo-Fr 16:00; Sa 11:00", "note": "ON 12/24 AND 12/31, THIS BOX MAY BE COLLECTED AS EARLY AS 12 NOON.", "nsi_id": "unitedstatespostalservice-a77078", "operator": "United States Postal Service", "operator:short": "USPS", "operator:type": "public", "operator:wikidata": "Q668687", "ref": "2308400002"}, "type": "Feature"}
{"geometry": {"coordinates": [-78.129584892, 37.878603736], "type": "Point"}, "id": "kSnokKzCixbXATh5n6Y9HMi73UQ=", "properties": {"@source_uri": "https://tools.usps.com/UspsToolsRestServices/rest/POLocator/findLocations", "@spider": "usps_collection_boxes", "addr:city": "KENTS STORE", "addr:country": "US", "addr:postcode": "23084", "addr:state": "VA", "addr:street_address": "16 KENTS STORE WAY", "amenity": "post_box", "collection_times": "Mo-Fr 16:30; Sa 13:30", "indoor": "yes", "note": "ON 12/24 AND 12/31, THIS BOX MAY BE COLLECTED AS EARLY AS 12 NOON.", "nsi_id": "unitedstatespostalservice-a77078", "operator": "United States Postal Service", "operator:short": "USPS", "operator:type": "public", "operator:wikidata": "Q668687", "ref": "2308400004"}, "type": "Feature"}
{"geometry": {"coordinates": [-76.876503, 37.670323], "type": "Point"}, "id": "1-lkZ4ebQCortIRXZYdPY6uggKM=", "properties": {"@source_uri": "https://tools.usps.com/UspsToolsRestServices/rest/POLocator/findLocations", "@spider": "usps_collection_boxes", "addr:city": "KING & QUEEN CTH", "addr:country": "US", "addr:postcode": "23085", "addr:state": "VA", "addr:street_address": "352 ALLENS CIR", "amenity": "post_box", "collection_times": "Mo-Fr 14:00; Sa 12:15", "note": "ON 12/24 AND 12/31, THIS BOX MAY BE COLLECTED AS EARLY AS 12 NOON.", "nsi_id": "unitedstatespostalservice-a77078", "operator": "United States Postal Service", "operator:short": "USPS", "operator:type": "public", "operator:wikidata": "Q668687", "ref": "2308500001"}, "type": "Feature"}
{"geometry": {"coordinates": [-76.876503, 37.670323], "type": "Point"}, "id": "UZT8kOb5NbEELP8lbzVyTGIuqmo=", "properties": {"@source_uri": "https://tools.usps.com/UspsToolsRestServices/rest/POLocator/findLocations", "@spider": "usps_collection_boxes", "addr:city": "KING & QUEEN CTH", "addr:country": "US", "addr:postcode": "23085", "addr:state": "VA", "addr:street_address": "352 ALLENS CIR", "amenity": "post_box", "collection_times": "Mo-Fr 14:00; Sa 12:15", "indoor": "yes", "note": "ON 12/24 AND 12/31, THIS BOX MAY BE COLLECTED AS EARLY AS 12 NOON.", "nsi_id": "unitedstatespostalservice-a77078", "operator": "United States Postal Service", "operator:short": "USPS", "operator:type": "public", "operator:wikidata": "Q668687", "ref": "2308500003"}, "type": "Feature"}
{"geometry": {"coordinates": [-77.014150447, 37.686579883], "type": "Point"}, "id": "Rb68bpxmhhvhZv2sCsf3QEjIryA=", "properties": {"@source_uri": "https://tools.usps.com/UspsToolsRestServices/rest/POLocator/findLocations", "@spider": "usps_collection_boxes", "addr:city": "KING WILLIAM", "addr:country": "US", "addr:postcode": "23086", "addr:state": "VA", "addr:street_address": "17 HORSE LANDING RD", "amenity": "post_box", "collection_times": "Mo-Fr 16:15; Sa 12:15", "note": "ON 12/24 AND 12/31, THIS BOX MAY BE COLLECTED AS EARLY AS 12 NOON.", "nsi_id": "unitedstatespostalservice-a77078", "operator": "United States Postal Service", "operator:short": "USPS", "operator:type": "public", "operator:wikidata": "Q668687", "ref": "2308600001"}, "type": "Feature"}
{"geometry": {"coordinates": [-77.014150447, 37.686579883], "type": "Point"}, "id": "UsI6aiaZirQXHGIYRbjuov1ySL0=", "properties": {"@source_uri": "https://tools.usps.com/UspsToolsRestServices/rest/POLocator/findLocations", "@spider": "usps_collection_boxes", "addr:city": "KING WILLIAM", "addr:country": "US", "addr:postcode": "23086", "addr:state": "VA", "addr:street_address": "17 HORSE LANDING RD", "amenity": "post_box", "collection_times": "Mo-Fr 16:15; Sa 12:15", "indoor": "yes", "note": "ON 12/24 AND 12/31, THIS BOX MAY BE COLLECTED AS EARLY AS 12 NOON.", "nsi_id": "unitedstatespostalservice-a77078", "operator": "United States Postal Service", "operator:short": "USPS", "operator:type": "public", "operator:wikidata": "Q668687", "ref": "2308600002"}, "type": "Feature"}
{"geometry": {"coordinates": [-77.014150447, 37.686579883], "type": "Point"}, "id": "9W8_bfpITkz2VMin0Nh9noZFpY0=", "properties": {"@source_uri": "https://tools.usps.com/UspsToolsRestServices/rest/POLocator/findLocations", "@spider": "usps_collection_boxes", "addr:city": "KING WILLIAM", "addr:country": "US", "addr:postcode": "23086", "addr:state": "VA", "addr:street_address": "17 HORSE LANDING RD", "amenity": "post_box", "collection_times": "Mo-Fr 16:30; Sa 12:30", "indoor": "yes", "note": "ON 12/24 AND 12/31, THIS BOX MAY BE COLLECTED AS EARLY AS 12 NOON.", "nsi_id": "unitedstatespostalservice-a77078", "operator": "United States Postal Service", "operator:short": "USPS", "operator:type": "public", "operator:wikidata": "Q668687", "ref": "2308600004"}, "type": "Feature"}
{"geometry": {"coordinates": [-76.899911197, 37.423377633], "type": "Point"}, "id": "ekRF9RXewwNLIsi9KrH2ZqJp3sQ=", "properties": {"@source_uri": "https://tools.usps.com/UspsToolsRestServices/rest/POLocator/findLocations", "@spider": "usps_collection_boxes", "addr:city": "LANEXA", "addr:country": "US", "addr:postcode": "23089", "addr:state": "VA", "addr:street_address": "15545 POCAHONTAS TRL", "amenity": "post_box", "collection_times": "Mo-Fr 17:00; Sa 11:30", "note": "ON 12/24 AND 12/31, THIS BOX MAY BE COLLECTED AS EARLY AS 12 NOON.", "nsi_id": "unitedstatespostalservice-a77078", "operator": "United States Postal Service", "operator:short": "USPS", "operator:type": "public", "operator:wikidata": "Q668687", "ref": "2308900001"}, "type": "Feature"}
{"geometry": {"coordinates": [-76.899911197, 37.423377633], "type": "Point"}, "id": "VK6VwtgfjnYA4tw6lSV5CnKa6OQ=", "properties": {"@source_uri": "https://tools.usps.com/UspsToolsRestServices/rest/POLocator/findLocations", "@spider": "usps_collection_boxes", "addr:city": "LANEXA", "addr:country": "US", "addr:postcode": "23089", "addr:state": "VA", "addr:street_address": "15545 POCAHONTAS TRL", "amenity": "post_box", "collection_times": "Mo-Fr 17:00; Sa 11:30", "indoor": "yes", "note": "ON 12/24 AND 12/31, THIS BOX MAY BE COLLECTED AS EARLY AS 12 NOON.", "nsi_id": "unitedstatespostalservice-a77078", "operator": "United States Postal Service", "operator:short": "USPS", "operator:type": "public", "operator:wikidata": "Q668687", "ref": "2308900002"}, "type": "Feature"}
{"geometry": {"coordinates": [-76.899911197, 37.423377633], "type": "Point"}, "id": "Mz064feRk76NMIyi6ei9_aup4ag=", "properties": {"@source_uri": "https://tools.usps.com/UspsToolsRestServices/rest/POLocator/findLocations", "@spider": "usps_collection_boxes", "addr:city": "LANEXA", "addr:country": "US", "addr:postcode": "23089", "addr:state": "VA", "addr:street_address": "15545 POCAHONTAS TRL", "amenity": "post_box", "collection_times": "Mo-Fr 17:00; Sa 12:00", "indoor": "yes", "note": "ON 12/24 AND 12/31, THIS BOX MAY BE COLLECTED AS EARLY AS 12 NOON.", "nsi_id": "unitedstatespostalservice-a77078", "operator": "United States Postal Service", "operator:short": "USPS", "operator:type": "public", "operator:wikidata": "Q668687", "ref": "2308900004"}, "type": "Feature"}
{"geometry": {"coordinates": [-76.75285557, 37.338590546], "type": "Point"}, "id": "ykUeV4JUpH3TfrdAt33JnviN0Yo=", "properties": {"@source_uri": "https://tools.usps.com/UspsToolsRestServices/rest/POLocator/findLocations", "@spider": "usps_collection_boxes", "addr:city": "LIGHTFOOT", "addr:country": "US", "addr:postcode": "23090", "addr:state": "VA", "addr:street_address": "6376 RICHMOND RD", "amenity": "post_box", "collection_times": "Mo-Fr 16:15", "note": "ON 12/24 AND 12/31, THIS BOX MAY BE COLLECTED AS EARLY AS 12 NOON.", "nsi_id": "unitedstatespostalservice-a77078", "operator": "United States Postal Service", "operator:short": "USPS", "operator:type": "public", "operator:wikidata": "Q668687", "ref": "2309000001"}, "type": "Feature"}
{"geometry": {"coordinates": [-76.75285557, 37.338590546], "type": "Point"}, "id": "jY_cXx1k9THqCDBwt7FwBrvh7p4=", "properties": {"@source_uri": "https://tools.usps.com/UspsToolsRestServices/rest/POLocator/findLocations", "@spider": "usps_collection_boxes", "addr:city": "LIGHTFOOT", "addr:country": "US", "addr:postcode": "23090", "addr:state": "VA", "addr:street_address": "6376 RICHMOND RD", "amenity": "post_box", "collection_times": "Mo-Fr 16:15; Sa 11:45", "indoor": "yes", "note": "ON 12/24 AND 12/31, THIS BOX MAY BE COLLECTED AS EARLY AS 12 NOON.", "nsi_id": "unitedstatespostalservice-a77078", "operator": "United States Postal Service", "operator:short": "USPS", "operator:type": "public", "operator:wikidata": "Q668687", "ref": "2309000002"}, "type": "Feature"}
{"geometry": {"coordinates": [-76.75285557, 37.338590546], "type": "Point"}, "id": "zDmKn0nuw4KMTOATTsEc2HIpsi4=", "properties": {"@source_uri": "https://tools.usps.com/UspsToolsRestServices/rest/POLocator/findLocations", "@spider": "usps_collection_boxes", "addr:city": "LIGHTFOOT", "addr:country": "US", "addr:postcode": "23090", "addr:state": "VA", "addr:street_address": "6376 RICHMOND RD", "amenity": "post_box", "collection_times": "Mo-Fr 16:15; Sa 11:45", "indoor": "yes", "note": "ON 12/24 AND 12/31, THIS BOX MAY BE COLLECTED AS EARLY AS 12 NOON.", "nsi_id": "unitedstatespostalservice-a77078", "operator": "United States Postal Service", "operator:short": "USPS", "operator:type": "public", "operator:wikidata": "Q668687", "ref": "2309000003"}, "type": "Feature"}
{"geometry": {"coordinates": [-76.75285557, 37.338590546], "type": "Point"}, "id": "w4zfeqb1LSDF9N9FylJYtyljePQ=", "properties": {"@source_uri": "https://tools.usps.com/UspsToolsRestServices/rest/POLocator/findLocations", "@spider": "usps_collection_boxes", "addr:city": "LIGHTFOOT", "addr:country": "US", "addr:postcode": "23090", "addr:state": "VA", "addr:street_address": "6376 RICHMOND RD", "amenity": "post_box", "collection_times": "Mo-Fr 16:30", "indoor": "yes", "note": "ON 12/24 AND 12/31, THIS BOX MAY BE COLLECTED AS EARLY AS 12 NOON.", "nsi_id": "unitedstatespostalservice-a77078", "operator": "United States Postal Service", "operator:short": "USPS", "operator:type": "public", "operator:wikidata": "Q668687", "ref": "2309000005"}, "type": "Feature"}
{"geometry": {"coordinates": [-76.511497126, 37.598792901], "type": "Point"}, "id": "M5Kb-n82GGROIJeoMC9TojUMYP0=", "properties": {"@source_uri": "https://tools.usps.com/UspsToolsRestServices/rest/POLocator/findLocations", "@spider": "usps_collection_boxes", "addr:city": "LOCUST HILL", "addr:country": "US", "addr:postcode": "23092", "addr:state": "VA", "addr:street_address": "5924 GENERAL PULLER HWY", "amenity": "post_box", "collection_times": "Mo-Fr 16:30; Sa 11:15", "note": "ON 12/24 AND 12/31, THIS BOX MAY BE COLLECTED AS EARLY AS 12 NOON.", "nsi_id": "unitedstatespostalservice-a77078", "operator": "United States Postal Service", "operator:short": "USPS", "operator:type": "public", "operator:wikidata": "Q668687", "ref": "2309200001"}, "type": "Feature"}
{"geometry": {"coordinates": [-76.511497126, 37.598792901], "type": "Point"}, "id": "1_n_X3wdzBokTNA26hBMScG73ak=", "properties": {"@source_uri": "https://tools.usps.com/UspsToolsRestServices/rest/POLocator/findLocations", "@spider": "usps_collection_boxes", "addr:city": "LOCUST HILL", "addr:country": "US", "addr:postcode": "23092", "addr:state": "VA", "addr:street_address": "5924 GENERAL PULLER HWY", "amenity": "post_box", "collection_times": "Mo-Fr 16:30; Sa 11:15", "indoor": "yes", "note": "ON 12/24 AND 12/31, THIS BOX MAY BE COLLECTED AS EARLY AS 12 NOON.", "nsi_id": "unitedstatespostalservice-a77078", "operator": "United States Postal Service", "operator:short": "USPS", "operator:type": "public", "operator:wikidata": "Q668687", "ref": "2309200002"}, "type": "Feature"}
{"geometry": {"coordinates": [-76.511497126, 37.598792901], "type": "Point"}, "id": "C8cjWMXvT4Bnt4S2DYyVKZ7V_ME=", "properties": {"@source_uri": "https://tools.usps.com/UspsToolsRestServices/rest/POLocator/findLocations", "@spider": "usps_collection_boxes", "addr:city": "LOCUST HILL", "addr:country": "US", "addr:postcode": "23092", "addr:state": "VA", "addr:street_address": "5924 GENERAL PULLER HWY", "amenity": "post_box", "collection_times": "Mo-Fr 16:30; Sa 12:30", "indoor": "yes", "note": "ON 12/24 AND 12/31, THIS BOX MAY BE COLLECTED AS EARLY AS 12 NOON.", "nsi_id": "unitedstatespostalservice-a77078", "operator": "United States Postal Service", "operator:short": "USPS", "operator:type": "public", "operator:wikidata": "Q668687", "ref": "2309200004"}, "type": "Feature"}
{"geometry": {"coordinates": [-78.003854577, 38.025534711], "type": "Point"}, "id": "DORChPBcq_tDfnY5s9vGCj4a5bg=", "properties": {"@source_uri": "https://tools.usps.com/UspsToolsRestServices/rest/POLocator/findLocations", "@spider": "usps_collection_boxes", "addr:city": "LOUISA", "addr:country": "US", "addr:postcode": "23093", "addr:state": "VA", "addr:street_address": "204 W MAIN ST", "amenity": "post_box", "collection_times": "Mo-Fr 16:45; Sa 14:00", "note": "ON 12/24 AND 12/31, THIS BOX MAY BE COLLECTED AS EARLY AS 12 NOON.", "nsi_id": "unitedstatespostalservice-a77078", "operator": "United States Postal Service", "operator:short": "USPS", "operator:type": "public", "operator:wikidata": "Q668687", "ref": "2309300002"}, "type": "Feature"}
{"geometry": {"coordinates": [-77.9915594, 38.020424], "type": "Point"}, "id": "Znj2E1JPARirQhOV-ZPPGzLpDGc=", "properties": {"@source_uri": "https://tools.usps.com/UspsToolsRestServices/rest/POLocator/findLocations", "@spider": "usps_collection_boxes", "addr:city": "LOUISA", "addr:country": "US", "addr:postcode": "23093", "addr:state": "VA", "addr:street_address": "501 EAST MAIN ST", "amenity": "post_box", "collection_times": "Mo-Sa 12:00", "nsi_id": "unitedstatespostalservice-a77078", "operator": "United States Postal Service", "operator:short": "USPS", "operator:type": "public", "operator:wikidata": "Q668687", "ref": "2309300003"}, "type": "Feature"}
{"geometry": {"coordinates": [-78.003854577, 38.025534711], "type": "Point"}, "id": "kgWUoH8YeWGl874YuMlwbxRCMW0=", "properties": {"@source_uri": "https://tools.usps.com/UspsToolsRestServices/rest/POLocator/findLocations", "@spider": "usps_collection_boxes", "addr:city": "LOUISA", "addr:country": "US", "addr:postcode": "23093", "addr:state": "VA", "addr:street_address": "204 W MAIN ST", "amenity": "post_box", "collection_times": "Mo-Fr 17:00; Sa 14:30", "indoor": "yes", "note": "ON 12/24 AND 12/31, THIS BOX MAY BE COLLECTED AS EARLY AS 12 NOON.", "nsi_id": "unitedstatespostalservice-a77078", "operator": "United States Postal Service", "operator:short": "USPS", "operator:type": "public", "operator:wikidata": "Q668687", "ref": "2309300008"}, "type": "Feature"}
{"geometry": {"coordinates": [-77.9989068, 37.844836], "type": "Point"}, "id": "jtZgTgX92mPths5-9Ok4qIHMwUA=", "properties": {"@source_uri": "https://tools.usps.com/UspsToolsRestServices/rest/POLocator/findLocations", "@spider": "usps_collection_boxes", "addr:city": "LOUISA", "addr:country": "US", "addr:postcode": "23093", "addr:state": "VA", "addr:street_address": "4834 BROAD STREET RD", "amenity": "post_box", "collection_times": "Mo-Sa 10:30", "nsi_id": "unitedstatespostalservice-a77078", "operator": "United States Postal Service", "operator:short": "USPS", "operator:type": "public", "operator:wikidata": "Q668687", "ref": "2309300012"}, "type": "Feature"}
{"geometry": {"coordinates": [-78.003854577, 38.025534711], "type": "Point"}, "id": "pS5DHMrLRLm5tLWK8XB1tAD5jFQ=", "properties": {"@source_uri": "https://tools.usps.com/UspsToolsRestServices/rest/POLocator/findLocations", "@spider": "usps_collection_boxes", "addr:city": "LOUISA", "addr:country": "US", "addr:postcode": "23093", "addr:state": "VA", "addr:street_address": "204 W MAIN ST", "amenity": "post_box", "collection_times": "Mo-Fr 16:45; Sa 12:00", "indoor": "yes", "note": "ON 12/24 AND 12/31, THIS BOX MAY BE COLLECTED AS EARLY AS 12 NOON.", "nsi_id": "unitedstatespostalservice-a77078", "operator": "United States Postal Service", "operator:short": "USPS", "operator:type": "public", "operator:wikidata": "Q668687", "ref": "2309300015"}, "type": "Feature"}
