{"dataset_attributes": {"@spider": "usps_collection_boxes"}, "geometry": {"coordinates": [-77.88557, 37.668747], "type": "Point"}, "id": "p4lDEWxLd0vxLd3bV0L4Yr8-dT8=", "properties": {"@spider": "usps_collection_boxes", "addr:city": "MAIDENS", "addr:country": "US", "addr:full": "2746 MAIDENS LOOP", "addr:postcode": "23102", "addr:state": "VA", "amenity": "post_box", "brand": "United States Postal Service", "brand:wikidata": "Q668687", "collection_times": "Mo-Fr 15:45; Sa 09:45", "name": "USPS COLLECTION BOX - BLUE BOX", "note": "ON 12/24 AND 12/31, THIS BOX MAY BE COLLECTED AS EARLY AS 12 NOON.", "nsi_id": "unitedstatespostalservice-a77078", "operator": "United States Postal Service", "operator:short": "USPS", "operator:type": "public", "operator:wikidata": "Q668687", "ref": "2310200001"}, "type": "Feature"}
{"dataset_attributes": {"@spider": "usps_collection_boxes"}, "geometry": {"coordinates": [-77.885610617, 37.668762353], "type": "Point"}, "id": "gqDoA0mtpHQ_vtgvUrJ-JMtXctg=", "properties": {"@spider": "usps_collection_boxes", "addr:city": "MAIDENS", "addr:country": "US", "addr:full": "2746 MAIDENS LOOP STE E", "addr:postcode": "23102", "addr:state": "VA", "amenity": "post_box", "brand": "United States Postal Service", "brand:wikidata": "Q668687", "collection_times": "Mo-Fr 16:00; Sa 10:00", "name": "USPS COLLECTION BOX - PO LOBBY", "note": "ON 12/24 AND 12/31, THIS BOX MAY BE COLLECTED AS EARLY AS 12 NOON.", "nsi_id": "unitedstatespostalservice-a77078", "operator": "United States Postal Service", "operator:short": "USPS", "operator:type": "public", "operator:wikidata": "Q668687", "ref": "2310200004"}, "type": "Feature"}
{"dataset_attributes": {"@spider": "usps_collection_boxes"}, "geometry": {"coordinates": [-77.712352, 37.601497], "type": "Point"}, "id": "WMcRI7zNmdt3-dM6qikNSiYE74g=", "properties": {"@spider": "usps_collection_boxes", "addr:city": "MANAKIN SABOT", "addr:country": "US", "addr:full": "334 RIVER ROAD WEST", "addr:postcode": "23103", "addr:state": "VA", "amenity": "post_box", "brand": "United States Postal Service", "brand:wikidata": "Q668687", "collection_times": "Mo-Fr 16:00; Sa 10:30", "name": "USPS COLLECTION BOX - BLUE BOX", "note": "ON 12/24 AND 12/31, THIS BOX MAY BE COLLECTED AS EARLY AS 12 NOON.", "nsi_id": "unitedstatespostalservice-a77078", "operator": "United States Postal Service", "operator:short": "USPS", "operator:type": "public", "operator:wikidata": "Q668687", "ref": "2310300001"}, "type": "Feature"}
{"dataset_attributes": {"@spider": "usps_collection_boxes"}, "geometry": {"coordinates": [-77.6820452, 37.671386], "type": "Point"}, "id": "UcAQUs5agdxselJoKF2l0WEzTVs=", "properties": {"@spider": "usps_collection_boxes", "addr:city": "MANAKIN SABOT", "addr:country": "US", "addr:full": "40 BROAD STREET RD", "addr:postcode": "23103", "addr:state": "VA", "amenity": "post_box", "brand": "United States Postal Service", "brand:wikidata": "Q668687", "collection_times": "Mo-Fr 12:00", "name": "USPS COLLECTION BOX - BLUE BOX", "nsi_id": "unitedstatespostalservice-a77078", "operator": "United States Postal Service", "operator:short": "USPS", "operator:type": "public", "operator:wikidata": "Q668687", "ref": "2310300002"}, "type": "Feature"}
{"dataset_attributes": {"@spider": "usps_collection_boxes"}, "geometry": {"coordinates": [-77.712352, 37.601497], "type": "Point"}, "id": "PROZKc4MlpjT_tKL7tO1o3ECdpg=", "properties": {"@spider": "usps_collection_boxes", "addr:city": "MANAKIN SABOT", "addr:country": "US", "addr:full": "334 RIVER ROAD WEST", "addr:postcode": "23103", "addr:state": "VA", "amenity": "post_box", "brand": "United States Postal Service", "brand:wikidata": "Q668687", "collection_times": "Mo-Fr 16:00; Sa 10:30", "name": "USPS COLLECTION BOX - PO LOBBY", "note": "ON 12/24 AND 12/31, THIS BOX MAY BE COLLECTED AS EARLY AS 12 NOON.", "nsi_id": "unitedstatespostalservice-a77078", "operator": "United States Postal Service", "operator:short": "USPS", "operator:type": "public", "operator:wikidata": "Q668687", "ref": "2310300003"}, "type": "Feature"}
{"dataset_attributes": {"@spider": "usps_collection_boxes"}, "geometry": {"coordinates": [-77.7123526692, 37.6014904971], "type": "Point"}, "id": "cuxdNJ6WnDFoR2idhY2NucYfk0k=", "properties": {"@spider": "usps_collection_boxes", "addr:city": "MANAKIN SABOT", "addr:country": "US", "addr:full": "334 RIVER ROAD WEST", "addr:postcode": "23103", "addr:state": "VA", "amenity": "post_box", "brand": "United States Postal Service", "brand:wikidata": "Q668687", "collection_times": "Mo-Fr 16:00; Sa 10:30", "name": "USPS COLLECTION BOX - PO LOBBY", "note": "ON 12/24 AND 12/31, THIS BOX MAY BE COLLECTED AS EARLY AS 12 NOON.", "nsi_id": "unitedstatespostalservice-a77078", "operator": "United States Postal Service", "operator:short": "USPS", "operator:type": "public", "operator:wikidata": "Q668687", "ref": "2310300006"}, "type": "Feature"}
{"dataset_attributes": {"@spider": "usps_collection_boxes"}, "geometry": {"coordinates": [-77.823679249, 37.251578748], "type": "Point"}, "id": "bQMdnHyu-0r8vT2fytuSjQdl_fY=", "properties": {"@spider": "usps_collection_boxes", "addr:city": "MANNBORO", "addr:country": "US", "addr:full": "3800 RICHMOND RD", "addr:postcode": "23105", "addr:state": "VA", "amenity": "post_box", "brand": "United States Postal Service", "brand:wikidata": "Q668687", "collection_times": "Mo-Sa 12:45", "name": "USPS COLLECTION BOX - PO LOBBY", "note": "ON 12/24 AND 12/31, THIS BOX MAY BE COLLECTED AS EARLY AS 12 NOON.", "nsi_id": "unitedstatespostalservice-a77078", "operator": "United States Postal Service", "operator:short": "USPS", "operator:type": "public", "operator:wikidata": "Q668687", "ref": "2310500002"}, "type": "Feature"}
{"dataset_attributes": {"@spider": "usps_collection_boxes"}, "geometry": {"coordinates": [-77.823679249, 37.251578748], "type": "Point"}, "id": "p57lkBs1TDmZikxuqvH1VS3YFXY=", "properties": {"@spider": "usps_collection_boxes", "addr:city": "MANNBORO", "addr:country": "US", "addr:full": "3800 RICHMOND RD", "addr:postcode": "23105", "addr:state": "VA", "amenity": "post_box", "brand": "United States Postal Service", "brand:wikidata": "Q668687", "collection_times": "Mo-Sa 13:00", "name": "USPS COLLECTION BOX - PO LOBBY", "note": "ON 12/24 AND 12/31, THIS BOX MAY BE COLLECTED AS EARLY AS 12 NOON.", "nsi_id": "unitedstatespostalservice-a77078", "operator": "United States Postal Service", "operator:short": "USPS", "operator:type": "public", "operator:wikidata": "Q668687", "ref": "2310500004"}, "type": "Feature"}
{"dataset_attributes": {"@spider": "usps_collection_boxes"}, "geometry": {"coordinates": [-77.156140803, 37.707553368], "type": "Point"}, "id": "R1WJo4-D8svW2NChON3I1mRcbHM=", "properties": {"@spider": "usps_collection_boxes", "addr:city": "MANQUIN", "addr:country": "US", "addr:full": "2171 RICHMOND TAPPAHANNOCK HWY", "addr:postcode": "23106", "addr:state": "VA", "amenity": "post_box", "brand": "United States Postal Service", "brand:wikidata": "Q668687", "collection_times": "Mo-Fr 16:15; Sa 11:15", "name": "USPS COLLECTION BOX - BLUE BOX", "note": "ON 12/24 AND 12/31, THIS BOX MAY BE COLLECTED AS EARLY AS 12 NOON.", "nsi_id": "unitedstatespostalservice-a77078", "operator": "United States Postal Service", "operator:short": "USPS", "operator:type": "public", "operator:wikidata": "Q668687", "ref": "2310600001"}, "type": "Feature"}
{"dataset_attributes": {"@spider": "usps_collection_boxes"}, "geometry": {"coordinates": [-77.156140803, 37.707553368], "type": "Point"}, "id": "41GA13qkWJrSxEKaACVTq-qr6iY=", "properties": {"@spider": "usps_collection_boxes", "addr:city": "MANQUIN", "addr:country": "US", "addr:full": "2171 RICHMOND TAPPAHANNOCK HWY", "addr:postcode": "23106", "addr:state": "VA", "amenity": "post_box", "brand": "United States Postal Service", "brand:wikidata": "Q668687", "collection_times": "Mo-Fr 16:15; Sa 11:15", "name": "USPS COLLECTION BOX - PO LOBBY", "note": "ON 12/24 AND 12/31, THIS BOX MAY BE COLLECTED AS EARLY AS 12 NOON.", "nsi_id": "unitedstatespostalservice-a77078", "operator": "United States Postal Service", "operator:short": "USPS", "operator:type": "public", "operator:wikidata": "Q668687", "ref": "2310600003"}, "type": "Feature"}
{"dataset_attributes": {"@spider": "usps_collection_boxes"}, "geometry": {"coordinates": [-77.156140803, 37.707553368], "type": "Point"}, "id": "2tnPKxtmcPV9fit39YnrRwp5veI=", "properties": {"@spider": "usps_collection_boxes", "addr:city": "MANQUIN", "addr:country": "US", "addr:full": "2171 RICHMOND TAPPAHANNOCK HWY", "addr:postcode": "23106", "addr:state": "VA", "amenity": "post_box", "brand": "United States Postal Service", "brand:wikidata": "Q668687", "collection_times": "Mo-Fr 16:30; Sa 13:00", "name": "USPS COLLECTION BOX - PO LOBBY", "note": "ON 12/24 AND 12/31, THIS BOX MAY BE COLLECTED AS EARLY AS 12 NOON.", "nsi_id": "unitedstatespostalservice-a77078", "operator": "United States Postal Service", "operator:short": "USPS", "operator:type": "public", "operator:wikidata": "Q668687", "ref": "2310600005"}, "type": "Feature"}
{"dataset_attributes": {"@spider": "usps_collection_boxes"}, "geometry": {"coordinates": [-76.320855811, 37.434743707], "type": "Point"}, "id": "j8tHf8bA8hTtzgp1HSShe9kBd9U=", "properties": {"@spider": "usps_collection_boxes", "addr:city": "MATHEWS", "addr:country": "US", "addr:full": "161 MAIN ST", "addr:postcode": "23109", "addr:state": "VA", "amenity": "post_box", "brand": "United States Postal Service", "brand:wikidata": "Q668687", "collection_times": "Mo-Fr 16:45; Sa 12:30", "name": "USPS COLLECTION BOX - BLUE BOX", "note": "ON 12/24 AND 12/31, THIS BOX MAY BE COLLECTED AS EARLY AS 12 NOON.", "nsi_id": "unitedstatespostalservice-a77078", "operator": "United States Postal Service", "operator:short": "USPS", "operator:type": "public", "operator:wikidata": "Q668687", "ref": "2310900001"}, "type": "Feature"}
{"dataset_attributes": {"@spider": "usps_collection_boxes"}, "geometry": {"coordinates": [-76.320855811, 37.434743707], "type": "Point"}, "id": "t9Hqrlx9Kwir-6BRABySQmELRpM=", "properties": {"@spider": "usps_collection_boxes", "addr:city": "MATHEWS", "addr:country": "US", "addr:full": "161 MAIN ST", "addr:postcode": "23109", "addr:state": "VA", "amenity": "post_box", "brand": "United States Postal Service", "brand:wikidata": "Q668687", "collection_times": "Mo-Fr 16:45; Sa 12:30", "name": "USPS COLLECTION BOX - PO LOBBY", "note": "ON 12/24 AND 12/31, THIS BOX MAY BE COLLECTED AS EARLY AS 12 NOON.", "nsi_id": "unitedstatespostalservice-a77078", "operator": "United States Postal Service", "operator:short": "USPS", "operator:type": "public", "operator:wikidata": "Q668687", "ref": "2310900003"}, "type": "Feature"}
{"dataset_attributes": {"@spider": "usps_collection_boxes"}, "geometry": {"coordinates": [-76.320855811, 37.434743707], "type": "Point"}, "id": "8nCXhoRZqCQUg7amp15EdZyaEic=", "properties": {"@spider": "usps_collection_boxes", "addr:city": "MATHEWS", "addr:country": "US", "addr:full": "161 MAIN ST", "addr:postcode": "23109", "addr:state": "VA", "amenity": "post_box", "brand": "United States Postal Service", "brand:wikidata": "Q668687", "collection_times": "Mo-Fr 17:00; Sa 12:00", "name": "USPS COLLECTION BOX - PO LOBBY", "note": "ON 12/24 AND 12/31, THIS BOX MAY BE COLLECTED AS EARLY AS 12 NOON.", "nsi_id": "unitedstatespostalservice-a77078", "operator": "United States Postal Service", "operator:short": "USPS", "operator:type": "public", "operator:wikidata": "Q668687", "ref": "2310900005"}, "type": "Feature"}
{"dataset_attributes": {"@spider": "usps_collection_boxes"}, "geometry": {"coordinates": [-76.774394918, 37.534439977], "type": "Point"}, "id": "CCxRpvfXAcekQoAUAboSQTabu5s=", "properties": {"@spider": "usps_collection_boxes", "addr:city": "MATTAPONI", "addr:country": "US", "addr:full": "6877 LEWIS B PULLER MEMORIAL HWY", "addr:postcode": "23110", "addr:state": "VA", "amenity": "post_box", "brand": "United States Postal Service", "brand:wikidata": "Q668687", "collection_times": "Mo-Fr 16:45; Sa 11:30", "name": "USPS COLLECTION BOX - PO LOBBY", "note": "ON 12/24 AND 12/31, THIS BOX MAY BE COLLECTED AS EARLY AS 12 NOON.", "nsi_id": "unitedstatespostalservice-a77078", "operator": "United States Postal Service", "operator:short": "USPS", "operator:type": "public", "operator:wikidata": "Q668687", "ref": "2311000002"}, "type": "Feature"}
{"dataset_attributes": {"@spider": "usps_collection_boxes"}, "geometry": {"coordinates": [-76.7743949183, 37.5344399769], "type": "Point"}, "id": "-FxoIp6J890Xd7axNNCSfao64tA=", "properties": {"@spider": "usps_collection_boxes", "addr:city": "MATTAPONI", "addr:country": "US", "addr:full": "6877 LEWIS B PULLER MEMORIAL HWY", "addr:postcode": "23110", "addr:state": "VA", "amenity": "post_box", "brand": "United States Postal Service", "brand:wikidata": "Q668687", "collection_times": "Mo-Fr 16:45; Sa 11:30", "name": "USPS COLLECTION BOX - BLUE BOX", "note": "ON 12/24 AND 12/31, THIS BOX MAY BE COLLECTED AS EARLY AS 12 NOON.", "nsi_id": "unitedstatespostalservice-a77078", "operator": "United States Postal Service", "operator:short": "USPS", "operator:type": "public", "operator:wikidata": "Q668687", "ref": "2311000003"}, "type": "Feature"}
{"dataset_attributes": {"@spider": "usps_collection_boxes"}, "geometry": {"coordinates": [-76.774394918, 37.534439977], "type": "Point"}, "id": "-fqrMMEBWvUblbKVTNlOaItlv4c=", "properties": {"@spider": "usps_collection_boxes", "addr:city": "MATTAPONI", "addr:country": "US", "addr:full": "6877 LEWIS B PULLER MEMORIAL HWY", "addr:postcode": "23110", "addr:state": "VA", "amenity": "post_box", "brand": "United States Postal Service", "brand:wikidata": "Q668687", "collection_times": "Mo-Fr 16:45; Sa 12:30", "name": "USPS COLLECTION BOX - PO LOBBY", "note": "ON 12/24 AND 12/31, THIS BOX MAY BE COLLECTED AS EARLY AS 12 NOON.", "nsi_id": "unitedstatespostalservice-a77078", "operator": "United States Postal Service", "operator:short": "USPS", "operator:type": "public", "operator:wikidata": "Q668687", "ref": "2311000006"}, "type": "Feature"}
{"dataset_attributes": {"@spider": "usps_collection_boxes"}, "geometry": {"coordinates": [-77.374216997, 37.603158014], "type": "Point"}, "id": "cM7ot_6_WOEgoOtlkUy21Sb9oVs=", "properties": {"@spider": "usps_collection_boxes", "addr:city": "MECHANICSVILLE", "addr:country": "US", "addr:full": "8050 MECHANICSVILLE TPKE", "addr:postcode": "23111", "addr:state": "VA", "amenity": "post_box", "brand": "United States Postal Service", "brand:wikidata": "Q668687", "collection_times": "Mo-Fr 17:15; Sa 15:30", "name": "USPS COLLECTION BOX - BLUE BOX", "note": "ON 12/24 AND 12/31, THIS BOX MAY BE COLLECTED AS EARLY AS 12 NOON.", "nsi_id": "unitedstatespostalservice-a77078", "operator": "United States Postal Service", "operator:short": "USPS", "operator:type": "public", "operator:wikidata": "Q668687", "ref": "2311100001"}, "type": "Feature"}
{"dataset_attributes": {"@spider": "usps_collection_boxes"}, "geometry": {"coordinates": [-77.374216997, 37.603158014], "type": "Point"}, "id": "KSjOs3KvvJyY6yh9D6jfe4G01eY=", "properties": {"@spider": "usps_collection_boxes", "addr:city": "MECHANICSVILLE", "addr:country": "US", "addr:full": "8050 MECHANICSVILLE TPKE", "addr:postcode": "23111", "addr:state": "VA", "amenity": "post_box", "brand": "United States Postal Service", "brand:wikidata": "Q668687", "collection_times": "Mo-Fr 17:15; Sa 15:30", "name": "USPS COLLECTION BOX - BLUE BOX", "note": "ON 12/24 AND 12/31, THIS BOX MAY BE COLLECTED AS EARLY AS 12 NOON.", "nsi_id": "unitedstatespostalservice-a77078", "operator": "United States Postal Service", "operator:short": "USPS", "operator:type": "public", "operator:wikidata": "Q668687", "ref": "2311100002"}, "type": "Feature"}
{"dataset_attributes": {"@spider": "usps_collection_boxes"}, "geometry": {"coordinates": [-77.373758741, 37.602776102], "type": "Point"}, "id": "bw3yfCznayIltwvRLO8aBTZpc98=", "properties": {"@spider": "usps_collection_boxes", "addr:city": "MECHANICSVILLE", "addr:country": "US", "addr:full": "8050 MECHANICSVILLE TPKE", "addr:postcode": "23111", "addr:state": "VA", "amenity": "post_box", "brand": "United States Postal Service", "brand:wikidata": "Q668687", "collection_times": "Mo-Fr 17:15; Sa 15:30", "name": "USPS COLLECTION BOX - BLUE BOX", "note": "ON 12/24 AND 12/31, THIS BOX MAY BE COLLECTED AS EARLY AS 12 NOON.", "nsi_id": "unitedstatespostalservice-a77078", "operator": "United States Postal Service", "operator:short": "USPS", "operator:type": "public", "operator:wikidata": "Q668687", "ref": "2311100003"}, "type": "Feature"}
{"dataset_attributes": {"@spider": "usps_collection_boxes"}, "geometry": {"coordinates": [-77.374216997, 37.603158014], "type": "Point"}, "id": "Bdb0gnKl_0kI9AYgHUsP0XRqJpg=", "properties": {"@spider": "usps_collection_boxes", "addr:city": "MECHANICSVILLE", "addr:country": "US", "addr:full": "8050 MECHANICSVILLE TPKE", "addr:postcode": "23111", "addr:state": "VA", "amenity": "post_box", "brand": "United States Postal Service", "brand:wikidata": "Q668687", "collection_times": "Mo-Fr 17:15; Sa 15:30", "name": "USPS COLLECTION BOX - BLUE BOX", "note": "ON 12/24 AND 12/31, THIS BOX MAY BE COLLECTED AS EARLY AS 12 NOON.", "nsi_id": "unitedstatespostalservice-a77078", "operator": "United States Postal Service", "operator:short": "USPS", "operator:type": "public", "operator:wikidata": "Q668687", "ref": "2311100004"}, "type": "Feature"}
{"dataset_attributes": {"@spider": "usps_collection_boxes"}, "geometry": {"coordinates": [-77.3388499, 37.610687], "type": "Point"}, "id": "qupxoiLitBlZSNtqDAh90DbyLTI=", "properties": {"@spider": "usps_collection_boxes", "addr:city": "MECHANICSVILLE", "addr:country": "US", "addr:full": "7047 MECHANICSVILLE TNPK", "addr:postcode": "23111", "addr:state": "VA", "amenity": "post_box", "brand": "United States Postal Service", "brand:wikidata": "Q668687", "collection_times": "Mo-Sa 13:45", "name": "USPS COLLECTION BOX - BLUE BOX", "note": "ON 12/24 AND 12/31, THIS BOX MAY BE COLLECTED AS EARLY AS 12 NOON.", "nsi_id": "unitedstatespostalservice-a77078", "operator": "United States Postal Service", "operator:short": "USPS", "operator:type": "public", "operator:wikidata": "Q668687", "ref": "2311100005"}, "type": "Feature"}
{"dataset_attributes": {"@spider": "usps_collection_boxes"}, "geometry": {"coordinates": [-77.3529243, 37.605022], "type": "Point"}, "id": "FCkHP3tpg-mSV11nXARImxTY-NE=", "properties": {"@spider": "usps_collection_boxes", "addr:city": "MECHANICSVILLE", "addr:country": "US", "addr:full": "7336 BELL CREEK RD", "addr:postcode": "23111", "addr:state": "VA", "amenity": "post_box", "brand": "United States Postal Service", "brand:wikidata": "Q668687", "collection_times": "Mo-Sa 12:30", "name": "USPS COLLECTION BOX - BLUE BOX", "note": "ON 12/24 AND 12/31, THIS BOX MAY BE COLLECTED AS EARLY AS 12 NOON.", "nsi_id": "unitedstatespostalservice-a77078", "operator": "United States Postal Service", "operator:short": "USPS", "operator:type": "public", "operator:wikidata": "Q668687", "ref": "2311100006"}, "type": "Feature"}
{"dataset_attributes": {"@spider": "usps_collection_boxes"}, "geometry": {"coordinates": [-77.3737587406, 37.6027761025], "type": "Point"}, "id": "Yc_9ols3GaYcXkzBlTB3OWWKiic=", "properties": {"@spider": "usps_collection_boxes", "addr:city": "MECHANICSVILLE", "addr:country": "US", "addr:full": "8050 MECHANICSVILLE TPKE", "addr:postcode": "23111", "addr:state": "VA", "amenity": "post_box", "brand": "United States Postal Service", "brand:wikidata": "Q668687", "collection_times": "Mo-Fr 17:15; Sa 15:30", "name": "USPS COLLECTION BOX - PO LOBBY", "note": "ON 12/24 AND 12/31, THIS BOX MAY BE COLLECTED AS EARLY AS 12 NOON.", "nsi_id": "unitedstatespostalservice-a77078", "operator": "United States Postal Service", "operator:short": "USPS", "operator:type": "public", "operator:wikidata": "Q668687", "ref": "2311100008"}, "type": "Feature"}
{"dataset_attributes": {"@spider": "usps_collection_boxes"}, "geometry": {"coordinates": [-77.3385726, 37.613826], "type": "Point"}, "id": "BpnF63Rfs6KUPWQb2MTFyGhAfz0=", "properties": {"@spider": "usps_collection_boxes", "addr:city": "MECHANICSVILLE", "addr:country": "US", "addr:full": "7484 LEE DAVIS RD", "addr:postcode": "23111", "addr:state": "VA", "amenity": "post_box", "brand": "United States Postal Service", "brand:wikidata": "Q668687", "collection_times": "Mo-Sa 11:30", "name": "USPS COLLECTION BOX - BLUE BOX", "nsi_id": "unitedstatespostalservice-a77078", "operator": "United States Postal Service", "operator:short": "USPS", "operator:type": "public", "operator:wikidata": "Q668687", "ref": "2311100009"}, "type": "Feature"}
{"dataset_attributes": {"@spider": "usps_collection_boxes"}, "geometry": {"coordinates": [-77.3737587406, 37.6027761025], "type": "Point"}, "id": "6sfdOY_ofnRSjaQ8C11c5Y4XoVs=", "properties": {"@spider": "usps_collection_boxes", "addr:city": "MECHANICSVILLE", "addr:country": "US", "addr:full": "8050 MECHANICSVILLE TPKE", "addr:postcode": "23111", "addr:state": "VA", "amenity": "post_box", "brand": "United States Postal Service", "brand:wikidata": "Q668687", "collection_times": "Mo-Fr 17:15; Sa 15:30", "name": "USPS COLLECTION BOX - PO LOBBY", "note": "ON 12/24 AND 12/31, THIS BOX MAY BE COLLECTED AS EARLY AS 12 NOON.", "nsi_id": "unitedstatespostalservice-a77078", "operator": "United States Postal Service", "operator:short": "USPS", "operator:type": "public", "operator:wikidata": "Q668687", "ref": "2311100014"}, "type": "Feature"}
{"dataset_attributes": {"@spider": "usps_collection_boxes"}, "geometry": {"coordinates": [-77.3737587406, 37.6027761025], "type": "Point"}, "id": "VyMbTaLRhRKsr88nrnuAoLm5Pqc=", "properties": {"@spider": "usps_collection_boxes", "addr:city": "MECHANICSVILLE", "addr:country": "US", "addr:full": "8050 MECHANICSVILLE TPKE", "addr:postcode": "23111", "addr:state": "VA", "amenity": "post_box", "brand": "United States Postal Service", "brand:wikidata": "Q668687", "collection_times": "Mo-Fr 17:15; Sa 15:30", "name": "USPS COLLECTION BOX - PO LOBBY", "note": "ON 12/24 AND 12/31, THIS BOX MAY BE COLLECTED AS EARLY AS 12 NOON.", "nsi_id": "unitedstatespostalservice-a77078", "operator": "United States Postal Service", "operator:short": "USPS", "operator:type": "public", "operator:wikidata": "Q668687", "ref": "2311100015"}, "type": "Feature"}
{"dataset_attributes": {"@spider": "usps_collection_boxes"}, "geometry": {"coordinates": [-77.373758741, 37.602776102], "type": "Point"}, "id": "RG0r73GOYJIc5YbvjN4EYn1i8Lc=", "properties": {"@spider": "usps_collection_boxes", "addr:city": "MECHANICSVILLE", "addr:country": "US", "addr:full": "8050 MECHANICSVILLE TPKE", "addr:postcode": "23111", "addr:state": "VA", "amenity": "post_box", "brand": "United States Postal Service", "brand:wikidata": "Q668687", "collection_times": "Mo-Fr 17:00; Sa 13:00", "name": "USPS COLLECTION BOX - PO LOBBY", "note": "ON 12/24 AND 12/31, THIS BOX MAY BE COLLECTED AS EARLY AS 12 NOON.", "nsi_id": "unitedstatespostalservice-a77078", "operator": "United States Postal Service", "operator:short": "USPS", "operator:type": "public", "operator:wikidata": "Q668687", "ref": "2311100024"}, "type": "Feature"}
{"dataset_attributes": {"@spider": "usps_collection_boxes"}, "geometry": {"coordinates": [-77.6819709771, 37.407596017], "type": "Point"}, "id": "hK8-ck9_GrrY7QoDP5TEqQ0j7k4=", "properties": {"@spider": "usps_collection_boxes", "addr:city": "MIDLOTHIAN", "addr:country": "US", "addr:full": "14746 VILLAGE SQUARE PL", "addr:postcode": "23112", "addr:state": "VA", "amenity": "post_box", "brand": "United States Postal Service", "brand:wikidata": "Q668687", "collection_times": "Mo-Fr 11:00; Sa 10:30", "name": "USPS COLLECTION BOX - BLUE BOX", "nsi_id": "unitedstatespostalservice-a77078", "operator": "United States Postal Service", "operator:short": "USPS", "operator:type": "public", "operator:wikidata": "Q668687", "ref": "2311200002"}, "type": "Feature"}
{"dataset_attributes": {"@spider": "usps_collection_boxes"}, "geometry": {"coordinates": [-77.6549952, 37.457908], "type": "Point"}, "id": "BA8RcKsAfpOjX7DRbFlEW27rlYM=", "properties": {"@spider": "usps_collection_boxes", "addr:city": "MIDLOTHIAN", "addr:country": "US", "addr:full": "2449 COLONY CROSSING PL", "addr:postcode": "23112", "addr:state": "VA", "amenity": "post_box", "brand": "United States Postal Service", "brand:wikidata": "Q668687", "collection_times": "Mo-Fr 11:00", "name": "USPS COLLECTION BOX - BLUE BOX", "nsi_id": "unitedstatespostalservice-a77078", "operator": "United States Postal Service", "operator:short": "USPS", "operator:type": "public", "operator:wikidata": "Q668687", "ref": "2311200004"}, "type": "Feature"}
{"dataset_attributes": {"@spider": "usps_collection_boxes"}, "geometry": {"coordinates": [-77.6370926, 37.422387], "type": "Point"}, "id": "RbozhrUdxG1q0I7RQa6fJWQpgc8=", "properties": {"@spider": "usps_collection_boxes", "addr:city": "MIDLOTHIAN", "addr:country": "US", "addr:full": "4942 MILLRIDGE PKWY E", "addr:postcode": "23112", "addr:state": "VA", "amenity": "post_box", "brand": "United States Postal Service", "brand:wikidata": "Q668687", "collection_times": "Mo-Sa 10:00", "name": "USPS COLLECTION BOX - BLUE BOX", "nsi_id": "unitedstatespostalservice-a77078", "operator": "United States Postal Service", "operator:short": "USPS", "operator:type": "public", "operator:wikidata": "Q668687", "ref": "2311200005"}, "type": "Feature"}
{"dataset_attributes": {"@spider": "usps_collection_boxes"}, "geometry": {"coordinates": [-77.6369252, 37.42266], "type": "Point"}, "id": "xCT5-U55vRiGlVETZHJV4ON7UrA=", "properties": {"@spider": "usps_collection_boxes", "addr:city": "MIDLOTHIAN", "addr:country": "US", "addr:full": "4942 MILLRIDGE PKWY E", "addr:postcode": "23112", "addr:state": "VA", "amenity": "post_box", "brand": "United States Postal Service", "brand:wikidata": "Q668687", "collection_times": "Mo-Sa 10:00", "name": "USPS COLLECTION BOX - BLUE BOX", "nsi_id": "unitedstatespostalservice-a77078", "operator": "United States Postal Service", "operator:short": "USPS", "operator:type": "public", "operator:wikidata": "Q668687", "ref": "2311200006"}, "type": "Feature"}
{"dataset_attributes": {"@spider": "usps_collection_boxes"}, "geometry": {"coordinates": [-77.6452273, 37.449423], "type": "Point"}, "id": "bnHuVpn7_fOEAThLeAQldc1x270=", "properties": {"@spider": "usps_collection_boxes", "addr:city": "MIDLOTHIAN", "addr:country": "US", "addr:full": "13501 E BOUNDARY RD", "addr:postcode": "23112", "addr:state": "VA", "amenity": "post_box", "brand": "United States Postal Service", "brand:wikidata": "Q668687", "collection_times": "Mo-Sa 11:00", "name": "USPS COLLECTION BOX - BLUE BOX", "nsi_id": "unitedstatespostalservice-a77078", "operator": "United States Postal Service", "operator:short": "USPS", "operator:type": "public", "operator:wikidata": "Q668687", "ref": "2311200009"}, "type": "Feature"}
{"dataset_attributes": {"@spider": "usps_collection_boxes"}, "geometry": {"coordinates": [-77.6497342, 37.453805], "type": "Point"}, "id": "va1oBy0tI9q-g4Eq9Mu5HcDJxic=", "properties": {"@spider": "usps_collection_boxes", "addr:city": "MIDLOTHIAN", "addr:country": "US", "addr:full": "2820 WATERFORD LAKE DR", "addr:postcode": "23112", "addr:state": "VA", "amenity": "post_box", "brand": "United States Postal Service", "brand:wikidata": "Q668687", "collection_times": "Mo-Sa 11:00", "name": "USPS COLLECTION BOX - BLUE BOX", "nsi_id": "unitedstatespostalservice-a77078", "operator": "United States Postal Service", "operator:short": "USPS", "operator:type": "public", "operator:wikidata": "Q668687", "ref": "2311200010"}, "type": "Feature"}
{"dataset_attributes": {"@spider": "usps_collection_boxes"}, "geometry": {"coordinates": [-77.6550899, 37.410279], "type": "Point"}, "id": "ZDwtTNg1YP5cJw32lwUNM2j0Ez4=", "properties": {"@spider": "usps_collection_boxes", "addr:city": "MIDLOTHIAN", "addr:country": "US", "addr:full": "13626 HULL STREET RD", "addr:postcode": "23112", "addr:state": "VA", "amenity": "post_box", "brand": "United States Postal Service", "brand:wikidata": "Q668687", "collection_times": "Mo-Fr 11:00; Sa 10:30", "name": "USPS COLLECTION BOX - BLUE BOX", "nsi_id": "unitedstatespostalservice-a77078", "operator": "United States Postal Service", "operator:short": "USPS", "operator:type": "public", "operator:wikidata": "Q668687", "ref": "2311200015"}, "type": "Feature"}
{"dataset_attributes": {"@spider": "usps_collection_boxes"}, "geometry": {"coordinates": [-77.604509396, 37.436309506], "type": "Point"}, "id": "TfPcjqAGhunkbr3iUVzJSZ5m4jo=", "properties": {"@spider": "usps_collection_boxes", "addr:city": "MIDLOTHIAN", "addr:country": "US", "addr:full": "3530 POST OFFICE RD", "addr:postcode": "23112", "addr:state": "VA", "amenity": "post_box", "brand": "United States Postal Service", "brand:wikidata": "Q668687", "collection_times": "Mo-Fr 17:00; Sa 13:00", "name": "USPS COLLECTION BOX - PO LOBBY", "note": "ON 12/24 AND 12/31, THIS BOX MAY BE COLLECTED AS EARLY AS 12 NOON.", "nsi_id": "unitedstatespostalservice-a77078", "operator": "United States Postal Service", "operator:short": "USPS", "operator:type": "public", "operator:wikidata": "Q668687", "ref": "2311200019"}, "type": "Feature"}
{"dataset_attributes": {"@spider": "usps_collection_boxes"}, "geometry": {"coordinates": [-77.604509396, 37.436309506], "type": "Point"}, "id": "GaejWXQnx21DLH-BjNSoJKBVaIA=", "properties": {"@spider": "usps_collection_boxes", "addr:city": "MIDLOTHIAN", "addr:country": "US", "addr:full": "3530 POST OFFICE RD", "addr:postcode": "23112", "addr:state": "VA", "amenity": "post_box", "brand": "United States Postal Service", "brand:wikidata": "Q668687", "collection_times": "Mo-Fr 17:00; Sa 13:00", "name": "USPS COLLECTION BOX - PO LOBBY", "note": "ON 12/24 AND 12/31, THIS BOX MAY BE COLLECTED AS EARLY AS 12 NOON.", "nsi_id": "unitedstatespostalservice-a77078", "operator": "United States Postal Service", "operator:short": "USPS", "operator:type": "public", "operator:wikidata": "Q668687", "ref": "2311200020"}, "type": "Feature"}
{"dataset_attributes": {"@spider": "usps_collection_boxes"}, "geometry": {"coordinates": [-77.604509396, 37.436309506], "type": "Point"}, "id": "XAW5lcEAmjYWLSeDggss6zfaiYI=", "properties": {"@spider": "usps_collection_boxes", "addr:city": "MIDLOTHIAN", "addr:country": "US", "addr:full": "3530 POST OFFICE RD", "addr:postcode": "23112", "addr:state": "VA", "amenity": "post_box", "brand": "United States Postal Service", "brand:wikidata": "Q668687", "collection_times": "Mo-Fr 17:00; Sa 13:00", "name": "USPS COLLECTION BOX - BLUE BOX", "note": "ON 12/24 AND 12/31, THIS BOX MAY BE COLLECTED AS EARLY AS 12 NOON.", "nsi_id": "unitedstatespostalservice-a77078", "operator": "United States Postal Service", "operator:short": "USPS", "operator:type": "public", "operator:wikidata": "Q668687", "ref": "2311200021"}, "type": "Feature"}
{"dataset_attributes": {"@spider": "usps_collection_boxes"}, "geometry": {"coordinates": [-77.604509396, 37.436309506], "type": "Point"}, "id": "7IaukpDzohPRtp_kc55_tom1mQM=", "properties": {"@spider": "usps_collection_boxes", "addr:city": "MIDLOTHIAN", "addr:country": "US", "addr:full": "3530 POST OFFICE RD", "addr:postcode": "23112", "addr:state": "VA", "amenity": "post_box", "brand": "United States Postal Service", "brand:wikidata": "Q668687", "collection_times": "Mo-Fr 17:00; Sa 13:00", "name": "USPS COLLECTION BOX - BLUE BOX", "note": "ON 12/24 AND 12/31, THIS BOX MAY BE COLLECTED AS EARLY AS 12 NOON.", "nsi_id": "unitedstatespostalservice-a77078", "operator": "United States Postal Service", "operator:short": "USPS", "operator:type": "public", "operator:wikidata": "Q668687", "ref": "2311200022"}, "type": "Feature"}
{"dataset_attributes": {"@spider": "usps_collection_boxes"}, "geometry": {"coordinates": [-77.604509396, 37.436309506], "type": "Point"}, "id": "mSmlefAPXtXhJc69QfJiiz24QyA=", "properties": {"@spider": "usps_collection_boxes", "addr:city": "MIDLOTHIAN", "addr:country": "US", "addr:full": "3530 POST OFFICE RD", "addr:postcode": "23112", "addr:state": "VA", "amenity": "post_box", "brand": "United States Postal Service", "brand:wikidata": "Q668687", "collection_times": "Mo-Fr 17:00; Sa 13:00", "name": "USPS COLLECTION BOX - APC", "note": "ON 12/24 AND 12/31, THIS BOX MAY BE COLLECTED AS EARLY AS 12 NOON.", "nsi_id": "unitedstatespostalservice-a77078", "operator": "United States Postal Service", "operator:short": "USPS", "operator:type": "public", "operator:wikidata": "Q668687", "ref": "2311200024"}, "type": "Feature"}
{"dataset_attributes": {"@spider": "usps_collection_boxes"}, "geometry": {"coordinates": [-77.637553447, 37.422156054], "type": "Point"}, "id": "faLh3IWNG45QL-ju_0GG0rQEJvk=", "properties": {"@spider": "usps_collection_boxes", "addr:city": "MIDLOTHIAN", "addr:country": "US", "addr:full": "4944 MILLRIDGE PKWY E", "addr:postcode": "23112", "addr:state": "VA", "amenity": "post_box", "brand": "United States Postal Service", "brand:wikidata": "Q668687", "collection_times": "Mo-Fr 10:00", "name": "USPS COLLECTION BOX - PO LOBBY", "nsi_id": "unitedstatespostalservice-a77078", "operator": "United States Postal Service", "operator:short": "USPS", "operator:type": "public", "operator:wikidata": "Q668687", "ref": "2311200037"}, "type": "Feature"}
{"dataset_attributes": {"@spider": "usps_collection_boxes"}, "geometry": {"coordinates": [-77.604509396, 37.436309506], "type": "Point"}, "id": "oOJt4KtmA47vvRkaXgi2PbOSjko=", "properties": {"@spider": "usps_collection_boxes", "addr:city": "MIDLOTHIAN", "addr:country": "US", "addr:full": "3530 POST OFFICE RD", "addr:postcode": "23112", "addr:state": "VA", "amenity": "post_box", "brand": "United States Postal Service", "brand:wikidata": "Q668687", "collection_times": "Mo-Fr 17:00; Sa 12:00", "name": "USPS COLLECTION BOX - PO LOBBY", "note": "ON 12/24 AND 12/31, THIS BOX MAY BE COLLECTED AS EARLY AS 12 NOON.", "nsi_id": "unitedstatespostalservice-a77078", "operator": "United States Postal Service", "operator:short": "USPS", "operator:type": "public", "operator:wikidata": "Q668687", "ref": "2311200038"}, "type": "Feature"}
{"dataset_attributes": {"@spider": "usps_collection_boxes"}, "geometry": {"coordinates": [-77.6140882, 37.513887], "type": "Point"}, "id": "7cLFVM6y-_UMYngAsqBGipSV9bE=", "properties": {"@spider": "usps_collection_boxes", "addr:city": "MIDLOTHIAN", "addr:country": "US", "addr:full": "1525 HUGUENOT RD", "addr:postcode": "23113", "addr:state": "VA", "amenity": "post_box", "brand": "United States Postal Service", "brand:wikidata": "Q668687", "collection_times": "Mo-Sa 10:00", "name": "USPS COLLECTION BOX - BLUE BOX", "nsi_id": "unitedstatespostalservice-a77078", "operator": "United States Postal Service", "operator:short": "USPS", "operator:type": "public", "operator:wikidata": "Q668687", "ref": "2311300001"}, "type": "Feature"}
{"dataset_attributes": {"@spider": "usps_collection_boxes"}, "geometry": {"coordinates": [-77.6136164, 37.512555], "type": "Point"}, "id": "7ArHcZ6pUa_B0vL07FZDW64HiKc=", "properties": {"@spider": "usps_collection_boxes", "addr:city": "MIDLOTHIAN", "addr:country": "US", "addr:full": "1409 HUGUENOT RD", "addr:postcode": "23113", "addr:state": "VA", "amenity": "post_box", "brand": "United States Postal Service", "brand:wikidata": "Q668687", "collection_times": "Mo-Sa 10:00", "name": "USPS COLLECTION BOX - BLUE BOX", "nsi_id": "unitedstatespostalservice-a77078", "operator": "United States Postal Service", "operator:short": "USPS", "operator:type": "public", "operator:wikidata": "Q668687", "ref": "2311300002"}, "type": "Feature"}
{"dataset_attributes": {"@spider": "usps_collection_boxes"}, "geometry": {"coordinates": [-77.6153974, 37.514289], "type": "Point"}, "id": "mML5ys4K-CxGltpLhqgNDTsrFzQ=", "properties": {"@spider": "usps_collection_boxes", "addr:city": "MIDLOTHIAN", "addr:country": "US", "addr:full": "1520 HUGUENOT RD", "addr:postcode": "23113", "addr:state": "VA", "amenity": "post_box", "brand": "United States Postal Service", "brand:wikidata": "Q668687", "collection_times": "Mo-Sa 10:00", "name": "USPS COLLECTION BOX - BLUE BOX", "nsi_id": "unitedstatespostalservice-a77078", "operator": "United States Postal Service", "operator:short": "USPS", "operator:type": "public", "operator:wikidata": "Q668687", "ref": "2311300004"}, "type": "Feature"}
{"dataset_attributes": {"@spider": "usps_collection_boxes"}, "geometry": {"coordinates": [-77.6421547, 37.504262], "type": "Point"}, "id": "Hg_taqf-eg0gxIS3kg8aj4BAbm8=", "properties": {"@spider": "usps_collection_boxes", "addr:city": "MIDLOTHIAN", "addr:country": "US", "addr:full": "13150 MIDLOTHIAN TPKE", "addr:postcode": "23113", "addr:state": "VA", "amenity": "post_box", "brand": "United States Postal Service", "brand:wikidata": "Q668687", "collection_times": "Mo-Sa 10:00", "name": "USPS COLLECTION BOX - BLUE BOX", "nsi_id": "unitedstatespostalservice-a77078", "operator": "United States Postal Service", "operator:short": "USPS", "operator:type": "public", "operator:wikidata": "Q668687", "ref": "2311300005"}, "type": "Feature"}
{"dataset_attributes": {"@spider": "usps_collection_boxes"}, "geometry": {"coordinates": [-77.6525276, 37.506387], "type": "Point"}, "id": "mtVeNtmffFq0AFkLwTfuSQ8TlVM=", "properties": {"@spider": "usps_collection_boxes", "addr:city": "MIDLOTHIAN", "addr:country": "US", "addr:full": "1201 SYCAMORE SQUARE DR", "addr:postcode": "23113", "addr:state": "VA", "amenity": "post_box", "brand": "United States Postal Service", "brand:wikidata": "Q668687", "collection_times": "Mo-Fr 17:00; Sa 13:00", "name": "USPS COLLECTION BOX - BLUE BOX", "note": "ON 12/24 AND 12/31, THIS BOX MAY BE COLLECTED AS EARLY AS 12 NOON.", "nsi_id": "unitedstatespostalservice-a77078", "operator": "United States Postal Service", "operator:short": "USPS", "operator:type": "public", "operator:wikidata": "Q668687", "ref": "2311300010"}, "type": "Feature"}
{"dataset_attributes": {"@spider": "usps_collection_boxes"}, "geometry": {"coordinates": [-77.6525281, 37.506395], "type": "Point"}, "id": "sY0lGjHF2kvZMDA9M9gD-9IvCt4=", "properties": {"@spider": "usps_collection_boxes", "addr:city": "MIDLOTHIAN", "addr:country": "US", "addr:full": "1201 SYCAMORE SQUARE DR", "addr:postcode": "23113", "addr:state": "VA", "amenity": "post_box", "brand": "United States Postal Service", "brand:wikidata": "Q668687", "collection_times": "Mo-Fr 17:00; Sa 13:00", "name": "USPS COLLECTION BOX - BLUE BOX", "note": "ON 12/24 AND 12/31, THIS BOX MAY BE COLLECTED AS EARLY AS 12 NOON.", "nsi_id": "unitedstatespostalservice-a77078", "operator": "United States Postal Service", "operator:short": "USPS", "operator:type": "public", "operator:wikidata": "Q668687", "ref": "2311300011"}, "type": "Feature"}
{"dataset_attributes": {"@spider": "usps_collection_boxes"}, "geometry": {"coordinates": [-77.6656195, 37.524874], "type": "Point"}, "id": "3x0DLOheKwXlVlH61AZZZshNQmY=", "properties": {"@spider": "usps_collection_boxes", "addr:city": "MIDLOTHIAN", "addr:country": "US", "addr:full": "14051 STEEPLESTONE DR", "addr:postcode": "23113", "addr:state": "VA", "amenity": "post_box", "brand": "United States Postal Service", "brand:wikidata": "Q668687", "collection_times": "Mo-Sa 10:00", "name": "USPS COLLECTION BOX - BLUE BOX", "nsi_id": "unitedstatespostalservice-a77078", "operator": "United States Postal Service", "operator:short": "USPS", "operator:type": "public", "operator:wikidata": "Q668687", "ref": "2311300012"}, "type": "Feature"}
{"dataset_attributes": {"@spider": "usps_collection_boxes"}, "geometry": {"coordinates": [-77.6130361, 37.503452], "type": "Point"}, "id": "5L4o4XyUMbWrvy0ai3dJ58qXSvY=", "properties": {"@spider": "usps_collection_boxes", "addr:city": "MIDLOTHIAN", "addr:country": "US", "addr:full": "11643 MIDLOTHIAN TPKE", "addr:postcode": "23113", "addr:state": "VA", "amenity": "post_box", "brand": "United States Postal Service", "brand:wikidata": "Q668687", "collection_times": "Mo-Sa 10:00", "name": "USPS COLLECTION BOX - BLUE BOX", "nsi_id": "unitedstatespostalservice-a77078", "operator": "United States Postal Service", "operator:short": "USPS", "operator:type": "public", "operator:wikidata": "Q668687", "ref": "2311300016"}, "type": "Feature"}
{"dataset_attributes": {"@spider": "usps_collection_boxes"}, "geometry": {"coordinates": [-77.6525273, 37.506404], "type": "Point"}, "id": "JUZGyZvr4QXcAuqDT2hguTKhy6I=", "properties": {"@spider": "usps_collection_boxes", "addr:city": "MIDLOTHIAN", "addr:country": "US", "addr:full": "1201 SYCAMORE SQUARE DR", "addr:postcode": "23113", "addr:state": "VA", "amenity": "post_box", "brand": "United States Postal Service", "brand:wikidata": "Q668687", "collection_times": "Mo-Fr 17:00; Sa 13:00", "name": "USPS COLLECTION BOX - BLUE BOX", "note": "ON 12/24 AND 12/31, THIS BOX MAY BE COLLECTED AS EARLY AS 12 NOON.", "nsi_id": "unitedstatespostalservice-a77078", "operator": "United States Postal Service", "operator:short": "USPS", "operator:type": "public", "operator:wikidata": "Q668687", "ref": "2311300023"}, "type": "Feature"}
{"dataset_attributes": {"@spider": "usps_collection_boxes"}, "geometry": {"coordinates": [-77.6520304, 37.506285], "type": "Point"}, "id": "dJ-3UZaoknPneRmCCFesuCEvPgw=", "properties": {"@spider": "usps_collection_boxes", "addr:city": "MIDLOTHIAN", "addr:country": "US", "addr:full": "1201 SYCAMORE SQUARE DR", "addr:postcode": "23113", "addr:state": "VA", "amenity": "post_box", "brand": "United States Postal Service", "brand:wikidata": "Q668687", "collection_times": "Mo-Fr 17:00; Sa 13:00", "name": "USPS COLLECTION BOX - PO LOBBY", "note": "ON 12/24 AND 12/31, THIS BOX MAY BE COLLECTED AS EARLY AS 12 NOON.", "nsi_id": "unitedstatespostalservice-a77078", "operator": "United States Postal Service", "operator:short": "USPS", "operator:type": "public", "operator:wikidata": "Q668687", "ref": "2311300024"}, "type": "Feature"}
{"dataset_attributes": {"@spider": "usps_collection_boxes"}, "geometry": {"coordinates": [-77.6519772, 37.506282], "type": "Point"}, "id": "grPk0AWNZA6t0_Lc4kiue4Oy_NY=", "properties": {"@spider": "usps_collection_boxes", "addr:city": "MIDLOTHIAN", "addr:country": "US", "addr:full": "1201 SYCAMORE SQUARE DR", "addr:postcode": "23113", "addr:state": "VA", "amenity": "post_box", "brand": "United States Postal Service", "brand:wikidata": "Q668687", "collection_times": "Mo-Fr 17:00; Sa 13:00", "name": "USPS COLLECTION BOX - PO LOBBY", "note": "ON 12/24 AND 12/31, THIS BOX MAY BE COLLECTED AS EARLY AS 12 NOON.", "nsi_id": "unitedstatespostalservice-a77078", "operator": "United States Postal Service", "operator:short": "USPS", "operator:type": "public", "operator:wikidata": "Q668687", "ref": "2311300025"}, "type": "Feature"}
{"dataset_attributes": {"@spider": "usps_collection_boxes"}, "geometry": {"coordinates": [-77.6520695, 37.506295], "type": "Point"}, "id": "v5LOapyLixmymw3WYNRVya1pWVE=", "properties": {"@spider": "usps_collection_boxes", "addr:city": "MIDLOTHIAN", "addr:country": "US", "addr:full": "1201 SYCAMORE SQUARE DR", "addr:postcode": "23113", "addr:state": "VA", "amenity": "post_box", "brand": "United States Postal Service", "brand:wikidata": "Q668687", "collection_times": "Mo-Fr 17:00; Sa 13:00", "name": "USPS COLLECTION BOX - APC", "note": "ON 12/24 AND 12/31, THIS BOX MAY BE COLLECTED AS EARLY AS 12 NOON.", "nsi_id": "unitedstatespostalservice-a77078", "operator": "United States Postal Service", "operator:short": "USPS", "operator:type": "public", "operator:wikidata": "Q668687", "ref": "2311300028"}, "type": "Feature"}
{"dataset_attributes": {"@spider": "usps_collection_boxes"}, "geometry": {"coordinates": [-77.6084307, 37.524546], "type": "Point"}, "id": "VFSJkbik_I3Sq4t8xysz6kWBXGc=", "properties": {"@spider": "usps_collection_boxes", "addr:city": "MIDLOTHIAN", "addr:country": "US", "addr:full": "11500 W HUGUENOT RD", "addr:postcode": "23113", "addr:state": "VA", "amenity": "post_box", "brand": "United States Postal Service", "brand:wikidata": "Q668687", "collection_times": "Mo-Sa 10:00", "name": "USPS COLLECTION BOX - BLUE BOX", "nsi_id": "unitedstatespostalservice-a77078", "operator": "United States Postal Service", "operator:short": "USPS", "operator:type": "public", "operator:wikidata": "Q668687", "ref": "2311300029"}, "type": "Feature"}
{"dataset_attributes": {"@spider": "usps_collection_boxes"}, "geometry": {"coordinates": [-77.6527398392, 37.5064270316], "type": "Point"}, "id": "LMDBi-7FesqmXOm4c9vPRvd003U=", "properties": {"@spider": "usps_collection_boxes", "addr:city": "MIDLOTHIAN", "addr:country": "US", "addr:full": "1201 SYCAMORE SQUARE DR", "addr:postcode": "23113", "addr:state": "VA", "amenity": "post_box", "brand": "United States Postal Service", "brand:wikidata": "Q668687", "collection_times": "Mo-Fr 17:00; Sa 12:00", "name": "USPS COLLECTION BOX - PO LOBBY", "note": "ON 12/24 AND 12/31, THIS BOX MAY BE COLLECTED AS EARLY AS 12 NOON.", "nsi_id": "unitedstatespostalservice-a77078", "operator": "United States Postal Service", "operator:short": "USPS", "operator:type": "public", "operator:wikidata": "Q668687", "ref": "2311300038"}, "type": "Feature"}
{"dataset_attributes": {"@spider": "usps_collection_boxes"}, "geometry": {"coordinates": [-76.949493611, 37.829215464], "type": "Point"}, "id": "c-ostJOOeOiOp7EqYHHxssF-43o=", "properties": {"@spider": "usps_collection_boxes", "addr:city": "MILLERS TAVERN", "addr:country": "US", "addr:full": "6908 RICHMOND HWY", "addr:postcode": "23115", "addr:state": "VA", "amenity": "post_box", "brand": "United States Postal Service", "brand:wikidata": "Q668687", "collection_times": "Mo-Fr 16:45; Sa 11:45", "name": "USPS COLLECTION BOX - BLUE BOX", "note": "ON 12/24 AND 12/31, THIS BOX MAY BE COLLECTED AS EARLY AS 12 NOON.", "nsi_id": "unitedstatespostalservice-a77078", "operator": "United States Postal Service", "operator:short": "USPS", "operator:type": "public", "operator:wikidata": "Q668687", "ref": "2311500001"}, "type": "Feature"}
{"dataset_attributes": {"@spider": "usps_collection_boxes"}, "geometry": {"coordinates": [-76.949493611, 37.829215464], "type": "Point"}, "id": "sF_5tSy0JgEeeNbhxRG1m1KY-zk=", "properties": {"@spider": "usps_collection_boxes", "addr:city": "MILLERS TAVERN", "addr:country": "US", "addr:full": "6908 RICHMOND HWY", "addr:postcode": "23115", "addr:state": "VA", "amenity": "post_box", "brand": "United States Postal Service", "brand:wikidata": "Q668687", "collection_times": "Mo-Fr 16:45; Sa 11:45", "name": "USPS COLLECTION BOX - PO LOBBY", "note": "ON 12/24 AND 12/31, THIS BOX MAY BE COLLECTED AS EARLY AS 12 NOON.", "nsi_id": "unitedstatespostalservice-a77078", "operator": "United States Postal Service", "operator:short": "USPS", "operator:type": "public", "operator:wikidata": "Q668687", "ref": "2311500002"}, "type": "Feature"}
{"dataset_attributes": {"@spider": "usps_collection_boxes"}, "geometry": {"coordinates": [-76.949493611, 37.829215464], "type": "Point"}, "id": "c6N8wCIXyAxBrkXu4jno_-7dcPQ=", "properties": {"@spider": "usps_collection_boxes", "addr:city": "MILLERS TAVERN", "addr:country": "US", "addr:full": "6908 RICHMOND HWY", "addr:postcode": "23115", "addr:state": "VA", "amenity": "post_box", "brand": "United States Postal Service", "brand:wikidata": "Q668687", "collection_times": "Mo-Fr 16:45; Sa 12:00", "name": "USPS COLLECTION BOX - PO LOBBY", "note": "ON 12/24 AND 12/31, THIS BOX MAY BE COLLECTED AS EARLY AS 12 NOON.", "nsi_id": "unitedstatespostalservice-a77078", "operator": "United States Postal Service", "operator:short": "USPS", "operator:type": "public", "operator:wikidata": "Q668687", "ref": "2311500004"}, "type": "Feature"}
{"dataset_attributes": {"@spider": "usps_collection_boxes"}, "geometry": {"coordinates": [-77.3830485, 37.660365], "type": "Point"}, "id": "15CKKEQpFQqr8T17R-a-WXXRunI=", "properties": {"@spider": "usps_collection_boxes", "addr:city": "MECHANICSVILLE", "addr:country": "US", "addr:full": "9540 CHAMBERLAYNE RD", "addr:postcode": "23116", "addr:state": "VA", "amenity": "post_box", "brand": "United States Postal Service", "brand:wikidata": "Q668687", "collection_times": "Mo-Fr 17:15; Sa 15:30", "name": "USPS COLLECTION BOX - BLUE BOX", "note": "ON 12/24 AND 12/31, THIS BOX MAY BE COLLECTED AS EARLY AS 12 NOON.", "nsi_id": "unitedstatespostalservice-a77078", "operator": "United States Postal Service", "operator:short": "USPS", "operator:type": "public", "operator:wikidata": "Q668687", "ref": "2311600000"}, "type": "Feature"}
{"dataset_attributes": {"@spider": "usps_collection_boxes"}, "geometry": {"coordinates": [-77.3848396843, 37.6607051587], "type": "Point"}, "id": "VsUtW1RndRuttUEEK_DvCw6bCn0=", "properties": {"@spider": "usps_collection_boxes", "addr:city": "MECHANICSVILLE", "addr:country": "US", "addr:full": "9540 CHAMBERLAYNE RD", "addr:postcode": "23116", "addr:state": "VA", "amenity": "post_box", "brand": "United States Postal Service", "brand:wikidata": "Q668687", "collection_times": "Mo-Fr 17:15; Sa 15:30", "name": "USPS COLLECTION BOX - BLUE BOX", "note": "ON 12/24 AND 12/31, THIS BOX MAY BE COLLECTED AS EARLY AS 12 NOON.", "nsi_id": "unitedstatespostalservice-a77078", "operator": "United States Postal Service", "operator:short": "USPS", "operator:type": "public", "operator:wikidata": "Q668687", "ref": "2311600001"}, "type": "Feature"}
{"dataset_attributes": {"@spider": "usps_collection_boxes"}, "geometry": {"coordinates": [-77.3830485, 37.660365], "type": "Point"}, "id": "sDGGKL3glioeZIckOlDMdEhtEOw=", "properties": {"@spider": "usps_collection_boxes", "addr:city": "MECHANICSVILLE", "addr:country": "US", "addr:full": "9540 CHAMBERLAYNE RD", "addr:postcode": "23116", "addr:state": "VA", "amenity": "post_box", "brand": "United States Postal Service", "brand:wikidata": "Q668687", "collection_times": "Mo-Fr 17:15; Sa 15:30", "name": "USPS COLLECTION BOX - PO LOBBY", "note": "ON 12/24 AND 12/31, THIS BOX MAY BE COLLECTED AS EARLY AS 12 NOON.", "nsi_id": "unitedstatespostalservice-a77078", "operator": "United States Postal Service", "operator:short": "USPS", "operator:type": "public", "operator:wikidata": "Q668687", "ref": "2311600003"}, "type": "Feature"}
{"dataset_attributes": {"@spider": "usps_collection_boxes"}, "geometry": {"coordinates": [-77.3830485, 37.660365], "type": "Point"}, "id": "jsJg0RzpMfs29AObNB1LGLGLD-w=", "properties": {"@spider": "usps_collection_boxes", "addr:city": "MECHANICSVILLE", "addr:country": "US", "addr:full": "9540 CHAMBERLAYNE RD", "addr:postcode": "23116", "addr:state": "VA", "amenity": "post_box", "brand": "United States Postal Service", "brand:wikidata": "Q668687", "collection_times": "Mo-Fr 17:15; Sa 15:30", "name": "USPS COLLECTION BOX - PO LOBBY", "note": "ON 12/24 AND 12/31, THIS BOX MAY BE COLLECTED AS EARLY AS 12 NOON.", "nsi_id": "unitedstatespostalservice-a77078", "operator": "United States Postal Service", "operator:short": "USPS", "operator:type": "public", "operator:wikidata": "Q668687", "ref": "2311600004"}, "type": "Feature"}
{"dataset_attributes": {"@spider": "usps_collection_boxes"}, "geometry": {"coordinates": [-77.3861589, 37.629692], "type": "Point"}, "id": "iPZ8fl3yByfQXqz0QRM8O9OkHG4=", "properties": {"@spider": "usps_collection_boxes", "addr:city": "MECHANICSVILLE", "addr:country": "US", "addr:full": "8266 ATLEE RD", "addr:postcode": "23116", "addr:state": "VA", "amenity": "post_box", "brand": "United States Postal Service", "brand:wikidata": "Q668687", "collection_times": "Mo-Sa 13:30", "name": "USPS COLLECTION BOX - BLUE BOX", "note": "ON 12/24 AND 12/31, THIS BOX MAY BE COLLECTED AS EARLY AS 12 NOON.", "nsi_id": "unitedstatespostalservice-a77078", "operator": "United States Postal Service", "operator:short": "USPS", "operator:type": "public", "operator:wikidata": "Q668687", "ref": "2311600005"}, "type": "Feature"}
{"dataset_attributes": {"@spider": "usps_collection_boxes"}, "geometry": {"coordinates": [-77.3830485, 37.660365], "type": "Point"}, "id": "U7WwCZ6yyxvSwVPV5--PbiHmc48=", "properties": {"@spider": "usps_collection_boxes", "addr:city": "MECHANICSVILLE", "addr:country": "US", "addr:full": "9540 CHAMBERLAYNE RD", "addr:postcode": "23116", "addr:state": "VA", "amenity": "post_box", "brand": "United States Postal Service", "brand:wikidata": "Q668687", "collection_times": "Mo-Fr 17:15; Sa 15:30", "name": "USPS COLLECTION BOX - PO LOBBY", "note": "ON 12/24 AND 12/31, THIS BOX MAY BE COLLECTED AS EARLY AS 12 NOON.", "nsi_id": "unitedstatespostalservice-a77078", "operator": "United States Postal Service", "operator:short": "USPS", "operator:type": "public", "operator:wikidata": "Q668687", "ref": "2311600006"}, "type": "Feature"}
{"dataset_attributes": {"@spider": "usps_collection_boxes"}, "geometry": {"coordinates": [-77.384839684, 37.660705159], "type": "Point"}, "id": "erV9OhV7mH2s6j4mIaowy4_5nTo=", "properties": {"@spider": "usps_collection_boxes", "addr:city": "MECHANICSVILLE", "addr:country": "US", "addr:full": "9540 CHAMBERLAYNE RD", "addr:postcode": "23116", "addr:state": "VA", "amenity": "post_box", "brand": "United States Postal Service", "brand:wikidata": "Q668687", "collection_times": "Mo-Fr 17:00", "name": "USPS COLLECTION BOX - PO LOBBY", "note": "ON 12/24 AND 12/31, THIS BOX MAY BE COLLECTED AS EARLY AS 12 NOON.", "nsi_id": "unitedstatespostalservice-a77078", "operator": "United States Postal Service", "operator:short": "USPS", "operator:type": "public", "operator:wikidata": "Q668687", "ref": "2311600013"}, "type": "Feature"}
{"dataset_attributes": {"@spider": "usps_collection_boxes"}, "geometry": {"coordinates": [-77.908788594, 38.006595], "type": "Point"}, "id": "V2T9eny7QIySVV5bMnn8ol5SxYQ=", "properties": {"@spider": "usps_collection_boxes", "addr:city": "MINERAL", "addr:country": "US", "addr:full": "512 MINERAL AVE", "addr:postcode": "23117", "addr:state": "VA", "amenity": "post_box", "brand": "United States Postal Service", "brand:wikidata": "Q668687", "collection_times": "Mo-Fr 16:15; Sa 10:45", "name": "USPS COLLECTION BOX - BLUE BOX", "note": "ON 12/24 AND 12/31, THIS BOX MAY BE COLLECTED AS EARLY AS 12 NOON.", "nsi_id": "unitedstatespostalservice-a77078", "operator": "United States Postal Service", "operator:short": "USPS", "operator:type": "public", "operator:wikidata": "Q668687", "ref": "2311700001"}, "type": "Feature"}
{"dataset_attributes": {"@spider": "usps_collection_boxes"}, "geometry": {"coordinates": [-77.908788594, 38.006595], "type": "Point"}, "id": "ns0B1dIFYbE3_T-AesTKg1cGqjI=", "properties": {"@spider": "usps_collection_boxes", "addr:city": "MINERAL", "addr:country": "US", "addr:full": "512 MINERAL AVE", "addr:postcode": "23117", "addr:state": "VA", "amenity": "post_box", "brand": "United States Postal Service", "brand:wikidata": "Q668687", "collection_times": "Mo-Fr 16:15; Sa 10:45", "name": "USPS COLLECTION BOX - PO LOBBY", "note": "ON 12/24 AND 12/31, THIS BOX MAY BE COLLECTED AS EARLY AS 12 NOON.", "nsi_id": "unitedstatespostalservice-a77078", "operator": "United States Postal Service", "operator:short": "USPS", "operator:type": "public", "operator:wikidata": "Q668687", "ref": "2311700003"}, "type": "Feature"}
{"dataset_attributes": {"@spider": "usps_collection_boxes"}, "geometry": {"coordinates": [-77.8918352, 37.779877], "type": "Point"}, "id": "RXjWIrzabzRXv0xXFFtXS0AhZ-I=", "properties": {"@spider": "usps_collection_boxes", "addr:city": "MINERAL", "addr:country": "US", "addr:full": "911 CROSS COUNTY RD", "addr:postcode": "23117", "addr:state": "VA", "amenity": "post_box", "brand": "United States Postal Service", "brand:wikidata": "Q668687", "collection_times": "Mo-Sa 11:00", "name": "USPS COLLECTION BOX - BLUE BOX", "nsi_id": "unitedstatespostalservice-a77078", "operator": "United States Postal Service", "operator:short": "USPS", "operator:type": "public", "operator:wikidata": "Q668687", "ref": "2311700007"}, "type": "Feature"}
{"dataset_attributes": {"@spider": "usps_collection_boxes"}, "geometry": {"coordinates": [-77.908788594, 38.006595], "type": "Point"}, "id": "59ZcH_K3_e12lXTEbBKkbqf_N8Y=", "properties": {"@spider": "usps_collection_boxes", "addr:city": "MINERAL", "addr:country": "US", "addr:full": "512 MINERAL AVE", "addr:postcode": "23117", "addr:state": "VA", "amenity": "post_box", "brand": "United States Postal Service", "brand:wikidata": "Q668687", "collection_times": "Mo-Fr 16:30; Sa 11:00", "name": "USPS COLLECTION BOX - PO LOBBY", "note": "ON 12/24 AND 12/31, THIS BOX MAY BE COLLECTED AS EARLY AS 12 NOON.", "nsi_id": "unitedstatespostalservice-a77078", "operator": "United States Postal Service", "operator:short": "USPS", "operator:type": "public", "operator:wikidata": "Q668687", "ref": "2311700009"}, "type": "Feature"}
{"dataset_attributes": {"@spider": "usps_collection_boxes"}, "geometry": {"coordinates": [-76.289794701, 37.443468576], "type": "Point"}, "id": "KoC7oYmP2KIU69iEeX5uQtNiEpQ=", "properties": {"@spider": "usps_collection_boxes", "addr:city": "MOON", "addr:country": "US", "addr:full": "184 HAVEN BEACH RD", "addr:postcode": "23119", "addr:state": "VA", "amenity": "post_box", "brand": "United States Postal Service", "brand:wikidata": "Q668687", "collection_times": "Mo-Fr 13:50; Sa 11:00", "name": "USPS COLLECTION BOX - BLUE BOX", "note": "ON 12/24 AND 12/31, THIS BOX MAY BE COLLECTED AS EARLY AS 12 NOON.", "nsi_id": "unitedstatespostalservice-a77078", "operator": "United States Postal Service", "operator:short": "USPS", "operator:type": "public", "operator:wikidata": "Q668687", "ref": "2311900001"}, "type": "Feature"}
{"dataset_attributes": {"@spider": "usps_collection_boxes"}, "geometry": {"coordinates": [-76.289794701, 37.443468576], "type": "Point"}, "id": "xfi8zCGVJnpRgm1WtahDQNRVktI=", "properties": {"@spider": "usps_collection_boxes", "addr:city": "MOON", "addr:country": "US", "addr:full": "184 HAVEN BEACH RD", "addr:postcode": "23119", "addr:state": "VA", "amenity": "post_box", "brand": "United States Postal Service", "brand:wikidata": "Q668687", "collection_times": "Mo-Fr 13:50; Sa 11:00", "name": "USPS COLLECTION BOX - PO LOBBY", "note": "ON 12/24 AND 12/31, THIS BOX MAY BE COLLECTED AS EARLY AS 12 NOON.", "nsi_id": "unitedstatespostalservice-a77078", "operator": "United States Postal Service", "operator:short": "USPS", "operator:type": "public", "operator:wikidata": "Q668687", "ref": "2311900002"}, "type": "Feature"}
{"dataset_attributes": {"@spider": "usps_collection_boxes"}, "geometry": {"coordinates": [-76.289794701, 37.443468576], "type": "Point"}, "id": "5sMP8Db0mqpYWyP4OWdm9OadPCA=", "properties": {"@spider": "usps_collection_boxes", "addr:city": "MOON", "addr:country": "US", "addr:full": "184 HAVEN BEACH RD", "addr:postcode": "23119", "addr:state": "VA", "amenity": "post_box", "brand": "United States Postal Service", "brand:wikidata": "Q668687", "collection_times": "Mo-Fr 13:50; Sa 11:00", "name": "USPS COLLECTION BOX - PO LOBBY", "note": "ON 12/24 AND 12/31, THIS BOX MAY BE COLLECTED AS EARLY AS 12 NOON.", "nsi_id": "unitedstatespostalservice-a77078", "operator": "United States Postal Service", "operator:short": "USPS", "operator:type": "public", "operator:wikidata": "Q668687", "ref": "2311900004"}, "type": "Feature"}
{"dataset_attributes": {"@spider": "usps_collection_boxes"}, "geometry": {"coordinates": [-77.799800894, 37.385977202], "type": "Point"}, "id": "7pRpUSfS0YMi7zYYaYYYYZ2PHfg=", "properties": {"@spider": "usps_collection_boxes", "addr:city": "MOSELEY", "addr:country": "US", "addr:full": "21431 HULL STREET RD", "addr:postcode": "23120", "addr:state": "VA", "amenity": "post_box", "brand": "United States Postal Service", "brand:wikidata": "Q668687", "collection_times": "Mo-Fr 16:00; Sa 11:00", "name": "USPS COLLECTION BOX - BLUE BOX", "note": "ON 12/24 AND 12/31, THIS BOX MAY BE COLLECTED AS EARLY AS 12 NOON.", "nsi_id": "unitedstatespostalservice-a77078", "operator": "United States Postal Service", "operator:short": "USPS", "operator:type": "public", "operator:wikidata": "Q668687", "ref": "2312000001"}, "type": "Feature"}
{"dataset_attributes": {"@spider": "usps_collection_boxes"}, "geometry": {"coordinates": [-77.799800894, 37.385977202], "type": "Point"}, "id": "7RbvQZf6rP8oHQxHkacYs-aOm2k=", "properties": {"@spider": "usps_collection_boxes", "addr:city": "MOSELEY", "addr:country": "US", "addr:full": "21431 HULL STREET RD", "addr:postcode": "23120", "addr:state": "VA", "amenity": "post_box", "brand": "United States Postal Service", "brand:wikidata": "Q668687", "collection_times": "Mo-Fr 16:00; Sa 11:00", "name": "USPS COLLECTION BOX - PO LOBBY", "note": "ON 12/24 AND 12/31, THIS BOX MAY BE COLLECTED AS EARLY AS 12 NOON.", "nsi_id": "unitedstatespostalservice-a77078", "operator": "United States Postal Service", "operator:short": "USPS", "operator:type": "public", "operator:wikidata": "Q668687", "ref": "2312000002"}, "type": "Feature"}
{"dataset_attributes": {"@spider": "usps_collection_boxes"}, "geometry": {"coordinates": [-77.799800894, 37.385977202], "type": "Point"}, "id": "YtpBE3ny-WsEMnzmEV_f7Rlegxs=", "properties": {"@spider": "usps_collection_boxes", "addr:city": "MOSELEY", "addr:country": "US", "addr:full": "21431 HULL STREET RD", "addr:postcode": "23120", "addr:state": "VA", "amenity": "post_box", "brand": "United States Postal Service", "brand:wikidata": "Q668687", "collection_times": "Mo-Fr 16:30; Sa 11:30", "name": "USPS COLLECTION BOX - PO LOBBY", "note": "ON 12/24 AND 12/31, THIS BOX MAY BE COLLECTED AS EARLY AS 12 NOON.", "nsi_id": "unitedstatespostalservice-a77078", "operator": "United States Postal Service", "operator:short": "USPS", "operator:type": "public", "operator:wikidata": "Q668687", "ref": "2312000005"}, "type": "Feature"}
{"dataset_attributes": {"@spider": "usps_collection_boxes"}, "geometry": {"coordinates": [-78.30018, 37.70527153], "type": "Point"}, "id": "NuTaPro5UO0jxOZbeoViqikbjWQ=", "properties": {"@spider": "usps_collection_boxes", "addr:city": "NEW CANTON", "addr:country": "US", "addr:full": "3708 C G WOODSON RD", "addr:postcode": "23123", "addr:state": "VA", "amenity": "post_box", "brand": "United States Postal Service", "brand:wikidata": "Q668687", "collection_times": "Mo-Fr 16:00; Sa 11:00", "name": "USPS COLLECTION BOX - PO LOBBY", "note": "ON 12/24 AND 12/31, THIS BOX MAY BE COLLECTED AS EARLY AS 12 NOON.", "nsi_id": "unitedstatespostalservice-a77078", "operator": "United States Postal Service", "operator:short": "USPS", "operator:type": "public", "operator:wikidata": "Q668687", "ref": "2312300003"}, "type": "Feature"}
{"dataset_attributes": {"@spider": "usps_collection_boxes"}, "geometry": {"coordinates": [-78.30018, 37.70527153], "type": "Point"}, "id": "rgCkMfVF0HTKW9fFz7GtbvlDI3Y=", "properties": {"@spider": "usps_collection_boxes", "addr:city": "NEW CANTON", "addr:country": "US", "addr:full": "3708 C G WOODSON RD", "addr:postcode": "23123", "addr:state": "VA", "amenity": "post_box", "brand": "United States Postal Service", "brand:wikidata": "Q668687", "collection_times": "Mo-Fr 16:30; Sa 11:30", "name": "USPS COLLECTION BOX - PO LOBBY", "note": "ON 12/24 AND 12/31, THIS BOX MAY BE COLLECTED AS EARLY AS 12 NOON.", "nsi_id": "unitedstatespostalservice-a77078", "operator": "United States Postal Service", "operator:short": "USPS", "operator:type": "public", "operator:wikidata": "Q668687", "ref": "2312300005"}, "type": "Feature"}
{"dataset_attributes": {"@spider": "usps_collection_boxes"}, "geometry": {"coordinates": [-76.9764085976, 37.5178702794], "type": "Point"}, "id": "cjBWPStsKnw_hZF8IWSx-QYnGSo=", "properties": {"@spider": "usps_collection_boxes", "addr:city": "NEW KENT", "addr:country": "US", "addr:full": "12109 NEW KENT HWY", "addr:postcode": "23124", "addr:state": "VA", "amenity": "post_box", "brand": "United States Postal Service", "brand:wikidata": "Q668687", "collection_times": "Mo-Fr 16:15; Sa 11:15", "name": "USPS COLLECTION BOX - BLUE BOX", "note": "ON 12/24 AND 12/31, THIS BOX MAY BE COLLECTED AS EARLY AS 12 NOON.", "nsi_id": "unitedstatespostalservice-a77078", "operator": "United States Postal Service", "operator:short": "USPS", "operator:type": "public", "operator:wikidata": "Q668687", "ref": "2312400001"}, "type": "Feature"}
{"dataset_attributes": {"@spider": "usps_collection_boxes"}, "geometry": {"coordinates": [-76.9764085976, 37.5178702794], "type": "Point"}, "id": "adzkFJtw0etlSo0t-ykEAR1LiMA=", "properties": {"@spider": "usps_collection_boxes", "addr:city": "NEW KENT", "addr:country": "US", "addr:full": "12109 NEW KENT HWY", "addr:postcode": "23124", "addr:state": "VA", "amenity": "post_box", "brand": "United States Postal Service", "brand:wikidata": "Q668687", "collection_times": "Mo-Fr 16:30; Sa 11:30", "name": "USPS COLLECTION BOX - PO LOBBY", "note": "ON 12/24 AND 12/31, THIS BOX MAY BE COLLECTED AS EARLY AS 12 NOON.", "nsi_id": "unitedstatespostalservice-a77078", "operator": "United States Postal Service", "operator:short": "USPS", "operator:type": "public", "operator:wikidata": "Q668687", "ref": "2312400002"}, "type": "Feature"}
{"dataset_attributes": {"@spider": "usps_collection_boxes"}, "geometry": {"coordinates": [-76.9764085976, 37.5178702794], "type": "Point"}, "id": "AmZC9JN9VFLK2vNmt_KLamY_ZyA=", "properties": {"@spider": "usps_collection_boxes", "addr:city": "NEW KENT", "addr:country": "US", "addr:full": "12109 NEW KENT HWY", "addr:postcode": "23124", "addr:state": "VA", "amenity": "post_box", "brand": "United States Postal Service", "brand:wikidata": "Q668687", "collection_times": "Mo-Fr 16:30; Sa 12:00", "name": "USPS COLLECTION BOX - PO LOBBY", "note": "ON 12/24 AND 12/31, THIS BOX MAY BE COLLECTED AS EARLY AS 12 NOON.", "nsi_id": "unitedstatespostalservice-a77078", "operator": "United States Postal Service", "operator:short": "USPS", "operator:type": "public", "operator:wikidata": "Q668687", "ref": "2312400004"}, "type": "Feature"}
{"dataset_attributes": {"@spider": "usps_collection_boxes"}, "geometry": {"coordinates": [-76.283834506, 37.346639939], "type": "Point"}, "id": "VYj04-GyXQyXze6idASQj2k5UQM=", "properties": {"@spider": "usps_collection_boxes", "addr:city": "NEW POINT", "addr:country": "US", "addr:full": "393 SAND BANK RD", "addr:postcode": "23125", "addr:state": "VA", "amenity": "post_box", "brand": "United States Postal Service", "brand:wikidata": "Q668687", "collection_times": "Mo-Sa 12:30", "name": "USPS COLLECTION BOX - BLUE BOX", "note": "ON 12/24 AND 12/31, THIS BOX MAY BE COLLECTED AS EARLY AS 12 NOON.", "nsi_id": "unitedstatespostalservice-a77078", "operator": "United States Postal Service", "operator:short": "USPS", "operator:type": "public", "operator:wikidata": "Q668687", "ref": "2312500001"}, "type": "Feature"}
{"dataset_attributes": {"@spider": "usps_collection_boxes"}, "geometry": {"coordinates": [-76.283834506, 37.346639939], "type": "Point"}, "id": "rbHLoFBAA9UEViqdlup5GNPQflM=", "properties": {"@spider": "usps_collection_boxes", "addr:city": "NEW POINT", "addr:country": "US", "addr:full": "393 SAND BANK RD", "addr:postcode": "23125", "addr:state": "VA", "amenity": "post_box", "brand": "United States Postal Service", "brand:wikidata": "Q668687", "collection_times": "Mo-Sa 12:30", "name": "USPS COLLECTION BOX - PO LOBBY", "note": "ON 12/24 AND 12/31, THIS BOX MAY BE COLLECTED AS EARLY AS 12 NOON.", "nsi_id": "unitedstatespostalservice-a77078", "operator": "United States Postal Service", "operator:short": "USPS", "operator:type": "public", "operator:wikidata": "Q668687", "ref": "2312500002"}, "type": "Feature"}
{"dataset_attributes": {"@spider": "usps_collection_boxes"}, "geometry": {"coordinates": [-76.283834506, 37.346639939], "type": "Point"}, "id": "rijfHe1o2CCUQ76fMpwgPiIg2NA=", "properties": {"@spider": "usps_collection_boxes", "addr:city": "NEW POINT", "addr:country": "US", "addr:full": "393 SAND BANK RD", "addr:postcode": "23125", "addr:state": "VA", "amenity": "post_box", "brand": "United States Postal Service", "brand:wikidata": "Q668687", "collection_times": "Mo-Sa 12:30", "name": "USPS COLLECTION BOX - PO LOBBY", "note": "ON 12/24 AND 12/31, THIS BOX MAY BE COLLECTED AS EARLY AS 12 NOON.", "nsi_id": "unitedstatespostalservice-a77078", "operator": "United States Postal Service", "operator:short": "USPS", "operator:type": "public", "operator:wikidata": "Q668687", "ref": "2312500004"}, "type": "Feature"}
{"dataset_attributes": {"@spider": "usps_collection_boxes"}, "geometry": {"coordinates": [-77.136887206, 37.914716793], "type": "Point"}, "id": "UdK-P95QVaH5boLlzvtaCFZlaz8=", "properties": {"@spider": "usps_collection_boxes", "addr:city": "NEWTOWN", "addr:country": "US", "addr:full": "9933 NEWTOWN RD", "addr:postcode": "23126", "addr:state": "VA", "amenity": "post_box", "brand": "United States Postal Service", "brand:wikidata": "Q668687", "collection_times": "Mo-Sa 12:00", "name": "USPS COLLECTION BOX - PO LOBBY", "nsi_id": "unitedstatespostalservice-a77078", "operator": "United States Postal Service", "operator:short": "USPS", "operator:type": "public", "operator:wikidata": "Q668687", "ref": "2312600000"}, "type": "Feature"}
{"dataset_attributes": {"@spider": "usps_collection_boxes"}, "geometry": {"coordinates": [-77.136887206, 37.914716793], "type": "Point"}, "id": "qQG83-OyzhpKHq3R4SrS8uQbqNo=", "properties": {"@spider": "usps_collection_boxes", "addr:city": "NEWTOWN", "addr:country": "US", "addr:full": "9933 NEWTOWN RD", "addr:postcode": "23126", "addr:state": "VA", "amenity": "post_box", "brand": "United States Postal Service", "brand:wikidata": "Q668687", "collection_times": "Mo-Sa 13:00", "name": "USPS COLLECTION BOX - PO LOBBY", "note": "ON 12/24 AND 12/31, THIS BOX MAY BE COLLECTED AS EARLY AS 12 NOON.", "nsi_id": "unitedstatespostalservice-a77078", "operator": "United States Postal Service", "operator:short": "USPS", "operator:type": "public", "operator:wikidata": "Q668687", "ref": "2312600002"}, "type": "Feature"}
{"dataset_attributes": {"@spider": "usps_collection_boxes"}, "geometry": {"coordinates": [-76.773552464, 37.370317551], "type": "Point"}, "id": "egILGWGBalDuk7dXh1Zag3Hvlwc=", "properties": {"@spider": "usps_collection_boxes", "addr:city": "NORGE", "addr:country": "US", "addr:full": "7489 RICHMOND RD", "addr:postcode": "23127", "addr:state": "VA", "amenity": "post_box", "brand": "United States Postal Service", "brand:wikidata": "Q668687", "collection_times": "Mo-Fr 16:45; Sa 12:00", "name": "USPS COLLECTION BOX - BLUE BOX", "note": "ON 12/24 AND 12/31, THIS BOX MAY BE COLLECTED AS EARLY AS 12 NOON.", "nsi_id": "unitedstatespostalservice-a77078", "operator": "United States Postal Service", "operator:short": "USPS", "operator:type": "public", "operator:wikidata": "Q668687", "ref": "2312700001"}, "type": "Feature"}
{"dataset_attributes": {"@spider": "usps_collection_boxes"}, "geometry": {"coordinates": [-76.773552464, 37.370317551], "type": "Point"}, "id": "bvKd1Q0W9Qas4Hc50_ZqXFN32X8=", "properties": {"@spider": "usps_collection_boxes", "addr:city": "NORGE", "addr:country": "US", "addr:full": "7489 RICHMOND RD", "addr:postcode": "23127", "addr:state": "VA", "amenity": "post_box", "brand": "United States Postal Service", "brand:wikidata": "Q668687", "collection_times": "Mo-Fr 16:45; Sa 12:00", "name": "USPS COLLECTION BOX - PO LOBBY", "note": "ON 12/24 AND 12/31, THIS BOX MAY BE COLLECTED AS EARLY AS 12 NOON.", "nsi_id": "unitedstatespostalservice-a77078", "operator": "United States Postal Service", "operator:short": "USPS", "operator:type": "public", "operator:wikidata": "Q668687", "ref": "2312700002"}, "type": "Feature"}
{"dataset_attributes": {"@spider": "usps_collection_boxes"}, "geometry": {"coordinates": [-76.773552464, 37.370317551], "type": "Point"}, "id": "lF1JPVB77iu_z8MWZE2zDI1uUbA=", "properties": {"@spider": "usps_collection_boxes", "addr:city": "NORGE", "addr:country": "US", "addr:full": "7489 RICHMOND RD", "addr:postcode": "23127", "addr:state": "VA", "amenity": "post_box", "brand": "United States Postal Service", "brand:wikidata": "Q668687", "collection_times": "Mo-Fr 16:30; Sa 12:00", "name": "USPS COLLECTION BOX - PO LOBBY", "note": "ON 12/24 AND 12/31, THIS BOX MAY BE COLLECTED AS EARLY AS 12 NOON.", "nsi_id": "unitedstatespostalservice-a77078", "operator": "United States Postal Service", "operator:short": "USPS", "operator:type": "public", "operator:wikidata": "Q668687", "ref": "2312700004"}, "type": "Feature"}
{"dataset_attributes": {"@spider": "usps_collection_boxes"}, "geometry": {"coordinates": [-76.407265994, 37.445155021], "type": "Point"}, "id": "0wZFjpU8vwWYj6LlOfG_Z4ZM5us=", "properties": {"@spider": "usps_collection_boxes", "addr:city": "NORTH", "addr:country": "US", "addr:full": "13846 JOHN CLAYTON MEMORIAL HWY", "addr:postcode": "23128", "addr:state": "VA", "amenity": "post_box", "brand": "United States Postal Service", "brand:wikidata": "Q668687", "collection_times": "Mo-Fr 16:30; Sa 11:30", "name": "USPS COLLECTION BOX - BLUE BOX", "note": "ON 12/24 AND 12/31, THIS BOX MAY BE COLLECTED AS EARLY AS 12 NOON.", "nsi_id": "unitedstatespostalservice-a77078", "operator": "United States Postal Service", "operator:short": "USPS", "operator:type": "public", "operator:wikidata": "Q668687", "ref": "2312800001"}, "type": "Feature"}
{"dataset_attributes": {"@spider": "usps_collection_boxes"}, "geometry": {"coordinates": [-76.407265994, 37.445155021], "type": "Point"}, "id": "vsmmIracZy4nYfnqyColgrkduiE=", "properties": {"@spider": "usps_collection_boxes", "addr:city": "NORTH", "addr:country": "US", "addr:full": "13846 JOHN CLAYTON MEMORIAL HWY", "addr:postcode": "23128", "addr:state": "VA", "amenity": "post_box", "brand": "United States Postal Service", "brand:wikidata": "Q668687", "collection_times": "Mo-Fr 16:30; Sa 11:30", "name": "USPS COLLECTION BOX - PO LOBBY", "note": "ON 12/24 AND 12/31, THIS BOX MAY BE COLLECTED AS EARLY AS 12 NOON.", "nsi_id": "unitedstatespostalservice-a77078", "operator": "United States Postal Service", "operator:short": "USPS", "operator:type": "public", "operator:wikidata": "Q668687", "ref": "2312800002"}, "type": "Feature"}
{"dataset_attributes": {"@spider": "usps_collection_boxes"}, "geometry": {"coordinates": [-76.407265994, 37.445155021], "type": "Point"}, "id": "5R0wzL66Ffv_UivjHsucomFYDg4=", "properties": {"@spider": "usps_collection_boxes", "addr:city": "NORTH", "addr:country": "US", "addr:full": "13846 JOHN CLAYTON MEMORIAL HWY", "addr:postcode": "23128", "addr:state": "VA", "amenity": "post_box", "brand": "United States Postal Service", "brand:wikidata": "Q668687", "collection_times": "Mo-Fr 16:30; Sa 11:30", "name": "USPS COLLECTION BOX - PO LOBBY", "note": "ON 12/24 AND 12/31, THIS BOX MAY BE COLLECTED AS EARLY AS 12 NOON.", "nsi_id": "unitedstatespostalservice-a77078", "operator": "United States Postal Service", "operator:short": "USPS", "operator:type": "public", "operator:wikidata": "Q668687", "ref": "2312800004"}, "type": "Feature"}
{"dataset_attributes": {"@spider": "usps_collection_boxes"}, "geometry": {"coordinates": [-77.786052201, 37.704095709], "type": "Point"}, "id": "DqfQ8wFSjZ8AcKjAQbDe-5gPKJc=", "properties": {"@spider": "usps_collection_boxes", "addr:city": "OILVILLE", "addr:country": "US", "addr:full": "1411 BROAD STREET RD", "addr:postcode": "23129", "addr:state": "VA", "amenity": "post_box", "brand": "United States Postal Service", "brand:wikidata": "Q668687", "collection_times": "Mo-Fr 15:45; Sa 11:45", "name": "USPS COLLECTION BOX - BLUE BOX", "note": "ON 12/24 AND 12/31, THIS BOX MAY BE COLLECTED AS EARLY AS 12 NOON.", "nsi_id": "unitedstatespostalservice-a77078", "operator": "United States Postal Service", "operator:short": "USPS", "operator:type": "public", "operator:wikidata": "Q668687", "ref": "2312900001"}, "type": "Feature"}
{"dataset_attributes": {"@spider": "usps_collection_boxes"}, "geometry": {"coordinates": [-77.786052201, 37.704095709], "type": "Point"}, "id": "oed86APamvuGV5gOz5fUHlt3AiM=", "properties": {"@spider": "usps_collection_boxes", "addr:city": "OILVILLE", "addr:country": "US", "addr:full": "1411 BROAD STREET RD", "addr:postcode": "23129", "addr:state": "VA", "amenity": "post_box", "brand": "United States Postal Service", "brand:wikidata": "Q668687", "collection_times": "Mo-Fr 15:45; Sa 11:45", "name": "USPS COLLECTION BOX - PO LOBBY", "note": "ON 12/24 AND 12/31, THIS BOX MAY BE COLLECTED AS EARLY AS 12 NOON.", "nsi_id": "unitedstatespostalservice-a77078", "operator": "United States Postal Service", "operator:short": "USPS", "operator:type": "public", "operator:wikidata": "Q668687", "ref": "2312900002"}, "type": "Feature"}
{"dataset_attributes": {"@spider": "usps_collection_boxes"}, "geometry": {"coordinates": [-77.786052201, 37.704095709], "type": "Point"}, "id": "0Wd1CYaY4BbC3Eqto_zgnfbAM6U=", "properties": {"@spider": "usps_collection_boxes", "addr:city": "OILVILLE", "addr:country": "US", "addr:full": "1411 BROAD STREET RD", "addr:postcode": "23129", "addr:state": "VA", "amenity": "post_box", "brand": "United States Postal Service", "brand:wikidata": "Q668687", "collection_times": "Mo-Fr 16:00; Sa 12:00", "name": "USPS COLLECTION BOX - PO LOBBY", "note": "ON 12/24 AND 12/31, THIS BOX MAY BE COLLECTED AS EARLY AS 12 NOON.", "nsi_id": "unitedstatespostalservice-a77078", "operator": "United States Postal Service", "operator:short": "USPS", "operator:type": "public", "operator:wikidata": "Q668687", "ref": "2312900004"}, "type": "Feature"}
{"dataset_attributes": {"@spider": "usps_collection_boxes"}, "geometry": {"coordinates": [-76.2732489855, 37.3953539959], "type": "Point"}, "id": "cQ_cx01rWZ2AsX0MtjA_bmEj0vY=", "properties": {"@spider": "usps_collection_boxes", "addr:city": "ONEMO", "addr:country": "US", "addr:full": "1835 BETHEL BEACH RD", "addr:postcode": "23130", "addr:state": "VA", "amenity": "post_box", "brand": "United States Postal Service", "brand:wikidata": "Q668687", "collection_times": "Mo-Fr 15:30; Sa 14:00", "name": "USPS COLLECTION BOX - PO LOBBY", "note": "ON 12/24 AND 12/31, THIS BOX MAY BE COLLECTED AS EARLY AS 12 NOON.", "nsi_id": "unitedstatespostalservice-a77078", "operator": "United States Postal Service", "operator:short": "USPS", "operator:type": "public", "operator:wikidata": "Q668687", "ref": "2313000003"}, "type": "Feature"}
{"dataset_attributes": {"@spider": "usps_collection_boxes"}, "geometry": {"coordinates": [-76.51365776, 37.316889321], "type": "Point"}, "id": "MJJqBN2uHm7E008KPJ9CL0vY5GI=", "properties": {"@spider": "usps_collection_boxes", "addr:city": "ORDINARY", "addr:country": "US", "addr:full": "3992 GEORGE WASHINGTON MEMORIAL HWY", "addr:postcode": "23131", "addr:state": "VA", "amenity": "post_box", "brand": "United States Postal Service", "brand:wikidata": "Q668687", "collection_times": "Mo-Fr 16:45; Sa 11:45", "name": "USPS COLLECTION BOX - BLUE BOX", "note": "ON 12/24 AND 12/31, THIS BOX MAY BE COLLECTED AS EARLY AS 12 NOON.", "nsi_id": "unitedstatespostalservice-a77078", "operator": "United States Postal Service", "operator:short": "USPS", "operator:type": "public", "operator:wikidata": "Q668687", "ref": "2313100001"}, "type": "Feature"}
{"dataset_attributes": {"@spider": "usps_collection_boxes"}, "geometry": {"coordinates": [-76.51365776, 37.316889321], "type": "Point"}, "id": "c043MwCFOSFYgObUbmMtNuNFNRU=", "properties": {"@spider": "usps_collection_boxes", "addr:city": "ORDINARY", "addr:country": "US", "addr:full": "3992 GEORGE WASHINGTON MEMORIAL HWY", "addr:postcode": "23131", "addr:state": "VA", "amenity": "post_box", "brand": "United States Postal Service", "brand:wikidata": "Q668687", "collection_times": "Mo-Fr 16:45; Sa 11:45", "name": "USPS COLLECTION BOX - PO LOBBY", "note": "ON 12/24 AND 12/31, THIS BOX MAY BE COLLECTED AS EARLY AS 12 NOON.", "nsi_id": "unitedstatespostalservice-a77078", "operator": "United States Postal Service", "operator:short": "USPS", "operator:type": "public", "operator:wikidata": "Q668687", "ref": "2313100002"}, "type": "Feature"}
{"dataset_attributes": {"@spider": "usps_collection_boxes"}, "geometry": {"coordinates": [-76.51365776, 37.316889321], "type": "Point"}, "id": "1MY4UN2m-z2qHwdHXRR6Vj_eR4g=", "properties": {"@spider": "usps_collection_boxes", "addr:city": "ORDINARY", "addr:country": "US", "addr:full": "3992 GEORGE WASHINGTON MEMORIAL HWY", "addr:postcode": "23131", "addr:state": "VA", "amenity": "post_box", "brand": "United States Postal Service", "brand:wikidata": "Q668687", "collection_times": "Mo-Fr 16:45; Sa 12:30", "name": "USPS COLLECTION BOX - PO LOBBY", "note": "ON 12/24 AND 12/31, THIS BOX MAY BE COLLECTED AS EARLY AS 12 NOON.", "nsi_id": "unitedstatespostalservice-a77078", "operator": "United States Postal Service", "operator:short": "USPS", "operator:type": "public", "operator:wikidata": "Q668687", "ref": "2313100004"}, "type": "Feature"}
{"dataset_attributes": {"@spider": "usps_collection_boxes"}, "geometry": {"coordinates": [-76.317410444, 37.385893341], "type": "Point"}, "id": "98h5CTyAnFNQDOAEpAtIubbyvi4=", "properties": {"@spider": "usps_collection_boxes", "addr:city": "PORT HAYWOOD", "addr:country": "US", "addr:full": "3781 NEW POINT COMFORT HWY", "addr:postcode": "23138", "addr:state": "VA", "amenity": "post_box", "brand": "United States Postal Service", "brand:wikidata": "Q668687", "collection_times": "Mo-Fr 14:50; Sa 12:00", "name": "USPS COLLECTION BOX - PO LOBBY", "note": "ON 12/24 AND 12/31, THIS BOX MAY BE COLLECTED AS EARLY AS 12 NOON.", "nsi_id": "unitedstatespostalservice-a77078", "operator": "United States Postal Service", "operator:short": "USPS", "operator:type": "public", "operator:wikidata": "Q668687", "ref": "2313800000"}, "type": "Feature"}
{"dataset_attributes": {"@spider": "usps_collection_boxes"}, "geometry": {"coordinates": [-77.8180861, 37.522082], "type": "Point"}, "id": "vNkj3Mg6JmvV3LWz0Wuw6Lj9PaE=", "properties": {"@spider": "usps_collection_boxes", "addr:city": "POWHATAN", "addr:country": "US", "addr:full": "2470 ANDERSON HWY", "addr:postcode": "23139", "addr:state": "VA", "amenity": "post_box", "brand": "United States Postal Service", "brand:wikidata": "Q668687", "collection_times": "Mo-Fr 11:00; Sa 10:30", "name": "USPS COLLECTION BOX - BLUE BOX", "nsi_id": "unitedstatespostalservice-a77078", "operator": "United States Postal Service", "operator:short": "USPS", "operator:type": "public", "operator:wikidata": "Q668687", "ref": "2313900002"}, "type": "Feature"}
{"dataset_attributes": {"@spider": "usps_collection_boxes"}, "geometry": {"coordinates": [-77.8217561, 37.521978], "type": "Point"}, "id": "mqLbS3EApxKd_TF_oeoCTwy_Z9k=", "properties": {"@spider": "usps_collection_boxes", "addr:city": "POWHATAN", "addr:country": "US", "addr:full": "2501 ANDERSON HWY", "addr:postcode": "23139", "addr:state": "VA", "amenity": "post_box", "brand": "United States Postal Service", "brand:wikidata": "Q668687", "collection_times": "Mo-Fr 14:00; Sa 12:00", "name": "USPS COLLECTION BOX - BLUE BOX", "note": "ON 12/24 AND 12/31, THIS BOX MAY BE COLLECTED AS EARLY AS 12 NOON.", "nsi_id": "unitedstatespostalservice-a77078", "operator": "United States Postal Service", "operator:short": "USPS", "operator:type": "public", "operator:wikidata": "Q668687", "ref": "2313900003"}, "type": "Feature"}
{"dataset_attributes": {"@spider": "usps_collection_boxes"}, "geometry": {"coordinates": [-77.8217699, 37.521964], "type": "Point"}, "id": "vXWt-Xv98bsgnPBAxcn7QB8w9lQ=", "properties": {"@spider": "usps_collection_boxes", "addr:city": "POWHATAN", "addr:country": "US", "addr:full": "2501 ANDERSON HWY", "addr:postcode": "23139", "addr:state": "VA", "amenity": "post_box", "brand": "United States Postal Service", "brand:wikidata": "Q668687", "collection_times": "Mo-Fr 14:00; Sa 12:00", "name": "USPS COLLECTION BOX - BLUE BOX", "note": "ON 12/24 AND 12/31, THIS BOX MAY BE COLLECTED AS EARLY AS 12 NOON.", "nsi_id": "unitedstatespostalservice-a77078", "operator": "United States Postal Service", "operator:short": "USPS", "operator:type": "public", "operator:wikidata": "Q668687", "ref": "2313900004"}, "type": "Feature"}
{"dataset_attributes": {"@spider": "usps_collection_boxes"}, "geometry": {"coordinates": [-77.8853737, 37.539498], "type": "Point"}, "id": "dLIkzudK8Lbhve29pPLkZNCC50M=", "properties": {"@spider": "usps_collection_boxes", "addr:city": "POWHATAN", "addr:country": "US", "addr:full": "2105 ACADEMY RD", "addr:postcode": "23139", "addr:state": "VA", "amenity": "post_box", "brand": "United States Postal Service", "brand:wikidata": "Q668687", "collection_times": "Mo-Fr 13:00; Sa 12:00", "name": "USPS COLLECTION BOX - BLUE BOX", "note": "ON 12/24 AND 12/31, THIS BOX MAY BE COLLECTED AS EARLY AS 12 NOON.", "nsi_id": "unitedstatespostalservice-a77078", "operator": "United States Postal Service", "operator:short": "USPS", "operator:type": "public", "operator:wikidata": "Q668687", "ref": "2313900006"}, "type": "Feature"}
{"dataset_attributes": {"@spider": "usps_collection_boxes"}, "geometry": {"coordinates": [-77.939919506, 37.554762399], "type": "Point"}, "id": "GrdLRzpGBf7Sl3Nzr4bhIs2OjpQ=", "properties": {"@spider": "usps_collection_boxes", "addr:city": "POWHATAN", "addr:country": "US", "addr:full": "4195 ANDERSON HWY", "addr:postcode": "23139", "addr:state": "VA", "amenity": "post_box", "brand": "United States Postal Service", "brand:wikidata": "Q668687", "collection_times": "Mo-Fr 16:30; Sa 12:00", "name": "USPS COLLECTION BOX - BLUE BOX", "note": "ON 12/24 AND 12/31, THIS BOX MAY BE COLLECTED AS EARLY AS 12 NOON.", "nsi_id": "unitedstatespostalservice-a77078", "operator": "United States Postal Service", "operator:short": "USPS", "operator:type": "public", "operator:wikidata": "Q668687", "ref": "2313900007"}, "type": "Feature"}
{"dataset_attributes": {"@spider": "usps_collection_boxes"}, "geometry": {"coordinates": [-77.939919506, 37.554762399], "type": "Point"}, "id": "l5olfUKNQG7vLzMCpJj9_o1P-N8=", "properties": {"@spider": "usps_collection_boxes", "addr:city": "POWHATAN", "addr:country": "US", "addr:full": "4195 ANDERSON HWY", "addr:postcode": "23139", "addr:state": "VA", "amenity": "post_box", "brand": "United States Postal Service", "brand:wikidata": "Q668687", "collection_times": "Mo-Fr 16:30; Sa 12:00", "name": "USPS COLLECTION BOX - BLUE BOX", "note": "ON 12/24 AND 12/31, THIS BOX MAY BE COLLECTED AS EARLY AS 12 NOON.", "nsi_id": "unitedstatespostalservice-a77078", "operator": "United States Postal Service", "operator:short": "USPS", "operator:type": "public", "operator:wikidata": "Q668687", "ref": "2313900008"}, "type": "Feature"}
{"dataset_attributes": {"@spider": "usps_collection_boxes"}, "geometry": {"coordinates": [-77.9167377, 37.538177], "type": "Point"}, "id": "dBl4llJq1f5iaEbm1D7tk5UqapU=", "properties": {"@spider": "usps_collection_boxes", "addr:city": "POWHATAN", "addr:country": "US", "addr:full": "3834 OLD BUCKINGHAM RD", "addr:postcode": "23139", "addr:state": "VA", "amenity": "post_box", "brand": "United States Postal Service", "brand:wikidata": "Q668687", "collection_times": "Mo-Sa 11:00", "name": "USPS COLLECTION BOX - BLUE BOX", "nsi_id": "unitedstatespostalservice-a77078", "operator": "United States Postal Service", "operator:short": "USPS", "operator:type": "public", "operator:wikidata": "Q668687", "ref": "2313900009"}, "type": "Feature"}
{"dataset_attributes": {"@spider": "usps_collection_boxes"}, "geometry": {"coordinates": [-77.7907951, 37.515939], "type": "Point"}, "id": "eHMyY0bVDnga3vNheyOylEAAJ1M=", "properties": {"@spider": "usps_collection_boxes", "addr:city": "POWHATAN", "addr:country": "US", "addr:full": "1800 SOUTHCREEK ONE STE F", "addr:postcode": "23139", "addr:state": "VA", "amenity": "post_box", "brand": "United States Postal Service", "brand:wikidata": "Q668687", "collection_times": "Mo-Fr 11:00; Sa 10:30", "name": "USPS COLLECTION BOX - BLUE BOX", "nsi_id": "unitedstatespostalservice-a77078", "operator": "United States Postal Service", "operator:short": "USPS", "operator:type": "public", "operator:wikidata": "Q668687", "ref": "2313900010"}, "type": "Feature"}
{"dataset_attributes": {"@spider": "usps_collection_boxes"}, "geometry": {"coordinates": [-77.939919506, 37.554762399], "type": "Point"}, "id": "M7iQOLLPLAaAMky0KULtKBtpOwM=", "properties": {"@spider": "usps_collection_boxes", "addr:city": "POWHATAN", "addr:country": "US", "addr:full": "4195 ANDERSON HWY", "addr:postcode": "23139", "addr:state": "VA", "amenity": "post_box", "brand": "United States Postal Service", "brand:wikidata": "Q668687", "collection_times": "Mo-Fr 16:30; Sa 12:00", "name": "USPS COLLECTION BOX - PO LOBBY", "note": "ON 12/24 AND 12/31, THIS BOX MAY BE COLLECTED AS EARLY AS 12 NOON.", "nsi_id": "unitedstatespostalservice-a77078", "operator": "United States Postal Service", "operator:short": "USPS", "operator:type": "public", "operator:wikidata": "Q668687", "ref": "2313900011"}, "type": "Feature"}
{"dataset_attributes": {"@spider": "usps_collection_boxes"}, "geometry": {"coordinates": [-77.939919506, 37.554762399], "type": "Point"}, "id": "vU0PNbXvySmjs9Rpb530rKenZjM=", "properties": {"@spider": "usps_collection_boxes", "addr:city": "POWHATAN", "addr:country": "US", "addr:full": "4195 ANDERSON HWY", "addr:postcode": "23139", "addr:state": "VA", "amenity": "post_box", "brand": "United States Postal Service", "brand:wikidata": "Q668687", "collection_times": "Mo-Fr 16:30; Sa 12:00", "name": "USPS COLLECTION BOX - PO LOBBY", "note": "ON 12/24 AND 12/31, THIS BOX MAY BE COLLECTED AS EARLY AS 12 NOON.", "nsi_id": "unitedstatespostalservice-a77078", "operator": "United States Postal Service", "operator:short": "USPS", "operator:type": "public", "operator:wikidata": "Q668687", "ref": "2313900016"}, "type": "Feature"}
{"dataset_attributes": {"@spider": "usps_collection_boxes"}, "geometry": {"coordinates": [-77.044281268, 37.443143042], "type": "Point"}, "id": "uWDOqVGud6piRTTGKMmWrZCzw0k=", "properties": {"@spider": "usps_collection_boxes", "addr:city": "PROVDENCE FRG", "addr:country": "US", "addr:full": "3511 N COURTHOUSE RD", "addr:postcode": "23140", "addr:state": "VA", "amenity": "post_box", "brand": "United States Postal Service", "brand:wikidata": "Q668687", "collection_times": "Mo-Fr 17:00; Sa 11:30", "name": "USPS COLLECTION BOX - BLUE BOX", "note": "ON 12/24 AND 12/31, THIS BOX MAY BE COLLECTED AS EARLY AS 12 NOON.", "nsi_id": "unitedstatespostalservice-a77078", "operator": "United States Postal Service", "operator:short": "USPS", "operator:type": "public", "operator:wikidata": "Q668687", "ref": "2314000001"}, "type": "Feature"}
{"dataset_attributes": {"@spider": "usps_collection_boxes"}, "geometry": {"coordinates": [-77.044281268, 37.443143042], "type": "Point"}, "id": "Ee8YJ85JabzAAzAxr10OH5dyyvk=", "properties": {"@spider": "usps_collection_boxes", "addr:city": "PROVDENCE FRG", "addr:country": "US", "addr:full": "3511 N COURTHOUSE RD", "addr:postcode": "23140", "addr:state": "VA", "amenity": "post_box", "brand": "United States Postal Service", "brand:wikidata": "Q668687", "collection_times": "Mo-Fr 17:00; Sa 11:30", "name": "USPS COLLECTION BOX - PO LOBBY", "note": "ON 12/24 AND 12/31, THIS BOX MAY BE COLLECTED AS EARLY AS 12 NOON.", "nsi_id": "unitedstatespostalservice-a77078", "operator": "United States Postal Service", "operator:short": "USPS", "operator:type": "public", "operator:wikidata": "Q668687", "ref": "2314000002"}, "type": "Feature"}
{"dataset_attributes": {"@spider": "usps_collection_boxes"}, "geometry": {"coordinates": [-77.0442696281, 37.4431072307], "type": "Point"}, "id": "Q6ET7M-CpULabgpLhn-xqqZy21c=", "properties": {"@spider": "usps_collection_boxes", "addr:city": "PROVDENCE FRG", "addr:country": "US", "addr:full": "3511 N COURTHOUSE RD", "addr:postcode": "23140", "addr:state": "VA", "amenity": "post_box", "brand": "United States Postal Service", "brand:wikidata": "Q668687", "collection_times": "Mo-Fr 17:00; Sa 12:00", "name": "USPS COLLECTION BOX - PO LOBBY", "note": "ON 12/24 AND 12/31, THIS BOX MAY BE COLLECTED AS EARLY AS 12 NOON.", "nsi_id": "unitedstatespostalservice-a77078", "operator": "United States Postal Service", "operator:short": "USPS", "operator:type": "public", "operator:wikidata": "Q668687", "ref": "2314000004"}, "type": "Feature"}
{"dataset_attributes": {"@spider": "usps_collection_boxes"}, "geometry": {"coordinates": [-77.18614166, 37.520319913], "type": "Point"}, "id": "vWimK4l6c3yLK1M0LPLDRI7iO9w=", "properties": {"@spider": "usps_collection_boxes", "addr:city": "QUINTON", "addr:country": "US", "addr:full": "2510 NEW KENT HWY", "addr:postcode": "23141", "addr:state": "VA", "amenity": "post_box", "brand": "United States Postal Service", "brand:wikidata": "Q668687", "collection_times": "Mo-Fr 16:45; Sa 11:30", "name": "USPS COLLECTION BOX - BLUE BOX", "note": "ON 12/24 AND 12/31, THIS BOX MAY BE COLLECTED AS EARLY AS 12 NOON.", "nsi_id": "unitedstatespostalservice-a77078", "operator": "United States Postal Service", "operator:short": "USPS", "operator:type": "public", "operator:wikidata": "Q668687", "ref": "2314100001"}, "type": "Feature"}
{"dataset_attributes": {"@spider": "usps_collection_boxes"}, "geometry": {"coordinates": [-77.18614166, 37.520319913], "type": "Point"}, "id": "e_3LEvnE0i7Iw6RKIl6TrisbiyE=", "properties": {"@spider": "usps_collection_boxes", "addr:city": "QUINTON", "addr:country": "US", "addr:full": "2510 NEW KENT HWY", "addr:postcode": "23141", "addr:state": "VA", "amenity": "post_box", "brand": "United States Postal Service", "brand:wikidata": "Q668687", "collection_times": "Mo-Fr 16:45; Sa 11:30", "name": "USPS COLLECTION BOX - PO LOBBY", "note": "ON 12/24 AND 12/31, THIS BOX MAY BE COLLECTED AS EARLY AS 12 NOON.", "nsi_id": "unitedstatespostalservice-a77078", "operator": "United States Postal Service", "operator:short": "USPS", "operator:type": "public", "operator:wikidata": "Q668687", "ref": "2314100002"}, "type": "Feature"}
{"dataset_attributes": {"@spider": "usps_collection_boxes"}, "geometry": {"coordinates": [-77.18614166, 37.520319913], "type": "Point"}, "id": "yWqXJuTIGyWpY7fcIMB1YyJnljY=", "properties": {"@spider": "usps_collection_boxes", "addr:city": "QUINTON", "addr:country": "US", "addr:full": "2510 NEW KENT HWY", "addr:postcode": "23141", "addr:state": "VA", "amenity": "post_box", "brand": "United States Postal Service", "brand:wikidata": "Q668687", "collection_times": "Mo-Fr 17:00; Sa 12:00", "name": "USPS COLLECTION BOX - PO LOBBY", "note": "ON 12/24 AND 12/31, THIS BOX MAY BE COLLECTED AS EARLY AS 12 NOON.", "nsi_id": "unitedstatespostalservice-a77078", "operator": "United States Postal Service", "operator:short": "USPS", "operator:type": "public", "operator:wikidata": "Q668687", "ref": "2314100004"}, "type": "Feature"}
{"dataset_attributes": {"@spider": "usps_collection_boxes"}, "geometry": {"coordinates": [-77.677234517, 37.725997444], "type": "Point"}, "id": "mOWk-peBEBrRFbT-zQPP-lI--Ec=", "properties": {"@spider": "usps_collection_boxes", "addr:city": "ROCKVILLE", "addr:country": "US", "addr:full": "16590 POUNCEY TRACT RD", "addr:postcode": "23146", "addr:state": "VA", "amenity": "post_box", "brand": "United States Postal Service", "brand:wikidata": "Q668687", "collection_times": "Mo-Fr 15:45; Sa 10:00", "name": "USPS COLLECTION BOX - PO LOBBY", "note": "ON 12/24 AND 12/31, THIS BOX MAY BE COLLECTED AS EARLY AS 12 NOON.", "nsi_id": "unitedstatespostalservice-a77078", "operator": "United States Postal Service", "operator:short": "USPS", "operator:type": "public", "operator:wikidata": "Q668687", "ref": "2314600002"}, "type": "Feature"}
{"dataset_attributes": {"@spider": "usps_collection_boxes"}, "geometry": {"coordinates": [-77.677234517, 37.725997444], "type": "Point"}, "id": "kLJX5k4WGJarnA9wllk_bMYG1_k=", "properties": {"@spider": "usps_collection_boxes", "addr:city": "ROCKVILLE", "addr:country": "US", "addr:full": "16590 POUNCEY TRACT RD", "addr:postcode": "23146", "addr:state": "VA", "amenity": "post_box", "brand": "United States Postal Service", "brand:wikidata": "Q668687", "collection_times": "Mo-Fr 16:00; Sa 10:00", "name": "USPS COLLECTION BOX - PO LOBBY", "note": "ON 12/24 AND 12/31, THIS BOX MAY BE COLLECTED AS EARLY AS 12 NOON.", "nsi_id": "unitedstatespostalservice-a77078", "operator": "United States Postal Service", "operator:short": "USPS", "operator:type": "public", "operator:wikidata": "Q668687", "ref": "2314600004"}, "type": "Feature"}
{"dataset_attributes": {"@spider": "usps_collection_boxes"}, "geometry": {"coordinates": [-77.04286, 37.3669], "type": "Point"}, "id": "EuQVl2gY0ikwh0uGbAAq7DMOqrk=", "properties": {"@spider": "usps_collection_boxes", "addr:city": "RUTHVILLE", "addr:country": "US", "addr:full": "13121 THE GLEBE LN", "addr:postcode": "23147", "addr:state": "VA", "amenity": "post_box", "brand": "United States Postal Service", "brand:wikidata": "Q668687", "collection_times": "Mo-Fr 16:15; Sa 11:30", "name": "USPS COLLECTION BOX - BLUE BOX", "note": "ON 12/24 AND 12/31, THIS BOX MAY BE COLLECTED AS EARLY AS 12 NOON.", "nsi_id": "unitedstatespostalservice-a77078", "operator": "United States Postal Service", "operator:short": "USPS", "operator:type": "public", "operator:wikidata": "Q668687", "ref": "2314700001"}, "type": "Feature"}
{"dataset_attributes": {"@spider": "usps_collection_boxes"}, "geometry": {"coordinates": [-77.04143, 37.367158], "type": "Point"}, "id": "qc8QFahwcb6fc79DDqQST8Kq_Io=", "properties": {"@spider": "usps_collection_boxes", "addr:city": "RUTHVILLE", "addr:country": "US", "addr:full": "13121 THE GLEBE LN", "addr:postcode": "23147", "addr:state": "VA", "amenity": "post_box", "brand": "United States Postal Service", "brand:wikidata": "Q668687", "collection_times": "Mo-Fr 16:25; Sa 11:30", "name": "USPS COLLECTION BOX - PO LOBBY", "note": "ON 12/24 AND 12/31, THIS BOX MAY BE COLLECTED AS EARLY AS 12 NOON.", "nsi_id": "unitedstatespostalservice-a77078", "operator": "United States Postal Service", "operator:short": "USPS", "operator:type": "public", "operator:wikidata": "Q668687", "ref": "2314700002"}, "type": "Feature"}
{"dataset_attributes": {"@spider": "usps_collection_boxes"}, "geometry": {"coordinates": [-77.0414421953, 37.3673069697], "type": "Point"}, "id": "Yx_Psv7Fidp3yQSCw2cxyoCQWpw=", "properties": {"@spider": "usps_collection_boxes", "addr:city": "RUTHVILLE", "addr:country": "US", "addr:full": "13121 THE GLEBE LN", "addr:postcode": "23147", "addr:state": "VA", "amenity": "post_box", "brand": "United States Postal Service", "brand:wikidata": "Q668687", "collection_times": "Mo-Fr 16:30; Sa 11:30", "name": "USPS COLLECTION BOX - PO LOBBY", "note": "ON 12/24 AND 12/31, THIS BOX MAY BE COLLECTED AS EARLY AS 12 NOON.", "nsi_id": "unitedstatespostalservice-a77078", "operator": "United States Postal Service", "operator:short": "USPS", "operator:type": "public", "operator:wikidata": "Q668687", "ref": "2314700004"}, "type": "Feature"}
{"dataset_attributes": {"@spider": "usps_collection_boxes"}, "geometry": {"coordinates": [-77.056795231, 37.803385275], "type": "Point"}, "id": "WoFJuVJS6oW2L3FmgYObur_56-E=", "properties": {"@spider": "usps_collection_boxes", "addr:city": "ST STEPHENS CH", "addr:country": "US", "addr:full": "13280 RICHMOND TAPPAHANNOCK HWY", "addr:postcode": "23148", "addr:state": "VA", "amenity": "post_box", "brand": "United States Postal Service", "brand:wikidata": "Q668687", "collection_times": "Mo-Fr 16:35; Sa 12:00", "name": "USPS COLLECTION BOX - BLUE BOX", "note": "ON 12/24 AND 12/31, THIS BOX MAY BE COLLECTED AS EARLY AS 12 NOON.", "nsi_id": "unitedstatespostalservice-a77078", "operator": "United States Postal Service", "operator:short": "USPS", "operator:type": "public", "operator:wikidata": "Q668687", "ref": "2314800001"}, "type": "Feature"}
{"dataset_attributes": {"@spider": "usps_collection_boxes"}, "geometry": {"coordinates": [-77.056795231, 37.803385275], "type": "Point"}, "id": "ULBEdLps1GNkC25TR047aNB518k=", "properties": {"@spider": "usps_collection_boxes", "addr:city": "ST STEPHENS CH", "addr:country": "US", "addr:full": "13280 RICHMOND TAPPAHANNOCK HWY", "addr:postcode": "23148", "addr:state": "VA", "amenity": "post_box", "brand": "United States Postal Service", "brand:wikidata": "Q668687", "collection_times": "Mo-Fr 16:35; Sa 12:00", "name": "USPS COLLECTION BOX - PO LOBBY", "note": "ON 12/24 AND 12/31, THIS BOX MAY BE COLLECTED AS EARLY AS 12 NOON.", "nsi_id": "unitedstatespostalservice-a77078", "operator": "United States Postal Service", "operator:short": "USPS", "operator:type": "public", "operator:wikidata": "Q668687", "ref": "2314800002"}, "type": "Feature"}
{"dataset_attributes": {"@spider": "usps_collection_boxes"}, "geometry": {"coordinates": [-77.056795231, 37.803385275], "type": "Point"}, "id": "Jstt3c56ekCSEpHF92sBsQYRMKY=", "properties": {"@spider": "usps_collection_boxes", "addr:city": "ST STEPHENS CH", "addr:country": "US", "addr:full": "13280 RICHMOND TAPPAHANNOCK HWY", "addr:postcode": "23148", "addr:state": "VA", "amenity": "post_box", "brand": "United States Postal Service", "brand:wikidata": "Q668687", "collection_times": "Mo-Fr 16:30; Sa 12:00", "name": "USPS COLLECTION BOX - PO LOBBY", "note": "ON 12/24 AND 12/31, THIS BOX MAY BE COLLECTED AS EARLY AS 12 NOON.", "nsi_id": "unitedstatespostalservice-a77078", "operator": "United States Postal Service", "operator:short": "USPS", "operator:type": "public", "operator:wikidata": "Q668687", "ref": "2314800004"}, "type": "Feature"}
{"dataset_attributes": {"@spider": "usps_collection_boxes"}, "geometry": {"coordinates": [-76.5955049994, 37.6053469896], "type": "Point"}, "id": "BzW2cfiftxhkvtg_uwsJJHyHdeI=", "properties": {"@spider": "usps_collection_boxes", "addr:city": "SALUDA", "addr:country": "US", "addr:full": "880 GLOUCESTER RD", "addr:postcode": "23149", "addr:state": "VA", "amenity": "post_box", "brand": "United States Postal Service", "brand:wikidata": "Q668687", "collection_times": "Mo-Fr 16:45; Sa 11:45", "name": "USPS COLLECTION BOX - BLUE BOX", "note": "ON 12/24 AND 12/31, THIS BOX MAY BE COLLECTED AS EARLY AS 12 NOON.", "nsi_id": "unitedstatespostalservice-a77078", "operator": "United States Postal Service", "operator:short": "USPS", "operator:type": "public", "operator:wikidata": "Q668687", "ref": "2314900001"}, "type": "Feature"}
{"dataset_attributes": {"@spider": "usps_collection_boxes"}, "geometry": {"coordinates": [-76.595901996, 37.605220321], "type": "Point"}, "id": "4zjrDl1gUoF8IezPuYAzq_VfpKE=", "properties": {"@spider": "usps_collection_boxes", "addr:city": "SALUDA", "addr:country": "US", "addr:full": "880 GLOUCESTER RD", "addr:postcode": "23149", "addr:state": "VA", "amenity": "post_box", "brand": "United States Postal Service", "brand:wikidata": "Q668687", "collection_times": "Mo-Fr 16:45; Sa 11:45", "name": "USPS COLLECTION BOX - PO LOBBY", "note": "ON 12/24 AND 12/31, THIS BOX MAY BE COLLECTED AS EARLY AS 12 NOON.", "nsi_id": "unitedstatespostalservice-a77078", "operator": "United States Postal Service", "operator:short": "USPS", "operator:type": "public", "operator:wikidata": "Q668687", "ref": "2314900002"}, "type": "Feature"}
{"dataset_attributes": {"@spider": "usps_collection_boxes"}, "geometry": {"coordinates": [-76.595901996, 37.605220321], "type": "Point"}, "id": "YpR-u0EBN9Hnk4sthkH1bFmcEJI=", "properties": {"@spider": "usps_collection_boxes", "addr:city": "SALUDA", "addr:country": "US", "addr:full": "880 GLOUCESTER RD", "addr:postcode": "23149", "addr:state": "VA", "amenity": "post_box", "brand": "United States Postal Service", "brand:wikidata": "Q668687", "collection_times": "Mo-Fr 17:00; Sa 12:00", "name": "USPS COLLECTION BOX - PO LOBBY", "note": "ON 12/24 AND 12/31, THIS BOX MAY BE COLLECTED AS EARLY AS 12 NOON.", "nsi_id": "unitedstatespostalservice-a77078", "operator": "United States Postal Service", "operator:short": "USPS", "operator:type": "public", "operator:wikidata": "Q668687", "ref": "2314900004"}, "type": "Feature"}
{"dataset_attributes": {"@spider": "usps_collection_boxes"}, "geometry": {"coordinates": [-77.315607, 37.523601], "type": "Point"}, "id": "op31p7NEOgsc-Jo494rmJH6zyhk=", "properties": {"@spider": "usps_collection_boxes", "addr:city": "SANDSTON", "addr:country": "US", "addr:full": "40 W WILLIAMSBURG RD", "addr:postcode": "23150", "addr:state": "VA", "amenity": "post_box", "brand": "United States Postal Service", "brand:wikidata": "Q668687", "collection_times": "Mo-Fr 17:00; Sa 12:00", "name": "USPS COLLECTION BOX - BLUE BOX", "note": "ON 12/24 AND 12/31, THIS BOX MAY BE COLLECTED AS EARLY AS 12 NOON.", "nsi_id": "unitedstatespostalservice-a77078", "operator": "United States Postal Service", "operator:short": "USPS", "operator:type": "public", "operator:wikidata": "Q668687", "ref": "2315000001"}, "type": "Feature"}
{"dataset_attributes": {"@spider": "usps_collection_boxes"}, "geometry": {"coordinates": [-77.315589, 37.523418], "type": "Point"}, "id": "3y3c0Re1r--atZb2kqcYjKNDOwg=", "properties": {"@spider": "usps_collection_boxes", "addr:city": "SANDSTON", "addr:country": "US", "addr:full": "40 W WILLIAMSBURG RD", "addr:postcode": "23150", "addr:state": "VA", "amenity": "post_box", "brand": "United States Postal Service", "brand:wikidata": "Q668687", "collection_times": "Mo-Fr 17:00; Sa 12:00", "name": "USPS COLLECTION BOX - BLUE BOX", "note": "ON 12/24 AND 12/31, THIS BOX MAY BE COLLECTED AS EARLY AS 12 NOON.", "nsi_id": "unitedstatespostalservice-a77078", "operator": "United States Postal Service", "operator:short": "USPS", "operator:type": "public", "operator:wikidata": "Q668687", "ref": "2315000016"}, "type": "Feature"}
{"dataset_attributes": {"@spider": "usps_collection_boxes"}, "geometry": {"coordinates": [-77.315589, 37.523418], "type": "Point"}, "id": "VxFrZPsDJkp9ReG4VVTTW1ih8Sw=", "properties": {"@spider": "usps_collection_boxes", "addr:city": "SANDSTON", "addr:country": "US", "addr:full": "40 W WILLIAMSBURG RD", "addr:postcode": "23150", "addr:state": "VA", "amenity": "post_box", "brand": "United States Postal Service", "brand:wikidata": "Q668687", "collection_times": "Mo-Fr 17:00; Sa 12:00", "name": "USPS COLLECTION BOX - PO LOBBY", "note": "ON 12/24 AND 12/31, THIS BOX MAY BE COLLECTED AS EARLY AS 12 NOON.", "nsi_id": "unitedstatespostalservice-a77078", "operator": "United States Postal Service", "operator:short": "USPS", "operator:type": "public", "operator:wikidata": "Q668687", "ref": "2315000017"}, "type": "Feature"}
{"dataset_attributes": {"@spider": "usps_collection_boxes"}, "geometry": {"coordinates": [-77.315589545, 37.523409337], "type": "Point"}, "id": "2mWe4-gGLCONe4vCvrCP3-miGuU=", "properties": {"@spider": "usps_collection_boxes", "addr:city": "SANDSTON", "addr:country": "US", "addr:full": "40W WILLIAMSBURG ROAD", "addr:postcode": "23150", "addr:state": "VA", "amenity": "post_box", "brand": "United States Postal Service", "brand:wikidata": "Q668687", "collection_times": "Mo-Fr 17:00; Sa 11:00", "name": "USPS COLLECTION BOX - PO LOBBY", "note": "ON 12/24 AND 12/31, THIS BOX MAY BE COLLECTED AS EARLY AS 12 NOON.", "nsi_id": "unitedstatespostalservice-a77078", "operator": "United States Postal Service", "operator:short": "USPS", "operator:type": "public", "operator:wikidata": "Q668687", "ref": "2315000047"}, "type": "Feature"}
{"dataset_attributes": {"@spider": "usps_collection_boxes"}, "geometry": {"coordinates": [-77.91230025, 37.752170687], "type": "Point"}, "id": "tsoVmAZGNE3W_aqJ9bX_c2EPn7Q=", "properties": {"@spider": "usps_collection_boxes", "addr:city": "SANDY HOOK", "addr:country": "US", "addr:full": "2883 SANDY HOOK RD", "addr:postcode": "23153", "addr:state": "VA", "amenity": "post_box", "brand": "United States Postal Service", "brand:wikidata": "Q668687", "collection_times": "Mo-Sa 10:00", "name": "USPS COLLECTION BOX - BLUE BOX", "nsi_id": "unitedstatespostalservice-a77078", "operator": "United States Postal Service", "operator:short": "USPS", "operator:type": "public", "operator:wikidata": "Q668687", "ref": "2315300001"}, "type": "Feature"}
{"dataset_attributes": {"@spider": "usps_collection_boxes"}, "geometry": {"coordinates": [-77.91230025, 37.752170687], "type": "Point"}, "id": "9lXUdZ9j_zNHLFhmuSgSJGiq5L0=", "properties": {"@spider": "usps_collection_boxes", "addr:city": "SANDY HOOK", "addr:country": "US", "addr:full": "2883 SANDY HOOK RD", "addr:postcode": "23153", "addr:state": "VA", "amenity": "post_box", "brand": "United States Postal Service", "brand:wikidata": "Q668687", "collection_times": "Mo-Fr 14:00; Sa 11:30", "name": "USPS COLLECTION BOX - PO LOBBY", "note": "ON 12/24 AND 12/31, THIS BOX MAY BE COLLECTED AS EARLY AS 12 NOON.", "nsi_id": "unitedstatespostalservice-a77078", "operator": "United States Postal Service", "operator:short": "USPS", "operator:type": "public", "operator:wikidata": "Q668687", "ref": "2315300003"}, "type": "Feature"}
{"dataset_attributes": {"@spider": "usps_collection_boxes"}, "geometry": {"coordinates": [-76.44901457, 37.388795092], "type": "Point"}, "id": "qBFZwaSAgZDJyC8mssBVSyn6q28=", "properties": {"@spider": "usps_collection_boxes", "addr:city": "SCHLEY", "addr:country": "US", "addr:full": "5778 WARE NECK RD", "addr:postcode": "23154", "addr:state": "VA", "amenity": "post_box", "brand": "United States Postal Service", "brand:wikidata": "Q668687", "collection_times": "Mo-Sa 10:15", "name": "USPS COLLECTION BOX - PO LOBBY", "nsi_id": "unitedstatespostalservice-a77078", "operator": "United States Postal Service", "operator:short": "USPS", "operator:type": "public", "operator:wikidata": "Q668687", "ref": "2315400002"}, "type": "Feature"}
{"dataset_attributes": {"@spider": "usps_collection_boxes"}, "geometry": {"coordinates": [-76.44901457, 37.388795092], "type": "Point"}, "id": "h75w2dwm6F_IAJQG-Z-1oMXmAbg=", "properties": {"@spider": "usps_collection_boxes", "addr:city": "SCHLEY", "addr:country": "US", "addr:full": "5778 WARE NECK RD", "addr:postcode": "23154", "addr:state": "VA", "amenity": "post_box", "brand": "United States Postal Service", "brand:wikidata": "Q668687", "collection_times": "Mo-Fr 12:00; Sa 12:30", "name": "USPS COLLECTION BOX - PO LOBBY", "note": "ON 12/24 AND 12/31, THIS BOX MAY BE COLLECTED AS EARLY AS 12 NOON.", "nsi_id": "unitedstatespostalservice-a77078", "operator": "United States Postal Service", "operator:short": "USPS", "operator:type": "public", "operator:wikidata": "Q668687", "ref": "2315400004"}, "type": "Feature"}
{"dataset_attributes": {"@spider": "usps_collection_boxes"}, "geometry": {"coordinates": [-76.733819825, 37.549095967], "type": "Point"}, "id": "h2Y9l3gd3e0xaw1DrZ5n0GAVbRw=", "properties": {"@spider": "usps_collection_boxes", "addr:city": "SHACKLEFORDS", "addr:country": "US", "addr:full": "30165 THE TRAIL", "addr:postcode": "23156", "addr:state": "VA", "amenity": "post_box", "brand": "United States Postal Service", "brand:wikidata": "Q668687", "collection_times": "Mo-Fr 16:15; Sa 12:00", "name": "USPS COLLECTION BOX - BLUE BOX", "note": "ON 12/24 AND 12/31, THIS BOX MAY BE COLLECTED AS EARLY AS 12 NOON.", "nsi_id": "unitedstatespostalservice-a77078", "operator": "United States Postal Service", "operator:short": "USPS", "operator:type": "public", "operator:wikidata": "Q668687", "ref": "2315600001"}, "type": "Feature"}
{"dataset_attributes": {"@spider": "usps_collection_boxes"}, "geometry": {"coordinates": [-76.733819825, 37.549095967], "type": "Point"}, "id": "RKSkykn0wtigJo90BCCaqGFt_x0=", "properties": {"@spider": "usps_collection_boxes", "addr:city": "SHACKLEFORDS", "addr:country": "US", "addr:full": "30165 THE TRAIL", "addr:postcode": "23156", "addr:state": "VA", "amenity": "post_box", "brand": "United States Postal Service", "brand:wikidata": "Q668687", "collection_times": "Mo-Fr 16:15; Sa 12:00", "name": "USPS COLLECTION BOX - PO LOBBY", "note": "ON 12/24 AND 12/31, THIS BOX MAY BE COLLECTED AS EARLY AS 12 NOON.", "nsi_id": "unitedstatespostalservice-a77078", "operator": "United States Postal Service", "operator:short": "USPS", "operator:type": "public", "operator:wikidata": "Q668687", "ref": "2315600002"}, "type": "Feature"}
{"dataset_attributes": {"@spider": "usps_collection_boxes"}, "geometry": {"coordinates": [-76.733819825, 37.549095967], "type": "Point"}, "id": "tArL-cqKmxhDeuSeCDafdrW672k=", "properties": {"@spider": "usps_collection_boxes", "addr:city": "SHACKLEFORDS", "addr:country": "US", "addr:full": "30165 THE TRAIL", "addr:postcode": "23156", "addr:state": "VA", "amenity": "post_box", "brand": "United States Postal Service", "brand:wikidata": "Q668687", "collection_times": "Mo-Fr 16:30; Sa 12:00", "name": "USPS COLLECTION BOX - PO LOBBY", "note": "ON 12/24 AND 12/31, THIS BOX MAY BE COLLECTED AS EARLY AS 12 NOON.", "nsi_id": "unitedstatespostalservice-a77078", "operator": "United States Postal Service", "operator:short": "USPS", "operator:type": "public", "operator:wikidata": "Q668687", "ref": "2315600004"}, "type": "Feature"}
{"dataset_attributes": {"@spider": "usps_collection_boxes"}, "geometry": {"coordinates": [-77.292982738, 37.676397585], "type": "Point"}, "id": "rhxkIoApSp7siQYts64StvvmKBo=", "properties": {"@spider": "usps_collection_boxes", "addr:city": "STUDLEY", "addr:country": "US", "addr:full": "5411 STUDLEY RD", "addr:postcode": "23162", "addr:state": "VA", "amenity": "post_box", "brand": "United States Postal Service", "brand:wikidata": "Q668687", "collection_times": "Mo-Fr 15:45; Sa 10:45", "name": "USPS COLLECTION BOX - BLUE BOX", "note": "ON 12/24 AND 12/31, THIS BOX MAY BE COLLECTED AS EARLY AS 12 NOON.", "nsi_id": "unitedstatespostalservice-a77078", "operator": "United States Postal Service", "operator:short": "USPS", "operator:type": "public", "operator:wikidata": "Q668687", "ref": "2316200001"}, "type": "Feature"}
{"dataset_attributes": {"@spider": "usps_collection_boxes"}, "geometry": {"coordinates": [-77.292982738, 37.676397585], "type": "Point"}, "id": "dMVIyejqjdJbC7VKyHd1IoeZWF4=", "properties": {"@spider": "usps_collection_boxes", "addr:city": "STUDLEY", "addr:country": "US", "addr:full": "5411 STUDLEY RD", "addr:postcode": "23162", "addr:state": "VA", "amenity": "post_box", "brand": "United States Postal Service", "brand:wikidata": "Q668687", "collection_times": "Mo-Fr 15:45; Sa 10:45", "name": "USPS COLLECTION BOX - PO LOBBY", "note": "ON 12/24 AND 12/31, THIS BOX MAY BE COLLECTED AS EARLY AS 12 NOON.", "nsi_id": "unitedstatespostalservice-a77078", "operator": "United States Postal Service", "operator:short": "USPS", "operator:type": "public", "operator:wikidata": "Q668687", "ref": "2316200002"}, "type": "Feature"}
{"dataset_attributes": {"@spider": "usps_collection_boxes"}, "geometry": {"coordinates": [-77.292982738, 37.676397585], "type": "Point"}, "id": "Ljk7iG2Hc_7x4u77NxFHNEP8g4Q=", "properties": {"@spider": "usps_collection_boxes", "addr:city": "STUDLEY", "addr:country": "US", "addr:full": "5411 STUDLEY RD", "addr:postcode": "23162", "addr:state": "VA", "amenity": "post_box", "brand": "United States Postal Service", "brand:wikidata": "Q668687", "collection_times": "Mo-Fr 16:00; Sa 12:00", "name": "USPS COLLECTION BOX - PO LOBBY", "note": "ON 12/24 AND 12/31, THIS BOX MAY BE COLLECTED AS EARLY AS 12 NOON.", "nsi_id": "unitedstatespostalservice-a77078", "operator": "United States Postal Service", "operator:short": "USPS", "operator:type": "public", "operator:wikidata": "Q668687", "ref": "2316200004"}, "type": "Feature"}
{"dataset_attributes": {"@spider": "usps_collection_boxes"}, "geometry": {"coordinates": [-76.314312143, 37.365737227], "type": "Point"}, "id": "ATYiL9EBHNT8g5dHByssnm9MqoY=", "properties": {"@spider": "usps_collection_boxes", "addr:city": "SUSAN", "addr:country": "US", "addr:full": "5297 NEW POINT COMFORT HWY", "addr:postcode": "23163", "addr:state": "VA", "amenity": "post_box", "brand": "United States Postal Service", "brand:wikidata": "Q668687", "collection_times": "Mo-Fr 13:30; Sa 12:00", "name": "USPS COLLECTION BOX - PO LOBBY", "note": "ON 12/24 AND 12/31, THIS BOX MAY BE COLLECTED AS EARLY AS 12 NOON.", "nsi_id": "unitedstatespostalservice-a77078", "operator": "United States Postal Service", "operator:short": "USPS", "operator:type": "public", "operator:wikidata": "Q668687", "ref": "2316300002"}, "type": "Feature"}
{"dataset_attributes": {"@spider": "usps_collection_boxes"}, "geometry": {"coordinates": [-76.314312143, 37.365737227], "type": "Point"}, "id": "6eWyxqIZ5hSSAn7gVCuILpCB4mA=", "properties": {"@spider": "usps_collection_boxes", "addr:city": "SUSAN", "addr:country": "US", "addr:full": "5297 NEW POINT COMFORT HWY", "addr:postcode": "23163", "addr:state": "VA", "amenity": "post_box", "brand": "United States Postal Service", "brand:wikidata": "Q668687", "collection_times": "Mo-Fr 13:30; Sa 12:00", "name": "USPS COLLECTION BOX - PO LOBBY", "note": "ON 12/24 AND 12/31, THIS BOX MAY BE COLLECTED AS EARLY AS 12 NOON.", "nsi_id": "unitedstatespostalservice-a77078", "operator": "United States Postal Service", "operator:short": "USPS", "operator:type": "public", "operator:wikidata": "Q668687", "ref": "2316300004"}, "type": "Feature"}
{"dataset_attributes": {"@spider": "usps_collection_boxes"}, "geometry": {"coordinates": [-76.805091913, 37.380795401], "type": "Point"}, "id": "U_1yU77jxjis6y2EjLN-zNr9YD0=", "properties": {"@spider": "usps_collection_boxes", "addr:city": "TOANO", "addr:country": "US", "addr:full": "7890 RICHMOND RD", "addr:postcode": "23168", "addr:state": "VA", "amenity": "post_box", "brand": "United States Postal Service", "brand:wikidata": "Q668687", "collection_times": "Mo-Fr 16:45; Sa 11:30", "name": "USPS COLLECTION BOX - BLUE BOX", "note": "ON 12/24 AND 12/31, THIS BOX MAY BE COLLECTED AS EARLY AS 12 NOON.", "nsi_id": "unitedstatespostalservice-a77078", "operator": "United States Postal Service", "operator:short": "USPS", "operator:type": "public", "operator:wikidata": "Q668687", "ref": "2316800001"}, "type": "Feature"}
{"dataset_attributes": {"@spider": "usps_collection_boxes"}, "geometry": {"coordinates": [-76.805091913, 37.380795401], "type": "Point"}, "id": "FHLvDStrgaRt7vwaAj222TdbNuU=", "properties": {"@spider": "usps_collection_boxes", "addr:city": "TOANO", "addr:country": "US", "addr:full": "7890 RICHMOND RD", "addr:postcode": "23168", "addr:state": "VA", "amenity": "post_box", "brand": "United States Postal Service", "brand:wikidata": "Q668687", "collection_times": "Mo-Fr 16:45; Sa 11:30", "name": "USPS COLLECTION BOX - PO LOBBY", "note": "ON 12/24 AND 12/31, THIS BOX MAY BE COLLECTED AS EARLY AS 12 NOON.", "nsi_id": "unitedstatespostalservice-a77078", "operator": "United States Postal Service", "operator:short": "USPS", "operator:type": "public", "operator:wikidata": "Q668687", "ref": "2316800002"}, "type": "Feature"}
{"dataset_attributes": {"@spider": "usps_collection_boxes"}, "geometry": {"coordinates": [-76.805091913, 37.380795401], "type": "Point"}, "id": "487PImZN2hyOOcjOIf7b0ao_TLo=", "properties": {"@spider": "usps_collection_boxes", "addr:city": "TOANO", "addr:country": "US", "addr:full": "7890 RICHMOND RD", "addr:postcode": "23168", "addr:state": "VA", "amenity": "post_box", "brand": "United States Postal Service", "brand:wikidata": "Q668687", "collection_times": "Mo-Fr 16:45; Sa 11:30", "name": "USPS COLLECTION BOX - PO LOBBY", "note": "ON 12/24 AND 12/31, THIS BOX MAY BE COLLECTED AS EARLY AS 12 NOON.", "nsi_id": "unitedstatespostalservice-a77078", "operator": "United States Postal Service", "operator:short": "USPS", "operator:type": "public", "operator:wikidata": "Q668687", "ref": "2316800004"}, "type": "Feature"}
{"dataset_attributes": {"@spider": "usps_collection_boxes"}, "geometry": {"coordinates": [-76.473654807, 37.588502506], "type": "Point"}, "id": "cqehJzrTtAdLTJGYS0r_FfZm78U=", "properties": {"@spider": "usps_collection_boxes", "addr:city": "TOPPING", "addr:country": "US", "addr:full": "882 GREYS POINT RD", "addr:postcode": "23169", "addr:state": "VA", "amenity": "post_box", "brand": "United States Postal Service", "brand:wikidata": "Q668687", "collection_times": "Mo-Fr 16:45; Sa 11:15", "name": "USPS COLLECTION BOX - BLUE BOX", "note": "ON 12/24 AND 12/31, THIS BOX MAY BE COLLECTED AS EARLY AS 12 NOON.", "nsi_id": "unitedstatespostalservice-a77078", "operator": "United States Postal Service", "operator:short": "USPS", "operator:type": "public", "operator:wikidata": "Q668687", "ref": "2316900001"}, "type": "Feature"}
{"dataset_attributes": {"@spider": "usps_collection_boxes"}, "geometry": {"coordinates": [-76.473654807, 37.588502506], "type": "Point"}, "id": "zhotJ5V5b9rpxXSqNWhuy75C0Uc=", "properties": {"@spider": "usps_collection_boxes", "addr:city": "TOPPING", "addr:country": "US", "addr:full": "882 GREYS POINT RD", "addr:postcode": "23169", "addr:state": "VA", "amenity": "post_box", "brand": "United States Postal Service", "brand:wikidata": "Q668687", "collection_times": "Mo-Fr 16:45; Sa 11:30", "name": "USPS COLLECTION BOX - PO LOBBY", "note": "ON 12/24 AND 12/31, THIS BOX MAY BE COLLECTED AS EARLY AS 12 NOON.", "nsi_id": "unitedstatespostalservice-a77078", "operator": "United States Postal Service", "operator:short": "USPS", "operator:type": "public", "operator:wikidata": "Q668687", "ref": "2316900002"}, "type": "Feature"}
{"dataset_attributes": {"@spider": "usps_collection_boxes"}, "geometry": {"coordinates": [-76.473654807, 37.588502506], "type": "Point"}, "id": "uN5EjbTwQKeAg2wL_x_gv-FRs_w=", "properties": {"@spider": "usps_collection_boxes", "addr:city": "TOPPING", "addr:country": "US", "addr:full": "882 GREYS POINT RD", "addr:postcode": "23169", "addr:state": "VA", "amenity": "post_box", "brand": "United States Postal Service", "brand:wikidata": "Q668687", "collection_times": "Mo-Fr 16:30; Sa 11:15", "name": "USPS COLLECTION BOX - PO LOBBY", "note": "ON 12/24 AND 12/31, THIS BOX MAY BE COLLECTED AS EARLY AS 12 NOON.", "nsi_id": "unitedstatespostalservice-a77078", "operator": "United States Postal Service", "operator:short": "USPS", "operator:type": "public", "operator:wikidata": "Q668687", "ref": "2316900004"}, "type": "Feature"}
{"dataset_attributes": {"@spider": "usps_collection_boxes"}, "geometry": {"coordinates": [-76.576076533, 37.636365162], "type": "Point"}, "id": "FguMq3SbVqsg9Tp0Zt4xjHhw1cc=", "properties": {"@spider": "usps_collection_boxes", "addr:city": "URBANNA", "addr:country": "US", "addr:full": "251 VIRGINIA ST", "addr:postcode": "23175", "addr:state": "VA", "amenity": "post_box", "brand": "United States Postal Service", "brand:wikidata": "Q668687", "collection_times": "Mo-Fr 16:45; Sa 11:45", "name": "USPS COLLECTION BOX - BLUE BOX", "note": "ON 12/24 AND 12/31, THIS BOX MAY BE COLLECTED AS EARLY AS 12 NOON.", "nsi_id": "unitedstatespostalservice-a77078", "operator": "United States Postal Service", "operator:short": "USPS", "operator:type": "public", "operator:wikidata": "Q668687", "ref": "2317500001"}, "type": "Feature"}
{"dataset_attributes": {"@spider": "usps_collection_boxes"}, "geometry": {"coordinates": [-76.576076533, 37.636365162], "type": "Point"}, "id": "C02C0sMwDiBFPDkl4nxoof4sc6c=", "properties": {"@spider": "usps_collection_boxes", "addr:city": "URBANNA", "addr:country": "US", "addr:full": "251 VIRGINIA ST", "addr:postcode": "23175", "addr:state": "VA", "amenity": "post_box", "brand": "United States Postal Service", "brand:wikidata": "Q668687", "collection_times": "Mo-Fr 16:45; Sa 11:45", "name": "USPS COLLECTION BOX - PO LOBBY", "note": "ON 12/24 AND 12/31, THIS BOX MAY BE COLLECTED AS EARLY AS 12 NOON.", "nsi_id": "unitedstatespostalservice-a77078", "operator": "United States Postal Service", "operator:short": "USPS", "operator:type": "public", "operator:wikidata": "Q668687", "ref": "2317500002"}, "type": "Feature"}
{"dataset_attributes": {"@spider": "usps_collection_boxes"}, "geometry": {"coordinates": [-76.576076533, 37.636365162], "type": "Point"}, "id": "W4p5VejRxvG8hgNkO0NPGohWlZk=", "properties": {"@spider": "usps_collection_boxes", "addr:city": "URBANNA", "addr:country": "US", "addr:full": "251 VIRGINIA ST", "addr:postcode": "23175", "addr:state": "VA", "amenity": "post_box", "brand": "United States Postal Service", "brand:wikidata": "Q668687", "collection_times": "Mo-Fr 16:45; Sa 11:45", "name": "USPS COLLECTION BOX - PO LOBBY", "note": "ON 12/24 AND 12/31, THIS BOX MAY BE COLLECTED AS EARLY AS 12 NOON.", "nsi_id": "unitedstatespostalservice-a77078", "operator": "United States Postal Service", "operator:short": "USPS", "operator:type": "public", "operator:wikidata": "Q668687", "ref": "2317500004"}, "type": "Feature"}
{"dataset_attributes": {"@spider": "usps_collection_boxes"}, "geometry": {"coordinates": [-76.429454, 37.568235], "type": "Point"}, "id": "cGyGSMLV9NpW3TI2PEtjlIw_-6o=", "properties": {"@spider": "usps_collection_boxes", "addr:city": "WAKE", "addr:country": "US", "addr:full": "1360 WAKE RD", "addr:postcode": "23176", "addr:state": "VA", "amenity": "post_box", "brand": "United States Postal Service", "brand:wikidata": "Q668687", "collection_times": "Mo-Fr 16:15; Sa 11:45", "name": "USPS COLLECTION BOX - BLUE BOX", "note": "ON 12/24 AND 12/31, THIS BOX MAY BE COLLECTED AS EARLY AS 12 NOON.", "nsi_id": "unitedstatespostalservice-a77078", "operator": "United States Postal Service", "operator:short": "USPS", "operator:type": "public", "operator:wikidata": "Q668687", "ref": "2317600001"}, "type": "Feature"}
{"dataset_attributes": {"@spider": "usps_collection_boxes"}, "geometry": {"coordinates": [-76.429454, 37.568235], "type": "Point"}, "id": "FJD5cTzAi6SWD6c1aE2bnZ0YX2s=", "properties": {"@spider": "usps_collection_boxes", "addr:city": "WAKE", "addr:country": "US", "addr:full": "1360 WAKE RD", "addr:postcode": "23176", "addr:state": "VA", "amenity": "post_box", "brand": "United States Postal Service", "brand:wikidata": "Q668687", "collection_times": "Mo-Fr 16:15; Sa 11:45", "name": "USPS COLLECTION BOX - PO LOBBY", "note": "ON 12/24 AND 12/31, THIS BOX MAY BE COLLECTED AS EARLY AS 12 NOON.", "nsi_id": "unitedstatespostalservice-a77078", "operator": "United States Postal Service", "operator:short": "USPS", "operator:type": "public", "operator:wikidata": "Q668687", "ref": "2317600002"}, "type": "Feature"}
{"dataset_attributes": {"@spider": "usps_collection_boxes"}, "geometry": {"coordinates": [-76.4294537674, 37.5682281682], "type": "Point"}, "id": "BN90ezzkDzzDIyooTuuFMtrt5LM=", "properties": {"@spider": "usps_collection_boxes", "addr:city": "WAKE", "addr:country": "US", "addr:full": "1360 WAKE RD", "addr:postcode": "23176", "addr:state": "VA", "amenity": "post_box", "brand": "United States Postal Service", "brand:wikidata": "Q668687", "collection_times": "Mo-Fr 16:15; Sa 12:45", "name": "USPS COLLECTION BOX - PO LOBBY", "note": "ON 12/24 AND 12/31, THIS BOX MAY BE COLLECTED AS EARLY AS 12 NOON.", "nsi_id": "unitedstatespostalservice-a77078", "operator": "United States Postal Service", "operator:short": "USPS", "operator:type": "public", "operator:wikidata": "Q668687", "ref": "2317600004"}, "type": "Feature"}
{"dataset_attributes": {"@spider": "usps_collection_boxes"}, "geometry": {"coordinates": [-77.023089229, 37.726147036], "type": "Point"}, "id": "z1BExkD5_yhSOWbMNLUjUPbrqZ0=", "properties": {"@spider": "usps_collection_boxes", "addr:city": "WALKERTON", "addr:country": "US", "addr:full": "2954 WALKERTON LANDING RD", "addr:postcode": "23177", "addr:state": "VA", "amenity": "post_box", "brand": "United States Postal Service", "brand:wikidata": "Q668687", "collection_times": "Mo-Fr 16:15; Sa 10:45", "name": "USPS COLLECTION BOX - BLUE BOX", "note": "ON 12/24 AND 12/31, THIS BOX MAY BE COLLECTED AS EARLY AS 12 NOON.", "nsi_id": "unitedstatespostalservice-a77078", "operator": "United States Postal Service", "operator:short": "USPS", "operator:type": "public", "operator:wikidata": "Q668687", "ref": "2317700001"}, "type": "Feature"}
{"dataset_attributes": {"@spider": "usps_collection_boxes"}, "geometry": {"coordinates": [-77.023089229, 37.726147036], "type": "Point"}, "id": "NTdAiGyPqPlDLQ7jxfAKblNx9tM=", "properties": {"@spider": "usps_collection_boxes", "addr:city": "WALKERTON", "addr:country": "US", "addr:full": "2954 WALKERTON LANDING RD", "addr:postcode": "23177", "addr:state": "VA", "amenity": "post_box", "brand": "United States Postal Service", "brand:wikidata": "Q668687", "collection_times": "Mo-Fr 16:15; Sa 11:00", "name": "USPS COLLECTION BOX - PO LOBBY", "note": "ON 12/24 AND 12/31, THIS BOX MAY BE COLLECTED AS EARLY AS 12 NOON.", "nsi_id": "unitedstatespostalservice-a77078", "operator": "United States Postal Service", "operator:short": "USPS", "operator:type": "public", "operator:wikidata": "Q668687", "ref": "2317700002"}, "type": "Feature"}
{"dataset_attributes": {"@spider": "usps_collection_boxes"}, "geometry": {"coordinates": [-77.023089229, 37.726147036], "type": "Point"}, "id": "7UIjF_sYegrd1OWC3g5fAIJrMxI=", "properties": {"@spider": "usps_collection_boxes", "addr:city": "WALKERTON", "addr:country": "US", "addr:full": "2954 WALKERTON LANDING RD", "addr:postcode": "23177", "addr:state": "VA", "amenity": "post_box", "brand": "United States Postal Service", "brand:wikidata": "Q668687", "collection_times": "Mo-Fr 16:15; Sa 11:45", "name": "USPS COLLECTION BOX - PO LOBBY", "note": "ON 12/24 AND 12/31, THIS BOX MAY BE COLLECTED AS EARLY AS 12 NOON.", "nsi_id": "unitedstatespostalservice-a77078", "operator": "United States Postal Service", "operator:short": "USPS", "operator:type": "public", "operator:wikidata": "Q668687", "ref": "2317700005"}, "type": "Feature"}
{"dataset_attributes": {"@spider": "usps_collection_boxes"}, "geometry": {"coordinates": [-76.459314219, 37.402656805], "type": "Point"}, "id": "4CCEP66JI2TOWZhu7TW7fgUKIGY=", "properties": {"@spider": "usps_collection_boxes", "addr:city": "WARE NECK", "addr:country": "US", "addr:full": "6495 WARE NECK RD", "addr:postcode": "23178", "addr:state": "VA", "amenity": "post_box", "brand": "United States Postal Service", "brand:wikidata": "Q668687", "collection_times": "Mo-Fr 14:30; Sa 12:30", "name": "USPS COLLECTION BOX - BLUE BOX", "note": "ON 12/24 AND 12/31, THIS BOX MAY BE COLLECTED AS EARLY AS 12 NOON.", "nsi_id": "unitedstatespostalservice-a77078", "operator": "United States Postal Service", "operator:short": "USPS", "operator:type": "public", "operator:wikidata": "Q668687", "ref": "2317800001"}, "type": "Feature"}
{"dataset_attributes": {"@spider": "usps_collection_boxes"}, "geometry": {"coordinates": [-76.459314219, 37.402656805], "type": "Point"}, "id": "2_vrWJWe-n2bLHCP5o9AxZZLRz8=", "properties": {"@spider": "usps_collection_boxes", "addr:city": "WARE NECK", "addr:country": "US", "addr:full": "6495 WARE NECK RD", "addr:postcode": "23178", "addr:state": "VA", "amenity": "post_box", "brand": "United States Postal Service", "brand:wikidata": "Q668687", "collection_times": "Mo-Fr 14:30; Sa 12:30", "name": "USPS COLLECTION BOX - PO LOBBY", "note": "ON 12/24 AND 12/31, THIS BOX MAY BE COLLECTED AS EARLY AS 12 NOON.", "nsi_id": "unitedstatespostalservice-a77078", "operator": "United States Postal Service", "operator:short": "USPS", "operator:type": "public", "operator:wikidata": "Q668687", "ref": "2317800002"}, "type": "Feature"}
{"dataset_attributes": {"@spider": "usps_collection_boxes"}, "geometry": {"coordinates": [-76.459314219, 37.402656805], "type": "Point"}, "id": "tFa3B25wR5KUUVLojU5ogpsQWc8=", "properties": {"@spider": "usps_collection_boxes", "addr:city": "WARE NECK", "addr:country": "US", "addr:full": "6495 WARE NECK RD", "addr:postcode": "23178", "addr:state": "VA", "amenity": "post_box", "brand": "United States Postal Service", "brand:wikidata": "Q668687", "collection_times": "Mo-Fr 14:30; Sa 13:00", "name": "USPS COLLECTION BOX - PO LOBBY", "note": "ON 12/24 AND 12/31, THIS BOX MAY BE COLLECTED AS EARLY AS 12 NOON.", "nsi_id": "unitedstatespostalservice-a77078", "operator": "United States Postal Service", "operator:short": "USPS", "operator:type": "public", "operator:wikidata": "Q668687", "ref": "2317800004"}, "type": "Feature"}
{"dataset_attributes": {"@spider": "usps_collection_boxes"}, "geometry": {"coordinates": [-76.797855, 37.533753], "type": "Point"}, "id": "nvCfhfCXSZb3S2ly6VUkW4Cm-eg=", "properties": {"@spider": "usps_collection_boxes", "addr:city": "WEST POINT", "addr:country": "US", "addr:full": "925 MAIN ST", "addr:postcode": "23181", "addr:state": "VA", "amenity": "post_box", "brand": "United States Postal Service", "brand:wikidata": "Q668687", "collection_times": "Mo-Fr 17:00; Sa 12:00", "name": "USPS COLLECTION BOX - BLUE BOX", "note": "ON 12/24 AND 12/31, THIS BOX MAY BE COLLECTED AS EARLY AS 12 NOON.", "nsi_id": "unitedstatespostalservice-a77078", "operator": "United States Postal Service", "operator:short": "USPS", "operator:type": "public", "operator:wikidata": "Q668687", "ref": "2318100001"}, "type": "Feature"}
{"dataset_attributes": {"@spider": "usps_collection_boxes"}, "geometry": {"coordinates": [-76.797855, 37.533753], "type": "Point"}, "id": "CMc3Lka2ome3_804Ss71AMNAZdE=", "properties": {"@spider": "usps_collection_boxes", "addr:city": "WEST POINT", "addr:country": "US", "addr:full": "925 MAIN ST", "addr:postcode": "23181", "addr:state": "VA", "amenity": "post_box", "brand": "United States Postal Service", "brand:wikidata": "Q668687", "collection_times": "Mo-Fr 17:00; Sa 12:00", "name": "USPS COLLECTION BOX - PO LOBBY", "note": "ON 12/24 AND 12/31, THIS BOX MAY BE COLLECTED AS EARLY AS 12 NOON.", "nsi_id": "unitedstatespostalservice-a77078", "operator": "United States Postal Service", "operator:short": "USPS", "operator:type": "public", "operator:wikidata": "Q668687", "ref": "2318100002"}, "type": "Feature"}
{"dataset_attributes": {"@spider": "usps_collection_boxes"}, "geometry": {"coordinates": [-76.797855, 37.533753], "type": "Point"}, "id": "d6Wf2BH3Y05hW0HAhClhVaVkC5o=", "properties": {"@spider": "usps_collection_boxes", "addr:city": "WEST POINT", "addr:country": "US", "addr:full": "925 MAIN ST", "addr:postcode": "23181", "addr:state": "VA", "amenity": "post_box", "brand": "United States Postal Service", "brand:wikidata": "Q668687", "collection_times": "Mo-Fr 17:00; Sa 12:00", "name": "USPS COLLECTION BOX - PO LOBBY", "note": "ON 12/24 AND 12/31, THIS BOX MAY BE COLLECTED AS EARLY AS 12 NOON.", "nsi_id": "unitedstatespostalservice-a77078", "operator": "United States Postal Service", "operator:short": "USPS", "operator:type": "public", "operator:wikidata": "Q668687", "ref": "2318100005"}, "type": "Feature"}
{"dataset_attributes": {"@spider": "usps_collection_boxes"}, "geometry": {"coordinates": [-76.5202790024, 37.3418637441], "type": "Point"}, "id": "xw-GHoYkCHXCTx4Dtc0A1vdvDSA=", "properties": {"@spider": "usps_collection_boxes", "addr:city": "WHITE MARSH", "addr:country": "US", "addr:full": "4898 GEORGE WASH MEMORIAL HWY", "addr:postcode": "23183", "addr:state": "VA", "amenity": "post_box", "brand": "United States Postal Service", "brand:wikidata": "Q668687", "collection_times": "Mo-Fr 16:15; Sa 12:00", "name": "USPS COLLECTION BOX - BLUE BOX", "note": "ON 12/24 AND 12/31, THIS BOX MAY BE COLLECTED AS EARLY AS 12 NOON.", "nsi_id": "unitedstatespostalservice-a77078", "operator": "United States Postal Service", "operator:short": "USPS", "operator:type": "public", "operator:wikidata": "Q668687", "ref": "2318300001"}, "type": "Feature"}
{"dataset_attributes": {"@spider": "usps_collection_boxes"}, "geometry": {"coordinates": [-76.5202790024, 37.3418637441], "type": "Point"}, "id": "lJ2CTcFsWIQfh9ksJS3yWxbFZrI=", "properties": {"@spider": "usps_collection_boxes", "addr:city": "WHITE MARSH", "addr:country": "US", "addr:full": "4898 GEORGE WASHINGOTN PKWY", "addr:postcode": "23183", "addr:state": "VA", "amenity": "post_box", "brand": "United States Postal Service", "brand:wikidata": "Q668687", "collection_times": "Mo-Fr 16:15; Sa 12:00", "name": "USPS COLLECTION BOX - PO LOBBY", "note": "ON 12/24 AND 12/31, THIS BOX MAY BE COLLECTED AS EARLY AS 12 NOON.", "nsi_id": "unitedstatespostalservice-a77078", "operator": "United States Postal Service", "operator:short": "USPS", "operator:type": "public", "operator:wikidata": "Q668687", "ref": "2318300002"}, "type": "Feature"}
{"dataset_attributes": {"@spider": "usps_collection_boxes"}, "geometry": {"coordinates": [-76.519332192, 37.340134378], "type": "Point"}, "id": "DmUT9sliEWY_jAqAptdU5xe2Zz0=", "properties": {"@spider": "usps_collection_boxes", "addr:city": "WHITE MARSH", "addr:country": "US", "addr:full": "4898 GEORGE WASHINGTON MEMORIAL HWY", "addr:postcode": "23183", "addr:state": "VA", "amenity": "post_box", "brand": "United States Postal Service", "brand:wikidata": "Q668687", "collection_times": "Mo-Fr 16:15; Sa 12:00", "name": "USPS COLLECTION BOX - PO LOBBY", "note": "ON 12/24 AND 12/31, THIS BOX MAY BE COLLECTED AS EARLY AS 12 NOON.", "nsi_id": "unitedstatespostalservice-a77078", "operator": "United States Postal Service", "operator:short": "USPS", "operator:type": "public", "operator:wikidata": "Q668687", "ref": "2318300003"}, "type": "Feature"}
{"dataset_attributes": {"@spider": "usps_collection_boxes"}, "geometry": {"coordinates": [-76.519332192, 37.340134378], "type": "Point"}, "id": "4fBjA4u_dpsjg7ssexivB1qvMu8=", "properties": {"@spider": "usps_collection_boxes", "addr:city": "WHITE MARSH", "addr:country": "US", "addr:full": "4898 GEORGE WASHINGTON MEMORIAL HWY", "addr:postcode": "23183", "addr:state": "VA", "amenity": "post_box", "brand": "United States Postal Service", "brand:wikidata": "Q668687", "collection_times": "Mo-Fr 16:30; Sa 12:00", "name": "USPS COLLECTION BOX - PO LOBBY", "note": "ON 12/24 AND 12/31, THIS BOX MAY BE COLLECTED AS EARLY AS 12 NOON.", "nsi_id": "unitedstatespostalservice-a77078", "operator": "United States Postal Service", "operator:short": "USPS", "operator:type": "public", "operator:wikidata": "Q668687", "ref": "2318300005"}, "type": "Feature"}
{"dataset_attributes": {"@spider": "usps_collection_boxes"}, "geometry": {"coordinates": [-76.518593135, 37.292330431], "type": "Point"}, "id": "MVNAiutmGqwVd1eEaXPCEhBZHIs=", "properties": {"@spider": "usps_collection_boxes", "addr:city": "WICOMICO", "addr:country": "US", "addr:full": "6926 POWHATAN DR", "addr:postcode": "23184", "addr:state": "VA", "amenity": "post_box", "brand": "United States Postal Service", "brand:wikidata": "Q668687", "collection_times": "Mo-Fr 16:45; Sa 12:00", "name": "USPS COLLECTION BOX - BLUE BOX", "note": "ON 12/24 AND 12/31, THIS BOX MAY BE COLLECTED AS EARLY AS 12 NOON.", "nsi_id": "unitedstatespostalservice-a77078", "operator": "United States Postal Service", "operator:short": "USPS", "operator:type": "public", "operator:wikidata": "Q668687", "ref": "2318400001"}, "type": "Feature"}
{"dataset_attributes": {"@spider": "usps_collection_boxes"}, "geometry": {"coordinates": [-76.518593135, 37.292330431], "type": "Point"}, "id": "dTHbeLPwUkk72CRim6KDjIx7EV8=", "properties": {"@spider": "usps_collection_boxes", "addr:city": "WICOMICO", "addr:country": "US", "addr:full": "6926 POWHATAN DR", "addr:postcode": "23184", "addr:state": "VA", "amenity": "post_box", "brand": "United States Postal Service", "brand:wikidata": "Q668687", "collection_times": "Mo-Fr 16:45; Sa 12:00", "name": "USPS COLLECTION BOX - PO LOBBY", "note": "ON 12/24 AND 12/31, THIS BOX MAY BE COLLECTED AS EARLY AS 12 NOON.", "nsi_id": "unitedstatespostalservice-a77078", "operator": "United States Postal Service", "operator:short": "USPS", "operator:type": "public", "operator:wikidata": "Q668687", "ref": "2318400002"}, "type": "Feature"}
{"dataset_attributes": {"@spider": "usps_collection_boxes"}, "geometry": {"coordinates": [-76.518593135, 37.292330431], "type": "Point"}, "id": "9z79wuPVyWtzFqWQDyCiy3PNf_A=", "properties": {"@spider": "usps_collection_boxes", "addr:city": "WICOMICO", "addr:country": "US", "addr:full": "6926 POWHATAN DR", "addr:postcode": "23184", "addr:state": "VA", "amenity": "post_box", "brand": "United States Postal Service", "brand:wikidata": "Q668687", "collection_times": "Mo-Fr 16:45; Sa 11:45", "name": "USPS COLLECTION BOX - PO LOBBY", "note": "ON 12/24 AND 12/31, THIS BOX MAY BE COLLECTED AS EARLY AS 12 NOON.", "nsi_id": "unitedstatespostalservice-a77078", "operator": "United States Postal Service", "operator:short": "USPS", "operator:type": "public", "operator:wikidata": "Q668687", "ref": "2318400004"}, "type": "Feature"}
{"dataset_attributes": {"@spider": "usps_collection_boxes"}, "geometry": {"coordinates": [-76.7071647, 37.270774], "type": "Point"}, "id": "Y6S6Vhq5KJKXXzcx47XM277KAnc=", "properties": {"@spider": "usps_collection_boxes", "addr:city": "WILLIAMSBURG", "addr:country": "US", "addr:full": "440 W DUKE OF GLOUCESTER ST", "addr:postcode": "23185", "addr:state": "VA", "amenity": "post_box", "brand": "United States Postal Service", "brand:wikidata": "Q668687", "collection_times": "Mo-Sa 13:00", "name": "USPS COLLECTION BOX - BLUE BOX", "note": "ON 12/24 AND 12/31, THIS BOX MAY BE COLLECTED AS EARLY AS 12 NOON.", "nsi_id": "unitedstatespostalservice-a77078", "operator": "United States Postal Service", "operator:short": "USPS", "operator:type": "public", "operator:wikidata": "Q668687", "ref": "2318500002"}, "type": "Feature"}
{"dataset_attributes": {"@spider": "usps_collection_boxes"}, "geometry": {"coordinates": [-76.7181670889, 37.2802009183], "type": "Point"}, "id": "ynTdUvcEvbYL27WpZ_mFRpM43BI=", "properties": {"@spider": "usps_collection_boxes", "addr:city": "WILLIAMSBURG", "addr:country": "US", "addr:full": "1200 RICHMOND RD", "addr:postcode": "23185", "addr:state": "VA", "amenity": "post_box", "brand": "United States Postal Service", "brand:wikidata": "Q668687", "collection_times": "Mo-Sa 13:00", "name": "USPS COLLECTION BOX - BLUE BOX", "note": "ON 12/24 AND 12/31, THIS BOX MAY BE COLLECTED AS EARLY AS 12 NOON.", "nsi_id": "unitedstatespostalservice-a77078", "operator": "United States Postal Service", "operator:short": "USPS", "operator:type": "public", "operator:wikidata": "Q668687", "ref": "2318500003"}, "type": "Feature"}
{"dataset_attributes": {"@spider": "usps_collection_boxes"}, "geometry": {"coordinates": [-76.7346416, 37.252377], "type": "Point"}, "id": "_WeDPkS8VIpWSyjIA-1WCQ794XI=", "properties": {"@spider": "usps_collection_boxes", "addr:city": "WILLIAMSBURG", "addr:country": "US", "addr:full": "1315 JAMESTOWN RD", "addr:postcode": "23185", "addr:state": "VA", "amenity": "post_box", "brand": "United States Postal Service", "brand:wikidata": "Q668687", "collection_times": "Mo-Sa 13:00", "name": "USPS COLLECTION BOX - BLUE BOX", "note": "ON 12/24 AND 12/31, THIS BOX MAY BE COLLECTED AS EARLY AS 12 NOON.", "nsi_id": "unitedstatespostalservice-a77078", "operator": "United States Postal Service", "operator:short": "USPS", "operator:type": "public", "operator:wikidata": "Q668687", "ref": "2318500005"}, "type": "Feature"}
{"dataset_attributes": {"@spider": "usps_collection_boxes"}, "geometry": {"coordinates": [-76.7356860997, 37.2518904679], "type": "Point"}, "id": "dNGJZiR97-lCO7Xxiaz7rTz7y4w=", "properties": {"@spider": "usps_collection_boxes", "addr:city": "WILLIAMSBURG", "addr:country": "US", "addr:full": "1321 JAMESTOWN RD STE 204", "addr:postcode": "23185", "addr:state": "VA", "amenity": "post_box", "brand": "United States Postal Service", "brand:wikidata": "Q668687", "collection_times": "Mo-Sa 13:00", "name": "USPS COLLECTION BOX - BLUE BOX", "note": "ON 12/24 AND 12/31, THIS BOX MAY BE COLLECTED AS EARLY AS 12 NOON.", "nsi_id": "unitedstatespostalservice-a77078", "operator": "United States Postal Service", "operator:short": "USPS", "operator:type": "public", "operator:wikidata": "Q668687", "ref": "2318500009"}, "type": "Feature"}
{"dataset_attributes": {"@spider": "usps_collection_boxes"}, "geometry": {"coordinates": [-76.6844082, 37.244592], "type": "Point"}, "id": "6LtXHhBl3_xsDY4nBujPlcswb2U=", "properties": {"@spider": "usps_collection_boxes", "addr:city": "WILLIAMSBURG", "addr:country": "US", "addr:full": "101 MOUNTS BAY RD", "addr:postcode": "23185", "addr:state": "VA", "amenity": "post_box", "brand": "United States Postal Service", "brand:wikidata": "Q668687", "collection_times": "Mo-Sa 13:00", "name": "USPS COLLECTION BOX - BLUE BOX", "note": "ON 12/24 AND 12/31, THIS BOX MAY BE COLLECTED AS EARLY AS 12 NOON.", "nsi_id": "unitedstatespostalservice-a77078", "operator": "United States Postal Service", "operator:short": "USPS", "operator:type": "public", "operator:wikidata": "Q668687", "ref": "2318500012"}, "type": "Feature"}
{"dataset_attributes": {"@spider": "usps_collection_boxes"}, "geometry": {"coordinates": [-76.6591216, 37.246151], "type": "Point"}, "id": "P8T7UM34pYxMJEjncXEhcu205vY=", "properties": {"@spider": "usps_collection_boxes", "addr:city": "WILLIAMSBURG", "addr:country": "US", "addr:full": "240 MCLAWS CIR", "addr:postcode": "23185", "addr:state": "VA", "amenity": "post_box", "brand": "United States Postal Service", "brand:wikidata": "Q668687", "collection_times": "Mo-Sa 13:00", "name": "USPS COLLECTION BOX - BLUE BOX", "note": "ON 12/24 AND 12/31, THIS BOX MAY BE COLLECTED AS EARLY AS 12 NOON.", "nsi_id": "unitedstatespostalservice-a77078", "operator": "United States Postal Service", "operator:short": "USPS", "operator:type": "public", "operator:wikidata": "Q668687", "ref": "2318500013"}, "type": "Feature"}
{"dataset_attributes": {"@spider": "usps_collection_boxes"}, "geometry": {"coordinates": [-76.6766283, 37.270492], "type": "Point"}, "id": "XODtIiBCqYopdBgjIg2KbMjdn7Y=", "properties": {"@spider": "usps_collection_boxes", "addr:city": "WILLIAMSBURG", "addr:country": "US", "addr:full": "601 MERRIMAC TRL STE C", "addr:postcode": "23185", "addr:state": "VA", "amenity": "post_box", "brand": "United States Postal Service", "brand:wikidata": "Q668687", "collection_times": "Mo-Sa 13:00", "name": "USPS COLLECTION BOX - BLUE BOX", "note": "ON 12/24 AND 12/31, THIS BOX MAY BE COLLECTED AS EARLY AS 12 NOON.", "nsi_id": "unitedstatespostalservice-a77078", "operator": "United States Postal Service", "operator:short": "USPS", "operator:type": "public", "operator:wikidata": "Q668687", "ref": "2318500016"}, "type": "Feature"}
{"dataset_attributes": {"@spider": "usps_collection_boxes"}, "geometry": {"coordinates": [-76.6786852, 37.273754], "type": "Point"}, "id": "HmbFStVHu-NhnLH8GQnZj4JQXPI=", "properties": {"@spider": "usps_collection_boxes", "addr:city": "WILLIAMSBURG", "addr:country": "US", "addr:full": "455 MERRIMAC TRL", "addr:postcode": "23185", "addr:state": "VA", "amenity": "post_box", "brand": "United States Postal Service", "brand:wikidata": "Q668687", "collection_times": "Mo-Sa 13:00", "name": "USPS COLLECTION BOX - BLUE BOX", "note": "ON 12/24 AND 12/31, THIS BOX MAY BE COLLECTED AS EARLY AS 12 NOON.", "nsi_id": "unitedstatespostalservice-a77078", "operator": "United States Postal Service", "operator:short": "USPS", "operator:type": "public", "operator:wikidata": "Q668687", "ref": "2318500017"}, "type": "Feature"}
{"dataset_attributes": {"@spider": "usps_collection_boxes"}, "geometry": {"coordinates": [-76.6172419, 37.217592], "type": "Point"}, "id": "aDtUzxfnp8kmLpaskaWK9rKgVVM=", "properties": {"@spider": "usps_collection_boxes", "addr:city": "WILLIAMSBURG", "addr:country": "US", "addr:full": "10 GRAY GABLES DR", "addr:postcode": "23185", "addr:state": "VA", "amenity": "post_box", "brand": "United States Postal Service", "brand:wikidata": "Q668687", "collection_times": "Mo-Sa 11:00", "name": "USPS COLLECTION BOX - BLUE BOX", "nsi_id": "unitedstatespostalservice-a77078", "operator": "United States Postal Service", "operator:short": "USPS", "operator:type": "public", "operator:wikidata": "Q668687", "ref": "2318500028"}, "type": "Feature"}
{"dataset_attributes": {"@spider": "usps_collection_boxes"}, "geometry": {"coordinates": [-76.7653936, 37.252963], "type": "Point"}, "id": "yhFUW7721peBFM3zgDKBiGABuWI=", "properties": {"@spider": "usps_collection_boxes", "addr:city": "WILLIAMSBURG", "addr:country": "US", "addr:full": "4400 JOHN TYLER HWY", "addr:postcode": "23185", "addr:state": "VA", "amenity": "post_box", "brand": "United States Postal Service", "brand:wikidata": "Q668687", "collection_times": "Mo-Sa 13:00", "name": "USPS COLLECTION BOX - BLUE BOX", "note": "ON 12/24 AND 12/31, THIS BOX MAY BE COLLECTED AS EARLY AS 12 NOON.", "nsi_id": "unitedstatespostalservice-a77078", "operator": "United States Postal Service", "operator:short": "USPS", "operator:type": "public", "operator:wikidata": "Q668687", "ref": "2318500029"}, "type": "Feature"}
{"dataset_attributes": {"@spider": "usps_collection_boxes"}, "geometry": {"coordinates": [-76.7163971, 37.267172], "type": "Point"}, "id": "rPuMNE2FwY1AB1E1lYzQkxWDmvs=", "properties": {"@spider": "usps_collection_boxes", "addr:city": "WILLIAMSBURG", "addr:country": "US", "addr:full": "600 JAMESTOWN RD", "addr:postcode": "23185", "addr:state": "VA", "amenity": "post_box", "brand": "United States Postal Service", "brand:wikidata": "Q668687", "collection_times": "Mo-Sa 13:00", "name": "USPS COLLECTION BOX - BLUE BOX", "note": "ON 12/24 AND 12/31, THIS BOX MAY BE COLLECTED AS EARLY AS 12 NOON.", "nsi_id": "unitedstatespostalservice-a77078", "operator": "United States Postal Service", "operator:short": "USPS", "operator:type": "public", "operator:wikidata": "Q668687", "ref": "2318500035"}, "type": "Feature"}
{"dataset_attributes": {"@spider": "usps_collection_boxes"}, "geometry": {"coordinates": [-76.7056549, 37.270896], "type": "Point"}, "id": "qK3Se586e8zFPXqwevf1wfKey4g=", "properties": {"@spider": "usps_collection_boxes", "addr:city": "WILLIAMSBURG", "addr:country": "US", "addr:full": "345 W DUKE OF GLOUCESTER ST", "addr:postcode": "23185", "addr:state": "VA", "amenity": "post_box", "brand": "United States Postal Service", "brand:wikidata": "Q668687", "collection_times": "Mo-Sa 13:00", "name": "USPS COLLECTION BOX - BLUE BOX", "note": "ON 12/24 AND 12/31, THIS BOX MAY BE COLLECTED AS EARLY AS 12 NOON.", "nsi_id": "unitedstatespostalservice-a77078", "operator": "United States Postal Service", "operator:short": "USPS", "operator:type": "public", "operator:wikidata": "Q668687", "ref": "2318500037"}, "type": "Feature"}
{"dataset_attributes": {"@spider": "usps_collection_boxes"}, "geometry": {"coordinates": [-76.709075, 37.27237], "type": "Point"}, "id": "EmEE2dMStiaB7w2mhKbHFmvGVfk=", "properties": {"@spider": "usps_collection_boxes", "addr:city": "WILLIAMSBURG", "addr:country": "US", "addr:full": "425 N BOUNDARY ST", "addr:postcode": "23185", "addr:state": "VA", "amenity": "post_box", "brand": "United States Postal Service", "brand:wikidata": "Q668687", "collection_times": "Mo-Sa 17:00", "name": "USPS COLLECTION BOX - BLUE BOX", "note": "ON 12/24 AND 12/31, THIS BOX MAY BE COLLECTED AS EARLY AS 12 NOON.", "nsi_id": "unitedstatespostalservice-a77078", "operator": "United States Postal Service", "operator:short": "USPS", "operator:type": "public", "operator:wikidata": "Q668687", "ref": "2318500041"}, "type": "Feature"}
{"dataset_attributes": {"@spider": "usps_collection_boxes"}, "geometry": {"coordinates": [-76.739692, 37.259493], "type": "Point"}, "id": "m4UR3KJS-FJ9GEa8SEl1jRZO1xQ=", "properties": {"@spider": "usps_collection_boxes", "addr:city": "WILLIAMSBURG", "addr:country": "US", "addr:full": "5251 JOHN TYLER HWY", "addr:postcode": "23185", "addr:state": "VA", "amenity": "post_box", "brand": "United States Postal Service", "brand:wikidata": "Q668687", "collection_times": "Mo-Sa 14:00", "name": "USPS COLLECTION BOX - BLUE BOX", "note": "ON 12/24 AND 12/31, THIS BOX MAY BE COLLECTED AS EARLY AS 12 NOON.", "nsi_id": "unitedstatespostalservice-a77078", "operator": "United States Postal Service", "operator:short": "USPS", "operator:type": "public", "operator:wikidata": "Q668687", "ref": "2318500045"}, "type": "Feature"}
{"dataset_attributes": {"@spider": "usps_collection_boxes"}, "geometry": {"coordinates": [-76.6607246, 37.242299], "type": "Point"}, "id": "WGIvM7YtVT2r33CorEWCF6YkTXQ=", "properties": {"@spider": "usps_collection_boxes", "addr:city": "WILLIAMSBURG", "addr:country": "US", "addr:full": "100 KINGSMILL RD", "addr:postcode": "23185", "addr:state": "VA", "amenity": "post_box", "brand": "United States Postal Service", "brand:wikidata": "Q668687", "collection_times": "Mo-Sa 13:00", "name": "USPS COLLECTION BOX - BLUE BOX", "note": "ON 12/24 AND 12/31, THIS BOX MAY BE COLLECTED AS EARLY AS 12 NOON.", "nsi_id": "unitedstatespostalservice-a77078", "operator": "United States Postal Service", "operator:short": "USPS", "operator:type": "public", "operator:wikidata": "Q668687", "ref": "2318500046"}, "type": "Feature"}
{"dataset_attributes": {"@spider": "usps_collection_boxes"}, "geometry": {"coordinates": [-76.6824349, 37.284097], "type": "Point"}, "id": "_d4sE2xkLUAHhB7znL-1mqs70Uk=", "properties": {"@spider": "usps_collection_boxes", "addr:city": "WILLIAMSBURG", "addr:country": "US", "addr:full": "181 MERRIMAC TRL", "addr:postcode": "23185", "addr:state": "VA", "amenity": "post_box", "brand": "United States Postal Service", "brand:wikidata": "Q668687", "collection_times": "Mo-Sa 13:00", "name": "USPS COLLECTION BOX - BLUE BOX", "note": "ON 12/24 AND 12/31, THIS BOX MAY BE COLLECTED AS EARLY AS 12 NOON.", "nsi_id": "unitedstatespostalservice-a77078", "operator": "United States Postal Service", "operator:short": "USPS", "operator:type": "public", "operator:wikidata": "Q668687", "ref": "2318500049"}, "type": "Feature"}
{"dataset_attributes": {"@spider": "usps_collection_boxes"}, "geometry": {"coordinates": [-76.709075, 37.27237], "type": "Point"}, "id": "6WxsBVijCdbjLBpPHd26_JqwJjA=", "properties": {"@spider": "usps_collection_boxes", "addr:city": "WILLIAMSBURG", "addr:country": "US", "addr:full": "425 N BOUNDARY ST", "addr:postcode": "23185", "addr:state": "VA", "amenity": "post_box", "brand": "United States Postal Service", "brand:wikidata": "Q668687", "collection_times": "Mo-Sa 17:00", "name": "USPS COLLECTION BOX - PO LOBBY", "note": "ON 12/24 AND 12/31, THIS BOX MAY BE COLLECTED AS EARLY AS 12 NOON.", "nsi_id": "unitedstatespostalservice-a77078", "operator": "United States Postal Service", "operator:short": "USPS", "operator:type": "public", "operator:wikidata": "Q668687", "ref": "2318500050"}, "type": "Feature"}
{"dataset_attributes": {"@spider": "usps_collection_boxes"}, "geometry": {"coordinates": [-76.709075, 37.27237], "type": "Point"}, "id": "2LsXap9tkK9zzVdn2sC9FGMT3gs=", "properties": {"@spider": "usps_collection_boxes", "addr:city": "WILLIAMSBURG", "addr:country": "US", "addr:full": "425 N BOUNDARY ST", "addr:postcode": "23185", "addr:state": "VA", "amenity": "post_box", "brand": "United States Postal Service", "brand:wikidata": "Q668687", "collection_times": "Mo-Sa 17:00", "name": "USPS COLLECTION BOX - PO LOBBY", "note": "ON 12/24 AND 12/31, THIS BOX MAY BE COLLECTED AS EARLY AS 12 NOON.", "nsi_id": "unitedstatespostalservice-a77078", "operator": "United States Postal Service", "operator:short": "USPS", "operator:type": "public", "operator:wikidata": "Q668687", "ref": "2318500051"}, "type": "Feature"}
{"dataset_attributes": {"@spider": "usps_collection_boxes"}, "geometry": {"coordinates": [-76.709075, 37.27237], "type": "Point"}, "id": "cz2lMpGl8iTdpHyzhrK6hhUihVg=", "properties": {"@spider": "usps_collection_boxes", "addr:city": "WILLIAMSBURG", "addr:country": "US", "addr:full": "425 N BOUNDARY ST", "addr:postcode": "23185", "addr:state": "VA", "amenity": "post_box", "brand": "United States Postal Service", "brand:wikidata": "Q668687", "collection_times": "Mo-Sa 17:00", "name": "USPS COLLECTION BOX - APC", "note": "ON 12/24 AND 12/31, THIS BOX MAY BE COLLECTED AS EARLY AS 12 NOON.", "nsi_id": "unitedstatespostalservice-a77078", "operator": "United States Postal Service", "operator:short": "USPS", "operator:type": "public", "operator:wikidata": "Q668687", "ref": "2318500053"}, "type": "Feature"}
{"dataset_attributes": {"@spider": "usps_collection_boxes"}, "geometry": {"coordinates": [-76.709075, 37.27237], "type": "Point"}, "id": "Wmr9cTU2P_LHmgrhq5uk8SdFEwc=", "properties": {"@spider": "usps_collection_boxes", "addr:city": "WILLIAMSBURG", "addr:country": "US", "addr:full": "425 N BOUNDARY ST", "addr:postcode": "23185", "addr:state": "VA", "amenity": "post_box", "brand": "United States Postal Service", "brand:wikidata": "Q668687", "collection_times": "Mo-Fr 17:00; Sa 13:00", "name": "USPS COLLECTION BOX - PO LOBBY", "note": "ON 12/24 AND 12/31, THIS BOX MAY BE COLLECTED AS EARLY AS 12 NOON.", "nsi_id": "unitedstatespostalservice-a77078", "operator": "United States Postal Service", "operator:short": "USPS", "operator:type": "public", "operator:wikidata": "Q668687", "ref": "2318500069"}, "type": "Feature"}
{"dataset_attributes": {"@spider": "usps_collection_boxes"}, "geometry": {"coordinates": [-76.766229, 37.360719], "type": "Point"}, "id": "g-3HhVnDZaAUUnyF5R5xGo37d0I=", "properties": {"@spider": "usps_collection_boxes", "addr:city": "WILLIAMSBURG", "addr:country": "US", "addr:full": "7151 RICHMOND RD STE 406", "addr:postcode": "23188", "addr:state": "VA", "amenity": "post_box", "brand": "United States Postal Service", "brand:wikidata": "Q668687", "collection_times": "Mo-Sa 12:30", "name": "USPS COLLECTION BOX - BLUE BOX", "note": "ON 12/24 AND 12/31, THIS BOX MAY BE COLLECTED AS EARLY AS 12 NOON.", "nsi_id": "unitedstatespostalservice-a77078", "operator": "United States Postal Service", "operator:short": "USPS", "operator:type": "public", "operator:wikidata": "Q668687", "ref": "2318800001"}, "type": "Feature"}
{"dataset_attributes": {"@spider": "usps_collection_boxes"}, "geometry": {"coordinates": [-76.7510714, 37.306673], "type": "Point"}, "id": "iIbf7yhioZJWwFQe-3QM9LTy-n8=", "properties": {"@spider": "usps_collection_boxes", "addr:city": "WILLIAMSBURG", "addr:country": "US", "addr:full": "4800 LONGHILL RD", "addr:postcode": "23188", "addr:state": "VA", "amenity": "post_box", "brand": "United States Postal Service", "brand:wikidata": "Q668687", "collection_times": "Mo-Sa 13:00", "name": "USPS COLLECTION BOX - BLUE BOX", "note": "ON 12/24 AND 12/31, THIS BOX MAY BE COLLECTED AS EARLY AS 12 NOON.", "nsi_id": "unitedstatespostalservice-a77078", "operator": "United States Postal Service", "operator:short": "USPS", "operator:type": "public", "operator:wikidata": "Q668687", "ref": "2318800002"}, "type": "Feature"}
{"dataset_attributes": {"@spider": "usps_collection_boxes"}, "geometry": {"coordinates": [-76.7567871, 37.271673], "type": "Point"}, "id": "9kgAI5aWh08r8jEQbhpblebI9cM=", "properties": {"@spider": "usps_collection_boxes", "addr:city": "WILLIAMSBURG", "addr:country": "US", "addr:full": "4680 MONTICELLO AVE", "addr:postcode": "23188", "addr:state": "VA", "amenity": "post_box", "brand": "United States Postal Service", "brand:wikidata": "Q668687", "collection_times": "Mo-Sa 13:00", "name": "USPS COLLECTION BOX - BLUE BOX", "note": "ON 12/24 AND 12/31, THIS BOX MAY BE COLLECTED AS EARLY AS 12 NOON.", "nsi_id": "unitedstatespostalservice-a77078", "operator": "United States Postal Service", "operator:short": "USPS", "operator:type": "public", "operator:wikidata": "Q668687", "ref": "2318800007"}, "type": "Feature"}
{"dataset_attributes": {"@spider": "usps_collection_boxes"}, "geometry": {"coordinates": [-76.7435053, 37.2787334], "type": "Point"}, "id": "Y13srgr1jzlP3GJeoioAnEFxVJY=", "properties": {"@spider": "usps_collection_boxes", "addr:city": "WILLIAMSBURG", "addr:country": "US", "addr:full": "5219 MONTICELLO AVE", "addr:postcode": "23188", "addr:state": "VA", "amenity": "post_box", "brand": "United States Postal Service", "brand:wikidata": "Q668687", "collection_times": "Mo-Sa 17:00", "name": "USPS COLLECTION BOX - BLUE BOX", "note": "ON 12/24 AND 12/31, THIS BOX MAY BE COLLECTED AS EARLY AS 12 NOON.", "nsi_id": "unitedstatespostalservice-a77078", "operator": "United States Postal Service", "operator:short": "USPS", "operator:type": "public", "operator:wikidata": "Q668687", "ref": "2318800008"}, "type": "Feature"}
{"dataset_attributes": {"@spider": "usps_collection_boxes"}, "geometry": {"coordinates": [-76.7435053, 37.2787334], "type": "Point"}, "id": "aOD74tGFp37CcpbLuXjG0I8MpmY=", "properties": {"@spider": "usps_collection_boxes", "addr:city": "WILLIAMSBURG", "addr:country": "US", "addr:full": "5219 MONTICELLO AVE", "addr:postcode": "23188", "addr:state": "VA", "amenity": "post_box", "brand": "United States Postal Service", "brand:wikidata": "Q668687", "collection_times": "Mo-Sa 17:00", "name": "USPS COLLECTION BOX - BLUE BOX", "note": "ON 12/24 AND 12/31, THIS BOX MAY BE COLLECTED AS EARLY AS 12 NOON.", "nsi_id": "unitedstatespostalservice-a77078", "operator": "United States Postal Service", "operator:short": "USPS", "operator:type": "public", "operator:wikidata": "Q668687", "ref": "2318800009"}, "type": "Feature"}
{"dataset_attributes": {"@spider": "usps_collection_boxes"}, "geometry": {"coordinates": [-76.7435053, 37.2787334], "type": "Point"}, "id": "Y55yx18h9rPHxZ7S2dhDkKBYvhQ=", "properties": {"@spider": "usps_collection_boxes", "addr:city": "WILLIAMSBURG", "addr:country": "US", "addr:full": "5219 MONTICELLO AVE", "addr:postcode": "23188", "addr:state": "VA", "amenity": "post_box", "brand": "United States Postal Service", "brand:wikidata": "Q668687", "collection_times": "Mo-Sa 17:00", "name": "USPS COLLECTION BOX - PO LOBBY", "note": "ON 12/24 AND 12/31, THIS BOX MAY BE COLLECTED AS EARLY AS 12 NOON.", "nsi_id": "unitedstatespostalservice-a77078", "operator": "United States Postal Service", "operator:short": "USPS", "operator:type": "public", "operator:wikidata": "Q668687", "ref": "2318800010"}, "type": "Feature"}
{"dataset_attributes": {"@spider": "usps_collection_boxes"}, "geometry": {"coordinates": [-76.7346739, 37.334325], "type": "Point"}, "id": "zvHSWxSlr-kmmvQ6GrOJJK8KfCI=", "properties": {"@spider": "usps_collection_boxes", "addr:city": "WILLIAMSBURG", "addr:country": "US", "addr:full": "109 BULIFANTS BLVD", "addr:postcode": "23188", "addr:state": "VA", "amenity": "post_box", "brand": "United States Postal Service", "brand:wikidata": "Q668687", "collection_times": "Mo-Sa 11:00", "name": "USPS COLLECTION BOX - BLUE BOX", "nsi_id": "unitedstatespostalservice-a77078", "operator": "United States Postal Service", "operator:short": "USPS", "operator:type": "public", "operator:wikidata": "Q668687", "ref": "2318800011"}, "type": "Feature"}
{"dataset_attributes": {"@spider": "usps_collection_boxes"}, "geometry": {"coordinates": [-76.7435053, 37.2787334], "type": "Point"}, "id": "pli7pAtrk6bo87Ev4488r3Q6WwE=", "properties": {"@spider": "usps_collection_boxes", "addr:city": "WILLIAMSBURG", "addr:country": "US", "addr:full": "5219 MONTICELLO AVE", "addr:postcode": "23188", "addr:state": "VA", "amenity": "post_box", "brand": "United States Postal Service", "brand:wikidata": "Q668687", "collection_times": "Mo-Sa 17:00", "name": "USPS COLLECTION BOX - APC", "note": "ON 12/24 AND 12/31, THIS BOX MAY BE COLLECTED AS EARLY AS 12 NOON.", "nsi_id": "unitedstatespostalservice-a77078", "operator": "United States Postal Service", "operator:short": "USPS", "operator:type": "public", "operator:wikidata": "Q668687", "ref": "2318800012"}, "type": "Feature"}
{"dataset_attributes": {"@spider": "usps_collection_boxes"}, "geometry": {"coordinates": [-76.738887, 37.272565], "type": "Point"}, "id": "LqJOBCLp71dMDvORyKb_SkIV2d8=", "properties": {"@spider": "usps_collection_boxes", "addr:city": "WILLIAMSBURG", "addr:country": "US", "addr:full": "156 STRAWBERRY PLAINS RD", "addr:postcode": "23188", "addr:state": "VA", "amenity": "post_box", "brand": "United States Postal Service", "brand:wikidata": "Q668687", "collection_times": "Mo-Sa 13:00", "name": "USPS COLLECTION BOX - BLUE BOX", "note": "ON 12/24 AND 12/31, THIS BOX MAY BE COLLECTED AS EARLY AS 12 NOON.", "nsi_id": "unitedstatespostalservice-a77078", "operator": "United States Postal Service", "operator:short": "USPS", "operator:type": "public", "operator:wikidata": "Q668687", "ref": "2318800018"}, "type": "Feature"}
{"dataset_attributes": {"@spider": "usps_collection_boxes"}, "geometry": {"coordinates": [-76.7435053, 37.2787334], "type": "Point"}, "id": "PSE4nZlnNoohPDtCEQdgww2JEKc=", "properties": {"@spider": "usps_collection_boxes", "addr:city": "WILLIAMSBURG", "addr:country": "US", "addr:full": "5219 MONTICELLO AVE", "addr:postcode": "23188", "addr:state": "VA", "amenity": "post_box", "brand": "United States Postal Service", "brand:wikidata": "Q668687", "collection_times": "Mo-Fr 17:00; Sa 14:00", "name": "USPS COLLECTION BOX - PO LOBBY", "note": "ON 12/24 AND 12/31, THIS BOX MAY BE COLLECTED AS EARLY AS 12 NOON.", "nsi_id": "unitedstatespostalservice-a77078", "operator": "United States Postal Service", "operator:short": "USPS", "operator:type": "public", "operator:wikidata": "Q668687", "ref": "2318800021"}, "type": "Feature"}
{"dataset_attributes": {"@spider": "usps_collection_boxes"}, "geometry": {"coordinates": [-76.617505799, 37.476809363], "type": "Point"}, "id": "lFYNf-LpurTxizEuHtgCwxGwWDc=", "properties": {"@spider": "usps_collection_boxes", "addr:city": "WOODS CRS RDS", "addr:country": "US", "addr:full": "9900 DAVENPORT RD", "addr:postcode": "23190", "addr:state": "VA", "amenity": "post_box", "brand": "United States Postal Service", "brand:wikidata": "Q668687", "collection_times": "Mo-Sa 12:30", "name": "USPS COLLECTION BOX - BLUE BOX", "note": "ON 12/24 AND 12/31, THIS BOX MAY BE COLLECTED AS EARLY AS 12 NOON.", "nsi_id": "unitedstatespostalservice-a77078", "operator": "United States Postal Service", "operator:short": "USPS", "operator:type": "public", "operator:wikidata": "Q668687", "ref": "2319000001"}, "type": "Feature"}
{"dataset_attributes": {"@spider": "usps_collection_boxes"}, "geometry": {"coordinates": [-77.684317129, 37.82034949], "type": "Point"}, "id": "WYHhIPxNfaadCzoAyqm2QMT6AlI=", "properties": {"@spider": "usps_collection_boxes", "addr:city": "MONTPELIER", "addr:country": "US", "addr:full": "17132 MOUNTAIN RD", "addr:postcode": "23192", "addr:state": "VA", "amenity": "post_box", "brand": "United States Postal Service", "brand:wikidata": "Q668687", "collection_times": "Mo-Fr 16:30; Sa 11:00", "name": "USPS COLLECTION BOX - BLUE BOX", "note": "ON 12/24 AND 12/31, THIS BOX MAY BE COLLECTED AS EARLY AS 12 NOON.", "nsi_id": "unitedstatespostalservice-a77078", "operator": "United States Postal Service", "operator:short": "USPS", "operator:type": "public", "operator:wikidata": "Q668687", "ref": "2319200001"}, "type": "Feature"}
{"dataset_attributes": {"@spider": "usps_collection_boxes"}, "geometry": {"coordinates": [-77.684317129, 37.82034949], "type": "Point"}, "id": "1FGUc-YNfnggnFgtZI4Lwcw3ld4=", "properties": {"@spider": "usps_collection_boxes", "addr:city": "MONTPELIER", "addr:country": "US", "addr:full": "17132 MOUNTAIN RD", "addr:postcode": "23192", "addr:state": "VA", "amenity": "post_box", "brand": "United States Postal Service", "brand:wikidata": "Q668687", "collection_times": "Mo-Fr 16:30; Sa 11:00", "name": "USPS COLLECTION BOX - PO LOBBY", "note": "ON 12/24 AND 12/31, THIS BOX MAY BE COLLECTED AS EARLY AS 12 NOON.", "nsi_id": "unitedstatespostalservice-a77078", "operator": "United States Postal Service", "operator:short": "USPS", "operator:type": "public", "operator:wikidata": "Q668687", "ref": "2319200002"}, "type": "Feature"}
{"dataset_attributes": {"@spider": "usps_collection_boxes"}, "geometry": {"coordinates": [-77.684317129, 37.82034949], "type": "Point"}, "id": "HoDaQ3OsvOoKA92HyEJ2fS_PmJQ=", "properties": {"@spider": "usps_collection_boxes", "addr:city": "MONTPELIER", "addr:country": "US", "addr:full": "17132 MOUNTAIN RD", "addr:postcode": "23192", "addr:state": "VA", "amenity": "post_box", "brand": "United States Postal Service", "brand:wikidata": "Q668687", "collection_times": "Mo-Fr 16:30; Sa 11:00", "name": "USPS COLLECTION BOX - PO LOBBY", "note": "ON 12/24 AND 12/31, THIS BOX MAY BE COLLECTED AS EARLY AS 12 NOON.", "nsi_id": "unitedstatespostalservice-a77078", "operator": "United States Postal Service", "operator:short": "USPS", "operator:type": "public", "operator:wikidata": "Q668687", "ref": "2319200005"}, "type": "Feature"}
