{"geometry": {"coordinates": [-75.669993714, 37.719647458], "type": "Point"}, "id": "DaDpdAI4kXjZqU3E7dl663bEwkw=", "properties": {"@source_uri": "https://tools.usps.com/UspsToolsRestServices/rest/POLocator/findLocations", "@spider": "usps_collection_boxes", "addr:city": "ACCOMAC", "addr:country": "US", "addr:postcode": "23301", "addr:state": "VA", "addr:street_address": "23380 FRONT ST", "amenity": "post_box", "collection_times": "Mo-Fr 17:00; Sa 12:00", "note": "ON 12/24 AND 12/31, THIS BOX MAY BE COLLECTED AS EARLY AS 12 NOON.", "nsi_id": "unitedstatespostalservice-a77078", "operator": "United States Postal Service", "operator:short": "USPS", "operator:type": "public", "operator:wikidata": "Q668687", "ref": "2330100001"}, "type": "Feature"}
{"geometry": {"coordinates": [-75.669993714, 37.719647458], "type": "Point"}, "id": "GO8HaDA_29MkBby23vC6LGjd__M=", "properties": {"@source_uri": "https://tools.usps.com/UspsToolsRestServices/rest/POLocator/findLocations", "@spider": "usps_collection_boxes", "addr:city": "ACCOMAC", "addr:country": "US", "addr:postcode": "23301", "addr:state": "VA", "addr:street_address": "23380 FRONT ST", "amenity": "post_box", "collection_times": "Mo-Fr 17:00; Sa 12:00", "indoor": "yes", "note": "ON 12/24 AND 12/31, THIS BOX MAY BE COLLECTED AS EARLY AS 12 NOON.", "nsi_id": "unitedstatespostalservice-a77078", "operator": "United States Postal Service", "operator:short": "USPS", "operator:type": "public", "operator:wikidata": "Q668687", "ref": "2330100002"}, "type": "Feature"}
{"geometry": {"coordinates": [-75.669993714, 37.719647458], "type": "Point"}, "id": "O-3j78TXNnm0AjMRm6fEp1HvpaY=", "properties": {"@source_uri": "https://tools.usps.com/UspsToolsRestServices/rest/POLocator/findLocations", "@spider": "usps_collection_boxes", "addr:city": "ACCOMAC", "addr:country": "US", "addr:postcode": "23301", "addr:state": "VA", "addr:street_address": "23380 FRONT ST", "amenity": "post_box", "collection_times": "Mo-Fr 16:30; Sa 12:00", "indoor": "yes", "note": "ON 12/24 AND 12/31, THIS BOX MAY BE COLLECTED AS EARLY AS 12 NOON.", "nsi_id": "unitedstatespostalservice-a77078", "operator": "United States Postal Service", "operator:short": "USPS", "operator:type": "public", "operator:wikidata": "Q668687", "ref": "2330100004"}, "type": "Feature"}
{"geometry": {"coordinates": [-75.518514714, 37.879929219], "type": "Point"}, "id": "kbQlogLAaiw4oHv5ZXzwx5R3QtQ=", "properties": {"@source_uri": "https://tools.usps.com/UspsToolsRestServices/rest/POLocator/findLocations", "@spider": "usps_collection_boxes", "addr:city": "ASSAWOMAN", "addr:country": "US", "addr:postcode": "23302", "addr:state": "VA", "addr:street_address": "11360 ATLANTIC RD", "amenity": "post_box", "collection_times": "Mo-Sa 11:45", "nsi_id": "unitedstatespostalservice-a77078", "operator": "United States Postal Service", "operator:short": "USPS", "operator:type": "public", "operator:wikidata": "Q668687", "ref": "2330200001"}, "type": "Feature"}
{"geometry": {"coordinates": [-75.518514714, 37.879929219], "type": "Point"}, "id": "v4fF36CFgCqVpUItEy-t2ZdpbH8=", "properties": {"@source_uri": "https://tools.usps.com/UspsToolsRestServices/rest/POLocator/findLocations", "@spider": "usps_collection_boxes", "addr:city": "ASSAWOMAN", "addr:country": "US", "addr:postcode": "23302", "addr:state": "VA", "addr:street_address": "11360 ATLANTIC RD", "amenity": "post_box", "collection_times": "Mo-Sa 11:45", "indoor": "yes", "nsi_id": "unitedstatespostalservice-a77078", "operator": "United States Postal Service", "operator:short": "USPS", "operator:type": "public", "operator:wikidata": "Q668687", "ref": "2330200002"}, "type": "Feature"}
{"geometry": {"coordinates": [-75.5041640231, 37.9034360069], "type": "Point"}, "id": "CktFvrcpWpH-8ZPuWH9N9Y6e7Nw=", "properties": {"@source_uri": "https://tools.usps.com/UspsToolsRestServices/rest/POLocator/findLocations", "@spider": "usps_collection_boxes", "addr:city": "ATLANTIC", "addr:country": "US", "addr:postcode": "23303", "addr:state": "VA", "addr:street_address": "9561 ATLANTIC RD", "amenity": "post_box", "collection_times": "Mo-Fr 16:15; Sa 11:30", "note": "ON 12/24 AND 12/31, THIS BOX MAY BE COLLECTED AS EARLY AS 12 NOON.", "nsi_id": "unitedstatespostalservice-a77078", "operator": "United States Postal Service", "operator:short": "USPS", "operator:type": "public", "operator:wikidata": "Q668687", "ref": "2330300001"}, "type": "Feature"}
{"geometry": {"coordinates": [-75.5041640231, 37.9034360069], "type": "Point"}, "id": "3YYEMfLuzUDnh-UvANOSPWXu9Qw=", "properties": {"@source_uri": "https://tools.usps.com/UspsToolsRestServices/rest/POLocator/findLocations", "@spider": "usps_collection_boxes", "addr:city": "ATLANTIC", "addr:country": "US", "addr:postcode": "23303", "addr:state": "VA", "addr:street_address": "9561 ATLANTIC RD", "amenity": "post_box", "collection_times": "Mo-Fr 16:30; Sa 11:45", "indoor": "yes", "note": "ON 12/24 AND 12/31, THIS BOX MAY BE COLLECTED AS EARLY AS 12 NOON.", "nsi_id": "unitedstatespostalservice-a77078", "operator": "United States Postal Service", "operator:short": "USPS", "operator:type": "public", "operator:wikidata": "Q668687", "ref": "2330300002"}, "type": "Feature"}
{"geometry": {"coordinates": [-75.5041640231, 37.9034360069], "type": "Point"}, "id": "jQkDCCdA9fPxEuak8gFLM47fi10=", "properties": {"@source_uri": "https://tools.usps.com/UspsToolsRestServices/rest/POLocator/findLocations", "@spider": "usps_collection_boxes", "addr:city": "ATLANTIC", "addr:country": "US", "addr:postcode": "23303", "addr:state": "VA", "addr:street_address": "9561 ATLANTIC RD", "amenity": "post_box", "collection_times": "Mo-Fr 16:30; Sa 11:45", "indoor": "yes", "note": "ON 12/24 AND 12/31, THIS BOX MAY BE COLLECTED AS EARLY AS 12 NOON.", "nsi_id": "unitedstatespostalservice-a77078", "operator": "United States Postal Service", "operator:short": "USPS", "operator:type": "public", "operator:wikidata": "Q668687", "ref": "2330300003"}, "type": "Feature"}
{"geometry": {"coordinates": [-75.5041640231, 37.9034360069], "type": "Point"}, "id": "8CLa55Px1qRTjXH1qoXbf8mCNDg=", "properties": {"@source_uri": "https://tools.usps.com/UspsToolsRestServices/rest/POLocator/findLocations", "@spider": "usps_collection_boxes", "addr:city": "ATLANTIC", "addr:country": "US", "addr:postcode": "23303", "addr:state": "VA", "addr:street_address": "9561 ATLANTIC RD", "amenity": "post_box", "collection_times": "Mo-Fr 16:30; Sa 12:00", "indoor": "yes", "note": "ON 12/24 AND 12/31, THIS BOX MAY BE COLLECTED AS EARLY AS 12 NOON.", "nsi_id": "unitedstatespostalservice-a77078", "operator": "United States Postal Service", "operator:short": "USPS", "operator:type": "public", "operator:wikidata": "Q668687", "ref": "2330300005"}, "type": "Feature"}
{"geometry": {"coordinates": [-76.57647636, 36.995348462], "type": "Point"}, "id": "9ioXkaGMGD1n1FxhIQDzyFW8Kq4=", "properties": {"@source_uri": "https://tools.usps.com/UspsToolsRestServices/rest/POLocator/findLocations", "@spider": "usps_collection_boxes", "addr:city": "BATTERY PARK", "addr:country": "US", "addr:postcode": "23304", "addr:state": "VA", "addr:street_address": "20512 TODD AVE", "amenity": "post_box", "collection_times": "Mo-Sa 11:30", "nsi_id": "unitedstatespostalservice-a77078", "operator": "United States Postal Service", "operator:short": "USPS", "operator:type": "public", "operator:wikidata": "Q668687", "ref": "2330400001"}, "type": "Feature"}
{"geometry": {"coordinates": [-76.57647636, 36.995348462], "type": "Point"}, "id": "XZXVlJcGlUryxjAmrOgoacOMxV4=", "properties": {"@source_uri": "https://tools.usps.com/UspsToolsRestServices/rest/POLocator/findLocations", "@spider": "usps_collection_boxes", "addr:city": "BATTERY PARK", "addr:country": "US", "addr:postcode": "23304", "addr:state": "VA", "addr:street_address": "20512 TODD AVE", "amenity": "post_box", "collection_times": "Mo-Sa 11:30", "indoor": "yes", "nsi_id": "unitedstatespostalservice-a77078", "operator": "United States Postal Service", "operator:short": "USPS", "operator:type": "public", "operator:wikidata": "Q668687", "ref": "2330400002"}, "type": "Feature"}
{"geometry": {"coordinates": [-76.57647636, 36.995348462], "type": "Point"}, "id": "KXIprWkEKrxrySoeR7CN7V2TbD0=", "properties": {"@source_uri": "https://tools.usps.com/UspsToolsRestServices/rest/POLocator/findLocations", "@spider": "usps_collection_boxes", "addr:city": "BATTERY PARK", "addr:country": "US", "addr:postcode": "23304", "addr:state": "VA", "addr:street_address": "20512 TODD AVE", "amenity": "post_box", "collection_times": "Mo-Sa 11:30", "indoor": "yes", "nsi_id": "unitedstatespostalservice-a77078", "operator": "United States Postal Service", "operator:short": "USPS", "operator:type": "public", "operator:wikidata": "Q668687", "ref": "2330400004"}, "type": "Feature"}
{"geometry": {"coordinates": [-75.8209248, 37.55337253], "type": "Point"}, "id": "07rfEKaRsq8MIhwe7EIBB6jVdxU=", "properties": {"@source_uri": "https://tools.usps.com/UspsToolsRestServices/rest/POLocator/findLocations", "@spider": "usps_collection_boxes", "addr:city": "BELLE HAVEN", "addr:country": "US", "addr:postcode": "23306", "addr:state": "VA", "addr:street_address": "35561 BELLE HAVEN RD", "amenity": "post_box", "collection_times": "Mo-Fr 16:30; Sa 12:00", "note": "ON 12/24 AND 12/31, THIS BOX MAY BE COLLECTED AS EARLY AS 12 NOON.", "nsi_id": "unitedstatespostalservice-a77078", "operator": "United States Postal Service", "operator:short": "USPS", "operator:type": "public", "operator:wikidata": "Q668687", "ref": "2330600001"}, "type": "Feature"}
{"geometry": {"coordinates": [-75.8209248, 37.55337253], "type": "Point"}, "id": "tVsLkmTsOzqfhxQ7jaHHOxPXdJU=", "properties": {"@source_uri": "https://tools.usps.com/UspsToolsRestServices/rest/POLocator/findLocations", "@spider": "usps_collection_boxes", "addr:city": "BELLE HAVEN", "addr:country": "US", "addr:postcode": "23306", "addr:state": "VA", "addr:street_address": "35561 BELLE HAVEN RD", "amenity": "post_box", "collection_times": "Mo-Fr 16:30; Sa 12:00", "indoor": "yes", "note": "ON 12/24 AND 12/31, THIS BOX MAY BE COLLECTED AS EARLY AS 12 NOON.", "nsi_id": "unitedstatespostalservice-a77078", "operator": "United States Postal Service", "operator:short": "USPS", "operator:type": "public", "operator:wikidata": "Q668687", "ref": "2330600002"}, "type": "Feature"}
{"geometry": {"coordinates": [-75.8209248, 37.55337253], "type": "Point"}, "id": "CoILywy8erywUyRklAM97XKls8M=", "properties": {"@source_uri": "https://tools.usps.com/UspsToolsRestServices/rest/POLocator/findLocations", "@spider": "usps_collection_boxes", "addr:city": "BELLE HAVEN", "addr:country": "US", "addr:postcode": "23306", "addr:state": "VA", "addr:street_address": "35561 BELLE HAVEN RD", "amenity": "post_box", "collection_times": "Mo-Fr 16:30; Sa 12:00", "indoor": "yes", "note": "ON 12/24 AND 12/31, THIS BOX MAY BE COLLECTED AS EARLY AS 12 NOON.", "nsi_id": "unitedstatespostalservice-a77078", "operator": "United States Postal Service", "operator:short": "USPS", "operator:type": "public", "operator:wikidata": "Q668687", "ref": "2330600004"}, "type": "Feature"}
{"geometry": {"coordinates": [-75.622241489, 37.829290316], "type": "Point"}, "id": "DmuMCLZjTrjUC9isfrU1tVVq5cg=", "properties": {"@source_uri": "https://tools.usps.com/UspsToolsRestServices/rest/POLocator/findLocations", "@spider": "usps_collection_boxes", "addr:city": "BLOXOM", "addr:country": "US", "addr:postcode": "23308", "addr:state": "VA", "addr:street_address": "26099 SHOREMAIN DR", "amenity": "post_box", "collection_times": "Mo-Fr 16:30; Sa 11:30", "note": "ON 12/24 AND 12/31, THIS BOX MAY BE COLLECTED AS EARLY AS 12 NOON.", "nsi_id": "unitedstatespostalservice-a77078", "operator": "United States Postal Service", "operator:short": "USPS", "operator:type": "public", "operator:wikidata": "Q668687", "ref": "2330800001"}, "type": "Feature"}
{"geometry": {"coordinates": [-75.622241489, 37.829290316], "type": "Point"}, "id": "cvllBJSrQYCaOg-QLJfmRUlAlN4=", "properties": {"@source_uri": "https://tools.usps.com/UspsToolsRestServices/rest/POLocator/findLocations", "@spider": "usps_collection_boxes", "addr:city": "BLOXOM", "addr:country": "US", "addr:postcode": "23308", "addr:state": "VA", "addr:street_address": "26099 SHOREMAIN DR", "amenity": "post_box", "collection_times": "Mo-Fr 16:30; Sa 11:30", "indoor": "yes", "note": "ON 12/24 AND 12/31, THIS BOX MAY BE COLLECTED AS EARLY AS 12 NOON.", "nsi_id": "unitedstatespostalservice-a77078", "operator": "United States Postal Service", "operator:short": "USPS", "operator:type": "public", "operator:wikidata": "Q668687", "ref": "2330800002"}, "type": "Feature"}
{"geometry": {"coordinates": [-75.622241489, 37.829290316], "type": "Point"}, "id": "lN5Kn4HBBhZJsRjtDALnsblSptE=", "properties": {"@source_uri": "https://tools.usps.com/UspsToolsRestServices/rest/POLocator/findLocations", "@spider": "usps_collection_boxes", "addr:city": "BLOXOM", "addr:country": "US", "addr:postcode": "23308", "addr:state": "VA", "addr:street_address": "26099 SHOREMAIN DR", "amenity": "post_box", "collection_times": "Mo-Fr 16:30; Sa 11:30", "indoor": "yes", "note": "ON 12/24 AND 12/31, THIS BOX MAY BE COLLECTED AS EARLY AS 12 NOON.", "nsi_id": "unitedstatespostalservice-a77078", "operator": "United States Postal Service", "operator:short": "USPS", "operator:type": "public", "operator:wikidata": "Q668687", "ref": "2330800004"}, "type": "Feature"}
{"geometry": {"coordinates": [-76.017727287, 37.26814332], "type": "Point"}, "id": "LeXfykh2l9JQ0orMM-Qslbsif7w=", "properties": {"@source_uri": "https://tools.usps.com/UspsToolsRestServices/rest/POLocator/findLocations", "@spider": "usps_collection_boxes", "addr:city": "CAPE CHARLES", "addr:country": "US", "addr:postcode": "23310", "addr:state": "VA", "addr:street_address": "299 RANDOLPH AVE", "amenity": "post_box", "collection_times": "Mo-Fr 17:00; Sa 14:00", "note": "ON 12/24 AND 12/31, THIS BOX MAY BE COLLECTED AS EARLY AS 12 NOON.", "nsi_id": "unitedstatespostalservice-a77078", "operator": "United States Postal Service", "operator:short": "USPS", "operator:type": "public", "operator:wikidata": "Q668687", "ref": "2331000001"}, "type": "Feature"}
{"geometry": {"coordinates": [-76.015097577, 37.269018774], "type": "Point"}, "id": "BjHimGBpm--3OI5Ntklt0XEDEbk=", "properties": {"@source_uri": "https://tools.usps.com/UspsToolsRestServices/rest/POLocator/findLocations", "@spider": "usps_collection_boxes", "addr:city": "CAPE CHARLES", "addr:country": "US", "addr:postcode": "23310", "addr:state": "VA", "addr:street_address": "500 TAZEWELL AVE", "amenity": "post_box", "collection_times": "Mo-Sa 09:30", "nsi_id": "unitedstatespostalservice-a77078", "operator": "United States Postal Service", "operator:short": "USPS", "operator:type": "public", "operator:wikidata": "Q668687", "ref": "2331000002"}, "type": "Feature"}
{"geometry": {"coordinates": [-76.011052165, 37.270090521], "type": "Point"}, "id": "Mo8IM2WmUJbS1RjQd2GmI9fsD2w=", "properties": {"@source_uri": "https://tools.usps.com/UspsToolsRestServices/rest/POLocator/findLocations", "@spider": "usps_collection_boxes", "addr:city": "CAPE CHARLES", "addr:country": "US", "addr:postcode": "23310", "addr:state": "VA", "addr:street_address": "654 MONROE AVE", "amenity": "post_box", "collection_times": "Mo-Sa 10:00", "nsi_id": "unitedstatespostalservice-a77078", "operator": "United States Postal Service", "operator:short": "USPS", "operator:type": "public", "operator:wikidata": "Q668687", "ref": "2331000003"}, "type": "Feature"}
{"geometry": {"coordinates": [-76.012852751, 37.270197512], "type": "Point"}, "id": "-TCalqM4EtrnyHTZD35y6K8wZxI=", "properties": {"@source_uri": "https://tools.usps.com/UspsToolsRestServices/rest/POLocator/findLocations", "@spider": "usps_collection_boxes", "addr:city": "CAPE CHARLES", "addr:country": "US", "addr:postcode": "23310", "addr:state": "VA", "addr:street_address": "603 MONROE AVE", "amenity": "post_box", "collection_times": "Mo-Sa 10:30", "nsi_id": "unitedstatespostalservice-a77078", "operator": "United States Postal Service", "operator:short": "USPS", "operator:type": "public", "operator:wikidata": "Q668687", "ref": "2331000004"}, "type": "Feature"}
{"geometry": {"coordinates": [-76.020740472, 37.26990088], "type": "Point"}, "id": "s08C_1WF3Es392_tKe3BagpnCjQ=", "properties": {"@source_uri": "https://tools.usps.com/UspsToolsRestServices/rest/POLocator/findLocations", "@spider": "usps_collection_boxes", "addr:city": "CAPE CHARLES", "addr:country": "US", "addr:postcode": "23310", "addr:state": "VA", "addr:street_address": "100 MONROE AVE", "amenity": "post_box", "collection_times": "Mo-Sa 09:30", "nsi_id": "unitedstatespostalservice-a77078", "operator": "United States Postal Service", "operator:short": "USPS", "operator:type": "public", "operator:wikidata": "Q668687", "ref": "2331000005"}, "type": "Feature"}
{"geometry": {"coordinates": [-76.019602196, 37.2670905], "type": "Point"}, "id": "3wtFGgwMlMWZE9OpV8QgUMDLplE=", "properties": {"@source_uri": "https://tools.usps.com/UspsToolsRestServices/rest/POLocator/findLocations", "@spider": "usps_collection_boxes", "addr:city": "CAPE CHARLES", "addr:country": "US", "addr:postcode": "23310", "addr:state": "VA", "addr:street_address": "201 MASON AVE", "amenity": "post_box", "collection_times": "Mo-Sa 09:00", "nsi_id": "unitedstatespostalservice-a77078", "operator": "United States Postal Service", "operator:short": "USPS", "operator:type": "public", "operator:wikidata": "Q668687", "ref": "2331000007"}, "type": "Feature"}
{"geometry": {"coordinates": [-76.017727287, 37.26814332], "type": "Point"}, "id": "BMgMsxb2KSBzSPbmpfNnc2zeRgs=", "properties": {"@source_uri": "https://tools.usps.com/UspsToolsRestServices/rest/POLocator/findLocations", "@spider": "usps_collection_boxes", "addr:city": "CAPE CHARLES", "addr:country": "US", "addr:postcode": "23310", "addr:state": "VA", "addr:street_address": "299 RANDOLPH AVE", "amenity": "post_box", "collection_times": "Mo-Fr 17:00; Sa 14:00", "indoor": "yes", "note": "ON 12/24 AND 12/31, THIS BOX MAY BE COLLECTED AS EARLY AS 12 NOON.", "nsi_id": "unitedstatespostalservice-a77078", "operator": "United States Postal Service", "operator:short": "USPS", "operator:type": "public", "operator:wikidata": "Q668687", "ref": "2331000008"}, "type": "Feature"}
{"geometry": {"coordinates": [-75.96673422, 37.212735854], "type": "Point"}, "id": "jOCRJVHgZnM9cBSZQgKNNCqqyi8=", "properties": {"@source_uri": "https://tools.usps.com/UspsToolsRestServices/rest/POLocator/findLocations", "@spider": "usps_collection_boxes", "addr:city": "CAPE CHARLES", "addr:country": "US", "addr:postcode": "23310", "addr:state": "VA", "addr:street_address": "26507 LANKFORD HWY", "amenity": "post_box", "collection_times": "Mo-Sa 09:30", "nsi_id": "unitedstatespostalservice-a77078", "operator": "United States Postal Service", "operator:short": "USPS", "operator:type": "public", "operator:wikidata": "Q668687", "ref": "2331000009"}, "type": "Feature"}
{"geometry": {"coordinates": [-76.017727287, 37.26814332], "type": "Point"}, "id": "7QAe5XFUcLpUxiP-5UFeZijyeB4=", "properties": {"@source_uri": "https://tools.usps.com/UspsToolsRestServices/rest/POLocator/findLocations", "@spider": "usps_collection_boxes", "addr:city": "CAPE CHARLES", "addr:country": "US", "addr:postcode": "23310", "addr:state": "VA", "addr:street_address": "299 RANDOLPH AVE", "amenity": "post_box", "collection_times": "Mo-Fr 16:30; Sa 12:00", "indoor": "yes", "note": "ON 12/24 AND 12/31, THIS BOX MAY BE COLLECTED AS EARLY AS 12 NOON.", "nsi_id": "unitedstatespostalservice-a77078", "operator": "United States Postal Service", "operator:short": "USPS", "operator:type": "public", "operator:wikidata": "Q668687", "ref": "2331000014"}, "type": "Feature"}
{"geometry": {"coordinates": [-75.95617, 37.20661], "type": "Point"}, "id": "YfGIlNuosA820n96a1h8twEwA9Q=", "properties": {"@source_uri": "https://tools.usps.com/UspsToolsRestServices/rest/POLocator/findLocations", "@spider": "usps_collection_boxes", "addr:city": "CAPEVILLE", "addr:country": "US", "addr:postcode": "23313", "addr:state": "VA", "addr:street_address": "4511 CAPEVILLE RD", "amenity": "post_box", "collection_times": "Mo-Fr 16:15; Sa 11:45", "note": "ON 12/24 AND 12/31, THIS BOX MAY BE COLLECTED AS EARLY AS 12 NOON.", "nsi_id": "unitedstatespostalservice-a77078", "operator": "United States Postal Service", "operator:short": "USPS", "operator:type": "public", "operator:wikidata": "Q668687", "ref": "2331300001"}, "type": "Feature"}
{"geometry": {"coordinates": [-75.95617, 37.20661], "type": "Point"}, "id": "iHNZbmbET69T_7VSlgqPgGx4D4I=", "properties": {"@source_uri": "https://tools.usps.com/UspsToolsRestServices/rest/POLocator/findLocations", "@spider": "usps_collection_boxes", "addr:city": "CAPEVILLE", "addr:country": "US", "addr:postcode": "23313", "addr:state": "VA", "addr:street_address": "4511 CAPEVILLE RD", "amenity": "post_box", "collection_times": "Mo-Fr 16:15; Sa 11:45", "indoor": "yes", "note": "ON 12/24 AND 12/31, THIS BOX MAY BE COLLECTED AS EARLY AS 12 NOON.", "nsi_id": "unitedstatespostalservice-a77078", "operator": "United States Postal Service", "operator:short": "USPS", "operator:type": "public", "operator:wikidata": "Q668687", "ref": "2331300002"}, "type": "Feature"}
{"geometry": {"coordinates": [-75.95617, 37.20661], "type": "Point"}, "id": "tugOzgzy3GiCx-RddMsmzQ90q0I=", "properties": {"@source_uri": "https://tools.usps.com/UspsToolsRestServices/rest/POLocator/findLocations", "@spider": "usps_collection_boxes", "addr:city": "CAPEVILLE", "addr:country": "US", "addr:postcode": "23313", "addr:state": "VA", "addr:street_address": "4511 CAPEVILLE RD", "amenity": "post_box", "collection_times": "Mo-Fr 16:30; Sa 12:00", "indoor": "yes", "note": "ON 12/24 AND 12/31, THIS BOX MAY BE COLLECTED AS EARLY AS 12 NOON.", "nsi_id": "unitedstatespostalservice-a77078", "operator": "United States Postal Service", "operator:short": "USPS", "operator:type": "public", "operator:wikidata": "Q668687", "ref": "2331300004"}, "type": "Feature"}
{"geometry": {"coordinates": [-76.528088904, 36.93380941], "type": "Point"}, "id": "yAV2cjW7bR6Bsw14FgnZ-rMin5A=", "properties": {"@source_uri": "https://tools.usps.com/UspsToolsRestServices/rest/POLocator/findLocations", "@spider": "usps_collection_boxes", "addr:city": "CARROLLTON", "addr:country": "US", "addr:postcode": "23314", "addr:state": "VA", "addr:street_address": "15108 CARROLLTON BLVD", "amenity": "post_box", "collection_times": "Mo-Fr 17:00; Sa 14:00", "indoor": "yes", "note": "ON 12/24 AND 12/31, THIS BOX MAY BE COLLECTED AS EARLY AS 12 NOON.", "nsi_id": "unitedstatespostalservice-a77078", "operator": "United States Postal Service", "operator:short": "USPS", "operator:type": "public", "operator:wikidata": "Q668687", "ref": "2331400004"}, "type": "Feature"}
{"geometry": {"coordinates": [-76.528088904, 36.93380941], "type": "Point"}, "id": "jMTyAUkmhIwHpMufuB9PWhXOBso=", "properties": {"@source_uri": "https://tools.usps.com/UspsToolsRestServices/rest/POLocator/findLocations", "@spider": "usps_collection_boxes", "addr:city": "CARROLLTON", "addr:country": "US", "addr:postcode": "23314", "addr:state": "VA", "addr:street_address": "15108 CARROLLTON BLVD", "amenity": "post_box", "collection_times": "Mo-Fr 17:00; Sa 12:00", "indoor": "yes", "note": "ON 12/24 AND 12/31, THIS BOX MAY BE COLLECTED AS EARLY AS 12 NOON.", "nsi_id": "unitedstatespostalservice-a77078", "operator": "United States Postal Service", "operator:short": "USPS", "operator:type": "public", "operator:wikidata": "Q668687", "ref": "2331400006"}, "type": "Feature"}
{"geometry": {"coordinates": [-76.833126392, 36.713240678], "type": "Point"}, "id": "nhFkb98dE9-7Efk2y0ytgZN6JFM=", "properties": {"@source_uri": "https://tools.usps.com/UspsToolsRestServices/rest/POLocator/findLocations", "@spider": "usps_collection_boxes", "addr:city": "CARRSVILLE", "addr:country": "US", "addr:postcode": "23315", "addr:state": "VA", "addr:street_address": "5354 CARRSVILLE HWY", "amenity": "post_box", "collection_times": "Mo-Fr 16:30; Sa 11:30", "note": "ON 12/24 AND 12/31, THIS BOX MAY BE COLLECTED AS EARLY AS 12 NOON.", "nsi_id": "unitedstatespostalservice-a77078", "operator": "United States Postal Service", "operator:short": "USPS", "operator:type": "public", "operator:wikidata": "Q668687", "ref": "2331500001"}, "type": "Feature"}
{"geometry": {"coordinates": [-76.833126392, 36.713240678], "type": "Point"}, "id": "hqaB2jKdjcmMZBfRAoESiUw0lVg=", "properties": {"@source_uri": "https://tools.usps.com/UspsToolsRestServices/rest/POLocator/findLocations", "@spider": "usps_collection_boxes", "addr:city": "CARRSVILLE", "addr:country": "US", "addr:postcode": "23315", "addr:state": "VA", "addr:street_address": "5354 CARRSVILLE HWY", "amenity": "post_box", "collection_times": "Mo-Fr 16:30; Sa 11:30", "indoor": "yes", "note": "ON 12/24 AND 12/31, THIS BOX MAY BE COLLECTED AS EARLY AS 12 NOON.", "nsi_id": "unitedstatespostalservice-a77078", "operator": "United States Postal Service", "operator:short": "USPS", "operator:type": "public", "operator:wikidata": "Q668687", "ref": "2331500002"}, "type": "Feature"}
{"geometry": {"coordinates": [-76.833126392, 36.713240678], "type": "Point"}, "id": "2k0md7p6BExp9mrIkBR9mfg2dhc=", "properties": {"@source_uri": "https://tools.usps.com/UspsToolsRestServices/rest/POLocator/findLocations", "@spider": "usps_collection_boxes", "addr:city": "CARRSVILLE", "addr:country": "US", "addr:postcode": "23315", "addr:state": "VA", "addr:street_address": "5354 CARRSVILLE HWY", "amenity": "post_box", "collection_times": "Mo-Fr 16:30; Sa 11:30", "indoor": "yes", "note": "ON 12/24 AND 12/31, THIS BOX MAY BE COLLECTED AS EARLY AS 12 NOON.", "nsi_id": "unitedstatespostalservice-a77078", "operator": "United States Postal Service", "operator:short": "USPS", "operator:type": "public", "operator:wikidata": "Q668687", "ref": "2331500003"}, "type": "Feature"}
{"geometry": {"coordinates": [-76.833126392, 36.713240678], "type": "Point"}, "id": "jPUoXwMeb6ZUkDwm9qpdaqjUQqE=", "properties": {"@source_uri": "https://tools.usps.com/UspsToolsRestServices/rest/POLocator/findLocations", "@spider": "usps_collection_boxes", "addr:city": "CARRSVILLE", "addr:country": "US", "addr:postcode": "23315", "addr:state": "VA", "addr:street_address": "5354 CARRSVILLE HWY", "amenity": "post_box", "collection_times": "Mo-Fr 16:30; Sa 11:30", "indoor": "yes", "note": "ON 12/24 AND 12/31, THIS BOX MAY BE COLLECTED AS EARLY AS 12 NOON.", "nsi_id": "unitedstatespostalservice-a77078", "operator": "United States Postal Service", "operator:short": "USPS", "operator:type": "public", "operator:wikidata": "Q668687", "ref": "2331500005"}, "type": "Feature"}
{"geometry": {"coordinates": [-75.971708149, 37.28991865], "type": "Point"}, "id": "zyEqh5zH4BirgR-8TEQzPi7RM68=", "properties": {"@source_uri": "https://tools.usps.com/UspsToolsRestServices/rest/POLocator/findLocations", "@spider": "usps_collection_boxes", "addr:city": "CHERITON", "addr:country": "US", "addr:postcode": "23316", "addr:state": "VA", "addr:street_address": "21197 N BAYSIDE RD", "amenity": "post_box", "collection_times": "Mo-Fr 16:30; Sa 12:00", "indoor": "yes", "note": "ON 12/24 AND 12/31, THIS BOX MAY BE COLLECTED AS EARLY AS 12 NOON.", "nsi_id": "unitedstatespostalservice-a77078", "operator": "United States Postal Service", "operator:short": "USPS", "operator:type": "public", "operator:wikidata": "Q668687", "ref": "2331600001"}, "type": "Feature"}
{"geometry": {"coordinates": [-75.971708149, 37.28991865], "type": "Point"}, "id": "22nOezZCn4pLIhTaW39VVxlCJqg=", "properties": {"@source_uri": "https://tools.usps.com/UspsToolsRestServices/rest/POLocator/findLocations", "@spider": "usps_collection_boxes", "addr:city": "CHERITON", "addr:country": "US", "addr:postcode": "23316", "addr:state": "VA", "addr:street_address": "21197 N BAYSIDE RD", "amenity": "post_box", "collection_times": "Mo-Fr 16:30; Sa 12:00", "note": "ON 12/24 AND 12/31, THIS BOX MAY BE COLLECTED AS EARLY AS 12 NOON.", "nsi_id": "unitedstatespostalservice-a77078", "operator": "United States Postal Service", "operator:short": "USPS", "operator:type": "public", "operator:wikidata": "Q668687", "ref": "2331600002"}, "type": "Feature"}
{"geometry": {"coordinates": [-75.971708149, 37.28991865], "type": "Point"}, "id": "7TlpcznQCy-lbbeMVfZuXnytQKo=", "properties": {"@source_uri": "https://tools.usps.com/UspsToolsRestServices/rest/POLocator/findLocations", "@spider": "usps_collection_boxes", "addr:city": "CHERITON", "addr:country": "US", "addr:postcode": "23316", "addr:state": "VA", "addr:street_address": "21197 N BAYSIDE RD", "amenity": "post_box", "collection_times": "Mo-Fr 16:30; Sa 12:00", "indoor": "yes", "note": "ON 12/24 AND 12/31, THIS BOX MAY BE COLLECTED AS EARLY AS 12 NOON.", "nsi_id": "unitedstatespostalservice-a77078", "operator": "United States Postal Service", "operator:short": "USPS", "operator:type": "public", "operator:wikidata": "Q668687", "ref": "2331600004"}, "type": "Feature"}
{"geometry": {"coordinates": [-76.224084031, 36.777244969], "type": "Point"}, "id": "46CSJufRFQgN6TyrnGyIl9XRxT0=", "properties": {"@source_uri": "https://tools.usps.com/UspsToolsRestServices/rest/POLocator/findLocations", "@spider": "usps_collection_boxes", "addr:city": "CHESAPEAKE", "addr:country": "US", "addr:postcode": "23320", "addr:state": "VA", "addr:street_address": "1025 EDEN WAY N", "amenity": "post_box", "collection_times": "Mo-Sa 12:00", "nsi_id": "unitedstatespostalservice-a77078", "operator": "United States Postal Service", "operator:short": "USPS", "operator:type": "public", "operator:wikidata": "Q668687", "ref": "2332000009"}, "type": "Feature"}
{"geometry": {"coordinates": [-76.268615036, 36.777662053], "type": "Point"}, "id": "gKjGFLpdrWxMtVbYKuD6z5JTsXA=", "properties": {"@source_uri": "https://tools.usps.com/UspsToolsRestServices/rest/POLocator/findLocations", "@spider": "usps_collection_boxes", "addr:city": "CHESAPEAKE", "addr:country": "US", "addr:postcode": "23320", "addr:state": "VA", "addr:street_address": "2211 S MILITARY HWY", "amenity": "post_box", "collection_times": "Mo-Sa 10:00", "nsi_id": "unitedstatespostalservice-a77078", "operator": "United States Postal Service", "operator:short": "USPS", "operator:type": "public", "operator:wikidata": "Q668687", "ref": "2332000014"}, "type": "Feature"}
{"geometry": {"coordinates": [-76.253881552, 36.768059473], "type": "Point"}, "id": "kogalMrBp4KuqTFCyDfsgEIdPrg=", "properties": {"@source_uri": "https://tools.usps.com/UspsToolsRestServices/rest/POLocator/findLocations", "@spider": "usps_collection_boxes", "addr:city": "CHESAPEAKE", "addr:country": "US", "addr:postcode": "23320", "addr:state": "VA", "addr:street_address": "240 RED CEDAR CT", "amenity": "post_box", "collection_times": "Mo-Sa 12:00", "nsi_id": "unitedstatespostalservice-a77078", "operator": "United States Postal Service", "operator:short": "USPS", "operator:type": "public", "operator:wikidata": "Q668687", "ref": "2332000019"}, "type": "Feature"}
{"geometry": {"coordinates": [-76.254422428, 36.760328004], "type": "Point"}, "id": "0zx16c8JlmqXmFTFERrGq_BARPI=", "properties": {"@source_uri": "https://tools.usps.com/UspsToolsRestServices/rest/POLocator/findLocations", "@spider": "usps_collection_boxes", "addr:city": "CHESAPEAKE", "addr:country": "US", "addr:postcode": "23320", "addr:state": "VA", "addr:street_address": "1247 BASSWOOD CT", "amenity": "post_box", "collection_times": "Mo-Sa 12:00", "nsi_id": "unitedstatespostalservice-a77078", "operator": "United States Postal Service", "operator:short": "USPS", "operator:type": "public", "operator:wikidata": "Q668687", "ref": "2332000020"}, "type": "Feature"}
{"geometry": {"coordinates": [-76.239553159, 36.773693466], "type": "Point"}, "id": "H--sCt3QFCGjVtUPyzvhaDras8g=", "properties": {"@source_uri": "https://tools.usps.com/UspsToolsRestServices/rest/POLocator/findLocations", "@spider": "usps_collection_boxes", "addr:city": "CHESAPEAKE", "addr:country": "US", "addr:postcode": "23320", "addr:state": "VA", "addr:street_address": "1400 KRISTINA WAY", "amenity": "post_box", "collection_times": "Mo-Fr 17:00; Sa 13:00", "note": "ON 12/24 AND 12/31, THIS BOX MAY BE COLLECTED AS EARLY AS 12 NOON.", "nsi_id": "unitedstatespostalservice-a77078", "operator": "United States Postal Service", "operator:short": "USPS", "operator:type": "public", "operator:wikidata": "Q668687", "ref": "2332000022"}, "type": "Feature"}
{"geometry": {"coordinates": [-76.230491466, 36.776509041], "type": "Point"}, "id": "21NaEN5CHId48VhTuksYK4G9e3k=", "properties": {"@source_uri": "https://tools.usps.com/UspsToolsRestServices/rest/POLocator/findLocations", "@spider": "usps_collection_boxes", "addr:city": "CHESAPEAKE", "addr:country": "US", "addr:postcode": "23320", "addr:state": "VA", "addr:street_address": "1412 GREENBRIER PKWY", "amenity": "post_box", "collection_times": "Mo-Sa 10:00", "nsi_id": "unitedstatespostalservice-a77078", "operator": "United States Postal Service", "operator:short": "USPS", "operator:type": "public", "operator:wikidata": "Q668687", "ref": "2332000023"}, "type": "Feature"}
{"geometry": {"coordinates": [-76.238223365, 36.788981983], "type": "Point"}, "id": "EzW9TTjVHoR1h1NVvOaFknJ5PRQ=", "properties": {"@source_uri": "https://tools.usps.com/UspsToolsRestServices/rest/POLocator/findLocations", "@spider": "usps_collection_boxes", "addr:city": "CHESAPEAKE", "addr:country": "US", "addr:postcode": "23320", "addr:state": "VA", "addr:street_address": "663 WOODLAKE DR", "amenity": "post_box", "collection_times": "Mo-Fr 17:00; Sa 13:00", "note": "ON 12/24 AND 12/31, THIS BOX MAY BE COLLECTED AS EARLY AS 12 NOON.", "nsi_id": "unitedstatespostalservice-a77078", "operator": "United States Postal Service", "operator:short": "USPS", "operator:type": "public", "operator:wikidata": "Q668687", "ref": "2332000027"}, "type": "Feature"}
{"geometry": {"coordinates": [-76.235548937, 36.790374244], "type": "Point"}, "id": "lVq1epDgm5Pw55REBal3ezZXP0k=", "properties": {"@source_uri": "https://tools.usps.com/UspsToolsRestServices/rest/POLocator/findLocations", "@spider": "usps_collection_boxes", "addr:city": "CHESAPEAKE", "addr:country": "US", "addr:postcode": "23320", "addr:state": "VA", "addr:street_address": "723 WOODLAKE DR", "amenity": "post_box", "collection_times": "Mo-Fr 17:00; Sa 13:00", "note": "ON 12/24 AND 12/31, THIS BOX MAY BE COLLECTED AS EARLY AS 12 NOON.", "nsi_id": "unitedstatespostalservice-a77078", "operator": "United States Postal Service", "operator:short": "USPS", "operator:type": "public", "operator:wikidata": "Q668687", "ref": "2332000028"}, "type": "Feature"}
{"geometry": {"coordinates": [-76.233058279, 36.763001638], "type": "Point"}, "id": "gDV53jYk4JqE1URyqqMl7qFbw4Q=", "properties": {"@source_uri": "https://tools.usps.com/UspsToolsRestServices/rest/POLocator/findLocations", "@spider": "usps_collection_boxes", "addr:city": "CHESAPEAKE", "addr:country": "US", "addr:postcode": "23320", "addr:state": "VA", "addr:street_address": "1200 EXECUTIVE BLVD", "amenity": "post_box", "collection_times": "Mo-Sa 13:00", "note": "ON 12/24 AND 12/31, THIS BOX MAY BE COLLECTED AS EARLY AS 12 NOON.", "nsi_id": "unitedstatespostalservice-a77078", "operator": "United States Postal Service", "operator:short": "USPS", "operator:type": "public", "operator:wikidata": "Q668687", "ref": "2332000031"}, "type": "Feature"}
{"geometry": {"coordinates": [-76.245634973, 36.744869988], "type": "Point"}, "id": "F0zWmoHlBcHHVjaZNW4UTICrktk=", "properties": {"@source_uri": "https://tools.usps.com/UspsToolsRestServices/rest/POLocator/findLocations", "@spider": "usps_collection_boxes", "addr:city": "CHESAPEAKE", "addr:country": "US", "addr:postcode": "23320", "addr:state": "VA", "addr:street_address": "736 BATTLEFIELD BLVD N", "amenity": "post_box", "collection_times": "Mo-Sa 14:00", "note": "ON 12/24 AND 12/31, THIS BOX MAY BE COLLECTED AS EARLY AS 12 NOON.", "nsi_id": "unitedstatespostalservice-a77078", "operator": "United States Postal Service", "operator:short": "USPS", "operator:type": "public", "operator:wikidata": "Q668687", "ref": "2332000034"}, "type": "Feature"}
{"geometry": {"coordinates": [-76.24404118, 36.74459728], "type": "Point"}, "id": "JISpZK8EhPWVN2BDez-IgdOmND4=", "properties": {"@source_uri": "https://tools.usps.com/UspsToolsRestServices/rest/POLocator/findLocations", "@spider": "usps_collection_boxes", "addr:city": "CHESAPEAKE", "addr:country": "US", "addr:postcode": "23320", "addr:state": "VA", "addr:street_address": "701 BATTLEFIELD BLVD N", "amenity": "post_box", "collection_times": "Mo-Sa 14:00", "note": "ON 12/24 AND 12/31, THIS BOX MAY BE COLLECTED AS EARLY AS 12 NOON.", "nsi_id": "unitedstatespostalservice-a77078", "operator": "United States Postal Service", "operator:short": "USPS", "operator:type": "public", "operator:wikidata": "Q668687", "ref": "2332000036"}, "type": "Feature"}
{"geometry": {"coordinates": [-76.270944964, 36.752276097], "type": "Point"}, "id": "0gqAy12D0IfK7ROPnZpBAXZBeEU=", "properties": {"@source_uri": "https://tools.usps.com/UspsToolsRestServices/rest/POLocator/findLocations", "@spider": "usps_collection_boxes", "addr:city": "CHESAPEAKE", "addr:country": "US", "addr:postcode": "23320", "addr:state": "VA", "addr:street_address": "910 GREAT BRIDGE BLVD", "amenity": "post_box", "collection_times": "Mo-Sa 13:00", "note": "ON 12/24 AND 12/31, THIS BOX MAY BE COLLECTED AS EARLY AS 12 NOON.", "nsi_id": "unitedstatespostalservice-a77078", "operator": "United States Postal Service", "operator:short": "USPS", "operator:type": "public", "operator:wikidata": "Q668687", "ref": "2332000045"}, "type": "Feature"}
{"geometry": {"coordinates": [-76.244738026, 36.742652011], "type": "Point"}, "id": "7Vji1z1FURNeloCTMddmqdi6iWw=", "properties": {"@source_uri": "https://tools.usps.com/UspsToolsRestServices/rest/POLocator/findLocations", "@spider": "usps_collection_boxes", "addr:city": "CHESAPEAKE", "addr:country": "US", "addr:postcode": "23320", "addr:state": "VA", "addr:street_address": "109 WIMBLEDON SQ", "amenity": "post_box", "collection_times": "Mo-Sa 14:00", "note": "ON 12/24 AND 12/31, THIS BOX MAY BE COLLECTED AS EARLY AS 12 NOON.", "nsi_id": "unitedstatespostalservice-a77078", "operator": "United States Postal Service", "operator:short": "USPS", "operator:type": "public", "operator:wikidata": "Q668687", "ref": "2332000046"}, "type": "Feature"}
{"geometry": {"coordinates": [-76.257513781, 36.783872199], "type": "Point"}, "id": "2kHWN0eUqMoVlrGfgVlyh6X-hz8=", "properties": {"@source_uri": "https://tools.usps.com/UspsToolsRestServices/rest/POLocator/findLocations", "@spider": "usps_collection_boxes", "addr:city": "CHESAPEAKE", "addr:country": "US", "addr:postcode": "23320", "addr:state": "VA", "addr:street_address": "2001 S MILITARY HWY", "amenity": "post_box", "collection_times": "Mo-Sa 13:00", "note": "ON 12/24 AND 12/31, THIS BOX MAY BE COLLECTED AS EARLY AS 12 NOON.", "nsi_id": "unitedstatespostalservice-a77078", "operator": "United States Postal Service", "operator:short": "USPS", "operator:type": "public", "operator:wikidata": "Q668687", "ref": "2332000048"}, "type": "Feature"}
{"geometry": {"coordinates": [-76.2288369686, 36.7969610015], "type": "Point"}, "id": "Tz4cVrWttrzI1m5zbJMOHHGAQT4=", "properties": {"@source_uri": "https://tools.usps.com/UspsToolsRestServices/rest/POLocator/findLocations", "@spider": "usps_collection_boxes", "addr:city": "CHESAPEAKE", "addr:country": "US", "addr:postcode": "23320", "addr:state": "VA", "addr:street_address": "2112 SMITH AVE", "amenity": "post_box", "collection_times": "Mo-Fr 15:00", "name": "USPS COLLECTION BOX - EXPRESS", "note": "ON 12/24 AND 12/31, THIS BOX MAY BE COLLECTED AS EARLY AS 12 NOON.", "nsi_id": "unitedstatespostalservice-a77078", "operator": "United States Postal Service", "operator:short": "USPS", "operator:type": "public", "operator:wikidata": "Q668687", "ref": "2332000049"}, "type": "Feature"}
{"geometry": {"coordinates": [-76.238295614, 36.79158013], "type": "Point"}, "id": "HHwCffSVdZQRlspUTcUhrLQ3Yf4=", "properties": {"@source_uri": "https://tools.usps.com/UspsToolsRestServices/rest/POLocator/findLocations", "@spider": "usps_collection_boxes", "addr:city": "CHESAPEAKE", "addr:country": "US", "addr:postcode": "23320", "addr:state": "VA", "addr:street_address": "1733 PARKVIEW DR", "amenity": "post_box", "collection_times": "Mo-Sa 12:00", "nsi_id": "unitedstatespostalservice-a77078", "operator": "United States Postal Service", "operator:short": "USPS", "operator:type": "public", "operator:wikidata": "Q668687", "ref": "2332000050"}, "type": "Feature"}
{"geometry": {"coordinates": [-76.230455145, 36.788338859], "type": "Point"}, "id": "cF8ab2_oH9-7ey7xaTQVmQQGHu4=", "properties": {"@source_uri": "https://tools.usps.com/UspsToolsRestServices/rest/POLocator/findLocations", "@spider": "usps_collection_boxes", "addr:city": "CHESAPEAKE", "addr:country": "US", "addr:postcode": "23320", "addr:state": "VA", "addr:street_address": "870 GREENBRIER CIR", "amenity": "post_box", "collection_times": "Mo-Fr 17:00; Sa 13:00", "note": "ON 12/24 AND 12/31, THIS BOX MAY BE COLLECTED AS EARLY AS 12 NOON.", "nsi_id": "unitedstatespostalservice-a77078", "operator": "United States Postal Service", "operator:short": "USPS", "operator:type": "public", "operator:wikidata": "Q668687", "ref": "2332000055"}, "type": "Feature"}
{"geometry": {"coordinates": [-76.229748573, 36.775303039], "type": "Point"}, "id": "cE_d_UAVLJwBguv5tl_qGNpxkPw=", "properties": {"@source_uri": "https://tools.usps.com/UspsToolsRestServices/rest/POLocator/findLocations", "@spider": "usps_collection_boxes", "addr:city": "CHESAPEAKE", "addr:country": "US", "addr:postcode": "23320", "addr:state": "VA", "addr:street_address": "1403 GREENBRIER PKWY", "amenity": "post_box", "collection_times": "Mo-Fr 17:00; Sa 13:00", "note": "ON 12/24 AND 12/31, THIS BOX MAY BE COLLECTED AS EARLY AS 12 NOON.", "nsi_id": "unitedstatespostalservice-a77078", "operator": "United States Postal Service", "operator:short": "USPS", "operator:type": "public", "operator:wikidata": "Q668687", "ref": "2332000059"}, "type": "Feature"}
{"geometry": {"coordinates": [-76.203568068, 36.764336304], "type": "Point"}, "id": "5nYJ8kS5BsH47Gqf0pEk4a__vl4=", "properties": {"@source_uri": "https://tools.usps.com/UspsToolsRestServices/rest/POLocator/findLocations", "@spider": "usps_collection_boxes", "addr:city": "CHESAPEAKE", "addr:country": "US", "addr:postcode": "23320", "addr:state": "VA", "addr:street_address": "1400 KEMPSVILLE RD", "amenity": "post_box", "collection_times": "Mo-Fr 17:00; Sa 13:00", "note": "ON 12/24 AND 12/31, THIS BOX MAY BE COLLECTED AS EARLY AS 12 NOON.", "nsi_id": "unitedstatespostalservice-a77078", "operator": "United States Postal Service", "operator:short": "USPS", "operator:type": "public", "operator:wikidata": "Q668687", "ref": "2332000062"}, "type": "Feature"}
{"geometry": {"coordinates": [-76.230243615, 36.766563318], "type": "Point"}, "id": "Zn_Y70mFmgu0GdVntds_S3jximM=", "properties": {"@source_uri": "https://tools.usps.com/UspsToolsRestServices/rest/POLocator/findLocations", "@spider": "usps_collection_boxes", "addr:city": "CHESAPEAKE", "addr:country": "US", "addr:postcode": "23320", "addr:state": "VA", "addr:street_address": "1226 PROGRESSIVE DR", "amenity": "post_box", "collection_times": "Mo-Sa 10:00", "nsi_id": "unitedstatespostalservice-a77078", "operator": "United States Postal Service", "operator:short": "USPS", "operator:type": "public", "operator:wikidata": "Q668687", "ref": "2332000064"}, "type": "Feature"}
{"geometry": {"coordinates": [-76.25183824, 36.767399982], "type": "Point"}, "id": "U41HJ8Nq6p7EjqL4zzENqjv7CfY=", "properties": {"@source_uri": "https://tools.usps.com/UspsToolsRestServices/rest/POLocator/findLocations", "@spider": "usps_collection_boxes", "addr:city": "CHESAPEAKE", "addr:country": "US", "addr:postcode": "23320", "addr:state": "VA", "addr:street_address": "1425 BATTLEFIELD BLVD N", "amenity": "post_box", "collection_times": "Mo-Fr 17:00; Sa 13:00", "note": "ON 12/24 AND 12/31, THIS BOX MAY BE COLLECTED AS EARLY AS 12 NOON.", "nsi_id": "unitedstatespostalservice-a77078", "operator": "United States Postal Service", "operator:short": "USPS", "operator:type": "public", "operator:wikidata": "Q668687", "ref": "2332000068"}, "type": "Feature"}
{"geometry": {"coordinates": [-76.25183824, 36.767399982], "type": "Point"}, "id": "PKUIyNvvg4Q0DiuH0_4gKfchBFs=", "properties": {"@source_uri": "https://tools.usps.com/UspsToolsRestServices/rest/POLocator/findLocations", "@spider": "usps_collection_boxes", "addr:city": "CHESAPEAKE", "addr:country": "US", "addr:postcode": "23320", "addr:state": "VA", "addr:street_address": "1425 BATTLEFIELD BLVD N", "amenity": "post_box", "collection_times": "Mo-Fr 17:00", "note": "ON 12/24 AND 12/31, THIS BOX MAY BE COLLECTED AS EARLY AS 12 NOON.", "nsi_id": "unitedstatespostalservice-a77078", "operator": "United States Postal Service", "operator:short": "USPS", "operator:type": "public", "operator:wikidata": "Q668687", "ref": "2332000069"}, "type": "Feature"}
{"geometry": {"coordinates": [-76.22071737, 36.768247559], "type": "Point"}, "id": "Ylo4ZXPodiJOtn53X946K_ETwMk=", "properties": {"@source_uri": "https://tools.usps.com/UspsToolsRestServices/rest/POLocator/findLocations", "@spider": "usps_collection_boxes", "addr:city": "CHESAPEAKE", "addr:country": "US", "addr:postcode": "23320", "addr:state": "VA", "addr:street_address": "1132 IVYSTONE SQ", "amenity": "post_box", "collection_times": "Mo-Sa 13:00", "note": "ON 12/24 AND 12/31, THIS BOX MAY BE COLLECTED AS EARLY AS 12 NOON.", "nsi_id": "unitedstatespostalservice-a77078", "operator": "United States Postal Service", "operator:short": "USPS", "operator:type": "public", "operator:wikidata": "Q668687", "ref": "2332000071"}, "type": "Feature"}
{"geometry": {"coordinates": [-76.241290761, 36.725318591], "type": "Point"}, "id": "lrj71UNzw3fn-vyLLweFmEcfl_o=", "properties": {"@source_uri": "https://tools.usps.com/UspsToolsRestServices/rest/POLocator/findLocations", "@spider": "usps_collection_boxes", "addr:city": "CHESAPEAKE", "addr:country": "US", "addr:postcode": "23320", "addr:state": "VA", "addr:street_address": "232 BATTLEFIELD BLVD N", "amenity": "post_box", "collection_times": "Mo-Sa 10:00", "nsi_id": "unitedstatespostalservice-a77078", "operator": "United States Postal Service", "operator:short": "USPS", "operator:type": "public", "operator:wikidata": "Q668687", "ref": "2332000072"}, "type": "Feature"}
{"geometry": {"coordinates": [-76.218528988, 36.772826988], "type": "Point"}, "id": "UVNOgPx1q3hco0TmmHqHOQ844Io=", "properties": {"@source_uri": "https://tools.usps.com/UspsToolsRestServices/rest/POLocator/findLocations", "@spider": "usps_collection_boxes", "addr:city": "CHESAPEAKE", "addr:country": "US", "addr:postcode": "23320", "addr:state": "VA", "addr:street_address": "1360 MILL LAKE QUARTER", "amenity": "post_box", "collection_times": "Mo-Sa 12:00", "nsi_id": "unitedstatespostalservice-a77078", "operator": "United States Postal Service", "operator:short": "USPS", "operator:type": "public", "operator:wikidata": "Q668687", "ref": "2332000075"}, "type": "Feature"}
{"geometry": {"coordinates": [-76.228455111, 36.796871043], "type": "Point"}, "id": "_Us94YzSXd7fM1L3ZG58yTjpcVU=", "properties": {"@source_uri": "https://tools.usps.com/UspsToolsRestServices/rest/POLocator/findLocations", "@spider": "usps_collection_boxes", "addr:city": "CHESAPEAKE", "addr:country": "US", "addr:postcode": "23320", "addr:state": "VA", "addr:street_address": "2112 SMITH AVE", "amenity": "post_box", "collection_times": "Mo-Sa 15:00", "note": "ON 12/24 AND 12/31, THIS BOX MAY BE COLLECTED AS EARLY AS 12 NOON.", "nsi_id": "unitedstatespostalservice-a77078", "operator": "United States Postal Service", "operator:short": "USPS", "operator:type": "public", "operator:wikidata": "Q668687", "ref": "2332000076"}, "type": "Feature"}
{"geometry": {"coordinates": [-76.2238479761, 36.7459339866], "type": "Point"}, "id": "H4HvkVR1LrLCxT4rptLga7ftIGs=", "properties": {"@source_uri": "https://tools.usps.com/UspsToolsRestServices/rest/POLocator/findLocations", "@spider": "usps_collection_boxes", "addr:city": "CHESAPEAKE", "addr:country": "US", "addr:postcode": "23320", "addr:state": "VA", "addr:street_address": "717 HUNTERS BRIDGE DR", "amenity": "post_box", "collection_times": "Mo-Sa 10:00", "nsi_id": "unitedstatespostalservice-a77078", "operator": "United States Postal Service", "operator:short": "USPS", "operator:type": "public", "operator:wikidata": "Q668687", "ref": "2332000080"}, "type": "Feature"}
{"geometry": {"coordinates": [-76.231554348, 36.791557705], "type": "Point"}, "id": "UkVa77fr2kYs4IpanH7tUDcHSK8=", "properties": {"@source_uri": "https://tools.usps.com/UspsToolsRestServices/rest/POLocator/findLocations", "@spider": "usps_collection_boxes", "addr:city": "CHESAPEAKE", "addr:country": "US", "addr:postcode": "23320", "addr:state": "VA", "addr:street_address": "804 GREENBRIER CIR", "amenity": "post_box", "collection_times": "Mo-Fr 17:00; Sa 13:00", "note": "ON 12/24 AND 12/31, THIS BOX MAY BE COLLECTED AS EARLY AS 12 NOON.", "nsi_id": "unitedstatespostalservice-a77078", "operator": "United States Postal Service", "operator:short": "USPS", "operator:type": "public", "operator:wikidata": "Q668687", "ref": "2332000081"}, "type": "Feature"}
{"geometry": {"coordinates": [-76.231890101, 36.789777019], "type": "Point"}, "id": "PCqmnasKovfvcj1_8sch6TCJDDo=", "properties": {"@source_uri": "https://tools.usps.com/UspsToolsRestServices/rest/POLocator/findLocations", "@spider": "usps_collection_boxes", "addr:city": "CHESAPEAKE", "addr:country": "US", "addr:postcode": "23320", "addr:state": "VA", "addr:street_address": "1801 SARA DR", "amenity": "post_box", "collection_times": "Mo-Fr 17:00; Sa 13:00", "note": "ON 12/24 AND 12/31, THIS BOX MAY BE COLLECTED AS EARLY AS 12 NOON.", "nsi_id": "unitedstatespostalservice-a77078", "operator": "United States Postal Service", "operator:short": "USPS", "operator:type": "public", "operator:wikidata": "Q668687", "ref": "2332000082"}, "type": "Feature"}
{"geometry": {"coordinates": [-76.252663584, 36.764872431], "type": "Point"}, "id": "7d4dQE2XBzu7VYUiY-BBCPc-MhM=", "properties": {"@source_uri": "https://tools.usps.com/UspsToolsRestServices/rest/POLocator/findLocations", "@spider": "usps_collection_boxes", "addr:city": "CHESAPEAKE", "addr:country": "US", "addr:postcode": "23320", "addr:state": "VA", "addr:street_address": "1300 TINTERN ST", "amenity": "post_box", "collection_times": "Mo-Sa 12:00", "nsi_id": "unitedstatespostalservice-a77078", "operator": "United States Postal Service", "operator:short": "USPS", "operator:type": "public", "operator:wikidata": "Q668687", "ref": "2332000084"}, "type": "Feature"}
{"geometry": {"coordinates": [-76.267778998, 36.746843511], "type": "Point"}, "id": "qzRmZOyLQJmRgIkGLPoXFasKd8I=", "properties": {"@source_uri": "https://tools.usps.com/UspsToolsRestServices/rest/POLocator/findLocations", "@spider": "usps_collection_boxes", "addr:city": "CHESAPEAKE", "addr:country": "US", "addr:postcode": "23320", "addr:state": "VA", "addr:street_address": "1001 RIVER WALK PKWY", "amenity": "post_box", "collection_times": "Mo-Sa 12:30", "note": "ON 12/24 AND 12/31, THIS BOX MAY BE COLLECTED AS EARLY AS 12 NOON.", "nsi_id": "unitedstatespostalservice-a77078", "operator": "United States Postal Service", "operator:short": "USPS", "operator:type": "public", "operator:wikidata": "Q668687", "ref": "2332000085"}, "type": "Feature"}
{"geometry": {"coordinates": [-76.263625373, 36.738650546], "type": "Point"}, "id": "qAuxCP36hgi4IAsTQqHRTU_hCec=", "properties": {"@source_uri": "https://tools.usps.com/UspsToolsRestServices/rest/POLocator/findLocations", "@spider": "usps_collection_boxes", "addr:city": "CHESAPEAKE", "addr:country": "US", "addr:postcode": "23320", "addr:state": "VA", "addr:street_address": "651 RIVER WALK PKWY", "amenity": "post_box", "collection_times": "Mo-Sa 12:30", "note": "ON 12/24 AND 12/31, THIS BOX MAY BE COLLECTED AS EARLY AS 12 NOON.", "nsi_id": "unitedstatespostalservice-a77078", "operator": "United States Postal Service", "operator:short": "USPS", "operator:type": "public", "operator:wikidata": "Q668687", "ref": "2332000086"}, "type": "Feature"}
{"geometry": {"coordinates": [-76.229980038, 36.775974017], "type": "Point"}, "id": "335NTrFGowPxJhtbi7qHhtKhRsk=", "properties": {"@source_uri": "https://tools.usps.com/UspsToolsRestServices/rest/POLocator/findLocations", "@spider": "usps_collection_boxes", "addr:city": "CHESAPEAKE", "addr:country": "US", "addr:postcode": "23320", "addr:state": "VA", "addr:street_address": "1401 GREENBRIER PKWY", "amenity": "post_box", "collection_times": "Mo-Fr 17:00; Sa 13:00", "note": "ON 12/24 AND 12/31, THIS BOX MAY BE COLLECTED AS EARLY AS 12 NOON.", "nsi_id": "unitedstatespostalservice-a77078", "operator": "United States Postal Service", "operator:short": "USPS", "operator:type": "public", "operator:wikidata": "Q668687", "ref": "2332000087"}, "type": "Feature"}
{"geometry": {"coordinates": [-76.248628242, 36.74214219], "type": "Point"}, "id": "p2wvc0lDfhF07FYKaAk8kFGPRjY=", "properties": {"@source_uri": "https://tools.usps.com/UspsToolsRestServices/rest/POLocator/findLocations", "@spider": "usps_collection_boxes", "addr:city": "CHESAPEAKE", "addr:country": "US", "addr:postcode": "23320", "addr:state": "VA", "addr:street_address": "301 WIMBLEDON CHASE", "amenity": "post_box", "collection_times": "Mo-Fr 13:00; Sa 12:00", "note": "ON 12/24 AND 12/31, THIS BOX MAY BE COLLECTED AS EARLY AS 12 NOON.", "nsi_id": "unitedstatespostalservice-a77078", "operator": "United States Postal Service", "operator:short": "USPS", "operator:type": "public", "operator:wikidata": "Q668687", "ref": "2332000088"}, "type": "Feature"}
{"geometry": {"coordinates": [-76.2443259713, 36.776515989], "type": "Point"}, "id": "rCR9DntDT0Hvjkpsr0X95DlESqE=", "properties": {"@source_uri": "https://tools.usps.com/UspsToolsRestServices/rest/POLocator/findLocations", "@spider": "usps_collection_boxes", "addr:city": "CHESAPEAKE", "addr:country": "US", "addr:postcode": "23320", "addr:state": "VA", "addr:street_address": "1435 CROSSWAYS BLVD", "amenity": "post_box", "collection_times": "Mo-Fr 17:00; Sa 13:00", "note": "ON 12/24 AND 12/31, THIS BOX MAY BE COLLECTED AS EARLY AS 12 NOON.", "nsi_id": "unitedstatespostalservice-a77078", "operator": "United States Postal Service", "operator:short": "USPS", "operator:type": "public", "operator:wikidata": "Q668687", "ref": "2332000089"}, "type": "Feature"}
{"geometry": {"coordinates": [-76.218964201, 36.79420738], "type": "Point"}, "id": "ztu9wXSHhrLKWTFEClrrxH7gNdg=", "properties": {"@source_uri": "https://tools.usps.com/UspsToolsRestServices/rest/POLocator/findLocations", "@spider": "usps_collection_boxes", "addr:city": "CHESAPEAKE", "addr:country": "US", "addr:postcode": "23320", "addr:state": "VA", "addr:street_address": "2018 PARAMONT AVE", "amenity": "post_box", "collection_times": "Mo-Sa 12:00", "nsi_id": "unitedstatespostalservice-a77078", "operator": "United States Postal Service", "operator:short": "USPS", "operator:type": "public", "operator:wikidata": "Q668687", "ref": "2332000090"}, "type": "Feature"}
{"geometry": {"coordinates": [-76.237441, 36.755166], "type": "Point"}, "id": "_tPBtpzM7XzloVSfiKTZdXvrs-s=", "properties": {"@source_uri": "https://tools.usps.com/UspsToolsRestServices/rest/POLocator/findLocations", "@spider": "usps_collection_boxes", "addr:city": "CHESAPEAKE", "addr:country": "US", "addr:postcode": "23320", "addr:state": "VA", "addr:street_address": "870A GREENBRIER CIR", "amenity": "post_box", "collection_times": "Mo-Fr 17:00; Sa 13:00", "note": "ON 12/24 AND 12/31, THIS BOX MAY BE COLLECTED AS EARLY AS 12 NOON.", "nsi_id": "unitedstatespostalservice-a77078", "operator": "United States Postal Service", "operator:short": "USPS", "operator:type": "public", "operator:wikidata": "Q668687", "ref": "2332000091"}, "type": "Feature"}
{"geometry": {"coordinates": [-76.25183824, 36.767399982], "type": "Point"}, "id": "rD7NlpjK0IIFj1IrDip1Oj5Pf24=", "properties": {"@source_uri": "https://tools.usps.com/UspsToolsRestServices/rest/POLocator/findLocations", "@spider": "usps_collection_boxes", "addr:city": "CHESAPEAKE", "addr:country": "US", "addr:postcode": "23320", "addr:state": "VA", "addr:street_address": "1425 BATTLEFIELD BLVD N", "amenity": "post_box", "collection_times": "Mo-Fr 17:00; Sa 13:00", "indoor": "yes", "note": "ON 12/24 AND 12/31, THIS BOX MAY BE COLLECTED AS EARLY AS 12 NOON.", "nsi_id": "unitedstatespostalservice-a77078", "operator": "United States Postal Service", "operator:short": "USPS", "operator:type": "public", "operator:wikidata": "Q668687", "ref": "2332000092"}, "type": "Feature"}
{"geometry": {"coordinates": [-76.243882617, 36.734665592], "type": "Point"}, "id": "MlWk5swjzDaTXAwcJJmYsc4jJbg=", "properties": {"@source_uri": "https://tools.usps.com/UspsToolsRestServices/rest/POLocator/findLocations", "@spider": "usps_collection_boxes", "addr:city": "CHESAPEAKE", "addr:country": "US", "addr:postcode": "23320", "addr:state": "VA", "addr:street_address": "408 TROTMAN WAY", "amenity": "post_box", "collection_times": "Mo-Sa 10:00", "nsi_id": "unitedstatespostalservice-a77078", "operator": "United States Postal Service", "operator:short": "USPS", "operator:type": "public", "operator:wikidata": "Q668687", "ref": "2332000093"}, "type": "Feature"}
{"geometry": {"coordinates": [-76.258305975, 36.772382578], "type": "Point"}, "id": "YzgO7o1uZ5k-7lH0suKD9IAMwX8=", "properties": {"@source_uri": "https://tools.usps.com/UspsToolsRestServices/rest/POLocator/findLocations", "@spider": "usps_collection_boxes", "addr:city": "CHESAPEAKE", "addr:country": "US", "addr:postcode": "23320", "addr:state": "VA", "addr:street_address": "1529 TECHNOLOGY DR", "amenity": "post_box", "collection_times": "Mo-Sa 15:00", "note": "ON 12/24 AND 12/31, THIS BOX MAY BE COLLECTED AS EARLY AS 12 NOON.", "nsi_id": "unitedstatespostalservice-a77078", "operator": "United States Postal Service", "operator:short": "USPS", "operator:type": "public", "operator:wikidata": "Q668687", "ref": "2332000094"}, "type": "Feature"}
{"geometry": {"coordinates": [-76.25183824, 36.767399982], "type": "Point"}, "id": "uTFt37miTv4jSgRmtL4plfHO4js=", "properties": {"@source_uri": "https://tools.usps.com/UspsToolsRestServices/rest/POLocator/findLocations", "@spider": "usps_collection_boxes", "addr:city": "CHESAPEAKE", "addr:country": "US", "addr:postcode": "23320", "addr:state": "VA", "addr:street_address": "1425 BATTLEFIELD BLVD N", "amenity": "post_box", "collection_times": "Mo-Fr 17:00; Sa 13:00", "name": "USPS COLLECTION BOX - APC", "note": "ON 12/24 AND 12/31, THIS BOX MAY BE COLLECTED AS EARLY AS 12 NOON.", "nsi_id": "unitedstatespostalservice-a77078", "operator": "United States Postal Service", "operator:short": "USPS", "operator:type": "public", "operator:wikidata": "Q668687", "ref": "2332000097"}, "type": "Feature"}
{"geometry": {"coordinates": [-76.25183824, 36.767399982], "type": "Point"}, "id": "w2rsJQn-0kTEauQzsTbVoAiQuRQ=", "properties": {"@source_uri": "https://tools.usps.com/UspsToolsRestServices/rest/POLocator/findLocations", "@spider": "usps_collection_boxes", "addr:city": "CHESAPEAKE", "addr:country": "US", "addr:postcode": "23320", "addr:state": "VA", "addr:street_address": "1425 BATTLEFIELD BLVD N", "amenity": "post_box", "collection_times": "Mo-Fr 17:00; Sa 14:00", "indoor": "yes", "note": "ON 12/24 AND 12/31, THIS BOX MAY BE COLLECTED AS EARLY AS 12 NOON.", "nsi_id": "unitedstatespostalservice-a77078", "operator": "United States Postal Service", "operator:short": "USPS", "operator:type": "public", "operator:wikidata": "Q668687", "ref": "2332000106"}, "type": "Feature"}
{"geometry": {"coordinates": [-76.425737241, 36.844788634], "type": "Point"}, "id": "G66JEiClwCR3A7ORSvMFyUrPJ_U=", "properties": {"@source_uri": "https://tools.usps.com/UspsToolsRestServices/rest/POLocator/findLocations", "@spider": "usps_collection_boxes", "addr:city": "CHESAPEAKE", "addr:country": "US", "addr:postcode": "23321", "addr:state": "VA", "addr:street_address": "3325 TAYLOR RD", "amenity": "post_box", "collection_times": "Mo-Fr 15:30; Sa 13:30", "note": "ON 12/24 AND 12/31, THIS BOX MAY BE COLLECTED AS EARLY AS 12 NOON.", "nsi_id": "unitedstatespostalservice-a77078", "operator": "United States Postal Service", "operator:short": "USPS", "operator:type": "public", "operator:wikidata": "Q668687", "ref": "2332100002"}, "type": "Feature"}
{"geometry": {"coordinates": [-76.410394725, 36.824032846], "type": "Point"}, "id": "9ZSNg-PhThI1elXZpxspleXb3PU=", "properties": {"@source_uri": "https://tools.usps.com/UspsToolsRestServices/rest/POLocator/findLocations", "@spider": "usps_collection_boxes", "addr:city": "CHESAPEAKE", "addr:country": "US", "addr:postcode": "23321", "addr:state": "VA", "addr:street_address": "4107 PORTSMOUTH BLVD", "amenity": "post_box", "collection_times": "Mo-Fr 15:30; Sa 13:30", "note": "ON 12/24 AND 12/31, THIS BOX MAY BE COLLECTED AS EARLY AS 12 NOON.", "nsi_id": "unitedstatespostalservice-a77078", "operator": "United States Postal Service", "operator:short": "USPS", "operator:type": "public", "operator:wikidata": "Q668687", "ref": "2332100003"}, "type": "Feature"}
{"geometry": {"coordinates": [-76.404128814, 36.826236798], "type": "Point"}, "id": "SPfqivY0FeviJz83hn-ZjBUfJJo=", "properties": {"@source_uri": "https://tools.usps.com/UspsToolsRestServices/rest/POLocator/findLocations", "@spider": "usps_collection_boxes", "addr:city": "CHESAPEAKE", "addr:country": "US", "addr:postcode": "23321", "addr:state": "VA", "addr:street_address": "4175 PRINDLE CT", "amenity": "post_box", "collection_times": "Mo-Sa 09:00", "nsi_id": "unitedstatespostalservice-a77078", "operator": "United States Postal Service", "operator:short": "USPS", "operator:type": "public", "operator:wikidata": "Q668687", "ref": "2332100006"}, "type": "Feature"}
{"geometry": {"coordinates": [-76.408757498, 36.827441059], "type": "Point"}, "id": "1FXSyARJyPShG13mt4le6UxHKwY=", "properties": {"@source_uri": "https://tools.usps.com/UspsToolsRestServices/rest/POLocator/findLocations", "@spider": "usps_collection_boxes", "addr:city": "CHESAPEAKE", "addr:country": "US", "addr:postcode": "23321", "addr:state": "VA", "addr:street_address": "4016 RAINTREE RD", "amenity": "post_box", "collection_times": "Mo-Fr 15:30; Sa 13:30", "note": "ON 12/24 AND 12/31, THIS BOX MAY BE COLLECTED AS EARLY AS 12 NOON.", "nsi_id": "unitedstatespostalservice-a77078", "operator": "United States Postal Service", "operator:short": "USPS", "operator:type": "public", "operator:wikidata": "Q668687", "ref": "2332100007"}, "type": "Feature"}
{"geometry": {"coordinates": [-76.4113197, 36.8240036], "type": "Point"}, "id": "dJuecmNIliCWhEE7iuTZpR4w6JE=", "properties": {"@source_uri": "https://tools.usps.com/UspsToolsRestServices/rest/POLocator/findLocations", "@spider": "usps_collection_boxes", "addr:city": "CHESAPEAKE", "addr:country": "US", "addr:postcode": "23321", "addr:state": "VA", "addr:street_address": "3343 WESTERN BRANCH BLVD", "amenity": "post_box", "collection_times": "Mo-Fr 15:30; Sa 14:00", "note": "ON 12/24 AND 12/31, THIS BOX MAY BE COLLECTED AS EARLY AS 12 NOON.", "nsi_id": "unitedstatespostalservice-a77078", "operator": "United States Postal Service", "operator:short": "USPS", "operator:type": "public", "operator:wikidata": "Q668687", "ref": "2332100011"}, "type": "Feature"}
{"geometry": {"coordinates": [-76.419806931, 36.863593921], "type": "Point"}, "id": "nS5l-sjrz4xtCvnHTHIqelLJC0U=", "properties": {"@source_uri": "https://tools.usps.com/UspsToolsRestServices/rest/POLocator/findLocations", "@spider": "usps_collection_boxes", "addr:city": "CHESAPEAKE", "addr:country": "US", "addr:postcode": "23321", "addr:state": "VA", "addr:street_address": "4723 HELENSBURGH DR", "amenity": "post_box", "collection_times": "Mo-Sa 12:00", "nsi_id": "unitedstatespostalservice-a77078", "operator": "United States Postal Service", "operator:short": "USPS", "operator:type": "public", "operator:wikidata": "Q668687", "ref": "2332100014"}, "type": "Feature"}
{"geometry": {"coordinates": [-76.4113197, 36.8240036], "type": "Point"}, "id": "J5K1he3-aGP8X1xv44KTO9baTYg=", "properties": {"@source_uri": "https://tools.usps.com/UspsToolsRestServices/rest/POLocator/findLocations", "@spider": "usps_collection_boxes", "addr:city": "CHESAPEAKE", "addr:country": "US", "addr:postcode": "23321", "addr:state": "VA", "addr:street_address": "4300 PORTSMOUTH BLVD STE 174", "amenity": "post_box", "collection_times": "Mo-Fr 16:00", "name": "USPS COLLECTION BOX - EXPRESS", "note": "ON 12/24 AND 12/31, THIS BOX MAY BE COLLECTED AS EARLY AS 12 NOON.", "nsi_id": "unitedstatespostalservice-a77078", "operator": "United States Postal Service", "operator:short": "USPS", "operator:type": "public", "operator:wikidata": "Q668687", "ref": "2332100020"}, "type": "Feature"}
{"geometry": {"coordinates": [-76.4113197, 36.8240036], "type": "Point"}, "id": "LB84k7Be7IdOhmjnbaDjfj7_Eko=", "properties": {"@source_uri": "https://tools.usps.com/UspsToolsRestServices/rest/POLocator/findLocations", "@spider": "usps_collection_boxes", "addr:city": "CHESAPEAKE", "addr:country": "US", "addr:postcode": "23321", "addr:state": "VA", "addr:street_address": "4300 PORTSMOUTH BLVD STE 174", "amenity": "post_box", "collection_times": "Mo-Fr 17:00; Sa 14:00", "note": "ON 12/24 AND 12/31, THIS BOX MAY BE COLLECTED AS EARLY AS 12 NOON.", "nsi_id": "unitedstatespostalservice-a77078", "operator": "United States Postal Service", "operator:short": "USPS", "operator:type": "public", "operator:wikidata": "Q668687", "ref": "2332100021"}, "type": "Feature"}
{"geometry": {"coordinates": [-76.4113197, 36.8240036], "type": "Point"}, "id": "Uu0uBugVCUMILd-IQpvWj-jf2Zw=", "properties": {"@source_uri": "https://tools.usps.com/UspsToolsRestServices/rest/POLocator/findLocations", "@spider": "usps_collection_boxes", "addr:city": "CHESAPEAKE", "addr:country": "US", "addr:postcode": "23321", "addr:state": "VA", "addr:street_address": "4300 PORTSMOUTH BLVD STE 174", "amenity": "post_box", "collection_times": "Mo-Fr 17:00; Sa 14:00", "note": "ON 12/24 AND 12/31, THIS BOX MAY BE COLLECTED AS EARLY AS 12 NOON.", "nsi_id": "unitedstatespostalservice-a77078", "operator": "United States Postal Service", "operator:short": "USPS", "operator:type": "public", "operator:wikidata": "Q668687", "ref": "2332100022"}, "type": "Feature"}
{"geometry": {"coordinates": [-76.419136111, 36.82232905], "type": "Point"}, "id": "3KAzGUMKKhskj9187_3hFUjs-J0=", "properties": {"@source_uri": "https://tools.usps.com/UspsToolsRestServices/rest/POLocator/findLocations", "@spider": "usps_collection_boxes", "addr:city": "CHESAPEAKE", "addr:country": "US", "addr:postcode": "23321", "addr:state": "VA", "addr:street_address": "4300 PORTSMOUTH BLVD STE 174", "amenity": "post_box", "collection_times": "Mo-Fr 17:00; Sa 12:00", "indoor": "yes", "note": "ON 12/24 AND 12/31, THIS BOX MAY BE COLLECTED AS EARLY AS 12 NOON.", "nsi_id": "unitedstatespostalservice-a77078", "operator": "United States Postal Service", "operator:short": "USPS", "operator:type": "public", "operator:wikidata": "Q668687", "ref": "2332100029"}, "type": "Feature"}
{"geometry": {"coordinates": [-76.412917085, 36.846536675], "type": "Point"}, "id": "onL4BwP4MHRJeP4FqtwfJpiao6g=", "properties": {"@source_uri": "https://tools.usps.com/UspsToolsRestServices/rest/POLocator/findLocations", "@spider": "usps_collection_boxes", "addr:city": "CHESAPEAKE", "addr:country": "US", "addr:postcode": "23321", "addr:state": "VA", "addr:street_address": "3000 PEPPERCORN DR", "amenity": "post_box", "collection_times": "Mo-Sa 09:00", "nsi_id": "unitedstatespostalservice-a77078", "operator": "United States Postal Service", "operator:short": "USPS", "operator:type": "public", "operator:wikidata": "Q668687", "ref": "2332100034"}, "type": "Feature"}
{"geometry": {"coordinates": [-76.419136111, 36.82232905], "type": "Point"}, "id": "uTkEmUDq8mqeN5eidAl3xrCPQ-w=", "properties": {"@source_uri": "https://tools.usps.com/UspsToolsRestServices/rest/POLocator/findLocations", "@spider": "usps_collection_boxes", "addr:city": "CHESAPEAKE", "addr:country": "US", "addr:postcode": "23321", "addr:state": "VA", "addr:street_address": "4300 PORTSMOUTH BLVD STE 174", "amenity": "post_box", "collection_times": "Mo-Fr 17:00", "indoor": "yes", "note": "ON 12/24 AND 12/31, THIS BOX MAY BE COLLECTED AS EARLY AS 12 NOON.", "nsi_id": "unitedstatespostalservice-a77078", "operator": "United States Postal Service", "operator:short": "USPS", "operator:type": "public", "operator:wikidata": "Q668687", "ref": "2332100039"}, "type": "Feature"}
{"geometry": {"coordinates": [-76.281085, 36.71608], "type": "Point"}, "id": "qB9tAS9sKfxjfh-tnOolrLbyzsc=", "properties": {"@source_uri": "https://tools.usps.com/UspsToolsRestServices/rest/POLocator/findLocations", "@spider": "usps_collection_boxes", "addr:city": "CHESAPEAKE", "addr:country": "US", "addr:postcode": "23322", "addr:state": "VA", "addr:street_address": "1429 FENTRESS RD", "amenity": "post_box", "collection_times": "Mo-Sa 12:30", "note": "ON 12/24 AND 12/31, THIS BOX MAY BE COLLECTED AS EARLY AS 12 NOON.", "nsi_id": "unitedstatespostalservice-a77078", "operator": "United States Postal Service", "operator:short": "USPS", "operator:type": "public", "operator:wikidata": "Q668687", "ref": "2332200005"}, "type": "Feature"}
{"geometry": {"coordinates": [-76.185309697, 36.71352], "type": "Point"}, "id": "ZvEg1yuEGChutM_eEQqpdqNfAkQ=", "properties": {"@source_uri": "https://tools.usps.com/UspsToolsRestServices/rest/POLocator/findLocations", "@spider": "usps_collection_boxes", "addr:city": "CHESAPEAKE", "addr:country": "US", "addr:postcode": "23322", "addr:state": "VA", "addr:street_address": "415 CENTERVILLE TPKE S", "amenity": "post_box", "collection_times": "Mo-Sa 12:00", "nsi_id": "unitedstatespostalservice-a77078", "operator": "United States Postal Service", "operator:short": "USPS", "operator:type": "public", "operator:wikidata": "Q668687", "ref": "2332200010"}, "type": "Feature"}
{"geometry": {"coordinates": [-76.250908328, 36.717804975], "type": "Point"}, "id": "MSFOZSrEl2cww_0WrdMCURUAJx4=", "properties": {"@source_uri": "https://tools.usps.com/UspsToolsRestServices/rest/POLocator/findLocations", "@spider": "usps_collection_boxes", "addr:city": "CHESAPEAKE", "addr:country": "US", "addr:postcode": "23322", "addr:state": "VA", "addr:street_address": "200 HOLT DR", "amenity": "post_box", "collection_times": "Mo-Fr 17:00; Sa 14:00", "note": "ON 12/24 AND 12/31, THIS BOX MAY BE COLLECTED AS EARLY AS 12 NOON.", "nsi_id": "unitedstatespostalservice-a77078", "operator": "United States Postal Service", "operator:short": "USPS", "operator:type": "public", "operator:wikidata": "Q668687", "ref": "2332200011"}, "type": "Feature"}
{"geometry": {"coordinates": [-76.251167309, 36.716479962], "type": "Point"}, "id": "7P1v8dk9Ixrunl-TDw-Y4RGNpRw=", "properties": {"@source_uri": "https://tools.usps.com/UspsToolsRestServices/rest/POLocator/findLocations", "@spider": "usps_collection_boxes", "addr:city": "CHESAPEAKE", "addr:country": "US", "addr:postcode": "23322", "addr:state": "VA", "addr:street_address": "212 HOLT DR", "amenity": "post_box", "collection_times": "Mo-Fr 17:00; Sa 14:00", "note": "ON 12/24 AND 12/31, THIS BOX MAY BE COLLECTED AS EARLY AS 12 NOON.", "nsi_id": "unitedstatespostalservice-a77078", "operator": "United States Postal Service", "operator:short": "USPS", "operator:type": "public", "operator:wikidata": "Q668687", "ref": "2332200012"}, "type": "Feature"}
{"geometry": {"coordinates": [-76.23045453, 36.687872181], "type": "Point"}, "id": "MUq7fRFJx9DAWp3eQRiqy1g5o9g=", "properties": {"@source_uri": "https://tools.usps.com/UspsToolsRestServices/rest/POLocator/findLocations", "@spider": "usps_collection_boxes", "addr:city": "CHESAPEAKE", "addr:country": "US", "addr:postcode": "23322", "addr:state": "VA", "addr:street_address": "1100 BATTLEFIELD BLVD S", "amenity": "post_box", "collection_times": "Mo-Fr 17:00; Sa 14:00", "note": "ON 12/24 AND 12/31, THIS BOX MAY BE COLLECTED AS EARLY AS 12 NOON.", "nsi_id": "unitedstatespostalservice-a77078", "operator": "United States Postal Service", "operator:short": "USPS", "operator:type": "public", "operator:wikidata": "Q668687", "ref": "2332200018"}, "type": "Feature"}
{"geometry": {"coordinates": [-76.23045453, 36.687872181], "type": "Point"}, "id": "28Z_ir7A2-mfPyRqo0ifgC2Gy-k=", "properties": {"@source_uri": "https://tools.usps.com/UspsToolsRestServices/rest/POLocator/findLocations", "@spider": "usps_collection_boxes", "addr:city": "CHESAPEAKE", "addr:country": "US", "addr:postcode": "23322", "addr:state": "VA", "addr:street_address": "1100 BATTLEFIELD BLVD S", "amenity": "post_box", "collection_times": "Mo-Fr 17:00; Sa 14:00", "note": "ON 12/24 AND 12/31, THIS BOX MAY BE COLLECTED AS EARLY AS 12 NOON.", "nsi_id": "unitedstatespostalservice-a77078", "operator": "United States Postal Service", "operator:short": "USPS", "operator:type": "public", "operator:wikidata": "Q668687", "ref": "2332200019"}, "type": "Feature"}
{"geometry": {"coordinates": [-76.284285218, 36.716987226], "type": "Point"}, "id": "OdOvX84Yjj9LwLQBZ_il5RkD008=", "properties": {"@source_uri": "https://tools.usps.com/UspsToolsRestServices/rest/POLocator/findLocations", "@spider": "usps_collection_boxes", "addr:city": "CHESAPEAKE", "addr:country": "US", "addr:postcode": "23322", "addr:state": "VA", "addr:street_address": "1245 CEDAR RD", "amenity": "post_box", "collection_times": "Mo-Sa 12:30", "note": "ON 12/24 AND 12/31, THIS BOX MAY BE COLLECTED AS EARLY AS 12 NOON.", "nsi_id": "unitedstatespostalservice-a77078", "operator": "United States Postal Service", "operator:short": "USPS", "operator:type": "public", "operator:wikidata": "Q668687", "ref": "2332200020"}, "type": "Feature"}
{"geometry": {"coordinates": [-76.248729555, 36.715635201], "type": "Point"}, "id": "enp0h0bxEJjpiY1f16A0-CJtHzg=", "properties": {"@source_uri": "https://tools.usps.com/UspsToolsRestServices/rest/POLocator/findLocations", "@spider": "usps_collection_boxes", "addr:city": "CHESAPEAKE", "addr:country": "US", "addr:postcode": "23322", "addr:state": "VA", "addr:street_address": "300 SHEA DR", "amenity": "post_box", "collection_times": "Mo-Fr 17:00; Sa 14:00", "note": "ON 12/24 AND 12/31, THIS BOX MAY BE COLLECTED AS EARLY AS 12 NOON.", "nsi_id": "unitedstatespostalservice-a77078", "operator": "United States Postal Service", "operator:short": "USPS", "operator:type": "public", "operator:wikidata": "Q668687", "ref": "2332200025"}, "type": "Feature"}
{"geometry": {"coordinates": [-76.23045453, 36.687872181], "type": "Point"}, "id": "9hHUIYWcBBsP5dwnCFIOlgBM0sk=", "properties": {"@source_uri": "https://tools.usps.com/UspsToolsRestServices/rest/POLocator/findLocations", "@spider": "usps_collection_boxes", "addr:city": "CHESAPEAKE", "addr:country": "US", "addr:postcode": "23322", "addr:state": "VA", "addr:street_address": "1100 BATTLEFIELD BLVD S", "amenity": "post_box", "collection_times": "Mo-Fr 17:30; Sa 16:00", "indoor": "yes", "note": "ON 12/24 AND 12/31, THIS BOX MAY BE COLLECTED AS EARLY AS 12 NOON.", "nsi_id": "unitedstatespostalservice-a77078", "operator": "United States Postal Service", "operator:short": "USPS", "operator:type": "public", "operator:wikidata": "Q668687", "ref": "2332200027"}, "type": "Feature"}
{"geometry": {"coordinates": [-76.23045453, 36.687872181], "type": "Point"}, "id": "UcIsvL5jmE_YaePP0K8Q9D6BBn8=", "properties": {"@source_uri": "https://tools.usps.com/UspsToolsRestServices/rest/POLocator/findLocations", "@spider": "usps_collection_boxes", "addr:city": "CHESAPEAKE", "addr:country": "US", "addr:postcode": "23322", "addr:state": "VA", "addr:street_address": "1100 BATTLEFIELD BLVD S", "amenity": "post_box", "collection_times": "Mo-Fr 17:30; Sa 16:00", "indoor": "yes", "note": "ON 12/24 AND 12/31, THIS BOX MAY BE COLLECTED AS EARLY AS 12 NOON.", "nsi_id": "unitedstatespostalservice-a77078", "operator": "United States Postal Service", "operator:short": "USPS", "operator:type": "public", "operator:wikidata": "Q668687", "ref": "2332200028"}, "type": "Feature"}
{"geometry": {"coordinates": [-76.23045453, 36.687872181], "type": "Point"}, "id": "wjfFuQW7QmhCTRNCP_imu8sZYcg=", "properties": {"@source_uri": "https://tools.usps.com/UspsToolsRestServices/rest/POLocator/findLocations", "@spider": "usps_collection_boxes", "addr:city": "CHESAPEAKE", "addr:country": "US", "addr:postcode": "23322", "addr:state": "VA", "addr:street_address": "1100 BATTLEFIELD BLVD S", "amenity": "post_box", "collection_times": "Mo-Fr 17:00; Sa 16:00", "note": "ON 12/24 AND 12/31, THIS BOX MAY BE COLLECTED AS EARLY AS 12 NOON.", "nsi_id": "unitedstatespostalservice-a77078", "operator": "United States Postal Service", "operator:short": "USPS", "operator:type": "public", "operator:wikidata": "Q668687", "ref": "2332200033"}, "type": "Feature"}
{"geometry": {"coordinates": [-76.23045453, 36.687872181], "type": "Point"}, "id": "bzR_kzfx-VI1EPCR1AWe0dxyN-s=", "properties": {"@source_uri": "https://tools.usps.com/UspsToolsRestServices/rest/POLocator/findLocations", "@spider": "usps_collection_boxes", "addr:city": "CHESAPEAKE", "addr:country": "US", "addr:postcode": "23322", "addr:state": "VA", "addr:street_address": "1100 BATTLEFIELD BLVD S", "amenity": "post_box", "collection_times": "Mo-Fr 17:00", "name": "USPS COLLECTION BOX - EXPRESS", "note": "ON 12/24 AND 12/31, THIS BOX MAY BE COLLECTED AS EARLY AS 12 NOON.", "nsi_id": "unitedstatespostalservice-a77078", "operator": "United States Postal Service", "operator:short": "USPS", "operator:type": "public", "operator:wikidata": "Q668687", "ref": "2332200034"}, "type": "Feature"}
{"geometry": {"coordinates": [-76.23878892, 36.715707543], "type": "Point"}, "id": "R9X5v2KqxshfdhA5jT3vWTF98Dg=", "properties": {"@source_uri": "https://tools.usps.com/UspsToolsRestServices/rest/POLocator/findLocations", "@spider": "usps_collection_boxes", "addr:city": "CHESAPEAKE", "addr:country": "US", "addr:postcode": "23322", "addr:state": "VA", "addr:street_address": "237 BATTLEFIELD BLVD S", "amenity": "post_box", "collection_times": "Mo-Sa 14:00", "note": "ON 12/24 AND 12/31, THIS BOX MAY BE COLLECTED AS EARLY AS 12 NOON.", "nsi_id": "unitedstatespostalservice-a77078", "operator": "United States Postal Service", "operator:short": "USPS", "operator:type": "public", "operator:wikidata": "Q668687", "ref": "2332200038"}, "type": "Feature"}
{"geometry": {"coordinates": [-76.23045453, 36.687872181], "type": "Point"}, "id": "HR8UlxofV1FZLAd0n5_Y7udihwM=", "properties": {"@source_uri": "https://tools.usps.com/UspsToolsRestServices/rest/POLocator/findLocations", "@spider": "usps_collection_boxes", "addr:city": "CHESAPEAKE", "addr:country": "US", "addr:postcode": "23322", "addr:state": "VA", "addr:street_address": "1100 BATTLEFIELD BLVD S", "amenity": "post_box", "collection_times": "Mo-Fr 17:30; Sa 16:00", "name": "USPS COLLECTION BOX - APC", "note": "ON 12/24 AND 12/31, THIS BOX MAY BE COLLECTED AS EARLY AS 12 NOON.", "nsi_id": "unitedstatespostalservice-a77078", "operator": "United States Postal Service", "operator:short": "USPS", "operator:type": "public", "operator:wikidata": "Q668687", "ref": "2332200041"}, "type": "Feature"}
{"geometry": {"coordinates": [-76.23045453, 36.687872181], "type": "Point"}, "id": "uR3HP2of8m9b857zl51Nfal2nfU=", "properties": {"@source_uri": "https://tools.usps.com/UspsToolsRestServices/rest/POLocator/findLocations", "@spider": "usps_collection_boxes", "addr:city": "CHESAPEAKE", "addr:country": "US", "addr:postcode": "23322", "addr:state": "VA", "addr:street_address": "1100 BATTLEFIELD BLVD S", "amenity": "post_box", "collection_times": "Mo-Fr 17:00; Sa 13:00", "indoor": "yes", "note": "ON 12/24 AND 12/31, THIS BOX MAY BE COLLECTED AS EARLY AS 12 NOON.", "nsi_id": "unitedstatespostalservice-a77078", "operator": "United States Postal Service", "operator:short": "USPS", "operator:type": "public", "operator:wikidata": "Q668687", "ref": "2332200046"}, "type": "Feature"}
{"geometry": {"coordinates": [-76.248971761, 36.568062816], "type": "Point"}, "id": "1LeGhY1HiPS_IJvx4hcQvvL4WuM=", "properties": {"@source_uri": "https://tools.usps.com/UspsToolsRestServices/rest/POLocator/findLocations", "@spider": "usps_collection_boxes", "addr:city": "CHESAPEAKE", "addr:country": "US", "addr:postcode": "23322", "addr:state": "VA", "addr:street_address": "1400 NORTHWEST BLVD STE 101", "amenity": "post_box", "collection_times": "Mo-Fr 13:30", "indoor": "yes", "note": "ON 12/24 AND 12/31, THIS BOX MAY BE COLLECTED AS EARLY AS 12 NOON.", "nsi_id": "unitedstatespostalservice-a77078", "operator": "United States Postal Service", "operator:short": "USPS", "operator:type": "public", "operator:wikidata": "Q668687", "ref": "2332200047"}, "type": "Feature"}
{"geometry": {"coordinates": [-76.34603074, 36.754200471], "type": "Point"}, "id": "QgTFmE7_Q--h_Xl-XiEhwrBVZaU=", "properties": {"@source_uri": "https://tools.usps.com/UspsToolsRestServices/rest/POLocator/findLocations", "@spider": "usps_collection_boxes", "addr:city": "CHESAPEAKE", "addr:country": "US", "addr:postcode": "23323", "addr:state": "VA", "addr:street_address": "2800 WESLEY RD", "amenity": "post_box", "collection_times": "Mo-Sa 12:00", "nsi_id": "unitedstatespostalservice-a77078", "operator": "United States Postal Service", "operator:short": "USPS", "operator:type": "public", "operator:wikidata": "Q668687", "ref": "2332300002"}, "type": "Feature"}
{"geometry": {"coordinates": [-76.342295419, 36.740271206], "type": "Point"}, "id": "bBl0RGIQz6qca8345tweFG0mSf8=", "properties": {"@source_uri": "https://tools.usps.com/UspsToolsRestServices/rest/POLocator/findLocations", "@spider": "usps_collection_boxes", "addr:city": "CHESAPEAKE", "addr:country": "US", "addr:postcode": "23323", "addr:state": "VA", "addr:street_address": "2617 MOSES GRANDY TRL", "amenity": "post_box", "collection_times": "Mo-Sa 10:45", "nsi_id": "unitedstatespostalservice-a77078", "operator": "United States Postal Service", "operator:short": "USPS", "operator:type": "public", "operator:wikidata": "Q668687", "ref": "2332300003"}, "type": "Feature"}
{"geometry": {"coordinates": [-76.342776538, 36.781183501], "type": "Point"}, "id": "W2dGKMkBxoAJZDL5yeqdkdrj4oE=", "properties": {"@source_uri": "https://tools.usps.com/UspsToolsRestServices/rest/POLocator/findLocations", "@spider": "usps_collection_boxes", "addr:city": "CHESAPEAKE", "addr:country": "US", "addr:postcode": "23323", "addr:state": "VA", "addr:street_address": "2900 CAMELOT BLVD", "amenity": "post_box", "collection_times": "Mo-Fr 15:00; Sa 14:00", "note": "ON 12/24 AND 12/31, THIS BOX MAY BE COLLECTED AS EARLY AS 12 NOON.", "nsi_id": "unitedstatespostalservice-a77078", "operator": "United States Postal Service", "operator:short": "USPS", "operator:type": "public", "operator:wikidata": "Q668687", "ref": "2332300004"}, "type": "Feature"}
{"geometry": {"coordinates": [-76.362447859, 36.786077302], "type": "Point"}, "id": "I4AmrLn8TivXg9wcSFCB2sZsZg8=", "properties": {"@source_uri": "https://tools.usps.com/UspsToolsRestServices/rest/POLocator/findLocations", "@spider": "usps_collection_boxes", "addr:city": "CHESAPEAKE", "addr:country": "US", "addr:postcode": "23323", "addr:state": "VA", "addr:street_address": "3534 BUSINESS CENTER DR", "amenity": "post_box", "collection_times": "Mo-Fr 15:45; Sa 15:00", "note": "ON 12/24 AND 12/31, THIS BOX MAY BE COLLECTED AS EARLY AS 12 NOON.", "nsi_id": "unitedstatespostalservice-a77078", "operator": "United States Postal Service", "operator:short": "USPS", "operator:type": "public", "operator:wikidata": "Q668687", "ref": "2332300006"}, "type": "Feature"}
{"geometry": {"coordinates": [-76.333954436, 36.78376765], "type": "Point"}, "id": "JdSZILtXcSZNnynnrwKXZtMvlR8=", "properties": {"@source_uri": "https://tools.usps.com/UspsToolsRestServices/rest/POLocator/findLocations", "@spider": "usps_collection_boxes", "addr:city": "CHESAPEAKE", "addr:country": "US", "addr:postcode": "23323", "addr:state": "VA", "addr:street_address": "1156 GEORGE WASHINGTON HWY N", "amenity": "post_box", "collection_times": "Mo-Fr 15:45; Sa 15:00", "note": "ON 12/24 AND 12/31, THIS BOX MAY BE COLLECTED AS EARLY AS 12 NOON.", "nsi_id": "unitedstatespostalservice-a77078", "operator": "United States Postal Service", "operator:short": "USPS", "operator:type": "public", "operator:wikidata": "Q668687", "ref": "2332300007"}, "type": "Feature"}
{"geometry": {"coordinates": [-76.343138509, 36.771219815], "type": "Point"}, "id": "r7K6oVFq3HzPeVhe5rWRUiGTk60=", "properties": {"@source_uri": "https://tools.usps.com/UspsToolsRestServices/rest/POLocator/findLocations", "@spider": "usps_collection_boxes", "addr:city": "CHESAPEAKE", "addr:country": "US", "addr:postcode": "23323", "addr:state": "VA", "addr:street_address": "857 GEORGE WASHINGTON HWY N", "amenity": "post_box", "collection_times": "Mo-Fr 17:00", "name": "USPS COLLECTION BOX - EXPRESS", "note": "ON 12/24 AND 12/31, THIS BOX MAY BE COLLECTED AS EARLY AS 12 NOON.", "nsi_id": "unitedstatespostalservice-a77078", "operator": "United States Postal Service", "operator:short": "USPS", "operator:type": "public", "operator:wikidata": "Q668687", "ref": "2332300012"}, "type": "Feature"}
{"geometry": {"coordinates": [-76.343138509, 36.771219815], "type": "Point"}, "id": "P61oeAwsYhlpzuJhbQ4RTKolFM0=", "properties": {"@source_uri": "https://tools.usps.com/UspsToolsRestServices/rest/POLocator/findLocations", "@spider": "usps_collection_boxes", "addr:city": "CHESAPEAKE", "addr:country": "US", "addr:postcode": "23323", "addr:state": "VA", "addr:street_address": "857 GEORGE WASHINGTON HWY N", "amenity": "post_box", "collection_times": "Mo-Fr 17:00; Sa 16:00", "note": "ON 12/24 AND 12/31, THIS BOX MAY BE COLLECTED AS EARLY AS 12 NOON.", "nsi_id": "unitedstatespostalservice-a77078", "operator": "United States Postal Service", "operator:short": "USPS", "operator:type": "public", "operator:wikidata": "Q668687", "ref": "2332300013"}, "type": "Feature"}
{"geometry": {"coordinates": [-76.343138509, 36.771219815], "type": "Point"}, "id": "CebH3SyJxaKE0AjA5DbPOEFLKPw=", "properties": {"@source_uri": "https://tools.usps.com/UspsToolsRestServices/rest/POLocator/findLocations", "@spider": "usps_collection_boxes", "addr:city": "CHESAPEAKE", "addr:country": "US", "addr:postcode": "23323", "addr:state": "VA", "addr:street_address": "857 GEORGE WASHINGTON HWY N", "amenity": "post_box", "collection_times": "Mo-Fr 17:00; Sa 16:00", "note": "ON 12/24 AND 12/31, THIS BOX MAY BE COLLECTED AS EARLY AS 12 NOON.", "nsi_id": "unitedstatespostalservice-a77078", "operator": "United States Postal Service", "operator:short": "USPS", "operator:type": "public", "operator:wikidata": "Q668687", "ref": "2332300014"}, "type": "Feature"}
{"geometry": {"coordinates": [-76.343138509, 36.771219815], "type": "Point"}, "id": "JUpd9Nv_NXn8aXBeph5R4x5xXMQ=", "properties": {"@source_uri": "https://tools.usps.com/UspsToolsRestServices/rest/POLocator/findLocations", "@spider": "usps_collection_boxes", "addr:city": "CHESAPEAKE", "addr:country": "US", "addr:postcode": "23323", "addr:state": "VA", "addr:street_address": "857 GEORGE WASHINGTON HWY N", "amenity": "post_box", "collection_times": "Mo-Fr 17:00; Sa 15:00", "indoor": "yes", "note": "ON 12/24 AND 12/31, THIS BOX MAY BE COLLECTED AS EARLY AS 12 NOON.", "nsi_id": "unitedstatespostalservice-a77078", "operator": "United States Postal Service", "operator:short": "USPS", "operator:type": "public", "operator:wikidata": "Q668687", "ref": "2332300016"}, "type": "Feature"}
{"geometry": {"coordinates": [-76.343138509, 36.771219815], "type": "Point"}, "id": "bpLP5wFeXBve91EoF4ehCCOKQx8=", "properties": {"@source_uri": "https://tools.usps.com/UspsToolsRestServices/rest/POLocator/findLocations", "@spider": "usps_collection_boxes", "addr:city": "CHESAPEAKE", "addr:country": "US", "addr:postcode": "23323", "addr:state": "VA", "addr:street_address": "857 GEORGE WASHINGTON HWY N", "amenity": "post_box", "collection_times": "Mo-Fr 17:00", "indoor": "yes", "note": "ON 12/24 AND 12/31, THIS BOX MAY BE COLLECTED AS EARLY AS 12 NOON.", "nsi_id": "unitedstatespostalservice-a77078", "operator": "United States Postal Service", "operator:short": "USPS", "operator:type": "public", "operator:wikidata": "Q668687", "ref": "2332300019"}, "type": "Feature"}
{"geometry": {"coordinates": [-76.280633361, 36.787827478], "type": "Point"}, "id": "Drx5TT_Qb6XvlyNKWWInCgmzos0=", "properties": {"@source_uri": "https://tools.usps.com/UspsToolsRestServices/rest/POLocator/findLocations", "@spider": "usps_collection_boxes", "addr:city": "CHESAPEAKE", "addr:country": "US", "addr:postcode": "23324", "addr:state": "VA", "addr:street_address": "1103 GODWIN AVE", "amenity": "post_box", "collection_times": "Mo-Fr 15:00; Sa 13:30", "note": "ON 12/24 AND 12/31, THIS BOX MAY BE COLLECTED AS EARLY AS 12 NOON.", "nsi_id": "unitedstatespostalservice-a77078", "operator": "United States Postal Service", "operator:short": "USPS", "operator:type": "public", "operator:wikidata": "Q668687", "ref": "2332400001"}, "type": "Feature"}
{"geometry": {"coordinates": [-76.2749237, 36.818195746], "type": "Point"}, "id": "4HJRDFnPe7BA4D0YGXOyt-8s-jI=", "properties": {"@source_uri": "https://tools.usps.com/UspsToolsRestServices/rest/POLocator/findLocations", "@spider": "usps_collection_boxes", "addr:city": "CHESAPEAKE", "addr:country": "US", "addr:postcode": "23324", "addr:state": "VA", "addr:street_address": "1013 RODGERS ST", "amenity": "post_box", "collection_times": "Mo-Fr 15:00; Sa 13:30", "note": "ON 12/24 AND 12/31, THIS BOX MAY BE COLLECTED AS EARLY AS 12 NOON.", "nsi_id": "unitedstatespostalservice-a77078", "operator": "United States Postal Service", "operator:short": "USPS", "operator:type": "public", "operator:wikidata": "Q668687", "ref": "2332400038"}, "type": "Feature"}
{"geometry": {"coordinates": [-76.274489525, 36.817902399], "type": "Point"}, "id": "vynn0lQ6mNd_vNhJDDsq8beUyno=", "properties": {"@source_uri": "https://tools.usps.com/UspsToolsRestServices/rest/POLocator/findLocations", "@spider": "usps_collection_boxes", "addr:city": "CHESAPEAKE", "addr:country": "US", "addr:postcode": "23324", "addr:state": "VA", "addr:street_address": "1210 POINDEXTER ST", "amenity": "post_box", "collection_times": "Mo-Fr 17:00; Sa 14:00", "note": "ON 12/24 AND 12/31, THIS BOX MAY BE COLLECTED AS EARLY AS 12 NOON.", "nsi_id": "unitedstatespostalservice-a77078", "operator": "United States Postal Service", "operator:short": "USPS", "operator:type": "public", "operator:wikidata": "Q668687", "ref": "2332400039"}, "type": "Feature"}
{"geometry": {"coordinates": [-76.274489525, 36.817902399], "type": "Point"}, "id": "_VD437aX45OXWmQHDT2ChSRR6cE=", "properties": {"@source_uri": "https://tools.usps.com/UspsToolsRestServices/rest/POLocator/findLocations", "@spider": "usps_collection_boxes", "addr:city": "CHESAPEAKE", "addr:country": "US", "addr:postcode": "23324", "addr:state": "VA", "addr:street_address": "1210 POINDEXTER ST", "amenity": "post_box", "collection_times": "Mo-Fr 17:00; Sa 12:00", "indoor": "yes", "note": "ON 12/24 AND 12/31, THIS BOX MAY BE COLLECTED AS EARLY AS 12 NOON.", "nsi_id": "unitedstatespostalservice-a77078", "operator": "United States Postal Service", "operator:short": "USPS", "operator:type": "public", "operator:wikidata": "Q668687", "ref": "2332400040"}, "type": "Feature"}
{"geometry": {"coordinates": [-76.2805476618, 36.7878382801], "type": "Point"}, "id": "FQOqIa-8xJNFGYEPeHLzDlaN8RE=", "properties": {"@source_uri": "https://tools.usps.com/UspsToolsRestServices/rest/POLocator/findLocations", "@spider": "usps_collection_boxes", "addr:city": "CHESAPEAKE", "addr:country": "US", "addr:postcode": "23324", "addr:state": "VA", "addr:street_address": "1103 GODWIN AVE", "amenity": "post_box", "collection_times": "Mo-Fr 12:00", "indoor": "yes", "nsi_id": "unitedstatespostalservice-a77078", "operator": "United States Postal Service", "operator:short": "USPS", "operator:type": "public", "operator:wikidata": "Q668687", "ref": "2332400051"}, "type": "Feature"}
{"geometry": {"coordinates": [-76.251310784, 36.819377172], "type": "Point"}, "id": "AO5HuWB8epreHQRGyPtlUliG-_I=", "properties": {"@source_uri": "https://tools.usps.com/UspsToolsRestServices/rest/POLocator/findLocations", "@spider": "usps_collection_boxes", "addr:city": "CHESAPEAKE", "addr:country": "US", "addr:postcode": "23325", "addr:state": "VA", "addr:street_address": "1501 WINGFIELD AVE", "amenity": "post_box", "collection_times": "Mo-Sa 12:30", "note": "ON 12/24 AND 12/31, THIS BOX MAY BE COLLECTED AS EARLY AS 12 NOON.", "nsi_id": "unitedstatespostalservice-a77078", "operator": "United States Postal Service", "operator:short": "USPS", "operator:type": "public", "operator:wikidata": "Q668687", "ref": "2332500004"}, "type": "Feature"}
{"geometry": {"coordinates": [-76.244284162, 36.801281148], "type": "Point"}, "id": "7U8OM8bM1hQdQfJ4zJUb8poEXOA=", "properties": {"@source_uri": "https://tools.usps.com/UspsToolsRestServices/rest/POLocator/findLocations", "@spider": "usps_collection_boxes", "addr:city": "CHESAPEAKE", "addr:country": "US", "addr:postcode": "23325", "addr:state": "VA", "addr:street_address": "436 PROVIDENCE RD", "amenity": "post_box", "collection_times": "Mo-Sa 12:00", "nsi_id": "unitedstatespostalservice-a77078", "operator": "United States Postal Service", "operator:short": "USPS", "operator:type": "public", "operator:wikidata": "Q668687", "ref": "2332500007"}, "type": "Feature"}
{"geometry": {"coordinates": [-76.253557523, 36.798605932], "type": "Point"}, "id": "_U0dcY40RaXCIs6fdWczl5F2C94=", "properties": {"@source_uri": "https://tools.usps.com/UspsToolsRestServices/rest/POLocator/findLocations", "@spider": "usps_collection_boxes", "addr:city": "CHESAPEAKE", "addr:country": "US", "addr:postcode": "23325", "addr:state": "VA", "addr:street_address": "211 PROVIDENCE RD", "amenity": "post_box", "collection_times": "Mo-Sa 11:00", "nsi_id": "unitedstatespostalservice-a77078", "operator": "United States Postal Service", "operator:short": "USPS", "operator:type": "public", "operator:wikidata": "Q668687", "ref": "2332500009"}, "type": "Feature"}
{"geometry": {"coordinates": [-76.2322830205, 36.8228780137], "type": "Point"}, "id": "sK2wQcXPs3QeDCX9kJeFqsw0C8k=", "properties": {"@source_uri": "https://tools.usps.com/UspsToolsRestServices/rest/POLocator/findLocations", "@spider": "usps_collection_boxes", "addr:city": "CHESAPEAKE", "addr:country": "US", "addr:postcode": "23325", "addr:state": "VA", "addr:street_address": "3810 INDIAN RIVER RD", "amenity": "post_box", "collection_times": "Mo-Fr 17:00", "name": "USPS COLLECTION BOX - EXPRESS", "note": "ON 12/24 AND 12/31, THIS BOX MAY BE COLLECTED AS EARLY AS 12 NOON.", "nsi_id": "unitedstatespostalservice-a77078", "operator": "United States Postal Service", "operator:short": "USPS", "operator:type": "public", "operator:wikidata": "Q668687", "ref": "2332500010"}, "type": "Feature"}
{"geometry": {"coordinates": [-76.2322830205, 36.8228780137], "type": "Point"}, "id": "1z5aXmYITLt7LPu8bQ8x1AauPsk=", "properties": {"@source_uri": "https://tools.usps.com/UspsToolsRestServices/rest/POLocator/findLocations", "@spider": "usps_collection_boxes", "addr:city": "CHESAPEAKE", "addr:country": "US", "addr:postcode": "23325", "addr:state": "VA", "addr:street_address": "3810 INDIAN RIVER RD", "amenity": "post_box", "collection_times": "Mo-Fr 17:00; Sa 15:00", "note": "ON 12/24 AND 12/31, THIS BOX MAY BE COLLECTED AS EARLY AS 12 NOON.", "nsi_id": "unitedstatespostalservice-a77078", "operator": "United States Postal Service", "operator:short": "USPS", "operator:type": "public", "operator:wikidata": "Q668687", "ref": "2332500011"}, "type": "Feature"}
{"geometry": {"coordinates": [-76.2322830205, 36.8228780137], "type": "Point"}, "id": "_guhRY-CEEj2ZHPW4R6bnrFaf58=", "properties": {"@source_uri": "https://tools.usps.com/UspsToolsRestServices/rest/POLocator/findLocations", "@spider": "usps_collection_boxes", "addr:city": "CHESAPEAKE", "addr:country": "US", "addr:postcode": "23325", "addr:state": "VA", "addr:street_address": "3810 INDIAN RIVER RD", "amenity": "post_box", "collection_times": "Mo-Fr 17:00; Sa 15:00", "note": "ON 12/24 AND 12/31, THIS BOX MAY BE COLLECTED AS EARLY AS 12 NOON.", "nsi_id": "unitedstatespostalservice-a77078", "operator": "United States Postal Service", "operator:short": "USPS", "operator:type": "public", "operator:wikidata": "Q668687", "ref": "2332500012"}, "type": "Feature"}
{"geometry": {"coordinates": [-76.2322830205, 36.8228780137], "type": "Point"}, "id": "665DMWFrBuskRfhTk49KrjzPK1I=", "properties": {"@source_uri": "https://tools.usps.com/UspsToolsRestServices/rest/POLocator/findLocations", "@spider": "usps_collection_boxes", "addr:city": "CHESAPEAKE", "addr:country": "US", "addr:postcode": "23325", "addr:state": "VA", "addr:street_address": "3810 INDIAN RIVER RD", "amenity": "post_box", "collection_times": "Mo-Fr 17:00; Sa 15:00", "indoor": "yes", "note": "ON 12/24 AND 12/31, THIS BOX MAY BE COLLECTED AS EARLY AS 12 NOON.", "nsi_id": "unitedstatespostalservice-a77078", "operator": "United States Postal Service", "operator:short": "USPS", "operator:type": "public", "operator:wikidata": "Q668687", "ref": "2332500015"}, "type": "Feature"}
{"geometry": {"coordinates": [-76.2322830205, 36.8228780137], "type": "Point"}, "id": "dHBvyaewcvmJ1wGzR4BKcT_CM8U=", "properties": {"@source_uri": "https://tools.usps.com/UspsToolsRestServices/rest/POLocator/findLocations", "@spider": "usps_collection_boxes", "addr:city": "CHESAPEAKE", "addr:country": "US", "addr:postcode": "23325", "addr:state": "VA", "addr:street_address": "3810 INDIAN RIVER RD", "amenity": "post_box", "collection_times": "Mo-Fr 17:00", "indoor": "yes", "note": "ON 12/24 AND 12/31, THIS BOX MAY BE COLLECTED AS EARLY AS 12 NOON.", "nsi_id": "unitedstatespostalservice-a77078", "operator": "United States Postal Service", "operator:short": "USPS", "operator:type": "public", "operator:wikidata": "Q668687", "ref": "2332500017"}, "type": "Feature"}
{"geometry": {"coordinates": [-75.37487572, 37.934776323], "type": "Point"}, "id": "avSHsvKMldQw2Zp6EOYGvLo8Sko=", "properties": {"@source_uri": "https://tools.usps.com/UspsToolsRestServices/rest/POLocator/findLocations", "@spider": "usps_collection_boxes", "addr:city": "CHINCOTEAGUE", "addr:country": "US", "addr:postcode": "23336", "addr:state": "VA", "addr:street_address": "4144 MAIN ST", "amenity": "post_box", "collection_times": "Mo-Fr 16:15; Sa 12:00", "note": "ON 12/24 AND 12/31, THIS BOX MAY BE COLLECTED AS EARLY AS 12 NOON.", "nsi_id": "unitedstatespostalservice-a77078", "operator": "United States Postal Service", "operator:short": "USPS", "operator:type": "public", "operator:wikidata": "Q668687", "ref": "2333600001"}, "type": "Feature"}
{"geometry": {"coordinates": [-75.37487572, 37.934776323], "type": "Point"}, "id": "58wVokiqVQBWarc22c7-N6BNzOI=", "properties": {"@source_uri": "https://tools.usps.com/UspsToolsRestServices/rest/POLocator/findLocations", "@spider": "usps_collection_boxes", "addr:city": "CHINCOTEAGUE", "addr:country": "US", "addr:postcode": "23336", "addr:state": "VA", "addr:street_address": "4144 MAIN ST", "amenity": "post_box", "collection_times": "Mo-Fr 16:30; Sa 12:00", "indoor": "yes", "note": "ON 12/24 AND 12/31, THIS BOX MAY BE COLLECTED AS EARLY AS 12 NOON.", "nsi_id": "unitedstatespostalservice-a77078", "operator": "United States Postal Service", "operator:short": "USPS", "operator:type": "public", "operator:wikidata": "Q668687", "ref": "2333600020"}, "type": "Feature"}
{"geometry": {"coordinates": [-75.37487572, 37.934776323], "type": "Point"}, "id": "QIsPwDSaBg1PAW6z1brO9QOuJ04=", "properties": {"@source_uri": "https://tools.usps.com/UspsToolsRestServices/rest/POLocator/findLocations", "@spider": "usps_collection_boxes", "addr:city": "CHINCOTEAGUE", "addr:country": "US", "addr:postcode": "23336", "addr:state": "VA", "addr:street_address": "4144 MAIN ST", "amenity": "post_box", "collection_times": "Mo-Fr 16:30; Sa 12:00", "indoor": "yes", "note": "ON 12/24 AND 12/31, THIS BOX MAY BE COLLECTED AS EARLY AS 12 NOON.", "nsi_id": "unitedstatespostalservice-a77078", "operator": "United States Postal Service", "operator:short": "USPS", "operator:type": "public", "operator:wikidata": "Q668687", "ref": "2333600024"}, "type": "Feature"}
{"geometry": {"coordinates": [-75.4689898128, 37.9383495857], "type": "Point"}, "id": "vc6CK2lDt175abfJS01EEItlOfc=", "properties": {"@source_uri": "https://tools.usps.com/UspsToolsRestServices/rest/POLocator/findLocations", "@spider": "usps_collection_boxes", "addr:city": "WALLOPS ISLAND", "addr:country": "US", "addr:postcode": "23337", "addr:state": "VA", "addr:street_address": "100 OREILEY ST", "amenity": "post_box", "collection_times": "Mo-Fr 10:15", "nsi_id": "unitedstatespostalservice-a77078", "operator": "United States Postal Service", "operator:short": "USPS", "operator:type": "public", "operator:wikidata": "Q668687", "ref": "2333700001"}, "type": "Feature"}
{"geometry": {"coordinates": [-75.4689898128, 37.9383495857], "type": "Point"}, "id": "n0-kWY1_2cVrzLch6A6MbFyRjj8=", "properties": {"@source_uri": "https://tools.usps.com/UspsToolsRestServices/rest/POLocator/findLocations", "@spider": "usps_collection_boxes", "addr:city": "WALLOPS ISLAND", "addr:country": "US", "addr:postcode": "23337", "addr:state": "VA", "addr:street_address": "100 OREILEY ST", "amenity": "post_box", "collection_times": "Mo-Fr 10:15", "indoor": "yes", "nsi_id": "unitedstatespostalservice-a77078", "operator": "United States Postal Service", "operator:short": "USPS", "operator:type": "public", "operator:wikidata": "Q668687", "ref": "2333700003"}, "type": "Feature"}
{"geometry": {"coordinates": [-75.4708598359, 37.9364009928], "type": "Point"}, "id": "NoazDRc1l48zdnu9l7H-zewjuSg=", "properties": {"@source_uri": "https://tools.usps.com/UspsToolsRestServices/rest/POLocator/findLocations", "@spider": "usps_collection_boxes", "addr:city": "WALLOPS ISLAND", "addr:country": "US", "addr:postcode": "23337", "addr:state": "VA", "addr:street_address": "7 OREILEY ST BLDG E", "amenity": "post_box", "collection_times": "Mo-Fr 15:30", "indoor": "yes", "note": "ON 12/24 AND 12/31, THIS BOX MAY BE COLLECTED AS EARLY AS 12 NOON.", "nsi_id": "unitedstatespostalservice-a77078", "operator": "United States Postal Service", "operator:short": "USPS", "operator:type": "public", "operator:wikidata": "Q668687", "ref": "2333700006"}, "type": "Feature"}
{"geometry": {"coordinates": [-75.86472, 37.585], "type": "Point"}, "id": "RV-T8t8-Tlt2ASXq-72IMsUwh2E=", "properties": {"@source_uri": "https://tools.usps.com/UspsToolsRestServices/rest/POLocator/findLocations", "@spider": "usps_collection_boxes", "addr:city": "CRADDOCKVILLE", "addr:country": "US", "addr:postcode": "23341", "addr:state": "VA", "addr:street_address": "34032 CRADDOCKVILLE RD", "amenity": "post_box", "collection_times": "Mo-Fr 16:15; Sa 11:30", "note": "ON 12/24 AND 12/31, THIS BOX MAY BE COLLECTED AS EARLY AS 12 NOON.", "nsi_id": "unitedstatespostalservice-a77078", "operator": "United States Postal Service", "operator:short": "USPS", "operator:type": "public", "operator:wikidata": "Q668687", "ref": "2334100000"}, "type": "Feature"}
{"geometry": {"coordinates": [-75.869520844, 37.581144962], "type": "Point"}, "id": "MF_sJdmUmlicyI-J-UFLYEnR9os=", "properties": {"@source_uri": "https://tools.usps.com/UspsToolsRestServices/rest/POLocator/findLocations", "@spider": "usps_collection_boxes", "addr:city": "CRADDOCKVILLE", "addr:country": "US", "addr:postcode": "23341", "addr:state": "VA", "addr:street_address": "34032 CRADDOCKVILLE RD", "amenity": "post_box", "collection_times": "Mo-Fr 16:15; Sa 11:30", "indoor": "yes", "note": "ON 12/24 AND 12/31, THIS BOX MAY BE COLLECTED AS EARLY AS 12 NOON.", "nsi_id": "unitedstatespostalservice-a77078", "operator": "United States Postal Service", "operator:short": "USPS", "operator:type": "public", "operator:wikidata": "Q668687", "ref": "2334100001"}, "type": "Feature"}
{"geometry": {"coordinates": [-75.869520844, 37.581144962], "type": "Point"}, "id": "632MWSMV3vHzefjexC8SPichSUc=", "properties": {"@source_uri": "https://tools.usps.com/UspsToolsRestServices/rest/POLocator/findLocations", "@spider": "usps_collection_boxes", "addr:city": "CRADDOCKVILLE", "addr:country": "US", "addr:postcode": "23341", "addr:state": "VA", "addr:street_address": "34032 CRADDOCKVILLE RD", "amenity": "post_box", "collection_times": "Mo-Fr 16:15; Sa 12:00", "indoor": "yes", "note": "ON 12/24 AND 12/31, THIS BOX MAY BE COLLECTED AS EARLY AS 12 NOON.", "nsi_id": "unitedstatespostalservice-a77078", "operator": "United States Postal Service", "operator:short": "USPS", "operator:type": "public", "operator:wikidata": "Q668687", "ref": "2334100003"}, "type": "Feature"}
{"geometry": {"coordinates": [-75.944906912, 37.352783271], "type": "Point"}, "id": "er0E6btSh9l-jMUoqIY6qgYj8nM=", "properties": {"@source_uri": "https://tools.usps.com/UspsToolsRestServices/rest/POLocator/findLocations", "@spider": "usps_collection_boxes", "addr:city": "EASTVILLE", "addr:country": "US", "addr:postcode": "23347", "addr:state": "VA", "addr:street_address": "5253 WILLOW OAK RD", "amenity": "post_box", "collection_times": "Mo-Fr 16:30; Sa 12:00", "note": "ON 12/24 AND 12/31, THIS BOX MAY BE COLLECTED AS EARLY AS 12 NOON.", "nsi_id": "unitedstatespostalservice-a77078", "operator": "United States Postal Service", "operator:short": "USPS", "operator:type": "public", "operator:wikidata": "Q668687", "ref": "2334700001"}, "type": "Feature"}
{"geometry": {"coordinates": [-75.944906912, 37.352783271], "type": "Point"}, "id": "-ztXKCinb2vXo8MSQ_Yu-hFsPc0=", "properties": {"@source_uri": "https://tools.usps.com/UspsToolsRestServices/rest/POLocator/findLocations", "@spider": "usps_collection_boxes", "addr:city": "EASTVILLE", "addr:country": "US", "addr:postcode": "23347", "addr:state": "VA", "addr:street_address": "5253 WILLOW OAK RD", "amenity": "post_box", "collection_times": "Mo-Fr 16:30; Sa 12:00", "indoor": "yes", "note": "ON 12/24 AND 12/31, THIS BOX MAY BE COLLECTED AS EARLY AS 12 NOON.", "nsi_id": "unitedstatespostalservice-a77078", "operator": "United States Postal Service", "operator:short": "USPS", "operator:type": "public", "operator:wikidata": "Q668687", "ref": "2334700002"}, "type": "Feature"}
{"geometry": {"coordinates": [-75.944906912, 37.352783271], "type": "Point"}, "id": "NVSKmKa2ZUjTNy2HMUODRgA4dVY=", "properties": {"@source_uri": "https://tools.usps.com/UspsToolsRestServices/rest/POLocator/findLocations", "@spider": "usps_collection_boxes", "addr:city": "EASTVILLE", "addr:country": "US", "addr:postcode": "23347", "addr:state": "VA", "addr:street_address": "5253 WILLOW OAK RD", "amenity": "post_box", "collection_times": "Mo-Fr 16:30; Sa 12:00", "indoor": "yes", "note": "ON 12/24 AND 12/31, THIS BOX MAY BE COLLECTED AS EARLY AS 12 NOON.", "nsi_id": "unitedstatespostalservice-a77078", "operator": "United States Postal Service", "operator:short": "USPS", "operator:type": "public", "operator:wikidata": "Q668687", "ref": "2334700005"}, "type": "Feature"}
{"geometry": {"coordinates": [-75.821803511, 37.53117676], "type": "Point"}, "id": "fe-9NB7wyFLHApFbqU9HcVWjVCA=", "properties": {"@source_uri": "https://tools.usps.com/UspsToolsRestServices/rest/POLocator/findLocations", "@spider": "usps_collection_boxes", "addr:city": "EXMORE", "addr:country": "US", "addr:postcode": "23350", "addr:state": "VA", "addr:street_address": "12144 BANK AVE", "amenity": "post_box", "collection_times": "Mo-Fr 16:15; Sa 11:45", "note": "ON 12/24 AND 12/31, THIS BOX MAY BE COLLECTED AS EARLY AS 12 NOON.", "nsi_id": "unitedstatespostalservice-a77078", "operator": "United States Postal Service", "operator:short": "USPS", "operator:type": "public", "operator:wikidata": "Q668687", "ref": "2335000001"}, "type": "Feature"}
{"geometry": {"coordinates": [-75.831876692, 37.524022423], "type": "Point"}, "id": "p7So_PIy8H-u4e7KzPyaaXKL354=", "properties": {"@source_uri": "https://tools.usps.com/UspsToolsRestServices/rest/POLocator/findLocations", "@spider": "usps_collection_boxes", "addr:city": "EXMORE", "addr:country": "US", "addr:postcode": "23350", "addr:state": "VA", "addr:street_address": "4072 LANKFORD HWY", "amenity": "post_box", "collection_times": "Mo-Sa 10:00", "nsi_id": "unitedstatespostalservice-a77078", "operator": "United States Postal Service", "operator:short": "USPS", "operator:type": "public", "operator:wikidata": "Q668687", "ref": "2335000002"}, "type": "Feature"}
{"geometry": {"coordinates": [-75.821803511, 37.53117676], "type": "Point"}, "id": "WT8_ocryD6hhmzY4IhTl3qZlwsI=", "properties": {"@source_uri": "https://tools.usps.com/UspsToolsRestServices/rest/POLocator/findLocations", "@spider": "usps_collection_boxes", "addr:city": "EXMORE", "addr:country": "US", "addr:postcode": "23350", "addr:state": "VA", "addr:street_address": "12144 BANK AVE", "amenity": "post_box", "collection_times": "Mo-Fr 16:15; Sa 11:45", "indoor": "yes", "note": "ON 12/24 AND 12/31, THIS BOX MAY BE COLLECTED AS EARLY AS 12 NOON.", "nsi_id": "unitedstatespostalservice-a77078", "operator": "United States Postal Service", "operator:short": "USPS", "operator:type": "public", "operator:wikidata": "Q668687", "ref": "2335000004"}, "type": "Feature"}
{"geometry": {"coordinates": [-75.821803511, 37.53117676], "type": "Point"}, "id": "4cjx480AEqJWCpg8qhI7OxU97hA=", "properties": {"@source_uri": "https://tools.usps.com/UspsToolsRestServices/rest/POLocator/findLocations", "@spider": "usps_collection_boxes", "addr:city": "EXMORE", "addr:country": "US", "addr:postcode": "23350", "addr:state": "VA", "addr:street_address": "12144 BANK AVE", "amenity": "post_box", "collection_times": "Mo-Fr 16:30; Sa 12:00", "indoor": "yes", "note": "ON 12/24 AND 12/31, THIS BOX MAY BE COLLECTED AS EARLY AS 12 NOON.", "nsi_id": "unitedstatespostalservice-a77078", "operator": "United States Postal Service", "operator:short": "USPS", "operator:type": "public", "operator:wikidata": "Q668687", "ref": "2335000007"}, "type": "Feature"}
{"geometry": {"coordinates": [-75.877354013, 37.476667006], "type": "Point"}, "id": "zESZH8Quk_bF5BuOD7Ep2txuLmA=", "properties": {"@source_uri": "https://tools.usps.com/UspsToolsRestServices/rest/POLocator/findLocations", "@spider": "usps_collection_boxes", "addr:city": "FRANKTOWN", "addr:country": "US", "addr:postcode": "23354", "addr:state": "VA", "addr:street_address": "9135 FRANKTOWN RD", "amenity": "post_box", "collection_times": "Mo-Fr 16:30; Sa 11:45", "note": "ON 12/24 AND 12/31, THIS BOX MAY BE COLLECTED AS EARLY AS 12 NOON.", "nsi_id": "unitedstatespostalservice-a77078", "operator": "United States Postal Service", "operator:short": "USPS", "operator:type": "public", "operator:wikidata": "Q668687", "ref": "2335400001"}, "type": "Feature"}
{"geometry": {"coordinates": [-75.876352944, 37.475480977], "type": "Point"}, "id": "jpWgIy8hXkPXVXWdwoZSU3H17XE=", "properties": {"@source_uri": "https://tools.usps.com/UspsToolsRestServices/rest/POLocator/findLocations", "@spider": "usps_collection_boxes", "addr:city": "FRANKTOWN", "addr:country": "US", "addr:postcode": "23354", "addr:state": "VA", "addr:street_address": "9135 FRANKTOWN RD", "amenity": "post_box", "collection_times": "Mo-Fr 16:30; Sa 11:45", "indoor": "yes", "note": "ON 12/24 AND 12/31, THIS BOX MAY BE COLLECTED AS EARLY AS 12 NOON.", "nsi_id": "unitedstatespostalservice-a77078", "operator": "United States Postal Service", "operator:short": "USPS", "operator:type": "public", "operator:wikidata": "Q668687", "ref": "2335400002"}, "type": "Feature"}
{"geometry": {"coordinates": [-75.876352944, 37.475480977], "type": "Point"}, "id": "z5yKyna5PvO88Lw9DXrVFY7ZIEs=", "properties": {"@source_uri": "https://tools.usps.com/UspsToolsRestServices/rest/POLocator/findLocations", "@spider": "usps_collection_boxes", "addr:city": "FRANKTOWN", "addr:country": "US", "addr:postcode": "23354", "addr:state": "VA", "addr:street_address": "9135 FRANKTOWN RD", "amenity": "post_box", "collection_times": "Mo-Fr 16:30; Sa 12:00", "indoor": "yes", "note": "ON 12/24 AND 12/31, THIS BOX MAY BE COLLECTED AS EARLY AS 12 NOON.", "nsi_id": "unitedstatespostalservice-a77078", "operator": "United States Postal Service", "operator:short": "USPS", "operator:type": "public", "operator:wikidata": "Q668687", "ref": "2335400004"}, "type": "Feature"}
{"geometry": {"coordinates": [-75.421669414, 37.990234357], "type": "Point"}, "id": "3KyPLHbiBHE9QEf0jADhjFPsHkI=", "properties": {"@source_uri": "https://tools.usps.com/UspsToolsRestServices/rest/POLocator/findLocations", "@spider": "usps_collection_boxes", "addr:city": "GREENBACKVILLE", "addr:country": "US", "addr:postcode": "23356", "addr:state": "VA", "addr:street_address": "3334 CAPTAINS CORRIDOR", "amenity": "post_box", "collection_times": "Mo-Sa 11:00", "nsi_id": "unitedstatespostalservice-a77078", "operator": "United States Postal Service", "operator:short": "USPS", "operator:type": "public", "operator:wikidata": "Q668687", "ref": "2335600002"}, "type": "Feature"}
{"geometry": {"coordinates": [-75.422558392, 38.010536885], "type": "Point"}, "id": "4sBQx8MoItGfpgRgZwWJFzFFQjE=", "properties": {"@source_uri": "https://tools.usps.com/UspsToolsRestServices/rest/POLocator/findLocations", "@spider": "usps_collection_boxes", "addr:city": "GREENBACKVILLE", "addr:country": "US", "addr:postcode": "23356", "addr:state": "VA", "addr:street_address": "4231 CAPTAINS CORRIDOR", "amenity": "post_box", "collection_times": "Mo-Sa 10:30", "nsi_id": "unitedstatespostalservice-a77078", "operator": "United States Postal Service", "operator:short": "USPS", "operator:type": "public", "operator:wikidata": "Q668687", "ref": "2335600004"}, "type": "Feature"}
{"geometry": {"coordinates": [-75.681707138, 37.741565535], "type": "Point"}, "id": "Z41hQQkUe5CgZEhoV7JyuI3OV0o=", "properties": {"@source_uri": "https://tools.usps.com/UspsToolsRestServices/rest/POLocator/findLocations", "@spider": "usps_collection_boxes", "addr:city": "GREENBUSH", "addr:country": "US", "addr:postcode": "23357", "addr:state": "VA", "addr:street_address": "21988 GREENBUSH RD", "amenity": "post_box", "collection_times": "Mo-Fr 16:45; Sa 11:45", "note": "ON 12/24 AND 12/31, THIS BOX MAY BE COLLECTED AS EARLY AS 12 NOON.", "nsi_id": "unitedstatespostalservice-a77078", "operator": "United States Postal Service", "operator:short": "USPS", "operator:type": "public", "operator:wikidata": "Q668687", "ref": "2335700001"}, "type": "Feature"}
{"geometry": {"coordinates": [-75.681707138, 37.741565535], "type": "Point"}, "id": "-W1Dbi2y3LoYXGMTG1m6dnpGkvc=", "properties": {"@source_uri": "https://tools.usps.com/UspsToolsRestServices/rest/POLocator/findLocations", "@spider": "usps_collection_boxes", "addr:city": "GREENBUSH", "addr:country": "US", "addr:postcode": "23357", "addr:state": "VA", "addr:street_address": "21988 GREENBUSH RD", "amenity": "post_box", "collection_times": "Mo-Fr 16:45; Sa 12:45", "indoor": "yes", "note": "ON 12/24 AND 12/31, THIS BOX MAY BE COLLECTED AS EARLY AS 12 NOON.", "nsi_id": "unitedstatespostalservice-a77078", "operator": "United States Postal Service", "operator:short": "USPS", "operator:type": "public", "operator:wikidata": "Q668687", "ref": "2335700004"}, "type": "Feature"}
{"geometry": {"coordinates": [-75.589616729, 37.877551528], "type": "Point"}, "id": "Z1xmlaNbMoulZBYo06wx7M5MGzI=", "properties": {"@source_uri": "https://tools.usps.com/UspsToolsRestServices/rest/POLocator/findLocations", "@spider": "usps_collection_boxes", "addr:city": "HALLWOOD", "addr:country": "US", "addr:postcode": "23359", "addr:state": "VA", "addr:street_address": "27497 MAIN ST", "amenity": "post_box", "collection_times": "Mo-Fr 16:30; Sa 11:45", "note": "ON 12/24 AND 12/31, THIS BOX MAY BE COLLECTED AS EARLY AS 12 NOON.", "nsi_id": "unitedstatespostalservice-a77078", "operator": "United States Postal Service", "operator:short": "USPS", "operator:type": "public", "operator:wikidata": "Q668687", "ref": "2335900001"}, "type": "Feature"}
{"geometry": {"coordinates": [-75.589616729, 37.877551528], "type": "Point"}, "id": "evWete7EqJaAyX6W4EPQxmnssW4=", "properties": {"@source_uri": "https://tools.usps.com/UspsToolsRestServices/rest/POLocator/findLocations", "@spider": "usps_collection_boxes", "addr:city": "HALLWOOD", "addr:country": "US", "addr:postcode": "23359", "addr:state": "VA", "addr:street_address": "27497 MAIN ST", "amenity": "post_box", "collection_times": "Mo-Fr 16:30; Sa 11:45", "indoor": "yes", "note": "ON 12/24 AND 12/31, THIS BOX MAY BE COLLECTED AS EARLY AS 12 NOON.", "nsi_id": "unitedstatespostalservice-a77078", "operator": "United States Postal Service", "operator:short": "USPS", "operator:type": "public", "operator:wikidata": "Q668687", "ref": "2335900002"}, "type": "Feature"}
{"geometry": {"coordinates": [-75.589616729, 37.877551528], "type": "Point"}, "id": "ojDQ-7ylDRjY5yqDHvQg20Kngkw=", "properties": {"@source_uri": "https://tools.usps.com/UspsToolsRestServices/rest/POLocator/findLocations", "@spider": "usps_collection_boxes", "addr:city": "HALLWOOD", "addr:country": "US", "addr:postcode": "23359", "addr:state": "VA", "addr:street_address": "27497 MAIN ST", "amenity": "post_box", "collection_times": "Mo-Fr 16:45; Sa 13:00", "indoor": "yes", "note": "ON 12/24 AND 12/31, THIS BOX MAY BE COLLECTED AS EARLY AS 12 NOON.", "nsi_id": "unitedstatespostalservice-a77078", "operator": "United States Postal Service", "operator:short": "USPS", "operator:type": "public", "operator:wikidata": "Q668687", "ref": "2335900004"}, "type": "Feature"}
{"geometry": {"coordinates": [-75.83227, 37.66099], "type": "Point"}, "id": "-CoYNXZsxhGCIR9KEbJLCNZZVlo=", "properties": {"@source_uri": "https://tools.usps.com/UspsToolsRestServices/rest/POLocator/findLocations", "@spider": "usps_collection_boxes", "addr:city": "HARBORTON", "addr:country": "US", "addr:postcode": "23389", "addr:state": "VA", "addr:street_address": "28059 DOCKVIEW ST", "amenity": "post_box", "collection_times": "Mo-Fr 16:15; Sa 11:30", "note": "ON 12/24 AND 12/31, THIS BOX MAY BE COLLECTED AS EARLY AS 12 NOON.", "nsi_id": "unitedstatespostalservice-a77078", "operator": "United States Postal Service", "operator:short": "USPS", "operator:type": "public", "operator:wikidata": "Q668687", "ref": "2338900001"}, "type": "Feature"}
{"geometry": {"coordinates": [-75.83227, 37.66099], "type": "Point"}, "id": "NnaTY6UBGGNXDk6HwoFQ6_e4JRY=", "properties": {"@source_uri": "https://tools.usps.com/UspsToolsRestServices/rest/POLocator/findLocations", "@spider": "usps_collection_boxes", "addr:city": "HARBORTON", "addr:country": "US", "addr:postcode": "23389", "addr:state": "VA", "addr:street_address": "28059 DOCKVIEW ST", "amenity": "post_box", "collection_times": "Mo-Fr 16:15; Sa 11:30", "indoor": "yes", "note": "ON 12/24 AND 12/31, THIS BOX MAY BE COLLECTED AS EARLY AS 12 NOON.", "nsi_id": "unitedstatespostalservice-a77078", "operator": "United States Postal Service", "operator:short": "USPS", "operator:type": "public", "operator:wikidata": "Q668687", "ref": "2338900002"}, "type": "Feature"}
{"geometry": {"coordinates": [-75.83227, 37.66099], "type": "Point"}, "id": "6II3UWwU55RFROHP-rfsxm0E9G4=", "properties": {"@source_uri": "https://tools.usps.com/UspsToolsRestServices/rest/POLocator/findLocations", "@spider": "usps_collection_boxes", "addr:city": "HARBORTON", "addr:country": "US", "addr:postcode": "23389", "addr:state": "VA", "addr:street_address": "28059 DOCKVIEW ST", "amenity": "post_box", "collection_times": "Mo-Fr 16:30; Sa 12:00", "indoor": "yes", "note": "ON 12/24 AND 12/31, THIS BOX MAY BE COLLECTED AS EARLY AS 12 NOON.", "nsi_id": "unitedstatespostalservice-a77078", "operator": "United States Postal Service", "operator:short": "USPS", "operator:type": "public", "operator:wikidata": "Q668687", "ref": "2338900004"}, "type": "Feature"}
{"geometry": {"coordinates": [-75.461586865, 37.970521531], "type": "Point"}, "id": "_UoDund2NPYGTYqZnJBnosQM5TY=", "properties": {"@source_uri": "https://tools.usps.com/UspsToolsRestServices/rest/POLocator/findLocations", "@spider": "usps_collection_boxes", "addr:city": "HORNTOWN", "addr:country": "US", "addr:postcode": "23395", "addr:state": "VA", "addr:street_address": "4581 FLEMING RD", "amenity": "post_box", "collection_times": "Mo-Fr 16:30; Sa 11:45", "note": "ON 12/24 AND 12/31, THIS BOX MAY BE COLLECTED AS EARLY AS 12 NOON.", "nsi_id": "unitedstatespostalservice-a77078", "operator": "United States Postal Service", "operator:short": "USPS", "operator:type": "public", "operator:wikidata": "Q668687", "ref": "2339500000"}, "type": "Feature"}
{"geometry": {"coordinates": [-75.461586865, 37.970521531], "type": "Point"}, "id": "LEIeJbtE2ihl-sxkwfcbHjgH8-I=", "properties": {"@source_uri": "https://tools.usps.com/UspsToolsRestServices/rest/POLocator/findLocations", "@spider": "usps_collection_boxes", "addr:city": "HORNTOWN", "addr:country": "US", "addr:postcode": "23395", "addr:state": "VA", "addr:street_address": "4581 FLEMING RD", "amenity": "post_box", "collection_times": "Mo-Fr 16:30; Sa 11:45", "indoor": "yes", "note": "ON 12/24 AND 12/31, THIS BOX MAY BE COLLECTED AS EARLY AS 12 NOON.", "nsi_id": "unitedstatespostalservice-a77078", "operator": "United States Postal Service", "operator:short": "USPS", "operator:type": "public", "operator:wikidata": "Q668687", "ref": "2339500001"}, "type": "Feature"}
{"geometry": {"coordinates": [-75.461586865, 37.970521531], "type": "Point"}, "id": "7nxdqXTPG4EMNgic-7p1SM3jx9o=", "properties": {"@source_uri": "https://tools.usps.com/UspsToolsRestServices/rest/POLocator/findLocations", "@spider": "usps_collection_boxes", "addr:city": "HORNTOWN", "addr:country": "US", "addr:postcode": "23395", "addr:state": "VA", "addr:street_address": "4581 FLEMING RD", "amenity": "post_box", "collection_times": "Mo-Fr 16:30; Sa 12:30", "indoor": "yes", "note": "ON 12/24 AND 12/31, THIS BOX MAY BE COLLECTED AS EARLY AS 12 NOON.", "nsi_id": "unitedstatespostalservice-a77078", "operator": "United States Postal Service", "operator:short": "USPS", "operator:type": "public", "operator:wikidata": "Q668687", "ref": "2339500003"}, "type": "Feature"}
{"geometry": {"coordinates": [-76.708537148, 36.907278016], "type": "Point"}, "id": "wnXWjxx9KE7_7ApcCHXAvA4_3Lo=", "properties": {"@source_uri": "https://tools.usps.com/UspsToolsRestServices/rest/POLocator/findLocations", "@spider": "usps_collection_boxes", "addr:city": "ISLE OF WIGHT", "addr:country": "US", "addr:postcode": "23397", "addr:state": "VA", "addr:street_address": "17161 COURTHOUSE HWY", "amenity": "post_box", "collection_times": "Mo-Fr 15:45; Sa 11:30", "note": "ON 12/24 AND 12/31, THIS BOX MAY BE COLLECTED AS EARLY AS 12 NOON.", "nsi_id": "unitedstatespostalservice-a77078", "operator": "United States Postal Service", "operator:short": "USPS", "operator:type": "public", "operator:wikidata": "Q668687", "ref": "2339700001"}, "type": "Feature"}
{"geometry": {"coordinates": [-76.708537148, 36.907278016], "type": "Point"}, "id": "EIinSFzvtRFPoGY3FLXhfnZH-uU=", "properties": {"@source_uri": "https://tools.usps.com/UspsToolsRestServices/rest/POLocator/findLocations", "@spider": "usps_collection_boxes", "addr:city": "ISLE OF WIGHT", "addr:country": "US", "addr:postcode": "23397", "addr:state": "VA", "addr:street_address": "17161 COURTHOUSE HWY", "amenity": "post_box", "collection_times": "Mo-Fr 16:00; Sa 11:30", "indoor": "yes", "note": "ON 12/24 AND 12/31, THIS BOX MAY BE COLLECTED AS EARLY AS 12 NOON.", "nsi_id": "unitedstatespostalservice-a77078", "operator": "United States Postal Service", "operator:short": "USPS", "operator:type": "public", "operator:wikidata": "Q668687", "ref": "2339700002"}, "type": "Feature"}
{"geometry": {"coordinates": [-76.708537148, 36.907278016], "type": "Point"}, "id": "JgzTbgCuY4ed7k04MGD3DrfzB8U=", "properties": {"@source_uri": "https://tools.usps.com/UspsToolsRestServices/rest/POLocator/findLocations", "@spider": "usps_collection_boxes", "addr:city": "ISLE OF WIGHT", "addr:country": "US", "addr:postcode": "23397", "addr:state": "VA", "addr:street_address": "17161 COURTHOUSE HWY", "amenity": "post_box", "collection_times": "Mo-Fr 16:00; Sa 12:00", "indoor": "yes", "note": "ON 12/24 AND 12/31, THIS BOX MAY BE COLLECTED AS EARLY AS 12 NOON.", "nsi_id": "unitedstatespostalservice-a77078", "operator": "United States Postal Service", "operator:short": "USPS", "operator:type": "public", "operator:wikidata": "Q668687", "ref": "2339700004"}, "type": "Feature"}
{"geometry": {"coordinates": [-75.93028674, 37.51514424], "type": "Point"}, "id": "rxYeOrNtLUJLf3m5jmBZjU8eOo8=", "properties": {"@source_uri": "https://tools.usps.com/UspsToolsRestServices/rest/POLocator/findLocations", "@spider": "usps_collection_boxes", "addr:city": "JAMESVILLE", "addr:country": "US", "addr:postcode": "23398", "addr:state": "VA", "addr:street_address": "6010 OCCOHANNOCK NECK RD", "amenity": "post_box", "collection_times": "Mo-Fr 16:30; Sa 11:30", "note": "ON 12/24 AND 12/31, THIS BOX MAY BE COLLECTED AS EARLY AS 12 NOON.", "nsi_id": "unitedstatespostalservice-a77078", "operator": "United States Postal Service", "operator:short": "USPS", "operator:type": "public", "operator:wikidata": "Q668687", "ref": "2339800001"}, "type": "Feature"}
{"geometry": {"coordinates": [-75.93028674, 37.51514424], "type": "Point"}, "id": "3YuadlpINnODDgmgztu6hB6-rZI=", "properties": {"@source_uri": "https://tools.usps.com/UspsToolsRestServices/rest/POLocator/findLocations", "@spider": "usps_collection_boxes", "addr:city": "JAMESVILLE", "addr:country": "US", "addr:postcode": "23398", "addr:state": "VA", "addr:street_address": "6010 OCCOHANNOCK NECK RD", "amenity": "post_box", "collection_times": "Mo-Fr 16:30; Sa 11:30", "indoor": "yes", "note": "ON 12/24 AND 12/31, THIS BOX MAY BE COLLECTED AS EARLY AS 12 NOON.", "nsi_id": "unitedstatespostalservice-a77078", "operator": "United States Postal Service", "operator:short": "USPS", "operator:type": "public", "operator:wikidata": "Q668687", "ref": "2339800002"}, "type": "Feature"}
{"geometry": {"coordinates": [-75.93028674, 37.51514424], "type": "Point"}, "id": "zvGcc6xFLJRH1jn3aZi2hPjHsk0=", "properties": {"@source_uri": "https://tools.usps.com/UspsToolsRestServices/rest/POLocator/findLocations", "@spider": "usps_collection_boxes", "addr:city": "JAMESVILLE", "addr:country": "US", "addr:postcode": "23398", "addr:state": "VA", "addr:street_address": "6010 OCCOHANNOCK NECK RD", "amenity": "post_box", "collection_times": "Mo-Fr 16:30; Sa 11:30", "indoor": "yes", "note": "ON 12/24 AND 12/31, THIS BOX MAY BE COLLECTED AS EARLY AS 12 NOON.", "nsi_id": "unitedstatespostalservice-a77078", "operator": "United States Postal Service", "operator:short": "USPS", "operator:type": "public", "operator:wikidata": "Q668687", "ref": "2339800004"}, "type": "Feature"}
