{"geometry": {"coordinates": [-75.763534789, 37.619235732], "type": "Point"}, "id": "31rZc6mGMkBgnXO1sMY6mUFzodY=", "properties": {"@source_uri": "https://tools.usps.com/UspsToolsRestServices/rest/POLocator/findLocations", "@spider": "usps_collection_boxes", "addr:city": "KELLER", "addr:country": "US", "addr:postcode": "23401", "addr:state": "VA", "addr:street_address": "18243 1ST ST", "amenity": "post_box", "collection_times": "Mo-Fr 16:00; Sa 11:30", "note": "ON 12/24 AND 12/31, THIS BOX MAY BE COLLECTED AS EARLY AS 12 NOON.", "nsi_id": "unitedstatespostalservice-a77078", "operator": "United States Postal Service", "operator:short": "USPS", "operator:type": "public", "operator:wikidata": "Q668687", "ref": "2340100001"}, "type": "Feature"}
{"geometry": {"coordinates": [-75.763534789, 37.619235732], "type": "Point"}, "id": "aatlH0oSTRYl-gh5pRrJxctxcUc=", "properties": {"@source_uri": "https://tools.usps.com/UspsToolsRestServices/rest/POLocator/findLocations", "@spider": "usps_collection_boxes", "addr:city": "KELLER", "addr:country": "US", "addr:postcode": "23401", "addr:state": "VA", "addr:street_address": "18243 1ST ST", "amenity": "post_box", "collection_times": "Mo-Fr 16:15; Sa 11:30", "indoor": "yes", "note": "ON 12/24 AND 12/31, THIS BOX MAY BE COLLECTED AS EARLY AS 12 NOON.", "nsi_id": "unitedstatespostalservice-a77078", "operator": "United States Postal Service", "operator:short": "USPS", "operator:type": "public", "operator:wikidata": "Q668687", "ref": "2340100002"}, "type": "Feature"}
{"geometry": {"coordinates": [-75.763534789, 37.619235732], "type": "Point"}, "id": "Xq2M6xdGRYHy4REW6nwTEF1iXWM=", "properties": {"@source_uri": "https://tools.usps.com/UspsToolsRestServices/rest/POLocator/findLocations", "@spider": "usps_collection_boxes", "addr:city": "KELLER", "addr:country": "US", "addr:postcode": "23401", "addr:state": "VA", "addr:street_address": "18243 1ST ST", "amenity": "post_box", "collection_times": "Mo-Fr 16:00; Sa 11:30", "indoor": "yes", "note": "ON 12/24 AND 12/31, THIS BOX MAY BE COLLECTED AS EARLY AS 12 NOON.", "nsi_id": "unitedstatespostalservice-a77078", "operator": "United States Postal Service", "operator:short": "USPS", "operator:type": "public", "operator:wikidata": "Q668687", "ref": "2340100004"}, "type": "Feature"}
{"geometry": {"coordinates": [-75.675338318, 37.65833609], "type": "Point"}, "id": "-B4Mi4gR2lq6rdWQDQGspqDlTF0=", "properties": {"@source_uri": "https://tools.usps.com/UspsToolsRestServices/rest/POLocator/findLocations", "@spider": "usps_collection_boxes", "addr:city": "LOCUSTVILLE", "addr:country": "US", "addr:postcode": "23404", "addr:state": "VA", "addr:street_address": "28033 DRUMMONDTOWN RD", "amenity": "post_box", "collection_times": "Mo-Fr 14:15; Sa 11:45", "note": "ON 12/24 AND 12/31, THIS BOX MAY BE COLLECTED AS EARLY AS 12 NOON.", "nsi_id": "unitedstatespostalservice-a77078", "operator": "United States Postal Service", "operator:short": "USPS", "operator:type": "public", "operator:wikidata": "Q668687", "ref": "2340400001"}, "type": "Feature"}
{"geometry": {"coordinates": [-75.6752550343, 37.6585753632], "type": "Point"}, "id": "fNuxKZUMMeOIx4g-ku-Htj0c3o0=", "properties": {"@source_uri": "https://tools.usps.com/UspsToolsRestServices/rest/POLocator/findLocations", "@spider": "usps_collection_boxes", "addr:city": "LOCUSTVILLE", "addr:country": "US", "addr:postcode": "23404", "addr:state": "VA", "addr:street_address": "28033 DRUMMONDTOWN RD", "amenity": "post_box", "collection_times": "Mo-Fr 14:15; Sa 11:45", "indoor": "yes", "note": "ON 12/24 AND 12/31, THIS BOX MAY BE COLLECTED AS EARLY AS 12 NOON.", "nsi_id": "unitedstatespostalservice-a77078", "operator": "United States Postal Service", "operator:short": "USPS", "operator:type": "public", "operator:wikidata": "Q668687", "ref": "2340400002"}, "type": "Feature"}
{"geometry": {"coordinates": [-75.6752550343, 37.6585753632], "type": "Point"}, "id": "UHrhJxeloGZVMC9vlsNtHjPozMM=", "properties": {"@source_uri": "https://tools.usps.com/UspsToolsRestServices/rest/POLocator/findLocations", "@spider": "usps_collection_boxes", "addr:city": "LOCUSTVILLE", "addr:country": "US", "addr:postcode": "23404", "addr:state": "VA", "addr:street_address": "28033 DRUMMONDTOWN RD", "amenity": "post_box", "collection_times": "Mo-Fr 14:30; Sa 12:00", "indoor": "yes", "note": "ON 12/24 AND 12/31, THIS BOX MAY BE COLLECTED AS EARLY AS 12 NOON.", "nsi_id": "unitedstatespostalservice-a77078", "operator": "United States Postal Service", "operator:short": "USPS", "operator:type": "public", "operator:wikidata": "Q668687", "ref": "2340400004"}, "type": "Feature"}
{"geometry": {"coordinates": [-75.902981092, 37.402979627], "type": "Point"}, "id": "cmT6mjh4P_eYVeRvpdfl3tArQsw=", "properties": {"@source_uri": "https://tools.usps.com/UspsToolsRestServices/rest/POLocator/findLocations", "@spider": "usps_collection_boxes", "addr:city": "MACHIPONGO", "addr:country": "US", "addr:postcode": "23405", "addr:state": "VA", "addr:street_address": "7414 MACHIPONGO DR", "amenity": "post_box", "collection_times": "Mo-Fr 16:15; Sa 11:45", "note": "ON 12/24 AND 12/31, THIS BOX MAY BE COLLECTED AS EARLY AS 12 NOON.", "nsi_id": "unitedstatespostalservice-a77078", "operator": "United States Postal Service", "operator:short": "USPS", "operator:type": "public", "operator:wikidata": "Q668687", "ref": "2340500001"}, "type": "Feature"}
{"geometry": {"coordinates": [-75.902981092, 37.402979627], "type": "Point"}, "id": "HhlpALYvjkuZTjilKUuJqKm7ofM=", "properties": {"@source_uri": "https://tools.usps.com/UspsToolsRestServices/rest/POLocator/findLocations", "@spider": "usps_collection_boxes", "addr:city": "MACHIPONGO", "addr:country": "US", "addr:postcode": "23405", "addr:state": "VA", "addr:street_address": "7414 MACHIPONGO DR", "amenity": "post_box", "collection_times": "Mo-Fr 16:15; Sa 11:45", "indoor": "yes", "note": "ON 12/24 AND 12/31, THIS BOX MAY BE COLLECTED AS EARLY AS 12 NOON.", "nsi_id": "unitedstatespostalservice-a77078", "operator": "United States Postal Service", "operator:short": "USPS", "operator:type": "public", "operator:wikidata": "Q668687", "ref": "2340500002"}, "type": "Feature"}
{"geometry": {"coordinates": [-75.902981092, 37.402979627], "type": "Point"}, "id": "4whb0apVT8fRncaGlR5W_TzdOAY=", "properties": {"@source_uri": "https://tools.usps.com/UspsToolsRestServices/rest/POLocator/findLocations", "@spider": "usps_collection_boxes", "addr:city": "MACHIPONGO", "addr:country": "US", "addr:postcode": "23405", "addr:state": "VA", "addr:street_address": "7414 MACHIPONGO DR", "amenity": "post_box", "collection_times": "Mo-Fr 16:30; Sa 12:00", "indoor": "yes", "note": "ON 12/24 AND 12/31, THIS BOX MAY BE COLLECTED AS EARLY AS 12 NOON.", "nsi_id": "unitedstatespostalservice-a77078", "operator": "United States Postal Service", "operator:short": "USPS", "operator:type": "public", "operator:wikidata": "Q668687", "ref": "2340500004"}, "type": "Feature"}
{"geometry": {"coordinates": [-75.567338652, 37.845677734], "type": "Point"}, "id": "75vnnDt9F6SWcucDuAxOXjBXA-0=", "properties": {"@source_uri": "https://tools.usps.com/UspsToolsRestServices/rest/POLocator/findLocations", "@spider": "usps_collection_boxes", "addr:city": "MAPPSVILLE", "addr:country": "US", "addr:postcode": "23407", "addr:state": "VA", "addr:street_address": "14148 LANKFORD HWY", "amenity": "post_box", "collection_times": "Mo-Fr 16:15; Sa 11:15", "note": "ON 12/24 AND 12/31, THIS BOX MAY BE COLLECTED AS EARLY AS 12 NOON.", "nsi_id": "unitedstatespostalservice-a77078", "operator": "United States Postal Service", "operator:short": "USPS", "operator:type": "public", "operator:wikidata": "Q668687", "ref": "2340700001"}, "type": "Feature"}
{"geometry": {"coordinates": [-75.567338652, 37.845677734], "type": "Point"}, "id": "flKMviWFCC-GwcVhi_7JTTbs07s=", "properties": {"@source_uri": "https://tools.usps.com/UspsToolsRestServices/rest/POLocator/findLocations", "@spider": "usps_collection_boxes", "addr:city": "MAPPSVILLE", "addr:country": "US", "addr:postcode": "23407", "addr:state": "VA", "addr:street_address": "14148 LANKFORD HWY", "amenity": "post_box", "collection_times": "Mo-Fr 16:15; Sa 11:15", "indoor": "yes", "note": "ON 12/24 AND 12/31, THIS BOX MAY BE COLLECTED AS EARLY AS 12 NOON.", "nsi_id": "unitedstatespostalservice-a77078", "operator": "United States Postal Service", "operator:short": "USPS", "operator:type": "public", "operator:wikidata": "Q668687", "ref": "2340700002"}, "type": "Feature"}
{"geometry": {"coordinates": [-75.567338652, 37.845677734], "type": "Point"}, "id": "B7JmybZAiyf9Gi08pKOkxDZXkjo=", "properties": {"@source_uri": "https://tools.usps.com/UspsToolsRestServices/rest/POLocator/findLocations", "@spider": "usps_collection_boxes", "addr:city": "MAPPSVILLE", "addr:country": "US", "addr:postcode": "23407", "addr:state": "VA", "addr:street_address": "14148 LANKFORD HWY", "amenity": "post_box", "collection_times": "Mo-Fr 16:15; Sa 11:45", "indoor": "yes", "note": "ON 12/24 AND 12/31, THIS BOX MAY BE COLLECTED AS EARLY AS 12 NOON.", "nsi_id": "unitedstatespostalservice-a77078", "operator": "United States Postal Service", "operator:short": "USPS", "operator:type": "public", "operator:wikidata": "Q668687", "ref": "2340700004"}, "type": "Feature"}
{"geometry": {"coordinates": [-75.85406664, 37.45490419], "type": "Point"}, "id": "5dZ4rTQMUTNSKktOIkHEl7q5EvI=", "properties": {"@source_uri": "https://tools.usps.com/UspsToolsRestServices/rest/POLocator/findLocations", "@spider": "usps_collection_boxes", "addr:city": "MARIONVILLE", "addr:country": "US", "addr:postcode": "23408", "addr:state": "VA", "addr:street_address": "9095 SEASIDE RD", "amenity": "post_box", "collection_times": "Mo-Sa 11:45", "nsi_id": "unitedstatespostalservice-a77078", "operator": "United States Postal Service", "operator:short": "USPS", "operator:type": "public", "operator:wikidata": "Q668687", "ref": "2340800000"}, "type": "Feature"}
{"geometry": {"coordinates": [-75.85406664, 37.45490419], "type": "Point"}, "id": "gcLlNLfrm1ocMKbMg_IUQ4_QyhY=", "properties": {"@source_uri": "https://tools.usps.com/UspsToolsRestServices/rest/POLocator/findLocations", "@spider": "usps_collection_boxes", "addr:city": "MARIONVILLE", "addr:country": "US", "addr:postcode": "23408", "addr:state": "VA", "addr:street_address": "9095 SEASIDE RD", "amenity": "post_box", "collection_times": "Mo-Sa 11:45", "indoor": "yes", "nsi_id": "unitedstatespostalservice-a77078", "operator": "United States Postal Service", "operator:short": "USPS", "operator:type": "public", "operator:wikidata": "Q668687", "ref": "2340800001"}, "type": "Feature"}
{"geometry": {"coordinates": [-75.85406664, 37.45490419], "type": "Point"}, "id": "MZoKjlMaARrRMiStz57X6ut7Eak=", "properties": {"@source_uri": "https://tools.usps.com/UspsToolsRestServices/rest/POLocator/findLocations", "@spider": "usps_collection_boxes", "addr:city": "MARIONVILLE", "addr:country": "US", "addr:postcode": "23408", "addr:state": "VA", "addr:street_address": "9095 SEASIDE RD", "amenity": "post_box", "collection_times": "Mo-Sa 11:45", "indoor": "yes", "nsi_id": "unitedstatespostalservice-a77078", "operator": "United States Postal Service", "operator:short": "USPS", "operator:type": "public", "operator:wikidata": "Q668687", "ref": "2340800003"}, "type": "Feature"}
{"geometry": {"coordinates": [-75.74797161, 37.657763423], "type": "Point"}, "id": "e-djUn8HupLcIfweboVjt6IGc1g=", "properties": {"@source_uri": "https://tools.usps.com/UspsToolsRestServices/rest/POLocator/findLocations", "@spider": "usps_collection_boxes", "addr:city": "MELFA", "addr:country": "US", "addr:postcode": "23410", "addr:state": "VA", "addr:street_address": "19268 AIRPORT DR", "amenity": "post_box", "collection_times": "Mo-Fr 16:30; Sa 12:00", "note": "ON 12/24 AND 12/31, THIS BOX MAY BE COLLECTED AS EARLY AS 12 NOON.", "nsi_id": "unitedstatespostalservice-a77078", "operator": "United States Postal Service", "operator:short": "USPS", "operator:type": "public", "operator:wikidata": "Q668687", "ref": "2341000001"}, "type": "Feature"}
{"geometry": {"coordinates": [-75.74797161, 37.657763423], "type": "Point"}, "id": "FY_9vkHYAUlTQDioGHVxOcpjA94=", "properties": {"@source_uri": "https://tools.usps.com/UspsToolsRestServices/rest/POLocator/findLocations", "@spider": "usps_collection_boxes", "addr:city": "MELFA", "addr:country": "US", "addr:postcode": "23410", "addr:state": "VA", "addr:street_address": "19268 AIRPORT DR", "amenity": "post_box", "collection_times": "Mo-Fr 16:30; Sa 12:00", "indoor": "yes", "note": "ON 12/24 AND 12/31, THIS BOX MAY BE COLLECTED AS EARLY AS 12 NOON.", "nsi_id": "unitedstatespostalservice-a77078", "operator": "United States Postal Service", "operator:short": "USPS", "operator:type": "public", "operator:wikidata": "Q668687", "ref": "2341000002"}, "type": "Feature"}
{"geometry": {"coordinates": [-75.74797161, 37.657763423], "type": "Point"}, "id": "m-JWOgKDj2Qx2mY_ynPSUKMUymE=", "properties": {"@source_uri": "https://tools.usps.com/UspsToolsRestServices/rest/POLocator/findLocations", "@spider": "usps_collection_boxes", "addr:city": "MELFA", "addr:country": "US", "addr:postcode": "23410", "addr:state": "VA", "addr:street_address": "19268 AIRPORT DR", "amenity": "post_box", "collection_times": "Mo-Fr 16:30; Sa 12:00", "indoor": "yes", "note": "ON 12/24 AND 12/31, THIS BOX MAY BE COLLECTED AS EARLY AS 12 NOON.", "nsi_id": "unitedstatespostalservice-a77078", "operator": "United States Postal Service", "operator:short": "USPS", "operator:type": "public", "operator:wikidata": "Q668687", "ref": "2341000003"}, "type": "Feature"}
{"geometry": {"coordinates": [-75.74797161, 37.657763423], "type": "Point"}, "id": "FOTzc-g0JFspyIb3iHbjiruxjmo=", "properties": {"@source_uri": "https://tools.usps.com/UspsToolsRestServices/rest/POLocator/findLocations", "@spider": "usps_collection_boxes", "addr:city": "MELFA", "addr:country": "US", "addr:postcode": "23410", "addr:state": "VA", "addr:street_address": "19268 AIRPORT DR", "amenity": "post_box", "collection_times": "Mo-Fr 16:30; Sa 12:00", "indoor": "yes", "note": "ON 12/24 AND 12/31, THIS BOX MAY BE COLLECTED AS EARLY AS 12 NOON.", "nsi_id": "unitedstatespostalservice-a77078", "operator": "United States Postal Service", "operator:short": "USPS", "operator:type": "public", "operator:wikidata": "Q668687", "ref": "2341000005"}, "type": "Feature"}
{"geometry": {"coordinates": [-75.85767926, 37.474801432], "type": "Point"}, "id": "edO-hi6FPauqUJmgnX5MuDpsUI4=", "properties": {"@source_uri": "https://tools.usps.com/UspsToolsRestServices/rest/POLocator/findLocations", "@spider": "usps_collection_boxes", "addr:city": "NASSAWADOX", "addr:country": "US", "addr:postcode": "23413", "addr:state": "VA", "addr:street_address": "10238 ROGERS RD", "amenity": "post_box", "collection_times": "Mo-Fr 16:25; Sa 11:55", "note": "ON 12/24 AND 12/31, THIS BOX MAY BE COLLECTED AS EARLY AS 12 NOON.", "nsi_id": "unitedstatespostalservice-a77078", "operator": "United States Postal Service", "operator:short": "USPS", "operator:type": "public", "operator:wikidata": "Q668687", "ref": "2341300001"}, "type": "Feature"}
{"geometry": {"coordinates": [-75.85767926, 37.474801432], "type": "Point"}, "id": "0v3gsqt6KTWk6vSl63k-Q4VwC3Y=", "properties": {"@source_uri": "https://tools.usps.com/UspsToolsRestServices/rest/POLocator/findLocations", "@spider": "usps_collection_boxes", "addr:city": "NASSAWADOX", "addr:country": "US", "addr:postcode": "23413", "addr:state": "VA", "addr:street_address": "10238 ROGERS RD", "amenity": "post_box", "collection_times": "Mo-Fr 16:45; Sa 11:45", "indoor": "yes", "note": "ON 12/24 AND 12/31, THIS BOX MAY BE COLLECTED AS EARLY AS 12 NOON.", "nsi_id": "unitedstatespostalservice-a77078", "operator": "United States Postal Service", "operator:short": "USPS", "operator:type": "public", "operator:wikidata": "Q668687", "ref": "2341300003"}, "type": "Feature"}
{"geometry": {"coordinates": [-75.85767926, 37.474801432], "type": "Point"}, "id": "xfkHJOCRudGVs_a7bGb9ZHWhKh4=", "properties": {"@source_uri": "https://tools.usps.com/UspsToolsRestServices/rest/POLocator/findLocations", "@spider": "usps_collection_boxes", "addr:city": "NASSAWADOX", "addr:country": "US", "addr:postcode": "23413", "addr:state": "VA", "addr:street_address": "10238 ROGERS RD", "amenity": "post_box", "collection_times": "Mo-Fr 16:45; Sa 11:45", "indoor": "yes", "note": "ON 12/24 AND 12/31, THIS BOX MAY BE COLLECTED AS EARLY AS 12 NOON.", "nsi_id": "unitedstatespostalservice-a77078", "operator": "United States Postal Service", "operator:short": "USPS", "operator:type": "public", "operator:wikidata": "Q668687", "ref": "2341300004"}, "type": "Feature"}
{"geometry": {"coordinates": [-75.85767926, 37.474801432], "type": "Point"}, "id": "JD5dgonTqMGDAqjmU1wMKdIg7r0=", "properties": {"@source_uri": "https://tools.usps.com/UspsToolsRestServices/rest/POLocator/findLocations", "@spider": "usps_collection_boxes", "addr:city": "NASSAWADOX", "addr:country": "US", "addr:postcode": "23413", "addr:state": "VA", "addr:street_address": "10238 ROGERS RD", "amenity": "post_box", "collection_times": "Mo-Fr 16:45; Sa 11:45", "indoor": "yes", "note": "ON 12/24 AND 12/31, THIS BOX MAY BE COLLECTED AS EARLY AS 12 NOON.", "nsi_id": "unitedstatespostalservice-a77078", "operator": "United States Postal Service", "operator:short": "USPS", "operator:type": "public", "operator:wikidata": "Q668687", "ref": "2341300005"}, "type": "Feature"}
{"geometry": {"coordinates": [-75.85767926, 37.474801432], "type": "Point"}, "id": "9vSMIWqlfGKwiBCw15_ybm1J-kU=", "properties": {"@source_uri": "https://tools.usps.com/UspsToolsRestServices/rest/POLocator/findLocations", "@spider": "usps_collection_boxes", "addr:city": "NASSAWADOX", "addr:country": "US", "addr:postcode": "23413", "addr:state": "VA", "addr:street_address": "10238 ROGERS RD", "amenity": "post_box", "collection_times": "Mo-Fr 16:30; Sa 12:00", "indoor": "yes", "note": "ON 12/24 AND 12/31, THIS BOX MAY BE COLLECTED AS EARLY AS 12 NOON.", "nsi_id": "unitedstatespostalservice-a77078", "operator": "United States Postal Service", "operator:short": "USPS", "operator:type": "public", "operator:wikidata": "Q668687", "ref": "2341300007"}, "type": "Feature"}
{"geometry": {"coordinates": [-75.588569559, 37.818828775], "type": "Point"}, "id": "mqXS1CIkdJpjXNpino0sG1BzG60=", "properties": {"@source_uri": "https://tools.usps.com/UspsToolsRestServices/rest/POLocator/findLocations", "@spider": "usps_collection_boxes", "addr:city": "NELSONIA", "addr:country": "US", "addr:postcode": "23414", "addr:state": "VA", "addr:street_address": "16150 LANKFORD HWY", "amenity": "post_box", "collection_times": "Mo-Fr 16:30; Sa 11:30", "note": "ON 12/24 AND 12/31, THIS BOX MAY BE COLLECTED AS EARLY AS 12 NOON.", "nsi_id": "unitedstatespostalservice-a77078", "operator": "United States Postal Service", "operator:short": "USPS", "operator:type": "public", "operator:wikidata": "Q668687", "ref": "2341400001"}, "type": "Feature"}
{"geometry": {"coordinates": [-75.588569559, 37.818828775], "type": "Point"}, "id": "M8blGkfPZa-v3zicQWkQX9tcg24=", "properties": {"@source_uri": "https://tools.usps.com/UspsToolsRestServices/rest/POLocator/findLocations", "@spider": "usps_collection_boxes", "addr:city": "NELSONIA", "addr:country": "US", "addr:postcode": "23414", "addr:state": "VA", "addr:street_address": "16150 LANKFORD HWY", "amenity": "post_box", "collection_times": "Mo-Fr 16:45; Sa 11:45", "indoor": "yes", "note": "ON 12/24 AND 12/31, THIS BOX MAY BE COLLECTED AS EARLY AS 12 NOON.", "nsi_id": "unitedstatespostalservice-a77078", "operator": "United States Postal Service", "operator:short": "USPS", "operator:type": "public", "operator:wikidata": "Q668687", "ref": "2341400002"}, "type": "Feature"}
{"geometry": {"coordinates": [-75.588569559, 37.818828775], "type": "Point"}, "id": "fXjHLOlR-ZJfE9AK2-E_AFwK3TQ=", "properties": {"@source_uri": "https://tools.usps.com/UspsToolsRestServices/rest/POLocator/findLocations", "@spider": "usps_collection_boxes", "addr:city": "NELSONIA", "addr:country": "US", "addr:postcode": "23414", "addr:state": "VA", "addr:street_address": "16150 LANKFORD HWY", "amenity": "post_box", "collection_times": "Mo-Fr 16:45; Sa 11:30", "indoor": "yes", "note": "ON 12/24 AND 12/31, THIS BOX MAY BE COLLECTED AS EARLY AS 12 NOON.", "nsi_id": "unitedstatespostalservice-a77078", "operator": "United States Postal Service", "operator:short": "USPS", "operator:type": "public", "operator:wikidata": "Q668687", "ref": "2341400004"}, "type": "Feature"}
{"geometry": {"coordinates": [-75.529735127, 37.981792278], "type": "Point"}, "id": "pMDUgQms4n_A5tnsjP1uEe4L5D4=", "properties": {"@source_uri": "https://tools.usps.com/UspsToolsRestServices/rest/POLocator/findLocations", "@spider": "usps_collection_boxes", "addr:city": "NEW CHURCH", "addr:country": "US", "addr:postcode": "23415", "addr:state": "VA", "addr:street_address": "4136 LANKFORD HWY", "amenity": "post_box", "collection_times": "Mo-Fr 16:00; Sa 11:00", "note": "ON 12/24 AND 12/31, THIS BOX MAY BE COLLECTED AS EARLY AS 12 NOON.", "nsi_id": "unitedstatespostalservice-a77078", "operator": "United States Postal Service", "operator:short": "USPS", "operator:type": "public", "operator:wikidata": "Q668687", "ref": "2341500001"}, "type": "Feature"}
{"geometry": {"coordinates": [-75.529735127, 37.981792278], "type": "Point"}, "id": "kaaWBSa5QCGiqCQFf89Kbi2WQvU=", "properties": {"@source_uri": "https://tools.usps.com/UspsToolsRestServices/rest/POLocator/findLocations", "@spider": "usps_collection_boxes", "addr:city": "NEW CHURCH", "addr:country": "US", "addr:postcode": "23415", "addr:state": "VA", "addr:street_address": "4136 LANKFORD HWY", "amenity": "post_box", "collection_times": "Mo-Fr 16:15; Sa 11:15", "indoor": "yes", "note": "ON 12/24 AND 12/31, THIS BOX MAY BE COLLECTED AS EARLY AS 12 NOON.", "nsi_id": "unitedstatespostalservice-a77078", "operator": "United States Postal Service", "operator:short": "USPS", "operator:type": "public", "operator:wikidata": "Q668687", "ref": "2341500005"}, "type": "Feature"}
{"geometry": {"coordinates": [-75.529735127, 37.981792278], "type": "Point"}, "id": "WYj6-gPQ1t8AJz8c6NeOQM45xL8=", "properties": {"@source_uri": "https://tools.usps.com/UspsToolsRestServices/rest/POLocator/findLocations", "@spider": "usps_collection_boxes", "addr:city": "NEW CHURCH", "addr:country": "US", "addr:postcode": "23415", "addr:state": "VA", "addr:street_address": "4136 LANKFORD HWY", "amenity": "post_box", "collection_times": "Mo-Fr 16:30; Sa 11:30", "indoor": "yes", "note": "ON 12/24 AND 12/31, THIS BOX MAY BE COLLECTED AS EARLY AS 12 NOON.", "nsi_id": "unitedstatespostalservice-a77078", "operator": "United States Postal Service", "operator:short": "USPS", "operator:type": "public", "operator:wikidata": "Q668687", "ref": "2341500007"}, "type": "Feature"}
{"geometry": {"coordinates": [-75.548554619, 37.927224029], "type": "Point"}, "id": "TGqd9mN_dPoOwsK3uWK__9C4aJ4=", "properties": {"@source_uri": "https://tools.usps.com/UspsToolsRestServices/rest/POLocator/findLocations", "@spider": "usps_collection_boxes", "addr:city": "OAK HALL", "addr:country": "US", "addr:postcode": "23416", "addr:state": "VA", "addr:street_address": "8133 LANKFORD HWY", "amenity": "post_box", "collection_times": "Mo-Fr 16:15; Sa 11:45", "note": "ON 12/24 AND 12/31, THIS BOX MAY BE COLLECTED AS EARLY AS 12 NOON.", "nsi_id": "unitedstatespostalservice-a77078", "operator": "United States Postal Service", "operator:short": "USPS", "operator:type": "public", "operator:wikidata": "Q668687", "ref": "2341600001"}, "type": "Feature"}
{"geometry": {"coordinates": [-75.548554619, 37.927224029], "type": "Point"}, "id": "X4yFCcTLoAZsABcKRsUzV2c-SnA=", "properties": {"@source_uri": "https://tools.usps.com/UspsToolsRestServices/rest/POLocator/findLocations", "@spider": "usps_collection_boxes", "addr:city": "OAK HALL", "addr:country": "US", "addr:postcode": "23416", "addr:state": "VA", "addr:street_address": "8133 LANKFORD HWY", "amenity": "post_box", "collection_times": "Mo-Fr 16:30; Sa 11:45", "indoor": "yes", "note": "ON 12/24 AND 12/31, THIS BOX MAY BE COLLECTED AS EARLY AS 12 NOON.", "nsi_id": "unitedstatespostalservice-a77078", "operator": "United States Postal Service", "operator:short": "USPS", "operator:type": "public", "operator:wikidata": "Q668687", "ref": "2341600002"}, "type": "Feature"}
{"geometry": {"coordinates": [-75.548554619, 37.927224029], "type": "Point"}, "id": "Y33VT27_GOvZDpBtDQLWWQUQfJ8=", "properties": {"@source_uri": "https://tools.usps.com/UspsToolsRestServices/rest/POLocator/findLocations", "@spider": "usps_collection_boxes", "addr:city": "OAK HALL", "addr:country": "US", "addr:postcode": "23416", "addr:state": "VA", "addr:street_address": "8133 LANKFORD HWY", "amenity": "post_box", "collection_times": "Mo-Fr 16:30; Sa 11:45", "indoor": "yes", "note": "ON 12/24 AND 12/31, THIS BOX MAY BE COLLECTED AS EARLY AS 12 NOON.", "nsi_id": "unitedstatespostalservice-a77078", "operator": "United States Postal Service", "operator:short": "USPS", "operator:type": "public", "operator:wikidata": "Q668687", "ref": "2341600003"}, "type": "Feature"}
{"geometry": {"coordinates": [-75.750967681, 37.711935974], "type": "Point"}, "id": "q-plX_slHB1ltAmKYBK8b6pzU54=", "properties": {"@source_uri": "https://tools.usps.com/UspsToolsRestServices/rest/POLocator/findLocations", "@spider": "usps_collection_boxes", "addr:city": "ONANCOCK", "addr:country": "US", "addr:postcode": "23417", "addr:state": "VA", "addr:street_address": "22 MARKET ST", "amenity": "post_box", "collection_times": "Mo-Fr 16:30; Sa 12:00", "note": "ON 12/24 AND 12/31, THIS BOX MAY BE COLLECTED AS EARLY AS 12 NOON.", "nsi_id": "unitedstatespostalservice-a77078", "operator": "United States Postal Service", "operator:short": "USPS", "operator:type": "public", "operator:wikidata": "Q668687", "ref": "2341700006"}, "type": "Feature"}
{"geometry": {"coordinates": [-75.750073438, 37.712169708], "type": "Point"}, "id": "6NkKOupBKPc2RRN58ajQEdIWJRk=", "properties": {"@source_uri": "https://tools.usps.com/UspsToolsRestServices/rest/POLocator/findLocations", "@spider": "usps_collection_boxes", "addr:city": "ONANCOCK", "addr:country": "US", "addr:postcode": "23417", "addr:state": "VA", "addr:street_address": "35 MARKET ST", "amenity": "post_box", "collection_times": "Mo-Fr 16:30; Sa 12:00", "note": "ON 12/24 AND 12/31, THIS BOX MAY BE COLLECTED AS EARLY AS 12 NOON.", "nsi_id": "unitedstatespostalservice-a77078", "operator": "United States Postal Service", "operator:short": "USPS", "operator:type": "public", "operator:wikidata": "Q668687", "ref": "2341700007"}, "type": "Feature"}
{"geometry": {"coordinates": [-75.750073438, 37.712169708], "type": "Point"}, "id": "hboWr0Xa0pi_WTqI7vWXnfnD4XE=", "properties": {"@source_uri": "https://tools.usps.com/UspsToolsRestServices/rest/POLocator/findLocations", "@spider": "usps_collection_boxes", "addr:city": "ONANCOCK", "addr:country": "US", "addr:postcode": "23417", "addr:state": "VA", "addr:street_address": "35 MARKET ST", "amenity": "post_box", "collection_times": "Mo-Fr 16:30; Sa 12:00", "indoor": "yes", "note": "ON 12/24 AND 12/31, THIS BOX MAY BE COLLECTED AS EARLY AS 12 NOON.", "nsi_id": "unitedstatespostalservice-a77078", "operator": "United States Postal Service", "operator:short": "USPS", "operator:type": "public", "operator:wikidata": "Q668687", "ref": "2341700009"}, "type": "Feature"}
{"geometry": {"coordinates": [-75.750073438, 37.712169708], "type": "Point"}, "id": "k3gTUfWOINXicteV7I2Enrbhmm8=", "properties": {"@source_uri": "https://tools.usps.com/UspsToolsRestServices/rest/POLocator/findLocations", "@spider": "usps_collection_boxes", "addr:city": "ONANCOCK", "addr:country": "US", "addr:postcode": "23417", "addr:state": "VA", "addr:street_address": "35 MARKET ST", "amenity": "post_box", "collection_times": "Mo-Fr 16:30; Sa 12:00", "indoor": "yes", "note": "ON 12/24 AND 12/31, THIS BOX MAY BE COLLECTED AS EARLY AS 12 NOON.", "nsi_id": "unitedstatespostalservice-a77078", "operator": "United States Postal Service", "operator:short": "USPS", "operator:type": "public", "operator:wikidata": "Q668687", "ref": "2341700015"}, "type": "Feature"}
{"geometry": {"coordinates": [-75.716123615, 37.690872317], "type": "Point"}, "id": "jF1r3hmC9U9yMS6tvRQNm4JfRdw=", "properties": {"@source_uri": "https://tools.usps.com/UspsToolsRestServices/rest/POLocator/findLocations", "@spider": "usps_collection_boxes", "addr:city": "ONLEY", "addr:country": "US", "addr:postcode": "23418", "addr:state": "VA", "addr:street_address": "25468 COASTAL BLVD", "amenity": "post_box", "collection_times": "Mo-Fr 16:30; Sa 12:00", "note": "ON 12/24 AND 12/31, THIS BOX MAY BE COLLECTED AS EARLY AS 12 NOON.", "nsi_id": "unitedstatespostalservice-a77078", "operator": "United States Postal Service", "operator:short": "USPS", "operator:type": "public", "operator:wikidata": "Q668687", "ref": "2341800001"}, "type": "Feature"}
{"geometry": {"coordinates": [-75.71861643, 37.696566055], "type": "Point"}, "id": "e4sWnGI3gGDt8r5_bC2qHzK4f_c=", "properties": {"@source_uri": "https://tools.usps.com/UspsToolsRestServices/rest/POLocator/findLocations", "@spider": "usps_collection_boxes", "addr:city": "ONLEY", "addr:country": "US", "addr:postcode": "23418", "addr:state": "VA", "addr:street_address": "25274 LANKFORD HWY", "amenity": "post_box", "collection_times": "Mo-Fr 15:00; Sa 12:00", "note": "ON 12/24 AND 12/31, THIS BOX MAY BE COLLECTED AS EARLY AS 12 NOON.", "nsi_id": "unitedstatespostalservice-a77078", "operator": "United States Postal Service", "operator:short": "USPS", "operator:type": "public", "operator:wikidata": "Q668687", "ref": "2341800002"}, "type": "Feature"}
{"geometry": {"coordinates": [-75.716123615, 37.690872317], "type": "Point"}, "id": "GPohJfOdMyygDcRJ4a7ncC6hdsk=", "properties": {"@source_uri": "https://tools.usps.com/UspsToolsRestServices/rest/POLocator/findLocations", "@spider": "usps_collection_boxes", "addr:city": "ONLEY", "addr:country": "US", "addr:postcode": "23418", "addr:state": "VA", "addr:street_address": "25468 COASTAL BLVD", "amenity": "post_box", "collection_times": "Mo-Fr 16:45; Sa 12:00", "indoor": "yes", "note": "ON 12/24 AND 12/31, THIS BOX MAY BE COLLECTED AS EARLY AS 12 NOON.", "nsi_id": "unitedstatespostalservice-a77078", "operator": "United States Postal Service", "operator:short": "USPS", "operator:type": "public", "operator:wikidata": "Q668687", "ref": "2341800003"}, "type": "Feature"}
{"geometry": {"coordinates": [-75.716123615, 37.690872317], "type": "Point"}, "id": "KIkKJL1f3SyAsuGo9F6_HTLGjtw=", "properties": {"@source_uri": "https://tools.usps.com/UspsToolsRestServices/rest/POLocator/findLocations", "@spider": "usps_collection_boxes", "addr:city": "ONLEY", "addr:country": "US", "addr:postcode": "23418", "addr:state": "VA", "addr:street_address": "25468 COASTAL BLVD", "amenity": "post_box", "collection_times": "Mo-Fr 16:30; Sa 12:00", "indoor": "yes", "note": "ON 12/24 AND 12/31, THIS BOX MAY BE COLLECTED AS EARLY AS 12 NOON.", "nsi_id": "unitedstatespostalservice-a77078", "operator": "United States Postal Service", "operator:short": "USPS", "operator:type": "public", "operator:wikidata": "Q668687", "ref": "2341800007"}, "type": "Feature"}
{"geometry": {"coordinates": [-75.785325105, 37.586170183], "type": "Point"}, "id": "FL15QD2SySivvpBgQiUBNbyYFuc=", "properties": {"@source_uri": "https://tools.usps.com/UspsToolsRestServices/rest/POLocator/findLocations", "@spider": "usps_collection_boxes", "addr:city": "PAINTER", "addr:country": "US", "addr:postcode": "23420", "addr:state": "VA", "addr:street_address": "33280 HICKMAN ST", "amenity": "post_box", "collection_times": "Mo-Fr 16:30; Sa 12:00", "note": "ON 12/24 AND 12/31, THIS BOX MAY BE COLLECTED AS EARLY AS 12 NOON.", "nsi_id": "unitedstatespostalservice-a77078", "operator": "United States Postal Service", "operator:short": "USPS", "operator:type": "public", "operator:wikidata": "Q668687", "ref": "2342000001"}, "type": "Feature"}
{"geometry": {"coordinates": [-75.785325105, 37.586170183], "type": "Point"}, "id": "T5pXxEn0UIFaUoM5I1IyznFPvME=", "properties": {"@source_uri": "https://tools.usps.com/UspsToolsRestServices/rest/POLocator/findLocations", "@spider": "usps_collection_boxes", "addr:city": "PAINTER", "addr:country": "US", "addr:postcode": "23420", "addr:state": "VA", "addr:street_address": "33280 HICKMAN ST", "amenity": "post_box", "collection_times": "Mo-Fr 16:30; Sa 12:00", "indoor": "yes", "note": "ON 12/24 AND 12/31, THIS BOX MAY BE COLLECTED AS EARLY AS 12 NOON.", "nsi_id": "unitedstatespostalservice-a77078", "operator": "United States Postal Service", "operator:short": "USPS", "operator:type": "public", "operator:wikidata": "Q668687", "ref": "2342000003"}, "type": "Feature"}
{"geometry": {"coordinates": [-75.785325105, 37.586170183], "type": "Point"}, "id": "1O7Ocf-5H0dHs3hFeEO9DLYJBuc=", "properties": {"@source_uri": "https://tools.usps.com/UspsToolsRestServices/rest/POLocator/findLocations", "@spider": "usps_collection_boxes", "addr:city": "PAINTER", "addr:country": "US", "addr:postcode": "23420", "addr:state": "VA", "addr:street_address": "33280 HICKMAN ST", "amenity": "post_box", "collection_times": "Mo-Fr 16:30; Sa 12:00", "indoor": "yes", "note": "ON 12/24 AND 12/31, THIS BOX MAY BE COLLECTED AS EARLY AS 12 NOON.", "nsi_id": "unitedstatespostalservice-a77078", "operator": "United States Postal Service", "operator:short": "USPS", "operator:type": "public", "operator:wikidata": "Q668687", "ref": "2342000005"}, "type": "Feature"}
{"geometry": {"coordinates": [-75.65202397, 37.783023906], "type": "Point"}, "id": "cFYjm52D0hteIpO3zILlBHHAcYk=", "properties": {"@source_uri": "https://tools.usps.com/UspsToolsRestServices/rest/POLocator/findLocations", "@spider": "usps_collection_boxes", "addr:city": "PARKSLEY", "addr:country": "US", "addr:postcode": "23421", "addr:state": "VA", "addr:street_address": "24290 COOKE ST", "amenity": "post_box", "collection_times": "Mo-Fr 16:30; Sa 12:00", "note": "ON 12/24 AND 12/31, THIS BOX MAY BE COLLECTED AS EARLY AS 12 NOON.", "nsi_id": "unitedstatespostalservice-a77078", "operator": "United States Postal Service", "operator:short": "USPS", "operator:type": "public", "operator:wikidata": "Q668687", "ref": "2342100001"}, "type": "Feature"}
{"geometry": {"coordinates": [-75.65202397, 37.783023906], "type": "Point"}, "id": "NQmclo2a6ysAo48cTKQZGA_rsxM=", "properties": {"@source_uri": "https://tools.usps.com/UspsToolsRestServices/rest/POLocator/findLocations", "@spider": "usps_collection_boxes", "addr:city": "PARKSLEY", "addr:country": "US", "addr:postcode": "23421", "addr:state": "VA", "addr:street_address": "24290 COOKE ST", "amenity": "post_box", "collection_times": "Mo-Fr 16:30; Sa 12:00", "indoor": "yes", "note": "ON 12/24 AND 12/31, THIS BOX MAY BE COLLECTED AS EARLY AS 12 NOON.", "nsi_id": "unitedstatespostalservice-a77078", "operator": "United States Postal Service", "operator:short": "USPS", "operator:type": "public", "operator:wikidata": "Q668687", "ref": "2342100002"}, "type": "Feature"}
{"geometry": {"coordinates": [-75.65202397, 37.783023906], "type": "Point"}, "id": "wbpAXalnJFOKFVXQZmeSKKYfInE=", "properties": {"@source_uri": "https://tools.usps.com/UspsToolsRestServices/rest/POLocator/findLocations", "@spider": "usps_collection_boxes", "addr:city": "PARKSLEY", "addr:country": "US", "addr:postcode": "23421", "addr:state": "VA", "addr:street_address": "24290 COOKE ST", "amenity": "post_box", "collection_times": "Mo-Fr 16:30", "indoor": "yes", "note": "ON 12/24 AND 12/31, THIS BOX MAY BE COLLECTED AS EARLY AS 12 NOON.", "nsi_id": "unitedstatespostalservice-a77078", "operator": "United States Postal Service", "operator:short": "USPS", "operator:type": "public", "operator:wikidata": "Q668687", "ref": "2342100004"}, "type": "Feature"}
{"geometry": {"coordinates": [-75.81406751, 37.630543687], "type": "Point"}, "id": "UAGFI8GeYtbAJhFxu4FpmGyeTBQ=", "properties": {"@source_uri": "https://tools.usps.com/UspsToolsRestServices/rest/POLocator/findLocations", "@spider": "usps_collection_boxes", "addr:city": "PUNGOTEAGUE", "addr:country": "US", "addr:postcode": "23422", "addr:state": "VA", "addr:street_address": "30296 BOBTOWN RD", "amenity": "post_box", "collection_times": "Mo-Fr 16:15; Sa 11:00", "note": "ON 12/24 AND 12/31, THIS BOX MAY BE COLLECTED AS EARLY AS 12 NOON.", "nsi_id": "unitedstatespostalservice-a77078", "operator": "United States Postal Service", "operator:short": "USPS", "operator:type": "public", "operator:wikidata": "Q668687", "ref": "2342200001"}, "type": "Feature"}
{"geometry": {"coordinates": [-75.81406751, 37.630543687], "type": "Point"}, "id": "zBpJ4R9_0o-iQJcrtRPZyhPo2dY=", "properties": {"@source_uri": "https://tools.usps.com/UspsToolsRestServices/rest/POLocator/findLocations", "@spider": "usps_collection_boxes", "addr:city": "PUNGOTEAGUE", "addr:country": "US", "addr:postcode": "23422", "addr:state": "VA", "addr:street_address": "30296 BOBTOWN RD", "amenity": "post_box", "collection_times": "Mo-Fr 16:30; Sa 11:30", "indoor": "yes", "note": "ON 12/24 AND 12/31, THIS BOX MAY BE COLLECTED AS EARLY AS 12 NOON.", "nsi_id": "unitedstatespostalservice-a77078", "operator": "United States Postal Service", "operator:short": "USPS", "operator:type": "public", "operator:wikidata": "Q668687", "ref": "2342200002"}, "type": "Feature"}
{"geometry": {"coordinates": [-75.81406751, 37.630543687], "type": "Point"}, "id": "EkSBC_zggVuSAQ67H1GqTx0sMuU=", "properties": {"@source_uri": "https://tools.usps.com/UspsToolsRestServices/rest/POLocator/findLocations", "@spider": "usps_collection_boxes", "addr:city": "PUNGOTEAGUE", "addr:country": "US", "addr:postcode": "23422", "addr:state": "VA", "addr:street_address": "30296 BOBTOWN RD", "amenity": "post_box", "collection_times": "Mo-Fr 16:30; Sa 11:45", "indoor": "yes", "note": "ON 12/24 AND 12/31, THIS BOX MAY BE COLLECTED AS EARLY AS 12 NOON.", "nsi_id": "unitedstatespostalservice-a77078", "operator": "United States Postal Service", "operator:short": "USPS", "operator:type": "public", "operator:wikidata": "Q668687", "ref": "2342200004"}, "type": "Feature"}
{"geometry": {"coordinates": [-75.731538285, 37.556087595], "type": "Point"}, "id": "qbapKs7Tu3t3VR2QZAfKDxlkxNQ=", "properties": {"@source_uri": "https://tools.usps.com/UspsToolsRestServices/rest/POLocator/findLocations", "@spider": "usps_collection_boxes", "addr:city": "QUINBY", "addr:country": "US", "addr:postcode": "23423", "addr:state": "VA", "addr:street_address": "35369 UPSHURS NECK RD", "amenity": "post_box", "collection_times": "Mo-Fr 16:30; Sa 11:30", "note": "ON 12/24 AND 12/31, THIS BOX MAY BE COLLECTED AS EARLY AS 12 NOON.", "nsi_id": "unitedstatespostalservice-a77078", "operator": "United States Postal Service", "operator:short": "USPS", "operator:type": "public", "operator:wikidata": "Q668687", "ref": "2342300001"}, "type": "Feature"}
{"geometry": {"coordinates": [-75.731538285, 37.556087595], "type": "Point"}, "id": "G9JnhtTKPYOXr-aJhUurXpfjes4=", "properties": {"@source_uri": "https://tools.usps.com/UspsToolsRestServices/rest/POLocator/findLocations", "@spider": "usps_collection_boxes", "addr:city": "QUINBY", "addr:country": "US", "addr:postcode": "23423", "addr:state": "VA", "addr:street_address": "35369 UPSHURS NECK RD", "amenity": "post_box", "collection_times": "Mo-Fr 16:30; Sa 11:45", "indoor": "yes", "note": "ON 12/24 AND 12/31, THIS BOX MAY BE COLLECTED AS EARLY AS 12 NOON.", "nsi_id": "unitedstatespostalservice-a77078", "operator": "United States Postal Service", "operator:short": "USPS", "operator:type": "public", "operator:wikidata": "Q668687", "ref": "2342300002"}, "type": "Feature"}
{"geometry": {"coordinates": [-75.731538285, 37.556087595], "type": "Point"}, "id": "Mup_IZUAmWmA9-CuFK-TZh5vnT8=", "properties": {"@source_uri": "https://tools.usps.com/UspsToolsRestServices/rest/POLocator/findLocations", "@spider": "usps_collection_boxes", "addr:city": "QUINBY", "addr:country": "US", "addr:postcode": "23423", "addr:state": "VA", "addr:street_address": "35369 UPSHURS NECK RD", "amenity": "post_box", "collection_times": "Mo-Fr 16:30; Sa 11:45", "indoor": "yes", "note": "ON 12/24 AND 12/31, THIS BOX MAY BE COLLECTED AS EARLY AS 12 NOON.", "nsi_id": "unitedstatespostalservice-a77078", "operator": "United States Postal Service", "operator:short": "USPS", "operator:type": "public", "operator:wikidata": "Q668687", "ref": "2342300004"}, "type": "Feature"}
{"geometry": {"coordinates": [-76.559908542, 36.994230693], "type": "Point"}, "id": "h1tSpDJIS4_vFK5hkSD0CkY5DxY=", "properties": {"@source_uri": "https://tools.usps.com/UspsToolsRestServices/rest/POLocator/findLocations", "@spider": "usps_collection_boxes", "addr:city": "RESCUE", "addr:country": "US", "addr:postcode": "23424", "addr:state": "VA", "addr:street_address": "21148 RESCUE RD", "amenity": "post_box", "collection_times": "Mo-Fr 16:15; Sa 11:45", "note": "ON 12/24 AND 12/31, THIS BOX MAY BE COLLECTED AS EARLY AS 12 NOON.", "nsi_id": "unitedstatespostalservice-a77078", "operator": "United States Postal Service", "operator:short": "USPS", "operator:type": "public", "operator:wikidata": "Q668687", "ref": "2342400001"}, "type": "Feature"}
{"geometry": {"coordinates": [-76.559908542, 36.994230693], "type": "Point"}, "id": "WqOfw2dJACj6H_liFos8Dv5T4HQ=", "properties": {"@source_uri": "https://tools.usps.com/UspsToolsRestServices/rest/POLocator/findLocations", "@spider": "usps_collection_boxes", "addr:city": "RESCUE", "addr:country": "US", "addr:postcode": "23424", "addr:state": "VA", "addr:street_address": "21148 RESCUE RD", "amenity": "post_box", "collection_times": "Mo-Fr 16:15; Sa 11:45", "indoor": "yes", "note": "ON 12/24 AND 12/31, THIS BOX MAY BE COLLECTED AS EARLY AS 12 NOON.", "nsi_id": "unitedstatespostalservice-a77078", "operator": "United States Postal Service", "operator:short": "USPS", "operator:type": "public", "operator:wikidata": "Q668687", "ref": "2342400002"}, "type": "Feature"}
{"geometry": {"coordinates": [-76.559908542, 36.994230693], "type": "Point"}, "id": "DcIsS55F7xwfPfhdC8Uf34MyF28=", "properties": {"@source_uri": "https://tools.usps.com/UspsToolsRestServices/rest/POLocator/findLocations", "@spider": "usps_collection_boxes", "addr:city": "RESCUE", "addr:country": "US", "addr:postcode": "23424", "addr:state": "VA", "addr:street_address": "21148 RESCUE RD", "amenity": "post_box", "collection_times": "Mo-Fr 16:30; Sa 12:00", "indoor": "yes", "note": "ON 12/24 AND 12/31, THIS BOX MAY BE COLLECTED AS EARLY AS 12 NOON.", "nsi_id": "unitedstatespostalservice-a77078", "operator": "United States Postal Service", "operator:short": "USPS", "operator:type": "public", "operator:wikidata": "Q668687", "ref": "2342400004"}, "type": "Feature"}
{"geometry": {"coordinates": [-75.721173005, 37.9266499811], "type": "Point"}, "id": "sTAOgUZ1zfHVwVSFx857KXkFIDg=", "properties": {"@source_uri": "https://tools.usps.com/UspsToolsRestServices/rest/POLocator/findLocations", "@spider": "usps_collection_boxes", "addr:city": "SAXIS", "addr:country": "US", "addr:postcode": "23427", "addr:state": "VA", "addr:street_address": "20264 SAXIS RD", "amenity": "post_box", "collection_times": "Mo-Fr 15:30; Sa 11:45", "note": "ON 12/24 AND 12/31, THIS BOX MAY BE COLLECTED AS EARLY AS 12 NOON.", "nsi_id": "unitedstatespostalservice-a77078", "operator": "United States Postal Service", "operator:short": "USPS", "operator:type": "public", "operator:wikidata": "Q668687", "ref": "2342700001"}, "type": "Feature"}
{"geometry": {"coordinates": [-75.721173005, 37.9266499811], "type": "Point"}, "id": "e3QvKhhARRn3yFAU9Phu2JAgiFc=", "properties": {"@source_uri": "https://tools.usps.com/UspsToolsRestServices/rest/POLocator/findLocations", "@spider": "usps_collection_boxes", "addr:city": "SAXIS", "addr:country": "US", "addr:postcode": "23427", "addr:state": "VA", "addr:street_address": "20264 SAXIS RD", "amenity": "post_box", "collection_times": "Mo-Fr 16:00; Sa 11:45", "indoor": "yes", "note": "ON 12/24 AND 12/31, THIS BOX MAY BE COLLECTED AS EARLY AS 12 NOON.", "nsi_id": "unitedstatespostalservice-a77078", "operator": "United States Postal Service", "operator:short": "USPS", "operator:type": "public", "operator:wikidata": "Q668687", "ref": "2342700002"}, "type": "Feature"}
{"geometry": {"coordinates": [-75.721173005, 37.9266499811], "type": "Point"}, "id": "yZq6odLn-JilYqtdcXUOQ89pJTs=", "properties": {"@source_uri": "https://tools.usps.com/UspsToolsRestServices/rest/POLocator/findLocations", "@spider": "usps_collection_boxes", "addr:city": "SAXIS", "addr:country": "US", "addr:postcode": "23427", "addr:state": "VA", "addr:street_address": "20264 SAXIS RD", "amenity": "post_box", "collection_times": "Mo-Fr 16:00; Sa 12:00", "indoor": "yes", "note": "ON 12/24 AND 12/31, THIS BOX MAY BE COLLECTED AS EARLY AS 12 NOON.", "nsi_id": "unitedstatespostalservice-a77078", "operator": "United States Postal Service", "operator:short": "USPS", "operator:type": "public", "operator:wikidata": "Q668687", "ref": "2342700004"}, "type": "Feature"}
{"geometry": {"coordinates": [-76.6341630074, 36.9812270007], "type": "Point"}, "id": "nnCHkFUuKCHZSZeXoI1JfZjF-0o=", "properties": {"@source_uri": "https://tools.usps.com/UspsToolsRestServices/rest/POLocator/findLocations", "@spider": "usps_collection_boxes", "addr:city": "SMITHFIELD", "addr:country": "US", "addr:postcode": "23430", "addr:state": "VA", "addr:street_address": "107 INSTITUTE ST", "amenity": "post_box", "collection_times": "Mo-Fr 17:00; Sa 16:00", "note": "ON 12/24 AND 12/31, THIS BOX MAY BE COLLECTED AS EARLY AS 12 NOON.", "nsi_id": "unitedstatespostalservice-a77078", "operator": "United States Postal Service", "operator:short": "USPS", "operator:type": "public", "operator:wikidata": "Q668687", "ref": "2343000001"}, "type": "Feature"}
{"geometry": {"coordinates": [-76.63339374, 36.981081387], "type": "Point"}, "id": "pujC7spaFeCBV2fWmnLj4j7172I=", "properties": {"@source_uri": "https://tools.usps.com/UspsToolsRestServices/rest/POLocator/findLocations", "@spider": "usps_collection_boxes", "addr:city": "SMITHFIELD", "addr:country": "US", "addr:postcode": "23430", "addr:state": "VA", "addr:street_address": "234 MAIN ST", "amenity": "post_box", "collection_times": "Mo-Fr 17:00; Sa 16:00", "note": "ON 12/24 AND 12/31, THIS BOX MAY BE COLLECTED AS EARLY AS 12 NOON.", "nsi_id": "unitedstatespostalservice-a77078", "operator": "United States Postal Service", "operator:short": "USPS", "operator:type": "public", "operator:wikidata": "Q668687", "ref": "2343000002"}, "type": "Feature"}
{"geometry": {"coordinates": [-76.602997654, 36.955270593], "type": "Point"}, "id": "eO-FEpShcnE_th3F5OvIGCTqmA8=", "properties": {"@source_uri": "https://tools.usps.com/UspsToolsRestServices/rest/POLocator/findLocations", "@spider": "usps_collection_boxes", "addr:city": "SMITHFIELD", "addr:country": "US", "addr:postcode": "23430", "addr:state": "VA", "addr:street_address": "1282 SMITHFIELD PLZ", "amenity": "post_box", "collection_times": "Mo-Sa 10:30", "nsi_id": "unitedstatespostalservice-a77078", "operator": "United States Postal Service", "operator:short": "USPS", "operator:type": "public", "operator:wikidata": "Q668687", "ref": "2343000004"}, "type": "Feature"}
{"geometry": {"coordinates": [-76.605460515, 36.962521499], "type": "Point"}, "id": "yt4o3PiiRsenNfHNT2xBmtx4F0k=", "properties": {"@source_uri": "https://tools.usps.com/UspsToolsRestServices/rest/POLocator/findLocations", "@spider": "usps_collection_boxes", "addr:city": "SMITHFIELD", "addr:country": "US", "addr:postcode": "23430", "addr:state": "VA", "addr:street_address": "1915 S CHURCH ST", "amenity": "post_box", "collection_times": "Mo-Sa 11:30", "nsi_id": "unitedstatespostalservice-a77078", "operator": "United States Postal Service", "operator:short": "USPS", "operator:type": "public", "operator:wikidata": "Q668687", "ref": "2343000005"}, "type": "Feature"}
{"geometry": {"coordinates": [-76.61134269, 36.975985061], "type": "Point"}, "id": "986P8HTYqW_RzQ5J4Zei2EUAVJg=", "properties": {"@source_uri": "https://tools.usps.com/UspsToolsRestServices/rest/POLocator/findLocations", "@spider": "usps_collection_boxes", "addr:city": "SMITHFIELD", "addr:country": "US", "addr:postcode": "23430", "addr:state": "VA", "addr:street_address": "1001 S CHURCH ST", "amenity": "post_box", "collection_times": "Mo-Sa 11:30", "nsi_id": "unitedstatespostalservice-a77078", "operator": "United States Postal Service", "operator:short": "USPS", "operator:type": "public", "operator:wikidata": "Q668687", "ref": "2343000006"}, "type": "Feature"}
{"geometry": {"coordinates": [-76.596039593, 36.943551396], "type": "Point"}, "id": "cI82eb_o__Kajgf9eUvAvukZnrI=", "properties": {"@source_uri": "https://tools.usps.com/UspsToolsRestServices/rest/POLocator/findLocations", "@spider": "usps_collection_boxes", "addr:city": "SMITHFIELD", "addr:country": "US", "addr:postcode": "23430", "addr:state": "VA", "addr:street_address": "19097 WHITE OAK DR", "amenity": "post_box", "collection_times": "Mo-Sa 11:30", "nsi_id": "unitedstatespostalservice-a77078", "operator": "United States Postal Service", "operator:short": "USPS", "operator:type": "public", "operator:wikidata": "Q668687", "ref": "2343000010"}, "type": "Feature"}
{"geometry": {"coordinates": [-76.63339374, 36.981081387], "type": "Point"}, "id": "OMRjSaDdJKxFol2lgH_JUOCaAbg=", "properties": {"@source_uri": "https://tools.usps.com/UspsToolsRestServices/rest/POLocator/findLocations", "@spider": "usps_collection_boxes", "addr:city": "SMITHFIELD", "addr:country": "US", "addr:postcode": "23430", "addr:state": "VA", "addr:street_address": "234 MAIN ST", "amenity": "post_box", "collection_times": "Mo-Fr 17:00; Sa 16:00", "indoor": "yes", "note": "ON 12/24 AND 12/31, THIS BOX MAY BE COLLECTED AS EARLY AS 12 NOON.", "nsi_id": "unitedstatespostalservice-a77078", "operator": "United States Postal Service", "operator:short": "USPS", "operator:type": "public", "operator:wikidata": "Q668687", "ref": "2343000013"}, "type": "Feature"}
{"geometry": {"coordinates": [-76.63339374, 36.981081387], "type": "Point"}, "id": "eiJHAJAdRKRVPZSEzNzaSYHKjJs=", "properties": {"@source_uri": "https://tools.usps.com/UspsToolsRestServices/rest/POLocator/findLocations", "@spider": "usps_collection_boxes", "addr:city": "SMITHFIELD", "addr:country": "US", "addr:postcode": "23430", "addr:state": "VA", "addr:street_address": "234 MAIN ST", "amenity": "post_box", "collection_times": "Mo-Fr 17:00; Sa 12:30", "indoor": "yes", "note": "ON 12/24 AND 12/31, THIS BOX MAY BE COLLECTED AS EARLY AS 12 NOON.", "nsi_id": "unitedstatespostalservice-a77078", "operator": "United States Postal Service", "operator:short": "USPS", "operator:type": "public", "operator:wikidata": "Q668687", "ref": "2343000020"}, "type": "Feature"}
{"geometry": {"coordinates": [-76.579522899, 36.861465554], "type": "Point"}, "id": "m05hbJ4aO-fBPU8Lo28CY0KNays=", "properties": {"@source_uri": "https://tools.usps.com/UspsToolsRestServices/rest/POLocator/findLocations", "@spider": "usps_collection_boxes", "addr:city": "SUFFOLK", "addr:country": "US", "addr:postcode": "23432", "addr:state": "VA", "addr:street_address": "109 KINGS HWY", "amenity": "post_box", "collection_times": "Mo-Fr 12:45; Sa 12:00", "indoor": "yes", "note": "ON 12/24 AND 12/31, THIS BOX MAY BE COLLECTED AS EARLY AS 12 NOON.", "nsi_id": "unitedstatespostalservice-a77078", "operator": "United States Postal Service", "operator:short": "USPS", "operator:type": "public", "operator:wikidata": "Q668687", "ref": "2343200001"}, "type": "Feature"}
{"geometry": {"coordinates": [-76.579522899, 36.861465554], "type": "Point"}, "id": "y0CDIoRNEqsWVYwsRH5wpolGYGU=", "properties": {"@source_uri": "https://tools.usps.com/UspsToolsRestServices/rest/POLocator/findLocations", "@spider": "usps_collection_boxes", "addr:city": "SUFFOLK", "addr:country": "US", "addr:postcode": "23432", "addr:state": "VA", "addr:street_address": "109 KINGS HWY", "amenity": "post_box", "collection_times": "Mo-Fr 12:45; Sa 12:00", "note": "ON 12/24 AND 12/31, THIS BOX MAY BE COLLECTED AS EARLY AS 12 NOON.", "nsi_id": "unitedstatespostalservice-a77078", "operator": "United States Postal Service", "operator:short": "USPS", "operator:type": "public", "operator:wikidata": "Q668687", "ref": "2343200002"}, "type": "Feature"}
{"geometry": {"coordinates": [-76.579522899, 36.861465554], "type": "Point"}, "id": "QTZdZMXMxub_tBBEsm-7uGITNro=", "properties": {"@source_uri": "https://tools.usps.com/UspsToolsRestServices/rest/POLocator/findLocations", "@spider": "usps_collection_boxes", "addr:city": "SUFFOLK", "addr:country": "US", "addr:postcode": "23432", "addr:state": "VA", "addr:street_address": "109 KINGS HWY", "amenity": "post_box", "collection_times": "Mo-Sa 12:30", "indoor": "yes", "note": "ON 12/24 AND 12/31, THIS BOX MAY BE COLLECTED AS EARLY AS 12 NOON.", "nsi_id": "unitedstatespostalservice-a77078", "operator": "United States Postal Service", "operator:short": "USPS", "operator:type": "public", "operator:wikidata": "Q668687", "ref": "2343200005"}, "type": "Feature"}
{"geometry": {"coordinates": [-76.497932974, 36.90640273], "type": "Point"}, "id": "HPN-JURzM7WDXxx4SRQkx7JIysw=", "properties": {"@source_uri": "https://tools.usps.com/UspsToolsRestServices/rest/POLocator/findLocations", "@spider": "usps_collection_boxes", "addr:city": "SUFFOLK", "addr:country": "US", "addr:postcode": "23433", "addr:state": "VA", "addr:street_address": "1605 BRIDGE RD", "amenity": "post_box", "collection_times": "Mo-Fr 12:45; Sa 12:00", "note": "ON 12/24 AND 12/31, THIS BOX MAY BE COLLECTED AS EARLY AS 12 NOON.", "nsi_id": "unitedstatespostalservice-a77078", "operator": "United States Postal Service", "operator:short": "USPS", "operator:type": "public", "operator:wikidata": "Q668687", "ref": "2343300001"}, "type": "Feature"}
{"geometry": {"coordinates": [-76.497932974, 36.90640273], "type": "Point"}, "id": "czzwNGlDhua0dlh5LDwDcE1YpSg=", "properties": {"@source_uri": "https://tools.usps.com/UspsToolsRestServices/rest/POLocator/findLocations", "@spider": "usps_collection_boxes", "addr:city": "SUFFOLK", "addr:country": "US", "addr:postcode": "23433", "addr:state": "VA", "addr:street_address": "1605 BRIDGE RD", "amenity": "post_box", "collection_times": "Mo-Fr 12:45; Sa 12:00", "indoor": "yes", "note": "ON 12/24 AND 12/31, THIS BOX MAY BE COLLECTED AS EARLY AS 12 NOON.", "nsi_id": "unitedstatespostalservice-a77078", "operator": "United States Postal Service", "operator:short": "USPS", "operator:type": "public", "operator:wikidata": "Q668687", "ref": "2343300002"}, "type": "Feature"}
{"geometry": {"coordinates": [-76.497932974, 36.90640273], "type": "Point"}, "id": "r7GL32MgxLkpyX1xJf_CfipJztQ=", "properties": {"@source_uri": "https://tools.usps.com/UspsToolsRestServices/rest/POLocator/findLocations", "@spider": "usps_collection_boxes", "addr:city": "SUFFOLK", "addr:country": "US", "addr:postcode": "23433", "addr:state": "VA", "addr:street_address": "1605 BRIDGE RD", "amenity": "post_box", "collection_times": "Mo-Sa 12:30", "indoor": "yes", "note": "ON 12/24 AND 12/31, THIS BOX MAY BE COLLECTED AS EARLY AS 12 NOON.", "nsi_id": "unitedstatespostalservice-a77078", "operator": "United States Postal Service", "operator:short": "USPS", "operator:type": "public", "operator:wikidata": "Q668687", "ref": "2343300004"}, "type": "Feature"}
{"geometry": {"coordinates": [-76.582559333, 36.729735538], "type": "Point"}, "id": "ZwPuzXzAS_bCmVw0R9bZqh_Fwk4=", "properties": {"@source_uri": "https://tools.usps.com/UspsToolsRestServices/rest/POLocator/findLocations", "@spider": "usps_collection_boxes", "addr:city": "SUFFOLK", "addr:country": "US", "addr:postcode": "23434", "addr:state": "VA", "addr:street_address": "200 N MAIN ST", "amenity": "post_box", "collection_times": "Mo-Fr 16:45; Sa 13:30", "note": "ON 12/24 AND 12/31, THIS BOX MAY BE COLLECTED AS EARLY AS 12 NOON.", "nsi_id": "unitedstatespostalservice-a77078", "operator": "United States Postal Service", "operator:short": "USPS", "operator:type": "public", "operator:wikidata": "Q668687", "ref": "2343400010"}, "type": "Feature"}
{"geometry": {"coordinates": [-76.5827550351, 36.7284940121], "type": "Point"}, "id": "5ocGZkvGAUsWvqUdSBf-N4RONQw=", "properties": {"@source_uri": "https://tools.usps.com/UspsToolsRestServices/rest/POLocator/findLocations", "@spider": "usps_collection_boxes", "addr:city": "SUFFOLK", "addr:country": "US", "addr:postcode": "23434", "addr:state": "VA", "addr:street_address": "118 N MAIN ST", "amenity": "post_box", "collection_times": "Mo-Fr 16:45; Sa 13:30", "note": "ON 12/24 AND 12/31, THIS BOX MAY BE COLLECTED AS EARLY AS 12 NOON.", "nsi_id": "unitedstatespostalservice-a77078", "operator": "United States Postal Service", "operator:short": "USPS", "operator:type": "public", "operator:wikidata": "Q668687", "ref": "2343400011"}, "type": "Feature"}
{"geometry": {"coordinates": [-76.5828319809, 36.736273005], "type": "Point"}, "id": "AuoXOwooVeri2ZMhbVeBxtvruCI=", "properties": {"@source_uri": "https://tools.usps.com/UspsToolsRestServices/rest/POLocator/findLocations", "@spider": "usps_collection_boxes", "addr:city": "SUFFOLK", "addr:country": "US", "addr:postcode": "23434", "addr:state": "VA", "addr:street_address": "445 N MAIN ST", "amenity": "post_box", "collection_times": "Mo-Fr 17:30; Sa 14:30", "note": "ON 12/24 AND 12/31, THIS BOX MAY BE COLLECTED AS EARLY AS 12 NOON.", "nsi_id": "unitedstatespostalservice-a77078", "operator": "United States Postal Service", "operator:short": "USPS", "operator:type": "public", "operator:wikidata": "Q668687", "ref": "2343400034"}, "type": "Feature"}
{"geometry": {"coordinates": [-76.589510442, 36.731069092], "type": "Point"}, "id": "TiXv_9jHNLfmVi-cCBqFcAIkAN0=", "properties": {"@source_uri": "https://tools.usps.com/UspsToolsRestServices/rest/POLocator/findLocations", "@spider": "usps_collection_boxes", "addr:city": "SUFFOLK", "addr:country": "US", "addr:postcode": "23434", "addr:state": "VA", "addr:street_address": "441 MARKET ST", "amenity": "post_box", "collection_times": "Mo-Fr 16:45; Sa 13:00", "note": "ON 12/24 AND 12/31, THIS BOX MAY BE COLLECTED AS EARLY AS 12 NOON.", "nsi_id": "unitedstatespostalservice-a77078", "operator": "United States Postal Service", "operator:short": "USPS", "operator:type": "public", "operator:wikidata": "Q668687", "ref": "2343400040"}, "type": "Feature"}
{"geometry": {"coordinates": [-76.583233153, 36.747221374], "type": "Point"}, "id": "VydRecMUoNkJ9WtgXKI1hmlr85s=", "properties": {"@source_uri": "https://tools.usps.com/UspsToolsRestServices/rest/POLocator/findLocations", "@spider": "usps_collection_boxes", "addr:city": "SUFFOLK", "addr:country": "US", "addr:postcode": "23434", "addr:state": "VA", "addr:street_address": "1413 N MAIN ST", "amenity": "post_box", "collection_times": "Mo-Sa 14:00", "note": "ON 12/24 AND 12/31, THIS BOX MAY BE COLLECTED AS EARLY AS 12 NOON.", "nsi_id": "unitedstatespostalservice-a77078", "operator": "United States Postal Service", "operator:short": "USPS", "operator:type": "public", "operator:wikidata": "Q668687", "ref": "2343400044"}, "type": "Feature"}
{"geometry": {"coordinates": [-76.592422285, 36.762659254], "type": "Point"}, "id": "3F84Q12R90ggLbVCLs0kHzX-uDg=", "properties": {"@source_uri": "https://tools.usps.com/UspsToolsRestServices/rest/POLocator/findLocations", "@spider": "usps_collection_boxes", "addr:city": "SUFFOLK", "addr:country": "US", "addr:postcode": "23434", "addr:state": "VA", "addr:street_address": "2470 PRUDEN BLVD", "amenity": "post_box", "collection_times": "Mo-Fr 17:00; Sa 14:00", "note": "ON 12/24 AND 12/31, THIS BOX MAY BE COLLECTED AS EARLY AS 12 NOON.", "nsi_id": "unitedstatespostalservice-a77078", "operator": "United States Postal Service", "operator:short": "USPS", "operator:type": "public", "operator:wikidata": "Q668687", "ref": "2343400046"}, "type": "Feature"}
{"geometry": {"coordinates": [-76.5842849838, 36.7764620095], "type": "Point"}, "id": "_gnABW3oSnomE_HL6AiyHLb1rIE=", "properties": {"@source_uri": "https://tools.usps.com/UspsToolsRestServices/rest/POLocator/findLocations", "@spider": "usps_collection_boxes", "addr:city": "SUFFOLK", "addr:country": "US", "addr:postcode": "23434", "addr:state": "VA", "addr:street_address": "2815 GODWIN BLVD", "amenity": "post_box", "collection_times": "Mo-Fr 17:00; Sa 14:00", "note": "ON 12/24 AND 12/31, THIS BOX MAY BE COLLECTED AS EARLY AS 12 NOON.", "nsi_id": "unitedstatespostalservice-a77078", "operator": "United States Postal Service", "operator:short": "USPS", "operator:type": "public", "operator:wikidata": "Q668687", "ref": "2343400047"}, "type": "Feature"}
{"geometry": {"coordinates": [-76.582337088, 36.73632578], "type": "Point"}, "id": "fUEmys7hCwk4dDDfStUQpZBuaxg=", "properties": {"@source_uri": "https://tools.usps.com/UspsToolsRestServices/rest/POLocator/findLocations", "@spider": "usps_collection_boxes", "addr:city": "SUFFOLK", "addr:country": "US", "addr:postcode": "23434", "addr:state": "VA", "addr:street_address": "445 N MAIN ST", "amenity": "post_box", "collection_times": "Mo-Fr 17:30; Sa 14:30", "indoor": "yes", "note": "ON 12/24 AND 12/31, THIS BOX MAY BE COLLECTED AS EARLY AS 12 NOON.", "nsi_id": "unitedstatespostalservice-a77078", "operator": "United States Postal Service", "operator:short": "USPS", "operator:type": "public", "operator:wikidata": "Q668687", "ref": "2343400049"}, "type": "Feature"}
{"geometry": {"coordinates": [-76.583842167, 36.771535679], "type": "Point"}, "id": "x1eVd7dPvUJTiE9-w5LhPLS0-Qk=", "properties": {"@source_uri": "https://tools.usps.com/UspsToolsRestServices/rest/POLocator/findLocations", "@spider": "usps_collection_boxes", "addr:city": "SUFFOLK", "addr:country": "US", "addr:postcode": "23434", "addr:state": "VA", "addr:street_address": "2790 GODWIN BLVD", "amenity": "post_box", "collection_times": "Mo-Fr 17:00; Sa 14:00", "note": "ON 12/24 AND 12/31, THIS BOX MAY BE COLLECTED AS EARLY AS 12 NOON.", "nsi_id": "unitedstatespostalservice-a77078", "operator": "United States Postal Service", "operator:short": "USPS", "operator:type": "public", "operator:wikidata": "Q668687", "ref": "2343400055"}, "type": "Feature"}
{"geometry": {"coordinates": [-76.582337088, 36.73632578], "type": "Point"}, "id": "I8LOZ_cYZJjX2Nrl5Z6GuTS_dZw=", "properties": {"@source_uri": "https://tools.usps.com/UspsToolsRestServices/rest/POLocator/findLocations", "@spider": "usps_collection_boxes", "addr:city": "SUFFOLK", "addr:country": "US", "addr:postcode": "23434", "addr:state": "VA", "addr:street_address": "445 N MAIN ST", "amenity": "post_box", "collection_times": "Mo-Fr 17:30; Sa 14:30", "name": "USPS COLLECTION BOX - APC", "note": "ON 12/24 AND 12/31, THIS BOX MAY BE COLLECTED AS EARLY AS 12 NOON.", "nsi_id": "unitedstatespostalservice-a77078", "operator": "United States Postal Service", "operator:short": "USPS", "operator:type": "public", "operator:wikidata": "Q668687", "ref": "2343400059"}, "type": "Feature"}
{"geometry": {"coordinates": [-76.582337088, 36.73632578], "type": "Point"}, "id": "jh4iQ6pE1dq8sz2hEYC51DMTQX4=", "properties": {"@source_uri": "https://tools.usps.com/UspsToolsRestServices/rest/POLocator/findLocations", "@spider": "usps_collection_boxes", "addr:city": "SUFFOLK", "addr:country": "US", "addr:postcode": "23434", "addr:state": "VA", "addr:street_address": "445 N MAIN ST", "amenity": "post_box", "collection_times": "Mo-Fr 17:00; Sa 12:00", "indoor": "yes", "note": "ON 12/24 AND 12/31, THIS BOX MAY BE COLLECTED AS EARLY AS 12 NOON.", "nsi_id": "unitedstatespostalservice-a77078", "operator": "United States Postal Service", "operator:short": "USPS", "operator:type": "public", "operator:wikidata": "Q668687", "ref": "2343400067"}, "type": "Feature"}
{"geometry": {"coordinates": [-76.504343171, 36.839840531], "type": "Point"}, "id": "hNjWZ0jyg5Dps_qH9-TckZ3mguY=", "properties": {"@source_uri": "https://tools.usps.com/UspsToolsRestServices/rest/POLocator/findLocations", "@spider": "usps_collection_boxes", "addr:city": "SUFFOLK", "addr:country": "US", "addr:postcode": "23435", "addr:state": "VA", "addr:street_address": "4897 BENNETTS PASTURE RD", "amenity": "post_box", "collection_times": "Mo-Fr 17:00; Sa 15:30", "note": "ON 12/24 AND 12/31, THIS BOX MAY BE COLLECTED AS EARLY AS 12 NOON.", "nsi_id": "unitedstatespostalservice-a77078", "operator": "United States Postal Service", "operator:short": "USPS", "operator:type": "public", "operator:wikidata": "Q668687", "ref": "2343500001"}, "type": "Feature"}
{"geometry": {"coordinates": [-76.504343171, 36.839840531], "type": "Point"}, "id": "j4SxEsBJg8CbhTCsKv7-SqUQPyk=", "properties": {"@source_uri": "https://tools.usps.com/UspsToolsRestServices/rest/POLocator/findLocations", "@spider": "usps_collection_boxes", "addr:city": "SUFFOLK", "addr:country": "US", "addr:postcode": "23435", "addr:state": "VA", "addr:street_address": "4897 BENNETTS PASTURE RD", "amenity": "post_box", "collection_times": "Mo-Fr 17:00; Sa 15:30", "indoor": "yes", "note": "ON 12/24 AND 12/31, THIS BOX MAY BE COLLECTED AS EARLY AS 12 NOON.", "nsi_id": "unitedstatespostalservice-a77078", "operator": "United States Postal Service", "operator:short": "USPS", "operator:type": "public", "operator:wikidata": "Q668687", "ref": "2343500002"}, "type": "Feature"}
{"geometry": {"coordinates": [-76.48644629, 36.864630988], "type": "Point"}, "id": "LB6gmMYTq7RFYCntri5pGc92eX0=", "properties": {"@source_uri": "https://tools.usps.com/UspsToolsRestServices/rest/POLocator/findLocations", "@spider": "usps_collection_boxes", "addr:city": "SUFFOLK", "addr:country": "US", "addr:postcode": "23435", "addr:state": "VA", "addr:street_address": "3131 BRIDGE RD", "amenity": "post_box", "collection_times": "Mo-Fr 13:30; Sa 13:00", "note": "ON 12/24 AND 12/31, THIS BOX MAY BE COLLECTED AS EARLY AS 12 NOON.", "nsi_id": "unitedstatespostalservice-a77078", "operator": "United States Postal Service", "operator:short": "USPS", "operator:type": "public", "operator:wikidata": "Q668687", "ref": "2343500003"}, "type": "Feature"}
{"geometry": {"coordinates": [-76.425505868, 36.886051825], "type": "Point"}, "id": "LS1iN_Mj9DV613GZ98hs1g-y2Mk=", "properties": {"@source_uri": "https://tools.usps.com/UspsToolsRestServices/rest/POLocator/findLocations", "@spider": "usps_collection_boxes", "addr:city": "SUFFOLK", "addr:country": "US", "addr:postcode": "23435", "addr:state": "VA", "addr:street_address": "116 LAKE VIEW PKWY", "amenity": "post_box", "collection_times": "Mo-Fr 09:30", "nsi_id": "unitedstatespostalservice-a77078", "operator": "United States Postal Service", "operator:short": "USPS", "operator:type": "public", "operator:wikidata": "Q668687", "ref": "2343500004"}, "type": "Feature"}
{"geometry": {"coordinates": [-76.781470571, 36.679237838], "type": "Point"}, "id": "fNfBlhC0uRc6qd_rDl_RgvXRIkc=", "properties": {"@source_uri": "https://tools.usps.com/UspsToolsRestServices/rest/POLocator/findLocations", "@spider": "usps_collection_boxes", "addr:city": "SUFFOLK", "addr:country": "US", "addr:postcode": "23437", "addr:state": "VA", "addr:street_address": "6723 S QUAY RD", "amenity": "post_box", "collection_times": "Mo-Sa 12:00", "nsi_id": "unitedstatespostalservice-a77078", "operator": "United States Postal Service", "operator:short": "USPS", "operator:type": "public", "operator:wikidata": "Q668687", "ref": "2343700001"}, "type": "Feature"}
{"geometry": {"coordinates": [-76.781470571, 36.679237838], "type": "Point"}, "id": "zcAQKbvc5Thi5iJQ90bd2crTaNc=", "properties": {"@source_uri": "https://tools.usps.com/UspsToolsRestServices/rest/POLocator/findLocations", "@spider": "usps_collection_boxes", "addr:city": "SUFFOLK", "addr:country": "US", "addr:postcode": "23437", "addr:state": "VA", "addr:street_address": "6723 S QUAY RD", "amenity": "post_box", "collection_times": "Mo-Sa 12:00", "indoor": "yes", "nsi_id": "unitedstatespostalservice-a77078", "operator": "United States Postal Service", "operator:short": "USPS", "operator:type": "public", "operator:wikidata": "Q668687", "ref": "2343700002"}, "type": "Feature"}
{"geometry": {"coordinates": [-76.781470571, 36.679237838], "type": "Point"}, "id": "YtgzHHTn-PBECuRJ3AocZhstC8c=", "properties": {"@source_uri": "https://tools.usps.com/UspsToolsRestServices/rest/POLocator/findLocations", "@spider": "usps_collection_boxes", "addr:city": "SUFFOLK", "addr:country": "US", "addr:postcode": "23437", "addr:state": "VA", "addr:street_address": "6723 S QUAY RD", "amenity": "post_box", "collection_times": "Mo-Sa 12:00", "indoor": "yes", "nsi_id": "unitedstatespostalservice-a77078", "operator": "United States Postal Service", "operator:short": "USPS", "operator:type": "public", "operator:wikidata": "Q668687", "ref": "2343700004"}, "type": "Feature"}
{"geometry": {"coordinates": [-76.684513581, 36.588624264], "type": "Point"}, "id": "_WtpAWwQ3uk-8y9k8cU5WbCaq0U=", "properties": {"@source_uri": "https://tools.usps.com/UspsToolsRestServices/rest/POLocator/findLocations", "@spider": "usps_collection_boxes", "addr:city": "SUFFOLK", "addr:country": "US", "addr:postcode": "23438", "addr:state": "VA", "addr:street_address": "6425 WHALEYVILLE BLVD", "amenity": "post_box", "collection_times": "Mo-Sa 12:00", "nsi_id": "unitedstatespostalservice-a77078", "operator": "United States Postal Service", "operator:short": "USPS", "operator:type": "public", "operator:wikidata": "Q668687", "ref": "2343800001"}, "type": "Feature"}
{"geometry": {"coordinates": [-76.684513581, 36.588624264], "type": "Point"}, "id": "DVwtu1RSyceG0ZJEMfHnOiByLrg=", "properties": {"@source_uri": "https://tools.usps.com/UspsToolsRestServices/rest/POLocator/findLocations", "@spider": "usps_collection_boxes", "addr:city": "SUFFOLK", "addr:country": "US", "addr:postcode": "23438", "addr:state": "VA", "addr:street_address": "6425 WHALEYVILLE BLVD", "amenity": "post_box", "collection_times": "Mo-Sa 12:00", "indoor": "yes", "nsi_id": "unitedstatespostalservice-a77078", "operator": "United States Postal Service", "operator:short": "USPS", "operator:type": "public", "operator:wikidata": "Q668687", "ref": "2343800002"}, "type": "Feature"}
{"geometry": {"coordinates": [-76.684513581, 36.588624264], "type": "Point"}, "id": "ue0nC0KImNin26ieDcP525DhkEs=", "properties": {"@source_uri": "https://tools.usps.com/UspsToolsRestServices/rest/POLocator/findLocations", "@spider": "usps_collection_boxes", "addr:city": "SUFFOLK", "addr:country": "US", "addr:postcode": "23438", "addr:state": "VA", "addr:street_address": "6425 WHALEYVILLE BLVD", "amenity": "post_box", "collection_times": "Mo-Fr 12:00", "indoor": "yes", "nsi_id": "unitedstatespostalservice-a77078", "operator": "United States Postal Service", "operator:short": "USPS", "operator:type": "public", "operator:wikidata": "Q668687", "ref": "2343800004"}, "type": "Feature"}
{"geometry": {"coordinates": [-75.9916199, 37.8271138], "type": "Point"}, "id": "QYhGc8ghCMXu0IuzGdOyC-1pKtE=", "properties": {"@source_uri": "https://tools.usps.com/UspsToolsRestServices/rest/POLocator/findLocations", "@spider": "usps_collection_boxes", "addr:city": "TANGIER", "addr:country": "US", "addr:postcode": "23440", "addr:state": "VA", "addr:street_address": "4432 MAIN ST", "amenity": "post_box", "collection_times": "Mo-Sa 07:00", "nsi_id": "unitedstatespostalservice-a77078", "operator": "United States Postal Service", "operator:short": "USPS", "operator:type": "public", "operator:wikidata": "Q668687", "ref": "2344000001"}, "type": "Feature"}
{"geometry": {"coordinates": [-75.991648, 37.82711], "type": "Point"}, "id": "GNx9Lhyv-nL-COmUO77sinZaZKY=", "properties": {"@source_uri": "https://tools.usps.com/UspsToolsRestServices/rest/POLocator/findLocations", "@spider": "usps_collection_boxes", "addr:city": "TANGIER", "addr:country": "US", "addr:postcode": "23440", "addr:state": "VA", "addr:street_address": "4432 MAIN ST", "amenity": "post_box", "collection_times": "Mo-Sa 07:00", "indoor": "yes", "nsi_id": "unitedstatespostalservice-a77078", "operator": "United States Postal Service", "operator:short": "USPS", "operator:type": "public", "operator:wikidata": "Q668687", "ref": "2344000005"}, "type": "Feature"}
{"geometry": {"coordinates": [-75.702336637, 37.711330557], "type": "Point"}, "id": "CBzAJNcAU54lnubVUvMXzERshDw=", "properties": {"@source_uri": "https://tools.usps.com/UspsToolsRestServices/rest/POLocator/findLocations", "@spider": "usps_collection_boxes", "addr:city": "TASLEY", "addr:country": "US", "addr:postcode": "23441", "addr:state": "VA", "addr:street_address": "24148 MERRY BRANCH RD", "amenity": "post_box", "collection_times": "Mo-Fr 16:30; Sa 11:30", "note": "ON 12/24 AND 12/31, THIS BOX MAY BE COLLECTED AS EARLY AS 12 NOON.", "nsi_id": "unitedstatespostalservice-a77078", "operator": "United States Postal Service", "operator:short": "USPS", "operator:type": "public", "operator:wikidata": "Q668687", "ref": "2344100001"}, "type": "Feature"}
{"geometry": {"coordinates": [-75.702336637, 37.711330557], "type": "Point"}, "id": "T7sthkTglVT92NU7KDAzPCpbe-s=", "properties": {"@source_uri": "https://tools.usps.com/UspsToolsRestServices/rest/POLocator/findLocations", "@spider": "usps_collection_boxes", "addr:city": "TASLEY", "addr:country": "US", "addr:postcode": "23441", "addr:state": "VA", "addr:street_address": "24148 MERRY BRANCH RD", "amenity": "post_box", "collection_times": "Mo-Fr 16:30; Sa 11:30", "indoor": "yes", "note": "ON 12/24 AND 12/31, THIS BOX MAY BE COLLECTED AS EARLY AS 12 NOON.", "nsi_id": "unitedstatespostalservice-a77078", "operator": "United States Postal Service", "operator:short": "USPS", "operator:type": "public", "operator:wikidata": "Q668687", "ref": "2344100002"}, "type": "Feature"}
{"geometry": {"coordinates": [-75.702336637, 37.711330557], "type": "Point"}, "id": "XORy85YfQ2WimJmG58Kh28Ek_XU=", "properties": {"@source_uri": "https://tools.usps.com/UspsToolsRestServices/rest/POLocator/findLocations", "@spider": "usps_collection_boxes", "addr:city": "TASLEY", "addr:country": "US", "addr:postcode": "23441", "addr:state": "VA", "addr:street_address": "24148 MERRY BRANCH RD", "amenity": "post_box", "collection_times": "Mo-Fr 16:30; Sa 11:30", "indoor": "yes", "note": "ON 12/24 AND 12/31, THIS BOX MAY BE COLLECTED AS EARLY AS 12 NOON.", "nsi_id": "unitedstatespostalservice-a77078", "operator": "United States Postal Service", "operator:short": "USPS", "operator:type": "public", "operator:wikidata": "Q668687", "ref": "2344100004"}, "type": "Feature"}
{"geometry": {"coordinates": [-75.957769641, 37.186599479], "type": "Point"}, "id": "ulaHLVyeRpqe5MCL53AVdwEj618=", "properties": {"@source_uri": "https://tools.usps.com/UspsToolsRestServices/rest/POLocator/findLocations", "@spider": "usps_collection_boxes", "addr:city": "TOWNSEND", "addr:country": "US", "addr:postcode": "23443", "addr:state": "VA", "addr:street_address": "28463 SEASIDE RD", "amenity": "post_box", "collection_times": "Mo-Fr 16:15; Sa 11:45", "note": "ON 12/24 AND 12/31, THIS BOX MAY BE COLLECTED AS EARLY AS 12 NOON.", "nsi_id": "unitedstatespostalservice-a77078", "operator": "United States Postal Service", "operator:short": "USPS", "operator:type": "public", "operator:wikidata": "Q668687", "ref": "2344300001"}, "type": "Feature"}
{"geometry": {"coordinates": [-75.957769641, 37.186599479], "type": "Point"}, "id": "d-oO1caBzKCttp3_-z2lS7xtIl0=", "properties": {"@source_uri": "https://tools.usps.com/UspsToolsRestServices/rest/POLocator/findLocations", "@spider": "usps_collection_boxes", "addr:city": "TOWNSEND", "addr:country": "US", "addr:postcode": "23443", "addr:state": "VA", "addr:street_address": "28463 SEASIDE RD", "amenity": "post_box", "collection_times": "Mo-Fr 16:20; Sa 11:50", "indoor": "yes", "note": "ON 12/24 AND 12/31, THIS BOX MAY BE COLLECTED AS EARLY AS 12 NOON.", "nsi_id": "unitedstatespostalservice-a77078", "operator": "United States Postal Service", "operator:short": "USPS", "operator:type": "public", "operator:wikidata": "Q668687", "ref": "2344300002"}, "type": "Feature"}
{"geometry": {"coordinates": [-75.957769641, 37.186599479], "type": "Point"}, "id": "N3nz1WN3Q7KO4yaNxqAprg-huRs=", "properties": {"@source_uri": "https://tools.usps.com/UspsToolsRestServices/rest/POLocator/findLocations", "@spider": "usps_collection_boxes", "addr:city": "TOWNSEND", "addr:country": "US", "addr:postcode": "23443", "addr:state": "VA", "addr:street_address": "28463 SEASIDE RD", "amenity": "post_box", "collection_times": "Mo-Fr 16:30; Sa 12:00", "indoor": "yes", "note": "ON 12/24 AND 12/31, THIS BOX MAY BE COLLECTED AS EARLY AS 12 NOON.", "nsi_id": "unitedstatespostalservice-a77078", "operator": "United States Postal Service", "operator:short": "USPS", "operator:type": "public", "operator:wikidata": "Q668687", "ref": "2344300004"}, "type": "Feature"}
{"geometry": {"coordinates": [-75.9742309718, 36.8448893317], "type": "Point"}, "id": "7hKqUKJm8prkfy8HzAKJLgzuQpM=", "properties": {"@source_uri": "https://tools.usps.com/UspsToolsRestServices/rest/POLocator/findLocations", "@spider": "usps_collection_boxes", "addr:city": "VIRGINIA BEACH", "addr:country": "US", "addr:postcode": "23451", "addr:state": "VA", "addr:street_address": "1618 ATLANTIC AVE", "amenity": "post_box", "collection_times": "Mo-Fr 15:45; Sa 10:00", "note": "ON 12/24 AND 12/31, THIS BOX MAY BE COLLECTED AS EARLY AS 12 NOON.", "nsi_id": "unitedstatespostalservice-a77078", "operator": "United States Postal Service", "operator:short": "USPS", "operator:type": "public", "operator:wikidata": "Q668687", "ref": "2345100011"}, "type": "Feature"}
{"geometry": {"coordinates": [-75.980215, 36.84942], "type": "Point"}, "id": "Rbjz9ZjVoG7bShD6alSDSgYdZJU=", "properties": {"@source_uri": "https://tools.usps.com/UspsToolsRestServices/rest/POLocator/findLocations", "@spider": "usps_collection_boxes", "addr:city": "VIRGINIA BEACH", "addr:country": "US", "addr:postcode": "23451", "addr:state": "VA", "addr:street_address": "1112 LASKIN RD", "amenity": "post_box", "collection_times": "Mo-Fr 14:45; Sa 12:15", "note": "ON 12/24 AND 12/31, THIS BOX MAY BE COLLECTED AS EARLY AS 12 NOON.", "nsi_id": "unitedstatespostalservice-a77078", "operator": "United States Postal Service", "operator:short": "USPS", "operator:type": "public", "operator:wikidata": "Q668687", "ref": "2345100015"}, "type": "Feature"}
{"geometry": {"coordinates": [-75.998667813, 36.853700111], "type": "Point"}, "id": "ErYNxhVA1IHjDcXJjUtDciAtZJ8=", "properties": {"@source_uri": "https://tools.usps.com/UspsToolsRestServices/rest/POLocator/findLocations", "@spider": "usps_collection_boxes", "addr:city": "VIRGINIA BEACH", "addr:country": "US", "addr:postcode": "23451", "addr:state": "VA", "addr:street_address": "1206 LASKIN RD", "amenity": "post_box", "collection_times": "Mo-Fr 14:45; Sa 12:15", "note": "ON 12/24 AND 12/31, THIS BOX MAY BE COLLECTED AS EARLY AS 12 NOON.", "nsi_id": "unitedstatespostalservice-a77078", "operator": "United States Postal Service", "operator:short": "USPS", "operator:type": "public", "operator:wikidata": "Q668687", "ref": "2345100018"}, "type": "Feature"}
{"geometry": {"coordinates": [-75.986087954, 36.847861783], "type": "Point"}, "id": "IgsfBrUlcUV5vBZ2nPzp8VQ2G_s=", "properties": {"@source_uri": "https://tools.usps.com/UspsToolsRestServices/rest/POLocator/findLocations", "@spider": "usps_collection_boxes", "addr:city": "VIRGINIA BEACH", "addr:country": "US", "addr:postcode": "23451", "addr:state": "VA", "addr:street_address": "2101 PARKS AVE", "amenity": "post_box", "collection_times": "Mo-Fr 15:45; Sa 10:00", "note": "ON 12/24 AND 12/31, THIS BOX MAY BE COLLECTED AS EARLY AS 12 NOON.", "nsi_id": "unitedstatespostalservice-a77078", "operator": "United States Postal Service", "operator:short": "USPS", "operator:type": "public", "operator:wikidata": "Q668687", "ref": "2345100022"}, "type": "Feature"}
{"geometry": {"coordinates": [-75.982292563, 36.848338073], "type": "Point"}, "id": "XRbiydTfpIRtX7TUdlxgq1dYRsQ=", "properties": {"@source_uri": "https://tools.usps.com/UspsToolsRestServices/rest/POLocator/findLocations", "@spider": "usps_collection_boxes", "addr:city": "VIRGINIA BEACH", "addr:country": "US", "addr:postcode": "23451", "addr:state": "VA", "addr:street_address": "2100 MEDITERRANEAN AVE", "amenity": "post_box", "collection_times": "Mo-Fr 15:45; Sa 10:00", "note": "ON 12/24 AND 12/31, THIS BOX MAY BE COLLECTED AS EARLY AS 12 NOON.", "nsi_id": "unitedstatespostalservice-a77078", "operator": "United States Postal Service", "operator:short": "USPS", "operator:type": "public", "operator:wikidata": "Q668687", "ref": "2345100025"}, "type": "Feature"}
{"geometry": {"coordinates": [-76.070113806, 36.91185098], "type": "Point"}, "id": "yzYwI39beSect6wsYVidPkIFGF4=", "properties": {"@source_uri": "https://tools.usps.com/UspsToolsRestServices/rest/POLocator/findLocations", "@spider": "usps_collection_boxes", "addr:city": "VIRGINIA BEACH", "addr:country": "US", "addr:postcode": "23451", "addr:state": "VA", "addr:street_address": "2830 SHORE DR", "amenity": "post_box", "collection_times": "Mo-Fr 12:00; Sa 10:00", "nsi_id": "unitedstatespostalservice-a77078", "operator": "United States Postal Service", "operator:short": "USPS", "operator:type": "public", "operator:wikidata": "Q668687", "ref": "2345100039"}, "type": "Feature"}
{"geometry": {"coordinates": [-76.067685633, 36.912395173], "type": "Point"}, "id": "jLRjKy12XsqekpwwX-yucN5tcCA=", "properties": {"@source_uri": "https://tools.usps.com/UspsToolsRestServices/rest/POLocator/findLocations", "@spider": "usps_collection_boxes", "addr:city": "VIRGINIA BEACH", "addr:country": "US", "addr:postcode": "23451", "addr:state": "VA", "addr:street_address": "2817 SHORE DR", "amenity": "post_box", "collection_times": "Mo-Fr 12:00; Sa 10:00", "nsi_id": "unitedstatespostalservice-a77078", "operator": "United States Postal Service", "operator:short": "USPS", "operator:type": "public", "operator:wikidata": "Q668687", "ref": "2345100040"}, "type": "Feature"}
{"geometry": {"coordinates": [-76.0091822841, 36.9255604947], "type": "Point"}, "id": "h1yW6Vfi1VFUA4_FqosZN4GS130=", "properties": {"@source_uri": "https://tools.usps.com/UspsToolsRestServices/rest/POLocator/findLocations", "@spider": "usps_collection_boxes", "addr:city": "VIRGINIA BEACH", "addr:country": "US", "addr:postcode": "23451", "addr:state": "VA", "addr:street_address": "591 CEBU ISLAND ROAD", "amenity": "post_box", "collection_times": "Mo-Fr 12:30; Sa 10:00", "note": "ON 12/24 AND 12/31, THIS BOX MAY BE COLLECTED AS EARLY AS 12 NOON.", "nsi_id": "unitedstatespostalservice-a77078", "operator": "United States Postal Service", "operator:short": "USPS", "operator:type": "public", "operator:wikidata": "Q668687", "ref": "2345100045"}, "type": "Feature"}
{"geometry": {"coordinates": [-75.981366399, 36.860788835], "type": "Point"}, "id": "vaUQLS_TJjsxKln9NLwwVtfDVK4=", "properties": {"@source_uri": "https://tools.usps.com/UspsToolsRestServices/rest/POLocator/findLocations", "@spider": "usps_collection_boxes", "addr:city": "VIRGINIA BEACH", "addr:country": "US", "addr:postcode": "23451", "addr:state": "VA", "addr:street_address": "320 33RD ST", "amenity": "post_box", "collection_times": "Mo-Fr 17:00; Sa 10:15", "note": "ON 12/24 AND 12/31, THIS BOX MAY BE COLLECTED AS EARLY AS 12 NOON.", "nsi_id": "unitedstatespostalservice-a77078", "operator": "United States Postal Service", "operator:short": "USPS", "operator:type": "public", "operator:wikidata": "Q668687", "ref": "2345100049"}, "type": "Feature"}
{"geometry": {"coordinates": [-75.981366399, 36.860788835], "type": "Point"}, "id": "i6Jsgd1n5wUSZTtBXl-0yBfU0LU=", "properties": {"@source_uri": "https://tools.usps.com/UspsToolsRestServices/rest/POLocator/findLocations", "@spider": "usps_collection_boxes", "addr:city": "VIRGINIA BEACH", "addr:country": "US", "addr:postcode": "23451", "addr:state": "VA", "addr:street_address": "320 33RD ST", "amenity": "post_box", "collection_times": "Mo-Fr 17:00; Sa 13:30", "indoor": "yes", "note": "ON 12/24 AND 12/31, THIS BOX MAY BE COLLECTED AS EARLY AS 12 NOON.", "nsi_id": "unitedstatespostalservice-a77078", "operator": "United States Postal Service", "operator:short": "USPS", "operator:type": "public", "operator:wikidata": "Q668687", "ref": "2345100054"}, "type": "Feature"}
{"geometry": {"coordinates": [-75.981366399, 36.860788835], "type": "Point"}, "id": "fgLTPOTUoMd09-gdWsX3r_rU7fE=", "properties": {"@source_uri": "https://tools.usps.com/UspsToolsRestServices/rest/POLocator/findLocations", "@spider": "usps_collection_boxes", "addr:city": "VIRGINIA BEACH", "addr:country": "US", "addr:postcode": "23451", "addr:state": "VA", "addr:street_address": "320 33RD ST", "amenity": "post_box", "collection_times": "Mo-Fr 17:00", "indoor": "yes", "note": "ON 12/24 AND 12/31, THIS BOX MAY BE COLLECTED AS EARLY AS 12 NOON.", "nsi_id": "unitedstatespostalservice-a77078", "operator": "United States Postal Service", "operator:short": "USPS", "operator:type": "public", "operator:wikidata": "Q668687", "ref": "2345100062"}, "type": "Feature"}
{"geometry": {"coordinates": [-76.021090365, 36.84718567], "type": "Point"}, "id": "P5eGQn_hH6AmU4hEV_39Qbj_8Ho=", "properties": {"@source_uri": "https://tools.usps.com/UspsToolsRestServices/rest/POLocator/findLocations", "@spider": "usps_collection_boxes", "addr:city": "VIRGINIA BEACH", "addr:country": "US", "addr:postcode": "23451", "addr:state": "VA", "addr:street_address": "550 FIRST COLONIAL RD", "amenity": "post_box", "collection_times": "Mo-Fr 17:00; Sa 14:00", "indoor": "yes", "note": "ON 12/24 AND 12/31, THIS BOX MAY BE COLLECTED AS EARLY AS 12 NOON.", "nsi_id": "unitedstatespostalservice-a77078", "operator": "United States Postal Service", "operator:short": "USPS", "operator:type": "public", "operator:wikidata": "Q668687", "ref": "2345100063"}, "type": "Feature"}
{"geometry": {"coordinates": [-76.06457706, 36.816264987], "type": "Point"}, "id": "4eW6HblgWMkFgUT9moSA-tMKhYs=", "properties": {"@source_uri": "https://tools.usps.com/UspsToolsRestServices/rest/POLocator/findLocations", "@spider": "usps_collection_boxes", "addr:city": "VIRGINIA BEACH", "addr:country": "US", "addr:postcode": "23452", "addr:state": "VA", "addr:street_address": "2697 INTERNATIONAL PKWY", "amenity": "post_box", "collection_times": "Mo-Fr 17:00; Sa 11:00", "note": "ON 12/24 AND 12/31, THIS BOX MAY BE COLLECTED AS EARLY AS 12 NOON.", "nsi_id": "unitedstatespostalservice-a77078", "operator": "United States Postal Service", "operator:short": "USPS", "operator:type": "public", "operator:wikidata": "Q668687", "ref": "2345200008"}, "type": "Feature"}
{"geometry": {"coordinates": [-76.10126, 36.81837], "type": "Point"}, "id": "p82aLPtVR5Umy1RejoErWsOEr_Q=", "properties": {"@source_uri": "https://tools.usps.com/UspsToolsRestServices/rest/POLocator/findLocations", "@spider": "usps_collection_boxes", "addr:city": "VIRGINIA BEACH", "addr:country": "US", "addr:postcode": "23452", "addr:state": "VA", "addr:street_address": "244 MUSTANG TRL", "amenity": "post_box", "collection_times": "Mo-Fr 17:00; Sa 13:15", "note": "ON 12/24 AND 12/31, THIS BOX MAY BE COLLECTED AS EARLY AS 12 NOON.", "nsi_id": "unitedstatespostalservice-a77078", "operator": "United States Postal Service", "operator:short": "USPS", "operator:type": "public", "operator:wikidata": "Q668687", "ref": "2345200014"}, "type": "Feature"}
{"geometry": {"coordinates": [-76.069238784, 36.833169557], "type": "Point"}, "id": "Xv8Rt2yCvogeD-vydQpUYtbYs84=", "properties": {"@source_uri": "https://tools.usps.com/UspsToolsRestServices/rest/POLocator/findLocations", "@spider": "usps_collection_boxes", "addr:city": "VIRGINIA BEACH", "addr:country": "US", "addr:postcode": "23452", "addr:state": "VA", "addr:street_address": "2809 S LYNNHAVEN RD", "amenity": "post_box", "collection_times": "Mo-Fr 17:00; Sa 11:45", "note": "ON 12/24 AND 12/31, THIS BOX MAY BE COLLECTED AS EARLY AS 12 NOON.", "nsi_id": "unitedstatespostalservice-a77078", "operator": "United States Postal Service", "operator:short": "USPS", "operator:type": "public", "operator:wikidata": "Q668687", "ref": "2345200020"}, "type": "Feature"}
{"geometry": {"coordinates": [-76.066386968, 36.829005017], "type": "Point"}, "id": "TA4mYKEFPWgx0-mfDKpKxF2xfD4=", "properties": {"@source_uri": "https://tools.usps.com/UspsToolsRestServices/rest/POLocator/findLocations", "@spider": "usps_collection_boxes", "addr:city": "VIRGINIA BEACH", "addr:country": "US", "addr:postcode": "23452", "addr:state": "VA", "addr:street_address": "501 VIKING DR", "amenity": "post_box", "collection_times": "Mo-Sa 17:00", "note": "ON 12/24 AND 12/31, THIS BOX MAY BE COLLECTED AS EARLY AS 12 NOON.", "nsi_id": "unitedstatespostalservice-a77078", "operator": "United States Postal Service", "operator:short": "USPS", "operator:type": "public", "operator:wikidata": "Q668687", "ref": "2345200025"}, "type": "Feature"}
{"geometry": {"coordinates": [-76.113830911, 36.841843409], "type": "Point"}, "id": "xkPMdy8aL7D22eegMXAk_GbmVM4=", "properties": {"@source_uri": "https://tools.usps.com/UspsToolsRestServices/rest/POLocator/findLocations", "@spider": "usps_collection_boxes", "addr:city": "VIRGINIA BEACH", "addr:country": "US", "addr:postcode": "23452", "addr:state": "VA", "addr:street_address": "4000 VIRGINIA BEACH BLVD", "amenity": "post_box", "collection_times": "Mo-Sa 11:00", "nsi_id": "unitedstatespostalservice-a77078", "operator": "United States Postal Service", "operator:short": "USPS", "operator:type": "public", "operator:wikidata": "Q668687", "ref": "2345200034"}, "type": "Feature"}
{"geometry": {"coordinates": [-76.092071154, 36.841105801], "type": "Point"}, "id": "Dke6eUSfTzS0nR7axjbxoSF62WU=", "properties": {"@source_uri": "https://tools.usps.com/UspsToolsRestServices/rest/POLocator/findLocations", "@spider": "usps_collection_boxes", "addr:city": "VIRGINIA BEACH", "addr:country": "US", "addr:postcode": "23452", "addr:state": "VA", "addr:street_address": "3419 VIRGINIA BEACH BLVD", "amenity": "post_box", "collection_times": "Mo-Sa 11:00", "nsi_id": "unitedstatespostalservice-a77078", "operator": "United States Postal Service", "operator:short": "USPS", "operator:type": "public", "operator:wikidata": "Q668687", "ref": "2345200036"}, "type": "Feature"}
{"geometry": {"coordinates": [-76.10126, 36.81837], "type": "Point"}, "id": "6SjpI6xT69SggLhT9-xy55dRCgc=", "properties": {"@source_uri": "https://tools.usps.com/UspsToolsRestServices/rest/POLocator/findLocations", "@spider": "usps_collection_boxes", "addr:city": "VIRGINIA BEACH", "addr:country": "US", "addr:postcode": "23452", "addr:state": "VA", "addr:street_address": "4324 HOLLAND RD", "amenity": "post_box", "collection_times": "Mo-Sa 11:00", "nsi_id": "unitedstatespostalservice-a77078", "operator": "United States Postal Service", "operator:short": "USPS", "operator:type": "public", "operator:wikidata": "Q668687", "ref": "2345200042"}, "type": "Feature"}
{"geometry": {"coordinates": [-76.13104415, 36.83073824], "type": "Point"}, "id": "MGKe1w05lI3imPnwpT9tYqqr7h8=", "properties": {"@source_uri": "https://tools.usps.com/UspsToolsRestServices/rest/POLocator/findLocations", "@spider": "usps_collection_boxes", "addr:city": "VIRGINIA BEACH", "addr:country": "US", "addr:postcode": "23452", "addr:state": "VA", "addr:street_address": "348 SOUTHPORT CIR", "amenity": "post_box", "collection_times": "Mo-Sa 11:00", "nsi_id": "unitedstatespostalservice-a77078", "operator": "United States Postal Service", "operator:short": "USPS", "operator:type": "public", "operator:wikidata": "Q668687", "ref": "2345200044"}, "type": "Feature"}
{"geometry": {"coordinates": [-76.078577367, 36.827817006], "type": "Point"}, "id": "5YImmy6Tkun5pT44awwgwnJY1C4=", "properties": {"@source_uri": "https://tools.usps.com/UspsToolsRestServices/rest/POLocator/findLocations", "@spider": "usps_collection_boxes", "addr:city": "VIRGINIA BEACH", "addr:country": "US", "addr:postcode": "23452", "addr:state": "VA", "addr:street_address": "3011 SILINA DR", "amenity": "post_box", "collection_times": "Mo-Sa 11:00", "nsi_id": "unitedstatespostalservice-a77078", "operator": "United States Postal Service", "operator:short": "USPS", "operator:type": "public", "operator:wikidata": "Q668687", "ref": "2345200061"}, "type": "Feature"}
{"geometry": {"coordinates": [-76.091347615, 36.84381168], "type": "Point"}, "id": "83wJFUQugbRl4wXtzP2SWZz4hFw=", "properties": {"@source_uri": "https://tools.usps.com/UspsToolsRestServices/rest/POLocator/findLocations", "@spider": "usps_collection_boxes", "addr:city": "VIRGINIA BEACH", "addr:country": "US", "addr:postcode": "23452", "addr:state": "VA", "addr:street_address": "397 LITTLE NECK RD", "amenity": "post_box", "collection_times": "Mo-Sa 11:00", "nsi_id": "unitedstatespostalservice-a77078", "operator": "United States Postal Service", "operator:short": "USPS", "operator:type": "public", "operator:wikidata": "Q668687", "ref": "2345200071"}, "type": "Feature"}
{"geometry": {"coordinates": [-76.0725729801, 36.8269480145], "type": "Point"}, "id": "P7p7iNccUPeMHoKBw_Mab--Utak=", "properties": {"@source_uri": "https://tools.usps.com/UspsToolsRestServices/rest/POLocator/findLocations", "@spider": "usps_collection_boxes", "addr:city": "VIRGINIA BEACH", "addr:country": "US", "addr:postcode": "23452", "addr:state": "VA", "addr:street_address": "448 VIKING DR", "amenity": "post_box", "collection_times": "Mo-Fr 17:00; Sa 11:45", "note": "ON 12/24 AND 12/31, THIS BOX MAY BE COLLECTED AS EARLY AS 12 NOON.", "nsi_id": "unitedstatespostalservice-a77078", "operator": "United States Postal Service", "operator:short": "USPS", "operator:type": "public", "operator:wikidata": "Q668687", "ref": "2345200079"}, "type": "Feature"}
{"geometry": {"coordinates": [-76.067550027, 36.838483437], "type": "Point"}, "id": "Dalay61_MGS7xDKByBEMtXRsKTo=", "properties": {"@source_uri": "https://tools.usps.com/UspsToolsRestServices/rest/POLocator/findLocations", "@spider": "usps_collection_boxes", "addr:city": "VIRGINIA BEACH", "addr:country": "US", "addr:postcode": "23452", "addr:state": "VA", "addr:street_address": "120 S LYNNHAVEN RD", "amenity": "post_box", "collection_times": "Mo-Fr 17:00; Sa 13:00", "note": "ON 12/24 AND 12/31, THIS BOX MAY BE COLLECTED AS EARLY AS 12 NOON.", "nsi_id": "unitedstatespostalservice-a77078", "operator": "United States Postal Service", "operator:short": "USPS", "operator:type": "public", "operator:wikidata": "Q668687", "ref": "2345200085"}, "type": "Feature"}
{"geometry": {"coordinates": [-76.068505327, 36.825282], "type": "Point"}, "id": "_2UWeSmWTWDNM8J0eOJy17kNFds=", "properties": {"@source_uri": "https://tools.usps.com/UspsToolsRestServices/rest/POLocator/findLocations", "@spider": "usps_collection_boxes", "addr:city": "VIRGINIA BEACH", "addr:country": "US", "addr:postcode": "23452", "addr:state": "VA", "addr:street_address": "641 PHOENIX DR", "amenity": "post_box", "collection_times": "Mo-Fr 17:00; Sa 11:45", "note": "ON 12/24 AND 12/31, THIS BOX MAY BE COLLECTED AS EARLY AS 12 NOON.", "nsi_id": "unitedstatespostalservice-a77078", "operator": "United States Postal Service", "operator:short": "USPS", "operator:type": "public", "operator:wikidata": "Q668687", "ref": "2345200086"}, "type": "Feature"}
{"geometry": {"coordinates": [-76.066386968, 36.829005017], "type": "Point"}, "id": "_LiQf6Msp7_d4hhx5Umz9FGHgVc=", "properties": {"@source_uri": "https://tools.usps.com/UspsToolsRestServices/rest/POLocator/findLocations", "@spider": "usps_collection_boxes", "addr:city": "VIRGINIA BEACH", "addr:country": "US", "addr:postcode": "23452", "addr:state": "VA", "addr:street_address": "501 VIKING DR", "amenity": "post_box", "collection_times": "Mo-Sa 17:00", "indoor": "yes", "note": "ON 12/24 AND 12/31, THIS BOX MAY BE COLLECTED AS EARLY AS 12 NOON.", "nsi_id": "unitedstatespostalservice-a77078", "operator": "United States Postal Service", "operator:short": "USPS", "operator:type": "public", "operator:wikidata": "Q668687", "ref": "2345200090"}, "type": "Feature"}
{"geometry": {"coordinates": [-76.066386968, 36.829005017], "type": "Point"}, "id": "Qg9v1Wgw0FrC8lP3Zgly8gMWUYU=", "properties": {"@source_uri": "https://tools.usps.com/UspsToolsRestServices/rest/POLocator/findLocations", "@spider": "usps_collection_boxes", "addr:city": "VIRGINIA BEACH", "addr:country": "US", "addr:postcode": "23452", "addr:state": "VA", "addr:street_address": "501 VIKING DR", "amenity": "post_box", "collection_times": "Mo-Sa 17:00", "indoor": "yes", "note": "ON 12/24 AND 12/31, THIS BOX MAY BE COLLECTED AS EARLY AS 12 NOON.", "nsi_id": "unitedstatespostalservice-a77078", "operator": "United States Postal Service", "operator:short": "USPS", "operator:type": "public", "operator:wikidata": "Q668687", "ref": "2345200091"}, "type": "Feature"}
{"geometry": {"coordinates": [-76.114572139, 36.83847541], "type": "Point"}, "id": "sj9SKLoUl73u6Snpks7hOZTkvoc=", "properties": {"@source_uri": "https://tools.usps.com/UspsToolsRestServices/rest/POLocator/findLocations", "@spider": "usps_collection_boxes", "addr:city": "VIRGINIA BEACH", "addr:country": "US", "addr:postcode": "23452", "addr:state": "VA", "addr:street_address": "4020 BONNEY RD", "amenity": "post_box", "collection_times": "Mo-Sa 11:00", "nsi_id": "unitedstatespostalservice-a77078", "operator": "United States Postal Service", "operator:short": "USPS", "operator:type": "public", "operator:wikidata": "Q668687", "ref": "2345200093"}, "type": "Feature"}
{"geometry": {"coordinates": [-76.066386968, 36.829005017], "type": "Point"}, "id": "Fib5lSO9ORQdirp2C66diIbzLb4=", "properties": {"@source_uri": "https://tools.usps.com/UspsToolsRestServices/rest/POLocator/findLocations", "@spider": "usps_collection_boxes", "addr:city": "VIRGINIA BEACH", "addr:country": "US", "addr:postcode": "23452", "addr:state": "VA", "addr:street_address": "501 VIKING DR", "amenity": "post_box", "collection_times": "Mo-Sa 17:00", "name": "USPS COLLECTION BOX - APC", "note": "ON 12/24 AND 12/31, THIS BOX MAY BE COLLECTED AS EARLY AS 12 NOON.", "nsi_id": "unitedstatespostalservice-a77078", "operator": "United States Postal Service", "operator:short": "USPS", "operator:type": "public", "operator:wikidata": "Q668687", "ref": "2345200101"}, "type": "Feature"}
{"geometry": {"coordinates": [-76.066386968, 36.829005017], "type": "Point"}, "id": "H-uD2PxHL6dPYu_2pxsi7iB_DfA=", "properties": {"@source_uri": "https://tools.usps.com/UspsToolsRestServices/rest/POLocator/findLocations", "@spider": "usps_collection_boxes", "addr:city": "VIRGINIA BEACH", "addr:country": "US", "addr:postcode": "23452", "addr:state": "VA", "addr:street_address": "501 VIKING DR", "amenity": "post_box", "collection_times": "Mo-Sa 17:00", "name": "USPS COLLECTION BOX - APC", "note": "ON 12/24 AND 12/31, THIS BOX MAY BE COLLECTED AS EARLY AS 12 NOON.", "nsi_id": "unitedstatespostalservice-a77078", "operator": "United States Postal Service", "operator:short": "USPS", "operator:type": "public", "operator:wikidata": "Q668687", "ref": "2345200102"}, "type": "Feature"}
{"geometry": {"coordinates": [-76.066386968, 36.829005017], "type": "Point"}, "id": "_UsgNmE48qAcP2hyCpjJ-x91fTM=", "properties": {"@source_uri": "https://tools.usps.com/UspsToolsRestServices/rest/POLocator/findLocations", "@spider": "usps_collection_boxes", "addr:city": "VIRGINIA BEACH", "addr:country": "US", "addr:postcode": "23452", "addr:state": "VA", "addr:street_address": "501 VIKING DR", "amenity": "post_box", "collection_times": "Mo-Fr 17:00; Sa 15:00", "indoor": "yes", "note": "ON 12/24 AND 12/31, THIS BOX MAY BE COLLECTED AS EARLY AS 12 NOON.", "nsi_id": "unitedstatespostalservice-a77078", "operator": "United States Postal Service", "operator:short": "USPS", "operator:type": "public", "operator:wikidata": "Q668687", "ref": "2345200109"}, "type": "Feature"}
{"geometry": {"coordinates": [-76.0799120069, 36.793361016], "type": "Point"}, "id": "o_dIx0sCBkg2wQRQxOxbEBo9CqQ=", "properties": {"@source_uri": "https://tools.usps.com/UspsToolsRestServices/rest/POLocator/findLocations", "@spider": "usps_collection_boxes", "addr:city": "VIRGINIA BEACH", "addr:country": "US", "addr:postcode": "23453", "addr:state": "VA", "addr:street_address": "3208 HOLLAND RD", "amenity": "post_box", "collection_times": "Mo-Fr 15:30; Sa 12:15", "note": "ON 12/24 AND 12/31, THIS BOX MAY BE COLLECTED AS EARLY AS 12 NOON.", "nsi_id": "unitedstatespostalservice-a77078", "operator": "United States Postal Service", "operator:short": "USPS", "operator:type": "public", "operator:wikidata": "Q668687", "ref": "2345300001"}, "type": "Feature"}
{"geometry": {"coordinates": [-76.1000050214, 36.7852710126], "type": "Point"}, "id": "wCx4EL0kEpp3bZuFXjh4HdQogQE=", "properties": {"@source_uri": "https://tools.usps.com/UspsToolsRestServices/rest/POLocator/findLocations", "@spider": "usps_collection_boxes", "addr:city": "VIRGINIA BEACH", "addr:country": "US", "addr:postcode": "23453", "addr:state": "VA", "addr:street_address": "1700 COLLEGE CRES", "amenity": "post_box", "collection_times": "Mo-Fr 16:00; Sa 10:00", "note": "ON 12/24 AND 12/31, THIS BOX MAY BE COLLECTED AS EARLY AS 12 NOON.", "nsi_id": "unitedstatespostalservice-a77078", "operator": "United States Postal Service", "operator:short": "USPS", "operator:type": "public", "operator:wikidata": "Q668687", "ref": "2345300002"}, "type": "Feature"}
{"geometry": {"coordinates": [-76.099067958, 36.795595928], "type": "Point"}, "id": "4aBeeUd14FSjNwgTlhqz58on9p8=", "properties": {"@source_uri": "https://tools.usps.com/UspsToolsRestServices/rest/POLocator/findLocations", "@spider": "usps_collection_boxes", "addr:city": "VIRGINIA BEACH", "addr:country": "US", "addr:postcode": "23453", "addr:state": "VA", "addr:street_address": "1505 LYNNHAVEN PKWY STE 1345", "amenity": "post_box", "collection_times": "Mo-Fr 16:00; Sa 10:00", "note": "ON 12/24 AND 12/31, THIS BOX MAY BE COLLECTED AS EARLY AS 12 NOON.", "nsi_id": "unitedstatespostalservice-a77078", "operator": "United States Postal Service", "operator:short": "USPS", "operator:type": "public", "operator:wikidata": "Q668687", "ref": "2345300003"}, "type": "Feature"}
{"geometry": {"coordinates": [-76.120705396, 36.791709135], "type": "Point"}, "id": "u5UdPawCczLncJba8laB3XG3Vts=", "properties": {"@source_uri": "https://tools.usps.com/UspsToolsRestServices/rest/POLocator/findLocations", "@spider": "usps_collection_boxes", "addr:city": "VIRGINIA BEACH", "addr:country": "US", "addr:postcode": "23453", "addr:state": "VA", "addr:street_address": "2021 LYNNHAVEN PKWY", "amenity": "post_box", "collection_times": "Mo-Sa 11:00", "nsi_id": "unitedstatespostalservice-a77078", "operator": "United States Postal Service", "operator:short": "USPS", "operator:type": "public", "operator:wikidata": "Q668687", "ref": "2345300005"}, "type": "Feature"}
{"geometry": {"coordinates": [-76.028473832, 36.864296627], "type": "Point"}, "id": "1wSEGl3KIPI99GFpC1T948NDYAo=", "properties": {"@source_uri": "https://tools.usps.com/UspsToolsRestServices/rest/POLocator/findLocations", "@spider": "usps_collection_boxes", "addr:city": "VIRGINIA BEACH", "addr:country": "US", "addr:postcode": "23454", "addr:state": "VA", "addr:street_address": "1060 FIRST COLONIAL RD", "amenity": "post_box", "collection_times": "Mo-Fr 15:00; Sa 12:45", "note": "ON 12/24 AND 12/31, THIS BOX MAY BE COLLECTED AS EARLY AS 12 NOON.", "nsi_id": "unitedstatespostalservice-a77078", "operator": "United States Postal Service", "operator:short": "USPS", "operator:type": "public", "operator:wikidata": "Q668687", "ref": "2345400008"}, "type": "Feature"}
{"geometry": {"coordinates": [-76.027800503, 36.862933692], "type": "Point"}, "id": "9GBsq71ToqxfRiACss_P0xgTLpI=", "properties": {"@source_uri": "https://tools.usps.com/UspsToolsRestServices/rest/POLocator/findLocations", "@spider": "usps_collection_boxes", "addr:city": "VIRGINIA BEACH", "addr:country": "US", "addr:postcode": "23454", "addr:state": "VA", "addr:street_address": "1020 FIRST COLONIAL RD", "amenity": "post_box", "collection_times": "Mo-Fr 15:00; Sa 12:45", "note": "ON 12/24 AND 12/31, THIS BOX MAY BE COLLECTED AS EARLY AS 12 NOON.", "nsi_id": "unitedstatespostalservice-a77078", "operator": "United States Postal Service", "operator:short": "USPS", "operator:type": "public", "operator:wikidata": "Q668687", "ref": "2345400009"}, "type": "Feature"}
{"geometry": {"coordinates": [-76.017248059, 36.851531724], "type": "Point"}, "id": "ivm70s0_H8_YWXZ6qBVNCHNNz4w=", "properties": {"@source_uri": "https://tools.usps.com/UspsToolsRestServices/rest/POLocator/findLocations", "@spider": "usps_collection_boxes", "addr:city": "VIRGINIA BEACH", "addr:country": "US", "addr:postcode": "23454", "addr:state": "VA", "addr:street_address": "1604 LASKIN RD", "amenity": "post_box", "collection_times": "Mo-Fr 15:00; Sa 12:30", "note": "ON 12/24 AND 12/31, THIS BOX MAY BE COLLECTED AS EARLY AS 12 NOON.", "nsi_id": "unitedstatespostalservice-a77078", "operator": "United States Postal Service", "operator:short": "USPS", "operator:type": "public", "operator:wikidata": "Q668687", "ref": "2345400011"}, "type": "Feature"}
{"geometry": {"coordinates": [-76.021090365, 36.84718567], "type": "Point"}, "id": "4sIRI8vIlOKct9ZGZ3ih5FUFmQQ=", "properties": {"@source_uri": "https://tools.usps.com/UspsToolsRestServices/rest/POLocator/findLocations", "@spider": "usps_collection_boxes", "addr:city": "VIRGINIA BEACH", "addr:country": "US", "addr:postcode": "23454", "addr:state": "VA", "addr:street_address": "550 FIRST COLONIAL RD", "amenity": "post_box", "collection_times": "Mo-Fr 15:30; Sa 14:00", "note": "ON 12/24 AND 12/31, THIS BOX MAY BE COLLECTED AS EARLY AS 12 NOON.", "nsi_id": "unitedstatespostalservice-a77078", "operator": "United States Postal Service", "operator:short": "USPS", "operator:type": "public", "operator:wikidata": "Q668687", "ref": "2345400016"}, "type": "Feature"}
{"geometry": {"coordinates": [-76.038062346, 36.87563078], "type": "Point"}, "id": "8hjOvR9gprfzbSmhrri1JoIKhqQ=", "properties": {"@source_uri": "https://tools.usps.com/UspsToolsRestServices/rest/POLocator/findLocations", "@spider": "usps_collection_boxes", "addr:city": "VIRGINIA BEACH", "addr:country": "US", "addr:postcode": "23454", "addr:state": "VA", "addr:street_address": "2114 GREAT NECK SQ", "amenity": "post_box", "collection_times": "Mo-Sa 10:00", "nsi_id": "unitedstatespostalservice-a77078", "operator": "United States Postal Service", "operator:short": "USPS", "operator:type": "public", "operator:wikidata": "Q668687", "ref": "2345400030"}, "type": "Feature"}
{"geometry": {"coordinates": [-76.0223350376, 36.8144539915], "type": "Point"}, "id": "N2HYwNI9PYZ58EtX-H8G5X_x7G0=", "properties": {"@source_uri": "https://tools.usps.com/UspsToolsRestServices/rest/POLocator/findLocations", "@spider": "usps_collection_boxes", "addr:city": "VIRGINIA BEACH", "addr:country": "US", "addr:postcode": "23454", "addr:state": "VA", "addr:street_address": "1801 TOMCAT BLVD", "amenity": "post_box", "collection_times": "Mo-Sa 10:00", "nsi_id": "unitedstatespostalservice-a77078", "operator": "United States Postal Service", "operator:short": "USPS", "operator:type": "public", "operator:wikidata": "Q668687", "ref": "2345400034"}, "type": "Feature"}
{"geometry": {"coordinates": [-76.000863239, 36.78292001], "type": "Point"}, "id": "I6AWyvbRzphn4jSG4b46Kf95w7A=", "properties": {"@source_uri": "https://tools.usps.com/UspsToolsRestServices/rest/POLocator/findLocations", "@spider": "usps_collection_boxes", "addr:city": "VIRGINIA BEACH", "addr:country": "US", "addr:postcode": "23454", "addr:state": "VA", "addr:street_address": "1650 GENERAL BOOTH BLVD", "amenity": "post_box", "collection_times": "Mo-Fr 15:30; Sa 10:45", "note": "ON 12/24 AND 12/31, THIS BOX MAY BE COLLECTED AS EARLY AS 12 NOON.", "nsi_id": "unitedstatespostalservice-a77078", "operator": "United States Postal Service", "operator:short": "USPS", "operator:type": "public", "operator:wikidata": "Q668687", "ref": "2345400036"}, "type": "Feature"}
{"geometry": {"coordinates": [-76.000470192, 36.784254661], "type": "Point"}, "id": "TcY0DiFHDE-vtL6dBkjsfnbdEtg=", "properties": {"@source_uri": "https://tools.usps.com/UspsToolsRestServices/rest/POLocator/findLocations", "@spider": "usps_collection_boxes", "addr:city": "VIRGINIA BEACH", "addr:country": "US", "addr:postcode": "23454", "addr:state": "VA", "addr:street_address": "1615 GENERAL BOOTH BLVD", "amenity": "post_box", "collection_times": "Mo-Fr 15:30; Sa 10:30", "note": "ON 12/24 AND 12/31, THIS BOX MAY BE COLLECTED AS EARLY AS 12 NOON.", "nsi_id": "unitedstatespostalservice-a77078", "operator": "United States Postal Service", "operator:short": "USPS", "operator:type": "public", "operator:wikidata": "Q668687", "ref": "2345400037"}, "type": "Feature"}
{"geometry": {"coordinates": [-76.013693117, 36.767237172], "type": "Point"}, "id": "ICzojjPSwhPaU1RsfX3zhSqdLEQ=", "properties": {"@source_uri": "https://tools.usps.com/UspsToolsRestServices/rest/POLocator/findLocations", "@spider": "usps_collection_boxes", "addr:city": "VIRGINIA BEACH", "addr:country": "US", "addr:postcode": "23454", "addr:state": "VA", "addr:street_address": "2129 GENERAL BOOTH BLVD", "amenity": "post_box", "collection_times": "Mo-Sa 10:00", "nsi_id": "unitedstatespostalservice-a77078", "operator": "United States Postal Service", "operator:short": "USPS", "operator:type": "public", "operator:wikidata": "Q668687", "ref": "2345400039"}, "type": "Feature"}
{"geometry": {"coordinates": [-76.0367391656, 36.8036304582], "type": "Point"}, "id": "4C59BYuhQl8a6atoDVKCg7Kobn0=", "properties": {"@source_uri": "https://tools.usps.com/UspsToolsRestServices/rest/POLocator/findLocations", "@spider": "usps_collection_boxes", "addr:city": "VIRGINIA BEACH", "addr:country": "US", "addr:postcode": "23454", "addr:state": "VA", "addr:street_address": "1161 D AVE", "amenity": "post_box", "collection_times": "Mo-Sa 11:00", "nsi_id": "unitedstatespostalservice-a77078", "operator": "United States Postal Service", "operator:short": "USPS", "operator:type": "public", "operator:wikidata": "Q668687", "ref": "2345400049"}, "type": "Feature"}
{"geometry": {"coordinates": [-75.999020129, 36.786903592], "type": "Point"}, "id": "ntW1bpEEtESSZHZinqV6PVTSKuw=", "properties": {"@source_uri": "https://tools.usps.com/UspsToolsRestServices/rest/POLocator/findLocations", "@spider": "usps_collection_boxes", "addr:city": "VIRGINIA BEACH", "addr:country": "US", "addr:postcode": "23454", "addr:state": "VA", "addr:street_address": "1581 GENERAL BOOTH BLVD", "amenity": "post_box", "collection_times": "Mo-Fr 15:30; Sa 10:30", "note": "ON 12/24 AND 12/31, THIS BOX MAY BE COLLECTED AS EARLY AS 12 NOON.", "nsi_id": "unitedstatespostalservice-a77078", "operator": "United States Postal Service", "operator:short": "USPS", "operator:type": "public", "operator:wikidata": "Q668687", "ref": "2345400055"}, "type": "Feature"}
{"geometry": {"coordinates": [-76.047370317, 36.841891775], "type": "Point"}, "id": "qtIbixzGwdTOsKySKBYWhQyPRjA=", "properties": {"@source_uri": "https://tools.usps.com/UspsToolsRestServices/rest/POLocator/findLocations", "@spider": "usps_collection_boxes", "addr:city": "VIRGINIA BEACH", "addr:country": "US", "addr:postcode": "23454", "addr:state": "VA", "addr:street_address": "2248 VIRGINIA BEACH BLVD", "amenity": "post_box", "collection_times": "Mo-Sa 10:00", "nsi_id": "unitedstatespostalservice-a77078", "operator": "United States Postal Service", "operator:short": "USPS", "operator:type": "public", "operator:wikidata": "Q668687", "ref": "2345400056"}, "type": "Feature"}
{"geometry": {"coordinates": [-76.021090365, 36.84718567], "type": "Point"}, "id": "y1OchWJauQLtAkeu4MH0FdW6Vfk=", "properties": {"@source_uri": "https://tools.usps.com/UspsToolsRestServices/rest/POLocator/findLocations", "@spider": "usps_collection_boxes", "addr:city": "VIRGINIA BEACH", "addr:country": "US", "addr:postcode": "23454", "addr:state": "VA", "addr:street_address": "550 FIRST COLONIAL RD", "amenity": "post_box", "collection_times": "Mo-Fr 17:00; Sa 14:00", "name": "USPS COLLECTION BOX - APC", "note": "ON 12/24 AND 12/31, THIS BOX MAY BE COLLECTED AS EARLY AS 12 NOON.", "nsi_id": "unitedstatespostalservice-a77078", "operator": "United States Postal Service", "operator:short": "USPS", "operator:type": "public", "operator:wikidata": "Q668687", "ref": "2345400057"}, "type": "Feature"}
{"geometry": {"coordinates": [-76.021090365, 36.84718567], "type": "Point"}, "id": "lEveCeuXGnswu1nLQx3HHzo7gjk=", "properties": {"@source_uri": "https://tools.usps.com/UspsToolsRestServices/rest/POLocator/findLocations", "@spider": "usps_collection_boxes", "addr:city": "VIRGINIA BEACH", "addr:country": "US", "addr:postcode": "23454", "addr:state": "VA", "addr:street_address": "550 FIRST COLONIAL RD", "amenity": "post_box", "collection_times": "Mo-Fr 17:00; Sa 14:00", "indoor": "yes", "note": "ON 12/24 AND 12/31, THIS BOX MAY BE COLLECTED AS EARLY AS 12 NOON.", "nsi_id": "unitedstatespostalservice-a77078", "operator": "United States Postal Service", "operator:short": "USPS", "operator:type": "public", "operator:wikidata": "Q668687", "ref": "2345400058"}, "type": "Feature"}
{"geometry": {"coordinates": [-76.021090365, 36.84718567], "type": "Point"}, "id": "Z7YuupMsRhY90awO3nHglCNjvbQ=", "properties": {"@source_uri": "https://tools.usps.com/UspsToolsRestServices/rest/POLocator/findLocations", "@spider": "usps_collection_boxes", "addr:city": "VIRGINIA BEACH", "addr:country": "US", "addr:postcode": "23454", "addr:state": "VA", "addr:street_address": "550 FIRST COLONIAL RD", "amenity": "post_box", "collection_times": "Mo-Fr 17:00; Sa 14:00", "indoor": "yes", "note": "ON 12/24 AND 12/31, THIS BOX MAY BE COLLECTED AS EARLY AS 12 NOON.", "nsi_id": "unitedstatespostalservice-a77078", "operator": "United States Postal Service", "operator:short": "USPS", "operator:type": "public", "operator:wikidata": "Q668687", "ref": "2345400059"}, "type": "Feature"}
{"geometry": {"coordinates": [-76.183374291, 36.884537927], "type": "Point"}, "id": "tdEhSTJuyTY-rG93q76G2kPf1Bk=", "properties": {"@source_uri": "https://tools.usps.com/UspsToolsRestServices/rest/POLocator/findLocations", "@spider": "usps_collection_boxes", "addr:city": "VIRGINIA BEACH", "addr:country": "US", "addr:postcode": "23455", "addr:state": "VA", "addr:street_address": "1209 BAKER RD", "amenity": "post_box", "collection_times": "Mo-Fr 16:15", "note": "ON 12/24 AND 12/31, THIS BOX MAY BE COLLECTED AS EARLY AS 12 NOON.", "nsi_id": "unitedstatespostalservice-a77078", "operator": "United States Postal Service", "operator:short": "USPS", "operator:type": "public", "operator:wikidata": "Q668687", "ref": "2345500001"}, "type": "Feature"}
{"geometry": {"coordinates": [-76.1795056, 36.887411588], "type": "Point"}, "id": "5VlVuWqjrvR_4HKNQEm7UoNA1ic=", "properties": {"@source_uri": "https://tools.usps.com/UspsToolsRestServices/rest/POLocator/findLocations", "@spider": "usps_collection_boxes", "addr:city": "VIRGINIA BEACH", "addr:country": "US", "addr:postcode": "23455", "addr:state": "VA", "addr:street_address": "1300 DIAMOND SPRINGS RD", "amenity": "post_box", "collection_times": "Mo-Fr 16:00", "note": "ON 12/24 AND 12/31, THIS BOX MAY BE COLLECTED AS EARLY AS 12 NOON.", "nsi_id": "unitedstatespostalservice-a77078", "operator": "United States Postal Service", "operator:short": "USPS", "operator:type": "public", "operator:wikidata": "Q668687", "ref": "2345500004"}, "type": "Feature"}
{"geometry": {"coordinates": [-76.134218894, 36.873153627], "type": "Point"}, "id": "wr3ceUOnCGTW_X7QLGUSh_-EbzE=", "properties": {"@source_uri": "https://tools.usps.com/UspsToolsRestServices/rest/POLocator/findLocations", "@spider": "usps_collection_boxes", "addr:city": "VIRGINIA BEACH", "addr:country": "US", "addr:postcode": "23455", "addr:state": "VA", "addr:street_address": "1020 INDEPENDENCE BLVD", "amenity": "post_box", "collection_times": "Mo-Fr 16:00; Sa 11:15", "note": "ON 12/24 AND 12/31, THIS BOX MAY BE COLLECTED AS EARLY AS 12 NOON.", "nsi_id": "unitedstatespostalservice-a77078", "operator": "United States Postal Service", "operator:short": "USPS", "operator:type": "public", "operator:wikidata": "Q668687", "ref": "2345500009"}, "type": "Feature"}
{"geometry": {"coordinates": [-76.135845755, 36.90385503], "type": "Point"}, "id": "_hVkMsa-mZ8b1cvzqY4tNLqIwuA=", "properties": {"@source_uri": "https://tools.usps.com/UspsToolsRestServices/rest/POLocator/findLocations", "@spider": "usps_collection_boxes", "addr:city": "VIRGINIA BEACH", "addr:country": "US", "addr:postcode": "23455", "addr:state": "VA", "addr:street_address": "2105 PLEASURE HOUSE RD", "amenity": "post_box", "collection_times": "Mo-Fr 16:30; Sa 11:30", "note": "ON 12/24 AND 12/31, THIS BOX MAY BE COLLECTED AS EARLY AS 12 NOON.", "nsi_id": "unitedstatespostalservice-a77078", "operator": "United States Postal Service", "operator:short": "USPS", "operator:type": "public", "operator:wikidata": "Q668687", "ref": "2345500012"}, "type": "Feature"}
{"geometry": {"coordinates": [-76.131371327, 36.861878118], "type": "Point"}, "id": "It3OPy4GnHxhe_ol6LJxwVwzY2c=", "properties": {"@source_uri": "https://tools.usps.com/UspsToolsRestServices/rest/POLocator/findLocations", "@spider": "usps_collection_boxes", "addr:city": "VIRGINIA BEACH", "addr:country": "US", "addr:postcode": "23455", "addr:state": "VA", "addr:street_address": "4521 PROFESSIONAL CIR", "amenity": "post_box", "collection_times": "Mo-Fr 15:45; Sa 11:00", "note": "ON 12/24 AND 12/31, THIS BOX MAY BE COLLECTED AS EARLY AS 12 NOON.", "nsi_id": "unitedstatespostalservice-a77078", "operator": "United States Postal Service", "operator:short": "USPS", "operator:type": "public", "operator:wikidata": "Q668687", "ref": "2345500017"}, "type": "Feature"}
{"geometry": {"coordinates": [-76.132358648, 36.86660825], "type": "Point"}, "id": "2kgVjR-qFGI96fK2Rot-XzUEkW8=", "properties": {"@source_uri": "https://tools.usps.com/UspsToolsRestServices/rest/POLocator/findLocations", "@spider": "usps_collection_boxes", "addr:city": "VIRGINIA BEACH", "addr:country": "US", "addr:postcode": "23455", "addr:state": "VA", "addr:street_address": "816 INDEPENDENCE BLVD", "amenity": "post_box", "collection_times": "Mo-Fr 15:45; Sa 11:00", "note": "ON 12/24 AND 12/31, THIS BOX MAY BE COLLECTED AS EARLY AS 12 NOON.", "nsi_id": "unitedstatespostalservice-a77078", "operator": "United States Postal Service", "operator:short": "USPS", "operator:type": "public", "operator:wikidata": "Q668687", "ref": "2345500019"}, "type": "Feature"}
{"geometry": {"coordinates": [-76.136136894, 36.861730268], "type": "Point"}, "id": "1wrB4hZ07Q26fkq13Aw9KARE7oM=", "properties": {"@source_uri": "https://tools.usps.com/UspsToolsRestServices/rest/POLocator/findLocations", "@spider": "usps_collection_boxes", "addr:city": "VIRGINIA BEACH", "addr:country": "US", "addr:postcode": "23455", "addr:state": "VA", "addr:street_address": "4668 PEMBROKE BLVD STE 117", "amenity": "post_box", "collection_times": "Mo-Fr 15:30; Sa 11:00", "note": "ON 12/24 AND 12/31, THIS BOX MAY BE COLLECTED AS EARLY AS 12 NOON.", "nsi_id": "unitedstatespostalservice-a77078", "operator": "United States Postal Service", "operator:short": "USPS", "operator:type": "public", "operator:wikidata": "Q668687", "ref": "2345500031"}, "type": "Feature"}
{"geometry": {"coordinates": [-76.13813938, 36.896321317], "type": "Point"}, "id": "DV7o5AvTsD-IuHyC1-1uNun7O80=", "properties": {"@source_uri": "https://tools.usps.com/UspsToolsRestServices/rest/POLocator/findLocations", "@spider": "usps_collection_boxes", "addr:city": "VIRGINIA BEACH", "addr:country": "US", "addr:postcode": "23455", "addr:state": "VA", "addr:street_address": "4700 THOROUGHGOOD SQ", "amenity": "post_box", "collection_times": "Mo-Sa 15:00", "note": "ON 12/24 AND 12/31, THIS BOX MAY BE COLLECTED AS EARLY AS 12 NOON.", "nsi_id": "unitedstatespostalservice-a77078", "operator": "United States Postal Service", "operator:short": "USPS", "operator:type": "public", "operator:wikidata": "Q668687", "ref": "2345500039"}, "type": "Feature"}
{"geometry": {"coordinates": [-76.13611649, 36.874768314], "type": "Point"}, "id": "cmll7sOeP_HxsJ3wABdOVUxRCDo=", "properties": {"@source_uri": "https://tools.usps.com/UspsToolsRestServices/rest/POLocator/findLocations", "@spider": "usps_collection_boxes", "addr:city": "VIRGINIA BEACH", "addr:country": "US", "addr:postcode": "23455", "addr:state": "VA", "addr:street_address": "4601 HAYGOOD RD", "amenity": "post_box", "collection_times": "Mo-Fr 15:30; Sa 10:30", "note": "ON 12/24 AND 12/31, THIS BOX MAY BE COLLECTED AS EARLY AS 12 NOON.", "nsi_id": "unitedstatespostalservice-a77078", "operator": "United States Postal Service", "operator:short": "USPS", "operator:type": "public", "operator:wikidata": "Q668687", "ref": "2345500048"}, "type": "Feature"}
{"geometry": {"coordinates": [-76.1426639632, 36.8956369985], "type": "Point"}, "id": "O47bafyeCCcLWhX8um2XjQAMUwY=", "properties": {"@source_uri": "https://tools.usps.com/UspsToolsRestServices/rest/POLocator/findLocations", "@spider": "usps_collection_boxes", "addr:city": "VIRGINIA BEACH", "addr:country": "US", "addr:postcode": "23455", "addr:state": "VA", "addr:street_address": "2109 THOROUGHGOOD RD", "amenity": "post_box", "collection_times": "Mo-Sa 17:00", "note": "ON 12/24 AND 12/31, THIS BOX MAY BE COLLECTED AS EARLY AS 12 NOON.", "nsi_id": "unitedstatespostalservice-a77078", "operator": "United States Postal Service", "operator:short": "USPS", "operator:type": "public", "operator:wikidata": "Q668687", "ref": "2345500055"}, "type": "Feature"}
{"geometry": {"coordinates": [-76.142325319, 36.896099357], "type": "Point"}, "id": "B6AKtNDxSjIMq8XNsNHgQ8jEQsU=", "properties": {"@source_uri": "https://tools.usps.com/UspsToolsRestServices/rest/POLocator/findLocations", "@spider": "usps_collection_boxes", "addr:city": "VIRGINIA BEACH", "addr:country": "US", "addr:postcode": "23455", "addr:state": "VA", "addr:street_address": "2109 THOROUGHGOOD RD", "amenity": "post_box", "collection_times": "Mo-Fr 17:00; Sa 15:45", "indoor": "yes", "note": "ON 12/24 AND 12/31, THIS BOX MAY BE COLLECTED AS EARLY AS 12 NOON.", "nsi_id": "unitedstatespostalservice-a77078", "operator": "United States Postal Service", "operator:short": "USPS", "operator:type": "public", "operator:wikidata": "Q668687", "ref": "2345500063"}, "type": "Feature"}
{"geometry": {"coordinates": [-76.142325319, 36.896099357], "type": "Point"}, "id": "syNhWk-Rv4BPiykdCBE-Enp1jMY=", "properties": {"@source_uri": "https://tools.usps.com/UspsToolsRestServices/rest/POLocator/findLocations", "@spider": "usps_collection_boxes", "addr:city": "VIRGINIA BEACH", "addr:country": "US", "addr:postcode": "23455", "addr:state": "VA", "addr:street_address": "2109 THOROUGHGOOD RD", "amenity": "post_box", "collection_times": "Mo-Fr 17:00; Sa 15:45", "indoor": "yes", "note": "ON 12/24 AND 12/31, THIS BOX MAY BE COLLECTED AS EARLY AS 12 NOON.", "nsi_id": "unitedstatespostalservice-a77078", "operator": "United States Postal Service", "operator:short": "USPS", "operator:type": "public", "operator:wikidata": "Q668687", "ref": "2345500064"}, "type": "Feature"}
{"geometry": {"coordinates": [-76.142325319, 36.896099357], "type": "Point"}, "id": "0R8i7tKMuyZr1SPbtO68oBQWjP8=", "properties": {"@source_uri": "https://tools.usps.com/UspsToolsRestServices/rest/POLocator/findLocations", "@spider": "usps_collection_boxes", "addr:city": "VIRGINIA BEACH", "addr:country": "US", "addr:postcode": "23455", "addr:state": "VA", "addr:street_address": "2109 THOROUGHGOOD RD", "amenity": "post_box", "collection_times": "Mo-Fr 17:00; Sa 15:45", "name": "USPS COLLECTION BOX - APC", "note": "ON 12/24 AND 12/31, THIS BOX MAY BE COLLECTED AS EARLY AS 12 NOON.", "nsi_id": "unitedstatespostalservice-a77078", "operator": "United States Postal Service", "operator:short": "USPS", "operator:type": "public", "operator:wikidata": "Q668687", "ref": "2345500071"}, "type": "Feature"}
{"geometry": {"coordinates": [-76.18435087, 36.871837408], "type": "Point"}, "id": "XCJs2vF27gZhtGfdNmiSJ1zcTKE=", "properties": {"@source_uri": "https://tools.usps.com/UspsToolsRestServices/rest/POLocator/findLocations", "@spider": "usps_collection_boxes", "addr:city": "VIRGINIA BEACH", "addr:country": "US", "addr:postcode": "23455", "addr:state": "VA", "addr:street_address": "5817 WESLEYAN DR", "amenity": "post_box", "collection_times": "Mo-Sa 09:00", "nsi_id": "unitedstatespostalservice-a77078", "operator": "United States Postal Service", "operator:short": "USPS", "operator:type": "public", "operator:wikidata": "Q668687", "ref": "2345500074"}, "type": "Feature"}
{"geometry": {"coordinates": [-76.142325319, 36.896099357], "type": "Point"}, "id": "oj3rWYitxAwoYqcMKMjdlS2qxgo=", "properties": {"@source_uri": "https://tools.usps.com/UspsToolsRestServices/rest/POLocator/findLocations", "@spider": "usps_collection_boxes", "addr:city": "VIRGINIA BEACH", "addr:country": "US", "addr:postcode": "23455", "addr:state": "VA", "addr:street_address": "2109 THOROUGHGOOD RD", "amenity": "post_box", "collection_times": "Mo-Fr 17:00; Sa 14:00", "indoor": "yes", "note": "ON 12/24 AND 12/31, THIS BOX MAY BE COLLECTED AS EARLY AS 12 NOON.", "nsi_id": "unitedstatespostalservice-a77078", "operator": "United States Postal Service", "operator:short": "USPS", "operator:type": "public", "operator:wikidata": "Q668687", "ref": "2345500076"}, "type": "Feature"}
{"geometry": {"coordinates": [-76.1336810864, 36.8712540308], "type": "Point"}, "id": "FAQxGEVvQcfk5_aLqIFBwgU3fY0=", "properties": {"@source_uri": "https://tools.usps.com/UspsToolsRestServices/rest/POLocator/findLocations", "@spider": "usps_collection_boxes", "addr:city": "VIRGINIA BEACH", "addr:country": "US", "addr:postcode": "23455", "addr:state": "VA", "addr:street_address": "998 INDEPENDENCE BLVD", "amenity": "post_box", "collection_times": "Mo-Fr 17:00; Sa 14:00", "indoor": "yes", "note": "ON 12/24 AND 12/31, THIS BOX MAY BE COLLECTED AS EARLY AS 12 NOON.", "nsi_id": "unitedstatespostalservice-a77078", "operator": "United States Postal Service", "operator:short": "USPS", "operator:type": "public", "operator:wikidata": "Q668687", "ref": "2345500080"}, "type": "Feature"}
{"geometry": {"coordinates": [-76.1336810864, 36.8712540308], "type": "Point"}, "id": "0k1IFN9xcfVv1MfFi8fglgFpztE=", "properties": {"@source_uri": "https://tools.usps.com/UspsToolsRestServices/rest/POLocator/findLocations", "@spider": "usps_collection_boxes", "addr:city": "VIRGINIA BEACH", "addr:country": "US", "addr:postcode": "23455", "addr:state": "VA", "addr:street_address": "998 INDEPENDENCE BLVD", "amenity": "post_box", "collection_times": "Mo-Fr 17:00; Sa 12:00", "indoor": "yes", "note": "ON 12/24 AND 12/31, THIS BOX MAY BE COLLECTED AS EARLY AS 12 NOON.", "nsi_id": "unitedstatespostalservice-a77078", "operator": "United States Postal Service", "operator:short": "USPS", "operator:type": "public", "operator:wikidata": "Q668687", "ref": "2345500082"}, "type": "Feature"}
{"geometry": {"coordinates": [-76.060665274, 36.750891514], "type": "Point"}, "id": "47L5nXRFxFkOlMZCJSN8zoQwwfc=", "properties": {"@source_uri": "https://tools.usps.com/UspsToolsRestServices/rest/POLocator/findLocations", "@spider": "usps_collection_boxes", "addr:city": "VIRGINIA BEACH", "addr:country": "US", "addr:postcode": "23456", "addr:state": "VA", "addr:street_address": "2509 GEORGE MASON DR", "amenity": "post_box", "collection_times": "Mo-Sa 17:00", "note": "ON 12/24 AND 12/31, THIS BOX MAY BE COLLECTED AS EARLY AS 12 NOON.", "nsi_id": "unitedstatespostalservice-a77078", "operator": "United States Postal Service", "operator:short": "USPS", "operator:type": "public", "operator:wikidata": "Q668687", "ref": "2345600002"}, "type": "Feature"}
{"geometry": {"coordinates": [-76.108336696, 36.786299118], "type": "Point"}, "id": "VXC9lF_VddQkNEOglA8hp7CtuFs=", "properties": {"@source_uri": "https://tools.usps.com/UspsToolsRestServices/rest/POLocator/findLocations", "@spider": "usps_collection_boxes", "addr:city": "VIRGINIA BEACH", "addr:country": "US", "addr:postcode": "23456", "addr:state": "VA", "addr:street_address": "3809 PRINCESS ANNE RD", "amenity": "post_box", "collection_times": "Mo-Fr 16:00; Sa 10:00", "note": "ON 12/24 AND 12/31, THIS BOX MAY BE COLLECTED AS EARLY AS 12 NOON.", "nsi_id": "unitedstatespostalservice-a77078", "operator": "United States Postal Service", "operator:short": "USPS", "operator:type": "public", "operator:wikidata": "Q668687", "ref": "2345600009"}, "type": "Feature"}
{"geometry": {"coordinates": [-76.060665274, 36.750891514], "type": "Point"}, "id": "vl_7EF5KO7dcNNNtO3HneOHRMOw=", "properties": {"@source_uri": "https://tools.usps.com/UspsToolsRestServices/rest/POLocator/findLocations", "@spider": "usps_collection_boxes", "addr:city": "VIRGINIA BEACH", "addr:country": "US", "addr:postcode": "23456", "addr:state": "VA", "addr:street_address": "2509 GEORGE MASON DR", "amenity": "post_box", "collection_times": "Mo-Fr 17:00; Sa 16:00", "indoor": "yes", "note": "ON 12/24 AND 12/31, THIS BOX MAY BE COLLECTED AS EARLY AS 12 NOON.", "nsi_id": "unitedstatespostalservice-a77078", "operator": "United States Postal Service", "operator:short": "USPS", "operator:type": "public", "operator:wikidata": "Q668687", "ref": "2345600018"}, "type": "Feature"}
{"geometry": {"coordinates": [-76.0188701386, 36.7204892484], "type": "Point"}, "id": "0LPp9sPUG_LN9INymNIpVtsnjnI=", "properties": {"@source_uri": "https://tools.usps.com/UspsToolsRestServices/rest/POLocator/findLocations", "@spider": "usps_collection_boxes", "addr:city": "VIRGINIA BEACH", "addr:country": "US", "addr:postcode": "23456", "addr:state": "VA", "addr:street_address": "1776 PRINCESS ANNE RD", "amenity": "post_box", "collection_times": "Mo-Sa 10:00", "nsi_id": "unitedstatespostalservice-a77078", "operator": "United States Postal Service", "operator:short": "USPS", "operator:type": "public", "operator:wikidata": "Q668687", "ref": "2345600020"}, "type": "Feature"}
{"geometry": {"coordinates": [-76.008550736, 36.750849175], "type": "Point"}, "id": "RKNCSGSZZ8wovErhOyOSyVF5x2k=", "properties": {"@source_uri": "https://tools.usps.com/UspsToolsRestServices/rest/POLocator/findLocations", "@spider": "usps_collection_boxes", "addr:city": "VIRGINIA BEACH", "addr:country": "US", "addr:postcode": "23456", "addr:state": "VA", "addr:street_address": "2005 SANDBRIDGE RD", "amenity": "post_box", "collection_times": "Mo-Fr 15:00; Sa 10:00", "note": "ON 12/24 AND 12/31, THIS BOX MAY BE COLLECTED AS EARLY AS 12 NOON.", "nsi_id": "unitedstatespostalservice-a77078", "operator": "United States Postal Service", "operator:short": "USPS", "operator:type": "public", "operator:wikidata": "Q668687", "ref": "2345600022"}, "type": "Feature"}
{"geometry": {"coordinates": [-76.060665274, 36.750891514], "type": "Point"}, "id": "EtJ_irRIlKnSxp1HInirltvwdl0=", "properties": {"@source_uri": "https://tools.usps.com/UspsToolsRestServices/rest/POLocator/findLocations", "@spider": "usps_collection_boxes", "addr:city": "VIRGINIA BEACH", "addr:country": "US", "addr:postcode": "23456", "addr:state": "VA", "addr:street_address": "2509 GEORGE MASON DR", "amenity": "post_box", "collection_times": "Mo-Fr 17:00; Sa 16:00", "indoor": "yes", "note": "ON 12/24 AND 12/31, THIS BOX MAY BE COLLECTED AS EARLY AS 12 NOON.", "nsi_id": "unitedstatespostalservice-a77078", "operator": "United States Postal Service", "operator:short": "USPS", "operator:type": "public", "operator:wikidata": "Q668687", "ref": "2345600027"}, "type": "Feature"}
{"geometry": {"coordinates": [-76.008422547, 36.762050927], "type": "Point"}, "id": "ymGQMtW6TR5-irg17TXc658IYyU=", "properties": {"@source_uri": "https://tools.usps.com/UspsToolsRestServices/rest/POLocator/findLocations", "@spider": "usps_collection_boxes", "addr:city": "VIRGINIA BEACH", "addr:country": "US", "addr:postcode": "23456", "addr:state": "VA", "addr:street_address": "1169 NIMMO PKWY", "amenity": "post_box", "collection_times": "Mo-Fr 15:00; Sa 10:30", "note": "ON 12/24 AND 12/31, THIS BOX MAY BE COLLECTED AS EARLY AS 12 NOON.", "nsi_id": "unitedstatespostalservice-a77078", "operator": "United States Postal Service", "operator:short": "USPS", "operator:type": "public", "operator:wikidata": "Q668687", "ref": "2345600028"}, "type": "Feature"}
{"geometry": {"coordinates": [-76.060665274, 36.750891514], "type": "Point"}, "id": "4ToAzistLf19RdIk1TWxjQoiPqw=", "properties": {"@source_uri": "https://tools.usps.com/UspsToolsRestServices/rest/POLocator/findLocations", "@spider": "usps_collection_boxes", "addr:city": "VIRGINIA BEACH", "addr:country": "US", "addr:postcode": "23456", "addr:state": "VA", "addr:street_address": "2509 GEORGE MASON DR", "amenity": "post_box", "collection_times": "Mo-Fr 17:00; Sa 16:00", "name": "USPS COLLECTION BOX - APC", "note": "ON 12/24 AND 12/31, THIS BOX MAY BE COLLECTED AS EARLY AS 12 NOON.", "nsi_id": "unitedstatespostalservice-a77078", "operator": "United States Postal Service", "operator:short": "USPS", "operator:type": "public", "operator:wikidata": "Q668687", "ref": "2345600030"}, "type": "Feature"}
{"geometry": {"coordinates": [-76.060665274, 36.750891514], "type": "Point"}, "id": "JjH3JuQXkoEpYFd5VORlgGj_eUY=", "properties": {"@source_uri": "https://tools.usps.com/UspsToolsRestServices/rest/POLocator/findLocations", "@spider": "usps_collection_boxes", "addr:city": "VIRGINIA BEACH", "addr:country": "US", "addr:postcode": "23456", "addr:state": "VA", "addr:street_address": "2509 GEORGE MASON DR", "amenity": "post_box", "collection_times": "Mo-Fr 17:00; Sa 15:00", "indoor": "yes", "note": "ON 12/24 AND 12/31, THIS BOX MAY BE COLLECTED AS EARLY AS 12 NOON.", "nsi_id": "unitedstatespostalservice-a77078", "operator": "United States Postal Service", "operator:short": "USPS", "operator:type": "public", "operator:wikidata": "Q668687", "ref": "2345600036"}, "type": "Feature"}
{"geometry": {"coordinates": [-76.032705773, 36.655046361], "type": "Point"}, "id": "iPsJ008WTFaWHihzBOfC6Cwk6jE=", "properties": {"@source_uri": "https://tools.usps.com/UspsToolsRestServices/rest/POLocator/findLocations", "@spider": "usps_collection_boxes", "addr:city": "VIRGINIA BEACH", "addr:country": "US", "addr:postcode": "23457", "addr:state": "VA", "addr:street_address": "1107 PRINCESS ANNE RD", "amenity": "post_box", "collection_times": "Mo-Fr 16:00", "indoor": "yes", "note": "ON 12/24 AND 12/31, THIS BOX MAY BE COLLECTED AS EARLY AS 12 NOON.", "nsi_id": "unitedstatespostalservice-a77078", "operator": "United States Postal Service", "operator:short": "USPS", "operator:type": "public", "operator:wikidata": "Q668687", "ref": "2345700000"}, "type": "Feature"}
{"geometry": {"coordinates": [-76.032705773, 36.655046361], "type": "Point"}, "id": "0ebGeXDOzi4505qkWYa5Gx1Yu8s=", "properties": {"@source_uri": "https://tools.usps.com/UspsToolsRestServices/rest/POLocator/findLocations", "@spider": "usps_collection_boxes", "addr:city": "VIRGINIA BEACH", "addr:country": "US", "addr:postcode": "23457", "addr:state": "VA", "addr:street_address": "1107 PRINCESS ANNE RD", "amenity": "post_box", "collection_times": "Mo-Fr 16:00", "indoor": "yes", "note": "ON 12/24 AND 12/31, THIS BOX MAY BE COLLECTED AS EARLY AS 12 NOON.", "nsi_id": "unitedstatespostalservice-a77078", "operator": "United States Postal Service", "operator:short": "USPS", "operator:type": "public", "operator:wikidata": "Q668687", "ref": "2345700002"}, "type": "Feature"}
{"geometry": {"coordinates": [-76.146988733, 36.913163786], "type": "Point"}, "id": "jJssNQhqjFrQ4O064VpZ32nUIAM=", "properties": {"@source_uri": "https://tools.usps.com/UspsToolsRestServices/rest/POLocator/findLocations", "@spider": "usps_collection_boxes", "addr:city": "VIRGINIA BEACH", "addr:country": "US", "addr:postcode": "23459", "addr:state": "VA", "addr:street_address": "1240 GATOR BLVD", "amenity": "post_box", "collection_times": "Mo-Sa 10:00", "nsi_id": "unitedstatespostalservice-a77078", "operator": "United States Postal Service", "operator:short": "USPS", "operator:type": "public", "operator:wikidata": "Q668687", "ref": "2345900002"}, "type": "Feature"}
{"geometry": {"coordinates": [-76.147523666, 36.912508296], "type": "Point"}, "id": "_nBgsW2S-kGzllSFxgSglrjnM38=", "properties": {"@source_uri": "https://tools.usps.com/UspsToolsRestServices/rest/POLocator/findLocations", "@spider": "usps_collection_boxes", "addr:city": "VIRGINIA BEACH", "addr:country": "US", "addr:postcode": "23459", "addr:state": "VA", "addr:street_address": "1224 D ST", "amenity": "post_box", "collection_times": "Mo-Sa 10:30", "nsi_id": "unitedstatespostalservice-a77078", "operator": "United States Postal Service", "operator:short": "USPS", "operator:type": "public", "operator:wikidata": "Q668687", "ref": "2345900003"}, "type": "Feature"}
{"geometry": {"coordinates": [-76.1504412912, 36.9094890053], "type": "Point"}, "id": "AHxbYg0szdqalUcAMpwzVYgm3fg=", "properties": {"@source_uri": "https://tools.usps.com/UspsToolsRestServices/rest/POLocator/findLocations", "@spider": "usps_collection_boxes", "addr:city": "VIRGINIA BEACH", "addr:country": "US", "addr:postcode": "23459", "addr:state": "VA", "addr:street_address": "1170 AMPHIBIOUS DR", "amenity": "post_box", "collection_times": "Mo-Sa 10:00", "nsi_id": "unitedstatespostalservice-a77078", "operator": "United States Postal Service", "operator:short": "USPS", "operator:type": "public", "operator:wikidata": "Q668687", "ref": "2345900004"}, "type": "Feature"}
{"geometry": {"coordinates": [-76.147523666, 36.912508296], "type": "Point"}, "id": "SLeMsOGMm4Jc4tBOjnuq9ktIQMQ=", "properties": {"@source_uri": "https://tools.usps.com/UspsToolsRestServices/rest/POLocator/findLocations", "@spider": "usps_collection_boxes", "addr:city": "VIRGINIA BEACH", "addr:country": "US", "addr:postcode": "23459", "addr:state": "VA", "addr:street_address": "1224 D ST", "amenity": "post_box", "collection_times": "Mo-Fr 15:00", "indoor": "yes", "note": "ON 12/24 AND 12/31, THIS BOX MAY BE COLLECTED AS EARLY AS 12 NOON.", "nsi_id": "unitedstatespostalservice-a77078", "operator": "United States Postal Service", "operator:short": "USPS", "operator:type": "public", "operator:wikidata": "Q668687", "ref": "2345900005"}, "type": "Feature"}
{"geometry": {"coordinates": [-76.0114050359, 36.8012040047], "type": "Point"}, "id": "aYSy2twqXmmaBMZOvUohdlkQmTg=", "properties": {"@source_uri": "https://tools.usps.com/UspsToolsRestServices/rest/POLocator/findLocations", "@spider": "usps_collection_boxes", "addr:city": "VA BEACH", "addr:country": "US", "addr:postcode": "23460", "addr:state": "VA", "addr:street_address": "1449 TOMCAT BLVD", "amenity": "post_box", "collection_times": "Mo-Fr 15:00; Sa 12:15", "note": "ON 12/24 AND 12/31, THIS BOX MAY BE COLLECTED AS EARLY AS 12 NOON.", "nsi_id": "unitedstatespostalservice-a77078", "operator": "United States Postal Service", "operator:short": "USPS", "operator:type": "public", "operator:wikidata": "Q668687", "ref": "2346000001"}, "type": "Feature"}
{"geometry": {"coordinates": [-76.0300150928, 36.8065918669], "type": "Point"}, "id": "v-Yut-LOko4k1D4TuevwsXgHv5w=", "properties": {"@source_uri": "https://tools.usps.com/UspsToolsRestServices/rest/POLocator/findLocations", "@spider": "usps_collection_boxes", "addr:city": "VA BEACH", "addr:country": "US", "addr:postcode": "23460", "addr:state": "VA", "addr:street_address": "1896 LASER RD", "amenity": "post_box", "collection_times": "Mo-Fr 15:00", "indoor": "yes", "note": "ON 12/24 AND 12/31, THIS BOX MAY BE COLLECTED AS EARLY AS 12 NOON.", "nsi_id": "unitedstatespostalservice-a77078", "operator": "United States Postal Service", "operator:short": "USPS", "operator:type": "public", "operator:wikidata": "Q668687", "ref": "2346000003"}, "type": "Feature"}
{"geometry": {"coordinates": [-75.9613533711, 36.7747398554], "type": "Point"}, "id": "qUYlPXWE2QE-qmQfxztFt4KQ_30=", "properties": {"@source_uri": "https://tools.usps.com/UspsToolsRestServices/rest/POLocator/findLocations", "@spider": "usps_collection_boxes", "addr:city": "VIRGINIA BEACH", "addr:country": "US", "addr:postcode": "23461", "addr:state": "VA", "addr:street_address": "1977 TERRIER AVE", "amenity": "post_box", "collection_times": "Mo-Fr 15:15", "indoor": "yes", "note": "ON 12/24 AND 12/31, THIS BOX MAY BE COLLECTED AS EARLY AS 12 NOON.", "nsi_id": "unitedstatespostalservice-a77078", "operator": "United States Postal Service", "operator:short": "USPS", "operator:type": "public", "operator:wikidata": "Q668687", "ref": "2346100002"}, "type": "Feature"}
{"geometry": {"coordinates": [-75.9613533711, 36.7747398554], "type": "Point"}, "id": "QKbWwONaQOSp2-dtxFsvheI_UHY=", "properties": {"@source_uri": "https://tools.usps.com/UspsToolsRestServices/rest/POLocator/findLocations", "@spider": "usps_collection_boxes", "addr:city": "VIRGINIA BEACH", "addr:country": "US", "addr:postcode": "23461", "addr:state": "VA", "addr:street_address": "1977 TERRIER AVE STE 100", "amenity": "post_box", "collection_times": "Mo-Fr 15:15", "indoor": "yes", "note": "ON 12/24 AND 12/31, THIS BOX MAY BE COLLECTED AS EARLY AS 12 NOON.", "nsi_id": "unitedstatespostalservice-a77078", "operator": "United States Postal Service", "operator:short": "USPS", "operator:type": "public", "operator:wikidata": "Q668687", "ref": "2346100004"}, "type": "Feature"}
{"geometry": {"coordinates": [-76.139610312, 36.845936987], "type": "Point"}, "id": "0qyUfDO-WwHePSrcyimMDnJKmxY=", "properties": {"@source_uri": "https://tools.usps.com/UspsToolsRestServices/rest/POLocator/findLocations", "@spider": "usps_collection_boxes", "addr:city": "VIRGINIA BEACH", "addr:country": "US", "addr:postcode": "23462", "addr:state": "VA", "addr:street_address": "4700 BROAD ST", "amenity": "post_box", "collection_times": "Mo-Fr 15:00; Sa 10:00", "note": "ON 12/24 AND 12/31, THIS BOX MAY BE COLLECTED AS EARLY AS 12 NOON.", "nsi_id": "unitedstatespostalservice-a77078", "operator": "United States Postal Service", "operator:short": "USPS", "operator:type": "public", "operator:wikidata": "Q668687", "ref": "2346200004"}, "type": "Feature"}
{"geometry": {"coordinates": [-76.127066232, 36.847341786], "type": "Point"}, "id": "jysOTKN737Q7TKssX4ENrVRMTmg=", "properties": {"@source_uri": "https://tools.usps.com/UspsToolsRestServices/rest/POLocator/findLocations", "@spider": "usps_collection_boxes", "addr:city": "VIRGINIA BEACH", "addr:country": "US", "addr:postcode": "23462", "addr:state": "VA", "addr:street_address": "4452 CORPORATION LN", "amenity": "post_box", "collection_times": "Mo-Sa 13:30", "note": "ON 12/24 AND 12/31, THIS BOX MAY BE COLLECTED AS EARLY AS 12 NOON.", "nsi_id": "unitedstatespostalservice-a77078", "operator": "United States Postal Service", "operator:short": "USPS", "operator:type": "public", "operator:wikidata": "Q668687", "ref": "2346200017"}, "type": "Feature"}
{"geometry": {"coordinates": [-76.130335224, 36.846849748], "type": "Point"}, "id": "kE3FYfoyh4CTtRyutNnFibvfp7k=", "properties": {"@source_uri": "https://tools.usps.com/UspsToolsRestServices/rest/POLocator/findLocations", "@spider": "usps_collection_boxes", "addr:city": "VIRGINIA BEACH", "addr:country": "US", "addr:postcode": "23462", "addr:state": "VA", "addr:street_address": "4460 CORPORATION LN", "amenity": "post_box", "collection_times": "Mo-Sa 13:30", "note": "ON 12/24 AND 12/31, THIS BOX MAY BE COLLECTED AS EARLY AS 12 NOON.", "nsi_id": "unitedstatespostalservice-a77078", "operator": "United States Postal Service", "operator:short": "USPS", "operator:type": "public", "operator:wikidata": "Q668687", "ref": "2346200020"}, "type": "Feature"}
{"geometry": {"coordinates": [-76.172725, 36.86215], "type": "Point"}, "id": "8fCOs4wviOq0qB6mQWT-uqXPbc0=", "properties": {"@source_uri": "https://tools.usps.com/UspsToolsRestServices/rest/POLocator/findLocations", "@spider": "usps_collection_boxes", "addr:city": "VIRGINIA BEACH", "addr:country": "US", "addr:postcode": "23462", "addr:state": "VA", "addr:street_address": "5199 CLEVELAND ST", "amenity": "post_box", "collection_times": "Mo-Fr 15:00; Sa 12:30", "note": "ON 12/24 AND 12/31, THIS BOX MAY BE COLLECTED AS EARLY AS 12 NOON.", "nsi_id": "unitedstatespostalservice-a77078", "operator": "United States Postal Service", "operator:short": "USPS", "operator:type": "public", "operator:wikidata": "Q668687", "ref": "2346200025"}, "type": "Feature"}
{"geometry": {"coordinates": [-76.176497662, 36.842674388], "type": "Point"}, "id": "WHqroAujbGggaYPBkVM3JxFOB-c=", "properties": {"@source_uri": "https://tools.usps.com/UspsToolsRestServices/rest/POLocator/findLocations", "@spider": "usps_collection_boxes", "addr:city": "VIRGINIA BEACH", "addr:country": "US", "addr:postcode": "23462", "addr:state": "VA", "addr:street_address": "5500 GREENWICH RD", "amenity": "post_box", "collection_times": "Mo-Fr 17:00; Sa 11:45", "note": "ON 12/24 AND 12/31, THIS BOX MAY BE COLLECTED AS EARLY AS 12 NOON.", "nsi_id": "unitedstatespostalservice-a77078", "operator": "United States Postal Service", "operator:short": "USPS", "operator:type": "public", "operator:wikidata": "Q668687", "ref": "2346200030"}, "type": "Feature"}
{"geometry": {"coordinates": [-76.166993521, 36.82804312], "type": "Point"}, "id": "Hq26jPaqHidDXNybVhA7JoPxa38=", "properties": {"@source_uri": "https://tools.usps.com/UspsToolsRestServices/rest/POLocator/findLocations", "@spider": "usps_collection_boxes", "addr:city": "VIRGINIA BEACH", "addr:country": "US", "addr:postcode": "23462", "addr:state": "VA", "addr:street_address": "5277 PRINCESS ANNE RD", "amenity": "post_box", "collection_times": "Mo-Fr 16:30; Sa 11:45", "note": "ON 12/24 AND 12/31, THIS BOX MAY BE COLLECTED AS EARLY AS 12 NOON.", "nsi_id": "unitedstatespostalservice-a77078", "operator": "United States Postal Service", "operator:short": "USPS", "operator:type": "public", "operator:wikidata": "Q668687", "ref": "2346200037"}, "type": "Feature"}
{"geometry": {"coordinates": [-76.1612929945, 36.8280289866], "type": "Point"}, "id": "hlyaFwyC7ZVvuDpnuCvEkMWrLqc=", "properties": {"@source_uri": "https://tools.usps.com/UspsToolsRestServices/rest/POLocator/findLocations", "@spider": "usps_collection_boxes", "addr:city": "VIRGINIA BEACH", "addr:country": "US", "addr:postcode": "23462", "addr:state": "VA", "addr:street_address": "5168 SINGLETON WAY", "amenity": "post_box", "collection_times": "Mo-Fr 16:15; Sa 11:30", "note": "ON 12/24 AND 12/31, THIS BOX MAY BE COLLECTED AS EARLY AS 12 NOON.", "nsi_id": "unitedstatespostalservice-a77078", "operator": "United States Postal Service", "operator:short": "USPS", "operator:type": "public", "operator:wikidata": "Q668687", "ref": "2346200039"}, "type": "Feature"}
{"geometry": {"coordinates": [-76.143294165, 36.841260712], "type": "Point"}, "id": "xNI8LOaFItLwHp8wIK6Rq7kT0c8=", "properties": {"@source_uri": "https://tools.usps.com/UspsToolsRestServices/rest/POLocator/findLocations", "@spider": "usps_collection_boxes", "addr:city": "VIRGINIA BEACH", "addr:country": "US", "addr:postcode": "23462", "addr:state": "VA", "addr:street_address": "4831 COLUMBUS ST", "amenity": "post_box", "collection_times": "Mo-Sa 17:00", "note": "ON 12/24 AND 12/31, THIS BOX MAY BE COLLECTED AS EARLY AS 12 NOON.", "nsi_id": "unitedstatespostalservice-a77078", "operator": "United States Postal Service", "operator:short": "USPS", "operator:type": "public", "operator:wikidata": "Q668687", "ref": "2346200041"}, "type": "Feature"}
{"geometry": {"coordinates": [-76.143294165, 36.841260712], "type": "Point"}, "id": "IfJ2aHIsVNbvqRrRbwkM7ICBulA=", "properties": {"@source_uri": "https://tools.usps.com/UspsToolsRestServices/rest/POLocator/findLocations", "@spider": "usps_collection_boxes", "addr:city": "VIRGINIA BEACH", "addr:country": "US", "addr:postcode": "23462", "addr:state": "VA", "addr:street_address": "4831 COLUMBUS ST", "amenity": "post_box", "collection_times": "Mo-Sa 17:00", "indoor": "yes", "note": "ON 12/24 AND 12/31, THIS BOX MAY BE COLLECTED AS EARLY AS 12 NOON.", "nsi_id": "unitedstatespostalservice-a77078", "operator": "United States Postal Service", "operator:short": "USPS", "operator:type": "public", "operator:wikidata": "Q668687", "ref": "2346200046"}, "type": "Feature"}
{"geometry": {"coordinates": [-76.169760836, 36.864959102], "type": "Point"}, "id": "3J2ehTaYzSxpN9YFNXD820cai2U=", "properties": {"@source_uri": "https://tools.usps.com/UspsToolsRestServices/rest/POLocator/findLocations", "@spider": "usps_collection_boxes", "addr:city": "VIRGINIA BEACH", "addr:country": "US", "addr:postcode": "23462", "addr:state": "VA", "addr:street_address": "800 NEWTOWN RD", "amenity": "post_box", "collection_times": "Mo-Fr 15:15; Sa 10:00", "note": "ON 12/24 AND 12/31, THIS BOX MAY BE COLLECTED AS EARLY AS 12 NOON.", "nsi_id": "unitedstatespostalservice-a77078", "operator": "United States Postal Service", "operator:short": "USPS", "operator:type": "public", "operator:wikidata": "Q668687", "ref": "2346200051"}, "type": "Feature"}
{"geometry": {"coordinates": [-76.144589684, 36.843799531], "type": "Point"}, "id": "9_m665GgWVObk077Nq15HUrwAoA=", "properties": {"@source_uri": "https://tools.usps.com/UspsToolsRestServices/rest/POLocator/findLocations", "@spider": "usps_collection_boxes", "addr:city": "VIRGINIA BEACH", "addr:country": "US", "addr:postcode": "23462", "addr:state": "VA", "addr:street_address": "4848 VIRGINIA BEACH BLVD", "amenity": "post_box", "collection_times": "Mo-Fr 15:00; Sa 10:00", "note": "ON 12/24 AND 12/31, THIS BOX MAY BE COLLECTED AS EARLY AS 12 NOON.", "nsi_id": "unitedstatespostalservice-a77078", "operator": "United States Postal Service", "operator:short": "USPS", "operator:type": "public", "operator:wikidata": "Q668687", "ref": "2346200054"}, "type": "Feature"}
{"geometry": {"coordinates": [-76.180393974, 36.838250997], "type": "Point"}, "id": "K5HPcEWOhc1fE_v_B5ZKz8HTQoE=", "properties": {"@source_uri": "https://tools.usps.com/UspsToolsRestServices/rest/POLocator/findLocations", "@spider": "usps_collection_boxes", "addr:city": "VIRGINIA BEACH", "addr:country": "US", "addr:postcode": "23462", "addr:state": "VA", "addr:street_address": "5606 PRINCESS ANNE RD", "amenity": "post_box", "collection_times": "Mo-Fr 16:30; Sa 11:45", "note": "ON 12/24 AND 12/31, THIS BOX MAY BE COLLECTED AS EARLY AS 12 NOON.", "nsi_id": "unitedstatespostalservice-a77078", "operator": "United States Postal Service", "operator:short": "USPS", "operator:type": "public", "operator:wikidata": "Q668687", "ref": "2346200067"}, "type": "Feature"}
{"geometry": {"coordinates": [-76.172725, 36.86215], "type": "Point"}, "id": "cqOdCqydgwlt2JYSq7ZVwYpPZNY=", "properties": {"@source_uri": "https://tools.usps.com/UspsToolsRestServices/rest/POLocator/findLocations", "@spider": "usps_collection_boxes", "addr:city": "VIRGINIA BEACH", "addr:country": "US", "addr:postcode": "23462", "addr:state": "VA", "addr:street_address": "5029 CORPORATE WOODS DR", "amenity": "post_box", "collection_times": "Mo-Fr 17:00; Sa 12:30", "note": "ON 12/24 AND 12/31, THIS BOX MAY BE COLLECTED AS EARLY AS 12 NOON.", "nsi_id": "unitedstatespostalservice-a77078", "operator": "United States Postal Service", "operator:short": "USPS", "operator:type": "public", "operator:wikidata": "Q668687", "ref": "2346200074"}, "type": "Feature"}
{"geometry": {"coordinates": [-76.163643853, 36.848734296], "type": "Point"}, "id": "f6YnK_xbQdM-fyVpR9FiAUchaVM=", "properties": {"@source_uri": "https://tools.usps.com/UspsToolsRestServices/rest/POLocator/findLocations", "@spider": "usps_collection_boxes", "addr:city": "VIRGINIA BEACH", "addr:country": "US", "addr:postcode": "23462", "addr:state": "VA", "addr:street_address": "5312 VIRGINIA BEACH BLVD", "amenity": "post_box", "collection_times": "Mo-Fr 15:15; Sa 10:00", "note": "ON 12/24 AND 12/31, THIS BOX MAY BE COLLECTED AS EARLY AS 12 NOON.", "nsi_id": "unitedstatespostalservice-a77078", "operator": "United States Postal Service", "operator:short": "USPS", "operator:type": "public", "operator:wikidata": "Q668687", "ref": "2346200080"}, "type": "Feature"}
{"geometry": {"coordinates": [-76.143294165, 36.841260712], "type": "Point"}, "id": "ET3ZXLC_txIvUtu2o-aDddpUm9I=", "properties": {"@source_uri": "https://tools.usps.com/UspsToolsRestServices/rest/POLocator/findLocations", "@spider": "usps_collection_boxes", "addr:city": "VIRGINIA BEACH", "addr:country": "US", "addr:postcode": "23462", "addr:state": "VA", "addr:street_address": "4831 COLUMBUS ST", "amenity": "post_box", "collection_times": "Mo-Sa 17:00", "indoor": "yes", "note": "ON 12/24 AND 12/31, THIS BOX MAY BE COLLECTED AS EARLY AS 12 NOON.", "nsi_id": "unitedstatespostalservice-a77078", "operator": "United States Postal Service", "operator:short": "USPS", "operator:type": "public", "operator:wikidata": "Q668687", "ref": "2346200093"}, "type": "Feature"}
{"geometry": {"coordinates": [-76.131408853, 36.825536296], "type": "Point"}, "id": "q0mYLeDMoMJDVRl5O088sgrvAig=", "properties": {"@source_uri": "https://tools.usps.com/UspsToolsRestServices/rest/POLocator/findLocations", "@spider": "usps_collection_boxes", "addr:city": "VIRGINIA BEACH", "addr:country": "US", "addr:postcode": "23462", "addr:state": "VA", "addr:street_address": "424 EDWIN DR", "amenity": "post_box", "collection_times": "Mo-Fr 14:30; Sa 12:30", "note": "ON 12/24 AND 12/31, THIS BOX MAY BE COLLECTED AS EARLY AS 12 NOON.", "nsi_id": "unitedstatespostalservice-a77078", "operator": "United States Postal Service", "operator:short": "USPS", "operator:type": "public", "operator:wikidata": "Q668687", "ref": "2346200103"}, "type": "Feature"}
{"geometry": {"coordinates": [-76.143294165, 36.841260712], "type": "Point"}, "id": "nU_ArE0eKJ1Gov0iyZyK3lUId-c=", "properties": {"@source_uri": "https://tools.usps.com/UspsToolsRestServices/rest/POLocator/findLocations", "@spider": "usps_collection_boxes", "addr:city": "VIRGINIA BEACH", "addr:country": "US", "addr:postcode": "23462", "addr:state": "VA", "addr:street_address": "4831 COLUMBUS ST", "amenity": "post_box", "collection_times": "Mo-Sa 17:00", "name": "USPS COLLECTION BOX - APC", "note": "ON 12/24 AND 12/31, THIS BOX MAY BE COLLECTED AS EARLY AS 12 NOON.", "nsi_id": "unitedstatespostalservice-a77078", "operator": "United States Postal Service", "operator:short": "USPS", "operator:type": "public", "operator:wikidata": "Q668687", "ref": "2346200107"}, "type": "Feature"}
{"geometry": {"coordinates": [-76.1323760152, 36.8425119933], "type": "Point"}, "id": "iq95zAQabrqaIRqeVj4M6RSP3iY=", "properties": {"@source_uri": "https://tools.usps.com/UspsToolsRestServices/rest/POLocator/findLocations", "@spider": "usps_collection_boxes", "addr:city": "VIRGINIA BEACH", "addr:country": "US", "addr:postcode": "23462", "addr:state": "VA", "addr:street_address": "1 COLUMBUS CTR", "amenity": "post_box", "collection_times": "Mo-Fr 17:00", "note": "ON 12/24 AND 12/31, THIS BOX MAY BE COLLECTED AS EARLY AS 12 NOON.", "nsi_id": "unitedstatespostalservice-a77078", "operator": "United States Postal Service", "operator:short": "USPS", "operator:type": "public", "operator:wikidata": "Q668687", "ref": "2346200111"}, "type": "Feature"}
{"geometry": {"coordinates": [-76.143294165, 36.841260712], "type": "Point"}, "id": "E-Xu-nZWhjLmVdNEqUgzHMqgYd8=", "properties": {"@source_uri": "https://tools.usps.com/UspsToolsRestServices/rest/POLocator/findLocations", "@spider": "usps_collection_boxes", "addr:city": "VIRGINIA BEACH", "addr:country": "US", "addr:postcode": "23462", "addr:state": "VA", "addr:street_address": "4831 COLUMBUS ST", "amenity": "post_box", "collection_times": "Mo-Fr 17:00; Sa 14:00", "indoor": "yes", "note": "ON 12/24 AND 12/31, THIS BOX MAY BE COLLECTED AS EARLY AS 12 NOON.", "nsi_id": "unitedstatespostalservice-a77078", "operator": "United States Postal Service", "operator:short": "USPS", "operator:type": "public", "operator:wikidata": "Q668687", "ref": "2346200115"}, "type": "Feature"}
{"geometry": {"coordinates": [-76.166396084, 36.814792202], "type": "Point"}, "id": "3EKew1wfwDsq7q_9arHDKqIf-Pc=", "properties": {"@source_uri": "https://tools.usps.com/UspsToolsRestServices/rest/POLocator/findLocations", "@spider": "usps_collection_boxes", "addr:city": "VIRGINIA BEACH", "addr:country": "US", "addr:postcode": "23464", "addr:state": "VA", "addr:street_address": "5218 FAIRFIELD SHOPPING CTR", "amenity": "post_box", "collection_times": "Mo-Fr 15:00; Sa 10:00", "note": "ON 12/24 AND 12/31, THIS BOX MAY BE COLLECTED AS EARLY AS 12 NOON.", "nsi_id": "unitedstatespostalservice-a77078", "operator": "United States Postal Service", "operator:short": "USPS", "operator:type": "public", "operator:wikidata": "Q668687", "ref": "2346400002"}, "type": "Feature"}
{"geometry": {"coordinates": [-76.150193619, 36.787930377], "type": "Point"}, "id": "nxk2AmZxeDuMuLyxvP4FdQyzs8A=", "properties": {"@source_uri": "https://tools.usps.com/UspsToolsRestServices/rest/POLocator/findLocations", "@spider": "usps_collection_boxes", "addr:city": "VIRGINIA BEACH", "addr:country": "US", "addr:postcode": "23464", "addr:state": "VA", "addr:street_address": "4221 PLEASANT VALLEY RD", "amenity": "post_box", "collection_times": "Mo-Sa 12:00", "nsi_id": "unitedstatespostalservice-a77078", "operator": "United States Postal Service", "operator:short": "USPS", "operator:type": "public", "operator:wikidata": "Q668687", "ref": "2346400007"}, "type": "Feature"}
{"geometry": {"coordinates": [-76.190581423, 36.781635359], "type": "Point"}, "id": "aqQqmgSuucSLq4TlVgDVuGWuAxw=", "properties": {"@source_uri": "https://tools.usps.com/UspsToolsRestServices/rest/POLocator/findLocations", "@spider": "usps_collection_boxes", "addr:city": "VIRGINIA BEACH", "addr:country": "US", "addr:postcode": "23464", "addr:state": "VA", "addr:street_address": "1832 KEMPSVILLE RD", "amenity": "post_box", "collection_times": "Mo-Sa 10:00", "nsi_id": "unitedstatespostalservice-a77078", "operator": "United States Postal Service", "operator:short": "USPS", "operator:type": "public", "operator:wikidata": "Q668687", "ref": "2346400012"}, "type": "Feature"}
{"geometry": {"coordinates": [-76.204349583, 36.81191069], "type": "Point"}, "id": "i44tX4uCMOY12R1YCkbPdUaudQs=", "properties": {"@source_uri": "https://tools.usps.com/UspsToolsRestServices/rest/POLocator/findLocations", "@spider": "usps_collection_boxes", "addr:city": "VIRGINIA BEACH", "addr:country": "US", "addr:postcode": "23464", "addr:state": "VA", "addr:street_address": "6064 INDIAN RIVER RD", "amenity": "post_box", "collection_times": "Mo-Sa 12:00", "nsi_id": "unitedstatespostalservice-a77078", "operator": "United States Postal Service", "operator:short": "USPS", "operator:type": "public", "operator:wikidata": "Q668687", "ref": "2346400015"}, "type": "Feature"}
{"geometry": {"coordinates": [-76.218125048, 36.808951287], "type": "Point"}, "id": "g0Nrx8QlNwO3xcMiMpJxQOaqz2Y=", "properties": {"@source_uri": "https://tools.usps.com/UspsToolsRestServices/rest/POLocator/findLocations", "@spider": "usps_collection_boxes", "addr:city": "VIRGINIA BEACH", "addr:country": "US", "addr:postcode": "23464", "addr:state": "VA", "addr:street_address": "6541 AUBURN DR", "amenity": "post_box", "collection_times": "Mo-Sa 10:00", "nsi_id": "unitedstatespostalservice-a77078", "operator": "United States Postal Service", "operator:short": "USPS", "operator:type": "public", "operator:wikidata": "Q668687", "ref": "2346400027"}, "type": "Feature"}
{"geometry": {"coordinates": [-76.173834211, 36.8023322725], "type": "Point"}, "id": "mwzb_ORu8QFtjnlDxINCv9PIEBs=", "properties": {"@source_uri": "https://tools.usps.com/UspsToolsRestServices/rest/POLocator/findLocations", "@spider": "usps_collection_boxes", "addr:city": "VIRGINIA BEACH", "addr:country": "US", "addr:postcode": "23464", "addr:state": "VA", "addr:street_address": "1225 KEMPSVILLE RD", "amenity": "post_box", "collection_times": "Mo-Fr 17:15; Sa 13:30", "indoor": "yes", "note": "ON 12/24 AND 12/31, THIS BOX MAY BE COLLECTED AS EARLY AS 12 NOON.", "nsi_id": "unitedstatespostalservice-a77078", "operator": "United States Postal Service", "operator:short": "USPS", "operator:type": "public", "operator:wikidata": "Q668687", "ref": "2346400028"}, "type": "Feature"}
{"geometry": {"coordinates": [-76.1801634, 36.8001756], "type": "Point"}, "id": "zE15WE9-86U0yzOGyuJK1hTdqSA=", "properties": {"@source_uri": "https://tools.usps.com/UspsToolsRestServices/rest/POLocator/findLocations", "@spider": "usps_collection_boxes", "addr:city": "VIRGINIA BEACH", "addr:country": "US", "addr:postcode": "23464", "addr:state": "VA", "addr:street_address": "1225 KEMPSVILLE RD", "amenity": "post_box", "collection_times": "Mo-Fr 17:00; Sa 13:00", "note": "ON 12/24 AND 12/31, THIS BOX MAY BE COLLECTED AS EARLY AS 12 NOON.", "nsi_id": "unitedstatespostalservice-a77078", "operator": "United States Postal Service", "operator:short": "USPS", "operator:type": "public", "operator:wikidata": "Q668687", "ref": "2346400038"}, "type": "Feature"}
{"geometry": {"coordinates": [-76.173834211, 36.8023322725], "type": "Point"}, "id": "9MONuecancl5byuhsMayejW8vEA=", "properties": {"@source_uri": "https://tools.usps.com/UspsToolsRestServices/rest/POLocator/findLocations", "@spider": "usps_collection_boxes", "addr:city": "VIRGINIA BEACH", "addr:country": "US", "addr:postcode": "23464", "addr:state": "VA", "addr:street_address": "1225 KEMPSVILLE RD", "amenity": "post_box", "collection_times": "Mo-Fr 17:00; Sa 13:00", "indoor": "yes", "note": "ON 12/24 AND 12/31, THIS BOX MAY BE COLLECTED AS EARLY AS 12 NOON.", "nsi_id": "unitedstatespostalservice-a77078", "operator": "United States Postal Service", "operator:short": "USPS", "operator:type": "public", "operator:wikidata": "Q668687", "ref": "2346400040"}, "type": "Feature"}
{"geometry": {"coordinates": [-75.690363474, 37.604551903], "type": "Point"}, "id": "fuldY8KVjMlwIr2kXUphaLf68eA=", "properties": {"@source_uri": "https://tools.usps.com/UspsToolsRestServices/rest/POLocator/findLocations", "@spider": "usps_collection_boxes", "addr:city": "WACHAPREAGUE", "addr:country": "US", "addr:postcode": "23480", "addr:state": "VA", "addr:street_address": "19 MAIN ST", "amenity": "post_box", "collection_times": "Mo-Fr 16:30; Sa 11:30", "note": "ON 12/24 AND 12/31, THIS BOX MAY BE COLLECTED AS EARLY AS 12 NOON.", "nsi_id": "unitedstatespostalservice-a77078", "operator": "United States Postal Service", "operator:short": "USPS", "operator:type": "public", "operator:wikidata": "Q668687", "ref": "2348000001"}, "type": "Feature"}
{"geometry": {"coordinates": [-75.690363474, 37.604551903], "type": "Point"}, "id": "eBwXqYVAVhiIqkpJPec3VmE-blI=", "properties": {"@source_uri": "https://tools.usps.com/UspsToolsRestServices/rest/POLocator/findLocations", "@spider": "usps_collection_boxes", "addr:city": "WACHAPREAGUE", "addr:country": "US", "addr:postcode": "23480", "addr:state": "VA", "addr:street_address": "19 MAIN ST", "amenity": "post_box", "collection_times": "Mo-Fr 16:30; Sa 11:30", "indoor": "yes", "note": "ON 12/24 AND 12/31, THIS BOX MAY BE COLLECTED AS EARLY AS 12 NOON.", "nsi_id": "unitedstatespostalservice-a77078", "operator": "United States Postal Service", "operator:short": "USPS", "operator:type": "public", "operator:wikidata": "Q668687", "ref": "2348000002"}, "type": "Feature"}
{"geometry": {"coordinates": [-75.690363474, 37.604551903], "type": "Point"}, "id": "ImFFsZ8Q11l8EjtG1XU4XwsexAk=", "properties": {"@source_uri": "https://tools.usps.com/UspsToolsRestServices/rest/POLocator/findLocations", "@spider": "usps_collection_boxes", "addr:city": "WACHAPREAGUE", "addr:country": "US", "addr:postcode": "23480", "addr:state": "VA", "addr:street_address": "19 MAIN ST", "amenity": "post_box", "collection_times": "Mo-Fr 16:30; Sa 11:30", "indoor": "yes", "note": "ON 12/24 AND 12/31, THIS BOX MAY BE COLLECTED AS EARLY AS 12 NOON.", "nsi_id": "unitedstatespostalservice-a77078", "operator": "United States Postal Service", "operator:short": "USPS", "operator:type": "public", "operator:wikidata": "Q668687", "ref": "2348000004"}, "type": "Feature"}
{"geometry": {"coordinates": [-75.806337862, 37.515184742], "type": "Point"}, "id": "zaqsltkILbQbXKY8vwMQ6oUnUcM=", "properties": {"@source_uri": "https://tools.usps.com/UspsToolsRestServices/rest/POLocator/findLocations", "@spider": "usps_collection_boxes", "addr:city": "WILLIS WHARF", "addr:country": "US", "addr:postcode": "23486", "addr:state": "VA", "addr:street_address": "4457 WILLIS WHARF RD", "amenity": "post_box", "collection_times": "Mo-Fr 16:15; Sa 11:45", "note": "ON 12/24 AND 12/31, THIS BOX MAY BE COLLECTED AS EARLY AS 12 NOON.", "nsi_id": "unitedstatespostalservice-a77078", "operator": "United States Postal Service", "operator:short": "USPS", "operator:type": "public", "operator:wikidata": "Q668687", "ref": "2348600000"}, "type": "Feature"}
{"geometry": {"coordinates": [-75.806337862, 37.515184742], "type": "Point"}, "id": "Ap4RP2zTJKFJm14FFafLwVFWKpk=", "properties": {"@source_uri": "https://tools.usps.com/UspsToolsRestServices/rest/POLocator/findLocations", "@spider": "usps_collection_boxes", "addr:city": "WILLIS WHARF", "addr:country": "US", "addr:postcode": "23486", "addr:state": "VA", "addr:street_address": "4457 WILLIS WHARF RD", "amenity": "post_box", "collection_times": "Mo-Fr 16:15; Sa 11:45", "indoor": "yes", "note": "ON 12/24 AND 12/31, THIS BOX MAY BE COLLECTED AS EARLY AS 12 NOON.", "nsi_id": "unitedstatespostalservice-a77078", "operator": "United States Postal Service", "operator:short": "USPS", "operator:type": "public", "operator:wikidata": "Q668687", "ref": "2348600001"}, "type": "Feature"}
{"geometry": {"coordinates": [-75.806337862, 37.515184742], "type": "Point"}, "id": "fevzh4pPVcBdGZXKi4vEvDzi_VU=", "properties": {"@source_uri": "https://tools.usps.com/UspsToolsRestServices/rest/POLocator/findLocations", "@spider": "usps_collection_boxes", "addr:city": "WILLIS WHARF", "addr:country": "US", "addr:postcode": "23486", "addr:state": "VA", "addr:street_address": "4457 WILLIS WHARF RD", "amenity": "post_box", "collection_times": "Mo-Fr 16:15; Sa 12:00", "indoor": "yes", "note": "ON 12/24 AND 12/31, THIS BOX MAY BE COLLECTED AS EARLY AS 12 NOON.", "nsi_id": "unitedstatespostalservice-a77078", "operator": "United States Postal Service", "operator:short": "USPS", "operator:type": "public", "operator:wikidata": "Q668687", "ref": "2348600003"}, "type": "Feature"}
{"geometry": {"coordinates": [-76.743717831, 36.808335859], "type": "Point"}, "id": "7z8RZ7ERzAGad0udLaMH7vIeYDA=", "properties": {"@source_uri": "https://tools.usps.com/UspsToolsRestServices/rest/POLocator/findLocations", "@spider": "usps_collection_boxes", "addr:city": "WINDSOR", "addr:country": "US", "addr:postcode": "23487", "addr:state": "VA", "addr:street_address": "4 E WINDSOR BLVD", "amenity": "post_box", "collection_times": "Mo-Fr 16:45; Sa 12:00", "note": "ON 12/24 AND 12/31, THIS BOX MAY BE COLLECTED AS EARLY AS 12 NOON.", "nsi_id": "unitedstatespostalservice-a77078", "operator": "United States Postal Service", "operator:short": "USPS", "operator:type": "public", "operator:wikidata": "Q668687", "ref": "2348700002"}, "type": "Feature"}
{"geometry": {"coordinates": [-76.743717831, 36.808335859], "type": "Point"}, "id": "Z0B3GKTX6AxgW1v0tA-_qNNx5IQ=", "properties": {"@source_uri": "https://tools.usps.com/UspsToolsRestServices/rest/POLocator/findLocations", "@spider": "usps_collection_boxes", "addr:city": "WINDSOR", "addr:country": "US", "addr:postcode": "23487", "addr:state": "VA", "addr:street_address": "4 E WINDSOR BLVD", "amenity": "post_box", "collection_times": "Mo-Fr 17:00; Sa 12:00", "indoor": "yes", "note": "ON 12/24 AND 12/31, THIS BOX MAY BE COLLECTED AS EARLY AS 12 NOON.", "nsi_id": "unitedstatespostalservice-a77078", "operator": "United States Postal Service", "operator:short": "USPS", "operator:type": "public", "operator:wikidata": "Q668687", "ref": "2348700006"}, "type": "Feature"}
{"geometry": {"coordinates": [-76.743717831, 36.808335859], "type": "Point"}, "id": "c9TkaSN4buLGPaFrEysposKWOCw=", "properties": {"@source_uri": "https://tools.usps.com/UspsToolsRestServices/rest/POLocator/findLocations", "@spider": "usps_collection_boxes", "addr:city": "WINDSOR", "addr:country": "US", "addr:postcode": "23487", "addr:state": "VA", "addr:street_address": "4 E WINDSOR BLVD", "amenity": "post_box", "collection_times": "Mo-Fr 17:00; Sa 12:00", "indoor": "yes", "note": "ON 12/24 AND 12/31, THIS BOX MAY BE COLLECTED AS EARLY AS 12 NOON.", "nsi_id": "unitedstatespostalservice-a77078", "operator": "United States Postal Service", "operator:short": "USPS", "operator:type": "public", "operator:wikidata": "Q668687", "ref": "2348700007"}, "type": "Feature"}
{"geometry": {"coordinates": [-76.743717831, 36.808335859], "type": "Point"}, "id": "828IGkfcNxSOA0XzbOBVWpfw5MI=", "properties": {"@source_uri": "https://tools.usps.com/UspsToolsRestServices/rest/POLocator/findLocations", "@spider": "usps_collection_boxes", "addr:city": "WINDSOR", "addr:country": "US", "addr:postcode": "23487", "addr:state": "VA", "addr:street_address": "4 E WINDSOR BLVD", "amenity": "post_box", "collection_times": "Mo-Fr 17:00; Sa 12:00", "indoor": "yes", "note": "ON 12/24 AND 12/31, THIS BOX MAY BE COLLECTED AS EARLY AS 12 NOON.", "nsi_id": "unitedstatespostalservice-a77078", "operator": "United States Postal Service", "operator:short": "USPS", "operator:type": "public", "operator:wikidata": "Q668687", "ref": "2348700010"}, "type": "Feature"}
{"geometry": {"coordinates": [-75.5755650138, 37.9449309958], "type": "Point"}, "id": "ODqFBOqNuRftQVhP4JdKTnB160Q=", "properties": {"@source_uri": "https://tools.usps.com/UspsToolsRestServices/rest/POLocator/findLocations", "@spider": "usps_collection_boxes", "addr:city": "WITHAMS", "addr:country": "US", "addr:postcode": "23488", "addr:state": "VA", "addr:street_address": "28309 WITHAMS RD", "amenity": "post_box", "collection_times": "Mo-Fr 16:30; Sa 11:30", "note": "ON 12/24 AND 12/31, THIS BOX MAY BE COLLECTED AS EARLY AS 12 NOON.", "nsi_id": "unitedstatespostalservice-a77078", "operator": "United States Postal Service", "operator:short": "USPS", "operator:type": "public", "operator:wikidata": "Q668687", "ref": "2348800001"}, "type": "Feature"}
{"geometry": {"coordinates": [-75.5755650138, 37.9449309958], "type": "Point"}, "id": "NMxnxr_tPm2gR2bPcNG2F_aP-kU=", "properties": {"@source_uri": "https://tools.usps.com/UspsToolsRestServices/rest/POLocator/findLocations", "@spider": "usps_collection_boxes", "addr:city": "WITHAMS", "addr:country": "US", "addr:postcode": "23488", "addr:state": "VA", "addr:street_address": "28309 WITHAMS RD", "amenity": "post_box", "collection_times": "Mo-Fr 16:30; Sa 12:00", "indoor": "yes", "note": "ON 12/24 AND 12/31, THIS BOX MAY BE COLLECTED AS EARLY AS 12 NOON.", "nsi_id": "unitedstatespostalservice-a77078", "operator": "United States Postal Service", "operator:short": "USPS", "operator:type": "public", "operator:wikidata": "Q668687", "ref": "2348800003"}, "type": "Feature"}
