{"dataset_attributes": {"@spider": "usps_collection_boxes", "spider:collection_time": "2024-02-07T08:23:59.531981"}, "geometry": {"coordinates": [-76.281070771, 36.85216637], "type": "Point"}, "id": "4gpYX1OnOmmEcwr-4TPKrANA1RU=", "properties": {"@spider": "usps_collection_boxes", "addr:city": "NORFOLK", "addr:country": "US", "addr:full": "600 CHURCH ST", "addr:postcode": "23501", "addr:state": "VA", "amenity": "post_box", "brand": "United States Postal Service", "brand:wikidata": "Q668687", "collection_times": "Mo-Fr 17:00", "name": "USPS COLLECTION BOX - PO LOBBY", "note": "ON 12/24 AND 12/31, THIS BOX MAY BE COLLECTED AS EARLY AS 12 NOON.", "nsi_id": "unitedstatespostalservice-a77078", "operator": "United States Postal Service", "operator:short": "USPS", "operator:type": "public", "operator:wikidata": "Q668687", "ref": "2350100002"}, "type": "Feature"}
{"dataset_attributes": {"@spider": "usps_collection_boxes", "spider:collection_time": "2024-02-07T08:23:59.531981"}, "geometry": {"coordinates": [-76.2159367, 36.8522243], "type": "Point"}, "id": "F9Dze7SNCg5atu4-io-ry7Mw1B4=", "properties": {"@spider": "usps_collection_boxes", "addr:city": "NORFOLK", "addr:country": "US", "addr:full": "190 JANAF SHOPPING CTR", "addr:postcode": "23502", "addr:state": "VA", "amenity": "post_box", "brand": "United States Postal Service", "brand:wikidata": "Q668687", "collection_times": "Mo-Fr 17:00; Sa 14:00", "name": "USPS COLLECTION BOX - PO LOBBY", "note": "ON 12/24 AND 12/31, THIS BOX MAY BE COLLECTED AS EARLY AS 12 NOON.", "nsi_id": "unitedstatespostalservice-a77078", "operator": "United States Postal Service", "operator:short": "USPS", "operator:type": "public", "operator:wikidata": "Q668687", "ref": "2350200001"}, "type": "Feature"}
{"dataset_attributes": {"@spider": "usps_collection_boxes", "spider:collection_time": "2024-02-07T08:23:59.531981"}, "geometry": {"coordinates": [-76.2061035, 36.8488688], "type": "Point"}, "id": "xJfRgv89H2o1NNFHa04xZuba44I=", "properties": {"@spider": "usps_collection_boxes", "addr:city": "NORFOLK", "addr:country": "US", "addr:full": "190 JANAF SHOPPING CTR", "addr:postcode": "23502", "addr:state": "VA", "amenity": "post_box", "brand": "United States Postal Service", "brand:wikidata": "Q668687", "collection_times": "Mo-Fr 17:00", "name": "USPS COLLECTION BOX - EXPRESS", "note": "ON 12/24 AND 12/31, THIS BOX MAY BE COLLECTED AS EARLY AS 12 NOON.", "nsi_id": "unitedstatespostalservice-a77078", "operator": "United States Postal Service", "operator:short": "USPS", "operator:type": "public", "operator:wikidata": "Q668687", "ref": "2350200004"}, "type": "Feature"}
{"dataset_attributes": {"@spider": "usps_collection_boxes", "spider:collection_time": "2024-02-07T08:23:59.531981"}, "geometry": {"coordinates": [-76.2061035, 36.8488688], "type": "Point"}, "id": "M0XKBKqWQRCdEJnzcUTh4AZINws=", "properties": {"@spider": "usps_collection_boxes", "addr:city": "NORFOLK", "addr:country": "US", "addr:full": "190 JANAF SHOPPING CTR", "addr:postcode": "23502", "addr:state": "VA", "amenity": "post_box", "brand": "United States Postal Service", "brand:wikidata": "Q668687", "collection_times": "Mo-Fr 17:00; Sa 11:30", "name": "USPS COLLECTION BOX - BLUE BOX", "note": "ON 12/24 AND 12/31, THIS BOX MAY BE COLLECTED AS EARLY AS 12 NOON.", "nsi_id": "unitedstatespostalservice-a77078", "operator": "United States Postal Service", "operator:short": "USPS", "operator:type": "public", "operator:wikidata": "Q668687", "ref": "2350200008"}, "type": "Feature"}
{"dataset_attributes": {"@spider": "usps_collection_boxes", "spider:collection_time": "2024-02-07T08:23:59.531981"}, "geometry": {"coordinates": [-76.1947849841, 36.8775349794], "type": "Point"}, "id": "oeEj_I61NG5irvvn5a2kGibSUbY=", "properties": {"@spider": "usps_collection_boxes", "addr:city": "NORFOLK", "addr:country": "US", "addr:full": "1521 PREMIUM OUTLETS BLVD", "addr:postcode": "23502", "addr:state": "VA", "amenity": "post_box", "brand": "United States Postal Service", "brand:wikidata": "Q668687", "collection_times": "Mo-Fr 15:00; Sa 09:30", "name": "USPS COLLECTION BOX - BLUE BOX", "note": "ON 12/24 AND 12/31, THIS BOX MAY BE COLLECTED AS EARLY AS 12 NOON.", "nsi_id": "unitedstatespostalservice-a77078", "operator": "United States Postal Service", "operator:short": "USPS", "operator:type": "public", "operator:wikidata": "Q668687", "ref": "2350200012"}, "type": "Feature"}
{"dataset_attributes": {"@spider": "usps_collection_boxes", "spider:collection_time": "2024-02-07T08:23:59.531981"}, "geometry": {"coordinates": [-76.210677382, 36.875592262], "type": "Point"}, "id": "5LB-2zuj0eCZjctfhrvpQgSTr90=", "properties": {"@spider": "usps_collection_boxes", "addr:city": "NORFOLK", "addr:country": "US", "addr:full": "1500 N MILITARY HWY", "addr:postcode": "23502", "addr:state": "VA", "amenity": "post_box", "brand": "United States Postal Service", "brand:wikidata": "Q668687", "collection_times": "Mo-Fr 15:30; Sa 10:00", "name": "USPS COLLECTION BOX - BLUE BOX", "note": "ON 12/24 AND 12/31, THIS BOX MAY BE COLLECTED AS EARLY AS 12 NOON.", "nsi_id": "unitedstatespostalservice-a77078", "operator": "United States Postal Service", "operator:short": "USPS", "operator:type": "public", "operator:wikidata": "Q668687", "ref": "2350200017"}, "type": "Feature"}
{"dataset_attributes": {"@spider": "usps_collection_boxes", "spider:collection_time": "2024-02-07T08:23:59.531981"}, "geometry": {"coordinates": [-76.242459895, 36.859048943], "type": "Point"}, "id": "p3QQUqLjkteIMsEJGii6cKzcmug=", "properties": {"@spider": "usps_collection_boxes", "addr:city": "NORFOLK", "addr:country": "US", "addr:full": "1301 INGLESIDE RD", "addr:postcode": "23502", "addr:state": "VA", "amenity": "post_box", "brand": "United States Postal Service", "brand:wikidata": "Q668687", "collection_times": "Mo-Fr 17:00; Sa 11:00", "name": "USPS COLLECTION BOX - BLUE BOX", "note": "ON 12/24 AND 12/31, THIS BOX MAY BE COLLECTED AS EARLY AS 12 NOON.", "nsi_id": "unitedstatespostalservice-a77078", "operator": "United States Postal Service", "operator:short": "USPS", "operator:type": "public", "operator:wikidata": "Q668687", "ref": "2350200021"}, "type": "Feature"}
{"dataset_attributes": {"@spider": "usps_collection_boxes", "spider:collection_time": "2024-02-07T08:23:59.531981"}, "geometry": {"coordinates": [-76.204776967, 36.8604930196], "type": "Point"}, "id": "bA41115qJ5y7Ahc8bTD-W6NB7do=", "properties": {"@spider": "usps_collection_boxes", "addr:city": "NORFOLK", "addr:country": "US", "addr:full": "5900 E VIRGINIA BEACH BLVD STE 124", "addr:postcode": "23502", "addr:state": "VA", "amenity": "post_box", "brand": "United States Postal Service", "brand:wikidata": "Q668687", "collection_times": "Mo-Fr 17:00; Sa 09:30", "name": "USPS COLLECTION BOX - BLUE BOX", "note": "ON 12/24 AND 12/31, THIS BOX MAY BE COLLECTED AS EARLY AS 12 NOON.", "nsi_id": "unitedstatespostalservice-a77078", "operator": "United States Postal Service", "operator:short": "USPS", "operator:type": "public", "operator:wikidata": "Q668687", "ref": "2350200025"}, "type": "Feature"}
{"dataset_attributes": {"@spider": "usps_collection_boxes", "spider:collection_time": "2024-02-07T08:23:59.531981"}, "geometry": {"coordinates": [-76.233054515, 36.85922407], "type": "Point"}, "id": "gqhObEy1y3G72AaN-JuJ3ObT3uE=", "properties": {"@spider": "usps_collection_boxes", "addr:city": "NORFOLK", "addr:country": "US", "addr:full": "1151 AZALEA GARDEN RD", "addr:postcode": "23502", "addr:state": "VA", "amenity": "post_box", "brand": "United States Postal Service", "brand:wikidata": "Q668687", "collection_times": "Mo-Fr 17:00; Sa 11:00", "name": "USPS COLLECTION BOX - BLUE BOX", "note": "ON 12/24 AND 12/31, THIS BOX MAY BE COLLECTED AS EARLY AS 12 NOON.", "nsi_id": "unitedstatespostalservice-a77078", "operator": "United States Postal Service", "operator:short": "USPS", "operator:type": "public", "operator:wikidata": "Q668687", "ref": "2350200027"}, "type": "Feature"}
{"dataset_attributes": {"@spider": "usps_collection_boxes", "spider:collection_time": "2024-02-07T08:23:59.531981"}, "geometry": {"coordinates": [-76.209381168, 36.83872146], "type": "Point"}, "id": "wesXUBszRQ8LwbCBMjKnH1SGxHo=", "properties": {"@spider": "usps_collection_boxes", "addr:city": "NORFOLK", "addr:country": "US", "addr:full": "5714 SELLGER DR", "addr:postcode": "23502", "addr:state": "VA", "amenity": "post_box", "brand": "United States Postal Service", "brand:wikidata": "Q668687", "collection_times": "Mo-Sa 10:00", "name": "USPS COLLECTION BOX - BLUE BOX", "nsi_id": "unitedstatespostalservice-a77078", "operator": "United States Postal Service", "operator:short": "USPS", "operator:type": "public", "operator:wikidata": "Q668687", "ref": "2350200029"}, "type": "Feature"}
{"dataset_attributes": {"@spider": "usps_collection_boxes", "spider:collection_time": "2024-02-07T08:23:59.531981"}, "geometry": {"coordinates": [-76.231429758, 36.86719702], "type": "Point"}, "id": "vWWJ89h05NTFyRhvwTW4c-LXlYY=", "properties": {"@spider": "usps_collection_boxes", "addr:city": "NORFOLK", "addr:country": "US", "addr:full": "4630 E PRINCESS ANNE RD", "addr:postcode": "23502", "addr:state": "VA", "amenity": "post_box", "brand": "United States Postal Service", "brand:wikidata": "Q668687", "collection_times": "Mo-Fr 17:00; Sa 11:00", "name": "USPS COLLECTION BOX - BLUE BOX", "note": "ON 12/24 AND 12/31, THIS BOX MAY BE COLLECTED AS EARLY AS 12 NOON.", "nsi_id": "unitedstatespostalservice-a77078", "operator": "United States Postal Service", "operator:short": "USPS", "operator:type": "public", "operator:wikidata": "Q668687", "ref": "2350200038"}, "type": "Feature"}
{"dataset_attributes": {"@spider": "usps_collection_boxes", "spider:collection_time": "2024-02-07T08:23:59.531981"}, "geometry": {"coordinates": [-76.191047437, 36.848341728], "type": "Point"}, "id": "jfDl5Wrp0XvFVJd3L8ENwn-hU2o=", "properties": {"@spider": "usps_collection_boxes", "addr:city": "NORFOLK", "addr:country": "US", "addr:full": "814 KEMPSVILLE RD", "addr:postcode": "23502", "addr:state": "VA", "amenity": "post_box", "brand": "United States Postal Service", "brand:wikidata": "Q668687", "collection_times": "Mo-Fr 16:45; Sa 10:00", "name": "USPS COLLECTION BOX - BLUE BOX", "note": "ON 12/24 AND 12/31, THIS BOX MAY BE COLLECTED AS EARLY AS 12 NOON.", "nsi_id": "unitedstatespostalservice-a77078", "operator": "United States Postal Service", "operator:short": "USPS", "operator:type": "public", "operator:wikidata": "Q668687", "ref": "2350200041"}, "type": "Feature"}
{"dataset_attributes": {"@spider": "usps_collection_boxes", "spider:collection_time": "2024-02-07T08:23:59.531981"}, "geometry": {"coordinates": [-76.212691845, 36.837140843], "type": "Point"}, "id": "arO9JPSVEoN2eBUoIzxn5T_2Vj0=", "properties": {"@spider": "usps_collection_boxes", "addr:city": "NORFOLK", "addr:country": "US", "addr:full": "240 CORPORATE BLVD", "addr:postcode": "23502", "addr:state": "VA", "amenity": "post_box", "brand": "United States Postal Service", "brand:wikidata": "Q668687", "collection_times": "Mo-Fr 17:15; Sa 12:00", "name": "USPS COLLECTION BOX - BLUE BOX", "note": "ON 12/24 AND 12/31, THIS BOX MAY BE COLLECTED AS EARLY AS 12 NOON.", "nsi_id": "unitedstatespostalservice-a77078", "operator": "United States Postal Service", "operator:short": "USPS", "operator:type": "public", "operator:wikidata": "Q668687", "ref": "2350200047"}, "type": "Feature"}
{"dataset_attributes": {"@spider": "usps_collection_boxes", "spider:collection_time": "2024-02-07T08:23:59.531981"}, "geometry": {"coordinates": [-76.239518765, 36.854052266], "type": "Point"}, "id": "xg7DbSO5fjQtvi9wJbKEleywDH4=", "properties": {"@spider": "usps_collection_boxes", "addr:city": "NORFOLK", "addr:country": "US", "addr:full": "985 INGLESIDE RD", "addr:postcode": "23502", "addr:state": "VA", "amenity": "post_box", "brand": "United States Postal Service", "brand:wikidata": "Q668687", "collection_times": "Mo-Sa 10:00", "name": "USPS COLLECTION BOX - BLUE BOX", "nsi_id": "unitedstatespostalservice-a77078", "operator": "United States Postal Service", "operator:short": "USPS", "operator:type": "public", "operator:wikidata": "Q668687", "ref": "2350200050"}, "type": "Feature"}
{"dataset_attributes": {"@spider": "usps_collection_boxes", "spider:collection_time": "2024-02-07T08:23:59.531981"}, "geometry": {"coordinates": [-76.235655474, 36.855181816], "type": "Point"}, "id": "6nUMMs09RWx70fLsAxB3Ebzu7H0=", "properties": {"@spider": "usps_collection_boxes", "addr:city": "NORFOLK", "addr:country": "US", "addr:full": "3701 E VIRGINIA BEACH BLVD", "addr:postcode": "23502", "addr:state": "VA", "amenity": "post_box", "brand": "United States Postal Service", "brand:wikidata": "Q668687", "collection_times": "Mo-Fr 17:00; Sa 10:30", "name": "USPS COLLECTION BOX - BLUE BOX", "note": "ON 12/24 AND 12/31, THIS BOX MAY BE COLLECTED AS EARLY AS 12 NOON.", "nsi_id": "unitedstatespostalservice-a77078", "operator": "United States Postal Service", "operator:short": "USPS", "operator:type": "public", "operator:wikidata": "Q668687", "ref": "2350200051"}, "type": "Feature"}
{"dataset_attributes": {"@spider": "usps_collection_boxes", "spider:collection_time": "2024-02-07T08:23:59.531981"}, "geometry": {"coordinates": [-76.233402873, 36.85399682], "type": "Point"}, "id": "KB2Avpfss-Gw5M8UBQT2Z7hhWyU=", "properties": {"@spider": "usps_collection_boxes", "addr:city": "NORFOLK", "addr:country": "US", "addr:full": "952 NORFOLK SQ", "addr:postcode": "23502", "addr:state": "VA", "amenity": "post_box", "brand": "United States Postal Service", "brand:wikidata": "Q668687", "collection_times": "Mo-Fr 17:00; Sa 11:00", "name": "USPS COLLECTION BOX - BLUE BOX", "note": "ON 12/24 AND 12/31, THIS BOX MAY BE COLLECTED AS EARLY AS 12 NOON.", "nsi_id": "unitedstatespostalservice-a77078", "operator": "United States Postal Service", "operator:short": "USPS", "operator:type": "public", "operator:wikidata": "Q668687", "ref": "2350200053"}, "type": "Feature"}
{"dataset_attributes": {"@spider": "usps_collection_boxes", "spider:collection_time": "2024-02-07T08:23:59.531981"}, "geometry": {"coordinates": [-76.224794506, 36.856265484], "type": "Point"}, "id": "5BNlLno0VAkHLCZmqx1aiXc1ozg=", "properties": {"@spider": "usps_collection_boxes", "addr:city": "NORFOLK", "addr:country": "US", "addr:full": "5145 E VIRGINIA BEACH BLVD", "addr:postcode": "23502", "addr:state": "VA", "amenity": "post_box", "brand": "United States Postal Service", "brand:wikidata": "Q668687", "collection_times": "Mo-Fr 17:00; Sa 10:00", "name": "USPS COLLECTION BOX - BLUE BOX", "note": "ON 12/24 AND 12/31, THIS BOX MAY BE COLLECTED AS EARLY AS 12 NOON.", "nsi_id": "unitedstatespostalservice-a77078", "operator": "United States Postal Service", "operator:short": "USPS", "operator:type": "public", "operator:wikidata": "Q668687", "ref": "2350200058"}, "type": "Feature"}
{"dataset_attributes": {"@spider": "usps_collection_boxes", "spider:collection_time": "2024-02-07T08:23:59.531981"}, "geometry": {"coordinates": [-76.2061035, 36.8488688], "type": "Point"}, "id": "XQoXUAaTcRrs8zxkHihvuGW97vU=", "properties": {"@spider": "usps_collection_boxes", "addr:city": "NORFOLK", "addr:country": "US", "addr:full": "6379 CENTER DR", "addr:postcode": "23502", "addr:state": "VA", "amenity": "post_box", "brand": "United States Postal Service", "brand:wikidata": "Q668687", "collection_times": "Mo-Fr 17:15; Sa 10:30", "name": "USPS COLLECTION BOX - BLUE BOX", "note": "ON 12/24 AND 12/31, THIS BOX MAY BE COLLECTED AS EARLY AS 12 NOON.", "nsi_id": "unitedstatespostalservice-a77078", "operator": "United States Postal Service", "operator:short": "USPS", "operator:type": "public", "operator:wikidata": "Q668687", "ref": "2350200059"}, "type": "Feature"}
{"dataset_attributes": {"@spider": "usps_collection_boxes", "spider:collection_time": "2024-02-07T08:23:59.531981"}, "geometry": {"coordinates": [-76.1860098211, 36.8480797116], "type": "Point"}, "id": "4nEwBwxJRsxk3aGHAqv3WrsTbMk=", "properties": {"@spider": "usps_collection_boxes", "addr:city": "NORFOLK", "addr:country": "US", "addr:full": "410 N CENTER DR", "addr:postcode": "23502", "addr:state": "VA", "amenity": "post_box", "brand": "United States Postal Service", "brand:wikidata": "Q668687", "collection_times": "Mo-Fr 17:00; Sa 10:00", "name": "USPS COLLECTION BOX - BLUE BOX", "note": "ON 12/24 AND 12/31, THIS BOX MAY BE COLLECTED AS EARLY AS 12 NOON.", "nsi_id": "unitedstatespostalservice-a77078", "operator": "United States Postal Service", "operator:short": "USPS", "operator:type": "public", "operator:wikidata": "Q668687", "ref": "2350200061"}, "type": "Feature"}
{"dataset_attributes": {"@spider": "usps_collection_boxes", "spider:collection_time": "2024-02-07T08:23:59.531981"}, "geometry": {"coordinates": [-76.1805495, 36.850221], "type": "Point"}, "id": "fQ69wM5FJ38msPhb2tBXI8LVXxM=", "properties": {"@spider": "usps_collection_boxes", "addr:city": "NORFOLK", "addr:country": "US", "addr:full": "6644 ETHAN ALLEN LN", "addr:postcode": "23502", "addr:state": "VA", "amenity": "post_box", "brand": "United States Postal Service", "brand:wikidata": "Q668687", "collection_times": "Mo-Fr 16:45; Sa 09:45", "name": "USPS COLLECTION BOX - BLUE BOX", "note": "ON 12/24 AND 12/31, THIS BOX MAY BE COLLECTED AS EARLY AS 12 NOON.", "nsi_id": "unitedstatespostalservice-a77078", "operator": "United States Postal Service", "operator:short": "USPS", "operator:type": "public", "operator:wikidata": "Q668687", "ref": "2350200063"}, "type": "Feature"}
{"dataset_attributes": {"@spider": "usps_collection_boxes", "spider:collection_time": "2024-02-07T08:23:59.531981"}, "geometry": {"coordinates": [-76.201448011, 36.852644333], "type": "Point"}, "id": "horFiNtU0lpniddWQRO0t9E0Lhs=", "properties": {"@spider": "usps_collection_boxes", "addr:city": "NORFOLK", "addr:country": "US", "addr:full": "863 GLENROCK RD BLDG EAST", "addr:postcode": "23502", "addr:state": "VA", "amenity": "post_box", "brand": "United States Postal Service", "brand:wikidata": "Q668687", "collection_times": "Mo-Fr 17:00; Sa 10:30", "name": "USPS COLLECTION BOX - BLUE BOX", "note": "ON 12/24 AND 12/31, THIS BOX MAY BE COLLECTED AS EARLY AS 12 NOON.", "nsi_id": "unitedstatespostalservice-a77078", "operator": "United States Postal Service", "operator:short": "USPS", "operator:type": "public", "operator:wikidata": "Q668687", "ref": "2350200069"}, "type": "Feature"}
{"dataset_attributes": {"@spider": "usps_collection_boxes", "spider:collection_time": "2024-02-07T08:23:59.531981"}, "geometry": {"coordinates": [-76.2061035, 36.8488688], "type": "Point"}, "id": "nCNQ5th6MV1xPraq3yZz-JPh6RY=", "properties": {"@spider": "usps_collection_boxes", "addr:city": "NORFOLK", "addr:country": "US", "addr:full": "870 N MILITARY HWY", "addr:postcode": "23502", "addr:state": "VA", "amenity": "post_box", "brand": "United States Postal Service", "brand:wikidata": "Q668687", "collection_times": "Mo-Fr 17:00; Sa 10:00", "name": "USPS COLLECTION BOX - BLUE BOX", "note": "ON 12/24 AND 12/31, THIS BOX MAY BE COLLECTED AS EARLY AS 12 NOON.", "nsi_id": "unitedstatespostalservice-a77078", "operator": "United States Postal Service", "operator:short": "USPS", "operator:type": "public", "operator:wikidata": "Q668687", "ref": "2350200073"}, "type": "Feature"}
{"dataset_attributes": {"@spider": "usps_collection_boxes", "spider:collection_time": "2024-02-07T08:23:59.531981"}, "geometry": {"coordinates": [-76.186701187, 36.842569237], "type": "Point"}, "id": "U8SODhCXJ2DgWeNsf9ykO2XdIIU=", "properties": {"@spider": "usps_collection_boxes", "addr:city": "NORFOLK", "addr:country": "US", "addr:full": "6330 NEWTOWN RD", "addr:postcode": "23502", "addr:state": "VA", "amenity": "post_box", "brand": "United States Postal Service", "brand:wikidata": "Q668687", "collection_times": "Mo-Fr 16:45; Sa 10:00", "name": "USPS COLLECTION BOX - BLUE BOX", "note": "ON 12/24 AND 12/31, THIS BOX MAY BE COLLECTED AS EARLY AS 12 NOON.", "nsi_id": "unitedstatespostalservice-a77078", "operator": "United States Postal Service", "operator:short": "USPS", "operator:type": "public", "operator:wikidata": "Q668687", "ref": "2350200082"}, "type": "Feature"}
{"dataset_attributes": {"@spider": "usps_collection_boxes", "spider:collection_time": "2024-02-07T08:23:59.531981"}, "geometry": {"coordinates": [-76.186950485, 36.846914587], "type": "Point"}, "id": "1wzHJPeFS-1kDsuqyBVom9PtMIw=", "properties": {"@spider": "usps_collection_boxes", "addr:city": "NORFOLK", "addr:country": "US", "addr:full": "6353 CENTER DR", "addr:postcode": "23502", "addr:state": "VA", "amenity": "post_box", "brand": "United States Postal Service", "brand:wikidata": "Q668687", "collection_times": "Mo-Fr 17:15", "name": "USPS COLLECTION BOX - EXPRESS", "note": "ON 12/24 AND 12/31, THIS BOX MAY BE COLLECTED AS EARLY AS 12 NOON.", "nsi_id": "unitedstatespostalservice-a77078", "operator": "United States Postal Service", "operator:short": "USPS", "operator:type": "public", "operator:wikidata": "Q668687", "ref": "2350200086"}, "type": "Feature"}
{"dataset_attributes": {"@spider": "usps_collection_boxes", "spider:collection_time": "2024-02-07T08:23:59.531981"}, "geometry": {"coordinates": [-76.19155908, 36.850236207], "type": "Point"}, "id": "kwtMm_j1dNvfrUutbePvbJYS8-M=", "properties": {"@spider": "usps_collection_boxes", "addr:city": "NORFOLK", "addr:country": "US", "addr:full": "830 KEMPSVILLE RD", "addr:postcode": "23502", "addr:state": "VA", "amenity": "post_box", "brand": "United States Postal Service", "brand:wikidata": "Q668687", "collection_times": "Mo-Fr 17:00; Sa 09:00", "name": "USPS COLLECTION BOX - BLUE BOX", "note": "ON 12/24 AND 12/31, THIS BOX MAY BE COLLECTED AS EARLY AS 12 NOON.", "nsi_id": "unitedstatespostalservice-a77078", "operator": "United States Postal Service", "operator:short": "USPS", "operator:type": "public", "operator:wikidata": "Q668687", "ref": "2350200087"}, "type": "Feature"}
{"dataset_attributes": {"@spider": "usps_collection_boxes", "spider:collection_time": "2024-02-07T08:23:59.531981"}, "geometry": {"coordinates": [-76.192024865, 36.851794905], "type": "Point"}, "id": "39324TWO3v65Mo6sqrqhChSTzj8=", "properties": {"@spider": "usps_collection_boxes", "addr:city": "NORFOLK", "addr:country": "US", "addr:full": "844 KEMPSVILLE RD", "addr:postcode": "23502", "addr:state": "VA", "amenity": "post_box", "brand": "United States Postal Service", "brand:wikidata": "Q668687", "collection_times": "Mo-Fr 17:00; Sa 09:00", "name": "USPS COLLECTION BOX - BLUE BOX", "note": "ON 12/24 AND 12/31, THIS BOX MAY BE COLLECTED AS EARLY AS 12 NOON.", "nsi_id": "unitedstatespostalservice-a77078", "operator": "United States Postal Service", "operator:short": "USPS", "operator:type": "public", "operator:wikidata": "Q668687", "ref": "2350200088"}, "type": "Feature"}
{"dataset_attributes": {"@spider": "usps_collection_boxes", "spider:collection_time": "2024-02-07T08:23:59.531981"}, "geometry": {"coordinates": [-76.204369208, 36.867149728], "type": "Point"}, "id": "c-buInTUcLvERDoIhtWVJSW9PQE=", "properties": {"@spider": "usps_collection_boxes", "addr:city": "NORFOLK", "addr:country": "US", "addr:full": "1309 KEMPSVILLE RD", "addr:postcode": "23502", "addr:state": "VA", "amenity": "post_box", "brand": "United States Postal Service", "brand:wikidata": "Q668687", "collection_times": "Mo-Sa 09:00", "name": "USPS COLLECTION BOX - BLUE BOX", "nsi_id": "unitedstatespostalservice-a77078", "operator": "United States Postal Service", "operator:short": "USPS", "operator:type": "public", "operator:wikidata": "Q668687", "ref": "2350200093"}, "type": "Feature"}
{"dataset_attributes": {"@spider": "usps_collection_boxes", "spider:collection_time": "2024-02-07T08:23:59.531981"}, "geometry": {"coordinates": [-76.208205945, 36.874585863], "type": "Point"}, "id": "nxgJW5vleZM141RHvQjDN2086Co=", "properties": {"@spider": "usps_collection_boxes", "addr:city": "NORFOLK", "addr:country": "US", "addr:full": "5800 NORTHAMPTON BLVD", "addr:postcode": "23502", "addr:state": "VA", "amenity": "post_box", "brand": "United States Postal Service", "brand:wikidata": "Q668687", "collection_times": "Mo-Fr 17:00; Sa 10:00", "name": "USPS COLLECTION BOX - BLUE BOX", "note": "ON 12/24 AND 12/31, THIS BOX MAY BE COLLECTED AS EARLY AS 12 NOON.", "nsi_id": "unitedstatespostalservice-a77078", "operator": "United States Postal Service", "operator:short": "USPS", "operator:type": "public", "operator:wikidata": "Q668687", "ref": "2350200094"}, "type": "Feature"}
{"dataset_attributes": {"@spider": "usps_collection_boxes", "spider:collection_time": "2024-02-07T08:23:59.531981"}, "geometry": {"coordinates": [-76.198345554, 36.851277672], "type": "Point"}, "id": "Rkz-TWdHimUwXxBf30BCgQJqWcU=", "properties": {"@spider": "usps_collection_boxes", "addr:city": "NORFOLK", "addr:country": "US", "addr:full": "6015 POPLAR HALL DR", "addr:postcode": "23502", "addr:state": "VA", "amenity": "post_box", "brand": "United States Postal Service", "brand:wikidata": "Q668687", "collection_times": "Mo-Fr 10:00", "name": "USPS COLLECTION BOX - BLUE BOX", "nsi_id": "unitedstatespostalservice-a77078", "operator": "United States Postal Service", "operator:short": "USPS", "operator:type": "public", "operator:wikidata": "Q668687", "ref": "2350200098"}, "type": "Feature"}
{"dataset_attributes": {"@spider": "usps_collection_boxes", "spider:collection_time": "2024-02-07T08:23:59.531981"}, "geometry": {"coordinates": [-76.18835525, 36.848130483], "type": "Point"}, "id": "pbZ0vbWUwqusF3DTHKv8DfsVHWk=", "properties": {"@spider": "usps_collection_boxes", "addr:city": "NORFOLK", "addr:country": "US", "addr:full": "6330 N CENTER DR", "addr:postcode": "23502", "addr:state": "VA", "amenity": "post_box", "brand": "United States Postal Service", "brand:wikidata": "Q668687", "collection_times": "Mo-Fr 17:00", "name": "USPS COLLECTION BOX - BLUE BOX", "note": "ON 12/24 AND 12/31, THIS BOX MAY BE COLLECTED AS EARLY AS 12 NOON.", "nsi_id": "unitedstatespostalservice-a77078", "operator": "United States Postal Service", "operator:short": "USPS", "operator:type": "public", "operator:wikidata": "Q668687", "ref": "2350200106"}, "type": "Feature"}
{"dataset_attributes": {"@spider": "usps_collection_boxes", "spider:collection_time": "2024-02-07T08:23:59.531981"}, "geometry": {"coordinates": [-76.208160202, 36.878967341], "type": "Point"}, "id": "uScOOgE9IIHtFQTNGFJNhpIW7_c=", "properties": {"@spider": "usps_collection_boxes", "addr:city": "NORFOLK", "addr:country": "US", "addr:full": "5700 LAKE WRIGHT DR", "addr:postcode": "23502", "addr:state": "VA", "amenity": "post_box", "brand": "United States Postal Service", "brand:wikidata": "Q668687", "collection_times": "Mo-Fr 17:00; Sa 10:00", "name": "USPS COLLECTION BOX - BLUE BOX", "note": "ON 12/24 AND 12/31, THIS BOX MAY BE COLLECTED AS EARLY AS 12 NOON.", "nsi_id": "unitedstatespostalservice-a77078", "operator": "United States Postal Service", "operator:short": "USPS", "operator:type": "public", "operator:wikidata": "Q668687", "ref": "2350200115"}, "type": "Feature"}
{"dataset_attributes": {"@spider": "usps_collection_boxes", "spider:collection_time": "2024-02-07T08:23:59.531981"}, "geometry": {"coordinates": [-76.2034325, 36.855550442], "type": "Point"}, "id": "Hig8DrbBaPcTJypm5ItDRvZP-YA=", "properties": {"@spider": "usps_collection_boxes", "addr:city": "NORFOLK", "addr:country": "US", "addr:full": "5900 E VIRGINIA BEACH BLVD", "addr:postcode": "23502", "addr:state": "VA", "amenity": "post_box", "brand": "United States Postal Service", "brand:wikidata": "Q668687", "collection_times": "Mo-Fr 17:00; Sa 14:00", "name": "USPS COLLECTION BOX - PO LOBBY", "note": "ON 12/24 AND 12/31, THIS BOX MAY BE COLLECTED AS EARLY AS 12 NOON.", "nsi_id": "unitedstatespostalservice-a77078", "operator": "United States Postal Service", "operator:short": "USPS", "operator:type": "public", "operator:wikidata": "Q668687", "ref": "2350200127"}, "type": "Feature"}
{"dataset_attributes": {"@spider": "usps_collection_boxes", "spider:collection_time": "2024-02-07T08:23:59.531981"}, "geometry": {"coordinates": [-76.284742584, 36.967195464], "type": "Point"}, "id": "vAk4X9XFNLl6uN2c-XaFPYI0CbQ=", "properties": {"@spider": "usps_collection_boxes", "addr:city": "NORFOLK", "addr:country": "US", "addr:full": "1208 W OCEAN VIEW AVE", "addr:postcode": "23503", "addr:state": "VA", "amenity": "post_box", "brand": "United States Postal Service", "brand:wikidata": "Q668687", "collection_times": "Mo-Sa 13:00", "name": "USPS COLLECTION BOX - BLUE BOX", "note": "ON 12/24 AND 12/31, THIS BOX MAY BE COLLECTED AS EARLY AS 12 NOON.", "nsi_id": "unitedstatespostalservice-a77078", "operator": "United States Postal Service", "operator:short": "USPS", "operator:type": "public", "operator:wikidata": "Q668687", "ref": "2350300003"}, "type": "Feature"}
{"dataset_attributes": {"@spider": "usps_collection_boxes", "spider:collection_time": "2024-02-07T08:23:59.531981"}, "geometry": {"coordinates": [-76.271673383, 36.943816861], "type": "Point"}, "id": "DdEFD7fX3EEUfdefEwc6pcfl-qs=", "properties": {"@spider": "usps_collection_boxes", "addr:city": "NORFOLK", "addr:country": "US", "addr:full": "8931 MONITOR WAY", "addr:postcode": "23503", "addr:state": "VA", "amenity": "post_box", "brand": "United States Postal Service", "brand:wikidata": "Q668687", "collection_times": "Mo-Sa 13:00", "name": "USPS COLLECTION BOX - BLUE BOX", "note": "ON 12/24 AND 12/31, THIS BOX MAY BE COLLECTED AS EARLY AS 12 NOON.", "nsi_id": "unitedstatespostalservice-a77078", "operator": "United States Postal Service", "operator:short": "USPS", "operator:type": "public", "operator:wikidata": "Q668687", "ref": "2350300008"}, "type": "Feature"}
{"dataset_attributes": {"@spider": "usps_collection_boxes", "spider:collection_time": "2024-02-07T08:23:59.531981"}, "geometry": {"coordinates": [-76.261235344, 36.939430792], "type": "Point"}, "id": "R32PDoqn83g00kmmVeGTaO82uRg=", "properties": {"@spider": "usps_collection_boxes", "addr:city": "NORFOLK", "addr:country": "US", "addr:full": "8900 GRANBY ST", "addr:postcode": "23503", "addr:state": "VA", "amenity": "post_box", "brand": "United States Postal Service", "brand:wikidata": "Q668687", "collection_times": "Mo-Sa 10:00", "name": "USPS COLLECTION BOX - BLUE BOX", "nsi_id": "unitedstatespostalservice-a77078", "operator": "United States Postal Service", "operator:short": "USPS", "operator:type": "public", "operator:wikidata": "Q668687", "ref": "2350300013"}, "type": "Feature"}
{"dataset_attributes": {"@spider": "usps_collection_boxes", "spider:collection_time": "2024-02-07T08:23:59.531981"}, "geometry": {"coordinates": [-76.254508582, 36.932825539], "type": "Point"}, "id": "023eaopfFcs3ZdFwHqDM6nvdzuU=", "properties": {"@spider": "usps_collection_boxes", "addr:city": "NORFOLK", "addr:country": "US", "addr:full": "337 E BAYVIEW BLVD", "addr:postcode": "23503", "addr:state": "VA", "amenity": "post_box", "brand": "United States Postal Service", "brand:wikidata": "Q668687", "collection_times": "Mo-Sa 12:00", "name": "USPS COLLECTION BOX - BLUE BOX", "nsi_id": "unitedstatespostalservice-a77078", "operator": "United States Postal Service", "operator:short": "USPS", "operator:type": "public", "operator:wikidata": "Q668687", "ref": "2350300015"}, "type": "Feature"}
{"dataset_attributes": {"@spider": "usps_collection_boxes", "spider:collection_time": "2024-02-07T08:23:59.531981"}, "geometry": {"coordinates": [-76.245155153, 36.933777428], "type": "Point"}, "id": "UosRYQxI3r6-_M9sjehpsa3JMLo=", "properties": {"@spider": "usps_collection_boxes", "addr:city": "NORFOLK", "addr:country": "US", "addr:full": "738 E BAYVIEW BLVD", "addr:postcode": "23503", "addr:state": "VA", "amenity": "post_box", "brand": "United States Postal Service", "brand:wikidata": "Q668687", "collection_times": "Mo-Sa 13:00", "name": "USPS COLLECTION BOX - BLUE BOX", "note": "ON 12/24 AND 12/31, THIS BOX MAY BE COLLECTED AS EARLY AS 12 NOON.", "nsi_id": "unitedstatespostalservice-a77078", "operator": "United States Postal Service", "operator:short": "USPS", "operator:type": "public", "operator:wikidata": "Q668687", "ref": "2350300016"}, "type": "Feature"}
{"dataset_attributes": {"@spider": "usps_collection_boxes", "spider:collection_time": "2024-02-07T08:23:59.531981"}, "geometry": {"coordinates": [-76.222725614, 36.937374578], "type": "Point"}, "id": "O45FCAS9jptHJ-SRjsRKOUbFvXE=", "properties": {"@spider": "usps_collection_boxes", "addr:city": "NORFOLK", "addr:country": "US", "addr:full": "9636 CAPEVIEW AVE", "addr:postcode": "23503", "addr:state": "VA", "amenity": "post_box", "brand": "United States Postal Service", "brand:wikidata": "Q668687", "collection_times": "Mo-Sa 13:00", "name": "USPS COLLECTION BOX - BLUE BOX", "note": "ON 12/24 AND 12/31, THIS BOX MAY BE COLLECTED AS EARLY AS 12 NOON.", "nsi_id": "unitedstatespostalservice-a77078", "operator": "United States Postal Service", "operator:short": "USPS", "operator:type": "public", "operator:wikidata": "Q668687", "ref": "2350300019"}, "type": "Feature"}
{"dataset_attributes": {"@spider": "usps_collection_boxes", "spider:collection_time": "2024-02-07T08:23:59.531981"}, "geometry": {"coordinates": [-76.24167749, 36.936584634], "type": "Point"}, "id": "4lYsmWGZ4UPF5CX1PYG53tEM7cI=", "properties": {"@spider": "usps_collection_boxes", "addr:city": "NORFOLK", "addr:country": "US", "addr:full": "1075 LINDALE LN", "addr:postcode": "23503", "addr:state": "VA", "amenity": "post_box", "brand": "United States Postal Service", "brand:wikidata": "Q668687", "collection_times": "Mo-Sa 13:00", "name": "USPS COLLECTION BOX - BLUE BOX", "note": "ON 12/24 AND 12/31, THIS BOX MAY BE COLLECTED AS EARLY AS 12 NOON.", "nsi_id": "unitedstatespostalservice-a77078", "operator": "United States Postal Service", "operator:short": "USPS", "operator:type": "public", "operator:wikidata": "Q668687", "ref": "2350300024"}, "type": "Feature"}
{"dataset_attributes": {"@spider": "usps_collection_boxes", "spider:collection_time": "2024-02-07T08:23:59.531981"}, "geometry": {"coordinates": [-76.254571736, 36.955170302], "type": "Point"}, "id": "5cYn86K34FwihSzGwlTnHsGp82I=", "properties": {"@spider": "usps_collection_boxes", "addr:city": "NORFOLK", "addr:country": "US", "addr:full": "9631 1ST VIEW ST", "addr:postcode": "23503", "addr:state": "VA", "amenity": "post_box", "brand": "United States Postal Service", "brand:wikidata": "Q668687", "collection_times": "Mo-Fr 17:00; Sa 15:00", "name": "USPS COLLECTION BOX - PO LOBBY", "note": "ON 12/24 AND 12/31, THIS BOX MAY BE COLLECTED AS EARLY AS 12 NOON.", "nsi_id": "unitedstatespostalservice-a77078", "operator": "United States Postal Service", "operator:short": "USPS", "operator:type": "public", "operator:wikidata": "Q668687", "ref": "2350300034"}, "type": "Feature"}
{"dataset_attributes": {"@spider": "usps_collection_boxes", "spider:collection_time": "2024-02-07T08:23:59.531981"}, "geometry": {"coordinates": [-76.242498968, 36.930379987], "type": "Point"}, "id": "O_Z_7pwkkP_pVU9UY2R4b_qIcKI=", "properties": {"@spider": "usps_collection_boxes", "addr:city": "NORFOLK", "addr:country": "US", "addr:full": "1020 FISHERMANS RD", "addr:postcode": "23503", "addr:state": "VA", "amenity": "post_box", "brand": "United States Postal Service", "brand:wikidata": "Q668687", "collection_times": "Mo-Sa 11:00", "name": "USPS COLLECTION BOX - BLUE BOX", "nsi_id": "unitedstatespostalservice-a77078", "operator": "United States Postal Service", "operator:short": "USPS", "operator:type": "public", "operator:wikidata": "Q668687", "ref": "2350300043"}, "type": "Feature"}
{"dataset_attributes": {"@spider": "usps_collection_boxes", "spider:collection_time": "2024-02-07T08:23:59.531981"}, "geometry": {"coordinates": [-76.2256370095, 36.9325579828], "type": "Point"}, "id": "cTkfeUlfA0s9W1EOjjajygRfaPM=", "properties": {"@spider": "usps_collection_boxes", "addr:city": "NORFOLK", "addr:country": "US", "addr:full": "1875 E BAYVIEW BLVD", "addr:postcode": "23503", "addr:state": "VA", "amenity": "post_box", "brand": "United States Postal Service", "brand:wikidata": "Q668687", "collection_times": "Mo-Fr 15:00; Sa 14:00", "name": "USPS COLLECTION BOX - BLUE BOX", "note": "ON 12/24 AND 12/31, THIS BOX MAY BE COLLECTED AS EARLY AS 12 NOON.", "nsi_id": "unitedstatespostalservice-a77078", "operator": "United States Postal Service", "operator:short": "USPS", "operator:type": "public", "operator:wikidata": "Q668687", "ref": "2350300046"}, "type": "Feature"}
{"dataset_attributes": {"@spider": "usps_collection_boxes", "spider:collection_time": "2024-02-07T08:23:59.531981"}, "geometry": {"coordinates": [-76.254571736, 36.955170302], "type": "Point"}, "id": "cMbFVVal-DXSaJ7m0NdrZ9x9bGg=", "properties": {"@spider": "usps_collection_boxes", "addr:city": "NORFOLK", "addr:country": "US", "addr:full": "9631 1ST VIEW ST", "addr:postcode": "23503", "addr:state": "VA", "amenity": "post_box", "brand": "United States Postal Service", "brand:wikidata": "Q668687", "collection_times": "Mo-Fr 17:00; Sa 15:00", "name": "USPS COLLECTION BOX - PO LOBBY", "note": "ON 12/24 AND 12/31, THIS BOX MAY BE COLLECTED AS EARLY AS 12 NOON.", "nsi_id": "unitedstatespostalservice-a77078", "operator": "United States Postal Service", "operator:short": "USPS", "operator:type": "public", "operator:wikidata": "Q668687", "ref": "2350300047"}, "type": "Feature"}
{"dataset_attributes": {"@spider": "usps_collection_boxes", "spider:collection_time": "2024-02-07T08:23:59.531981"}, "geometry": {"coordinates": [-76.254571736, 36.955170302], "type": "Point"}, "id": "slJbDhSaEQee3MGz6EEPa1RgT3s=", "properties": {"@spider": "usps_collection_boxes", "addr:city": "NORFOLK", "addr:country": "US", "addr:full": "9631 1ST VIEW ST", "addr:postcode": "23503", "addr:state": "VA", "amenity": "post_box", "brand": "United States Postal Service", "brand:wikidata": "Q668687", "collection_times": "Mo-Fr 17:00", "name": "USPS COLLECTION BOX - PO LOBBY", "note": "ON 12/24 AND 12/31, THIS BOX MAY BE COLLECTED AS EARLY AS 12 NOON.", "nsi_id": "unitedstatespostalservice-a77078", "operator": "United States Postal Service", "operator:short": "USPS", "operator:type": "public", "operator:wikidata": "Q668687", "ref": "2350300061"}, "type": "Feature"}
{"dataset_attributes": {"@spider": "usps_collection_boxes", "spider:collection_time": "2024-02-07T08:23:59.531981"}, "geometry": {"coordinates": [-76.248644595, 36.855108325], "type": "Point"}, "id": "loor9fSnk_UAY2Jf4QoI7Er27Yw=", "properties": {"@spider": "usps_collection_boxes", "addr:city": "NORFOLK", "addr:country": "US", "addr:full": "1200 BALLENTINE BLVD", "addr:postcode": "23504", "addr:state": "VA", "amenity": "post_box", "brand": "United States Postal Service", "brand:wikidata": "Q668687", "collection_times": "Mo-Fr 17:00; Sa 12:00", "name": "USPS COLLECTION BOX - BLUE BOX", "note": "ON 12/24 AND 12/31, THIS BOX MAY BE COLLECTED AS EARLY AS 12 NOON.", "nsi_id": "unitedstatespostalservice-a77078", "operator": "United States Postal Service", "operator:short": "USPS", "operator:type": "public", "operator:wikidata": "Q668687", "ref": "2350400001"}, "type": "Feature"}
{"dataset_attributes": {"@spider": "usps_collection_boxes", "spider:collection_time": "2024-02-07T08:23:59.531981"}, "geometry": {"coordinates": [-76.265123037, 36.852351664], "type": "Point"}, "id": "QYOrGDwUD1t2L9OXR2XDQscXdV8=", "properties": {"@spider": "usps_collection_boxes", "addr:city": "NORFOLK", "addr:country": "US", "addr:full": "1000 PARK AVE", "addr:postcode": "23504", "addr:state": "VA", "amenity": "post_box", "brand": "United States Postal Service", "brand:wikidata": "Q668687", "collection_times": "Mo-Sa 09:00", "name": "USPS COLLECTION BOX - BLUE BOX", "nsi_id": "unitedstatespostalservice-a77078", "operator": "United States Postal Service", "operator:short": "USPS", "operator:type": "public", "operator:wikidata": "Q668687", "ref": "2350400002"}, "type": "Feature"}
{"dataset_attributes": {"@spider": "usps_collection_boxes", "spider:collection_time": "2024-02-07T08:23:59.531981"}, "geometry": {"coordinates": [-76.281564664, 36.88394142], "type": "Point"}, "id": "DBU_rwUmkkDRgW8yr5ACPjZDTUg=", "properties": {"@spider": "usps_collection_boxes", "addr:city": "NORFOLK", "addr:country": "US", "addr:full": "4101 GRANBY ST", "addr:postcode": "23504", "addr:state": "VA", "amenity": "post_box", "brand": "United States Postal Service", "brand:wikidata": "Q668687", "collection_times": "Mo-Sa 09:00", "name": "USPS COLLECTION BOX - BLUE BOX", "nsi_id": "unitedstatespostalservice-a77078", "operator": "United States Postal Service", "operator:short": "USPS", "operator:type": "public", "operator:wikidata": "Q668687", "ref": "2350400004"}, "type": "Feature"}
{"dataset_attributes": {"@spider": "usps_collection_boxes", "spider:collection_time": "2024-02-07T08:23:59.531981"}, "geometry": {"coordinates": [-76.25934, 36.850459466], "type": "Point"}, "id": "Lh_CuseUxD8r-TM7lU-CgWdfswI=", "properties": {"@spider": "usps_collection_boxes", "addr:city": "NORFOLK", "addr:country": "US", "addr:full": "2539 CORPREW AVE", "addr:postcode": "23504", "addr:state": "VA", "amenity": "post_box", "brand": "United States Postal Service", "brand:wikidata": "Q668687", "collection_times": "Mo-Fr 17:00; Sa 12:00", "name": "USPS COLLECTION BOX - BLUE BOX", "note": "ON 12/24 AND 12/31, THIS BOX MAY BE COLLECTED AS EARLY AS 12 NOON.", "nsi_id": "unitedstatespostalservice-a77078", "operator": "United States Postal Service", "operator:short": "USPS", "operator:type": "public", "operator:wikidata": "Q668687", "ref": "2350400006"}, "type": "Feature"}
{"dataset_attributes": {"@spider": "usps_collection_boxes", "spider:collection_time": "2024-02-07T08:23:59.531981"}, "geometry": {"coordinates": [-76.2717379799, 36.917132012], "type": "Point"}, "id": "eqYs-oMFDlkz0yuFODMZb1okhGA=", "properties": {"@spider": "usps_collection_boxes", "addr:city": "NORFOLK", "addr:country": "US", "addr:full": "7712 GRANBY ST", "addr:postcode": "23505", "addr:state": "VA", "amenity": "post_box", "brand": "United States Postal Service", "brand:wikidata": "Q668687", "collection_times": "Mo-Fr 17:00; Sa 13:00", "name": "USPS COLLECTION BOX - BLUE BOX", "note": "ON 12/24 AND 12/31, THIS BOX MAY BE COLLECTED AS EARLY AS 12 NOON.", "nsi_id": "unitedstatespostalservice-a77078", "operator": "United States Postal Service", "operator:short": "USPS", "operator:type": "public", "operator:wikidata": "Q668687", "ref": "2350500001"}, "type": "Feature"}
{"dataset_attributes": {"@spider": "usps_collection_boxes", "spider:collection_time": "2024-02-07T08:23:59.531981"}, "geometry": {"coordinates": [-76.27209865, 36.917179334], "type": "Point"}, "id": "RFI7M6jwqaC4iTi-Pf2QjhhpJjM=", "properties": {"@spider": "usps_collection_boxes", "addr:city": "NORFOLK", "addr:country": "US", "addr:full": "7712 GRANBY ST", "addr:postcode": "23505", "addr:state": "VA", "amenity": "post_box", "brand": "United States Postal Service", "brand:wikidata": "Q668687", "collection_times": "Mo-Fr 17:00; Sa 13:00", "name": "USPS COLLECTION BOX - PO LOBBY", "note": "ON 12/24 AND 12/31, THIS BOX MAY BE COLLECTED AS EARLY AS 12 NOON.", "nsi_id": "unitedstatespostalservice-a77078", "operator": "United States Postal Service", "operator:short": "USPS", "operator:type": "public", "operator:wikidata": "Q668687", "ref": "2350500004"}, "type": "Feature"}
{"dataset_attributes": {"@spider": "usps_collection_boxes", "spider:collection_time": "2024-02-07T08:23:59.531981"}, "geometry": {"coordinates": [-76.312788717, 36.930736456], "type": "Point"}, "id": "MIT3eXPq7vz3ADXjKlO7L0rcT7s=", "properties": {"@spider": "usps_collection_boxes", "addr:city": "NORFOLK", "addr:country": "US", "addr:full": "8600 GLEN MYRTLE AVE", "addr:postcode": "23505", "addr:state": "VA", "amenity": "post_box", "brand": "United States Postal Service", "brand:wikidata": "Q668687", "collection_times": "Mo-Sa 09:00", "name": "USPS COLLECTION BOX - BLUE BOX", "nsi_id": "unitedstatespostalservice-a77078", "operator": "United States Postal Service", "operator:short": "USPS", "operator:type": "public", "operator:wikidata": "Q668687", "ref": "2350500005"}, "type": "Feature"}
{"dataset_attributes": {"@spider": "usps_collection_boxes", "spider:collection_time": "2024-02-07T08:23:59.531981"}, "geometry": {"coordinates": [-76.255591673, 36.911262668], "type": "Point"}, "id": "S86Y1MmC6rCWva48DDAM6YKhgJk=", "properties": {"@spider": "usps_collection_boxes", "addr:city": "NORFOLK", "addr:country": "US", "addr:full": "7460 TIDEWATER DR", "addr:postcode": "23505", "addr:state": "VA", "amenity": "post_box", "brand": "United States Postal Service", "brand:wikidata": "Q668687", "collection_times": "Mo-Fr 17:00; Sa 13:00", "name": "USPS COLLECTION BOX - BLUE BOX", "note": "ON 12/24 AND 12/31, THIS BOX MAY BE COLLECTED AS EARLY AS 12 NOON.", "nsi_id": "unitedstatespostalservice-a77078", "operator": "United States Postal Service", "operator:short": "USPS", "operator:type": "public", "operator:wikidata": "Q668687", "ref": "2350500008"}, "type": "Feature"}
{"dataset_attributes": {"@spider": "usps_collection_boxes", "spider:collection_time": "2024-02-07T08:23:59.531981"}, "geometry": {"coordinates": [-76.25495264, 36.913432085], "type": "Point"}, "id": "Jr3KNBlioqiSURnZOmKwI_yZyOU=", "properties": {"@spider": "usps_collection_boxes", "addr:city": "NORFOLK", "addr:country": "US", "addr:full": "7525 TIDEWATER DR", "addr:postcode": "23505", "addr:state": "VA", "amenity": "post_box", "brand": "United States Postal Service", "brand:wikidata": "Q668687", "collection_times": "Mo-Fr 17:00; Sa 13:00", "name": "USPS COLLECTION BOX - BLUE BOX", "note": "ON 12/24 AND 12/31, THIS BOX MAY BE COLLECTED AS EARLY AS 12 NOON.", "nsi_id": "unitedstatespostalservice-a77078", "operator": "United States Postal Service", "operator:short": "USPS", "operator:type": "public", "operator:wikidata": "Q668687", "ref": "2350500009"}, "type": "Feature"}
{"dataset_attributes": {"@spider": "usps_collection_boxes", "spider:collection_time": "2024-02-07T08:23:59.531981"}, "geometry": {"coordinates": [-76.302673283, 36.921921106], "type": "Point"}, "id": "yPADdZp_AboS6vwtxFMKMfV8Rrk=", "properties": {"@spider": "usps_collection_boxes", "addr:city": "NORFOLK", "addr:country": "US", "addr:full": "7937 KING ST", "addr:postcode": "23505", "addr:state": "VA", "amenity": "post_box", "brand": "United States Postal Service", "brand:wikidata": "Q668687", "collection_times": "Mo-Fr 09:00", "name": "USPS COLLECTION BOX - BLUE BOX", "nsi_id": "unitedstatespostalservice-a77078", "operator": "United States Postal Service", "operator:short": "USPS", "operator:type": "public", "operator:wikidata": "Q668687", "ref": "2350500014"}, "type": "Feature"}
{"dataset_attributes": {"@spider": "usps_collection_boxes", "spider:collection_time": "2024-02-07T08:23:59.531981"}, "geometry": {"coordinates": [-76.262125479, 36.906579966], "type": "Point"}, "id": "vRdaVTWAziugdVn_fvo4CQi8W8s=", "properties": {"@spider": "usps_collection_boxes", "addr:city": "NORFOLK", "addr:country": "US", "addr:full": "549 CARL ST", "addr:postcode": "23505", "addr:state": "VA", "amenity": "post_box", "brand": "United States Postal Service", "brand:wikidata": "Q668687", "collection_times": "Mo-Sa 09:00", "name": "USPS COLLECTION BOX - BLUE BOX", "nsi_id": "unitedstatespostalservice-a77078", "operator": "United States Postal Service", "operator:short": "USPS", "operator:type": "public", "operator:wikidata": "Q668687", "ref": "2350500016"}, "type": "Feature"}
{"dataset_attributes": {"@spider": "usps_collection_boxes", "spider:collection_time": "2024-02-07T08:23:59.531981"}, "geometry": {"coordinates": [-76.259701868, 36.905998464], "type": "Point"}, "id": "SAHXMjbxPWa7wAFJKvMj68Wn2Ww=", "properties": {"@spider": "usps_collection_boxes", "addr:city": "NORFOLK", "addr:country": "US", "addr:full": "581 VIRGINIAN DR", "addr:postcode": "23505", "addr:state": "VA", "amenity": "post_box", "brand": "United States Postal Service", "brand:wikidata": "Q668687", "collection_times": "Mo-Sa 09:00", "name": "USPS COLLECTION BOX - BLUE BOX", "nsi_id": "unitedstatespostalservice-a77078", "operator": "United States Postal Service", "operator:short": "USPS", "operator:type": "public", "operator:wikidata": "Q668687", "ref": "2350500017"}, "type": "Feature"}
{"dataset_attributes": {"@spider": "usps_collection_boxes", "spider:collection_time": "2024-02-07T08:23:59.531981"}, "geometry": {"coordinates": [-76.308196135, 36.914163579], "type": "Point"}, "id": "QEOx6RdvtumUV7ekX3EwuR95nAM=", "properties": {"@spider": "usps_collection_boxes", "addr:city": "NORFOLK", "addr:country": "US", "addr:full": "7440 MUIRFIELD RD", "addr:postcode": "23505", "addr:state": "VA", "amenity": "post_box", "brand": "United States Postal Service", "brand:wikidata": "Q668687", "collection_times": "Mo-Sa 09:00", "name": "USPS COLLECTION BOX - BLUE BOX", "nsi_id": "unitedstatespostalservice-a77078", "operator": "United States Postal Service", "operator:short": "USPS", "operator:type": "public", "operator:wikidata": "Q668687", "ref": "2350500018"}, "type": "Feature"}
{"dataset_attributes": {"@spider": "usps_collection_boxes", "spider:collection_time": "2024-02-07T08:23:59.531981"}, "geometry": {"coordinates": [-76.303088707, 36.914054711], "type": "Point"}, "id": "KoMcOm4BO5vu_7gOE66EW13s0NA=", "properties": {"@spider": "usps_collection_boxes", "addr:city": "NORFOLK", "addr:country": "US", "addr:full": "1425 RUNNYMEDE RD", "addr:postcode": "23505", "addr:state": "VA", "amenity": "post_box", "brand": "United States Postal Service", "brand:wikidata": "Q668687", "collection_times": "Mo-Sa 09:00", "name": "USPS COLLECTION BOX - BLUE BOX", "nsi_id": "unitedstatespostalservice-a77078", "operator": "United States Postal Service", "operator:short": "USPS", "operator:type": "public", "operator:wikidata": "Q668687", "ref": "2350500021"}, "type": "Feature"}
{"dataset_attributes": {"@spider": "usps_collection_boxes", "spider:collection_time": "2024-02-07T08:23:59.531981"}, "geometry": {"coordinates": [-76.285652139, 36.91646346], "type": "Point"}, "id": "mwr3kguW1eRLpQiiBcd4e-_yoz4=", "properties": {"@spider": "usps_collection_boxes", "addr:city": "NORFOLK", "addr:country": "US", "addr:full": "534 GRANTHAM RD", "addr:postcode": "23505", "addr:state": "VA", "amenity": "post_box", "brand": "United States Postal Service", "brand:wikidata": "Q668687", "collection_times": "Mo-Sa 09:00", "name": "USPS COLLECTION BOX - BLUE BOX", "nsi_id": "unitedstatespostalservice-a77078", "operator": "United States Postal Service", "operator:short": "USPS", "operator:type": "public", "operator:wikidata": "Q668687", "ref": "2350500040"}, "type": "Feature"}
{"dataset_attributes": {"@spider": "usps_collection_boxes", "spider:collection_time": "2024-02-07T08:23:59.531981"}, "geometry": {"coordinates": [-76.271253, 36.91132383], "type": "Point"}, "id": "5VKxK7YXc5cfo_VR4vVfJhBhjZs=", "properties": {"@spider": "usps_collection_boxes", "addr:city": "NORFOLK", "addr:country": "US", "addr:full": "110 SUBURBAN PKWY", "addr:postcode": "23505", "addr:state": "VA", "amenity": "post_box", "brand": "United States Postal Service", "brand:wikidata": "Q668687", "collection_times": "Mo-Sa 09:00", "name": "USPS COLLECTION BOX - BLUE BOX", "nsi_id": "unitedstatespostalservice-a77078", "operator": "United States Postal Service", "operator:short": "USPS", "operator:type": "public", "operator:wikidata": "Q668687", "ref": "2350500049"}, "type": "Feature"}
{"dataset_attributes": {"@spider": "usps_collection_boxes", "spider:collection_time": "2024-02-07T08:23:59.531981"}, "geometry": {"coordinates": [-76.317382444, 36.925402925], "type": "Point"}, "id": "tU4luCYG9_O1k_o_3I5dyUGIBCY=", "properties": {"@spider": "usps_collection_boxes", "addr:city": "NORFOLK", "addr:country": "US", "addr:full": "8031 HAMPTON BLVD", "addr:postcode": "23505", "addr:state": "VA", "amenity": "post_box", "brand": "United States Postal Service", "brand:wikidata": "Q668687", "collection_times": "Mo-Fr 17:00; Sa 13:00", "name": "USPS COLLECTION BOX - BLUE BOX", "note": "ON 12/24 AND 12/31, THIS BOX MAY BE COLLECTED AS EARLY AS 12 NOON.", "nsi_id": "unitedstatespostalservice-a77078", "operator": "United States Postal Service", "operator:short": "USPS", "operator:type": "public", "operator:wikidata": "Q668687", "ref": "2350500052"}, "type": "Feature"}
{"dataset_attributes": {"@spider": "usps_collection_boxes", "spider:collection_time": "2024-02-07T08:23:59.531981"}, "geometry": {"coordinates": [-76.281070674, 36.898255455], "type": "Point"}, "id": "tY6I3g7V5brvK_rRizlL6VK6Spk=", "properties": {"@spider": "usps_collection_boxes", "addr:city": "NORFOLK", "addr:country": "US", "addr:full": "110 KINGSLEY LN", "addr:postcode": "23505", "addr:state": "VA", "amenity": "post_box", "brand": "United States Postal Service", "brand:wikidata": "Q668687", "collection_times": "Mo-Fr 17:00; Sa 13:45", "name": "USPS COLLECTION BOX - BLUE BOX", "note": "ON 12/24 AND 12/31, THIS BOX MAY BE COLLECTED AS EARLY AS 12 NOON.", "nsi_id": "unitedstatespostalservice-a77078", "operator": "United States Postal Service", "operator:short": "USPS", "operator:type": "public", "operator:wikidata": "Q668687", "ref": "2350500055"}, "type": "Feature"}
{"dataset_attributes": {"@spider": "usps_collection_boxes", "spider:collection_time": "2024-02-07T08:23:59.531981"}, "geometry": {"coordinates": [-76.290511712, 36.914848767], "type": "Point"}, "id": "7zm4LNEDU2qRfh_c61yKqVCCXDs=", "properties": {"@spider": "usps_collection_boxes", "addr:city": "NORFOLK", "addr:country": "US", "addr:full": "900 ARMFIELD CIR", "addr:postcode": "23505", "addr:state": "VA", "amenity": "post_box", "brand": "United States Postal Service", "brand:wikidata": "Q668687", "collection_times": "Mo-Sa 09:00", "name": "USPS COLLECTION BOX - BLUE BOX", "nsi_id": "unitedstatespostalservice-a77078", "operator": "United States Postal Service", "operator:short": "USPS", "operator:type": "public", "operator:wikidata": "Q668687", "ref": "2350500058"}, "type": "Feature"}
{"dataset_attributes": {"@spider": "usps_collection_boxes", "spider:collection_time": "2024-02-07T08:23:59.531981"}, "geometry": {"coordinates": [-76.2978604915, 36.9189735294], "type": "Point"}, "id": "I61q_PaLvU7EXqGe0zJX0yKLVf4=", "properties": {"@spider": "usps_collection_boxes", "addr:city": "NORFOLK", "addr:country": "US", "addr:full": "1355 INTERNATIONAL TERMINAL BLVD", "addr:postcode": "23505", "addr:state": "VA", "amenity": "post_box", "brand": "United States Postal Service", "brand:wikidata": "Q668687", "collection_times": "Mo-Fr 17:00; Sa 13:00", "name": "USPS COLLECTION BOX - BLUE BOX", "note": "ON 12/24 AND 12/31, THIS BOX MAY BE COLLECTED AS EARLY AS 12 NOON.", "nsi_id": "unitedstatespostalservice-a77078", "operator": "United States Postal Service", "operator:short": "USPS", "operator:type": "public", "operator:wikidata": "Q668687", "ref": "2350500065"}, "type": "Feature"}
{"dataset_attributes": {"@spider": "usps_collection_boxes", "spider:collection_time": "2024-02-07T08:23:59.531981"}, "geometry": {"coordinates": [-76.312883617, 36.919973988], "type": "Point"}, "id": "KYyUCDBFAL1GymoLQdRGY-rM7YY=", "properties": {"@spider": "usps_collection_boxes", "addr:city": "NORFOLK", "addr:country": "US", "addr:full": "7811 HAMPTON BLVD", "addr:postcode": "23505", "addr:state": "VA", "amenity": "post_box", "brand": "United States Postal Service", "brand:wikidata": "Q668687", "collection_times": "Mo-Sa 09:00", "name": "USPS COLLECTION BOX - BLUE BOX", "nsi_id": "unitedstatespostalservice-a77078", "operator": "United States Postal Service", "operator:short": "USPS", "operator:type": "public", "operator:wikidata": "Q668687", "ref": "2350500066"}, "type": "Feature"}
{"dataset_attributes": {"@spider": "usps_collection_boxes", "spider:collection_time": "2024-02-07T08:23:59.531981"}, "geometry": {"coordinates": [-76.314365909, 36.913531546], "type": "Point"}, "id": "u_1bv9skA6pTJdCkIfCo0g-T8Ck=", "properties": {"@spider": "usps_collection_boxes", "addr:city": "NORFOLK", "addr:country": "US", "addr:full": "1500 CLONCURRY RD", "addr:postcode": "23505", "addr:state": "VA", "amenity": "post_box", "brand": "United States Postal Service", "brand:wikidata": "Q668687", "collection_times": "Mo-Sa 09:00", "name": "USPS COLLECTION BOX - BLUE BOX", "nsi_id": "unitedstatespostalservice-a77078", "operator": "United States Postal Service", "operator:short": "USPS", "operator:type": "public", "operator:wikidata": "Q668687", "ref": "2350500067"}, "type": "Feature"}
{"dataset_attributes": {"@spider": "usps_collection_boxes", "spider:collection_time": "2024-02-07T08:23:59.531981"}, "geometry": {"coordinates": [-76.27209865, 36.917179334], "type": "Point"}, "id": "0nB3UYoVjsoFo9YKmZB52TXdimo=", "properties": {"@spider": "usps_collection_boxes", "addr:city": "NORFOLK", "addr:country": "US", "addr:full": "7712 GRANBY ST", "addr:postcode": "23505", "addr:state": "VA", "amenity": "post_box", "brand": "United States Postal Service", "brand:wikidata": "Q668687", "collection_times": "Mo-Fr 16:45", "name": "USPS COLLECTION BOX - EXPRESS", "note": "ON 12/24 AND 12/31, THIS BOX MAY BE COLLECTED AS EARLY AS 12 NOON.", "nsi_id": "unitedstatespostalservice-a77078", "operator": "United States Postal Service", "operator:short": "USPS", "operator:type": "public", "operator:wikidata": "Q668687", "ref": "2350500073"}, "type": "Feature"}
{"dataset_attributes": {"@spider": "usps_collection_boxes", "spider:collection_time": "2024-02-07T08:23:59.531981"}, "geometry": {"coordinates": [-76.272823416, 36.91176483], "type": "Point"}, "id": "GgVlOdx9V08me9iXf2h-sZQ50yA=", "properties": {"@spider": "usps_collection_boxes", "addr:city": "NORFOLK", "addr:country": "US", "addr:full": "100 SUBURBAN PKWY", "addr:postcode": "23505", "addr:state": "VA", "amenity": "post_box", "brand": "United States Postal Service", "brand:wikidata": "Q668687", "collection_times": "Mo-Sa 09:00", "name": "USPS COLLECTION BOX - BLUE BOX", "nsi_id": "unitedstatespostalservice-a77078", "operator": "United States Postal Service", "operator:short": "USPS", "operator:type": "public", "operator:wikidata": "Q668687", "ref": "2350500079"}, "type": "Feature"}
{"dataset_attributes": {"@spider": "usps_collection_boxes", "spider:collection_time": "2024-02-07T08:23:59.531981"}, "geometry": {"coordinates": [-76.277946118, 36.943564057], "type": "Point"}, "id": "X7DfQvqEYj0G543sc2D2EWRzjuY=", "properties": {"@spider": "usps_collection_boxes", "addr:city": "NORFOLK", "addr:country": "US", "addr:full": "500 C ST", "addr:postcode": "23505", "addr:state": "VA", "amenity": "post_box", "brand": "United States Postal Service", "brand:wikidata": "Q668687", "collection_times": "Mo-Sa 09:00", "name": "USPS COLLECTION BOX - BLUE BOX", "nsi_id": "unitedstatespostalservice-a77078", "operator": "United States Postal Service", "operator:short": "USPS", "operator:type": "public", "operator:wikidata": "Q668687", "ref": "2350500083"}, "type": "Feature"}
{"dataset_attributes": {"@spider": "usps_collection_boxes", "spider:collection_time": "2024-02-07T08:23:59.531981"}, "geometry": {"coordinates": [-76.2955209596, 36.9205250064], "type": "Point"}, "id": "eSdeUaMqXTlZ0MUvdidFFw2DTdc=", "properties": {"@spider": "usps_collection_boxes", "addr:city": "NORFOLK", "addr:country": "US", "addr:full": "400 WALSINGHAM WAY", "addr:postcode": "23505", "addr:state": "VA", "amenity": "post_box", "brand": "United States Postal Service", "brand:wikidata": "Q668687", "collection_times": "Mo-Sa 09:00", "name": "USPS COLLECTION BOX - BLUE BOX", "nsi_id": "unitedstatespostalservice-a77078", "operator": "United States Postal Service", "operator:short": "USPS", "operator:type": "public", "operator:wikidata": "Q668687", "ref": "2350500090"}, "type": "Feature"}
{"dataset_attributes": {"@spider": "usps_collection_boxes", "spider:collection_time": "2024-02-07T08:23:59.531981"}, "geometry": {"coordinates": [-76.309332258, 36.917039514], "type": "Point"}, "id": "WF6597zKdd8UPv40srYXpw3xY6E=", "properties": {"@spider": "usps_collection_boxes", "addr:city": "NORFOLK", "addr:country": "US", "addr:full": "7800 HAMPTON BLVD", "addr:postcode": "23505", "addr:state": "VA", "amenity": "post_box", "brand": "United States Postal Service", "brand:wikidata": "Q668687", "collection_times": "Mo-Fr 13:00", "name": "USPS COLLECTION BOX - BLUE BOX", "note": "ON 12/24 AND 12/31, THIS BOX MAY BE COLLECTED AS EARLY AS 12 NOON.", "nsi_id": "unitedstatespostalservice-a77078", "operator": "United States Postal Service", "operator:short": "USPS", "operator:type": "public", "operator:wikidata": "Q668687", "ref": "2350500092"}, "type": "Feature"}
{"dataset_attributes": {"@spider": "usps_collection_boxes", "spider:collection_time": "2024-02-07T08:23:59.531981"}, "geometry": {"coordinates": [-76.27209865, 36.917179334], "type": "Point"}, "id": "NnnaBJJ-bmAw_RFVtcHB3FstTlo=", "properties": {"@spider": "usps_collection_boxes", "addr:city": "NORFOLK", "addr:country": "US", "addr:full": "7712 GRANBY ST", "addr:postcode": "23505", "addr:state": "VA", "amenity": "post_box", "brand": "United States Postal Service", "brand:wikidata": "Q668687", "collection_times": "Mo-Fr 17:00; Sa 14:00", "name": "USPS COLLECTION BOX - PO LOBBY", "note": "ON 12/24 AND 12/31, THIS BOX MAY BE COLLECTED AS EARLY AS 12 NOON.", "nsi_id": "unitedstatespostalservice-a77078", "operator": "United States Postal Service", "operator:short": "USPS", "operator:type": "public", "operator:wikidata": "Q668687", "ref": "2350500098"}, "type": "Feature"}
{"dataset_attributes": {"@spider": "usps_collection_boxes", "spider:collection_time": "2024-02-07T08:23:59.531981"}, "geometry": {"coordinates": [-76.308770495, 36.870532177], "type": "Point"}, "id": "cESqR2XSyKjaPzvjkc_JcxXDXkM=", "properties": {"@spider": "usps_collection_boxes", "addr:city": "NORFOLK", "addr:country": "US", "addr:full": "1400 WESTOVER AVE", "addr:postcode": "23507", "addr:state": "VA", "amenity": "post_box", "brand": "United States Postal Service", "brand:wikidata": "Q668687", "collection_times": "Mo-Sa 09:00", "name": "USPS COLLECTION BOX - BLUE BOX", "nsi_id": "unitedstatespostalservice-a77078", "operator": "United States Postal Service", "operator:short": "USPS", "operator:type": "public", "operator:wikidata": "Q668687", "ref": "2350700003"}, "type": "Feature"}
{"dataset_attributes": {"@spider": "usps_collection_boxes", "spider:collection_time": "2024-02-07T08:23:59.531981"}, "geometry": {"coordinates": [-76.2976172, 36.86423], "type": "Point"}, "id": "uPM3_z5cgpSjLBUToyi8u9rAqW0=", "properties": {"@spider": "usps_collection_boxes", "addr:city": "NORFOLK", "addr:country": "US", "addr:full": "703 MANTEO AVE", "addr:postcode": "23507", "addr:state": "VA", "amenity": "post_box", "brand": "United States Postal Service", "brand:wikidata": "Q668687", "collection_times": "Mo-Sa 09:00", "name": "USPS COLLECTION BOX - BLUE BOX", "nsi_id": "unitedstatespostalservice-a77078", "operator": "United States Postal Service", "operator:short": "USPS", "operator:type": "public", "operator:wikidata": "Q668687", "ref": "2350700008"}, "type": "Feature"}
{"dataset_attributes": {"@spider": "usps_collection_boxes", "spider:collection_time": "2024-02-07T08:23:59.531981"}, "geometry": {"coordinates": [-76.29836, 36.861685], "type": "Point"}, "id": "1GE0RatROzFVRwTtcOMBDV2uVdk=", "properties": {"@spider": "usps_collection_boxes", "addr:city": "NORFOLK", "addr:country": "US", "addr:full": "2204 CLAREMONT AVE", "addr:postcode": "23507", "addr:state": "VA", "amenity": "post_box", "brand": "United States Postal Service", "brand:wikidata": "Q668687", "collection_times": "Mo-Sa 09:00", "name": "USPS COLLECTION BOX - BLUE BOX", "nsi_id": "unitedstatespostalservice-a77078", "operator": "United States Postal Service", "operator:short": "USPS", "operator:type": "public", "operator:wikidata": "Q668687", "ref": "2350700010"}, "type": "Feature"}
{"dataset_attributes": {"@spider": "usps_collection_boxes", "spider:collection_time": "2024-02-07T08:23:59.531981"}, "geometry": {"coordinates": [-76.304844674, 36.860055703], "type": "Point"}, "id": "8ygRA3SxkIXBr-dl53eyzm5V0sk=", "properties": {"@spider": "usps_collection_boxes", "addr:city": "NORFOLK", "addr:country": "US", "addr:full": "400 GRESHAM DR", "addr:postcode": "23507", "addr:state": "VA", "amenity": "post_box", "brand": "United States Postal Service", "brand:wikidata": "Q668687", "collection_times": "Mo-Fr 16:30", "name": "USPS COLLECTION BOX - BLUE BOX", "note": "ON 12/24 AND 12/31, THIS BOX MAY BE COLLECTED AS EARLY AS 12 NOON.", "nsi_id": "unitedstatespostalservice-a77078", "operator": "United States Postal Service", "operator:short": "USPS", "operator:type": "public", "operator:wikidata": "Q668687", "ref": "2350700011"}, "type": "Feature"}
{"dataset_attributes": {"@spider": "usps_collection_boxes", "spider:collection_time": "2024-02-07T08:23:59.531981"}, "geometry": {"coordinates": [-76.29836, 36.861685], "type": "Point"}, "id": "NQ3ymPLFY56hgrwUHAj0mr319nE=", "properties": {"@spider": "usps_collection_boxes", "addr:city": "NORFOLK", "addr:country": "US", "addr:full": "401 COLLEY AVE", "addr:postcode": "23507", "addr:state": "VA", "amenity": "post_box", "brand": "United States Postal Service", "brand:wikidata": "Q668687", "collection_times": "Mo-Fr 15:00; Sa 13:00", "name": "USPS COLLECTION BOX - BLUE BOX", "note": "ON 12/24 AND 12/31, THIS BOX MAY BE COLLECTED AS EARLY AS 12 NOON.", "nsi_id": "unitedstatespostalservice-a77078", "operator": "United States Postal Service", "operator:short": "USPS", "operator:type": "public", "operator:wikidata": "Q668687", "ref": "2350700012"}, "type": "Feature"}
{"dataset_attributes": {"@spider": "usps_collection_boxes", "spider:collection_time": "2024-02-07T08:23:59.531981"}, "geometry": {"coordinates": [-76.302065816, 36.864552855], "type": "Point"}, "id": "CmhS5dztjgik5Po9iEwxruQL61M=", "properties": {"@spider": "usps_collection_boxes", "addr:city": "NORFOLK", "addr:country": "US", "addr:full": "901 HAMPTON BLVD", "addr:postcode": "23507", "addr:state": "VA", "amenity": "post_box", "brand": "United States Postal Service", "brand:wikidata": "Q668687", "collection_times": "Mo-Fr 17:00; Sa 13:00", "name": "USPS COLLECTION BOX - BLUE BOX", "note": "ON 12/24 AND 12/31, THIS BOX MAY BE COLLECTED AS EARLY AS 12 NOON.", "nsi_id": "unitedstatespostalservice-a77078", "operator": "United States Postal Service", "operator:short": "USPS", "operator:type": "public", "operator:wikidata": "Q668687", "ref": "2350700015"}, "type": "Feature"}
{"dataset_attributes": {"@spider": "usps_collection_boxes", "spider:collection_time": "2024-02-07T08:23:59.531981"}, "geometry": {"coordinates": [-76.303492186, 36.900912437], "type": "Point"}, "id": "79UWiIG7T0k7UNtOgPC2ZyC4crQ=", "properties": {"@spider": "usps_collection_boxes", "addr:city": "NORFOLK", "addr:country": "US", "addr:full": "6500 HAMPTON BLVD", "addr:postcode": "23508", "addr:state": "VA", "amenity": "post_box", "brand": "United States Postal Service", "brand:wikidata": "Q668687", "collection_times": "Mo-Sa 09:00", "name": "USPS COLLECTION BOX - BLUE BOX", "nsi_id": "unitedstatespostalservice-a77078", "operator": "United States Postal Service", "operator:short": "USPS", "operator:type": "public", "operator:wikidata": "Q668687", "ref": "2350800001"}, "type": "Feature"}
{"dataset_attributes": {"@spider": "usps_collection_boxes", "spider:collection_time": "2024-02-07T08:23:59.531981"}, "geometry": {"coordinates": [-76.30240871, 36.886708844], "type": "Point"}, "id": "hcI0ZHlad5Lj-2ygy4OklLSmG4w=", "properties": {"@spider": "usps_collection_boxes", "addr:city": "NORFOLK", "addr:country": "US", "addr:full": "4712 HAMPTON BLVD", "addr:postcode": "23508", "addr:state": "VA", "amenity": "post_box", "brand": "United States Postal Service", "brand:wikidata": "Q668687", "collection_times": "Mo-Sa 12:00", "name": "USPS COLLECTION BOX - BLUE BOX", "nsi_id": "unitedstatespostalservice-a77078", "operator": "United States Postal Service", "operator:short": "USPS", "operator:type": "public", "operator:wikidata": "Q668687", "ref": "2350800002"}, "type": "Feature"}
{"dataset_attributes": {"@spider": "usps_collection_boxes", "spider:collection_time": "2024-02-07T08:23:59.531981"}, "geometry": {"coordinates": [-76.30018309, 36.896075475], "type": "Point"}, "id": "EZSvBMTtKxsMApH814JtZ-AS_9k=", "properties": {"@spider": "usps_collection_boxes", "addr:city": "NORFOLK", "addr:country": "US", "addr:full": "1106 LARCHMONT CRES", "addr:postcode": "23508", "addr:state": "VA", "amenity": "post_box", "brand": "United States Postal Service", "brand:wikidata": "Q668687", "collection_times": "Mo-Sa 12:00", "name": "USPS COLLECTION BOX - BLUE BOX", "nsi_id": "unitedstatespostalservice-a77078", "operator": "United States Postal Service", "operator:short": "USPS", "operator:type": "public", "operator:wikidata": "Q668687", "ref": "2350800010"}, "type": "Feature"}
{"dataset_attributes": {"@spider": "usps_collection_boxes", "spider:collection_time": "2024-02-07T08:23:59.531981"}, "geometry": {"coordinates": [-76.287143958, 36.88309405], "type": "Point"}, "id": "-Z-9C8_dwlv58Lak9mz9Qqk3-IU=", "properties": {"@spider": "usps_collection_boxes", "addr:city": "NORFOLK", "addr:country": "US", "addr:full": "4313 COLONIAL AVE", "addr:postcode": "23508", "addr:state": "VA", "amenity": "post_box", "brand": "United States Postal Service", "brand:wikidata": "Q668687", "collection_times": "Mo-Sa 12:00", "name": "USPS COLLECTION BOX - BLUE BOX", "nsi_id": "unitedstatespostalservice-a77078", "operator": "United States Postal Service", "operator:short": "USPS", "operator:type": "public", "operator:wikidata": "Q668687", "ref": "2350800025"}, "type": "Feature"}
{"dataset_attributes": {"@spider": "usps_collection_boxes", "spider:collection_time": "2024-02-07T08:23:59.531981"}, "geometry": {"coordinates": [-76.306122618, 36.887642475], "type": "Point"}, "id": "Jd8cCkFnZJhziNRIYmtnH8jr3yU=", "properties": {"@spider": "usps_collection_boxes", "addr:city": "NORFOLK", "addr:country": "US", "addr:full": "1300 49TH ST", "addr:postcode": "23508", "addr:state": "VA", "amenity": "post_box", "brand": "United States Postal Service", "brand:wikidata": "Q668687", "collection_times": "Mo-Sa 11:15", "name": "USPS COLLECTION BOX - BLUE BOX", "nsi_id": "unitedstatespostalservice-a77078", "operator": "United States Postal Service", "operator:short": "USPS", "operator:type": "public", "operator:wikidata": "Q668687", "ref": "2350800042"}, "type": "Feature"}
{"dataset_attributes": {"@spider": "usps_collection_boxes", "spider:collection_time": "2024-02-07T08:23:59.531981"}, "geometry": {"coordinates": [-76.294697119, 36.880236], "type": "Point"}, "id": "eWvEEmu5OnUMyci0G1u78n9NOIA=", "properties": {"@spider": "usps_collection_boxes", "addr:city": "NORFOLK", "addr:country": "US", "addr:full": "3800 COLLEY AVE", "addr:postcode": "23508", "addr:state": "VA", "amenity": "post_box", "brand": "United States Postal Service", "brand:wikidata": "Q668687", "collection_times": "Mo-Fr 17:00", "name": "USPS COLLECTION BOX - PO LOBBY", "note": "ON 12/24 AND 12/31, THIS BOX MAY BE COLLECTED AS EARLY AS 12 NOON.", "nsi_id": "unitedstatespostalservice-a77078", "operator": "United States Postal Service", "operator:short": "USPS", "operator:type": "public", "operator:wikidata": "Q668687", "ref": "2350800066"}, "type": "Feature"}
{"dataset_attributes": {"@spider": "usps_collection_boxes", "spider:collection_time": "2024-02-07T08:23:59.531981"}, "geometry": {"coordinates": [-76.259432005, 36.88607002], "type": "Point"}, "id": "mLn0ZFlnqpeqeEAi6NQLLoTW9zk=", "properties": {"@spider": "usps_collection_boxes", "addr:city": "NORFOLK", "addr:country": "US", "addr:full": "2008 CROMWELL DR", "addr:postcode": "23509", "addr:state": "VA", "amenity": "post_box", "brand": "United States Postal Service", "brand:wikidata": "Q668687", "collection_times": "Mo-Sa 09:00", "name": "USPS COLLECTION BOX - BLUE BOX", "nsi_id": "unitedstatespostalservice-a77078", "operator": "United States Postal Service", "operator:short": "USPS", "operator:type": "public", "operator:wikidata": "Q668687", "ref": "2350900010"}, "type": "Feature"}
{"dataset_attributes": {"@spider": "usps_collection_boxes", "spider:collection_time": "2024-02-07T08:23:59.531981"}, "geometry": {"coordinates": [-76.259028672, 36.897034448], "type": "Point"}, "id": "IMDVF79qSOhfdxBvD3Qp34OgdgI=", "properties": {"@spider": "usps_collection_boxes", "addr:city": "NORFOLK", "addr:country": "US", "addr:full": "700 MUSKOGEE AVE", "addr:postcode": "23509", "addr:state": "VA", "amenity": "post_box", "brand": "United States Postal Service", "brand:wikidata": "Q668687", "collection_times": "Mo-Fr 18:00; Sa 12:00", "name": "USPS COLLECTION BOX - BLUE BOX", "note": "ON 12/24 AND 12/31, THIS BOX MAY BE COLLECTED AS EARLY AS 12 NOON.", "nsi_id": "unitedstatespostalservice-a77078", "operator": "United States Postal Service", "operator:short": "USPS", "operator:type": "public", "operator:wikidata": "Q668687", "ref": "2350900013"}, "type": "Feature"}
{"dataset_attributes": {"@spider": "usps_collection_boxes", "spider:collection_time": "2024-02-07T08:23:59.531981"}, "geometry": {"coordinates": [-76.267686254, 36.881551005], "type": "Point"}, "id": "Ih7mOAUBTkogyNyWJlu7GxNSLp8=", "properties": {"@spider": "usps_collection_boxes", "addr:city": "NORFOLK", "addr:country": "US", "addr:full": "1540 ASHLAND AVE", "addr:postcode": "23509", "addr:state": "VA", "amenity": "post_box", "brand": "United States Postal Service", "brand:wikidata": "Q668687", "collection_times": "Mo-Sa 09:00", "name": "USPS COLLECTION BOX - BLUE BOX", "nsi_id": "unitedstatespostalservice-a77078", "operator": "United States Postal Service", "operator:short": "USPS", "operator:type": "public", "operator:wikidata": "Q668687", "ref": "2350900022"}, "type": "Feature"}
{"dataset_attributes": {"@spider": "usps_collection_boxes", "spider:collection_time": "2024-02-07T08:23:59.531981"}, "geometry": {"coordinates": [-76.266376603, 36.870464408], "type": "Point"}, "id": "X0XO_96tl6fXefDD7CLd3ALYriQ=", "properties": {"@spider": "usps_collection_boxes", "addr:city": "NORFOLK", "addr:country": "US", "addr:full": "2655 TIDEWATER DR", "addr:postcode": "23509", "addr:state": "VA", "amenity": "post_box", "brand": "United States Postal Service", "brand:wikidata": "Q668687", "collection_times": "Mo-Fr 18:00; Sa 12:00", "name": "USPS COLLECTION BOX - BLUE BOX", "note": "ON 12/24 AND 12/31, THIS BOX MAY BE COLLECTED AS EARLY AS 12 NOON.", "nsi_id": "unitedstatespostalservice-a77078", "operator": "United States Postal Service", "operator:short": "USPS", "operator:type": "public", "operator:wikidata": "Q668687", "ref": "2350900054"}, "type": "Feature"}
{"dataset_attributes": {"@spider": "usps_collection_boxes", "spider:collection_time": "2024-02-07T08:23:59.531981"}, "geometry": {"coordinates": [-76.266376603, 36.870464408], "type": "Point"}, "id": "paLLTzeerZo2_bdcZSWyGsY7IHk=", "properties": {"@spider": "usps_collection_boxes", "addr:city": "NORFOLK", "addr:country": "US", "addr:full": "2655 TIDEWATER DR", "addr:postcode": "23509", "addr:state": "VA", "amenity": "post_box", "brand": "United States Postal Service", "brand:wikidata": "Q668687", "collection_times": "Mo-Fr 18:00; Sa 12:00", "name": "USPS COLLECTION BOX - EXPRESS", "note": "ON 12/24 AND 12/31, THIS BOX MAY BE COLLECTED AS EARLY AS 12 NOON.", "nsi_id": "unitedstatespostalservice-a77078", "operator": "United States Postal Service", "operator:short": "USPS", "operator:type": "public", "operator:wikidata": "Q668687", "ref": "2350900056"}, "type": "Feature"}
{"dataset_attributes": {"@spider": "usps_collection_boxes", "spider:collection_time": "2024-02-07T08:23:59.531981"}, "geometry": {"coordinates": [-76.2629130803, 36.8791991463], "type": "Point"}, "id": "3ZO0u8fEuTKPcMrgCkknr3xNtu4=", "properties": {"@spider": "usps_collection_boxes", "addr:city": "NORFOLK", "addr:country": "US", "addr:full": "3242 TIDEWATER DR", "addr:postcode": "23509", "addr:state": "VA", "amenity": "post_box", "brand": "United States Postal Service", "brand:wikidata": "Q668687", "collection_times": "Mo-Sa 09:00", "name": "USPS COLLECTION BOX - BLUE BOX", "nsi_id": "unitedstatespostalservice-a77078", "operator": "United States Postal Service", "operator:short": "USPS", "operator:type": "public", "operator:wikidata": "Q668687", "ref": "2350900059"}, "type": "Feature"}
{"dataset_attributes": {"@spider": "usps_collection_boxes", "spider:collection_time": "2024-02-07T08:23:59.531981"}, "geometry": {"coordinates": [-76.250418153, 36.870041032], "type": "Point"}, "id": "qzCCqOgSCOfroe-HgKYoBDrFwZ4=", "properties": {"@spider": "usps_collection_boxes", "addr:city": "NORFOLK", "addr:country": "US", "addr:full": "2700 CROMWELL RD", "addr:postcode": "23509", "addr:state": "VA", "amenity": "post_box", "brand": "United States Postal Service", "brand:wikidata": "Q668687", "collection_times": "Mo-Fr 18:00; Sa 12:00", "name": "USPS COLLECTION BOX - BLUE BOX", "note": "ON 12/24 AND 12/31, THIS BOX MAY BE COLLECTED AS EARLY AS 12 NOON.", "nsi_id": "unitedstatespostalservice-a77078", "operator": "United States Postal Service", "operator:short": "USPS", "operator:type": "public", "operator:wikidata": "Q668687", "ref": "2350900061"}, "type": "Feature"}
{"dataset_attributes": {"@spider": "usps_collection_boxes", "spider:collection_time": "2024-02-07T08:23:59.531981"}, "geometry": {"coordinates": [-76.266376603, 36.870464408], "type": "Point"}, "id": "Vb_2vhHwV5jTQg3h2BD29Yzt8As=", "properties": {"@spider": "usps_collection_boxes", "addr:city": "NORFOLK", "addr:country": "US", "addr:full": "2655 TIDEWATER DR", "addr:postcode": "23509", "addr:state": "VA", "amenity": "post_box", "brand": "United States Postal Service", "brand:wikidata": "Q668687", "collection_times": "Mo-Fr 17:00; Sa 14:45", "name": "USPS COLLECTION BOX - PO LOBBY", "note": "ON 12/24 AND 12/31, THIS BOX MAY BE COLLECTED AS EARLY AS 12 NOON.", "nsi_id": "unitedstatespostalservice-a77078", "operator": "United States Postal Service", "operator:short": "USPS", "operator:type": "public", "operator:wikidata": "Q668687", "ref": "2350900063"}, "type": "Feature"}
{"dataset_attributes": {"@spider": "usps_collection_boxes", "spider:collection_time": "2024-02-07T08:23:59.531981"}, "geometry": {"coordinates": [-76.267078124, 36.889944791], "type": "Point"}, "id": "rIbR2f-pADIk8eSoIfx8Wdc5Xyc=", "properties": {"@spider": "usps_collection_boxes", "addr:city": "NORFOLK", "addr:country": "US", "addr:full": "1475 HARMOTT AVE", "addr:postcode": "23509", "addr:state": "VA", "amenity": "post_box", "brand": "United States Postal Service", "brand:wikidata": "Q668687", "collection_times": "Mo-Sa 09:00", "name": "USPS COLLECTION BOX - BLUE BOX", "nsi_id": "unitedstatespostalservice-a77078", "operator": "United States Postal Service", "operator:short": "USPS", "operator:type": "public", "operator:wikidata": "Q668687", "ref": "2350900068"}, "type": "Feature"}
{"dataset_attributes": {"@spider": "usps_collection_boxes", "spider:collection_time": "2024-02-07T08:23:59.531981"}, "geometry": {"coordinates": [-76.262050421, 36.867915294], "type": "Point"}, "id": "r62T-azxJO-UbYxhtrei-Lkq7ZM=", "properties": {"@spider": "usps_collection_boxes", "addr:city": "NORFOLK", "addr:country": "US", "addr:full": "2604 ARGONNE AVE", "addr:postcode": "23509", "addr:state": "VA", "amenity": "post_box", "brand": "United States Postal Service", "brand:wikidata": "Q668687", "collection_times": "Mo-Sa 09:00", "name": "USPS COLLECTION BOX - BLUE BOX", "nsi_id": "unitedstatespostalservice-a77078", "operator": "United States Postal Service", "operator:short": "USPS", "operator:type": "public", "operator:wikidata": "Q668687", "ref": "2350900069"}, "type": "Feature"}
{"dataset_attributes": {"@spider": "usps_collection_boxes", "spider:collection_time": "2024-02-07T08:23:59.531981"}, "geometry": {"coordinates": [-76.266376603, 36.870464408], "type": "Point"}, "id": "FZaoKYOiR9mRe7Bo_hDKjLe7Dd0=", "properties": {"@spider": "usps_collection_boxes", "addr:city": "NORFOLK", "addr:country": "US", "addr:full": "2655 TIDEWATER DR", "addr:postcode": "23509", "addr:state": "VA", "amenity": "post_box", "brand": "United States Postal Service", "brand:wikidata": "Q668687", "collection_times": "Mo-Fr 17:00", "name": "USPS COLLECTION BOX - PO LOBBY", "note": "ON 12/24 AND 12/31, THIS BOX MAY BE COLLECTED AS EARLY AS 12 NOON.", "nsi_id": "unitedstatespostalservice-a77078", "operator": "United States Postal Service", "operator:short": "USPS", "operator:type": "public", "operator:wikidata": "Q668687", "ref": "2350900082"}, "type": "Feature"}
{"dataset_attributes": {"@spider": "usps_collection_boxes", "spider:collection_time": "2024-02-07T08:23:59.531981"}, "geometry": {"coordinates": [-76.293571133, 36.852116543], "type": "Point"}, "id": "HFJJp_3VH1NRqYifSrDyZUXkHrI=", "properties": {"@spider": "usps_collection_boxes", "addr:city": "NORFOLK", "addr:country": "US", "addr:full": "301 W FREEMASON ST", "addr:postcode": "23510", "addr:state": "VA", "amenity": "post_box", "brand": "United States Postal Service", "brand:wikidata": "Q668687", "collection_times": "Mo-Fr 17:30; Sa 10:30", "name": "USPS COLLECTION BOX - BLUE BOX", "note": "ON 12/24 AND 12/31, THIS BOX MAY BE COLLECTED AS EARLY AS 12 NOON.", "nsi_id": "unitedstatespostalservice-a77078", "operator": "United States Postal Service", "operator:short": "USPS", "operator:type": "public", "operator:wikidata": "Q668687", "ref": "2351000001"}, "type": "Feature"}
{"dataset_attributes": {"@spider": "usps_collection_boxes", "spider:collection_time": "2024-02-07T08:23:59.531981"}, "geometry": {"coordinates": [-76.289872531, 36.854334449], "type": "Point"}, "id": "2-WTIEE4USj1-FL5oa_XKwZOXTg=", "properties": {"@spider": "usps_collection_boxes", "addr:city": "NORFOLK", "addr:country": "US", "addr:full": "150 W BRAMBLETON AVE", "addr:postcode": "23510", "addr:state": "VA", "amenity": "post_box", "brand": "United States Postal Service", "brand:wikidata": "Q668687", "collection_times": "Mo-Fr 17:30; Sa 10:30", "name": "USPS COLLECTION BOX - BLUE BOX", "note": "ON 12/24 AND 12/31, THIS BOX MAY BE COLLECTED AS EARLY AS 12 NOON.", "nsi_id": "unitedstatespostalservice-a77078", "operator": "United States Postal Service", "operator:short": "USPS", "operator:type": "public", "operator:wikidata": "Q668687", "ref": "2351000006"}, "type": "Feature"}
{"dataset_attributes": {"@spider": "usps_collection_boxes", "spider:collection_time": "2024-02-07T08:23:59.531981"}, "geometry": {"coordinates": [-76.288824331, 36.845424115], "type": "Point"}, "id": "YQUKE6Z2kWCzRfs9d92rD1AfpT0=", "properties": {"@spider": "usps_collection_boxes", "addr:city": "NORFOLK", "addr:country": "US", "addr:full": "1 COMMERCIAL PL", "addr:postcode": "23510", "addr:state": "VA", "amenity": "post_box", "brand": "United States Postal Service", "brand:wikidata": "Q668687", "collection_times": "Mo-Fr 16:45; Sa 10:30", "name": "USPS COLLECTION BOX - BLUE BOX", "note": "ON 12/24 AND 12/31, THIS BOX MAY BE COLLECTED AS EARLY AS 12 NOON.", "nsi_id": "unitedstatespostalservice-a77078", "operator": "United States Postal Service", "operator:short": "USPS", "operator:type": "public", "operator:wikidata": "Q668687", "ref": "2351000018"}, "type": "Feature"}
{"dataset_attributes": {"@spider": "usps_collection_boxes", "spider:collection_time": "2024-02-07T08:23:59.531981"}, "geometry": {"coordinates": [-76.289147673, 36.84433006], "type": "Point"}, "id": "pAIhfVNF6740frCxJn5AA7Xs3NI=", "properties": {"@spider": "usps_collection_boxes", "addr:city": "NORFOLK", "addr:country": "US", "addr:full": "777 WATERSIDE DR", "addr:postcode": "23510", "addr:state": "VA", "amenity": "post_box", "brand": "United States Postal Service", "brand:wikidata": "Q668687", "collection_times": "Mo-Fr 16:15; Sa 10:30", "name": "USPS COLLECTION BOX - BLUE BOX", "note": "ON 12/24 AND 12/31, THIS BOX MAY BE COLLECTED AS EARLY AS 12 NOON.", "nsi_id": "unitedstatespostalservice-a77078", "operator": "United States Postal Service", "operator:short": "USPS", "operator:type": "public", "operator:wikidata": "Q668687", "ref": "2351000031"}, "type": "Feature"}
{"dataset_attributes": {"@spider": "usps_collection_boxes", "spider:collection_time": "2024-02-07T08:23:59.531981"}, "geometry": {"coordinates": [-76.291256767, 36.844862096], "type": "Point"}, "id": "LklPwD47qDhizVSz9Tz-yyC0jsc=", "properties": {"@spider": "usps_collection_boxes", "addr:city": "NORFOLK", "addr:country": "US", "addr:full": "333 WATERSIDE DR", "addr:postcode": "23510", "addr:state": "VA", "amenity": "post_box", "brand": "United States Postal Service", "brand:wikidata": "Q668687", "collection_times": "Mo-Fr 16:15; Sa 10:30", "name": "USPS COLLECTION BOX - BLUE BOX", "note": "ON 12/24 AND 12/31, THIS BOX MAY BE COLLECTED AS EARLY AS 12 NOON.", "nsi_id": "unitedstatespostalservice-a77078", "operator": "United States Postal Service", "operator:short": "USPS", "operator:type": "public", "operator:wikidata": "Q668687", "ref": "2351000034"}, "type": "Feature"}
{"dataset_attributes": {"@spider": "usps_collection_boxes", "spider:collection_time": "2024-02-07T08:23:59.531981"}, "geometry": {"coordinates": [-76.285857502, 36.846180735], "type": "Point"}, "id": "OIpZWRH1bPGXw2IKj3RWPrU2XGY=", "properties": {"@spider": "usps_collection_boxes", "addr:city": "NORFOLK", "addr:country": "US", "addr:full": "150 SAINT PAULS BLVD", "addr:postcode": "23510", "addr:state": "VA", "amenity": "post_box", "brand": "United States Postal Service", "brand:wikidata": "Q668687", "collection_times": "Mo-Fr 17:00; Sa 10:30", "name": "USPS COLLECTION BOX - BLUE BOX", "note": "ON 12/24 AND 12/31, THIS BOX MAY BE COLLECTED AS EARLY AS 12 NOON.", "nsi_id": "unitedstatespostalservice-a77078", "operator": "United States Postal Service", "operator:short": "USPS", "operator:type": "public", "operator:wikidata": "Q668687", "ref": "2351000035"}, "type": "Feature"}
{"dataset_attributes": {"@spider": "usps_collection_boxes", "spider:collection_time": "2024-02-07T08:23:59.531981"}, "geometry": {"coordinates": [-76.284852712, 36.846755149], "type": "Point"}, "id": "grjnperu6f4-aJHss0RMWy1955Y=", "properties": {"@spider": "usps_collection_boxes", "addr:city": "NORFOLK", "addr:country": "US", "addr:full": "800 E CITY HALL AVE", "addr:postcode": "23510", "addr:state": "VA", "amenity": "post_box", "brand": "United States Postal Service", "brand:wikidata": "Q668687", "collection_times": "Mo-Fr 17:00; Sa 10:30", "name": "USPS COLLECTION BOX - BLUE BOX", "note": "ON 12/24 AND 12/31, THIS BOX MAY BE COLLECTED AS EARLY AS 12 NOON.", "nsi_id": "unitedstatespostalservice-a77078", "operator": "United States Postal Service", "operator:short": "USPS", "operator:type": "public", "operator:wikidata": "Q668687", "ref": "2351000036"}, "type": "Feature"}
{"dataset_attributes": {"@spider": "usps_collection_boxes", "spider:collection_time": "2024-02-07T08:23:59.531981"}, "geometry": {"coordinates": [-76.292310649, 36.846218466], "type": "Point"}, "id": "oWKYQmnU7vxnus4zwQOrI741biM=", "properties": {"@spider": "usps_collection_boxes", "addr:city": "NORFOLK", "addr:country": "US", "addr:full": "5 E MAIN PLZ", "addr:postcode": "23510", "addr:state": "VA", "amenity": "post_box", "brand": "United States Postal Service", "brand:wikidata": "Q668687", "collection_times": "Mo-Fr 17:30; Sa 10:30", "name": "USPS COLLECTION BOX - BLUE BOX", "note": "ON 12/24 AND 12/31, THIS BOX MAY BE COLLECTED AS EARLY AS 12 NOON.", "nsi_id": "unitedstatespostalservice-a77078", "operator": "United States Postal Service", "operator:short": "USPS", "operator:type": "public", "operator:wikidata": "Q668687", "ref": "2351000041"}, "type": "Feature"}
{"dataset_attributes": {"@spider": "usps_collection_boxes", "spider:collection_time": "2024-02-07T08:23:59.531981"}, "geometry": {"coordinates": [-76.290959812, 36.849054362], "type": "Point"}, "id": "JyBqNXlxTB85sDRVSqDT1LpaTKE=", "properties": {"@spider": "usps_collection_boxes", "addr:city": "NORFOLK", "addr:country": "US", "addr:full": "241 GRANBY ST", "addr:postcode": "23510", "addr:state": "VA", "amenity": "post_box", "brand": "United States Postal Service", "brand:wikidata": "Q668687", "collection_times": "Mo-Fr 15:15; Sa 10:30", "name": "USPS COLLECTION BOX - BLUE BOX", "note": "ON 12/24 AND 12/31, THIS BOX MAY BE COLLECTED AS EARLY AS 12 NOON.", "nsi_id": "unitedstatespostalservice-a77078", "operator": "United States Postal Service", "operator:short": "USPS", "operator:type": "public", "operator:wikidata": "Q668687", "ref": "2351000053"}, "type": "Feature"}
{"dataset_attributes": {"@spider": "usps_collection_boxes", "spider:collection_time": "2024-02-07T08:23:59.531981"}, "geometry": {"coordinates": [-76.2879105, 36.851841], "type": "Point"}, "id": "aamlLzhb4EsV40n_aKP-_56NEhM=", "properties": {"@spider": "usps_collection_boxes", "addr:city": "NORFOLK", "addr:country": "US", "addr:full": "440 MONTICELLO AVE", "addr:postcode": "23510", "addr:state": "VA", "amenity": "post_box", "brand": "United States Postal Service", "brand:wikidata": "Q668687", "collection_times": "Mo-Fr 17:45; Sa 10:30", "name": "USPS COLLECTION BOX - BLUE BOX", "note": "ON 12/24 AND 12/31, THIS BOX MAY BE COLLECTED AS EARLY AS 12 NOON.", "nsi_id": "unitedstatespostalservice-a77078", "operator": "United States Postal Service", "operator:short": "USPS", "operator:type": "public", "operator:wikidata": "Q668687", "ref": "2351000056"}, "type": "Feature"}
{"dataset_attributes": {"@spider": "usps_collection_boxes", "spider:collection_time": "2024-02-07T08:23:59.531981"}, "geometry": {"coordinates": [-76.290250751, 36.853680457], "type": "Point"}, "id": "QNfTGKD6WCYShOLb5yoHcZB_7Pw=", "properties": {"@spider": "usps_collection_boxes", "addr:city": "NORFOLK", "addr:country": "US", "addr:full": "142 W YORK ST", "addr:postcode": "23510", "addr:state": "VA", "amenity": "post_box", "brand": "United States Postal Service", "brand:wikidata": "Q668687", "collection_times": "Mo-Fr 15:30; Sa 10:30", "name": "USPS COLLECTION BOX - BLUE BOX", "note": "ON 12/24 AND 12/31, THIS BOX MAY BE COLLECTED AS EARLY AS 12 NOON.", "nsi_id": "unitedstatespostalservice-a77078", "operator": "United States Postal Service", "operator:short": "USPS", "operator:type": "public", "operator:wikidata": "Q668687", "ref": "2351000059"}, "type": "Feature"}
{"dataset_attributes": {"@spider": "usps_collection_boxes", "spider:collection_time": "2024-02-07T08:23:59.531981"}, "geometry": {"coordinates": [-76.28572, 36.844579013], "type": "Point"}, "id": "uNg6gIt9L76NIQjIE_RBs6EMDpA=", "properties": {"@spider": "usps_collection_boxes", "addr:city": "NORFOLK", "addr:country": "US", "addr:full": "810 UNION ST", "addr:postcode": "23510", "addr:state": "VA", "amenity": "post_box", "brand": "United States Postal Service", "brand:wikidata": "Q668687", "collection_times": "Mo-Fr 17:00; Sa 10:30", "name": "USPS COLLECTION BOX - BLUE BOX", "note": "ON 12/24 AND 12/31, THIS BOX MAY BE COLLECTED AS EARLY AS 12 NOON.", "nsi_id": "unitedstatespostalservice-a77078", "operator": "United States Postal Service", "operator:short": "USPS", "operator:type": "public", "operator:wikidata": "Q668687", "ref": "2351000066"}, "type": "Feature"}
{"dataset_attributes": {"@spider": "usps_collection_boxes", "spider:collection_time": "2024-02-07T08:23:59.531981"}, "geometry": {"coordinates": [-76.281070771, 36.85216637], "type": "Point"}, "id": "C9YlLGJMl1g2mAtM0MnfHx3tMxc=", "properties": {"@spider": "usps_collection_boxes", "addr:city": "NORFOLK", "addr:country": "US", "addr:full": "600 CHURCH ST", "addr:postcode": "23510", "addr:state": "VA", "amenity": "post_box", "brand": "United States Postal Service", "brand:wikidata": "Q668687", "collection_times": "Mo-Sa 17:30", "name": "USPS COLLECTION BOX - BLUE BOX", "note": "ON 12/24 AND 12/31, THIS BOX MAY BE COLLECTED AS EARLY AS 12 NOON.", "nsi_id": "unitedstatespostalservice-a77078", "operator": "United States Postal Service", "operator:short": "USPS", "operator:type": "public", "operator:wikidata": "Q668687", "ref": "2351000068"}, "type": "Feature"}
{"dataset_attributes": {"@spider": "usps_collection_boxes", "spider:collection_time": "2024-02-07T08:23:59.531981"}, "geometry": {"coordinates": [-76.281070771, 36.85216637], "type": "Point"}, "id": "SOzCV_vAgVBNJzbkcdkpqfmMW6U=", "properties": {"@spider": "usps_collection_boxes", "addr:city": "NORFOLK", "addr:country": "US", "addr:full": "600 CHURCH ST", "addr:postcode": "23510", "addr:state": "VA", "amenity": "post_box", "brand": "United States Postal Service", "brand:wikidata": "Q668687", "collection_times": "Mo-Sa 17:30", "name": "USPS COLLECTION BOX - PO LOBBY", "note": "ON 12/24 AND 12/31, THIS BOX MAY BE COLLECTED AS EARLY AS 12 NOON.", "nsi_id": "unitedstatespostalservice-a77078", "operator": "United States Postal Service", "operator:short": "USPS", "operator:type": "public", "operator:wikidata": "Q668687", "ref": "2351000072"}, "type": "Feature"}
{"dataset_attributes": {"@spider": "usps_collection_boxes", "spider:collection_time": "2024-02-07T08:23:59.531981"}, "geometry": {"coordinates": [-76.292208853, 36.846231319], "type": "Point"}, "id": "IDO-K4TrDlRBUasalHOS2H7CHJc=", "properties": {"@spider": "usps_collection_boxes", "addr:city": "NORFOLK", "addr:country": "US", "addr:full": "101 E MAIN ST", "addr:postcode": "23510", "addr:state": "VA", "amenity": "post_box", "brand": "United States Postal Service", "brand:wikidata": "Q668687", "collection_times": "Mo-Fr 17:15; Sa 10:30", "name": "USPS COLLECTION BOX - BLUE BOX", "note": "ON 12/24 AND 12/31, THIS BOX MAY BE COLLECTED AS EARLY AS 12 NOON.", "nsi_id": "unitedstatespostalservice-a77078", "operator": "United States Postal Service", "operator:short": "USPS", "operator:type": "public", "operator:wikidata": "Q668687", "ref": "2351000075"}, "type": "Feature"}
{"dataset_attributes": {"@spider": "usps_collection_boxes", "spider:collection_time": "2024-02-07T08:23:59.531981"}, "geometry": {"coordinates": [-76.293133849, 36.847947123], "type": "Point"}, "id": "dZzHHulujMZOLy6HMEfhpPqtM7I=", "properties": {"@spider": "usps_collection_boxes", "addr:city": "NORFOLK", "addr:country": "US", "addr:full": "150 BOUSH ST", "addr:postcode": "23510", "addr:state": "VA", "amenity": "post_box", "brand": "United States Postal Service", "brand:wikidata": "Q668687", "collection_times": "Mo-Fr 16:45; Sa 10:30", "name": "USPS COLLECTION BOX - BLUE BOX", "note": "ON 12/24 AND 12/31, THIS BOX MAY BE COLLECTED AS EARLY AS 12 NOON.", "nsi_id": "unitedstatespostalservice-a77078", "operator": "United States Postal Service", "operator:short": "USPS", "operator:type": "public", "operator:wikidata": "Q668687", "ref": "2351000077"}, "type": "Feature"}
{"dataset_attributes": {"@spider": "usps_collection_boxes", "spider:collection_time": "2024-02-07T08:23:59.531981"}, "geometry": {"coordinates": [-76.290056645, 36.846675], "type": "Point"}, "id": "SfhSQgz1CMcOvPTJdBeRwDJqMBY=", "properties": {"@spider": "usps_collection_boxes", "addr:city": "NORFOLK", "addr:country": "US", "addr:full": "126 ATLANTIC ST", "addr:postcode": "23510", "addr:state": "VA", "amenity": "post_box", "brand": "United States Postal Service", "brand:wikidata": "Q668687", "collection_times": "Mo-Fr 14:00; Sa 09:30", "name": "USPS COLLECTION BOX - PO LOBBY", "note": "ON 12/24 AND 12/31, THIS BOX MAY BE COLLECTED AS EARLY AS 12 NOON.", "nsi_id": "unitedstatespostalservice-a77078", "operator": "United States Postal Service", "operator:short": "USPS", "operator:type": "public", "operator:wikidata": "Q668687", "ref": "2351000096"}, "type": "Feature"}
{"dataset_attributes": {"@spider": "usps_collection_boxes", "spider:collection_time": "2024-02-07T08:23:59.531981"}, "geometry": {"coordinates": [-76.290308486, 36.850358902], "type": "Point"}, "id": "B00zpWga1K2ZHt-9wBcmLWG9Ubw=", "properties": {"@spider": "usps_collection_boxes", "addr:city": "NORFOLK", "addr:country": "US", "addr:full": "315 GRANBY ST", "addr:postcode": "23510", "addr:state": "VA", "amenity": "post_box", "brand": "United States Postal Service", "brand:wikidata": "Q668687", "collection_times": "Mo-Fr 17:45; Sa 10:30", "name": "USPS COLLECTION BOX - BLUE BOX", "note": "ON 12/24 AND 12/31, THIS BOX MAY BE COLLECTED AS EARLY AS 12 NOON.", "nsi_id": "unitedstatespostalservice-a77078", "operator": "United States Postal Service", "operator:short": "USPS", "operator:type": "public", "operator:wikidata": "Q668687", "ref": "2351000102"}, "type": "Feature"}
{"dataset_attributes": {"@spider": "usps_collection_boxes", "spider:collection_time": "2024-02-07T08:23:59.531981"}, "geometry": {"coordinates": [-76.289531686, 36.849632051], "type": "Point"}, "id": "kE0XX6U4n5WfBgDGT4H1AnBpVXw=", "properties": {"@spider": "usps_collection_boxes", "addr:city": "NORFOLK", "addr:country": "US", "addr:full": "300 MONTICELLO AVE", "addr:postcode": "23510", "addr:state": "VA", "amenity": "post_box", "brand": "United States Postal Service", "brand:wikidata": "Q668687", "collection_times": "Mo-Fr 17:45; Sa 10:30", "name": "USPS COLLECTION BOX - BLUE BOX", "note": "ON 12/24 AND 12/31, THIS BOX MAY BE COLLECTED AS EARLY AS 12 NOON.", "nsi_id": "unitedstatespostalservice-a77078", "operator": "United States Postal Service", "operator:short": "USPS", "operator:type": "public", "operator:wikidata": "Q668687", "ref": "2351000105"}, "type": "Feature"}
{"dataset_attributes": {"@spider": "usps_collection_boxes", "spider:collection_time": "2024-02-07T08:23:59.531981"}, "geometry": {"coordinates": [-76.286864924, 36.845741764], "type": "Point"}, "id": "ckBpfZoLGIkaKtcjtyvW5XICXZM=", "properties": {"@spider": "usps_collection_boxes", "addr:city": "NORFOLK", "addr:country": "US", "addr:full": "580 E MAIN ST", "addr:postcode": "23510", "addr:state": "VA", "amenity": "post_box", "brand": "United States Postal Service", "brand:wikidata": "Q668687", "collection_times": "Mo-Fr 16:45; Sa 09:00", "name": "USPS COLLECTION BOX - BLUE BOX", "note": "ON 12/24 AND 12/31, THIS BOX MAY BE COLLECTED AS EARLY AS 12 NOON.", "nsi_id": "unitedstatespostalservice-a77078", "operator": "United States Postal Service", "operator:short": "USPS", "operator:type": "public", "operator:wikidata": "Q668687", "ref": "2351000106"}, "type": "Feature"}
{"dataset_attributes": {"@spider": "usps_collection_boxes", "spider:collection_time": "2024-02-07T08:23:59.531981"}, "geometry": {"coordinates": [-76.286864924, 36.845741764], "type": "Point"}, "id": "S9hmjJyBesnGt-yj5PYa_kFhz-o=", "properties": {"@spider": "usps_collection_boxes", "addr:city": "NORFOLK", "addr:country": "US", "addr:full": "580 E MAIN ST", "addr:postcode": "23510", "addr:state": "VA", "amenity": "post_box", "brand": "United States Postal Service", "brand:wikidata": "Q668687", "collection_times": "Mo-Fr 16:45; Sa 10:30", "name": "USPS COLLECTION BOX - BLUE BOX", "note": "ON 12/24 AND 12/31, THIS BOX MAY BE COLLECTED AS EARLY AS 12 NOON.", "nsi_id": "unitedstatespostalservice-a77078", "operator": "United States Postal Service", "operator:short": "USPS", "operator:type": "public", "operator:wikidata": "Q668687", "ref": "2351000107"}, "type": "Feature"}
{"dataset_attributes": {"@spider": "usps_collection_boxes", "spider:collection_time": "2024-02-07T08:23:59.531981"}, "geometry": {"coordinates": [-76.29342925, 36.846715462], "type": "Point"}, "id": "tGO74j4sPg0GJtAnKrETx0_ehXg=", "properties": {"@spider": "usps_collection_boxes", "addr:city": "NORFOLK", "addr:country": "US", "addr:full": "150 W MAIN ST", "addr:postcode": "23510", "addr:state": "VA", "amenity": "post_box", "brand": "United States Postal Service", "brand:wikidata": "Q668687", "collection_times": "Mo-Fr 17:15; Sa 12:00", "name": "USPS COLLECTION BOX - BLUE BOX", "note": "ON 12/24 AND 12/31, THIS BOX MAY BE COLLECTED AS EARLY AS 12 NOON.", "nsi_id": "unitedstatespostalservice-a77078", "operator": "United States Postal Service", "operator:short": "USPS", "operator:type": "public", "operator:wikidata": "Q668687", "ref": "2351000108"}, "type": "Feature"}
{"dataset_attributes": {"@spider": "usps_collection_boxes", "spider:collection_time": "2024-02-07T08:23:59.531981"}, "geometry": {"coordinates": [-76.293833822, 36.846841467], "type": "Point"}, "id": "vEWmOsor2ULUk440Aq4NwUS62qA=", "properties": {"@spider": "usps_collection_boxes", "addr:city": "NORFOLK", "addr:country": "US", "addr:full": "1 WATERSIDE DR", "addr:postcode": "23510", "addr:state": "VA", "amenity": "post_box", "brand": "United States Postal Service", "brand:wikidata": "Q668687", "collection_times": "Mo-Fr 17:00; Sa 10:30", "name": "USPS COLLECTION BOX - BLUE BOX", "note": "ON 12/24 AND 12/31, THIS BOX MAY BE COLLECTED AS EARLY AS 12 NOON.", "nsi_id": "unitedstatespostalservice-a77078", "operator": "United States Postal Service", "operator:short": "USPS", "operator:type": "public", "operator:wikidata": "Q668687", "ref": "2351000110"}, "type": "Feature"}
{"dataset_attributes": {"@spider": "usps_collection_boxes", "spider:collection_time": "2024-02-07T08:23:59.531981"}, "geometry": {"coordinates": [-76.303298729, 36.945914436], "type": "Point"}, "id": "vlUAsLFd0Ej7c8mmADhfF0zy_oU=", "properties": {"@spider": "usps_collection_boxes", "addr:city": "NORFOLK", "addr:country": "US", "addr:full": "1300 PIERSEY ST", "addr:postcode": "23511", "addr:state": "VA", "amenity": "post_box", "brand": "United States Postal Service", "brand:wikidata": "Q668687", "collection_times": "Mo-Fr 09:00", "name": "USPS COLLECTION BOX - BLUE BOX", "nsi_id": "unitedstatespostalservice-a77078", "operator": "United States Postal Service", "operator:short": "USPS", "operator:type": "public", "operator:wikidata": "Q668687", "ref": "2351100001"}, "type": "Feature"}
{"dataset_attributes": {"@spider": "usps_collection_boxes", "spider:collection_time": "2024-02-07T08:23:59.531981"}, "geometry": {"coordinates": [-76.30932858, 36.94787595], "type": "Point"}, "id": "C6fPt-fRxT4L5-tN7j0EqIVUf24=", "properties": {"@spider": "usps_collection_boxes", "addr:city": "NORFOLK", "addr:country": "US", "addr:full": "1530 GILBERT ST", "addr:postcode": "23511", "addr:state": "VA", "amenity": "post_box", "brand": "United States Postal Service", "brand:wikidata": "Q668687", "collection_times": "Mo-Fr 13:00", "name": "USPS COLLECTION BOX - BLUE BOX", "note": "ON 12/24 AND 12/31, THIS BOX MAY BE COLLECTED AS EARLY AS 12 NOON.", "nsi_id": "unitedstatespostalservice-a77078", "operator": "United States Postal Service", "operator:short": "USPS", "operator:type": "public", "operator:wikidata": "Q668687", "ref": "2351100004"}, "type": "Feature"}
{"dataset_attributes": {"@spider": "usps_collection_boxes", "spider:collection_time": "2024-02-07T08:23:59.531981"}, "geometry": {"coordinates": [-76.314728424, 36.946471963], "type": "Point"}, "id": "0thdMH4725UDlIKAGL3ORBAbg-8=", "properties": {"@spider": "usps_collection_boxes", "addr:city": "NORFOLK", "addr:country": "US", "addr:full": "1640 MORRIS ST", "addr:postcode": "23511", "addr:state": "VA", "amenity": "post_box", "brand": "United States Postal Service", "brand:wikidata": "Q668687", "collection_times": "Mo-Fr 09:00", "name": "USPS COLLECTION BOX - BLUE BOX", "nsi_id": "unitedstatespostalservice-a77078", "operator": "United States Postal Service", "operator:short": "USPS", "operator:type": "public", "operator:wikidata": "Q668687", "ref": "2351100008"}, "type": "Feature"}
{"dataset_attributes": {"@spider": "usps_collection_boxes", "spider:collection_time": "2024-02-07T08:23:59.531981"}, "geometry": {"coordinates": [-76.316673359, 36.946366487], "type": "Point"}, "id": "jr_fOHZJiCADfBPHN0FITqQ7OBs=", "properties": {"@spider": "usps_collection_boxes", "addr:city": "NORFOLK", "addr:country": "US", "addr:full": "9300 BACON AVE", "addr:postcode": "23511", "addr:state": "VA", "amenity": "post_box", "brand": "United States Postal Service", "brand:wikidata": "Q668687", "collection_times": "Mo-Sa 09:00", "name": "USPS COLLECTION BOX - BLUE BOX", "nsi_id": "unitedstatespostalservice-a77078", "operator": "United States Postal Service", "operator:short": "USPS", "operator:type": "public", "operator:wikidata": "Q668687", "ref": "2351100010"}, "type": "Feature"}
{"dataset_attributes": {"@spider": "usps_collection_boxes", "spider:collection_time": "2024-02-07T08:23:59.531981"}, "geometry": {"coordinates": [-76.327708884, 36.946848957], "type": "Point"}, "id": "srcB7JAXImn4sjDrBpSJgH2FE8I=", "properties": {"@spider": "usps_collection_boxes", "addr:city": "NORFOLK", "addr:country": "US", "addr:full": "1968 GILBERT ST", "addr:postcode": "23511", "addr:state": "VA", "amenity": "post_box", "brand": "United States Postal Service", "brand:wikidata": "Q668687", "collection_times": "Mo-Fr 09:00", "name": "USPS COLLECTION BOX - BLUE BOX", "nsi_id": "unitedstatespostalservice-a77078", "operator": "United States Postal Service", "operator:short": "USPS", "operator:type": "public", "operator:wikidata": "Q668687", "ref": "2351100013"}, "type": "Feature"}
{"dataset_attributes": {"@spider": "usps_collection_boxes", "spider:collection_time": "2024-02-07T08:23:59.531981"}, "geometry": {"coordinates": [-76.3210699333, 36.9435924437], "type": "Point"}, "id": "O4yREen1FHN_sg0InSn0cf782_w=", "properties": {"@spider": "usps_collection_boxes", "addr:city": "NORFOLK", "addr:country": "US", "addr:full": "1721 ADMRIAL TUSSIG BLVD", "addr:postcode": "23511", "addr:state": "VA", "amenity": "post_box", "brand": "United States Postal Service", "brand:wikidata": "Q668687", "collection_times": "Mo-Fr 13:00", "name": "USPS COLLECTION BOX - BLUE BOX", "note": "ON 12/24 AND 12/31, THIS BOX MAY BE COLLECTED AS EARLY AS 12 NOON.", "nsi_id": "unitedstatespostalservice-a77078", "operator": "United States Postal Service", "operator:short": "USPS", "operator:type": "public", "operator:wikidata": "Q668687", "ref": "2351100016"}, "type": "Feature"}
{"dataset_attributes": {"@spider": "usps_collection_boxes", "spider:collection_time": "2024-02-07T08:23:59.531981"}, "geometry": {"coordinates": [-76.278726447, 36.942808162], "type": "Point"}, "id": "_JP3ubAvmUy090e0eo2fCWi_ChI=", "properties": {"@spider": "usps_collection_boxes", "addr:city": "NORFOLK", "addr:country": "US", "addr:full": "9075 5TH AVE", "addr:postcode": "23511", "addr:state": "VA", "amenity": "post_box", "brand": "United States Postal Service", "brand:wikidata": "Q668687", "collection_times": "Mo-Sa 09:00", "name": "USPS COLLECTION BOX - BLUE BOX", "nsi_id": "unitedstatespostalservice-a77078", "operator": "United States Postal Service", "operator:short": "USPS", "operator:type": "public", "operator:wikidata": "Q668687", "ref": "2351100023"}, "type": "Feature"}
{"dataset_attributes": {"@spider": "usps_collection_boxes", "spider:collection_time": "2024-02-07T08:23:59.531981"}, "geometry": {"coordinates": [-76.282435224, 36.94599502], "type": "Point"}, "id": "bcP9odfYdkyTTk6RhLEakrKNjYE=", "properties": {"@spider": "usps_collection_boxes", "addr:city": "NORFOLK", "addr:country": "US", "addr:full": "581 A ST", "addr:postcode": "23511", "addr:state": "VA", "amenity": "post_box", "brand": "United States Postal Service", "brand:wikidata": "Q668687", "collection_times": "Mo-Fr 09:00", "name": "USPS COLLECTION BOX - BLUE BOX", "nsi_id": "unitedstatespostalservice-a77078", "operator": "United States Postal Service", "operator:short": "USPS", "operator:type": "public", "operator:wikidata": "Q668687", "ref": "2351100027"}, "type": "Feature"}
{"dataset_attributes": {"@spider": "usps_collection_boxes", "spider:collection_time": "2024-02-07T08:23:59.531981"}, "geometry": {"coordinates": [-76.31404731, 36.944235885], "type": "Point"}, "id": "GeloZRKeDF5O44j3cIMyQcxydvI=", "properties": {"@spider": "usps_collection_boxes", "addr:city": "NORFOLK", "addr:country": "US", "addr:full": "1560 ADMIRAL TAUSSIG BLVD", "addr:postcode": "23511", "addr:state": "VA", "amenity": "post_box", "brand": "United States Postal Service", "brand:wikidata": "Q668687", "collection_times": "Mo-Sa 09:00", "name": "USPS COLLECTION BOX - BLUE BOX", "nsi_id": "unitedstatespostalservice-a77078", "operator": "United States Postal Service", "operator:short": "USPS", "operator:type": "public", "operator:wikidata": "Q668687", "ref": "2351100033"}, "type": "Feature"}
{"dataset_attributes": {"@spider": "usps_collection_boxes", "spider:collection_time": "2024-02-07T08:23:59.531981"}, "geometry": {"coordinates": [-76.320529873, 36.945979986], "type": "Point"}, "id": "lT4m0smDi8zJ7gufr-Cd3tCDbB4=", "properties": {"@spider": "usps_collection_boxes", "addr:city": "NORFOLK", "addr:country": "US", "addr:full": "1837 MORRIS ST", "addr:postcode": "23511", "addr:state": "VA", "amenity": "post_box", "brand": "United States Postal Service", "brand:wikidata": "Q668687", "collection_times": "Mo-Fr 09:00", "name": "USPS COLLECTION BOX - BLUE BOX", "nsi_id": "unitedstatespostalservice-a77078", "operator": "United States Postal Service", "operator:short": "USPS", "operator:type": "public", "operator:wikidata": "Q668687", "ref": "2351100040"}, "type": "Feature"}
{"dataset_attributes": {"@spider": "usps_collection_boxes", "spider:collection_time": "2024-02-07T08:23:59.531981"}, "geometry": {"coordinates": [-76.3121333, 36.947724995], "type": "Point"}, "id": "J8PzcOy6A_lxr4NynH1xdW0oMgw=", "properties": {"@spider": "usps_collection_boxes", "addr:city": "NORFOLK", "addr:country": "US", "addr:full": "9401 FARRAGUT AVE", "addr:postcode": "23511", "addr:state": "VA", "amenity": "post_box", "brand": "United States Postal Service", "brand:wikidata": "Q668687", "collection_times": "Mo-Sa 09:00", "name": "USPS COLLECTION BOX - BLUE BOX", "nsi_id": "unitedstatespostalservice-a77078", "operator": "United States Postal Service", "operator:short": "USPS", "operator:type": "public", "operator:wikidata": "Q668687", "ref": "2351100041"}, "type": "Feature"}
{"dataset_attributes": {"@spider": "usps_collection_boxes", "spider:collection_time": "2024-02-07T08:23:59.531981"}, "geometry": {"coordinates": [-76.299323272, 36.943340751], "type": "Point"}, "id": "DDkTQT7MllXQfFukfJEYKeNb6xs=", "properties": {"@spider": "usps_collection_boxes", "addr:city": "NORFOLK", "addr:country": "US", "addr:full": "9221 3RD AVE", "addr:postcode": "23511", "addr:state": "VA", "amenity": "post_box", "brand": "United States Postal Service", "brand:wikidata": "Q668687", "collection_times": "Mo-Fr 09:00", "name": "USPS COLLECTION BOX - BLUE BOX", "nsi_id": "unitedstatespostalservice-a77078", "operator": "United States Postal Service", "operator:short": "USPS", "operator:type": "public", "operator:wikidata": "Q668687", "ref": "2351100043"}, "type": "Feature"}
{"dataset_attributes": {"@spider": "usps_collection_boxes", "spider:collection_time": "2024-02-07T08:23:59.531981"}, "geometry": {"coordinates": [-76.3199519891, 36.9471500392], "type": "Point"}, "id": "bA-b7GcF8eM5gEeQeF8fYw2Tmys=", "properties": {"@spider": "usps_collection_boxes", "addr:city": "NORFOLK", "addr:country": "US", "addr:full": "1731 GILBERT ST", "addr:postcode": "23511", "addr:state": "VA", "amenity": "post_box", "brand": "United States Postal Service", "brand:wikidata": "Q668687", "collection_times": "Mo-Fr 15:00", "name": "USPS COLLECTION BOX - PO LOBBY", "note": "ON 12/24 AND 12/31, THIS BOX MAY BE COLLECTED AS EARLY AS 12 NOON.", "nsi_id": "unitedstatespostalservice-a77078", "operator": "United States Postal Service", "operator:short": "USPS", "operator:type": "public", "operator:wikidata": "Q668687", "ref": "2351100044"}, "type": "Feature"}
{"dataset_attributes": {"@spider": "usps_collection_boxes", "spider:collection_time": "2024-02-07T08:23:59.531981"}, "geometry": {"coordinates": [-76.299323272, 36.943340751], "type": "Point"}, "id": "j5vC1763omAJAoYb5PlF0kgw-rI=", "properties": {"@spider": "usps_collection_boxes", "addr:city": "NORFOLK", "addr:country": "US", "addr:full": "9221 3RD AVE", "addr:postcode": "23511", "addr:state": "VA", "amenity": "post_box", "brand": "United States Postal Service", "brand:wikidata": "Q668687", "collection_times": "Mo-Fr 14:00", "name": "USPS COLLECTION BOX - PO LOBBY", "note": "ON 12/24 AND 12/31, THIS BOX MAY BE COLLECTED AS EARLY AS 12 NOON.", "nsi_id": "unitedstatespostalservice-a77078", "operator": "United States Postal Service", "operator:short": "USPS", "operator:type": "public", "operator:wikidata": "Q668687", "ref": "2351100045"}, "type": "Feature"}
{"dataset_attributes": {"@spider": "usps_collection_boxes", "spider:collection_time": "2024-02-07T08:23:59.531981"}, "geometry": {"coordinates": [-76.219352534, 36.879327166], "type": "Point"}, "id": "0Ce3xe6VcAuRS9aId31FAsvpnxo=", "properties": {"@spider": "usps_collection_boxes", "addr:city": "NORFOLK", "addr:country": "US", "addr:full": "2600 ELLSMERE AVE", "addr:postcode": "23513", "addr:state": "VA", "amenity": "post_box", "brand": "United States Postal Service", "brand:wikidata": "Q668687", "collection_times": "Mo-Fr 17:00; Sa 10:00", "name": "USPS COLLECTION BOX - BLUE BOX", "note": "ON 12/24 AND 12/31, THIS BOX MAY BE COLLECTED AS EARLY AS 12 NOON.", "nsi_id": "unitedstatespostalservice-a77078", "operator": "United States Postal Service", "operator:short": "USPS", "operator:type": "public", "operator:wikidata": "Q668687", "ref": "2351300001"}, "type": "Feature"}
{"dataset_attributes": {"@spider": "usps_collection_boxes", "spider:collection_time": "2024-02-07T08:23:59.531981"}, "geometry": {"coordinates": [-76.219352534, 36.879327166], "type": "Point"}, "id": "S4IizCOVpDez3D7evmodvYiwr0Q=", "properties": {"@spider": "usps_collection_boxes", "addr:city": "NORFOLK", "addr:country": "US", "addr:full": "2600 ELLSMERE AVE", "addr:postcode": "23513", "addr:state": "VA", "amenity": "post_box", "brand": "United States Postal Service", "brand:wikidata": "Q668687", "collection_times": "Mo-Fr 17:00", "name": "USPS COLLECTION BOX - EXPRESS", "note": "ON 12/24 AND 12/31, THIS BOX MAY BE COLLECTED AS EARLY AS 12 NOON.", "nsi_id": "unitedstatespostalservice-a77078", "operator": "United States Postal Service", "operator:short": "USPS", "operator:type": "public", "operator:wikidata": "Q668687", "ref": "2351300003"}, "type": "Feature"}
{"dataset_attributes": {"@spider": "usps_collection_boxes", "spider:collection_time": "2024-02-07T08:23:59.531981"}, "geometry": {"coordinates": [-76.234850068, 36.872540718], "type": "Point"}, "id": "QNFf_ZIFj9DSkunRa-13bYS3u-w=", "properties": {"@spider": "usps_collection_boxes", "addr:city": "NORFOLK", "addr:country": "US", "addr:full": "4617 LARKIN ST", "addr:postcode": "23513", "addr:state": "VA", "amenity": "post_box", "brand": "United States Postal Service", "brand:wikidata": "Q668687", "collection_times": "Mo-Sa 09:00", "name": "USPS COLLECTION BOX - BLUE BOX", "nsi_id": "unitedstatespostalservice-a77078", "operator": "United States Postal Service", "operator:short": "USPS", "operator:type": "public", "operator:wikidata": "Q668687", "ref": "2351300010"}, "type": "Feature"}
{"dataset_attributes": {"@spider": "usps_collection_boxes", "spider:collection_time": "2024-02-07T08:23:59.531981"}, "geometry": {"coordinates": [-76.2516937102, 36.9021125903], "type": "Point"}, "id": "OymCOm9XSsPWe3GMH_pJmQeI0Qs=", "properties": {"@spider": "usps_collection_boxes", "addr:city": "NORFOLK", "addr:country": "US", "addr:full": "6812 GLENOAK DR", "addr:postcode": "23513", "addr:state": "VA", "amenity": "post_box", "brand": "United States Postal Service", "brand:wikidata": "Q668687", "collection_times": "Mo-Sa 09:00", "name": "USPS COLLECTION BOX - BLUE BOX", "nsi_id": "unitedstatespostalservice-a77078", "operator": "United States Postal Service", "operator:short": "USPS", "operator:type": "public", "operator:wikidata": "Q668687", "ref": "2351300026"}, "type": "Feature"}
{"dataset_attributes": {"@spider": "usps_collection_boxes", "spider:collection_time": "2024-02-07T08:23:59.531981"}, "geometry": {"coordinates": [-76.2399999873, 36.8919660183], "type": "Point"}, "id": "EAZ8sBmF5lqQSGjwllQrCzjrotI=", "properties": {"@spider": "usps_collection_boxes", "addr:city": "NORFOLK", "addr:country": "US", "addr:full": "1112 GREEN ST", "addr:postcode": "23513", "addr:state": "VA", "amenity": "post_box", "brand": "United States Postal Service", "brand:wikidata": "Q668687", "collection_times": "Mo-Fr 17:00; Sa 13:00", "name": "USPS COLLECTION BOX - BLUE BOX", "note": "ON 12/24 AND 12/31, THIS BOX MAY BE COLLECTED AS EARLY AS 12 NOON.", "nsi_id": "unitedstatespostalservice-a77078", "operator": "United States Postal Service", "operator:short": "USPS", "operator:type": "public", "operator:wikidata": "Q668687", "ref": "2351300033"}, "type": "Feature"}
{"dataset_attributes": {"@spider": "usps_collection_boxes", "spider:collection_time": "2024-02-07T08:23:59.531981"}, "geometry": {"coordinates": [-76.240052633, 36.891661493], "type": "Point"}, "id": "nWjv6fd6YMrJUzdKDGqdzoXPIA4=", "properties": {"@spider": "usps_collection_boxes", "addr:city": "NORFOLK", "addr:country": "US", "addr:full": "1112 GREEN ST", "addr:postcode": "23513", "addr:state": "VA", "amenity": "post_box", "brand": "United States Postal Service", "brand:wikidata": "Q668687", "collection_times": "Mo-Fr 17:00; Sa 14:00", "name": "USPS COLLECTION BOX - PO LOBBY", "note": "ON 12/24 AND 12/31, THIS BOX MAY BE COLLECTED AS EARLY AS 12 NOON.", "nsi_id": "unitedstatespostalservice-a77078", "operator": "United States Postal Service", "operator:short": "USPS", "operator:type": "public", "operator:wikidata": "Q668687", "ref": "2351300035"}, "type": "Feature"}
{"dataset_attributes": {"@spider": "usps_collection_boxes", "spider:collection_time": "2024-02-07T08:23:59.531981"}, "geometry": {"coordinates": [-76.240052633, 36.891661493], "type": "Point"}, "id": "4ALkT9QVfY6fUzH7ojuw0ryaKOU=", "properties": {"@spider": "usps_collection_boxes", "addr:city": "NORFOLK", "addr:country": "US", "addr:full": "1112 GREEN ST", "addr:postcode": "23513", "addr:state": "VA", "amenity": "post_box", "brand": "United States Postal Service", "brand:wikidata": "Q668687", "collection_times": "Mo-Fr 17:00", "name": "USPS COLLECTION BOX - EXPRESS", "note": "ON 12/24 AND 12/31, THIS BOX MAY BE COLLECTED AS EARLY AS 12 NOON.", "nsi_id": "unitedstatespostalservice-a77078", "operator": "United States Postal Service", "operator:short": "USPS", "operator:type": "public", "operator:wikidata": "Q668687", "ref": "2351300037"}, "type": "Feature"}
{"dataset_attributes": {"@spider": "usps_collection_boxes", "spider:collection_time": "2024-02-07T08:23:59.531981"}, "geometry": {"coordinates": [-76.229796465, 36.901602932], "type": "Point"}, "id": "9mVUehszWm0oYMwRTKDZatPmrxY=", "properties": {"@spider": "usps_collection_boxes", "addr:city": "NORFOLK", "addr:country": "US", "addr:full": "6700 E TANNERS CREEK DR", "addr:postcode": "23513", "addr:state": "VA", "amenity": "post_box", "brand": "United States Postal Service", "brand:wikidata": "Q668687", "collection_times": "Mo-Sa 09:00", "name": "USPS COLLECTION BOX - BLUE BOX", "nsi_id": "unitedstatespostalservice-a77078", "operator": "United States Postal Service", "operator:short": "USPS", "operator:type": "public", "operator:wikidata": "Q668687", "ref": "2351300042"}, "type": "Feature"}
{"dataset_attributes": {"@spider": "usps_collection_boxes", "spider:collection_time": "2024-02-07T08:23:59.531981"}, "geometry": {"coordinates": [-76.246707683, 36.865386226], "type": "Point"}, "id": "fOEOLVvjHWjcbUpxr_6Uvzmp1Wo=", "properties": {"@spider": "usps_collection_boxes", "addr:city": "NORFOLK", "addr:country": "US", "addr:full": "2400 INGLESIDE RD", "addr:postcode": "23513", "addr:state": "VA", "amenity": "post_box", "brand": "United States Postal Service", "brand:wikidata": "Q668687", "collection_times": "Mo-Fr 17:00; Sa 12:30", "name": "USPS COLLECTION BOX - BLUE BOX", "note": "ON 12/24 AND 12/31, THIS BOX MAY BE COLLECTED AS EARLY AS 12 NOON.", "nsi_id": "unitedstatespostalservice-a77078", "operator": "United States Postal Service", "operator:short": "USPS", "operator:type": "public", "operator:wikidata": "Q668687", "ref": "2351300043"}, "type": "Feature"}
{"dataset_attributes": {"@spider": "usps_collection_boxes", "spider:collection_time": "2024-02-07T08:23:59.531981"}, "geometry": {"coordinates": [-76.222071685, 36.878900981], "type": "Point"}, "id": "x1FNfT9f69idP_aRLT9_ZoDalQA=", "properties": {"@spider": "usps_collection_boxes", "addr:city": "NORFOLK", "addr:country": "US", "addr:full": "2600 ELTHAM AVE", "addr:postcode": "23513", "addr:state": "VA", "amenity": "post_box", "brand": "United States Postal Service", "brand:wikidata": "Q668687", "collection_times": "Mo-Fr 17:00; Sa 10:00", "name": "USPS COLLECTION BOX - BLUE BOX", "note": "ON 12/24 AND 12/31, THIS BOX MAY BE COLLECTED AS EARLY AS 12 NOON.", "nsi_id": "unitedstatespostalservice-a77078", "operator": "United States Postal Service", "operator:short": "USPS", "operator:type": "public", "operator:wikidata": "Q668687", "ref": "2351300048"}, "type": "Feature"}
{"dataset_attributes": {"@spider": "usps_collection_boxes", "spider:collection_time": "2024-02-07T08:23:59.531981"}, "geometry": {"coordinates": [-76.222071685, 36.878900981], "type": "Point"}, "id": "R_tEgyB0irQ6a8AAss4VwwinITQ=", "properties": {"@spider": "usps_collection_boxes", "addr:city": "NORFOLK", "addr:country": "US", "addr:full": "2600 ELTHAM AVE", "addr:postcode": "23513", "addr:state": "VA", "amenity": "post_box", "brand": "United States Postal Service", "brand:wikidata": "Q668687", "collection_times": "Mo-Fr 17:00", "name": "USPS COLLECTION BOX - EXPRESS", "note": "ON 12/24 AND 12/31, THIS BOX MAY BE COLLECTED AS EARLY AS 12 NOON.", "nsi_id": "unitedstatespostalservice-a77078", "operator": "United States Postal Service", "operator:short": "USPS", "operator:type": "public", "operator:wikidata": "Q668687", "ref": "2351300049"}, "type": "Feature"}
{"dataset_attributes": {"@spider": "usps_collection_boxes", "spider:collection_time": "2024-02-07T08:23:59.531981"}, "geometry": {"coordinates": [-76.290056645, 36.846675], "type": "Point"}, "id": "Gh7IDluXnp9CZtU8SdWKiJ5bBk4=", "properties": {"@spider": "usps_collection_boxes", "addr:city": "NORFOLK", "addr:country": "US", "addr:full": "126 ATLANTIC ST", "addr:postcode": "23514", "addr:state": "VA", "amenity": "post_box", "brand": "United States Postal Service", "brand:wikidata": "Q668687", "collection_times": "Mo-Fr 14:00", "name": "USPS COLLECTION BOX - PO LOBBY", "note": "ON 12/24 AND 12/31, THIS BOX MAY BE COLLECTED AS EARLY AS 12 NOON.", "nsi_id": "unitedstatespostalservice-a77078", "operator": "United States Postal Service", "operator:short": "USPS", "operator:type": "public", "operator:wikidata": "Q668687", "ref": "2351400001"}, "type": "Feature"}
{"dataset_attributes": {"@spider": "usps_collection_boxes", "spider:collection_time": "2024-02-07T08:23:59.531981"}, "geometry": {"coordinates": [-76.290918019, 36.868002707], "type": "Point"}, "id": "0SUNpLMO41f5nIOkekRBZOpuVZA=", "properties": {"@spider": "usps_collection_boxes", "addr:city": "NORFOLK", "addr:country": "US", "addr:full": "417 W 20TH ST", "addr:postcode": "23517", "addr:state": "VA", "amenity": "post_box", "brand": "United States Postal Service", "brand:wikidata": "Q668687", "collection_times": "Mo-Fr 17:00; Sa 14:00", "name": "USPS COLLECTION BOX - PO LOBBY", "note": "ON 12/24 AND 12/31, THIS BOX MAY BE COLLECTED AS EARLY AS 12 NOON.", "nsi_id": "unitedstatespostalservice-a77078", "operator": "United States Postal Service", "operator:short": "USPS", "operator:type": "public", "operator:wikidata": "Q668687", "ref": "2351700004"}, "type": "Feature"}
{"dataset_attributes": {"@spider": "usps_collection_boxes", "spider:collection_time": "2024-02-07T08:23:59.531981"}, "geometry": {"coordinates": [-76.299222092, 36.865602954], "type": "Point"}, "id": "Ud4YalC3XrOLnZfuooerux1th1o=", "properties": {"@spider": "usps_collection_boxes", "addr:city": "NORFOLK", "addr:country": "US", "addr:full": "1114 COLLEY AVE", "addr:postcode": "23517", "addr:state": "VA", "amenity": "post_box", "brand": "United States Postal Service", "brand:wikidata": "Q668687", "collection_times": "Mo-Sa 09:00", "name": "USPS COLLECTION BOX - BLUE BOX", "nsi_id": "unitedstatespostalservice-a77078", "operator": "United States Postal Service", "operator:short": "USPS", "operator:type": "public", "operator:wikidata": "Q668687", "ref": "2351700020"}, "type": "Feature"}
{"dataset_attributes": {"@spider": "usps_collection_boxes", "spider:collection_time": "2024-02-07T08:23:59.531981"}, "geometry": {"coordinates": [-76.290918019, 36.868002707], "type": "Point"}, "id": "xjATzxxkvFosYLue6NlFNeYaXBc=", "properties": {"@spider": "usps_collection_boxes", "addr:city": "NORFOLK", "addr:country": "US", "addr:full": "417 W 20TH ST", "addr:postcode": "23517", "addr:state": "VA", "amenity": "post_box", "brand": "United States Postal Service", "brand:wikidata": "Q668687", "collection_times": "Mo-Fr 17:30", "name": "USPS COLLECTION BOX - EXPRESS", "note": "ON 12/24 AND 12/31, THIS BOX MAY BE COLLECTED AS EARLY AS 12 NOON.", "nsi_id": "unitedstatespostalservice-a77078", "operator": "United States Postal Service", "operator:short": "USPS", "operator:type": "public", "operator:wikidata": "Q668687", "ref": "2351700060"}, "type": "Feature"}
{"dataset_attributes": {"@spider": "usps_collection_boxes", "spider:collection_time": "2024-02-07T08:23:59.531981"}, "geometry": {"coordinates": [-76.29053, 36.868765], "type": "Point"}, "id": "OKNSpu8NQMXet1f3edkGrSz79lg=", "properties": {"@spider": "usps_collection_boxes", "addr:city": "NORFOLK", "addr:country": "US", "addr:full": "222 W 21ST ST", "addr:postcode": "23517", "addr:state": "VA", "amenity": "post_box", "brand": "United States Postal Service", "brand:wikidata": "Q668687", "collection_times": "Mo-Sa 09:00", "name": "USPS COLLECTION BOX - BLUE BOX", "nsi_id": "unitedstatespostalservice-a77078", "operator": "United States Postal Service", "operator:short": "USPS", "operator:type": "public", "operator:wikidata": "Q668687", "ref": "2351700067"}, "type": "Feature"}
{"dataset_attributes": {"@spider": "usps_collection_boxes", "spider:collection_time": "2024-02-07T08:23:59.531981"}, "geometry": {"coordinates": [-76.290918019, 36.868002707], "type": "Point"}, "id": "zAIrPHOqWgaXnVZMRekAROi0uEM=", "properties": {"@spider": "usps_collection_boxes", "addr:city": "NORFOLK", "addr:country": "US", "addr:full": "417 W 20TH ST", "addr:postcode": "23517", "addr:state": "VA", "amenity": "post_box", "brand": "United States Postal Service", "brand:wikidata": "Q668687", "collection_times": "Mo-Fr 17:00", "name": "USPS COLLECTION BOX - PO LOBBY", "note": "ON 12/24 AND 12/31, THIS BOX MAY BE COLLECTED AS EARLY AS 12 NOON.", "nsi_id": "unitedstatespostalservice-a77078", "operator": "United States Postal Service", "operator:short": "USPS", "operator:type": "public", "operator:wikidata": "Q668687", "ref": "2351700085"}, "type": "Feature"}
{"dataset_attributes": {"@spider": "usps_collection_boxes", "spider:collection_time": "2024-02-07T08:23:59.531981"}, "geometry": {"coordinates": [-76.2972669938, 36.8729129885], "type": "Point"}, "id": "UqJJ373bq4a9CSXHd42vsD6gGxE=", "properties": {"@spider": "usps_collection_boxes", "addr:city": "NORFOLK", "addr:country": "US", "addr:full": "2301 COLLEY AVE", "addr:postcode": "23517", "addr:state": "VA", "amenity": "post_box", "brand": "United States Postal Service", "brand:wikidata": "Q668687", "collection_times": "Mo-Sa 17:00", "name": "USPS COLLECTION BOX - BLUE BOX", "note": "ON 12/24 AND 12/31, THIS BOX MAY BE COLLECTED AS EARLY AS 12 NOON.", "nsi_id": "unitedstatespostalservice-a77078", "operator": "United States Postal Service", "operator:short": "USPS", "operator:type": "public", "operator:wikidata": "Q668687", "ref": "2351700086"}, "type": "Feature"}
{"dataset_attributes": {"@spider": "usps_collection_boxes", "spider:collection_time": "2024-02-07T08:23:59.531981"}, "geometry": {"coordinates": [-76.2972669938, 36.8729129885], "type": "Point"}, "id": "A1CQHzQEhpJQXWG6ng0rMDYor78=", "properties": {"@spider": "usps_collection_boxes", "addr:city": "NORFOLK", "addr:country": "US", "addr:full": "2301 COLLEY AVE", "addr:postcode": "23517", "addr:state": "VA", "amenity": "post_box", "brand": "United States Postal Service", "brand:wikidata": "Q668687", "collection_times": "Mo-Sa 17:00", "name": "USPS COLLECTION BOX - PO LOBBY", "note": "ON 12/24 AND 12/31, THIS BOX MAY BE COLLECTED AS EARLY AS 12 NOON.", "nsi_id": "unitedstatespostalservice-a77078", "operator": "United States Postal Service", "operator:short": "USPS", "operator:type": "public", "operator:wikidata": "Q668687", "ref": "2351700087"}, "type": "Feature"}
{"dataset_attributes": {"@spider": "usps_collection_boxes", "spider:collection_time": "2024-02-07T08:23:59.531981"}, "geometry": {"coordinates": [-76.2135229801, 36.9145080153], "type": "Point"}, "id": "8nBrsb6fpbz0QGGJJfvifa765Kk=", "properties": {"@spider": "usps_collection_boxes", "addr:city": "NORFOLK", "addr:country": "US", "addr:full": "2461 E LITTLE CREEK RD", "addr:postcode": "23518", "addr:state": "VA", "amenity": "post_box", "brand": "United States Postal Service", "brand:wikidata": "Q668687", "collection_times": "Mo-Fr 17:00; Sa 15:00", "name": "USPS COLLECTION BOX - BLUE BOX", "note": "ON 12/24 AND 12/31, THIS BOX MAY BE COLLECTED AS EARLY AS 12 NOON.", "nsi_id": "unitedstatespostalservice-a77078", "operator": "United States Postal Service", "operator:short": "USPS", "operator:type": "public", "operator:wikidata": "Q668687", "ref": "2351800003"}, "type": "Feature"}
{"dataset_attributes": {"@spider": "usps_collection_boxes", "spider:collection_time": "2024-02-07T08:23:59.531981"}, "geometry": {"coordinates": [-76.2135229801, 36.9145080153], "type": "Point"}, "id": "QU-GerIpoZ0h8LzGSIk04K7YyiA=", "properties": {"@spider": "usps_collection_boxes", "addr:city": "NORFOLK", "addr:country": "US", "addr:full": "2461 E LITTLE CREEK RD", "addr:postcode": "23518", "addr:state": "VA", "amenity": "post_box", "brand": "United States Postal Service", "brand:wikidata": "Q668687", "collection_times": "Mo-Fr 17:00", "name": "USPS COLLECTION BOX - EXPRESS", "note": "ON 12/24 AND 12/31, THIS BOX MAY BE COLLECTED AS EARLY AS 12 NOON.", "nsi_id": "unitedstatespostalservice-a77078", "operator": "United States Postal Service", "operator:short": "USPS", "operator:type": "public", "operator:wikidata": "Q668687", "ref": "2351800004"}, "type": "Feature"}
{"dataset_attributes": {"@spider": "usps_collection_boxes", "spider:collection_time": "2024-02-07T08:23:59.531981"}, "geometry": {"coordinates": [-76.217952693, 36.915227532], "type": "Point"}, "id": "nnZv3SWdYw_MpRFlSSFEXwIWuaw=", "properties": {"@spider": "usps_collection_boxes", "addr:city": "NORFOLK", "addr:country": "US", "addr:full": "2340 E LITTLE CREEK RD", "addr:postcode": "23518", "addr:state": "VA", "amenity": "post_box", "brand": "United States Postal Service", "brand:wikidata": "Q668687", "collection_times": "Mo-Fr 17:00; Sa 12:00", "name": "USPS COLLECTION BOX - BLUE BOX", "note": "ON 12/24 AND 12/31, THIS BOX MAY BE COLLECTED AS EARLY AS 12 NOON.", "nsi_id": "unitedstatespostalservice-a77078", "operator": "United States Postal Service", "operator:short": "USPS", "operator:type": "public", "operator:wikidata": "Q668687", "ref": "2351800005"}, "type": "Feature"}
{"dataset_attributes": {"@spider": "usps_collection_boxes", "spider:collection_time": "2024-02-07T08:23:59.531981"}, "geometry": {"coordinates": [-76.224796514, 36.915767991], "type": "Point"}, "id": "xBaCcY_5XT7RhMcwJH_rWOuh39M=", "properties": {"@spider": "usps_collection_boxes", "addr:city": "NORFOLK", "addr:country": "US", "addr:full": "1851 E LITTLE CREEK RD", "addr:postcode": "23518", "addr:state": "VA", "amenity": "post_box", "brand": "United States Postal Service", "brand:wikidata": "Q668687", "collection_times": "Mo-Sa 09:00", "name": "USPS COLLECTION BOX - BLUE BOX", "nsi_id": "unitedstatespostalservice-a77078", "operator": "United States Postal Service", "operator:short": "USPS", "operator:type": "public", "operator:wikidata": "Q668687", "ref": "2351800006"}, "type": "Feature"}
{"dataset_attributes": {"@spider": "usps_collection_boxes", "spider:collection_time": "2024-02-07T08:23:59.531981"}, "geometry": {"coordinates": [-76.241617782, 36.916480299], "type": "Point"}, "id": "6ZEPuHh8mvn2gtZtUjeVH2dbkCk=", "properties": {"@spider": "usps_collection_boxes", "addr:city": "NORFOLK", "addr:country": "US", "addr:full": "7930 CHESAPEAKE BLVD", "addr:postcode": "23518", "addr:state": "VA", "amenity": "post_box", "brand": "United States Postal Service", "brand:wikidata": "Q668687", "collection_times": "Mo-Fr 17:00; Sa 13:30", "name": "USPS COLLECTION BOX - BLUE BOX", "note": "ON 12/24 AND 12/31, THIS BOX MAY BE COLLECTED AS EARLY AS 12 NOON.", "nsi_id": "unitedstatespostalservice-a77078", "operator": "United States Postal Service", "operator:short": "USPS", "operator:type": "public", "operator:wikidata": "Q668687", "ref": "2351800007"}, "type": "Feature"}
{"dataset_attributes": {"@spider": "usps_collection_boxes", "spider:collection_time": "2024-02-07T08:23:59.531981"}, "geometry": {"coordinates": [-76.234967477, 36.92458797], "type": "Point"}, "id": "ztoeIbnz_0T7ycnbfUA0fBUUt5s=", "properties": {"@spider": "usps_collection_boxes", "addr:city": "NORFOLK", "addr:country": "US", "addr:full": "1369 SHEPPARD AVE", "addr:postcode": "23518", "addr:state": "VA", "amenity": "post_box", "brand": "United States Postal Service", "brand:wikidata": "Q668687", "collection_times": "Mo-Sa 09:00", "name": "USPS COLLECTION BOX - BLUE BOX", "nsi_id": "unitedstatespostalservice-a77078", "operator": "United States Postal Service", "operator:short": "USPS", "operator:type": "public", "operator:wikidata": "Q668687", "ref": "2351800008"}, "type": "Feature"}
{"dataset_attributes": {"@spider": "usps_collection_boxes", "spider:collection_time": "2024-02-07T08:23:59.531981"}, "geometry": {"coordinates": [-76.250009972, 36.920929914], "type": "Point"}, "id": "Ucq2DW4kicWclQ65QTZaKLqQwYs=", "properties": {"@spider": "usps_collection_boxes", "addr:city": "NORFOLK", "addr:country": "US", "addr:full": "8148 COLIN DR", "addr:postcode": "23518", "addr:state": "VA", "amenity": "post_box", "brand": "United States Postal Service", "brand:wikidata": "Q668687", "collection_times": "Mo-Sa 09:00", "name": "USPS COLLECTION BOX - BLUE BOX", "nsi_id": "unitedstatespostalservice-a77078", "operator": "United States Postal Service", "operator:short": "USPS", "operator:type": "public", "operator:wikidata": "Q668687", "ref": "2351800010"}, "type": "Feature"}
{"dataset_attributes": {"@spider": "usps_collection_boxes", "spider:collection_time": "2024-02-07T08:23:59.531981"}, "geometry": {"coordinates": [-76.224147152, 36.895997532], "type": "Point"}, "id": "MTv_mjr23hLGepKNsI2cDsCx1cI=", "properties": {"@spider": "usps_collection_boxes", "addr:city": "NORFOLK", "addr:country": "US", "addr:full": "6204 N MILITARY HWY", "addr:postcode": "23518", "addr:state": "VA", "amenity": "post_box", "brand": "United States Postal Service", "brand:wikidata": "Q668687", "collection_times": "Mo-Fr 16:45; Sa 13:00", "name": "USPS COLLECTION BOX - BLUE BOX", "note": "ON 12/24 AND 12/31, THIS BOX MAY BE COLLECTED AS EARLY AS 12 NOON.", "nsi_id": "unitedstatespostalservice-a77078", "operator": "United States Postal Service", "operator:short": "USPS", "operator:type": "public", "operator:wikidata": "Q668687", "ref": "2351800020"}, "type": "Feature"}
{"dataset_attributes": {"@spider": "usps_collection_boxes", "spider:collection_time": "2024-02-07T08:23:59.531981"}, "geometry": {"coordinates": [-76.228265621, 36.9060414], "type": "Point"}, "id": "cpecyQ4q1FwcZuWdyuKgJb7CEho=", "properties": {"@spider": "usps_collection_boxes", "addr:city": "NORFOLK", "addr:country": "US", "addr:full": "1601 SPRINGMEADOW BLVD", "addr:postcode": "23518", "addr:state": "VA", "amenity": "post_box", "brand": "United States Postal Service", "brand:wikidata": "Q668687", "collection_times": "Mo-Sa 09:00", "name": "USPS COLLECTION BOX - BLUE BOX", "nsi_id": "unitedstatespostalservice-a77078", "operator": "United States Postal Service", "operator:short": "USPS", "operator:type": "public", "operator:wikidata": "Q668687", "ref": "2351800022"}, "type": "Feature"}
{"dataset_attributes": {"@spider": "usps_collection_boxes", "spider:collection_time": "2024-02-07T08:23:59.531981"}, "geometry": {"coordinates": [-76.217645878, 36.893482576], "type": "Point"}, "id": "E4-__GoSyEOx9ptF5jVurXXP1JA=", "properties": {"@spider": "usps_collection_boxes", "addr:city": "NORFOLK", "addr:country": "US", "addr:full": "5801 AZALEA GARDEN RD", "addr:postcode": "23518", "addr:state": "VA", "amenity": "post_box", "brand": "United States Postal Service", "brand:wikidata": "Q668687", "collection_times": "Mo-Sa 09:00", "name": "USPS COLLECTION BOX - BLUE BOX", "nsi_id": "unitedstatespostalservice-a77078", "operator": "United States Postal Service", "operator:short": "USPS", "operator:type": "public", "operator:wikidata": "Q668687", "ref": "2351800024"}, "type": "Feature"}
{"dataset_attributes": {"@spider": "usps_collection_boxes", "spider:collection_time": "2024-02-07T08:23:59.531981"}, "geometry": {"coordinates": [-76.1918085, 36.927369], "type": "Point"}, "id": "zSkXCqd75jlLZBKcZ3wpvw2iRN8=", "properties": {"@spider": "usps_collection_boxes", "addr:city": "NORFOLK", "addr:country": "US", "addr:full": "9557 SHORE DR", "addr:postcode": "23518", "addr:state": "VA", "amenity": "post_box", "brand": "United States Postal Service", "brand:wikidata": "Q668687", "collection_times": "Mo-Sa 09:00", "name": "USPS COLLECTION BOX - BLUE BOX", "nsi_id": "unitedstatespostalservice-a77078", "operator": "United States Postal Service", "operator:short": "USPS", "operator:type": "public", "operator:wikidata": "Q668687", "ref": "2351800031"}, "type": "Feature"}
{"dataset_attributes": {"@spider": "usps_collection_boxes", "spider:collection_time": "2024-02-07T08:23:59.531981"}, "geometry": {"coordinates": [-76.238074339, 36.918078276], "type": "Point"}, "id": "hXyWbdUBuXB083mOJ1o7GbV3ms8=", "properties": {"@spider": "usps_collection_boxes", "addr:city": "NORFOLK", "addr:country": "US", "addr:full": "8021 CARLTON ST", "addr:postcode": "23518", "addr:state": "VA", "amenity": "post_box", "brand": "United States Postal Service", "brand:wikidata": "Q668687", "collection_times": "Mo-Sa 09:00", "name": "USPS COLLECTION BOX - BLUE BOX", "nsi_id": "unitedstatespostalservice-a77078", "operator": "United States Postal Service", "operator:short": "USPS", "operator:type": "public", "operator:wikidata": "Q668687", "ref": "2351800042"}, "type": "Feature"}
{"dataset_attributes": {"@spider": "usps_collection_boxes", "spider:collection_time": "2024-02-07T08:23:59.531981"}, "geometry": {"coordinates": [-76.233397567, 36.91646895], "type": "Point"}, "id": "xolQzwNYJ-DU-q9uQQ3T2QzRuhY=", "properties": {"@spider": "usps_collection_boxes", "addr:city": "NORFOLK", "addr:country": "US", "addr:full": "1500 E LITTLE CREEK RD", "addr:postcode": "23518", "addr:state": "VA", "amenity": "post_box", "brand": "United States Postal Service", "brand:wikidata": "Q668687", "collection_times": "Mo-Fr 17:00; Sa 14:30", "name": "USPS COLLECTION BOX - BLUE BOX", "note": "ON 12/24 AND 12/31, THIS BOX MAY BE COLLECTED AS EARLY AS 12 NOON.", "nsi_id": "unitedstatespostalservice-a77078", "operator": "United States Postal Service", "operator:short": "USPS", "operator:type": "public", "operator:wikidata": "Q668687", "ref": "2351800043"}, "type": "Feature"}
{"dataset_attributes": {"@spider": "usps_collection_boxes", "spider:collection_time": "2024-02-07T08:23:59.531981"}, "geometry": {"coordinates": [-76.232935234, 36.909591464], "type": "Point"}, "id": "nu85rDSA5AjSgZdRk0xrMBcOYdI=", "properties": {"@spider": "usps_collection_boxes", "addr:city": "NORFOLK", "addr:country": "US", "addr:full": "1524 JOHNSTONS RD", "addr:postcode": "23518", "addr:state": "VA", "amenity": "post_box", "brand": "United States Postal Service", "brand:wikidata": "Q668687", "collection_times": "Mo-Sa 09:00", "name": "USPS COLLECTION BOX - BLUE BOX", "nsi_id": "unitedstatespostalservice-a77078", "operator": "United States Postal Service", "operator:short": "USPS", "operator:type": "public", "operator:wikidata": "Q668687", "ref": "2351800046"}, "type": "Feature"}
{"dataset_attributes": {"@spider": "usps_collection_boxes", "spider:collection_time": "2024-02-07T08:23:59.531981"}, "geometry": {"coordinates": [-76.203114782, 36.91844055], "type": "Point"}, "id": "8chY3oQWkqQExP27Ew3PJoQMtqI=", "properties": {"@spider": "usps_collection_boxes", "addr:city": "NORFOLK", "addr:country": "US", "addr:full": "7931 WALTERS DR", "addr:postcode": "23518", "addr:state": "VA", "amenity": "post_box", "brand": "United States Postal Service", "brand:wikidata": "Q668687", "collection_times": "Mo-Sa 09:00", "name": "USPS COLLECTION BOX - BLUE BOX", "nsi_id": "unitedstatespostalservice-a77078", "operator": "United States Postal Service", "operator:short": "USPS", "operator:type": "public", "operator:wikidata": "Q668687", "ref": "2351800048"}, "type": "Feature"}
{"dataset_attributes": {"@spider": "usps_collection_boxes", "spider:collection_time": "2024-02-07T08:23:59.531981"}, "geometry": {"coordinates": [-76.210347513, 36.891811529], "type": "Point"}, "id": "olEqMAUpwcEHEAhfQVxwjIAxDwo=", "properties": {"@spider": "usps_collection_boxes", "addr:city": "NORFOLK", "addr:country": "US", "addr:full": "6000 ROBIN HOOD RD", "addr:postcode": "23518", "addr:state": "VA", "amenity": "post_box", "brand": "United States Postal Service", "brand:wikidata": "Q668687", "collection_times": "Mo-Fr 17:00; Sa 13:45", "name": "USPS COLLECTION BOX - BLUE BOX", "note": "ON 12/24 AND 12/31, THIS BOX MAY BE COLLECTED AS EARLY AS 12 NOON.", "nsi_id": "unitedstatespostalservice-a77078", "operator": "United States Postal Service", "operator:short": "USPS", "operator:type": "public", "operator:wikidata": "Q668687", "ref": "2351800052"}, "type": "Feature"}
{"dataset_attributes": {"@spider": "usps_collection_boxes", "spider:collection_time": "2024-02-07T08:23:59.531981"}, "geometry": {"coordinates": [-76.193747498, 36.917928502], "type": "Point"}, "id": "t3-nUqGD7Phbp86l72R2YYvYOrc=", "properties": {"@spider": "usps_collection_boxes", "addr:city": "NORFOLK", "addr:country": "US", "addr:full": "4249 E LITTLE CREEK RD STE C", "addr:postcode": "23518", "addr:state": "VA", "amenity": "post_box", "brand": "United States Postal Service", "brand:wikidata": "Q668687", "collection_times": "Mo-Fr 17:00; Sa 13:00", "name": "USPS COLLECTION BOX - BLUE BOX", "note": "ON 12/24 AND 12/31, THIS BOX MAY BE COLLECTED AS EARLY AS 12 NOON.", "nsi_id": "unitedstatespostalservice-a77078", "operator": "United States Postal Service", "operator:short": "USPS", "operator:type": "public", "operator:wikidata": "Q668687", "ref": "2351800055"}, "type": "Feature"}
{"dataset_attributes": {"@spider": "usps_collection_boxes", "spider:collection_time": "2024-02-07T08:23:59.531981"}, "geometry": {"coordinates": [-76.223838272, 36.895081308], "type": "Point"}, "id": "6_5kqPgtxM1kQLfOMwryA0SjAGo=", "properties": {"@spider": "usps_collection_boxes", "addr:city": "NORFOLK", "addr:country": "US", "addr:full": "6101 N MILITARY HWY", "addr:postcode": "23518", "addr:state": "VA", "amenity": "post_box", "brand": "United States Postal Service", "brand:wikidata": "Q668687", "collection_times": "Mo-Sa 09:00", "name": "USPS COLLECTION BOX - BLUE BOX", "nsi_id": "unitedstatespostalservice-a77078", "operator": "United States Postal Service", "operator:short": "USPS", "operator:type": "public", "operator:wikidata": "Q668687", "ref": "2351800060"}, "type": "Feature"}
{"dataset_attributes": {"@spider": "usps_collection_boxes", "spider:collection_time": "2024-02-07T08:23:59.531981"}, "geometry": {"coordinates": [-76.213588977, 36.915099542], "type": "Point"}, "id": "2RV8iE5SI89J7zSPplrUkSSHYSU=", "properties": {"@spider": "usps_collection_boxes", "addr:city": "NORFOLK", "addr:country": "US", "addr:full": "2461 E LITTLE CREEK RD", "addr:postcode": "23518", "addr:state": "VA", "amenity": "post_box", "brand": "United States Postal Service", "brand:wikidata": "Q668687", "collection_times": "Mo-Fr 17:00; Sa 15:30", "name": "USPS COLLECTION BOX - PO LOBBY", "note": "ON 12/24 AND 12/31, THIS BOX MAY BE COLLECTED AS EARLY AS 12 NOON.", "nsi_id": "unitedstatespostalservice-a77078", "operator": "United States Postal Service", "operator:short": "USPS", "operator:type": "public", "operator:wikidata": "Q668687", "ref": "2351800061"}, "type": "Feature"}
{"dataset_attributes": {"@spider": "usps_collection_boxes", "spider:collection_time": "2024-02-07T08:23:59.531981"}, "geometry": {"coordinates": [-76.210347513, 36.891811529], "type": "Point"}, "id": "HeNBGr9WCuiahAjnS-1Yh2xoQtA=", "properties": {"@spider": "usps_collection_boxes", "addr:city": "NORFOLK", "addr:country": "US", "addr:full": "6000 ROBIN HOOD RD", "addr:postcode": "23518", "addr:state": "VA", "amenity": "post_box", "brand": "United States Postal Service", "brand:wikidata": "Q668687", "collection_times": "Mo-Fr 17:00", "name": "USPS COLLECTION BOX - EXPRESS", "note": "ON 12/24 AND 12/31, THIS BOX MAY BE COLLECTED AS EARLY AS 12 NOON.", "nsi_id": "unitedstatespostalservice-a77078", "operator": "United States Postal Service", "operator:short": "USPS", "operator:type": "public", "operator:wikidata": "Q668687", "ref": "2351800062"}, "type": "Feature"}
{"dataset_attributes": {"@spider": "usps_collection_boxes", "spider:collection_time": "2024-02-07T08:23:59.531981"}, "geometry": {"coordinates": [-76.213588977, 36.915099542], "type": "Point"}, "id": "g35GT8EiimOekbSsBdXqmrQ8Et0=", "properties": {"@spider": "usps_collection_boxes", "addr:city": "NORFOLK", "addr:country": "US", "addr:full": "2461 E LITTLE CREEK RD", "addr:postcode": "23518", "addr:state": "VA", "amenity": "post_box", "brand": "United States Postal Service", "brand:wikidata": "Q668687", "collection_times": "Mo-Fr 17:00; Sa 13:00", "name": "USPS COLLECTION BOX - PO LOBBY", "note": "ON 12/24 AND 12/31, THIS BOX MAY BE COLLECTED AS EARLY AS 12 NOON.", "nsi_id": "unitedstatespostalservice-a77078", "operator": "United States Postal Service", "operator:short": "USPS", "operator:type": "public", "operator:wikidata": "Q668687", "ref": "2351800074"}, "type": "Feature"}
{"dataset_attributes": {"@spider": "usps_collection_boxes", "spider:collection_time": "2024-02-07T08:23:59.531981"}, "geometry": {"coordinates": [-76.266237161, 36.828379447], "type": "Point"}, "id": "jZMgFsZHf7n-8XV-BaPruiT931Q=", "properties": {"@spider": "usps_collection_boxes", "addr:city": "NORFOLK", "addr:country": "US", "addr:full": "1434 WILSON RD", "addr:postcode": "23523", "addr:state": "VA", "amenity": "post_box", "brand": "United States Postal Service", "brand:wikidata": "Q668687", "collection_times": "Mo-Sa 09:00", "name": "USPS COLLECTION BOX - BLUE BOX", "nsi_id": "unitedstatespostalservice-a77078", "operator": "United States Postal Service", "operator:short": "USPS", "operator:type": "public", "operator:wikidata": "Q668687", "ref": "2352300007"}, "type": "Feature"}
{"dataset_attributes": {"@spider": "usps_collection_boxes", "spider:collection_time": "2024-02-07T08:23:59.531981"}, "geometry": {"coordinates": [-76.269434742, 36.829581684], "type": "Point"}, "id": "SYesC_lY56XR2YaNXFxU--Dnd3s=", "properties": {"@spider": "usps_collection_boxes", "addr:city": "NORFOLK", "addr:country": "US", "addr:full": "912 ROSECLAIR ST", "addr:postcode": "23523", "addr:state": "VA", "amenity": "post_box", "brand": "United States Postal Service", "brand:wikidata": "Q668687", "collection_times": "Mo-Sa 09:00", "name": "USPS COLLECTION BOX - BLUE BOX", "nsi_id": "unitedstatespostalservice-a77078", "operator": "United States Postal Service", "operator:short": "USPS", "operator:type": "public", "operator:wikidata": "Q668687", "ref": "2352300009"}, "type": "Feature"}
{"dataset_attributes": {"@spider": "usps_collection_boxes", "spider:collection_time": "2024-02-07T08:23:59.531981"}, "geometry": {"coordinates": [-76.279662758, 36.828021385], "type": "Point"}, "id": "dVyPHPytFcfN2LelPJ42MOmubvI=", "properties": {"@spider": "usps_collection_boxes", "addr:city": "NORFOLK", "addr:country": "US", "addr:full": "711 E LIBERTY ST", "addr:postcode": "23523", "addr:state": "VA", "amenity": "post_box", "brand": "United States Postal Service", "brand:wikidata": "Q668687", "collection_times": "Mo-Fr 16:30", "name": "USPS COLLECTION BOX - EXPRESS", "note": "ON 12/24 AND 12/31, THIS BOX MAY BE COLLECTED AS EARLY AS 12 NOON.", "nsi_id": "unitedstatespostalservice-a77078", "operator": "United States Postal Service", "operator:short": "USPS", "operator:type": "public", "operator:wikidata": "Q668687", "ref": "2352300012"}, "type": "Feature"}
{"dataset_attributes": {"@spider": "usps_collection_boxes", "spider:collection_time": "2024-02-07T08:23:59.531981"}, "geometry": {"coordinates": [-76.279662758, 36.828021385], "type": "Point"}, "id": "M8s-G3p0SfmOY31_r-azZOhFKuM=", "properties": {"@spider": "usps_collection_boxes", "addr:city": "NORFOLK", "addr:country": "US", "addr:full": "711 E LIBERTY ST", "addr:postcode": "23523", "addr:state": "VA", "amenity": "post_box", "brand": "United States Postal Service", "brand:wikidata": "Q668687", "collection_times": "Mo-Fr 17:00; Sa 15:00", "name": "USPS COLLECTION BOX - BLUE BOX", "note": "ON 12/24 AND 12/31, THIS BOX MAY BE COLLECTED AS EARLY AS 12 NOON.", "nsi_id": "unitedstatespostalservice-a77078", "operator": "United States Postal Service", "operator:short": "USPS", "operator:type": "public", "operator:wikidata": "Q668687", "ref": "2352300022"}, "type": "Feature"}
{"dataset_attributes": {"@spider": "usps_collection_boxes", "spider:collection_time": "2024-02-07T08:23:59.531981"}, "geometry": {"coordinates": [-76.2619072466, 36.8340965712], "type": "Point"}, "id": "iJSPqo-ajvCQh1yZVOSbgZ1i-zM=", "properties": {"@spider": "usps_collection_boxes", "addr:city": "NORFOLK", "addr:country": "US", "addr:full": "1710 SPRINGFIELD AVE", "addr:postcode": "23523", "addr:state": "VA", "amenity": "post_box", "brand": "United States Postal Service", "brand:wikidata": "Q668687", "collection_times": "Mo-Sa 09:00", "name": "USPS COLLECTION BOX - BLUE BOX", "nsi_id": "unitedstatespostalservice-a77078", "operator": "United States Postal Service", "operator:short": "USPS", "operator:type": "public", "operator:wikidata": "Q668687", "ref": "2352300023"}, "type": "Feature"}
{"dataset_attributes": {"@spider": "usps_collection_boxes", "spider:collection_time": "2024-02-07T08:23:59.531981"}, "geometry": {"coordinates": [-76.279662758, 36.828021385], "type": "Point"}, "id": "Ti1b4_o2wRrBpIl3DgN16_Mh8Uk=", "properties": {"@spider": "usps_collection_boxes", "addr:city": "NORFOLK", "addr:country": "US", "addr:full": "711 E LIBERTY ST", "addr:postcode": "23523", "addr:state": "VA", "amenity": "post_box", "brand": "United States Postal Service", "brand:wikidata": "Q668687", "collection_times": "Mo-Fr 15:00", "name": "USPS COLLECTION BOX - PO LOBBY", "note": "ON 12/24 AND 12/31, THIS BOX MAY BE COLLECTED AS EARLY AS 12 NOON.", "nsi_id": "unitedstatespostalservice-a77078", "operator": "United States Postal Service", "operator:short": "USPS", "operator:type": "public", "operator:wikidata": "Q668687", "ref": "2352300025"}, "type": "Feature"}
