{"geometry": {"coordinates": [-76.472917936, 37.04317843], "type": "Point"}, "id": "5Vnsmko-0u64BAEyYaiKx46a01k=", "properties": {"@source_uri": "https://tools.usps.com/UspsToolsRestServices/rest/POLocator/findLocations", "@spider": "usps_collection_boxes", "addr:city": "NEWPORT NEWS", "addr:country": "US", "addr:postcode": "23601", "addr:state": "VA", "addr:street_address": "11006 WARWICK BLVD", "amenity": "post_box", "collection_times": "Mo-Fr 15:00; Sa 14:15", "note": "ON 12/24 AND 12/31, THIS BOX MAY BE COLLECTED AS EARLY AS 12 NOON.", "nsi_id": "unitedstatespostalservice-a77078", "operator": "United States Postal Service", "operator:short": "USPS", "operator:type": "public", "operator:wikidata": "Q668687", "ref": "2360100014"}, "type": "Feature"}
{"geometry": {"coordinates": [-76.46713459, 37.077124924], "type": "Point"}, "id": "-ibmNYVcZkmgmmThXf2actS6xHw=", "properties": {"@source_uri": "https://tools.usps.com/UspsToolsRestServices/rest/POLocator/findLocations", "@spider": "usps_collection_boxes", "addr:city": "NEWPORT NEWS", "addr:country": "US", "addr:postcode": "23601", "addr:state": "VA", "addr:street_address": "711 J CLYDE MORRIS BLVD", "amenity": "post_box", "collection_times": "Mo-Sa 12:00", "nsi_id": "unitedstatespostalservice-a77078", "operator": "United States Postal Service", "operator:short": "USPS", "operator:type": "public", "operator:wikidata": "Q668687", "ref": "2360100018"}, "type": "Feature"}
{"geometry": {"coordinates": [-76.454628879, 37.024838202], "type": "Point"}, "id": "r_e3TDkjrL3NsY8f1y0O38nH8_0=", "properties": {"@source_uri": "https://tools.usps.com/UspsToolsRestServices/rest/POLocator/findLocations", "@spider": "usps_collection_boxes", "addr:city": "NEWPORT NEWS", "addr:country": "US", "addr:postcode": "23601", "addr:state": "VA", "addr:street_address": "9600 WARWICK BLVD", "amenity": "post_box", "collection_times": "Mo-Sa 12:00", "nsi_id": "unitedstatespostalservice-a77078", "operator": "United States Postal Service", "operator:short": "USPS", "operator:type": "public", "operator:wikidata": "Q668687", "ref": "2360100022"}, "type": "Feature"}
{"geometry": {"coordinates": [-76.468142485, 37.038979044], "type": "Point"}, "id": "l5eL7BB2ZmNKsb3w0XUNmdCYaKM=", "properties": {"@source_uri": "https://tools.usps.com/UspsToolsRestServices/rest/POLocator/findLocations", "@spider": "usps_collection_boxes", "addr:city": "NEWPORT NEWS", "addr:country": "US", "addr:postcode": "23601", "addr:state": "VA", "addr:street_address": "10814 WARWICK BLVD", "amenity": "post_box", "collection_times": "Mo-Sa 15:00", "note": "ON 12/24 AND 12/31, THIS BOX MAY BE COLLECTED AS EARLY AS 12 NOON.", "nsi_id": "unitedstatespostalservice-a77078", "operator": "United States Postal Service", "operator:short": "USPS", "operator:type": "public", "operator:wikidata": "Q668687", "ref": "2360100024"}, "type": "Feature"}
{"geometry": {"coordinates": [-76.485705486, 37.063366871], "type": "Point"}, "id": "3BKFm1NeWkXP_qkRNKw6k2Q3RK8=", "properties": {"@source_uri": "https://tools.usps.com/UspsToolsRestServices/rest/POLocator/findLocations", "@spider": "usps_collection_boxes", "addr:city": "NEWPORT NEWS", "addr:country": "US", "addr:postcode": "23601", "addr:state": "VA", "addr:street_address": "416 J CLYDE MORRIS BLVD", "amenity": "post_box", "collection_times": "Mo-Fr 17:00", "note": "ON 12/24 AND 12/31, THIS BOX MAY BE COLLECTED AS EARLY AS 12 NOON.", "nsi_id": "unitedstatespostalservice-a77078", "operator": "United States Postal Service", "operator:short": "USPS", "operator:type": "public", "operator:wikidata": "Q668687", "ref": "2360100027"}, "type": "Feature"}
{"geometry": {"coordinates": [-76.458927548, 37.096199559], "type": "Point"}, "id": "hcyRi0K8fyVlfDHkitXPMWrNIxM=", "properties": {"@source_uri": "https://tools.usps.com/UspsToolsRestServices/rest/POLocator/findLocations", "@spider": "usps_collection_boxes", "addr:city": "NEWPORT NEWS", "addr:country": "US", "addr:postcode": "23601", "addr:state": "VA", "addr:street_address": "980 J CLYDE MORRIS BLVD STE 116", "amenity": "post_box", "collection_times": "Mo-Sa 12:00", "nsi_id": "unitedstatespostalservice-a77078", "operator": "United States Postal Service", "operator:short": "USPS", "operator:type": "public", "operator:wikidata": "Q668687", "ref": "2360100032"}, "type": "Feature"}
{"geometry": {"coordinates": [-76.470152547, 37.04077995], "type": "Point"}, "id": "aQAQKxAEd-zfBbHkbP8V8lj7vd0=", "properties": {"@source_uri": "https://tools.usps.com/UspsToolsRestServices/rest/POLocator/findLocations", "@spider": "usps_collection_boxes", "addr:city": "NEWPORT NEWS", "addr:country": "US", "addr:postcode": "23601", "addr:state": "VA", "addr:street_address": "10830 WARWICK BLVD", "amenity": "post_box", "collection_times": "Mo-Fr 16:15; Sa 15:30", "indoor": "yes", "note": "ON 12/24 AND 12/31, THIS BOX MAY BE COLLECTED AS EARLY AS 12 NOON.", "nsi_id": "unitedstatespostalservice-a77078", "operator": "United States Postal Service", "operator:short": "USPS", "operator:type": "public", "operator:wikidata": "Q668687", "ref": "2360100033"}, "type": "Feature"}
{"geometry": {"coordinates": [-76.470152547, 37.04077995], "type": "Point"}, "id": "7DPquOe6neluj_t8p9ReqAiD6MA=", "properties": {"@source_uri": "https://tools.usps.com/UspsToolsRestServices/rest/POLocator/findLocations", "@spider": "usps_collection_boxes", "addr:city": "NEWPORT NEWS", "addr:country": "US", "addr:postcode": "23601", "addr:state": "VA", "addr:street_address": "10830 WARWICK BLVD", "amenity": "post_box", "collection_times": "Mo-Fr 16:30; Sa 12:00", "indoor": "yes", "note": "ON 12/24 AND 12/31, THIS BOX MAY BE COLLECTED AS EARLY AS 12 NOON.", "nsi_id": "unitedstatespostalservice-a77078", "operator": "United States Postal Service", "operator:short": "USPS", "operator:type": "public", "operator:wikidata": "Q668687", "ref": "2360100046"}, "type": "Feature"}
{"geometry": {"coordinates": [-76.5317571892, 37.1259951252], "type": "Point"}, "id": "OUwhu1OQAnL3pJ-Z-3Ts2v_KJD0=", "properties": {"@source_uri": "https://tools.usps.com/UspsToolsRestServices/rest/POLocator/findLocations", "@spider": "usps_collection_boxes", "addr:city": "NEWPORT NEWS", "addr:country": "US", "addr:postcode": "23602", "addr:state": "VA", "addr:street_address": "14104 WARWICK BLVD", "amenity": "post_box", "collection_times": "Mo-Fr 17:00; Sa 10:00", "note": "ON 12/24 AND 12/31, THIS BOX MAY BE COLLECTED AS EARLY AS 12 NOON.", "nsi_id": "unitedstatespostalservice-a77078", "operator": "United States Postal Service", "operator:short": "USPS", "operator:type": "public", "operator:wikidata": "Q668687", "ref": "2360200003"}, "type": "Feature"}
{"geometry": {"coordinates": [-76.531702958, 37.126055014], "type": "Point"}, "id": "P6U289NV1lxbc6roz2yVys_uiAY=", "properties": {"@source_uri": "https://tools.usps.com/UspsToolsRestServices/rest/POLocator/findLocations", "@spider": "usps_collection_boxes", "addr:city": "NEWPORT NEWS", "addr:country": "US", "addr:postcode": "23602", "addr:state": "VA", "addr:street_address": "14104 WARWICK BLVD", "amenity": "post_box", "collection_times": "Mo-Fr 16:30; Sa 12:00", "indoor": "yes", "note": "ON 12/24 AND 12/31, THIS BOX MAY BE COLLECTED AS EARLY AS 12 NOON.", "nsi_id": "unitedstatespostalservice-a77078", "operator": "United States Postal Service", "operator:short": "USPS", "operator:type": "public", "operator:wikidata": "Q668687", "ref": "2360200005"}, "type": "Feature"}
{"geometry": {"coordinates": [-76.518728181, 37.136651036], "type": "Point"}, "id": "xXyo7DEl5L_8f4R_k6MD7kSOvOU=", "properties": {"@source_uri": "https://tools.usps.com/UspsToolsRestServices/rest/POLocator/findLocations", "@spider": "usps_collection_boxes", "addr:city": "NEWPORT NEWS", "addr:country": "US", "addr:postcode": "23602", "addr:state": "VA", "addr:street_address": "12725 JEFFERSON AVE", "amenity": "post_box", "collection_times": "Mo-Sa 09:00", "nsi_id": "unitedstatespostalservice-a77078", "operator": "United States Postal Service", "operator:short": "USPS", "operator:type": "public", "operator:wikidata": "Q668687", "ref": "2360200009"}, "type": "Feature"}
{"geometry": {"coordinates": [-76.545077405, 37.17222737], "type": "Point"}, "id": "I0SY45sSAXDcVGIr1FVDoEBKS10=", "properties": {"@source_uri": "https://tools.usps.com/UspsToolsRestServices/rest/POLocator/findLocations", "@spider": "usps_collection_boxes", "addr:city": "NEWPORT NEWS", "addr:country": "US", "addr:postcode": "23602", "addr:state": "VA", "addr:street_address": "801 CHAPIN WOOD DR", "amenity": "post_box", "collection_times": "Mo-Fr 13:00; Sa 13:30", "note": "ON 12/24 AND 12/31, THIS BOX MAY BE COLLECTED AS EARLY AS 12 NOON.", "nsi_id": "unitedstatespostalservice-a77078", "operator": "United States Postal Service", "operator:short": "USPS", "operator:type": "public", "operator:wikidata": "Q668687", "ref": "2360200019"}, "type": "Feature"}
{"geometry": {"coordinates": [-76.564158373, 37.167422921], "type": "Point"}, "id": "e01nAmCZ2y5LU4iXSlxRtPyqXwI=", "properties": {"@source_uri": "https://tools.usps.com/UspsToolsRestServices/rest/POLocator/findLocations", "@spider": "usps_collection_boxes", "addr:city": "NEWPORT NEWS", "addr:country": "US", "addr:postcode": "23602", "addr:state": "VA", "addr:street_address": "451 RIVERS RIDGE CIR", "amenity": "post_box", "collection_times": "Mo-Sa 13:30", "note": "ON 12/24 AND 12/31, THIS BOX MAY BE COLLECTED AS EARLY AS 12 NOON.", "nsi_id": "unitedstatespostalservice-a77078", "operator": "United States Postal Service", "operator:short": "USPS", "operator:type": "public", "operator:wikidata": "Q668687", "ref": "2360200020"}, "type": "Feature"}
{"geometry": {"coordinates": [-76.5191874357, 37.1335093338], "type": "Point"}, "id": "0eomnVcHERl39D5gbqS3fga0WEk=", "properties": {"@source_uri": "https://tools.usps.com/UspsToolsRestServices/rest/POLocator/findLocations", "@spider": "usps_collection_boxes", "addr:city": "NEWPORT NEWS", "addr:country": "US", "addr:postcode": "23602", "addr:state": "VA", "addr:street_address": "574 TURNBERRY BLVD", "amenity": "post_box", "collection_times": "Mo-Sa 09:00", "nsi_id": "unitedstatespostalservice-a77078", "operator": "United States Postal Service", "operator:short": "USPS", "operator:type": "public", "operator:wikidata": "Q668687", "ref": "2360200021"}, "type": "Feature"}
{"geometry": {"coordinates": [-76.491031972, 37.106584473], "type": "Point"}, "id": "qVd8ltrFNwv4-tBvLkHLMUyPYPo=", "properties": {"@source_uri": "https://tools.usps.com/UspsToolsRestServices/rest/POLocator/findLocations", "@spider": "usps_collection_boxes", "addr:city": "NEWPORT NEWS", "addr:country": "US", "addr:postcode": "23602", "addr:state": "VA", "addr:street_address": "660 HANCOCK DR", "amenity": "post_box", "collection_times": "Mo-Sa 09:00", "nsi_id": "unitedstatespostalservice-a77078", "operator": "United States Postal Service", "operator:short": "USPS", "operator:type": "public", "operator:wikidata": "Q668687", "ref": "2360200022"}, "type": "Feature"}
{"geometry": {"coordinates": [-76.5102621786, 37.1046167917], "type": "Point"}, "id": "GizvlL-U9t3NPTcD76YcSee8D1w=", "properties": {"@source_uri": "https://tools.usps.com/UspsToolsRestServices/rest/POLocator/findLocations", "@spider": "usps_collection_boxes", "addr:city": "NEWPORT NEWS", "addr:country": "US", "addr:postcode": "23602", "addr:state": "VA", "addr:street_address": "312 OYSTER POINT RD", "amenity": "post_box", "collection_times": "Mo-Sa 09:00", "nsi_id": "unitedstatespostalservice-a77078", "operator": "United States Postal Service", "operator:short": "USPS", "operator:type": "public", "operator:wikidata": "Q668687", "ref": "2360200023"}, "type": "Feature"}
{"geometry": {"coordinates": [-76.518966369, 37.139436977], "type": "Point"}, "id": "-T0Dl_G7tc9G0bNK92PH68VM4hM=", "properties": {"@source_uri": "https://tools.usps.com/UspsToolsRestServices/rest/POLocator/findLocations", "@spider": "usps_collection_boxes", "addr:city": "NEWPORT NEWS", "addr:country": "US", "addr:postcode": "23602", "addr:state": "VA", "addr:street_address": "606 DENBIGH BLVD", "amenity": "post_box", "collection_times": "Mo-Sa 09:00", "nsi_id": "unitedstatespostalservice-a77078", "operator": "United States Postal Service", "operator:short": "USPS", "operator:type": "public", "operator:wikidata": "Q668687", "ref": "2360200024"}, "type": "Feature"}
{"geometry": {"coordinates": [-76.503042782, 37.101067032], "type": "Point"}, "id": "TOY3xySBr7PS-aWCE5cCjSLfnAQ=", "properties": {"@source_uri": "https://tools.usps.com/UspsToolsRestServices/rest/POLocator/findLocations", "@spider": "usps_collection_boxes", "addr:city": "NEWPORT NEWS", "addr:country": "US", "addr:postcode": "23602", "addr:state": "VA", "addr:street_address": "352 WENDWOOD DR", "amenity": "post_box", "collection_times": "Mo-Sa 09:00", "nsi_id": "unitedstatespostalservice-a77078", "operator": "United States Postal Service", "operator:short": "USPS", "operator:type": "public", "operator:wikidata": "Q668687", "ref": "2360200025"}, "type": "Feature"}
{"geometry": {"coordinates": [-76.551183031, 37.160540497], "type": "Point"}, "id": "n7xhaLPB8-eVCEkaoN1UW5xwpdA=", "properties": {"@source_uri": "https://tools.usps.com/UspsToolsRestServices/rest/POLocator/findLocations", "@spider": "usps_collection_boxes", "addr:city": "NEWPORT NEWS", "addr:country": "US", "addr:postcode": "23602", "addr:state": "VA", "addr:street_address": "406 MERRY OAKS DR", "amenity": "post_box", "collection_times": "Mo-Sa 13:30", "note": "ON 12/24 AND 12/31, THIS BOX MAY BE COLLECTED AS EARLY AS 12 NOON.", "nsi_id": "unitedstatespostalservice-a77078", "operator": "United States Postal Service", "operator:short": "USPS", "operator:type": "public", "operator:wikidata": "Q668687", "ref": "2360200027"}, "type": "Feature"}
{"geometry": {"coordinates": [-76.51811016, 37.112752224], "type": "Point"}, "id": "chyVuK8SmT8i329u1H5kb-wpxSQ=", "properties": {"@source_uri": "https://tools.usps.com/UspsToolsRestServices/rest/POLocator/findLocations", "@spider": "usps_collection_boxes", "addr:city": "NEWPORT NEWS", "addr:country": "US", "addr:postcode": "23602", "addr:state": "VA", "addr:street_address": "13268 WARWICK BLVD", "amenity": "post_box", "collection_times": "Mo-Sa 09:00", "nsi_id": "unitedstatespostalservice-a77078", "operator": "United States Postal Service", "operator:short": "USPS", "operator:type": "public", "operator:wikidata": "Q668687", "ref": "2360200029"}, "type": "Feature"}
{"geometry": {"coordinates": [-76.485993415, 37.105592165], "type": "Point"}, "id": "A26a78c5v-jcCVoVC0xEF-h6dis=", "properties": {"@source_uri": "https://tools.usps.com/UspsToolsRestServices/rest/POLocator/findLocations", "@spider": "usps_collection_boxes", "addr:city": "NEWPORT NEWS", "addr:country": "US", "addr:postcode": "23602", "addr:state": "VA", "addr:street_address": "2101 VILLAGE GREEN PKWY", "amenity": "post_box", "collection_times": "Mo-Sa 09:00", "nsi_id": "unitedstatespostalservice-a77078", "operator": "United States Postal Service", "operator:short": "USPS", "operator:type": "public", "operator:wikidata": "Q668687", "ref": "2360200030"}, "type": "Feature"}
{"geometry": {"coordinates": [-76.524615, 37.1154], "type": "Point"}, "id": "OtyjQ15_sOoifl3sfcIyxoipugk=", "properties": {"@source_uri": "https://tools.usps.com/UspsToolsRestServices/rest/POLocator/findLocations", "@spider": "usps_collection_boxes", "addr:city": "NEWPORT NEWS", "addr:country": "US", "addr:postcode": "23602", "addr:state": "VA", "addr:street_address": "6 ASTOR DR", "amenity": "post_box", "collection_times": "Mo-Fr 14:00; Sa 13:30", "note": "ON 12/24 AND 12/31, THIS BOX MAY BE COLLECTED AS EARLY AS 12 NOON.", "nsi_id": "unitedstatespostalservice-a77078", "operator": "United States Postal Service", "operator:short": "USPS", "operator:type": "public", "operator:wikidata": "Q668687", "ref": "2360200035"}, "type": "Feature"}
{"geometry": {"coordinates": [-76.536249068, 37.128292602], "type": "Point"}, "id": "lqmM8lgylh8GhVYhn-VoLgJxDcw=", "properties": {"@source_uri": "https://tools.usps.com/UspsToolsRestServices/rest/POLocator/findLocations", "@spider": "usps_collection_boxes", "addr:city": "NEWPORT NEWS", "addr:country": "US", "addr:postcode": "23602", "addr:state": "VA", "addr:street_address": "14347 WARWICK BLVD", "amenity": "post_box", "collection_times": "Mo-Sa 09:00", "nsi_id": "unitedstatespostalservice-a77078", "operator": "United States Postal Service", "operator:short": "USPS", "operator:type": "public", "operator:wikidata": "Q668687", "ref": "2360200038"}, "type": "Feature"}
{"geometry": {"coordinates": [-76.500507178, 37.113917387], "type": "Point"}, "id": "eTZ4K62vjdGNiCZbt7PwjRnr1Cg=", "properties": {"@source_uri": "https://tools.usps.com/UspsToolsRestServices/rest/POLocator/findLocations", "@spider": "usps_collection_boxes", "addr:city": "NEWPORT NEWS", "addr:country": "US", "addr:postcode": "23602", "addr:state": "VA", "addr:street_address": "12350 JEFFERSON AVE", "amenity": "post_box", "collection_times": "Mo-Sa 16:00", "note": "ON 12/24 AND 12/31, THIS BOX MAY BE COLLECTED AS EARLY AS 12 NOON.", "nsi_id": "unitedstatespostalservice-a77078", "operator": "United States Postal Service", "operator:short": "USPS", "operator:type": "public", "operator:wikidata": "Q668687", "ref": "2360200039"}, "type": "Feature"}
{"geometry": {"coordinates": [-76.531702958, 37.126055014], "type": "Point"}, "id": "Tv1Rhlfcx3PINfADeX0i46peta4=", "properties": {"@source_uri": "https://tools.usps.com/UspsToolsRestServices/rest/POLocator/findLocations", "@spider": "usps_collection_boxes", "addr:city": "NEWPORT NEWS", "addr:country": "US", "addr:postcode": "23602", "addr:state": "VA", "addr:street_address": "14104 WARWICK BLVD", "amenity": "post_box", "collection_times": "Mo-Fr 17:15; Sa 14:00", "indoor": "yes", "note": "ON 12/24 AND 12/31, THIS BOX MAY BE COLLECTED AS EARLY AS 12 NOON.", "nsi_id": "unitedstatespostalservice-a77078", "operator": "United States Postal Service", "operator:short": "USPS", "operator:type": "public", "operator:wikidata": "Q668687", "ref": "2360200041"}, "type": "Feature"}
{"geometry": {"coordinates": [-76.535483777, 37.127997364], "type": "Point"}, "id": "bg8fKvLUA-AEG2De-1QvRUqMwvI=", "properties": {"@source_uri": "https://tools.usps.com/UspsToolsRestServices/rest/POLocator/findLocations", "@spider": "usps_collection_boxes", "addr:city": "NEWPORT NEWS", "addr:country": "US", "addr:postcode": "23602", "addr:state": "VA", "addr:street_address": "14346 WARWICK BLVD", "amenity": "post_box", "collection_times": "Mo-Sa 09:00", "nsi_id": "unitedstatespostalservice-a77078", "operator": "United States Postal Service", "operator:short": "USPS", "operator:type": "public", "operator:wikidata": "Q668687", "ref": "2360200043"}, "type": "Feature"}
{"geometry": {"coordinates": [-76.486539573, 37.12145285], "type": "Point"}, "id": "5w5a-G7KyvHmbfwllDXiWqqs-a0=", "properties": {"@source_uri": "https://tools.usps.com/UspsToolsRestServices/rest/POLocator/findLocations", "@spider": "usps_collection_boxes", "addr:city": "NEWPORT NEWS", "addr:country": "US", "addr:postcode": "23602", "addr:state": "VA", "addr:street_address": "1405 KILN CREEK PKWY", "amenity": "post_box", "collection_times": "Mo-Sa 09:00", "nsi_id": "unitedstatespostalservice-a77078", "operator": "United States Postal Service", "operator:short": "USPS", "operator:type": "public", "operator:wikidata": "Q668687", "ref": "2360200048"}, "type": "Feature"}
{"geometry": {"coordinates": [-76.51092543, 37.153607709], "type": "Point"}, "id": "7QdXb9abmqcjbovaaTeOU7B98Qk=", "properties": {"@source_uri": "https://tools.usps.com/UspsToolsRestServices/rest/POLocator/findLocations", "@spider": "usps_collection_boxes", "addr:city": "NEWPORT NEWS", "addr:country": "US", "addr:postcode": "23602", "addr:state": "VA", "addr:street_address": "1215 COLONY PINES DR", "amenity": "post_box", "collection_times": "Mo-Sa 13:00", "note": "ON 12/24 AND 12/31, THIS BOX MAY BE COLLECTED AS EARLY AS 12 NOON.", "nsi_id": "unitedstatespostalservice-a77078", "operator": "United States Postal Service", "operator:short": "USPS", "operator:type": "public", "operator:wikidata": "Q668687", "ref": "2360200049"}, "type": "Feature"}
{"geometry": {"coordinates": [-76.517810152, 37.111749731], "type": "Point"}, "id": "ItiGwsfccFYC7JXzAHSx9D9wFAY=", "properties": {"@source_uri": "https://tools.usps.com/UspsToolsRestServices/rest/POLocator/findLocations", "@spider": "usps_collection_boxes", "addr:city": "NEWPORT NEWS", "addr:country": "US", "addr:postcode": "23602", "addr:state": "VA", "addr:street_address": "13195 WARWICK BLVD", "amenity": "post_box", "collection_times": "Mo-Sa 09:00", "nsi_id": "unitedstatespostalservice-a77078", "operator": "United States Postal Service", "operator:short": "USPS", "operator:type": "public", "operator:wikidata": "Q668687", "ref": "2360200052"}, "type": "Feature"}
{"geometry": {"coordinates": [-76.553932822, 37.151405174], "type": "Point"}, "id": "XR1QhaN_5tNFd61-wuWjLt2xijQ=", "properties": {"@source_uri": "https://tools.usps.com/UspsToolsRestServices/rest/POLocator/findLocations", "@spider": "usps_collection_boxes", "addr:city": "NEWPORT NEWS", "addr:country": "US", "addr:postcode": "23602", "addr:state": "VA", "addr:street_address": "15435 WARWICK BLVD", "amenity": "post_box", "collection_times": "Mo-Fr 14:00; Sa 13:30", "note": "ON 12/24 AND 12/31, THIS BOX MAY BE COLLECTED AS EARLY AS 12 NOON.", "nsi_id": "unitedstatespostalservice-a77078", "operator": "United States Postal Service", "operator:short": "USPS", "operator:type": "public", "operator:wikidata": "Q668687", "ref": "2360200053"}, "type": "Feature"}
{"geometry": {"coordinates": [-76.531702958, 37.126055014], "type": "Point"}, "id": "UzTQSWkSK3jfdrzvRLdII4pL2Kw=", "properties": {"@source_uri": "https://tools.usps.com/UspsToolsRestServices/rest/POLocator/findLocations", "@spider": "usps_collection_boxes", "addr:city": "NEWPORT NEWS", "addr:country": "US", "addr:postcode": "23602", "addr:state": "VA", "addr:street_address": "14104 WARWICK BLVD", "amenity": "post_box", "collection_times": "Mo-Fr 16:30; Sa 12:00", "indoor": "yes", "note": "ON 12/24 AND 12/31, THIS BOX MAY BE COLLECTED AS EARLY AS 12 NOON.", "nsi_id": "unitedstatespostalservice-a77078", "operator": "United States Postal Service", "operator:short": "USPS", "operator:type": "public", "operator:wikidata": "Q668687", "ref": "2360200081"}, "type": "Feature"}
{"geometry": {"coordinates": [-76.572758873, 37.193095301], "type": "Point"}, "id": "ZZ_KDE6z5Urw89D8Rhtu6L4O3Qc=", "properties": {"@source_uri": "https://tools.usps.com/UspsToolsRestServices/rest/POLocator/findLocations", "@spider": "usps_collection_boxes", "addr:city": "NEWPORT NEWS", "addr:country": "US", "addr:postcode": "23603", "addr:state": "VA", "addr:street_address": "17415 WARWICK BLVD", "amenity": "post_box", "collection_times": "Mo-Fr 15:00; Sa 12:30", "note": "ON 12/24 AND 12/31, THIS BOX MAY BE COLLECTED AS EARLY AS 12 NOON.", "nsi_id": "unitedstatespostalservice-a77078", "operator": "United States Postal Service", "operator:short": "USPS", "operator:type": "public", "operator:wikidata": "Q668687", "ref": "2360300001"}, "type": "Feature"}
{"geometry": {"coordinates": [-76.572758873, 37.193095301], "type": "Point"}, "id": "E3o_uLGCSYO8wV6KSeI1pJemVOE=", "properties": {"@source_uri": "https://tools.usps.com/UspsToolsRestServices/rest/POLocator/findLocations", "@spider": "usps_collection_boxes", "addr:city": "NEWPORT NEWS", "addr:country": "US", "addr:postcode": "23603", "addr:state": "VA", "addr:street_address": "17415 WARWICK BLVD", "amenity": "post_box", "collection_times": "Mo-Fr 15:00; Sa 12:30", "indoor": "yes", "note": "ON 12/24 AND 12/31, THIS BOX MAY BE COLLECTED AS EARLY AS 12 NOON.", "nsi_id": "unitedstatespostalservice-a77078", "operator": "United States Postal Service", "operator:short": "USPS", "operator:type": "public", "operator:wikidata": "Q668687", "ref": "2360300003"}, "type": "Feature"}
{"geometry": {"coordinates": [-76.5732437, 37.1987179], "type": "Point"}, "id": "BZKtFv1V1_-WV4-j9dM6qpWH7Ig=", "properties": {"@source_uri": "https://tools.usps.com/UspsToolsRestServices/rest/POLocator/findLocations", "@spider": "usps_collection_boxes", "addr:city": "NEWPORT NEWS", "addr:country": "US", "addr:postcode": "23603", "addr:state": "VA", "addr:street_address": "2001 LEBANON CHURCH RD", "amenity": "post_box", "collection_times": "Mo-Sa 13:30", "note": "ON 12/24 AND 12/31, THIS BOX MAY BE COLLECTED AS EARLY AS 12 NOON.", "nsi_id": "unitedstatespostalservice-a77078", "operator": "United States Postal Service", "operator:short": "USPS", "operator:type": "public", "operator:wikidata": "Q668687", "ref": "2360300004"}, "type": "Feature"}
{"geometry": {"coordinates": [-76.575816305, 37.199784995], "type": "Point"}, "id": "ms2cCC8azhXzFb7y1tKTUVUwFzk=", "properties": {"@source_uri": "https://tools.usps.com/UspsToolsRestServices/rest/POLocator/findLocations", "@spider": "usps_collection_boxes", "addr:city": "NEWPORT NEWS", "addr:country": "US", "addr:postcode": "23603", "addr:state": "VA", "addr:street_address": "612 CHELSEA PL", "amenity": "post_box", "collection_times": "Mo-Sa 13:30", "note": "ON 12/24 AND 12/31, THIS BOX MAY BE COLLECTED AS EARLY AS 12 NOON.", "nsi_id": "unitedstatespostalservice-a77078", "operator": "United States Postal Service", "operator:short": "USPS", "operator:type": "public", "operator:wikidata": "Q668687", "ref": "2360300005"}, "type": "Feature"}
{"geometry": {"coordinates": [-76.578506813, 37.159366309], "type": "Point"}, "id": "B1UsVd1qR0LgrEJXEsULMtFugTo=", "properties": {"@source_uri": "https://tools.usps.com/UspsToolsRestServices/rest/POLocator/findLocations", "@spider": "usps_collection_boxes", "addr:city": "NEWPORT NEWS", "addr:country": "US", "addr:postcode": "23604", "addr:state": "VA", "addr:street_address": "1321 LEE BLVD", "amenity": "post_box", "collection_times": "Mo-Fr 15:00; Sa 13:30", "note": "ON 12/24 AND 12/31, THIS BOX MAY BE COLLECTED AS EARLY AS 12 NOON.", "nsi_id": "unitedstatespostalservice-a77078", "operator": "United States Postal Service", "operator:short": "USPS", "operator:type": "public", "operator:wikidata": "Q668687", "ref": "2360400001"}, "type": "Feature"}
{"geometry": {"coordinates": [-76.578506813, 37.159366309], "type": "Point"}, "id": "liSztWo3LY9Jdi3AP-0YSaOK5hw=", "properties": {"@source_uri": "https://tools.usps.com/UspsToolsRestServices/rest/POLocator/findLocations", "@spider": "usps_collection_boxes", "addr:city": "NEWPORT NEWS", "addr:country": "US", "addr:postcode": "23604", "addr:state": "VA", "addr:street_address": "1321 LEE BLVD", "amenity": "post_box", "collection_times": "Mo-Fr 15:00; Sa 13:30", "indoor": "yes", "note": "ON 12/24 AND 12/31, THIS BOX MAY BE COLLECTED AS EARLY AS 12 NOON.", "nsi_id": "unitedstatespostalservice-a77078", "operator": "United States Postal Service", "operator:short": "USPS", "operator:type": "public", "operator:wikidata": "Q668687", "ref": "2360400003"}, "type": "Feature"}
{"geometry": {"coordinates": [-76.578506813, 37.159366309], "type": "Point"}, "id": "IS9xUqdbWQiUMxqbF5QWM36VGj8=", "properties": {"@source_uri": "https://tools.usps.com/UspsToolsRestServices/rest/POLocator/findLocations", "@spider": "usps_collection_boxes", "addr:city": "NEWPORT NEWS", "addr:country": "US", "addr:postcode": "23604", "addr:state": "VA", "addr:street_address": "1321 LEE BLVD", "amenity": "post_box", "collection_times": "Mo-Fr 16:30", "indoor": "yes", "note": "ON 12/24 AND 12/31, THIS BOX MAY BE COLLECTED AS EARLY AS 12 NOON.", "nsi_id": "unitedstatespostalservice-a77078", "operator": "United States Postal Service", "operator:short": "USPS", "operator:type": "public", "operator:wikidata": "Q668687", "ref": "2360400011"}, "type": "Feature"}
{"geometry": {"coordinates": [-76.4398175182, 37.0175570189], "type": "Point"}, "id": "lhyjykLi1OJva0jq4eoMKDQQRI4=", "properties": {"@source_uri": "https://tools.usps.com/UspsToolsRestServices/rest/POLocator/findLocations", "@spider": "usps_collection_boxes", "addr:city": "NEWPORT NEWS", "addr:country": "US", "addr:postcode": "23605", "addr:state": "VA", "addr:street_address": "636 79TH ST", "amenity": "post_box", "collection_times": "Mo-Fr 17:00; Sa 12:30", "note": "ON 12/24 AND 12/31, THIS BOX MAY BE COLLECTED AS EARLY AS 12 NOON.", "nsi_id": "unitedstatespostalservice-a77078", "operator": "United States Postal Service", "operator:short": "USPS", "operator:type": "public", "operator:wikidata": "Q668687", "ref": "2360500001"}, "type": "Feature"}
{"geometry": {"coordinates": [-76.442177397, 37.017187034], "type": "Point"}, "id": "_c4NWemqvEcUFWYQ8z36oYq5gpo=", "properties": {"@source_uri": "https://tools.usps.com/UspsToolsRestServices/rest/POLocator/findLocations", "@spider": "usps_collection_boxes", "addr:city": "NEWPORT NEWS", "addr:country": "US", "addr:postcode": "23605", "addr:state": "VA", "addr:street_address": "636 79TH ST", "amenity": "post_box", "collection_times": "Mo-Fr 16:45; Sa 12:30", "indoor": "yes", "note": "ON 12/24 AND 12/31, THIS BOX MAY BE COLLECTED AS EARLY AS 12 NOON.", "nsi_id": "unitedstatespostalservice-a77078", "operator": "United States Postal Service", "operator:short": "USPS", "operator:type": "public", "operator:wikidata": "Q668687", "ref": "2360500004"}, "type": "Feature"}
{"geometry": {"coordinates": [-76.4433359897, 37.0187799805], "type": "Point"}, "id": "5yW02B__aAmZFNAbfQ7BAudJrrI=", "properties": {"@source_uri": "https://tools.usps.com/UspsToolsRestServices/rest/POLocator/findLocations", "@spider": "usps_collection_boxes", "addr:city": "NEWPORT NEWS", "addr:country": "US", "addr:postcode": "23605", "addr:state": "VA", "addr:street_address": "6060 JEFFERSON AVE", "amenity": "post_box", "collection_times": "Mo-Fr 09:00", "nsi_id": "unitedstatespostalservice-a77078", "operator": "United States Postal Service", "operator:short": "USPS", "operator:type": "public", "operator:wikidata": "Q668687", "ref": "2360500006"}, "type": "Feature"}
{"geometry": {"coordinates": [-76.438914017, 37.019752108], "type": "Point"}, "id": "5Aoouu-eDixRaSvWAYKYqEMmV1E=", "properties": {"@source_uri": "https://tools.usps.com/UspsToolsRestServices/rest/POLocator/findLocations", "@spider": "usps_collection_boxes", "addr:city": "NEWPORT NEWS", "addr:country": "US", "addr:postcode": "23605", "addr:state": "VA", "addr:street_address": "111 NEWMARKET SQ", "amenity": "post_box", "collection_times": "Mo-Sa 09:00", "nsi_id": "unitedstatespostalservice-a77078", "operator": "United States Postal Service", "operator:short": "USPS", "operator:type": "public", "operator:wikidata": "Q668687", "ref": "2360500009"}, "type": "Feature"}
{"geometry": {"coordinates": [-76.44059529, 37.033027333], "type": "Point"}, "id": "RLltB6YfOWCbv-YKe6SezqLpGpk=", "properties": {"@source_uri": "https://tools.usps.com/UspsToolsRestServices/rest/POLocator/findLocations", "@spider": "usps_collection_boxes", "addr:city": "NEWPORT NEWS", "addr:country": "US", "addr:postcode": "23605", "addr:state": "VA", "addr:street_address": "5100 GOLDSBORO DR", "amenity": "post_box", "collection_times": "Mo-Sa 09:00", "nsi_id": "unitedstatespostalservice-a77078", "operator": "United States Postal Service", "operator:short": "USPS", "operator:type": "public", "operator:wikidata": "Q668687", "ref": "2360500015"}, "type": "Feature"}
{"geometry": {"coordinates": [-76.442177397, 37.017187034], "type": "Point"}, "id": "0DgE9c_YxqZG_wGy6w5bYYrJlds=", "properties": {"@source_uri": "https://tools.usps.com/UspsToolsRestServices/rest/POLocator/findLocations", "@spider": "usps_collection_boxes", "addr:city": "NEWPORT NEWS", "addr:country": "US", "addr:postcode": "23605", "addr:state": "VA", "addr:street_address": "636 79TH ST", "amenity": "post_box", "collection_times": "Mo-Fr 16:30", "indoor": "yes", "note": "ON 12/24 AND 12/31, THIS BOX MAY BE COLLECTED AS EARLY AS 12 NOON.", "nsi_id": "unitedstatespostalservice-a77078", "operator": "United States Postal Service", "operator:short": "USPS", "operator:type": "public", "operator:wikidata": "Q668687", "ref": "2360500027"}, "type": "Feature"}
{"geometry": {"coordinates": [-76.494713611, 37.0697897052], "type": "Point"}, "id": "m4XYNCwPKX-KN-IGtjj29erSG7s=", "properties": {"@source_uri": "https://tools.usps.com/UspsToolsRestServices/rest/POLocator/findLocations", "@spider": "usps_collection_boxes", "addr:city": "NEWPORT NEWS", "addr:country": "US", "addr:postcode": "23606", "addr:state": "VA", "addr:street_address": "25 HIDENWOOD SHOPPING CENTER", "amenity": "post_box", "collection_times": "Mo-Fr 17:00; Sa 15:00", "indoor": "yes", "note": "ON 12/24 AND 12/31, THIS BOX MAY BE COLLECTED AS EARLY AS 12 NOON.", "nsi_id": "unitedstatespostalservice-a77078", "operator": "United States Postal Service", "operator:short": "USPS", "operator:type": "public", "operator:wikidata": "Q668687", "ref": "2360600005"}, "type": "Feature"}
{"geometry": {"coordinates": [-76.494713611, 37.0697897052], "type": "Point"}, "id": "0DDrjG8eyumD2sW0y3vGFTqI_pc=", "properties": {"@source_uri": "https://tools.usps.com/UspsToolsRestServices/rest/POLocator/findLocations", "@spider": "usps_collection_boxes", "addr:city": "NEWPORT NEWS", "addr:country": "US", "addr:postcode": "23606", "addr:state": "VA", "addr:street_address": "25 HIDENWOOD SHOPPING CENTER", "amenity": "post_box", "collection_times": "Mo-Fr 17:00; Sa 15:00", "indoor": "yes", "note": "ON 12/24 AND 12/31, THIS BOX MAY BE COLLECTED AS EARLY AS 12 NOON.", "nsi_id": "unitedstatespostalservice-a77078", "operator": "United States Postal Service", "operator:short": "USPS", "operator:type": "public", "operator:wikidata": "Q668687", "ref": "2360600006"}, "type": "Feature"}
{"geometry": {"coordinates": [-76.473706903, 37.086653013], "type": "Point"}, "id": "4h_NNEfUALDUyRbzVjOurLWFlbQ=", "properties": {"@source_uri": "https://tools.usps.com/UspsToolsRestServices/rest/POLocator/findLocations", "@spider": "usps_collection_boxes", "addr:city": "NEWPORT NEWS", "addr:country": "US", "addr:postcode": "23606", "addr:state": "VA", "addr:street_address": "700 TOWN CENTER DR", "amenity": "post_box", "collection_times": "Mo-Fr 16:00; Sa 13:00", "note": "ON 12/24 AND 12/31, THIS BOX MAY BE COLLECTED AS EARLY AS 12 NOON.", "nsi_id": "unitedstatespostalservice-a77078", "operator": "United States Postal Service", "operator:short": "USPS", "operator:type": "public", "operator:wikidata": "Q668687", "ref": "2360600017"}, "type": "Feature"}
{"geometry": {"coordinates": [-76.466263075, 37.082260622], "type": "Point"}, "id": "Adq7lkFWfLyqnKy3xsfTcty5WCM=", "properties": {"@source_uri": "https://tools.usps.com/UspsToolsRestServices/rest/POLocator/findLocations", "@spider": "usps_collection_boxes", "addr:city": "NEWPORT NEWS", "addr:country": "US", "addr:postcode": "23606", "addr:state": "VA", "addr:street_address": "739 THIMBLE SHOALS BLVD", "amenity": "post_box", "collection_times": "Mo-Fr 17:00; Sa 13:00", "note": "ON 12/24 AND 12/31, THIS BOX MAY BE COLLECTED AS EARLY AS 12 NOON.", "nsi_id": "unitedstatespostalservice-a77078", "operator": "United States Postal Service", "operator:short": "USPS", "operator:type": "public", "operator:wikidata": "Q668687", "ref": "2360600020"}, "type": "Feature"}
{"geometry": {"coordinates": [-76.49106021, 37.100071112], "type": "Point"}, "id": "JU118GjqQz7JilY58wsFqwdapO0=", "properties": {"@source_uri": "https://tools.usps.com/UspsToolsRestServices/rest/POLocator/findLocations", "@spider": "usps_collection_boxes", "addr:city": "NEWPORT NEWS", "addr:country": "US", "addr:postcode": "23606", "addr:state": "VA", "addr:street_address": "12089 JEFFERSON AVE", "amenity": "post_box", "collection_times": "Mo-Sa 13:00", "note": "ON 12/24 AND 12/31, THIS BOX MAY BE COLLECTED AS EARLY AS 12 NOON.", "nsi_id": "unitedstatespostalservice-a77078", "operator": "United States Postal Service", "operator:short": "USPS", "operator:type": "public", "operator:wikidata": "Q668687", "ref": "2360600026"}, "type": "Feature"}
{"geometry": {"coordinates": [-76.496541961, 37.084686277], "type": "Point"}, "id": "4DSMfofcaY1-P0QGtig4dHtx58A=", "properties": {"@source_uri": "https://tools.usps.com/UspsToolsRestServices/rest/POLocator/findLocations", "@spider": "usps_collection_boxes", "addr:city": "NEWPORT NEWS", "addr:country": "US", "addr:postcode": "23606", "addr:state": "VA", "addr:street_address": "414 WINTERHAVEN DR", "amenity": "post_box", "collection_times": "Mo-Sa 13:00", "note": "ON 12/24 AND 12/31, THIS BOX MAY BE COLLECTED AS EARLY AS 12 NOON.", "nsi_id": "unitedstatespostalservice-a77078", "operator": "United States Postal Service", "operator:short": "USPS", "operator:type": "public", "operator:wikidata": "Q668687", "ref": "2360600033"}, "type": "Feature"}
{"geometry": {"coordinates": [-76.465713093, 37.078994962], "type": "Point"}, "id": "qD4qW-_Z8oYaKKoOuAzjtmW2-iU=", "properties": {"@source_uri": "https://tools.usps.com/UspsToolsRestServices/rest/POLocator/findLocations", "@spider": "usps_collection_boxes", "addr:city": "NEWPORT NEWS", "addr:country": "US", "addr:postcode": "23606", "addr:state": "VA", "addr:street_address": "1 GREAT OAK CIR", "amenity": "post_box", "collection_times": "Mo-Sa 13:00", "note": "ON 12/24 AND 12/31, THIS BOX MAY BE COLLECTED AS EARLY AS 12 NOON.", "nsi_id": "unitedstatespostalservice-a77078", "operator": "United States Postal Service", "operator:short": "USPS", "operator:type": "public", "operator:wikidata": "Q668687", "ref": "2360600037"}, "type": "Feature"}
{"geometry": {"coordinates": [-76.471755207, 37.090228294], "type": "Point"}, "id": "GQp-UHTgmcYCKKTv9tXxsnJXBu0=", "properties": {"@source_uri": "https://tools.usps.com/UspsToolsRestServices/rest/POLocator/findLocations", "@spider": "usps_collection_boxes", "addr:city": "NEWPORT NEWS", "addr:country": "US", "addr:postcode": "23606", "addr:state": "VA", "addr:street_address": "11836 CANON BLVD", "amenity": "post_box", "collection_times": "Mo-Fr 16:00; Sa 13:00", "note": "ON 12/24 AND 12/31, THIS BOX MAY BE COLLECTED AS EARLY AS 12 NOON.", "nsi_id": "unitedstatespostalservice-a77078", "operator": "United States Postal Service", "operator:short": "USPS", "operator:type": "public", "operator:wikidata": "Q668687", "ref": "2360600038"}, "type": "Feature"}
{"geometry": {"coordinates": [-76.48612, 37.08145], "type": "Point"}, "id": "IHyhBwOCWjBK-zyOTWOD_EvIcFg=", "properties": {"@source_uri": "https://tools.usps.com/UspsToolsRestServices/rest/POLocator/findLocations", "@spider": "usps_collection_boxes", "addr:city": "NEWPORT NEWS", "addr:country": "US", "addr:postcode": "23606", "addr:state": "VA", "addr:street_address": "11712 JEFFERSON AVE STE C", "amenity": "post_box", "collection_times": "Mo-Fr 17:00; Sa 13:00", "note": "ON 12/24 AND 12/31, THIS BOX MAY BE COLLECTED AS EARLY AS 12 NOON.", "nsi_id": "unitedstatespostalservice-a77078", "operator": "United States Postal Service", "operator:short": "USPS", "operator:type": "public", "operator:wikidata": "Q668687", "ref": "2360600044"}, "type": "Feature"}
{"geometry": {"coordinates": [-76.48612, 37.08145], "type": "Point"}, "id": "Yv_kl6pawz5k9_-av_0UIcpJAHo=", "properties": {"@source_uri": "https://tools.usps.com/UspsToolsRestServices/rest/POLocator/findLocations", "@spider": "usps_collection_boxes", "addr:city": "NEWPORT NEWS", "addr:country": "US", "addr:postcode": "23606", "addr:state": "VA", "addr:street_address": "11742C JEFFERSON AVE", "amenity": "post_box", "collection_times": "Mo-Fr 17:00; Sa 13:00", "note": "ON 12/24 AND 12/31, THIS BOX MAY BE COLLECTED AS EARLY AS 12 NOON.", "nsi_id": "unitedstatespostalservice-a77078", "operator": "United States Postal Service", "operator:short": "USPS", "operator:type": "public", "operator:wikidata": "Q668687", "ref": "2360600045"}, "type": "Feature"}
{"geometry": {"coordinates": [-76.469310422, 37.086195399], "type": "Point"}, "id": "sQEuELG0iAnJUOwmP9ypd7e8syE=", "properties": {"@source_uri": "https://tools.usps.com/UspsToolsRestServices/rest/POLocator/findLocations", "@spider": "usps_collection_boxes", "addr:city": "NEWPORT NEWS", "addr:country": "US", "addr:postcode": "23606", "addr:state": "VA", "addr:street_address": "11817 CANON BLVD", "amenity": "post_box", "collection_times": "Mo-Fr 17:00; Sa 13:00", "note": "ON 12/24 AND 12/31, THIS BOX MAY BE COLLECTED AS EARLY AS 12 NOON.", "nsi_id": "unitedstatespostalservice-a77078", "operator": "United States Postal Service", "operator:short": "USPS", "operator:type": "public", "operator:wikidata": "Q668687", "ref": "2360600046"}, "type": "Feature"}
{"geometry": {"coordinates": [-76.501498847, 37.08885376], "type": "Point"}, "id": "wCEUWnn3asZWSv2_g5H25JEZdXA=", "properties": {"@source_uri": "https://tools.usps.com/UspsToolsRestServices/rest/POLocator/findLocations", "@spider": "usps_collection_boxes", "addr:city": "NEWPORT NEWS", "addr:country": "US", "addr:postcode": "23606", "addr:state": "VA", "addr:street_address": "12715 WARWICK BLVD", "amenity": "post_box", "collection_times": "Mo-Sa 13:00", "note": "ON 12/24 AND 12/31, THIS BOX MAY BE COLLECTED AS EARLY AS 12 NOON.", "nsi_id": "unitedstatespostalservice-a77078", "operator": "United States Postal Service", "operator:short": "USPS", "operator:type": "public", "operator:wikidata": "Q668687", "ref": "2360600050"}, "type": "Feature"}
{"geometry": {"coordinates": [-76.466126029, 37.082033587], "type": "Point"}, "id": "3knbmCMIzoIqmf1Bz-T_bALcZHU=", "properties": {"@source_uri": "https://tools.usps.com/UspsToolsRestServices/rest/POLocator/findLocations", "@spider": "usps_collection_boxes", "addr:city": "NEWPORT NEWS", "addr:country": "US", "addr:postcode": "23606", "addr:state": "VA", "addr:street_address": "739 THIMBLE SHOALS BLVD STE 501", "amenity": "post_box", "collection_times": "Mo-Fr 17:00", "indoor": "yes", "note": "ON 12/24 AND 12/31, THIS BOX MAY BE COLLECTED AS EARLY AS 12 NOON.", "nsi_id": "unitedstatespostalservice-a77078", "operator": "United States Postal Service", "operator:short": "USPS", "operator:type": "public", "operator:wikidata": "Q668687", "ref": "2360600052"}, "type": "Feature"}
{"geometry": {"coordinates": [-76.466126029, 37.082033587], "type": "Point"}, "id": "6eEE-ApaEaP0Lwn0yr8rwrasmIc=", "properties": {"@source_uri": "https://tools.usps.com/UspsToolsRestServices/rest/POLocator/findLocations", "@spider": "usps_collection_boxes", "addr:city": "NEWPORT NEWS", "addr:country": "US", "addr:postcode": "23606", "addr:state": "VA", "addr:street_address": "739 THIMBLE SHOALS BLVD STE 501", "amenity": "post_box", "collection_times": "Mo-Fr 17:00", "indoor": "yes", "note": "ON 12/24 AND 12/31, THIS BOX MAY BE COLLECTED AS EARLY AS 12 NOON.", "nsi_id": "unitedstatespostalservice-a77078", "operator": "United States Postal Service", "operator:short": "USPS", "operator:type": "public", "operator:wikidata": "Q668687", "ref": "2360600053"}, "type": "Feature"}
{"geometry": {"coordinates": [-76.4947069363, 37.0697793312], "type": "Point"}, "id": "-NPL2zfnWP-6G_S3SOrKA9QS8KU=", "properties": {"@source_uri": "https://tools.usps.com/UspsToolsRestServices/rest/POLocator/findLocations", "@spider": "usps_collection_boxes", "addr:city": "NEWPORT NEWS", "addr:country": "US", "addr:postcode": "23606", "addr:state": "VA", "addr:street_address": "25 HIDENWOOD SHOPPING CENTER", "amenity": "post_box", "collection_times": "Mo-Fr 17:00; Sa 15:00", "note": "ON 12/24 AND 12/31, THIS BOX MAY BE COLLECTED AS EARLY AS 12 NOON.", "nsi_id": "unitedstatespostalservice-a77078", "operator": "United States Postal Service", "operator:short": "USPS", "operator:type": "public", "operator:wikidata": "Q668687", "ref": "2360600056"}, "type": "Feature"}
{"geometry": {"coordinates": [-76.48612, 37.08145], "type": "Point"}, "id": "c56g1fmzj8T8Nf-09FnyFXkrnjo=", "properties": {"@source_uri": "https://tools.usps.com/UspsToolsRestServices/rest/POLocator/findLocations", "@spider": "usps_collection_boxes", "addr:city": "NEWPORT NEWS", "addr:country": "US", "addr:postcode": "23606", "addr:state": "VA", "addr:street_address": "501 WATERS EDGE DR", "amenity": "post_box", "collection_times": "Mo-Sa 13:00", "note": "ON 12/24 AND 12/31, THIS BOX MAY BE COLLECTED AS EARLY AS 12 NOON.", "nsi_id": "unitedstatespostalservice-a77078", "operator": "United States Postal Service", "operator:short": "USPS", "operator:type": "public", "operator:wikidata": "Q668687", "ref": "2360600057"}, "type": "Feature"}
{"geometry": {"coordinates": [-76.481988188, 37.085369094], "type": "Point"}, "id": "B8Pe8YHEhIceM4nxfOj3a-pwuO0=", "properties": {"@source_uri": "https://tools.usps.com/UspsToolsRestServices/rest/POLocator/findLocations", "@spider": "usps_collection_boxes", "addr:city": "NEWPORT NEWS", "addr:country": "US", "addr:postcode": "23606", "addr:state": "VA", "addr:street_address": "11803 JEFFERSON AVE", "amenity": "post_box", "collection_times": "Mo-Fr 14:00", "note": "ON 12/24 AND 12/31, THIS BOX MAY BE COLLECTED AS EARLY AS 12 NOON.", "nsi_id": "unitedstatespostalservice-a77078", "operator": "United States Postal Service", "operator:short": "USPS", "operator:type": "public", "operator:wikidata": "Q668687", "ref": "2360600059"}, "type": "Feature"}
{"geometry": {"coordinates": [-76.494713611, 37.0697897052], "type": "Point"}, "id": "_MlvQ-eKjxzNUSb-MrLArRU1gsI=", "properties": {"@source_uri": "https://tools.usps.com/UspsToolsRestServices/rest/POLocator/findLocations", "@spider": "usps_collection_boxes", "addr:city": "NEWPORT NEWS", "addr:country": "US", "addr:postcode": "23606", "addr:state": "VA", "addr:street_address": "25 HIDENWOOD SHOPPING CENTER", "amenity": "post_box", "collection_times": "Mo-Fr 16:30", "indoor": "yes", "note": "ON 12/24 AND 12/31, THIS BOX MAY BE COLLECTED AS EARLY AS 12 NOON.", "nsi_id": "unitedstatespostalservice-a77078", "operator": "United States Postal Service", "operator:short": "USPS", "operator:type": "public", "operator:wikidata": "Q668687", "ref": "2360600064"}, "type": "Feature"}
{"geometry": {"coordinates": [-76.466126029, 37.082033587], "type": "Point"}, "id": "coByu1_SmhDLr4T4kAgzhjo_ZS4=", "properties": {"@source_uri": "https://tools.usps.com/UspsToolsRestServices/rest/POLocator/findLocations", "@spider": "usps_collection_boxes", "addr:city": "NEWPORT NEWS", "addr:country": "US", "addr:postcode": "23606", "addr:state": "VA", "addr:street_address": "739 THIMBLE SHOALS BLVD STE 501", "amenity": "post_box", "collection_times": "Mo-Fr 17:00", "indoor": "yes", "note": "ON 12/24 AND 12/31, THIS BOX MAY BE COLLECTED AS EARLY AS 12 NOON.", "nsi_id": "unitedstatespostalservice-a77078", "operator": "United States Postal Service", "operator:short": "USPS", "operator:type": "public", "operator:wikidata": "Q668687", "ref": "2360600065"}, "type": "Feature"}
{"geometry": {"coordinates": [-76.4340435, 36.992025], "type": "Point"}, "id": "bgwH7K7NfBm-yBKpUT4s_7zEf_k=", "properties": {"@source_uri": "https://tools.usps.com/UspsToolsRestServices/rest/POLocator/findLocations", "@spider": "usps_collection_boxes", "addr:city": "NEWPORT NEWS", "addr:country": "US", "addr:postcode": "23607", "addr:state": "VA", "addr:street_address": "4101 WASHINGTON AVE", "amenity": "post_box", "collection_times": "Mo-Fr 14:00", "note": "ON 12/24 AND 12/31, THIS BOX MAY BE COLLECTED AS EARLY AS 12 NOON.", "nsi_id": "unitedstatespostalservice-a77078", "operator": "United States Postal Service", "operator:short": "USPS", "operator:type": "public", "operator:wikidata": "Q668687", "ref": "2360700007"}, "type": "Feature"}
{"geometry": {"coordinates": [-76.40732, 36.986115], "type": "Point"}, "id": "sSdIau2175H0E38gXpSHm1CUbl8=", "properties": {"@source_uri": "https://tools.usps.com/UspsToolsRestServices/rest/POLocator/findLocations", "@spider": "usps_collection_boxes", "addr:city": "NEWPORT NEWS", "addr:country": "US", "addr:postcode": "23607", "addr:state": "VA", "addr:street_address": "102 26TH ST", "amenity": "post_box", "collection_times": "Mo-Sa 16:00", "note": "ON 12/24 AND 12/31, THIS BOX MAY BE COLLECTED AS EARLY AS 12 NOON.", "nsi_id": "unitedstatespostalservice-a77078", "operator": "United States Postal Service", "operator:short": "USPS", "operator:type": "public", "operator:wikidata": "Q668687", "ref": "2360700034"}, "type": "Feature"}
{"geometry": {"coordinates": [-76.430519636, 36.978100252], "type": "Point"}, "id": "Rh2eZqLkrmE7HN44J9Nk0EuzL4I=", "properties": {"@source_uri": "https://tools.usps.com/UspsToolsRestServices/rest/POLocator/findLocations", "@spider": "usps_collection_boxes", "addr:city": "NEWPORT NEWS", "addr:country": "US", "addr:postcode": "23607", "addr:state": "VA", "addr:street_address": "2500 WASHINGTON AVE", "amenity": "post_box", "collection_times": "Mo-Fr 16:00", "note": "ON 12/24 AND 12/31, THIS BOX MAY BE COLLECTED AS EARLY AS 12 NOON.", "nsi_id": "unitedstatespostalservice-a77078", "operator": "United States Postal Service", "operator:short": "USPS", "operator:type": "public", "operator:wikidata": "Q668687", "ref": "2360700039"}, "type": "Feature"}
{"geometry": {"coordinates": [-76.430766991, 36.978804002], "type": "Point"}, "id": "meFkByhNLgpcMKYmMB4HzJ3icW8=", "properties": {"@source_uri": "https://tools.usps.com/UspsToolsRestServices/rest/POLocator/findLocations", "@spider": "usps_collection_boxes", "addr:city": "NEWPORT NEWS", "addr:country": "US", "addr:postcode": "23607", "addr:state": "VA", "addr:street_address": "2600 WASHINGTON AVE", "amenity": "post_box", "collection_times": "Mo-Fr 16:00", "note": "ON 12/24 AND 12/31, THIS BOX MAY BE COLLECTED AS EARLY AS 12 NOON.", "nsi_id": "unitedstatespostalservice-a77078", "operator": "United States Postal Service", "operator:short": "USPS", "operator:type": "public", "operator:wikidata": "Q668687", "ref": "2360700055"}, "type": "Feature"}
{"geometry": {"coordinates": [-76.431709906, 36.977271305], "type": "Point"}, "id": "MzlNSprh_m5xFhF3eT-cT5LComs=", "properties": {"@source_uri": "https://tools.usps.com/UspsToolsRestServices/rest/POLocator/findLocations", "@spider": "usps_collection_boxes", "addr:city": "NEWPORT NEWS", "addr:country": "US", "addr:postcode": "23607", "addr:state": "VA", "addr:street_address": "101 25TH ST", "amenity": "post_box", "collection_times": "Mo-Fr 16:30; Sa 15:00", "indoor": "yes", "note": "ON 12/24 AND 12/31, THIS BOX MAY BE COLLECTED AS EARLY AS 12 NOON.", "nsi_id": "unitedstatespostalservice-a77078", "operator": "United States Postal Service", "operator:short": "USPS", "operator:type": "public", "operator:wikidata": "Q668687", "ref": "2360700057"}, "type": "Feature"}
{"geometry": {"coordinates": [-76.431709906, 36.977271305], "type": "Point"}, "id": "NApXCFGjqrmtaJsaiMQ3Wne3c4E=", "properties": {"@source_uri": "https://tools.usps.com/UspsToolsRestServices/rest/POLocator/findLocations", "@spider": "usps_collection_boxes", "addr:city": "NEWPORT NEWS", "addr:country": "US", "addr:postcode": "23607", "addr:state": "VA", "addr:street_address": "101 25TH ST", "amenity": "post_box", "collection_times": "Mo-Fr 16:30", "indoor": "yes", "note": "ON 12/24 AND 12/31, THIS BOX MAY BE COLLECTED AS EARLY AS 12 NOON.", "nsi_id": "unitedstatespostalservice-a77078", "operator": "United States Postal Service", "operator:short": "USPS", "operator:type": "public", "operator:wikidata": "Q668687", "ref": "2360700062"}, "type": "Feature"}
{"geometry": {"coordinates": [-76.514068021, 37.137374984], "type": "Point"}, "id": "jZNU1mjfiJqTaRGcEgoYujISqbI=", "properties": {"@source_uri": "https://tools.usps.com/UspsToolsRestServices/rest/POLocator/findLocations", "@spider": "usps_collection_boxes", "addr:city": "NEWPORT NEWS", "addr:country": "US", "addr:postcode": "23608", "addr:state": "VA", "addr:street_address": "685 TURNBERRY BLVD", "amenity": "post_box", "collection_times": "Mo-Fr 17:00; Sa 15:30", "note": "ON 12/24 AND 12/31, THIS BOX MAY BE COLLECTED AS EARLY AS 12 NOON.", "nsi_id": "unitedstatespostalservice-a77078", "operator": "United States Postal Service", "operator:short": "USPS", "operator:type": "public", "operator:wikidata": "Q668687", "ref": "2360800000"}, "type": "Feature"}
{"geometry": {"coordinates": [-76.51328031, 37.136925729], "type": "Point"}, "id": "KWLC_xoFEnMSHHCQR7osYpUvD2Q=", "properties": {"@source_uri": "https://tools.usps.com/UspsToolsRestServices/rest/POLocator/findLocations", "@spider": "usps_collection_boxes", "addr:city": "NEWPORT NEWS", "addr:country": "US", "addr:postcode": "23608", "addr:state": "VA", "addr:street_address": "685 TURNBERRY BLVD", "amenity": "post_box", "collection_times": "Mo-Fr 17:00; Sa 12:00", "indoor": "yes", "note": "ON 12/24 AND 12/31, THIS BOX MAY BE COLLECTED AS EARLY AS 12 NOON.", "nsi_id": "unitedstatespostalservice-a77078", "operator": "United States Postal Service", "operator:short": "USPS", "operator:type": "public", "operator:wikidata": "Q668687", "ref": "2360800002"}, "type": "Feature"}
{"geometry": {"coordinates": [-76.51328031, 37.136925729], "type": "Point"}, "id": "iNt-bRvhSas9cvPm5GDKqyAt1Q4=", "properties": {"@source_uri": "https://tools.usps.com/UspsToolsRestServices/rest/POLocator/findLocations", "@spider": "usps_collection_boxes", "addr:city": "NEWPORT NEWS", "addr:country": "US", "addr:postcode": "23608", "addr:state": "VA", "addr:street_address": "685 TURNBERRY BLVD", "amenity": "post_box", "collection_times": "Mo-Fr 16:30", "indoor": "yes", "note": "ON 12/24 AND 12/31, THIS BOX MAY BE COLLECTED AS EARLY AS 12 NOON.", "nsi_id": "unitedstatespostalservice-a77078", "operator": "United States Postal Service", "operator:short": "USPS", "operator:type": "public", "operator:wikidata": "Q668687", "ref": "2360800005"}, "type": "Feature"}
{"geometry": {"coordinates": [-76.381309731, 37.006062214], "type": "Point"}, "id": "6ieZ-704Ffn6Mi4NVqPxdymoGhE=", "properties": {"@source_uri": "https://tools.usps.com/UspsToolsRestServices/rest/POLocator/findLocations", "@spider": "usps_collection_boxes", "addr:city": "HAMPTON", "addr:country": "US", "addr:postcode": "23661", "addr:state": "VA", "addr:street_address": "405 CHESTERFIELD RD", "amenity": "post_box", "collection_times": "Mo-Fr 16:30", "indoor": "yes", "note": "ON 12/24 AND 12/31, THIS BOX MAY BE COLLECTED AS EARLY AS 12 NOON.", "nsi_id": "unitedstatespostalservice-a77078", "operator": "United States Postal Service", "operator:short": "USPS", "operator:type": "public", "operator:wikidata": "Q668687", "ref": "2366100007"}, "type": "Feature"}
{"geometry": {"coordinates": [-76.3662450278, 37.0129310046], "type": "Point"}, "id": "zVBnUODWChEd5iYcidK3z4fBqAk=", "properties": {"@source_uri": "https://tools.usps.com/UspsToolsRestServices/rest/POLocator/findLocations", "@spider": "usps_collection_boxes", "addr:city": "HAMPTON", "addr:country": "US", "addr:postcode": "23661", "addr:state": "VA", "addr:street_address": "3130 VICTORIA BLVD", "amenity": "post_box", "collection_times": "Mo-Fr 10:00", "nsi_id": "unitedstatespostalservice-a77078", "operator": "United States Postal Service", "operator:short": "USPS", "operator:type": "public", "operator:wikidata": "Q668687", "ref": "2366100008"}, "type": "Feature"}
{"geometry": {"coordinates": [-76.381309731, 37.006062214], "type": "Point"}, "id": "-PglFQJggXgmY-B3KDF-HU3MnIc=", "properties": {"@source_uri": "https://tools.usps.com/UspsToolsRestServices/rest/POLocator/findLocations", "@spider": "usps_collection_boxes", "addr:city": "HAMPTON", "addr:country": "US", "addr:postcode": "23661", "addr:state": "VA", "addr:street_address": "405 CHESTERFIELD RD", "amenity": "post_box", "collection_times": "Mo-Fr 17:00; Sa 14:30", "note": "ON 12/24 AND 12/31, THIS BOX MAY BE COLLECTED AS EARLY AS 12 NOON.", "nsi_id": "unitedstatespostalservice-a77078", "operator": "United States Postal Service", "operator:short": "USPS", "operator:type": "public", "operator:wikidata": "Q668687", "ref": "2366100025"}, "type": "Feature"}
{"geometry": {"coordinates": [-76.38336, 37.003145], "type": "Point"}, "id": "m0RoOUS-gZeGDQgU-8u7uT9inv0=", "properties": {"@source_uri": "https://tools.usps.com/UspsToolsRestServices/rest/POLocator/findLocations", "@spider": "usps_collection_boxes", "addr:city": "HAMPTON", "addr:country": "US", "addr:postcode": "23661", "addr:state": "VA", "addr:street_address": "2301 KECOUGHTAN RD", "amenity": "post_box", "collection_times": "Mo-Sa 10:00", "nsi_id": "unitedstatespostalservice-a77078", "operator": "United States Postal Service", "operator:short": "USPS", "operator:type": "public", "operator:wikidata": "Q668687", "ref": "2366100026"}, "type": "Feature"}
{"geometry": {"coordinates": [-76.381309731, 37.006062214], "type": "Point"}, "id": "rK8u0zuGSmA0qtku8csQG0lVBK4=", "properties": {"@source_uri": "https://tools.usps.com/UspsToolsRestServices/rest/POLocator/findLocations", "@spider": "usps_collection_boxes", "addr:city": "HAMPTON", "addr:country": "US", "addr:postcode": "23661", "addr:state": "VA", "addr:street_address": "405 CHESTERFIELD RD", "amenity": "post_box", "collection_times": "Mo-Fr 16:30", "indoor": "yes", "note": "ON 12/24 AND 12/31, THIS BOX MAY BE COLLECTED AS EARLY AS 12 NOON.", "nsi_id": "unitedstatespostalservice-a77078", "operator": "United States Postal Service", "operator:short": "USPS", "operator:type": "public", "operator:wikidata": "Q668687", "ref": "2366100028"}, "type": "Feature"}
{"geometry": {"coordinates": [-76.384466, 37.125839], "type": "Point"}, "id": "8tuLrGYYiEToqWXyMC3NJ-itJtE=", "properties": {"@source_uri": "https://tools.usps.com/UspsToolsRestServices/rest/POLocator/findLocations", "@spider": "usps_collection_boxes", "addr:city": "POQUOSON", "addr:country": "US", "addr:postcode": "23662", "addr:state": "VA", "addr:street_address": "529 WYTHE CREEK RD", "amenity": "post_box", "collection_times": "Mo-Fr 17:00; Sa 15:00", "note": "ON 12/24 AND 12/31, THIS BOX MAY BE COLLECTED AS EARLY AS 12 NOON.", "nsi_id": "unitedstatespostalservice-a77078", "operator": "United States Postal Service", "operator:short": "USPS", "operator:type": "public", "operator:wikidata": "Q668687", "ref": "2366200001"}, "type": "Feature"}
{"geometry": {"coordinates": [-76.3936990296, 37.1246740115], "type": "Point"}, "id": "oW9VyIVIla1oANhR_kJndnyCwyM=", "properties": {"@source_uri": "https://tools.usps.com/UspsToolsRestServices/rest/POLocator/findLocations", "@spider": "usps_collection_boxes", "addr:city": "POQUOSON", "addr:country": "US", "addr:postcode": "23662", "addr:state": "VA", "addr:street_address": "475 WYTHE CREEK RD", "amenity": "post_box", "collection_times": "Mo-Fr 16:30; Sa 12:15", "note": "ON 12/24 AND 12/31, THIS BOX MAY BE COLLECTED AS EARLY AS 12 NOON.", "nsi_id": "unitedstatespostalservice-a77078", "operator": "United States Postal Service", "operator:short": "USPS", "operator:type": "public", "operator:wikidata": "Q668687", "ref": "2366200002"}, "type": "Feature"}
{"geometry": {"coordinates": [-76.396565506, 37.123128461], "type": "Point"}, "id": "1ig_w34ZKvTbSD-hJ7b9x4nImtw=", "properties": {"@source_uri": "https://tools.usps.com/UspsToolsRestServices/rest/POLocator/findLocations", "@spider": "usps_collection_boxes", "addr:city": "POQUOSON", "addr:country": "US", "addr:postcode": "23662", "addr:state": "VA", "addr:street_address": "500 CITY HALL AVE", "amenity": "post_box", "collection_times": "Mo-Fr 16:30", "note": "ON 12/24 AND 12/31, THIS BOX MAY BE COLLECTED AS EARLY AS 12 NOON.", "nsi_id": "unitedstatespostalservice-a77078", "operator": "United States Postal Service", "operator:short": "USPS", "operator:type": "public", "operator:wikidata": "Q668687", "ref": "2366200010"}, "type": "Feature"}
{"geometry": {"coordinates": [-76.391495462, 37.129527052], "type": "Point"}, "id": "FSxSVl6yTPgBM8HsTiL3SVMYXCM=", "properties": {"@source_uri": "https://tools.usps.com/UspsToolsRestServices/rest/POLocator/findLocations", "@spider": "usps_collection_boxes", "addr:city": "POQUOSON", "addr:country": "US", "addr:postcode": "23662", "addr:state": "VA", "addr:street_address": "529 WYTHE CREEK RD", "amenity": "post_box", "collection_times": "Mo-Fr 16:30; Sa 14:00", "indoor": "yes", "note": "ON 12/24 AND 12/31, THIS BOX MAY BE COLLECTED AS EARLY AS 12 NOON.", "nsi_id": "unitedstatespostalservice-a77078", "operator": "United States Postal Service", "operator:short": "USPS", "operator:type": "public", "operator:wikidata": "Q668687", "ref": "2366200011"}, "type": "Feature"}
{"geometry": {"coordinates": [-76.391495462, 37.129527052], "type": "Point"}, "id": "_0Xj73Yh_pcUf5mlGApHRFbBUXk=", "properties": {"@source_uri": "https://tools.usps.com/UspsToolsRestServices/rest/POLocator/findLocations", "@spider": "usps_collection_boxes", "addr:city": "POQUOSON", "addr:country": "US", "addr:postcode": "23662", "addr:state": "VA", "addr:street_address": "529 WYTHE CREEK RD", "amenity": "post_box", "collection_times": "Mo-Fr 16:30; Sa 12:00", "indoor": "yes", "note": "ON 12/24 AND 12/31, THIS BOX MAY BE COLLECTED AS EARLY AS 12 NOON.", "nsi_id": "unitedstatespostalservice-a77078", "operator": "United States Postal Service", "operator:short": "USPS", "operator:type": "public", "operator:wikidata": "Q668687", "ref": "2366200013"}, "type": "Feature"}
{"geometry": {"coordinates": [-76.3201985, 37.0217869], "type": "Point"}, "id": "oIqufrwvMPxAvcnFWaeV1uVhUsI=", "properties": {"@source_uri": "https://tools.usps.com/UspsToolsRestServices/rest/POLocator/findLocations", "@spider": "usps_collection_boxes", "addr:city": "HAMPTON", "addr:country": "US", "addr:postcode": "23663", "addr:state": "VA", "addr:street_address": "102 E MELLEN ST", "amenity": "post_box", "collection_times": "Mo-Fr 17:00; Sa 16:45", "note": "ON 12/24 AND 12/31, THIS BOX MAY BE COLLECTED AS EARLY AS 12 NOON.", "nsi_id": "unitedstatespostalservice-a77078", "operator": "United States Postal Service", "operator:short": "USPS", "operator:type": "public", "operator:wikidata": "Q668687", "ref": "2366300002"}, "type": "Feature"}
{"geometry": {"coordinates": [-76.3094240224, 37.0496799923], "type": "Point"}, "id": "HZ7znM1KN2TSVUw_ZImmQwGu05E=", "properties": {"@source_uri": "https://tools.usps.com/UspsToolsRestServices/rest/POLocator/findLocations", "@spider": "usps_collection_boxes", "addr:city": "HAMPTON", "addr:country": "US", "addr:postcode": "23663", "addr:state": "VA", "addr:street_address": "2024 NICKERSON BLVD", "amenity": "post_box", "collection_times": "Mo-Sa 10:00", "nsi_id": "unitedstatespostalservice-a77078", "operator": "United States Postal Service", "operator:short": "USPS", "operator:type": "public", "operator:wikidata": "Q668687", "ref": "2366300008"}, "type": "Feature"}
{"geometry": {"coordinates": [-76.3226650322, 37.0188390727], "type": "Point"}, "id": "nWRvxpxjGsVfmlHOypmehDk93-Y=", "properties": {"@source_uri": "https://tools.usps.com/UspsToolsRestServices/rest/POLocator/findLocations", "@spider": "usps_collection_boxes", "addr:city": "HAMPTON", "addr:country": "US", "addr:postcode": "23663", "addr:state": "VA", "addr:street_address": "13 W MELLEN ST", "amenity": "post_box", "collection_times": "Mo-Fr 12:00", "nsi_id": "unitedstatespostalservice-a77078", "operator": "United States Postal Service", "operator:short": "USPS", "operator:type": "public", "operator:wikidata": "Q668687", "ref": "2366300009"}, "type": "Feature"}
{"geometry": {"coordinates": [-76.3201985, 37.0217869], "type": "Point"}, "id": "bi5vf17UXUJrhBGpCnUl2oLIRWU=", "properties": {"@source_uri": "https://tools.usps.com/UspsToolsRestServices/rest/POLocator/findLocations", "@spider": "usps_collection_boxes", "addr:city": "HAMPTON", "addr:country": "US", "addr:postcode": "23663", "addr:state": "VA", "addr:street_address": "1531 E PEMBROKE AVE", "amenity": "post_box", "collection_times": "Mo-Sa 10:00", "nsi_id": "unitedstatespostalservice-a77078", "operator": "United States Postal Service", "operator:short": "USPS", "operator:type": "public", "operator:wikidata": "Q668687", "ref": "2366300010"}, "type": "Feature"}
{"geometry": {"coordinates": [-76.3067129796, 37.0407880084], "type": "Point"}, "id": "7FsQ8PI09RdEi64-PsyImsHYmxE=", "properties": {"@source_uri": "https://tools.usps.com/UspsToolsRestServices/rest/POLocator/findLocations", "@spider": "usps_collection_boxes", "addr:city": "HAMPTON", "addr:country": "US", "addr:postcode": "23663", "addr:state": "VA", "addr:street_address": "1973 E PEMBROKE AVE", "amenity": "post_box", "collection_times": "Mo-Sa 10:00", "nsi_id": "unitedstatespostalservice-a77078", "operator": "United States Postal Service", "operator:short": "USPS", "operator:type": "public", "operator:wikidata": "Q668687", "ref": "2366300011"}, "type": "Feature"}
{"geometry": {"coordinates": [-76.321023741, 37.017494707], "type": "Point"}, "id": "sbWeQEvZi6h_rxVCMw1ALYT5AtE=", "properties": {"@source_uri": "https://tools.usps.com/UspsToolsRestServices/rest/POLocator/findLocations", "@spider": "usps_collection_boxes", "addr:city": "HAMPTON", "addr:country": "US", "addr:postcode": "23663", "addr:state": "VA", "addr:street_address": "102 E MELLEN ST", "amenity": "post_box", "collection_times": "Mo-Fr 17:00; Sa 12:00", "indoor": "yes", "note": "ON 12/24 AND 12/31, THIS BOX MAY BE COLLECTED AS EARLY AS 12 NOON.", "nsi_id": "unitedstatespostalservice-a77078", "operator": "United States Postal Service", "operator:short": "USPS", "operator:type": "public", "operator:wikidata": "Q668687", "ref": "2366300019"}, "type": "Feature"}
{"geometry": {"coordinates": [-76.321023741, 37.017494707], "type": "Point"}, "id": "teUiED-mY5H1sMgF2ucm4PDNyV4=", "properties": {"@source_uri": "https://tools.usps.com/UspsToolsRestServices/rest/POLocator/findLocations", "@spider": "usps_collection_boxes", "addr:city": "HAMPTON", "addr:country": "US", "addr:postcode": "23663", "addr:state": "VA", "addr:street_address": "102 E MELLEN ST", "amenity": "post_box", "collection_times": "Mo-Fr 16:30", "indoor": "yes", "note": "ON 12/24 AND 12/31, THIS BOX MAY BE COLLECTED AS EARLY AS 12 NOON.", "nsi_id": "unitedstatespostalservice-a77078", "operator": "United States Postal Service", "operator:short": "USPS", "operator:type": "public", "operator:wikidata": "Q668687", "ref": "2366300022"}, "type": "Feature"}
{"geometry": {"coordinates": [-76.298787974, 37.0626610038], "type": "Point"}, "id": "F6631YuCkMZgsiwRv4mdasPjlzQ=", "properties": {"@source_uri": "https://tools.usps.com/UspsToolsRestServices/rest/POLocator/findLocations", "@spider": "usps_collection_boxes", "addr:city": "HAMPTON", "addr:country": "US", "addr:postcode": "23664", "addr:state": "VA", "addr:street_address": "46 BEACH RD", "amenity": "post_box", "collection_times": "Mo-Sa 13:15", "note": "ON 12/24 AND 12/31, THIS BOX MAY BE COLLECTED AS EARLY AS 12 NOON.", "nsi_id": "unitedstatespostalservice-a77078", "operator": "United States Postal Service", "operator:short": "USPS", "operator:type": "public", "operator:wikidata": "Q668687", "ref": "2366400002"}, "type": "Feature"}
{"geometry": {"coordinates": [-76.3593614842, 37.0745792759], "type": "Point"}, "id": "NwtbHGdxwOSgUle0zg01kyrqp2E=", "properties": {"@source_uri": "https://tools.usps.com/UspsToolsRestServices/rest/POLocator/findLocations", "@spider": "usps_collection_boxes", "addr:city": "HAMPTON", "addr:country": "US", "addr:postcode": "23665", "addr:state": "VA", "addr:street_address": "61 SPAATZ DR BLDG 290", "amenity": "post_box", "collection_times": "Mo-Fr 10:00", "nsi_id": "unitedstatespostalservice-a77078", "operator": "United States Postal Service", "operator:short": "USPS", "operator:type": "public", "operator:wikidata": "Q668687", "ref": "2366500002"}, "type": "Feature"}
{"geometry": {"coordinates": [-76.3598898664, 37.0736585116], "type": "Point"}, "id": "7Awj85mZN1b82EyIPeXOSVFJYXI=", "properties": {"@source_uri": "https://tools.usps.com/UspsToolsRestServices/rest/POLocator/findLocations", "@spider": "usps_collection_boxes", "addr:city": "HAMPTON", "addr:country": "US", "addr:postcode": "23665", "addr:state": "VA", "addr:street_address": "62 WALNUT AVE", "amenity": "post_box", "collection_times": "Mo-Fr 17:00; Sa 12:00", "note": "ON 12/24 AND 12/31, THIS BOX MAY BE COLLECTED AS EARLY AS 12 NOON.", "nsi_id": "unitedstatespostalservice-a77078", "operator": "United States Postal Service", "operator:short": "USPS", "operator:type": "public", "operator:wikidata": "Q668687", "ref": "2366500014"}, "type": "Feature"}
{"geometry": {"coordinates": [-76.3599081823, 37.0736633936], "type": "Point"}, "id": "7-Smz4eyx0r9qD51HS1ft2JFK_k=", "properties": {"@source_uri": "https://tools.usps.com/UspsToolsRestServices/rest/POLocator/findLocations", "@spider": "usps_collection_boxes", "addr:city": "HAMPTON", "addr:country": "US", "addr:postcode": "23665", "addr:state": "VA", "addr:street_address": "62 WALNUT AVE", "amenity": "post_box", "collection_times": "Mo-Fr 16:00; Sa 12:00", "indoor": "yes", "note": "ON 12/24 AND 12/31, THIS BOX MAY BE COLLECTED AS EARLY AS 12 NOON.", "nsi_id": "unitedstatespostalservice-a77078", "operator": "United States Postal Service", "operator:short": "USPS", "operator:type": "public", "operator:wikidata": "Q668687", "ref": "2366500018"}, "type": "Feature"}
{"geometry": {"coordinates": [-76.3599081823, 37.0736633936], "type": "Point"}, "id": "7CNx9C7sZe528peF3FS753bZE2U=", "properties": {"@source_uri": "https://tools.usps.com/UspsToolsRestServices/rest/POLocator/findLocations", "@spider": "usps_collection_boxes", "addr:city": "HAMPTON", "addr:country": "US", "addr:postcode": "23665", "addr:state": "VA", "addr:street_address": "62 WALNUT AVE", "amenity": "post_box", "collection_times": "Mo-Fr 16:30", "indoor": "yes", "note": "ON 12/24 AND 12/31, THIS BOX MAY BE COLLECTED AS EARLY AS 12 NOON.", "nsi_id": "unitedstatespostalservice-a77078", "operator": "United States Postal Service", "operator:short": "USPS", "operator:type": "public", "operator:wikidata": "Q668687", "ref": "2366500021"}, "type": "Feature"}
{"geometry": {"coordinates": [-76.42720746, 37.059479285], "type": "Point"}, "id": "P36uuC2aspVN6Y4DadcE7k8uCGs=", "properties": {"@source_uri": "https://tools.usps.com/UspsToolsRestServices/rest/POLocator/findLocations", "@spider": "usps_collection_boxes", "addr:city": "HAMPTON", "addr:country": "US", "addr:postcode": "23666", "addr:state": "VA", "addr:street_address": "1160 BIG BETHEL RD", "amenity": "post_box", "collection_times": "Mo-Sa 10:00", "nsi_id": "unitedstatespostalservice-a77078", "operator": "United States Postal Service", "operator:short": "USPS", "operator:type": "public", "operator:wikidata": "Q668687", "ref": "2366600005"}, "type": "Feature"}
{"geometry": {"coordinates": [-76.369366656, 37.051734267], "type": "Point"}, "id": "avqw7zaorwA49SzIxx_WvN7JYns=", "properties": {"@source_uri": "https://tools.usps.com/UspsToolsRestServices/rest/POLocator/findLocations", "@spider": "usps_collection_boxes", "addr:city": "HAMPTON", "addr:country": "US", "addr:postcode": "23666", "addr:state": "VA", "addr:street_address": "18 MARVIN DR", "amenity": "post_box", "collection_times": "Mo-Sa 10:00", "nsi_id": "unitedstatespostalservice-a77078", "operator": "United States Postal Service", "operator:short": "USPS", "operator:type": "public", "operator:wikidata": "Q668687", "ref": "2366600011"}, "type": "Feature"}
{"geometry": {"coordinates": [-76.417025, 37.0311], "type": "Point"}, "id": "_kSAknvNSdlkQlW1NRcNYaQPDZw=", "properties": {"@source_uri": "https://tools.usps.com/UspsToolsRestServices/rest/POLocator/findLocations", "@spider": "usps_collection_boxes", "addr:city": "HAMPTON", "addr:country": "US", "addr:postcode": "23666", "addr:state": "VA", "addr:street_address": "1055 W MERCURY BLVD", "amenity": "post_box", "collection_times": "Mo-Fr 10:00", "nsi_id": "unitedstatespostalservice-a77078", "operator": "United States Postal Service", "operator:short": "USPS", "operator:type": "public", "operator:wikidata": "Q668687", "ref": "2366600028"}, "type": "Feature"}
{"geometry": {"coordinates": [-76.38514798, 37.044595991], "type": "Point"}, "id": "9kbV5xjnoSD1w-YKHwTFtb_U0Xc=", "properties": {"@source_uri": "https://tools.usps.com/UspsToolsRestServices/rest/POLocator/findLocations", "@spider": "usps_collection_boxes", "addr:city": "HAMPTON", "addr:country": "US", "addr:postcode": "23666", "addr:state": "VA", "addr:street_address": "1062 W MERCURY BLVD", "amenity": "post_box", "collection_times": "Mo-Fr 17:00; Sa 16:30", "note": "ON 12/24 AND 12/31, THIS BOX MAY BE COLLECTED AS EARLY AS 12 NOON.", "nsi_id": "unitedstatespostalservice-a77078", "operator": "United States Postal Service", "operator:short": "USPS", "operator:type": "public", "operator:wikidata": "Q668687", "ref": "2366600030"}, "type": "Feature"}
{"geometry": {"coordinates": [-76.398034035, 37.050876965], "type": "Point"}, "id": "9qHKABRnJyHMeD39vcGLW8Hg_Xc=", "properties": {"@source_uri": "https://tools.usps.com/UspsToolsRestServices/rest/POLocator/findLocations", "@spider": "usps_collection_boxes", "addr:city": "HAMPTON", "addr:country": "US", "addr:postcode": "23666", "addr:state": "VA", "addr:street_address": "2207 EXECUTIVE DR", "amenity": "post_box", "collection_times": "Mo-Fr 17:00", "note": "ON 12/24 AND 12/31, THIS BOX MAY BE COLLECTED AS EARLY AS 12 NOON.", "nsi_id": "unitedstatespostalservice-a77078", "operator": "United States Postal Service", "operator:short": "USPS", "operator:type": "public", "operator:wikidata": "Q668687", "ref": "2366600043"}, "type": "Feature"}
{"geometry": {"coordinates": [-76.417025, 37.0311], "type": "Point"}, "id": "Vpk-LIaLbqScu0udLt4P0eKDP6s=", "properties": {"@source_uri": "https://tools.usps.com/UspsToolsRestServices/rest/POLocator/findLocations", "@spider": "usps_collection_boxes", "addr:city": "HAMPTON", "addr:country": "US", "addr:postcode": "23666", "addr:state": "VA", "addr:street_address": "2300 CUNNINGHAM DR", "amenity": "post_box", "collection_times": "Mo-Sa 10:00", "nsi_id": "unitedstatespostalservice-a77078", "operator": "United States Postal Service", "operator:short": "USPS", "operator:type": "public", "operator:wikidata": "Q668687", "ref": "2366600045"}, "type": "Feature"}
{"geometry": {"coordinates": [-76.393980132, 37.052355866], "type": "Point"}, "id": "syFH1gRSIz_AA2n9yzouHoFRXjo=", "properties": {"@source_uri": "https://tools.usps.com/UspsToolsRestServices/rest/POLocator/findLocations", "@spider": "usps_collection_boxes", "addr:city": "HAMPTON", "addr:country": "US", "addr:postcode": "23666", "addr:state": "VA", "addr:street_address": "1304 WYNDHAM DR", "amenity": "post_box", "collection_times": "Mo-Sa 10:00", "nsi_id": "unitedstatespostalservice-a77078", "operator": "United States Postal Service", "operator:short": "USPS", "operator:type": "public", "operator:wikidata": "Q668687", "ref": "2366600062"}, "type": "Feature"}
{"geometry": {"coordinates": [-76.398245871, 37.064627013], "type": "Point"}, "id": "KWA3hIrrqiEO_TmHVr2K8vCGMis=", "properties": {"@source_uri": "https://tools.usps.com/UspsToolsRestServices/rest/POLocator/findLocations", "@spider": "usps_collection_boxes", "addr:city": "HAMPTON", "addr:country": "US", "addr:postcode": "23666", "addr:state": "VA", "addr:street_address": "6 MANHATTAN SQ", "amenity": "post_box", "collection_times": "Mo-Fr 17:00", "note": "ON 12/24 AND 12/31, THIS BOX MAY BE COLLECTED AS EARLY AS 12 NOON.", "nsi_id": "unitedstatespostalservice-a77078", "operator": "United States Postal Service", "operator:short": "USPS", "operator:type": "public", "operator:wikidata": "Q668687", "ref": "2366600063"}, "type": "Feature"}
{"geometry": {"coordinates": [-76.393971801, 37.086466531], "type": "Point"}, "id": "iaILbrNf7fvt2L1z0MiQldgx84s=", "properties": {"@source_uri": "https://tools.usps.com/UspsToolsRestServices/rest/POLocator/findLocations", "@spider": "usps_collection_boxes", "addr:city": "HAMPTON", "addr:country": "US", "addr:postcode": "23666", "addr:state": "VA", "addr:street_address": "121 FLOYD THOMPSON BLVD", "amenity": "post_box", "collection_times": "Mo-Sa 10:00", "nsi_id": "unitedstatespostalservice-a77078", "operator": "United States Postal Service", "operator:short": "USPS", "operator:type": "public", "operator:wikidata": "Q668687", "ref": "2366600065"}, "type": "Feature"}
{"geometry": {"coordinates": [-76.425740255, 37.035539276], "type": "Point"}, "id": "NT-yxGSOPH8NMDyC4H9PjwoRCD4=", "properties": {"@source_uri": "https://tools.usps.com/UspsToolsRestServices/rest/POLocator/findLocations", "@spider": "usps_collection_boxes", "addr:city": "HAMPTON", "addr:country": "US", "addr:postcode": "23666", "addr:state": "VA", "addr:street_address": "199 ALBANY DR", "amenity": "post_box", "collection_times": "Mo-Sa 10:00", "nsi_id": "unitedstatespostalservice-a77078", "operator": "United States Postal Service", "operator:short": "USPS", "operator:type": "public", "operator:wikidata": "Q668687", "ref": "2366600069"}, "type": "Feature"}
{"geometry": {"coordinates": [-76.392309597, 37.056010662], "type": "Point"}, "id": "4I0QCn0jVBmqkqY8t7NY6ahrH9s=", "properties": {"@source_uri": "https://tools.usps.com/UspsToolsRestServices/rest/POLocator/findLocations", "@spider": "usps_collection_boxes", "addr:city": "HAMPTON", "addr:country": "US", "addr:postcode": "23666", "addr:state": "VA", "addr:street_address": "3000 COLISEUM DR", "amenity": "post_box", "collection_times": "Mo-Fr 10:00", "nsi_id": "unitedstatespostalservice-a77078", "operator": "United States Postal Service", "operator:short": "USPS", "operator:type": "public", "operator:wikidata": "Q668687", "ref": "2366600087"}, "type": "Feature"}
{"geometry": {"coordinates": [-76.384602397, 37.042701485], "type": "Point"}, "id": "nBeQMjOo-8bxT1SJeCsn5qPPMvg=", "properties": {"@source_uri": "https://tools.usps.com/UspsToolsRestServices/rest/POLocator/findLocations", "@spider": "usps_collection_boxes", "addr:city": "HAMPTON", "addr:country": "US", "addr:postcode": "23666", "addr:state": "VA", "addr:street_address": "1062 W MERCURY BLVD", "amenity": "post_box", "collection_times": "Mo-Fr 17:00; Sa 15:00", "indoor": "yes", "note": "ON 12/24 AND 12/31, THIS BOX MAY BE COLLECTED AS EARLY AS 12 NOON.", "nsi_id": "unitedstatespostalservice-a77078", "operator": "United States Postal Service", "operator:short": "USPS", "operator:type": "public", "operator:wikidata": "Q668687", "ref": "2366600088"}, "type": "Feature"}
{"geometry": {"coordinates": [-76.384602397, 37.042701485], "type": "Point"}, "id": "T_yDNMJnMzF3t7eTgtT07fK2LLM=", "properties": {"@source_uri": "https://tools.usps.com/UspsToolsRestServices/rest/POLocator/findLocations", "@spider": "usps_collection_boxes", "addr:city": "HAMPTON", "addr:country": "US", "addr:postcode": "23666", "addr:state": "VA", "addr:street_address": "1062 W MERCURY BLVD", "amenity": "post_box", "collection_times": "Mo-Fr 16:30; Sa 14:30", "indoor": "yes", "note": "ON 12/24 AND 12/31, THIS BOX MAY BE COLLECTED AS EARLY AS 12 NOON.", "nsi_id": "unitedstatespostalservice-a77078", "operator": "United States Postal Service", "operator:short": "USPS", "operator:type": "public", "operator:wikidata": "Q668687", "ref": "2366600095"}, "type": "Feature"}
{"geometry": {"coordinates": [-76.4035959618, 37.0621930003], "type": "Point"}, "id": "33PZ5F6n2M8Zq1B3wl9p46kbpcU=", "properties": {"@source_uri": "https://tools.usps.com/UspsToolsRestServices/rest/POLocator/findLocations", "@spider": "usps_collection_boxes", "addr:city": "HAMPTON", "addr:country": "US", "addr:postcode": "23666", "addr:state": "VA", "addr:street_address": "303 BUTLER FARM RD", "amenity": "post_box", "collection_times": "Mo-Fr 12:00", "nsi_id": "unitedstatespostalservice-a77078", "operator": "United States Postal Service", "operator:short": "USPS", "operator:type": "public", "operator:wikidata": "Q668687", "ref": "2366600096"}, "type": "Feature"}
{"geometry": {"coordinates": [-76.343928867, 37.024956931], "type": "Point"}, "id": "6d8u5jDDqEq8-SPzaN0oVC0h2lg=", "properties": {"@source_uri": "https://tools.usps.com/UspsToolsRestServices/rest/POLocator/findLocations", "@spider": "usps_collection_boxes", "addr:city": "HAMPTON", "addr:country": "US", "addr:postcode": "23669", "addr:state": "VA", "addr:street_address": "25 S KING ST", "amenity": "post_box", "collection_times": "Mo-Fr 10:00", "nsi_id": "unitedstatespostalservice-a77078", "operator": "United States Postal Service", "operator:short": "USPS", "operator:type": "public", "operator:wikidata": "Q668687", "ref": "2366900004"}, "type": "Feature"}
{"geometry": {"coordinates": [-76.344776724, 37.027854419], "type": "Point"}, "id": "-1AIcElZPF7-qbvoP6-Ducj-1K8=", "properties": {"@source_uri": "https://tools.usps.com/UspsToolsRestServices/rest/POLocator/findLocations", "@spider": "usps_collection_boxes", "addr:city": "HAMPTON", "addr:country": "US", "addr:postcode": "23669", "addr:state": "VA", "addr:street_address": "22 LINCOLN ST", "amenity": "post_box", "collection_times": "Mo-Fr 17:00", "note": "ON 12/24 AND 12/31, THIS BOX MAY BE COLLECTED AS EARLY AS 12 NOON.", "nsi_id": "unitedstatespostalservice-a77078", "operator": "United States Postal Service", "operator:short": "USPS", "operator:type": "public", "operator:wikidata": "Q668687", "ref": "2366900012"}, "type": "Feature"}
{"geometry": {"coordinates": [-76.336530461, 37.058604757], "type": "Point"}, "id": "h-QQhYGNbUg44qfc3jewDaxJQxU=", "properties": {"@source_uri": "https://tools.usps.com/UspsToolsRestServices/rest/POLocator/findLocations", "@spider": "usps_collection_boxes", "addr:city": "HAMPTON", "addr:country": "US", "addr:postcode": "23669", "addr:state": "VA", "addr:street_address": "127 CLEMWOOD PKWY", "amenity": "post_box", "collection_times": "Mo-Sa 10:00", "nsi_id": "unitedstatespostalservice-a77078", "operator": "United States Postal Service", "operator:short": "USPS", "operator:type": "public", "operator:wikidata": "Q668687", "ref": "2366900023"}, "type": "Feature"}
{"geometry": {"coordinates": [-76.348272256, 37.039526404], "type": "Point"}, "id": "wcWCNbngTt_r52vkH7E4950PVBY=", "properties": {"@source_uri": "https://tools.usps.com/UspsToolsRestServices/rest/POLocator/findLocations", "@spider": "usps_collection_boxes", "addr:city": "HAMPTON", "addr:country": "US", "addr:postcode": "23669", "addr:state": "VA", "addr:street_address": "989 N KING ST", "amenity": "post_box", "collection_times": "Mo-Sa 10:00", "nsi_id": "unitedstatespostalservice-a77078", "operator": "United States Postal Service", "operator:short": "USPS", "operator:type": "public", "operator:wikidata": "Q668687", "ref": "2366900026"}, "type": "Feature"}
{"geometry": {"coordinates": [-76.322129716, 37.068782384], "type": "Point"}, "id": "pSPhAuORymTrFsrCf1XXBsvn9I8=", "properties": {"@source_uri": "https://tools.usps.com/UspsToolsRestServices/rest/POLocator/findLocations", "@spider": "usps_collection_boxes", "addr:city": "HAMPTON", "addr:country": "US", "addr:postcode": "23669", "addr:state": "VA", "addr:street_address": "1049 E LITTLE BACK RIVER RD", "amenity": "post_box", "collection_times": "Mo-Sa 10:00", "nsi_id": "unitedstatespostalservice-a77078", "operator": "United States Postal Service", "operator:short": "USPS", "operator:type": "public", "operator:wikidata": "Q668687", "ref": "2366900031"}, "type": "Feature"}
{"geometry": {"coordinates": [-76.34773, 37.025275], "type": "Point"}, "id": "Ef6S586fClbs_BRCwDvX4HVLvPc=", "properties": {"@source_uri": "https://tools.usps.com/UspsToolsRestServices/rest/POLocator/findLocations", "@spider": "usps_collection_boxes", "addr:city": "HAMPTON", "addr:country": "US", "addr:postcode": "23669", "addr:state": "VA", "addr:street_address": "1320 LASALLE AVE", "amenity": "post_box", "collection_times": "Mo-Fr 17:00", "note": "ON 12/24 AND 12/31, THIS BOX MAY BE COLLECTED AS EARLY AS 12 NOON.", "nsi_id": "unitedstatespostalservice-a77078", "operator": "United States Postal Service", "operator:short": "USPS", "operator:type": "public", "operator:wikidata": "Q668687", "ref": "2366900044"}, "type": "Feature"}
{"geometry": {"coordinates": [-76.353068447, 37.012266251], "type": "Point"}, "id": "qTn3dLlwYmKGT_72tIz4rhp1kII=", "properties": {"@source_uri": "https://tools.usps.com/UspsToolsRestServices/rest/POLocator/findLocations", "@spider": "usps_collection_boxes", "addr:city": "HAMPTON", "addr:country": "US", "addr:postcode": "23669", "addr:state": "VA", "addr:street_address": "3857 KECOUGHTAN RD", "amenity": "post_box", "collection_times": "Mo-Sa 10:00", "nsi_id": "unitedstatespostalservice-a77078", "operator": "United States Postal Service", "operator:short": "USPS", "operator:type": "public", "operator:wikidata": "Q668687", "ref": "2366900045"}, "type": "Feature"}
{"geometry": {"coordinates": [-76.3481339982, 37.0266209995], "type": "Point"}, "id": "DB1G2RnmV5BxAeUH0Rg2U-RN1m0=", "properties": {"@source_uri": "https://tools.usps.com/UspsToolsRestServices/rest/POLocator/findLocations", "@spider": "usps_collection_boxes", "addr:city": "HAMPTON", "addr:country": "US", "addr:postcode": "23669", "addr:state": "VA", "addr:street_address": "89 LINCOLN ST", "amenity": "post_box", "collection_times": "Mo-Fr 16:30; Sa 14:15", "note": "ON 12/24 AND 12/31, THIS BOX MAY BE COLLECTED AS EARLY AS 12 NOON.", "nsi_id": "unitedstatespostalservice-a77078", "operator": "United States Postal Service", "operator:short": "USPS", "operator:type": "public", "operator:wikidata": "Q668687", "ref": "2366900054"}, "type": "Feature"}
{"geometry": {"coordinates": [-76.32613947, 37.057092424], "type": "Point"}, "id": "Pk7bSk3H_bu-Dtmv_AjTLVzpSLE=", "properties": {"@source_uri": "https://tools.usps.com/UspsToolsRestServices/rest/POLocator/findLocations", "@spider": "usps_collection_boxes", "addr:city": "HAMPTON", "addr:country": "US", "addr:postcode": "23669", "addr:state": "VA", "addr:street_address": "227 FOX HILL RD", "amenity": "post_box", "collection_times": "Mo-Fr 16:45; Sa 13:45", "note": "ON 12/24 AND 12/31, THIS BOX MAY BE COLLECTED AS EARLY AS 12 NOON.", "nsi_id": "unitedstatespostalservice-a77078", "operator": "United States Postal Service", "operator:short": "USPS", "operator:type": "public", "operator:wikidata": "Q668687", "ref": "2366900055"}, "type": "Feature"}
{"geometry": {"coordinates": [-76.3481339982, 37.0266209995], "type": "Point"}, "id": "0ZmVpoQDcSUzCg3Fp00GbSDFnYw=", "properties": {"@source_uri": "https://tools.usps.com/UspsToolsRestServices/rest/POLocator/findLocations", "@spider": "usps_collection_boxes", "addr:city": "HAMPTON", "addr:country": "US", "addr:postcode": "23669", "addr:state": "VA", "addr:street_address": "89 LINCOLN ST", "amenity": "post_box", "collection_times": "Mo-Fr 16:30", "indoor": "yes", "note": "ON 12/24 AND 12/31, THIS BOX MAY BE COLLECTED AS EARLY AS 12 NOON.", "nsi_id": "unitedstatespostalservice-a77078", "operator": "United States Postal Service", "operator:short": "USPS", "operator:type": "public", "operator:wikidata": "Q668687", "ref": "2366900057"}, "type": "Feature"}
{"geometry": {"coordinates": [-76.3481339982, 37.0266209995], "type": "Point"}, "id": "He4br7q6GY5VK1CiSKV50ts2uq8=", "properties": {"@source_uri": "https://tools.usps.com/UspsToolsRestServices/rest/POLocator/findLocations", "@spider": "usps_collection_boxes", "addr:city": "HAMPTON", "addr:country": "US", "addr:postcode": "23669", "addr:state": "VA", "addr:street_address": "89 LINCOLN ST", "amenity": "post_box", "collection_times": "Mo-Fr 16:30", "indoor": "yes", "note": "ON 12/24 AND 12/31, THIS BOX MAY BE COLLECTED AS EARLY AS 12 NOON.", "nsi_id": "unitedstatespostalservice-a77078", "operator": "United States Postal Service", "operator:short": "USPS", "operator:type": "public", "operator:wikidata": "Q668687", "ref": "2366900060"}, "type": "Feature"}
{"geometry": {"coordinates": [-76.403764882, 37.018071095], "type": "Point"}, "id": "f5QIBVc-X-U8GdAVqtzQI8EYdPk=", "properties": {"@source_uri": "https://tools.usps.com/UspsToolsRestServices/rest/POLocator/findLocations", "@spider": "usps_collection_boxes", "addr:city": "HAMPTON", "addr:country": "US", "addr:postcode": "23670", "addr:state": "VA", "addr:street_address": "809 ABERDEEN RD", "amenity": "post_box", "collection_times": "Mo-Sa 17:00", "indoor": "yes", "note": "ON 12/24 AND 12/31, THIS BOX MAY BE COLLECTED AS EARLY AS 12 NOON.", "nsi_id": "unitedstatespostalservice-a77078", "operator": "United States Postal Service", "operator:short": "USPS", "operator:type": "public", "operator:wikidata": "Q668687", "ref": "2367000001"}, "type": "Feature"}
{"geometry": {"coordinates": [-76.403764882, 37.018071095], "type": "Point"}, "id": "LHgzklsNgz3zxEgzU24-EF_Qduo=", "properties": {"@source_uri": "https://tools.usps.com/UspsToolsRestServices/rest/POLocator/findLocations", "@spider": "usps_collection_boxes", "addr:city": "HAMPTON", "addr:country": "US", "addr:postcode": "23670", "addr:state": "VA", "addr:street_address": "809 ABERDEEN RD", "amenity": "post_box", "collection_times": "Mo-Sa 17:00", "note": "ON 12/24 AND 12/31, THIS BOX MAY BE COLLECTED AS EARLY AS 12 NOON.", "nsi_id": "unitedstatespostalservice-a77078", "operator": "United States Postal Service", "operator:short": "USPS", "operator:type": "public", "operator:wikidata": "Q668687", "ref": "2367000005"}, "type": "Feature"}
{"geometry": {"coordinates": [-76.403764882, 37.018071095], "type": "Point"}, "id": "itj63cRsaXlH4zV5_6a0zCQbZSY=", "properties": {"@source_uri": "https://tools.usps.com/UspsToolsRestServices/rest/POLocator/findLocations", "@spider": "usps_collection_boxes", "addr:city": "HAMPTON", "addr:country": "US", "addr:postcode": "23670", "addr:state": "VA", "addr:street_address": "809 ABERDEEN RD", "amenity": "post_box", "collection_times": "Mo-Fr 17:00; Sa 14:00", "indoor": "yes", "note": "ON 12/24 AND 12/31, THIS BOX MAY BE COLLECTED AS EARLY AS 12 NOON.", "nsi_id": "unitedstatespostalservice-a77078", "operator": "United States Postal Service", "operator:short": "USPS", "operator:type": "public", "operator:wikidata": "Q668687", "ref": "2367000010"}, "type": "Feature"}
{"geometry": {"coordinates": [-76.482584461, 37.219674831], "type": "Point"}, "id": "1eOXsHpKINkrjE68ZzNNfPrIlGc=", "properties": {"@source_uri": "https://tools.usps.com/UspsToolsRestServices/rest/POLocator/findLocations", "@spider": "usps_collection_boxes", "addr:city": "YORKTOWN", "addr:country": "US", "addr:postcode": "23690", "addr:state": "VA", "addr:street_address": "1 U S COAST GUARD TRN CTR", "amenity": "post_box", "collection_times": "Mo-Fr 15:00", "note": "ON 12/24 AND 12/31, THIS BOX MAY BE COLLECTED AS EARLY AS 12 NOON.", "nsi_id": "unitedstatespostalservice-a77078", "operator": "United States Postal Service", "operator:short": "USPS", "operator:type": "public", "operator:wikidata": "Q668687", "ref": "2369000000"}, "type": "Feature"}
{"geometry": {"coordinates": [-76.508972883, 37.236184616], "type": "Point"}, "id": "1dS2szgG_uclkEt3TF3r51NvQE8=", "properties": {"@source_uri": "https://tools.usps.com/UspsToolsRestServices/rest/POLocator/findLocations", "@spider": "usps_collection_boxes", "addr:city": "YORKTOWN", "addr:country": "US", "addr:postcode": "23690", "addr:state": "VA", "addr:street_address": "126 BALLARD ST", "amenity": "post_box", "collection_times": "Mo-Fr 15:00", "note": "ON 12/24 AND 12/31, THIS BOX MAY BE COLLECTED AS EARLY AS 12 NOON.", "nsi_id": "unitedstatespostalservice-a77078", "operator": "United States Postal Service", "operator:short": "USPS", "operator:type": "public", "operator:wikidata": "Q668687", "ref": "2369000001"}, "type": "Feature"}
{"geometry": {"coordinates": [-76.508972883, 37.236184616], "type": "Point"}, "id": "fMsDxySObLSEqSn4E6-fV736g5U=", "properties": {"@source_uri": "https://tools.usps.com/UspsToolsRestServices/rest/POLocator/findLocations", "@spider": "usps_collection_boxes", "addr:city": "YORKTOWN", "addr:country": "US", "addr:postcode": "23690", "addr:state": "VA", "addr:street_address": "126 BALLARD ST", "amenity": "post_box", "collection_times": "Mo-Fr 15:00", "indoor": "yes", "note": "ON 12/24 AND 12/31, THIS BOX MAY BE COLLECTED AS EARLY AS 12 NOON.", "nsi_id": "unitedstatespostalservice-a77078", "operator": "United States Postal Service", "operator:short": "USPS", "operator:type": "public", "operator:wikidata": "Q668687", "ref": "2369000002"}, "type": "Feature"}
{"geometry": {"coordinates": [-76.482584461, 37.219674831], "type": "Point"}, "id": "kxiXIjrMG5BWQsh3eYD1Y1fzxdw=", "properties": {"@source_uri": "https://tools.usps.com/UspsToolsRestServices/rest/POLocator/findLocations", "@spider": "usps_collection_boxes", "addr:city": "YORKTOWN", "addr:country": "US", "addr:postcode": "23690", "addr:state": "VA", "addr:street_address": "1 U S COAST GUARD TRN CTR", "amenity": "post_box", "collection_times": "Mo-Fr 15:00", "indoor": "yes", "note": "ON 12/24 AND 12/31, THIS BOX MAY BE COLLECTED AS EARLY AS 12 NOON.", "nsi_id": "unitedstatespostalservice-a77078", "operator": "United States Postal Service", "operator:short": "USPS", "operator:type": "public", "operator:wikidata": "Q668687", "ref": "2369000003"}, "type": "Feature"}
{"geometry": {"coordinates": [-76.508972883, 37.236184616], "type": "Point"}, "id": "D2JF3DcBydBdawn82-WZyvC4eNI=", "properties": {"@source_uri": "https://tools.usps.com/UspsToolsRestServices/rest/POLocator/findLocations", "@spider": "usps_collection_boxes", "addr:city": "YORKTOWN", "addr:country": "US", "addr:postcode": "23690", "addr:state": "VA", "addr:street_address": "126 BALLARD ST", "amenity": "post_box", "collection_times": "Mo-Fr 15:00", "indoor": "yes", "note": "ON 12/24 AND 12/31, THIS BOX MAY BE COLLECTED AS EARLY AS 12 NOON.", "nsi_id": "unitedstatespostalservice-a77078", "operator": "United States Postal Service", "operator:short": "USPS", "operator:type": "public", "operator:wikidata": "Q668687", "ref": "2369000006"}, "type": "Feature"}
{"geometry": {"coordinates": [-76.416963148, 37.101485508], "type": "Point"}, "id": "wrfl4lHxxwjFNCUUOXaXI7xKLi4=", "properties": {"@source_uri": "https://tools.usps.com/UspsToolsRestServices/rest/POLocator/findLocations", "@spider": "usps_collection_boxes", "addr:city": "YORKTOWN", "addr:country": "US", "addr:postcode": "23692", "addr:state": "VA", "addr:street_address": "2960 HAMPTON HWY STE B", "amenity": "post_box", "collection_times": "Mo-Sa 12:00", "nsi_id": "unitedstatespostalservice-a77078", "operator": "United States Postal Service", "operator:short": "USPS", "operator:type": "public", "operator:wikidata": "Q668687", "ref": "2369200001"}, "type": "Feature"}
{"geometry": {"coordinates": [-76.414071843, 37.100491532], "type": "Point"}, "id": "J3CgLdcGG05009ZcACzPysKpUR4=", "properties": {"@source_uri": "https://tools.usps.com/UspsToolsRestServices/rest/POLocator/findLocations", "@spider": "usps_collection_boxes", "addr:city": "YORKTOWN", "addr:country": "US", "addr:postcode": "23692", "addr:state": "VA", "addr:street_address": "3100 HAMPTON HWY", "amenity": "post_box", "collection_times": "Mo-Sa 12:00", "nsi_id": "unitedstatespostalservice-a77078", "operator": "United States Postal Service", "operator:short": "USPS", "operator:type": "public", "operator:wikidata": "Q668687", "ref": "2369200002"}, "type": "Feature"}
{"geometry": {"coordinates": [-76.40995699, 37.098123265], "type": "Point"}, "id": "CZyPLZzcZ-_3tcDyVHsSRCW3sTo=", "properties": {"@source_uri": "https://tools.usps.com/UspsToolsRestServices/rest/POLocator/findLocations", "@spider": "usps_collection_boxes", "addr:city": "YORKTOWN", "addr:country": "US", "addr:postcode": "23692", "addr:state": "VA", "addr:street_address": "119 PINEWOOD CRES", "amenity": "post_box", "collection_times": "Mo-Sa 12:00", "nsi_id": "unitedstatespostalservice-a77078", "operator": "United States Postal Service", "operator:short": "USPS", "operator:type": "public", "operator:wikidata": "Q668687", "ref": "2369200003"}, "type": "Feature"}
{"geometry": {"coordinates": [-76.437561299, 37.099465517], "type": "Point"}, "id": "hRYQ7Xd9fvbQO7lBUOa6VkZ7up0=", "properties": {"@source_uri": "https://tools.usps.com/UspsToolsRestServices/rest/POLocator/findLocations", "@spider": "usps_collection_boxes", "addr:city": "YORKTOWN", "addr:country": "US", "addr:postcode": "23692", "addr:state": "VA", "addr:street_address": "100 WROUGHT IRON BND", "amenity": "post_box", "collection_times": "Mo-Sa 12:00", "nsi_id": "unitedstatespostalservice-a77078", "operator": "United States Postal Service", "operator:short": "USPS", "operator:type": "public", "operator:wikidata": "Q668687", "ref": "2369200004"}, "type": "Feature"}
{"geometry": {"coordinates": [-76.467682098, 37.115711425], "type": "Point"}, "id": "y_K6mK9bT9QFVQrW4DLUsilTQdU=", "properties": {"@source_uri": "https://tools.usps.com/UspsToolsRestServices/rest/POLocator/findLocations", "@spider": "usps_collection_boxes", "addr:city": "YORKTOWN", "addr:country": "US", "addr:postcode": "23692", "addr:state": "VA", "addr:street_address": "5007 VICTORY BLVD", "amenity": "post_box", "collection_times": "Mo-Sa 12:00", "nsi_id": "unitedstatespostalservice-a77078", "operator": "United States Postal Service", "operator:short": "USPS", "operator:type": "public", "operator:wikidata": "Q668687", "ref": "2369200005"}, "type": "Feature"}
{"geometry": {"coordinates": [-76.4628990164, 37.1639760012], "type": "Point"}, "id": "9bM7gPsAkFPzjCMk3veBFKPKE0c=", "properties": {"@source_uri": "https://tools.usps.com/UspsToolsRestServices/rest/POLocator/findLocations", "@spider": "usps_collection_boxes", "addr:city": "YORKTOWN", "addr:country": "US", "addr:postcode": "23692", "addr:state": "VA", "addr:street_address": "5702 GEORGE WASHINGTON MEM HWY", "amenity": "post_box", "collection_times": "Mo-Fr 17:00; Sa 16:00", "note": "ON 12/24 AND 12/31, THIS BOX MAY BE COLLECTED AS EARLY AS 12 NOON.", "nsi_id": "unitedstatespostalservice-a77078", "operator": "United States Postal Service", "operator:short": "USPS", "operator:type": "public", "operator:wikidata": "Q668687", "ref": "2369200006"}, "type": "Feature"}
{"geometry": {"coordinates": [-76.462250095, 37.157101246], "type": "Point"}, "id": "zhxHMZoetyiDWXIYS3E0iz7e9Z4=", "properties": {"@source_uri": "https://tools.usps.com/UspsToolsRestServices/rest/POLocator/findLocations", "@spider": "usps_collection_boxes", "addr:city": "YORKTOWN", "addr:country": "US", "addr:postcode": "23692", "addr:state": "VA", "addr:street_address": "5234 GEORGE WASHINGTON MEM HWY", "amenity": "post_box", "collection_times": "Mo-Sa 12:00", "nsi_id": "unitedstatespostalservice-a77078", "operator": "United States Postal Service", "operator:short": "USPS", "operator:type": "public", "operator:wikidata": "Q668687", "ref": "2369200008"}, "type": "Feature"}
{"geometry": {"coordinates": [-76.458304028, 37.146149713], "type": "Point"}, "id": "zLTdRt6zI8oQgRqa4i0v3I1vQYM=", "properties": {"@source_uri": "https://tools.usps.com/UspsToolsRestServices/rest/POLocator/findLocations", "@spider": "usps_collection_boxes", "addr:city": "YORKTOWN", "addr:country": "US", "addr:postcode": "23692", "addr:state": "VA", "addr:street_address": "4324 GEORGE WASHINGTON MEM HWY", "amenity": "post_box", "collection_times": "Mo-Sa 12:00", "nsi_id": "unitedstatespostalservice-a77078", "operator": "United States Postal Service", "operator:short": "USPS", "operator:type": "public", "operator:wikidata": "Q668687", "ref": "2369200009"}, "type": "Feature"}
{"geometry": {"coordinates": [-76.464572553, 37.163415371], "type": "Point"}, "id": "GQQCOECk-FAJuqTH7uYwTSTiph8=", "properties": {"@source_uri": "https://tools.usps.com/UspsToolsRestServices/rest/POLocator/findLocations", "@spider": "usps_collection_boxes", "addr:city": "YORKTOWN", "addr:country": "US", "addr:postcode": "23692", "addr:state": "VA", "addr:street_address": "5702 GEORGE WASHINGTON MEM HWY", "amenity": "post_box", "collection_times": "Mo-Fr 17:00; Sa 16:00", "indoor": "yes", "note": "ON 12/24 AND 12/31, THIS BOX MAY BE COLLECTED AS EARLY AS 12 NOON.", "nsi_id": "unitedstatespostalservice-a77078", "operator": "United States Postal Service", "operator:short": "USPS", "operator:type": "public", "operator:wikidata": "Q668687", "ref": "2369200010"}, "type": "Feature"}
{"geometry": {"coordinates": [-76.465704809, 37.161250021], "type": "Point"}, "id": "T25Jj1zuxz64AG8SoKVXbehgMhY=", "properties": {"@source_uri": "https://tools.usps.com/UspsToolsRestServices/rest/POLocator/findLocations", "@spider": "usps_collection_boxes", "addr:city": "YORKTOWN", "addr:country": "US", "addr:postcode": "23692", "addr:state": "VA", "addr:street_address": "113 RUSTLING OAK RDG", "amenity": "post_box", "collection_times": "Mo-Sa 12:00", "nsi_id": "unitedstatespostalservice-a77078", "operator": "United States Postal Service", "operator:short": "USPS", "operator:type": "public", "operator:wikidata": "Q668687", "ref": "2369200011"}, "type": "Feature"}
{"geometry": {"coordinates": [-76.464572553, 37.163415371], "type": "Point"}, "id": "VW_4C-YkKpdCyDYkEg0UPY6RpsI=", "properties": {"@source_uri": "https://tools.usps.com/UspsToolsRestServices/rest/POLocator/findLocations", "@spider": "usps_collection_boxes", "addr:city": "YORKTOWN", "addr:country": "US", "addr:postcode": "23692", "addr:state": "VA", "addr:street_address": "5702 GEORGE WASHINGTON MEM HWY", "amenity": "post_box", "collection_times": "Mo-Fr 17:00; Sa 16:00", "name": "USPS COLLECTION BOX - APC", "note": "ON 12/24 AND 12/31, THIS BOX MAY BE COLLECTED AS EARLY AS 12 NOON.", "nsi_id": "unitedstatespostalservice-a77078", "operator": "United States Postal Service", "operator:short": "USPS", "operator:type": "public", "operator:wikidata": "Q668687", "ref": "2369200013"}, "type": "Feature"}
{"geometry": {"coordinates": [-76.4628990164, 37.1639760012], "type": "Point"}, "id": "ryqgUOvdtZVOXZEiNyQZUnzM-ZM=", "properties": {"@source_uri": "https://tools.usps.com/UspsToolsRestServices/rest/POLocator/findLocations", "@spider": "usps_collection_boxes", "addr:city": "YORKTOWN", "addr:country": "US", "addr:postcode": "23692", "addr:state": "VA", "addr:street_address": "5702 GEORGE WASHINGTON MEM HWY", "amenity": "post_box", "collection_times": "Mo-Fr 17:00; Sa 16:00", "note": "ON 12/24 AND 12/31, THIS BOX MAY BE COLLECTED AS EARLY AS 12 NOON.", "nsi_id": "unitedstatespostalservice-a77078", "operator": "United States Postal Service", "operator:short": "USPS", "operator:type": "public", "operator:wikidata": "Q668687", "ref": "2369200017"}, "type": "Feature"}
{"geometry": {"coordinates": [-76.464572553, 37.163415371], "type": "Point"}, "id": "ZLFl7X4Y3m-KcTaXaQBnXjkMVa8=", "properties": {"@source_uri": "https://tools.usps.com/UspsToolsRestServices/rest/POLocator/findLocations", "@spider": "usps_collection_boxes", "addr:city": "YORKTOWN", "addr:country": "US", "addr:postcode": "23692", "addr:state": "VA", "addr:street_address": "5702 GEORGE WASHINGTON MEM HWY", "amenity": "post_box", "collection_times": "Mo-Fr 17:00; Sa 13:00", "indoor": "yes", "note": "ON 12/24 AND 12/31, THIS BOX MAY BE COLLECTED AS EARLY AS 12 NOON.", "nsi_id": "unitedstatespostalservice-a77078", "operator": "United States Postal Service", "operator:short": "USPS", "operator:type": "public", "operator:wikidata": "Q668687", "ref": "2369200019"}, "type": "Feature"}
{"geometry": {"coordinates": [-76.456505, 37.11771], "type": "Point"}, "id": "cq028sSfi9A6iRSRaOIZ5u3efSU=", "properties": {"@source_uri": "https://tools.usps.com/UspsToolsRestServices/rest/POLocator/findLocations", "@spider": "usps_collection_boxes", "addr:city": "YORKTOWN", "addr:country": "US", "addr:postcode": "23693", "addr:state": "VA", "addr:street_address": "2711 GEORGE WASHINGTON MEM HWY", "amenity": "post_box", "collection_times": "Mo-Sa 12:00", "nsi_id": "unitedstatespostalservice-a77078", "operator": "United States Postal Service", "operator:short": "USPS", "operator:type": "public", "operator:wikidata": "Q668687", "ref": "2369300000"}, "type": "Feature"}
{"geometry": {"coordinates": [-76.5498606, 37.2318124], "type": "Point"}, "id": "J_IY4NsJKmiAw9-q67lvwBlBw1U=", "properties": {"@source_uri": "https://tools.usps.com/UspsToolsRestServices/rest/POLocator/findLocations", "@spider": "usps_collection_boxes", "addr:city": "LACKEY", "addr:country": "US", "addr:postcode": "23694", "addr:state": "VA", "addr:street_address": "2028 OLD WILLIAMSBURG RD", "amenity": "post_box", "collection_times": "Mo-Fr 16:45; Sa 11:30", "note": "ON 12/24 AND 12/31, THIS BOX MAY BE COLLECTED AS EARLY AS 12 NOON.", "nsi_id": "unitedstatespostalservice-a77078", "operator": "United States Postal Service", "operator:short": "USPS", "operator:type": "public", "operator:wikidata": "Q668687", "ref": "2369400001"}, "type": "Feature"}
{"geometry": {"coordinates": [-76.5498606, 37.2318124], "type": "Point"}, "id": "rJaYtEQaQ6jaTOZASTDpoiqdO9E=", "properties": {"@source_uri": "https://tools.usps.com/UspsToolsRestServices/rest/POLocator/findLocations", "@spider": "usps_collection_boxes", "addr:city": "LACKEY", "addr:country": "US", "addr:postcode": "23694", "addr:state": "VA", "addr:street_address": "2028 OLD WILLIAMSBURG RD", "amenity": "post_box", "collection_times": "Mo-Fr 16:45; Sa 11:30", "indoor": "yes", "note": "ON 12/24 AND 12/31, THIS BOX MAY BE COLLECTED AS EARLY AS 12 NOON.", "nsi_id": "unitedstatespostalservice-a77078", "operator": "United States Postal Service", "operator:short": "USPS", "operator:type": "public", "operator:wikidata": "Q668687", "ref": "2369400002"}, "type": "Feature"}
{"geometry": {"coordinates": [-76.5498606, 37.2318124], "type": "Point"}, "id": "zWuzQYX_20GxrQ4G7EXHydw87J8=", "properties": {"@source_uri": "https://tools.usps.com/UspsToolsRestServices/rest/POLocator/findLocations", "@spider": "usps_collection_boxes", "addr:city": "LACKEY", "addr:country": "US", "addr:postcode": "23694", "addr:state": "VA", "addr:street_address": "2028 OLD WILLIAMSBURG RD", "amenity": "post_box", "collection_times": "Mo-Fr 17:00; Sa 12:15", "indoor": "yes", "note": "ON 12/24 AND 12/31, THIS BOX MAY BE COLLECTED AS EARLY AS 12 NOON.", "nsi_id": "unitedstatespostalservice-a77078", "operator": "United States Postal Service", "operator:short": "USPS", "operator:type": "public", "operator:wikidata": "Q668687", "ref": "2369400004"}, "type": "Feature"}
{"geometry": {"coordinates": [-76.431145628, 37.195867198], "type": "Point"}, "id": "xnAiEWMuJiMvoBTdMFbUaKLnnwI=", "properties": {"@source_uri": "https://tools.usps.com/UspsToolsRestServices/rest/POLocator/findLocations", "@spider": "usps_collection_boxes", "addr:city": "SEAFORD", "addr:country": "US", "addr:postcode": "23696", "addr:state": "VA", "addr:street_address": "2300 SEAFORD RD", "amenity": "post_box", "collection_times": "Mo-Fr 16:00; Sa 11:00", "indoor": "yes", "note": "ON 12/24 AND 12/31, THIS BOX MAY BE COLLECTED AS EARLY AS 12 NOON.", "nsi_id": "unitedstatespostalservice-a77078", "operator": "United States Postal Service", "operator:short": "USPS", "operator:type": "public", "operator:wikidata": "Q668687", "ref": "2369600001"}, "type": "Feature"}
{"geometry": {"coordinates": [-76.431145628, 37.195867198], "type": "Point"}, "id": "nva0Sz-5WL-TXYhZsuWoUTXyjfg=", "properties": {"@source_uri": "https://tools.usps.com/UspsToolsRestServices/rest/POLocator/findLocations", "@spider": "usps_collection_boxes", "addr:city": "SEAFORD", "addr:country": "US", "addr:postcode": "23696", "addr:state": "VA", "addr:street_address": "2300 SEAFORD RD", "amenity": "post_box", "collection_times": "Mo-Fr 16:00; Sa 11:00", "note": "ON 12/24 AND 12/31, THIS BOX MAY BE COLLECTED AS EARLY AS 12 NOON.", "nsi_id": "unitedstatespostalservice-a77078", "operator": "United States Postal Service", "operator:short": "USPS", "operator:type": "public", "operator:wikidata": "Q668687", "ref": "2369600002"}, "type": "Feature"}
{"geometry": {"coordinates": [-76.431145628, 37.195867198], "type": "Point"}, "id": "7NfLhBwWLsvVG4wsNeU62YU7crw=", "properties": {"@source_uri": "https://tools.usps.com/UspsToolsRestServices/rest/POLocator/findLocations", "@spider": "usps_collection_boxes", "addr:city": "SEAFORD", "addr:country": "US", "addr:postcode": "23696", "addr:state": "VA", "addr:street_address": "2300 SEAFORD RD", "amenity": "post_box", "collection_times": "Mo-Fr 16:30; Sa 11:30", "indoor": "yes", "note": "ON 12/24 AND 12/31, THIS BOX MAY BE COLLECTED AS EARLY AS 12 NOON.", "nsi_id": "unitedstatespostalservice-a77078", "operator": "United States Postal Service", "operator:short": "USPS", "operator:type": "public", "operator:wikidata": "Q668687", "ref": "2369600004"}, "type": "Feature"}
