{"dataset_attributes": {"@spider": "usps_collection_boxes", "spider:collection_time": "2023-09-07T08:24:46.282741"}, "geometry": {"coordinates": [-76.3647320105, 36.8122480003], "type": "Point"}, "id": "Warl9GKikpcnYGYjfsH5OnsvL4A=", "properties": {"@spider": "usps_collection_boxes", "addr:city": "PORTSMOUTH", "addr:country": "US", "addr:full": "201 CHOWAN DR", "addr:postcode": "23701", "addr:state": "VA", "amenity": "post_box", "brand": "United States Postal Service", "brand:wikidata": "Q668687", "collection_times": "Mo-Fr 17:00; Sa 12:00", "name": "USPS COLLECTION BOX - BLUE BOX", "note": "ON 12/24 AND 12/31, THIS BOX MAY BE COLLECTED AS EARLY AS 12 NOON.", "nsi_id": "unitedstatespostalservice-a77078", "operator": "United States Postal Service", "operator:short": "USPS", "operator:type": "public", "operator:wikidata": "Q668687", "ref": "2370100003"}, "type": "Feature"}
{"dataset_attributes": {"@spider": "usps_collection_boxes", "spider:collection_time": "2023-09-07T08:24:46.282741"}, "geometry": {"coordinates": [-76.373215937, 36.822152293], "type": "Point"}, "id": "wBEh6LtXejfqDV0j6CGf7bhILp8=", "properties": {"@spider": "usps_collection_boxes", "addr:city": "PORTSMOUTH", "addr:country": "US", "addr:full": "5102 VICK ST", "addr:postcode": "23701", "addr:state": "VA", "amenity": "post_box", "brand": "United States Postal Service", "brand:wikidata": "Q668687", "collection_times": "Mo-Sa 14:00", "name": "USPS COLLECTION BOX - BLUE BOX", "note": "ON 12/24 AND 12/31, THIS BOX MAY BE COLLECTED AS EARLY AS 12 NOON.", "nsi_id": "unitedstatespostalservice-a77078", "operator": "United States Postal Service", "operator:short": "USPS", "operator:type": "public", "operator:wikidata": "Q668687", "ref": "2370100009"}, "type": "Feature"}
{"dataset_attributes": {"@spider": "usps_collection_boxes", "spider:collection_time": "2023-09-07T08:24:46.282741"}, "geometry": {"coordinates": [-76.363408867, 36.792664125], "type": "Point"}, "id": "f4WPsCADKqiSK4TLJZ66kM7yRns=", "properties": {"@spider": "usps_collection_boxes", "addr:city": "PORTSMOUTH", "addr:country": "US", "addr:full": "1601 CAVALIER BLVD", "addr:postcode": "23701", "addr:state": "VA", "amenity": "post_box", "brand": "United States Postal Service", "brand:wikidata": "Q668687", "collection_times": "Mo-Fr 12:00", "name": "USPS COLLECTION BOX - BLUE BOX", "nsi_id": "unitedstatespostalservice-a77078", "operator": "United States Postal Service", "operator:short": "USPS", "operator:type": "public", "operator:wikidata": "Q668687", "ref": "2370100028"}, "type": "Feature"}
{"dataset_attributes": {"@spider": "usps_collection_boxes", "spider:collection_time": "2023-09-07T08:24:46.282741"}, "geometry": {"coordinates": [-76.365087038, 36.812277125], "type": "Point"}, "id": "wF5Z6QTvto79i0HIeDX2aBTAIkQ=", "properties": {"@spider": "usps_collection_boxes", "addr:city": "PORTSMOUTH", "addr:country": "US", "addr:full": "201 CHOWAN DR", "addr:postcode": "23701", "addr:state": "VA", "amenity": "post_box", "brand": "United States Postal Service", "brand:wikidata": "Q668687", "collection_times": "Mo-Fr 17:00; Sa 12:00", "name": "USPS COLLECTION BOX - PO LOBBY", "note": "ON 12/24 AND 12/31, THIS BOX MAY BE COLLECTED AS EARLY AS 12 NOON.", "nsi_id": "unitedstatespostalservice-a77078", "operator": "United States Postal Service", "operator:short": "USPS", "operator:type": "public", "operator:wikidata": "Q668687", "ref": "2370100035"}, "type": "Feature"}
{"dataset_attributes": {"@spider": "usps_collection_boxes", "spider:collection_time": "2023-09-07T08:24:46.282741"}, "geometry": {"coordinates": [-76.357731752, 36.80956488], "type": "Point"}, "id": "lhlU-6fqX3Iy8eturt2GHra8Li4=", "properties": {"@spider": "usps_collection_boxes", "addr:city": "PORTSMOUTH", "addr:country": "US", "addr:full": "4000 VICTORY BLVD", "addr:postcode": "23701", "addr:state": "VA", "amenity": "post_box", "brand": "United States Postal Service", "brand:wikidata": "Q668687", "collection_times": "Mo-Fr 12:00", "name": "USPS COLLECTION BOX - BLUE BOX", "nsi_id": "unitedstatespostalservice-a77078", "operator": "United States Postal Service", "operator:short": "USPS", "operator:type": "public", "operator:wikidata": "Q668687", "ref": "2370100038"}, "type": "Feature"}
{"dataset_attributes": {"@spider": "usps_collection_boxes", "spider:collection_time": "2023-09-07T08:24:46.282741"}, "geometry": {"coordinates": [-76.365087038, 36.812277125], "type": "Point"}, "id": "xDfKPNZGpEa3zYxVdy5uyOzAUvI=", "properties": {"@spider": "usps_collection_boxes", "addr:city": "PORTSMOUTH", "addr:country": "US", "addr:full": "201 CHOWAN DR", "addr:postcode": "23701", "addr:state": "VA", "amenity": "post_box", "brand": "United States Postal Service", "brand:wikidata": "Q668687", "collection_times": "Mo-Fr 16:30; Sa 12:00", "name": "USPS COLLECTION BOX - PO LOBBY", "note": "ON 12/24 AND 12/31, THIS BOX MAY BE COLLECTED AS EARLY AS 12 NOON.", "nsi_id": "unitedstatespostalservice-a77078", "operator": "United States Postal Service", "operator:short": "USPS", "operator:type": "public", "operator:wikidata": "Q668687", "ref": "2370100040"}, "type": "Feature"}
{"dataset_attributes": {"@spider": "usps_collection_boxes", "spider:collection_time": "2023-09-07T08:24:46.282741"}, "geometry": {"coordinates": [-76.317614934, 36.801510157], "type": "Point"}, "id": "ZsknvmEWkiGcT1rYj7ECplCOsg0=", "properties": {"@spider": "usps_collection_boxes", "addr:city": "PORTSMOUTH", "addr:country": "US", "addr:full": "30 PROSPECT PKWY", "addr:postcode": "23702", "addr:state": "VA", "amenity": "post_box", "brand": "United States Postal Service", "brand:wikidata": "Q668687", "collection_times": "Mo-Fr 17:00; Sa 14:00", "name": "USPS COLLECTION BOX - BLUE BOX", "note": "ON 12/24 AND 12/31, THIS BOX MAY BE COLLECTED AS EARLY AS 12 NOON.", "nsi_id": "unitedstatespostalservice-a77078", "operator": "United States Postal Service", "operator:short": "USPS", "operator:type": "public", "operator:wikidata": "Q668687", "ref": "2370200001"}, "type": "Feature"}
{"dataset_attributes": {"@spider": "usps_collection_boxes", "spider:collection_time": "2023-09-07T08:24:46.282741"}, "geometry": {"coordinates": [-76.322082333, 36.803163152], "type": "Point"}, "id": "sFwUlckEdBh6qWW_D27qfyAE3fg=", "properties": {"@spider": "usps_collection_boxes", "addr:city": "PORTSMOUTH", "addr:country": "US", "addr:full": "1 AFTON PKWY", "addr:postcode": "23702", "addr:state": "VA", "amenity": "post_box", "brand": "United States Postal Service", "brand:wikidata": "Q668687", "collection_times": "Mo-Fr 17:00; Sa 14:00", "name": "USPS COLLECTION BOX - BLUE BOX", "note": "ON 12/24 AND 12/31, THIS BOX MAY BE COLLECTED AS EARLY AS 12 NOON.", "nsi_id": "unitedstatespostalservice-a77078", "operator": "United States Postal Service", "operator:short": "USPS", "operator:type": "public", "operator:wikidata": "Q668687", "ref": "2370200009"}, "type": "Feature"}
{"dataset_attributes": {"@spider": "usps_collection_boxes", "spider:collection_time": "2023-09-07T08:24:46.282741"}, "geometry": {"coordinates": [-76.31975451, 36.806896299], "type": "Point"}, "id": "uX5xGYKVLQRGSl1D2SNsR0eSvw8=", "properties": {"@spider": "usps_collection_boxes", "addr:city": "PORTSMOUTH", "addr:country": "US", "addr:full": "3914 GEORGE WASHINGTON HWY", "addr:postcode": "23702", "addr:state": "VA", "amenity": "post_box", "brand": "United States Postal Service", "brand:wikidata": "Q668687", "collection_times": "Mo-Sa 12:00", "name": "USPS COLLECTION BOX - BLUE BOX", "nsi_id": "unitedstatespostalservice-a77078", "operator": "United States Postal Service", "operator:short": "USPS", "operator:type": "public", "operator:wikidata": "Q668687", "ref": "2370200011"}, "type": "Feature"}
{"dataset_attributes": {"@spider": "usps_collection_boxes", "spider:collection_time": "2023-09-07T08:24:46.282741"}, "geometry": {"coordinates": [-76.380435705, 36.846843977], "type": "Point"}, "id": "fuB_fGaJ-jYMJhJ5uC344CWFmsU=", "properties": {"@spider": "usps_collection_boxes", "addr:city": "PORTSMOUTH", "addr:country": "US", "addr:full": "3011 STERLING POINT DR", "addr:postcode": "23703", "addr:state": "VA", "amenity": "post_box", "brand": "United States Postal Service", "brand:wikidata": "Q668687", "collection_times": "Mo-Fr 12:00", "name": "USPS COLLECTION BOX - BLUE BOX", "nsi_id": "unitedstatespostalservice-a77078", "operator": "United States Postal Service", "operator:short": "USPS", "operator:type": "public", "operator:wikidata": "Q668687", "ref": "2370300009"}, "type": "Feature"}
{"dataset_attributes": {"@spider": "usps_collection_boxes", "spider:collection_time": "2023-09-07T08:24:46.282741"}, "geometry": {"coordinates": [-76.398205465, 36.862317472], "type": "Point"}, "id": "-L5MJD4jLMbd0KV2cAAzGV2Ma1k=", "properties": {"@spider": "usps_collection_boxes", "addr:city": "PORTSMOUTH", "addr:country": "US", "addr:full": "3248 ACADEMY AVE", "addr:postcode": "23703", "addr:state": "VA", "amenity": "post_box", "brand": "United States Postal Service", "brand:wikidata": "Q668687", "collection_times": "Mo-Fr 17:00", "name": "USPS COLLECTION BOX - BLUE BOX", "note": "ON 12/24 AND 12/31, THIS BOX MAY BE COLLECTED AS EARLY AS 12 NOON.", "nsi_id": "unitedstatespostalservice-a77078", "operator": "United States Postal Service", "operator:short": "USPS", "operator:type": "public", "operator:wikidata": "Q668687", "ref": "2370300013"}, "type": "Feature"}
{"dataset_attributes": {"@spider": "usps_collection_boxes", "spider:collection_time": "2023-09-07T08:24:46.282741"}, "geometry": {"coordinates": [-76.397763463, 36.862397812], "type": "Point"}, "id": "qyXaDbIqI8Ddx7PnSrW6nTYL9fU=", "properties": {"@spider": "usps_collection_boxes", "addr:city": "PORTSMOUTH", "addr:country": "US", "addr:full": "3235 ACADEMY AVE", "addr:postcode": "23703", "addr:state": "VA", "amenity": "post_box", "brand": "United States Postal Service", "brand:wikidata": "Q668687", "collection_times": "Mo-Fr 17:00", "name": "USPS COLLECTION BOX - BLUE BOX", "note": "ON 12/24 AND 12/31, THIS BOX MAY BE COLLECTED AS EARLY AS 12 NOON.", "nsi_id": "unitedstatespostalservice-a77078", "operator": "United States Postal Service", "operator:short": "USPS", "operator:type": "public", "operator:wikidata": "Q668687", "ref": "2370300016"}, "type": "Feature"}
{"dataset_attributes": {"@spider": "usps_collection_boxes", "spider:collection_time": "2023-09-07T08:24:46.282741"}, "geometry": {"coordinates": [-76.396238999, 36.857345285], "type": "Point"}, "id": "8ramHd1DHfD5J8To71T7nIT5QJ0=", "properties": {"@spider": "usps_collection_boxes", "addr:city": "PORTSMOUTH", "addr:country": "US", "addr:full": "3000 TYRE NECK RD", "addr:postcode": "23703", "addr:state": "VA", "amenity": "post_box", "brand": "United States Postal Service", "brand:wikidata": "Q668687", "collection_times": "Mo-Sa 12:00", "name": "USPS COLLECTION BOX - BLUE BOX", "nsi_id": "unitedstatespostalservice-a77078", "operator": "United States Postal Service", "operator:short": "USPS", "operator:type": "public", "operator:wikidata": "Q668687", "ref": "2370300018"}, "type": "Feature"}
{"dataset_attributes": {"@spider": "usps_collection_boxes", "spider:collection_time": "2023-09-07T08:24:46.282741"}, "geometry": {"coordinates": [-76.38468629, 36.855905821], "type": "Point"}, "id": "2BBSClqGQtDyjZ4JXTFdYYuJX1s=", "properties": {"@spider": "usps_collection_boxes", "addr:city": "PORTSMOUTH", "addr:country": "US", "addr:full": "5214 HIGH ST W", "addr:postcode": "23703", "addr:state": "VA", "amenity": "post_box", "brand": "United States Postal Service", "brand:wikidata": "Q668687", "collection_times": "Mo-Fr 14:00", "name": "USPS COLLECTION BOX - BLUE BOX", "note": "ON 12/24 AND 12/31, THIS BOX MAY BE COLLECTED AS EARLY AS 12 NOON.", "nsi_id": "unitedstatespostalservice-a77078", "operator": "United States Postal Service", "operator:short": "USPS", "operator:type": "public", "operator:wikidata": "Q668687", "ref": "2370300019"}, "type": "Feature"}
{"dataset_attributes": {"@spider": "usps_collection_boxes", "spider:collection_time": "2023-09-07T08:24:46.282741"}, "geometry": {"coordinates": [-76.39607391, 36.874702653], "type": "Point"}, "id": "R1S4pmJ5nszJHI_alKTWBkaH7B0=", "properties": {"@spider": "usps_collection_boxes", "addr:city": "PORTSMOUTH", "addr:country": "US", "addr:full": "3600 GATEWAY DR", "addr:postcode": "23703", "addr:state": "VA", "amenity": "post_box", "brand": "United States Postal Service", "brand:wikidata": "Q668687", "collection_times": "Mo-Sa 14:00", "name": "USPS COLLECTION BOX - BLUE BOX", "note": "ON 12/24 AND 12/31, THIS BOX MAY BE COLLECTED AS EARLY AS 12 NOON.", "nsi_id": "unitedstatespostalservice-a77078", "operator": "United States Postal Service", "operator:short": "USPS", "operator:type": "public", "operator:wikidata": "Q668687", "ref": "2370300023"}, "type": "Feature"}
{"dataset_attributes": {"@spider": "usps_collection_boxes", "spider:collection_time": "2023-09-07T08:24:46.282741"}, "geometry": {"coordinates": [-76.400221569, 36.867361143], "type": "Point"}, "id": "cSI4-bmUIQnFyGFzrYbncIBk0jI=", "properties": {"@spider": "usps_collection_boxes", "addr:city": "PORTSMOUTH", "addr:country": "US", "addr:full": "3590 TOWNE POINT RD", "addr:postcode": "23703", "addr:state": "VA", "amenity": "post_box", "brand": "United States Postal Service", "brand:wikidata": "Q668687", "collection_times": "Mo-Fr 17:00; Sa 12:00", "name": "USPS COLLECTION BOX - PO LOBBY", "note": "ON 12/24 AND 12/31, THIS BOX MAY BE COLLECTED AS EARLY AS 12 NOON.", "nsi_id": "unitedstatespostalservice-a77078", "operator": "United States Postal Service", "operator:short": "USPS", "operator:type": "public", "operator:wikidata": "Q668687", "ref": "2370300033"}, "type": "Feature"}
{"dataset_attributes": {"@spider": "usps_collection_boxes", "spider:collection_time": "2023-09-07T08:24:46.282741"}, "geometry": {"coordinates": [-76.400221569, 36.867361143], "type": "Point"}, "id": "ghjAb7a_Tp7ouNxMtQkYxwyOlfI=", "properties": {"@spider": "usps_collection_boxes", "addr:city": "PORTSMOUTH", "addr:country": "US", "addr:full": "3590 TOWNE POINT RD", "addr:postcode": "23703", "addr:state": "VA", "amenity": "post_box", "brand": "United States Postal Service", "brand:wikidata": "Q668687", "collection_times": "Mo-Fr 17:00; Sa 12:00", "name": "USPS COLLECTION BOX - PO LOBBY", "note": "ON 12/24 AND 12/31, THIS BOX MAY BE COLLECTED AS EARLY AS 12 NOON.", "nsi_id": "unitedstatespostalservice-a77078", "operator": "United States Postal Service", "operator:short": "USPS", "operator:type": "public", "operator:wikidata": "Q668687", "ref": "2370300034"}, "type": "Feature"}
{"dataset_attributes": {"@spider": "usps_collection_boxes", "spider:collection_time": "2023-09-07T08:24:46.282741"}, "geometry": {"coordinates": [-76.357722951, 36.85970544], "type": "Point"}, "id": "YXmpHBJCO9FrlCzLPSfBqheAeVU=", "properties": {"@spider": "usps_collection_boxes", "addr:city": "PORTSMOUTH", "addr:country": "US", "addr:full": "1 RIVER POINTE DR", "addr:postcode": "23703", "addr:state": "VA", "amenity": "post_box", "brand": "United States Postal Service", "brand:wikidata": "Q668687", "collection_times": "Mo-Fr 12:00", "name": "USPS COLLECTION BOX - BLUE BOX", "nsi_id": "unitedstatespostalservice-a77078", "operator": "United States Postal Service", "operator:short": "USPS", "operator:type": "public", "operator:wikidata": "Q668687", "ref": "2370300035"}, "type": "Feature"}
{"dataset_attributes": {"@spider": "usps_collection_boxes", "spider:collection_time": "2023-09-07T08:24:46.282741"}, "geometry": {"coordinates": [-76.400234646, 36.867359335], "type": "Point"}, "id": "RAOGlBEOnaSaafPXHKEjKwS2JRg=", "properties": {"@spider": "usps_collection_boxes", "addr:city": "PORTSMOUTH", "addr:country": "US", "addr:full": "3590 TOWNE POINT RD", "addr:postcode": "23703", "addr:state": "VA", "amenity": "post_box", "brand": "United States Postal Service", "brand:wikidata": "Q668687", "collection_times": "Mo-Fr 17:00; Sa 12:00", "name": "USPS COLLECTION BOX - EXPRESS", "note": "ON 12/24 AND 12/31, THIS BOX MAY BE COLLECTED AS EARLY AS 12 NOON.", "nsi_id": "unitedstatespostalservice-a77078", "operator": "United States Postal Service", "operator:short": "USPS", "operator:type": "public", "operator:wikidata": "Q668687", "ref": "2370300038"}, "type": "Feature"}
{"dataset_attributes": {"@spider": "usps_collection_boxes", "spider:collection_time": "2023-09-07T08:24:46.282741"}, "geometry": {"coordinates": [-76.400221569, 36.867361143], "type": "Point"}, "id": "L6qvQeuPjOEnyvhRmbnIHmlPB9g=", "properties": {"@spider": "usps_collection_boxes", "addr:city": "PORTSMOUTH", "addr:country": "US", "addr:full": "3590 TOWNE POINT RD", "addr:postcode": "23703", "addr:state": "VA", "amenity": "post_box", "brand": "United States Postal Service", "brand:wikidata": "Q668687", "collection_times": "Mo-Fr 17:00; Sa 12:00", "name": "USPS COLLECTION BOX - PO LOBBY", "note": "ON 12/24 AND 12/31, THIS BOX MAY BE COLLECTED AS EARLY AS 12 NOON.", "nsi_id": "unitedstatespostalservice-a77078", "operator": "United States Postal Service", "operator:short": "USPS", "operator:type": "public", "operator:wikidata": "Q668687", "ref": "2370300042"}, "type": "Feature"}
{"dataset_attributes": {"@spider": "usps_collection_boxes", "spider:collection_time": "2023-09-07T08:24:46.282741"}, "geometry": {"coordinates": [-76.297796275, 36.83617134], "type": "Point"}, "id": "ytS349ZUSqviSNTq4sgqx9fB71E=", "properties": {"@spider": "usps_collection_boxes", "addr:city": "PORTSMOUTH", "addr:country": "US", "addr:full": "431 CRAWFORD ST", "addr:postcode": "23704", "addr:state": "VA", "amenity": "post_box", "brand": "United States Postal Service", "brand:wikidata": "Q668687", "collection_times": "Mo-Fr 17:00; Sa 14:00", "name": "USPS COLLECTION BOX - BLUE BOX", "note": "ON 12/24 AND 12/31, THIS BOX MAY BE COLLECTED AS EARLY AS 12 NOON.", "nsi_id": "unitedstatespostalservice-a77078", "operator": "United States Postal Service", "operator:short": "USPS", "operator:type": "public", "operator:wikidata": "Q668687", "ref": "2370400001"}, "type": "Feature"}
{"dataset_attributes": {"@spider": "usps_collection_boxes", "spider:collection_time": "2023-09-07T08:24:46.282741"}, "geometry": {"coordinates": [-76.297796275, 36.83617134], "type": "Point"}, "id": "Mu3QybZwB-aGi-2j33tNT0yLad8=", "properties": {"@spider": "usps_collection_boxes", "addr:city": "PORTSMOUTH", "addr:country": "US", "addr:full": "431 CRAWFORD ST", "addr:postcode": "23704", "addr:state": "VA", "amenity": "post_box", "brand": "United States Postal Service", "brand:wikidata": "Q668687", "collection_times": "Mo-Fr 17:00; Sa 14:00", "name": "USPS COLLECTION BOX - BLUE BOX", "note": "ON 12/24 AND 12/31, THIS BOX MAY BE COLLECTED AS EARLY AS 12 NOON.", "nsi_id": "unitedstatespostalservice-a77078", "operator": "United States Postal Service", "operator:short": "USPS", "operator:type": "public", "operator:wikidata": "Q668687", "ref": "2370400002"}, "type": "Feature"}
{"dataset_attributes": {"@spider": "usps_collection_boxes", "spider:collection_time": "2023-09-07T08:24:46.282741"}, "geometry": {"coordinates": [-76.297796275, 36.83617134], "type": "Point"}, "id": "9j29caEczo8qhD8buSToYPh7-yg=", "properties": {"@spider": "usps_collection_boxes", "addr:city": "PORTSMOUTH", "addr:country": "US", "addr:full": "431 CRAWFORD ST", "addr:postcode": "23704", "addr:state": "VA", "amenity": "post_box", "brand": "United States Postal Service", "brand:wikidata": "Q668687", "collection_times": "Mo-Fr 17:00; Sa 14:00", "name": "USPS COLLECTION BOX - BLUE BOX", "note": "ON 12/24 AND 12/31, THIS BOX MAY BE COLLECTED AS EARLY AS 12 NOON.", "nsi_id": "unitedstatespostalservice-a77078", "operator": "United States Postal Service", "operator:short": "USPS", "operator:type": "public", "operator:wikidata": "Q668687", "ref": "2370400003"}, "type": "Feature"}
{"dataset_attributes": {"@spider": "usps_collection_boxes", "spider:collection_time": "2023-09-07T08:24:46.282741"}, "geometry": {"coordinates": [-76.297796275, 36.83617134], "type": "Point"}, "id": "iWckXM0tkJ0m4ZftMu3-qZehPe0=", "properties": {"@spider": "usps_collection_boxes", "addr:city": "PORTSMOUTH", "addr:country": "US", "addr:full": "431 CRAWFORD ST", "addr:postcode": "23704", "addr:state": "VA", "amenity": "post_box", "brand": "United States Postal Service", "brand:wikidata": "Q668687", "collection_times": "Mo-Fr 17:00", "name": "USPS COLLECTION BOX - PO LOBBY", "note": "ON 12/24 AND 12/31, THIS BOX MAY BE COLLECTED AS EARLY AS 12 NOON.", "nsi_id": "unitedstatespostalservice-a77078", "operator": "United States Postal Service", "operator:short": "USPS", "operator:type": "public", "operator:wikidata": "Q668687", "ref": "2370400006"}, "type": "Feature"}
{"dataset_attributes": {"@spider": "usps_collection_boxes", "spider:collection_time": "2023-09-07T08:24:46.282741"}, "geometry": {"coordinates": [-76.310822095, 36.838363296], "type": "Point"}, "id": "FJ-0sLq4N3z6r2SaRcNBwU82OWI=", "properties": {"@spider": "usps_collection_boxes", "addr:city": "PORTSMOUTH", "addr:country": "US", "addr:full": "300 GOODE WAY", "addr:postcode": "23704", "addr:state": "VA", "amenity": "post_box", "brand": "United States Postal Service", "brand:wikidata": "Q668687", "collection_times": "Mo-Sa 11:00", "name": "USPS COLLECTION BOX - BLUE BOX", "nsi_id": "unitedstatespostalservice-a77078", "operator": "United States Postal Service", "operator:short": "USPS", "operator:type": "public", "operator:wikidata": "Q668687", "ref": "2370400009"}, "type": "Feature"}
{"dataset_attributes": {"@spider": "usps_collection_boxes", "spider:collection_time": "2023-09-07T08:24:46.282741"}, "geometry": {"coordinates": [-76.300837521, 36.836054237], "type": "Point"}, "id": "_EXdbG4ghHjt7vscT2eoGwOoabw=", "properties": {"@spider": "usps_collection_boxes", "addr:city": "PORTSMOUTH", "addr:country": "US", "addr:full": "451 COURT ST", "addr:postcode": "23704", "addr:state": "VA", "amenity": "post_box", "brand": "United States Postal Service", "brand:wikidata": "Q668687", "collection_times": "Mo-Fr 17:00", "name": "USPS COLLECTION BOX - BLUE BOX", "note": "ON 12/24 AND 12/31, THIS BOX MAY BE COLLECTED AS EARLY AS 12 NOON.", "nsi_id": "unitedstatespostalservice-a77078", "operator": "United States Postal Service", "operator:short": "USPS", "operator:type": "public", "operator:wikidata": "Q668687", "ref": "2370400014"}, "type": "Feature"}
{"dataset_attributes": {"@spider": "usps_collection_boxes", "spider:collection_time": "2023-09-07T08:24:46.282741"}, "geometry": {"coordinates": [-76.305186292, 36.816919747], "type": "Point"}, "id": "ghrkd3eneux9ENwN1knkvsYchj8=", "properties": {"@spider": "usps_collection_boxes", "addr:city": "PORTSMOUTH", "addr:country": "US", "addr:full": "1 NORFOLK NAVAL SHIPYARD", "addr:postcode": "23704", "addr:state": "VA", "amenity": "post_box", "brand": "United States Postal Service", "brand:wikidata": "Q668687", "collection_times": "Mo-Sa 12:00", "name": "USPS COLLECTION BOX - BLUE BOX", "nsi_id": "unitedstatespostalservice-a77078", "operator": "United States Postal Service", "operator:short": "USPS", "operator:type": "public", "operator:wikidata": "Q668687", "ref": "2370400042"}, "type": "Feature"}
{"dataset_attributes": {"@spider": "usps_collection_boxes", "spider:collection_time": "2023-09-07T08:24:46.282741"}, "geometry": {"coordinates": [-76.318156467, 36.818620165], "type": "Point"}, "id": "tJ556xyXY1dzWKxhVo1Rmo2usuw=", "properties": {"@spider": "usps_collection_boxes", "addr:city": "PORTSMOUTH", "addr:country": "US", "addr:full": "1628 PORTSMOUTH BLVD", "addr:postcode": "23704", "addr:state": "VA", "amenity": "post_box", "brand": "United States Postal Service", "brand:wikidata": "Q668687", "collection_times": "Mo-Fr 14:00", "name": "USPS COLLECTION BOX - BLUE BOX", "note": "ON 12/24 AND 12/31, THIS BOX MAY BE COLLECTED AS EARLY AS 12 NOON.", "nsi_id": "unitedstatespostalservice-a77078", "operator": "United States Postal Service", "operator:short": "USPS", "operator:type": "public", "operator:wikidata": "Q668687", "ref": "2370400050"}, "type": "Feature"}
{"dataset_attributes": {"@spider": "usps_collection_boxes", "spider:collection_time": "2023-09-07T08:24:46.282741"}, "geometry": {"coordinates": [-76.299305592, 36.833109683], "type": "Point"}, "id": "PK17EuPbSBMmgSCqKGn1HLXK-7w=", "properties": {"@spider": "usps_collection_boxes", "addr:city": "PORTSMOUTH", "addr:country": "US", "addr:full": "300 COLUMBIA ST", "addr:postcode": "23704", "addr:state": "VA", "amenity": "post_box", "brand": "United States Postal Service", "brand:wikidata": "Q668687", "collection_times": "Mo-Sa 12:00", "name": "USPS COLLECTION BOX - BLUE BOX", "nsi_id": "unitedstatespostalservice-a77078", "operator": "United States Postal Service", "operator:short": "USPS", "operator:type": "public", "operator:wikidata": "Q668687", "ref": "2370400058"}, "type": "Feature"}
{"dataset_attributes": {"@spider": "usps_collection_boxes", "spider:collection_time": "2023-09-07T08:24:46.282741"}, "geometry": {"coordinates": [-76.296747906, 36.833208372], "type": "Point"}, "id": "-GWM1ofBCCyCiO3O3lR-0rhBg4o=", "properties": {"@spider": "usps_collection_boxes", "addr:city": "PORTSMOUTH", "addr:country": "US", "addr:full": "801 WATER ST", "addr:postcode": "23704", "addr:state": "VA", "amenity": "post_box", "brand": "United States Postal Service", "brand:wikidata": "Q668687", "collection_times": "Mo-Fr 17:00", "name": "USPS COLLECTION BOX - BLUE BOX", "note": "ON 12/24 AND 12/31, THIS BOX MAY BE COLLECTED AS EARLY AS 12 NOON.", "nsi_id": "unitedstatespostalservice-a77078", "operator": "United States Postal Service", "operator:short": "USPS", "operator:type": "public", "operator:wikidata": "Q668687", "ref": "2370400059"}, "type": "Feature"}
{"dataset_attributes": {"@spider": "usps_collection_boxes", "spider:collection_time": "2023-09-07T08:24:46.282741"}, "geometry": {"coordinates": [-76.305459486, 36.83837074], "type": "Point"}, "id": "8VAi1eau5kFEDxq_Der5WZJWfHU=", "properties": {"@spider": "usps_collection_boxes", "addr:city": "PORTSMOUTH", "addr:country": "US", "addr:full": "303 GREEN ST", "addr:postcode": "23704", "addr:state": "VA", "amenity": "post_box", "brand": "United States Postal Service", "brand:wikidata": "Q668687", "collection_times": "Mo-Sa 13:00", "name": "USPS COLLECTION BOX - BLUE BOX", "note": "ON 12/24 AND 12/31, THIS BOX MAY BE COLLECTED AS EARLY AS 12 NOON.", "nsi_id": "unitedstatespostalservice-a77078", "operator": "United States Postal Service", "operator:short": "USPS", "operator:type": "public", "operator:wikidata": "Q668687", "ref": "2370400070"}, "type": "Feature"}
{"dataset_attributes": {"@spider": "usps_collection_boxes", "spider:collection_time": "2023-09-07T08:24:46.282741"}, "geometry": {"coordinates": [-76.29910331, 36.825757751], "type": "Point"}, "id": "yCaUT9J3BkH3J-MUGcTZjpOyU4U=", "properties": {"@spider": "usps_collection_boxes", "addr:city": "PORTSMOUTH", "addr:country": "US", "addr:full": "601 PORT CENTRE PKWY", "addr:postcode": "23704", "addr:state": "VA", "amenity": "post_box", "brand": "United States Postal Service", "brand:wikidata": "Q668687", "collection_times": "Mo-Fr 17:00", "name": "USPS COLLECTION BOX - BLUE BOX", "note": "ON 12/24 AND 12/31, THIS BOX MAY BE COLLECTED AS EARLY AS 12 NOON.", "nsi_id": "unitedstatespostalservice-a77078", "operator": "United States Postal Service", "operator:short": "USPS", "operator:type": "public", "operator:wikidata": "Q668687", "ref": "2370400080"}, "type": "Feature"}
{"dataset_attributes": {"@spider": "usps_collection_boxes", "spider:collection_time": "2023-09-07T08:24:46.282741"}, "geometry": {"coordinates": [-76.297796275, 36.83617134], "type": "Point"}, "id": "d1SS27ihqoBKBo0hhu5U8pRn-r0=", "properties": {"@spider": "usps_collection_boxes", "addr:city": "PORTSMOUTH", "addr:country": "US", "addr:full": "431 CRAWFORD ST", "addr:postcode": "23704", "addr:state": "VA", "amenity": "post_box", "brand": "United States Postal Service", "brand:wikidata": "Q668687", "collection_times": "Mo-Fr 17:00", "name": "USPS COLLECTION BOX - PO LOBBY", "note": "ON 12/24 AND 12/31, THIS BOX MAY BE COLLECTED AS EARLY AS 12 NOON.", "nsi_id": "unitedstatespostalservice-a77078", "operator": "United States Postal Service", "operator:short": "USPS", "operator:type": "public", "operator:wikidata": "Q668687", "ref": "2370400082"}, "type": "Feature"}
{"dataset_attributes": {"@spider": "usps_collection_boxes", "spider:collection_time": "2023-09-07T08:24:46.282741"}, "geometry": {"coordinates": [-76.320399227, 36.834834516], "type": "Point"}, "id": "s2zigV-TLP8d-eyGP17YdBb1Cy0=", "properties": {"@spider": "usps_collection_boxes", "addr:city": "PORTSMOUTH", "addr:country": "US", "addr:full": "1701 HIGH ST", "addr:postcode": "23704", "addr:state": "VA", "amenity": "post_box", "brand": "United States Postal Service", "brand:wikidata": "Q668687", "collection_times": "Mo-Fr 17:00", "name": "USPS COLLECTION BOX - BLUE BOX", "note": "ON 12/24 AND 12/31, THIS BOX MAY BE COLLECTED AS EARLY AS 12 NOON.", "nsi_id": "unitedstatespostalservice-a77078", "operator": "United States Postal Service", "operator:short": "USPS", "operator:type": "public", "operator:wikidata": "Q668687", "ref": "2370400083"}, "type": "Feature"}
{"dataset_attributes": {"@spider": "usps_collection_boxes", "spider:collection_time": "2023-09-07T08:24:46.282741"}, "geometry": {"coordinates": [-76.29997243, 36.827288285], "type": "Point"}, "id": "CkkWlxnK_1G3tr7O4qJSnqnCNx0=", "properties": {"@spider": "usps_collection_boxes", "addr:city": "PORTSMOUTH", "addr:country": "US", "addr:full": "1345 COURT ST", "addr:postcode": "23704", "addr:state": "VA", "amenity": "post_box", "brand": "United States Postal Service", "brand:wikidata": "Q668687", "collection_times": "Mo-Fr 17:00", "name": "USPS COLLECTION BOX - BLUE BOX", "note": "ON 12/24 AND 12/31, THIS BOX MAY BE COLLECTED AS EARLY AS 12 NOON.", "nsi_id": "unitedstatespostalservice-a77078", "operator": "United States Postal Service", "operator:short": "USPS", "operator:type": "public", "operator:wikidata": "Q668687", "ref": "2370400087"}, "type": "Feature"}
{"dataset_attributes": {"@spider": "usps_collection_boxes", "spider:collection_time": "2023-09-07T08:24:46.282741"}, "geometry": {"coordinates": [-76.29997243, 36.827288285], "type": "Point"}, "id": "bhXw4_2P-ESRxikXqk7JaUahLQk=", "properties": {"@spider": "usps_collection_boxes", "addr:city": "PORTSMOUTH", "addr:country": "US", "addr:full": "1345 COURT ST", "addr:postcode": "23704", "addr:state": "VA", "amenity": "post_box", "brand": "United States Postal Service", "brand:wikidata": "Q668687", "collection_times": "Mo-Fr 17:00", "name": "USPS COLLECTION BOX - BLUE BOX", "note": "ON 12/24 AND 12/31, THIS BOX MAY BE COLLECTED AS EARLY AS 12 NOON.", "nsi_id": "unitedstatespostalservice-a77078", "operator": "United States Postal Service", "operator:short": "USPS", "operator:type": "public", "operator:wikidata": "Q668687", "ref": "2370400088"}, "type": "Feature"}
{"dataset_attributes": {"@spider": "usps_collection_boxes", "spider:collection_time": "2023-09-07T08:24:46.282741"}, "geometry": {"coordinates": [-76.297796275, 36.83617134], "type": "Point"}, "id": "cXhVTAEl9hKfd56Vu3hngtV5UbU=", "properties": {"@spider": "usps_collection_boxes", "addr:city": "PORTSMOUTH", "addr:country": "US", "addr:full": "431 CRAWFORD ST FL 1", "addr:postcode": "23704", "addr:state": "VA", "amenity": "post_box", "brand": "United States Postal Service", "brand:wikidata": "Q668687", "collection_times": "Mo-Fr 17:00", "name": "USPS COLLECTION BOX - PO LOBBY", "note": "ON 12/24 AND 12/31, THIS BOX MAY BE COLLECTED AS EARLY AS 12 NOON.", "nsi_id": "unitedstatespostalservice-a77078", "operator": "United States Postal Service", "operator:short": "USPS", "operator:type": "public", "operator:wikidata": "Q668687", "ref": "2370400089"}, "type": "Feature"}
{"dataset_attributes": {"@spider": "usps_collection_boxes", "spider:collection_time": "2023-09-07T08:24:46.282741"}, "geometry": {"coordinates": [-76.356231927, 36.824946305], "type": "Point"}, "id": "ICp5THbFXP7V5ZmrV1MV4ZVOIsA=", "properties": {"@spider": "usps_collection_boxes", "addr:city": "PORTSMOUTH", "addr:country": "US", "addr:full": "4300 WINCHESTER DR", "addr:postcode": "23707", "addr:state": "VA", "amenity": "post_box", "brand": "United States Postal Service", "brand:wikidata": "Q668687", "collection_times": "Mo-Fr 12:00", "name": "USPS COLLECTION BOX - BLUE BOX", "nsi_id": "unitedstatespostalservice-a77078", "operator": "United States Postal Service", "operator:short": "USPS", "operator:type": "public", "operator:wikidata": "Q668687", "ref": "2370700024"}, "type": "Feature"}
{"dataset_attributes": {"@spider": "usps_collection_boxes", "spider:collection_time": "2023-09-07T08:24:46.282741"}, "geometry": {"coordinates": [-76.347605016, 36.833386218], "type": "Point"}, "id": "5PXjZuC5sNphSrS0XAERkxNVQ68=", "properties": {"@spider": "usps_collection_boxes", "addr:city": "PORTSMOUTH", "addr:country": "US", "addr:full": "600 RODMAN AVE", "addr:postcode": "23707", "addr:state": "VA", "amenity": "post_box", "brand": "United States Postal Service", "brand:wikidata": "Q668687", "collection_times": "Mo-Sa 12:00", "name": "USPS COLLECTION BOX - BLUE BOX", "nsi_id": "unitedstatespostalservice-a77078", "operator": "United States Postal Service", "operator:short": "USPS", "operator:type": "public", "operator:wikidata": "Q668687", "ref": "2370700031"}, "type": "Feature"}
{"dataset_attributes": {"@spider": "usps_collection_boxes", "spider:collection_time": "2023-09-07T08:24:46.282741"}, "geometry": {"coordinates": [-76.331786362, 36.832887565], "type": "Point"}, "id": "gYZ27uTkxiPO3wbmzyqbIy1iMkE=", "properties": {"@spider": "usps_collection_boxes", "addr:city": "PORTSMOUTH", "addr:country": "US", "addr:full": "2400 CUTHERELL ST", "addr:postcode": "23707", "addr:state": "VA", "amenity": "post_box", "brand": "United States Postal Service", "brand:wikidata": "Q668687", "collection_times": "Mo-Sa 14:00", "name": "USPS COLLECTION BOX - BLUE BOX", "note": "ON 12/24 AND 12/31, THIS BOX MAY BE COLLECTED AS EARLY AS 12 NOON.", "nsi_id": "unitedstatespostalservice-a77078", "operator": "United States Postal Service", "operator:short": "USPS", "operator:type": "public", "operator:wikidata": "Q668687", "ref": "2370700033"}, "type": "Feature"}
{"dataset_attributes": {"@spider": "usps_collection_boxes", "spider:collection_time": "2023-09-07T08:24:46.282741"}, "geometry": {"coordinates": [-76.334251732, 36.838347044], "type": "Point"}, "id": "sWX709rTaftj7YdWcw6sdWVpuOg=", "properties": {"@spider": "usps_collection_boxes", "addr:city": "PORTSMOUTH", "addr:country": "US", "addr:full": "933 BROAD ST", "addr:postcode": "23707", "addr:state": "VA", "amenity": "post_box", "brand": "United States Postal Service", "brand:wikidata": "Q668687", "collection_times": "Mo-Fr 17:00; Sa 14:00", "name": "USPS COLLECTION BOX - PO LOBBY", "note": "ON 12/24 AND 12/31, THIS BOX MAY BE COLLECTED AS EARLY AS 12 NOON.", "nsi_id": "unitedstatespostalservice-a77078", "operator": "United States Postal Service", "operator:short": "USPS", "operator:type": "public", "operator:wikidata": "Q668687", "ref": "2370700045"}, "type": "Feature"}
{"dataset_attributes": {"@spider": "usps_collection_boxes", "spider:collection_time": "2023-09-07T08:24:46.282741"}, "geometry": {"coordinates": [-76.334251732, 36.838347044], "type": "Point"}, "id": "mLDAqoUFQu95RSpmdfIq4KsNZdU=", "properties": {"@spider": "usps_collection_boxes", "addr:city": "PORTSMOUTH", "addr:country": "US", "addr:full": "933 BROAD ST", "addr:postcode": "23707", "addr:state": "VA", "amenity": "post_box", "brand": "United States Postal Service", "brand:wikidata": "Q668687", "collection_times": "Mo-Fr 17:00; Sa 14:00", "name": "USPS COLLECTION BOX - PO LOBBY", "note": "ON 12/24 AND 12/31, THIS BOX MAY BE COLLECTED AS EARLY AS 12 NOON.", "nsi_id": "unitedstatespostalservice-a77078", "operator": "United States Postal Service", "operator:short": "USPS", "operator:type": "public", "operator:wikidata": "Q668687", "ref": "2370700046"}, "type": "Feature"}
{"dataset_attributes": {"@spider": "usps_collection_boxes", "spider:collection_time": "2023-09-07T08:24:46.282741"}, "geometry": {"coordinates": [-76.345884376, 36.850196882], "type": "Point"}, "id": "OCEa9YQUh2s3EuwnAJ6fRJ9VMjE=", "properties": {"@spider": "usps_collection_boxes", "addr:city": "PORTSMOUTH", "addr:country": "US", "addr:full": "110 WILLIAMSON RD", "addr:postcode": "23707", "addr:state": "VA", "amenity": "post_box", "brand": "United States Postal Service", "brand:wikidata": "Q668687", "collection_times": "Mo-Sa 12:00", "name": "USPS COLLECTION BOX - BLUE BOX", "nsi_id": "unitedstatespostalservice-a77078", "operator": "United States Postal Service", "operator:short": "USPS", "operator:type": "public", "operator:wikidata": "Q668687", "ref": "2370700049"}, "type": "Feature"}
{"dataset_attributes": {"@spider": "usps_collection_boxes", "spider:collection_time": "2023-09-07T08:24:46.282741"}, "geometry": {"coordinates": [-76.334251732, 36.838347044], "type": "Point"}, "id": "mS0AwFDVF6lRJHIk2RiyxSixlW4=", "properties": {"@spider": "usps_collection_boxes", "addr:city": "PORTSMOUTH", "addr:country": "US", "addr:full": "933 BROAD ST", "addr:postcode": "23707", "addr:state": "VA", "amenity": "post_box", "brand": "United States Postal Service", "brand:wikidata": "Q668687", "collection_times": "Mo-Fr 17:00; Sa 12:00", "name": "USPS COLLECTION BOX - PO LOBBY", "note": "ON 12/24 AND 12/31, THIS BOX MAY BE COLLECTED AS EARLY AS 12 NOON.", "nsi_id": "unitedstatespostalservice-a77078", "operator": "United States Postal Service", "operator:short": "USPS", "operator:type": "public", "operator:wikidata": "Q668687", "ref": "2370700054"}, "type": "Feature"}
{"dataset_attributes": {"@spider": "usps_collection_boxes", "spider:collection_time": "2023-09-07T08:24:46.282741"}, "geometry": {"coordinates": [-76.305186292, 36.816919747], "type": "Point"}, "id": "siO16G5urPIN2YQsz9i53uesr78=", "properties": {"@spider": "usps_collection_boxes", "addr:city": "PORTSMOUTH", "addr:country": "US", "addr:full": "1 NORFOLK NAVAL SHIPYARD", "addr:postcode": "23709", "addr:state": "VA", "amenity": "post_box", "brand": "United States Postal Service", "brand:wikidata": "Q668687", "collection_times": "Mo-Sa 12:00", "name": "USPS COLLECTION BOX - BLUE BOX", "nsi_id": "unitedstatespostalservice-a77078", "operator": "United States Postal Service", "operator:short": "USPS", "operator:type": "public", "operator:wikidata": "Q668687", "ref": "2370900002"}, "type": "Feature"}
{"dataset_attributes": {"@spider": "usps_collection_boxes", "spider:collection_time": "2023-09-07T08:24:46.282741"}, "geometry": {"coordinates": [-76.305186292, 36.816919747], "type": "Point"}, "id": "_WS7_nEY-nRkrqQ4UGUGAMHsrHM=", "properties": {"@spider": "usps_collection_boxes", "addr:city": "PORTSMOUTH", "addr:country": "US", "addr:full": "1 NORFOLK NAVAL SHIPYARD", "addr:postcode": "23709", "addr:state": "VA", "amenity": "post_box", "brand": "United States Postal Service", "brand:wikidata": "Q668687", "collection_times": "Mo-Sa 12:00", "name": "USPS COLLECTION BOX - BLUE BOX", "nsi_id": "unitedstatespostalservice-a77078", "operator": "United States Postal Service", "operator:short": "USPS", "operator:type": "public", "operator:wikidata": "Q668687", "ref": "2370900003"}, "type": "Feature"}
{"dataset_attributes": {"@spider": "usps_collection_boxes", "spider:collection_time": "2023-09-07T08:24:46.282741"}, "geometry": {"coordinates": [-76.305186292, 36.816919747], "type": "Point"}, "id": "yGhLmfTXWb0FJAWYcRJC3s9-LXU=", "properties": {"@spider": "usps_collection_boxes", "addr:city": "PORTSMOUTH", "addr:country": "US", "addr:full": "1 NORFOLK NAVAL SHIPYARD", "addr:postcode": "23709", "addr:state": "VA", "amenity": "post_box", "brand": "United States Postal Service", "brand:wikidata": "Q668687", "collection_times": "Mo-Fr 12:00", "name": "USPS COLLECTION BOX - BLUE BOX", "nsi_id": "unitedstatespostalservice-a77078", "operator": "United States Postal Service", "operator:short": "USPS", "operator:type": "public", "operator:wikidata": "Q668687", "ref": "2370900004"}, "type": "Feature"}
