{"geometry": {"coordinates": [-77.3408168036, 37.2349093556], "type": "Point"}, "id": "r8-2iq3TmoJH5n2VN3mKshPKrGA=", "properties": {"@source_uri": "https://tools.usps.com/UspsToolsRestServices/rest/POLocator/findLocations", "@spider": "usps_collection_boxes", "addr:city": "PETERSBURG", "addr:country": "US", "addr:postcode": "23801", "addr:state": "VA", "addr:street_address": "1401 MAHONE AVE", "amenity": "post_box", "collection_times": "Mo-Fr 15:00; Sa 13:00", "note": "ON 12/24 AND 12/31, THIS BOX MAY BE COLLECTED AS EARLY AS 12 NOON.", "nsi_id": "unitedstatespostalservice-a77078", "operator": "United States Postal Service", "operator:short": "USPS", "operator:type": "public", "operator:wikidata": "Q668687", "ref": "2380100009"}, "type": "Feature"}
{"geometry": {"coordinates": [-77.3408168036, 37.2349093556], "type": "Point"}, "id": "0qulArlUtbbLMtXin2jONwR0wGM=", "properties": {"@source_uri": "https://tools.usps.com/UspsToolsRestServices/rest/POLocator/findLocations", "@spider": "usps_collection_boxes", "addr:city": "PETERSBURG", "addr:country": "US", "addr:postcode": "23801", "addr:state": "VA", "addr:street_address": "1401 MAHONE AVE", "amenity": "post_box", "collection_times": "Mo-Sa 15:00", "note": "ON 12/24 AND 12/31, THIS BOX MAY BE COLLECTED AS EARLY AS 12 NOON.", "nsi_id": "unitedstatespostalservice-a77078", "operator": "United States Postal Service", "operator:short": "USPS", "operator:type": "public", "operator:wikidata": "Q668687", "ref": "2380100010"}, "type": "Feature"}
{"geometry": {"coordinates": [-77.3460261, 37.22321], "type": "Point"}, "id": "fsHkG2D9--_3yeTce2BBZ9ZDt5I=", "properties": {"@source_uri": "https://tools.usps.com/UspsToolsRestServices/rest/POLocator/findLocations", "@spider": "usps_collection_boxes", "addr:city": "PETERSBURG", "addr:country": "US", "addr:postcode": "23801", "addr:state": "VA", "addr:street_address": "2401 QUARTERS RD", "amenity": "post_box", "collection_times": "Mo-Sa 15:00", "note": "ON 12/24 AND 12/31, THIS BOX MAY BE COLLECTED AS EARLY AS 12 NOON.", "nsi_id": "unitedstatespostalservice-a77078", "operator": "United States Postal Service", "operator:short": "USPS", "operator:type": "public", "operator:wikidata": "Q668687", "ref": "2380100014"}, "type": "Feature"}
{"geometry": {"coordinates": [-77.3355377, 37.221165], "type": "Point"}, "id": "epMYg2z0aJ7Akg078j2hFgYJo4w=", "properties": {"@source_uri": "https://tools.usps.com/UspsToolsRestServices/rest/POLocator/findLocations", "@spider": "usps_collection_boxes", "addr:city": "PETERSBURG", "addr:country": "US", "addr:postcode": "23801", "addr:state": "VA", "addr:street_address": "1300 E AVE", "amenity": "post_box", "collection_times": "Mo-Sa 15:00", "note": "ON 12/24 AND 12/31, THIS BOX MAY BE COLLECTED AS EARLY AS 12 NOON.", "nsi_id": "unitedstatespostalservice-a77078", "operator": "United States Postal Service", "operator:short": "USPS", "operator:type": "public", "operator:wikidata": "Q668687", "ref": "2380100015"}, "type": "Feature"}
{"geometry": {"coordinates": [-77.3337980983, 37.2456973925], "type": "Point"}, "id": "hAHJ4cfqzjDy_zlvu-fvv2I67M0=", "properties": {"@source_uri": "https://tools.usps.com/UspsToolsRestServices/rest/POLocator/findLocations", "@spider": "usps_collection_boxes", "addr:city": "PETERSBURG", "addr:country": "US", "addr:postcode": "23801", "addr:state": "VA", "addr:street_address": "821 11TH ST", "amenity": "post_box", "collection_times": "Mo-Sa 15:00", "note": "ON 12/24 AND 12/31, THIS BOX MAY BE COLLECTED AS EARLY AS 12 NOON.", "nsi_id": "unitedstatespostalservice-a77078", "operator": "United States Postal Service", "operator:short": "USPS", "operator:type": "public", "operator:wikidata": "Q668687", "ref": "2380100016"}, "type": "Feature"}
{"geometry": {"coordinates": [-77.3505367, 37.250575], "type": "Point"}, "id": "2e2ZnjDy4p16j7r_hkebXQe0zxM=", "properties": {"@source_uri": "https://tools.usps.com/UspsToolsRestServices/rest/POLocator/findLocations", "@spider": "usps_collection_boxes", "addr:city": "PETERSBURG", "addr:country": "US", "addr:postcode": "23801", "addr:state": "VA", "addr:street_address": "222 EDGEWOOD RD", "amenity": "post_box", "collection_times": "Mo-Sa 15:00", "note": "ON 12/24 AND 12/31, THIS BOX MAY BE COLLECTED AS EARLY AS 12 NOON.", "nsi_id": "unitedstatespostalservice-a77078", "operator": "United States Postal Service", "operator:short": "USPS", "operator:type": "public", "operator:wikidata": "Q668687", "ref": "2380100017"}, "type": "Feature"}
{"geometry": {"coordinates": [-77.4043347, 37.230534], "type": "Point"}, "id": "Va22ymhsILZht_7WpcQvDPZKnV4=", "properties": {"@source_uri": "https://tools.usps.com/UspsToolsRestServices/rest/POLocator/findLocations", "@spider": "usps_collection_boxes", "addr:city": "S CHESTERFLD", "addr:country": "US", "addr:postcode": "23803", "addr:state": "VA", "addr:street_address": "212 N SYCAMORE ST", "amenity": "post_box", "collection_times": "Mo-Sa 15:00", "note": "ON 12/24 AND 12/31, THIS BOX MAY BE COLLECTED AS EARLY AS 12 NOON.", "nsi_id": "unitedstatespostalservice-a77078", "operator": "United States Postal Service", "operator:short": "USPS", "operator:type": "public", "operator:wikidata": "Q668687", "ref": "2380300003"}, "type": "Feature"}
{"geometry": {"coordinates": [-77.4203957, 37.22288], "type": "Point"}, "id": "ZUmPQyeBkkAGot-LootpbC1J80E=", "properties": {"@source_uri": "https://tools.usps.com/UspsToolsRestServices/rest/POLocator/findLocations", "@spider": "usps_collection_boxes", "addr:city": "S CHESTERFLD", "addr:country": "US", "addr:postcode": "23803", "addr:state": "VA", "addr:street_address": "21 S WEST ST", "amenity": "post_box", "collection_times": "Mo-Sa 15:00", "note": "ON 12/24 AND 12/31, THIS BOX MAY BE COLLECTED AS EARLY AS 12 NOON.", "nsi_id": "unitedstatespostalservice-a77078", "operator": "United States Postal Service", "operator:short": "USPS", "operator:type": "public", "operator:wikidata": "Q668687", "ref": "2380300004"}, "type": "Feature"}
{"geometry": {"coordinates": [-77.4579671, 37.212812], "type": "Point"}, "id": "Hm8w01cDebGeYaDe_dWhEqzJDJo=", "properties": {"@source_uri": "https://tools.usps.com/UspsToolsRestServices/rest/POLocator/findLocations", "@spider": "usps_collection_boxes", "addr:city": "S CHESTERFLD", "addr:country": "US", "addr:postcode": "23803", "addr:state": "VA", "addr:street_address": "4320 WESTGATE RD", "amenity": "post_box", "collection_times": "Mo-Sa 15:00", "note": "ON 12/24 AND 12/31, THIS BOX MAY BE COLLECTED AS EARLY AS 12 NOON.", "nsi_id": "unitedstatespostalservice-a77078", "operator": "United States Postal Service", "operator:short": "USPS", "operator:type": "public", "operator:wikidata": "Q668687", "ref": "2380300008"}, "type": "Feature"}
{"geometry": {"coordinates": [-77.4405788, 37.217738], "type": "Point"}, "id": "B0CxuuQXIR5j5MD1TIPVBR7vgCE=", "properties": {"@source_uri": "https://tools.usps.com/UspsToolsRestServices/rest/POLocator/findLocations", "@spider": "usps_collection_boxes", "addr:city": "S CHESTERFLD", "addr:country": "US", "addr:postcode": "23803", "addr:state": "VA", "addr:street_address": "2200 W WASHINGTON ST", "amenity": "post_box", "collection_times": "Mo-Sa 15:00", "note": "ON 12/24 AND 12/31, THIS BOX MAY BE COLLECTED AS EARLY AS 12 NOON.", "nsi_id": "unitedstatespostalservice-a77078", "operator": "United States Postal Service", "operator:short": "USPS", "operator:type": "public", "operator:wikidata": "Q668687", "ref": "2380300009"}, "type": "Feature"}
{"geometry": {"coordinates": [-77.402565, 37.220595], "type": "Point"}, "id": "kBf8oZ2EDdOsRE1O0NA4POQdTM8=", "properties": {"@source_uri": "https://tools.usps.com/UspsToolsRestServices/rest/POLocator/findLocations", "@spider": "usps_collection_boxes", "addr:city": "S CHESTERFLD", "addr:country": "US", "addr:postcode": "23803", "addr:state": "VA", "addr:street_address": "518 S SYCAMORE ST", "amenity": "post_box", "collection_times": "Mo-Sa 15:00", "note": "ON 12/24 AND 12/31, THIS BOX MAY BE COLLECTED AS EARLY AS 12 NOON.", "nsi_id": "unitedstatespostalservice-a77078", "operator": "United States Postal Service", "operator:short": "USPS", "operator:type": "public", "operator:wikidata": "Q668687", "ref": "2380300014"}, "type": "Feature"}
{"geometry": {"coordinates": [-77.3994947, 37.217416], "type": "Point"}, "id": "R6vf1-hxVvpRgvrSwjcyjyWzoVk=", "properties": {"@source_uri": "https://tools.usps.com/UspsToolsRestServices/rest/POLocator/findLocations", "@spider": "usps_collection_boxes", "addr:city": "S CHESTERFLD", "addr:country": "US", "addr:postcode": "23803", "addr:state": "VA", "addr:street_address": "700 S SYCAMORE ST", "amenity": "post_box", "collection_times": "Mo-Sa 15:00", "note": "ON 12/24 AND 12/31, THIS BOX MAY BE COLLECTED AS EARLY AS 12 NOON.", "nsi_id": "unitedstatespostalservice-a77078", "operator": "United States Postal Service", "operator:short": "USPS", "operator:type": "public", "operator:wikidata": "Q668687", "ref": "2380300015"}, "type": "Feature"}
{"geometry": {"coordinates": [-77.4008499912, 37.2265539911], "type": "Point"}, "id": "bleiQvqS1StW3CnZKpfBYF25bjE=", "properties": {"@source_uri": "https://tools.usps.com/UspsToolsRestServices/rest/POLocator/findLocations", "@spider": "usps_collection_boxes", "addr:city": "S CHESTERFLD", "addr:country": "US", "addr:postcode": "23803", "addr:state": "VA", "addr:street_address": "103 S ADAMS ST", "amenity": "post_box", "collection_times": "Mo-Sa 15:00", "note": "ON 12/24 AND 12/31, THIS BOX MAY BE COLLECTED AS EARLY AS 12 NOON.", "nsi_id": "unitedstatespostalservice-a77078", "operator": "United States Postal Service", "operator:short": "USPS", "operator:type": "public", "operator:wikidata": "Q668687", "ref": "2380300026"}, "type": "Feature"}
{"geometry": {"coordinates": [-77.402325813, 37.228782078], "type": "Point"}, "id": "G9mMA_9C6CJgGHY3a-ivMlqV3DE=", "properties": {"@source_uri": "https://tools.usps.com/UspsToolsRestServices/rest/POLocator/findLocations", "@spider": "usps_collection_boxes", "addr:city": "S CHESTERFLD", "addr:country": "US", "addr:postcode": "23803", "addr:state": "VA", "addr:street_address": "29 FRANKLIN ST", "amenity": "post_box", "collection_times": "Mo-Fr 17:00; Sa 15:00", "note": "ON 12/24 AND 12/31, THIS BOX MAY BE COLLECTED AS EARLY AS 12 NOON.", "nsi_id": "unitedstatespostalservice-a77078", "operator": "United States Postal Service", "operator:short": "USPS", "operator:type": "public", "operator:wikidata": "Q668687", "ref": "2380300035"}, "type": "Feature"}
{"geometry": {"coordinates": [-77.4319586, 37.240317], "type": "Point"}, "id": "Y4EvyWPMTNRVzxYvCjI-xYyT44I=", "properties": {"@source_uri": "https://tools.usps.com/UspsToolsRestServices/rest/POLocator/findLocations", "@spider": "usps_collection_boxes", "addr:city": "S CHESTERFLD", "addr:country": "US", "addr:postcode": "23803", "addr:state": "VA", "addr:street_address": "20833 WOODPECKER RD", "amenity": "post_box", "collection_times": "Mo-Sa 12:00", "nsi_id": "unitedstatespostalservice-a77078", "operator": "United States Postal Service", "operator:short": "USPS", "operator:type": "public", "operator:wikidata": "Q668687", "ref": "2380300044"}, "type": "Feature"}
{"geometry": {"coordinates": [-77.402325813, 37.228782078], "type": "Point"}, "id": "h5c3RhrjbB38R_1Eihj9ALzD0hM=", "properties": {"@source_uri": "https://tools.usps.com/UspsToolsRestServices/rest/POLocator/findLocations", "@spider": "usps_collection_boxes", "addr:city": "S CHESTERFLD", "addr:country": "US", "addr:postcode": "23803", "addr:state": "VA", "addr:street_address": "29 FRANKLIN ST", "amenity": "post_box", "collection_times": "Mo-Fr 17:00; Sa 15:00", "indoor": "yes", "note": "ON 12/24 AND 12/31, THIS BOX MAY BE COLLECTED AS EARLY AS 12 NOON.", "nsi_id": "unitedstatespostalservice-a77078", "operator": "United States Postal Service", "operator:short": "USPS", "operator:type": "public", "operator:wikidata": "Q668687", "ref": "2380300046"}, "type": "Feature"}
{"geometry": {"coordinates": [-77.402325813, 37.228782078], "type": "Point"}, "id": "4GCZ7BJpcygxw7vXbYqa7o3PgvA=", "properties": {"@source_uri": "https://tools.usps.com/UspsToolsRestServices/rest/POLocator/findLocations", "@spider": "usps_collection_boxes", "addr:city": "S CHESTERFLD", "addr:country": "US", "addr:postcode": "23803", "addr:state": "VA", "addr:street_address": "29 FRANKLIN ST", "amenity": "post_box", "collection_times": "Mo-Fr 17:00; Sa 12:00", "indoor": "yes", "note": "ON 12/24 AND 12/31, THIS BOX MAY BE COLLECTED AS EARLY AS 12 NOON.", "nsi_id": "unitedstatespostalservice-a77078", "operator": "United States Postal Service", "operator:short": "USPS", "operator:type": "public", "operator:wikidata": "Q668687", "ref": "2380300048"}, "type": "Feature"}
{"geometry": {"coordinates": [-77.3681447, 37.182336], "type": "Point"}, "id": "9H6PX6ukvoR_8yUq2k30RxDbCX8=", "properties": {"@source_uri": "https://tools.usps.com/UspsToolsRestServices/rest/POLocator/findLocations", "@spider": "usps_collection_boxes", "addr:city": "PETERSBURG", "addr:country": "US", "addr:postcode": "23805", "addr:state": "VA", "addr:street_address": "3330 S CRATER RD", "amenity": "post_box", "collection_times": "Mo-Sa 12:00", "nsi_id": "unitedstatespostalservice-a77078", "operator": "United States Postal Service", "operator:short": "USPS", "operator:type": "public", "operator:wikidata": "Q668687", "ref": "2380500002"}, "type": "Feature"}
{"geometry": {"coordinates": [-77.3701459902, 37.1900880184], "type": "Point"}, "id": "43CK9k5Go4y5yS13LA9HhgS6MMo=", "properties": {"@source_uri": "https://tools.usps.com/UspsToolsRestServices/rest/POLocator/findLocations", "@spider": "usps_collection_boxes", "addr:city": "PETERSBURG", "addr:country": "US", "addr:postcode": "23805", "addr:state": "VA", "addr:street_address": "3131 S CRATER RD", "amenity": "post_box", "collection_times": "Mo-Fr 17:00; Sa 16:00", "note": "ON 12/24 AND 12/31, THIS BOX MAY BE COLLECTED AS EARLY AS 12 NOON.", "nsi_id": "unitedstatespostalservice-a77078", "operator": "United States Postal Service", "operator:short": "USPS", "operator:type": "public", "operator:wikidata": "Q668687", "ref": "2380500005"}, "type": "Feature"}
{"geometry": {"coordinates": [-77.3830362, 37.203252], "type": "Point"}, "id": "8MCWCpnYyzH4gsbua22miZEMGsw=", "properties": {"@source_uri": "https://tools.usps.com/UspsToolsRestServices/rest/POLocator/findLocations", "@spider": "usps_collection_boxes", "addr:city": "PETERSBURG", "addr:country": "US", "addr:postcode": "23805", "addr:state": "VA", "addr:street_address": "1951 S SYCAMORE ST", "amenity": "post_box", "collection_times": "Mo-Sa 12:00", "nsi_id": "unitedstatespostalservice-a77078", "operator": "United States Postal Service", "operator:short": "USPS", "operator:type": "public", "operator:wikidata": "Q668687", "ref": "2380500014"}, "type": "Feature"}
{"geometry": {"coordinates": [-77.371277022, 37.18961636], "type": "Point"}, "id": "TYE2XBmEvZ3Z2jiSrG23tQz3bt0=", "properties": {"@source_uri": "https://tools.usps.com/UspsToolsRestServices/rest/POLocator/findLocations", "@spider": "usps_collection_boxes", "addr:city": "PETERSBURG", "addr:country": "US", "addr:postcode": "23805", "addr:state": "VA", "addr:street_address": "3131 S CRATER RD", "amenity": "post_box", "collection_times": "Mo-Fr 17:00; Sa 16:00", "indoor": "yes", "note": "ON 12/24 AND 12/31, THIS BOX MAY BE COLLECTED AS EARLY AS 12 NOON.", "nsi_id": "unitedstatespostalservice-a77078", "operator": "United States Postal Service", "operator:short": "USPS", "operator:type": "public", "operator:wikidata": "Q668687", "ref": "2380500018"}, "type": "Feature"}
{"geometry": {"coordinates": [-77.371277022, 37.18961636], "type": "Point"}, "id": "1R-DKVJ46I9QOLn-clu9cOM8MgI=", "properties": {"@source_uri": "https://tools.usps.com/UspsToolsRestServices/rest/POLocator/findLocations", "@spider": "usps_collection_boxes", "addr:city": "PETERSBURG", "addr:country": "US", "addr:postcode": "23805", "addr:state": "VA", "addr:street_address": "3131 S CRATER RD", "amenity": "post_box", "collection_times": "Mo-Fr 17:00; Sa 12:00", "indoor": "yes", "note": "ON 12/24 AND 12/31, THIS BOX MAY BE COLLECTED AS EARLY AS 12 NOON.", "nsi_id": "unitedstatespostalservice-a77078", "operator": "United States Postal Service", "operator:short": "USPS", "operator:type": "public", "operator:wikidata": "Q668687", "ref": "2380500021"}, "type": "Feature"}
{"geometry": {"coordinates": [-77.4189105, 37.2374], "type": "Point"}, "id": "2gXZ9Aj0gvKSOjVNc1MMIoQIhMs=", "properties": {"@source_uri": "https://tools.usps.com/UspsToolsRestServices/rest/POLocator/findLocations", "@spider": "usps_collection_boxes", "addr:city": "PETERSBURG", "addr:country": "US", "addr:postcode": "23806", "addr:state": "VA", "addr:street_address": "30 UNIVERSITY AVE", "amenity": "post_box", "collection_times": "Mo-Sa 14:00", "note": "ON 12/24 AND 12/31, THIS BOX MAY BE COLLECTED AS EARLY AS 12 NOON.", "nsi_id": "unitedstatespostalservice-a77078", "operator": "United States Postal Service", "operator:short": "USPS", "operator:type": "public", "operator:wikidata": "Q668687", "ref": "2380600000"}, "type": "Feature"}
{"geometry": {"coordinates": [-77.886463303, 36.863992306], "type": "Point"}, "id": "0dgfh1EE0RTQuiERok-SHPBYpaY=", "properties": {"@source_uri": "https://tools.usps.com/UspsToolsRestServices/rest/POLocator/findLocations", "@spider": "usps_collection_boxes", "addr:city": "ALBERTA", "addr:country": "US", "addr:postcode": "23821", "addr:state": "VA", "addr:street_address": "642 MAIN ST", "amenity": "post_box", "collection_times": "Mo-Fr 16:00; Sa 11:45", "note": "ON 12/24 AND 12/31, THIS BOX MAY BE COLLECTED AS EARLY AS 12 NOON.", "nsi_id": "unitedstatespostalservice-a77078", "operator": "United States Postal Service", "operator:short": "USPS", "operator:type": "public", "operator:wikidata": "Q668687", "ref": "2382100001"}, "type": "Feature"}
{"geometry": {"coordinates": [-77.886463303, 36.863992306], "type": "Point"}, "id": "yjat9GDaiA4aoN7Xh_-dosNRqHA=", "properties": {"@source_uri": "https://tools.usps.com/UspsToolsRestServices/rest/POLocator/findLocations", "@spider": "usps_collection_boxes", "addr:city": "ALBERTA", "addr:country": "US", "addr:postcode": "23821", "addr:state": "VA", "addr:street_address": "642 MAIN ST", "amenity": "post_box", "collection_times": "Mo-Fr 16:30; Sa 12:00", "indoor": "yes", "note": "ON 12/24 AND 12/31, THIS BOX MAY BE COLLECTED AS EARLY AS 12 NOON.", "nsi_id": "unitedstatespostalservice-a77078", "operator": "United States Postal Service", "operator:short": "USPS", "operator:type": "public", "operator:wikidata": "Q668687", "ref": "2382100002"}, "type": "Feature"}
{"geometry": {"coordinates": [-77.886463303, 36.863992306], "type": "Point"}, "id": "ZTjrIY1S4NvrhmalFCoSE0HWyy8=", "properties": {"@source_uri": "https://tools.usps.com/UspsToolsRestServices/rest/POLocator/findLocations", "@spider": "usps_collection_boxes", "addr:city": "ALBERTA", "addr:country": "US", "addr:postcode": "23821", "addr:state": "VA", "addr:street_address": "642 MAIN ST", "amenity": "post_box", "collection_times": "Mo-Fr 16:30; Sa 12:00", "indoor": "yes", "note": "ON 12/24 AND 12/31, THIS BOX MAY BE COLLECTED AS EARLY AS 12 NOON.", "nsi_id": "unitedstatespostalservice-a77078", "operator": "United States Postal Service", "operator:short": "USPS", "operator:type": "public", "operator:wikidata": "Q668687", "ref": "2382100004"}, "type": "Feature"}
{"geometry": {"coordinates": [-77.998933782, 37.077801304], "type": "Point"}, "id": "Z7j0TvuBZcOz1Y2VtIwqzUv-F9g=", "properties": {"@source_uri": "https://tools.usps.com/UspsToolsRestServices/rest/POLocator/findLocations", "@spider": "usps_collection_boxes", "addr:city": "BLACKSTONE", "addr:country": "US", "addr:postcode": "23824", "addr:state": "VA", "addr:street_address": "400 S MAIN ST", "amenity": "post_box", "collection_times": "Mo-Fr 17:00; Sa 12:00", "note": "ON 12/24 AND 12/31, THIS BOX MAY BE COLLECTED AS EARLY AS 12 NOON.", "nsi_id": "unitedstatespostalservice-a77078", "operator": "United States Postal Service", "operator:short": "USPS", "operator:type": "public", "operator:wikidata": "Q668687", "ref": "2382400004"}, "type": "Feature"}
{"geometry": {"coordinates": [-77.998933782, 37.077801304], "type": "Point"}, "id": "QsY9U7pPP5P4zStJqIlpJF9dZpE=", "properties": {"@source_uri": "https://tools.usps.com/UspsToolsRestServices/rest/POLocator/findLocations", "@spider": "usps_collection_boxes", "addr:city": "BLACKSTONE", "addr:country": "US", "addr:postcode": "23824", "addr:state": "VA", "addr:street_address": "400 S MAIN ST", "amenity": "post_box", "collection_times": "Mo-Fr 17:00; Sa 12:00", "indoor": "yes", "note": "ON 12/24 AND 12/31, THIS BOX MAY BE COLLECTED AS EARLY AS 12 NOON.", "nsi_id": "unitedstatespostalservice-a77078", "operator": "United States Postal Service", "operator:short": "USPS", "operator:type": "public", "operator:wikidata": "Q668687", "ref": "2382400008"}, "type": "Feature"}
{"geometry": {"coordinates": [-77.998933782, 37.077801304], "type": "Point"}, "id": "OWYCVLvTe5PWiEQOHpu-vsdeW04=", "properties": {"@source_uri": "https://tools.usps.com/UspsToolsRestServices/rest/POLocator/findLocations", "@spider": "usps_collection_boxes", "addr:city": "BLACKSTONE", "addr:country": "US", "addr:postcode": "23824", "addr:state": "VA", "addr:street_address": "400 S MAIN ST", "amenity": "post_box", "collection_times": "Mo-Fr 17:00; Sa 11:00", "indoor": "yes", "note": "ON 12/24 AND 12/31, THIS BOX MAY BE COLLECTED AS EARLY AS 12 NOON.", "nsi_id": "unitedstatespostalservice-a77078", "operator": "United States Postal Service", "operator:short": "USPS", "operator:type": "public", "operator:wikidata": "Q668687", "ref": "2382400011"}, "type": "Feature"}
{"geometry": {"coordinates": [-77.200653808, 36.585196724], "type": "Point"}, "id": "BGCb_0mUDqr420HF_t1cyBR5EUs=", "properties": {"@source_uri": "https://tools.usps.com/UspsToolsRestServices/rest/POLocator/findLocations", "@spider": "usps_collection_boxes", "addr:city": "BOYKINS", "addr:country": "US", "addr:postcode": "23827", "addr:state": "VA", "addr:street_address": "32129 N MAIN ST", "amenity": "post_box", "collection_times": "Mo-Fr 16:30; Sa 10:45", "indoor": "yes", "note": "ON 12/24 AND 12/31, THIS BOX MAY BE COLLECTED AS EARLY AS 12 NOON.", "nsi_id": "unitedstatespostalservice-a77078", "operator": "United States Postal Service", "operator:short": "USPS", "operator:type": "public", "operator:wikidata": "Q668687", "ref": "2382700004"}, "type": "Feature"}
{"geometry": {"coordinates": [-77.200653808, 36.585196724], "type": "Point"}, "id": "tG-42cWxIF9aZNJkGoMpj81Afz0=", "properties": {"@source_uri": "https://tools.usps.com/UspsToolsRestServices/rest/POLocator/findLocations", "@spider": "usps_collection_boxes", "addr:city": "BOYKINS", "addr:country": "US", "addr:postcode": "23827", "addr:state": "VA", "addr:street_address": "32129 N MAIN ST", "amenity": "post_box", "collection_times": "Mo-Fr 16:30; Sa 12:30", "indoor": "yes", "note": "ON 12/24 AND 12/31, THIS BOX MAY BE COLLECTED AS EARLY AS 12 NOON.", "nsi_id": "unitedstatespostalservice-a77078", "operator": "United States Postal Service", "operator:short": "USPS", "operator:type": "public", "operator:wikidata": "Q668687", "ref": "2382700006"}, "type": "Feature"}
{"geometry": {"coordinates": [-77.248556331, 36.570058082], "type": "Point"}, "id": "RqdpNyvmOy5dzP9Q3lysw779ops=", "properties": {"@source_uri": "https://tools.usps.com/UspsToolsRestServices/rest/POLocator/findLocations", "@spider": "usps_collection_boxes", "addr:city": "BRANCHVILLE", "addr:country": "US", "addr:postcode": "23828", "addr:state": "VA", "addr:street_address": "33143 WOODARD ST", "amenity": "post_box", "collection_times": "Mo-Fr 16:30; Sa 11:30", "note": "ON 12/24 AND 12/31, THIS BOX MAY BE COLLECTED AS EARLY AS 12 NOON.", "nsi_id": "unitedstatespostalservice-a77078", "operator": "United States Postal Service", "operator:short": "USPS", "operator:type": "public", "operator:wikidata": "Q668687", "ref": "2382800001"}, "type": "Feature"}
{"geometry": {"coordinates": [-77.248556331, 36.570058082], "type": "Point"}, "id": "KSJefseU8t2BLreNFjClItesedY=", "properties": {"@source_uri": "https://tools.usps.com/UspsToolsRestServices/rest/POLocator/findLocations", "@spider": "usps_collection_boxes", "addr:city": "BRANCHVILLE", "addr:country": "US", "addr:postcode": "23828", "addr:state": "VA", "addr:street_address": "33143 WOODARD ST", "amenity": "post_box", "collection_times": "Mo-Fr 16:30; Sa 11:30", "indoor": "yes", "note": "ON 12/24 AND 12/31, THIS BOX MAY BE COLLECTED AS EARLY AS 12 NOON.", "nsi_id": "unitedstatespostalservice-a77078", "operator": "United States Postal Service", "operator:short": "USPS", "operator:type": "public", "operator:wikidata": "Q668687", "ref": "2382800002"}, "type": "Feature"}
{"geometry": {"coordinates": [-77.248556331, 36.570058082], "type": "Point"}, "id": "bByp_uozgJtNJtFIX9WQSr8IjMo=", "properties": {"@source_uri": "https://tools.usps.com/UspsToolsRestServices/rest/POLocator/findLocations", "@spider": "usps_collection_boxes", "addr:city": "BRANCHVILLE", "addr:country": "US", "addr:postcode": "23828", "addr:state": "VA", "addr:street_address": "33143 WOODARD ST", "amenity": "post_box", "collection_times": "Mo-Fr 16:30", "indoor": "yes", "note": "ON 12/24 AND 12/31, THIS BOX MAY BE COLLECTED AS EARLY AS 12 NOON.", "nsi_id": "unitedstatespostalservice-a77078", "operator": "United States Postal Service", "operator:short": "USPS", "operator:type": "public", "operator:wikidata": "Q668687", "ref": "2382800004"}, "type": "Feature"}
{"geometry": {"coordinates": [-77.200823, 36.709305], "type": "Point"}, "id": "koWlIFkLpV72AcXR9JYoUH467W0=", "properties": {"@source_uri": "https://tools.usps.com/UspsToolsRestServices/rest/POLocator/findLocations", "@spider": "usps_collection_boxes", "addr:city": "CAPRON", "addr:country": "US", "addr:postcode": "23829", "addr:state": "VA", "addr:street_address": "23021 MAIN ST", "amenity": "post_box", "collection_times": "Mo-Fr 16:15; Sa 11:15", "note": "ON 12/24 AND 12/31, THIS BOX MAY BE COLLECTED AS EARLY AS 12 NOON.", "nsi_id": "unitedstatespostalservice-a77078", "operator": "United States Postal Service", "operator:short": "USPS", "operator:type": "public", "operator:wikidata": "Q668687", "ref": "2382900001"}, "type": "Feature"}
{"geometry": {"coordinates": [-77.200823, 36.709305], "type": "Point"}, "id": "VEdvGqKVVVn3ntYSgnzmHwdhWxI=", "properties": {"@source_uri": "https://tools.usps.com/UspsToolsRestServices/rest/POLocator/findLocations", "@spider": "usps_collection_boxes", "addr:city": "CAPRON", "addr:country": "US", "addr:postcode": "23829", "addr:state": "VA", "addr:street_address": "23021 MAIN ST", "amenity": "post_box", "collection_times": "Mo-Fr 16:15; Sa 11:15", "indoor": "yes", "note": "ON 12/24 AND 12/31, THIS BOX MAY BE COLLECTED AS EARLY AS 12 NOON.", "nsi_id": "unitedstatespostalservice-a77078", "operator": "United States Postal Service", "operator:short": "USPS", "operator:type": "public", "operator:wikidata": "Q668687", "ref": "2382900002"}, "type": "Feature"}
{"geometry": {"coordinates": [-77.395306507, 37.035680062], "type": "Point"}, "id": "GBBAqtvlO41II-nB2cGJCJymQTc=", "properties": {"@source_uri": "https://tools.usps.com/UspsToolsRestServices/rest/POLocator/findLocations", "@spider": "usps_collection_boxes", "addr:city": "CARSON", "addr:country": "US", "addr:postcode": "23830", "addr:state": "VA", "addr:street_address": "17206 HALLIGAN PARK RD", "amenity": "post_box", "collection_times": "Mo-Fr 16:15; Sa 11:15", "note": "ON 12/24 AND 12/31, THIS BOX MAY BE COLLECTED AS EARLY AS 12 NOON.", "nsi_id": "unitedstatespostalservice-a77078", "operator": "United States Postal Service", "operator:short": "USPS", "operator:type": "public", "operator:wikidata": "Q668687", "ref": "2383000001"}, "type": "Feature"}
{"geometry": {"coordinates": [-77.395306507, 37.035680062], "type": "Point"}, "id": "cN4etDIZ2R0Us7BJg89mG179G2I=", "properties": {"@source_uri": "https://tools.usps.com/UspsToolsRestServices/rest/POLocator/findLocations", "@spider": "usps_collection_boxes", "addr:city": "CARSON", "addr:country": "US", "addr:postcode": "23830", "addr:state": "VA", "addr:street_address": "17206 HALLIGAN PARK RD", "amenity": "post_box", "collection_times": "Mo-Fr 16:15; Sa 11:15", "indoor": "yes", "note": "ON 12/24 AND 12/31, THIS BOX MAY BE COLLECTED AS EARLY AS 12 NOON.", "nsi_id": "unitedstatespostalservice-a77078", "operator": "United States Postal Service", "operator:short": "USPS", "operator:type": "public", "operator:wikidata": "Q668687", "ref": "2383000002"}, "type": "Feature"}
{"geometry": {"coordinates": [-77.395306507, 37.035680062], "type": "Point"}, "id": "O_kBVWmqc-Iy4--zI_UE2B2IFuM=", "properties": {"@source_uri": "https://tools.usps.com/UspsToolsRestServices/rest/POLocator/findLocations", "@spider": "usps_collection_boxes", "addr:city": "CARSON", "addr:country": "US", "addr:postcode": "23830", "addr:state": "VA", "addr:street_address": "17206 HALLIGAN PARK RD", "amenity": "post_box", "collection_times": "Mo-Fr 16:15; Sa 11:15", "indoor": "yes", "note": "ON 12/24 AND 12/31, THIS BOX MAY BE COLLECTED AS EARLY AS 12 NOON.", "nsi_id": "unitedstatespostalservice-a77078", "operator": "United States Postal Service", "operator:short": "USPS", "operator:type": "public", "operator:wikidata": "Q668687", "ref": "2383000003"}, "type": "Feature"}
{"geometry": {"coordinates": [-77.395306507, 37.035680062], "type": "Point"}, "id": "juLxOnzhV7JiZoz7O6LqVDhhc_A=", "properties": {"@source_uri": "https://tools.usps.com/UspsToolsRestServices/rest/POLocator/findLocations", "@spider": "usps_collection_boxes", "addr:city": "CARSON", "addr:country": "US", "addr:postcode": "23830", "addr:state": "VA", "addr:street_address": "17206 HALLIGAN PARK RD", "amenity": "post_box", "collection_times": "Sa 12:30", "indoor": "yes", "note": "ON 12/24 AND 12/31, THIS BOX MAY BE COLLECTED AS EARLY AS 12 NOON.", "nsi_id": "unitedstatespostalservice-a77078", "operator": "United States Postal Service", "operator:short": "USPS", "operator:type": "public", "operator:wikidata": "Q668687", "ref": "2383000005"}, "type": "Feature"}
{"geometry": {"coordinates": [-77.418548996, 37.356790428], "type": "Point"}, "id": "62K876N_-NmdejJe7b65a5Mghg4=", "properties": {"@source_uri": "https://tools.usps.com/UspsToolsRestServices/rest/POLocator/findLocations", "@spider": "usps_collection_boxes", "addr:city": "CHESTER", "addr:country": "US", "addr:postcode": "23831", "addr:state": "VA", "addr:street_address": "12300 ROCK HILL RD", "amenity": "post_box", "collection_times": "Mo-Fr 17:00; Sa 15:00", "note": "ON 12/24 AND 12/31, THIS BOX MAY BE COLLECTED AS EARLY AS 12 NOON.", "nsi_id": "unitedstatespostalservice-a77078", "operator": "United States Postal Service", "operator:short": "USPS", "operator:type": "public", "operator:wikidata": "Q668687", "ref": "2383100000"}, "type": "Feature"}
{"geometry": {"coordinates": [-77.4509133, 37.384123], "type": "Point"}, "id": "HLw_3EcAaHjb-vBCiPPiZT7Th4A=", "properties": {"@source_uri": "https://tools.usps.com/UspsToolsRestServices/rest/POLocator/findLocations", "@spider": "usps_collection_boxes", "addr:city": "CHESTER", "addr:country": "US", "addr:postcode": "23831", "addr:state": "VA", "addr:street_address": "9819 CHESTER RD", "amenity": "post_box", "collection_times": "Mo-Sa 10:00", "nsi_id": "unitedstatespostalservice-a77078", "operator": "United States Postal Service", "operator:short": "USPS", "operator:type": "public", "operator:wikidata": "Q668687", "ref": "2383100006"}, "type": "Feature"}
{"geometry": {"coordinates": [-77.4104969, 37.352822], "type": "Point"}, "id": "GfCoLpX-6WrWyMn1GTaQ89pCiSU=", "properties": {"@source_uri": "https://tools.usps.com/UspsToolsRestServices/rest/POLocator/findLocations", "@spider": "usps_collection_boxes", "addr:city": "CHESTER", "addr:country": "US", "addr:postcode": "23831", "addr:state": "VA", "addr:street_address": "12619 JEFFERSON DAVIS HWY", "amenity": "post_box", "collection_times": "Mo-Sa 09:00", "nsi_id": "unitedstatespostalservice-a77078", "operator": "United States Postal Service", "operator:short": "USPS", "operator:type": "public", "operator:wikidata": "Q668687", "ref": "2383100010"}, "type": "Feature"}
{"geometry": {"coordinates": [-77.4947549, 37.355605], "type": "Point"}, "id": "M-BewinuM2Wi_bfUxsl_qXoiYV8=", "properties": {"@source_uri": "https://tools.usps.com/UspsToolsRestServices/rest/POLocator/findLocations", "@spider": "usps_collection_boxes", "addr:city": "CHESTER", "addr:country": "US", "addr:postcode": "23831", "addr:state": "VA", "addr:street_address": "11601 IRON BRIDGE RD", "amenity": "post_box", "collection_times": "Mo-Sa 11:00", "nsi_id": "unitedstatespostalservice-a77078", "operator": "United States Postal Service", "operator:short": "USPS", "operator:type": "public", "operator:wikidata": "Q668687", "ref": "2383100017"}, "type": "Feature"}
{"geometry": {"coordinates": [-77.418548996, 37.356790428], "type": "Point"}, "id": "LT3vHdT4wPkvWzOThKVji_vzoYY=", "properties": {"@source_uri": "https://tools.usps.com/UspsToolsRestServices/rest/POLocator/findLocations", "@spider": "usps_collection_boxes", "addr:city": "CHESTER", "addr:country": "US", "addr:postcode": "23831", "addr:state": "VA", "addr:street_address": "12300 ROCK HILL RD", "amenity": "post_box", "collection_times": "Mo-Fr 17:00; Sa 15:00", "name": "USPS COLLECTION BOX - APC", "note": "ON 12/24 AND 12/31, THIS BOX MAY BE COLLECTED AS EARLY AS 12 NOON.", "nsi_id": "unitedstatespostalservice-a77078", "operator": "United States Postal Service", "operator:short": "USPS", "operator:type": "public", "operator:wikidata": "Q668687", "ref": "2383100028"}, "type": "Feature"}
{"geometry": {"coordinates": [-77.418548996, 37.356790428], "type": "Point"}, "id": "9q3fTX780zXSailgBXgkDR-2XMo=", "properties": {"@source_uri": "https://tools.usps.com/UspsToolsRestServices/rest/POLocator/findLocations", "@spider": "usps_collection_boxes", "addr:city": "CHESTER", "addr:country": "US", "addr:postcode": "23831", "addr:state": "VA", "addr:street_address": "12300 ROCK HILL RD", "amenity": "post_box", "collection_times": "Mo-Fr 17:00; Sa 15:00", "indoor": "yes", "note": "ON 12/24 AND 12/31, THIS BOX MAY BE COLLECTED AS EARLY AS 12 NOON.", "nsi_id": "unitedstatespostalservice-a77078", "operator": "United States Postal Service", "operator:short": "USPS", "operator:type": "public", "operator:wikidata": "Q668687", "ref": "2383100029"}, "type": "Feature"}
{"geometry": {"coordinates": [-77.418548996, 37.356790428], "type": "Point"}, "id": "GO5DLnbyxGhR2TqgW3y8iWyaSi8=", "properties": {"@source_uri": "https://tools.usps.com/UspsToolsRestServices/rest/POLocator/findLocations", "@spider": "usps_collection_boxes", "addr:city": "CHESTER", "addr:country": "US", "addr:postcode": "23831", "addr:state": "VA", "addr:street_address": "12300 ROCK HILL RD", "amenity": "post_box", "collection_times": "Mo-Fr 17:00; Sa 15:00", "indoor": "yes", "note": "ON 12/24 AND 12/31, THIS BOX MAY BE COLLECTED AS EARLY AS 12 NOON.", "nsi_id": "unitedstatespostalservice-a77078", "operator": "United States Postal Service", "operator:short": "USPS", "operator:type": "public", "operator:wikidata": "Q668687", "ref": "2383100030"}, "type": "Feature"}
{"geometry": {"coordinates": [-77.418548996, 37.356790428], "type": "Point"}, "id": "CsHtz5zex2zCXG0iaaTKDNd_wrw=", "properties": {"@source_uri": "https://tools.usps.com/UspsToolsRestServices/rest/POLocator/findLocations", "@spider": "usps_collection_boxes", "addr:city": "CHESTER", "addr:country": "US", "addr:postcode": "23831", "addr:state": "VA", "addr:street_address": "12300 ROCK HILL RD", "amenity": "post_box", "collection_times": "Mo-Fr 17:00; Sa 15:00", "indoor": "yes", "note": "ON 12/24 AND 12/31, THIS BOX MAY BE COLLECTED AS EARLY AS 12 NOON.", "nsi_id": "unitedstatespostalservice-a77078", "operator": "United States Postal Service", "operator:short": "USPS", "operator:type": "public", "operator:wikidata": "Q668687", "ref": "2383100031"}, "type": "Feature"}
{"geometry": {"coordinates": [-77.418548996, 37.356790428], "type": "Point"}, "id": "XYyGczCYnrqC4YUeDwZ7D-VX4KE=", "properties": {"@source_uri": "https://tools.usps.com/UspsToolsRestServices/rest/POLocator/findLocations", "@spider": "usps_collection_boxes", "addr:city": "CHESTER", "addr:country": "US", "addr:postcode": "23831", "addr:state": "VA", "addr:street_address": "12300 ROCK HILL RD", "amenity": "post_box", "collection_times": "Mo-Fr 17:00; Sa 13:00", "indoor": "yes", "note": "ON 12/24 AND 12/31, THIS BOX MAY BE COLLECTED AS EARLY AS 12 NOON.", "nsi_id": "unitedstatespostalservice-a77078", "operator": "United States Postal Service", "operator:short": "USPS", "operator:type": "public", "operator:wikidata": "Q668687", "ref": "2383100039"}, "type": "Feature"}
{"geometry": {"coordinates": [-77.507911307, 37.374538709], "type": "Point"}, "id": "bjqFXowBr5Eoh8xU9gsFWmoV7fw=", "properties": {"@source_uri": "https://tools.usps.com/UspsToolsRestServices/rest/POLocator/findLocations", "@spider": "usps_collection_boxes", "addr:city": "CHESTERFIELD", "addr:country": "US", "addr:postcode": "23832", "addr:state": "VA", "addr:street_address": "10221 KRAUSE RD", "amenity": "post_box", "collection_times": "Mo-Fr 17:00; Sa 15:00", "note": "ON 12/24 AND 12/31, THIS BOX MAY BE COLLECTED AS EARLY AS 12 NOON.", "nsi_id": "unitedstatespostalservice-a77078", "operator": "United States Postal Service", "operator:short": "USPS", "operator:type": "public", "operator:wikidata": "Q668687", "ref": "2383200002"}, "type": "Feature"}
{"geometry": {"coordinates": [-77.507911307, 37.374538709], "type": "Point"}, "id": "NERI0viDB9wmq7JzmtDpP3eiXqA=", "properties": {"@source_uri": "https://tools.usps.com/UspsToolsRestServices/rest/POLocator/findLocations", "@spider": "usps_collection_boxes", "addr:city": "CHESTERFIELD", "addr:country": "US", "addr:postcode": "23832", "addr:state": "VA", "addr:street_address": "10221 KRAUSE RD", "amenity": "post_box", "collection_times": "Mo-Fr 17:00; Sa 15:00", "indoor": "yes", "note": "ON 12/24 AND 12/31, THIS BOX MAY BE COLLECTED AS EARLY AS 12 NOON.", "nsi_id": "unitedstatespostalservice-a77078", "operator": "United States Postal Service", "operator:short": "USPS", "operator:type": "public", "operator:wikidata": "Q668687", "ref": "2383200007"}, "type": "Feature"}
{"geometry": {"coordinates": [-77.5071429, 37.377207], "type": "Point"}, "id": "vsMQ85ucWpEAWeulY_3P3NcNYO8=", "properties": {"@source_uri": "https://tools.usps.com/UspsToolsRestServices/rest/POLocator/findLocations", "@spider": "usps_collection_boxes", "addr:city": "CHESTERFIELD", "addr:country": "US", "addr:postcode": "23832", "addr:state": "VA", "addr:street_address": "10001 IRON BRIDGE RD", "amenity": "post_box", "collection_times": "Mo-Sa 12:00", "nsi_id": "unitedstatespostalservice-a77078", "operator": "United States Postal Service", "operator:short": "USPS", "operator:type": "public", "operator:wikidata": "Q668687", "ref": "2383200009"}, "type": "Feature"}
{"geometry": {"coordinates": [-77.507911307, 37.374538709], "type": "Point"}, "id": "5lYzUTCHeXujrbtGTufdqPIpWu4=", "properties": {"@source_uri": "https://tools.usps.com/UspsToolsRestServices/rest/POLocator/findLocations", "@spider": "usps_collection_boxes", "addr:city": "CHESTERFIELD", "addr:country": "US", "addr:postcode": "23832", "addr:state": "VA", "addr:street_address": "10221 KRAUSE RD", "amenity": "post_box", "collection_times": "Mo-Fr 17:00; Sa 12:00", "indoor": "yes", "note": "ON 12/24 AND 12/31, THIS BOX MAY BE COLLECTED AS EARLY AS 12 NOON.", "nsi_id": "unitedstatespostalservice-a77078", "operator": "United States Postal Service", "operator:short": "USPS", "operator:type": "public", "operator:wikidata": "Q668687", "ref": "2383200014"}, "type": "Feature"}
{"geometry": {"coordinates": [-77.639880712, 37.185419397], "type": "Point"}, "id": "b9O0gmWhsRU0NdsSoT5wJUnWfSg=", "properties": {"@source_uri": "https://tools.usps.com/UspsToolsRestServices/rest/POLocator/findLocations", "@spider": "usps_collection_boxes", "addr:city": "CHURCH ROAD", "addr:country": "US", "addr:postcode": "23833", "addr:state": "VA", "addr:street_address": "15300 COX RD", "amenity": "post_box", "collection_times": "Mo-Fr 16:30; Sa 11:15", "note": "ON 12/24 AND 12/31, THIS BOX MAY BE COLLECTED AS EARLY AS 12 NOON.", "nsi_id": "unitedstatespostalservice-a77078", "operator": "United States Postal Service", "operator:short": "USPS", "operator:type": "public", "operator:wikidata": "Q668687", "ref": "2383300001"}, "type": "Feature"}
{"geometry": {"coordinates": [-77.639880712, 37.185419397], "type": "Point"}, "id": "AptkMZraHFecEnyBwuKTEDXyo5M=", "properties": {"@source_uri": "https://tools.usps.com/UspsToolsRestServices/rest/POLocator/findLocations", "@spider": "usps_collection_boxes", "addr:city": "CHURCH ROAD", "addr:country": "US", "addr:postcode": "23833", "addr:state": "VA", "addr:street_address": "15300 COX RD", "amenity": "post_box", "collection_times": "Mo-Fr 16:45; Sa 11:30", "indoor": "yes", "note": "ON 12/24 AND 12/31, THIS BOX MAY BE COLLECTED AS EARLY AS 12 NOON.", "nsi_id": "unitedstatespostalservice-a77078", "operator": "United States Postal Service", "operator:short": "USPS", "operator:type": "public", "operator:wikidata": "Q668687", "ref": "2383300002"}, "type": "Feature"}
{"geometry": {"coordinates": [-77.639880712, 37.185419397], "type": "Point"}, "id": "PgkbcjmBcEEDA22C9tLGMvf5CGc=", "properties": {"@source_uri": "https://tools.usps.com/UspsToolsRestServices/rest/POLocator/findLocations", "@spider": "usps_collection_boxes", "addr:city": "CHURCH ROAD", "addr:country": "US", "addr:postcode": "23833", "addr:state": "VA", "addr:street_address": "15300 COX RD", "amenity": "post_box", "collection_times": "Mo-Fr 16:45; Sa 11:30", "indoor": "yes", "note": "ON 12/24 AND 12/31, THIS BOX MAY BE COLLECTED AS EARLY AS 12 NOON.", "nsi_id": "unitedstatespostalservice-a77078", "operator": "United States Postal Service", "operator:short": "USPS", "operator:type": "public", "operator:wikidata": "Q668687", "ref": "2383300004"}, "type": "Feature"}
{"geometry": {"coordinates": [-77.4093099, 37.254144], "type": "Point"}, "id": "XgsoOlKQa2218iDSNcbiBoFXiAg=", "properties": {"@source_uri": "https://tools.usps.com/UspsToolsRestServices/rest/POLocator/findLocations", "@spider": "usps_collection_boxes", "addr:city": "COLONIAL HGTS", "addr:country": "US", "addr:postcode": "23834", "addr:state": "VA", "addr:street_address": "201 JAMES AVE", "amenity": "post_box", "collection_times": "Mo-Fr 13:00; Sa 12:00", "note": "ON 12/24 AND 12/31, THIS BOX MAY BE COLLECTED AS EARLY AS 12 NOON.", "nsi_id": "unitedstatespostalservice-a77078", "operator": "United States Postal Service", "operator:short": "USPS", "operator:type": "public", "operator:wikidata": "Q668687", "ref": "2383400011"}, "type": "Feature"}
{"geometry": {"coordinates": [-77.4089728, 37.242615], "type": "Point"}, "id": "ZUlJXZ89a5dWk1SVJ_BaGrl02fs=", "properties": {"@source_uri": "https://tools.usps.com/UspsToolsRestServices/rest/POLocator/findLocations", "@spider": "usps_collection_boxes", "addr:city": "COLONIAL HGTS", "addr:country": "US", "addr:postcode": "23834", "addr:state": "VA", "addr:street_address": "550 BOULEVARD", "amenity": "post_box", "collection_times": "Mo-Fr 13:00; Sa 12:00", "note": "ON 12/24 AND 12/31, THIS BOX MAY BE COLLECTED AS EARLY AS 12 NOON.", "nsi_id": "unitedstatespostalservice-a77078", "operator": "United States Postal Service", "operator:short": "USPS", "operator:type": "public", "operator:wikidata": "Q668687", "ref": "2383400014"}, "type": "Feature"}
{"geometry": {"coordinates": [-77.4104069, 37.269958], "type": "Point"}, "id": "7ORtEMqOZUuwcIeVXAc_OgrBNLk=", "properties": {"@source_uri": "https://tools.usps.com/UspsToolsRestServices/rest/POLocator/findLocations", "@spider": "usps_collection_boxes", "addr:city": "COLONIAL HGTS", "addr:country": "US", "addr:postcode": "23834", "addr:state": "VA", "addr:street_address": "201 PICKETT AVE", "amenity": "post_box", "collection_times": "Mo-Fr 13:00; Sa 12:00", "note": "ON 12/24 AND 12/31, THIS BOX MAY BE COLLECTED AS EARLY AS 12 NOON.", "nsi_id": "unitedstatespostalservice-a77078", "operator": "United States Postal Service", "operator:short": "USPS", "operator:type": "public", "operator:wikidata": "Q668687", "ref": "2383400021"}, "type": "Feature"}
{"geometry": {"coordinates": [-77.410899104, 37.250936759], "type": "Point"}, "id": "FFtDTyNwsFohNkRsFkTOcjPxcDA=", "properties": {"@source_uri": "https://tools.usps.com/UspsToolsRestServices/rest/POLocator/findLocations", "@spider": "usps_collection_boxes", "addr:city": "COLONIAL HGTS", "addr:country": "US", "addr:postcode": "23834", "addr:state": "VA", "addr:street_address": "1205 BOULEVARD", "amenity": "post_box", "collection_times": "Mo-Fr 17:15; Sa 12:00", "note": "ON 12/24 AND 12/31, THIS BOX MAY BE COLLECTED AS EARLY AS 12 NOON.", "nsi_id": "unitedstatespostalservice-a77078", "operator": "United States Postal Service", "operator:short": "USPS", "operator:type": "public", "operator:wikidata": "Q668687", "ref": "2383400027"}, "type": "Feature"}
{"geometry": {"coordinates": [-77.4104175, 37.251036], "type": "Point"}, "id": "GhY34gfnRirUnRrJLAaM4LyymVY=", "properties": {"@source_uri": "https://tools.usps.com/UspsToolsRestServices/rest/POLocator/findLocations", "@spider": "usps_collection_boxes", "addr:city": "COLONIAL HGTS", "addr:country": "US", "addr:postcode": "23834", "addr:state": "VA", "addr:street_address": "1205 BOULEVARD", "amenity": "post_box", "collection_times": "Mo-Fr 17:15; Sa 14:30", "indoor": "yes", "note": "ON 12/24 AND 12/31, THIS BOX MAY BE COLLECTED AS EARLY AS 12 NOON.", "nsi_id": "unitedstatespostalservice-a77078", "operator": "United States Postal Service", "operator:short": "USPS", "operator:type": "public", "operator:wikidata": "Q668687", "ref": "2383400031"}, "type": "Feature"}
{"geometry": {"coordinates": [-77.3852535, 37.252287], "type": "Point"}, "id": "pvAo33yB_LbSZfmh0GBYUxLcIME=", "properties": {"@source_uri": "https://tools.usps.com/UspsToolsRestServices/rest/POLocator/findLocations", "@spider": "usps_collection_boxes", "addr:city": "COLONIAL HGTS", "addr:country": "US", "addr:postcode": "23834", "addr:state": "VA", "addr:street_address": "130 TEMPLE LAKE DR", "amenity": "post_box", "collection_times": "Mo-Sa 12:00", "nsi_id": "unitedstatespostalservice-a77078", "operator": "United States Postal Service", "operator:short": "USPS", "operator:type": "public", "operator:wikidata": "Q668687", "ref": "2383400033"}, "type": "Feature"}
{"geometry": {"coordinates": [-77.3852922, 37.27288], "type": "Point"}, "id": "Zhr-X6LRWe_UNW8-TWOxyuf2aPk=", "properties": {"@source_uri": "https://tools.usps.com/UspsToolsRestServices/rest/POLocator/findLocations", "@spider": "usps_collection_boxes", "addr:city": "COLONIAL HGTS", "addr:country": "US", "addr:postcode": "23834", "addr:state": "VA", "addr:street_address": "1214 RIVEROAKS DR", "amenity": "post_box", "collection_times": "Mo-Fr 13:00; Sa 12:00", "note": "ON 12/24 AND 12/31, THIS BOX MAY BE COLLECTED AS EARLY AS 12 NOON.", "nsi_id": "unitedstatespostalservice-a77078", "operator": "United States Postal Service", "operator:short": "USPS", "operator:type": "public", "operator:wikidata": "Q668687", "ref": "2383400034"}, "type": "Feature"}
{"geometry": {"coordinates": [-77.4104175, 37.251036], "type": "Point"}, "id": "ilWvj3mMAZ4C9URNQc71NdEX2Us=", "properties": {"@source_uri": "https://tools.usps.com/UspsToolsRestServices/rest/POLocator/findLocations", "@spider": "usps_collection_boxes", "addr:city": "COLONIAL HGTS", "addr:country": "US", "addr:postcode": "23834", "addr:state": "VA", "addr:street_address": "1205 BOULEVARD", "amenity": "post_box", "collection_times": "Mo-Fr 17:15; Sa 12:00", "name": "USPS COLLECTION BOX - APC", "note": "ON 12/24 AND 12/31, THIS BOX MAY BE COLLECTED AS EARLY AS 12 NOON.", "nsi_id": "unitedstatespostalservice-a77078", "operator": "United States Postal Service", "operator:short": "USPS", "operator:type": "public", "operator:wikidata": "Q668687", "ref": "2383400036"}, "type": "Feature"}
{"geometry": {"coordinates": [-77.410899104, 37.250936759], "type": "Point"}, "id": "nVkQVqoUInb6zPvaXXexvj5JtCM=", "properties": {"@source_uri": "https://tools.usps.com/UspsToolsRestServices/rest/POLocator/findLocations", "@spider": "usps_collection_boxes", "addr:city": "COLONIAL HGTS", "addr:country": "US", "addr:postcode": "23834", "addr:state": "VA", "addr:street_address": "1205 BOULEVARD", "amenity": "post_box", "collection_times": "Mo-Fr 17:00; Sa 12:00", "indoor": "yes", "note": "ON 12/24 AND 12/31, THIS BOX MAY BE COLLECTED AS EARLY AS 12 NOON.", "nsi_id": "unitedstatespostalservice-a77078", "operator": "United States Postal Service", "operator:short": "USPS", "operator:type": "public", "operator:wikidata": "Q668687", "ref": "2383400053"}, "type": "Feature"}
{"geometry": {"coordinates": [-77.3544995, 37.349655], "type": "Point"}, "id": "7XwFV5bSckEF75Zi8M8e6s9AUS4=", "properties": {"@source_uri": "https://tools.usps.com/UspsToolsRestServices/rest/POLocator/findLocations", "@spider": "usps_collection_boxes", "addr:city": "CHESTER VA", "addr:country": "US", "addr:postcode": "23836", "addr:state": "VA", "addr:street_address": "13209 RIVERS BEND BLVD", "amenity": "post_box", "collection_times": "Mo-Sa 10:00", "nsi_id": "unitedstatespostalservice-a77078", "operator": "United States Postal Service", "operator:short": "USPS", "operator:type": "public", "operator:wikidata": "Q668687", "ref": "2383600001"}, "type": "Feature"}
{"geometry": {"coordinates": [-77.068802281, 36.718249945], "type": "Point"}, "id": "SSLLAPAnccTYUuTpqmrmyv78Hck=", "properties": {"@source_uri": "https://tools.usps.com/UspsToolsRestServices/rest/POLocator/findLocations", "@spider": "usps_collection_boxes", "addr:city": "COURTLAND", "addr:country": "US", "addr:postcode": "23837", "addr:state": "VA", "addr:street_address": "22183 MAIN ST", "amenity": "post_box", "collection_times": "Mo-Fr 16:30; Sa 12:00", "note": "ON 12/24 AND 12/31, THIS BOX MAY BE COLLECTED AS EARLY AS 12 NOON.", "nsi_id": "unitedstatespostalservice-a77078", "operator": "United States Postal Service", "operator:short": "USPS", "operator:type": "public", "operator:wikidata": "Q668687", "ref": "2383700001"}, "type": "Feature"}
{"geometry": {"coordinates": [-77.068802281, 36.718249945], "type": "Point"}, "id": "DkwC8614Ycxwp6O53rY-8RC22xs=", "properties": {"@source_uri": "https://tools.usps.com/UspsToolsRestServices/rest/POLocator/findLocations", "@spider": "usps_collection_boxes", "addr:city": "COURTLAND", "addr:country": "US", "addr:postcode": "23837", "addr:state": "VA", "addr:street_address": "22183 MAIN ST", "amenity": "post_box", "collection_times": "Mo-Fr 16:30; Sa 12:00", "indoor": "yes", "note": "ON 12/24 AND 12/31, THIS BOX MAY BE COLLECTED AS EARLY AS 12 NOON.", "nsi_id": "unitedstatespostalservice-a77078", "operator": "United States Postal Service", "operator:short": "USPS", "operator:type": "public", "operator:wikidata": "Q668687", "ref": "2383700003"}, "type": "Feature"}
{"geometry": {"coordinates": [-77.068802281, 36.718249945], "type": "Point"}, "id": "FnWWvNVfNS5F8g5r8bbiLINWPT8=", "properties": {"@source_uri": "https://tools.usps.com/UspsToolsRestServices/rest/POLocator/findLocations", "@spider": "usps_collection_boxes", "addr:city": "COURTLAND", "addr:country": "US", "addr:postcode": "23837", "addr:state": "VA", "addr:street_address": "22183 MAIN ST", "amenity": "post_box", "collection_times": "Mo-Fr 16:30; Sa 12:00", "indoor": "yes", "note": "ON 12/24 AND 12/31, THIS BOX MAY BE COLLECTED AS EARLY AS 12 NOON.", "nsi_id": "unitedstatespostalservice-a77078", "operator": "United States Postal Service", "operator:short": "USPS", "operator:type": "public", "operator:wikidata": "Q668687", "ref": "2383700005"}, "type": "Feature"}
{"geometry": {"coordinates": [-77.642323771, 37.039779924], "type": "Point"}, "id": "v1aNvau02IygZc1UMY5N0L9Q6vk=", "properties": {"@source_uri": "https://tools.usps.com/UspsToolsRestServices/rest/POLocator/findLocations", "@spider": "usps_collection_boxes", "addr:city": "DEWITT", "addr:country": "US", "addr:postcode": "23840", "addr:state": "VA", "addr:street_address": "16907 BOYDTON PLANK RD", "amenity": "post_box", "collection_times": "Mo-Fr 16:15; Sa 11:00", "note": "ON 12/24 AND 12/31, THIS BOX MAY BE COLLECTED AS EARLY AS 12 NOON.", "nsi_id": "unitedstatespostalservice-a77078", "operator": "United States Postal Service", "operator:short": "USPS", "operator:type": "public", "operator:wikidata": "Q668687", "ref": "2384000001"}, "type": "Feature"}
{"geometry": {"coordinates": [-77.642323771, 37.039779924], "type": "Point"}, "id": "Wk513EPwe2bkJ4DkCSZS9ubhPic=", "properties": {"@source_uri": "https://tools.usps.com/UspsToolsRestServices/rest/POLocator/findLocations", "@spider": "usps_collection_boxes", "addr:city": "DEWITT", "addr:country": "US", "addr:postcode": "23840", "addr:state": "VA", "addr:street_address": "16907 BOYDTON PLANK RD", "amenity": "post_box", "collection_times": "Mo-Fr 16:15; Sa 11:00", "indoor": "yes", "note": "ON 12/24 AND 12/31, THIS BOX MAY BE COLLECTED AS EARLY AS 12 NOON.", "nsi_id": "unitedstatespostalservice-a77078", "operator": "United States Postal Service", "operator:short": "USPS", "operator:type": "public", "operator:wikidata": "Q668687", "ref": "2384000002"}, "type": "Feature"}
{"geometry": {"coordinates": [-77.642323771, 37.039779924], "type": "Point"}, "id": "y09ZsoIGo_UG7x7biBcMXqhkkKo=", "properties": {"@source_uri": "https://tools.usps.com/UspsToolsRestServices/rest/POLocator/findLocations", "@spider": "usps_collection_boxes", "addr:city": "DEWITT", "addr:country": "US", "addr:postcode": "23840", "addr:state": "VA", "addr:street_address": "16907 BOYDTON PLANK RD", "amenity": "post_box", "collection_times": "Mo-Fr 16:30; Sa 12:00", "indoor": "yes", "note": "ON 12/24 AND 12/31, THIS BOX MAY BE COLLECTED AS EARLY AS 12 NOON.", "nsi_id": "unitedstatespostalservice-a77078", "operator": "United States Postal Service", "operator:short": "USPS", "operator:type": "public", "operator:wikidata": "Q668687", "ref": "2384000004"}, "type": "Feature"}
{"geometry": {"coordinates": [-77.583236728, 37.073877686], "type": "Point"}, "id": "2r140erEMyeBcmWWnykUBYxSPLM=", "properties": {"@source_uri": "https://tools.usps.com/UspsToolsRestServices/rest/POLocator/findLocations", "@spider": "usps_collection_boxes", "addr:city": "DINWIDDIE", "addr:country": "US", "addr:postcode": "23841", "addr:state": "VA", "addr:street_address": "14416 COURTHOUSE RD", "amenity": "post_box", "collection_times": "Mo-Fr 16:30; Sa 11:30", "note": "ON 12/24 AND 12/31, THIS BOX MAY BE COLLECTED AS EARLY AS 12 NOON.", "nsi_id": "unitedstatespostalservice-a77078", "operator": "United States Postal Service", "operator:short": "USPS", "operator:type": "public", "operator:wikidata": "Q668687", "ref": "2384100001"}, "type": "Feature"}
{"geometry": {"coordinates": [-77.583236728, 37.073877686], "type": "Point"}, "id": "4wphslxC4kFh_Qolws15lzgm37c=", "properties": {"@source_uri": "https://tools.usps.com/UspsToolsRestServices/rest/POLocator/findLocations", "@spider": "usps_collection_boxes", "addr:city": "DINWIDDIE", "addr:country": "US", "addr:postcode": "23841", "addr:state": "VA", "addr:street_address": "14416 COURTHOUSE RD", "amenity": "post_box", "collection_times": "Mo-Fr 17:00; Sa 11:30", "indoor": "yes", "note": "ON 12/24 AND 12/31, THIS BOX MAY BE COLLECTED AS EARLY AS 12 NOON.", "nsi_id": "unitedstatespostalservice-a77078", "operator": "United States Postal Service", "operator:short": "USPS", "operator:type": "public", "operator:wikidata": "Q668687", "ref": "2384100002"}, "type": "Feature"}
{"geometry": {"coordinates": [-77.583236728, 37.073877686], "type": "Point"}, "id": "g_uJT9LGLSbyAyHxUFS5cHluFp8=", "properties": {"@source_uri": "https://tools.usps.com/UspsToolsRestServices/rest/POLocator/findLocations", "@spider": "usps_collection_boxes", "addr:city": "DINWIDDIE", "addr:country": "US", "addr:postcode": "23841", "addr:state": "VA", "addr:street_address": "14416 COURTHOUSE RD", "amenity": "post_box", "collection_times": "Mo-Fr 17:00; Sa 11:30", "indoor": "yes", "note": "ON 12/24 AND 12/31, THIS BOX MAY BE COLLECTED AS EARLY AS 12 NOON.", "nsi_id": "unitedstatespostalservice-a77078", "operator": "United States Postal Service", "operator:short": "USPS", "operator:type": "public", "operator:wikidata": "Q668687", "ref": "2384100004"}, "type": "Feature"}
{"geometry": {"coordinates": [-77.583236728, 37.073877686], "type": "Point"}, "id": "wtSAjY983aMKljUqEVZ7AuXsENk=", "properties": {"@source_uri": "https://tools.usps.com/UspsToolsRestServices/rest/POLocator/findLocations", "@spider": "usps_collection_boxes", "addr:city": "DINWIDDIE", "addr:country": "US", "addr:postcode": "23841", "addr:state": "VA", "addr:street_address": "14416 COURTHOUSE RD", "amenity": "post_box", "collection_times": "Mo-Fr 17:00; Sa 11:30", "indoor": "yes", "note": "ON 12/24 AND 12/31, THIS BOX MAY BE COLLECTED AS EARLY AS 12 NOON.", "nsi_id": "unitedstatespostalservice-a77078", "operator": "United States Postal Service", "operator:short": "USPS", "operator:type": "public", "operator:wikidata": "Q668687", "ref": "2384100005"}, "type": "Feature"}
{"geometry": {"coordinates": [-77.227357744, 37.124932539], "type": "Point"}, "id": "dQ2TVgPmTYZNG8u_ZO9e7TxspoY=", "properties": {"@source_uri": "https://tools.usps.com/UspsToolsRestServices/rest/POLocator/findLocations", "@spider": "usps_collection_boxes", "addr:city": "DISPUTANTA", "addr:country": "US", "addr:postcode": "23842", "addr:state": "VA", "addr:street_address": "10001 COUNTY DR", "amenity": "post_box", "collection_times": "Mo-Fr 17:00; Sa 10:30", "note": "ON 12/24 AND 12/31, THIS BOX MAY BE COLLECTED AS EARLY AS 12 NOON.", "nsi_id": "unitedstatespostalservice-a77078", "operator": "United States Postal Service", "operator:short": "USPS", "operator:type": "public", "operator:wikidata": "Q668687", "ref": "2384200002"}, "type": "Feature"}
{"geometry": {"coordinates": [-77.227357744, 37.124932539], "type": "Point"}, "id": "zYiXcAYMFutZ6irUO0YuJTFkBzY=", "properties": {"@source_uri": "https://tools.usps.com/UspsToolsRestServices/rest/POLocator/findLocations", "@spider": "usps_collection_boxes", "addr:city": "DISPUTANTA", "addr:country": "US", "addr:postcode": "23842", "addr:state": "VA", "addr:street_address": "10001 COUNTY DR", "amenity": "post_box", "collection_times": "Mo-Fr 17:00; Sa 10:30", "indoor": "yes", "note": "ON 12/24 AND 12/31, THIS BOX MAY BE COLLECTED AS EARLY AS 12 NOON.", "nsi_id": "unitedstatespostalservice-a77078", "operator": "United States Postal Service", "operator:short": "USPS", "operator:type": "public", "operator:wikidata": "Q668687", "ref": "2384200003"}, "type": "Feature"}
{"geometry": {"coordinates": [-77.227357744, 37.124932539], "type": "Point"}, "id": "Xxc83aB_fDALfYsvkLq2lzCS9is=", "properties": {"@source_uri": "https://tools.usps.com/UspsToolsRestServices/rest/POLocator/findLocations", "@spider": "usps_collection_boxes", "addr:city": "DISPUTANTA", "addr:country": "US", "addr:postcode": "23842", "addr:state": "VA", "addr:street_address": "10001 COUNTY DR", "amenity": "post_box", "collection_times": "Mo-Fr 17:00; Sa 10:30", "indoor": "yes", "note": "ON 12/24 AND 12/31, THIS BOX MAY BE COLLECTED AS EARLY AS 12 NOON.", "nsi_id": "unitedstatespostalservice-a77078", "operator": "United States Postal Service", "operator:short": "USPS", "operator:type": "public", "operator:wikidata": "Q668687", "ref": "2384200005"}, "type": "Feature"}
{"geometry": {"coordinates": [-77.786422, 36.827362], "type": "Point"}, "id": "fiJnp_NoGbN9f9nCjWUXS2JtDsI=", "properties": {"@source_uri": "https://tools.usps.com/UspsToolsRestServices/rest/POLocator/findLocations", "@spider": "usps_collection_boxes", "addr:city": "DOLPHIN", "addr:country": "US", "addr:postcode": "23843", "addr:state": "VA", "addr:street_address": "7593 LIBERTY RD", "amenity": "post_box", "collection_times": "Mo-Fr 16:15; Sa 11:15", "note": "ON 12/24 AND 12/31, THIS BOX MAY BE COLLECTED AS EARLY AS 12 NOON.", "nsi_id": "unitedstatespostalservice-a77078", "operator": "United States Postal Service", "operator:short": "USPS", "operator:type": "public", "operator:wikidata": "Q668687", "ref": "2384300001"}, "type": "Feature"}
{"geometry": {"coordinates": [-77.786422, 36.827362], "type": "Point"}, "id": "LO38uIYXnxwzYbIxDFkGQ8fYy_Y=", "properties": {"@source_uri": "https://tools.usps.com/UspsToolsRestServices/rest/POLocator/findLocations", "@spider": "usps_collection_boxes", "addr:city": "DOLPHIN", "addr:country": "US", "addr:postcode": "23843", "addr:state": "VA", "addr:street_address": "7593 LIBERTY RD", "amenity": "post_box", "collection_times": "Mo-Fr 16:15; Sa 11:15", "indoor": "yes", "note": "ON 12/24 AND 12/31, THIS BOX MAY BE COLLECTED AS EARLY AS 12 NOON.", "nsi_id": "unitedstatespostalservice-a77078", "operator": "United States Postal Service", "operator:short": "USPS", "operator:type": "public", "operator:wikidata": "Q668687", "ref": "2384300002"}, "type": "Feature"}
{"geometry": {"coordinates": [-77.7864393241, 36.827395403], "type": "Point"}, "id": "ryma11mQpXAq090FkHsW1MWNX6c=", "properties": {"@source_uri": "https://tools.usps.com/UspsToolsRestServices/rest/POLocator/findLocations", "@spider": "usps_collection_boxes", "addr:city": "DOLPHIN", "addr:country": "US", "addr:postcode": "23843", "addr:state": "VA", "addr:street_address": "7593 LIBERTY RD", "amenity": "post_box", "collection_times": "Mo-Fr 16:15; Sa 12:15", "indoor": "yes", "note": "ON 12/24 AND 12/31, THIS BOX MAY BE COLLECTED AS EARLY AS 12 NOON.", "nsi_id": "unitedstatespostalservice-a77078", "operator": "United States Postal Service", "operator:short": "USPS", "operator:type": "public", "operator:wikidata": "Q668687", "ref": "2384300004"}, "type": "Feature"}
{"geometry": {"coordinates": [-77.990551494, 36.581721318], "type": "Point"}, "id": "wMzUsgNAnwlbHBgbqd8ro1sJj1I=", "properties": {"@source_uri": "https://tools.usps.com/UspsToolsRestServices/rest/POLocator/findLocations", "@spider": "usps_collection_boxes", "addr:city": "EBONY", "addr:country": "US", "addr:postcode": "23845", "addr:state": "VA", "addr:street_address": "468 ROBINSON FERRY RD", "amenity": "post_box", "collection_times": "Mo-Fr 16:00; Sa 11:45", "indoor": "yes", "note": "ON 12/24 AND 12/31, THIS BOX MAY BE COLLECTED AS EARLY AS 12 NOON.", "nsi_id": "unitedstatespostalservice-a77078", "operator": "United States Postal Service", "operator:short": "USPS", "operator:type": "public", "operator:wikidata": "Q668687", "ref": "2384500002"}, "type": "Feature"}
{"geometry": {"coordinates": [-77.990551494, 36.581721318], "type": "Point"}, "id": "Nd9mYTyyCYU6wBnCEKdbdFHDxOU=", "properties": {"@source_uri": "https://tools.usps.com/UspsToolsRestServices/rest/POLocator/findLocations", "@spider": "usps_collection_boxes", "addr:city": "EBONY", "addr:country": "US", "addr:postcode": "23845", "addr:state": "VA", "addr:street_address": "468 ROBINSON FERRY RD", "amenity": "post_box", "collection_times": "Mo-Fr 16:30; Sa 12:00", "indoor": "yes", "note": "ON 12/24 AND 12/31, THIS BOX MAY BE COLLECTED AS EARLY AS 12 NOON.", "nsi_id": "unitedstatespostalservice-a77078", "operator": "United States Postal Service", "operator:short": "USPS", "operator:type": "public", "operator:wikidata": "Q668687", "ref": "2384500004"}, "type": "Feature"}
{"geometry": {"coordinates": [-77.5368199, 36.696189], "type": "Point"}, "id": "LPgAvv3uj5_dVLL0QuQ5Ohxn6zA=", "properties": {"@source_uri": "https://tools.usps.com/UspsToolsRestServices/rest/POLocator/findLocations", "@spider": "usps_collection_boxes", "addr:city": "EMPORIA", "addr:country": "US", "addr:postcode": "23847", "addr:state": "VA", "addr:street_address": "516 N MAIN ST", "amenity": "post_box", "collection_times": "Mo-Sa 10:00", "nsi_id": "unitedstatespostalservice-a77078", "operator": "United States Postal Service", "operator:short": "USPS", "operator:type": "public", "operator:wikidata": "Q668687", "ref": "2384700021"}, "type": "Feature"}
{"geometry": {"coordinates": [-77.5143341, 36.737094], "type": "Point"}, "id": "Wg1CTk-uLUn00y3g86tUAVcnTjo=", "properties": {"@source_uri": "https://tools.usps.com/UspsToolsRestServices/rest/POLocator/findLocations", "@spider": "usps_collection_boxes", "addr:city": "EMPORIA", "addr:country": "US", "addr:postcode": "23847", "addr:state": "VA", "addr:street_address": "1781 GREENSVILLE COUNTY CIR", "amenity": "post_box", "collection_times": "Mo-Fr 10:00", "nsi_id": "unitedstatespostalservice-a77078", "operator": "United States Postal Service", "operator:short": "USPS", "operator:type": "public", "operator:wikidata": "Q668687", "ref": "2384700024"}, "type": "Feature"}
{"geometry": {"coordinates": [-77.5426556, 36.686175], "type": "Point"}, "id": "tIgSogFPbWiZpIxueBnii60kILg=", "properties": {"@source_uri": "https://tools.usps.com/UspsToolsRestServices/rest/POLocator/findLocations", "@spider": "usps_collection_boxes", "addr:city": "EMPORIA", "addr:country": "US", "addr:postcode": "23847", "addr:state": "VA", "addr:street_address": "337 S MAIN ST", "amenity": "post_box", "collection_times": "Mo-Fr 11:00", "nsi_id": "unitedstatespostalservice-a77078", "operator": "United States Postal Service", "operator:short": "USPS", "operator:type": "public", "operator:wikidata": "Q668687", "ref": "2384700026"}, "type": "Feature"}
{"geometry": {"coordinates": [-77.540723388, 36.690914888], "type": "Point"}, "id": "OPzuC92sakBcjp6RdemfEeBNRvU=", "properties": {"@source_uri": "https://tools.usps.com/UspsToolsRestServices/rest/POLocator/findLocations", "@spider": "usps_collection_boxes", "addr:city": "EMPORIA", "addr:country": "US", "addr:postcode": "23847", "addr:state": "VA", "addr:street_address": "109 S MAIN ST", "amenity": "post_box", "collection_times": "Mo-Fr 16:45; Sa 12:00", "note": "ON 12/24 AND 12/31, THIS BOX MAY BE COLLECTED AS EARLY AS 12 NOON.", "nsi_id": "unitedstatespostalservice-a77078", "operator": "United States Postal Service", "operator:short": "USPS", "operator:type": "public", "operator:wikidata": "Q668687", "ref": "2384700027"}, "type": "Feature"}
{"geometry": {"coordinates": [-77.5270864, 36.689852], "type": "Point"}, "id": "QJFYDeX1QHpGD50nhlxZU2JSJmQ=", "properties": {"@source_uri": "https://tools.usps.com/UspsToolsRestServices/rest/POLocator/findLocations", "@spider": "usps_collection_boxes", "addr:city": "EMPORIA", "addr:country": "US", "addr:postcode": "23847", "addr:state": "VA", "addr:street_address": "1750 E ATLANTIC ST", "amenity": "post_box", "collection_times": "Mo-Fr 10:00", "nsi_id": "unitedstatespostalservice-a77078", "operator": "United States Postal Service", "operator:short": "USPS", "operator:type": "public", "operator:wikidata": "Q668687", "ref": "2384700034"}, "type": "Feature"}
{"geometry": {"coordinates": [-77.5372733, 36.701402], "type": "Point"}, "id": "QQNbxMbgXCe1ojAmbJtxRH3yDCY=", "properties": {"@source_uri": "https://tools.usps.com/UspsToolsRestServices/rest/POLocator/findLocations", "@spider": "usps_collection_boxes", "addr:city": "EMPORIA", "addr:country": "US", "addr:postcode": "23847", "addr:state": "VA", "addr:street_address": "727 N MAIN ST", "amenity": "post_box", "collection_times": "Mo-Sa 10:00", "nsi_id": "unitedstatespostalservice-a77078", "operator": "United States Postal Service", "operator:short": "USPS", "operator:type": "public", "operator:wikidata": "Q668687", "ref": "2384700035"}, "type": "Feature"}
{"geometry": {"coordinates": [-77.5388433, 36.694009], "type": "Point"}, "id": "ZxFpXDnXKLlgnfzKg8dyuvGLaIQ=", "properties": {"@source_uri": "https://tools.usps.com/UspsToolsRestServices/rest/POLocator/findLocations", "@spider": "usps_collection_boxes", "addr:city": "EMPORIA", "addr:country": "US", "addr:postcode": "23847", "addr:state": "VA", "addr:street_address": "320 N MAIN ST", "amenity": "post_box", "collection_times": "Mo-Sa 09:00", "nsi_id": "unitedstatespostalservice-a77078", "operator": "United States Postal Service", "operator:short": "USPS", "operator:type": "public", "operator:wikidata": "Q668687", "ref": "2384700042"}, "type": "Feature"}
{"geometry": {"coordinates": [-77.540723388, 36.690914888], "type": "Point"}, "id": "ORpXRlq0DNcgGvoOy6wDXjJb1to=", "properties": {"@source_uri": "https://tools.usps.com/UspsToolsRestServices/rest/POLocator/findLocations", "@spider": "usps_collection_boxes", "addr:city": "EMPORIA", "addr:country": "US", "addr:postcode": "23847", "addr:state": "VA", "addr:street_address": "109 S MAIN ST", "amenity": "post_box", "collection_times": "Mo-Fr 16:45; Sa 12:00", "indoor": "yes", "note": "ON 12/24 AND 12/31, THIS BOX MAY BE COLLECTED AS EARLY AS 12 NOON.", "nsi_id": "unitedstatespostalservice-a77078", "operator": "United States Postal Service", "operator:short": "USPS", "operator:type": "public", "operator:wikidata": "Q668687", "ref": "2384700043"}, "type": "Feature"}
{"geometry": {"coordinates": [-77.540723388, 36.690914888], "type": "Point"}, "id": "AvXBVDbN6b5uDi3sXfk8zKuphJg=", "properties": {"@source_uri": "https://tools.usps.com/UspsToolsRestServices/rest/POLocator/findLocations", "@spider": "usps_collection_boxes", "addr:city": "EMPORIA", "addr:country": "US", "addr:postcode": "23847", "addr:state": "VA", "addr:street_address": "109 S MAIN ST", "amenity": "post_box", "collection_times": "Mo-Fr 16:45; Sa 12:00", "indoor": "yes", "note": "ON 12/24 AND 12/31, THIS BOX MAY BE COLLECTED AS EARLY AS 12 NOON.", "nsi_id": "unitedstatespostalservice-a77078", "operator": "United States Postal Service", "operator:short": "USPS", "operator:type": "public", "operator:wikidata": "Q668687", "ref": "2384700044"}, "type": "Feature"}
{"geometry": {"coordinates": [-77.5532374, 36.704979], "type": "Point"}, "id": "DvMAAFIJsif8bdVjh7uBmBWWUw8=", "properties": {"@source_uri": "https://tools.usps.com/UspsToolsRestServices/rest/POLocator/findLocations", "@spider": "usps_collection_boxes", "addr:city": "EMPORIA", "addr:country": "US", "addr:postcode": "23847", "addr:state": "VA", "addr:street_address": "920 W ATLANTIC ST", "amenity": "post_box", "collection_times": "Mo-Fr 10:00", "nsi_id": "unitedstatespostalservice-a77078", "operator": "United States Postal Service", "operator:short": "USPS", "operator:type": "public", "operator:wikidata": "Q668687", "ref": "2384700045"}, "type": "Feature"}
{"geometry": {"coordinates": [-77.5365015, 36.693179], "type": "Point"}, "id": "_Lzvf1KBg1S7XYe0aWRaxEz0L6g=", "properties": {"@source_uri": "https://tools.usps.com/UspsToolsRestServices/rest/POLocator/findLocations", "@spider": "usps_collection_boxes", "addr:city": "EMPORIA", "addr:country": "US", "addr:postcode": "23847", "addr:state": "VA", "addr:street_address": "401 HALIFAX ST", "amenity": "post_box", "collection_times": "Mo-Sa 09:30", "nsi_id": "unitedstatespostalservice-a77078", "operator": "United States Postal Service", "operator:short": "USPS", "operator:type": "public", "operator:wikidata": "Q668687", "ref": "2384700063"}, "type": "Feature"}
{"geometry": {"coordinates": [-77.540723388, 36.690914888], "type": "Point"}, "id": "wpSA2QZyr55FLOKW6TnQW7kN4S0=", "properties": {"@source_uri": "https://tools.usps.com/UspsToolsRestServices/rest/POLocator/findLocations", "@spider": "usps_collection_boxes", "addr:city": "EMPORIA", "addr:country": "US", "addr:postcode": "23847", "addr:state": "VA", "addr:street_address": "109 S MAIN ST", "amenity": "post_box", "collection_times": "Mo-Fr 16:45; Sa 12:00", "indoor": "yes", "note": "ON 12/24 AND 12/31, THIS BOX MAY BE COLLECTED AS EARLY AS 12 NOON.", "nsi_id": "unitedstatespostalservice-a77078", "operator": "United States Postal Service", "operator:short": "USPS", "operator:type": "public", "operator:wikidata": "Q668687", "ref": "2384700067"}, "type": "Feature"}
{"geometry": {"coordinates": [-77.73133867, 37.147644398], "type": "Point"}, "id": "3gGS0O-eRaQGT5xjSTOJUJL6pvQ=", "properties": {"@source_uri": "https://tools.usps.com/UspsToolsRestServices/rest/POLocator/findLocations", "@spider": "usps_collection_boxes", "addr:city": "FORD", "addr:country": "US", "addr:postcode": "23850", "addr:state": "VA", "addr:street_address": "9109 BALTIMORE RD", "amenity": "post_box", "collection_times": "Mo-Fr 16:45; Sa 11:45", "note": "ON 12/24 AND 12/31, THIS BOX MAY BE COLLECTED AS EARLY AS 12 NOON.", "nsi_id": "unitedstatespostalservice-a77078", "operator": "United States Postal Service", "operator:short": "USPS", "operator:type": "public", "operator:wikidata": "Q668687", "ref": "2385000001"}, "type": "Feature"}
{"geometry": {"coordinates": [-77.73133867, 37.147644398], "type": "Point"}, "id": "Gu1UBGuiMJrhENBQuuGlYExMeAI=", "properties": {"@source_uri": "https://tools.usps.com/UspsToolsRestServices/rest/POLocator/findLocations", "@spider": "usps_collection_boxes", "addr:city": "FORD", "addr:country": "US", "addr:postcode": "23850", "addr:state": "VA", "addr:street_address": "9109 BALTIMORE RD", "amenity": "post_box", "collection_times": "Mo-Fr 16:45; Sa 11:45", "indoor": "yes", "note": "ON 12/24 AND 12/31, THIS BOX MAY BE COLLECTED AS EARLY AS 12 NOON.", "nsi_id": "unitedstatespostalservice-a77078", "operator": "United States Postal Service", "operator:short": "USPS", "operator:type": "public", "operator:wikidata": "Q668687", "ref": "2385000002"}, "type": "Feature"}
{"geometry": {"coordinates": [-77.73133867, 37.147644398], "type": "Point"}, "id": "_DvjFl4QWyAs_ZYPCcSk1FSKNK0=", "properties": {"@source_uri": "https://tools.usps.com/UspsToolsRestServices/rest/POLocator/findLocations", "@spider": "usps_collection_boxes", "addr:city": "FORD", "addr:country": "US", "addr:postcode": "23850", "addr:state": "VA", "addr:street_address": "9109 BALTIMORE RD", "amenity": "post_box", "collection_times": "Mo-Fr 16:45; Sa 12:15", "indoor": "yes", "note": "ON 12/24 AND 12/31, THIS BOX MAY BE COLLECTED AS EARLY AS 12 NOON.", "nsi_id": "unitedstatespostalservice-a77078", "operator": "United States Postal Service", "operator:short": "USPS", "operator:type": "public", "operator:wikidata": "Q668687", "ref": "2385000004"}, "type": "Feature"}
{"geometry": {"coordinates": [-76.9381524, 36.691622], "type": "Point"}, "id": "4isnhGGhAo9p6vZH_Gv0IpEa3_Y=", "properties": {"@source_uri": "https://tools.usps.com/UspsToolsRestServices/rest/POLocator/findLocations", "@spider": "usps_collection_boxes", "addr:city": "FRANKLIN", "addr:country": "US", "addr:postcode": "23851", "addr:state": "VA", "addr:street_address": "100 FAIRVIEW DR", "amenity": "post_box", "collection_times": "Mo-Fr 17:00; Sa 16:00", "note": "ON 12/24 AND 12/31, THIS BOX MAY BE COLLECTED AS EARLY AS 12 NOON.", "nsi_id": "unitedstatespostalservice-a77078", "operator": "United States Postal Service", "operator:short": "USPS", "operator:type": "public", "operator:wikidata": "Q668687", "ref": "2385100001"}, "type": "Feature"}
{"geometry": {"coordinates": [-76.9483544, 36.67124], "type": "Point"}, "id": "6UrVaeWp0Bsmf89kUqquqmv7z5A=", "properties": {"@source_uri": "https://tools.usps.com/UspsToolsRestServices/rest/POLocator/findLocations", "@spider": "usps_collection_boxes", "addr:city": "FRANKLIN", "addr:country": "US", "addr:postcode": "23851", "addr:state": "VA", "addr:street_address": "1350 ARMORY DR", "amenity": "post_box", "collection_times": "Mo-Fr 17:00; Sa 16:00", "note": "ON 12/24 AND 12/31, THIS BOX MAY BE COLLECTED AS EARLY AS 12 NOON.", "nsi_id": "unitedstatespostalservice-a77078", "operator": "United States Postal Service", "operator:short": "USPS", "operator:type": "public", "operator:wikidata": "Q668687", "ref": "2385100013"}, "type": "Feature"}
{"geometry": {"coordinates": [-76.925214034, 36.6799379823], "type": "Point"}, "id": "KzrFGB4VI449jZyz762fGL3h_iU=", "properties": {"@source_uri": "https://tools.usps.com/UspsToolsRestServices/rest/POLocator/findLocations", "@spider": "usps_collection_boxes", "addr:city": "FRANKLIN", "addr:country": "US", "addr:postcode": "23851", "addr:state": "VA", "addr:street_address": "519 N MAIN ST", "amenity": "post_box", "collection_times": "Mo-Fr 17:15; Sa 16:15", "note": "ON 12/24 AND 12/31, THIS BOX MAY BE COLLECTED AS EARLY AS 12 NOON.", "nsi_id": "unitedstatespostalservice-a77078", "operator": "United States Postal Service", "operator:short": "USPS", "operator:type": "public", "operator:wikidata": "Q668687", "ref": "2385100014"}, "type": "Feature"}
{"geometry": {"coordinates": [-76.9408009, 36.67327], "type": "Point"}, "id": "0l63Nf7Us9WmV-hrXPMHd1ukiWE=", "properties": {"@source_uri": "https://tools.usps.com/UspsToolsRestServices/rest/POLocator/findLocations", "@spider": "usps_collection_boxes", "addr:city": "FRANKLIN", "addr:country": "US", "addr:postcode": "23851", "addr:state": "VA", "addr:street_address": "1200 ARMORY DR", "amenity": "post_box", "collection_times": "Mo-Fr 17:00; Sa 16:00", "note": "ON 12/24 AND 12/31, THIS BOX MAY BE COLLECTED AS EARLY AS 12 NOON.", "nsi_id": "unitedstatespostalservice-a77078", "operator": "United States Postal Service", "operator:short": "USPS", "operator:type": "public", "operator:wikidata": "Q668687", "ref": "2385100015"}, "type": "Feature"}
{"geometry": {"coordinates": [-76.9222657, 36.677964], "type": "Point"}, "id": "mboeI2kd02ut7VXy6ILUhS38qKQ=", "properties": {"@source_uri": "https://tools.usps.com/UspsToolsRestServices/rest/POLocator/findLocations", "@spider": "usps_collection_boxes", "addr:city": "FRANKLIN", "addr:country": "US", "addr:postcode": "23851", "addr:state": "VA", "addr:street_address": "115 E 2ND AVE", "amenity": "post_box", "collection_times": "Mo-Fr 17:00; Sa 16:00", "note": "ON 12/24 AND 12/31, THIS BOX MAY BE COLLECTED AS EARLY AS 12 NOON.", "nsi_id": "unitedstatespostalservice-a77078", "operator": "United States Postal Service", "operator:short": "USPS", "operator:type": "public", "operator:wikidata": "Q668687", "ref": "2385100017"}, "type": "Feature"}
{"geometry": {"coordinates": [-76.924384286, 36.679671614], "type": "Point"}, "id": "kXonAaje7l7siFmfyp-Gx0WJNR0=", "properties": {"@source_uri": "https://tools.usps.com/UspsToolsRestServices/rest/POLocator/findLocations", "@spider": "usps_collection_boxes", "addr:city": "FRANKLIN", "addr:country": "US", "addr:postcode": "23851", "addr:state": "VA", "addr:street_address": "519 N MAIN ST", "amenity": "post_box", "collection_times": "Mo-Fr 17:15; Sa 16:15", "indoor": "yes", "note": "ON 12/24 AND 12/31, THIS BOX MAY BE COLLECTED AS EARLY AS 12 NOON.", "nsi_id": "unitedstatespostalservice-a77078", "operator": "United States Postal Service", "operator:short": "USPS", "operator:type": "public", "operator:wikidata": "Q668687", "ref": "2385100019"}, "type": "Feature"}
{"geometry": {"coordinates": [-76.924384286, 36.679671614], "type": "Point"}, "id": "IXjU0kqihKUH8utopEP0HjhCM2g=", "properties": {"@source_uri": "https://tools.usps.com/UspsToolsRestServices/rest/POLocator/findLocations", "@spider": "usps_collection_boxes", "addr:city": "FRANKLIN", "addr:country": "US", "addr:postcode": "23851", "addr:state": "VA", "addr:street_address": "519 N MAIN ST", "amenity": "post_box", "collection_times": "Mo-Fr 17:15; Sa 16:15", "indoor": "yes", "note": "ON 12/24 AND 12/31, THIS BOX MAY BE COLLECTED AS EARLY AS 12 NOON.", "nsi_id": "unitedstatespostalservice-a77078", "operator": "United States Postal Service", "operator:short": "USPS", "operator:type": "public", "operator:wikidata": "Q668687", "ref": "2385100020"}, "type": "Feature"}
{"geometry": {"coordinates": [-76.924384286, 36.679671614], "type": "Point"}, "id": "Fy79D2jKHFDfpnCcmlkgs0M0aF4=", "properties": {"@source_uri": "https://tools.usps.com/UspsToolsRestServices/rest/POLocator/findLocations", "@spider": "usps_collection_boxes", "addr:city": "FRANKLIN", "addr:country": "US", "addr:postcode": "23851", "addr:state": "VA", "addr:street_address": "519 N MAIN ST", "amenity": "post_box", "collection_times": "Mo-Fr 17:00; Sa 12:00", "indoor": "yes", "note": "ON 12/24 AND 12/31, THIS BOX MAY BE COLLECTED AS EARLY AS 12 NOON.", "nsi_id": "unitedstatespostalservice-a77078", "operator": "United States Postal Service", "operator:short": "USPS", "operator:type": "public", "operator:wikidata": "Q668687", "ref": "2385100022"}, "type": "Feature"}
{"geometry": {"coordinates": [-77.74754566, 36.773610367], "type": "Point"}, "id": "3RqcOjkqIDH_HxcGImwUtQi46OE=", "properties": {"@source_uri": "https://tools.usps.com/UspsToolsRestServices/rest/POLocator/findLocations", "@spider": "usps_collection_boxes", "addr:city": "FREEMAN", "addr:country": "US", "addr:postcode": "23856", "addr:state": "VA", "addr:street_address": "18031 GOVERNOR HARRISON PKWY", "amenity": "post_box", "collection_times": "Mo-Fr 16:30; Sa 11:00", "note": "ON 12/24 AND 12/31, THIS BOX MAY BE COLLECTED AS EARLY AS 12 NOON.", "nsi_id": "unitedstatespostalservice-a77078", "operator": "United States Postal Service", "operator:short": "USPS", "operator:type": "public", "operator:wikidata": "Q668687", "ref": "2385600001"}, "type": "Feature"}
{"geometry": {"coordinates": [-77.747524, 36.773575], "type": "Point"}, "id": "GQBWH0_W7b0izw4b20H2z39lZiA=", "properties": {"@source_uri": "https://tools.usps.com/UspsToolsRestServices/rest/POLocator/findLocations", "@spider": "usps_collection_boxes", "addr:city": "FREEMAN", "addr:country": "US", "addr:postcode": "23856", "addr:state": "VA", "addr:street_address": "18031 GOV HARRISON PKWY", "amenity": "post_box", "collection_times": "Mo-Fr 16:35; Sa 11:00", "indoor": "yes", "note": "ON 12/24 AND 12/31, THIS BOX MAY BE COLLECTED AS EARLY AS 12 NOON.", "nsi_id": "unitedstatespostalservice-a77078", "operator": "United States Postal Service", "operator:short": "USPS", "operator:type": "public", "operator:wikidata": "Q668687", "ref": "2385600002"}, "type": "Feature"}
{"geometry": {"coordinates": [-77.74754566, 36.773610367], "type": "Point"}, "id": "F8W3pbyoyyp69bq7HOGicJvCekU=", "properties": {"@source_uri": "https://tools.usps.com/UspsToolsRestServices/rest/POLocator/findLocations", "@spider": "usps_collection_boxes", "addr:city": "FREEMAN", "addr:country": "US", "addr:postcode": "23856", "addr:state": "VA", "addr:street_address": "18031 GOVERNOR HARRISON PKWY", "amenity": "post_box", "collection_times": "Mo-Fr 16:30; Sa 11:00", "indoor": "yes", "note": "ON 12/24 AND 12/31, THIS BOX MAY BE COLLECTED AS EARLY AS 12 NOON.", "nsi_id": "unitedstatespostalservice-a77078", "operator": "United States Postal Service", "operator:short": "USPS", "operator:type": "public", "operator:wikidata": "Q668687", "ref": "2385600004"}, "type": "Feature"}
{"geometry": {"coordinates": [-77.897031753, 36.567062513], "type": "Point"}, "id": "ahUR04r-fK2OuIWtCbhgpBWuoDo=", "properties": {"@source_uri": "https://tools.usps.com/UspsToolsRestServices/rest/POLocator/findLocations", "@spider": "usps_collection_boxes", "addr:city": "GASBURG", "addr:country": "US", "addr:postcode": "23857", "addr:state": "VA", "addr:street_address": "4205 GASBURG RD", "amenity": "post_box", "collection_times": "Mo-Fr 16:00; Sa 11:30", "note": "ON 12/24 AND 12/31, THIS BOX MAY BE COLLECTED AS EARLY AS 12 NOON.", "nsi_id": "unitedstatespostalservice-a77078", "operator": "United States Postal Service", "operator:short": "USPS", "operator:type": "public", "operator:wikidata": "Q668687", "ref": "2385700001"}, "type": "Feature"}
{"geometry": {"coordinates": [-77.897031753, 36.567062513], "type": "Point"}, "id": "qZSI1TufEroi2khJd7Bf9V0KdHs=", "properties": {"@source_uri": "https://tools.usps.com/UspsToolsRestServices/rest/POLocator/findLocations", "@spider": "usps_collection_boxes", "addr:city": "GASBURG", "addr:country": "US", "addr:postcode": "23857", "addr:state": "VA", "addr:street_address": "4205 GASBURG RD", "amenity": "post_box", "collection_times": "Mo-Fr 16:15; Sa 11:30", "indoor": "yes", "note": "ON 12/24 AND 12/31, THIS BOX MAY BE COLLECTED AS EARLY AS 12 NOON.", "nsi_id": "unitedstatespostalservice-a77078", "operator": "United States Postal Service", "operator:short": "USPS", "operator:type": "public", "operator:wikidata": "Q668687", "ref": "2385700002"}, "type": "Feature"}
{"geometry": {"coordinates": [-77.897031753, 36.567062513], "type": "Point"}, "id": "4k3g9vk474sjQtk6WWE4zcDN7zI=", "properties": {"@source_uri": "https://tools.usps.com/UspsToolsRestServices/rest/POLocator/findLocations", "@spider": "usps_collection_boxes", "addr:city": "GASBURG", "addr:country": "US", "addr:postcode": "23857", "addr:state": "VA", "addr:street_address": "4205 GASBURG RD", "amenity": "post_box", "collection_times": "Mo-Fr 16:30; Sa 12:15", "indoor": "yes", "note": "ON 12/24 AND 12/31, THIS BOX MAY BE COLLECTED AS EARLY AS 12 NOON.", "nsi_id": "unitedstatespostalservice-a77078", "operator": "United States Postal Service", "operator:short": "USPS", "operator:type": "public", "operator:wikidata": "Q668687", "ref": "2385700004"}, "type": "Feature"}
{"geometry": {"coordinates": [-77.28742395, 37.302764489], "type": "Point"}, "id": "JgyqkOANytAIka__3KY4Vdxeb90=", "properties": {"@source_uri": "https://tools.usps.com/UspsToolsRestServices/rest/POLocator/findLocations", "@spider": "usps_collection_boxes", "addr:city": "HOPEWELL", "addr:country": "US", "addr:postcode": "23860", "addr:state": "VA", "addr:street_address": "117 W POYTHRESS ST", "amenity": "post_box", "collection_times": "Mo-Fr 17:00; Sa 15:00", "note": "ON 12/24 AND 12/31, THIS BOX MAY BE COLLECTED AS EARLY AS 12 NOON.", "nsi_id": "unitedstatespostalservice-a77078", "operator": "United States Postal Service", "operator:short": "USPS", "operator:type": "public", "operator:wikidata": "Q668687", "ref": "2386000003"}, "type": "Feature"}
{"geometry": {"coordinates": [-77.2889374, 37.301391], "type": "Point"}, "id": "TvsN_2JyWedmPqTIQHnlZLzK0sk=", "properties": {"@source_uri": "https://tools.usps.com/UspsToolsRestServices/rest/POLocator/findLocations", "@spider": "usps_collection_boxes", "addr:city": "HOPEWELL", "addr:country": "US", "addr:postcode": "23860", "addr:state": "VA", "addr:street_address": "100 W CITY POINT RD", "amenity": "post_box", "collection_times": "Mo-Fr 16:00; Sa 14:00", "note": "ON 12/24 AND 12/31, THIS BOX MAY BE COLLECTED AS EARLY AS 12 NOON.", "nsi_id": "unitedstatespostalservice-a77078", "operator": "United States Postal Service", "operator:short": "USPS", "operator:type": "public", "operator:wikidata": "Q668687", "ref": "2386000010"}, "type": "Feature"}
{"geometry": {"coordinates": [-77.2902685, 37.307602], "type": "Point"}, "id": "lUQNmCypW6ySPw0P0NXvhhD4k1o=", "properties": {"@source_uri": "https://tools.usps.com/UspsToolsRestServices/rest/POLocator/findLocations", "@spider": "usps_collection_boxes", "addr:city": "HOPEWELL", "addr:country": "US", "addr:postcode": "23860", "addr:state": "VA", "addr:street_address": "409 EPPES ST", "amenity": "post_box", "collection_times": "Mo-Fr 16:00; Sa 14:00", "note": "ON 12/24 AND 12/31, THIS BOX MAY BE COLLECTED AS EARLY AS 12 NOON.", "nsi_id": "unitedstatespostalservice-a77078", "operator": "United States Postal Service", "operator:short": "USPS", "operator:type": "public", "operator:wikidata": "Q668687", "ref": "2386000012"}, "type": "Feature"}
{"geometry": {"coordinates": [-77.2864309, 37.304903], "type": "Point"}, "id": "AbfjT1tQEIUlAEZcPCMzoIxNy1k=", "properties": {"@source_uri": "https://tools.usps.com/UspsToolsRestServices/rest/POLocator/findLocations", "@spider": "usps_collection_boxes", "addr:city": "HOPEWELL", "addr:country": "US", "addr:postcode": "23860", "addr:state": "VA", "addr:street_address": "207 E CAWSON ST", "amenity": "post_box", "collection_times": "Mo-Fr 16:00; Sa 14:00", "note": "ON 12/24 AND 12/31, THIS BOX MAY BE COLLECTED AS EARLY AS 12 NOON.", "nsi_id": "unitedstatespostalservice-a77078", "operator": "United States Postal Service", "operator:short": "USPS", "operator:type": "public", "operator:wikidata": "Q668687", "ref": "2386000013"}, "type": "Feature"}
{"geometry": {"coordinates": [-77.2879152, 37.30425], "type": "Point"}, "id": "X9gCJKX9-WWl9cqyNE6DrEcDm9g=", "properties": {"@source_uri": "https://tools.usps.com/UspsToolsRestServices/rest/POLocator/findLocations", "@spider": "usps_collection_boxes", "addr:city": "HOPEWELL", "addr:country": "US", "addr:postcode": "23860", "addr:state": "VA", "addr:street_address": "300 N MAIN ST", "amenity": "post_box", "collection_times": "Mo-Fr 16:00; Sa 14:00", "note": "ON 12/24 AND 12/31, THIS BOX MAY BE COLLECTED AS EARLY AS 12 NOON.", "nsi_id": "unitedstatespostalservice-a77078", "operator": "United States Postal Service", "operator:short": "USPS", "operator:type": "public", "operator:wikidata": "Q668687", "ref": "2386000014"}, "type": "Feature"}
{"geometry": {"coordinates": [-77.287340126, 37.303189544], "type": "Point"}, "id": "5sjr_gVB_JLxF6Ha7z1W8FOs9rg=", "properties": {"@source_uri": "https://tools.usps.com/UspsToolsRestServices/rest/POLocator/findLocations", "@spider": "usps_collection_boxes", "addr:city": "HOPEWELL", "addr:country": "US", "addr:postcode": "23860", "addr:state": "VA", "addr:street_address": "210 N MAIN ST", "amenity": "post_box", "collection_times": "Mo-Fr 16:00; Sa 14:00", "note": "ON 12/24 AND 12/31, THIS BOX MAY BE COLLECTED AS EARLY AS 12 NOON.", "nsi_id": "unitedstatespostalservice-a77078", "operator": "United States Postal Service", "operator:short": "USPS", "operator:type": "public", "operator:wikidata": "Q668687", "ref": "2386000015"}, "type": "Feature"}
{"geometry": {"coordinates": [-77.2952487, 37.291865], "type": "Point"}, "id": "K5jDBwepWBjDRBzOdU4tenDAw8g=", "properties": {"@source_uri": "https://tools.usps.com/UspsToolsRestServices/rest/POLocator/findLocations", "@spider": "usps_collection_boxes", "addr:city": "HOPEWELL", "addr:country": "US", "addr:postcode": "23860", "addr:state": "VA", "addr:street_address": "105 CAVALIER SQ", "amenity": "post_box", "collection_times": "Mo-Fr 15:30; Sa 14:00", "note": "ON 12/24 AND 12/31, THIS BOX MAY BE COLLECTED AS EARLY AS 12 NOON.", "nsi_id": "unitedstatespostalservice-a77078", "operator": "United States Postal Service", "operator:short": "USPS", "operator:type": "public", "operator:wikidata": "Q668687", "ref": "2386000016"}, "type": "Feature"}
{"geometry": {"coordinates": [-77.3263188, 37.258502], "type": "Point"}, "id": "4oSEoSCjaIkkAeMwS5whJsLU1ps=", "properties": {"@source_uri": "https://tools.usps.com/UspsToolsRestServices/rest/POLocator/findLocations", "@spider": "usps_collection_boxes", "addr:city": "HOPEWELL", "addr:country": "US", "addr:postcode": "23860", "addr:state": "VA", "addr:street_address": "5280 OAKLAWN BLVD", "amenity": "post_box", "collection_times": "Mo-Fr 15:30; Sa 14:00", "note": "ON 12/24 AND 12/31, THIS BOX MAY BE COLLECTED AS EARLY AS 12 NOON.", "nsi_id": "unitedstatespostalservice-a77078", "operator": "United States Postal Service", "operator:short": "USPS", "operator:type": "public", "operator:wikidata": "Q668687", "ref": "2386000017"}, "type": "Feature"}
{"geometry": {"coordinates": [-77.2848169, 37.305753], "type": "Point"}, "id": "Vv0yRSxzfrZyan1ExccGlt4XktE=", "properties": {"@source_uri": "https://tools.usps.com/UspsToolsRestServices/rest/POLocator/findLocations", "@spider": "usps_collection_boxes", "addr:city": "HOPEWELL", "addr:country": "US", "addr:postcode": "23860", "addr:state": "VA", "addr:street_address": "316 E CAWSON ST", "amenity": "post_box", "collection_times": "Mo-Fr 16:00; Sa 14:00", "note": "ON 12/24 AND 12/31, THIS BOX MAY BE COLLECTED AS EARLY AS 12 NOON.", "nsi_id": "unitedstatespostalservice-a77078", "operator": "United States Postal Service", "operator:short": "USPS", "operator:type": "public", "operator:wikidata": "Q668687", "ref": "2386000019"}, "type": "Feature"}
{"geometry": {"coordinates": [-77.2932661, 37.303592], "type": "Point"}, "id": "GN7x2KCYzZtDMgwJzuyyqxqCIuA=", "properties": {"@source_uri": "https://tools.usps.com/UspsToolsRestServices/rest/POLocator/findLocations", "@spider": "usps_collection_boxes", "addr:city": "HOPEWELL", "addr:country": "US", "addr:postcode": "23860", "addr:state": "VA", "addr:street_address": "300 N 6TH AVE", "amenity": "post_box", "collection_times": "Mo-Fr 16:00; Sa 14:00", "note": "ON 12/24 AND 12/31, THIS BOX MAY BE COLLECTED AS EARLY AS 12 NOON.", "nsi_id": "unitedstatespostalservice-a77078", "operator": "United States Postal Service", "operator:short": "USPS", "operator:type": "public", "operator:wikidata": "Q668687", "ref": "2386000021"}, "type": "Feature"}
{"geometry": {"coordinates": [-77.28742395, 37.302764489], "type": "Point"}, "id": "bSz4ppouOgyDhoA4uJnxnl-Z2bo=", "properties": {"@source_uri": "https://tools.usps.com/UspsToolsRestServices/rest/POLocator/findLocations", "@spider": "usps_collection_boxes", "addr:city": "HOPEWELL", "addr:country": "US", "addr:postcode": "23860", "addr:state": "VA", "addr:street_address": "117 W POYTHRESS ST", "amenity": "post_box", "collection_times": "Mo-Fr 17:00; Sa 15:00", "indoor": "yes", "note": "ON 12/24 AND 12/31, THIS BOX MAY BE COLLECTED AS EARLY AS 12 NOON.", "nsi_id": "unitedstatespostalservice-a77078", "operator": "United States Postal Service", "operator:short": "USPS", "operator:type": "public", "operator:wikidata": "Q668687", "ref": "2386000024"}, "type": "Feature"}
{"geometry": {"coordinates": [-77.28742395, 37.302764489], "type": "Point"}, "id": "kxiM_U2Lu-0kjCkxdWR5JJl1I_c=", "properties": {"@source_uri": "https://tools.usps.com/UspsToolsRestServices/rest/POLocator/findLocations", "@spider": "usps_collection_boxes", "addr:city": "HOPEWELL", "addr:country": "US", "addr:postcode": "23860", "addr:state": "VA", "addr:street_address": "117 W POYTHRESS ST", "amenity": "post_box", "collection_times": "Mo-Fr 17:00; Sa 15:00", "indoor": "yes", "note": "ON 12/24 AND 12/31, THIS BOX MAY BE COLLECTED AS EARLY AS 12 NOON.", "nsi_id": "unitedstatespostalservice-a77078", "operator": "United States Postal Service", "operator:short": "USPS", "operator:type": "public", "operator:wikidata": "Q668687", "ref": "2386000025"}, "type": "Feature"}
{"geometry": {"coordinates": [-77.28742395, 37.302764489], "type": "Point"}, "id": "26b5-FFnxQ8G_G-xkyD81AFnVFw=", "properties": {"@source_uri": "https://tools.usps.com/UspsToolsRestServices/rest/POLocator/findLocations", "@spider": "usps_collection_boxes", "addr:city": "HOPEWELL", "addr:country": "US", "addr:postcode": "23860", "addr:state": "VA", "addr:street_address": "117 W POYTHRESS ST", "amenity": "post_box", "collection_times": "Mo-Fr 17:00; Sa 12:00", "indoor": "yes", "note": "ON 12/24 AND 12/31, THIS BOX MAY BE COLLECTED AS EARLY AS 12 NOON.", "nsi_id": "unitedstatespostalservice-a77078", "operator": "United States Postal Service", "operator:short": "USPS", "operator:type": "public", "operator:wikidata": "Q668687", "ref": "2386000027"}, "type": "Feature"}
{"geometry": {"coordinates": [-76.8964879945, 36.9063869989], "type": "Point"}, "id": "dPgR1TKQv_RGBsSTByYDp-iZZl8=", "properties": {"@source_uri": "https://tools.usps.com/UspsToolsRestServices/rest/POLocator/findLocations", "@spider": "usps_collection_boxes", "addr:city": "IVOR", "addr:country": "US", "addr:postcode": "23866", "addr:state": "VA", "addr:street_address": "8280 MAIN ST", "amenity": "post_box", "collection_times": "Mo-Fr 16:45; Sa 10:45", "note": "ON 12/24 AND 12/31, THIS BOX MAY BE COLLECTED AS EARLY AS 12 NOON.", "nsi_id": "unitedstatespostalservice-a77078", "operator": "United States Postal Service", "operator:short": "USPS", "operator:type": "public", "operator:wikidata": "Q668687", "ref": "2386600001"}, "type": "Feature"}
{"geometry": {"coordinates": [-76.896268139, 36.906184916], "type": "Point"}, "id": "JyeZkhr8RAp4NWQibOI5wNfmRFQ=", "properties": {"@source_uri": "https://tools.usps.com/UspsToolsRestServices/rest/POLocator/findLocations", "@spider": "usps_collection_boxes", "addr:city": "IVOR", "addr:country": "US", "addr:postcode": "23866", "addr:state": "VA", "addr:street_address": "8280 MAIN ST", "amenity": "post_box", "collection_times": "Mo-Fr 17:00; Sa 10:45", "indoor": "yes", "note": "ON 12/24 AND 12/31, THIS BOX MAY BE COLLECTED AS EARLY AS 12 NOON.", "nsi_id": "unitedstatespostalservice-a77078", "operator": "United States Postal Service", "operator:short": "USPS", "operator:type": "public", "operator:wikidata": "Q668687", "ref": "2386600002"}, "type": "Feature"}
{"geometry": {"coordinates": [-76.896268139, 36.906184916], "type": "Point"}, "id": "3qJEVvHSKnINVOcdz2iuYgS8RIE=", "properties": {"@source_uri": "https://tools.usps.com/UspsToolsRestServices/rest/POLocator/findLocations", "@spider": "usps_collection_boxes", "addr:city": "IVOR", "addr:country": "US", "addr:postcode": "23866", "addr:state": "VA", "addr:street_address": "8280 MAIN ST", "amenity": "post_box", "collection_times": "Mo-Fr 16:45; Sa 10:30", "indoor": "yes", "note": "ON 12/24 AND 12/31, THIS BOX MAY BE COLLECTED AS EARLY AS 12 NOON.", "nsi_id": "unitedstatespostalservice-a77078", "operator": "United States Postal Service", "operator:short": "USPS", "operator:type": "public", "operator:wikidata": "Q668687", "ref": "2386600004"}, "type": "Feature"}
{"geometry": {"coordinates": [-77.469427302, 36.814998564], "type": "Point"}, "id": "6PK4PoOmSJ16tWYC_PRRwBXrY0Y=", "properties": {"@source_uri": "https://tools.usps.com/UspsToolsRestServices/rest/POLocator/findLocations", "@spider": "usps_collection_boxes", "addr:city": "JARRATT", "addr:country": "US", "addr:postcode": "23867", "addr:state": "VA", "addr:street_address": "215 JARRATT AVE", "amenity": "post_box", "collection_times": "Mo-Fr 16:15; Sa 11:30", "note": "ON 12/24 AND 12/31, THIS BOX MAY BE COLLECTED AS EARLY AS 12 NOON.", "nsi_id": "unitedstatespostalservice-a77078", "operator": "United States Postal Service", "operator:short": "USPS", "operator:type": "public", "operator:wikidata": "Q668687", "ref": "2386700001"}, "type": "Feature"}
{"geometry": {"coordinates": [-77.469427302, 36.814998564], "type": "Point"}, "id": "PYxWsnNcNYOEHdF1AdYLRxLj6WU=", "properties": {"@source_uri": "https://tools.usps.com/UspsToolsRestServices/rest/POLocator/findLocations", "@spider": "usps_collection_boxes", "addr:city": "JARRATT", "addr:country": "US", "addr:postcode": "23867", "addr:state": "VA", "addr:street_address": "215 JARRATT AVE", "amenity": "post_box", "collection_times": "Mo-Fr 16:30; Sa 11:45", "indoor": "yes", "note": "ON 12/24 AND 12/31, THIS BOX MAY BE COLLECTED AS EARLY AS 12 NOON.", "nsi_id": "unitedstatespostalservice-a77078", "operator": "United States Postal Service", "operator:short": "USPS", "operator:type": "public", "operator:wikidata": "Q668687", "ref": "2386700002"}, "type": "Feature"}
{"geometry": {"coordinates": [-77.469427302, 36.814998564], "type": "Point"}, "id": "BnbytZyxWblsznO6FLWfZ4AB01g=", "properties": {"@source_uri": "https://tools.usps.com/UspsToolsRestServices/rest/POLocator/findLocations", "@spider": "usps_collection_boxes", "addr:city": "JARRATT", "addr:country": "US", "addr:postcode": "23867", "addr:state": "VA", "addr:street_address": "215 JARRATT AVE", "amenity": "post_box", "collection_times": "Mo-Fr 16:30; Sa 11:30", "indoor": "yes", "note": "ON 12/24 AND 12/31, THIS BOX MAY BE COLLECTED AS EARLY AS 12 NOON.", "nsi_id": "unitedstatespostalservice-a77078", "operator": "United States Postal Service", "operator:short": "USPS", "operator:type": "public", "operator:wikidata": "Q668687", "ref": "2386700004"}, "type": "Feature"}
{"geometry": {"coordinates": [-77.8461779126, 36.7585784727], "type": "Point"}, "id": "tulWWEzO-5io-r6MpDzkiMymCdA=", "properties": {"@source_uri": "https://tools.usps.com/UspsToolsRestServices/rest/POLocator/findLocations", "@spider": "usps_collection_boxes", "addr:city": "LAWRENCEVILLE", "addr:country": "US", "addr:postcode": "23868", "addr:state": "VA", "addr:street_address": "100 TOBACCO ST", "amenity": "post_box", "collection_times": "Mo-Fr 10:30", "nsi_id": "unitedstatespostalservice-a77078", "operator": "United States Postal Service", "operator:short": "USPS", "operator:type": "public", "operator:wikidata": "Q668687", "ref": "2386800004"}, "type": "Feature"}
{"geometry": {"coordinates": [-77.8469937193, 36.7578864647], "type": "Point"}, "id": "eJZ5UoIqNU9E2leqGAG_Qa8AhPY=", "properties": {"@source_uri": "https://tools.usps.com/UspsToolsRestServices/rest/POLocator/findLocations", "@spider": "usps_collection_boxes", "addr:city": "LAWRENCEVILLE", "addr:country": "US", "addr:postcode": "23868", "addr:state": "VA", "addr:street_address": "205 N MAIN ST", "amenity": "post_box", "collection_times": "Mo-Fr 10:30", "nsi_id": "unitedstatespostalservice-a77078", "operator": "United States Postal Service", "operator:short": "USPS", "operator:type": "public", "operator:wikidata": "Q668687", "ref": "2386800007"}, "type": "Feature"}
{"geometry": {"coordinates": [-77.8510035, 36.75474], "type": "Point"}, "id": "cE4i8U0nBWX1j0azydAzrPh7BAE=", "properties": {"@source_uri": "https://tools.usps.com/UspsToolsRestServices/rest/POLocator/findLocations", "@spider": "usps_collection_boxes", "addr:city": "LAWRENCEVILLE", "addr:country": "US", "addr:postcode": "23868", "addr:state": "VA", "addr:street_address": "409 S HICKS ST", "amenity": "post_box", "collection_times": "Mo-Fr 17:00; Sa 11:00", "note": "ON 12/24 AND 12/31, THIS BOX MAY BE COLLECTED AS EARLY AS 12 NOON.", "nsi_id": "unitedstatespostalservice-a77078", "operator": "United States Postal Service", "operator:short": "USPS", "operator:type": "public", "operator:wikidata": "Q668687", "ref": "2386800008"}, "type": "Feature"}
{"geometry": {"coordinates": [-77.850495628, 36.754745592], "type": "Point"}, "id": "jRQ21Qayse4jRFhaSiDgZyJRDf4=", "properties": {"@source_uri": "https://tools.usps.com/UspsToolsRestServices/rest/POLocator/findLocations", "@spider": "usps_collection_boxes", "addr:city": "LAWRENCEVILLE", "addr:country": "US", "addr:postcode": "23868", "addr:state": "VA", "addr:street_address": "409 S HICKS ST", "amenity": "post_box", "collection_times": "Mo-Fr 17:00; Sa 11:00", "indoor": "yes", "note": "ON 12/24 AND 12/31, THIS BOX MAY BE COLLECTED AS EARLY AS 12 NOON.", "nsi_id": "unitedstatespostalservice-a77078", "operator": "United States Postal Service", "operator:short": "USPS", "operator:type": "public", "operator:wikidata": "Q668687", "ref": "2386800011"}, "type": "Feature"}
{"geometry": {"coordinates": [-77.850495628, 36.754745592], "type": "Point"}, "id": "WaaaBQYDw0Gd-4HHKRb9aTKW4qs=", "properties": {"@source_uri": "https://tools.usps.com/UspsToolsRestServices/rest/POLocator/findLocations", "@spider": "usps_collection_boxes", "addr:city": "LAWRENCEVILLE", "addr:country": "US", "addr:postcode": "23868", "addr:state": "VA", "addr:street_address": "409 S HICKS ST", "amenity": "post_box", "collection_times": "Mo-Fr 17:00; Sa 11:00", "indoor": "yes", "note": "ON 12/24 AND 12/31, THIS BOX MAY BE COLLECTED AS EARLY AS 12 NOON.", "nsi_id": "unitedstatespostalservice-a77078", "operator": "United States Postal Service", "operator:short": "USPS", "operator:type": "public", "operator:wikidata": "Q668687", "ref": "2386800012"}, "type": "Feature"}
{"geometry": {"coordinates": [-77.850495628, 36.754745592], "type": "Point"}, "id": "Xs22XN1m3V8AOY1KNhTGfL3-g34=", "properties": {"@source_uri": "https://tools.usps.com/UspsToolsRestServices/rest/POLocator/findLocations", "@spider": "usps_collection_boxes", "addr:city": "LAWRENCEVILLE", "addr:country": "US", "addr:postcode": "23868", "addr:state": "VA", "addr:street_address": "409 S HICKS ST", "amenity": "post_box", "collection_times": "Mo-Fr 17:00; Sa 11:00", "indoor": "yes", "note": "ON 12/24 AND 12/31, THIS BOX MAY BE COLLECTED AS EARLY AS 12 NOON.", "nsi_id": "unitedstatespostalservice-a77078", "operator": "United States Postal Service", "operator:short": "USPS", "operator:type": "public", "operator:wikidata": "Q668687", "ref": "2386800017"}, "type": "Feature"}
{"geometry": {"coordinates": [-77.721656728, 36.987331913], "type": "Point"}, "id": "hh-b_eXPfje3GyR2h0WECIeddms=", "properties": {"@source_uri": "https://tools.usps.com/UspsToolsRestServices/rest/POLocator/findLocations", "@spider": "usps_collection_boxes", "addr:city": "MCKENNEY", "addr:country": "US", "addr:postcode": "23872", "addr:state": "VA", "addr:street_address": "10504 RIVES AVE", "amenity": "post_box", "collection_times": "Mo-Fr 16:30; Sa 10:00", "note": "ON 12/24 AND 12/31, THIS BOX MAY BE COLLECTED AS EARLY AS 12 NOON.", "nsi_id": "unitedstatespostalservice-a77078", "operator": "United States Postal Service", "operator:short": "USPS", "operator:type": "public", "operator:wikidata": "Q668687", "ref": "2387200001"}, "type": "Feature"}
{"geometry": {"coordinates": [-77.721656728, 36.987331913], "type": "Point"}, "id": "4MIBZApzM05eEDvASmjT5Imq6OI=", "properties": {"@source_uri": "https://tools.usps.com/UspsToolsRestServices/rest/POLocator/findLocations", "@spider": "usps_collection_boxes", "addr:city": "MCKENNEY", "addr:country": "US", "addr:postcode": "23872", "addr:state": "VA", "addr:street_address": "10504 RIVES AVE", "amenity": "post_box", "collection_times": "Mo-Fr 16:30; Sa 10:00", "indoor": "yes", "note": "ON 12/24 AND 12/31, THIS BOX MAY BE COLLECTED AS EARLY AS 12 NOON.", "nsi_id": "unitedstatespostalservice-a77078", "operator": "United States Postal Service", "operator:short": "USPS", "operator:type": "public", "operator:wikidata": "Q668687", "ref": "2387200002"}, "type": "Feature"}
{"geometry": {"coordinates": [-77.721656728, 36.987331913], "type": "Point"}, "id": "M8Kx_sWAV2jSXV5XqYNNnwGWxs8=", "properties": {"@source_uri": "https://tools.usps.com/UspsToolsRestServices/rest/POLocator/findLocations", "@spider": "usps_collection_boxes", "addr:city": "MCKENNEY", "addr:country": "US", "addr:postcode": "23872", "addr:state": "VA", "addr:street_address": "10504 RIVES AVE", "amenity": "post_box", "collection_times": "Mo-Fr 16:30; Sa 10:00", "indoor": "yes", "note": "ON 12/24 AND 12/31, THIS BOX MAY BE COLLECTED AS EARLY AS 12 NOON.", "nsi_id": "unitedstatespostalservice-a77078", "operator": "United States Postal Service", "operator:short": "USPS", "operator:type": "public", "operator:wikidata": "Q668687", "ref": "2387200004"}, "type": "Feature"}
{"geometry": {"coordinates": [-77.956115833, 36.807675339], "type": "Point"}, "id": "KKCkfLrtLVYdY75WVCwTOtG3UF8=", "properties": {"@source_uri": "https://tools.usps.com/UspsToolsRestServices/rest/POLocator/findLocations", "@spider": "usps_collection_boxes", "addr:city": "MEREDITHVILLE", "addr:country": "US", "addr:postcode": "23873", "addr:state": "VA", "addr:street_address": "4771 BOYDTON PLANK RD", "amenity": "post_box", "collection_times": "Mo-Sa 11:30", "nsi_id": "unitedstatespostalservice-a77078", "operator": "United States Postal Service", "operator:short": "USPS", "operator:type": "public", "operator:wikidata": "Q668687", "ref": "2387300001"}, "type": "Feature"}
{"geometry": {"coordinates": [-77.956115833, 36.807675339], "type": "Point"}, "id": "0nDe1XFvG3K3B6p6Ciuob6qmT8I=", "properties": {"@source_uri": "https://tools.usps.com/UspsToolsRestServices/rest/POLocator/findLocations", "@spider": "usps_collection_boxes", "addr:city": "MEREDITHVILLE", "addr:country": "US", "addr:postcode": "23873", "addr:state": "VA", "addr:street_address": "4771 BOYDTON PLANK RD", "amenity": "post_box", "collection_times": "Mo-Sa 12:00", "indoor": "yes", "nsi_id": "unitedstatespostalservice-a77078", "operator": "United States Postal Service", "operator:short": "USPS", "operator:type": "public", "operator:wikidata": "Q668687", "ref": "2387300003"}, "type": "Feature"}
{"geometry": {"coordinates": [-77.123798847, 36.62306736], "type": "Point"}, "id": "x0ko9SHPA8PPYS1I8y7S1bakc6A=", "properties": {"@source_uri": "https://tools.usps.com/UspsToolsRestServices/rest/POLocator/findLocations", "@spider": "usps_collection_boxes", "addr:city": "NEWSOMS", "addr:country": "US", "addr:postcode": "23874", "addr:state": "VA", "addr:street_address": "29174 S MAIN ST", "amenity": "post_box", "collection_times": "Mo-Fr 16:15; Sa 11:00", "note": "ON 12/24 AND 12/31, THIS BOX MAY BE COLLECTED AS EARLY AS 12 NOON.", "nsi_id": "unitedstatespostalservice-a77078", "operator": "United States Postal Service", "operator:short": "USPS", "operator:type": "public", "operator:wikidata": "Q668687", "ref": "2387400001"}, "type": "Feature"}
{"geometry": {"coordinates": [-77.123798847, 36.62306736], "type": "Point"}, "id": "WlNzkxI55esLXoa1D4aijo1-7C0=", "properties": {"@source_uri": "https://tools.usps.com/UspsToolsRestServices/rest/POLocator/findLocations", "@spider": "usps_collection_boxes", "addr:city": "NEWSOMS", "addr:country": "US", "addr:postcode": "23874", "addr:state": "VA", "addr:street_address": "29174 S MAIN ST", "amenity": "post_box", "collection_times": "Mo-Fr 16:15; Sa 11:00", "indoor": "yes", "note": "ON 12/24 AND 12/31, THIS BOX MAY BE COLLECTED AS EARLY AS 12 NOON.", "nsi_id": "unitedstatespostalservice-a77078", "operator": "United States Postal Service", "operator:short": "USPS", "operator:type": "public", "operator:wikidata": "Q668687", "ref": "2387400002"}, "type": "Feature"}
{"geometry": {"coordinates": [-77.123798847, 36.62306736], "type": "Point"}, "id": "5UNukrPyRGtDB12cPwa9wPJZ9z8=", "properties": {"@source_uri": "https://tools.usps.com/UspsToolsRestServices/rest/POLocator/findLocations", "@spider": "usps_collection_boxes", "addr:city": "NEWSOMS", "addr:country": "US", "addr:postcode": "23874", "addr:state": "VA", "addr:street_address": "29174 S MAIN ST", "amenity": "post_box", "collection_times": "Mo-Fr 16:30; Sa 11:00", "indoor": "yes", "note": "ON 12/24 AND 12/31, THIS BOX MAY BE COLLECTED AS EARLY AS 12 NOON.", "nsi_id": "unitedstatespostalservice-a77078", "operator": "United States Postal Service", "operator:short": "USPS", "operator:type": "public", "operator:wikidata": "Q668687", "ref": "2387400004"}, "type": "Feature"}
{"geometry": {"coordinates": [-77.285326578, 37.222458027], "type": "Point"}, "id": "EJQE1w9GND91RDW59lfQqhjlJiM=", "properties": {"@source_uri": "https://tools.usps.com/UspsToolsRestServices/rest/POLocator/findLocations", "@spider": "usps_collection_boxes", "addr:city": "PRINCE GEORGE", "addr:country": "US", "addr:postcode": "23875", "addr:state": "VA", "addr:street_address": "6605 COURTHOUSE RD", "amenity": "post_box", "collection_times": "Mo-Fr 17:00; Sa 11:30", "note": "ON 12/24 AND 12/31, THIS BOX MAY BE COLLECTED AS EARLY AS 12 NOON.", "nsi_id": "unitedstatespostalservice-a77078", "operator": "United States Postal Service", "operator:short": "USPS", "operator:type": "public", "operator:wikidata": "Q668687", "ref": "2387500001"}, "type": "Feature"}
{"geometry": {"coordinates": [-77.2846520028, 37.2224119898], "type": "Point"}, "id": "g11Low9efugs7N_mwu4Y4x2FFSQ=", "properties": {"@source_uri": "https://tools.usps.com/UspsToolsRestServices/rest/POLocator/findLocations", "@spider": "usps_collection_boxes", "addr:city": "PRINCE GEORGE", "addr:country": "US", "addr:postcode": "23875", "addr:state": "VA", "addr:street_address": "6605 COURTHOUSE RD", "amenity": "post_box", "collection_times": "Mo-Fr 17:00; Sa 11:30", "note": "ON 12/24 AND 12/31, THIS BOX MAY BE COLLECTED AS EARLY AS 12 NOON.", "nsi_id": "unitedstatespostalservice-a77078", "operator": "United States Postal Service", "operator:short": "USPS", "operator:type": "public", "operator:wikidata": "Q668687", "ref": "2387500003"}, "type": "Feature"}
{"geometry": {"coordinates": [-77.285326578, 37.222458027], "type": "Point"}, "id": "aLDrBruxuv6qLDsG126UdkjDEoo=", "properties": {"@source_uri": "https://tools.usps.com/UspsToolsRestServices/rest/POLocator/findLocations", "@spider": "usps_collection_boxes", "addr:city": "PRINCE GEORGE", "addr:country": "US", "addr:postcode": "23875", "addr:state": "VA", "addr:street_address": "6605 COURTHOUSE RD", "amenity": "post_box", "collection_times": "Mo-Fr 17:00; Sa 11:30", "indoor": "yes", "note": "ON 12/24 AND 12/31, THIS BOX MAY BE COLLECTED AS EARLY AS 12 NOON.", "nsi_id": "unitedstatespostalservice-a77078", "operator": "United States Postal Service", "operator:short": "USPS", "operator:type": "public", "operator:wikidata": "Q668687", "ref": "2387500004"}, "type": "Feature"}
{"geometry": {"coordinates": [-77.2847209858, 37.2224290051], "type": "Point"}, "id": "b2DvD0RwWU2UqD3hHJH944FDRA8=", "properties": {"@source_uri": "https://tools.usps.com/UspsToolsRestServices/rest/POLocator/findLocations", "@spider": "usps_collection_boxes", "addr:city": "PRINCE GEORGE", "addr:country": "US", "addr:postcode": "23875", "addr:state": "VA", "addr:street_address": "6605 COURTHOUSE ROAD", "amenity": "post_box", "collection_times": "Mo-Fr 17:00; Sa 11:30", "indoor": "yes", "note": "ON 12/24 AND 12/31, THIS BOX MAY BE COLLECTED AS EARLY AS 12 NOON.", "nsi_id": "unitedstatespostalservice-a77078", "operator": "United States Postal Service", "operator:short": "USPS", "operator:type": "public", "operator:wikidata": "Q668687", "ref": "2387500006"}, "type": "Feature"}
{"geometry": {"coordinates": [-77.2847209858, 37.2224290051], "type": "Point"}, "id": "BN8roaEGGiyBmnO4m44EY5B6cyM=", "properties": {"@source_uri": "https://tools.usps.com/UspsToolsRestServices/rest/POLocator/findLocations", "@spider": "usps_collection_boxes", "addr:city": "PRINCE GEORGE", "addr:country": "US", "addr:postcode": "23875", "addr:state": "VA", "addr:street_address": "6605 COURTHOUSE ROAD", "amenity": "post_box", "collection_times": "Mo-Fr 17:00; Sa 11:30", "indoor": "yes", "note": "ON 12/24 AND 12/31, THIS BOX MAY BE COLLECTED AS EARLY AS 12 NOON.", "nsi_id": "unitedstatespostalservice-a77078", "operator": "United States Postal Service", "operator:short": "USPS", "operator:type": "public", "operator:wikidata": "Q668687", "ref": "2387500007"}, "type": "Feature"}
{"geometry": {"coordinates": [-77.285326578, 37.222458027], "type": "Point"}, "id": "2eapMWT9mgr4NyIlQvstxGifuyQ=", "properties": {"@source_uri": "https://tools.usps.com/UspsToolsRestServices/rest/POLocator/findLocations", "@spider": "usps_collection_boxes", "addr:city": "PRINCE GEORGE", "addr:country": "US", "addr:postcode": "23875", "addr:state": "VA", "addr:street_address": "6605 COURTHOUSE RD", "amenity": "post_box", "collection_times": "Mo-Fr 17:00; Sa 11:30", "indoor": "yes", "note": "ON 12/24 AND 12/31, THIS BOX MAY BE COLLECTED AS EARLY AS 12 NOON.", "nsi_id": "unitedstatespostalservice-a77078", "operator": "United States Postal Service", "operator:short": "USPS", "operator:type": "public", "operator:wikidata": "Q668687", "ref": "2387500008"}, "type": "Feature"}
{"geometry": {"coordinates": [-77.7756519885, 36.9454060155], "type": "Point"}, "id": "7EWdlaPq_iRqW5dhhk6n2xAmZuI=", "properties": {"@source_uri": "https://tools.usps.com/UspsToolsRestServices/rest/POLocator/findLocations", "@spider": "usps_collection_boxes", "addr:city": "RAWLINGS", "addr:country": "US", "addr:postcode": "23876", "addr:state": "VA", "addr:street_address": "4818 RAWLINGS RD", "amenity": "post_box", "collection_times": "Mo-Fr 16:15; Sa 11:15", "note": "ON 12/24 AND 12/31, THIS BOX MAY BE COLLECTED AS EARLY AS 12 NOON.", "nsi_id": "unitedstatespostalservice-a77078", "operator": "United States Postal Service", "operator:short": "USPS", "operator:type": "public", "operator:wikidata": "Q668687", "ref": "2387600001"}, "type": "Feature"}
{"geometry": {"coordinates": [-77.775502864, 36.945448669], "type": "Point"}, "id": "vclaVkqI4ah1-YQkAp7JTvTnbYU=", "properties": {"@source_uri": "https://tools.usps.com/UspsToolsRestServices/rest/POLocator/findLocations", "@spider": "usps_collection_boxes", "addr:city": "RAWLINGS", "addr:country": "US", "addr:postcode": "23876", "addr:state": "VA", "addr:street_address": "4818 RAWLINGS RD", "amenity": "post_box", "collection_times": "Mo-Fr 16:15; Sa 12:45", "indoor": "yes", "note": "ON 12/24 AND 12/31, THIS BOX MAY BE COLLECTED AS EARLY AS 12 NOON.", "nsi_id": "unitedstatespostalservice-a77078", "operator": "United States Postal Service", "operator:short": "USPS", "operator:type": "public", "operator:wikidata": "Q668687", "ref": "2387600003"}, "type": "Feature"}
{"geometry": {"coordinates": [-76.984176838, 36.775665], "type": "Point"}, "id": "13zD1XVrd_ZA1FXiitmAKFZVr5s=", "properties": {"@source_uri": "https://tools.usps.com/UspsToolsRestServices/rest/POLocator/findLocations", "@spider": "usps_collection_boxes", "addr:city": "SEDLEY", "addr:country": "US", "addr:postcode": "23878", "addr:state": "VA", "addr:street_address": "18050 JOHNSONS MILL RD", "amenity": "post_box", "collection_times": "Mo-Fr 16:30; Sa 11:30", "note": "ON 12/24 AND 12/31, THIS BOX MAY BE COLLECTED AS EARLY AS 12 NOON.", "nsi_id": "unitedstatespostalservice-a77078", "operator": "United States Postal Service", "operator:short": "USPS", "operator:type": "public", "operator:wikidata": "Q668687", "ref": "2387800001"}, "type": "Feature"}
{"geometry": {"coordinates": [-76.984176838, 36.775665], "type": "Point"}, "id": "9Y5LGBGqMsz71NRKmpjbZ8pFknk=", "properties": {"@source_uri": "https://tools.usps.com/UspsToolsRestServices/rest/POLocator/findLocations", "@spider": "usps_collection_boxes", "addr:city": "SEDLEY", "addr:country": "US", "addr:postcode": "23878", "addr:state": "VA", "addr:street_address": "18050 JOHNSONS MILL RD", "amenity": "post_box", "collection_times": "Mo-Fr 16:30; Sa 11:30", "indoor": "yes", "note": "ON 12/24 AND 12/31, THIS BOX MAY BE COLLECTED AS EARLY AS 12 NOON.", "nsi_id": "unitedstatespostalservice-a77078", "operator": "United States Postal Service", "operator:short": "USPS", "operator:type": "public", "operator:wikidata": "Q668687", "ref": "2387800002"}, "type": "Feature"}
{"geometry": {"coordinates": [-76.984176838, 36.775665], "type": "Point"}, "id": "q57u4OpIYmhMLIn2ydcXc3ktUY0=", "properties": {"@source_uri": "https://tools.usps.com/UspsToolsRestServices/rest/POLocator/findLocations", "@spider": "usps_collection_boxes", "addr:city": "SEDLEY", "addr:country": "US", "addr:postcode": "23878", "addr:state": "VA", "addr:street_address": "18050 JOHNSONS MILL RD", "amenity": "post_box", "collection_times": "Mo-Fr 16:30; Sa 11:30", "indoor": "yes", "note": "ON 12/24 AND 12/31, THIS BOX MAY BE COLLECTED AS EARLY AS 12 NOON.", "nsi_id": "unitedstatespostalservice-a77078", "operator": "United States Postal Service", "operator:short": "USPS", "operator:type": "public", "operator:wikidata": "Q668687", "ref": "2387800004"}, "type": "Feature"}
{"geometry": {"coordinates": [-77.547672, 36.611514], "type": "Point"}, "id": "XYvGj9v2wIGnktMnOKqkv-xrF48=", "properties": {"@source_uri": "https://tools.usps.com/UspsToolsRestServices/rest/POLocator/findLocations", "@spider": "usps_collection_boxes", "addr:city": "SKIPPERS", "addr:country": "US", "addr:postcode": "23879", "addr:state": "VA", "addr:street_address": "5334 SKIPPERS RD", "amenity": "post_box", "collection_times": "Mo-Fr 16:30; Sa 11:30", "note": "ON 12/24 AND 12/31, THIS BOX MAY BE COLLECTED AS EARLY AS 12 NOON.", "nsi_id": "unitedstatespostalservice-a77078", "operator": "United States Postal Service", "operator:short": "USPS", "operator:type": "public", "operator:wikidata": "Q668687", "ref": "2387900001"}, "type": "Feature"}
{"geometry": {"coordinates": [-77.548129243, 36.611694045], "type": "Point"}, "id": "PcefEwvcT1qTg7zmHBfWspNBzHg=", "properties": {"@source_uri": "https://tools.usps.com/UspsToolsRestServices/rest/POLocator/findLocations", "@spider": "usps_collection_boxes", "addr:city": "SKIPPERS", "addr:country": "US", "addr:postcode": "23879", "addr:state": "VA", "addr:street_address": "5334 SKIPPERS RD", "amenity": "post_box", "collection_times": "Mo-Fr 16:30; Sa 11:30", "indoor": "yes", "note": "ON 12/24 AND 12/31, THIS BOX MAY BE COLLECTED AS EARLY AS 12 NOON.", "nsi_id": "unitedstatespostalservice-a77078", "operator": "United States Postal Service", "operator:short": "USPS", "operator:type": "public", "operator:wikidata": "Q668687", "ref": "2387900002"}, "type": "Feature"}
{"geometry": {"coordinates": [-77.548129243, 36.611694045], "type": "Point"}, "id": "dWsmU-ouXz6JzDchwK50yaz0FlA=", "properties": {"@source_uri": "https://tools.usps.com/UspsToolsRestServices/rest/POLocator/findLocations", "@spider": "usps_collection_boxes", "addr:city": "SKIPPERS", "addr:country": "US", "addr:postcode": "23879", "addr:state": "VA", "addr:street_address": "5334 SKIPPERS RD", "amenity": "post_box", "collection_times": "Mo-Fr 16:30; Sa 11:30", "indoor": "yes", "note": "ON 12/24 AND 12/31, THIS BOX MAY BE COLLECTED AS EARLY AS 12 NOON.", "nsi_id": "unitedstatespostalservice-a77078", "operator": "United States Postal Service", "operator:short": "USPS", "operator:type": "public", "operator:wikidata": "Q668687", "ref": "2387900004"}, "type": "Feature"}
{"geometry": {"coordinates": [-76.973072074, 37.165859679], "type": "Point"}, "id": "wlAd3zPTfM_N1dRzy_POCsJq_xg=", "properties": {"@source_uri": "https://tools.usps.com/UspsToolsRestServices/rest/POLocator/findLocations", "@spider": "usps_collection_boxes", "addr:city": "SPRING GROVE", "addr:country": "US", "addr:postcode": "23881", "addr:state": "VA", "addr:street_address": "17 SWANNS POINT RD", "amenity": "post_box", "collection_times": "Mo-Fr 16:30; Sa 12:00", "note": "ON 12/24 AND 12/31, THIS BOX MAY BE COLLECTED AS EARLY AS 12 NOON.", "nsi_id": "unitedstatespostalservice-a77078", "operator": "United States Postal Service", "operator:short": "USPS", "operator:type": "public", "operator:wikidata": "Q668687", "ref": "2388100001"}, "type": "Feature"}
{"geometry": {"coordinates": [-76.973072074, 37.165859679], "type": "Point"}, "id": "l0T5JmSARfujH6Q5ln5wKGyo0vM=", "properties": {"@source_uri": "https://tools.usps.com/UspsToolsRestServices/rest/POLocator/findLocations", "@spider": "usps_collection_boxes", "addr:city": "SPRING GROVE", "addr:country": "US", "addr:postcode": "23881", "addr:state": "VA", "addr:street_address": "17 SWANNS POINT RD", "amenity": "post_box", "collection_times": "Mo-Fr 16:30; Sa 12:00", "indoor": "yes", "note": "ON 12/24 AND 12/31, THIS BOX MAY BE COLLECTED AS EARLY AS 12 NOON.", "nsi_id": "unitedstatespostalservice-a77078", "operator": "United States Postal Service", "operator:short": "USPS", "operator:type": "public", "operator:wikidata": "Q668687", "ref": "2388100002"}, "type": "Feature"}
{"geometry": {"coordinates": [-76.973072074, 37.165859679], "type": "Point"}, "id": "A4o8aABZYqOrOYaPkBJdR4WAVNo=", "properties": {"@source_uri": "https://tools.usps.com/UspsToolsRestServices/rest/POLocator/findLocations", "@spider": "usps_collection_boxes", "addr:city": "SPRING GROVE", "addr:country": "US", "addr:postcode": "23881", "addr:state": "VA", "addr:street_address": "17 SWANNS POINT RD", "amenity": "post_box", "collection_times": "Mo-Fr 16:30; Sa 12:00", "indoor": "yes", "note": "ON 12/24 AND 12/31, THIS BOX MAY BE COLLECTED AS EARLY AS 12 NOON.", "nsi_id": "unitedstatespostalservice-a77078", "operator": "United States Postal Service", "operator:short": "USPS", "operator:type": "public", "operator:wikidata": "Q668687", "ref": "2388100004"}, "type": "Feature"}
{"geometry": {"coordinates": [-77.401129979, 36.947752009], "type": "Point"}, "id": "eb_sk4fSVWH65ZNZbDJcPwhbgXg=", "properties": {"@source_uri": "https://tools.usps.com/UspsToolsRestServices/rest/POLocator/findLocations", "@spider": "usps_collection_boxes", "addr:city": "STONY CREEK", "addr:country": "US", "addr:postcode": "23882", "addr:state": "VA", "addr:street_address": "12445 MAIN ST", "amenity": "post_box", "collection_times": "Mo-Fr 16:45; Sa 11:30", "note": "ON 12/24 AND 12/31, THIS BOX MAY BE COLLECTED AS EARLY AS 12 NOON.", "nsi_id": "unitedstatespostalservice-a77078", "operator": "United States Postal Service", "operator:short": "USPS", "operator:type": "public", "operator:wikidata": "Q668687", "ref": "2388200002"}, "type": "Feature"}
{"geometry": {"coordinates": [-77.401129979, 36.947752009], "type": "Point"}, "id": "0RB0D4lWy1TaGIlur9E-MNgQ1_8=", "properties": {"@source_uri": "https://tools.usps.com/UspsToolsRestServices/rest/POLocator/findLocations", "@spider": "usps_collection_boxes", "addr:city": "STONY CREEK", "addr:country": "US", "addr:postcode": "23882", "addr:state": "VA", "addr:street_address": "12445 MAIN ST", "amenity": "post_box", "collection_times": "Mo-Fr 16:45; Sa 11:30", "indoor": "yes", "note": "ON 12/24 AND 12/31, THIS BOX MAY BE COLLECTED AS EARLY AS 12 NOON.", "nsi_id": "unitedstatespostalservice-a77078", "operator": "United States Postal Service", "operator:short": "USPS", "operator:type": "public", "operator:wikidata": "Q668687", "ref": "2388200004"}, "type": "Feature"}
{"geometry": {"coordinates": [-77.401129979, 36.947752009], "type": "Point"}, "id": "pZq0Ksb_hE5vhEQvp5o7UMWnG5w=", "properties": {"@source_uri": "https://tools.usps.com/UspsToolsRestServices/rest/POLocator/findLocations", "@spider": "usps_collection_boxes", "addr:city": "STONY CREEK", "addr:country": "US", "addr:postcode": "23882", "addr:state": "VA", "addr:street_address": "12445 MAIN ST", "amenity": "post_box", "collection_times": "Mo-Fr 16:30; Sa 11:30", "indoor": "yes", "note": "ON 12/24 AND 12/31, THIS BOX MAY BE COLLECTED AS EARLY AS 12 NOON.", "nsi_id": "unitedstatespostalservice-a77078", "operator": "United States Postal Service", "operator:short": "USPS", "operator:type": "public", "operator:wikidata": "Q668687", "ref": "2388200006"}, "type": "Feature"}
{"geometry": {"coordinates": [-76.833336595, 37.137894623], "type": "Point"}, "id": "F-PZr4cNPPheJRwA11-FFFAuxvI=", "properties": {"@source_uri": "https://tools.usps.com/UspsToolsRestServices/rest/POLocator/findLocations", "@spider": "usps_collection_boxes", "addr:city": "SURRY", "addr:country": "US", "addr:postcode": "23883", "addr:state": "VA", "addr:street_address": "91 COLONIAL TRL E", "amenity": "post_box", "collection_times": "Mo-Fr 16:30; Sa 11:30", "note": "ON 12/24 AND 12/31, THIS BOX MAY BE COLLECTED AS EARLY AS 12 NOON.", "nsi_id": "unitedstatespostalservice-a77078", "operator": "United States Postal Service", "operator:short": "USPS", "operator:type": "public", "operator:wikidata": "Q668687", "ref": "2388300002"}, "type": "Feature"}
{"geometry": {"coordinates": [-76.833336595, 37.137894623], "type": "Point"}, "id": "gZ3Djk6zPHe4DlmZTEsH_tM72gY=", "properties": {"@source_uri": "https://tools.usps.com/UspsToolsRestServices/rest/POLocator/findLocations", "@spider": "usps_collection_boxes", "addr:city": "SURRY", "addr:country": "US", "addr:postcode": "23883", "addr:state": "VA", "addr:street_address": "91 COLONIAL TRL E", "amenity": "post_box", "collection_times": "Mo-Fr 16:30; Sa 11:30", "indoor": "yes", "note": "ON 12/24 AND 12/31, THIS BOX MAY BE COLLECTED AS EARLY AS 12 NOON.", "nsi_id": "unitedstatespostalservice-a77078", "operator": "United States Postal Service", "operator:short": "USPS", "operator:type": "public", "operator:wikidata": "Q668687", "ref": "2388300003"}, "type": "Feature"}
{"geometry": {"coordinates": [-76.833336595, 37.137894623], "type": "Point"}, "id": "yj8sDsj2dOJF76rN0W-dEBfj6VM=", "properties": {"@source_uri": "https://tools.usps.com/UspsToolsRestServices/rest/POLocator/findLocations", "@spider": "usps_collection_boxes", "addr:city": "SURRY", "addr:country": "US", "addr:postcode": "23883", "addr:state": "VA", "addr:street_address": "91 COLONIAL TRL E", "amenity": "post_box", "collection_times": "Mo-Fr 16:30; Sa 11:30", "indoor": "yes", "note": "ON 12/24 AND 12/31, THIS BOX MAY BE COLLECTED AS EARLY AS 12 NOON.", "nsi_id": "unitedstatespostalservice-a77078", "operator": "United States Postal Service", "operator:short": "USPS", "operator:type": "public", "operator:wikidata": "Q668687", "ref": "2388300005"}, "type": "Feature"}
{"geometry": {"coordinates": [-77.27936209, 36.915401535], "type": "Point"}, "id": "HDYXXMzRSCgaG9ASmdlK2dVFQl8=", "properties": {"@source_uri": "https://tools.usps.com/UspsToolsRestServices/rest/POLocator/findLocations", "@spider": "usps_collection_boxes", "addr:city": "SUSSEX", "addr:country": "US", "addr:postcode": "23884", "addr:state": "VA", "addr:street_address": "15083 COURTHOUSE RD", "amenity": "post_box", "collection_times": "Mo-Fr 16:45; Sa 12:15", "note": "ON 12/24 AND 12/31, THIS BOX MAY BE COLLECTED AS EARLY AS 12 NOON.", "nsi_id": "unitedstatespostalservice-a77078", "operator": "United States Postal Service", "operator:short": "USPS", "operator:type": "public", "operator:wikidata": "Q668687", "ref": "2388400001"}, "type": "Feature"}
{"geometry": {"coordinates": [-77.27936209, 36.915401535], "type": "Point"}, "id": "_uewsLoq9tVxW8gm7mkMLrs6hbc=", "properties": {"@source_uri": "https://tools.usps.com/UspsToolsRestServices/rest/POLocator/findLocations", "@spider": "usps_collection_boxes", "addr:city": "SUSSEX", "addr:country": "US", "addr:postcode": "23884", "addr:state": "VA", "addr:street_address": "15083 COURTHOUSE RD", "amenity": "post_box", "collection_times": "Mo-Fr 16:45; Sa 12:15", "indoor": "yes", "note": "ON 12/24 AND 12/31, THIS BOX MAY BE COLLECTED AS EARLY AS 12 NOON.", "nsi_id": "unitedstatespostalservice-a77078", "operator": "United States Postal Service", "operator:short": "USPS", "operator:type": "public", "operator:wikidata": "Q668687", "ref": "2388400002"}, "type": "Feature"}
{"geometry": {"coordinates": [-77.27936209, 36.915401535], "type": "Point"}, "id": "32HlZkMzadLoeWOfTazRtLiEG0w=", "properties": {"@source_uri": "https://tools.usps.com/UspsToolsRestServices/rest/POLocator/findLocations", "@spider": "usps_collection_boxes", "addr:city": "SUSSEX", "addr:country": "US", "addr:postcode": "23884", "addr:state": "VA", "addr:street_address": "15083 COURTHOUSE RD", "amenity": "post_box", "collection_times": "Mo-Fr 16:45; Sa 12:30", "indoor": "yes", "note": "ON 12/24 AND 12/31, THIS BOX MAY BE COLLECTED AS EARLY AS 12 NOON.", "nsi_id": "unitedstatespostalservice-a77078", "operator": "United States Postal Service", "operator:short": "USPS", "operator:type": "public", "operator:wikidata": "Q668687", "ref": "2388400004"}, "type": "Feature"}
{"geometry": {"coordinates": [-77.558989356, 37.196935963], "type": "Point"}, "id": "AshnIsjW5BFhyuCYaVL9E7LceZU=", "properties": {"@source_uri": "https://tools.usps.com/UspsToolsRestServices/rest/POLocator/findLocations", "@spider": "usps_collection_boxes", "addr:city": "SUTHERLAND", "addr:country": "US", "addr:postcode": "23885", "addr:state": "VA", "addr:street_address": "5503 HART RD", "amenity": "post_box", "collection_times": "Mo-Fr 16:30; Sa 10:30", "note": "ON 12/24 AND 12/31, THIS BOX MAY BE COLLECTED AS EARLY AS 12 NOON.", "nsi_id": "unitedstatespostalservice-a77078", "operator": "United States Postal Service", "operator:short": "USPS", "operator:type": "public", "operator:wikidata": "Q668687", "ref": "2388500001"}, "type": "Feature"}
{"geometry": {"coordinates": [-77.558989356, 37.196935963], "type": "Point"}, "id": "1Dfbkr0js6-zlyBHRmBJm01pOUg=", "properties": {"@source_uri": "https://tools.usps.com/UspsToolsRestServices/rest/POLocator/findLocations", "@spider": "usps_collection_boxes", "addr:city": "SUTHERLAND", "addr:country": "US", "addr:postcode": "23885", "addr:state": "VA", "addr:street_address": "5503 HART RD", "amenity": "post_box", "collection_times": "Mo-Fr 16:45; Sa 11:00", "indoor": "yes", "note": "ON 12/24 AND 12/31, THIS BOX MAY BE COLLECTED AS EARLY AS 12 NOON.", "nsi_id": "unitedstatespostalservice-a77078", "operator": "United States Postal Service", "operator:short": "USPS", "operator:type": "public", "operator:wikidata": "Q668687", "ref": "2388500002"}, "type": "Feature"}
{"geometry": {"coordinates": [-77.558989356, 37.196935963], "type": "Point"}, "id": "LrNbnw1e0DA76iU1eMBd0iOX72g=", "properties": {"@source_uri": "https://tools.usps.com/UspsToolsRestServices/rest/POLocator/findLocations", "@spider": "usps_collection_boxes", "addr:city": "SUTHERLAND", "addr:country": "US", "addr:postcode": "23885", "addr:state": "VA", "addr:street_address": "5503 HART RD", "amenity": "post_box", "collection_times": "Mo-Fr 16:45; Sa 11:00", "indoor": "yes", "note": "ON 12/24 AND 12/31, THIS BOX MAY BE COLLECTED AS EARLY AS 12 NOON.", "nsi_id": "unitedstatespostalservice-a77078", "operator": "United States Postal Service", "operator:short": "USPS", "operator:type": "public", "operator:wikidata": "Q668687", "ref": "2388500004"}, "type": "Feature"}
{"geometry": {"coordinates": [-77.82998035, 36.58844024], "type": "Point"}, "id": "heOHyIZy0HekB-rZEKWId7a-eek=", "properties": {"@source_uri": "https://tools.usps.com/UspsToolsRestServices/rest/POLocator/findLocations", "@spider": "usps_collection_boxes", "addr:city": "VALENTINES", "addr:country": "US", "addr:postcode": "23887", "addr:state": "VA", "addr:street_address": "23 MANNING DR", "amenity": "post_box", "collection_times": "Mo-Fr 16:00; Sa 11:30", "note": "ON 12/24 AND 12/31, THIS BOX MAY BE COLLECTED AS EARLY AS 12 NOON.", "nsi_id": "unitedstatespostalservice-a77078", "operator": "United States Postal Service", "operator:short": "USPS", "operator:type": "public", "operator:wikidata": "Q668687", "ref": "2388700000"}, "type": "Feature"}
{"geometry": {"coordinates": [-77.82998035, 36.58844024], "type": "Point"}, "id": "VpYM-1Ee_dgLWVtYgo5ZmsVKgT4=", "properties": {"@source_uri": "https://tools.usps.com/UspsToolsRestServices/rest/POLocator/findLocations", "@spider": "usps_collection_boxes", "addr:city": "VALENTINES", "addr:country": "US", "addr:postcode": "23887", "addr:state": "VA", "addr:street_address": "23 MANNING DR", "amenity": "post_box", "collection_times": "Mo-Fr 16:15; Sa 11:45", "indoor": "yes", "note": "ON 12/24 AND 12/31, THIS BOX MAY BE COLLECTED AS EARLY AS 12 NOON.", "nsi_id": "unitedstatespostalservice-a77078", "operator": "United States Postal Service", "operator:short": "USPS", "operator:type": "public", "operator:wikidata": "Q668687", "ref": "2388700003"}, "type": "Feature"}
{"geometry": {"coordinates": [-76.987915713, 36.972957413], "type": "Point"}, "id": "RW7CgtQKk2YHBDHJmn4ito4CReI=", "properties": {"@source_uri": "https://tools.usps.com/UspsToolsRestServices/rest/POLocator/findLocations", "@spider": "usps_collection_boxes", "addr:city": "WAKEFIELD", "addr:country": "US", "addr:postcode": "23888", "addr:state": "VA", "addr:street_address": "312 W CHURCH ST", "amenity": "post_box", "collection_times": "Mo-Fr 16:30; Sa 10:00", "note": "ON 12/24 AND 12/31, THIS BOX MAY BE COLLECTED AS EARLY AS 12 NOON.", "nsi_id": "unitedstatespostalservice-a77078", "operator": "United States Postal Service", "operator:short": "USPS", "operator:type": "public", "operator:wikidata": "Q668687", "ref": "2388800001"}, "type": "Feature"}
{"geometry": {"coordinates": [-76.987915713, 36.972957413], "type": "Point"}, "id": "CNzfpNGmU5oRELFGmh_ZCCO8Eks=", "properties": {"@source_uri": "https://tools.usps.com/UspsToolsRestServices/rest/POLocator/findLocations", "@spider": "usps_collection_boxes", "addr:city": "WAKEFIELD", "addr:country": "US", "addr:postcode": "23888", "addr:state": "VA", "addr:street_address": "312 W CHURCH ST", "amenity": "post_box", "collection_times": "Mo-Fr 16:30; Sa 10:00", "indoor": "yes", "note": "ON 12/24 AND 12/31, THIS BOX MAY BE COLLECTED AS EARLY AS 12 NOON.", "nsi_id": "unitedstatespostalservice-a77078", "operator": "United States Postal Service", "operator:short": "USPS", "operator:type": "public", "operator:wikidata": "Q668687", "ref": "2388800002"}, "type": "Feature"}
{"geometry": {"coordinates": [-76.987915713, 36.972957413], "type": "Point"}, "id": "gAZEC8PVdaCpPML2UpyAQnwkSjg=", "properties": {"@source_uri": "https://tools.usps.com/UspsToolsRestServices/rest/POLocator/findLocations", "@spider": "usps_collection_boxes", "addr:city": "WAKEFIELD", "addr:country": "US", "addr:postcode": "23888", "addr:state": "VA", "addr:street_address": "312 W CHURCH ST", "amenity": "post_box", "collection_times": "Mo-Fr 16:30; Sa 10:30", "indoor": "yes", "note": "ON 12/24 AND 12/31, THIS BOX MAY BE COLLECTED AS EARLY AS 12 NOON.", "nsi_id": "unitedstatespostalservice-a77078", "operator": "United States Postal Service", "operator:short": "USPS", "operator:type": "public", "operator:wikidata": "Q668687", "ref": "2388800004"}, "type": "Feature"}
{"geometry": {"coordinates": [-77.81054693, 36.900741696], "type": "Point"}, "id": "hxGf2PMI22odHUnGkbIag_e-Hkk=", "properties": {"@source_uri": "https://tools.usps.com/UspsToolsRestServices/rest/POLocator/findLocations", "@spider": "usps_collection_boxes", "addr:city": "WARFIELD", "addr:country": "US", "addr:postcode": "23889", "addr:state": "VA", "addr:street_address": "15243 BOYDTON PLANK RD", "amenity": "post_box", "collection_times": "Mo-Fr 16:15; Sa 12:00", "indoor": "yes", "note": "ON 12/24 AND 12/31, THIS BOX MAY BE COLLECTED AS EARLY AS 12 NOON.", "nsi_id": "unitedstatespostalservice-a77078", "operator": "United States Postal Service", "operator:short": "USPS", "operator:type": "public", "operator:wikidata": "Q668687", "ref": "2388900001"}, "type": "Feature"}
{"geometry": {"coordinates": [-77.81054693, 36.900741696], "type": "Point"}, "id": "Sj8ukZcsM1MvBxvk3i6yS4QblQc=", "properties": {"@source_uri": "https://tools.usps.com/UspsToolsRestServices/rest/POLocator/findLocations", "@spider": "usps_collection_boxes", "addr:city": "WARFIELD", "addr:country": "US", "addr:postcode": "23889", "addr:state": "VA", "addr:street_address": "15243 BOYDTON PLANK RD", "amenity": "post_box", "collection_times": "Mo-Fr 16:15; Sa 12:45", "indoor": "yes", "note": "ON 12/24 AND 12/31, THIS BOX MAY BE COLLECTED AS EARLY AS 12 NOON.", "nsi_id": "unitedstatespostalservice-a77078", "operator": "United States Postal Service", "operator:short": "USPS", "operator:type": "public", "operator:wikidata": "Q668687", "ref": "2388900004"}, "type": "Feature"}
{"geometry": {"coordinates": [-77.81054693, 36.900741696], "type": "Point"}, "id": "-UGPMkj2-VGAbuCd3h_JmzrU99Q=", "properties": {"@source_uri": "https://tools.usps.com/UspsToolsRestServices/rest/POLocator/findLocations", "@spider": "usps_collection_boxes", "addr:city": "WARFIELD", "addr:country": "US", "addr:postcode": "23889", "addr:state": "VA", "addr:street_address": "15243 BOYDTON PLANK RD", "amenity": "post_box", "collection_times": "Mo-Fr 16:00; Sa 12:00", "note": "ON 12/24 AND 12/31, THIS BOX MAY BE COLLECTED AS EARLY AS 12 NOON.", "nsi_id": "unitedstatespostalservice-a77078", "operator": "United States Postal Service", "operator:short": "USPS", "operator:type": "public", "operator:wikidata": "Q668687", "ref": "2388900005"}, "type": "Feature"}
{"geometry": {"coordinates": [-77.0962016, 37.0357536], "type": "Point"}, "id": "h-6oXP-kw-3xZ6S5vRj7MZR-qXU=", "properties": {"@source_uri": "https://tools.usps.com/UspsToolsRestServices/rest/POLocator/findLocations", "@spider": "usps_collection_boxes", "addr:city": "WAVERLY", "addr:country": "US", "addr:postcode": "23890", "addr:state": "VA", "addr:street_address": "325 W MAIN ST", "amenity": "post_box", "collection_times": "Mo-Fr 16:30; Sa 10:30", "note": "ON 12/24 AND 12/31, THIS BOX MAY BE COLLECTED AS EARLY AS 12 NOON.", "nsi_id": "unitedstatespostalservice-a77078", "operator": "United States Postal Service", "operator:short": "USPS", "operator:type": "public", "operator:wikidata": "Q668687", "ref": "2389000001"}, "type": "Feature"}
{"geometry": {"coordinates": [-77.095407437, 37.035860754], "type": "Point"}, "id": "L6QuZEsZ8xRuKI6QUJGfQBWGHB8=", "properties": {"@source_uri": "https://tools.usps.com/UspsToolsRestServices/rest/POLocator/findLocations", "@spider": "usps_collection_boxes", "addr:city": "WAVERLY", "addr:country": "US", "addr:postcode": "23890", "addr:state": "VA", "addr:street_address": "325 W MAIN ST", "amenity": "post_box", "collection_times": "Mo-Fr 16:30; Sa 10:30", "indoor": "yes", "note": "ON 12/24 AND 12/31, THIS BOX MAY BE COLLECTED AS EARLY AS 12 NOON.", "nsi_id": "unitedstatespostalservice-a77078", "operator": "United States Postal Service", "operator:short": "USPS", "operator:type": "public", "operator:wikidata": "Q668687", "ref": "2389000002"}, "type": "Feature"}
{"geometry": {"coordinates": [-77.095407437, 37.035860754], "type": "Point"}, "id": "HS7V8jyvaB3zkJwb7dQmS8mDPFk=", "properties": {"@source_uri": "https://tools.usps.com/UspsToolsRestServices/rest/POLocator/findLocations", "@spider": "usps_collection_boxes", "addr:city": "WAVERLY", "addr:country": "US", "addr:postcode": "23890", "addr:state": "VA", "addr:street_address": "325 MAIN STREET", "amenity": "post_box", "collection_times": "Mo-Fr 16:30; Sa 11:00", "indoor": "yes", "note": "ON 12/24 AND 12/31, THIS BOX MAY BE COLLECTED AS EARLY AS 12 NOON.", "nsi_id": "unitedstatespostalservice-a77078", "operator": "United States Postal Service", "operator:short": "USPS", "operator:type": "public", "operator:wikidata": "Q668687", "ref": "2389000004"}, "type": "Feature"}
{"geometry": {"coordinates": [-77.958061911, 36.643947002], "type": "Point"}, "id": "PuOKwhxY_tYOq3Okm-Rc3lNhel4=", "properties": {"@source_uri": "https://tools.usps.com/UspsToolsRestServices/rest/POLocator/findLocations", "@spider": "usps_collection_boxes", "addr:city": "WHITE PLAINS", "addr:country": "US", "addr:postcode": "23893", "addr:state": "VA", "addr:street_address": "6529 ROBINSON FERRY RD", "amenity": "post_box", "collection_times": "Mo-Fr 16:00; Sa 11:30", "indoor": "yes", "note": "ON 12/24 AND 12/31, THIS BOX MAY BE COLLECTED AS EARLY AS 12 NOON.", "nsi_id": "unitedstatespostalservice-a77078", "operator": "United States Postal Service", "operator:short": "USPS", "operator:type": "public", "operator:wikidata": "Q668687", "ref": "2389300002"}, "type": "Feature"}
{"geometry": {"coordinates": [-77.958061911, 36.643947002], "type": "Point"}, "id": "KJ7KT0DbOMwH0QNuNjmGRkYqcCc=", "properties": {"@source_uri": "https://tools.usps.com/UspsToolsRestServices/rest/POLocator/findLocations", "@spider": "usps_collection_boxes", "addr:city": "WHITE PLAINS", "addr:country": "US", "addr:postcode": "23893", "addr:state": "VA", "addr:street_address": "6529 ROBINSON FERRY RD", "amenity": "post_box", "collection_times": "Mo-Fr 16:15; Sa 11:45", "indoor": "yes", "note": "ON 12/24 AND 12/31, THIS BOX MAY BE COLLECTED AS EARLY AS 12 NOON.", "nsi_id": "unitedstatespostalservice-a77078", "operator": "United States Postal Service", "operator:short": "USPS", "operator:type": "public", "operator:wikidata": "Q668687", "ref": "2389300004"}, "type": "Feature"}
{"geometry": {"coordinates": [-77.8651970336, 37.1404829934], "type": "Point"}, "id": "nkBzLGBrmbYCO2zSQ1-obFiUCqw=", "properties": {"@source_uri": "https://tools.usps.com/UspsToolsRestServices/rest/POLocator/findLocations", "@spider": "usps_collection_boxes", "addr:city": "WILSONS", "addr:country": "US", "addr:postcode": "23894", "addr:state": "VA", "addr:street_address": "2120 SPRINGTON RD", "amenity": "post_box", "collection_times": "Mo-Fr 16:30; Sa 11:15", "note": "ON 12/24 AND 12/31, THIS BOX MAY BE COLLECTED AS EARLY AS 12 NOON.", "nsi_id": "unitedstatespostalservice-a77078", "operator": "United States Postal Service", "operator:short": "USPS", "operator:type": "public", "operator:wikidata": "Q668687", "ref": "2389400001"}, "type": "Feature"}
{"geometry": {"coordinates": [-77.865889, 37.139825], "type": "Point"}, "id": "Uo2BV9cYRU-1gpTvqlpaF5Mp8uE=", "properties": {"@source_uri": "https://tools.usps.com/UspsToolsRestServices/rest/POLocator/findLocations", "@spider": "usps_collection_boxes", "addr:city": "WILSONS", "addr:country": "US", "addr:postcode": "23894", "addr:state": "VA", "addr:street_address": "2120 SPRINGTON RD", "amenity": "post_box", "collection_times": "Mo-Fr 16:45; Sa 11:45", "indoor": "yes", "note": "ON 12/24 AND 12/31, THIS BOX MAY BE COLLECTED AS EARLY AS 12 NOON.", "nsi_id": "unitedstatespostalservice-a77078", "operator": "United States Postal Service", "operator:short": "USPS", "operator:type": "public", "operator:wikidata": "Q668687", "ref": "2389400002"}, "type": "Feature"}
{"geometry": {"coordinates": [-77.8649869786, 37.140364811], "type": "Point"}, "id": "NugOLNfC5KGVp2j-CvApD-SeM_w=", "properties": {"@source_uri": "https://tools.usps.com/UspsToolsRestServices/rest/POLocator/findLocations", "@spider": "usps_collection_boxes", "addr:city": "WILSONS", "addr:country": "US", "addr:postcode": "23894", "addr:state": "VA", "addr:street_address": "2120 SPRINGTON RD", "amenity": "post_box", "collection_times": "Mo-Fr 16:45; Sa 11:45", "indoor": "yes", "note": "ON 12/24 AND 12/31, THIS BOX MAY BE COLLECTED AS EARLY AS 12 NOON.", "nsi_id": "unitedstatespostalservice-a77078", "operator": "United States Postal Service", "operator:short": "USPS", "operator:type": "public", "operator:wikidata": "Q668687", "ref": "2389400004"}, "type": "Feature"}
{"geometry": {"coordinates": [-77.287701181, 36.845597423], "type": "Point"}, "id": "XCEcVRJQcdhlxudwAM_BiLi3l2c=", "properties": {"@source_uri": "https://tools.usps.com/UspsToolsRestServices/rest/POLocator/findLocations", "@spider": "usps_collection_boxes", "addr:city": "YALE", "addr:country": "US", "addr:postcode": "23897", "addr:state": "VA", "addr:street_address": "20123 COURTHOUSE RD", "amenity": "post_box", "collection_times": "Mo-Fr 14:00; Sa 11:15", "indoor": "yes", "note": "ON 12/24 AND 12/31, THIS BOX MAY BE COLLECTED AS EARLY AS 12 NOON.", "nsi_id": "unitedstatespostalservice-a77078", "operator": "United States Postal Service", "operator:short": "USPS", "operator:type": "public", "operator:wikidata": "Q668687", "ref": "2389700002"}, "type": "Feature"}
{"geometry": {"coordinates": [-77.287701181, 36.845597423], "type": "Point"}, "id": "AXzsrIOk9cx_Pzpk_leXBR4UszQ=", "properties": {"@source_uri": "https://tools.usps.com/UspsToolsRestServices/rest/POLocator/findLocations", "@spider": "usps_collection_boxes", "addr:city": "YALE", "addr:country": "US", "addr:postcode": "23897", "addr:state": "VA", "addr:street_address": "20123 COURTHOUSE RD", "amenity": "post_box", "collection_times": "Mo-Fr 14:00; Sa 11:30", "indoor": "yes", "note": "ON 12/24 AND 12/31, THIS BOX MAY BE COLLECTED AS EARLY AS 12 NOON.", "nsi_id": "unitedstatespostalservice-a77078", "operator": "United States Postal Service", "operator:short": "USPS", "operator:type": "public", "operator:wikidata": "Q668687", "ref": "2389700004"}, "type": "Feature"}
{"geometry": {"coordinates": [-76.829767382, 36.866534278], "type": "Point"}, "id": "IiRQjx4hsKl46WslI7EanHbz-fg=", "properties": {"@source_uri": "https://tools.usps.com/UspsToolsRestServices/rest/POLocator/findLocations", "@spider": "usps_collection_boxes", "addr:city": "ZUNI", "addr:country": "US", "addr:postcode": "23898", "addr:state": "VA", "addr:street_address": "5375 WINDSOR BLVD", "amenity": "post_box", "collection_times": "Mo-Fr 16:30; Sa 11:00", "note": "ON 12/24 AND 12/31, THIS BOX MAY BE COLLECTED AS EARLY AS 12 NOON.", "nsi_id": "unitedstatespostalservice-a77078", "operator": "United States Postal Service", "operator:short": "USPS", "operator:type": "public", "operator:wikidata": "Q668687", "ref": "2389800001"}, "type": "Feature"}
{"geometry": {"coordinates": [-76.829767382, 36.866534278], "type": "Point"}, "id": "hH6tawhoMpRdj4CidAo9unjlql4=", "properties": {"@source_uri": "https://tools.usps.com/UspsToolsRestServices/rest/POLocator/findLocations", "@spider": "usps_collection_boxes", "addr:city": "ZUNI", "addr:country": "US", "addr:postcode": "23898", "addr:state": "VA", "addr:street_address": "5375 WINDSOR BLVD", "amenity": "post_box", "collection_times": "Mo-Fr 16:30; Sa 11:00", "indoor": "yes", "note": "ON 12/24 AND 12/31, THIS BOX MAY BE COLLECTED AS EARLY AS 12 NOON.", "nsi_id": "unitedstatespostalservice-a77078", "operator": "United States Postal Service", "operator:short": "USPS", "operator:type": "public", "operator:wikidata": "Q668687", "ref": "2389800002"}, "type": "Feature"}
{"geometry": {"coordinates": [-76.829767382, 36.866534278], "type": "Point"}, "id": "TKfVyrS5u9-UHiNUTtl52R6-Oww=", "properties": {"@source_uri": "https://tools.usps.com/UspsToolsRestServices/rest/POLocator/findLocations", "@spider": "usps_collection_boxes", "addr:city": "ZUNI", "addr:country": "US", "addr:postcode": "23898", "addr:state": "VA", "addr:street_address": "5375 WINDSOR BLVD", "amenity": "post_box", "collection_times": "Mo-Fr 16:45; Sa 12:30", "indoor": "yes", "note": "ON 12/24 AND 12/31, THIS BOX MAY BE COLLECTED AS EARLY AS 12 NOON.", "nsi_id": "unitedstatespostalservice-a77078", "operator": "United States Postal Service", "operator:short": "USPS", "operator:type": "public", "operator:wikidata": "Q668687", "ref": "2389800004"}, "type": "Feature"}
{"geometry": {"coordinates": [-76.965881676, 37.224501504], "type": "Point"}, "id": "FhV_Ea3dWiu4qf4ghXVGZAMg61o=", "properties": {"@source_uri": "https://tools.usps.com/UspsToolsRestServices/rest/POLocator/findLocations", "@spider": "usps_collection_boxes", "addr:city": "CLAREMONT", "addr:country": "US", "addr:postcode": "23899", "addr:state": "VA", "addr:street_address": "3962 SPRING GROVE AVE", "amenity": "post_box", "collection_times": "Mo-Sa 11:45", "nsi_id": "unitedstatespostalservice-a77078", "operator": "United States Postal Service", "operator:short": "USPS", "operator:type": "public", "operator:wikidata": "Q668687", "ref": "2389900001"}, "type": "Feature"}
{"geometry": {"coordinates": [-76.965881676, 37.224501504], "type": "Point"}, "id": "NSINe0eD6MCcX2xxWmZAWHRdKjs=", "properties": {"@source_uri": "https://tools.usps.com/UspsToolsRestServices/rest/POLocator/findLocations", "@spider": "usps_collection_boxes", "addr:city": "CLAREMONT", "addr:country": "US", "addr:postcode": "23899", "addr:state": "VA", "addr:street_address": "3962 SPRING GROVE AVE", "amenity": "post_box", "collection_times": "Mo-Sa 11:45", "indoor": "yes", "nsi_id": "unitedstatespostalservice-a77078", "operator": "United States Postal Service", "operator:short": "USPS", "operator:type": "public", "operator:wikidata": "Q668687", "ref": "2389900002"}, "type": "Feature"}
{"geometry": {"coordinates": [-76.965881676, 37.224501504], "type": "Point"}, "id": "C8gAD31V3a1Md36yM9XGtKrqjlI=", "properties": {"@source_uri": "https://tools.usps.com/UspsToolsRestServices/rest/POLocator/findLocations", "@spider": "usps_collection_boxes", "addr:city": "CLAREMONT", "addr:country": "US", "addr:postcode": "23899", "addr:state": "VA", "addr:street_address": "3962 SPRING GROVE AVE", "amenity": "post_box", "collection_times": "Mo-Sa 11:45", "indoor": "yes", "nsi_id": "unitedstatespostalservice-a77078", "operator": "United States Postal Service", "operator:short": "USPS", "operator:type": "public", "operator:wikidata": "Q668687", "ref": "2389900004"}, "type": "Feature"}
