{"dataset_attributes": {"@spider": "usps_collection_boxes"}, "geometry": {"coordinates": [-78.02167764, 36.914927168], "type": "Point"}, "id": "TWPUe0EPlnnJnULqOHdgVPQ7lyI=", "properties": {"@spider": "usps_collection_boxes", "addr:city": "DUNDAS", "addr:country": "US", "addr:full": "4091 DUNDAS RD", "addr:postcode": "23938", "addr:state": "VA", "amenity": "post_box", "brand": "United States Postal Service", "brand:wikidata": "Q668687", "collection_times": "Mo-Fr 16:00; Sa 11:00", "name": "USPS COLLECTION BOX - BLUE BOX", "note": "ON 12/24 AND 12/31, THIS BOX MAY BE COLLECTED AS EARLY AS 12 NOON.", "nsi_id": "unitedstatespostalservice-a77078", "operator": "United States Postal Service", "operator:short": "USPS", "operator:type": "public", "operator:wikidata": "Q668687", "ref": "2393800000"}, "type": "Feature"}
{"dataset_attributes": {"@spider": "usps_collection_boxes"}, "geometry": {"coordinates": [-78.02167764, 36.914927168], "type": "Point"}, "id": "iX1azCiFAFEz0JUbCDiEeKzHGc8=", "properties": {"@spider": "usps_collection_boxes", "addr:city": "DUNDAS", "addr:country": "US", "addr:full": "4091 DUNDAS RD", "addr:postcode": "23938", "addr:state": "VA", "amenity": "post_box", "brand": "United States Postal Service", "brand:wikidata": "Q668687", "collection_times": "Mo-Fr 16:00; Sa 11:00", "name": "USPS COLLECTION BOX - PO LOBBY", "note": "ON 12/24 AND 12/31, THIS BOX MAY BE COLLECTED AS EARLY AS 12 NOON.", "nsi_id": "unitedstatespostalservice-a77078", "operator": "United States Postal Service", "operator:short": "USPS", "operator:type": "public", "operator:wikidata": "Q668687", "ref": "2393800001"}, "type": "Feature"}
{"dataset_attributes": {"@spider": "usps_collection_boxes"}, "geometry": {"coordinates": [-78.02167764, 36.914927168], "type": "Point"}, "id": "JzQNgH0C7gppOMiQvEGeQdyIAvM=", "properties": {"@spider": "usps_collection_boxes", "addr:city": "DUNDAS", "addr:country": "US", "addr:full": "4091 DUNDAS RD", "addr:postcode": "23938", "addr:state": "VA", "amenity": "post_box", "brand": "United States Postal Service", "brand:wikidata": "Q668687", "collection_times": "Mo-Fr 16:00; Sa 12:45", "name": "USPS COLLECTION BOX - PO LOBBY", "note": "ON 12/24 AND 12/31, THIS BOX MAY BE COLLECTED AS EARLY AS 12 NOON.", "nsi_id": "unitedstatespostalservice-a77078", "operator": "United States Postal Service", "operator:short": "USPS", "operator:type": "public", "operator:wikidata": "Q668687", "ref": "2393800003"}, "type": "Feature"}
{"dataset_attributes": {"@spider": "usps_collection_boxes"}, "geometry": {"coordinates": [-78.079759564, 37.126786318], "type": "Point"}, "id": "UtgvHMNoLtKS_0NDxddC-RAmpVc=", "properties": {"@spider": "usps_collection_boxes", "addr:city": "NOTTOWAY", "addr:country": "US", "addr:full": "329 W COURTHOUSE RD", "addr:postcode": "23955", "addr:state": "VA", "amenity": "post_box", "brand": "United States Postal Service", "brand:wikidata": "Q668687", "collection_times": "Mo-Fr 16:30; Sa 11:30", "name": "USPS COLLECTION BOX - BLUE BOX", "note": "ON 12/24 AND 12/31, THIS BOX MAY BE COLLECTED AS EARLY AS 12 NOON.", "nsi_id": "unitedstatespostalservice-a77078", "operator": "United States Postal Service", "operator:short": "USPS", "operator:type": "public", "operator:wikidata": "Q668687", "ref": "2395500000"}, "type": "Feature"}
{"dataset_attributes": {"@spider": "usps_collection_boxes"}, "geometry": {"coordinates": [-78.079759564, 37.126786318], "type": "Point"}, "id": "nGSdBn3O_7Y12l7NwOT5pAFihes=", "properties": {"@spider": "usps_collection_boxes", "addr:city": "NOTTOWAY", "addr:country": "US", "addr:full": "329 W COURTHOUSE RD", "addr:postcode": "23955", "addr:state": "VA", "amenity": "post_box", "brand": "United States Postal Service", "brand:wikidata": "Q668687", "collection_times": "Mo-Fr 16:30; Sa 11:30", "name": "USPS COLLECTION BOX - PO LOBBY", "note": "ON 12/24 AND 12/31, THIS BOX MAY BE COLLECTED AS EARLY AS 12 NOON.", "nsi_id": "unitedstatespostalservice-a77078", "operator": "United States Postal Service", "operator:short": "USPS", "operator:type": "public", "operator:wikidata": "Q668687", "ref": "2395500001"}, "type": "Feature"}
{"dataset_attributes": {"@spider": "usps_collection_boxes"}, "geometry": {"coordinates": [-78.079759564, 37.126786318], "type": "Point"}, "id": "g3RaLn0wzhM5gjIUERi1ujqNUiA=", "properties": {"@spider": "usps_collection_boxes", "addr:city": "NOTTOWAY", "addr:country": "US", "addr:full": "329 W COURTHOUSE RD", "addr:postcode": "23955", "addr:state": "VA", "amenity": "post_box", "brand": "United States Postal Service", "brand:wikidata": "Q668687", "collection_times": "Mo-Fr 16:30; Sa 12:00", "name": "USPS COLLECTION BOX - PO LOBBY", "note": "ON 12/24 AND 12/31, THIS BOX MAY BE COLLECTED AS EARLY AS 12 NOON.", "nsi_id": "unitedstatespostalservice-a77078", "operator": "United States Postal Service", "operator:short": "USPS", "operator:type": "public", "operator:wikidata": "Q668687", "ref": "2395500003"}, "type": "Feature"}
