{"geometry": {"coordinates": [-79.9421941, 37.269264], "type": "Point"}, "id": "RxMc5a_XualFQP7CCb3PHqYDe7s=", "properties": {"@source_uri": "https://tools.usps.com/UspsToolsRestServices/rest/POLocator/findLocations", "@spider": "usps_collection_boxes", "addr:city": "ROANOKE", "addr:country": "US", "addr:full": "30 FRANKLIN RD SW", "addr:postcode": "24011", "addr:state": "VA", "amenity": "post_box", "brand": "United States Postal Service", "brand:wikidata": "Q668687", "collection_times": "Mo-Fr 16:00; Sa 09:00", "note": "ON 12/24 AND 12/31, THIS BOX MAY BE COLLECTED AS EARLY AS 12 NOON.", "nsi_id": "unitedstatespostalservice-a77078", "operator": "United States Postal Service", "operator:short": "USPS", "operator:type": "public", "operator:wikidata": "Q668687", "ref": "2401100016"}, "type": "Feature"}
{"geometry": {"coordinates": [-79.9447435, 37.270631], "type": "Point"}, "id": "BL0GfKQY7iZBqAo7yPnAkvTxqJY=", "properties": {"@source_uri": "https://tools.usps.com/UspsToolsRestServices/rest/POLocator/findLocations", "@spider": "usps_collection_boxes", "addr:city": "ROANOKE", "addr:country": "US", "addr:full": "212 CHURCH AVE SW", "addr:postcode": "24011", "addr:state": "VA", "amenity": "post_box", "brand": "United States Postal Service", "brand:wikidata": "Q668687", "collection_times": "Mo-Fr 15:45; Sa 09:00", "note": "ON 12/24 AND 12/31, THIS BOX MAY BE COLLECTED AS EARLY AS 12 NOON.", "nsi_id": "unitedstatespostalservice-a77078", "operator": "United States Postal Service", "operator:short": "USPS", "operator:type": "public", "operator:wikidata": "Q668687", "ref": "2401100053"}, "type": "Feature"}
{"geometry": {"coordinates": [-79.94248633, 37.27061083], "type": "Point"}, "id": "CcRa0PT4L1O-vcQgV45bS-ZkbZs=", "properties": {"@source_uri": "https://tools.usps.com/UspsToolsRestServices/rest/POLocator/findLocations", "@spider": "usps_collection_boxes", "addr:city": "ROANOKE", "addr:country": "US", "addr:full": "101 CHURCH AVE SW", "addr:postcode": "24011", "addr:state": "VA", "amenity": "post_box", "brand": "United States Postal Service", "brand:wikidata": "Q668687", "collection_times": "Mo-Fr 16:30", "indoor": "yes", "note": "ON 12/24 AND 12/31, THIS BOX MAY BE COLLECTED AS EARLY AS 12 NOON.", "nsi_id": "unitedstatespostalservice-a77078", "operator": "United States Postal Service", "operator:short": "USPS", "operator:type": "public", "operator:wikidata": "Q668687", "ref": "2401100059"}, "type": "Feature"}
{"geometry": {"coordinates": [-79.9447349, 37.270633], "type": "Point"}, "id": "rJeXE_f0hrWN3eWM0EQAddkO9vU=", "properties": {"@source_uri": "https://tools.usps.com/UspsToolsRestServices/rest/POLocator/findLocations", "@spider": "usps_collection_boxes", "addr:city": "ROANOKE", "addr:country": "US", "addr:full": "212 CHURCH AVE SW", "addr:postcode": "24011", "addr:state": "VA", "amenity": "post_box", "brand": "United States Postal Service", "brand:wikidata": "Q668687", "collection_times": "Mo-Fr 15:45; Sa 09:00", "note": "ON 12/24 AND 12/31, THIS BOX MAY BE COLLECTED AS EARLY AS 12 NOON.", "nsi_id": "unitedstatespostalservice-a77078", "operator": "United States Postal Service", "operator:short": "USPS", "operator:type": "public", "operator:wikidata": "Q668687", "ref": "2401100063"}, "type": "Feature"}
{"geometry": {"coordinates": [-79.9422110151, 37.270330995], "type": "Point"}, "id": "gedtGSRZNpa-AQs9xH8JAgdVD6c=", "properties": {"@source_uri": "https://tools.usps.com/UspsToolsRestServices/rest/POLocator/findLocations", "@spider": "usps_collection_boxes", "addr:city": "ROANOKE", "addr:country": "US", "addr:full": "406 1ST ST SW", "addr:postcode": "24011", "addr:state": "VA", "amenity": "post_box", "brand": "United States Postal Service", "brand:wikidata": "Q668687", "collection_times": "Mo-Fr 16:00; Sa 09:00", "note": "ON 12/24 AND 12/31, THIS BOX MAY BE COLLECTED AS EARLY AS 12 NOON.", "nsi_id": "unitedstatespostalservice-a77078", "operator": "United States Postal Service", "operator:short": "USPS", "operator:type": "public", "operator:wikidata": "Q668687", "ref": "2401100066"}, "type": "Feature"}
{"geometry": {"coordinates": [-79.9422110151, 37.270330995], "type": "Point"}, "id": "HTaDJgcXk9KYYCyX1Nokm_wesRA=", "properties": {"@source_uri": "https://tools.usps.com/UspsToolsRestServices/rest/POLocator/findLocations", "@spider": "usps_collection_boxes", "addr:city": "ROANOKE", "addr:country": "US", "addr:full": "406 1ST ST SW", "addr:postcode": "24011", "addr:state": "VA", "amenity": "post_box", "brand": "United States Postal Service", "brand:wikidata": "Q668687", "collection_times": "Mo-Fr 16:00; Sa 09:00", "note": "ON 12/24 AND 12/31, THIS BOX MAY BE COLLECTED AS EARLY AS 12 NOON.", "nsi_id": "unitedstatespostalservice-a77078", "operator": "United States Postal Service", "operator:short": "USPS", "operator:type": "public", "operator:wikidata": "Q668687", "ref": "2401100067"}, "type": "Feature"}
{"geometry": {"coordinates": [-79.939934993, 37.269693006], "type": "Point"}, "id": "3W3dQk6yEZORu5piEpDIqwXMnEw=", "properties": {"@source_uri": "https://tools.usps.com/UspsToolsRestServices/rest/POLocator/findLocations", "@spider": "usps_collection_boxes", "addr:city": "ROANOKE", "addr:country": "US", "addr:full": "10 FRANKLIN RD SE", "addr:postcode": "24011", "addr:state": "VA", "amenity": "post_box", "brand": "United States Postal Service", "brand:wikidata": "Q668687", "collection_times": "Mo-Fr 16:15; Sa 09:00", "note": "ON 12/24 AND 12/31, THIS BOX MAY BE COLLECTED AS EARLY AS 12 NOON.", "nsi_id": "unitedstatespostalservice-a77078", "operator": "United States Postal Service", "operator:short": "USPS", "operator:type": "public", "operator:wikidata": "Q668687", "ref": "2401100072"}, "type": "Feature"}
{"geometry": {"coordinates": [-79.939934993, 37.269693006], "type": "Point"}, "id": "Vp_-G9gq-GfXIcpnNLYLLuZ73h0=", "properties": {"@source_uri": "https://tools.usps.com/UspsToolsRestServices/rest/POLocator/findLocations", "@spider": "usps_collection_boxes", "addr:city": "ROANOKE", "addr:country": "US", "addr:full": "10 FRANKLIN RD SE", "addr:postcode": "24011", "addr:state": "VA", "amenity": "post_box", "brand": "United States Postal Service", "brand:wikidata": "Q668687", "collection_times": "Mo-Fr 16:15; Sa 09:00", "note": "ON 12/24 AND 12/31, THIS BOX MAY BE COLLECTED AS EARLY AS 12 NOON.", "nsi_id": "unitedstatespostalservice-a77078", "operator": "United States Postal Service", "operator:short": "USPS", "operator:type": "public", "operator:wikidata": "Q668687", "ref": "2401100073"}, "type": "Feature"}
{"geometry": {"coordinates": [-79.939934993, 37.269693006], "type": "Point"}, "id": "Mkte1iS6JZvJjT6R0UlG6hbn7Sg=", "properties": {"@source_uri": "https://tools.usps.com/UspsToolsRestServices/rest/POLocator/findLocations", "@spider": "usps_collection_boxes", "addr:city": "ROANOKE", "addr:country": "US", "addr:full": "10 FRANKLIN RD SE", "addr:postcode": "24011", "addr:state": "VA", "amenity": "post_box", "brand": "United States Postal Service", "brand:wikidata": "Q668687", "collection_times": "Mo-Fr 16:15; Sa 09:00", "note": "ON 12/24 AND 12/31, THIS BOX MAY BE COLLECTED AS EARLY AS 12 NOON.", "nsi_id": "unitedstatespostalservice-a77078", "operator": "United States Postal Service", "operator:short": "USPS", "operator:type": "public", "operator:wikidata": "Q668687", "ref": "2401100074"}, "type": "Feature"}
{"geometry": {"coordinates": [-79.94248633, 37.27061083], "type": "Point"}, "id": "mEQEG37XwYBD9CGaYR2rpHUvpxM=", "properties": {"@source_uri": "https://tools.usps.com/UspsToolsRestServices/rest/POLocator/findLocations", "@spider": "usps_collection_boxes", "addr:city": "ROANOKE", "addr:country": "US", "addr:full": "101 CHURCH AVE SW", "addr:postcode": "24011", "addr:state": "VA", "amenity": "post_box", "brand": "United States Postal Service", "brand:wikidata": "Q668687", "collection_times": "Mo-Fr 16:30", "indoor": "yes", "note": "ON 12/24 AND 12/31, THIS BOX MAY BE COLLECTED AS EARLY AS 12 NOON.", "nsi_id": "unitedstatespostalservice-a77078", "operator": "United States Postal Service", "operator:short": "USPS", "operator:type": "public", "operator:wikidata": "Q668687", "ref": "2401100079"}, "type": "Feature"}
{"geometry": {"coordinates": [-79.9320629, 37.306884], "type": "Point"}, "id": "Nef5ZgMsuffVb5dFxolcLekdH58=", "properties": {"@source_uri": "https://tools.usps.com/UspsToolsRestServices/rest/POLocator/findLocations", "@spider": "usps_collection_boxes", "addr:city": "ROANOKE", "addr:country": "US", "addr:full": "3428 PLANTATION RD NE", "addr:postcode": "24012", "addr:state": "VA", "amenity": "post_box", "brand": "United States Postal Service", "brand:wikidata": "Q668687", "collection_times": "Mo-Fr 15:00; Sa 09:00", "note": "ON 12/24 AND 12/31, THIS BOX MAY BE COLLECTED AS EARLY AS 12 NOON.", "nsi_id": "unitedstatespostalservice-a77078", "operator": "United States Postal Service", "operator:short": "USPS", "operator:type": "public", "operator:wikidata": "Q668687", "ref": "2401200002"}, "type": "Feature"}
{"geometry": {"coordinates": [-79.9649133, 37.317431], "type": "Point"}, "id": "tygDgAXk5A8CbuGtNmRrV-gMVlE=", "properties": {"@source_uri": "https://tools.usps.com/UspsToolsRestServices/rest/POLocator/findLocations", "@spider": "usps_collection_boxes", "addr:city": "ROANOKE", "addr:country": "US", "addr:full": "5050 RUTGERS ST NW", "addr:postcode": "24012", "addr:state": "VA", "amenity": "post_box", "brand": "United States Postal Service", "brand:wikidata": "Q668687", "collection_times": "Mo-Sa 09:00", "nsi_id": "unitedstatespostalservice-a77078", "operator": "United States Postal Service", "operator:short": "USPS", "operator:type": "public", "operator:wikidata": "Q668687", "ref": "2401200007"}, "type": "Feature"}
{"geometry": {"coordinates": [-79.9704577, 37.32051], "type": "Point"}, "id": "R0kpFu6hhMPZI2aE2Gw6CDZ6xPg=", "properties": {"@source_uri": "https://tools.usps.com/UspsToolsRestServices/rest/POLocator/findLocations", "@spider": "usps_collection_boxes", "addr:city": "ROANOKE", "addr:country": "US", "addr:full": "5202 AVIATION DR NW", "addr:postcode": "24012", "addr:state": "VA", "amenity": "post_box", "brand": "United States Postal Service", "brand:wikidata": "Q668687", "collection_times": "Mo-Fr 14:00; Sa 09:00", "note": "ON 12/24 AND 12/31, THIS BOX MAY BE COLLECTED AS EARLY AS 12 NOON.", "nsi_id": "unitedstatespostalservice-a77078", "operator": "United States Postal Service", "operator:short": "USPS", "operator:type": "public", "operator:wikidata": "Q668687", "ref": "2401200019"}, "type": "Feature"}
{"geometry": {"coordinates": [-79.9343054, 37.29043], "type": "Point"}, "id": "nzy3LJlLD4W89CB1BYcK_G0RBEY=", "properties": {"@source_uri": "https://tools.usps.com/UspsToolsRestServices/rest/POLocator/findLocations", "@spider": "usps_collection_boxes", "addr:city": "ROANOKE", "addr:country": "US", "addr:full": "2009 WILLIAMSON RD NE", "addr:postcode": "24012", "addr:state": "VA", "amenity": "post_box", "brand": "United States Postal Service", "brand:wikidata": "Q668687", "collection_times": "Mo-Fr 12:30; Sa 09:00", "note": "ON 12/24 AND 12/31, THIS BOX MAY BE COLLECTED AS EARLY AS 12 NOON.", "nsi_id": "unitedstatespostalservice-a77078", "operator": "United States Postal Service", "operator:short": "USPS", "operator:type": "public", "operator:wikidata": "Q668687", "ref": "2401200033"}, "type": "Feature"}
{"geometry": {"coordinates": [-79.945286251, 37.30430169], "type": "Point"}, "id": "D3WdHoA7DfslIw2r8SS-tc8fIF8=", "properties": {"@source_uri": "https://tools.usps.com/UspsToolsRestServices/rest/POLocator/findLocations", "@spider": "usps_collection_boxes", "addr:city": "ROANOKE", "addr:country": "US", "addr:full": "3628 WILLIAMSON RD NW", "addr:postcode": "24012", "addr:state": "VA", "amenity": "post_box", "brand": "United States Postal Service", "brand:wikidata": "Q668687", "collection_times": "Mo-Fr 14:00; Sa 09:00", "note": "ON 12/24 AND 12/31, THIS BOX MAY BE COLLECTED AS EARLY AS 12 NOON.", "nsi_id": "unitedstatespostalservice-a77078", "operator": "United States Postal Service", "operator:short": "USPS", "operator:type": "public", "operator:wikidata": "Q668687", "ref": "2401200056"}, "type": "Feature"}
{"geometry": {"coordinates": [-79.963389, 37.30401], "type": "Point"}, "id": "h64O5kZR9mL9lYmc6WSPfQDecxg=", "properties": {"@source_uri": "https://tools.usps.com/UspsToolsRestServices/rest/POLocator/findLocations", "@spider": "usps_collection_boxes", "addr:city": "ROANOKE", "addr:country": "US", "addr:full": "4802 VALLEY VIEW BLVD NW", "addr:postcode": "24012", "addr:state": "VA", "amenity": "post_box", "brand": "United States Postal Service", "brand:wikidata": "Q668687", "collection_times": "Mo-Fr 12:00; Sa 09:00", "nsi_id": "unitedstatespostalservice-a77078", "operator": "United States Postal Service", "operator:short": "USPS", "operator:type": "public", "operator:wikidata": "Q668687", "ref": "2401200060"}, "type": "Feature"}
{"geometry": {"coordinates": [-79.9584936, 37.316375], "type": "Point"}, "id": "BiMr9ctwQ-_dGrm13NTJWTFhAQE=", "properties": {"@source_uri": "https://tools.usps.com/UspsToolsRestServices/rest/POLocator/findLocations", "@spider": "usps_collection_boxes", "addr:city": "ROANOKE", "addr:country": "US", "addr:full": "5002 AIRPORT RD NW", "addr:postcode": "24012", "addr:state": "VA", "amenity": "post_box", "brand": "United States Postal Service", "brand:wikidata": "Q668687", "collection_times": "Mo-Fr 14:30; Sa 09:00", "note": "ON 12/24 AND 12/31, THIS BOX MAY BE COLLECTED AS EARLY AS 12 NOON.", "nsi_id": "unitedstatespostalservice-a77078", "operator": "United States Postal Service", "operator:short": "USPS", "operator:type": "public", "operator:wikidata": "Q668687", "ref": "2401200062"}, "type": "Feature"}
{"geometry": {"coordinates": [-79.9398361, 37.265668], "type": "Point"}, "id": "Pcvuzn89M3APIrjVXpmgVBxrv4s=", "properties": {"@source_uri": "https://tools.usps.com/UspsToolsRestServices/rest/POLocator/findLocations", "@spider": "usps_collection_boxes", "addr:city": "ROANOKE", "addr:country": "US", "addr:full": "101 ELM AVE SE", "addr:postcode": "24013", "addr:state": "VA", "amenity": "post_box", "brand": "United States Postal Service", "brand:wikidata": "Q668687", "collection_times": "Mo-Sa 09:00", "nsi_id": "unitedstatespostalservice-a77078", "operator": "United States Postal Service", "operator:short": "USPS", "operator:type": "public", "operator:wikidata": "Q668687", "ref": "2401300014"}, "type": "Feature"}
{"geometry": {"coordinates": [-79.9709313, 37.235207], "type": "Point"}, "id": "ngEkcdpFuxrLw7LfJQ9qMpY25zg=", "properties": {"@source_uri": "https://tools.usps.com/UspsToolsRestServices/rest/POLocator/findLocations", "@spider": "usps_collection_boxes", "addr:city": "ROANOKE", "addr:country": "US", "addr:full": "3613 FRANKLIN RD SW", "addr:postcode": "24014", "addr:state": "VA", "amenity": "post_box", "brand": "United States Postal Service", "brand:wikidata": "Q668687", "collection_times": "Mo-Fr 12:00; Sa 09:00", "nsi_id": "unitedstatespostalservice-a77078", "operator": "United States Postal Service", "operator:short": "USPS", "operator:type": "public", "operator:wikidata": "Q668687", "ref": "2401400023"}, "type": "Feature"}
{"geometry": {"coordinates": [-79.9471863259, 37.2477339625], "type": "Point"}, "id": "qroN1tUFrG9X4xl9JOVfkBQciiw=", "properties": {"@source_uri": "https://tools.usps.com/UspsToolsRestServices/rest/POLocator/findLocations", "@spider": "usps_collection_boxes", "addr:city": "ROANOKE", "addr:country": "US", "addr:full": "2229 CRYSTAL SPRING AVE SW", "addr:postcode": "24014", "addr:state": "VA", "amenity": "post_box", "brand": "United States Postal Service", "brand:wikidata": "Q668687", "collection_times": "Mo-Fr 16:30; Sa 09:00", "note": "ON 12/24 AND 12/31, THIS BOX MAY BE COLLECTED AS EARLY AS 12 NOON.", "nsi_id": "unitedstatespostalservice-a77078", "operator": "United States Postal Service", "operator:short": "USPS", "operator:type": "public", "operator:wikidata": "Q668687", "ref": "2401400039"}, "type": "Feature"}
{"geometry": {"coordinates": [-79.9471863259, 37.2477339625], "type": "Point"}, "id": "_g_0REWEObERuFjzVl_eyPl7YDM=", "properties": {"@source_uri": "https://tools.usps.com/UspsToolsRestServices/rest/POLocator/findLocations", "@spider": "usps_collection_boxes", "addr:city": "ROANOKE", "addr:country": "US", "addr:full": "2229 CRYSTAL SPRING AVE SW", "addr:postcode": "24014", "addr:state": "VA", "amenity": "post_box", "brand": "United States Postal Service", "brand:wikidata": "Q668687", "collection_times": "Mo-Fr 16:30; Sa 09:00", "note": "ON 12/24 AND 12/31, THIS BOX MAY BE COLLECTED AS EARLY AS 12 NOON.", "nsi_id": "unitedstatespostalservice-a77078", "operator": "United States Postal Service", "operator:short": "USPS", "operator:type": "public", "operator:wikidata": "Q668687", "ref": "2401400040"}, "type": "Feature"}
{"geometry": {"coordinates": [-79.9471863259, 37.2477339625], "type": "Point"}, "id": "XNZ0cDbNX9_Fb4NwUgp79yI5_Zo=", "properties": {"@source_uri": "https://tools.usps.com/UspsToolsRestServices/rest/POLocator/findLocations", "@spider": "usps_collection_boxes", "addr:city": "ROANOKE", "addr:country": "US", "addr:full": "2229 CRYSTAL SPRING AVE SW", "addr:postcode": "24014", "addr:state": "VA", "amenity": "post_box", "brand": "United States Postal Service", "brand:wikidata": "Q668687", "collection_times": "Mo-Fr 16:30; Sa 09:00", "note": "ON 12/24 AND 12/31, THIS BOX MAY BE COLLECTED AS EARLY AS 12 NOON.", "nsi_id": "unitedstatespostalservice-a77078", "operator": "United States Postal Service", "operator:short": "USPS", "operator:type": "public", "operator:wikidata": "Q668687", "ref": "2401400042"}, "type": "Feature"}
{"geometry": {"coordinates": [-79.947186326, 37.247733963], "type": "Point"}, "id": "pvrtrUQQHyKutuyjKNafYRPeCcI=", "properties": {"@source_uri": "https://tools.usps.com/UspsToolsRestServices/rest/POLocator/findLocations", "@spider": "usps_collection_boxes", "addr:city": "ROANOKE", "addr:country": "US", "addr:full": "2229 CRYSTAL SPRING AVE SW", "addr:postcode": "24014", "addr:state": "VA", "amenity": "post_box", "brand": "United States Postal Service", "brand:wikidata": "Q668687", "collection_times": "Mo-Fr 16:30; Sa 12:00", "indoor": "yes", "note": "ON 12/24 AND 12/31, THIS BOX MAY BE COLLECTED AS EARLY AS 12 NOON.", "nsi_id": "unitedstatespostalservice-a77078", "operator": "United States Postal Service", "operator:short": "USPS", "operator:type": "public", "operator:wikidata": "Q668687", "ref": "2401400060"}, "type": "Feature"}
{"geometry": {"coordinates": [-79.9650319, 37.222206], "type": "Point"}, "id": "u0oO0FwK4MKjmo0F2oNGc2yL9J4=", "properties": {"@source_uri": "https://tools.usps.com/UspsToolsRestServices/rest/POLocator/findLocations", "@spider": "usps_collection_boxes", "addr:city": "ROANOKE", "addr:country": "US", "addr:full": "4419 PHEASANT RIDGE RD", "addr:postcode": "24014", "addr:state": "VA", "amenity": "post_box", "brand": "United States Postal Service", "brand:wikidata": "Q668687", "collection_times": "Mo-Sa 09:00", "nsi_id": "unitedstatespostalservice-a77078", "operator": "United States Postal Service", "operator:short": "USPS", "operator:type": "public", "operator:wikidata": "Q668687", "ref": "2401400061"}, "type": "Feature"}
{"geometry": {"coordinates": [-79.9474290013, 37.2479159838], "type": "Point"}, "id": "S8EDjPy1EzDOmKqHwZ1O4tnDmXs=", "properties": {"@source_uri": "https://tools.usps.com/UspsToolsRestServices/rest/POLocator/findLocations", "@spider": "usps_collection_boxes", "addr:city": "ROANOKE", "addr:country": "US", "addr:full": "2229 CRYSTAL SPRING AVE SW", "addr:postcode": "24014", "addr:state": "VA", "amenity": "post_box", "brand": "United States Postal Service", "brand:wikidata": "Q668687", "collection_times": "Mo-Fr 16:30; Sa 12:00", "indoor": "yes", "note": "ON 12/24 AND 12/31, THIS BOX MAY BE COLLECTED AS EARLY AS 12 NOON.", "nsi_id": "unitedstatespostalservice-a77078", "operator": "United States Postal Service", "operator:short": "USPS", "operator:type": "public", "operator:wikidata": "Q668687", "ref": "2401400073"}, "type": "Feature"}
{"geometry": {"coordinates": [-79.9930796, 37.242241], "type": "Point"}, "id": "ZPiGcTYROZ0_pqQZkKt5c2jlp64=", "properties": {"@source_uri": "https://tools.usps.com/UspsToolsRestServices/rest/POLocator/findLocations", "@spider": "usps_collection_boxes", "addr:city": "ROANOKE", "addr:country": "US", "addr:full": "3021 BRAMBLETON AVE SW", "addr:postcode": "24015", "addr:state": "VA", "amenity": "post_box", "brand": "United States Postal Service", "brand:wikidata": "Q668687", "collection_times": "Mo-Fr 10:30; Sa 09:00", "nsi_id": "unitedstatespostalservice-a77078", "operator": "United States Postal Service", "operator:short": "USPS", "operator:type": "public", "operator:wikidata": "Q668687", "ref": "2401500000"}, "type": "Feature"}
{"geometry": {"coordinates": [-79.9572487, 37.255872], "type": "Point"}, "id": "N2J4-p2BRM88x0Z_behV9Kb_JEs=", "properties": {"@source_uri": "https://tools.usps.com/UspsToolsRestServices/rest/POLocator/findLocations", "@spider": "usps_collection_boxes", "addr:city": "ROANOKE", "addr:country": "US", "addr:full": "630 BRANDON AVE SW", "addr:postcode": "24015", "addr:state": "VA", "amenity": "post_box", "brand": "United States Postal Service", "brand:wikidata": "Q668687", "collection_times": "Mo-Fr 11:45; Sa 09:00", "nsi_id": "unitedstatespostalservice-a77078", "operator": "United States Postal Service", "operator:short": "USPS", "operator:type": "public", "operator:wikidata": "Q668687", "ref": "2401500007"}, "type": "Feature"}
{"geometry": {"coordinates": [-79.979440225, 37.261128393], "type": "Point"}, "id": "HM3SGm3x-iNVf2_uA0qKItR_05k=", "properties": {"@source_uri": "https://tools.usps.com/UspsToolsRestServices/rest/POLocator/findLocations", "@spider": "usps_collection_boxes", "addr:city": "ROANOKE", "addr:country": "US", "addr:full": "1733 GRANDIN RD SW", "addr:postcode": "24015", "addr:state": "VA", "amenity": "post_box", "brand": "United States Postal Service", "brand:wikidata": "Q668687", "collection_times": "Mo-Fr 17:00; Sa 12:00", "note": "ON 12/24 AND 12/31, THIS BOX MAY BE COLLECTED AS EARLY AS 12 NOON.", "nsi_id": "unitedstatespostalservice-a77078", "operator": "United States Postal Service", "operator:short": "USPS", "operator:type": "public", "operator:wikidata": "Q668687", "ref": "2401500027"}, "type": "Feature"}
{"geometry": {"coordinates": [-79.979444725, 37.261128393], "type": "Point"}, "id": "yEMvzm8O9yFJPy5CNv6uzaOTdB0=", "properties": {"@source_uri": "https://tools.usps.com/UspsToolsRestServices/rest/POLocator/findLocations", "@spider": "usps_collection_boxes", "addr:city": "ROANOKE", "addr:country": "US", "addr:full": "1733 GRANDIN RD SW", "addr:postcode": "24015", "addr:state": "VA", "amenity": "post_box", "brand": "United States Postal Service", "brand:wikidata": "Q668687", "collection_times": "Mo-Fr 17:00; Sa 12:00", "note": "ON 12/24 AND 12/31, THIS BOX MAY BE COLLECTED AS EARLY AS 12 NOON.", "nsi_id": "unitedstatespostalservice-a77078", "operator": "United States Postal Service", "operator:short": "USPS", "operator:type": "public", "operator:wikidata": "Q668687", "ref": "2401500030"}, "type": "Feature"}
{"geometry": {"coordinates": [-79.979444725, 37.261128393], "type": "Point"}, "id": "OFC7db66UDNmfWcUyHc_B2jRTbk=", "properties": {"@source_uri": "https://tools.usps.com/UspsToolsRestServices/rest/POLocator/findLocations", "@spider": "usps_collection_boxes", "addr:city": "ROANOKE", "addr:country": "US", "addr:full": "1733 GRANDIN RD SW", "addr:postcode": "24015", "addr:state": "VA", "amenity": "post_box", "brand": "United States Postal Service", "brand:wikidata": "Q668687", "collection_times": "Mo-Fr 17:00; Sa 12:00", "indoor": "yes", "note": "ON 12/24 AND 12/31, THIS BOX MAY BE COLLECTED AS EARLY AS 12 NOON.", "nsi_id": "unitedstatespostalservice-a77078", "operator": "United States Postal Service", "operator:short": "USPS", "operator:type": "public", "operator:wikidata": "Q668687", "ref": "2401500033"}, "type": "Feature"}
{"geometry": {"coordinates": [-79.979724, 37.261314], "type": "Point"}, "id": "to3YYtIw88DnGDozZS2yStarMUM=", "properties": {"@source_uri": "https://tools.usps.com/UspsToolsRestServices/rest/POLocator/findLocations", "@spider": "usps_collection_boxes", "addr:city": "ROANOKE", "addr:country": "US", "addr:full": "1733 GRANDIN RD SW", "addr:postcode": "24015", "addr:state": "VA", "amenity": "post_box", "brand": "United States Postal Service", "brand:wikidata": "Q668687", "collection_times": "Mo-Fr 17:00; Sa 12:00", "indoor": "yes", "note": "ON 12/24 AND 12/31, THIS BOX MAY BE COLLECTED AS EARLY AS 12 NOON.", "nsi_id": "unitedstatespostalservice-a77078", "operator": "United States Postal Service", "operator:short": "USPS", "operator:type": "public", "operator:wikidata": "Q668687", "ref": "2401500037"}, "type": "Feature"}
{"geometry": {"coordinates": [-79.954731, 37.255059], "type": "Point"}, "id": "ig7S6Q5fdQ4Eps0BxrKjNYKjeUg=", "properties": {"@source_uri": "https://tools.usps.com/UspsToolsRestServices/rest/POLocator/findLocations", "@spider": "usps_collection_boxes", "addr:city": "ROANOKE", "addr:country": "US", "addr:full": "2036 COLONIAL AVE SW", "addr:postcode": "24015", "addr:state": "VA", "amenity": "post_box", "brand": "United States Postal Service", "brand:wikidata": "Q668687", "collection_times": "Mo-Fr 10:45; Sa 09:00", "nsi_id": "unitedstatespostalservice-a77078", "operator": "United States Postal Service", "operator:short": "USPS", "operator:type": "public", "operator:wikidata": "Q668687", "ref": "2401500038"}, "type": "Feature"}
{"geometry": {"coordinates": [-79.9452661, 37.262992], "type": "Point"}, "id": "n4B98zlaRHX5VyfKUsgdCO5v420=", "properties": {"@source_uri": "https://tools.usps.com/UspsToolsRestServices/rest/POLocator/findLocations", "@spider": "usps_collection_boxes", "addr:city": "ROANOKE", "addr:country": "US", "addr:full": "1201 3RD ST SW", "addr:postcode": "24016", "addr:state": "VA", "amenity": "post_box", "brand": "United States Postal Service", "brand:wikidata": "Q668687", "collection_times": "Mo-Fr 12:45; Sa 09:00", "note": "ON 12/24 AND 12/31, THIS BOX MAY BE COLLECTED AS EARLY AS 12 NOON.", "nsi_id": "unitedstatespostalservice-a77078", "operator": "United States Postal Service", "operator:short": "USPS", "operator:type": "public", "operator:wikidata": "Q668687", "ref": "2401600027"}, "type": "Feature"}
{"geometry": {"coordinates": [-79.9407583, 37.267553], "type": "Point"}, "id": "aGuyXz8JVvONFkn7ZHN6T4vy0D8=", "properties": {"@source_uri": "https://tools.usps.com/UspsToolsRestServices/rest/POLocator/findLocations", "@spider": "usps_collection_boxes", "addr:city": "ROANOKE", "addr:country": "US", "addr:full": "707 S JEFFERSON ST", "addr:postcode": "24016", "addr:state": "VA", "amenity": "post_box", "brand": "United States Postal Service", "brand:wikidata": "Q668687", "collection_times": "Mo-Fr 16:15; Sa 09:00", "note": "ON 12/24 AND 12/31, THIS BOX MAY BE COLLECTED AS EARLY AS 12 NOON.", "nsi_id": "unitedstatespostalservice-a77078", "operator": "United States Postal Service", "operator:short": "USPS", "operator:type": "public", "operator:wikidata": "Q668687", "ref": "2401600029"}, "type": "Feature"}
{"geometry": {"coordinates": [-79.9466989, 37.270675], "type": "Point"}, "id": "YLYX9ED_0U8OjXPNsXVVnbZpejw=", "properties": {"@source_uri": "https://tools.usps.com/UspsToolsRestServices/rest/POLocator/findLocations", "@spider": "usps_collection_boxes", "addr:city": "ROANOKE", "addr:country": "US", "addr:full": "315 CHURCH AVE SW", "addr:postcode": "24016", "addr:state": "VA", "amenity": "post_box", "brand": "United States Postal Service", "brand:wikidata": "Q668687", "collection_times": "Mo-Fr 15:45; Sa 09:00", "note": "ON 12/24 AND 12/31, THIS BOX MAY BE COLLECTED AS EARLY AS 12 NOON.", "nsi_id": "unitedstatespostalservice-a77078", "operator": "United States Postal Service", "operator:short": "USPS", "operator:type": "public", "operator:wikidata": "Q668687", "ref": "2401600036"}, "type": "Feature"}
{"geometry": {"coordinates": [-79.9423722, 37.263316], "type": "Point"}, "id": "COnSGkq9y3H-QSMyccnDN1FbcVM=", "properties": {"@source_uri": "https://tools.usps.com/UspsToolsRestServices/rest/POLocator/findLocations", "@spider": "usps_collection_boxes", "addr:city": "ROANOKE", "addr:country": "US", "addr:full": "16 ALBEMARLE AVE SW", "addr:postcode": "24016", "addr:state": "VA", "amenity": "post_box", "brand": "United States Postal Service", "brand:wikidata": "Q668687", "collection_times": "Mo-Fr 12:30; Sa 09:00", "note": "ON 12/24 AND 12/31, THIS BOX MAY BE COLLECTED AS EARLY AS 12 NOON.", "nsi_id": "unitedstatespostalservice-a77078", "operator": "United States Postal Service", "operator:short": "USPS", "operator:type": "public", "operator:wikidata": "Q668687", "ref": "2401600039"}, "type": "Feature"}
{"geometry": {"coordinates": [-79.9441253, 37.261211], "type": "Point"}, "id": "rCNlwYol_P9bPAm2jbvSNYGdEG8=", "properties": {"@source_uri": "https://tools.usps.com/UspsToolsRestServices/rest/POLocator/findLocations", "@spider": "usps_collection_boxes", "addr:city": "ROANOKE", "addr:country": "US", "addr:full": "1315 2ND ST SW", "addr:postcode": "24016", "addr:state": "VA", "amenity": "post_box", "brand": "United States Postal Service", "brand:wikidata": "Q668687", "collection_times": "Mo-Fr 11:00; Sa 09:00", "nsi_id": "unitedstatespostalservice-a77078", "operator": "United States Postal Service", "operator:short": "USPS", "operator:type": "public", "operator:wikidata": "Q668687", "ref": "2401600041"}, "type": "Feature"}
{"geometry": {"coordinates": [-79.9467986, 37.263105], "type": "Point"}, "id": "jkirdA-UVxC2goFsRH9azto6EB8=", "properties": {"@source_uri": "https://tools.usps.com/UspsToolsRestServices/rest/POLocator/findLocations", "@spider": "usps_collection_boxes", "addr:city": "ROANOKE", "addr:country": "US", "addr:full": "1201 FRANKLIN RD SW", "addr:postcode": "24016", "addr:state": "VA", "amenity": "post_box", "brand": "United States Postal Service", "brand:wikidata": "Q668687", "collection_times": "Mo-Sa 09:00", "nsi_id": "unitedstatespostalservice-a77078", "operator": "United States Postal Service", "operator:short": "USPS", "operator:type": "public", "operator:wikidata": "Q668687", "ref": "2401600043"}, "type": "Feature"}
{"geometry": {"coordinates": [-79.984988633, 37.289117999], "type": "Point"}, "id": "hHuLTw2hzoN3861ixPPG7oSfTw4=", "properties": {"@source_uri": "https://tools.usps.com/UspsToolsRestServices/rest/POLocator/findLocations", "@spider": "usps_collection_boxes", "addr:city": "ROANOKE", "addr:country": "US", "addr:full": "3018 MELROSE AVE NW", "addr:postcode": "24017", "addr:state": "VA", "amenity": "post_box", "brand": "United States Postal Service", "brand:wikidata": "Q668687", "collection_times": "Mo-Fr 17:00; Sa 12:00", "indoor": "yes", "note": "ON 12/24 AND 12/31, THIS BOX MAY BE COLLECTED AS EARLY AS 12 NOON.", "nsi_id": "unitedstatespostalservice-a77078", "operator": "United States Postal Service", "operator:short": "USPS", "operator:type": "public", "operator:wikidata": "Q668687", "ref": "2401700051"}, "type": "Feature"}
{"geometry": {"coordinates": [-79.9777677, 37.2879389], "type": "Point"}, "id": "38kPg7C2ea9w8zkzAQKKT6NNlho=", "properties": {"@source_uri": "https://tools.usps.com/UspsToolsRestServices/rest/POLocator/findLocations", "@spider": "usps_collection_boxes", "addr:city": "ROANOKE", "addr:country": "US", "addr:full": "3018 MELROSE AVE NW", "addr:postcode": "24017", "addr:state": "VA", "amenity": "post_box", "brand": "United States Postal Service", "brand:wikidata": "Q668687", "collection_times": "Mo-Fr 17:00; Sa 12:00", "note": "ON 12/24 AND 12/31, THIS BOX MAY BE COLLECTED AS EARLY AS 12 NOON.", "nsi_id": "unitedstatespostalservice-a77078", "operator": "United States Postal Service", "operator:short": "USPS", "operator:type": "public", "operator:wikidata": "Q668687", "ref": "2401700053"}, "type": "Feature"}
{"geometry": {"coordinates": [-79.984988633, 37.289117999], "type": "Point"}, "id": "2kKJ5leihtqncQQgEE6zVzT6k7I=", "properties": {"@source_uri": "https://tools.usps.com/UspsToolsRestServices/rest/POLocator/findLocations", "@spider": "usps_collection_boxes", "addr:city": "ROANOKE", "addr:country": "US", "addr:full": "3018 MELROSE AVE NW", "addr:postcode": "24017", "addr:state": "VA", "amenity": "post_box", "brand": "United States Postal Service", "brand:wikidata": "Q668687", "collection_times": "Mo-Fr 17:00; Sa 12:00", "indoor": "yes", "note": "ON 12/24 AND 12/31, THIS BOX MAY BE COLLECTED AS EARLY AS 12 NOON.", "nsi_id": "unitedstatespostalservice-a77078", "operator": "United States Postal Service", "operator:short": "USPS", "operator:type": "public", "operator:wikidata": "Q668687", "ref": "2401700057"}, "type": "Feature"}
{"geometry": {"coordinates": [-79.9907869939, 37.2231130103], "type": "Point"}, "id": "DA3Qc_AgpmnyLE9utijliCluU94=", "properties": {"@source_uri": "https://tools.usps.com/UspsToolsRestServices/rest/POLocator/findLocations", "@spider": "usps_collection_boxes", "addr:city": "ROANOKE", "addr:country": "US", "addr:full": "3130 CHAPARRAL DR", "addr:postcode": "24018", "addr:state": "VA", "amenity": "post_box", "brand": "United States Postal Service", "brand:wikidata": "Q668687", "collection_times": "Mo-Fr 14:15; Sa 09:00", "note": "ON 12/24 AND 12/31, THIS BOX MAY BE COLLECTED AS EARLY AS 12 NOON.", "nsi_id": "unitedstatespostalservice-a77078", "operator": "United States Postal Service", "operator:short": "USPS", "operator:type": "public", "operator:wikidata": "Q668687", "ref": "2401800000"}, "type": "Feature"}
{"geometry": {"coordinates": [-80.0321318, 37.245852], "type": "Point"}, "id": "jH0Ut4ODGBtYNil9kcjhCynqO1o=", "properties": {"@source_uri": "https://tools.usps.com/UspsToolsRestServices/rest/POLocator/findLocations", "@spider": "usps_collection_boxes", "addr:city": "ROANOKE", "addr:country": "US", "addr:full": "2041 ELECTRIC RD", "addr:postcode": "24018", "addr:state": "VA", "amenity": "post_box", "brand": "United States Postal Service", "brand:wikidata": "Q668687", "collection_times": "Mo-Fr 15:30; Sa 09:00", "note": "ON 12/24 AND 12/31, THIS BOX MAY BE COLLECTED AS EARLY AS 12 NOON.", "nsi_id": "unitedstatespostalservice-a77078", "operator": "United States Postal Service", "operator:short": "USPS", "operator:type": "public", "operator:wikidata": "Q668687", "ref": "2401800005"}, "type": "Feature"}
{"geometry": {"coordinates": [-80.0182914, 37.234233], "type": "Point"}, "id": "QDZJDDqmYH_MjPFQe-3mwNoRKig=", "properties": {"@source_uri": "https://tools.usps.com/UspsToolsRestServices/rest/POLocator/findLocations", "@spider": "usps_collection_boxes", "addr:city": "ROANOKE", "addr:country": "US", "addr:full": "2840 ELECTRIC RD", "addr:postcode": "24018", "addr:state": "VA", "amenity": "post_box", "brand": "United States Postal Service", "brand:wikidata": "Q668687", "collection_times": "Mo-Fr 15:15; Sa 09:00", "note": "ON 12/24 AND 12/31, THIS BOX MAY BE COLLECTED AS EARLY AS 12 NOON.", "nsi_id": "unitedstatespostalservice-a77078", "operator": "United States Postal Service", "operator:short": "USPS", "operator:type": "public", "operator:wikidata": "Q668687", "ref": "2401800014"}, "type": "Feature"}
{"geometry": {"coordinates": [-80.0182911, 37.234227], "type": "Point"}, "id": "pFrg83KcmqDCSi9kyFTPmjzi5XU=", "properties": {"@source_uri": "https://tools.usps.com/UspsToolsRestServices/rest/POLocator/findLocations", "@spider": "usps_collection_boxes", "addr:city": "ROANOKE", "addr:country": "US", "addr:full": "2840 ELECTRIC RD", "addr:postcode": "24018", "addr:state": "VA", "amenity": "post_box", "brand": "United States Postal Service", "brand:wikidata": "Q668687", "collection_times": "Mo-Fr 15:15; Sa 09:00", "note": "ON 12/24 AND 12/31, THIS BOX MAY BE COLLECTED AS EARLY AS 12 NOON.", "nsi_id": "unitedstatespostalservice-a77078", "operator": "United States Postal Service", "operator:short": "USPS", "operator:type": "public", "operator:wikidata": "Q668687", "ref": "2401800015"}, "type": "Feature"}
{"geometry": {"coordinates": [-79.9910374, 37.225202], "type": "Point"}, "id": "MypIRPJ4lx03t6YQKl-52f4V81w=", "properties": {"@source_uri": "https://tools.usps.com/UspsToolsRestServices/rest/POLocator/findLocations", "@spider": "usps_collection_boxes", "addr:city": "ROANOKE", "addr:country": "US", "addr:full": "3800 ELECTRIC RD", "addr:postcode": "24018", "addr:state": "VA", "amenity": "post_box", "brand": "United States Postal Service", "brand:wikidata": "Q668687", "collection_times": "Mo-Fr 14:00; Sa 09:00", "note": "ON 12/24 AND 12/31, THIS BOX MAY BE COLLECTED AS EARLY AS 12 NOON.", "nsi_id": "unitedstatespostalservice-a77078", "operator": "United States Postal Service", "operator:short": "USPS", "operator:type": "public", "operator:wikidata": "Q668687", "ref": "2401800021"}, "type": "Feature"}
{"geometry": {"coordinates": [-79.9911595, 37.225166], "type": "Point"}, "id": "O8mwCtQcN4m16llHisafAtG03dg=", "properties": {"@source_uri": "https://tools.usps.com/UspsToolsRestServices/rest/POLocator/findLocations", "@spider": "usps_collection_boxes", "addr:city": "ROANOKE", "addr:country": "US", "addr:full": "3800 ELECTRIC RD", "addr:postcode": "24018", "addr:state": "VA", "amenity": "post_box", "brand": "United States Postal Service", "brand:wikidata": "Q668687", "collection_times": "Mo-Fr 14:00; Sa 09:00", "note": "ON 12/24 AND 12/31, THIS BOX MAY BE COLLECTED AS EARLY AS 12 NOON.", "nsi_id": "unitedstatespostalservice-a77078", "operator": "United States Postal Service", "operator:short": "USPS", "operator:type": "public", "operator:wikidata": "Q668687", "ref": "2401800022"}, "type": "Feature"}
{"geometry": {"coordinates": [-79.985621, 37.223365], "type": "Point"}, "id": "Xr3u8vbtqfleUNqsDl1eHON8ZpA=", "properties": {"@source_uri": "https://tools.usps.com/UspsToolsRestServices/rest/POLocator/findLocations", "@spider": "usps_collection_boxes", "addr:city": "ROANOKE", "addr:country": "US", "addr:full": "3959 ELECTRIC RD", "addr:postcode": "24018", "addr:state": "VA", "amenity": "post_box", "brand": "United States Postal Service", "brand:wikidata": "Q668687", "collection_times": "Mo-Fr 14:15; Sa 09:00", "note": "ON 12/24 AND 12/31, THIS BOX MAY BE COLLECTED AS EARLY AS 12 NOON.", "nsi_id": "unitedstatespostalservice-a77078", "operator": "United States Postal Service", "operator:short": "USPS", "operator:type": "public", "operator:wikidata": "Q668687", "ref": "2401800027"}, "type": "Feature"}
{"geometry": {"coordinates": [-80.000170037, 37.237810675], "type": "Point"}, "id": "EW4yFucBP8iD5pymDY7ceYnCuOw=", "properties": {"@source_uri": "https://tools.usps.com/UspsToolsRestServices/rest/POLocator/findLocations", "@spider": "usps_collection_boxes", "addr:city": "ROANOKE", "addr:country": "US", "addr:full": "3512 BRAMBLETON AVE", "addr:postcode": "24018", "addr:state": "VA", "amenity": "post_box", "brand": "United States Postal Service", "brand:wikidata": "Q668687", "collection_times": "Mo-Fr 15:00; Sa 09:00", "note": "ON 12/24 AND 12/31, THIS BOX MAY BE COLLECTED AS EARLY AS 12 NOON.", "nsi_id": "unitedstatespostalservice-a77078", "operator": "United States Postal Service", "operator:short": "USPS", "operator:type": "public", "operator:wikidata": "Q668687", "ref": "2401800032"}, "type": "Feature"}
{"geometry": {"coordinates": [-80.011582999, 37.233229003], "type": "Point"}, "id": "yhB00RBqWUId1VgFnG4P8Y8C8co=", "properties": {"@source_uri": "https://tools.usps.com/UspsToolsRestServices/rest/POLocator/findLocations", "@spider": "usps_collection_boxes", "addr:city": "ROANOKE", "addr:country": "US", "addr:full": "4069 POSTAL DR", "addr:postcode": "24018", "addr:state": "VA", "amenity": "post_box", "brand": "United States Postal Service", "brand:wikidata": "Q668687", "collection_times": "Mo-Fr 16:30; Sa 12:00", "note": "ON 12/24 AND 12/31, THIS BOX MAY BE COLLECTED AS EARLY AS 12 NOON.", "nsi_id": "unitedstatespostalservice-a77078", "operator": "United States Postal Service", "operator:short": "USPS", "operator:type": "public", "operator:wikidata": "Q668687", "ref": "2401800033"}, "type": "Feature"}
{"geometry": {"coordinates": [-80.011582999, 37.233229003], "type": "Point"}, "id": "FLp2fXKch8B_cYQ9yLf-1K2U07Y=", "properties": {"@source_uri": "https://tools.usps.com/UspsToolsRestServices/rest/POLocator/findLocations", "@spider": "usps_collection_boxes", "addr:city": "ROANOKE", "addr:country": "US", "addr:full": "4069 POSTAL DR", "addr:postcode": "24018", "addr:state": "VA", "amenity": "post_box", "brand": "United States Postal Service", "brand:wikidata": "Q668687", "collection_times": "Mo-Fr 16:30; Sa 12:00", "note": "ON 12/24 AND 12/31, THIS BOX MAY BE COLLECTED AS EARLY AS 12 NOON.", "nsi_id": "unitedstatespostalservice-a77078", "operator": "United States Postal Service", "operator:short": "USPS", "operator:type": "public", "operator:wikidata": "Q668687", "ref": "2401800035"}, "type": "Feature"}
{"geometry": {"coordinates": [-80.0117313, 37.224619], "type": "Point"}, "id": "l6yQQwxvYf2p3a61DVsrHZMSh1c=", "properties": {"@source_uri": "https://tools.usps.com/UspsToolsRestServices/rest/POLocator/findLocations", "@spider": "usps_collection_boxes", "addr:city": "ROANOKE", "addr:country": "US", "addr:full": "4404 BRAMBLETON AVE", "addr:postcode": "24018", "addr:state": "VA", "amenity": "post_box", "brand": "United States Postal Service", "brand:wikidata": "Q668687", "collection_times": "Mo-Fr 15:00; Sa 09:00", "note": "ON 12/24 AND 12/31, THIS BOX MAY BE COLLECTED AS EARLY AS 12 NOON.", "nsi_id": "unitedstatespostalservice-a77078", "operator": "United States Postal Service", "operator:short": "USPS", "operator:type": "public", "operator:wikidata": "Q668687", "ref": "2401800048"}, "type": "Feature"}
{"geometry": {"coordinates": [-80.011582999, 37.233229003], "type": "Point"}, "id": "EKivGP5Seg8Fia6HbZbhlgxJXLE=", "properties": {"@source_uri": "https://tools.usps.com/UspsToolsRestServices/rest/POLocator/findLocations", "@spider": "usps_collection_boxes", "addr:city": "ROANOKE", "addr:country": "US", "addr:full": "4069 POSTAL DR", "addr:postcode": "24018", "addr:state": "VA", "amenity": "post_box", "brand": "United States Postal Service", "brand:wikidata": "Q668687", "collection_times": "Mo-Fr 16:45; Sa 12:00", "indoor": "yes", "note": "ON 12/24 AND 12/31, THIS BOX MAY BE COLLECTED AS EARLY AS 12 NOON.", "nsi_id": "unitedstatespostalservice-a77078", "operator": "United States Postal Service", "operator:short": "USPS", "operator:type": "public", "operator:wikidata": "Q668687", "ref": "2401800050"}, "type": "Feature"}
{"geometry": {"coordinates": [-80.0202668, 37.234251], "type": "Point"}, "id": "LM11fFLNubFoS3ztOGHae8160xk=", "properties": {"@source_uri": "https://tools.usps.com/UspsToolsRestServices/rest/POLocator/findLocations", "@spider": "usps_collection_boxes", "addr:city": "ROANOKE", "addr:country": "US", "addr:full": "2772 ELECTRIC RD", "addr:postcode": "24018", "addr:state": "VA", "amenity": "post_box", "brand": "United States Postal Service", "brand:wikidata": "Q668687", "collection_times": "Mo-Fr 15:15; Sa 09:00", "note": "ON 12/24 AND 12/31, THIS BOX MAY BE COLLECTED AS EARLY AS 12 NOON.", "nsi_id": "unitedstatespostalservice-a77078", "operator": "United States Postal Service", "operator:short": "USPS", "operator:type": "public", "operator:wikidata": "Q668687", "ref": "2401800054"}, "type": "Feature"}
{"geometry": {"coordinates": [-80.011582999, 37.233229003], "type": "Point"}, "id": "sNUZyQErm_Tpn17a1FeLZRb6ZHo=", "properties": {"@source_uri": "https://tools.usps.com/UspsToolsRestServices/rest/POLocator/findLocations", "@spider": "usps_collection_boxes", "addr:city": "ROANOKE", "addr:country": "US", "addr:full": "4069 POSTAL DR", "addr:postcode": "24018", "addr:state": "VA", "amenity": "post_box", "brand": "United States Postal Service", "brand:wikidata": "Q668687", "collection_times": "Mo-Fr 16:45; Sa 12:00", "name": "USPS COLLECTION BOX - APC", "note": "ON 12/24 AND 12/31, THIS BOX MAY BE COLLECTED AS EARLY AS 12 NOON.", "nsi_id": "unitedstatespostalservice-a77078", "operator": "United States Postal Service", "operator:short": "USPS", "operator:type": "public", "operator:wikidata": "Q668687", "ref": "2401800055"}, "type": "Feature"}
{"geometry": {"coordinates": [-79.9781287, 37.227339], "type": "Point"}, "id": "jFnJXsH4HP0u8sBJHKt1VfIWrj0=", "properties": {"@source_uri": "https://tools.usps.com/UspsToolsRestServices/rest/POLocator/findLocations", "@spider": "usps_collection_boxes", "addr:city": "ROANOKE", "addr:country": "US", "addr:full": "4235 ELECTRIC RD", "addr:postcode": "24018", "addr:state": "VA", "amenity": "post_box", "brand": "United States Postal Service", "brand:wikidata": "Q668687", "collection_times": "Mo-Fr 14:15; Sa 09:00", "note": "ON 12/24 AND 12/31, THIS BOX MAY BE COLLECTED AS EARLY AS 12 NOON.", "nsi_id": "unitedstatespostalservice-a77078", "operator": "United States Postal Service", "operator:short": "USPS", "operator:type": "public", "operator:wikidata": "Q668687", "ref": "2401800060"}, "type": "Feature"}
{"geometry": {"coordinates": [-79.9824510235, 37.2260149928], "type": "Point"}, "id": "RamDXqwri_YaFHCYkikPu4boURE=", "properties": {"@source_uri": "https://tools.usps.com/UspsToolsRestServices/rest/POLocator/findLocations", "@spider": "usps_collection_boxes", "addr:city": "ROANOKE", "addr:country": "US", "addr:full": "4092 ELECTRIC RD", "addr:postcode": "24018", "addr:state": "VA", "amenity": "post_box", "brand": "United States Postal Service", "brand:wikidata": "Q668687", "collection_times": "Mo-Fr 14:30; Sa 09:00", "note": "ON 12/24 AND 12/31, THIS BOX MAY BE COLLECTED AS EARLY AS 12 NOON.", "nsi_id": "unitedstatespostalservice-a77078", "operator": "United States Postal Service", "operator:short": "USPS", "operator:type": "public", "operator:wikidata": "Q668687", "ref": "2401800061"}, "type": "Feature"}
{"geometry": {"coordinates": [-79.9763805, 37.23281], "type": "Point"}, "id": "cc_ESlWA_tPXImksegyTREfQT8c=", "properties": {"@source_uri": "https://tools.usps.com/UspsToolsRestServices/rest/POLocator/findLocations", "@spider": "usps_collection_boxes", "addr:city": "ROANOKE", "addr:country": "US", "addr:full": "4488 ELECTRIC RD", "addr:postcode": "24018", "addr:state": "VA", "amenity": "post_box", "brand": "United States Postal Service", "brand:wikidata": "Q668687", "collection_times": "Mo-Fr 14:00; Sa 09:00", "note": "ON 12/24 AND 12/31, THIS BOX MAY BE COLLECTED AS EARLY AS 12 NOON.", "nsi_id": "unitedstatespostalservice-a77078", "operator": "United States Postal Service", "operator:short": "USPS", "operator:type": "public", "operator:wikidata": "Q668687", "ref": "2401800062"}, "type": "Feature"}
{"geometry": {"coordinates": [-79.9824872, 37.227385], "type": "Point"}, "id": "VMsSAHJvnXi30sqX4A9qjgHV3F0=", "properties": {"@source_uri": "https://tools.usps.com/UspsToolsRestServices/rest/POLocator/findLocations", "@spider": "usps_collection_boxes", "addr:city": "ROANOKE", "addr:country": "US", "addr:full": "4358 STARKEY RD", "addr:postcode": "24018", "addr:state": "VA", "amenity": "post_box", "brand": "United States Postal Service", "brand:wikidata": "Q668687", "collection_times": "Mo-Fr 14:00; Sa 09:00", "note": "ON 12/24 AND 12/31, THIS BOX MAY BE COLLECTED AS EARLY AS 12 NOON.", "nsi_id": "unitedstatespostalservice-a77078", "operator": "United States Postal Service", "operator:short": "USPS", "operator:type": "public", "operator:wikidata": "Q668687", "ref": "2401800063"}, "type": "Feature"}
{"geometry": {"coordinates": [-79.9825222, 37.227404], "type": "Point"}, "id": "dDGmgxZcsKPMOXRZ5bewhhgGS4g=", "properties": {"@source_uri": "https://tools.usps.com/UspsToolsRestServices/rest/POLocator/findLocations", "@spider": "usps_collection_boxes", "addr:city": "ROANOKE", "addr:country": "US", "addr:full": "4358 STARKEY RD", "addr:postcode": "24018", "addr:state": "VA", "amenity": "post_box", "brand": "United States Postal Service", "brand:wikidata": "Q668687", "collection_times": "Mo-Fr 14:00; Sa 09:00", "note": "ON 12/24 AND 12/31, THIS BOX MAY BE COLLECTED AS EARLY AS 12 NOON.", "nsi_id": "unitedstatespostalservice-a77078", "operator": "United States Postal Service", "operator:short": "USPS", "operator:type": "public", "operator:wikidata": "Q668687", "ref": "2401800064"}, "type": "Feature"}
{"geometry": {"coordinates": [-79.9824944, 37.227401], "type": "Point"}, "id": "lKyba97QeJK_9aYjT4YpA2WHbQE=", "properties": {"@source_uri": "https://tools.usps.com/UspsToolsRestServices/rest/POLocator/findLocations", "@spider": "usps_collection_boxes", "addr:city": "ROANOKE", "addr:country": "US", "addr:full": "4358 STARKEY RD", "addr:postcode": "24018", "addr:state": "VA", "amenity": "post_box", "brand": "United States Postal Service", "brand:wikidata": "Q668687", "collection_times": "Mo-Fr 14:00; Sa 09:00", "note": "ON 12/24 AND 12/31, THIS BOX MAY BE COLLECTED AS EARLY AS 12 NOON.", "nsi_id": "unitedstatespostalservice-a77078", "operator": "United States Postal Service", "operator:short": "USPS", "operator:type": "public", "operator:wikidata": "Q668687", "ref": "2401800065"}, "type": "Feature"}
{"geometry": {"coordinates": [-79.9871831, 37.222566], "type": "Point"}, "id": "A8M_IOxejZJ4zyB9conPfISXZ9E=", "properties": {"@source_uri": "https://tools.usps.com/UspsToolsRestServices/rest/POLocator/findLocations", "@spider": "usps_collection_boxes", "addr:city": "ROANOKE", "addr:country": "US", "addr:full": "5115 BERNARD DR", "addr:postcode": "24018", "addr:state": "VA", "amenity": "post_box", "brand": "United States Postal Service", "brand:wikidata": "Q668687", "collection_times": "Mo-Fr 14:15; Sa 09:00", "note": "ON 12/24 AND 12/31, THIS BOX MAY BE COLLECTED AS EARLY AS 12 NOON.", "nsi_id": "unitedstatespostalservice-a77078", "operator": "United States Postal Service", "operator:short": "USPS", "operator:type": "public", "operator:wikidata": "Q668687", "ref": "2401800066"}, "type": "Feature"}
{"geometry": {"coordinates": [-79.9998648, 37.238915], "type": "Point"}, "id": "F5rFXmurBlF5DTD_rZtHE5TV4eE=", "properties": {"@source_uri": "https://tools.usps.com/UspsToolsRestServices/rest/POLocator/findLocations", "@spider": "usps_collection_boxes", "addr:city": "ROANOKE", "addr:country": "US", "addr:full": "3433 BRAMBLETON AVE", "addr:postcode": "24018", "addr:state": "VA", "amenity": "post_box", "brand": "United States Postal Service", "brand:wikidata": "Q668687", "collection_times": "Mo-Sa 09:00", "nsi_id": "unitedstatespostalservice-a77078", "operator": "United States Postal Service", "operator:short": "USPS", "operator:type": "public", "operator:wikidata": "Q668687", "ref": "2401800069"}, "type": "Feature"}
{"geometry": {"coordinates": [-80.011582999, 37.233229003], "type": "Point"}, "id": "kVE9z452Ykq4rSOId4Oo-0gRpTE=", "properties": {"@source_uri": "https://tools.usps.com/UspsToolsRestServices/rest/POLocator/findLocations", "@spider": "usps_collection_boxes", "addr:city": "ROANOKE", "addr:country": "US", "addr:full": "4069 POSTAL DR", "addr:postcode": "24018", "addr:state": "VA", "amenity": "post_box", "brand": "United States Postal Service", "brand:wikidata": "Q668687", "collection_times": "Mo-Fr 17:00; Sa 12:00", "indoor": "yes", "note": "ON 12/24 AND 12/31, THIS BOX MAY BE COLLECTED AS EARLY AS 12 NOON.", "nsi_id": "unitedstatespostalservice-a77078", "operator": "United States Postal Service", "operator:short": "USPS", "operator:type": "public", "operator:wikidata": "Q668687", "ref": "2401800073"}, "type": "Feature"}
{"geometry": {"coordinates": [-79.9993920233, 37.3187680018], "type": "Point"}, "id": "tozixI6T8Ts9xt1epg58L6eSk4M=", "properties": {"@source_uri": "https://tools.usps.com/UspsToolsRestServices/rest/POLocator/findLocations", "@spider": "usps_collection_boxes", "addr:city": "ROANOKE", "addr:country": "US", "addr:full": "3031 PETERS CREEK RD NW", "addr:postcode": "24019", "addr:state": "VA", "amenity": "post_box", "brand": "United States Postal Service", "brand:wikidata": "Q668687", "collection_times": "Mo-Fr 14:30; Sa 09:00", "note": "ON 12/24 AND 12/31, THIS BOX MAY BE COLLECTED AS EARLY AS 12 NOON.", "nsi_id": "unitedstatespostalservice-a77078", "operator": "United States Postal Service", "operator:short": "USPS", "operator:type": "public", "operator:wikidata": "Q668687", "ref": "2401900001"}, "type": "Feature"}
{"geometry": {"coordinates": [-79.9416559655, 37.3570150032], "type": "Point"}, "id": "ixLNYyLF7ehTrVd2rZ88XR1T7Ho=", "properties": {"@source_uri": "https://tools.usps.com/UspsToolsRestServices/rest/POLocator/findLocations", "@spider": "usps_collection_boxes", "addr:city": "ROANOKE", "addr:country": "US", "addr:full": "7916 WILLIAMSON RD", "addr:postcode": "24019", "addr:state": "VA", "amenity": "post_box", "brand": "United States Postal Service", "brand:wikidata": "Q668687", "collection_times": "Mo-Fr 10:00", "nsi_id": "unitedstatespostalservice-a77078", "operator": "United States Postal Service", "operator:short": "USPS", "operator:type": "public", "operator:wikidata": "Q668687", "ref": "2401900006"}, "type": "Feature"}
{"geometry": {"coordinates": [-79.9541849829, 37.3363269993], "type": "Point"}, "id": "exnKhEq2TfkX9xkmQk0h_5BcGDc=", "properties": {"@source_uri": "https://tools.usps.com/UspsToolsRestServices/rest/POLocator/findLocations", "@spider": "usps_collection_boxes", "addr:city": "ROANOKE", "addr:country": "US", "addr:full": "6619 WILLIAMSON RD", "addr:postcode": "24019", "addr:state": "VA", "amenity": "post_box", "brand": "United States Postal Service", "brand:wikidata": "Q668687", "collection_times": "Mo-Fr 16:30; Sa 09:00", "note": "ON 12/24 AND 12/31, THIS BOX MAY BE COLLECTED AS EARLY AS 12 NOON.", "nsi_id": "unitedstatespostalservice-a77078", "operator": "United States Postal Service", "operator:short": "USPS", "operator:type": "public", "operator:wikidata": "Q668687", "ref": "2401900008"}, "type": "Feature"}
{"geometry": {"coordinates": [-79.9555581, 37.3454907], "type": "Point"}, "id": "yYcM64S7s88F9eA7y2PdR4w2xL8=", "properties": {"@source_uri": "https://tools.usps.com/UspsToolsRestServices/rest/POLocator/findLocations", "@spider": "usps_collection_boxes", "addr:city": "ROANOKE", "addr:country": "US", "addr:full": "6619 WILLIAMSON RD", "addr:postcode": "24019", "addr:state": "VA", "amenity": "post_box", "brand": "United States Postal Service", "brand:wikidata": "Q668687", "collection_times": "Mo-Fr 16:30; Sa 09:00", "note": "ON 12/24 AND 12/31, THIS BOX MAY BE COLLECTED AS EARLY AS 12 NOON.", "nsi_id": "unitedstatespostalservice-a77078", "operator": "United States Postal Service", "operator:short": "USPS", "operator:type": "public", "operator:wikidata": "Q668687", "ref": "2401900009"}, "type": "Feature"}
{"geometry": {"coordinates": [-79.955655103, 37.337139722], "type": "Point"}, "id": "SEXTHjcpIOEhykUwFjsfhsAiDRM=", "properties": {"@source_uri": "https://tools.usps.com/UspsToolsRestServices/rest/POLocator/findLocations", "@spider": "usps_collection_boxes", "addr:city": "ROANOKE", "addr:country": "US", "addr:full": "6621 WILLIAMSON RD", "addr:postcode": "24019", "addr:state": "VA", "amenity": "post_box", "brand": "United States Postal Service", "brand:wikidata": "Q668687", "collection_times": "Mo-Fr 17:00; Sa 12:00", "note": "ON 12/24 AND 12/31, THIS BOX MAY BE COLLECTED AS EARLY AS 12 NOON.", "nsi_id": "unitedstatespostalservice-a77078", "operator": "United States Postal Service", "operator:short": "USPS", "operator:type": "public", "operator:wikidata": "Q668687", "ref": "2401900012"}, "type": "Feature"}
{"geometry": {"coordinates": [-79.955655103, 37.337139722], "type": "Point"}, "id": "8IQ2Zzytl4sFo6anzEvUFjprL-Q=", "properties": {"@source_uri": "https://tools.usps.com/UspsToolsRestServices/rest/POLocator/findLocations", "@spider": "usps_collection_boxes", "addr:city": "ROANOKE", "addr:country": "US", "addr:full": "6621 WILLIAMSON RD", "addr:postcode": "24019", "addr:state": "VA", "amenity": "post_box", "brand": "United States Postal Service", "brand:wikidata": "Q668687", "collection_times": "Mo-Fr 17:00; Sa 12:00", "note": "ON 12/24 AND 12/31, THIS BOX MAY BE COLLECTED AS EARLY AS 12 NOON.", "nsi_id": "unitedstatespostalservice-a77078", "operator": "United States Postal Service", "operator:short": "USPS", "operator:type": "public", "operator:wikidata": "Q668687", "ref": "2401900013"}, "type": "Feature"}
{"geometry": {"coordinates": [-79.9864565, 37.331892], "type": "Point"}, "id": "sVJBY4D8069e1pitMD9ShbYDsyQ=", "properties": {"@source_uri": "https://tools.usps.com/UspsToolsRestServices/rest/POLocator/findLocations", "@spider": "usps_collection_boxes", "addr:city": "ROANOKE", "addr:country": "US", "addr:full": "5162 VALLEYPOINTE PKWY", "addr:postcode": "24019", "addr:state": "VA", "amenity": "post_box", "brand": "United States Postal Service", "brand:wikidata": "Q668687", "collection_times": "Mo-Fr 14:30; Sa 09:00", "note": "ON 12/24 AND 12/31, THIS BOX MAY BE COLLECTED AS EARLY AS 12 NOON.", "nsi_id": "unitedstatespostalservice-a77078", "operator": "United States Postal Service", "operator:short": "USPS", "operator:type": "public", "operator:wikidata": "Q668687", "ref": "2401900022"}, "type": "Feature"}
{"geometry": {"coordinates": [-79.955655103, 37.337139722], "type": "Point"}, "id": "ZTQD4p_TNGFqDNQTcXGdwh-amyw=", "properties": {"@source_uri": "https://tools.usps.com/UspsToolsRestServices/rest/POLocator/findLocations", "@spider": "usps_collection_boxes", "addr:city": "ROANOKE", "addr:country": "US", "addr:full": "6621 WILLIAMSON RD", "addr:postcode": "24019", "addr:state": "VA", "amenity": "post_box", "brand": "United States Postal Service", "brand:wikidata": "Q668687", "collection_times": "Mo-Fr 17:00; Sa 12:00", "indoor": "yes", "note": "ON 12/24 AND 12/31, THIS BOX MAY BE COLLECTED AS EARLY AS 12 NOON.", "nsi_id": "unitedstatespostalservice-a77078", "operator": "United States Postal Service", "operator:short": "USPS", "operator:type": "public", "operator:wikidata": "Q668687", "ref": "2401900032"}, "type": "Feature"}
{"geometry": {"coordinates": [-79.9737551, 37.33607], "type": "Point"}, "id": "REQT6Z874AxT3wyaIcrJOwD3MQA=", "properties": {"@source_uri": "https://tools.usps.com/UspsToolsRestServices/rest/POLocator/findLocations", "@spider": "usps_collection_boxes", "addr:city": "ROANOKE", "addr:country": "US", "addr:full": "5420 PETERS CREEK RD", "addr:postcode": "24019", "addr:state": "VA", "amenity": "post_box", "brand": "United States Postal Service", "brand:wikidata": "Q668687", "collection_times": "Mo-Fr 14:30; Sa 09:00", "note": "ON 12/24 AND 12/31, THIS BOX MAY BE COLLECTED AS EARLY AS 12 NOON.", "nsi_id": "unitedstatespostalservice-a77078", "operator": "United States Postal Service", "operator:short": "USPS", "operator:type": "public", "operator:wikidata": "Q668687", "ref": "2401900035"}, "type": "Feature"}
{"geometry": {"coordinates": [-79.955655103, 37.337139722], "type": "Point"}, "id": "hcaxqgPwmyWdOggGsEpGx1JGnqI=", "properties": {"@source_uri": "https://tools.usps.com/UspsToolsRestServices/rest/POLocator/findLocations", "@spider": "usps_collection_boxes", "addr:city": "ROANOKE", "addr:country": "US", "addr:full": "6621 WILLIAMSON RD", "addr:postcode": "24019", "addr:state": "VA", "amenity": "post_box", "brand": "United States Postal Service", "brand:wikidata": "Q668687", "collection_times": "Mo-Fr 16:00; Sa 12:00", "indoor": "yes", "note": "ON 12/24 AND 12/31, THIS BOX MAY BE COLLECTED AS EARLY AS 12 NOON.", "nsi_id": "unitedstatespostalservice-a77078", "operator": "United States Postal Service", "operator:short": "USPS", "operator:type": "public", "operator:wikidata": "Q668687", "ref": "2401900039"}, "type": "Feature"}
{"geometry": {"coordinates": [-79.933892, 37.278509], "type": "Point"}, "id": "Ii7POhm4CVgUlD6HHxpvKVPu8Oc=", "properties": {"@source_uri": "https://tools.usps.com/UspsToolsRestServices/rest/POLocator/findLocations", "@spider": "usps_collection_boxes", "addr:city": "ROANOKE", "addr:country": "US", "addr:full": "419 RUTHERFORD AVE NE", "addr:postcode": "24022", "addr:state": "VA", "amenity": "post_box", "brand": "United States Postal Service", "brand:wikidata": "Q668687", "collection_times": "Mo-Sa 18:30", "indoor": "yes", "note": "ON 12/24 AND 12/31, THIS BOX MAY BE COLLECTED AS EARLY AS 12 NOON.", "nsi_id": "unitedstatespostalservice-a77078", "operator": "United States Postal Service", "operator:short": "USPS", "operator:type": "public", "operator:wikidata": "Q668687", "ref": "2402200000"}, "type": "Feature"}
{"geometry": {"coordinates": [-79.933964, 37.278535], "type": "Point"}, "id": "PBto-HYJUeDuqTsQPeh4rKUslPM=", "properties": {"@source_uri": "https://tools.usps.com/UspsToolsRestServices/rest/POLocator/findLocations", "@spider": "usps_collection_boxes", "addr:city": "ROANOKE", "addr:country": "US", "addr:full": "419 RUTHERFORD AVE NE", "addr:postcode": "24022", "addr:state": "VA", "amenity": "post_box", "brand": "United States Postal Service", "brand:wikidata": "Q668687", "collection_times": "Mo-Sa 18:30", "indoor": "yes", "note": "ON 12/24 AND 12/31, THIS BOX MAY BE COLLECTED AS EARLY AS 12 NOON.", "nsi_id": "unitedstatespostalservice-a77078", "operator": "United States Postal Service", "operator:short": "USPS", "operator:type": "public", "operator:wikidata": "Q668687", "ref": "2402200001"}, "type": "Feature"}
{"geometry": {"coordinates": [-79.933964, 37.278535], "type": "Point"}, "id": "laY_di-hN2rOAAo03vF1bOwc41Y=", "properties": {"@source_uri": "https://tools.usps.com/UspsToolsRestServices/rest/POLocator/findLocations", "@spider": "usps_collection_boxes", "addr:city": "ROANOKE", "addr:country": "US", "addr:full": "419 RUTHERFORD AVE NE", "addr:postcode": "24022", "addr:state": "VA", "amenity": "post_box", "brand": "United States Postal Service", "brand:wikidata": "Q668687", "collection_times": "Mo-Sa 18:30", "indoor": "yes", "note": "ON 12/24 AND 12/31, THIS BOX MAY BE COLLECTED AS EARLY AS 12 NOON.", "nsi_id": "unitedstatespostalservice-a77078", "operator": "United States Postal Service", "operator:short": "USPS", "operator:type": "public", "operator:wikidata": "Q668687", "ref": "2402200002"}, "type": "Feature"}
{"geometry": {"coordinates": [-79.933964, 37.278535], "type": "Point"}, "id": "xZY6_O4M8VsNmDvJw5X5i9Ek1Ko=", "properties": {"@source_uri": "https://tools.usps.com/UspsToolsRestServices/rest/POLocator/findLocations", "@spider": "usps_collection_boxes", "addr:city": "ROANOKE", "addr:country": "US", "addr:full": "419 RUTHERFORD AVE NE", "addr:postcode": "24022", "addr:state": "VA", "amenity": "post_box", "brand": "United States Postal Service", "brand:wikidata": "Q668687", "collection_times": "Mo-Sa 18:30", "indoor": "yes", "note": "ON 12/24 AND 12/31, THIS BOX MAY BE COLLECTED AS EARLY AS 12 NOON.", "nsi_id": "unitedstatespostalservice-a77078", "operator": "United States Postal Service", "operator:short": "USPS", "operator:type": "public", "operator:wikidata": "Q668687", "ref": "2402200003"}, "type": "Feature"}
{"geometry": {"coordinates": [-79.9334860407, 37.2772169799], "type": "Point"}, "id": "wjAvNf7Sdx3nQLnkdsZVN_AE6EA=", "properties": {"@source_uri": "https://tools.usps.com/UspsToolsRestServices/rest/POLocator/findLocations", "@spider": "usps_collection_boxes", "addr:city": "ROANOKE", "addr:country": "US", "addr:full": "419 RUTHERFORD AVE NE", "addr:postcode": "24022", "addr:state": "VA", "amenity": "post_box", "brand": "United States Postal Service", "brand:wikidata": "Q668687", "collection_times": "Mo-Sa 18:30", "note": "ON 12/24 AND 12/31, THIS BOX MAY BE COLLECTED AS EARLY AS 12 NOON.", "nsi_id": "unitedstatespostalservice-a77078", "operator": "United States Postal Service", "operator:short": "USPS", "operator:type": "public", "operator:wikidata": "Q668687", "ref": "2402200009"}, "type": "Feature"}
{"geometry": {"coordinates": [-79.933964, 37.278535], "type": "Point"}, "id": "jaXHjNk3rVGxpC0t11X-iQvjrYE=", "properties": {"@source_uri": "https://tools.usps.com/UspsToolsRestServices/rest/POLocator/findLocations", "@spider": "usps_collection_boxes", "addr:city": "ROANOKE", "addr:country": "US", "addr:full": "419 RUTHERFORD AVE NE", "addr:postcode": "24022", "addr:state": "VA", "amenity": "post_box", "brand": "United States Postal Service", "brand:wikidata": "Q668687", "collection_times": "Mo-Sa 18:30", "name": "USPS COLLECTION BOX - APC", "note": "ON 12/24 AND 12/31, THIS BOX MAY BE COLLECTED AS EARLY AS 12 NOON.", "nsi_id": "unitedstatespostalservice-a77078", "operator": "United States Postal Service", "operator:short": "USPS", "operator:type": "public", "operator:wikidata": "Q668687", "ref": "2402200010"}, "type": "Feature"}
{"geometry": {"coordinates": [-79.933361437, 37.278500489], "type": "Point"}, "id": "lz2qyfSQxorZCeD6RspVhrPC49o=", "properties": {"@source_uri": "https://tools.usps.com/UspsToolsRestServices/rest/POLocator/findLocations", "@spider": "usps_collection_boxes", "addr:city": "ROANOKE", "addr:country": "US", "addr:full": "419 RUTHERFORD AVE NE", "addr:postcode": "24022", "addr:state": "VA", "amenity": "post_box", "brand": "United States Postal Service", "brand:wikidata": "Q668687", "collection_times": "Mo-Fr 18:00; Sa 12:00", "indoor": "yes", "note": "ON 12/24 AND 12/31, THIS BOX MAY BE COLLECTED AS EARLY AS 12 NOON.", "nsi_id": "unitedstatespostalservice-a77078", "operator": "United States Postal Service", "operator:short": "USPS", "operator:type": "public", "operator:wikidata": "Q668687", "ref": "2402200014"}, "type": "Feature"}
{"geometry": {"coordinates": [-80.509999055, 36.599486608], "type": "Point"}, "id": "4H9fp2T_eKH1kfpw81h9PUOPEYU=", "properties": {"@source_uri": "https://tools.usps.com/UspsToolsRestServices/rest/POLocator/findLocations", "@spider": "usps_collection_boxes", "addr:city": "ARARAT", "addr:country": "US", "addr:full": "5134 ARARAT HWY", "addr:postcode": "24053", "addr:state": "VA", "amenity": "post_box", "brand": "United States Postal Service", "brand:wikidata": "Q668687", "collection_times": "Mo-Fr 16:00; Sa 11:00", "note": "ON 12/24 AND 12/31, THIS BOX MAY BE COLLECTED AS EARLY AS 12 NOON.", "nsi_id": "unitedstatespostalservice-a77078", "operator": "United States Postal Service", "operator:short": "USPS", "operator:type": "public", "operator:wikidata": "Q668687", "ref": "2405300000"}, "type": "Feature"}
{"geometry": {"coordinates": [-80.509999055, 36.599486608], "type": "Point"}, "id": "DllyVkuDqn_7RNrfKitWpiXDbG4=", "properties": {"@source_uri": "https://tools.usps.com/UspsToolsRestServices/rest/POLocator/findLocations", "@spider": "usps_collection_boxes", "addr:city": "ARARAT", "addr:country": "US", "addr:full": "5134 ARARAT HWY", "addr:postcode": "24053", "addr:state": "VA", "amenity": "post_box", "brand": "United States Postal Service", "brand:wikidata": "Q668687", "collection_times": "Mo-Fr 16:00; Sa 11:00", "indoor": "yes", "note": "ON 12/24 AND 12/31, THIS BOX MAY BE COLLECTED AS EARLY AS 12 NOON.", "nsi_id": "unitedstatespostalservice-a77078", "operator": "United States Postal Service", "operator:short": "USPS", "operator:type": "public", "operator:wikidata": "Q668687", "ref": "2405300001"}, "type": "Feature"}
{"geometry": {"coordinates": [-80.509999055, 36.599486608], "type": "Point"}, "id": "0RMOfxqun6QgVKa0uC0BV4289X4=", "properties": {"@source_uri": "https://tools.usps.com/UspsToolsRestServices/rest/POLocator/findLocations", "@spider": "usps_collection_boxes", "addr:city": "ARARAT", "addr:country": "US", "addr:full": "5134 ARARAT HWY", "addr:postcode": "24053", "addr:state": "VA", "amenity": "post_box", "brand": "United States Postal Service", "brand:wikidata": "Q668687", "collection_times": "Mo-Fr 16:30; Sa 11:00", "indoor": "yes", "note": "ON 12/24 AND 12/31, THIS BOX MAY BE COLLECTED AS EARLY AS 12 NOON.", "nsi_id": "unitedstatespostalservice-a77078", "operator": "United States Postal Service", "operator:short": "USPS", "operator:type": "public", "operator:wikidata": "Q668687", "ref": "2405300003"}, "type": "Feature"}
{"geometry": {"coordinates": [-79.718269018, 36.660204114], "type": "Point"}, "id": "AJ76367f60_m2SraG1Dtsj6wT8M=", "properties": {"@source_uri": "https://tools.usps.com/UspsToolsRestServices/rest/POLocator/findLocations", "@spider": "usps_collection_boxes", "addr:city": "AXTON", "addr:country": "US", "addr:full": "1725 DANIEL RD", "addr:postcode": "24054", "addr:state": "VA", "amenity": "post_box", "brand": "United States Postal Service", "brand:wikidata": "Q668687", "collection_times": "Mo-Fr 16:00; Sa 10:00", "note": "ON 12/24 AND 12/31, THIS BOX MAY BE COLLECTED AS EARLY AS 12 NOON.", "nsi_id": "unitedstatespostalservice-a77078", "operator": "United States Postal Service", "operator:short": "USPS", "operator:type": "public", "operator:wikidata": "Q668687", "ref": "2405400000"}, "type": "Feature"}
{"geometry": {"coordinates": [-79.718269018, 36.660204114], "type": "Point"}, "id": "qbe3gzt2zs74oKGRidaQ8ppf7Ow=", "properties": {"@source_uri": "https://tools.usps.com/UspsToolsRestServices/rest/POLocator/findLocations", "@spider": "usps_collection_boxes", "addr:city": "AXTON", "addr:country": "US", "addr:full": "1725 DANIEL RD", "addr:postcode": "24054", "addr:state": "VA", "amenity": "post_box", "brand": "United States Postal Service", "brand:wikidata": "Q668687", "collection_times": "Mo-Fr 16:00; Sa 10:00", "indoor": "yes", "note": "ON 12/24 AND 12/31, THIS BOX MAY BE COLLECTED AS EARLY AS 12 NOON.", "nsi_id": "unitedstatespostalservice-a77078", "operator": "United States Postal Service", "operator:short": "USPS", "operator:type": "public", "operator:wikidata": "Q668687", "ref": "2405400001"}, "type": "Feature"}
{"geometry": {"coordinates": [-79.718269018, 36.660204114], "type": "Point"}, "id": "hpPYVY3bpQi-syHZguHzrtWlqbE=", "properties": {"@source_uri": "https://tools.usps.com/UspsToolsRestServices/rest/POLocator/findLocations", "@spider": "usps_collection_boxes", "addr:city": "AXTON", "addr:country": "US", "addr:full": "1725 DANIEL RD", "addr:postcode": "24054", "addr:state": "VA", "amenity": "post_box", "brand": "United States Postal Service", "brand:wikidata": "Q668687", "collection_times": "Mo-Fr 16:00; Sa 11:00", "indoor": "yes", "note": "ON 12/24 AND 12/31, THIS BOX MAY BE COLLECTED AS EARLY AS 12 NOON.", "nsi_id": "unitedstatespostalservice-a77078", "operator": "United States Postal Service", "operator:short": "USPS", "operator:type": "public", "operator:wikidata": "Q668687", "ref": "2405400003"}, "type": "Feature"}
{"geometry": {"coordinates": [-79.990328268, 36.75841198], "type": "Point"}, "id": "qajVUT1SV3bsjD95KgomwxoykRo=", "properties": {"@source_uri": "https://tools.usps.com/UspsToolsRestServices/rest/POLocator/findLocations", "@spider": "usps_collection_boxes", "addr:city": "BASSETT", "addr:country": "US", "addr:full": "3465 FAIRYSTONE PARK HWY", "addr:postcode": "24055", "addr:state": "VA", "amenity": "post_box", "brand": "United States Postal Service", "brand:wikidata": "Q668687", "collection_times": "Mo-Fr 16:00; Sa 12:00", "note": "ON 12/24 AND 12/31, THIS BOX MAY BE COLLECTED AS EARLY AS 12 NOON.", "nsi_id": "unitedstatespostalservice-a77078", "operator": "United States Postal Service", "operator:short": "USPS", "operator:type": "public", "operator:wikidata": "Q668687", "ref": "2405500000"}, "type": "Feature"}
{"geometry": {"coordinates": [-79.990328268, 36.75841198], "type": "Point"}, "id": "VLz2prKmt5K2hzMkoWrXNof2Mfs=", "properties": {"@source_uri": "https://tools.usps.com/UspsToolsRestServices/rest/POLocator/findLocations", "@spider": "usps_collection_boxes", "addr:city": "BASSETT", "addr:country": "US", "addr:full": "3465 FAIRYSTONE PARK HWY", "addr:postcode": "24055", "addr:state": "VA", "amenity": "post_box", "brand": "United States Postal Service", "brand:wikidata": "Q668687", "collection_times": "Mo-Fr 16:30; Sa 12:00", "indoor": "yes", "note": "ON 12/24 AND 12/31, THIS BOX MAY BE COLLECTED AS EARLY AS 12 NOON.", "nsi_id": "unitedstatespostalservice-a77078", "operator": "United States Postal Service", "operator:short": "USPS", "operator:type": "public", "operator:wikidata": "Q668687", "ref": "2405500001"}, "type": "Feature"}
{"geometry": {"coordinates": [-79.990328268, 36.75841198], "type": "Point"}, "id": "zZPHqPanVb-83SgDnbpULKRSDmk=", "properties": {"@source_uri": "https://tools.usps.com/UspsToolsRestServices/rest/POLocator/findLocations", "@spider": "usps_collection_boxes", "addr:city": "BASSETT", "addr:country": "US", "addr:full": "3465 FAIRYSTONE PARK HWY", "addr:postcode": "24055", "addr:state": "VA", "amenity": "post_box", "brand": "United States Postal Service", "brand:wikidata": "Q668687", "collection_times": "Mo-Fr 16:30; Sa 12:00", "indoor": "yes", "note": "ON 12/24 AND 12/31, THIS BOX MAY BE COLLECTED AS EARLY AS 12 NOON.", "nsi_id": "unitedstatespostalservice-a77078", "operator": "United States Postal Service", "operator:short": "USPS", "operator:type": "public", "operator:wikidata": "Q668687", "ref": "2405500005"}, "type": "Feature"}
{"geometry": {"coordinates": [-80.609869, 37.187797], "type": "Point"}, "id": "fyahO2eC5HWIl4XA0Msw-mQdCYs=", "properties": {"@source_uri": "https://tools.usps.com/UspsToolsRestServices/rest/POLocator/findLocations", "@spider": "usps_collection_boxes", "addr:city": "BELSPRING", "addr:country": "US", "addr:full": "7893 NECK CREEK RD", "addr:postcode": "24058", "addr:state": "VA", "amenity": "post_box", "brand": "United States Postal Service", "brand:wikidata": "Q668687", "collection_times": "Mo-Fr 11:45; Sa 11:30", "nsi_id": "unitedstatespostalservice-a77078", "operator": "United States Postal Service", "operator:short": "USPS", "operator:type": "public", "operator:wikidata": "Q668687", "ref": "2405800000"}, "type": "Feature"}
{"geometry": {"coordinates": [-80.609894, 37.187769], "type": "Point"}, "id": "qI2T2vopaGVdm75mQExmpxJslBg=", "properties": {"@source_uri": "https://tools.usps.com/UspsToolsRestServices/rest/POLocator/findLocations", "@spider": "usps_collection_boxes", "addr:city": "BELSPRING", "addr:country": "US", "addr:full": "7893 NECK CREEK RD", "addr:postcode": "24058", "addr:state": "VA", "amenity": "post_box", "brand": "United States Postal Service", "brand:wikidata": "Q668687", "collection_times": "Mo-Fr 11:45; Sa 11:30", "indoor": "yes", "nsi_id": "unitedstatespostalservice-a77078", "operator": "United States Postal Service", "operator:short": "USPS", "operator:type": "public", "operator:wikidata": "Q668687", "ref": "2405800001"}, "type": "Feature"}
{"geometry": {"coordinates": [-80.609894, 37.187769], "type": "Point"}, "id": "7NGQpMcfWRRLo2lUcxyEMqoZ-fg=", "properties": {"@source_uri": "https://tools.usps.com/UspsToolsRestServices/rest/POLocator/findLocations", "@spider": "usps_collection_boxes", "addr:city": "BELSPRING", "addr:country": "US", "addr:full": "7893 NECK CREEK RD", "addr:postcode": "24058", "addr:state": "VA", "amenity": "post_box", "brand": "United States Postal Service", "brand:wikidata": "Q668687", "collection_times": "Mo-Fr 11:45; Sa 11:30", "indoor": "yes", "nsi_id": "unitedstatespostalservice-a77078", "operator": "United States Postal Service", "operator:short": "USPS", "operator:type": "public", "operator:wikidata": "Q668687", "ref": "2405800002"}, "type": "Feature"}
{"geometry": {"coordinates": [-80.607902338, 37.187851515], "type": "Point"}, "id": "qI-BvshBlgfxHfvolHBwT6tnmd8=", "properties": {"@source_uri": "https://tools.usps.com/UspsToolsRestServices/rest/POLocator/findLocations", "@spider": "usps_collection_boxes", "addr:city": "BELSPRING", "addr:country": "US", "addr:full": "7893 NECK CREEK RD", "addr:postcode": "24058", "addr:state": "VA", "amenity": "post_box", "brand": "United States Postal Service", "brand:wikidata": "Q668687", "collection_times": "Mo-Sa 12:00", "indoor": "yes", "nsi_id": "unitedstatespostalservice-a77078", "operator": "United States Postal Service", "operator:short": "USPS", "operator:type": "public", "operator:wikidata": "Q668687", "ref": "2405800004"}, "type": "Feature"}
{"geometry": {"coordinates": [-80.119007, 37.154719], "type": "Point"}, "id": "8BaWjDq_X6IPvJg-bW9toJC83YM=", "properties": {"@source_uri": "https://tools.usps.com/UspsToolsRestServices/rest/POLocator/findLocations", "@spider": "usps_collection_boxes", "addr:city": "BENT MOUNTAIN", "addr:country": "US", "addr:full": "9961 BENT MOUNTAIN RD", "addr:postcode": "24059", "addr:state": "VA", "amenity": "post_box", "brand": "United States Postal Service", "brand:wikidata": "Q668687", "collection_times": "Mo-Fr 16:15; Sa 10:30", "note": "ON 12/24 AND 12/31, THIS BOX MAY BE COLLECTED AS EARLY AS 12 NOON.", "nsi_id": "unitedstatespostalservice-a77078", "operator": "United States Postal Service", "operator:short": "USPS", "operator:type": "public", "operator:wikidata": "Q668687", "ref": "2405900000"}, "type": "Feature"}
{"geometry": {"coordinates": [-80.118978, 37.154695], "type": "Point"}, "id": "4QUmbedNAFwwqMWBErzyj_gj_qY=", "properties": {"@source_uri": "https://tools.usps.com/UspsToolsRestServices/rest/POLocator/findLocations", "@spider": "usps_collection_boxes", "addr:city": "BENT MOUNTAIN", "addr:country": "US", "addr:full": "9961 BENT MOUNTAIN RD", "addr:postcode": "24059", "addr:state": "VA", "amenity": "post_box", "brand": "United States Postal Service", "brand:wikidata": "Q668687", "collection_times": "Mo-Fr 16:15; Sa 10:30", "indoor": "yes", "note": "ON 12/24 AND 12/31, THIS BOX MAY BE COLLECTED AS EARLY AS 12 NOON.", "nsi_id": "unitedstatespostalservice-a77078", "operator": "United States Postal Service", "operator:short": "USPS", "operator:type": "public", "operator:wikidata": "Q668687", "ref": "2405900001"}, "type": "Feature"}
{"geometry": {"coordinates": [-80.1189657695, 37.1549462268], "type": "Point"}, "id": "Om1PT9ZZ1-RNMhRnykpMeen8bD8=", "properties": {"@source_uri": "https://tools.usps.com/UspsToolsRestServices/rest/POLocator/findLocations", "@spider": "usps_collection_boxes", "addr:city": "BENT MOUNTAIN", "addr:country": "US", "addr:full": "9961 BENT MOUNTAIN RD", "addr:postcode": "24059", "addr:state": "VA", "amenity": "post_box", "brand": "United States Postal Service", "brand:wikidata": "Q668687", "collection_times": "Mo-Fr 16:15; Sa 11:00", "indoor": "yes", "note": "ON 12/24 AND 12/31, THIS BOX MAY BE COLLECTED AS EARLY AS 12 NOON.", "nsi_id": "unitedstatespostalservice-a77078", "operator": "United States Postal Service", "operator:short": "USPS", "operator:type": "public", "operator:wikidata": "Q668687", "ref": "2405900003"}, "type": "Feature"}
{"geometry": {"coordinates": [-80.4527600298, 37.2175170003], "type": "Point"}, "id": "ns-fZ5bpKD90FuZ2KS2Gf4Cwfc0=", "properties": {"@source_uri": "https://tools.usps.com/UspsToolsRestServices/rest/POLocator/findLocations", "@spider": "usps_collection_boxes", "addr:city": "BLACKSBURG", "addr:country": "US", "addr:full": "800 HETHWOOD BLVD", "addr:postcode": "24060", "addr:state": "VA", "amenity": "post_box", "brand": "United States Postal Service", "brand:wikidata": "Q668687", "collection_times": "Mo-Fr 15:30; Sa 09:00", "note": "ON 12/24 AND 12/31, THIS BOX MAY BE COLLECTED AS EARLY AS 12 NOON.", "nsi_id": "unitedstatespostalservice-a77078", "operator": "United States Postal Service", "operator:short": "USPS", "operator:type": "public", "operator:wikidata": "Q668687", "ref": "2406000001"}, "type": "Feature"}
{"geometry": {"coordinates": [-80.4481999, 37.217545], "type": "Point"}, "id": "2XTqlxU-Q6DyDfXy9OWPMpApqWA=", "properties": {"@source_uri": "https://tools.usps.com/UspsToolsRestServices/rest/POLocator/findLocations", "@spider": "usps_collection_boxes", "addr:city": "BLACKSBURG", "addr:country": "US", "addr:full": "6300 HEATHER DR", "addr:postcode": "24060", "addr:state": "VA", "amenity": "post_box", "brand": "United States Postal Service", "brand:wikidata": "Q668687", "collection_times": "Mo-Fr 11:00; Sa 09:00", "nsi_id": "unitedstatespostalservice-a77078", "operator": "United States Postal Service", "operator:short": "USPS", "operator:type": "public", "operator:wikidata": "Q668687", "ref": "2406000003"}, "type": "Feature"}
{"geometry": {"coordinates": [-80.4119846, 37.202138], "type": "Point"}, "id": "gc0V0OfNigGZS-CubnoiaJIvCXk=", "properties": {"@source_uri": "https://tools.usps.com/UspsToolsRestServices/rest/POLocator/findLocations", "@spider": "usps_collection_boxes", "addr:city": "BLACKSBURG", "addr:country": "US", "addr:full": "1872 PRATT DR", "addr:postcode": "24060", "addr:state": "VA", "amenity": "post_box", "brand": "United States Postal Service", "brand:wikidata": "Q668687", "collection_times": "Mo-Fr 12:30; Sa 09:00", "note": "ON 12/24 AND 12/31, THIS BOX MAY BE COLLECTED AS EARLY AS 12 NOON.", "nsi_id": "unitedstatespostalservice-a77078", "operator": "United States Postal Service", "operator:short": "USPS", "operator:type": "public", "operator:wikidata": "Q668687", "ref": "2406000005"}, "type": "Feature"}
{"geometry": {"coordinates": [-80.4097928, 37.186247], "type": "Point"}, "id": "wVXgu1xH1aPIiyINWu8GtYrk2To=", "properties": {"@source_uri": "https://tools.usps.com/UspsToolsRestServices/rest/POLocator/findLocations", "@spider": "usps_collection_boxes", "addr:city": "BLACKSBURG", "addr:country": "US", "addr:full": "3700 S MAIN ST", "addr:postcode": "24060", "addr:state": "VA", "amenity": "post_box", "brand": "United States Postal Service", "brand:wikidata": "Q668687", "collection_times": "Mo-Fr 15:30; Sa 09:00", "note": "ON 12/24 AND 12/31, THIS BOX MAY BE COLLECTED AS EARLY AS 12 NOON.", "nsi_id": "unitedstatespostalservice-a77078", "operator": "United States Postal Service", "operator:short": "USPS", "operator:type": "public", "operator:wikidata": "Q668687", "ref": "2406000006"}, "type": "Feature"}
{"geometry": {"coordinates": [-80.3980748, 37.206055], "type": "Point"}, "id": "Ui0kKza0m9c5CCWeuz6NNbqA67w=", "properties": {"@source_uri": "https://tools.usps.com/UspsToolsRestServices/rest/POLocator/findLocations", "@spider": "usps_collection_boxes", "addr:city": "BLACKSBURG", "addr:country": "US", "addr:full": "1999 S MAIN ST", "addr:postcode": "24060", "addr:state": "VA", "amenity": "post_box", "brand": "United States Postal Service", "brand:wikidata": "Q668687", "collection_times": "Mo-Fr 13:00; Sa 09:00", "note": "ON 12/24 AND 12/31, THIS BOX MAY BE COLLECTED AS EARLY AS 12 NOON.", "nsi_id": "unitedstatespostalservice-a77078", "operator": "United States Postal Service", "operator:short": "USPS", "operator:type": "public", "operator:wikidata": "Q668687", "ref": "2406000010"}, "type": "Feature"}
{"geometry": {"coordinates": [-80.4018274, 37.215963], "type": "Point"}, "id": "Wvwc676i4Z9IKyUeM9z-kulCCqI=", "properties": {"@source_uri": "https://tools.usps.com/UspsToolsRestServices/rest/POLocator/findLocations", "@spider": "usps_collection_boxes", "addr:city": "BLACKSBURG", "addr:country": "US", "addr:full": "1324 S MAIN ST", "addr:postcode": "24060", "addr:state": "VA", "amenity": "post_box", "brand": "United States Postal Service", "brand:wikidata": "Q668687", "collection_times": "Mo-Fr 13:00; Sa 09:00", "note": "ON 12/24 AND 12/31, THIS BOX MAY BE COLLECTED AS EARLY AS 12 NOON.", "nsi_id": "unitedstatespostalservice-a77078", "operator": "United States Postal Service", "operator:short": "USPS", "operator:type": "public", "operator:wikidata": "Q668687", "ref": "2406000013"}, "type": "Feature"}
{"geometry": {"coordinates": [-80.4127789, 37.227117], "type": "Point"}, "id": "XYotAoiJw9sJ4QYlAiaGYspINq8=", "properties": {"@source_uri": "https://tools.usps.com/UspsToolsRestServices/rest/POLocator/findLocations", "@spider": "usps_collection_boxes", "addr:city": "BLACKSBURG", "addr:country": "US", "addr:full": "300 WASHINGTON ST SW", "addr:postcode": "24060", "addr:state": "VA", "amenity": "post_box", "brand": "United States Postal Service", "brand:wikidata": "Q668687", "collection_times": "Mo-Fr 13:00; Sa 09:00", "note": "ON 12/24 AND 12/31, THIS BOX MAY BE COLLECTED AS EARLY AS 12 NOON.", "nsi_id": "unitedstatespostalservice-a77078", "operator": "United States Postal Service", "operator:short": "USPS", "operator:type": "public", "operator:wikidata": "Q668687", "ref": "2406000015"}, "type": "Feature"}
{"geometry": {"coordinates": [-80.4293684, 37.24486], "type": "Point"}, "id": "mMQQmtW3Vz-Llht2uCpO0KeFVO8=", "properties": {"@source_uri": "https://tools.usps.com/UspsToolsRestServices/rest/POLocator/findLocations", "@spider": "usps_collection_boxes", "addr:city": "BLACKSBURG", "addr:country": "US", "addr:full": "500 SUNRIDGE DR", "addr:postcode": "24060", "addr:state": "VA", "amenity": "post_box", "brand": "United States Postal Service", "brand:wikidata": "Q668687", "collection_times": "Mo-Fr 12:00; Sa 09:00", "nsi_id": "unitedstatespostalservice-a77078", "operator": "United States Postal Service", "operator:short": "USPS", "operator:type": "public", "operator:wikidata": "Q668687", "ref": "2406000031"}, "type": "Feature"}
{"geometry": {"coordinates": [-80.414430157, 37.229829202], "type": "Point"}, "id": "YkloFP83pBXJauYMh6FLqtJix5s=", "properties": {"@source_uri": "https://tools.usps.com/UspsToolsRestServices/rest/POLocator/findLocations", "@spider": "usps_collection_boxes", "addr:city": "BLACKSBURG", "addr:country": "US", "addr:full": "118 N MAIN ST", "addr:postcode": "24060", "addr:state": "VA", "amenity": "post_box", "brand": "United States Postal Service", "brand:wikidata": "Q668687", "collection_times": "Mo-Fr 16:30; Sa 09:00", "note": "ON 12/24 AND 12/31, THIS BOX MAY BE COLLECTED AS EARLY AS 12 NOON.", "nsi_id": "unitedstatespostalservice-a77078", "operator": "United States Postal Service", "operator:short": "USPS", "operator:type": "public", "operator:wikidata": "Q668687", "ref": "2406000032"}, "type": "Feature"}
{"geometry": {"coordinates": [-80.4143695, 37.230295], "type": "Point"}, "id": "SS26oa_OSDfxRwkNuKssmsJU80E=", "properties": {"@source_uri": "https://tools.usps.com/UspsToolsRestServices/rest/POLocator/findLocations", "@spider": "usps_collection_boxes", "addr:city": "BLACKSBURG", "addr:country": "US", "addr:full": "100 E JACKSON ST", "addr:postcode": "24060", "addr:state": "VA", "amenity": "post_box", "brand": "United States Postal Service", "brand:wikidata": "Q668687", "collection_times": "Mo-Fr 16:30; Sa 09:00", "note": "ON 12/24 AND 12/31, THIS BOX MAY BE COLLECTED AS EARLY AS 12 NOON.", "nsi_id": "unitedstatespostalservice-a77078", "operator": "United States Postal Service", "operator:short": "USPS", "operator:type": "public", "operator:wikidata": "Q668687", "ref": "2406000033"}, "type": "Feature"}
{"geometry": {"coordinates": [-80.3992900254, 37.2154599974], "type": "Point"}, "id": "VlO7_NwajPHMkgLHkTy9U8opRQ0=", "properties": {"@source_uri": "https://tools.usps.com/UspsToolsRestServices/rest/POLocator/findLocations", "@spider": "usps_collection_boxes", "addr:city": "BLACKSBURG", "addr:country": "US", "addr:full": "1425 S MAIN ST", "addr:postcode": "24060", "addr:state": "VA", "amenity": "post_box", "brand": "United States Postal Service", "brand:wikidata": "Q668687", "collection_times": "Mo-Fr 16:00; Sa 09:00", "note": "ON 12/24 AND 12/31, THIS BOX MAY BE COLLECTED AS EARLY AS 12 NOON.", "nsi_id": "unitedstatespostalservice-a77078", "operator": "United States Postal Service", "operator:short": "USPS", "operator:type": "public", "operator:wikidata": "Q668687", "ref": "2406000034"}, "type": "Feature"}
{"geometry": {"coordinates": [-80.434977211, 37.237400821], "type": "Point"}, "id": "X9pG3hf9l6I8SGpA65epHLcejhs=", "properties": {"@source_uri": "https://tools.usps.com/UspsToolsRestServices/rest/POLocator/findLocations", "@spider": "usps_collection_boxes", "addr:city": "BLACKSBURG", "addr:country": "US", "addr:full": "909 UNIVERSITY CITY BLVD", "addr:postcode": "24060", "addr:state": "VA", "amenity": "post_box", "brand": "United States Postal Service", "brand:wikidata": "Q668687", "collection_times": "Mo-Fr 17:00; Sa 09:00", "note": "ON 12/24 AND 12/31, THIS BOX MAY BE COLLECTED AS EARLY AS 12 NOON.", "nsi_id": "unitedstatespostalservice-a77078", "operator": "United States Postal Service", "operator:short": "USPS", "operator:type": "public", "operator:wikidata": "Q668687", "ref": "2406000037"}, "type": "Feature"}
{"geometry": {"coordinates": [-80.4302371, 37.2429], "type": "Point"}, "id": "Tn6hwyQ0hyohT_LRfhZNtKMuO3A=", "properties": {"@source_uri": "https://tools.usps.com/UspsToolsRestServices/rest/POLocator/findLocations", "@spider": "usps_collection_boxes", "addr:city": "BLACKSBURG", "addr:country": "US", "addr:full": "1317 UNIVERSITY CITY BLVD", "addr:postcode": "24060", "addr:state": "VA", "amenity": "post_box", "brand": "United States Postal Service", "brand:wikidata": "Q668687", "collection_times": "Mo-Fr 13:00; Sa 09:00", "note": "ON 12/24 AND 12/31, THIS BOX MAY BE COLLECTED AS EARLY AS 12 NOON.", "nsi_id": "unitedstatespostalservice-a77078", "operator": "United States Postal Service", "operator:short": "USPS", "operator:type": "public", "operator:wikidata": "Q668687", "ref": "2406000040"}, "type": "Feature"}
{"geometry": {"coordinates": [-80.398517, 37.205435], "type": "Point"}, "id": "DQKy8vYJM7ACl2BjJq5Kj2dCl-s=", "properties": {"@source_uri": "https://tools.usps.com/UspsToolsRestServices/rest/POLocator/findLocations", "@spider": "usps_collection_boxes", "addr:city": "BLACKSBURG", "addr:country": "US", "addr:full": "2001 S MAIN ST", "addr:postcode": "24060", "addr:state": "VA", "amenity": "post_box", "brand": "United States Postal Service", "brand:wikidata": "Q668687", "collection_times": "Mo-Fr 13:00; Sa 09:00", "note": "ON 12/24 AND 12/31, THIS BOX MAY BE COLLECTED AS EARLY AS 12 NOON.", "nsi_id": "unitedstatespostalservice-a77078", "operator": "United States Postal Service", "operator:short": "USPS", "operator:type": "public", "operator:wikidata": "Q668687", "ref": "2406000046"}, "type": "Feature"}
{"geometry": {"coordinates": [-80.414430157, 37.229829202], "type": "Point"}, "id": "BA7jETnue_JI5LxD8BFChBlbGsk=", "properties": {"@source_uri": "https://tools.usps.com/UspsToolsRestServices/rest/POLocator/findLocations", "@spider": "usps_collection_boxes", "addr:city": "BLACKSBURG", "addr:country": "US", "addr:full": "118 N MAIN ST", "addr:postcode": "24060", "addr:state": "VA", "amenity": "post_box", "brand": "United States Postal Service", "brand:wikidata": "Q668687", "collection_times": "Mo-Fr 16:30; Sa 09:00", "indoor": "yes", "note": "ON 12/24 AND 12/31, THIS BOX MAY BE COLLECTED AS EARLY AS 12 NOON.", "nsi_id": "unitedstatespostalservice-a77078", "operator": "United States Postal Service", "operator:short": "USPS", "operator:type": "public", "operator:wikidata": "Q668687", "ref": "2406000049"}, "type": "Feature"}
{"geometry": {"coordinates": [-80.434977211, 37.237400821], "type": "Point"}, "id": "UDkPdnoVQyGTxSw3t10qaBCcpLs=", "properties": {"@source_uri": "https://tools.usps.com/UspsToolsRestServices/rest/POLocator/findLocations", "@spider": "usps_collection_boxes", "addr:city": "BLACKSBURG", "addr:country": "US", "addr:full": "909 UNIVERSITY CITY BLVD", "addr:postcode": "24060", "addr:state": "VA", "amenity": "post_box", "brand": "United States Postal Service", "brand:wikidata": "Q668687", "collection_times": "Mo-Fr 17:00; Sa 09:00", "indoor": "yes", "note": "ON 12/24 AND 12/31, THIS BOX MAY BE COLLECTED AS EARLY AS 12 NOON.", "nsi_id": "unitedstatespostalservice-a77078", "operator": "United States Postal Service", "operator:short": "USPS", "operator:type": "public", "operator:wikidata": "Q668687", "ref": "2406000052"}, "type": "Feature"}
{"geometry": {"coordinates": [-80.4147495, 37.247106], "type": "Point"}, "id": "0vU7lPfEJrLdXZBqPzTGZ7Z2pDU=", "properties": {"@source_uri": "https://tools.usps.com/UspsToolsRestServices/rest/POLocator/findLocations", "@spider": "usps_collection_boxes", "addr:city": "BLACKSBURG", "addr:country": "US", "addr:full": "1400 N MAIN ST", "addr:postcode": "24060", "addr:state": "VA", "amenity": "post_box", "brand": "United States Postal Service", "brand:wikidata": "Q668687", "collection_times": "Mo-Fr 13:00; Sa 09:00", "note": "ON 12/24 AND 12/31, THIS BOX MAY BE COLLECTED AS EARLY AS 12 NOON.", "nsi_id": "unitedstatespostalservice-a77078", "operator": "United States Postal Service", "operator:short": "USPS", "operator:type": "public", "operator:wikidata": "Q668687", "ref": "2406000055"}, "type": "Feature"}
{"geometry": {"coordinates": [-80.434977211, 37.237400821], "type": "Point"}, "id": "Erqb1Y6Il5DTFro-nhRnos9eAT4=", "properties": {"@source_uri": "https://tools.usps.com/UspsToolsRestServices/rest/POLocator/findLocations", "@spider": "usps_collection_boxes", "addr:city": "BLACKSBURG", "addr:country": "US", "addr:full": "909 UNIVERSITY CITY BLVD", "addr:postcode": "24060", "addr:state": "VA", "amenity": "post_box", "brand": "United States Postal Service", "brand:wikidata": "Q668687", "collection_times": "Mo-Fr 17:00; Sa 09:00", "name": "USPS COLLECTION BOX - APC", "note": "ON 12/24 AND 12/31, THIS BOX MAY BE COLLECTED AS EARLY AS 12 NOON.", "nsi_id": "unitedstatespostalservice-a77078", "operator": "United States Postal Service", "operator:short": "USPS", "operator:type": "public", "operator:wikidata": "Q668687", "ref": "2406000057"}, "type": "Feature"}
{"geometry": {"coordinates": [-80.3984279, 37.207184], "type": "Point"}, "id": "Ed2kc5SgkGqjXb3OKfwHExlY7-8=", "properties": {"@source_uri": "https://tools.usps.com/UspsToolsRestServices/rest/POLocator/findLocations", "@spider": "usps_collection_boxes", "addr:city": "BLACKSBURG", "addr:country": "US", "addr:full": "1901 S MAIN ST", "addr:postcode": "24060", "addr:state": "VA", "amenity": "post_box", "brand": "United States Postal Service", "brand:wikidata": "Q668687", "collection_times": "Mo-Fr 15:30; Sa 09:00", "note": "ON 12/24 AND 12/31, THIS BOX MAY BE COLLECTED AS EARLY AS 12 NOON.", "nsi_id": "unitedstatespostalservice-a77078", "operator": "United States Postal Service", "operator:short": "USPS", "operator:type": "public", "operator:wikidata": "Q668687", "ref": "2406000058"}, "type": "Feature"}
{"geometry": {"coordinates": [-80.4186627, 37.23401], "type": "Point"}, "id": "-KfMp6Mzqee6CSCpZpYFHSWFZKA=", "properties": {"@source_uri": "https://tools.usps.com/UspsToolsRestServices/rest/POLocator/findLocations", "@spider": "usps_collection_boxes", "addr:city": "BLACKSBURG", "addr:country": "US", "addr:full": "610 N MAIN ST", "addr:postcode": "24060", "addr:state": "VA", "amenity": "post_box", "brand": "United States Postal Service", "brand:wikidata": "Q668687", "collection_times": "Mo-Fr 12:30; Sa 09:00", "note": "ON 12/24 AND 12/31, THIS BOX MAY BE COLLECTED AS EARLY AS 12 NOON.", "nsi_id": "unitedstatespostalservice-a77078", "operator": "United States Postal Service", "operator:short": "USPS", "operator:type": "public", "operator:wikidata": "Q668687", "ref": "2406000059"}, "type": "Feature"}
{"geometry": {"coordinates": [-80.4007271, 37.196194], "type": "Point"}, "id": "ynjcEa0HTW9vi3iGb-QLYhkbkDA=", "properties": {"@source_uri": "https://tools.usps.com/UspsToolsRestServices/rest/POLocator/findLocations", "@spider": "usps_collection_boxes", "addr:city": "BLACKSBURG", "addr:country": "US", "addr:full": "200 PROFESSIONAL PARK DR SE", "addr:postcode": "24060", "addr:state": "VA", "amenity": "post_box", "brand": "United States Postal Service", "brand:wikidata": "Q668687", "collection_times": "Mo-Fr 15:30; Sa 09:00", "note": "ON 12/24 AND 12/31, THIS BOX MAY BE COLLECTED AS EARLY AS 12 NOON.", "nsi_id": "unitedstatespostalservice-a77078", "operator": "United States Postal Service", "operator:short": "USPS", "operator:type": "public", "operator:wikidata": "Q668687", "ref": "2406000060"}, "type": "Feature"}
{"geometry": {"coordinates": [-80.4248955, 37.243125], "type": "Point"}, "id": "jITHqM-AXJqhHv2gtv5OHV3A9Oc=", "properties": {"@source_uri": "https://tools.usps.com/UspsToolsRestServices/rest/POLocator/findLocations", "@spider": "usps_collection_boxes", "addr:city": "BLACKSBURG", "addr:country": "US", "addr:full": "413 HUNT CLUB RD", "addr:postcode": "24060", "addr:state": "VA", "amenity": "post_box", "brand": "United States Postal Service", "brand:wikidata": "Q668687", "collection_times": "Mo-Sa 09:00", "nsi_id": "unitedstatespostalservice-a77078", "operator": "United States Postal Service", "operator:short": "USPS", "operator:type": "public", "operator:wikidata": "Q668687", "ref": "2406000063"}, "type": "Feature"}
{"geometry": {"coordinates": [-80.434977211, 37.237400821], "type": "Point"}, "id": "vUEIfjLzBCczCSc9EwHvA0l88dM=", "properties": {"@source_uri": "https://tools.usps.com/UspsToolsRestServices/rest/POLocator/findLocations", "@spider": "usps_collection_boxes", "addr:city": "BLACKSBURG", "addr:country": "US", "addr:full": "909 UNIVERSITY CITY BLVD", "addr:postcode": "24060", "addr:state": "VA", "amenity": "post_box", "brand": "United States Postal Service", "brand:wikidata": "Q668687", "collection_times": "Mo-Fr 17:00; Sa 14:00", "indoor": "yes", "note": "ON 12/24 AND 12/31, THIS BOX MAY BE COLLECTED AS EARLY AS 12 NOON.", "nsi_id": "unitedstatespostalservice-a77078", "operator": "United States Postal Service", "operator:short": "USPS", "operator:type": "public", "operator:wikidata": "Q668687", "ref": "2406000070"}, "type": "Feature"}
{"geometry": {"coordinates": [-80.414430157, 37.229829202], "type": "Point"}, "id": "69ysrYxhRolIMKaIe8Er1DCb4nY=", "properties": {"@source_uri": "https://tools.usps.com/UspsToolsRestServices/rest/POLocator/findLocations", "@spider": "usps_collection_boxes", "addr:city": "BLACKSBURG", "addr:country": "US", "addr:full": "118 N MAIN ST", "addr:postcode": "24060", "addr:state": "VA", "amenity": "post_box", "brand": "United States Postal Service", "brand:wikidata": "Q668687", "collection_times": "Mo-Fr 16:00", "indoor": "yes", "note": "ON 12/24 AND 12/31, THIS BOX MAY BE COLLECTED AS EARLY AS 12 NOON.", "nsi_id": "unitedstatespostalservice-a77078", "operator": "United States Postal Service", "operator:short": "USPS", "operator:type": "public", "operator:wikidata": "Q668687", "ref": "2406000071"}, "type": "Feature"}
{"geometry": {"coordinates": [-79.821166377, 37.36403765], "type": "Point"}, "id": "DKfGHmQLl04OKuYTiVTXoSx0K4I=", "properties": {"@source_uri": "https://tools.usps.com/UspsToolsRestServices/rest/POLocator/findLocations", "@spider": "usps_collection_boxes", "addr:city": "BLUE RIDGE", "addr:country": "US", "addr:full": "3521 BLUE RIDGE BLVD", "addr:postcode": "24064", "addr:state": "VA", "amenity": "post_box", "brand": "United States Postal Service", "brand:wikidata": "Q668687", "collection_times": "Mo-Fr 17:00; Sa 12:00", "note": "ON 12/24 AND 12/31, THIS BOX MAY BE COLLECTED AS EARLY AS 12 NOON.", "nsi_id": "unitedstatespostalservice-a77078", "operator": "United States Postal Service", "operator:short": "USPS", "operator:type": "public", "operator:wikidata": "Q668687", "ref": "2406400000"}, "type": "Feature"}
{"geometry": {"coordinates": [-79.821166377, 37.36403765], "type": "Point"}, "id": "AMDmWO2iA679ts2lQ0PyMacErNY=", "properties": {"@source_uri": "https://tools.usps.com/UspsToolsRestServices/rest/POLocator/findLocations", "@spider": "usps_collection_boxes", "addr:city": "BLUE RIDGE", "addr:country": "US", "addr:full": "3521 BLUE RIDGE BLVD", "addr:postcode": "24064", "addr:state": "VA", "amenity": "post_box", "brand": "United States Postal Service", "brand:wikidata": "Q668687", "collection_times": "Mo-Fr 17:00; Sa 12:00", "indoor": "yes", "note": "ON 12/24 AND 12/31, THIS BOX MAY BE COLLECTED AS EARLY AS 12 NOON.", "nsi_id": "unitedstatespostalservice-a77078", "operator": "United States Postal Service", "operator:short": "USPS", "operator:type": "public", "operator:wikidata": "Q668687", "ref": "2406400002"}, "type": "Feature"}
{"geometry": {"coordinates": [-79.821166377, 37.36403765], "type": "Point"}, "id": "5tr-sKdMVSwcTUUf_Wd9NIBozYc=", "properties": {"@source_uri": "https://tools.usps.com/UspsToolsRestServices/rest/POLocator/findLocations", "@spider": "usps_collection_boxes", "addr:city": "BLUE RIDGE", "addr:country": "US", "addr:full": "3521 BLUE RIDGE BLVD", "addr:postcode": "24064", "addr:state": "VA", "amenity": "post_box", "brand": "United States Postal Service", "brand:wikidata": "Q668687", "collection_times": "Mo-Fr 17:00; Sa 12:00", "indoor": "yes", "note": "ON 12/24 AND 12/31, THIS BOX MAY BE COLLECTED AS EARLY AS 12 NOON.", "nsi_id": "unitedstatespostalservice-a77078", "operator": "United States Postal Service", "operator:short": "USPS", "operator:type": "public", "operator:wikidata": "Q668687", "ref": "2406400003"}, "type": "Feature"}
{"geometry": {"coordinates": [-79.821166377, 37.36403765], "type": "Point"}, "id": "0PbmbBMmGqRFOKkMKWGy2rpKzQI=", "properties": {"@source_uri": "https://tools.usps.com/UspsToolsRestServices/rest/POLocator/findLocations", "@spider": "usps_collection_boxes", "addr:city": "BLUE RIDGE", "addr:country": "US", "addr:full": "3521 BLUE RIDGE BLVD", "addr:postcode": "24064", "addr:state": "VA", "amenity": "post_box", "brand": "United States Postal Service", "brand:wikidata": "Q668687", "collection_times": "Mo-Fr 17:00; Sa 12:00", "indoor": "yes", "note": "ON 12/24 AND 12/31, THIS BOX MAY BE COLLECTED AS EARLY AS 12 NOON.", "nsi_id": "unitedstatespostalservice-a77078", "operator": "United States Postal Service", "operator:short": "USPS", "operator:type": "public", "operator:wikidata": "Q668687", "ref": "2406400005"}, "type": "Feature"}
{"geometry": {"coordinates": [-79.953737429, 37.114651873], "type": "Point"}, "id": "Uguq6rHn-OvBwU8jjHwqfYb0riw=", "properties": {"@source_uri": "https://tools.usps.com/UspsToolsRestServices/rest/POLocator/findLocations", "@spider": "usps_collection_boxes", "addr:city": "BOONES MILL", "addr:country": "US", "addr:full": "60 MAIN ST", "addr:postcode": "24065", "addr:state": "VA", "amenity": "post_box", "brand": "United States Postal Service", "brand:wikidata": "Q668687", "collection_times": "Mo-Fr 16:30; Sa 11:00", "note": "ON 12/24 AND 12/31, THIS BOX MAY BE COLLECTED AS EARLY AS 12 NOON.", "nsi_id": "unitedstatespostalservice-a77078", "operator": "United States Postal Service", "operator:short": "USPS", "operator:type": "public", "operator:wikidata": "Q668687", "ref": "2406500000"}, "type": "Feature"}
{"geometry": {"coordinates": [-79.953737429, 37.114651873], "type": "Point"}, "id": "vZvb7usTSATSOuc5kr21-2pTc3o=", "properties": {"@source_uri": "https://tools.usps.com/UspsToolsRestServices/rest/POLocator/findLocations", "@spider": "usps_collection_boxes", "addr:city": "BOONES MILL", "addr:country": "US", "addr:full": "60 MAIN ST", "addr:postcode": "24065", "addr:state": "VA", "amenity": "post_box", "brand": "United States Postal Service", "brand:wikidata": "Q668687", "collection_times": "Mo-Fr 16:30; Sa 11:00", "indoor": "yes", "note": "ON 12/24 AND 12/31, THIS BOX MAY BE COLLECTED AS EARLY AS 12 NOON.", "nsi_id": "unitedstatespostalservice-a77078", "operator": "United States Postal Service", "operator:short": "USPS", "operator:type": "public", "operator:wikidata": "Q668687", "ref": "2406500001"}, "type": "Feature"}
{"geometry": {"coordinates": [-79.953737429, 37.114651873], "type": "Point"}, "id": "R5EOmftqoFQrP5oKWoOA4Ixgu2U=", "properties": {"@source_uri": "https://tools.usps.com/UspsToolsRestServices/rest/POLocator/findLocations", "@spider": "usps_collection_boxes", "addr:city": "BOONES MILL", "addr:country": "US", "addr:full": "60 MAIN ST", "addr:postcode": "24065", "addr:state": "VA", "amenity": "post_box", "brand": "United States Postal Service", "brand:wikidata": "Q668687", "collection_times": "Mo-Fr 16:30; Sa 11:00", "indoor": "yes", "note": "ON 12/24 AND 12/31, THIS BOX MAY BE COLLECTED AS EARLY AS 12 NOON.", "nsi_id": "unitedstatespostalservice-a77078", "operator": "United States Postal Service", "operator:short": "USPS", "operator:type": "public", "operator:wikidata": "Q668687", "ref": "2406500003"}, "type": "Feature"}
{"geometry": {"coordinates": [-79.680303577, 37.527240751], "type": "Point"}, "id": "w3WQlaQ6KO0Kqeiw46Pb_57Qb5s=", "properties": {"@source_uri": "https://tools.usps.com/UspsToolsRestServices/rest/POLocator/findLocations", "@spider": "usps_collection_boxes", "addr:city": "BUCHANAN", "addr:country": "US", "addr:full": "19698 MAIN ST", "addr:postcode": "24066", "addr:state": "VA", "amenity": "post_box", "brand": "United States Postal Service", "brand:wikidata": "Q668687", "collection_times": "Mo-Fr 16:30; Sa 12:00", "note": "ON 12/24 AND 12/31, THIS BOX MAY BE COLLECTED AS EARLY AS 12 NOON.", "nsi_id": "unitedstatespostalservice-a77078", "operator": "United States Postal Service", "operator:short": "USPS", "operator:type": "public", "operator:wikidata": "Q668687", "ref": "2406600000"}, "type": "Feature"}
{"geometry": {"coordinates": [-79.680303577, 37.527240751], "type": "Point"}, "id": "cS_5eBUsv3c8D1t8GBb9BgzI1gw=", "properties": {"@source_uri": "https://tools.usps.com/UspsToolsRestServices/rest/POLocator/findLocations", "@spider": "usps_collection_boxes", "addr:city": "BUCHANAN", "addr:country": "US", "addr:full": "19698 MAIN ST", "addr:postcode": "24066", "addr:state": "VA", "amenity": "post_box", "brand": "United States Postal Service", "brand:wikidata": "Q668687", "collection_times": "Mo-Fr 16:30; Sa 12:00", "indoor": "yes", "note": "ON 12/24 AND 12/31, THIS BOX MAY BE COLLECTED AS EARLY AS 12 NOON.", "nsi_id": "unitedstatespostalservice-a77078", "operator": "United States Postal Service", "operator:short": "USPS", "operator:type": "public", "operator:wikidata": "Q668687", "ref": "2406600001"}, "type": "Feature"}
{"geometry": {"coordinates": [-79.680303577, 37.527240751], "type": "Point"}, "id": "LmoNMDpwsbXzgnshAOiyYrT2ZwM=", "properties": {"@source_uri": "https://tools.usps.com/UspsToolsRestServices/rest/POLocator/findLocations", "@spider": "usps_collection_boxes", "addr:city": "BUCHANAN", "addr:country": "US", "addr:full": "19698 MAIN ST", "addr:postcode": "24066", "addr:state": "VA", "amenity": "post_box", "brand": "United States Postal Service", "brand:wikidata": "Q668687", "collection_times": "Mo-Fr 16:30; Sa 12:00", "indoor": "yes", "note": "ON 12/24 AND 12/31, THIS BOX MAY BE COLLECTED AS EARLY AS 12 NOON.", "nsi_id": "unitedstatespostalservice-a77078", "operator": "United States Postal Service", "operator:short": "USPS", "operator:type": "public", "operator:wikidata": "Q668687", "ref": "2406600003"}, "type": "Feature"}
{"geometry": {"coordinates": [-80.038767, 37.012562], "type": "Point"}, "id": "mALeqXth3A8d-itTf4Dobt2xG6I=", "properties": {"@source_uri": "https://tools.usps.com/UspsToolsRestServices/rest/POLocator/findLocations", "@spider": "usps_collection_boxes", "addr:city": "CALLAWAY", "addr:country": "US", "addr:full": "7855 CALLAWAY RD", "addr:postcode": "24067", "addr:state": "VA", "amenity": "post_box", "brand": "United States Postal Service", "brand:wikidata": "Q668687", "collection_times": "Mo-Fr 15:00; Sa 10:30", "note": "ON 12/24 AND 12/31, THIS BOX MAY BE COLLECTED AS EARLY AS 12 NOON.", "nsi_id": "unitedstatespostalservice-a77078", "operator": "United States Postal Service", "operator:short": "USPS", "operator:type": "public", "operator:wikidata": "Q668687", "ref": "2406700000"}, "type": "Feature"}
{"geometry": {"coordinates": [-80.0387, 37.012596], "type": "Point"}, "id": "yB3T7rhatKYdvQRXqAfnkZ3S_J4=", "properties": {"@source_uri": "https://tools.usps.com/UspsToolsRestServices/rest/POLocator/findLocations", "@spider": "usps_collection_boxes", "addr:city": "CALLAWAY", "addr:country": "US", "addr:full": "7855 CALLAWAY RD", "addr:postcode": "24067", "addr:state": "VA", "amenity": "post_box", "brand": "United States Postal Service", "brand:wikidata": "Q668687", "collection_times": "Mo-Fr 15:00; Sa 10:30", "indoor": "yes", "note": "ON 12/24 AND 12/31, THIS BOX MAY BE COLLECTED AS EARLY AS 12 NOON.", "nsi_id": "unitedstatespostalservice-a77078", "operator": "United States Postal Service", "operator:short": "USPS", "operator:type": "public", "operator:wikidata": "Q668687", "ref": "2406700001"}, "type": "Feature"}
{"geometry": {"coordinates": [-80.038527358, 37.012601579], "type": "Point"}, "id": "orWKCNIY2WvfRxoZS5FR4LBSU00=", "properties": {"@source_uri": "https://tools.usps.com/UspsToolsRestServices/rest/POLocator/findLocations", "@spider": "usps_collection_boxes", "addr:city": "CALLAWAY", "addr:country": "US", "addr:full": "7855 CALLAWAY RD", "addr:postcode": "24067", "addr:state": "VA", "amenity": "post_box", "brand": "United States Postal Service", "brand:wikidata": "Q668687", "collection_times": "Mo-Fr 15:00; Sa 10:30", "indoor": "yes", "note": "ON 12/24 AND 12/31, THIS BOX MAY BE COLLECTED AS EARLY AS 12 NOON.", "nsi_id": "unitedstatespostalservice-a77078", "operator": "United States Postal Service", "operator:short": "USPS", "operator:type": "public", "operator:wikidata": "Q668687", "ref": "2406700004"}, "type": "Feature"}
{"geometry": {"coordinates": [-79.671515, 36.564228], "type": "Point"}, "id": "GBJWJbLf1OLs0_ju0KwpkNiMXWA=", "properties": {"@source_uri": "https://tools.usps.com/UspsToolsRestServices/rest/POLocator/findLocations", "@spider": "usps_collection_boxes", "addr:city": "CASCADE", "addr:country": "US", "addr:full": "5860 CASCADE RD", "addr:postcode": "24069", "addr:state": "VA", "amenity": "post_box", "brand": "United States Postal Service", "brand:wikidata": "Q668687", "collection_times": "Mo-Fr 15:00; Sa 10:30", "note": "ON 12/24 AND 12/31, THIS BOX MAY BE COLLECTED AS EARLY AS 12 NOON.", "nsi_id": "unitedstatespostalservice-a77078", "operator": "United States Postal Service", "operator:short": "USPS", "operator:type": "public", "operator:wikidata": "Q668687", "ref": "2406900000"}, "type": "Feature"}
{"geometry": {"coordinates": [-79.671617, 36.564182], "type": "Point"}, "id": "a3RhgpTAryxy9y6yRYeJtL4Ayrk=", "properties": {"@source_uri": "https://tools.usps.com/UspsToolsRestServices/rest/POLocator/findLocations", "@spider": "usps_collection_boxes", "addr:city": "CASCADE", "addr:country": "US", "addr:full": "5860 CASCADE RD", "addr:postcode": "24069", "addr:state": "VA", "amenity": "post_box", "brand": "United States Postal Service", "brand:wikidata": "Q668687", "collection_times": "Mo-Fr 15:00; Sa 10:30", "indoor": "yes", "note": "ON 12/24 AND 12/31, THIS BOX MAY BE COLLECTED AS EARLY AS 12 NOON.", "nsi_id": "unitedstatespostalservice-a77078", "operator": "United States Postal Service", "operator:short": "USPS", "operator:type": "public", "operator:wikidata": "Q668687", "ref": "2406900001"}, "type": "Feature"}
{"geometry": {"coordinates": [-79.670865949, 36.56434418], "type": "Point"}, "id": "gmmyvi_1DGHGboFfYlBpsN90Sdg=", "properties": {"@source_uri": "https://tools.usps.com/UspsToolsRestServices/rest/POLocator/findLocations", "@spider": "usps_collection_boxes", "addr:city": "CASCADE", "addr:country": "US", "addr:full": "5860 CASCADE RD", "addr:postcode": "24069", "addr:state": "VA", "amenity": "post_box", "brand": "United States Postal Service", "brand:wikidata": "Q668687", "collection_times": "Mo-Fr 15:15; Sa 11:30", "indoor": "yes", "note": "ON 12/24 AND 12/31, THIS BOX MAY BE COLLECTED AS EARLY AS 12 NOON.", "nsi_id": "unitedstatespostalservice-a77078", "operator": "United States Postal Service", "operator:short": "USPS", "operator:type": "public", "operator:wikidata": "Q668687", "ref": "2406900003"}, "type": "Feature"}
{"geometry": {"coordinates": [-80.100026, 37.387432], "type": "Point"}, "id": "gvKKDLp5tzb9TAGk_mrKBszTwzM=", "properties": {"@source_uri": "https://tools.usps.com/UspsToolsRestServices/rest/POLocator/findLocations", "@spider": "usps_collection_boxes", "addr:city": "CATAWBA", "addr:country": "US", "addr:full": "4917 CATAWBA CREEK RD", "addr:postcode": "24070", "addr:state": "VA", "amenity": "post_box", "brand": "United States Postal Service", "brand:wikidata": "Q668687", "collection_times": "Mo-Fr 15:30; Sa 10:30", "note": "ON 12/24 AND 12/31, THIS BOX MAY BE COLLECTED AS EARLY AS 12 NOON.", "nsi_id": "unitedstatespostalservice-a77078", "operator": "United States Postal Service", "operator:short": "USPS", "operator:type": "public", "operator:wikidata": "Q668687", "ref": "2407000000"}, "type": "Feature"}
{"geometry": {"coordinates": [-80.099971, 37.387484], "type": "Point"}, "id": "aQ1Ch3TYxd45xNELL_ZOHOBHBvQ=", "properties": {"@source_uri": "https://tools.usps.com/UspsToolsRestServices/rest/POLocator/findLocations", "@spider": "usps_collection_boxes", "addr:city": "CATAWBA", "addr:country": "US", "addr:full": "4917 CATAWBA CREEK RD", "addr:postcode": "24070", "addr:state": "VA", "amenity": "post_box", "brand": "United States Postal Service", "brand:wikidata": "Q668687", "collection_times": "Mo-Fr 15:30; Sa 10:30", "indoor": "yes", "note": "ON 12/24 AND 12/31, THIS BOX MAY BE COLLECTED AS EARLY AS 12 NOON.", "nsi_id": "unitedstatespostalservice-a77078", "operator": "United States Postal Service", "operator:short": "USPS", "operator:type": "public", "operator:wikidata": "Q668687", "ref": "2407000001"}, "type": "Feature"}
{"geometry": {"coordinates": [-80.108809581, 37.382898899], "type": "Point"}, "id": "0OPBIWjlWaTbEzUf7QQioQuy0T8=", "properties": {"@source_uri": "https://tools.usps.com/UspsToolsRestServices/rest/POLocator/findLocations", "@spider": "usps_collection_boxes", "addr:city": "CATAWBA", "addr:country": "US", "addr:full": "4917 CATAWBA CREEK RD", "addr:postcode": "24070", "addr:state": "VA", "amenity": "post_box", "brand": "United States Postal Service", "brand:wikidata": "Q668687", "collection_times": "Mo-Fr 16:00; Sa 10:30", "indoor": "yes", "note": "ON 12/24 AND 12/31, THIS BOX MAY BE COLLECTED AS EARLY AS 12 NOON.", "nsi_id": "unitedstatespostalservice-a77078", "operator": "United States Postal Service", "operator:short": "USPS", "operator:type": "public", "operator:wikidata": "Q668687", "ref": "2407000003"}, "type": "Feature"}
{"geometry": {"coordinates": [-80.170305, 37.030588], "type": "Point"}, "id": "L3yHAhTT3IIOh1UV1ZjPzj8CGbU=", "properties": {"@source_uri": "https://tools.usps.com/UspsToolsRestServices/rest/POLocator/findLocations", "@spider": "usps_collection_boxes", "addr:city": "CHECK", "addr:country": "US", "addr:full": "168 MEADOW RUN RD SE", "addr:postcode": "24072", "addr:state": "VA", "amenity": "post_box", "brand": "United States Postal Service", "brand:wikidata": "Q668687", "collection_times": "Mo-Sa 11:45", "nsi_id": "unitedstatespostalservice-a77078", "operator": "United States Postal Service", "operator:short": "USPS", "operator:type": "public", "operator:wikidata": "Q668687", "ref": "2407200000"}, "type": "Feature"}
{"geometry": {"coordinates": [-80.170319, 37.030641], "type": "Point"}, "id": "DHIz_xtDl_exS8efbaJ2IAwFH2A=", "properties": {"@source_uri": "https://tools.usps.com/UspsToolsRestServices/rest/POLocator/findLocations", "@spider": "usps_collection_boxes", "addr:city": "CHECK", "addr:country": "US", "addr:full": "168 MEADOW RUN RD SE", "addr:postcode": "24072", "addr:state": "VA", "amenity": "post_box", "brand": "United States Postal Service", "brand:wikidata": "Q668687", "collection_times": "Mo-Sa 11:45", "indoor": "yes", "nsi_id": "unitedstatespostalservice-a77078", "operator": "United States Postal Service", "operator:short": "USPS", "operator:type": "public", "operator:wikidata": "Q668687", "ref": "2407200001"}, "type": "Feature"}
{"geometry": {"coordinates": [-80.170263307, 37.030503521], "type": "Point"}, "id": "1Ywmobyw67SlhPPTLMlnUBycxVQ=", "properties": {"@source_uri": "https://tools.usps.com/UspsToolsRestServices/rest/POLocator/findLocations", "@spider": "usps_collection_boxes", "addr:city": "CHECK", "addr:country": "US", "addr:full": "168 MEADOW RUN RD SE", "addr:postcode": "24072", "addr:state": "VA", "amenity": "post_box", "brand": "United States Postal Service", "brand:wikidata": "Q668687", "collection_times": "Mo-Fr 12:00; Sa 11:45", "indoor": "yes", "nsi_id": "unitedstatespostalservice-a77078", "operator": "United States Postal Service", "operator:short": "USPS", "operator:type": "public", "operator:wikidata": "Q668687", "ref": "2407200003"}, "type": "Feature"}
{"geometry": {"coordinates": [-80.3527727, 37.139116], "type": "Point"}, "id": "ba7mqkfa_287MMKkk7dfrl9fZHY=", "properties": {"@source_uri": "https://tools.usps.com/UspsToolsRestServices/rest/POLocator/findLocations", "@spider": "usps_collection_boxes", "addr:city": "CHRISTIANSBURG", "addr:country": "US", "addr:full": "50 HAMPTON BLVD", "addr:postcode": "24073", "addr:state": "VA", "amenity": "post_box", "brand": "United States Postal Service", "brand:wikidata": "Q668687", "collection_times": "Mo-Sa 10:00", "nsi_id": "unitedstatespostalservice-a77078", "operator": "United States Postal Service", "operator:short": "USPS", "operator:type": "public", "operator:wikidata": "Q668687", "ref": "2407300007"}, "type": "Feature"}
{"geometry": {"coordinates": [-80.4157108, 37.150214], "type": "Point"}, "id": "dY6CsEzHbpqarJ6Cq77EGYr5rDY=", "properties": {"@source_uri": "https://tools.usps.com/UspsToolsRestServices/rest/POLocator/findLocations", "@spider": "usps_collection_boxes", "addr:city": "CHRISTIANSBURG", "addr:country": "US", "addr:full": "1580 N FRANKLIN ST", "addr:postcode": "24073", "addr:state": "VA", "amenity": "post_box", "brand": "United States Postal Service", "brand:wikidata": "Q668687", "collection_times": "Mo-Fr 13:45; Sa 09:15", "note": "ON 12/24 AND 12/31, THIS BOX MAY BE COLLECTED AS EARLY AS 12 NOON.", "nsi_id": "unitedstatespostalservice-a77078", "operator": "United States Postal Service", "operator:short": "USPS", "operator:type": "public", "operator:wikidata": "Q668687", "ref": "2407300011"}, "type": "Feature"}
{"geometry": {"coordinates": [-80.4054526, 37.142375], "type": "Point"}, "id": "pX64j9IH-Nbd3zahPP4e73plFXU=", "properties": {"@source_uri": "https://tools.usps.com/UspsToolsRestServices/rest/POLocator/findLocations", "@spider": "usps_collection_boxes", "addr:city": "CHRISTIANSBURG", "addr:country": "US", "addr:full": "985 CAMBRIA ST NE", "addr:postcode": "24073", "addr:state": "VA", "amenity": "post_box", "brand": "United States Postal Service", "brand:wikidata": "Q668687", "collection_times": "Mo-Fr 13:30; Sa 09:00", "note": "ON 12/24 AND 12/31, THIS BOX MAY BE COLLECTED AS EARLY AS 12 NOON.", "nsi_id": "unitedstatespostalservice-a77078", "operator": "United States Postal Service", "operator:short": "USPS", "operator:type": "public", "operator:wikidata": "Q668687", "ref": "2407300012"}, "type": "Feature"}
{"geometry": {"coordinates": [-80.408893, 37.130173], "type": "Point"}, "id": "GtKmbwODQDqbZ74KVmO249YjecA=", "properties": {"@source_uri": "https://tools.usps.com/UspsToolsRestServices/rest/POLocator/findLocations", "@spider": "usps_collection_boxes", "addr:city": "CHRISTIANSBURG", "addr:country": "US", "addr:full": "2 E MAIN ST", "addr:postcode": "24073", "addr:state": "VA", "amenity": "post_box", "brand": "United States Postal Service", "brand:wikidata": "Q668687", "collection_times": "Mo-Fr 17:00; Sa 09:45", "note": "ON 12/24 AND 12/31, THIS BOX MAY BE COLLECTED AS EARLY AS 12 NOON.", "nsi_id": "unitedstatespostalservice-a77078", "operator": "United States Postal Service", "operator:short": "USPS", "operator:type": "public", "operator:wikidata": "Q668687", "ref": "2407300013"}, "type": "Feature"}
{"geometry": {"coordinates": [-80.3886652, 37.133555], "type": "Point"}, "id": "kZEQH2ZLwPkgMhKICH0mrWz3UYc=", "properties": {"@source_uri": "https://tools.usps.com/UspsToolsRestServices/rest/POLocator/findLocations", "@spider": "usps_collection_boxes", "addr:city": "CHRISTIANSBURG", "addr:country": "US", "addr:full": "125 ARROWHEAD TRL", "addr:postcode": "24073", "addr:state": "VA", "amenity": "post_box", "brand": "United States Postal Service", "brand:wikidata": "Q668687", "collection_times": "Mo-Fr 14:00; Sa 09:15", "note": "ON 12/24 AND 12/31, THIS BOX MAY BE COLLECTED AS EARLY AS 12 NOON.", "nsi_id": "unitedstatespostalservice-a77078", "operator": "United States Postal Service", "operator:short": "USPS", "operator:type": "public", "operator:wikidata": "Q668687", "ref": "2407300018"}, "type": "Feature"}
{"geometry": {"coordinates": [-80.4198713, 37.168988], "type": "Point"}, "id": "E2lTQPZ4RbtBvwru5McNfnT27vA=", "properties": {"@source_uri": "https://tools.usps.com/UspsToolsRestServices/rest/POLocator/findLocations", "@spider": "usps_collection_boxes", "addr:city": "CHRISTIANSBURG", "addr:country": "US", "addr:full": "100 ARBOR DR", "addr:postcode": "24073", "addr:state": "VA", "amenity": "post_box", "brand": "United States Postal Service", "brand:wikidata": "Q668687", "collection_times": "Mo-Sa 10:00", "nsi_id": "unitedstatespostalservice-a77078", "operator": "United States Postal Service", "operator:short": "USPS", "operator:type": "public", "operator:wikidata": "Q668687", "ref": "2407300030"}, "type": "Feature"}
{"geometry": {"coordinates": [-80.4172780087, 37.1683440205], "type": "Point"}, "id": "aXfTqiylEwUAqOZ08P30lobbI68=", "properties": {"@source_uri": "https://tools.usps.com/UspsToolsRestServices/rest/POLocator/findLocations", "@spider": "usps_collection_boxes", "addr:city": "CHRISTIANSBURG", "addr:country": "US", "addr:full": "350 ARBOR DR", "addr:postcode": "24073", "addr:state": "VA", "amenity": "post_box", "brand": "United States Postal Service", "brand:wikidata": "Q668687", "collection_times": "Mo-Fr 17:00; Sa 12:00", "note": "ON 12/24 AND 12/31, THIS BOX MAY BE COLLECTED AS EARLY AS 12 NOON.", "nsi_id": "unitedstatespostalservice-a77078", "operator": "United States Postal Service", "operator:short": "USPS", "operator:type": "public", "operator:wikidata": "Q668687", "ref": "2407300031"}, "type": "Feature"}
{"geometry": {"coordinates": [-80.408798, 37.129801], "type": "Point"}, "id": "f8I1bixpQsLcmJwdNGoz9mbaqaA=", "properties": {"@source_uri": "https://tools.usps.com/UspsToolsRestServices/rest/POLocator/findLocations", "@spider": "usps_collection_boxes", "addr:city": "CHRISTIANSBURG", "addr:country": "US", "addr:full": "2 E MAIN ST", "addr:postcode": "24073", "addr:state": "VA", "amenity": "post_box", "brand": "United States Postal Service", "brand:wikidata": "Q668687", "collection_times": "Mo-Fr 17:00; Sa 09:45", "indoor": "yes", "note": "ON 12/24 AND 12/31, THIS BOX MAY BE COLLECTED AS EARLY AS 12 NOON.", "nsi_id": "unitedstatespostalservice-a77078", "operator": "United States Postal Service", "operator:short": "USPS", "operator:type": "public", "operator:wikidata": "Q668687", "ref": "2407300034"}, "type": "Feature"}
{"geometry": {"coordinates": [-80.417813372, 37.168147423], "type": "Point"}, "id": "Ubl4joHr3OGsLsmnns9TgTZWZCY=", "properties": {"@source_uri": "https://tools.usps.com/UspsToolsRestServices/rest/POLocator/findLocations", "@spider": "usps_collection_boxes", "addr:city": "CHRISTIANSBURG", "addr:country": "US", "addr:full": "350 ARBOR DR", "addr:postcode": "24073", "addr:state": "VA", "amenity": "post_box", "brand": "United States Postal Service", "brand:wikidata": "Q668687", "collection_times": "Mo-Fr 17:00; Sa 12:00", "indoor": "yes", "note": "ON 12/24 AND 12/31, THIS BOX MAY BE COLLECTED AS EARLY AS 12 NOON.", "nsi_id": "unitedstatespostalservice-a77078", "operator": "United States Postal Service", "operator:short": "USPS", "operator:type": "public", "operator:wikidata": "Q668687", "ref": "2407300035"}, "type": "Feature"}
{"geometry": {"coordinates": [-80.5061903, 37.089107], "type": "Point"}, "id": "qO5dTZDjLJW9JAssSOuLZrVur-o=", "properties": {"@source_uri": "https://tools.usps.com/UspsToolsRestServices/rest/POLocator/findLocations", "@spider": "usps_collection_boxes", "addr:city": "CHRISTIANSBURG", "addr:country": "US", "addr:full": "2900 TYLER RD", "addr:postcode": "24073", "addr:state": "VA", "amenity": "post_box", "brand": "United States Postal Service", "brand:wikidata": "Q668687", "collection_times": "Mo-Sa 10:00", "nsi_id": "unitedstatespostalservice-a77078", "operator": "United States Postal Service", "operator:short": "USPS", "operator:type": "public", "operator:wikidata": "Q668687", "ref": "2407300036"}, "type": "Feature"}
{"geometry": {"coordinates": [-80.417813372, 37.168147423], "type": "Point"}, "id": "-fiaLa8dGdppYSKR9ksL8qQvhn8=", "properties": {"@source_uri": "https://tools.usps.com/UspsToolsRestServices/rest/POLocator/findLocations", "@spider": "usps_collection_boxes", "addr:city": "CHRISTIANSBURG", "addr:country": "US", "addr:full": "350 ARBOR DR", "addr:postcode": "24073", "addr:state": "VA", "amenity": "post_box", "brand": "United States Postal Service", "brand:wikidata": "Q668687", "collection_times": "Mo-Fr 17:00; Sa 12:00", "name": "USPS COLLECTION BOX - APC", "note": "ON 12/24 AND 12/31, THIS BOX MAY BE COLLECTED AS EARLY AS 12 NOON.", "nsi_id": "unitedstatespostalservice-a77078", "operator": "United States Postal Service", "operator:short": "USPS", "operator:type": "public", "operator:wikidata": "Q668687", "ref": "2407300040"}, "type": "Feature"}
{"geometry": {"coordinates": [-80.417813372, 37.168147423], "type": "Point"}, "id": "Ih090GGPzFCvKvYFcWWhwjEaUz4=", "properties": {"@source_uri": "https://tools.usps.com/UspsToolsRestServices/rest/POLocator/findLocations", "@spider": "usps_collection_boxes", "addr:city": "CHRISTIANSBURG", "addr:country": "US", "addr:full": "350 ARBOR DR", "addr:postcode": "24073", "addr:state": "VA", "amenity": "post_box", "brand": "United States Postal Service", "brand:wikidata": "Q668687", "collection_times": "Mo-Fr 17:00; Sa 12:00", "indoor": "yes", "note": "ON 12/24 AND 12/31, THIS BOX MAY BE COLLECTED AS EARLY AS 12 NOON.", "nsi_id": "unitedstatespostalservice-a77078", "operator": "United States Postal Service", "operator:short": "USPS", "operator:type": "public", "operator:wikidata": "Q668687", "ref": "2407300047"}, "type": "Feature"}
{"geometry": {"coordinates": [-80.419747, 36.588191], "type": "Point"}, "id": "Sz0iiKURx3HzUT1XgSg18qK03ds=", "properties": {"@source_uri": "https://tools.usps.com/UspsToolsRestServices/rest/POLocator/findLocations", "@spider": "usps_collection_boxes", "addr:city": "CLAUDVILLE", "addr:country": "US", "addr:full": "4551 CLAUDVILLE HWY", "addr:postcode": "24076", "addr:state": "VA", "amenity": "post_box", "brand": "United States Postal Service", "brand:wikidata": "Q668687", "collection_times": "Mo-Fr 15:00; Sa 11:00", "note": "ON 12/24 AND 12/31, THIS BOX MAY BE COLLECTED AS EARLY AS 12 NOON.", "nsi_id": "unitedstatespostalservice-a77078", "operator": "United States Postal Service", "operator:short": "USPS", "operator:type": "public", "operator:wikidata": "Q668687", "ref": "2407600000"}, "type": "Feature"}
{"geometry": {"coordinates": [-80.419681, 36.588216], "type": "Point"}, "id": "3oud_Pp3jIbO4Was91ecko6BxHQ=", "properties": {"@source_uri": "https://tools.usps.com/UspsToolsRestServices/rest/POLocator/findLocations", "@spider": "usps_collection_boxes", "addr:city": "CLAUDVILLE", "addr:country": "US", "addr:full": "4551 CLAUDVILLE HWY", "addr:postcode": "24076", "addr:state": "VA", "amenity": "post_box", "brand": "United States Postal Service", "brand:wikidata": "Q668687", "collection_times": "Mo-Fr 15:00; Sa 11:00", "indoor": "yes", "note": "ON 12/24 AND 12/31, THIS BOX MAY BE COLLECTED AS EARLY AS 12 NOON.", "nsi_id": "unitedstatespostalservice-a77078", "operator": "United States Postal Service", "operator:short": "USPS", "operator:type": "public", "operator:wikidata": "Q668687", "ref": "2407600001"}, "type": "Feature"}
{"geometry": {"coordinates": [-80.419754612, 36.588224688], "type": "Point"}, "id": "ECJ-he-sH4ddmpO56D-pCegt-fg=", "properties": {"@source_uri": "https://tools.usps.com/UspsToolsRestServices/rest/POLocator/findLocations", "@spider": "usps_collection_boxes", "addr:city": "CLAUDVILLE", "addr:country": "US", "addr:full": "4551 CLAUDVILLE HWY", "addr:postcode": "24076", "addr:state": "VA", "amenity": "post_box", "brand": "United States Postal Service", "brand:wikidata": "Q668687", "collection_times": "Mo-Fr 15:30; Sa 11:30", "indoor": "yes", "note": "ON 12/24 AND 12/31, THIS BOX MAY BE COLLECTED AS EARLY AS 12 NOON.", "nsi_id": "unitedstatespostalservice-a77078", "operator": "United States Postal Service", "operator:short": "USPS", "operator:type": "public", "operator:wikidata": "Q668687", "ref": "2407600003"}, "type": "Feature"}
{"geometry": {"coordinates": [-79.905592396, 37.364625177], "type": "Point"}, "id": "Ow0sruzhXqIFjXQyRh3tH1tVQA8=", "properties": {"@source_uri": "https://tools.usps.com/UspsToolsRestServices/rest/POLocator/findLocations", "@spider": "usps_collection_boxes", "addr:city": "CLOVERDALE", "addr:country": "US", "addr:full": "4518 READ MOUNTAIN RD", "addr:postcode": "24077", "addr:state": "VA", "amenity": "post_box", "brand": "United States Postal Service", "brand:wikidata": "Q668687", "collection_times": "Mo-Fr 16:00; Sa 12:00", "note": "ON 12/24 AND 12/31, THIS BOX MAY BE COLLECTED AS EARLY AS 12 NOON.", "nsi_id": "unitedstatespostalservice-a77078", "operator": "United States Postal Service", "operator:short": "USPS", "operator:type": "public", "operator:wikidata": "Q668687", "ref": "2407700000"}, "type": "Feature"}
{"geometry": {"coordinates": [-79.905592396, 37.364625177], "type": "Point"}, "id": "Fg9rR2-ZTGZfcKtbtcgB2HRCq14=", "properties": {"@source_uri": "https://tools.usps.com/UspsToolsRestServices/rest/POLocator/findLocations", "@spider": "usps_collection_boxes", "addr:city": "CLOVERDALE", "addr:country": "US", "addr:full": "4518 READ MOUNTAIN RD", "addr:postcode": "24077", "addr:state": "VA", "amenity": "post_box", "brand": "United States Postal Service", "brand:wikidata": "Q668687", "collection_times": "Mo-Fr 16:00; Sa 12:00", "indoor": "yes", "note": "ON 12/24 AND 12/31, THIS BOX MAY BE COLLECTED AS EARLY AS 12 NOON.", "nsi_id": "unitedstatespostalservice-a77078", "operator": "United States Postal Service", "operator:short": "USPS", "operator:type": "public", "operator:wikidata": "Q668687", "ref": "2407700001"}, "type": "Feature"}
{"geometry": {"coordinates": [-79.905592396, 37.364625177], "type": "Point"}, "id": "0xwbqKuwh9JN7GyFViAChpZe5Gc=", "properties": {"@source_uri": "https://tools.usps.com/UspsToolsRestServices/rest/POLocator/findLocations", "@spider": "usps_collection_boxes", "addr:city": "CLOVERDALE", "addr:country": "US", "addr:full": "4518 READ MOUNTAIN RD", "addr:postcode": "24077", "addr:state": "VA", "amenity": "post_box", "brand": "United States Postal Service", "brand:wikidata": "Q668687", "collection_times": "Mo-Fr 16:00; Sa 12:00", "indoor": "yes", "note": "ON 12/24 AND 12/31, THIS BOX MAY BE COLLECTED AS EARLY AS 12 NOON.", "nsi_id": "unitedstatespostalservice-a77078", "operator": "United States Postal Service", "operator:short": "USPS", "operator:type": "public", "operator:wikidata": "Q668687", "ref": "2407700003"}, "type": "Feature"}
{"geometry": {"coordinates": [-79.916616831, 36.725557401], "type": "Point"}, "id": "9rlIV5lG93Z4gFnCpMwMQQUAwGw=", "properties": {"@source_uri": "https://tools.usps.com/UspsToolsRestServices/rest/POLocator/findLocations", "@spider": "usps_collection_boxes", "addr:city": "COLLINSVILLE", "addr:country": "US", "addr:full": "3365 VIRGINIA AVE", "addr:postcode": "24078", "addr:state": "VA", "amenity": "post_box", "brand": "United States Postal Service", "brand:wikidata": "Q668687", "collection_times": "Mo-Fr 17:00; Sa 14:30", "note": "ON 12/24 AND 12/31, THIS BOX MAY BE COLLECTED AS EARLY AS 12 NOON.", "nsi_id": "unitedstatespostalservice-a77078", "operator": "United States Postal Service", "operator:short": "USPS", "operator:type": "public", "operator:wikidata": "Q668687", "ref": "2407800000"}, "type": "Feature"}
{"geometry": {"coordinates": [-79.916616831, 36.725557401], "type": "Point"}, "id": "jC-LwzbhLd755C9Xw9pD6XuQ9Ss=", "properties": {"@source_uri": "https://tools.usps.com/UspsToolsRestServices/rest/POLocator/findLocations", "@spider": "usps_collection_boxes", "addr:city": "COLLINSVILLE", "addr:country": "US", "addr:full": "3365 VIRGINIA AVE", "addr:postcode": "24078", "addr:state": "VA", "amenity": "post_box", "brand": "United States Postal Service", "brand:wikidata": "Q668687", "collection_times": "Mo-Fr 17:00; Sa 14:30", "indoor": "yes", "note": "ON 12/24 AND 12/31, THIS BOX MAY BE COLLECTED AS EARLY AS 12 NOON.", "nsi_id": "unitedstatespostalservice-a77078", "operator": "United States Postal Service", "operator:short": "USPS", "operator:type": "public", "operator:wikidata": "Q668687", "ref": "2407800009"}, "type": "Feature"}
{"geometry": {"coordinates": [-79.916616831, 36.725557401], "type": "Point"}, "id": "Q6_EfLrWGQXiUiZ5K8iTDILhEFo=", "properties": {"@source_uri": "https://tools.usps.com/UspsToolsRestServices/rest/POLocator/findLocations", "@spider": "usps_collection_boxes", "addr:city": "COLLINSVILLE", "addr:country": "US", "addr:full": "3365 VIRGINIA AVE", "addr:postcode": "24078", "addr:state": "VA", "amenity": "post_box", "brand": "United States Postal Service", "brand:wikidata": "Q668687", "collection_times": "Mo-Fr 17:00; Sa 12:00", "indoor": "yes", "note": "ON 12/24 AND 12/31, THIS BOX MAY BE COLLECTED AS EARLY AS 12 NOON.", "nsi_id": "unitedstatespostalservice-a77078", "operator": "United States Postal Service", "operator:short": "USPS", "operator:type": "public", "operator:wikidata": "Q668687", "ref": "2407800012"}, "type": "Feature"}
{"geometry": {"coordinates": [-80.13798, 37.076396], "type": "Point"}, "id": "Xi6wZZaXFsS1Vz9NfgWiNUQed5M=", "properties": {"@source_uri": "https://tools.usps.com/UspsToolsRestServices/rest/POLocator/findLocations", "@spider": "usps_collection_boxes", "addr:city": "COPPER HILL", "addr:country": "US", "addr:full": "8480 FLOYD HWY N", "addr:postcode": "24079", "addr:state": "VA", "amenity": "post_box", "brand": "United States Postal Service", "brand:wikidata": "Q668687", "collection_times": "Mo-Fr 14:15; Sa 11:00", "note": "ON 12/24 AND 12/31, THIS BOX MAY BE COLLECTED AS EARLY AS 12 NOON.", "nsi_id": "unitedstatespostalservice-a77078", "operator": "United States Postal Service", "operator:short": "USPS", "operator:type": "public", "operator:wikidata": "Q668687", "ref": "2407900000"}, "type": "Feature"}
{"geometry": {"coordinates": [-80.137941, 37.076445], "type": "Point"}, "id": "UwAtQqOE1JTk4gf-ku3GLc1S48w=", "properties": {"@source_uri": "https://tools.usps.com/UspsToolsRestServices/rest/POLocator/findLocations", "@spider": "usps_collection_boxes", "addr:city": "COPPER HILL", "addr:country": "US", "addr:full": "8480 FLOYD HWY N", "addr:postcode": "24079", "addr:state": "VA", "amenity": "post_box", "brand": "United States Postal Service", "brand:wikidata": "Q668687", "collection_times": "Mo-Fr 14:15; Sa 11:00", "indoor": "yes", "note": "ON 12/24 AND 12/31, THIS BOX MAY BE COLLECTED AS EARLY AS 12 NOON.", "nsi_id": "unitedstatespostalservice-a77078", "operator": "United States Postal Service", "operator:short": "USPS", "operator:type": "public", "operator:wikidata": "Q668687", "ref": "2407900001"}, "type": "Feature"}
{"geometry": {"coordinates": [-80.138008222, 37.0763723], "type": "Point"}, "id": "3TjqT3ezMt69l2dTJmyenmldUUA=", "properties": {"@source_uri": "https://tools.usps.com/UspsToolsRestServices/rest/POLocator/findLocations", "@spider": "usps_collection_boxes", "addr:city": "COPPER HILL", "addr:country": "US", "addr:full": "8480 FLOYD HWY N", "addr:postcode": "24079", "addr:state": "VA", "amenity": "post_box", "brand": "United States Postal Service", "brand:wikidata": "Q668687", "collection_times": "Mo-Fr 14:15; Sa 11:00", "indoor": "yes", "note": "ON 12/24 AND 12/31, THIS BOX MAY BE COLLECTED AS EARLY AS 12 NOON.", "nsi_id": "unitedstatespostalservice-a77078", "operator": "United States Postal Service", "operator:short": "USPS", "operator:type": "public", "operator:wikidata": "Q668687", "ref": "2407900004"}, "type": "Feature"}
{"geometry": {"coordinates": [-80.145266, 36.629423], "type": "Point"}, "id": "dSR0EG8ERLO8q1O_9cmFOnjf2wo=", "properties": {"@source_uri": "https://tools.usps.com/UspsToolsRestServices/rest/POLocator/findLocations", "@spider": "usps_collection_boxes", "addr:city": "CRITZ", "addr:country": "US", "addr:full": "2658 ABRAM PENN HWY", "addr:postcode": "24082", "addr:state": "VA", "amenity": "post_box", "brand": "United States Postal Service", "brand:wikidata": "Q668687", "collection_times": "Mo-Fr 15:15; Sa 13:45", "note": "ON 12/24 AND 12/31, THIS BOX MAY BE COLLECTED AS EARLY AS 12 NOON.", "nsi_id": "unitedstatespostalservice-a77078", "operator": "United States Postal Service", "operator:short": "USPS", "operator:type": "public", "operator:wikidata": "Q668687", "ref": "2408200000"}, "type": "Feature"}
{"geometry": {"coordinates": [-80.145336, 36.629372], "type": "Point"}, "id": "XYG8L7nb93QcJDxwtbMutLog24Y=", "properties": {"@source_uri": "https://tools.usps.com/UspsToolsRestServices/rest/POLocator/findLocations", "@spider": "usps_collection_boxes", "addr:city": "CRITZ", "addr:country": "US", "addr:full": "2658 ABRAM PENN HWY", "addr:postcode": "24082", "addr:state": "VA", "amenity": "post_box", "brand": "United States Postal Service", "brand:wikidata": "Q668687", "collection_times": "Mo-Fr 15:15; Sa 13:45", "indoor": "yes", "note": "ON 12/24 AND 12/31, THIS BOX MAY BE COLLECTED AS EARLY AS 12 NOON.", "nsi_id": "unitedstatespostalservice-a77078", "operator": "United States Postal Service", "operator:short": "USPS", "operator:type": "public", "operator:wikidata": "Q668687", "ref": "2408200001"}, "type": "Feature"}
{"geometry": {"coordinates": [-80.145265639, 36.629371684], "type": "Point"}, "id": "kYxZ8ZIOvyjWT2x03H5cmKyQHr4=", "properties": {"@source_uri": "https://tools.usps.com/UspsToolsRestServices/rest/POLocator/findLocations", "@spider": "usps_collection_boxes", "addr:city": "CRITZ", "addr:country": "US", "addr:full": "2658 ABRAM PENN HWY", "addr:postcode": "24082", "addr:state": "VA", "amenity": "post_box", "brand": "United States Postal Service", "brand:wikidata": "Q668687", "collection_times": "Mo-Fr 15:30; Sa 14:45", "indoor": "yes", "note": "ON 12/24 AND 12/31, THIS BOX MAY BE COLLECTED AS EARLY AS 12 NOON.", "nsi_id": "unitedstatespostalservice-a77078", "operator": "United States Postal Service", "operator:short": "USPS", "operator:type": "public", "operator:wikidata": "Q668687", "ref": "2408200003"}, "type": "Feature"}
{"geometry": {"coordinates": [-79.91358752, 37.406182526], "type": "Point"}, "id": "mo-fiYDrgJccXD49ThDhGG6Afc8=", "properties": {"@source_uri": "https://tools.usps.com/UspsToolsRestServices/rest/POLocator/findLocations", "@spider": "usps_collection_boxes", "addr:city": "DALEVILLE", "addr:country": "US", "addr:full": "1492 ROANOKE RD", "addr:postcode": "24083", "addr:state": "VA", "amenity": "post_box", "brand": "United States Postal Service", "brand:wikidata": "Q668687", "collection_times": "Mo-Fr 17:00; Sa 12:00", "note": "ON 12/24 AND 12/31, THIS BOX MAY BE COLLECTED AS EARLY AS 12 NOON.", "nsi_id": "unitedstatespostalservice-a77078", "operator": "United States Postal Service", "operator:short": "USPS", "operator:type": "public", "operator:wikidata": "Q668687", "ref": "2408300000"}, "type": "Feature"}
{"geometry": {"coordinates": [-79.9129395, 37.406232], "type": "Point"}, "id": "PD0fl9asyjJW4VzirPLw7fFazT0=", "properties": {"@source_uri": "https://tools.usps.com/UspsToolsRestServices/rest/POLocator/findLocations", "@spider": "usps_collection_boxes", "addr:city": "DALEVILLE", "addr:country": "US", "addr:full": "1492 ROANOKE RD", "addr:postcode": "24083", "addr:state": "VA", "amenity": "post_box", "brand": "United States Postal Service", "brand:wikidata": "Q668687", "collection_times": "Mo-Fr 17:00; Sa 12:00", "indoor": "yes", "note": "ON 12/24 AND 12/31, THIS BOX MAY BE COLLECTED AS EARLY AS 12 NOON.", "nsi_id": "unitedstatespostalservice-a77078", "operator": "United States Postal Service", "operator:short": "USPS", "operator:type": "public", "operator:wikidata": "Q668687", "ref": "2408300001"}, "type": "Feature"}
{"geometry": {"coordinates": [-79.9129395, 37.406232], "type": "Point"}, "id": "YRDmgJDtDpRVcH4psIyJkVJuygg=", "properties": {"@source_uri": "https://tools.usps.com/UspsToolsRestServices/rest/POLocator/findLocations", "@spider": "usps_collection_boxes", "addr:city": "DALEVILLE", "addr:country": "US", "addr:full": "1492 ROANOKE RD", "addr:postcode": "24083", "addr:state": "VA", "amenity": "post_box", "brand": "United States Postal Service", "brand:wikidata": "Q668687", "collection_times": "Mo-Fr 17:00; Sa 12:00", "indoor": "yes", "note": "ON 12/24 AND 12/31, THIS BOX MAY BE COLLECTED AS EARLY AS 12 NOON.", "nsi_id": "unitedstatespostalservice-a77078", "operator": "United States Postal Service", "operator:short": "USPS", "operator:type": "public", "operator:wikidata": "Q668687", "ref": "2408300002"}, "type": "Feature"}
{"geometry": {"coordinates": [-79.9106592, 37.39679], "type": "Point"}, "id": "sNXDM4tMDDYBa0BzgMb69QF_ZxM=", "properties": {"@source_uri": "https://tools.usps.com/UspsToolsRestServices/rest/POLocator/findLocations", "@spider": "usps_collection_boxes", "addr:city": "DALEVILLE", "addr:country": "US", "addr:full": "72 KINGSTON DR", "addr:postcode": "24083", "addr:state": "VA", "amenity": "post_box", "brand": "United States Postal Service", "brand:wikidata": "Q668687", "collection_times": "Mo-Sa 10:00", "nsi_id": "unitedstatespostalservice-a77078", "operator": "United States Postal Service", "operator:short": "USPS", "operator:type": "public", "operator:wikidata": "Q668687", "ref": "2408300004"}, "type": "Feature"}
{"geometry": {"coordinates": [-79.91358752, 37.406182526], "type": "Point"}, "id": "Rh9CNI4j8dkPTZvKXMwdZdcTa4U=", "properties": {"@source_uri": "https://tools.usps.com/UspsToolsRestServices/rest/POLocator/findLocations", "@spider": "usps_collection_boxes", "addr:city": "DALEVILLE", "addr:country": "US", "addr:full": "1492 ROANOKE RD", "addr:postcode": "24083", "addr:state": "VA", "amenity": "post_box", "brand": "United States Postal Service", "brand:wikidata": "Q668687", "collection_times": "Mo-Fr 17:00; Sa 12:00", "indoor": "yes", "note": "ON 12/24 AND 12/31, THIS BOX MAY BE COLLECTED AS EARLY AS 12 NOON.", "nsi_id": "unitedstatespostalservice-a77078", "operator": "United States Postal Service", "operator:short": "USPS", "operator:type": "public", "operator:wikidata": "Q668687", "ref": "2408300008"}, "type": "Feature"}
{"geometry": {"coordinates": [-80.686866545, 37.093565011], "type": "Point"}, "id": "EJGR_6ACYmk4HXKhNC7XN43jkYg=", "properties": {"@source_uri": "https://tools.usps.com/UspsToolsRestServices/rest/POLocator/findLocations", "@spider": "usps_collection_boxes", "addr:city": "DUBLIN", "addr:country": "US", "addr:full": "1 TOWN CENTER DR", "addr:postcode": "24084", "addr:state": "VA", "amenity": "post_box", "brand": "United States Postal Service", "brand:wikidata": "Q668687", "collection_times": "Mo-Fr 16:45; Sa 11:00", "note": "ON 12/24 AND 12/31, THIS BOX MAY BE COLLECTED AS EARLY AS 12 NOON.", "nsi_id": "unitedstatespostalservice-a77078", "operator": "United States Postal Service", "operator:short": "USPS", "operator:type": "public", "operator:wikidata": "Q668687", "ref": "2408400000"}, "type": "Feature"}
{"geometry": {"coordinates": [-80.686866545, 37.093565011], "type": "Point"}, "id": "To0vwyYlgQJ7Fz041bkrnV12ZdQ=", "properties": {"@source_uri": "https://tools.usps.com/UspsToolsRestServices/rest/POLocator/findLocations", "@spider": "usps_collection_boxes", "addr:city": "DUBLIN", "addr:country": "US", "addr:full": "1 TOWN CENTER DR", "addr:postcode": "24084", "addr:state": "VA", "amenity": "post_box", "brand": "United States Postal Service", "brand:wikidata": "Q668687", "collection_times": "Mo-Fr 16:00; Sa 11:00", "indoor": "yes", "note": "ON 12/24 AND 12/31, THIS BOX MAY BE COLLECTED AS EARLY AS 12 NOON.", "nsi_id": "unitedstatespostalservice-a77078", "operator": "United States Postal Service", "operator:short": "USPS", "operator:type": "public", "operator:wikidata": "Q668687", "ref": "2408400003"}, "type": "Feature"}
{"geometry": {"coordinates": [-80.686866545, 37.093565011], "type": "Point"}, "id": "7tCIVlWBfre5odEIyI10yRQUlwI=", "properties": {"@source_uri": "https://tools.usps.com/UspsToolsRestServices/rest/POLocator/findLocations", "@spider": "usps_collection_boxes", "addr:city": "DUBLIN", "addr:country": "US", "addr:full": "1 TOWN CENTER DR", "addr:postcode": "24084", "addr:state": "VA", "amenity": "post_box", "brand": "United States Postal Service", "brand:wikidata": "Q668687", "collection_times": "Mo-Fr 17:00; Sa 11:00", "indoor": "yes", "note": "ON 12/24 AND 12/31, THIS BOX MAY BE COLLECTED AS EARLY AS 12 NOON.", "nsi_id": "unitedstatespostalservice-a77078", "operator": "United States Postal Service", "operator:short": "USPS", "operator:type": "public", "operator:wikidata": "Q668687", "ref": "2408400006"}, "type": "Feature"}
{"geometry": {"coordinates": [-79.799184, 37.639375], "type": "Point"}, "id": "nn9zmQXlizywdt3l6ft1wKuJ8lU=", "properties": {"@source_uri": "https://tools.usps.com/UspsToolsRestServices/rest/POLocator/findLocations", "@spider": "usps_collection_boxes", "addr:city": "EAGLE ROCK", "addr:country": "US", "addr:full": "14630 CHURCH ST", "addr:postcode": "24085", "addr:state": "VA", "amenity": "post_box", "brand": "United States Postal Service", "brand:wikidata": "Q668687", "collection_times": "Mo-Fr 11:15; Sa 10:30", "nsi_id": "unitedstatespostalservice-a77078", "operator": "United States Postal Service", "operator:short": "USPS", "operator:type": "public", "operator:wikidata": "Q668687", "ref": "2408500000"}, "type": "Feature"}
{"geometry": {"coordinates": [-79.8210894, 37.621583], "type": "Point"}, "id": "WGmw_JcrTEh5h2t2y2wSkzVzUL8=", "properties": {"@source_uri": "https://tools.usps.com/UspsToolsRestServices/rest/POLocator/findLocations", "@spider": "usps_collection_boxes", "addr:city": "EAGLE ROCK", "addr:country": "US", "addr:full": "9904 BOTETOURT RD", "addr:postcode": "24085", "addr:state": "VA", "amenity": "post_box", "brand": "United States Postal Service", "brand:wikidata": "Q668687", "collection_times": "Mo-Sa 11:00", "nsi_id": "unitedstatespostalservice-a77078", "operator": "United States Postal Service", "operator:short": "USPS", "operator:type": "public", "operator:wikidata": "Q668687", "ref": "2408500001"}, "type": "Feature"}
{"geometry": {"coordinates": [-79.799107, 37.639304], "type": "Point"}, "id": "-KCS1ZYdKfwkCW4W8TBLnlWMjd4=", "properties": {"@source_uri": "https://tools.usps.com/UspsToolsRestServices/rest/POLocator/findLocations", "@spider": "usps_collection_boxes", "addr:city": "EAGLE ROCK", "addr:country": "US", "addr:full": "14630 CHURCH ST", "addr:postcode": "24085", "addr:state": "VA", "amenity": "post_box", "brand": "United States Postal Service", "brand:wikidata": "Q668687", "collection_times": "Mo-Fr 11:15; Sa 10:30", "indoor": "yes", "nsi_id": "unitedstatespostalservice-a77078", "operator": "United States Postal Service", "operator:short": "USPS", "operator:type": "public", "operator:wikidata": "Q668687", "ref": "2408500002"}, "type": "Feature"}
{"geometry": {"coordinates": [-79.799329876, 37.639440449], "type": "Point"}, "id": "XQk-d00E_z6rHnpSCz2F6hlaEjQ=", "properties": {"@source_uri": "https://tools.usps.com/UspsToolsRestServices/rest/POLocator/findLocations", "@spider": "usps_collection_boxes", "addr:city": "EAGLE ROCK", "addr:country": "US", "addr:full": "14630 CHURCH ST", "addr:postcode": "24085", "addr:state": "VA", "amenity": "post_box", "brand": "United States Postal Service", "brand:wikidata": "Q668687", "collection_times": "Mo-Fr 11:30; Sa 11:00", "indoor": "yes", "nsi_id": "unitedstatespostalservice-a77078", "operator": "United States Postal Service", "operator:short": "USPS", "operator:type": "public", "operator:wikidata": "Q668687", "ref": "2408500004"}, "type": "Feature"}
{"geometry": {"coordinates": [-80.619705, 37.287901], "type": "Point"}, "id": "95yFWyLpp3WSqDv_ZGpXtOaDgvw=", "properties": {"@source_uri": "https://tools.usps.com/UspsToolsRestServices/rest/POLocator/findLocations", "@spider": "usps_collection_boxes", "addr:city": "EGGLESTON", "addr:country": "US", "addr:full": "3618 CHURCH HILL RD", "addr:postcode": "24086", "addr:state": "VA", "amenity": "post_box", "brand": "United States Postal Service", "brand:wikidata": "Q668687", "collection_times": "Mo-Fr 14:15; Sa 12:00", "note": "ON 12/24 AND 12/31, THIS BOX MAY BE COLLECTED AS EARLY AS 12 NOON.", "nsi_id": "unitedstatespostalservice-a77078", "operator": "United States Postal Service", "operator:short": "USPS", "operator:type": "public", "operator:wikidata": "Q668687", "ref": "2408600000"}, "type": "Feature"}
{"geometry": {"coordinates": [-80.619759, 37.287984], "type": "Point"}, "id": "-HZrPqocVj9vI0SLdF1ea0AOx6Q=", "properties": {"@source_uri": "https://tools.usps.com/UspsToolsRestServices/rest/POLocator/findLocations", "@spider": "usps_collection_boxes", "addr:city": "EGGLESTON", "addr:country": "US", "addr:full": "3618 CHURCH HILL RD", "addr:postcode": "24086", "addr:state": "VA", "amenity": "post_box", "brand": "United States Postal Service", "brand:wikidata": "Q668687", "collection_times": "Mo-Fr 14:15; Sa 12:00", "indoor": "yes", "note": "ON 12/24 AND 12/31, THIS BOX MAY BE COLLECTED AS EARLY AS 12 NOON.", "nsi_id": "unitedstatespostalservice-a77078", "operator": "United States Postal Service", "operator:short": "USPS", "operator:type": "public", "operator:wikidata": "Q668687", "ref": "2408600001"}, "type": "Feature"}
{"geometry": {"coordinates": [-80.619689079, 37.28788176], "type": "Point"}, "id": "2VQyo-O-T6U3AEYjKgstZqNn7cw=", "properties": {"@source_uri": "https://tools.usps.com/UspsToolsRestServices/rest/POLocator/findLocations", "@spider": "usps_collection_boxes", "addr:city": "EGGLESTON", "addr:country": "US", "addr:full": "3618 CHURCH HILL RD", "addr:postcode": "24086", "addr:state": "VA", "amenity": "post_box", "brand": "United States Postal Service", "brand:wikidata": "Q668687", "collection_times": "Mo-Fr 14:15; Sa 12:00", "indoor": "yes", "note": "ON 12/24 AND 12/31, THIS BOX MAY BE COLLECTED AS EARLY AS 12 NOON.", "nsi_id": "unitedstatespostalservice-a77078", "operator": "United States Postal Service", "operator:short": "USPS", "operator:type": "public", "operator:wikidata": "Q668687", "ref": "2408600004"}, "type": "Feature"}
{"geometry": {"coordinates": [-80.2405849752, 37.2330399916], "type": "Point"}, "id": "ByvZYdfiK3NqgKNkGUFaF4xOEgg=", "properties": {"@source_uri": "https://tools.usps.com/UspsToolsRestServices/rest/POLocator/findLocations", "@spider": "usps_collection_boxes", "addr:city": "ELLISTON", "addr:country": "US", "addr:full": "5151 NORTHFORK RD", "addr:postcode": "24087", "addr:state": "VA", "amenity": "post_box", "brand": "United States Postal Service", "brand:wikidata": "Q668687", "collection_times": "Mo-Fr 11:30; Sa 11:00", "nsi_id": "unitedstatespostalservice-a77078", "operator": "United States Postal Service", "operator:short": "USPS", "operator:type": "public", "operator:wikidata": "Q668687", "ref": "2408700003"}, "type": "Feature"}
{"geometry": {"coordinates": [-80.235123, 37.177245], "type": "Point"}, "id": "WVoeP5IHhCDhJZllW7wDuIYNyZs=", "properties": {"@source_uri": "https://tools.usps.com/UspsToolsRestServices/rest/POLocator/findLocations", "@spider": "usps_collection_boxes", "addr:city": "ELLISTON", "addr:country": "US", "addr:full": "131 DARK RUN RD", "addr:postcode": "24087", "addr:state": "VA", "amenity": "post_box", "brand": "United States Postal Service", "brand:wikidata": "Q668687", "collection_times": "Mo-Sa 09:00", "nsi_id": "unitedstatespostalservice-a77078", "operator": "United States Postal Service", "operator:short": "USPS", "operator:type": "public", "operator:wikidata": "Q668687", "ref": "2408700004"}, "type": "Feature"}
{"geometry": {"coordinates": [-80.2282815, 37.220805], "type": "Point"}, "id": "m5rFzdRvndLitnX_-SX7esg1aFM=", "properties": {"@source_uri": "https://tools.usps.com/UspsToolsRestServices/rest/POLocator/findLocations", "@spider": "usps_collection_boxes", "addr:city": "ELLISTON", "addr:country": "US", "addr:full": "9420 ROANOKE RD", "addr:postcode": "24087", "addr:state": "VA", "amenity": "post_box", "brand": "United States Postal Service", "brand:wikidata": "Q668687", "collection_times": "Mo-Fr 16:30; Sa 11:00", "indoor": "yes", "note": "ON 12/24 AND 12/31, THIS BOX MAY BE COLLECTED AS EARLY AS 12 NOON.", "nsi_id": "unitedstatespostalservice-a77078", "operator": "United States Postal Service", "operator:short": "USPS", "operator:type": "public", "operator:wikidata": "Q668687", "ref": "2408700005"}, "type": "Feature"}
{"geometry": {"coordinates": [-80.2282815, 37.220805], "type": "Point"}, "id": "PWnKc361iaU_kNejuVA2-OBd7Ts=", "properties": {"@source_uri": "https://tools.usps.com/UspsToolsRestServices/rest/POLocator/findLocations", "@spider": "usps_collection_boxes", "addr:city": "ELLISTON", "addr:country": "US", "addr:full": "9420 ROANOKE RD", "addr:postcode": "24087", "addr:state": "VA", "amenity": "post_box", "brand": "United States Postal Service", "brand:wikidata": "Q668687", "collection_times": "Mo-Fr 16:30; Sa 11:00", "indoor": "yes", "note": "ON 12/24 AND 12/31, THIS BOX MAY BE COLLECTED AS EARLY AS 12 NOON.", "nsi_id": "unitedstatespostalservice-a77078", "operator": "United States Postal Service", "operator:short": "USPS", "operator:type": "public", "operator:wikidata": "Q668687", "ref": "2408700007"}, "type": "Feature"}
{"geometry": {"coordinates": [-80.2282815, 37.220805], "type": "Point"}, "id": "iKQs2aL3RjoqbuM9RxHakGQlBZg=", "properties": {"@source_uri": "https://tools.usps.com/UspsToolsRestServices/rest/POLocator/findLocations", "@spider": "usps_collection_boxes", "addr:city": "ELLISTON", "addr:country": "US", "addr:full": "9420 ROANOKE RD", "addr:postcode": "24087", "addr:state": "VA", "amenity": "post_box", "brand": "United States Postal Service", "brand:wikidata": "Q668687", "collection_times": "Mo-Fr 16:15; Sa 11:00", "note": "ON 12/24 AND 12/31, THIS BOX MAY BE COLLECTED AS EARLY AS 12 NOON.", "nsi_id": "unitedstatespostalservice-a77078", "operator": "United States Postal Service", "operator:short": "USPS", "operator:type": "public", "operator:wikidata": "Q668687", "ref": "2408700009"}, "type": "Feature"}
{"geometry": {"coordinates": [-80.011857875, 36.920180125], "type": "Point"}, "id": "nkQSuPSuNCiB9ej7HEzzRQPgtGY=", "properties": {"@source_uri": "https://tools.usps.com/UspsToolsRestServices/rest/POLocator/findLocations", "@spider": "usps_collection_boxes", "addr:city": "FERRUM", "addr:country": "US", "addr:full": "57 FIELDCREST RD", "addr:postcode": "24088", "addr:state": "VA", "amenity": "post_box", "brand": "United States Postal Service", "brand:wikidata": "Q668687", "collection_times": "Mo-Fr 16:15; Sa 12:00", "note": "ON 12/24 AND 12/31, THIS BOX MAY BE COLLECTED AS EARLY AS 12 NOON.", "nsi_id": "unitedstatespostalservice-a77078", "operator": "United States Postal Service", "operator:short": "USPS", "operator:type": "public", "operator:wikidata": "Q668687", "ref": "2408800000"}, "type": "Feature"}
{"geometry": {"coordinates": [-80.011857875, 36.920180125], "type": "Point"}, "id": "ZYigCdoWH66Sd6LrDf3jzUccui0=", "properties": {"@source_uri": "https://tools.usps.com/UspsToolsRestServices/rest/POLocator/findLocations", "@spider": "usps_collection_boxes", "addr:city": "FERRUM", "addr:country": "US", "addr:full": "57 FIELDCREST RD", "addr:postcode": "24088", "addr:state": "VA", "amenity": "post_box", "brand": "United States Postal Service", "brand:wikidata": "Q668687", "collection_times": "Mo-Fr 16:30; Sa 12:00", "indoor": "yes", "note": "ON 12/24 AND 12/31, THIS BOX MAY BE COLLECTED AS EARLY AS 12 NOON.", "nsi_id": "unitedstatespostalservice-a77078", "operator": "United States Postal Service", "operator:short": "USPS", "operator:type": "public", "operator:wikidata": "Q668687", "ref": "2408800001"}, "type": "Feature"}
{"geometry": {"coordinates": [-80.011857875, 36.920180125], "type": "Point"}, "id": "2atSZMVgBu2XbqKeszbjGl16qg0=", "properties": {"@source_uri": "https://tools.usps.com/UspsToolsRestServices/rest/POLocator/findLocations", "@spider": "usps_collection_boxes", "addr:city": "FERRUM", "addr:country": "US", "addr:full": "57 FIELDCREST RD", "addr:postcode": "24088", "addr:state": "VA", "amenity": "post_box", "brand": "United States Postal Service", "brand:wikidata": "Q668687", "collection_times": "Mo-Fr 16:30; Sa 12:00", "indoor": "yes", "note": "ON 12/24 AND 12/31, THIS BOX MAY BE COLLECTED AS EARLY AS 12 NOON.", "nsi_id": "unitedstatespostalservice-a77078", "operator": "United States Postal Service", "operator:short": "USPS", "operator:type": "public", "operator:wikidata": "Q668687", "ref": "2408800003"}, "type": "Feature"}
{"geometry": {"coordinates": [-79.937843338, 36.700007468], "type": "Point"}, "id": "zeiz-5gx-koWQ1egVUA3rb0smRI=", "properties": {"@source_uri": "https://tools.usps.com/UspsToolsRestServices/rest/POLocator/findLocations", "@spider": "usps_collection_boxes", "addr:city": "FIELDALE", "addr:country": "US", "addr:full": "20 MARSHALL WAY", "addr:postcode": "24089", "addr:state": "VA", "amenity": "post_box", "brand": "United States Postal Service", "brand:wikidata": "Q668687", "collection_times": "Mo-Fr 16:30; Sa 12:00", "note": "ON 12/24 AND 12/31, THIS BOX MAY BE COLLECTED AS EARLY AS 12 NOON.", "nsi_id": "unitedstatespostalservice-a77078", "operator": "United States Postal Service", "operator:short": "USPS", "operator:type": "public", "operator:wikidata": "Q668687", "ref": "2408900000"}, "type": "Feature"}
{"geometry": {"coordinates": [-79.937843338, 36.700007468], "type": "Point"}, "id": "dPUnYrriJzm9tYk6Sgu4ZE_5jGU=", "properties": {"@source_uri": "https://tools.usps.com/UspsToolsRestServices/rest/POLocator/findLocations", "@spider": "usps_collection_boxes", "addr:city": "FIELDALE", "addr:country": "US", "addr:full": "20 MARSHALL WAY", "addr:postcode": "24089", "addr:state": "VA", "amenity": "post_box", "brand": "United States Postal Service", "brand:wikidata": "Q668687", "collection_times": "Mo-Fr 16:30; Sa 12:00", "indoor": "yes", "note": "ON 12/24 AND 12/31, THIS BOX MAY BE COLLECTED AS EARLY AS 12 NOON.", "nsi_id": "unitedstatespostalservice-a77078", "operator": "United States Postal Service", "operator:short": "USPS", "operator:type": "public", "operator:wikidata": "Q668687", "ref": "2408900001"}, "type": "Feature"}
{"geometry": {"coordinates": [-79.937843338, 36.700007468], "type": "Point"}, "id": "60_uiehZM8QB7FpYHFp9NsuAn7M=", "properties": {"@source_uri": "https://tools.usps.com/UspsToolsRestServices/rest/POLocator/findLocations", "@spider": "usps_collection_boxes", "addr:city": "FIELDALE", "addr:country": "US", "addr:full": "20 MARSHALL WAY", "addr:postcode": "24089", "addr:state": "VA", "amenity": "post_box", "brand": "United States Postal Service", "brand:wikidata": "Q668687", "collection_times": "Mo-Fr 16:30; Sa 12:00", "indoor": "yes", "note": "ON 12/24 AND 12/31, THIS BOX MAY BE COLLECTED AS EARLY AS 12 NOON.", "nsi_id": "unitedstatespostalservice-a77078", "operator": "United States Postal Service", "operator:short": "USPS", "operator:type": "public", "operator:wikidata": "Q668687", "ref": "2408900003"}, "type": "Feature"}
{"geometry": {"coordinates": [-79.877933809, 37.496222864], "type": "Point"}, "id": "97IIe6h6g4fOMcvbvUy2qbUqNwk=", "properties": {"@source_uri": "https://tools.usps.com/UspsToolsRestServices/rest/POLocator/findLocations", "@spider": "usps_collection_boxes", "addr:city": "FINCASTLE", "addr:country": "US", "addr:full": "223 S ROANOKE ST", "addr:postcode": "24090", "addr:state": "VA", "amenity": "post_box", "brand": "United States Postal Service", "brand:wikidata": "Q668687", "collection_times": "Mo-Fr 17:00; Sa 11:00", "indoor": "yes", "note": "ON 12/24 AND 12/31, THIS BOX MAY BE COLLECTED AS EARLY AS 12 NOON.", "nsi_id": "unitedstatespostalservice-a77078", "operator": "United States Postal Service", "operator:short": "USPS", "operator:type": "public", "operator:wikidata": "Q668687", "ref": "2409000001"}, "type": "Feature"}
{"geometry": {"coordinates": [-79.877933809, 37.496222864], "type": "Point"}, "id": "DSWw96NvbfGseCrRtGTTYROQLlI=", "properties": {"@source_uri": "https://tools.usps.com/UspsToolsRestServices/rest/POLocator/findLocations", "@spider": "usps_collection_boxes", "addr:city": "FINCASTLE", "addr:country": "US", "addr:full": "223 S ROANOKE ST", "addr:postcode": "24090", "addr:state": "VA", "amenity": "post_box", "brand": "United States Postal Service", "brand:wikidata": "Q668687", "collection_times": "Mo-Fr 17:00; Sa 11:00", "note": "ON 12/24 AND 12/31, THIS BOX MAY BE COLLECTED AS EARLY AS 12 NOON.", "nsi_id": "unitedstatespostalservice-a77078", "operator": "United States Postal Service", "operator:short": "USPS", "operator:type": "public", "operator:wikidata": "Q668687", "ref": "2409000002"}, "type": "Feature"}
{"geometry": {"coordinates": [-79.877933809, 37.496222864], "type": "Point"}, "id": "0k67qAQqqURlhseXJpTniGBwXMM=", "properties": {"@source_uri": "https://tools.usps.com/UspsToolsRestServices/rest/POLocator/findLocations", "@spider": "usps_collection_boxes", "addr:city": "FINCASTLE", "addr:country": "US", "addr:full": "223 S ROANOKE ST", "addr:postcode": "24090", "addr:state": "VA", "amenity": "post_box", "brand": "United States Postal Service", "brand:wikidata": "Q668687", "collection_times": "Mo-Fr 17:00; Sa 11:00", "indoor": "yes", "note": "ON 12/24 AND 12/31, THIS BOX MAY BE COLLECTED AS EARLY AS 12 NOON.", "nsi_id": "unitedstatespostalservice-a77078", "operator": "United States Postal Service", "operator:short": "USPS", "operator:type": "public", "operator:wikidata": "Q668687", "ref": "2409000004"}, "type": "Feature"}
{"geometry": {"coordinates": [-80.309817269, 36.916438989], "type": "Point"}, "id": "-pMh_AS8z0oh0XUWjGb6RCAcGOA=", "properties": {"@source_uri": "https://tools.usps.com/UspsToolsRestServices/rest/POLocator/findLocations", "@spider": "usps_collection_boxes", "addr:city": "FLOYD", "addr:country": "US", "addr:full": "819 E MAIN ST", "addr:postcode": "24091", "addr:state": "VA", "amenity": "post_box", "brand": "United States Postal Service", "brand:wikidata": "Q668687", "collection_times": "Mo-Fr 17:15; Sa 12:00", "note": "ON 12/24 AND 12/31, THIS BOX MAY BE COLLECTED AS EARLY AS 12 NOON.", "nsi_id": "unitedstatespostalservice-a77078", "operator": "United States Postal Service", "operator:short": "USPS", "operator:type": "public", "operator:wikidata": "Q668687", "ref": "2409100000"}, "type": "Feature"}
{"geometry": {"coordinates": [-80.309817269, 36.916438989], "type": "Point"}, "id": "evmlb0ZDilyNohCqPUPSDf9BTw0=", "properties": {"@source_uri": "https://tools.usps.com/UspsToolsRestServices/rest/POLocator/findLocations", "@spider": "usps_collection_boxes", "addr:city": "FLOYD", "addr:country": "US", "addr:full": "819 E MAIN ST", "addr:postcode": "24091", "addr:state": "VA", "amenity": "post_box", "brand": "United States Postal Service", "brand:wikidata": "Q668687", "collection_times": "Mo-Fr 17:15; Sa 12:00", "indoor": "yes", "note": "ON 12/24 AND 12/31, THIS BOX MAY BE COLLECTED AS EARLY AS 12 NOON.", "nsi_id": "unitedstatespostalservice-a77078", "operator": "United States Postal Service", "operator:short": "USPS", "operator:type": "public", "operator:wikidata": "Q668687", "ref": "2409100001"}, "type": "Feature"}
{"geometry": {"coordinates": [-80.309817269, 36.916438989], "type": "Point"}, "id": "K5r6b15Jvg-9dN3QlpZiKb8MeL4=", "properties": {"@source_uri": "https://tools.usps.com/UspsToolsRestServices/rest/POLocator/findLocations", "@spider": "usps_collection_boxes", "addr:city": "FLOYD", "addr:country": "US", "addr:full": "819 E MAIN ST", "addr:postcode": "24091", "addr:state": "VA", "amenity": "post_box", "brand": "United States Postal Service", "brand:wikidata": "Q668687", "collection_times": "Mo-Fr 17:00; Sa 12:00", "indoor": "yes", "note": "ON 12/24 AND 12/31, THIS BOX MAY BE COLLECTED AS EARLY AS 12 NOON.", "nsi_id": "unitedstatespostalservice-a77078", "operator": "United States Postal Service", "operator:short": "USPS", "operator:type": "public", "operator:wikidata": "Q668687", "ref": "2409100004"}, "type": "Feature"}
{"geometry": {"coordinates": [-79.764161, 36.989896], "type": "Point"}, "id": "VZjrrALt89ddxFx1_Kfv9v9yXTU=", "properties": {"@source_uri": "https://tools.usps.com/UspsToolsRestServices/rest/POLocator/findLocations", "@spider": "usps_collection_boxes", "addr:city": "GLADEHILL", "addr:country": "US", "addr:full": "7300 OLD FRANKLIN TPKE", "addr:postcode": "24092", "addr:state": "VA", "amenity": "post_box", "brand": "United States Postal Service", "brand:wikidata": "Q668687", "collection_times": "Mo-Fr 14:30; Sa 10:30", "note": "ON 12/24 AND 12/31, THIS BOX MAY BE COLLECTED AS EARLY AS 12 NOON.", "nsi_id": "unitedstatespostalservice-a77078", "operator": "United States Postal Service", "operator:short": "USPS", "operator:type": "public", "operator:wikidata": "Q668687", "ref": "2409200000"}, "type": "Feature"}
{"geometry": {"coordinates": [-79.764161, 36.989896], "type": "Point"}, "id": "LKrsv0zNr3PAmC4Nlb_RmIDO8e8=", "properties": {"@source_uri": "https://tools.usps.com/UspsToolsRestServices/rest/POLocator/findLocations", "@spider": "usps_collection_boxes", "addr:city": "GLADEHILL", "addr:country": "US", "addr:full": "7300 OLD FRANKLIN TPKE", "addr:postcode": "24092", "addr:state": "VA", "amenity": "post_box", "brand": "United States Postal Service", "brand:wikidata": "Q668687", "collection_times": "Mo-Fr 14:30; Sa 10:30", "indoor": "yes", "note": "ON 12/24 AND 12/31, THIS BOX MAY BE COLLECTED AS EARLY AS 12 NOON.", "nsi_id": "unitedstatespostalservice-a77078", "operator": "United States Postal Service", "operator:short": "USPS", "operator:type": "public", "operator:wikidata": "Q668687", "ref": "2409200001"}, "type": "Feature"}
{"geometry": {"coordinates": [-79.764856499, 36.990228722], "type": "Point"}, "id": "BIlEKpKtLMw1M7IO6cav21rRziA=", "properties": {"@source_uri": "https://tools.usps.com/UspsToolsRestServices/rest/POLocator/findLocations", "@spider": "usps_collection_boxes", "addr:city": "GLADEHILL", "addr:country": "US", "addr:full": "7300 OLD FRANKLIN TPKE", "addr:postcode": "24092", "addr:state": "VA", "amenity": "post_box", "brand": "United States Postal Service", "brand:wikidata": "Q668687", "collection_times": "Mo-Fr 15:00; Sa 11:00", "indoor": "yes", "note": "ON 12/24 AND 12/31, THIS BOX MAY BE COLLECTED AS EARLY AS 12 NOON.", "nsi_id": "unitedstatespostalservice-a77078", "operator": "United States Postal Service", "operator:short": "USPS", "operator:type": "public", "operator:wikidata": "Q668687", "ref": "2409200003"}, "type": "Feature"}
{"geometry": {"coordinates": [-80.867222, 37.370409], "type": "Point"}, "id": "ly_ZcP-sK8KfZNaFtmy1caOsUy4=", "properties": {"@source_uri": "https://tools.usps.com/UspsToolsRestServices/rest/POLocator/findLocations", "@spider": "usps_collection_boxes", "addr:city": "GLEN LYN", "addr:country": "US", "addr:full": "106 DAVIS AVE", "addr:postcode": "24093", "addr:state": "VA", "amenity": "post_box", "brand": "United States Postal Service", "brand:wikidata": "Q668687", "collection_times": "Mo-Fr 13:45; Sa 11:15", "note": "ON 12/24 AND 12/31, THIS BOX MAY BE COLLECTED AS EARLY AS 12 NOON.", "nsi_id": "unitedstatespostalservice-a77078", "operator": "United States Postal Service", "operator:short": "USPS", "operator:type": "public", "operator:wikidata": "Q668687", "ref": "2409300000"}, "type": "Feature"}
{"geometry": {"coordinates": [-80.86718, 37.370339], "type": "Point"}, "id": "luxf7ROLU1kgr3GdzVLxu6IKwtE=", "properties": {"@source_uri": "https://tools.usps.com/UspsToolsRestServices/rest/POLocator/findLocations", "@spider": "usps_collection_boxes", "addr:city": "GLEN LYN", "addr:country": "US", "addr:full": "106 DAVIS AVE", "addr:postcode": "24093", "addr:state": "VA", "amenity": "post_box", "brand": "United States Postal Service", "brand:wikidata": "Q668687", "collection_times": "Mo-Fr 13:45; Sa 11:15", "indoor": "yes", "note": "ON 12/24 AND 12/31, THIS BOX MAY BE COLLECTED AS EARLY AS 12 NOON.", "nsi_id": "unitedstatespostalservice-a77078", "operator": "United States Postal Service", "operator:short": "USPS", "operator:type": "public", "operator:wikidata": "Q668687", "ref": "2409300001"}, "type": "Feature"}
{"geometry": {"coordinates": [-80.866785157, 37.371008828], "type": "Point"}, "id": "6KcRj7ZdcAdA5wQn4TYKJFdMv_s=", "properties": {"@source_uri": "https://tools.usps.com/UspsToolsRestServices/rest/POLocator/findLocations", "@spider": "usps_collection_boxes", "addr:city": "GLEN LYN", "addr:country": "US", "addr:full": "106 DAVIS AVE", "addr:postcode": "24093", "addr:state": "VA", "amenity": "post_box", "brand": "United States Postal Service", "brand:wikidata": "Q668687", "collection_times": "Mo-Fr 14:00; Sa 11:30", "indoor": "yes", "note": "ON 12/24 AND 12/31, THIS BOX MAY BE COLLECTED AS EARLY AS 12 NOON.", "nsi_id": "unitedstatespostalservice-a77078", "operator": "United States Postal Service", "operator:short": "USPS", "operator:type": "public", "operator:wikidata": "Q668687", "ref": "2409300003"}, "type": "Feature"}
{"geometry": {"coordinates": [-79.728220414, 37.215040014], "type": "Point"}, "id": "gQO_TTFOfdQAggzRfN8YsZRmZJA=", "properties": {"@source_uri": "https://tools.usps.com/UspsToolsRestServices/rest/POLocator/findLocations", "@spider": "usps_collection_boxes", "addr:city": "GOODVIEW", "addr:country": "US", "addr:full": "7315 GOODVIEW RD", "addr:postcode": "24095", "addr:state": "VA", "amenity": "post_box", "brand": "United States Postal Service", "brand:wikidata": "Q668687", "collection_times": "Mo-Fr 16:00; Sa 11:00", "note": "ON 12/24 AND 12/31, THIS BOX MAY BE COLLECTED AS EARLY AS 12 NOON.", "nsi_id": "unitedstatespostalservice-a77078", "operator": "United States Postal Service", "operator:short": "USPS", "operator:type": "public", "operator:wikidata": "Q668687", "ref": "2409500000"}, "type": "Feature"}
{"geometry": {"coordinates": [-79.728220414, 37.215040014], "type": "Point"}, "id": "lE5A5gpIaiWzjG3p74UgHl_SxRM=", "properties": {"@source_uri": "https://tools.usps.com/UspsToolsRestServices/rest/POLocator/findLocations", "@spider": "usps_collection_boxes", "addr:city": "GOODVIEW", "addr:country": "US", "addr:full": "7315 GOODVIEW RD", "addr:postcode": "24095", "addr:state": "VA", "amenity": "post_box", "brand": "United States Postal Service", "brand:wikidata": "Q668687", "collection_times": "Mo-Fr 16:00; Sa 11:00", "indoor": "yes", "note": "ON 12/24 AND 12/31, THIS BOX MAY BE COLLECTED AS EARLY AS 12 NOON.", "nsi_id": "unitedstatespostalservice-a77078", "operator": "United States Postal Service", "operator:short": "USPS", "operator:type": "public", "operator:wikidata": "Q668687", "ref": "2409500001"}, "type": "Feature"}
{"geometry": {"coordinates": [-79.728220414, 37.215040014], "type": "Point"}, "id": "Vrc_EzJpzA4-NWxZA0gDm8lIJAI=", "properties": {"@source_uri": "https://tools.usps.com/UspsToolsRestServices/rest/POLocator/findLocations", "@spider": "usps_collection_boxes", "addr:city": "GOODVIEW", "addr:country": "US", "addr:full": "7315 GOODVIEW RD", "addr:postcode": "24095", "addr:state": "VA", "amenity": "post_box", "brand": "United States Postal Service", "brand:wikidata": "Q668687", "collection_times": "Mo-Fr 16:00; Sa 10:45", "indoor": "yes", "note": "ON 12/24 AND 12/31, THIS BOX MAY BE COLLECTED AS EARLY AS 12 NOON.", "nsi_id": "unitedstatespostalservice-a77078", "operator": "United States Postal Service", "operator:short": "USPS", "operator:type": "public", "operator:wikidata": "Q668687", "ref": "2409500003"}, "type": "Feature"}
