{"geometry": {"coordinates": [-82.784524, 36.903888], "type": "Point"}, "id": "-ixydICIvyr2oZuVFwKSfMyZzjs=", "properties": {"@spider": "usps_collection_boxes", "addr:city": "APPALACHIA", "addr:country": "US", "addr:full": "534 W MAIN ST", "addr:postcode": "24216", "addr:state": "VA", "brand": "USPS", "collection_times": "Mo-Fr 16:30; Sa 10:45", "name": "USPS COLLECTION BOX - PO LOBBY", "note": "ON 12/24 AND 12/31, THIS BOX MAY BE COLLECTED AS EARLY AS 12 NOON.", "ref": "2421600003"}, "type": "Feature"}
{"geometry": {"coordinates": [-82.7849625834, 36.9035212642], "type": "Point"}, "id": "DIQrlcMnGaOtQISHBRkgQVk7QZ4=", "properties": {"@spider": "usps_collection_boxes", "addr:city": "APPALACHIA", "addr:country": "US", "addr:full": "534 W MAIN ST", "addr:postcode": "24216", "addr:state": "VA", "brand": "USPS", "collection_times": "Mo-Fr 16:30; Sa 11:00", "name": "USPS COLLECTION BOX - PO LOBBY", "note": "ON 12/24 AND 12/31, THIS BOX MAY BE COLLECTED AS EARLY AS 12 NOON.", "ref": "2421600005"}, "type": "Feature"}
{"geometry": {"coordinates": [-83.0831195106, 36.7321693822], "type": "Point"}, "id": "H3qLxoPezzB0UV7KNxQjQyPo8go=", "properties": {"@spider": "usps_collection_boxes", "addr:city": "BEN HUR", "addr:country": "US", "addr:full": "37997 VETERANS MEMORIAL HWY", "addr:postcode": "24218", "addr:state": "VA", "brand": "USPS", "collection_times": "Mo-Sa 11:30", "name": "USPS COLLECTION BOX - PO LOBBY", "ref": "2421800000"}, "type": "Feature"}
{"geometry": {"coordinates": [-83.083315, 36.732231], "type": "Point"}, "id": "MdBz24FoSf7nh718HpUE62y_ULw=", "properties": {"@spider": "usps_collection_boxes", "addr:city": "BEN HUR", "addr:country": "US", "addr:full": "37997 VETERANS MEMORIAL HWY", "addr:postcode": "24218", "addr:state": "VA", "brand": "USPS", "collection_times": "Mo-Sa 11:30", "name": "USPS COLLECTION BOX - PO LOBBY", "ref": "2421800001"}, "type": "Feature"}
{"geometry": {"coordinates": [-83.083119259, 36.732159492], "type": "Point"}, "id": "EGg5cJ_MMD1EQKvCZYRZSbNadRU=", "properties": {"@spider": "usps_collection_boxes", "addr:city": "BEN HUR", "addr:country": "US", "addr:full": "37997 VETERANS MEMORIAL HWY", "addr:postcode": "24218", "addr:state": "VA", "brand": "USPS", "collection_times": "Mo-Fr 11:45; Sa 11:30", "name": "USPS COLLECTION BOX - PO LOBBY", "ref": "2421800003"}, "type": "Feature"}
{"geometry": {"coordinates": [-82.781248, 36.871903], "type": "Point"}, "id": "0OYfDSdnVYG6ScvczR6PNXqwLwU=", "properties": {"@spider": "usps_collection_boxes", "addr:city": "BIG STONE GAP", "addr:country": "US", "addr:full": "19 4TH ST E", "addr:postcode": "24219", "addr:state": "VA", "brand": "USPS", "collection_times": "Mo-Fr 12:00; Sa 11:00", "name": "USPS COLLECTION BOX - BLUE BOX", "ref": "2421900007"}, "type": "Feature"}
{"geometry": {"coordinates": [-82.775667457, 36.866434025], "type": "Point"}, "id": "pctLEIzMkmI1il1FjsprvXn5-ws=", "properties": {"@spider": "usps_collection_boxes", "addr:city": "BIG STONE GAP", "addr:country": "US", "addr:full": "322 WOOD AVE E", "addr:postcode": "24219", "addr:state": "VA", "brand": "USPS", "collection_times": "Mo-Fr 16:30; Sa 11:00", "name": "USPS COLLECTION BOX - PO LOBBY", "note": "ON 12/24 AND 12/31, THIS BOX MAY BE COLLECTED AS EARLY AS 12 NOON.", "ref": "2421900014"}, "type": "Feature"}
{"geometry": {"coordinates": [-82.775667457, 36.866434025], "type": "Point"}, "id": "ec2kopZZqF-4l_3SFBuo9Kja5bk=", "properties": {"@spider": "usps_collection_boxes", "addr:city": "BIG STONE GAP", "addr:country": "US", "addr:full": "322 WOOD AVE E STE 2", "addr:postcode": "24219", "addr:state": "VA", "brand": "USPS", "collection_times": "Mo-Fr 16:30; Sa 11:00", "name": "USPS COLLECTION BOX - PO LOBBY", "note": "ON 12/24 AND 12/31, THIS BOX MAY BE COLLECTED AS EARLY AS 12 NOON.", "ref": "2421900018"}, "type": "Feature"}
{"geometry": {"coordinates": [-83.051942, 36.628066], "type": "Point"}, "id": "FO1_oK32Hn0652Jp_hT6KCoEGqM=", "properties": {"@spider": "usps_collection_boxes", "addr:city": "BLACKWATER", "addr:country": "US", "addr:full": "8989 STATE ROUTE 70", "addr:postcode": "24221", "addr:state": "VA", "brand": "USPS", "collection_times": "Mo-Sa 12:45", "name": "USPS COLLECTION BOX - PO LOBBY", "note": "ON 12/24 AND 12/31, THIS BOX MAY BE COLLECTED AS EARLY AS 12 NOON.", "ref": "2422100001"}, "type": "Feature"}
{"geometry": {"coordinates": [-83.052021951, 36.627868538], "type": "Point"}, "id": "GDR12hEK8qlDY1YAo5dBje7ZisM=", "properties": {"@spider": "usps_collection_boxes", "addr:city": "BLACKWATER", "addr:country": "US", "addr:full": "8989 STATE ROUTE 70 STE 101", "addr:postcode": "24221", "addr:state": "VA", "brand": "USPS", "collection_times": "Mo-Sa 13:00", "name": "USPS COLLECTION BOX - PO LOBBY", "note": "ON 12/24 AND 12/31, THIS BOX MAY BE COLLECTED AS EARLY AS 12 NOON.", "ref": "2422100003"}, "type": "Feature"}
{"geometry": {"coordinates": [-82.454301669, 37.150242212], "type": "Point"}, "id": "-_ebOeHwBUcXRzFxQqQPwtaMFGE=", "properties": {"@spider": "usps_collection_boxes", "addr:city": "CLINTWOOD", "addr:country": "US", "addr:full": "454 CHASE ST", "addr:postcode": "24228", "addr:state": "VA", "brand": "USPS", "collection_times": "Mo-Fr 11:00; Sa 10:15", "name": "USPS COLLECTION BOX - BLUE BOX", "ref": "2422800000"}, "type": "Feature"}
{"geometry": {"coordinates": [-82.454301669, 37.150242212], "type": "Point"}, "id": "CdOsnnOaFKtrZqy_HmZrrEekmHE=", "properties": {"@spider": "usps_collection_boxes", "addr:city": "CLINTWOOD", "addr:country": "US", "addr:full": "454 CHASE ST", "addr:postcode": "24228", "addr:state": "VA", "brand": "USPS", "collection_times": "Mo-Fr 16:45; Sa 10:15", "name": "USPS COLLECTION BOX - PO LOBBY", "note": "ON 12/24 AND 12/31, THIS BOX MAY BE COLLECTED AS EARLY AS 12 NOON.", "ref": "2422800002"}, "type": "Feature"}
{"geometry": {"coordinates": [-82.454301669, 37.150242212], "type": "Point"}, "id": "GUeGTeBiaFmBh9-Tg2nPoeSiERE=", "properties": {"@spider": "usps_collection_boxes", "addr:city": "CLINTWOOD", "addr:country": "US", "addr:full": "454 CHASE ST STE 100", "addr:postcode": "24228", "addr:state": "VA", "brand": "USPS", "collection_times": "Mo-Fr 16:30; Sa 11:00", "name": "USPS COLLECTION BOX - PO LOBBY", "note": "ON 12/24 AND 12/31, THIS BOX MAY BE COLLECTED AS EARLY AS 12 NOON.", "ref": "2422800004"}, "type": "Feature"}
{"geometry": {"coordinates": [-82.46448151, 36.943643568], "type": "Point"}, "id": "oYN0AFgcMctPlYVvkGfV_2gISwM=", "properties": {"@spider": "usps_collection_boxes", "addr:city": "COEBURN", "addr:country": "US", "addr:full": "115 HIGH AVE NE", "addr:postcode": "24230", "addr:state": "VA", "brand": "USPS", "collection_times": "Mo-Fr 16:30; Sa 11:30", "name": "USPS COLLECTION BOX - PO LOBBY", "note": "ON 12/24 AND 12/31, THIS BOX MAY BE COLLECTED AS EARLY AS 12 NOON.", "ref": "2423000001"}, "type": "Feature"}
{"geometry": {"coordinates": [-82.46448151, 36.943643568], "type": "Point"}, "id": "j-Vy6xyHLpkefPLV_j7ZkHyJkFk=", "properties": {"@spider": "usps_collection_boxes", "addr:city": "COEBURN", "addr:country": "US", "addr:full": "115 HIGH AVE NE", "addr:postcode": "24230", "addr:state": "VA", "brand": "USPS", "collection_times": "Mo-Fr 12:00; Sa 11:30", "name": "USPS COLLECTION BOX - BLUE BOX", "ref": "2423000002"}, "type": "Feature"}
{"geometry": {"coordinates": [-82.46448151, 36.943643568], "type": "Point"}, "id": "YYKE764ATi9sQcjUYhdqUqlWBg4=", "properties": {"@spider": "usps_collection_boxes", "addr:city": "COEBURN", "addr:country": "US", "addr:full": "115 HIGH AVE NE", "addr:postcode": "24230", "addr:state": "VA", "brand": "USPS", "collection_times": "Mo-Fr 16:30; Sa 11:30", "name": "USPS COLLECTION BOX - PO LOBBY", "note": "ON 12/24 AND 12/31, THIS BOX MAY BE COLLECTED AS EARLY AS 12 NOON.", "ref": "2423000004"}, "type": "Feature"}
{"geometry": {"coordinates": [-82.918493, 36.780024], "type": "Point"}, "id": "DqnWtBHvBRDv5WcoDzb_xL6m2Rg=", "properties": {"@spider": "usps_collection_boxes", "addr:city": "DRYDEN", "addr:country": "US", "addr:full": "48354 VETERANS MEMORIAL HWY", "addr:postcode": "24243", "addr:state": "VA", "brand": "USPS", "collection_times": "Mo-Fr 12:00; Sa 11:30", "name": "USPS COLLECTION BOX - BLUE BOX", "ref": "2424300000"}, "type": "Feature"}
{"geometry": {"coordinates": [-82.918566, 36.780058], "type": "Point"}, "id": "boFYj2XPBA-I8xXV37QVJiM9-Pw=", "properties": {"@spider": "usps_collection_boxes", "addr:city": "DRYDEN", "addr:country": "US", "addr:full": "48354 VETERANS MEMORIAL HWY", "addr:postcode": "24243", "addr:state": "VA", "brand": "USPS", "collection_times": "Mo-Fr 16:15; Sa 11:30", "name": "USPS COLLECTION BOX - PO LOBBY", "note": "ON 12/24 AND 12/31, THIS BOX MAY BE COLLECTED AS EARLY AS 12 NOON.", "ref": "2424300001"}, "type": "Feature"}
{"geometry": {"coordinates": [-82.918524718, 36.779968721], "type": "Point"}, "id": "gwh5sGP1XGpp8ZNNZAcD8prgCk4=", "properties": {"@spider": "usps_collection_boxes", "addr:city": "DRYDEN", "addr:country": "US", "addr:full": "48354 VETERANS MEMORIAL HWY", "addr:postcode": "24243", "addr:state": "VA", "brand": "USPS", "collection_times": "Mo-Fr 16:00; Sa 11:30", "name": "USPS COLLECTION BOX - PO LOBBY", "note": "ON 12/24 AND 12/31, THIS BOX MAY BE COLLECTED AS EARLY AS 12 NOON.", "ref": "2424300005"}, "type": "Feature"}
{"geometry": {"coordinates": [-82.799356107, 36.711062472], "type": "Point"}, "id": "T5e17zecjlGDUsYfrnR079TbV4M=", "properties": {"@spider": "usps_collection_boxes", "addr:city": "DUFFIELD", "addr:country": "US", "addr:full": "466 DUFF PATT HWY", "addr:postcode": "24244", "addr:state": "VA", "brand": "USPS", "collection_times": "Mo-Fr 16:30; Sa 10:45", "name": "USPS COLLECTION BOX - PO LOBBY", "note": "ON 12/24 AND 12/31, THIS BOX MAY BE COLLECTED AS EARLY AS 12 NOON.", "ref": "2424400001"}, "type": "Feature"}
{"geometry": {"coordinates": [-82.799356107, 36.711062472], "type": "Point"}, "id": "9wIilL_gExuNdUY52QEqlpWNkGI=", "properties": {"@spider": "usps_collection_boxes", "addr:city": "DUFFIELD", "addr:country": "US", "addr:full": "466 DUFF PATT HWY", "addr:postcode": "24244", "addr:state": "VA", "brand": "USPS", "collection_times": "Mo-Fr 12:00; Sa 10:45", "name": "USPS COLLECTION BOX - BLUE BOX", "ref": "2424400002"}, "type": "Feature"}
{"geometry": {"coordinates": [-82.799356107, 36.711062472], "type": "Point"}, "id": "IEZrdbn6Nkkkhb9Jw0UD7Ej2nqo=", "properties": {"@spider": "usps_collection_boxes", "addr:city": "DUFFIELD", "addr:country": "US", "addr:full": "466 DUFF PATT HWY", "addr:postcode": "24244", "addr:state": "VA", "brand": "USPS", "collection_times": "Mo-Fr 16:30; Sa 10:00", "name": "USPS COLLECTION BOX - PO LOBBY", "note": "ON 12/24 AND 12/31, THIS BOX MAY BE COLLECTED AS EARLY AS 12 NOON.", "ref": "2424400004"}, "type": "Feature"}
{"geometry": {"coordinates": [-82.742056, 36.866899], "type": "Point"}, "id": "bZnIYGo4IXC0pyHxtyrDXNqZDxc=", "properties": {"@spider": "usps_collection_boxes", "addr:city": "EAST STONE GAP", "addr:country": "US", "addr:full": "3911 E STONE GAP RD", "addr:postcode": "24246", "addr:state": "VA", "brand": "USPS", "collection_times": "Mo-Fr 12:00; Sa 10:30", "name": "USPS COLLECTION BOX - BLUE BOX", "ref": "2424600000"}, "type": "Feature"}
{"geometry": {"coordinates": [-82.742069, 36.866874], "type": "Point"}, "id": "DZvOLt80YY9Lqd0QFfSh4lq5UKc=", "properties": {"@spider": "usps_collection_boxes", "addr:city": "EAST STONE GAP", "addr:country": "US", "addr:full": "3911 E STONE GAP RD", "addr:postcode": "24246", "addr:state": "VA", "brand": "USPS", "collection_times": "Mo-Fr 11:45; Sa 10:30", "name": "USPS COLLECTION BOX - PO LOBBY", "ref": "2424600001"}, "type": "Feature"}
{"geometry": {"coordinates": [-82.742835248, 36.867190574], "type": "Point"}, "id": "rM0TJcL7xFO73q9D_6va4ELp_V0=", "properties": {"@spider": "usps_collection_boxes", "addr:city": "EAST STONE GAP", "addr:country": "US", "addr:full": "3911 E STONE GAP RD", "addr:postcode": "24246", "addr:state": "VA", "brand": "USPS", "collection_times": "Mo-Fr 12:00; Sa 10:30", "name": "USPS COLLECTION BOX - PO LOBBY", "ref": "2424600003"}, "type": "Feature"}
{"geometry": {"coordinates": [-83.432282652, 36.636392032], "type": "Point"}, "id": "HzCcn-zV4X2o7gkxdA0JCBzCHkg=", "properties": {"@spider": "usps_collection_boxes", "addr:city": "EWING", "addr:country": "US", "addr:full": "1579 DR THOMAS WALKER RD", "addr:postcode": "24248", "addr:state": "VA", "brand": "USPS", "collection_times": "Mo-Fr 11:15; Sa 12:00", "name": "USPS COLLECTION BOX - BLUE BOX", "ref": "2424800000"}, "type": "Feature"}
{"geometry": {"coordinates": [-83.432282652, 36.636392032], "type": "Point"}, "id": "1C-2gZTt5bXlpkqInLs3Qn2KWIw=", "properties": {"@spider": "usps_collection_boxes", "addr:city": "EWING", "addr:country": "US", "addr:full": "1579 DR THOMAS WALKER RD", "addr:postcode": "24248", "addr:state": "VA", "brand": "USPS", "collection_times": "Mo-Fr 15:45; Sa 12:00", "name": "USPS COLLECTION BOX - PO LOBBY", "note": "ON 12/24 AND 12/31, THIS BOX MAY BE COLLECTED AS EARLY AS 12 NOON.", "ref": "2424800001"}, "type": "Feature"}
{"geometry": {"coordinates": [-83.432282652, 36.636392032], "type": "Point"}, "id": "4sb9G3_aI03CUR1dCUaQme01xDQ=", "properties": {"@spider": "usps_collection_boxes", "addr:city": "EWING", "addr:country": "US", "addr:full": "1579 DR THOMAS WALKER RD", "addr:postcode": "24248", "addr:state": "VA", "brand": "USPS", "collection_times": "Mo-Fr 16:00; Sa 11:30", "name": "USPS COLLECTION BOX - PO LOBBY", "note": "ON 12/24 AND 12/31, THIS BOX MAY BE COLLECTED AS EARLY AS 12 NOON.", "ref": "2424800003"}, "type": "Feature"}
{"geometry": {"coordinates": [-83.110062294, 36.68960173], "type": "Point"}, "id": "uVFh1pBQ1ONeHEISLg42kBiOu7g=", "properties": {"@spider": "usps_collection_boxes", "addr:city": "JONESVILLE", "addr:country": "US", "addr:full": "169 CHURCH ST", "addr:postcode": "24263", "addr:state": "VA", "brand": "USPS", "collection_times": "Mo-Sa 12:00", "name": "USPS COLLECTION BOX - BLUE BOX", "ref": "2426300000"}, "type": "Feature"}
{"geometry": {"coordinates": [-83.1101428, 36.689588], "type": "Point"}, "id": "HkIEg3d3tiUDAqM6vpv7gzxVQK0=", "properties": {"@spider": "usps_collection_boxes", "addr:city": "JONESVILLE", "addr:country": "US", "addr:full": "1 CHURCH ST", "addr:postcode": "24263", "addr:state": "VA", "brand": "USPS", "collection_times": "Mo-Fr 16:15; Sa 13:00", "name": "USPS COLLECTION BOX - PO LOBBY", "note": "ON 12/24 AND 12/31, THIS BOX MAY BE COLLECTED AS EARLY AS 12 NOON.", "ref": "2426300001"}, "type": "Feature"}
{"geometry": {"coordinates": [-83.110062294, 36.68960173], "type": "Point"}, "id": "kg_DwRu4NB0oMz7yGeJZfvTWoAU=", "properties": {"@spider": "usps_collection_boxes", "addr:city": "JONESVILLE", "addr:country": "US", "addr:full": "169 CHURCH ST", "addr:postcode": "24263", "addr:state": "VA", "brand": "USPS", "collection_times": "Mo-Fr 16:30; Sa 12:00", "name": "USPS COLLECTION BOX - PO LOBBY", "note": "ON 12/24 AND 12/31, THIS BOX MAY BE COLLECTED AS EARLY AS 12 NOON.", "ref": "2426300003"}, "type": "Feature"}
{"geometry": {"coordinates": [-82.898226, 36.865093], "type": "Point"}, "id": "hH48eKXvq6kq9xhDWMyNb1QqMsU=", "properties": {"@spider": "usps_collection_boxes", "addr:city": "KEOKEE", "addr:country": "US", "addr:full": "119 POST OFFICE RD", "addr:postcode": "24265", "addr:state": "VA", "brand": "USPS", "collection_times": "Mo-Fr 12:00; Sa 11:15", "name": "USPS COLLECTION BOX - BLUE BOX", "ref": "2426500000"}, "type": "Feature"}
{"geometry": {"coordinates": [-82.898239, 36.865171], "type": "Point"}, "id": "ZvhYiWK3KvDVY0DjWXCRvC5pjOs=", "properties": {"@spider": "usps_collection_boxes", "addr:city": "KEOKEE", "addr:country": "US", "addr:full": "119 POST OFFICE RD", "addr:postcode": "24265", "addr:state": "VA", "brand": "USPS", "collection_times": "Mo-Fr 11:45; Sa 11:15", "name": "USPS COLLECTION BOX - PO LOBBY", "ref": "2426500001"}, "type": "Feature"}
{"geometry": {"coordinates": [-82.898209054, 36.865137929], "type": "Point"}, "id": "sgqzB2J9545MIh_TArlro5Ms3PY=", "properties": {"@spider": "usps_collection_boxes", "addr:city": "KEOKEE", "addr:country": "US", "addr:full": "119 POST OFFICE RD", "addr:postcode": "24265", "addr:state": "VA", "brand": "USPS", "collection_times": "Mo-Fr 12:00; Sa 11:30", "name": "USPS COLLECTION BOX - PO LOBBY", "ref": "2426500003"}, "type": "Feature"}
{"geometry": {"coordinates": [-82.628720317, 36.934968322], "type": "Point"}, "id": "Efsi1HJCnRc1QihJE_TO6q-Igm8=", "properties": {"@spider": "usps_collection_boxes", "addr:city": "NORTON", "addr:country": "US", "addr:full": "39 7TH ST NW", "addr:postcode": "24273", "addr:state": "VA", "brand": "USPS", "collection_times": "Mo-Fr 16:30; Sa 11:00", "name": "USPS COLLECTION BOX - BLUE BOX", "note": "ON 12/24 AND 12/31, THIS BOX MAY BE COLLECTED AS EARLY AS 12 NOON.", "ref": "2427300000"}, "type": "Feature"}
{"geometry": {"coordinates": [-82.628720317, 36.934968322], "type": "Point"}, "id": "-KDlLdAIGxXu6m-0KKf8uOb045U=", "properties": {"@spider": "usps_collection_boxes", "addr:city": "NORTON", "addr:country": "US", "addr:full": "39 7TH ST NW", "addr:postcode": "24273", "addr:state": "VA", "brand": "USPS", "collection_times": "Mo-Fr 16:30; Sa 11:00", "name": "USPS COLLECTION BOX - PO LOBBY", "note": "ON 12/24 AND 12/31, THIS BOX MAY BE COLLECTED AS EARLY AS 12 NOON.", "ref": "2427300008"}, "type": "Feature"}
{"geometry": {"coordinates": [-82.628720317, 36.934968322], "type": "Point"}, "id": "sdu7nIdEzQJY-ayUCDX2-Kv3wO0=", "properties": {"@spider": "usps_collection_boxes", "addr:city": "NORTON", "addr:country": "US", "addr:full": "39 7TH ST NW", "addr:postcode": "24273", "addr:state": "VA", "brand": "USPS", "collection_times": "Mo-Fr 16:30; Sa 11:00", "name": "USPS COLLECTION BOX - PO LOBBY", "note": "ON 12/24 AND 12/31, THIS BOX MAY BE COLLECTED AS EARLY AS 12 NOON.", "ref": "2427300013"}, "type": "Feature"}
{"geometry": {"coordinates": [-83.048598201, 36.748413274], "type": "Point"}, "id": "jWETMz8mx-fSeAsWuiY8SoTHkdc=", "properties": {"@spider": "usps_collection_boxes", "addr:city": "PENNINGTON GAP", "addr:country": "US", "addr:full": "301 W MORGAN AVE", "addr:postcode": "24277", "addr:state": "VA", "brand": "USPS", "collection_times": "Mo-Fr 14:45; Sa 11:30", "name": "USPS COLLECTION BOX - BLUE BOX", "note": "ON 12/24 AND 12/31, THIS BOX MAY BE COLLECTED AS EARLY AS 12 NOON.", "ref": "2427700005"}, "type": "Feature"}
{"geometry": {"coordinates": [-83.048598201, 36.748413274], "type": "Point"}, "id": "-A-3Gi6LRiCSsCrIE5qe7VnBEQE=", "properties": {"@spider": "usps_collection_boxes", "addr:city": "PENNINGTON GAP", "addr:country": "US", "addr:full": "301 W MORGAN AVE", "addr:postcode": "24277", "addr:state": "VA", "brand": "USPS", "collection_times": "Mo-Fr 16:15; Sa 11:30", "name": "USPS COLLECTION BOX - PO LOBBY", "note": "ON 12/24 AND 12/31, THIS BOX MAY BE COLLECTED AS EARLY AS 12 NOON.", "ref": "2427700008"}, "type": "Feature"}
{"geometry": {"coordinates": [-83.029198464, 36.75740047], "type": "Point"}, "id": "4MTWHNjECla_Y5FdGpeMaNVJCcI=", "properties": {"@spider": "usps_collection_boxes", "addr:city": "PENNINGTON GAP", "addr:country": "US", "addr:full": "41610 W MORGAN AVE", "addr:postcode": "24277", "addr:state": "VA", "brand": "USPS", "collection_times": "Mo-Fr 16:30; Sa 12:00", "name": "USPS COLLECTION BOX - PO LOBBY", "note": "ON 12/24 AND 12/31, THIS BOX MAY BE COLLECTED AS EARLY AS 12 NOON.", "ref": "2427700010"}, "type": "Feature"}
{"geometry": {"coordinates": [-82.597607883, 37.122881894], "type": "Point"}, "id": "QWFVHZbJ4Qyr9T1UXq6o4GEREro=", "properties": {"@spider": "usps_collection_boxes", "addr:city": "POUND", "addr:country": "US", "addr:full": "11317 HIGHLAND AVE", "addr:postcode": "24279", "addr:state": "VA", "brand": "USPS", "collection_times": "Mo-Sa 11:00", "name": "USPS COLLECTION BOX - BLUE BOX", "ref": "2427900001"}, "type": "Feature"}
{"geometry": {"coordinates": [-82.597607883, 37.122881894], "type": "Point"}, "id": "Y6SLZI-5DnQO8xoSEWV-APfKC9g=", "properties": {"@spider": "usps_collection_boxes", "addr:city": "POUND", "addr:country": "US", "addr:full": "11317 HIGHLAND AVE", "addr:postcode": "24279", "addr:state": "VA", "brand": "USPS", "collection_times": "Mo-Fr 16:00; Sa 11:00", "name": "USPS COLLECTION BOX - PO LOBBY", "note": "ON 12/24 AND 12/31, THIS BOX MAY BE COLLECTED AS EARLY AS 12 NOON.", "ref": "2427900002"}, "type": "Feature"}
{"geometry": {"coordinates": [-82.597607883, 37.122881894], "type": "Point"}, "id": "XCxJeheRRw6fECE2mZPcyvBBAtg=", "properties": {"@spider": "usps_collection_boxes", "addr:city": "POUND", "addr:country": "US", "addr:full": "11317 HIGHLAND AVE", "addr:postcode": "24279", "addr:state": "VA", "brand": "USPS", "collection_times": "Mo-Fr 16:00; Sa 11:00", "name": "USPS COLLECTION BOX - PO LOBBY", "note": "ON 12/24 AND 12/31, THIS BOX MAY BE COLLECTED AS EARLY AS 12 NOON.", "ref": "2427900004"}, "type": "Feature"}
{"geometry": {"coordinates": [-83.361023, 36.674565], "type": "Point"}, "id": "I2gLoZIUFgI-TEDYCfgmJbN4EsI=", "properties": {"@spider": "usps_collection_boxes", "addr:city": "ROSE HILL", "addr:country": "US", "addr:full": "6501 DR THOMAS WALKER RD", "addr:postcode": "24281", "addr:state": "VA", "brand": "USPS", "collection_times": "Mo-Fr 12:00; Sa 11:15", "name": "USPS COLLECTION BOX - BLUE BOX", "ref": "2428100000"}, "type": "Feature"}
{"geometry": {"coordinates": [-83.361063, 36.674514], "type": "Point"}, "id": "c0oZB89fYLWpPXfV4bAZA8pe3Yw=", "properties": {"@spider": "usps_collection_boxes", "addr:city": "ROSE HILL", "addr:country": "US", "addr:full": "6501 DR THOMAS WALKER RD", "addr:postcode": "24281", "addr:state": "VA", "brand": "USPS", "collection_times": "Mo-Fr 15:15; Sa 11:15", "name": "USPS COLLECTION BOX - PO LOBBY", "note": "ON 12/24 AND 12/31, THIS BOX MAY BE COLLECTED AS EARLY AS 12 NOON.", "ref": "2428100001"}, "type": "Feature"}
{"geometry": {"coordinates": [-83.360887683, 36.674642754], "type": "Point"}, "id": "N1DELuvjtuWi9XuqnTPna39yxQc=", "properties": {"@spider": "usps_collection_boxes", "addr:city": "ROSE HILL", "addr:country": "US", "addr:full": "6501 DR THOMAS WALKER RD", "addr:postcode": "24281", "addr:state": "VA", "brand": "USPS", "collection_times": "Mo-Fr 15:30; Sa 11:30", "name": "USPS COLLECTION BOX - PO LOBBY", "note": "ON 12/24 AND 12/31, THIS BOX MAY BE COLLECTED AS EARLY AS 12 NOON.", "ref": "2428100003"}, "type": "Feature"}
{"geometry": {"coordinates": [-83.056726, 36.805186], "type": "Point"}, "id": "YHYYgy_PSQ80OE-8VqQrP03Q6kU=", "properties": {"@spider": "usps_collection_boxes", "addr:city": "SAINT CHARLES", "addr:country": "US", "addr:full": "155 MONARCH RD", "addr:postcode": "24282", "addr:state": "VA", "brand": "USPS", "collection_times": "Mo-Fr 12:00; Sa 11:30", "name": "USPS COLLECTION BOX - BLUE BOX", "ref": "2428200000"}, "type": "Feature"}
{"geometry": {"coordinates": [-83.056712, 36.805153], "type": "Point"}, "id": "RD3QItAdDATQ9njuPKUiEbO7ha0=", "properties": {"@spider": "usps_collection_boxes", "addr:city": "SAINT CHARLES", "addr:country": "US", "addr:full": "155 MONARCH RD", "addr:postcode": "24282", "addr:state": "VA", "brand": "USPS", "collection_times": "Mo-Fr 11:45; Sa 11:40", "name": "USPS COLLECTION BOX - PO LOBBY", "ref": "2428200001"}, "type": "Feature"}
{"geometry": {"coordinates": [-83.056729117, 36.805170761], "type": "Point"}, "id": "tPRpqXY6vPz2Y6hFsdXifa7CE7A=", "properties": {"@spider": "usps_collection_boxes", "addr:city": "SAINT CHARLES", "addr:country": "US", "addr:full": "155 MONARCH RD", "addr:postcode": "24282", "addr:state": "VA", "brand": "USPS", "collection_times": "Mo-Fr 12:00; Sa 11:30", "name": "USPS COLLECTION BOX - PO LOBBY", "ref": "2428200005"}, "type": "Feature"}
{"geometry": {"coordinates": [-82.579683165, 36.97733457], "type": "Point"}, "id": "LNa69PhtyQLRKplnsaYDT_9C8ZM=", "properties": {"@spider": "usps_collection_boxes", "addr:city": "WISE", "addr:country": "US", "addr:full": "208 MAIN ST", "addr:postcode": "24293", "addr:state": "VA", "brand": "USPS", "collection_times": "Mo-Fr 11:00; Sa 12:30", "name": "USPS COLLECTION BOX - BLUE BOX", "note": "ON 12/24 AND 12/31, THIS BOX MAY BE COLLECTED AS EARLY AS 12 NOON.", "ref": "2429300000"}, "type": "Feature"}
{"geometry": {"coordinates": [-82.579683165, 36.97733457], "type": "Point"}, "id": "T7_tEF4K-6UtBzt-76IygMJzjJI=", "properties": {"@spider": "usps_collection_boxes", "addr:city": "WISE", "addr:country": "US", "addr:full": "208 MAIN ST", "addr:postcode": "24293", "addr:state": "VA", "brand": "USPS", "collection_times": "Mo-Fr 11:00; Sa 12:30", "name": "USPS COLLECTION BOX - BLUE BOX", "note": "ON 12/24 AND 12/31, THIS BOX MAY BE COLLECTED AS EARLY AS 12 NOON.", "ref": "2429300001"}, "type": "Feature"}
{"geometry": {"coordinates": [-82.579683165, 36.97733457], "type": "Point"}, "id": "8JNq5rkRP3OTbcwqZ79dl-bufgw=", "properties": {"@spider": "usps_collection_boxes", "addr:city": "WISE", "addr:country": "US", "addr:full": "208 MAIN ST", "addr:postcode": "24293", "addr:state": "VA", "brand": "USPS", "collection_times": "Mo-Fr 17:00; Sa 12:30", "name": "USPS COLLECTION BOX - PO LOBBY", "note": "ON 12/24 AND 12/31, THIS BOX MAY BE COLLECTED AS EARLY AS 12 NOON.", "ref": "2429300002"}, "type": "Feature"}
{"geometry": {"coordinates": [-82.579683165, 36.97733457], "type": "Point"}, "id": "QKbT-g6TKEfsIx_mzT0EeNiBEFE=", "properties": {"@spider": "usps_collection_boxes", "addr:city": "WISE", "addr:country": "US", "addr:full": "208 MAIN ST", "addr:postcode": "24293", "addr:state": "VA", "brand": "USPS", "collection_times": "Mo-Fr 17:00; Sa 12:30", "name": "USPS COLLECTION BOX - PO LOBBY", "note": "ON 12/24 AND 12/31, THIS BOX MAY BE COLLECTED AS EARLY AS 12 NOON.", "ref": "2429300003"}, "type": "Feature"}
{"geometry": {"coordinates": [-82.579683165, 36.97733457], "type": "Point"}, "id": "yvRsMhs8I7cxv0FWYPXRM0VBJBY=", "properties": {"@spider": "usps_collection_boxes", "addr:city": "WISE", "addr:country": "US", "addr:full": "208 MAIN ST", "addr:postcode": "24293", "addr:state": "VA", "brand": "USPS", "collection_times": "Mo-Fr 17:00; Sa 12:30", "name": "USPS COLLECTION BOX - PO LOBBY", "note": "ON 12/24 AND 12/31, THIS BOX MAY BE COLLECTED AS EARLY AS 12 NOON.", "ref": "2429300004"}, "type": "Feature"}
{"geometry": {"coordinates": [-82.579683165, 36.97733457], "type": "Point"}, "id": "_psEBmDBvG-tjyrkPJFKaBPeois=", "properties": {"@spider": "usps_collection_boxes", "addr:city": "WISE", "addr:country": "US", "addr:full": "208 MAIN ST", "addr:postcode": "24293", "addr:state": "VA", "brand": "USPS", "collection_times": "Mo-Fr 16:30; Sa 12:00", "name": "USPS COLLECTION BOX - PO LOBBY", "note": "ON 12/24 AND 12/31, THIS BOX MAY BE COLLECTED AS EARLY AS 12 NOON.", "ref": "2429300006"}, "type": "Feature"}
