{"geometry": {"coordinates": [-80.7809931, 37.04554], "type": "Point"}, "id": "hV4KpZqOz0ATstKswx2akYjLeX4=", "properties": {"@spider": "usps_collection_boxes", "addr:city": "PULASKI", "addr:country": "US", "addr:full": "53 COMMERCE ST", "addr:postcode": "24301", "addr:state": "VA", "amenity": "post_box", "brand": "United States Postal Service", "brand:wikidata": "Q668687", "collection_times": "Mo-Fr 15:00", "name": "USPS COLLECTION BOX - BLUE BOX", "note": "ON 12/24 AND 12/31, THIS BOX MAY BE COLLECTED AS EARLY AS 12 NOON.", "nsi_id": "unitedstatespostalservice-a77078", "operator": "United States Postal Service", "operator:short": "USPS", "operator:type": "public", "operator:wikidata": "Q668687", "ref": "2430100004"}, "type": "Feature"}
{"geometry": {"coordinates": [-80.7797833, 37.047791], "type": "Point"}, "id": "ZSjHY3fnFUypryM6iHN09o-C5Xc=", "properties": {"@spider": "usps_collection_boxes", "addr:city": "PULASKI", "addr:country": "US", "addr:full": "8 MAIN ST", "addr:postcode": "24301", "addr:state": "VA", "amenity": "post_box", "brand": "United States Postal Service", "brand:wikidata": "Q668687", "collection_times": "Mo-Fr 15:00; Sa 14:00", "name": "USPS COLLECTION BOX - BLUE BOX", "note": "ON 12/24 AND 12/31, THIS BOX MAY BE COLLECTED AS EARLY AS 12 NOON.", "nsi_id": "unitedstatespostalservice-a77078", "operator": "United States Postal Service", "operator:short": "USPS", "operator:type": "public", "operator:wikidata": "Q668687", "ref": "2430100007"}, "type": "Feature"}
{"geometry": {"coordinates": [-80.7766304, 37.047791], "type": "Point"}, "id": "Du9M99-jyb8C-QbqFTaVrw2AMu4=", "properties": {"@spider": "usps_collection_boxes", "addr:city": "PULASKI", "addr:country": "US", "addr:full": "141 E MAIN ST", "addr:postcode": "24301", "addr:state": "VA", "amenity": "post_box", "brand": "United States Postal Service", "brand:wikidata": "Q668687", "collection_times": "Mo-Fr 16:00; Sa 14:00", "name": "USPS COLLECTION BOX - BLUE BOX", "note": "ON 12/24 AND 12/31, THIS BOX MAY BE COLLECTED AS EARLY AS 12 NOON.", "nsi_id": "unitedstatespostalservice-a77078", "operator": "United States Postal Service", "operator:short": "USPS", "operator:type": "public", "operator:wikidata": "Q668687", "ref": "2430100009"}, "type": "Feature"}
{"geometry": {"coordinates": [-80.7621394, 37.047721], "type": "Point"}, "id": "XWMO90jdlI8jgGdLDzhkxuM_S9w=", "properties": {"@spider": "usps_collection_boxes", "addr:city": "PULASKI", "addr:country": "US", "addr:full": "1022 E MAIN ST", "addr:postcode": "24301", "addr:state": "VA", "amenity": "post_box", "brand": "United States Postal Service", "brand:wikidata": "Q668687", "collection_times": "Mo-Fr 13:00; Sa 14:00", "name": "USPS COLLECTION BOX - BLUE BOX", "note": "ON 12/24 AND 12/31, THIS BOX MAY BE COLLECTED AS EARLY AS 12 NOON.", "nsi_id": "unitedstatespostalservice-a77078", "operator": "United States Postal Service", "operator:short": "USPS", "operator:type": "public", "operator:wikidata": "Q668687", "ref": "2430100010"}, "type": "Feature"}
{"geometry": {"coordinates": [-80.7616954, 37.06171], "type": "Point"}, "id": "OUr2sJQxD4hdPvkBisDIUU61mj4=", "properties": {"@spider": "usps_collection_boxes", "addr:city": "PULASKI", "addr:country": "US", "addr:full": "1000 MEMORIAL DR", "addr:postcode": "24301", "addr:state": "VA", "amenity": "post_box", "brand": "United States Postal Service", "brand:wikidata": "Q668687", "collection_times": "Mo-Sa 10:00", "name": "USPS COLLECTION BOX - BLUE BOX", "nsi_id": "unitedstatespostalservice-a77078", "operator": "United States Postal Service", "operator:short": "USPS", "operator:type": "public", "operator:wikidata": "Q668687", "ref": "2430100012"}, "type": "Feature"}
{"geometry": {"coordinates": [-80.7808338, 37.048858], "type": "Point"}, "id": "en3gpcK1lybxFr4G80dokneS64Y=", "properties": {"@spider": "usps_collection_boxes", "addr:city": "PULASKI", "addr:country": "US", "addr:full": "45 3RD ST NW", "addr:postcode": "24301", "addr:state": "VA", "amenity": "post_box", "brand": "United States Postal Service", "brand:wikidata": "Q668687", "collection_times": "Mo-Fr 16:00", "name": "USPS COLLECTION BOX - BLUE BOX", "note": "ON 12/24 AND 12/31, THIS BOX MAY BE COLLECTED AS EARLY AS 12 NOON.", "nsi_id": "unitedstatespostalservice-a77078", "operator": "United States Postal Service", "operator:short": "USPS", "operator:type": "public", "operator:wikidata": "Q668687", "ref": "2430100024"}, "type": "Feature"}
{"geometry": {"coordinates": [-80.7586654, 37.06846], "type": "Point"}, "id": "G9AfdnigGaHipRnBbbhb9lujsaw=", "properties": {"@spider": "usps_collection_boxes", "addr:city": "PULASKI", "addr:country": "US", "addr:full": "2400 LEE HWY N", "addr:postcode": "24301", "addr:state": "VA", "amenity": "post_box", "brand": "United States Postal Service", "brand:wikidata": "Q668687", "collection_times": "Mo-Fr 10:00", "name": "USPS COLLECTION BOX - BLUE BOX", "nsi_id": "unitedstatespostalservice-a77078", "operator": "United States Postal Service", "operator:short": "USPS", "operator:type": "public", "operator:wikidata": "Q668687", "ref": "2430100025"}, "type": "Feature"}
{"geometry": {"coordinates": [-80.7780642, 37.050757], "type": "Point"}, "id": "-26W6AaVgBpaU36ZDE-SmbTxGH0=", "properties": {"@spider": "usps_collection_boxes", "addr:city": "PULASKI", "addr:country": "US", "addr:full": "36 5TH ST NE", "addr:postcode": "24301", "addr:state": "VA", "amenity": "post_box", "brand": "United States Postal Service", "brand:wikidata": "Q668687", "collection_times": "Mo-Fr 13:00", "name": "USPS COLLECTION BOX - BLUE BOX", "note": "ON 12/24 AND 12/31, THIS BOX MAY BE COLLECTED AS EARLY AS 12 NOON.", "nsi_id": "unitedstatespostalservice-a77078", "operator": "United States Postal Service", "operator:short": "USPS", "operator:type": "public", "operator:wikidata": "Q668687", "ref": "2430100027"}, "type": "Feature"}
{"geometry": {"coordinates": [-80.780014989, 37.046771672], "type": "Point"}, "id": "MvAYboBBhJ6NJzMmuSJ9BICNM-c=", "properties": {"@spider": "usps_collection_boxes", "addr:city": "PULASKI", "addr:country": "US", "addr:full": "109 N WASHINGTON AVE", "addr:postcode": "24301", "addr:state": "VA", "amenity": "post_box", "brand": "United States Postal Service", "brand:wikidata": "Q668687", "collection_times": "Mo-Fr 17:00; Sa 12:00", "name": "USPS COLLECTION BOX - PO LOBBY", "note": "ON 12/24 AND 12/31, THIS BOX MAY BE COLLECTED AS EARLY AS 12 NOON.", "nsi_id": "unitedstatespostalservice-a77078", "operator": "United States Postal Service", "operator:short": "USPS", "operator:type": "public", "operator:wikidata": "Q668687", "ref": "2430100032"}, "type": "Feature"}
{"geometry": {"coordinates": [-80.7800149888, 37.0467716718], "type": "Point"}, "id": "26D7r_U6UrLJ2PEyo7TKQBulTQ8=", "properties": {"@spider": "usps_collection_boxes", "addr:city": "PULASKI", "addr:country": "US", "addr:full": "109 N WASHINGTON AVE", "addr:postcode": "24301", "addr:state": "VA", "amenity": "post_box", "brand": "United States Postal Service", "brand:wikidata": "Q668687", "collection_times": "Mo-Fr 16:30; Sa 12:00", "name": "USPS COLLECTION BOX - BLUE BOX", "note": "ON 12/24 AND 12/31, THIS BOX MAY BE COLLECTED AS EARLY AS 12 NOON.", "nsi_id": "unitedstatespostalservice-a77078", "operator": "United States Postal Service", "operator:short": "USPS", "operator:type": "public", "operator:wikidata": "Q668687", "ref": "2430100033"}, "type": "Feature"}
{"geometry": {"coordinates": [-80.7800149888, 37.0467716718], "type": "Point"}, "id": "pzlk9SpwxzQdQUmsTttWLmx3SJs=", "properties": {"@spider": "usps_collection_boxes", "addr:city": "PULASKI", "addr:country": "US", "addr:full": "109 N WASHINGTON AVE", "addr:postcode": "24301", "addr:state": "VA", "amenity": "post_box", "brand": "United States Postal Service", "brand:wikidata": "Q668687", "collection_times": "Mo-Fr 17:30; Sa 14:00", "name": "USPS COLLECTION BOX - PO LOBBY", "note": "ON 12/24 AND 12/31, THIS BOX MAY BE COLLECTED AS EARLY AS 12 NOON.", "nsi_id": "unitedstatespostalservice-a77078", "operator": "United States Postal Service", "operator:short": "USPS", "operator:type": "public", "operator:wikidata": "Q668687", "ref": "2430100034"}, "type": "Feature"}
{"geometry": {"coordinates": [-81.42096, 36.86718], "type": "Point"}, "id": "CRm2XgOT0Vn6Ymel9mh_YQw1LBw=", "properties": {"@spider": "usps_collection_boxes", "addr:city": "ATKINS", "addr:country": "US", "addr:full": "5864 LEE HWY", "addr:postcode": "24311", "addr:state": "VA", "amenity": "post_box", "brand": "United States Postal Service", "brand:wikidata": "Q668687", "collection_times": "Mo-Fr 15:15; Sa 10:45", "name": "USPS COLLECTION BOX - BLUE BOX", "note": "ON 12/24 AND 12/31, THIS BOX MAY BE COLLECTED AS EARLY AS 12 NOON.", "nsi_id": "unitedstatespostalservice-a77078", "operator": "United States Postal Service", "operator:short": "USPS", "operator:type": "public", "operator:wikidata": "Q668687", "ref": "2431100000"}, "type": "Feature"}
{"geometry": {"coordinates": [-81.421077, 36.867183], "type": "Point"}, "id": "LtoZKj8U43ZevNXnbX9PwtuZe5s=", "properties": {"@spider": "usps_collection_boxes", "addr:city": "ATKINS", "addr:country": "US", "addr:full": "5864 LEE HWY", "addr:postcode": "24311", "addr:state": "VA", "amenity": "post_box", "brand": "United States Postal Service", "brand:wikidata": "Q668687", "collection_times": "Mo-Fr 15:15; Sa 10:45", "name": "USPS COLLECTION BOX - PO LOBBY", "note": "ON 12/24 AND 12/31, THIS BOX MAY BE COLLECTED AS EARLY AS 12 NOON.", "nsi_id": "unitedstatespostalservice-a77078", "operator": "United States Postal Service", "operator:short": "USPS", "operator:type": "public", "operator:wikidata": "Q668687", "ref": "2431100001"}, "type": "Feature"}
{"geometry": {"coordinates": [-81.420558748, 36.867247809], "type": "Point"}, "id": "SJeWqpy1XH5yfUZGj1sa8d3665Q=", "properties": {"@spider": "usps_collection_boxes", "addr:city": "ATKINS", "addr:country": "US", "addr:full": "5864 LEE HWY", "addr:postcode": "24311", "addr:state": "VA", "amenity": "post_box", "brand": "United States Postal Service", "brand:wikidata": "Q668687", "collection_times": "Mo-Fr 15:15; Sa 10:45", "name": "USPS COLLECTION BOX - PO LOBBY", "note": "ON 12/24 AND 12/31, THIS BOX MAY BE COLLECTED AS EARLY AS 12 NOON.", "nsi_id": "unitedstatespostalservice-a77078", "operator": "United States Postal Service", "operator:short": "USPS", "operator:type": "public", "operator:wikidata": "Q668687", "ref": "2431100003"}, "type": "Feature"}
{"geometry": {"coordinates": [-80.918897199, 36.855207382], "type": "Point"}, "id": "Y0Ii-mXZMF7PHSZHA3WcO7F1C8s=", "properties": {"@spider": "usps_collection_boxes", "addr:city": "AUSTINVILLE", "addr:country": "US", "addr:full": "2286 AUSTINVILLE RD", "addr:postcode": "24312", "addr:state": "VA", "amenity": "post_box", "brand": "United States Postal Service", "brand:wikidata": "Q668687", "collection_times": "Mo-Fr 16:00; Sa 11:00", "name": "USPS COLLECTION BOX - BLUE BOX", "note": "ON 12/24 AND 12/31, THIS BOX MAY BE COLLECTED AS EARLY AS 12 NOON.", "nsi_id": "unitedstatespostalservice-a77078", "operator": "United States Postal Service", "operator:short": "USPS", "operator:type": "public", "operator:wikidata": "Q668687", "ref": "2431200000"}, "type": "Feature"}
{"geometry": {"coordinates": [-80.918897199, 36.855207382], "type": "Point"}, "id": "u61D0o0BFoZfZDWJEowrqZDE6OI=", "properties": {"@spider": "usps_collection_boxes", "addr:city": "AUSTINVILLE", "addr:country": "US", "addr:full": "2286 AUSTINVILLE RD", "addr:postcode": "24312", "addr:state": "VA", "amenity": "post_box", "brand": "United States Postal Service", "brand:wikidata": "Q668687", "collection_times": "Mo-Fr 16:00; Sa 11:00", "name": "USPS COLLECTION BOX - PO LOBBY", "note": "ON 12/24 AND 12/31, THIS BOX MAY BE COLLECTED AS EARLY AS 12 NOON.", "nsi_id": "unitedstatespostalservice-a77078", "operator": "United States Postal Service", "operator:short": "USPS", "operator:type": "public", "operator:wikidata": "Q668687", "ref": "2431200001"}, "type": "Feature"}
{"geometry": {"coordinates": [-80.815128, 36.8155172], "type": "Point"}, "id": "mRfGRxXtDa-qBOMOXjDdEFYVgxw=", "properties": {"@spider": "usps_collection_boxes", "addr:city": "AUSTINVILLE", "addr:country": "US", "addr:full": "4172 IVANHOE ROAD", "addr:postcode": "24312", "addr:state": "VA", "amenity": "post_box", "brand": "United States Postal Service", "brand:wikidata": "Q668687", "collection_times": "Mo-Sa 11:30", "name": "USPS COLLECTION BOX - BLUE BOX", "nsi_id": "unitedstatespostalservice-a77078", "operator": "United States Postal Service", "operator:short": "USPS", "operator:type": "public", "operator:wikidata": "Q668687", "ref": "2431200002"}, "type": "Feature"}
{"geometry": {"coordinates": [-80.918897199, 36.855207382], "type": "Point"}, "id": "8HV7SrLfANc6-nTzOcWf8WHMV24=", "properties": {"@spider": "usps_collection_boxes", "addr:city": "AUSTINVILLE", "addr:country": "US", "addr:full": "2286 AUSTINVILLE RD", "addr:postcode": "24312", "addr:state": "VA", "amenity": "post_box", "brand": "United States Postal Service", "brand:wikidata": "Q668687", "collection_times": "Mo-Fr 16:00; Sa 11:00", "name": "USPS COLLECTION BOX - PO LOBBY", "note": "ON 12/24 AND 12/31, THIS BOX MAY BE COLLECTED AS EARLY AS 12 NOON.", "nsi_id": "unitedstatespostalservice-a77078", "operator": "United States Postal Service", "operator:short": "USPS", "operator:type": "public", "operator:wikidata": "Q668687", "ref": "2431200004"}, "type": "Feature"}
{"geometry": {"coordinates": [-80.801818, 36.907097], "type": "Point"}, "id": "DJq7EY_h-EYQjGjg23_OW3QgmFs=", "properties": {"@spider": "usps_collection_boxes", "addr:city": "BARREN SPRINGS", "addr:country": "US", "addr:full": "1895 WYSOR HWY", "addr:postcode": "24313", "addr:state": "VA", "amenity": "post_box", "brand": "United States Postal Service", "brand:wikidata": "Q668687", "collection_times": "Mo-Fr 12:00; Sa 10:45", "name": "USPS COLLECTION BOX - BLUE BOX", "nsi_id": "unitedstatespostalservice-a77078", "operator": "United States Postal Service", "operator:short": "USPS", "operator:type": "public", "operator:wikidata": "Q668687", "ref": "2431300000"}, "type": "Feature"}
{"geometry": {"coordinates": [-80.801799, 36.907134], "type": "Point"}, "id": "XJozdQC5QT7Y5JLSx4o5GLZYMf8=", "properties": {"@spider": "usps_collection_boxes", "addr:city": "BARREN SPRINGS", "addr:country": "US", "addr:full": "1895 WYSOR HWY", "addr:postcode": "24313", "addr:state": "VA", "amenity": "post_box", "brand": "United States Postal Service", "brand:wikidata": "Q668687", "collection_times": "Mo-Fr 12:00; Sa 10:45", "name": "USPS COLLECTION BOX - PO LOBBY", "nsi_id": "unitedstatespostalservice-a77078", "operator": "United States Postal Service", "operator:short": "USPS", "operator:type": "public", "operator:wikidata": "Q668687", "ref": "2431300001"}, "type": "Feature"}
{"geometry": {"coordinates": [-80.8018525025, 36.9071372001], "type": "Point"}, "id": "xhNp7ltR5_PajOEOGQU8Wo2tEZQ=", "properties": {"@spider": "usps_collection_boxes", "addr:city": "BARREN SPRINGS", "addr:country": "US", "addr:full": "1895 WYSOR HWY", "addr:postcode": "24313", "addr:state": "VA", "amenity": "post_box", "brand": "United States Postal Service", "brand:wikidata": "Q668687", "collection_times": "Mo-Fr 12:00; Sa 11:30", "name": "USPS COLLECTION BOX - PO LOBBY", "nsi_id": "unitedstatespostalservice-a77078", "operator": "United States Postal Service", "operator:short": "USPS", "operator:type": "public", "operator:wikidata": "Q668687", "ref": "2431300003"}, "type": "Feature"}
{"geometry": {"coordinates": [-81.152095, 37.152074], "type": "Point"}, "id": "J8erUvzmmhUQB9gQ7srExXOAb30=", "properties": {"@spider": "usps_collection_boxes", "addr:city": "BASTIAN", "addr:country": "US", "addr:full": "178 WALNUT DR", "addr:postcode": "24314", "addr:state": "VA", "amenity": "post_box", "brand": "United States Postal Service", "brand:wikidata": "Q668687", "collection_times": "Mo-Fr 11:45; Sa 11:15", "name": "USPS COLLECTION BOX - BLUE BOX", "nsi_id": "unitedstatespostalservice-a77078", "operator": "United States Postal Service", "operator:short": "USPS", "operator:type": "public", "operator:wikidata": "Q668687", "ref": "2431400000"}, "type": "Feature"}
{"geometry": {"coordinates": [-81.152176, 37.152074], "type": "Point"}, "id": "Ya8U2PoWW_Em76oPN9MvyyDvozA=", "properties": {"@spider": "usps_collection_boxes", "addr:city": "BASTIAN", "addr:country": "US", "addr:full": "178 WALNUT DR", "addr:postcode": "24314", "addr:state": "VA", "amenity": "post_box", "brand": "United States Postal Service", "brand:wikidata": "Q668687", "collection_times": "Mo-Fr 11:45; Sa 11:15", "name": "USPS COLLECTION BOX - PO LOBBY", "nsi_id": "unitedstatespostalservice-a77078", "operator": "United States Postal Service", "operator:short": "USPS", "operator:type": "public", "operator:wikidata": "Q668687", "ref": "2431400001"}, "type": "Feature"}
{"geometry": {"coordinates": [-81.152301196, 37.152139378], "type": "Point"}, "id": "4_JjyJVnWKUfd2oPoWrI8nPCopw=", "properties": {"@spider": "usps_collection_boxes", "addr:city": "BASTIAN", "addr:country": "US", "addr:full": "178 WALNUT DR", "addr:postcode": "24314", "addr:state": "VA", "amenity": "post_box", "brand": "United States Postal Service", "brand:wikidata": "Q668687", "collection_times": "Mo-Fr 12:00; Sa 11:15", "name": "USPS COLLECTION BOX - PO LOBBY", "nsi_id": "unitedstatespostalservice-a77078", "operator": "United States Postal Service", "operator:short": "USPS", "operator:type": "public", "operator:wikidata": "Q668687", "ref": "2431400003"}, "type": "Feature"}
{"geometry": {"coordinates": [-81.116257309, 37.100707094], "type": "Point"}, "id": "7Rg5g5OvlsG3_Ecc-ZskKmn-nKY=", "properties": {"@spider": "usps_collection_boxes", "addr:city": "BLAND", "addr:country": "US", "addr:full": "207 JACKSON ST", "addr:postcode": "24315", "addr:state": "VA", "amenity": "post_box", "brand": "United States Postal Service", "brand:wikidata": "Q668687", "collection_times": "Mo-Fr 16:00; Sa 11:00", "name": "USPS COLLECTION BOX - BLUE BOX", "note": "ON 12/24 AND 12/31, THIS BOX MAY BE COLLECTED AS EARLY AS 12 NOON.", "nsi_id": "unitedstatespostalservice-a77078", "operator": "United States Postal Service", "operator:short": "USPS", "operator:type": "public", "operator:wikidata": "Q668687", "ref": "2431500000"}, "type": "Feature"}
{"geometry": {"coordinates": [-81.116257309, 37.100707094], "type": "Point"}, "id": "tlTsmd1NQhSIIb3w1KF-2H2P6a4=", "properties": {"@spider": "usps_collection_boxes", "addr:city": "BLAND", "addr:country": "US", "addr:full": "207 JACKSON ST", "addr:postcode": "24315", "addr:state": "VA", "amenity": "post_box", "brand": "United States Postal Service", "brand:wikidata": "Q668687", "collection_times": "Mo-Fr 16:00; Sa 11:00", "name": "USPS COLLECTION BOX - PO LOBBY", "note": "ON 12/24 AND 12/31, THIS BOX MAY BE COLLECTED AS EARLY AS 12 NOON.", "nsi_id": "unitedstatespostalservice-a77078", "operator": "United States Postal Service", "operator:short": "USPS", "operator:type": "public", "operator:wikidata": "Q668687", "ref": "2431500001"}, "type": "Feature"}
{"geometry": {"coordinates": [-81.116257309, 37.100707094], "type": "Point"}, "id": "x7j0CQCK8QYvChlf-htGHsHeVuE=", "properties": {"@spider": "usps_collection_boxes", "addr:city": "BLAND", "addr:country": "US", "addr:full": "207 JACKSON ST", "addr:postcode": "24315", "addr:state": "VA", "amenity": "post_box", "brand": "United States Postal Service", "brand:wikidata": "Q668687", "collection_times": "Mo-Fr 16:00; Sa 11:00", "name": "USPS COLLECTION BOX - PO LOBBY", "note": "ON 12/24 AND 12/31, THIS BOX MAY BE COLLECTED AS EARLY AS 12 NOON.", "nsi_id": "unitedstatespostalservice-a77078", "operator": "United States Postal Service", "operator:short": "USPS", "operator:type": "public", "operator:wikidata": "Q668687", "ref": "2431500003"}, "type": "Feature"}
{"geometry": {"coordinates": [-80.665375134, 36.58593387], "type": "Point"}, "id": "EkMft-Uft2Xsu6Y8Eju_tp7QJ2Y=", "properties": {"@spider": "usps_collection_boxes", "addr:city": "CANA", "addr:country": "US", "addr:full": "14207 FANCY GAP HWY", "addr:postcode": "24317", "addr:state": "VA", "amenity": "post_box", "brand": "United States Postal Service", "brand:wikidata": "Q668687", "collection_times": "Mo-Fr 16:00; Sa 11:00", "name": "USPS COLLECTION BOX - BLUE BOX", "note": "ON 12/24 AND 12/31, THIS BOX MAY BE COLLECTED AS EARLY AS 12 NOON.", "nsi_id": "unitedstatespostalservice-a77078", "operator": "United States Postal Service", "operator:short": "USPS", "operator:type": "public", "operator:wikidata": "Q668687", "ref": "2431700000"}, "type": "Feature"}
{"geometry": {"coordinates": [-80.665375134, 36.58593387], "type": "Point"}, "id": "YbueHsQtKvw7pEkMif1RPbrJDqk=", "properties": {"@spider": "usps_collection_boxes", "addr:city": "CANA", "addr:country": "US", "addr:full": "14207 FANCY GAP HWY", "addr:postcode": "24317", "addr:state": "VA", "amenity": "post_box", "brand": "United States Postal Service", "brand:wikidata": "Q668687", "collection_times": "Mo-Fr 16:00; Sa 11:00", "name": "USPS COLLECTION BOX - PO LOBBY", "note": "ON 12/24 AND 12/31, THIS BOX MAY BE COLLECTED AS EARLY AS 12 NOON.", "nsi_id": "unitedstatespostalservice-a77078", "operator": "United States Postal Service", "operator:short": "USPS", "operator:type": "public", "operator:wikidata": "Q668687", "ref": "2431700001"}, "type": "Feature"}
{"geometry": {"coordinates": [-80.665375134, 36.58593387], "type": "Point"}, "id": "KfSw_XzMLWDOSDhEM_CyNdgDenc=", "properties": {"@spider": "usps_collection_boxes", "addr:city": "CANA", "addr:country": "US", "addr:full": "14207 FANCY GAP HWY", "addr:postcode": "24317", "addr:state": "VA", "amenity": "post_box", "brand": "United States Postal Service", "brand:wikidata": "Q668687", "collection_times": "Mo-Fr 16:00; Sa 11:00", "name": "USPS COLLECTION BOX - PO LOBBY", "note": "ON 12/24 AND 12/31, THIS BOX MAY BE COLLECTED AS EARLY AS 12 NOON.", "nsi_id": "unitedstatespostalservice-a77078", "operator": "United States Postal Service", "operator:short": "USPS", "operator:type": "public", "operator:wikidata": "Q668687", "ref": "2431700003"}, "type": "Feature"}
{"geometry": {"coordinates": [-81.321978, 37.030074], "type": "Point"}, "id": "n5RkP5RLTjKK-EumoL216Y_pN5I=", "properties": {"@spider": "usps_collection_boxes", "addr:city": "CERES", "addr:country": "US", "addr:full": "5592 W BLUE GRASS TRL", "addr:postcode": "24318", "addr:state": "VA", "amenity": "post_box", "brand": "United States Postal Service", "brand:wikidata": "Q668687", "collection_times": "Mo-Fr 11:45; Sa 10:45", "name": "USPS COLLECTION BOX - BLUE BOX", "nsi_id": "unitedstatespostalservice-a77078", "operator": "United States Postal Service", "operator:short": "USPS", "operator:type": "public", "operator:wikidata": "Q668687", "ref": "2431800000"}, "type": "Feature"}
{"geometry": {"coordinates": [-81.321999, 37.030094], "type": "Point"}, "id": "6TCCc2MEpmllFqWUBxPj5yz6eUw=", "properties": {"@spider": "usps_collection_boxes", "addr:city": "CERES", "addr:country": "US", "addr:full": "5592 W BLUE GRASS TRL", "addr:postcode": "24318", "addr:state": "VA", "amenity": "post_box", "brand": "United States Postal Service", "brand:wikidata": "Q668687", "collection_times": "Mo-Fr 11:45; Sa 10:45", "name": "USPS COLLECTION BOX - PO LOBBY", "nsi_id": "unitedstatespostalservice-a77078", "operator": "United States Postal Service", "operator:short": "USPS", "operator:type": "public", "operator:wikidata": "Q668687", "ref": "2431800001"}, "type": "Feature"}
{"geometry": {"coordinates": [-81.3304200191, 37.0254689606], "type": "Point"}, "id": "Za-LFeif7nAYk07EwJRazrTBYAs=", "properties": {"@spider": "usps_collection_boxes", "addr:city": "CERES", "addr:country": "US", "addr:full": "5592 W BLUE GRASS TRL", "addr:postcode": "24318", "addr:state": "VA", "amenity": "post_box", "brand": "United States Postal Service", "brand:wikidata": "Q668687", "collection_times": "Mo-Fr 12:00; Sa 11:00", "name": "USPS COLLECTION BOX - PO LOBBY", "nsi_id": "unitedstatespostalservice-a77078", "operator": "United States Postal Service", "operator:short": "USPS", "operator:type": "public", "operator:wikidata": "Q668687", "ref": "2431800003"}, "type": "Feature"}
{"geometry": {"coordinates": [-81.684191505, 36.800497308], "type": "Point"}, "id": "4QujxOj_Bb3mhaEtE7NCrprKNLQ=", "properties": {"@spider": "usps_collection_boxes", "addr:city": "CHILHOWIE", "addr:country": "US", "addr:full": "195 OLD STAGE RD", "addr:postcode": "24319", "addr:state": "VA", "amenity": "post_box", "brand": "United States Postal Service", "brand:wikidata": "Q668687", "collection_times": "Mo-Fr 16:45; Sa 11:00", "name": "USPS COLLECTION BOX - BLUE BOX", "note": "ON 12/24 AND 12/31, THIS BOX MAY BE COLLECTED AS EARLY AS 12 NOON.", "nsi_id": "unitedstatespostalservice-a77078", "operator": "United States Postal Service", "operator:short": "USPS", "operator:type": "public", "operator:wikidata": "Q668687", "ref": "2431900000"}, "type": "Feature"}
{"geometry": {"coordinates": [-81.684191505, 36.800497308], "type": "Point"}, "id": "xX_lixHOvfnwl2MZZdf9dS43WVg=", "properties": {"@spider": "usps_collection_boxes", "addr:city": "CHILHOWIE", "addr:country": "US", "addr:full": "195 OLD STAGE RD", "addr:postcode": "24319", "addr:state": "VA", "amenity": "post_box", "brand": "United States Postal Service", "brand:wikidata": "Q668687", "collection_times": "Mo-Fr 16:45; Sa 11:00", "name": "USPS COLLECTION BOX - PO LOBBY", "note": "ON 12/24 AND 12/31, THIS BOX MAY BE COLLECTED AS EARLY AS 12 NOON.", "nsi_id": "unitedstatespostalservice-a77078", "operator": "United States Postal Service", "operator:short": "USPS", "operator:type": "public", "operator:wikidata": "Q668687", "ref": "2431900003"}, "type": "Feature"}
{"geometry": {"coordinates": [-81.684191505, 36.800497308], "type": "Point"}, "id": "NopbMxoToTeObnxRkF9agZ1qcO0=", "properties": {"@spider": "usps_collection_boxes", "addr:city": "CHILHOWIE", "addr:country": "US", "addr:full": "195 OLD STAGE RD", "addr:postcode": "24319", "addr:state": "VA", "amenity": "post_box", "brand": "United States Postal Service", "brand:wikidata": "Q668687", "collection_times": "Mo-Fr 16:30; Sa 11:00", "name": "USPS COLLECTION BOX - PO LOBBY", "note": "ON 12/24 AND 12/31, THIS BOX MAY BE COLLECTED AS EARLY AS 12 NOON.", "nsi_id": "unitedstatespostalservice-a77078", "operator": "United States Postal Service", "operator:short": "USPS", "operator:type": "public", "operator:wikidata": "Q668687", "ref": "2431900005"}, "type": "Feature"}
{"geometry": {"coordinates": [-81.191967, 36.886403], "type": "Point"}, "id": "9H51RGf_d7xZId0rpUVaY_g1LDs=", "properties": {"@spider": "usps_collection_boxes", "addr:city": "CROCKETT", "addr:country": "US", "addr:full": "1163 CROCKETT RD", "addr:postcode": "24323", "addr:state": "VA", "amenity": "post_box", "brand": "United States Postal Service", "brand:wikidata": "Q668687", "collection_times": "Mo-Fr 10:30; Sa 10:45", "name": "USPS COLLECTION BOX - BLUE BOX", "nsi_id": "unitedstatespostalservice-a77078", "operator": "United States Postal Service", "operator:short": "USPS", "operator:type": "public", "operator:wikidata": "Q668687", "ref": "2432300000"}, "type": "Feature"}
{"geometry": {"coordinates": [-81.191868, 36.886333], "type": "Point"}, "id": "s-9V1FbOBxZTWGgcGW1ERZ85FPs=", "properties": {"@spider": "usps_collection_boxes", "addr:city": "CROCKETT", "addr:country": "US", "addr:full": "1163 CROCKETT RD", "addr:postcode": "24323", "addr:state": "VA", "amenity": "post_box", "brand": "United States Postal Service", "brand:wikidata": "Q668687", "collection_times": "Mo-Fr 10:30; Sa 10:45", "name": "USPS COLLECTION BOX - PO LOBBY", "nsi_id": "unitedstatespostalservice-a77078", "operator": "United States Postal Service", "operator:short": "USPS", "operator:type": "public", "operator:wikidata": "Q668687", "ref": "2432300001"}, "type": "Feature"}
{"geometry": {"coordinates": [-81.191825328, 36.886438561], "type": "Point"}, "id": "4y5m0zt0rTJJafhsmh_S3aPhfHk=", "properties": {"@spider": "usps_collection_boxes", "addr:city": "CROCKETT", "addr:country": "US", "addr:full": "1163 CROCKETT RD", "addr:postcode": "24323", "addr:state": "VA", "amenity": "post_box", "brand": "United States Postal Service", "brand:wikidata": "Q668687", "collection_times": "Mo-Sa 11:00", "name": "USPS COLLECTION BOX - PO LOBBY", "nsi_id": "unitedstatespostalservice-a77078", "operator": "United States Postal Service", "operator:short": "USPS", "operator:type": "public", "operator:wikidata": "Q668687", "ref": "2432300003"}, "type": "Feature"}
{"geometry": {"coordinates": [-80.746518, 37.004875], "type": "Point"}, "id": "LxfiBABi4edJqM6O8sRTKGO10Wo=", "properties": {"@spider": "usps_collection_boxes", "addr:city": "DRAPER", "addr:country": "US", "addr:full": "4390 ACADEMY ST", "addr:postcode": "24324", "addr:state": "VA", "amenity": "post_box", "brand": "United States Postal Service", "brand:wikidata": "Q668687", "collection_times": "Mo-Fr 12:00; Sa 10:30", "name": "USPS COLLECTION BOX - BLUE BOX", "nsi_id": "unitedstatespostalservice-a77078", "operator": "United States Postal Service", "operator:short": "USPS", "operator:type": "public", "operator:wikidata": "Q668687", "ref": "2432400000"}, "type": "Feature"}
{"geometry": {"coordinates": [-80.746521, 37.00483], "type": "Point"}, "id": "ovmyFObalisknQRbiyyRiAPyeQ0=", "properties": {"@spider": "usps_collection_boxes", "addr:city": "DRAPER", "addr:country": "US", "addr:full": "4390 ACADEMY ST", "addr:postcode": "24324", "addr:state": "VA", "amenity": "post_box", "brand": "United States Postal Service", "brand:wikidata": "Q668687", "collection_times": "Mo-Fr 12:00; Sa 10:30", "name": "USPS COLLECTION BOX - PO LOBBY", "nsi_id": "unitedstatespostalservice-a77078", "operator": "United States Postal Service", "operator:short": "USPS", "operator:type": "public", "operator:wikidata": "Q668687", "ref": "2432400001"}, "type": "Feature"}
{"geometry": {"coordinates": [-80.746548693, 37.004888028], "type": "Point"}, "id": "3RYb5mrt0cKRCEHrZOva9JKxMQI=", "properties": {"@spider": "usps_collection_boxes", "addr:city": "DRAPER", "addr:country": "US", "addr:full": "4390 ACADEMY ST", "addr:postcode": "24324", "addr:state": "VA", "amenity": "post_box", "brand": "United States Postal Service", "brand:wikidata": "Q668687", "collection_times": "Mo-Fr 12:00; Sa 10:45", "name": "USPS COLLECTION BOX - PO LOBBY", "nsi_id": "unitedstatespostalservice-a77078", "operator": "United States Postal Service", "operator:short": "USPS", "operator:type": "public", "operator:wikidata": "Q668687", "ref": "2432400003"}, "type": "Feature"}
{"geometry": {"coordinates": [-80.588781, 36.839422], "type": "Point"}, "id": "judM5pbqOSeI_Goc0VJX85ZUEGM=", "properties": {"@spider": "usps_collection_boxes", "addr:city": "DUGSPUR", "addr:country": "US", "addr:full": "60 DOUBLE CABIN RD", "addr:postcode": "24325", "addr:state": "VA", "amenity": "post_box", "brand": "United States Postal Service", "brand:wikidata": "Q668687", "collection_times": "Mo-Fr 11:15; Sa 11:00", "name": "USPS COLLECTION BOX - BLUE BOX", "nsi_id": "unitedstatespostalservice-a77078", "operator": "United States Postal Service", "operator:short": "USPS", "operator:type": "public", "operator:wikidata": "Q668687", "ref": "2432500000"}, "type": "Feature"}
{"geometry": {"coordinates": [-80.588668, 36.839292], "type": "Point"}, "id": "gHrzrtB0Xt04txFofiblNF6FT8s=", "properties": {"@spider": "usps_collection_boxes", "addr:city": "DUGSPUR", "addr:country": "US", "addr:full": "60 DOUBLE CABIN RD", "addr:postcode": "24325", "addr:state": "VA", "amenity": "post_box", "brand": "United States Postal Service", "brand:wikidata": "Q668687", "collection_times": "Mo-Fr 11:15; Sa 11:00", "name": "USPS COLLECTION BOX - PO LOBBY", "nsi_id": "unitedstatespostalservice-a77078", "operator": "United States Postal Service", "operator:short": "USPS", "operator:type": "public", "operator:wikidata": "Q668687", "ref": "2432500001"}, "type": "Feature"}
{"geometry": {"coordinates": [-80.588355738, 36.839274553], "type": "Point"}, "id": "SUR6a2uCNXR65aDML3fJek0Dxb8=", "properties": {"@spider": "usps_collection_boxes", "addr:city": "DUGSPUR", "addr:country": "US", "addr:full": "60 DOUBLE CABIN RD", "addr:postcode": "24325", "addr:state": "VA", "amenity": "post_box", "brand": "United States Postal Service", "brand:wikidata": "Q668687", "collection_times": "Mo-Fr 11:30; Sa 11:00", "name": "USPS COLLECTION BOX - PO LOBBY", "nsi_id": "unitedstatespostalservice-a77078", "operator": "United States Postal Service", "operator:short": "USPS", "operator:type": "public", "operator:wikidata": "Q668687", "ref": "2432500003"}, "type": "Feature"}
{"geometry": {"coordinates": [-81.169108, 36.718703], "type": "Point"}, "id": "333PV4zIyKiNlVuODsQ2worn6Xk=", "properties": {"@spider": "usps_collection_boxes", "addr:city": "ELK CREEK", "addr:country": "US", "addr:full": "62 COMERS ROCK RD", "addr:postcode": "24326", "addr:state": "VA", "amenity": "post_box", "brand": "United States Postal Service", "brand:wikidata": "Q668687", "collection_times": "Mo-Fr 14:15; Sa 11:00", "name": "USPS COLLECTION BOX - BLUE BOX", "note": "ON 12/24 AND 12/31, THIS BOX MAY BE COLLECTED AS EARLY AS 12 NOON.", "nsi_id": "unitedstatespostalservice-a77078", "operator": "United States Postal Service", "operator:short": "USPS", "operator:type": "public", "operator:wikidata": "Q668687", "ref": "2432600000"}, "type": "Feature"}
{"geometry": {"coordinates": [-81.16904, 36.718654], "type": "Point"}, "id": "j8XDB_VQ54cyUDS4NHcOYXf0ntk=", "properties": {"@spider": "usps_collection_boxes", "addr:city": "ELK CREEK", "addr:country": "US", "addr:full": "62 COMERS ROCK RD", "addr:postcode": "24326", "addr:state": "VA", "amenity": "post_box", "brand": "United States Postal Service", "brand:wikidata": "Q668687", "collection_times": "Mo-Fr 14:15; Sa 11:00", "name": "USPS COLLECTION BOX - PO LOBBY", "note": "ON 12/24 AND 12/31, THIS BOX MAY BE COLLECTED AS EARLY AS 12 NOON.", "nsi_id": "unitedstatespostalservice-a77078", "operator": "United States Postal Service", "operator:short": "USPS", "operator:type": "public", "operator:wikidata": "Q668687", "ref": "2432600001"}, "type": "Feature"}
{"geometry": {"coordinates": [-81.169072289, 36.718728636], "type": "Point"}, "id": "zFLx_iayLq6_G-x_ZDVczK-3pwM=", "properties": {"@spider": "usps_collection_boxes", "addr:city": "ELK CREEK", "addr:country": "US", "addr:full": "62 COMERS ROCK RD", "addr:postcode": "24326", "addr:state": "VA", "amenity": "post_box", "brand": "United States Postal Service", "brand:wikidata": "Q668687", "collection_times": "Mo-Fr 14:30; Sa 11:00", "name": "USPS COLLECTION BOX - PO LOBBY", "note": "ON 12/24 AND 12/31, THIS BOX MAY BE COLLECTED AS EARLY AS 12 NOON.", "nsi_id": "unitedstatespostalservice-a77078", "operator": "United States Postal Service", "operator:short": "USPS", "operator:type": "public", "operator:wikidata": "Q668687", "ref": "2432600003"}, "type": "Feature"}
{"geometry": {"coordinates": [-81.827922997, 36.7753845], "type": "Point"}, "id": "Jc2k0bFK9vtH96UsMa9svX9dnhs=", "properties": {"@spider": "usps_collection_boxes", "addr:city": "EMORY", "addr:country": "US", "addr:full": "31045 OXFORD AVE", "addr:postcode": "24327", "addr:state": "VA", "amenity": "post_box", "brand": "United States Postal Service", "brand:wikidata": "Q668687", "collection_times": "Mo-Fr 12:00; Sa 11:00", "name": "USPS COLLECTION BOX - BLUE BOX", "nsi_id": "unitedstatespostalservice-a77078", "operator": "United States Postal Service", "operator:short": "USPS", "operator:type": "public", "operator:wikidata": "Q668687", "ref": "2432700000"}, "type": "Feature"}
{"geometry": {"coordinates": [-81.827922997, 36.7753845], "type": "Point"}, "id": "gkh_xDhEteILdbFADZF1VdZqMvg=", "properties": {"@spider": "usps_collection_boxes", "addr:city": "EMORY", "addr:country": "US", "addr:full": "31045 OXFORD AVE", "addr:postcode": "24327", "addr:state": "VA", "amenity": "post_box", "brand": "United States Postal Service", "brand:wikidata": "Q668687", "collection_times": "Mo-Fr 12:00; Sa 11:00", "name": "USPS COLLECTION BOX - PO LOBBY", "nsi_id": "unitedstatespostalservice-a77078", "operator": "United States Postal Service", "operator:short": "USPS", "operator:type": "public", "operator:wikidata": "Q668687", "ref": "2432700001"}, "type": "Feature"}
{"geometry": {"coordinates": [-81.827922997, 36.7753845], "type": "Point"}, "id": "Qfu6Kmtme5_9HE965BmH8ZEl25o=", "properties": {"@spider": "usps_collection_boxes", "addr:city": "EMORY", "addr:country": "US", "addr:full": "31045 OXFORD AVE", "addr:postcode": "24327", "addr:state": "VA", "amenity": "post_box", "brand": "United States Postal Service", "brand:wikidata": "Q668687", "collection_times": "Mo-Fr 12:00; Sa 11:00", "name": "USPS COLLECTION BOX - PO LOBBY", "nsi_id": "unitedstatespostalservice-a77078", "operator": "United States Postal Service", "operator:short": "USPS", "operator:type": "public", "operator:wikidata": "Q668687", "ref": "2432700003"}, "type": "Feature"}
{"geometry": {"coordinates": [-80.6932886, 36.670037], "type": "Point"}, "id": "3WDYeRABmfYNl74hHfGjDjkufDo=", "properties": {"@spider": "usps_collection_boxes", "addr:city": "FANCY GAP", "addr:country": "US", "addr:full": "7608 FANCY GAP HWY", "addr:postcode": "24328", "addr:state": "VA", "amenity": "post_box", "brand": "United States Postal Service", "brand:wikidata": "Q668687", "collection_times": "Mo-Fr 14:00; Sa 10:00", "name": "USPS COLLECTION BOX - BLUE BOX", "note": "ON 12/24 AND 12/31, THIS BOX MAY BE COLLECTED AS EARLY AS 12 NOON.", "nsi_id": "unitedstatespostalservice-a77078", "operator": "United States Postal Service", "operator:short": "USPS", "operator:type": "public", "operator:wikidata": "Q668687", "ref": "2432800000"}, "type": "Feature"}
{"geometry": {"coordinates": [-80.692978, 36.669692], "type": "Point"}, "id": "72_3-txlbpTUpZTbwuO5md9K9MU=", "properties": {"@spider": "usps_collection_boxes", "addr:city": "FANCY GAP", "addr:country": "US", "addr:full": "7608 FANCY GAP HWY", "addr:postcode": "24328", "addr:state": "VA", "amenity": "post_box", "brand": "United States Postal Service", "brand:wikidata": "Q668687", "collection_times": "Mo-Fr 14:00; Sa 10:00", "name": "USPS COLLECTION BOX - PO LOBBY", "note": "ON 12/24 AND 12/31, THIS BOX MAY BE COLLECTED AS EARLY AS 12 NOON.", "nsi_id": "unitedstatespostalservice-a77078", "operator": "United States Postal Service", "operator:short": "USPS", "operator:type": "public", "operator:wikidata": "Q668687", "ref": "2432800001"}, "type": "Feature"}
{"geometry": {"coordinates": [-80.693241986, 36.67012111], "type": "Point"}, "id": "9kens_OAwcBy8Tf_JhTHHl8IyfI=", "properties": {"@spider": "usps_collection_boxes", "addr:city": "FANCY GAP", "addr:country": "US", "addr:full": "7608 FANCY GAP HWY", "addr:postcode": "24328", "addr:state": "VA", "amenity": "post_box", "brand": "United States Postal Service", "brand:wikidata": "Q668687", "collection_times": "Mo-Fr 14:15; Sa 10:45", "name": "USPS COLLECTION BOX - PO LOBBY", "note": "ON 12/24 AND 12/31, THIS BOX MAY BE COLLECTED AS EARLY AS 12 NOON.", "nsi_id": "unitedstatespostalservice-a77078", "operator": "United States Postal Service", "operator:short": "USPS", "operator:type": "public", "operator:wikidata": "Q668687", "ref": "2432800003"}, "type": "Feature"}
{"geometry": {"coordinates": [-80.979877079, 36.716242988], "type": "Point"}, "id": "j2pchavqlQXVOKW5jw8F4ugWr_I=", "properties": {"@spider": "usps_collection_boxes", "addr:city": "FRIES", "addr:country": "US", "addr:full": "491 W MAIN ST", "addr:postcode": "24330", "addr:state": "VA", "amenity": "post_box", "brand": "United States Postal Service", "brand:wikidata": "Q668687", "collection_times": "Mo-Fr 16:00; Sa 10:45", "name": "USPS COLLECTION BOX - BLUE BOX", "note": "ON 12/24 AND 12/31, THIS BOX MAY BE COLLECTED AS EARLY AS 12 NOON.", "nsi_id": "unitedstatespostalservice-a77078", "operator": "United States Postal Service", "operator:short": "USPS", "operator:type": "public", "operator:wikidata": "Q668687", "ref": "2433000000"}, "type": "Feature"}
{"geometry": {"coordinates": [-80.979877079, 36.716242988], "type": "Point"}, "id": "cUETTSRJv8HoEdmkRk-I7NGY5EM=", "properties": {"@spider": "usps_collection_boxes", "addr:city": "FRIES", "addr:country": "US", "addr:full": "491 W MAIN ST", "addr:postcode": "24330", "addr:state": "VA", "amenity": "post_box", "brand": "United States Postal Service", "brand:wikidata": "Q668687", "collection_times": "Mo-Fr 16:00; Sa 10:45", "name": "USPS COLLECTION BOX - PO LOBBY", "note": "ON 12/24 AND 12/31, THIS BOX MAY BE COLLECTED AS EARLY AS 12 NOON.", "nsi_id": "unitedstatespostalservice-a77078", "operator": "United States Postal Service", "operator:short": "USPS", "operator:type": "public", "operator:wikidata": "Q668687", "ref": "2433000001"}, "type": "Feature"}
{"geometry": {"coordinates": [-80.979877079, 36.716242988], "type": "Point"}, "id": "A5d67NL1AIaxC6grqfJgml70qDg=", "properties": {"@spider": "usps_collection_boxes", "addr:city": "FRIES", "addr:country": "US", "addr:full": "491 W MAIN ST", "addr:postcode": "24330", "addr:state": "VA", "amenity": "post_box", "brand": "United States Postal Service", "brand:wikidata": "Q668687", "collection_times": "Mo-Fr 16:15; Sa 11:00", "name": "USPS COLLECTION BOX - PO LOBBY", "note": "ON 12/24 AND 12/31, THIS BOX MAY BE COLLECTED AS EARLY AS 12 NOON.", "nsi_id": "unitedstatespostalservice-a77078", "operator": "United States Postal Service", "operator:short": "USPS", "operator:type": "public", "operator:wikidata": "Q668687", "ref": "2433000003"}, "type": "Feature"}
{"geometry": {"coordinates": [-80.894862004, 36.681489012], "type": "Point"}, "id": "yXdOy05x3OArRbt_Y7ZIV2Kk-pM=", "properties": {"@spider": "usps_collection_boxes", "addr:city": "GALAX", "addr:country": "US", "addr:full": "972 E STUART DR", "addr:postcode": "24333", "addr:state": "VA", "amenity": "post_box", "brand": "United States Postal Service", "brand:wikidata": "Q668687", "collection_times": "Mo-Fr 12:00", "name": "USPS COLLECTION BOX - BLUE BOX", "nsi_id": "unitedstatespostalservice-a77078", "operator": "United States Postal Service", "operator:short": "USPS", "operator:type": "public", "operator:wikidata": "Q668687", "ref": "2433300000"}, "type": "Feature"}
{"geometry": {"coordinates": [-80.9245419879, 36.6620579998], "type": "Point"}, "id": "RNycZzy0ADrAkiqFbjqeqv8SWLM=", "properties": {"@spider": "usps_collection_boxes", "addr:city": "GALAX", "addr:country": "US", "addr:full": "101 N MAIN ST", "addr:postcode": "24333", "addr:state": "VA", "amenity": "post_box", "brand": "United States Postal Service", "brand:wikidata": "Q668687", "collection_times": "Mo-Fr 15:30", "name": "USPS COLLECTION BOX - BLUE BOX", "note": "ON 12/24 AND 12/31, THIS BOX MAY BE COLLECTED AS EARLY AS 12 NOON.", "nsi_id": "unitedstatespostalservice-a77078", "operator": "United States Postal Service", "operator:short": "USPS", "operator:type": "public", "operator:wikidata": "Q668687", "ref": "2433300001"}, "type": "Feature"}
{"geometry": {"coordinates": [-80.92366341, 36.662252306], "type": "Point"}, "id": "O9X3rfXCuzFENpVL6SDnAmyZg8A=", "properties": {"@spider": "usps_collection_boxes", "addr:city": "GALAX", "addr:country": "US", "addr:full": "200 E GRAYSON ST", "addr:postcode": "24333", "addr:state": "VA", "amenity": "post_box", "brand": "United States Postal Service", "brand:wikidata": "Q668687", "collection_times": "Mo-Fr 16:45; Sa 15:30", "name": "USPS COLLECTION BOX - BLUE BOX", "note": "ON 12/24 AND 12/31, THIS BOX MAY BE COLLECTED AS EARLY AS 12 NOON.", "nsi_id": "unitedstatespostalservice-a77078", "operator": "United States Postal Service", "operator:short": "USPS", "operator:type": "public", "operator:wikidata": "Q668687", "ref": "2433300008"}, "type": "Feature"}
{"geometry": {"coordinates": [-80.92366341, 36.662252306], "type": "Point"}, "id": "D2BUaNIX7ift89b1h1NIw8lwQwA=", "properties": {"@spider": "usps_collection_boxes", "addr:city": "GALAX", "addr:country": "US", "addr:full": "200 E GRAYSON ST", "addr:postcode": "24333", "addr:state": "VA", "amenity": "post_box", "brand": "United States Postal Service", "brand:wikidata": "Q668687", "collection_times": "Mo-Fr 16:45; Sa 15:30", "name": "USPS COLLECTION BOX - BLUE BOX", "note": "ON 12/24 AND 12/31, THIS BOX MAY BE COLLECTED AS EARLY AS 12 NOON.", "nsi_id": "unitedstatespostalservice-a77078", "operator": "United States Postal Service", "operator:short": "USPS", "operator:type": "public", "operator:wikidata": "Q668687", "ref": "2433300009"}, "type": "Feature"}
{"geometry": {"coordinates": [-80.9236702018, 36.6720020758], "type": "Point"}, "id": "9JSOxwVNnoAOtyRST-4Ir0W4prc=", "properties": {"@spider": "usps_collection_boxes", "addr:city": "GALAX", "addr:country": "US", "addr:full": "199 HOSPITAL DR", "addr:postcode": "24333", "addr:state": "VA", "amenity": "post_box", "brand": "United States Postal Service", "brand:wikidata": "Q668687", "collection_times": "Mo-Fr 10:00", "name": "USPS COLLECTION BOX - BLUE BOX", "nsi_id": "unitedstatespostalservice-a77078", "operator": "United States Postal Service", "operator:short": "USPS", "operator:type": "public", "operator:wikidata": "Q668687", "ref": "2433300017"}, "type": "Feature"}
{"geometry": {"coordinates": [-80.92366341, 36.662252306], "type": "Point"}, "id": "EALbwlUdW8iJ2OUSImyXLeM_MsY=", "properties": {"@spider": "usps_collection_boxes", "addr:city": "GALAX", "addr:country": "US", "addr:full": "200 E GRAYSON ST", "addr:postcode": "24333", "addr:state": "VA", "amenity": "post_box", "brand": "United States Postal Service", "brand:wikidata": "Q668687", "collection_times": "Mo-Fr 16:45; Sa 15:30", "name": "USPS COLLECTION BOX - PO LOBBY", "note": "ON 12/24 AND 12/31, THIS BOX MAY BE COLLECTED AS EARLY AS 12 NOON.", "nsi_id": "unitedstatespostalservice-a77078", "operator": "United States Postal Service", "operator:short": "USPS", "operator:type": "public", "operator:wikidata": "Q668687", "ref": "2433300018"}, "type": "Feature"}
{"geometry": {"coordinates": [-80.92366341, 36.662252306], "type": "Point"}, "id": "XprycUX5SllRJ4QXfuPKmQh3Zt8=", "properties": {"@spider": "usps_collection_boxes", "addr:city": "GALAX", "addr:country": "US", "addr:full": "200 E GRAYSON ST", "addr:postcode": "24333", "addr:state": "VA", "amenity": "post_box", "brand": "United States Postal Service", "brand:wikidata": "Q668687", "collection_times": "Mo-Fr 16:30; Sa 11:30", "name": "USPS COLLECTION BOX - PO LOBBY", "note": "ON 12/24 AND 12/31, THIS BOX MAY BE COLLECTED AS EARLY AS 12 NOON.", "nsi_id": "unitedstatespostalservice-a77078", "operator": "United States Postal Service", "operator:short": "USPS", "operator:type": "public", "operator:wikidata": "Q668687", "ref": "2433300022"}, "type": "Feature"}
{"geometry": {"coordinates": [-81.770074241, 36.790488557], "type": "Point"}, "id": "nTFJRVD9r0Y5tHj0nZMSXhqsIMU=", "properties": {"@spider": "usps_collection_boxes", "addr:city": "GLADE SPRING", "addr:country": "US", "addr:full": "205 E GLADE ST", "addr:postcode": "24340", "addr:state": "VA", "amenity": "post_box", "brand": "United States Postal Service", "brand:wikidata": "Q668687", "collection_times": "Mo-Fr 16:30; Sa 11:00", "name": "USPS COLLECTION BOX - BLUE BOX", "note": "ON 12/24 AND 12/31, THIS BOX MAY BE COLLECTED AS EARLY AS 12 NOON.", "nsi_id": "unitedstatespostalservice-a77078", "operator": "United States Postal Service", "operator:short": "USPS", "operator:type": "public", "operator:wikidata": "Q668687", "ref": "2434000000"}, "type": "Feature"}
{"geometry": {"coordinates": [-81.770074241, 36.790488557], "type": "Point"}, "id": "3S2oy6kpEAP8O_acOZp79BLU-g8=", "properties": {"@spider": "usps_collection_boxes", "addr:city": "GLADE SPRING", "addr:country": "US", "addr:full": "205 E GLADE ST", "addr:postcode": "24340", "addr:state": "VA", "amenity": "post_box", "brand": "United States Postal Service", "brand:wikidata": "Q668687", "collection_times": "Mo-Fr 16:30; Sa 11:00", "name": "USPS COLLECTION BOX - PO LOBBY", "note": "ON 12/24 AND 12/31, THIS BOX MAY BE COLLECTED AS EARLY AS 12 NOON.", "nsi_id": "unitedstatespostalservice-a77078", "operator": "United States Postal Service", "operator:short": "USPS", "operator:type": "public", "operator:wikidata": "Q668687", "ref": "2434000001"}, "type": "Feature"}
{"geometry": {"coordinates": [-81.7798685, 36.780217], "type": "Point"}, "id": "jsynz4VgU41o-3-Ha4DH_g0MWuY=", "properties": {"@spider": "usps_collection_boxes", "addr:city": "GLADE SPRING", "addr:country": "US", "addr:full": "656 S MONTE VISTA DR", "addr:postcode": "24340", "addr:state": "VA", "amenity": "post_box", "brand": "United States Postal Service", "brand:wikidata": "Q668687", "collection_times": "Mo-Sa 13:00", "name": "USPS COLLECTION BOX - BLUE BOX", "note": "ON 12/24 AND 12/31, THIS BOX MAY BE COLLECTED AS EARLY AS 12 NOON.", "nsi_id": "unitedstatespostalservice-a77078", "operator": "United States Postal Service", "operator:short": "USPS", "operator:type": "public", "operator:wikidata": "Q668687", "ref": "2434000002"}, "type": "Feature"}
{"geometry": {"coordinates": [-81.7792552, 36.771092], "type": "Point"}, "id": "egFVh_qdCYmPftG9FGFh5VNKC9g=", "properties": {"@spider": "usps_collection_boxes", "addr:city": "GLADE SPRING", "addr:country": "US", "addr:full": "12433 MAPLE ST", "addr:postcode": "24340", "addr:state": "VA", "amenity": "post_box", "brand": "United States Postal Service", "brand:wikidata": "Q668687", "collection_times": "Mo-Sa 13:00", "name": "USPS COLLECTION BOX - BLUE BOX", "note": "ON 12/24 AND 12/31, THIS BOX MAY BE COLLECTED AS EARLY AS 12 NOON.", "nsi_id": "unitedstatespostalservice-a77078", "operator": "United States Postal Service", "operator:short": "USPS", "operator:type": "public", "operator:wikidata": "Q668687", "ref": "2434000003"}, "type": "Feature"}
{"geometry": {"coordinates": [-81.770074241, 36.790488557], "type": "Point"}, "id": "UKhctAnZynazD_ZThUIlpDUt9MM=", "properties": {"@spider": "usps_collection_boxes", "addr:city": "GLADE SPRING", "addr:country": "US", "addr:full": "205 E GLADE ST", "addr:postcode": "24340", "addr:state": "VA", "amenity": "post_box", "brand": "United States Postal Service", "brand:wikidata": "Q668687", "collection_times": "Mo-Fr 16:30; Sa 11:00", "name": "USPS COLLECTION BOX - PO LOBBY", "note": "ON 12/24 AND 12/31, THIS BOX MAY BE COLLECTED AS EARLY AS 12 NOON.", "nsi_id": "unitedstatespostalservice-a77078", "operator": "United States Postal Service", "operator:short": "USPS", "operator:type": "public", "operator:wikidata": "Q668687", "ref": "2434000005"}, "type": "Feature"}
{"geometry": {"coordinates": [-80.733504806, 36.757483681], "type": "Point"}, "id": "JpRkQ_7UjaUFKr8HTbpxcZh0C4k=", "properties": {"@spider": "usps_collection_boxes", "addr:city": "HILLSVILLE", "addr:country": "US", "addr:full": "404 S MAIN ST", "addr:postcode": "24343", "addr:state": "VA", "amenity": "post_box", "brand": "United States Postal Service", "brand:wikidata": "Q668687", "collection_times": "Mo-Fr 16:45; Sa 11:15", "name": "USPS COLLECTION BOX - BLUE BOX", "note": "ON 12/24 AND 12/31, THIS BOX MAY BE COLLECTED AS EARLY AS 12 NOON.", "nsi_id": "unitedstatespostalservice-a77078", "operator": "United States Postal Service", "operator:short": "USPS", "operator:type": "public", "operator:wikidata": "Q668687", "ref": "2434300001"}, "type": "Feature"}
{"geometry": {"coordinates": [-80.733504806, 36.757483681], "type": "Point"}, "id": "A9v4h2Sn_DbdbYTh4tutT2jCAS4=", "properties": {"@spider": "usps_collection_boxes", "addr:city": "HILLSVILLE", "addr:country": "US", "addr:full": "404 S MAIN ST", "addr:postcode": "24343", "addr:state": "VA", "amenity": "post_box", "brand": "United States Postal Service", "brand:wikidata": "Q668687", "collection_times": "Mo-Fr 16:45; Sa 11:15", "name": "USPS COLLECTION BOX - BLUE BOX", "note": "ON 12/24 AND 12/31, THIS BOX MAY BE COLLECTED AS EARLY AS 12 NOON.", "nsi_id": "unitedstatespostalservice-a77078", "operator": "United States Postal Service", "operator:short": "USPS", "operator:type": "public", "operator:wikidata": "Q668687", "ref": "2434300002"}, "type": "Feature"}
{"geometry": {"coordinates": [-80.733504806, 36.757483681], "type": "Point"}, "id": "fnr7nGaj5DGddJ1qTzvtEf88Vys=", "properties": {"@spider": "usps_collection_boxes", "addr:city": "HILLSVILLE", "addr:country": "US", "addr:full": "404 S MAIN ST", "addr:postcode": "24343", "addr:state": "VA", "amenity": "post_box", "brand": "United States Postal Service", "brand:wikidata": "Q668687", "collection_times": "Mo-Fr 16:45; Sa 11:30", "name": "USPS COLLECTION BOX - PO LOBBY", "note": "ON 12/24 AND 12/31, THIS BOX MAY BE COLLECTED AS EARLY AS 12 NOON.", "nsi_id": "unitedstatespostalservice-a77078", "operator": "United States Postal Service", "operator:short": "USPS", "operator:type": "public", "operator:wikidata": "Q668687", "ref": "2434300003"}, "type": "Feature"}
{"geometry": {"coordinates": [-80.733504806, 36.757483681], "type": "Point"}, "id": "0qNqDBTmIDeuiaaaqcge7Udkopg=", "properties": {"@spider": "usps_collection_boxes", "addr:city": "HILLSVILLE", "addr:country": "US", "addr:full": "404 S MAIN ST", "addr:postcode": "24343", "addr:state": "VA", "amenity": "post_box", "brand": "United States Postal Service", "brand:wikidata": "Q668687", "collection_times": "Mo-Fr 17:00; Sa 11:30", "name": "USPS COLLECTION BOX - PO LOBBY", "note": "ON 12/24 AND 12/31, THIS BOX MAY BE COLLECTED AS EARLY AS 12 NOON.", "nsi_id": "unitedstatespostalservice-a77078", "operator": "United States Postal Service", "operator:short": "USPS", "operator:type": "public", "operator:wikidata": "Q668687", "ref": "2434300006"}, "type": "Feature"}
{"geometry": {"coordinates": [-80.7129363991, 36.9702682492], "type": "Point"}, "id": "NcqK0IUxMJ909fgL6iTD4OS1N5k=", "properties": {"@spider": "usps_collection_boxes", "addr:city": "HIWASSEE", "addr:country": "US", "addr:full": "2298 JULIA SIMPKINS RD", "addr:postcode": "24347", "addr:state": "VA", "amenity": "post_box", "brand": "United States Postal Service", "brand:wikidata": "Q668687", "collection_times": "Mo-Fr 11:15; Sa 10:30", "name": "USPS COLLECTION BOX - BLUE BOX", "nsi_id": "unitedstatespostalservice-a77078", "operator": "United States Postal Service", "operator:short": "USPS", "operator:type": "public", "operator:wikidata": "Q668687", "ref": "2434700000"}, "type": "Feature"}
{"geometry": {"coordinates": [-80.712972, 36.970268], "type": "Point"}, "id": "KCMGdlACh1PJjjcdRNhHf6l_Esc=", "properties": {"@spider": "usps_collection_boxes", "addr:city": "HIWASSEE", "addr:country": "US", "addr:full": "2298 JULIA SIMPKINS RD", "addr:postcode": "24347", "addr:state": "VA", "amenity": "post_box", "brand": "United States Postal Service", "brand:wikidata": "Q668687", "collection_times": "Mo-Fr 11:15; Sa 10:30", "name": "USPS COLLECTION BOX - PO LOBBY", "nsi_id": "unitedstatespostalservice-a77078", "operator": "United States Postal Service", "operator:short": "USPS", "operator:type": "public", "operator:wikidata": "Q668687", "ref": "2434700001"}, "type": "Feature"}
{"geometry": {"coordinates": [-80.712936399, 36.970259249], "type": "Point"}, "id": "VELtItkPgHJObHSYoDS_Tr9t114=", "properties": {"@spider": "usps_collection_boxes", "addr:city": "HIWASSEE", "addr:country": "US", "addr:full": "2298 JULIA SIMPKINS RD", "addr:postcode": "24347", "addr:state": "VA", "amenity": "post_box", "brand": "United States Postal Service", "brand:wikidata": "Q668687", "collection_times": "Mo-Fr 11:30; Sa 10:30", "name": "USPS COLLECTION BOX - PO LOBBY", "nsi_id": "unitedstatespostalservice-a77078", "operator": "United States Postal Service", "operator:short": "USPS", "operator:type": "public", "operator:wikidata": "Q668687", "ref": "2434700003"}, "type": "Feature"}
{"geometry": {"coordinates": [-81.149606556, 36.623426877], "type": "Point"}, "id": "W7Rq_xuYzROX6Qrqc30n3drgwY4=", "properties": {"@spider": "usps_collection_boxes", "addr:city": "INDEPENDENCE", "addr:country": "US", "addr:full": "301 DAVIS ST", "addr:postcode": "24348", "addr:state": "VA", "amenity": "post_box", "brand": "United States Postal Service", "brand:wikidata": "Q668687", "collection_times": "Mo-Fr 16:00; Sa 11:15", "name": "USPS COLLECTION BOX - BLUE BOX", "note": "ON 12/24 AND 12/31, THIS BOX MAY BE COLLECTED AS EARLY AS 12 NOON.", "nsi_id": "unitedstatespostalservice-a77078", "operator": "United States Postal Service", "operator:short": "USPS", "operator:type": "public", "operator:wikidata": "Q668687", "ref": "2434800000"}, "type": "Feature"}
{"geometry": {"coordinates": [-81.1425011, 36.620014], "type": "Point"}, "id": "5g9oJDvEn1rep7LFPeLEgyAjmNk=", "properties": {"@spider": "usps_collection_boxes", "addr:city": "INDEPENDENCE", "addr:country": "US", "addr:full": "572 E MAIN ST", "addr:postcode": "24348", "addr:state": "VA", "amenity": "post_box", "brand": "United States Postal Service", "brand:wikidata": "Q668687", "collection_times": "Mo-Sa 08:00", "name": "USPS COLLECTION BOX - BLUE BOX", "nsi_id": "unitedstatespostalservice-a77078", "operator": "United States Postal Service", "operator:short": "USPS", "operator:type": "public", "operator:wikidata": "Q668687", "ref": "2434800001"}, "type": "Feature"}
{"geometry": {"coordinates": [-81.149606556, 36.623426877], "type": "Point"}, "id": "TOkwQKKEYspO3-lJ-S0SZ6dLk6Q=", "properties": {"@spider": "usps_collection_boxes", "addr:city": "INDEPENDENCE", "addr:country": "US", "addr:full": "301 DAVIS ST", "addr:postcode": "24348", "addr:state": "VA", "amenity": "post_box", "brand": "United States Postal Service", "brand:wikidata": "Q668687", "collection_times": "Mo-Fr 16:00; Sa 11:30", "name": "USPS COLLECTION BOX - PO LOBBY", "note": "ON 12/24 AND 12/31, THIS BOX MAY BE COLLECTED AS EARLY AS 12 NOON.", "nsi_id": "unitedstatespostalservice-a77078", "operator": "United States Postal Service", "operator:short": "USPS", "operator:type": "public", "operator:wikidata": "Q668687", "ref": "2434800002"}, "type": "Feature"}
{"geometry": {"coordinates": [-81.149606556, 36.623426877], "type": "Point"}, "id": "SUQGTIy21lG_sYxbAiJafI0e2o4=", "properties": {"@spider": "usps_collection_boxes", "addr:city": "INDEPENDENCE", "addr:country": "US", "addr:full": "301 DAVIS ST", "addr:postcode": "24348", "addr:state": "VA", "amenity": "post_box", "brand": "United States Postal Service", "brand:wikidata": "Q668687", "collection_times": "Mo-Fr 16:30; Sa 11:30", "name": "USPS COLLECTION BOX - PO LOBBY", "note": "ON 12/24 AND 12/31, THIS BOX MAY BE COLLECTED AS EARLY AS 12 NOON.", "nsi_id": "unitedstatespostalservice-a77078", "operator": "United States Postal Service", "operator:short": "USPS", "operator:type": "public", "operator:wikidata": "Q668687", "ref": "2434800004"}, "type": "Feature"}
{"geometry": {"coordinates": [-80.762136, 36.588559], "type": "Point"}, "id": "z5iv55xgc2O_bKuEq2k3sDOdI60=", "properties": {"@spider": "usps_collection_boxes", "addr:city": "LAMBSBURG", "addr:country": "US", "addr:full": "3291 LAMBSBURG RD", "addr:postcode": "24351", "addr:state": "VA", "amenity": "post_box", "brand": "United States Postal Service", "brand:wikidata": "Q668687", "collection_times": "Mo-Fr 09:45; Sa 11:30", "name": "USPS COLLECTION BOX - BLUE BOX", "nsi_id": "unitedstatespostalservice-a77078", "operator": "United States Postal Service", "operator:short": "USPS", "operator:type": "public", "operator:wikidata": "Q668687", "ref": "2435100000"}, "type": "Feature"}
{"geometry": {"coordinates": [-80.762179, 36.588578], "type": "Point"}, "id": "jRcZJD7Y1Khd32fHihI1eRRvDjE=", "properties": {"@spider": "usps_collection_boxes", "addr:city": "LAMBSBURG", "addr:country": "US", "addr:full": "3291 LAMBSBURG RD", "addr:postcode": "24351", "addr:state": "VA", "amenity": "post_box", "brand": "United States Postal Service", "brand:wikidata": "Q668687", "collection_times": "Mo-Fr 09:45; Sa 11:30", "name": "USPS COLLECTION BOX - PO LOBBY", "nsi_id": "unitedstatespostalservice-a77078", "operator": "United States Postal Service", "operator:short": "USPS", "operator:type": "public", "operator:wikidata": "Q668687", "ref": "2435100001"}, "type": "Feature"}
{"geometry": {"coordinates": [-80.762069575, 36.588419038], "type": "Point"}, "id": "yb5Th9cA_ZGtsBy3HH90Bc-gAjM=", "properties": {"@spider": "usps_collection_boxes", "addr:city": "LAMBSBURG", "addr:country": "US", "addr:full": "3291 LAMBSBURG RD", "addr:postcode": "24351", "addr:state": "VA", "amenity": "post_box", "brand": "United States Postal Service", "brand:wikidata": "Q668687", "collection_times": "Mo-Fr 10:00; Sa 11:30", "name": "USPS COLLECTION BOX - PO LOBBY", "nsi_id": "unitedstatespostalservice-a77078", "operator": "United States Postal Service", "operator:short": "USPS", "operator:type": "public", "operator:wikidata": "Q668687", "ref": "2435100003"}, "type": "Feature"}
{"geometry": {"coordinates": [-80.513989, 36.718584], "type": "Point"}, "id": "Aw0LpyZfse1c45pG_5v3I8AuD-k=", "properties": {"@spider": "usps_collection_boxes", "addr:city": "LAUREL FORK", "addr:country": "US", "addr:full": "14208 DANVILLE PIKE", "addr:postcode": "24352", "addr:state": "VA", "amenity": "post_box", "brand": "United States Postal Service", "brand:wikidata": "Q668687", "collection_times": "Mo-Sa 10:45", "name": "USPS COLLECTION BOX - BLUE BOX", "nsi_id": "unitedstatespostalservice-a77078", "operator": "United States Postal Service", "operator:short": "USPS", "operator:type": "public", "operator:wikidata": "Q668687", "ref": "2435200000"}, "type": "Feature"}
{"geometry": {"coordinates": [-80.513948, 36.718617], "type": "Point"}, "id": "oAivpMr2CezK9pTE9yfb-y08l0w=", "properties": {"@spider": "usps_collection_boxes", "addr:city": "LAUREL FORK", "addr:country": "US", "addr:full": "14208 DANVILLE PIKE", "addr:postcode": "24352", "addr:state": "VA", "amenity": "post_box", "brand": "United States Postal Service", "brand:wikidata": "Q668687", "collection_times": "Mo-Sa 10:45", "name": "USPS COLLECTION BOX - PO LOBBY", "nsi_id": "unitedstatespostalservice-a77078", "operator": "United States Postal Service", "operator:short": "USPS", "operator:type": "public", "operator:wikidata": "Q668687", "ref": "2435200001"}, "type": "Feature"}
{"geometry": {"coordinates": [-80.513934192, 36.718755521], "type": "Point"}, "id": "bDV9E5TYtTX1CSsKH3Oet1dqfmM=", "properties": {"@spider": "usps_collection_boxes", "addr:city": "LAUREL FORK", "addr:country": "US", "addr:full": "14208 DANVILLE PIKE", "addr:postcode": "24352", "addr:state": "VA", "amenity": "post_box", "brand": "United States Postal Service", "brand:wikidata": "Q668687", "collection_times": "Mo-Fr 11:30; Sa 10:45", "name": "USPS COLLECTION BOX - PO LOBBY", "nsi_id": "unitedstatespostalservice-a77078", "operator": "United States Postal Service", "operator:short": "USPS", "operator:type": "public", "operator:wikidata": "Q668687", "ref": "2435200003"}, "type": "Feature"}
{"geometry": {"coordinates": [-81.5019727, 36.845648], "type": "Point"}, "id": "qbHEMuZp3du9RxzkQA2Tw0Rq2qs=", "properties": {"@spider": "usps_collection_boxes", "addr:city": "MARION", "addr:country": "US", "addr:full": "1183 N MAIN ST", "addr:postcode": "24354", "addr:state": "VA", "amenity": "post_box", "brand": "United States Postal Service", "brand:wikidata": "Q668687", "collection_times": "Mo-Sa 10:00", "name": "USPS COLLECTION BOX - BLUE BOX", "nsi_id": "unitedstatespostalservice-a77078", "operator": "United States Postal Service", "operator:short": "USPS", "operator:type": "public", "operator:wikidata": "Q668687", "ref": "2435400002"}, "type": "Feature"}
{"geometry": {"coordinates": [-81.4925185, 36.84757], "type": "Point"}, "id": "DyXBKx4aE4sco37sVPfBAyIQlxw=", "properties": {"@spider": "usps_collection_boxes", "addr:city": "MARION", "addr:country": "US", "addr:full": "1581 N MAIN ST", "addr:postcode": "24354", "addr:state": "VA", "amenity": "post_box", "brand": "United States Postal Service", "brand:wikidata": "Q668687", "collection_times": "Mo-Sa 10:00", "name": "USPS COLLECTION BOX - BLUE BOX", "nsi_id": "unitedstatespostalservice-a77078", "operator": "United States Postal Service", "operator:short": "USPS", "operator:type": "public", "operator:wikidata": "Q668687", "ref": "2435400003"}, "type": "Feature"}
{"geometry": {"coordinates": [-81.4944229, 36.845921], "type": "Point"}, "id": "z5ddY0gha2Vjhq9YDzdODa594V4=", "properties": {"@spider": "usps_collection_boxes", "addr:city": "MARION", "addr:country": "US", "addr:full": "1409 N MAIN ST", "addr:postcode": "24354", "addr:state": "VA", "amenity": "post_box", "brand": "United States Postal Service", "brand:wikidata": "Q668687", "collection_times": "Mo-Sa 10:00", "name": "USPS COLLECTION BOX - BLUE BOX", "nsi_id": "unitedstatespostalservice-a77078", "operator": "United States Postal Service", "operator:short": "USPS", "operator:type": "public", "operator:wikidata": "Q668687", "ref": "2435400004"}, "type": "Feature"}
{"geometry": {"coordinates": [-81.5086883, 36.850728], "type": "Point"}, "id": "KfOQfWofo13YSy5mE6mno9W2nuw=", "properties": {"@spider": "usps_collection_boxes", "addr:city": "MARION", "addr:country": "US", "addr:full": "590 RADIO HILL RD", "addr:postcode": "24354", "addr:state": "VA", "amenity": "post_box", "brand": "United States Postal Service", "brand:wikidata": "Q668687", "collection_times": "Mo-Sa 10:00", "name": "USPS COLLECTION BOX - BLUE BOX", "nsi_id": "unitedstatespostalservice-a77078", "operator": "United States Postal Service", "operator:short": "USPS", "operator:type": "public", "operator:wikidata": "Q668687", "ref": "2435400005"}, "type": "Feature"}
{"geometry": {"coordinates": [-81.5197534, 36.832829], "type": "Point"}, "id": "fsCKMh5Zf3jt0w9EoBNNEb-_h4U=", "properties": {"@spider": "usps_collection_boxes", "addr:city": "MARION", "addr:country": "US", "addr:full": "102 W MAIN ST", "addr:postcode": "24354", "addr:state": "VA", "amenity": "post_box", "brand": "United States Postal Service", "brand:wikidata": "Q668687", "collection_times": "Mo-Sa 10:00", "name": "USPS COLLECTION BOX - BLUE BOX", "nsi_id": "unitedstatespostalservice-a77078", "operator": "United States Postal Service", "operator:short": "USPS", "operator:type": "public", "operator:wikidata": "Q668687", "ref": "2435400007"}, "type": "Feature"}
{"geometry": {"coordinates": [-81.5197618, 36.83285], "type": "Point"}, "id": "4oHMyJxQySSjRjLeVUMjgzu2mtY=", "properties": {"@spider": "usps_collection_boxes", "addr:city": "MARION", "addr:country": "US", "addr:full": "102 W MAIN ST", "addr:postcode": "24354", "addr:state": "VA", "amenity": "post_box", "brand": "United States Postal Service", "brand:wikidata": "Q668687", "collection_times": "Mo-Sa 10:00", "name": "USPS COLLECTION BOX - BLUE BOX", "nsi_id": "unitedstatespostalservice-a77078", "operator": "United States Postal Service", "operator:short": "USPS", "operator:type": "public", "operator:wikidata": "Q668687", "ref": "2435400010"}, "type": "Feature"}
{"geometry": {"coordinates": [-81.5070919862, 36.840796494], "type": "Point"}, "id": "5a4EkeENRdO5a6uhsZd__v3me-Q=", "properties": {"@spider": "usps_collection_boxes", "addr:city": "MARION", "addr:country": "US", "addr:full": "910 N MAIN ST", "addr:postcode": "24354", "addr:state": "VA", "amenity": "post_box", "brand": "United States Postal Service", "brand:wikidata": "Q668687", "collection_times": "Mo-Sa 10:00", "name": "USPS COLLECTION BOX - BLUE BOX", "nsi_id": "unitedstatespostalservice-a77078", "operator": "United States Postal Service", "operator:short": "USPS", "operator:type": "public", "operator:wikidata": "Q668687", "ref": "2435400017"}, "type": "Feature"}
{"geometry": {"coordinates": [-81.516927143, 36.832784682], "type": "Point"}, "id": "HupiIdia-HZUz2fEsCGAoMD_9LY=", "properties": {"@spider": "usps_collection_boxes", "addr:city": "MARION", "addr:country": "US", "addr:full": "200 PEARL AVE", "addr:postcode": "24354", "addr:state": "VA", "amenity": "post_box", "brand": "United States Postal Service", "brand:wikidata": "Q668687", "collection_times": "Mo-Sa 10:00", "name": "USPS COLLECTION BOX - BLUE BOX", "nsi_id": "unitedstatespostalservice-a77078", "operator": "United States Postal Service", "operator:short": "USPS", "operator:type": "public", "operator:wikidata": "Q668687", "ref": "2435400018"}, "type": "Feature"}
{"geometry": {"coordinates": [-81.516927143, 36.832784682], "type": "Point"}, "id": "M7zVZ6u2Z5lweZ8bowMCCR7kpxc=", "properties": {"@spider": "usps_collection_boxes", "addr:city": "MARION", "addr:country": "US", "addr:full": "200 PEARL AVE", "addr:postcode": "24354", "addr:state": "VA", "amenity": "post_box", "brand": "United States Postal Service", "brand:wikidata": "Q668687", "collection_times": "Mo-Sa 10:00", "name": "USPS COLLECTION BOX - PO LOBBY", "nsi_id": "unitedstatespostalservice-a77078", "operator": "United States Postal Service", "operator:short": "USPS", "operator:type": "public", "operator:wikidata": "Q668687", "ref": "2435400020"}, "type": "Feature"}
{"geometry": {"coordinates": [-81.5134579, 36.833506], "type": "Point"}, "id": "6KqEtifORmHbnNLZplS-e5yMUAA=", "properties": {"@spider": "usps_collection_boxes", "addr:city": "MARION", "addr:country": "US", "addr:full": "121 BAGLEY CIR", "addr:postcode": "24354", "addr:state": "VA", "amenity": "post_box", "brand": "United States Postal Service", "brand:wikidata": "Q668687", "collection_times": "Mo-Sa 10:00", "name": "USPS COLLECTION BOX - BLUE BOX", "nsi_id": "unitedstatespostalservice-a77078", "operator": "United States Postal Service", "operator:short": "USPS", "operator:type": "public", "operator:wikidata": "Q668687", "ref": "2435400022"}, "type": "Feature"}
{"geometry": {"coordinates": [-81.5049849, 36.846671], "type": "Point"}, "id": "VkyWdTsGQPif3UnDwAPPA5GbURI=", "properties": {"@spider": "usps_collection_boxes", "addr:city": "MARION", "addr:country": "US", "addr:full": "1020 TERRACE DR", "addr:postcode": "24354", "addr:state": "VA", "amenity": "post_box", "brand": "United States Postal Service", "brand:wikidata": "Q668687", "collection_times": "Mo-Sa 10:00", "name": "USPS COLLECTION BOX - BLUE BOX", "nsi_id": "unitedstatespostalservice-a77078", "operator": "United States Postal Service", "operator:short": "USPS", "operator:type": "public", "operator:wikidata": "Q668687", "ref": "2435400023"}, "type": "Feature"}
{"geometry": {"coordinates": [-81.516927143, 36.832784682], "type": "Point"}, "id": "Kg7_21IvgNrSEm9kOYfF0T-6Yxs=", "properties": {"@spider": "usps_collection_boxes", "addr:city": "MARION", "addr:country": "US", "addr:full": "200 PEARL AVE", "addr:postcode": "24354", "addr:state": "VA", "amenity": "post_box", "brand": "United States Postal Service", "brand:wikidata": "Q668687", "collection_times": "Mo-Fr 17:00; Sa 12:00", "name": "USPS COLLECTION BOX - PO LOBBY", "note": "ON 12/24 AND 12/31, THIS BOX MAY BE COLLECTED AS EARLY AS 12 NOON.", "nsi_id": "unitedstatespostalservice-a77078", "operator": "United States Postal Service", "operator:short": "USPS", "operator:type": "public", "operator:wikidata": "Q668687", "ref": "2435400026"}, "type": "Feature"}
{"geometry": {"coordinates": [-80.948449894, 36.970421116], "type": "Point"}, "id": "4GQofWJdk9Ph4h5CCFj6e5mj7Xo=", "properties": {"@spider": "usps_collection_boxes", "addr:city": "MAX MEADOWS", "addr:country": "US", "addr:full": "1427 RAMSEY MOUNTAIN RD", "addr:postcode": "24360", "addr:state": "VA", "amenity": "post_box", "brand": "United States Postal Service", "brand:wikidata": "Q668687", "collection_times": "Mo-Fr 16:30; Sa 11:00", "name": "USPS COLLECTION BOX - BLUE BOX", "note": "ON 12/24 AND 12/31, THIS BOX MAY BE COLLECTED AS EARLY AS 12 NOON.", "nsi_id": "unitedstatespostalservice-a77078", "operator": "United States Postal Service", "operator:short": "USPS", "operator:type": "public", "operator:wikidata": "Q668687", "ref": "2436000000"}, "type": "Feature"}
{"geometry": {"coordinates": [-80.9461880014, 36.9449380119], "type": "Point"}, "id": "UNSm3izruPEooh71IDIFFbUNH9s=", "properties": {"@spider": "usps_collection_boxes", "addr:city": "MAX MEADOWS", "addr:country": "US", "addr:full": "139 FACTORY OUTLET DR", "addr:postcode": "24360", "addr:state": "VA", "amenity": "post_box", "brand": "United States Postal Service", "brand:wikidata": "Q668687", "collection_times": "Mo-Sa 13:00", "name": "USPS COLLECTION BOX - BLUE BOX", "note": "ON 12/24 AND 12/31, THIS BOX MAY BE COLLECTED AS EARLY AS 12 NOON.", "nsi_id": "unitedstatespostalservice-a77078", "operator": "United States Postal Service", "operator:short": "USPS", "operator:type": "public", "operator:wikidata": "Q668687", "ref": "2436000001"}, "type": "Feature"}
{"geometry": {"coordinates": [-80.9448284, 36.9745621], "type": "Point"}, "id": "z0_NDn0zzsHiovrkFZpUbXw3ca0=", "properties": {"@spider": "usps_collection_boxes", "addr:city": "MAX MEADOWS", "addr:country": "US", "addr:full": "787 FORT CHISWELL RD", "addr:postcode": "24360", "addr:state": "VA", "amenity": "post_box", "brand": "United States Postal Service", "brand:wikidata": "Q668687", "collection_times": "Mo-Fr 11:00; Sa 12:30", "name": "USPS COLLECTION BOX - BLUE BOX", "note": "ON 12/24 AND 12/31, THIS BOX MAY BE COLLECTED AS EARLY AS 12 NOON.", "nsi_id": "unitedstatespostalservice-a77078", "operator": "United States Postal Service", "operator:short": "USPS", "operator:type": "public", "operator:wikidata": "Q668687", "ref": "2436000003"}, "type": "Feature"}
{"geometry": {"coordinates": [-80.948449894, 36.970421116], "type": "Point"}, "id": "O4BV4qc1_SnThxdV9vF2FQuRtKU=", "properties": {"@spider": "usps_collection_boxes", "addr:city": "MAX MEADOWS", "addr:country": "US", "addr:full": "1427 RAMSEY MOUNTAIN RD", "addr:postcode": "24360", "addr:state": "VA", "amenity": "post_box", "brand": "United States Postal Service", "brand:wikidata": "Q668687", "collection_times": "Mo-Fr 16:30; Sa 11:00", "name": "USPS COLLECTION BOX - PO LOBBY", "note": "ON 12/24 AND 12/31, THIS BOX MAY BE COLLECTED AS EARLY AS 12 NOON.", "nsi_id": "unitedstatespostalservice-a77078", "operator": "United States Postal Service", "operator:short": "USPS", "operator:type": "public", "operator:wikidata": "Q668687", "ref": "2436000005"}, "type": "Feature"}
{"geometry": {"coordinates": [-80.948449894, 36.970421116], "type": "Point"}, "id": "oxW4Xiiwksls3pv-lnT1A7RaRtk=", "properties": {"@spider": "usps_collection_boxes", "addr:city": "MAX MEADOWS", "addr:country": "US", "addr:full": "1427 RAMSEY MOUNTAIN RD", "addr:postcode": "24360", "addr:state": "VA", "amenity": "post_box", "brand": "United States Postal Service", "brand:wikidata": "Q668687", "collection_times": "Mo-Fr 16:30; Sa 11:00", "name": "USPS COLLECTION BOX - PO LOBBY", "note": "ON 12/24 AND 12/31, THIS BOX MAY BE COLLECTED AS EARLY AS 12 NOON.", "nsi_id": "unitedstatespostalservice-a77078", "operator": "United States Postal Service", "operator:short": "USPS", "operator:type": "public", "operator:wikidata": "Q668687", "ref": "2436000007"}, "type": "Feature"}
{"geometry": {"coordinates": [-81.861239755, 36.761931753], "type": "Point"}, "id": "QGDaQYdQiOf-OTGMGjXskWI2iTk=", "properties": {"@spider": "usps_collection_boxes", "addr:city": "MEADOWVIEW", "addr:country": "US", "addr:full": "29063 WALKER LN", "addr:postcode": "24361", "addr:state": "VA", "amenity": "post_box", "brand": "United States Postal Service", "brand:wikidata": "Q668687", "collection_times": "Mo-Fr 16:30; Sa 11:30", "name": "USPS COLLECTION BOX - PO LOBBY", "note": "ON 12/24 AND 12/31, THIS BOX MAY BE COLLECTED AS EARLY AS 12 NOON.", "nsi_id": "unitedstatespostalservice-a77078", "operator": "United States Postal Service", "operator:short": "USPS", "operator:type": "public", "operator:wikidata": "Q668687", "ref": "2436100001"}, "type": "Feature"}
{"geometry": {"coordinates": [-81.861239755, 36.761931753], "type": "Point"}, "id": "u6u4eA-YkRib6thp2qxHNV_dYyg=", "properties": {"@spider": "usps_collection_boxes", "addr:city": "MEADOWVIEW", "addr:country": "US", "addr:full": "29063 WALKER LN", "addr:postcode": "24361", "addr:state": "VA", "amenity": "post_box", "brand": "United States Postal Service", "brand:wikidata": "Q668687", "collection_times": "Mo-Fr 16:30; Sa 11:30", "name": "USPS COLLECTION BOX - PO LOBBY", "note": "ON 12/24 AND 12/31, THIS BOX MAY BE COLLECTED AS EARLY AS 12 NOON.", "nsi_id": "unitedstatespostalservice-a77078", "operator": "United States Postal Service", "operator:short": "USPS", "operator:type": "public", "operator:wikidata": "Q668687", "ref": "2436100003"}, "type": "Feature"}
{"geometry": {"coordinates": [-81.343859, 36.596055], "type": "Point"}, "id": "bvD4odeFwre7HSSyEKwMN6UkV2Q=", "properties": {"@spider": "usps_collection_boxes", "addr:city": "MOUTH OF WILSON", "addr:country": "US", "addr:full": "700 TROUTDALE HWY", "addr:postcode": "24363", "addr:state": "VA", "amenity": "post_box", "brand": "United States Postal Service", "brand:wikidata": "Q668687", "collection_times": "Mo-Fr 11:15; Sa 11:00", "name": "USPS COLLECTION BOX - BLUE BOX", "nsi_id": "unitedstatespostalservice-a77078", "operator": "United States Postal Service", "operator:short": "USPS", "operator:type": "public", "operator:wikidata": "Q668687", "ref": "2436300000"}, "type": "Feature"}
{"geometry": {"coordinates": [-81.343854, 36.595994], "type": "Point"}, "id": "4ruQz2aes7kJ1m5hZrVV_UDHKu0=", "properties": {"@spider": "usps_collection_boxes", "addr:city": "MOUTH OF WILSON", "addr:country": "US", "addr:full": "700 TROUTDALE HWY", "addr:postcode": "24363", "addr:state": "VA", "amenity": "post_box", "brand": "United States Postal Service", "brand:wikidata": "Q668687", "collection_times": "Mo-Fr 11:15; Sa 11:00", "name": "USPS COLLECTION BOX - PO LOBBY", "nsi_id": "unitedstatespostalservice-a77078", "operator": "United States Postal Service", "operator:short": "USPS", "operator:type": "public", "operator:wikidata": "Q668687", "ref": "2436300001"}, "type": "Feature"}
{"geometry": {"coordinates": [-81.343994971, 36.596273292], "type": "Point"}, "id": "9h00Ki1hSBImZ_HsX2FbhPpEFag=", "properties": {"@spider": "usps_collection_boxes", "addr:city": "MOUTH OF WILSON", "addr:country": "US", "addr:full": "700 TROUTDALE HWY", "addr:postcode": "24363", "addr:state": "VA", "amenity": "post_box", "brand": "United States Postal Service", "brand:wikidata": "Q668687", "collection_times": "Mo-Fr 11:30; Sa 11:00", "name": "USPS COLLECTION BOX - PO LOBBY", "nsi_id": "unitedstatespostalservice-a77078", "operator": "United States Postal Service", "operator:short": "USPS", "operator:type": "public", "operator:wikidata": "Q668687", "ref": "2436300003"}, "type": "Feature"}
{"geometry": {"coordinates": [-81.107072, 37.24218], "type": "Point"}, "id": "_G33KJe0hDbzkYlASqpBWar_uXc=", "properties": {"@spider": "usps_collection_boxes", "addr:city": "ROCKY GAP", "addr:country": "US", "addr:full": "12797 N SCENIC HWY", "addr:postcode": "24366", "addr:state": "VA", "amenity": "post_box", "brand": "United States Postal Service", "brand:wikidata": "Q668687", "collection_times": "Mo-Fr 15:30; Sa 11:00", "name": "USPS COLLECTION BOX - BLUE BOX", "note": "ON 12/24 AND 12/31, THIS BOX MAY BE COLLECTED AS EARLY AS 12 NOON.", "nsi_id": "unitedstatespostalservice-a77078", "operator": "United States Postal Service", "operator:short": "USPS", "operator:type": "public", "operator:wikidata": "Q668687", "ref": "2436600000"}, "type": "Feature"}
{"geometry": {"coordinates": [-81.107169, 37.242222], "type": "Point"}, "id": "fy2FynpsXhwSz-UyjnRInUXecZI=", "properties": {"@spider": "usps_collection_boxes", "addr:city": "ROCKY GAP", "addr:country": "US", "addr:full": "12797 N SCENIC HWY", "addr:postcode": "24366", "addr:state": "VA", "amenity": "post_box", "brand": "United States Postal Service", "brand:wikidata": "Q668687", "collection_times": "Mo-Fr 15:15; Sa 11:00", "name": "USPS COLLECTION BOX - PO LOBBY", "note": "ON 12/24 AND 12/31, THIS BOX MAY BE COLLECTED AS EARLY AS 12 NOON.", "nsi_id": "unitedstatespostalservice-a77078", "operator": "United States Postal Service", "operator:short": "USPS", "operator:type": "public", "operator:wikidata": "Q668687", "ref": "2436600001"}, "type": "Feature"}
{"geometry": {"coordinates": [-81.106074125, 37.242018693], "type": "Point"}, "id": "anG8LDYpUZJ3Z5bh2xeSsJNSSQU=", "properties": {"@spider": "usps_collection_boxes", "addr:city": "ROCKY GAP", "addr:country": "US", "addr:full": "12797 N SCENIC HWY", "addr:postcode": "24366", "addr:state": "VA", "amenity": "post_box", "brand": "United States Postal Service", "brand:wikidata": "Q668687", "collection_times": "Mo-Fr 15:30; Sa 11:45", "name": "USPS COLLECTION BOX - PO LOBBY", "note": "ON 12/24 AND 12/31, THIS BOX MAY BE COLLECTED AS EARLY AS 12 NOON.", "nsi_id": "unitedstatespostalservice-a77078", "operator": "United States Postal Service", "operator:short": "USPS", "operator:type": "public", "operator:wikidata": "Q668687", "ref": "2436600003"}, "type": "Feature"}
{"geometry": {"coordinates": [-81.275914872, 36.891581676], "type": "Point"}, "id": "C-5x_fQBQQOsv_aPIJl5WMDWrgw=", "properties": {"@spider": "usps_collection_boxes", "addr:city": "RURAL RETREAT", "addr:country": "US", "addr:full": "405 S MAIN ST", "addr:postcode": "24368", "addr:state": "VA", "amenity": "post_box", "brand": "United States Postal Service", "brand:wikidata": "Q668687", "collection_times": "Mo-Fr 16:45; Sa 10:45", "name": "USPS COLLECTION BOX - BLUE BOX", "note": "ON 12/24 AND 12/31, THIS BOX MAY BE COLLECTED AS EARLY AS 12 NOON.", "nsi_id": "unitedstatespostalservice-a77078", "operator": "United States Postal Service", "operator:short": "USPS", "operator:type": "public", "operator:wikidata": "Q668687", "ref": "2436800000"}, "type": "Feature"}
{"geometry": {"coordinates": [-81.275914872, 36.891581676], "type": "Point"}, "id": "aoQagbFPs1JLjc6drsXplPXfsPg=", "properties": {"@spider": "usps_collection_boxes", "addr:city": "RURAL RETREAT", "addr:country": "US", "addr:full": "405 S MAIN ST", "addr:postcode": "24368", "addr:state": "VA", "amenity": "post_box", "brand": "United States Postal Service", "brand:wikidata": "Q668687", "collection_times": "Mo-Fr 16:45; Sa 10:45", "name": "USPS COLLECTION BOX - PO LOBBY", "note": "ON 12/24 AND 12/31, THIS BOX MAY BE COLLECTED AS EARLY AS 12 NOON.", "nsi_id": "unitedstatespostalservice-a77078", "operator": "United States Postal Service", "operator:short": "USPS", "operator:type": "public", "operator:wikidata": "Q668687", "ref": "2436800001"}, "type": "Feature"}
{"geometry": {"coordinates": [-81.275914872, 36.891581676], "type": "Point"}, "id": "lsrvLK36iz5V1e2JBVNk6PHbew4=", "properties": {"@spider": "usps_collection_boxes", "addr:city": "RURAL RETREAT", "addr:country": "US", "addr:full": "405 S MAIN ST", "addr:postcode": "24368", "addr:state": "VA", "amenity": "post_box", "brand": "United States Postal Service", "brand:wikidata": "Q668687", "collection_times": "Mo-Fr 16:45; Sa 11:00", "name": "USPS COLLECTION BOX - PO LOBBY", "note": "ON 12/24 AND 12/31, THIS BOX MAY BE COLLECTED AS EARLY AS 12 NOON.", "nsi_id": "unitedstatespostalservice-a77078", "operator": "United States Postal Service", "operator:short": "USPS", "operator:type": "public", "operator:wikidata": "Q668687", "ref": "2436800003"}, "type": "Feature"}
{"geometry": {"coordinates": [-81.764454961, 36.87979436], "type": "Point"}, "id": "oZOOQA8WTKNYdk7oy0mg3_wZnjw=", "properties": {"@spider": "usps_collection_boxes", "addr:city": "SALTVILLE", "addr:country": "US", "addr:full": "146 PALMER AVE", "addr:postcode": "24370", "addr:state": "VA", "amenity": "post_box", "brand": "United States Postal Service", "brand:wikidata": "Q668687", "collection_times": "Mo-Fr 16:15; Sa 11:00", "name": "USPS COLLECTION BOX - BLUE BOX", "note": "ON 12/24 AND 12/31, THIS BOX MAY BE COLLECTED AS EARLY AS 12 NOON.", "nsi_id": "unitedstatespostalservice-a77078", "operator": "United States Postal Service", "operator:short": "USPS", "operator:type": "public", "operator:wikidata": "Q668687", "ref": "2437000000"}, "type": "Feature"}
{"geometry": {"coordinates": [-81.764454961, 36.87979436], "type": "Point"}, "id": "R04bb3dXvp4qt0PMWDhyO97xFGI=", "properties": {"@spider": "usps_collection_boxes", "addr:city": "SALTVILLE", "addr:country": "US", "addr:full": "146 PALMER AVE", "addr:postcode": "24370", "addr:state": "VA", "amenity": "post_box", "brand": "United States Postal Service", "brand:wikidata": "Q668687", "collection_times": "Mo-Fr 16:30; Sa 11:00", "name": "USPS COLLECTION BOX - PO LOBBY", "note": "ON 12/24 AND 12/31, THIS BOX MAY BE COLLECTED AS EARLY AS 12 NOON.", "nsi_id": "unitedstatespostalservice-a77078", "operator": "United States Postal Service", "operator:short": "USPS", "operator:type": "public", "operator:wikidata": "Q668687", "ref": "2437000001"}, "type": "Feature"}
{"geometry": {"coordinates": [-81.764454961, 36.87979436], "type": "Point"}, "id": "n1suHH99WBQv5XGebMe23Vk258s=", "properties": {"@spider": "usps_collection_boxes", "addr:city": "SALTVILLE", "addr:country": "US", "addr:full": "146 PALMER AVE", "addr:postcode": "24370", "addr:state": "VA", "amenity": "post_box", "brand": "United States Postal Service", "brand:wikidata": "Q668687", "collection_times": "Mo-Fr 16:15; Sa 11:00", "name": "USPS COLLECTION BOX - PO LOBBY", "note": "ON 12/24 AND 12/31, THIS BOX MAY BE COLLECTED AS EARLY AS 12 NOON.", "nsi_id": "unitedstatespostalservice-a77078", "operator": "United States Postal Service", "operator:short": "USPS", "operator:type": "public", "operator:wikidata": "Q668687", "ref": "2437000003"}, "type": "Feature"}
{"geometry": {"coordinates": [-81.174789, 36.81551], "type": "Point"}, "id": "vUiUZks1fl01ukpC3PYuM1Rll3Q=", "properties": {"@spider": "usps_collection_boxes", "addr:city": "SPEEDWELL", "addr:country": "US", "addr:full": "6766 GRAYSON TPKE", "addr:postcode": "24374", "addr:state": "VA", "amenity": "post_box", "brand": "United States Postal Service", "brand:wikidata": "Q668687", "collection_times": "Mo-Fr 12:00; Sa 10:30", "name": "USPS COLLECTION BOX - BLUE BOX", "nsi_id": "unitedstatespostalservice-a77078", "operator": "United States Postal Service", "operator:short": "USPS", "operator:type": "public", "operator:wikidata": "Q668687", "ref": "2437400000"}, "type": "Feature"}
{"geometry": {"coordinates": [-81.174756, 36.815432], "type": "Point"}, "id": "Byma1pcUD1TDqq2hUoP4KcHnN0U=", "properties": {"@spider": "usps_collection_boxes", "addr:city": "SPEEDWELL", "addr:country": "US", "addr:full": "6766 GRAYSON TPKE", "addr:postcode": "24374", "addr:state": "VA", "amenity": "post_box", "brand": "United States Postal Service", "brand:wikidata": "Q668687", "collection_times": "Mo-Fr 12:00; Sa 10:30", "name": "USPS COLLECTION BOX - PO LOBBY", "nsi_id": "unitedstatespostalservice-a77078", "operator": "United States Postal Service", "operator:short": "USPS", "operator:type": "public", "operator:wikidata": "Q668687", "ref": "2437400001"}, "type": "Feature"}
{"geometry": {"coordinates": [-81.174700902, 36.815472977], "type": "Point"}, "id": "RN-BTY9ZTo0_A_qfdZSOidDcM3Q=", "properties": {"@spider": "usps_collection_boxes", "addr:city": "SPEEDWELL", "addr:country": "US", "addr:full": "6766 GRAYSON TPKE", "addr:postcode": "24374", "addr:state": "VA", "amenity": "post_box", "brand": "United States Postal Service", "brand:wikidata": "Q668687", "collection_times": "Mo-Fr 12:00; Sa 11:45", "name": "USPS COLLECTION BOX - PO LOBBY", "nsi_id": "unitedstatespostalservice-a77078", "operator": "United States Postal Service", "operator:short": "USPS", "operator:type": "public", "operator:wikidata": "Q668687", "ref": "2437400003"}, "type": "Feature"}
{"geometry": {"coordinates": [-81.412984, 36.775192], "type": "Point"}, "id": "s_oq4DC1JCQc7RLaySglJ8G6XB4=", "properties": {"@spider": "usps_collection_boxes", "addr:city": "SUGAR GROVE", "addr:country": "US", "addr:full": "5444 SUGAR GROVE HWY", "addr:postcode": "24375", "addr:state": "VA", "amenity": "post_box", "brand": "United States Postal Service", "brand:wikidata": "Q668687", "collection_times": "Mo-Fr 15:30; Sa 10:30", "name": "USPS COLLECTION BOX - BLUE BOX", "note": "ON 12/24 AND 12/31, THIS BOX MAY BE COLLECTED AS EARLY AS 12 NOON.", "nsi_id": "unitedstatespostalservice-a77078", "operator": "United States Postal Service", "operator:short": "USPS", "operator:type": "public", "operator:wikidata": "Q668687", "ref": "2437500000"}, "type": "Feature"}
{"geometry": {"coordinates": [-81.413004, 36.775114], "type": "Point"}, "id": "lFEYJMRQsdtTIvuD7qrvgZIl520=", "properties": {"@spider": "usps_collection_boxes", "addr:city": "SUGAR GROVE", "addr:country": "US", "addr:full": "5444 SUGAR GROVE HWY", "addr:postcode": "24375", "addr:state": "VA", "amenity": "post_box", "brand": "United States Postal Service", "brand:wikidata": "Q668687", "collection_times": "Mo-Fr 15:30; Sa 10:30", "name": "USPS COLLECTION BOX - PO LOBBY", "note": "ON 12/24 AND 12/31, THIS BOX MAY BE COLLECTED AS EARLY AS 12 NOON.", "nsi_id": "unitedstatespostalservice-a77078", "operator": "United States Postal Service", "operator:short": "USPS", "operator:type": "public", "operator:wikidata": "Q668687", "ref": "2437500001"}, "type": "Feature"}
{"geometry": {"coordinates": [-81.412952562, 36.775227718], "type": "Point"}, "id": "QUNrlHQHpOo2FkNE49XwMH-PkYw=", "properties": {"@spider": "usps_collection_boxes", "addr:city": "SUGAR GROVE", "addr:country": "US", "addr:full": "5444 SUGAR GROVE HWY", "addr:postcode": "24375", "addr:state": "VA", "amenity": "post_box", "brand": "United States Postal Service", "brand:wikidata": "Q668687", "collection_times": "Mo-Fr 15:30; Sa 10:30", "name": "USPS COLLECTION BOX - PO LOBBY", "note": "ON 12/24 AND 12/31, THIS BOX MAY BE COLLECTED AS EARLY AS 12 NOON.", "nsi_id": "unitedstatespostalservice-a77078", "operator": "United States Postal Service", "operator:short": "USPS", "operator:type": "public", "operator:wikidata": "Q668687", "ref": "2437500003"}, "type": "Feature"}
{"geometry": {"coordinates": [-81.6243015, 36.972837], "type": "Point"}, "id": "GU0R_AyHdTIcxqSNpgSHsd70Ly8=", "properties": {"@spider": "usps_collection_boxes", "addr:city": "TANNERSVILLE", "addr:country": "US", "addr:full": "1347 FREESTONE VALLEY RD", "addr:postcode": "24377", "addr:state": "VA", "amenity": "post_box", "brand": "United States Postal Service", "brand:wikidata": "Q668687", "collection_times": "Mo-Fr 11:50; Sa 11:00", "name": "USPS COLLECTION BOX - BLUE BOX", "nsi_id": "unitedstatespostalservice-a77078", "operator": "United States Postal Service", "operator:short": "USPS", "operator:type": "public", "operator:wikidata": "Q668687", "ref": "2437700000"}, "type": "Feature"}
{"geometry": {"coordinates": [-81.624357624, 36.972596726], "type": "Point"}, "id": "TQhOZGppBrsAQDGu_XsiDkgOrc0=", "properties": {"@spider": "usps_collection_boxes", "addr:city": "TANNERSVILLE", "addr:country": "US", "addr:full": "1347 FREESTONE VALLEY RD", "addr:postcode": "24377", "addr:state": "VA", "amenity": "post_box", "brand": "United States Postal Service", "brand:wikidata": "Q668687", "collection_times": "Mo-Fr 12:00; Sa 11:30", "name": "USPS COLLECTION BOX - PO LOBBY", "nsi_id": "unitedstatespostalservice-a77078", "operator": "United States Postal Service", "operator:short": "USPS", "operator:type": "public", "operator:wikidata": "Q668687", "ref": "2437700002"}, "type": "Feature"}
{"geometry": {"coordinates": [-81.438962, 36.702403], "type": "Point"}, "id": "Z4PGDX-YnLWBPtBfs7XaT4oCrkI=", "properties": {"@spider": "usps_collection_boxes", "addr:city": "TROUT DALE", "addr:country": "US", "addr:full": "93 RIPSHIN RD", "addr:postcode": "24378", "addr:state": "VA", "amenity": "post_box", "brand": "United States Postal Service", "brand:wikidata": "Q668687", "collection_times": "Mo-Fr 11:50; Sa 11:00", "name": "USPS COLLECTION BOX - BLUE BOX", "nsi_id": "unitedstatespostalservice-a77078", "operator": "United States Postal Service", "operator:short": "USPS", "operator:type": "public", "operator:wikidata": "Q668687", "ref": "2437800000"}, "type": "Feature"}
{"geometry": {"coordinates": [-81.438932, 36.70238], "type": "Point"}, "id": "0CRmBra50H-KuUpkiaRomYhMIrQ=", "properties": {"@spider": "usps_collection_boxes", "addr:city": "TROUT DALE", "addr:country": "US", "addr:full": "93 RIPSHIN RD", "addr:postcode": "24378", "addr:state": "VA", "amenity": "post_box", "brand": "United States Postal Service", "brand:wikidata": "Q668687", "collection_times": "Mo-Fr 11:50; Sa 11:00", "name": "USPS COLLECTION BOX - PO LOBBY", "nsi_id": "unitedstatespostalservice-a77078", "operator": "United States Postal Service", "operator:short": "USPS", "operator:type": "public", "operator:wikidata": "Q668687", "ref": "2437800001"}, "type": "Feature"}
{"geometry": {"coordinates": [-81.439066618, 36.702385311], "type": "Point"}, "id": "Yh83FNfUTdXsVlODPv46H2ZGYEY=", "properties": {"@spider": "usps_collection_boxes", "addr:city": "TROUT DALE", "addr:country": "US", "addr:full": "93 RIPSHIN RD", "addr:postcode": "24378", "addr:state": "VA", "amenity": "post_box", "brand": "United States Postal Service", "brand:wikidata": "Q668687", "collection_times": "Mo-Fr 12:00; Sa 11:30", "name": "USPS COLLECTION BOX - PO LOBBY", "nsi_id": "unitedstatespostalservice-a77078", "operator": "United States Postal Service", "operator:short": "USPS", "operator:type": "public", "operator:wikidata": "Q668687", "ref": "2437800003"}, "type": "Feature"}
{"geometry": {"coordinates": [-80.481759, 36.857911], "type": "Point"}, "id": "ixG-CCZDmSfwYmqwTZSU4wSs-NA=", "properties": {"@spider": "usps_collection_boxes", "addr:city": "WILLIS", "addr:country": "US", "addr:full": "5600 FLOYD HWY S", "addr:postcode": "24380", "addr:state": "VA", "amenity": "post_box", "brand": "United States Postal Service", "brand:wikidata": "Q668687", "collection_times": "Mo-Fr 13:30; Sa 10:30", "name": "USPS COLLECTION BOX - BLUE BOX", "note": "ON 12/24 AND 12/31, THIS BOX MAY BE COLLECTED AS EARLY AS 12 NOON.", "nsi_id": "unitedstatespostalservice-a77078", "operator": "United States Postal Service", "operator:short": "USPS", "operator:type": "public", "operator:wikidata": "Q668687", "ref": "2438000000"}, "type": "Feature"}
{"geometry": {"coordinates": [-80.495069995, 36.8603909606], "type": "Point"}, "id": "tB_5hWc6fHeoDUp8QaIN1s9Oems=", "properties": {"@spider": "usps_collection_boxes", "addr:city": "WILLIS", "addr:country": "US", "addr:full": "5600 FLOYD HWY S", "addr:postcode": "24380", "addr:state": "VA", "amenity": "post_box", "brand": "United States Postal Service", "brand:wikidata": "Q668687", "collection_times": "Mo-Fr 13:30; Sa 10:30", "name": "USPS COLLECTION BOX - PO LOBBY", "note": "ON 12/24 AND 12/31, THIS BOX MAY BE COLLECTED AS EARLY AS 12 NOON.", "nsi_id": "unitedstatespostalservice-a77078", "operator": "United States Postal Service", "operator:short": "USPS", "operator:type": "public", "operator:wikidata": "Q668687", "ref": "2438000001"}, "type": "Feature"}
{"geometry": {"coordinates": [-80.482065494, 36.857745573], "type": "Point"}, "id": "5UUsNPjqqVEhec9CtaLdTWcv9Zg=", "properties": {"@spider": "usps_collection_boxes", "addr:city": "WILLIS", "addr:country": "US", "addr:full": "5600 FLOYD HWY S", "addr:postcode": "24380", "addr:state": "VA", "amenity": "post_box", "brand": "United States Postal Service", "brand:wikidata": "Q668687", "collection_times": "Mo-Fr 13:45; Sa 10:30", "name": "USPS COLLECTION BOX - PO LOBBY", "note": "ON 12/24 AND 12/31, THIS BOX MAY BE COLLECTED AS EARLY AS 12 NOON.", "nsi_id": "unitedstatespostalservice-a77078", "operator": "United States Postal Service", "operator:short": "USPS", "operator:type": "public", "operator:wikidata": "Q668687", "ref": "2438000004"}, "type": "Feature"}
{"geometry": {"coordinates": [-80.822237, 36.720089], "type": "Point"}, "id": "KAEL9yUr0zCRqWC23R_c_HuuJac=", "properties": {"@spider": "usps_collection_boxes", "addr:city": "WOODLAWN", "addr:country": "US", "addr:full": "32 COULSON CHURCH RD", "addr:postcode": "24381", "addr:state": "VA", "amenity": "post_box", "brand": "United States Postal Service", "brand:wikidata": "Q668687", "collection_times": "Mo-Fr 16:00; Sa 10:15", "name": "USPS COLLECTION BOX - BLUE BOX", "note": "ON 12/24 AND 12/31, THIS BOX MAY BE COLLECTED AS EARLY AS 12 NOON.", "nsi_id": "unitedstatespostalservice-a77078", "operator": "United States Postal Service", "operator:short": "USPS", "operator:type": "public", "operator:wikidata": "Q668687", "ref": "2438100000"}, "type": "Feature"}
{"geometry": {"coordinates": [-80.822254, 36.720024], "type": "Point"}, "id": "EsY-GqeooqD4A_oaEVASJLwMjoY=", "properties": {"@spider": "usps_collection_boxes", "addr:city": "WOODLAWN", "addr:country": "US", "addr:full": "32 COULSON CHURCH RD", "addr:postcode": "24381", "addr:state": "VA", "amenity": "post_box", "brand": "United States Postal Service", "brand:wikidata": "Q668687", "collection_times": "Mo-Fr 15:45; Sa 10:30", "name": "USPS COLLECTION BOX - PO LOBBY", "note": "ON 12/24 AND 12/31, THIS BOX MAY BE COLLECTED AS EARLY AS 12 NOON.", "nsi_id": "unitedstatespostalservice-a77078", "operator": "United States Postal Service", "operator:short": "USPS", "operator:type": "public", "operator:wikidata": "Q668687", "ref": "2438100001"}, "type": "Feature"}
{"geometry": {"coordinates": [-80.822227455, 36.720046561], "type": "Point"}, "id": "35o2unzJT97CCCUBLPAqzzX-H8U=", "properties": {"@spider": "usps_collection_boxes", "addr:city": "WOODLAWN", "addr:country": "US", "addr:full": "32 COULSON CHURCH RD", "addr:postcode": "24381", "addr:state": "VA", "amenity": "post_box", "brand": "United States Postal Service", "brand:wikidata": "Q668687", "collection_times": "Mo-Fr 16:00; Sa 10:30", "name": "USPS COLLECTION BOX - PO LOBBY", "note": "ON 12/24 AND 12/31, THIS BOX MAY BE COLLECTED AS EARLY AS 12 NOON.", "nsi_id": "unitedstatespostalservice-a77078", "operator": "United States Postal Service", "operator:short": "USPS", "operator:type": "public", "operator:wikidata": "Q668687", "ref": "2438100003"}, "type": "Feature"}
{"geometry": {"coordinates": [-81.0724316, 36.952095], "type": "Point"}, "id": "hHjIgG4Vv0pSCz7FH3YmBzbfOcY=", "properties": {"@spider": "usps_collection_boxes", "addr:city": "WYTHEVILLE", "addr:country": "US", "addr:full": "1055 E MAIN ST", "addr:postcode": "24382", "addr:state": "VA", "amenity": "post_box", "brand": "United States Postal Service", "brand:wikidata": "Q668687", "collection_times": "Mo-Fr 09:00", "name": "USPS COLLECTION BOX - BLUE BOX", "nsi_id": "unitedstatespostalservice-a77078", "operator": "United States Postal Service", "operator:short": "USPS", "operator:type": "public", "operator:wikidata": "Q668687", "ref": "2438200015"}, "type": "Feature"}
{"geometry": {"coordinates": [-81.0847238, 36.946661], "type": "Point"}, "id": "6px-LTLljiSJyvQdWgVJ1FyWJwQ=", "properties": {"@spider": "usps_collection_boxes", "addr:city": "WYTHEVILLE", "addr:country": "US", "addr:full": "285 S 6TH ST", "addr:postcode": "24382", "addr:state": "VA", "amenity": "post_box", "brand": "United States Postal Service", "brand:wikidata": "Q668687", "collection_times": "Mo-Fr 14:00", "name": "USPS COLLECTION BOX - BLUE BOX", "note": "ON 12/24 AND 12/31, THIS BOX MAY BE COLLECTED AS EARLY AS 12 NOON.", "nsi_id": "unitedstatespostalservice-a77078", "operator": "United States Postal Service", "operator:short": "USPS", "operator:type": "public", "operator:wikidata": "Q668687", "ref": "2438200025"}, "type": "Feature"}
{"geometry": {"coordinates": [-81.0836899, 36.9511], "type": "Point"}, "id": "Au8iJGl7SB0sO8UU99wRyWGcLZ0=", "properties": {"@spider": "usps_collection_boxes", "addr:city": "WYTHEVILLE", "addr:country": "US", "addr:full": "150 E MONROE ST", "addr:postcode": "24382", "addr:state": "VA", "amenity": "post_box", "brand": "United States Postal Service", "brand:wikidata": "Q668687", "collection_times": "Mo-Fr 14:00", "name": "USPS COLLECTION BOX - BLUE BOX", "note": "ON 12/24 AND 12/31, THIS BOX MAY BE COLLECTED AS EARLY AS 12 NOON.", "nsi_id": "unitedstatespostalservice-a77078", "operator": "United States Postal Service", "operator:short": "USPS", "operator:type": "public", "operator:wikidata": "Q668687", "ref": "2438200026"}, "type": "Feature"}
{"geometry": {"coordinates": [-81.085729701, 36.948193583], "type": "Point"}, "id": "DpBOTwy8OsGWU_G8uXo8OKl7b04=", "properties": {"@spider": "usps_collection_boxes", "addr:city": "WYTHEVILLE", "addr:country": "US", "addr:full": "380 W MAIN ST", "addr:postcode": "24382", "addr:state": "VA", "amenity": "post_box", "brand": "United States Postal Service", "brand:wikidata": "Q668687", "collection_times": "Mo-Fr 17:00; Sa 16:00", "name": "USPS COLLECTION BOX - BLUE BOX", "note": "ON 12/24 AND 12/31, THIS BOX MAY BE COLLECTED AS EARLY AS 12 NOON.", "nsi_id": "unitedstatespostalservice-a77078", "operator": "United States Postal Service", "operator:short": "USPS", "operator:type": "public", "operator:wikidata": "Q668687", "ref": "2438200030"}, "type": "Feature"}
{"geometry": {"coordinates": [-81.085729701, 36.948193583], "type": "Point"}, "id": "rThWKLGPEC86xev4Tep_N7P9SFw=", "properties": {"@spider": "usps_collection_boxes", "addr:city": "WYTHEVILLE", "addr:country": "US", "addr:full": "380 W MAIN ST", "addr:postcode": "24382", "addr:state": "VA", "amenity": "post_box", "brand": "United States Postal Service", "brand:wikidata": "Q668687", "collection_times": "Mo-Fr 17:00; Sa 16:00", "name": "USPS COLLECTION BOX - BLUE BOX", "note": "ON 12/24 AND 12/31, THIS BOX MAY BE COLLECTED AS EARLY AS 12 NOON.", "nsi_id": "unitedstatespostalservice-a77078", "operator": "United States Postal Service", "operator:short": "USPS", "operator:type": "public", "operator:wikidata": "Q668687", "ref": "2438200032"}, "type": "Feature"}
{"geometry": {"coordinates": [-80.9929427, 36.935754], "type": "Point"}, "id": "P3qTTTA3jjhq6KJJbXtXpHCPoBI=", "properties": {"@spider": "usps_collection_boxes", "addr:city": "WYTHEVILLE", "addr:country": "US", "addr:full": "3249 CHAPMAN RD", "addr:postcode": "24382", "addr:state": "VA", "amenity": "post_box", "brand": "United States Postal Service", "brand:wikidata": "Q668687", "collection_times": "Mo-Sa 11:00", "name": "USPS COLLECTION BOX - BLUE BOX", "nsi_id": "unitedstatespostalservice-a77078", "operator": "United States Postal Service", "operator:short": "USPS", "operator:type": "public", "operator:wikidata": "Q668687", "ref": "2438200033"}, "type": "Feature"}
{"geometry": {"coordinates": [-81.0680154, 36.96515], "type": "Point"}, "id": "VWTaXWFxDNZsou9TRje8aL18Eqw=", "properties": {"@spider": "usps_collection_boxes", "addr:city": "WYTHEVILLE", "addr:country": "US", "addr:full": "1025 PEPPERS FERRY RD", "addr:postcode": "24382", "addr:state": "VA", "amenity": "post_box", "brand": "United States Postal Service", "brand:wikidata": "Q668687", "collection_times": "Mo-Sa 09:00", "name": "USPS COLLECTION BOX - BLUE BOX", "nsi_id": "unitedstatespostalservice-a77078", "operator": "United States Postal Service", "operator:short": "USPS", "operator:type": "public", "operator:wikidata": "Q668687", "ref": "2438200034"}, "type": "Feature"}
{"geometry": {"coordinates": [-81.085729701, 36.948193583], "type": "Point"}, "id": "W3yUE8_ulY8UyGztN6gJ5lkkNH4=", "properties": {"@spider": "usps_collection_boxes", "addr:city": "WYTHEVILLE", "addr:country": "US", "addr:full": "380 W MAIN ST", "addr:postcode": "24382", "addr:state": "VA", "amenity": "post_box", "brand": "United States Postal Service", "brand:wikidata": "Q668687", "collection_times": "Mo-Fr 17:00; Sa 16:00", "name": "USPS COLLECTION BOX - PO LOBBY", "note": "ON 12/24 AND 12/31, THIS BOX MAY BE COLLECTED AS EARLY AS 12 NOON.", "nsi_id": "unitedstatespostalservice-a77078", "operator": "United States Postal Service", "operator:short": "USPS", "operator:type": "public", "operator:wikidata": "Q668687", "ref": "2438200035"}, "type": "Feature"}
{"geometry": {"coordinates": [-81.085729701, 36.948193583], "type": "Point"}, "id": "lPNrKIoX4V8a4PWp7lVYUVFjhvQ=", "properties": {"@spider": "usps_collection_boxes", "addr:city": "WYTHEVILLE", "addr:country": "US", "addr:full": "380 W MAIN ST", "addr:postcode": "24382", "addr:state": "VA", "amenity": "post_box", "brand": "United States Postal Service", "brand:wikidata": "Q668687", "collection_times": "Mo-Fr 17:00; Sa 16:00", "name": "USPS COLLECTION BOX - BLUE BOX", "note": "ON 12/24 AND 12/31, THIS BOX MAY BE COLLECTED AS EARLY AS 12 NOON.", "nsi_id": "unitedstatespostalservice-a77078", "operator": "United States Postal Service", "operator:short": "USPS", "operator:type": "public", "operator:wikidata": "Q668687", "ref": "2438200039"}, "type": "Feature"}
{"geometry": {"coordinates": [-80.9928392403, 36.9379077832], "type": "Point"}, "id": "Lm31mhMATHz6Di7QASyI3Nk57QY=", "properties": {"@spider": "usps_collection_boxes", "addr:city": "WYTHEVILLE", "addr:country": "US", "addr:full": "1318 E LEE HWY", "addr:postcode": "24382", "addr:state": "VA", "amenity": "post_box", "brand": "United States Postal Service", "brand:wikidata": "Q668687", "collection_times": "Mo-Sa 11:30", "name": "USPS COLLECTION BOX - BLUE BOX", "nsi_id": "unitedstatespostalservice-a77078", "operator": "United States Postal Service", "operator:short": "USPS", "operator:type": "public", "operator:wikidata": "Q668687", "ref": "2438200042"}, "type": "Feature"}
{"geometry": {"coordinates": [-81.085729701, 36.948193583], "type": "Point"}, "id": "wM2JEFazExVJakVVwm8eyjA6J5Y=", "properties": {"@spider": "usps_collection_boxes", "addr:city": "WYTHEVILLE", "addr:country": "US", "addr:full": "380 W MAIN ST", "addr:postcode": "24382", "addr:state": "VA", "amenity": "post_box", "brand": "United States Postal Service", "brand:wikidata": "Q668687", "collection_times": "Mo-Fr 17:00; Sa 12:00", "name": "USPS COLLECTION BOX - PO LOBBY", "note": "ON 12/24 AND 12/31, THIS BOX MAY BE COLLECTED AS EARLY AS 12 NOON.", "nsi_id": "unitedstatespostalservice-a77078", "operator": "United States Postal Service", "operator:short": "USPS", "operator:type": "public", "operator:wikidata": "Q668687", "ref": "2438200043"}, "type": "Feature"}
