{"dataset_attributes": {"@spider": "usps_collection_boxes", "spider:collection_time": "2023-09-13T08:25:17.985642"}, "geometry": {"coordinates": [-79.0679173, 38.140194], "type": "Point"}, "id": "7oBkwc6ufafRaCLQK86Se2fimN4=", "properties": {"@spider": "usps_collection_boxes", "addr:city": "STAUNTON", "addr:country": "US", "addr:full": "850 STATLER BLVD", "addr:postcode": "24401", "addr:state": "VA", "amenity": "post_box", "brand": "United States Postal Service", "brand:wikidata": "Q668687", "collection_times": "Mo-Fr 16:30; Sa 16:00", "name": "USPS COLLECTION BOX - BLUE BOX", "note": "ON 12/24 AND 12/31, THIS BOX MAY BE COLLECTED AS EARLY AS 12 NOON.", "nsi_id": "unitedstatespostalservice-a77078", "operator": "United States Postal Service", "operator:short": "USPS", "operator:type": "public", "operator:wikidata": "Q668687", "ref": "2440100001"}, "type": "Feature"}
{"dataset_attributes": {"@spider": "usps_collection_boxes", "spider:collection_time": "2023-09-13T08:25:17.985642"}, "geometry": {"coordinates": [-79.0716893, 38.149606], "type": "Point"}, "id": "lo9brRMcbZU6tp8FTTHX5_T08x4=", "properties": {"@spider": "usps_collection_boxes", "addr:city": "STAUNTON", "addr:country": "US", "addr:full": "23 E BEVERLEY ST", "addr:postcode": "24401", "addr:state": "VA", "amenity": "post_box", "brand": "United States Postal Service", "brand:wikidata": "Q668687", "collection_times": "Mo-Fr 17:00; Sa 16:00", "name": "USPS COLLECTION BOX - BLUE BOX", "note": "ON 12/24 AND 12/31, THIS BOX MAY BE COLLECTED AS EARLY AS 12 NOON.", "nsi_id": "unitedstatespostalservice-a77078", "operator": "United States Postal Service", "operator:short": "USPS", "operator:type": "public", "operator:wikidata": "Q668687", "ref": "2440100003"}, "type": "Feature"}
{"dataset_attributes": {"@spider": "usps_collection_boxes", "spider:collection_time": "2023-09-13T08:25:17.985642"}, "geometry": {"coordinates": [-79.0731073, 38.148478], "type": "Point"}, "id": "Q5G2R85IzIOouzBvwJYNvVtOqyY=", "properties": {"@spider": "usps_collection_boxes", "addr:city": "STAUNTON", "addr:country": "US", "addr:full": "15 W JOHNSON ST", "addr:postcode": "24401", "addr:state": "VA", "amenity": "post_box", "brand": "United States Postal Service", "brand:wikidata": "Q668687", "collection_times": "Mo-Fr 17:00; Sa 16:00", "name": "USPS COLLECTION BOX - BLUE BOX", "note": "ON 12/24 AND 12/31, THIS BOX MAY BE COLLECTED AS EARLY AS 12 NOON.", "nsi_id": "unitedstatespostalservice-a77078", "operator": "United States Postal Service", "operator:short": "USPS", "operator:type": "public", "operator:wikidata": "Q668687", "ref": "2440100004"}, "type": "Feature"}
{"dataset_attributes": {"@spider": "usps_collection_boxes", "spider:collection_time": "2023-09-13T08:25:17.985642"}, "geometry": {"coordinates": [-79.0736913, 38.14954], "type": "Point"}, "id": "yKmzVtVh4eAs45ckq939Z28Zs2w=", "properties": {"@spider": "usps_collection_boxes", "addr:city": "STAUNTON", "addr:country": "US", "addr:full": "2 N CENTRAL AVE", "addr:postcode": "24401", "addr:state": "VA", "amenity": "post_box", "brand": "United States Postal Service", "brand:wikidata": "Q668687", "collection_times": "Mo-Fr 17:00; Sa 16:00", "name": "USPS COLLECTION BOX - BLUE BOX", "note": "ON 12/24 AND 12/31, THIS BOX MAY BE COLLECTED AS EARLY AS 12 NOON.", "nsi_id": "unitedstatespostalservice-a77078", "operator": "United States Postal Service", "operator:short": "USPS", "operator:type": "public", "operator:wikidata": "Q668687", "ref": "2440100005"}, "type": "Feature"}
{"dataset_attributes": {"@spider": "usps_collection_boxes", "spider:collection_time": "2023-09-13T08:25:17.985642"}, "geometry": {"coordinates": [-79.074533, 38.150407], "type": "Point"}, "id": "gmLHDX1c5UYO3Wj_6dvnv9Xz6bY=", "properties": {"@spider": "usps_collection_boxes", "addr:city": "STAUNTON", "addr:country": "US", "addr:full": "123 W FREDERICK ST", "addr:postcode": "24401", "addr:state": "VA", "amenity": "post_box", "brand": "United States Postal Service", "brand:wikidata": "Q668687", "collection_times": "Mo-Fr 16:30", "name": "USPS COLLECTION BOX - PO LOBBY", "note": "ON 12/24 AND 12/31, THIS BOX MAY BE COLLECTED AS EARLY AS 12 NOON.", "nsi_id": "unitedstatespostalservice-a77078", "operator": "United States Postal Service", "operator:short": "USPS", "operator:type": "public", "operator:wikidata": "Q668687", "ref": "2440100007"}, "type": "Feature"}
{"dataset_attributes": {"@spider": "usps_collection_boxes", "spider:collection_time": "2023-09-13T08:25:17.985642"}, "geometry": {"coordinates": [-79.0751373, 38.150278], "type": "Point"}, "id": "ySqUoSD13rHAtJZ1qHRa1AbJVB8=", "properties": {"@spider": "usps_collection_boxes", "addr:city": "STAUNTON", "addr:country": "US", "addr:full": "210 W FREDERICK ST", "addr:postcode": "24401", "addr:state": "VA", "amenity": "post_box", "brand": "United States Postal Service", "brand:wikidata": "Q668687", "collection_times": "Mo-Fr 17:00; Sa 16:00", "name": "USPS COLLECTION BOX - BLUE BOX", "note": "ON 12/24 AND 12/31, THIS BOX MAY BE COLLECTED AS EARLY AS 12 NOON.", "nsi_id": "unitedstatespostalservice-a77078", "operator": "United States Postal Service", "operator:short": "USPS", "operator:type": "public", "operator:wikidata": "Q668687", "ref": "2440100008"}, "type": "Feature"}
{"dataset_attributes": {"@spider": "usps_collection_boxes", "spider:collection_time": "2023-09-13T08:25:17.985642"}, "geometry": {"coordinates": [-79.0563922, 38.167505], "type": "Point"}, "id": "BtICOUqWcIw9bmU6hAMJr8CbSMo=", "properties": {"@spider": "usps_collection_boxes", "addr:city": "STAUNTON", "addr:country": "US", "addr:full": "2209 N AUGUSTA ST", "addr:postcode": "24401", "addr:state": "VA", "amenity": "post_box", "brand": "United States Postal Service", "brand:wikidata": "Q668687", "collection_times": "Mo-Fr 17:00; Sa 16:00", "name": "USPS COLLECTION BOX - BLUE BOX", "note": "ON 12/24 AND 12/31, THIS BOX MAY BE COLLECTED AS EARLY AS 12 NOON.", "nsi_id": "unitedstatespostalservice-a77078", "operator": "United States Postal Service", "operator:short": "USPS", "operator:type": "public", "operator:wikidata": "Q668687", "ref": "2440100012"}, "type": "Feature"}
{"dataset_attributes": {"@spider": "usps_collection_boxes", "spider:collection_time": "2023-09-13T08:25:17.985642"}, "geometry": {"coordinates": [-79.066394989, 38.163490384], "type": "Point"}, "id": "iFxaKw4uxNS8lZJLGrR7Z8aWQuc=", "properties": {"@spider": "usps_collection_boxes", "addr:city": "STAUNTON", "addr:country": "US", "addr:full": "1430 N AUGUSTA ST", "addr:postcode": "24401", "addr:state": "VA", "amenity": "post_box", "brand": "United States Postal Service", "brand:wikidata": "Q668687", "collection_times": "Mo-Sa 17:30", "name": "USPS COLLECTION BOX - BLUE BOX", "note": "ON 12/24 AND 12/31, THIS BOX MAY BE COLLECTED AS EARLY AS 12 NOON.", "nsi_id": "unitedstatespostalservice-a77078", "operator": "United States Postal Service", "operator:short": "USPS", "operator:type": "public", "operator:wikidata": "Q668687", "ref": "2440100013"}, "type": "Feature"}
{"dataset_attributes": {"@spider": "usps_collection_boxes", "spider:collection_time": "2023-09-13T08:25:17.985642"}, "geometry": {"coordinates": [-79.0517704, 38.168398], "type": "Point"}, "id": "8ORjTL_cLGMwukrs8RLKMK4plV0=", "properties": {"@spider": "usps_collection_boxes", "addr:city": "STAUNTON", "addr:country": "US", "addr:full": "1600 N COALTER ST", "addr:postcode": "24401", "addr:state": "VA", "amenity": "post_box", "brand": "United States Postal Service", "brand:wikidata": "Q668687", "collection_times": "Mo-Sa 09:00", "name": "USPS COLLECTION BOX - BLUE BOX", "nsi_id": "unitedstatespostalservice-a77078", "operator": "United States Postal Service", "operator:short": "USPS", "operator:type": "public", "operator:wikidata": "Q668687", "ref": "2440100017"}, "type": "Feature"}
{"dataset_attributes": {"@spider": "usps_collection_boxes", "spider:collection_time": "2023-09-13T08:25:17.985642"}, "geometry": {"coordinates": [-79.0479295, 38.137843], "type": "Point"}, "id": "VJUpUkf171cyljg_vsJggY3k2o0=", "properties": {"@spider": "usps_collection_boxes", "addr:city": "STAUNTON", "addr:country": "US", "addr:full": "101 COMMUNITY WAY", "addr:postcode": "24401", "addr:state": "VA", "amenity": "post_box", "brand": "United States Postal Service", "brand:wikidata": "Q668687", "collection_times": "Mo-Fr 16:30; Sa 16:00", "name": "USPS COLLECTION BOX - BLUE BOX", "note": "ON 12/24 AND 12/31, THIS BOX MAY BE COLLECTED AS EARLY AS 12 NOON.", "nsi_id": "unitedstatespostalservice-a77078", "operator": "United States Postal Service", "operator:short": "USPS", "operator:type": "public", "operator:wikidata": "Q668687", "ref": "2440100024"}, "type": "Feature"}
{"dataset_attributes": {"@spider": "usps_collection_boxes", "spider:collection_time": "2023-09-13T08:25:17.985642"}, "geometry": {"coordinates": [-79.066394989, 38.163490384], "type": "Point"}, "id": "ohZ9W_lJB8gVCW1aGrTOJwAwoAk=", "properties": {"@spider": "usps_collection_boxes", "addr:city": "STAUNTON", "addr:country": "US", "addr:full": "1430 N AUGUSTA ST", "addr:postcode": "24401", "addr:state": "VA", "amenity": "post_box", "brand": "United States Postal Service", "brand:wikidata": "Q668687", "collection_times": "Mo-Sa 17:30", "name": "USPS COLLECTION BOX - EXPRESS", "note": "ON 12/24 AND 12/31, THIS BOX MAY BE COLLECTED AS EARLY AS 12 NOON.", "nsi_id": "unitedstatespostalservice-a77078", "operator": "United States Postal Service", "operator:short": "USPS", "operator:type": "public", "operator:wikidata": "Q668687", "ref": "2440100028"}, "type": "Feature"}
{"dataset_attributes": {"@spider": "usps_collection_boxes", "spider:collection_time": "2023-09-13T08:25:17.985642"}, "geometry": {"coordinates": [-79.0751496, 38.15029], "type": "Point"}, "id": "xu_is20UCohtqF-qX3F8NBtc10s=", "properties": {"@spider": "usps_collection_boxes", "addr:city": "STAUNTON", "addr:country": "US", "addr:full": "210 W. FREDERICK ST", "addr:postcode": "24401", "addr:state": "VA", "amenity": "post_box", "brand": "United States Postal Service", "brand:wikidata": "Q668687", "collection_times": "Mo-Fr 17:00; Sa 16:00", "name": "USPS COLLECTION BOX - BLUE BOX", "note": "ON 12/24 AND 12/31, THIS BOX MAY BE COLLECTED AS EARLY AS 12 NOON.", "nsi_id": "unitedstatespostalservice-a77078", "operator": "United States Postal Service", "operator:short": "USPS", "operator:type": "public", "operator:wikidata": "Q668687", "ref": "2440100034"}, "type": "Feature"}
{"dataset_attributes": {"@spider": "usps_collection_boxes", "spider:collection_time": "2023-09-13T08:25:17.985642"}, "geometry": {"coordinates": [-79.064682, 38.12322], "type": "Point"}, "id": "K6bp1O7pI_6l-0a6DLwDWpR77SA=", "properties": {"@spider": "usps_collection_boxes", "addr:city": "STAUNTON", "addr:country": "US", "addr:full": "1331 GREENVILLE AVE", "addr:postcode": "24401", "addr:state": "VA", "amenity": "post_box", "brand": "United States Postal Service", "brand:wikidata": "Q668687", "collection_times": "Mo-Fr 16:30; Sa 16:00", "name": "USPS COLLECTION BOX - BLUE BOX", "note": "ON 12/24 AND 12/31, THIS BOX MAY BE COLLECTED AS EARLY AS 12 NOON.", "nsi_id": "unitedstatespostalservice-a77078", "operator": "United States Postal Service", "operator:short": "USPS", "operator:type": "public", "operator:wikidata": "Q668687", "ref": "2440100035"}, "type": "Feature"}
{"dataset_attributes": {"@spider": "usps_collection_boxes", "spider:collection_time": "2023-09-13T08:25:17.985642"}, "geometry": {"coordinates": [-79.066394989, 38.163490384], "type": "Point"}, "id": "o8vg5um99F51a4CJKhy-nMwXSLk=", "properties": {"@spider": "usps_collection_boxes", "addr:city": "STAUNTON", "addr:country": "US", "addr:full": "1430 N AUGUSTA ST", "addr:postcode": "24401", "addr:state": "VA", "amenity": "post_box", "brand": "United States Postal Service", "brand:wikidata": "Q668687", "collection_times": "Mo-Sa 17:30", "name": "USPS COLLECTION BOX - PO LOBBY", "note": "ON 12/24 AND 12/31, THIS BOX MAY BE COLLECTED AS EARLY AS 12 NOON.", "nsi_id": "unitedstatespostalservice-a77078", "operator": "United States Postal Service", "operator:short": "USPS", "operator:type": "public", "operator:wikidata": "Q668687", "ref": "2440100036"}, "type": "Feature"}
{"dataset_attributes": {"@spider": "usps_collection_boxes", "spider:collection_time": "2023-09-13T08:25:17.985642"}, "geometry": {"coordinates": [-79.066394989, 38.163490384], "type": "Point"}, "id": "E6ln7WkKNbzEv1qduecflXB-GZ4=", "properties": {"@spider": "usps_collection_boxes", "addr:city": "STAUNTON", "addr:country": "US", "addr:full": "1430 N AUGUSTA ST", "addr:postcode": "24401", "addr:state": "VA", "amenity": "post_box", "brand": "United States Postal Service", "brand:wikidata": "Q668687", "collection_times": "Mo-Fr 16:30; Sa 12:00", "name": "USPS COLLECTION BOX - PO LOBBY", "note": "ON 12/24 AND 12/31, THIS BOX MAY BE COLLECTED AS EARLY AS 12 NOON.", "nsi_id": "unitedstatespostalservice-a77078", "operator": "United States Postal Service", "operator:short": "USPS", "operator:type": "public", "operator:wikidata": "Q668687", "ref": "2440100041"}, "type": "Feature"}
{"dataset_attributes": {"@spider": "usps_collection_boxes", "spider:collection_time": "2023-09-13T08:25:17.985642"}, "geometry": {"coordinates": [-79.322750277, 38.102529825], "type": "Point"}, "id": "P_SFKbDMnCViNnNUUI1PoE5wHX4=", "properties": {"@spider": "usps_collection_boxes", "addr:city": "AUGUSTA SPRINGS", "addr:country": "US", "addr:full": "10 OLD WHITETAIL LN", "addr:postcode": "24411", "addr:state": "VA", "amenity": "post_box", "brand": "United States Postal Service", "brand:wikidata": "Q668687", "collection_times": "Mo-Fr 13:30; Sa 12:30", "name": "USPS COLLECTION BOX - BLUE BOX", "note": "ON 12/24 AND 12/31, THIS BOX MAY BE COLLECTED AS EARLY AS 12 NOON.", "nsi_id": "unitedstatespostalservice-a77078", "operator": "United States Postal Service", "operator:short": "USPS", "operator:type": "public", "operator:wikidata": "Q668687", "ref": "2441100000"}, "type": "Feature"}
{"dataset_attributes": {"@spider": "usps_collection_boxes", "spider:collection_time": "2023-09-13T08:25:17.985642"}, "geometry": {"coordinates": [-79.322750277, 38.102529825], "type": "Point"}, "id": "jditCCd7ofufc-UxWkWq7w22gaI=", "properties": {"@spider": "usps_collection_boxes", "addr:city": "AUGUSTA SPRINGS", "addr:country": "US", "addr:full": "10 OLD WHITETAIL LN", "addr:postcode": "24411", "addr:state": "VA", "amenity": "post_box", "brand": "United States Postal Service", "brand:wikidata": "Q668687", "collection_times": "Mo-Fr 13:30; Sa 12:30", "name": "USPS COLLECTION BOX - PO LOBBY", "note": "ON 12/24 AND 12/31, THIS BOX MAY BE COLLECTED AS EARLY AS 12 NOON.", "nsi_id": "unitedstatespostalservice-a77078", "operator": "United States Postal Service", "operator:short": "USPS", "operator:type": "public", "operator:wikidata": "Q668687", "ref": "2441100001"}, "type": "Feature"}
{"dataset_attributes": {"@spider": "usps_collection_boxes", "spider:collection_time": "2023-09-13T08:25:17.985642"}, "geometry": {"coordinates": [-79.322750277, 38.102529825], "type": "Point"}, "id": "ZAN9MpgC8iBRYuy7TRFT-nwvvVA=", "properties": {"@spider": "usps_collection_boxes", "addr:city": "AUGUSTA SPRINGS", "addr:country": "US", "addr:full": "10 OLD WHITETAIL LN", "addr:postcode": "24411", "addr:state": "VA", "amenity": "post_box", "brand": "United States Postal Service", "brand:wikidata": "Q668687", "collection_times": "Mo-Fr 13:30; Sa 13:00", "name": "USPS COLLECTION BOX - PO LOBBY", "note": "ON 12/24 AND 12/31, THIS BOX MAY BE COLLECTED AS EARLY AS 12 NOON.", "nsi_id": "unitedstatespostalservice-a77078", "operator": "United States Postal Service", "operator:short": "USPS", "operator:type": "public", "operator:wikidata": "Q668687", "ref": "2441100003"}, "type": "Feature"}
{"dataset_attributes": {"@spider": "usps_collection_boxes", "spider:collection_time": "2023-09-13T08:25:17.985642"}, "geometry": {"coordinates": [-79.842667586, 38.054400221], "type": "Point"}, "id": "DUppgj6nc8VT6yaIr-AKDSSJIdM=", "properties": {"@spider": "usps_collection_boxes", "addr:city": "BACOVA", "addr:country": "US", "addr:full": "23 POST OFFICE DR", "addr:postcode": "24412", "addr:state": "VA", "amenity": "post_box", "brand": "United States Postal Service", "brand:wikidata": "Q668687", "collection_times": "Mo-Fr 14:15; Sa 11:15", "name": "USPS COLLECTION BOX - PO LOBBY", "note": "ON 12/24 AND 12/31, THIS BOX MAY BE COLLECTED AS EARLY AS 12 NOON.", "nsi_id": "unitedstatespostalservice-a77078", "operator": "United States Postal Service", "operator:short": "USPS", "operator:type": "public", "operator:wikidata": "Q668687", "ref": "2441200001"}, "type": "Feature"}
{"dataset_attributes": {"@spider": "usps_collection_boxes", "spider:collection_time": "2023-09-13T08:25:17.985642"}, "geometry": {"coordinates": [-79.842667586, 38.054400221], "type": "Point"}, "id": "kWegKAww0r6yngFE2fqiSpUTQkw=", "properties": {"@spider": "usps_collection_boxes", "addr:city": "BACOVA", "addr:country": "US", "addr:full": "23 POST OFFICE DR", "addr:postcode": "24412", "addr:state": "VA", "amenity": "post_box", "brand": "United States Postal Service", "brand:wikidata": "Q668687", "collection_times": "Mo-Fr 14:30", "name": "USPS COLLECTION BOX - PO LOBBY", "note": "ON 12/24 AND 12/31, THIS BOX MAY BE COLLECTED AS EARLY AS 12 NOON.", "nsi_id": "unitedstatespostalservice-a77078", "operator": "United States Postal Service", "operator:short": "USPS", "operator:type": "public", "operator:wikidata": "Q668687", "ref": "2441200003"}, "type": "Feature"}
{"dataset_attributes": {"@spider": "usps_collection_boxes", "spider:collection_time": "2023-09-13T08:25:17.985642"}, "geometry": {"coordinates": [-79.553100231, 38.499132559], "type": "Point"}, "id": "nBRla707IfZGIYuv9nueHkgcwNk=", "properties": {"@spider": "usps_collection_boxes", "addr:city": "BLUE GRASS", "addr:country": "US", "addr:full": "2741 BLUE GRASS VALLEY RD", "addr:postcode": "24413", "addr:state": "VA", "amenity": "post_box", "brand": "United States Postal Service", "brand:wikidata": "Q668687", "collection_times": "Mo-Fr 16:00; Sa 11:00", "name": "USPS COLLECTION BOX - BLUE BOX", "note": "ON 12/24 AND 12/31, THIS BOX MAY BE COLLECTED AS EARLY AS 12 NOON.", "nsi_id": "unitedstatespostalservice-a77078", "operator": "United States Postal Service", "operator:short": "USPS", "operator:type": "public", "operator:wikidata": "Q668687", "ref": "2441300000"}, "type": "Feature"}
{"dataset_attributes": {"@spider": "usps_collection_boxes", "spider:collection_time": "2023-09-13T08:25:17.985642"}, "geometry": {"coordinates": [-79.553100231, 38.499132559], "type": "Point"}, "id": "3gknK7831XciGKy6dOuazEMZObw=", "properties": {"@spider": "usps_collection_boxes", "addr:city": "BLUE GRASS", "addr:country": "US", "addr:full": "2741 BLUE GRASS VALLEY RD", "addr:postcode": "24413", "addr:state": "VA", "amenity": "post_box", "brand": "United States Postal Service", "brand:wikidata": "Q668687", "collection_times": "Mo-Fr 16:15; Sa 11:15", "name": "USPS COLLECTION BOX - PO LOBBY", "note": "ON 12/24 AND 12/31, THIS BOX MAY BE COLLECTED AS EARLY AS 12 NOON.", "nsi_id": "unitedstatespostalservice-a77078", "operator": "United States Postal Service", "operator:short": "USPS", "operator:type": "public", "operator:wikidata": "Q668687", "ref": "2441300001"}, "type": "Feature"}
{"dataset_attributes": {"@spider": "usps_collection_boxes", "spider:collection_time": "2023-09-13T08:25:17.985642"}, "geometry": {"coordinates": [-79.553100231, 38.499132559], "type": "Point"}, "id": "a5ibKDPiValKcIQx2CQpkmJyUxw=", "properties": {"@spider": "usps_collection_boxes", "addr:city": "BLUE GRASS", "addr:country": "US", "addr:full": "2741 BLUE GRASS VALLEY RD", "addr:postcode": "24413", "addr:state": "VA", "amenity": "post_box", "brand": "United States Postal Service", "brand:wikidata": "Q668687", "collection_times": "Mo-Fr 16:15; Sa 11:30", "name": "USPS COLLECTION BOX - PO LOBBY", "note": "ON 12/24 AND 12/31, THIS BOX MAY BE COLLECTED AS EARLY AS 12 NOON.", "nsi_id": "unitedstatespostalservice-a77078", "operator": "United States Postal Service", "operator:short": "USPS", "operator:type": "public", "operator:wikidata": "Q668687", "ref": "2441300003"}, "type": "Feature"}
{"dataset_attributes": {"@spider": "usps_collection_boxes", "spider:collection_time": "2023-09-13T08:25:17.985642"}, "geometry": {"coordinates": [-79.318849037, 37.929156852], "type": "Point"}, "id": "yeXaOPneR-PSUlJ9hA88m3ceEGI=", "properties": {"@spider": "usps_collection_boxes", "addr:city": "BROWNSBURG", "addr:country": "US", "addr:full": "2741 BROWNSBURG TPKE", "addr:postcode": "24415", "addr:state": "VA", "amenity": "post_box", "brand": "United States Postal Service", "brand:wikidata": "Q668687", "collection_times": "Mo-Sa 13:30", "name": "USPS COLLECTION BOX - BLUE BOX", "note": "ON 12/24 AND 12/31, THIS BOX MAY BE COLLECTED AS EARLY AS 12 NOON.", "nsi_id": "unitedstatespostalservice-a77078", "operator": "United States Postal Service", "operator:short": "USPS", "operator:type": "public", "operator:wikidata": "Q668687", "ref": "2441500000"}, "type": "Feature"}
{"dataset_attributes": {"@spider": "usps_collection_boxes", "spider:collection_time": "2023-09-13T08:25:17.985642"}, "geometry": {"coordinates": [-79.318849037, 37.929156852], "type": "Point"}, "id": "0ocLny361nSfxslO4UgniHh5t-A=", "properties": {"@spider": "usps_collection_boxes", "addr:city": "BROWNSBURG", "addr:country": "US", "addr:full": "2741 BROWNSBURG TPKE", "addr:postcode": "24415", "addr:state": "VA", "amenity": "post_box", "brand": "United States Postal Service", "brand:wikidata": "Q668687", "collection_times": "Mo-Sa 13:30", "name": "USPS COLLECTION BOX - PO LOBBY", "note": "ON 12/24 AND 12/31, THIS BOX MAY BE COLLECTED AS EARLY AS 12 NOON.", "nsi_id": "unitedstatespostalservice-a77078", "operator": "United States Postal Service", "operator:short": "USPS", "operator:type": "public", "operator:wikidata": "Q668687", "ref": "2441500002"}, "type": "Feature"}
{"dataset_attributes": {"@spider": "usps_collection_boxes", "spider:collection_time": "2023-09-13T08:25:17.985642"}, "geometry": {"coordinates": [-79.318849037, 37.929156852], "type": "Point"}, "id": "r0QvBb8rXOiZhZ5dDOX3V_hqi4Q=", "properties": {"@spider": "usps_collection_boxes", "addr:city": "BROWNSBURG", "addr:country": "US", "addr:full": "2741 BROWNSBURG TPKE", "addr:postcode": "24415", "addr:state": "VA", "amenity": "post_box", "brand": "United States Postal Service", "brand:wikidata": "Q668687", "collection_times": "Mo-Sa 13:30", "name": "USPS COLLECTION BOX - PO LOBBY", "note": "ON 12/24 AND 12/31, THIS BOX MAY BE COLLECTED AS EARLY AS 12 NOON.", "nsi_id": "unitedstatespostalservice-a77078", "operator": "United States Postal Service", "operator:short": "USPS", "operator:type": "public", "operator:wikidata": "Q668687", "ref": "2441500003"}, "type": "Feature"}
{"dataset_attributes": {"@spider": "usps_collection_boxes", "spider:collection_time": "2023-09-13T08:25:17.985642"}, "geometry": {"coordinates": [-79.355681, 37.734012], "type": "Point"}, "id": "fMN6x8aP4959uiOx67hdztgYsHQ=", "properties": {"@spider": "usps_collection_boxes", "addr:city": "BUENA VISTA", "addr:country": "US", "addr:full": "2039 SYCAMORE AVE", "addr:postcode": "24416", "addr:state": "VA", "amenity": "post_box", "brand": "United States Postal Service", "brand:wikidata": "Q668687", "collection_times": "Mo-Fr 16:30; Sa 11:00", "name": "USPS COLLECTION BOX - BLUE BOX", "note": "ON 12/24 AND 12/31, THIS BOX MAY BE COLLECTED AS EARLY AS 12 NOON.", "nsi_id": "unitedstatespostalservice-a77078", "operator": "United States Postal Service", "operator:short": "USPS", "operator:type": "public", "operator:wikidata": "Q668687", "ref": "2441600007"}, "type": "Feature"}
{"dataset_attributes": {"@spider": "usps_collection_boxes", "spider:collection_time": "2023-09-13T08:25:17.985642"}, "geometry": {"coordinates": [-79.353384884, 37.733770092], "type": "Point"}, "id": "BxUIO9je_4FCe9p8b5H5-IygPuI=", "properties": {"@spider": "usps_collection_boxes", "addr:city": "BUENA VISTA", "addr:country": "US", "addr:full": "2071 FOREST AVE", "addr:postcode": "24416", "addr:state": "VA", "amenity": "post_box", "brand": "United States Postal Service", "brand:wikidata": "Q668687", "collection_times": "Mo-Fr 16:45; Sa 11:00", "name": "USPS COLLECTION BOX - PO LOBBY", "note": "ON 12/24 AND 12/31, THIS BOX MAY BE COLLECTED AS EARLY AS 12 NOON.", "nsi_id": "unitedstatespostalservice-a77078", "operator": "United States Postal Service", "operator:short": "USPS", "operator:type": "public", "operator:wikidata": "Q668687", "ref": "2441600010"}, "type": "Feature"}
{"dataset_attributes": {"@spider": "usps_collection_boxes", "spider:collection_time": "2023-09-13T08:25:17.985642"}, "geometry": {"coordinates": [-79.353384884, 37.733770092], "type": "Point"}, "id": "7T-PmjIRqh5KZg0F-4zDCA3-cKQ=", "properties": {"@spider": "usps_collection_boxes", "addr:city": "BUENA VISTA", "addr:country": "US", "addr:full": "2071 FOREST AVE", "addr:postcode": "24416", "addr:state": "VA", "amenity": "post_box", "brand": "United States Postal Service", "brand:wikidata": "Q668687", "collection_times": "Mo-Fr 16:30; Sa 11:00", "name": "USPS COLLECTION BOX - BLUE BOX", "note": "ON 12/24 AND 12/31, THIS BOX MAY BE COLLECTED AS EARLY AS 12 NOON.", "nsi_id": "unitedstatespostalservice-a77078", "operator": "United States Postal Service", "operator:short": "USPS", "operator:type": "public", "operator:wikidata": "Q668687", "ref": "2441600012"}, "type": "Feature"}
{"dataset_attributes": {"@spider": "usps_collection_boxes", "spider:collection_time": "2023-09-13T08:25:17.985642"}, "geometry": {"coordinates": [-79.353384884, 37.733770092], "type": "Point"}, "id": "iYvtNxmDj9tt-uzwWi0o9zrccpY=", "properties": {"@spider": "usps_collection_boxes", "addr:city": "BUENA VISTA", "addr:country": "US", "addr:full": "2071 FOREST AVE", "addr:postcode": "24416", "addr:state": "VA", "amenity": "post_box", "brand": "United States Postal Service", "brand:wikidata": "Q668687", "collection_times": "Mo-Fr 16:45; Sa 11:00", "name": "USPS COLLECTION BOX - PO LOBBY", "note": "ON 12/24 AND 12/31, THIS BOX MAY BE COLLECTED AS EARLY AS 12 NOON.", "nsi_id": "unitedstatespostalservice-a77078", "operator": "United States Postal Service", "operator:short": "USPS", "operator:type": "public", "operator:wikidata": "Q668687", "ref": "2441600014"}, "type": "Feature"}
{"dataset_attributes": {"@spider": "usps_collection_boxes", "spider:collection_time": "2023-09-13T08:25:17.985642"}, "geometry": {"coordinates": [-79.353384884, 37.733770092], "type": "Point"}, "id": "-4YD9vx9WLqLUU_eTqeCyq8mB34=", "properties": {"@spider": "usps_collection_boxes", "addr:city": "BUENA VISTA", "addr:country": "US", "addr:full": "2071 FOREST AVE", "addr:postcode": "24416", "addr:state": "VA", "amenity": "post_box", "brand": "United States Postal Service", "brand:wikidata": "Q668687", "collection_times": "Mo-Fr 16:30", "name": "USPS COLLECTION BOX - PO LOBBY", "note": "ON 12/24 AND 12/31, THIS BOX MAY BE COLLECTED AS EARLY AS 12 NOON.", "nsi_id": "unitedstatespostalservice-a77078", "operator": "United States Postal Service", "operator:short": "USPS", "operator:type": "public", "operator:wikidata": "Q668687", "ref": "2441600025"}, "type": "Feature"}
{"dataset_attributes": {"@spider": "usps_collection_boxes", "spider:collection_time": "2023-09-13T08:25:17.985642"}, "geometry": {"coordinates": [-79.158173777, 38.223619577], "type": "Point"}, "id": "CxOZgKfeTywomlwQxWKuXdLm1PU=", "properties": {"@spider": "usps_collection_boxes", "addr:city": "CHURCHVILLE", "addr:country": "US", "addr:full": "3696 CHURCHVILLE AVE", "addr:postcode": "24421", "addr:state": "VA", "amenity": "post_box", "brand": "United States Postal Service", "brand:wikidata": "Q668687", "collection_times": "Mo-Fr 15:30; Sa 10:30", "name": "USPS COLLECTION BOX - BLUE BOX", "note": "ON 12/24 AND 12/31, THIS BOX MAY BE COLLECTED AS EARLY AS 12 NOON.", "nsi_id": "unitedstatespostalservice-a77078", "operator": "United States Postal Service", "operator:short": "USPS", "operator:type": "public", "operator:wikidata": "Q668687", "ref": "2442100000"}, "type": "Feature"}
{"dataset_attributes": {"@spider": "usps_collection_boxes", "spider:collection_time": "2023-09-13T08:25:17.985642"}, "geometry": {"coordinates": [-79.158173777, 38.223619577], "type": "Point"}, "id": "WPYizT307RHpWj_79dR3Qb-EZD4=", "properties": {"@spider": "usps_collection_boxes", "addr:city": "CHURCHVILLE", "addr:country": "US", "addr:full": "3696 CHURCHVILLE AVE", "addr:postcode": "24421", "addr:state": "VA", "amenity": "post_box", "brand": "United States Postal Service", "brand:wikidata": "Q668687", "collection_times": "Mo-Fr 15:30; Sa 10:30", "name": "USPS COLLECTION BOX - PO LOBBY", "note": "ON 12/24 AND 12/31, THIS BOX MAY BE COLLECTED AS EARLY AS 12 NOON.", "nsi_id": "unitedstatespostalservice-a77078", "operator": "United States Postal Service", "operator:short": "USPS", "operator:type": "public", "operator:wikidata": "Q668687", "ref": "2442100001"}, "type": "Feature"}
{"dataset_attributes": {"@spider": "usps_collection_boxes", "spider:collection_time": "2023-09-13T08:25:17.985642"}, "geometry": {"coordinates": [-79.158173777, 38.223619577], "type": "Point"}, "id": "6LDOD98y-NO9S_yEdf1xVWdn8do=", "properties": {"@spider": "usps_collection_boxes", "addr:city": "CHURCHVILLE", "addr:country": "US", "addr:full": "3696 CHURCHVILLE AVE", "addr:postcode": "24421", "addr:state": "VA", "amenity": "post_box", "brand": "United States Postal Service", "brand:wikidata": "Q668687", "collection_times": "Mo-Fr 16:00; Sa 10:30", "name": "USPS COLLECTION BOX - PO LOBBY", "note": "ON 12/24 AND 12/31, THIS BOX MAY BE COLLECTED AS EARLY AS 12 NOON.", "nsi_id": "unitedstatespostalservice-a77078", "operator": "United States Postal Service", "operator:short": "USPS", "operator:type": "public", "operator:wikidata": "Q668687", "ref": "2442100003"}, "type": "Feature"}
{"dataset_attributes": {"@spider": "usps_collection_boxes", "spider:collection_time": "2023-09-13T08:25:17.985642"}, "geometry": {"coordinates": [-79.825876803, 37.816539904], "type": "Point"}, "id": "1amgSMKAFIouegP-xW1Zreiv4NI=", "properties": {"@spider": "usps_collection_boxes", "addr:city": "CLIFTON FORGE", "addr:country": "US", "addr:full": "324 COMMERCIAL AVE", "addr:postcode": "24422", "addr:state": "VA", "amenity": "post_box", "brand": "United States Postal Service", "brand:wikidata": "Q668687", "collection_times": "Mo-Fr 17:00; Sa 12:00", "name": "USPS COLLECTION BOX - BLUE BOX", "note": "ON 12/24 AND 12/31, THIS BOX MAY BE COLLECTED AS EARLY AS 12 NOON.", "nsi_id": "unitedstatespostalservice-a77078", "operator": "United States Postal Service", "operator:short": "USPS", "operator:type": "public", "operator:wikidata": "Q668687", "ref": "2442200007"}, "type": "Feature"}
{"dataset_attributes": {"@spider": "usps_collection_boxes", "spider:collection_time": "2023-09-13T08:25:17.985642"}, "geometry": {"coordinates": [-79.8238811, 37.815867], "type": "Point"}, "id": "-5Ve9HKdH_IIt07QefKLpFp68no=", "properties": {"@spider": "usps_collection_boxes", "addr:city": "CLIFTON FORGE", "addr:country": "US", "addr:full": "601 MAIN ST", "addr:postcode": "24422", "addr:state": "VA", "amenity": "post_box", "brand": "United States Postal Service", "brand:wikidata": "Q668687", "collection_times": "Mo-Fr 15:00; Sa 12:00", "name": "USPS COLLECTION BOX - BLUE BOX", "note": "ON 12/24 AND 12/31, THIS BOX MAY BE COLLECTED AS EARLY AS 12 NOON.", "nsi_id": "unitedstatespostalservice-a77078", "operator": "United States Postal Service", "operator:short": "USPS", "operator:type": "public", "operator:wikidata": "Q668687", "ref": "2442200011"}, "type": "Feature"}
{"dataset_attributes": {"@spider": "usps_collection_boxes", "spider:collection_time": "2023-09-13T08:25:17.985642"}, "geometry": {"coordinates": [-79.8119399, 37.815058], "type": "Point"}, "id": "7M1K1h82uaiPev5Y116L6NChSFk=", "properties": {"@spider": "usps_collection_boxes", "addr:city": "CLIFTON FORGE", "addr:country": "US", "addr:full": "1516 MAIN ST", "addr:postcode": "24422", "addr:state": "VA", "amenity": "post_box", "brand": "United States Postal Service", "brand:wikidata": "Q668687", "collection_times": "Mo-Sa 12:00", "name": "USPS COLLECTION BOX - BLUE BOX", "nsi_id": "unitedstatespostalservice-a77078", "operator": "United States Postal Service", "operator:short": "USPS", "operator:type": "public", "operator:wikidata": "Q668687", "ref": "2442200013"}, "type": "Feature"}
{"dataset_attributes": {"@spider": "usps_collection_boxes", "spider:collection_time": "2023-09-13T08:25:17.985642"}, "geometry": {"coordinates": [-79.825876803, 37.816539904], "type": "Point"}, "id": "IiC-ABSK5HaN6xEL64bcbrqR6tE=", "properties": {"@spider": "usps_collection_boxes", "addr:city": "CLIFTON FORGE", "addr:country": "US", "addr:full": "324 COMMERCIAL AVE", "addr:postcode": "24422", "addr:state": "VA", "amenity": "post_box", "brand": "United States Postal Service", "brand:wikidata": "Q668687", "collection_times": "Mo-Fr 17:00; Sa 12:00", "name": "USPS COLLECTION BOX - PO LOBBY", "note": "ON 12/24 AND 12/31, THIS BOX MAY BE COLLECTED AS EARLY AS 12 NOON.", "nsi_id": "unitedstatespostalservice-a77078", "operator": "United States Postal Service", "operator:short": "USPS", "operator:type": "public", "operator:wikidata": "Q668687", "ref": "2442200016"}, "type": "Feature"}
{"dataset_attributes": {"@spider": "usps_collection_boxes", "spider:collection_time": "2023-09-13T08:25:17.985642"}, "geometry": {"coordinates": [-79.825876803, 37.816539904], "type": "Point"}, "id": "_G4epO83e5nXly6oXhqPxMcwC0k=", "properties": {"@spider": "usps_collection_boxes", "addr:city": "CLIFTON FORGE", "addr:country": "US", "addr:full": "324 COMMERCIAL AVE", "addr:postcode": "24422", "addr:state": "VA", "amenity": "post_box", "brand": "United States Postal Service", "brand:wikidata": "Q668687", "collection_times": "Mo-Fr 17:00", "name": "USPS COLLECTION BOX - PO LOBBY", "note": "ON 12/24 AND 12/31, THIS BOX MAY BE COLLECTED AS EARLY AS 12 NOON.", "nsi_id": "unitedstatespostalservice-a77078", "operator": "United States Postal Service", "operator:short": "USPS", "operator:type": "public", "operator:wikidata": "Q668687", "ref": "2442200022"}, "type": "Feature"}
{"dataset_attributes": {"@spider": "usps_collection_boxes", "spider:collection_time": "2023-09-13T08:25:17.985642"}, "geometry": {"coordinates": [-79.9845799, 37.777691], "type": "Point"}, "id": "6I0aFPow914hyD4vgfELB0A448U=", "properties": {"@spider": "usps_collection_boxes", "addr:city": "COVINGTON", "addr:country": "US", "addr:full": "229 E MADISON ST", "addr:postcode": "24426", "addr:state": "VA", "amenity": "post_box", "brand": "United States Postal Service", "brand:wikidata": "Q668687", "collection_times": "Mo-Fr 16:00; Sa 15:00", "name": "USPS COLLECTION BOX - BLUE BOX", "note": "ON 12/24 AND 12/31, THIS BOX MAY BE COLLECTED AS EARLY AS 12 NOON.", "nsi_id": "unitedstatespostalservice-a77078", "operator": "United States Postal Service", "operator:short": "USPS", "operator:type": "public", "operator:wikidata": "Q668687", "ref": "2442600019"}, "type": "Feature"}
{"dataset_attributes": {"@spider": "usps_collection_boxes", "spider:collection_time": "2023-09-13T08:25:17.985642"}, "geometry": {"coordinates": [-79.9906070344, 37.7897100094], "type": "Point"}, "id": "4ORzEfWxY_80P3uyas0yh5dziKQ=", "properties": {"@spider": "usps_collection_boxes", "addr:city": "COVINGTON", "addr:country": "US", "addr:full": "220 S MONROE AVE", "addr:postcode": "24426", "addr:state": "VA", "amenity": "post_box", "brand": "United States Postal Service", "brand:wikidata": "Q668687", "collection_times": "Mo-Fr 16:00; Sa 15:00", "name": "USPS COLLECTION BOX - BLUE BOX", "note": "ON 12/24 AND 12/31, THIS BOX MAY BE COLLECTED AS EARLY AS 12 NOON.", "nsi_id": "unitedstatespostalservice-a77078", "operator": "United States Postal Service", "operator:short": "USPS", "operator:type": "public", "operator:wikidata": "Q668687", "ref": "2442600021"}, "type": "Feature"}
{"dataset_attributes": {"@spider": "usps_collection_boxes", "spider:collection_time": "2023-09-13T08:25:17.985642"}, "geometry": {"coordinates": [-79.9952874, 37.789798], "type": "Point"}, "id": "iUfNgDQmXgPtHbVyB2kQMln5XjE=", "properties": {"@spider": "usps_collection_boxes", "addr:city": "COVINGTON", "addr:country": "US", "addr:full": "106 N MAPLE AVE", "addr:postcode": "24426", "addr:state": "VA", "amenity": "post_box", "brand": "United States Postal Service", "brand:wikidata": "Q668687", "collection_times": "Mo-Fr 16:00; Sa 15:00", "name": "USPS COLLECTION BOX - BLUE BOX", "note": "ON 12/24 AND 12/31, THIS BOX MAY BE COLLECTED AS EARLY AS 12 NOON.", "nsi_id": "unitedstatespostalservice-a77078", "operator": "United States Postal Service", "operator:short": "USPS", "operator:type": "public", "operator:wikidata": "Q668687", "ref": "2442600023"}, "type": "Feature"}
{"dataset_attributes": {"@spider": "usps_collection_boxes", "spider:collection_time": "2023-09-13T08:25:17.985642"}, "geometry": {"coordinates": [-79.9958605, 37.792295], "type": "Point"}, "id": "IpzPkAp2PdNMcz0KpJbKw82aDvI=", "properties": {"@spider": "usps_collection_boxes", "addr:city": "COVINGTON", "addr:country": "US", "addr:full": "304 W MAIN ST", "addr:postcode": "24426", "addr:state": "VA", "amenity": "post_box", "brand": "United States Postal Service", "brand:wikidata": "Q668687", "collection_times": "Mo-Fr 16:00; Sa 15:00", "name": "USPS COLLECTION BOX - BLUE BOX", "note": "ON 12/24 AND 12/31, THIS BOX MAY BE COLLECTED AS EARLY AS 12 NOON.", "nsi_id": "unitedstatespostalservice-a77078", "operator": "United States Postal Service", "operator:short": "USPS", "operator:type": "public", "operator:wikidata": "Q668687", "ref": "2442600027"}, "type": "Feature"}
{"dataset_attributes": {"@spider": "usps_collection_boxes", "spider:collection_time": "2023-09-13T08:25:17.985642"}, "geometry": {"coordinates": [-79.994579272, 37.793044991], "type": "Point"}, "id": "KfRrZOxGBt-dCr2Lhs-B1aDpAMk=", "properties": {"@spider": "usps_collection_boxes", "addr:city": "COVINGTON", "addr:country": "US", "addr:full": "211 W MAIN ST", "addr:postcode": "24426", "addr:state": "VA", "amenity": "post_box", "brand": "United States Postal Service", "brand:wikidata": "Q668687", "collection_times": "Mo-Fr 17:00; Sa 15:00", "name": "USPS COLLECTION BOX - BLUE BOX", "note": "ON 12/24 AND 12/31, THIS BOX MAY BE COLLECTED AS EARLY AS 12 NOON.", "nsi_id": "unitedstatespostalservice-a77078", "operator": "United States Postal Service", "operator:short": "USPS", "operator:type": "public", "operator:wikidata": "Q668687", "ref": "2442600029"}, "type": "Feature"}
{"dataset_attributes": {"@spider": "usps_collection_boxes", "spider:collection_time": "2023-09-13T08:25:17.985642"}, "geometry": {"coordinates": [-79.994579272, 37.793044991], "type": "Point"}, "id": "6wVusaM_ynZL4AKSyRUSj-AElYs=", "properties": {"@spider": "usps_collection_boxes", "addr:city": "COVINGTON", "addr:country": "US", "addr:full": "211 W MAIN ST", "addr:postcode": "24426", "addr:state": "VA", "amenity": "post_box", "brand": "United States Postal Service", "brand:wikidata": "Q668687", "collection_times": "Mo-Fr 17:00; Sa 15:00", "name": "USPS COLLECTION BOX - PO LOBBY", "note": "ON 12/24 AND 12/31, THIS BOX MAY BE COLLECTED AS EARLY AS 12 NOON.", "nsi_id": "unitedstatespostalservice-a77078", "operator": "United States Postal Service", "operator:short": "USPS", "operator:type": "public", "operator:wikidata": "Q668687", "ref": "2442600031"}, "type": "Feature"}
{"dataset_attributes": {"@spider": "usps_collection_boxes", "spider:collection_time": "2023-09-13T08:25:17.985642"}, "geometry": {"coordinates": [-79.9901575, 37.76804], "type": "Point"}, "id": "Cgugzqu84PmnhbK_43t9pdZs9f0=", "properties": {"@spider": "usps_collection_boxes", "addr:city": "COVINGTON", "addr:country": "US", "addr:full": "313 THACKER AVE", "addr:postcode": "24426", "addr:state": "VA", "amenity": "post_box", "brand": "United States Postal Service", "brand:wikidata": "Q668687", "collection_times": "Mo-Sa 10:30", "name": "USPS COLLECTION BOX - BLUE BOX", "nsi_id": "unitedstatespostalservice-a77078", "operator": "United States Postal Service", "operator:short": "USPS", "operator:type": "public", "operator:wikidata": "Q668687", "ref": "2442600038"}, "type": "Feature"}
{"dataset_attributes": {"@spider": "usps_collection_boxes", "spider:collection_time": "2023-09-13T08:25:17.985642"}, "geometry": {"coordinates": [-79.994579272, 37.793044991], "type": "Point"}, "id": "LtujPqAORJaavdyCEZoTk0THShA=", "properties": {"@spider": "usps_collection_boxes", "addr:city": "COVINGTON", "addr:country": "US", "addr:full": "211 W MAIN ST", "addr:postcode": "24426", "addr:state": "VA", "amenity": "post_box", "brand": "United States Postal Service", "brand:wikidata": "Q668687", "collection_times": "Mo-Sa 11:00", "name": "USPS COLLECTION BOX - PO LOBBY", "nsi_id": "unitedstatespostalservice-a77078", "operator": "United States Postal Service", "operator:short": "USPS", "operator:type": "public", "operator:wikidata": "Q668687", "ref": "2442600041"}, "type": "Feature"}
{"dataset_attributes": {"@spider": "usps_collection_boxes", "spider:collection_time": "2023-09-13T08:25:17.985642"}, "geometry": {"coordinates": [-79.385318205, 38.077787453], "type": "Point"}, "id": "Ve2223tEt-OUqb1CnKkxV0Nlmqc=", "properties": {"@spider": "usps_collection_boxes", "addr:city": "CRAIGSVILLE", "addr:country": "US", "addr:full": "105 W CRAIG ST", "addr:postcode": "24430", "addr:state": "VA", "amenity": "post_box", "brand": "United States Postal Service", "brand:wikidata": "Q668687", "collection_times": "Mo-Fr 15:45; Sa 10:45", "name": "USPS COLLECTION BOX - BLUE BOX", "note": "ON 12/24 AND 12/31, THIS BOX MAY BE COLLECTED AS EARLY AS 12 NOON.", "nsi_id": "unitedstatespostalservice-a77078", "operator": "United States Postal Service", "operator:short": "USPS", "operator:type": "public", "operator:wikidata": "Q668687", "ref": "2443000000"}, "type": "Feature"}
{"dataset_attributes": {"@spider": "usps_collection_boxes", "spider:collection_time": "2023-09-13T08:25:17.985642"}, "geometry": {"coordinates": [-79.385318205, 38.077787453], "type": "Point"}, "id": "4mOrk5BMGK91AfITG1EOh6iZE64=", "properties": {"@spider": "usps_collection_boxes", "addr:city": "CRAIGSVILLE", "addr:country": "US", "addr:full": "105 W CRAIG ST", "addr:postcode": "24430", "addr:state": "VA", "amenity": "post_box", "brand": "United States Postal Service", "brand:wikidata": "Q668687", "collection_times": "Mo-Fr 15:45; Sa 10:45", "name": "USPS COLLECTION BOX - PO LOBBY", "note": "ON 12/24 AND 12/31, THIS BOX MAY BE COLLECTED AS EARLY AS 12 NOON.", "nsi_id": "unitedstatespostalservice-a77078", "operator": "United States Postal Service", "operator:short": "USPS", "operator:type": "public", "operator:wikidata": "Q668687", "ref": "2443000001"}, "type": "Feature"}
{"dataset_attributes": {"@spider": "usps_collection_boxes", "spider:collection_time": "2023-09-13T08:25:17.985642"}, "geometry": {"coordinates": [-79.385318205, 38.077787453], "type": "Point"}, "id": "Cfrg9tNUNnLInV755IXRI9Wyfj4=", "properties": {"@spider": "usps_collection_boxes", "addr:city": "CRAIGSVILLE", "addr:country": "US", "addr:full": "105 W CRAIG ST", "addr:postcode": "24430", "addr:state": "VA", "amenity": "post_box", "brand": "United States Postal Service", "brand:wikidata": "Q668687", "collection_times": "Mo-Fr 16:00; Sa 11:00", "name": "USPS COLLECTION BOX - PO LOBBY", "note": "ON 12/24 AND 12/31, THIS BOX MAY BE COLLECTED AS EARLY AS 12 NOON.", "nsi_id": "unitedstatespostalservice-a77078", "operator": "United States Postal Service", "operator:short": "USPS", "operator:type": "public", "operator:wikidata": "Q668687", "ref": "2443000003"}, "type": "Feature"}
{"dataset_attributes": {"@spider": "usps_collection_boxes", "spider:collection_time": "2023-09-13T08:25:17.985642"}, "geometry": {"coordinates": [-78.841528, 38.152006], "type": "Point"}, "id": "zV4WNxGMtdttCqrTo3Om40KY52w=", "properties": {"@spider": "usps_collection_boxes", "addr:city": "CRIMORA", "addr:country": "US", "addr:full": "1805 EAST SIDE HWY STE 101", "addr:postcode": "24431", "addr:state": "VA", "amenity": "post_box", "brand": "United States Postal Service", "brand:wikidata": "Q668687", "collection_times": "Mo-Fr 15:30; Sa 10:30", "name": "USPS COLLECTION BOX - BLUE BOX", "note": "ON 12/24 AND 12/31, THIS BOX MAY BE COLLECTED AS EARLY AS 12 NOON.", "nsi_id": "unitedstatespostalservice-a77078", "operator": "United States Postal Service", "operator:short": "USPS", "operator:type": "public", "operator:wikidata": "Q668687", "ref": "2443100000"}, "type": "Feature"}
{"dataset_attributes": {"@spider": "usps_collection_boxes", "spider:collection_time": "2023-09-13T08:25:17.985642"}, "geometry": {"coordinates": [-78.841528, 38.152006], "type": "Point"}, "id": "BQhQKjX3vDgBgmywxdcUfD18-so=", "properties": {"@spider": "usps_collection_boxes", "addr:city": "CRIMORA", "addr:country": "US", "addr:full": "1805 EAST SIDE HWY STE 101", "addr:postcode": "24431", "addr:state": "VA", "amenity": "post_box", "brand": "United States Postal Service", "brand:wikidata": "Q668687", "collection_times": "Mo-Fr 15:30; Sa 10:30", "name": "USPS COLLECTION BOX - PO LOBBY", "note": "ON 12/24 AND 12/31, THIS BOX MAY BE COLLECTED AS EARLY AS 12 NOON.", "nsi_id": "unitedstatespostalservice-a77078", "operator": "United States Postal Service", "operator:short": "USPS", "operator:type": "public", "operator:wikidata": "Q668687", "ref": "2443100001"}, "type": "Feature"}
{"dataset_attributes": {"@spider": "usps_collection_boxes", "spider:collection_time": "2023-09-13T08:25:17.985642"}, "geometry": {"coordinates": [-79.405874476, 38.196849926], "type": "Point"}, "id": "SCLhNT4L47syh198-2ttpdJaUWQ=", "properties": {"@spider": "usps_collection_boxes", "addr:city": "DEERFIELD", "addr:country": "US", "addr:full": "3079 DEERFIELD VALLEY RD", "addr:postcode": "24432", "addr:state": "VA", "amenity": "post_box", "brand": "United States Postal Service", "brand:wikidata": "Q668687", "collection_times": "Mo-Fr 16:00; Sa 11:30", "name": "USPS COLLECTION BOX - PO LOBBY", "note": "ON 12/24 AND 12/31, THIS BOX MAY BE COLLECTED AS EARLY AS 12 NOON.", "nsi_id": "unitedstatespostalservice-a77078", "operator": "United States Postal Service", "operator:short": "USPS", "operator:type": "public", "operator:wikidata": "Q668687", "ref": "2443200000"}, "type": "Feature"}
{"dataset_attributes": {"@spider": "usps_collection_boxes", "spider:collection_time": "2023-09-13T08:25:17.985642"}, "geometry": {"coordinates": [-79.405874476, 38.196849926], "type": "Point"}, "id": "hXfsyWP-D4MFSK7ByAvMBs-I3xA=", "properties": {"@spider": "usps_collection_boxes", "addr:city": "DEERFIELD", "addr:country": "US", "addr:full": "3079 DEERFIELD VALLEY RD", "addr:postcode": "24432", "addr:state": "VA", "amenity": "post_box", "brand": "United States Postal Service", "brand:wikidata": "Q668687", "collection_times": "Mo-Fr 16:00; Sa 11:30", "name": "USPS COLLECTION BOX - BLUE BOX", "note": "ON 12/24 AND 12/31, THIS BOX MAY BE COLLECTED AS EARLY AS 12 NOON.", "nsi_id": "unitedstatespostalservice-a77078", "operator": "United States Postal Service", "operator:short": "USPS", "operator:type": "public", "operator:wikidata": "Q668687", "ref": "2443200001"}, "type": "Feature"}
{"dataset_attributes": {"@spider": "usps_collection_boxes", "spider:collection_time": "2023-09-13T08:25:17.985642"}, "geometry": {"coordinates": [-79.405874476, 38.196849926], "type": "Point"}, "id": "DFUGtTfPxWUSOnk_P9-TeiFfo6Q=", "properties": {"@spider": "usps_collection_boxes", "addr:city": "DEERFIELD", "addr:country": "US", "addr:full": "3079 DEERFIELD VALLEY RD", "addr:postcode": "24432", "addr:state": "VA", "amenity": "post_box", "brand": "United States Postal Service", "brand:wikidata": "Q668687", "collection_times": "Mo-Fr 17:00; Sa 12:30", "name": "USPS COLLECTION BOX - PO LOBBY", "note": "ON 12/24 AND 12/31, THIS BOX MAY BE COLLECTED AS EARLY AS 12 NOON.", "nsi_id": "unitedstatespostalservice-a77078", "operator": "United States Postal Service", "operator:short": "USPS", "operator:type": "public", "operator:wikidata": "Q668687", "ref": "2443200003"}, "type": "Feature"}
{"dataset_attributes": {"@spider": "usps_collection_boxes", "spider:collection_time": "2023-09-13T08:25:17.985642"}, "geometry": {"coordinates": [-79.443233, 38.433323], "type": "Point"}, "id": "q7A-dua1xVn0hhUxJX2LWuSEQfQ=", "properties": {"@spider": "usps_collection_boxes", "addr:city": "DOE HILL", "addr:country": "US", "addr:full": "7583 DOE HILL RD", "addr:postcode": "24433", "addr:state": "VA", "amenity": "post_box", "brand": "United States Postal Service", "brand:wikidata": "Q668687", "collection_times": "Mo-Fr 13:00; Sa 12:00", "name": "USPS COLLECTION BOX - BLUE BOX", "note": "ON 12/24 AND 12/31, THIS BOX MAY BE COLLECTED AS EARLY AS 12 NOON.", "nsi_id": "unitedstatespostalservice-a77078", "operator": "United States Postal Service", "operator:short": "USPS", "operator:type": "public", "operator:wikidata": "Q668687", "ref": "2443300000"}, "type": "Feature"}
{"dataset_attributes": {"@spider": "usps_collection_boxes", "spider:collection_time": "2023-09-13T08:25:17.985642"}, "geometry": {"coordinates": [-79.288394214, 37.879900483], "type": "Point"}, "id": "13VpCH5nxDuXRmt-lf7ARUBrQBo=", "properties": {"@spider": "usps_collection_boxes", "addr:city": "FAIRFIELD", "addr:country": "US", "addr:full": "5586 N LEE HWY", "addr:postcode": "24435", "addr:state": "VA", "amenity": "post_box", "brand": "United States Postal Service", "brand:wikidata": "Q668687", "collection_times": "Mo-Fr 16:15; Sa 11:15", "name": "USPS COLLECTION BOX - BLUE BOX", "note": "ON 12/24 AND 12/31, THIS BOX MAY BE COLLECTED AS EARLY AS 12 NOON.", "nsi_id": "unitedstatespostalservice-a77078", "operator": "United States Postal Service", "operator:short": "USPS", "operator:type": "public", "operator:wikidata": "Q668687", "ref": "2443500000"}, "type": "Feature"}
{"dataset_attributes": {"@spider": "usps_collection_boxes", "spider:collection_time": "2023-09-13T08:25:17.985642"}, "geometry": {"coordinates": [-79.288394214, 37.879900483], "type": "Point"}, "id": "p0-LpcirGRp-DkqPWtK9n9IJuiA=", "properties": {"@spider": "usps_collection_boxes", "addr:city": "FAIRFIELD", "addr:country": "US", "addr:full": "5586 N LEE HWY", "addr:postcode": "24435", "addr:state": "VA", "amenity": "post_box", "brand": "United States Postal Service", "brand:wikidata": "Q668687", "collection_times": "Mo-Fr 16:15; Sa 11:15", "name": "USPS COLLECTION BOX - PO LOBBY", "note": "ON 12/24 AND 12/31, THIS BOX MAY BE COLLECTED AS EARLY AS 12 NOON.", "nsi_id": "unitedstatespostalservice-a77078", "operator": "United States Postal Service", "operator:short": "USPS", "operator:type": "public", "operator:wikidata": "Q668687", "ref": "2443500001"}, "type": "Feature"}
{"dataset_attributes": {"@spider": "usps_collection_boxes", "spider:collection_time": "2023-09-13T08:25:17.985642"}, "geometry": {"coordinates": [-79.288394214, 37.879900483], "type": "Point"}, "id": "NrOVBWLgH34CXdPYGXNi5WLuzdM=", "properties": {"@spider": "usps_collection_boxes", "addr:city": "FAIRFIELD", "addr:country": "US", "addr:full": "5586 N LEE HWY", "addr:postcode": "24435", "addr:state": "VA", "amenity": "post_box", "brand": "United States Postal Service", "brand:wikidata": "Q668687", "collection_times": "Mo-Fr 16:15; Sa 11:15", "name": "USPS COLLECTION BOX - PO LOBBY", "note": "ON 12/24 AND 12/31, THIS BOX MAY BE COLLECTED AS EARLY AS 12 NOON.", "nsi_id": "unitedstatespostalservice-a77078", "operator": "United States Postal Service", "operator:short": "USPS", "operator:type": "public", "operator:wikidata": "Q668687", "ref": "2443500003"}, "type": "Feature"}
{"dataset_attributes": {"@spider": "usps_collection_boxes", "spider:collection_time": "2023-09-13T08:25:17.985642"}, "geometry": {"coordinates": [-79.819890654, 37.752109596], "type": "Point"}, "id": "jiOawa5ommhkOjkw2zZd0sDN1jY=", "properties": {"@spider": "usps_collection_boxes", "addr:city": "GLEN WILTON", "addr:country": "US", "addr:full": "20 MAIN ST", "addr:postcode": "24438", "addr:state": "VA", "amenity": "post_box", "brand": "United States Postal Service", "brand:wikidata": "Q668687", "collection_times": "Mo-Sa 11:45", "name": "USPS COLLECTION BOX - PO LOBBY", "nsi_id": "unitedstatespostalservice-a77078", "operator": "United States Postal Service", "operator:short": "USPS", "operator:type": "public", "operator:wikidata": "Q668687", "ref": "2443800000"}, "type": "Feature"}
{"dataset_attributes": {"@spider": "usps_collection_boxes", "spider:collection_time": "2023-09-13T08:25:17.985642"}, "geometry": {"coordinates": [-79.819890654, 37.752109596], "type": "Point"}, "id": "6SRcArrqt_KJnAJBrC5SQbiYPsg=", "properties": {"@spider": "usps_collection_boxes", "addr:city": "GLEN WILTON", "addr:country": "US", "addr:full": "20 MAIN ST", "addr:postcode": "24438", "addr:state": "VA", "amenity": "post_box", "brand": "United States Postal Service", "brand:wikidata": "Q668687", "collection_times": "Mo-Sa 12:00", "name": "USPS COLLECTION BOX - PO LOBBY", "nsi_id": "unitedstatespostalservice-a77078", "operator": "United States Postal Service", "operator:short": "USPS", "operator:type": "public", "operator:wikidata": "Q668687", "ref": "2443800003"}, "type": "Feature"}
{"dataset_attributes": {"@spider": "usps_collection_boxes", "spider:collection_time": "2023-09-13T08:25:17.985642"}, "geometry": {"coordinates": [-79.498330511, 37.982084227], "type": "Point"}, "id": "HhPWB8dYMB22SeNNcwN50ncwusk=", "properties": {"@spider": "usps_collection_boxes", "addr:city": "GOSHEN", "addr:country": "US", "addr:full": "9693 MAURY RIVER RD", "addr:postcode": "24439", "addr:state": "VA", "amenity": "post_box", "brand": "United States Postal Service", "brand:wikidata": "Q668687", "collection_times": "Mo-Fr 15:45; Sa 10:45", "name": "USPS COLLECTION BOX - BLUE BOX", "note": "ON 12/24 AND 12/31, THIS BOX MAY BE COLLECTED AS EARLY AS 12 NOON.", "nsi_id": "unitedstatespostalservice-a77078", "operator": "United States Postal Service", "operator:short": "USPS", "operator:type": "public", "operator:wikidata": "Q668687", "ref": "2443900000"}, "type": "Feature"}
{"dataset_attributes": {"@spider": "usps_collection_boxes", "spider:collection_time": "2023-09-13T08:25:17.985642"}, "geometry": {"coordinates": [-79.498330511, 37.982084227], "type": "Point"}, "id": "IYL6alLrJoEDYdCtF4gJIJOQOP0=", "properties": {"@spider": "usps_collection_boxes", "addr:city": "GOSHEN", "addr:country": "US", "addr:full": "9693 MAURY RIVER RD", "addr:postcode": "24439", "addr:state": "VA", "amenity": "post_box", "brand": "United States Postal Service", "brand:wikidata": "Q668687", "collection_times": "Mo-Fr 15:45; Sa 10:45", "name": "USPS COLLECTION BOX - PO LOBBY", "note": "ON 12/24 AND 12/31, THIS BOX MAY BE COLLECTED AS EARLY AS 12 NOON.", "nsi_id": "unitedstatespostalservice-a77078", "operator": "United States Postal Service", "operator:short": "USPS", "operator:type": "public", "operator:wikidata": "Q668687", "ref": "2443900001"}, "type": "Feature"}
{"dataset_attributes": {"@spider": "usps_collection_boxes", "spider:collection_time": "2023-09-13T08:25:17.985642"}, "geometry": {"coordinates": [-79.498330511, 37.982084227], "type": "Point"}, "id": "QBkU1pEcz5pmaY5ep3r6MuxDuI4=", "properties": {"@spider": "usps_collection_boxes", "addr:city": "GOSHEN", "addr:country": "US", "addr:full": "9693 MAURY RIVER RD", "addr:postcode": "24439", "addr:state": "VA", "amenity": "post_box", "brand": "United States Postal Service", "brand:wikidata": "Q668687", "collection_times": "Mo-Fr 15:45; Sa 10:45", "name": "USPS COLLECTION BOX - PO LOBBY", "note": "ON 12/24 AND 12/31, THIS BOX MAY BE COLLECTED AS EARLY AS 12 NOON.", "nsi_id": "unitedstatespostalservice-a77078", "operator": "United States Postal Service", "operator:short": "USPS", "operator:type": "public", "operator:wikidata": "Q668687", "ref": "2443900002"}, "type": "Feature"}
{"dataset_attributes": {"@spider": "usps_collection_boxes", "spider:collection_time": "2023-09-13T08:25:17.985642"}, "geometry": {"coordinates": [-79.498330511, 37.982084227], "type": "Point"}, "id": "k5E__xrZVGxXbYRSZrrdQmr0kPQ=", "properties": {"@spider": "usps_collection_boxes", "addr:city": "GOSHEN", "addr:country": "US", "addr:full": "9693 MAURY RIVER RD", "addr:postcode": "24439", "addr:state": "VA", "amenity": "post_box", "brand": "United States Postal Service", "brand:wikidata": "Q668687", "collection_times": "Mo-Fr 15:45; Sa 10:45", "name": "USPS COLLECTION BOX - PO LOBBY", "note": "ON 12/24 AND 12/31, THIS BOX MAY BE COLLECTED AS EARLY AS 12 NOON.", "nsi_id": "unitedstatespostalservice-a77078", "operator": "United States Postal Service", "operator:short": "USPS", "operator:type": "public", "operator:wikidata": "Q668687", "ref": "2443900004"}, "type": "Feature"}
{"dataset_attributes": {"@spider": "usps_collection_boxes", "spider:collection_time": "2023-09-13T08:25:17.985642"}, "geometry": {"coordinates": [-79.157848789, 38.002340094], "type": "Point"}, "id": "BroPKkJFcf6Ju0SW3nwNHDOD6s0=", "properties": {"@spider": "usps_collection_boxes", "addr:city": "GREENVILLE", "addr:country": "US", "addr:full": "4171 LEE JACKSON HWY STE 101", "addr:postcode": "24440", "addr:state": "VA", "amenity": "post_box", "brand": "United States Postal Service", "brand:wikidata": "Q668687", "collection_times": "Mo-Fr 16:00; Sa 11:00", "name": "USPS COLLECTION BOX - BLUE BOX", "note": "ON 12/24 AND 12/31, THIS BOX MAY BE COLLECTED AS EARLY AS 12 NOON.", "nsi_id": "unitedstatespostalservice-a77078", "operator": "United States Postal Service", "operator:short": "USPS", "operator:type": "public", "operator:wikidata": "Q668687", "ref": "2444000000"}, "type": "Feature"}
{"dataset_attributes": {"@spider": "usps_collection_boxes", "spider:collection_time": "2023-09-13T08:25:17.985642"}, "geometry": {"coordinates": [-79.157848789, 38.002340094], "type": "Point"}, "id": "8O4d3WRwTOlrd-ZsXYreboBdJcc=", "properties": {"@spider": "usps_collection_boxes", "addr:city": "GREENVILLE", "addr:country": "US", "addr:full": "4171 LEE JACKSON HWY STE 101", "addr:postcode": "24440", "addr:state": "VA", "amenity": "post_box", "brand": "United States Postal Service", "brand:wikidata": "Q668687", "collection_times": "Mo-Fr 16:00; Sa 11:00", "name": "USPS COLLECTION BOX - PO LOBBY", "note": "ON 12/24 AND 12/31, THIS BOX MAY BE COLLECTED AS EARLY AS 12 NOON.", "nsi_id": "unitedstatespostalservice-a77078", "operator": "United States Postal Service", "operator:short": "USPS", "operator:type": "public", "operator:wikidata": "Q668687", "ref": "2444000001"}, "type": "Feature"}
{"dataset_attributes": {"@spider": "usps_collection_boxes", "spider:collection_time": "2023-09-13T08:25:17.985642"}, "geometry": {"coordinates": [-79.157848789, 38.002340094], "type": "Point"}, "id": "ML4-bI9ESfnXUnSDYfaZs6UZ4dM=", "properties": {"@spider": "usps_collection_boxes", "addr:city": "GREENVILLE", "addr:country": "US", "addr:full": "4171 LEE JACKSON HWY STE 101", "addr:postcode": "24440", "addr:state": "VA", "amenity": "post_box", "brand": "United States Postal Service", "brand:wikidata": "Q668687", "collection_times": "Mo-Fr 16:00; Sa 11:00", "name": "USPS COLLECTION BOX - PO LOBBY", "note": "ON 12/24 AND 12/31, THIS BOX MAY BE COLLECTED AS EARLY AS 12 NOON.", "nsi_id": "unitedstatespostalservice-a77078", "operator": "United States Postal Service", "operator:short": "USPS", "operator:type": "public", "operator:wikidata": "Q668687", "ref": "2444000004"}, "type": "Feature"}
{"dataset_attributes": {"@spider": "usps_collection_boxes", "spider:collection_time": "2023-09-13T08:25:17.985642"}, "geometry": {"coordinates": [-78.823352725, 38.264438513], "type": "Point"}, "id": "SI4KjLCwy71x9egvn0q1KW2pK5E=", "properties": {"@spider": "usps_collection_boxes", "addr:city": "GROTTOES", "addr:country": "US", "addr:full": "110 6TH ST", "addr:postcode": "24441", "addr:state": "VA", "amenity": "post_box", "brand": "United States Postal Service", "brand:wikidata": "Q668687", "collection_times": "Mo-Fr 16:30; Sa 11:00", "name": "USPS COLLECTION BOX - BLUE BOX", "note": "ON 12/24 AND 12/31, THIS BOX MAY BE COLLECTED AS EARLY AS 12 NOON.", "nsi_id": "unitedstatespostalservice-a77078", "operator": "United States Postal Service", "operator:short": "USPS", "operator:type": "public", "operator:wikidata": "Q668687", "ref": "2444100000"}, "type": "Feature"}
{"dataset_attributes": {"@spider": "usps_collection_boxes", "spider:collection_time": "2023-09-13T08:25:17.985642"}, "geometry": {"coordinates": [-78.823352725, 38.264438513], "type": "Point"}, "id": "fOJPbSgg0GjMwAygywuK-pyQG9I=", "properties": {"@spider": "usps_collection_boxes", "addr:city": "GROTTOES", "addr:country": "US", "addr:full": "110 6TH ST", "addr:postcode": "24441", "addr:state": "VA", "amenity": "post_box", "brand": "United States Postal Service", "brand:wikidata": "Q668687", "collection_times": "Mo-Fr 16:30; Sa 11:00", "name": "USPS COLLECTION BOX - PO LOBBY", "note": "ON 12/24 AND 12/31, THIS BOX MAY BE COLLECTED AS EARLY AS 12 NOON.", "nsi_id": "unitedstatespostalservice-a77078", "operator": "United States Postal Service", "operator:short": "USPS", "operator:type": "public", "operator:wikidata": "Q668687", "ref": "2444100001"}, "type": "Feature"}
{"dataset_attributes": {"@spider": "usps_collection_boxes", "spider:collection_time": "2023-09-13T08:25:17.985642"}, "geometry": {"coordinates": [-78.823352725, 38.264438513], "type": "Point"}, "id": "slZFCTFxc10NFIEFhSNMcgC67lY=", "properties": {"@spider": "usps_collection_boxes", "addr:city": "GROTTOES", "addr:country": "US", "addr:full": "110 6TH ST", "addr:postcode": "24441", "addr:state": "VA", "amenity": "post_box", "brand": "United States Postal Service", "brand:wikidata": "Q668687", "collection_times": "Mo-Fr 16:30; Sa 11:00", "name": "USPS COLLECTION BOX - PO LOBBY", "note": "ON 12/24 AND 12/31, THIS BOX MAY BE COLLECTED AS EARLY AS 12 NOON.", "nsi_id": "unitedstatespostalservice-a77078", "operator": "United States Postal Service", "operator:short": "USPS", "operator:type": "public", "operator:wikidata": "Q668687", "ref": "2444100003"}, "type": "Feature"}
{"dataset_attributes": {"@spider": "usps_collection_boxes", "spider:collection_time": "2023-09-13T08:25:17.985642"}, "geometry": {"coordinates": [-79.832659286, 38.000279949], "type": "Point"}, "id": "ibxOR04bdT0Ow6Aiq8mytjxyHT8=", "properties": {"@spider": "usps_collection_boxes", "addr:city": "HOT SPRINGS", "addr:country": "US", "addr:full": "2793 MAIN ST", "addr:postcode": "24445", "addr:state": "VA", "amenity": "post_box", "brand": "United States Postal Service", "brand:wikidata": "Q668687", "collection_times": "Mo-Fr 16:00; Sa 11:00", "name": "USPS COLLECTION BOX - BLUE BOX", "note": "ON 12/24 AND 12/31, THIS BOX MAY BE COLLECTED AS EARLY AS 12 NOON.", "nsi_id": "unitedstatespostalservice-a77078", "operator": "United States Postal Service", "operator:short": "USPS", "operator:type": "public", "operator:wikidata": "Q668687", "ref": "2444500000"}, "type": "Feature"}
{"dataset_attributes": {"@spider": "usps_collection_boxes", "spider:collection_time": "2023-09-13T08:25:17.985642"}, "geometry": {"coordinates": [-79.832659286, 38.000279949], "type": "Point"}, "id": "uUhDpUVxuVFrMPZt7Y1zIJRYcj4=", "properties": {"@spider": "usps_collection_boxes", "addr:city": "HOT SPRINGS", "addr:country": "US", "addr:full": "2793 MAIN ST", "addr:postcode": "24445", "addr:state": "VA", "amenity": "post_box", "brand": "United States Postal Service", "brand:wikidata": "Q668687", "collection_times": "Mo-Fr 16:00; Sa 11:00", "name": "USPS COLLECTION BOX - PO LOBBY", "note": "ON 12/24 AND 12/31, THIS BOX MAY BE COLLECTED AS EARLY AS 12 NOON.", "nsi_id": "unitedstatespostalservice-a77078", "operator": "United States Postal Service", "operator:short": "USPS", "operator:type": "public", "operator:wikidata": "Q668687", "ref": "2444500001"}, "type": "Feature"}
{"dataset_attributes": {"@spider": "usps_collection_boxes", "spider:collection_time": "2023-09-13T08:25:17.985642"}, "geometry": {"coordinates": [-79.832659286, 38.000279949], "type": "Point"}, "id": "Aw0ItNZ61PX6b9wL8mcGTl6200o=", "properties": {"@spider": "usps_collection_boxes", "addr:city": "HOT SPRINGS", "addr:country": "US", "addr:full": "2793 MAIN ST", "addr:postcode": "24445", "addr:state": "VA", "amenity": "post_box", "brand": "United States Postal Service", "brand:wikidata": "Q668687", "collection_times": "Mo-Fr 16:00; Sa 11:00", "name": "USPS COLLECTION BOX - PO LOBBY", "note": "ON 12/24 AND 12/31, THIS BOX MAY BE COLLECTED AS EARLY AS 12 NOON.", "nsi_id": "unitedstatespostalservice-a77078", "operator": "United States Postal Service", "operator:short": "USPS", "operator:type": "public", "operator:wikidata": "Q668687", "ref": "2444500003"}, "type": "Feature"}
{"dataset_attributes": {"@spider": "usps_collection_boxes", "spider:collection_time": "2023-09-13T08:25:17.985642"}, "geometry": {"coordinates": [-79.791651269, 37.79821913], "type": "Point"}, "id": "wI47N1ddNWrQaMvhsOcffDBXw0A=", "properties": {"@spider": "usps_collection_boxes", "addr:city": "IRON GATE", "addr:country": "US", "addr:full": "511 MARKET ST", "addr:postcode": "24448", "addr:state": "VA", "amenity": "post_box", "brand": "United States Postal Service", "brand:wikidata": "Q668687", "collection_times": "Mo-Fr 16:00; Sa 11:45", "name": "USPS COLLECTION BOX - BLUE BOX", "note": "ON 12/24 AND 12/31, THIS BOX MAY BE COLLECTED AS EARLY AS 12 NOON.", "nsi_id": "unitedstatespostalservice-a77078", "operator": "United States Postal Service", "operator:short": "USPS", "operator:type": "public", "operator:wikidata": "Q668687", "ref": "2444800000"}, "type": "Feature"}
{"dataset_attributes": {"@spider": "usps_collection_boxes", "spider:collection_time": "2023-09-13T08:25:17.985642"}, "geometry": {"coordinates": [-79.791651269, 37.79821913], "type": "Point"}, "id": "vj_81qRAeDRPPedfDXJnDJNEfV8=", "properties": {"@spider": "usps_collection_boxes", "addr:city": "IRON GATE", "addr:country": "US", "addr:full": "511 MARKET ST", "addr:postcode": "24448", "addr:state": "VA", "amenity": "post_box", "brand": "United States Postal Service", "brand:wikidata": "Q668687", "collection_times": "Mo-Fr 16:00; Sa 11:45", "name": "USPS COLLECTION BOX - PO LOBBY", "note": "ON 12/24 AND 12/31, THIS BOX MAY BE COLLECTED AS EARLY AS 12 NOON.", "nsi_id": "unitedstatespostalservice-a77078", "operator": "United States Postal Service", "operator:short": "USPS", "operator:type": "public", "operator:wikidata": "Q668687", "ref": "2444800001"}, "type": "Feature"}
{"dataset_attributes": {"@spider": "usps_collection_boxes", "spider:collection_time": "2023-09-13T08:25:17.985642"}, "geometry": {"coordinates": [-79.791651269, 37.79821913], "type": "Point"}, "id": "l4T7MJYjKNLvxHl2VOwEDdFiiqE=", "properties": {"@spider": "usps_collection_boxes", "addr:city": "IRON GATE", "addr:country": "US", "addr:full": "511 MARKET ST", "addr:postcode": "24448", "addr:state": "VA", "amenity": "post_box", "brand": "United States Postal Service", "brand:wikidata": "Q668687", "collection_times": "Mo-Fr 16:00; Sa 12:00", "name": "USPS COLLECTION BOX - PO LOBBY", "note": "ON 12/24 AND 12/31, THIS BOX MAY BE COLLECTED AS EARLY AS 12 NOON.", "nsi_id": "unitedstatespostalservice-a77078", "operator": "United States Postal Service", "operator:short": "USPS", "operator:type": "public", "operator:wikidata": "Q668687", "ref": "2444800003"}, "type": "Feature"}
{"dataset_attributes": {"@spider": "usps_collection_boxes", "spider:collection_time": "2023-09-13T08:25:17.985642"}, "geometry": {"coordinates": [-79.444774356, 37.785122295], "type": "Point"}, "id": "Gtzm5YGlECb08BFQnFjVH3puDuU=", "properties": {"@spider": "usps_collection_boxes", "addr:city": "LEXINGTON", "addr:country": "US", "addr:full": "101 LEE AVE", "addr:postcode": "24450", "addr:state": "VA", "amenity": "post_box", "brand": "United States Postal Service", "brand:wikidata": "Q668687", "collection_times": "Mo-Fr 17:15; Sa 12:00", "name": "USPS COLLECTION BOX - PO LOBBY", "note": "ON 12/24 AND 12/31, THIS BOX MAY BE COLLECTED AS EARLY AS 12 NOON.", "nsi_id": "unitedstatespostalservice-a77078", "operator": "United States Postal Service", "operator:short": "USPS", "operator:type": "public", "operator:wikidata": "Q668687", "ref": "2445000000"}, "type": "Feature"}
{"dataset_attributes": {"@spider": "usps_collection_boxes", "spider:collection_time": "2023-09-13T08:25:17.985642"}, "geometry": {"coordinates": [-79.444774356, 37.785122295], "type": "Point"}, "id": "ozcGOPIWginEgOzG17RY0nNZWD8=", "properties": {"@spider": "usps_collection_boxes", "addr:city": "LEXINGTON", "addr:country": "US", "addr:full": "101 LEE AVE", "addr:postcode": "24450", "addr:state": "VA", "amenity": "post_box", "brand": "United States Postal Service", "brand:wikidata": "Q668687", "collection_times": "Mo-Fr 17:00; Sa 12:00", "name": "USPS COLLECTION BOX - BLUE BOX", "note": "ON 12/24 AND 12/31, THIS BOX MAY BE COLLECTED AS EARLY AS 12 NOON.", "nsi_id": "unitedstatespostalservice-a77078", "operator": "United States Postal Service", "operator:short": "USPS", "operator:type": "public", "operator:wikidata": "Q668687", "ref": "2445000001"}, "type": "Feature"}
{"dataset_attributes": {"@spider": "usps_collection_boxes", "spider:collection_time": "2023-09-13T08:25:17.985642"}, "geometry": {"coordinates": [-79.447907382, 37.770659643], "type": "Point"}, "id": "vE9zRO9unXGqumT565NgT8Og660=", "properties": {"@spider": "usps_collection_boxes", "addr:city": "LEXINGTON", "addr:country": "US", "addr:full": "810 S MAIN ST", "addr:postcode": "24450", "addr:state": "VA", "amenity": "post_box", "brand": "United States Postal Service", "brand:wikidata": "Q668687", "collection_times": "Mo-Fr 15:00; Sa 12:00", "name": "USPS COLLECTION BOX - BLUE BOX", "note": "ON 12/24 AND 12/31, THIS BOX MAY BE COLLECTED AS EARLY AS 12 NOON.", "nsi_id": "unitedstatespostalservice-a77078", "operator": "United States Postal Service", "operator:short": "USPS", "operator:type": "public", "operator:wikidata": "Q668687", "ref": "2445000005"}, "type": "Feature"}
{"dataset_attributes": {"@spider": "usps_collection_boxes", "spider:collection_time": "2023-09-13T08:25:17.985642"}, "geometry": {"coordinates": [-79.4443673, 37.782994], "type": "Point"}, "id": "VTLcRYBOKR42kmJTUWZYvqX4LhY=", "properties": {"@spider": "usps_collection_boxes", "addr:city": "LEXINGTON", "addr:country": "US", "addr:full": "167 S MAIN ST", "addr:postcode": "24450", "addr:state": "VA", "amenity": "post_box", "brand": "United States Postal Service", "brand:wikidata": "Q668687", "collection_times": "Mo-Fr 16:00; Sa 12:00", "name": "USPS COLLECTION BOX - BLUE BOX", "note": "ON 12/24 AND 12/31, THIS BOX MAY BE COLLECTED AS EARLY AS 12 NOON.", "nsi_id": "unitedstatespostalservice-a77078", "operator": "United States Postal Service", "operator:short": "USPS", "operator:type": "public", "operator:wikidata": "Q668687", "ref": "2445000006"}, "type": "Feature"}
{"dataset_attributes": {"@spider": "usps_collection_boxes", "spider:collection_time": "2023-09-13T08:25:17.985642"}, "geometry": {"coordinates": [-79.4417371, 37.78395], "type": "Point"}, "id": "khkAIxFwBQrXWew7_uMQFTF7sCQ=", "properties": {"@spider": "usps_collection_boxes", "addr:city": "LEXINGTON", "addr:country": "US", "addr:full": "20 S RANDOLPH ST", "addr:postcode": "24450", "addr:state": "VA", "amenity": "post_box", "brand": "United States Postal Service", "brand:wikidata": "Q668687", "collection_times": "Mo-Fr 16:00; Sa 12:00", "name": "USPS COLLECTION BOX - BLUE BOX", "note": "ON 12/24 AND 12/31, THIS BOX MAY BE COLLECTED AS EARLY AS 12 NOON.", "nsi_id": "unitedstatespostalservice-a77078", "operator": "United States Postal Service", "operator:short": "USPS", "operator:type": "public", "operator:wikidata": "Q668687", "ref": "2445000009"}, "type": "Feature"}
{"dataset_attributes": {"@spider": "usps_collection_boxes", "spider:collection_time": "2023-09-13T08:25:17.985642"}, "geometry": {"coordinates": [-79.4365657, 37.777516], "type": "Point"}, "id": "xCzmrnlBiEerX8tQxZZcOAmMHKs=", "properties": {"@spider": "usps_collection_boxes", "addr:city": "LEXINGTON", "addr:country": "US", "addr:full": "110 WALKER ST", "addr:postcode": "24450", "addr:state": "VA", "amenity": "post_box", "brand": "United States Postal Service", "brand:wikidata": "Q668687", "collection_times": "Mo-Sa 12:00", "name": "USPS COLLECTION BOX - BLUE BOX", "nsi_id": "unitedstatespostalservice-a77078", "operator": "United States Postal Service", "operator:short": "USPS", "operator:type": "public", "operator:wikidata": "Q668687", "ref": "2445000012"}, "type": "Feature"}
{"dataset_attributes": {"@spider": "usps_collection_boxes", "spider:collection_time": "2023-09-13T08:25:17.985642"}, "geometry": {"coordinates": [-79.4217149, 37.796786], "type": "Point"}, "id": "TksPXZ20kCFCNbI1cDAltGwxiqM=", "properties": {"@spider": "usps_collection_boxes", "addr:city": "LEXINGTON", "addr:country": "US", "addr:full": "800 N LEE HWY", "addr:postcode": "24450", "addr:state": "VA", "amenity": "post_box", "brand": "United States Postal Service", "brand:wikidata": "Q668687", "collection_times": "Mo-Sa 09:30", "name": "USPS COLLECTION BOX - BLUE BOX", "nsi_id": "unitedstatespostalservice-a77078", "operator": "United States Postal Service", "operator:short": "USPS", "operator:type": "public", "operator:wikidata": "Q668687", "ref": "2445000015"}, "type": "Feature"}
{"dataset_attributes": {"@spider": "usps_collection_boxes", "spider:collection_time": "2023-09-13T08:25:17.985642"}, "geometry": {"coordinates": [-79.4096933, 37.805271], "type": "Point"}, "id": "7Frqv2nPCld6vPMmjSCA9ElR350=", "properties": {"@spider": "usps_collection_boxes", "addr:city": "LEXINGTON", "addr:country": "US", "addr:full": "1233 N LEE HWY", "addr:postcode": "24450", "addr:state": "VA", "amenity": "post_box", "brand": "United States Postal Service", "brand:wikidata": "Q668687", "collection_times": "Mo-Sa 12:00", "name": "USPS COLLECTION BOX - BLUE BOX", "nsi_id": "unitedstatespostalservice-a77078", "operator": "United States Postal Service", "operator:short": "USPS", "operator:type": "public", "operator:wikidata": "Q668687", "ref": "2445000021"}, "type": "Feature"}
{"dataset_attributes": {"@spider": "usps_collection_boxes", "spider:collection_time": "2023-09-13T08:25:17.985642"}, "geometry": {"coordinates": [-79.4423049, 37.784762], "type": "Point"}, "id": "ziis5QKUfGtwDOS8zG30g8Hce4g=", "properties": {"@spider": "usps_collection_boxes", "addr:city": "LEXINGTON", "addr:country": "US", "addr:full": "17 S MAIN ST", "addr:postcode": "24450", "addr:state": "VA", "amenity": "post_box", "brand": "United States Postal Service", "brand:wikidata": "Q668687", "collection_times": "Mo-Fr 16:00; Sa 12:00", "name": "USPS COLLECTION BOX - BLUE BOX", "note": "ON 12/24 AND 12/31, THIS BOX MAY BE COLLECTED AS EARLY AS 12 NOON.", "nsi_id": "unitedstatespostalservice-a77078", "operator": "United States Postal Service", "operator:short": "USPS", "operator:type": "public", "operator:wikidata": "Q668687", "ref": "2445000022"}, "type": "Feature"}
{"dataset_attributes": {"@spider": "usps_collection_boxes", "spider:collection_time": "2023-09-13T08:25:17.985642"}, "geometry": {"coordinates": [-79.444774356, 37.785122295], "type": "Point"}, "id": "DFaLEkhvCMmvnd7F_liGezSo9cQ=", "properties": {"@spider": "usps_collection_boxes", "addr:city": "LEXINGTON", "addr:country": "US", "addr:full": "101 LEE AVE", "addr:postcode": "24450", "addr:state": "VA", "amenity": "post_box", "brand": "United States Postal Service", "brand:wikidata": "Q668687", "collection_times": "Mo-Fr 17:00; Sa 12:00", "name": "USPS COLLECTION BOX - PO LOBBY", "note": "ON 12/24 AND 12/31, THIS BOX MAY BE COLLECTED AS EARLY AS 12 NOON.", "nsi_id": "unitedstatespostalservice-a77078", "operator": "United States Postal Service", "operator:short": "USPS", "operator:type": "public", "operator:wikidata": "Q668687", "ref": "2445000033"}, "type": "Feature"}
{"dataset_attributes": {"@spider": "usps_collection_boxes", "spider:collection_time": "2023-09-13T08:25:17.985642"}, "geometry": {"coordinates": [-79.882260149, 37.788551527], "type": "Point"}, "id": "H9D-tcD1v-GxnASbQMD-aCO4QrQ=", "properties": {"@spider": "usps_collection_boxes", "addr:city": "LOW MOOR", "addr:country": "US", "addr:full": "105 OLD CHURCH RD", "addr:postcode": "24457", "addr:state": "VA", "amenity": "post_box", "brand": "United States Postal Service", "brand:wikidata": "Q668687", "collection_times": "Mo-Fr 16:30; Sa 11:15", "name": "USPS COLLECTION BOX - PO LOBBY", "note": "ON 12/24 AND 12/31, THIS BOX MAY BE COLLECTED AS EARLY AS 12 NOON.", "nsi_id": "unitedstatespostalservice-a77078", "operator": "United States Postal Service", "operator:short": "USPS", "operator:type": "public", "operator:wikidata": "Q668687", "ref": "2445700000"}, "type": "Feature"}
{"dataset_attributes": {"@spider": "usps_collection_boxes", "spider:collection_time": "2023-09-13T08:25:17.985642"}, "geometry": {"coordinates": [-79.882260149, 37.788551527], "type": "Point"}, "id": "JkSrqng6kng4SWuc8VFcCZyxUbc=", "properties": {"@spider": "usps_collection_boxes", "addr:city": "LOW MOOR", "addr:country": "US", "addr:full": "105 OLD CHURCH RD", "addr:postcode": "24457", "addr:state": "VA", "amenity": "post_box", "brand": "United States Postal Service", "brand:wikidata": "Q668687", "collection_times": "Mo-Fr 16:15; Sa 11:15", "name": "USPS COLLECTION BOX - BLUE BOX", "note": "ON 12/24 AND 12/31, THIS BOX MAY BE COLLECTED AS EARLY AS 12 NOON.", "nsi_id": "unitedstatespostalservice-a77078", "operator": "United States Postal Service", "operator:short": "USPS", "operator:type": "public", "operator:wikidata": "Q668687", "ref": "2445700001"}, "type": "Feature"}
{"dataset_attributes": {"@spider": "usps_collection_boxes", "spider:collection_time": "2023-09-13T08:25:17.985642"}, "geometry": {"coordinates": [-79.882260149, 37.788551527], "type": "Point"}, "id": "pqOv2cgIz3Zk7Rl2UffcMWVBKuI=", "properties": {"@spider": "usps_collection_boxes", "addr:city": "LOW MOOR", "addr:country": "US", "addr:full": "105 OLD CHURCH RD", "addr:postcode": "24457", "addr:state": "VA", "amenity": "post_box", "brand": "United States Postal Service", "brand:wikidata": "Q668687", "collection_times": "Mo-Fr 16:30; Sa 11:30", "name": "USPS COLLECTION BOX - PO LOBBY", "note": "ON 12/24 AND 12/31, THIS BOX MAY BE COLLECTED AS EARLY AS 12 NOON.", "nsi_id": "unitedstatespostalservice-a77078", "operator": "United States Postal Service", "operator:short": "USPS", "operator:type": "public", "operator:wikidata": "Q668687", "ref": "2445700003"}, "type": "Feature"}
{"dataset_attributes": {"@spider": "usps_collection_boxes", "spider:collection_time": "2023-09-13T08:25:17.985642"}, "geometry": {"coordinates": [-79.489269514, 38.333364805], "type": "Point"}, "id": "MFhKb5OjBay5Xbcwt30hyle0OpQ=", "properties": {"@spider": "usps_collection_boxes", "addr:city": "MCDOWELL", "addr:country": "US", "addr:full": "8988 HIGHLAND TPKE", "addr:postcode": "24458", "addr:state": "VA", "amenity": "post_box", "brand": "United States Postal Service", "brand:wikidata": "Q668687", "collection_times": "Mo-Fr 16:15; Sa 10:45", "name": "USPS COLLECTION BOX - BLUE BOX", "note": "ON 12/24 AND 12/31, THIS BOX MAY BE COLLECTED AS EARLY AS 12 NOON.", "nsi_id": "unitedstatespostalservice-a77078", "operator": "United States Postal Service", "operator:short": "USPS", "operator:type": "public", "operator:wikidata": "Q668687", "ref": "2445800000"}, "type": "Feature"}
{"dataset_attributes": {"@spider": "usps_collection_boxes", "spider:collection_time": "2023-09-13T08:25:17.985642"}, "geometry": {"coordinates": [-79.489269514, 38.333364805], "type": "Point"}, "id": "AeG6gSTBXaxEYq3EP4lVPjbgg5M=", "properties": {"@spider": "usps_collection_boxes", "addr:city": "MCDOWELL", "addr:country": "US", "addr:full": "8988 HIGHLAND TPKE", "addr:postcode": "24458", "addr:state": "VA", "amenity": "post_box", "brand": "United States Postal Service", "brand:wikidata": "Q668687", "collection_times": "Mo-Fr 16:15; Sa 10:45", "name": "USPS COLLECTION BOX - PO LOBBY", "note": "ON 12/24 AND 12/31, THIS BOX MAY BE COLLECTED AS EARLY AS 12 NOON.", "nsi_id": "unitedstatespostalservice-a77078", "operator": "United States Postal Service", "operator:short": "USPS", "operator:type": "public", "operator:wikidata": "Q668687", "ref": "2445800001"}, "type": "Feature"}
{"dataset_attributes": {"@spider": "usps_collection_boxes", "spider:collection_time": "2023-09-13T08:25:17.985642"}, "geometry": {"coordinates": [-79.489269514, 38.333364805], "type": "Point"}, "id": "TbRSUproznAlvNJTi_0b2oK0ulo=", "properties": {"@spider": "usps_collection_boxes", "addr:city": "MCDOWELL", "addr:country": "US", "addr:full": "8988 HIGHLAND TPKE", "addr:postcode": "24458", "addr:state": "VA", "amenity": "post_box", "brand": "United States Postal Service", "brand:wikidata": "Q668687", "collection_times": "Mo-Fr 16:30; Sa 12:00", "name": "USPS COLLECTION BOX - PO LOBBY", "note": "ON 12/24 AND 12/31, THIS BOX MAY BE COLLECTED AS EARLY AS 12 NOON.", "nsi_id": "unitedstatespostalservice-a77078", "operator": "United States Postal Service", "operator:short": "USPS", "operator:type": "public", "operator:wikidata": "Q668687", "ref": "2445800003"}, "type": "Feature"}
{"dataset_attributes": {"@spider": "usps_collection_boxes", "spider:collection_time": "2023-09-13T08:25:17.985642"}, "geometry": {"coordinates": [-79.2133960056, 38.0516270693], "type": "Point"}, "id": "48rgx0ZXsRsshq2kDkfYOf7-c3c=", "properties": {"@spider": "usps_collection_boxes", "addr:city": "MIDDLEBROOK", "addr:country": "US", "addr:full": "3696 MIDDLEBROOK VILLAGE RD", "addr:postcode": "24459", "addr:state": "VA", "amenity": "post_box", "brand": "United States Postal Service", "brand:wikidata": "Q668687", "collection_times": "Mo-Fr 15:30; Sa 11:30", "name": "USPS COLLECTION BOX - PO LOBBY", "note": "ON 12/24 AND 12/31, THIS BOX MAY BE COLLECTED AS EARLY AS 12 NOON.", "nsi_id": "unitedstatespostalservice-a77078", "operator": "United States Postal Service", "operator:short": "USPS", "operator:type": "public", "operator:wikidata": "Q668687", "ref": "2445900001"}, "type": "Feature"}
{"dataset_attributes": {"@spider": "usps_collection_boxes", "spider:collection_time": "2023-09-13T08:25:17.985642"}, "geometry": {"coordinates": [-79.2133960056, 38.0516270693], "type": "Point"}, "id": "cWib6U_a7ImlcaI_hQMTdNmXgMY=", "properties": {"@spider": "usps_collection_boxes", "addr:city": "MIDDLEBROOK", "addr:country": "US", "addr:full": "3696 MIDDLEBROOK VILLAGE RD", "addr:postcode": "24459", "addr:state": "VA", "amenity": "post_box", "brand": "United States Postal Service", "brand:wikidata": "Q668687", "collection_times": "Mo-Fr 15:30; Sa 11:30", "name": "USPS COLLECTION BOX - PO LOBBY", "note": "ON 12/24 AND 12/31, THIS BOX MAY BE COLLECTED AS EARLY AS 12 NOON.", "nsi_id": "unitedstatespostalservice-a77078", "operator": "United States Postal Service", "operator:short": "USPS", "operator:type": "public", "operator:wikidata": "Q668687", "ref": "2445900003"}, "type": "Feature"}
{"dataset_attributes": {"@spider": "usps_collection_boxes", "spider:collection_time": "2023-09-13T08:25:17.985642"}, "geometry": {"coordinates": [-79.603652111, 37.974720411], "type": "Point"}, "id": "w1GWNrIoOdXMLOdtOTy6IkrRX28=", "properties": {"@spider": "usps_collection_boxes", "addr:city": "MILLBORO", "addr:country": "US", "addr:full": "142 MAIN ST", "addr:postcode": "24460", "addr:state": "VA", "amenity": "post_box", "brand": "United States Postal Service", "brand:wikidata": "Q668687", "collection_times": "Mo-Fr 15:30; Sa 10:30", "name": "USPS COLLECTION BOX - BLUE BOX", "note": "ON 12/24 AND 12/31, THIS BOX MAY BE COLLECTED AS EARLY AS 12 NOON.", "nsi_id": "unitedstatespostalservice-a77078", "operator": "United States Postal Service", "operator:short": "USPS", "operator:type": "public", "operator:wikidata": "Q668687", "ref": "2446000000"}, "type": "Feature"}
{"dataset_attributes": {"@spider": "usps_collection_boxes", "spider:collection_time": "2023-09-13T08:25:17.985642"}, "geometry": {"coordinates": [-79.60583, 37.974134], "type": "Point"}, "id": "-xcEKa8WQ1QWAJbyCtZwdkP74ys=", "properties": {"@spider": "usps_collection_boxes", "addr:city": "MILLBORO", "addr:country": "US", "addr:full": "1 MAIN ST", "addr:postcode": "24460", "addr:state": "VA", "amenity": "post_box", "brand": "United States Postal Service", "brand:wikidata": "Q668687", "collection_times": "Mo-Fr 15:30; Sa 10:30", "name": "USPS COLLECTION BOX - PO LOBBY", "note": "ON 12/24 AND 12/31, THIS BOX MAY BE COLLECTED AS EARLY AS 12 NOON.", "nsi_id": "unitedstatespostalservice-a77078", "operator": "United States Postal Service", "operator:short": "USPS", "operator:type": "public", "operator:wikidata": "Q668687", "ref": "2446000001"}, "type": "Feature"}
{"dataset_attributes": {"@spider": "usps_collection_boxes", "spider:collection_time": "2023-09-13T08:25:17.985642"}, "geometry": {"coordinates": [-79.603652111, 37.974720411], "type": "Point"}, "id": "pvrOjEAcRAUpMSxYBUyR59bOgPU=", "properties": {"@spider": "usps_collection_boxes", "addr:city": "MILLBORO", "addr:country": "US", "addr:full": "142 MAIN ST", "addr:postcode": "24460", "addr:state": "VA", "amenity": "post_box", "brand": "United States Postal Service", "brand:wikidata": "Q668687", "collection_times": "Mo-Fr 16:00; Sa 11:00", "name": "USPS COLLECTION BOX - PO LOBBY", "note": "ON 12/24 AND 12/31, THIS BOX MAY BE COLLECTED AS EARLY AS 12 NOON.", "nsi_id": "unitedstatespostalservice-a77078", "operator": "United States Postal Service", "operator:short": "USPS", "operator:type": "public", "operator:wikidata": "Q668687", "ref": "2446000003"}, "type": "Feature"}
{"dataset_attributes": {"@spider": "usps_collection_boxes", "spider:collection_time": "2023-09-13T08:25:17.985642"}, "geometry": {"coordinates": [-79.109054066, 38.06545457], "type": "Point"}, "id": "Whs7RPFd21u3qBN-POI3DZCWoUk=", "properties": {"@spider": "usps_collection_boxes", "addr:city": "MINT SPRINGS", "addr:country": "US", "addr:full": "2069 LEE JACKSON HWY", "addr:postcode": "24463", "addr:state": "VA", "amenity": "post_box", "brand": "United States Postal Service", "brand:wikidata": "Q668687", "collection_times": "Mo-Fr 16:30; Sa 10:45", "name": "USPS COLLECTION BOX - BLUE BOX", "note": "ON 12/24 AND 12/31, THIS BOX MAY BE COLLECTED AS EARLY AS 12 NOON.", "nsi_id": "unitedstatespostalservice-a77078", "operator": "United States Postal Service", "operator:short": "USPS", "operator:type": "public", "operator:wikidata": "Q668687", "ref": "2446300000"}, "type": "Feature"}
{"dataset_attributes": {"@spider": "usps_collection_boxes", "spider:collection_time": "2023-09-13T08:25:17.985642"}, "geometry": {"coordinates": [-79.109054066, 38.06545457], "type": "Point"}, "id": "H-2bLlhDoRicmJ_O0gW7viLSGPo=", "properties": {"@spider": "usps_collection_boxes", "addr:city": "MINT SPRINGS", "addr:country": "US", "addr:full": "2069 LEE JACKSON HWY", "addr:postcode": "24463", "addr:state": "VA", "amenity": "post_box", "brand": "United States Postal Service", "brand:wikidata": "Q668687", "collection_times": "Mo-Fr 16:30; Sa 10:45", "name": "USPS COLLECTION BOX - PO LOBBY", "note": "ON 12/24 AND 12/31, THIS BOX MAY BE COLLECTED AS EARLY AS 12 NOON.", "nsi_id": "unitedstatespostalservice-a77078", "operator": "United States Postal Service", "operator:short": "USPS", "operator:type": "public", "operator:wikidata": "Q668687", "ref": "2446300001"}, "type": "Feature"}
{"dataset_attributes": {"@spider": "usps_collection_boxes", "spider:collection_time": "2023-09-13T08:25:17.985642"}, "geometry": {"coordinates": [-79.109054066, 38.06545457], "type": "Point"}, "id": "s8PmUwOsG1slBB_QTpO7kSjzETQ=", "properties": {"@spider": "usps_collection_boxes", "addr:city": "MINT SPRINGS", "addr:country": "US", "addr:full": "2069 LEE JACKSON HWY", "addr:postcode": "24463", "addr:state": "VA", "amenity": "post_box", "brand": "United States Postal Service", "brand:wikidata": "Q668687", "collection_times": "Mo-Fr 16:30; Sa 10:45", "name": "USPS COLLECTION BOX - PO LOBBY", "note": "ON 12/24 AND 12/31, THIS BOX MAY BE COLLECTED AS EARLY AS 12 NOON.", "nsi_id": "unitedstatespostalservice-a77078", "operator": "United States Postal Service", "operator:short": "USPS", "operator:type": "public", "operator:wikidata": "Q668687", "ref": "2446300003"}, "type": "Feature"}
{"dataset_attributes": {"@spider": "usps_collection_boxes", "spider:collection_time": "2023-09-13T08:25:17.985642"}, "geometry": {"coordinates": [-79.131587, 37.852421], "type": "Point"}, "id": "uwDHzCEm8EoDJhoz_Eph7L-OX5Y=", "properties": {"@spider": "usps_collection_boxes", "addr:city": "MONTEBELLO", "addr:country": "US", "addr:full": "15048 CRABTREE FALLS HWY", "addr:postcode": "24464", "addr:state": "VA", "amenity": "post_box", "brand": "United States Postal Service", "brand:wikidata": "Q668687", "collection_times": "Mo-Fr 11:45; Sa 11:15", "name": "USPS COLLECTION BOX - BLUE BOX", "nsi_id": "unitedstatespostalservice-a77078", "operator": "United States Postal Service", "operator:short": "USPS", "operator:type": "public", "operator:wikidata": "Q668687", "ref": "2446400000"}, "type": "Feature"}
{"dataset_attributes": {"@spider": "usps_collection_boxes", "spider:collection_time": "2023-09-13T08:25:17.985642"}, "geometry": {"coordinates": [-79.131587, 37.852421], "type": "Point"}, "id": "bYCYoPH0vFFmr51Ew9h-jmwRmRU=", "properties": {"@spider": "usps_collection_boxes", "addr:city": "MONTEBELLO", "addr:country": "US", "addr:full": "15048 CRABTREE FALLS HWY", "addr:postcode": "24464", "addr:state": "VA", "amenity": "post_box", "brand": "United States Postal Service", "brand:wikidata": "Q668687", "collection_times": "Mo-Fr 11:45; Sa 11:15", "name": "USPS COLLECTION BOX - PO LOBBY", "nsi_id": "unitedstatespostalservice-a77078", "operator": "United States Postal Service", "operator:short": "USPS", "operator:type": "public", "operator:wikidata": "Q668687", "ref": "2446400001"}, "type": "Feature"}
{"dataset_attributes": {"@spider": "usps_collection_boxes", "spider:collection_time": "2023-09-13T08:25:17.985642"}, "geometry": {"coordinates": [-79.578448765, 38.41156079], "type": "Point"}, "id": "o-g-YeVInXyzkporl-Lu0q4e1bg=", "properties": {"@spider": "usps_collection_boxes", "addr:city": "MONTEREY", "addr:country": "US", "addr:full": "66 E MAIN ST", "addr:postcode": "24465", "addr:state": "VA", "amenity": "post_box", "brand": "United States Postal Service", "brand:wikidata": "Q668687", "collection_times": "Mo-Fr 16:45; Sa 11:45", "name": "USPS COLLECTION BOX - BLUE BOX", "note": "ON 12/24 AND 12/31, THIS BOX MAY BE COLLECTED AS EARLY AS 12 NOON.", "nsi_id": "unitedstatespostalservice-a77078", "operator": "United States Postal Service", "operator:short": "USPS", "operator:type": "public", "operator:wikidata": "Q668687", "ref": "2446500000"}, "type": "Feature"}
{"dataset_attributes": {"@spider": "usps_collection_boxes", "spider:collection_time": "2023-09-13T08:25:17.985642"}, "geometry": {"coordinates": [-79.578448765, 38.41156079], "type": "Point"}, "id": "tD47RCKkbKMy-ikQsCcBQM1xEbM=", "properties": {"@spider": "usps_collection_boxes", "addr:city": "MONTEREY", "addr:country": "US", "addr:full": "66 E MAIN ST", "addr:postcode": "24465", "addr:state": "VA", "amenity": "post_box", "brand": "United States Postal Service", "brand:wikidata": "Q668687", "collection_times": "Mo-Fr 16:45; Sa 11:45", "name": "USPS COLLECTION BOX - PO LOBBY", "note": "ON 12/24 AND 12/31, THIS BOX MAY BE COLLECTED AS EARLY AS 12 NOON.", "nsi_id": "unitedstatespostalservice-a77078", "operator": "United States Postal Service", "operator:short": "USPS", "operator:type": "public", "operator:wikidata": "Q668687", "ref": "2446500001"}, "type": "Feature"}
{"dataset_attributes": {"@spider": "usps_collection_boxes", "spider:collection_time": "2023-09-13T08:25:17.985642"}, "geometry": {"coordinates": [-79.578448765, 38.41156079], "type": "Point"}, "id": "pMNb73d00HF9jHljXulHne0ZvjE=", "properties": {"@spider": "usps_collection_boxes", "addr:city": "MONTEREY", "addr:country": "US", "addr:full": "66 E MAIN ST", "addr:postcode": "24465", "addr:state": "VA", "amenity": "post_box", "brand": "United States Postal Service", "brand:wikidata": "Q668687", "collection_times": "Mo-Fr 16:30; Sa 11:30", "name": "USPS COLLECTION BOX - PO LOBBY", "note": "ON 12/24 AND 12/31, THIS BOX MAY BE COLLECTED AS EARLY AS 12 NOON.", "nsi_id": "unitedstatespostalservice-a77078", "operator": "United States Postal Service", "operator:short": "USPS", "operator:type": "public", "operator:wikidata": "Q668687", "ref": "2446500003"}, "type": "Feature"}
{"dataset_attributes": {"@spider": "usps_collection_boxes", "spider:collection_time": "2023-09-13T08:25:17.985642"}, "geometry": {"coordinates": [-78.958963589, 38.257967515], "type": "Point"}, "id": "68Vi_s5PZCegSxifTgiukTixe5o=", "properties": {"@spider": "usps_collection_boxes", "addr:city": "MOUNT SIDNEY", "addr:country": "US", "addr:full": "2349 LEE HWY", "addr:postcode": "24467", "addr:state": "VA", "amenity": "post_box", "brand": "United States Postal Service", "brand:wikidata": "Q668687", "collection_times": "Mo-Fr 16:00; Sa 10:00", "name": "USPS COLLECTION BOX - BLUE BOX", "note": "ON 12/24 AND 12/31, THIS BOX MAY BE COLLECTED AS EARLY AS 12 NOON.", "nsi_id": "unitedstatespostalservice-a77078", "operator": "United States Postal Service", "operator:short": "USPS", "operator:type": "public", "operator:wikidata": "Q668687", "ref": "2446700000"}, "type": "Feature"}
{"dataset_attributes": {"@spider": "usps_collection_boxes", "spider:collection_time": "2023-09-13T08:25:17.985642"}, "geometry": {"coordinates": [-78.958963589, 38.257967515], "type": "Point"}, "id": "uw6H8MUKvPTkT-9nOPZrbWVx77E=", "properties": {"@spider": "usps_collection_boxes", "addr:city": "MOUNT SIDNEY", "addr:country": "US", "addr:full": "2349 LEE HWY", "addr:postcode": "24467", "addr:state": "VA", "amenity": "post_box", "brand": "United States Postal Service", "brand:wikidata": "Q668687", "collection_times": "Mo-Fr 16:00; Sa 10:00", "name": "USPS COLLECTION BOX - PO LOBBY", "note": "ON 12/24 AND 12/31, THIS BOX MAY BE COLLECTED AS EARLY AS 12 NOON.", "nsi_id": "unitedstatespostalservice-a77078", "operator": "United States Postal Service", "operator:short": "USPS", "operator:type": "public", "operator:wikidata": "Q668687", "ref": "2446700001"}, "type": "Feature"}
{"dataset_attributes": {"@spider": "usps_collection_boxes", "spider:collection_time": "2023-09-13T08:25:17.985642"}, "geometry": {"coordinates": [-78.958963589, 38.257967515], "type": "Point"}, "id": "8IStIP4p8H6MzkpsaM7Tcg3ncMY=", "properties": {"@spider": "usps_collection_boxes", "addr:city": "MOUNT SIDNEY", "addr:country": "US", "addr:full": "2349 LEE HWY", "addr:postcode": "24467", "addr:state": "VA", "amenity": "post_box", "brand": "United States Postal Service", "brand:wikidata": "Q668687", "collection_times": "Mo-Fr 16:00; Sa 10:00", "name": "USPS COLLECTION BOX - PO LOBBY", "note": "ON 12/24 AND 12/31, THIS BOX MAY BE COLLECTED AS EARLY AS 12 NOON.", "nsi_id": "unitedstatespostalservice-a77078", "operator": "United States Postal Service", "operator:short": "USPS", "operator:type": "public", "operator:wikidata": "Q668687", "ref": "2446700003"}, "type": "Feature"}
{"dataset_attributes": {"@spider": "usps_collection_boxes", "spider:collection_time": "2023-09-13T08:25:17.985642"}, "geometry": {"coordinates": [-78.905971, 38.19903], "type": "Point"}, "id": "VgE2KjRZ3-oCc2duuwomUtD7wxk=", "properties": {"@spider": "usps_collection_boxes", "addr:city": "NEW HOPE", "addr:country": "US", "addr:full": "610 BATTLEFIELD RD", "addr:postcode": "24469", "addr:state": "VA", "amenity": "post_box", "brand": "United States Postal Service", "brand:wikidata": "Q668687", "collection_times": "Mo-Fr 16:15; Sa 10:45", "name": "USPS COLLECTION BOX - BLUE BOX", "note": "ON 12/24 AND 12/31, THIS BOX MAY BE COLLECTED AS EARLY AS 12 NOON.", "nsi_id": "unitedstatespostalservice-a77078", "operator": "United States Postal Service", "operator:short": "USPS", "operator:type": "public", "operator:wikidata": "Q668687", "ref": "2446900000"}, "type": "Feature"}
{"dataset_attributes": {"@spider": "usps_collection_boxes", "spider:collection_time": "2023-09-13T08:25:17.985642"}, "geometry": {"coordinates": [-78.905971, 38.19903], "type": "Point"}, "id": "FoFF3XLH60jxcUcL5-qrFs_c4_8=", "properties": {"@spider": "usps_collection_boxes", "addr:city": "NEW HOPE", "addr:country": "US", "addr:full": "610 BATTLEFIELD RD", "addr:postcode": "24469", "addr:state": "VA", "amenity": "post_box", "brand": "United States Postal Service", "brand:wikidata": "Q668687", "collection_times": "Mo-Fr 16:15; Sa 10:45", "name": "USPS COLLECTION BOX - PO LOBBY", "note": "ON 12/24 AND 12/31, THIS BOX MAY BE COLLECTED AS EARLY AS 12 NOON.", "nsi_id": "unitedstatespostalservice-a77078", "operator": "United States Postal Service", "operator:short": "USPS", "operator:type": "public", "operator:wikidata": "Q668687", "ref": "2446900001"}, "type": "Feature"}
{"dataset_attributes": {"@spider": "usps_collection_boxes", "spider:collection_time": "2023-09-13T08:25:17.985642"}, "geometry": {"coordinates": [-78.9052174566, 38.1987920847], "type": "Point"}, "id": "SWHwDLRJThT_A_YGvzP91T-dMo8=", "properties": {"@spider": "usps_collection_boxes", "addr:city": "NEW HOPE", "addr:country": "US", "addr:full": "610 BATTLEFIELD RD", "addr:postcode": "24469", "addr:state": "VA", "amenity": "post_box", "brand": "United States Postal Service", "brand:wikidata": "Q668687", "collection_times": "Mo-Fr 16:30; Sa 11:00", "name": "USPS COLLECTION BOX - PO LOBBY", "note": "ON 12/24 AND 12/31, THIS BOX MAY BE COLLECTED AS EARLY AS 12 NOON.", "nsi_id": "unitedstatespostalservice-a77078", "operator": "United States Postal Service", "operator:short": "USPS", "operator:type": "public", "operator:wikidata": "Q668687", "ref": "2446900003"}, "type": "Feature"}
{"dataset_attributes": {"@spider": "usps_collection_boxes", "spider:collection_time": "2023-09-13T08:25:17.985642"}, "geometry": {"coordinates": [-78.811970027, 38.296066586], "type": "Point"}, "id": "SySY_cvCidiivW6FGVI2PI7oRxI=", "properties": {"@spider": "usps_collection_boxes", "addr:city": "PORT REPUBLIC", "addr:country": "US", "addr:full": "8595 MAIN ST", "addr:postcode": "24471", "addr:state": "VA", "amenity": "post_box", "brand": "United States Postal Service", "brand:wikidata": "Q668687", "collection_times": "Mo-Fr 16:00; Sa 11:00", "name": "USPS COLLECTION BOX - BLUE BOX", "note": "ON 12/24 AND 12/31, THIS BOX MAY BE COLLECTED AS EARLY AS 12 NOON.", "nsi_id": "unitedstatespostalservice-a77078", "operator": "United States Postal Service", "operator:short": "USPS", "operator:type": "public", "operator:wikidata": "Q668687", "ref": "2447100000"}, "type": "Feature"}
{"dataset_attributes": {"@spider": "usps_collection_boxes", "spider:collection_time": "2023-09-13T08:25:17.985642"}, "geometry": {"coordinates": [-78.811970027, 38.296066586], "type": "Point"}, "id": "twlejGKvk-WurlJSKrZed6SO-Ts=", "properties": {"@spider": "usps_collection_boxes", "addr:city": "PORT REPUBLIC", "addr:country": "US", "addr:full": "8595 MAIN ST", "addr:postcode": "24471", "addr:state": "VA", "amenity": "post_box", "brand": "United States Postal Service", "brand:wikidata": "Q668687", "collection_times": "Mo-Fr 16:00; Sa 11:00", "name": "USPS COLLECTION BOX - PO LOBBY", "note": "ON 12/24 AND 12/31, THIS BOX MAY BE COLLECTED AS EARLY AS 12 NOON.", "nsi_id": "unitedstatespostalservice-a77078", "operator": "United States Postal Service", "operator:short": "USPS", "operator:type": "public", "operator:wikidata": "Q668687", "ref": "2447100001"}, "type": "Feature"}
{"dataset_attributes": {"@spider": "usps_collection_boxes", "spider:collection_time": "2023-09-13T08:25:17.985642"}, "geometry": {"coordinates": [-78.811970027, 38.296066586], "type": "Point"}, "id": "4lO78FpoIPy1AVNXwItkXWY5UDo=", "properties": {"@spider": "usps_collection_boxes", "addr:city": "PORT REPUBLIC", "addr:country": "US", "addr:full": "8595 MAIN ST", "addr:postcode": "24471", "addr:state": "VA", "amenity": "post_box", "brand": "United States Postal Service", "brand:wikidata": "Q668687", "collection_times": "Mo-Fr 16:00; Sa 12:00", "name": "USPS COLLECTION BOX - PO LOBBY", "note": "ON 12/24 AND 12/31, THIS BOX MAY BE COLLECTED AS EARLY AS 12 NOON.", "nsi_id": "unitedstatespostalservice-a77078", "operator": "United States Postal Service", "operator:short": "USPS", "operator:type": "public", "operator:wikidata": "Q668687", "ref": "2447100003"}, "type": "Feature"}
{"dataset_attributes": {"@spider": "usps_collection_boxes", "spider:collection_time": "2023-09-13T08:25:17.985642"}, "geometry": {"coordinates": [-79.232650772, 37.937540619], "type": "Point"}, "id": "2Ed1v2ixjC56MKtT4-znFCACLfA=", "properties": {"@spider": "usps_collection_boxes", "addr:city": "RAPHINE", "addr:country": "US", "addr:full": "2139 RAPHINE RD", "addr:postcode": "24472", "addr:state": "VA", "amenity": "post_box", "brand": "United States Postal Service", "brand:wikidata": "Q668687", "collection_times": "Mo-Fr 15:30; Sa 10:45", "name": "USPS COLLECTION BOX - BLUE BOX", "note": "ON 12/24 AND 12/31, THIS BOX MAY BE COLLECTED AS EARLY AS 12 NOON.", "nsi_id": "unitedstatespostalservice-a77078", "operator": "United States Postal Service", "operator:short": "USPS", "operator:type": "public", "operator:wikidata": "Q668687", "ref": "2447200000"}, "type": "Feature"}
{"dataset_attributes": {"@spider": "usps_collection_boxes", "spider:collection_time": "2023-09-13T08:25:17.985642"}, "geometry": {"coordinates": [-79.232650772, 37.937540619], "type": "Point"}, "id": "rgYT6f8fKQxe-Z6WxTfYaUUIGXA=", "properties": {"@spider": "usps_collection_boxes", "addr:city": "RAPHINE", "addr:country": "US", "addr:full": "2139 RAPHINE RD", "addr:postcode": "24472", "addr:state": "VA", "amenity": "post_box", "brand": "United States Postal Service", "brand:wikidata": "Q668687", "collection_times": "Mo-Fr 15:30; Sa 10:45", "name": "USPS COLLECTION BOX - PO LOBBY", "note": "ON 12/24 AND 12/31, THIS BOX MAY BE COLLECTED AS EARLY AS 12 NOON.", "nsi_id": "unitedstatespostalservice-a77078", "operator": "United States Postal Service", "operator:short": "USPS", "operator:type": "public", "operator:wikidata": "Q668687", "ref": "2447200001"}, "type": "Feature"}
{"dataset_attributes": {"@spider": "usps_collection_boxes", "spider:collection_time": "2023-09-13T08:25:17.985642"}, "geometry": {"coordinates": [-79.232650772, 37.937540619], "type": "Point"}, "id": "wVi1sSDgbWyLv9TxlC15gL-4HwU=", "properties": {"@spider": "usps_collection_boxes", "addr:city": "RAPHINE", "addr:country": "US", "addr:full": "2139 RAPHINE RD", "addr:postcode": "24472", "addr:state": "VA", "amenity": "post_box", "brand": "United States Postal Service", "brand:wikidata": "Q668687", "collection_times": "Mo-Fr 15:30; Sa 12:30", "name": "USPS COLLECTION BOX - PO LOBBY", "note": "ON 12/24 AND 12/31, THIS BOX MAY BE COLLECTED AS EARLY AS 12 NOON.", "nsi_id": "unitedstatespostalservice-a77078", "operator": "United States Postal Service", "operator:short": "USPS", "operator:type": "public", "operator:wikidata": "Q668687", "ref": "2447200003"}, "type": "Feature"}
{"dataset_attributes": {"@spider": "usps_collection_boxes", "spider:collection_time": "2023-09-13T08:25:17.985642"}, "geometry": {"coordinates": [-79.409064, 37.900207], "type": "Point"}, "id": "A7IirpFHAwxldHa0UBCZIjGusAI=", "properties": {"@spider": "usps_collection_boxes", "addr:city": "ROCKBDGE BATH", "addr:country": "US", "addr:full": "4781 MAURY RIVER RD", "addr:postcode": "24473", "addr:state": "VA", "amenity": "post_box", "brand": "United States Postal Service", "brand:wikidata": "Q668687", "collection_times": "Mo-Fr 15:30; Sa 10:30", "name": "USPS COLLECTION BOX - BLUE BOX", "note": "ON 12/24 AND 12/31, THIS BOX MAY BE COLLECTED AS EARLY AS 12 NOON.", "nsi_id": "unitedstatespostalservice-a77078", "operator": "United States Postal Service", "operator:short": "USPS", "operator:type": "public", "operator:wikidata": "Q668687", "ref": "2447300000"}, "type": "Feature"}
{"dataset_attributes": {"@spider": "usps_collection_boxes", "spider:collection_time": "2023-09-13T08:25:17.985642"}, "geometry": {"coordinates": [-79.409064, 37.900207], "type": "Point"}, "id": "HrMDwYw30ncIY_fL4oIFX0Ml7yA=", "properties": {"@spider": "usps_collection_boxes", "addr:city": "ROCKBDGE BATH", "addr:country": "US", "addr:full": "4781 MAURY RIVER RD", "addr:postcode": "24473", "addr:state": "VA", "amenity": "post_box", "brand": "United States Postal Service", "brand:wikidata": "Q668687", "collection_times": "Mo-Fr 15:30; Sa 10:30", "name": "USPS COLLECTION BOX - PO LOBBY", "note": "ON 12/24 AND 12/31, THIS BOX MAY BE COLLECTED AS EARLY AS 12 NOON.", "nsi_id": "unitedstatespostalservice-a77078", "operator": "United States Postal Service", "operator:short": "USPS", "operator:type": "public", "operator:wikidata": "Q668687", "ref": "2447300001"}, "type": "Feature"}
{"dataset_attributes": {"@spider": "usps_collection_boxes", "spider:collection_time": "2023-09-13T08:25:17.985642"}, "geometry": {"coordinates": [-79.849005387, 37.805959541], "type": "Point"}, "id": "p-CJNTPKpcKYul0MVMUyMT56C80=", "properties": {"@spider": "usps_collection_boxes", "addr:city": "SELMA", "addr:country": "US", "addr:full": "1119 RICHMOND ST", "addr:postcode": "24474", "addr:state": "VA", "amenity": "post_box", "brand": "United States Postal Service", "brand:wikidata": "Q668687", "collection_times": "Mo-Fr 16:45; Sa 11:30", "name": "USPS COLLECTION BOX - BLUE BOX", "note": "ON 12/24 AND 12/31, THIS BOX MAY BE COLLECTED AS EARLY AS 12 NOON.", "nsi_id": "unitedstatespostalservice-a77078", "operator": "United States Postal Service", "operator:short": "USPS", "operator:type": "public", "operator:wikidata": "Q668687", "ref": "2447400000"}, "type": "Feature"}
{"dataset_attributes": {"@spider": "usps_collection_boxes", "spider:collection_time": "2023-09-13T08:25:17.985642"}, "geometry": {"coordinates": [-79.849005387, 37.805959541], "type": "Point"}, "id": "xLbE5e2E9lF3J225412KogDOOvQ=", "properties": {"@spider": "usps_collection_boxes", "addr:city": "SELMA", "addr:country": "US", "addr:full": "1119 RICHMOND ST", "addr:postcode": "24474", "addr:state": "VA", "amenity": "post_box", "brand": "United States Postal Service", "brand:wikidata": "Q668687", "collection_times": "Mo-Fr 16:45; Sa 11:30", "name": "USPS COLLECTION BOX - PO LOBBY", "note": "ON 12/24 AND 12/31, THIS BOX MAY BE COLLECTED AS EARLY AS 12 NOON.", "nsi_id": "unitedstatespostalservice-a77078", "operator": "United States Postal Service", "operator:short": "USPS", "operator:type": "public", "operator:wikidata": "Q668687", "ref": "2447400001"}, "type": "Feature"}
{"dataset_attributes": {"@spider": "usps_collection_boxes", "spider:collection_time": "2023-09-13T08:25:17.985642"}, "geometry": {"coordinates": [-79.849005387, 37.805959541], "type": "Point"}, "id": "zTiZ4Xub_BCkO7N6s1n5znku2lE=", "properties": {"@spider": "usps_collection_boxes", "addr:city": "SELMA", "addr:country": "US", "addr:full": "1119 RICHMOND ST", "addr:postcode": "24474", "addr:state": "VA", "amenity": "post_box", "brand": "United States Postal Service", "brand:wikidata": "Q668687", "collection_times": "Mo-Fr 17:00; Sa 12:00", "name": "USPS COLLECTION BOX - PO LOBBY", "note": "ON 12/24 AND 12/31, THIS BOX MAY BE COLLECTED AS EARLY AS 12 NOON.", "nsi_id": "unitedstatespostalservice-a77078", "operator": "United States Postal Service", "operator:short": "USPS", "operator:type": "public", "operator:wikidata": "Q668687", "ref": "2447400003"}, "type": "Feature"}
{"dataset_attributes": {"@spider": "usps_collection_boxes", "spider:collection_time": "2023-09-13T08:25:17.985642"}, "geometry": {"coordinates": [-79.202799992, 37.925311946], "type": "Point"}, "id": "Yos16d5n3Vb3ryXkfdZR77Gbr1U=", "properties": {"@spider": "usps_collection_boxes", "addr:city": "STEELES TAVERN", "addr:country": "US", "addr:full": "6554 LEE JACKSON HWY", "addr:postcode": "24476", "addr:state": "VA", "amenity": "post_box", "brand": "United States Postal Service", "brand:wikidata": "Q668687", "collection_times": "Mo-Fr 15:00; Sa 11:00", "name": "USPS COLLECTION BOX - BLUE BOX", "note": "ON 12/24 AND 12/31, THIS BOX MAY BE COLLECTED AS EARLY AS 12 NOON.", "nsi_id": "unitedstatespostalservice-a77078", "operator": "United States Postal Service", "operator:short": "USPS", "operator:type": "public", "operator:wikidata": "Q668687", "ref": "2447600000"}, "type": "Feature"}
{"dataset_attributes": {"@spider": "usps_collection_boxes", "spider:collection_time": "2023-09-13T08:25:17.985642"}, "geometry": {"coordinates": [-79.202799992, 37.925311946], "type": "Point"}, "id": "9GxhYgmxvFzAlEjcrvSkrl0VRL0=", "properties": {"@spider": "usps_collection_boxes", "addr:city": "STEELES TAVERN", "addr:country": "US", "addr:full": "6554 LEE JACKSON HWY", "addr:postcode": "24476", "addr:state": "VA", "amenity": "post_box", "brand": "United States Postal Service", "brand:wikidata": "Q668687", "collection_times": "Mo-Fr 15:00; Sa 11:00", "name": "USPS COLLECTION BOX - PO LOBBY", "note": "ON 12/24 AND 12/31, THIS BOX MAY BE COLLECTED AS EARLY AS 12 NOON.", "nsi_id": "unitedstatespostalservice-a77078", "operator": "United States Postal Service", "operator:short": "USPS", "operator:type": "public", "operator:wikidata": "Q668687", "ref": "2447600001"}, "type": "Feature"}
{"dataset_attributes": {"@spider": "usps_collection_boxes", "spider:collection_time": "2023-09-13T08:25:17.985642"}, "geometry": {"coordinates": [-79.202799992, 37.925311946], "type": "Point"}, "id": "Ye5zw2dEW3jE4C-uSTHuUaoHO0M=", "properties": {"@spider": "usps_collection_boxes", "addr:city": "STEELES TAVERN", "addr:country": "US", "addr:full": "6554 LEE JACKSON HWY", "addr:postcode": "24476", "addr:state": "VA", "amenity": "post_box", "brand": "United States Postal Service", "brand:wikidata": "Q668687", "collection_times": "Mo-Fr 15:00; Sa 12:00", "name": "USPS COLLECTION BOX - PO LOBBY", "note": "ON 12/24 AND 12/31, THIS BOX MAY BE COLLECTED AS EARLY AS 12 NOON.", "nsi_id": "unitedstatespostalservice-a77078", "operator": "United States Postal Service", "operator:short": "USPS", "operator:type": "public", "operator:wikidata": "Q668687", "ref": "2447600003"}, "type": "Feature"}
{"dataset_attributes": {"@spider": "usps_collection_boxes", "spider:collection_time": "2023-09-13T08:25:17.985642"}, "geometry": {"coordinates": [-79.027104516, 38.037262392], "type": "Point"}, "id": "ja4HkcSkr7mM5wmNIJ8GAdsimMA=", "properties": {"@spider": "usps_collection_boxes", "addr:city": "STUARTS DRAFT", "addr:country": "US", "addr:full": "2857 STUARTS DRAFT HWY", "addr:postcode": "24477", "addr:state": "VA", "amenity": "post_box", "brand": "United States Postal Service", "brand:wikidata": "Q668687", "collection_times": "Mo-Fr 16:45; Sa 10:00", "name": "USPS COLLECTION BOX - BLUE BOX", "note": "ON 12/24 AND 12/31, THIS BOX MAY BE COLLECTED AS EARLY AS 12 NOON.", "nsi_id": "unitedstatespostalservice-a77078", "operator": "United States Postal Service", "operator:short": "USPS", "operator:type": "public", "operator:wikidata": "Q668687", "ref": "2447700000"}, "type": "Feature"}
{"dataset_attributes": {"@spider": "usps_collection_boxes", "spider:collection_time": "2023-09-13T08:25:17.985642"}, "geometry": {"coordinates": [-79.0379477, 38.034448], "type": "Point"}, "id": "KpjcBjLfTesWoe1lejacFlQstJU=", "properties": {"@spider": "usps_collection_boxes", "addr:city": "STUARTS DRAFT", "addr:country": "US", "addr:full": "2576 STUARTS DRAFT HWY", "addr:postcode": "24477", "addr:state": "VA", "amenity": "post_box", "brand": "United States Postal Service", "brand:wikidata": "Q668687", "collection_times": "Mo-Sa 12:00", "name": "USPS COLLECTION BOX - BLUE BOX", "nsi_id": "unitedstatespostalservice-a77078", "operator": "United States Postal Service", "operator:short": "USPS", "operator:type": "public", "operator:wikidata": "Q668687", "ref": "2447700002"}, "type": "Feature"}
{"dataset_attributes": {"@spider": "usps_collection_boxes", "spider:collection_time": "2023-09-13T08:25:17.985642"}, "geometry": {"coordinates": [-79.027104516, 38.037262392], "type": "Point"}, "id": "Gzmo6eum6AfYkLgjt0c6hc452_I=", "properties": {"@spider": "usps_collection_boxes", "addr:city": "STUARTS DRAFT", "addr:country": "US", "addr:full": "2857 STUARTS DRAFT HWY", "addr:postcode": "24477", "addr:state": "VA", "amenity": "post_box", "brand": "United States Postal Service", "brand:wikidata": "Q668687", "collection_times": "Mo-Fr 17:00; Sa 10:00", "name": "USPS COLLECTION BOX - PO LOBBY", "note": "ON 12/24 AND 12/31, THIS BOX MAY BE COLLECTED AS EARLY AS 12 NOON.", "nsi_id": "unitedstatespostalservice-a77078", "operator": "United States Postal Service", "operator:short": "USPS", "operator:type": "public", "operator:wikidata": "Q668687", "ref": "2447700006"}, "type": "Feature"}
{"dataset_attributes": {"@spider": "usps_collection_boxes", "spider:collection_time": "2023-09-13T08:25:17.985642"}, "geometry": {"coordinates": [-79.027104516, 38.037262392], "type": "Point"}, "id": "V7KsOPxJ_gh1VOs91rgUpFAu7XM=", "properties": {"@spider": "usps_collection_boxes", "addr:city": "STUARTS DRAFT", "addr:country": "US", "addr:full": "2857 STUARTS DRAFT HWY", "addr:postcode": "24477", "addr:state": "VA", "amenity": "post_box", "brand": "United States Postal Service", "brand:wikidata": "Q668687", "collection_times": "Mo-Fr 17:00", "name": "USPS COLLECTION BOX - PO LOBBY", "note": "ON 12/24 AND 12/31, THIS BOX MAY BE COLLECTED AS EARLY AS 12 NOON.", "nsi_id": "unitedstatespostalservice-a77078", "operator": "United States Postal Service", "operator:short": "USPS", "operator:type": "public", "operator:wikidata": "Q668687", "ref": "2447700010"}, "type": "Feature"}
{"dataset_attributes": {"@spider": "usps_collection_boxes", "spider:collection_time": "2023-09-13T08:25:17.985642"}, "geometry": {"coordinates": [-79.207176977, 38.158282026], "type": "Point"}, "id": "tdE2yQF2XqesdhxZjzbPRQe-FpQ=", "properties": {"@spider": "usps_collection_boxes", "addr:city": "SWOOPE", "addr:country": "US", "addr:full": "1351 HEWITT RD", "addr:postcode": "24479", "addr:state": "VA", "amenity": "post_box", "brand": "United States Postal Service", "brand:wikidata": "Q668687", "collection_times": "Mo-Fr 15:45; Sa 10:45", "name": "USPS COLLECTION BOX - BLUE BOX", "note": "ON 12/24 AND 12/31, THIS BOX MAY BE COLLECTED AS EARLY AS 12 NOON.", "nsi_id": "unitedstatespostalservice-a77078", "operator": "United States Postal Service", "operator:short": "USPS", "operator:type": "public", "operator:wikidata": "Q668687", "ref": "2447900000"}, "type": "Feature"}
{"dataset_attributes": {"@spider": "usps_collection_boxes", "spider:collection_time": "2023-09-13T08:25:17.985642"}, "geometry": {"coordinates": [-79.207176977, 38.158282026], "type": "Point"}, "id": "p25ugKUESvXs5J64UFKB2cvf50g=", "properties": {"@spider": "usps_collection_boxes", "addr:city": "SWOOPE", "addr:country": "US", "addr:full": "1351 HEWITT RD", "addr:postcode": "24479", "addr:state": "VA", "amenity": "post_box", "brand": "United States Postal Service", "brand:wikidata": "Q668687", "collection_times": "Mo-Fr 15:45; Sa 10:45", "name": "USPS COLLECTION BOX - PO LOBBY", "note": "ON 12/24 AND 12/31, THIS BOX MAY BE COLLECTED AS EARLY AS 12 NOON.", "nsi_id": "unitedstatespostalservice-a77078", "operator": "United States Postal Service", "operator:short": "USPS", "operator:type": "public", "operator:wikidata": "Q668687", "ref": "2447900001"}, "type": "Feature"}
{"dataset_attributes": {"@spider": "usps_collection_boxes", "spider:collection_time": "2023-09-13T08:25:17.985642"}, "geometry": {"coordinates": [-79.207176977, 38.158282026], "type": "Point"}, "id": "4q7jg9Ij1v-kyVW0zPeNpzUe_l8=", "properties": {"@spider": "usps_collection_boxes", "addr:city": "SWOOPE", "addr:country": "US", "addr:full": "1351 HEWITT RD", "addr:postcode": "24479", "addr:state": "VA", "amenity": "post_box", "brand": "United States Postal Service", "brand:wikidata": "Q668687", "collection_times": "Mo-Fr 16:15; Sa 12:30", "name": "USPS COLLECTION BOX - PO LOBBY", "note": "ON 12/24 AND 12/31, THIS BOX MAY BE COLLECTED AS EARLY AS 12 NOON.", "nsi_id": "unitedstatespostalservice-a77078", "operator": "United States Postal Service", "operator:short": "USPS", "operator:type": "public", "operator:wikidata": "Q668687", "ref": "2447900004"}, "type": "Feature"}
{"dataset_attributes": {"@spider": "usps_collection_boxes", "spider:collection_time": "2023-09-13T08:25:17.985642"}, "geometry": {"coordinates": [-79.006852589, 38.2034028], "type": "Point"}, "id": "m65ciRNJzz66Wq3N6coLhezONk8=", "properties": {"@spider": "usps_collection_boxes", "addr:city": "VERONA", "addr:country": "US", "addr:full": "485 LEE HWY", "addr:postcode": "24482", "addr:state": "VA", "amenity": "post_box", "brand": "United States Postal Service", "brand:wikidata": "Q668687", "collection_times": "Mo-Fr 17:00; Sa 11:00", "name": "USPS COLLECTION BOX - BLUE BOX", "note": "ON 12/24 AND 12/31, THIS BOX MAY BE COLLECTED AS EARLY AS 12 NOON.", "nsi_id": "unitedstatespostalservice-a77078", "operator": "United States Postal Service", "operator:short": "USPS", "operator:type": "public", "operator:wikidata": "Q668687", "ref": "2448200001"}, "type": "Feature"}
{"dataset_attributes": {"@spider": "usps_collection_boxes", "spider:collection_time": "2023-09-13T08:25:17.985642"}, "geometry": {"coordinates": [-79.006852589, 38.2034028], "type": "Point"}, "id": "nai2yts0XS1ZB_AoemFE-RQMR88=", "properties": {"@spider": "usps_collection_boxes", "addr:city": "VERONA", "addr:country": "US", "addr:full": "485 LEE HWY", "addr:postcode": "24482", "addr:state": "VA", "amenity": "post_box", "brand": "United States Postal Service", "brand:wikidata": "Q668687", "collection_times": "Mo-Fr 17:15; Sa 11:00", "name": "USPS COLLECTION BOX - PO LOBBY", "note": "ON 12/24 AND 12/31, THIS BOX MAY BE COLLECTED AS EARLY AS 12 NOON.", "nsi_id": "unitedstatespostalservice-a77078", "operator": "United States Postal Service", "operator:short": "USPS", "operator:type": "public", "operator:wikidata": "Q668687", "ref": "2448200003"}, "type": "Feature"}
{"dataset_attributes": {"@spider": "usps_collection_boxes", "spider:collection_time": "2023-09-13T08:25:17.985642"}, "geometry": {"coordinates": [-79.006852589, 38.2034028], "type": "Point"}, "id": "gz63PXDHYvG83rNaDIAdsdmSV1U=", "properties": {"@spider": "usps_collection_boxes", "addr:city": "VERONA", "addr:country": "US", "addr:full": "485 LEE HWY", "addr:postcode": "24482", "addr:state": "VA", "amenity": "post_box", "brand": "United States Postal Service", "brand:wikidata": "Q668687", "collection_times": "Mo-Fr 17:00", "name": "USPS COLLECTION BOX - PO LOBBY", "note": "ON 12/24 AND 12/31, THIS BOX MAY BE COLLECTED AS EARLY AS 12 NOON.", "nsi_id": "unitedstatespostalservice-a77078", "operator": "United States Postal Service", "operator:short": "USPS", "operator:type": "public", "operator:wikidata": "Q668687", "ref": "2448200005"}, "type": "Feature"}
{"dataset_attributes": {"@spider": "usps_collection_boxes", "spider:collection_time": "2023-09-13T08:25:17.985642"}, "geometry": {"coordinates": [-79.790282, 38.047663], "type": "Point"}, "id": "Soa35LRhj3ywrsM4uU_BEyaY950=", "properties": {"@spider": "usps_collection_boxes", "addr:city": "WARM SPRINGS", "addr:country": "US", "addr:full": "97 OLD MILL RD", "addr:postcode": "24484", "addr:state": "VA", "amenity": "post_box", "brand": "United States Postal Service", "brand:wikidata": "Q668687", "collection_times": "Mo-Fr 16:00; Sa 11:30", "name": "USPS COLLECTION BOX - PO LOBBY", "note": "ON 12/24 AND 12/31, THIS BOX MAY BE COLLECTED AS EARLY AS 12 NOON.", "nsi_id": "unitedstatespostalservice-a77078", "operator": "United States Postal Service", "operator:short": "USPS", "operator:type": "public", "operator:wikidata": "Q668687", "ref": "2448400000"}, "type": "Feature"}
{"dataset_attributes": {"@spider": "usps_collection_boxes", "spider:collection_time": "2023-09-13T08:25:17.985642"}, "geometry": {"coordinates": [-79.790282, 38.047663], "type": "Point"}, "id": "dRUi9zcTryvCGkzDaCb5nIF81JI=", "properties": {"@spider": "usps_collection_boxes", "addr:city": "WARM SPRINGS", "addr:country": "US", "addr:full": "97 OLD MILL RD", "addr:postcode": "24484", "addr:state": "VA", "amenity": "post_box", "brand": "United States Postal Service", "brand:wikidata": "Q668687", "collection_times": "Mo-Fr 16:00; Sa 11:30", "name": "USPS COLLECTION BOX - BLUE BOX", "note": "ON 12/24 AND 12/31, THIS BOX MAY BE COLLECTED AS EARLY AS 12 NOON.", "nsi_id": "unitedstatespostalservice-a77078", "operator": "United States Postal Service", "operator:short": "USPS", "operator:type": "public", "operator:wikidata": "Q668687", "ref": "2448400001"}, "type": "Feature"}
{"dataset_attributes": {"@spider": "usps_collection_boxes", "spider:collection_time": "2023-09-13T08:25:17.985642"}, "geometry": {"coordinates": [-79.3071589, 38.270168], "type": "Point"}, "id": "0Dmg-ekbaT4kC3RSB-6srgjU-xE=", "properties": {"@spider": "usps_collection_boxes", "addr:city": "WEST AUGUSTA", "addr:country": "US", "addr:full": "162 SHENANDOAH MOUNTAIN DR", "addr:postcode": "24485", "addr:state": "VA", "amenity": "post_box", "brand": "United States Postal Service", "brand:wikidata": "Q668687", "collection_times": "Mo-Sa 11:00", "name": "USPS COLLECTION BOX - BLUE BOX", "nsi_id": "unitedstatespostalservice-a77078", "operator": "United States Postal Service", "operator:short": "USPS", "operator:type": "public", "operator:wikidata": "Q668687", "ref": "2448500002"}, "type": "Feature"}
{"dataset_attributes": {"@spider": "usps_collection_boxes", "spider:collection_time": "2023-09-13T08:25:17.985642"}, "geometry": {"coordinates": [-79.3091283693, 38.2709535287], "type": "Point"}, "id": "_sPv9oUAGR6iXmcQslZOhKLUvxk=", "properties": {"@spider": "usps_collection_boxes", "addr:city": "WEST AUGUSTA", "addr:country": "US", "addr:full": "209 SHENANDOAH MOUNTAIN DR", "addr:postcode": "24485", "addr:state": "VA", "amenity": "post_box", "brand": "United States Postal Service", "brand:wikidata": "Q668687", "collection_times": "Mo-Fr 12:00; Sa 10:00", "name": "USPS COLLECTION BOX - PO LOBBY", "nsi_id": "unitedstatespostalservice-a77078", "operator": "United States Postal Service", "operator:short": "USPS", "operator:type": "public", "operator:wikidata": "Q668687", "ref": "2448500003"}, "type": "Feature"}
{"dataset_attributes": {"@spider": "usps_collection_boxes", "spider:collection_time": "2023-09-13T08:25:17.985642"}, "geometry": {"coordinates": [-78.912820594, 38.288827855], "type": "Point"}, "id": "te7w8f69U6e6OwcqrdS7PG9WuyE=", "properties": {"@spider": "usps_collection_boxes", "addr:city": "WEYERS CAVE", "addr:country": "US", "addr:full": "27 DEPOT RD", "addr:postcode": "24486", "addr:state": "VA", "amenity": "post_box", "brand": "United States Postal Service", "brand:wikidata": "Q668687", "collection_times": "Mo-Fr 16:00; Sa 11:00", "name": "USPS COLLECTION BOX - BLUE BOX", "note": "ON 12/24 AND 12/31, THIS BOX MAY BE COLLECTED AS EARLY AS 12 NOON.", "nsi_id": "unitedstatespostalservice-a77078", "operator": "United States Postal Service", "operator:short": "USPS", "operator:type": "public", "operator:wikidata": "Q668687", "ref": "2448600000"}, "type": "Feature"}
{"dataset_attributes": {"@spider": "usps_collection_boxes", "spider:collection_time": "2023-09-13T08:25:17.985642"}, "geometry": {"coordinates": [-78.912820594, 38.288827855], "type": "Point"}, "id": "_f3EjQPlZQflceQKIWXopmKfiZo=", "properties": {"@spider": "usps_collection_boxes", "addr:city": "WEYERS CAVE", "addr:country": "US", "addr:full": "27 DEPOT RD", "addr:postcode": "24486", "addr:state": "VA", "amenity": "post_box", "brand": "United States Postal Service", "brand:wikidata": "Q668687", "collection_times": "Mo-Fr 16:00; Sa 11:00", "name": "USPS COLLECTION BOX - PO LOBBY", "note": "ON 12/24 AND 12/31, THIS BOX MAY BE COLLECTED AS EARLY AS 12 NOON.", "nsi_id": "unitedstatespostalservice-a77078", "operator": "United States Postal Service", "operator:short": "USPS", "operator:type": "public", "operator:wikidata": "Q668687", "ref": "2448600001"}, "type": "Feature"}
{"dataset_attributes": {"@spider": "usps_collection_boxes", "spider:collection_time": "2023-09-13T08:25:17.985642"}, "geometry": {"coordinates": [-78.912820594, 38.288827855], "type": "Point"}, "id": "pUQeT7Iz48kYoKVXttC7wUeKCTw=", "properties": {"@spider": "usps_collection_boxes", "addr:city": "WEYERS CAVE", "addr:country": "US", "addr:full": "27 DEPOT RD", "addr:postcode": "24486", "addr:state": "VA", "amenity": "post_box", "brand": "United States Postal Service", "brand:wikidata": "Q668687", "collection_times": "Mo-Fr 16:00; Sa 11:00", "name": "USPS COLLECTION BOX - PO LOBBY", "note": "ON 12/24 AND 12/31, THIS BOX MAY BE COLLECTED AS EARLY AS 12 NOON.", "nsi_id": "unitedstatespostalservice-a77078", "operator": "United States Postal Service", "operator:short": "USPS", "operator:type": "public", "operator:wikidata": "Q668687", "ref": "2448600004"}, "type": "Feature"}
{"dataset_attributes": {"@spider": "usps_collection_boxes", "spider:collection_time": "2023-09-13T08:25:17.985642"}, "geometry": {"coordinates": [-79.565082209, 38.199724782], "type": "Point"}, "id": "jyid4QlLSTRo7WcDpFaFgENc4uU=", "properties": {"@spider": "usps_collection_boxes", "addr:city": "WILLIAMSVILLE", "addr:country": "US", "addr:full": "12258 COWPASTURE RIVER RD S", "addr:postcode": "24487", "addr:state": "VA", "amenity": "post_box", "brand": "United States Postal Service", "brand:wikidata": "Q668687", "collection_times": "Mo-Sa 11:00", "name": "USPS COLLECTION BOX - PO LOBBY", "nsi_id": "unitedstatespostalservice-a77078", "operator": "United States Postal Service", "operator:short": "USPS", "operator:type": "public", "operator:wikidata": "Q668687", "ref": "2448700002"}, "type": "Feature"}
{"dataset_attributes": {"@spider": "usps_collection_boxes", "spider:collection_time": "2023-09-13T08:25:17.985642"}, "geometry": {"coordinates": [-79.565082209, 38.199724782], "type": "Point"}, "id": "O8DQPCmnR3butmX9UDWPH2u9vpI=", "properties": {"@spider": "usps_collection_boxes", "addr:city": "WILLIAMSVILLE", "addr:country": "US", "addr:full": "12258 COWPASTURE RIVER RD S", "addr:postcode": "24487", "addr:state": "VA", "amenity": "post_box", "brand": "United States Postal Service", "brand:wikidata": "Q668687", "collection_times": "Mo-Sa 13:00", "name": "USPS COLLECTION BOX - PO LOBBY", "note": "ON 12/24 AND 12/31, THIS BOX MAY BE COLLECTED AS EARLY AS 12 NOON.", "nsi_id": "unitedstatespostalservice-a77078", "operator": "United States Postal Service", "operator:short": "USPS", "operator:type": "public", "operator:wikidata": "Q668687", "ref": "2448700003"}, "type": "Feature"}
