{"geometry": {"coordinates": [-79.15972, 37.40556], "type": "Point"}, "id": "SsuELMZ4gOalN7PtAMaIfcJVuho=", "properties": {"@source_uri": "https://tools.usps.com/UspsToolsRestServices/rest/POLocator/findLocations", "@spider": "usps_collection_boxes", "addr:city": "LYNCHBURG", "addr:country": "US", "addr:postcode": "24501", "addr:state": "VA", "addr:street_address": "3900 CAMPBELL AVE", "amenity": "post_box", "brand": "United States Postal Service", "brand:wikidata": "Q668687", "collection_times": "Mo-Sa 10:00", "nsi_id": "unitedstatespostalservice-a77078", "operator": "United States Postal Service", "operator:short": "USPS", "operator:type": "public", "operator:wikidata": "Q668687", "ref": "2450100002"}, "type": "Feature"}
{"geometry": {"coordinates": [-79.167771, 37.41064], "type": "Point"}, "id": "-1USq_fzolHmt1taDHy0oOi1KGE=", "properties": {"@source_uri": "https://tools.usps.com/UspsToolsRestServices/rest/POLocator/findLocations", "@spider": "usps_collection_boxes", "addr:city": "LYNCHBURG", "addr:country": "US", "addr:postcode": "24501", "addr:state": "VA", "addr:street_address": "2500 LANGHORNE RD", "amenity": "post_box", "brand": "United States Postal Service", "brand:wikidata": "Q668687", "collection_times": "Mo-Sa 12:20", "note": "ON 12/24 AND 12/31, THIS BOX MAY BE COLLECTED AS EARLY AS 12 NOON.", "nsi_id": "unitedstatespostalservice-a77078", "operator": "United States Postal Service", "operator:short": "USPS", "operator:type": "public", "operator:wikidata": "Q668687", "ref": "2450100012"}, "type": "Feature"}
{"geometry": {"coordinates": [-79.1710380368, 37.4038930179], "type": "Point"}, "id": "fzEW9EqnyCH462At_frBp2hFVHo=", "properties": {"@source_uri": "https://tools.usps.com/UspsToolsRestServices/rest/POLocator/findLocations", "@spider": "usps_collection_boxes", "addr:city": "LYNCHBURG", "addr:country": "US", "addr:postcode": "24501", "addr:state": "VA", "addr:street_address": "2323 MEMORIAL AVE", "amenity": "post_box", "brand": "United States Postal Service", "brand:wikidata": "Q668687", "collection_times": "Mo-Sa 11:30", "nsi_id": "unitedstatespostalservice-a77078", "operator": "United States Postal Service", "operator:short": "USPS", "operator:type": "public", "operator:wikidata": "Q668687", "ref": "2450100027"}, "type": "Feature"}
{"geometry": {"coordinates": [-79.1710380368, 37.4038930179], "type": "Point"}, "id": "bbeDevulUYUzy5uIPKJoagrYBl4=", "properties": {"@source_uri": "https://tools.usps.com/UspsToolsRestServices/rest/POLocator/findLocations", "@spider": "usps_collection_boxes", "addr:city": "LYNCHBURG", "addr:country": "US", "addr:postcode": "24501", "addr:state": "VA", "addr:street_address": "2323 MEMORIAL AVE", "amenity": "post_box", "brand": "United States Postal Service", "brand:wikidata": "Q668687", "collection_times": "Mo-Sa 11:30", "nsi_id": "unitedstatespostalservice-a77078", "operator": "United States Postal Service", "operator:short": "USPS", "operator:type": "public", "operator:wikidata": "Q668687", "ref": "2450100028"}, "type": "Feature"}
{"geometry": {"coordinates": [-79.15972, 37.40556], "type": "Point"}, "id": "2s3ah8PK9J5ZBrRE0SUwPQnrDYc=", "properties": {"@source_uri": "https://tools.usps.com/UspsToolsRestServices/rest/POLocator/findLocations", "@spider": "usps_collection_boxes", "addr:city": "LYNCHBURG", "addr:country": "US", "addr:postcode": "24501", "addr:state": "VA", "addr:street_address": "2007 TATE SPRINGS RD", "amenity": "post_box", "brand": "United States Postal Service", "brand:wikidata": "Q668687", "collection_times": "Mo-Sa 12:15", "note": "ON 12/24 AND 12/31, THIS BOX MAY BE COLLECTED AS EARLY AS 12 NOON.", "nsi_id": "unitedstatespostalservice-a77078", "operator": "United States Postal Service", "operator:short": "USPS", "operator:type": "public", "operator:wikidata": "Q668687", "ref": "2450100031"}, "type": "Feature"}
{"geometry": {"coordinates": [-79.1720814, 37.414401], "type": "Point"}, "id": "Tckl_4WlsOeWrB9bagbyCCNBxDc=", "properties": {"@source_uri": "https://tools.usps.com/UspsToolsRestServices/rest/POLocator/findLocations", "@spider": "usps_collection_boxes", "addr:city": "LYNCHBURG", "addr:country": "US", "addr:postcode": "24501", "addr:state": "VA", "addr:street_address": "2007 TATE SPRINGS RD", "amenity": "post_box", "brand": "United States Postal Service", "brand:wikidata": "Q668687", "collection_times": "Mo-Sa 12:15", "note": "ON 12/24 AND 12/31, THIS BOX MAY BE COLLECTED AS EARLY AS 12 NOON.", "nsi_id": "unitedstatespostalservice-a77078", "operator": "United States Postal Service", "operator:short": "USPS", "operator:type": "public", "operator:wikidata": "Q668687", "ref": "2450100032"}, "type": "Feature"}
{"geometry": {"coordinates": [-79.2024659, 37.399047], "type": "Point"}, "id": "zKvPxrQAcy2mTMwEtFZEL07lUvs=", "properties": {"@source_uri": "https://tools.usps.com/UspsToolsRestServices/rest/POLocator/findLocations", "@spider": "usps_collection_boxes", "addr:city": "LYNCHBURG", "addr:country": "US", "addr:postcode": "24501", "addr:state": "VA", "addr:street_address": "300 WEEPING WILLOW DR", "amenity": "post_box", "brand": "United States Postal Service", "brand:wikidata": "Q668687", "collection_times": "Mo-Sa 10:00", "nsi_id": "unitedstatespostalservice-a77078", "operator": "United States Postal Service", "operator:short": "USPS", "operator:type": "public", "operator:wikidata": "Q668687", "ref": "2450100033"}, "type": "Feature"}
{"geometry": {"coordinates": [-79.2456794, 37.32926], "type": "Point"}, "id": "QtzOSFm5jrHqPyhPm8hTnx1L0pk=", "properties": {"@source_uri": "https://tools.usps.com/UspsToolsRestServices/rest/POLocator/findLocations", "@spider": "usps_collection_boxes", "addr:city": "LYNCHBURG", "addr:country": "US", "addr:postcode": "24502", "addr:state": "VA", "addr:street_address": "21430 TIMBERLAKE RD", "amenity": "post_box", "brand": "United States Postal Service", "brand:wikidata": "Q668687", "collection_times": "Mo-Fr 16:30; Sa 12:00", "note": "ON 12/24 AND 12/31, THIS BOX MAY BE COLLECTED AS EARLY AS 12 NOON.", "nsi_id": "unitedstatespostalservice-a77078", "operator": "United States Postal Service", "operator:short": "USPS", "operator:type": "public", "operator:wikidata": "Q668687", "ref": "2450200001"}, "type": "Feature"}
{"geometry": {"coordinates": [-79.1960570119, 37.3702530038], "type": "Point"}, "id": "C8wUwPBOZFJi21lRJUxmSyH7R0U=", "properties": {"@source_uri": "https://tools.usps.com/UspsToolsRestServices/rest/POLocator/findLocations", "@spider": "usps_collection_boxes", "addr:city": "LYNCHBURG", "addr:country": "US", "addr:postcode": "24502", "addr:state": "VA", "addr:street_address": "6020 FORT AVE", "amenity": "post_box", "brand": "United States Postal Service", "brand:wikidata": "Q668687", "collection_times": "Mo-Fr 17:00; Sa 16:30", "note": "ON 12/24 AND 12/31, THIS BOX MAY BE COLLECTED AS EARLY AS 12 NOON.", "nsi_id": "unitedstatespostalservice-a77078", "operator": "United States Postal Service", "operator:short": "USPS", "operator:type": "public", "operator:wikidata": "Q668687", "ref": "2450200006"}, "type": "Feature"}
{"geometry": {"coordinates": [-79.19633386, 37.370542089], "type": "Point"}, "id": "hw7J25ND0b3u1aZMVvmqTkaYUoY=", "properties": {"@source_uri": "https://tools.usps.com/UspsToolsRestServices/rest/POLocator/findLocations", "@spider": "usps_collection_boxes", "addr:city": "LYNCHBURG", "addr:country": "US", "addr:postcode": "24502", "addr:state": "VA", "addr:street_address": "6020 FORT AVE", "amenity": "post_box", "brand": "United States Postal Service", "brand:wikidata": "Q668687", "collection_times": "Mo-Fr 17:00; Sa 16:30", "note": "ON 12/24 AND 12/31, THIS BOX MAY BE COLLECTED AS EARLY AS 12 NOON.", "nsi_id": "unitedstatespostalservice-a77078", "operator": "United States Postal Service", "operator:short": "USPS", "operator:type": "public", "operator:wikidata": "Q668687", "ref": "2450200007"}, "type": "Feature"}
{"geometry": {"coordinates": [-79.225706, 37.352955], "type": "Point"}, "id": "zdwzSZ9B2f4TgOVEqB86kkcQ2e4=", "properties": {"@source_uri": "https://tools.usps.com/UspsToolsRestServices/rest/POLocator/findLocations", "@spider": "usps_collection_boxes", "addr:city": "LYNCHBURG", "addr:country": "US", "addr:postcode": "24502", "addr:state": "VA", "addr:street_address": "7805 TIMBERLAKE RD", "amenity": "post_box", "brand": "United States Postal Service", "brand:wikidata": "Q668687", "collection_times": "Mo-Sa 10:30", "nsi_id": "unitedstatespostalservice-a77078", "operator": "United States Postal Service", "operator:short": "USPS", "operator:type": "public", "operator:wikidata": "Q668687", "ref": "2450200025"}, "type": "Feature"}
{"geometry": {"coordinates": [-79.2389382368, 37.3383444068], "type": "Point"}, "id": "S90J4MCWZG9z60ujJOSYI7unEdI=", "properties": {"@source_uri": "https://tools.usps.com/UspsToolsRestServices/rest/POLocator/findLocations", "@spider": "usps_collection_boxes", "addr:city": "LYNCHBURG", "addr:country": "US", "addr:postcode": "24502", "addr:state": "VA", "addr:street_address": "20722 TIMBERLAKE RD", "amenity": "post_box", "brand": "United States Postal Service", "brand:wikidata": "Q668687", "collection_times": "Mo-Sa 11:00", "nsi_id": "unitedstatespostalservice-a77078", "operator": "United States Postal Service", "operator:short": "USPS", "operator:type": "public", "operator:wikidata": "Q668687", "ref": "2450200026"}, "type": "Feature"}
{"geometry": {"coordinates": [-79.2481738, 37.329375], "type": "Point"}, "id": "VgxukTixZxkHGFk7dQoQfjAYLlE=", "properties": {"@source_uri": "https://tools.usps.com/UspsToolsRestServices/rest/POLocator/findLocations", "@spider": "usps_collection_boxes", "addr:city": "LYNCHBURG", "addr:country": "US", "addr:postcode": "24502", "addr:state": "VA", "addr:street_address": "3412 WATERLICK RD", "amenity": "post_box", "brand": "United States Postal Service", "brand:wikidata": "Q668687", "collection_times": "Mo-Sa 10:30", "nsi_id": "unitedstatespostalservice-a77078", "operator": "United States Postal Service", "operator:short": "USPS", "operator:type": "public", "operator:wikidata": "Q668687", "ref": "2450200027"}, "type": "Feature"}
{"geometry": {"coordinates": [-79.2481651, 37.329359], "type": "Point"}, "id": "hLsR-GiYT2bYTby6jgySMsFCHxk=", "properties": {"@source_uri": "https://tools.usps.com/UspsToolsRestServices/rest/POLocator/findLocations", "@spider": "usps_collection_boxes", "addr:city": "LYNCHBURG", "addr:country": "US", "addr:postcode": "24502", "addr:state": "VA", "addr:street_address": "3412 WATERLICK RD", "amenity": "post_box", "brand": "United States Postal Service", "brand:wikidata": "Q668687", "collection_times": "Mo-Sa 10:30", "nsi_id": "unitedstatespostalservice-a77078", "operator": "United States Postal Service", "operator:short": "USPS", "operator:type": "public", "operator:wikidata": "Q668687", "ref": "2450200028"}, "type": "Feature"}
{"geometry": {"coordinates": [-79.2152270112, 37.3599169857], "type": "Point"}, "id": "EgzM5hi1prTAHmRpnjUpxwLtTcA=", "properties": {"@source_uri": "https://tools.usps.com/UspsToolsRestServices/rest/POLocator/findLocations", "@spider": "usps_collection_boxes", "addr:city": "LYNCHBURG", "addr:country": "US", "addr:postcode": "24502", "addr:state": "VA", "addr:street_address": "7335 TIMBERLAKE RD", "amenity": "post_box", "brand": "United States Postal Service", "brand:wikidata": "Q668687", "collection_times": "Mo-Sa 10:15", "nsi_id": "unitedstatespostalservice-a77078", "operator": "United States Postal Service", "operator:short": "USPS", "operator:type": "public", "operator:wikidata": "Q668687", "ref": "2450200030"}, "type": "Feature"}
{"geometry": {"coordinates": [-79.19633386, 37.370542089], "type": "Point"}, "id": "Gtjd4jE_2OPc5K5uSYLCrcfcAXA=", "properties": {"@source_uri": "https://tools.usps.com/UspsToolsRestServices/rest/POLocator/findLocations", "@spider": "usps_collection_boxes", "addr:city": "LYNCHBURG", "addr:country": "US", "addr:postcode": "24502", "addr:state": "VA", "addr:street_address": "6020 FORT AVE", "amenity": "post_box", "brand": "United States Postal Service", "brand:wikidata": "Q668687", "collection_times": "Mo-Fr 17:00; Sa 16:30", "note": "ON 12/24 AND 12/31, THIS BOX MAY BE COLLECTED AS EARLY AS 12 NOON.", "nsi_id": "unitedstatespostalservice-a77078", "operator": "United States Postal Service", "operator:short": "USPS", "operator:type": "public", "operator:wikidata": "Q668687", "ref": "2450200032"}, "type": "Feature"}
{"geometry": {"coordinates": [-79.2457165, 37.329243], "type": "Point"}, "id": "1E-DwdVsOqjrHEs_WwYXp6IekMk=", "properties": {"@source_uri": "https://tools.usps.com/UspsToolsRestServices/rest/POLocator/findLocations", "@spider": "usps_collection_boxes", "addr:city": "LYNCHBURG", "addr:country": "US", "addr:postcode": "24502", "addr:state": "VA", "addr:street_address": "21430 TIMBERLAKE RD", "amenity": "post_box", "brand": "United States Postal Service", "brand:wikidata": "Q668687", "collection_times": "Mo-Fr 16:30; Sa 12:00", "note": "ON 12/24 AND 12/31, THIS BOX MAY BE COLLECTED AS EARLY AS 12 NOON.", "nsi_id": "unitedstatespostalservice-a77078", "operator": "United States Postal Service", "operator:short": "USPS", "operator:type": "public", "operator:wikidata": "Q668687", "ref": "2450200033"}, "type": "Feature"}
{"geometry": {"coordinates": [-79.171688, 37.360545], "type": "Point"}, "id": "vJwmtsJfnH3mhRS6Yq8_4huC_wg=", "properties": {"@source_uri": "https://tools.usps.com/UspsToolsRestServices/rest/POLocator/findLocations", "@spider": "usps_collection_boxes", "addr:city": "LYNCHBURG", "addr:country": "US", "addr:postcode": "24502", "addr:state": "VA", "addr:street_address": "3700 CANDLERS MOUNTAIN RD", "amenity": "post_box", "brand": "United States Postal Service", "brand:wikidata": "Q668687", "collection_times": "Mo-Sa 14:45", "note": "ON 12/24 AND 12/31, THIS BOX MAY BE COLLECTED AS EARLY AS 12 NOON.", "nsi_id": "unitedstatespostalservice-a77078", "operator": "United States Postal Service", "operator:short": "USPS", "operator:type": "public", "operator:wikidata": "Q668687", "ref": "2450200036"}, "type": "Feature"}
{"geometry": {"coordinates": [-79.242806, 37.333838], "type": "Point"}, "id": "5jCDdv5UL9tW04bPqxodZVud7jg=", "properties": {"@source_uri": "https://tools.usps.com/UspsToolsRestServices/rest/POLocator/findLocations", "@spider": "usps_collection_boxes", "addr:city": "LYNCHBURG", "addr:country": "US", "addr:postcode": "24502", "addr:state": "VA", "addr:street_address": "21039 TIMBERLAKE RD", "amenity": "post_box", "brand": "United States Postal Service", "brand:wikidata": "Q668687", "collection_times": "Mo-Sa 10:00", "nsi_id": "unitedstatespostalservice-a77078", "operator": "United States Postal Service", "operator:short": "USPS", "operator:type": "public", "operator:wikidata": "Q668687", "ref": "2450200040"}, "type": "Feature"}
{"geometry": {"coordinates": [-79.19633386, 37.370542089], "type": "Point"}, "id": "_ShpQjko6Y4yM4UmwDgsiuTXgVs=", "properties": {"@source_uri": "https://tools.usps.com/UspsToolsRestServices/rest/POLocator/findLocations", "@spider": "usps_collection_boxes", "addr:city": "LYNCHBURG", "addr:country": "US", "addr:postcode": "24502", "addr:state": "VA", "addr:street_address": "6020 FORT AVE", "amenity": "post_box", "brand": "United States Postal Service", "brand:wikidata": "Q668687", "collection_times": "Mo-Fr 17:00; Sa 10:00", "indoor": "yes", "note": "ON 12/24 AND 12/31, THIS BOX MAY BE COLLECTED AS EARLY AS 12 NOON.", "nsi_id": "unitedstatespostalservice-a77078", "operator": "United States Postal Service", "operator:short": "USPS", "operator:type": "public", "operator:wikidata": "Q668687", "ref": "2450200041"}, "type": "Feature"}
{"geometry": {"coordinates": [-79.189457, 37.319391], "type": "Point"}, "id": "xSSz2khVdObJTLObZQRB2UrMXDg=", "properties": {"@source_uri": "https://tools.usps.com/UspsToolsRestServices/rest/POLocator/findLocations", "@spider": "usps_collection_boxes", "addr:city": "LYNCHBURG", "addr:country": "US", "addr:postcode": "24502", "addr:state": "VA", "addr:street_address": "14074 WARDS RD", "amenity": "post_box", "brand": "United States Postal Service", "brand:wikidata": "Q668687", "collection_times": "Mo-Sa 09:30", "nsi_id": "unitedstatespostalservice-a77078", "operator": "United States Postal Service", "operator:short": "USPS", "operator:type": "public", "operator:wikidata": "Q668687", "ref": "2450200044"}, "type": "Feature"}
{"geometry": {"coordinates": [-79.19633386, 37.370542089], "type": "Point"}, "id": "RT_U_7Lq3sPrWxbkzvvNv4bBFiU=", "properties": {"@source_uri": "https://tools.usps.com/UspsToolsRestServices/rest/POLocator/findLocations", "@spider": "usps_collection_boxes", "addr:city": "LYNCHBURG", "addr:country": "US", "addr:postcode": "24502", "addr:state": "VA", "addr:street_address": "6020 FORT AVE", "amenity": "post_box", "brand": "United States Postal Service", "brand:wikidata": "Q668687", "collection_times": "Mo-Fr 17:00", "indoor": "yes", "note": "ON 12/24 AND 12/31, THIS BOX MAY BE COLLECTED AS EARLY AS 12 NOON.", "nsi_id": "unitedstatespostalservice-a77078", "operator": "United States Postal Service", "operator:short": "USPS", "operator:type": "public", "operator:wikidata": "Q668687", "ref": "2450200054"}, "type": "Feature"}
{"geometry": {"coordinates": [-79.218798038, 37.447709781], "type": "Point"}, "id": "xjXDtXCIHBHuCETutnDAEeWm2nI=", "properties": {"@source_uri": "https://tools.usps.com/UspsToolsRestServices/rest/POLocator/findLocations", "@spider": "usps_collection_boxes", "addr:city": "LYNCHBURG", "addr:country": "US", "addr:postcode": "24503", "addr:state": "VA", "addr:street_address": "4925 BOONSBORO RD", "amenity": "post_box", "brand": "United States Postal Service", "brand:wikidata": "Q668687", "collection_times": "Mo-Fr 16:30; Sa 13:00", "note": "ON 12/24 AND 12/31, THIS BOX MAY BE COLLECTED AS EARLY AS 12 NOON.", "nsi_id": "unitedstatespostalservice-a77078", "operator": "United States Postal Service", "operator:short": "USPS", "operator:type": "public", "operator:wikidata": "Q668687", "ref": "2450300001"}, "type": "Feature"}
{"geometry": {"coordinates": [-79.203784959, 37.4424089945], "type": "Point"}, "id": "5Zx36TPYItNGxJqq1DqGC2WpwyM=", "properties": {"@source_uri": "https://tools.usps.com/UspsToolsRestServices/rest/POLocator/findLocations", "@spider": "usps_collection_boxes", "addr:city": "LYNCHBURG", "addr:country": "US", "addr:postcode": "24503", "addr:state": "VA", "addr:street_address": "4119 BOONSBORO RD", "amenity": "post_box", "brand": "United States Postal Service", "brand:wikidata": "Q668687", "collection_times": "Mo-Sa 12:00", "nsi_id": "unitedstatespostalservice-a77078", "operator": "United States Postal Service", "operator:short": "USPS", "operator:type": "public", "operator:wikidata": "Q668687", "ref": "2450300003"}, "type": "Feature"}
{"geometry": {"coordinates": [-79.2020247, 37.416849], "type": "Point"}, "id": "IdqeSSXEqqicV8Ph7oMzhn0QPKg=", "properties": {"@source_uri": "https://tools.usps.com/UspsToolsRestServices/rest/POLocator/findLocations", "@spider": "usps_collection_boxes", "addr:city": "LYNCHBURG", "addr:country": "US", "addr:postcode": "24503", "addr:state": "VA", "addr:street_address": "2840 LINKHORNE DR", "amenity": "post_box", "brand": "United States Postal Service", "brand:wikidata": "Q668687", "collection_times": "Mo-Sa 10:00", "nsi_id": "unitedstatespostalservice-a77078", "operator": "United States Postal Service", "operator:short": "USPS", "operator:type": "public", "operator:wikidata": "Q668687", "ref": "2450300005"}, "type": "Feature"}
{"geometry": {"coordinates": [-79.170559643, 37.43482955], "type": "Point"}, "id": "VAnXp5T1vis2hBB6Fxbgn9CgZJw=", "properties": {"@source_uri": "https://tools.usps.com/UspsToolsRestServices/rest/POLocator/findLocations", "@spider": "usps_collection_boxes", "addr:city": "LYNCHBURG", "addr:country": "US", "addr:postcode": "24503", "addr:state": "VA", "addr:street_address": "2485 RIVERMONT AVE", "amenity": "post_box", "brand": "United States Postal Service", "brand:wikidata": "Q668687", "collection_times": "Mo-Fr 17:00; Sa 15:30", "note": "ON 12/24 AND 12/31, THIS BOX MAY BE COLLECTED AS EARLY AS 12 NOON.", "nsi_id": "unitedstatespostalservice-a77078", "operator": "United States Postal Service", "operator:short": "USPS", "operator:type": "public", "operator:wikidata": "Q668687", "ref": "2450300015"}, "type": "Feature"}
{"geometry": {"coordinates": [-79.170559643, 37.43482955], "type": "Point"}, "id": "mZCKGOyacnBSHCJAcGmZaeYC_Rc=", "properties": {"@source_uri": "https://tools.usps.com/UspsToolsRestServices/rest/POLocator/findLocations", "@spider": "usps_collection_boxes", "addr:city": "LYNCHBURG", "addr:country": "US", "addr:postcode": "24503", "addr:state": "VA", "addr:street_address": "2485 RIVERMONT AVE", "amenity": "post_box", "brand": "United States Postal Service", "brand:wikidata": "Q668687", "collection_times": "Mo-Fr 17:00", "indoor": "yes", "note": "ON 12/24 AND 12/31, THIS BOX MAY BE COLLECTED AS EARLY AS 12 NOON.", "nsi_id": "unitedstatespostalservice-a77078", "operator": "United States Postal Service", "operator:short": "USPS", "operator:type": "public", "operator:wikidata": "Q668687", "ref": "2450300017"}, "type": "Feature"}
{"geometry": {"coordinates": [-79.170559643, 37.43482955], "type": "Point"}, "id": "2cHk3Wt5D1u83uuQN6mFCPq3m80=", "properties": {"@source_uri": "https://tools.usps.com/UspsToolsRestServices/rest/POLocator/findLocations", "@spider": "usps_collection_boxes", "addr:city": "LYNCHBURG", "addr:country": "US", "addr:postcode": "24503", "addr:state": "VA", "addr:street_address": "2485 RIVERMONT AVE", "amenity": "post_box", "brand": "United States Postal Service", "brand:wikidata": "Q668687", "collection_times": "Mo-Fr 17:00", "indoor": "yes", "note": "ON 12/24 AND 12/31, THIS BOX MAY BE COLLECTED AS EARLY AS 12 NOON.", "nsi_id": "unitedstatespostalservice-a77078", "operator": "United States Postal Service", "operator:short": "USPS", "operator:type": "public", "operator:wikidata": "Q668687", "ref": "2450300021"}, "type": "Feature"}
{"geometry": {"coordinates": [-79.21974997, 37.446713018], "type": "Point"}, "id": "0ceaUyQWGjhYxlv6wu8zVMD12Is=", "properties": {"@source_uri": "https://tools.usps.com/UspsToolsRestServices/rest/POLocator/findLocations", "@spider": "usps_collection_boxes", "addr:city": "LYNCHBURG", "addr:country": "US", "addr:postcode": "24503", "addr:state": "VA", "addr:street_address": "4925 BOONSBORO RD STE A", "amenity": "post_box", "brand": "United States Postal Service", "brand:wikidata": "Q668687", "collection_times": "Mo-Fr 16:30; Sa 14:00", "indoor": "yes", "note": "ON 12/24 AND 12/31, THIS BOX MAY BE COLLECTED AS EARLY AS 12 NOON.", "nsi_id": "unitedstatespostalservice-a77078", "operator": "United States Postal Service", "operator:short": "USPS", "operator:type": "public", "operator:wikidata": "Q668687", "ref": "2450300022"}, "type": "Feature"}
{"geometry": {"coordinates": [-79.141345983, 37.4142190197], "type": "Point"}, "id": "zsvNzJttz8_Dy2Nq_JXm4MoCwsA=", "properties": {"@source_uri": "https://tools.usps.com/UspsToolsRestServices/rest/POLocator/findLocations", "@spider": "usps_collection_boxes", "addr:city": "LYNCHBURG", "addr:country": "US", "addr:postcode": "24504", "addr:state": "VA", "addr:street_address": "924 MAIN ST", "amenity": "post_box", "brand": "United States Postal Service", "brand:wikidata": "Q668687", "collection_times": "Mo-Fr 16:30; Sa 16:00", "note": "ON 12/24 AND 12/31, THIS BOX MAY BE COLLECTED AS EARLY AS 12 NOON.", "nsi_id": "unitedstatespostalservice-a77078", "operator": "United States Postal Service", "operator:short": "USPS", "operator:type": "public", "operator:wikidata": "Q668687", "ref": "2450400018"}, "type": "Feature"}
{"geometry": {"coordinates": [-79.141345983, 37.4142190197], "type": "Point"}, "id": "Xi0vNj1VzWqcN_lz_Uw2mb1eDss=", "properties": {"@source_uri": "https://tools.usps.com/UspsToolsRestServices/rest/POLocator/findLocations", "@spider": "usps_collection_boxes", "addr:city": "LYNCHBURG", "addr:country": "US", "addr:postcode": "24504", "addr:state": "VA", "addr:street_address": "924 MAIN ST", "amenity": "post_box", "brand": "United States Postal Service", "brand:wikidata": "Q668687", "collection_times": "Mo-Fr 16:30; Sa 16:00", "note": "ON 12/24 AND 12/31, THIS BOX MAY BE COLLECTED AS EARLY AS 12 NOON.", "nsi_id": "unitedstatespostalservice-a77078", "operator": "United States Postal Service", "operator:short": "USPS", "operator:type": "public", "operator:wikidata": "Q668687", "ref": "2450400019"}, "type": "Feature"}
{"geometry": {"coordinates": [-79.144195, 37.4101], "type": "Point"}, "id": "FUikgiehl13HkBAKssun72IyN6s=", "properties": {"@source_uri": "https://tools.usps.com/UspsToolsRestServices/rest/POLocator/findLocations", "@spider": "usps_collection_boxes", "addr:city": "LYNCHBURG", "addr:country": "US", "addr:postcode": "24504", "addr:state": "VA", "addr:street_address": "1100 CLAY ST", "amenity": "post_box", "brand": "United States Postal Service", "brand:wikidata": "Q668687", "collection_times": "Mo-Fr 17:00", "indoor": "yes", "note": "ON 12/24 AND 12/31, THIS BOX MAY BE COLLECTED AS EARLY AS 12 NOON.", "nsi_id": "unitedstatespostalservice-a77078", "operator": "United States Postal Service", "operator:short": "USPS", "operator:type": "public", "operator:wikidata": "Q668687", "ref": "2450400034"}, "type": "Feature"}
{"geometry": {"coordinates": [-79.1423939, 37.411216], "type": "Point"}, "id": "i2MapwKuFWr0UqZjIqr1Enf0Jzc=", "properties": {"@source_uri": "https://tools.usps.com/UspsToolsRestServices/rest/POLocator/findLocations", "@spider": "usps_collection_boxes", "addr:city": "LYNCHBURG", "addr:country": "US", "addr:postcode": "24505", "addr:state": "VA", "addr:street_address": "1100 CLAY ST", "amenity": "post_box", "brand": "United States Postal Service", "brand:wikidata": "Q668687", "collection_times": "Mo-Fr 17:00; Sa 14:00", "note": "ON 12/24 AND 12/31, THIS BOX MAY BE COLLECTED AS EARLY AS 12 NOON.", "nsi_id": "unitedstatespostalservice-a77078", "operator": "United States Postal Service", "operator:short": "USPS", "operator:type": "public", "operator:wikidata": "Q668687", "ref": "2450500001"}, "type": "Feature"}
{"geometry": {"coordinates": [-79.143559, 37.411692], "type": "Point"}, "id": "eFTW6RsP9iYUJXxLfzaaRe94vHc=", "properties": {"@source_uri": "https://tools.usps.com/UspsToolsRestServices/rest/POLocator/findLocations", "@spider": "usps_collection_boxes", "addr:city": "LYNCHBURG", "addr:country": "US", "addr:postcode": "24505", "addr:state": "VA", "addr:street_address": "1100 CLAY ST", "amenity": "post_box", "brand": "United States Postal Service", "brand:wikidata": "Q668687", "collection_times": "Mo-Fr 17:00; Sa 10:00", "indoor": "yes", "note": "ON 12/24 AND 12/31, THIS BOX MAY BE COLLECTED AS EARLY AS 12 NOON.", "nsi_id": "unitedstatespostalservice-a77078", "operator": "United States Postal Service", "operator:short": "USPS", "operator:type": "public", "operator:wikidata": "Q668687", "ref": "2450500003"}, "type": "Feature"}
{"geometry": {"coordinates": [-79.161866977, 37.380469999], "type": "Point"}, "id": "Iq-eEGDq51h0JntLRvfl3v9dyBo=", "properties": {"@source_uri": "https://tools.usps.com/UspsToolsRestServices/rest/POLocator/findLocations", "@spider": "usps_collection_boxes", "addr:city": "LYNCHBURG", "addr:country": "US", "addr:postcode": "24506", "addr:state": "VA", "addr:street_address": "3300 ODD FELLOWS RD", "amenity": "post_box", "brand": "United States Postal Service", "brand:wikidata": "Q668687", "collection_times": "Mo-Sa 18:00", "note": "ON 12/24 AND 12/31, THIS BOX MAY BE COLLECTED AS EARLY AS 12 NOON.", "nsi_id": "unitedstatespostalservice-a77078", "operator": "United States Postal Service", "operator:short": "USPS", "operator:type": "public", "operator:wikidata": "Q668687", "ref": "2450600001"}, "type": "Feature"}
{"geometry": {"coordinates": [-79.1618669774, 37.380469999], "type": "Point"}, "id": "vLldfPs2ZmCnFDwxLncqQyWjXg0=", "properties": {"@source_uri": "https://tools.usps.com/UspsToolsRestServices/rest/POLocator/findLocations", "@spider": "usps_collection_boxes", "addr:city": "LYNCHBURG", "addr:country": "US", "addr:postcode": "24506", "addr:state": "VA", "addr:street_address": "3300 ODD FELLOWS RD", "amenity": "post_box", "brand": "United States Postal Service", "brand:wikidata": "Q668687", "collection_times": "Mo-Sa 18:00", "note": "ON 12/24 AND 12/31, THIS BOX MAY BE COLLECTED AS EARLY AS 12 NOON.", "nsi_id": "unitedstatespostalservice-a77078", "operator": "United States Postal Service", "operator:short": "USPS", "operator:type": "public", "operator:wikidata": "Q668687", "ref": "2450600002"}, "type": "Feature"}
{"geometry": {"coordinates": [-79.160766231, 37.381412969], "type": "Point"}, "id": "fAH_0UAu2s4YupsEGOshymPr8tQ=", "properties": {"@source_uri": "https://tools.usps.com/UspsToolsRestServices/rest/POLocator/findLocations", "@spider": "usps_collection_boxes", "addr:city": "LYNCHBURG", "addr:country": "US", "addr:postcode": "24506", "addr:state": "VA", "addr:street_address": "3300 ODD FELLOWS RD", "amenity": "post_box", "brand": "United States Postal Service", "brand:wikidata": "Q668687", "collection_times": "Mo-Sa 18:00", "indoor": "yes", "note": "ON 12/24 AND 12/31, THIS BOX MAY BE COLLECTED AS EARLY AS 12 NOON.", "nsi_id": "unitedstatespostalservice-a77078", "operator": "United States Postal Service", "operator:short": "USPS", "operator:type": "public", "operator:wikidata": "Q668687", "ref": "2450600004"}, "type": "Feature"}
{"geometry": {"coordinates": [-79.160766231, 37.381412969], "type": "Point"}, "id": "hNsoBECOLomcP1YKIwygDh7Qiy4=", "properties": {"@source_uri": "https://tools.usps.com/UspsToolsRestServices/rest/POLocator/findLocations", "@spider": "usps_collection_boxes", "addr:city": "LYNCHBURG", "addr:country": "US", "addr:postcode": "24506", "addr:state": "VA", "addr:street_address": "3300 ODD FELLOWS RD", "amenity": "post_box", "brand": "United States Postal Service", "brand:wikidata": "Q668687", "collection_times": "Mo-Sa 18:00", "indoor": "yes", "note": "ON 12/24 AND 12/31, THIS BOX MAY BE COLLECTED AS EARLY AS 12 NOON.", "nsi_id": "unitedstatespostalservice-a77078", "operator": "United States Postal Service", "operator:short": "USPS", "operator:type": "public", "operator:wikidata": "Q668687", "ref": "2450600006"}, "type": "Feature"}
{"geometry": {"coordinates": [-79.160766231, 37.381412969], "type": "Point"}, "id": "Z9xS4Hd8aBWjDelpuijlpxnztvA=", "properties": {"@source_uri": "https://tools.usps.com/UspsToolsRestServices/rest/POLocator/findLocations", "@spider": "usps_collection_boxes", "addr:city": "LYNCHBURG", "addr:country": "US", "addr:postcode": "24506", "addr:state": "VA", "addr:street_address": "3300 ODD FELLOWS RD", "amenity": "post_box", "brand": "United States Postal Service", "brand:wikidata": "Q668687", "collection_times": "Mo-Sa 18:00", "name": "USPS COLLECTION BOX - APC", "note": "ON 12/24 AND 12/31, THIS BOX MAY BE COLLECTED AS EARLY AS 12 NOON.", "nsi_id": "unitedstatespostalservice-a77078", "operator": "United States Postal Service", "operator:short": "USPS", "operator:type": "public", "operator:wikidata": "Q668687", "ref": "2450600009"}, "type": "Feature"}
{"geometry": {"coordinates": [-79.160766231, 37.381412969], "type": "Point"}, "id": "JKRFnQVmYs1C9Q0hmiF3_LH4z4k=", "properties": {"@source_uri": "https://tools.usps.com/UspsToolsRestServices/rest/POLocator/findLocations", "@spider": "usps_collection_boxes", "addr:city": "LYNCHBURG", "addr:country": "US", "addr:postcode": "24506", "addr:state": "VA", "addr:street_address": "3300 ODD FELLOWS RD", "amenity": "post_box", "brand": "United States Postal Service", "brand:wikidata": "Q668687", "collection_times": "Mo-Fr 18:00; Sa 17:00", "indoor": "yes", "note": "ON 12/24 AND 12/31, THIS BOX MAY BE COLLECTED AS EARLY AS 12 NOON.", "nsi_id": "unitedstatespostalservice-a77078", "operator": "United States Postal Service", "operator:short": "USPS", "operator:type": "public", "operator:wikidata": "Q668687", "ref": "2450600015"}, "type": "Feature"}
{"geometry": {"coordinates": [-79.2866538, 37.112237], "type": "Point"}, "id": "42Gg1zZLZCyY_DbY32jgHag0ErU=", "properties": {"@source_uri": "https://tools.usps.com/UspsToolsRestServices/rest/POLocator/findLocations", "@spider": "usps_collection_boxes", "addr:city": "ALTAVISTA", "addr:country": "US", "addr:postcode": "24517", "addr:state": "VA", "addr:street_address": "717 7TH ST", "amenity": "post_box", "brand": "United States Postal Service", "brand:wikidata": "Q668687", "collection_times": "Mo-Fr 14:30", "note": "ON 12/24 AND 12/31, THIS BOX MAY BE COLLECTED AS EARLY AS 12 NOON.", "nsi_id": "unitedstatespostalservice-a77078", "operator": "United States Postal Service", "operator:short": "USPS", "operator:type": "public", "operator:wikidata": "Q668687", "ref": "2451700002"}, "type": "Feature"}
{"geometry": {"coordinates": [-79.290811387, 37.109382855], "type": "Point"}, "id": "tI5anhmFb8kR7W56LKXwcl9bros=", "properties": {"@source_uri": "https://tools.usps.com/UspsToolsRestServices/rest/POLocator/findLocations", "@spider": "usps_collection_boxes", "addr:city": "ALTAVISTA", "addr:country": "US", "addr:postcode": "24517", "addr:state": "VA", "addr:street_address": "700 BROAD ST", "amenity": "post_box", "brand": "United States Postal Service", "brand:wikidata": "Q668687", "collection_times": "Mo-Fr 17:00; Sa 12:00", "note": "ON 12/24 AND 12/31, THIS BOX MAY BE COLLECTED AS EARLY AS 12 NOON.", "nsi_id": "unitedstatespostalservice-a77078", "operator": "United States Postal Service", "operator:short": "USPS", "operator:type": "public", "operator:wikidata": "Q668687", "ref": "2451700004"}, "type": "Feature"}
{"geometry": {"coordinates": [-79.2724436, 37.120889], "type": "Point"}, "id": "t0cEuS3Zj0LS1aY_0-mdAcxqcfA=", "properties": {"@source_uri": "https://tools.usps.com/UspsToolsRestServices/rest/POLocator/findLocations", "@spider": "usps_collection_boxes", "addr:city": "ALTAVISTA", "addr:country": "US", "addr:postcode": "24517", "addr:state": "VA", "addr:street_address": "1301 MAIN ST", "amenity": "post_box", "brand": "United States Postal Service", "brand:wikidata": "Q668687", "collection_times": "Mo-Fr 10:00", "nsi_id": "unitedstatespostalservice-a77078", "operator": "United States Postal Service", "operator:short": "USPS", "operator:type": "public", "operator:wikidata": "Q668687", "ref": "2451700007"}, "type": "Feature"}
{"geometry": {"coordinates": [-79.290811387, 37.109382855], "type": "Point"}, "id": "z08Y94w9FU0GutZQWoa5dOE4CaA=", "properties": {"@source_uri": "https://tools.usps.com/UspsToolsRestServices/rest/POLocator/findLocations", "@spider": "usps_collection_boxes", "addr:city": "ALTAVISTA", "addr:country": "US", "addr:postcode": "24517", "addr:state": "VA", "addr:street_address": "700 BROAD ST", "amenity": "post_box", "brand": "United States Postal Service", "brand:wikidata": "Q668687", "collection_times": "Mo-Fr 17:00; Sa 12:00", "indoor": "yes", "note": "ON 12/24 AND 12/31, THIS BOX MAY BE COLLECTED AS EARLY AS 12 NOON.", "nsi_id": "unitedstatespostalservice-a77078", "operator": "United States Postal Service", "operator:short": "USPS", "operator:type": "public", "operator:wikidata": "Q668687", "ref": "2451700009"}, "type": "Feature"}
{"geometry": {"coordinates": [-79.290811387, 37.109382855], "type": "Point"}, "id": "scrBdFwehWqnDo5aXNza3WGyf94=", "properties": {"@source_uri": "https://tools.usps.com/UspsToolsRestServices/rest/POLocator/findLocations", "@spider": "usps_collection_boxes", "addr:city": "ALTAVISTA", "addr:country": "US", "addr:postcode": "24517", "addr:state": "VA", "addr:street_address": "700 BROAD ST", "amenity": "post_box", "brand": "United States Postal Service", "brand:wikidata": "Q668687", "collection_times": "Mo-Fr 17:00; Sa 12:00", "indoor": "yes", "note": "ON 12/24 AND 12/31, THIS BOX MAY BE COLLECTED AS EARLY AS 12 NOON.", "nsi_id": "unitedstatespostalservice-a77078", "operator": "United States Postal Service", "operator:short": "USPS", "operator:type": "public", "operator:wikidata": "Q668687", "ref": "2451700013"}, "type": "Feature"}
{"geometry": {"coordinates": [-79.0025418, 36.573046], "type": "Point"}, "id": "kaCh1K4RFxSkb8J9qzOJ4QpmYC0=", "properties": {"@source_uri": "https://tools.usps.com/UspsToolsRestServices/rest/POLocator/findLocations", "@spider": "usps_collection_boxes", "addr:city": "ALTON", "addr:country": "US", "addr:postcode": "24520", "addr:state": "VA", "addr:street_address": "2041 BLANE RD", "amenity": "post_box", "brand": "United States Postal Service", "brand:wikidata": "Q668687", "collection_times": "Mo-Fr 11:45; Sa 10:45", "nsi_id": "unitedstatespostalservice-a77078", "operator": "United States Postal Service", "operator:short": "USPS", "operator:type": "public", "operator:wikidata": "Q668687", "ref": "2452000000"}, "type": "Feature"}
{"geometry": {"coordinates": [-79.0024186, 36.573114], "type": "Point"}, "id": "YJeJH0oqM2XFz376ipFUxIGdiKQ=", "properties": {"@source_uri": "https://tools.usps.com/UspsToolsRestServices/rest/POLocator/findLocations", "@spider": "usps_collection_boxes", "addr:city": "ALTON", "addr:country": "US", "addr:postcode": "24520", "addr:state": "VA", "addr:street_address": "2041 BLANE RD", "amenity": "post_box", "brand": "United States Postal Service", "brand:wikidata": "Q668687", "collection_times": "Mo-Fr 11:45; Sa 10:45", "indoor": "yes", "nsi_id": "unitedstatespostalservice-a77078", "operator": "United States Postal Service", "operator:short": "USPS", "operator:type": "public", "operator:wikidata": "Q668687", "ref": "2452000001"}, "type": "Feature"}
{"geometry": {"coordinates": [-79.002263468, 36.57335024], "type": "Point"}, "id": "ds5rYqa_rRQzL_0QWis4gqTTOeY=", "properties": {"@source_uri": "https://tools.usps.com/UspsToolsRestServices/rest/POLocator/findLocations", "@spider": "usps_collection_boxes", "addr:city": "ALTON", "addr:country": "US", "addr:postcode": "24520", "addr:state": "VA", "addr:street_address": "2041 BLANE RD", "amenity": "post_box", "brand": "United States Postal Service", "brand:wikidata": "Q668687", "collection_times": "Mo-Fr 12:00; Sa 11:00", "indoor": "yes", "nsi_id": "unitedstatespostalservice-a77078", "operator": "United States Postal Service", "operator:short": "USPS", "operator:type": "public", "operator:wikidata": "Q668687", "ref": "2452000004"}, "type": "Feature"}
{"geometry": {"coordinates": [-79.050781527, 37.587735774], "type": "Point"}, "id": "oBD3Yfab2VlxgunsBVGA5aiLbr8=", "properties": {"@source_uri": "https://tools.usps.com/UspsToolsRestServices/rest/POLocator/findLocations", "@spider": "usps_collection_boxes", "addr:city": "AMHERST", "addr:country": "US", "addr:postcode": "24521", "addr:state": "VA", "addr:street_address": "120 S MAIN ST", "amenity": "post_box", "brand": "United States Postal Service", "brand:wikidata": "Q668687", "collection_times": "Mo-Fr 16:15; Sa 11:45", "note": "ON 12/24 AND 12/31, THIS BOX MAY BE COLLECTED AS EARLY AS 12 NOON.", "nsi_id": "unitedstatespostalservice-a77078", "operator": "United States Postal Service", "operator:short": "USPS", "operator:type": "public", "operator:wikidata": "Q668687", "ref": "2452100000"}, "type": "Feature"}
{"geometry": {"coordinates": [-79.050781527, 37.587735774], "type": "Point"}, "id": "OT8NYDdjFa_hER71xVZC4e8NQ0g=", "properties": {"@source_uri": "https://tools.usps.com/UspsToolsRestServices/rest/POLocator/findLocations", "@spider": "usps_collection_boxes", "addr:city": "AMHERST", "addr:country": "US", "addr:postcode": "24521", "addr:state": "VA", "addr:street_address": "120 S MAIN ST", "amenity": "post_box", "brand": "United States Postal Service", "brand:wikidata": "Q668687", "collection_times": "Mo-Fr 16:15; Sa 11:45", "indoor": "yes", "note": "ON 12/24 AND 12/31, THIS BOX MAY BE COLLECTED AS EARLY AS 12 NOON.", "nsi_id": "unitedstatespostalservice-a77078", "operator": "United States Postal Service", "operator:short": "USPS", "operator:type": "public", "operator:wikidata": "Q668687", "ref": "2452100001"}, "type": "Feature"}
{"geometry": {"coordinates": [-79.050781527, 37.587735774], "type": "Point"}, "id": "pPccYhNgfpN7_4iccbj40OxwBxE=", "properties": {"@source_uri": "https://tools.usps.com/UspsToolsRestServices/rest/POLocator/findLocations", "@spider": "usps_collection_boxes", "addr:city": "AMHERST", "addr:country": "US", "addr:postcode": "24521", "addr:state": "VA", "addr:street_address": "120 S MAIN ST", "amenity": "post_box", "brand": "United States Postal Service", "brand:wikidata": "Q668687", "collection_times": "Mo-Fr 17:00; Sa 12:00", "indoor": "yes", "note": "ON 12/24 AND 12/31, THIS BOX MAY BE COLLECTED AS EARLY AS 12 NOON.", "nsi_id": "unitedstatespostalservice-a77078", "operator": "United States Postal Service", "operator:short": "USPS", "operator:type": "public", "operator:wikidata": "Q668687", "ref": "2452100005"}, "type": "Feature"}
{"geometry": {"coordinates": [-78.8441507, 37.365722], "type": "Point"}, "id": "_j5uPiWqdRnWfNPHJrKyxFjkdVQ=", "properties": {"@source_uri": "https://tools.usps.com/UspsToolsRestServices/rest/POLocator/findLocations", "@spider": "usps_collection_boxes", "addr:city": "APPOMATTOX", "addr:country": "US", "addr:postcode": "24522", "addr:state": "VA", "addr:street_address": "7789 RICHMOND HWY", "amenity": "post_box", "brand": "United States Postal Service", "brand:wikidata": "Q668687", "collection_times": "Mo-Sa 09:00", "nsi_id": "unitedstatespostalservice-a77078", "operator": "United States Postal Service", "operator:short": "USPS", "operator:type": "public", "operator:wikidata": "Q668687", "ref": "2452200000"}, "type": "Feature"}
{"geometry": {"coordinates": [-78.832235248, 37.361234653], "type": "Point"}, "id": "44iKbcx9l0h2K9VgGG8vycmhwyg=", "properties": {"@source_uri": "https://tools.usps.com/UspsToolsRestServices/rest/POLocator/findLocations", "@spider": "usps_collection_boxes", "addr:city": "APPOMATTOX", "addr:country": "US", "addr:postcode": "24522", "addr:state": "VA", "addr:street_address": "791 COURT ST", "amenity": "post_box", "brand": "United States Postal Service", "brand:wikidata": "Q668687", "collection_times": "Mo-Fr 16:30; Sa 11:00", "note": "ON 12/24 AND 12/31, THIS BOX MAY BE COLLECTED AS EARLY AS 12 NOON.", "nsi_id": "unitedstatespostalservice-a77078", "operator": "United States Postal Service", "operator:short": "USPS", "operator:type": "public", "operator:wikidata": "Q668687", "ref": "2452200001"}, "type": "Feature"}
{"geometry": {"coordinates": [-78.832235248, 37.361234653], "type": "Point"}, "id": "QPSqUexXwjAS7y98cpNP5RfrlQA=", "properties": {"@source_uri": "https://tools.usps.com/UspsToolsRestServices/rest/POLocator/findLocations", "@spider": "usps_collection_boxes", "addr:city": "APPOMATTOX", "addr:country": "US", "addr:postcode": "24522", "addr:state": "VA", "addr:street_address": "791 COURT ST", "amenity": "post_box", "brand": "United States Postal Service", "brand:wikidata": "Q668687", "collection_times": "Mo-Fr 16:30; Sa 11:00", "note": "ON 12/24 AND 12/31, THIS BOX MAY BE COLLECTED AS EARLY AS 12 NOON.", "nsi_id": "unitedstatespostalservice-a77078", "operator": "United States Postal Service", "operator:short": "USPS", "operator:type": "public", "operator:wikidata": "Q668687", "ref": "2452200002"}, "type": "Feature"}
{"geometry": {"coordinates": [-78.832235248, 37.361234653], "type": "Point"}, "id": "Q1n_62zF-mLTKHIG4gHdwIGuh4Q=", "properties": {"@source_uri": "https://tools.usps.com/UspsToolsRestServices/rest/POLocator/findLocations", "@spider": "usps_collection_boxes", "addr:city": "APPOMATTOX", "addr:country": "US", "addr:postcode": "24522", "addr:state": "VA", "addr:street_address": "791 COURT ST", "amenity": "post_box", "brand": "United States Postal Service", "brand:wikidata": "Q668687", "collection_times": "Mo-Fr 16:30; Sa 11:00", "indoor": "yes", "note": "ON 12/24 AND 12/31, THIS BOX MAY BE COLLECTED AS EARLY AS 12 NOON.", "nsi_id": "unitedstatespostalservice-a77078", "operator": "United States Postal Service", "operator:short": "USPS", "operator:type": "public", "operator:wikidata": "Q668687", "ref": "2452200003"}, "type": "Feature"}
{"geometry": {"coordinates": [-78.832235248, 37.361234653], "type": "Point"}, "id": "4htyPlOloqYKBYJC-a0y4gKwtS4=", "properties": {"@source_uri": "https://tools.usps.com/UspsToolsRestServices/rest/POLocator/findLocations", "@spider": "usps_collection_boxes", "addr:city": "APPOMATTOX", "addr:country": "US", "addr:postcode": "24522", "addr:state": "VA", "addr:street_address": "791 COURT ST", "amenity": "post_box", "brand": "United States Postal Service", "brand:wikidata": "Q668687", "collection_times": "Mo-Fr 16:30; Sa 11:00", "indoor": "yes", "note": "ON 12/24 AND 12/31, THIS BOX MAY BE COLLECTED AS EARLY AS 12 NOON.", "nsi_id": "unitedstatespostalservice-a77078", "operator": "United States Postal Service", "operator:short": "USPS", "operator:type": "public", "operator:wikidata": "Q668687", "ref": "2452200004"}, "type": "Feature"}
{"geometry": {"coordinates": [-78.832235248, 37.361234653], "type": "Point"}, "id": "n2zf54Mi_xNhaWIIqU-QWaBuLGc=", "properties": {"@source_uri": "https://tools.usps.com/UspsToolsRestServices/rest/POLocator/findLocations", "@spider": "usps_collection_boxes", "addr:city": "APPOMATTOX", "addr:country": "US", "addr:postcode": "24522", "addr:state": "VA", "addr:street_address": "791 COURT ST", "amenity": "post_box", "brand": "United States Postal Service", "brand:wikidata": "Q668687", "collection_times": "Mo-Fr 17:00; Sa 11:00", "indoor": "yes", "note": "ON 12/24 AND 12/31, THIS BOX MAY BE COLLECTED AS EARLY AS 12 NOON.", "nsi_id": "unitedstatespostalservice-a77078", "operator": "United States Postal Service", "operator:short": "USPS", "operator:type": "public", "operator:wikidata": "Q668687", "ref": "2452200008"}, "type": "Feature"}
{"geometry": {"coordinates": [-79.4951822, 37.324669], "type": "Point"}, "id": "6KGAym4eg2OAcTjgKmkdLcy4JdQ=", "properties": {"@source_uri": "https://tools.usps.com/UspsToolsRestServices/rest/POLocator/findLocations", "@spider": "usps_collection_boxes", "addr:city": "BEDFORD", "addr:country": "US", "addr:postcode": "24523", "addr:state": "VA", "addr:street_address": "1128 E LYNCHBURG SALEM TPKE", "amenity": "post_box", "brand": "United States Postal Service", "brand:wikidata": "Q668687", "collection_times": "Mo-Sa 11:30", "nsi_id": "unitedstatespostalservice-a77078", "operator": "United States Postal Service", "operator:short": "USPS", "operator:type": "public", "operator:wikidata": "Q668687", "ref": "2452300000"}, "type": "Feature"}
{"geometry": {"coordinates": [-79.5028981, 37.348291], "type": "Point"}, "id": "8v5-3_XvPAz66xAG7pGD4JXjULc=", "properties": {"@source_uri": "https://tools.usps.com/UspsToolsRestServices/rest/POLocator/findLocations", "@spider": "usps_collection_boxes", "addr:city": "BEDFORD", "addr:country": "US", "addr:postcode": "24523", "addr:state": "VA", "addr:street_address": "1621 FOREST RD", "amenity": "post_box", "brand": "United States Postal Service", "brand:wikidata": "Q668687", "collection_times": "Mo-Sa 13:30", "note": "ON 12/24 AND 12/31, THIS BOX MAY BE COLLECTED AS EARLY AS 12 NOON.", "nsi_id": "unitedstatespostalservice-a77078", "operator": "United States Postal Service", "operator:short": "USPS", "operator:type": "public", "operator:wikidata": "Q668687", "ref": "2452300003"}, "type": "Feature"}
{"geometry": {"coordinates": [-79.517728, 37.351713], "type": "Point"}, "id": "rOZJXUKpwcxyOZftr__ZKdJkAQo=", "properties": {"@source_uri": "https://tools.usps.com/UspsToolsRestServices/rest/POLocator/findLocations", "@spider": "usps_collection_boxes", "addr:city": "BEDFORD", "addr:country": "US", "addr:postcode": "24523", "addr:state": "VA", "addr:street_address": "1613 OAKWOOD ST", "amenity": "post_box", "brand": "United States Postal Service", "brand:wikidata": "Q668687", "collection_times": "Mo-Sa 12:00", "nsi_id": "unitedstatespostalservice-a77078", "operator": "United States Postal Service", "operator:short": "USPS", "operator:type": "public", "operator:wikidata": "Q668687", "ref": "2452300004"}, "type": "Feature"}
{"geometry": {"coordinates": [-79.5323872, 37.341566], "type": "Point"}, "id": "y0S9hJ4hwej-BBVuc3lBpRnV98Q=", "properties": {"@source_uri": "https://tools.usps.com/UspsToolsRestServices/rest/POLocator/findLocations", "@spider": "usps_collection_boxes", "addr:city": "BEDFORD", "addr:country": "US", "addr:postcode": "24523", "addr:state": "VA", "addr:street_address": "906 ASHLAND AVE", "amenity": "post_box", "brand": "United States Postal Service", "brand:wikidata": "Q668687", "collection_times": "Mo-Sa 10:15", "nsi_id": "unitedstatespostalservice-a77078", "operator": "United States Postal Service", "operator:short": "USPS", "operator:type": "public", "operator:wikidata": "Q668687", "ref": "2452300010"}, "type": "Feature"}
{"geometry": {"coordinates": [-79.5309211, 37.335555], "type": "Point"}, "id": "YE4dlDV0FhSbj2nD6yBBqND7xqE=", "properties": {"@source_uri": "https://tools.usps.com/UspsToolsRestServices/rest/POLocator/findLocations", "@spider": "usps_collection_boxes", "addr:city": "BEDFORD", "addr:country": "US", "addr:postcode": "24523", "addr:state": "VA", "addr:street_address": "510 BLUE RIDGE AVE", "amenity": "post_box", "brand": "United States Postal Service", "brand:wikidata": "Q668687", "collection_times": "Mo-Sa 15:30", "note": "ON 12/24 AND 12/31, THIS BOX MAY BE COLLECTED AS EARLY AS 12 NOON.", "nsi_id": "unitedstatespostalservice-a77078", "operator": "United States Postal Service", "operator:short": "USPS", "operator:type": "public", "operator:wikidata": "Q668687", "ref": "2452300011"}, "type": "Feature"}
{"geometry": {"coordinates": [-79.519279562, 37.333185257], "type": "Point"}, "id": "_-FbgFwXljvIA94t1YmSfGbYbnY=", "properties": {"@source_uri": "https://tools.usps.com/UspsToolsRestServices/rest/POLocator/findLocations", "@spider": "usps_collection_boxes", "addr:city": "BEDFORD", "addr:country": "US", "addr:postcode": "24523", "addr:state": "VA", "addr:street_address": "500 E MAIN ST", "amenity": "post_box", "brand": "United States Postal Service", "brand:wikidata": "Q668687", "collection_times": "Mo-Fr 17:00; Sa 15:30", "note": "ON 12/24 AND 12/31, THIS BOX MAY BE COLLECTED AS EARLY AS 12 NOON.", "nsi_id": "unitedstatespostalservice-a77078", "operator": "United States Postal Service", "operator:short": "USPS", "operator:type": "public", "operator:wikidata": "Q668687", "ref": "2452300015"}, "type": "Feature"}
{"geometry": {"coordinates": [-79.5231414, 37.334397], "type": "Point"}, "id": "FXQMBBKMq3TgAupLxv6WyPkehZQ=", "properties": {"@source_uri": "https://tools.usps.com/UspsToolsRestServices/rest/POLocator/findLocations", "@spider": "usps_collection_boxes", "addr:city": "BEDFORD", "addr:country": "US", "addr:postcode": "24523", "addr:state": "VA", "addr:street_address": "119 E MAIN ST", "amenity": "post_box", "brand": "United States Postal Service", "brand:wikidata": "Q668687", "collection_times": "Mo-Fr 15:30; Sa 10:00", "note": "ON 12/24 AND 12/31, THIS BOX MAY BE COLLECTED AS EARLY AS 12 NOON.", "nsi_id": "unitedstatespostalservice-a77078", "operator": "United States Postal Service", "operator:short": "USPS", "operator:type": "public", "operator:wikidata": "Q668687", "ref": "2452300016"}, "type": "Feature"}
{"geometry": {"coordinates": [-79.519279562, 37.333185257], "type": "Point"}, "id": "3K8GjDYrfTDpbaDW9Ptg7QNF3AY=", "properties": {"@source_uri": "https://tools.usps.com/UspsToolsRestServices/rest/POLocator/findLocations", "@spider": "usps_collection_boxes", "addr:city": "BEDFORD", "addr:country": "US", "addr:postcode": "24523", "addr:state": "VA", "addr:street_address": "500 E MAIN ST", "amenity": "post_box", "brand": "United States Postal Service", "brand:wikidata": "Q668687", "collection_times": "Mo-Fr 17:00; Sa 15:30", "indoor": "yes", "note": "ON 12/24 AND 12/31, THIS BOX MAY BE COLLECTED AS EARLY AS 12 NOON.", "nsi_id": "unitedstatespostalservice-a77078", "operator": "United States Postal Service", "operator:short": "USPS", "operator:type": "public", "operator:wikidata": "Q668687", "ref": "2452300017"}, "type": "Feature"}
{"geometry": {"coordinates": [-79.519279562, 37.333185257], "type": "Point"}, "id": "zXqJwh9nBwOtmMeFBAWl6Mlc44Y=", "properties": {"@source_uri": "https://tools.usps.com/UspsToolsRestServices/rest/POLocator/findLocations", "@spider": "usps_collection_boxes", "addr:city": "BEDFORD", "addr:country": "US", "addr:postcode": "24523", "addr:state": "VA", "addr:street_address": "500 E MAIN ST", "amenity": "post_box", "brand": "United States Postal Service", "brand:wikidata": "Q668687", "collection_times": "Mo-Fr 17:00; Sa 12:00", "indoor": "yes", "note": "ON 12/24 AND 12/31, THIS BOX MAY BE COLLECTED AS EARLY AS 12 NOON.", "nsi_id": "unitedstatespostalservice-a77078", "operator": "United States Postal Service", "operator:short": "USPS", "operator:type": "public", "operator:wikidata": "Q668687", "ref": "2452300021"}, "type": "Feature"}
{"geometry": {"coordinates": [-79.360877984, 37.535247724], "type": "Point"}, "id": "FX67wm2rhSdH28914GL3DAl7z08=", "properties": {"@source_uri": "https://tools.usps.com/UspsToolsRestServices/rest/POLocator/findLocations", "@spider": "usps_collection_boxes", "addr:city": "BIG ISLAND", "addr:country": "US", "addr:postcode": "24526", "addr:state": "VA", "addr:street_address": "10830 LEE JACKSON HWY", "amenity": "post_box", "brand": "United States Postal Service", "brand:wikidata": "Q668687", "collection_times": "Mo-Fr 15:30; Sa 10:00", "note": "ON 12/24 AND 12/31, THIS BOX MAY BE COLLECTED AS EARLY AS 12 NOON.", "nsi_id": "unitedstatespostalservice-a77078", "operator": "United States Postal Service", "operator:short": "USPS", "operator:type": "public", "operator:wikidata": "Q668687", "ref": "2452600000"}, "type": "Feature"}
{"geometry": {"coordinates": [-79.360877984, 37.535247724], "type": "Point"}, "id": "YnUrlQroy_4HcR64thQZmkE7Cus=", "properties": {"@source_uri": "https://tools.usps.com/UspsToolsRestServices/rest/POLocator/findLocations", "@spider": "usps_collection_boxes", "addr:city": "BIG ISLAND", "addr:country": "US", "addr:postcode": "24526", "addr:state": "VA", "addr:street_address": "10830 LEE JACKSON HWY", "amenity": "post_box", "brand": "United States Postal Service", "brand:wikidata": "Q668687", "collection_times": "Mo-Fr 15:30; Sa 10:00", "indoor": "yes", "note": "ON 12/24 AND 12/31, THIS BOX MAY BE COLLECTED AS EARLY AS 12 NOON.", "nsi_id": "unitedstatespostalservice-a77078", "operator": "United States Postal Service", "operator:short": "USPS", "operator:type": "public", "operator:wikidata": "Q668687", "ref": "2452600001"}, "type": "Feature"}
{"geometry": {"coordinates": [-79.360877984, 37.535247724], "type": "Point"}, "id": "IIf9lh75y3lKtEhZrcc58_IlqUA=", "properties": {"@source_uri": "https://tools.usps.com/UspsToolsRestServices/rest/POLocator/findLocations", "@spider": "usps_collection_boxes", "addr:city": "BIG ISLAND", "addr:country": "US", "addr:postcode": "24526", "addr:state": "VA", "addr:street_address": "10830 LEE JACKSON HWY", "amenity": "post_box", "brand": "United States Postal Service", "brand:wikidata": "Q668687", "collection_times": "Mo-Fr 16:00; Sa 10:00", "indoor": "yes", "note": "ON 12/24 AND 12/31, THIS BOX MAY BE COLLECTED AS EARLY AS 12 NOON.", "nsi_id": "unitedstatespostalservice-a77078", "operator": "United States Postal Service", "operator:short": "USPS", "operator:type": "public", "operator:wikidata": "Q668687", "ref": "2452600003"}, "type": "Feature"}
{"geometry": {"coordinates": [-79.368552521, 36.687719252], "type": "Point"}, "id": "8OYC-ndZ90PXuzUSIHLm105r_jE=", "properties": {"@source_uri": "https://tools.usps.com/UspsToolsRestServices/rest/POLocator/findLocations", "@spider": "usps_collection_boxes", "addr:city": "BLAIRS", "addr:country": "US", "addr:postcode": "24527", "addr:state": "VA", "addr:street_address": "5601 U S HIGHWAY 29", "amenity": "post_box", "brand": "United States Postal Service", "brand:wikidata": "Q668687", "collection_times": "Mo-Fr 16:15; Sa 10:45", "note": "ON 12/24 AND 12/31, THIS BOX MAY BE COLLECTED AS EARLY AS 12 NOON.", "nsi_id": "unitedstatespostalservice-a77078", "operator": "United States Postal Service", "operator:short": "USPS", "operator:type": "public", "operator:wikidata": "Q668687", "ref": "2452700000"}, "type": "Feature"}
{"geometry": {"coordinates": [-79.368552521, 36.687719252], "type": "Point"}, "id": "ZCQBBhcuTNfi6O6ckf4KJL4iwj0=", "properties": {"@source_uri": "https://tools.usps.com/UspsToolsRestServices/rest/POLocator/findLocations", "@spider": "usps_collection_boxes", "addr:city": "BLAIRS", "addr:country": "US", "addr:postcode": "24527", "addr:state": "VA", "addr:street_address": "5601 U S HIGHWAY 29", "amenity": "post_box", "brand": "United States Postal Service", "brand:wikidata": "Q668687", "collection_times": "Mo-Fr 16:15; Sa 10:45", "indoor": "yes", "note": "ON 12/24 AND 12/31, THIS BOX MAY BE COLLECTED AS EARLY AS 12 NOON.", "nsi_id": "unitedstatespostalservice-a77078", "operator": "United States Postal Service", "operator:short": "USPS", "operator:type": "public", "operator:wikidata": "Q668687", "ref": "2452700001"}, "type": "Feature"}
{"geometry": {"coordinates": [-79.368552521, 36.687719252], "type": "Point"}, "id": "4jcrFPBsOM20_SpaJcuxkip7S9s=", "properties": {"@source_uri": "https://tools.usps.com/UspsToolsRestServices/rest/POLocator/findLocations", "@spider": "usps_collection_boxes", "addr:city": "BLAIRS", "addr:country": "US", "addr:postcode": "24527", "addr:state": "VA", "addr:street_address": "5601 U S HIGHWAY 29", "amenity": "post_box", "brand": "United States Postal Service", "brand:wikidata": "Q668687", "collection_times": "Mo-Fr 16:15; Sa 10:45", "indoor": "yes", "note": "ON 12/24 AND 12/31, THIS BOX MAY BE COLLECTED AS EARLY AS 12 NOON.", "nsi_id": "unitedstatespostalservice-a77078", "operator": "United States Postal Service", "operator:short": "USPS", "operator:type": "public", "operator:wikidata": "Q668687", "ref": "2452700003"}, "type": "Feature"}
{"geometry": {"coordinates": [-78.943170599, 37.044566413], "type": "Point"}, "id": "Xct8B592O1oxiTN7BZw9Sas40pE=", "properties": {"@source_uri": "https://tools.usps.com/UspsToolsRestServices/rest/POLocator/findLocations", "@spider": "usps_collection_boxes", "addr:city": "BROOKNEAL", "addr:country": "US", "addr:postcode": "24528", "addr:state": "VA", "addr:street_address": "101 TODD ST", "amenity": "post_box", "brand": "United States Postal Service", "brand:wikidata": "Q668687", "collection_times": "Mo-Fr 16:30; Sa 11:00", "note": "ON 12/24 AND 12/31, THIS BOX MAY BE COLLECTED AS EARLY AS 12 NOON.", "nsi_id": "unitedstatespostalservice-a77078", "operator": "United States Postal Service", "operator:short": "USPS", "operator:type": "public", "operator:wikidata": "Q668687", "ref": "2452800000"}, "type": "Feature"}
{"geometry": {"coordinates": [-78.943170599, 37.044566413], "type": "Point"}, "id": "8UUBb3k8FPrvhb6pJvTqfUT5p_4=", "properties": {"@source_uri": "https://tools.usps.com/UspsToolsRestServices/rest/POLocator/findLocations", "@spider": "usps_collection_boxes", "addr:city": "BROOKNEAL", "addr:country": "US", "addr:postcode": "24528", "addr:state": "VA", "addr:street_address": "101 TODD ST", "amenity": "post_box", "brand": "United States Postal Service", "brand:wikidata": "Q668687", "collection_times": "Mo-Fr 16:30; Sa 11:00", "indoor": "yes", "note": "ON 12/24 AND 12/31, THIS BOX MAY BE COLLECTED AS EARLY AS 12 NOON.", "nsi_id": "unitedstatespostalservice-a77078", "operator": "United States Postal Service", "operator:short": "USPS", "operator:type": "public", "operator:wikidata": "Q668687", "ref": "2452800001"}, "type": "Feature"}
{"geometry": {"coordinates": [-78.943170599, 37.044566413], "type": "Point"}, "id": "InucCF3U9MNW88NOdWEPuI0REMQ=", "properties": {"@source_uri": "https://tools.usps.com/UspsToolsRestServices/rest/POLocator/findLocations", "@spider": "usps_collection_boxes", "addr:city": "BROOKNEAL", "addr:country": "US", "addr:postcode": "24528", "addr:state": "VA", "addr:street_address": "101 TODD ST", "amenity": "post_box", "brand": "United States Postal Service", "brand:wikidata": "Q668687", "collection_times": "Mo-Fr 16:30; Sa 11:00", "indoor": "yes", "note": "ON 12/24 AND 12/31, THIS BOX MAY BE COLLECTED AS EARLY AS 12 NOON.", "nsi_id": "unitedstatespostalservice-a77078", "operator": "United States Postal Service", "operator:short": "USPS", "operator:type": "public", "operator:wikidata": "Q668687", "ref": "2452800002"}, "type": "Feature"}
{"geometry": {"coordinates": [-78.943170599, 37.044566413], "type": "Point"}, "id": "JTZHit5TEcVv7QD-kZfSv5L0s58=", "properties": {"@source_uri": "https://tools.usps.com/UspsToolsRestServices/rest/POLocator/findLocations", "@spider": "usps_collection_boxes", "addr:city": "BROOKNEAL", "addr:country": "US", "addr:postcode": "24528", "addr:state": "VA", "addr:street_address": "101 TODD ST", "amenity": "post_box", "brand": "United States Postal Service", "brand:wikidata": "Q668687", "collection_times": "Mo-Fr 16:30; Sa 11:00", "indoor": "yes", "note": "ON 12/24 AND 12/31, THIS BOX MAY BE COLLECTED AS EARLY AS 12 NOON.", "nsi_id": "unitedstatespostalservice-a77078", "operator": "United States Postal Service", "operator:short": "USPS", "operator:type": "public", "operator:wikidata": "Q668687", "ref": "2452800005"}, "type": "Feature"}
{"geometry": {"coordinates": [-78.632091, 36.603909], "type": "Point"}, "id": "dbv5hV-ObfPweyVrE3QbXGbhWtQ=", "properties": {"@source_uri": "https://tools.usps.com/UspsToolsRestServices/rest/POLocator/findLocations", "@spider": "usps_collection_boxes", "addr:city": "BUFFALO JUNCTION", "addr:country": "US", "addr:postcode": "24529", "addr:state": "VA", "addr:street_address": "7199 HIGHWAY 49", "amenity": "post_box", "brand": "United States Postal Service", "brand:wikidata": "Q668687", "collection_times": "Mo-Fr 15:45; Sa 10:00", "note": "ON 12/24 AND 12/31, THIS BOX MAY BE COLLECTED AS EARLY AS 12 NOON.", "nsi_id": "unitedstatespostalservice-a77078", "operator": "United States Postal Service", "operator:short": "USPS", "operator:type": "public", "operator:wikidata": "Q668687", "ref": "2452900000"}, "type": "Feature"}
{"geometry": {"coordinates": [-78.631986, 36.603933], "type": "Point"}, "id": "21dZpgeDPz6bAv4IAQcYXEPEOKk=", "properties": {"@source_uri": "https://tools.usps.com/UspsToolsRestServices/rest/POLocator/findLocations", "@spider": "usps_collection_boxes", "addr:city": "BUFFALO JUNCTION", "addr:country": "US", "addr:postcode": "24529", "addr:state": "VA", "addr:street_address": "7199 HIGHWAY 49", "amenity": "post_box", "brand": "United States Postal Service", "brand:wikidata": "Q668687", "collection_times": "Mo-Fr 15:45; Sa 10:00", "indoor": "yes", "note": "ON 12/24 AND 12/31, THIS BOX MAY BE COLLECTED AS EARLY AS 12 NOON.", "nsi_id": "unitedstatespostalservice-a77078", "operator": "United States Postal Service", "operator:short": "USPS", "operator:type": "public", "operator:wikidata": "Q668687", "ref": "2452900001"}, "type": "Feature"}
{"geometry": {"coordinates": [-78.6320552869, 36.603922179], "type": "Point"}, "id": "cB4Ti6Jrqup8mX-KoS01u5SWj14=", "properties": {"@source_uri": "https://tools.usps.com/UspsToolsRestServices/rest/POLocator/findLocations", "@spider": "usps_collection_boxes", "addr:city": "BUFFALO JUNCTION", "addr:country": "US", "addr:postcode": "24529", "addr:state": "VA", "addr:street_address": "7199 HIGHWAY 49", "amenity": "post_box", "brand": "United States Postal Service", "brand:wikidata": "Q668687", "collection_times": "Mo-Fr 16:00; Sa 10:00", "indoor": "yes", "note": "ON 12/24 AND 12/31, THIS BOX MAY BE COLLECTED AS EARLY AS 12 NOON.", "nsi_id": "unitedstatespostalservice-a77078", "operator": "United States Postal Service", "operator:short": "USPS", "operator:type": "public", "operator:wikidata": "Q668687", "ref": "2452900003"}, "type": "Feature"}
{"geometry": {"coordinates": [-79.586862, 36.820931], "type": "Point"}, "id": "lZFR1YTTyu2XzMCQ1qLRQVAeNc4=", "properties": {"@source_uri": "https://tools.usps.com/UspsToolsRestServices/rest/POLocator/findLocations", "@spider": "usps_collection_boxes", "addr:city": "CALLANDS", "addr:country": "US", "addr:postcode": "24530", "addr:state": "VA", "addr:street_address": "12001 CALLANDS RD", "amenity": "post_box", "brand": "United States Postal Service", "brand:wikidata": "Q668687", "collection_times": "Mo-Fr 11:45; Sa 11:15", "nsi_id": "unitedstatespostalservice-a77078", "operator": "United States Postal Service", "operator:short": "USPS", "operator:type": "public", "operator:wikidata": "Q668687", "ref": "2453000000"}, "type": "Feature"}
{"geometry": {"coordinates": [-79.586933, 36.820909], "type": "Point"}, "id": "mdR7Mwi4XA4iAx3lKLaNyYp-OUA=", "properties": {"@source_uri": "https://tools.usps.com/UspsToolsRestServices/rest/POLocator/findLocations", "@spider": "usps_collection_boxes", "addr:city": "CALLANDS", "addr:country": "US", "addr:postcode": "24530", "addr:state": "VA", "addr:street_address": "12001 CALLANDS RD", "amenity": "post_box", "brand": "United States Postal Service", "brand:wikidata": "Q668687", "collection_times": "Mo-Fr 11:45; Sa 11:15", "indoor": "yes", "nsi_id": "unitedstatespostalservice-a77078", "operator": "United States Postal Service", "operator:short": "USPS", "operator:type": "public", "operator:wikidata": "Q668687", "ref": "2453000001"}, "type": "Feature"}
{"geometry": {"coordinates": [-79.587412101, 36.820449284], "type": "Point"}, "id": "HY_tVObKOkW4AHVxAnuEh0unmQg=", "properties": {"@source_uri": "https://tools.usps.com/UspsToolsRestServices/rest/POLocator/findLocations", "@spider": "usps_collection_boxes", "addr:city": "CALLANDS", "addr:country": "US", "addr:postcode": "24530", "addr:state": "VA", "addr:street_address": "12001 CALLANDS RD", "amenity": "post_box", "brand": "United States Postal Service", "brand:wikidata": "Q668687", "collection_times": "Mo-Fr 12:00; Sa 11:30", "indoor": "yes", "nsi_id": "unitedstatespostalservice-a77078", "operator": "United States Postal Service", "operator:short": "USPS", "operator:type": "public", "operator:wikidata": "Q668687", "ref": "2453000003"}, "type": "Feature"}
{"geometry": {"coordinates": [-79.398178922, 36.825132876], "type": "Point"}, "id": "a9R_ahqylIjyw8jzxL9KL-mUQiU=", "properties": {"@source_uri": "https://tools.usps.com/UspsToolsRestServices/rest/POLocator/findLocations", "@spider": "usps_collection_boxes", "addr:city": "CHATHAM", "addr:country": "US", "addr:postcode": "24531", "addr:state": "VA", "addr:street_address": "31 S MAIN ST", "amenity": "post_box", "brand": "United States Postal Service", "brand:wikidata": "Q668687", "collection_times": "Mo-Fr 16:30; Sa 11:30", "note": "ON 12/24 AND 12/31, THIS BOX MAY BE COLLECTED AS EARLY AS 12 NOON.", "nsi_id": "unitedstatespostalservice-a77078", "operator": "United States Postal Service", "operator:short": "USPS", "operator:type": "public", "operator:wikidata": "Q668687", "ref": "2453100000"}, "type": "Feature"}
{"geometry": {"coordinates": [-79.3984113, 36.826345], "type": "Point"}, "id": "dpwU-XjBlUBA34040XbRcMKaxGU=", "properties": {"@source_uri": "https://tools.usps.com/UspsToolsRestServices/rest/POLocator/findLocations", "@spider": "usps_collection_boxes", "addr:city": "CHATHAM", "addr:country": "US", "addr:postcode": "24531", "addr:state": "VA", "addr:street_address": "12 N MAIN ST", "amenity": "post_box", "brand": "United States Postal Service", "brand:wikidata": "Q668687", "collection_times": "Mo-Fr 16:30; Sa 11:30", "note": "ON 12/24 AND 12/31, THIS BOX MAY BE COLLECTED AS EARLY AS 12 NOON.", "nsi_id": "unitedstatespostalservice-a77078", "operator": "United States Postal Service", "operator:short": "USPS", "operator:type": "public", "operator:wikidata": "Q668687", "ref": "2453100001"}, "type": "Feature"}
{"geometry": {"coordinates": [-79.3959354, 36.789067], "type": "Point"}, "id": "OMkZbYflKonBU_WkEE3BvEvVMtw=", "properties": {"@source_uri": "https://tools.usps.com/UspsToolsRestServices/rest/POLocator/findLocations", "@spider": "usps_collection_boxes", "addr:city": "CHATHAM", "addr:country": "US", "addr:postcode": "24531", "addr:state": "VA", "addr:street_address": "13701 US HIGHWAY 29", "amenity": "post_box", "brand": "United States Postal Service", "brand:wikidata": "Q668687", "collection_times": "Mo-Sa 16:00", "note": "ON 12/24 AND 12/31, THIS BOX MAY BE COLLECTED AS EARLY AS 12 NOON.", "nsi_id": "unitedstatespostalservice-a77078", "operator": "United States Postal Service", "operator:short": "USPS", "operator:type": "public", "operator:wikidata": "Q668687", "ref": "2453100002"}, "type": "Feature"}
{"geometry": {"coordinates": [-79.398178922, 36.825132876], "type": "Point"}, "id": "p5JT8vjFASV3Xqu_Xb8kogl7kBE=", "properties": {"@source_uri": "https://tools.usps.com/UspsToolsRestServices/rest/POLocator/findLocations", "@spider": "usps_collection_boxes", "addr:city": "CHATHAM", "addr:country": "US", "addr:postcode": "24531", "addr:state": "VA", "addr:street_address": "31 S MAIN ST", "amenity": "post_box", "brand": "United States Postal Service", "brand:wikidata": "Q668687", "collection_times": "Mo-Fr 17:00; Sa 14:15", "indoor": "yes", "note": "ON 12/24 AND 12/31, THIS BOX MAY BE COLLECTED AS EARLY AS 12 NOON.", "nsi_id": "unitedstatespostalservice-a77078", "operator": "United States Postal Service", "operator:short": "USPS", "operator:type": "public", "operator:wikidata": "Q668687", "ref": "2453100003"}, "type": "Feature"}
{"geometry": {"coordinates": [-79.398178922, 36.825132876], "type": "Point"}, "id": "fQZa4J4VHy_UTb1GdKLfXLz1HdI=", "properties": {"@source_uri": "https://tools.usps.com/UspsToolsRestServices/rest/POLocator/findLocations", "@spider": "usps_collection_boxes", "addr:city": "CHATHAM", "addr:country": "US", "addr:postcode": "24531", "addr:state": "VA", "addr:street_address": "31 S MAIN ST", "amenity": "post_box", "brand": "United States Postal Service", "brand:wikidata": "Q668687", "collection_times": "Mo-Fr 17:00; Sa 11:00", "indoor": "yes", "note": "ON 12/24 AND 12/31, THIS BOX MAY BE COLLECTED AS EARLY AS 12 NOON.", "nsi_id": "unitedstatespostalservice-a77078", "operator": "United States Postal Service", "operator:short": "USPS", "operator:type": "public", "operator:wikidata": "Q668687", "ref": "2453100006"}, "type": "Feature"}
{"geometry": {"coordinates": [-79.022194966, 37.644761003], "type": "Point"}, "id": "LLG58FIJkQuyZKOP3rzKQkBmXLE=", "properties": {"@source_uri": "https://tools.usps.com/UspsToolsRestServices/rest/POLocator/findLocations", "@spider": "usps_collection_boxes", "addr:city": "CLIFFORD", "addr:country": "US", "addr:postcode": "24533", "addr:state": "VA", "addr:street_address": "120 TURKEY MOUNTAIN RD", "amenity": "post_box", "brand": "United States Postal Service", "brand:wikidata": "Q668687", "collection_times": "Mo-Fr 11:45; Sa 11:00", "nsi_id": "unitedstatespostalservice-a77078", "operator": "United States Postal Service", "operator:short": "USPS", "operator:type": "public", "operator:wikidata": "Q668687", "ref": "2453300000"}, "type": "Feature"}
{"geometry": {"coordinates": [-79.022194966, 37.644761003], "type": "Point"}, "id": "Bc9apejNQWrsj4vpoMD7m29xdy8=", "properties": {"@source_uri": "https://tools.usps.com/UspsToolsRestServices/rest/POLocator/findLocations", "@spider": "usps_collection_boxes", "addr:city": "CLIFFORD", "addr:country": "US", "addr:postcode": "24533", "addr:state": "VA", "addr:street_address": "120 TURKEY MOUNTAIN RD", "amenity": "post_box", "brand": "United States Postal Service", "brand:wikidata": "Q668687", "collection_times": "Mo-Fr 11:45; Sa 11:00", "indoor": "yes", "nsi_id": "unitedstatespostalservice-a77078", "operator": "United States Postal Service", "operator:short": "USPS", "operator:type": "public", "operator:wikidata": "Q668687", "ref": "2453300001"}, "type": "Feature"}
{"geometry": {"coordinates": [-78.733519, 36.832982], "type": "Point"}, "id": "TT-qb_iWQypizmyoSFtwoyqrojA=", "properties": {"@source_uri": "https://tools.usps.com/UspsToolsRestServices/rest/POLocator/findLocations", "@spider": "usps_collection_boxes", "addr:city": "CLOVER", "addr:country": "US", "addr:postcode": "24534", "addr:state": "VA", "addr:street_address": "101 S MAIN ST", "amenity": "post_box", "brand": "United States Postal Service", "brand:wikidata": "Q668687", "collection_times": "Mo-Fr 12:00; Sa 11:00", "nsi_id": "unitedstatespostalservice-a77078", "operator": "United States Postal Service", "operator:short": "USPS", "operator:type": "public", "operator:wikidata": "Q668687", "ref": "2453400000"}, "type": "Feature"}
{"geometry": {"coordinates": [-78.733519, 36.832982], "type": "Point"}, "id": "bkEHpYwhUEV3rvxwnYb8fw72u3w=", "properties": {"@source_uri": "https://tools.usps.com/UspsToolsRestServices/rest/POLocator/findLocations", "@spider": "usps_collection_boxes", "addr:city": "CLOVER", "addr:country": "US", "addr:postcode": "24534", "addr:state": "VA", "addr:street_address": "101 S MAIN ST", "amenity": "post_box", "brand": "United States Postal Service", "brand:wikidata": "Q668687", "collection_times": "Mo-Fr 12:00; Sa 11:00", "indoor": "yes", "nsi_id": "unitedstatespostalservice-a77078", "operator": "United States Postal Service", "operator:short": "USPS", "operator:type": "public", "operator:wikidata": "Q668687", "ref": "2453400001"}, "type": "Feature"}
{"geometry": {"coordinates": [-78.733488531, 36.832894062], "type": "Point"}, "id": "mjKfAxWBDUYr7xGAxzGpOHsj-cg=", "properties": {"@source_uri": "https://tools.usps.com/UspsToolsRestServices/rest/POLocator/findLocations", "@spider": "usps_collection_boxes", "addr:city": "CLOVER", "addr:country": "US", "addr:postcode": "24534", "addr:state": "VA", "addr:street_address": "101 S MAIN ST", "amenity": "post_box", "brand": "United States Postal Service", "brand:wikidata": "Q668687", "collection_times": "Mo-Fr 14:45; Sa 11:00", "indoor": "yes", "note": "ON 12/24 AND 12/31, THIS BOX MAY BE COLLECTED AS EARLY AS 12 NOON.", "nsi_id": "unitedstatespostalservice-a77078", "operator": "United States Postal Service", "operator:short": "USPS", "operator:type": "public", "operator:wikidata": "Q668687", "ref": "2453400003"}, "type": "Feature"}
{"geometry": {"coordinates": [-78.921866016, 36.6130700086], "type": "Point"}, "id": "EV9N2nRSjzO4NF8RB25gq_aD7d8=", "properties": {"@source_uri": "https://tools.usps.com/UspsToolsRestServices/rest/POLocator/findLocations", "@spider": "usps_collection_boxes", "addr:city": "CLUSTER SPRINGS", "addr:country": "US", "addr:postcode": "24535", "addr:state": "VA", "addr:street_address": "6225 HUELL MATTHEWS HWY", "amenity": "post_box", "brand": "United States Postal Service", "brand:wikidata": "Q668687", "collection_times": "Mo-Fr 14:45; Sa 13:45", "note": "ON 12/24 AND 12/31, THIS BOX MAY BE COLLECTED AS EARLY AS 12 NOON.", "nsi_id": "unitedstatespostalservice-a77078", "operator": "United States Postal Service", "operator:short": "USPS", "operator:type": "public", "operator:wikidata": "Q668687", "ref": "2453500000"}, "type": "Feature"}
{"geometry": {"coordinates": [-78.921866016, 36.6130700086], "type": "Point"}, "id": "K109UsAGS-3rc0ulTi8S-YqeH-U=", "properties": {"@source_uri": "https://tools.usps.com/UspsToolsRestServices/rest/POLocator/findLocations", "@spider": "usps_collection_boxes", "addr:city": "CLUSTER SPRINGS", "addr:country": "US", "addr:postcode": "24535", "addr:state": "VA", "addr:street_address": "6225 HUELL MATTHEWS HWY", "amenity": "post_box", "brand": "United States Postal Service", "brand:wikidata": "Q668687", "collection_times": "Mo-Fr 14:45; Sa 13:45", "indoor": "yes", "note": "ON 12/24 AND 12/31, THIS BOX MAY BE COLLECTED AS EARLY AS 12 NOON.", "nsi_id": "unitedstatespostalservice-a77078", "operator": "United States Postal Service", "operator:short": "USPS", "operator:type": "public", "operator:wikidata": "Q668687", "ref": "2453500001"}, "type": "Feature"}
{"geometry": {"coordinates": [-78.921866016, 36.6130700086], "type": "Point"}, "id": "vSCN8hTasgq85WPFgsamEk1O4XM=", "properties": {"@source_uri": "https://tools.usps.com/UspsToolsRestServices/rest/POLocator/findLocations", "@spider": "usps_collection_boxes", "addr:city": "CLUSTER SPRINGS", "addr:country": "US", "addr:postcode": "24535", "addr:state": "VA", "addr:street_address": "6225 HUELL MATTHEWS HWY", "amenity": "post_box", "brand": "United States Postal Service", "brand:wikidata": "Q668687", "collection_times": "Mo-Fr 15:00; Sa 15:30", "indoor": "yes", "note": "ON 12/24 AND 12/31, THIS BOX MAY BE COLLECTED AS EARLY AS 12 NOON.", "nsi_id": "unitedstatespostalservice-a77078", "operator": "United States Postal Service", "operator:short": "USPS", "operator:type": "public", "operator:wikidata": "Q668687", "ref": "2453500003"}, "type": "Feature"}
{"geometry": {"coordinates": [-79.2851, 37.489243], "type": "Point"}, "id": "Tdz5p9_KQSGrjWXoVy3gUr3ZvCc=", "properties": {"@source_uri": "https://tools.usps.com/UspsToolsRestServices/rest/POLocator/findLocations", "@spider": "usps_collection_boxes", "addr:city": "COLEMAN FALLS", "addr:country": "US", "addr:postcode": "24536", "addr:state": "VA", "addr:street_address": "6285 LEE JACKSON HWY", "amenity": "post_box", "brand": "United States Postal Service", "brand:wikidata": "Q668687", "collection_times": "Mo-Sa 14:00", "indoor": "yes", "note": "ON 12/24 AND 12/31, THIS BOX MAY BE COLLECTED AS EARLY AS 12 NOON.", "nsi_id": "unitedstatespostalservice-a77078", "operator": "United States Postal Service", "operator:short": "USPS", "operator:type": "public", "operator:wikidata": "Q668687", "ref": "2453600000"}, "type": "Feature"}
{"geometry": {"coordinates": [-79.302742209, 37.501033127], "type": "Point"}, "id": "FnCL3u1y7YOt0hY8ClSVSy48NWI=", "properties": {"@source_uri": "https://tools.usps.com/UspsToolsRestServices/rest/POLocator/findLocations", "@spider": "usps_collection_boxes", "addr:city": "COLEMAN FALLS", "addr:country": "US", "addr:postcode": "24536", "addr:state": "VA", "addr:street_address": "6285 LEE JACKSON HWY", "amenity": "post_box", "brand": "United States Postal Service", "brand:wikidata": "Q668687", "collection_times": "Mo-Sa 14:30", "indoor": "yes", "note": "ON 12/24 AND 12/31, THIS BOX MAY BE COLLECTED AS EARLY AS 12 NOON.", "nsi_id": "unitedstatespostalservice-a77078", "operator": "United States Postal Service", "operator:short": "USPS", "operator:type": "public", "operator:wikidata": "Q668687", "ref": "2453600002"}, "type": "Feature"}
{"geometry": {"coordinates": [-78.975904383, 37.349291175], "type": "Point"}, "id": "jEqGAXJ_PMyLlhdBW1nCBBal4Zk=", "properties": {"@source_uri": "https://tools.usps.com/UspsToolsRestServices/rest/POLocator/findLocations", "@spider": "usps_collection_boxes", "addr:city": "CONCORD", "addr:country": "US", "addr:postcode": "24538", "addr:state": "VA", "addr:street_address": "10275 VILLAGE HWY", "amenity": "post_box", "brand": "United States Postal Service", "brand:wikidata": "Q668687", "collection_times": "Mo-Fr 17:00; Sa 10:00", "note": "ON 12/24 AND 12/31, THIS BOX MAY BE COLLECTED AS EARLY AS 12 NOON.", "nsi_id": "unitedstatespostalservice-a77078", "operator": "United States Postal Service", "operator:short": "USPS", "operator:type": "public", "operator:wikidata": "Q668687", "ref": "2453800000"}, "type": "Feature"}
{"geometry": {"coordinates": [-78.975904383, 37.349291175], "type": "Point"}, "id": "KbFLMrLf5yN53mGecdME5EhBp9w=", "properties": {"@source_uri": "https://tools.usps.com/UspsToolsRestServices/rest/POLocator/findLocations", "@spider": "usps_collection_boxes", "addr:city": "CONCORD", "addr:country": "US", "addr:postcode": "24538", "addr:state": "VA", "addr:street_address": "10275 VILLAGE HWY", "amenity": "post_box", "brand": "United States Postal Service", "brand:wikidata": "Q668687", "collection_times": "Mo-Fr 17:00; Sa 10:00", "indoor": "yes", "note": "ON 12/24 AND 12/31, THIS BOX MAY BE COLLECTED AS EARLY AS 12 NOON.", "nsi_id": "unitedstatespostalservice-a77078", "operator": "United States Postal Service", "operator:short": "USPS", "operator:type": "public", "operator:wikidata": "Q668687", "ref": "2453800001"}, "type": "Feature"}
{"geometry": {"coordinates": [-78.975904383, 37.349291175], "type": "Point"}, "id": "laqaJJAgjKA0Y9bs3lquDVmrAdk=", "properties": {"@source_uri": "https://tools.usps.com/UspsToolsRestServices/rest/POLocator/findLocations", "@spider": "usps_collection_boxes", "addr:city": "CONCORD", "addr:country": "US", "addr:postcode": "24538", "addr:state": "VA", "addr:street_address": "10275 VILLAGE HWY", "amenity": "post_box", "brand": "United States Postal Service", "brand:wikidata": "Q668687", "collection_times": "Mo-Fr 17:00; Sa 10:00", "indoor": "yes", "note": "ON 12/24 AND 12/31, THIS BOX MAY BE COLLECTED AS EARLY AS 12 NOON.", "nsi_id": "unitedstatespostalservice-a77078", "operator": "United States Postal Service", "operator:short": "USPS", "operator:type": "public", "operator:wikidata": "Q668687", "ref": "2453800003"}, "type": "Feature"}
{"geometry": {"coordinates": [-78.910341, 36.859584], "type": "Point"}, "id": "LTT1MLyZq5icPOPNLpb-y3F_48g=", "properties": {"@source_uri": "https://tools.usps.com/UspsToolsRestServices/rest/POLocator/findLocations", "@spider": "usps_collection_boxes", "addr:city": "CRYSTAL HILL", "addr:country": "US", "addr:postcode": "24539", "addr:state": "VA", "addr:street_address": "6200 HOWARD P ANDERSON RD", "amenity": "post_box", "brand": "United States Postal Service", "brand:wikidata": "Q668687", "collection_times": "Mo-Sa 11:45", "nsi_id": "unitedstatespostalservice-a77078", "operator": "United States Postal Service", "operator:short": "USPS", "operator:type": "public", "operator:wikidata": "Q668687", "ref": "2453900000"}, "type": "Feature"}
{"geometry": {"coordinates": [-78.910110063, 36.858752071], "type": "Point"}, "id": "LlVNR21CDvMoH3qIsWmy9v62ndE=", "properties": {"@source_uri": "https://tools.usps.com/UspsToolsRestServices/rest/POLocator/findLocations", "@spider": "usps_collection_boxes", "addr:city": "CRYSTAL HILL", "addr:country": "US", "addr:postcode": "24539", "addr:state": "VA", "addr:street_address": "6200 HOWARD P ANDERSON RD", "amenity": "post_box", "brand": "United States Postal Service", "brand:wikidata": "Q668687", "collection_times": "Mo-Fr 12:00; Sa 11:45", "indoor": "yes", "nsi_id": "unitedstatespostalservice-a77078", "operator": "United States Postal Service", "operator:short": "USPS", "operator:type": "public", "operator:wikidata": "Q668687", "ref": "2453900002"}, "type": "Feature"}
{"geometry": {"coordinates": [-79.3867595, 36.638949], "type": "Point"}, "id": "XzVjtRcsSvad0Bw_DJWR99e6CJY=", "properties": {"@source_uri": "https://tools.usps.com/UspsToolsRestServices/rest/POLocator/findLocations", "@spider": "usps_collection_boxes", "addr:city": "DANVILLE", "addr:country": "US", "addr:postcode": "24540", "addr:state": "VA", "addr:street_address": "3303 U S HIGHWAY 29", "amenity": "post_box", "brand": "United States Postal Service", "brand:wikidata": "Q668687", "collection_times": "Mo-Sa 13:00", "note": "ON 12/24 AND 12/31, THIS BOX MAY BE COLLECTED AS EARLY AS 12 NOON.", "nsi_id": "unitedstatespostalservice-a77078", "operator": "United States Postal Service", "operator:short": "USPS", "operator:type": "public", "operator:wikidata": "Q668687", "ref": "2454000012"}, "type": "Feature"}
{"geometry": {"coordinates": [-79.3981303756, 36.6277428411], "type": "Point"}, "id": "iFhwBxEa6SskGY51lq5-AL8tVQw=", "properties": {"@source_uri": "https://tools.usps.com/UspsToolsRestServices/rest/POLocator/findLocations", "@spider": "usps_collection_boxes", "addr:city": "DANVILLE", "addr:country": "US", "addr:postcode": "24540", "addr:state": "VA", "addr:street_address": "259 NOR DAN DR", "amenity": "post_box", "brand": "United States Postal Service", "brand:wikidata": "Q668687", "collection_times": "Mo-Sa 15:00", "note": "ON 12/24 AND 12/31, THIS BOX MAY BE COLLECTED AS EARLY AS 12 NOON.", "nsi_id": "unitedstatespostalservice-a77078", "operator": "United States Postal Service", "operator:short": "USPS", "operator:type": "public", "operator:wikidata": "Q668687", "ref": "2454000013"}, "type": "Feature"}
{"geometry": {"coordinates": [-79.3989417, 36.599109], "type": "Point"}, "id": "896UPOfPxG5DCVk2hEgfaxGknuc=", "properties": {"@source_uri": "https://tools.usps.com/UspsToolsRestServices/rest/POLocator/findLocations", "@spider": "usps_collection_boxes", "addr:city": "DANVILLE", "addr:country": "US", "addr:postcode": "24540", "addr:state": "VA", "addr:street_address": "144 ARNETT BLVD", "amenity": "post_box", "brand": "United States Postal Service", "brand:wikidata": "Q668687", "collection_times": "Mo-Sa 11:00", "nsi_id": "unitedstatespostalservice-a77078", "operator": "United States Postal Service", "operator:short": "USPS", "operator:type": "public", "operator:wikidata": "Q668687", "ref": "2454000025"}, "type": "Feature"}
{"geometry": {"coordinates": [-79.352695311, 36.582816119], "type": "Point"}, "id": "VN1Ji_4dytiqpi6kuCaYItt_VZU=", "properties": {"@source_uri": "https://tools.usps.com/UspsToolsRestServices/rest/POLocator/findLocations", "@spider": "usps_collection_boxes", "addr:city": "DANVILLE", "addr:country": "US", "addr:postcode": "24540", "addr:state": "VA", "addr:street_address": "1251 S BOSTON RD", "amenity": "post_box", "brand": "United States Postal Service", "brand:wikidata": "Q668687", "collection_times": "Mo-Sa 11:00", "nsi_id": "unitedstatespostalservice-a77078", "operator": "United States Postal Service", "operator:short": "USPS", "operator:type": "public", "operator:wikidata": "Q668687", "ref": "2454000026"}, "type": "Feature"}
{"geometry": {"coordinates": [-79.3803749, 36.600376], "type": "Point"}, "id": "0Fk81ag9XUk8Ah2NpZ_fCC413AM=", "properties": {"@source_uri": "https://tools.usps.com/UspsToolsRestServices/rest/POLocator/findLocations", "@spider": "usps_collection_boxes", "addr:city": "DANVILLE", "addr:country": "US", "addr:postcode": "24540", "addr:state": "VA", "addr:street_address": "1210 N MAIN ST", "amenity": "post_box", "brand": "United States Postal Service", "brand:wikidata": "Q668687", "collection_times": "Mo-Sa 13:00", "note": "ON 12/24 AND 12/31, THIS BOX MAY BE COLLECTED AS EARLY AS 12 NOON.", "nsi_id": "unitedstatespostalservice-a77078", "operator": "United States Postal Service", "operator:short": "USPS", "operator:type": "public", "operator:wikidata": "Q668687", "ref": "2454000043"}, "type": "Feature"}
{"geometry": {"coordinates": [-79.4294416, 36.596383], "type": "Point"}, "id": "D3NxYqs8Bd5opjuu1Ox4lApiFQg=", "properties": {"@source_uri": "https://tools.usps.com/UspsToolsRestServices/rest/POLocator/findLocations", "@spider": "usps_collection_boxes", "addr:city": "DANVILLE", "addr:country": "US", "addr:postcode": "24540", "addr:state": "VA", "addr:street_address": "515 MOUNT CROSS RD", "amenity": "post_box", "brand": "United States Postal Service", "brand:wikidata": "Q668687", "collection_times": "Mo-Sa 11:00", "nsi_id": "unitedstatespostalservice-a77078", "operator": "United States Postal Service", "operator:short": "USPS", "operator:type": "public", "operator:wikidata": "Q668687", "ref": "2454000056"}, "type": "Feature"}
{"geometry": {"coordinates": [-79.4119223, 36.65832], "type": "Point"}, "id": "7gIMdlbcoFgra1rzMfi-VvsT_LQ=", "properties": {"@source_uri": "https://tools.usps.com/UspsToolsRestServices/rest/POLocator/findLocations", "@spider": "usps_collection_boxes", "addr:city": "DANVILLE", "addr:country": "US", "addr:postcode": "24540", "addr:state": "VA", "addr:street_address": "2725 FRANKLIN TPKE", "amenity": "post_box", "brand": "United States Postal Service", "brand:wikidata": "Q668687", "collection_times": "Mo-Sa 13:00", "note": "ON 12/24 AND 12/31, THIS BOX MAY BE COLLECTED AS EARLY AS 12 NOON.", "nsi_id": "unitedstatespostalservice-a77078", "operator": "United States Postal Service", "operator:short": "USPS", "operator:type": "public", "operator:wikidata": "Q668687", "ref": "2454000059"}, "type": "Feature"}
{"geometry": {"coordinates": [-79.4109763, 36.5786194], "type": "Point"}, "id": "Fjy-PCuCmX4Sy0NflxE_JJJqywo=", "properties": {"@source_uri": "https://tools.usps.com/UspsToolsRestServices/rest/POLocator/findLocations", "@spider": "usps_collection_boxes", "addr:city": "DANVILLE", "addr:country": "US", "addr:postcode": "24541", "addr:state": "VA", "addr:street_address": "700 MAIN ST", "amenity": "post_box", "brand": "United States Postal Service", "brand:wikidata": "Q668687", "collection_times": "Mo-Fr 16:30; Sa 13:00", "note": "ON 12/24 AND 12/31, THIS BOX MAY BE COLLECTED AS EARLY AS 12 NOON.", "nsi_id": "unitedstatespostalservice-a77078", "operator": "United States Postal Service", "operator:short": "USPS", "operator:type": "public", "operator:wikidata": "Q668687", "ref": "2454100038"}, "type": "Feature"}
{"geometry": {"coordinates": [-79.3996964, 36.553684], "type": "Point"}, "id": "VMPGuM5ZmBKTW96ugzyFFtpLISo=", "properties": {"@source_uri": "https://tools.usps.com/UspsToolsRestServices/rest/POLocator/findLocations", "@spider": "usps_collection_boxes", "addr:city": "DANVILLE", "addr:country": "US", "addr:postcode": "24541", "addr:state": "VA", "addr:street_address": "1449 S MAIN ST", "amenity": "post_box", "brand": "United States Postal Service", "brand:wikidata": "Q668687", "collection_times": "Mo-Sa 10:00", "nsi_id": "unitedstatespostalservice-a77078", "operator": "United States Postal Service", "operator:short": "USPS", "operator:type": "public", "operator:wikidata": "Q668687", "ref": "2454100064"}, "type": "Feature"}
{"geometry": {"coordinates": [-79.4169294, 36.573018], "type": "Point"}, "id": "6CO3iX-xhht_z2OmY1GPdDfrEoo=", "properties": {"@source_uri": "https://tools.usps.com/UspsToolsRestServices/rest/POLocator/findLocations", "@spider": "usps_collection_boxes", "addr:city": "DANVILLE", "addr:country": "US", "addr:postcode": "24541", "addr:state": "VA", "addr:street_address": "568 W MAIN ST", "amenity": "post_box", "brand": "United States Postal Service", "brand:wikidata": "Q668687", "collection_times": "Mo-Sa 13:00", "note": "ON 12/24 AND 12/31, THIS BOX MAY BE COLLECTED AS EARLY AS 12 NOON.", "nsi_id": "unitedstatespostalservice-a77078", "operator": "United States Postal Service", "operator:short": "USPS", "operator:type": "public", "operator:wikidata": "Q668687", "ref": "2454100070"}, "type": "Feature"}
{"geometry": {"coordinates": [-79.4572784, 36.559271], "type": "Point"}, "id": "HzZUcCSK6uNe-BZC7q2QLGn00wA=", "properties": {"@source_uri": "https://tools.usps.com/UspsToolsRestServices/rest/POLocator/findLocations", "@spider": "usps_collection_boxes", "addr:city": "DANVILLE", "addr:country": "US", "addr:postcode": "24541", "addr:state": "VA", "addr:street_address": "2306 W MAIN ST", "amenity": "post_box", "brand": "United States Postal Service", "brand:wikidata": "Q668687", "collection_times": "Mo-Sa 09:00", "nsi_id": "unitedstatespostalservice-a77078", "operator": "United States Postal Service", "operator:short": "USPS", "operator:type": "public", "operator:wikidata": "Q668687", "ref": "2454100074"}, "type": "Feature"}
{"geometry": {"coordinates": [-79.439225998, 36.58574798], "type": "Point"}, "id": "w5DFakdSlQUcHXDwkRCGGHY-P1M=", "properties": {"@source_uri": "https://tools.usps.com/UspsToolsRestServices/rest/POLocator/findLocations", "@spider": "usps_collection_boxes", "addr:city": "DANVILLE", "addr:country": "US", "addr:postcode": "24541", "addr:state": "VA", "addr:street_address": "778 WESTOVER DR", "amenity": "post_box", "brand": "United States Postal Service", "brand:wikidata": "Q668687", "collection_times": "Mo-Sa 09:00", "nsi_id": "unitedstatespostalservice-a77078", "operator": "United States Postal Service", "operator:short": "USPS", "operator:type": "public", "operator:wikidata": "Q668687", "ref": "2454100076"}, "type": "Feature"}
{"geometry": {"coordinates": [-79.3918035, 36.586296], "type": "Point"}, "id": "LWna-gGmcVgmsUlJEMb0TEteDHE=", "properties": {"@source_uri": "https://tools.usps.com/UspsToolsRestServices/rest/POLocator/findLocations", "@spider": "usps_collection_boxes", "addr:city": "DANVILLE", "addr:country": "US", "addr:postcode": "24541", "addr:state": "VA", "addr:street_address": "427 PATTON ST", "amenity": "post_box", "brand": "United States Postal Service", "brand:wikidata": "Q668687", "collection_times": "Mo-Fr 16:30", "note": "ON 12/24 AND 12/31, THIS BOX MAY BE COLLECTED AS EARLY AS 12 NOON.", "nsi_id": "unitedstatespostalservice-a77078", "operator": "United States Postal Service", "operator:short": "USPS", "operator:type": "public", "operator:wikidata": "Q668687", "ref": "2454100079"}, "type": "Feature"}
{"geometry": {"coordinates": [-79.4109763, 36.5786194], "type": "Point"}, "id": "A9FJO8hUv7kuKEZ1FOI1HwRUkNE=", "properties": {"@source_uri": "https://tools.usps.com/UspsToolsRestServices/rest/POLocator/findLocations", "@spider": "usps_collection_boxes", "addr:city": "DANVILLE", "addr:country": "US", "addr:postcode": "24541", "addr:state": "VA", "addr:street_address": "319 PATTON ST", "amenity": "post_box", "brand": "United States Postal Service", "brand:wikidata": "Q668687", "collection_times": "Mo-Fr 16:30", "note": "ON 12/24 AND 12/31, THIS BOX MAY BE COLLECTED AS EARLY AS 12 NOON.", "nsi_id": "unitedstatespostalservice-a77078", "operator": "United States Postal Service", "operator:short": "USPS", "operator:type": "public", "operator:wikidata": "Q668687", "ref": "2454100080"}, "type": "Feature"}
{"geometry": {"coordinates": [-79.4109763, 36.5786194], "type": "Point"}, "id": "G1vr17TVzNDnsDWJs93JoH37Uws=", "properties": {"@source_uri": "https://tools.usps.com/UspsToolsRestServices/rest/POLocator/findLocations", "@spider": "usps_collection_boxes", "addr:city": "DANVILLE", "addr:country": "US", "addr:postcode": "24541", "addr:state": "VA", "addr:street_address": "700 MAIN ST", "amenity": "post_box", "brand": "United States Postal Service", "brand:wikidata": "Q668687", "collection_times": "Mo-Fr 16:30; Sa 13:00", "note": "ON 12/24 AND 12/31, THIS BOX MAY BE COLLECTED AS EARLY AS 12 NOON.", "nsi_id": "unitedstatespostalservice-a77078", "operator": "United States Postal Service", "operator:short": "USPS", "operator:type": "public", "operator:wikidata": "Q668687", "ref": "2454100095"}, "type": "Feature"}
{"geometry": {"coordinates": [-79.3885753149, 36.5878227444], "type": "Point"}, "id": "5GMwQNs9RrUKAKWAdTXUvBatSOw=", "properties": {"@source_uri": "https://tools.usps.com/UspsToolsRestServices/rest/POLocator/findLocations", "@spider": "usps_collection_boxes", "addr:city": "DANVILLE", "addr:country": "US", "addr:postcode": "24541", "addr:state": "VA", "addr:street_address": "312 BRIDGE STREET", "amenity": "post_box", "brand": "United States Postal Service", "brand:wikidata": "Q668687", "collection_times": "Mo-Fr 11:00", "nsi_id": "unitedstatespostalservice-a77078", "operator": "United States Postal Service", "operator:short": "USPS", "operator:type": "public", "operator:wikidata": "Q668687", "ref": "2454100096"}, "type": "Feature"}
{"geometry": {"coordinates": [-79.4043318, 36.577921], "type": "Point"}, "id": "J8zj3or5Wqm6ddUc9Uocg8S5xXY=", "properties": {"@source_uri": "https://tools.usps.com/UspsToolsRestServices/rest/POLocator/findLocations", "@spider": "usps_collection_boxes", "addr:city": "DANVILLE", "addr:country": "US", "addr:postcode": "24541", "addr:state": "VA", "addr:street_address": "155 S MAIN ST", "amenity": "post_box", "brand": "United States Postal Service", "brand:wikidata": "Q668687", "collection_times": "Sa 11:00", "nsi_id": "unitedstatespostalservice-a77078", "operator": "United States Postal Service", "operator:short": "USPS", "operator:type": "public", "operator:wikidata": "Q668687", "ref": "2454100097"}, "type": "Feature"}
{"geometry": {"coordinates": [-79.4124723, 36.577284], "type": "Point"}, "id": "QXcj2XkGWRMXWscUlCf5udjcoAc=", "properties": {"@source_uri": "https://tools.usps.com/UspsToolsRestServices/rest/POLocator/findLocations", "@spider": "usps_collection_boxes", "addr:city": "DANVILLE", "addr:country": "US", "addr:postcode": "24541", "addr:state": "VA", "addr:street_address": "420 W MAIN ST", "amenity": "post_box", "brand": "United States Postal Service", "brand:wikidata": "Q668687", "collection_times": "Mo-Sa 13:00", "note": "ON 12/24 AND 12/31, THIS BOX MAY BE COLLECTED AS EARLY AS 12 NOON.", "nsi_id": "unitedstatespostalservice-a77078", "operator": "United States Postal Service", "operator:short": "USPS", "operator:type": "public", "operator:wikidata": "Q668687", "ref": "2454100098"}, "type": "Feature"}
{"geometry": {"coordinates": [-79.429960244, 36.588670843], "type": "Point"}, "id": "hk9YWVmbDWob3O1dZG4lSAuL_Xk=", "properties": {"@source_uri": "https://tools.usps.com/UspsToolsRestServices/rest/POLocator/findLocations", "@spider": "usps_collection_boxes", "addr:city": "DANVILLE", "addr:country": "US", "addr:postcode": "24541", "addr:state": "VA", "addr:street_address": "105 TEAL CT", "amenity": "post_box", "brand": "United States Postal Service", "brand:wikidata": "Q668687", "collection_times": "Mo-Fr 17:00; Sa 15:00", "note": "ON 12/24 AND 12/31, THIS BOX MAY BE COLLECTED AS EARLY AS 12 NOON.", "nsi_id": "unitedstatespostalservice-a77078", "operator": "United States Postal Service", "operator:short": "USPS", "operator:type": "public", "operator:wikidata": "Q668687", "ref": "2454100104"}, "type": "Feature"}
{"geometry": {"coordinates": [-79.429960244, 36.588670843], "type": "Point"}, "id": "1qzgE2lDrjOXqScYM-lFkIBpQ-c=", "properties": {"@source_uri": "https://tools.usps.com/UspsToolsRestServices/rest/POLocator/findLocations", "@spider": "usps_collection_boxes", "addr:city": "DANVILLE", "addr:country": "US", "addr:postcode": "24541", "addr:state": "VA", "addr:street_address": "105 TEAL CT", "amenity": "post_box", "brand": "United States Postal Service", "brand:wikidata": "Q668687", "collection_times": "Mo-Fr 17:00; Sa 15:00", "note": "ON 12/24 AND 12/31, THIS BOX MAY BE COLLECTED AS EARLY AS 12 NOON.", "nsi_id": "unitedstatespostalservice-a77078", "operator": "United States Postal Service", "operator:short": "USPS", "operator:type": "public", "operator:wikidata": "Q668687", "ref": "2454100105"}, "type": "Feature"}
{"geometry": {"coordinates": [-79.429960244, 36.588670843], "type": "Point"}, "id": "YV6rTQK-L0edZMuIJhQx0hfmyPM=", "properties": {"@source_uri": "https://tools.usps.com/UspsToolsRestServices/rest/POLocator/findLocations", "@spider": "usps_collection_boxes", "addr:city": "DANVILLE", "addr:country": "US", "addr:postcode": "24541", "addr:state": "VA", "addr:street_address": "105 TEAL CT", "amenity": "post_box", "brand": "United States Postal Service", "brand:wikidata": "Q668687", "collection_times": "Mo-Fr 17:00; Sa 15:00", "indoor": "yes", "note": "ON 12/24 AND 12/31, THIS BOX MAY BE COLLECTED AS EARLY AS 12 NOON.", "nsi_id": "unitedstatespostalservice-a77078", "operator": "United States Postal Service", "operator:short": "USPS", "operator:type": "public", "operator:wikidata": "Q668687", "ref": "2454100111"}, "type": "Feature"}
{"geometry": {"coordinates": [-79.395584345, 36.585909134], "type": "Point"}, "id": "cqa6T4-jKwAua-nWbzxScUHeC80=", "properties": {"@source_uri": "https://tools.usps.com/UspsToolsRestServices/rest/POLocator/findLocations", "@spider": "usps_collection_boxes", "addr:city": "DANVILLE", "addr:country": "US", "addr:postcode": "24541", "addr:state": "VA", "addr:street_address": "700 MAIN ST", "amenity": "post_box", "brand": "United States Postal Service", "brand:wikidata": "Q668687", "collection_times": "Mo-Fr 15:00; Sa 11:30", "indoor": "yes", "note": "ON 12/24 AND 12/31, THIS BOX MAY BE COLLECTED AS EARLY AS 12 NOON.", "nsi_id": "unitedstatespostalservice-a77078", "operator": "United States Postal Service", "operator:short": "USPS", "operator:type": "public", "operator:wikidata": "Q668687", "ref": "2454100113"}, "type": "Feature"}
{"geometry": {"coordinates": [-79.395584345, 36.585909134], "type": "Point"}, "id": "RBppdQTiHLg9U8ju4dK6i-atVpM=", "properties": {"@source_uri": "https://tools.usps.com/UspsToolsRestServices/rest/POLocator/findLocations", "@spider": "usps_collection_boxes", "addr:city": "DANVILLE", "addr:country": "US", "addr:postcode": "24541", "addr:state": "VA", "addr:street_address": "700 MAIN ST", "amenity": "post_box", "brand": "United States Postal Service", "brand:wikidata": "Q668687", "collection_times": "Mo-Fr 15:00", "indoor": "yes", "note": "ON 12/24 AND 12/31, THIS BOX MAY BE COLLECTED AS EARLY AS 12 NOON.", "nsi_id": "unitedstatespostalservice-a77078", "operator": "United States Postal Service", "operator:short": "USPS", "operator:type": "public", "operator:wikidata": "Q668687", "ref": "2454100117"}, "type": "Feature"}
{"geometry": {"coordinates": [-79.429960244, 36.588670843], "type": "Point"}, "id": "pFIeYsIRVI-6F_ufU49kZxlHRGY=", "properties": {"@source_uri": "https://tools.usps.com/UspsToolsRestServices/rest/POLocator/findLocations", "@spider": "usps_collection_boxes", "addr:city": "DANVILLE", "addr:country": "US", "addr:postcode": "24541", "addr:state": "VA", "addr:street_address": "105 TEAL CT", "amenity": "post_box", "brand": "United States Postal Service", "brand:wikidata": "Q668687", "collection_times": "Mo-Fr 17:00; Sa 13:00", "indoor": "yes", "note": "ON 12/24 AND 12/31, THIS BOX MAY BE COLLECTED AS EARLY AS 12 NOON.", "nsi_id": "unitedstatespostalservice-a77078", "operator": "United States Postal Service", "operator:short": "USPS", "operator:type": "public", "operator:wikidata": "Q668687", "ref": "2454100118"}, "type": "Feature"}
{"geometry": {"coordinates": [-79.397645, 36.755217], "type": "Point"}, "id": "7Zv26lup8Tc7koLnGFcALEh2KDg=", "properties": {"@source_uri": "https://tools.usps.com/UspsToolsRestServices/rest/POLocator/findLocations", "@spider": "usps_collection_boxes", "addr:city": "DRY FORK", "addr:country": "US", "addr:postcode": "24549", "addr:state": "VA", "addr:street_address": "656 DRY FORK RD", "amenity": "post_box", "brand": "United States Postal Service", "brand:wikidata": "Q668687", "collection_times": "Mo-Fr 14:15; Sa 10:30", "note": "ON 12/24 AND 12/31, THIS BOX MAY BE COLLECTED AS EARLY AS 12 NOON.", "nsi_id": "unitedstatespostalservice-a77078", "operator": "United States Postal Service", "operator:short": "USPS", "operator:type": "public", "operator:wikidata": "Q668687", "ref": "2454900000"}, "type": "Feature"}
{"geometry": {"coordinates": [-79.397721, 36.755172], "type": "Point"}, "id": "Myc4YDodQPTVi81aONaE5G7ywVE=", "properties": {"@source_uri": "https://tools.usps.com/UspsToolsRestServices/rest/POLocator/findLocations", "@spider": "usps_collection_boxes", "addr:city": "DRY FORK", "addr:country": "US", "addr:postcode": "24549", "addr:state": "VA", "addr:street_address": "656 DRY FORK RD", "amenity": "post_box", "brand": "United States Postal Service", "brand:wikidata": "Q668687", "collection_times": "Mo-Fr 14:15; Sa 10:45", "indoor": "yes", "note": "ON 12/24 AND 12/31, THIS BOX MAY BE COLLECTED AS EARLY AS 12 NOON.", "nsi_id": "unitedstatespostalservice-a77078", "operator": "United States Postal Service", "operator:short": "USPS", "operator:type": "public", "operator:wikidata": "Q668687", "ref": "2454900001"}, "type": "Feature"}
{"geometry": {"coordinates": [-79.397498115, 36.755243096], "type": "Point"}, "id": "4Gma_26BTz6SRC3eJV0LHlveGX0=", "properties": {"@source_uri": "https://tools.usps.com/UspsToolsRestServices/rest/POLocator/findLocations", "@spider": "usps_collection_boxes", "addr:city": "DRY FORK", "addr:country": "US", "addr:postcode": "24549", "addr:state": "VA", "addr:street_address": "656 DRY FORK RD", "amenity": "post_box", "brand": "United States Postal Service", "brand:wikidata": "Q668687", "collection_times": "Mo-Fr 14:30; Sa 10:15", "indoor": "yes", "note": "ON 12/24 AND 12/31, THIS BOX MAY BE COLLECTED AS EARLY AS 12 NOON.", "nsi_id": "unitedstatespostalservice-a77078", "operator": "United States Postal Service", "operator:short": "USPS", "operator:type": "public", "operator:wikidata": "Q668687", "ref": "2454900003"}, "type": "Feature"}
{"geometry": {"coordinates": [-79.28133437, 37.232709704], "type": "Point"}, "id": "3GAJvg5gc8yB-kiPbRvF2V-lWcY=", "properties": {"@source_uri": "https://tools.usps.com/UspsToolsRestServices/rest/POLocator/findLocations", "@spider": "usps_collection_boxes", "addr:city": "EVINGTON", "addr:country": "US", "addr:postcode": "24550", "addr:state": "VA", "addr:street_address": "11496 LEESVILLE RD", "amenity": "post_box", "brand": "United States Postal Service", "brand:wikidata": "Q668687", "collection_times": "Mo-Fr 16:45; Sa 09:45", "note": "ON 12/24 AND 12/31, THIS BOX MAY BE COLLECTED AS EARLY AS 12 NOON.", "nsi_id": "unitedstatespostalservice-a77078", "operator": "United States Postal Service", "operator:short": "USPS", "operator:type": "public", "operator:wikidata": "Q668687", "ref": "2455000000"}, "type": "Feature"}
{"geometry": {"coordinates": [-79.28133437, 37.232709704], "type": "Point"}, "id": "raOiB8tDCF3Bh4JQ4IbDfnlqp8k=", "properties": {"@source_uri": "https://tools.usps.com/UspsToolsRestServices/rest/POLocator/findLocations", "@spider": "usps_collection_boxes", "addr:city": "EVINGTON", "addr:country": "US", "addr:postcode": "24550", "addr:state": "VA", "addr:street_address": "11496 LEESVILLE RD", "amenity": "post_box", "brand": "United States Postal Service", "brand:wikidata": "Q668687", "collection_times": "Mo-Fr 16:45; Sa 09:45", "indoor": "yes", "note": "ON 12/24 AND 12/31, THIS BOX MAY BE COLLECTED AS EARLY AS 12 NOON.", "nsi_id": "unitedstatespostalservice-a77078", "operator": "United States Postal Service", "operator:short": "USPS", "operator:type": "public", "operator:wikidata": "Q668687", "ref": "2455000001"}, "type": "Feature"}
{"geometry": {"coordinates": [-79.28133437, 37.232709704], "type": "Point"}, "id": "HMm6cdboypi1VMznI40gpSqOoEM=", "properties": {"@source_uri": "https://tools.usps.com/UspsToolsRestServices/rest/POLocator/findLocations", "@spider": "usps_collection_boxes", "addr:city": "EVINGTON", "addr:country": "US", "addr:postcode": "24550", "addr:state": "VA", "addr:street_address": "11496 LEESVILLE RD", "amenity": "post_box", "brand": "United States Postal Service", "brand:wikidata": "Q668687", "collection_times": "Mo-Fr 17:00; Sa 10:00", "indoor": "yes", "note": "ON 12/24 AND 12/31, THIS BOX MAY BE COLLECTED AS EARLY AS 12 NOON.", "nsi_id": "unitedstatespostalservice-a77078", "operator": "United States Postal Service", "operator:short": "USPS", "operator:type": "public", "operator:wikidata": "Q668687", "ref": "2455000003"}, "type": "Feature"}
{"geometry": {"coordinates": [-79.296604809, 37.366754628], "type": "Point"}, "id": "eR1fmMB833YIvEXyyoSNqE7ADFU=", "properties": {"@source_uri": "https://tools.usps.com/UspsToolsRestServices/rest/POLocator/findLocations", "@spider": "usps_collection_boxes", "addr:city": "FOREST", "addr:country": "US", "addr:postcode": "24551", "addr:state": "VA", "addr:street_address": "14805 FOREST RD", "amenity": "post_box", "brand": "United States Postal Service", "brand:wikidata": "Q668687", "collection_times": "Mo-Fr 17:00; Sa 11:30", "note": "ON 12/24 AND 12/31, THIS BOX MAY BE COLLECTED AS EARLY AS 12 NOON.", "nsi_id": "unitedstatespostalservice-a77078", "operator": "United States Postal Service", "operator:short": "USPS", "operator:type": "public", "operator:wikidata": "Q668687", "ref": "2455100000"}, "type": "Feature"}
{"geometry": {"coordinates": [-79.2468676, 37.378085], "type": "Point"}, "id": "BAdqQk9chXI-tgpJXfhN_-Nn5T8=", "properties": {"@source_uri": "https://tools.usps.com/UspsToolsRestServices/rest/POLocator/findLocations", "@spider": "usps_collection_boxes", "addr:city": "FOREST", "addr:country": "US", "addr:postcode": "24551", "addr:state": "VA", "addr:street_address": "200 GRAVES DR", "amenity": "post_box", "brand": "United States Postal Service", "brand:wikidata": "Q668687", "collection_times": "Mo-Sa 10:00", "nsi_id": "unitedstatespostalservice-a77078", "operator": "United States Postal Service", "operator:short": "USPS", "operator:type": "public", "operator:wikidata": "Q668687", "ref": "2455100001"}, "type": "Feature"}
{"geometry": {"coordinates": [-79.2498399, 37.375232], "type": "Point"}, "id": "nGFLBMe44DDlxmxKyk8DsF6vcm0=", "properties": {"@source_uri": "https://tools.usps.com/UspsToolsRestServices/rest/POLocator/findLocations", "@spider": "usps_collection_boxes", "addr:city": "FOREST", "addr:country": "US", "addr:postcode": "24551", "addr:state": "VA", "addr:street_address": "17860 FOREST RD", "amenity": "post_box", "brand": "United States Postal Service", "brand:wikidata": "Q668687", "collection_times": "Mo-Sa 11:00", "nsi_id": "unitedstatespostalservice-a77078", "operator": "United States Postal Service", "operator:short": "USPS", "operator:type": "public", "operator:wikidata": "Q668687", "ref": "2455100003"}, "type": "Feature"}
{"geometry": {"coordinates": [-79.249209, 37.375288], "type": "Point"}, "id": "RqIgeVpBPl2QS-Ctsguvf7pBSLM=", "properties": {"@source_uri": "https://tools.usps.com/UspsToolsRestServices/rest/POLocator/findLocations", "@spider": "usps_collection_boxes", "addr:city": "FOREST", "addr:country": "US", "addr:postcode": "24551", "addr:state": "VA", "addr:street_address": "17867 FOREST RD", "amenity": "post_box", "brand": "United States Postal Service", "brand:wikidata": "Q668687", "collection_times": "Mo-Fr 16:00; Sa 09:00", "note": "ON 12/24 AND 12/31, THIS BOX MAY BE COLLECTED AS EARLY AS 12 NOON.", "nsi_id": "unitedstatespostalservice-a77078", "operator": "United States Postal Service", "operator:short": "USPS", "operator:type": "public", "operator:wikidata": "Q668687", "ref": "2455100005"}, "type": "Feature"}
{"geometry": {"coordinates": [-79.296671, 37.366792], "type": "Point"}, "id": "0pS39RSYQJ3wvlihSvpcyPOnHiA=", "properties": {"@source_uri": "https://tools.usps.com/UspsToolsRestServices/rest/POLocator/findLocations", "@spider": "usps_collection_boxes", "addr:city": "FOREST", "addr:country": "US", "addr:postcode": "24551", "addr:state": "VA", "addr:street_address": "14803 FOREST RD", "amenity": "post_box", "brand": "United States Postal Service", "brand:wikidata": "Q668687", "collection_times": "Mo-Fr 17:00; Sa 12:00", "indoor": "yes", "note": "ON 12/24 AND 12/31, THIS BOX MAY BE COLLECTED AS EARLY AS 12 NOON.", "nsi_id": "unitedstatespostalservice-a77078", "operator": "United States Postal Service", "operator:short": "USPS", "operator:type": "public", "operator:wikidata": "Q668687", "ref": "2455100006"}, "type": "Feature"}
{"geometry": {"coordinates": [-79.296745, 37.366864], "type": "Point"}, "id": "gRKMZKXqjbQ9nKiGrpKwFdYkE6A=", "properties": {"@source_uri": "https://tools.usps.com/UspsToolsRestServices/rest/POLocator/findLocations", "@spider": "usps_collection_boxes", "addr:city": "FOREST", "addr:country": "US", "addr:postcode": "24551", "addr:state": "VA", "addr:street_address": "14803 FOREST RD", "amenity": "post_box", "brand": "United States Postal Service", "brand:wikidata": "Q668687", "collection_times": "Mo-Fr 17:00; Sa 12:00", "indoor": "yes", "note": "ON 12/24 AND 12/31, THIS BOX MAY BE COLLECTED AS EARLY AS 12 NOON.", "nsi_id": "unitedstatespostalservice-a77078", "operator": "United States Postal Service", "operator:short": "USPS", "operator:type": "public", "operator:wikidata": "Q668687", "ref": "2455100007"}, "type": "Feature"}
{"geometry": {"coordinates": [-79.3098894, 37.30701], "type": "Point"}, "id": "GXiwFcZpgvAowpLUoL3Ny0yUAOM=", "properties": {"@source_uri": "https://tools.usps.com/UspsToolsRestServices/rest/POLocator/findLocations", "@spider": "usps_collection_boxes", "addr:city": "FOREST", "addr:country": "US", "addr:postcode": "24551", "addr:state": "VA", "addr:street_address": "12130 E LYNCHBURG SALEM TPKE", "amenity": "post_box", "brand": "United States Postal Service", "brand:wikidata": "Q668687", "collection_times": "Mo-Sa 10:00", "nsi_id": "unitedstatespostalservice-a77078", "operator": "United States Postal Service", "operator:short": "USPS", "operator:type": "public", "operator:wikidata": "Q668687", "ref": "2455100008"}, "type": "Feature"}
{"geometry": {"coordinates": [-79.29650648, 37.366699345], "type": "Point"}, "id": "h9gvx1dJf4OV9HSNg8OwW-Qn7r0=", "properties": {"@source_uri": "https://tools.usps.com/UspsToolsRestServices/rest/POLocator/findLocations", "@spider": "usps_collection_boxes", "addr:city": "FOREST", "addr:country": "US", "addr:postcode": "24551", "addr:state": "VA", "addr:street_address": "14803 FOREST RD", "amenity": "post_box", "brand": "United States Postal Service", "brand:wikidata": "Q668687", "collection_times": "Mo-Fr 17:00; Sa 12:00", "indoor": "yes", "note": "ON 12/24 AND 12/31, THIS BOX MAY BE COLLECTED AS EARLY AS 12 NOON.", "nsi_id": "unitedstatespostalservice-a77078", "operator": "United States Postal Service", "operator:short": "USPS", "operator:type": "public", "operator:wikidata": "Q668687", "ref": "2455100011"}, "type": "Feature"}
{"geometry": {"coordinates": [-78.8963, 37.571652], "type": "Point"}, "id": "65NjqZiX-t7cEMNnF2HDh9rbF6U=", "properties": {"@source_uri": "https://tools.usps.com/UspsToolsRestServices/rest/POLocator/findLocations", "@spider": "usps_collection_boxes", "addr:city": "GLADSTONE", "addr:country": "US", "addr:postcode": "24553", "addr:state": "VA", "addr:street_address": "2418 PIEDMONT RD", "amenity": "post_box", "brand": "United States Postal Service", "brand:wikidata": "Q668687", "collection_times": "Mo-Fr 14:45; Sa 10:00", "note": "ON 12/24 AND 12/31, THIS BOX MAY BE COLLECTED AS EARLY AS 12 NOON.", "nsi_id": "unitedstatespostalservice-a77078", "operator": "United States Postal Service", "operator:short": "USPS", "operator:type": "public", "operator:wikidata": "Q668687", "ref": "2455300000"}, "type": "Feature"}
{"geometry": {"coordinates": [-78.896382, 37.571671], "type": "Point"}, "id": "xS7XZMz2firEonBE9TLM57tEBiI=", "properties": {"@source_uri": "https://tools.usps.com/UspsToolsRestServices/rest/POLocator/findLocations", "@spider": "usps_collection_boxes", "addr:city": "GLADSTONE", "addr:country": "US", "addr:postcode": "24553", "addr:state": "VA", "addr:street_address": "2418 PIEDMONT RD", "amenity": "post_box", "brand": "United States Postal Service", "brand:wikidata": "Q668687", "collection_times": "Mo-Fr 14:45; Sa 10:00", "indoor": "yes", "note": "ON 12/24 AND 12/31, THIS BOX MAY BE COLLECTED AS EARLY AS 12 NOON.", "nsi_id": "unitedstatespostalservice-a77078", "operator": "United States Postal Service", "operator:short": "USPS", "operator:type": "public", "operator:wikidata": "Q668687", "ref": "2455300001"}, "type": "Feature"}
{"geometry": {"coordinates": [-78.896256723, 37.57161252], "type": "Point"}, "id": "v67fmpARVUjcQS898yTk0SJjV6A=", "properties": {"@source_uri": "https://tools.usps.com/UspsToolsRestServices/rest/POLocator/findLocations", "@spider": "usps_collection_boxes", "addr:city": "GLADSTONE", "addr:country": "US", "addr:postcode": "24553", "addr:state": "VA", "addr:street_address": "2418 PIEDMONT RD", "amenity": "post_box", "brand": "United States Postal Service", "brand:wikidata": "Q668687", "collection_times": "Mo-Fr 15:00; Sa 10:00", "indoor": "yes", "note": "ON 12/24 AND 12/31, THIS BOX MAY BE COLLECTED AS EARLY AS 12 NOON.", "nsi_id": "unitedstatespostalservice-a77078", "operator": "United States Postal Service", "operator:short": "USPS", "operator:type": "public", "operator:wikidata": "Q668687", "ref": "2455300004"}, "type": "Feature"}
{"geometry": {"coordinates": [-79.07268265, 37.163002884], "type": "Point"}, "id": "fnjHSyNjAXsgZHgEy_0MEx1po9A=", "properties": {"@source_uri": "https://tools.usps.com/UspsToolsRestServices/rest/POLocator/findLocations", "@spider": "usps_collection_boxes", "addr:city": "GLADYS", "addr:country": "US", "addr:postcode": "24554", "addr:state": "VA", "addr:street_address": "62 PIGEON RUN RD", "amenity": "post_box", "brand": "United States Postal Service", "brand:wikidata": "Q668687", "collection_times": "Mo-Fr 16:15; Sa 10:00", "note": "ON 12/24 AND 12/31, THIS BOX MAY BE COLLECTED AS EARLY AS 12 NOON.", "nsi_id": "unitedstatespostalservice-a77078", "operator": "United States Postal Service", "operator:short": "USPS", "operator:type": "public", "operator:wikidata": "Q668687", "ref": "2455400000"}, "type": "Feature"}
{"geometry": {"coordinates": [-79.07268265, 37.163002884], "type": "Point"}, "id": "f6g-U4YYY9871Gbond6nEyr3zno=", "properties": {"@source_uri": "https://tools.usps.com/UspsToolsRestServices/rest/POLocator/findLocations", "@spider": "usps_collection_boxes", "addr:city": "GLADYS", "addr:country": "US", "addr:postcode": "24554", "addr:state": "VA", "addr:street_address": "62 PIGEON RUN RD", "amenity": "post_box", "brand": "United States Postal Service", "brand:wikidata": "Q668687", "collection_times": "Mo-Fr 16:30; Sa 10:00", "indoor": "yes", "note": "ON 12/24 AND 12/31, THIS BOX MAY BE COLLECTED AS EARLY AS 12 NOON.", "nsi_id": "unitedstatespostalservice-a77078", "operator": "United States Postal Service", "operator:short": "USPS", "operator:type": "public", "operator:wikidata": "Q668687", "ref": "2455400001"}, "type": "Feature"}
{"geometry": {"coordinates": [-79.07268265, 37.163002884], "type": "Point"}, "id": "EcEePd4oW0VYMx1Edu0h63-p0wc=", "properties": {"@source_uri": "https://tools.usps.com/UspsToolsRestServices/rest/POLocator/findLocations", "@spider": "usps_collection_boxes", "addr:city": "GLADYS", "addr:country": "US", "addr:postcode": "24554", "addr:state": "VA", "addr:street_address": "62 PIGEON RUN RD", "amenity": "post_box", "brand": "United States Postal Service", "brand:wikidata": "Q668687", "collection_times": "Mo-Fr 16:30; Sa 10:00", "indoor": "yes", "note": "ON 12/24 AND 12/31, THIS BOX MAY BE COLLECTED AS EARLY AS 12 NOON.", "nsi_id": "unitedstatespostalservice-a77078", "operator": "United States Postal Service", "operator:short": "USPS", "operator:type": "public", "operator:wikidata": "Q668687", "ref": "2455400003"}, "type": "Feature"}
{"geometry": {"coordinates": [-79.448987757, 37.631630185], "type": "Point"}, "id": "s8NT4DFp2r-b2AteoTxtsdv8PPU=", "properties": {"@source_uri": "https://tools.usps.com/UspsToolsRestServices/rest/POLocator/findLocations", "@spider": "usps_collection_boxes", "addr:city": "GLASGOW", "addr:country": "US", "addr:postcode": "24555", "addr:state": "VA", "addr:street_address": "805 BLUE RIDGE RD", "amenity": "post_box", "brand": "United States Postal Service", "brand:wikidata": "Q668687", "collection_times": "Mo-Fr 16:30; Sa 10:30", "note": "ON 12/24 AND 12/31, THIS BOX MAY BE COLLECTED AS EARLY AS 12 NOON.", "nsi_id": "unitedstatespostalservice-a77078", "operator": "United States Postal Service", "operator:short": "USPS", "operator:type": "public", "operator:wikidata": "Q668687", "ref": "2455500000"}, "type": "Feature"}
{"geometry": {"coordinates": [-79.448987757, 37.631630185], "type": "Point"}, "id": "wAsjdQFyqI2VaXpWJbgnd3fmCOM=", "properties": {"@source_uri": "https://tools.usps.com/UspsToolsRestServices/rest/POLocator/findLocations", "@spider": "usps_collection_boxes", "addr:city": "GLASGOW", "addr:country": "US", "addr:postcode": "24555", "addr:state": "VA", "addr:street_address": "805 BLUE RIDGE RD", "amenity": "post_box", "brand": "United States Postal Service", "brand:wikidata": "Q668687", "collection_times": "Mo-Fr 16:30; Sa 10:30", "indoor": "yes", "note": "ON 12/24 AND 12/31, THIS BOX MAY BE COLLECTED AS EARLY AS 12 NOON.", "nsi_id": "unitedstatespostalservice-a77078", "operator": "United States Postal Service", "operator:short": "USPS", "operator:type": "public", "operator:wikidata": "Q668687", "ref": "2455500001"}, "type": "Feature"}
{"geometry": {"coordinates": [-79.448987757, 37.631630185], "type": "Point"}, "id": "aUoxefh8_KuXajwKtwlpZ0xh1VA=", "properties": {"@source_uri": "https://tools.usps.com/UspsToolsRestServices/rest/POLocator/findLocations", "@spider": "usps_collection_boxes", "addr:city": "GLASGOW", "addr:country": "US", "addr:postcode": "24555", "addr:state": "VA", "addr:street_address": "805 BLUE RIDGE RD", "amenity": "post_box", "brand": "United States Postal Service", "brand:wikidata": "Q668687", "collection_times": "Mo-Fr 16:30; Sa 10:30", "indoor": "yes", "note": "ON 12/24 AND 12/31, THIS BOX MAY BE COLLECTED AS EARLY AS 12 NOON.", "nsi_id": "unitedstatespostalservice-a77078", "operator": "United States Postal Service", "operator:short": "USPS", "operator:type": "public", "operator:wikidata": "Q668687", "ref": "2455500003"}, "type": "Feature"}
{"geometry": {"coordinates": [-79.391981063, 37.367268571], "type": "Point"}, "id": "jOjOgtyVVbmHAcB-W6WeZ-QZIZM=", "properties": {"@source_uri": "https://tools.usps.com/UspsToolsRestServices/rest/POLocator/findLocations", "@spider": "usps_collection_boxes", "addr:city": "GOODE", "addr:country": "US", "addr:postcode": "24556", "addr:state": "VA", "addr:street_address": "9161 FOREST RD", "amenity": "post_box", "brand": "United States Postal Service", "brand:wikidata": "Q668687", "collection_times": "Mo-Fr 16:00; Sa 10:30", "note": "ON 12/24 AND 12/31, THIS BOX MAY BE COLLECTED AS EARLY AS 12 NOON.", "nsi_id": "unitedstatespostalservice-a77078", "operator": "United States Postal Service", "operator:short": "USPS", "operator:type": "public", "operator:wikidata": "Q668687", "ref": "2455600000"}, "type": "Feature"}
{"geometry": {"coordinates": [-79.391981063, 37.367268571], "type": "Point"}, "id": "d-0lwrAa_8EbXIQ7hcK3aVMDDZA=", "properties": {"@source_uri": "https://tools.usps.com/UspsToolsRestServices/rest/POLocator/findLocations", "@spider": "usps_collection_boxes", "addr:city": "GOODE", "addr:country": "US", "addr:postcode": "24556", "addr:state": "VA", "addr:street_address": "9161 FOREST RD", "amenity": "post_box", "brand": "United States Postal Service", "brand:wikidata": "Q668687", "collection_times": "Mo-Fr 16:00; Sa 10:30", "indoor": "yes", "note": "ON 12/24 AND 12/31, THIS BOX MAY BE COLLECTED AS EARLY AS 12 NOON.", "nsi_id": "unitedstatespostalservice-a77078", "operator": "United States Postal Service", "operator:short": "USPS", "operator:type": "public", "operator:wikidata": "Q668687", "ref": "2455600002"}, "type": "Feature"}
{"geometry": {"coordinates": [-79.391981063, 37.367268571], "type": "Point"}, "id": "JsI0nOErhww99GbfWsirecIq6tM=", "properties": {"@source_uri": "https://tools.usps.com/UspsToolsRestServices/rest/POLocator/findLocations", "@spider": "usps_collection_boxes", "addr:city": "GOODE", "addr:country": "US", "addr:postcode": "24556", "addr:state": "VA", "addr:street_address": "9161 FOREST RD", "amenity": "post_box", "brand": "United States Postal Service", "brand:wikidata": "Q668687", "collection_times": "Mo-Fr 16:00; Sa 10:30", "indoor": "yes", "note": "ON 12/24 AND 12/31, THIS BOX MAY BE COLLECTED AS EARLY AS 12 NOON.", "nsi_id": "unitedstatespostalservice-a77078", "operator": "United States Postal Service", "operator:short": "USPS", "operator:type": "public", "operator:wikidata": "Q668687", "ref": "2455600004"}, "type": "Feature"}
{"geometry": {"coordinates": [-79.362264985, 36.95252548], "type": "Point"}, "id": "SCmHxr7ClgdIASr2CbUUCRGJdKE=", "properties": {"@source_uri": "https://tools.usps.com/UspsToolsRestServices/rest/POLocator/findLocations", "@spider": "usps_collection_boxes", "addr:city": "GRETNA", "addr:country": "US", "addr:postcode": "24557", "addr:state": "VA", "addr:street_address": "101 WATTS ST", "amenity": "post_box", "brand": "United States Postal Service", "brand:wikidata": "Q668687", "collection_times": "Mo-Fr 17:00; Sa 11:00", "note": "ON 12/24 AND 12/31, THIS BOX MAY BE COLLECTED AS EARLY AS 12 NOON.", "nsi_id": "unitedstatespostalservice-a77078", "operator": "United States Postal Service", "operator:short": "USPS", "operator:type": "public", "operator:wikidata": "Q668687", "ref": "2455700000"}, "type": "Feature"}
{"geometry": {"coordinates": [-79.362264985, 36.95252548], "type": "Point"}, "id": "7Sxa63ornSHLOi4OpxpAfRK5Lf0=", "properties": {"@source_uri": "https://tools.usps.com/UspsToolsRestServices/rest/POLocator/findLocations", "@spider": "usps_collection_boxes", "addr:city": "GRETNA", "addr:country": "US", "addr:postcode": "24557", "addr:state": "VA", "addr:street_address": "101 WATTS ST", "amenity": "post_box", "brand": "United States Postal Service", "brand:wikidata": "Q668687", "collection_times": "Mo-Fr 17:00; Sa 11:00", "indoor": "yes", "note": "ON 12/24 AND 12/31, THIS BOX MAY BE COLLECTED AS EARLY AS 12 NOON.", "nsi_id": "unitedstatespostalservice-a77078", "operator": "United States Postal Service", "operator:short": "USPS", "operator:type": "public", "operator:wikidata": "Q668687", "ref": "2455700001"}, "type": "Feature"}
{"geometry": {"coordinates": [-79.362264985, 36.95252548], "type": "Point"}, "id": "FdSldyP6zGEulDSDw63E0cTpvyU=", "properties": {"@source_uri": "https://tools.usps.com/UspsToolsRestServices/rest/POLocator/findLocations", "@spider": "usps_collection_boxes", "addr:city": "GRETNA", "addr:country": "US", "addr:postcode": "24557", "addr:state": "VA", "addr:street_address": "101 WATTS ST", "amenity": "post_box", "brand": "United States Postal Service", "brand:wikidata": "Q668687", "collection_times": "Mo-Fr 17:00; Sa 11:00", "indoor": "yes", "note": "ON 12/24 AND 12/31, THIS BOX MAY BE COLLECTED AS EARLY AS 12 NOON.", "nsi_id": "unitedstatespostalservice-a77078", "operator": "United States Postal Service", "operator:short": "USPS", "operator:type": "public", "operator:wikidata": "Q668687", "ref": "2455700003"}, "type": "Feature"}
{"geometry": {"coordinates": [-78.928269425, 36.762912449], "type": "Point"}, "id": "znC_f7_NHeU-efGqD_FfiyuJ-ow=", "properties": {"@source_uri": "https://tools.usps.com/UspsToolsRestServices/rest/POLocator/findLocations", "@spider": "usps_collection_boxes", "addr:city": "HALIFAX", "addr:country": "US", "addr:postcode": "24558", "addr:state": "VA", "addr:street_address": "231 S MAIN ST", "amenity": "post_box", "brand": "United States Postal Service", "brand:wikidata": "Q668687", "collection_times": "Mo-Fr 16:15; Sa 11:15", "note": "ON 12/24 AND 12/31, THIS BOX MAY BE COLLECTED AS EARLY AS 12 NOON.", "nsi_id": "unitedstatespostalservice-a77078", "operator": "United States Postal Service", "operator:short": "USPS", "operator:type": "public", "operator:wikidata": "Q668687", "ref": "2455800000"}, "type": "Feature"}
{"geometry": {"coordinates": [-78.928269425, 36.762912449], "type": "Point"}, "id": "59e1gaCvTbXr99cDhAgJxklmFiA=", "properties": {"@source_uri": "https://tools.usps.com/UspsToolsRestServices/rest/POLocator/findLocations", "@spider": "usps_collection_boxes", "addr:city": "HALIFAX", "addr:country": "US", "addr:postcode": "24558", "addr:state": "VA", "addr:street_address": "231 S MAIN ST", "amenity": "post_box", "brand": "United States Postal Service", "brand:wikidata": "Q668687", "collection_times": "Mo-Fr 16:15; Sa 11:15", "note": "ON 12/24 AND 12/31, THIS BOX MAY BE COLLECTED AS EARLY AS 12 NOON.", "nsi_id": "unitedstatespostalservice-a77078", "operator": "United States Postal Service", "operator:short": "USPS", "operator:type": "public", "operator:wikidata": "Q668687", "ref": "2455800001"}, "type": "Feature"}
{"geometry": {"coordinates": [-78.928269425, 36.762912449], "type": "Point"}, "id": "wvhBjW-XfaZPkAQCi_Q16oNg7Sc=", "properties": {"@source_uri": "https://tools.usps.com/UspsToolsRestServices/rest/POLocator/findLocations", "@spider": "usps_collection_boxes", "addr:city": "HALIFAX", "addr:country": "US", "addr:postcode": "24558", "addr:state": "VA", "addr:street_address": "231 S MAIN ST", "amenity": "post_box", "brand": "United States Postal Service", "brand:wikidata": "Q668687", "collection_times": "Mo-Fr 16:15; Sa 11:15", "indoor": "yes", "note": "ON 12/24 AND 12/31, THIS BOX MAY BE COLLECTED AS EARLY AS 12 NOON.", "nsi_id": "unitedstatespostalservice-a77078", "operator": "United States Postal Service", "operator:short": "USPS", "operator:type": "public", "operator:wikidata": "Q668687", "ref": "2455800002"}, "type": "Feature"}
{"geometry": {"coordinates": [-78.928269425, 36.762912449], "type": "Point"}, "id": "qGzm6Zto_UQKgZVlF5ZgH1FAE58=", "properties": {"@source_uri": "https://tools.usps.com/UspsToolsRestServices/rest/POLocator/findLocations", "@spider": "usps_collection_boxes", "addr:city": "HALIFAX", "addr:country": "US", "addr:postcode": "24558", "addr:state": "VA", "addr:street_address": "231 S MAIN ST", "amenity": "post_box", "brand": "United States Postal Service", "brand:wikidata": "Q668687", "collection_times": "Mo-Fr 16:30", "indoor": "yes", "note": "ON 12/24 AND 12/31, THIS BOX MAY BE COLLECTED AS EARLY AS 12 NOON.", "nsi_id": "unitedstatespostalservice-a77078", "operator": "United States Postal Service", "operator:short": "USPS", "operator:type": "public", "operator:wikidata": "Q668687", "ref": "2455800004"}, "type": "Feature"}
{"geometry": {"coordinates": [-79.301997781, 37.102132473], "type": "Point"}, "id": "zDTNxNXT4PjTEt26Z8Upp07f85E=", "properties": {"@source_uri": "https://tools.usps.com/UspsToolsRestServices/rest/POLocator/findLocations", "@spider": "usps_collection_boxes", "addr:city": "HURT", "addr:country": "US", "addr:postcode": "24563", "addr:state": "VA", "addr:street_address": "201 MAIN ST", "amenity": "post_box", "brand": "United States Postal Service", "brand:wikidata": "Q668687", "collection_times": "Mo-Fr 16:30; Sa 11:30", "note": "ON 12/24 AND 12/31, THIS BOX MAY BE COLLECTED AS EARLY AS 12 NOON.", "nsi_id": "unitedstatespostalservice-a77078", "operator": "United States Postal Service", "operator:short": "USPS", "operator:type": "public", "operator:wikidata": "Q668687", "ref": "2456300000"}, "type": "Feature"}
{"geometry": {"coordinates": [-79.301997781, 37.102132473], "type": "Point"}, "id": "hnF1CjXu4wHt9Q8kL_o07cxn-8c=", "properties": {"@source_uri": "https://tools.usps.com/UspsToolsRestServices/rest/POLocator/findLocations", "@spider": "usps_collection_boxes", "addr:city": "HURT", "addr:country": "US", "addr:postcode": "24563", "addr:state": "VA", "addr:street_address": "201 MAIN ST", "amenity": "post_box", "brand": "United States Postal Service", "brand:wikidata": "Q668687", "collection_times": "Mo-Fr 16:30; Sa 11:30", "indoor": "yes", "note": "ON 12/24 AND 12/31, THIS BOX MAY BE COLLECTED AS EARLY AS 12 NOON.", "nsi_id": "unitedstatespostalservice-a77078", "operator": "United States Postal Service", "operator:short": "USPS", "operator:type": "public", "operator:wikidata": "Q668687", "ref": "2456300001"}, "type": "Feature"}
{"geometry": {"coordinates": [-79.301997781, 37.102132473], "type": "Point"}, "id": "19hOnBxkySBW8Q_DyHf5Oe1Q6Fw=", "properties": {"@source_uri": "https://tools.usps.com/UspsToolsRestServices/rest/POLocator/findLocations", "@spider": "usps_collection_boxes", "addr:city": "HURT", "addr:country": "US", "addr:postcode": "24563", "addr:state": "VA", "addr:street_address": "201 MAIN ST", "amenity": "post_box", "brand": "United States Postal Service", "brand:wikidata": "Q668687", "collection_times": "Mo-Fr 16:30; Sa 11:30", "indoor": "yes", "note": "ON 12/24 AND 12/31, THIS BOX MAY BE COLLECTED AS EARLY AS 12 NOON.", "nsi_id": "unitedstatespostalservice-a77078", "operator": "United States Postal Service", "operator:short": "USPS", "operator:type": "public", "operator:wikidata": "Q668687", "ref": "2456300003"}, "type": "Feature"}
{"geometry": {"coordinates": [-79.225162, 36.839245], "type": "Point"}, "id": "OP2KPo4-vWNPtPHchFQ2ssHGSdo=", "properties": {"@source_uri": "https://tools.usps.com/UspsToolsRestServices/rest/POLocator/findLocations", "@spider": "usps_collection_boxes", "addr:city": "JAVA", "addr:country": "US", "addr:postcode": "24565", "addr:state": "VA", "addr:street_address": "3093 JAVA RD", "amenity": "post_box", "brand": "United States Postal Service", "brand:wikidata": "Q668687", "collection_times": "Mo-Fr 11:45; Sa 12:00", "nsi_id": "unitedstatespostalservice-a77078", "operator": "United States Postal Service", "operator:short": "USPS", "operator:type": "public", "operator:wikidata": "Q668687", "ref": "2456500000"}, "type": "Feature"}
{"geometry": {"coordinates": [-79.225192, 36.839157], "type": "Point"}, "id": "wyvU8MKrBTba6N7-yXSJZ1AnXUg=", "properties": {"@source_uri": "https://tools.usps.com/UspsToolsRestServices/rest/POLocator/findLocations", "@spider": "usps_collection_boxes", "addr:city": "JAVA", "addr:country": "US", "addr:postcode": "24565", "addr:state": "VA", "addr:street_address": "3093 JAVA RD", "amenity": "post_box", "brand": "United States Postal Service", "brand:wikidata": "Q668687", "collection_times": "Mo-Fr 11:45; Sa 12:00", "indoor": "yes", "nsi_id": "unitedstatespostalservice-a77078", "operator": "United States Postal Service", "operator:short": "USPS", "operator:type": "public", "operator:wikidata": "Q668687", "ref": "2456500001"}, "type": "Feature"}
{"geometry": {"coordinates": [-79.225033849, 36.839394847], "type": "Point"}, "id": "fiG92G_w8ANdHuYvBtoMgFkxUn8=", "properties": {"@source_uri": "https://tools.usps.com/UspsToolsRestServices/rest/POLocator/findLocations", "@spider": "usps_collection_boxes", "addr:city": "JAVA", "addr:country": "US", "addr:postcode": "24565", "addr:state": "VA", "addr:street_address": "3093 JAVA RD", "amenity": "post_box", "brand": "United States Postal Service", "brand:wikidata": "Q668687", "collection_times": "Mo-Sa 12:00", "indoor": "yes", "nsi_id": "unitedstatespostalservice-a77078", "operator": "United States Postal Service", "operator:short": "USPS", "operator:type": "public", "operator:wikidata": "Q668687", "ref": "2456500003"}, "type": "Feature"}
{"geometry": {"coordinates": [-79.289646, 36.715409], "type": "Point"}, "id": "4D-W24puotrh-uJMEOT0rsilZYY=", "properties": {"@source_uri": "https://tools.usps.com/UspsToolsRestServices/rest/POLocator/findLocations", "@spider": "usps_collection_boxes", "addr:city": "KEELING", "addr:country": "US", "addr:postcode": "24566", "addr:state": "VA", "addr:street_address": "12096 OLD RICHMOND RD", "amenity": "post_box", "brand": "United States Postal Service", "brand:wikidata": "Q668687", "collection_times": "Mo-Fr 12:30; Sa 10:30", "note": "ON 12/24 AND 12/31, THIS BOX MAY BE COLLECTED AS EARLY AS 12 NOON.", "nsi_id": "unitedstatespostalservice-a77078", "operator": "United States Postal Service", "operator:short": "USPS", "operator:type": "public", "operator:wikidata": "Q668687", "ref": "2456600000"}, "type": "Feature"}
{"geometry": {"coordinates": [-79.289687, 36.715387], "type": "Point"}, "id": "6MogOQPnAB9pGACTfEUk6X2xpAU=", "properties": {"@source_uri": "https://tools.usps.com/UspsToolsRestServices/rest/POLocator/findLocations", "@spider": "usps_collection_boxes", "addr:city": "KEELING", "addr:country": "US", "addr:postcode": "24566", "addr:state": "VA", "addr:street_address": "12096 OLD RICHMOND RD", "amenity": "post_box", "brand": "United States Postal Service", "brand:wikidata": "Q668687", "collection_times": "Mo-Fr 12:30; Sa 10:30", "indoor": "yes", "note": "ON 12/24 AND 12/31, THIS BOX MAY BE COLLECTED AS EARLY AS 12 NOON.", "nsi_id": "unitedstatespostalservice-a77078", "operator": "United States Postal Service", "operator:short": "USPS", "operator:type": "public", "operator:wikidata": "Q668687", "ref": "2456600001"}, "type": "Feature"}
{"geometry": {"coordinates": [-79.289617629, 36.715494689], "type": "Point"}, "id": "RQofNTaMbuBaCt119bA0m8OnKwc=", "properties": {"@source_uri": "https://tools.usps.com/UspsToolsRestServices/rest/POLocator/findLocations", "@spider": "usps_collection_boxes", "addr:city": "KEELING", "addr:country": "US", "addr:postcode": "24566", "addr:state": "VA", "addr:street_address": "12096 OLD RICHMOND RD", "amenity": "post_box", "brand": "United States Postal Service", "brand:wikidata": "Q668687", "collection_times": "Mo-Fr 12:30; Sa 10:30", "indoor": "yes", "note": "ON 12/24 AND 12/31, THIS BOX MAY BE COLLECTED AS EARLY AS 12 NOON.", "nsi_id": "unitedstatespostalservice-a77078", "operator": "United States Postal Service", "operator:short": "USPS", "operator:type": "public", "operator:wikidata": "Q668687", "ref": "2456600003"}, "type": "Feature"}
{"geometry": {"coordinates": [-79.095556, 37.078279], "type": "Point"}, "id": "7CxeXm-BWbhGS8_hzzXKyjq20N8=", "properties": {"@source_uri": "https://tools.usps.com/UspsToolsRestServices/rest/POLocator/findLocations", "@spider": "usps_collection_boxes", "addr:city": "LONG ISLAND", "addr:country": "US", "addr:postcode": "24569", "addr:state": "VA", "addr:street_address": "102 PEAK PL", "amenity": "post_box", "brand": "United States Postal Service", "brand:wikidata": "Q668687", "collection_times": "Mo-Sa 13:45", "note": "ON 12/24 AND 12/31, THIS BOX MAY BE COLLECTED AS EARLY AS 12 NOON.", "nsi_id": "unitedstatespostalservice-a77078", "operator": "United States Postal Service", "operator:short": "USPS", "operator:type": "public", "operator:wikidata": "Q668687", "ref": "2456900000"}, "type": "Feature"}
{"geometry": {"coordinates": [-79.095653, 37.078267], "type": "Point"}, "id": "o2LbZvctW-E0x2T9QAh89HQm4q0=", "properties": {"@source_uri": "https://tools.usps.com/UspsToolsRestServices/rest/POLocator/findLocations", "@spider": "usps_collection_boxes", "addr:city": "LONG ISLAND", "addr:country": "US", "addr:postcode": "24569", "addr:state": "VA", "addr:street_address": "102 PEAK PL", "amenity": "post_box", "brand": "United States Postal Service", "brand:wikidata": "Q668687", "collection_times": "Mo-Fr 13:30; Sa 13:45", "indoor": "yes", "note": "ON 12/24 AND 12/31, THIS BOX MAY BE COLLECTED AS EARLY AS 12 NOON.", "nsi_id": "unitedstatespostalservice-a77078", "operator": "United States Postal Service", "operator:short": "USPS", "operator:type": "public", "operator:wikidata": "Q668687", "ref": "2456900001"}, "type": "Feature"}
{"geometry": {"coordinates": [-79.095630056, 37.07824011], "type": "Point"}, "id": "kWd-Yi0_3TFAoUtaN4m5a1DzU7I=", "properties": {"@source_uri": "https://tools.usps.com/UspsToolsRestServices/rest/POLocator/findLocations", "@spider": "usps_collection_boxes", "addr:city": "LONG ISLAND", "addr:country": "US", "addr:postcode": "24569", "addr:state": "VA", "addr:street_address": "102 PEAK PL", "amenity": "post_box", "brand": "United States Postal Service", "brand:wikidata": "Q668687", "collection_times": "Mo-Fr 13:45; Sa 14:00", "indoor": "yes", "note": "ON 12/24 AND 12/31, THIS BOX MAY BE COLLECTED AS EARLY AS 12 NOON.", "nsi_id": "unitedstatespostalservice-a77078", "operator": "United States Postal Service", "operator:short": "USPS", "operator:type": "public", "operator:wikidata": "Q668687", "ref": "2456900003"}, "type": "Feature"}
{"geometry": {"coordinates": [-79.432123, 37.349516], "type": "Point"}, "id": "ELQQPypjL2zYFl-MH9bEA0EvotA=", "properties": {"@source_uri": "https://tools.usps.com/UspsToolsRestServices/rest/POLocator/findLocations", "@spider": "usps_collection_boxes", "addr:city": "LOWRY", "addr:country": "US", "addr:postcode": "24570", "addr:state": "VA", "addr:street_address": "3516 LOWRY RD", "amenity": "post_box", "brand": "United States Postal Service", "brand:wikidata": "Q668687", "collection_times": "Mo-Sa 11:25", "nsi_id": "unitedstatespostalservice-a77078", "operator": "United States Postal Service", "operator:short": "USPS", "operator:type": "public", "operator:wikidata": "Q668687", "ref": "2457000000"}, "type": "Feature"}
{"geometry": {"coordinates": [-79.432069, 37.349567], "type": "Point"}, "id": "RelSL81yuGFKVlUWlqVyFz9ocrE=", "properties": {"@source_uri": "https://tools.usps.com/UspsToolsRestServices/rest/POLocator/findLocations", "@spider": "usps_collection_boxes", "addr:city": "LOWRY", "addr:country": "US", "addr:postcode": "24570", "addr:state": "VA", "addr:street_address": "3516 LOWRY RD", "amenity": "post_box", "brand": "United States Postal Service", "brand:wikidata": "Q668687", "collection_times": "Mo-Sa 11:25", "indoor": "yes", "nsi_id": "unitedstatespostalservice-a77078", "operator": "United States Postal Service", "operator:short": "USPS", "operator:type": "public", "operator:wikidata": "Q668687", "ref": "2457000001"}, "type": "Feature"}
{"geometry": {"coordinates": [-79.432139346, 37.349540867], "type": "Point"}, "id": "jO2lENCHbsxW6cfk3aZXynHUPxA=", "properties": {"@source_uri": "https://tools.usps.com/UspsToolsRestServices/rest/POLocator/findLocations", "@spider": "usps_collection_boxes", "addr:city": "LOWRY", "addr:country": "US", "addr:postcode": "24570", "addr:state": "VA", "addr:street_address": "3516 LOWRY RD", "amenity": "post_box", "brand": "United States Postal Service", "brand:wikidata": "Q668687", "collection_times": "Mo-Sa 11:30", "indoor": "yes", "nsi_id": "unitedstatespostalservice-a77078", "operator": "United States Postal Service", "operator:short": "USPS", "operator:type": "public", "operator:wikidata": "Q668687", "ref": "2457000003"}, "type": "Feature"}
{"geometry": {"coordinates": [-79.3015179, 37.148538], "type": "Point"}, "id": "h85vCMjJBic7oomuvN5iGRoqDKI=", "properties": {"@source_uri": "https://tools.usps.com/UspsToolsRestServices/rest/POLocator/findLocations", "@spider": "usps_collection_boxes", "addr:city": "LYNCH STATION", "addr:country": "US", "addr:postcode": "24571", "addr:state": "VA", "addr:street_address": "969 POWELL RD", "amenity": "post_box", "brand": "United States Postal Service", "brand:wikidata": "Q668687", "collection_times": "Mo-Fr 14:45; Sa 10:15", "note": "ON 12/24 AND 12/31, THIS BOX MAY BE COLLECTED AS EARLY AS 12 NOON.", "nsi_id": "unitedstatespostalservice-a77078", "operator": "United States Postal Service", "operator:short": "USPS", "operator:type": "public", "operator:wikidata": "Q668687", "ref": "2457100000"}, "type": "Feature"}
{"geometry": {"coordinates": [-79.3016655, 37.148573], "type": "Point"}, "id": "DPQPDBOT6CCkKcOak9FSZ1BjBDQ=", "properties": {"@source_uri": "https://tools.usps.com/UspsToolsRestServices/rest/POLocator/findLocations", "@spider": "usps_collection_boxes", "addr:city": "LYNCH STATION", "addr:country": "US", "addr:postcode": "24571", "addr:state": "VA", "addr:street_address": "969 POWELL RD", "amenity": "post_box", "brand": "United States Postal Service", "brand:wikidata": "Q668687", "collection_times": "Mo-Fr 14:45; Sa 10:30", "indoor": "yes", "note": "ON 12/24 AND 12/31, THIS BOX MAY BE COLLECTED AS EARLY AS 12 NOON.", "nsi_id": "unitedstatespostalservice-a77078", "operator": "United States Postal Service", "operator:short": "USPS", "operator:type": "public", "operator:wikidata": "Q668687", "ref": "2457100002"}, "type": "Feature"}
{"geometry": {"coordinates": [-79.301455071, 37.148532842], "type": "Point"}, "id": "GsR0h4Bj_oZ9EJluTpViEED5yfA=", "properties": {"@source_uri": "https://tools.usps.com/UspsToolsRestServices/rest/POLocator/findLocations", "@spider": "usps_collection_boxes", "addr:city": "LYNCH STATION", "addr:country": "US", "addr:postcode": "24571", "addr:state": "VA", "addr:street_address": "969 POWELL RD", "amenity": "post_box", "brand": "United States Postal Service", "brand:wikidata": "Q668687", "collection_times": "Mo-Fr 15:00; Sa 10:30", "indoor": "yes", "note": "ON 12/24 AND 12/31, THIS BOX MAY BE COLLECTED AS EARLY AS 12 NOON.", "nsi_id": "unitedstatespostalservice-a77078", "operator": "United States Postal Service", "operator:short": "USPS", "operator:type": "public", "operator:wikidata": "Q668687", "ref": "2457100004"}, "type": "Feature"}
{"geometry": {"coordinates": [-79.11704581, 37.441096787], "type": "Point"}, "id": "Tbb_FDXVqFFX6DXRVoFUurgjawo=", "properties": {"@source_uri": "https://tools.usps.com/UspsToolsRestServices/rest/POLocator/findLocations", "@spider": "usps_collection_boxes", "addr:city": "MADISON HEIGHTS", "addr:country": "US", "addr:postcode": "24572", "addr:state": "VA", "addr:street_address": "158 LAKEVIEW DR", "amenity": "post_box", "brand": "United States Postal Service", "brand:wikidata": "Q668687", "collection_times": "Mo-Fr 17:00; Sa 16:00", "note": "ON 12/24 AND 12/31, THIS BOX MAY BE COLLECTED AS EARLY AS 12 NOON.", "nsi_id": "unitedstatespostalservice-a77078", "operator": "United States Postal Service", "operator:short": "USPS", "operator:type": "public", "operator:wikidata": "Q668687", "ref": "2457200000"}, "type": "Feature"}
{"geometry": {"coordinates": [-79.11704581, 37.441096787], "type": "Point"}, "id": "4biZnECxMBV1iFw2-LQC_m_OuXc=", "properties": {"@source_uri": "https://tools.usps.com/UspsToolsRestServices/rest/POLocator/findLocations", "@spider": "usps_collection_boxes", "addr:city": "MADISON HEIGHTS", "addr:country": "US", "addr:postcode": "24572", "addr:state": "VA", "addr:street_address": "158 LAKEVIEW DR", "amenity": "post_box", "brand": "United States Postal Service", "brand:wikidata": "Q668687", "collection_times": "Mo-Fr 17:00; Sa 16:00", "indoor": "yes", "note": "ON 12/24 AND 12/31, THIS BOX MAY BE COLLECTED AS EARLY AS 12 NOON.", "nsi_id": "unitedstatespostalservice-a77078", "operator": "United States Postal Service", "operator:short": "USPS", "operator:type": "public", "operator:wikidata": "Q668687", "ref": "2457200001"}, "type": "Feature"}
{"geometry": {"coordinates": [-79.11704581, 37.441096787], "type": "Point"}, "id": "AZPZUJ5f4qzuILesnmWiF-SNCqI=", "properties": {"@source_uri": "https://tools.usps.com/UspsToolsRestServices/rest/POLocator/findLocations", "@spider": "usps_collection_boxes", "addr:city": "MADISON HEIGHTS", "addr:country": "US", "addr:postcode": "24572", "addr:state": "VA", "addr:street_address": "158 LAKEVIEW DR", "amenity": "post_box", "brand": "United States Postal Service", "brand:wikidata": "Q668687", "collection_times": "Mo-Fr 17:00; Sa 10:30", "indoor": "yes", "note": "ON 12/24 AND 12/31, THIS BOX MAY BE COLLECTED AS EARLY AS 12 NOON.", "nsi_id": "unitedstatespostalservice-a77078", "operator": "United States Postal Service", "operator:short": "USPS", "operator:type": "public", "operator:wikidata": "Q668687", "ref": "2457200004"}, "type": "Feature"}
{"geometry": {"coordinates": [-79.124282654, 37.490453006], "type": "Point"}, "id": "KrMMLBz0swVTcKc1AA3zHsOmVdk=", "properties": {"@source_uri": "https://tools.usps.com/UspsToolsRestServices/rest/POLocator/findLocations", "@spider": "usps_collection_boxes", "addr:city": "MONROE", "addr:country": "US", "addr:postcode": "24574", "addr:state": "VA", "addr:street_address": "3378 S AMHERST HWY", "amenity": "post_box", "brand": "United States Postal Service", "brand:wikidata": "Q668687", "collection_times": "Mo-Fr 16:45; Sa 10:45", "note": "ON 12/24 AND 12/31, THIS BOX MAY BE COLLECTED AS EARLY AS 12 NOON.", "nsi_id": "unitedstatespostalservice-a77078", "operator": "United States Postal Service", "operator:short": "USPS", "operator:type": "public", "operator:wikidata": "Q668687", "ref": "2457400000"}, "type": "Feature"}
{"geometry": {"coordinates": [-79.124282654, 37.490453006], "type": "Point"}, "id": "Aw7RJqzycB-9didURXSUmzyxAMI=", "properties": {"@source_uri": "https://tools.usps.com/UspsToolsRestServices/rest/POLocator/findLocations", "@spider": "usps_collection_boxes", "addr:city": "MONROE", "addr:country": "US", "addr:postcode": "24574", "addr:state": "VA", "addr:street_address": "3378 S AMHERST HWY", "amenity": "post_box", "brand": "United States Postal Service", "brand:wikidata": "Q668687", "collection_times": "Mo-Fr 16:45; Sa 10:45", "indoor": "yes", "note": "ON 12/24 AND 12/31, THIS BOX MAY BE COLLECTED AS EARLY AS 12 NOON.", "nsi_id": "unitedstatespostalservice-a77078", "operator": "United States Postal Service", "operator:short": "USPS", "operator:type": "public", "operator:wikidata": "Q668687", "ref": "2457400001"}, "type": "Feature"}
{"geometry": {"coordinates": [-79.124282654, 37.490453006], "type": "Point"}, "id": "Ig4oltfDYqCFr6PNgO-LVt_UkT8=", "properties": {"@source_uri": "https://tools.usps.com/UspsToolsRestServices/rest/POLocator/findLocations", "@spider": "usps_collection_boxes", "addr:city": "MONROE", "addr:country": "US", "addr:postcode": "24574", "addr:state": "VA", "addr:street_address": "3378 S AMHERST HWY", "amenity": "post_box", "brand": "United States Postal Service", "brand:wikidata": "Q668687", "collection_times": "Mo-Fr 16:45; Sa 10:45", "indoor": "yes", "note": "ON 12/24 AND 12/31, THIS BOX MAY BE COLLECTED AS EARLY AS 12 NOON.", "nsi_id": "unitedstatespostalservice-a77078", "operator": "United States Postal Service", "operator:short": "USPS", "operator:type": "public", "operator:wikidata": "Q668687", "ref": "2457400002"}, "type": "Feature"}
{"geometry": {"coordinates": [-79.124282654, 37.490453006], "type": "Point"}, "id": "GVAwtfYgBuCKQZ98P8GpmkvW_o0=", "properties": {"@source_uri": "https://tools.usps.com/UspsToolsRestServices/rest/POLocator/findLocations", "@spider": "usps_collection_boxes", "addr:city": "MONROE", "addr:country": "US", "addr:postcode": "24574", "addr:state": "VA", "addr:street_address": "3378 S AMHERST HWY", "amenity": "post_box", "brand": "United States Postal Service", "brand:wikidata": "Q668687", "collection_times": "Mo-Fr 17:00; Sa 11:00", "indoor": "yes", "note": "ON 12/24 AND 12/31, THIS BOX MAY BE COLLECTED AS EARLY AS 12 NOON.", "nsi_id": "unitedstatespostalservice-a77078", "operator": "United States Postal Service", "operator:short": "USPS", "operator:type": "public", "operator:wikidata": "Q668687", "ref": "2457400005"}, "type": "Feature"}
{"geometry": {"coordinates": [-78.942428, 37.048163], "type": "Point"}, "id": "i3A01NhyboTDZ2S2FeWI__gBfMQ=", "properties": {"@source_uri": "https://tools.usps.com/UspsToolsRestServices/rest/POLocator/findLocations", "@spider": "usps_collection_boxes", "addr:city": "NARUNA", "addr:country": "US", "addr:postcode": "24576", "addr:state": "VA", "addr:street_address": "438 WHIPPING CREEK RD", "amenity": "post_box", "brand": "United States Postal Service", "brand:wikidata": "Q668687", "collection_times": "Mo-Fr 11:45; Sa 10:15", "nsi_id": "unitedstatespostalservice-a77078", "operator": "United States Postal Service", "operator:short": "USPS", "operator:type": "public", "operator:wikidata": "Q668687", "ref": "2457600000"}, "type": "Feature"}
{"geometry": {"coordinates": [-78.942428, 37.048163], "type": "Point"}, "id": "1fjvZZeTNU4-2tK_QgbKUFLCKWo=", "properties": {"@source_uri": "https://tools.usps.com/UspsToolsRestServices/rest/POLocator/findLocations", "@spider": "usps_collection_boxes", "addr:city": "NARUNA", "addr:country": "US", "addr:postcode": "24576", "addr:state": "VA", "addr:street_address": "438 WHIPPING CREEK RD", "amenity": "post_box", "brand": "United States Postal Service", "brand:wikidata": "Q668687", "collection_times": "Mo-Fr 11:45; Sa 10:15", "indoor": "yes", "nsi_id": "unitedstatespostalservice-a77078", "operator": "United States Postal Service", "operator:short": "USPS", "operator:type": "public", "operator:wikidata": "Q668687", "ref": "2457600001"}, "type": "Feature"}
{"geometry": {"coordinates": [-79.000459479, 37.105029181], "type": "Point"}, "id": "M_-Sh5k9uWOR8hX_p2-RhQlHX8A=", "properties": {"@source_uri": "https://tools.usps.com/UspsToolsRestServices/rest/POLocator/findLocations", "@spider": "usps_collection_boxes", "addr:city": "NARUNA", "addr:country": "US", "addr:postcode": "24576", "addr:state": "VA", "addr:street_address": "438 WHIPPING CREEK RD", "amenity": "post_box", "brand": "United States Postal Service", "brand:wikidata": "Q668687", "collection_times": "Mo-Fr 12:00; Sa 11:15", "indoor": "yes", "nsi_id": "unitedstatespostalservice-a77078", "operator": "United States Postal Service", "operator:short": "USPS", "operator:type": "public", "operator:wikidata": "Q668687", "ref": "2457600003"}, "type": "Feature"}
{"geometry": {"coordinates": [-78.951359987, 36.921759531], "type": "Point"}, "id": "Eyl-hgp_WQw2SWPNqE1zY4wFVOs=", "properties": {"@source_uri": "https://tools.usps.com/UspsToolsRestServices/rest/POLocator/findLocations", "@spider": "usps_collection_boxes", "addr:city": "NATHALIE", "addr:country": "US", "addr:postcode": "24577", "addr:state": "VA", "addr:street_address": "1031 VOLENS RD", "amenity": "post_box", "brand": "United States Postal Service", "brand:wikidata": "Q668687", "collection_times": "Mo-Fr 16:30; Sa 10:00", "indoor": "yes", "note": "ON 12/24 AND 12/31, THIS BOX MAY BE COLLECTED AS EARLY AS 12 NOON.", "nsi_id": "unitedstatespostalservice-a77078", "operator": "United States Postal Service", "operator:short": "USPS", "operator:type": "public", "operator:wikidata": "Q668687", "ref": "2457700002"}, "type": "Feature"}
{"geometry": {"coordinates": [-78.951359987, 36.921759531], "type": "Point"}, "id": "1OajswRphPjWhla6Vd7WoA3b6uc=", "properties": {"@source_uri": "https://tools.usps.com/UspsToolsRestServices/rest/POLocator/findLocations", "@spider": "usps_collection_boxes", "addr:city": "NATHALIE", "addr:country": "US", "addr:postcode": "24577", "addr:state": "VA", "addr:street_address": "1031 VOLENS RD", "amenity": "post_box", "brand": "United States Postal Service", "brand:wikidata": "Q668687", "collection_times": "Mo-Fr 16:30; Sa 10:00", "indoor": "yes", "note": "ON 12/24 AND 12/31, THIS BOX MAY BE COLLECTED AS EARLY AS 12 NOON.", "nsi_id": "unitedstatespostalservice-a77078", "operator": "United States Postal Service", "operator:short": "USPS", "operator:type": "public", "operator:wikidata": "Q668687", "ref": "2457700003"}, "type": "Feature"}
{"geometry": {"coordinates": [-78.951359987, 36.921759531], "type": "Point"}, "id": "s-TRHh-tqWDMPfd8wr1F8h6zLoo=", "properties": {"@source_uri": "https://tools.usps.com/UspsToolsRestServices/rest/POLocator/findLocations", "@spider": "usps_collection_boxes", "addr:city": "NATHALIE", "addr:country": "US", "addr:postcode": "24577", "addr:state": "VA", "addr:street_address": "1031 VOLENS RD", "amenity": "post_box", "brand": "United States Postal Service", "brand:wikidata": "Q668687", "collection_times": "Mo-Fr 16:30; Sa 10:00", "note": "ON 12/24 AND 12/31, THIS BOX MAY BE COLLECTED AS EARLY AS 12 NOON.", "nsi_id": "unitedstatespostalservice-a77078", "operator": "United States Postal Service", "operator:short": "USPS", "operator:type": "public", "operator:wikidata": "Q668687", "ref": "2457700004"}, "type": "Feature"}
{"geometry": {"coordinates": [-78.951359987, 36.921759531], "type": "Point"}, "id": "thUAWpMnQvM-lZYgPWvdPts6e9M=", "properties": {"@source_uri": "https://tools.usps.com/UspsToolsRestServices/rest/POLocator/findLocations", "@spider": "usps_collection_boxes", "addr:city": "NATHALIE", "addr:country": "US", "addr:postcode": "24577", "addr:state": "VA", "addr:street_address": "1031 VOLENS RD", "amenity": "post_box", "brand": "United States Postal Service", "brand:wikidata": "Q668687", "collection_times": "Mo-Fr 17:00; Sa 10:00", "indoor": "yes", "note": "ON 12/24 AND 12/31, THIS BOX MAY BE COLLECTED AS EARLY AS 12 NOON.", "nsi_id": "unitedstatespostalservice-a77078", "operator": "United States Postal Service", "operator:short": "USPS", "operator:type": "public", "operator:wikidata": "Q668687", "ref": "2457700006"}, "type": "Feature"}
{"geometry": {"coordinates": [-79.543833, 37.629486], "type": "Point"}, "id": "zy0K8HNfkA_NYeZUEGhSGvWWrLE=", "properties": {"@source_uri": "https://tools.usps.com/UspsToolsRestServices/rest/POLocator/findLocations", "@spider": "usps_collection_boxes", "addr:city": "NATURAL BRIDGE", "addr:country": "US", "addr:postcode": "24578", "addr:state": "VA", "addr:street_address": "6477 S LEE HWY", "amenity": "post_box", "brand": "United States Postal Service", "brand:wikidata": "Q668687", "collection_times": "Mo-Fr 11:45; Sa 11:00", "nsi_id": "unitedstatespostalservice-a77078", "operator": "United States Postal Service", "operator:short": "USPS", "operator:type": "public", "operator:wikidata": "Q668687", "ref": "2457800000"}, "type": "Feature"}
{"geometry": {"coordinates": [-79.54389, 37.62946], "type": "Point"}, "id": "m_3OCPxr3X37JiTR2s1xoeKu7qg=", "properties": {"@source_uri": "https://tools.usps.com/UspsToolsRestServices/rest/POLocator/findLocations", "@spider": "usps_collection_boxes", "addr:city": "NATURAL BRIDGE", "addr:country": "US", "addr:postcode": "24578", "addr:state": "VA", "addr:street_address": "6477 S LEE HWY", "amenity": "post_box", "brand": "United States Postal Service", "brand:wikidata": "Q668687", "collection_times": "Mo-Fr 11:45; Sa 11:00", "indoor": "yes", "nsi_id": "unitedstatespostalservice-a77078", "operator": "United States Postal Service", "operator:short": "USPS", "operator:type": "public", "operator:wikidata": "Q668687", "ref": "2457800002"}, "type": "Feature"}
{"geometry": {"coordinates": [-79.543827189, 37.629445685], "type": "Point"}, "id": "6tiDRUkbivxTSllVKFKlwCNgfaQ=", "properties": {"@source_uri": "https://tools.usps.com/UspsToolsRestServices/rest/POLocator/findLocations", "@spider": "usps_collection_boxes", "addr:city": "NATURAL BRIDGE", "addr:country": "US", "addr:postcode": "24578", "addr:state": "VA", "addr:street_address": "6477 S LEE HWY", "amenity": "post_box", "brand": "United States Postal Service", "brand:wikidata": "Q668687", "collection_times": "Mo-Fr 12:00; Sa 11:45", "indoor": "yes", "nsi_id": "unitedstatespostalservice-a77078", "operator": "United States Postal Service", "operator:short": "USPS", "operator:type": "public", "operator:wikidata": "Q668687", "ref": "2457800004"}, "type": "Feature"}
{"geometry": {"coordinates": [-79.498656, 37.622223], "type": "Point"}, "id": "FrqdB0HENXmaq5bhybXjPXKSplw=", "properties": {"@source_uri": "https://tools.usps.com/UspsToolsRestServices/rest/POLocator/findLocations", "@spider": "usps_collection_boxes", "addr:city": "NAT. BRDG. STAT.", "addr:country": "US", "addr:postcode": "24579", "addr:state": "VA", "addr:street_address": "1482 WERT FULKNER HWY", "amenity": "post_box", "brand": "United States Postal Service", "brand:wikidata": "Q668687", "collection_times": "Mo-Fr 14:45; Sa 10:00", "note": "ON 12/24 AND 12/31, THIS BOX MAY BE COLLECTED AS EARLY AS 12 NOON.", "nsi_id": "unitedstatespostalservice-a77078", "operator": "United States Postal Service", "operator:short": "USPS", "operator:type": "public", "operator:wikidata": "Q668687", "ref": "2457900000"}, "type": "Feature"}
{"geometry": {"coordinates": [-79.498656, 37.622223], "type": "Point"}, "id": "_nSwBTeWP34PyYQN47iWbKiC61o=", "properties": {"@source_uri": "https://tools.usps.com/UspsToolsRestServices/rest/POLocator/findLocations", "@spider": "usps_collection_boxes", "addr:city": "NAT. BRDG. STAT.", "addr:country": "US", "addr:postcode": "24579", "addr:state": "VA", "addr:street_address": "1482 WERT FULKNER HWY", "amenity": "post_box", "brand": "United States Postal Service", "brand:wikidata": "Q668687", "collection_times": "Mo-Fr 14:45; Sa 10:00", "indoor": "yes", "note": "ON 12/24 AND 12/31, THIS BOX MAY BE COLLECTED AS EARLY AS 12 NOON.", "nsi_id": "unitedstatespostalservice-a77078", "operator": "United States Postal Service", "operator:short": "USPS", "operator:type": "public", "operator:wikidata": "Q668687", "ref": "2457900001"}, "type": "Feature"}
{"geometry": {"coordinates": [-79.498723625, 37.622177833], "type": "Point"}, "id": "2GIHiPpxbhyE72VvLnNiF09uxto=", "properties": {"@source_uri": "https://tools.usps.com/UspsToolsRestServices/rest/POLocator/findLocations", "@spider": "usps_collection_boxes", "addr:city": "NAT. BRDG. STAT.", "addr:country": "US", "addr:postcode": "24579", "addr:state": "VA", "addr:street_address": "1482 WERT FULKNER HWY", "amenity": "post_box", "brand": "United States Postal Service", "brand:wikidata": "Q668687", "collection_times": "Mo-Fr 15:00; Sa 10:00", "indoor": "yes", "note": "ON 12/24 AND 12/31, THIS BOX MAY BE COLLECTED AS EARLY AS 12 NOON.", "nsi_id": "unitedstatespostalservice-a77078", "operator": "United States Postal Service", "operator:short": "USPS", "operator:type": "public", "operator:wikidata": "Q668687", "ref": "2457900004"}, "type": "Feature"}
{"geometry": {"coordinates": [-78.704409, 36.562631], "type": "Point"}, "id": "yX0IUgiOdvkJOG0-ybxaTPc2js0=", "properties": {"@source_uri": "https://tools.usps.com/UspsToolsRestServices/rest/POLocator/findLocations", "@spider": "usps_collection_boxes", "addr:city": "NELSON", "addr:country": "US", "addr:postcode": "24580", "addr:state": "VA", "addr:street_address": "1868 HIGHWAY 49", "amenity": "post_box", "brand": "United States Postal Service", "brand:wikidata": "Q668687", "collection_times": "Mo-Fr 11:45; Sa 10:15", "nsi_id": "unitedstatespostalservice-a77078", "operator": "United States Postal Service", "operator:short": "USPS", "operator:type": "public", "operator:wikidata": "Q668687", "ref": "2458000000"}, "type": "Feature"}
{"geometry": {"coordinates": [-78.704514, 36.562614], "type": "Point"}, "id": "sr9kEhIkRGUBWWeJ0jM_PqIfDdQ=", "properties": {"@source_uri": "https://tools.usps.com/UspsToolsRestServices/rest/POLocator/findLocations", "@spider": "usps_collection_boxes", "addr:city": "NELSON", "addr:country": "US", "addr:postcode": "24580", "addr:state": "VA", "addr:street_address": "1868 HIGHWAY 49", "amenity": "post_box", "brand": "United States Postal Service", "brand:wikidata": "Q668687", "collection_times": "Mo-Fr 11:45; Sa 10:15", "indoor": "yes", "nsi_id": "unitedstatespostalservice-a77078", "operator": "United States Postal Service", "operator:short": "USPS", "operator:type": "public", "operator:wikidata": "Q668687", "ref": "2458000001"}, "type": "Feature"}
{"geometry": {"coordinates": [-78.704449977, 36.562559807], "type": "Point"}, "id": "31EJ6J5pqhXyr5qGvBUxSckWzmk=", "properties": {"@source_uri": "https://tools.usps.com/UspsToolsRestServices/rest/POLocator/findLocations", "@spider": "usps_collection_boxes", "addr:city": "NELSON", "addr:country": "US", "addr:postcode": "24580", "addr:state": "VA", "addr:street_address": "1868 HIGHWAY 49", "amenity": "post_box", "brand": "United States Postal Service", "brand:wikidata": "Q668687", "collection_times": "Mo-Fr 12:00; Sa 12:30", "indoor": "yes", "note": "ON 12/24 AND 12/31, THIS BOX MAY BE COLLECTED AS EARLY AS 12 NOON.", "nsi_id": "unitedstatespostalservice-a77078", "operator": "United States Postal Service", "operator:short": "USPS", "operator:type": "public", "operator:wikidata": "Q668687", "ref": "2458000003"}, "type": "Feature"}
{"geometry": {"coordinates": [-79.296139759, 36.610714908], "type": "Point"}, "id": "EGA1S6dm3jbxEQ19a8oj9q2mzPk=", "properties": {"@source_uri": "https://tools.usps.com/UspsToolsRestServices/rest/POLocator/findLocations", "@spider": "usps_collection_boxes", "addr:city": "RINGGOLD", "addr:country": "US", "addr:postcode": "24586", "addr:state": "VA", "addr:street_address": "4745 RINGGOLD CHURCH RD", "amenity": "post_box", "brand": "United States Postal Service", "brand:wikidata": "Q668687", "collection_times": "Mo-Fr 16:00; Sa 11:00", "note": "ON 12/24 AND 12/31, THIS BOX MAY BE COLLECTED AS EARLY AS 12 NOON.", "nsi_id": "unitedstatespostalservice-a77078", "operator": "United States Postal Service", "operator:short": "USPS", "operator:type": "public", "operator:wikidata": "Q668687", "ref": "2458600000"}, "type": "Feature"}
{"geometry": {"coordinates": [-79.296139759, 36.610714908], "type": "Point"}, "id": "Wp-fdXLdFEHB5RPGErTkKdI0a-o=", "properties": {"@source_uri": "https://tools.usps.com/UspsToolsRestServices/rest/POLocator/findLocations", "@spider": "usps_collection_boxes", "addr:city": "RINGGOLD", "addr:country": "US", "addr:postcode": "24586", "addr:state": "VA", "addr:street_address": "4745 RINGGOLD CHURCH RD", "amenity": "post_box", "brand": "United States Postal Service", "brand:wikidata": "Q668687", "collection_times": "Mo-Fr 16:00; Sa 11:00", "indoor": "yes", "note": "ON 12/24 AND 12/31, THIS BOX MAY BE COLLECTED AS EARLY AS 12 NOON.", "nsi_id": "unitedstatespostalservice-a77078", "operator": "United States Postal Service", "operator:short": "USPS", "operator:type": "public", "operator:wikidata": "Q668687", "ref": "2458600001"}, "type": "Feature"}
{"geometry": {"coordinates": [-79.296139759, 36.610714908], "type": "Point"}, "id": "RQ8iAq8LqzThc2grQXj-ijvQWeA=", "properties": {"@source_uri": "https://tools.usps.com/UspsToolsRestServices/rest/POLocator/findLocations", "@spider": "usps_collection_boxes", "addr:city": "RINGGOLD", "addr:country": "US", "addr:postcode": "24586", "addr:state": "VA", "addr:street_address": "4745 RINGGOLD CHURCH RD", "amenity": "post_box", "brand": "United States Postal Service", "brand:wikidata": "Q668687", "collection_times": "Mo-Fr 17:00; Sa 10:00", "indoor": "yes", "note": "ON 12/24 AND 12/31, THIS BOX MAY BE COLLECTED AS EARLY AS 12 NOON.", "nsi_id": "unitedstatespostalservice-a77078", "operator": "United States Postal Service", "operator:short": "USPS", "operator:type": "public", "operator:wikidata": "Q668687", "ref": "2458600003"}, "type": "Feature"}
{"geometry": {"coordinates": [-79.096057713, 37.277234401], "type": "Point"}, "id": "jYVoo8rdWfeK_uXNMutNbz_kU0Q=", "properties": {"@source_uri": "https://tools.usps.com/UspsToolsRestServices/rest/POLocator/findLocations", "@spider": "usps_collection_boxes", "addr:city": "RUSTBURG", "addr:country": "US", "addr:postcode": "24588", "addr:state": "VA", "addr:street_address": "1103 VILLAGE HWY", "amenity": "post_box", "brand": "United States Postal Service", "brand:wikidata": "Q668687", "collection_times": "Mo-Fr 16:30; Sa 10:45", "note": "ON 12/24 AND 12/31, THIS BOX MAY BE COLLECTED AS EARLY AS 12 NOON.", "nsi_id": "unitedstatespostalservice-a77078", "operator": "United States Postal Service", "operator:short": "USPS", "operator:type": "public", "operator:wikidata": "Q668687", "ref": "2458800000"}, "type": "Feature"}
{"geometry": {"coordinates": [-79.096057713, 37.277234401], "type": "Point"}, "id": "2Fkc78Z7_tnTjjKx11eTNvmp5I8=", "properties": {"@source_uri": "https://tools.usps.com/UspsToolsRestServices/rest/POLocator/findLocations", "@spider": "usps_collection_boxes", "addr:city": "RUSTBURG", "addr:country": "US", "addr:postcode": "24588", "addr:state": "VA", "addr:street_address": "1103 VILLAGE HWY", "amenity": "post_box", "brand": "United States Postal Service", "brand:wikidata": "Q668687", "collection_times": "Mo-Fr 16:30; Sa 10:45", "note": "ON 12/24 AND 12/31, THIS BOX MAY BE COLLECTED AS EARLY AS 12 NOON.", "nsi_id": "unitedstatespostalservice-a77078", "operator": "United States Postal Service", "operator:short": "USPS", "operator:type": "public", "operator:wikidata": "Q668687", "ref": "2458800001"}, "type": "Feature"}
{"geometry": {"coordinates": [-79.096057713, 37.277234401], "type": "Point"}, "id": "ecgnUxIlrf-4G3yAfoyiS1VrM9M=", "properties": {"@source_uri": "https://tools.usps.com/UspsToolsRestServices/rest/POLocator/findLocations", "@spider": "usps_collection_boxes", "addr:city": "RUSTBURG", "addr:country": "US", "addr:postcode": "24588", "addr:state": "VA", "addr:street_address": "1103 VILLAGE HWY", "amenity": "post_box", "brand": "United States Postal Service", "brand:wikidata": "Q668687", "collection_times": "Mo-Fr 16:30; Sa 11:00", "indoor": "yes", "note": "ON 12/24 AND 12/31, THIS BOX MAY BE COLLECTED AS EARLY AS 12 NOON.", "nsi_id": "unitedstatespostalservice-a77078", "operator": "United States Postal Service", "operator:short": "USPS", "operator:type": "public", "operator:wikidata": "Q668687", "ref": "2458800002"}, "type": "Feature"}
{"geometry": {"coordinates": [-79.096057713, 37.277234401], "type": "Point"}, "id": "VubN35_Y9WQea8TiWUj6bPI86IQ=", "properties": {"@source_uri": "https://tools.usps.com/UspsToolsRestServices/rest/POLocator/findLocations", "@spider": "usps_collection_boxes", "addr:city": "RUSTBURG", "addr:country": "US", "addr:postcode": "24588", "addr:state": "VA", "addr:street_address": "1103 VILLAGE HWY", "amenity": "post_box", "brand": "United States Postal Service", "brand:wikidata": "Q668687", "collection_times": "Mo-Fr 17:00; Sa 10:30", "indoor": "yes", "note": "ON 12/24 AND 12/31, THIS BOX MAY BE COLLECTED AS EARLY AS 12 NOON.", "nsi_id": "unitedstatespostalservice-a77078", "operator": "United States Postal Service", "operator:short": "USPS", "operator:type": "public", "operator:wikidata": "Q668687", "ref": "2458800006"}, "type": "Feature"}
{"geometry": {"coordinates": [-78.796593, 36.763318], "type": "Point"}, "id": "4gErfdEjDXSGMcKydG-BxSEkGxE=", "properties": {"@source_uri": "https://tools.usps.com/UspsToolsRestServices/rest/POLocator/findLocations", "@spider": "usps_collection_boxes", "addr:city": "SCOTTSBURG", "addr:country": "US", "addr:postcode": "24589", "addr:state": "VA", "addr:street_address": "2221 SCOTTSBURG RD", "amenity": "post_box", "brand": "United States Postal Service", "brand:wikidata": "Q668687", "collection_times": "Mo-Fr 12:00; Sa 11:00", "nsi_id": "unitedstatespostalservice-a77078", "operator": "United States Postal Service", "operator:short": "USPS", "operator:type": "public", "operator:wikidata": "Q668687", "ref": "2458900000"}, "type": "Feature"}
{"geometry": {"coordinates": [-78.796654, 36.763374], "type": "Point"}, "id": "3IJqIyPCa15ap2Zveg-wJQii9uU=", "properties": {"@source_uri": "https://tools.usps.com/UspsToolsRestServices/rest/POLocator/findLocations", "@spider": "usps_collection_boxes", "addr:city": "SCOTTSBURG", "addr:country": "US", "addr:postcode": "24589", "addr:state": "VA", "addr:street_address": "2221 SCOTTSBURG RD", "amenity": "post_box", "brand": "United States Postal Service", "brand:wikidata": "Q668687", "collection_times": "Mo-Fr 12:00; Sa 11:00", "indoor": "yes", "nsi_id": "unitedstatespostalservice-a77078", "operator": "United States Postal Service", "operator:short": "USPS", "operator:type": "public", "operator:wikidata": "Q668687", "ref": "2458900001"}, "type": "Feature"}
{"geometry": {"coordinates": [-78.796654, 36.763374], "type": "Point"}, "id": "DCl88AVuf8RM12G7TmUnDegaZMw=", "properties": {"@source_uri": "https://tools.usps.com/UspsToolsRestServices/rest/POLocator/findLocations", "@spider": "usps_collection_boxes", "addr:city": "SCOTTSBURG", "addr:country": "US", "addr:postcode": "24589", "addr:state": "VA", "addr:street_address": "2221 SCOTTSBURG RD", "amenity": "post_box", "brand": "United States Postal Service", "brand:wikidata": "Q668687", "collection_times": "Mo-Fr 12:00; Sa 11:00", "indoor": "yes", "nsi_id": "unitedstatespostalservice-a77078", "operator": "United States Postal Service", "operator:short": "USPS", "operator:type": "public", "operator:wikidata": "Q668687", "ref": "2458900002"}, "type": "Feature"}
{"geometry": {"coordinates": [-78.79658114, 36.763349213], "type": "Point"}, "id": "4xznZm5lfba1wITKypVZfCVeqBI=", "properties": {"@source_uri": "https://tools.usps.com/UspsToolsRestServices/rest/POLocator/findLocations", "@spider": "usps_collection_boxes", "addr:city": "SCOTTSBURG", "addr:country": "US", "addr:postcode": "24589", "addr:state": "VA", "addr:street_address": "2221 SCOTTSBURG RD", "amenity": "post_box", "brand": "United States Postal Service", "brand:wikidata": "Q668687", "collection_times": "Mo-Fr 14:45; Sa 11:00", "indoor": "yes", "note": "ON 12/24 AND 12/31, THIS BOX MAY BE COLLECTED AS EARLY AS 12 NOON.", "nsi_id": "unitedstatespostalservice-a77078", "operator": "United States Postal Service", "operator:short": "USPS", "operator:type": "public", "operator:wikidata": "Q668687", "ref": "2458900004"}, "type": "Feature"}
{"geometry": {"coordinates": [-78.50196836, 37.809170695], "type": "Point"}, "id": "Ra082IZg8ufp-_BB3204uKd3Zeg=", "properties": {"@source_uri": "https://tools.usps.com/UspsToolsRestServices/rest/POLocator/findLocations", "@spider": "usps_collection_boxes", "addr:city": "SCOTTSVILLE", "addr:country": "US", "addr:postcode": "24590", "addr:state": "VA", "addr:street_address": "110 SCOTTSVILLE CTR", "amenity": "post_box", "brand": "United States Postal Service", "brand:wikidata": "Q668687", "collection_times": "Mo-Fr 16:30; Sa 12:00", "note": "ON 12/24 AND 12/31, THIS BOX MAY BE COLLECTED AS EARLY AS 12 NOON.", "nsi_id": "unitedstatespostalservice-a77078", "operator": "United States Postal Service", "operator:short": "USPS", "operator:type": "public", "operator:wikidata": "Q668687", "ref": "2459000000"}, "type": "Feature"}
{"geometry": {"coordinates": [-78.50196836, 37.809170695], "type": "Point"}, "id": "alBdIcj8rjuMSdTW-fFmF4VaAfs=", "properties": {"@source_uri": "https://tools.usps.com/UspsToolsRestServices/rest/POLocator/findLocations", "@spider": "usps_collection_boxes", "addr:city": "SCOTTSVILLE", "addr:country": "US", "addr:postcode": "24590", "addr:state": "VA", "addr:street_address": "110 SCOTTSVILLE CTR", "amenity": "post_box", "brand": "United States Postal Service", "brand:wikidata": "Q668687", "collection_times": "Mo-Fr 16:30; Sa 15:00", "indoor": "yes", "note": "ON 12/24 AND 12/31, THIS BOX MAY BE COLLECTED AS EARLY AS 12 NOON.", "nsi_id": "unitedstatespostalservice-a77078", "operator": "United States Postal Service", "operator:short": "USPS", "operator:type": "public", "operator:wikidata": "Q668687", "ref": "2459000002"}, "type": "Feature"}
{"geometry": {"coordinates": [-78.50196836, 37.809170695], "type": "Point"}, "id": "JQgxtDXo_DUK0BptAaw0zne_g_c=", "properties": {"@source_uri": "https://tools.usps.com/UspsToolsRestServices/rest/POLocator/findLocations", "@spider": "usps_collection_boxes", "addr:city": "SCOTTSVILLE", "addr:country": "US", "addr:postcode": "24590", "addr:state": "VA", "addr:street_address": "110 SCOTTSVILLE CTR", "amenity": "post_box", "brand": "United States Postal Service", "brand:wikidata": "Q668687", "collection_times": "Mo-Fr 16:30; Sa 12:30", "indoor": "yes", "note": "ON 12/24 AND 12/31, THIS BOX MAY BE COLLECTED AS EARLY AS 12 NOON.", "nsi_id": "unitedstatespostalservice-a77078", "operator": "United States Postal Service", "operator:short": "USPS", "operator:type": "public", "operator:wikidata": "Q668687", "ref": "2459000006"}, "type": "Feature"}
{"geometry": {"coordinates": [-78.8925822, 36.69679], "type": "Point"}, "id": "9b201ji0uzDatwvGLdDbSVhvIbk=", "properties": {"@source_uri": "https://tools.usps.com/UspsToolsRestServices/rest/POLocator/findLocations", "@spider": "usps_collection_boxes", "addr:city": "SOUTH BOSTON", "addr:country": "US", "addr:postcode": "24592", "addr:state": "VA", "addr:street_address": "1600 SEYMOUR DR", "amenity": "post_box", "brand": "United States Postal Service", "brand:wikidata": "Q668687", "collection_times": "Mo-Sa 10:30", "nsi_id": "unitedstatespostalservice-a77078", "operator": "United States Postal Service", "operator:short": "USPS", "operator:type": "public", "operator:wikidata": "Q668687", "ref": "2459200000"}, "type": "Feature"}
{"geometry": {"coordinates": [-78.8985104, 36.6863], "type": "Point"}, "id": "pWvCFPccvEjRgtSPVp9IbdC00fo=", "properties": {"@source_uri": "https://tools.usps.com/UspsToolsRestServices/rest/POLocator/findLocations", "@spider": "usps_collection_boxes", "addr:city": "SOUTH BOSTON", "addr:country": "US", "addr:postcode": "24592", "addr:state": "VA", "addr:street_address": "1020 BILL TUCK HWY", "amenity": "post_box", "brand": "United States Postal Service", "brand:wikidata": "Q668687", "collection_times": "Mo-Sa 09:30", "nsi_id": "unitedstatespostalservice-a77078", "operator": "United States Postal Service", "operator:short": "USPS", "operator:type": "public", "operator:wikidata": "Q668687", "ref": "2459200003"}, "type": "Feature"}
{"geometry": {"coordinates": [-78.9103831, 36.706376], "type": "Point"}, "id": "W1xp7rQAXFQS3-CgyzzTMh6sxOA=", "properties": {"@source_uri": "https://tools.usps.com/UspsToolsRestServices/rest/POLocator/findLocations", "@spider": "usps_collection_boxes", "addr:city": "SOUTH BOSTON", "addr:country": "US", "addr:postcode": "24592", "addr:state": "VA", "addr:street_address": "1602 WILBORN AVE", "amenity": "post_box", "brand": "United States Postal Service", "brand:wikidata": "Q668687", "collection_times": "Mo-Sa 10:00", "nsi_id": "unitedstatespostalservice-a77078", "operator": "United States Postal Service", "operator:short": "USPS", "operator:type": "public", "operator:wikidata": "Q668687", "ref": "2459200004"}, "type": "Feature"}
{"geometry": {"coordinates": [-78.9017949, 36.69869], "type": "Point"}, "id": "L2dUT2lgM7UyQEtKFzSwDbCgDwI=", "properties": {"@source_uri": "https://tools.usps.com/UspsToolsRestServices/rest/POLocator/findLocations", "@spider": "usps_collection_boxes", "addr:city": "SOUTH BOSTON", "addr:country": "US", "addr:postcode": "24592", "addr:state": "VA", "addr:street_address": "500 WILBORN AVE", "amenity": "post_box", "brand": "United States Postal Service", "brand:wikidata": "Q668687", "collection_times": "Mo-Sa 09:00", "nsi_id": "unitedstatespostalservice-a77078", "operator": "United States Postal Service", "operator:short": "USPS", "operator:type": "public", "operator:wikidata": "Q668687", "ref": "2459200008"}, "type": "Feature"}
{"geometry": {"coordinates": [-78.9012731, 36.697127], "type": "Point"}, "id": "YMZQR1KZjEHrI4mK1c4qYBDZJow=", "properties": {"@source_uri": "https://tools.usps.com/UspsToolsRestServices/rest/POLocator/findLocations", "@spider": "usps_collection_boxes", "addr:city": "SOUTH BOSTON", "addr:country": "US", "addr:postcode": "24592", "addr:state": "VA", "addr:street_address": "300 MAIN ST", "amenity": "post_box", "brand": "United States Postal Service", "brand:wikidata": "Q668687", "collection_times": "Mo-Sa 09:00", "nsi_id": "unitedstatespostalservice-a77078", "operator": "United States Postal Service", "operator:short": "USPS", "operator:type": "public", "operator:wikidata": "Q668687", "ref": "2459200009"}, "type": "Feature"}
{"geometry": {"coordinates": [-78.9142153, 36.713516], "type": "Point"}, "id": "BaxH1Sim5VMYdr-U9fivyj8Df4M=", "properties": {"@source_uri": "https://tools.usps.com/UspsToolsRestServices/rest/POLocator/findLocations", "@spider": "usps_collection_boxes", "addr:city": "SOUTH BOSTON", "addr:country": "US", "addr:postcode": "24592", "addr:state": "VA", "addr:street_address": "2204 WILBORN AVE", "amenity": "post_box", "brand": "United States Postal Service", "brand:wikidata": "Q668687", "collection_times": "Mo-Sa 13:00", "note": "ON 12/24 AND 12/31, THIS BOX MAY BE COLLECTED AS EARLY AS 12 NOON.", "nsi_id": "unitedstatespostalservice-a77078", "operator": "United States Postal Service", "operator:short": "USPS", "operator:type": "public", "operator:wikidata": "Q668687", "ref": "2459200011"}, "type": "Feature"}
{"geometry": {"coordinates": [-78.9118237, 36.713508], "type": "Point"}, "id": "sAA9ilbFsp_HOxedg3xUbaBbtek=", "properties": {"@source_uri": "https://tools.usps.com/UspsToolsRestServices/rest/POLocator/findLocations", "@spider": "usps_collection_boxes", "addr:city": "SOUTH BOSTON", "addr:country": "US", "addr:postcode": "24592", "addr:state": "VA", "addr:street_address": "2111 WILBORN AVE", "amenity": "post_box", "brand": "United States Postal Service", "brand:wikidata": "Q668687", "collection_times": "Mo-Sa 10:00", "nsi_id": "unitedstatespostalservice-a77078", "operator": "United States Postal Service", "operator:short": "USPS", "operator:type": "public", "operator:wikidata": "Q668687", "ref": "2459200012"}, "type": "Feature"}
{"geometry": {"coordinates": [-78.9204188, 36.735302], "type": "Point"}, "id": "9_9lZktjj9FcZGIZDzahyzE6cBg=", "properties": {"@source_uri": "https://tools.usps.com/UspsToolsRestServices/rest/POLocator/findLocations", "@spider": "usps_collection_boxes", "addr:city": "SOUTH BOSTON", "addr:country": "US", "addr:postcode": "24592", "addr:state": "VA", "addr:street_address": "3300 HALIFAX RD", "amenity": "post_box", "brand": "United States Postal Service", "brand:wikidata": "Q668687", "collection_times": "Mo-Sa 13:00", "note": "ON 12/24 AND 12/31, THIS BOX MAY BE COLLECTED AS EARLY AS 12 NOON.", "nsi_id": "unitedstatespostalservice-a77078", "operator": "United States Postal Service", "operator:short": "USPS", "operator:type": "public", "operator:wikidata": "Q668687", "ref": "2459200014"}, "type": "Feature"}
{"geometry": {"coordinates": [-78.900326, 36.69961], "type": "Point"}, "id": "aM-5iEXdsnp7TArKINBVMRphGvs=", "properties": {"@source_uri": "https://tools.usps.com/UspsToolsRestServices/rest/POLocator/findLocations", "@spider": "usps_collection_boxes", "addr:city": "SOUTH BOSTON", "addr:country": "US", "addr:postcode": "24592", "addr:state": "VA", "addr:street_address": "600 N MAIN ST", "amenity": "post_box", "brand": "United States Postal Service", "brand:wikidata": "Q668687", "collection_times": "Mo-Fr 17:15; Sa 15:00", "note": "ON 12/24 AND 12/31, THIS BOX MAY BE COLLECTED AS EARLY AS 12 NOON.", "nsi_id": "unitedstatespostalservice-a77078", "operator": "United States Postal Service", "operator:short": "USPS", "operator:type": "public", "operator:wikidata": "Q668687", "ref": "2459200016"}, "type": "Feature"}
{"geometry": {"coordinates": [-78.9004813794, 36.6995644954], "type": "Point"}, "id": "3RNsm0x9Sv9laxTIzc-4Uxm_w3g=", "properties": {"@source_uri": "https://tools.usps.com/UspsToolsRestServices/rest/POLocator/findLocations", "@spider": "usps_collection_boxes", "addr:city": "SOUTH BOSTON", "addr:country": "US", "addr:postcode": "24592", "addr:state": "VA", "addr:street_address": "600 BROAD ST", "amenity": "post_box", "brand": "United States Postal Service", "brand:wikidata": "Q668687", "collection_times": "Mo-Fr 17:15; Sa 15:00", "note": "ON 12/24 AND 12/31, THIS BOX MAY BE COLLECTED AS EARLY AS 12 NOON.", "nsi_id": "unitedstatespostalservice-a77078", "operator": "United States Postal Service", "operator:short": "USPS", "operator:type": "public", "operator:wikidata": "Q668687", "ref": "2459200017"}, "type": "Feature"}
{"geometry": {"coordinates": [-78.9095731, 36.735072], "type": "Point"}, "id": "_HNW4_TLj_hDRH0Oi5x33K0xVUI=", "properties": {"@source_uri": "https://tools.usps.com/UspsToolsRestServices/rest/POLocator/findLocations", "@spider": "usps_collection_boxes", "addr:city": "SOUTH BOSTON", "addr:country": "US", "addr:postcode": "24592", "addr:state": "VA", "addr:street_address": "3459 OLD HALIFAX RD", "amenity": "post_box", "brand": "United States Postal Service", "brand:wikidata": "Q668687", "collection_times": "Mo-Sa 12:00", "nsi_id": "unitedstatespostalservice-a77078", "operator": "United States Postal Service", "operator:short": "USPS", "operator:type": "public", "operator:wikidata": "Q668687", "ref": "2459200021"}, "type": "Feature"}
{"geometry": {"coordinates": [-78.90021479, 36.699601769], "type": "Point"}, "id": "imzEwrfcgVvvhDfPeKjiYVSZWKI=", "properties": {"@source_uri": "https://tools.usps.com/UspsToolsRestServices/rest/POLocator/findLocations", "@spider": "usps_collection_boxes", "addr:city": "SOUTH BOSTON", "addr:country": "US", "addr:postcode": "24592", "addr:state": "VA", "addr:street_address": "601 N MAIN ST", "amenity": "post_box", "brand": "United States Postal Service", "brand:wikidata": "Q668687", "collection_times": "Mo-Fr 17:45; Sa 17:00", "indoor": "yes", "note": "ON 12/24 AND 12/31, THIS BOX MAY BE COLLECTED AS EARLY AS 12 NOON.", "nsi_id": "unitedstatespostalservice-a77078", "operator": "United States Postal Service", "operator:short": "USPS", "operator:type": "public", "operator:wikidata": "Q668687", "ref": "2459200022"}, "type": "Feature"}
{"geometry": {"coordinates": [-78.8923646, 36.715089], "type": "Point"}, "id": "jpk_AhN5HdYDJlxRG0DGZiXN9ek=", "properties": {"@source_uri": "https://tools.usps.com/UspsToolsRestServices/rest/POLocator/findLocations", "@spider": "usps_collection_boxes", "addr:city": "SOUTH BOSTON", "addr:country": "US", "addr:postcode": "24592", "addr:state": "VA", "addr:street_address": "2500 HOUGTON AVE", "amenity": "post_box", "brand": "United States Postal Service", "brand:wikidata": "Q668687", "collection_times": "Mo-Sa 10:00", "nsi_id": "unitedstatespostalservice-a77078", "operator": "United States Postal Service", "operator:short": "USPS", "operator:type": "public", "operator:wikidata": "Q668687", "ref": "2459200023"}, "type": "Feature"}
{"geometry": {"coordinates": [-78.90021479, 36.699601769], "type": "Point"}, "id": "71expfzQv6PhjduYuPvPxOt4jjM=", "properties": {"@source_uri": "https://tools.usps.com/UspsToolsRestServices/rest/POLocator/findLocations", "@spider": "usps_collection_boxes", "addr:city": "SOUTH BOSTON", "addr:country": "US", "addr:postcode": "24592", "addr:state": "VA", "addr:street_address": "601 N MAIN ST", "amenity": "post_box", "brand": "United States Postal Service", "brand:wikidata": "Q668687", "collection_times": "Mo-Fr 16:30; Sa 12:00", "indoor": "yes", "note": "ON 12/24 AND 12/31, THIS BOX MAY BE COLLECTED AS EARLY AS 12 NOON.", "nsi_id": "unitedstatespostalservice-a77078", "operator": "United States Postal Service", "operator:short": "USPS", "operator:type": "public", "operator:wikidata": "Q668687", "ref": "2459200027"}, "type": "Feature"}
{"geometry": {"coordinates": [-78.907312, 37.353215], "type": "Point"}, "id": "xS4mWultvIYzhkIA0sIoRNC0TQ8=", "properties": {"@source_uri": "https://tools.usps.com/UspsToolsRestServices/rest/POLocator/findLocations", "@spider": "usps_collection_boxes", "addr:city": "SPOUT SPRING", "addr:country": "US", "addr:postcode": "24593", "addr:state": "VA", "addr:street_address": "837 SPOUT SPRING RD", "amenity": "post_box", "brand": "United States Postal Service", "brand:wikidata": "Q668687", "collection_times": "Mo-Fr 13:30; Sa 09:00", "note": "ON 12/24 AND 12/31, THIS BOX MAY BE COLLECTED AS EARLY AS 12 NOON.", "nsi_id": "unitedstatespostalservice-a77078", "operator": "United States Postal Service", "operator:short": "USPS", "operator:type": "public", "operator:wikidata": "Q668687", "ref": "2459300000"}, "type": "Feature"}
{"geometry": {"coordinates": [-78.907235, 37.353271], "type": "Point"}, "id": "sSvBBPb5jEFIQT8TPKzcts-bBBY=", "properties": {"@source_uri": "https://tools.usps.com/UspsToolsRestServices/rest/POLocator/findLocations", "@spider": "usps_collection_boxes", "addr:city": "SPOUT SPRING", "addr:country": "US", "addr:postcode": "24593", "addr:state": "VA", "addr:street_address": "837 SPOUT SPRING RD", "amenity": "post_box", "brand": "United States Postal Service", "brand:wikidata": "Q668687", "collection_times": "Mo-Fr 13:30; Sa 09:00", "indoor": "yes", "note": "ON 12/24 AND 12/31, THIS BOX MAY BE COLLECTED AS EARLY AS 12 NOON.", "nsi_id": "unitedstatespostalservice-a77078", "operator": "United States Postal Service", "operator:short": "USPS", "operator:type": "public", "operator:wikidata": "Q668687", "ref": "2459300001"}, "type": "Feature"}
{"geometry": {"coordinates": [-78.907366805, 37.353137825], "type": "Point"}, "id": "-By6xK1ZwVhduYbVNDeVfnooN2g=", "properties": {"@source_uri": "https://tools.usps.com/UspsToolsRestServices/rest/POLocator/findLocations", "@spider": "usps_collection_boxes", "addr:city": "SPOUT SPRING", "addr:country": "US", "addr:postcode": "24593", "addr:state": "VA", "addr:street_address": "837 SPOUT SPRING RD", "amenity": "post_box", "brand": "United States Postal Service", "brand:wikidata": "Q668687", "collection_times": "Mo-Fr 14:00", "indoor": "yes", "note": "ON 12/24 AND 12/31, THIS BOX MAY BE COLLECTED AS EARLY AS 12 NOON.", "nsi_id": "unitedstatespostalservice-a77078", "operator": "United States Postal Service", "operator:short": "USPS", "operator:type": "public", "operator:wikidata": "Q668687", "ref": "2459300003"}, "type": "Feature"}
{"geometry": {"coordinates": [-79.1997775654, 36.6801011408], "type": "Point"}, "id": "STgqtwRCTqHFZ3t9D1rSwbaX5ss=", "properties": {"@source_uri": "https://tools.usps.com/UspsToolsRestServices/rest/POLocator/findLocations", "@spider": "usps_collection_boxes", "addr:city": "SUTHERLIN", "addr:country": "US", "addr:postcode": "24594", "addr:state": "VA", "addr:street_address": "2061 LAUREL GROVE RD", "amenity": "post_box", "brand": "United States Postal Service", "brand:wikidata": "Q668687", "collection_times": "Mo-Fr 14:30; Sa 10:30", "note": "ON 12/24 AND 12/31, THIS BOX MAY BE COLLECTED AS EARLY AS 12 NOON.", "nsi_id": "unitedstatespostalservice-a77078", "operator": "United States Postal Service", "operator:short": "USPS", "operator:type": "public", "operator:wikidata": "Q668687", "ref": "2459400000"}, "type": "Feature"}
{"geometry": {"coordinates": [-79.199719, 36.680084], "type": "Point"}, "id": "sSqGVa-cCQC_k8-JrmALnWDGvYA=", "properties": {"@source_uri": "https://tools.usps.com/UspsToolsRestServices/rest/POLocator/findLocations", "@spider": "usps_collection_boxes", "addr:city": "SUTHERLIN", "addr:country": "US", "addr:postcode": "24594", "addr:state": "VA", "addr:street_address": "2061 LAUREL GROVE RD", "amenity": "post_box", "brand": "United States Postal Service", "brand:wikidata": "Q668687", "collection_times": "Mo-Fr 11:45; Sa 10:30", "indoor": "yes", "nsi_id": "unitedstatespostalservice-a77078", "operator": "United States Postal Service", "operator:short": "USPS", "operator:type": "public", "operator:wikidata": "Q668687", "ref": "2459400001"}, "type": "Feature"}
{"geometry": {"coordinates": [-79.199927558, 36.680062112], "type": "Point"}, "id": "bjNV7C3tVk9vxDbbU-sxJfM3Y-0=", "properties": {"@source_uri": "https://tools.usps.com/UspsToolsRestServices/rest/POLocator/findLocations", "@spider": "usps_collection_boxes", "addr:city": "SUTHERLIN", "addr:country": "US", "addr:postcode": "24594", "addr:state": "VA", "addr:street_address": "2061 LAUREL GROVE RD", "amenity": "post_box", "brand": "United States Postal Service", "brand:wikidata": "Q668687", "collection_times": "Mo-Fr 14:45; Sa 10:30", "indoor": "yes", "note": "ON 12/24 AND 12/31, THIS BOX MAY BE COLLECTED AS EARLY AS 12 NOON.", "nsi_id": "unitedstatespostalservice-a77078", "operator": "United States Postal Service", "operator:short": "USPS", "operator:type": "public", "operator:wikidata": "Q668687", "ref": "2459400003"}, "type": "Feature"}
{"geometry": {"coordinates": [-79.0681530251, 37.5515090197], "type": "Point"}, "id": "0H1E_XYTkjUczbgF5TbiS--JBgw=", "properties": {"@source_uri": "https://tools.usps.com/UspsToolsRestServices/rest/POLocator/findLocations", "@spider": "usps_collection_boxes", "addr:city": "AMHERST", "addr:country": "US", "addr:postcode": "24595", "addr:state": "VA", "addr:street_address": "134 CHAPEL RD", "amenity": "post_box", "brand": "United States Postal Service", "brand:wikidata": "Q668687", "collection_times": "Mo-Fr 12:00", "indoor": "yes", "nsi_id": "unitedstatespostalservice-a77078", "operator": "United States Postal Service", "operator:short": "USPS", "operator:type": "public", "operator:wikidata": "Q668687", "ref": "2459500001"}, "type": "Feature"}
{"geometry": {"coordinates": [-79.101736, 36.753647], "type": "Point"}, "id": "7yn4zD02bD-HTCPpJ5jFWRm9dEc=", "properties": {"@source_uri": "https://tools.usps.com/UspsToolsRestServices/rest/POLocator/findLocations", "@spider": "usps_collection_boxes", "addr:city": "VERNON HILL", "addr:country": "US", "addr:postcode": "24597", "addr:state": "VA", "addr:street_address": "10164 MOUNTAIN RD", "amenity": "post_box", "brand": "United States Postal Service", "brand:wikidata": "Q668687", "collection_times": "Mo-Fr 11:45; Sa 10:15", "nsi_id": "unitedstatespostalservice-a77078", "operator": "United States Postal Service", "operator:short": "USPS", "operator:type": "public", "operator:wikidata": "Q668687", "ref": "2459700000"}, "type": "Feature"}
{"geometry": {"coordinates": [-79.101705, 36.753592], "type": "Point"}, "id": "RWxpc5TLTWqq_IrKB8hAtJRzL6Q=", "properties": {"@source_uri": "https://tools.usps.com/UspsToolsRestServices/rest/POLocator/findLocations", "@spider": "usps_collection_boxes", "addr:city": "VERNON HILL", "addr:country": "US", "addr:postcode": "24597", "addr:state": "VA", "addr:street_address": "10164 MOUNTAIN RD", "amenity": "post_box", "brand": "United States Postal Service", "brand:wikidata": "Q668687", "collection_times": "Mo-Fr 11:45; Sa 10:15", "indoor": "yes", "nsi_id": "unitedstatespostalservice-a77078", "operator": "United States Postal Service", "operator:short": "USPS", "operator:type": "public", "operator:wikidata": "Q668687", "ref": "2459700001"}, "type": "Feature"}
{"geometry": {"coordinates": [-79.101708019, 36.753661905], "type": "Point"}, "id": "G4U77KxgZ5JzsEN0M8b_H3IzOpU=", "properties": {"@source_uri": "https://tools.usps.com/UspsToolsRestServices/rest/POLocator/findLocations", "@spider": "usps_collection_boxes", "addr:city": "VERNON HILL", "addr:country": "US", "addr:postcode": "24597", "addr:state": "VA", "addr:street_address": "10164 MOUNTAIN RD", "amenity": "post_box", "brand": "United States Postal Service", "brand:wikidata": "Q668687", "collection_times": "Mo-Fr 12:00; Sa 10:30", "indoor": "yes", "nsi_id": "unitedstatespostalservice-a77078", "operator": "United States Postal Service", "operator:short": "USPS", "operator:type": "public", "operator:wikidata": "Q668687", "ref": "2459700003"}, "type": "Feature"}
{"geometry": {"coordinates": [-78.776317413, 36.54375456], "type": "Point"}, "id": "-v9rsZx84Mwt9nJaNKLl-GVoQ5Q=", "properties": {"@source_uri": "https://tools.usps.com/UspsToolsRestServices/rest/POLocator/findLocations", "@spider": "usps_collection_boxes", "addr:city": "VIRGILINA", "addr:country": "US", "addr:postcode": "24598", "addr:state": "VA", "addr:street_address": "1142 7TH ST", "amenity": "post_box", "brand": "United States Postal Service", "brand:wikidata": "Q668687", "collection_times": "Mo-Fr 16:15; Sa 09:45", "note": "ON 12/24 AND 12/31, THIS BOX MAY BE COLLECTED AS EARLY AS 12 NOON.", "nsi_id": "unitedstatespostalservice-a77078", "operator": "United States Postal Service", "operator:short": "USPS", "operator:type": "public", "operator:wikidata": "Q668687", "ref": "2459800000"}, "type": "Feature"}
{"geometry": {"coordinates": [-78.776317413, 36.54375456], "type": "Point"}, "id": "f14sK1z4eI0EZNeRK3q4bqwEXXs=", "properties": {"@source_uri": "https://tools.usps.com/UspsToolsRestServices/rest/POLocator/findLocations", "@spider": "usps_collection_boxes", "addr:city": "VIRGILINA", "addr:country": "US", "addr:postcode": "24598", "addr:state": "VA", "addr:street_address": "1142 7TH ST", "amenity": "post_box", "brand": "United States Postal Service", "brand:wikidata": "Q668687", "collection_times": "Mo-Fr 16:15; Sa 09:45", "indoor": "yes", "note": "ON 12/24 AND 12/31, THIS BOX MAY BE COLLECTED AS EARLY AS 12 NOON.", "nsi_id": "unitedstatespostalservice-a77078", "operator": "United States Postal Service", "operator:short": "USPS", "operator:type": "public", "operator:wikidata": "Q668687", "ref": "2459800001"}, "type": "Feature"}
{"geometry": {"coordinates": [-78.776317413, 36.54375456], "type": "Point"}, "id": "a-PikDtblpezEe4kHxtlFPoIjws=", "properties": {"@source_uri": "https://tools.usps.com/UspsToolsRestServices/rest/POLocator/findLocations", "@spider": "usps_collection_boxes", "addr:city": "VIRGILINA", "addr:country": "US", "addr:postcode": "24598", "addr:state": "VA", "addr:street_address": "1142 7TH ST", "amenity": "post_box", "brand": "United States Postal Service", "brand:wikidata": "Q668687", "collection_times": "Mo-Fr 16:30; Sa 10:00", "indoor": "yes", "note": "ON 12/24 AND 12/31, THIS BOX MAY BE COLLECTED AS EARLY AS 12 NOON.", "nsi_id": "unitedstatespostalservice-a77078", "operator": "United States Postal Service", "operator:short": "USPS", "operator:type": "public", "operator:wikidata": "Q668687", "ref": "2459800004"}, "type": "Feature"}
{"geometry": {"coordinates": [-78.725271, 37.639189], "type": "Point"}, "id": "ynfHWPFOsDEZ456S_G9dX8_PK84=", "properties": {"@source_uri": "https://tools.usps.com/UspsToolsRestServices/rest/POLocator/findLocations", "@spider": "usps_collection_boxes", "addr:city": "WINGINA", "addr:country": "US", "addr:postcode": "24599", "addr:state": "VA", "addr:street_address": "13711 NORWOOD RD", "amenity": "post_box", "brand": "United States Postal Service", "brand:wikidata": "Q668687", "collection_times": "Mo-Fr 11:45; Sa 09:15", "nsi_id": "unitedstatespostalservice-a77078", "operator": "United States Postal Service", "operator:short": "USPS", "operator:type": "public", "operator:wikidata": "Q668687", "ref": "2459900000"}, "type": "Feature"}
{"geometry": {"coordinates": [-78.724528004, 37.639356852], "type": "Point"}, "id": "Q0VDFLpfWBb8QEktgPXY4sVAKTw=", "properties": {"@source_uri": "https://tools.usps.com/UspsToolsRestServices/rest/POLocator/findLocations", "@spider": "usps_collection_boxes", "addr:city": "WINGINA", "addr:country": "US", "addr:postcode": "24599", "addr:state": "VA", "addr:street_address": "13711 NORWOOD RD", "amenity": "post_box", "brand": "United States Postal Service", "brand:wikidata": "Q668687", "collection_times": "Mo-Fr 12:00; Sa 09:15", "indoor": "yes", "nsi_id": "unitedstatespostalservice-a77078", "operator": "United States Postal Service", "operator:short": "USPS", "operator:type": "public", "operator:wikidata": "Q668687", "ref": "2459900003"}, "type": "Feature"}
