{"geometry": {"coordinates": [-81.633411, 37.193231], "type": "Point"}, "id": "jLJYAOTAREQ0yUPAMlBXD21u4js=", "properties": {"@source_uri": "https://tools.usps.com/UspsToolsRestServices/rest/POLocator/findLocations", "@spider": "usps_collection_boxes", "addr:city": "AMONATE", "addr:country": "US", "addr:full": "5185 AMONATE RD", "addr:postcode": "24601", "addr:state": "VA", "amenity": "post_box", "brand": "United States Postal Service", "brand:wikidata": "Q668687", "collection_times": "Mo-Fr 11:00; Sa 09:00", "name": "USPS COLLECTION BOX - BLUE BOX", "nsi_id": "unitedstatespostalservice-a77078", "operator": "United States Postal Service", "operator:short": "USPS", "operator:type": "public", "operator:wikidata": "Q668687", "ref": "2460100000"}, "type": "Feature"}
{"geometry": {"coordinates": [-81.633636, 37.197167], "type": "Point"}, "id": "NC-zrat-56lIYHlyRA1A6dekFtc=", "properties": {"@source_uri": "https://tools.usps.com/UspsToolsRestServices/rest/POLocator/findLocations", "@spider": "usps_collection_boxes", "addr:city": "AMONATE", "addr:country": "US", "addr:full": "5485 AMONATE RD", "addr:postcode": "24601", "addr:state": "VA", "amenity": "post_box", "brand": "United States Postal Service", "brand:wikidata": "Q668687", "collection_times": "Mo-Fr 11:00; Sa 09:00", "name": "USPS COLLECTION BOX - PO LOBBY", "nsi_id": "unitedstatespostalservice-a77078", "operator": "United States Postal Service", "operator:short": "USPS", "operator:type": "public", "operator:wikidata": "Q668687", "ref": "2460100001"}, "type": "Feature"}
{"geometry": {"coordinates": [-81.6335786096, 37.1929968959], "type": "Point"}, "id": "H6qFWNLOFOhY-Nei1Ser5EERlpU=", "properties": {"@source_uri": "https://tools.usps.com/UspsToolsRestServices/rest/POLocator/findLocations", "@spider": "usps_collection_boxes", "addr:city": "AMONATE", "addr:country": "US", "addr:full": "5185 AMONATE RD", "addr:postcode": "24601", "addr:state": "VA", "amenity": "post_box", "brand": "United States Postal Service", "brand:wikidata": "Q668687", "collection_times": "Mo-Fr 11:30; Sa 10:15", "name": "USPS COLLECTION BOX - PO LOBBY", "nsi_id": "unitedstatespostalservice-a77078", "operator": "United States Postal Service", "operator:short": "USPS", "operator:type": "public", "operator:wikidata": "Q668687", "ref": "2460100003"}, "type": "Feature"}
{"geometry": {"coordinates": [-81.700674, 37.135845], "type": "Point"}, "id": "kVCMMUOZUvKn91hfhkYTCpQHGRM=", "properties": {"@source_uri": "https://tools.usps.com/UspsToolsRestServices/rest/POLocator/findLocations", "@spider": "usps_collection_boxes", "addr:city": "BANDY", "addr:country": "US", "addr:full": "4284 RAVENS NEST BRANCH RD", "addr:postcode": "24602", "addr:state": "VA", "amenity": "post_box", "brand": "United States Postal Service", "brand:wikidata": "Q668687", "collection_times": "Mo-Fr 12:30; Sa 10:30", "name": "USPS COLLECTION BOX - BLUE BOX", "note": "ON 12/24 AND 12/31, THIS BOX MAY BE COLLECTED AS EARLY AS 12 NOON.", "nsi_id": "unitedstatespostalservice-a77078", "operator": "United States Postal Service", "operator:short": "USPS", "operator:type": "public", "operator:wikidata": "Q668687", "ref": "2460200000"}, "type": "Feature"}
{"geometry": {"coordinates": [-81.700589, 37.135871], "type": "Point"}, "id": "7v6Lv61AFoGe3efB6MG3AT_vTt8=", "properties": {"@source_uri": "https://tools.usps.com/UspsToolsRestServices/rest/POLocator/findLocations", "@spider": "usps_collection_boxes", "addr:city": "BANDY", "addr:country": "US", "addr:full": "4284 RAVENS NEST BRANCH RD", "addr:postcode": "24602", "addr:state": "VA", "amenity": "post_box", "brand": "United States Postal Service", "brand:wikidata": "Q668687", "collection_times": "Mo-Fr 12:30; Sa 10:30", "name": "USPS COLLECTION BOX - PO LOBBY", "note": "ON 12/24 AND 12/31, THIS BOX MAY BE COLLECTED AS EARLY AS 12 NOON.", "nsi_id": "unitedstatespostalservice-a77078", "operator": "United States Postal Service", "operator:short": "USPS", "operator:type": "public", "operator:wikidata": "Q668687", "ref": "2460200001"}, "type": "Feature"}
{"geometry": {"coordinates": [-81.700647606, 37.135790456], "type": "Point"}, "id": "f3my9gimdS_11Io0pA-Tr58-hZw=", "properties": {"@source_uri": "https://tools.usps.com/UspsToolsRestServices/rest/POLocator/findLocations", "@spider": "usps_collection_boxes", "addr:city": "BANDY", "addr:country": "US", "addr:full": "4284 RAVENS NEST BRANCH RD", "addr:postcode": "24602", "addr:state": "VA", "amenity": "post_box", "brand": "United States Postal Service", "brand:wikidata": "Q668687", "collection_times": "Mo-Fr 12:30; Sa 10:45", "name": "USPS COLLECTION BOX - PO LOBBY", "note": "ON 12/24 AND 12/31, THIS BOX MAY BE COLLECTED AS EARLY AS 12 NOON.", "nsi_id": "unitedstatespostalservice-a77078", "operator": "United States Postal Service", "operator:short": "USPS", "operator:type": "public", "operator:wikidata": "Q668687", "ref": "2460200004"}, "type": "Feature"}
{"geometry": {"coordinates": [-82.181278, 37.338276], "type": "Point"}, "id": "ylRhLWITE9fklfo3Db3uPAe_amE=", "properties": {"@source_uri": "https://tools.usps.com/UspsToolsRestServices/rest/POLocator/findLocations", "@spider": "usps_collection_boxes", "addr:city": "BIG ROCK", "addr:country": "US", "addr:full": "32148 RIVERSIDE DR", "addr:postcode": "24603", "addr:state": "VA", "amenity": "post_box", "brand": "United States Postal Service", "brand:wikidata": "Q668687", "collection_times": "Mo-Fr 12:00; Sa 11:00", "name": "USPS COLLECTION BOX - BLUE BOX", "nsi_id": "unitedstatespostalservice-a77078", "operator": "United States Postal Service", "operator:short": "USPS", "operator:type": "public", "operator:wikidata": "Q668687", "ref": "2460300000"}, "type": "Feature"}
{"geometry": {"coordinates": [-82.181212, 37.338234], "type": "Point"}, "id": "uDn3D6QxQkcAdchZxUZ1DXtKyxI=", "properties": {"@source_uri": "https://tools.usps.com/UspsToolsRestServices/rest/POLocator/findLocations", "@spider": "usps_collection_boxes", "addr:city": "BIG ROCK", "addr:country": "US", "addr:full": "32148 RIVERSIDE DR", "addr:postcode": "24603", "addr:state": "VA", "amenity": "post_box", "brand": "United States Postal Service", "brand:wikidata": "Q668687", "collection_times": "Mo-Fr 12:00; Sa 11:00", "name": "USPS COLLECTION BOX - PO LOBBY", "nsi_id": "unitedstatespostalservice-a77078", "operator": "United States Postal Service", "operator:short": "USPS", "operator:type": "public", "operator:wikidata": "Q668687", "ref": "2460300001"}, "type": "Feature"}
{"geometry": {"coordinates": [-82.181440885, 37.33834663], "type": "Point"}, "id": "dJ4aA0O9Nnt91oKHr8tVZxGe6NU=", "properties": {"@source_uri": "https://tools.usps.com/UspsToolsRestServices/rest/POLocator/findLocations", "@spider": "usps_collection_boxes", "addr:city": "BIG ROCK", "addr:country": "US", "addr:full": "32148 RIVERSIDE DR", "addr:postcode": "24603", "addr:state": "VA", "amenity": "post_box", "brand": "United States Postal Service", "brand:wikidata": "Q668687", "collection_times": "Mo-Fr 12:00; Sa 11:00", "name": "USPS COLLECTION BOX - PO LOBBY", "nsi_id": "unitedstatespostalservice-a77078", "operator": "United States Postal Service", "operator:short": "USPS", "operator:type": "public", "operator:wikidata": "Q668687", "ref": "2460300003"}, "type": "Feature"}
{"geometry": {"coordinates": [-81.554913997, 37.200246005], "type": "Point"}, "id": "3hA8mFZ6P9tgTrs6MOj1APTyzYM=", "properties": {"@source_uri": "https://tools.usps.com/UspsToolsRestServices/rest/POLocator/findLocations", "@spider": "usps_collection_boxes", "addr:city": "BISHOP", "addr:country": "US", "addr:full": "3978 STONEY RIDGE RD", "addr:postcode": "24604", "addr:state": "VA", "amenity": "post_box", "brand": "United States Postal Service", "brand:wikidata": "Q668687", "collection_times": "Mo-Fr 11:45; Sa 10:45", "name": "USPS COLLECTION BOX - BLUE BOX", "nsi_id": "unitedstatespostalservice-a77078", "operator": "United States Postal Service", "operator:short": "USPS", "operator:type": "public", "operator:wikidata": "Q668687", "ref": "2460400001"}, "type": "Feature"}
{"geometry": {"coordinates": [-81.554913997, 37.200246005], "type": "Point"}, "id": "vYmac-fK67Gx73IOz-2ZBCSbJoA=", "properties": {"@source_uri": "https://tools.usps.com/UspsToolsRestServices/rest/POLocator/findLocations", "@spider": "usps_collection_boxes", "addr:city": "BISHOP", "addr:country": "US", "addr:full": "3978 STONEY RIDGE RD", "addr:postcode": "24604", "addr:state": "VA", "amenity": "post_box", "brand": "United States Postal Service", "brand:wikidata": "Q668687", "collection_times": "Mo-Fr 11:45; Sa 10:45", "name": "USPS COLLECTION BOX - PO LOBBY", "nsi_id": "unitedstatespostalservice-a77078", "operator": "United States Postal Service", "operator:short": "USPS", "operator:type": "public", "operator:wikidata": "Q668687", "ref": "2460400002"}, "type": "Feature"}
{"geometry": {"coordinates": [-81.554913997, 37.200246005], "type": "Point"}, "id": "NGuhjCzNvbralzQEliHIYfI8bpU=", "properties": {"@source_uri": "https://tools.usps.com/UspsToolsRestServices/rest/POLocator/findLocations", "@spider": "usps_collection_boxes", "addr:city": "BISHOP", "addr:country": "US", "addr:full": "3978 STONEY RIDGE RD", "addr:postcode": "24604", "addr:state": "VA", "amenity": "post_box", "brand": "United States Postal Service", "brand:wikidata": "Q668687", "collection_times": "Mo-Fr 12:00; Sa 10:30", "name": "USPS COLLECTION BOX - PO LOBBY", "nsi_id": "unitedstatespostalservice-a77078", "operator": "United States Postal Service", "operator:short": "USPS", "operator:type": "public", "operator:wikidata": "Q668687", "ref": "2460400004"}, "type": "Feature"}
{"geometry": {"coordinates": [-81.269732669, 37.253101522], "type": "Point"}, "id": "0SR4fN8mxH1hEteM47c8PdIXHBY=", "properties": {"@source_uri": "https://tools.usps.com/UspsToolsRestServices/rest/POLocator/findLocations", "@spider": "usps_collection_boxes", "addr:city": "BLUEFIELD", "addr:country": "US", "addr:full": "507 VIRGINIA AVE", "addr:postcode": "24605", "addr:state": "VA", "amenity": "post_box", "brand": "United States Postal Service", "brand:wikidata": "Q668687", "collection_times": "Mo-Fr 16:30; Sa 11:30", "name": "USPS COLLECTION BOX - BLUE BOX", "note": "ON 12/24 AND 12/31, THIS BOX MAY BE COLLECTED AS EARLY AS 12 NOON.", "nsi_id": "unitedstatespostalservice-a77078", "operator": "United States Postal Service", "operator:short": "USPS", "operator:type": "public", "operator:wikidata": "Q668687", "ref": "2460500014"}, "type": "Feature"}
{"geometry": {"coordinates": [-81.269732669, 37.253101522], "type": "Point"}, "id": "tvx7Z1wZQDFc5FIFbh_3NimISHE=", "properties": {"@source_uri": "https://tools.usps.com/UspsToolsRestServices/rest/POLocator/findLocations", "@spider": "usps_collection_boxes", "addr:city": "BLUEFIELD", "addr:country": "US", "addr:full": "507 VIRGINIA AVE", "addr:postcode": "24605", "addr:state": "VA", "amenity": "post_box", "brand": "United States Postal Service", "brand:wikidata": "Q668687", "collection_times": "Mo-Fr 16:30; Sa 11:30", "name": "USPS COLLECTION BOX - PO LOBBY", "note": "ON 12/24 AND 12/31, THIS BOX MAY BE COLLECTED AS EARLY AS 12 NOON.", "nsi_id": "unitedstatespostalservice-a77078", "operator": "United States Postal Service", "operator:short": "USPS", "operator:type": "public", "operator:wikidata": "Q668687", "ref": "2460500019"}, "type": "Feature"}
{"geometry": {"coordinates": [-81.269732669, 37.253101522], "type": "Point"}, "id": "9cTYoL2yDsF0pyS3GiUgeTkXATc=", "properties": {"@source_uri": "https://tools.usps.com/UspsToolsRestServices/rest/POLocator/findLocations", "@spider": "usps_collection_boxes", "addr:city": "BLUEFIELD", "addr:country": "US", "addr:full": "507 VIRGINIA AVE", "addr:postcode": "24605", "addr:state": "VA", "amenity": "post_box", "brand": "United States Postal Service", "brand:wikidata": "Q668687", "collection_times": "Mo-Fr 16:30; Sa 11:30", "name": "USPS COLLECTION BOX - PO LOBBY", "note": "ON 12/24 AND 12/31, THIS BOX MAY BE COLLECTED AS EARLY AS 12 NOON.", "nsi_id": "unitedstatespostalservice-a77078", "operator": "United States Postal Service", "operator:short": "USPS", "operator:type": "public", "operator:wikidata": "Q668687", "ref": "2460500021"}, "type": "Feature"}
{"geometry": {"coordinates": [-81.378717, 37.285952], "type": "Point"}, "id": "hmkOmtD5QfmyBz7gOPGDkXKJgeU=", "properties": {"@source_uri": "https://tools.usps.com/UspsToolsRestServices/rest/POLocator/findLocations", "@spider": "usps_collection_boxes", "addr:city": "BOISSEVAIN", "addr:country": "US", "addr:full": "102 CREEKVIEW RD", "addr:postcode": "24606", "addr:state": "VA", "amenity": "post_box", "brand": "United States Postal Service", "brand:wikidata": "Q668687", "collection_times": "Mo-Fr 11:45; Sa 09:30", "name": "USPS COLLECTION BOX - BLUE BOX", "nsi_id": "unitedstatespostalservice-a77078", "operator": "United States Postal Service", "operator:short": "USPS", "operator:type": "public", "operator:wikidata": "Q668687", "ref": "2460600000"}, "type": "Feature"}
{"geometry": {"coordinates": [-81.378657, 37.286012], "type": "Point"}, "id": "2jZbgwqY3IArXl61ydpuoTa6U4Y=", "properties": {"@source_uri": "https://tools.usps.com/UspsToolsRestServices/rest/POLocator/findLocations", "@spider": "usps_collection_boxes", "addr:city": "BOISSEVAIN", "addr:country": "US", "addr:full": "102 CREEKVIEW RD", "addr:postcode": "24606", "addr:state": "VA", "amenity": "post_box", "brand": "United States Postal Service", "brand:wikidata": "Q668687", "collection_times": "Mo-Fr 11:45; Sa 09:30", "name": "USPS COLLECTION BOX - PO LOBBY", "nsi_id": "unitedstatespostalservice-a77078", "operator": "United States Postal Service", "operator:short": "USPS", "operator:type": "public", "operator:wikidata": "Q668687", "ref": "2460600001"}, "type": "Feature"}
{"geometry": {"coordinates": [-81.3814499194, 37.2839030564], "type": "Point"}, "id": "WP9jf_jjB2M5BPLl63VZHfAiOfk=", "properties": {"@source_uri": "https://tools.usps.com/UspsToolsRestServices/rest/POLocator/findLocations", "@spider": "usps_collection_boxes", "addr:city": "BOISSEVAIN", "addr:country": "US", "addr:full": "102 CREEKVIEW RD", "addr:postcode": "24606", "addr:state": "VA", "amenity": "post_box", "brand": "United States Postal Service", "brand:wikidata": "Q668687", "collection_times": "Mo-Fr 12:30; Sa 10:45", "name": "USPS COLLECTION BOX - PO LOBBY", "note": "ON 12/24 AND 12/31, THIS BOX MAY BE COLLECTED AS EARLY AS 12 NOON.", "nsi_id": "unitedstatespostalservice-a77078", "operator": "United States Postal Service", "operator:short": "USPS", "operator:type": "public", "operator:wikidata": "Q668687", "ref": "2460600004"}, "type": "Feature"}
{"geometry": {"coordinates": [-82.280083, 37.294353], "type": "Point"}, "id": "ah4v35-6dw76FSIHBfwRHNqCaUc=", "properties": {"@source_uri": "https://tools.usps.com/UspsToolsRestServices/rest/POLocator/findLocations", "@spider": "usps_collection_boxes", "addr:city": "BREAKS", "addr:country": "US", "addr:full": "579 KING SOLOMON COLLEY RD", "addr:postcode": "24607", "addr:state": "VA", "amenity": "post_box", "brand": "United States Postal Service", "brand:wikidata": "Q668687", "collection_times": "Mo-Fr 13:00; Sa 11:15", "name": "USPS COLLECTION BOX - BLUE BOX", "note": "ON 12/24 AND 12/31, THIS BOX MAY BE COLLECTED AS EARLY AS 12 NOON.", "nsi_id": "unitedstatespostalservice-a77078", "operator": "United States Postal Service", "operator:short": "USPS", "operator:type": "public", "operator:wikidata": "Q668687", "ref": "2460700000"}, "type": "Feature"}
{"geometry": {"coordinates": [-82.28006, 37.294284], "type": "Point"}, "id": "rJqO4CKGcbKUkFEM_qFXrF4UMuo=", "properties": {"@source_uri": "https://tools.usps.com/UspsToolsRestServices/rest/POLocator/findLocations", "@spider": "usps_collection_boxes", "addr:city": "BREAKS", "addr:country": "US", "addr:full": "579 KING SOLOMON COLLEY RD", "addr:postcode": "24607", "addr:state": "VA", "amenity": "post_box", "brand": "United States Postal Service", "brand:wikidata": "Q668687", "collection_times": "Mo-Fr 13:00; Sa 11:15", "name": "USPS COLLECTION BOX - PO LOBBY", "note": "ON 12/24 AND 12/31, THIS BOX MAY BE COLLECTED AS EARLY AS 12 NOON.", "nsi_id": "unitedstatespostalservice-a77078", "operator": "United States Postal Service", "operator:short": "USPS", "operator:type": "public", "operator:wikidata": "Q668687", "ref": "2460700001"}, "type": "Feature"}
{"geometry": {"coordinates": [-82.280051579, 37.294356527], "type": "Point"}, "id": "TItOE0M4W4w7xE5fNPhkzL54fiw=", "properties": {"@source_uri": "https://tools.usps.com/UspsToolsRestServices/rest/POLocator/findLocations", "@spider": "usps_collection_boxes", "addr:city": "BREAKS", "addr:country": "US", "addr:full": "579 KING SOLOMON COLLEY RD", "addr:postcode": "24607", "addr:state": "VA", "amenity": "post_box", "brand": "United States Postal Service", "brand:wikidata": "Q668687", "collection_times": "Mo-Fr 13:00; Sa 11:00", "name": "USPS COLLECTION BOX - PO LOBBY", "note": "ON 12/24 AND 12/31, THIS BOX MAY BE COLLECTED AS EARLY AS 12 NOON.", "nsi_id": "unitedstatespostalservice-a77078", "operator": "United States Postal Service", "operator:short": "USPS", "operator:type": "public", "operator:wikidata": "Q668687", "ref": "2460700003"}, "type": "Feature"}
{"geometry": {"coordinates": [-81.764584638, 37.088523459], "type": "Point"}, "id": "3v9v1CqajJTCmHToddy4KK4g9YQ=", "properties": {"@source_uri": "https://tools.usps.com/UspsToolsRestServices/rest/POLocator/findLocations", "@spider": "usps_collection_boxes", "addr:city": "CEDAR BLUFF", "addr:country": "US", "addr:full": "1126 CEDAR VALLEY DR", "addr:postcode": "24609", "addr:state": "VA", "amenity": "post_box", "brand": "United States Postal Service", "brand:wikidata": "Q668687", "collection_times": "Mo-Fr 16:30; Sa 12:00", "name": "USPS COLLECTION BOX - BLUE BOX", "note": "ON 12/24 AND 12/31, THIS BOX MAY BE COLLECTED AS EARLY AS 12 NOON.", "nsi_id": "unitedstatespostalservice-a77078", "operator": "United States Postal Service", "operator:short": "USPS", "operator:type": "public", "operator:wikidata": "Q668687", "ref": "2460900003"}, "type": "Feature"}
{"geometry": {"coordinates": [-81.764584638, 37.088523459], "type": "Point"}, "id": "8-mphXiW29HCVUZ47alXoevBiS8=", "properties": {"@source_uri": "https://tools.usps.com/UspsToolsRestServices/rest/POLocator/findLocations", "@spider": "usps_collection_boxes", "addr:city": "CEDAR BLUFF", "addr:country": "US", "addr:full": "1126 CEDAR VALLEY DR", "addr:postcode": "24609", "addr:state": "VA", "amenity": "post_box", "brand": "United States Postal Service", "brand:wikidata": "Q668687", "collection_times": "Mo-Fr 16:30; Sa 12:00", "name": "USPS COLLECTION BOX - PO LOBBY", "note": "ON 12/24 AND 12/31, THIS BOX MAY BE COLLECTED AS EARLY AS 12 NOON.", "nsi_id": "unitedstatespostalservice-a77078", "operator": "United States Postal Service", "operator:short": "USPS", "operator:type": "public", "operator:wikidata": "Q668687", "ref": "2460900004"}, "type": "Feature"}
{"geometry": {"coordinates": [-81.764584638, 37.088523459], "type": "Point"}, "id": "XwA0aPgMCqdKRCECb5C4Ndzvo7Q=", "properties": {"@source_uri": "https://tools.usps.com/UspsToolsRestServices/rest/POLocator/findLocations", "@spider": "usps_collection_boxes", "addr:city": "CEDAR BLUFF", "addr:country": "US", "addr:full": "1126 CEDAR VALLEY DR", "addr:postcode": "24609", "addr:state": "VA", "amenity": "post_box", "brand": "United States Postal Service", "brand:wikidata": "Q668687", "collection_times": "Mo-Fr 16:30; Sa 12:00", "name": "USPS COLLECTION BOX - PO LOBBY", "note": "ON 12/24 AND 12/31, THIS BOX MAY BE COLLECTED AS EARLY AS 12 NOON.", "nsi_id": "unitedstatespostalservice-a77078", "operator": "United States Postal Service", "operator:short": "USPS", "operator:type": "public", "operator:wikidata": "Q668687", "ref": "2460900006"}, "type": "Feature"}
{"geometry": {"coordinates": [-81.833607, 37.092802], "type": "Point"}, "id": "SOu6dgpBKqIxb8BRrtCBKtUHax4=", "properties": {"@source_uri": "https://tools.usps.com/UspsToolsRestServices/rest/POLocator/findLocations", "@spider": "usps_collection_boxes", "addr:city": "DORAN", "addr:country": "US", "addr:full": "5947 GOVERNOR G C PEERY HWY", "addr:postcode": "24612", "addr:state": "VA", "amenity": "post_box", "brand": "United States Postal Service", "brand:wikidata": "Q668687", "collection_times": "Mo-Fr 16:00; Sa 10:00", "name": "USPS COLLECTION BOX - BLUE BOX", "note": "ON 12/24 AND 12/31, THIS BOX MAY BE COLLECTED AS EARLY AS 12 NOON.", "nsi_id": "unitedstatespostalservice-a77078", "operator": "United States Postal Service", "operator:short": "USPS", "operator:type": "public", "operator:wikidata": "Q668687", "ref": "2461200000"}, "type": "Feature"}
{"geometry": {"coordinates": [-81.83363, 37.093229], "type": "Point"}, "id": "kFCHTCt4afk1zjrmiaDbuCldHgI=", "properties": {"@source_uri": "https://tools.usps.com/UspsToolsRestServices/rest/POLocator/findLocations", "@spider": "usps_collection_boxes", "addr:city": "DORAN", "addr:country": "US", "addr:full": "5947 GOVERNOR G C PEERY HWY", "addr:postcode": "24612", "addr:state": "VA", "amenity": "post_box", "brand": "United States Postal Service", "brand:wikidata": "Q668687", "collection_times": "Mo-Fr 16:00; Sa 10:00", "name": "USPS COLLECTION BOX - PO LOBBY", "note": "ON 12/24 AND 12/31, THIS BOX MAY BE COLLECTED AS EARLY AS 12 NOON.", "nsi_id": "unitedstatespostalservice-a77078", "operator": "United States Postal Service", "operator:short": "USPS", "operator:type": "public", "operator:wikidata": "Q668687", "ref": "2461200001"}, "type": "Feature"}
{"geometry": {"coordinates": [-81.833376759, 37.092905537], "type": "Point"}, "id": "WJtr4JpQwPR8jLLdLo26wpkufq0=", "properties": {"@source_uri": "https://tools.usps.com/UspsToolsRestServices/rest/POLocator/findLocations", "@spider": "usps_collection_boxes", "addr:city": "DORAN", "addr:country": "US", "addr:full": "5947 GOVERNOR G C PEERY HWY STE 1", "addr:postcode": "24612", "addr:state": "VA", "amenity": "post_box", "brand": "United States Postal Service", "brand:wikidata": "Q668687", "collection_times": "Mo-Fr 16:00; Sa 10:00", "name": "USPS COLLECTION BOX - PO LOBBY", "note": "ON 12/24 AND 12/31, THIS BOX MAY BE COLLECTED AS EARLY AS 12 NOON.", "nsi_id": "unitedstatespostalservice-a77078", "operator": "United States Postal Service", "operator:short": "USPS", "operator:type": "public", "operator:wikidata": "Q668687", "ref": "2461200003"}, "type": "Feature"}
{"geometry": {"coordinates": [-81.30408, 37.277332], "type": "Point"}, "id": "Wi7zs4X0EiN9kpUJE416VXTBjQo=", "properties": {"@source_uri": "https://tools.usps.com/UspsToolsRestServices/rest/POLocator/findLocations", "@spider": "usps_collection_boxes", "addr:city": "FALLS MILLS", "addr:country": "US", "addr:full": "401 BRUSHFORK RD", "addr:postcode": "24613", "addr:state": "VA", "amenity": "post_box", "brand": "United States Postal Service", "brand:wikidata": "Q668687", "collection_times": "Mo-Fr 11:45; Sa 11:15", "name": "USPS COLLECTION BOX - BLUE BOX", "nsi_id": "unitedstatespostalservice-a77078", "operator": "United States Postal Service", "operator:short": "USPS", "operator:type": "public", "operator:wikidata": "Q668687", "ref": "2461300000"}, "type": "Feature"}
{"geometry": {"coordinates": [-81.304063, 37.277309], "type": "Point"}, "id": "3IjFezBYb1kKP_KUU6QGO3LFhs8=", "properties": {"@source_uri": "https://tools.usps.com/UspsToolsRestServices/rest/POLocator/findLocations", "@spider": "usps_collection_boxes", "addr:city": "FALLS MILLS", "addr:country": "US", "addr:full": "401 BRUSHFORK RD", "addr:postcode": "24613", "addr:state": "VA", "amenity": "post_box", "brand": "United States Postal Service", "brand:wikidata": "Q668687", "collection_times": "Mo-Fr 11:45; Sa 11:15", "name": "USPS COLLECTION BOX - PO LOBBY", "nsi_id": "unitedstatespostalservice-a77078", "operator": "United States Postal Service", "operator:short": "USPS", "operator:type": "public", "operator:wikidata": "Q668687", "ref": "2461300001"}, "type": "Feature"}
{"geometry": {"coordinates": [-81.303819188, 37.277431529], "type": "Point"}, "id": "JmyuYhG9iTqq9kA1TGklxd30zbc=", "properties": {"@source_uri": "https://tools.usps.com/UspsToolsRestServices/rest/POLocator/findLocations", "@spider": "usps_collection_boxes", "addr:city": "FALLS MILLS", "addr:country": "US", "addr:full": "401 BRUSHFORK RD", "addr:postcode": "24613", "addr:state": "VA", "amenity": "post_box", "brand": "United States Postal Service", "brand:wikidata": "Q668687", "collection_times": "Mo-Fr 12:00; Sa 11:30", "name": "USPS COLLECTION BOX - PO LOBBY", "nsi_id": "unitedstatespostalservice-a77078", "operator": "United States Postal Service", "operator:short": "USPS", "operator:type": "public", "operator:wikidata": "Q668687", "ref": "2461300004"}, "type": "Feature"}
{"geometry": {"coordinates": [-82.099404054, 37.278016366], "type": "Point"}, "id": "MvLIeQNsYw9sKqy7EtM6uDjPdfo=", "properties": {"@source_uri": "https://tools.usps.com/UspsToolsRestServices/rest/POLocator/findLocations", "@spider": "usps_collection_boxes", "addr:city": "GRUNDY", "addr:country": "US", "addr:full": "123 WALNUT ST", "addr:postcode": "24614", "addr:state": "VA", "amenity": "post_box", "brand": "United States Postal Service", "brand:wikidata": "Q668687", "collection_times": "Mo-Fr 16:25; Sa 12:00", "name": "USPS COLLECTION BOX - BLUE BOX", "note": "ON 12/24 AND 12/31, THIS BOX MAY BE COLLECTED AS EARLY AS 12 NOON.", "nsi_id": "unitedstatespostalservice-a77078", "operator": "United States Postal Service", "operator:short": "USPS", "operator:type": "public", "operator:wikidata": "Q668687", "ref": "2461400000"}, "type": "Feature"}
{"geometry": {"coordinates": [-82.099404054, 37.278016366], "type": "Point"}, "id": "qUmVAlbKvWIM5ecahYH4XIFc-og=", "properties": {"@source_uri": "https://tools.usps.com/UspsToolsRestServices/rest/POLocator/findLocations", "@spider": "usps_collection_boxes", "addr:city": "GRUNDY", "addr:country": "US", "addr:full": "123 WALNUT ST", "addr:postcode": "24614", "addr:state": "VA", "amenity": "post_box", "brand": "United States Postal Service", "brand:wikidata": "Q668687", "collection_times": "Mo-Fr 16:25; Sa 12:00", "name": "USPS COLLECTION BOX - BLUE BOX", "note": "ON 12/24 AND 12/31, THIS BOX MAY BE COLLECTED AS EARLY AS 12 NOON.", "nsi_id": "unitedstatespostalservice-a77078", "operator": "United States Postal Service", "operator:short": "USPS", "operator:type": "public", "operator:wikidata": "Q668687", "ref": "2461400001"}, "type": "Feature"}
{"geometry": {"coordinates": [-82.099404054, 37.278016366], "type": "Point"}, "id": "Ntx30NyDV9taJZcQoJBgurGlE_0=", "properties": {"@source_uri": "https://tools.usps.com/UspsToolsRestServices/rest/POLocator/findLocations", "@spider": "usps_collection_boxes", "addr:city": "GRUNDY", "addr:country": "US", "addr:full": "123 WALNUT ST", "addr:postcode": "24614", "addr:state": "VA", "amenity": "post_box", "brand": "United States Postal Service", "brand:wikidata": "Q668687", "collection_times": "Mo-Fr 16:25; Sa 12:00", "name": "USPS COLLECTION BOX - PO LOBBY", "note": "ON 12/24 AND 12/31, THIS BOX MAY BE COLLECTED AS EARLY AS 12 NOON.", "nsi_id": "unitedstatespostalservice-a77078", "operator": "United States Postal Service", "operator:short": "USPS", "operator:type": "public", "operator:wikidata": "Q668687", "ref": "2461400002"}, "type": "Feature"}
{"geometry": {"coordinates": [-82.099404054, 37.278016366], "type": "Point"}, "id": "G-afdy4efwqlYHcvTJFB9vF5A7s=", "properties": {"@source_uri": "https://tools.usps.com/UspsToolsRestServices/rest/POLocator/findLocations", "@spider": "usps_collection_boxes", "addr:city": "GRUNDY", "addr:country": "US", "addr:full": "123 WALNUT ST", "addr:postcode": "24614", "addr:state": "VA", "amenity": "post_box", "brand": "United States Postal Service", "brand:wikidata": "Q668687", "collection_times": "Mo-Fr 16:15; Sa 12:00", "name": "USPS COLLECTION BOX - PO LOBBY", "note": "ON 12/24 AND 12/31, THIS BOX MAY BE COLLECTED AS EARLY AS 12 NOON.", "nsi_id": "unitedstatespostalservice-a77078", "operator": "United States Postal Service", "operator:short": "USPS", "operator:type": "public", "operator:wikidata": "Q668687", "ref": "2461400004"}, "type": "Feature"}
{"geometry": {"coordinates": [-81.5168099149, 37.2183709142], "type": "Point"}, "id": "cGNazi9eUfF9evHnUzsLwFSgTwE=", "properties": {"@source_uri": "https://tools.usps.com/UspsToolsRestServices/rest/POLocator/findLocations", "@spider": "usps_collection_boxes", "addr:city": "HORSEPEN", "addr:country": "US", "addr:full": "2354 HORSEPEN RD", "addr:postcode": "24619", "addr:state": "VA", "amenity": "post_box", "brand": "United States Postal Service", "brand:wikidata": "Q668687", "collection_times": "Mo-Sa 11:00", "name": "USPS COLLECTION BOX - BLUE BOX", "nsi_id": "unitedstatespostalservice-a77078", "operator": "United States Postal Service", "operator:short": "USPS", "operator:type": "public", "operator:wikidata": "Q668687", "ref": "2461900000"}, "type": "Feature"}
{"geometry": {"coordinates": [-81.5168099149, 37.2183709142], "type": "Point"}, "id": "ulyVk-weTXvDZEMv6bq23z1eWBw=", "properties": {"@source_uri": "https://tools.usps.com/UspsToolsRestServices/rest/POLocator/findLocations", "@spider": "usps_collection_boxes", "addr:city": "HORSEPEN", "addr:country": "US", "addr:full": "2354 HORSEPEN RD", "addr:postcode": "24619", "addr:state": "VA", "amenity": "post_box", "brand": "United States Postal Service", "brand:wikidata": "Q668687", "collection_times": "Mo-Sa 11:00", "name": "USPS COLLECTION BOX - PO LOBBY", "nsi_id": "unitedstatespostalservice-a77078", "operator": "United States Postal Service", "operator:short": "USPS", "operator:type": "public", "operator:wikidata": "Q668687", "ref": "2461900001"}, "type": "Feature"}
{"geometry": {"coordinates": [-81.516809915, 37.218370914], "type": "Point"}, "id": "tGIbzHIAUqshFyCXUed2UE4c4N0=", "properties": {"@source_uri": "https://tools.usps.com/UspsToolsRestServices/rest/POLocator/findLocations", "@spider": "usps_collection_boxes", "addr:city": "HORSEPEN", "addr:country": "US", "addr:full": "2354 HORSEPEN RD", "addr:postcode": "24619", "addr:state": "VA", "amenity": "post_box", "brand": "United States Postal Service", "brand:wikidata": "Q668687", "collection_times": "Mo-Fr 12:30; Sa 14:00", "name": "USPS COLLECTION BOX - PO LOBBY", "note": "ON 12/24 AND 12/31, THIS BOX MAY BE COLLECTED AS EARLY AS 12 NOON.", "nsi_id": "unitedstatespostalservice-a77078", "operator": "United States Postal Service", "operator:short": "USPS", "operator:type": "public", "operator:wikidata": "Q668687", "ref": "2461900005"}, "type": "Feature"}
{"geometry": {"coordinates": [-82.020695227, 37.419740819], "type": "Point"}, "id": "aGsKRgglktv3TU48wW9RI8aBoag=", "properties": {"@source_uri": "https://tools.usps.com/UspsToolsRestServices/rest/POLocator/findLocations", "@spider": "usps_collection_boxes", "addr:city": "HURLEY", "addr:country": "US", "addr:full": "7505 LESTERS FORK RD", "addr:postcode": "24620", "addr:state": "VA", "amenity": "post_box", "brand": "United States Postal Service", "brand:wikidata": "Q668687", "collection_times": "Mo-Fr 15:15; Sa 10:30", "name": "USPS COLLECTION BOX - BLUE BOX", "note": "ON 12/24 AND 12/31, THIS BOX MAY BE COLLECTED AS EARLY AS 12 NOON.", "nsi_id": "unitedstatespostalservice-a77078", "operator": "United States Postal Service", "operator:short": "USPS", "operator:type": "public", "operator:wikidata": "Q668687", "ref": "2462000000"}, "type": "Feature"}
{"geometry": {"coordinates": [-82.020695227, 37.419740819], "type": "Point"}, "id": "e9WLin3bbHLTnXXfUyFohNRbo7U=", "properties": {"@source_uri": "https://tools.usps.com/UspsToolsRestServices/rest/POLocator/findLocations", "@spider": "usps_collection_boxes", "addr:city": "HURLEY", "addr:country": "US", "addr:full": "7505 LESTERS FORK RD", "addr:postcode": "24620", "addr:state": "VA", "amenity": "post_box", "brand": "United States Postal Service", "brand:wikidata": "Q668687", "collection_times": "Mo-Fr 15:15; Sa 10:45", "name": "USPS COLLECTION BOX - PO LOBBY", "note": "ON 12/24 AND 12/31, THIS BOX MAY BE COLLECTED AS EARLY AS 12 NOON.", "nsi_id": "unitedstatespostalservice-a77078", "operator": "United States Postal Service", "operator:short": "USPS", "operator:type": "public", "operator:wikidata": "Q668687", "ref": "2462000001"}, "type": "Feature"}
{"geometry": {"coordinates": [-82.020695227, 37.419740819], "type": "Point"}, "id": "srPXMcj9-b-Q_IJ1YpZ9kl4B-YI=", "properties": {"@source_uri": "https://tools.usps.com/UspsToolsRestServices/rest/POLocator/findLocations", "@spider": "usps_collection_boxes", "addr:city": "HURLEY", "addr:country": "US", "addr:full": "7505 LESTERS FORK RD", "addr:postcode": "24620", "addr:state": "VA", "amenity": "post_box", "brand": "United States Postal Service", "brand:wikidata": "Q668687", "collection_times": "Mo-Fr 15:15; Sa 10:45", "name": "USPS COLLECTION BOX - PO LOBBY", "note": "ON 12/24 AND 12/31, THIS BOX MAY BE COLLECTED AS EARLY AS 12 NOON.", "nsi_id": "unitedstatespostalservice-a77078", "operator": "United States Postal Service", "operator:short": "USPS", "operator:type": "public", "operator:wikidata": "Q668687", "ref": "2462000002"}, "type": "Feature"}
{"geometry": {"coordinates": [-82.0206918961, 37.4197496107], "type": "Point"}, "id": "NY7HylGXaIXVydo7mgMgmj6sa2g=", "properties": {"@source_uri": "https://tools.usps.com/UspsToolsRestServices/rest/POLocator/findLocations", "@spider": "usps_collection_boxes", "addr:city": "HURLEY", "addr:country": "US", "addr:full": "7505 LESTERS FORK RD", "addr:postcode": "24620", "addr:state": "VA", "amenity": "post_box", "brand": "United States Postal Service", "brand:wikidata": "Q668687", "collection_times": "Mo-Fr 16:00; Sa 10:30", "name": "USPS COLLECTION BOX - PO LOBBY", "note": "ON 12/24 AND 12/31, THIS BOX MAY BE COLLECTED AS EARLY AS 12 NOON.", "nsi_id": "unitedstatespostalservice-a77078", "operator": "United States Postal Service", "operator:short": "USPS", "operator:type": "public", "operator:wikidata": "Q668687", "ref": "2462000004"}, "type": "Feature"}
{"geometry": {"coordinates": [-81.785756, 37.186156], "type": "Point"}, "id": "PzTqbVZmJvyKTEPPxf908-IvROs=", "properties": {"@source_uri": "https://tools.usps.com/UspsToolsRestServices/rest/POLocator/findLocations", "@spider": "usps_collection_boxes", "addr:city": "JEWELL RIDGE", "addr:country": "US", "addr:full": "978 JEWELL MAIN RD", "addr:postcode": "24622", "addr:state": "VA", "amenity": "post_box", "brand": "United States Postal Service", "brand:wikidata": "Q668687", "collection_times": "Mo-Fr 12:15; Sa 11:00", "name": "USPS COLLECTION BOX - BLUE BOX", "note": "ON 12/24 AND 12/31, THIS BOX MAY BE COLLECTED AS EARLY AS 12 NOON.", "nsi_id": "unitedstatespostalservice-a77078", "operator": "United States Postal Service", "operator:short": "USPS", "operator:type": "public", "operator:wikidata": "Q668687", "ref": "2462200000"}, "type": "Feature"}
{"geometry": {"coordinates": [-81.785788, 37.186176], "type": "Point"}, "id": "FgfsNjYJnEFvDPadJdkOWsSlAGg=", "properties": {"@source_uri": "https://tools.usps.com/UspsToolsRestServices/rest/POLocator/findLocations", "@spider": "usps_collection_boxes", "addr:city": "JEWELL RIDGE", "addr:country": "US", "addr:full": "978 JEWELL MAIN RD", "addr:postcode": "24622", "addr:state": "VA", "amenity": "post_box", "brand": "United States Postal Service", "brand:wikidata": "Q668687", "collection_times": "Mo-Fr 12:15; Sa 11:15", "name": "USPS COLLECTION BOX - PO LOBBY", "note": "ON 12/24 AND 12/31, THIS BOX MAY BE COLLECTED AS EARLY AS 12 NOON.", "nsi_id": "unitedstatespostalservice-a77078", "operator": "United States Postal Service", "operator:short": "USPS", "operator:type": "public", "operator:wikidata": "Q668687", "ref": "2462200001"}, "type": "Feature"}
{"geometry": {"coordinates": [-81.785856747, 37.186132035], "type": "Point"}, "id": "yUnUa3QUxQFsthO3l2ci1QLS2V4=", "properties": {"@source_uri": "https://tools.usps.com/UspsToolsRestServices/rest/POLocator/findLocations", "@spider": "usps_collection_boxes", "addr:city": "JEWELL RIDGE", "addr:country": "US", "addr:full": "978 JEWELL MAIN RD", "addr:postcode": "24622", "addr:state": "VA", "amenity": "post_box", "brand": "United States Postal Service", "brand:wikidata": "Q668687", "collection_times": "Mo-Fr 12:15; Sa 11:15", "name": "USPS COLLECTION BOX - PO LOBBY", "note": "ON 12/24 AND 12/31, THIS BOX MAY BE COLLECTED AS EARLY AS 12 NOON.", "nsi_id": "unitedstatespostalservice-a77078", "operator": "United States Postal Service", "operator:short": "USPS", "operator:type": "public", "operator:wikidata": "Q668687", "ref": "2462200003"}, "type": "Feature"}
{"geometry": {"coordinates": [-81.986047, 37.202115], "type": "Point"}, "id": "SdfBY7dUHw8JfgQTe5v2MrX70TM=", "properties": {"@source_uri": "https://tools.usps.com/UspsToolsRestServices/rest/POLocator/findLocations", "@spider": "usps_collection_boxes", "addr:city": "KEEN MOUNTAIN", "addr:country": "US", "addr:full": "1063 KEEN MOUNTAIN CAMP RD", "addr:postcode": "24624", "addr:state": "VA", "amenity": "post_box", "brand": "United States Postal Service", "brand:wikidata": "Q668687", "collection_times": "Mo-Fr 12:00; Sa 09:00", "name": "USPS COLLECTION BOX - BLUE BOX", "nsi_id": "unitedstatespostalservice-a77078", "operator": "United States Postal Service", "operator:short": "USPS", "operator:type": "public", "operator:wikidata": "Q668687", "ref": "2462400000"}, "type": "Feature"}
{"geometry": {"coordinates": [-81.986047, 37.202115], "type": "Point"}, "id": "A0gd7f3lsDP4Va-oK71D_xwgKI4=", "properties": {"@source_uri": "https://tools.usps.com/UspsToolsRestServices/rest/POLocator/findLocations", "@spider": "usps_collection_boxes", "addr:city": "KEEN MOUNTAIN", "addr:country": "US", "addr:full": "1063 KEEN MOUNTAIN CAMP RD", "addr:postcode": "24624", "addr:state": "VA", "amenity": "post_box", "brand": "United States Postal Service", "brand:wikidata": "Q668687", "collection_times": "Mo-Fr 12:00; Sa 09:15", "name": "USPS COLLECTION BOX - PO LOBBY", "nsi_id": "unitedstatespostalservice-a77078", "operator": "United States Postal Service", "operator:short": "USPS", "operator:type": "public", "operator:wikidata": "Q668687", "ref": "2462400001"}, "type": "Feature"}
{"geometry": {"coordinates": [-81.984100702, 37.202161261], "type": "Point"}, "id": "2Neumwke6i3rp2TNOibUh0SLSw0=", "properties": {"@source_uri": "https://tools.usps.com/UspsToolsRestServices/rest/POLocator/findLocations", "@spider": "usps_collection_boxes", "addr:city": "KEEN MOUNTAIN", "addr:country": "US", "addr:full": "1063 KEEN MOUNTAIN CAMP RD", "addr:postcode": "24624", "addr:state": "VA", "amenity": "post_box", "brand": "United States Postal Service", "brand:wikidata": "Q668687", "collection_times": "Mo-Fr 12:00; Sa 09:15", "name": "USPS COLLECTION BOX - PO LOBBY", "nsi_id": "unitedstatespostalservice-a77078", "operator": "United States Postal Service", "operator:short": "USPS", "operator:type": "public", "operator:wikidata": "Q668687", "ref": "2462400003"}, "type": "Feature"}
{"geometry": {"coordinates": [-82.213169, 37.194179], "type": "Point"}, "id": "K0xMayM_TyEk0B5AFucQt-DcZW8=", "properties": {"@source_uri": "https://tools.usps.com/UspsToolsRestServices/rest/POLocator/findLocations", "@spider": "usps_collection_boxes", "addr:city": "MAVISDALE", "addr:country": "US", "addr:full": "9170 GARDEN CREEK RD", "addr:postcode": "24627", "addr:state": "VA", "amenity": "post_box", "brand": "United States Postal Service", "brand:wikidata": "Q668687", "collection_times": "Mo-Fr 12:45; Sa 10:30", "name": "USPS COLLECTION BOX - BLUE BOX", "note": "ON 12/24 AND 12/31, THIS BOX MAY BE COLLECTED AS EARLY AS 12 NOON.", "nsi_id": "unitedstatespostalservice-a77078", "operator": "United States Postal Service", "operator:short": "USPS", "operator:type": "public", "operator:wikidata": "Q668687", "ref": "2462700000"}, "type": "Feature"}
{"geometry": {"coordinates": [-82.213169, 37.194179], "type": "Point"}, "id": "FCiBjnz0wfMRUY3IRnkevwtb07c=", "properties": {"@source_uri": "https://tools.usps.com/UspsToolsRestServices/rest/POLocator/findLocations", "@spider": "usps_collection_boxes", "addr:city": "MAVISDALE", "addr:country": "US", "addr:full": "9170 GARDEN CREEK RD", "addr:postcode": "24627", "addr:state": "VA", "amenity": "post_box", "brand": "United States Postal Service", "brand:wikidata": "Q668687", "collection_times": "Mo-Fr 12:45; Sa 10:45", "name": "USPS COLLECTION BOX - PO LOBBY", "note": "ON 12/24 AND 12/31, THIS BOX MAY BE COLLECTED AS EARLY AS 12 NOON.", "nsi_id": "unitedstatespostalservice-a77078", "operator": "United States Postal Service", "operator:short": "USPS", "operator:type": "public", "operator:wikidata": "Q668687", "ref": "2462700001"}, "type": "Feature"}
{"geometry": {"coordinates": [-82.008396702, 37.19668099], "type": "Point"}, "id": "S5GZg4ZjyurnPN6Lv6dey390mGs=", "properties": {"@source_uri": "https://tools.usps.com/UspsToolsRestServices/rest/POLocator/findLocations", "@spider": "usps_collection_boxes", "addr:city": "MAVISDALE", "addr:country": "US", "addr:full": "9170 GARDEN CREEK RD", "addr:postcode": "24627", "addr:state": "VA", "amenity": "post_box", "brand": "United States Postal Service", "brand:wikidata": "Q668687", "collection_times": "Mo-Fr 13:00; Sa 10:30", "name": "USPS COLLECTION BOX - PO LOBBY", "note": "ON 12/24 AND 12/31, THIS BOX MAY BE COLLECTED AS EARLY AS 12 NOON.", "nsi_id": "unitedstatespostalservice-a77078", "operator": "United States Postal Service", "operator:short": "USPS", "operator:type": "public", "operator:wikidata": "Q668687", "ref": "2462700003"}, "type": "Feature"}
{"geometry": {"coordinates": [-82.173606, 37.303475], "type": "Point"}, "id": "nFNiAzqXWsCzRslsNy7wx1GXKzU=", "properties": {"@source_uri": "https://tools.usps.com/UspsToolsRestServices/rest/POLocator/findLocations", "@spider": "usps_collection_boxes", "addr:city": "MAXIE", "addr:country": "US", "addr:full": "1793 BULL CREEK RD", "addr:postcode": "24628", "addr:state": "VA", "amenity": "post_box", "brand": "United States Postal Service", "brand:wikidata": "Q668687", "collection_times": "Mo-Fr 12:00; Sa 11:00", "name": "USPS COLLECTION BOX - BLUE BOX", "nsi_id": "unitedstatespostalservice-a77078", "operator": "United States Postal Service", "operator:short": "USPS", "operator:type": "public", "operator:wikidata": "Q668687", "ref": "2462800000"}, "type": "Feature"}
{"geometry": {"coordinates": [-82.220167, 37.29224], "type": "Point"}, "id": "q0o8czmKH50_9rlfKo8mTVjDv1w=", "properties": {"@source_uri": "https://tools.usps.com/UspsToolsRestServices/rest/POLocator/findLocations", "@spider": "usps_collection_boxes", "addr:city": "MAXIE", "addr:country": "US", "addr:full": "1793 BULL CREEK RD", "addr:postcode": "24628", "addr:state": "VA", "amenity": "post_box", "brand": "United States Postal Service", "brand:wikidata": "Q668687", "collection_times": "Mo-Fr 12:30; Sa 11:00", "name": "USPS COLLECTION BOX - PO LOBBY", "note": "ON 12/24 AND 12/31, THIS BOX MAY BE COLLECTED AS EARLY AS 12 NOON.", "nsi_id": "unitedstatespostalservice-a77078", "operator": "United States Postal Service", "operator:short": "USPS", "operator:type": "public", "operator:wikidata": "Q668687", "ref": "2462800001"}, "type": "Feature"}
{"geometry": {"coordinates": [-82.220167, 37.29224], "type": "Point"}, "id": "fQgr3IFSaNafCUp5vswh6B6c8GQ=", "properties": {"@source_uri": "https://tools.usps.com/UspsToolsRestServices/rest/POLocator/findLocations", "@spider": "usps_collection_boxes", "addr:city": "MAXIE", "addr:country": "US", "addr:full": "1793 BULL CREEK RD", "addr:postcode": "24628", "addr:state": "VA", "amenity": "post_box", "brand": "United States Postal Service", "brand:wikidata": "Q668687", "collection_times": "Mo-Fr 12:30; Sa 11:00", "name": "USPS COLLECTION BOX - PO LOBBY", "note": "ON 12/24 AND 12/31, THIS BOX MAY BE COLLECTED AS EARLY AS 12 NOON.", "nsi_id": "unitedstatespostalservice-a77078", "operator": "United States Postal Service", "operator:short": "USPS", "operator:type": "public", "operator:wikidata": "Q668687", "ref": "2462800002"}, "type": "Feature"}
{"geometry": {"coordinates": [-82.17358614, 37.303504131], "type": "Point"}, "id": "cy9o6FxZey-ffUuj4OOc57rb0qg=", "properties": {"@source_uri": "https://tools.usps.com/UspsToolsRestServices/rest/POLocator/findLocations", "@spider": "usps_collection_boxes", "addr:city": "MAXIE", "addr:country": "US", "addr:full": "1793 BULL CREEK RD", "addr:postcode": "24628", "addr:state": "VA", "amenity": "post_box", "brand": "United States Postal Service", "brand:wikidata": "Q668687", "collection_times": "Mo-Fr 12:30; Sa 11:30", "name": "USPS COLLECTION BOX - PO LOBBY", "note": "ON 12/24 AND 12/31, THIS BOX MAY BE COLLECTED AS EARLY AS 12 NOON.", "nsi_id": "unitedstatespostalservice-a77078", "operator": "United States Postal Service", "operator:short": "USPS", "operator:type": "public", "operator:wikidata": "Q668687", "ref": "2462800004"}, "type": "Feature"}
{"geometry": {"coordinates": [-81.507370651, 37.134616481], "type": "Point"}, "id": "Bw3BWFfubLSS7a1dTd28DAHTvzo=", "properties": {"@source_uri": "https://tools.usps.com/UspsToolsRestServices/rest/POLocator/findLocations", "@spider": "usps_collection_boxes", "addr:city": "NORTH TAZEWELL", "addr:country": "US", "addr:full": "1511 RIVERSIDE DRIVE", "addr:postcode": "24630", "addr:state": "VA", "amenity": "post_box", "brand": "United States Postal Service", "brand:wikidata": "Q668687", "collection_times": "Mo-Fr 16:30; Sa 10:00", "name": "USPS COLLECTION BOX - BLUE BOX", "note": "ON 12/24 AND 12/31, THIS BOX MAY BE COLLECTED AS EARLY AS 12 NOON.", "nsi_id": "unitedstatespostalservice-a77078", "operator": "United States Postal Service", "operator:short": "USPS", "operator:type": "public", "operator:wikidata": "Q668687", "ref": "2463000000"}, "type": "Feature"}
{"geometry": {"coordinates": [-81.527208, 37.132981], "type": "Point"}, "id": "gDgMbyhwHtWeuZDuRY4nN35xc6c=", "properties": {"@source_uri": "https://tools.usps.com/UspsToolsRestServices/rest/POLocator/findLocations", "@spider": "usps_collection_boxes", "addr:city": "NORTH TAZEWELL", "addr:country": "US", "addr:full": "101 E RIVERSIDE DR", "addr:postcode": "24630", "addr:state": "VA", "amenity": "post_box", "brand": "United States Postal Service", "brand:wikidata": "Q668687", "collection_times": "Mo-Fr 16:30; Sa 10:00", "name": "USPS COLLECTION BOX - PO LOBBY", "note": "ON 12/24 AND 12/31, THIS BOX MAY BE COLLECTED AS EARLY AS 12 NOON.", "nsi_id": "unitedstatespostalservice-a77078", "operator": "United States Postal Service", "operator:short": "USPS", "operator:type": "public", "operator:wikidata": "Q668687", "ref": "2463000002"}, "type": "Feature"}
{"geometry": {"coordinates": [-81.507370651, 37.134616481], "type": "Point"}, "id": "kZA9WxVcUFIAz0Vjx1hMzgqGIuU=", "properties": {"@source_uri": "https://tools.usps.com/UspsToolsRestServices/rest/POLocator/findLocations", "@spider": "usps_collection_boxes", "addr:city": "NORTH TAZEWELL", "addr:country": "US", "addr:full": "1511 RIVERSIDE DR", "addr:postcode": "24630", "addr:state": "VA", "amenity": "post_box", "brand": "United States Postal Service", "brand:wikidata": "Q668687", "collection_times": "Mo-Fr 16:30; Sa 10:30", "name": "USPS COLLECTION BOX - PO LOBBY", "note": "ON 12/24 AND 12/31, THIS BOX MAY BE COLLECTED AS EARLY AS 12 NOON.", "nsi_id": "unitedstatespostalservice-a77078", "operator": "United States Postal Service", "operator:short": "USPS", "operator:type": "public", "operator:wikidata": "Q668687", "ref": "2463000005"}, "type": "Feature"}
{"geometry": {"coordinates": [-82.002078611, 37.209465777], "type": "Point"}, "id": "M9OXXsR1D5JV9AnVZs4XkXiXF4k=", "properties": {"@source_uri": "https://tools.usps.com/UspsToolsRestServices/rest/POLocator/findLocations", "@spider": "usps_collection_boxes", "addr:city": "OAKWOOD", "addr:country": "US", "addr:full": "10735 RIVERSIDE DR", "addr:postcode": "24631", "addr:state": "VA", "amenity": "post_box", "brand": "United States Postal Service", "brand:wikidata": "Q668687", "collection_times": "Mo-Fr 16:00; Sa 10:15", "name": "USPS COLLECTION BOX - BLUE BOX", "note": "ON 12/24 AND 12/31, THIS BOX MAY BE COLLECTED AS EARLY AS 12 NOON.", "nsi_id": "unitedstatespostalservice-a77078", "operator": "United States Postal Service", "operator:short": "USPS", "operator:type": "public", "operator:wikidata": "Q668687", "ref": "2463100000"}, "type": "Feature"}
{"geometry": {"coordinates": [-82.002078611, 37.209465777], "type": "Point"}, "id": "Ocu8P4ffW6hBy1j0YyvwDy7e1K4=", "properties": {"@source_uri": "https://tools.usps.com/UspsToolsRestServices/rest/POLocator/findLocations", "@spider": "usps_collection_boxes", "addr:city": "OAKWOOD", "addr:country": "US", "addr:full": "10735 RIVERSIDE DR", "addr:postcode": "24631", "addr:state": "VA", "amenity": "post_box", "brand": "United States Postal Service", "brand:wikidata": "Q668687", "collection_times": "Mo-Fr 16:00; Sa 10:15", "name": "USPS COLLECTION BOX - PO LOBBY", "note": "ON 12/24 AND 12/31, THIS BOX MAY BE COLLECTED AS EARLY AS 12 NOON.", "nsi_id": "unitedstatespostalservice-a77078", "operator": "United States Postal Service", "operator:short": "USPS", "operator:type": "public", "operator:wikidata": "Q668687", "ref": "2463100001"}, "type": "Feature"}
{"geometry": {"coordinates": [-82.002078611, 37.209465777], "type": "Point"}, "id": "5KR2VA1x633q1vr3Y9y_bwv-8so=", "properties": {"@source_uri": "https://tools.usps.com/UspsToolsRestServices/rest/POLocator/findLocations", "@spider": "usps_collection_boxes", "addr:city": "OAKWOOD", "addr:country": "US", "addr:full": "10735 RIVERSIDE DR", "addr:postcode": "24631", "addr:state": "VA", "amenity": "post_box", "brand": "United States Postal Service", "brand:wikidata": "Q668687", "collection_times": "Mo-Fr 16:00; Sa 10:00", "name": "USPS COLLECTION BOX - PO LOBBY", "note": "ON 12/24 AND 12/31, THIS BOX MAY BE COLLECTED AS EARLY AS 12 NOON.", "nsi_id": "unitedstatespostalservice-a77078", "operator": "United States Postal Service", "operator:short": "USPS", "operator:type": "public", "operator:wikidata": "Q668687", "ref": "2463100003"}, "type": "Feature"}
{"geometry": {"coordinates": [-81.9182700021, 37.245386996], "type": "Point"}, "id": "Z2oeb8A8p3ljAZz4NH0vTLouVH0=", "properties": {"@source_uri": "https://tools.usps.com/UspsToolsRestServices/rest/POLocator/findLocations", "@spider": "usps_collection_boxes", "addr:city": "PILGRAMS KNOB", "addr:country": "US", "addr:full": "14006 DISMAL RIVER RD", "addr:postcode": "24634", "addr:state": "VA", "amenity": "post_box", "brand": "United States Postal Service", "brand:wikidata": "Q668687", "collection_times": "Mo-Fr 14:20; Sa 12:45", "name": "USPS COLLECTION BOX - BLUE BOX", "note": "ON 12/24 AND 12/31, THIS BOX MAY BE COLLECTED AS EARLY AS 12 NOON.", "nsi_id": "unitedstatespostalservice-a77078", "operator": "United States Postal Service", "operator:short": "USPS", "operator:type": "public", "operator:wikidata": "Q668687", "ref": "2463400000"}, "type": "Feature"}
{"geometry": {"coordinates": [-81.9182700021, 37.245386996], "type": "Point"}, "id": "pVvVEbyf-QxsOuKkcWWnn5Vq8LI=", "properties": {"@source_uri": "https://tools.usps.com/UspsToolsRestServices/rest/POLocator/findLocations", "@spider": "usps_collection_boxes", "addr:city": "PILGRAMS KNOB", "addr:country": "US", "addr:full": "14006 DISMAL RIVER RD", "addr:postcode": "24634", "addr:state": "VA", "amenity": "post_box", "brand": "United States Postal Service", "brand:wikidata": "Q668687", "collection_times": "Mo-Fr 14:20; Sa 12:45", "name": "USPS COLLECTION BOX - PO LOBBY", "note": "ON 12/24 AND 12/31, THIS BOX MAY BE COLLECTED AS EARLY AS 12 NOON.", "nsi_id": "unitedstatespostalservice-a77078", "operator": "United States Postal Service", "operator:short": "USPS", "operator:type": "public", "operator:wikidata": "Q668687", "ref": "2463400001"}, "type": "Feature"}
{"geometry": {"coordinates": [-81.9182700021, 37.245386996], "type": "Point"}, "id": "TVhn_HGYXOx2CUTi2mAtSA6RDbo=", "properties": {"@source_uri": "https://tools.usps.com/UspsToolsRestServices/rest/POLocator/findLocations", "@spider": "usps_collection_boxes", "addr:city": "PILGRAMS KNOB", "addr:country": "US", "addr:full": "14006 DISMAL RIVER RD", "addr:postcode": "24634", "addr:state": "VA", "amenity": "post_box", "brand": "United States Postal Service", "brand:wikidata": "Q668687", "collection_times": "Mo-Fr 14:30; Sa 12:30", "name": "USPS COLLECTION BOX - PO LOBBY", "note": "ON 12/24 AND 12/31, THIS BOX MAY BE COLLECTED AS EARLY AS 12 NOON.", "nsi_id": "unitedstatespostalservice-a77078", "operator": "United States Postal Service", "operator:short": "USPS", "operator:type": "public", "operator:wikidata": "Q668687", "ref": "2463400003"}, "type": "Feature"}
{"geometry": {"coordinates": [-81.339789, 37.304051], "type": "Point"}, "id": "-GapsV-XrXfeDXH18T2eH6avS7I=", "properties": {"@source_uri": "https://tools.usps.com/UspsToolsRestServices/rest/POLocator/findLocations", "@spider": "usps_collection_boxes", "addr:city": "POCAHONTAS", "addr:country": "US", "addr:full": "241 CENTRE ST", "addr:postcode": "24635", "addr:state": "VA", "amenity": "post_box", "brand": "United States Postal Service", "brand:wikidata": "Q668687", "collection_times": "Mo-Fr 11:45; Sa 11:30", "name": "USPS COLLECTION BOX - PO LOBBY", "nsi_id": "unitedstatespostalservice-a77078", "operator": "United States Postal Service", "operator:short": "USPS", "operator:type": "public", "operator:wikidata": "Q668687", "ref": "2463500001"}, "type": "Feature"}
{"geometry": {"coordinates": [-81.340362483, 37.305127436], "type": "Point"}, "id": "wjLJ7CwqS_qLJHA-GfhSiC165s4=", "properties": {"@source_uri": "https://tools.usps.com/UspsToolsRestServices/rest/POLocator/findLocations", "@spider": "usps_collection_boxes", "addr:city": "POCAHONTAS", "addr:country": "US", "addr:full": "300 CENTRE ST", "addr:postcode": "24635", "addr:state": "VA", "amenity": "post_box", "brand": "United States Postal Service", "brand:wikidata": "Q668687", "collection_times": "Mo-Fr 16:00; Sa 11:30", "name": "USPS COLLECTION BOX - PO LOBBY", "note": "ON 12/24 AND 12/31, THIS BOX MAY BE COLLECTED AS EARLY AS 12 NOON.", "nsi_id": "unitedstatespostalservice-a77078", "operator": "United States Postal Service", "operator:short": "USPS", "operator:type": "public", "operator:wikidata": "Q668687", "ref": "2463500003"}, "type": "Feature"}
{"geometry": {"coordinates": [-81.748028657, 37.058542107], "type": "Point"}, "id": "lIugXl4hGQieRZObwUmlBtTmwI8=", "properties": {"@source_uri": "https://tools.usps.com/UspsToolsRestServices/rest/POLocator/findLocations", "@spider": "usps_collection_boxes", "addr:city": "POUNDING MILL", "addr:country": "US", "addr:full": "4355 INDIAN PAINT RD", "addr:postcode": "24637", "addr:state": "VA", "amenity": "post_box", "brand": "United States Postal Service", "brand:wikidata": "Q668687", "collection_times": "Mo-Fr 16:30; Sa 10:30", "name": "USPS COLLECTION BOX - BLUE BOX", "note": "ON 12/24 AND 12/31, THIS BOX MAY BE COLLECTED AS EARLY AS 12 NOON.", "nsi_id": "unitedstatespostalservice-a77078", "operator": "United States Postal Service", "operator:short": "USPS", "operator:type": "public", "operator:wikidata": "Q668687", "ref": "2463700000"}, "type": "Feature"}
{"geometry": {"coordinates": [-81.748028657, 37.058542107], "type": "Point"}, "id": "Joj_WqfUSZ1wjtHn4Ix6SyIZBI8=", "properties": {"@source_uri": "https://tools.usps.com/UspsToolsRestServices/rest/POLocator/findLocations", "@spider": "usps_collection_boxes", "addr:city": "POUNDING MILL", "addr:country": "US", "addr:full": "4355 INDIAN PAINT RD", "addr:postcode": "24637", "addr:state": "VA", "amenity": "post_box", "brand": "United States Postal Service", "brand:wikidata": "Q668687", "collection_times": "Mo-Fr 17:00; Sa 10:30", "name": "USPS COLLECTION BOX - PO LOBBY", "note": "ON 12/24 AND 12/31, THIS BOX MAY BE COLLECTED AS EARLY AS 12 NOON.", "nsi_id": "unitedstatespostalservice-a77078", "operator": "United States Postal Service", "operator:short": "USPS", "operator:type": "public", "operator:wikidata": "Q668687", "ref": "2463700003"}, "type": "Feature"}
{"geometry": {"coordinates": [-81.748028657, 37.058542107], "type": "Point"}, "id": "xvLgNMMrJ4121gEBGHlKknzOi-A=", "properties": {"@source_uri": "https://tools.usps.com/UspsToolsRestServices/rest/POLocator/findLocations", "@spider": "usps_collection_boxes", "addr:city": "POUNDING MILL", "addr:country": "US", "addr:full": "4355 INDIAN PAINT RD", "addr:postcode": "24637", "addr:state": "VA", "amenity": "post_box", "brand": "United States Postal Service", "brand:wikidata": "Q668687", "collection_times": "Mo-Fr 17:00; Sa 10:30", "name": "USPS COLLECTION BOX - PO LOBBY", "note": "ON 12/24 AND 12/31, THIS BOX MAY BE COLLECTED AS EARLY AS 12 NOON.", "nsi_id": "unitedstatespostalservice-a77078", "operator": "United States Postal Service", "operator:short": "USPS", "operator:type": "public", "operator:wikidata": "Q668687", "ref": "2463700005"}, "type": "Feature"}
{"geometry": {"coordinates": [-81.853740872, 37.086894187], "type": "Point"}, "id": "lVFXocTiLCsKWgKauLKKvVtIcjY=", "properties": {"@source_uri": "https://tools.usps.com/UspsToolsRestServices/rest/POLocator/findLocations", "@spider": "usps_collection_boxes", "addr:city": "RAVEN", "addr:country": "US", "addr:full": "561 RAVEN RD", "addr:postcode": "24639", "addr:state": "VA", "amenity": "post_box", "brand": "United States Postal Service", "brand:wikidata": "Q668687", "collection_times": "Mo-Fr 16:00; Sa 11:00", "name": "USPS COLLECTION BOX - BLUE BOX", "note": "ON 12/24 AND 12/31, THIS BOX MAY BE COLLECTED AS EARLY AS 12 NOON.", "nsi_id": "unitedstatespostalservice-a77078", "operator": "United States Postal Service", "operator:short": "USPS", "operator:type": "public", "operator:wikidata": "Q668687", "ref": "2463900000"}, "type": "Feature"}
{"geometry": {"coordinates": [-81.853740872, 37.086894187], "type": "Point"}, "id": "N81OqdEJenVmQqEiwthnoteJh4U=", "properties": {"@source_uri": "https://tools.usps.com/UspsToolsRestServices/rest/POLocator/findLocations", "@spider": "usps_collection_boxes", "addr:city": "RAVEN", "addr:country": "US", "addr:full": "561 RAVEN RD", "addr:postcode": "24639", "addr:state": "VA", "amenity": "post_box", "brand": "United States Postal Service", "brand:wikidata": "Q668687", "collection_times": "Mo-Fr 16:00; Sa 11:00", "name": "USPS COLLECTION BOX - PO LOBBY", "note": "ON 12/24 AND 12/31, THIS BOX MAY BE COLLECTED AS EARLY AS 12 NOON.", "nsi_id": "unitedstatespostalservice-a77078", "operator": "United States Postal Service", "operator:short": "USPS", "operator:type": "public", "operator:wikidata": "Q668687", "ref": "2463900001"}, "type": "Feature"}
{"geometry": {"coordinates": [-81.853740872, 37.086894187], "type": "Point"}, "id": "x-ntSoRbIC6Y0_Dv6rhTrZElhxo=", "properties": {"@source_uri": "https://tools.usps.com/UspsToolsRestServices/rest/POLocator/findLocations", "@spider": "usps_collection_boxes", "addr:city": "RAVEN", "addr:country": "US", "addr:full": "561 RAVEN RD", "addr:postcode": "24639", "addr:state": "VA", "amenity": "post_box", "brand": "United States Postal Service", "brand:wikidata": "Q668687", "collection_times": "Mo-Fr 16:00; Sa 10:30", "name": "USPS COLLECTION BOX - PO LOBBY", "note": "ON 12/24 AND 12/31, THIS BOX MAY BE COLLECTED AS EARLY AS 12 NOON.", "nsi_id": "unitedstatespostalservice-a77078", "operator": "United States Postal Service", "operator:short": "USPS", "operator:type": "public", "operator:wikidata": "Q668687", "ref": "2463900003"}, "type": "Feature"}
{"geometry": {"coordinates": [-81.8055691, 37.094309], "type": "Point"}, "id": "MkVusjV6FOhlDL8sGyFuVcOdyWo=", "properties": {"@source_uri": "https://tools.usps.com/UspsToolsRestServices/rest/POLocator/findLocations", "@spider": "usps_collection_boxes", "addr:city": "RICHLANDS", "addr:country": "US", "addr:full": "2401 FRONT ST", "addr:postcode": "24641", "addr:state": "VA", "amenity": "post_box", "brand": "United States Postal Service", "brand:wikidata": "Q668687", "collection_times": "Mo-Fr 15:00; Sa 14:00", "name": "USPS COLLECTION BOX - BLUE BOX", "note": "ON 12/24 AND 12/31, THIS BOX MAY BE COLLECTED AS EARLY AS 12 NOON.", "nsi_id": "unitedstatespostalservice-a77078", "operator": "United States Postal Service", "operator:short": "USPS", "operator:type": "public", "operator:wikidata": "Q668687", "ref": "2464100010"}, "type": "Feature"}
{"geometry": {"coordinates": [-81.799081852, 37.09358052], "type": "Point"}, "id": "amOa9p4HAHBiw3iu3bDKxWmTP3I=", "properties": {"@source_uri": "https://tools.usps.com/UspsToolsRestServices/rest/POLocator/findLocations", "@spider": "usps_collection_boxes", "addr:city": "RICHLANDS", "addr:country": "US", "addr:full": "1430 FRONT ST", "addr:postcode": "24641", "addr:state": "VA", "amenity": "post_box", "brand": "United States Postal Service", "brand:wikidata": "Q668687", "collection_times": "Mo-Fr 16:30; Sa 14:00", "name": "USPS COLLECTION BOX - PO LOBBY", "note": "ON 12/24 AND 12/31, THIS BOX MAY BE COLLECTED AS EARLY AS 12 NOON.", "nsi_id": "unitedstatespostalservice-a77078", "operator": "United States Postal Service", "operator:short": "USPS", "operator:type": "public", "operator:wikidata": "Q668687", "ref": "2464100012"}, "type": "Feature"}
{"geometry": {"coordinates": [-81.799081852, 37.09358052], "type": "Point"}, "id": "y__pSkZKg9j4Wndds6CgOYCKX5g=", "properties": {"@source_uri": "https://tools.usps.com/UspsToolsRestServices/rest/POLocator/findLocations", "@spider": "usps_collection_boxes", "addr:city": "RICHLANDS", "addr:country": "US", "addr:full": "1430 FRONT ST", "addr:postcode": "24641", "addr:state": "VA", "amenity": "post_box", "brand": "United States Postal Service", "brand:wikidata": "Q668687", "collection_times": "Mo-Fr 16:30", "name": "USPS COLLECTION BOX - PO LOBBY", "note": "ON 12/24 AND 12/31, THIS BOX MAY BE COLLECTED AS EARLY AS 12 NOON.", "nsi_id": "unitedstatespostalservice-a77078", "operator": "United States Postal Service", "operator:short": "USPS", "operator:type": "public", "operator:wikidata": "Q668687", "ref": "2464100015"}, "type": "Feature"}
{"geometry": {"coordinates": [-81.799204023, 37.093629029], "type": "Point"}, "id": "cEXQA0ZxB5FdEVJTpE0PC21r4Pg=", "properties": {"@source_uri": "https://tools.usps.com/UspsToolsRestServices/rest/POLocator/findLocations", "@spider": "usps_collection_boxes", "addr:city": "RICHLANDS", "addr:country": "US", "addr:full": "1430 FRONT ST", "addr:postcode": "24641", "addr:state": "VA", "amenity": "post_box", "brand": "United States Postal Service", "brand:wikidata": "Q668687", "collection_times": "Mo-Fr 16:30; Sa 14:00", "name": "USPS COLLECTION BOX - BLUE BOX", "note": "ON 12/24 AND 12/31, THIS BOX MAY BE COLLECTED AS EARLY AS 12 NOON.", "nsi_id": "unitedstatespostalservice-a77078", "operator": "United States Postal Service", "operator:short": "USPS", "operator:type": "public", "operator:wikidata": "Q668687", "ref": "2464100016"}, "type": "Feature"}
{"geometry": {"coordinates": [-82.0330705, 37.145736], "type": "Point"}, "id": "-2vwSmAxo4YvwQztKFjE0sYy_xo=", "properties": {"@source_uri": "https://tools.usps.com/UspsToolsRestServices/rest/POLocator/findLocations", "@spider": "usps_collection_boxes", "addr:city": "ROWE", "addr:country": "US", "addr:full": "2772 ROBINSON FORK RD", "addr:postcode": "24646", "addr:state": "VA", "amenity": "post_box", "brand": "United States Postal Service", "brand:wikidata": "Q668687", "collection_times": "Mo-Fr 12:00; Sa 10:00", "name": "USPS COLLECTION BOX - BLUE BOX", "nsi_id": "unitedstatespostalservice-a77078", "operator": "United States Postal Service", "operator:short": "USPS", "operator:type": "public", "operator:wikidata": "Q668687", "ref": "2464600000"}, "type": "Feature"}
{"geometry": {"coordinates": [-82.0331036, 37.145693], "type": "Point"}, "id": "68o7JNQaCWAWSmZ8eR3qbRNHG6M=", "properties": {"@source_uri": "https://tools.usps.com/UspsToolsRestServices/rest/POLocator/findLocations", "@spider": "usps_collection_boxes", "addr:city": "ROWE", "addr:country": "US", "addr:full": "2772 ROBINSON FORK RD", "addr:postcode": "24646", "addr:state": "VA", "amenity": "post_box", "brand": "United States Postal Service", "brand:wikidata": "Q668687", "collection_times": "Mo-Fr 12:00; Sa 10:00", "name": "USPS COLLECTION BOX - PO LOBBY", "nsi_id": "unitedstatespostalservice-a77078", "operator": "United States Postal Service", "operator:short": "USPS", "operator:type": "public", "operator:wikidata": "Q668687", "ref": "2464600001"}, "type": "Feature"}
{"geometry": {"coordinates": [-82.033073863, 37.145718852], "type": "Point"}, "id": "CT24Ks-temT39AIBojkdtOp4tIY=", "properties": {"@source_uri": "https://tools.usps.com/UspsToolsRestServices/rest/POLocator/findLocations", "@spider": "usps_collection_boxes", "addr:city": "ROWE", "addr:country": "US", "addr:full": "2772 ROBINSON FORK RD", "addr:postcode": "24646", "addr:state": "VA", "amenity": "post_box", "brand": "United States Postal Service", "brand:wikidata": "Q668687", "collection_times": "Mo-Fr 12:00; Sa 10:15", "name": "USPS COLLECTION BOX - PO LOBBY", "nsi_id": "unitedstatespostalservice-a77078", "operator": "United States Postal Service", "operator:short": "USPS", "operator:type": "public", "operator:wikidata": "Q668687", "ref": "2464600003"}, "type": "Feature"}
{"geometry": {"coordinates": [-81.921626635, 37.045358445], "type": "Point"}, "id": "0qc7I6pBNcFGB9fvnI6HtBJvgTo=", "properties": {"@source_uri": "https://tools.usps.com/UspsToolsRestServices/rest/POLocator/findLocations", "@spider": "usps_collection_boxes", "addr:city": "SWORDS CREEK", "addr:country": "US", "addr:full": "4209 SWORDS CREEK RD", "addr:postcode": "24649", "addr:state": "VA", "amenity": "post_box", "brand": "United States Postal Service", "brand:wikidata": "Q668687", "collection_times": "Mo-Fr 16:15; Sa 11:15", "name": "USPS COLLECTION BOX - BLUE BOX", "note": "ON 12/24 AND 12/31, THIS BOX MAY BE COLLECTED AS EARLY AS 12 NOON.", "nsi_id": "unitedstatespostalservice-a77078", "operator": "United States Postal Service", "operator:short": "USPS", "operator:type": "public", "operator:wikidata": "Q668687", "ref": "2464900000"}, "type": "Feature"}
{"geometry": {"coordinates": [-81.921626635, 37.045358445], "type": "Point"}, "id": "BPQ_suYSqwyRDasOjP-ylxgTLyQ=", "properties": {"@source_uri": "https://tools.usps.com/UspsToolsRestServices/rest/POLocator/findLocations", "@spider": "usps_collection_boxes", "addr:city": "SWORDS CREEK", "addr:country": "US", "addr:full": "4209 SWORDS CREEK RD", "addr:postcode": "24649", "addr:state": "VA", "amenity": "post_box", "brand": "United States Postal Service", "brand:wikidata": "Q668687", "collection_times": "Mo-Fr 16:15; Sa 11:15", "name": "USPS COLLECTION BOX - PO LOBBY", "note": "ON 12/24 AND 12/31, THIS BOX MAY BE COLLECTED AS EARLY AS 12 NOON.", "nsi_id": "unitedstatespostalservice-a77078", "operator": "United States Postal Service", "operator:short": "USPS", "operator:type": "public", "operator:wikidata": "Q668687", "ref": "2464900001"}, "type": "Feature"}
{"geometry": {"coordinates": [-81.921626635, 37.045358445], "type": "Point"}, "id": "lNMhJiBz_1nhcPDBqBP1hqSyiF4=", "properties": {"@source_uri": "https://tools.usps.com/UspsToolsRestServices/rest/POLocator/findLocations", "@spider": "usps_collection_boxes", "addr:city": "SWORDS CREEK", "addr:country": "US", "addr:full": "4209 SWORDS CREEK RD", "addr:postcode": "24649", "addr:state": "VA", "amenity": "post_box", "brand": "United States Postal Service", "brand:wikidata": "Q668687", "collection_times": "Mo-Fr 16:00; Sa 11:00", "name": "USPS COLLECTION BOX - PO LOBBY", "note": "ON 12/24 AND 12/31, THIS BOX MAY BE COLLECTED AS EARLY AS 12 NOON.", "nsi_id": "unitedstatespostalservice-a77078", "operator": "United States Postal Service", "operator:short": "USPS", "operator:type": "public", "operator:wikidata": "Q668687", "ref": "2464900003"}, "type": "Feature"}
{"geometry": {"coordinates": [-81.521977302, 37.115666413], "type": "Point"}, "id": "XkU_9jJJVO5g1o5T6R7nMNxCl0g=", "properties": {"@source_uri": "https://tools.usps.com/UspsToolsRestServices/rest/POLocator/findLocations", "@spider": "usps_collection_boxes", "addr:city": "TAZEWELL", "addr:country": "US", "addr:full": "200 W MAIN ST", "addr:postcode": "24651", "addr:state": "VA", "amenity": "post_box", "brand": "United States Postal Service", "brand:wikidata": "Q668687", "collection_times": "Mo-Fr 16:30; Sa 10:00", "name": "USPS COLLECTION BOX - PO LOBBY", "note": "ON 12/24 AND 12/31, THIS BOX MAY BE COLLECTED AS EARLY AS 12 NOON.", "nsi_id": "unitedstatespostalservice-a77078", "operator": "United States Postal Service", "operator:short": "USPS", "operator:type": "public", "operator:wikidata": "Q668687", "ref": "2465100005"}, "type": "Feature"}
{"geometry": {"coordinates": [-81.519485812, 37.115952354], "type": "Point"}, "id": "1HApyjmJ9m-1oDf1Ff9qDXhMGKw=", "properties": {"@source_uri": "https://tools.usps.com/UspsToolsRestServices/rest/POLocator/findLocations", "@spider": "usps_collection_boxes", "addr:city": "TAZEWELL", "addr:country": "US", "addr:full": "276 MAIN ST", "addr:postcode": "24651", "addr:state": "VA", "amenity": "post_box", "brand": "United States Postal Service", "brand:wikidata": "Q668687", "collection_times": "Mo-Fr 16:30; Sa 10:00", "name": "USPS COLLECTION BOX - PO LOBBY", "note": "ON 12/24 AND 12/31, THIS BOX MAY BE COLLECTED AS EARLY AS 12 NOON.", "nsi_id": "unitedstatespostalservice-a77078", "operator": "United States Postal Service", "operator:short": "USPS", "operator:type": "public", "operator:wikidata": "Q668687", "ref": "2465100007"}, "type": "Feature"}
{"geometry": {"coordinates": [-81.519485812, 37.115952354], "type": "Point"}, "id": "W-MYUHZFMAa-p4mpu1kZVpMjMoU=", "properties": {"@source_uri": "https://tools.usps.com/UspsToolsRestServices/rest/POLocator/findLocations", "@spider": "usps_collection_boxes", "addr:city": "TAZEWELL", "addr:country": "US", "addr:full": "276 MAIN ST", "addr:postcode": "24651", "addr:state": "VA", "amenity": "post_box", "brand": "United States Postal Service", "brand:wikidata": "Q668687", "collection_times": "Mo-Fr 16:30; Sa 10:00", "name": "USPS COLLECTION BOX - BLUE BOX", "note": "ON 12/24 AND 12/31, THIS BOX MAY BE COLLECTED AS EARLY AS 12 NOON.", "nsi_id": "unitedstatespostalservice-a77078", "operator": "United States Postal Service", "operator:short": "USPS", "operator:type": "public", "operator:wikidata": "Q668687", "ref": "2465100008"}, "type": "Feature"}
{"geometry": {"coordinates": [-82.101518633, 37.220216815], "type": "Point"}, "id": "L3ymPL0PLenehuRLev2RcBDPXcE=", "properties": {"@source_uri": "https://tools.usps.com/UspsToolsRestServices/rest/POLocator/findLocations", "@spider": "usps_collection_boxes", "addr:city": "VANSANT", "addr:country": "US", "addr:full": "1903 LOVERS GAP RD", "addr:postcode": "24656", "addr:state": "VA", "amenity": "post_box", "brand": "United States Postal Service", "brand:wikidata": "Q668687", "collection_times": "Mo-Fr 15:45; Sa 12:00", "name": "USPS COLLECTION BOX - BLUE BOX", "note": "ON 12/24 AND 12/31, THIS BOX MAY BE COLLECTED AS EARLY AS 12 NOON.", "nsi_id": "unitedstatespostalservice-a77078", "operator": "United States Postal Service", "operator:short": "USPS", "operator:type": "public", "operator:wikidata": "Q668687", "ref": "2465600000"}, "type": "Feature"}
{"geometry": {"coordinates": [-82.101518633, 37.220216815], "type": "Point"}, "id": "s8awDo6yilv0P0PjFYDBFgKofF4=", "properties": {"@source_uri": "https://tools.usps.com/UspsToolsRestServices/rest/POLocator/findLocations", "@spider": "usps_collection_boxes", "addr:city": "VANSANT", "addr:country": "US", "addr:full": "1903 LOVERS GAP RD", "addr:postcode": "24656", "addr:state": "VA", "amenity": "post_box", "brand": "United States Postal Service", "brand:wikidata": "Q668687", "collection_times": "Mo-Fr 15:45; Sa 12:00", "name": "USPS COLLECTION BOX - PO LOBBY", "note": "ON 12/24 AND 12/31, THIS BOX MAY BE COLLECTED AS EARLY AS 12 NOON.", "nsi_id": "unitedstatespostalservice-a77078", "operator": "United States Postal Service", "operator:short": "USPS", "operator:type": "public", "operator:wikidata": "Q668687", "ref": "2465600001"}, "type": "Feature"}
{"geometry": {"coordinates": [-82.101518633, 37.220216815], "type": "Point"}, "id": "Zydvc6Y3FIqJJBVO0nqZE92RFpg=", "properties": {"@source_uri": "https://tools.usps.com/UspsToolsRestServices/rest/POLocator/findLocations", "@spider": "usps_collection_boxes", "addr:city": "VANSANT", "addr:country": "US", "addr:full": "1903 LOVERS GAP RD", "addr:postcode": "24656", "addr:state": "VA", "amenity": "post_box", "brand": "United States Postal Service", "brand:wikidata": "Q668687", "collection_times": "Mo-Fr 16:30; Sa 12:00", "name": "USPS COLLECTION BOX - PO LOBBY", "note": "ON 12/24 AND 12/31, THIS BOX MAY BE COLLECTED AS EARLY AS 12 NOON.", "nsi_id": "unitedstatespostalservice-a77078", "operator": "United States Postal Service", "operator:short": "USPS", "operator:type": "public", "operator:wikidata": "Q668687", "ref": "2465600003"}, "type": "Feature"}
{"geometry": {"coordinates": [-81.8664420125, 37.2282739995], "type": "Point"}, "id": "LXkMp5XxAr7WgLhTRw9mFKNIn_s=", "properties": {"@source_uri": "https://tools.usps.com/UspsToolsRestServices/rest/POLocator/findLocations", "@spider": "usps_collection_boxes", "addr:city": "WHITEWOOD", "addr:country": "US", "addr:full": "1510 BROWN MOUNTAIN RD", "addr:postcode": "24657", "addr:state": "VA", "amenity": "post_box", "brand": "United States Postal Service", "brand:wikidata": "Q668687", "collection_times": "Mo-Fr 15:30; Sa 12:15", "name": "USPS COLLECTION BOX - BLUE BOX", "note": "ON 12/24 AND 12/31, THIS BOX MAY BE COLLECTED AS EARLY AS 12 NOON.", "nsi_id": "unitedstatespostalservice-a77078", "operator": "United States Postal Service", "operator:short": "USPS", "operator:type": "public", "operator:wikidata": "Q668687", "ref": "2465700000"}, "type": "Feature"}
{"geometry": {"coordinates": [-81.8664420125, 37.2282739995], "type": "Point"}, "id": "fkJphalV_qyBGJY2g7ALhY0QtK8=", "properties": {"@source_uri": "https://tools.usps.com/UspsToolsRestServices/rest/POLocator/findLocations", "@spider": "usps_collection_boxes", "addr:city": "WHITEWOOD", "addr:country": "US", "addr:full": "1510 BROWN MOUNTAIN RD", "addr:postcode": "24657", "addr:state": "VA", "amenity": "post_box", "brand": "United States Postal Service", "brand:wikidata": "Q668687", "collection_times": "Mo-Fr 15:30; Sa 12:15", "name": "USPS COLLECTION BOX - PO LOBBY", "note": "ON 12/24 AND 12/31, THIS BOX MAY BE COLLECTED AS EARLY AS 12 NOON.", "nsi_id": "unitedstatespostalservice-a77078", "operator": "United States Postal Service", "operator:short": "USPS", "operator:type": "public", "operator:wikidata": "Q668687", "ref": "2465700001"}, "type": "Feature"}
{"geometry": {"coordinates": [-81.8664420125, 37.2282739995], "type": "Point"}, "id": "FCA7eQ10PMJUwabL3KgMyV_6xAg=", "properties": {"@source_uri": "https://tools.usps.com/UspsToolsRestServices/rest/POLocator/findLocations", "@spider": "usps_collection_boxes", "addr:city": "WHITEWOOD", "addr:country": "US", "addr:full": "1510 BROWN MOUNTAIN RD", "addr:postcode": "24657", "addr:state": "VA", "amenity": "post_box", "brand": "United States Postal Service", "brand:wikidata": "Q668687", "collection_times": "Mo-Fr 15:30; Sa 12:00", "name": "USPS COLLECTION BOX - PO LOBBY", "note": "ON 12/24 AND 12/31, THIS BOX MAY BE COLLECTED AS EARLY AS 12 NOON.", "nsi_id": "unitedstatespostalservice-a77078", "operator": "United States Postal Service", "operator:short": "USPS", "operator:type": "public", "operator:wikidata": "Q668687", "ref": "2465700003"}, "type": "Feature"}
{"geometry": {"coordinates": [-81.988784, 37.353739], "type": "Point"}, "id": "szUV1dbDMKiReGV4nnOetohh1Tc=", "properties": {"@source_uri": "https://tools.usps.com/UspsToolsRestServices/rest/POLocator/findLocations", "@spider": "usps_collection_boxes", "addr:city": "WOLFORD", "addr:country": "US", "addr:full": "5145 HURLEY RD", "addr:postcode": "24658", "addr:state": "VA", "amenity": "post_box", "brand": "United States Postal Service", "brand:wikidata": "Q668687", "collection_times": "Mo-Fr 11:45; Sa 09:45", "name": "USPS COLLECTION BOX - BLUE BOX", "nsi_id": "unitedstatespostalservice-a77078", "operator": "United States Postal Service", "operator:short": "USPS", "operator:type": "public", "operator:wikidata": "Q668687", "ref": "2465800000"}, "type": "Feature"}
{"geometry": {"coordinates": [-81.988784, 37.353739], "type": "Point"}, "id": "tpBnoyiVb3dNNiIAucGsxf0eNUE=", "properties": {"@source_uri": "https://tools.usps.com/UspsToolsRestServices/rest/POLocator/findLocations", "@spider": "usps_collection_boxes", "addr:city": "WOLFORD", "addr:country": "US", "addr:full": "5145 HURLEY RD", "addr:postcode": "24658", "addr:state": "VA", "amenity": "post_box", "brand": "United States Postal Service", "brand:wikidata": "Q668687", "collection_times": "Mo-Fr 11:45; Sa 09:45", "name": "USPS COLLECTION BOX - PO LOBBY", "nsi_id": "unitedstatespostalservice-a77078", "operator": "United States Postal Service", "operator:short": "USPS", "operator:type": "public", "operator:wikidata": "Q668687", "ref": "2465800001"}, "type": "Feature"}
{"geometry": {"coordinates": [-81.992264585, 37.365366333], "type": "Point"}, "id": "vXAJ3t9w9SgspcYR_-L8x3RmlCo=", "properties": {"@source_uri": "https://tools.usps.com/UspsToolsRestServices/rest/POLocator/findLocations", "@spider": "usps_collection_boxes", "addr:city": "WOLFORD", "addr:country": "US", "addr:full": "5145 HURLEY RD", "addr:postcode": "24658", "addr:state": "VA", "amenity": "post_box", "brand": "United States Postal Service", "brand:wikidata": "Q668687", "collection_times": "Mo-Fr 12:00; Sa 09:45", "name": "USPS COLLECTION BOX - PO LOBBY", "nsi_id": "unitedstatespostalservice-a77078", "operator": "United States Postal Service", "operator:short": "USPS", "operator:type": "public", "operator:wikidata": "Q668687", "ref": "2465800003"}, "type": "Feature"}
