{"geometry": {"coordinates": [-81.2051410327, 37.2522599889], "type": "Point"}, "id": "377Jo8oyM3nhhUanmlOjtcEjHds=", "properties": {"@source_uri": "https://tools.usps.com/UspsToolsRestServices/rest/POLocator/findLocations", "@spider": "usps_collection_boxes", "addr:city": "BLUEFIELD", "addr:country": "US", "addr:postcode": "24701", "addr:state": "WV", "addr:street_address": "3010 E CUMBERLAND RD", "amenity": "post_box", "collection_times": "Mo-Sa 17:00", "note": "ON 12/24 AND 12/31, THIS BOX MAY BE COLLECTED AS EARLY AS 12 NOON.", "nsi_id": "unitedstatespostalservice-a77078", "operator": "United States Postal Service", "operator:short": "USPS", "operator:type": "public", "operator:wikidata": "Q668687", "ref": "2470100004"}, "type": "Feature"}
{"geometry": {"coordinates": [-81.20698182, 37.252897684], "type": "Point"}, "id": "-D0p3xxNli6yunrebloXdVTxGm8=", "properties": {"@source_uri": "https://tools.usps.com/UspsToolsRestServices/rest/POLocator/findLocations", "@spider": "usps_collection_boxes", "addr:city": "BLUEFIELD", "addr:country": "US", "addr:postcode": "24701", "addr:state": "WV", "addr:street_address": "3010 E CUMBERLAND RD", "amenity": "post_box", "collection_times": "Mo-Sa 17:00", "indoor": "yes", "note": "ON 12/24 AND 12/31, THIS BOX MAY BE COLLECTED AS EARLY AS 12 NOON.", "nsi_id": "unitedstatespostalservice-a77078", "operator": "United States Postal Service", "operator:short": "USPS", "operator:type": "public", "operator:wikidata": "Q668687", "ref": "2470100008"}, "type": "Feature"}
{"geometry": {"coordinates": [-81.20698182, 37.252897684], "type": "Point"}, "id": "45Z6gNcSvJUjyRUycKriZe3WYUY=", "properties": {"@source_uri": "https://tools.usps.com/UspsToolsRestServices/rest/POLocator/findLocations", "@spider": "usps_collection_boxes", "addr:city": "BLUEFIELD", "addr:country": "US", "addr:postcode": "24701", "addr:state": "WV", "addr:street_address": "3010 E CUMBERLAND RD", "amenity": "post_box", "collection_times": "Mo-Sa 17:00", "indoor": "yes", "note": "ON 12/24 AND 12/31, THIS BOX MAY BE COLLECTED AS EARLY AS 12 NOON.", "nsi_id": "unitedstatespostalservice-a77078", "operator": "United States Postal Service", "operator:short": "USPS", "operator:type": "public", "operator:wikidata": "Q668687", "ref": "2470100009"}, "type": "Feature"}
{"geometry": {"coordinates": [-81.2377894, 37.266332], "type": "Point"}, "id": "h3-QTIHnjl8K_0etni3Yc5kHOS4=", "properties": {"@source_uri": "https://tools.usps.com/UspsToolsRestServices/rest/POLocator/findLocations", "@spider": "usps_collection_boxes", "addr:city": "BLUEFIELD", "addr:country": "US", "addr:postcode": "24701", "addr:state": "WV", "addr:street_address": "219 ROCK ST", "amenity": "post_box", "collection_times": "Mo-Fr 15:00", "note": "ON 12/24 AND 12/31, THIS BOX MAY BE COLLECTED AS EARLY AS 12 NOON.", "nsi_id": "unitedstatespostalservice-a77078", "operator": "United States Postal Service", "operator:short": "USPS", "operator:type": "public", "operator:wikidata": "Q668687", "ref": "2470100012"}, "type": "Feature"}
{"geometry": {"coordinates": [-81.243463, 37.2419], "type": "Point"}, "id": "lINAFN_u0k8Owq2BD98KcMHUPTE=", "properties": {"@source_uri": "https://tools.usps.com/UspsToolsRestServices/rest/POLocator/findLocations", "@spider": "usps_collection_boxes", "addr:city": "BLUEFIELD", "addr:country": "US", "addr:postcode": "24701", "addr:state": "WV", "addr:street_address": "1 WESTWOOD PARK", "amenity": "post_box", "collection_times": "Mo-Fr 15:00; Sa 09:00", "note": "ON 12/24 AND 12/31, THIS BOX MAY BE COLLECTED AS EARLY AS 12 NOON.", "nsi_id": "unitedstatespostalservice-a77078", "operator": "United States Postal Service", "operator:short": "USPS", "operator:type": "public", "operator:wikidata": "Q668687", "ref": "2470100039"}, "type": "Feature"}
{"geometry": {"coordinates": [-81.2400282, 37.244121], "type": "Point"}, "id": "86ZjGQOVsiwmYYXee2PQ8npa5sg=", "properties": {"@source_uri": "https://tools.usps.com/UspsToolsRestServices/rest/POLocator/findLocations", "@spider": "usps_collection_boxes", "addr:city": "BLUEFIELD", "addr:country": "US", "addr:postcode": "24701", "addr:state": "WV", "addr:street_address": "2040 LEATHERWOOD LN", "amenity": "post_box", "collection_times": "Mo-Fr 15:00; Sa 09:00", "note": "ON 12/24 AND 12/31, THIS BOX MAY BE COLLECTED AS EARLY AS 12 NOON.", "nsi_id": "unitedstatespostalservice-a77078", "operator": "United States Postal Service", "operator:short": "USPS", "operator:type": "public", "operator:wikidata": "Q668687", "ref": "2470100040"}, "type": "Feature"}
{"geometry": {"coordinates": [-81.2196194, 37.270627], "type": "Point"}, "id": "CitDjs0tpXq95oxBngQLmT7Gd0E=", "properties": {"@source_uri": "https://tools.usps.com/UspsToolsRestServices/rest/POLocator/findLocations", "@spider": "usps_collection_boxes", "addr:city": "BLUEFIELD", "addr:country": "US", "addr:postcode": "24701", "addr:state": "WV", "addr:street_address": "800 PRINCETON AVE", "amenity": "post_box", "collection_times": "Mo-Fr 15:00", "note": "ON 12/24 AND 12/31, THIS BOX MAY BE COLLECTED AS EARLY AS 12 NOON.", "nsi_id": "unitedstatespostalservice-a77078", "operator": "United States Postal Service", "operator:short": "USPS", "operator:type": "public", "operator:wikidata": "Q668687", "ref": "2470100042"}, "type": "Feature"}
{"geometry": {"coordinates": [-81.2470711, 37.244781], "type": "Point"}, "id": "8k9IR9IHj5b9lWtt7Nx-wpUWIIY=", "properties": {"@source_uri": "https://tools.usps.com/UspsToolsRestServices/rest/POLocator/findLocations", "@spider": "usps_collection_boxes", "addr:city": "BLUEFIELD", "addr:country": "US", "addr:postcode": "24701", "addr:state": "WV", "addr:street_address": "2000 COLLEGE AVE", "amenity": "post_box", "collection_times": "Mo-Fr 15:00; Sa 09:00", "note": "ON 12/24 AND 12/31, THIS BOX MAY BE COLLECTED AS EARLY AS 12 NOON.", "nsi_id": "unitedstatespostalservice-a77078", "operator": "United States Postal Service", "operator:short": "USPS", "operator:type": "public", "operator:wikidata": "Q668687", "ref": "2470100043"}, "type": "Feature"}
{"geometry": {"coordinates": [-81.2219517, 37.26863], "type": "Point"}, "id": "IfxXgP5bvQGS9lJj9mxRlBVzymc=", "properties": {"@source_uri": "https://tools.usps.com/UspsToolsRestServices/rest/POLocator/findLocations", "@spider": "usps_collection_boxes", "addr:city": "BLUEFIELD", "addr:country": "US", "addr:postcode": "24701", "addr:state": "WV", "addr:street_address": "500 COMMERCE ST", "amenity": "post_box", "collection_times": "Mo-Fr 15:00; Sa 11:00", "note": "ON 12/24 AND 12/31, THIS BOX MAY BE COLLECTED AS EARLY AS 12 NOON.", "nsi_id": "unitedstatespostalservice-a77078", "operator": "United States Postal Service", "operator:short": "USPS", "operator:type": "public", "operator:wikidata": "Q668687", "ref": "2470100044"}, "type": "Feature"}
{"geometry": {"coordinates": [-81.2219709, 37.258333], "type": "Point"}, "id": "hg56tfyygDwBrmQmxf_lZ5TuirM=", "properties": {"@source_uri": "https://tools.usps.com/UspsToolsRestServices/rest/POLocator/findLocations", "@spider": "usps_collection_boxes", "addr:city": "BLUEFIELD", "addr:country": "US", "addr:postcode": "24701", "addr:state": "WV", "addr:street_address": "301 NORTH ST", "amenity": "post_box", "collection_times": "Mo-Fr 15:00; Sa 14:00", "note": "ON 12/24 AND 12/31, THIS BOX MAY BE COLLECTED AS EARLY AS 12 NOON.", "nsi_id": "unitedstatespostalservice-a77078", "operator": "United States Postal Service", "operator:short": "USPS", "operator:type": "public", "operator:wikidata": "Q668687", "ref": "2470100049"}, "type": "Feature"}
{"geometry": {"coordinates": [-81.3045744, 37.235185], "type": "Point"}, "id": "_meuktjolwVKeSM1itAlYP3wb7Y=", "properties": {"@source_uri": "https://tools.usps.com/UspsToolsRestServices/rest/POLocator/findLocations", "@spider": "usps_collection_boxes", "addr:city": "BLUEFIELD", "addr:country": "US", "addr:postcode": "24701", "addr:state": "WV", "addr:street_address": "219 INDUSTRIAL PARK RD", "amenity": "post_box", "collection_times": "Mo-Sa 09:30", "nsi_id": "unitedstatespostalservice-a77078", "operator": "United States Postal Service", "operator:short": "USPS", "operator:type": "public", "operator:wikidata": "Q668687", "ref": "2470100057"}, "type": "Feature"}
{"geometry": {"coordinates": [-81.2781423, 37.253976], "type": "Point"}, "id": "oxmm5_UqQ04jpLQztljy4TZQfuE=", "properties": {"@source_uri": "https://tools.usps.com/UspsToolsRestServices/rest/POLocator/findLocations", "@spider": "usps_collection_boxes", "addr:city": "BLUEFIELD", "addr:country": "US", "addr:postcode": "24701", "addr:state": "WV", "addr:street_address": "730 VIRGINIA AVE", "amenity": "post_box", "collection_times": "Mo-Sa 13:30", "note": "ON 12/24 AND 12/31, THIS BOX MAY BE COLLECTED AS EARLY AS 12 NOON.", "nsi_id": "unitedstatespostalservice-a77078", "operator": "United States Postal Service", "operator:short": "USPS", "operator:type": "public", "operator:wikidata": "Q668687", "ref": "2470100059"}, "type": "Feature"}
{"geometry": {"coordinates": [-81.2515091, 37.239366], "type": "Point"}, "id": "8cucd-5k2TWYyF4jAZ6xNBxey-k=", "properties": {"@source_uri": "https://tools.usps.com/UspsToolsRestServices/rest/POLocator/findLocations", "@spider": "usps_collection_boxes", "addr:city": "BLUEFIELD", "addr:country": "US", "addr:postcode": "24701", "addr:state": "WV", "addr:street_address": "525 COMMERCE ST", "amenity": "post_box", "collection_times": "Mo-Sa 09:00", "nsi_id": "unitedstatespostalservice-a77078", "operator": "United States Postal Service", "operator:short": "USPS", "operator:type": "public", "operator:wikidata": "Q668687", "ref": "2470100060"}, "type": "Feature"}
{"geometry": {"coordinates": [-81.254428, 37.298613], "type": "Point"}, "id": "X0xKGBSmtvGy4zuSBUoSjzPbHgg=", "properties": {"@source_uri": "https://tools.usps.com/UspsToolsRestServices/rest/POLocator/findLocations", "@spider": "usps_collection_boxes", "addr:city": "BLUEFIELD", "addr:country": "US", "addr:postcode": "24701", "addr:state": "WV", "addr:street_address": "140 MAJESTIC PL", "amenity": "post_box", "collection_times": "Mo-Sa 09:30", "nsi_id": "unitedstatespostalservice-a77078", "operator": "United States Postal Service", "operator:short": "USPS", "operator:type": "public", "operator:wikidata": "Q668687", "ref": "2470100061"}, "type": "Feature"}
{"geometry": {"coordinates": [-81.221839358, 37.267139744], "type": "Point"}, "id": "PoxMxnzbOxaFC7Y6T8RlU9pY8LI=", "properties": {"@source_uri": "https://tools.usps.com/UspsToolsRestServices/rest/POLocator/findLocations", "@spider": "usps_collection_boxes", "addr:city": "BLUEFIELD", "addr:country": "US", "addr:postcode": "24701", "addr:state": "WV", "addr:street_address": "601 FEDERAL ST", "amenity": "post_box", "collection_times": "Mo-Fr 16:30; Sa 09:30", "indoor": "yes", "note": "ON 12/24 AND 12/31, THIS BOX MAY BE COLLECTED AS EARLY AS 12 NOON.", "nsi_id": "unitedstatespostalservice-a77078", "operator": "United States Postal Service", "operator:short": "USPS", "operator:type": "public", "operator:wikidata": "Q668687", "ref": "2470100062"}, "type": "Feature"}
{"geometry": {"coordinates": [-81.1394199, 37.310994], "type": "Point"}, "id": "fUR7gcz11PB0RVnc3zm62O5eajA=", "properties": {"@source_uri": "https://tools.usps.com/UspsToolsRestServices/rest/POLocator/findLocations", "@spider": "usps_collection_boxes", "addr:city": "BLUEFIELD", "addr:country": "US", "addr:postcode": "24701", "addr:state": "WV", "addr:street_address": "495 BLUE PRINCE RD", "amenity": "post_box", "collection_times": "Mo-Sa 11:00", "nsi_id": "unitedstatespostalservice-a77078", "operator": "United States Postal Service", "operator:short": "USPS", "operator:type": "public", "operator:wikidata": "Q668687", "ref": "2470100063"}, "type": "Feature"}
{"geometry": {"coordinates": [-81.20698182, 37.252897684], "type": "Point"}, "id": "qJ_WXqN-4ykRW8SYaybUplHE86w=", "properties": {"@source_uri": "https://tools.usps.com/UspsToolsRestServices/rest/POLocator/findLocations", "@spider": "usps_collection_boxes", "addr:city": "BLUEFIELD", "addr:country": "US", "addr:postcode": "24701", "addr:state": "WV", "addr:street_address": "3010 E CUMBERLAND RD", "amenity": "post_box", "collection_times": "Mo-Sa 17:00", "indoor": "yes", "note": "ON 12/24 AND 12/31, THIS BOX MAY BE COLLECTED AS EARLY AS 12 NOON.", "nsi_id": "unitedstatespostalservice-a77078", "operator": "United States Postal Service", "operator:short": "USPS", "operator:type": "public", "operator:wikidata": "Q668687", "ref": "2470100064"}, "type": "Feature"}
{"geometry": {"coordinates": [-81.20698182, 37.252897684], "type": "Point"}, "id": "JYhS74lEUYUXhsB4i3txUg3MNRY=", "properties": {"@source_uri": "https://tools.usps.com/UspsToolsRestServices/rest/POLocator/findLocations", "@spider": "usps_collection_boxes", "addr:city": "BLUEFIELD", "addr:country": "US", "addr:postcode": "24701", "addr:state": "WV", "addr:street_address": "3010 E CUMBERLAND RD", "amenity": "post_box", "collection_times": "Mo-Fr 17:00", "indoor": "yes", "note": "ON 12/24 AND 12/31, THIS BOX MAY BE COLLECTED AS EARLY AS 12 NOON.", "nsi_id": "unitedstatespostalservice-a77078", "operator": "United States Postal Service", "operator:short": "USPS", "operator:type": "public", "operator:wikidata": "Q668687", "ref": "2470100068"}, "type": "Feature"}
{"geometry": {"coordinates": [-81.221490019, 37.267229984], "type": "Point"}, "id": "X2poDN3sYDgxG05k40mz6AuJMpE=", "properties": {"@source_uri": "https://tools.usps.com/UspsToolsRestServices/rest/POLocator/findLocations", "@spider": "usps_collection_boxes", "addr:city": "BLUEFIELD", "addr:country": "US", "addr:postcode": "24701", "addr:state": "WV", "addr:street_address": "601 FEDERAL ST BSMT", "amenity": "post_box", "collection_times": "Mo-Fr 14:00", "indoor": "yes", "note": "ON 12/24 AND 12/31, THIS BOX MAY BE COLLECTED AS EARLY AS 12 NOON.", "nsi_id": "unitedstatespostalservice-a77078", "operator": "United States Postal Service", "operator:short": "USPS", "operator:type": "public", "operator:wikidata": "Q668687", "ref": "2470100069"}, "type": "Feature"}
{"geometry": {"coordinates": [-81.231388848, 37.253761964], "type": "Point"}, "id": "h-bnbbNc36Q-a7UelI3q81EhwGU=", "properties": {"@source_uri": "https://tools.usps.com/UspsToolsRestServices/rest/POLocator/findLocations", "@spider": "usps_collection_boxes", "addr:city": "BLUEFIELD", "addr:country": "US", "addr:postcode": "24701", "addr:state": "WV", "addr:street_address": "1027 FREDERICK ST", "amenity": "post_box", "collection_times": "Mo-Fr 16:00; Sa 09:30", "note": "ON 12/24 AND 12/31, THIS BOX MAY BE COLLECTED AS EARLY AS 12 NOON.", "nsi_id": "unitedstatespostalservice-a77078", "operator": "United States Postal Service", "operator:short": "USPS", "operator:type": "public", "operator:wikidata": "Q668687", "ref": "2470100071"}, "type": "Feature"}
{"geometry": {"coordinates": [-81.014530249, 37.42331053], "type": "Point"}, "id": "jrHEzyAKvI8lOy1Pjfonp_Y-4vU=", "properties": {"@source_uri": "https://tools.usps.com/UspsToolsRestServices/rest/POLocator/findLocations", "@spider": "usps_collection_boxes", "addr:city": "ATHENS", "addr:country": "US", "addr:postcode": "24712", "addr:state": "WV", "addr:street_address": "203 VERMILLION ST", "amenity": "post_box", "collection_times": "Mo-Fr 16:30; Sa 12:00", "note": "ON 12/24 AND 12/31, THIS BOX MAY BE COLLECTED AS EARLY AS 12 NOON.", "nsi_id": "unitedstatespostalservice-a77078", "operator": "United States Postal Service", "operator:short": "USPS", "operator:type": "public", "operator:wikidata": "Q668687", "ref": "2471200000"}, "type": "Feature"}
{"geometry": {"coordinates": [-81.014530249, 37.42331053], "type": "Point"}, "id": "Af68rqq_rG-wkcFuCCAK-rTPAWQ=", "properties": {"@source_uri": "https://tools.usps.com/UspsToolsRestServices/rest/POLocator/findLocations", "@spider": "usps_collection_boxes", "addr:city": "ATHENS", "addr:country": "US", "addr:postcode": "24712", "addr:state": "WV", "addr:street_address": "203 VERMILLION ST", "amenity": "post_box", "collection_times": "Mo-Fr 16:30; Sa 12:00", "indoor": "yes", "note": "ON 12/24 AND 12/31, THIS BOX MAY BE COLLECTED AS EARLY AS 12 NOON.", "nsi_id": "unitedstatespostalservice-a77078", "operator": "United States Postal Service", "operator:short": "USPS", "operator:type": "public", "operator:wikidata": "Q668687", "ref": "2471200002"}, "type": "Feature"}
{"geometry": {"coordinates": [-81.014530249, 37.42331053], "type": "Point"}, "id": "69GdKg3vCz65UGrwNpPdb8FLBMs=", "properties": {"@source_uri": "https://tools.usps.com/UspsToolsRestServices/rest/POLocator/findLocations", "@spider": "usps_collection_boxes", "addr:city": "ATHENS", "addr:country": "US", "addr:postcode": "24712", "addr:state": "WV", "addr:street_address": "203 VERMILLION ST", "amenity": "post_box", "collection_times": "Mo-Fr 16:30; Sa 12:00", "indoor": "yes", "note": "ON 12/24 AND 12/31, THIS BOX MAY BE COLLECTED AS EARLY AS 12 NOON.", "nsi_id": "unitedstatespostalservice-a77078", "operator": "United States Postal Service", "operator:short": "USPS", "operator:type": "public", "operator:wikidata": "Q668687", "ref": "2471200005"}, "type": "Feature"}
{"geometry": {"coordinates": [-81.312422, 37.325021], "type": "Point"}, "id": "t2oR0ELVCXQG2jSqhsXp5whT5xQ=", "properties": {"@source_uri": "https://tools.usps.com/UspsToolsRestServices/rest/POLocator/findLocations", "@spider": "usps_collection_boxes", "addr:city": "BRAMWELL", "addr:country": "US", "addr:postcode": "24715", "addr:state": "WV", "addr:street_address": "137 MAIN ST", "amenity": "post_box", "collection_times": "Mo-Fr 11:45; Sa 10:30", "indoor": "yes", "nsi_id": "unitedstatespostalservice-a77078", "operator": "United States Postal Service", "operator:short": "USPS", "operator:type": "public", "operator:wikidata": "Q668687", "ref": "2471500001"}, "type": "Feature"}
{"geometry": {"coordinates": [-81.312178018, 37.325025449], "type": "Point"}, "id": "p2iWv0qz2WKcFYNHZlJCNVDJx0w=", "properties": {"@source_uri": "https://tools.usps.com/UspsToolsRestServices/rest/POLocator/findLocations", "@spider": "usps_collection_boxes", "addr:city": "BRAMWELL", "addr:country": "US", "addr:postcode": "24715", "addr:state": "WV", "addr:street_address": "137 MAIN ST", "amenity": "post_box", "collection_times": "Mo-Fr 13:00; Sa 10:45", "indoor": "yes", "note": "ON 12/24 AND 12/31, THIS BOX MAY BE COLLECTED AS EARLY AS 12 NOON.", "nsi_id": "unitedstatespostalservice-a77078", "operator": "United States Postal Service", "operator:short": "USPS", "operator:type": "public", "operator:wikidata": "Q668687", "ref": "2471500003"}, "type": "Feature"}
{"geometry": {"coordinates": [-81.3792713942, 37.53775874], "type": "Point"}, "id": "VU9yLHiWTpoQbzEQ4cRkJ8cX-nE=", "properties": {"@source_uri": "https://tools.usps.com/UspsToolsRestServices/rest/POLocator/findLocations", "@spider": "usps_collection_boxes", "addr:city": "BUD", "addr:country": "US", "addr:postcode": "24716", "addr:state": "WV", "addr:street_address": "3714 W VA RT 10 HERNDON RD", "amenity": "post_box", "collection_times": "Mo-Fr 15:45; Sa 10:45", "note": "ON 12/24 AND 12/31, THIS BOX MAY BE COLLECTED AS EARLY AS 12 NOON.", "nsi_id": "unitedstatespostalservice-a77078", "operator": "United States Postal Service", "operator:short": "USPS", "operator:type": "public", "operator:wikidata": "Q668687", "ref": "2471600000"}, "type": "Feature"}
{"geometry": {"coordinates": [-81.3792713942, 37.53775874], "type": "Point"}, "id": "bGY5y9CXEeCJLtM_zMyGuUeANzE=", "properties": {"@source_uri": "https://tools.usps.com/UspsToolsRestServices/rest/POLocator/findLocations", "@spider": "usps_collection_boxes", "addr:city": "BUD", "addr:country": "US", "addr:postcode": "24716", "addr:state": "WV", "addr:street_address": "3714 W VA RT 10 HERNDON RD", "amenity": "post_box", "collection_times": "Mo-Fr 15:45; Sa 10:45", "indoor": "yes", "note": "ON 12/24 AND 12/31, THIS BOX MAY BE COLLECTED AS EARLY AS 12 NOON.", "nsi_id": "unitedstatespostalservice-a77078", "operator": "United States Postal Service", "operator:short": "USPS", "operator:type": "public", "operator:wikidata": "Q668687", "ref": "2471600001"}, "type": "Feature"}
{"geometry": {"coordinates": [-81.3765809131, 37.5332671475], "type": "Point"}, "id": "f2doG1hPdZOcwDFO0qx3eO6Y85s=", "properties": {"@source_uri": "https://tools.usps.com/UspsToolsRestServices/rest/POLocator/findLocations", "@spider": "usps_collection_boxes", "addr:city": "BUD", "addr:country": "US", "addr:postcode": "24716", "addr:state": "WV", "addr:street_address": "3714 W VA RT 10 HERNDON RD", "amenity": "post_box", "collection_times": "Mo-Fr 15:45; Sa 11:00", "indoor": "yes", "note": "ON 12/24 AND 12/31, THIS BOX MAY BE COLLECTED AS EARLY AS 12 NOON.", "nsi_id": "unitedstatespostalservice-a77078", "operator": "United States Postal Service", "operator:short": "USPS", "operator:type": "public", "operator:wikidata": "Q668687", "ref": "2471600003"}, "type": "Feature"}
{"geometry": {"coordinates": [-81.3218211166, 37.4908875213], "type": "Point"}, "id": "Pt4V0_gKRGF62f8_D0-fXCwazcA=", "properties": {"@source_uri": "https://tools.usps.com/UspsToolsRestServices/rest/POLocator/findLocations", "@spider": "usps_collection_boxes", "addr:city": "COVEL", "addr:country": "US", "addr:postcode": "24719", "addr:state": "WV", "addr:street_address": "252 GOONEY OTTER HOLLOW RD", "amenity": "post_box", "collection_times": "Mo-Fr 10:15; Sa 10:45", "nsi_id": "unitedstatespostalservice-a77078", "operator": "United States Postal Service", "operator:short": "USPS", "operator:type": "public", "operator:wikidata": "Q668687", "ref": "2471900000"}, "type": "Feature"}
{"geometry": {"coordinates": [-81.3843833787, 37.5390061893], "type": "Point"}, "id": "XNHTtNWhwaBQTARsHItwQqd_L0c=", "properties": {"@source_uri": "https://tools.usps.com/UspsToolsRestServices/rest/POLocator/findLocations", "@spider": "usps_collection_boxes", "addr:city": "COVEL", "addr:country": "US", "addr:postcode": "24719", "addr:state": "WV", "addr:street_address": "252 GOONEY OTTER HOLLOW RD", "amenity": "post_box", "collection_times": "Mo-Fr 10:15; Sa 10:45", "indoor": "yes", "nsi_id": "unitedstatespostalservice-a77078", "operator": "United States Postal Service", "operator:short": "USPS", "operator:type": "public", "operator:wikidata": "Q668687", "ref": "2471900001"}, "type": "Feature"}
{"geometry": {"coordinates": [-81.321821117, 37.490887521], "type": "Point"}, "id": "wrVpYevswzhrmJNz7QyW0GLUSII=", "properties": {"@source_uri": "https://tools.usps.com/UspsToolsRestServices/rest/POLocator/findLocations", "@spider": "usps_collection_boxes", "addr:city": "COVEL", "addr:country": "US", "addr:postcode": "24719", "addr:state": "WV", "addr:street_address": "252 GOONEY OTTER HOLLOW RD", "amenity": "post_box", "collection_times": "Mo-Fr 10:30; Sa 13:30", "indoor": "yes", "note": "ON 12/24 AND 12/31, THIS BOX MAY BE COLLECTED AS EARLY AS 12 NOON.", "nsi_id": "unitedstatespostalservice-a77078", "operator": "United States Postal Service", "operator:short": "USPS", "operator:type": "public", "operator:wikidata": "Q668687", "ref": "2471900003"}, "type": "Feature"}
{"geometry": {"coordinates": [-81.132111, 37.39676], "type": "Point"}, "id": "4VRhhji5xXzI_S0ropDSsFrxxxo=", "properties": {"@source_uri": "https://tools.usps.com/UspsToolsRestServices/rest/POLocator/findLocations", "@spider": "usps_collection_boxes", "addr:city": "KEGLEY", "addr:country": "US", "addr:postcode": "24731", "addr:state": "WV", "addr:street_address": "3376 BECKLEY RD", "amenity": "post_box", "collection_times": "Mo-Fr 12:00; Sa 11:45", "nsi_id": "unitedstatespostalservice-a77078", "operator": "United States Postal Service", "operator:short": "USPS", "operator:type": "public", "operator:wikidata": "Q668687", "ref": "2473100000"}, "type": "Feature"}
{"geometry": {"coordinates": [-81.1321009608, 37.3967570008], "type": "Point"}, "id": "xlUSwr7TsE4V3aGbZWOBI1RznCY=", "properties": {"@source_uri": "https://tools.usps.com/UspsToolsRestServices/rest/POLocator/findLocations", "@spider": "usps_collection_boxes", "addr:city": "KEGLEY", "addr:country": "US", "addr:postcode": "24731", "addr:state": "WV", "addr:street_address": "3376 BECKLEY RD", "amenity": "post_box", "collection_times": "Mo-Fr 12:00; Sa 11:45", "indoor": "yes", "nsi_id": "unitedstatespostalservice-a77078", "operator": "United States Postal Service", "operator:short": "USPS", "operator:type": "public", "operator:wikidata": "Q668687", "ref": "2473100001"}, "type": "Feature"}
{"geometry": {"coordinates": [-81.132175102, 37.396834466], "type": "Point"}, "id": "wwYWFNlSd9qTnY3fYGrsbaQv8_k=", "properties": {"@source_uri": "https://tools.usps.com/UspsToolsRestServices/rest/POLocator/findLocations", "@spider": "usps_collection_boxes", "addr:city": "KEGLEY", "addr:country": "US", "addr:postcode": "24731", "addr:state": "WV", "addr:street_address": "3376 BECKLEY RD", "amenity": "post_box", "collection_times": "Mo-Fr 12:00; Sa 11:30", "indoor": "yes", "nsi_id": "unitedstatespostalservice-a77078", "operator": "United States Postal Service", "operator:short": "USPS", "operator:type": "public", "operator:wikidata": "Q668687", "ref": "2473100003"}, "type": "Feature"}
{"geometry": {"coordinates": [-80.925537, 37.344929], "type": "Point"}, "id": "4LgJUfLcacPT4PIqUSxLaox_kro=", "properties": {"@source_uri": "https://tools.usps.com/UspsToolsRestServices/rest/POLocator/findLocations", "@spider": "usps_collection_boxes", "addr:city": "KELLYSVILLE", "addr:country": "US", "addr:postcode": "24732", "addr:state": "WV", "addr:street_address": "4602 KELLYSVILLE RD", "amenity": "post_box", "collection_times": "Mo-Sa 10:00", "nsi_id": "unitedstatespostalservice-a77078", "operator": "United States Postal Service", "operator:short": "USPS", "operator:type": "public", "operator:wikidata": "Q668687", "ref": "2473200000"}, "type": "Feature"}
{"geometry": {"coordinates": [-80.925537, 37.344929], "type": "Point"}, "id": "ZbJw5mDJeDBiCiqpHlPfMcETI4Y=", "properties": {"@source_uri": "https://tools.usps.com/UspsToolsRestServices/rest/POLocator/findLocations", "@spider": "usps_collection_boxes", "addr:city": "KELLYSVILLE", "addr:country": "US", "addr:postcode": "24732", "addr:state": "WV", "addr:street_address": "4602 KELLYSVILLE RD", "amenity": "post_box", "collection_times": "Mo-Sa 10:00", "indoor": "yes", "nsi_id": "unitedstatespostalservice-a77078", "operator": "United States Postal Service", "operator:short": "USPS", "operator:type": "public", "operator:wikidata": "Q668687", "ref": "2473200001"}, "type": "Feature"}
{"geometry": {"coordinates": [-80.92561225, 37.345088505], "type": "Point"}, "id": "xH6xKdLP6GiAVFm6F_9S83cdGIE=", "properties": {"@source_uri": "https://tools.usps.com/UspsToolsRestServices/rest/POLocator/findLocations", "@spider": "usps_collection_boxes", "addr:city": "KELLYSVILLE", "addr:country": "US", "addr:postcode": "24732", "addr:state": "WV", "addr:street_address": "4602 KELLYSVILLE RD", "amenity": "post_box", "collection_times": "Mo-Fr 12:00; Sa 12:30", "indoor": "yes", "note": "ON 12/24 AND 12/31, THIS BOX MAY BE COLLECTED AS EARLY AS 12 NOON.", "nsi_id": "unitedstatespostalservice-a77078", "operator": "United States Postal Service", "operator:short": "USPS", "operator:type": "public", "operator:wikidata": "Q668687", "ref": "2473200003"}, "type": "Feature"}
{"geometry": {"coordinates": [-81.195382, 37.420107], "type": "Point"}, "id": "ZeIQE0XmzxpiCpG0j1R1i2gH-VI=", "properties": {"@source_uri": "https://tools.usps.com/UspsToolsRestServices/rest/POLocator/findLocations", "@spider": "usps_collection_boxes", "addr:city": "LASHMEET", "addr:country": "US", "addr:postcode": "24733", "addr:state": "WV", "addr:street_address": "4226 MATOAKA RD", "amenity": "post_box", "collection_times": "Mo-Fr 15:15; Sa 10:45", "note": "ON 12/24 AND 12/31, THIS BOX MAY BE COLLECTED AS EARLY AS 12 NOON.", "nsi_id": "unitedstatespostalservice-a77078", "operator": "United States Postal Service", "operator:short": "USPS", "operator:type": "public", "operator:wikidata": "Q668687", "ref": "2473300000"}, "type": "Feature"}
{"geometry": {"coordinates": [-81.195449, 37.420101], "type": "Point"}, "id": "WBmnbG-xKwTaq_YZeTdKXxNNQW0=", "properties": {"@source_uri": "https://tools.usps.com/UspsToolsRestServices/rest/POLocator/findLocations", "@spider": "usps_collection_boxes", "addr:city": "LASHMEET", "addr:country": "US", "addr:postcode": "24733", "addr:state": "WV", "addr:street_address": "4226 MATOAKA RD", "amenity": "post_box", "collection_times": "Mo-Fr 15:15; Sa 10:45", "indoor": "yes", "note": "ON 12/24 AND 12/31, THIS BOX MAY BE COLLECTED AS EARLY AS 12 NOON.", "nsi_id": "unitedstatespostalservice-a77078", "operator": "United States Postal Service", "operator:short": "USPS", "operator:type": "public", "operator:wikidata": "Q668687", "ref": "2473300001"}, "type": "Feature"}
{"geometry": {"coordinates": [-81.201154417, 37.421697525], "type": "Point"}, "id": "btoCIgLyjxxxBh42JQGSHgZ0wEU=", "properties": {"@source_uri": "https://tools.usps.com/UspsToolsRestServices/rest/POLocator/findLocations", "@spider": "usps_collection_boxes", "addr:city": "LASHMEET", "addr:country": "US", "addr:postcode": "24733", "addr:state": "WV", "addr:street_address": "4226 MATOAKA RD", "amenity": "post_box", "collection_times": "Mo-Fr 15:15; Sa 10:45", "indoor": "yes", "note": "ON 12/24 AND 12/31, THIS BOX MAY BE COLLECTED AS EARLY AS 12 NOON.", "nsi_id": "unitedstatespostalservice-a77078", "operator": "United States Postal Service", "operator:short": "USPS", "operator:type": "public", "operator:wikidata": "Q668687", "ref": "2473300003"}, "type": "Feature"}
{"geometry": {"coordinates": [-81.2459967, 37.4352451], "type": "Point"}, "id": "to8d6__eEw-gbHc1lbvHdaW4Rrc=", "properties": {"@source_uri": "https://tools.usps.com/UspsToolsRestServices/rest/POLocator/findLocations", "@spider": "usps_collection_boxes", "addr:city": "MATOAKA", "addr:country": "US", "addr:postcode": "24736", "addr:state": "WV", "addr:street_address": "103 MAIN ST", "amenity": "post_box", "collection_times": "Mo-Fr 11:45; Sa 10:45", "indoor": "yes", "nsi_id": "unitedstatespostalservice-a77078", "operator": "United States Postal Service", "operator:short": "USPS", "operator:type": "public", "operator:wikidata": "Q668687", "ref": "2473600001"}, "type": "Feature"}
{"geometry": {"coordinates": [-81.2459967, 37.4352451], "type": "Point"}, "id": "1lLbY2pZegGGJCL6eQhqDKFFV_g=", "properties": {"@source_uri": "https://tools.usps.com/UspsToolsRestServices/rest/POLocator/findLocations", "@spider": "usps_collection_boxes", "addr:city": "MATOAKA", "addr:country": "US", "addr:postcode": "24736", "addr:state": "WV", "addr:street_address": "103 MAIN ST", "amenity": "post_box", "collection_times": "Mo-Sa 12:00", "indoor": "yes", "nsi_id": "unitedstatespostalservice-a77078", "operator": "United States Postal Service", "operator:short": "USPS", "operator:type": "public", "operator:wikidata": "Q668687", "ref": "2473600003"}, "type": "Feature"}
{"geometry": {"coordinates": [-81.252875, 37.347427], "type": "Point"}, "id": "AYCUOZc94BivVXEug33gZtLUYHk=", "properties": {"@source_uri": "https://tools.usps.com/UspsToolsRestServices/rest/POLocator/findLocations", "@spider": "usps_collection_boxes", "addr:city": "MONTCALM", "addr:country": "US", "addr:postcode": "24737", "addr:state": "WV", "addr:street_address": "5427 SIMMONS RIVER RD", "amenity": "post_box", "collection_times": "Mo-Fr 12:55; Sa 10:30", "note": "ON 12/24 AND 12/31, THIS BOX MAY BE COLLECTED AS EARLY AS 12 NOON.", "nsi_id": "unitedstatespostalservice-a77078", "operator": "United States Postal Service", "operator:short": "USPS", "operator:type": "public", "operator:wikidata": "Q668687", "ref": "2473700000"}, "type": "Feature"}
{"geometry": {"coordinates": [-81.252875, 37.347427], "type": "Point"}, "id": "7wSe6xJfHClbUB5Fa90AbfSd9i8=", "properties": {"@source_uri": "https://tools.usps.com/UspsToolsRestServices/rest/POLocator/findLocations", "@spider": "usps_collection_boxes", "addr:city": "MONTCALM", "addr:country": "US", "addr:postcode": "24737", "addr:state": "WV", "addr:street_address": "5427 SIMMONS RIVER RD", "amenity": "post_box", "collection_times": "Mo-Fr 12:55; Sa 10:30", "indoor": "yes", "note": "ON 12/24 AND 12/31, THIS BOX MAY BE COLLECTED AS EARLY AS 12 NOON.", "nsi_id": "unitedstatespostalservice-a77078", "operator": "United States Postal Service", "operator:short": "USPS", "operator:type": "public", "operator:wikidata": "Q668687", "ref": "2473700001"}, "type": "Feature"}
{"geometry": {"coordinates": [-81.252875, 37.347427], "type": "Point"}, "id": "uzEcM6tWCbZfMx7Tu7pPFg25xc4=", "properties": {"@source_uri": "https://tools.usps.com/UspsToolsRestServices/rest/POLocator/findLocations", "@spider": "usps_collection_boxes", "addr:city": "MONTCALM", "addr:country": "US", "addr:postcode": "24737", "addr:state": "WV", "addr:street_address": "5427 SIMMONS RIVER RD", "amenity": "post_box", "collection_times": "Mo-Fr 12:55; Sa 10:30", "indoor": "yes", "note": "ON 12/24 AND 12/31, THIS BOX MAY BE COLLECTED AS EARLY AS 12 NOON.", "nsi_id": "unitedstatespostalservice-a77078", "operator": "United States Postal Service", "operator:short": "USPS", "operator:type": "public", "operator:wikidata": "Q668687", "ref": "2473700002"}, "type": "Feature"}
{"geometry": {"coordinates": [-81.266441204, 37.345395635], "type": "Point"}, "id": "jlTwyBadp09wZp5yjr7SnqtLro8=", "properties": {"@source_uri": "https://tools.usps.com/UspsToolsRestServices/rest/POLocator/findLocations", "@spider": "usps_collection_boxes", "addr:city": "MONTCALM", "addr:country": "US", "addr:postcode": "24737", "addr:state": "WV", "addr:street_address": "5427 SIMMONS RIVER RD", "amenity": "post_box", "collection_times": "Mo-Fr 16:00; Sa 10:45", "indoor": "yes", "note": "ON 12/24 AND 12/31, THIS BOX MAY BE COLLECTED AS EARLY AS 12 NOON.", "nsi_id": "unitedstatespostalservice-a77078", "operator": "United States Postal Service", "operator:short": "USPS", "operator:type": "public", "operator:wikidata": "Q668687", "ref": "2473700005"}, "type": "Feature"}
{"geometry": {"coordinates": [-81.305094, 37.302661], "type": "Point"}, "id": "0HP0RVfte5Ldwrum3OCBdRAbWc0=", "properties": {"@source_uri": "https://tools.usps.com/UspsToolsRestServices/rest/POLocator/findLocations", "@spider": "usps_collection_boxes", "addr:city": "NEMOURS", "addr:country": "US", "addr:postcode": "24738", "addr:state": "WV", "addr:street_address": "5609 FALLS MILLS RD", "amenity": "post_box", "collection_times": "Mo-Fr 14:45; Sa 10:15", "note": "ON 12/24 AND 12/31, THIS BOX MAY BE COLLECTED AS EARLY AS 12 NOON.", "nsi_id": "unitedstatespostalservice-a77078", "operator": "United States Postal Service", "operator:short": "USPS", "operator:type": "public", "operator:wikidata": "Q668687", "ref": "2473800000"}, "type": "Feature"}
{"geometry": {"coordinates": [-81.305094, 37.302661], "type": "Point"}, "id": "hQixGYeiW0REe7yR1InKjLNUtAo=", "properties": {"@source_uri": "https://tools.usps.com/UspsToolsRestServices/rest/POLocator/findLocations", "@spider": "usps_collection_boxes", "addr:city": "NEMOURS", "addr:country": "US", "addr:postcode": "24738", "addr:state": "WV", "addr:street_address": "5609 FALLS MILLS RD", "amenity": "post_box", "collection_times": "Mo-Fr 14:45; Sa 10:15", "indoor": "yes", "note": "ON 12/24 AND 12/31, THIS BOX MAY BE COLLECTED AS EARLY AS 12 NOON.", "nsi_id": "unitedstatespostalservice-a77078", "operator": "United States Postal Service", "operator:short": "USPS", "operator:type": "public", "operator:wikidata": "Q668687", "ref": "2473800001"}, "type": "Feature"}
{"geometry": {"coordinates": [-81.304900835, 37.302521394], "type": "Point"}, "id": "fArC2YEQKrDd76q2TBGy3Edm4Gg=", "properties": {"@source_uri": "https://tools.usps.com/UspsToolsRestServices/rest/POLocator/findLocations", "@spider": "usps_collection_boxes", "addr:city": "NEMOURS", "addr:country": "US", "addr:postcode": "24738", "addr:state": "WV", "addr:street_address": "5609 FALLS MILLS RD", "amenity": "post_box", "collection_times": "Mo-Fr 15:00; Sa 10:15", "indoor": "yes", "note": "ON 12/24 AND 12/31, THIS BOX MAY BE COLLECTED AS EARLY AS 12 NOON.", "nsi_id": "unitedstatespostalservice-a77078", "operator": "United States Postal Service", "operator:short": "USPS", "operator:type": "public", "operator:wikidata": "Q668687", "ref": "2473800003"}, "type": "Feature"}
{"geometry": {"coordinates": [-81.1013874, 37.366668], "type": "Point"}, "id": "jb40G9PBRlwWNIF4VBd8OF50ibE=", "properties": {"@source_uri": "https://tools.usps.com/UspsToolsRestServices/rest/POLocator/findLocations", "@spider": "usps_collection_boxes", "addr:city": "PRINCETON", "addr:country": "US", "addr:postcode": "24740", "addr:state": "WV", "addr:street_address": "1403 HONAKER AVE", "amenity": "post_box", "collection_times": "Mo-Fr 15:00; Sa 13:00", "note": "ON 12/24 AND 12/31, THIS BOX MAY BE COLLECTED AS EARLY AS 12 NOON.", "nsi_id": "unitedstatespostalservice-a77078", "operator": "United States Postal Service", "operator:short": "USPS", "operator:type": "public", "operator:wikidata": "Q668687", "ref": "2474000007"}, "type": "Feature"}
{"geometry": {"coordinates": [-81.1182731, 37.365605], "type": "Point"}, "id": "JCxRwXvjRjT3MiczhQv7wXLpU7k=", "properties": {"@source_uri": "https://tools.usps.com/UspsToolsRestServices/rest/POLocator/findLocations", "@spider": "usps_collection_boxes", "addr:city": "PRINCETON", "addr:country": "US", "addr:postcode": "24740", "addr:state": "WV", "addr:street_address": "608 NEW HOPE RD", "amenity": "post_box", "collection_times": "Mo-Fr 14:45; Sa 12:00", "note": "ON 12/24 AND 12/31, THIS BOX MAY BE COLLECTED AS EARLY AS 12 NOON.", "nsi_id": "unitedstatespostalservice-a77078", "operator": "United States Postal Service", "operator:short": "USPS", "operator:type": "public", "operator:wikidata": "Q668687", "ref": "2474000009"}, "type": "Feature"}
{"geometry": {"coordinates": [-81.0538139851, 37.3633090162], "type": "Point"}, "id": "BVYB0_KKnO0lEuPDm5-aWrSco7Y=", "properties": {"@source_uri": "https://tools.usps.com/UspsToolsRestServices/rest/POLocator/findLocations", "@spider": "usps_collection_boxes", "addr:city": "PRINCETON", "addr:country": "US", "addr:postcode": "24740", "addr:state": "WV", "addr:street_address": "910 OAKVALE RD", "amenity": "post_box", "collection_times": "Mo-Sa 12:00", "nsi_id": "unitedstatespostalservice-a77078", "operator": "United States Postal Service", "operator:short": "USPS", "operator:type": "public", "operator:wikidata": "Q668687", "ref": "2474000010"}, "type": "Feature"}
{"geometry": {"coordinates": [-81.1162976, 37.365798], "type": "Point"}, "id": "97H6T0Dq1la476wYKQ9DgS3PYBI=", "properties": {"@source_uri": "https://tools.usps.com/UspsToolsRestServices/rest/POLocator/findLocations", "@spider": "usps_collection_boxes", "addr:city": "PRINCETON", "addr:country": "US", "addr:postcode": "24740", "addr:state": "WV", "addr:street_address": "508 NEW HOPE RD", "amenity": "post_box", "collection_times": "Mo-Fr 14:45; Sa 11:00", "note": "ON 12/24 AND 12/31, THIS BOX MAY BE COLLECTED AS EARLY AS 12 NOON.", "nsi_id": "unitedstatespostalservice-a77078", "operator": "United States Postal Service", "operator:short": "USPS", "operator:type": "public", "operator:wikidata": "Q668687", "ref": "2474000011"}, "type": "Feature"}
{"geometry": {"coordinates": [-81.0919633725, 37.3612526925], "type": "Point"}, "id": "qtNkLwsLmE1WrAD5xhnFYK1ykyk=", "properties": {"@source_uri": "https://tools.usps.com/UspsToolsRestServices/rest/POLocator/findLocations", "@spider": "usps_collection_boxes", "addr:city": "PRINCETON", "addr:country": "US", "addr:postcode": "24740", "addr:state": "WV", "addr:street_address": "800 BEE ST", "amenity": "post_box", "collection_times": "Mo-Sa 10:30", "nsi_id": "unitedstatespostalservice-a77078", "operator": "United States Postal Service", "operator:short": "USPS", "operator:type": "public", "operator:wikidata": "Q668687", "ref": "2474000012"}, "type": "Feature"}
{"geometry": {"coordinates": [-81.1044726711, 37.3665058626], "type": "Point"}, "id": "lpBnL6z2hwbHYR0BYQZCDHCTIbU=", "properties": {"@source_uri": "https://tools.usps.com/UspsToolsRestServices/rest/POLocator/findLocations", "@spider": "usps_collection_boxes", "addr:city": "PRINCETON", "addr:country": "US", "addr:postcode": "24740", "addr:state": "WV", "addr:street_address": "1608 W MAIN ST", "amenity": "post_box", "collection_times": "Mo-Sa 10:30", "nsi_id": "unitedstatespostalservice-a77078", "operator": "United States Postal Service", "operator:short": "USPS", "operator:type": "public", "operator:wikidata": "Q668687", "ref": "2474000016"}, "type": "Feature"}
{"geometry": {"coordinates": [-81.1025466, 37.365717], "type": "Point"}, "id": "hD6YE79yoNS01HECPezqiLGQEiI=", "properties": {"@source_uri": "https://tools.usps.com/UspsToolsRestServices/rest/POLocator/findLocations", "@spider": "usps_collection_boxes", "addr:city": "PRINCETON", "addr:country": "US", "addr:postcode": "24740", "addr:state": "WV", "addr:street_address": "1439 E MAIN ST", "amenity": "post_box", "collection_times": "Mo-Fr 15:00; Sa 13:00", "note": "ON 12/24 AND 12/31, THIS BOX MAY BE COLLECTED AS EARLY AS 12 NOON.", "nsi_id": "unitedstatespostalservice-a77078", "operator": "United States Postal Service", "operator:short": "USPS", "operator:type": "public", "operator:wikidata": "Q668687", "ref": "2474000017"}, "type": "Feature"}
{"geometry": {"coordinates": [-81.1017688, 37.36581], "type": "Point"}, "id": "5no6CA67msIeUPZBjwXFuGj1KUY=", "properties": {"@source_uri": "https://tools.usps.com/UspsToolsRestServices/rest/POLocator/findLocations", "@spider": "usps_collection_boxes", "addr:city": "PRINCETON", "addr:country": "US", "addr:postcode": "24740", "addr:state": "WV", "addr:street_address": "1422 E MAIN ST", "amenity": "post_box", "collection_times": "Mo-Sa 10:00", "nsi_id": "unitedstatespostalservice-a77078", "operator": "United States Postal Service", "operator:short": "USPS", "operator:type": "public", "operator:wikidata": "Q668687", "ref": "2474000019"}, "type": "Feature"}
{"geometry": {"coordinates": [-81.0934026, 37.363334], "type": "Point"}, "id": "iveLkNEM2jI9_8wDAEGhzngtCCI=", "properties": {"@source_uri": "https://tools.usps.com/UspsToolsRestServices/rest/POLocator/findLocations", "@spider": "usps_collection_boxes", "addr:city": "PRINCETON", "addr:country": "US", "addr:postcode": "24740", "addr:state": "WV", "addr:street_address": "1033 STAFFORD DR", "amenity": "post_box", "collection_times": "Mo-Sa 12:00", "nsi_id": "unitedstatespostalservice-a77078", "operator": "United States Postal Service", "operator:short": "USPS", "operator:type": "public", "operator:wikidata": "Q668687", "ref": "2474000022"}, "type": "Feature"}
{"geometry": {"coordinates": [-81.0988959, 37.360613], "type": "Point"}, "id": "PCqLMzR7ex75wwnp5KZvhbBOYrA=", "properties": {"@source_uri": "https://tools.usps.com/UspsToolsRestServices/rest/POLocator/findLocations", "@spider": "usps_collection_boxes", "addr:city": "PRINCETON", "addr:country": "US", "addr:postcode": "24740", "addr:state": "WV", "addr:street_address": "1309 STAFFORD DR", "amenity": "post_box", "collection_times": "Mo-Sa 12:00", "nsi_id": "unitedstatespostalservice-a77078", "operator": "United States Postal Service", "operator:short": "USPS", "operator:type": "public", "operator:wikidata": "Q668687", "ref": "2474000025"}, "type": "Feature"}
{"geometry": {"coordinates": [-81.096541121, 37.369494396], "type": "Point"}, "id": "j9qloKzFqEDmLeewm2mE5EQoCvQ=", "properties": {"@source_uri": "https://tools.usps.com/UspsToolsRestServices/rest/POLocator/findLocations", "@spider": "usps_collection_boxes", "addr:city": "PRINCETON", "addr:country": "US", "addr:postcode": "24740", "addr:state": "WV", "addr:street_address": "1000 MERCER ST", "amenity": "post_box", "collection_times": "Mo-Fr 16:45; Sa 16:30", "note": "ON 12/24 AND 12/31, THIS BOX MAY BE COLLECTED AS EARLY AS 12 NOON.", "nsi_id": "unitedstatespostalservice-a77078", "operator": "United States Postal Service", "operator:short": "USPS", "operator:type": "public", "operator:wikidata": "Q668687", "ref": "2474000032"}, "type": "Feature"}
{"geometry": {"coordinates": [-81.0957907, 37.36053], "type": "Point"}, "id": "xqnXQIMxREe3xRrpLNEgAjNaocs=", "properties": {"@source_uri": "https://tools.usps.com/UspsToolsRestServices/rest/POLocator/findLocations", "@spider": "usps_collection_boxes", "addr:city": "PRINCETON", "addr:country": "US", "addr:postcode": "24740", "addr:state": "WV", "addr:street_address": "1229 STAFFORD DR", "amenity": "post_box", "collection_times": "Mo-Sa 12:00", "nsi_id": "unitedstatespostalservice-a77078", "operator": "United States Postal Service", "operator:short": "USPS", "operator:type": "public", "operator:wikidata": "Q668687", "ref": "2474000049"}, "type": "Feature"}
{"geometry": {"coordinates": [-81.096541121, 37.369494396], "type": "Point"}, "id": "W__N7xHPmmI07ftbBpW7YT46Ez0=", "properties": {"@source_uri": "https://tools.usps.com/UspsToolsRestServices/rest/POLocator/findLocations", "@spider": "usps_collection_boxes", "addr:city": "PRINCETON", "addr:country": "US", "addr:postcode": "24740", "addr:state": "WV", "addr:street_address": "1000 MERCER ST", "amenity": "post_box", "collection_times": "Mo-Fr 16:45; Sa 16:30", "indoor": "yes", "note": "ON 12/24 AND 12/31, THIS BOX MAY BE COLLECTED AS EARLY AS 12 NOON.", "nsi_id": "unitedstatespostalservice-a77078", "operator": "United States Postal Service", "operator:short": "USPS", "operator:type": "public", "operator:wikidata": "Q668687", "ref": "2474000053"}, "type": "Feature"}
{"geometry": {"coordinates": [-81.096541121, 37.369494396], "type": "Point"}, "id": "H05LJdBow8xuy6_pt8PqrRGbL24=", "properties": {"@source_uri": "https://tools.usps.com/UspsToolsRestServices/rest/POLocator/findLocations", "@spider": "usps_collection_boxes", "addr:city": "PRINCETON", "addr:country": "US", "addr:postcode": "24740", "addr:state": "WV", "addr:street_address": "1000 MERCER ST", "amenity": "post_box", "collection_times": "Mo-Fr 16:45; Sa 16:30", "indoor": "yes", "note": "ON 12/24 AND 12/31, THIS BOX MAY BE COLLECTED AS EARLY AS 12 NOON.", "nsi_id": "unitedstatespostalservice-a77078", "operator": "United States Postal Service", "operator:short": "USPS", "operator:type": "public", "operator:wikidata": "Q668687", "ref": "2474000054"}, "type": "Feature"}
{"geometry": {"coordinates": [-81.096541121, 37.369494396], "type": "Point"}, "id": "Y6HhDbKWxPFPttsYTs_09-f7U6o=", "properties": {"@source_uri": "https://tools.usps.com/UspsToolsRestServices/rest/POLocator/findLocations", "@spider": "usps_collection_boxes", "addr:city": "PRINCETON", "addr:country": "US", "addr:postcode": "24740", "addr:state": "WV", "addr:street_address": "1000 MERCER ST", "amenity": "post_box", "collection_times": "Mo-Fr 16:45; Sa 16:30", "indoor": "yes", "note": "ON 12/24 AND 12/31, THIS BOX MAY BE COLLECTED AS EARLY AS 12 NOON.", "nsi_id": "unitedstatespostalservice-a77078", "operator": "United States Postal Service", "operator:short": "USPS", "operator:type": "public", "operator:wikidata": "Q668687", "ref": "2474000055"}, "type": "Feature"}
{"geometry": {"coordinates": [-81.044314, 37.360021], "type": "Point"}, "id": "5vIt9ixFjvFs8ABwWZAMK3sc3OI=", "properties": {"@source_uri": "https://tools.usps.com/UspsToolsRestServices/rest/POLocator/findLocations", "@spider": "usps_collection_boxes", "addr:city": "PRINCETON", "addr:country": "US", "addr:postcode": "24740", "addr:state": "WV", "addr:street_address": "201 GREASY RIDGE RD", "amenity": "post_box", "collection_times": "Mo-Sa 12:00", "nsi_id": "unitedstatespostalservice-a77078", "operator": "United States Postal Service", "operator:short": "USPS", "operator:type": "public", "operator:wikidata": "Q668687", "ref": "2474000056"}, "type": "Feature"}
{"geometry": {"coordinates": [-81.1144891, 37.362201], "type": "Point"}, "id": "SMPSxKE7v2sjGOxSnLl0CZDsYdA=", "properties": {"@source_uri": "https://tools.usps.com/UspsToolsRestServices/rest/POLocator/findLocations", "@spider": "usps_collection_boxes", "addr:city": "PRINCETON", "addr:country": "US", "addr:postcode": "24740", "addr:state": "WV", "addr:street_address": "200 12TH STREET EXT", "amenity": "post_box", "collection_times": "Mo-Sa 12:00", "nsi_id": "unitedstatespostalservice-a77078", "operator": "United States Postal Service", "operator:short": "USPS", "operator:type": "public", "operator:wikidata": "Q668687", "ref": "2474000057"}, "type": "Feature"}
{"geometry": {"coordinates": [-81.0956131, 37.359539], "type": "Point"}, "id": "ZFasCrDqFWlD4farARacYx71nPQ=", "properties": {"@source_uri": "https://tools.usps.com/UspsToolsRestServices/rest/POLocator/findLocations", "@spider": "usps_collection_boxes", "addr:city": "PRINCETON", "addr:country": "US", "addr:postcode": "24740", "addr:state": "WV", "addr:street_address": "195 DAVIS ST", "amenity": "post_box", "collection_times": "Mo-Sa 12:00", "nsi_id": "unitedstatespostalservice-a77078", "operator": "United States Postal Service", "operator:short": "USPS", "operator:type": "public", "operator:wikidata": "Q668687", "ref": "2474000059"}, "type": "Feature"}
{"geometry": {"coordinates": [-81.096541121, 37.369494396], "type": "Point"}, "id": "A5d3gmrQAA3sGwipFCSNWuLE-Js=", "properties": {"@source_uri": "https://tools.usps.com/UspsToolsRestServices/rest/POLocator/findLocations", "@spider": "usps_collection_boxes", "addr:city": "PRINCETON", "addr:country": "US", "addr:postcode": "24740", "addr:state": "WV", "addr:street_address": "1000 MERCER ST", "amenity": "post_box", "collection_times": "Mo-Fr 16:30; Sa 11:30", "indoor": "yes", "note": "ON 12/24 AND 12/31, THIS BOX MAY BE COLLECTED AS EARLY AS 12 NOON.", "nsi_id": "unitedstatespostalservice-a77078", "operator": "United States Postal Service", "operator:short": "USPS", "operator:type": "public", "operator:wikidata": "Q668687", "ref": "2474000065"}, "type": "Feature"}
{"geometry": {"coordinates": [-81.22184, 37.367563], "type": "Point"}, "id": "7M5BTadGiCmzPyR7aL6dyXNOI3s=", "properties": {"@source_uri": "https://tools.usps.com/UspsToolsRestServices/rest/POLocator/findLocations", "@spider": "usps_collection_boxes", "addr:city": "ROCK", "addr:country": "US", "addr:postcode": "24747", "addr:state": "WV", "addr:street_address": "2757 ROCK RD", "amenity": "post_box", "collection_times": "Mo-Fr 11:45; Sa 10:25", "nsi_id": "unitedstatespostalservice-a77078", "operator": "United States Postal Service", "operator:short": "USPS", "operator:type": "public", "operator:wikidata": "Q668687", "ref": "2474700000"}, "type": "Feature"}
{"geometry": {"coordinates": [-81.221784, 37.367633], "type": "Point"}, "id": "Wf72MX_nTu0lOGzy1I6DlM7a658=", "properties": {"@source_uri": "https://tools.usps.com/UspsToolsRestServices/rest/POLocator/findLocations", "@spider": "usps_collection_boxes", "addr:city": "ROCK", "addr:country": "US", "addr:postcode": "24747", "addr:state": "WV", "addr:street_address": "2757 ROCK RD", "amenity": "post_box", "collection_times": "Mo-Fr 11:45; Sa 10:25", "indoor": "yes", "nsi_id": "unitedstatespostalservice-a77078", "operator": "United States Postal Service", "operator:short": "USPS", "operator:type": "public", "operator:wikidata": "Q668687", "ref": "2474700001"}, "type": "Feature"}
{"geometry": {"coordinates": [-81.222199904, 37.369417855], "type": "Point"}, "id": "P89jqz2JBcaj_s45y5wHdaaZE2w=", "properties": {"@source_uri": "https://tools.usps.com/UspsToolsRestServices/rest/POLocator/findLocations", "@spider": "usps_collection_boxes", "addr:city": "ROCK", "addr:country": "US", "addr:postcode": "24747", "addr:state": "WV", "addr:street_address": "2757 ROCK RD", "amenity": "post_box", "collection_times": "Mo-Fr 12:00; Sa 10:15", "indoor": "yes", "nsi_id": "unitedstatespostalservice-a77078", "operator": "United States Postal Service", "operator:short": "USPS", "operator:type": "public", "operator:wikidata": "Q668687", "ref": "2474700003"}, "type": "Feature"}
