{"geometry": {"coordinates": [-81.5856119, 37.431838], "type": "Point"}, "id": "UX86wc7Q2SPtaYnOdDziCQdtB7I=", "properties": {"@spider": "usps_collection_boxes", "addr:city": "WELCH", "addr:country": "US", "addr:full": "59 MCDOWELL ST", "addr:postcode": "24801", "addr:state": "WV", "brand": "USPS", "collection_times": "Mo-Fr 15:00; Sa 13:00", "name": "USPS COLLECTION BOX - BLUE BOX", "note": "ON 12/24 AND 12/31, THIS BOX MAY BE COLLECTED AS EARLY AS 12 NOON.", "ref": "2480100002"}, "type": "Feature"}
{"geometry": {"coordinates": [-81.5845069, 37.432588], "type": "Point"}, "id": "VmLFExjbq-tDgaNU761eOg-aCps=", "properties": {"@spider": "usps_collection_boxes", "addr:city": "WELCH", "addr:country": "US", "addr:full": "93 WYOMING ST", "addr:postcode": "24801", "addr:state": "WV", "brand": "USPS", "collection_times": "Mo-Fr 15:00; Sa 14:00", "name": "USPS COLLECTION BOX - BLUE BOX", "note": "ON 12/24 AND 12/31, THIS BOX MAY BE COLLECTED AS EARLY AS 12 NOON.", "ref": "2480100009"}, "type": "Feature"}
{"geometry": {"coordinates": [-81.585594947, 37.430617921], "type": "Point"}, "id": "7ME65TMCVPr2-oXvynuIGWE_p5E=", "properties": {"@spider": "usps_collection_boxes", "addr:city": "WELCH", "addr:country": "US", "addr:full": "9 MCDOWELL ST", "addr:postcode": "24801", "addr:state": "WV", "brand": "USPS", "collection_times": "Mo-Fr 17:15; Sa 16:00", "name": "USPS COLLECTION BOX - PO LOBBY", "note": "ON 12/24 AND 12/31, THIS BOX MAY BE COLLECTED AS EARLY AS 12 NOON.", "ref": "2480100017"}, "type": "Feature"}
{"geometry": {"coordinates": [-81.585594947, 37.430617921], "type": "Point"}, "id": "l0mtaTlSxxKeYdJPNyqwVvj6G5o=", "properties": {"@spider": "usps_collection_boxes", "addr:city": "WELCH", "addr:country": "US", "addr:full": "9 MCDOWELL ST", "addr:postcode": "24801", "addr:state": "WV", "brand": "USPS", "collection_times": "Mo-Fr 17:15; Sa 16:00", "name": "USPS COLLECTION BOX - PO LOBBY", "note": "ON 12/24 AND 12/31, THIS BOX MAY BE COLLECTED AS EARLY AS 12 NOON.", "ref": "2480100018"}, "type": "Feature"}
{"geometry": {"coordinates": [-81.568817, 37.431233], "type": "Point"}, "id": "rMyv0DImmSE0t02g51Nq7-ZSEIo=", "properties": {"@spider": "usps_collection_boxes", "addr:city": "WELCH", "addr:country": "US", "addr:full": "781 VIRGINIA AVE", "addr:postcode": "24801", "addr:state": "WV", "brand": "USPS", "collection_times": "Mo-Sa 10:00", "name": "USPS COLLECTION BOX - BLUE BOX", "ref": "2480100020"}, "type": "Feature"}
{"geometry": {"coordinates": [-81.585594947, 37.430617921], "type": "Point"}, "id": "VN4jjhtCLwvLlGEewku9sasgdBY=", "properties": {"@spider": "usps_collection_boxes", "addr:city": "WELCH", "addr:country": "US", "addr:full": "9 MCDOWELL ST", "addr:postcode": "24801", "addr:state": "WV", "brand": "USPS", "collection_times": "Mo-Fr 17:15; Sa 16:00", "name": "USPS COLLECTION BOX - BLUE BOX", "note": "ON 12/24 AND 12/31, THIS BOX MAY BE COLLECTED AS EARLY AS 12 NOON.", "ref": "2480100022"}, "type": "Feature"}
{"geometry": {"coordinates": [-81.585594947, 37.430617921], "type": "Point"}, "id": "Wxb_xJNLX12xm1Gf92lrxUjARFc=", "properties": {"@spider": "usps_collection_boxes", "addr:city": "WELCH", "addr:country": "US", "addr:full": "9 MCDOWELL ST", "addr:postcode": "24801", "addr:state": "WV", "brand": "USPS", "collection_times": "Mo-Fr 16:00; Sa 12:00", "name": "USPS COLLECTION BOX - PO LOBBY", "note": "ON 12/24 AND 12/31, THIS BOX MAY BE COLLECTED AS EARLY AS 12 NOON.", "ref": "2480100024"}, "type": "Feature"}
{"geometry": {"coordinates": [-81.434433, 37.336049], "type": "Point"}, "id": "GMoiY0ExWajU2UnzPx05DZsa_IY=", "properties": {"@spider": "usps_collection_boxes", "addr:city": "ANAWALT", "addr:country": "US", "addr:full": "7 PLUM ST", "addr:postcode": "24808", "addr:state": "WV", "brand": "USPS", "collection_times": "Mo-Fr 11:45; Sa 10:30", "name": "USPS COLLECTION BOX - BLUE BOX", "ref": "2480800000"}, "type": "Feature"}
{"geometry": {"coordinates": [-81.434385, 37.335975], "type": "Point"}, "id": "ZPTPljaeUyj-mAIpXOQdWkWaSP0=", "properties": {"@spider": "usps_collection_boxes", "addr:city": "ANAWALT", "addr:country": "US", "addr:full": "7 PLUM ST", "addr:postcode": "24808", "addr:state": "WV", "brand": "USPS", "collection_times": "Mo-Fr 11:45; Sa 10:45", "name": "USPS COLLECTION BOX - PO LOBBY", "ref": "2480800001"}, "type": "Feature"}
{"geometry": {"coordinates": [-81.434449661, 37.336005544], "type": "Point"}, "id": "3-wziFeyYXE0i1gJbGFd4j4RxXI=", "properties": {"@spider": "usps_collection_boxes", "addr:city": "ANAWALT", "addr:country": "US", "addr:full": "7 PLUM ST", "addr:postcode": "24808", "addr:state": "WV", "brand": "USPS", "collection_times": "Mo-Fr 12:00; Sa 11:45", "name": "USPS COLLECTION BOX - PO LOBBY", "ref": "2480800003"}, "type": "Feature"}
{"geometry": {"coordinates": [-81.634873, 37.595605], "type": "Point"}, "id": "5uB1tuit0JSGkB2Ywj4NppasR10=", "properties": {"@spider": "usps_collection_boxes", "addr:city": "BRENTON", "addr:country": "US", "addr:full": "8079 R D BAILEY HWY", "addr:postcode": "24818", "addr:state": "WV", "brand": "USPS", "collection_times": "Mo-Fr 15:30; Sa 10:30", "name": "USPS COLLECTION BOX - BLUE BOX", "note": "ON 12/24 AND 12/31, THIS BOX MAY BE COLLECTED AS EARLY AS 12 NOON.", "ref": "2481800000"}, "type": "Feature"}
{"geometry": {"coordinates": [-81.634873, 37.595605], "type": "Point"}, "id": "GV_icmePibxY2a0WNgC_irKx0u0=", "properties": {"@spider": "usps_collection_boxes", "addr:city": "BRENTON", "addr:country": "US", "addr:full": "8079 R D BAILEY HWY", "addr:postcode": "24818", "addr:state": "WV", "brand": "USPS", "collection_times": "Mo-Fr 15:00; Sa 10:30", "name": "USPS COLLECTION BOX - PO LOBBY", "note": "ON 12/24 AND 12/31, THIS BOX MAY BE COLLECTED AS EARLY AS 12 NOON.", "ref": "2481800001"}, "type": "Feature"}
{"geometry": {"coordinates": [-81.635082275, 37.595728921], "type": "Point"}, "id": "Gh7Dc2jH2C8D1wBLIhOgbYeL9HU=", "properties": {"@spider": "usps_collection_boxes", "addr:city": "BRENTON", "addr:country": "US", "addr:full": "8079 R D BAILEY HWY", "addr:postcode": "24818", "addr:state": "WV", "brand": "USPS", "collection_times": "Mo-Fr 15:30; Sa 10:30", "name": "USPS COLLECTION BOX - PO LOBBY", "note": "ON 12/24 AND 12/31, THIS BOX MAY BE COLLECTED AS EARLY AS 12 NOON.", "ref": "2481800003"}, "type": "Feature"}
{"geometry": {"coordinates": [-81.683326, 37.630967], "type": "Point"}, "id": "myZ2pxt_5dtq25wIMtEQvO3Vs9c=", "properties": {"@spider": "usps_collection_boxes", "addr:city": "CLEAR FORK", "addr:country": "US", "addr:full": "5510 CLEAR FORK VALLEY RD", "addr:postcode": "24822", "addr:state": "WV", "brand": "USPS", "collection_times": "Mo-Fr 11:30; Sa 11:00", "name": "USPS COLLECTION BOX - BLUE BOX", "ref": "2482200000"}, "type": "Feature"}
{"geometry": {"coordinates": [-81.683309, 37.630992], "type": "Point"}, "id": "3MwysR3APNhBjkScHCbcEGSSSVc=", "properties": {"@spider": "usps_collection_boxes", "addr:city": "CLEAR FORK", "addr:country": "US", "addr:full": "5510 CLEAR FORK VALLEY RD", "addr:postcode": "24822", "addr:state": "WV", "brand": "USPS", "collection_times": "Mo-Fr 11:30; Sa 11:00", "name": "USPS COLLECTION BOX - PO LOBBY", "ref": "2482200001"}, "type": "Feature"}
{"geometry": {"coordinates": [-81.68334737, 37.630928653], "type": "Point"}, "id": "oQFDp7SFMX2hCYoOD9z6BmBs0Lw=", "properties": {"@spider": "usps_collection_boxes", "addr:city": "CLEAR FORK", "addr:country": "US", "addr:full": "5510 CLEAR FORK VALLEY RD", "addr:postcode": "24822", "addr:state": "WV", "brand": "USPS", "collection_times": "Mo-Fr 12:00; Sa 11:00", "name": "USPS COLLECTION BOX - PO LOBBY", "ref": "2482200003"}, "type": "Feature"}
{"geometry": {"coordinates": [-81.744832, 37.655564], "type": "Point"}, "id": "J6E9tuYQs55jmXH_CzwOStRCfDs=", "properties": {"@spider": "usps_collection_boxes", "addr:city": "COAL MOUNTAIN", "addr:country": "US", "addr:full": "8875 COAL MOUNTAIN RD", "addr:postcode": "24823", "addr:state": "WV", "brand": "USPS", "collection_times": "Mo-Fr 13:30; Sa 12:00", "name": "USPS COLLECTION BOX - BLUE BOX", "note": "ON 12/24 AND 12/31, THIS BOX MAY BE COLLECTED AS EARLY AS 12 NOON.", "ref": "2482300000"}, "type": "Feature"}
{"geometry": {"coordinates": [-81.744832, 37.655564], "type": "Point"}, "id": "m04FZ03zkxuEJ5Q9XnL9d3JU4q4=", "properties": {"@spider": "usps_collection_boxes", "addr:city": "COAL MOUNTAIN", "addr:country": "US", "addr:full": "8875 COAL MOUNTAIN RD", "addr:postcode": "24823", "addr:state": "WV", "brand": "USPS", "collection_times": "Mo-Fr 13:30; Sa 12:00", "name": "USPS COLLECTION BOX - PO LOBBY", "note": "ON 12/24 AND 12/31, THIS BOX MAY BE COLLECTED AS EARLY AS 12 NOON.", "ref": "2482300001"}, "type": "Feature"}
{"geometry": {"coordinates": [-81.724678078, 37.682965094], "type": "Point"}, "id": "wA10aBWhTPDQm8XihEHifk96qtE=", "properties": {"@spider": "usps_collection_boxes", "addr:city": "COAL MOUNTAIN", "addr:country": "US", "addr:full": "8875 COAL MOUNTAIN RD", "addr:postcode": "24823", "addr:state": "WV", "brand": "USPS", "collection_times": "Mo-Fr 15:00; Sa 12:00", "name": "USPS COLLECTION BOX - PO LOBBY", "note": "ON 12/24 AND 12/31, THIS BOX MAY BE COLLECTED AS EARLY AS 12 NOON.", "ref": "2482300003"}, "type": "Feature"}
{"geometry": {"coordinates": [-81.6870058, 37.735017], "type": "Point"}, "id": "tF4CFboVO7RSEfClqTIQsYWHA-k=", "properties": {"@spider": "usps_collection_boxes", "addr:city": "CYCLONE", "addr:country": "US", "addr:full": "5449 COUNTRY RD", "addr:postcode": "24827", "addr:state": "WV", "brand": "USPS", "collection_times": "Mo-Fr 15:25; Sa 11:30", "name": "USPS COLLECTION BOX - BLUE BOX", "note": "ON 12/24 AND 12/31, THIS BOX MAY BE COLLECTED AS EARLY AS 12 NOON.", "ref": "2482700000"}, "type": "Feature"}
{"geometry": {"coordinates": [-81.6870057, 37.735034], "type": "Point"}, "id": "jQNzEFKQbRl6dqKJNJZAeMA993s=", "properties": {"@spider": "usps_collection_boxes", "addr:city": "CYCLONE", "addr:country": "US", "addr:full": "5449 COUNTRY RD", "addr:postcode": "24827", "addr:state": "WV", "brand": "USPS", "collection_times": "Mo-Fr 15:25; Sa 11:30", "name": "USPS COLLECTION BOX - PO LOBBY", "note": "ON 12/24 AND 12/31, THIS BOX MAY BE COLLECTED AS EARLY AS 12 NOON.", "ref": "2482700001"}, "type": "Feature"}
{"geometry": {"coordinates": [-81.687231812, 37.735063788], "type": "Point"}, "id": "DPpSfeZNbndb0zMRkrtDELg_rAc=", "properties": {"@spider": "usps_collection_boxes", "addr:city": "CYCLONE", "addr:country": "US", "addr:full": "5449 COUNTRY RD", "addr:postcode": "24827", "addr:state": "WV", "brand": "USPS", "collection_times": "Mo-Fr 15:30; Sa 11:30", "name": "USPS COLLECTION BOX - PO LOBBY", "note": "ON 12/24 AND 12/31, THIS BOX MAY BE COLLECTED AS EARLY AS 12 NOON.", "ref": "2482700003"}, "type": "Feature"}
{"geometry": {"coordinates": [-81.53837, 37.336685], "type": "Point"}, "id": "dxtXfofc4scV__Zx2SGQc_cJkgY=", "properties": {"@spider": "usps_collection_boxes", "addr:city": "ELBERT", "addr:country": "US", "addr:full": "2619 MIRACLE MOUNTAIN RD", "addr:postcode": "24830", "addr:state": "WV", "brand": "USPS", "collection_times": "Mo-Fr 11:45; Sa 09:15", "name": "USPS COLLECTION BOX - BLUE BOX", "ref": "2483000000"}, "type": "Feature"}
{"geometry": {"coordinates": [-81.53837, 37.336685], "type": "Point"}, "id": "gh0936pIYSqVTv_OYpjIygJC0A4=", "properties": {"@spider": "usps_collection_boxes", "addr:city": "ELBERT", "addr:country": "US", "addr:full": "2619 MIRACLE MOUNTAIN RD", "addr:postcode": "24830", "addr:state": "WV", "brand": "USPS", "collection_times": "Mo-Fr 11:45; Sa 09:15", "name": "USPS COLLECTION BOX - PO LOBBY", "ref": "2483000001"}, "type": "Feature"}
{"geometry": {"coordinates": [-81.543551005, 37.327853772], "type": "Point"}, "id": "P7fEYEzzA69JScbA0Gt2oSD4o_U=", "properties": {"@spider": "usps_collection_boxes", "addr:city": "ELBERT", "addr:country": "US", "addr:full": "2619 MIRACLE MOUNTAIN RD", "addr:postcode": "24830", "addr:state": "WV", "brand": "USPS", "collection_times": "Mo-Fr 12:00; Sa 09:15", "name": "USPS COLLECTION BOX - PO LOBBY", "ref": "2483000003"}, "type": "Feature"}
{"geometry": {"coordinates": [-81.551285, 37.366261], "type": "Point"}, "id": "dUIXQAHm1ZrMDBbZIU_6Rl0WpZs=", "properties": {"@spider": "usps_collection_boxes", "addr:city": "GARY", "addr:country": "US", "addr:full": "5798 BLACK DIAMOND HWY", "addr:postcode": "24836", "addr:state": "WV", "brand": "USPS", "collection_times": "Mo-Fr 11:45; Sa 09:30", "name": "USPS COLLECTION BOX - BLUE BOX", "ref": "2483600000"}, "type": "Feature"}
{"geometry": {"coordinates": [-81.551285, 37.366261], "type": "Point"}, "id": "s5sOCX0dnsm_mjfflaL2KGD-EQs=", "properties": {"@spider": "usps_collection_boxes", "addr:city": "GARY", "addr:country": "US", "addr:full": "5798 BLACK DIAMOND HWY", "addr:postcode": "24836", "addr:state": "WV", "brand": "USPS", "collection_times": "Mo-Fr 11:45; Sa 09:30", "name": "USPS COLLECTION BOX - PO LOBBY", "ref": "2483600001"}, "type": "Feature"}
{"geometry": {"coordinates": [-81.55127282, 37.364545], "type": "Point"}, "id": "UGB8Xq5bGBTGnqF0yZRH8pyR8Uc=", "properties": {"@spider": "usps_collection_boxes", "addr:city": "GARY", "addr:country": "US", "addr:full": "5798 BLACK DIAMOND HWY", "addr:postcode": "24836", "addr:state": "WV", "brand": "USPS", "collection_times": "Mo-Fr 12:00; Sa 12:30", "name": "USPS COLLECTION BOX - PO LOBBY", "note": "ON 12/24 AND 12/31, THIS BOX MAY BE COLLECTED AS EARLY AS 12 NOON.", "ref": "2483600003"}, "type": "Feature"}
{"geometry": {"coordinates": [-81.788738, 37.556015], "type": "Point"}, "id": "EdTRdJbVZouNvvIL6jx9QVfV6x0=", "properties": {"@spider": "usps_collection_boxes", "addr:city": "HANOVER", "addr:country": "US", "addr:full": "5541 INTERSTATE HWY", "addr:postcode": "24839", "addr:state": "WV", "brand": "USPS", "collection_times": "Mo-Fr 14:45; Sa 12:45", "name": "USPS COLLECTION BOX - BLUE BOX", "note": "ON 12/24 AND 12/31, THIS BOX MAY BE COLLECTED AS EARLY AS 12 NOON.", "ref": "2483900000"}, "type": "Feature"}
{"geometry": {"coordinates": [-81.788738, 37.556015], "type": "Point"}, "id": "bcWDCqrJaMCMrLlKJHkyZyLnz2s=", "properties": {"@spider": "usps_collection_boxes", "addr:city": "HANOVER", "addr:country": "US", "addr:full": "5541 INTERSTATE HWY", "addr:postcode": "24839", "addr:state": "WV", "brand": "USPS", "collection_times": "Mo-Fr 14:45; Sa 12:45", "name": "USPS COLLECTION BOX - PO LOBBY", "note": "ON 12/24 AND 12/31, THIS BOX MAY BE COLLECTED AS EARLY AS 12 NOON.", "ref": "2483900001"}, "type": "Feature"}
{"geometry": {"coordinates": [-81.7921513, 37.5801323], "type": "Point"}, "id": "5As3OK76_69KAC89nbfm_wEKHmU=", "properties": {"@spider": "usps_collection_boxes", "addr:city": "HANOVER", "addr:country": "US", "addr:full": "5541 INTERSTATE HWY", "addr:postcode": "24839", "addr:state": "WV", "brand": "USPS", "collection_times": "Mo-Fr 16:00; Sa 13:00", "name": "USPS COLLECTION BOX - PO LOBBY", "note": "ON 12/24 AND 12/31, THIS BOX MAY BE COLLECTED AS EARLY AS 12 NOON.", "ref": "2483900003"}, "type": "Feature"}
{"geometry": {"coordinates": [-81.412461, 37.564766], "type": "Point"}, "id": "FiNNPt8D5mdBB5jIQB6ZNjRaCYY=", "properties": {"@spider": "usps_collection_boxes", "addr:city": "ITMANN", "addr:country": "US", "addr:full": "11312 RIVER RD", "addr:postcode": "24847", "addr:state": "WV", "brand": "USPS", "collection_times": "Mo-Fr 11:00; Sa 09:30", "name": "USPS COLLECTION BOX - BLUE BOX", "ref": "2484700000"}, "type": "Feature"}
{"geometry": {"coordinates": [-81.412407, 37.564745], "type": "Point"}, "id": "BRmlHkMlof-HFfm0B0K33mWI-Hg=", "properties": {"@spider": "usps_collection_boxes", "addr:city": "ITMANN", "addr:country": "US", "addr:full": "11312 RIVER RD", "addr:postcode": "24847", "addr:state": "WV", "brand": "USPS", "collection_times": "Mo-Fr 11:00; Sa 09:45", "name": "USPS COLLECTION BOX - PO LOBBY", "ref": "2484700001"}, "type": "Feature"}
{"geometry": {"coordinates": [-81.412472276, 37.564725901], "type": "Point"}, "id": "uQP2gvrqXAB1eYz_8gnkp_hvQFI=", "properties": {"@spider": "usps_collection_boxes", "addr:city": "ITMANN", "addr:country": "US", "addr:full": "11312 RIVER RD", "addr:postcode": "24847", "addr:state": "WV", "brand": "USPS", "collection_times": "Mo-Fr 15:45; Sa 10:30", "name": "USPS COLLECTION BOX - PO LOBBY", "note": "ON 12/24 AND 12/31, THIS BOX MAY BE COLLECTED AS EARLY AS 12 NOON.", "ref": "2484700003"}, "type": "Feature"}
{"geometry": {"coordinates": [-81.576254, 37.669727], "type": "Point"}, "id": "28qrBHvafV33PG5pZ_v2sJjHM3c=", "properties": {"@spider": "usps_collection_boxes", "addr:city": "JESSE", "addr:country": "US", "addr:full": "71 POPLAR GAP RD", "addr:postcode": "24849", "addr:state": "WV", "brand": "USPS", "collection_times": "Mo-Fr 11:30; Sa 11:00", "name": "USPS COLLECTION BOX - BLUE BOX", "ref": "2484900000"}, "type": "Feature"}
{"geometry": {"coordinates": [-81.576277, 37.669703], "type": "Point"}, "id": "TLZtYny177hjlQzfACpI3v4B4u0=", "properties": {"@spider": "usps_collection_boxes", "addr:city": "JESSE", "addr:country": "US", "addr:full": "71 POPLAR GAP RD", "addr:postcode": "24849", "addr:state": "WV", "brand": "USPS", "collection_times": "Mo-Fr 11:30; Sa 11:00", "name": "USPS COLLECTION BOX - PO LOBBY", "ref": "2484900001"}, "type": "Feature"}
{"geometry": {"coordinates": [-81.576262503, 37.669759091], "type": "Point"}, "id": "IKV8DK_5KbqcibSGAgxgvh9ru64=", "properties": {"@spider": "usps_collection_boxes", "addr:city": "JESSE", "addr:country": "US", "addr:full": "71 POPLAR GAP RD", "addr:postcode": "24849", "addr:state": "WV", "brand": "USPS", "collection_times": "Mo-Fr 12:00; Sa 11:30", "name": "USPS COLLECTION BOX - PO LOBBY", "ref": "2484900003"}, "type": "Feature"}
{"geometry": {"coordinates": [-81.4970165412, 37.4194177408], "type": "Point"}, "id": "uYeNI2kphM7B0HNj4MtVKM4Gu5M=", "properties": {"@spider": "usps_collection_boxes", "addr:city": "KIMBALL", "addr:country": "US", "addr:full": "28499 COAL HERITAGE RD", "addr:postcode": "24853", "addr:state": "WV", "brand": "USPS", "collection_times": "Mo-Fr 11:45; Sa 11:00", "name": "USPS COLLECTION BOX - BLUE BOX", "ref": "2485300004"}, "type": "Feature"}
{"geometry": {"coordinates": [-81.497016541, 37.419417741], "type": "Point"}, "id": "f0x-V4CSczyzM7BrcNF55pEG3Jw=", "properties": {"@spider": "usps_collection_boxes", "addr:city": "KIMBALL", "addr:country": "US", "addr:full": "28499 COAL HERITAGE RD", "addr:postcode": "24853", "addr:state": "WV", "brand": "USPS", "collection_times": "Mo-Fr 11:45; Sa 11:00", "name": "USPS COLLECTION BOX - PO LOBBY", "ref": "2485300005"}, "type": "Feature"}
{"geometry": {"coordinates": [-81.497016541, 37.419417741], "type": "Point"}, "id": "03GiDykzbgdRGx0w5F_TfpsiL_w=", "properties": {"@spider": "usps_collection_boxes", "addr:city": "KIMBALL", "addr:country": "US", "addr:full": "28499 COAL HERITAGE RD", "addr:postcode": "24853", "addr:state": "WV", "brand": "USPS", "collection_times": "Mo-Fr 12:00; Sa 11:00", "name": "USPS COLLECTION BOX - PO LOBBY", "ref": "2485300006"}, "type": "Feature"}
{"geometry": {"coordinates": [-81.566176694, 37.750251879], "type": "Point"}, "id": "pzuVs2wCE294M-dx_oSLLSadN7w=", "properties": {"@spider": "usps_collection_boxes", "addr:city": "OCEANA", "addr:country": "US", "addr:full": "5657 KOPPERSTON ST", "addr:postcode": "24854", "addr:state": "WV", "brand": "USPS", "collection_times": "Mo-Fr 12:00", "name": "USPS COLLECTION BOX - PO LOBBY", "ref": "2485400001"}, "type": "Feature"}
{"geometry": {"coordinates": [-81.658008, 37.687935], "type": "Point"}, "id": "fMR9qeOhs6wA7qfDphz1esbq_8I=", "properties": {"@spider": "usps_collection_boxes", "addr:city": "LYNCO", "addr:country": "US", "addr:full": "473 CLEAR FORK VALLEY RD", "addr:postcode": "24857", "addr:state": "WV", "brand": "USPS", "collection_times": "Mo-Fr 11:45; Sa 12:15", "name": "USPS COLLECTION BOX - BLUE BOX", "note": "ON 12/24 AND 12/31, THIS BOX MAY BE COLLECTED AS EARLY AS 12 NOON.", "ref": "2485700000"}, "type": "Feature"}
{"geometry": {"coordinates": [-81.658097, 37.687923], "type": "Point"}, "id": "d0QyJ6aIxCiA0_no-Wws6LJ6kTo=", "properties": {"@spider": "usps_collection_boxes", "addr:city": "LYNCO", "addr:country": "US", "addr:full": "473 CLEAR FORK VALLEY RD", "addr:postcode": "24857", "addr:state": "WV", "brand": "USPS", "collection_times": "Mo-Fr 11:45; Sa 12:15", "name": "USPS COLLECTION BOX - PO LOBBY", "note": "ON 12/24 AND 12/31, THIS BOX MAY BE COLLECTED AS EARLY AS 12 NOON.", "ref": "2485700001"}, "type": "Feature"}
{"geometry": {"coordinates": [-81.65802541, 37.687878374], "type": "Point"}, "id": "iRNUNyS-WdbsSMQkNh7lhgOY1vg=", "properties": {"@spider": "usps_collection_boxes", "addr:city": "LYNCO", "addr:country": "US", "addr:full": "473 CLEAR FORK VALLEY RD", "addr:postcode": "24857", "addr:state": "WV", "brand": "USPS", "collection_times": "Mo-Fr 15:00; Sa 13:00", "name": "USPS COLLECTION BOX - PO LOBBY", "note": "ON 12/24 AND 12/31, THIS BOX MAY BE COLLECTED AS EARLY AS 12 NOON.", "ref": "2485700003"}, "type": "Feature"}
{"geometry": {"coordinates": [-81.36815, 37.368813], "type": "Point"}, "id": "mT6tRlEL1BEfcgBh6XMo7DF1SaA=", "properties": {"@spider": "usps_collection_boxes", "addr:city": "MAYBEURY", "addr:country": "US", "addr:full": "40128 COAL HERITAGE RD", "addr:postcode": "24861", "addr:state": "WV", "brand": "USPS", "collection_times": "Mo-Fr 15:45; Sa 09:45", "name": "USPS COLLECTION BOX - BLUE BOX", "note": "ON 12/24 AND 12/31, THIS BOX MAY BE COLLECTED AS EARLY AS 12 NOON.", "ref": "2486100000"}, "type": "Feature"}
{"geometry": {"coordinates": [-81.36815, 37.368813], "type": "Point"}, "id": "h8NQMTQunztJfFOVlyrqw8-pxEI=", "properties": {"@spider": "usps_collection_boxes", "addr:city": "MAYBEURY", "addr:country": "US", "addr:full": "40128 COAL HERITAGE RD", "addr:postcode": "24861", "addr:state": "WV", "brand": "USPS", "collection_times": "Mo-Fr 15:45; Sa 09:45", "name": "USPS COLLECTION BOX - PO LOBBY", "note": "ON 12/24 AND 12/31, THIS BOX MAY BE COLLECTED AS EARLY AS 12 NOON.", "ref": "2486100001"}, "type": "Feature"}
{"geometry": {"coordinates": [-81.3564899, 37.37412], "type": "Point"}, "id": "ndTYTXc8vOLVjsie_Hsr7JoQwIk=", "properties": {"@spider": "usps_collection_boxes", "addr:city": "MAYBEURY", "addr:country": "US", "addr:full": "40128 COAL HERITAGE RD", "addr:postcode": "24861", "addr:state": "WV", "brand": "USPS", "collection_times": "Mo-Fr 15:45; Sa 10:00", "name": "USPS COLLECTION BOX - PO LOBBY", "note": "ON 12/24 AND 12/31, THIS BOX MAY BE COLLECTED AS EARLY AS 12 NOON.", "ref": "2486100003"}, "type": "Feature"}
{"geometry": {"coordinates": [-81.61908, 37.26234], "type": "Point"}, "id": "-_K4GziWxu_4goFCUkbj3tx0qHE=", "properties": {"@spider": "usps_collection_boxes", "addr:city": "NEWHALL", "addr:country": "US", "addr:full": "19233 HIGHWAY 16 N", "addr:postcode": "24866", "addr:state": "WV", "brand": "USPS", "collection_times": "Mo-Fr 12:00; Sa 10:45", "name": "USPS COLLECTION BOX - BLUE BOX", "ref": "2486600000"}, "type": "Feature"}
{"geometry": {"coordinates": [-81.619064, 37.265251], "type": "Point"}, "id": "iFHLI4avFpptdAoZitHU_Urtctw=", "properties": {"@spider": "usps_collection_boxes", "addr:city": "NEWHALL", "addr:country": "US", "addr:full": "19233 HIGHWAY 16 N", "addr:postcode": "24866", "addr:state": "WV", "brand": "USPS", "collection_times": "Mo-Fr 12:00; Sa 10:45", "name": "USPS COLLECTION BOX - PO LOBBY", "ref": "2486600001"}, "type": "Feature"}
{"geometry": {"coordinates": [-81.61908, 37.26234], "type": "Point"}, "id": "6lFVBf3TF9Rw_deAgociDylgqr0=", "properties": {"@spider": "usps_collection_boxes", "addr:city": "NEWHALL", "addr:country": "US", "addr:full": "19233 HIGHWAY 16 N", "addr:postcode": "24866", "addr:state": "WV", "brand": "USPS", "collection_times": "Mo-Fr 12:30; Sa 10:45", "name": "USPS COLLECTION BOX - PO LOBBY", "note": "ON 12/24 AND 12/31, THIS BOX MAY BE COLLECTED AS EARLY AS 12 NOON.", "ref": "2486600003"}, "type": "Feature"}
{"geometry": {"coordinates": [-81.472251, 37.574019], "type": "Point"}, "id": "EDgNaFayr6y2wWKjBupNhPmWHKo=", "properties": {"@spider": "usps_collection_boxes", "addr:city": "NEW RICHMOND", "addr:country": "US", "addr:full": "5204 RIVER RD", "addr:postcode": "24867", "addr:state": "WV", "brand": "USPS", "collection_times": "Mo-Fr 11:00; Sa 09:20", "name": "USPS COLLECTION BOX - BLUE BOX", "ref": "2486700000"}, "type": "Feature"}
{"geometry": {"coordinates": [-81.472251, 37.574019], "type": "Point"}, "id": "7dKf1R4w-1a__kaFOZY9zZD40gg=", "properties": {"@spider": "usps_collection_boxes", "addr:city": "NEW RICHMOND", "addr:country": "US", "addr:full": "5204 RIVER RD", "addr:postcode": "24867", "addr:state": "WV", "brand": "USPS", "collection_times": "Mo-Fr 11:00; Sa 09:20", "name": "USPS COLLECTION BOX - PO LOBBY", "ref": "2486700001"}, "type": "Feature"}
{"geometry": {"coordinates": [-81.486230504, 37.56998843], "type": "Point"}, "id": "IxnFQbfTMCl-E14skPvUJyJ_gOw=", "properties": {"@spider": "usps_collection_boxes", "addr:city": "NEW RICHMOND", "addr:country": "US", "addr:full": "5204 RIVER RD", "addr:postcode": "24867", "addr:state": "WV", "brand": "USPS", "collection_times": "Mo-Sa 11:00", "name": "USPS COLLECTION BOX - PO LOBBY", "ref": "2486700004"}, "type": "Feature"}
{"geometry": {"coordinates": [-81.322575701, 37.352856069], "type": "Point"}, "id": "93kiTsUPpSY7c_BPJBTd8b6CVjc=", "properties": {"@spider": "usps_collection_boxes", "addr:city": "NORTHFORK", "addr:country": "US", "addr:full": "33955 COAL HERITAGE RD", "addr:postcode": "24868", "addr:state": "WV", "brand": "USPS", "collection_times": "Mo-Fr 16:15; Sa 11:45", "name": "USPS COLLECTION BOX - BLUE BOX", "note": "ON 12/24 AND 12/31, THIS BOX MAY BE COLLECTED AS EARLY AS 12 NOON.", "ref": "2486800000"}, "type": "Feature"}
{"geometry": {"coordinates": [-81.322575701, 37.352856069], "type": "Point"}, "id": "Xg5jFElJB8_ptmB4gJYe_5QutmY=", "properties": {"@spider": "usps_collection_boxes", "addr:city": "NORTHFORK", "addr:country": "US", "addr:full": "33955 COAL HERITAGE RD", "addr:postcode": "24868", "addr:state": "WV", "brand": "USPS", "collection_times": "Mo-Fr 16:45; Sa 11:45", "name": "USPS COLLECTION BOX - PO LOBBY", "note": "ON 12/24 AND 12/31, THIS BOX MAY BE COLLECTED AS EARLY AS 12 NOON.", "ref": "2486800001"}, "type": "Feature"}
{"geometry": {"coordinates": [-81.322575701, 37.352856069], "type": "Point"}, "id": "HAZVnrBRQBbUtj6V_d_9OKTjuFM=", "properties": {"@spider": "usps_collection_boxes", "addr:city": "NORTHFORK", "addr:country": "US", "addr:full": "33955 COAL HERITAGE RD", "addr:postcode": "24868", "addr:state": "WV", "brand": "USPS", "collection_times": "Mo-Fr 16:30; Sa 11:30", "name": "USPS COLLECTION BOX - PO LOBBY", "note": "ON 12/24 AND 12/31, THIS BOX MAY BE COLLECTED AS EARLY AS 12 NOON.", "ref": "2486800004"}, "type": "Feature"}
{"geometry": {"coordinates": [-81.634979389, 37.695659886], "type": "Point"}, "id": "N1v06BUERMtW297Dadcwfk47E6A=", "properties": {"@spider": "usps_collection_boxes", "addr:city": "OCEANA", "addr:country": "US", "addr:full": "1524 COOK PKWY", "addr:postcode": "24870", "addr:state": "WV", "brand": "USPS", "collection_times": "Mo-Fr 16:00; Sa 12:00", "name": "USPS COLLECTION BOX - BLUE BOX", "note": "ON 12/24 AND 12/31, THIS BOX MAY BE COLLECTED AS EARLY AS 12 NOON.", "ref": "2487000000"}, "type": "Feature"}
{"geometry": {"coordinates": [-81.634979389, 37.695659886], "type": "Point"}, "id": "lZAV3gcl593x-HwjF-jl0z2dim0=", "properties": {"@spider": "usps_collection_boxes", "addr:city": "OCEANA", "addr:country": "US", "addr:full": "1524 COOK PKWY", "addr:postcode": "24870", "addr:state": "WV", "brand": "USPS", "collection_times": "Mo-Fr 16:10; Sa 12:50", "name": "USPS COLLECTION BOX - PO LOBBY", "note": "ON 12/24 AND 12/31, THIS BOX MAY BE COLLECTED AS EARLY AS 12 NOON.", "ref": "2487000001"}, "type": "Feature"}
{"geometry": {"coordinates": [-81.634979389, 37.695659886], "type": "Point"}, "id": "oGy2f9M3eD-vSQmdc3pRSY_JJsQ=", "properties": {"@spider": "usps_collection_boxes", "addr:city": "OCEANA", "addr:country": "US", "addr:full": "1524 COOK PKWY", "addr:postcode": "24870", "addr:state": "WV", "brand": "USPS", "collection_times": "Mo-Fr 16:10; Sa 12:50", "name": "USPS COLLECTION BOX - PO LOBBY", "note": "ON 12/24 AND 12/31, THIS BOX MAY BE COLLECTED AS EARLY AS 12 NOON.", "ref": "2487000002"}, "type": "Feature"}
{"geometry": {"coordinates": [-81.5526654179, 37.7351711344], "type": "Point"}, "id": "9si4wA1PU1yeXk-Zoke46xFrJJQ=", "properties": {"@spider": "usps_collection_boxes", "addr:city": "OCEANA", "addr:country": "US", "addr:full": "PO BOX 1", "addr:postcode": "24870", "addr:state": "WV", "brand": "USPS", "collection_times": "Mo-Fr 13:45; Sa 11:45", "name": "USPS COLLECTION BOX - PO LOBBY", "note": "ON 12/24 AND 12/31, THIS BOX MAY BE COLLECTED AS EARLY AS 12 NOON.", "ref": "2487000003"}, "type": "Feature"}
{"geometry": {"coordinates": [-81.634979389, 37.695659886], "type": "Point"}, "id": "RD1irWuva_KroEuTGjoJKUxgdZo=", "properties": {"@spider": "usps_collection_boxes", "addr:city": "OCEANA", "addr:country": "US", "addr:full": "1524 COOK PKWY", "addr:postcode": "24870", "addr:state": "WV", "brand": "USPS", "collection_times": "Mo-Fr 16:30; Sa 12:00", "name": "USPS COLLECTION BOX - PO LOBBY", "note": "ON 12/24 AND 12/31, THIS BOX MAY BE COLLECTED AS EARLY AS 12 NOON.", "ref": "2487000005"}, "type": "Feature"}
{"geometry": {"coordinates": [-81.4651435622, 37.349445096], "type": "Point"}, "id": "Qqk0P_Piv4E3aUgdehdnFeNy5hU=", "properties": {"@spider": "usps_collection_boxes", "addr:city": "PAGETON", "addr:country": "US", "addr:full": "207 MAIN ST", "addr:postcode": "24871", "addr:state": "WV", "brand": "USPS", "collection_times": "Mo-Fr 11:45; Sa 09:45", "name": "USPS COLLECTION BOX - BLUE BOX", "ref": "2487100000"}, "type": "Feature"}
{"geometry": {"coordinates": [-81.4651435622, 37.349445096], "type": "Point"}, "id": "c0Z5Q5t6g9-Ka-Kb9RmhR1TbNlY=", "properties": {"@spider": "usps_collection_boxes", "addr:city": "PAGETON", "addr:country": "US", "addr:full": "207 MAIN ST", "addr:postcode": "24871", "addr:state": "WV", "brand": "USPS", "collection_times": "Mo-Fr 11:45; Sa 09:45", "name": "USPS COLLECTION BOX - PO LOBBY", "ref": "2487100001"}, "type": "Feature"}
{"geometry": {"coordinates": [-81.473562507, 37.352212469], "type": "Point"}, "id": "CKQMQteJRGa1W7UQAtvZcg58QnM=", "properties": {"@spider": "usps_collection_boxes", "addr:city": "PAGETON", "addr:country": "US", "addr:full": "207 MAIN ST", "addr:postcode": "24871", "addr:state": "WV", "brand": "USPS", "collection_times": "Mo-Fr 12:00; Sa 11:15", "name": "USPS COLLECTION BOX - PO LOBBY", "ref": "2487100003"}, "type": "Feature"}
{"geometry": {"coordinates": [-81.540092064, 37.583039322], "type": "Point"}, "id": "sSegD_dvSAxdxgO5f2EaTt_2xtY=", "properties": {"@spider": "usps_collection_boxes", "addr:city": "PINEVILLE", "addr:country": "US", "addr:full": "145 MAIN AVE", "addr:postcode": "24874", "addr:state": "WV", "brand": "USPS", "collection_times": "Mo-Fr 15:30; Sa 12:00", "name": "USPS COLLECTION BOX - BLUE BOX", "note": "ON 12/24 AND 12/31, THIS BOX MAY BE COLLECTED AS EARLY AS 12 NOON.", "ref": "2487400000"}, "type": "Feature"}
{"geometry": {"coordinates": [-81.5365466119, 37.5408873086], "type": "Point"}, "id": "b0IK9m1Qpy63BDlKjwFYIkSHtRg=", "properties": {"@spider": "usps_collection_boxes", "addr:city": "PINEVILLE", "addr:country": "US", "addr:full": "999999 BANK ST/CEDAR AVE", "addr:postcode": "24874", "addr:state": "WV", "brand": "USPS", "collection_times": "Mo-Fr 15:00; Sa 11:00", "name": "USPS COLLECTION BOX - BLUE BOX", "note": "ON 12/24 AND 12/31, THIS BOX MAY BE COLLECTED AS EARLY AS 12 NOON.", "ref": "2487400001"}, "type": "Feature"}
{"geometry": {"coordinates": [-81.540092064, 37.583039322], "type": "Point"}, "id": "OZiIAxiH8K0Qw87uT75wzy3Dzuk=", "properties": {"@spider": "usps_collection_boxes", "addr:city": "PINEVILLE", "addr:country": "US", "addr:full": "145 MAIN AVE", "addr:postcode": "24874", "addr:state": "WV", "brand": "USPS", "collection_times": "Mo-Fr 15:30; Sa 12:00", "name": "USPS COLLECTION BOX - PO LOBBY", "note": "ON 12/24 AND 12/31, THIS BOX MAY BE COLLECTED AS EARLY AS 12 NOON.", "ref": "2487400002"}, "type": "Feature"}
{"geometry": {"coordinates": [-81.540092064, 37.583039322], "type": "Point"}, "id": "h0rXXVkPsf-cqUHTEa2jcoH_mm8=", "properties": {"@spider": "usps_collection_boxes", "addr:city": "PINEVILLE", "addr:country": "US", "addr:full": "145 MAIN AVE", "addr:postcode": "24874", "addr:state": "WV", "brand": "USPS", "collection_times": "Mo-Fr 15:30; Sa 12:00", "name": "USPS COLLECTION BOX - PO LOBBY", "note": "ON 12/24 AND 12/31, THIS BOX MAY BE COLLECTED AS EARLY AS 12 NOON.", "ref": "2487400003"}, "type": "Feature"}
{"geometry": {"coordinates": [-81.540092064, 37.583039322], "type": "Point"}, "id": "putC4nRbc79zdysQ_Vrw7TU_ALo=", "properties": {"@spider": "usps_collection_boxes", "addr:city": "PINEVILLE", "addr:country": "US", "addr:full": "145 MAIN AVE", "addr:postcode": "24874", "addr:state": "WV", "brand": "USPS", "collection_times": "Mo-Fr 16:30; Sa 12:00", "name": "USPS COLLECTION BOX - PO LOBBY", "note": "ON 12/24 AND 12/31, THIS BOX MAY BE COLLECTED AS EARLY AS 12 NOON.", "ref": "2487400005"}, "type": "Feature"}
{"geometry": {"coordinates": [-81.54519, 37.631405], "type": "Point"}, "id": "1xUbsRBHStHmlowUT7Hf_JDVT7U=", "properties": {"@spider": "usps_collection_boxes", "addr:city": "ROCK VIEW", "addr:country": "US", "addr:full": "4025 APPALACHIAN HWY", "addr:postcode": "24880", "addr:state": "WV", "brand": "USPS", "collection_times": "Mo-Fr 11:00; Sa 09:30", "name": "USPS COLLECTION BOX - BLUE BOX", "ref": "2488000000"}, "type": "Feature"}
{"geometry": {"coordinates": [-81.545104, 37.631379], "type": "Point"}, "id": "znvge8jOxf3px-O7_AG0Rm2lhno=", "properties": {"@spider": "usps_collection_boxes", "addr:city": "ROCK VIEW", "addr:country": "US", "addr:full": "4025 APPALACHIAN HWY", "addr:postcode": "24880", "addr:state": "WV", "brand": "USPS", "collection_times": "Mo-Fr 11:00; Sa 09:30", "name": "USPS COLLECTION BOX - PO LOBBY", "ref": "2488000001"}, "type": "Feature"}
{"geometry": {"coordinates": [-81.545191756, 37.631340165], "type": "Point"}, "id": "bTeag8lg46MDmQOvfs_o5mo-U_Q=", "properties": {"@spider": "usps_collection_boxes", "addr:city": "ROCK VIEW", "addr:country": "US", "addr:full": "4025 APPALACHIAN HWY", "addr:postcode": "24880", "addr:state": "WV", "brand": "USPS", "collection_times": "Mo-Fr 12:00; Sa 11:30", "name": "USPS COLLECTION BOX - PO LOBBY", "ref": "2488000003"}, "type": "Feature"}
{"geometry": {"coordinates": [-81.74017, 37.613796], "type": "Point"}, "id": "yP-UDvfm0HYtRsjpl8Te8TEECII=", "properties": {"@spider": "usps_collection_boxes", "addr:city": "SIMON", "addr:country": "US", "addr:full": "714 SIMON RD", "addr:postcode": "24882", "addr:state": "WV", "brand": "USPS", "collection_times": "Mo-Fr 11:45; Sa 11:00", "name": "USPS COLLECTION BOX - BLUE BOX", "ref": "2488200000"}, "type": "Feature"}
{"geometry": {"coordinates": [-81.7401, 37.613839], "type": "Point"}, "id": "NFjDJArAQ6fy6hJszlGECG1OBX8=", "properties": {"@spider": "usps_collection_boxes", "addr:city": "SIMON", "addr:country": "US", "addr:full": "714 SIMON RD", "addr:postcode": "24882", "addr:state": "WV", "brand": "USPS", "collection_times": "Mo-Fr 11:45; Sa 11:00", "name": "USPS COLLECTION BOX - PO LOBBY", "ref": "2488200001"}, "type": "Feature"}
{"geometry": {"coordinates": [-81.740177495, 37.613829411], "type": "Point"}, "id": "hKvlDxFHM0n06D5rV2WP-XHndsM=", "properties": {"@spider": "usps_collection_boxes", "addr:city": "SIMON", "addr:country": "US", "addr:full": "714 SIMON RD", "addr:postcode": "24882", "addr:state": "WV", "brand": "USPS", "collection_times": "Mo-Fr 12:00; Sa 11:15", "name": "USPS COLLECTION BOX - PO LOBBY", "ref": "2488200004"}, "type": "Feature"}
{"geometry": {"coordinates": [-81.609575, 37.239294], "type": "Point"}, "id": "vzCOpQgN_JGwT29-8BxdaRBs4-k=", "properties": {"@spider": "usps_collection_boxes", "addr:city": "SQUIRE", "addr:country": "US", "addr:full": "20714 HIGHWAY 16 S", "addr:postcode": "24884", "addr:state": "WV", "brand": "USPS", "collection_times": "Mo-Fr 11:45; Sa 09:45", "name": "USPS COLLECTION BOX - BLUE BOX", "ref": "2488400000"}, "type": "Feature"}
{"geometry": {"coordinates": [-81.609575, 37.239294], "type": "Point"}, "id": "uNTr8s_pjJBIwNz2OORVtk1boSs=", "properties": {"@spider": "usps_collection_boxes", "addr:city": "SQUIRE", "addr:country": "US", "addr:full": "20714 HIGHWAY 16 S", "addr:postcode": "24884", "addr:state": "WV", "brand": "USPS", "collection_times": "Mo-Fr 11:45; Sa 09:45", "name": "USPS COLLECTION BOX - PO LOBBY", "ref": "2488400001"}, "type": "Feature"}
{"geometry": {"coordinates": [-81.610952815, 37.248492721], "type": "Point"}, "id": "GVHDgGm1VcIACAD5CIACdiurJP4=", "properties": {"@spider": "usps_collection_boxes", "addr:city": "SQUIRE", "addr:country": "US", "addr:full": "20714 HIGHWAY 16 S", "addr:postcode": "24884", "addr:state": "WV", "brand": "USPS", "collection_times": "Mo-Fr 12:30; Sa 11:00", "name": "USPS COLLECTION BOX - PO LOBBY", "note": "ON 12/24 AND 12/31, THIS BOX MAY BE COLLECTED AS EARLY AS 12 NOON.", "ref": "2488400003"}, "type": "Feature"}
{"geometry": {"coordinates": [-81.3857995521, 37.3711005234], "type": "Point"}, "id": "Yc6xS1BQLWXkOEahY1pmcC6iN7o=", "properties": {"@spider": "usps_collection_boxes", "addr:city": "SWITCHBACK", "addr:country": "US", "addr:full": "322 POWERHOUSE RD", "addr:postcode": "24887", "addr:state": "WV", "brand": "USPS", "collection_times": "Mo-Sa 11:45", "name": "USPS COLLECTION BOX - BLUE BOX", "ref": "2488700002"}, "type": "Feature"}
{"geometry": {"coordinates": [-81.3857995521, 37.3711005234], "type": "Point"}, "id": "iXOZ3seMHX81juK--pTQKt1KQG4=", "properties": {"@spider": "usps_collection_boxes", "addr:city": "SWITCHBACK", "addr:country": "US", "addr:full": "322 POWERHOUSE RD", "addr:postcode": "24887", "addr:state": "WV", "brand": "USPS", "collection_times": "Mo-Sa 11:45", "name": "USPS COLLECTION BOX - PO LOBBY", "ref": "2488700003"}, "type": "Feature"}
{"geometry": {"coordinates": [-81.547482352, 37.367095894], "type": "Point"}, "id": "ErqB9mE9GBzyJdkDiAoKoYxAk7c=", "properties": {"@spider": "usps_collection_boxes", "addr:city": "SWITCHBACK", "addr:country": "US", "addr:full": "322 POWERHOUSE RD", "addr:postcode": "24887", "addr:state": "WV", "brand": "USPS", "collection_times": "Mo-Sa 12:00", "name": "USPS COLLECTION BOX - PO LOBBY", "ref": "2488700005"}, "type": "Feature"}
{"geometry": {"coordinates": [-81.510180031, 37.366650001], "type": "Point"}, "id": "QByVNKtPFxCSH0cumuHPzCVYJoc=", "properties": {"@spider": "usps_collection_boxes", "addr:city": "THORPE", "addr:country": "US", "addr:full": "28 HOLIDAY BRANCH RD", "addr:postcode": "24888", "addr:state": "WV", "brand": "USPS", "collection_times": "Mo-Fr 11:45; Sa 10:45", "name": "USPS COLLECTION BOX - BLUE BOX", "ref": "2488800000"}, "type": "Feature"}
{"geometry": {"coordinates": [-81.5166, 37.3686], "type": "Point"}, "id": "IGzRUMmbjr_mbLqr2Hfu9JgUABU=", "properties": {"@spider": "usps_collection_boxes", "addr:city": "THORPE", "addr:country": "US", "addr:full": "28 HOLIDAY BRANCH RD", "addr:postcode": "24888", "addr:state": "WV", "brand": "USPS", "collection_times": "Mo-Fr 11:45; Sa 10:45", "name": "USPS COLLECTION BOX - PO LOBBY", "ref": "2488800001"}, "type": "Feature"}
{"geometry": {"coordinates": [-81.516565339, 37.371439093], "type": "Point"}, "id": "cLU7q3v-EyHLKUQUAzMdVmr-OX8=", "properties": {"@spider": "usps_collection_boxes", "addr:city": "THORPE", "addr:country": "US", "addr:full": "28 HOLIDAY BRANCH RD", "addr:postcode": "24888", "addr:state": "WV", "brand": "USPS", "collection_times": "Mo-Fr 12:00; Sa 11:00", "name": "USPS COLLECTION BOX - PO LOBBY", "ref": "2488800003"}, "type": "Feature"}
{"geometry": {"coordinates": [-81.56177, 37.38304], "type": "Point"}, "id": "-O-UO0a-U-O2RCGqJlw4Uv9SiDo=", "properties": {"@spider": "usps_collection_boxes", "addr:city": "WILCOE", "addr:country": "US", "addr:full": "57 POSTAL LN", "addr:postcode": "24895", "addr:state": "WV", "brand": "USPS", "collection_times": "Mo-Fr 16:15; Sa 09:45", "name": "USPS COLLECTION BOX - BLUE BOX", "note": "ON 12/24 AND 12/31, THIS BOX MAY BE COLLECTED AS EARLY AS 12 NOON.", "ref": "2489500000"}, "type": "Feature"}
{"geometry": {"coordinates": [-81.56177, 37.38304], "type": "Point"}, "id": "ceIzvNSRfrdarGVunueaPcHFq9M=", "properties": {"@spider": "usps_collection_boxes", "addr:city": "WILCOE", "addr:country": "US", "addr:full": "57 POSTAL LN", "addr:postcode": "24895", "addr:state": "WV", "brand": "USPS", "collection_times": "Mo-Fr 16:15; Sa 09:45", "name": "USPS COLLECTION BOX - PO LOBBY", "note": "ON 12/24 AND 12/31, THIS BOX MAY BE COLLECTED AS EARLY AS 12 NOON.", "ref": "2489500001"}, "type": "Feature"}
{"geometry": {"coordinates": [-81.56177, 37.38304], "type": "Point"}, "id": "fjQ1B-JSgG14mUamimjmhrn6dxM=", "properties": {"@spider": "usps_collection_boxes", "addr:city": "WILCOE", "addr:country": "US", "addr:full": "57 POSTAL LN", "addr:postcode": "24895", "addr:state": "WV", "brand": "USPS", "collection_times": "Mo-Fr 16:15; Sa 09:45", "name": "USPS COLLECTION BOX - PO LOBBY", "note": "ON 12/24 AND 12/31, THIS BOX MAY BE COLLECTED AS EARLY AS 12 NOON.", "ref": "2489500003"}, "type": "Feature"}
{"geometry": {"coordinates": [-81.60053, 37.582031], "type": "Point"}, "id": "i6u4zY1neoV6NCc9QOi_JacdHg4=", "properties": {"@spider": "usps_collection_boxes", "addr:city": "WYOMING", "addr:country": "US", "addr:full": "100 NINETY FIFTH ST", "addr:postcode": "24898", "addr:state": "WV", "brand": "USPS", "collection_times": "Mo-Fr 12:00; Sa 10:00", "name": "USPS COLLECTION BOX - BLUE BOX", "ref": "2489800000"}, "type": "Feature"}
{"geometry": {"coordinates": [-81.600479243, 37.582088972], "type": "Point"}, "id": "GNRBbSBpQM07BVLq7bTnEAkR0oc=", "properties": {"@spider": "usps_collection_boxes", "addr:city": "WYOMING", "addr:country": "US", "addr:full": "100 NINETY FIFTH ST", "addr:postcode": "24898", "addr:state": "WV", "brand": "USPS", "collection_times": "Mo-Fr 12:00; Sa 10:30", "name": "USPS COLLECTION BOX - PO LOBBY", "ref": "2489800003"}, "type": "Feature"}
