{"geometry": {"coordinates": [-80.455304759, 37.805155893], "type": "Point"}, "id": "pieC6hfPX8GZCOdmDHl2PsFrPbY=", "properties": {"@spider": "usps_collection_boxes", "addr:city": "LEWISBURG", "addr:country": "US", "addr:full": "942 WASHINGTON ST W", "addr:postcode": "24901", "addr:state": "WV", "brand": "USPS", "collection_times": "Mo-Fr 15:00; Sa 12:30", "name": "USPS COLLECTION BOX - BLUE BOX", "note": "ON 12/24 AND 12/31, THIS BOX MAY BE COLLECTED AS EARLY AS 12 NOON.", "ref": "2490100005"}, "type": "Feature"}
{"geometry": {"coordinates": [-80.426978304, 37.793846257], "type": "Point"}, "id": "NNK9np7ahvgrtnQMoo2bSLm0HGA=", "properties": {"@spider": "usps_collection_boxes", "addr:city": "LEWISBURG", "addr:country": "US", "addr:full": "1129 WASHINGTON ST E", "addr:postcode": "24901", "addr:state": "WV", "brand": "USPS", "collection_times": "Mo-Fr 17:15; Sa 15:30", "name": "USPS COLLECTION BOX - BLUE BOX", "note": "ON 12/24 AND 12/31, THIS BOX MAY BE COLLECTED AS EARLY AS 12 NOON.", "ref": "2490100006"}, "type": "Feature"}
{"geometry": {"coordinates": [-80.426978304, 37.793846257], "type": "Point"}, "id": "5cV6v-5B-AeW9JaaVDrVIYGcdP4=", "properties": {"@spider": "usps_collection_boxes", "addr:city": "LEWISBURG", "addr:country": "US", "addr:full": "1129 WASHINGTON ST E", "addr:postcode": "24901", "addr:state": "WV", "brand": "USPS", "collection_times": "Mo-Fr 17:15; Sa 15:30", "name": "USPS COLLECTION BOX - BLUE BOX", "note": "ON 12/24 AND 12/31, THIS BOX MAY BE COLLECTED AS EARLY AS 12 NOON.", "ref": "2490100007"}, "type": "Feature"}
{"geometry": {"coordinates": [-80.442028023, 37.806706273], "type": "Point"}, "id": "D0NKGlEFQV29TCh4bIUXsZZ4Y3g=", "properties": {"@spider": "usps_collection_boxes", "addr:city": "LEWISBURG", "addr:country": "US", "addr:full": "800 COURT ST N", "addr:postcode": "24901", "addr:state": "WV", "brand": "USPS", "collection_times": "Mo-Fr 15:00; Sa 12:30", "name": "USPS COLLECTION BOX - BLUE BOX", "note": "ON 12/24 AND 12/31, THIS BOX MAY BE COLLECTED AS EARLY AS 12 NOON.", "ref": "2490100014"}, "type": "Feature"}
{"geometry": {"coordinates": [-80.441779728, 37.806961169], "type": "Point"}, "id": "U3pjAUeLVYeNqMW8hl0iCEpKIkI=", "properties": {"@spider": "usps_collection_boxes", "addr:city": "LEWISBURG", "addr:country": "US", "addr:full": "880 COURT ST N", "addr:postcode": "24901", "addr:state": "WV", "brand": "USPS", "collection_times": "Mo-Fr 15:00; Sa 12:30", "name": "USPS COLLECTION BOX - BLUE BOX", "note": "ON 12/24 AND 12/31, THIS BOX MAY BE COLLECTED AS EARLY AS 12 NOON.", "ref": "2490100015"}, "type": "Feature"}
{"geometry": {"coordinates": [-80.426978304, 37.793846257], "type": "Point"}, "id": "3vEztOG7amkiBydHRH3X4s0Fx4A=", "properties": {"@spider": "usps_collection_boxes", "addr:city": "LEWISBURG", "addr:country": "US", "addr:full": "1129 WASHINGTON ST E", "addr:postcode": "24901", "addr:state": "WV", "brand": "USPS", "collection_times": "Mo-Fr 17:15; Sa 15:30", "name": "USPS COLLECTION BOX - PO LOBBY", "note": "ON 12/24 AND 12/31, THIS BOX MAY BE COLLECTED AS EARLY AS 12 NOON.", "ref": "2490100017"}, "type": "Feature"}
{"geometry": {"coordinates": [-80.431774208, 37.812457565], "type": "Point"}, "id": "mlshUzNSeXHM0FRWrp9RLNONyKg=", "properties": {"@spider": "usps_collection_boxes", "addr:city": "LEWISBURG", "addr:country": "US", "addr:full": "1976 JEFFERSON ST N", "addr:postcode": "24901", "addr:state": "WV", "brand": "USPS", "collection_times": "Mo-Fr 15:00; Sa 12:30", "name": "USPS COLLECTION BOX - BLUE BOX", "note": "ON 12/24 AND 12/31, THIS BOX MAY BE COLLECTED AS EARLY AS 12 NOON.", "ref": "2490100018"}, "type": "Feature"}
{"geometry": {"coordinates": [-80.4668856, 37.767123], "type": "Point"}, "id": "OSalO1iVQi_M9CO8GKYDkAT09p0=", "properties": {"@spider": "usps_collection_boxes", "addr:city": "LEWISBURG", "addr:country": "US", "addr:full": "999999 RED OAK SHOPPING PLZ", "addr:postcode": "24901", "addr:state": "WV", "brand": "USPS", "collection_times": "Mo-Fr 15:00; Sa 12:00", "name": "USPS COLLECTION BOX - BLUE BOX", "note": "ON 12/24 AND 12/31, THIS BOX MAY BE COLLECTED AS EARLY AS 12 NOON.", "ref": "2490100022"}, "type": "Feature"}
{"geometry": {"coordinates": [-80.452089475, 37.789340438], "type": "Point"}, "id": "K_hBNHxs_DP2dBh-XYriPMnGu9c=", "properties": {"@spider": "usps_collection_boxes", "addr:city": "LEWISBURG", "addr:country": "US", "addr:full": "413 GREENBRIER VALLEY MALL DR", "addr:postcode": "24901", "addr:state": "WV", "brand": "USPS", "collection_times": "Mo-Fr 15:00; Sa 12:30", "name": "USPS COLLECTION BOX - BLUE BOX", "note": "ON 12/24 AND 12/31, THIS BOX MAY BE COLLECTED AS EARLY AS 12 NOON.", "ref": "2490100023"}, "type": "Feature"}
{"geometry": {"coordinates": [-80.4201803228, 37.8272434041], "type": "Point"}, "id": "WAej9r4-2Soo0Oovlhf7z8T42Ok=", "properties": {"@spider": "usps_collection_boxes", "addr:city": "LEWISBURG", "addr:country": "US", "addr:full": "777 JEFFERSON ST N", "addr:postcode": "24901", "addr:state": "WV", "brand": "USPS", "collection_times": "Mo-Fr 15:00; Sa 12:30", "name": "USPS COLLECTION BOX - BLUE BOX", "note": "ON 12/24 AND 12/31, THIS BOX MAY BE COLLECTED AS EARLY AS 12 NOON.", "ref": "2490100026"}, "type": "Feature"}
{"geometry": {"coordinates": [-80.4696295, 37.772759], "type": "Point"}, "id": "ZQ9zXz-6zkk68ZFuZHVssQGq90c=", "properties": {"@spider": "usps_collection_boxes", "addr:city": "LEWISBURG", "addr:country": "US", "addr:full": "200 MAPLEWOOD AVE", "addr:postcode": "24901", "addr:state": "WV", "brand": "USPS", "collection_times": "Mo-Fr 15:00; Sa 12:00", "name": "USPS COLLECTION BOX - BLUE BOX", "note": "ON 12/24 AND 12/31, THIS BOX MAY BE COLLECTED AS EARLY AS 12 NOON.", "ref": "2490100027"}, "type": "Feature"}
{"geometry": {"coordinates": [-80.42698289, 37.793846428], "type": "Point"}, "id": "vT7KJmwalfDsNDkNpvOtDbBqH9g=", "properties": {"@spider": "usps_collection_boxes", "addr:city": "LEWISBURG", "addr:country": "US", "addr:full": "1129 WASHINGTON ST E", "addr:postcode": "24901", "addr:state": "WV", "brand": "USPS", "collection_times": "Mo-Fr 17:00; Sa 12:00", "name": "USPS COLLECTION BOX - PO LOBBY", "note": "ON 12/24 AND 12/31, THIS BOX MAY BE COLLECTED AS EARLY AS 12 NOON.", "ref": "2490100030"}, "type": "Feature"}
{"geometry": {"coordinates": [-80.6426447, 37.726071], "type": "Point"}, "id": "oz3gAS06b8l0Bks3NrOwY7mdPoo=", "properties": {"@spider": "usps_collection_boxes", "addr:city": "ALDERSON", "addr:country": "US", "addr:full": "RR 2 BOX 0E", "addr:postcode": "24910", "addr:state": "WV", "brand": "USPS", "collection_times": "Mo-Sa 13:00", "name": "USPS COLLECTION BOX - BLUE BOX", "note": "ON 12/24 AND 12/31, THIS BOX MAY BE COLLECTED AS EARLY AS 12 NOON.", "ref": "2491000000"}, "type": "Feature"}
{"geometry": {"coordinates": [-80.64319497, 37.723867111], "type": "Point"}, "id": "bEmB6V9SMFuFDNXZjA0CWxxTBjY=", "properties": {"@spider": "usps_collection_boxes", "addr:city": "ALDERSON", "addr:country": "US", "addr:full": "111 RAILROAD AVE", "addr:postcode": "24910", "addr:state": "WV", "brand": "USPS", "collection_times": "Mo-Fr 16:00; Sa 12:00", "name": "USPS COLLECTION BOX - PO LOBBY", "note": "ON 12/24 AND 12/31, THIS BOX MAY BE COLLECTED AS EARLY AS 12 NOON.", "ref": "2491000003"}, "type": "Feature"}
{"geometry": {"coordinates": [-80.64319497, 37.723867111], "type": "Point"}, "id": "FY_a8XOG40HPnkVoI4n4WwPTwTk=", "properties": {"@spider": "usps_collection_boxes", "addr:city": "ALDERSON", "addr:country": "US", "addr:full": "111 RAILROAD AVE", "addr:postcode": "24910", "addr:state": "WV", "brand": "USPS", "collection_times": "Mo-Fr 16:00; Sa 12:00", "name": "USPS COLLECTION BOX - BLUE BOX", "note": "ON 12/24 AND 12/31, THIS BOX MAY BE COLLECTED AS EARLY AS 12 NOON.", "ref": "2491000004"}, "type": "Feature"}
{"geometry": {"coordinates": [-80.64319497, 37.723867111], "type": "Point"}, "id": "S-aiU0ZvPcjS0K7klXlYySfSxL4=", "properties": {"@spider": "usps_collection_boxes", "addr:city": "ALDERSON", "addr:country": "US", "addr:full": "111 RAILROAD AVE", "addr:postcode": "24910", "addr:state": "WV", "brand": "USPS", "collection_times": "Mo-Fr 16:30; Sa 12:00", "name": "USPS COLLECTION BOX - PO LOBBY", "note": "ON 12/24 AND 12/31, THIS BOX MAY BE COLLECTED AS EARLY AS 12 NOON.", "ref": "2491000006"}, "type": "Feature"}
{"geometry": {"coordinates": [-80.552074, 37.844808], "type": "Point"}, "id": "NL5W8dhRIo9gh9F-uLTmHTt8HH8=", "properties": {"@spider": "usps_collection_boxes", "addr:city": "ASBURY", "addr:country": "US", "addr:full": "9712 ALTA DR", "addr:postcode": "24916", "addr:state": "WV", "brand": "USPS", "collection_times": "Mo-Sa 14:15", "name": "USPS COLLECTION BOX - BLUE BOX", "note": "ON 12/24 AND 12/31, THIS BOX MAY BE COLLECTED AS EARLY AS 12 NOON.", "ref": "2491600000"}, "type": "Feature"}
{"geometry": {"coordinates": [-80.552074, 37.844808], "type": "Point"}, "id": "dlLRF9L2ZpSiv96pl5MVOAgz9H8=", "properties": {"@spider": "usps_collection_boxes", "addr:city": "ASBURY", "addr:country": "US", "addr:full": "9712 ALTA DR", "addr:postcode": "24916", "addr:state": "WV", "brand": "USPS", "collection_times": "Mo-Sa 14:15", "name": "USPS COLLECTION BOX - PO LOBBY", "note": "ON 12/24 AND 12/31, THIS BOX MAY BE COLLECTED AS EARLY AS 12 NOON.", "ref": "2491600001"}, "type": "Feature"}
{"geometry": {"coordinates": [-80.561241254, 37.820027663], "type": "Point"}, "id": "x2S6SZHh6cONKZabMnqRLSMusbw=", "properties": {"@spider": "usps_collection_boxes", "addr:city": "ASBURY", "addr:country": "US", "addr:full": "9712 ALTA DR", "addr:postcode": "24916", "addr:state": "WV", "brand": "USPS", "collection_times": "Mo-Sa 15:30", "name": "USPS COLLECTION BOX - PO LOBBY", "note": "ON 12/24 AND 12/31, THIS BOX MAY BE COLLECTED AS EARLY AS 12 NOON.", "ref": "2491600003"}, "type": "Feature"}
{"geometry": {"coordinates": [-80.778864, 37.474734], "type": "Point"}, "id": "LyI7eBEU00-PaaL5JNLO34xwkb8=", "properties": {"@spider": "usps_collection_boxes", "addr:city": "BALLARD", "addr:country": "US", "addr:full": "5974 BALLARD RED SULPHER PKWY", "addr:postcode": "24918", "addr:state": "WV", "brand": "USPS", "collection_times": "Mo-Fr 15:00; Sa 11:15", "name": "USPS COLLECTION BOX - BLUE BOX", "note": "ON 12/24 AND 12/31, THIS BOX MAY BE COLLECTED AS EARLY AS 12 NOON.", "ref": "2491800001"}, "type": "Feature"}
{"geometry": {"coordinates": [-80.778864, 37.474734], "type": "Point"}, "id": "aGQwtO1s3NrEeMOS9wANXr5UXEk=", "properties": {"@spider": "usps_collection_boxes", "addr:city": "BALLARD", "addr:country": "US", "addr:full": "5974 BALLARD RED SULPHER PKWY", "addr:postcode": "24918", "addr:state": "WV", "brand": "USPS", "collection_times": "Mo-Fr 15:00; Sa 11:15", "name": "USPS COLLECTION BOX - PO LOBBY", "note": "ON 12/24 AND 12/31, THIS BOX MAY BE COLLECTED AS EARLY AS 12 NOON.", "ref": "2491800002"}, "type": "Feature"}
{"geometry": {"coordinates": [-80.77406, 37.54757], "type": "Point"}, "id": "v_RpAIk9reYcYI8VxUMMZMuKL4M=", "properties": {"@spider": "usps_collection_boxes", "addr:city": "BALLARD", "addr:country": "US", "addr:full": "5974 BALLARD RED SULPHUR PKWY", "addr:postcode": "24918", "addr:state": "WV", "brand": "USPS", "collection_times": "Mo-Fr 15:00; Sa 11:30", "name": "USPS COLLECTION BOX - PO LOBBY", "note": "ON 12/24 AND 12/31, THIS BOX MAY BE COLLECTED AS EARLY AS 12 NOON.", "ref": "2491800004"}, "type": "Feature"}
{"geometry": {"coordinates": [-79.78892, 38.542946], "type": "Point"}, "id": "bBSztmCo_Mb88u9Z7xdhx4_vt_Y=", "properties": {"@spider": "usps_collection_boxes", "addr:city": "BARTOW", "addr:country": "US", "addr:full": "6784 STAUNTON PARKERSBURG TPKE", "addr:postcode": "24920", "addr:state": "WV", "brand": "USPS", "collection_times": "Mo-Fr 13:00; Sa 12:00", "name": "USPS COLLECTION BOX - BLUE BOX", "note": "ON 12/24 AND 12/31, THIS BOX MAY BE COLLECTED AS EARLY AS 12 NOON.", "ref": "2492000000"}, "type": "Feature"}
{"geometry": {"coordinates": [-79.78892, 38.542946], "type": "Point"}, "id": "dMvchcKg3gYuZ10u0JNEIsN9sbM=", "properties": {"@spider": "usps_collection_boxes", "addr:city": "BARTOW", "addr:country": "US", "addr:full": "6784 STAUNTON PARKERSBURG TPKE", "addr:postcode": "24920", "addr:state": "WV", "brand": "USPS", "collection_times": "Mo-Fr 13:00; Sa 12:00", "name": "USPS COLLECTION BOX - PO LOBBY", "note": "ON 12/24 AND 12/31, THIS BOX MAY BE COLLECTED AS EARLY AS 12 NOON.", "ref": "2492000001"}, "type": "Feature"}
{"geometry": {"coordinates": [-79.726516342, 38.543814494], "type": "Point"}, "id": "uA4HEcya6st-rom5CHZVeBiMy0w=", "properties": {"@spider": "usps_collection_boxes", "addr:city": "BARTOW", "addr:country": "US", "addr:full": "6784 STAUNTON PARKERSBURG TPKE", "addr:postcode": "24920", "addr:state": "WV", "brand": "USPS", "collection_times": "Mo-Fr 14:00; Sa 12:00", "name": "USPS COLLECTION BOX - PO LOBBY", "note": "ON 12/24 AND 12/31, THIS BOX MAY BE COLLECTED AS EARLY AS 12 NOON.", "ref": "2492000003"}, "type": "Feature"}
{"geometry": {"coordinates": [-80.356388, 37.772502], "type": "Point"}, "id": "64qI5AyAmjcT_rglp1vybBSXsb4=", "properties": {"@spider": "usps_collection_boxes", "addr:city": "CALDWELL", "addr:country": "US", "addr:full": "35467 MIDLAND TRL E", "addr:postcode": "24925", "addr:state": "WV", "brand": "USPS", "collection_times": "Mo-Fr 12:25; Sa 10:00", "name": "USPS COLLECTION BOX - BLUE BOX", "note": "ON 12/24 AND 12/31, THIS BOX MAY BE COLLECTED AS EARLY AS 12 NOON.", "ref": "2492500000"}, "type": "Feature"}
{"geometry": {"coordinates": [-80.393965841, 37.780835957], "type": "Point"}, "id": "PrNfoN5px_FXjgk_xtomNr5oGds=", "properties": {"@spider": "usps_collection_boxes", "addr:city": "CALDWELL", "addr:country": "US", "addr:full": "35467 MIDLAND TRL E", "addr:postcode": "24925", "addr:state": "WV", "brand": "USPS", "collection_times": "Mo-Fr 12:30; Sa 10:15", "name": "USPS COLLECTION BOX - PO LOBBY", "note": "ON 12/24 AND 12/31, THIS BOX MAY BE COLLECTED AS EARLY AS 12 NOON.", "ref": "2492500002"}, "type": "Feature"}
{"geometry": {"coordinates": [-80.63277, 37.902481], "type": "Point"}, "id": "TuWfY0BX_3Khd8ntgNUqQ2gTtks=", "properties": {"@spider": "usps_collection_boxes", "addr:city": "CRAWLEY", "addr:country": "US", "addr:full": "13795 MIDLAND TRL W", "addr:postcode": "24931", "addr:state": "WV", "brand": "USPS", "collection_times": "Mo-Fr 13:30; Sa 11:30", "name": "USPS COLLECTION BOX - BLUE BOX", "note": "ON 12/24 AND 12/31, THIS BOX MAY BE COLLECTED AS EARLY AS 12 NOON.", "ref": "2493100000"}, "type": "Feature"}
{"geometry": {"coordinates": [-80.63277, 37.902481], "type": "Point"}, "id": "QLdwZfuTv8HfuDoKMOBgA3VlZeE=", "properties": {"@spider": "usps_collection_boxes", "addr:city": "CRAWLEY", "addr:country": "US", "addr:full": "13795 MIDLAND TRL W", "addr:postcode": "24931", "addr:state": "WV", "brand": "USPS", "collection_times": "Mo-Fr 13:30; Sa 11:30", "name": "USPS COLLECTION BOX - PO LOBBY", "note": "ON 12/24 AND 12/31, THIS BOX MAY BE COLLECTED AS EARLY AS 12 NOON.", "ref": "2493100001"}, "type": "Feature"}
{"geometry": {"coordinates": [-80.63277, 37.902481], "type": "Point"}, "id": "6Vb3X-9OfXmq8-o79ry_g38-wx4=", "properties": {"@spider": "usps_collection_boxes", "addr:city": "CRAWLEY", "addr:country": "US", "addr:full": "13795 MIDLAND TRL W", "addr:postcode": "24931", "addr:state": "WV", "brand": "USPS", "collection_times": "Mo-Fr 13:30; Sa 11:30", "name": "USPS COLLECTION BOX - PO LOBBY", "note": "ON 12/24 AND 12/31, THIS BOX MAY BE COLLECTED AS EARLY AS 12 NOON.", "ref": "2493100002"}, "type": "Feature"}
{"geometry": {"coordinates": [-80.642312742, 37.922634687], "type": "Point"}, "id": "zsJnL60uhN1UCY5_nUz0-M0ral0=", "properties": {"@spider": "usps_collection_boxes", "addr:city": "CRAWLEY", "addr:country": "US", "addr:full": "13795 MIDLAND TRL W", "addr:postcode": "24931", "addr:state": "WV", "brand": "USPS", "collection_times": "Mo-Fr 14:30; Sa 12:00", "name": "USPS COLLECTION BOX - PO LOBBY", "note": "ON 12/24 AND 12/31, THIS BOX MAY BE COLLECTED AS EARLY AS 12 NOON.", "ref": "2493100004"}, "type": "Feature"}
{"geometry": {"coordinates": [-79.8410144561, 38.3579253587], "type": "Point"}, "id": "TWHWgmQHx4fAI3epcjyoEKJJuOI=", "properties": {"@spider": "usps_collection_boxes", "addr:city": "DUNMORE", "addr:country": "US", "addr:full": "200 POTOMAC HIGHLANDS TRL", "addr:postcode": "24934", "addr:state": "WV", "brand": "USPS", "collection_times": "Mo-Fr 12:45; Sa 10:45", "name": "USPS COLLECTION BOX - BLUE BOX", "note": "ON 12/24 AND 12/31, THIS BOX MAY BE COLLECTED AS EARLY AS 12 NOON.", "ref": "2493400000"}, "type": "Feature"}
{"geometry": {"coordinates": [-79.8410144561, 38.3579253587], "type": "Point"}, "id": "36NmTS6uHlb8eDNioyUAUmbKZGM=", "properties": {"@spider": "usps_collection_boxes", "addr:city": "DUNMORE", "addr:country": "US", "addr:full": "200 POTOMAC HIGHLANDS TRL", "addr:postcode": "24934", "addr:state": "WV", "brand": "USPS", "collection_times": "Mo-Fr 12:45; Sa 11:00", "name": "USPS COLLECTION BOX - PO LOBBY", "note": "ON 12/24 AND 12/31, THIS BOX MAY BE COLLECTED AS EARLY AS 12 NOON.", "ref": "2493400001"}, "type": "Feature"}
{"geometry": {"coordinates": [-79.8413099, 38.36792], "type": "Point"}, "id": "on4Z0n_tGin-RnWU_25hwIusALQ=", "properties": {"@spider": "usps_collection_boxes", "addr:city": "DUNMORE", "addr:country": "US", "addr:full": "200 POTOMAC HIGHLANDS TRL", "addr:postcode": "24934", "addr:state": "WV", "brand": "USPS", "collection_times": "Mo-Fr 13:00; Sa 11:30", "name": "USPS COLLECTION BOX - PO LOBBY", "note": "ON 12/24 AND 12/31, THIS BOX MAY BE COLLECTED AS EARLY AS 12 NOON.", "ref": "2493400004"}, "type": "Feature"}
{"geometry": {"coordinates": [-80.788293, 37.572813], "type": "Point"}, "id": "jVB_WKGC3SQYGSEW6D0NY2GoM0s=", "properties": {"@spider": "usps_collection_boxes", "addr:city": "FOREST HILL", "addr:country": "US", "addr:full": "15830 SR 12", "addr:postcode": "24935", "addr:state": "WV", "brand": "USPS", "collection_times": "Mo-Sa 13:30", "name": "USPS COLLECTION BOX - BLUE BOX", "note": "ON 12/24 AND 12/31, THIS BOX MAY BE COLLECTED AS EARLY AS 12 NOON.", "ref": "2493500000"}, "type": "Feature"}
{"geometry": {"coordinates": [-80.788293, 37.572813], "type": "Point"}, "id": "tK3972oGQQ4cmFSeorq-sQsdm_o=", "properties": {"@spider": "usps_collection_boxes", "addr:city": "FOREST HILL", "addr:country": "US", "addr:full": "15830 SR 12", "addr:postcode": "24935", "addr:state": "WV", "brand": "USPS", "collection_times": "Mo-Sa 13:30", "name": "USPS COLLECTION BOX - PO LOBBY", "note": "ON 12/24 AND 12/31, THIS BOX MAY BE COLLECTED AS EARLY AS 12 NOON.", "ref": "2493500001"}, "type": "Feature"}
{"geometry": {"coordinates": [-80.788508729, 37.572852814], "type": "Point"}, "id": "tppd0qRG4wzg7lOmvM5WiAlQQdc=", "properties": {"@spider": "usps_collection_boxes", "addr:city": "FOREST HILL", "addr:country": "US", "addr:full": "15830 SR 12", "addr:postcode": "24935", "addr:state": "WV", "brand": "USPS", "collection_times": "Mo-Fr 14:30; Sa 13:45", "name": "USPS COLLECTION BOX - PO LOBBY", "note": "ON 12/24 AND 12/31, THIS BOX MAY BE COLLECTED AS EARLY AS 12 NOON.", "ref": "2493500003"}, "type": "Feature"}
{"geometry": {"coordinates": [-80.385128464, 37.931230309], "type": "Point"}, "id": "RPTVLAw7-qjF54YYqrmkEMUGz9Y=", "properties": {"@spider": "usps_collection_boxes", "addr:city": "FRANKFORD", "addr:country": "US", "addr:full": "21981 SENECA TRL N", "addr:postcode": "24938", "addr:state": "WV", "brand": "USPS", "collection_times": "Mo-Fr 16:30; Sa 10:45", "name": "USPS COLLECTION BOX - BLUE BOX", "note": "ON 12/24 AND 12/31, THIS BOX MAY BE COLLECTED AS EARLY AS 12 NOON.", "ref": "2493800000"}, "type": "Feature"}
{"geometry": {"coordinates": [-80.385128464, 37.931230309], "type": "Point"}, "id": "en0xLwzS8cgsc_nQNlAyfoW_s2E=", "properties": {"@spider": "usps_collection_boxes", "addr:city": "FRANKFORD", "addr:country": "US", "addr:full": "21981 SENECA TRL N", "addr:postcode": "24938", "addr:state": "WV", "brand": "USPS", "collection_times": "Mo-Fr 16:30; Sa 10:45", "name": "USPS COLLECTION BOX - PO LOBBY", "note": "ON 12/24 AND 12/31, THIS BOX MAY BE COLLECTED AS EARLY AS 12 NOON.", "ref": "2493800001"}, "type": "Feature"}
{"geometry": {"coordinates": [-80.385128464, 37.931230309], "type": "Point"}, "id": "NtSlvELMd5yk__GgtjHhS_HZA6U=", "properties": {"@spider": "usps_collection_boxes", "addr:city": "FRANKFORD", "addr:country": "US", "addr:full": "21981 SENECA TRL N", "addr:postcode": "24938", "addr:state": "WV", "brand": "USPS", "collection_times": "Mo-Fr 17:00; Sa 10:45", "name": "USPS COLLECTION BOX - PO LOBBY", "note": "ON 12/24 AND 12/31, THIS BOX MAY BE COLLECTED AS EARLY AS 12 NOON.", "ref": "2493800003"}, "type": "Feature"}
{"geometry": {"coordinates": [-80.3652524722, 37.56579926], "type": "Point"}, "id": "vNvoWjaBXSpIklsrcEJlnYF-Jj8=", "properties": {"@spider": "usps_collection_boxes", "addr:city": "GAP MILLS", "addr:country": "US", "addr:full": "11331 SWEET SPRINGS VALLEY RD", "addr:postcode": "24941", "addr:state": "WV", "brand": "USPS", "collection_times": "Mo-Fr 14:30; Sa 11:00", "name": "USPS COLLECTION BOX - BLUE BOX", "note": "ON 12/24 AND 12/31, THIS BOX MAY BE COLLECTED AS EARLY AS 12 NOON.", "ref": "2494100000"}, "type": "Feature"}
{"geometry": {"coordinates": [-80.3652524722, 37.56579926], "type": "Point"}, "id": "INnJIXyOY8lnqdyMllH9kFIB0kk=", "properties": {"@spider": "usps_collection_boxes", "addr:city": "GAP MILLS", "addr:country": "US", "addr:full": "11331 SWEET SPRINGS VALLEY RD", "addr:postcode": "24941", "addr:state": "WV", "brand": "USPS", "collection_times": "Mo-Fr 14:30; Sa 11:00", "name": "USPS COLLECTION BOX - PO LOBBY", "note": "ON 12/24 AND 12/31, THIS BOX MAY BE COLLECTED AS EARLY AS 12 NOON.", "ref": "2494100001"}, "type": "Feature"}
{"geometry": {"coordinates": [-80.2613004, 37.568491], "type": "Point"}, "id": "v51hi-RiVfzYuW3hDf4r1B1CnFE=", "properties": {"@spider": "usps_collection_boxes", "addr:city": "GAP MILLS", "addr:country": "US", "addr:full": "16071 PAINT BANK RD", "addr:postcode": "24941", "addr:state": "WV", "brand": "USPS", "collection_times": "Mo-Sa 10:00", "name": "USPS COLLECTION BOX - BLUE BOX", "ref": "2494100002"}, "type": "Feature"}
{"geometry": {"coordinates": [-80.307177302, 37.592825463], "type": "Point"}, "id": "1x4eWSl2cYmKJjP49dHMZCnCyDo=", "properties": {"@spider": "usps_collection_boxes", "addr:city": "GAP MILLS", "addr:country": "US", "addr:full": "11331 SWEET SPRINGS VALLEY RD", "addr:postcode": "24941", "addr:state": "WV", "brand": "USPS", "collection_times": "Mo-Fr 14:30; Sa 11:00", "name": "USPS COLLECTION BOX - PO LOBBY", "note": "ON 12/24 AND 12/31, THIS BOX MAY BE COLLECTED AS EARLY AS 12 NOON.", "ref": "2494100004"}, "type": "Feature"}
{"geometry": {"coordinates": [-79.7643105355, 38.398927793], "type": "Point"}, "id": "OeiBUOIwnB0up8SItN8PHueIXqE=", "properties": {"@spider": "usps_collection_boxes", "addr:city": "GREEN BANK", "addr:country": "US", "addr:full": "5314 POTOMAC HIGHLANDS TRL", "addr:postcode": "24944", "addr:state": "WV", "brand": "USPS", "collection_times": "Mo-Fr 15:00; Sa 11:45", "name": "USPS COLLECTION BOX - BLUE BOX", "note": "ON 12/24 AND 12/31, THIS BOX MAY BE COLLECTED AS EARLY AS 12 NOON.", "ref": "2494400000"}, "type": "Feature"}
{"geometry": {"coordinates": [-79.7643105355, 38.398927793], "type": "Point"}, "id": "yQNenfdBHu83Cyr3JNNRtviR9Mo=", "properties": {"@spider": "usps_collection_boxes", "addr:city": "GREEN BANK", "addr:country": "US", "addr:full": "5314 POTOMAC HIGHLANDS TRL", "addr:postcode": "24944", "addr:state": "WV", "brand": "USPS", "collection_times": "Mo-Fr 15:00; Sa 11:45", "name": "USPS COLLECTION BOX - PO LOBBY", "note": "ON 12/24 AND 12/31, THIS BOX MAY BE COLLECTED AS EARLY AS 12 NOON.", "ref": "2494400001"}, "type": "Feature"}
{"geometry": {"coordinates": [-79.9149412, 38.396916], "type": "Point"}, "id": "Sdg-OYtCYFMYuK6sNPeWNTfLXaM=", "properties": {"@spider": "usps_collection_boxes", "addr:city": "GREEN BANK", "addr:country": "US", "addr:full": "101 MAIN ST", "addr:postcode": "24944", "addr:state": "WV", "brand": "USPS", "collection_times": "Mo-Fr 13:00; Sa 11:00", "name": "USPS COLLECTION BOX - BLUE BOX", "note": "ON 12/24 AND 12/31, THIS BOX MAY BE COLLECTED AS EARLY AS 12 NOON.", "ref": "2494400002"}, "type": "Feature"}
{"geometry": {"coordinates": [-79.8817959, 38.405647], "type": "Point"}, "id": "2jb2yn0yFJBGTxXw64Enda75SN8=", "properties": {"@spider": "usps_collection_boxes", "addr:city": "GREEN BANK", "addr:country": "US", "addr:full": "15550 CASS RD", "addr:postcode": "24944", "addr:state": "WV", "brand": "USPS", "collection_times": "Mo-Fr 13:00; Sa 11:00", "name": "USPS COLLECTION BOX - BLUE BOX", "note": "ON 12/24 AND 12/31, THIS BOX MAY BE COLLECTED AS EARLY AS 12 NOON.", "ref": "2494400003"}, "type": "Feature"}
{"geometry": {"coordinates": [-79.7951676, 38.4218026], "type": "Point"}, "id": "jjFrPQ-Im7hU-5CDGLPH4HaP_pc=", "properties": {"@spider": "usps_collection_boxes", "addr:city": "GREEN BANK", "addr:country": "US", "addr:full": "5314 POTOMAC HIGHLANDS TRL", "addr:postcode": "24944", "addr:state": "WV", "brand": "USPS", "collection_times": "Mo-Fr 15:45; Sa 11:30", "name": "USPS COLLECTION BOX - PO LOBBY", "note": "ON 12/24 AND 12/31, THIS BOX MAY BE COLLECTED AS EARLY AS 12 NOON.", "ref": "2494400005"}, "type": "Feature"}
{"geometry": {"coordinates": [-80.683974, 37.541929], "type": "Point"}, "id": "1nnGx5Z3ak0TeBYWFJmrbQqsjHc=", "properties": {"@spider": "usps_collection_boxes", "addr:city": "GREENVILLE", "addr:country": "US", "addr:full": "35 OLD SCHOOLHOUSE RD", "addr:postcode": "24945", "addr:state": "WV", "brand": "USPS", "collection_times": "Mo-Fr 11:45; Sa 11:00", "name": "USPS COLLECTION BOX - BLUE BOX", "ref": "2494500001"}, "type": "Feature"}
{"geometry": {"coordinates": [-80.683962, 37.541967], "type": "Point"}, "id": "kde1rJcrT6_S5d4kk5vHEtZqkIE=", "properties": {"@spider": "usps_collection_boxes", "addr:city": "GREENVILLE", "addr:country": "US", "addr:full": "35 OLD SCHOOLHOUSE RD", "addr:postcode": "24945", "addr:state": "WV", "brand": "USPS", "collection_times": "Mo-Fr 11:45; Sa 11:00", "name": "USPS COLLECTION BOX - PO LOBBY", "ref": "2494500002"}, "type": "Feature"}
{"geometry": {"coordinates": [-80.68758, 37.57716], "type": "Point"}, "id": "S2qED_1l0MZyZKaD7x9ZyG3OCr0=", "properties": {"@spider": "usps_collection_boxes", "addr:city": "GREENVILLE", "addr:country": "US", "addr:full": "35 OLD SCHOOLHOUSE RD", "addr:postcode": "24945", "addr:state": "WV", "brand": "USPS", "collection_times": "Mo-Fr 12:00; Sa 11:00", "name": "USPS COLLECTION BOX - PO LOBBY", "ref": "2494500004"}, "type": "Feature"}
{"geometry": {"coordinates": [-80.211862, 38.136381], "type": "Point"}, "id": "ynvVaUWITLVfGLNnNbCCcluagqQ=", "properties": {"@spider": "usps_collection_boxes", "addr:city": "HILLSBORO", "addr:country": "US", "addr:full": "7559 SENECA TRL", "addr:postcode": "24946", "addr:state": "WV", "brand": "USPS", "collection_times": "Mo-Fr 14:45; Sa 10:45", "name": "USPS COLLECTION BOX - BLUE BOX", "note": "ON 12/24 AND 12/31, THIS BOX MAY BE COLLECTED AS EARLY AS 12 NOON.", "ref": "2494600000"}, "type": "Feature"}
{"geometry": {"coordinates": [-80.211862, 38.136381], "type": "Point"}, "id": "3mvF90VQHku-SJA-UayflrntZps=", "properties": {"@spider": "usps_collection_boxes", "addr:city": "HILLSBORO", "addr:country": "US", "addr:full": "7559 SENECA TRL", "addr:postcode": "24946", "addr:state": "WV", "brand": "USPS", "collection_times": "Mo-Fr 14:45; Sa 10:45", "name": "USPS COLLECTION BOX - PO LOBBY", "note": "ON 12/24 AND 12/31, THIS BOX MAY BE COLLECTED AS EARLY AS 12 NOON.", "ref": "2494600001"}, "type": "Feature"}
{"geometry": {"coordinates": [-80.210765566, 38.136830793], "type": "Point"}, "id": "skEZyFuIOwQMQJ1HEkt9jccuaa8=", "properties": {"@spider": "usps_collection_boxes", "addr:city": "HILLSBORO", "addr:country": "US", "addr:full": "7559 SENECA TRL", "addr:postcode": "24946", "addr:state": "WV", "brand": "USPS", "collection_times": "Mo-Fr 15:00; Sa 10:45", "name": "USPS COLLECTION BOX - PO LOBBY", "note": "ON 12/24 AND 12/31, THIS BOX MAY BE COLLECTED AS EARLY AS 12 NOON.", "ref": "2494600003"}, "type": "Feature"}
{"geometry": {"coordinates": [-80.679937, 37.446681], "type": "Point"}, "id": "v84UETdF3Rey30KNa2mWcFY_OFM=", "properties": {"@spider": "usps_collection_boxes", "addr:city": "LINDSIDE", "addr:country": "US", "addr:full": "8529 SENECA TRL S", "addr:postcode": "24951", "addr:state": "WV", "brand": "USPS", "collection_times": "Mo-Fr 15:00; Sa 11:00", "name": "USPS COLLECTION BOX - PO LOBBY", "note": "ON 12/24 AND 12/31, THIS BOX MAY BE COLLECTED AS EARLY AS 12 NOON.", "ref": "2495100001"}, "type": "Feature"}
{"geometry": {"coordinates": [-80.622700461, 37.480478329], "type": "Point"}, "id": "6Q-qlo5tMPsVYgFo6mtw7HYPNgM=", "properties": {"@spider": "usps_collection_boxes", "addr:city": "LINDSIDE", "addr:country": "US", "addr:full": "8529 SENECA TRL S", "addr:postcode": "24951", "addr:state": "WV", "brand": "USPS", "collection_times": "Mo-Fr 15:00; Sa 11:00", "name": "USPS COLLECTION BOX - PO LOBBY", "note": "ON 12/24 AND 12/31, THIS BOX MAY BE COLLECTED AS EARLY AS 12 NOON.", "ref": "2495100005"}, "type": "Feature"}
{"geometry": {"coordinates": [-80.086894607, 38.23136583], "type": "Point"}, "id": "jvxzP1Q4AFj-ZqPwz5pL-NZbtYg=", "properties": {"@spider": "usps_collection_boxes", "addr:city": "MARLINTON", "addr:country": "US", "addr:full": "819 4TH AVE", "addr:postcode": "24954", "addr:state": "WV", "brand": "USPS", "collection_times": "Mo-Fr 15:45; Sa 11:30", "name": "USPS COLLECTION BOX - BLUE BOX", "note": "ON 12/24 AND 12/31, THIS BOX MAY BE COLLECTED AS EARLY AS 12 NOON.", "ref": "2495400007"}, "type": "Feature"}
{"geometry": {"coordinates": [-80.086894607, 38.23136583], "type": "Point"}, "id": "wE1FidfOE9WNO90Pq3DnRjsOCds=", "properties": {"@spider": "usps_collection_boxes", "addr:city": "MARLINTON", "addr:country": "US", "addr:full": "819 4TH AVE", "addr:postcode": "24954", "addr:state": "WV", "brand": "USPS", "collection_times": "Mo-Fr 15:45; Sa 11:30", "name": "USPS COLLECTION BOX - PO LOBBY", "note": "ON 12/24 AND 12/31, THIS BOX MAY BE COLLECTED AS EARLY AS 12 NOON.", "ref": "2495400014"}, "type": "Feature"}
{"geometry": {"coordinates": [-80.086894607, 38.23136583], "type": "Point"}, "id": "c2Q8YpBUbvSKcjrXP17MeKy9kRY=", "properties": {"@spider": "usps_collection_boxes", "addr:city": "MARLINTON", "addr:country": "US", "addr:full": "819 4TH AVE", "addr:postcode": "24954", "addr:state": "WV", "brand": "USPS", "collection_times": "Mo-Fr 16:00; Sa 12:00", "name": "USPS COLLECTION BOX - PO LOBBY", "note": "ON 12/24 AND 12/31, THIS BOX MAY BE COLLECTED AS EARLY AS 12 NOON.", "ref": "2495400017"}, "type": "Feature"}
{"geometry": {"coordinates": [-80.410197, 37.863134], "type": "Point"}, "id": "NOp8CbpwJ0kvxpHjCkfvmQ6WBFs=", "properties": {"@spider": "usps_collection_boxes", "addr:city": "MAXWELTON", "addr:country": "US", "addr:full": "16387 SENECA TRL N", "addr:postcode": "24957", "addr:state": "WV", "brand": "USPS", "collection_times": "Mo-Fr 15:00; Sa 10:45", "name": "USPS COLLECTION BOX - BLUE BOX", "note": "ON 12/24 AND 12/31, THIS BOX MAY BE COLLECTED AS EARLY AS 12 NOON.", "ref": "2495700000"}, "type": "Feature"}
{"geometry": {"coordinates": [-80.410197, 37.863134], "type": "Point"}, "id": "X2qtUNTS77i_0izQLeYySkLWWEI=", "properties": {"@spider": "usps_collection_boxes", "addr:city": "MAXWELTON", "addr:country": "US", "addr:full": "16387 SENECA TRL N", "addr:postcode": "24957", "addr:state": "WV", "brand": "USPS", "collection_times": "Mo-Fr 15:00; Sa 10:45", "name": "USPS COLLECTION BOX - PO LOBBY", "note": "ON 12/24 AND 12/31, THIS BOX MAY BE COLLECTED AS EARLY AS 12 NOON.", "ref": "2495700001"}, "type": "Feature"}
{"geometry": {"coordinates": [-80.410259685, 37.863127581], "type": "Point"}, "id": "hymAADXzH2zfkEWGlGhhPQ1IRwM=", "properties": {"@spider": "usps_collection_boxes", "addr:city": "MAXWELTON", "addr:country": "US", "addr:full": "16387 SENECA TRL N", "addr:postcode": "24957", "addr:state": "WV", "brand": "USPS", "collection_times": "Mo-Fr 15:15; Sa 11:00", "name": "USPS COLLECTION BOX - PO LOBBY", "note": "ON 12/24 AND 12/31, THIS BOX MAY BE COLLECTED AS EARLY AS 12 NOON.", "ref": "2495700003"}, "type": "Feature"}
{"geometry": {"coordinates": [-80.801331041, 37.397386825], "type": "Point"}, "id": "VvVvOzVeu6G90r2pX2wA1C6l6Po=", "properties": {"@spider": "usps_collection_boxes", "addr:city": "PETERSTOWN", "addr:country": "US", "addr:full": "13 MARKET ST", "addr:postcode": "24963", "addr:state": "WV", "brand": "USPS", "collection_times": "Mo-Fr 15:50; Sa 11:00", "name": "USPS COLLECTION BOX - BLUE BOX", "note": "ON 12/24 AND 12/31, THIS BOX MAY BE COLLECTED AS EARLY AS 12 NOON.", "ref": "2496300000"}, "type": "Feature"}
{"geometry": {"coordinates": [-80.801331041, 37.397386825], "type": "Point"}, "id": "oJNntHU1UVfbAHTEXNxhEBV_A4I=", "properties": {"@spider": "usps_collection_boxes", "addr:city": "PETERSTOWN", "addr:country": "US", "addr:full": "13 MARKET ST", "addr:postcode": "24963", "addr:state": "WV", "brand": "USPS", "collection_times": "Mo-Fr 15:50; Sa 11:00", "name": "USPS COLLECTION BOX - PO LOBBY", "note": "ON 12/24 AND 12/31, THIS BOX MAY BE COLLECTED AS EARLY AS 12 NOON.", "ref": "2496300001"}, "type": "Feature"}
{"geometry": {"coordinates": [-80.801331041, 37.397386825], "type": "Point"}, "id": "IS7w-Y1SKpndxSRN4iJrTb-sPSs=", "properties": {"@spider": "usps_collection_boxes", "addr:city": "PETERSTOWN", "addr:country": "US", "addr:full": "13 MARKET ST", "addr:postcode": "24963", "addr:state": "WV", "brand": "USPS", "collection_times": "Mo-Fr 16:30; Sa 12:00", "name": "USPS COLLECTION BOX - PO LOBBY", "note": "ON 12/24 AND 12/31, THIS BOX MAY BE COLLECTED AS EARLY AS 12 NOON.", "ref": "2496300004"}, "type": "Feature"}
{"geometry": {"coordinates": [-80.362158, 37.99282], "type": "Point"}, "id": "3CZJy59vTNjYWhyNot_XAAK11vA=", "properties": {"@spider": "usps_collection_boxes", "addr:city": "RENICK", "addr:country": "US", "addr:full": "27288 SENECA TRL N", "addr:postcode": "24966", "addr:state": "WV", "brand": "USPS", "collection_times": "Mo-Fr 15:15; Sa 10:30", "name": "USPS COLLECTION BOX - BLUE BOX", "note": "ON 12/24 AND 12/31, THIS BOX MAY BE COLLECTED AS EARLY AS 12 NOON.", "ref": "2496600000"}, "type": "Feature"}
{"geometry": {"coordinates": [-80.362158, 37.99282], "type": "Point"}, "id": "9drV_aHFIgapy-4vW7YOl83gF4g=", "properties": {"@spider": "usps_collection_boxes", "addr:city": "RENICK", "addr:country": "US", "addr:full": "27288 SENECA TRL N", "addr:postcode": "24966", "addr:state": "WV", "brand": "USPS", "collection_times": "Mo-Fr 15:15; Sa 10:30", "name": "USPS COLLECTION BOX - PO LOBBY", "note": "ON 12/24 AND 12/31, THIS BOX MAY BE COLLECTED AS EARLY AS 12 NOON.", "ref": "2496600001"}, "type": "Feature"}
{"geometry": {"coordinates": [-80.361759637, 37.993099897], "type": "Point"}, "id": "zRZgJo_T8chSqx9uRzsXwTknnZo=", "properties": {"@spider": "usps_collection_boxes", "addr:city": "RENICK", "addr:country": "US", "addr:full": "27288 SENECA TRL N", "addr:postcode": "24966", "addr:state": "WV", "brand": "USPS", "collection_times": "Mo-Fr 15:30; Sa 10:30", "name": "USPS COLLECTION BOX - PO LOBBY", "note": "ON 12/24 AND 12/31, THIS BOX MAY BE COLLECTED AS EARLY AS 12 NOON.", "ref": "2496600003"}, "type": "Feature"}
{"geometry": {"coordinates": [-80.464744462, 37.748650663], "type": "Point"}, "id": "aLARRvj3hUQddbWakXjZRLUbebA=", "properties": {"@spider": "usps_collection_boxes", "addr:city": "RONCEVERTE", "addr:country": "US", "addr:full": "314 W EDGAR AVE", "addr:postcode": "24970", "addr:state": "WV", "brand": "USPS", "collection_times": "Mo-Fr 16:15; Sa 10:30", "name": "USPS COLLECTION BOX - BLUE BOX", "note": "ON 12/24 AND 12/31, THIS BOX MAY BE COLLECTED AS EARLY AS 12 NOON.", "ref": "2497000007"}, "type": "Feature"}
{"geometry": {"coordinates": [-80.464744462, 37.748650663], "type": "Point"}, "id": "s_mw__-dYMEAT1d7RpgwaqVUeNE=", "properties": {"@spider": "usps_collection_boxes", "addr:city": "RONCEVERTE", "addr:country": "US", "addr:full": "314 W EDGAR AVE", "addr:postcode": "24970", "addr:state": "WV", "brand": "USPS", "collection_times": "Mo-Fr 16:15; Sa 10:30", "name": "USPS COLLECTION BOX - PO LOBBY", "note": "ON 12/24 AND 12/31, THIS BOX MAY BE COLLECTED AS EARLY AS 12 NOON.", "ref": "2497000010"}, "type": "Feature"}
{"geometry": {"coordinates": [-80.464744462, 37.748650663], "type": "Point"}, "id": "_5b3HB0wla2jF_ftss-Lj3O8RYQ=", "properties": {"@spider": "usps_collection_boxes", "addr:city": "RONCEVERTE", "addr:country": "US", "addr:full": "314 W EDGAR AVE", "addr:postcode": "24970", "addr:state": "WV", "brand": "USPS", "collection_times": "Mo-Fr 16:00; Sa 11:00", "name": "USPS COLLECTION BOX - PO LOBBY", "note": "ON 12/24 AND 12/31, THIS BOX MAY BE COLLECTED AS EARLY AS 12 NOON.", "ref": "2497000012"}, "type": "Feature"}
{"geometry": {"coordinates": [-80.54115, 37.665495], "type": "Point"}, "id": "6l5E6urqjqO02KhgR6r8m2RMwu0=", "properties": {"@spider": "usps_collection_boxes", "addr:city": "SINKS GROVE", "addr:country": "US", "addr:full": "101 FORT SPRINGS RD", "addr:postcode": "24976", "addr:state": "WV", "brand": "USPS", "collection_times": "Mo-Fr 12:15; Sa 10:00", "name": "USPS COLLECTION BOX - BLUE BOX", "note": "ON 12/24 AND 12/31, THIS BOX MAY BE COLLECTED AS EARLY AS 12 NOON.", "ref": "2497600000"}, "type": "Feature"}
{"geometry": {"coordinates": [-80.54115, 37.665495], "type": "Point"}, "id": "_5cCIBkTkp-lOpjwr3dg7A7RJZY=", "properties": {"@spider": "usps_collection_boxes", "addr:city": "SINKS GROVE", "addr:country": "US", "addr:full": "101 FORT SPRINGS RD", "addr:postcode": "24976", "addr:state": "WV", "brand": "USPS", "collection_times": "Mo-Fr 12:15; Sa 10:00", "name": "USPS COLLECTION BOX - PO LOBBY", "note": "ON 12/24 AND 12/31, THIS BOX MAY BE COLLECTED AS EARLY AS 12 NOON.", "ref": "2497600001"}, "type": "Feature"}
{"geometry": {"coordinates": [-80.54592579, 37.753590127], "type": "Point"}, "id": "TPsqMqOs29EOjMn_lAA7WJoUKPk=", "properties": {"@spider": "usps_collection_boxes", "addr:city": "SINKS GROVE", "addr:country": "US", "addr:full": "101 FORT SPRINGS RD", "addr:postcode": "24976", "addr:state": "WV", "brand": "USPS", "collection_times": "Mo-Fr 12:30; Sa 10:30", "name": "USPS COLLECTION BOX - PO LOBBY", "note": "ON 12/24 AND 12/31, THIS BOX MAY BE COLLECTED AS EARLY AS 12 NOON.", "ref": "2497600004"}, "type": "Feature"}
{"geometry": {"coordinates": [-80.659246626, 37.878449725], "type": "Point"}, "id": "fegiMYOpX1eRC1RFcYbS-yq8jnI=", "properties": {"@spider": "usps_collection_boxes", "addr:city": "SMOOT", "addr:country": "US", "addr:full": "25 GRASSY MEADOWS RD", "addr:postcode": "24977", "addr:state": "WV", "brand": "USPS", "collection_times": "Mo-Fr 13:45; Sa 13:15", "name": "USPS COLLECTION BOX - BLUE BOX", "note": "ON 12/24 AND 12/31, THIS BOX MAY BE COLLECTED AS EARLY AS 12 NOON.", "ref": "2497700000"}, "type": "Feature"}
{"geometry": {"coordinates": [-80.6841779009, 37.8788878008], "type": "Point"}, "id": "LUWUkHrZPv1V9PX5c5XQESXAj3k=", "properties": {"@spider": "usps_collection_boxes", "addr:city": "SMOOT", "addr:country": "US", "addr:full": "25 GRASSY MEADOWS RD", "addr:postcode": "24977", "addr:state": "WV", "brand": "USPS", "collection_times": "Mo-Fr 13:45; Sa 13:15", "name": "USPS COLLECTION BOX - PO LOBBY", "note": "ON 12/24 AND 12/31, THIS BOX MAY BE COLLECTED AS EARLY AS 12 NOON.", "ref": "2497700001"}, "type": "Feature"}
{"geometry": {"coordinates": [-80.659246626, 37.878449725], "type": "Point"}, "id": "BntxLaSWRcWeqzZQa3sqI4-OpRg=", "properties": {"@spider": "usps_collection_boxes", "addr:city": "SMOOT", "addr:country": "US", "addr:full": "25 GRASSY MEADOWS RD", "addr:postcode": "24977", "addr:state": "WV", "brand": "USPS", "collection_times": "Mo-Fr 14:00; Sa 13:30", "name": "USPS COLLECTION BOX - PO LOBBY", "note": "ON 12/24 AND 12/31, THIS BOX MAY BE COLLECTED AS EARLY AS 12 NOON.", "ref": "2497700003"}, "type": "Feature"}
{"geometry": {"coordinates": [-80.751463, 37.650961], "type": "Point"}, "id": "bdGL7voydV9squRU3pvwDJ90yyI=", "properties": {"@spider": "usps_collection_boxes", "addr:city": "TALCOTT", "addr:country": "US", "addr:full": "3685 SR AND 12", "addr:postcode": "24981", "addr:state": "WV", "brand": "USPS", "collection_times": "Mo-Fr 14:30; Sa 11:00", "name": "USPS COLLECTION BOX - BLUE BOX", "note": "ON 12/24 AND 12/31, THIS BOX MAY BE COLLECTED AS EARLY AS 12 NOON.", "ref": "2498100000"}, "type": "Feature"}
{"geometry": {"coordinates": [-80.751463, 37.650961], "type": "Point"}, "id": "esXlwzlTAmnY63xqZwpTqORsGGY=", "properties": {"@spider": "usps_collection_boxes", "addr:city": "TALCOTT", "addr:country": "US", "addr:full": "3685 SR AND 12", "addr:postcode": "24981", "addr:state": "WV", "brand": "USPS", "collection_times": "Mo-Fr 14:00; Sa 11:00", "name": "USPS COLLECTION BOX - PO LOBBY", "note": "ON 12/24 AND 12/31, THIS BOX MAY BE COLLECTED AS EARLY AS 12 NOON.", "ref": "2498100001"}, "type": "Feature"}
{"geometry": {"coordinates": [-80.751513222, 37.650835895], "type": "Point"}, "id": "b89RwzoIYNGbirj7jlEIeAV5ScI=", "properties": {"@spider": "usps_collection_boxes", "addr:city": "TALCOTT", "addr:country": "US", "addr:full": "3685 SR AND 12", "addr:postcode": "24981", "addr:state": "WV", "brand": "USPS", "collection_times": "Mo-Fr 15:00; Sa 11:00", "name": "USPS COLLECTION BOX - PO LOBBY", "note": "ON 12/24 AND 12/31, THIS BOX MAY BE COLLECTED AS EARLY AS 12 NOON.", "ref": "2498100003"}, "type": "Feature"}
{"geometry": {"coordinates": [-80.544219116, 37.590490748], "type": "Point"}, "id": "w42RU91Awu2Ft6JQiYsYk-daEos=", "properties": {"@spider": "usps_collection_boxes", "addr:city": "UNION", "addr:country": "US", "addr:full": "1 MIDDLE ST", "addr:postcode": "24983", "addr:state": "WV", "brand": "USPS", "collection_times": "Mo-Fr 16:30; Sa 12:30", "name": "USPS COLLECTION BOX - PO LOBBY", "note": "ON 12/24 AND 12/31, THIS BOX MAY BE COLLECTED AS EARLY AS 12 NOON.", "ref": "2498300000"}, "type": "Feature"}
{"geometry": {"coordinates": [-80.544219116, 37.590490748], "type": "Point"}, "id": "r5YaFexZp1KlsiG1xjG-KhiIEdU=", "properties": {"@spider": "usps_collection_boxes", "addr:city": "UNION", "addr:country": "US", "addr:full": "1 MIDDLE ST", "addr:postcode": "24983", "addr:state": "WV", "brand": "USPS", "collection_times": "Mo-Fr 16:30; Sa 12:30", "name": "USPS COLLECTION BOX - BLUE BOX", "note": "ON 12/24 AND 12/31, THIS BOX MAY BE COLLECTED AS EARLY AS 12 NOON.", "ref": "2498300001"}, "type": "Feature"}
{"geometry": {"coordinates": [-80.544219116, 37.590490748], "type": "Point"}, "id": "6LJRMn1lQZMSBL9B56waj5j34-Y=", "properties": {"@spider": "usps_collection_boxes", "addr:city": "UNION", "addr:country": "US", "addr:full": "1 MIDDLE ST", "addr:postcode": "24983", "addr:state": "WV", "brand": "USPS", "collection_times": "Mo-Fr 16:30; Sa 12:00", "name": "USPS COLLECTION BOX - PO LOBBY", "note": "ON 12/24 AND 12/31, THIS BOX MAY BE COLLECTED AS EARLY AS 12 NOON.", "ref": "2498300003"}, "type": "Feature"}
{"geometry": {"coordinates": [-80.7512261665, 37.5901089846], "type": "Point"}, "id": "-5zSKOF9KrvvhBaQhpsVPbSh46Y=", "properties": {"@spider": "usps_collection_boxes", "addr:city": "WAYSIDE", "addr:country": "US", "addr:full": "18 WAYSIDE TALCOTT RD", "addr:postcode": "24985", "addr:state": "WV", "brand": "USPS", "collection_times": "Mo-Sa 12:15", "name": "USPS COLLECTION BOX - BLUE BOX", "note": "ON 12/24 AND 12/31, THIS BOX MAY BE COLLECTED AS EARLY AS 12 NOON.", "ref": "2498500000"}, "type": "Feature"}
{"geometry": {"coordinates": [-80.7512261665, 37.5901089846], "type": "Point"}, "id": "B77P3bqRG_0wHVVrSNXw3Q8Uw1c=", "properties": {"@spider": "usps_collection_boxes", "addr:city": "WAYSIDE", "addr:country": "US", "addr:full": "18 WAYSIDE TALCOTT RD", "addr:postcode": "24985", "addr:state": "WV", "brand": "USPS", "collection_times": "Mo-Sa 12:15", "name": "USPS COLLECTION BOX - PO LOBBY", "note": "ON 12/24 AND 12/31, THIS BOX MAY BE COLLECTED AS EARLY AS 12 NOON.", "ref": "2498500001"}, "type": "Feature"}
{"geometry": {"coordinates": [-80.700162071, 37.600571848], "type": "Point"}, "id": "eVrcOQWsYzCZ4hQBivYP4aoPsko=", "properties": {"@spider": "usps_collection_boxes", "addr:city": "WAYSIDE", "addr:country": "US", "addr:full": "18 WAYSIDE TALCOTT RD", "addr:postcode": "24985", "addr:state": "WV", "brand": "USPS", "collection_times": "Mo-Sa 12:30", "name": "USPS COLLECTION BOX - PO LOBBY", "note": "ON 12/24 AND 12/31, THIS BOX MAY BE COLLECTED AS EARLY AS 12 NOON.", "ref": "2498500003"}, "type": "Feature"}
{"geometry": {"coordinates": [-80.290101849, 37.800237756], "type": "Point"}, "id": "_zKaGGWE8wxw_7kc-LlXoPcBmLI=", "properties": {"@spider": "usps_collection_boxes", "addr:city": "WHT SULPHUR S", "addr:country": "US", "addr:full": "857 MAIN ST E", "addr:postcode": "24986", "addr:state": "WV", "brand": "USPS", "collection_times": "Mo-Sa 16:00", "name": "USPS COLLECTION BOX - PO LOBBY", "note": "ON 12/24 AND 12/31, THIS BOX MAY BE COLLECTED AS EARLY AS 12 NOON.", "ref": "2498600000"}, "type": "Feature"}
{"geometry": {"coordinates": [-80.290101849, 37.800237756], "type": "Point"}, "id": "1SxkCtJRSU_GU25P9qf6ZXqmPp8=", "properties": {"@spider": "usps_collection_boxes", "addr:city": "WHT SULPHUR S", "addr:country": "US", "addr:full": "857 MAIN ST E", "addr:postcode": "24986", "addr:state": "WV", "brand": "USPS", "collection_times": "Mo-Sa 16:00", "name": "USPS COLLECTION BOX - BLUE BOX", "note": "ON 12/24 AND 12/31, THIS BOX MAY BE COLLECTED AS EARLY AS 12 NOON.", "ref": "2498600002"}, "type": "Feature"}
{"geometry": {"coordinates": [-80.285955168, 37.803495054], "type": "Point"}, "id": "uo-5atNtLkaJAr-hl19Us61KJg0=", "properties": {"@spider": "usps_collection_boxes", "addr:city": "WHT SULPHUR S", "addr:country": "US", "addr:full": "200 POCAHONTAS TRL", "addr:postcode": "24986", "addr:state": "WV", "brand": "USPS", "collection_times": "Mo-Sa 10:00", "name": "USPS COLLECTION BOX - BLUE BOX", "ref": "2498600013"}, "type": "Feature"}
{"geometry": {"coordinates": [-80.290101849, 37.800237756], "type": "Point"}, "id": "Rnv1khKGN_xsJueVGdX8pX9nVnc=", "properties": {"@spider": "usps_collection_boxes", "addr:city": "WHT SULPHUR S", "addr:country": "US", "addr:full": "857 MAIN ST E", "addr:postcode": "24986", "addr:state": "WV", "brand": "USPS", "collection_times": "Mo-Fr 16:30; Sa 12:30", "name": "USPS COLLECTION BOX - PO LOBBY", "note": "ON 12/24 AND 12/31, THIS BOX MAY BE COLLECTED AS EARLY AS 12 NOON.", "ref": "2498600016"}, "type": "Feature"}
{"geometry": {"coordinates": [-80.4928513, 37.968769], "type": "Point"}, "id": "3QNcbabjOuZ9I7XOoGv8dEuyPv4=", "properties": {"@spider": "usps_collection_boxes", "addr:city": "WILLIAMSBURG", "addr:country": "US", "addr:full": "9284 SHOESTRING TRL", "addr:postcode": "24991", "addr:state": "WV", "brand": "USPS", "collection_times": "Mo-Fr 11:30; Sa 11:00", "name": "USPS COLLECTION BOX - BLUE BOX", "ref": "2499100000"}, "type": "Feature"}
{"geometry": {"coordinates": [-80.529689, 37.946251], "type": "Point"}, "id": "5vEDRaS_Mwz6IBsV-nHYUKrLdeM=", "properties": {"@spider": "usps_collection_boxes", "addr:city": "WILLIAMSBURG", "addr:country": "US", "addr:full": "9284 SHOESTRING TRL", "addr:postcode": "24991", "addr:state": "WV", "brand": "USPS", "collection_times": "Mo-Fr 11:30; Sa 11:00", "name": "USPS COLLECTION BOX - PO LOBBY", "ref": "2499100001"}, "type": "Feature"}
{"geometry": {"coordinates": [-80.492113228, 37.969969425], "type": "Point"}, "id": "ocYu6QR_poV1ZsiiDBaapnWTyzQ=", "properties": {"@spider": "usps_collection_boxes", "addr:city": "WILLIAMSBURG", "addr:country": "US", "addr:full": "9284 SHOESTRING TRL", "addr:postcode": "24991", "addr:state": "WV", "brand": "USPS", "collection_times": "Mo-Fr 13:00; Sa 11:00", "name": "USPS COLLECTION BOX - PO LOBBY", "note": "ON 12/24 AND 12/31, THIS BOX MAY BE COLLECTED AS EARLY AS 12 NOON.", "ref": "2499100003"}, "type": "Feature"}
{"geometry": {"coordinates": [-80.622264, 37.665392], "type": "Point"}, "id": "TkohuXiB57eeWEcY7Mz505JK1Uk=", "properties": {"@spider": "usps_collection_boxes", "addr:city": "WOLFCREEK", "addr:country": "US", "addr:full": "8360 WOLF CREEK RD", "addr:postcode": "24993", "addr:state": "WV", "brand": "USPS", "collection_times": "Mo-Sa 09:45", "name": "USPS COLLECTION BOX - BLUE BOX", "ref": "2499300000"}, "type": "Feature"}
{"geometry": {"coordinates": [-80.643909115, 37.608843684], "type": "Point"}, "id": "PVW79Win67mYNHsYoVK7wHuSFck=", "properties": {"@spider": "usps_collection_boxes", "addr:city": "WOLFCREEK", "addr:country": "US", "addr:full": "8360 WOLF CREEK RD", "addr:postcode": "24993", "addr:state": "WV", "brand": "USPS", "collection_times": "Mo-Fr 10:15; Sa 13:00", "name": "USPS COLLECTION BOX - PO LOBBY", "note": "ON 12/24 AND 12/31, THIS BOX MAY BE COLLECTED AS EARLY AS 12 NOON.", "ref": "2499300002"}, "type": "Feature"}
