{"geometry": {"coordinates": [-81.980215, 38.618997], "type": "Point"}, "id": "MDHTAbJmxToPPv_RQzED1NYFQ1k=", "properties": {"@spider": "usps_collection_boxes", "addr:city": "BUFFALO", "addr:country": "US", "addr:full": "2062 BUFFALO RD", "addr:postcode": "25033", "addr:state": "WV", "brand": "USPS", "collection_times": "Mo-Fr 14:00; Sa 11:00", "name": "USPS COLLECTION BOX - BLUE BOX", "note": "ON 12/24 AND 12/31, THIS BOX MAY BE COLLECTED AS EARLY AS 12 NOON.", "ref": "2503300000"}, "type": "Feature"}
{"geometry": {"coordinates": [-81.980215, 38.618997], "type": "Point"}, "id": "UWQPi3qzngUtxLxV1NnLyFlQeBs=", "properties": {"@spider": "usps_collection_boxes", "addr:city": "BUFFALO", "addr:country": "US", "addr:full": "2062 BUFFALO RD", "addr:postcode": "25033", "addr:state": "WV", "brand": "USPS", "collection_times": "Mo-Fr 14:00; Sa 11:00", "name": "USPS COLLECTION BOX - PO LOBBY", "note": "ON 12/24 AND 12/31, THIS BOX MAY BE COLLECTED AS EARLY AS 12 NOON.", "ref": "2503300001"}, "type": "Feature"}
{"geometry": {"coordinates": [-81.980021288, 38.618925338], "type": "Point"}, "id": "tfkQWhkHNGyCZLawoGJuuV5ftcw=", "properties": {"@spider": "usps_collection_boxes", "addr:city": "BUFFALO", "addr:country": "US", "addr:full": "2062 BUFFALO RD", "addr:postcode": "25033", "addr:state": "WV", "brand": "USPS", "collection_times": "Mo-Fr 14:30; Sa 11:00", "name": "USPS COLLECTION BOX - PO LOBBY", "note": "ON 12/24 AND 12/31, THIS BOX MAY BE COLLECTED AS EARLY AS 12 NOON.", "ref": "2503300003"}, "type": "Feature"}
{"geometry": {"coordinates": [-81.993597, 38.572972], "type": "Point"}, "id": "hS6kuMbg51DiyINa0h3u9SCqWGQ=", "properties": {"@spider": "usps_collection_boxes", "addr:city": "FRAZIERS BOTTOM", "addr:country": "US", "addr:full": "18350 WINFIELD RD", "addr:postcode": "25082", "addr:state": "WV", "brand": "USPS", "collection_times": "Mo-Fr 11:45; Sa 11:00", "name": "USPS COLLECTION BOX - BLUE BOX", "ref": "2508200000"}, "type": "Feature"}
{"geometry": {"coordinates": [-81.993597, 38.572972], "type": "Point"}, "id": "pu58S6dI1UmPT-IoXSThTxhK-Wo=", "properties": {"@spider": "usps_collection_boxes", "addr:city": "FRAZIERS BOTTOM", "addr:country": "US", "addr:full": "18350 WINFIELD RD", "addr:postcode": "25082", "addr:state": "WV", "brand": "USPS", "collection_times": "Mo-Fr 11:45; Sa 11:00", "name": "USPS COLLECTION BOX - PO LOBBY", "ref": "2508200001"}, "type": "Feature"}
{"geometry": {"coordinates": [-81.982469468, 38.564881064], "type": "Point"}, "id": "Swhc2ku4QC7rasfu9LiJZv4FrP0=", "properties": {"@spider": "usps_collection_boxes", "addr:city": "FRAZIERS BOTTOM", "addr:country": "US", "addr:full": "18350 WINFIELD RD", "addr:postcode": "25082", "addr:state": "WV", "brand": "USPS", "collection_times": "Mo-Fr 14:30; Sa 11:00", "name": "USPS COLLECTION BOX - PO LOBBY", "note": "ON 12/24 AND 12/31, THIS BOX MAY BE COLLECTED AS EARLY AS 12 NOON.", "ref": "2508200003"}, "type": "Feature"}
