{"geometry": {"coordinates": [-82.140596, 38.834632], "type": "Point"}, "id": "r51TPVfaFTnlm_ItcXkNFGQbMrw=", "properties": {"@spider": "usps_collection_boxes", "addr:city": "HENDERSON", "addr:country": "US", "addr:full": "9 CHESTNUT ST", "addr:postcode": "25106", "addr:state": "WV", "brand": "USPS", "collection_times": "Mo-Fr 16:15; Sa 10:45", "name": "USPS COLLECTION BOX - BLUE BOX", "note": "ON 12/24 AND 12/31, THIS BOX MAY BE COLLECTED AS EARLY AS 12 NOON.", "ref": "2510600000"}, "type": "Feature"}
{"geometry": {"coordinates": [-82.140704, 38.834643], "type": "Point"}, "id": "60NPbTgZEaLzlimeFirxEgo29Do=", "properties": {"@spider": "usps_collection_boxes", "addr:city": "HENDERSON", "addr:country": "US", "addr:full": "9 CHESTNUT ST", "addr:postcode": "25106", "addr:state": "WV", "brand": "USPS", "collection_times": "Mo-Fr 16:15; Sa 10:45", "name": "USPS COLLECTION BOX - PO LOBBY", "note": "ON 12/24 AND 12/31, THIS BOX MAY BE COLLECTED AS EARLY AS 12 NOON.", "ref": "2510600001"}, "type": "Feature"}
{"geometry": {"coordinates": [-82.139991905, 38.834392316], "type": "Point"}, "id": "spaJbNy8127gCUiJqh4LhKL2LcI=", "properties": {"@spider": "usps_collection_boxes", "addr:city": "HENDERSON", "addr:country": "US", "addr:full": "9 CHESTNUT ST", "addr:postcode": "25106", "addr:state": "WV", "brand": "USPS", "collection_times": "Mo-Fr 16:15; Sa 11:15", "name": "USPS COLLECTION BOX - PO LOBBY", "note": "ON 12/24 AND 12/31, THIS BOX MAY BE COLLECTED AS EARLY AS 12 NOON.", "ref": "2510600003"}, "type": "Feature"}
{"geometry": {"coordinates": [-81.950937, 38.658013], "type": "Point"}, "id": "PDp81m3RqtI37GOMqV9jzNShL04=", "properties": {"@spider": "usps_collection_boxes", "addr:city": "LEON", "addr:country": "US", "addr:full": "20597 CHARLESTON RD", "addr:postcode": "25123", "addr:state": "WV", "brand": "USPS", "collection_times": "Mo-Fr 14:00; Sa 11:30", "name": "USPS COLLECTION BOX - BLUE BOX", "note": "ON 12/24 AND 12/31, THIS BOX MAY BE COLLECTED AS EARLY AS 12 NOON.", "ref": "2512300000"}, "type": "Feature"}
{"geometry": {"coordinates": [-81.950937, 38.658013], "type": "Point"}, "id": "9bwRoQSh-GZ0GPKDzrmBRIicDjY=", "properties": {"@spider": "usps_collection_boxes", "addr:city": "LEON", "addr:country": "US", "addr:full": "20597 CHARLESTON RD", "addr:postcode": "25123", "addr:state": "WV", "brand": "USPS", "collection_times": "Mo-Fr 14:00; Sa 11:30", "name": "USPS COLLECTION BOX - PO LOBBY", "note": "ON 12/24 AND 12/31, THIS BOX MAY BE COLLECTED AS EARLY AS 12 NOON.", "ref": "2512300001"}, "type": "Feature"}
{"geometry": {"coordinates": [-82.004207417, 38.780708784], "type": "Point"}, "id": "orkSnbgFqxMQvRcWyRyD3QmzyHQ=", "properties": {"@spider": "usps_collection_boxes", "addr:city": "LEON", "addr:country": "US", "addr:full": "20597 CHARLESTON RD", "addr:postcode": "25123", "addr:state": "WV", "brand": "USPS", "collection_times": "Mo-Fr 14:15; Sa 11:00", "name": "USPS COLLECTION BOX - PO LOBBY", "note": "ON 12/24 AND 12/31, THIS BOX MAY BE COLLECTED AS EARLY AS 12 NOON.", "ref": "2512300003"}, "type": "Feature"}
{"geometry": {"coordinates": [-81.97008, 38.720709], "type": "Point"}, "id": "mbkYvSWzWDBdndh_cyPOUX9bpUc=", "properties": {"@spider": "usps_collection_boxes", "addr:city": "SOUTHSIDE", "addr:country": "US", "addr:full": "26460 KANAWHA VALLEY RD", "addr:postcode": "25187", "addr:state": "WV", "brand": "USPS", "collection_times": "Mo-Fr 09:45; Sa 09:15", "name": "USPS COLLECTION BOX - BLUE BOX", "ref": "2518700000"}, "type": "Feature"}
{"geometry": {"coordinates": [-81.970165284, 38.720877093], "type": "Point"}, "id": "pvCf3S-6WiWYT2EMgqFIJHBrxZc=", "properties": {"@spider": "usps_collection_boxes", "addr:city": "SOUTHSIDE", "addr:country": "US", "addr:full": "26460 KANAWHA VALLEY RD", "addr:postcode": "25187", "addr:state": "WV", "brand": "USPS", "collection_times": "Mo-Fr 10:00; Sa 09:30", "name": "USPS COLLECTION BOX - PO LOBBY", "ref": "2518700002"}, "type": "Feature"}
