{"geometry": {"coordinates": [-81.98849, 39.00381], "type": "Point"}, "id": "5jgLxtq5zwwYChXjxbrgjXpMaJ0=", "properties": {"@spider": "usps_collection_boxes", "addr:city": "HARTFORD", "addr:country": "US", "addr:full": "209 HEALEY ST", "addr:postcode": "25247", "addr:state": "WV", "brand": "USPS", "collection_times": "Mo-Fr 11:45; Sa 09:45", "name": "USPS COLLECTION BOX - BLUE BOX", "ref": "2524700000"}, "type": "Feature"}
{"geometry": {"coordinates": [-81.98849, 39.00381], "type": "Point"}, "id": "IC6bl7cHc9Q6MprBZ4PJcLcMZW8=", "properties": {"@spider": "usps_collection_boxes", "addr:city": "HARTFORD", "addr:country": "US", "addr:full": "209 HEALEY ST", "addr:postcode": "25247", "addr:state": "WV", "brand": "USPS", "collection_times": "Mo-Fr 11:45; Sa 09:45", "name": "USPS COLLECTION BOX - PO LOBBY", "ref": "2524700001"}, "type": "Feature"}
{"geometry": {"coordinates": [-81.988767, 39.0043485], "type": "Point"}, "id": "ETFQ5QHv9pdnyjuCXnIQhAXrvjI=", "properties": {"@spider": "usps_collection_boxes", "addr:city": "HARTFORD", "addr:country": "US", "addr:full": "209 HEALEY ST", "addr:postcode": "25247", "addr:state": "WV", "brand": "USPS", "collection_times": "Mo-Fr 12:00; Sa 10:00", "name": "USPS COLLECTION BOX - PO LOBBY", "ref": "2524700003"}, "type": "Feature"}
{"geometry": {"coordinates": [-82.027429, 38.890501], "type": "Point"}, "id": "ZYplNXDL_E7Lk-76gRDpML-TNfk=", "properties": {"@spider": "usps_collection_boxes", "addr:city": "LETART", "addr:country": "US", "addr:full": "23758 SANDHILL RD", "addr:postcode": "25253", "addr:state": "WV", "brand": "USPS", "collection_times": "Mo-Fr 11:45; Sa 12:15", "name": "USPS COLLECTION BOX - BLUE BOX", "note": "ON 12/24 AND 12/31, THIS BOX MAY BE COLLECTED AS EARLY AS 12 NOON.", "ref": "2525300000"}, "type": "Feature"}
{"geometry": {"coordinates": [-82.027429, 38.890501], "type": "Point"}, "id": "9M75O-3s8C1KAp09i8Shk-2FLbA=", "properties": {"@spider": "usps_collection_boxes", "addr:city": "LETART", "addr:country": "US", "addr:full": "23758 SANDHILL RD", "addr:postcode": "25253", "addr:state": "WV", "brand": "USPS", "collection_times": "Mo-Fr 11:45; Sa 12:15", "name": "USPS COLLECTION BOX - PO LOBBY", "note": "ON 12/24 AND 12/31, THIS BOX MAY BE COLLECTED AS EARLY AS 12 NOON.", "ref": "2525300001"}, "type": "Feature"}
{"geometry": {"coordinates": [-81.939511399, 38.892300794], "type": "Point"}, "id": "R_8hnhHYYKAgKgud0VtbzNHGUZs=", "properties": {"@spider": "usps_collection_boxes", "addr:city": "LETART", "addr:country": "US", "addr:full": "23758 SANDHILL RD", "addr:postcode": "25253", "addr:state": "WV", "brand": "USPS", "collection_times": "Mo-Fr 12:00; Sa 12:30", "name": "USPS COLLECTION BOX - PO LOBBY", "note": "ON 12/24 AND 12/31, THIS BOX MAY BE COLLECTED AS EARLY AS 12 NOON.", "ref": "2525300003"}, "type": "Feature"}
{"geometry": {"coordinates": [-82.024555, 39.024554], "type": "Point"}, "id": "k2QT0EpG9ehGUHeS48pc3o6zF6k=", "properties": {"@spider": "usps_collection_boxes", "addr:city": "MASON", "addr:country": "US", "addr:full": "5 N 2ND ST", "addr:postcode": "25260", "addr:state": "WV", "brand": "USPS", "collection_times": "Mo-Fr 16:15; Sa 11:00", "name": "USPS COLLECTION BOX - BLUE BOX", "note": "ON 12/24 AND 12/31, THIS BOX MAY BE COLLECTED AS EARLY AS 12 NOON.", "ref": "2526000000"}, "type": "Feature"}
{"geometry": {"coordinates": [-82.024619, 39.024483], "type": "Point"}, "id": "h3JkDsvcCiS7TwoUNOeZLMGifx4=", "properties": {"@spider": "usps_collection_boxes", "addr:city": "MASON", "addr:country": "US", "addr:full": "5 N 2ND ST", "addr:postcode": "25260", "addr:state": "WV", "brand": "USPS", "collection_times": "Mo-Fr 16:15; Sa 11:00", "name": "USPS COLLECTION BOX - PO LOBBY", "note": "ON 12/24 AND 12/31, THIS BOX MAY BE COLLECTED AS EARLY AS 12 NOON.", "ref": "2526000001"}, "type": "Feature"}
{"geometry": {"coordinates": [-82.029403853, 39.021591209], "type": "Point"}, "id": "UpFN8SL0UXH4X1AZAu1vdP-r020=", "properties": {"@spider": "usps_collection_boxes", "addr:city": "MASON", "addr:country": "US", "addr:full": "1931 2ND ST", "addr:postcode": "25260", "addr:state": "WV", "brand": "USPS", "collection_times": "Mo-Fr 16:30; Sa 11:00", "name": "USPS COLLECTION BOX - PO LOBBY", "note": "ON 12/24 AND 12/31, THIS BOX MAY BE COLLECTED AS EARLY AS 12 NOON.", "ref": "2526000003"}, "type": "Feature"}
{"geometry": {"coordinates": [-81.970461524, 38.985932669], "type": "Point"}, "id": "QiLfadEYYCMY6bleY3nauLdcrAE=", "properties": {"@spider": "usps_collection_boxes", "addr:city": "NEW HAVEN", "addr:country": "US", "addr:full": "606 5TH ST", "addr:postcode": "25265", "addr:state": "WV", "brand": "USPS", "collection_times": "Mo-Fr 15:45; Sa 11:00", "name": "USPS COLLECTION BOX - BLUE BOX", "note": "ON 12/24 AND 12/31, THIS BOX MAY BE COLLECTED AS EARLY AS 12 NOON.", "ref": "2526500000"}, "type": "Feature"}
{"geometry": {"coordinates": [-81.970461524, 38.985932669], "type": "Point"}, "id": "YQ-q4ADQuZWLnFk54VMXknkKk78=", "properties": {"@spider": "usps_collection_boxes", "addr:city": "NEW HAVEN", "addr:country": "US", "addr:full": "606 5TH ST", "addr:postcode": "25265", "addr:state": "WV", "brand": "USPS", "collection_times": "Mo-Fr 15:45; Sa 11:00", "name": "USPS COLLECTION BOX - PO LOBBY", "note": "ON 12/24 AND 12/31, THIS BOX MAY BE COLLECTED AS EARLY AS 12 NOON.", "ref": "2526500001"}, "type": "Feature"}
{"geometry": {"coordinates": [-81.970461524, 38.985932669], "type": "Point"}, "id": "XQu_QMlOkTh2LZ_zmEF7E3XMQRM=", "properties": {"@spider": "usps_collection_boxes", "addr:city": "NEW HAVEN", "addr:country": "US", "addr:full": "606 5TH ST", "addr:postcode": "25265", "addr:state": "WV", "brand": "USPS", "collection_times": "Mo-Fr 16:30; Sa 12:00", "name": "USPS COLLECTION BOX - PO LOBBY", "note": "ON 12/24 AND 12/31, THIS BOX MAY BE COLLECTED AS EARLY AS 12 NOON.", "ref": "2526500003"}, "type": "Feature"}
{"geometry": {"coordinates": [-82.119957, 38.905154], "type": "Point"}, "id": "z755qTr3G-xkT5xCD5sjCn-K2OU=", "properties": {"@spider": "usps_collection_boxes", "addr:city": "WEST COLUMBIA", "addr:country": "US", "addr:full": "17404 OHIO RIVER RD", "addr:postcode": "25287", "addr:state": "WV", "brand": "USPS", "collection_times": "Mo-Fr 11:45; Sa 10:45", "name": "USPS COLLECTION BOX - BLUE BOX", "ref": "2528700000"}, "type": "Feature"}
{"geometry": {"coordinates": [-82.119957, 38.905154], "type": "Point"}, "id": "fxNzkWqZE181Og0dYc6-7fgVxWg=", "properties": {"@spider": "usps_collection_boxes", "addr:city": "WEST COLUMBIA", "addr:country": "US", "addr:full": "17404 OHIO RIVER RD", "addr:postcode": "25287", "addr:state": "WV", "brand": "USPS", "collection_times": "Mo-Fr 11:45; Sa 10:45", "name": "USPS COLLECTION BOX - PO LOBBY", "ref": "2528700002"}, "type": "Feature"}
{"geometry": {"coordinates": [-82.062842969, 38.983214234], "type": "Point"}, "id": "UHl2So4uDd5S-b8zTpPCoXbnpX4=", "properties": {"@spider": "usps_collection_boxes", "addr:city": "WEST COLUMBIA", "addr:country": "US", "addr:full": "17404 OHIO RIVER RD", "addr:postcode": "25287", "addr:state": "WV", "brand": "USPS", "collection_times": "Mo-Fr 12:00; Sa 11:00", "name": "USPS COLLECTION BOX - PO LOBBY", "ref": "2528700004"}, "type": "Feature"}
