{"geometry": {"coordinates": [-81.6266657, 38.343599], "type": "Point"}, "id": "bVzGWr3Awj709pmbZgnT50SYsF0=", "properties": {"@source_uri": "https://tools.usps.com/UspsToolsRestServices/rest/POLocator/findLocations", "@spider": "usps_collection_boxes", "addr:city": "CHARLESTON", "addr:country": "US", "addr:postcode": "25301", "addr:state": "WV", "addr:street_address": "203 BRADFORD ST", "amenity": "post_box", "collection_times": "Mo-Fr 12:00; Sa 09:00", "nsi_id": "unitedstatespostalservice-a77078", "operator": "United States Postal Service", "operator:short": "USPS", "operator:type": "public", "operator:wikidata": "Q668687", "ref": "2530100020"}, "type": "Feature"}
{"geometry": {"coordinates": [-81.626471, 38.347898], "type": "Point"}, "id": "2XSKQ0Hd6xgsfeFaPMdPsQdu6p8=", "properties": {"@source_uri": "https://tools.usps.com/UspsToolsRestServices/rest/POLocator/findLocations", "@spider": "usps_collection_boxes", "addr:city": "CHARLESTON", "addr:country": "US", "addr:postcode": "25301", "addr:state": "WV", "addr:street_address": "501 MORRIS ST", "amenity": "post_box", "collection_times": "Mo-Fr 16:00; Sa 10:00", "note": "ON 12/24 AND 12/31, THIS BOX MAY BE COLLECTED AS EARLY AS 12 NOON.", "nsi_id": "unitedstatespostalservice-a77078", "operator": "United States Postal Service", "operator:short": "USPS", "operator:type": "public", "operator:wikidata": "Q668687", "ref": "2530100029"}, "type": "Feature"}
{"geometry": {"coordinates": [-81.6367913, 38.348733], "type": "Point"}, "id": "3Fn8wmYXWOnE_TRHakYEkFCMUWU=", "properties": {"@source_uri": "https://tools.usps.com/UspsToolsRestServices/rest/POLocator/findLocations", "@spider": "usps_collection_boxes", "addr:city": "CHARLESTON", "addr:country": "US", "addr:postcode": "25301", "addr:state": "WV", "addr:street_address": "3 CAPITOL ST", "amenity": "post_box", "collection_times": "Mo-Fr 15:00; Sa 10:00", "note": "ON 12/24 AND 12/31, THIS BOX MAY BE COLLECTED AS EARLY AS 12 NOON.", "nsi_id": "unitedstatespostalservice-a77078", "operator": "United States Postal Service", "operator:short": "USPS", "operator:type": "public", "operator:wikidata": "Q668687", "ref": "2530100030"}, "type": "Feature"}
{"geometry": {"coordinates": [-81.6346817, 38.350088], "type": "Point"}, "id": "89ehS0vG0yaDpJQCSrgJcnj10vk=", "properties": {"@source_uri": "https://tools.usps.com/UspsToolsRestServices/rest/POLocator/findLocations", "@spider": "usps_collection_boxes", "addr:city": "CHARLESTON", "addr:country": "US", "addr:postcode": "25301", "addr:state": "WV", "addr:street_address": "209 CAPITOL ST", "amenity": "post_box", "collection_times": "Mo-Fr 16:00; Sa 10:00", "note": "ON 12/24 AND 12/31, THIS BOX MAY BE COLLECTED AS EARLY AS 12 NOON.", "nsi_id": "unitedstatespostalservice-a77078", "operator": "United States Postal Service", "operator:short": "USPS", "operator:type": "public", "operator:wikidata": "Q668687", "ref": "2530100032"}, "type": "Feature"}
{"geometry": {"coordinates": [-81.632079976, 38.35170899], "type": "Point"}, "id": "OUWZkL0HECwaVPbYrmb1PTW2mjo=", "properties": {"@source_uri": "https://tools.usps.com/UspsToolsRestServices/rest/POLocator/findLocations", "@spider": "usps_collection_boxes", "addr:city": "CHARLESTON", "addr:country": "US", "addr:postcode": "25301", "addr:state": "WV", "addr:street_address": "405 CAPITOL ST", "amenity": "post_box", "collection_times": "Mo-Fr 16:00; Sa 10:00", "note": "ON 12/24 AND 12/31, THIS BOX MAY BE COLLECTED AS EARLY AS 12 NOON.", "nsi_id": "unitedstatespostalservice-a77078", "operator": "United States Postal Service", "operator:short": "USPS", "operator:type": "public", "operator:wikidata": "Q668687", "ref": "2530100033"}, "type": "Feature"}
{"geometry": {"coordinates": [-81.6382072, 38.35692], "type": "Point"}, "id": "2VCe2RrmTDkAD3JV1toir4Wz2e4=", "properties": {"@source_uri": "https://tools.usps.com/UspsToolsRestServices/rest/POLocator/findLocations", "@spider": "usps_collection_boxes", "addr:city": "CHARLESTON", "addr:country": "US", "addr:postcode": "25301", "addr:state": "WV", "addr:street_address": "100 WASHINGTON ST E", "amenity": "post_box", "collection_times": "Mo-Sa 11:00", "nsi_id": "unitedstatespostalservice-a77078", "operator": "United States Postal Service", "operator:short": "USPS", "operator:type": "public", "operator:wikidata": "Q668687", "ref": "2530100036"}, "type": "Feature"}
{"geometry": {"coordinates": [-81.640404, 38.351415], "type": "Point"}, "id": "5xX_ExGgY98O5oaD-61jzBnDmCM=", "properties": {"@source_uri": "https://tools.usps.com/UspsToolsRestServices/rest/POLocator/findLocations", "@spider": "usps_collection_boxes", "addr:city": "CHARLESTON", "addr:country": "US", "addr:postcode": "25301", "addr:state": "WV", "addr:street_address": "300 KANAWHA BLVD E", "amenity": "post_box", "collection_times": "Mo-Fr 15:30; Sa 10:00", "note": "ON 12/24 AND 12/31, THIS BOX MAY BE COLLECTED AS EARLY AS 12 NOON.", "nsi_id": "unitedstatespostalservice-a77078", "operator": "United States Postal Service", "operator:short": "USPS", "operator:type": "public", "operator:wikidata": "Q668687", "ref": "2530100044"}, "type": "Feature"}
{"geometry": {"coordinates": [-81.6296123, 38.342449], "type": "Point"}, "id": "i_Ul_YwB2dOhQmwHB2a4DnSMjZc=", "properties": {"@source_uri": "https://tools.usps.com/UspsToolsRestServices/rest/POLocator/findLocations", "@spider": "usps_collection_boxes", "addr:city": "CHARLESTON", "addr:country": "US", "addr:postcode": "25301", "addr:state": "WV", "addr:street_address": "1316 KANAWHA BLVD E", "amenity": "post_box", "collection_times": "Mo-Fr 13:00; Sa 10:00", "note": "ON 12/24 AND 12/31, THIS BOX MAY BE COLLECTED AS EARLY AS 12 NOON.", "nsi_id": "unitedstatespostalservice-a77078", "operator": "United States Postal Service", "operator:short": "USPS", "operator:type": "public", "operator:wikidata": "Q668687", "ref": "2530100045"}, "type": "Feature"}
{"geometry": {"coordinates": [-81.6386069, 38.351358], "type": "Point"}, "id": "53Dcu0ObrQK8IraLj3JqzqIyHxI=", "properties": {"@source_uri": "https://tools.usps.com/UspsToolsRestServices/rest/POLocator/findLocations", "@spider": "usps_collection_boxes", "addr:city": "CHARLESTON", "addr:country": "US", "addr:postcode": "25301", "addr:state": "WV", "addr:street_address": "409 VIRGINIA ST E", "amenity": "post_box", "collection_times": "Mo-Fr 15:30; Sa 10:00", "note": "ON 12/24 AND 12/31, THIS BOX MAY BE COLLECTED AS EARLY AS 12 NOON.", "nsi_id": "unitedstatespostalservice-a77078", "operator": "United States Postal Service", "operator:short": "USPS", "operator:type": "public", "operator:wikidata": "Q668687", "ref": "2530100048"}, "type": "Feature"}
{"geometry": {"coordinates": [-81.6330179, 38.353817], "type": "Point"}, "id": "2yO2jg4oKYWJkm1MyTkSYyswHFM=", "properties": {"@source_uri": "https://tools.usps.com/UspsToolsRestServices/rest/POLocator/findLocations", "@spider": "usps_collection_boxes", "addr:city": "CHARLESTON", "addr:country": "US", "addr:postcode": "25301", "addr:state": "WV", "addr:street_address": "333 LAIDLEY ST", "amenity": "post_box", "collection_times": "Mo-Fr 16:00; Sa 10:00", "note": "ON 12/24 AND 12/31, THIS BOX MAY BE COLLECTED AS EARLY AS 12 NOON.", "nsi_id": "unitedstatespostalservice-a77078", "operator": "United States Postal Service", "operator:short": "USPS", "operator:type": "public", "operator:wikidata": "Q668687", "ref": "2530100051"}, "type": "Feature"}
{"geometry": {"coordinates": [-81.6347215, 38.353088], "type": "Point"}, "id": "7RAmQRONKpGOHkPbAp3Q0CZKI-Y=", "properties": {"@source_uri": "https://tools.usps.com/UspsToolsRestServices/rest/POLocator/findLocations", "@spider": "usps_collection_boxes", "addr:city": "CHARLESTON", "addr:country": "US", "addr:postcode": "25301", "addr:state": "WV", "addr:street_address": "500 LEE ST E", "amenity": "post_box", "collection_times": "Mo-Fr 16:00; Sa 10:00", "note": "ON 12/24 AND 12/31, THIS BOX MAY BE COLLECTED AS EARLY AS 12 NOON.", "nsi_id": "unitedstatespostalservice-a77078", "operator": "United States Postal Service", "operator:short": "USPS", "operator:type": "public", "operator:wikidata": "Q668687", "ref": "2530100052"}, "type": "Feature"}
{"geometry": {"coordinates": [-81.633649, 38.34871], "type": "Point"}, "id": "kxZmysVUH-jF_N8cgBx9CXN4MaY=", "properties": {"@source_uri": "https://tools.usps.com/UspsToolsRestServices/rest/POLocator/findLocations", "@spider": "usps_collection_boxes", "addr:city": "CHARLESTON", "addr:country": "US", "addr:postcode": "25301", "addr:state": "WV", "addr:street_address": "924 QUARRIER ST", "amenity": "post_box", "collection_times": "Mo-Fr 16:00; Sa 10:00", "note": "ON 12/24 AND 12/31, THIS BOX MAY BE COLLECTED AS EARLY AS 12 NOON.", "nsi_id": "unitedstatespostalservice-a77078", "operator": "United States Postal Service", "operator:short": "USPS", "operator:type": "public", "operator:wikidata": "Q668687", "ref": "2530100055"}, "type": "Feature"}
{"geometry": {"coordinates": [-81.6343491, 38.34781], "type": "Point"}, "id": "xGwIacy6aZhWg0HxPP-fc5D-6UU=", "properties": {"@source_uri": "https://tools.usps.com/UspsToolsRestServices/rest/POLocator/findLocations", "@spider": "usps_collection_boxes", "addr:city": "CHARLESTON", "addr:country": "US", "addr:postcode": "25301", "addr:state": "WV", "addr:street_address": "1000 VIRGINIA ST E", "amenity": "post_box", "collection_times": "Mo-Fr 12:00; Sa 09:00", "nsi_id": "unitedstatespostalservice-a77078", "operator": "United States Postal Service", "operator:short": "USPS", "operator:type": "public", "operator:wikidata": "Q668687", "ref": "2530100056"}, "type": "Feature"}
{"geometry": {"coordinates": [-81.6261599, 38.350847], "type": "Point"}, "id": "Cdh50ud0EtYH7utFd8CMCZySXSY=", "properties": {"@source_uri": "https://tools.usps.com/UspsToolsRestServices/rest/POLocator/findLocations", "@spider": "usps_collection_boxes", "addr:city": "CHARLESTON", "addr:country": "US", "addr:postcode": "25301", "addr:state": "WV", "addr:street_address": "1116 SMITH ST", "amenity": "post_box", "collection_times": "Mo-Fr 10:00; Sa 09:30", "nsi_id": "unitedstatespostalservice-a77078", "operator": "United States Postal Service", "operator:short": "USPS", "operator:type": "public", "operator:wikidata": "Q668687", "ref": "2530100066"}, "type": "Feature"}
{"geometry": {"coordinates": [-81.638006, 38.351467], "type": "Point"}, "id": "_PqQcJrXb2zqPrX3TR751ZyAbEQ=", "properties": {"@source_uri": "https://tools.usps.com/UspsToolsRestServices/rest/POLocator/findLocations", "@spider": "usps_collection_boxes", "addr:city": "CHARLESTON", "addr:country": "US", "addr:postcode": "25301", "addr:state": "WV", "addr:street_address": "500 VIRGINIA ST E", "amenity": "post_box", "collection_times": "Mo-Fr 15:30", "note": "ON 12/24 AND 12/31, THIS BOX MAY BE COLLECTED AS EARLY AS 12 NOON.", "nsi_id": "unitedstatespostalservice-a77078", "operator": "United States Postal Service", "operator:short": "USPS", "operator:type": "public", "operator:wikidata": "Q668687", "ref": "2530100069"}, "type": "Feature"}
{"geometry": {"coordinates": [-81.6372609, 38.350186], "type": "Point"}, "id": "LPctZ_AIAuTxsccAnRyXVk9uc-g=", "properties": {"@source_uri": "https://tools.usps.com/UspsToolsRestServices/rest/POLocator/findLocations", "@spider": "usps_collection_boxes", "addr:city": "CHARLESTON", "addr:country": "US", "addr:postcode": "25301", "addr:state": "WV", "addr:street_address": "615 VIRGINIA ST E", "amenity": "post_box", "collection_times": "Mo-Fr 16:00; Sa 10:00", "note": "ON 12/24 AND 12/31, THIS BOX MAY BE COLLECTED AS EARLY AS 12 NOON.", "nsi_id": "unitedstatespostalservice-a77078", "operator": "United States Postal Service", "operator:short": "USPS", "operator:type": "public", "operator:wikidata": "Q668687", "ref": "2530100071"}, "type": "Feature"}
{"geometry": {"coordinates": [-81.6351220206, 38.3492670061], "type": "Point"}, "id": "IeRzfoObZO-DiDYlW_S31dubyAg=", "properties": {"@source_uri": "https://tools.usps.com/UspsToolsRestServices/rest/POLocator/findLocations", "@spider": "usps_collection_boxes", "addr:city": "CHARLESTON", "addr:country": "US", "addr:postcode": "25301", "addr:state": "WV", "addr:street_address": "814 VIRGINIA ST E", "amenity": "post_box", "collection_times": "Mo-Fr 16:00; Sa 10:00", "note": "ON 12/24 AND 12/31, THIS BOX MAY BE COLLECTED AS EARLY AS 12 NOON.", "nsi_id": "unitedstatespostalservice-a77078", "operator": "United States Postal Service", "operator:short": "USPS", "operator:type": "public", "operator:wikidata": "Q668687", "ref": "2530100072"}, "type": "Feature"}
{"geometry": {"coordinates": [-81.6331927, 38.350934], "type": "Point"}, "id": "i23_f4DsE8cvC4se4UoY-xfblTc=", "properties": {"@source_uri": "https://tools.usps.com/UspsToolsRestServices/rest/POLocator/findLocations", "@spider": "usps_collection_boxes", "addr:city": "CHARLESTON", "addr:country": "US", "addr:postcode": "25301", "addr:state": "WV", "addr:street_address": "300 CAPITOL ST", "amenity": "post_box", "collection_times": "Mo-Fr 16:15; Sa 10:00", "note": "ON 12/24 AND 12/31, THIS BOX MAY BE COLLECTED AS EARLY AS 12 NOON.", "nsi_id": "unitedstatespostalservice-a77078", "operator": "United States Postal Service", "operator:short": "USPS", "operator:type": "public", "operator:wikidata": "Q668687", "ref": "2530100077"}, "type": "Feature"}
{"geometry": {"coordinates": [-81.6327593, 38.34816], "type": "Point"}, "id": "TJDr8NFeWM4Ud-R9wyVZ9Dwv3Rc=", "properties": {"@source_uri": "https://tools.usps.com/UspsToolsRestServices/rest/POLocator/findLocations", "@spider": "usps_collection_boxes", "addr:city": "CHARLESTON", "addr:country": "US", "addr:postcode": "25301", "addr:state": "WV", "addr:street_address": "1021 QUARRIER ST", "amenity": "post_box", "collection_times": "Mo-Fr 13:30; Sa 10:00", "note": "ON 12/24 AND 12/31, THIS BOX MAY BE COLLECTED AS EARLY AS 12 NOON.", "nsi_id": "unitedstatespostalservice-a77078", "operator": "United States Postal Service", "operator:short": "USPS", "operator:type": "public", "operator:wikidata": "Q668687", "ref": "2530100083"}, "type": "Feature"}
{"geometry": {"coordinates": [-81.6218671, 38.347606], "type": "Point"}, "id": "tR7DK8gM2aklBDil2W3Uih1ri6U=", "properties": {"@source_uri": "https://tools.usps.com/UspsToolsRestServices/rest/POLocator/findLocations", "@spider": "usps_collection_boxes", "addr:city": "CHARLESTON", "addr:country": "US", "addr:postcode": "25301", "addr:state": "WV", "addr:street_address": "1334 SMITH ST", "amenity": "post_box", "collection_times": "Mo-Sa 10:00", "nsi_id": "unitedstatespostalservice-a77078", "operator": "United States Postal Service", "operator:short": "USPS", "operator:type": "public", "operator:wikidata": "Q668687", "ref": "2530100086"}, "type": "Feature"}
{"geometry": {"coordinates": [-81.6233462809, 38.3486567654], "type": "Point"}, "id": "5zVRH4T9muO0SyjpxdEF17VbA04=", "properties": {"@source_uri": "https://tools.usps.com/UspsToolsRestServices/rest/POLocator/findLocations", "@spider": "usps_collection_boxes", "addr:city": "CHARLESTON", "addr:country": "US", "addr:postcode": "25301", "addr:state": "WV", "addr:street_address": "1321 SMITH ST", "amenity": "post_box", "collection_times": "Mo-Fr 14:00; Sa 09:00", "note": "ON 12/24 AND 12/31, THIS BOX MAY BE COLLECTED AS EARLY AS 12 NOON.", "nsi_id": "unitedstatespostalservice-a77078", "operator": "United States Postal Service", "operator:short": "USPS", "operator:type": "public", "operator:wikidata": "Q668687", "ref": "2530100087"}, "type": "Feature"}
{"geometry": {"coordinates": [-81.6335366, 38.352039], "type": "Point"}, "id": "RJrNVPLPype7ynU_bVDGtOOB18s=", "properties": {"@source_uri": "https://tools.usps.com/UspsToolsRestServices/rest/POLocator/findLocations", "@spider": "usps_collection_boxes", "addr:city": "CHARLESTON", "addr:country": "US", "addr:postcode": "25301", "addr:state": "WV", "addr:street_address": "300 SUMMERS ST", "amenity": "post_box", "collection_times": "Mo-Fr 16:00; Sa 10:00", "note": "ON 12/24 AND 12/31, THIS BOX MAY BE COLLECTED AS EARLY AS 12 NOON.", "nsi_id": "unitedstatespostalservice-a77078", "operator": "United States Postal Service", "operator:short": "USPS", "operator:type": "public", "operator:wikidata": "Q668687", "ref": "2530100088"}, "type": "Feature"}
{"geometry": {"coordinates": [-81.6359399, 38.349471], "type": "Point"}, "id": "SuCoz3XOv_Z2t_aWXEdAUl3SElo=", "properties": {"@source_uri": "https://tools.usps.com/UspsToolsRestServices/rest/POLocator/findLocations", "@spider": "usps_collection_boxes", "addr:city": "CHARLESTON", "addr:country": "US", "addr:postcode": "25301", "addr:state": "WV", "addr:street_address": "100 CAPITOL ST", "amenity": "post_box", "collection_times": "Mo-Fr 15:00; Sa 10:00", "note": "ON 12/24 AND 12/31, THIS BOX MAY BE COLLECTED AS EARLY AS 12 NOON.", "nsi_id": "unitedstatespostalservice-a77078", "operator": "United States Postal Service", "operator:short": "USPS", "operator:type": "public", "operator:wikidata": "Q668687", "ref": "2530100098"}, "type": "Feature"}
{"geometry": {"coordinates": [-81.6326836, 38.344568], "type": "Point"}, "id": "jVPgtYfpGNdje1e5Y8zOBj1csck=", "properties": {"@source_uri": "https://tools.usps.com/UspsToolsRestServices/rest/POLocator/findLocations", "@spider": "usps_collection_boxes", "addr:city": "CHARLESTON", "addr:country": "US", "addr:postcode": "25301", "addr:state": "WV", "addr:street_address": "1202 KANAWHA BLVD E", "amenity": "post_box", "collection_times": "Mo-Fr 10:30; Sa 10:00", "nsi_id": "unitedstatespostalservice-a77078", "operator": "United States Postal Service", "operator:short": "USPS", "operator:type": "public", "operator:wikidata": "Q668687", "ref": "2530100103"}, "type": "Feature"}
{"geometry": {"coordinates": [-81.631339, 38.345362], "type": "Point"}, "id": "IuwkWTx5UGYt6eOIVwf4JdO6VAA=", "properties": {"@source_uri": "https://tools.usps.com/UspsToolsRestServices/rest/POLocator/findLocations", "@spider": "usps_collection_boxes", "addr:city": "CHARLESTON", "addr:country": "US", "addr:postcode": "25301", "addr:state": "WV", "addr:street_address": "1203 VIRGINIA ST E", "amenity": "post_box", "collection_times": "Mo-Fr 16:00; Sa 10:00", "note": "ON 12/24 AND 12/31, THIS BOX MAY BE COLLECTED AS EARLY AS 12 NOON.", "nsi_id": "unitedstatespostalservice-a77078", "operator": "United States Postal Service", "operator:short": "USPS", "operator:type": "public", "operator:wikidata": "Q668687", "ref": "2530100110"}, "type": "Feature"}
{"geometry": {"coordinates": [-81.6299883, 38.34423], "type": "Point"}, "id": "GQIXLUcXmIUIqeHZnsQ2Lnmq58w=", "properties": {"@source_uri": "https://tools.usps.com/UspsToolsRestServices/rest/POLocator/findLocations", "@spider": "usps_collection_boxes", "addr:city": "CHARLESTON", "addr:country": "US", "addr:postcode": "25301", "addr:state": "WV", "addr:street_address": "1223 VIRGINIA ST E", "amenity": "post_box", "collection_times": "Mo-Fr 16:00; Sa 10:00", "note": "ON 12/24 AND 12/31, THIS BOX MAY BE COLLECTED AS EARLY AS 12 NOON.", "nsi_id": "unitedstatespostalservice-a77078", "operator": "United States Postal Service", "operator:short": "USPS", "operator:type": "public", "operator:wikidata": "Q668687", "ref": "2530100111"}, "type": "Feature"}
{"geometry": {"coordinates": [-81.6307951, 38.349843], "type": "Point"}, "id": "h6mETUmyw1B-Jhiyz4Pz_ZE447I=", "properties": {"@source_uri": "https://tools.usps.com/UspsToolsRestServices/rest/POLocator/findLocations", "@spider": "usps_collection_boxes", "addr:city": "CHARLESTON", "addr:country": "US", "addr:postcode": "25301", "addr:state": "WV", "addr:street_address": "1001 WASHINGTON ST E", "amenity": "post_box", "collection_times": "Mo-Fr 17:30; Sa 17:00", "note": "ON 12/24 AND 12/31, THIS BOX MAY BE COLLECTED AS EARLY AS 12 NOON.", "nsi_id": "unitedstatespostalservice-a77078", "operator": "United States Postal Service", "operator:short": "USPS", "operator:type": "public", "operator:wikidata": "Q668687", "ref": "2530100121"}, "type": "Feature"}
{"geometry": {"coordinates": [-81.6320866816, 38.3495689473], "type": "Point"}, "id": "cyajRNZevyu6SgPfUGMkXOmPFkw=", "properties": {"@source_uri": "https://tools.usps.com/UspsToolsRestServices/rest/POLocator/findLocations", "@spider": "usps_collection_boxes", "addr:city": "CHARLESTON", "addr:country": "US", "addr:postcode": "25301", "addr:state": "WV", "addr:street_address": "1002 LEE ST E", "amenity": "post_box", "collection_times": "Mo-Fr 17:30; Sa 17:00", "note": "ON 12/24 AND 12/31, THIS BOX MAY BE COLLECTED AS EARLY AS 12 NOON.", "nsi_id": "unitedstatespostalservice-a77078", "operator": "United States Postal Service", "operator:short": "USPS", "operator:type": "public", "operator:wikidata": "Q668687", "ref": "2530100130"}, "type": "Feature"}
{"geometry": {"coordinates": [-81.6345199, 38.351451], "type": "Point"}, "id": "cSOR11pAmavD2k8TCAdFBBWdd30=", "properties": {"@source_uri": "https://tools.usps.com/UspsToolsRestServices/rest/POLocator/findLocations", "@spider": "usps_collection_boxes", "addr:city": "CHARLESTON", "addr:country": "US", "addr:postcode": "25301", "addr:state": "WV", "addr:street_address": "179 SUMMERS ST", "amenity": "post_box", "collection_times": "Mo-Fr 15:30; Sa 10:00", "note": "ON 12/24 AND 12/31, THIS BOX MAY BE COLLECTED AS EARLY AS 12 NOON.", "nsi_id": "unitedstatespostalservice-a77078", "operator": "United States Postal Service", "operator:short": "USPS", "operator:type": "public", "operator:wikidata": "Q668687", "ref": "2530100135"}, "type": "Feature"}
{"geometry": {"coordinates": [-81.6302099, 38.346263], "type": "Point"}, "id": "LR4ui7ytwXiZj0VSagkqmZARxzY=", "properties": {"@source_uri": "https://tools.usps.com/UspsToolsRestServices/rest/POLocator/findLocations", "@spider": "usps_collection_boxes", "addr:city": "CHARLESTON", "addr:country": "US", "addr:postcode": "25301", "addr:state": "WV", "addr:street_address": "1200 QUARRIER ST", "amenity": "post_box", "collection_times": "Mo-Fr 16:00; Sa 10:00", "note": "ON 12/24 AND 12/31, THIS BOX MAY BE COLLECTED AS EARLY AS 12 NOON.", "nsi_id": "unitedstatespostalservice-a77078", "operator": "United States Postal Service", "operator:short": "USPS", "operator:type": "public", "operator:wikidata": "Q668687", "ref": "2530100172"}, "type": "Feature"}
{"geometry": {"coordinates": [-81.6289769, 38.346938], "type": "Point"}, "id": "JbyQ-R2uHYdTNFg2CLUoMbpzOPM=", "properties": {"@source_uri": "https://tools.usps.com/UspsToolsRestServices/rest/POLocator/findLocations", "@spider": "usps_collection_boxes", "addr:city": "CHARLESTON", "addr:country": "US", "addr:postcode": "25301", "addr:state": "WV", "addr:street_address": "1 ARLINGTON CT", "amenity": "post_box", "collection_times": "Mo-Fr 16:00; Sa 10:00", "note": "ON 12/24 AND 12/31, THIS BOX MAY BE COLLECTED AS EARLY AS 12 NOON.", "nsi_id": "unitedstatespostalservice-a77078", "operator": "United States Postal Service", "operator:short": "USPS", "operator:type": "public", "operator:wikidata": "Q668687", "ref": "2530100173"}, "type": "Feature"}
{"geometry": {"coordinates": [-81.6354674, 38.350782], "type": "Point"}, "id": "a_v8bTNSICHQTjLulIYWCBuTVuA=", "properties": {"@source_uri": "https://tools.usps.com/UspsToolsRestServices/rest/POLocator/findLocations", "@spider": "usps_collection_boxes", "addr:city": "CHARLESTON", "addr:country": "US", "addr:postcode": "25301", "addr:state": "WV", "addr:street_address": "135 SUMMERS ST", "amenity": "post_box", "collection_times": "Mo-Fr 15:30; Sa 10:00", "note": "ON 12/24 AND 12/31, THIS BOX MAY BE COLLECTED AS EARLY AS 12 NOON.", "nsi_id": "unitedstatespostalservice-a77078", "operator": "United States Postal Service", "operator:short": "USPS", "operator:type": "public", "operator:wikidata": "Q668687", "ref": "2530100174"}, "type": "Feature"}
{"geometry": {"coordinates": [-81.6349079, 38.349687], "type": "Point"}, "id": "UlJ7DcKHIE5DD2gOjIwSqxt63Tc=", "properties": {"@source_uri": "https://tools.usps.com/UspsToolsRestServices/rest/POLocator/findLocations", "@spider": "usps_collection_boxes", "addr:city": "CHARLESTON", "addr:country": "US", "addr:postcode": "25301", "addr:state": "WV", "addr:street_address": "812 QUARRIER ST", "amenity": "post_box", "collection_times": "Mo-Fr 16:00; Sa 10:00", "note": "ON 12/24 AND 12/31, THIS BOX MAY BE COLLECTED AS EARLY AS 12 NOON.", "nsi_id": "unitedstatespostalservice-a77078", "operator": "United States Postal Service", "operator:short": "USPS", "operator:type": "public", "operator:wikidata": "Q668687", "ref": "2530100175"}, "type": "Feature"}
{"geometry": {"coordinates": [-81.6386508, 38.352843], "type": "Point"}, "id": "ET2Ugp5TxjezOx_Hs0m9VBKkuWk=", "properties": {"@source_uri": "https://tools.usps.com/UspsToolsRestServices/rest/POLocator/findLocations", "@spider": "usps_collection_boxes", "addr:city": "CHARLESTON", "addr:country": "US", "addr:postcode": "25301", "addr:state": "WV", "addr:street_address": "350 QUARRIER ST", "amenity": "post_box", "collection_times": "Mo-Fr 14:30; Sa 10:00", "note": "ON 12/24 AND 12/31, THIS BOX MAY BE COLLECTED AS EARLY AS 12 NOON.", "nsi_id": "unitedstatespostalservice-a77078", "operator": "United States Postal Service", "operator:short": "USPS", "operator:type": "public", "operator:wikidata": "Q668687", "ref": "2530100177"}, "type": "Feature"}
{"geometry": {"coordinates": [-81.6357745902, 38.3482309145], "type": "Point"}, "id": "V9o75nOWpPtN_e7rfzowuKAe3Jc=", "properties": {"@source_uri": "https://tools.usps.com/UspsToolsRestServices/rest/POLocator/findLocations", "@spider": "usps_collection_boxes", "addr:city": "CHARLESTON", "addr:country": "US", "addr:postcode": "25301", "addr:state": "WV", "addr:street_address": "8 HALE ST", "amenity": "post_box", "collection_times": "Mo-Fr 12:00; Sa 10:00", "nsi_id": "unitedstatespostalservice-a77078", "operator": "United States Postal Service", "operator:short": "USPS", "operator:type": "public", "operator:wikidata": "Q668687", "ref": "2530100179"}, "type": "Feature"}
{"geometry": {"coordinates": [-81.632086682, 38.349568947], "type": "Point"}, "id": "iZGu65j_1zaVAlqS4fSFOandbLo=", "properties": {"@source_uri": "https://tools.usps.com/UspsToolsRestServices/rest/POLocator/findLocations", "@spider": "usps_collection_boxes", "addr:city": "CHARLESTON", "addr:country": "US", "addr:postcode": "25301", "addr:state": "WV", "addr:street_address": "1002 LEE ST E", "amenity": "post_box", "collection_times": "Mo-Fr 18:00; Sa 17:00", "indoor": "yes", "note": "ON 12/24 AND 12/31, THIS BOX MAY BE COLLECTED AS EARLY AS 12 NOON.", "nsi_id": "unitedstatespostalservice-a77078", "operator": "United States Postal Service", "operator:short": "USPS", "operator:type": "public", "operator:wikidata": "Q668687", "ref": "2530100180"}, "type": "Feature"}
{"geometry": {"coordinates": [-81.6266913, 38.342047], "type": "Point"}, "id": "JCpHjSKlWysa_d9DAUI5AWgNaWA=", "properties": {"@source_uri": "https://tools.usps.com/UspsToolsRestServices/rest/POLocator/findLocations", "@spider": "usps_collection_boxes", "addr:city": "CHARLESTON", "addr:country": "US", "addr:postcode": "25301", "addr:state": "WV", "addr:street_address": "1411 VIRGINIA ST E", "amenity": "post_box", "collection_times": "Mo-Fr 14:00; Sa 09:00", "note": "ON 12/24 AND 12/31, THIS BOX MAY BE COLLECTED AS EARLY AS 12 NOON.", "nsi_id": "unitedstatespostalservice-a77078", "operator": "United States Postal Service", "operator:short": "USPS", "operator:type": "public", "operator:wikidata": "Q668687", "ref": "2530100187"}, "type": "Feature"}
{"geometry": {"coordinates": [-81.638466271, 38.356686894], "type": "Point"}, "id": "GyJKJI9TqRIlhsveJGRsHrSUJkY=", "properties": {"@source_uri": "https://tools.usps.com/UspsToolsRestServices/rest/POLocator/findLocations", "@spider": "usps_collection_boxes", "addr:city": "CHARLESTON", "addr:country": "US", "addr:postcode": "25301", "addr:state": "WV", "addr:street_address": "140 WASHINGTON ST E", "amenity": "post_box", "collection_times": "Mo-Fr 11:00; Sa 09:00", "nsi_id": "unitedstatespostalservice-a77078", "operator": "United States Postal Service", "operator:short": "USPS", "operator:type": "public", "operator:wikidata": "Q668687", "ref": "2530100190"}, "type": "Feature"}
{"geometry": {"coordinates": [-81.6296735, 38.345687], "type": "Point"}, "id": "doRnt9uNOqfp9IQ3B0OE1CBukCs=", "properties": {"@source_uri": "https://tools.usps.com/UspsToolsRestServices/rest/POLocator/findLocations", "@spider": "usps_collection_boxes", "addr:city": "CHARLESTON", "addr:country": "US", "addr:postcode": "25301", "addr:state": "WV", "addr:street_address": "1215 QUARRIER ST", "amenity": "post_box", "collection_times": "Mo-Fr 16:00; Sa 10:00", "note": "ON 12/24 AND 12/31, THIS BOX MAY BE COLLECTED AS EARLY AS 12 NOON.", "nsi_id": "unitedstatespostalservice-a77078", "operator": "United States Postal Service", "operator:short": "USPS", "operator:type": "public", "operator:wikidata": "Q668687", "ref": "2530100192"}, "type": "Feature"}
{"geometry": {"coordinates": [-81.632086682, 38.349568947], "type": "Point"}, "id": "VjLF9QMWWnnKurxHL2k_ZZaTzTQ=", "properties": {"@source_uri": "https://tools.usps.com/UspsToolsRestServices/rest/POLocator/findLocations", "@spider": "usps_collection_boxes", "addr:city": "CHARLESTON", "addr:country": "US", "addr:postcode": "25301", "addr:state": "WV", "addr:street_address": "1002 LEE ST E", "amenity": "post_box", "collection_times": "Mo-Fr 18:00; Sa 17:00", "name": "USPS COLLECTION BOX - APC", "note": "ON 12/24 AND 12/31, THIS BOX MAY BE COLLECTED AS EARLY AS 12 NOON.", "nsi_id": "unitedstatespostalservice-a77078", "operator": "United States Postal Service", "operator:short": "USPS", "operator:type": "public", "operator:wikidata": "Q668687", "ref": "2530100196"}, "type": "Feature"}
{"geometry": {"coordinates": [-81.632086682, 38.349568947], "type": "Point"}, "id": "XXzsxnjNn08DuVsamE775VGJNdg=", "properties": {"@source_uri": "https://tools.usps.com/UspsToolsRestServices/rest/POLocator/findLocations", "@spider": "usps_collection_boxes", "addr:city": "CHARLESTON", "addr:country": "US", "addr:postcode": "25301", "addr:state": "WV", "addr:street_address": "1002 LEE ST E", "amenity": "post_box", "collection_times": "Mo-Fr 18:00; Sa 16:30", "indoor": "yes", "note": "ON 12/24 AND 12/31, THIS BOX MAY BE COLLECTED AS EARLY AS 12 NOON.", "nsi_id": "unitedstatespostalservice-a77078", "operator": "United States Postal Service", "operator:short": "USPS", "operator:type": "public", "operator:wikidata": "Q668687", "ref": "2530100209"}, "type": "Feature"}
{"geometry": {"coordinates": [-81.6366894981, 38.3497868876], "type": "Point"}, "id": "2gPnUVBHXD_pD5SYmNrmwGFp-ak=", "properties": {"@source_uri": "https://tools.usps.com/UspsToolsRestServices/rest/POLocator/findLocations", "@spider": "usps_collection_boxes", "addr:city": "CHARLESTON", "addr:country": "US", "addr:postcode": "25301", "addr:state": "WV", "addr:street_address": "707 VIRGINIA ST E", "amenity": "post_box", "collection_times": "Mo-Fr 16:00; Sa 10:00", "note": "ON 12/24 AND 12/31, THIS BOX MAY BE COLLECTED AS EARLY AS 12 NOON.", "nsi_id": "unitedstatespostalservice-a77078", "operator": "United States Postal Service", "operator:short": "USPS", "operator:type": "public", "operator:wikidata": "Q668687", "ref": "2530100210"}, "type": "Feature"}
{"geometry": {"coordinates": [-81.6194772, 38.362223], "type": "Point"}, "id": "7S8of2G2CvMtrHmrmQ-TS3NWZFs=", "properties": {"@source_uri": "https://tools.usps.com/UspsToolsRestServices/rest/POLocator/findLocations", "@spider": "usps_collection_boxes", "addr:city": "CHARLESTON", "addr:country": "US", "addr:postcode": "25302", "addr:state": "WV", "addr:street_address": "1627 BIGLEY AVE", "amenity": "post_box", "collection_times": "Mo-Sa 09:00", "nsi_id": "unitedstatespostalservice-a77078", "operator": "United States Postal Service", "operator:short": "USPS", "operator:type": "public", "operator:wikidata": "Q668687", "ref": "2530200005"}, "type": "Feature"}
{"geometry": {"coordinates": [-81.6540804, 38.364446], "type": "Point"}, "id": "GZ2fkCYCvUoJW4adpMga8I9_8TY=", "properties": {"@source_uri": "https://tools.usps.com/UspsToolsRestServices/rest/POLocator/findLocations", "@spider": "usps_collection_boxes", "addr:city": "CHARLESTON", "addr:country": "US", "addr:postcode": "25302", "addr:state": "WV", "addr:street_address": "824 CENTRAL AVE", "amenity": "post_box", "collection_times": "Mo-Sa 09:00", "nsi_id": "unitedstatespostalservice-a77078", "operator": "United States Postal Service", "operator:short": "USPS", "operator:type": "public", "operator:wikidata": "Q668687", "ref": "2530200007"}, "type": "Feature"}
{"geometry": {"coordinates": [-81.6452568, 38.355859], "type": "Point"}, "id": "P2jyQELT3TVfQhdaJgvuDiv8DqQ=", "properties": {"@source_uri": "https://tools.usps.com/UspsToolsRestServices/rest/POLocator/findLocations", "@spider": "usps_collection_boxes", "addr:city": "CHARLESTON", "addr:country": "US", "addr:postcode": "25302", "addr:state": "WV", "addr:street_address": "1 UNION SQ", "amenity": "post_box", "collection_times": "Mo-Fr 15:30; Sa 08:30", "note": "ON 12/24 AND 12/31, THIS BOX MAY BE COLLECTED AS EARLY AS 12 NOON.", "nsi_id": "unitedstatespostalservice-a77078", "operator": "United States Postal Service", "operator:short": "USPS", "operator:type": "public", "operator:wikidata": "Q668687", "ref": "2530200027"}, "type": "Feature"}
{"geometry": {"coordinates": [-81.6436965, 38.362056], "type": "Point"}, "id": "h504WfKxkyPvK-nEmAk3UIPn79Q=", "properties": {"@source_uri": "https://tools.usps.com/UspsToolsRestServices/rest/POLocator/findLocations", "@spider": "usps_collection_boxes", "addr:city": "CHARLESTON", "addr:country": "US", "addr:postcode": "25302", "addr:state": "WV", "addr:street_address": "310 LEE ST W", "amenity": "post_box", "collection_times": "Mo-Fr 14:00; Sa 09:00", "note": "ON 12/24 AND 12/31, THIS BOX MAY BE COLLECTED AS EARLY AS 12 NOON.", "nsi_id": "unitedstatespostalservice-a77078", "operator": "United States Postal Service", "operator:short": "USPS", "operator:type": "public", "operator:wikidata": "Q668687", "ref": "2530200028"}, "type": "Feature"}
{"geometry": {"coordinates": [-81.6363599, 38.359344], "type": "Point"}, "id": "zFoAvVSAIb9Zl3IQtG6O1nBydQw=", "properties": {"@source_uri": "https://tools.usps.com/UspsToolsRestServices/rest/POLocator/findLocations", "@spider": "usps_collection_boxes", "addr:city": "CHARLESTON", "addr:country": "US", "addr:postcode": "25302", "addr:state": "WV", "addr:street_address": "830 PENNSYLVANIA AVE", "amenity": "post_box", "collection_times": "Mo-Fr 11:00; Sa 09:00", "nsi_id": "unitedstatespostalservice-a77078", "operator": "United States Postal Service", "operator:short": "USPS", "operator:type": "public", "operator:wikidata": "Q668687", "ref": "2530200033"}, "type": "Feature"}
{"geometry": {"coordinates": [-81.6433319, 38.36002], "type": "Point"}, "id": "q9qzqkoejMT1dEAXtXpUS5IqPTM=", "properties": {"@source_uri": "https://tools.usps.com/UspsToolsRestServices/rest/POLocator/findLocations", "@spider": "usps_collection_boxes", "addr:city": "CHARLESTON", "addr:country": "US", "addr:postcode": "25302", "addr:state": "WV", "addr:street_address": "508 TENNESSEE AVE", "amenity": "post_box", "collection_times": "Mo-Fr 14:00; Sa 09:00", "note": "ON 12/24 AND 12/31, THIS BOX MAY BE COLLECTED AS EARLY AS 12 NOON.", "nsi_id": "unitedstatespostalservice-a77078", "operator": "United States Postal Service", "operator:short": "USPS", "operator:type": "public", "operator:wikidata": "Q668687", "ref": "2530200035"}, "type": "Feature"}
{"geometry": {"coordinates": [-81.6487465, 38.361782], "type": "Point"}, "id": "s2rsIzvX_WKF53izKUb80sH_azQ=", "properties": {"@source_uri": "https://tools.usps.com/UspsToolsRestServices/rest/POLocator/findLocations", "@spider": "usps_collection_boxes", "addr:city": "CHARLESTON", "addr:country": "US", "addr:postcode": "25302", "addr:state": "WV", "addr:street_address": "423 VIRGINIA ST W", "amenity": "post_box", "collection_times": "Mo-Sa 09:30", "nsi_id": "unitedstatespostalservice-a77078", "operator": "United States Postal Service", "operator:short": "USPS", "operator:type": "public", "operator:wikidata": "Q668687", "ref": "2530200037"}, "type": "Feature"}
{"geometry": {"coordinates": [-81.6411771, 38.361174], "type": "Point"}, "id": "7a4Iv8EOOE5lsT1kdlnS0nAwmwc=", "properties": {"@source_uri": "https://tools.usps.com/UspsToolsRestServices/rest/POLocator/findLocations", "@spider": "usps_collection_boxes", "addr:city": "CHARLESTON", "addr:country": "US", "addr:postcode": "25302", "addr:state": "WV", "addr:street_address": "305 WASHINGTON ST W", "amenity": "post_box", "collection_times": "Mo-Fr 13:00; Sa 09:30", "note": "ON 12/24 AND 12/31, THIS BOX MAY BE COLLECTED AS EARLY AS 12 NOON.", "nsi_id": "unitedstatespostalservice-a77078", "operator": "United States Postal Service", "operator:short": "USPS", "operator:type": "public", "operator:wikidata": "Q668687", "ref": "2530200040"}, "type": "Feature"}
{"geometry": {"coordinates": [-81.648095911, 38.360977284], "type": "Point"}, "id": "dgUked6dQQjhKO-CedJg8piABNM=", "properties": {"@source_uri": "https://tools.usps.com/UspsToolsRestServices/rest/POLocator/findLocations", "@spider": "usps_collection_boxes", "addr:city": "CHARLESTON", "addr:country": "US", "addr:postcode": "25302", "addr:state": "WV", "addr:street_address": "401 VIRGINIA ST W", "amenity": "post_box", "collection_times": "Mo-Fr 16:30; Sa 11:00", "note": "ON 12/24 AND 12/31, THIS BOX MAY BE COLLECTED AS EARLY AS 12 NOON.", "nsi_id": "unitedstatespostalservice-a77078", "operator": "United States Postal Service", "operator:short": "USPS", "operator:type": "public", "operator:wikidata": "Q668687", "ref": "2530200043"}, "type": "Feature"}
{"geometry": {"coordinates": [-81.6153557, 38.363604], "type": "Point"}, "id": "Wb5nx41NuQXWhRlQnn7UYv9gsvY=", "properties": {"@source_uri": "https://tools.usps.com/UspsToolsRestServices/rest/POLocator/findLocations", "@spider": "usps_collection_boxes", "addr:city": "CHARLESTON", "addr:country": "US", "addr:postcode": "25302", "addr:state": "WV", "addr:street_address": "1829 BIGLEY AVE", "amenity": "post_box", "collection_times": "Mo-Sa 10:00", "nsi_id": "unitedstatespostalservice-a77078", "operator": "United States Postal Service", "operator:short": "USPS", "operator:type": "public", "operator:wikidata": "Q668687", "ref": "2530200048"}, "type": "Feature"}
{"geometry": {"coordinates": [-81.648095911, 38.360977284], "type": "Point"}, "id": "aY4ZNEnw_40qFGc_LnqsSzQO7y4=", "properties": {"@source_uri": "https://tools.usps.com/UspsToolsRestServices/rest/POLocator/findLocations", "@spider": "usps_collection_boxes", "addr:city": "CHARLESTON", "addr:country": "US", "addr:postcode": "25302", "addr:state": "WV", "addr:street_address": "401 VIRGINIA ST W", "amenity": "post_box", "collection_times": "Mo-Fr 16:30; Sa 11:00", "indoor": "yes", "note": "ON 12/24 AND 12/31, THIS BOX MAY BE COLLECTED AS EARLY AS 12 NOON.", "nsi_id": "unitedstatespostalservice-a77078", "operator": "United States Postal Service", "operator:short": "USPS", "operator:type": "public", "operator:wikidata": "Q668687", "ref": "2530200049"}, "type": "Feature"}
{"geometry": {"coordinates": [-81.5398051, 38.40601], "type": "Point"}, "id": "alXGBT1T1yrc39p3x4cyOj37WJY=", "properties": {"@source_uri": "https://tools.usps.com/UspsToolsRestServices/rest/POLocator/findLocations", "@spider": "usps_collection_boxes", "addr:city": "CHARLESTON", "addr:country": "US", "addr:postcode": "25302", "addr:state": "WV", "addr:street_address": "4506 PENNSYLVANIA AVE", "amenity": "post_box", "collection_times": "Mo-Sa 12:30", "note": "ON 12/24 AND 12/31, THIS BOX MAY BE COLLECTED AS EARLY AS 12 NOON.", "nsi_id": "unitedstatespostalservice-a77078", "operator": "United States Postal Service", "operator:short": "USPS", "operator:type": "public", "operator:wikidata": "Q668687", "ref": "2530200051"}, "type": "Feature"}
{"geometry": {"coordinates": [-81.648095911, 38.360977284], "type": "Point"}, "id": "2C1iWZlTwir93OcvWrZzvErJTFU=", "properties": {"@source_uri": "https://tools.usps.com/UspsToolsRestServices/rest/POLocator/findLocations", "@spider": "usps_collection_boxes", "addr:city": "CHARLESTON", "addr:country": "US", "addr:postcode": "25302", "addr:state": "WV", "addr:street_address": "401 VIRGINIA ST W", "amenity": "post_box", "collection_times": "Mo-Fr 16:30; Sa 11:00", "indoor": "yes", "note": "ON 12/24 AND 12/31, THIS BOX MAY BE COLLECTED AS EARLY AS 12 NOON.", "nsi_id": "unitedstatespostalservice-a77078", "operator": "United States Postal Service", "operator:short": "USPS", "operator:type": "public", "operator:wikidata": "Q668687", "ref": "2530200057"}, "type": "Feature"}
{"geometry": {"coordinates": [-81.539538045, 38.40616706], "type": "Point"}, "id": "UGa84g5VdyEIEFO7Yd-G7jT8oTo=", "properties": {"@source_uri": "https://tools.usps.com/UspsToolsRestServices/rest/POLocator/findLocations", "@spider": "usps_collection_boxes", "addr:city": "CHARLESTON", "addr:country": "US", "addr:postcode": "25302", "addr:state": "WV", "addr:street_address": "4506 PENNSYLVANIA AVE", "amenity": "post_box", "collection_times": "Mo-Fr 12:00", "indoor": "yes", "nsi_id": "unitedstatespostalservice-a77078", "operator": "United States Postal Service", "operator:short": "USPS", "operator:type": "public", "operator:wikidata": "Q668687", "ref": "2530200058"}, "type": "Feature"}
{"geometry": {"coordinates": [-81.7042685, 38.362751], "type": "Point"}, "id": "1vk7VT0QtBxVeXZfpUjpy6r-QGw=", "properties": {"@source_uri": "https://tools.usps.com/UspsToolsRestServices/rest/POLocator/findLocations", "@spider": "usps_collection_boxes", "addr:city": "S CHARLESTON", "addr:country": "US", "addr:postcode": "25303", "addr:state": "WV", "addr:street_address": "3100 MACCORKLE AVE SW", "amenity": "post_box", "collection_times": "Mo-Fr 11:00; Sa 10:00", "nsi_id": "unitedstatespostalservice-a77078", "operator": "United States Postal Service", "operator:short": "USPS", "operator:type": "public", "operator:wikidata": "Q668687", "ref": "2530300013"}, "type": "Feature"}
{"geometry": {"coordinates": [-81.695087635, 38.366734965], "type": "Point"}, "id": "JKdNzfQSaYS_2_kbnkbynxdUjLU=", "properties": {"@source_uri": "https://tools.usps.com/UspsToolsRestServices/rest/POLocator/findLocations", "@spider": "usps_collection_boxes", "addr:city": "S CHARLESTON", "addr:country": "US", "addr:postcode": "25303", "addr:state": "WV", "addr:street_address": "400 D ST", "amenity": "post_box", "collection_times": "Mo-Sa 16:30", "note": "ON 12/24 AND 12/31, THIS BOX MAY BE COLLECTED AS EARLY AS 12 NOON.", "nsi_id": "unitedstatespostalservice-a77078", "operator": "United States Postal Service", "operator:short": "USPS", "operator:type": "public", "operator:wikidata": "Q668687", "ref": "2530300015"}, "type": "Feature"}
{"geometry": {"coordinates": [-81.695087635, 38.366734965], "type": "Point"}, "id": "5Iuirc_mCekYK7mcJWqBDbvZ5Ls=", "properties": {"@source_uri": "https://tools.usps.com/UspsToolsRestServices/rest/POLocator/findLocations", "@spider": "usps_collection_boxes", "addr:city": "S CHARLESTON", "addr:country": "US", "addr:postcode": "25303", "addr:state": "WV", "addr:street_address": "400 D ST", "amenity": "post_box", "collection_times": "Mo-Sa 16:30", "indoor": "yes", "note": "ON 12/24 AND 12/31, THIS BOX MAY BE COLLECTED AS EARLY AS 12 NOON.", "nsi_id": "unitedstatespostalservice-a77078", "operator": "United States Postal Service", "operator:short": "USPS", "operator:type": "public", "operator:wikidata": "Q668687", "ref": "2530300030"}, "type": "Feature"}
{"geometry": {"coordinates": [-81.695087635, 38.366734965], "type": "Point"}, "id": "EAv1pvxsPItbz5Zv-WcUvP67ANk=", "properties": {"@source_uri": "https://tools.usps.com/UspsToolsRestServices/rest/POLocator/findLocations", "@spider": "usps_collection_boxes", "addr:city": "S CHARLESTON", "addr:country": "US", "addr:postcode": "25303", "addr:state": "WV", "addr:street_address": "400 D ST", "amenity": "post_box", "collection_times": "Mo-Sa 16:30", "indoor": "yes", "note": "ON 12/24 AND 12/31, THIS BOX MAY BE COLLECTED AS EARLY AS 12 NOON.", "nsi_id": "unitedstatespostalservice-a77078", "operator": "United States Postal Service", "operator:short": "USPS", "operator:type": "public", "operator:wikidata": "Q668687", "ref": "2530300031"}, "type": "Feature"}
{"geometry": {"coordinates": [-81.7107004, 38.364386], "type": "Point"}, "id": "kCqnlRsVej3499ixmMD8-mNSKdU=", "properties": {"@source_uri": "https://tools.usps.com/UspsToolsRestServices/rest/POLocator/findLocations", "@spider": "usps_collection_boxes", "addr:city": "S CHARLESTON", "addr:country": "US", "addr:postcode": "25303", "addr:state": "WV", "addr:street_address": "91 MACCORKLE AVE SW", "amenity": "post_box", "collection_times": "Mo-Fr 11:30; Sa 10:00", "nsi_id": "unitedstatespostalservice-a77078", "operator": "United States Postal Service", "operator:short": "USPS", "operator:type": "public", "operator:wikidata": "Q668687", "ref": "2530300033"}, "type": "Feature"}
{"geometry": {"coordinates": [-81.695087635, 38.366734965], "type": "Point"}, "id": "cx6HDMNNZc6RjEEIp-0LsmPYM9s=", "properties": {"@source_uri": "https://tools.usps.com/UspsToolsRestServices/rest/POLocator/findLocations", "@spider": "usps_collection_boxes", "addr:city": "S CHARLESTON", "addr:country": "US", "addr:postcode": "25303", "addr:state": "WV", "addr:street_address": "400 D ST", "amenity": "post_box", "collection_times": "Mo-Fr 16:30; Sa 14:00", "indoor": "yes", "note": "ON 12/24 AND 12/31, THIS BOX MAY BE COLLECTED AS EARLY AS 12 NOON.", "nsi_id": "unitedstatespostalservice-a77078", "operator": "United States Postal Service", "operator:short": "USPS", "operator:type": "public", "operator:wikidata": "Q668687", "ref": "2530300035"}, "type": "Feature"}
{"geometry": {"coordinates": [-81.582808722, 38.32212692], "type": "Point"}, "id": "-JMWPNkCcSATNxcoikJMmwU_soM=", "properties": {"@source_uri": "https://tools.usps.com/UspsToolsRestServices/rest/POLocator/findLocations", "@spider": "usps_collection_boxes", "addr:city": "CHARLESTON", "addr:country": "US", "addr:postcode": "25304", "addr:state": "WV", "addr:street_address": "4600 MACCORKLE AVE SE", "amenity": "post_box", "collection_times": "Mo-Fr 16:30; Sa 12:00", "note": "ON 12/24 AND 12/31, THIS BOX MAY BE COLLECTED AS EARLY AS 12 NOON.", "nsi_id": "unitedstatespostalservice-a77078", "operator": "United States Postal Service", "operator:short": "USPS", "operator:type": "public", "operator:wikidata": "Q668687", "ref": "2530400007"}, "type": "Feature"}
{"geometry": {"coordinates": [-81.568872, 38.310931], "type": "Point"}, "id": "pWzb-XPl-v33NTj0Na2xbrPRpR8=", "properties": {"@source_uri": "https://tools.usps.com/UspsToolsRestServices/rest/POLocator/findLocations", "@spider": "usps_collection_boxes", "addr:city": "CHARLESTON", "addr:country": "US", "addr:postcode": "25304", "addr:state": "WV", "addr:street_address": "5700 MACCORKLE AVE SE", "amenity": "post_box", "collection_times": "Mo-Sa 10:00", "nsi_id": "unitedstatespostalservice-a77078", "operator": "United States Postal Service", "operator:short": "USPS", "operator:type": "public", "operator:wikidata": "Q668687", "ref": "2530400008"}, "type": "Feature"}
{"geometry": {"coordinates": [-81.5849078, 38.32315], "type": "Point"}, "id": "DyURAkx1Pcwm5F3B3chyMgRe6BA=", "properties": {"@source_uri": "https://tools.usps.com/UspsToolsRestServices/rest/POLocator/findLocations", "@spider": "usps_collection_boxes", "addr:city": "CHARLESTON", "addr:country": "US", "addr:postcode": "25304", "addr:state": "WV", "addr:street_address": "4420 MACCORKLE AVE SE", "amenity": "post_box", "collection_times": "Mo-Sa 09:30", "nsi_id": "unitedstatespostalservice-a77078", "operator": "United States Postal Service", "operator:short": "USPS", "operator:type": "public", "operator:wikidata": "Q668687", "ref": "2530400009"}, "type": "Feature"}
{"geometry": {"coordinates": [-81.5995511, 38.328488], "type": "Point"}, "id": "FjUovSX9NGbSYHzZLnI4CKssUto=", "properties": {"@source_uri": "https://tools.usps.com/UspsToolsRestServices/rest/POLocator/findLocations", "@spider": "usps_collection_boxes", "addr:city": "CHARLESTON", "addr:country": "US", "addr:postcode": "25304", "addr:state": "WV", "addr:street_address": "3416 MACCORKLE AVE SE", "amenity": "post_box", "collection_times": "Mo-Fr 11:00; Sa 10:00", "nsi_id": "unitedstatespostalservice-a77078", "operator": "United States Postal Service", "operator:short": "USPS", "operator:type": "public", "operator:wikidata": "Q668687", "ref": "2530400011"}, "type": "Feature"}
{"geometry": {"coordinates": [-81.596327974, 38.327792989], "type": "Point"}, "id": "x_pqmZ88vlc94vdZ6se_Ip8Mzm0=", "properties": {"@source_uri": "https://tools.usps.com/UspsToolsRestServices/rest/POLocator/findLocations", "@spider": "usps_collection_boxes", "addr:city": "CHARLESTON", "addr:country": "US", "addr:postcode": "25304", "addr:state": "WV", "addr:street_address": "3601 MACCORKLE AVE SE", "amenity": "post_box", "collection_times": "Mo-Fr 15:00; Sa 09:00", "note": "ON 12/24 AND 12/31, THIS BOX MAY BE COLLECTED AS EARLY AS 12 NOON.", "nsi_id": "unitedstatespostalservice-a77078", "operator": "United States Postal Service", "operator:short": "USPS", "operator:type": "public", "operator:wikidata": "Q668687", "ref": "2530400012"}, "type": "Feature"}
{"geometry": {"coordinates": [-81.5921194, 38.326352], "type": "Point"}, "id": "YUHSdKkztFESBo4Z5uFpwtvzTIE=", "properties": {"@source_uri": "https://tools.usps.com/UspsToolsRestServices/rest/POLocator/findLocations", "@spider": "usps_collection_boxes", "addr:city": "CHARLESTON", "addr:country": "US", "addr:postcode": "25304", "addr:state": "WV", "addr:street_address": "3900 VENABLE AVE", "amenity": "post_box", "collection_times": "Mo-Sa 09:30", "nsi_id": "unitedstatespostalservice-a77078", "operator": "United States Postal Service", "operator:short": "USPS", "operator:type": "public", "operator:wikidata": "Q668687", "ref": "2530400027"}, "type": "Feature"}
{"geometry": {"coordinates": [-81.598787979, 38.3295969844], "type": "Point"}, "id": "de2b3BaGNeM7Z2MHu5NBXDEWJXQ=", "properties": {"@source_uri": "https://tools.usps.com/UspsToolsRestServices/rest/POLocator/findLocations", "@spider": "usps_collection_boxes", "addr:city": "CHARLESTON", "addr:country": "US", "addr:postcode": "25304", "addr:state": "WV", "addr:street_address": "215 35TH ST SE", "amenity": "post_box", "collection_times": "Mo-Fr 10:00; Sa 09:00", "nsi_id": "unitedstatespostalservice-a77078", "operator": "United States Postal Service", "operator:short": "USPS", "operator:type": "public", "operator:wikidata": "Q668687", "ref": "2530400033"}, "type": "Feature"}
{"geometry": {"coordinates": [-81.6161991, 38.332837], "type": "Point"}, "id": "1kT03_ZdYVhQzNwTj6aTK-CyQM0=", "properties": {"@source_uri": "https://tools.usps.com/UspsToolsRestServices/rest/POLocator/findLocations", "@spider": "usps_collection_boxes", "addr:city": "CHARLESTON", "addr:country": "US", "addr:postcode": "25304", "addr:state": "WV", "addr:street_address": "2300 MACCORKLE AVE SE", "amenity": "post_box", "collection_times": "Mo-Sa 10:00", "nsi_id": "unitedstatespostalservice-a77078", "operator": "United States Postal Service", "operator:short": "USPS", "operator:type": "public", "operator:wikidata": "Q668687", "ref": "2530400035"}, "type": "Feature"}
{"geometry": {"coordinates": [-81.6037984, 38.329763], "type": "Point"}, "id": "rVT3gRCMEYNjV_ZjxmKIEh9ExsY=", "properties": {"@source_uri": "https://tools.usps.com/UspsToolsRestServices/rest/POLocator/findLocations", "@spider": "usps_collection_boxes", "addr:city": "CHARLESTON", "addr:country": "US", "addr:postcode": "25304", "addr:state": "WV", "addr:street_address": "3100 MACCORKLE AVE SE", "amenity": "post_box", "collection_times": "Mo-Fr 15:30; Sa 09:00", "note": "ON 12/24 AND 12/31, THIS BOX MAY BE COLLECTED AS EARLY AS 12 NOON.", "nsi_id": "unitedstatespostalservice-a77078", "operator": "United States Postal Service", "operator:short": "USPS", "operator:type": "public", "operator:wikidata": "Q668687", "ref": "2530400037"}, "type": "Feature"}
{"geometry": {"coordinates": [-81.5907336, 38.326868], "type": "Point"}, "id": "vp8vzUGe-Ri0POXdpWjW7sKYzXs=", "properties": {"@source_uri": "https://tools.usps.com/UspsToolsRestServices/rest/POLocator/findLocations", "@spider": "usps_collection_boxes", "addr:city": "CHARLESTON", "addr:country": "US", "addr:postcode": "25304", "addr:state": "WV", "addr:street_address": "3912 MACCORKLE AVE SE", "amenity": "post_box", "collection_times": "Mo-Fr 15:00; Sa 09:00", "note": "ON 12/24 AND 12/31, THIS BOX MAY BE COLLECTED AS EARLY AS 12 NOON.", "nsi_id": "unitedstatespostalservice-a77078", "operator": "United States Postal Service", "operator:short": "USPS", "operator:type": "public", "operator:wikidata": "Q668687", "ref": "2530400045"}, "type": "Feature"}
{"geometry": {"coordinates": [-81.582808722, 38.32212692], "type": "Point"}, "id": "BubaYFPiBfoAwHWz2d7uW56Rnz4=", "properties": {"@source_uri": "https://tools.usps.com/UspsToolsRestServices/rest/POLocator/findLocations", "@spider": "usps_collection_boxes", "addr:city": "CHARLESTON", "addr:country": "US", "addr:postcode": "25304", "addr:state": "WV", "addr:street_address": "4600 MACCORKLE AVE SE", "amenity": "post_box", "collection_times": "Mo-Fr 16:30; Sa 12:00", "indoor": "yes", "note": "ON 12/24 AND 12/31, THIS BOX MAY BE COLLECTED AS EARLY AS 12 NOON.", "nsi_id": "unitedstatespostalservice-a77078", "operator": "United States Postal Service", "operator:short": "USPS", "operator:type": "public", "operator:wikidata": "Q668687", "ref": "2530400049"}, "type": "Feature"}
{"geometry": {"coordinates": [-81.6008772, 38.326223], "type": "Point"}, "id": "qaUgBgjTEiALfN4FcghA3ESiaAg=", "properties": {"@source_uri": "https://tools.usps.com/UspsToolsRestServices/rest/POLocator/findLocations", "@spider": "usps_collection_boxes", "addr:city": "CHARLESTON", "addr:country": "US", "addr:postcode": "25304", "addr:state": "WV", "addr:street_address": "3410 CHESTERFIELD AVE", "amenity": "post_box", "collection_times": "Mo-Fr 13:00; Sa 10:00", "note": "ON 12/24 AND 12/31, THIS BOX MAY BE COLLECTED AS EARLY AS 12 NOON.", "nsi_id": "unitedstatespostalservice-a77078", "operator": "United States Postal Service", "operator:short": "USPS", "operator:type": "public", "operator:wikidata": "Q668687", "ref": "2530400052"}, "type": "Feature"}
{"geometry": {"coordinates": [-81.5869026, 38.324339], "type": "Point"}, "id": "ultx_MBKXkHjQSxHTv3ptYuHZdI=", "properties": {"@source_uri": "https://tools.usps.com/UspsToolsRestServices/rest/POLocator/findLocations", "@spider": "usps_collection_boxes", "addr:city": "CHARLESTON", "addr:country": "US", "addr:postcode": "25304", "addr:state": "WV", "addr:street_address": "4301 MACCORKLE AVE SE", "amenity": "post_box", "collection_times": "Mo-Fr 14:00; Sa 09:00", "note": "ON 12/24 AND 12/31, THIS BOX MAY BE COLLECTED AS EARLY AS 12 NOON.", "nsi_id": "unitedstatespostalservice-a77078", "operator": "United States Postal Service", "operator:short": "USPS", "operator:type": "public", "operator:wikidata": "Q668687", "ref": "2530400055"}, "type": "Feature"}
{"geometry": {"coordinates": [-81.570359, 38.312201], "type": "Point"}, "id": "KbQ-6CHkbws8JS2Cq87MjqLzThM=", "properties": {"@source_uri": "https://tools.usps.com/UspsToolsRestServices/rest/POLocator/findLocations", "@spider": "usps_collection_boxes", "addr:city": "CHARLESTON", "addr:country": "US", "addr:postcode": "25304", "addr:state": "WV", "addr:street_address": "601 57TH ST SE", "amenity": "post_box", "collection_times": "Mo-Sa 10:00", "nsi_id": "unitedstatespostalservice-a77078", "operator": "United States Postal Service", "operator:short": "USPS", "operator:type": "public", "operator:wikidata": "Q668687", "ref": "2530400056"}, "type": "Feature"}
{"geometry": {"coordinates": [-81.582808722, 38.32212692], "type": "Point"}, "id": "L2V_rvpv74aVOWM0dlr9OGXLPUM=", "properties": {"@source_uri": "https://tools.usps.com/UspsToolsRestServices/rest/POLocator/findLocations", "@spider": "usps_collection_boxes", "addr:city": "CHARLESTON", "addr:country": "US", "addr:postcode": "25304", "addr:state": "WV", "addr:street_address": "4600 MACCORKLE AVE SE", "amenity": "post_box", "collection_times": "Mo-Fr 16:30; Sa 12:00", "indoor": "yes", "note": "ON 12/24 AND 12/31, THIS BOX MAY BE COLLECTED AS EARLY AS 12 NOON.", "nsi_id": "unitedstatespostalservice-a77078", "operator": "United States Postal Service", "operator:short": "USPS", "operator:type": "public", "operator:wikidata": "Q668687", "ref": "2530400061"}, "type": "Feature"}
{"geometry": {"coordinates": [-81.5574608193, 38.2990448249], "type": "Point"}, "id": "a0SlE_yTDJnURZCJrH9_rerKYxk=", "properties": {"@source_uri": "https://tools.usps.com/UspsToolsRestServices/rest/POLocator/findLocations", "@spider": "usps_collection_boxes", "addr:city": "CHARLESTON", "addr:country": "US", "addr:postcode": "25306", "addr:state": "WV", "addr:street_address": "4200 MALDEN DR", "amenity": "post_box", "collection_times": "Mo-Fr 14:00; Sa 10:00", "note": "ON 12/24 AND 12/31, THIS BOX MAY BE COLLECTED AS EARLY AS 12 NOON.", "nsi_id": "unitedstatespostalservice-a77078", "operator": "United States Postal Service", "operator:short": "USPS", "operator:type": "public", "operator:wikidata": "Q668687", "ref": "2530600013"}, "type": "Feature"}
{"geometry": {"coordinates": [-81.5360609, 38.31338], "type": "Point"}, "id": "pejBjAg882mPzt8IgvjHKNiV9GM=", "properties": {"@source_uri": "https://tools.usps.com/UspsToolsRestServices/rest/POLocator/findLocations", "@spider": "usps_collection_boxes", "addr:city": "CHARLESTON", "addr:country": "US", "addr:postcode": "25306", "addr:state": "WV", "addr:street_address": "332 CAMPBELLS CREEK DR", "amenity": "post_box", "collection_times": "Mo-Sa 11:00", "nsi_id": "unitedstatespostalservice-a77078", "operator": "United States Postal Service", "operator:short": "USPS", "operator:type": "public", "operator:wikidata": "Q668687", "ref": "2530600014"}, "type": "Feature"}
{"geometry": {"coordinates": [-81.7194195, 38.357352], "type": "Point"}, "id": "VnXdq_fUSJYZWXP5ObUVpG48wZY=", "properties": {"@source_uri": "https://tools.usps.com/UspsToolsRestServices/rest/POLocator/findLocations", "@spider": "usps_collection_boxes", "addr:city": "CHARLESTON", "addr:country": "US", "addr:postcode": "25309", "addr:state": "WV", "addr:street_address": "410 KENNA DR", "amenity": "post_box", "collection_times": "Mo-Sa 10:00", "nsi_id": "unitedstatespostalservice-a77078", "operator": "United States Postal Service", "operator:short": "USPS", "operator:type": "public", "operator:wikidata": "Q668687", "ref": "2530900003"}, "type": "Feature"}
{"geometry": {"coordinates": [-81.725829, 38.355006], "type": "Point"}, "id": "LuqBDdliuYWkalVQcNVwPUbPJtk=", "properties": {"@source_uri": "https://tools.usps.com/UspsToolsRestServices/rest/POLocator/findLocations", "@spider": "usps_collection_boxes", "addr:city": "CHARLESTON", "addr:country": "US", "addr:postcode": "25309", "addr:state": "WV", "addr:street_address": "400 DIVISION ST", "amenity": "post_box", "collection_times": "Mo-Fr 15:30; Sa 10:00", "note": "ON 12/24 AND 12/31, THIS BOX MAY BE COLLECTED AS EARLY AS 12 NOON.", "nsi_id": "unitedstatespostalservice-a77078", "operator": "United States Postal Service", "operator:short": "USPS", "operator:type": "public", "operator:wikidata": "Q668687", "ref": "2530900007"}, "type": "Feature"}
{"geometry": {"coordinates": [-81.712813144, 38.322773453], "type": "Point"}, "id": "2wDYeAFMwxnOY9fHjw_gXWK34wc=", "properties": {"@source_uri": "https://tools.usps.com/UspsToolsRestServices/rest/POLocator/findLocations", "@spider": "usps_collection_boxes", "addr:city": "CHARLESTON", "addr:country": "US", "addr:postcode": "25309", "addr:state": "WV", "addr:street_address": "2470 MOUNTAINEER BLVD", "amenity": "post_box", "collection_times": "Mo-Fr 17:00; Sa 11:00", "note": "ON 12/24 AND 12/31, THIS BOX MAY BE COLLECTED AS EARLY AS 12 NOON.", "nsi_id": "unitedstatespostalservice-a77078", "operator": "United States Postal Service", "operator:short": "USPS", "operator:type": "public", "operator:wikidata": "Q668687", "ref": "2530900011"}, "type": "Feature"}
{"geometry": {"coordinates": [-81.7275922, 38.356167], "type": "Point"}, "id": "Dry4NGhEBs-WJgDO5P4tzFCFgKk=", "properties": {"@source_uri": "https://tools.usps.com/UspsToolsRestServices/rest/POLocator/findLocations", "@spider": "usps_collection_boxes", "addr:city": "CHARLESTON", "addr:country": "US", "addr:postcode": "25309", "addr:state": "WV", "addr:street_address": "4610 KANAWHA AVE SW", "amenity": "post_box", "collection_times": "Mo-Fr 10:30; Sa 10:00", "nsi_id": "unitedstatespostalservice-a77078", "operator": "United States Postal Service", "operator:short": "USPS", "operator:type": "public", "operator:wikidata": "Q668687", "ref": "2530900015"}, "type": "Feature"}
{"geometry": {"coordinates": [-81.730756, 38.35239], "type": "Point"}, "id": "cuLYBFf_zHPftbK4GZWoFPRpHMQ=", "properties": {"@source_uri": "https://tools.usps.com/UspsToolsRestServices/rest/POLocator/findLocations", "@spider": "usps_collection_boxes", "addr:city": "CHARLESTON", "addr:country": "US", "addr:postcode": "25309", "addr:state": "WV", "addr:street_address": "608 CHESTNUT ST", "amenity": "post_box", "collection_times": "Mo-Fr 10:30; Sa 10:00", "nsi_id": "unitedstatespostalservice-a77078", "operator": "United States Postal Service", "operator:short": "USPS", "operator:type": "public", "operator:wikidata": "Q668687", "ref": "2530900019"}, "type": "Feature"}
{"geometry": {"coordinates": [-81.7142911, 38.328913], "type": "Point"}, "id": "wGlLl21zi16Qd442FTtEcAjjTzY=", "properties": {"@source_uri": "https://tools.usps.com/UspsToolsRestServices/rest/POLocator/findLocations", "@spider": "usps_collection_boxes", "addr:city": "CHARLESTON", "addr:country": "US", "addr:postcode": "25309", "addr:state": "WV", "addr:street_address": "106 R H L BLVD", "amenity": "post_box", "collection_times": "Mo-Sa 11:00", "nsi_id": "unitedstatespostalservice-a77078", "operator": "United States Postal Service", "operator:short": "USPS", "operator:type": "public", "operator:wikidata": "Q668687", "ref": "2530900026"}, "type": "Feature"}
{"geometry": {"coordinates": [-81.7274703, 38.354771], "type": "Point"}, "id": "LuIsoKaBiWpC9pKwG1DfB_zeZPc=", "properties": {"@source_uri": "https://tools.usps.com/UspsToolsRestServices/rest/POLocator/findLocations", "@spider": "usps_collection_boxes", "addr:city": "CHARLESTON", "addr:country": "US", "addr:postcode": "25309", "addr:state": "WV", "addr:street_address": "4607 MACCORKLE AVE SW", "amenity": "post_box", "collection_times": "Mo-Fr 11:00; Sa 10:00", "nsi_id": "unitedstatespostalservice-a77078", "operator": "United States Postal Service", "operator:short": "USPS", "operator:type": "public", "operator:wikidata": "Q668687", "ref": "2530900027"}, "type": "Feature"}
{"geometry": {"coordinates": [-81.712813144, 38.322773453], "type": "Point"}, "id": "5LBtPuqbXeinhkNxq8bIAGDOGBY=", "properties": {"@source_uri": "https://tools.usps.com/UspsToolsRestServices/rest/POLocator/findLocations", "@spider": "usps_collection_boxes", "addr:city": "CHARLESTON", "addr:country": "US", "addr:postcode": "25309", "addr:state": "WV", "addr:street_address": "2470 MOUNTAINEER BLVD", "amenity": "post_box", "collection_times": "Mo-Fr 17:00", "indoor": "yes", "note": "ON 12/24 AND 12/31, THIS BOX MAY BE COLLECTED AS EARLY AS 12 NOON.", "nsi_id": "unitedstatespostalservice-a77078", "operator": "United States Postal Service", "operator:short": "USPS", "operator:type": "public", "operator:wikidata": "Q668687", "ref": "2530900035"}, "type": "Feature"}
{"geometry": {"coordinates": [-81.6102815, 38.336731], "type": "Point"}, "id": "6OLLdeIjCwqXpNCQmHK8nbz563k=", "properties": {"@source_uri": "https://tools.usps.com/UspsToolsRestServices/rest/POLocator/findLocations", "@spider": "usps_collection_boxes", "addr:city": "CHARLESTON", "addr:country": "US", "addr:postcode": "25311", "addr:state": "WV", "addr:street_address": "112 CALIFORNIA AVE", "amenity": "post_box", "collection_times": "Mo-Fr 15:30; Sa 10:00", "note": "ON 12/24 AND 12/31, THIS BOX MAY BE COLLECTED AS EARLY AS 12 NOON.", "nsi_id": "unitedstatespostalservice-a77078", "operator": "United States Postal Service", "operator:short": "USPS", "operator:type": "public", "operator:wikidata": "Q668687", "ref": "2531100001"}, "type": "Feature"}
{"geometry": {"coordinates": [-81.6098018, 38.338033], "type": "Point"}, "id": "ZmLIw9PHqp5br4B1rpUjQbZQJbk=", "properties": {"@source_uri": "https://tools.usps.com/UspsToolsRestServices/rest/POLocator/findLocations", "@spider": "usps_collection_boxes", "addr:city": "CHARLESTON", "addr:country": "US", "addr:postcode": "25311", "addr:state": "WV", "addr:street_address": "212 CALIFORNIA AVE", "amenity": "post_box", "collection_times": "Mo-Fr 15:30; Sa 10:00", "note": "ON 12/24 AND 12/31, THIS BOX MAY BE COLLECTED AS EARLY AS 12 NOON.", "nsi_id": "unitedstatespostalservice-a77078", "operator": "United States Postal Service", "operator:short": "USPS", "operator:type": "public", "operator:wikidata": "Q668687", "ref": "2531100002"}, "type": "Feature"}
{"geometry": {"coordinates": [-81.6253599, 38.341298], "type": "Point"}, "id": "4AYjYU2eQIGukG7NzSIyJeLRi-g=", "properties": {"@source_uri": "https://tools.usps.com/UspsToolsRestServices/rest/POLocator/findLocations", "@spider": "usps_collection_boxes", "addr:city": "CHARLESTON", "addr:country": "US", "addr:postcode": "25311", "addr:state": "WV", "addr:street_address": "1501 VIRGINIA ST E", "amenity": "post_box", "collection_times": "Mo-Sa 09:30", "nsi_id": "unitedstatespostalservice-a77078", "operator": "United States Postal Service", "operator:short": "USPS", "operator:type": "public", "operator:wikidata": "Q668687", "ref": "2531100019"}, "type": "Feature"}
{"geometry": {"coordinates": [-81.6181271, 38.338515], "type": "Point"}, "id": "s2PxI-m9i9VINqfm9M_kjeNkLP8=", "properties": {"@source_uri": "https://tools.usps.com/UspsToolsRestServices/rest/POLocator/findLocations", "@spider": "usps_collection_boxes", "addr:city": "CHARLESTON", "addr:country": "US", "addr:postcode": "25311", "addr:state": "WV", "addr:street_address": "1600 VIRGINIA ST E", "amenity": "post_box", "collection_times": "Mo-Sa 10:00", "nsi_id": "unitedstatespostalservice-a77078", "operator": "United States Postal Service", "operator:short": "USPS", "operator:type": "public", "operator:wikidata": "Q668687", "ref": "2531100022"}, "type": "Feature"}
{"geometry": {"coordinates": [-81.6159940146, 38.3403839908], "type": "Point"}, "id": "ghbFCXVaAbs5y24RF72lP1Lpafw=", "properties": {"@source_uri": "https://tools.usps.com/UspsToolsRestServices/rest/POLocator/findLocations", "@spider": "usps_collection_boxes", "addr:city": "CHARLESTON", "addr:country": "US", "addr:postcode": "25311", "addr:state": "WV", "addr:street_address": "1606 WASHINGTON ST E", "amenity": "post_box", "collection_times": "Mo-Sa 10:00", "nsi_id": "unitedstatespostalservice-a77078", "operator": "United States Postal Service", "operator:short": "USPS", "operator:type": "public", "operator:wikidata": "Q668687", "ref": "2531100025"}, "type": "Feature"}
{"geometry": {"coordinates": [-81.6181572, 38.341166], "type": "Point"}, "id": "pPIhWyZeDlyg-TtwZnuEomtWSaU=", "properties": {"@source_uri": "https://tools.usps.com/UspsToolsRestServices/rest/POLocator/findLocations", "@spider": "usps_collection_boxes", "addr:city": "CHARLESTON", "addr:country": "US", "addr:postcode": "25311", "addr:state": "WV", "addr:street_address": "1579 WASHINGTON ST E", "amenity": "post_box", "collection_times": "Mo-Sa 09:30", "nsi_id": "unitedstatespostalservice-a77078", "operator": "United States Postal Service", "operator:short": "USPS", "operator:type": "public", "operator:wikidata": "Q668687", "ref": "2531100028"}, "type": "Feature"}
{"geometry": {"coordinates": [-81.601661763, 38.34063924], "type": "Point"}, "id": "yCiVPr4ytyzqNB2zx8Dvk76UYUc=", "properties": {"@source_uri": "https://tools.usps.com/UspsToolsRestServices/rest/POLocator/findLocations", "@spider": "usps_collection_boxes", "addr:city": "CHARLESTON", "addr:country": "US", "addr:postcode": "25311", "addr:state": "WV", "addr:street_address": "101 DEE DR", "amenity": "post_box", "collection_times": "Mo-Fr 15:30; Sa 09:00", "note": "ON 12/24 AND 12/31, THIS BOX MAY BE COLLECTED AS EARLY AS 12 NOON.", "nsi_id": "unitedstatespostalservice-a77078", "operator": "United States Postal Service", "operator:short": "USPS", "operator:type": "public", "operator:wikidata": "Q668687", "ref": "2531100041"}, "type": "Feature"}
{"geometry": {"coordinates": [-81.6044831, 38.350957], "type": "Point"}, "id": "1KT02otj35P0Fu5EBLa84Q7APnw=", "properties": {"@source_uri": "https://tools.usps.com/UspsToolsRestServices/rest/POLocator/findLocations", "@spider": "usps_collection_boxes", "addr:city": "CHARLESTON", "addr:country": "US", "addr:postcode": "25311", "addr:state": "WV", "addr:street_address": "1 DEITRICK DR", "amenity": "post_box", "collection_times": "Mo-Fr 15:30; Sa 10:00", "note": "ON 12/24 AND 12/31, THIS BOX MAY BE COLLECTED AS EARLY AS 12 NOON.", "nsi_id": "unitedstatespostalservice-a77078", "operator": "United States Postal Service", "operator:short": "USPS", "operator:type": "public", "operator:wikidata": "Q668687", "ref": "2531100047"}, "type": "Feature"}
{"geometry": {"coordinates": [-81.623153, 38.339316], "type": "Point"}, "id": "6vzZ3I6OSosY7u3sgaWOmnJM8Wg=", "properties": {"@source_uri": "https://tools.usps.com/UspsToolsRestServices/rest/POLocator/findLocations", "@spider": "usps_collection_boxes", "addr:city": "CHARLESTON", "addr:country": "US", "addr:postcode": "25311", "addr:state": "WV", "addr:street_address": "1546 KANAWHA BLVD E", "amenity": "post_box", "collection_times": "Mo-Sa 10:00", "nsi_id": "unitedstatespostalservice-a77078", "operator": "United States Postal Service", "operator:short": "USPS", "operator:type": "public", "operator:wikidata": "Q668687", "ref": "2531100050"}, "type": "Feature"}
{"geometry": {"coordinates": [-81.6069315, 38.33503], "type": "Point"}, "id": "IfGYFSw16SSM_Ivn5XmFkGN_rSk=", "properties": {"@source_uri": "https://tools.usps.com/UspsToolsRestServices/rest/POLocator/findLocations", "@spider": "usps_collection_boxes", "addr:city": "CHARLESTON", "addr:country": "US", "addr:postcode": "25311", "addr:state": "WV", "addr:street_address": "2110 KANAWHA BLVD E", "amenity": "post_box", "collection_times": "Mo-Sa 10:00", "nsi_id": "unitedstatespostalservice-a77078", "operator": "United States Postal Service", "operator:short": "USPS", "operator:type": "public", "operator:wikidata": "Q668687", "ref": "2531100053"}, "type": "Feature"}
{"geometry": {"coordinates": [-81.6619062, 38.372452], "type": "Point"}, "id": "vXGkDLJj64SUSyyDZ7vpVZj-_IY=", "properties": {"@source_uri": "https://tools.usps.com/UspsToolsRestServices/rest/POLocator/findLocations", "@spider": "usps_collection_boxes", "addr:city": "CHARLESTON", "addr:country": "US", "addr:postcode": "25312", "addr:state": "WV", "addr:street_address": "1625 WASHINGTON ST W", "amenity": "post_box", "collection_times": "Mo-Sa 09:30", "nsi_id": "unitedstatespostalservice-a77078", "operator": "United States Postal Service", "operator:short": "USPS", "operator:type": "public", "operator:wikidata": "Q668687", "ref": "2531200007"}, "type": "Feature"}
{"geometry": {"coordinates": [-81.6633779, 38.368379], "type": "Point"}, "id": "p2npQUgs7Lqxur5Y0e8-qZ5v6vQ=", "properties": {"@source_uri": "https://tools.usps.com/UspsToolsRestServices/rest/POLocator/findLocations", "@spider": "usps_collection_boxes", "addr:city": "CHARLESTON", "addr:country": "US", "addr:postcode": "25312", "addr:state": "WV", "addr:street_address": "1550 4TH AVE", "amenity": "post_box", "collection_times": "Mo-Sa 11:00", "nsi_id": "unitedstatespostalservice-a77078", "operator": "United States Postal Service", "operator:short": "USPS", "operator:type": "public", "operator:wikidata": "Q668687", "ref": "2531200011"}, "type": "Feature"}
{"geometry": {"coordinates": [-81.6657238, 38.376377], "type": "Point"}, "id": "JBBF7ymV6cg7vKTiOrV2KZI3HAg=", "properties": {"@source_uri": "https://tools.usps.com/UspsToolsRestServices/rest/POLocator/findLocations", "@spider": "usps_collection_boxes", "addr:city": "CHARLESTON", "addr:country": "US", "addr:postcode": "25312", "addr:state": "WV", "addr:street_address": "901 GRIFFIN DR", "amenity": "post_box", "collection_times": "Mo-Sa 09:00", "nsi_id": "unitedstatespostalservice-a77078", "operator": "United States Postal Service", "operator:short": "USPS", "operator:type": "public", "operator:wikidata": "Q668687", "ref": "2531200014"}, "type": "Feature"}
{"geometry": {"coordinates": [-81.674185401, 38.376152841], "type": "Point"}, "id": "BoTs79BjRGprkYqSiEOpFn9u8H8=", "properties": {"@source_uri": "https://tools.usps.com/UspsToolsRestServices/rest/POLocator/findLocations", "@spider": "usps_collection_boxes", "addr:city": "CHARLESTON", "addr:country": "US", "addr:postcode": "25312", "addr:state": "WV", "addr:street_address": "2328 7TH AVE", "amenity": "post_box", "collection_times": "Mo-Fr 15:00; Sa 14:00", "note": "ON 12/24 AND 12/31, THIS BOX MAY BE COLLECTED AS EARLY AS 12 NOON.", "nsi_id": "unitedstatespostalservice-a77078", "operator": "United States Postal Service", "operator:short": "USPS", "operator:type": "public", "operator:wikidata": "Q668687", "ref": "2531200018"}, "type": "Feature"}
{"geometry": {"coordinates": [-81.674185401, 38.376152841], "type": "Point"}, "id": "VOM-E-9zqv1jYTRGyw2RTVH4WsE=", "properties": {"@source_uri": "https://tools.usps.com/UspsToolsRestServices/rest/POLocator/findLocations", "@spider": "usps_collection_boxes", "addr:city": "CHARLESTON", "addr:country": "US", "addr:postcode": "25312", "addr:state": "WV", "addr:street_address": "2328 7TH AVE", "amenity": "post_box", "collection_times": "Mo-Fr 12:00", "indoor": "yes", "nsi_id": "unitedstatespostalservice-a77078", "operator": "United States Postal Service", "operator:short": "USPS", "operator:type": "public", "operator:wikidata": "Q668687", "ref": "2531200020"}, "type": "Feature"}
{"geometry": {"coordinates": [-81.6700083, 38.369392], "type": "Point"}, "id": "m3hEpEtn412W7bendPclOhROfLM=", "properties": {"@source_uri": "https://tools.usps.com/UspsToolsRestServices/rest/POLocator/findLocations", "@spider": "usps_collection_boxes", "addr:city": "CHARLESTON", "addr:country": "US", "addr:postcode": "25312", "addr:state": "WV", "addr:street_address": "122 HILLS PLZ", "amenity": "post_box", "collection_times": "Mo-Sa 10:00", "nsi_id": "unitedstatespostalservice-a77078", "operator": "United States Postal Service", "operator:short": "USPS", "operator:type": "public", "operator:wikidata": "Q668687", "ref": "2531200021"}, "type": "Feature"}
{"geometry": {"coordinates": [-81.674185401, 38.376152841], "type": "Point"}, "id": "h6X-JxJv4Sucil0q-Lz887pINhQ=", "properties": {"@source_uri": "https://tools.usps.com/UspsToolsRestServices/rest/POLocator/findLocations", "@spider": "usps_collection_boxes", "addr:city": "CHARLESTON", "addr:country": "US", "addr:postcode": "25312", "addr:state": "WV", "addr:street_address": "2328 7TH AVE", "amenity": "post_box", "collection_times": "Mo-Fr 12:30", "indoor": "yes", "note": "ON 12/24 AND 12/31, THIS BOX MAY BE COLLECTED AS EARLY AS 12 NOON.", "nsi_id": "unitedstatespostalservice-a77078", "operator": "United States Postal Service", "operator:short": "USPS", "operator:type": "public", "operator:wikidata": "Q668687", "ref": "2531200024"}, "type": "Feature"}
{"geometry": {"coordinates": [-81.7863145, 38.427259], "type": "Point"}, "id": "OO9NGupdFh9d4x3wOvBX1AuPRfE=", "properties": {"@source_uri": "https://tools.usps.com/UspsToolsRestServices/rest/POLocator/findLocations", "@spider": "usps_collection_boxes", "addr:city": "CHARLESTON", "addr:country": "US", "addr:postcode": "25313", "addr:state": "WV", "addr:street_address": "5450 BIG TYLER RD", "amenity": "post_box", "collection_times": "Mo-Sa 10:00", "nsi_id": "unitedstatespostalservice-a77078", "operator": "United States Postal Service", "operator:short": "USPS", "operator:type": "public", "operator:wikidata": "Q668687", "ref": "2531300002"}, "type": "Feature"}
{"geometry": {"coordinates": [-81.804395, 38.412374], "type": "Point"}, "id": "PkZlFTAlyKtb1riB8T4MTUjsGf8=", "properties": {"@source_uri": "https://tools.usps.com/UspsToolsRestServices/rest/POLocator/findLocations", "@spider": "usps_collection_boxes", "addr:city": "CHARLESTON", "addr:country": "US", "addr:postcode": "25313", "addr:state": "WV", "addr:street_address": "125 LAKEVIEW DR", "amenity": "post_box", "collection_times": "Mo-Sa 10:00", "nsi_id": "unitedstatespostalservice-a77078", "operator": "United States Postal Service", "operator:short": "USPS", "operator:type": "public", "operator:wikidata": "Q668687", "ref": "2531300003"}, "type": "Feature"}
{"geometry": {"coordinates": [-81.7846366, 38.420767], "type": "Point"}, "id": "3e5lgjHMAsEWNpQPCy06KvwWhio=", "properties": {"@source_uri": "https://tools.usps.com/UspsToolsRestServices/rest/POLocator/findLocations", "@spider": "usps_collection_boxes", "addr:city": "CHARLESTON", "addr:country": "US", "addr:postcode": "25313", "addr:state": "WV", "addr:street_address": "5101 WASHINGTON ST W", "amenity": "post_box", "collection_times": "Mo-Sa 10:00", "nsi_id": "unitedstatespostalservice-a77078", "operator": "United States Postal Service", "operator:short": "USPS", "operator:type": "public", "operator:wikidata": "Q668687", "ref": "2531300007"}, "type": "Feature"}
{"geometry": {"coordinates": [-81.8085519, 38.41112], "type": "Point"}, "id": "BTkawBJL9X9IfQC5Xw2Dr8mUhng=", "properties": {"@source_uri": "https://tools.usps.com/UspsToolsRestServices/rest/POLocator/findLocations", "@spider": "usps_collection_boxes", "addr:city": "CHARLESTON", "addr:country": "US", "addr:postcode": "25313", "addr:state": "WV", "addr:street_address": "100 NITRO MARKET PL", "amenity": "post_box", "collection_times": "Mo-Sa 10:00", "nsi_id": "unitedstatespostalservice-a77078", "operator": "United States Postal Service", "operator:short": "USPS", "operator:type": "public", "operator:wikidata": "Q668687", "ref": "2531300008"}, "type": "Feature"}
{"geometry": {"coordinates": [-81.769921889, 38.431961515], "type": "Point"}, "id": "CIvstUzK2Cuv9eLEXNxGmy2o_To=", "properties": {"@source_uri": "https://tools.usps.com/UspsToolsRestServices/rest/POLocator/findLocations", "@spider": "usps_collection_boxes", "addr:city": "CHARLESTON", "addr:country": "US", "addr:postcode": "25313", "addr:state": "WV", "addr:street_address": "5306 BIG TYLER RD", "amenity": "post_box", "collection_times": "Mo-Fr 16:30; Sa 15:00", "note": "ON 12/24 AND 12/31, THIS BOX MAY BE COLLECTED AS EARLY AS 12 NOON.", "nsi_id": "unitedstatespostalservice-a77078", "operator": "United States Postal Service", "operator:short": "USPS", "operator:type": "public", "operator:wikidata": "Q668687", "ref": "2531300010"}, "type": "Feature"}
{"geometry": {"coordinates": [-81.7947274, 38.421312], "type": "Point"}, "id": "zBx-kRmfa3kdNl8hPrrYlxDeCxw=", "properties": {"@source_uri": "https://tools.usps.com/UspsToolsRestServices/rest/POLocator/findLocations", "@spider": "usps_collection_boxes", "addr:city": "CHARLESTON", "addr:country": "US", "addr:postcode": "25313", "addr:state": "WV", "addr:street_address": "903 CROSS LANES DR", "amenity": "post_box", "collection_times": "Mo-Sa 10:00", "nsi_id": "unitedstatespostalservice-a77078", "operator": "United States Postal Service", "operator:short": "USPS", "operator:type": "public", "operator:wikidata": "Q668687", "ref": "2531300011"}, "type": "Feature"}
{"geometry": {"coordinates": [-81.769921889, 38.431961515], "type": "Point"}, "id": "uw9-_sc86OkNUjQcuiGdXemuoZE=", "properties": {"@source_uri": "https://tools.usps.com/UspsToolsRestServices/rest/POLocator/findLocations", "@spider": "usps_collection_boxes", "addr:city": "CHARLESTON", "addr:country": "US", "addr:postcode": "25313", "addr:state": "WV", "addr:street_address": "5306 BIG TYLER RD", "amenity": "post_box", "collection_times": "Mo-Fr 16:30; Sa 15:00", "indoor": "yes", "note": "ON 12/24 AND 12/31, THIS BOX MAY BE COLLECTED AS EARLY AS 12 NOON.", "nsi_id": "unitedstatespostalservice-a77078", "operator": "United States Postal Service", "operator:short": "USPS", "operator:type": "public", "operator:wikidata": "Q668687", "ref": "2531300012"}, "type": "Feature"}
{"geometry": {"coordinates": [-81.6779614, 38.34071], "type": "Point"}, "id": "QUiO-bK4PhbKkgDFUj-I7ZON9WI=", "properties": {"@source_uri": "https://tools.usps.com/UspsToolsRestServices/rest/POLocator/findLocations", "@spider": "usps_collection_boxes", "addr:city": "CHARLESTON", "addr:country": "US", "addr:postcode": "25314", "addr:state": "WV", "addr:street_address": "1100 FLEDDERJOHN RD", "amenity": "post_box", "collection_times": "Mo-Fr 14:00; Sa 09:00", "note": "ON 12/24 AND 12/31, THIS BOX MAY BE COLLECTED AS EARLY AS 12 NOON.", "nsi_id": "unitedstatespostalservice-a77078", "operator": "United States Postal Service", "operator:short": "USPS", "operator:type": "public", "operator:wikidata": "Q668687", "ref": "2531400000"}, "type": "Feature"}
{"geometry": {"coordinates": [-81.6880683, 38.335204], "type": "Point"}, "id": "Z4cDgZoYsd4DiAXRzbaP4d1BvGI=", "properties": {"@source_uri": "https://tools.usps.com/UspsToolsRestServices/rest/POLocator/findLocations", "@spider": "usps_collection_boxes", "addr:city": "CHARLESTON", "addr:country": "US", "addr:postcode": "25314", "addr:state": "WV", "addr:street_address": "402 BOW HUNTER RD", "amenity": "post_box", "collection_times": "Mo-Sa 10:00", "nsi_id": "unitedstatespostalservice-a77078", "operator": "United States Postal Service", "operator:short": "USPS", "operator:type": "public", "operator:wikidata": "Q668687", "ref": "2531400001"}, "type": "Feature"}
{"geometry": {"coordinates": [-81.642759024, 38.3412029866], "type": "Point"}, "id": "v_YRdWtyz7Snzz2lVc1SEF3qUY0=", "properties": {"@source_uri": "https://tools.usps.com/UspsToolsRestServices/rest/POLocator/findLocations", "@spider": "usps_collection_boxes", "addr:city": "CHARLESTON", "addr:country": "US", "addr:postcode": "25314", "addr:state": "WV", "addr:street_address": "1001 BRIDGE RD", "amenity": "post_box", "collection_times": "Mo-Sa 14:30", "note": "ON 12/24 AND 12/31, THIS BOX MAY BE COLLECTED AS EARLY AS 12 NOON.", "nsi_id": "unitedstatespostalservice-a77078", "operator": "United States Postal Service", "operator:short": "USPS", "operator:type": "public", "operator:wikidata": "Q668687", "ref": "2531400002"}, "type": "Feature"}
{"geometry": {"coordinates": [-81.6636831, 38.342244], "type": "Point"}, "id": "-GlCLk0vvStOTXCaBW9psR8HROY=", "properties": {"@source_uri": "https://tools.usps.com/UspsToolsRestServices/rest/POLocator/findLocations", "@spider": "usps_collection_boxes", "addr:city": "CHARLESTON", "addr:country": "US", "addr:postcode": "25314", "addr:state": "WV", "addr:street_address": "888 OAKWOOD RD", "amenity": "post_box", "collection_times": "Mo-Fr 14:00; Sa 09:00", "note": "ON 12/24 AND 12/31, THIS BOX MAY BE COLLECTED AS EARLY AS 12 NOON.", "nsi_id": "unitedstatespostalservice-a77078", "operator": "United States Postal Service", "operator:short": "USPS", "operator:type": "public", "operator:wikidata": "Q668687", "ref": "2531400010"}, "type": "Feature"}
{"geometry": {"coordinates": [-81.6395088, 38.347311], "type": "Point"}, "id": "F2-oDKxvtNu1mPbdUxnta7VfLKA=", "properties": {"@source_uri": "https://tools.usps.com/UspsToolsRestServices/rest/POLocator/findLocations", "@spider": "usps_collection_boxes", "addr:city": "CHARLESTON", "addr:country": "US", "addr:postcode": "25314", "addr:state": "WV", "addr:street_address": "340 MACCORKLE AVE SE", "amenity": "post_box", "collection_times": "Mo-Fr 14:30; Sa 09:00", "note": "ON 12/24 AND 12/31, THIS BOX MAY BE COLLECTED AS EARLY AS 12 NOON.", "nsi_id": "unitedstatespostalservice-a77078", "operator": "United States Postal Service", "operator:short": "USPS", "operator:type": "public", "operator:wikidata": "Q668687", "ref": "2531400013"}, "type": "Feature"}
{"geometry": {"coordinates": [-81.6289354, 38.338495], "type": "Point"}, "id": "lwhREs5obcDi9-Vo87wCQcbXA8k=", "properties": {"@source_uri": "https://tools.usps.com/UspsToolsRestServices/rest/POLocator/findLocations", "@spider": "usps_collection_boxes", "addr:city": "CHARLESTON", "addr:country": "US", "addr:postcode": "25314", "addr:state": "WV", "addr:street_address": "1410 MACCORKLE AVE SE", "amenity": "post_box", "collection_times": "Mo-Fr 14:00; Sa 09:00", "note": "ON 12/24 AND 12/31, THIS BOX MAY BE COLLECTED AS EARLY AS 12 NOON.", "nsi_id": "unitedstatespostalservice-a77078", "operator": "United States Postal Service", "operator:short": "USPS", "operator:type": "public", "operator:wikidata": "Q668687", "ref": "2531400014"}, "type": "Feature"}
{"geometry": {"coordinates": [-81.5367817, 38.223937], "type": "Point"}, "id": "PHckPf_3tpGt9A_ukYlRf6r_WKY=", "properties": {"@source_uri": "https://tools.usps.com/UspsToolsRestServices/rest/POLocator/findLocations", "@spider": "usps_collection_boxes", "addr:city": "CHARLESTON", "addr:country": "US", "addr:postcode": "25315", "addr:state": "WV", "addr:street_address": "12404 MACCORKLE AVE", "amenity": "post_box", "collection_times": "Mo-Fr 13:30; Sa 11:00", "note": "ON 12/24 AND 12/31, THIS BOX MAY BE COLLECTED AS EARLY AS 12 NOON.", "nsi_id": "unitedstatespostalservice-a77078", "operator": "United States Postal Service", "operator:short": "USPS", "operator:type": "public", "operator:wikidata": "Q668687", "ref": "2531500004"}, "type": "Feature"}
{"geometry": {"coordinates": [-81.567657464, 38.246143758], "type": "Point"}, "id": "AiH9yU01CqugTDco7xn3sNQlydY=", "properties": {"@source_uri": "https://tools.usps.com/UspsToolsRestServices/rest/POLocator/findLocations", "@spider": "usps_collection_boxes", "addr:city": "CHARLESTON", "addr:country": "US", "addr:postcode": "25315", "addr:state": "WV", "addr:street_address": "9303 MACCORKLE AVE", "amenity": "post_box", "collection_times": "Mo-Fr 14:00; Sa 12:00", "note": "ON 12/24 AND 12/31, THIS BOX MAY BE COLLECTED AS EARLY AS 12 NOON.", "nsi_id": "unitedstatespostalservice-a77078", "operator": "United States Postal Service", "operator:short": "USPS", "operator:type": "public", "operator:wikidata": "Q668687", "ref": "2531500012"}, "type": "Feature"}
{"geometry": {"coordinates": [-81.567657464, 38.246143758], "type": "Point"}, "id": "QOqF9m3Dz50XiKOmFPEay5NtAxc=", "properties": {"@source_uri": "https://tools.usps.com/UspsToolsRestServices/rest/POLocator/findLocations", "@spider": "usps_collection_boxes", "addr:city": "CHARLESTON", "addr:country": "US", "addr:postcode": "25315", "addr:state": "WV", "addr:street_address": "9303 MACCORKLE AVE", "amenity": "post_box", "collection_times": "Mo-Fr 15:00", "indoor": "yes", "note": "ON 12/24 AND 12/31, THIS BOX MAY BE COLLECTED AS EARLY AS 12 NOON.", "nsi_id": "unitedstatespostalservice-a77078", "operator": "United States Postal Service", "operator:short": "USPS", "operator:type": "public", "operator:wikidata": "Q668687", "ref": "2531500015"}, "type": "Feature"}
{"geometry": {"coordinates": [-81.567657464, 38.246143758], "type": "Point"}, "id": "EcYE9T2strwwsgbdHQqfLcCZxms=", "properties": {"@source_uri": "https://tools.usps.com/UspsToolsRestServices/rest/POLocator/findLocations", "@spider": "usps_collection_boxes", "addr:city": "CHARLESTON", "addr:country": "US", "addr:postcode": "25315", "addr:state": "WV", "addr:street_address": "9303 MACCORKLE AVE", "amenity": "post_box", "collection_times": "Mo-Fr 16:30", "indoor": "yes", "note": "ON 12/24 AND 12/31, THIS BOX MAY BE COLLECTED AS EARLY AS 12 NOON.", "nsi_id": "unitedstatespostalservice-a77078", "operator": "United States Postal Service", "operator:short": "USPS", "operator:type": "public", "operator:wikidata": "Q668687", "ref": "2531500017"}, "type": "Feature"}
{"geometry": {"coordinates": [-81.6714513, 38.476458], "type": "Point"}, "id": "vPFY0XnsoVOvVwS8dR9T98LW5UI=", "properties": {"@source_uri": "https://tools.usps.com/UspsToolsRestServices/rest/POLocator/findLocations", "@spider": "usps_collection_boxes", "addr:city": "CHARLESTON", "addr:country": "US", "addr:postcode": "25320", "addr:state": "WV", "addr:street_address": "6405 SISSONVILLE DR", "amenity": "post_box", "collection_times": "Mo-Sa 12:00", "nsi_id": "unitedstatespostalservice-a77078", "operator": "United States Postal Service", "operator:short": "USPS", "operator:type": "public", "operator:wikidata": "Q668687", "ref": "2532000001"}, "type": "Feature"}
{"geometry": {"coordinates": [-81.668602, 38.466514], "type": "Point"}, "id": "BAQ1jliCmFkGYZElKxLYI-Jpmig=", "properties": {"@source_uri": "https://tools.usps.com/UspsToolsRestServices/rest/POLocator/findLocations", "@spider": "usps_collection_boxes", "addr:city": "CHARLESTON", "addr:country": "US", "addr:postcode": "25320", "addr:state": "WV", "addr:street_address": "6088 SISSONVILLE DR", "amenity": "post_box", "collection_times": "Mo-Fr 15:15; Sa 12:30", "note": "ON 12/24 AND 12/31, THIS BOX MAY BE COLLECTED AS EARLY AS 12 NOON.", "nsi_id": "unitedstatespostalservice-a77078", "operator": "United States Postal Service", "operator:short": "USPS", "operator:type": "public", "operator:wikidata": "Q668687", "ref": "2532000003"}, "type": "Feature"}
{"geometry": {"coordinates": [-81.66851, 38.466453], "type": "Point"}, "id": "bOdiTxaHK3Fl6ONLx1LXaXMRzAE=", "properties": {"@source_uri": "https://tools.usps.com/UspsToolsRestServices/rest/POLocator/findLocations", "@spider": "usps_collection_boxes", "addr:city": "CHARLESTON", "addr:country": "US", "addr:postcode": "25320", "addr:state": "WV", "addr:street_address": "6088 SISSONVILLE DR", "amenity": "post_box", "collection_times": "Mo-Fr 16:30; Sa 12:30", "indoor": "yes", "note": "ON 12/24 AND 12/31, THIS BOX MAY BE COLLECTED AS EARLY AS 12 NOON.", "nsi_id": "unitedstatespostalservice-a77078", "operator": "United States Postal Service", "operator:short": "USPS", "operator:type": "public", "operator:wikidata": "Q668687", "ref": "2532000004"}, "type": "Feature"}
{"geometry": {"coordinates": [-81.668502659, 38.466537905], "type": "Point"}, "id": "JNbdYofi4eQAPAp9JSOIyyt8tJY=", "properties": {"@source_uri": "https://tools.usps.com/UspsToolsRestServices/rest/POLocator/findLocations", "@spider": "usps_collection_boxes", "addr:city": "CHARLESTON", "addr:country": "US", "addr:postcode": "25320", "addr:state": "WV", "addr:street_address": "6088 SISSONVILLE DR", "amenity": "post_box", "collection_times": "Mo-Fr 16:30; Sa 12:30", "indoor": "yes", "note": "ON 12/24 AND 12/31, THIS BOX MAY BE COLLECTED AS EARLY AS 12 NOON.", "nsi_id": "unitedstatespostalservice-a77078", "operator": "United States Postal Service", "operator:short": "USPS", "operator:type": "public", "operator:wikidata": "Q668687", "ref": "2532000007"}, "type": "Feature"}
{"geometry": {"coordinates": [-81.635082721, 38.353653417], "type": "Point"}, "id": "PDqbTJz7t1vY3YSD2VxT5B-GvXk=", "properties": {"@source_uri": "https://tools.usps.com/UspsToolsRestServices/rest/POLocator/findLocations", "@spider": "usps_collection_boxes", "addr:city": "CHARLESTON", "addr:country": "US", "addr:postcode": "25375", "addr:state": "WV", "addr:street_address": "1081 CHARLESTON TOWN CTR", "amenity": "post_box", "collection_times": "Mo-Sa 16:00", "indoor": "yes", "note": "ON 12/24 AND 12/31, THIS BOX MAY BE COLLECTED AS EARLY AS 12 NOON.", "nsi_id": "unitedstatespostalservice-a77078", "operator": "United States Postal Service", "operator:short": "USPS", "operator:type": "public", "operator:wikidata": "Q668687", "ref": "2537500000"}, "type": "Feature"}
{"geometry": {"coordinates": [-81.635082721, 38.353653417], "type": "Point"}, "id": "SMKO9-UmiHA-45PlJ-4QqZhD-Ek=", "properties": {"@source_uri": "https://tools.usps.com/UspsToolsRestServices/rest/POLocator/findLocations", "@spider": "usps_collection_boxes", "addr:city": "CHARLESTON", "addr:country": "US", "addr:postcode": "25375", "addr:state": "WV", "addr:street_address": "1081 CHARLESTON TOWN CTR", "amenity": "post_box", "collection_times": "Mo-Sa 16:00", "indoor": "yes", "note": "ON 12/24 AND 12/31, THIS BOX MAY BE COLLECTED AS EARLY AS 12 NOON.", "nsi_id": "unitedstatespostalservice-a77078", "operator": "United States Postal Service", "operator:short": "USPS", "operator:type": "public", "operator:wikidata": "Q668687", "ref": "2537500001"}, "type": "Feature"}
{"geometry": {"coordinates": [-81.635088914, 38.353649471], "type": "Point"}, "id": "R6HmUAw_k70tofwLqJLQLL9wnNE=", "properties": {"@source_uri": "https://tools.usps.com/UspsToolsRestServices/rest/POLocator/findLocations", "@spider": "usps_collection_boxes", "addr:city": "CHARLESTON", "addr:country": "US", "addr:postcode": "25389", "addr:state": "WV", "addr:street_address": "1057 CHARLESTON TOWN CTR", "amenity": "post_box", "collection_times": "Mo-Fr 18:00; Sa 16:00", "indoor": "yes", "note": "ON 12/24 AND 12/31, THIS BOX MAY BE COLLECTED AS EARLY AS 12 NOON.", "nsi_id": "unitedstatespostalservice-a77078", "operator": "United States Postal Service", "operator:short": "USPS", "operator:type": "public", "operator:wikidata": "Q668687", "ref": "2538900002"}, "type": "Feature"}
