{"dataset_attributes": {"@spider": "usps_collection_boxes", "spider:collection_time": "2023-10-28T08:22:24.083666"}, "geometry": {"coordinates": [-77.9651069725, 39.4573559889], "type": "Point"}, "id": "pOt34Sb4OvcT58GbjLkNYR8sWNM=", "properties": {"@spider": "usps_collection_boxes", "addr:city": "MARTINSBURG", "addr:country": "US", "addr:full": "109 S COLLEGE ST", "addr:postcode": "25401", "addr:state": "WV", "amenity": "post_box", "brand": "United States Postal Service", "brand:wikidata": "Q668687", "collection_times": "Mo-Fr 15:30; Sa 09:30", "name": "USPS COLLECTION BOX - BLUE BOX", "note": "ON 12/24 AND 12/31, THIS BOX MAY BE COLLECTED AS EARLY AS 12 NOON.", "nsi_id": "unitedstatespostalservice-a77078", "operator": "United States Postal Service", "operator:short": "USPS", "operator:type": "public", "operator:wikidata": "Q668687", "ref": "2540100001"}, "type": "Feature"}
{"dataset_attributes": {"@spider": "usps_collection_boxes", "spider:collection_time": "2023-10-28T08:22:24.083666"}, "geometry": {"coordinates": [-77.9648762, 39.453708], "type": "Point"}, "id": "NQO1LSei65-qvAVYOZnTHPjf2Yg=", "properties": {"@spider": "usps_collection_boxes", "addr:city": "MARTINSBURG", "addr:country": "US", "addr:full": "401 S QUEEN ST", "addr:postcode": "25401", "addr:state": "WV", "amenity": "post_box", "brand": "United States Postal Service", "brand:wikidata": "Q668687", "collection_times": "Mo-Fr 15:30; Sa 10:30", "name": "USPS COLLECTION BOX - BLUE BOX", "note": "ON 12/24 AND 12/31, THIS BOX MAY BE COLLECTED AS EARLY AS 12 NOON.", "nsi_id": "unitedstatespostalservice-a77078", "operator": "United States Postal Service", "operator:short": "USPS", "operator:type": "public", "operator:wikidata": "Q668687", "ref": "2540100008"}, "type": "Feature"}
{"dataset_attributes": {"@spider": "usps_collection_boxes", "spider:collection_time": "2023-10-28T08:22:24.083666"}, "geometry": {"coordinates": [-77.9596947, 39.450552], "type": "Point"}, "id": "DmjY2Ovb58jfUGbAq60RaoK7zYA=", "properties": {"@spider": "usps_collection_boxes", "addr:city": "MARTINSBURG", "addr:country": "US", "addr:full": "419 E STEPHEN ST", "addr:postcode": "25401", "addr:state": "WV", "amenity": "post_box", "brand": "United States Postal Service", "brand:wikidata": "Q668687", "collection_times": "Mo-Sa 14:00", "name": "USPS COLLECTION BOX - BLUE BOX", "note": "ON 12/24 AND 12/31, THIS BOX MAY BE COLLECTED AS EARLY AS 12 NOON.", "nsi_id": "unitedstatespostalservice-a77078", "operator": "United States Postal Service", "operator:short": "USPS", "operator:type": "public", "operator:wikidata": "Q668687", "ref": "2540100010"}, "type": "Feature"}
{"dataset_attributes": {"@spider": "usps_collection_boxes", "spider:collection_time": "2023-10-28T08:22:24.083666"}, "geometry": {"coordinates": [-77.9585072856, 39.4836837902], "type": "Point"}, "id": "VSHyRfrKuzcQRtyICryQs5Muv0M=", "properties": {"@spider": "usps_collection_boxes", "addr:city": "MARTINSBURG", "addr:country": "US", "addr:full": "85 AIKENS CENTER", "addr:postcode": "25401", "addr:state": "WV", "amenity": "post_box", "brand": "United States Postal Service", "brand:wikidata": "Q668687", "collection_times": "Mo-Fr 15:30; Sa 11:00", "name": "USPS COLLECTION BOX - BLUE BOX", "note": "ON 12/24 AND 12/31, THIS BOX MAY BE COLLECTED AS EARLY AS 12 NOON.", "nsi_id": "unitedstatespostalservice-a77078", "operator": "United States Postal Service", "operator:short": "USPS", "operator:type": "public", "operator:wikidata": "Q668687", "ref": "2540100013"}, "type": "Feature"}
{"dataset_attributes": {"@spider": "usps_collection_boxes", "spider:collection_time": "2023-10-28T08:22:24.083666"}, "geometry": {"coordinates": [-77.958675035, 39.488585996], "type": "Point"}, "id": "EjoF6UA2aYbGkFBkZ26YIPql4qE=", "properties": {"@spider": "usps_collection_boxes", "addr:city": "MARTINSBURG", "addr:country": "US", "addr:full": "17 WAGLEY DRIVE", "addr:postcode": "25401", "addr:state": "WV", "amenity": "post_box", "brand": "United States Postal Service", "brand:wikidata": "Q668687", "collection_times": "Mo-Sa 12:30", "name": "USPS COLLECTION BOX - BLUE BOX", "note": "ON 12/24 AND 12/31, THIS BOX MAY BE COLLECTED AS EARLY AS 12 NOON.", "nsi_id": "unitedstatespostalservice-a77078", "operator": "United States Postal Service", "operator:short": "USPS", "operator:type": "public", "operator:wikidata": "Q668687", "ref": "2540100017"}, "type": "Feature"}
{"dataset_attributes": {"@spider": "usps_collection_boxes", "spider:collection_time": "2023-10-28T08:22:24.083666"}, "geometry": {"coordinates": [-77.9450649, 39.464798], "type": "Point"}, "id": "Tgf4xb-ME0KgVBaa_MrR5FwdAnk=", "properties": {"@spider": "usps_collection_boxes", "addr:city": "MARTINSBURG", "addr:country": "US", "addr:full": "846 E MOLER AVE", "addr:postcode": "25401", "addr:state": "WV", "amenity": "post_box", "brand": "United States Postal Service", "brand:wikidata": "Q668687", "collection_times": "Mo-Sa 10:00", "name": "USPS COLLECTION BOX - BLUE BOX", "nsi_id": "unitedstatespostalservice-a77078", "operator": "United States Postal Service", "operator:short": "USPS", "operator:type": "public", "operator:wikidata": "Q668687", "ref": "2540100021"}, "type": "Feature"}
{"dataset_attributes": {"@spider": "usps_collection_boxes", "spider:collection_time": "2023-10-28T08:22:24.083666"}, "geometry": {"coordinates": [-77.9882368, 39.458582], "type": "Point"}, "id": "_p4MzRyYjMvxoP7a9q12cYuIF_s=", "properties": {"@spider": "usps_collection_boxes", "addr:city": "MARTINSBURG", "addr:country": "US", "addr:full": "600 FOXCROFT APTS", "addr:postcode": "25401", "addr:state": "WV", "amenity": "post_box", "brand": "United States Postal Service", "brand:wikidata": "Q668687", "collection_times": "Mo-Fr 11:00; Sa 10:00", "name": "USPS COLLECTION BOX - BLUE BOX", "nsi_id": "unitedstatespostalservice-a77078", "operator": "United States Postal Service", "operator:short": "USPS", "operator:type": "public", "operator:wikidata": "Q668687", "ref": "2540100022"}, "type": "Feature"}
{"dataset_attributes": {"@spider": "usps_collection_boxes", "spider:collection_time": "2023-10-28T08:22:24.083666"}, "geometry": {"coordinates": [-77.9875359, 39.463048], "type": "Point"}, "id": "iR3LXT8OrWBcGXhHZmgr5bPLkbE=", "properties": {"@spider": "usps_collection_boxes", "addr:city": "MARTINSBURG", "addr:country": "US", "addr:full": "206 S VIKING WAY", "addr:postcode": "25401", "addr:state": "WV", "amenity": "post_box", "brand": "United States Postal Service", "brand:wikidata": "Q668687", "collection_times": "Mo-Sa 10:30", "name": "USPS COLLECTION BOX - BLUE BOX", "nsi_id": "unitedstatespostalservice-a77078", "operator": "United States Postal Service", "operator:short": "USPS", "operator:type": "public", "operator:wikidata": "Q668687", "ref": "2540100024"}, "type": "Feature"}
{"dataset_attributes": {"@spider": "usps_collection_boxes", "spider:collection_time": "2023-10-28T08:22:24.083666"}, "geometry": {"coordinates": [-77.9691726, 39.454559], "type": "Point"}, "id": "IxgOZFZDeDMjIMxbKICl3DZOdW4=", "properties": {"@spider": "usps_collection_boxes", "addr:city": "MARTINSBURG", "addr:country": "US", "addr:full": "400 W STEPHEN ST", "addr:postcode": "25401", "addr:state": "WV", "amenity": "post_box", "brand": "United States Postal Service", "brand:wikidata": "Q668687", "collection_times": "Mo-Fr 15:30; Sa 09:00", "name": "USPS COLLECTION BOX - BLUE BOX", "note": "ON 12/24 AND 12/31, THIS BOX MAY BE COLLECTED AS EARLY AS 12 NOON.", "nsi_id": "unitedstatespostalservice-a77078", "operator": "United States Postal Service", "operator:short": "USPS", "operator:type": "public", "operator:wikidata": "Q668687", "ref": "2540100025"}, "type": "Feature"}
{"dataset_attributes": {"@spider": "usps_collection_boxes", "spider:collection_time": "2023-10-28T08:22:24.083666"}, "geometry": {"coordinates": [-77.9643656, 39.456347], "type": "Point"}, "id": "asTjETlMkJLJSmfhB69SMNNntfk=", "properties": {"@spider": "usps_collection_boxes", "addr:city": "MARTINSBURG", "addr:country": "US", "addr:full": "100 W KING ST", "addr:postcode": "25401", "addr:state": "WV", "amenity": "post_box", "brand": "United States Postal Service", "brand:wikidata": "Q668687", "collection_times": "Mo-Fr 15:30; Sa 09:30", "name": "USPS COLLECTION BOX - BLUE BOX", "note": "ON 12/24 AND 12/31, THIS BOX MAY BE COLLECTED AS EARLY AS 12 NOON.", "nsi_id": "unitedstatespostalservice-a77078", "operator": "United States Postal Service", "operator:short": "USPS", "operator:type": "public", "operator:wikidata": "Q668687", "ref": "2540100028"}, "type": "Feature"}
{"dataset_attributes": {"@spider": "usps_collection_boxes", "spider:collection_time": "2023-10-28T08:22:24.083666"}, "geometry": {"coordinates": [-77.9638071, 39.456809], "type": "Point"}, "id": "jSIte2BxBCLZepARiCEj7v5SgKw=", "properties": {"@spider": "usps_collection_boxes", "addr:city": "MARTINSBURG", "addr:country": "US", "addr:full": "134 S QUEEN ST", "addr:postcode": "25401", "addr:state": "WV", "amenity": "post_box", "brand": "United States Postal Service", "brand:wikidata": "Q668687", "collection_times": "Mo-Fr 11:00; Sa 09:30", "name": "USPS COLLECTION BOX - BLUE BOX", "nsi_id": "unitedstatespostalservice-a77078", "operator": "United States Postal Service", "operator:short": "USPS", "operator:type": "public", "operator:wikidata": "Q668687", "ref": "2540100029"}, "type": "Feature"}
{"dataset_attributes": {"@spider": "usps_collection_boxes", "spider:collection_time": "2023-10-28T08:22:24.083666"}, "geometry": {"coordinates": [-77.9067096, 39.543639], "type": "Point"}, "id": "7xLPOGgQT6-r5FbAtTjT0-oRsd4=", "properties": {"@spider": "usps_collection_boxes", "addr:city": "MARTINSBURG", "addr:country": "US", "addr:full": "5724 HAMMONDS MILL RD", "addr:postcode": "25401", "addr:state": "WV", "amenity": "post_box", "brand": "United States Postal Service", "brand:wikidata": "Q668687", "collection_times": "Mo-Sa 12:00", "name": "USPS COLLECTION BOX - BLUE BOX", "nsi_id": "unitedstatespostalservice-a77078", "operator": "United States Postal Service", "operator:short": "USPS", "operator:type": "public", "operator:wikidata": "Q668687", "ref": "2540100035"}, "type": "Feature"}
{"dataset_attributes": {"@spider": "usps_collection_boxes", "spider:collection_time": "2023-10-28T08:22:24.083666"}, "geometry": {"coordinates": [-77.9703814, 39.472979], "type": "Point"}, "id": "-fxu4t9vO1V15Wh6beAGXX5vscc=", "properties": {"@spider": "usps_collection_boxes", "addr:city": "MARTINSBURG", "addr:country": "US", "addr:full": "309 ROCK CLIFF DR", "addr:postcode": "25401", "addr:state": "WV", "amenity": "post_box", "brand": "United States Postal Service", "brand:wikidata": "Q668687", "collection_times": "Mo-Fr 15:30; Sa 14:00", "name": "USPS COLLECTION BOX - BLUE BOX", "note": "ON 12/24 AND 12/31, THIS BOX MAY BE COLLECTED AS EARLY AS 12 NOON.", "nsi_id": "unitedstatespostalservice-a77078", "operator": "United States Postal Service", "operator:short": "USPS", "operator:type": "public", "operator:wikidata": "Q668687", "ref": "2540100036"}, "type": "Feature"}
{"dataset_attributes": {"@spider": "usps_collection_boxes", "spider:collection_time": "2023-10-28T08:22:24.083666"}, "geometry": {"coordinates": [-77.980969976, 39.473879989], "type": "Point"}, "id": "_wmJ16DZFKijFis_cJZ42WvCA0c=", "properties": {"@spider": "usps_collection_boxes", "addr:city": "MARTINSBURG", "addr:country": "US", "addr:full": "2000 FOUNDATION WAY", "addr:postcode": "25401", "addr:state": "WV", "amenity": "post_box", "brand": "United States Postal Service", "brand:wikidata": "Q668687", "collection_times": "Mo-Sa 12:00", "name": "USPS COLLECTION BOX - BLUE BOX", "nsi_id": "unitedstatespostalservice-a77078", "operator": "United States Postal Service", "operator:short": "USPS", "operator:type": "public", "operator:wikidata": "Q668687", "ref": "2540100044"}, "type": "Feature"}
{"dataset_attributes": {"@spider": "usps_collection_boxes", "spider:collection_time": "2023-10-28T08:22:24.083666"}, "geometry": {"coordinates": [-77.9691599, 39.454563], "type": "Point"}, "id": "q6UlXecgpG6bGVr6RPqS9wNcDRY=", "properties": {"@spider": "usps_collection_boxes", "addr:city": "MARTINSBURG", "addr:country": "US", "addr:full": "400 W STEPHEN ST", "addr:postcode": "25401", "addr:state": "WV", "amenity": "post_box", "brand": "United States Postal Service", "brand:wikidata": "Q668687", "collection_times": "Mo-Fr 15:30; Sa 09:00", "name": "USPS COLLECTION BOX - BLUE BOX", "note": "ON 12/24 AND 12/31, THIS BOX MAY BE COLLECTED AS EARLY AS 12 NOON.", "nsi_id": "unitedstatespostalservice-a77078", "operator": "United States Postal Service", "operator:short": "USPS", "operator:type": "public", "operator:wikidata": "Q668687", "ref": "2540100049"}, "type": "Feature"}
{"dataset_attributes": {"@spider": "usps_collection_boxes", "spider:collection_time": "2023-10-28T08:22:24.083666"}, "geometry": {"coordinates": [-77.9366222, 39.503744], "type": "Point"}, "id": "6lq6rxR7ERVUmQNiILfOFaoDEjg=", "properties": {"@spider": "usps_collection_boxes", "addr:city": "MARTINSBURG", "addr:country": "US", "addr:full": "801 ELM DR", "addr:postcode": "25401", "addr:state": "WV", "amenity": "post_box", "brand": "United States Postal Service", "brand:wikidata": "Q668687", "collection_times": "Mo-Sa 10:00", "name": "USPS COLLECTION BOX - BLUE BOX", "nsi_id": "unitedstatespostalservice-a77078", "operator": "United States Postal Service", "operator:short": "USPS", "operator:type": "public", "operator:wikidata": "Q668687", "ref": "2540100054"}, "type": "Feature"}
{"dataset_attributes": {"@spider": "usps_collection_boxes", "spider:collection_time": "2023-10-28T08:22:24.083666"}, "geometry": {"coordinates": [-77.9581599, 39.479312], "type": "Point"}, "id": "d0QIe0Thq0hoFo3XM3PLcfMAcNM=", "properties": {"@spider": "usps_collection_boxes", "addr:city": "MARTINSBURG", "addr:country": "US", "addr:full": "1355 OLD COURTHOUSE SQ", "addr:postcode": "25401", "addr:state": "WV", "amenity": "post_box", "brand": "United States Postal Service", "brand:wikidata": "Q668687", "collection_times": "Mo-Fr 18:00; Sa 17:00", "name": "USPS COLLECTION BOX - BLUE BOX", "note": "ON 12/24 AND 12/31, THIS BOX MAY BE COLLECTED AS EARLY AS 12 NOON.", "nsi_id": "unitedstatespostalservice-a77078", "operator": "United States Postal Service", "operator:short": "USPS", "operator:type": "public", "operator:wikidata": "Q668687", "ref": "2540100056"}, "type": "Feature"}
{"dataset_attributes": {"@spider": "usps_collection_boxes", "spider:collection_time": "2023-10-28T08:22:24.083666"}, "geometry": {"coordinates": [-77.9578482846, 39.478112849], "type": "Point"}, "id": "frWA39U3oTjYhnWkqarc0i1wBF0=", "properties": {"@spider": "usps_collection_boxes", "addr:city": "MARTINSBURG", "addr:country": "US", "addr:full": "1355 OLD COURTHOUSE SQ", "addr:postcode": "25401", "addr:state": "WV", "amenity": "post_box", "brand": "United States Postal Service", "brand:wikidata": "Q668687", "collection_times": "Mo-Fr 18:00; Sa 17:00", "name": "USPS COLLECTION BOX - BLUE BOX", "note": "ON 12/24 AND 12/31, THIS BOX MAY BE COLLECTED AS EARLY AS 12 NOON.", "nsi_id": "unitedstatespostalservice-a77078", "operator": "United States Postal Service", "operator:short": "USPS", "operator:type": "public", "operator:wikidata": "Q668687", "ref": "2540100057"}, "type": "Feature"}
{"dataset_attributes": {"@spider": "usps_collection_boxes", "spider:collection_time": "2023-10-28T08:22:24.083666"}, "geometry": {"coordinates": [-77.9578482846, 39.478112849], "type": "Point"}, "id": "GJPHd6Muv84YICCy1uG7m0inQC0=", "properties": {"@spider": "usps_collection_boxes", "addr:city": "MARTINSBURG", "addr:country": "US", "addr:full": "1355 OLD COURTHOUSE SQ", "addr:postcode": "25401", "addr:state": "WV", "amenity": "post_box", "brand": "United States Postal Service", "brand:wikidata": "Q668687", "collection_times": "Mo-Fr 18:00; Sa 17:00", "name": "USPS COLLECTION BOX - BLUE BOX", "note": "ON 12/24 AND 12/31, THIS BOX MAY BE COLLECTED AS EARLY AS 12 NOON.", "nsi_id": "unitedstatespostalservice-a77078", "operator": "United States Postal Service", "operator:short": "USPS", "operator:type": "public", "operator:wikidata": "Q668687", "ref": "2540100058"}, "type": "Feature"}
{"dataset_attributes": {"@spider": "usps_collection_boxes", "spider:collection_time": "2023-10-28T08:22:24.083666"}, "geometry": {"coordinates": [-77.9201684, 39.526044], "type": "Point"}, "id": "5thaVcrs8qMb7HwFII9zTqo4B2c=", "properties": {"@spider": "usps_collection_boxes", "addr:city": "MARTINSBURG", "addr:country": "US", "addr:full": "4081 WILLIAMSPORT PIKE", "addr:postcode": "25401", "addr:state": "WV", "amenity": "post_box", "brand": "United States Postal Service", "brand:wikidata": "Q668687", "collection_times": "Mo-Fr 15:30; Sa 15:00", "name": "USPS COLLECTION BOX - BLUE BOX", "note": "ON 12/24 AND 12/31, THIS BOX MAY BE COLLECTED AS EARLY AS 12 NOON.", "nsi_id": "unitedstatespostalservice-a77078", "operator": "United States Postal Service", "operator:short": "USPS", "operator:type": "public", "operator:wikidata": "Q668687", "ref": "2540100061"}, "type": "Feature"}
{"dataset_attributes": {"@spider": "usps_collection_boxes", "spider:collection_time": "2023-10-28T08:22:24.083666"}, "geometry": {"coordinates": [-77.9570899, 39.479551], "type": "Point"}, "id": "I078g5yDhkGOEdzPCyfeteBXAio=", "properties": {"@spider": "usps_collection_boxes", "addr:city": "MARTINSBURG", "addr:country": "US", "addr:full": "1355 OLD COURTHOUSE SQ", "addr:postcode": "25401", "addr:state": "WV", "amenity": "post_box", "brand": "United States Postal Service", "brand:wikidata": "Q668687", "collection_times": "Mo-Sa 18:00", "name": "USPS COLLECTION BOX - PO LOBBY", "note": "ON 12/24 AND 12/31, THIS BOX MAY BE COLLECTED AS EARLY AS 12 NOON.", "nsi_id": "unitedstatespostalservice-a77078", "operator": "United States Postal Service", "operator:short": "USPS", "operator:type": "public", "operator:wikidata": "Q668687", "ref": "2540100062"}, "type": "Feature"}
{"dataset_attributes": {"@spider": "usps_collection_boxes", "spider:collection_time": "2023-10-28T08:22:24.083666"}, "geometry": {"coordinates": [-77.9568272, 39.47936], "type": "Point"}, "id": "gj3lvcz_tit-wG1gDStLCxwyx7w=", "properties": {"@spider": "usps_collection_boxes", "addr:city": "MARTINSBURG", "addr:country": "US", "addr:full": "1355 OLD COURTHOUSE SQ", "addr:postcode": "25401", "addr:state": "WV", "amenity": "post_box", "brand": "United States Postal Service", "brand:wikidata": "Q668687", "collection_times": "Mo-Fr 18:00; Sa 15:30", "name": "USPS COLLECTION BOX - APC", "note": "ON 12/24 AND 12/31, THIS BOX MAY BE COLLECTED AS EARLY AS 12 NOON.", "nsi_id": "unitedstatespostalservice-a77078", "operator": "United States Postal Service", "operator:short": "USPS", "operator:type": "public", "operator:wikidata": "Q668687", "ref": "2540100066"}, "type": "Feature"}
{"dataset_attributes": {"@spider": "usps_collection_boxes", "spider:collection_time": "2023-10-28T08:22:24.083666"}, "geometry": {"coordinates": [-77.9643742, 39.456348], "type": "Point"}, "id": "teI0K4W9w6VLoKuUVwf7C6VnFUQ=", "properties": {"@spider": "usps_collection_boxes", "addr:city": "MARTINSBURG", "addr:country": "US", "addr:full": "100 W KING ST", "addr:postcode": "25401", "addr:state": "WV", "amenity": "post_box", "brand": "United States Postal Service", "brand:wikidata": "Q668687", "collection_times": "Mo-Fr 15:30; Sa 09:30", "name": "USPS COLLECTION BOX - BLUE BOX", "note": "ON 12/24 AND 12/31, THIS BOX MAY BE COLLECTED AS EARLY AS 12 NOON.", "nsi_id": "unitedstatespostalservice-a77078", "operator": "United States Postal Service", "operator:short": "USPS", "operator:type": "public", "operator:wikidata": "Q668687", "ref": "2540100067"}, "type": "Feature"}
{"dataset_attributes": {"@spider": "usps_collection_boxes", "spider:collection_time": "2023-10-28T08:22:24.083666"}, "geometry": {"coordinates": [-77.9683159, 39.453493], "type": "Point"}, "id": "r4QuA0rL79IJ0Szo2kXpcQGBT3M=", "properties": {"@spider": "usps_collection_boxes", "addr:city": "MARTINSBURG", "addr:country": "US", "addr:full": "380 W SOUTH ST", "addr:postcode": "25401", "addr:state": "WV", "amenity": "post_box", "brand": "United States Postal Service", "brand:wikidata": "Q668687", "collection_times": "Mo-Fr 15:30; Sa 09:00", "name": "USPS COLLECTION BOX - BLUE BOX", "note": "ON 12/24 AND 12/31, THIS BOX MAY BE COLLECTED AS EARLY AS 12 NOON.", "nsi_id": "unitedstatespostalservice-a77078", "operator": "United States Postal Service", "operator:short": "USPS", "operator:type": "public", "operator:wikidata": "Q668687", "ref": "2540100068"}, "type": "Feature"}
{"dataset_attributes": {"@spider": "usps_collection_boxes", "spider:collection_time": "2023-10-28T08:22:24.083666"}, "geometry": {"coordinates": [-77.9683176, 39.453484], "type": "Point"}, "id": "B9u9ipTD1RS_CmFovOy9GHhLKIU=", "properties": {"@spider": "usps_collection_boxes", "addr:city": "MARTINSBURG", "addr:country": "US", "addr:full": "380 W SOUTH ST", "addr:postcode": "25401", "addr:state": "WV", "amenity": "post_box", "brand": "United States Postal Service", "brand:wikidata": "Q668687", "collection_times": "Mo-Fr 15:30; Sa 09:00", "name": "USPS COLLECTION BOX - BLUE BOX", "note": "ON 12/24 AND 12/31, THIS BOX MAY BE COLLECTED AS EARLY AS 12 NOON.", "nsi_id": "unitedstatespostalservice-a77078", "operator": "United States Postal Service", "operator:short": "USPS", "operator:type": "public", "operator:wikidata": "Q668687", "ref": "2540100069"}, "type": "Feature"}
{"dataset_attributes": {"@spider": "usps_collection_boxes", "spider:collection_time": "2023-10-28T08:22:24.083666"}, "geometry": {"coordinates": [-77.916307029, 39.417818007], "type": "Point"}, "id": "O7JM5Qwl1G1RCbUqiSTzARPKOow=", "properties": {"@spider": "usps_collection_boxes", "addr:city": "MARTINSBURG", "addr:country": "US", "addr:full": "244 NEEDY RD", "addr:postcode": "25401", "addr:state": "WV", "amenity": "post_box", "brand": "United States Postal Service", "brand:wikidata": "Q668687", "collection_times": "Mo-Fr 10:00", "name": "USPS COLLECTION BOX - BLUE BOX", "nsi_id": "unitedstatespostalservice-a77078", "operator": "United States Postal Service", "operator:short": "USPS", "operator:type": "public", "operator:wikidata": "Q668687", "ref": "2540100070"}, "type": "Feature"}
{"dataset_attributes": {"@spider": "usps_collection_boxes", "spider:collection_time": "2023-10-28T08:22:24.083666"}, "geometry": {"coordinates": [-77.957848285, 39.478112849], "type": "Point"}, "id": "p7dX5N65SF-6LllcMY0Of2yv8DQ=", "properties": {"@spider": "usps_collection_boxes", "addr:city": "MARTINSBURG", "addr:country": "US", "addr:full": "1355 OLD COURTHOUSE SQUARE", "addr:postcode": "25401", "addr:state": "WV", "amenity": "post_box", "brand": "United States Postal Service", "brand:wikidata": "Q668687", "collection_times": "Mo-Fr 18:00; Sa 14:00", "name": "USPS COLLECTION BOX - PO LOBBY", "note": "ON 12/24 AND 12/31, THIS BOX MAY BE COLLECTED AS EARLY AS 12 NOON.", "nsi_id": "unitedstatespostalservice-a77078", "operator": "United States Postal Service", "operator:short": "USPS", "operator:type": "public", "operator:wikidata": "Q668687", "ref": "2540100074"}, "type": "Feature"}
{"dataset_attributes": {"@spider": "usps_collection_boxes", "spider:collection_time": "2023-10-28T08:22:24.083666"}, "geometry": {"coordinates": [-78.2272955, 39.6267], "type": "Point"}, "id": "PotEiuGmSbfBb8Amni10LGAqQfE=", "properties": {"@spider": "usps_collection_boxes", "addr:city": "BERKELEY SPGS", "addr:country": "US", "addr:full": "83 FAIRFAX ST", "addr:postcode": "25411", "addr:state": "WV", "amenity": "post_box", "brand": "United States Postal Service", "brand:wikidata": "Q668687", "collection_times": "Mo-Fr 14:15; Sa 14:00", "name": "USPS COLLECTION BOX - BLUE BOX", "note": "ON 12/24 AND 12/31, THIS BOX MAY BE COLLECTED AS EARLY AS 12 NOON.", "nsi_id": "unitedstatespostalservice-a77078", "operator": "United States Postal Service", "operator:short": "USPS", "operator:type": "public", "operator:wikidata": "Q668687", "ref": "2541100003"}, "type": "Feature"}
{"dataset_attributes": {"@spider": "usps_collection_boxes", "spider:collection_time": "2023-10-28T08:22:24.083666"}, "geometry": {"coordinates": [-78.225130097, 39.630626472], "type": "Point"}, "id": "qAfxmwjKbbe1KCosSzMPDdTiZjk=", "properties": {"@spider": "usps_collection_boxes", "addr:city": "BERKELEY SPGS", "addr:country": "US", "addr:full": "417 N WASHINGTON ST", "addr:postcode": "25411", "addr:state": "WV", "amenity": "post_box", "brand": "United States Postal Service", "brand:wikidata": "Q668687", "collection_times": "Mo-Fr 16:30; Sa 15:30", "name": "USPS COLLECTION BOX - BLUE BOX", "note": "ON 12/24 AND 12/31, THIS BOX MAY BE COLLECTED AS EARLY AS 12 NOON.", "nsi_id": "unitedstatespostalservice-a77078", "operator": "United States Postal Service", "operator:short": "USPS", "operator:type": "public", "operator:wikidata": "Q668687", "ref": "2541100009"}, "type": "Feature"}
{"dataset_attributes": {"@spider": "usps_collection_boxes", "spider:collection_time": "2023-10-28T08:22:24.083666"}, "geometry": {"coordinates": [-78.225130097, 39.630626472], "type": "Point"}, "id": "YF07fRFLQ2QCCUhcvXx0e_DuqcE=", "properties": {"@spider": "usps_collection_boxes", "addr:city": "BERKELEY SPGS", "addr:country": "US", "addr:full": "417 N WASHINGTON ST", "addr:postcode": "25411", "addr:state": "WV", "amenity": "post_box", "brand": "United States Postal Service", "brand:wikidata": "Q668687", "collection_times": "Mo-Fr 16:30; Sa 15:30", "name": "USPS COLLECTION BOX - PO LOBBY", "note": "ON 12/24 AND 12/31, THIS BOX MAY BE COLLECTED AS EARLY AS 12 NOON.", "nsi_id": "unitedstatespostalservice-a77078", "operator": "United States Postal Service", "operator:short": "USPS", "operator:type": "public", "operator:wikidata": "Q668687", "ref": "2541100010"}, "type": "Feature"}
{"dataset_attributes": {"@spider": "usps_collection_boxes", "spider:collection_time": "2023-10-28T08:22:24.083666"}, "geometry": {"coordinates": [-78.225130097, 39.630626472], "type": "Point"}, "id": "F2hLIMFMAn5vbCI06JSxOu4BeCU=", "properties": {"@spider": "usps_collection_boxes", "addr:city": "BERKELEY SPGS", "addr:country": "US", "addr:full": "417 N WASHINGTON ST", "addr:postcode": "25411", "addr:state": "WV", "amenity": "post_box", "brand": "United States Postal Service", "brand:wikidata": "Q668687", "collection_times": "Mo-Fr 16:30; Sa 12:00", "name": "USPS COLLECTION BOX - PO LOBBY", "note": "ON 12/24 AND 12/31, THIS BOX MAY BE COLLECTED AS EARLY AS 12 NOON.", "nsi_id": "unitedstatespostalservice-a77078", "operator": "United States Postal Service", "operator:short": "USPS", "operator:type": "public", "operator:wikidata": "Q668687", "ref": "2541100015"}, "type": "Feature"}
{"dataset_attributes": {"@spider": "usps_collection_boxes", "spider:collection_time": "2023-10-28T08:22:24.083666"}, "geometry": {"coordinates": [-78.052921079, 39.336001857], "type": "Point"}, "id": "tOt7K-zAmhAzmmtJw2fRhHGk0g8=", "properties": {"@spider": "usps_collection_boxes", "addr:city": "BUNKER HILL", "addr:country": "US", "addr:full": "9604 WINCHESTER AVE", "addr:postcode": "25413", "addr:state": "WV", "amenity": "post_box", "brand": "United States Postal Service", "brand:wikidata": "Q668687", "collection_times": "Mo-Fr 16:00; Sa 11:00", "name": "USPS COLLECTION BOX - BLUE BOX", "note": "ON 12/24 AND 12/31, THIS BOX MAY BE COLLECTED AS EARLY AS 12 NOON.", "nsi_id": "unitedstatespostalservice-a77078", "operator": "United States Postal Service", "operator:short": "USPS", "operator:type": "public", "operator:wikidata": "Q668687", "ref": "2541300000"}, "type": "Feature"}
{"dataset_attributes": {"@spider": "usps_collection_boxes", "spider:collection_time": "2023-10-28T08:22:24.083666"}, "geometry": {"coordinates": [-78.052921079, 39.336001857], "type": "Point"}, "id": "x2YIFlLbAMQU_oZhhqCBnot_Suw=", "properties": {"@spider": "usps_collection_boxes", "addr:city": "BUNKER HILL", "addr:country": "US", "addr:full": "9604 WINCHESTER AVE", "addr:postcode": "25413", "addr:state": "WV", "amenity": "post_box", "brand": "United States Postal Service", "brand:wikidata": "Q668687", "collection_times": "Mo-Fr 16:00; Sa 11:00", "name": "USPS COLLECTION BOX - PO LOBBY", "note": "ON 12/24 AND 12/31, THIS BOX MAY BE COLLECTED AS EARLY AS 12 NOON.", "nsi_id": "unitedstatespostalservice-a77078", "operator": "United States Postal Service", "operator:short": "USPS", "operator:type": "public", "operator:wikidata": "Q668687", "ref": "2541300001"}, "type": "Feature"}
{"dataset_attributes": {"@spider": "usps_collection_boxes", "spider:collection_time": "2023-10-28T08:22:24.083666"}, "geometry": {"coordinates": [-78.052921079, 39.336001857], "type": "Point"}, "id": "_V_Dt0mNBqU9y4179KWC0wdNFpA=", "properties": {"@spider": "usps_collection_boxes", "addr:city": "BUNKER HILL", "addr:country": "US", "addr:full": "9604 WINCHESTER AVE", "addr:postcode": "25413", "addr:state": "WV", "amenity": "post_box", "brand": "United States Postal Service", "brand:wikidata": "Q668687", "collection_times": "Mo-Fr 16:00; Sa 11:00", "name": "USPS COLLECTION BOX - PO LOBBY", "note": "ON 12/24 AND 12/31, THIS BOX MAY BE COLLECTED AS EARLY AS 12 NOON.", "nsi_id": "unitedstatespostalservice-a77078", "operator": "United States Postal Service", "operator:short": "USPS", "operator:type": "public", "operator:wikidata": "Q668687", "ref": "2541300003"}, "type": "Feature"}
{"dataset_attributes": {"@spider": "usps_collection_boxes", "spider:collection_time": "2023-10-28T08:22:24.083666"}, "geometry": {"coordinates": [-77.860132309, 39.288972396], "type": "Point"}, "id": "nNCOGoBRtfp_PebW4udrsF6b2E4=", "properties": {"@spider": "usps_collection_boxes", "addr:city": "CHARLES TOWN", "addr:country": "US", "addr:full": "101 W WASHINGTON ST", "addr:postcode": "25414", "addr:state": "WV", "amenity": "post_box", "brand": "United States Postal Service", "brand:wikidata": "Q668687", "collection_times": "Mo-Fr 17:00; Sa 12:00", "name": "USPS COLLECTION BOX - BLUE BOX", "note": "ON 12/24 AND 12/31, THIS BOX MAY BE COLLECTED AS EARLY AS 12 NOON.", "nsi_id": "unitedstatespostalservice-a77078", "operator": "United States Postal Service", "operator:short": "USPS", "operator:type": "public", "operator:wikidata": "Q668687", "ref": "2541400001"}, "type": "Feature"}
{"dataset_attributes": {"@spider": "usps_collection_boxes", "spider:collection_time": "2023-10-28T08:22:24.083666"}, "geometry": {"coordinates": [-77.860132309, 39.288972396], "type": "Point"}, "id": "oH-qZ_aaDf2WmQ2byew5whbfO44=", "properties": {"@spider": "usps_collection_boxes", "addr:city": "CHARLES TOWN", "addr:country": "US", "addr:full": "101 W WASHINGTON ST", "addr:postcode": "25414", "addr:state": "WV", "amenity": "post_box", "brand": "United States Postal Service", "brand:wikidata": "Q668687", "collection_times": "Mo-Fr 17:00; Sa 12:00", "name": "USPS COLLECTION BOX - BLUE BOX", "note": "ON 12/24 AND 12/31, THIS BOX MAY BE COLLECTED AS EARLY AS 12 NOON.", "nsi_id": "unitedstatespostalservice-a77078", "operator": "United States Postal Service", "operator:short": "USPS", "operator:type": "public", "operator:wikidata": "Q668687", "ref": "2541400003"}, "type": "Feature"}
{"dataset_attributes": {"@spider": "usps_collection_boxes", "spider:collection_time": "2023-10-28T08:22:24.083666"}, "geometry": {"coordinates": [-77.860132309, 39.288972396], "type": "Point"}, "id": "Rx7lOkbPcHBT5GQiATzQ61gYouo=", "properties": {"@spider": "usps_collection_boxes", "addr:city": "CHARLES TOWN", "addr:country": "US", "addr:full": "101 W WASHINGTON ST", "addr:postcode": "25414", "addr:state": "WV", "amenity": "post_box", "brand": "United States Postal Service", "brand:wikidata": "Q668687", "collection_times": "Mo-Fr 17:00; Sa 12:00", "name": "USPS COLLECTION BOX - PO LOBBY", "note": "ON 12/24 AND 12/31, THIS BOX MAY BE COLLECTED AS EARLY AS 12 NOON.", "nsi_id": "unitedstatespostalservice-a77078", "operator": "United States Postal Service", "operator:short": "USPS", "operator:type": "public", "operator:wikidata": "Q668687", "ref": "2541400025"}, "type": "Feature"}
{"dataset_attributes": {"@spider": "usps_collection_boxes", "spider:collection_time": "2023-10-28T08:22:24.083666"}, "geometry": {"coordinates": [-77.860132309, 39.288972396], "type": "Point"}, "id": "btMGVnhRGlciS_YykZSRl1NSBbM=", "properties": {"@spider": "usps_collection_boxes", "addr:city": "CHARLES TOWN", "addr:country": "US", "addr:full": "101 W WASHINGTON ST", "addr:postcode": "25414", "addr:state": "WV", "amenity": "post_box", "brand": "United States Postal Service", "brand:wikidata": "Q668687", "collection_times": "Mo-Fr 17:00; Sa 12:30", "name": "USPS COLLECTION BOX - PO LOBBY", "note": "ON 12/24 AND 12/31, THIS BOX MAY BE COLLECTED AS EARLY AS 12 NOON.", "nsi_id": "unitedstatespostalservice-a77078", "operator": "United States Postal Service", "operator:short": "USPS", "operator:type": "public", "operator:wikidata": "Q668687", "ref": "2541400029"}, "type": "Feature"}
{"dataset_attributes": {"@spider": "usps_collection_boxes", "spider:collection_time": "2023-10-28T08:22:24.083666"}, "geometry": {"coordinates": [-77.856772964, 39.589921631], "type": "Point"}, "id": "OC_Oup7_bYJlr5F6oS4F7mWWUhM=", "properties": {"@spider": "usps_collection_boxes", "addr:city": "FALLING WATERS", "addr:country": "US", "addr:full": "9853 WILLIAMSPORT PIKE", "addr:postcode": "25419", "addr:state": "WV", "amenity": "post_box", "brand": "United States Postal Service", "brand:wikidata": "Q668687", "collection_times": "Mo-Fr 16:15; Sa 12:00", "name": "USPS COLLECTION BOX - BLUE BOX", "note": "ON 12/24 AND 12/31, THIS BOX MAY BE COLLECTED AS EARLY AS 12 NOON.", "nsi_id": "unitedstatespostalservice-a77078", "operator": "United States Postal Service", "operator:short": "USPS", "operator:type": "public", "operator:wikidata": "Q668687", "ref": "2541900000"}, "type": "Feature"}
{"dataset_attributes": {"@spider": "usps_collection_boxes", "spider:collection_time": "2023-10-28T08:22:24.083666"}, "geometry": {"coordinates": [-77.856772964, 39.589921631], "type": "Point"}, "id": "0GxgQD7zB5YZWQuH56GX_8N2C_w=", "properties": {"@spider": "usps_collection_boxes", "addr:city": "FALLING WATERS", "addr:country": "US", "addr:full": "9853 WILLIAMSPORT PIKE", "addr:postcode": "25419", "addr:state": "WV", "amenity": "post_box", "brand": "United States Postal Service", "brand:wikidata": "Q668687", "collection_times": "Mo-Fr 16:15; Sa 12:00", "name": "USPS COLLECTION BOX - PO LOBBY", "note": "ON 12/24 AND 12/31, THIS BOX MAY BE COLLECTED AS EARLY AS 12 NOON.", "nsi_id": "unitedstatespostalservice-a77078", "operator": "United States Postal Service", "operator:short": "USPS", "operator:type": "public", "operator:wikidata": "Q668687", "ref": "2541900004"}, "type": "Feature"}
{"dataset_attributes": {"@spider": "usps_collection_boxes", "spider:collection_time": "2023-10-28T08:22:24.083666"}, "geometry": {"coordinates": [-77.856772964, 39.589921631], "type": "Point"}, "id": "7imH8Ox0glJitQGy-E53vfJcMnk=", "properties": {"@spider": "usps_collection_boxes", "addr:city": "FALLING WATERS", "addr:country": "US", "addr:full": "9853 WILLIAMSPORT PIKE", "addr:postcode": "25419", "addr:state": "WV", "amenity": "post_box", "brand": "United States Postal Service", "brand:wikidata": "Q668687", "collection_times": "Mo-Fr 16:30; Sa 12:00", "name": "USPS COLLECTION BOX - PO LOBBY", "note": "ON 12/24 AND 12/31, THIS BOX MAY BE COLLECTED AS EARLY AS 12 NOON.", "nsi_id": "unitedstatespostalservice-a77078", "operator": "United States Postal Service", "operator:short": "USPS", "operator:type": "public", "operator:wikidata": "Q668687", "ref": "2541900007"}, "type": "Feature"}
{"dataset_attributes": {"@spider": "usps_collection_boxes", "spider:collection_time": "2023-10-28T08:22:24.083666"}, "geometry": {"coordinates": [-78.098368, 39.374108], "type": "Point"}, "id": "l32_werhxKDXbf9vB6j_I10Kvkg=", "properties": {"@spider": "usps_collection_boxes", "addr:city": "GERRARDSTOWN", "addr:country": "US", "addr:full": "1498 GERRARDSTOWN RD", "addr:postcode": "25420", "addr:state": "WV", "amenity": "post_box", "brand": "United States Postal Service", "brand:wikidata": "Q668687", "collection_times": "Mo-Fr 15:15; Sa 11:30", "name": "USPS COLLECTION BOX - BLUE BOX", "note": "ON 12/24 AND 12/31, THIS BOX MAY BE COLLECTED AS EARLY AS 12 NOON.", "nsi_id": "unitedstatespostalservice-a77078", "operator": "United States Postal Service", "operator:short": "USPS", "operator:type": "public", "operator:wikidata": "Q668687", "ref": "2542000000"}, "type": "Feature"}
{"dataset_attributes": {"@spider": "usps_collection_boxes", "spider:collection_time": "2023-10-28T08:22:24.083666"}, "geometry": {"coordinates": [-78.09828, 39.374044], "type": "Point"}, "id": "9qoHblivp8y-eycOsRDtKH5XRXU=", "properties": {"@spider": "usps_collection_boxes", "addr:city": "GERRARDSTOWN", "addr:country": "US", "addr:full": "1498 GERRARDSTOWN RD", "addr:postcode": "25420", "addr:state": "WV", "amenity": "post_box", "brand": "United States Postal Service", "brand:wikidata": "Q668687", "collection_times": "Mo-Fr 15:15; Sa 11:30", "name": "USPS COLLECTION BOX - PO LOBBY", "note": "ON 12/24 AND 12/31, THIS BOX MAY BE COLLECTED AS EARLY AS 12 NOON.", "nsi_id": "unitedstatespostalservice-a77078", "operator": "United States Postal Service", "operator:short": "USPS", "operator:type": "public", "operator:wikidata": "Q668687", "ref": "2542000003"}, "type": "Feature"}
{"dataset_attributes": {"@spider": "usps_collection_boxes", "spider:collection_time": "2023-10-28T08:22:24.083666"}, "geometry": {"coordinates": [-78.09836979, 39.374049399], "type": "Point"}, "id": "Zp0vPjWlHpG2g6tqN0MR7uKtl2A=", "properties": {"@spider": "usps_collection_boxes", "addr:city": "GERRARDSTOWN", "addr:country": "US", "addr:full": "1498 GERRARDSTOWN RD", "addr:postcode": "25420", "addr:state": "WV", "amenity": "post_box", "brand": "United States Postal Service", "brand:wikidata": "Q668687", "collection_times": "Mo-Fr 15:30; Sa 11:30", "name": "USPS COLLECTION BOX - PO LOBBY", "note": "ON 12/24 AND 12/31, THIS BOX MAY BE COLLECTED AS EARLY AS 12 NOON.", "nsi_id": "unitedstatespostalservice-a77078", "operator": "United States Postal Service", "operator:short": "USPS", "operator:type": "public", "operator:wikidata": "Q668687", "ref": "2542000005"}, "type": "Feature"}
{"dataset_attributes": {"@spider": "usps_collection_boxes", "spider:collection_time": "2023-10-28T08:22:24.083666"}, "geometry": {"coordinates": [-78.286119, 39.618857], "type": "Point"}, "id": "mZjVbmmzK2MqupfZ0h6id1md5bc=", "properties": {"@spider": "usps_collection_boxes", "addr:city": "GREAT CACAPON", "addr:country": "US", "addr:full": "5010 CENTRAL AVE", "addr:postcode": "25422", "addr:state": "WV", "amenity": "post_box", "brand": "United States Postal Service", "brand:wikidata": "Q668687", "collection_times": "Mo-Fr 16:00; Sa 12:00", "name": "USPS COLLECTION BOX - BLUE BOX", "note": "ON 12/24 AND 12/31, THIS BOX MAY BE COLLECTED AS EARLY AS 12 NOON.", "nsi_id": "unitedstatespostalservice-a77078", "operator": "United States Postal Service", "operator:short": "USPS", "operator:type": "public", "operator:wikidata": "Q668687", "ref": "2542200000"}, "type": "Feature"}
{"dataset_attributes": {"@spider": "usps_collection_boxes", "spider:collection_time": "2023-10-28T08:22:24.083666"}, "geometry": {"coordinates": [-78.286029, 39.618808], "type": "Point"}, "id": "h0B5y9vGPl8XqBgVHIbclfQGlu0=", "properties": {"@spider": "usps_collection_boxes", "addr:city": "GREAT CACAPON", "addr:country": "US", "addr:full": "5010 CENTRAL AVE", "addr:postcode": "25422", "addr:state": "WV", "amenity": "post_box", "brand": "United States Postal Service", "brand:wikidata": "Q668687", "collection_times": "Mo-Fr 16:00; Sa 12:00", "name": "USPS COLLECTION BOX - PO LOBBY", "note": "ON 12/24 AND 12/31, THIS BOX MAY BE COLLECTED AS EARLY AS 12 NOON.", "nsi_id": "unitedstatespostalservice-a77078", "operator": "United States Postal Service", "operator:short": "USPS", "operator:type": "public", "operator:wikidata": "Q668687", "ref": "2542200001"}, "type": "Feature"}
{"dataset_attributes": {"@spider": "usps_collection_boxes", "spider:collection_time": "2023-10-28T08:22:24.083666"}, "geometry": {"coordinates": [-78.2930908, 39.6203228], "type": "Point"}, "id": "UwaQNJ9YxoHojT7teVeGbZuReE8=", "properties": {"@spider": "usps_collection_boxes", "addr:city": "GREAT CACAPON", "addr:country": "US", "addr:full": "5010 CENTRAL AVE", "addr:postcode": "25422", "addr:state": "WV", "amenity": "post_box", "brand": "United States Postal Service", "brand:wikidata": "Q668687", "collection_times": "Mo-Fr 16:00; Sa 12:00", "name": "USPS COLLECTION BOX - PO LOBBY", "note": "ON 12/24 AND 12/31, THIS BOX MAY BE COLLECTED AS EARLY AS 12 NOON.", "nsi_id": "unitedstatespostalservice-a77078", "operator": "United States Postal Service", "operator:short": "USPS", "operator:type": "public", "operator:wikidata": "Q668687", "ref": "2542200003"}, "type": "Feature"}
{"dataset_attributes": {"@spider": "usps_collection_boxes", "spider:collection_time": "2023-10-28T08:22:24.083666"}, "geometry": {"coordinates": [-77.744846974, 39.326467431], "type": "Point"}, "id": "vnaoNfUEw0GQIIeS8VLkpt9NUyI=", "properties": {"@spider": "usps_collection_boxes", "addr:city": "HARPERS FERRY", "addr:country": "US", "addr:full": "1010 WASHINGTON ST", "addr:postcode": "25425", "addr:state": "WV", "amenity": "post_box", "brand": "United States Postal Service", "brand:wikidata": "Q668687", "collection_times": "Mo-Fr 16:00; Sa 12:00", "name": "USPS COLLECTION BOX - BLUE BOX", "note": "ON 12/24 AND 12/31, THIS BOX MAY BE COLLECTED AS EARLY AS 12 NOON.", "nsi_id": "unitedstatespostalservice-a77078", "operator": "United States Postal Service", "operator:short": "USPS", "operator:type": "public", "operator:wikidata": "Q668687", "ref": "2542500000"}, "type": "Feature"}
{"dataset_attributes": {"@spider": "usps_collection_boxes", "spider:collection_time": "2023-10-28T08:22:24.083666"}, "geometry": {"coordinates": [-77.744846974, 39.326467431], "type": "Point"}, "id": "OPmbSFBE1TY6TWNs71qhAOtugCw=", "properties": {"@spider": "usps_collection_boxes", "addr:city": "HARPERS FERRY", "addr:country": "US", "addr:full": "1010 WASHINGTON ST", "addr:postcode": "25425", "addr:state": "WV", "amenity": "post_box", "brand": "United States Postal Service", "brand:wikidata": "Q668687", "collection_times": "Mo-Fr 16:15; Sa 12:00", "name": "USPS COLLECTION BOX - PO LOBBY", "note": "ON 12/24 AND 12/31, THIS BOX MAY BE COLLECTED AS EARLY AS 12 NOON.", "nsi_id": "unitedstatespostalservice-a77078", "operator": "United States Postal Service", "operator:short": "USPS", "operator:type": "public", "operator:wikidata": "Q668687", "ref": "2542500005"}, "type": "Feature"}
{"dataset_attributes": {"@spider": "usps_collection_boxes", "spider:collection_time": "2023-10-28T08:22:24.083666"}, "geometry": {"coordinates": [-77.744846974, 39.326467431], "type": "Point"}, "id": "MM0ghKwecrc_661O8RUiGm0CZNg=", "properties": {"@spider": "usps_collection_boxes", "addr:city": "HARPERS FERRY", "addr:country": "US", "addr:full": "1010 WASHINGTON ST", "addr:postcode": "25425", "addr:state": "WV", "amenity": "post_box", "brand": "United States Postal Service", "brand:wikidata": "Q668687", "collection_times": "Mo-Fr 16:00; Sa 12:00", "name": "USPS COLLECTION BOX - PO LOBBY", "note": "ON 12/24 AND 12/31, THIS BOX MAY BE COLLECTED AS EARLY AS 12 NOON.", "nsi_id": "unitedstatespostalservice-a77078", "operator": "United States Postal Service", "operator:short": "USPS", "operator:type": "public", "operator:wikidata": "Q668687", "ref": "2542500008"}, "type": "Feature"}
{"dataset_attributes": {"@spider": "usps_collection_boxes", "spider:collection_time": "2023-10-28T08:22:24.083666"}, "geometry": {"coordinates": [-78.000942107, 39.558134548], "type": "Point"}, "id": "aekDQjWKIR0RAdLTtF_uRNtDfiE=", "properties": {"@spider": "usps_collection_boxes", "addr:city": "HEDGESVILLE", "addr:country": "US", "addr:full": "5471 HEDGESVILLE RD", "addr:postcode": "25427", "addr:state": "WV", "amenity": "post_box", "brand": "United States Postal Service", "brand:wikidata": "Q668687", "collection_times": "Mo-Fr 16:30; Sa 12:00", "name": "USPS COLLECTION BOX - PO LOBBY", "note": "ON 12/24 AND 12/31, THIS BOX MAY BE COLLECTED AS EARLY AS 12 NOON.", "nsi_id": "unitedstatespostalservice-a77078", "operator": "United States Postal Service", "operator:short": "USPS", "operator:type": "public", "operator:wikidata": "Q668687", "ref": "2542700001"}, "type": "Feature"}
{"dataset_attributes": {"@spider": "usps_collection_boxes", "spider:collection_time": "2023-10-28T08:22:24.083666"}, "geometry": {"coordinates": [-78.0009421067, 39.558134548], "type": "Point"}, "id": "i-uQWBhLCFb6T3F1-Xqtadxyi0U=", "properties": {"@spider": "usps_collection_boxes", "addr:city": "HEDGESVILLE", "addr:country": "US", "addr:full": "5471 HEDGESVILLE RD", "addr:postcode": "25427", "addr:state": "WV", "amenity": "post_box", "brand": "United States Postal Service", "brand:wikidata": "Q668687", "collection_times": "Mo-Fr 16:30; Sa 12:00", "name": "USPS COLLECTION BOX - BLUE BOX", "note": "ON 12/24 AND 12/31, THIS BOX MAY BE COLLECTED AS EARLY AS 12 NOON.", "nsi_id": "unitedstatespostalservice-a77078", "operator": "United States Postal Service", "operator:short": "USPS", "operator:type": "public", "operator:wikidata": "Q668687", "ref": "2542700002"}, "type": "Feature"}
{"dataset_attributes": {"@spider": "usps_collection_boxes", "spider:collection_time": "2023-10-28T08:22:24.083666"}, "geometry": {"coordinates": [-78.000942107, 39.558134548], "type": "Point"}, "id": "J0Cy21xuoifR4NE5w4SM3Ai3ikk=", "properties": {"@spider": "usps_collection_boxes", "addr:city": "HEDGESVILLE", "addr:country": "US", "addr:full": "5471 HEDGESVILLE RD", "addr:postcode": "25427", "addr:state": "WV", "amenity": "post_box", "brand": "United States Postal Service", "brand:wikidata": "Q668687", "collection_times": "Mo-Fr 16:30; Sa 12:00", "name": "USPS COLLECTION BOX - PO LOBBY", "note": "ON 12/24 AND 12/31, THIS BOX MAY BE COLLECTED AS EARLY AS 12 NOON.", "nsi_id": "unitedstatespostalservice-a77078", "operator": "United States Postal Service", "operator:short": "USPS", "operator:type": "public", "operator:wikidata": "Q668687", "ref": "2542700004"}, "type": "Feature"}
{"dataset_attributes": {"@spider": "usps_collection_boxes", "spider:collection_time": "2023-10-28T08:22:24.083666"}, "geometry": {"coordinates": [-78.038588945, 39.359381976], "type": "Point"}, "id": "ioIqgTEElQGHn-K94QSea4anYxQ=", "properties": {"@spider": "usps_collection_boxes", "addr:city": "INWOOD", "addr:country": "US", "addr:full": "7796 WINCHESTER AVE", "addr:postcode": "25428", "addr:state": "WV", "amenity": "post_box", "brand": "United States Postal Service", "brand:wikidata": "Q668687", "collection_times": "Mo-Fr 16:30; Sa 11:30", "name": "USPS COLLECTION BOX - BLUE BOX", "note": "ON 12/24 AND 12/31, THIS BOX MAY BE COLLECTED AS EARLY AS 12 NOON.", "nsi_id": "unitedstatespostalservice-a77078", "operator": "United States Postal Service", "operator:short": "USPS", "operator:type": "public", "operator:wikidata": "Q668687", "ref": "2542800000"}, "type": "Feature"}
{"dataset_attributes": {"@spider": "usps_collection_boxes", "spider:collection_time": "2023-10-28T08:22:24.083666"}, "geometry": {"coordinates": [-78.038588945, 39.359381976], "type": "Point"}, "id": "p5tMt7bPAzCctvzCxqJ_3O7uUa4=", "properties": {"@spider": "usps_collection_boxes", "addr:city": "INWOOD", "addr:country": "US", "addr:full": "7796 WINCHESTER AVE", "addr:postcode": "25428", "addr:state": "WV", "amenity": "post_box", "brand": "United States Postal Service", "brand:wikidata": "Q668687", "collection_times": "Mo-Fr 16:30; Sa 11:30", "name": "USPS COLLECTION BOX - PO LOBBY", "note": "ON 12/24 AND 12/31, THIS BOX MAY BE COLLECTED AS EARLY AS 12 NOON.", "nsi_id": "unitedstatespostalservice-a77078", "operator": "United States Postal Service", "operator:short": "USPS", "operator:type": "public", "operator:wikidata": "Q668687", "ref": "2542800001"}, "type": "Feature"}
{"dataset_attributes": {"@spider": "usps_collection_boxes", "spider:collection_time": "2023-10-28T08:22:24.083666"}, "geometry": {"coordinates": [-78.038588945, 39.359381976], "type": "Point"}, "id": "53Weu8G-S9U9L-yy_HyPPwd5Jz8=", "properties": {"@spider": "usps_collection_boxes", "addr:city": "INWOOD", "addr:country": "US", "addr:full": "7796 WINCHESTER AVE", "addr:postcode": "25428", "addr:state": "WV", "amenity": "post_box", "brand": "United States Postal Service", "brand:wikidata": "Q668687", "collection_times": "Mo-Fr 16:30; Sa 11:30", "name": "USPS COLLECTION BOX - PO LOBBY", "note": "ON 12/24 AND 12/31, THIS BOX MAY BE COLLECTED AS EARLY AS 12 NOON.", "nsi_id": "unitedstatespostalservice-a77078", "operator": "United States Postal Service", "operator:short": "USPS", "operator:type": "public", "operator:wikidata": "Q668687", "ref": "2542800004"}, "type": "Feature"}
{"dataset_attributes": {"@spider": "usps_collection_boxes", "spider:collection_time": "2023-10-28T08:22:24.083666"}, "geometry": {"coordinates": [-77.9128346, 39.401428], "type": "Point"}, "id": "r8h_s43I5Uc5qfNdAs7jeQgvTTw=", "properties": {"@spider": "usps_collection_boxes", "addr:city": "KEARNEYSVILLE", "addr:country": "US", "addr:full": "250 MURALL DR", "addr:postcode": "25430", "addr:state": "WV", "amenity": "post_box", "brand": "United States Postal Service", "brand:wikidata": "Q668687", "collection_times": "Mo-Sa 11:30", "name": "USPS COLLECTION BOX - BLUE BOX", "nsi_id": "unitedstatespostalservice-a77078", "operator": "United States Postal Service", "operator:short": "USPS", "operator:type": "public", "operator:wikidata": "Q668687", "ref": "2543000000"}, "type": "Feature"}
{"dataset_attributes": {"@spider": "usps_collection_boxes", "spider:collection_time": "2023-10-28T08:22:24.083666"}, "geometry": {"coordinates": [-77.885323462, 39.387076901], "type": "Point"}, "id": "dy0BxQBDjKjr8CbqPoEd1c-PgVA=", "properties": {"@spider": "usps_collection_boxes", "addr:city": "KEARNEYSVILLE", "addr:country": "US", "addr:full": "5512 CHARLES TOWN RD", "addr:postcode": "25430", "addr:state": "WV", "amenity": "post_box", "brand": "United States Postal Service", "brand:wikidata": "Q668687", "collection_times": "Mo-Fr 16:30; Sa 11:30", "name": "USPS COLLECTION BOX - BLUE BOX", "note": "ON 12/24 AND 12/31, THIS BOX MAY BE COLLECTED AS EARLY AS 12 NOON.", "nsi_id": "unitedstatespostalservice-a77078", "operator": "United States Postal Service", "operator:short": "USPS", "operator:type": "public", "operator:wikidata": "Q668687", "ref": "2543000001"}, "type": "Feature"}
{"dataset_attributes": {"@spider": "usps_collection_boxes", "spider:collection_time": "2023-10-28T08:22:24.083666"}, "geometry": {"coordinates": [-77.854748, 39.35358], "type": "Point"}, "id": "5-B1Slj5gY1kAzw2_GzJNNVNOmA=", "properties": {"@spider": "usps_collection_boxes", "addr:city": "KEARNEYSVILLE", "addr:country": "US", "addr:full": "5512 CHARLESTOWN RD", "addr:postcode": "25430", "addr:state": "WV", "amenity": "post_box", "brand": "United States Postal Service", "brand:wikidata": "Q668687", "collection_times": "Mo-Fr 16:30; Sa 11:30", "name": "USPS COLLECTION BOX - PO LOBBY", "note": "ON 12/24 AND 12/31, THIS BOX MAY BE COLLECTED AS EARLY AS 12 NOON.", "nsi_id": "unitedstatespostalservice-a77078", "operator": "United States Postal Service", "operator:short": "USPS", "operator:type": "public", "operator:wikidata": "Q668687", "ref": "2543000002"}, "type": "Feature"}
{"dataset_attributes": {"@spider": "usps_collection_boxes", "spider:collection_time": "2023-10-28T08:22:24.083666"}, "geometry": {"coordinates": [-77.885323462, 39.387076901], "type": "Point"}, "id": "cvgCrB1kivpd0hFjD5761yRltkE=", "properties": {"@spider": "usps_collection_boxes", "addr:city": "KEARNEYSVILLE", "addr:country": "US", "addr:full": "5512 CHARLES TOWN RD", "addr:postcode": "25430", "addr:state": "WV", "amenity": "post_box", "brand": "United States Postal Service", "brand:wikidata": "Q668687", "collection_times": "Mo-Fr 16:30; Sa 11:30", "name": "USPS COLLECTION BOX - PO LOBBY", "note": "ON 12/24 AND 12/31, THIS BOX MAY BE COLLECTED AS EARLY AS 12 NOON.", "nsi_id": "unitedstatespostalservice-a77078", "operator": "United States Postal Service", "operator:short": "USPS", "operator:type": "public", "operator:wikidata": "Q668687", "ref": "2543000005"}, "type": "Feature"}
{"dataset_attributes": {"@spider": "usps_collection_boxes", "spider:collection_time": "2023-10-28T08:22:24.083666"}, "geometry": {"coordinates": [-78.457617271, 39.533560767], "type": "Point"}, "id": "XKfaR4N7GCE9r2J3jMVtc_hXzJE=", "properties": {"@spider": "usps_collection_boxes", "addr:city": "PAW PAW", "addr:country": "US", "addr:full": "93 WINCHESTER ST", "addr:postcode": "25434", "addr:state": "WV", "amenity": "post_box", "brand": "United States Postal Service", "brand:wikidata": "Q668687", "collection_times": "Mo-Fr 15:45; Sa 12:00", "name": "USPS COLLECTION BOX - BLUE BOX", "note": "ON 12/24 AND 12/31, THIS BOX MAY BE COLLECTED AS EARLY AS 12 NOON.", "nsi_id": "unitedstatespostalservice-a77078", "operator": "United States Postal Service", "operator:short": "USPS", "operator:type": "public", "operator:wikidata": "Q668687", "ref": "2543400000"}, "type": "Feature"}
{"dataset_attributes": {"@spider": "usps_collection_boxes", "spider:collection_time": "2023-10-28T08:22:24.083666"}, "geometry": {"coordinates": [-78.457617271, 39.533560767], "type": "Point"}, "id": "Gp8dKvY5hxhSs_7AoNyjdcevGR8=", "properties": {"@spider": "usps_collection_boxes", "addr:city": "PAW PAW", "addr:country": "US", "addr:full": "93 WINCHESTER ST", "addr:postcode": "25434", "addr:state": "WV", "amenity": "post_box", "brand": "United States Postal Service", "brand:wikidata": "Q668687", "collection_times": "Mo-Fr 15:45; Sa 12:00", "name": "USPS COLLECTION BOX - PO LOBBY", "note": "ON 12/24 AND 12/31, THIS BOX MAY BE COLLECTED AS EARLY AS 12 NOON.", "nsi_id": "unitedstatespostalservice-a77078", "operator": "United States Postal Service", "operator:short": "USPS", "operator:type": "public", "operator:wikidata": "Q668687", "ref": "2543400001"}, "type": "Feature"}
{"dataset_attributes": {"@spider": "usps_collection_boxes", "spider:collection_time": "2023-10-28T08:22:24.083666"}, "geometry": {"coordinates": [-78.457617271, 39.533560767], "type": "Point"}, "id": "j7obZE7OYc--sWZW0QTMytY7Ssk=", "properties": {"@spider": "usps_collection_boxes", "addr:city": "PAW PAW", "addr:country": "US", "addr:full": "93 WINCHESTER ST", "addr:postcode": "25434", "addr:state": "WV", "amenity": "post_box", "brand": "United States Postal Service", "brand:wikidata": "Q668687", "collection_times": "Mo-Fr 16:30; Sa 12:00", "name": "USPS COLLECTION BOX - PO LOBBY", "note": "ON 12/24 AND 12/31, THIS BOX MAY BE COLLECTED AS EARLY AS 12 NOON.", "nsi_id": "unitedstatespostalservice-a77078", "operator": "United States Postal Service", "operator:short": "USPS", "operator:type": "public", "operator:wikidata": "Q668687", "ref": "2543400003"}, "type": "Feature"}
{"dataset_attributes": {"@spider": "usps_collection_boxes", "spider:collection_time": "2023-10-28T08:22:24.083666"}, "geometry": {"coordinates": [-78.5671613464, 39.4504664098], "type": "Point"}, "id": "VZbBrV50tVG3ZQ4eUIlVRBfHF5M=", "properties": {"@spider": "usps_collection_boxes", "addr:city": "POINTS", "addr:country": "US", "addr:full": "10558 JERSEY MOUNTAIN RD", "addr:postcode": "25437", "addr:state": "WV", "amenity": "post_box", "brand": "United States Postal Service", "brand:wikidata": "Q668687", "collection_times": "Mo-Sa 11:00", "name": "USPS COLLECTION BOX - BLUE BOX", "nsi_id": "unitedstatespostalservice-a77078", "operator": "United States Postal Service", "operator:short": "USPS", "operator:type": "public", "operator:wikidata": "Q668687", "ref": "2543700000"}, "type": "Feature"}
{"dataset_attributes": {"@spider": "usps_collection_boxes", "spider:collection_time": "2023-10-28T08:22:24.083666"}, "geometry": {"coordinates": [-78.5671613464, 39.4504664098], "type": "Point"}, "id": "1Ion58hmP72PZQZPMMZT7sWtPRE=", "properties": {"@spider": "usps_collection_boxes", "addr:city": "POINTS", "addr:country": "US", "addr:full": "10558 JERSEY MOUNTAIN RD", "addr:postcode": "25437", "addr:state": "WV", "amenity": "post_box", "brand": "United States Postal Service", "brand:wikidata": "Q668687", "collection_times": "Mo-Sa 11:00", "name": "USPS COLLECTION BOX - PO LOBBY", "nsi_id": "unitedstatespostalservice-a77078", "operator": "United States Postal Service", "operator:short": "USPS", "operator:type": "public", "operator:wikidata": "Q668687", "ref": "2543700001"}, "type": "Feature"}
{"dataset_attributes": {"@spider": "usps_collection_boxes", "spider:collection_time": "2023-10-28T08:22:24.083666"}, "geometry": {"coordinates": [-78.617343543, 39.43528016], "type": "Point"}, "id": "DKQkBE8rpr8W0Ii3pmuRTl_x-lk=", "properties": {"@spider": "usps_collection_boxes", "addr:city": "POINTS", "addr:country": "US", "addr:full": "10558 JERSEY MOUNTAIN RD", "addr:postcode": "25437", "addr:state": "WV", "amenity": "post_box", "brand": "United States Postal Service", "brand:wikidata": "Q668687", "collection_times": "Mo-Sa 14:00", "name": "USPS COLLECTION BOX - PO LOBBY", "note": "ON 12/24 AND 12/31, THIS BOX MAY BE COLLECTED AS EARLY AS 12 NOON.", "nsi_id": "unitedstatespostalservice-a77078", "operator": "United States Postal Service", "operator:short": "USPS", "operator:type": "public", "operator:wikidata": "Q668687", "ref": "2543700003"}, "type": "Feature"}
{"dataset_attributes": {"@spider": "usps_collection_boxes", "spider:collection_time": "2023-10-28T08:22:24.083666"}, "geometry": {"coordinates": [-77.8601199, 39.294855], "type": "Point"}, "id": "gy5ti3qK20YQh-HSbvKAGJTJsao=", "properties": {"@spider": "usps_collection_boxes", "addr:city": "RANSON", "addr:country": "US", "addr:full": "301 S MILDRED ST", "addr:postcode": "25438", "addr:state": "WV", "amenity": "post_box", "brand": "United States Postal Service", "brand:wikidata": "Q668687", "collection_times": "Mo-Sa 12:00", "name": "USPS COLLECTION BOX - BLUE BOX", "nsi_id": "unitedstatespostalservice-a77078", "operator": "United States Postal Service", "operator:short": "USPS", "operator:type": "public", "operator:wikidata": "Q668687", "ref": "2543800000"}, "type": "Feature"}
{"dataset_attributes": {"@spider": "usps_collection_boxes", "spider:collection_time": "2023-10-28T08:22:24.083666"}, "geometry": {"coordinates": [-77.865212331, 39.305460492], "type": "Point"}, "id": "v6CuixVftaQ_NvyTX2XGID_2n8E=", "properties": {"@spider": "usps_collection_boxes", "addr:city": "RANSON", "addr:country": "US", "addr:full": "205 AMBROSE DR", "addr:postcode": "25438", "addr:state": "WV", "amenity": "post_box", "brand": "United States Postal Service", "brand:wikidata": "Q668687", "collection_times": "Mo-Fr 17:00; Sa 15:00", "name": "USPS COLLECTION BOX - BLUE BOX", "note": "ON 12/24 AND 12/31, THIS BOX MAY BE COLLECTED AS EARLY AS 12 NOON.", "nsi_id": "unitedstatespostalservice-a77078", "operator": "United States Postal Service", "operator:short": "USPS", "operator:type": "public", "operator:wikidata": "Q668687", "ref": "2543800001"}, "type": "Feature"}
{"dataset_attributes": {"@spider": "usps_collection_boxes", "spider:collection_time": "2023-10-28T08:22:24.083666"}, "geometry": {"coordinates": [-77.865212331, 39.305460492], "type": "Point"}, "id": "lg059KTDKZ3L413qhZr9P9tm_NQ=", "properties": {"@spider": "usps_collection_boxes", "addr:city": "RANSON", "addr:country": "US", "addr:full": "205 AMBROSE DR", "addr:postcode": "25438", "addr:state": "WV", "amenity": "post_box", "brand": "United States Postal Service", "brand:wikidata": "Q668687", "collection_times": "Mo-Fr 17:00; Sa 15:00", "name": "USPS COLLECTION BOX - BLUE BOX", "note": "ON 12/24 AND 12/31, THIS BOX MAY BE COLLECTED AS EARLY AS 12 NOON.", "nsi_id": "unitedstatespostalservice-a77078", "operator": "United States Postal Service", "operator:short": "USPS", "operator:type": "public", "operator:wikidata": "Q668687", "ref": "2543800002"}, "type": "Feature"}
{"dataset_attributes": {"@spider": "usps_collection_boxes", "spider:collection_time": "2023-10-28T08:22:24.083666"}, "geometry": {"coordinates": [-77.865212331, 39.305460492], "type": "Point"}, "id": "NaYXMPybLaOI-oijYT26yDNVRFg=", "properties": {"@spider": "usps_collection_boxes", "addr:city": "RANSON", "addr:country": "US", "addr:full": "205 AMBROSE DR", "addr:postcode": "25438", "addr:state": "WV", "amenity": "post_box", "brand": "United States Postal Service", "brand:wikidata": "Q668687", "collection_times": "Mo-Fr 17:00; Sa 15:00", "name": "USPS COLLECTION BOX - PO LOBBY", "note": "ON 12/24 AND 12/31, THIS BOX MAY BE COLLECTED AS EARLY AS 12 NOON.", "nsi_id": "unitedstatespostalservice-a77078", "operator": "United States Postal Service", "operator:short": "USPS", "operator:type": "public", "operator:wikidata": "Q668687", "ref": "2543800003"}, "type": "Feature"}
{"dataset_attributes": {"@spider": "usps_collection_boxes", "spider:collection_time": "2023-10-28T08:22:24.083666"}, "geometry": {"coordinates": [-77.8975114, 39.280618], "type": "Point"}, "id": "-VyE3Hxh5sqIF4A58kTk2WmaLv4=", "properties": {"@spider": "usps_collection_boxes", "addr:city": "RANSON", "addr:country": "US", "addr:full": "1607 TUSCAWILLA DR", "addr:postcode": "25438", "addr:state": "WV", "amenity": "post_box", "brand": "United States Postal Service", "brand:wikidata": "Q668687", "collection_times": "Mo-Sa 10:00", "name": "USPS COLLECTION BOX - BLUE BOX", "nsi_id": "unitedstatespostalservice-a77078", "operator": "United States Postal Service", "operator:short": "USPS", "operator:type": "public", "operator:wikidata": "Q668687", "ref": "2543800004"}, "type": "Feature"}
{"dataset_attributes": {"@spider": "usps_collection_boxes", "spider:collection_time": "2023-10-28T08:22:24.083666"}, "geometry": {"coordinates": [-77.8299354, 39.296206], "type": "Point"}, "id": "D1eSGpg1EjApJZn7aL6yXYdbXTI=", "properties": {"@spider": "usps_collection_boxes", "addr:city": "RANSON", "addr:country": "US", "addr:full": "84 SOMERSET BLVD", "addr:postcode": "25438", "addr:state": "WV", "amenity": "post_box", "brand": "United States Postal Service", "brand:wikidata": "Q668687", "collection_times": "Mo-Sa 09:30", "name": "USPS COLLECTION BOX - BLUE BOX", "nsi_id": "unitedstatespostalservice-a77078", "operator": "United States Postal Service", "operator:short": "USPS", "operator:type": "public", "operator:wikidata": "Q668687", "ref": "2543800007"}, "type": "Feature"}
{"dataset_attributes": {"@spider": "usps_collection_boxes", "spider:collection_time": "2023-10-28T08:22:24.083666"}, "geometry": {"coordinates": [-77.8292413, 39.30072], "type": "Point"}, "id": "24VJY7KQ5doJ1xTutKEcF_L_kSU=", "properties": {"@spider": "usps_collection_boxes", "addr:city": "RANSON", "addr:country": "US", "addr:full": "130 PATRICK HENRY WAY", "addr:postcode": "25438", "addr:state": "WV", "amenity": "post_box", "brand": "United States Postal Service", "brand:wikidata": "Q668687", "collection_times": "Mo-Sa 09:45", "name": "USPS COLLECTION BOX - BLUE BOX", "nsi_id": "unitedstatespostalservice-a77078", "operator": "United States Postal Service", "operator:short": "USPS", "operator:type": "public", "operator:wikidata": "Q668687", "ref": "2543800008"}, "type": "Feature"}
{"dataset_attributes": {"@spider": "usps_collection_boxes", "spider:collection_time": "2023-10-28T08:22:24.083666"}, "geometry": {"coordinates": [-77.8980266, 39.294922], "type": "Point"}, "id": "bcr736cyrJzimr8lCiC--dMhZq0=", "properties": {"@spider": "usps_collection_boxes", "addr:city": "RANSON", "addr:country": "US", "addr:full": "23 TUSCAWILLA DR", "addr:postcode": "25438", "addr:state": "WV", "amenity": "post_box", "brand": "United States Postal Service", "brand:wikidata": "Q668687", "collection_times": "Mo-Sa 11:15", "name": "USPS COLLECTION BOX - BLUE BOX", "nsi_id": "unitedstatespostalservice-a77078", "operator": "United States Postal Service", "operator:short": "USPS", "operator:type": "public", "operator:wikidata": "Q668687", "ref": "2543800009"}, "type": "Feature"}
{"dataset_attributes": {"@spider": "usps_collection_boxes", "spider:collection_time": "2023-10-28T08:22:24.083666"}, "geometry": {"coordinates": [-77.851282629, 39.2778534511], "type": "Point"}, "id": "JjR_hj88PKjdM1Lofq2UhboDYOk=", "properties": {"@spider": "usps_collection_boxes", "addr:city": "RANSON", "addr:country": "US", "addr:full": "23 JEFFERSON AVE", "addr:postcode": "25438", "addr:state": "WV", "amenity": "post_box", "brand": "United States Postal Service", "brand:wikidata": "Q668687", "collection_times": "Mo-Sa 11:00", "name": "USPS COLLECTION BOX - BLUE BOX", "nsi_id": "unitedstatespostalservice-a77078", "operator": "United States Postal Service", "operator:short": "USPS", "operator:type": "public", "operator:wikidata": "Q668687", "ref": "2543800010"}, "type": "Feature"}
{"dataset_attributes": {"@spider": "usps_collection_boxes", "spider:collection_time": "2023-10-28T08:22:24.083666"}, "geometry": {"coordinates": [-77.8554944, 39.286629], "type": "Point"}, "id": "5BO-FokvwcIqZf2O7ccHqeuojwQ=", "properties": {"@spider": "usps_collection_boxes", "addr:city": "RANSON", "addr:country": "US", "addr:full": "425 S MILDRED ST", "addr:postcode": "25438", "addr:state": "WV", "amenity": "post_box", "brand": "United States Postal Service", "brand:wikidata": "Q668687", "collection_times": "Mo-Sa 12:30", "name": "USPS COLLECTION BOX - BLUE BOX", "note": "ON 12/24 AND 12/31, THIS BOX MAY BE COLLECTED AS EARLY AS 12 NOON.", "nsi_id": "unitedstatespostalservice-a77078", "operator": "United States Postal Service", "operator:short": "USPS", "operator:type": "public", "operator:wikidata": "Q668687", "ref": "2543800011"}, "type": "Feature"}
{"dataset_attributes": {"@spider": "usps_collection_boxes", "spider:collection_time": "2023-10-28T08:22:24.083666"}, "geometry": {"coordinates": [-77.8426489, 39.296868], "type": "Point"}, "id": "RffY1n0rkF1ZlWEop16UL2bbG0g=", "properties": {"@spider": "usps_collection_boxes", "addr:city": "RANSON", "addr:country": "US", "addr:full": "178 FLOWING SPRINGS RD", "addr:postcode": "25438", "addr:state": "WV", "amenity": "post_box", "brand": "United States Postal Service", "brand:wikidata": "Q668687", "collection_times": "Mo-Sa 11:00", "name": "USPS COLLECTION BOX - BLUE BOX", "nsi_id": "unitedstatespostalservice-a77078", "operator": "United States Postal Service", "operator:short": "USPS", "operator:type": "public", "operator:wikidata": "Q668687", "ref": "2543800013"}, "type": "Feature"}
{"dataset_attributes": {"@spider": "usps_collection_boxes", "spider:collection_time": "2023-10-28T08:22:24.083666"}, "geometry": {"coordinates": [-77.865212331, 39.305460492], "type": "Point"}, "id": "okHOxgGiWxcqi8lAJ61cF5N0FNM=", "properties": {"@spider": "usps_collection_boxes", "addr:city": "RANSON", "addr:country": "US", "addr:full": "205 AMBROSE DR", "addr:postcode": "25438", "addr:state": "WV", "amenity": "post_box", "brand": "United States Postal Service", "brand:wikidata": "Q668687", "collection_times": "Mo-Fr 16:30; Sa 12:00", "name": "USPS COLLECTION BOX - PO LOBBY", "note": "ON 12/24 AND 12/31, THIS BOX MAY BE COLLECTED AS EARLY AS 12 NOON.", "nsi_id": "unitedstatespostalservice-a77078", "operator": "United States Postal Service", "operator:short": "USPS", "operator:type": "public", "operator:wikidata": "Q668687", "ref": "2543800016"}, "type": "Feature"}
{"dataset_attributes": {"@spider": "usps_collection_boxes", "spider:collection_time": "2023-10-28T08:22:24.083666"}, "geometry": {"coordinates": [-77.905481, 39.217644], "type": "Point"}, "id": "y9HOcMK_I7XcyazzWLwoIzXTaDo=", "properties": {"@spider": "usps_collection_boxes", "addr:city": "RIPPON", "addr:country": "US", "addr:full": "2468 BERRYVILLE PIKE", "addr:postcode": "25441", "addr:state": "WV", "amenity": "post_box", "brand": "United States Postal Service", "brand:wikidata": "Q668687", "collection_times": "Mo-Fr 13:45; Sa 11:30", "name": "USPS COLLECTION BOX - BLUE BOX", "note": "ON 12/24 AND 12/31, THIS BOX MAY BE COLLECTED AS EARLY AS 12 NOON.", "nsi_id": "unitedstatespostalservice-a77078", "operator": "United States Postal Service", "operator:short": "USPS", "operator:type": "public", "operator:wikidata": "Q668687", "ref": "2544100000"}, "type": "Feature"}
{"dataset_attributes": {"@spider": "usps_collection_boxes", "spider:collection_time": "2023-10-28T08:22:24.083666"}, "geometry": {"coordinates": [-77.905481, 39.217644], "type": "Point"}, "id": "Es2FxCGTYy2UZK6ht53QLFnxbkI=", "properties": {"@spider": "usps_collection_boxes", "addr:city": "RIPPON", "addr:country": "US", "addr:full": "2468 BERRYVILLE PIKE", "addr:postcode": "25441", "addr:state": "WV", "amenity": "post_box", "brand": "United States Postal Service", "brand:wikidata": "Q668687", "collection_times": "Mo-Fr 14:00; Sa 11:30", "name": "USPS COLLECTION BOX - PO LOBBY", "note": "ON 12/24 AND 12/31, THIS BOX MAY BE COLLECTED AS EARLY AS 12 NOON.", "nsi_id": "unitedstatespostalservice-a77078", "operator": "United States Postal Service", "operator:short": "USPS", "operator:type": "public", "operator:wikidata": "Q668687", "ref": "2544100001"}, "type": "Feature"}
{"dataset_attributes": {"@spider": "usps_collection_boxes", "spider:collection_time": "2023-10-28T08:22:24.083666"}, "geometry": {"coordinates": [-77.902199986, 39.222859988], "type": "Point"}, "id": "XFiybFJgFuQrR5OBuIMGkPZiQTs=", "properties": {"@spider": "usps_collection_boxes", "addr:city": "RIPPON", "addr:country": "US", "addr:full": "2468 BERRYVILLE PIKE STE 100", "addr:postcode": "25441", "addr:state": "WV", "amenity": "post_box", "brand": "United States Postal Service", "brand:wikidata": "Q668687", "collection_times": "Mo-Fr 14:00; Sa 11:30", "name": "USPS COLLECTION BOX - PO LOBBY", "note": "ON 12/24 AND 12/31, THIS BOX MAY BE COLLECTED AS EARLY AS 12 NOON.", "nsi_id": "unitedstatespostalservice-a77078", "operator": "United States Postal Service", "operator:short": "USPS", "operator:type": "public", "operator:wikidata": "Q668687", "ref": "2544100003"}, "type": "Feature"}
{"dataset_attributes": {"@spider": "usps_collection_boxes", "spider:collection_time": "2023-10-28T08:22:24.083666"}, "geometry": {"coordinates": [-77.843825, 39.359122], "type": "Point"}, "id": "OL4NCIpeI1--nkk5RWOKe1lEX-4=", "properties": {"@spider": "usps_collection_boxes", "addr:city": "SHENANDOAH JCT", "addr:country": "US", "addr:full": "360 1ST ST", "addr:postcode": "25442", "addr:state": "WV", "amenity": "post_box", "brand": "United States Postal Service", "brand:wikidata": "Q668687", "collection_times": "Mo-Fr 15:00; Sa 11:00", "name": "USPS COLLECTION BOX - BLUE BOX", "note": "ON 12/24 AND 12/31, THIS BOX MAY BE COLLECTED AS EARLY AS 12 NOON.", "nsi_id": "unitedstatespostalservice-a77078", "operator": "United States Postal Service", "operator:short": "USPS", "operator:type": "public", "operator:wikidata": "Q668687", "ref": "2544200002"}, "type": "Feature"}
{"dataset_attributes": {"@spider": "usps_collection_boxes", "spider:collection_time": "2023-10-28T08:22:24.083666"}, "geometry": {"coordinates": [-77.843825, 39.359122], "type": "Point"}, "id": "hFIzVN1Ww4dstCNkk5rXRM87qts=", "properties": {"@spider": "usps_collection_boxes", "addr:city": "SHENANDOAH JCT", "addr:country": "US", "addr:full": "360 1ST ST", "addr:postcode": "25442", "addr:state": "WV", "amenity": "post_box", "brand": "United States Postal Service", "brand:wikidata": "Q668687", "collection_times": "Mo-Fr 15:00; Sa 11:00", "name": "USPS COLLECTION BOX - PO LOBBY", "note": "ON 12/24 AND 12/31, THIS BOX MAY BE COLLECTED AS EARLY AS 12 NOON.", "nsi_id": "unitedstatespostalservice-a77078", "operator": "United States Postal Service", "operator:short": "USPS", "operator:type": "public", "operator:wikidata": "Q668687", "ref": "2544200003"}, "type": "Feature"}
{"dataset_attributes": {"@spider": "usps_collection_boxes", "spider:collection_time": "2023-10-28T08:22:24.083666"}, "geometry": {"coordinates": [-77.843713134, 39.359419596], "type": "Point"}, "id": "6JpxDktN1S7vE-481N8carrZeVM=", "properties": {"@spider": "usps_collection_boxes", "addr:city": "SHENANDOAH JCT", "addr:country": "US", "addr:full": "360 1ST ST", "addr:postcode": "25442", "addr:state": "WV", "amenity": "post_box", "brand": "United States Postal Service", "brand:wikidata": "Q668687", "collection_times": "Mo-Fr 15:15; Sa 11:00", "name": "USPS COLLECTION BOX - PO LOBBY", "note": "ON 12/24 AND 12/31, THIS BOX MAY BE COLLECTED AS EARLY AS 12 NOON.", "nsi_id": "unitedstatespostalservice-a77078", "operator": "United States Postal Service", "operator:short": "USPS", "operator:type": "public", "operator:wikidata": "Q668687", "ref": "2544200005"}, "type": "Feature"}
{"dataset_attributes": {"@spider": "usps_collection_boxes", "spider:collection_time": "2023-10-28T08:22:24.083666"}, "geometry": {"coordinates": [-77.806814748, 39.429040737], "type": "Point"}, "id": "v2Hbdnd5CZ10fm4gMWMcEhWb-7g=", "properties": {"@spider": "usps_collection_boxes", "addr:city": "SHEPHERDSTOWN", "addr:country": "US", "addr:full": "301 S KING ST", "addr:postcode": "25443", "addr:state": "WV", "amenity": "post_box", "brand": "United States Postal Service", "brand:wikidata": "Q668687", "collection_times": "Mo-Fr 16:30; Sa 12:00", "name": "USPS COLLECTION BOX - BLUE BOX", "note": "ON 12/24 AND 12/31, THIS BOX MAY BE COLLECTED AS EARLY AS 12 NOON.", "nsi_id": "unitedstatespostalservice-a77078", "operator": "United States Postal Service", "operator:short": "USPS", "operator:type": "public", "operator:wikidata": "Q668687", "ref": "2544300000"}, "type": "Feature"}
{"dataset_attributes": {"@spider": "usps_collection_boxes", "spider:collection_time": "2023-10-28T08:22:24.083666"}, "geometry": {"coordinates": [-77.806814748, 39.429040737], "type": "Point"}, "id": "XexTE3KrYJAtjASj-qnmbcXwylI=", "properties": {"@spider": "usps_collection_boxes", "addr:city": "SHEPHERDSTOWN", "addr:country": "US", "addr:full": "301 S KING ST", "addr:postcode": "25443", "addr:state": "WV", "amenity": "post_box", "brand": "United States Postal Service", "brand:wikidata": "Q668687", "collection_times": "Mo-Fr 16:30; Sa 12:00", "name": "USPS COLLECTION BOX - BLUE BOX", "note": "ON 12/24 AND 12/31, THIS BOX MAY BE COLLECTED AS EARLY AS 12 NOON.", "nsi_id": "unitedstatespostalservice-a77078", "operator": "United States Postal Service", "operator:short": "USPS", "operator:type": "public", "operator:wikidata": "Q668687", "ref": "2544300001"}, "type": "Feature"}
{"dataset_attributes": {"@spider": "usps_collection_boxes", "spider:collection_time": "2023-10-28T08:22:24.083666"}, "geometry": {"coordinates": [-77.8198653, 39.43468], "type": "Point"}, "id": "6dF8ToX3dL6UkNRhe_865iE8Xl8=", "properties": {"@spider": "usps_collection_boxes", "addr:city": "SHEPHERDSTOWN", "addr:country": "US", "addr:full": "26 MADDEX SQUARE DR", "addr:postcode": "25443", "addr:state": "WV", "amenity": "post_box", "brand": "United States Postal Service", "brand:wikidata": "Q668687", "collection_times": "Mo-Sa 10:00", "name": "USPS COLLECTION BOX - BLUE BOX", "nsi_id": "unitedstatespostalservice-a77078", "operator": "United States Postal Service", "operator:short": "USPS", "operator:type": "public", "operator:wikidata": "Q668687", "ref": "2544300002"}, "type": "Feature"}
{"dataset_attributes": {"@spider": "usps_collection_boxes", "spider:collection_time": "2023-10-28T08:22:24.083666"}, "geometry": {"coordinates": [-77.8047163, 39.433104], "type": "Point"}, "id": "65FUTsZnnik8XnUqjpkdHvBvn_8=", "properties": {"@spider": "usps_collection_boxes", "addr:city": "SHEPHERDSTOWN", "addr:country": "US", "addr:full": "301 N KING ST", "addr:postcode": "25443", "addr:state": "WV", "amenity": "post_box", "brand": "United States Postal Service", "brand:wikidata": "Q668687", "collection_times": "Mo-Sa 11:30", "name": "USPS COLLECTION BOX - BLUE BOX", "nsi_id": "unitedstatespostalservice-a77078", "operator": "United States Postal Service", "operator:short": "USPS", "operator:type": "public", "operator:wikidata": "Q668687", "ref": "2544300004"}, "type": "Feature"}
{"dataset_attributes": {"@spider": "usps_collection_boxes", "spider:collection_time": "2023-10-28T08:22:24.083666"}, "geometry": {"coordinates": [-77.806814748, 39.429040737], "type": "Point"}, "id": "Vw0BpZehm1VvrAxjAFF4sUakyQY=", "properties": {"@spider": "usps_collection_boxes", "addr:city": "SHEPHERDSTOWN", "addr:country": "US", "addr:full": "301 S KING ST", "addr:postcode": "25443", "addr:state": "WV", "amenity": "post_box", "brand": "United States Postal Service", "brand:wikidata": "Q668687", "collection_times": "Mo-Fr 17:00; Sa 12:00", "name": "USPS COLLECTION BOX - PO LOBBY", "note": "ON 12/24 AND 12/31, THIS BOX MAY BE COLLECTED AS EARLY AS 12 NOON.", "nsi_id": "unitedstatespostalservice-a77078", "operator": "United States Postal Service", "operator:short": "USPS", "operator:type": "public", "operator:wikidata": "Q668687", "ref": "2544300005"}, "type": "Feature"}
{"dataset_attributes": {"@spider": "usps_collection_boxes", "spider:collection_time": "2023-10-28T08:22:24.083666"}, "geometry": {"coordinates": [-77.806814748, 39.429040737], "type": "Point"}, "id": "BscugdCsIbBPlXfRXFfzrnBrlSI=", "properties": {"@spider": "usps_collection_boxes", "addr:city": "SHEPHERDSTOWN", "addr:country": "US", "addr:full": "301 S KING ST", "addr:postcode": "25443", "addr:state": "WV", "amenity": "post_box", "brand": "United States Postal Service", "brand:wikidata": "Q668687", "collection_times": "Mo-Fr 17:00; Sa 12:00", "name": "USPS COLLECTION BOX - PO LOBBY", "note": "ON 12/24 AND 12/31, THIS BOX MAY BE COLLECTED AS EARLY AS 12 NOON.", "nsi_id": "unitedstatespostalservice-a77078", "operator": "United States Postal Service", "operator:short": "USPS", "operator:type": "public", "operator:wikidata": "Q668687", "ref": "2544300007"}, "type": "Feature"}
{"dataset_attributes": {"@spider": "usps_collection_boxes", "spider:collection_time": "2023-10-28T08:22:24.083666"}, "geometry": {"coordinates": [-78.52295, 39.373846], "type": "Point"}, "id": "BDT-KvfuR2bG4u_EIWwJI--IzHk=", "properties": {"@spider": "usps_collection_boxes", "addr:city": "SLANESVILLE", "addr:country": "US", "addr:full": "41 SLANESVILLE PIKE", "addr:postcode": "25444", "addr:state": "WV", "amenity": "post_box", "brand": "United States Postal Service", "brand:wikidata": "Q668687", "collection_times": "Mo-Fr 15:00; Sa 13:45", "name": "USPS COLLECTION BOX - BLUE BOX", "note": "ON 12/24 AND 12/31, THIS BOX MAY BE COLLECTED AS EARLY AS 12 NOON.", "nsi_id": "unitedstatespostalservice-a77078", "operator": "United States Postal Service", "operator:short": "USPS", "operator:type": "public", "operator:wikidata": "Q668687", "ref": "2544400000"}, "type": "Feature"}
{"dataset_attributes": {"@spider": "usps_collection_boxes", "spider:collection_time": "2023-10-28T08:22:24.083666"}, "geometry": {"coordinates": [-78.522885, 39.373821], "type": "Point"}, "id": "1gZuD-kwpU8cXcMesuXgRtRCE8M=", "properties": {"@spider": "usps_collection_boxes", "addr:city": "SLANESVILLE", "addr:country": "US", "addr:full": "41 SLANESVILLE PIKE", "addr:postcode": "25444", "addr:state": "WV", "amenity": "post_box", "brand": "United States Postal Service", "brand:wikidata": "Q668687", "collection_times": "Mo-Fr 15:00; Sa 13:45", "name": "USPS COLLECTION BOX - PO LOBBY", "note": "ON 12/24 AND 12/31, THIS BOX MAY BE COLLECTED AS EARLY AS 12 NOON.", "nsi_id": "unitedstatespostalservice-a77078", "operator": "United States Postal Service", "operator:short": "USPS", "operator:type": "public", "operator:wikidata": "Q668687", "ref": "2544400001"}, "type": "Feature"}
{"dataset_attributes": {"@spider": "usps_collection_boxes", "spider:collection_time": "2023-10-28T08:22:24.083666"}, "geometry": {"coordinates": [-78.522955645, 39.373798418], "type": "Point"}, "id": "dEMfZ8wHzCHff3DU6L9fAc8tUdk=", "properties": {"@spider": "usps_collection_boxes", "addr:city": "SLANESVILLE", "addr:country": "US", "addr:full": "41 SLANESVILLE PIKE", "addr:postcode": "25444", "addr:state": "WV", "amenity": "post_box", "brand": "United States Postal Service", "brand:wikidata": "Q668687", "collection_times": "Mo-Fr 15:30; Sa 13:45", "name": "USPS COLLECTION BOX - PO LOBBY", "note": "ON 12/24 AND 12/31, THIS BOX MAY BE COLLECTED AS EARLY AS 12 NOON.", "nsi_id": "unitedstatespostalservice-a77078", "operator": "United States Postal Service", "operator:short": "USPS", "operator:type": "public", "operator:wikidata": "Q668687", "ref": "2544400003"}, "type": "Feature"}
{"dataset_attributes": {"@spider": "usps_collection_boxes", "spider:collection_time": "2023-10-28T08:22:24.083666"}, "geometry": {"coordinates": [-77.957604, 39.249247], "type": "Point"}, "id": "9nBU6hMzbkTll9LwiG5zhTkBmnU=", "properties": {"@spider": "usps_collection_boxes", "addr:city": "SUMMIT POINT", "addr:country": "US", "addr:full": "117 HAWTHORNE AVE", "addr:postcode": "25446", "addr:state": "WV", "amenity": "post_box", "brand": "United States Postal Service", "brand:wikidata": "Q668687", "collection_times": "Mo-Fr 16:00; Sa 12:00", "name": "USPS COLLECTION BOX - BLUE BOX", "note": "ON 12/24 AND 12/31, THIS BOX MAY BE COLLECTED AS EARLY AS 12 NOON.", "nsi_id": "unitedstatespostalservice-a77078", "operator": "United States Postal Service", "operator:short": "USPS", "operator:type": "public", "operator:wikidata": "Q668687", "ref": "2544600000"}, "type": "Feature"}
{"dataset_attributes": {"@spider": "usps_collection_boxes", "spider:collection_time": "2023-10-28T08:22:24.083666"}, "geometry": {"coordinates": [-77.9314329, 39.221806], "type": "Point"}, "id": "fWNx3CUaPxTsd_D6S_IVuQ3BjBk=", "properties": {"@spider": "usps_collection_boxes", "addr:city": "SUMMIT POINT", "addr:country": "US", "addr:full": "148 QUAIL RUN RD", "addr:postcode": "25446", "addr:state": "WV", "amenity": "post_box", "brand": "United States Postal Service", "brand:wikidata": "Q668687", "collection_times": "Mo-Sa 11:00", "name": "USPS COLLECTION BOX - BLUE BOX", "nsi_id": "unitedstatespostalservice-a77078", "operator": "United States Postal Service", "operator:short": "USPS", "operator:type": "public", "operator:wikidata": "Q668687", "ref": "2544600001"}, "type": "Feature"}
{"dataset_attributes": {"@spider": "usps_collection_boxes", "spider:collection_time": "2023-10-28T08:22:24.083666"}, "geometry": {"coordinates": [-77.9297767368, 39.2322532123], "type": "Point"}, "id": "nsmJ9aIInMz2DbkB6-_cOJeRG1c=", "properties": {"@spider": "usps_collection_boxes", "addr:city": "SUMMIT POINT", "addr:country": "US", "addr:full": "37 DOVETAIL CT", "addr:postcode": "25446", "addr:state": "WV", "amenity": "post_box", "brand": "United States Postal Service", "brand:wikidata": "Q668687", "collection_times": "Mo-Sa 11:00", "name": "USPS COLLECTION BOX - BLUE BOX", "nsi_id": "unitedstatespostalservice-a77078", "operator": "United States Postal Service", "operator:short": "USPS", "operator:type": "public", "operator:wikidata": "Q668687", "ref": "2544600002"}, "type": "Feature"}
{"dataset_attributes": {"@spider": "usps_collection_boxes", "spider:collection_time": "2023-10-28T08:22:24.083666"}, "geometry": {"coordinates": [-77.957555, 39.249238], "type": "Point"}, "id": "VvBKvLam9t5l8pOLcj27WsqIWwE=", "properties": {"@spider": "usps_collection_boxes", "addr:city": "SUMMIT POINT", "addr:country": "US", "addr:full": "117 HAWTHORNE AVE", "addr:postcode": "25446", "addr:state": "WV", "amenity": "post_box", "brand": "United States Postal Service", "brand:wikidata": "Q668687", "collection_times": "Mo-Fr 16:00; Sa 12:00", "name": "USPS COLLECTION BOX - PO LOBBY", "note": "ON 12/24 AND 12/31, THIS BOX MAY BE COLLECTED AS EARLY AS 12 NOON.", "nsi_id": "unitedstatespostalservice-a77078", "operator": "United States Postal Service", "operator:short": "USPS", "operator:type": "public", "operator:wikidata": "Q668687", "ref": "2544600003"}, "type": "Feature"}
{"dataset_attributes": {"@spider": "usps_collection_boxes", "spider:collection_time": "2023-10-28T08:22:24.083666"}, "geometry": {"coordinates": [-77.957445158, 39.24904324], "type": "Point"}, "id": "TiMw_ntlq4sND3XXu44ARmfCYE0=", "properties": {"@spider": "usps_collection_boxes", "addr:city": "SUMMIT POINT", "addr:country": "US", "addr:full": "117 HAWTHORNE AVE", "addr:postcode": "25446", "addr:state": "WV", "amenity": "post_box", "brand": "United States Postal Service", "brand:wikidata": "Q668687", "collection_times": "Mo-Fr 16:00; Sa 12:00", "name": "USPS COLLECTION BOX - PO LOBBY", "note": "ON 12/24 AND 12/31, THIS BOX MAY BE COLLECTED AS EARLY AS 12 NOON.", "nsi_id": "unitedstatespostalservice-a77078", "operator": "United States Postal Service", "operator:short": "USPS", "operator:type": "public", "operator:wikidata": "Q668687", "ref": "2544600005"}, "type": "Feature"}
