{"geometry": {"coordinates": [-82.5615649222, 38.3968296378], "type": "Point"}, "id": "3TiGG20fYTi1Z7bADPVtdqBuQQY=", "properties": {"@spider": "usps_collection_boxes", "addr:city": "CEREDO", "addr:country": "US", "addr:full": "371 C ST", "addr:postcode": "25507", "addr:state": "WV", "brand": "USPS", "collection_times": "Mo-Fr 16:30; Sa 12:00", "name": "USPS COLLECTION BOX - BLUE BOX", "note": "ON 12/24 AND 12/31, THIS BOX MAY BE COLLECTED AS EARLY AS 12 NOON.", "ref": "2550700000"}, "type": "Feature"}
{"geometry": {"coordinates": [-82.5615649222, 38.3968296378], "type": "Point"}, "id": "ckB-HUskxi3_vQRXcAGkbcF3Jwo=", "properties": {"@spider": "usps_collection_boxes", "addr:city": "CEREDO", "addr:country": "US", "addr:full": "371 C ST", "addr:postcode": "25507", "addr:state": "WV", "brand": "USPS", "collection_times": "Mo-Fr 16:30; Sa 12:00", "name": "USPS COLLECTION BOX - PO LOBBY", "note": "ON 12/24 AND 12/31, THIS BOX MAY BE COLLECTED AS EARLY AS 12 NOON.", "ref": "2550700001"}, "type": "Feature"}
{"geometry": {"coordinates": [-82.5615649222, 38.3968296378], "type": "Point"}, "id": "NVWwha-NiA2Zm5BwbNTeEaew3lg=", "properties": {"@spider": "usps_collection_boxes", "addr:city": "CEREDO", "addr:country": "US", "addr:full": "371 C ST", "addr:postcode": "25507", "addr:state": "WV", "brand": "USPS", "collection_times": "Mo-Fr 16:30; Sa 12:00", "name": "USPS COLLECTION BOX - PO LOBBY", "note": "ON 12/24 AND 12/31, THIS BOX MAY BE COLLECTED AS EARLY AS 12 NOON.", "ref": "2550700002"}, "type": "Feature"}
{"geometry": {"coordinates": [-82.5615649222, 38.3968296378], "type": "Point"}, "id": "irGKJMe5BokWhFyjtrycIUpW3Uc=", "properties": {"@spider": "usps_collection_boxes", "addr:city": "CEREDO", "addr:country": "US", "addr:full": "371 C ST", "addr:postcode": "25507", "addr:state": "WV", "brand": "USPS", "collection_times": "Mo-Fr 16:30; Sa 12:00", "name": "USPS COLLECTION BOX - PO LOBBY", "note": "ON 12/24 AND 12/31, THIS BOX MAY BE COLLECTED AS EARLY AS 12 NOON.", "ref": "2550700005"}, "type": "Feature"}
{"geometry": {"coordinates": [-82.431815, 38.023142], "type": "Point"}, "id": "6NbygoySpibunt1eglxiAXc-OSo=", "properties": {"@spider": "usps_collection_boxes", "addr:city": "DUNLOW", "addr:country": "US", "addr:full": "1 MAIN ST", "addr:postcode": "25511", "addr:state": "WV", "brand": "USPS", "collection_times": "Mo-Fr 12:00; Sa 10:00", "name": "USPS COLLECTION BOX - BLUE BOX", "ref": "2551100000"}, "type": "Feature"}
{"geometry": {"coordinates": [-82.431815, 38.023142], "type": "Point"}, "id": "7IcsAcx6tsgzQ_OHVYZu7idaw8Q=", "properties": {"@spider": "usps_collection_boxes", "addr:city": "DUNLOW", "addr:country": "US", "addr:full": "1 MAIN ST", "addr:postcode": "25511", "addr:state": "WV", "brand": "USPS", "collection_times": "Mo-Fr 12:00; Sa 10:00", "name": "USPS COLLECTION BOX - PO LOBBY", "ref": "2551100001"}, "type": "Feature"}
{"geometry": {"coordinates": [-82.4031334, 37.9941892], "type": "Point"}, "id": "NWkoS3oO0kYGCBTr5DkEROiGXtE=", "properties": {"@spider": "usps_collection_boxes", "addr:city": "DUNLOW", "addr:country": "US", "addr:full": "1 MAIN ST", "addr:postcode": "25511", "addr:state": "WV", "brand": "USPS", "collection_times": "Mo-Fr 12:00; Sa 10:00", "name": "USPS COLLECTION BOX - PO LOBBY", "ref": "2551100003"}, "type": "Feature"}
{"geometry": {"coordinates": [-82.3802118, 38.1677522], "type": "Point"}, "id": "P5ALkegZCsyN9ZvWq-mjVJ4wGYs=", "properties": {"@spider": "usps_collection_boxes", "addr:city": "EAST LYNN", "addr:country": "US", "addr:full": "2687 TWELVE POLE CRK", "addr:postcode": "25512", "addr:state": "WV", "brand": "USPS", "collection_times": "Mo-Fr 15:15; Sa 10:30", "name": "USPS COLLECTION BOX - PO LOBBY", "note": "ON 12/24 AND 12/31, THIS BOX MAY BE COLLECTED AS EARLY AS 12 NOON.", "ref": "2551200003"}, "type": "Feature"}
{"geometry": {"coordinates": [-82.594828916, 38.116814724], "type": "Point"}, "id": "Kuyd46d5kyjjZP91DKlzDGpiN7Q=", "properties": {"@spider": "usps_collection_boxes", "addr:city": "FORT GAY", "addr:country": "US", "addr:full": "3204 COURT ST", "addr:postcode": "25514", "addr:state": "WV", "brand": "USPS", "collection_times": "Mo-Fr 16:00; Sa 10:15", "name": "USPS COLLECTION BOX - BLUE BOX", "note": "ON 12/24 AND 12/31, THIS BOX MAY BE COLLECTED AS EARLY AS 12 NOON.", "ref": "2551400000"}, "type": "Feature"}
{"geometry": {"coordinates": [-82.594828916, 38.116814724], "type": "Point"}, "id": "QX45_mIKTnFNEvXHzOnHN2LbWcE=", "properties": {"@spider": "usps_collection_boxes", "addr:city": "FORT GAY", "addr:country": "US", "addr:full": "3204 COURT ST", "addr:postcode": "25514", "addr:state": "WV", "brand": "USPS", "collection_times": "Mo-Fr 16:00; Sa 10:15", "name": "USPS COLLECTION BOX - PO LOBBY", "note": "ON 12/24 AND 12/31, THIS BOX MAY BE COLLECTED AS EARLY AS 12 NOON.", "ref": "2551400001"}, "type": "Feature"}
{"geometry": {"coordinates": [-82.5947848, 38.11668191], "type": "Point"}, "id": "r5ae9YrAl624lEMrVBsMCfXUwU4=", "properties": {"@spider": "usps_collection_boxes", "addr:city": "FORT GAY", "addr:country": "US", "addr:full": "705 COURT ST", "addr:postcode": "25514", "addr:state": "WV", "brand": "USPS", "collection_times": "Mo-Fr 16:00; Sa 11:00", "name": "USPS COLLECTION BOX - PO LOBBY", "note": "ON 12/24 AND 12/31, THIS BOX MAY BE COLLECTED AS EARLY AS 12 NOON.", "ref": "2551400003"}, "type": "Feature"}
{"geometry": {"coordinates": [-82.4574568335, 38.0767093812], "type": "Point"}, "id": "kkx53u2YzmJgSjUJcUkJDX1na0g=", "properties": {"@spider": "usps_collection_boxes", "addr:city": "GENOA", "addr:country": "US", "addr:full": "21696 ROUTE 152", "addr:postcode": "25517", "addr:state": "WV", "brand": "USPS", "collection_times": "Mo-Fr 12:00; Sa 11:15", "name": "USPS COLLECTION BOX - BLUE BOX", "ref": "2551700000"}, "type": "Feature"}
{"geometry": {"coordinates": [-82.4574568335, 38.0767093812], "type": "Point"}, "id": "6xHWKMuLlm2GBrSnXoXFuLatrOQ=", "properties": {"@spider": "usps_collection_boxes", "addr:city": "GENOA", "addr:country": "US", "addr:full": "21696 ROUTE 152", "addr:postcode": "25517", "addr:state": "WV", "brand": "USPS", "collection_times": "Mo-Fr 12:00; Sa 11:15", "name": "USPS COLLECTION BOX - PO LOBBY", "ref": "2551700001"}, "type": "Feature"}
{"geometry": {"coordinates": [-82.459073291, 38.121450139], "type": "Point"}, "id": "gosYneM9kZLRzUsFf_xw4fUlsSU=", "properties": {"@spider": "usps_collection_boxes", "addr:city": "GENOA", "addr:country": "US", "addr:full": "21696 ROUTE 152", "addr:postcode": "25517", "addr:state": "WV", "brand": "USPS", "collection_times": "Mo-Fr 12:00; Sa 11:00", "name": "USPS COLLECTION BOX - PO LOBBY", "ref": "2551700003"}, "type": "Feature"}
{"geometry": {"coordinates": [-82.576910713, 38.398865229], "type": "Point"}, "id": "a8SkolUo978QMW20H96YLtZydSc=", "properties": {"@spider": "usps_collection_boxes", "addr:city": "KENOVA", "addr:country": "US", "addr:full": "1300 CHESTNUT ST", "addr:postcode": "25530", "addr:state": "WV", "brand": "USPS", "collection_times": "Mo-Fr 16:00; Sa 14:30", "name": "USPS COLLECTION BOX - BLUE BOX", "note": "ON 12/24 AND 12/31, THIS BOX MAY BE COLLECTED AS EARLY AS 12 NOON.", "ref": "2553000012"}, "type": "Feature"}
{"geometry": {"coordinates": [-82.576910713, 38.398865229], "type": "Point"}, "id": "G6-ykGkGpEudqX0pgt2wmQRBL98=", "properties": {"@spider": "usps_collection_boxes", "addr:city": "KENOVA", "addr:country": "US", "addr:full": "1300 CHESTNUT ST", "addr:postcode": "25530", "addr:state": "WV", "brand": "USPS", "collection_times": "Mo-Fr 16:00; Sa 14:30", "name": "USPS COLLECTION BOX - PO LOBBY", "note": "ON 12/24 AND 12/31, THIS BOX MAY BE COLLECTED AS EARLY AS 12 NOON.", "ref": "2553000024"}, "type": "Feature"}
{"geometry": {"coordinates": [-82.576910713, 38.398865229], "type": "Point"}, "id": "Dk1Ba0VXGgaUHxh2uhey4YLIRkw=", "properties": {"@spider": "usps_collection_boxes", "addr:city": "KENOVA", "addr:country": "US", "addr:full": "1300 CHESTNUT ST", "addr:postcode": "25530", "addr:state": "WV", "brand": "USPS", "collection_times": "Mo-Fr 16:00", "name": "USPS COLLECTION BOX - PO LOBBY", "note": "ON 12/24 AND 12/31, THIS BOX MAY BE COLLECTED AS EARLY AS 12 NOON.", "ref": "2553000027"}, "type": "Feature"}
{"geometry": {"coordinates": [-82.5774584084, 38.3990811773], "type": "Point"}, "id": "SlFLW8msk0bvpP2U8RNhA7mljv8=", "properties": {"@spider": "usps_collection_boxes", "addr:city": "KENOVA", "addr:country": "US", "addr:full": "1300 CHESTNUT ST", "addr:postcode": "25530", "addr:state": "WV", "brand": "USPS", "collection_times": "Mo-Fr 16:00; Sa 14:30", "name": "USPS COLLECTION BOX - BLUE BOX", "note": "ON 12/24 AND 12/31, THIS BOX MAY BE COLLECTED AS EARLY AS 12 NOON.", "ref": "2553000028"}, "type": "Feature"}
{"geometry": {"coordinates": [-82.449382087, 38.322894123], "type": "Point"}, "id": "1sVtlS23eEOzw6-eKAlkT9AOKGA=", "properties": {"@spider": "usps_collection_boxes", "addr:city": "LAVALETTE", "addr:country": "US", "addr:full": "4642 LYNN CREEK RD", "addr:postcode": "25535", "addr:state": "WV", "brand": "USPS", "collection_times": "Mo-Fr 16:00; Sa 11:00", "name": "USPS COLLECTION BOX - BLUE BOX", "note": "ON 12/24 AND 12/31, THIS BOX MAY BE COLLECTED AS EARLY AS 12 NOON.", "ref": "2553500000"}, "type": "Feature"}
{"geometry": {"coordinates": [-82.4458379, 38.321746], "type": "Point"}, "id": "Dqo6t8-ql_I9kow3E14AnSpT54w=", "properties": {"@spider": "usps_collection_boxes", "addr:city": "LAVALETTE", "addr:country": "US", "addr:full": "4749 ROUTE 152", "addr:postcode": "25535", "addr:state": "WV", "brand": "USPS", "collection_times": "Mo-Sa 10:00", "name": "USPS COLLECTION BOX - BLUE BOX", "ref": "2553500001"}, "type": "Feature"}
{"geometry": {"coordinates": [-82.449382087, 38.322894123], "type": "Point"}, "id": "ZFfyndVe3p6eo1jz8lGzCE9JyJQ=", "properties": {"@spider": "usps_collection_boxes", "addr:city": "LAVALETTE", "addr:country": "US", "addr:full": "4642 LYNN CREEK RD", "addr:postcode": "25535", "addr:state": "WV", "brand": "USPS", "collection_times": "Mo-Fr 16:00; Sa 11:00", "name": "USPS COLLECTION BOX - PO LOBBY", "note": "ON 12/24 AND 12/31, THIS BOX MAY BE COLLECTED AS EARLY AS 12 NOON.", "ref": "2553500002"}, "type": "Feature"}
{"geometry": {"coordinates": [-82.449382087, 38.322894123], "type": "Point"}, "id": "wMGUjgCwMcZ5dXu2q0a0OMyQu8M=", "properties": {"@spider": "usps_collection_boxes", "addr:city": "LAVALETTE", "addr:country": "US", "addr:full": "4642 LYNN CREEK RD", "addr:postcode": "25535", "addr:state": "WV", "brand": "USPS", "collection_times": "Mo-Fr 16:00; Sa 11:00", "name": "USPS COLLECTION BOX - PO LOBBY", "note": "ON 12/24 AND 12/31, THIS BOX MAY BE COLLECTED AS EARLY AS 12 NOON.", "ref": "2553500004"}, "type": "Feature"}
{"geometry": {"coordinates": [-82.596445739, 38.242309674], "type": "Point"}, "id": "CGC1Bm3hQdsIFs1E421MihlhXRo=", "properties": {"@spider": "usps_collection_boxes", "addr:city": "PRICHARD", "addr:country": "US", "addr:full": "295 PRICHARD RD", "addr:postcode": "25555", "addr:state": "WV", "brand": "USPS", "collection_times": "Mo-Fr 12:00; Sa 11:15", "name": "USPS COLLECTION BOX - BLUE BOX", "ref": "2555500000"}, "type": "Feature"}
{"geometry": {"coordinates": [-82.596445739, 38.242309674], "type": "Point"}, "id": "lDUbdUokGCx71PygIcR5-4nWZzg=", "properties": {"@spider": "usps_collection_boxes", "addr:city": "PRICHARD", "addr:country": "US", "addr:full": "295 PRICHARD RD", "addr:postcode": "25555", "addr:state": "WV", "brand": "USPS", "collection_times": "Mo-Fr 12:00; Sa 11:15", "name": "USPS COLLECTION BOX - PO LOBBY", "ref": "2555500001"}, "type": "Feature"}
{"geometry": {"coordinates": [-82.596445739, 38.242309674], "type": "Point"}, "id": "hlRJD_c9OfV4D1KYssGlZJem2hw=", "properties": {"@spider": "usps_collection_boxes", "addr:city": "PRICHARD", "addr:country": "US", "addr:full": "295 PRICHARD RD", "addr:postcode": "25555", "addr:state": "WV", "brand": "USPS", "collection_times": "Mo-Fr 15:00; Sa 11:00", "name": "USPS COLLECTION BOX - PO LOBBY", "note": "ON 12/24 AND 12/31, THIS BOX MAY BE COLLECTED AS EARLY AS 12 NOON.", "ref": "2555500003"}, "type": "Feature"}
{"geometry": {"coordinates": [-82.472568, 38.32656], "type": "Point"}, "id": "hNtlviSwc0fVRziYzRmmACjoieQ=", "properties": {"@spider": "usps_collection_boxes", "addr:city": "SHOALS", "addr:country": "US", "addr:full": "3712 ROUTE 75", "addr:postcode": "25562", "addr:state": "WV", "brand": "USPS", "collection_times": "Mo-Fr 12:00; Sa 10:15", "name": "USPS COLLECTION BOX - BLUE BOX", "ref": "2556200000"}, "type": "Feature"}
{"geometry": {"coordinates": [-82.472568, 38.32656], "type": "Point"}, "id": "NyjNirzgWt9nnzI01gfU7y5ck6s=", "properties": {"@spider": "usps_collection_boxes", "addr:city": "SHOALS", "addr:country": "US", "addr:full": "3712 ROUTE 75", "addr:postcode": "25562", "addr:state": "WV", "brand": "USPS", "collection_times": "Mo-Fr 12:00; Sa 10:15", "name": "USPS COLLECTION BOX - PO LOBBY", "ref": "2556200001"}, "type": "Feature"}
{"geometry": {"coordinates": [-82.472579124, 38.326470916], "type": "Point"}, "id": "lnv7j5JFZY1SJ6MAypxFjQ4PEVU=", "properties": {"@spider": "usps_collection_boxes", "addr:city": "SHOALS", "addr:country": "US", "addr:full": "3712 ROUTE 75", "addr:postcode": "25562", "addr:state": "WV", "brand": "USPS", "collection_times": "Mo-Fr 12:00; Sa 10:00", "name": "USPS COLLECTION BOX - PO LOBBY", "ref": "2556200003"}, "type": "Feature"}
{"geometry": {"coordinates": [-82.442634171, 38.222117369], "type": "Point"}, "id": "Z37ZPhbTQm8ufsrle2HZVWC0Pgg=", "properties": {"@spider": "usps_collection_boxes", "addr:city": "WAYNE", "addr:country": "US", "addr:full": "218 KEYSER ST", "addr:postcode": "25570", "addr:state": "WV", "brand": "USPS", "collection_times": "Mo-Fr 16:30; Sa 11:00", "name": "USPS COLLECTION BOX - BLUE BOX", "note": "ON 12/24 AND 12/31, THIS BOX MAY BE COLLECTED AS EARLY AS 12 NOON.", "ref": "2557000000"}, "type": "Feature"}
{"geometry": {"coordinates": [-82.442634171, 38.222117369], "type": "Point"}, "id": "lYAWXJbXr5i4kVAyDZQGiLDvGus=", "properties": {"@spider": "usps_collection_boxes", "addr:city": "WAYNE", "addr:country": "US", "addr:full": "218 KEYSER ST", "addr:postcode": "25570", "addr:state": "WV", "brand": "USPS", "collection_times": "Mo-Fr 16:30; Sa 11:00", "name": "USPS COLLECTION BOX - BLUE BOX", "note": "ON 12/24 AND 12/31, THIS BOX MAY BE COLLECTED AS EARLY AS 12 NOON.", "ref": "2557000001"}, "type": "Feature"}
{"geometry": {"coordinates": [-82.442634171, 38.222117369], "type": "Point"}, "id": "sZBwuAUoKL3Tqz-17PTYghwhNCI=", "properties": {"@spider": "usps_collection_boxes", "addr:city": "WAYNE", "addr:country": "US", "addr:full": "218 KEYSER ST", "addr:postcode": "25570", "addr:state": "WV", "brand": "USPS", "collection_times": "Mo-Fr 16:30; Sa 11:00", "name": "USPS COLLECTION BOX - PO LOBBY", "note": "ON 12/24 AND 12/31, THIS BOX MAY BE COLLECTED AS EARLY AS 12 NOON.", "ref": "2557000002"}, "type": "Feature"}
{"geometry": {"coordinates": [-82.442634171, 38.222117369], "type": "Point"}, "id": "Y4W5cbL2KcxST_ZqpAjzvkLgn68=", "properties": {"@spider": "usps_collection_boxes", "addr:city": "WAYNE", "addr:country": "US", "addr:full": "218 KEYSER ST", "addr:postcode": "25570", "addr:state": "WV", "brand": "USPS", "collection_times": "Mo-Fr 16:15; Sa 11:00", "name": "USPS COLLECTION BOX - PO LOBBY", "note": "ON 12/24 AND 12/31, THIS BOX MAY BE COLLECTED AS EARLY AS 12 NOON.", "ref": "2557000005"}, "type": "Feature"}
