{"geometry": {"coordinates": [-82.443647, 37.966724], "type": "Point"}, "id": "Iq9LphJkooG6R6Fi2fcFNmy6PBE=", "properties": {"@spider": "usps_collection_boxes", "addr:city": "CRUM", "addr:country": "US", "addr:full": "44573 ROUTE 52", "addr:postcode": "25669", "addr:state": "WV", "brand": "USPS", "collection_times": "Mo-Fr 11:00; Sa 12:00", "name": "USPS COLLECTION BOX - BLUE BOX", "ref": "2566900000"}, "type": "Feature"}
{"geometry": {"coordinates": [-82.443647, 37.966724], "type": "Point"}, "id": "pQJNv-YdUsoDVsfP29Ubt4S5Blo=", "properties": {"@spider": "usps_collection_boxes", "addr:city": "CRUM", "addr:country": "US", "addr:full": "44573 ROUTE 52", "addr:postcode": "25669", "addr:state": "WV", "brand": "USPS", "collection_times": "Mo-Fr 11:00; Sa 12:00", "name": "USPS COLLECTION BOX - PO LOBBY", "ref": "2566900001"}, "type": "Feature"}
{"geometry": {"coordinates": [-82.442808477, 37.903520385], "type": "Point"}, "id": "xI1WPhcs1g4c7TKhSyhC1HW1wZ0=", "properties": {"@spider": "usps_collection_boxes", "addr:city": "CRUM", "addr:country": "US", "addr:full": "44573 ROUTE 52", "addr:postcode": "25669", "addr:state": "WV", "brand": "USPS", "collection_times": "Mo-Fr 11:15; Sa 12:00", "name": "USPS COLLECTION BOX - PO LOBBY", "ref": "2566900003"}, "type": "Feature"}
{"geometry": {"coordinates": [-82.407653219, 37.836951628], "type": "Point"}, "id": "pigB0QX3tHLffhqElFyhj7tZ_4s=", "properties": {"@spider": "usps_collection_boxes", "addr:city": "KERMIT", "addr:country": "US", "addr:full": "101 OHIO AVE", "addr:postcode": "25674", "addr:state": "WV", "brand": "USPS", "collection_times": "Mo-Fr 16:00; Sa 10:45", "name": "USPS COLLECTION BOX - BLUE BOX", "note": "ON 12/24 AND 12/31, THIS BOX MAY BE COLLECTED AS EARLY AS 12 NOON.", "ref": "2567400000"}, "type": "Feature"}
{"geometry": {"coordinates": [-82.407653219, 37.836951628], "type": "Point"}, "id": "t5bEwFAedH0X3EFV5jFVi7nW9T4=", "properties": {"@spider": "usps_collection_boxes", "addr:city": "KERMIT", "addr:country": "US", "addr:full": "101 OHIO AVE", "addr:postcode": "25674", "addr:state": "WV", "brand": "USPS", "collection_times": "Mo-Fr 16:00; Sa 10:45", "name": "USPS COLLECTION BOX - PO LOBBY", "note": "ON 12/24 AND 12/31, THIS BOX MAY BE COLLECTED AS EARLY AS 12 NOON.", "ref": "2567400001"}, "type": "Feature"}
{"geometry": {"coordinates": [-82.407653219, 37.836951628], "type": "Point"}, "id": "pEeB_tAKQpfSZCj_QJzJHXe3L9c=", "properties": {"@spider": "usps_collection_boxes", "addr:city": "KERMIT", "addr:country": "US", "addr:full": "101 OHIO AVE", "addr:postcode": "25674", "addr:state": "WV", "brand": "USPS", "collection_times": "Mo-Fr 16:00", "name": "USPS COLLECTION BOX - PO LOBBY", "note": "ON 12/24 AND 12/31, THIS BOX MAY BE COLLECTED AS EARLY AS 12 NOON.", "ref": "2567400003"}, "type": "Feature"}
{"geometry": {"coordinates": [-82.34876, 37.78952], "type": "Point"}, "id": "qCoTPanMAqbpeWRI_jflic--PA4=", "properties": {"@spider": "usps_collection_boxes", "addr:city": "NAUGATUCK", "addr:country": "US", "addr:full": "3 RT 65", "addr:postcode": "25685", "addr:state": "WV", "brand": "USPS", "collection_times": "Mo-Fr 12:00; Sa 11:15", "name": "USPS COLLECTION BOX - BLUE BOX", "ref": "2568500000"}, "type": "Feature"}
{"geometry": {"coordinates": [-82.34876, 37.78952], "type": "Point"}, "id": "c9v-kWN-CKo92AXIIS4mKEvY8pc=", "properties": {"@spider": "usps_collection_boxes", "addr:city": "NAUGATUCK", "addr:country": "US", "addr:full": "PO BOX 9998", "addr:postcode": "25685", "addr:state": "WV", "brand": "USPS", "collection_times": "Mo-Fr 12:00; Sa 11:30", "name": "USPS COLLECTION BOX - PO LOBBY", "ref": "2568500001"}, "type": "Feature"}
{"geometry": {"coordinates": [-82.34876, 37.78952], "type": "Point"}, "id": "j0clFi1Xc2kGic7ZkRfZbxkO2ec=", "properties": {"@spider": "usps_collection_boxes", "addr:city": "NAUGATUCK", "addr:country": "US", "addr:full": "3 RT 65", "addr:postcode": "25685", "addr:state": "WV", "brand": "USPS", "collection_times": "Mo-Fr 12:00; Sa 11:30", "name": "USPS COLLECTION BOX - PO LOBBY", "ref": "2568500003"}, "type": "Feature"}
