{"geometry": {"coordinates": [-82.4633048129, 38.4144538799], "type": "Point"}, "id": "bmLsMNnGm3idKeWUyeqp8zLBFYo=", "properties": {"@source_uri": "https://tools.usps.com/UspsToolsRestServices/rest/POLocator/findLocations", "@spider": "usps_collection_boxes", "addr:city": "HUNTINGTON", "addr:country": "US", "addr:postcode": "25701", "addr:state": "WV", "addr:street_address": "601 5TH AVE E", "amenity": "post_box", "collection_times": "Mo-Fr 13:30; Sa 10:00", "note": "ON 12/24 AND 12/31, THIS BOX MAY BE COLLECTED AS EARLY AS 12 NOON.", "nsi_id": "unitedstatespostalservice-a77078", "operator": "United States Postal Service", "operator:short": "USPS", "operator:type": "public", "operator:wikidata": "Q668687", "ref": "2570100008"}, "type": "Feature"}
{"geometry": {"coordinates": [-82.4469909, 38.418685], "type": "Point"}, "id": "gSim3gzeK91zGAg2ybhtzHqxUnc=", "properties": {"@source_uri": "https://tools.usps.com/UspsToolsRestServices/rest/POLocator/findLocations", "@spider": "usps_collection_boxes", "addr:city": "HUNTINGTON", "addr:country": "US", "addr:postcode": "25701", "addr:state": "WV", "addr:street_address": "645 5TH AVE", "amenity": "post_box", "collection_times": "Mo-Fr 13:30; Sa 10:00", "note": "ON 12/24 AND 12/31, THIS BOX MAY BE COLLECTED AS EARLY AS 12 NOON.", "nsi_id": "unitedstatespostalservice-a77078", "operator": "United States Postal Service", "operator:short": "USPS", "operator:type": "public", "operator:wikidata": "Q668687", "ref": "2570100009"}, "type": "Feature"}
{"geometry": {"coordinates": [-82.4426587, 38.420942], "type": "Point"}, "id": "NdkS04DsRSzAxA45L8YbHUU93Xo=", "properties": {"@source_uri": "https://tools.usps.com/UspsToolsRestServices/rest/POLocator/findLocations", "@spider": "usps_collection_boxes", "addr:city": "HUNTINGTON", "addr:country": "US", "addr:postcode": "25701", "addr:state": "WV", "addr:street_address": "940 4TH AVE", "amenity": "post_box", "collection_times": "Mo-Fr 14:00; Sa 08:00", "note": "ON 12/24 AND 12/31, THIS BOX MAY BE COLLECTED AS EARLY AS 12 NOON.", "nsi_id": "unitedstatespostalservice-a77078", "operator": "United States Postal Service", "operator:short": "USPS", "operator:type": "public", "operator:wikidata": "Q668687", "ref": "2570100013"}, "type": "Feature"}
{"geometry": {"coordinates": [-82.4455334, 38.419834], "type": "Point"}, "id": "J3PYfC0XnRxfTBcdfOt_ys55rn8=", "properties": {"@source_uri": "https://tools.usps.com/UspsToolsRestServices/rest/POLocator/findLocations", "@spider": "usps_collection_boxes", "addr:city": "HUNTINGTON", "addr:country": "US", "addr:postcode": "25701", "addr:state": "WV", "addr:street_address": "400 8TH ST", "amenity": "post_box", "collection_times": "Mo-Fr 14:00; Sa 10:00", "note": "ON 12/24 AND 12/31, THIS BOX MAY BE COLLECTED AS EARLY AS 12 NOON.", "nsi_id": "unitedstatespostalservice-a77078", "operator": "United States Postal Service", "operator:short": "USPS", "operator:type": "public", "operator:wikidata": "Q668687", "ref": "2570100015"}, "type": "Feature"}
{"geometry": {"coordinates": [-82.4414904, 38.418216], "type": "Point"}, "id": "OgO-kBIHyeEwwPZjiq-P4Mdfs5s=", "properties": {"@source_uri": "https://tools.usps.com/UspsToolsRestServices/rest/POLocator/findLocations", "@spider": "usps_collection_boxes", "addr:city": "HUNTINGTON", "addr:country": "US", "addr:postcode": "25701", "addr:state": "WV", "addr:street_address": "949 6TH AVE", "amenity": "post_box", "collection_times": "Mo-Sa 10:00", "nsi_id": "unitedstatespostalservice-a77078", "operator": "United States Postal Service", "operator:short": "USPS", "operator:type": "public", "operator:wikidata": "Q668687", "ref": "2570100020"}, "type": "Feature"}
{"geometry": {"coordinates": [-82.4395668, 38.418568], "type": "Point"}, "id": "CO7I6A6EdYSpbUlKImIkhbwco6w=", "properties": {"@source_uri": "https://tools.usps.com/UspsToolsRestServices/rest/POLocator/findLocations", "@spider": "usps_collection_boxes", "addr:city": "HUNTINGTON", "addr:country": "US", "addr:postcode": "25701", "addr:state": "WV", "addr:street_address": "1101 6TH AVE", "amenity": "post_box", "collection_times": "Mo-Sa 10:00", "nsi_id": "unitedstatespostalservice-a77078", "operator": "United States Postal Service", "operator:short": "USPS", "operator:type": "public", "operator:wikidata": "Q668687", "ref": "2570100021"}, "type": "Feature"}
{"geometry": {"coordinates": [-82.4440200173, 38.4128139859], "type": "Point"}, "id": "UY7K1kkui94FfTQShqg8aahn1EA=", "properties": {"@source_uri": "https://tools.usps.com/UspsToolsRestServices/rest/POLocator/findLocations", "@spider": "usps_collection_boxes", "addr:city": "HUNTINGTON", "addr:country": "US", "addr:postcode": "25701", "addr:state": "WV", "addr:street_address": "735 9TH AVE", "amenity": "post_box", "collection_times": "Mo-Sa 09:30", "nsi_id": "unitedstatespostalservice-a77078", "operator": "United States Postal Service", "operator:short": "USPS", "operator:type": "public", "operator:wikidata": "Q668687", "ref": "2570100025"}, "type": "Feature"}
{"geometry": {"coordinates": [-82.4538123, 38.407581], "type": "Point"}, "id": "L3N-Mn_KIf4ACs6_lvwWPjlkWa0=", "properties": {"@source_uri": "https://tools.usps.com/UspsToolsRestServices/rest/POLocator/findLocations", "@spider": "usps_collection_boxes", "addr:city": "HUNTINGTON", "addr:country": "US", "addr:postcode": "25701", "addr:state": "WV", "addr:street_address": "1106 1ST ST", "amenity": "post_box", "collection_times": "Mo-Sa 09:00", "nsi_id": "unitedstatespostalservice-a77078", "operator": "United States Postal Service", "operator:short": "USPS", "operator:type": "public", "operator:wikidata": "Q668687", "ref": "2570100030"}, "type": "Feature"}
{"geometry": {"coordinates": [-82.4420112, 38.408234], "type": "Point"}, "id": "vy0YdZk7I2u7WU-SsdzsGQ3WcO4=", "properties": {"@source_uri": "https://tools.usps.com/UspsToolsRestServices/rest/POLocator/findLocations", "@spider": "usps_collection_boxes", "addr:city": "HUNTINGTON", "addr:country": "US", "addr:postcode": "25701", "addr:state": "WV", "addr:street_address": "1241 8TH ST", "amenity": "post_box", "collection_times": "Mo-Sa 11:00", "nsi_id": "unitedstatespostalservice-a77078", "operator": "United States Postal Service", "operator:short": "USPS", "operator:type": "public", "operator:wikidata": "Q668687", "ref": "2570100032"}, "type": "Feature"}
{"geometry": {"coordinates": [-82.4357376, 38.41064], "type": "Point"}, "id": "QwsRb1WdGF7TTiJOgdbuuvLWIgc=", "properties": {"@source_uri": "https://tools.usps.com/UspsToolsRestServices/rest/POLocator/findLocations", "@spider": "usps_collection_boxes", "addr:city": "HUNTINGTON", "addr:country": "US", "addr:postcode": "25701", "addr:state": "WV", "addr:street_address": "1130 12TH AVE", "amenity": "post_box", "collection_times": "Mo-Sa 08:30", "nsi_id": "unitedstatespostalservice-a77078", "operator": "United States Postal Service", "operator:short": "USPS", "operator:type": "public", "operator:wikidata": "Q668687", "ref": "2570100034"}, "type": "Feature"}
{"geometry": {"coordinates": [-82.4297358, 38.403337], "type": "Point"}, "id": "0wqqAPU-8ALNtKuhfzgfJlDsFzw=", "properties": {"@source_uri": "https://tools.usps.com/UspsToolsRestServices/rest/POLocator/findLocations", "@spider": "usps_collection_boxes", "addr:city": "HUNTINGTON", "addr:country": "US", "addr:postcode": "25701", "addr:state": "WV", "addr:street_address": "99 WILSON CT", "amenity": "post_box", "collection_times": "Mo-Sa 10:00", "nsi_id": "unitedstatespostalservice-a77078", "operator": "United States Postal Service", "operator:short": "USPS", "operator:type": "public", "operator:wikidata": "Q668687", "ref": "2570100037"}, "type": "Feature"}
{"geometry": {"coordinates": [-82.4283199, 38.410631], "type": "Point"}, "id": "bwmz73w6WZbr1myZjiNDEcYzUhA=", "properties": {"@source_uri": "https://tools.usps.com/UspsToolsRestServices/rest/POLocator/findLocations", "@spider": "usps_collection_boxes", "addr:city": "HUNTINGTON", "addr:country": "US", "addr:postcode": "25701", "addr:state": "WV", "addr:street_address": "1602 13TH AVE", "amenity": "post_box", "collection_times": "Mo-Sa 08:45", "nsi_id": "unitedstatespostalservice-a77078", "operator": "United States Postal Service", "operator:short": "USPS", "operator:type": "public", "operator:wikidata": "Q668687", "ref": "2570100038"}, "type": "Feature"}
{"geometry": {"coordinates": [-82.4572412, 38.413971], "type": "Point"}, "id": "cGwD-VQVjLgGKPvThQpVXvq7ivk=", "properties": {"@source_uri": "https://tools.usps.com/UspsToolsRestServices/rest/POLocator/findLocations", "@spider": "usps_collection_boxes", "addr:city": "HUNTINGTON", "addr:country": "US", "addr:postcode": "25701", "addr:state": "WV", "addr:street_address": "19 7TH AVE W", "amenity": "post_box", "collection_times": "Mo-Sa 13:30", "note": "ON 12/24 AND 12/31, THIS BOX MAY BE COLLECTED AS EARLY AS 12 NOON.", "nsi_id": "unitedstatespostalservice-a77078", "operator": "United States Postal Service", "operator:short": "USPS", "operator:type": "public", "operator:wikidata": "Q668687", "ref": "2570100039"}, "type": "Feature"}
{"geometry": {"coordinates": [-82.4266259756, 38.4090920018], "type": "Point"}, "id": "L5gu5XHYLpejxBpb_5sgfjgECw0=", "properties": {"@source_uri": "https://tools.usps.com/UspsToolsRestServices/rest/POLocator/findLocations", "@spider": "usps_collection_boxes", "addr:city": "HUNTINGTON", "addr:country": "US", "addr:postcode": "25701", "addr:state": "WV", "addr:street_address": "1600 MEDICAL CENTER DR", "amenity": "post_box", "collection_times": "Mo-Fr 13:30", "note": "ON 12/24 AND 12/31, THIS BOX MAY BE COLLECTED AS EARLY AS 12 NOON.", "nsi_id": "unitedstatespostalservice-a77078", "operator": "United States Postal Service", "operator:short": "USPS", "operator:type": "public", "operator:wikidata": "Q668687", "ref": "2570100041"}, "type": "Feature"}
{"geometry": {"coordinates": [-82.4444089, 38.421879], "type": "Point"}, "id": "eICyotuT3LdoSGir2maN4F6MZTU=", "properties": {"@source_uri": "https://tools.usps.com/UspsToolsRestServices/rest/POLocator/findLocations", "@spider": "usps_collection_boxes", "addr:city": "HUNTINGTON", "addr:country": "US", "addr:postcode": "25701", "addr:state": "WV", "addr:street_address": "901 3RD AVE", "amenity": "post_box", "collection_times": "Mo-Sa 10:00", "nsi_id": "unitedstatespostalservice-a77078", "operator": "United States Postal Service", "operator:short": "USPS", "operator:type": "public", "operator:wikidata": "Q668687", "ref": "2570100047"}, "type": "Feature"}
{"geometry": {"coordinates": [-82.4424623, 38.422046], "type": "Point"}, "id": "pNhNPtzs84HiD45zkbzxUh-StME=", "properties": {"@source_uri": "https://tools.usps.com/UspsToolsRestServices/rest/POLocator/findLocations", "@spider": "usps_collection_boxes", "addr:city": "HUNTINGTON", "addr:country": "US", "addr:postcode": "25701", "addr:state": "WV", "addr:street_address": "949 3RD AVE", "amenity": "post_box", "collection_times": "Mo-Sa 10:00", "nsi_id": "unitedstatespostalservice-a77078", "operator": "United States Postal Service", "operator:short": "USPS", "operator:type": "public", "operator:wikidata": "Q668687", "ref": "2570100049"}, "type": "Feature"}
{"geometry": {"coordinates": [-82.4440407, 38.420747], "type": "Point"}, "id": "TBW41hzwsCQp0RXhfwxKTUgtGN8=", "properties": {"@source_uri": "https://tools.usps.com/UspsToolsRestServices/rest/POLocator/findLocations", "@spider": "usps_collection_boxes", "addr:city": "HUNTINGTON", "addr:country": "US", "addr:postcode": "25701", "addr:state": "WV", "addr:street_address": "900 4TH AVE", "amenity": "post_box", "collection_times": "Mo-Fr 14:00; Sa 10:00", "note": "ON 12/24 AND 12/31, THIS BOX MAY BE COLLECTED AS EARLY AS 12 NOON.", "nsi_id": "unitedstatespostalservice-a77078", "operator": "United States Postal Service", "operator:short": "USPS", "operator:type": "public", "operator:wikidata": "Q668687", "ref": "2570100055"}, "type": "Feature"}
{"geometry": {"coordinates": [-82.4436579, 38.419264], "type": "Point"}, "id": "Bto7xM0JMXBbq3BnPuOSF1pfuNE=", "properties": {"@source_uri": "https://tools.usps.com/UspsToolsRestServices/rest/POLocator/findLocations", "@spider": "usps_collection_boxes", "addr:city": "HUNTINGTON", "addr:country": "US", "addr:postcode": "25701", "addr:state": "WV", "addr:street_address": "845 5TH AVE", "amenity": "post_box", "collection_times": "Mo-Fr 13:30; Sa 10:00", "note": "ON 12/24 AND 12/31, THIS BOX MAY BE COLLECTED AS EARLY AS 12 NOON.", "nsi_id": "unitedstatespostalservice-a77078", "operator": "United States Postal Service", "operator:short": "USPS", "operator:type": "public", "operator:wikidata": "Q668687", "ref": "2570100059"}, "type": "Feature"}
{"geometry": {"coordinates": [-82.4284, 38.409925], "type": "Point"}, "id": "Sa0__8_pmJPXUot_5NO-Ldl7Ods=", "properties": {"@source_uri": "https://tools.usps.com/UspsToolsRestServices/rest/POLocator/findLocations", "@spider": "usps_collection_boxes", "addr:city": "HUNTINGTON", "addr:country": "US", "addr:postcode": "25701", "addr:state": "WV", "addr:street_address": "1 JOHN MARSHALL DR", "amenity": "post_box", "collection_times": "Mo-Fr 15:00", "note": "ON 12/24 AND 12/31, THIS BOX MAY BE COLLECTED AS EARLY AS 12 NOON.", "nsi_id": "unitedstatespostalservice-a77078", "operator": "United States Postal Service", "operator:short": "USPS", "operator:type": "public", "operator:wikidata": "Q668687", "ref": "2570100062"}, "type": "Feature"}
{"geometry": {"coordinates": [-82.448162757, 38.417240676], "type": "Point"}, "id": "iUydajTWCJi0XSga_MCkMfRYEr8=", "properties": {"@source_uri": "https://tools.usps.com/UspsToolsRestServices/rest/POLocator/findLocations", "@spider": "usps_collection_boxes", "addr:city": "HUNTINGTON", "addr:country": "US", "addr:postcode": "25701", "addr:state": "WV", "addr:street_address": "600 6TH AVE", "amenity": "post_box", "collection_times": "Mo-Sa 10:00", "nsi_id": "unitedstatespostalservice-a77078", "operator": "United States Postal Service", "operator:short": "USPS", "operator:type": "public", "operator:wikidata": "Q668687", "ref": "2570100065"}, "type": "Feature"}
{"geometry": {"coordinates": [-82.4402354, 38.420648], "type": "Point"}, "id": "4ZFSFTrN_rofS5skfScjhvv8WnY=", "properties": {"@source_uri": "https://tools.usps.com/UspsToolsRestServices/rest/POLocator/findLocations", "@spider": "usps_collection_boxes", "addr:city": "HUNTINGTON", "addr:country": "US", "addr:postcode": "25701", "addr:state": "WV", "addr:street_address": "422 11TH ST", "amenity": "post_box", "collection_times": "Mo-Fr 13:30; Sa 10:00", "note": "ON 12/24 AND 12/31, THIS BOX MAY BE COLLECTED AS EARLY AS 12 NOON.", "nsi_id": "unitedstatespostalservice-a77078", "operator": "United States Postal Service", "operator:short": "USPS", "operator:type": "public", "operator:wikidata": "Q668687", "ref": "2570100078"}, "type": "Feature"}
{"geometry": {"coordinates": [-82.4438004, 38.419473], "type": "Point"}, "id": "fQ9YdXvIe8cL2el2hUCy3bJqYHk=", "properties": {"@source_uri": "https://tools.usps.com/UspsToolsRestServices/rest/POLocator/findLocations", "@spider": "usps_collection_boxes", "addr:city": "HUNTINGTON", "addr:country": "US", "addr:postcode": "25701", "addr:state": "WV", "addr:street_address": "900 5TH AVE", "amenity": "post_box", "collection_times": "Mo-Fr 14:00; Sa 10:00", "note": "ON 12/24 AND 12/31, THIS BOX MAY BE COLLECTED AS EARLY AS 12 NOON.", "nsi_id": "unitedstatespostalservice-a77078", "operator": "United States Postal Service", "operator:short": "USPS", "operator:type": "public", "operator:wikidata": "Q668687", "ref": "2570100080"}, "type": "Feature"}
{"geometry": {"coordinates": [-82.441987373, 38.420527012], "type": "Point"}, "id": "2fiEyQpEr_jmSaOHhudvBVyFwlQ=", "properties": {"@source_uri": "https://tools.usps.com/UspsToolsRestServices/rest/POLocator/findLocations", "@spider": "usps_collection_boxes", "addr:city": "HUNTINGTON", "addr:country": "US", "addr:postcode": "25701", "addr:state": "WV", "addr:street_address": "422 10TH ST", "amenity": "post_box", "collection_times": "Mo-Fr 13:30; Sa 10:00", "note": "ON 12/24 AND 12/31, THIS BOX MAY BE COLLECTED AS EARLY AS 12 NOON.", "nsi_id": "unitedstatespostalservice-a77078", "operator": "United States Postal Service", "operator:short": "USPS", "operator:type": "public", "operator:wikidata": "Q668687", "ref": "2570100090"}, "type": "Feature"}
{"geometry": {"coordinates": [-82.4408638, 38.412377], "type": "Point"}, "id": "mb0svA0rtxYJxMXzlxUaKWGimhc=", "properties": {"@source_uri": "https://tools.usps.com/UspsToolsRestServices/rest/POLocator/findLocations", "@spider": "usps_collection_boxes", "addr:city": "HUNTINGTON", "addr:country": "US", "addr:postcode": "25701", "addr:state": "WV", "addr:street_address": "935 10TH AVE", "amenity": "post_box", "collection_times": "Mo-Sa 12:00", "nsi_id": "unitedstatespostalservice-a77078", "operator": "United States Postal Service", "operator:short": "USPS", "operator:type": "public", "operator:wikidata": "Q668687", "ref": "2570100115"}, "type": "Feature"}
{"geometry": {"coordinates": [-82.4532914, 38.337444], "type": "Point"}, "id": "1Wja95yiEaZdNYX9YwR3tPeyrJw=", "properties": {"@source_uri": "https://tools.usps.com/UspsToolsRestServices/rest/POLocator/findLocations", "@spider": "usps_collection_boxes", "addr:city": "HUNTINGTON", "addr:country": "US", "addr:postcode": "25701", "addr:state": "WV", "addr:street_address": "4541 5TH STREET RD", "amenity": "post_box", "collection_times": "Mo-Sa 08:45", "nsi_id": "unitedstatespostalservice-a77078", "operator": "United States Postal Service", "operator:short": "USPS", "operator:type": "public", "operator:wikidata": "Q668687", "ref": "2570100119"}, "type": "Feature"}
{"geometry": {"coordinates": [-82.436008101, 38.419324659], "type": "Point"}, "id": "wuFGHISAfkaws7f0-miKOOjhVYY=", "properties": {"@source_uri": "https://tools.usps.com/UspsToolsRestServices/rest/POLocator/findLocations", "@spider": "usps_collection_boxes", "addr:city": "HUNTINGTON", "addr:country": "US", "addr:postcode": "25701", "addr:state": "WV", "addr:street_address": "1302 6TH AVE", "amenity": "post_box", "collection_times": "Mo-Fr 11:00; Sa 10:00", "nsi_id": "unitedstatespostalservice-a77078", "operator": "United States Postal Service", "operator:short": "USPS", "operator:type": "public", "operator:wikidata": "Q668687", "ref": "2570100120"}, "type": "Feature"}
{"geometry": {"coordinates": [-82.438357, 38.423444], "type": "Point"}, "id": "joI_phgvk-Y2yWx0DTRA45Azn18=", "properties": {"@source_uri": "https://tools.usps.com/UspsToolsRestServices/rest/POLocator/findLocations", "@spider": "usps_collection_boxes", "addr:city": "HUNTINGTON", "addr:country": "US", "addr:postcode": "25701", "addr:state": "WV", "addr:street_address": "1200 VETERANS MEMORIAL BLVD", "amenity": "post_box", "collection_times": "Mo-Fr 16:15; Sa 11:45", "indoor": "yes", "note": "ON 12/24 AND 12/31, THIS BOX MAY BE COLLECTED AS EARLY AS 12 NOON.", "nsi_id": "unitedstatespostalservice-a77078", "operator": "United States Postal Service", "operator:short": "USPS", "operator:type": "public", "operator:wikidata": "Q668687", "ref": "2570100123"}, "type": "Feature"}
{"geometry": {"coordinates": [-82.4301678, 38.422453], "type": "Point"}, "id": "ZOaHbvqxhSknYTaacTYvnKKRUk0=", "properties": {"@source_uri": "https://tools.usps.com/UspsToolsRestServices/rest/POLocator/findLocations", "@spider": "usps_collection_boxes", "addr:city": "HUNTINGTON", "addr:country": "US", "addr:postcode": "25701", "addr:state": "WV", "addr:street_address": "1 JOHN MARSHALL DR", "amenity": "post_box", "collection_times": "Mo-Fr 16:00", "note": "ON 12/24 AND 12/31, THIS BOX MAY BE COLLECTED AS EARLY AS 12 NOON.", "nsi_id": "unitedstatespostalservice-a77078", "operator": "United States Postal Service", "operator:short": "USPS", "operator:type": "public", "operator:wikidata": "Q668687", "ref": "2570100130"}, "type": "Feature"}
{"geometry": {"coordinates": [-82.4303599, 38.411108], "type": "Point"}, "id": "VCW1ZIgHP02EjxeVoxZs7hsEzNA=", "properties": {"@source_uri": "https://tools.usps.com/UspsToolsRestServices/rest/POLocator/findLocations", "@spider": "usps_collection_boxes", "addr:city": "HUNTINGTON", "addr:country": "US", "addr:postcode": "25701", "addr:state": "WV", "addr:street_address": "1249 15TH ST", "amenity": "post_box", "collection_times": "Mo-Fr 10:00", "nsi_id": "unitedstatespostalservice-a77078", "operator": "United States Postal Service", "operator:short": "USPS", "operator:type": "public", "operator:wikidata": "Q668687", "ref": "2570100131"}, "type": "Feature"}
{"geometry": {"coordinates": [-82.433047033, 38.4198092312], "type": "Point"}, "id": "baQ4VyWDZ6qQRiDpc61m4be1Arg=", "properties": {"@source_uri": "https://tools.usps.com/UspsToolsRestServices/rest/POLocator/findLocations", "@spider": "usps_collection_boxes", "addr:city": "HUNTINGTON", "addr:country": "US", "addr:postcode": "25701", "addr:state": "WV", "addr:street_address": "1438 6TH AVE", "amenity": "post_box", "collection_times": "Mo-Sa 10:00", "nsi_id": "unitedstatespostalservice-a77078", "operator": "United States Postal Service", "operator:short": "USPS", "operator:type": "public", "operator:wikidata": "Q668687", "ref": "2570100132"}, "type": "Feature"}
{"geometry": {"coordinates": [-82.4351696, 38.422192], "type": "Point"}, "id": "yTBaCTOHiPTw7TBJpg-CzXhyR3I=", "properties": {"@source_uri": "https://tools.usps.com/UspsToolsRestServices/rest/POLocator/findLocations", "@spider": "usps_collection_boxes", "addr:city": "HUNTINGTON", "addr:country": "US", "addr:postcode": "25701", "addr:state": "WV", "addr:street_address": "1415 4TH AVE", "amenity": "post_box", "collection_times": "Mo-Fr 14:30; Sa 10:00", "note": "ON 12/24 AND 12/31, THIS BOX MAY BE COLLECTED AS EARLY AS 12 NOON.", "nsi_id": "unitedstatespostalservice-a77078", "operator": "United States Postal Service", "operator:short": "USPS", "operator:type": "public", "operator:wikidata": "Q668687", "ref": "2570100133"}, "type": "Feature"}
{"geometry": {"coordinates": [-82.4266259756, 38.4090920018], "type": "Point"}, "id": "f8cVuGrdLxTl5PCl_8Bimb9DnEc=", "properties": {"@source_uri": "https://tools.usps.com/UspsToolsRestServices/rest/POLocator/findLocations", "@spider": "usps_collection_boxes", "addr:city": "HUNTINGTON", "addr:country": "US", "addr:postcode": "25701", "addr:state": "WV", "addr:street_address": "1600 MEDICAL CENTER DR", "amenity": "post_box", "collection_times": "Mo-Fr 13:30", "note": "ON 12/24 AND 12/31, THIS BOX MAY BE COLLECTED AS EARLY AS 12 NOON.", "nsi_id": "unitedstatespostalservice-a77078", "operator": "United States Postal Service", "operator:short": "USPS", "operator:type": "public", "operator:wikidata": "Q668687", "ref": "2570100135"}, "type": "Feature"}
{"geometry": {"coordinates": [-82.4384288003, 38.4235003106], "type": "Point"}, "id": "sEHiEoHqYAks4a62foIUCNomVyM=", "properties": {"@source_uri": "https://tools.usps.com/UspsToolsRestServices/rest/POLocator/findLocations", "@spider": "usps_collection_boxes", "addr:city": "HUNTINGTON", "addr:country": "US", "addr:postcode": "25701", "addr:state": "WV", "addr:street_address": "1200 VETERANS MEMORIAL BLVD", "amenity": "post_box", "collection_times": "Mo-Fr 16:30; Sa 12:00", "indoor": "yes", "note": "ON 12/24 AND 12/31, THIS BOX MAY BE COLLECTED AS EARLY AS 12 NOON.", "nsi_id": "unitedstatespostalservice-a77078", "operator": "United States Postal Service", "operator:short": "USPS", "operator:type": "public", "operator:wikidata": "Q668687", "ref": "2570100138"}, "type": "Feature"}
{"geometry": {"coordinates": [-82.4327867, 38.3951852], "type": "Point"}, "id": "c_1z_ANTi6CXga1amCXw7mtVROs=", "properties": {"@source_uri": "https://tools.usps.com/UspsToolsRestServices/rest/POLocator/findLocations", "@spider": "usps_collection_boxes", "addr:city": "HUNTINGTON", "addr:country": "US", "addr:postcode": "25701", "addr:state": "WV", "addr:street_address": "1200 VETERANS MEMORIAL BLVD", "amenity": "post_box", "collection_times": "Mo-Fr 16:15; Sa 11:45", "note": "ON 12/24 AND 12/31, THIS BOX MAY BE COLLECTED AS EARLY AS 12 NOON.", "nsi_id": "unitedstatespostalservice-a77078", "operator": "United States Postal Service", "operator:short": "USPS", "operator:type": "public", "operator:wikidata": "Q668687", "ref": "2570100140"}, "type": "Feature"}
{"geometry": {"coordinates": [-82.4014931, 38.431878], "type": "Point"}, "id": "F3tFw1yI23v84EUohFsfDqEPAis=", "properties": {"@source_uri": "https://tools.usps.com/UspsToolsRestServices/rest/POLocator/findLocations", "@spider": "usps_collection_boxes", "addr:city": "HUNTINGTON", "addr:country": "US", "addr:postcode": "25702", "addr:state": "WV", "addr:street_address": "2900 1ST AVE", "amenity": "post_box", "collection_times": "Mo-Fr 13:45; Sa 09:00", "note": "ON 12/24 AND 12/31, THIS BOX MAY BE COLLECTED AS EARLY AS 12 NOON.", "nsi_id": "unitedstatespostalservice-a77078", "operator": "United States Postal Service", "operator:short": "USPS", "operator:type": "public", "operator:wikidata": "Q668687", "ref": "2570200000"}, "type": "Feature"}
{"geometry": {"coordinates": [-82.388887649, 38.429881271], "type": "Point"}, "id": "jRjy2fmJ7UPUp-BuTS4LxzRyQZI=", "properties": {"@source_uri": "https://tools.usps.com/UspsToolsRestServices/rest/POLocator/findLocations", "@spider": "usps_collection_boxes", "addr:city": "HUNTINGTON", "addr:country": "US", "addr:postcode": "25702", "addr:state": "WV", "addr:street_address": "130 BRIDGE ST", "amenity": "post_box", "collection_times": "Mo-Fr 13:45; Sa 13:00", "note": "ON 12/24 AND 12/31, THIS BOX MAY BE COLLECTED AS EARLY AS 12 NOON.", "nsi_id": "unitedstatespostalservice-a77078", "operator": "United States Postal Service", "operator:short": "USPS", "operator:type": "public", "operator:wikidata": "Q668687", "ref": "2570200002"}, "type": "Feature"}
{"geometry": {"coordinates": [-82.3895066, 38.425843], "type": "Point"}, "id": "2unQ5AMn2zN8UnZgVA76mmmmhMk=", "properties": {"@source_uri": "https://tools.usps.com/UspsToolsRestServices/rest/POLocator/findLocations", "@spider": "usps_collection_boxes", "addr:city": "HUNTINGTON", "addr:country": "US", "addr:postcode": "25702", "addr:state": "WV", "addr:street_address": "416 MAIN ST", "amenity": "post_box", "collection_times": "Mo-Sa 13:00", "note": "ON 12/24 AND 12/31, THIS BOX MAY BE COLLECTED AS EARLY AS 12 NOON.", "nsi_id": "unitedstatespostalservice-a77078", "operator": "United States Postal Service", "operator:short": "USPS", "operator:type": "public", "operator:wikidata": "Q668687", "ref": "2570200012"}, "type": "Feature"}
{"geometry": {"coordinates": [-82.388887649, 38.429881271], "type": "Point"}, "id": "gT_S97cnI9-lFZijoMjTyvqyLrI=", "properties": {"@source_uri": "https://tools.usps.com/UspsToolsRestServices/rest/POLocator/findLocations", "@spider": "usps_collection_boxes", "addr:city": "HUNTINGTON", "addr:country": "US", "addr:postcode": "25702", "addr:state": "WV", "addr:street_address": "130 BRIDGE ST", "amenity": "post_box", "collection_times": "Mo-Fr 11:30", "indoor": "yes", "nsi_id": "unitedstatespostalservice-a77078", "operator": "United States Postal Service", "operator:short": "USPS", "operator:type": "public", "operator:wikidata": "Q668687", "ref": "2570200016"}, "type": "Feature"}
{"geometry": {"coordinates": [-82.4009845, 38.43056], "type": "Point"}, "id": "Bzr3uc47SHFIDoDr3XQ1h4gJ84o=", "properties": {"@source_uri": "https://tools.usps.com/UspsToolsRestServices/rest/POLocator/findLocations", "@spider": "usps_collection_boxes", "addr:city": "HUNTINGTON", "addr:country": "US", "addr:postcode": "25702", "addr:state": "WV", "addr:street_address": "2860 3RD AVE", "amenity": "post_box", "collection_times": "Mo-Fr 13:45; Sa 09:00", "note": "ON 12/24 AND 12/31, THIS BOX MAY BE COLLECTED AS EARLY AS 12 NOON.", "nsi_id": "unitedstatespostalservice-a77078", "operator": "United States Postal Service", "operator:short": "USPS", "operator:type": "public", "operator:wikidata": "Q668687", "ref": "2570200017"}, "type": "Feature"}
{"geometry": {"coordinates": [-82.388887649, 38.429881271], "type": "Point"}, "id": "o0ieeTw_U3NlP8XmmZrFLbLnCYM=", "properties": {"@source_uri": "https://tools.usps.com/UspsToolsRestServices/rest/POLocator/findLocations", "@spider": "usps_collection_boxes", "addr:city": "HUNTINGTON", "addr:country": "US", "addr:postcode": "25702", "addr:state": "WV", "addr:street_address": "130 BRIDGE ST", "amenity": "post_box", "collection_times": "Mo-Fr 11:30", "indoor": "yes", "nsi_id": "unitedstatespostalservice-a77078", "operator": "United States Postal Service", "operator:short": "USPS", "operator:type": "public", "operator:wikidata": "Q668687", "ref": "2570200024"}, "type": "Feature"}
{"geometry": {"coordinates": [-82.4268335, 38.42484], "type": "Point"}, "id": "xVYJOEG8raMw4HIqPu8H-hXHzPQ=", "properties": {"@source_uri": "https://tools.usps.com/UspsToolsRestServices/rest/POLocator/findLocations", "@spider": "usps_collection_boxes", "addr:city": "HUNTINGTON", "addr:country": "US", "addr:postcode": "25703", "addr:state": "WV", "addr:street_address": "1802 3RD AVE", "amenity": "post_box", "collection_times": "Mo-Fr 13:45", "note": "ON 12/24 AND 12/31, THIS BOX MAY BE COLLECTED AS EARLY AS 12 NOON.", "nsi_id": "unitedstatespostalservice-a77078", "operator": "United States Postal Service", "operator:short": "USPS", "operator:type": "public", "operator:wikidata": "Q668687", "ref": "2570300000"}, "type": "Feature"}
{"geometry": {"coordinates": [-82.4098839622, 38.4276499964], "type": "Point"}, "id": "NyR4NbfwRWF1vnDH-oaRcCxhB6w=", "properties": {"@source_uri": "https://tools.usps.com/UspsToolsRestServices/rest/POLocator/findLocations", "@spider": "usps_collection_boxes", "addr:city": "HUNTINGTON", "addr:country": "US", "addr:postcode": "25703", "addr:state": "WV", "addr:street_address": "2585 3RD AVE", "amenity": "post_box", "collection_times": "Mo-Fr 13:45; Sa 13:00", "note": "ON 12/24 AND 12/31, THIS BOX MAY BE COLLECTED AS EARLY AS 12 NOON.", "nsi_id": "unitedstatespostalservice-a77078", "operator": "United States Postal Service", "operator:short": "USPS", "operator:type": "public", "operator:wikidata": "Q668687", "ref": "2570300010"}, "type": "Feature"}
{"geometry": {"coordinates": [-82.4202219, 38.414362], "type": "Point"}, "id": "s9UrAMLMAoK95NGAreTiJTxmKGw=", "properties": {"@source_uri": "https://tools.usps.com/UspsToolsRestServices/rest/POLocator/findLocations", "@spider": "usps_collection_boxes", "addr:city": "HUNTINGTON", "addr:country": "US", "addr:postcode": "25703", "addr:state": "WV", "addr:street_address": "1115 20TH ST", "amenity": "post_box", "collection_times": "Mo-Fr 14:00; Sa 12:00", "note": "ON 12/24 AND 12/31, THIS BOX MAY BE COLLECTED AS EARLY AS 12 NOON.", "nsi_id": "unitedstatespostalservice-a77078", "operator": "United States Postal Service", "operator:short": "USPS", "operator:type": "public", "operator:wikidata": "Q668687", "ref": "2570300013"}, "type": "Feature"}
{"geometry": {"coordinates": [-82.4254847, 38.421129], "type": "Point"}, "id": "C9IXb3RVdb1cL_RpYkLsDrcWvZ0=", "properties": {"@source_uri": "https://tools.usps.com/UspsToolsRestServices/rest/POLocator/findLocations", "@spider": "usps_collection_boxes", "addr:city": "HUNTINGTON", "addr:country": "US", "addr:postcode": "25703", "addr:state": "WV", "addr:street_address": "1802 6TH AVE", "amenity": "post_box", "collection_times": "Mo-Sa 10:00", "nsi_id": "unitedstatespostalservice-a77078", "operator": "United States Postal Service", "operator:short": "USPS", "operator:type": "public", "operator:wikidata": "Q668687", "ref": "2570300018"}, "type": "Feature"}
{"geometry": {"coordinates": [-82.4289014, 38.417421], "type": "Point"}, "id": "p5OJUn5QE3j26IPUQWMuUiQKNgc=", "properties": {"@source_uri": "https://tools.usps.com/UspsToolsRestServices/rest/POLocator/findLocations", "@spider": "usps_collection_boxes", "addr:city": "HUNTINGTON", "addr:country": "US", "addr:postcode": "25703", "addr:state": "WV", "addr:street_address": "1632 8TH AVE", "amenity": "post_box", "collection_times": "Mo-Sa 08:30", "nsi_id": "unitedstatespostalservice-a77078", "operator": "United States Postal Service", "operator:short": "USPS", "operator:type": "public", "operator:wikidata": "Q668687", "ref": "2570300021"}, "type": "Feature"}
{"geometry": {"coordinates": [-82.473477126, 38.415869898], "type": "Point"}, "id": "m3mNJOk0Em1IS_s4STAk-ZIcLkY=", "properties": {"@source_uri": "https://tools.usps.com/UspsToolsRestServices/rest/POLocator/findLocations", "@spider": "usps_collection_boxes", "addr:city": "HUNTINGTON", "addr:country": "US", "addr:postcode": "25704", "addr:state": "WV", "addr:street_address": "1000 VIRGINIA AVE W", "amenity": "post_box", "collection_times": "Mo-Sa 17:00", "note": "ON 12/24 AND 12/31, THIS BOX MAY BE COLLECTED AS EARLY AS 12 NOON.", "nsi_id": "unitedstatespostalservice-a77078", "operator": "United States Postal Service", "operator:short": "USPS", "operator:type": "public", "operator:wikidata": "Q668687", "ref": "2570400001"}, "type": "Feature"}
{"geometry": {"coordinates": [-82.4774947, 38.412586], "type": "Point"}, "id": "bH9UgKySkarnKLUQaZ2UyKKznZM=", "properties": {"@source_uri": "https://tools.usps.com/UspsToolsRestServices/rest/POLocator/findLocations", "@spider": "usps_collection_boxes", "addr:city": "HUNTINGTON", "addr:country": "US", "addr:postcode": "25704", "addr:state": "WV", "addr:street_address": "1220 ADAMS AVE", "amenity": "post_box", "collection_times": "Mo-Fr 13:30; Sa 13:00", "note": "ON 12/24 AND 12/31, THIS BOX MAY BE COLLECTED AS EARLY AS 12 NOON.", "nsi_id": "unitedstatespostalservice-a77078", "operator": "United States Postal Service", "operator:short": "USPS", "operator:type": "public", "operator:wikidata": "Q668687", "ref": "2570400006"}, "type": "Feature"}
{"geometry": {"coordinates": [-82.4791938, 38.408471], "type": "Point"}, "id": "3m2h8fs3ajQx0P1JIOu0-jifqiE=", "properties": {"@source_uri": "https://tools.usps.com/UspsToolsRestServices/rest/POLocator/findLocations", "@spider": "usps_collection_boxes", "addr:city": "HUNTINGTON", "addr:country": "US", "addr:postcode": "25704", "addr:state": "WV", "addr:street_address": "810 14TH ST W", "amenity": "post_box", "collection_times": "Mo-Sa 10:00", "nsi_id": "unitedstatespostalservice-a77078", "operator": "United States Postal Service", "operator:short": "USPS", "operator:type": "public", "operator:wikidata": "Q668687", "ref": "2570400008"}, "type": "Feature"}
{"geometry": {"coordinates": [-82.501422756, 38.403163404], "type": "Point"}, "id": "SUvJIJJhIBKqUoNYxsW3akvmLpI=", "properties": {"@source_uri": "https://tools.usps.com/UspsToolsRestServices/rest/POLocator/findLocations", "@spider": "usps_collection_boxes", "addr:city": "HUNTINGTON", "addr:country": "US", "addr:postcode": "25704", "addr:state": "WV", "addr:street_address": "500 CAMDEN RD", "amenity": "post_box", "collection_times": "Mo-Fr 14:30; Sa 10:00", "note": "ON 12/24 AND 12/31, THIS BOX MAY BE COLLECTED AS EARLY AS 12 NOON.", "nsi_id": "unitedstatespostalservice-a77078", "operator": "United States Postal Service", "operator:short": "USPS", "operator:type": "public", "operator:wikidata": "Q668687", "ref": "2570400017"}, "type": "Feature"}
{"geometry": {"coordinates": [-82.5097614, 38.400068], "type": "Point"}, "id": "of4zZ791Ow6HOF7RDmq-OhgLQsY=", "properties": {"@source_uri": "https://tools.usps.com/UspsToolsRestServices/rest/POLocator/findLocations", "@spider": "usps_collection_boxes", "addr:city": "HUNTINGTON", "addr:country": "US", "addr:postcode": "25704", "addr:state": "WV", "addr:street_address": "3800 PIEDMONT RD", "amenity": "post_box", "collection_times": "Mo-Sa 08:15", "nsi_id": "unitedstatespostalservice-a77078", "operator": "United States Postal Service", "operator:short": "USPS", "operator:type": "public", "operator:wikidata": "Q668687", "ref": "2570400019"}, "type": "Feature"}
{"geometry": {"coordinates": [-82.4883835, 38.409548], "type": "Point"}, "id": "DPxeqWLZQDhc7hqwf9SeB8BvbDQ=", "properties": {"@source_uri": "https://tools.usps.com/UspsToolsRestServices/rest/POLocator/findLocations", "@spider": "usps_collection_boxes", "addr:city": "HUNTINGTON", "addr:country": "US", "addr:postcode": "25704", "addr:state": "WV", "addr:street_address": "1925 ADAMS AVE", "amenity": "post_box", "collection_times": "Mo-Fr 14:30; Sa 10:00", "note": "ON 12/24 AND 12/31, THIS BOX MAY BE COLLECTED AS EARLY AS 12 NOON.", "nsi_id": "unitedstatespostalservice-a77078", "operator": "United States Postal Service", "operator:short": "USPS", "operator:type": "public", "operator:wikidata": "Q668687", "ref": "2570400021"}, "type": "Feature"}
{"geometry": {"coordinates": [-82.473477126, 38.415869898], "type": "Point"}, "id": "F8fg5hPqoHk6PCZpdfimT1UqXd8=", "properties": {"@source_uri": "https://tools.usps.com/UspsToolsRestServices/rest/POLocator/findLocations", "@spider": "usps_collection_boxes", "addr:city": "HUNTINGTON", "addr:country": "US", "addr:postcode": "25704", "addr:state": "WV", "addr:street_address": "1000 VIRGINIA AVE W", "amenity": "post_box", "collection_times": "Mo-Sa 17:00", "indoor": "yes", "note": "ON 12/24 AND 12/31, THIS BOX MAY BE COLLECTED AS EARLY AS 12 NOON.", "nsi_id": "unitedstatespostalservice-a77078", "operator": "United States Postal Service", "operator:short": "USPS", "operator:type": "public", "operator:wikidata": "Q668687", "ref": "2570400023"}, "type": "Feature"}
{"geometry": {"coordinates": [-82.4653706, 38.418217], "type": "Point"}, "id": "iEC0--f13peJlO-OKPn4KrHxUjM=", "properties": {"@source_uri": "https://tools.usps.com/UspsToolsRestServices/rest/POLocator/findLocations", "@spider": "usps_collection_boxes", "addr:city": "HUNTINGTON", "addr:country": "US", "addr:postcode": "25704", "addr:state": "WV", "addr:street_address": "500 VIRGINIA AVE", "amenity": "post_box", "collection_times": "Mo-Fr 14:00", "note": "ON 12/24 AND 12/31, THIS BOX MAY BE COLLECTED AS EARLY AS 12 NOON.", "nsi_id": "unitedstatespostalservice-a77078", "operator": "United States Postal Service", "operator:short": "USPS", "operator:type": "public", "operator:wikidata": "Q668687", "ref": "2570400025"}, "type": "Feature"}
{"geometry": {"coordinates": [-82.473477126, 38.415869898], "type": "Point"}, "id": "r_lAL-SxckUV5_EgkQxLLwgeI4g=", "properties": {"@source_uri": "https://tools.usps.com/UspsToolsRestServices/rest/POLocator/findLocations", "@spider": "usps_collection_boxes", "addr:city": "HUNTINGTON", "addr:country": "US", "addr:postcode": "25704", "addr:state": "WV", "addr:street_address": "1000 VIRGINIA AVE W", "amenity": "post_box", "collection_times": "Mo-Sa 17:00", "indoor": "yes", "note": "ON 12/24 AND 12/31, THIS BOX MAY BE COLLECTED AS EARLY AS 12 NOON.", "nsi_id": "unitedstatespostalservice-a77078", "operator": "United States Postal Service", "operator:short": "USPS", "operator:type": "public", "operator:wikidata": "Q668687", "ref": "2570400027"}, "type": "Feature"}
{"geometry": {"coordinates": [-82.473477126, 38.415869898], "type": "Point"}, "id": "xDqfp9qdyQNGA6CTBx6RdcdzUK8=", "properties": {"@source_uri": "https://tools.usps.com/UspsToolsRestServices/rest/POLocator/findLocations", "@spider": "usps_collection_boxes", "addr:city": "HUNTINGTON", "addr:country": "US", "addr:postcode": "25704", "addr:state": "WV", "addr:street_address": "1000 VIRGINIA AVE W", "amenity": "post_box", "collection_times": "Mo-Sa 17:00", "indoor": "yes", "note": "ON 12/24 AND 12/31, THIS BOX MAY BE COLLECTED AS EARLY AS 12 NOON.", "nsi_id": "unitedstatespostalservice-a77078", "operator": "United States Postal Service", "operator:short": "USPS", "operator:type": "public", "operator:wikidata": "Q668687", "ref": "2570400028"}, "type": "Feature"}
{"geometry": {"coordinates": [-82.4927435, 38.401406], "type": "Point"}, "id": "2itMTTQ_hiCyt5LqqQLnHUW26no=", "properties": {"@source_uri": "https://tools.usps.com/UspsToolsRestServices/rest/POLocator/findLocations", "@spider": "usps_collection_boxes", "addr:city": "HUNTINGTON", "addr:country": "US", "addr:postcode": "25704", "addr:state": "WV", "addr:street_address": "2699 PARK AVE", "amenity": "post_box", "collection_times": "Mo-Fr 14:30", "note": "ON 12/24 AND 12/31, THIS BOX MAY BE COLLECTED AS EARLY AS 12 NOON.", "nsi_id": "unitedstatespostalservice-a77078", "operator": "United States Postal Service", "operator:short": "USPS", "operator:type": "public", "operator:wikidata": "Q668687", "ref": "2570400029"}, "type": "Feature"}
{"geometry": {"coordinates": [-82.4679724, 38.412067], "type": "Point"}, "id": "MJtZCiPUITzpwE-67-lmOz9wO3w=", "properties": {"@source_uri": "https://tools.usps.com/UspsToolsRestServices/rest/POLocator/findLocations", "@spider": "usps_collection_boxes", "addr:city": "HUNTINGTON", "addr:country": "US", "addr:postcode": "25704", "addr:state": "WV", "addr:street_address": "810 MADISON AVE", "amenity": "post_box", "collection_times": "Mo-Fr 13:30", "note": "ON 12/24 AND 12/31, THIS BOX MAY BE COLLECTED AS EARLY AS 12 NOON.", "nsi_id": "unitedstatespostalservice-a77078", "operator": "United States Postal Service", "operator:short": "USPS", "operator:type": "public", "operator:wikidata": "Q668687", "ref": "2570400031"}, "type": "Feature"}
{"geometry": {"coordinates": [-82.5158313, 38.37724], "type": "Point"}, "id": "1d47GJhjXTA87gjOcnjkYFZOwPY=", "properties": {"@source_uri": "https://tools.usps.com/UspsToolsRestServices/rest/POLocator/findLocations", "@spider": "usps_collection_boxes", "addr:city": "HUNTINGTON", "addr:country": "US", "addr:postcode": "25704", "addr:state": "WV", "addr:street_address": "1542 SPRING VALLEY DR", "amenity": "post_box", "collection_times": "Mo-Sa 10:00", "nsi_id": "unitedstatespostalservice-a77078", "operator": "United States Postal Service", "operator:short": "USPS", "operator:type": "public", "operator:wikidata": "Q668687", "ref": "2570400033"}, "type": "Feature"}
{"geometry": {"coordinates": [-82.473477126, 38.415869898], "type": "Point"}, "id": "3CvrCtc2-9cxkHfauyPRaP34-ic=", "properties": {"@source_uri": "https://tools.usps.com/UspsToolsRestServices/rest/POLocator/findLocations", "@spider": "usps_collection_boxes", "addr:city": "HUNTINGTON", "addr:country": "US", "addr:postcode": "25704", "addr:state": "WV", "addr:street_address": "1000 VIRGINIA AVE W", "amenity": "post_box", "collection_times": "Mo-Fr 17:00; Sa 12:00", "indoor": "yes", "note": "ON 12/24 AND 12/31, THIS BOX MAY BE COLLECTED AS EARLY AS 12 NOON.", "nsi_id": "unitedstatespostalservice-a77078", "operator": "United States Postal Service", "operator:short": "USPS", "operator:type": "public", "operator:wikidata": "Q668687", "ref": "2570400036"}, "type": "Feature"}
{"geometry": {"coordinates": [-82.3373587, 38.416539], "type": "Point"}, "id": "x0yFQYkt53cRIghtucBC36GKnw4=", "properties": {"@source_uri": "https://tools.usps.com/UspsToolsRestServices/rest/POLocator/findLocations", "@spider": "usps_collection_boxes", "addr:city": "HUNTINGTON", "addr:country": "US", "addr:postcode": "25705", "addr:state": "WV", "addr:street_address": "6275 COUNTRY CLUB DR", "amenity": "post_box", "collection_times": "Mo-Sa 09:45", "nsi_id": "unitedstatespostalservice-a77078", "operator": "United States Postal Service", "operator:short": "USPS", "operator:type": "public", "operator:wikidata": "Q668687", "ref": "2570500000"}, "type": "Feature"}
{"geometry": {"coordinates": [-82.3248870783, 38.4110196766], "type": "Point"}, "id": "LgyjIUUPk4uhz2Vll6t0wwQ-3_U=", "properties": {"@source_uri": "https://tools.usps.com/UspsToolsRestServices/rest/POLocator/findLocations", "@spider": "usps_collection_boxes", "addr:city": "HUNTINGTON", "addr:country": "US", "addr:postcode": "25705", "addr:state": "WV", "addr:street_address": "5636 US ROUTE 60", "amenity": "post_box", "collection_times": "Sa 10:00", "nsi_id": "unitedstatespostalservice-a77078", "operator": "United States Postal Service", "operator:short": "USPS", "operator:type": "public", "operator:wikidata": "Q668687", "ref": "2570500002"}, "type": "Feature"}
{"geometry": {"coordinates": [-82.4102829, 38.406488], "type": "Point"}, "id": "O7PO1U7DPIOjlRzqHw1ri1BcsUw=", "properties": {"@source_uri": "https://tools.usps.com/UspsToolsRestServices/rest/POLocator/findLocations", "@spider": "usps_collection_boxes", "addr:city": "HUNTINGTON", "addr:country": "US", "addr:postcode": "25705", "addr:state": "WV", "addr:street_address": "131 WOODLAND DR", "amenity": "post_box", "collection_times": "Mo-Sa 10:00", "nsi_id": "unitedstatespostalservice-a77078", "operator": "United States Postal Service", "operator:short": "USPS", "operator:type": "public", "operator:wikidata": "Q668687", "ref": "2570500004"}, "type": "Feature"}
{"geometry": {"coordinates": [-82.3892477, 38.413553], "type": "Point"}, "id": "XvSmxX0c192iQmHHghaISWcCl6U=", "properties": {"@source_uri": "https://tools.usps.com/UspsToolsRestServices/rest/POLocator/findLocations", "@spider": "usps_collection_boxes", "addr:city": "HUNTINGTON", "addr:country": "US", "addr:postcode": "25705", "addr:state": "WV", "addr:street_address": "1419 US ROUTE 60", "amenity": "post_box", "collection_times": "Mo-Fr 13:45; Sa 09:00", "note": "ON 12/24 AND 12/31, THIS BOX MAY BE COLLECTED AS EARLY AS 12 NOON.", "nsi_id": "unitedstatespostalservice-a77078", "operator": "United States Postal Service", "operator:short": "USPS", "operator:type": "public", "operator:wikidata": "Q668687", "ref": "2570500007"}, "type": "Feature"}
{"geometry": {"coordinates": [-82.3657454, 38.4105], "type": "Point"}, "id": "or17FmCK2UZYN5qtSKx0Di_v7q8=", "properties": {"@source_uri": "https://tools.usps.com/UspsToolsRestServices/rest/POLocator/findLocations", "@spider": "usps_collection_boxes", "addr:city": "HUNTINGTON", "addr:country": "US", "addr:postcode": "25705", "addr:state": "WV", "addr:street_address": "4341 US ROUTE 60", "amenity": "post_box", "collection_times": "Mo-Fr 13:00; Sa 09:00", "note": "ON 12/24 AND 12/31, THIS BOX MAY BE COLLECTED AS EARLY AS 12 NOON.", "nsi_id": "unitedstatespostalservice-a77078", "operator": "United States Postal Service", "operator:short": "USPS", "operator:type": "public", "operator:wikidata": "Q668687", "ref": "2570500009"}, "type": "Feature"}
{"geometry": {"coordinates": [-82.402834144, 38.409118294], "type": "Point"}, "id": "pDgzKlIOO2VAcatqMUN5QFENbdY=", "properties": {"@source_uri": "https://tools.usps.com/UspsToolsRestServices/rest/POLocator/findLocations", "@spider": "usps_collection_boxes", "addr:city": "HUNTINGTON", "addr:country": "US", "addr:postcode": "25705", "addr:state": "WV", "addr:street_address": "323 OLIVE ST", "amenity": "post_box", "collection_times": "Mo-Fr 13:30; Sa 10:00", "note": "ON 12/24 AND 12/31, THIS BOX MAY BE COLLECTED AS EARLY AS 12 NOON.", "nsi_id": "unitedstatespostalservice-a77078", "operator": "United States Postal Service", "operator:short": "USPS", "operator:type": "public", "operator:wikidata": "Q668687", "ref": "2570500016"}, "type": "Feature"}
{"geometry": {"coordinates": [-82.402834144, 38.409118294], "type": "Point"}, "id": "igIAZWdI5KkkFQkz29S9y8k7azo=", "properties": {"@source_uri": "https://tools.usps.com/UspsToolsRestServices/rest/POLocator/findLocations", "@spider": "usps_collection_boxes", "addr:city": "HUNTINGTON", "addr:country": "US", "addr:postcode": "25705", "addr:state": "WV", "addr:street_address": "323 OLIVE ST", "amenity": "post_box", "collection_times": "Mo-Fr 16:00", "indoor": "yes", "note": "ON 12/24 AND 12/31, THIS BOX MAY BE COLLECTED AS EARLY AS 12 NOON.", "nsi_id": "unitedstatespostalservice-a77078", "operator": "United States Postal Service", "operator:short": "USPS", "operator:type": "public", "operator:wikidata": "Q668687", "ref": "2570500019"}, "type": "Feature"}
{"geometry": {"coordinates": [-82.342663, 38.410989], "type": "Point"}, "id": "WKEzx2bCrYcUmW88ynUVFcQO3kg=", "properties": {"@source_uri": "https://tools.usps.com/UspsToolsRestServices/rest/POLocator/findLocations", "@spider": "usps_collection_boxes", "addr:city": "HUNTINGTON", "addr:country": "US", "addr:postcode": "25705", "addr:state": "WV", "addr:street_address": "5187 US ROUTE 60", "amenity": "post_box", "collection_times": "Mo-Sa 08:30", "nsi_id": "unitedstatespostalservice-a77078", "operator": "United States Postal Service", "operator:short": "USPS", "operator:type": "public", "operator:wikidata": "Q668687", "ref": "2570500020"}, "type": "Feature"}
{"geometry": {"coordinates": [-82.402834144, 38.409118294], "type": "Point"}, "id": "IdXLQAsTN767VdU7FiOuoJUT_oI=", "properties": {"@source_uri": "https://tools.usps.com/UspsToolsRestServices/rest/POLocator/findLocations", "@spider": "usps_collection_boxes", "addr:city": "HUNTINGTON", "addr:country": "US", "addr:postcode": "25705", "addr:state": "WV", "addr:street_address": "323 OLIVE ST", "amenity": "post_box", "collection_times": "Mo-Fr 16:00", "indoor": "yes", "note": "ON 12/24 AND 12/31, THIS BOX MAY BE COLLECTED AS EARLY AS 12 NOON.", "nsi_id": "unitedstatespostalservice-a77078", "operator": "United States Postal Service", "operator:short": "USPS", "operator:type": "public", "operator:wikidata": "Q668687", "ref": "2570500023"}, "type": "Feature"}
