{"geometry": {"coordinates": [-81.1998822, 37.777278], "type": "Point"}, "id": "63mb6jVYt3oC5mtim9dkB3vtk_k=", "properties": {"@source_uri": "https://tools.usps.com/UspsToolsRestServices/rest/POLocator/findLocations", "@spider": "usps_collection_boxes", "addr:city": "BECKLEY", "addr:country": "US", "addr:postcode": "25801", "addr:state": "WV", "addr:street_address": "1200 HARPER RD", "amenity": "post_box", "collection_times": "Mo-Fr 12:00; Sa 09:30", "nsi_id": "unitedstatespostalservice-a77078", "operator": "United States Postal Service", "operator:short": "USPS", "operator:type": "public", "operator:wikidata": "Q668687", "ref": "2580100011"}, "type": "Feature"}
{"geometry": {"coordinates": [-81.1834564, 37.802301], "type": "Point"}, "id": "rxjPfYKi94ajJLQOlTdXa5jzTM0=", "properties": {"@source_uri": "https://tools.usps.com/UspsToolsRestServices/rest/POLocator/findLocations", "@spider": "usps_collection_boxes", "addr:city": "BECKLEY", "addr:country": "US", "addr:postcode": "25801", "addr:state": "WV", "addr:street_address": "413 BECKLEY CROSSING SHPG CTR", "amenity": "post_box", "collection_times": "Mo-Fr 14:45; Sa 09:00", "note": "ON 12/24 AND 12/31, THIS BOX MAY BE COLLECTED AS EARLY AS 12 NOON.", "nsi_id": "unitedstatespostalservice-a77078", "operator": "United States Postal Service", "operator:short": "USPS", "operator:type": "public", "operator:wikidata": "Q668687", "ref": "2580100017"}, "type": "Feature"}
{"geometry": {"coordinates": [-81.1868841, 37.812678], "type": "Point"}, "id": "p9lam42zB8XxXUHWX8bv0Rehy1A=", "properties": {"@source_uri": "https://tools.usps.com/UspsToolsRestServices/rest/POLocator/findLocations", "@spider": "usps_collection_boxes", "addr:city": "BECKLEY", "addr:country": "US", "addr:postcode": "25801", "addr:state": "WV", "addr:street_address": "51 RALEIGH MALL", "amenity": "post_box", "collection_times": "Mo-Fr 11:00; Sa 09:30", "nsi_id": "unitedstatespostalservice-a77078", "operator": "United States Postal Service", "operator:short": "USPS", "operator:type": "public", "operator:wikidata": "Q668687", "ref": "2580100021"}, "type": "Feature"}
{"geometry": {"coordinates": [-81.1723886, 37.791232], "type": "Point"}, "id": "FSWPltG5nO8NjLwY5K76ywekFvU=", "properties": {"@source_uri": "https://tools.usps.com/UspsToolsRestServices/rest/POLocator/findLocations", "@spider": "usps_collection_boxes", "addr:city": "BECKLEY", "addr:country": "US", "addr:postcode": "25801", "addr:state": "WV", "addr:street_address": "503 N EISENHOWER DR", "amenity": "post_box", "collection_times": "Mo-Fr 14:45; Sa 09:30", "note": "ON 12/24 AND 12/31, THIS BOX MAY BE COLLECTED AS EARLY AS 12 NOON.", "nsi_id": "unitedstatespostalservice-a77078", "operator": "United States Postal Service", "operator:short": "USPS", "operator:type": "public", "operator:wikidata": "Q668687", "ref": "2580100022"}, "type": "Feature"}
{"geometry": {"coordinates": [-81.1686528, 37.798783], "type": "Point"}, "id": "fgkEcUwpwPQNGu6OoQdr_ZV2SvM=", "properties": {"@source_uri": "https://tools.usps.com/UspsToolsRestServices/rest/POLocator/findLocations", "@spider": "usps_collection_boxes", "addr:city": "BECKLEY", "addr:country": "US", "addr:postcode": "25801", "addr:state": "WV", "addr:street_address": "306 STANAFORD RD", "amenity": "post_box", "collection_times": "Mo-Fr 10:00; Sa 09:30", "nsi_id": "unitedstatespostalservice-a77078", "operator": "United States Postal Service", "operator:short": "USPS", "operator:type": "public", "operator:wikidata": "Q668687", "ref": "2580100023"}, "type": "Feature"}
{"geometry": {"coordinates": [-81.1688024, 37.783193], "type": "Point"}, "id": "VPGT8PL1Vhr9zRaDh8w-CuLyHVA=", "properties": {"@source_uri": "https://tools.usps.com/UspsToolsRestServices/rest/POLocator/findLocations", "@spider": "usps_collection_boxes", "addr:city": "BECKLEY", "addr:country": "US", "addr:postcode": "25801", "addr:state": "WV", "addr:street_address": "105 S EISENHOWER DR", "amenity": "post_box", "collection_times": "Mo-Fr 14:45; Sa 10:30", "note": "ON 12/24 AND 12/31, THIS BOX MAY BE COLLECTED AS EARLY AS 12 NOON.", "nsi_id": "unitedstatespostalservice-a77078", "operator": "United States Postal Service", "operator:short": "USPS", "operator:type": "public", "operator:wikidata": "Q668687", "ref": "2580100039"}, "type": "Feature"}
{"geometry": {"coordinates": [-81.192359, 37.765759], "type": "Point"}, "id": "RPBDLKyTGIDNZB8JsDNwenANKPE=", "properties": {"@source_uri": "https://tools.usps.com/UspsToolsRestServices/rest/POLocator/findLocations", "@spider": "usps_collection_boxes", "addr:city": "BECKLEY", "addr:country": "US", "addr:postcode": "25801", "addr:state": "WV", "addr:street_address": "200 VETERANS AVE", "amenity": "post_box", "collection_times": "Mo-Fr 14:30; Sa 11:00", "note": "ON 12/24 AND 12/31, THIS BOX MAY BE COLLECTED AS EARLY AS 12 NOON.", "nsi_id": "unitedstatespostalservice-a77078", "operator": "United States Postal Service", "operator:short": "USPS", "operator:type": "public", "operator:wikidata": "Q668687", "ref": "2580100041"}, "type": "Feature"}
{"geometry": {"coordinates": [-81.1952782, 37.771609], "type": "Point"}, "id": "NrlnXvea8y2fBxk6bFsyAH1dGnA=", "properties": {"@source_uri": "https://tools.usps.com/UspsToolsRestServices/rest/POLocator/findLocations", "@spider": "usps_collection_boxes", "addr:city": "BECKLEY", "addr:country": "US", "addr:postcode": "25801", "addr:state": "WV", "addr:street_address": "2810 ROBERT C BYRD DR", "amenity": "post_box", "collection_times": "Mo-Sa 12:00", "nsi_id": "unitedstatespostalservice-a77078", "operator": "United States Postal Service", "operator:short": "USPS", "operator:type": "public", "operator:wikidata": "Q668687", "ref": "2580100042"}, "type": "Feature"}
{"geometry": {"coordinates": [-81.19139, 37.77583], "type": "Point"}, "id": "qnAUGh4ZSTV7XOlOi9iKucULeIc=", "properties": {"@source_uri": "https://tools.usps.com/UspsToolsRestServices/rest/POLocator/findLocations", "@spider": "usps_collection_boxes", "addr:city": "BECKLEY", "addr:country": "US", "addr:postcode": "25801", "addr:state": "WV", "addr:street_address": "2987 ROBERT C BYRD DR", "amenity": "post_box", "collection_times": "Mo-Fr 11:00", "nsi_id": "unitedstatespostalservice-a77078", "operator": "United States Postal Service", "operator:short": "USPS", "operator:type": "public", "operator:wikidata": "Q668687", "ref": "2580100043"}, "type": "Feature"}
{"geometry": {"coordinates": [-81.2025492, 37.787525], "type": "Point"}, "id": "57_yrUvveYlflBAv-_eoOgswn58=", "properties": {"@source_uri": "https://tools.usps.com/UspsToolsRestServices/rest/POLocator/findLocations", "@spider": "usps_collection_boxes", "addr:city": "BECKLEY", "addr:country": "US", "addr:postcode": "25801", "addr:state": "WV", "addr:street_address": "1710 HARPER RD", "amenity": "post_box", "collection_times": "Mo-Fr 14:45; Sa 09:30", "note": "ON 12/24 AND 12/31, THIS BOX MAY BE COLLECTED AS EARLY AS 12 NOON.", "nsi_id": "unitedstatespostalservice-a77078", "operator": "United States Postal Service", "operator:short": "USPS", "operator:type": "public", "operator:wikidata": "Q668687", "ref": "2580100044"}, "type": "Feature"}
{"geometry": {"coordinates": [-81.2036471, 37.77961], "type": "Point"}, "id": "k9mFGuOxSa3W5hZJB_oIKrkyYvk=", "properties": {"@source_uri": "https://tools.usps.com/UspsToolsRestServices/rest/POLocator/findLocations", "@spider": "usps_collection_boxes", "addr:city": "BECKLEY", "addr:country": "US", "addr:postcode": "25801", "addr:state": "WV", "addr:street_address": "1334 HARPER RD", "amenity": "post_box", "collection_times": "Mo-Fr 12:45; Sa 09:00", "note": "ON 12/24 AND 12/31, THIS BOX MAY BE COLLECTED AS EARLY AS 12 NOON.", "nsi_id": "unitedstatespostalservice-a77078", "operator": "United States Postal Service", "operator:short": "USPS", "operator:type": "public", "operator:wikidata": "Q668687", "ref": "2580100045"}, "type": "Feature"}
{"geometry": {"coordinates": [-81.19139, 37.77583], "type": "Point"}, "id": "FBX6lcrY7M2YdO15zsIi9_2gL34=", "properties": {"@source_uri": "https://tools.usps.com/UspsToolsRestServices/rest/POLocator/findLocations", "@spider": "usps_collection_boxes", "addr:city": "BECKLEY", "addr:country": "US", "addr:postcode": "25801", "addr:state": "WV", "addr:street_address": "622 NEVILLE ST", "amenity": "post_box", "collection_times": "Mo-Fr 14:45; Sa 09:00", "note": "ON 12/24 AND 12/31, THIS BOX MAY BE COLLECTED AS EARLY AS 12 NOON.", "nsi_id": "unitedstatespostalservice-a77078", "operator": "United States Postal Service", "operator:short": "USPS", "operator:type": "public", "operator:wikidata": "Q668687", "ref": "2580100046"}, "type": "Feature"}
{"geometry": {"coordinates": [-81.1908042, 37.776221], "type": "Point"}, "id": "DDCFdOJPbMR3lQ5ablLCY7sLmis=", "properties": {"@source_uri": "https://tools.usps.com/UspsToolsRestServices/rest/POLocator/findLocations", "@spider": "usps_collection_boxes", "addr:city": "BECKLEY", "addr:country": "US", "addr:postcode": "25801", "addr:state": "WV", "addr:street_address": "400 NEVILLE ST", "amenity": "post_box", "collection_times": "Mo-Fr 14:45; Sa 09:00", "note": "ON 12/24 AND 12/31, THIS BOX MAY BE COLLECTED AS EARLY AS 12 NOON.", "nsi_id": "unitedstatespostalservice-a77078", "operator": "United States Postal Service", "operator:short": "USPS", "operator:type": "public", "operator:wikidata": "Q668687", "ref": "2580100049"}, "type": "Feature"}
{"geometry": {"coordinates": [-81.1890571, 37.777556], "type": "Point"}, "id": "muahrV23GvaV9lPqBqnhU2HafH8=", "properties": {"@source_uri": "https://tools.usps.com/UspsToolsRestServices/rest/POLocator/findLocations", "@spider": "usps_collection_boxes", "addr:city": "BECKLEY", "addr:country": "US", "addr:postcode": "25801", "addr:state": "WV", "addr:street_address": "215 MAIN ST", "amenity": "post_box", "collection_times": "Mo-Fr 14:45; Sa 09:00", "note": "ON 12/24 AND 12/31, THIS BOX MAY BE COLLECTED AS EARLY AS 12 NOON.", "nsi_id": "unitedstatespostalservice-a77078", "operator": "United States Postal Service", "operator:short": "USPS", "operator:type": "public", "operator:wikidata": "Q668687", "ref": "2580100050"}, "type": "Feature"}
{"geometry": {"coordinates": [-81.1879607, 37.777848], "type": "Point"}, "id": "3Y8xlnyfwogI34xc7c6SSuNFjtQ=", "properties": {"@source_uri": "https://tools.usps.com/UspsToolsRestServices/rest/POLocator/findLocations", "@spider": "usps_collection_boxes", "addr:city": "BECKLEY", "addr:country": "US", "addr:postcode": "25801", "addr:state": "WV", "addr:street_address": "100 MAIN ST", "amenity": "post_box", "collection_times": "Mo-Fr 14:45; Sa 09:00", "note": "ON 12/24 AND 12/31, THIS BOX MAY BE COLLECTED AS EARLY AS 12 NOON.", "nsi_id": "unitedstatespostalservice-a77078", "operator": "United States Postal Service", "operator:short": "USPS", "operator:type": "public", "operator:wikidata": "Q668687", "ref": "2580100053"}, "type": "Feature"}
{"geometry": {"coordinates": [-81.1907927, 37.776242], "type": "Point"}, "id": "kf_HI22GXuikl1euTMbGHqrU1z8=", "properties": {"@source_uri": "https://tools.usps.com/UspsToolsRestServices/rest/POLocator/findLocations", "@spider": "usps_collection_boxes", "addr:city": "BECKLEY", "addr:country": "US", "addr:postcode": "25801", "addr:state": "WV", "addr:street_address": "400 NEVILLE ST", "amenity": "post_box", "collection_times": "Mo-Fr 14:45; Sa 09:00", "note": "ON 12/24 AND 12/31, THIS BOX MAY BE COLLECTED AS EARLY AS 12 NOON.", "nsi_id": "unitedstatespostalservice-a77078", "operator": "United States Postal Service", "operator:short": "USPS", "operator:type": "public", "operator:wikidata": "Q668687", "ref": "2580100057"}, "type": "Feature"}
{"geometry": {"coordinates": [-81.1874636, 37.788432], "type": "Point"}, "id": "LPaS32EP1CQqCjkM18NhodvnlVU=", "properties": {"@source_uri": "https://tools.usps.com/UspsToolsRestServices/rest/POLocator/findLocations", "@spider": "usps_collection_boxes", "addr:city": "BECKLEY", "addr:country": "US", "addr:postcode": "25801", "addr:state": "WV", "addr:street_address": "3361 ROBERT C BYRD DR", "amenity": "post_box", "collection_times": "Mo-Fr 13:45; Sa 09:30", "note": "ON 12/24 AND 12/31, THIS BOX MAY BE COLLECTED AS EARLY AS 12 NOON.", "nsi_id": "unitedstatespostalservice-a77078", "operator": "United States Postal Service", "operator:short": "USPS", "operator:type": "public", "operator:wikidata": "Q668687", "ref": "2580100061"}, "type": "Feature"}
{"geometry": {"coordinates": [-81.1907895, 37.776231], "type": "Point"}, "id": "_R-tofAjreyTgDHGYuWTWr_ozZs=", "properties": {"@source_uri": "https://tools.usps.com/UspsToolsRestServices/rest/POLocator/findLocations", "@spider": "usps_collection_boxes", "addr:city": "BECKLEY", "addr:country": "US", "addr:postcode": "25801", "addr:state": "WV", "addr:street_address": "400 NEVILLE ST", "amenity": "post_box", "collection_times": "Mo-Fr 14:45; Sa 09:00", "note": "ON 12/24 AND 12/31, THIS BOX MAY BE COLLECTED AS EARLY AS 12 NOON.", "nsi_id": "unitedstatespostalservice-a77078", "operator": "United States Postal Service", "operator:short": "USPS", "operator:type": "public", "operator:wikidata": "Q668687", "ref": "2580100073"}, "type": "Feature"}
{"geometry": {"coordinates": [-81.2192536, 37.792201], "type": "Point"}, "id": "XeXZTXWNWF9W-xctQxCCyijeLIg=", "properties": {"@source_uri": "https://tools.usps.com/UspsToolsRestServices/rest/POLocator/findLocations", "@spider": "usps_collection_boxes", "addr:city": "BECKLEY", "addr:country": "US", "addr:postcode": "25801", "addr:state": "WV", "addr:street_address": "200 HARPER PARK DR", "amenity": "post_box", "collection_times": "Mo-Fr 11:30; Sa 09:30", "nsi_id": "unitedstatespostalservice-a77078", "operator": "United States Postal Service", "operator:short": "USPS", "operator:type": "public", "operator:wikidata": "Q668687", "ref": "2580100076"}, "type": "Feature"}
{"geometry": {"coordinates": [-81.2192561, 37.792194], "type": "Point"}, "id": "uOdJP2hHrOwWmASOdCHHaoWfFsk=", "properties": {"@source_uri": "https://tools.usps.com/UspsToolsRestServices/rest/POLocator/findLocations", "@spider": "usps_collection_boxes", "addr:city": "BECKLEY", "addr:country": "US", "addr:postcode": "25801", "addr:state": "WV", "addr:street_address": "200 HARPER PARK DR", "amenity": "post_box", "collection_times": "Mo-Fr 11:30; Sa 09:30", "nsi_id": "unitedstatespostalservice-a77078", "operator": "United States Postal Service", "operator:short": "USPS", "operator:type": "public", "operator:wikidata": "Q668687", "ref": "2580100077"}, "type": "Feature"}
{"geometry": {"coordinates": [-81.202958, 37.789087], "type": "Point"}, "id": "xuDbyp3YOiTPBpYPKLNTwDerEKw=", "properties": {"@source_uri": "https://tools.usps.com/UspsToolsRestServices/rest/POLocator/findLocations", "@spider": "usps_collection_boxes", "addr:city": "BECKLEY", "addr:country": "US", "addr:postcode": "25801", "addr:state": "WV", "addr:street_address": "1732 HARPER RD", "amenity": "post_box", "collection_times": "Mo-Fr 14:30; Sa 09:30", "note": "ON 12/24 AND 12/31, THIS BOX MAY BE COLLECTED AS EARLY AS 12 NOON.", "nsi_id": "unitedstatespostalservice-a77078", "operator": "United States Postal Service", "operator:short": "USPS", "operator:type": "public", "operator:wikidata": "Q668687", "ref": "2580100078"}, "type": "Feature"}
{"geometry": {"coordinates": [-81.1586688, 37.770062], "type": "Point"}, "id": "1cZlyN150oqpcVhy0vIa7kpQ__Y=", "properties": {"@source_uri": "https://tools.usps.com/UspsToolsRestServices/rest/POLocator/findLocations", "@spider": "usps_collection_boxes", "addr:city": "BECKLEY", "addr:country": "US", "addr:postcode": "25801", "addr:state": "WV", "addr:street_address": "50 BROOKSHIRE LN", "amenity": "post_box", "collection_times": "Mo-Sa 09:00", "nsi_id": "unitedstatespostalservice-a77078", "operator": "United States Postal Service", "operator:short": "USPS", "operator:type": "public", "operator:wikidata": "Q668687", "ref": "2580100081"}, "type": "Feature"}
{"geometry": {"coordinates": [-81.183217653, 37.810540304], "type": "Point"}, "id": "s8T260imL3HD6AJ_CilqaW1fXNw=", "properties": {"@source_uri": "https://tools.usps.com/UspsToolsRestServices/rest/POLocator/findLocations", "@spider": "usps_collection_boxes", "addr:city": "BECKLEY", "addr:country": "US", "addr:postcode": "25801", "addr:state": "WV", "addr:street_address": "134 INDUSTRIAL DR", "amenity": "post_box", "collection_times": "Mo-Sa 17:00", "indoor": "yes", "note": "ON 12/24 AND 12/31, THIS BOX MAY BE COLLECTED AS EARLY AS 12 NOON.", "nsi_id": "unitedstatespostalservice-a77078", "operator": "United States Postal Service", "operator:short": "USPS", "operator:type": "public", "operator:wikidata": "Q668687", "ref": "2580100082"}, "type": "Feature"}
{"geometry": {"coordinates": [-81.183217653, 37.810540304], "type": "Point"}, "id": "xeSJR3stTTw_F6Q1ZF4AU8TBrdI=", "properties": {"@source_uri": "https://tools.usps.com/UspsToolsRestServices/rest/POLocator/findLocations", "@spider": "usps_collection_boxes", "addr:city": "BECKLEY", "addr:country": "US", "addr:postcode": "25801", "addr:state": "WV", "addr:street_address": "134 INDUSTRIAL DR", "amenity": "post_box", "collection_times": "Mo-Sa 17:00", "indoor": "yes", "note": "ON 12/24 AND 12/31, THIS BOX MAY BE COLLECTED AS EARLY AS 12 NOON.", "nsi_id": "unitedstatespostalservice-a77078", "operator": "United States Postal Service", "operator:short": "USPS", "operator:type": "public", "operator:wikidata": "Q668687", "ref": "2580100083"}, "type": "Feature"}
{"geometry": {"coordinates": [-81.183217653, 37.810540304], "type": "Point"}, "id": "hVuxD_dFCWw8KKoltCkBRrJFnJk=", "properties": {"@source_uri": "https://tools.usps.com/UspsToolsRestServices/rest/POLocator/findLocations", "@spider": "usps_collection_boxes", "addr:city": "BECKLEY", "addr:country": "US", "addr:postcode": "25801", "addr:state": "WV", "addr:street_address": "134 INDUSTRIAL DR", "amenity": "post_box", "collection_times": "Mo-Sa 17:00", "note": "ON 12/24 AND 12/31, THIS BOX MAY BE COLLECTED AS EARLY AS 12 NOON.", "nsi_id": "unitedstatespostalservice-a77078", "operator": "United States Postal Service", "operator:short": "USPS", "operator:type": "public", "operator:wikidata": "Q668687", "ref": "2580100084"}, "type": "Feature"}
{"geometry": {"coordinates": [-81.183217653, 37.810540304], "type": "Point"}, "id": "Lc-TU5QfHnRIVwRn_b6GYIxVQWk=", "properties": {"@source_uri": "https://tools.usps.com/UspsToolsRestServices/rest/POLocator/findLocations", "@spider": "usps_collection_boxes", "addr:city": "BECKLEY", "addr:country": "US", "addr:postcode": "25801", "addr:state": "WV", "addr:street_address": "134 INDUSTRIAL DR", "amenity": "post_box", "collection_times": "Mo-Sa 17:00", "note": "ON 12/24 AND 12/31, THIS BOX MAY BE COLLECTED AS EARLY AS 12 NOON.", "nsi_id": "unitedstatespostalservice-a77078", "operator": "United States Postal Service", "operator:short": "USPS", "operator:type": "public", "operator:wikidata": "Q668687", "ref": "2580100085"}, "type": "Feature"}
{"geometry": {"coordinates": [-81.183217653, 37.810540304], "type": "Point"}, "id": "ycy_VNById5pOREpOcHDIxAPWjw=", "properties": {"@source_uri": "https://tools.usps.com/UspsToolsRestServices/rest/POLocator/findLocations", "@spider": "usps_collection_boxes", "addr:city": "BECKLEY", "addr:country": "US", "addr:postcode": "25801", "addr:state": "WV", "addr:street_address": "134 INDUSTRIAL DR", "amenity": "post_box", "collection_times": "Mo-Sa 17:00", "note": "ON 12/24 AND 12/31, THIS BOX MAY BE COLLECTED AS EARLY AS 12 NOON.", "nsi_id": "unitedstatespostalservice-a77078", "operator": "United States Postal Service", "operator:short": "USPS", "operator:type": "public", "operator:wikidata": "Q668687", "ref": "2580100086"}, "type": "Feature"}
{"geometry": {"coordinates": [-81.183217653, 37.810540304], "type": "Point"}, "id": "EuU4pMrOjVe59PtnYPJr25e__fM=", "properties": {"@source_uri": "https://tools.usps.com/UspsToolsRestServices/rest/POLocator/findLocations", "@spider": "usps_collection_boxes", "addr:city": "BECKLEY", "addr:country": "US", "addr:postcode": "25801", "addr:state": "WV", "addr:street_address": "134 INDUSTRIAL DR", "amenity": "post_box", "collection_times": "Mo-Sa 17:00", "note": "ON 12/24 AND 12/31, THIS BOX MAY BE COLLECTED AS EARLY AS 12 NOON.", "nsi_id": "unitedstatespostalservice-a77078", "operator": "United States Postal Service", "operator:short": "USPS", "operator:type": "public", "operator:wikidata": "Q668687", "ref": "2580100088"}, "type": "Feature"}
{"geometry": {"coordinates": [-81.190562002, 37.777890677], "type": "Point"}, "id": "T7UHIiY8wCZJNlX9FnYmNYXEFTU=", "properties": {"@source_uri": "https://tools.usps.com/UspsToolsRestServices/rest/POLocator/findLocations", "@spider": "usps_collection_boxes", "addr:city": "BECKLEY", "addr:country": "US", "addr:postcode": "25801", "addr:state": "WV", "addr:street_address": "305 PRINCE ST", "amenity": "post_box", "collection_times": "Mo-Fr 16:30; Sa 10:00", "note": "ON 12/24 AND 12/31, THIS BOX MAY BE COLLECTED AS EARLY AS 12 NOON.", "nsi_id": "unitedstatespostalservice-a77078", "operator": "United States Postal Service", "operator:short": "USPS", "operator:type": "public", "operator:wikidata": "Q668687", "ref": "2580100089"}, "type": "Feature"}
{"geometry": {"coordinates": [-81.1788822, 37.80324], "type": "Point"}, "id": "sp1imsMn8UyXSOJxhbiuYVB_df0=", "properties": {"@source_uri": "https://tools.usps.com/UspsToolsRestServices/rest/POLocator/findLocations", "@spider": "usps_collection_boxes", "addr:city": "BECKLEY", "addr:country": "US", "addr:postcode": "25801", "addr:state": "WV", "addr:street_address": "300 GALLERIA PLZ", "amenity": "post_box", "collection_times": "Mo-Sa 09:30", "nsi_id": "unitedstatespostalservice-a77078", "operator": "United States Postal Service", "operator:short": "USPS", "operator:type": "public", "operator:wikidata": "Q668687", "ref": "2580100091"}, "type": "Feature"}
{"geometry": {"coordinates": [-81.2094379, 37.800907], "type": "Point"}, "id": "3MmOvjOZIuLcW5dKOvsyh2H3aIA=", "properties": {"@source_uri": "https://tools.usps.com/UspsToolsRestServices/rest/POLocator/findLocations", "@spider": "usps_collection_boxes", "addr:city": "BECKLEY", "addr:country": "US", "addr:postcode": "25801", "addr:state": "WV", "addr:street_address": "315 MANOR DR", "amenity": "post_box", "collection_times": "Mo-Sa 11:00", "nsi_id": "unitedstatespostalservice-a77078", "operator": "United States Postal Service", "operator:short": "USPS", "operator:type": "public", "operator:wikidata": "Q668687", "ref": "2580100094"}, "type": "Feature"}
{"geometry": {"coordinates": [-81.190562002, 37.777890677], "type": "Point"}, "id": "tSWwRyeR4Ad5ib4p_j42qlfmXvg=", "properties": {"@source_uri": "https://tools.usps.com/UspsToolsRestServices/rest/POLocator/findLocations", "@spider": "usps_collection_boxes", "addr:city": "BECKLEY", "addr:country": "US", "addr:postcode": "25801", "addr:state": "WV", "addr:street_address": "305 PRINCE ST", "amenity": "post_box", "collection_times": "Mo-Fr 16:30", "indoor": "yes", "note": "ON 12/24 AND 12/31, THIS BOX MAY BE COLLECTED AS EARLY AS 12 NOON.", "nsi_id": "unitedstatespostalservice-a77078", "operator": "United States Postal Service", "operator:short": "USPS", "operator:type": "public", "operator:wikidata": "Q668687", "ref": "2580100096"}, "type": "Feature"}
{"geometry": {"coordinates": [-81.19139, 37.77583], "type": "Point"}, "id": "N5gZ0gEF-hfCtI33wUvLbrqPOn4=", "properties": {"@source_uri": "https://tools.usps.com/UspsToolsRestServices/rest/POLocator/findLocations", "@spider": "usps_collection_boxes", "addr:city": "BECKLEY", "addr:country": "US", "addr:postcode": "25801", "addr:state": "WV", "addr:street_address": "622 NEVILLE ST", "amenity": "post_box", "collection_times": "Mo-Fr 14:45; Sa 09:00", "note": "ON 12/24 AND 12/31, THIS BOX MAY BE COLLECTED AS EARLY AS 12 NOON.", "nsi_id": "unitedstatespostalservice-a77078", "operator": "United States Postal Service", "operator:short": "USPS", "operator:type": "public", "operator:wikidata": "Q668687", "ref": "2580100098"}, "type": "Feature"}
{"geometry": {"coordinates": [-81.183217653, 37.810540304], "type": "Point"}, "id": "xcbos7X2p0rhvHCJeyqQ3BprTB4=", "properties": {"@source_uri": "https://tools.usps.com/UspsToolsRestServices/rest/POLocator/findLocations", "@spider": "usps_collection_boxes", "addr:city": "BECKLEY", "addr:country": "US", "addr:postcode": "25801", "addr:state": "WV", "addr:street_address": "134 INDUSTRIAL DR", "amenity": "post_box", "collection_times": "Mo-Fr 17:00; Sa 13:00", "indoor": "yes", "note": "ON 12/24 AND 12/31, THIS BOX MAY BE COLLECTED AS EARLY AS 12 NOON.", "nsi_id": "unitedstatespostalservice-a77078", "operator": "United States Postal Service", "operator:short": "USPS", "operator:type": "public", "operator:wikidata": "Q668687", "ref": "2580100107"}, "type": "Feature"}
{"geometry": {"coordinates": [-81.190562002, 37.777890677], "type": "Point"}, "id": "dXWeJ0PAStVnnvtzW9_WGP3PVmg=", "properties": {"@source_uri": "https://tools.usps.com/UspsToolsRestServices/rest/POLocator/findLocations", "@spider": "usps_collection_boxes", "addr:city": "BECKLEY", "addr:country": "US", "addr:postcode": "25801", "addr:state": "WV", "addr:street_address": "305 PRINCE ST", "amenity": "post_box", "collection_times": "Mo-Fr 16:30", "indoor": "yes", "note": "ON 12/24 AND 12/31, THIS BOX MAY BE COLLECTED AS EARLY AS 12 NOON.", "nsi_id": "unitedstatespostalservice-a77078", "operator": "United States Postal Service", "operator:short": "USPS", "operator:type": "public", "operator:wikidata": "Q668687", "ref": "2580100108"}, "type": "Feature"}
{"geometry": {"coordinates": [-81.35087, 37.589092], "type": "Point"}, "id": "3CrfqY3NSOfPvAzzw0H4dPdWK7M=", "properties": {"@source_uri": "https://tools.usps.com/UspsToolsRestServices/rest/POLocator/findLocations", "@spider": "usps_collection_boxes", "addr:city": "ALLEN JUNCTION", "addr:country": "US", "addr:postcode": "25810", "addr:state": "WV", "addr:street_address": "3891 GULF RD", "amenity": "post_box", "collection_times": "Mo-Fr 09:45; Sa 10:45", "nsi_id": "unitedstatespostalservice-a77078", "operator": "United States Postal Service", "operator:short": "USPS", "operator:type": "public", "operator:wikidata": "Q668687", "ref": "2581000000"}, "type": "Feature"}
{"geometry": {"coordinates": [-81.35087, 37.589092], "type": "Point"}, "id": "upEDud7kkGVBvMUcYHSx4f8N6LY=", "properties": {"@source_uri": "https://tools.usps.com/UspsToolsRestServices/rest/POLocator/findLocations", "@spider": "usps_collection_boxes", "addr:city": "ALLEN JUNCTION", "addr:country": "US", "addr:postcode": "25810", "addr:state": "WV", "addr:street_address": "3891 GULF RD", "amenity": "post_box", "collection_times": "Mo-Fr 09:45; Sa 10:45", "indoor": "yes", "nsi_id": "unitedstatespostalservice-a77078", "operator": "United States Postal Service", "operator:short": "USPS", "operator:type": "public", "operator:wikidata": "Q668687", "ref": "2581000001"}, "type": "Feature"}
{"geometry": {"coordinates": [-81.351339958, 37.588920382], "type": "Point"}, "id": "xjmm-afqG5-rtHJO959nPDW9Lmw=", "properties": {"@source_uri": "https://tools.usps.com/UspsToolsRestServices/rest/POLocator/findLocations", "@spider": "usps_collection_boxes", "addr:city": "ALLEN JUNCTION", "addr:country": "US", "addr:postcode": "25810", "addr:state": "WV", "addr:street_address": "3891 GULF RD", "amenity": "post_box", "collection_times": "Mo-Fr 10:00; Sa 11:00", "indoor": "yes", "nsi_id": "unitedstatespostalservice-a77078", "operator": "United States Postal Service", "operator:short": "USPS", "operator:type": "public", "operator:wikidata": "Q668687", "ref": "2581000003"}, "type": "Feature"}
{"geometry": {"coordinates": [-81.095059, 38.134268], "type": "Point"}, "id": "4Csskhy8ynGQ-WuCP8n9A0Ah1LI=", "properties": {"@source_uri": "https://tools.usps.com/UspsToolsRestServices/rest/POLocator/findLocations", "@spider": "usps_collection_boxes", "addr:city": "ANSTED", "addr:country": "US", "addr:postcode": "25812", "addr:state": "WV", "addr:street_address": "80 JAMES RIVER AND KANAWHA TPKE", "amenity": "post_box", "collection_times": "Mo-Fr 16:00; Sa 11:00", "note": "ON 12/24 AND 12/31, THIS BOX MAY BE COLLECTED AS EARLY AS 12 NOON.", "nsi_id": "unitedstatespostalservice-a77078", "operator": "United States Postal Service", "operator:short": "USPS", "operator:type": "public", "operator:wikidata": "Q668687", "ref": "2581200000"}, "type": "Feature"}
{"geometry": {"coordinates": [-81.095059, 38.134268], "type": "Point"}, "id": "Iabr6F6GJby6tQ7owNXsGrMIYYM=", "properties": {"@source_uri": "https://tools.usps.com/UspsToolsRestServices/rest/POLocator/findLocations", "@spider": "usps_collection_boxes", "addr:city": "ANSTED", "addr:country": "US", "addr:postcode": "25812", "addr:state": "WV", "addr:street_address": "80 JAMES RIVER AND KANAWHA TPKE", "amenity": "post_box", "collection_times": "Mo-Fr 16:00; Sa 11:00", "indoor": "yes", "note": "ON 12/24 AND 12/31, THIS BOX MAY BE COLLECTED AS EARLY AS 12 NOON.", "nsi_id": "unitedstatespostalservice-a77078", "operator": "United States Postal Service", "operator:short": "USPS", "operator:type": "public", "operator:wikidata": "Q668687", "ref": "2581200001"}, "type": "Feature"}
{"geometry": {"coordinates": [-81.09510627, 38.134453425], "type": "Point"}, "id": "mfu7DQ70u6woGI-MfBU4UDI4kQQ=", "properties": {"@source_uri": "https://tools.usps.com/UspsToolsRestServices/rest/POLocator/findLocations", "@spider": "usps_collection_boxes", "addr:city": "ANSTED", "addr:country": "US", "addr:postcode": "25812", "addr:state": "WV", "addr:street_address": "80 JAMES RIVER AND KANAWHA TPKE E", "amenity": "post_box", "collection_times": "Mo-Fr 16:00; Sa 11:00", "indoor": "yes", "note": "ON 12/24 AND 12/31, THIS BOX MAY BE COLLECTED AS EARLY AS 12 NOON.", "nsi_id": "unitedstatespostalservice-a77078", "operator": "United States Postal Service", "operator:short": "USPS", "operator:type": "public", "operator:wikidata": "Q668687", "ref": "2581200003"}, "type": "Feature"}
{"geometry": {"coordinates": [-81.126937462, 37.748542692], "type": "Point"}, "id": "DFWvpXp16t8bebxowoyy1wCVZOw=", "properties": {"@source_uri": "https://tools.usps.com/UspsToolsRestServices/rest/POLocator/findLocations", "@spider": "usps_collection_boxes", "addr:city": "BEAVER", "addr:country": "US", "addr:postcode": "25813", "addr:state": "WV", "addr:street_address": "123 BEAVER PLZ", "amenity": "post_box", "collection_times": "Mo-Fr 16:30; Sa 12:00", "note": "ON 12/24 AND 12/31, THIS BOX MAY BE COLLECTED AS EARLY AS 12 NOON.", "nsi_id": "unitedstatespostalservice-a77078", "operator": "United States Postal Service", "operator:short": "USPS", "operator:type": "public", "operator:wikidata": "Q668687", "ref": "2581300001"}, "type": "Feature"}
{"geometry": {"coordinates": [-81.126937462, 37.748542692], "type": "Point"}, "id": "EAvorrJVreb_uFzW6I92L2ibW0g=", "properties": {"@source_uri": "https://tools.usps.com/UspsToolsRestServices/rest/POLocator/findLocations", "@spider": "usps_collection_boxes", "addr:city": "BEAVER", "addr:country": "US", "addr:postcode": "25813", "addr:state": "WV", "addr:street_address": "123 BEAVER PLZ", "amenity": "post_box", "collection_times": "Mo-Fr 16:30; Sa 12:00", "indoor": "yes", "note": "ON 12/24 AND 12/31, THIS BOX MAY BE COLLECTED AS EARLY AS 12 NOON.", "nsi_id": "unitedstatespostalservice-a77078", "operator": "United States Postal Service", "operator:short": "USPS", "operator:type": "public", "operator:wikidata": "Q668687", "ref": "2581300003"}, "type": "Feature"}
{"geometry": {"coordinates": [-81.126937462, 37.748542692], "type": "Point"}, "id": "JyJogurdi5FMrqtKhybQ0xwFitE=", "properties": {"@source_uri": "https://tools.usps.com/UspsToolsRestServices/rest/POLocator/findLocations", "@spider": "usps_collection_boxes", "addr:city": "BEAVER", "addr:country": "US", "addr:postcode": "25813", "addr:state": "WV", "addr:street_address": "123 BEAVER PLZ", "amenity": "post_box", "collection_times": "Mo-Fr 16:30; Sa 12:00", "indoor": "yes", "note": "ON 12/24 AND 12/31, THIS BOX MAY BE COLLECTED AS EARLY AS 12 NOON.", "nsi_id": "unitedstatespostalservice-a77078", "operator": "United States Postal Service", "operator:short": "USPS", "operator:type": "public", "operator:wikidata": "Q668687", "ref": "2581300006"}, "type": "Feature"}
{"geometry": {"coordinates": [-81.411795, 37.762119], "type": "Point"}, "id": "At3IOKT4pTUAV_P3_AY1Z6LajUw=", "properties": {"@source_uri": "https://tools.usps.com/UspsToolsRestServices/rest/POLocator/findLocations", "@spider": "usps_collection_boxes", "addr:city": "BOLT", "addr:country": "US", "addr:postcode": "25817", "addr:state": "WV", "addr:street_address": "2214 BOLT RD", "amenity": "post_box", "collection_times": "Mo-Fr 13:15; Sa 10:30", "note": "ON 12/24 AND 12/31, THIS BOX MAY BE COLLECTED AS EARLY AS 12 NOON.", "nsi_id": "unitedstatespostalservice-a77078", "operator": "United States Postal Service", "operator:short": "USPS", "operator:type": "public", "operator:wikidata": "Q668687", "ref": "2581700000"}, "type": "Feature"}
{"geometry": {"coordinates": [-81.411784, 37.762084], "type": "Point"}, "id": "Ojbl9bwKwGCEtRCXub3aXXfoKSo=", "properties": {"@source_uri": "https://tools.usps.com/UspsToolsRestServices/rest/POLocator/findLocations", "@spider": "usps_collection_boxes", "addr:city": "BOLT", "addr:country": "US", "addr:postcode": "25817", "addr:state": "WV", "addr:street_address": "2214 BOLT RD", "amenity": "post_box", "collection_times": "Mo-Fr 13:15; Sa 10:30", "indoor": "yes", "note": "ON 12/24 AND 12/31, THIS BOX MAY BE COLLECTED AS EARLY AS 12 NOON.", "nsi_id": "unitedstatespostalservice-a77078", "operator": "United States Postal Service", "operator:short": "USPS", "operator:type": "public", "operator:wikidata": "Q668687", "ref": "2581700001"}, "type": "Feature"}
{"geometry": {"coordinates": [-81.411776327, 37.762147288], "type": "Point"}, "id": "jEdE69eJlhcZd_bl9TuKppDF7nk=", "properties": {"@source_uri": "https://tools.usps.com/UspsToolsRestServices/rest/POLocator/findLocations", "@spider": "usps_collection_boxes", "addr:city": "BOLT", "addr:country": "US", "addr:postcode": "25817", "addr:state": "WV", "addr:street_address": "2214 BOLT RD", "amenity": "post_box", "collection_times": "Mo-Fr 13:30; Sa 10:30", "indoor": "yes", "note": "ON 12/24 AND 12/31, THIS BOX MAY BE COLLECTED AS EARLY AS 12 NOON.", "nsi_id": "unitedstatespostalservice-a77078", "operator": "United States Postal Service", "operator:short": "USPS", "operator:type": "public", "operator:wikidata": "Q668687", "ref": "2581700003"}, "type": "Feature"}
{"geometry": {"coordinates": [-81.19389, 37.8662], "type": "Point"}, "id": "4-oU_IipwB7r0EB2b90DHXHe6QM=", "properties": {"@source_uri": "https://tools.usps.com/UspsToolsRestServices/rest/POLocator/findLocations", "@spider": "usps_collection_boxes", "addr:city": "BRADLEY", "addr:country": "US", "addr:postcode": "25818", "addr:state": "WV", "addr:street_address": "6147 ROBERT C BRYD DR", "amenity": "post_box", "collection_times": "Mo-Fr 15:45; Sa 11:30", "note": "ON 12/24 AND 12/31, THIS BOX MAY BE COLLECTED AS EARLY AS 12 NOON.", "nsi_id": "unitedstatespostalservice-a77078", "operator": "United States Postal Service", "operator:short": "USPS", "operator:type": "public", "operator:wikidata": "Q668687", "ref": "2581800000"}, "type": "Feature"}
{"geometry": {"coordinates": [-81.19389, 37.8662], "type": "Point"}, "id": "S1LWYbluWrsSXGA8O5MGeXYr52U=", "properties": {"@source_uri": "https://tools.usps.com/UspsToolsRestServices/rest/POLocator/findLocations", "@spider": "usps_collection_boxes", "addr:city": "BRADLEY", "addr:country": "US", "addr:postcode": "25818", "addr:state": "WV", "addr:street_address": "6147 ROBERT C BRYD DR", "amenity": "post_box", "collection_times": "Mo-Fr 15:45; Sa 11:30", "indoor": "yes", "note": "ON 12/24 AND 12/31, THIS BOX MAY BE COLLECTED AS EARLY AS 12 NOON.", "nsi_id": "unitedstatespostalservice-a77078", "operator": "United States Postal Service", "operator:short": "USPS", "operator:type": "public", "operator:wikidata": "Q668687", "ref": "2581800001"}, "type": "Feature"}
{"geometry": {"coordinates": [-81.19389, 37.8662], "type": "Point"}, "id": "ZhhXl9mD7DhkFs0ZJVm3VNa_B7w=", "properties": {"@source_uri": "https://tools.usps.com/UspsToolsRestServices/rest/POLocator/findLocations", "@spider": "usps_collection_boxes", "addr:city": "BRADLEY", "addr:country": "US", "addr:postcode": "25818", "addr:state": "WV", "addr:street_address": "6147 ROBERT C BRYD DR", "amenity": "post_box", "collection_times": "Mo-Fr 15:45; Sa 11:30", "indoor": "yes", "note": "ON 12/24 AND 12/31, THIS BOX MAY BE COLLECTED AS EARLY AS 12 NOON.", "nsi_id": "unitedstatespostalservice-a77078", "operator": "United States Postal Service", "operator:short": "USPS", "operator:type": "public", "operator:wikidata": "Q668687", "ref": "2581800003"}, "type": "Feature"}
{"geometry": {"coordinates": [-81.218414529, 37.687546083], "type": "Point"}, "id": "kA_Ei2P1_suGZKEgfJ7L_wAHYwU=", "properties": {"@source_uri": "https://tools.usps.com/UspsToolsRestServices/rest/POLocator/findLocations", "@spider": "usps_collection_boxes", "addr:city": "COAL CITY", "addr:country": "US", "addr:postcode": "25823", "addr:state": "WV", "addr:street_address": "114 TINGLER AVE", "amenity": "post_box", "collection_times": "Mo-Fr 16:15; Sa 11:30", "note": "ON 12/24 AND 12/31, THIS BOX MAY BE COLLECTED AS EARLY AS 12 NOON.", "nsi_id": "unitedstatespostalservice-a77078", "operator": "United States Postal Service", "operator:short": "USPS", "operator:type": "public", "operator:wikidata": "Q668687", "ref": "2582300001"}, "type": "Feature"}
{"geometry": {"coordinates": [-81.218414529, 37.687546083], "type": "Point"}, "id": "93gq3H4ohPiwpWL39U4mVm2raok=", "properties": {"@source_uri": "https://tools.usps.com/UspsToolsRestServices/rest/POLocator/findLocations", "@spider": "usps_collection_boxes", "addr:city": "COAL CITY", "addr:country": "US", "addr:postcode": "25823", "addr:state": "WV", "addr:street_address": "114 TINGLER AVE", "amenity": "post_box", "collection_times": "Mo-Fr 16:15; Sa 11:30", "indoor": "yes", "note": "ON 12/24 AND 12/31, THIS BOX MAY BE COLLECTED AS EARLY AS 12 NOON.", "nsi_id": "unitedstatespostalservice-a77078", "operator": "United States Postal Service", "operator:short": "USPS", "operator:type": "public", "operator:wikidata": "Q668687", "ref": "2582300003"}, "type": "Feature"}
{"geometry": {"coordinates": [-81.218414529, 37.687546083], "type": "Point"}, "id": "a1-Eren2CoFcW4jzbh4EtV9fnl8=", "properties": {"@source_uri": "https://tools.usps.com/UspsToolsRestServices/rest/POLocator/findLocations", "@spider": "usps_collection_boxes", "addr:city": "COAL CITY", "addr:country": "US", "addr:postcode": "25823", "addr:state": "WV", "addr:street_address": "114 TINGLER AVE", "amenity": "post_box", "collection_times": "Mo-Fr 16:15; Sa 11:30", "indoor": "yes", "note": "ON 12/24 AND 12/31, THIS BOX MAY BE COLLECTED AS EARLY AS 12 NOON.", "nsi_id": "unitedstatespostalservice-a77078", "operator": "United States Postal Service", "operator:short": "USPS", "operator:type": "public", "operator:wikidata": "Q668687", "ref": "2582300004"}, "type": "Feature"}
{"geometry": {"coordinates": [-81.218414529, 37.687546083], "type": "Point"}, "id": "yHOkqEPi0rD8boW4_5DPlPFHfNc=", "properties": {"@source_uri": "https://tools.usps.com/UspsToolsRestServices/rest/POLocator/findLocations", "@spider": "usps_collection_boxes", "addr:city": "COAL CITY", "addr:country": "US", "addr:postcode": "25823", "addr:state": "WV", "addr:street_address": "114 TINGLER AVE", "amenity": "post_box", "collection_times": "Mo-Fr 16:30; Sa 11:30", "indoor": "yes", "note": "ON 12/24 AND 12/31, THIS BOX MAY BE COLLECTED AS EARLY AS 12 NOON.", "nsi_id": "unitedstatespostalservice-a77078", "operator": "United States Postal Service", "operator:short": "USPS", "operator:type": "public", "operator:wikidata": "Q668687", "ref": "2582300006"}, "type": "Feature"}
{"geometry": {"coordinates": [-81.068675, 37.64064], "type": "Point"}, "id": "cUPMhzd4MfZfSFC0UNIr5_wqU-Y=", "properties": {"@source_uri": "https://tools.usps.com/UspsToolsRestServices/rest/POLocator/findLocations", "@spider": "usps_collection_boxes", "addr:city": "COOL RIDGE", "addr:country": "US", "addr:postcode": "25825", "addr:state": "WV", "addr:street_address": "1902 FLAT TOP RD", "amenity": "post_box", "collection_times": "Mo-Fr 16:15; Sa 11:00", "note": "ON 12/24 AND 12/31, THIS BOX MAY BE COLLECTED AS EARLY AS 12 NOON.", "nsi_id": "unitedstatespostalservice-a77078", "operator": "United States Postal Service", "operator:short": "USPS", "operator:type": "public", "operator:wikidata": "Q668687", "ref": "2582500000"}, "type": "Feature"}
{"geometry": {"coordinates": [-81.09636992, 37.651899388], "type": "Point"}, "id": "ZRKXdFH1AgNYNwKJLI4E9FUc1Nw=", "properties": {"@source_uri": "https://tools.usps.com/UspsToolsRestServices/rest/POLocator/findLocations", "@spider": "usps_collection_boxes", "addr:city": "COOL RIDGE", "addr:country": "US", "addr:postcode": "25825", "addr:state": "WV", "addr:street_address": "1902 FLAT TOP RD", "amenity": "post_box", "collection_times": "Mo-Fr 16:15; Sa 11:00", "indoor": "yes", "note": "ON 12/24 AND 12/31, THIS BOX MAY BE COLLECTED AS EARLY AS 12 NOON.", "nsi_id": "unitedstatespostalservice-a77078", "operator": "United States Postal Service", "operator:short": "USPS", "operator:type": "public", "operator:wikidata": "Q668687", "ref": "2582500001"}, "type": "Feature"}
{"geometry": {"coordinates": [-81.09636992, 37.651899388], "type": "Point"}, "id": "1PvcR-JX-XrjG9kU1MR-a2XFxxY=", "properties": {"@source_uri": "https://tools.usps.com/UspsToolsRestServices/rest/POLocator/findLocations", "@spider": "usps_collection_boxes", "addr:city": "COOL RIDGE", "addr:country": "US", "addr:postcode": "25825", "addr:state": "WV", "addr:street_address": "1902 FLAT TOP RD", "amenity": "post_box", "collection_times": "Mo-Fr 16:30; Sa 12:00", "indoor": "yes", "note": "ON 12/24 AND 12/31, THIS BOX MAY BE COLLECTED AS EARLY AS 12 NOON.", "nsi_id": "unitedstatespostalservice-a77078", "operator": "United States Postal Service", "operator:short": "USPS", "operator:type": "public", "operator:wikidata": "Q668687", "ref": "2582500004"}, "type": "Feature"}
{"geometry": {"coordinates": [-81.3614849846, 37.5739689998], "type": "Point"}, "id": "hFFp_KU4JmKk2y6pOhci14ZKXhI=", "properties": {"@source_uri": "https://tools.usps.com/UspsToolsRestServices/rest/POLocator/findLocations", "@spider": "usps_collection_boxes", "addr:city": "CORINNE", "addr:country": "US", "addr:postcode": "25826", "addr:state": "WV", "addr:street_address": "2064 GULF RD", "amenity": "post_box", "collection_times": "Mo-Fr 09:15; Sa 10:15", "nsi_id": "unitedstatespostalservice-a77078", "operator": "United States Postal Service", "operator:short": "USPS", "operator:type": "public", "operator:wikidata": "Q668687", "ref": "2582600000"}, "type": "Feature"}
{"geometry": {"coordinates": [-81.362247, 37.573219], "type": "Point"}, "id": "L8oyNdBr7BeeMb5dBIrrwE3zuxs=", "properties": {"@source_uri": "https://tools.usps.com/UspsToolsRestServices/rest/POLocator/findLocations", "@spider": "usps_collection_boxes", "addr:city": "CORINNE", "addr:country": "US", "addr:postcode": "25826", "addr:state": "WV", "addr:street_address": "2064 GULF RD", "amenity": "post_box", "collection_times": "Mo-Fr 09:15; Sa 10:15", "indoor": "yes", "nsi_id": "unitedstatespostalservice-a77078", "operator": "United States Postal Service", "operator:short": "USPS", "operator:type": "public", "operator:wikidata": "Q668687", "ref": "2582600001"}, "type": "Feature"}
{"geometry": {"coordinates": [-81.361845576, 37.573667464], "type": "Point"}, "id": "6h8Z75IFrmQ8zm1nEhuQTWfJWD4=", "properties": {"@source_uri": "https://tools.usps.com/UspsToolsRestServices/rest/POLocator/findLocations", "@spider": "usps_collection_boxes", "addr:city": "CORINNE", "addr:country": "US", "addr:postcode": "25826", "addr:state": "WV", "addr:street_address": "2064 GULF RD", "amenity": "post_box", "collection_times": "Mo-Fr 09:30; Sa 10:15", "indoor": "yes", "nsi_id": "unitedstatespostalservice-a77078", "operator": "United States Postal Service", "operator:short": "USPS", "operator:type": "public", "operator:wikidata": "Q668687", "ref": "2582600004"}, "type": "Feature"}
{"geometry": {"coordinates": [-81.23311878, 37.739773643], "type": "Point"}, "id": "a2QiO6dhuJcoF54MtX0dtHirm0M=", "properties": {"@source_uri": "https://tools.usps.com/UspsToolsRestServices/rest/POLocator/findLocations", "@spider": "usps_collection_boxes", "addr:city": "CRAB ORCHARD", "addr:country": "US", "addr:postcode": "25827", "addr:state": "WV", "addr:street_address": "1325 ROBERT C BYRD DR", "amenity": "post_box", "collection_times": "Mo-Fr 16:30; Sa 12:00", "note": "ON 12/24 AND 12/31, THIS BOX MAY BE COLLECTED AS EARLY AS 12 NOON.", "nsi_id": "unitedstatespostalservice-a77078", "operator": "United States Postal Service", "operator:short": "USPS", "operator:type": "public", "operator:wikidata": "Q668687", "ref": "2582700000"}, "type": "Feature"}
{"geometry": {"coordinates": [-81.23311878, 37.739773643], "type": "Point"}, "id": "Y8zMWhGCXdUkg_ySSCZ6D0pWhhs=", "properties": {"@source_uri": "https://tools.usps.com/UspsToolsRestServices/rest/POLocator/findLocations", "@spider": "usps_collection_boxes", "addr:city": "CRAB ORCHARD", "addr:country": "US", "addr:postcode": "25827", "addr:state": "WV", "addr:street_address": "1325 ROBERT C BYRD DR", "amenity": "post_box", "collection_times": "Mo-Fr 16:00; Sa 11:30", "note": "ON 12/24 AND 12/31, THIS BOX MAY BE COLLECTED AS EARLY AS 12 NOON.", "nsi_id": "unitedstatespostalservice-a77078", "operator": "United States Postal Service", "operator:short": "USPS", "operator:type": "public", "operator:wikidata": "Q668687", "ref": "2582700001"}, "type": "Feature"}
{"geometry": {"coordinates": [-81.23311878, 37.739773643], "type": "Point"}, "id": "TcZlOdhUU9BG8T8XUPS8_bgkH4Q=", "properties": {"@source_uri": "https://tools.usps.com/UspsToolsRestServices/rest/POLocator/findLocations", "@spider": "usps_collection_boxes", "addr:city": "CRAB ORCHARD", "addr:country": "US", "addr:postcode": "25827", "addr:state": "WV", "addr:street_address": "1325 ROBERT C BYRD DR", "amenity": "post_box", "collection_times": "Mo-Fr 17:00; Sa 12:00", "indoor": "yes", "note": "ON 12/24 AND 12/31, THIS BOX MAY BE COLLECTED AS EARLY AS 12 NOON.", "nsi_id": "unitedstatespostalservice-a77078", "operator": "United States Postal Service", "operator:short": "USPS", "operator:type": "public", "operator:wikidata": "Q668687", "ref": "2582700002"}, "type": "Feature"}
{"geometry": {"coordinates": [-81.23311878, 37.739773643], "type": "Point"}, "id": "Pf7WkQRjHh0gH7JVapBUWcbcits=", "properties": {"@source_uri": "https://tools.usps.com/UspsToolsRestServices/rest/POLocator/findLocations", "@spider": "usps_collection_boxes", "addr:city": "CRAB ORCHARD", "addr:country": "US", "addr:postcode": "25827", "addr:state": "WV", "addr:street_address": "1325 ROBERT C BYRD DR", "amenity": "post_box", "collection_times": "Mo-Fr 17:00; Sa 11:00", "indoor": "yes", "note": "ON 12/24 AND 12/31, THIS BOX MAY BE COLLECTED AS EARLY AS 12 NOON.", "nsi_id": "unitedstatespostalservice-a77078", "operator": "United States Postal Service", "operator:short": "USPS", "operator:type": "public", "operator:wikidata": "Q668687", "ref": "2582700004"}, "type": "Feature"}
{"geometry": {"coordinates": [-80.903574, 37.9302], "type": "Point"}, "id": "c1tUhiQYe2ofgFji01bVjvsFiPQ=", "properties": {"@source_uri": "https://tools.usps.com/UspsToolsRestServices/rest/POLocator/findLocations", "@spider": "usps_collection_boxes", "addr:city": "DANESE", "addr:country": "US", "addr:postcode": "25831", "addr:state": "WV", "addr:street_address": "17629 STANAFORD RD", "amenity": "post_box", "collection_times": "Mo-Fr 12:45; Sa 11:30", "note": "ON 12/24 AND 12/31, THIS BOX MAY BE COLLECTED AS EARLY AS 12 NOON.", "nsi_id": "unitedstatespostalservice-a77078", "operator": "United States Postal Service", "operator:short": "USPS", "operator:type": "public", "operator:wikidata": "Q668687", "ref": "2583100000"}, "type": "Feature"}
{"geometry": {"coordinates": [-80.903551, 37.93018], "type": "Point"}, "id": "p2pB16yRJyEhqMPcrDxCciAc2hE=", "properties": {"@source_uri": "https://tools.usps.com/UspsToolsRestServices/rest/POLocator/findLocations", "@spider": "usps_collection_boxes", "addr:city": "DANESE", "addr:country": "US", "addr:postcode": "25831", "addr:state": "WV", "addr:street_address": "17629 STANAFORD RD", "amenity": "post_box", "collection_times": "Mo-Fr 12:45; Sa 11:30", "indoor": "yes", "note": "ON 12/24 AND 12/31, THIS BOX MAY BE COLLECTED AS EARLY AS 12 NOON.", "nsi_id": "unitedstatespostalservice-a77078", "operator": "United States Postal Service", "operator:short": "USPS", "operator:type": "public", "operator:wikidata": "Q668687", "ref": "2583100001"}, "type": "Feature"}
{"geometry": {"coordinates": [-80.902874088, 37.930895992], "type": "Point"}, "id": "yd1TxmZDHLwNb6rJVyTflB3XcuY=", "properties": {"@source_uri": "https://tools.usps.com/UspsToolsRestServices/rest/POLocator/findLocations", "@spider": "usps_collection_boxes", "addr:city": "DANESE", "addr:country": "US", "addr:postcode": "25831", "addr:state": "WV", "addr:street_address": "17629 STANAFORD RD", "amenity": "post_box", "collection_times": "Mo-Fr 16:00; Sa 11:30", "indoor": "yes", "note": "ON 12/24 AND 12/31, THIS BOX MAY BE COLLECTED AS EARLY AS 12 NOON.", "nsi_id": "unitedstatespostalservice-a77078", "operator": "United States Postal Service", "operator:short": "USPS", "operator:type": "public", "operator:wikidata": "Q668687", "ref": "2583100003"}, "type": "Feature"}
{"geometry": {"coordinates": [-81.124534649, 37.743423841], "type": "Point"}, "id": "Lo_yO03L91zPSORpd5E1OI5viHk=", "properties": {"@source_uri": "https://tools.usps.com/UspsToolsRestServices/rest/POLocator/findLocations", "@spider": "usps_collection_boxes", "addr:city": "DANIELS", "addr:country": "US", "addr:postcode": "25832", "addr:state": "WV", "addr:street_address": "124 BURGESS DR", "amenity": "post_box", "collection_times": "Mo-Fr 16:00; Sa 12:00", "note": "ON 12/24 AND 12/31, THIS BOX MAY BE COLLECTED AS EARLY AS 12 NOON.", "nsi_id": "unitedstatespostalservice-a77078", "operator": "United States Postal Service", "operator:short": "USPS", "operator:type": "public", "operator:wikidata": "Q668687", "ref": "2583200001"}, "type": "Feature"}
{"geometry": {"coordinates": [-81.124534649, 37.743423841], "type": "Point"}, "id": "I5YDZdP5ogwExhH5fJuly10yxZM=", "properties": {"@source_uri": "https://tools.usps.com/UspsToolsRestServices/rest/POLocator/findLocations", "@spider": "usps_collection_boxes", "addr:city": "DANIELS", "addr:country": "US", "addr:postcode": "25832", "addr:state": "WV", "addr:street_address": "124 BURGESS DR", "amenity": "post_box", "collection_times": "Mo-Fr 16:00; Sa 12:00", "indoor": "yes", "note": "ON 12/24 AND 12/31, THIS BOX MAY BE COLLECTED AS EARLY AS 12 NOON.", "nsi_id": "unitedstatespostalservice-a77078", "operator": "United States Postal Service", "operator:short": "USPS", "operator:type": "public", "operator:wikidata": "Q668687", "ref": "2583200003"}, "type": "Feature"}
{"geometry": {"coordinates": [-81.124534649, 37.743423841], "type": "Point"}, "id": "KUSixbKY0RCOY9APc6YwltRbxqs=", "properties": {"@source_uri": "https://tools.usps.com/UspsToolsRestServices/rest/POLocator/findLocations", "@spider": "usps_collection_boxes", "addr:city": "DANIELS", "addr:country": "US", "addr:postcode": "25832", "addr:state": "WV", "addr:street_address": "124 BURGESS DR", "amenity": "post_box", "collection_times": "Mo-Fr 16:00; Sa 12:00", "indoor": "yes", "note": "ON 12/24 AND 12/31, THIS BOX MAY BE COLLECTED AS EARLY AS 12 NOON.", "nsi_id": "unitedstatespostalservice-a77078", "operator": "United States Postal Service", "operator:short": "USPS", "operator:type": "public", "operator:wikidata": "Q668687", "ref": "2583200007"}, "type": "Feature"}
{"geometry": {"coordinates": [-81.267425, 37.783707], "type": "Point"}, "id": "WKMUzrR8evChUHQ8Ps9OpeyZ4Ls=", "properties": {"@source_uri": "https://tools.usps.com/UspsToolsRestServices/rest/POLocator/findLocations", "@spider": "usps_collection_boxes", "addr:city": "ECCLES", "addr:country": "US", "addr:postcode": "25836", "addr:state": "WV", "addr:street_address": "108 SHAWNEE RD", "amenity": "post_box", "collection_times": "Mo-Sa 11:45", "nsi_id": "unitedstatespostalservice-a77078", "operator": "United States Postal Service", "operator:short": "USPS", "operator:type": "public", "operator:wikidata": "Q668687", "ref": "2583600000"}, "type": "Feature"}
{"geometry": {"coordinates": [-81.267325, 37.783678], "type": "Point"}, "id": "nMp84OIwoNtkLLcz1BoZfGbVkAU=", "properties": {"@source_uri": "https://tools.usps.com/UspsToolsRestServices/rest/POLocator/findLocations", "@spider": "usps_collection_boxes", "addr:city": "ECCLES", "addr:country": "US", "addr:postcode": "25836", "addr:state": "WV", "addr:street_address": "108 SHAWNEE RD", "amenity": "post_box", "collection_times": "Mo-Sa 11:45", "indoor": "yes", "nsi_id": "unitedstatespostalservice-a77078", "operator": "United States Postal Service", "operator:short": "USPS", "operator:type": "public", "operator:wikidata": "Q668687", "ref": "2583600001"}, "type": "Feature"}
{"geometry": {"coordinates": [-81.267413125, 37.783648812], "type": "Point"}, "id": "i5uqutQ6_bNhBVDfzWpnvgZC-ec=", "properties": {"@source_uri": "https://tools.usps.com/UspsToolsRestServices/rest/POLocator/findLocations", "@spider": "usps_collection_boxes", "addr:city": "ECCLES", "addr:country": "US", "addr:postcode": "25836", "addr:state": "WV", "addr:street_address": "108 SHAWNEE RD", "amenity": "post_box", "collection_times": "Mo-Fr 12:00; Sa 11:45", "indoor": "yes", "nsi_id": "unitedstatespostalservice-a77078", "operator": "United States Postal Service", "operator:short": "USPS", "operator:type": "public", "operator:wikidata": "Q668687", "ref": "2583600003"}, "type": "Feature"}
{"geometry": {"coordinates": [-81.0408, 38.060593], "type": "Point"}, "id": "HaUeibx53nnzvA61sRnRKdiiCh4=", "properties": {"@source_uri": "https://tools.usps.com/UspsToolsRestServices/rest/POLocator/findLocations", "@spider": "usps_collection_boxes", "addr:city": "EDMOND", "addr:country": "US", "addr:postcode": "25837", "addr:state": "WV", "addr:street_address": "3524 LANSING EDMOND RD", "amenity": "post_box", "collection_times": "Mo-Fr 11:45; Sa 11:30", "nsi_id": "unitedstatespostalservice-a77078", "operator": "United States Postal Service", "operator:short": "USPS", "operator:type": "public", "operator:wikidata": "Q668687", "ref": "2583700000"}, "type": "Feature"}
{"geometry": {"coordinates": [-81.0408, 38.060593], "type": "Point"}, "id": "UW7FWXmy7BaMSJ8Xy_LvLZ_NzXI=", "properties": {"@source_uri": "https://tools.usps.com/UspsToolsRestServices/rest/POLocator/findLocations", "@spider": "usps_collection_boxes", "addr:city": "EDMOND", "addr:country": "US", "addr:postcode": "25837", "addr:state": "WV", "addr:street_address": "3524 LANSING EDMOND RD", "amenity": "post_box", "collection_times": "Mo-Fr 11:45; Sa 11:30", "indoor": "yes", "nsi_id": "unitedstatespostalservice-a77078", "operator": "United States Postal Service", "operator:short": "USPS", "operator:type": "public", "operator:wikidata": "Q668687", "ref": "2583700001"}, "type": "Feature"}
{"geometry": {"coordinates": [-81.019851014, 38.059323433], "type": "Point"}, "id": "EYibja9p67A5aQJxvtOb3mMrQhw=", "properties": {"@source_uri": "https://tools.usps.com/UspsToolsRestServices/rest/POLocator/findLocations", "@spider": "usps_collection_boxes", "addr:city": "EDMOND", "addr:country": "US", "addr:postcode": "25837", "addr:state": "WV", "addr:street_address": "3524 LANSING EDMOND RD", "amenity": "post_box", "collection_times": "Mo-Fr 12:00; Sa 13:00", "indoor": "yes", "note": "ON 12/24 AND 12/31, THIS BOX MAY BE COLLECTED AS EARLY AS 12 NOON.", "nsi_id": "unitedstatespostalservice-a77078", "operator": "United States Postal Service", "operator:short": "USPS", "operator:type": "public", "operator:wikidata": "Q668687", "ref": "2583700003"}, "type": "Feature"}
{"geometry": {"coordinates": [-81.363482, 37.779883], "type": "Point"}, "id": "hDtmCOIA2g2RffOJ3gFiBrE6m6Y=", "properties": {"@source_uri": "https://tools.usps.com/UspsToolsRestServices/rest/POLocator/findLocations", "@spider": "usps_collection_boxes", "addr:city": "FAIRDALE", "addr:country": "US", "addr:postcode": "25839", "addr:state": "WV", "addr:street_address": "698 BOLT RD", "amenity": "post_box", "collection_times": "Mo-Fr 15:45; Sa 10:30", "indoor": "yes", "note": "ON 12/24 AND 12/31, THIS BOX MAY BE COLLECTED AS EARLY AS 12 NOON.", "nsi_id": "unitedstatespostalservice-a77078", "operator": "United States Postal Service", "operator:short": "USPS", "operator:type": "public", "operator:wikidata": "Q668687", "ref": "2583900000"}, "type": "Feature"}
{"geometry": {"coordinates": [-81.363601, 37.779884], "type": "Point"}, "id": "kEzotRUXWp4Z-QMwIqlXdczwHKg=", "properties": {"@source_uri": "https://tools.usps.com/UspsToolsRestServices/rest/POLocator/findLocations", "@spider": "usps_collection_boxes", "addr:city": "FAIRDALE", "addr:country": "US", "addr:postcode": "25839", "addr:state": "WV", "addr:street_address": "698 BOLT RD", "amenity": "post_box", "collection_times": "Mo-Fr 15:45; Sa 10:30", "note": "ON 12/24 AND 12/31, THIS BOX MAY BE COLLECTED AS EARLY AS 12 NOON.", "nsi_id": "unitedstatespostalservice-a77078", "operator": "United States Postal Service", "operator:short": "USPS", "operator:type": "public", "operator:wikidata": "Q668687", "ref": "2583900001"}, "type": "Feature"}
{"geometry": {"coordinates": [-81.363457174, 37.779872939], "type": "Point"}, "id": "4NhXUiIvdC2QUFN3UNsmt0n8Cgo=", "properties": {"@source_uri": "https://tools.usps.com/UspsToolsRestServices/rest/POLocator/findLocations", "@spider": "usps_collection_boxes", "addr:city": "FAIRDALE", "addr:country": "US", "addr:postcode": "25839", "addr:state": "WV", "addr:street_address": "698 BOLT RD", "amenity": "post_box", "collection_times": "Mo-Fr 15:45; Sa 11:00", "indoor": "yes", "note": "ON 12/24 AND 12/31, THIS BOX MAY BE COLLECTED AS EARLY AS 12 NOON.", "nsi_id": "unitedstatespostalservice-a77078", "operator": "United States Postal Service", "operator:short": "USPS", "operator:type": "public", "operator:wikidata": "Q668687", "ref": "2583900003"}, "type": "Feature"}
{"geometry": {"coordinates": [-81.1055849777, 38.0515149832], "type": "Point"}, "id": "a34Ue37AaJ4Lzrn9ZyXiDsvSrpE=", "properties": {"@source_uri": "https://tools.usps.com/UspsToolsRestServices/rest/POLocator/findLocations", "@spider": "usps_collection_boxes", "addr:city": "FAYETTEVILLE", "addr:country": "US", "addr:postcode": "25840", "addr:state": "WV", "addr:street_address": "120 W MAPLE AVE", "amenity": "post_box", "collection_times": "Mo-Sa 16:00", "note": "ON 12/24 AND 12/31, THIS BOX MAY BE COLLECTED AS EARLY AS 12 NOON.", "nsi_id": "unitedstatespostalservice-a77078", "operator": "United States Postal Service", "operator:short": "USPS", "operator:type": "public", "operator:wikidata": "Q668687", "ref": "2584000000"}, "type": "Feature"}
{"geometry": {"coordinates": [-81.104262516, 38.052437417], "type": "Point"}, "id": "8adJM40Z-HqZl98R4S1_rM6fabg=", "properties": {"@source_uri": "https://tools.usps.com/UspsToolsRestServices/rest/POLocator/findLocations", "@spider": "usps_collection_boxes", "addr:city": "FAYETTEVILLE", "addr:country": "US", "addr:postcode": "25840", "addr:state": "WV", "addr:street_address": "120 W MAPLE AVE", "amenity": "post_box", "collection_times": "Mo-Sa 16:00", "note": "ON 12/24 AND 12/31, THIS BOX MAY BE COLLECTED AS EARLY AS 12 NOON.", "nsi_id": "unitedstatespostalservice-a77078", "operator": "United States Postal Service", "operator:short": "USPS", "operator:type": "public", "operator:wikidata": "Q668687", "ref": "2584000001"}, "type": "Feature"}
{"geometry": {"coordinates": [-81.104262516, 38.052437417], "type": "Point"}, "id": "0nko8fYmh4GvW2IUh2DmwYzm1cw=", "properties": {"@source_uri": "https://tools.usps.com/UspsToolsRestServices/rest/POLocator/findLocations", "@spider": "usps_collection_boxes", "addr:city": "FAYETTEVILLE", "addr:country": "US", "addr:postcode": "25840", "addr:state": "WV", "addr:street_address": "120 W MAPLE AVE", "amenity": "post_box", "collection_times": "Mo-Sa 16:00", "indoor": "yes", "note": "ON 12/24 AND 12/31, THIS BOX MAY BE COLLECTED AS EARLY AS 12 NOON.", "nsi_id": "unitedstatespostalservice-a77078", "operator": "United States Postal Service", "operator:short": "USPS", "operator:type": "public", "operator:wikidata": "Q668687", "ref": "2584000014"}, "type": "Feature"}
{"geometry": {"coordinates": [-81.104262516, 38.052437417], "type": "Point"}, "id": "z_FtpwNwHoltKSyY7upS9JzvvCI=", "properties": {"@source_uri": "https://tools.usps.com/UspsToolsRestServices/rest/POLocator/findLocations", "@spider": "usps_collection_boxes", "addr:city": "FAYETTEVILLE", "addr:country": "US", "addr:postcode": "25840", "addr:state": "WV", "addr:street_address": "120 W MAPLE AVE", "amenity": "post_box", "collection_times": "Mo-Fr 16:15; Sa 12:00", "indoor": "yes", "note": "ON 12/24 AND 12/31, THIS BOX MAY BE COLLECTED AS EARLY AS 12 NOON.", "nsi_id": "unitedstatespostalservice-a77078", "operator": "United States Postal Service", "operator:short": "USPS", "operator:type": "public", "operator:wikidata": "Q668687", "ref": "2584000017"}, "type": "Feature"}
{"geometry": {"coordinates": [-81.34038, 37.779091], "type": "Point"}, "id": "IIBe210-IP0srx7j0880GP1OsUo=", "properties": {"@source_uri": "https://tools.usps.com/UspsToolsRestServices/rest/POLocator/findLocations", "@spider": "usps_collection_boxes", "addr:city": "GLEN DANIEL", "addr:country": "US", "addr:postcode": "25844", "addr:state": "WV", "addr:street_address": "7134 HARPER RD", "amenity": "post_box", "collection_times": "Mo-Fr 15:30; Sa 11:45", "note": "ON 12/24 AND 12/31, THIS BOX MAY BE COLLECTED AS EARLY AS 12 NOON.", "nsi_id": "unitedstatespostalservice-a77078", "operator": "United States Postal Service", "operator:short": "USPS", "operator:type": "public", "operator:wikidata": "Q668687", "ref": "2584400000"}, "type": "Feature"}
{"geometry": {"coordinates": [-81.34042, 37.779064], "type": "Point"}, "id": "uRw4bVo-Zg9JiSWIdyeqNKw7luQ=", "properties": {"@source_uri": "https://tools.usps.com/UspsToolsRestServices/rest/POLocator/findLocations", "@spider": "usps_collection_boxes", "addr:city": "GLEN DANIEL", "addr:country": "US", "addr:postcode": "25844", "addr:state": "WV", "addr:street_address": "7134 HARPER RD", "amenity": "post_box", "collection_times": "Mo-Fr 15:30; Sa 11:45", "indoor": "yes", "note": "ON 12/24 AND 12/31, THIS BOX MAY BE COLLECTED AS EARLY AS 12 NOON.", "nsi_id": "unitedstatespostalservice-a77078", "operator": "United States Postal Service", "operator:short": "USPS", "operator:type": "public", "operator:wikidata": "Q668687", "ref": "2584400001"}, "type": "Feature"}
{"geometry": {"coordinates": [-81.340195417, 37.77913189], "type": "Point"}, "id": "ufGAPcnNe6zhGLvzhP9XiP1ziys=", "properties": {"@source_uri": "https://tools.usps.com/UspsToolsRestServices/rest/POLocator/findLocations", "@spider": "usps_collection_boxes", "addr:city": "GLEN DANIEL", "addr:country": "US", "addr:postcode": "25844", "addr:state": "WV", "addr:street_address": "7134 HARPER RD", "amenity": "post_box", "collection_times": "Mo-Fr 15:45; Sa 11:45", "indoor": "yes", "note": "ON 12/24 AND 12/31, THIS BOX MAY BE COLLECTED AS EARLY AS 12 NOON.", "nsi_id": "unitedstatespostalservice-a77078", "operator": "United States Postal Service", "operator:short": "USPS", "operator:type": "public", "operator:wikidata": "Q668687", "ref": "2584400004"}, "type": "Feature"}
{"geometry": {"coordinates": [-81.530814, 37.697647], "type": "Point"}, "id": "Vqk_FRVGpGP6M3Jgq0_Oka_xMTQ=", "properties": {"@source_uri": "https://tools.usps.com/UspsToolsRestServices/rest/POLocator/findLocations", "@spider": "usps_collection_boxes", "addr:city": "GLEN FORK", "addr:country": "US", "addr:postcode": "25845", "addr:state": "WV", "addr:street_address": "4200 POPLAR GAP RD", "amenity": "post_box", "collection_times": "Mo-Fr 14:30; Sa 11:30", "note": "ON 12/24 AND 12/31, THIS BOX MAY BE COLLECTED AS EARLY AS 12 NOON.", "nsi_id": "unitedstatespostalservice-a77078", "operator": "United States Postal Service", "operator:short": "USPS", "operator:type": "public", "operator:wikidata": "Q668687", "ref": "2584500000"}, "type": "Feature"}
{"geometry": {"coordinates": [-81.530614, 37.697717], "type": "Point"}, "id": "QmMlz5ZL2ltlObpkV-pOO8S4Xx4=", "properties": {"@source_uri": "https://tools.usps.com/UspsToolsRestServices/rest/POLocator/findLocations", "@spider": "usps_collection_boxes", "addr:city": "GLEN FORK", "addr:country": "US", "addr:postcode": "25845", "addr:state": "WV", "addr:street_address": "4200 POPLAR GAP RD", "amenity": "post_box", "collection_times": "Mo-Fr 14:30; Sa 11:30", "indoor": "yes", "note": "ON 12/24 AND 12/31, THIS BOX MAY BE COLLECTED AS EARLY AS 12 NOON.", "nsi_id": "unitedstatespostalservice-a77078", "operator": "United States Postal Service", "operator:short": "USPS", "operator:type": "public", "operator:wikidata": "Q668687", "ref": "2584500001"}, "type": "Feature"}
{"geometry": {"coordinates": [-81.530637302, 37.697636263], "type": "Point"}, "id": "_zwfBmlt0xXH6Kfnn6V_Xina7O0=", "properties": {"@source_uri": "https://tools.usps.com/UspsToolsRestServices/rest/POLocator/findLocations", "@spider": "usps_collection_boxes", "addr:city": "GLEN FORK", "addr:country": "US", "addr:postcode": "25845", "addr:state": "WV", "addr:street_address": "4200 POPLAR GAP RD", "amenity": "post_box", "collection_times": "Mo-Fr 14:30; Sa 12:30", "indoor": "yes", "note": "ON 12/24 AND 12/31, THIS BOX MAY BE COLLECTED AS EARLY AS 12 NOON.", "nsi_id": "unitedstatespostalservice-a77078", "operator": "United States Postal Service", "operator:short": "USPS", "operator:type": "public", "operator:wikidata": "Q668687", "ref": "2584500003"}, "type": "Feature"}
{"geometry": {"coordinates": [-81.153561, 37.924764], "type": "Point"}, "id": "mzFajuohZ3OLyD8gu7PPh_ii4tU=", "properties": {"@source_uri": "https://tools.usps.com/UspsToolsRestServices/rest/POLocator/findLocations", "@spider": "usps_collection_boxes", "addr:city": "GLEN JEAN", "addr:country": "US", "addr:postcode": "25846", "addr:state": "WV", "addr:street_address": "102 MAIN ST", "amenity": "post_box", "collection_times": "Mo-Fr 14:45; Sa 11:45", "note": "ON 12/24 AND 12/31, THIS BOX MAY BE COLLECTED AS EARLY AS 12 NOON.", "nsi_id": "unitedstatespostalservice-a77078", "operator": "United States Postal Service", "operator:short": "USPS", "operator:type": "public", "operator:wikidata": "Q668687", "ref": "2584600000"}, "type": "Feature"}
{"geometry": {"coordinates": [-81.153561, 37.924764], "type": "Point"}, "id": "uCOxtAZADNp8Pw7JNliD0426ZjI=", "properties": {"@source_uri": "https://tools.usps.com/UspsToolsRestServices/rest/POLocator/findLocations", "@spider": "usps_collection_boxes", "addr:city": "GLEN JEAN", "addr:country": "US", "addr:postcode": "25846", "addr:state": "WV", "addr:street_address": "102 MAIN ST", "amenity": "post_box", "collection_times": "Mo-Fr 14:45; Sa 11:45", "indoor": "yes", "note": "ON 12/24 AND 12/31, THIS BOX MAY BE COLLECTED AS EARLY AS 12 NOON.", "nsi_id": "unitedstatespostalservice-a77078", "operator": "United States Postal Service", "operator:short": "USPS", "operator:type": "public", "operator:wikidata": "Q668687", "ref": "2584600001"}, "type": "Feature"}
{"geometry": {"coordinates": [-81.155131197, 37.927149979], "type": "Point"}, "id": "sGFfcawTHrwXC4gL_yFZS_P58ic=", "properties": {"@source_uri": "https://tools.usps.com/UspsToolsRestServices/rest/POLocator/findLocations", "@spider": "usps_collection_boxes", "addr:city": "GLEN JEAN", "addr:country": "US", "addr:postcode": "25846", "addr:state": "WV", "addr:street_address": "102 MAIN ST", "amenity": "post_box", "collection_times": "Mo-Fr 15:00; Sa 11:30", "indoor": "yes", "note": "ON 12/24 AND 12/31, THIS BOX MAY BE COLLECTED AS EARLY AS 12 NOON.", "nsi_id": "unitedstatespostalservice-a77078", "operator": "United States Postal Service", "operator:short": "USPS", "operator:type": "public", "operator:wikidata": "Q668687", "ref": "2584600003"}, "type": "Feature"}
{"geometry": {"coordinates": [-81.416660036, 37.715879985], "type": "Point"}, "id": "ZwSJWEVEVxSKfNryUs7bHC7Gi2w=", "properties": {"@source_uri": "https://tools.usps.com/UspsToolsRestServices/rest/POLocator/findLocations", "@spider": "usps_collection_boxes", "addr:city": "GLEN ROGERS", "addr:country": "US", "addr:postcode": "25848", "addr:state": "WV", "addr:street_address": "2517 GLEN ROGERS RD", "amenity": "post_box", "collection_times": "Mo-Fr 13:00; Sa 10:45", "note": "ON 12/24 AND 12/31, THIS BOX MAY BE COLLECTED AS EARLY AS 12 NOON.", "nsi_id": "unitedstatespostalservice-a77078", "operator": "United States Postal Service", "operator:short": "USPS", "operator:type": "public", "operator:wikidata": "Q668687", "ref": "2584800000"}, "type": "Feature"}
{"geometry": {"coordinates": [-81.416660036, 37.715879985], "type": "Point"}, "id": "qD_Vpq75oE4uTfk_HncKzz0eAGM=", "properties": {"@source_uri": "https://tools.usps.com/UspsToolsRestServices/rest/POLocator/findLocations", "@spider": "usps_collection_boxes", "addr:city": "GLEN ROGERS", "addr:country": "US", "addr:postcode": "25848", "addr:state": "WV", "addr:street_address": "2517 GLEN ROGERS RD", "amenity": "post_box", "collection_times": "Mo-Fr 13:00; Sa 10:45", "indoor": "yes", "note": "ON 12/24 AND 12/31, THIS BOX MAY BE COLLECTED AS EARLY AS 12 NOON.", "nsi_id": "unitedstatespostalservice-a77078", "operator": "United States Postal Service", "operator:short": "USPS", "operator:type": "public", "operator:wikidata": "Q668687", "ref": "2584800001"}, "type": "Feature"}
{"geometry": {"coordinates": [-81.416660036, 37.715879985], "type": "Point"}, "id": "Dhfrsmzmlm_J0OFTlJvuqjnJpTw=", "properties": {"@source_uri": "https://tools.usps.com/UspsToolsRestServices/rest/POLocator/findLocations", "@spider": "usps_collection_boxes", "addr:city": "GLEN ROGERS", "addr:country": "US", "addr:postcode": "25848", "addr:state": "WV", "addr:street_address": "2517 GLEN ROGERS RD", "amenity": "post_box", "collection_times": "Mo-Fr 13:00; Sa 11:00", "indoor": "yes", "note": "ON 12/24 AND 12/31, THIS BOX MAY BE COLLECTED AS EARLY AS 12 NOON.", "nsi_id": "unitedstatespostalservice-a77078", "operator": "United States Postal Service", "operator:short": "USPS", "operator:type": "public", "operator:wikidata": "Q668687", "ref": "2584800003"}, "type": "Feature"}
{"geometry": {"coordinates": [-81.259743, 37.800506], "type": "Point"}, "id": "JYaD55qNhFHyyB1JhTPQJLHeBZE=", "properties": {"@source_uri": "https://tools.usps.com/UspsToolsRestServices/rest/POLocator/findLocations", "@spider": "usps_collection_boxes", "addr:city": "HARPER", "addr:country": "US", "addr:postcode": "25851", "addr:state": "WV", "addr:street_address": "3520 HARPER RD", "amenity": "post_box", "collection_times": "Mo-Fr 11:45; Sa 10:45", "nsi_id": "unitedstatespostalservice-a77078", "operator": "United States Postal Service", "operator:short": "USPS", "operator:type": "public", "operator:wikidata": "Q668687", "ref": "2585100000"}, "type": "Feature"}
{"geometry": {"coordinates": [-81.259639, 37.800552], "type": "Point"}, "id": "hnjfoHKPKCDk1oSgTL4un7a7Ojs=", "properties": {"@source_uri": "https://tools.usps.com/UspsToolsRestServices/rest/POLocator/findLocations", "@spider": "usps_collection_boxes", "addr:city": "HARPER", "addr:country": "US", "addr:postcode": "25851", "addr:state": "WV", "addr:street_address": "3520 HARPER RD", "amenity": "post_box", "collection_times": "Mo-Fr 11:45; Sa 10:45", "indoor": "yes", "nsi_id": "unitedstatespostalservice-a77078", "operator": "United States Postal Service", "operator:short": "USPS", "operator:type": "public", "operator:wikidata": "Q668687", "ref": "2585100001"}, "type": "Feature"}
{"geometry": {"coordinates": [-81.259737148, 37.800549788], "type": "Point"}, "id": "duDli9LT_knQ8kTIP5CVjBHg8wE=", "properties": {"@source_uri": "https://tools.usps.com/UspsToolsRestServices/rest/POLocator/findLocations", "@spider": "usps_collection_boxes", "addr:city": "HARPER", "addr:country": "US", "addr:postcode": "25851", "addr:state": "WV", "addr:street_address": "3520 HARPER RD", "amenity": "post_box", "collection_times": "Mo-Fr 12:30; Sa 10:45", "indoor": "yes", "note": "ON 12/24 AND 12/31, THIS BOX MAY BE COLLECTED AS EARLY AS 12 NOON.", "nsi_id": "unitedstatespostalservice-a77078", "operator": "United States Postal Service", "operator:short": "USPS", "operator:type": "public", "operator:wikidata": "Q668687", "ref": "2585100003"}, "type": "Feature"}
{"geometry": {"coordinates": [-81.314037, 37.637859], "type": "Point"}, "id": "AcZmcsvrpjKc_ABp0CvDSWC0wTU=", "properties": {"@source_uri": "https://tools.usps.com/UspsToolsRestServices/rest/POLocator/findLocations", "@spider": "usps_collection_boxes", "addr:city": "HELEN", "addr:country": "US", "addr:postcode": "25853", "addr:state": "WV", "addr:street_address": "5011 TAMS HWY", "amenity": "post_box", "collection_times": "Mo-Fr 10:15; Sa 09:45", "nsi_id": "unitedstatespostalservice-a77078", "operator": "United States Postal Service", "operator:short": "USPS", "operator:type": "public", "operator:wikidata": "Q668687", "ref": "2585300000"}, "type": "Feature"}
{"geometry": {"coordinates": [-81.314077, 37.637909], "type": "Point"}, "id": "CvETnA9LiDEmCxqUpJz-_H0KL9Q=", "properties": {"@source_uri": "https://tools.usps.com/UspsToolsRestServices/rest/POLocator/findLocations", "@spider": "usps_collection_boxes", "addr:city": "HELEN", "addr:country": "US", "addr:postcode": "25853", "addr:state": "WV", "addr:street_address": "5011 TAMS HWY", "amenity": "post_box", "collection_times": "Mo-Fr 10:15; Sa 09:45", "indoor": "yes", "nsi_id": "unitedstatespostalservice-a77078", "operator": "United States Postal Service", "operator:short": "USPS", "operator:type": "public", "operator:wikidata": "Q668687", "ref": "2585300001"}, "type": "Feature"}
{"geometry": {"coordinates": [-81.314027126, 37.637713823], "type": "Point"}, "id": "H0FeX-shv1imJ4buecT0YH2TaJw=", "properties": {"@source_uri": "https://tools.usps.com/UspsToolsRestServices/rest/POLocator/findLocations", "@spider": "usps_collection_boxes", "addr:city": "HELEN", "addr:country": "US", "addr:postcode": "25853", "addr:state": "WV", "addr:street_address": "5011 TAMS HWY", "amenity": "post_box", "collection_times": "Mo-Fr 10:30; Sa 10:00", "indoor": "yes", "nsi_id": "unitedstatespostalservice-a77078", "operator": "United States Postal Service", "operator:short": "USPS", "operator:type": "public", "operator:wikidata": "Q668687", "ref": "2585300003"}, "type": "Feature"}
{"geometry": {"coordinates": [-81.002388, 38.113552], "type": "Point"}, "id": "nZjTIhv3nkt4072Z_Vas02BWouc=", "properties": {"@source_uri": "https://tools.usps.com/UspsToolsRestServices/rest/POLocator/findLocations", "@spider": "usps_collection_boxes", "addr:city": "HICO", "addr:country": "US", "addr:postcode": "25854", "addr:state": "WV", "addr:street_address": "27 WILLIAM BEAN RD", "amenity": "post_box", "collection_times": "Mo-Fr 15:30; Sa 11:15", "note": "ON 12/24 AND 12/31, THIS BOX MAY BE COLLECTED AS EARLY AS 12 NOON.", "nsi_id": "unitedstatespostalservice-a77078", "operator": "United States Postal Service", "operator:short": "USPS", "operator:type": "public", "operator:wikidata": "Q668687", "ref": "2585400000"}, "type": "Feature"}
{"geometry": {"coordinates": [-81.002388, 38.113552], "type": "Point"}, "id": "U2K9WVg1K0-2GXvdrFag-wNZ4LU=", "properties": {"@source_uri": "https://tools.usps.com/UspsToolsRestServices/rest/POLocator/findLocations", "@spider": "usps_collection_boxes", "addr:city": "HICO", "addr:country": "US", "addr:postcode": "25854", "addr:state": "WV", "addr:street_address": "27 WILLIAM BEAN RD", "amenity": "post_box", "collection_times": "Mo-Fr 15:30; Sa 11:15", "indoor": "yes", "note": "ON 12/24 AND 12/31, THIS BOX MAY BE COLLECTED AS EARLY AS 12 NOON.", "nsi_id": "unitedstatespostalservice-a77078", "operator": "United States Postal Service", "operator:short": "USPS", "operator:type": "public", "operator:wikidata": "Q668687", "ref": "2585400001"}, "type": "Feature"}
{"geometry": {"coordinates": [-81.003195224, 38.113439521], "type": "Point"}, "id": "V_1_-T5MhedZrhEdtl-TINd9HC4=", "properties": {"@source_uri": "https://tools.usps.com/UspsToolsRestServices/rest/POLocator/findLocations", "@spider": "usps_collection_boxes", "addr:city": "HICO", "addr:country": "US", "addr:postcode": "25854", "addr:state": "WV", "addr:street_address": "27 WILLIAM BEAN RD", "amenity": "post_box", "collection_times": "Mo-Fr 15:30; Sa 11:15", "indoor": "yes", "note": "ON 12/24 AND 12/31, THIS BOX MAY BE COLLECTED AS EARLY AS 12 NOON.", "nsi_id": "unitedstatespostalservice-a77078", "operator": "United States Postal Service", "operator:short": "USPS", "operator:type": "public", "operator:wikidata": "Q668687", "ref": "2585400003"}, "type": "Feature"}
{"geometry": {"coordinates": [-81.150721, 37.94554], "type": "Point"}, "id": "YxVQ_eQ2FJC685uhzhXEqaunK0k=", "properties": {"@source_uri": "https://tools.usps.com/UspsToolsRestServices/rest/POLocator/findLocations", "@spider": "usps_collection_boxes", "addr:city": "HILLTOP", "addr:country": "US", "addr:postcode": "25855", "addr:state": "WV", "addr:street_address": "102 HILLTOP LOOP RD", "amenity": "post_box", "collection_times": "Mo-Fr 11:45; Sa 11:15", "indoor": "yes", "nsi_id": "unitedstatespostalservice-a77078", "operator": "United States Postal Service", "operator:short": "USPS", "operator:type": "public", "operator:wikidata": "Q668687", "ref": "2585500000"}, "type": "Feature"}
{"geometry": {"coordinates": [-81.150721, 37.94554], "type": "Point"}, "id": "yaMWzoypwfvdnzb9Oprd-o5m73g=", "properties": {"@source_uri": "https://tools.usps.com/UspsToolsRestServices/rest/POLocator/findLocations", "@spider": "usps_collection_boxes", "addr:city": "HILLTOP", "addr:country": "US", "addr:postcode": "25855", "addr:state": "WV", "addr:street_address": "102 HILLTOP LOOP RD", "amenity": "post_box", "collection_times": "Mo-Fr 11:45; Sa 11:15", "nsi_id": "unitedstatespostalservice-a77078", "operator": "United States Postal Service", "operator:short": "USPS", "operator:type": "public", "operator:wikidata": "Q668687", "ref": "2585500001"}, "type": "Feature"}
{"geometry": {"coordinates": [-81.15056577, 37.945449081], "type": "Point"}, "id": "0sqRYmCGuGPERqc4wGFYBJKsj9E=", "properties": {"@source_uri": "https://tools.usps.com/UspsToolsRestServices/rest/POLocator/findLocations", "@spider": "usps_collection_boxes", "addr:city": "HILLTOP", "addr:country": "US", "addr:postcode": "25855", "addr:state": "WV", "addr:street_address": "102 HILLTOP LOOP RD", "amenity": "post_box", "collection_times": "Mo-Fr 12:00; Sa 11:30", "indoor": "yes", "nsi_id": "unitedstatespostalservice-a77078", "operator": "United States Postal Service", "operator:short": "USPS", "operator:type": "public", "operator:wikidata": "Q668687", "ref": "2585500003"}, "type": "Feature"}
{"geometry": {"coordinates": [-81.221965, 37.620466], "type": "Point"}, "id": "4fgIimWuFGpKvu5Z_Om21boiI30=", "properties": {"@source_uri": "https://tools.usps.com/UspsToolsRestServices/rest/POLocator/findLocations", "@spider": "usps_collection_boxes", "addr:city": "JOSEPHINE", "addr:country": "US", "addr:postcode": "25857", "addr:state": "WV", "addr:street_address": "4282 ODD RD", "amenity": "post_box", "collection_times": "Mo-Fr 11:15; Sa 09:45", "nsi_id": "unitedstatespostalservice-a77078", "operator": "United States Postal Service", "operator:short": "USPS", "operator:type": "public", "operator:wikidata": "Q668687", "ref": "2585700000"}, "type": "Feature"}
{"geometry": {"coordinates": [-81.222031, 37.620402], "type": "Point"}, "id": "H6xPfTLseosxD31m2tm21Q7qnHg=", "properties": {"@source_uri": "https://tools.usps.com/UspsToolsRestServices/rest/POLocator/findLocations", "@spider": "usps_collection_boxes", "addr:city": "JOSEPHINE", "addr:country": "US", "addr:postcode": "25857", "addr:state": "WV", "addr:street_address": "4282 ODD RD", "amenity": "post_box", "collection_times": "Mo-Fr 11:15; Sa 09:45", "indoor": "yes", "nsi_id": "unitedstatespostalservice-a77078", "operator": "United States Postal Service", "operator:short": "USPS", "operator:type": "public", "operator:wikidata": "Q668687", "ref": "2585700001"}, "type": "Feature"}
{"geometry": {"coordinates": [-81.222009418, 37.620482428], "type": "Point"}, "id": "bI9n9n4Q-lF3uOaBlNIiQKbCHL8=", "properties": {"@source_uri": "https://tools.usps.com/UspsToolsRestServices/rest/POLocator/findLocations", "@spider": "usps_collection_boxes", "addr:city": "JOSEPHINE", "addr:country": "US", "addr:postcode": "25857", "addr:state": "WV", "addr:street_address": "4282 ODD RD", "amenity": "post_box", "collection_times": "Mo-Fr 11:30; Sa 10:00", "indoor": "yes", "nsi_id": "unitedstatespostalservice-a77078", "operator": "United States Postal Service", "operator:short": "USPS", "operator:type": "public", "operator:wikidata": "Q668687", "ref": "2585700003"}, "type": "Feature"}
{"geometry": {"coordinates": [-81.072236, 38.07297], "type": "Point"}, "id": "v11KC3zcppn_6cfoj80i4QvS6hg=", "properties": {"@source_uri": "https://tools.usps.com/UspsToolsRestServices/rest/POLocator/findLocations", "@spider": "usps_collection_boxes", "addr:city": "LANSING", "addr:country": "US", "addr:postcode": "25862", "addr:state": "WV", "addr:street_address": "59 FAYETTE MINE RD", "amenity": "post_box", "collection_times": "Mo-Fr 11:45; Sa 10:00", "nsi_id": "unitedstatespostalservice-a77078", "operator": "United States Postal Service", "operator:short": "USPS", "operator:type": "public", "operator:wikidata": "Q668687", "ref": "2586200000"}, "type": "Feature"}
{"geometry": {"coordinates": [-81.072236, 38.07297], "type": "Point"}, "id": "YmVBLPNYi4Wl04LQ21n6RoaLbiw=", "properties": {"@source_uri": "https://tools.usps.com/UspsToolsRestServices/rest/POLocator/findLocations", "@spider": "usps_collection_boxes", "addr:city": "LANSING", "addr:country": "US", "addr:postcode": "25862", "addr:state": "WV", "addr:street_address": "59 FAYETTE MINE RD", "amenity": "post_box", "collection_times": "Mo-Fr 11:45; Sa 10:00", "indoor": "yes", "nsi_id": "unitedstatespostalservice-a77078", "operator": "United States Postal Service", "operator:short": "USPS", "operator:type": "public", "operator:wikidata": "Q668687", "ref": "2586200001"}, "type": "Feature"}
{"geometry": {"coordinates": [-81.074393106, 38.07245203], "type": "Point"}, "id": "lVIvfD6JoNAh-VdGYLmLPEA-v7g=", "properties": {"@source_uri": "https://tools.usps.com/UspsToolsRestServices/rest/POLocator/findLocations", "@spider": "usps_collection_boxes", "addr:city": "LANSING", "addr:country": "US", "addr:postcode": "25862", "addr:state": "WV", "addr:street_address": "59 FAYETTE MINE RD", "amenity": "post_box", "collection_times": "Mo-Fr 12:00; Sa 10:30", "indoor": "yes", "nsi_id": "unitedstatespostalservice-a77078", "operator": "United States Postal Service", "operator:short": "USPS", "operator:type": "public", "operator:wikidata": "Q668687", "ref": "2586200003"}, "type": "Feature"}
{"geometry": {"coordinates": [-80.957633, 37.908868], "type": "Point"}, "id": "XRlHIkfauVnyO1T1ERXPCV0bl68=", "properties": {"@source_uri": "https://tools.usps.com/UspsToolsRestServices/rest/POLocator/findLocations", "@spider": "usps_collection_boxes", "addr:city": "LAYLAND", "addr:country": "US", "addr:postcode": "25864", "addr:state": "WV", "addr:street_address": "13891 STANAFORD RD", "amenity": "post_box", "collection_times": "Mo-Fr 11:45; Sa 10:15", "nsi_id": "unitedstatespostalservice-a77078", "operator": "United States Postal Service", "operator:short": "USPS", "operator:type": "public", "operator:wikidata": "Q668687", "ref": "2586400000"}, "type": "Feature"}
{"geometry": {"coordinates": [-80.957633, 37.908868], "type": "Point"}, "id": "yHwdnz0N0cWS0QE8aPaLXmkmFMs=", "properties": {"@source_uri": "https://tools.usps.com/UspsToolsRestServices/rest/POLocator/findLocations", "@spider": "usps_collection_boxes", "addr:city": "LAYLAND", "addr:country": "US", "addr:postcode": "25864", "addr:state": "WV", "addr:street_address": "13891 STANAFORD RD", "amenity": "post_box", "collection_times": "Mo-Fr 11:45; Sa 10:15", "indoor": "yes", "nsi_id": "unitedstatespostalservice-a77078", "operator": "United States Postal Service", "operator:short": "USPS", "operator:type": "public", "operator:wikidata": "Q668687", "ref": "2586400001"}, "type": "Feature"}
{"geometry": {"coordinates": [-80.957558705, 37.908823656], "type": "Point"}, "id": "C1ePQBgWUeXEMU9MpmffnmDVbhc=", "properties": {"@source_uri": "https://tools.usps.com/UspsToolsRestServices/rest/POLocator/findLocations", "@spider": "usps_collection_boxes", "addr:city": "LAYLAND", "addr:country": "US", "addr:postcode": "25864", "addr:state": "WV", "addr:street_address": "13891 STANAFORD RD", "amenity": "post_box", "collection_times": "Mo-Fr 12:00; Sa 10:45", "indoor": "yes", "nsi_id": "unitedstatespostalservice-a77078", "operator": "United States Postal Service", "operator:short": "USPS", "operator:type": "public", "operator:wikidata": "Q668687", "ref": "2586400003"}, "type": "Feature"}
{"geometry": {"coordinates": [-81.300041, 37.734415], "type": "Point"}, "id": "CjzP6HbCL_xQLoSDLE4S-YZbaZk=", "properties": {"@source_uri": "https://tools.usps.com/UspsToolsRestServices/rest/POLocator/findLocations", "@spider": "usps_collection_boxes", "addr:city": "LESTER", "addr:country": "US", "addr:postcode": "25865", "addr:state": "WV", "addr:street_address": "1711 LESTER HWY", "amenity": "post_box", "collection_times": "Mo-Fr 15:00; Sa 10:45", "indoor": "yes", "note": "ON 12/24 AND 12/31, THIS BOX MAY BE COLLECTED AS EARLY AS 12 NOON.", "nsi_id": "unitedstatespostalservice-a77078", "operator": "United States Postal Service", "operator:short": "USPS", "operator:type": "public", "operator:wikidata": "Q668687", "ref": "2586500000"}, "type": "Feature"}
{"geometry": {"coordinates": [-81.300025, 37.73449], "type": "Point"}, "id": "4J-FcugepZ77dawWnB_FbWgpeWM=", "properties": {"@source_uri": "https://tools.usps.com/UspsToolsRestServices/rest/POLocator/findLocations", "@spider": "usps_collection_boxes", "addr:city": "LESTER", "addr:country": "US", "addr:postcode": "25865", "addr:state": "WV", "addr:street_address": "1711 LESTER HWY", "amenity": "post_box", "collection_times": "Mo-Fr 15:00; Sa 10:45", "note": "ON 12/24 AND 12/31, THIS BOX MAY BE COLLECTED AS EARLY AS 12 NOON.", "nsi_id": "unitedstatespostalservice-a77078", "operator": "United States Postal Service", "operator:short": "USPS", "operator:type": "public", "operator:wikidata": "Q668687", "ref": "2586500001"}, "type": "Feature"}
{"geometry": {"coordinates": [-81.300103179, 37.734319509], "type": "Point"}, "id": "LSzFrVNyIxn_DMbo7vHSaOmoXQA=", "properties": {"@source_uri": "https://tools.usps.com/UspsToolsRestServices/rest/POLocator/findLocations", "@spider": "usps_collection_boxes", "addr:city": "LESTER", "addr:country": "US", "addr:postcode": "25865", "addr:state": "WV", "addr:street_address": "1711 LESTER HWY", "amenity": "post_box", "collection_times": "Mo-Fr 15:45; Sa 10:45", "indoor": "yes", "note": "ON 12/24 AND 12/31, THIS BOX MAY BE COLLECTED AS EARLY AS 12 NOON.", "nsi_id": "unitedstatespostalservice-a77078", "operator": "United States Postal Service", "operator:short": "USPS", "operator:type": "public", "operator:wikidata": "Q668687", "ref": "2586500003"}, "type": "Feature"}
{"geometry": {"coordinates": [-81.145282, 38.010781], "type": "Point"}, "id": "Ny6_PninJLaY_3ZLaUlYmo9zjPo=", "properties": {"@source_uri": "https://tools.usps.com/UspsToolsRestServices/rest/POLocator/findLocations", "@spider": "usps_collection_boxes", "addr:city": "LOCHGELLY", "addr:country": "US", "addr:postcode": "25866", "addr:state": "WV", "addr:street_address": "3746 SUMMERLEE RD", "amenity": "post_box", "collection_times": "Mo-Fr 11:45; Sa 10:45", "nsi_id": "unitedstatespostalservice-a77078", "operator": "United States Postal Service", "operator:short": "USPS", "operator:type": "public", "operator:wikidata": "Q668687", "ref": "2586600000"}, "type": "Feature"}
{"geometry": {"coordinates": [-81.1391378869, 37.9992356721], "type": "Point"}, "id": "P_XTC3xMjDX5iJUaU_amDh3eCHY=", "properties": {"@source_uri": "https://tools.usps.com/UspsToolsRestServices/rest/POLocator/findLocations", "@spider": "usps_collection_boxes", "addr:city": "LOCHGELLY", "addr:country": "US", "addr:postcode": "25866", "addr:state": "WV", "addr:street_address": "3746 SUMMERLEE RD", "amenity": "post_box", "collection_times": "Mo-Fr 12:00; Sa 11:00", "indoor": "yes", "nsi_id": "unitedstatespostalservice-a77078", "operator": "United States Postal Service", "operator:short": "USPS", "operator:type": "public", "operator:wikidata": "Q668687", "ref": "2586600003"}, "type": "Feature"}
{"geometry": {"coordinates": [-81.1391378869, 37.9992356721], "type": "Point"}, "id": "-ZO2x06m28a4-KOPxsdLl2wMWNw=", "properties": {"@source_uri": "https://tools.usps.com/UspsToolsRestServices/rest/POLocator/findLocations", "@spider": "usps_collection_boxes", "addr:city": "LOCHGELLY", "addr:country": "US", "addr:postcode": "25866", "addr:state": "WV", "addr:street_address": "3746 SUMMERLEE RD", "amenity": "post_box", "collection_times": "Mo-Fr 11:45; Sa 10:45", "indoor": "yes", "nsi_id": "unitedstatespostalservice-a77078", "operator": "United States Postal Service", "operator:short": "USPS", "operator:type": "public", "operator:wikidata": "Q668687", "ref": "2586600005"}, "type": "Feature"}
{"geometry": {"coordinates": [-80.963351, 38.05793], "type": "Point"}, "id": "r7q5nEvejhqywmKTe6hqdHoEtEw=", "properties": {"@source_uri": "https://tools.usps.com/UspsToolsRestServices/rest/POLocator/findLocations", "@spider": "usps_collection_boxes", "addr:city": "LOOKOUT", "addr:country": "US", "addr:postcode": "25868", "addr:state": "WV", "addr:street_address": "31085 MIDLAND TRL", "amenity": "post_box", "collection_times": "Mo-Sa 11:45", "nsi_id": "unitedstatespostalservice-a77078", "operator": "United States Postal Service", "operator:short": "USPS", "operator:type": "public", "operator:wikidata": "Q668687", "ref": "2586800000"}, "type": "Feature"}
{"geometry": {"coordinates": [-80.963351, 38.05793], "type": "Point"}, "id": "t4O-Z-lFhr7F0Nq3qskZwP7D8hU=", "properties": {"@source_uri": "https://tools.usps.com/UspsToolsRestServices/rest/POLocator/findLocations", "@spider": "usps_collection_boxes", "addr:city": "LOOKOUT", "addr:country": "US", "addr:postcode": "25868", "addr:state": "WV", "addr:street_address": "31085 MIDLAND TRL", "amenity": "post_box", "collection_times": "Mo-Sa 11:45", "indoor": "yes", "nsi_id": "unitedstatespostalservice-a77078", "operator": "United States Postal Service", "operator:short": "USPS", "operator:type": "public", "operator:wikidata": "Q668687", "ref": "2586800001"}, "type": "Feature"}
{"geometry": {"coordinates": [-80.963860948, 38.05834266], "type": "Point"}, "id": "UaMCVNvR7qYlG9oXfBr9XamSj5A=", "properties": {"@source_uri": "https://tools.usps.com/UspsToolsRestServices/rest/POLocator/findLocations", "@spider": "usps_collection_boxes", "addr:city": "LOOKOUT", "addr:country": "US", "addr:postcode": "25868", "addr:state": "WV", "addr:street_address": "31085 MIDLAND TRL", "amenity": "post_box", "collection_times": "Mo-Fr 12:00; Sa 11:30", "indoor": "yes", "nsi_id": "unitedstatespostalservice-a77078", "operator": "United States Postal Service", "operator:short": "USPS", "operator:type": "public", "operator:wikidata": "Q668687", "ref": "2586800003"}, "type": "Feature"}
{"geometry": {"coordinates": [-81.207427035, 37.769612658], "type": "Point"}, "id": "l7XGzMIdIY4T8bw_1WLxILE50Fw=", "properties": {"@source_uri": "https://tools.usps.com/UspsToolsRestServices/rest/POLocator/findLocations", "@spider": "usps_collection_boxes", "addr:city": "MABSCOTT", "addr:country": "US", "addr:postcode": "25871", "addr:state": "WV", "addr:street_address": "113 CHESTNUT ST", "amenity": "post_box", "collection_times": "Mo-Fr 16:30; Sa 11:30", "note": "ON 12/24 AND 12/31, THIS BOX MAY BE COLLECTED AS EARLY AS 12 NOON.", "nsi_id": "unitedstatespostalservice-a77078", "operator": "United States Postal Service", "operator:short": "USPS", "operator:type": "public", "operator:wikidata": "Q668687", "ref": "2587100000"}, "type": "Feature"}
{"geometry": {"coordinates": [-81.207427035, 37.769612658], "type": "Point"}, "id": "eidjjGSxlNdI5SuNqb5MZBJLIH4=", "properties": {"@source_uri": "https://tools.usps.com/UspsToolsRestServices/rest/POLocator/findLocations", "@spider": "usps_collection_boxes", "addr:city": "MABSCOTT", "addr:country": "US", "addr:postcode": "25871", "addr:state": "WV", "addr:street_address": "113 CHESTNUT ST", "amenity": "post_box", "collection_times": "Mo-Fr 16:30; Sa 11:30", "indoor": "yes", "note": "ON 12/24 AND 12/31, THIS BOX MAY BE COLLECTED AS EARLY AS 12 NOON.", "nsi_id": "unitedstatespostalservice-a77078", "operator": "United States Postal Service", "operator:short": "USPS", "operator:type": "public", "operator:wikidata": "Q668687", "ref": "2587100001"}, "type": "Feature"}
{"geometry": {"coordinates": [-81.207427035, 37.769612658], "type": "Point"}, "id": "LyCSL3M-RcwLbGSCRslNUsRKdpg=", "properties": {"@source_uri": "https://tools.usps.com/UspsToolsRestServices/rest/POLocator/findLocations", "@spider": "usps_collection_boxes", "addr:city": "MABSCOTT", "addr:country": "US", "addr:postcode": "25871", "addr:state": "WV", "addr:street_address": "113 CHESTNUT ST", "amenity": "post_box", "collection_times": "Mo-Fr 16:30; Sa 11:30", "indoor": "yes", "note": "ON 12/24 AND 12/31, THIS BOX MAY BE COLLECTED AS EARLY AS 12 NOON.", "nsi_id": "unitedstatespostalservice-a77078", "operator": "United States Postal Service", "operator:short": "USPS", "operator:type": "public", "operator:wikidata": "Q668687", "ref": "2587100003"}, "type": "Feature"}
{"geometry": {"coordinates": [-81.216638, 37.755097], "type": "Point"}, "id": "vx2aHIK9XHzPSlhzaOvsYWluwdE=", "properties": {"@source_uri": "https://tools.usps.com/UspsToolsRestServices/rest/POLocator/findLocations", "@spider": "usps_collection_boxes", "addr:city": "MACARTHUR", "addr:country": "US", "addr:postcode": "25873", "addr:state": "WV", "addr:street_address": "1902 ROBERT C BYRD DR", "amenity": "post_box", "collection_times": "Mo-Fr 15:45; Sa 10:30", "note": "ON 12/24 AND 12/31, THIS BOX MAY BE COLLECTED AS EARLY AS 12 NOON.", "nsi_id": "unitedstatespostalservice-a77078", "operator": "United States Postal Service", "operator:short": "USPS", "operator:type": "public", "operator:wikidata": "Q668687", "ref": "2587300000"}, "type": "Feature"}
{"geometry": {"coordinates": [-81.216738, 37.75505], "type": "Point"}, "id": "6UH86uU2ngnesIhsxCRYTqYm0Cc=", "properties": {"@source_uri": "https://tools.usps.com/UspsToolsRestServices/rest/POLocator/findLocations", "@spider": "usps_collection_boxes", "addr:city": "MACARTHUR", "addr:country": "US", "addr:postcode": "25873", "addr:state": "WV", "addr:street_address": "1902 ROBERT C BYRD DR", "amenity": "post_box", "collection_times": "Mo-Fr 15:45; Sa 10:30", "indoor": "yes", "note": "ON 12/24 AND 12/31, THIS BOX MAY BE COLLECTED AS EARLY AS 12 NOON.", "nsi_id": "unitedstatespostalservice-a77078", "operator": "United States Postal Service", "operator:short": "USPS", "operator:type": "public", "operator:wikidata": "Q668687", "ref": "2587300001"}, "type": "Feature"}
{"geometry": {"coordinates": [-81.218135979, 37.753747902], "type": "Point"}, "id": "pjD3eRNJoLjMq5JfcHXNEJWeHcw=", "properties": {"@source_uri": "https://tools.usps.com/UspsToolsRestServices/rest/POLocator/findLocations", "@spider": "usps_collection_boxes", "addr:city": "MACARTHUR", "addr:country": "US", "addr:postcode": "25873", "addr:state": "WV", "addr:street_address": "1902 ROBERT C BYRD DR", "amenity": "post_box", "collection_times": "Mo-Fr 15:45; Sa 11:30", "indoor": "yes", "note": "ON 12/24 AND 12/31, THIS BOX MAY BE COLLECTED AS EARLY AS 12 NOON.", "nsi_id": "unitedstatespostalservice-a77078", "operator": "United States Postal Service", "operator:short": "USPS", "operator:type": "public", "operator:wikidata": "Q668687", "ref": "2587300004"}, "type": "Feature"}
{"geometry": {"coordinates": [-81.464776, 37.671291], "type": "Point"}, "id": "gKeFMror1jpl38_HczG85WblsaQ=", "properties": {"@source_uri": "https://tools.usps.com/UspsToolsRestServices/rest/POLocator/findLocations", "@spider": "usps_collection_boxes", "addr:city": "MC GRAWS", "addr:country": "US", "addr:postcode": "25875", "addr:state": "WV", "addr:street_address": "2487 MCGRAWS RD", "amenity": "post_box", "collection_times": "Mo-Fr 13:15; Sa 11:45", "note": "ON 12/24 AND 12/31, THIS BOX MAY BE COLLECTED AS EARLY AS 12 NOON.", "nsi_id": "unitedstatespostalservice-a77078", "operator": "United States Postal Service", "operator:short": "USPS", "operator:type": "public", "operator:wikidata": "Q668687", "ref": "2587500000"}, "type": "Feature"}
{"geometry": {"coordinates": [-81.464776, 37.671291], "type": "Point"}, "id": "JhK-zuyv4usy4xTImbxYW3u6gKA=", "properties": {"@source_uri": "https://tools.usps.com/UspsToolsRestServices/rest/POLocator/findLocations", "@spider": "usps_collection_boxes", "addr:city": "MC GRAWS", "addr:country": "US", "addr:postcode": "25875", "addr:state": "WV", "addr:street_address": "2487 MCGRAWS RD", "amenity": "post_box", "collection_times": "Mo-Fr 13:15; Sa 11:45", "indoor": "yes", "note": "ON 12/24 AND 12/31, THIS BOX MAY BE COLLECTED AS EARLY AS 12 NOON.", "nsi_id": "unitedstatespostalservice-a77078", "operator": "United States Postal Service", "operator:short": "USPS", "operator:type": "public", "operator:wikidata": "Q668687", "ref": "2587500001"}, "type": "Feature"}
{"geometry": {"coordinates": [-81.464644285, 37.671280696], "type": "Point"}, "id": "GItgqGpEKP5tPL9w7b-lTMPxCdI=", "properties": {"@source_uri": "https://tools.usps.com/UspsToolsRestServices/rest/POLocator/findLocations", "@spider": "usps_collection_boxes", "addr:city": "MC GRAWS", "addr:country": "US", "addr:postcode": "25875", "addr:state": "WV", "addr:street_address": "2487 MCGRAWS RD", "amenity": "post_box", "collection_times": "Mo-Fr 13:45; Sa 11:45", "indoor": "yes", "note": "ON 12/24 AND 12/31, THIS BOX MAY BE COLLECTED AS EARLY AS 12 NOON.", "nsi_id": "unitedstatespostalservice-a77078", "operator": "United States Postal Service", "operator:short": "USPS", "operator:type": "public", "operator:wikidata": "Q668687", "ref": "2587500003"}, "type": "Feature"}
{"geometry": {"coordinates": [-81.237841, 37.714537], "type": "Point"}, "id": "mKkjQSpVJRVbPQHiYaeQf-EGEos=", "properties": {"@source_uri": "https://tools.usps.com/UspsToolsRestServices/rest/POLocator/findLocations", "@spider": "usps_collection_boxes", "addr:city": "MIDWAY", "addr:country": "US", "addr:postcode": "25878", "addr:state": "WV", "addr:street_address": "1158 MIDWAY RD", "amenity": "post_box", "collection_times": "Mo-Fr 11:45; Sa 11:15", "nsi_id": "unitedstatespostalservice-a77078", "operator": "United States Postal Service", "operator:short": "USPS", "operator:type": "public", "operator:wikidata": "Q668687", "ref": "2587800000"}, "type": "Feature"}
{"geometry": {"coordinates": [-81.237807, 37.714597], "type": "Point"}, "id": "CsBT5U8lSHLr0s9JkLoAtjAikcM=", "properties": {"@source_uri": "https://tools.usps.com/UspsToolsRestServices/rest/POLocator/findLocations", "@spider": "usps_collection_boxes", "addr:city": "MIDWAY", "addr:country": "US", "addr:postcode": "25878", "addr:state": "WV", "addr:street_address": "1158 MIDWAY RD", "amenity": "post_box", "collection_times": "Mo-Fr 11:45; Sa 11:15", "indoor": "yes", "nsi_id": "unitedstatespostalservice-a77078", "operator": "United States Postal Service", "operator:short": "USPS", "operator:type": "public", "operator:wikidata": "Q668687", "ref": "2587800001"}, "type": "Feature"}
{"geometry": {"coordinates": [-81.237868901, 37.714545329], "type": "Point"}, "id": "9xLefikiJ-JwUQ5LmmNlwBkKdFY=", "properties": {"@source_uri": "https://tools.usps.com/UspsToolsRestServices/rest/POLocator/findLocations", "@spider": "usps_collection_boxes", "addr:city": "MIDWAY", "addr:country": "US", "addr:postcode": "25878", "addr:state": "WV", "addr:street_address": "1158 MIDWAY RD", "amenity": "post_box", "collection_times": "Mo-Fr 12:00; Sa 11:15", "indoor": "yes", "nsi_id": "unitedstatespostalservice-a77078", "operator": "United States Postal Service", "operator:short": "USPS", "operator:type": "public", "operator:wikidata": "Q668687", "ref": "2587800003"}, "type": "Feature"}
{"geometry": {"coordinates": [-81.1149049835, 37.975269001], "type": "Point"}, "id": "hM7d_DETH7bebb6jJcHHPF9q9pU=", "properties": {"@source_uri": "https://tools.usps.com/UspsToolsRestServices/rest/POLocator/findLocations", "@spider": "usps_collection_boxes", "addr:city": "MINDEN", "addr:country": "US", "addr:postcode": "25879", "addr:state": "WV", "addr:street_address": "1679 MINDEN RD", "amenity": "post_box", "collection_times": "Mo-Fr 11:45; Sa 10:30", "nsi_id": "unitedstatespostalservice-a77078", "operator": "United States Postal Service", "operator:short": "USPS", "operator:type": "public", "operator:wikidata": "Q668687", "ref": "2587900000"}, "type": "Feature"}
{"geometry": {"coordinates": [-81.1149049835, 37.975269001], "type": "Point"}, "id": "0rYbWBsWcZUHoSCj9ipdm_pCjd4=", "properties": {"@source_uri": "https://tools.usps.com/UspsToolsRestServices/rest/POLocator/findLocations", "@spider": "usps_collection_boxes", "addr:city": "MINDEN", "addr:country": "US", "addr:postcode": "25879", "addr:state": "WV", "addr:street_address": "1679 MINDEN RD", "amenity": "post_box", "collection_times": "Mo-Fr 11:45; Sa 10:30", "indoor": "yes", "nsi_id": "unitedstatespostalservice-a77078", "operator": "United States Postal Service", "operator:short": "USPS", "operator:type": "public", "operator:wikidata": "Q668687", "ref": "2587900001"}, "type": "Feature"}
{"geometry": {"coordinates": [-81.1149049835, 37.975269001], "type": "Point"}, "id": "mboM5gTR9VI3B3PF2FLM5bqrMvA=", "properties": {"@source_uri": "https://tools.usps.com/UspsToolsRestServices/rest/POLocator/findLocations", "@spider": "usps_collection_boxes", "addr:city": "MINDEN", "addr:country": "US", "addr:postcode": "25879", "addr:state": "WV", "addr:street_address": "1679 MINDEN RD", "amenity": "post_box", "collection_times": "Mo-Fr 12:00; Sa 10:30", "indoor": "yes", "nsi_id": "unitedstatespostalservice-a77078", "operator": "United States Postal Service", "operator:short": "USPS", "operator:type": "public", "operator:wikidata": "Q668687", "ref": "2587900003"}, "type": "Feature"}
{"geometry": {"coordinates": [-81.165464, 37.894313], "type": "Point"}, "id": "6mHcktXMjuHl7IbrYPV2MUSKEbI=", "properties": {"@source_uri": "https://tools.usps.com/UspsToolsRestServices/rest/POLocator/findLocations", "@spider": "usps_collection_boxes", "addr:city": "MOUNT HOPE", "addr:country": "US", "addr:postcode": "25880", "addr:state": "WV", "addr:street_address": "415 MAIN ST", "amenity": "post_box", "collection_times": "Mo-Fr 15:45; Sa 10:00", "note": "ON 12/24 AND 12/31, THIS BOX MAY BE COLLECTED AS EARLY AS 12 NOON.", "nsi_id": "unitedstatespostalservice-a77078", "operator": "United States Postal Service", "operator:short": "USPS", "operator:type": "public", "operator:wikidata": "Q668687", "ref": "2588000000"}, "type": "Feature"}
{"geometry": {"coordinates": [-81.1682551, 37.892667], "type": "Point"}, "id": "LLG3Sm6MuIi-Qfjlcemc6yQmcD8=", "properties": {"@source_uri": "https://tools.usps.com/UspsToolsRestServices/rest/POLocator/findLocations", "@spider": "usps_collection_boxes", "addr:city": "MOUNT HOPE", "addr:country": "US", "addr:postcode": "25880", "addr:state": "WV", "addr:street_address": "707 MAIN ST", "amenity": "post_box", "collection_times": "Mo-Sa 09:30", "nsi_id": "unitedstatespostalservice-a77078", "operator": "United States Postal Service", "operator:short": "USPS", "operator:type": "public", "operator:wikidata": "Q668687", "ref": "2588000001"}, "type": "Feature"}
{"geometry": {"coordinates": [-81.1987015, 37.846794], "type": "Point"}, "id": "3eO70SRt3CfT1PV6Yi-M7z0s2yU=", "properties": {"@source_uri": "https://tools.usps.com/UspsToolsRestServices/rest/POLocator/findLocations", "@spider": "usps_collection_boxes", "addr:city": "MOUNT HOPE", "addr:country": "US", "addr:postcode": "25880", "addr:state": "WV", "addr:street_address": "5475 ROBERT C BYRD DR", "amenity": "post_box", "collection_times": "Mo-Sa 09:30", "nsi_id": "unitedstatespostalservice-a77078", "operator": "United States Postal Service", "operator:short": "USPS", "operator:type": "public", "operator:wikidata": "Q668687", "ref": "2588000005"}, "type": "Feature"}
{"geometry": {"coordinates": [-81.165491, 37.894222], "type": "Point"}, "id": "FY74grJxg_Lda_garl400kdGw6o=", "properties": {"@source_uri": "https://tools.usps.com/UspsToolsRestServices/rest/POLocator/findLocations", "@spider": "usps_collection_boxes", "addr:city": "MOUNT HOPE", "addr:country": "US", "addr:postcode": "25880", "addr:state": "WV", "addr:street_address": "415 MAIN ST", "amenity": "post_box", "collection_times": "Mo-Fr 15:45; Sa 10:00", "indoor": "yes", "note": "ON 12/24 AND 12/31, THIS BOX MAY BE COLLECTED AS EARLY AS 12 NOON.", "nsi_id": "unitedstatespostalservice-a77078", "operator": "United States Postal Service", "operator:short": "USPS", "operator:type": "public", "operator:wikidata": "Q668687", "ref": "2588000010"}, "type": "Feature"}
{"geometry": {"coordinates": [-81.165117335, 37.894794495], "type": "Point"}, "id": "rzox_BlB3cpgHLKahFVfmVdV9qU=", "properties": {"@source_uri": "https://tools.usps.com/UspsToolsRestServices/rest/POLocator/findLocations", "@spider": "usps_collection_boxes", "addr:city": "MOUNT HOPE", "addr:country": "US", "addr:postcode": "25880", "addr:state": "WV", "addr:street_address": "415 MAIN ST", "amenity": "post_box", "collection_times": "Mo-Fr 15:45; Sa 11:30", "indoor": "yes", "note": "ON 12/24 AND 12/31, THIS BOX MAY BE COLLECTED AS EARLY AS 12 NOON.", "nsi_id": "unitedstatespostalservice-a77078", "operator": "United States Postal Service", "operator:short": "USPS", "operator:type": "public", "operator:wikidata": "Q668687", "ref": "2588000015"}, "type": "Feature"}
{"geometry": {"coordinates": [-81.3898904, 37.585397], "type": "Point"}, "id": "4f4rxZ5z4U3xaoeaQeCdH30S7UI=", "properties": {"@source_uri": "https://tools.usps.com/UspsToolsRestServices/rest/POLocator/findLocations", "@spider": "usps_collection_boxes", "addr:city": "MULLENS", "addr:country": "US", "addr:postcode": "25882", "addr:state": "WV", "addr:street_address": "901 COLLIER AVE", "amenity": "post_box", "collection_times": "Mo-Sa 12:30", "note": "ON 12/24 AND 12/31, THIS BOX MAY BE COLLECTED AS EARLY AS 12 NOON.", "nsi_id": "unitedstatespostalservice-a77078", "operator": "United States Postal Service", "operator:short": "USPS", "operator:type": "public", "operator:wikidata": "Q668687", "ref": "2588200000"}, "type": "Feature"}
{"geometry": {"coordinates": [-81.3820317, 37.597853], "type": "Point"}, "id": "lvjTHbrfHpuQgmG4rvOwB3-ratw=", "properties": {"@source_uri": "https://tools.usps.com/UspsToolsRestServices/rest/POLocator/findLocations", "@spider": "usps_collection_boxes", "addr:city": "MULLENS", "addr:country": "US", "addr:postcode": "25882", "addr:state": "WV", "addr:street_address": "208 TRACE ST", "amenity": "post_box", "collection_times": "Mo-Sa 14:00", "note": "ON 12/24 AND 12/31, THIS BOX MAY BE COLLECTED AS EARLY AS 12 NOON.", "nsi_id": "unitedstatespostalservice-a77078", "operator": "United States Postal Service", "operator:short": "USPS", "operator:type": "public", "operator:wikidata": "Q668687", "ref": "2588200001"}, "type": "Feature"}
{"geometry": {"coordinates": [-81.381093088, 37.584926716], "type": "Point"}, "id": "BKCmVdOnqD5sgCRpCUFM8oUBmPM=", "properties": {"@source_uri": "https://tools.usps.com/UspsToolsRestServices/rest/POLocator/findLocations", "@spider": "usps_collection_boxes", "addr:city": "MULLENS", "addr:country": "US", "addr:postcode": "25882", "addr:state": "WV", "addr:street_address": "101 4TH ST", "amenity": "post_box", "collection_times": "Mo-Sa 16:00", "note": "ON 12/24 AND 12/31, THIS BOX MAY BE COLLECTED AS EARLY AS 12 NOON.", "nsi_id": "unitedstatespostalservice-a77078", "operator": "United States Postal Service", "operator:short": "USPS", "operator:type": "public", "operator:wikidata": "Q668687", "ref": "2588200004"}, "type": "Feature"}
{"geometry": {"coordinates": [-81.3775967, 37.57095], "type": "Point"}, "id": "NiRZAgS-ZCbwAWm6YcfyxHgj8Zs=", "properties": {"@source_uri": "https://tools.usps.com/UspsToolsRestServices/rest/POLocator/findLocations", "@spider": "usps_collection_boxes", "addr:city": "MULLENS", "addr:country": "US", "addr:postcode": "25882", "addr:state": "WV", "addr:street_address": "235 BLACK EAGLE RD", "amenity": "post_box", "collection_times": "Mo-Sa 11:00", "nsi_id": "unitedstatespostalservice-a77078", "operator": "United States Postal Service", "operator:short": "USPS", "operator:type": "public", "operator:wikidata": "Q668687", "ref": "2588200006"}, "type": "Feature"}
{"geometry": {"coordinates": [-81.381093088, 37.584926716], "type": "Point"}, "id": "nZNiCltQM5ALPjPCJz8Cf66BOII=", "properties": {"@source_uri": "https://tools.usps.com/UspsToolsRestServices/rest/POLocator/findLocations", "@spider": "usps_collection_boxes", "addr:city": "MULLENS", "addr:country": "US", "addr:postcode": "25882", "addr:state": "WV", "addr:street_address": "101 4TH ST", "amenity": "post_box", "collection_times": "Mo-Sa 16:00", "indoor": "yes", "note": "ON 12/24 AND 12/31, THIS BOX MAY BE COLLECTED AS EARLY AS 12 NOON.", "nsi_id": "unitedstatespostalservice-a77078", "operator": "United States Postal Service", "operator:short": "USPS", "operator:type": "public", "operator:wikidata": "Q668687", "ref": "2588200007"}, "type": "Feature"}
{"geometry": {"coordinates": [-81.381093088, 37.584926716], "type": "Point"}, "id": "MCoMAvmwN-dSqK51bzPG6s_G9lk=", "properties": {"@source_uri": "https://tools.usps.com/UspsToolsRestServices/rest/POLocator/findLocations", "@spider": "usps_collection_boxes", "addr:city": "MULLENS", "addr:country": "US", "addr:postcode": "25882", "addr:state": "WV", "addr:street_address": "101 4TH ST", "amenity": "post_box", "collection_times": "Mo-Fr 16:00; Sa 11:00", "indoor": "yes", "note": "ON 12/24 AND 12/31, THIS BOX MAY BE COLLECTED AS EARLY AS 12 NOON.", "nsi_id": "unitedstatespostalservice-a77078", "operator": "United States Postal Service", "operator:short": "USPS", "operator:type": "public", "operator:wikidata": "Q668687", "ref": "2588200010"}, "type": "Feature"}
