{"geometry": {"coordinates": [-81.139518514, 37.977171139], "type": "Point"}, "id": "UEndBFoqcIUTjfPnpA62udDvUFE=", "properties": {"@source_uri": "https://tools.usps.com/UspsToolsRestServices/rest/POLocator/findLocations", "@spider": "usps_collection_boxes", "addr:city": "OAK HILL", "addr:country": "US", "addr:postcode": "25901", "addr:state": "WV", "addr:street_address": "208 MAIN ST E", "amenity": "post_box", "brand": "United States Postal Service", "brand:wikidata": "Q668687", "collection_times": "Mo-Fr 16:30; Sa 12:00", "note": "ON 12/24 AND 12/31, THIS BOX MAY BE COLLECTED AS EARLY AS 12 NOON.", "nsi_id": "unitedstatespostalservice-a77078", "operator": "United States Postal Service", "operator:short": "USPS", "operator:type": "public", "operator:wikidata": "Q668687", "ref": "2590100001"}, "type": "Feature"}
{"geometry": {"coordinates": [-81.1283747, 38.011284], "type": "Point"}, "id": "O5EvEs6brZvlwk1A3sm2hOo-MEs=", "properties": {"@source_uri": "https://tools.usps.com/UspsToolsRestServices/rest/POLocator/findLocations", "@spider": "usps_collection_boxes", "addr:city": "OAK HILL", "addr:country": "US", "addr:postcode": "25901", "addr:state": "WV", "addr:street_address": "617 FAYETTE SQ", "amenity": "post_box", "brand": "United States Postal Service", "brand:wikidata": "Q668687", "collection_times": "Mo-Sa 09:15", "nsi_id": "unitedstatespostalservice-a77078", "operator": "United States Postal Service", "operator:short": "USPS", "operator:type": "public", "operator:wikidata": "Q668687", "ref": "2590100005"}, "type": "Feature"}
{"geometry": {"coordinates": [-81.139518514, 37.977171139], "type": "Point"}, "id": "LGRvD41vg7crg7ExkkJ6HLQ7aZI=", "properties": {"@source_uri": "https://tools.usps.com/UspsToolsRestServices/rest/POLocator/findLocations", "@spider": "usps_collection_boxes", "addr:city": "OAK HILL", "addr:country": "US", "addr:postcode": "25901", "addr:state": "WV", "addr:street_address": "208 MAIN ST E", "amenity": "post_box", "brand": "United States Postal Service", "brand:wikidata": "Q668687", "collection_times": "Mo-Fr 16:30; Sa 12:00", "note": "ON 12/24 AND 12/31, THIS BOX MAY BE COLLECTED AS EARLY AS 12 NOON.", "nsi_id": "unitedstatespostalservice-a77078", "operator": "United States Postal Service", "operator:short": "USPS", "operator:type": "public", "operator:wikidata": "Q668687", "ref": "2590100006"}, "type": "Feature"}
{"geometry": {"coordinates": [-81.1326266, 37.991995], "type": "Point"}, "id": "jKzdKjRmKSrnjLkIgrDNbd1_mOY=", "properties": {"@source_uri": "https://tools.usps.com/UspsToolsRestServices/rest/POLocator/findLocations", "@spider": "usps_collection_boxes", "addr:city": "OAK HILL", "addr:country": "US", "addr:postcode": "25901", "addr:state": "WV", "addr:street_address": "1556 MAIN ST E", "amenity": "post_box", "brand": "United States Postal Service", "brand:wikidata": "Q668687", "collection_times": "Mo-Sa 14:00", "note": "ON 12/24 AND 12/31, THIS BOX MAY BE COLLECTED AS EARLY AS 12 NOON.", "nsi_id": "unitedstatespostalservice-a77078", "operator": "United States Postal Service", "operator:short": "USPS", "operator:type": "public", "operator:wikidata": "Q668687", "ref": "2590100011"}, "type": "Feature"}
{"geometry": {"coordinates": [-81.1487473, 37.9726], "type": "Point"}, "id": "_YvZ3pcwvksut_lxOD10BpctyiI=", "properties": {"@source_uri": "https://tools.usps.com/UspsToolsRestServices/rest/POLocator/findLocations", "@spider": "usps_collection_boxes", "addr:city": "OAK HILL", "addr:country": "US", "addr:postcode": "25901", "addr:state": "WV", "addr:street_address": "106 JONES AVE", "amenity": "post_box", "brand": "United States Postal Service", "brand:wikidata": "Q668687", "collection_times": "Mo-Sa 14:00", "note": "ON 12/24 AND 12/31, THIS BOX MAY BE COLLECTED AS EARLY AS 12 NOON.", "nsi_id": "unitedstatespostalservice-a77078", "operator": "United States Postal Service", "operator:short": "USPS", "operator:type": "public", "operator:wikidata": "Q668687", "ref": "2590100012"}, "type": "Feature"}
{"geometry": {"coordinates": [-81.139518514, 37.977171139], "type": "Point"}, "id": "7lTExS_f36jpfRCKpdeoDKtsmgU=", "properties": {"@source_uri": "https://tools.usps.com/UspsToolsRestServices/rest/POLocator/findLocations", "@spider": "usps_collection_boxes", "addr:city": "OAK HILL", "addr:country": "US", "addr:postcode": "25901", "addr:state": "WV", "addr:street_address": "208 MAIN ST E", "amenity": "post_box", "brand": "United States Postal Service", "brand:wikidata": "Q668687", "collection_times": "Mo-Fr 16:30; Sa 12:00", "indoor": "yes", "note": "ON 12/24 AND 12/31, THIS BOX MAY BE COLLECTED AS EARLY AS 12 NOON.", "nsi_id": "unitedstatespostalservice-a77078", "operator": "United States Postal Service", "operator:short": "USPS", "operator:type": "public", "operator:wikidata": "Q668687", "ref": "2590100016"}, "type": "Feature"}
{"geometry": {"coordinates": [-81.1395760258, 37.9803980132], "type": "Point"}, "id": "iqRlXJnJ2rwrGdvcd74vIUBTNWU=", "properties": {"@source_uri": "https://tools.usps.com/UspsToolsRestServices/rest/POLocator/findLocations", "@spider": "usps_collection_boxes", "addr:city": "OAK HILL", "addr:country": "US", "addr:postcode": "25901", "addr:state": "WV", "addr:street_address": "803 MAIN ST E", "amenity": "post_box", "brand": "United States Postal Service", "brand:wikidata": "Q668687", "collection_times": "Mo-Sa 11:00", "nsi_id": "unitedstatespostalservice-a77078", "operator": "United States Postal Service", "operator:short": "USPS", "operator:type": "public", "operator:wikidata": "Q668687", "ref": "2590100017"}, "type": "Feature"}
{"geometry": {"coordinates": [-81.139518514, 37.977171139], "type": "Point"}, "id": "fRskB5nFM3hv9pp0r7rSHzazTT0=", "properties": {"@source_uri": "https://tools.usps.com/UspsToolsRestServices/rest/POLocator/findLocations", "@spider": "usps_collection_boxes", "addr:city": "OAK HILL", "addr:country": "US", "addr:postcode": "25901", "addr:state": "WV", "addr:street_address": "208 MAIN ST E", "amenity": "post_box", "brand": "United States Postal Service", "brand:wikidata": "Q668687", "collection_times": "Mo-Fr 16:30; Sa 12:00", "indoor": "yes", "note": "ON 12/24 AND 12/31, THIS BOX MAY BE COLLECTED AS EARLY AS 12 NOON.", "nsi_id": "unitedstatespostalservice-a77078", "operator": "United States Postal Service", "operator:short": "USPS", "operator:type": "public", "operator:wikidata": "Q668687", "ref": "2590100019"}, "type": "Feature"}
{"geometry": {"coordinates": [-81.193933003, 37.593108992], "type": "Point"}, "id": "en7LwMVJt1e_rZodVFwWao-ZSGY=", "properties": {"@source_uri": "https://tools.usps.com/UspsToolsRestServices/rest/POLocator/findLocations", "@spider": "usps_collection_boxes", "addr:city": "ODD", "addr:country": "US", "addr:postcode": "25902", "addr:state": "WV", "addr:street_address": "2803 ODD RD", "amenity": "post_box", "brand": "United States Postal Service", "brand:wikidata": "Q668687", "collection_times": "Mo-Fr 13:15; Sa 10:45", "note": "ON 12/24 AND 12/31, THIS BOX MAY BE COLLECTED AS EARLY AS 12 NOON.", "nsi_id": "unitedstatespostalservice-a77078", "operator": "United States Postal Service", "operator:short": "USPS", "operator:type": "public", "operator:wikidata": "Q668687", "ref": "2590200000"}, "type": "Feature"}
{"geometry": {"coordinates": [-81.194028, 37.593373], "type": "Point"}, "id": "THVSImsIur_hVFy6OyMjH9HAwks=", "properties": {"@source_uri": "https://tools.usps.com/UspsToolsRestServices/rest/POLocator/findLocations", "@spider": "usps_collection_boxes", "addr:city": "ODD", "addr:country": "US", "addr:postcode": "25902", "addr:state": "WV", "addr:street_address": "2803 ODD RD", "amenity": "post_box", "brand": "United States Postal Service", "brand:wikidata": "Q668687", "collection_times": "Mo-Fr 13:15; Sa 10:45", "indoor": "yes", "note": "ON 12/24 AND 12/31, THIS BOX MAY BE COLLECTED AS EARLY AS 12 NOON.", "nsi_id": "unitedstatespostalservice-a77078", "operator": "United States Postal Service", "operator:short": "USPS", "operator:type": "public", "operator:wikidata": "Q668687", "ref": "2590200001"}, "type": "Feature"}
{"geometry": {"coordinates": [-81.193987344, 37.59327107], "type": "Point"}, "id": "R89mQ1xL3fFwY7_F9BDYRYpx3DU=", "properties": {"@source_uri": "https://tools.usps.com/UspsToolsRestServices/rest/POLocator/findLocations", "@spider": "usps_collection_boxes", "addr:city": "ODD", "addr:country": "US", "addr:postcode": "25902", "addr:state": "WV", "addr:street_address": "2803 ODD RD", "amenity": "post_box", "brand": "United States Postal Service", "brand:wikidata": "Q668687", "collection_times": "Mo-Fr 13:30; Sa 11:00", "indoor": "yes", "note": "ON 12/24 AND 12/31, THIS BOX MAY BE COLLECTED AS EARLY AS 12 NOON.", "nsi_id": "unitedstatespostalservice-a77078", "operator": "United States Postal Service", "operator:short": "USPS", "operator:type": "public", "operator:wikidata": "Q668687", "ref": "2590200003"}, "type": "Feature"}
{"geometry": {"coordinates": [-81.2659101251, 37.911652456], "type": "Point"}, "id": "vz_jswpRPWlqR3FHJGYARtRjHwE=", "properties": {"@source_uri": "https://tools.usps.com/UspsToolsRestServices/rest/POLocator/findLocations", "@spider": "usps_collection_boxes", "addr:city": "PAX", "addr:country": "US", "addr:postcode": "25904", "addr:state": "WV", "addr:street_address": "251 MAIN ST", "amenity": "post_box", "brand": "United States Postal Service", "brand:wikidata": "Q668687", "collection_times": "Mo-Fr 11:45; Sa 10:45", "nsi_id": "unitedstatespostalservice-a77078", "operator": "United States Postal Service", "operator:short": "USPS", "operator:type": "public", "operator:wikidata": "Q668687", "ref": "2590400000"}, "type": "Feature"}
{"geometry": {"coordinates": [-81.2659101251, 37.911652456], "type": "Point"}, "id": "rWNdoAGCWOiTNTW9XBABWIY0PmU=", "properties": {"@source_uri": "https://tools.usps.com/UspsToolsRestServices/rest/POLocator/findLocations", "@spider": "usps_collection_boxes", "addr:city": "PAX", "addr:country": "US", "addr:postcode": "25904", "addr:state": "WV", "addr:street_address": "251 MAIN ST", "amenity": "post_box", "brand": "United States Postal Service", "brand:wikidata": "Q668687", "collection_times": "Mo-Fr 11:45; Sa 10:45", "indoor": "yes", "nsi_id": "unitedstatespostalservice-a77078", "operator": "United States Postal Service", "operator:short": "USPS", "operator:type": "public", "operator:wikidata": "Q668687", "ref": "2590400001"}, "type": "Feature"}
{"geometry": {"coordinates": [-81.2659101251, 37.911652456], "type": "Point"}, "id": "txAalgrw8KOWXvLClfsYGN5sEYE=", "properties": {"@source_uri": "https://tools.usps.com/UspsToolsRestServices/rest/POLocator/findLocations", "@spider": "usps_collection_boxes", "addr:city": "PAX", "addr:country": "US", "addr:postcode": "25904", "addr:state": "WV", "addr:street_address": "251 MAIN ST", "amenity": "post_box", "brand": "United States Postal Service", "brand:wikidata": "Q668687", "collection_times": "Mo-Fr 12:00; Sa 10:45", "indoor": "yes", "nsi_id": "unitedstatespostalservice-a77078", "operator": "United States Postal Service", "operator:short": "USPS", "operator:type": "public", "operator:wikidata": "Q668687", "ref": "2590400003"}, "type": "Feature"}
{"geometry": {"coordinates": [-81.133251, 37.83598], "type": "Point"}, "id": "0YbDCD5kLkC3YoG_16VH4Wl5PKY=", "properties": {"@source_uri": "https://tools.usps.com/UspsToolsRestServices/rest/POLocator/findLocations", "@spider": "usps_collection_boxes", "addr:city": "PINEY VIEW", "addr:country": "US", "addr:postcode": "25906", "addr:state": "WV", "addr:street_address": "133 STONEWALL RD", "amenity": "post_box", "brand": "United States Postal Service", "brand:wikidata": "Q668687", "collection_times": "Mo-Fr 11:45; Sa 10:30", "nsi_id": "unitedstatespostalservice-a77078", "operator": "United States Postal Service", "operator:short": "USPS", "operator:type": "public", "operator:wikidata": "Q668687", "ref": "2590600000"}, "type": "Feature"}
{"geometry": {"coordinates": [-81.133251, 37.83598], "type": "Point"}, "id": "C7D2_-oqUq5wuAB1t-I7O_DhLpI=", "properties": {"@source_uri": "https://tools.usps.com/UspsToolsRestServices/rest/POLocator/findLocations", "@spider": "usps_collection_boxes", "addr:city": "PINEY VIEW", "addr:country": "US", "addr:postcode": "25906", "addr:state": "WV", "addr:street_address": "133 STONEWALL RD", "amenity": "post_box", "brand": "United States Postal Service", "brand:wikidata": "Q668687", "collection_times": "Mo-Fr 11:45; Sa 10:30", "indoor": "yes", "nsi_id": "unitedstatespostalservice-a77078", "operator": "United States Postal Service", "operator:short": "USPS", "operator:type": "public", "operator:wikidata": "Q668687", "ref": "2590600001"}, "type": "Feature"}
{"geometry": {"coordinates": [-81.133344587, 37.835836888], "type": "Point"}, "id": "4mI7h25tZI9cC-sRffJNMb3rN5A=", "properties": {"@source_uri": "https://tools.usps.com/UspsToolsRestServices/rest/POLocator/findLocations", "@spider": "usps_collection_boxes", "addr:city": "PINEY VIEW", "addr:country": "US", "addr:postcode": "25906", "addr:state": "WV", "addr:street_address": "133 STONEWALL RD", "amenity": "post_box", "brand": "United States Postal Service", "brand:wikidata": "Q668687", "collection_times": "Mo-Fr 12:00; Sa 11:00", "indoor": "yes", "nsi_id": "unitedstatespostalservice-a77078", "operator": "United States Postal Service", "operator:short": "USPS", "operator:type": "public", "operator:wikidata": "Q668687", "ref": "2590600003"}, "type": "Feature"}
{"geometry": {"coordinates": [-81.064334, 37.85603], "type": "Point"}, "id": "bbQbpt3yGO8HopKD_Y2mEP2rLc0=", "properties": {"@source_uri": "https://tools.usps.com/UspsToolsRestServices/rest/POLocator/findLocations", "@spider": "usps_collection_boxes", "addr:city": "PRINCE", "addr:country": "US", "addr:postcode": "25907", "addr:state": "WV", "addr:street_address": "4827 STANAFORD RD", "amenity": "post_box", "brand": "United States Postal Service", "brand:wikidata": "Q668687", "collection_times": "Mo-Sa 11:00", "nsi_id": "unitedstatespostalservice-a77078", "operator": "United States Postal Service", "operator:short": "USPS", "operator:type": "public", "operator:wikidata": "Q668687", "ref": "2590700001"}, "type": "Feature"}
{"geometry": {"coordinates": [-81.064334, 37.85603], "type": "Point"}, "id": "ATNS7NunFKU5bSFqECtnpHSm1UM=", "properties": {"@source_uri": "https://tools.usps.com/UspsToolsRestServices/rest/POLocator/findLocations", "@spider": "usps_collection_boxes", "addr:city": "PRINCE", "addr:country": "US", "addr:postcode": "25907", "addr:state": "WV", "addr:street_address": "4827 STANAFORD RD", "amenity": "post_box", "brand": "United States Postal Service", "brand:wikidata": "Q668687", "collection_times": "Mo-Sa 11:00", "indoor": "yes", "nsi_id": "unitedstatespostalservice-a77078", "operator": "United States Postal Service", "operator:short": "USPS", "operator:type": "public", "operator:wikidata": "Q668687", "ref": "2590700002"}, "type": "Feature"}
{"geometry": {"coordinates": [-81.065173276, 37.856003668], "type": "Point"}, "id": "LLdNIBs4vTOMhiK6ET_UzeZ8Of4=", "properties": {"@source_uri": "https://tools.usps.com/UspsToolsRestServices/rest/POLocator/findLocations", "@spider": "usps_collection_boxes", "addr:city": "PRINCE", "addr:country": "US", "addr:postcode": "25907", "addr:state": "WV", "addr:street_address": "4827 STANAFORD RD", "amenity": "post_box", "brand": "United States Postal Service", "brand:wikidata": "Q668687", "collection_times": "Mo-Sa 11:00", "indoor": "yes", "nsi_id": "unitedstatespostalservice-a77078", "operator": "United States Postal Service", "operator:short": "USPS", "operator:type": "public", "operator:wikidata": "Q668687", "ref": "2590700004"}, "type": "Feature"}
{"geometry": {"coordinates": [-81.2256821708, 37.6597929303], "type": "Point"}, "id": "LmqvS9SofC7a8CTJ8AiguH-WlTw=", "properties": {"@source_uri": "https://tools.usps.com/UspsToolsRestServices/rest/POLocator/findLocations", "@spider": "usps_collection_boxes", "addr:city": "PRINCEWICK", "addr:country": "US", "addr:postcode": "25908", "addr:state": "WV", "addr:street_address": "127 EPPERLY RD", "amenity": "post_box", "brand": "United States Postal Service", "brand:wikidata": "Q668687", "collection_times": "Mo-Fr 11:30; Sa 09:30", "nsi_id": "unitedstatespostalservice-a77078", "operator": "United States Postal Service", "operator:short": "USPS", "operator:type": "public", "operator:wikidata": "Q668687", "ref": "2590800003"}, "type": "Feature"}
{"geometry": {"coordinates": [-81.2256821708, 37.6597929303], "type": "Point"}, "id": "Lp-FAzo97Ru-46fAvOP9MBDv2KQ=", "properties": {"@source_uri": "https://tools.usps.com/UspsToolsRestServices/rest/POLocator/findLocations", "@spider": "usps_collection_boxes", "addr:city": "PRINCEWICK", "addr:country": "US", "addr:postcode": "25908", "addr:state": "WV", "addr:street_address": "127 EPPERLY RD", "amenity": "post_box", "brand": "United States Postal Service", "brand:wikidata": "Q668687", "collection_times": "Mo-Fr 11:30; Sa 09:30", "indoor": "yes", "nsi_id": "unitedstatespostalservice-a77078", "operator": "United States Postal Service", "operator:short": "USPS", "operator:type": "public", "operator:wikidata": "Q668687", "ref": "2590800004"}, "type": "Feature"}
{"geometry": {"coordinates": [-81.2256821708, 37.6597929303], "type": "Point"}, "id": "yUDiuYHizqvbM7VLv9rGdTSTkF4=", "properties": {"@source_uri": "https://tools.usps.com/UspsToolsRestServices/rest/POLocator/findLocations", "@spider": "usps_collection_boxes", "addr:city": "PRINCEWICK", "addr:country": "US", "addr:postcode": "25908", "addr:state": "WV", "addr:street_address": "127 EPPERLY RD", "amenity": "post_box", "brand": "United States Postal Service", "brand:wikidata": "Q668687", "collection_times": "Mo-Fr 12:00; Sa 10:00", "indoor": "yes", "nsi_id": "unitedstatespostalservice-a77078", "operator": "United States Postal Service", "operator:short": "USPS", "operator:type": "public", "operator:wikidata": "Q668687", "ref": "2590800005"}, "type": "Feature"}
{"geometry": {"coordinates": [-81.201187, 37.838099], "type": "Point"}, "id": "SQFyY6k9_9E9yLrnXh0XB5KjM9I=", "properties": {"@source_uri": "https://tools.usps.com/UspsToolsRestServices/rest/POLocator/findLocations", "@spider": "usps_collection_boxes", "addr:city": "PROSPERITY", "addr:country": "US", "addr:postcode": "25909", "addr:state": "WV", "addr:street_address": "578 PROSPERITY RD", "amenity": "post_box", "brand": "United States Postal Service", "brand:wikidata": "Q668687", "collection_times": "Mo-Fr 15:00; Sa 11:45", "note": "ON 12/24 AND 12/31, THIS BOX MAY BE COLLECTED AS EARLY AS 12 NOON.", "nsi_id": "unitedstatespostalservice-a77078", "operator": "United States Postal Service", "operator:short": "USPS", "operator:type": "public", "operator:wikidata": "Q668687", "ref": "2590900000"}, "type": "Feature"}
{"geometry": {"coordinates": [-81.201186, 37.838183], "type": "Point"}, "id": "lzsKVqxZqIxsbAl8h-o5260Up0U=", "properties": {"@source_uri": "https://tools.usps.com/UspsToolsRestServices/rest/POLocator/findLocations", "@spider": "usps_collection_boxes", "addr:city": "PROSPERITY", "addr:country": "US", "addr:postcode": "25909", "addr:state": "WV", "addr:street_address": "578 PROSPERITY RD", "amenity": "post_box", "brand": "United States Postal Service", "brand:wikidata": "Q668687", "collection_times": "Mo-Fr 15:00; Sa 11:45", "indoor": "yes", "note": "ON 12/24 AND 12/31, THIS BOX MAY BE COLLECTED AS EARLY AS 12 NOON.", "nsi_id": "unitedstatespostalservice-a77078", "operator": "United States Postal Service", "operator:short": "USPS", "operator:type": "public", "operator:wikidata": "Q668687", "ref": "2590900001"}, "type": "Feature"}
{"geometry": {"coordinates": [-81.201062082, 37.838408302], "type": "Point"}, "id": "ZwThcPrqK07fKtxtXPbr3NNrN4c=", "properties": {"@source_uri": "https://tools.usps.com/UspsToolsRestServices/rest/POLocator/findLocations", "@spider": "usps_collection_boxes", "addr:city": "PROSPERITY", "addr:country": "US", "addr:postcode": "25909", "addr:state": "WV", "addr:street_address": "578 PROSPERITY RD", "amenity": "post_box", "brand": "United States Postal Service", "brand:wikidata": "Q668687", "collection_times": "Mo-Fr 16:00; Sa 11:00", "indoor": "yes", "note": "ON 12/24 AND 12/31, THIS BOX MAY BE COLLECTED AS EARLY AS 12 NOON.", "nsi_id": "unitedstatespostalservice-a77078", "operator": "United States Postal Service", "operator:short": "USPS", "operator:type": "public", "operator:wikidata": "Q668687", "ref": "2590900003"}, "type": "Feature"}
{"geometry": {"coordinates": [-81.168711, 37.757203], "type": "Point"}, "id": "9hYygULJT9z2MURDp00WZRnyrrM=", "properties": {"@source_uri": "https://tools.usps.com/UspsToolsRestServices/rest/POLocator/findLocations", "@spider": "usps_collection_boxes", "addr:city": "RALEIGH", "addr:country": "US", "addr:postcode": "25911", "addr:state": "WV", "addr:street_address": "1 BURMEISTER AVE", "amenity": "post_box", "brand": "United States Postal Service", "brand:wikidata": "Q668687", "collection_times": "Mo-Fr 09:45; Sa 10:45", "nsi_id": "unitedstatespostalservice-a77078", "operator": "United States Postal Service", "operator:short": "USPS", "operator:type": "public", "operator:wikidata": "Q668687", "ref": "2591100000"}, "type": "Feature"}
{"geometry": {"coordinates": [-81.16883, 37.757211], "type": "Point"}, "id": "DdB7-jP-y0N813tPnFcgCayN7qk=", "properties": {"@source_uri": "https://tools.usps.com/UspsToolsRestServices/rest/POLocator/findLocations", "@spider": "usps_collection_boxes", "addr:city": "RALEIGH", "addr:country": "US", "addr:postcode": "25911", "addr:state": "WV", "addr:street_address": "1 BURMEISTER AVE", "amenity": "post_box", "brand": "United States Postal Service", "brand:wikidata": "Q668687", "collection_times": "Mo-Fr 09:45; Sa 10:45", "indoor": "yes", "nsi_id": "unitedstatespostalservice-a77078", "operator": "United States Postal Service", "operator:short": "USPS", "operator:type": "public", "operator:wikidata": "Q668687", "ref": "2591100001"}, "type": "Feature"}
{"geometry": {"coordinates": [-81.168749102, 37.757144942], "type": "Point"}, "id": "0Oq7IwfMxb2hra1XyP3EllrbTpk=", "properties": {"@source_uri": "https://tools.usps.com/UspsToolsRestServices/rest/POLocator/findLocations", "@spider": "usps_collection_boxes", "addr:city": "RALEIGH", "addr:country": "US", "addr:postcode": "25911", "addr:state": "WV", "addr:street_address": "1 BURMEISTER AVE", "amenity": "post_box", "brand": "United States Postal Service", "brand:wikidata": "Q668687", "collection_times": "Mo-Fr 10:00; Sa 10:45", "indoor": "yes", "nsi_id": "unitedstatespostalservice-a77078", "operator": "United States Postal Service", "operator:short": "USPS", "operator:type": "public", "operator:wikidata": "Q668687", "ref": "2591100003"}, "type": "Feature"}
{"geometry": {"coordinates": [-81.305149, 37.608279], "type": "Point"}, "id": "AFa-X9Wft_5ABqZkFZK2wMTTabM=", "properties": {"@source_uri": "https://tools.usps.com/UspsToolsRestServices/rest/POLocator/findLocations", "@spider": "usps_collection_boxes", "addr:city": "RHODELL", "addr:country": "US", "addr:postcode": "25915", "addr:state": "WV", "addr:street_address": "7230 COAL CITY RD", "amenity": "post_box", "brand": "United States Postal Service", "brand:wikidata": "Q668687", "collection_times": "Mo-Fr 11:15; Sa 10:30", "nsi_id": "unitedstatespostalservice-a77078", "operator": "United States Postal Service", "operator:short": "USPS", "operator:type": "public", "operator:wikidata": "Q668687", "ref": "2591500000"}, "type": "Feature"}
{"geometry": {"coordinates": [-81.305116, 37.608256], "type": "Point"}, "id": "1rfD9Hm3qYalAO9lCAuMZRiG_yw=", "properties": {"@source_uri": "https://tools.usps.com/UspsToolsRestServices/rest/POLocator/findLocations", "@spider": "usps_collection_boxes", "addr:city": "RHODELL", "addr:country": "US", "addr:postcode": "25915", "addr:state": "WV", "addr:street_address": "7230 COAL CITY RD", "amenity": "post_box", "brand": "United States Postal Service", "brand:wikidata": "Q668687", "collection_times": "Mo-Fr 11:15; Sa 10:30", "indoor": "yes", "nsi_id": "unitedstatespostalservice-a77078", "operator": "United States Postal Service", "operator:short": "USPS", "operator:type": "public", "operator:wikidata": "Q668687", "ref": "2591500001"}, "type": "Feature"}
{"geometry": {"coordinates": [-81.305157136, 37.608210838], "type": "Point"}, "id": "uGcDJqp0uL2n98rkwWHtX9L5vrE=", "properties": {"@source_uri": "https://tools.usps.com/UspsToolsRestServices/rest/POLocator/findLocations", "@spider": "usps_collection_boxes", "addr:city": "RHODELL", "addr:country": "US", "addr:postcode": "25915", "addr:state": "WV", "addr:street_address": "7230 COAL CITY RD", "amenity": "post_box", "brand": "United States Postal Service", "brand:wikidata": "Q668687", "collection_times": "Mo-Fr 11:30; Sa 11:00", "indoor": "yes", "nsi_id": "unitedstatespostalservice-a77078", "operator": "United States Postal Service", "operator:short": "USPS", "operator:type": "public", "operator:wikidata": "Q668687", "ref": "2591500003"}, "type": "Feature"}
{"geometry": {"coordinates": [-81.1636890011, 37.9466610206], "type": "Point"}, "id": "ZmSKKWE6lp-tl40V9-eQYGnIXyw=", "properties": {"@source_uri": "https://tools.usps.com/UspsToolsRestServices/rest/POLocator/findLocations", "@spider": "usps_collection_boxes", "addr:city": "SCARBRO", "addr:country": "US", "addr:postcode": "25917", "addr:state": "WV", "addr:street_address": "1379 SCARBRO RD", "amenity": "post_box", "brand": "United States Postal Service", "brand:wikidata": "Q668687", "collection_times": "Mo-Fr 15:00; Sa 11:30", "note": "ON 12/24 AND 12/31, THIS BOX MAY BE COLLECTED AS EARLY AS 12 NOON.", "nsi_id": "unitedstatespostalservice-a77078", "operator": "United States Postal Service", "operator:short": "USPS", "operator:type": "public", "operator:wikidata": "Q668687", "ref": "2591700000"}, "type": "Feature"}
{"geometry": {"coordinates": [-81.163304, 37.946675], "type": "Point"}, "id": "dNOA3F-8K6bN-3N9feRaybeFWCc=", "properties": {"@source_uri": "https://tools.usps.com/UspsToolsRestServices/rest/POLocator/findLocations", "@spider": "usps_collection_boxes", "addr:city": "SCARBRO", "addr:country": "US", "addr:postcode": "25917", "addr:state": "WV", "addr:street_address": "1379 SCARBRO RD", "amenity": "post_box", "brand": "United States Postal Service", "brand:wikidata": "Q668687", "collection_times": "Mo-Fr 15:00; Sa 11:30", "indoor": "yes", "note": "ON 12/24 AND 12/31, THIS BOX MAY BE COLLECTED AS EARLY AS 12 NOON.", "nsi_id": "unitedstatespostalservice-a77078", "operator": "United States Postal Service", "operator:short": "USPS", "operator:type": "public", "operator:wikidata": "Q668687", "ref": "2591700001"}, "type": "Feature"}
{"geometry": {"coordinates": [-81.163453432, 37.946578036], "type": "Point"}, "id": "SGMxbL6HcFmuOwCsKYtKBCnrvuM=", "properties": {"@source_uri": "https://tools.usps.com/UspsToolsRestServices/rest/POLocator/findLocations", "@spider": "usps_collection_boxes", "addr:city": "SCARBRO", "addr:country": "US", "addr:postcode": "25917", "addr:state": "WV", "addr:street_address": "1379 SCARBRO RD", "amenity": "post_box", "brand": "United States Postal Service", "brand:wikidata": "Q668687", "collection_times": "Mo-Fr 15:15; Sa 11:45", "indoor": "yes", "note": "ON 12/24 AND 12/31, THIS BOX MAY BE COLLECTED AS EARLY AS 12 NOON.", "nsi_id": "unitedstatespostalservice-a77078", "operator": "United States Postal Service", "operator:short": "USPS", "operator:type": "public", "operator:wikidata": "Q668687", "ref": "2591700003"}, "type": "Feature"}
{"geometry": {"coordinates": [-81.094058092, 37.704468724], "type": "Point"}, "id": "ZNcSkTRVAyt0BuO3_AgHf6SbGlk=", "properties": {"@source_uri": "https://tools.usps.com/UspsToolsRestServices/rest/POLocator/findLocations", "@spider": "usps_collection_boxes", "addr:city": "SHADY SPRING", "addr:country": "US", "addr:postcode": "25918", "addr:state": "WV", "addr:street_address": "218 HINTON RD", "amenity": "post_box", "brand": "United States Postal Service", "brand:wikidata": "Q668687", "collection_times": "Mo-Fr 16:30; Sa 11:00", "note": "ON 12/24 AND 12/31, THIS BOX MAY BE COLLECTED AS EARLY AS 12 NOON.", "nsi_id": "unitedstatespostalservice-a77078", "operator": "United States Postal Service", "operator:short": "USPS", "operator:type": "public", "operator:wikidata": "Q668687", "ref": "2591800000"}, "type": "Feature"}
{"geometry": {"coordinates": [-81.094058092, 37.704468724], "type": "Point"}, "id": "46Kkj9MV7j22821GQmjLDX17JWE=", "properties": {"@source_uri": "https://tools.usps.com/UspsToolsRestServices/rest/POLocator/findLocations", "@spider": "usps_collection_boxes", "addr:city": "SHADY SPRING", "addr:country": "US", "addr:postcode": "25918", "addr:state": "WV", "addr:street_address": "218 HINTON RD", "amenity": "post_box", "brand": "United States Postal Service", "brand:wikidata": "Q668687", "collection_times": "Mo-Fr 16:30; Sa 11:00", "indoor": "yes", "note": "ON 12/24 AND 12/31, THIS BOX MAY BE COLLECTED AS EARLY AS 12 NOON.", "nsi_id": "unitedstatespostalservice-a77078", "operator": "United States Postal Service", "operator:short": "USPS", "operator:type": "public", "operator:wikidata": "Q668687", "ref": "2591800001"}, "type": "Feature"}
{"geometry": {"coordinates": [-81.094058092, 37.704468724], "type": "Point"}, "id": "bryaNYGc1NE6rMO3cerLSCivPzA=", "properties": {"@source_uri": "https://tools.usps.com/UspsToolsRestServices/rest/POLocator/findLocations", "@spider": "usps_collection_boxes", "addr:city": "SHADY SPRING", "addr:country": "US", "addr:postcode": "25918", "addr:state": "WV", "addr:street_address": "218 HINTON RD", "amenity": "post_box", "brand": "United States Postal Service", "brand:wikidata": "Q668687", "collection_times": "Mo-Fr 16:30; Sa 11:00", "indoor": "yes", "note": "ON 12/24 AND 12/31, THIS BOX MAY BE COLLECTED AS EARLY AS 12 NOON.", "nsi_id": "unitedstatespostalservice-a77078", "operator": "United States Postal Service", "operator:short": "USPS", "operator:type": "public", "operator:wikidata": "Q668687", "ref": "2591800002"}, "type": "Feature"}
{"geometry": {"coordinates": [-81.094058092, 37.704468724], "type": "Point"}, "id": "FfI4bdBFKa6WXI4sN1EdE_1HZjg=", "properties": {"@source_uri": "https://tools.usps.com/UspsToolsRestServices/rest/POLocator/findLocations", "@spider": "usps_collection_boxes", "addr:city": "SHADY SPRING", "addr:country": "US", "addr:postcode": "25918", "addr:state": "WV", "addr:street_address": "218 HINTON RD", "amenity": "post_box", "brand": "United States Postal Service", "brand:wikidata": "Q668687", "collection_times": "Mo-Fr 16:30; Sa 11:30", "indoor": "yes", "note": "ON 12/24 AND 12/31, THIS BOX MAY BE COLLECTED AS EARLY AS 12 NOON.", "nsi_id": "unitedstatespostalservice-a77078", "operator": "United States Postal Service", "operator:short": "USPS", "operator:type": "public", "operator:wikidata": "Q668687", "ref": "2591800004"}, "type": "Feature"}
{"geometry": {"coordinates": [-81.184071, 37.811463], "type": "Point"}, "id": "DkYO-BTR96s7XdVa-O1mpCulucE=", "properties": {"@source_uri": "https://tools.usps.com/UspsToolsRestServices/rest/POLocator/findLocations", "@spider": "usps_collection_boxes", "addr:city": "SKELTON", "addr:country": "US", "addr:postcode": "25919", "addr:state": "WV", "addr:street_address": "112 BECKLEY PLAZA MALL", "amenity": "post_box", "brand": "United States Postal Service", "brand:wikidata": "Q668687", "collection_times": "Mo-Fr 16:00; Sa 11:30", "indoor": "yes", "note": "ON 12/24 AND 12/31, THIS BOX MAY BE COLLECTED AS EARLY AS 12 NOON.", "nsi_id": "unitedstatespostalservice-a77078", "operator": "United States Postal Service", "operator:short": "USPS", "operator:type": "public", "operator:wikidata": "Q668687", "ref": "2591900000"}, "type": "Feature"}
{"geometry": {"coordinates": [-81.184398838, 37.811134708], "type": "Point"}, "id": "-QHnerIwzUSP7rLMKmqP-6FuwNQ=", "properties": {"@source_uri": "https://tools.usps.com/UspsToolsRestServices/rest/POLocator/findLocations", "@spider": "usps_collection_boxes", "addr:city": "SKELTON", "addr:country": "US", "addr:postcode": "25919", "addr:state": "WV", "addr:street_address": "112 BECKLEY PLAZA MALL", "amenity": "post_box", "brand": "United States Postal Service", "brand:wikidata": "Q668687", "collection_times": "Mo-Fr 16:30; Sa 11:30", "indoor": "yes", "note": "ON 12/24 AND 12/31, THIS BOX MAY BE COLLECTED AS EARLY AS 12 NOON.", "nsi_id": "unitedstatespostalservice-a77078", "operator": "United States Postal Service", "operator:short": "USPS", "operator:type": "public", "operator:wikidata": "Q668687", "ref": "2591900002"}, "type": "Feature"}
{"geometry": {"coordinates": [-81.249844019, 37.708637757], "type": "Point"}, "id": "tPGaNGr_mwAPfn12nxAyUIeigko=", "properties": {"@source_uri": "https://tools.usps.com/UspsToolsRestServices/rest/POLocator/findLocations", "@spider": "usps_collection_boxes", "addr:city": "SOPHIA", "addr:country": "US", "addr:postcode": "25921", "addr:state": "WV", "addr:street_address": "221 RIFFE ST", "amenity": "post_box", "brand": "United States Postal Service", "brand:wikidata": "Q668687", "collection_times": "Mo-Fr 16:30; Sa 10:30", "note": "ON 12/24 AND 12/31, THIS BOX MAY BE COLLECTED AS EARLY AS 12 NOON.", "nsi_id": "unitedstatespostalservice-a77078", "operator": "United States Postal Service", "operator:short": "USPS", "operator:type": "public", "operator:wikidata": "Q668687", "ref": "2592100000"}, "type": "Feature"}
{"geometry": {"coordinates": [-81.249844019, 37.708637757], "type": "Point"}, "id": "a0G6g-k23b6N7vGaD-jgQ2o-CFc=", "properties": {"@source_uri": "https://tools.usps.com/UspsToolsRestServices/rest/POLocator/findLocations", "@spider": "usps_collection_boxes", "addr:city": "SOPHIA", "addr:country": "US", "addr:postcode": "25921", "addr:state": "WV", "addr:street_address": "221 RIFFE ST", "amenity": "post_box", "brand": "United States Postal Service", "brand:wikidata": "Q668687", "collection_times": "Mo-Fr 16:30; Sa 10:30", "indoor": "yes", "note": "ON 12/24 AND 12/31, THIS BOX MAY BE COLLECTED AS EARLY AS 12 NOON.", "nsi_id": "unitedstatespostalservice-a77078", "operator": "United States Postal Service", "operator:short": "USPS", "operator:type": "public", "operator:wikidata": "Q668687", "ref": "2592100001"}, "type": "Feature"}
{"geometry": {"coordinates": [-81.249844019, 37.708637757], "type": "Point"}, "id": "C5AkxLiIFXAHMF7t7kJW1DaVCKQ=", "properties": {"@source_uri": "https://tools.usps.com/UspsToolsRestServices/rest/POLocator/findLocations", "@spider": "usps_collection_boxes", "addr:city": "SOPHIA", "addr:country": "US", "addr:postcode": "25921", "addr:state": "WV", "addr:street_address": "221 RIFFE ST", "amenity": "post_box", "brand": "United States Postal Service", "brand:wikidata": "Q668687", "collection_times": "Mo-Fr 16:30; Sa 11:00", "indoor": "yes", "note": "ON 12/24 AND 12/31, THIS BOX MAY BE COLLECTED AS EARLY AS 12 NOON.", "nsi_id": "unitedstatespostalservice-a77078", "operator": "United States Postal Service", "operator:short": "USPS", "operator:type": "public", "operator:wikidata": "Q668687", "ref": "2592100003"}, "type": "Feature"}
{"geometry": {"coordinates": [-81.121276, 37.442673], "type": "Point"}, "id": "CA_8MMDofH-nBtTi9mb_0T8yPvI=", "properties": {"@source_uri": "https://tools.usps.com/UspsToolsRestServices/rest/POLocator/findLocations", "@spider": "usps_collection_boxes", "addr:city": "SPANISHBURG", "addr:country": "US", "addr:postcode": "25922", "addr:state": "WV", "addr:street_address": "8781 BECKLEY RD", "amenity": "post_box", "brand": "United States Postal Service", "brand:wikidata": "Q668687", "collection_times": "Mo-Fr 15:15; Sa 11:00", "note": "ON 12/24 AND 12/31, THIS BOX MAY BE COLLECTED AS EARLY AS 12 NOON.", "nsi_id": "unitedstatespostalservice-a77078", "operator": "United States Postal Service", "operator:short": "USPS", "operator:type": "public", "operator:wikidata": "Q668687", "ref": "2592200000"}, "type": "Feature"}
{"geometry": {"coordinates": [-81.1212457, 37.441743], "type": "Point"}, "id": "qJ6x6Nn8BA-hf115jOwm2pNgD1Y=", "properties": {"@source_uri": "https://tools.usps.com/UspsToolsRestServices/rest/POLocator/findLocations", "@spider": "usps_collection_boxes", "addr:city": "SPANISHBURG", "addr:country": "US", "addr:postcode": "25922", "addr:state": "WV", "addr:street_address": "8781 BECKLEY RD", "amenity": "post_box", "brand": "United States Postal Service", "brand:wikidata": "Q668687", "collection_times": "Mo-Fr 15:15; Sa 11:00", "indoor": "yes", "note": "ON 12/24 AND 12/31, THIS BOX MAY BE COLLECTED AS EARLY AS 12 NOON.", "nsi_id": "unitedstatespostalservice-a77078", "operator": "United States Postal Service", "operator:short": "USPS", "operator:type": "public", "operator:wikidata": "Q668687", "ref": "2592200001"}, "type": "Feature"}
{"geometry": {"coordinates": [-81.121135415, 37.441761475], "type": "Point"}, "id": "LO9UysicMBPnoliC8k0qvaDf91E=", "properties": {"@source_uri": "https://tools.usps.com/UspsToolsRestServices/rest/POLocator/findLocations", "@spider": "usps_collection_boxes", "addr:city": "SPANISHBURG", "addr:country": "US", "addr:postcode": "25922", "addr:state": "WV", "addr:street_address": "8781 BECKLEY RD", "amenity": "post_box", "brand": "United States Postal Service", "brand:wikidata": "Q668687", "collection_times": "Mo-Fr 15:15; Sa 11:15", "indoor": "yes", "note": "ON 12/24 AND 12/31, THIS BOX MAY BE COLLECTED AS EARLY AS 12 NOON.", "nsi_id": "unitedstatespostalservice-a77078", "operator": "United States Postal Service", "operator:short": "USPS", "operator:type": "public", "operator:wikidata": "Q668687", "ref": "2592200003"}, "type": "Feature"}
{"geometry": {"coordinates": [-81.160366, 37.814628], "type": "Point"}, "id": "bejStg8tksSpQvhywrBeGVkdbdY=", "properties": {"@source_uri": "https://tools.usps.com/UspsToolsRestServices/rest/POLocator/findLocations", "@spider": "usps_collection_boxes", "addr:city": "STANAFORD", "addr:country": "US", "addr:postcode": "25927", "addr:state": "WV", "addr:street_address": "909 RAGLAND RD", "amenity": "post_box", "brand": "United States Postal Service", "brand:wikidata": "Q668687", "collection_times": "Mo-Fr 11:45; Sa 11:30", "nsi_id": "unitedstatespostalservice-a77078", "operator": "United States Postal Service", "operator:short": "USPS", "operator:type": "public", "operator:wikidata": "Q668687", "ref": "2592700000"}, "type": "Feature"}
{"geometry": {"coordinates": [-81.160366, 37.814628], "type": "Point"}, "id": "RifRizylbfbyI3OfRot8OmmLuCA=", "properties": {"@source_uri": "https://tools.usps.com/UspsToolsRestServices/rest/POLocator/findLocations", "@spider": "usps_collection_boxes", "addr:city": "STANAFORD", "addr:country": "US", "addr:postcode": "25927", "addr:state": "WV", "addr:street_address": "909 RAGLAND RD", "amenity": "post_box", "brand": "United States Postal Service", "brand:wikidata": "Q668687", "collection_times": "Mo-Fr 11:45; Sa 11:30", "indoor": "yes", "nsi_id": "unitedstatespostalservice-a77078", "operator": "United States Postal Service", "operator:short": "USPS", "operator:type": "public", "operator:wikidata": "Q668687", "ref": "2592700001"}, "type": "Feature"}
{"geometry": {"coordinates": [-81.160434473, 37.814714213], "type": "Point"}, "id": "u4rikZKiJoVbf2EC7cxp2ys-rZ0=", "properties": {"@source_uri": "https://tools.usps.com/UspsToolsRestServices/rest/POLocator/findLocations", "@spider": "usps_collection_boxes", "addr:city": "STANAFORD", "addr:country": "US", "addr:postcode": "25927", "addr:state": "WV", "addr:street_address": "909 RAGLAND RD", "amenity": "post_box", "brand": "United States Postal Service", "brand:wikidata": "Q668687", "collection_times": "Mo-Fr 12:00; Sa 11:30", "indoor": "yes", "nsi_id": "unitedstatespostalservice-a77078", "operator": "United States Postal Service", "operator:short": "USPS", "operator:type": "public", "operator:wikidata": "Q668687", "ref": "2592700003"}, "type": "Feature"}
{"geometry": {"coordinates": [-81.330709, 37.579118], "type": "Point"}, "id": "bQruCPj9coCXNQ7DQNUgnFl1yPc=", "properties": {"@source_uri": "https://tools.usps.com/UspsToolsRestServices/rest/POLocator/findLocations", "@spider": "usps_collection_boxes", "addr:city": "STEPHENSON", "addr:country": "US", "addr:postcode": "25928", "addr:state": "WV", "addr:street_address": "5869 GULF RD", "amenity": "post_box", "brand": "United States Postal Service", "brand:wikidata": "Q668687", "collection_times": "Mo-Fr 11:45; Sa 10:00", "nsi_id": "unitedstatespostalservice-a77078", "operator": "United States Postal Service", "operator:short": "USPS", "operator:type": "public", "operator:wikidata": "Q668687", "ref": "2592800000"}, "type": "Feature"}
{"geometry": {"coordinates": [-81.330709, 37.579118], "type": "Point"}, "id": "ICqy2mV_9-Wo4ERnKo1DiSDwZoo=", "properties": {"@source_uri": "https://tools.usps.com/UspsToolsRestServices/rest/POLocator/findLocations", "@spider": "usps_collection_boxes", "addr:city": "STEPHENSON", "addr:country": "US", "addr:postcode": "25928", "addr:state": "WV", "addr:street_address": "5869 GULF RD", "amenity": "post_box", "brand": "United States Postal Service", "brand:wikidata": "Q668687", "collection_times": "Mo-Fr 11:45; Sa 10:00", "indoor": "yes", "nsi_id": "unitedstatespostalservice-a77078", "operator": "United States Postal Service", "operator:short": "USPS", "operator:type": "public", "operator:wikidata": "Q668687", "ref": "2592800001"}, "type": "Feature"}
{"geometry": {"coordinates": [-81.33070537, 37.579059125], "type": "Point"}, "id": "W1JU-hQhD_48HU_B7xHe9H_dwMw=", "properties": {"@source_uri": "https://tools.usps.com/UspsToolsRestServices/rest/POLocator/findLocations", "@spider": "usps_collection_boxes", "addr:city": "STEPHENSON", "addr:country": "US", "addr:postcode": "25928", "addr:state": "WV", "addr:street_address": "5869 GULF RD", "amenity": "post_box", "brand": "United States Postal Service", "brand:wikidata": "Q668687", "collection_times": "Mo-Fr 12:00; Sa 10:15", "indoor": "yes", "nsi_id": "unitedstatespostalservice-a77078", "operator": "United States Postal Service", "operator:short": "USPS", "operator:type": "public", "operator:wikidata": "Q668687", "ref": "2592800003"}, "type": "Feature"}
{"geometry": {"coordinates": [-81.321974, 37.769938], "type": "Point"}, "id": "3GqkZh-993VAfLX9LPtdJAi8Ej8=", "properties": {"@source_uri": "https://tools.usps.com/UspsToolsRestServices/rest/POLocator/findLocations", "@spider": "usps_collection_boxes", "addr:city": "SURVEYOR", "addr:country": "US", "addr:postcode": "25932", "addr:state": "WV", "addr:street_address": "6429 HARPER RD", "amenity": "post_box", "brand": "United States Postal Service", "brand:wikidata": "Q668687", "collection_times": "Mo-Fr 11:45; Sa 10:30", "nsi_id": "unitedstatespostalservice-a77078", "operator": "United States Postal Service", "operator:short": "USPS", "operator:type": "public", "operator:wikidata": "Q668687", "ref": "2593200000"}, "type": "Feature"}
{"geometry": {"coordinates": [-81.321974, 37.769938], "type": "Point"}, "id": "3jhll-NdyePv33S2W8yNRNxjMx4=", "properties": {"@source_uri": "https://tools.usps.com/UspsToolsRestServices/rest/POLocator/findLocations", "@spider": "usps_collection_boxes", "addr:city": "SURVEYOR", "addr:country": "US", "addr:postcode": "25932", "addr:state": "WV", "addr:street_address": "6429 HARPER RD", "amenity": "post_box", "brand": "United States Postal Service", "brand:wikidata": "Q668687", "collection_times": "Mo-Fr 11:45; Sa 10:30", "indoor": "yes", "nsi_id": "unitedstatespostalservice-a77078", "operator": "United States Postal Service", "operator:short": "USPS", "operator:type": "public", "operator:wikidata": "Q668687", "ref": "2593200001"}, "type": "Feature"}
{"geometry": {"coordinates": [-81.322063361, 37.769906955], "type": "Point"}, "id": "gptS4ZlQtsCH_B3JoJTYpyHiyNU=", "properties": {"@source_uri": "https://tools.usps.com/UspsToolsRestServices/rest/POLocator/findLocations", "@spider": "usps_collection_boxes", "addr:city": "SURVEYOR", "addr:country": "US", "addr:postcode": "25932", "addr:state": "WV", "addr:street_address": "6429 HARPER RD STE F", "amenity": "post_box", "brand": "United States Postal Service", "brand:wikidata": "Q668687", "collection_times": "Mo-Fr 12:00; Sa 11:00", "indoor": "yes", "nsi_id": "unitedstatespostalservice-a77078", "operator": "United States Postal Service", "operator:short": "USPS", "operator:type": "public", "operator:wikidata": "Q668687", "ref": "2593200003"}, "type": "Feature"}
{"geometry": {"coordinates": [-81.0753599883, 38.1316720855], "type": "Point"}, "id": "R__n3kL1tzbeifYRmAE5JbDf9LM=", "properties": {"@source_uri": "https://tools.usps.com/UspsToolsRestServices/rest/POLocator/findLocations", "@spider": "usps_collection_boxes", "addr:city": "VICTOR", "addr:country": "US", "addr:postcode": "25938", "addr:state": "WV", "addr:street_address": "21313 MIDLAND TRL", "amenity": "post_box", "brand": "United States Postal Service", "brand:wikidata": "Q668687", "collection_times": "Mo-Fr 14:15; Sa 10:30", "note": "ON 12/24 AND 12/31, THIS BOX MAY BE COLLECTED AS EARLY AS 12 NOON.", "nsi_id": "unitedstatespostalservice-a77078", "operator": "United States Postal Service", "operator:short": "USPS", "operator:type": "public", "operator:wikidata": "Q668687", "ref": "2593800000"}, "type": "Feature"}
{"geometry": {"coordinates": [-81.00741, 38.119522], "type": "Point"}, "id": "I9R8oT6_8amrRIjDLHDKjFzlEq4=", "properties": {"@source_uri": "https://tools.usps.com/UspsToolsRestServices/rest/POLocator/findLocations", "@spider": "usps_collection_boxes", "addr:city": "VICTOR", "addr:country": "US", "addr:postcode": "25938", "addr:state": "WV", "addr:street_address": "21313 MIDLAND TRL", "amenity": "post_box", "brand": "United States Postal Service", "brand:wikidata": "Q668687", "collection_times": "Mo-Fr 14:15; Sa 10:45", "indoor": "yes", "note": "ON 12/24 AND 12/31, THIS BOX MAY BE COLLECTED AS EARLY AS 12 NOON.", "nsi_id": "unitedstatespostalservice-a77078", "operator": "United States Postal Service", "operator:short": "USPS", "operator:type": "public", "operator:wikidata": "Q668687", "ref": "2593800001"}, "type": "Feature"}
{"geometry": {"coordinates": [-81.075365207, 38.131745168], "type": "Point"}, "id": "PcFqKGCsJppqvM5aXDuEMZQy9PM=", "properties": {"@source_uri": "https://tools.usps.com/UspsToolsRestServices/rest/POLocator/findLocations", "@spider": "usps_collection_boxes", "addr:city": "VICTOR", "addr:country": "US", "addr:postcode": "25938", "addr:state": "WV", "addr:street_address": "21313 MIDLAND TRL", "amenity": "post_box", "brand": "United States Postal Service", "brand:wikidata": "Q668687", "collection_times": "Mo-Fr 14:45; Sa 10:45", "indoor": "yes", "note": "ON 12/24 AND 12/31, THIS BOX MAY BE COLLECTED AS EARLY AS 12 NOON.", "nsi_id": "unitedstatespostalservice-a77078", "operator": "United States Postal Service", "operator:short": "USPS", "operator:type": "public", "operator:wikidata": "Q668687", "ref": "2593800003"}, "type": "Feature"}
{"geometry": {"coordinates": [-80.884168, 37.676133], "type": "Point"}, "id": "2ZloYi1XV7Xla_Q3VfbhPTRkIJ4=", "properties": {"@source_uri": "https://tools.usps.com/UspsToolsRestServices/rest/POLocator/findLocations", "@spider": "usps_collection_boxes", "addr:city": "HINTON", "addr:country": "US", "addr:postcode": "25951", "addr:state": "WV", "addr:street_address": "800 TEMPLE ST", "amenity": "post_box", "brand": "United States Postal Service", "brand:wikidata": "Q668687", "collection_times": "Mo-Sa 12:00", "nsi_id": "unitedstatespostalservice-a77078", "operator": "United States Postal Service", "operator:short": "USPS", "operator:type": "public", "operator:wikidata": "Q668687", "ref": "2595100000"}, "type": "Feature"}
{"geometry": {"coordinates": [-80.8879511, 37.672877], "type": "Point"}, "id": "s0VkMd2puw6rR6u0GBp_7KB20s0=", "properties": {"@source_uri": "https://tools.usps.com/UspsToolsRestServices/rest/POLocator/findLocations", "@spider": "usps_collection_boxes", "addr:city": "HINTON", "addr:country": "US", "addr:postcode": "25951", "addr:state": "WV", "addr:street_address": "422 4TH AVE", "amenity": "post_box", "brand": "United States Postal Service", "brand:wikidata": "Q668687", "collection_times": "Mo-Sa 09:00", "nsi_id": "unitedstatespostalservice-a77078", "operator": "United States Postal Service", "operator:short": "USPS", "operator:type": "public", "operator:wikidata": "Q668687", "ref": "2595100001"}, "type": "Feature"}
{"geometry": {"coordinates": [-80.8914783, 37.660002], "type": "Point"}, "id": "8j82HMhbqb5Y44LoYpnMllgVy60=", "properties": {"@source_uri": "https://tools.usps.com/UspsToolsRestServices/rest/POLocator/findLocations", "@spider": "usps_collection_boxes", "addr:city": "HINTON", "addr:country": "US", "addr:postcode": "25951", "addr:state": "WV", "addr:street_address": "308 STOKES DR", "amenity": "post_box", "brand": "United States Postal Service", "brand:wikidata": "Q668687", "collection_times": "Mo-Sa 11:00", "nsi_id": "unitedstatespostalservice-a77078", "operator": "United States Postal Service", "operator:short": "USPS", "operator:type": "public", "operator:wikidata": "Q668687", "ref": "2595100003"}, "type": "Feature"}
{"geometry": {"coordinates": [-80.890922473, 37.672745596], "type": "Point"}, "id": "4kn9NM8XzelSmpV1EIDIHU0c2b4=", "properties": {"@source_uri": "https://tools.usps.com/UspsToolsRestServices/rest/POLocator/findLocations", "@spider": "usps_collection_boxes", "addr:city": "HINTON", "addr:country": "US", "addr:postcode": "25951", "addr:state": "WV", "addr:street_address": "128 BALLENGEE ST", "amenity": "post_box", "brand": "United States Postal Service", "brand:wikidata": "Q668687", "collection_times": "Mo-Fr 16:45; Sa 12:00", "note": "ON 12/24 AND 12/31, THIS BOX MAY BE COLLECTED AS EARLY AS 12 NOON.", "nsi_id": "unitedstatespostalservice-a77078", "operator": "United States Postal Service", "operator:short": "USPS", "operator:type": "public", "operator:wikidata": "Q668687", "ref": "2595100004"}, "type": "Feature"}
{"geometry": {"coordinates": [-80.8760379, 37.681557], "type": "Point"}, "id": "6lWhGacM6_3wfSnigs4PKMDfhVM=", "properties": {"@source_uri": "https://tools.usps.com/UspsToolsRestServices/rest/POLocator/findLocations", "@spider": "usps_collection_boxes", "addr:city": "HINTON", "addr:country": "US", "addr:postcode": "25951", "addr:state": "WV", "addr:street_address": "1700 TEMPLE ST", "amenity": "post_box", "brand": "United States Postal Service", "brand:wikidata": "Q668687", "collection_times": "Mo-Sa 12:00", "nsi_id": "unitedstatespostalservice-a77078", "operator": "United States Postal Service", "operator:short": "USPS", "operator:type": "public", "operator:wikidata": "Q668687", "ref": "2595100006"}, "type": "Feature"}
{"geometry": {"coordinates": [-80.8911474, 37.66951], "type": "Point"}, "id": "ViF7ktLLoqcwSvyDdBqt4tWGAqs=", "properties": {"@source_uri": "https://tools.usps.com/UspsToolsRestServices/rest/POLocator/findLocations", "@spider": "usps_collection_boxes", "addr:city": "HINTON", "addr:country": "US", "addr:postcode": "25951", "addr:state": "WV", "addr:street_address": "126 MAIN ST", "amenity": "post_box", "brand": "United States Postal Service", "brand:wikidata": "Q668687", "collection_times": "Mo-Sa 09:30", "nsi_id": "unitedstatespostalservice-a77078", "operator": "United States Postal Service", "operator:short": "USPS", "operator:type": "public", "operator:wikidata": "Q668687", "ref": "2595100007"}, "type": "Feature"}
{"geometry": {"coordinates": [-80.8823161, 37.645775], "type": "Point"}, "id": "ghMrPRj5obiiYXyyyYnsyKfqS7s=", "properties": {"@source_uri": "https://tools.usps.com/UspsToolsRestServices/rest/POLocator/findLocations", "@spider": "usps_collection_boxes", "addr:city": "HINTON", "addr:country": "US", "addr:postcode": "25951", "addr:state": "WV", "addr:street_address": "400 MILLER AVE", "amenity": "post_box", "brand": "United States Postal Service", "brand:wikidata": "Q668687", "collection_times": "Mo-Sa 12:00", "nsi_id": "unitedstatespostalservice-a77078", "operator": "United States Postal Service", "operator:short": "USPS", "operator:type": "public", "operator:wikidata": "Q668687", "ref": "2595100008"}, "type": "Feature"}
{"geometry": {"coordinates": [-80.8860766, 37.674644], "type": "Point"}, "id": "SnmfP1wRY2mt7yT4QVqk-sLpQLo=", "properties": {"@source_uri": "https://tools.usps.com/UspsToolsRestServices/rest/POLocator/findLocations", "@spider": "usps_collection_boxes", "addr:city": "HINTON", "addr:country": "US", "addr:postcode": "25951", "addr:state": "WV", "addr:street_address": "601 BALLENGEE ST", "amenity": "post_box", "brand": "United States Postal Service", "brand:wikidata": "Q668687", "collection_times": "Mo-Sa 12:00", "nsi_id": "unitedstatespostalservice-a77078", "operator": "United States Postal Service", "operator:short": "USPS", "operator:type": "public", "operator:wikidata": "Q668687", "ref": "2595100013"}, "type": "Feature"}
{"geometry": {"coordinates": [-80.890922473, 37.672745596], "type": "Point"}, "id": "xritS__Yrijq91wdZM6dtScl-hk=", "properties": {"@source_uri": "https://tools.usps.com/UspsToolsRestServices/rest/POLocator/findLocations", "@spider": "usps_collection_boxes", "addr:city": "HINTON", "addr:country": "US", "addr:postcode": "25951", "addr:state": "WV", "addr:street_address": "128 BALLENGEE ST", "amenity": "post_box", "brand": "United States Postal Service", "brand:wikidata": "Q668687", "collection_times": "Mo-Fr 16:45; Sa 12:00", "indoor": "yes", "note": "ON 12/24 AND 12/31, THIS BOX MAY BE COLLECTED AS EARLY AS 12 NOON.", "nsi_id": "unitedstatespostalservice-a77078", "operator": "United States Postal Service", "operator:short": "USPS", "operator:type": "public", "operator:wikidata": "Q668687", "ref": "2595100014"}, "type": "Feature"}
{"geometry": {"coordinates": [-80.890922473, 37.672745596], "type": "Point"}, "id": "tmjsPCeZW7Hg3rbQ9S6VLu_RsHA=", "properties": {"@source_uri": "https://tools.usps.com/UspsToolsRestServices/rest/POLocator/findLocations", "@spider": "usps_collection_boxes", "addr:city": "HINTON", "addr:country": "US", "addr:postcode": "25951", "addr:state": "WV", "addr:street_address": "128 BALLENGEE ST", "amenity": "post_box", "brand": "United States Postal Service", "brand:wikidata": "Q668687", "collection_times": "Mo-Fr 16:30; Sa 12:00", "indoor": "yes", "note": "ON 12/24 AND 12/31, THIS BOX MAY BE COLLECTED AS EARLY AS 12 NOON.", "nsi_id": "unitedstatespostalservice-a77078", "operator": "United States Postal Service", "operator:short": "USPS", "operator:type": "public", "operator:wikidata": "Q668687", "ref": "2595100017"}, "type": "Feature"}
{"geometry": {"coordinates": [-80.7360554, 38.0025538], "type": "Point"}, "id": "GzdPpR5mUVHT9MqUNAIUATBNxV8=", "properties": {"@source_uri": "https://tools.usps.com/UspsToolsRestServices/rest/POLocator/findLocations", "@spider": "usps_collection_boxes", "addr:city": "CHARMCO", "addr:country": "US", "addr:postcode": "25958", "addr:state": "WV", "addr:street_address": "5170 MIDLAND TRL W", "amenity": "post_box", "brand": "United States Postal Service", "brand:wikidata": "Q668687", "collection_times": "Mo-Fr 11:45; Sa 10:30", "nsi_id": "unitedstatespostalservice-a77078", "operator": "United States Postal Service", "operator:short": "USPS", "operator:type": "public", "operator:wikidata": "Q668687", "ref": "2595800000"}, "type": "Feature"}
{"geometry": {"coordinates": [-80.7360554, 38.0025538], "type": "Point"}, "id": "APmThNrHyM3_MEbKoKFHKPo1lf8=", "properties": {"@source_uri": "https://tools.usps.com/UspsToolsRestServices/rest/POLocator/findLocations", "@spider": "usps_collection_boxes", "addr:city": "CHARMCO", "addr:country": "US", "addr:postcode": "25958", "addr:state": "WV", "addr:street_address": "5170 MIDLAND TRL W", "amenity": "post_box", "brand": "United States Postal Service", "brand:wikidata": "Q668687", "collection_times": "Mo-Fr 11:45; Sa 10:30", "indoor": "yes", "nsi_id": "unitedstatespostalservice-a77078", "operator": "United States Postal Service", "operator:short": "USPS", "operator:type": "public", "operator:wikidata": "Q668687", "ref": "2595800001"}, "type": "Feature"}
{"geometry": {"coordinates": [-80.7360554, 38.0025538], "type": "Point"}, "id": "xA_cwbxY6eMTH5J61FWNt1U5z4k=", "properties": {"@source_uri": "https://tools.usps.com/UspsToolsRestServices/rest/POLocator/findLocations", "@spider": "usps_collection_boxes", "addr:city": "CHARMCO", "addr:country": "US", "addr:postcode": "25958", "addr:state": "WV", "addr:street_address": "5170 MIDLAND TRL W", "amenity": "post_box", "brand": "United States Postal Service", "brand:wikidata": "Q668687", "collection_times": "Mo-Fr 12:00; Sa 10:30", "indoor": "yes", "nsi_id": "unitedstatespostalservice-a77078", "operator": "United States Postal Service", "operator:short": "USPS", "operator:type": "public", "operator:wikidata": "Q668687", "ref": "2595800003"}, "type": "Feature"}
{"geometry": {"coordinates": [-80.778774768, 37.965831963], "type": "Point"}, "id": "uPOzro0LePlZLVrEO6GThmtcnag=", "properties": {"@source_uri": "https://tools.usps.com/UspsToolsRestServices/rest/POLocator/findLocations", "@spider": "usps_collection_boxes", "addr:city": "RAINELLE", "addr:country": "US", "addr:postcode": "25962", "addr:state": "WV", "addr:street_address": "397 JOHN RAINE DR", "amenity": "post_box", "brand": "United States Postal Service", "brand:wikidata": "Q668687", "collection_times": "Mo-Fr 16:00; Sa 12:00", "note": "ON 12/24 AND 12/31, THIS BOX MAY BE COLLECTED AS EARLY AS 12 NOON.", "nsi_id": "unitedstatespostalservice-a77078", "operator": "United States Postal Service", "operator:short": "USPS", "operator:type": "public", "operator:wikidata": "Q668687", "ref": "2596200004"}, "type": "Feature"}
{"geometry": {"coordinates": [-80.7787747682, 37.9658319633], "type": "Point"}, "id": "wMBYl14m4d3Nkd099fCVudpMU9A=", "properties": {"@source_uri": "https://tools.usps.com/UspsToolsRestServices/rest/POLocator/findLocations", "@spider": "usps_collection_boxes", "addr:city": "RAINELLE", "addr:country": "US", "addr:postcode": "25962", "addr:state": "WV", "addr:street_address": "397 JOHN RAINE DRIVE", "amenity": "post_box", "brand": "United States Postal Service", "brand:wikidata": "Q668687", "collection_times": "Mo-Fr 16:00; Sa 12:00", "indoor": "yes", "note": "ON 12/24 AND 12/31, THIS BOX MAY BE COLLECTED AS EARLY AS 12 NOON.", "nsi_id": "unitedstatespostalservice-a77078", "operator": "United States Postal Service", "operator:short": "USPS", "operator:type": "public", "operator:wikidata": "Q668687", "ref": "2596200005"}, "type": "Feature"}
{"geometry": {"coordinates": [-80.7787747682, 37.9658319633], "type": "Point"}, "id": "-32XTT_57KTNTMMBF0tVQT3O30o=", "properties": {"@source_uri": "https://tools.usps.com/UspsToolsRestServices/rest/POLocator/findLocations", "@spider": "usps_collection_boxes", "addr:city": "RAINELLE", "addr:country": "US", "addr:postcode": "25962", "addr:state": "WV", "addr:street_address": "397 JOHN RAINE DR", "amenity": "post_box", "brand": "United States Postal Service", "brand:wikidata": "Q668687", "collection_times": "Mo-Fr 16:00; Sa 12:00", "indoor": "yes", "note": "ON 12/24 AND 12/31, THIS BOX MAY BE COLLECTED AS EARLY AS 12 NOON.", "nsi_id": "unitedstatespostalservice-a77078", "operator": "United States Postal Service", "operator:short": "USPS", "operator:type": "public", "operator:wikidata": "Q668687", "ref": "2596200007"}, "type": "Feature"}
{"geometry": {"coordinates": [-80.985529, 37.660372], "type": "Point"}, "id": "Jb50raYWpd0OSC6rVFqMgki0woA=", "properties": {"@source_uri": "https://tools.usps.com/UspsToolsRestServices/rest/POLocator/findLocations", "@spider": "usps_collection_boxes", "addr:city": "JUMPING BRANCH", "addr:country": "US", "addr:postcode": "25969", "addr:state": "WV", "addr:street_address": "5766 BEECH RUN RD", "amenity": "post_box", "brand": "United States Postal Service", "brand:wikidata": "Q668687", "collection_times": "Mo-Fr 11:45; Sa 11:15", "nsi_id": "unitedstatespostalservice-a77078", "operator": "United States Postal Service", "operator:short": "USPS", "operator:type": "public", "operator:wikidata": "Q668687", "ref": "2596900000"}, "type": "Feature"}
{"geometry": {"coordinates": [-80.985529, 37.660372], "type": "Point"}, "id": "h5QbI-ol7qBVG3Szj7CbwUbOCh4=", "properties": {"@source_uri": "https://tools.usps.com/UspsToolsRestServices/rest/POLocator/findLocations", "@spider": "usps_collection_boxes", "addr:city": "JUMPING BRANCH", "addr:country": "US", "addr:postcode": "25969", "addr:state": "WV", "addr:street_address": "5766 BEECH RUN RD", "amenity": "post_box", "brand": "United States Postal Service", "brand:wikidata": "Q668687", "collection_times": "Mo-Fr 11:45; Sa 11:15", "indoor": "yes", "nsi_id": "unitedstatespostalservice-a77078", "operator": "United States Postal Service", "operator:short": "USPS", "operator:type": "public", "operator:wikidata": "Q668687", "ref": "2596900001"}, "type": "Feature"}
{"geometry": {"coordinates": [-80.985406887, 37.660491368], "type": "Point"}, "id": "JUogBnpMU3z25vFcPp1RluMn318=", "properties": {"@source_uri": "https://tools.usps.com/UspsToolsRestServices/rest/POLocator/findLocations", "@spider": "usps_collection_boxes", "addr:city": "JUMPING BRANCH", "addr:country": "US", "addr:postcode": "25969", "addr:state": "WV", "addr:street_address": "5766 BEECH RUN RD", "amenity": "post_box", "brand": "United States Postal Service", "brand:wikidata": "Q668687", "collection_times": "Mo-Fr 12:00; Sa 11:45", "indoor": "yes", "nsi_id": "unitedstatespostalservice-a77078", "operator": "United States Postal Service", "operator:short": "USPS", "operator:type": "public", "operator:wikidata": "Q668687", "ref": "2596900003"}, "type": "Feature"}
{"geometry": {"coordinates": [-80.9788111, 37.499674], "type": "Point"}, "id": "tzvH0lT4rEwspy2PK1ETjx0e-MU=", "properties": {"@source_uri": "https://tools.usps.com/UspsToolsRestServices/rest/POLocator/findLocations", "@spider": "usps_collection_boxes", "addr:city": "LERONA", "addr:country": "US", "addr:postcode": "25971", "addr:state": "WV", "addr:street_address": "6832 HINTON RD", "amenity": "post_box", "brand": "United States Postal Service", "brand:wikidata": "Q668687", "collection_times": "Mo-Fr 15:30; Sa 12:00", "note": "ON 12/24 AND 12/31, THIS BOX MAY BE COLLECTED AS EARLY AS 12 NOON.", "nsi_id": "unitedstatespostalservice-a77078", "operator": "United States Postal Service", "operator:short": "USPS", "operator:type": "public", "operator:wikidata": "Q668687", "ref": "2597100000"}, "type": "Feature"}
{"geometry": {"coordinates": [-80.9787599, 37.499656], "type": "Point"}, "id": "0ex1AfOPtEDk92A1Le6HrEz8pvQ=", "properties": {"@source_uri": "https://tools.usps.com/UspsToolsRestServices/rest/POLocator/findLocations", "@spider": "usps_collection_boxes", "addr:city": "LERONA", "addr:country": "US", "addr:postcode": "25971", "addr:state": "WV", "addr:street_address": "6832 HINTON RD", "amenity": "post_box", "brand": "United States Postal Service", "brand:wikidata": "Q668687", "collection_times": "Mo-Fr 15:30; Sa 12:00", "indoor": "yes", "note": "ON 12/24 AND 12/31, THIS BOX MAY BE COLLECTED AS EARLY AS 12 NOON.", "nsi_id": "unitedstatespostalservice-a77078", "operator": "United States Postal Service", "operator:short": "USPS", "operator:type": "public", "operator:wikidata": "Q668687", "ref": "2597100001"}, "type": "Feature"}
{"geometry": {"coordinates": [-80.978972974, 37.499684059], "type": "Point"}, "id": "6FdjpT41kwmagoqDzzWMDmdLM00=", "properties": {"@source_uri": "https://tools.usps.com/UspsToolsRestServices/rest/POLocator/findLocations", "@spider": "usps_collection_boxes", "addr:city": "LERONA", "addr:country": "US", "addr:postcode": "25971", "addr:state": "WV", "addr:street_address": "6832 HINTON RD", "amenity": "post_box", "brand": "United States Postal Service", "brand:wikidata": "Q668687", "collection_times": "Mo-Fr 15:30; Sa 12:15", "indoor": "yes", "note": "ON 12/24 AND 12/31, THIS BOX MAY BE COLLECTED AS EARLY AS 12 NOON.", "nsi_id": "unitedstatespostalservice-a77078", "operator": "United States Postal Service", "operator:short": "USPS", "operator:type": "public", "operator:wikidata": "Q668687", "ref": "2597100003"}, "type": "Feature"}
{"geometry": {"coordinates": [-80.730315, 38.037761], "type": "Point"}, "id": "FdPNPnzTLdyg9lhAS3DUhxYfrQY=", "properties": {"@source_uri": "https://tools.usps.com/UspsToolsRestServices/rest/POLocator/findLocations", "@spider": "usps_collection_boxes", "addr:city": "LESLIE", "addr:country": "US", "addr:postcode": "25972", "addr:state": "WV", "addr:street_address": "3543 ORIENT HILL RD", "amenity": "post_box", "brand": "United States Postal Service", "brand:wikidata": "Q668687", "collection_times": "Mo-Fr 09:45; Sa 11:45", "nsi_id": "unitedstatespostalservice-a77078", "operator": "United States Postal Service", "operator:short": "USPS", "operator:type": "public", "operator:wikidata": "Q668687", "ref": "2597200000"}, "type": "Feature"}
{"geometry": {"coordinates": [-80.730315, 38.037761], "type": "Point"}, "id": "9ecIQZWawvjwWq1s9872BqscSxY=", "properties": {"@source_uri": "https://tools.usps.com/UspsToolsRestServices/rest/POLocator/findLocations", "@spider": "usps_collection_boxes", "addr:city": "LESLIE", "addr:country": "US", "addr:postcode": "25972", "addr:state": "WV", "addr:street_address": "3543 ORIENT HILL RD", "amenity": "post_box", "brand": "United States Postal Service", "brand:wikidata": "Q668687", "collection_times": "Mo-Fr 09:45; Sa 11:45", "indoor": "yes", "nsi_id": "unitedstatespostalservice-a77078", "operator": "United States Postal Service", "operator:short": "USPS", "operator:type": "public", "operator:wikidata": "Q668687", "ref": "2597200001"}, "type": "Feature"}
{"geometry": {"coordinates": [-80.724491443, 38.04099651], "type": "Point"}, "id": "Mj9VmqylA1Rg9O4ffksK5pZGWbU=", "properties": {"@source_uri": "https://tools.usps.com/UspsToolsRestServices/rest/POLocator/findLocations", "@spider": "usps_collection_boxes", "addr:city": "LESLIE", "addr:country": "US", "addr:postcode": "25972", "addr:state": "WV", "addr:street_address": "3543 ORIENT HILL RD", "amenity": "post_box", "brand": "United States Postal Service", "brand:wikidata": "Q668687", "collection_times": "Mo-Fr 10:00; Sa 11:45", "indoor": "yes", "nsi_id": "unitedstatespostalservice-a77078", "operator": "United States Postal Service", "operator:short": "USPS", "operator:type": "public", "operator:wikidata": "Q668687", "ref": "2597200003"}, "type": "Feature"}
{"geometry": {"coordinates": [-80.857070623, 37.851549792], "type": "Point"}, "id": "xHsixHVephhII7ItclWnpx1peKc=", "properties": {"@source_uri": "https://tools.usps.com/UspsToolsRestServices/rest/POLocator/findLocations", "@spider": "usps_collection_boxes", "addr:city": "MEADOW BRIDGE", "addr:country": "US", "addr:postcode": "25976", "addr:state": "WV", "addr:street_address": "9245 SEWELL CREEK RD", "amenity": "post_box", "brand": "United States Postal Service", "brand:wikidata": "Q668687", "collection_times": "Mo-Fr 16:00; Sa 12:00", "note": "ON 12/24 AND 12/31, THIS BOX MAY BE COLLECTED AS EARLY AS 12 NOON.", "nsi_id": "unitedstatespostalservice-a77078", "operator": "United States Postal Service", "operator:short": "USPS", "operator:type": "public", "operator:wikidata": "Q668687", "ref": "2597600000"}, "type": "Feature"}
{"geometry": {"coordinates": [-80.857070623, 37.851549792], "type": "Point"}, "id": "1zdPWguynvSEEZtb2Omh-AyLo9g=", "properties": {"@source_uri": "https://tools.usps.com/UspsToolsRestServices/rest/POLocator/findLocations", "@spider": "usps_collection_boxes", "addr:city": "MEADOW BRIDGE", "addr:country": "US", "addr:postcode": "25976", "addr:state": "WV", "addr:street_address": "9245 SEWELL CREEK RD", "amenity": "post_box", "brand": "United States Postal Service", "brand:wikidata": "Q668687", "collection_times": "Mo-Fr 16:00; Sa 12:00", "indoor": "yes", "note": "ON 12/24 AND 12/31, THIS BOX MAY BE COLLECTED AS EARLY AS 12 NOON.", "nsi_id": "unitedstatespostalservice-a77078", "operator": "United States Postal Service", "operator:short": "USPS", "operator:type": "public", "operator:wikidata": "Q668687", "ref": "2597600001"}, "type": "Feature"}
{"geometry": {"coordinates": [-80.857070623, 37.851549792], "type": "Point"}, "id": "EVtxXlr2ZcslisiCbjaRKLI3YNw=", "properties": {"@source_uri": "https://tools.usps.com/UspsToolsRestServices/rest/POLocator/findLocations", "@spider": "usps_collection_boxes", "addr:city": "MEADOW BRIDGE", "addr:country": "US", "addr:postcode": "25976", "addr:state": "WV", "addr:street_address": "9245 SEWELL CREEK RD", "amenity": "post_box", "brand": "United States Postal Service", "brand:wikidata": "Q668687", "collection_times": "Mo-Fr 16:15; Sa 12:00", "indoor": "yes", "note": "ON 12/24 AND 12/31, THIS BOX MAY BE COLLECTED AS EARLY AS 12 NOON.", "nsi_id": "unitedstatespostalservice-a77078", "operator": "United States Postal Service", "operator:short": "USPS", "operator:type": "public", "operator:wikidata": "Q668687", "ref": "2597600003"}, "type": "Feature"}
{"geometry": {"coordinates": [-80.9130720496, 37.798471369], "type": "Point"}, "id": "NVDc5QtNHYbM2XpUT5FkbUjbcr4=", "properties": {"@source_uri": "https://tools.usps.com/UspsToolsRestServices/rest/POLocator/findLocations", "@spider": "usps_collection_boxes", "addr:city": "MEADOW CREEK", "addr:country": "US", "addr:postcode": "25977", "addr:state": "WV", "addr:street_address": "2638 MEADOW CREEK RD", "amenity": "post_box", "brand": "United States Postal Service", "brand:wikidata": "Q668687", "collection_times": "Mo-Sa 12:00", "nsi_id": "unitedstatespostalservice-a77078", "operator": "United States Postal Service", "operator:short": "USPS", "operator:type": "public", "operator:wikidata": "Q668687", "ref": "2597700000"}, "type": "Feature"}
{"geometry": {"coordinates": [-80.9130720496, 37.798471369], "type": "Point"}, "id": "E3fz3vcwKoUB8-RTRhf_lWx9Kok=", "properties": {"@source_uri": "https://tools.usps.com/UspsToolsRestServices/rest/POLocator/findLocations", "@spider": "usps_collection_boxes", "addr:city": "MEADOW CREEK", "addr:country": "US", "addr:postcode": "25977", "addr:state": "WV", "addr:street_address": "2638 MEADOW CREEK RD", "amenity": "post_box", "brand": "United States Postal Service", "brand:wikidata": "Q668687", "collection_times": "Mo-Sa 12:00", "indoor": "yes", "nsi_id": "unitedstatespostalservice-a77078", "operator": "United States Postal Service", "operator:short": "USPS", "operator:type": "public", "operator:wikidata": "Q668687", "ref": "2597700001"}, "type": "Feature"}
{"geometry": {"coordinates": [-80.921627247, 37.806444922], "type": "Point"}, "id": "9EViChwOeX90W_5XrIrOMAEplVA=", "properties": {"@source_uri": "https://tools.usps.com/UspsToolsRestServices/rest/POLocator/findLocations", "@spider": "usps_collection_boxes", "addr:city": "MEADOW CREEK", "addr:country": "US", "addr:postcode": "25977", "addr:state": "WV", "addr:street_address": "2638 MEADOW CREEK RD", "amenity": "post_box", "brand": "United States Postal Service", "brand:wikidata": "Q668687", "collection_times": "Mo-Fr 12:30; Sa 13:30", "indoor": "yes", "note": "ON 12/24 AND 12/31, THIS BOX MAY BE COLLECTED AS EARLY AS 12 NOON.", "nsi_id": "unitedstatespostalservice-a77078", "operator": "United States Postal Service", "operator:short": "USPS", "operator:type": "public", "operator:wikidata": "Q668687", "ref": "2597700003"}, "type": "Feature"}
{"geometry": {"coordinates": [-80.957932, 37.647136], "type": "Point"}, "id": "LSVVKFu7pH_H4vPutvGFaIwyKSU=", "properties": {"@source_uri": "https://tools.usps.com/UspsToolsRestServices/rest/POLocator/findLocations", "@spider": "usps_collection_boxes", "addr:city": "NIMITZ", "addr:country": "US", "addr:postcode": "25978", "addr:state": "WV", "addr:street_address": "7394 BEECH RUN RD", "amenity": "post_box", "brand": "United States Postal Service", "brand:wikidata": "Q668687", "collection_times": "Mo-Fr 11:15; Sa 10:45", "nsi_id": "unitedstatespostalservice-a77078", "operator": "United States Postal Service", "operator:short": "USPS", "operator:type": "public", "operator:wikidata": "Q668687", "ref": "2597800000"}, "type": "Feature"}
{"geometry": {"coordinates": [-80.957932, 37.647136], "type": "Point"}, "id": "N0u8B24FtK8DzW9LMLq_YEhZkwk=", "properties": {"@source_uri": "https://tools.usps.com/UspsToolsRestServices/rest/POLocator/findLocations", "@spider": "usps_collection_boxes", "addr:city": "NIMITZ", "addr:country": "US", "addr:postcode": "25978", "addr:state": "WV", "addr:street_address": "7394 BEECH RUN RD", "amenity": "post_box", "brand": "United States Postal Service", "brand:wikidata": "Q668687", "collection_times": "Mo-Fr 11:15; Sa 10:45", "indoor": "yes", "nsi_id": "unitedstatespostalservice-a77078", "operator": "United States Postal Service", "operator:short": "USPS", "operator:type": "public", "operator:wikidata": "Q668687", "ref": "2597800001"}, "type": "Feature"}
{"geometry": {"coordinates": [-80.961839982, 37.646420008], "type": "Point"}, "id": "MW_gRcaPr4RxVcMxCGD4xrHyZAw=", "properties": {"@source_uri": "https://tools.usps.com/UspsToolsRestServices/rest/POLocator/findLocations", "@spider": "usps_collection_boxes", "addr:city": "NIMITZ", "addr:country": "US", "addr:postcode": "25978", "addr:state": "WV", "addr:street_address": "7394 BEECH RUN RD", "amenity": "post_box", "brand": "United States Postal Service", "brand:wikidata": "Q668687", "collection_times": "Mo-Fr 11:30; Sa 10:45", "indoor": "yes", "nsi_id": "unitedstatespostalservice-a77078", "operator": "United States Postal Service", "operator:short": "USPS", "operator:type": "public", "operator:wikidata": "Q668687", "ref": "2597800003"}, "type": "Feature"}
{"geometry": {"coordinates": [-80.9653929, 37.529808], "type": "Point"}, "id": "9KBXfowNXZLv9tTeexLqeUvXZbQ=", "properties": {"@source_uri": "https://tools.usps.com/UspsToolsRestServices/rest/POLocator/findLocations", "@spider": "usps_collection_boxes", "addr:city": "PIPESTEM", "addr:country": "US", "addr:postcode": "25979", "addr:state": "WV", "addr:street_address": "1 MAIN ST", "amenity": "post_box", "brand": "United States Postal Service", "brand:wikidata": "Q668687", "collection_times": "Mo-Fr 11:45; Sa 10:45", "nsi_id": "unitedstatespostalservice-a77078", "operator": "United States Postal Service", "operator:short": "USPS", "operator:type": "public", "operator:wikidata": "Q668687", "ref": "2597900000"}, "type": "Feature"}
{"geometry": {"coordinates": [-80.9652794, 37.529806], "type": "Point"}, "id": "awkSfk4rbHacAxAk4Tg74X_E1hA=", "properties": {"@source_uri": "https://tools.usps.com/UspsToolsRestServices/rest/POLocator/findLocations", "@spider": "usps_collection_boxes", "addr:city": "PIPESTEM", "addr:country": "US", "addr:postcode": "25979", "addr:state": "WV", "addr:street_address": "1 MAIN ST", "amenity": "post_box", "brand": "United States Postal Service", "brand:wikidata": "Q668687", "collection_times": "Mo-Fr 11:45; Sa 10:45", "indoor": "yes", "nsi_id": "unitedstatespostalservice-a77078", "operator": "United States Postal Service", "operator:short": "USPS", "operator:type": "public", "operator:wikidata": "Q668687", "ref": "2597900001"}, "type": "Feature"}
{"geometry": {"coordinates": [-80.9671547, 37.5202273], "type": "Point"}, "id": "iTcHqX1M9EJ4dnTgfboNAp8_uWE=", "properties": {"@source_uri": "https://tools.usps.com/UspsToolsRestServices/rest/POLocator/findLocations", "@spider": "usps_collection_boxes", "addr:city": "PIPESTEM", "addr:country": "US", "addr:postcode": "25979", "addr:state": "WV", "addr:street_address": "1 MAIN ST", "amenity": "post_box", "brand": "United States Postal Service", "brand:wikidata": "Q668687", "collection_times": "Mo-Fr 12:00; Sa 10:30", "indoor": "yes", "nsi_id": "unitedstatespostalservice-a77078", "operator": "United States Postal Service", "operator:short": "USPS", "operator:type": "public", "operator:wikidata": "Q668687", "ref": "2597900003"}, "type": "Feature"}
{"geometry": {"coordinates": [-80.708573, 38.057071], "type": "Point"}, "id": "tZTdlrAwkIv5j1ORqp0s0m1wzeA=", "properties": {"@source_uri": "https://tools.usps.com/UspsToolsRestServices/rest/POLocator/findLocations", "@spider": "usps_collection_boxes", "addr:city": "QUINWOOD", "addr:country": "US", "addr:postcode": "25981", "addr:state": "WV", "addr:street_address": "115 AMICK ST W", "amenity": "post_box", "brand": "United States Postal Service", "brand:wikidata": "Q668687", "collection_times": "Mo-Fr 14:30; Sa 11:45", "note": "ON 12/24 AND 12/31, THIS BOX MAY BE COLLECTED AS EARLY AS 12 NOON.", "nsi_id": "unitedstatespostalservice-a77078", "operator": "United States Postal Service", "operator:short": "USPS", "operator:type": "public", "operator:wikidata": "Q668687", "ref": "2598100000"}, "type": "Feature"}
{"geometry": {"coordinates": [-80.708514, 38.057099], "type": "Point"}, "id": "7pgPkvAnBo80eVm3_VFMRDdVsBo=", "properties": {"@source_uri": "https://tools.usps.com/UspsToolsRestServices/rest/POLocator/findLocations", "@spider": "usps_collection_boxes", "addr:city": "QUINWOOD", "addr:country": "US", "addr:postcode": "25981", "addr:state": "WV", "addr:street_address": "115 AMICK ST W", "amenity": "post_box", "brand": "United States Postal Service", "brand:wikidata": "Q668687", "collection_times": "Mo-Fr 14:30; Sa 11:45", "indoor": "yes", "note": "ON 12/24 AND 12/31, THIS BOX MAY BE COLLECTED AS EARLY AS 12 NOON.", "nsi_id": "unitedstatespostalservice-a77078", "operator": "United States Postal Service", "operator:short": "USPS", "operator:type": "public", "operator:wikidata": "Q668687", "ref": "2598100001"}, "type": "Feature"}
{"geometry": {"coordinates": [-80.707077504, 38.05735411], "type": "Point"}, "id": "dkf4qInEfttTN-srRanW17DzXu8=", "properties": {"@source_uri": "https://tools.usps.com/UspsToolsRestServices/rest/POLocator/findLocations", "@spider": "usps_collection_boxes", "addr:city": "QUINWOOD", "addr:country": "US", "addr:postcode": "25981", "addr:state": "WV", "addr:street_address": "115 AMICK ST W", "amenity": "post_box", "brand": "United States Postal Service", "brand:wikidata": "Q668687", "collection_times": "Mo-Fr 15:00; Sa 11:30", "indoor": "yes", "note": "ON 12/24 AND 12/31, THIS BOX MAY BE COLLECTED AS EARLY AS 12 NOON.", "nsi_id": "unitedstatespostalservice-a77078", "operator": "United States Postal Service", "operator:short": "USPS", "operator:type": "public", "operator:wikidata": "Q668687", "ref": "2598100003"}, "type": "Feature"}
{"geometry": {"coordinates": [-80.690458824, 37.9634311], "type": "Point"}, "id": "bxH844J8ql7-ZKWP1w07ImOkIR0=", "properties": {"@source_uri": "https://tools.usps.com/UspsToolsRestServices/rest/POLocator/findLocations", "@spider": "usps_collection_boxes", "addr:city": "RUPERT", "addr:country": "US", "addr:postcode": "25984", "addr:state": "WV", "addr:street_address": "628 NICHOLAS ST", "amenity": "post_box", "brand": "United States Postal Service", "brand:wikidata": "Q668687", "collection_times": "Mo-Fr 16:00; Sa 11:45", "note": "ON 12/24 AND 12/31, THIS BOX MAY BE COLLECTED AS EARLY AS 12 NOON.", "nsi_id": "unitedstatespostalservice-a77078", "operator": "United States Postal Service", "operator:short": "USPS", "operator:type": "public", "operator:wikidata": "Q668687", "ref": "2598400004"}, "type": "Feature"}
{"geometry": {"coordinates": [-80.690458824, 37.9634311], "type": "Point"}, "id": "IekseuTl-a4DSVjRiDu9txS8wu4=", "properties": {"@source_uri": "https://tools.usps.com/UspsToolsRestServices/rest/POLocator/findLocations", "@spider": "usps_collection_boxes", "addr:city": "RUPERT", "addr:country": "US", "addr:postcode": "25984", "addr:state": "WV", "addr:street_address": "628 NICHOLAS ST", "amenity": "post_box", "brand": "United States Postal Service", "brand:wikidata": "Q668687", "collection_times": "Mo-Fr 16:00; Sa 11:45", "indoor": "yes", "note": "ON 12/24 AND 12/31, THIS BOX MAY BE COLLECTED AS EARLY AS 12 NOON.", "nsi_id": "unitedstatespostalservice-a77078", "operator": "United States Postal Service", "operator:short": "USPS", "operator:type": "public", "operator:wikidata": "Q668687", "ref": "2598400005"}, "type": "Feature"}
{"geometry": {"coordinates": [-80.690458824, 37.9634311], "type": "Point"}, "id": "rqzMXDJ_FBTaKOruFAVkQDU9Ozg=", "properties": {"@source_uri": "https://tools.usps.com/UspsToolsRestServices/rest/POLocator/findLocations", "@spider": "usps_collection_boxes", "addr:city": "RUPERT", "addr:country": "US", "addr:postcode": "25984", "addr:state": "WV", "addr:street_address": "628 NICHOLAS ST", "amenity": "post_box", "brand": "United States Postal Service", "brand:wikidata": "Q668687", "collection_times": "Mo-Fr 16:30; Sa 12:00", "indoor": "yes", "note": "ON 12/24 AND 12/31, THIS BOX MAY BE COLLECTED AS EARLY AS 12 NOON.", "nsi_id": "unitedstatespostalservice-a77078", "operator": "United States Postal Service", "operator:short": "USPS", "operator:type": "public", "operator:wikidata": "Q668687", "ref": "2598400006"}, "type": "Feature"}
{"geometry": {"coordinates": [-80.891734, 37.773904], "type": "Point"}, "id": "Px2DEBrauVEJicRo_Cshm2Oj6ZU=", "properties": {"@source_uri": "https://tools.usps.com/UspsToolsRestServices/rest/POLocator/findLocations", "@spider": "usps_collection_boxes", "addr:city": "SANDSTONE", "addr:country": "US", "addr:postcode": "25985", "addr:state": "WV", "addr:street_address": "38 RIVER RD", "amenity": "post_box", "brand": "United States Postal Service", "brand:wikidata": "Q668687", "collection_times": "Mo-Fr 11:15; Sa 11:45", "nsi_id": "unitedstatespostalservice-a77078", "operator": "United States Postal Service", "operator:short": "USPS", "operator:type": "public", "operator:wikidata": "Q668687", "ref": "2598500000"}, "type": "Feature"}
{"geometry": {"coordinates": [-80.891734, 37.773904], "type": "Point"}, "id": "tgh4YsRse9qUjtsfjHnvIHe4NYE=", "properties": {"@source_uri": "https://tools.usps.com/UspsToolsRestServices/rest/POLocator/findLocations", "@spider": "usps_collection_boxes", "addr:city": "SANDSTONE", "addr:country": "US", "addr:postcode": "25985", "addr:state": "WV", "addr:street_address": "38 RIVER RD", "amenity": "post_box", "brand": "United States Postal Service", "brand:wikidata": "Q668687", "collection_times": "Mo-Fr 11:15; Sa 11:45", "indoor": "yes", "nsi_id": "unitedstatespostalservice-a77078", "operator": "United States Postal Service", "operator:short": "USPS", "operator:type": "public", "operator:wikidata": "Q668687", "ref": "2598500001"}, "type": "Feature"}
{"geometry": {"coordinates": [-80.891617567, 37.773812755], "type": "Point"}, "id": "e3_ZaRbrsl2fO6AitIY_gllCz9w=", "properties": {"@source_uri": "https://tools.usps.com/UspsToolsRestServices/rest/POLocator/findLocations", "@spider": "usps_collection_boxes", "addr:city": "SANDSTONE", "addr:country": "US", "addr:postcode": "25985", "addr:state": "WV", "addr:street_address": "38 RIVER RD", "amenity": "post_box", "brand": "United States Postal Service", "brand:wikidata": "Q668687", "collection_times": "Mo-Fr 11:30; Sa 11:45", "indoor": "yes", "nsi_id": "unitedstatespostalservice-a77078", "operator": "United States Postal Service", "operator:short": "USPS", "operator:type": "public", "operator:wikidata": "Q668687", "ref": "2598500003"}, "type": "Feature"}
{"geometry": {"coordinates": [-80.8079298994, 37.8818010259], "type": "Point"}, "id": "_oPzzHUAEJRMo-KrQiS56zALln8=", "properties": {"@source_uri": "https://tools.usps.com/UspsToolsRestServices/rest/POLocator/findLocations", "@spider": "usps_collection_boxes", "addr:city": "SPRINGDALE", "addr:country": "US", "addr:postcode": "25986", "addr:state": "WV", "addr:street_address": "5130 SEWELL CREEK RD", "amenity": "post_box", "brand": "United States Postal Service", "brand:wikidata": "Q668687", "collection_times": "Mo-Fr 09:45; Sa 09:30", "nsi_id": "unitedstatespostalservice-a77078", "operator": "United States Postal Service", "operator:short": "USPS", "operator:type": "public", "operator:wikidata": "Q668687", "ref": "2598600000"}, "type": "Feature"}
{"geometry": {"coordinates": [-80.8079298994, 37.8818010259], "type": "Point"}, "id": "QrZD5UOHzu4DQHeL_w4StSTKEvs=", "properties": {"@source_uri": "https://tools.usps.com/UspsToolsRestServices/rest/POLocator/findLocations", "@spider": "usps_collection_boxes", "addr:city": "SPRINGDALE", "addr:country": "US", "addr:postcode": "25986", "addr:state": "WV", "addr:street_address": "5130 SEWELL CREEK RD", "amenity": "post_box", "brand": "United States Postal Service", "brand:wikidata": "Q668687", "collection_times": "Mo-Fr 09:45; Sa 09:30", "indoor": "yes", "nsi_id": "unitedstatespostalservice-a77078", "operator": "United States Postal Service", "operator:short": "USPS", "operator:type": "public", "operator:wikidata": "Q668687", "ref": "2598600001"}, "type": "Feature"}
{"geometry": {"coordinates": [-80.8079298994, 37.8818010259], "type": "Point"}, "id": "LlhE2VMQ5BNXBMCRXLTd9E0DEGY=", "properties": {"@source_uri": "https://tools.usps.com/UspsToolsRestServices/rest/POLocator/findLocations", "@spider": "usps_collection_boxes", "addr:city": "SPRINGDALE", "addr:country": "US", "addr:postcode": "25986", "addr:state": "WV", "addr:street_address": "5130 SEWELL CREEK RD", "amenity": "post_box", "brand": "United States Postal Service", "brand:wikidata": "Q668687", "collection_times": "Mo-Sa 10:00", "indoor": "yes", "nsi_id": "unitedstatespostalservice-a77078", "operator": "United States Postal Service", "operator:short": "USPS", "operator:type": "public", "operator:wikidata": "Q668687", "ref": "2598600003"}, "type": "Feature"}
{"geometry": {"coordinates": [-81.0762, 37.694127], "type": "Point"}, "id": "KLrzjF7zLpwFv02_AU2HO1OhKHI=", "properties": {"@source_uri": "https://tools.usps.com/UspsToolsRestServices/rest/POLocator/findLocations", "@spider": "usps_collection_boxes", "addr:city": "WHITE OAK", "addr:country": "US", "addr:postcode": "25989", "addr:state": "WV", "addr:street_address": "809 HINTON RD", "amenity": "post_box", "brand": "United States Postal Service", "brand:wikidata": "Q668687", "collection_times": "Mo-Sa 11:45", "nsi_id": "unitedstatespostalservice-a77078", "operator": "United States Postal Service", "operator:short": "USPS", "operator:type": "public", "operator:wikidata": "Q668687", "ref": "2598900000"}, "type": "Feature"}
{"geometry": {"coordinates": [-81.0762, 37.694127], "type": "Point"}, "id": "7S7VhNK4H90ymP4-T75uO3ovfRc=", "properties": {"@source_uri": "https://tools.usps.com/UspsToolsRestServices/rest/POLocator/findLocations", "@spider": "usps_collection_boxes", "addr:city": "WHITE OAK", "addr:country": "US", "addr:postcode": "25989", "addr:state": "WV", "addr:street_address": "809 HINTON RD", "amenity": "post_box", "brand": "United States Postal Service", "brand:wikidata": "Q668687", "collection_times": "Mo-Sa 11:45", "indoor": "yes", "nsi_id": "unitedstatespostalservice-a77078", "operator": "United States Postal Service", "operator:short": "USPS", "operator:type": "public", "operator:wikidata": "Q668687", "ref": "2598900001"}, "type": "Feature"}
{"geometry": {"coordinates": [-81.076221842, 37.694162697], "type": "Point"}, "id": "LzWtVtiMD97wuHgYbHZybSv0axY=", "properties": {"@source_uri": "https://tools.usps.com/UspsToolsRestServices/rest/POLocator/findLocations", "@spider": "usps_collection_boxes", "addr:city": "WHITE OAK", "addr:country": "US", "addr:postcode": "25989", "addr:state": "WV", "addr:street_address": "809 HINTON RD", "amenity": "post_box", "brand": "United States Postal Service", "brand:wikidata": "Q668687", "collection_times": "Mo-Fr 12:00; Sa 11:45", "indoor": "yes", "nsi_id": "unitedstatespostalservice-a77078", "operator": "United States Postal Service", "operator:short": "USPS", "operator:type": "public", "operator:wikidata": "Q668687", "ref": "2598900003"}, "type": "Feature"}
