{"dataset_attributes": {"@spider": "usps_collection_boxes", "spider:collection_time": "2023-12-28T08:25:01.581378"}, "geometry": {"coordinates": [-80.724850477, 40.055892715], "type": "Point"}, "id": "otiGUQ6tVEGS4l31yE4P8ZUj99Q=", "properties": {"@spider": "usps_collection_boxes", "addr:city": "WHEELING", "addr:country": "US", "addr:full": "2501 CHAPLINE ST", "addr:postcode": "26003", "addr:state": "WV", "amenity": "post_box", "brand": "United States Postal Service", "brand:wikidata": "Q668687", "collection_times": "Mo-Sa 18:00", "name": "USPS COLLECTION BOX - BLUE BOX", "note": "ON 12/24 AND 12/31, THIS BOX MAY BE COLLECTED AS EARLY AS 12 NOON.", "nsi_id": "unitedstatespostalservice-a77078", "operator": "United States Postal Service", "operator:short": "USPS", "operator:type": "public", "operator:wikidata": "Q668687", "ref": "2600300001"}, "type": "Feature"}
{"dataset_attributes": {"@spider": "usps_collection_boxes", "spider:collection_time": "2023-12-28T08:25:01.581378"}, "geometry": {"coordinates": [-80.7224537, 40.065729], "type": "Point"}, "id": "wJGJycueF4TnHeuMZfXbPKcb548=", "properties": {"@spider": "usps_collection_boxes", "addr:city": "WHEELING", "addr:country": "US", "addr:full": "1329 MARKET ST", "addr:postcode": "26003", "addr:state": "WV", "amenity": "post_box", "brand": "United States Postal Service", "brand:wikidata": "Q668687", "collection_times": "Mo-Fr 16:30; Sa 15:00", "name": "USPS COLLECTION BOX - BLUE BOX", "note": "ON 12/24 AND 12/31, THIS BOX MAY BE COLLECTED AS EARLY AS 12 NOON.", "nsi_id": "unitedstatespostalservice-a77078", "operator": "United States Postal Service", "operator:short": "USPS", "operator:type": "public", "operator:wikidata": "Q668687", "ref": "2600300006"}, "type": "Feature"}
{"dataset_attributes": {"@spider": "usps_collection_boxes", "spider:collection_time": "2023-12-28T08:25:01.581378"}, "geometry": {"coordinates": [-80.722768, 40.067247], "type": "Point"}, "id": "TQ_NcfMWpTwHDH2j-QZv4kMkWRk=", "properties": {"@spider": "usps_collection_boxes", "addr:city": "WHEELING", "addr:country": "US", "addr:full": "40 12TH ST", "addr:postcode": "26003", "addr:state": "WV", "amenity": "post_box", "brand": "United States Postal Service", "brand:wikidata": "Q668687", "collection_times": "Mo-Fr 16:30; Sa 15:00", "name": "USPS COLLECTION BOX - BLUE BOX", "note": "ON 12/24 AND 12/31, THIS BOX MAY BE COLLECTED AS EARLY AS 12 NOON.", "nsi_id": "unitedstatespostalservice-a77078", "operator": "United States Postal Service", "operator:short": "USPS", "operator:type": "public", "operator:wikidata": "Q668687", "ref": "2600300009"}, "type": "Feature"}
{"dataset_attributes": {"@spider": "usps_collection_boxes", "spider:collection_time": "2023-12-28T08:25:01.581378"}, "geometry": {"coordinates": [-80.7228526, 40.069102], "type": "Point"}, "id": "yc8T1CeVKGNOfjf60UBOdSSbTfI=", "properties": {"@spider": "usps_collection_boxes", "addr:city": "WHEELING", "addr:country": "US", "addr:full": "1056 MARKET ST", "addr:postcode": "26003", "addr:state": "WV", "amenity": "post_box", "brand": "United States Postal Service", "brand:wikidata": "Q668687", "collection_times": "Mo-Fr 16:30; Sa 15:00", "name": "USPS COLLECTION BOX - BLUE BOX", "note": "ON 12/24 AND 12/31, THIS BOX MAY BE COLLECTED AS EARLY AS 12 NOON.", "nsi_id": "unitedstatespostalservice-a77078", "operator": "United States Postal Service", "operator:short": "USPS", "operator:type": "public", "operator:wikidata": "Q668687", "ref": "2600300012"}, "type": "Feature"}
{"dataset_attributes": {"@spider": "usps_collection_boxes", "spider:collection_time": "2023-12-28T08:25:01.581378"}, "geometry": {"coordinates": [-80.7240912, 40.069732], "type": "Point"}, "id": "rED-Po7CQFkScVznpTEvUAJ9cWg=", "properties": {"@spider": "usps_collection_boxes", "addr:city": "WHEELING", "addr:country": "US", "addr:full": "1025 MAIN ST", "addr:postcode": "26003", "addr:state": "WV", "amenity": "post_box", "brand": "United States Postal Service", "brand:wikidata": "Q668687", "collection_times": "Mo-Fr 16:30; Sa 15:00", "name": "USPS COLLECTION BOX - BLUE BOX", "note": "ON 12/24 AND 12/31, THIS BOX MAY BE COLLECTED AS EARLY AS 12 NOON.", "nsi_id": "unitedstatespostalservice-a77078", "operator": "United States Postal Service", "operator:short": "USPS", "operator:type": "public", "operator:wikidata": "Q668687", "ref": "2600300015"}, "type": "Feature"}
{"dataset_attributes": {"@spider": "usps_collection_boxes", "spider:collection_time": "2023-12-28T08:25:01.581378"}, "geometry": {"coordinates": [-80.723737, 40.067288], "type": "Point"}, "id": "qtW00xridUKR9BgXBJPJ-mqbHlk=", "properties": {"@spider": "usps_collection_boxes", "addr:city": "WHEELING", "addr:country": "US", "addr:full": "25 12TH ST", "addr:postcode": "26003", "addr:state": "WV", "amenity": "post_box", "brand": "United States Postal Service", "brand:wikidata": "Q668687", "collection_times": "Mo-Fr 16:30; Sa 15:00", "name": "USPS COLLECTION BOX - BLUE BOX", "note": "ON 12/24 AND 12/31, THIS BOX MAY BE COLLECTED AS EARLY AS 12 NOON.", "nsi_id": "unitedstatespostalservice-a77078", "operator": "United States Postal Service", "operator:short": "USPS", "operator:type": "public", "operator:wikidata": "Q668687", "ref": "2600300019"}, "type": "Feature"}
{"dataset_attributes": {"@spider": "usps_collection_boxes", "spider:collection_time": "2023-12-28T08:25:01.581378"}, "geometry": {"coordinates": [-80.7228046, 40.061835], "type": "Point"}, "id": "N0iuGXKMDlptqQOTBCqlWNAyvJE=", "properties": {"@spider": "usps_collection_boxes", "addr:city": "WHEELING", "addr:country": "US", "addr:full": "32 20TH ST", "addr:postcode": "26003", "addr:state": "WV", "amenity": "post_box", "brand": "United States Postal Service", "brand:wikidata": "Q668687", "collection_times": "Mo-Fr 16:30; Sa 15:00", "name": "USPS COLLECTION BOX - BLUE BOX", "note": "ON 12/24 AND 12/31, THIS BOX MAY BE COLLECTED AS EARLY AS 12 NOON.", "nsi_id": "unitedstatespostalservice-a77078", "operator": "United States Postal Service", "operator:short": "USPS", "operator:type": "public", "operator:wikidata": "Q668687", "ref": "2600300021"}, "type": "Feature"}
{"dataset_attributes": {"@spider": "usps_collection_boxes", "spider:collection_time": "2023-12-28T08:25:01.581378"}, "geometry": {"coordinates": [-80.7199666, 40.065847], "type": "Point"}, "id": "sQyzD9vBTq-w_tArgNbir8xx7n4=", "properties": {"@spider": "usps_collection_boxes", "addr:city": "WHEELING", "addr:country": "US", "addr:full": "61 14TH ST", "addr:postcode": "26003", "addr:state": "WV", "amenity": "post_box", "brand": "United States Postal Service", "brand:wikidata": "Q668687", "collection_times": "Mo-Fr 17:00; Sa 15:00", "name": "USPS COLLECTION BOX - BLUE BOX", "note": "ON 12/24 AND 12/31, THIS BOX MAY BE COLLECTED AS EARLY AS 12 NOON.", "nsi_id": "unitedstatespostalservice-a77078", "operator": "United States Postal Service", "operator:short": "USPS", "operator:type": "public", "operator:wikidata": "Q668687", "ref": "2600300025"}, "type": "Feature"}
{"dataset_attributes": {"@spider": "usps_collection_boxes", "spider:collection_time": "2023-12-28T08:25:01.581378"}, "geometry": {"coordinates": [-80.7216274, 40.06888], "type": "Point"}, "id": "0JAW3c1VE0BRHareahc08AlqmHU=", "properties": {"@spider": "usps_collection_boxes", "addr:city": "WHEELING", "addr:country": "US", "addr:full": "51 11TH ST", "addr:postcode": "26003", "addr:state": "WV", "amenity": "post_box", "brand": "United States Postal Service", "brand:wikidata": "Q668687", "collection_times": "Mo-Fr 16:30; Sa 15:00", "name": "USPS COLLECTION BOX - BLUE BOX", "note": "ON 12/24 AND 12/31, THIS BOX MAY BE COLLECTED AS EARLY AS 12 NOON.", "nsi_id": "unitedstatespostalservice-a77078", "operator": "United States Postal Service", "operator:short": "USPS", "operator:type": "public", "operator:wikidata": "Q668687", "ref": "2600300029"}, "type": "Feature"}
{"dataset_attributes": {"@spider": "usps_collection_boxes", "spider:collection_time": "2023-12-28T08:25:01.581378"}, "geometry": {"coordinates": [-80.7257724, 40.080041], "type": "Point"}, "id": "YTLD3sEmQmv-1O9T2t2CW1n2XTw=", "properties": {"@spider": "usps_collection_boxes", "addr:city": "WHEELING", "addr:country": "US", "addr:full": "401 MAIN ST", "addr:postcode": "26003", "addr:state": "WV", "amenity": "post_box", "brand": "United States Postal Service", "brand:wikidata": "Q668687", "collection_times": "Mo-Fr 17:00; Sa 15:00", "name": "USPS COLLECTION BOX - BLUE BOX", "note": "ON 12/24 AND 12/31, THIS BOX MAY BE COLLECTED AS EARLY AS 12 NOON.", "nsi_id": "unitedstatespostalservice-a77078", "operator": "United States Postal Service", "operator:short": "USPS", "operator:type": "public", "operator:wikidata": "Q668687", "ref": "2600300048"}, "type": "Feature"}
{"dataset_attributes": {"@spider": "usps_collection_boxes", "spider:collection_time": "2023-12-28T08:25:01.581378"}, "geometry": {"coordinates": [-80.690741, 40.077939], "type": "Point"}, "id": "0k_8aJbfyAnwrlDeDykRb1Q8y-4=", "properties": {"@spider": "usps_collection_boxes", "addr:city": "WHEELING", "addr:country": "US", "addr:full": "957 NATIONAL RD", "addr:postcode": "26003", "addr:state": "WV", "amenity": "post_box", "brand": "United States Postal Service", "brand:wikidata": "Q668687", "collection_times": "Mo-Fr 16:30; Sa 16:00", "name": "USPS COLLECTION BOX - BLUE BOX", "note": "ON 12/24 AND 12/31, THIS BOX MAY BE COLLECTED AS EARLY AS 12 NOON.", "nsi_id": "unitedstatespostalservice-a77078", "operator": "United States Postal Service", "operator:short": "USPS", "operator:type": "public", "operator:wikidata": "Q668687", "ref": "2600300054"}, "type": "Feature"}
{"dataset_attributes": {"@spider": "usps_collection_boxes", "spider:collection_time": "2023-12-28T08:25:01.581378"}, "geometry": {"coordinates": [-80.6992403, 40.114526], "type": "Point"}, "id": "Hw3IxcDnbSYilcgsd5zqt9dYZ7A=", "properties": {"@spider": "usps_collection_boxes", "addr:city": "WHEELING", "addr:country": "US", "addr:full": "1233 WARWOOD AVE", "addr:postcode": "26003", "addr:state": "WV", "amenity": "post_box", "brand": "United States Postal Service", "brand:wikidata": "Q668687", "collection_times": "Mo-Fr 17:00; Sa 15:00", "name": "USPS COLLECTION BOX - BLUE BOX", "note": "ON 12/24 AND 12/31, THIS BOX MAY BE COLLECTED AS EARLY AS 12 NOON.", "nsi_id": "unitedstatespostalservice-a77078", "operator": "United States Postal Service", "operator:short": "USPS", "operator:type": "public", "operator:wikidata": "Q668687", "ref": "2600300061"}, "type": "Feature"}
{"dataset_attributes": {"@spider": "usps_collection_boxes", "spider:collection_time": "2023-12-28T08:25:01.581378"}, "geometry": {"coordinates": [-80.6984814, 40.109928], "type": "Point"}, "id": "13p6GqJfwBtdWmvNPYCVz1SLBag=", "properties": {"@spider": "usps_collection_boxes", "addr:city": "WHEELING", "addr:country": "US", "addr:full": "605 WARWOOD AVE", "addr:postcode": "26003", "addr:state": "WV", "amenity": "post_box", "brand": "United States Postal Service", "brand:wikidata": "Q668687", "collection_times": "Mo-Fr 17:00; Sa 15:00", "name": "USPS COLLECTION BOX - BLUE BOX", "note": "ON 12/24 AND 12/31, THIS BOX MAY BE COLLECTED AS EARLY AS 12 NOON.", "nsi_id": "unitedstatespostalservice-a77078", "operator": "United States Postal Service", "operator:short": "USPS", "operator:type": "public", "operator:wikidata": "Q668687", "ref": "2600300064"}, "type": "Feature"}
{"dataset_attributes": {"@spider": "usps_collection_boxes", "spider:collection_time": "2023-12-28T08:25:01.581378"}, "geometry": {"coordinates": [-80.6911525, 40.070947], "type": "Point"}, "id": "XkQdULodZ_vQ-0anCyc6DtVwJAw=", "properties": {"@spider": "usps_collection_boxes", "addr:city": "WHEELING", "addr:country": "US", "addr:full": "316 WASHINGTON AVE", "addr:postcode": "26003", "addr:state": "WV", "amenity": "post_box", "brand": "United States Postal Service", "brand:wikidata": "Q668687", "collection_times": "Mo-Fr 16:30; Sa 16:00", "name": "USPS COLLECTION BOX - BLUE BOX", "note": "ON 12/24 AND 12/31, THIS BOX MAY BE COLLECTED AS EARLY AS 12 NOON.", "nsi_id": "unitedstatespostalservice-a77078", "operator": "United States Postal Service", "operator:short": "USPS", "operator:type": "public", "operator:wikidata": "Q668687", "ref": "2600300075"}, "type": "Feature"}
{"dataset_attributes": {"@spider": "usps_collection_boxes", "spider:collection_time": "2023-12-28T08:25:01.581378"}, "geometry": {"coordinates": [-80.6848499, 40.06108], "type": "Point"}, "id": "1aiZn9Z7dC2tTCirGnLiz3vdMS4=", "properties": {"@spider": "usps_collection_boxes", "addr:city": "WHEELING", "addr:country": "US", "addr:full": "236 HULLIHEN PL", "addr:postcode": "26003", "addr:state": "WV", "amenity": "post_box", "brand": "United States Postal Service", "brand:wikidata": "Q668687", "collection_times": "Mo-Fr 16:30; Sa 16:00", "name": "USPS COLLECTION BOX - BLUE BOX", "note": "ON 12/24 AND 12/31, THIS BOX MAY BE COLLECTED AS EARLY AS 12 NOON.", "nsi_id": "unitedstatespostalservice-a77078", "operator": "United States Postal Service", "operator:short": "USPS", "operator:type": "public", "operator:wikidata": "Q668687", "ref": "2600300077"}, "type": "Feature"}
{"dataset_attributes": {"@spider": "usps_collection_boxes", "spider:collection_time": "2023-12-28T08:25:01.581378"}, "geometry": {"coordinates": [-80.684873034, 40.070792991], "type": "Point"}, "id": "S_-VLHgZwl50IT6yAn8-mUgNCD8=", "properties": {"@spider": "usps_collection_boxes", "addr:city": "WHEELING", "addr:country": "US", "addr:full": "37 WASHINGTON AVE", "addr:postcode": "26003", "addr:state": "WV", "amenity": "post_box", "brand": "United States Postal Service", "brand:wikidata": "Q668687", "collection_times": "Mo-Fr 16:30; Sa 16:00", "name": "USPS COLLECTION BOX - BLUE BOX", "note": "ON 12/24 AND 12/31, THIS BOX MAY BE COLLECTED AS EARLY AS 12 NOON.", "nsi_id": "unitedstatespostalservice-a77078", "operator": "United States Postal Service", "operator:short": "USPS", "operator:type": "public", "operator:wikidata": "Q668687", "ref": "2600300082"}, "type": "Feature"}
{"dataset_attributes": {"@spider": "usps_collection_boxes", "spider:collection_time": "2023-12-28T08:25:01.581378"}, "geometry": {"coordinates": [-80.6496865, 40.047804], "type": "Point"}, "id": "6haSiamjuxS9ilM_uZscZxr_noE=", "properties": {"@spider": "usps_collection_boxes", "addr:city": "WHEELING", "addr:country": "US", "addr:full": "2485 NATIONAL RD", "addr:postcode": "26003", "addr:state": "WV", "amenity": "post_box", "brand": "United States Postal Service", "brand:wikidata": "Q668687", "collection_times": "Mo-Fr 15:00; Sa 16:00", "name": "USPS COLLECTION BOX - BLUE BOX", "note": "ON 12/24 AND 12/31, THIS BOX MAY BE COLLECTED AS EARLY AS 12 NOON.", "nsi_id": "unitedstatespostalservice-a77078", "operator": "United States Postal Service", "operator:short": "USPS", "operator:type": "public", "operator:wikidata": "Q668687", "ref": "2600300092"}, "type": "Feature"}
{"dataset_attributes": {"@spider": "usps_collection_boxes", "spider:collection_time": "2023-12-28T08:25:01.581378"}, "geometry": {"coordinates": [-80.6648307, 40.035311], "type": "Point"}, "id": "g3wWYFJ055MrD-o1NHpmGe3ZvVg=", "properties": {"@spider": "usps_collection_boxes", "addr:city": "WHEELING", "addr:country": "US", "addr:full": "30 ELM LN", "addr:postcode": "26003", "addr:state": "WV", "amenity": "post_box", "brand": "United States Postal Service", "brand:wikidata": "Q668687", "collection_times": "Mo-Fr 15:00; Sa 16:30", "name": "USPS COLLECTION BOX - BLUE BOX", "note": "ON 12/24 AND 12/31, THIS BOX MAY BE COLLECTED AS EARLY AS 12 NOON.", "nsi_id": "unitedstatespostalservice-a77078", "operator": "United States Postal Service", "operator:short": "USPS", "operator:type": "public", "operator:wikidata": "Q668687", "ref": "2600300106"}, "type": "Feature"}
{"dataset_attributes": {"@spider": "usps_collection_boxes", "spider:collection_time": "2023-12-28T08:25:01.581378"}, "geometry": {"coordinates": [-80.6620336, 40.042249], "type": "Point"}, "id": "zfEcZEiRTqk6a44b8-LNj5twpyQ=", "properties": {"@spider": "usps_collection_boxes", "addr:city": "WHEELING", "addr:country": "US", "addr:full": "87 BRIDGE STREET PLZ", "addr:postcode": "26003", "addr:state": "WV", "amenity": "post_box", "brand": "United States Postal Service", "brand:wikidata": "Q668687", "collection_times": "Mo-Fr 15:00; Sa 16:30", "name": "USPS COLLECTION BOX - BLUE BOX", "note": "ON 12/24 AND 12/31, THIS BOX MAY BE COLLECTED AS EARLY AS 12 NOON.", "nsi_id": "unitedstatespostalservice-a77078", "operator": "United States Postal Service", "operator:short": "USPS", "operator:type": "public", "operator:wikidata": "Q668687", "ref": "2600300107"}, "type": "Feature"}
{"dataset_attributes": {"@spider": "usps_collection_boxes", "spider:collection_time": "2023-12-28T08:25:01.581378"}, "geometry": {"coordinates": [-80.659149241, 40.044329348], "type": "Point"}, "id": "RSbbUZbnOJWnHgzAq239CWwu1LI=", "properties": {"@spider": "usps_collection_boxes", "addr:city": "WHEELING", "addr:country": "US", "addr:full": "2209 NATIONAL RD", "addr:postcode": "26003", "addr:state": "WV", "amenity": "post_box", "brand": "United States Postal Service", "brand:wikidata": "Q668687", "collection_times": "Mo-Fr 17:00; Sa 16:30", "name": "USPS COLLECTION BOX - BLUE BOX", "note": "ON 12/24 AND 12/31, THIS BOX MAY BE COLLECTED AS EARLY AS 12 NOON.", "nsi_id": "unitedstatespostalservice-a77078", "operator": "United States Postal Service", "operator:short": "USPS", "operator:type": "public", "operator:wikidata": "Q668687", "ref": "2600300108"}, "type": "Feature"}
{"dataset_attributes": {"@spider": "usps_collection_boxes", "spider:collection_time": "2023-12-28T08:25:01.581378"}, "geometry": {"coordinates": [-80.6908514, 40.044564], "type": "Point"}, "id": "hCP4M6GXasWqcql8SuOaOih0zCE=", "properties": {"@spider": "usps_collection_boxes", "addr:city": "WHEELING", "addr:country": "US", "addr:full": "7 CHAPEL RD", "addr:postcode": "26003", "addr:state": "WV", "amenity": "post_box", "brand": "United States Postal Service", "brand:wikidata": "Q668687", "collection_times": "Mo-Fr 15:00; Sa 16:30", "name": "USPS COLLECTION BOX - BLUE BOX", "note": "ON 12/24 AND 12/31, THIS BOX MAY BE COLLECTED AS EARLY AS 12 NOON.", "nsi_id": "unitedstatespostalservice-a77078", "operator": "United States Postal Service", "operator:short": "USPS", "operator:type": "public", "operator:wikidata": "Q668687", "ref": "2600300137"}, "type": "Feature"}
{"dataset_attributes": {"@spider": "usps_collection_boxes", "spider:collection_time": "2023-12-28T08:25:01.581378"}, "geometry": {"coordinates": [-80.721583305, 40.06840343], "type": "Point"}, "id": "GLPyASC95XicfAWirMUz_AJ_WGg=", "properties": {"@spider": "usps_collection_boxes", "addr:city": "WHEELING", "addr:country": "US", "addr:full": "1125 CHAPLINE ST", "addr:postcode": "26003", "addr:state": "WV", "amenity": "post_box", "brand": "United States Postal Service", "brand:wikidata": "Q668687", "collection_times": "Mo-Fr 17:00; Sa 15:00", "name": "USPS COLLECTION BOX - BLUE BOX", "note": "ON 12/24 AND 12/31, THIS BOX MAY BE COLLECTED AS EARLY AS 12 NOON.", "nsi_id": "unitedstatespostalservice-a77078", "operator": "United States Postal Service", "operator:short": "USPS", "operator:type": "public", "operator:wikidata": "Q668687", "ref": "2600300152"}, "type": "Feature"}
{"dataset_attributes": {"@spider": "usps_collection_boxes", "spider:collection_time": "2023-12-28T08:25:01.581378"}, "geometry": {"coordinates": [-80.6986861, 40.109901], "type": "Point"}, "id": "WN-qyxGaSNaO7S7BAFHLzloXulo=", "properties": {"@spider": "usps_collection_boxes", "addr:city": "WHEELING", "addr:country": "US", "addr:full": "605 WARWOOD AVE LBBY", "addr:postcode": "26003", "addr:state": "WV", "amenity": "post_box", "brand": "United States Postal Service", "brand:wikidata": "Q668687", "collection_times": "Mo-Fr 17:00; Sa 14:30", "name": "USPS COLLECTION BOX - PO LOBBY", "note": "ON 12/24 AND 12/31, THIS BOX MAY BE COLLECTED AS EARLY AS 12 NOON.", "nsi_id": "unitedstatespostalservice-a77078", "operator": "United States Postal Service", "operator:short": "USPS", "operator:type": "public", "operator:wikidata": "Q668687", "ref": "2600300160"}, "type": "Feature"}
{"dataset_attributes": {"@spider": "usps_collection_boxes", "spider:collection_time": "2023-12-28T08:25:01.581378"}, "geometry": {"coordinates": [-80.721779978, 40.068020006], "type": "Point"}, "id": "VPI4BuC0GPBHD3n3A1zgokkTEAg=", "properties": {"@spider": "usps_collection_boxes", "addr:city": "WHEELING", "addr:country": "US", "addr:full": "1125 CHAPLINE ST LBBY", "addr:postcode": "26003", "addr:state": "WV", "amenity": "post_box", "brand": "United States Postal Service", "brand:wikidata": "Q668687", "collection_times": "Mo-Fr 17:00", "name": "USPS COLLECTION BOX - PO LOBBY", "note": "ON 12/24 AND 12/31, THIS BOX MAY BE COLLECTED AS EARLY AS 12 NOON.", "nsi_id": "unitedstatespostalservice-a77078", "operator": "United States Postal Service", "operator:short": "USPS", "operator:type": "public", "operator:wikidata": "Q668687", "ref": "2600300161"}, "type": "Feature"}
{"dataset_attributes": {"@spider": "usps_collection_boxes", "spider:collection_time": "2023-12-28T08:25:01.581378"}, "geometry": {"coordinates": [-80.659177, 40.044316], "type": "Point"}, "id": "kJr042SjleX5WOcZp_pSKqxlHzI=", "properties": {"@spider": "usps_collection_boxes", "addr:city": "WHEELING", "addr:country": "US", "addr:full": "2209 NATIONAL RD LBBY", "addr:postcode": "26003", "addr:state": "WV", "amenity": "post_box", "brand": "United States Postal Service", "brand:wikidata": "Q668687", "collection_times": "Mo-Fr 17:00; Sa 13:15", "name": "USPS COLLECTION BOX - PO LOBBY", "note": "ON 12/24 AND 12/31, THIS BOX MAY BE COLLECTED AS EARLY AS 12 NOON.", "nsi_id": "unitedstatespostalservice-a77078", "operator": "United States Postal Service", "operator:short": "USPS", "operator:type": "public", "operator:wikidata": "Q668687", "ref": "2600300162"}, "type": "Feature"}
{"dataset_attributes": {"@spider": "usps_collection_boxes", "spider:collection_time": "2023-12-28T08:25:01.581378"}, "geometry": {"coordinates": [-80.7251442, 40.05642], "type": "Point"}, "id": "adWxNu2qimaXWJZmZ61TuV9l0n0=", "properties": {"@spider": "usps_collection_boxes", "addr:city": "WHEELING", "addr:country": "US", "addr:full": "2501 CHAPLINE ST LBBY", "addr:postcode": "26003", "addr:state": "WV", "amenity": "post_box", "brand": "United States Postal Service", "brand:wikidata": "Q668687", "collection_times": "Mo-Sa 18:00", "name": "USPS COLLECTION BOX - PO LOBBY", "note": "ON 12/24 AND 12/31, THIS BOX MAY BE COLLECTED AS EARLY AS 12 NOON.", "nsi_id": "unitedstatespostalservice-a77078", "operator": "United States Postal Service", "operator:short": "USPS", "operator:type": "public", "operator:wikidata": "Q668687", "ref": "2600300163"}, "type": "Feature"}
{"dataset_attributes": {"@spider": "usps_collection_boxes", "spider:collection_time": "2023-12-28T08:25:01.581378"}, "geometry": {"coordinates": [-80.6994529, 40.074049], "type": "Point"}, "id": "la7Y5UOumrC6P4VB_CDW3RyyY8o=", "properties": {"@spider": "usps_collection_boxes", "addr:city": "WHEELING", "addr:country": "US", "addr:full": "200 MOUNT DE CHANTAL RD", "addr:postcode": "26003", "addr:state": "WV", "amenity": "post_box", "brand": "United States Postal Service", "brand:wikidata": "Q668687", "collection_times": "Mo-Fr 17:00; Sa 16:00", "name": "USPS COLLECTION BOX - BLUE BOX", "note": "ON 12/24 AND 12/31, THIS BOX MAY BE COLLECTED AS EARLY AS 12 NOON.", "nsi_id": "unitedstatespostalservice-a77078", "operator": "United States Postal Service", "operator:short": "USPS", "operator:type": "public", "operator:wikidata": "Q668687", "ref": "2600300164"}, "type": "Feature"}
{"dataset_attributes": {"@spider": "usps_collection_boxes", "spider:collection_time": "2023-12-28T08:25:01.581378"}, "geometry": {"coordinates": [-80.7209538, 40.064725], "type": "Point"}, "id": "d_INNhI6uKVDDAkI82IiLTdG-Iw=", "properties": {"@spider": "usps_collection_boxes", "addr:city": "WHEELING", "addr:country": "US", "addr:full": "1500 CHAPLINE ST", "addr:postcode": "26003", "addr:state": "WV", "amenity": "post_box", "brand": "United States Postal Service", "brand:wikidata": "Q668687", "collection_times": "Mo-Sa 16:00", "name": "USPS COLLECTION BOX - BLUE BOX", "note": "ON 12/24 AND 12/31, THIS BOX MAY BE COLLECTED AS EARLY AS 12 NOON.", "nsi_id": "unitedstatespostalservice-a77078", "operator": "United States Postal Service", "operator:short": "USPS", "operator:type": "public", "operator:wikidata": "Q668687", "ref": "2600300172"}, "type": "Feature"}
{"dataset_attributes": {"@spider": "usps_collection_boxes", "spider:collection_time": "2023-12-28T08:25:01.581378"}, "geometry": {"coordinates": [-80.724850477, 40.055892715], "type": "Point"}, "id": "37lUNP2Kcl0MgDfYQq9nvp_Reik=", "properties": {"@spider": "usps_collection_boxes", "addr:city": "WHEELING", "addr:country": "US", "addr:full": "2501 CHAPLINE ST", "addr:postcode": "26003", "addr:state": "WV", "amenity": "post_box", "brand": "United States Postal Service", "brand:wikidata": "Q668687", "collection_times": "Mo-Fr 18:00; Sa 16:00", "name": "USPS COLLECTION BOX - PO LOBBY", "note": "ON 12/24 AND 12/31, THIS BOX MAY BE COLLECTED AS EARLY AS 12 NOON.", "nsi_id": "unitedstatespostalservice-a77078", "operator": "United States Postal Service", "operator:short": "USPS", "operator:type": "public", "operator:wikidata": "Q668687", "ref": "2600300177"}, "type": "Feature"}
{"dataset_attributes": {"@spider": "usps_collection_boxes", "spider:collection_time": "2023-12-28T08:25:01.581378"}, "geometry": {"coordinates": [-80.698463427, 40.1098100497], "type": "Point"}, "id": "KzhM8TQLv6F2P1IoxrkeaE2X13g=", "properties": {"@spider": "usps_collection_boxes", "addr:city": "WHEELING", "addr:country": "US", "addr:full": "605 WARWOOD AVE", "addr:postcode": "26003", "addr:state": "WV", "amenity": "post_box", "brand": "United States Postal Service", "brand:wikidata": "Q668687", "collection_times": "Mo-Fr 15:00", "name": "USPS COLLECTION BOX - PO LOBBY", "note": "ON 12/24 AND 12/31, THIS BOX MAY BE COLLECTED AS EARLY AS 12 NOON.", "nsi_id": "unitedstatespostalservice-a77078", "operator": "United States Postal Service", "operator:short": "USPS", "operator:type": "public", "operator:wikidata": "Q668687", "ref": "2600300178"}, "type": "Feature"}
{"dataset_attributes": {"@spider": "usps_collection_boxes", "spider:collection_time": "2023-12-28T08:25:01.581378"}, "geometry": {"coordinates": [-80.721779978, 40.068020006], "type": "Point"}, "id": "E1pJ7ZT0cGNc74Yw67DqPY7h_sI=", "properties": {"@spider": "usps_collection_boxes", "addr:city": "WHEELING", "addr:country": "US", "addr:full": "1125 CHAPLINE ST", "addr:postcode": "26003", "addr:state": "WV", "amenity": "post_box", "brand": "United States Postal Service", "brand:wikidata": "Q668687", "collection_times": "Mo-Fr 17:00", "name": "USPS COLLECTION BOX - PO LOBBY", "note": "ON 12/24 AND 12/31, THIS BOX MAY BE COLLECTED AS EARLY AS 12 NOON.", "nsi_id": "unitedstatespostalservice-a77078", "operator": "United States Postal Service", "operator:short": "USPS", "operator:type": "public", "operator:wikidata": "Q668687", "ref": "2600300179"}, "type": "Feature"}
{"dataset_attributes": {"@spider": "usps_collection_boxes", "spider:collection_time": "2023-12-28T08:25:01.581378"}, "geometry": {"coordinates": [-80.659149241, 40.044329348], "type": "Point"}, "id": "RdSj0zjaTrYrYwfk9p-VfqJjBhU=", "properties": {"@spider": "usps_collection_boxes", "addr:city": "WHEELING", "addr:country": "US", "addr:full": "2209 NATIONAL RD", "addr:postcode": "26003", "addr:state": "WV", "amenity": "post_box", "brand": "United States Postal Service", "brand:wikidata": "Q668687", "collection_times": "Mo-Fr 17:00; Sa 13:00", "name": "USPS COLLECTION BOX - PO LOBBY", "note": "ON 12/24 AND 12/31, THIS BOX MAY BE COLLECTED AS EARLY AS 12 NOON.", "nsi_id": "unitedstatespostalservice-a77078", "operator": "United States Postal Service", "operator:short": "USPS", "operator:type": "public", "operator:wikidata": "Q668687", "ref": "2600300180"}, "type": "Feature"}
{"dataset_attributes": {"@spider": "usps_collection_boxes", "spider:collection_time": "2023-12-28T08:25:01.581378"}, "geometry": {"coordinates": [-80.652510251, 40.226593265], "type": "Point"}, "id": "6CT1EYyeJ3j2lpeDEhHqvi0VQxo=", "properties": {"@spider": "usps_collection_boxes", "addr:city": "BEECH BOTTOM", "addr:country": "US", "addr:full": "15 3RD ST", "addr:postcode": "26030", "addr:state": "WV", "amenity": "post_box", "brand": "United States Postal Service", "brand:wikidata": "Q668687", "collection_times": "Mo-Fr 11:55; Sa 11:45", "name": "USPS COLLECTION BOX - BLUE BOX", "nsi_id": "unitedstatespostalservice-a77078", "operator": "United States Postal Service", "operator:short": "USPS", "operator:type": "public", "operator:wikidata": "Q668687", "ref": "2603000001"}, "type": "Feature"}
{"dataset_attributes": {"@spider": "usps_collection_boxes", "spider:collection_time": "2023-12-28T08:25:01.581378"}, "geometry": {"coordinates": [-80.652510251, 40.226593265], "type": "Point"}, "id": "HYwWy3lkN15uAJElHQDobvlnUgE=", "properties": {"@spider": "usps_collection_boxes", "addr:city": "BEECH BOTTOM", "addr:country": "US", "addr:full": "15 3RD ST", "addr:postcode": "26030", "addr:state": "WV", "amenity": "post_box", "brand": "United States Postal Service", "brand:wikidata": "Q668687", "collection_times": "Mo-Fr 11:55; Sa 11:45", "name": "USPS COLLECTION BOX - PO LOBBY", "nsi_id": "unitedstatespostalservice-a77078", "operator": "United States Postal Service", "operator:short": "USPS", "operator:type": "public", "operator:wikidata": "Q668687", "ref": "2603000002"}, "type": "Feature"}
{"dataset_attributes": {"@spider": "usps_collection_boxes", "spider:collection_time": "2023-12-28T08:25:01.581378"}, "geometry": {"coordinates": [-80.652510251, 40.226593265], "type": "Point"}, "id": "vRsVjLU2rb_EgOZSBUKq-FPOLGk=", "properties": {"@spider": "usps_collection_boxes", "addr:city": "BEECH BOTTOM", "addr:country": "US", "addr:full": "15 3RD ST", "addr:postcode": "26030", "addr:state": "WV", "amenity": "post_box", "brand": "United States Postal Service", "brand:wikidata": "Q668687", "collection_times": "Mo-Fr 11:55; Sa 11:45", "name": "USPS COLLECTION BOX - PO LOBBY", "nsi_id": "unitedstatespostalservice-a77078", "operator": "United States Postal Service", "operator:short": "USPS", "operator:type": "public", "operator:wikidata": "Q668687", "ref": "2603000003"}, "type": "Feature"}
{"dataset_attributes": {"@spider": "usps_collection_boxes", "spider:collection_time": "2023-12-28T08:25:01.581378"}, "geometry": {"coordinates": [-80.652510251, 40.226593265], "type": "Point"}, "id": "iVNJZtOKNLC2Atc46E1danTQblo=", "properties": {"@spider": "usps_collection_boxes", "addr:city": "BEECH BOTTOM", "addr:country": "US", "addr:full": "15 3RD ST", "addr:postcode": "26030", "addr:state": "WV", "amenity": "post_box", "brand": "United States Postal Service", "brand:wikidata": "Q668687", "collection_times": "Mo-Sa 11:55", "name": "USPS COLLECTION BOX - PO LOBBY", "nsi_id": "unitedstatespostalservice-a77078", "operator": "United States Postal Service", "operator:short": "USPS", "operator:type": "public", "operator:wikidata": "Q668687", "ref": "2603000005"}, "type": "Feature"}
{"dataset_attributes": {"@spider": "usps_collection_boxes", "spider:collection_time": "2023-12-28T08:25:01.581378"}, "geometry": {"coordinates": [-80.7275868, 40.029231], "type": "Point"}, "id": "vGGfx3kD6FJa5QAl196gZ_0NiYM=", "properties": {"@spider": "usps_collection_boxes", "addr:city": "BENWOOD", "addr:country": "US", "addr:full": "100 MARSHALL ST N", "addr:postcode": "26031", "addr:state": "WV", "amenity": "post_box", "brand": "United States Postal Service", "brand:wikidata": "Q668687", "collection_times": "Mo-Sa 13:45", "name": "USPS COLLECTION BOX - BLUE BOX", "note": "ON 12/24 AND 12/31, THIS BOX MAY BE COLLECTED AS EARLY AS 12 NOON.", "nsi_id": "unitedstatespostalservice-a77078", "operator": "United States Postal Service", "operator:short": "USPS", "operator:type": "public", "operator:wikidata": "Q668687", "ref": "2603100004"}, "type": "Feature"}
{"dataset_attributes": {"@spider": "usps_collection_boxes", "spider:collection_time": "2023-12-28T08:25:01.581378"}, "geometry": {"coordinates": [-80.7300434, 39.995584], "type": "Point"}, "id": "tjeWHT3Ra9uCS6AgNvZCR4Ln9ck=", "properties": {"@spider": "usps_collection_boxes", "addr:city": "BENWOOD", "addr:country": "US", "addr:full": "1 22ND ST", "addr:postcode": "26031", "addr:state": "WV", "amenity": "post_box", "brand": "United States Postal Service", "brand:wikidata": "Q668687", "collection_times": "Mo-Sa 10:45", "name": "USPS COLLECTION BOX - BLUE BOX", "nsi_id": "unitedstatespostalservice-a77078", "operator": "United States Postal Service", "operator:short": "USPS", "operator:type": "public", "operator:wikidata": "Q668687", "ref": "2603100006"}, "type": "Feature"}
{"dataset_attributes": {"@spider": "usps_collection_boxes", "spider:collection_time": "2023-12-28T08:25:01.581378"}, "geometry": {"coordinates": [-80.732946, 40.019444], "type": "Point"}, "id": "4bHOlYXh4fiYV--6-owW2RZLC_0=", "properties": {"@spider": "usps_collection_boxes", "addr:city": "BENWOOD", "addr:country": "US", "addr:full": "401 MCMECHEN ST", "addr:postcode": "26031", "addr:state": "WV", "amenity": "post_box", "brand": "United States Postal Service", "brand:wikidata": "Q668687", "collection_times": "Mo-Fr 16:20; Sa 12:00", "name": "USPS COLLECTION BOX - BLUE BOX", "note": "ON 12/24 AND 12/31, THIS BOX MAY BE COLLECTED AS EARLY AS 12 NOON.", "nsi_id": "unitedstatespostalservice-a77078", "operator": "United States Postal Service", "operator:short": "USPS", "operator:type": "public", "operator:wikidata": "Q668687", "ref": "2603100010"}, "type": "Feature"}
{"dataset_attributes": {"@spider": "usps_collection_boxes", "spider:collection_time": "2023-12-28T08:25:01.581378"}, "geometry": {"coordinates": [-80.732946, 40.019444], "type": "Point"}, "id": "vfMEUXzVbhjHLFfNRemxvl4xsQA=", "properties": {"@spider": "usps_collection_boxes", "addr:city": "BENWOOD", "addr:country": "US", "addr:full": "401 MCMECHEN ST LBBY", "addr:postcode": "26031", "addr:state": "WV", "amenity": "post_box", "brand": "United States Postal Service", "brand:wikidata": "Q668687", "collection_times": "Mo-Fr 16:20; Sa 12:00", "name": "USPS COLLECTION BOX - PO LOBBY", "note": "ON 12/24 AND 12/31, THIS BOX MAY BE COLLECTED AS EARLY AS 12 NOON.", "nsi_id": "unitedstatespostalservice-a77078", "operator": "United States Postal Service", "operator:short": "USPS", "operator:type": "public", "operator:wikidata": "Q668687", "ref": "2603100011"}, "type": "Feature"}
{"dataset_attributes": {"@spider": "usps_collection_boxes", "spider:collection_time": "2023-12-28T08:25:01.581378"}, "geometry": {"coordinates": [-80.7329611935, 40.0194839532], "type": "Point"}, "id": "PoDknorn7jLKIM7LhfcNIBEqfEI=", "properties": {"@spider": "usps_collection_boxes", "addr:city": "BENWOOD", "addr:country": "US", "addr:full": "401 MCMECHEN ST", "addr:postcode": "26031", "addr:state": "WV", "amenity": "post_box", "brand": "United States Postal Service", "brand:wikidata": "Q668687", "collection_times": "Mo-Fr 16:20; Sa 11:55", "name": "USPS COLLECTION BOX - PO LOBBY", "note": "ON 12/24 AND 12/31, THIS BOX MAY BE COLLECTED AS EARLY AS 12 NOON.", "nsi_id": "unitedstatespostalservice-a77078", "operator": "United States Postal Service", "operator:short": "USPS", "operator:type": "public", "operator:wikidata": "Q668687", "ref": "2603100013"}, "type": "Feature"}
{"dataset_attributes": {"@spider": "usps_collection_boxes", "spider:collection_time": "2023-12-28T08:25:01.581378"}, "geometry": {"coordinates": [-80.557062049, 40.206802007], "type": "Point"}, "id": "q5YRUSV2IPED4rWUeawmguwKSvw=", "properties": {"@spider": "usps_collection_boxes", "addr:city": "BETHANY", "addr:country": "US", "addr:full": "1 ROSS ST", "addr:postcode": "26032", "addr:state": "WV", "amenity": "post_box", "brand": "United States Postal Service", "brand:wikidata": "Q668687", "collection_times": "Mo-Fr 12:25; Sa 11:45", "name": "USPS COLLECTION BOX - BLUE BOX", "note": "ON 12/24 AND 12/31, THIS BOX MAY BE COLLECTED AS EARLY AS 12 NOON.", "nsi_id": "unitedstatespostalservice-a77078", "operator": "United States Postal Service", "operator:short": "USPS", "operator:type": "public", "operator:wikidata": "Q668687", "ref": "2603200001"}, "type": "Feature"}
{"dataset_attributes": {"@spider": "usps_collection_boxes", "spider:collection_time": "2023-12-28T08:25:01.581378"}, "geometry": {"coordinates": [-80.557062049, 40.206802007], "type": "Point"}, "id": "T9R4FFkpbnZR_FR14lj-vNsutAo=", "properties": {"@spider": "usps_collection_boxes", "addr:city": "BETHANY", "addr:country": "US", "addr:full": "1 ROSS ST", "addr:postcode": "26032", "addr:state": "WV", "amenity": "post_box", "brand": "United States Postal Service", "brand:wikidata": "Q668687", "collection_times": "Mo-Fr 12:25; Sa 11:45", "name": "USPS COLLECTION BOX - PO LOBBY", "note": "ON 12/24 AND 12/31, THIS BOX MAY BE COLLECTED AS EARLY AS 12 NOON.", "nsi_id": "unitedstatespostalservice-a77078", "operator": "United States Postal Service", "operator:short": "USPS", "operator:type": "public", "operator:wikidata": "Q668687", "ref": "2603200002"}, "type": "Feature"}
{"dataset_attributes": {"@spider": "usps_collection_boxes", "spider:collection_time": "2023-12-28T08:25:01.581378"}, "geometry": {"coordinates": [-80.557062049, 40.206802007], "type": "Point"}, "id": "N0SlMeEbH3Q83lsmVIqRdzINSv0=", "properties": {"@spider": "usps_collection_boxes", "addr:city": "BETHANY", "addr:country": "US", "addr:full": "1 ROSS ST", "addr:postcode": "26032", "addr:state": "WV", "amenity": "post_box", "brand": "United States Postal Service", "brand:wikidata": "Q668687", "collection_times": "Mo-Fr 12:25; Sa 11:45", "name": "USPS COLLECTION BOX - PO LOBBY", "note": "ON 12/24 AND 12/31, THIS BOX MAY BE COLLECTED AS EARLY AS 12 NOON.", "nsi_id": "unitedstatespostalservice-a77078", "operator": "United States Postal Service", "operator:short": "USPS", "operator:type": "public", "operator:wikidata": "Q668687", "ref": "2603200004"}, "type": "Feature"}
{"dataset_attributes": {"@spider": "usps_collection_boxes", "spider:collection_time": "2023-12-28T08:25:01.581378"}, "geometry": {"coordinates": [-80.57095, 39.825392], "type": "Point"}, "id": "sZSm1U6o9rrdOwi033UkovPA2i8=", "properties": {"@spider": "usps_collection_boxes", "addr:city": "CAMERON", "addr:country": "US", "addr:full": "73 HIGH ST", "addr:postcode": "26033", "addr:state": "WV", "amenity": "post_box", "brand": "United States Postal Service", "brand:wikidata": "Q668687", "collection_times": "Mo-Fr 16:45; Sa 16:00", "name": "USPS COLLECTION BOX - BLUE BOX", "note": "ON 12/24 AND 12/31, THIS BOX MAY BE COLLECTED AS EARLY AS 12 NOON.", "nsi_id": "unitedstatespostalservice-a77078", "operator": "United States Postal Service", "operator:short": "USPS", "operator:type": "public", "operator:wikidata": "Q668687", "ref": "2603300001"}, "type": "Feature"}
{"dataset_attributes": {"@spider": "usps_collection_boxes", "spider:collection_time": "2023-12-28T08:25:01.581378"}, "geometry": {"coordinates": [-80.5667527, 39.826989], "type": "Point"}, "id": "6Duhy0mkoLwqV_WXyipoGZUfNY4=", "properties": {"@spider": "usps_collection_boxes", "addr:city": "CAMERON", "addr:country": "US", "addr:full": "20 MAIN ST", "addr:postcode": "26033", "addr:state": "WV", "amenity": "post_box", "brand": "United States Postal Service", "brand:wikidata": "Q668687", "collection_times": "Mo-Sa 10:30", "name": "USPS COLLECTION BOX - BLUE BOX", "nsi_id": "unitedstatespostalservice-a77078", "operator": "United States Postal Service", "operator:short": "USPS", "operator:type": "public", "operator:wikidata": "Q668687", "ref": "2603300002"}, "type": "Feature"}
{"dataset_attributes": {"@spider": "usps_collection_boxes", "spider:collection_time": "2023-12-28T08:25:01.581378"}, "geometry": {"coordinates": [-80.5647747, 39.825264], "type": "Point"}, "id": "wokhqd2COJeqTJ122XevAgPApY8=", "properties": {"@spider": "usps_collection_boxes", "addr:city": "CAMERON", "addr:country": "US", "addr:full": "2 MAPLE AVE", "addr:postcode": "26033", "addr:state": "WV", "amenity": "post_box", "brand": "United States Postal Service", "brand:wikidata": "Q668687", "collection_times": "Mo-Sa 11:00", "name": "USPS COLLECTION BOX - BLUE BOX", "nsi_id": "unitedstatespostalservice-a77078", "operator": "United States Postal Service", "operator:short": "USPS", "operator:type": "public", "operator:wikidata": "Q668687", "ref": "2603300003"}, "type": "Feature"}
{"dataset_attributes": {"@spider": "usps_collection_boxes", "spider:collection_time": "2023-12-28T08:25:01.581378"}, "geometry": {"coordinates": [-80.57095, 39.825392], "type": "Point"}, "id": "8d0LHrIiMkNOFQtUn80-pf02AlA=", "properties": {"@spider": "usps_collection_boxes", "addr:city": "CAMERON", "addr:country": "US", "addr:full": "73 HIGH ST LBBY", "addr:postcode": "26033", "addr:state": "WV", "amenity": "post_box", "brand": "United States Postal Service", "brand:wikidata": "Q668687", "collection_times": "Mo-Fr 16:45; Sa 16:00", "name": "USPS COLLECTION BOX - PO LOBBY", "note": "ON 12/24 AND 12/31, THIS BOX MAY BE COLLECTED AS EARLY AS 12 NOON.", "nsi_id": "unitedstatespostalservice-a77078", "operator": "United States Postal Service", "operator:short": "USPS", "operator:type": "public", "operator:wikidata": "Q668687", "ref": "2603300004"}, "type": "Feature"}
{"dataset_attributes": {"@spider": "usps_collection_boxes", "spider:collection_time": "2023-12-28T08:25:01.581378"}, "geometry": {"coordinates": [-80.5713338608, 39.8253864668], "type": "Point"}, "id": "8H6XMq2IXrh-CZs0NiwUvQxKJCs=", "properties": {"@spider": "usps_collection_boxes", "addr:city": "CAMERON", "addr:country": "US", "addr:full": "73 HIGH ST", "addr:postcode": "26033", "addr:state": "WV", "amenity": "post_box", "brand": "United States Postal Service", "brand:wikidata": "Q668687", "collection_times": "Mo-Fr 16:30; Sa 12:00", "name": "USPS COLLECTION BOX - PO LOBBY", "note": "ON 12/24 AND 12/31, THIS BOX MAY BE COLLECTED AS EARLY AS 12 NOON.", "nsi_id": "unitedstatespostalservice-a77078", "operator": "United States Postal Service", "operator:short": "USPS", "operator:type": "public", "operator:wikidata": "Q668687", "ref": "2603300006"}, "type": "Feature"}
{"dataset_attributes": {"@spider": "usps_collection_boxes", "spider:collection_time": "2023-12-28T08:25:01.581378"}, "geometry": {"coordinates": [-80.56555873, 40.611351928], "type": "Point"}, "id": "30q_sRpdWRIlYOMu-M1TS9ZUzUM=", "properties": {"@spider": "usps_collection_boxes", "addr:city": "CHESTER", "addr:country": "US", "addr:full": "323 CAROLINA AVE", "addr:postcode": "26034", "addr:state": "PA", "amenity": "post_box", "brand": "United States Postal Service", "brand:wikidata": "Q668687", "collection_times": "Mo-Fr 16:30; Sa 15:30", "name": "USPS COLLECTION BOX - BLUE BOX", "note": "ON 12/24 AND 12/31, THIS BOX MAY BE COLLECTED AS EARLY AS 12 NOON.", "nsi_id": "unitedstatespostalservice-a77078", "operator": "United States Postal Service", "operator:short": "USPS", "operator:type": "public", "operator:wikidata": "Q668687", "ref": "2603400001"}, "type": "Feature"}
{"dataset_attributes": {"@spider": "usps_collection_boxes", "spider:collection_time": "2023-12-28T08:25:01.581378"}, "geometry": {"coordinates": [-80.5667535, 40.61067], "type": "Point"}, "id": "O0BcMECJeZE0RcJIFnvIM6dx_Vg=", "properties": {"@spider": "usps_collection_boxes", "addr:city": "CHESTER", "addr:country": "US", "addr:full": "253 CAROLINA AVE", "addr:postcode": "26034", "addr:state": "PA", "amenity": "post_box", "brand": "United States Postal Service", "brand:wikidata": "Q668687", "collection_times": "Mo-Fr 14:00; Sa 13:30", "name": "USPS COLLECTION BOX - BLUE BOX", "note": "ON 12/24 AND 12/31, THIS BOX MAY BE COLLECTED AS EARLY AS 12 NOON.", "nsi_id": "unitedstatespostalservice-a77078", "operator": "United States Postal Service", "operator:short": "USPS", "operator:type": "public", "operator:wikidata": "Q668687", "ref": "2603400002"}, "type": "Feature"}
{"dataset_attributes": {"@spider": "usps_collection_boxes", "spider:collection_time": "2023-12-28T08:25:01.581378"}, "geometry": {"coordinates": [-80.5731705, 40.60979], "type": "Point"}, "id": "HH6ra_Qvetz1b35EaEqNUw-D7Io=", "properties": {"@spider": "usps_collection_boxes", "addr:city": "CHESTER", "addr:country": "US", "addr:full": "12595 OHIO RIVER BLVD", "addr:postcode": "26034", "addr:state": "PA", "amenity": "post_box", "brand": "United States Postal Service", "brand:wikidata": "Q668687", "collection_times": "Mo-Sa 10:00", "name": "USPS COLLECTION BOX - BLUE BOX", "nsi_id": "unitedstatespostalservice-a77078", "operator": "United States Postal Service", "operator:short": "USPS", "operator:type": "public", "operator:wikidata": "Q668687", "ref": "2603400004"}, "type": "Feature"}
{"dataset_attributes": {"@spider": "usps_collection_boxes", "spider:collection_time": "2023-12-28T08:25:01.581378"}, "geometry": {"coordinates": [-80.5626415, 40.613175], "type": "Point"}, "id": "KdWHFKpPnBJ1spScoYOe6fGtHik=", "properties": {"@spider": "usps_collection_boxes", "addr:city": "CHESTER", "addr:country": "US", "addr:full": "449 CAROLINA AVE", "addr:postcode": "26034", "addr:state": "PA", "amenity": "post_box", "brand": "United States Postal Service", "brand:wikidata": "Q668687", "collection_times": "Mo-Fr 14:00; Sa 13:30", "name": "USPS COLLECTION BOX - BLUE BOX", "note": "ON 12/24 AND 12/31, THIS BOX MAY BE COLLECTED AS EARLY AS 12 NOON.", "nsi_id": "unitedstatespostalservice-a77078", "operator": "United States Postal Service", "operator:short": "USPS", "operator:type": "public", "operator:wikidata": "Q668687", "ref": "2603400009"}, "type": "Feature"}
{"dataset_attributes": {"@spider": "usps_collection_boxes", "spider:collection_time": "2023-12-28T08:25:01.581378"}, "geometry": {"coordinates": [-80.5582645, 40.615918], "type": "Point"}, "id": "oQqT6QXnFVNrvQmW9lpbP3F6KcA=", "properties": {"@spider": "usps_collection_boxes", "addr:city": "CHESTER", "addr:country": "US", "addr:full": "715 CAROLINA AVE", "addr:postcode": "26034", "addr:state": "PA", "amenity": "post_box", "brand": "United States Postal Service", "brand:wikidata": "Q668687", "collection_times": "Mo-Fr 14:00; Sa 13:30", "name": "USPS COLLECTION BOX - BLUE BOX", "note": "ON 12/24 AND 12/31, THIS BOX MAY BE COLLECTED AS EARLY AS 12 NOON.", "nsi_id": "unitedstatespostalservice-a77078", "operator": "United States Postal Service", "operator:short": "USPS", "operator:type": "public", "operator:wikidata": "Q668687", "ref": "2603400010"}, "type": "Feature"}
{"dataset_attributes": {"@spider": "usps_collection_boxes", "spider:collection_time": "2023-12-28T08:25:01.581378"}, "geometry": {"coordinates": [-80.565747, 40.611246], "type": "Point"}, "id": "KgA_zGettfWyMoVc7jNo3iDnyBc=", "properties": {"@spider": "usps_collection_boxes", "addr:city": "CHESTER", "addr:country": "US", "addr:full": "323 CAROLINA AVE - LOBBY", "addr:postcode": "26034", "addr:state": "PA", "amenity": "post_box", "brand": "United States Postal Service", "brand:wikidata": "Q668687", "collection_times": "Mo-Fr 16:30; Sa 15:30", "name": "USPS COLLECTION BOX - PO LOBBY", "note": "ON 12/24 AND 12/31, THIS BOX MAY BE COLLECTED AS EARLY AS 12 NOON.", "nsi_id": "unitedstatespostalservice-a77078", "operator": "United States Postal Service", "operator:short": "USPS", "operator:type": "public", "operator:wikidata": "Q668687", "ref": "2603400012"}, "type": "Feature"}
{"dataset_attributes": {"@spider": "usps_collection_boxes", "spider:collection_time": "2023-12-28T08:25:01.581378"}, "geometry": {"coordinates": [-80.56555873, 40.611351928], "type": "Point"}, "id": "_NP3hPJDBWMqYPT8Sa7IGFpaZpY=", "properties": {"@spider": "usps_collection_boxes", "addr:city": "CHESTER", "addr:country": "US", "addr:full": "323 CAROLINA AVE", "addr:postcode": "26034", "addr:state": "PA", "amenity": "post_box", "brand": "United States Postal Service", "brand:wikidata": "Q668687", "collection_times": "Mo-Fr 16:30; Sa 12:00", "name": "USPS COLLECTION BOX - PO LOBBY", "note": "ON 12/24 AND 12/31, THIS BOX MAY BE COLLECTED AS EARLY AS 12 NOON.", "nsi_id": "unitedstatespostalservice-a77078", "operator": "United States Postal Service", "operator:short": "USPS", "operator:type": "public", "operator:wikidata": "Q668687", "ref": "2603400014"}, "type": "Feature"}
{"dataset_attributes": {"@spider": "usps_collection_boxes", "spider:collection_time": "2023-12-28T08:25:01.581378"}, "geometry": {"coordinates": [-80.538285379, 40.366650443], "type": "Point"}, "id": "QTuGMAsY35w_4q_i7-ulBhOh3g0=", "properties": {"@spider": "usps_collection_boxes", "addr:city": "COLLIERS", "addr:country": "US", "addr:full": "327 PENNSYLVANIA AVE", "addr:postcode": "26035", "addr:state": "WV", "amenity": "post_box", "brand": "United States Postal Service", "brand:wikidata": "Q668687", "collection_times": "Mo-Fr 16:00; Sa 11:30", "name": "USPS COLLECTION BOX - BLUE BOX", "note": "ON 12/24 AND 12/31, THIS BOX MAY BE COLLECTED AS EARLY AS 12 NOON.", "nsi_id": "unitedstatespostalservice-a77078", "operator": "United States Postal Service", "operator:short": "USPS", "operator:type": "public", "operator:wikidata": "Q668687", "ref": "2603500001"}, "type": "Feature"}
{"dataset_attributes": {"@spider": "usps_collection_boxes", "spider:collection_time": "2023-12-28T08:25:01.581378"}, "geometry": {"coordinates": [-80.536464, 40.36623], "type": "Point"}, "id": "vak0pkR5D3yleraSGBwEn77c12M=", "properties": {"@spider": "usps_collection_boxes", "addr:city": "COLLIERS", "addr:country": "US", "addr:full": "327 PENNSYLVANIA AVE LBBY", "addr:postcode": "26035", "addr:state": "WV", "amenity": "post_box", "brand": "United States Postal Service", "brand:wikidata": "Q668687", "collection_times": "Mo-Fr 16:00; Sa 11:30", "name": "USPS COLLECTION BOX - PO LOBBY", "note": "ON 12/24 AND 12/31, THIS BOX MAY BE COLLECTED AS EARLY AS 12 NOON.", "nsi_id": "unitedstatespostalservice-a77078", "operator": "United States Postal Service", "operator:short": "USPS", "operator:type": "public", "operator:wikidata": "Q668687", "ref": "2603500002"}, "type": "Feature"}
{"dataset_attributes": {"@spider": "usps_collection_boxes", "spider:collection_time": "2023-12-28T08:25:01.581378"}, "geometry": {"coordinates": [-80.538285379, 40.366650443], "type": "Point"}, "id": "Ar6kVhYRwSGOyZ6_qc0e-ToplRg=", "properties": {"@spider": "usps_collection_boxes", "addr:city": "COLLIERS", "addr:country": "US", "addr:full": "327 PENNSYLVANIA AVE", "addr:postcode": "26035", "addr:state": "WV", "amenity": "post_box", "brand": "United States Postal Service", "brand:wikidata": "Q668687", "collection_times": "Mo-Fr 16:00; Sa 11:55", "name": "USPS COLLECTION BOX - PO LOBBY", "note": "ON 12/24 AND 12/31, THIS BOX MAY BE COLLECTED AS EARLY AS 12 NOON.", "nsi_id": "unitedstatespostalservice-a77078", "operator": "United States Postal Service", "operator:short": "USPS", "operator:type": "public", "operator:wikidata": "Q668687", "ref": "2603500004"}, "type": "Feature"}
{"dataset_attributes": {"@spider": "usps_collection_boxes", "spider:collection_time": "2023-12-28T08:25:01.581378"}, "geometry": {"coordinates": [-80.5280076, 40.0138462], "type": "Point"}, "id": "zYmjVqtEP6w8-LZDA3K8qg3H7EE=", "properties": {"@spider": "usps_collection_boxes", "addr:city": "DALLAS", "addr:country": "US", "addr:full": "9 MAIN ST", "addr:postcode": "26036", "addr:state": "WV", "amenity": "post_box", "brand": "United States Postal Service", "brand:wikidata": "Q668687", "collection_times": "Mo-Fr 10:50; Sa 12:15", "name": "USPS COLLECTION BOX - BLUE BOX", "note": "ON 12/24 AND 12/31, THIS BOX MAY BE COLLECTED AS EARLY AS 12 NOON.", "nsi_id": "unitedstatespostalservice-a77078", "operator": "United States Postal Service", "operator:short": "USPS", "operator:type": "public", "operator:wikidata": "Q668687", "ref": "2603600001"}, "type": "Feature"}
{"dataset_attributes": {"@spider": "usps_collection_boxes", "spider:collection_time": "2023-12-28T08:25:01.581378"}, "geometry": {"coordinates": [-80.55496, 40.01556], "type": "Point"}, "id": "EIuVzkvj9QSHtl_0OxSNeacdF_c=", "properties": {"@spider": "usps_collection_boxes", "addr:city": "DALLAS", "addr:country": "US", "addr:full": "9 MAIN ST LBBY", "addr:postcode": "26036", "addr:state": "WV", "amenity": "post_box", "brand": "United States Postal Service", "brand:wikidata": "Q668687", "collection_times": "Mo-Fr 10:50; Sa 12:15", "name": "USPS COLLECTION BOX - PO LOBBY", "note": "ON 12/24 AND 12/31, THIS BOX MAY BE COLLECTED AS EARLY AS 12 NOON.", "nsi_id": "unitedstatespostalservice-a77078", "operator": "United States Postal Service", "operator:short": "USPS", "operator:type": "public", "operator:wikidata": "Q668687", "ref": "2603600002"}, "type": "Feature"}
{"dataset_attributes": {"@spider": "usps_collection_boxes", "spider:collection_time": "2023-12-28T08:25:01.581378"}, "geometry": {"coordinates": [-80.5280076, 40.0138462], "type": "Point"}, "id": "NCZRgStdz9GMewNLdnyTSgEYqZs=", "properties": {"@spider": "usps_collection_boxes", "addr:city": "DALLAS", "addr:country": "US", "addr:full": "9 MAIN ST", "addr:postcode": "26036", "addr:state": "WV", "amenity": "post_box", "brand": "United States Postal Service", "brand:wikidata": "Q668687", "collection_times": "Mo-Fr 10:50; Sa 12:15", "name": "USPS COLLECTION BOX - PO LOBBY", "note": "ON 12/24 AND 12/31, THIS BOX MAY BE COLLECTED AS EARLY AS 12 NOON.", "nsi_id": "unitedstatespostalservice-a77078", "operator": "United States Postal Service", "operator:short": "USPS", "operator:type": "public", "operator:wikidata": "Q668687", "ref": "2603600004"}, "type": "Feature"}
{"dataset_attributes": {"@spider": "usps_collection_boxes", "spider:collection_time": "2023-12-28T08:25:01.581378"}, "geometry": {"coordinates": [-80.596235665, 40.329356888], "type": "Point"}, "id": "393FQetd_fOQgAbYsk5O6E9624g=", "properties": {"@spider": "usps_collection_boxes", "addr:city": "FOLLANSBEE", "addr:country": "US", "addr:full": "1005 MAIN ST", "addr:postcode": "26037", "addr:state": "WV", "amenity": "post_box", "brand": "United States Postal Service", "brand:wikidata": "Q668687", "collection_times": "Mo-Fr 17:00; Sa 15:30", "name": "USPS COLLECTION BOX - BLUE BOX", "note": "ON 12/24 AND 12/31, THIS BOX MAY BE COLLECTED AS EARLY AS 12 NOON.", "nsi_id": "unitedstatespostalservice-a77078", "operator": "United States Postal Service", "operator:short": "USPS", "operator:type": "public", "operator:wikidata": "Q668687", "ref": "2603700001"}, "type": "Feature"}
{"dataset_attributes": {"@spider": "usps_collection_boxes", "spider:collection_time": "2023-12-28T08:25:01.581378"}, "geometry": {"coordinates": [-80.5748762, 40.327685], "type": "Point"}, "id": "2pDoNOefKOsDuHTl9HMrUJya5zw=", "properties": {"@spider": "usps_collection_boxes", "addr:city": "FOLLANSBEE", "addr:country": "US", "addr:full": "2003 ELDERSVILLE RD", "addr:postcode": "26037", "addr:state": "WV", "amenity": "post_box", "brand": "United States Postal Service", "brand:wikidata": "Q668687", "collection_times": "Mo-Fr 14:30; Sa 14:00", "name": "USPS COLLECTION BOX - BLUE BOX", "note": "ON 12/24 AND 12/31, THIS BOX MAY BE COLLECTED AS EARLY AS 12 NOON.", "nsi_id": "unitedstatespostalservice-a77078", "operator": "United States Postal Service", "operator:short": "USPS", "operator:type": "public", "operator:wikidata": "Q668687", "ref": "2603700002"}, "type": "Feature"}
{"dataset_attributes": {"@spider": "usps_collection_boxes", "spider:collection_time": "2023-12-28T08:25:01.581378"}, "geometry": {"coordinates": [-80.5958321, 40.327542], "type": "Point"}, "id": "j5rlBrs6KqUuNTmbtLlsZ5eNWgg=", "properties": {"@spider": "usps_collection_boxes", "addr:city": "FOLLANSBEE", "addr:country": "US", "addr:full": "872 MAIN ST", "addr:postcode": "26037", "addr:state": "WV", "amenity": "post_box", "brand": "United States Postal Service", "brand:wikidata": "Q668687", "collection_times": "Mo-Fr 14:30; Sa 14:00", "name": "USPS COLLECTION BOX - BLUE BOX", "note": "ON 12/24 AND 12/31, THIS BOX MAY BE COLLECTED AS EARLY AS 12 NOON.", "nsi_id": "unitedstatespostalservice-a77078", "operator": "United States Postal Service", "operator:short": "USPS", "operator:type": "public", "operator:wikidata": "Q668687", "ref": "2603700003"}, "type": "Feature"}
{"dataset_attributes": {"@spider": "usps_collection_boxes", "spider:collection_time": "2023-12-28T08:25:01.581378"}, "geometry": {"coordinates": [-80.5956622, 40.33851], "type": "Point"}, "id": "ilND29dR9k9-s3AgE10mzvBfWSY=", "properties": {"@spider": "usps_collection_boxes", "addr:city": "FOLLANSBEE", "addr:country": "US", "addr:full": "1500 MAIN ST", "addr:postcode": "26037", "addr:state": "WV", "amenity": "post_box", "brand": "United States Postal Service", "brand:wikidata": "Q668687", "collection_times": "Mo-Sa 11:30", "name": "USPS COLLECTION BOX - BLUE BOX", "nsi_id": "unitedstatespostalservice-a77078", "operator": "United States Postal Service", "operator:short": "USPS", "operator:type": "public", "operator:wikidata": "Q668687", "ref": "2603700004"}, "type": "Feature"}
{"dataset_attributes": {"@spider": "usps_collection_boxes", "spider:collection_time": "2023-12-28T08:25:01.581378"}, "geometry": {"coordinates": [-80.596235665, 40.329356888], "type": "Point"}, "id": "gNLedDOSk-vehAb9TATPs4UeKjU=", "properties": {"@spider": "usps_collection_boxes", "addr:city": "FOLLANSBEE", "addr:country": "US", "addr:full": "1005 MAIN ST", "addr:postcode": "26037", "addr:state": "WV", "amenity": "post_box", "brand": "United States Postal Service", "brand:wikidata": "Q668687", "collection_times": "Mo-Fr 17:00; Sa 15:30", "name": "USPS COLLECTION BOX - PO LOBBY", "note": "ON 12/24 AND 12/31, THIS BOX MAY BE COLLECTED AS EARLY AS 12 NOON.", "nsi_id": "unitedstatespostalservice-a77078", "operator": "United States Postal Service", "operator:short": "USPS", "operator:type": "public", "operator:wikidata": "Q668687", "ref": "2603700005"}, "type": "Feature"}
{"dataset_attributes": {"@spider": "usps_collection_boxes", "spider:collection_time": "2023-12-28T08:25:01.581378"}, "geometry": {"coordinates": [-80.596235665, 40.329356888], "type": "Point"}, "id": "vjq4j9c6a1tsGnJ6ZN4cluQp25I=", "properties": {"@spider": "usps_collection_boxes", "addr:city": "FOLLANSBEE", "addr:country": "US", "addr:full": "1005 MAIN ST", "addr:postcode": "26037", "addr:state": "WV", "amenity": "post_box", "brand": "United States Postal Service", "brand:wikidata": "Q668687", "collection_times": "Mo-Fr 17:00; Sa 12:00", "name": "USPS COLLECTION BOX - PO LOBBY", "note": "ON 12/24 AND 12/31, THIS BOX MAY BE COLLECTED AS EARLY AS 12 NOON.", "nsi_id": "unitedstatespostalservice-a77078", "operator": "United States Postal Service", "operator:short": "USPS", "operator:type": "public", "operator:wikidata": "Q668687", "ref": "2603700009"}, "type": "Feature"}
{"dataset_attributes": {"@spider": "usps_collection_boxes", "spider:collection_time": "2023-12-28T08:25:01.581378"}, "geometry": {"coordinates": [-80.7541129, 39.953531], "type": "Point"}, "id": "_lMdjPyG0TIk7JOnXwEkDkYwRQM=", "properties": {"@spider": "usps_collection_boxes", "addr:city": "GLEN DALE", "addr:country": "US", "addr:full": "201 WHEELING AVE", "addr:postcode": "26038", "addr:state": "WV", "amenity": "post_box", "brand": "United States Postal Service", "brand:wikidata": "Q668687", "collection_times": "Mo-Sa 10:00", "name": "USPS COLLECTION BOX - BLUE BOX", "nsi_id": "unitedstatespostalservice-a77078", "operator": "United States Postal Service", "operator:short": "USPS", "operator:type": "public", "operator:wikidata": "Q668687", "ref": "2603800002"}, "type": "Feature"}
{"dataset_attributes": {"@spider": "usps_collection_boxes", "spider:collection_time": "2023-12-28T08:25:01.581378"}, "geometry": {"coordinates": [-80.7563816, 39.947985], "type": "Point"}, "id": "hUXO-v1J3_DkO5b60AcCnGvgmls=", "properties": {"@spider": "usps_collection_boxes", "addr:city": "GLEN DALE", "addr:country": "US", "addr:full": "701 TOMLINSON AVE", "addr:postcode": "26038", "addr:state": "WV", "amenity": "post_box", "brand": "United States Postal Service", "brand:wikidata": "Q668687", "collection_times": "Mo-Sa 12:00", "name": "USPS COLLECTION BOX - BLUE BOX", "nsi_id": "unitedstatespostalservice-a77078", "operator": "United States Postal Service", "operator:short": "USPS", "operator:type": "public", "operator:wikidata": "Q668687", "ref": "2603800003"}, "type": "Feature"}
{"dataset_attributes": {"@spider": "usps_collection_boxes", "spider:collection_time": "2023-12-28T08:25:01.581378"}, "geometry": {"coordinates": [-80.7566838, 39.943613], "type": "Point"}, "id": "YmFb_sgih1ZxkGjncfEymFBsiWY=", "properties": {"@spider": "usps_collection_boxes", "addr:city": "GLEN DALE", "addr:country": "US", "addr:full": "201 LEE ST", "addr:postcode": "26038", "addr:state": "WV", "amenity": "post_box", "brand": "United States Postal Service", "brand:wikidata": "Q668687", "collection_times": "Mo-Sa 10:15", "name": "USPS COLLECTION BOX - BLUE BOX", "nsi_id": "unitedstatespostalservice-a77078", "operator": "United States Postal Service", "operator:short": "USPS", "operator:type": "public", "operator:wikidata": "Q668687", "ref": "2603800004"}, "type": "Feature"}
{"dataset_attributes": {"@spider": "usps_collection_boxes", "spider:collection_time": "2023-12-28T08:25:01.581378"}, "geometry": {"coordinates": [-80.7546293, 39.941809], "type": "Point"}, "id": "ncAC66w0kD8DH9WmzIGHNSFWzfY=", "properties": {"@spider": "usps_collection_boxes", "addr:city": "GLEN DALE", "addr:country": "US", "addr:full": "1301 WHEELING AVE", "addr:postcode": "26038", "addr:state": "WV", "amenity": "post_box", "brand": "United States Postal Service", "brand:wikidata": "Q668687", "collection_times": "Mo-Sa 09:45", "name": "USPS COLLECTION BOX - BLUE BOX", "nsi_id": "unitedstatespostalservice-a77078", "operator": "United States Postal Service", "operator:short": "USPS", "operator:type": "public", "operator:wikidata": "Q668687", "ref": "2603800005"}, "type": "Feature"}
{"dataset_attributes": {"@spider": "usps_collection_boxes", "spider:collection_time": "2023-12-28T08:25:01.581378"}, "geometry": {"coordinates": [-80.7544794, 39.945607], "type": "Point"}, "id": "niUlScFo535eICRF3dpH8e3Yp6c=", "properties": {"@spider": "usps_collection_boxes", "addr:city": "GLEN DALE", "addr:country": "US", "addr:full": "901 WHEELING AVE", "addr:postcode": "26038", "addr:state": "WV", "amenity": "post_box", "brand": "United States Postal Service", "brand:wikidata": "Q668687", "collection_times": "Mo-Sa 11:15", "name": "USPS COLLECTION BOX - BLUE BOX", "nsi_id": "unitedstatespostalservice-a77078", "operator": "United States Postal Service", "operator:short": "USPS", "operator:type": "public", "operator:wikidata": "Q668687", "ref": "2603800006"}, "type": "Feature"}
{"dataset_attributes": {"@spider": "usps_collection_boxes", "spider:collection_time": "2023-12-28T08:25:01.581378"}, "geometry": {"coordinates": [-80.7525814, 39.949263], "type": "Point"}, "id": "MQHbuBYLjBRRVkN0n5bGQSGOc34=", "properties": {"@spider": "usps_collection_boxes", "addr:city": "GLEN DALE", "addr:country": "US", "addr:full": "600 WASHINGTON AVE", "addr:postcode": "26038", "addr:state": "WV", "amenity": "post_box", "brand": "United States Postal Service", "brand:wikidata": "Q668687", "collection_times": "Mo-Sa 08:30", "name": "USPS COLLECTION BOX - BLUE BOX", "nsi_id": "unitedstatespostalservice-a77078", "operator": "United States Postal Service", "operator:short": "USPS", "operator:type": "public", "operator:wikidata": "Q668687", "ref": "2603800007"}, "type": "Feature"}
{"dataset_attributes": {"@spider": "usps_collection_boxes", "spider:collection_time": "2023-12-28T08:25:01.581378"}, "geometry": {"coordinates": [-80.753174612, 39.951461496], "type": "Point"}, "id": "6Nt7gzrElGZaf5TUfX9NJoZQexw=", "properties": {"@spider": "usps_collection_boxes", "addr:city": "GLEN DALE", "addr:country": "US", "addr:full": "401 4TH ST", "addr:postcode": "26038", "addr:state": "WV", "amenity": "post_box", "brand": "United States Postal Service", "brand:wikidata": "Q668687", "collection_times": "Mo-Fr 16:00; Sa 11:45", "name": "USPS COLLECTION BOX - PO LOBBY", "note": "ON 12/24 AND 12/31, THIS BOX MAY BE COLLECTED AS EARLY AS 12 NOON.", "nsi_id": "unitedstatespostalservice-a77078", "operator": "United States Postal Service", "operator:short": "USPS", "operator:type": "public", "operator:wikidata": "Q668687", "ref": "2603800009"}, "type": "Feature"}
{"dataset_attributes": {"@spider": "usps_collection_boxes", "spider:collection_time": "2023-12-28T08:25:01.581378"}, "geometry": {"coordinates": [-80.753174612, 39.951461496], "type": "Point"}, "id": "-UDtvTeOP6pd9PZDbhPx_VMchbc=", "properties": {"@spider": "usps_collection_boxes", "addr:city": "GLEN DALE", "addr:country": "US", "addr:full": "401 4TH ST", "addr:postcode": "26038", "addr:state": "WV", "amenity": "post_box", "brand": "United States Postal Service", "brand:wikidata": "Q668687", "collection_times": "Mo-Fr 16:00; Sa 11:45", "name": "USPS COLLECTION BOX - BLUE BOX", "note": "ON 12/24 AND 12/31, THIS BOX MAY BE COLLECTED AS EARLY AS 12 NOON.", "nsi_id": "unitedstatespostalservice-a77078", "operator": "United States Postal Service", "operator:short": "USPS", "operator:type": "public", "operator:wikidata": "Q668687", "ref": "2603800010"}, "type": "Feature"}
{"dataset_attributes": {"@spider": "usps_collection_boxes", "spider:collection_time": "2023-12-28T08:25:01.581378"}, "geometry": {"coordinates": [-80.753174612, 39.951461496], "type": "Point"}, "id": "fAbq322NUVJB6OVW_7wDYei38xI=", "properties": {"@spider": "usps_collection_boxes", "addr:city": "GLEN DALE", "addr:country": "US", "addr:full": "401 4TH ST", "addr:postcode": "26038", "addr:state": "WV", "amenity": "post_box", "brand": "United States Postal Service", "brand:wikidata": "Q668687", "collection_times": "Mo-Fr 16:00; Sa 11:45", "name": "USPS COLLECTION BOX - PO LOBBY", "note": "ON 12/24 AND 12/31, THIS BOX MAY BE COLLECTED AS EARLY AS 12 NOON.", "nsi_id": "unitedstatespostalservice-a77078", "operator": "United States Postal Service", "operator:short": "USPS", "operator:type": "public", "operator:wikidata": "Q668687", "ref": "2603800012"}, "type": "Feature"}
{"dataset_attributes": {"@spider": "usps_collection_boxes", "spider:collection_time": "2023-12-28T08:25:01.581378"}, "geometry": {"coordinates": [-80.728958361, 39.989139989], "type": "Point"}, "id": "ZFYc8f46oFfBH9Ym-AW60xgyGFQ=", "properties": {"@spider": "usps_collection_boxes", "addr:city": "MCMECHEN", "addr:country": "US", "addr:full": "717 MARSHALL ST", "addr:postcode": "26040", "addr:state": "WV", "amenity": "post_box", "brand": "United States Postal Service", "brand:wikidata": "Q668687", "collection_times": "Mo-Fr 11:35; Sa 11:55", "name": "USPS COLLECTION BOX - BLUE BOX", "nsi_id": "unitedstatespostalservice-a77078", "operator": "United States Postal Service", "operator:short": "USPS", "operator:type": "public", "operator:wikidata": "Q668687", "ref": "2604000001"}, "type": "Feature"}
{"dataset_attributes": {"@spider": "usps_collection_boxes", "spider:collection_time": "2023-12-28T08:25:01.581378"}, "geometry": {"coordinates": [-80.7309452, 39.986672], "type": "Point"}, "id": "aejkHey1kHX--IOg_OILjMSLWnA=", "properties": {"@spider": "usps_collection_boxes", "addr:city": "MCMECHEN", "addr:country": "US", "addr:full": "1024 GARFIELD ST", "addr:postcode": "26040", "addr:state": "WV", "amenity": "post_box", "brand": "United States Postal Service", "brand:wikidata": "Q668687", "collection_times": "Mo-Sa 09:30", "name": "USPS COLLECTION BOX - BLUE BOX", "nsi_id": "unitedstatespostalservice-a77078", "operator": "United States Postal Service", "operator:short": "USPS", "operator:type": "public", "operator:wikidata": "Q668687", "ref": "2604000002"}, "type": "Feature"}
{"dataset_attributes": {"@spider": "usps_collection_boxes", "spider:collection_time": "2023-12-28T08:25:01.581378"}, "geometry": {"coordinates": [-80.7296619, 39.983048], "type": "Point"}, "id": "2cCX3HgahIFeZSuKQBk3ETstmN4=", "properties": {"@spider": "usps_collection_boxes", "addr:city": "MCMECHEN", "addr:country": "US", "addr:full": "1309 MARSHALL ST", "addr:postcode": "26040", "addr:state": "WV", "amenity": "post_box", "brand": "United States Postal Service", "brand:wikidata": "Q668687", "collection_times": "Mo-Sa 11:30", "name": "USPS COLLECTION BOX - BLUE BOX", "nsi_id": "unitedstatespostalservice-a77078", "operator": "United States Postal Service", "operator:short": "USPS", "operator:type": "public", "operator:wikidata": "Q668687", "ref": "2604000003"}, "type": "Feature"}
{"dataset_attributes": {"@spider": "usps_collection_boxes", "spider:collection_time": "2023-12-28T08:25:01.581378"}, "geometry": {"coordinates": [-80.7330771, 39.990696], "type": "Point"}, "id": "Fsj_9xhERxOLANq8_kOhjL4fjIY=", "properties": {"@spider": "usps_collection_boxes", "addr:city": "MCMECHEN", "addr:country": "US", "addr:full": "436 LINCOLN ST", "addr:postcode": "26040", "addr:state": "WV", "amenity": "post_box", "brand": "United States Postal Service", "brand:wikidata": "Q668687", "collection_times": "Mo-Sa 11:30", "name": "USPS COLLECTION BOX - BLUE BOX", "nsi_id": "unitedstatespostalservice-a77078", "operator": "United States Postal Service", "operator:short": "USPS", "operator:type": "public", "operator:wikidata": "Q668687", "ref": "2604000005"}, "type": "Feature"}
{"dataset_attributes": {"@spider": "usps_collection_boxes", "spider:collection_time": "2023-12-28T08:25:01.581378"}, "geometry": {"coordinates": [-80.7306112, 39.992098], "type": "Point"}, "id": "KMQ81WJT1PpD1Oq3uWlS8c0SVu4=", "properties": {"@spider": "usps_collection_boxes", "addr:city": "MCMECHEN", "addr:country": "US", "addr:full": "28 4TH ST", "addr:postcode": "26040", "addr:state": "WV", "amenity": "post_box", "brand": "United States Postal Service", "brand:wikidata": "Q668687", "collection_times": "Mo-Fr 12:00; Sa 11:30", "name": "USPS COLLECTION BOX - BLUE BOX", "nsi_id": "unitedstatespostalservice-a77078", "operator": "United States Postal Service", "operator:short": "USPS", "operator:type": "public", "operator:wikidata": "Q668687", "ref": "2604000007"}, "type": "Feature"}
{"dataset_attributes": {"@spider": "usps_collection_boxes", "spider:collection_time": "2023-12-28T08:25:01.581378"}, "geometry": {"coordinates": [-80.728958361, 39.989139989], "type": "Point"}, "id": "_XdaRv3Q_IgwzHxuaNNb-nj_QL8=", "properties": {"@spider": "usps_collection_boxes", "addr:city": "MCMECHEN", "addr:country": "US", "addr:full": "717 MARSHALL ST", "addr:postcode": "26040", "addr:state": "WV", "amenity": "post_box", "brand": "United States Postal Service", "brand:wikidata": "Q668687", "collection_times": "Mo-Fr 11:35; Sa 11:55", "name": "USPS COLLECTION BOX - PO LOBBY", "nsi_id": "unitedstatespostalservice-a77078", "operator": "United States Postal Service", "operator:short": "USPS", "operator:type": "public", "operator:wikidata": "Q668687", "ref": "2604000012"}, "type": "Feature"}
{"dataset_attributes": {"@spider": "usps_collection_boxes", "spider:collection_time": "2023-12-28T08:25:01.581378"}, "geometry": {"coordinates": [-80.728958361, 39.989139989], "type": "Point"}, "id": "6-SN7m19joFI4Azn7y9q2lHegDg=", "properties": {"@spider": "usps_collection_boxes", "addr:city": "MCMECHEN", "addr:country": "US", "addr:full": "717 MARSHALL ST", "addr:postcode": "26040", "addr:state": "WV", "amenity": "post_box", "brand": "United States Postal Service", "brand:wikidata": "Q668687", "collection_times": "Mo-Fr 11:35; Sa 11:55", "name": "USPS COLLECTION BOX - PO LOBBY", "nsi_id": "unitedstatespostalservice-a77078", "operator": "United States Postal Service", "operator:short": "USPS", "operator:type": "public", "operator:wikidata": "Q668687", "ref": "2604000014"}, "type": "Feature"}
{"dataset_attributes": {"@spider": "usps_collection_boxes", "spider:collection_time": "2023-12-28T08:25:01.581378"}, "geometry": {"coordinates": [-80.748367, 39.926106], "type": "Point"}, "id": "V0F8kL_yFIlOGF6uGNc2DxuVGAM=", "properties": {"@spider": "usps_collection_boxes", "addr:city": "MOUNDSVILLE", "addr:country": "US", "addr:full": "10 WALMART DR", "addr:postcode": "26041", "addr:state": "WV", "amenity": "post_box", "brand": "United States Postal Service", "brand:wikidata": "Q668687", "collection_times": "Mo-Sa 09:00", "name": "USPS COLLECTION BOX - BLUE BOX", "nsi_id": "unitedstatespostalservice-a77078", "operator": "United States Postal Service", "operator:short": "USPS", "operator:type": "public", "operator:wikidata": "Q668687", "ref": "2604100004"}, "type": "Feature"}
{"dataset_attributes": {"@spider": "usps_collection_boxes", "spider:collection_time": "2023-12-28T08:25:01.581378"}, "geometry": {"coordinates": [-80.7469431, 39.912739], "type": "Point"}, "id": "EAUUDKQn8pjmJyA8FYEOvZLL_9A=", "properties": {"@spider": "usps_collection_boxes", "addr:city": "MOUNDSVILLE", "addr:country": "US", "addr:full": "1216 LAFAYETTE AVE", "addr:postcode": "26041", "addr:state": "WV", "amenity": "post_box", "brand": "United States Postal Service", "brand:wikidata": "Q668687", "collection_times": "Mo-Sa 11:00", "name": "USPS COLLECTION BOX - BLUE BOX", "nsi_id": "unitedstatespostalservice-a77078", "operator": "United States Postal Service", "operator:short": "USPS", "operator:type": "public", "operator:wikidata": "Q668687", "ref": "2604100008"}, "type": "Feature"}
{"dataset_attributes": {"@spider": "usps_collection_boxes", "spider:collection_time": "2023-12-28T08:25:01.581378"}, "geometry": {"coordinates": [-80.7452926, 39.918684], "type": "Point"}, "id": "-8bEEPpdBSZNeSrbZmEpTRoKL3U=", "properties": {"@spider": "usps_collection_boxes", "addr:city": "MOUNDSVILLE", "addr:country": "US", "addr:full": "600 7TH ST", "addr:postcode": "26041", "addr:state": "WV", "amenity": "post_box", "brand": "United States Postal Service", "brand:wikidata": "Q668687", "collection_times": "Mo-Sa 11:00", "name": "USPS COLLECTION BOX - BLUE BOX", "nsi_id": "unitedstatespostalservice-a77078", "operator": "United States Postal Service", "operator:short": "USPS", "operator:type": "public", "operator:wikidata": "Q668687", "ref": "2604100010"}, "type": "Feature"}
{"dataset_attributes": {"@spider": "usps_collection_boxes", "spider:collection_time": "2023-12-28T08:25:01.581378"}, "geometry": {"coordinates": [-80.7429394, 39.92184], "type": "Point"}, "id": "vZesPqs9hEjG31E4DJJkVifkVzo=", "properties": {"@spider": "usps_collection_boxes", "addr:city": "MOUNDSVILLE", "addr:country": "US", "addr:full": "301 JEFFERSON AVE", "addr:postcode": "26041", "addr:state": "WV", "amenity": "post_box", "brand": "United States Postal Service", "brand:wikidata": "Q668687", "collection_times": "Mo-Sa 10:00", "name": "USPS COLLECTION BOX - BLUE BOX", "nsi_id": "unitedstatespostalservice-a77078", "operator": "United States Postal Service", "operator:short": "USPS", "operator:type": "public", "operator:wikidata": "Q668687", "ref": "2604100011"}, "type": "Feature"}
{"dataset_attributes": {"@spider": "usps_collection_boxes", "spider:collection_time": "2023-12-28T08:25:01.581378"}, "geometry": {"coordinates": [-80.7296723, 39.927519], "type": "Point"}, "id": "lTYLS6C3Wbd2iXLp8lVhue6w6ms=", "properties": {"@spider": "usps_collection_boxes", "addr:city": "MOUNDSVILLE", "addr:country": "US", "addr:full": "101 OLIVE AVE", "addr:postcode": "26041", "addr:state": "WV", "amenity": "post_box", "brand": "United States Postal Service", "brand:wikidata": "Q668687", "collection_times": "Mo-Sa 11:00", "name": "USPS COLLECTION BOX - BLUE BOX", "nsi_id": "unitedstatespostalservice-a77078", "operator": "United States Postal Service", "operator:short": "USPS", "operator:type": "public", "operator:wikidata": "Q668687", "ref": "2604100014"}, "type": "Feature"}
{"dataset_attributes": {"@spider": "usps_collection_boxes", "spider:collection_time": "2023-12-28T08:25:01.581378"}, "geometry": {"coordinates": [-80.7476051, 39.916727], "type": "Point"}, "id": "OKKLTvvBXOo9B91itdLppujiCnA=", "properties": {"@spider": "usps_collection_boxes", "addr:city": "MOUNDSVILLE", "addr:country": "US", "addr:full": "901 LAFAYETTE AVE", "addr:postcode": "26041", "addr:state": "WV", "amenity": "post_box", "brand": "United States Postal Service", "brand:wikidata": "Q668687", "collection_times": "Mo-Sa 09:30", "name": "USPS COLLECTION BOX - BLUE BOX", "nsi_id": "unitedstatespostalservice-a77078", "operator": "United States Postal Service", "operator:short": "USPS", "operator:type": "public", "operator:wikidata": "Q668687", "ref": "2604100016"}, "type": "Feature"}
{"dataset_attributes": {"@spider": "usps_collection_boxes", "spider:collection_time": "2023-12-28T08:25:01.581378"}, "geometry": {"coordinates": [-80.7505255, 39.928355], "type": "Point"}, "id": "6RgjekAU2H6CA2N9oF_cHQcyJt8=", "properties": {"@spider": "usps_collection_boxes", "addr:city": "MOUNDSVILLE", "addr:country": "US", "addr:full": "134 LAFAYETTE AVE", "addr:postcode": "26041", "addr:state": "WV", "amenity": "post_box", "brand": "United States Postal Service", "brand:wikidata": "Q668687", "collection_times": "Mo-Sa 09:00", "name": "USPS COLLECTION BOX - BLUE BOX", "nsi_id": "unitedstatespostalservice-a77078", "operator": "United States Postal Service", "operator:short": "USPS", "operator:type": "public", "operator:wikidata": "Q668687", "ref": "2604100017"}, "type": "Feature"}
{"dataset_attributes": {"@spider": "usps_collection_boxes", "spider:collection_time": "2023-12-28T08:25:01.581378"}, "geometry": {"coordinates": [-80.7379999, 39.925512], "type": "Point"}, "id": "kF3xObld_1-f9JVotQ6vBLuQZ-o=", "properties": {"@spider": "usps_collection_boxes", "addr:city": "MOUNDSVILLE", "addr:country": "US", "addr:full": "1302 1ST ST", "addr:postcode": "26041", "addr:state": "WV", "amenity": "post_box", "brand": "United States Postal Service", "brand:wikidata": "Q668687", "collection_times": "Mo-Sa 13:00", "name": "USPS COLLECTION BOX - BLUE BOX", "note": "ON 12/24 AND 12/31, THIS BOX MAY BE COLLECTED AS EARLY AS 12 NOON.", "nsi_id": "unitedstatespostalservice-a77078", "operator": "United States Postal Service", "operator:short": "USPS", "operator:type": "public", "operator:wikidata": "Q668687", "ref": "2604100018"}, "type": "Feature"}
{"dataset_attributes": {"@spider": "usps_collection_boxes", "spider:collection_time": "2023-12-28T08:25:01.581378"}, "geometry": {"coordinates": [-80.7468911, 39.919313], "type": "Point"}, "id": "KlBxZu1xOqY9z8FgkVePfl9LzBs=", "properties": {"@spider": "usps_collection_boxes", "addr:city": "MOUNDSVILLE", "addr:country": "US", "addr:full": "509 6TH ST", "addr:postcode": "26041", "addr:state": "WV", "amenity": "post_box", "brand": "United States Postal Service", "brand:wikidata": "Q668687", "collection_times": "Mo-Sa 11:15", "name": "USPS COLLECTION BOX - BLUE BOX", "nsi_id": "unitedstatespostalservice-a77078", "operator": "United States Postal Service", "operator:short": "USPS", "operator:type": "public", "operator:wikidata": "Q668687", "ref": "2604100020"}, "type": "Feature"}
{"dataset_attributes": {"@spider": "usps_collection_boxes", "spider:collection_time": "2023-12-28T08:25:01.581378"}, "geometry": {"coordinates": [-80.738748584, 39.921871732], "type": "Point"}, "id": "3YSQrMOC-tteN6HYR3QSEmQ8up4=", "properties": {"@spider": "usps_collection_boxes", "addr:city": "MOUNDSVILLE", "addr:country": "US", "addr:full": "1214 3RD ST", "addr:postcode": "26041", "addr:state": "WV", "amenity": "post_box", "brand": "United States Postal Service", "brand:wikidata": "Q668687", "collection_times": "Mo-Fr 16:30; Sa 16:00", "name": "USPS COLLECTION BOX - BLUE BOX", "note": "ON 12/24 AND 12/31, THIS BOX MAY BE COLLECTED AS EARLY AS 12 NOON.", "nsi_id": "unitedstatespostalservice-a77078", "operator": "United States Postal Service", "operator:short": "USPS", "operator:type": "public", "operator:wikidata": "Q668687", "ref": "2604100021"}, "type": "Feature"}
{"dataset_attributes": {"@spider": "usps_collection_boxes", "spider:collection_time": "2023-12-28T08:25:01.581378"}, "geometry": {"coordinates": [-80.7463571, 39.91078], "type": "Point"}, "id": "b0C3cfrdC-1o4YloEk_mYpcvdrA=", "properties": {"@spider": "usps_collection_boxes", "addr:city": "MOUNDSVILLE", "addr:country": "US", "addr:full": "1300 LAFAYETTE AVE", "addr:postcode": "26041", "addr:state": "WV", "amenity": "post_box", "brand": "United States Postal Service", "brand:wikidata": "Q668687", "collection_times": "Mo-Sa 11:15", "name": "USPS COLLECTION BOX - BLUE BOX", "nsi_id": "unitedstatespostalservice-a77078", "operator": "United States Postal Service", "operator:short": "USPS", "operator:type": "public", "operator:wikidata": "Q668687", "ref": "2604100025"}, "type": "Feature"}
{"dataset_attributes": {"@spider": "usps_collection_boxes", "spider:collection_time": "2023-12-28T08:25:01.581378"}, "geometry": {"coordinates": [-80.738425013, 39.9222429935], "type": "Point"}, "id": "3qQw5Y8gWfFC7iNwxUYrheiXEfg=", "properties": {"@spider": "usps_collection_boxes", "addr:city": "MOUNDSVILLE", "addr:country": "US", "addr:full": "1214 3RD ST", "addr:postcode": "26041", "addr:state": "WV", "amenity": "post_box", "brand": "United States Postal Service", "brand:wikidata": "Q668687", "collection_times": "Mo-Fr 16:30; Sa 16:00", "name": "USPS COLLECTION BOX - PO LOBBY", "note": "ON 12/24 AND 12/31, THIS BOX MAY BE COLLECTED AS EARLY AS 12 NOON.", "nsi_id": "unitedstatespostalservice-a77078", "operator": "United States Postal Service", "operator:short": "USPS", "operator:type": "public", "operator:wikidata": "Q668687", "ref": "2604100028"}, "type": "Feature"}
{"dataset_attributes": {"@spider": "usps_collection_boxes", "spider:collection_time": "2023-12-28T08:25:01.581378"}, "geometry": {"coordinates": [-80.738425013, 39.9222429935], "type": "Point"}, "id": "9oyYOu3QMeda3sh7lbi_qwVOgoo=", "properties": {"@spider": "usps_collection_boxes", "addr:city": "MOUNDSVILLE", "addr:country": "US", "addr:full": "1214 3RD ST", "addr:postcode": "26041", "addr:state": "WV", "amenity": "post_box", "brand": "United States Postal Service", "brand:wikidata": "Q668687", "collection_times": "Mo-Fr 16:30; Sa 16:00", "name": "USPS COLLECTION BOX - PO LOBBY", "note": "ON 12/24 AND 12/31, THIS BOX MAY BE COLLECTED AS EARLY AS 12 NOON.", "nsi_id": "unitedstatespostalservice-a77078", "operator": "United States Postal Service", "operator:short": "USPS", "operator:type": "public", "operator:wikidata": "Q668687", "ref": "2604100029"}, "type": "Feature"}
{"dataset_attributes": {"@spider": "usps_collection_boxes", "spider:collection_time": "2023-12-28T08:25:01.581378"}, "geometry": {"coordinates": [-80.738748584, 39.921871732], "type": "Point"}, "id": "oVjEkTID3lXvD21hLeut1cDqPgw=", "properties": {"@spider": "usps_collection_boxes", "addr:city": "MOUNDSVILLE", "addr:country": "US", "addr:full": "1214 3RD ST", "addr:postcode": "26041", "addr:state": "WV", "amenity": "post_box", "brand": "United States Postal Service", "brand:wikidata": "Q668687", "collection_times": "Mo-Fr 16:30; Sa 12:00", "name": "USPS COLLECTION BOX - PO LOBBY", "note": "ON 12/24 AND 12/31, THIS BOX MAY BE COLLECTED AS EARLY AS 12 NOON.", "nsi_id": "unitedstatespostalservice-a77078", "operator": "United States Postal Service", "operator:short": "USPS", "operator:type": "public", "operator:wikidata": "Q668687", "ref": "2604100035"}, "type": "Feature"}
{"dataset_attributes": {"@spider": "usps_collection_boxes", "spider:collection_time": "2023-12-28T08:25:01.581378"}, "geometry": {"coordinates": [-80.605898279, 40.495842817], "type": "Point"}, "id": "FHckYQjSw-v_vW9vmH5rpKiAtEY=", "properties": {"@spider": "usps_collection_boxes", "addr:city": "NEW CUMBERLAND", "addr:country": "US", "addr:full": "504 RIDGE AVE", "addr:postcode": "26047", "addr:state": "WV", "amenity": "post_box", "brand": "United States Postal Service", "brand:wikidata": "Q668687", "collection_times": "Mo-Fr 16:45; Sa 12:00", "name": "USPS COLLECTION BOX - BLUE BOX", "note": "ON 12/24 AND 12/31, THIS BOX MAY BE COLLECTED AS EARLY AS 12 NOON.", "nsi_id": "unitedstatespostalservice-a77078", "operator": "United States Postal Service", "operator:short": "USPS", "operator:type": "public", "operator:wikidata": "Q668687", "ref": "2604700003"}, "type": "Feature"}
{"dataset_attributes": {"@spider": "usps_collection_boxes", "spider:collection_time": "2023-12-28T08:25:01.581378"}, "geometry": {"coordinates": [-80.605897, 40.495851], "type": "Point"}, "id": "0GDUD_sb9jOBxkTPpqE-sCRcLnA=", "properties": {"@spider": "usps_collection_boxes", "addr:city": "NEW CUMBERLAND", "addr:country": "US", "addr:full": "504 RIDGE AVE LBBY", "addr:postcode": "26047", "addr:state": "WV", "amenity": "post_box", "brand": "United States Postal Service", "brand:wikidata": "Q668687", "collection_times": "Mo-Fr 16:45; Sa 12:00", "name": "USPS COLLECTION BOX - PO LOBBY", "note": "ON 12/24 AND 12/31, THIS BOX MAY BE COLLECTED AS EARLY AS 12 NOON.", "nsi_id": "unitedstatespostalservice-a77078", "operator": "United States Postal Service", "operator:short": "USPS", "operator:type": "public", "operator:wikidata": "Q668687", "ref": "2604700005"}, "type": "Feature"}
{"dataset_attributes": {"@spider": "usps_collection_boxes", "spider:collection_time": "2023-12-28T08:25:01.581378"}, "geometry": {"coordinates": [-80.6147918, 40.507129], "type": "Point"}, "id": "yjDD7C0yQWurC2XeMVEMhiekHsQ=", "properties": {"@spider": "usps_collection_boxes", "addr:city": "NEW CUMBERLAND", "addr:country": "US", "addr:full": "1000 STATE ROUTE 2", "addr:postcode": "26047", "addr:state": "WV", "amenity": "post_box", "brand": "United States Postal Service", "brand:wikidata": "Q668687", "collection_times": "Mo-Sa 12:30", "name": "USPS COLLECTION BOX - BLUE BOX", "note": "ON 12/24 AND 12/31, THIS BOX MAY BE COLLECTED AS EARLY AS 12 NOON.", "nsi_id": "unitedstatespostalservice-a77078", "operator": "United States Postal Service", "operator:short": "USPS", "operator:type": "public", "operator:wikidata": "Q668687", "ref": "2604700006"}, "type": "Feature"}
{"dataset_attributes": {"@spider": "usps_collection_boxes", "spider:collection_time": "2023-12-28T08:25:01.581378"}, "geometry": {"coordinates": [-80.605898279, 40.495842817], "type": "Point"}, "id": "_2VxN8GD37dtpdKtKXuUVdk7Ezc=", "properties": {"@spider": "usps_collection_boxes", "addr:city": "NEW CUMBERLAND", "addr:country": "US", "addr:full": "504 RIDGE AVE", "addr:postcode": "26047", "addr:state": "WV", "amenity": "post_box", "brand": "United States Postal Service", "brand:wikidata": "Q668687", "collection_times": "Mo-Fr 16:30; Sa 12:00", "name": "USPS COLLECTION BOX - PO LOBBY", "note": "ON 12/24 AND 12/31, THIS BOX MAY BE COLLECTED AS EARLY AS 12 NOON.", "nsi_id": "unitedstatespostalservice-a77078", "operator": "United States Postal Service", "operator:short": "USPS", "operator:type": "public", "operator:wikidata": "Q668687", "ref": "2604700008"}, "type": "Feature"}
{"dataset_attributes": {"@spider": "usps_collection_boxes", "spider:collection_time": "2023-12-28T08:25:01.581378"}, "geometry": {"coordinates": [-80.597576, 40.619287], "type": "Point"}, "id": "on6jdAzWN5zcez23post5yzwUco=", "properties": {"@spider": "usps_collection_boxes", "addr:city": "NEWELL", "addr:country": "US", "addr:full": "202 WASHINGTON ST", "addr:postcode": "26050", "addr:state": "WV", "amenity": "post_box", "brand": "United States Postal Service", "brand:wikidata": "Q668687", "collection_times": "Mo-Fr 11:55; Sa 12:00", "name": "USPS COLLECTION BOX - BLUE BOX", "nsi_id": "unitedstatespostalservice-a77078", "operator": "United States Postal Service", "operator:short": "USPS", "operator:type": "public", "operator:wikidata": "Q668687", "ref": "2605000001"}, "type": "Feature"}
{"dataset_attributes": {"@spider": "usps_collection_boxes", "spider:collection_time": "2023-12-28T08:25:01.581378"}, "geometry": {"coordinates": [-80.6000349, 40.617901], "type": "Point"}, "id": "tpUSr57lxytqNGTH-BzAVxczb_c=", "properties": {"@spider": "usps_collection_boxes", "addr:city": "NEWELL", "addr:country": "US", "addr:full": "402 JEFFERSON ST", "addr:postcode": "26050", "addr:state": "WV", "amenity": "post_box", "brand": "United States Postal Service", "brand:wikidata": "Q668687", "collection_times": "Mo-Sa 09:15", "name": "USPS COLLECTION BOX - BLUE BOX", "nsi_id": "unitedstatespostalservice-a77078", "operator": "United States Postal Service", "operator:short": "USPS", "operator:type": "public", "operator:wikidata": "Q668687", "ref": "2605000003"}, "type": "Feature"}
{"dataset_attributes": {"@spider": "usps_collection_boxes", "spider:collection_time": "2023-12-28T08:25:01.581378"}, "geometry": {"coordinates": [-80.6121244, 40.616886], "type": "Point"}, "id": "fWiWRSIEf0Bb3MoqS4nctTpHx2A=", "properties": {"@spider": "usps_collection_boxes", "addr:city": "NEWELL", "addr:country": "US", "addr:full": "928 WASHINGTON ST", "addr:postcode": "26050", "addr:state": "WV", "amenity": "post_box", "brand": "United States Postal Service", "brand:wikidata": "Q668687", "collection_times": "Mo-Sa 10:00", "name": "USPS COLLECTION BOX - BLUE BOX", "nsi_id": "unitedstatespostalservice-a77078", "operator": "United States Postal Service", "operator:short": "USPS", "operator:type": "public", "operator:wikidata": "Q668687", "ref": "2605000007"}, "type": "Feature"}
{"dataset_attributes": {"@spider": "usps_collection_boxes", "spider:collection_time": "2023-12-28T08:25:01.581378"}, "geometry": {"coordinates": [-80.6021761, 40.618634], "type": "Point"}, "id": "wPSQaaZiAYipH3LjJU6fazosndA=", "properties": {"@spider": "usps_collection_boxes", "addr:city": "NEWELL", "addr:country": "US", "addr:full": "500 WASHINGTON ST", "addr:postcode": "26050", "addr:state": "WV", "amenity": "post_box", "brand": "United States Postal Service", "brand:wikidata": "Q668687", "collection_times": "Mo-Sa 10:30", "name": "USPS COLLECTION BOX - BLUE BOX", "nsi_id": "unitedstatespostalservice-a77078", "operator": "United States Postal Service", "operator:short": "USPS", "operator:type": "public", "operator:wikidata": "Q668687", "ref": "2605000008"}, "type": "Feature"}
{"dataset_attributes": {"@spider": "usps_collection_boxes", "spider:collection_time": "2023-12-28T08:25:01.581378"}, "geometry": {"coordinates": [-80.597576, 40.619287], "type": "Point"}, "id": "iSgwNMkmHMjkgih9MeRQaWS1_0U=", "properties": {"@spider": "usps_collection_boxes", "addr:city": "NEWELL", "addr:country": "US", "addr:full": "202 WASHINGTON ST", "addr:postcode": "26050", "addr:state": "WV", "amenity": "post_box", "brand": "United States Postal Service", "brand:wikidata": "Q668687", "collection_times": "Mo-Fr 11:55; Sa 12:00", "name": "USPS COLLECTION BOX - PO LOBBY", "nsi_id": "unitedstatespostalservice-a77078", "operator": "United States Postal Service", "operator:short": "USPS", "operator:type": "public", "operator:wikidata": "Q668687", "ref": "2605000009"}, "type": "Feature"}
{"dataset_attributes": {"@spider": "usps_collection_boxes", "spider:collection_time": "2023-12-28T08:25:01.581378"}, "geometry": {"coordinates": [-80.5982366467, 40.6191702345], "type": "Point"}, "id": "09vraIRPB1ALi8pVJyo3UViVftA=", "properties": {"@spider": "usps_collection_boxes", "addr:city": "NEWELL", "addr:country": "US", "addr:full": "202 WASHINGTON ST", "addr:postcode": "26050", "addr:state": "WV", "amenity": "post_box", "brand": "United States Postal Service", "brand:wikidata": "Q668687", "collection_times": "Mo-Sa 11:55", "name": "USPS COLLECTION BOX - PO LOBBY", "nsi_id": "unitedstatespostalservice-a77078", "operator": "United States Postal Service", "operator:short": "USPS", "operator:type": "public", "operator:wikidata": "Q668687", "ref": "2605000011"}, "type": "Feature"}
{"dataset_attributes": {"@spider": "usps_collection_boxes", "spider:collection_time": "2023-12-28T08:25:01.581378"}, "geometry": {"coordinates": [-80.825116027, 39.793131351], "type": "Point"}, "id": "cDrsBjpPQXF80KhNH-cvXf9-loA=", "properties": {"@spider": "usps_collection_boxes", "addr:city": "PROCTOR", "addr:country": "US", "addr:full": "1 STATE ROUTE 2", "addr:postcode": "26055", "addr:state": "WV", "amenity": "post_box", "brand": "United States Postal Service", "brand:wikidata": "Q668687", "collection_times": "Mo-Fr 15:00; Sa 12:00", "name": "USPS COLLECTION BOX - BLUE BOX", "note": "ON 12/24 AND 12/31, THIS BOX MAY BE COLLECTED AS EARLY AS 12 NOON.", "nsi_id": "unitedstatespostalservice-a77078", "operator": "United States Postal Service", "operator:short": "USPS", "operator:type": "public", "operator:wikidata": "Q668687", "ref": "2605500001"}, "type": "Feature"}
{"dataset_attributes": {"@spider": "usps_collection_boxes", "spider:collection_time": "2023-12-28T08:25:01.581378"}, "geometry": {"coordinates": [-80.825116027, 39.793131351], "type": "Point"}, "id": "roiP6tzAi3kcMKp38PuxhbC7drM=", "properties": {"@spider": "usps_collection_boxes", "addr:city": "PROCTOR", "addr:country": "US", "addr:full": "1 STATE ROUTE 2", "addr:postcode": "26055", "addr:state": "WV", "amenity": "post_box", "brand": "United States Postal Service", "brand:wikidata": "Q668687", "collection_times": "Mo-Fr 15:00; Sa 12:00", "name": "USPS COLLECTION BOX - PO LOBBY", "note": "ON 12/24 AND 12/31, THIS BOX MAY BE COLLECTED AS EARLY AS 12 NOON.", "nsi_id": "unitedstatespostalservice-a77078", "operator": "United States Postal Service", "operator:short": "USPS", "operator:type": "public", "operator:wikidata": "Q668687", "ref": "2605500002"}, "type": "Feature"}
{"dataset_attributes": {"@spider": "usps_collection_boxes", "spider:collection_time": "2023-12-28T08:25:01.581378"}, "geometry": {"coordinates": [-80.825116027, 39.793131351], "type": "Point"}, "id": "nZFTos8_kyPCDyqtiIg-WHZyNWg=", "properties": {"@spider": "usps_collection_boxes", "addr:city": "PROCTOR", "addr:country": "US", "addr:full": "1 STATE ROUTE 2", "addr:postcode": "26055", "addr:state": "WV", "amenity": "post_box", "brand": "United States Postal Service", "brand:wikidata": "Q668687", "collection_times": "Mo-Fr 15:00; Sa 12:00", "name": "USPS COLLECTION BOX - PO LOBBY", "note": "ON 12/24 AND 12/31, THIS BOX MAY BE COLLECTED AS EARLY AS 12 NOON.", "nsi_id": "unitedstatespostalservice-a77078", "operator": "United States Postal Service", "operator:short": "USPS", "operator:type": "public", "operator:wikidata": "Q668687", "ref": "2605500004"}, "type": "Feature"}
{"dataset_attributes": {"@spider": "usps_collection_boxes", "spider:collection_time": "2023-12-28T08:25:01.581378"}, "geometry": {"coordinates": [-80.579421809, 40.532406345], "type": "Point"}, "id": "7LkjBSxTtnWaWT8Chn5mr-NDQVQ=", "properties": {"@spider": "usps_collection_boxes", "addr:city": "NEW MANCHESTER", "addr:country": "US", "addr:full": "290 HIGH ST", "addr:postcode": "26056", "addr:state": "WV", "amenity": "post_box", "brand": "United States Postal Service", "brand:wikidata": "Q668687", "collection_times": "Mo-Fr 16:45; Sa 11:45", "name": "USPS COLLECTION BOX - BLUE BOX", "note": "ON 12/24 AND 12/31, THIS BOX MAY BE COLLECTED AS EARLY AS 12 NOON.", "nsi_id": "unitedstatespostalservice-a77078", "operator": "United States Postal Service", "operator:short": "USPS", "operator:type": "public", "operator:wikidata": "Q668687", "ref": "2605600001"}, "type": "Feature"}
{"dataset_attributes": {"@spider": "usps_collection_boxes", "spider:collection_time": "2023-12-28T08:25:01.581378"}, "geometry": {"coordinates": [-80.579444, 40.532421], "type": "Point"}, "id": "50VRgjEmEYPF2Z5mpry-m7U_k78=", "properties": {"@spider": "usps_collection_boxes", "addr:city": "NEW MANCHESTER", "addr:country": "US", "addr:full": "290 HIGH ST LBBY", "addr:postcode": "26056", "addr:state": "WV", "amenity": "post_box", "brand": "United States Postal Service", "brand:wikidata": "Q668687", "collection_times": "Mo-Fr 16:45; Sa 11:45", "name": "USPS COLLECTION BOX - PO LOBBY", "note": "ON 12/24 AND 12/31, THIS BOX MAY BE COLLECTED AS EARLY AS 12 NOON.", "nsi_id": "unitedstatespostalservice-a77078", "operator": "United States Postal Service", "operator:short": "USPS", "operator:type": "public", "operator:wikidata": "Q668687", "ref": "2605600002"}, "type": "Feature"}
{"dataset_attributes": {"@spider": "usps_collection_boxes", "spider:collection_time": "2023-12-28T08:25:01.581378"}, "geometry": {"coordinates": [-80.579421809, 40.532406345], "type": "Point"}, "id": "tF0R-vbm91Wj6xExqG0atEyH9hA=", "properties": {"@spider": "usps_collection_boxes", "addr:city": "NEW MANCHESTER", "addr:country": "US", "addr:full": "290 HIGH ST", "addr:postcode": "26056", "addr:state": "WV", "amenity": "post_box", "brand": "United States Postal Service", "brand:wikidata": "Q668687", "collection_times": "Mo-Fr 16:55; Sa 11:45", "name": "USPS COLLECTION BOX - PO LOBBY", "note": "ON 12/24 AND 12/31, THIS BOX MAY BE COLLECTED AS EARLY AS 12 NOON.", "nsi_id": "unitedstatespostalservice-a77078", "operator": "United States Postal Service", "operator:short": "USPS", "operator:type": "public", "operator:wikidata": "Q668687", "ref": "2605600004"}, "type": "Feature"}
{"dataset_attributes": {"@spider": "usps_collection_boxes", "spider:collection_time": "2023-12-28T08:25:01.581378"}, "geometry": {"coordinates": [-80.671537868, 40.185126493], "type": "Point"}, "id": "Oxc_WMQo1GuJyFD2jEQ_jHptxyI=", "properties": {"@spider": "usps_collection_boxes", "addr:city": "SHORT CREEK", "addr:country": "US", "addr:full": "46 WINDY HILL RD", "addr:postcode": "26058", "addr:state": "WV", "amenity": "post_box", "brand": "United States Postal Service", "brand:wikidata": "Q668687", "collection_times": "Mo-Fr 10:50; Sa 11:45", "name": "USPS COLLECTION BOX - BLUE BOX", "nsi_id": "unitedstatespostalservice-a77078", "operator": "United States Postal Service", "operator:short": "USPS", "operator:type": "public", "operator:wikidata": "Q668687", "ref": "2605800001"}, "type": "Feature"}
{"dataset_attributes": {"@spider": "usps_collection_boxes", "spider:collection_time": "2023-12-28T08:25:01.581378"}, "geometry": {"coordinates": [-80.671537868, 40.185126493], "type": "Point"}, "id": "cslXMpE-nkMg1ytIa8ysZaOu7HM=", "properties": {"@spider": "usps_collection_boxes", "addr:city": "SHORT CREEK", "addr:country": "US", "addr:full": "46 WINDY HILL RD", "addr:postcode": "26058", "addr:state": "WV", "amenity": "post_box", "brand": "United States Postal Service", "brand:wikidata": "Q668687", "collection_times": "Mo-Fr 10:50; Sa 11:45", "name": "USPS COLLECTION BOX - PO LOBBY", "nsi_id": "unitedstatespostalservice-a77078", "operator": "United States Postal Service", "operator:short": "USPS", "operator:type": "public", "operator:wikidata": "Q668687", "ref": "2605800002"}, "type": "Feature"}
{"dataset_attributes": {"@spider": "usps_collection_boxes", "spider:collection_time": "2023-12-28T08:25:01.581378"}, "geometry": {"coordinates": [-80.671537868, 40.185126493], "type": "Point"}, "id": "jSbaM-gEKvncvzrsOMuIdtPDiAI=", "properties": {"@spider": "usps_collection_boxes", "addr:city": "SHORT CREEK", "addr:country": "US", "addr:full": "46 WINDY HILL RD", "addr:postcode": "26058", "addr:state": "WV", "amenity": "post_box", "brand": "United States Postal Service", "brand:wikidata": "Q668687", "collection_times": "Mo-Fr 10:50; Sa 11:35", "name": "USPS COLLECTION BOX - PO LOBBY", "nsi_id": "unitedstatespostalservice-a77078", "operator": "United States Postal Service", "operator:short": "USPS", "operator:type": "public", "operator:wikidata": "Q668687", "ref": "2605800005"}, "type": "Feature"}
{"dataset_attributes": {"@spider": "usps_collection_boxes", "spider:collection_time": "2023-12-28T08:25:01.581378"}, "geometry": {"coordinates": [-80.585637096, 40.080735514], "type": "Point"}, "id": "fvnlJEN1tKsx41HR6-xyvneQXkA=", "properties": {"@spider": "usps_collection_boxes", "addr:city": "TRIADELPHIA", "addr:country": "US", "addr:full": "175 NATIONAL RD", "addr:postcode": "26059", "addr:state": "WV", "amenity": "post_box", "brand": "United States Postal Service", "brand:wikidata": "Q668687", "collection_times": "Mo-Fr 16:30; Sa 12:00", "name": "USPS COLLECTION BOX - BLUE BOX", "note": "ON 12/24 AND 12/31, THIS BOX MAY BE COLLECTED AS EARLY AS 12 NOON.", "nsi_id": "unitedstatespostalservice-a77078", "operator": "United States Postal Service", "operator:short": "USPS", "operator:type": "public", "operator:wikidata": "Q668687", "ref": "2605900001"}, "type": "Feature"}
{"dataset_attributes": {"@spider": "usps_collection_boxes", "spider:collection_time": "2023-12-28T08:25:01.581378"}, "geometry": {"coordinates": [-80.630054, 40.052416], "type": "Point"}, "id": "NpIuBl4UYHh3u10zhTFBuzQfCY4=", "properties": {"@spider": "usps_collection_boxes", "addr:city": "TRIADELPHIA", "addr:country": "US", "addr:full": "175 NATIONAL RD LBBY", "addr:postcode": "26059", "addr:state": "WV", "amenity": "post_box", "brand": "United States Postal Service", "brand:wikidata": "Q668687", "collection_times": "Mo-Fr 16:30; Sa 12:00", "name": "USPS COLLECTION BOX - PO LOBBY", "note": "ON 12/24 AND 12/31, THIS BOX MAY BE COLLECTED AS EARLY AS 12 NOON.", "nsi_id": "unitedstatespostalservice-a77078", "operator": "United States Postal Service", "operator:short": "USPS", "operator:type": "public", "operator:wikidata": "Q668687", "ref": "2605900004"}, "type": "Feature"}
{"dataset_attributes": {"@spider": "usps_collection_boxes", "spider:collection_time": "2023-12-28T08:25:01.581378"}, "geometry": {"coordinates": [-80.585637096, 40.080735514], "type": "Point"}, "id": "C8QBCGecD3hvsJ-lTpiarmZZuuU=", "properties": {"@spider": "usps_collection_boxes", "addr:city": "TRIADELPHIA", "addr:country": "US", "addr:full": "175 NATIONAL RD", "addr:postcode": "26059", "addr:state": "WV", "amenity": "post_box", "brand": "United States Postal Service", "brand:wikidata": "Q668687", "collection_times": "Mo-Fr 16:30; Sa 12:00", "name": "USPS COLLECTION BOX - PO LOBBY", "note": "ON 12/24 AND 12/31, THIS BOX MAY BE COLLECTED AS EARLY AS 12 NOON.", "nsi_id": "unitedstatespostalservice-a77078", "operator": "United States Postal Service", "operator:short": "USPS", "operator:type": "public", "operator:wikidata": "Q668687", "ref": "2605900008"}, "type": "Feature"}
{"dataset_attributes": {"@spider": "usps_collection_boxes", "spider:collection_time": "2023-12-28T08:25:01.581378"}, "geometry": {"coordinates": [-80.571026664, 40.087167539], "type": "Point"}, "id": "7GLJov6b6yUJZCjWk30mETgBtGU=", "properties": {"@spider": "usps_collection_boxes", "addr:city": "VALLEY GROVE", "addr:country": "US", "addr:full": "8566 NATIONAL RD", "addr:postcode": "26060", "addr:state": "WV", "amenity": "post_box", "brand": "United States Postal Service", "brand:wikidata": "Q668687", "collection_times": "Mo-Fr 11:55; Sa 12:15", "name": "USPS COLLECTION BOX - BLUE BOX", "note": "ON 12/24 AND 12/31, THIS BOX MAY BE COLLECTED AS EARLY AS 12 NOON.", "nsi_id": "unitedstatespostalservice-a77078", "operator": "United States Postal Service", "operator:short": "USPS", "operator:type": "public", "operator:wikidata": "Q668687", "ref": "2606000001"}, "type": "Feature"}
{"dataset_attributes": {"@spider": "usps_collection_boxes", "spider:collection_time": "2023-12-28T08:25:01.581378"}, "geometry": {"coordinates": [-80.571026664, 40.087167539], "type": "Point"}, "id": "_BideUyGinPPB7h8iFzwDncNdLk=", "properties": {"@spider": "usps_collection_boxes", "addr:city": "VALLEY GROVE", "addr:country": "US", "addr:full": "8566 NATIONAL RD", "addr:postcode": "26060", "addr:state": "WV", "amenity": "post_box", "brand": "United States Postal Service", "brand:wikidata": "Q668687", "collection_times": "Mo-Fr 11:55; Sa 12:15", "name": "USPS COLLECTION BOX - PO LOBBY", "note": "ON 12/24 AND 12/31, THIS BOX MAY BE COLLECTED AS EARLY AS 12 NOON.", "nsi_id": "unitedstatespostalservice-a77078", "operator": "United States Postal Service", "operator:short": "USPS", "operator:type": "public", "operator:wikidata": "Q668687", "ref": "2606000002"}, "type": "Feature"}
{"dataset_attributes": {"@spider": "usps_collection_boxes", "spider:collection_time": "2023-12-28T08:25:01.581378"}, "geometry": {"coordinates": [-80.5675238, 40.069385], "type": "Point"}, "id": "DfE04Ba9fe0tuJp3QF4DPMIPn0Y=", "properties": {"@spider": "usps_collection_boxes", "addr:city": "VALLEY GROVE", "addr:country": "US", "addr:full": "270 W ALEXANDER RD", "addr:postcode": "26060", "addr:state": "WV", "amenity": "post_box", "brand": "United States Postal Service", "brand:wikidata": "Q668687", "collection_times": "Mo-Sa 10:00", "name": "USPS COLLECTION BOX - BLUE BOX", "nsi_id": "unitedstatespostalservice-a77078", "operator": "United States Postal Service", "operator:short": "USPS", "operator:type": "public", "operator:wikidata": "Q668687", "ref": "2606000005"}, "type": "Feature"}
{"dataset_attributes": {"@spider": "usps_collection_boxes", "spider:collection_time": "2023-12-28T08:25:01.581378"}, "geometry": {"coordinates": [-80.571026664, 40.087167539], "type": "Point"}, "id": "xTwkGjZABX1dZprQZ9_wHNyZuLU=", "properties": {"@spider": "usps_collection_boxes", "addr:city": "VALLEY GROVE", "addr:country": "US", "addr:full": "8566 NATIONAL RD", "addr:postcode": "26060", "addr:state": "WV", "amenity": "post_box", "brand": "United States Postal Service", "brand:wikidata": "Q668687", "collection_times": "Mo-Fr 11:55; Sa 11:25", "name": "USPS COLLECTION BOX - PO LOBBY", "nsi_id": "unitedstatespostalservice-a77078", "operator": "United States Postal Service", "operator:short": "USPS", "operator:type": "public", "operator:wikidata": "Q668687", "ref": "2606000007"}, "type": "Feature"}
{"dataset_attributes": {"@spider": "usps_collection_boxes", "spider:collection_time": "2023-12-28T08:25:01.581378"}, "geometry": {"coordinates": [-80.5884933, 40.405252], "type": "Point"}, "id": "PpmUHWcxMn7UD1YuWCDXC2Ry64g=", "properties": {"@spider": "usps_collection_boxes", "addr:city": "WEIRTON", "addr:country": "US", "addr:full": "3200 MAIN ST", "addr:postcode": "26062", "addr:state": "WV", "amenity": "post_box", "brand": "United States Postal Service", "brand:wikidata": "Q668687", "collection_times": "Mo-Fr 16:30; Sa 15:45", "name": "USPS COLLECTION BOX - BLUE BOX", "note": "ON 12/24 AND 12/31, THIS BOX MAY BE COLLECTED AS EARLY AS 12 NOON.", "nsi_id": "unitedstatespostalservice-a77078", "operator": "United States Postal Service", "operator:short": "USPS", "operator:type": "public", "operator:wikidata": "Q668687", "ref": "2606200004"}, "type": "Feature"}
{"dataset_attributes": {"@spider": "usps_collection_boxes", "spider:collection_time": "2023-12-28T08:25:01.581378"}, "geometry": {"coordinates": [-80.5593059, 40.417685], "type": "Point"}, "id": "RdrAuYT-x5n6lnwn7XN8XO0VO0E=", "properties": {"@spider": "usps_collection_boxes", "addr:city": "WEIRTON", "addr:country": "US", "addr:full": "2426 PENNSYLVANIA AVE", "addr:postcode": "26062", "addr:state": "WV", "amenity": "post_box", "brand": "United States Postal Service", "brand:wikidata": "Q668687", "collection_times": "Mo-Fr 17:00; Sa 16:00", "name": "USPS COLLECTION BOX - BLUE BOX", "note": "ON 12/24 AND 12/31, THIS BOX MAY BE COLLECTED AS EARLY AS 12 NOON.", "nsi_id": "unitedstatespostalservice-a77078", "operator": "United States Postal Service", "operator:short": "USPS", "operator:type": "public", "operator:wikidata": "Q668687", "ref": "2606200006"}, "type": "Feature"}
{"dataset_attributes": {"@spider": "usps_collection_boxes", "spider:collection_time": "2023-12-28T08:25:01.581378"}, "geometry": {"coordinates": [-80.6064999, 40.397998], "type": "Point"}, "id": "pFiZa1ZFCuFc9sQZucnnXwKmmTI=", "properties": {"@spider": "usps_collection_boxes", "addr:city": "WEIRTON", "addr:country": "US", "addr:full": "3901 BRIGHTWAY ST", "addr:postcode": "26062", "addr:state": "WV", "amenity": "post_box", "brand": "United States Postal Service", "brand:wikidata": "Q668687", "collection_times": "Mo-Fr 16:15; Sa 15:45", "name": "USPS COLLECTION BOX - BLUE BOX", "note": "ON 12/24 AND 12/31, THIS BOX MAY BE COLLECTED AS EARLY AS 12 NOON.", "nsi_id": "unitedstatespostalservice-a77078", "operator": "United States Postal Service", "operator:short": "USPS", "operator:type": "public", "operator:wikidata": "Q668687", "ref": "2606200010"}, "type": "Feature"}
{"dataset_attributes": {"@spider": "usps_collection_boxes", "spider:collection_time": "2023-12-28T08:25:01.581378"}, "geometry": {"coordinates": [-80.5281313, 40.393493], "type": "Point"}, "id": "qn4HGBET5UN9t8OV2Sh5JoPWyxk=", "properties": {"@spider": "usps_collection_boxes", "addr:city": "WEIRTON", "addr:country": "US", "addr:full": "601 COLLIERS WAY", "addr:postcode": "26062", "addr:state": "WV", "amenity": "post_box", "brand": "United States Postal Service", "brand:wikidata": "Q668687", "collection_times": "Mo-Fr 16:00; Sa 15:45", "name": "USPS COLLECTION BOX - BLUE BOX", "note": "ON 12/24 AND 12/31, THIS BOX MAY BE COLLECTED AS EARLY AS 12 NOON.", "nsi_id": "unitedstatespostalservice-a77078", "operator": "United States Postal Service", "operator:short": "USPS", "operator:type": "public", "operator:wikidata": "Q668687", "ref": "2606200012"}, "type": "Feature"}
{"dataset_attributes": {"@spider": "usps_collection_boxes", "spider:collection_time": "2023-12-28T08:25:01.581378"}, "geometry": {"coordinates": [-80.5281521, 40.395555], "type": "Point"}, "id": "OOAh1FjfiSojjCCBx3rNUd5MCgk=", "properties": {"@spider": "usps_collection_boxes", "addr:city": "WEIRTON", "addr:country": "US", "addr:full": "485 COLLIERS WAY", "addr:postcode": "26062", "addr:state": "WV", "amenity": "post_box", "brand": "United States Postal Service", "brand:wikidata": "Q668687", "collection_times": "Mo-Fr 16:00; Sa 15:45", "name": "USPS COLLECTION BOX - BLUE BOX", "note": "ON 12/24 AND 12/31, THIS BOX MAY BE COLLECTED AS EARLY AS 12 NOON.", "nsi_id": "unitedstatespostalservice-a77078", "operator": "United States Postal Service", "operator:short": "USPS", "operator:type": "public", "operator:wikidata": "Q668687", "ref": "2606200013"}, "type": "Feature"}
{"dataset_attributes": {"@spider": "usps_collection_boxes", "spider:collection_time": "2023-12-28T08:25:01.581378"}, "geometry": {"coordinates": [-80.547063155, 40.408969643], "type": "Point"}, "id": "wm3qEakcurtxQVILZIi9fHHo1kc=", "properties": {"@spider": "usps_collection_boxes", "addr:city": "WEIRTON", "addr:country": "US", "addr:full": "317 PENCO RD", "addr:postcode": "26062", "addr:state": "WV", "amenity": "post_box", "brand": "United States Postal Service", "brand:wikidata": "Q668687", "collection_times": "Mo-Fr 17:15; Sa 16:15", "name": "USPS COLLECTION BOX - BLUE BOX", "note": "ON 12/24 AND 12/31, THIS BOX MAY BE COLLECTED AS EARLY AS 12 NOON.", "nsi_id": "unitedstatespostalservice-a77078", "operator": "United States Postal Service", "operator:short": "USPS", "operator:type": "public", "operator:wikidata": "Q668687", "ref": "2606200021"}, "type": "Feature"}
{"dataset_attributes": {"@spider": "usps_collection_boxes", "spider:collection_time": "2023-12-28T08:25:01.581378"}, "geometry": {"coordinates": [-80.547063155, 40.408969643], "type": "Point"}, "id": "oz1YCCYv_3ctor0JCKA78GOkI_w=", "properties": {"@spider": "usps_collection_boxes", "addr:city": "WEIRTON", "addr:country": "US", "addr:full": "317 PENCO RD", "addr:postcode": "26062", "addr:state": "WV", "amenity": "post_box", "brand": "United States Postal Service", "brand:wikidata": "Q668687", "collection_times": "Mo-Fr 17:15; Sa 16:15", "name": "USPS COLLECTION BOX - BLUE BOX", "note": "ON 12/24 AND 12/31, THIS BOX MAY BE COLLECTED AS EARLY AS 12 NOON.", "nsi_id": "unitedstatespostalservice-a77078", "operator": "United States Postal Service", "operator:short": "USPS", "operator:type": "public", "operator:wikidata": "Q668687", "ref": "2606200023"}, "type": "Feature"}
{"dataset_attributes": {"@spider": "usps_collection_boxes", "spider:collection_time": "2023-12-28T08:25:01.581378"}, "geometry": {"coordinates": [-80.5905238, 40.400755], "type": "Point"}, "id": "Z8QV2CH2R8dofo5gT-558HNzUgw=", "properties": {"@spider": "usps_collection_boxes", "addr:city": "WEIRTON", "addr:country": "US", "addr:full": "3500 WEST ST", "addr:postcode": "26062", "addr:state": "WV", "amenity": "post_box", "brand": "United States Postal Service", "brand:wikidata": "Q668687", "collection_times": "Mo-Fr 17:00; Sa 15:45", "name": "USPS COLLECTION BOX - BLUE BOX", "note": "ON 12/24 AND 12/31, THIS BOX MAY BE COLLECTED AS EARLY AS 12 NOON.", "nsi_id": "unitedstatespostalservice-a77078", "operator": "United States Postal Service", "operator:short": "USPS", "operator:type": "public", "operator:wikidata": "Q668687", "ref": "2606200025"}, "type": "Feature"}
{"dataset_attributes": {"@spider": "usps_collection_boxes", "spider:collection_time": "2023-12-28T08:25:01.581378"}, "geometry": {"coordinates": [-80.5905242, 40.400763], "type": "Point"}, "id": "kyZ79rJDEe_XgkrFiQgSDZdcUMI=", "properties": {"@spider": "usps_collection_boxes", "addr:city": "WEIRTON", "addr:country": "US", "addr:full": "3500 WEST ST", "addr:postcode": "26062", "addr:state": "WV", "amenity": "post_box", "brand": "United States Postal Service", "brand:wikidata": "Q668687", "collection_times": "Mo-Fr 17:00; Sa 15:45", "name": "USPS COLLECTION BOX - BLUE BOX", "note": "ON 12/24 AND 12/31, THIS BOX MAY BE COLLECTED AS EARLY AS 12 NOON.", "nsi_id": "unitedstatespostalservice-a77078", "operator": "United States Postal Service", "operator:short": "USPS", "operator:type": "public", "operator:wikidata": "Q668687", "ref": "2606200027"}, "type": "Feature"}
{"dataset_attributes": {"@spider": "usps_collection_boxes", "spider:collection_time": "2023-12-28T08:25:01.581378"}, "geometry": {"coordinates": [-80.5534066, 40.396627], "type": "Point"}, "id": "VOS_2shupY6IJld_b44ttyCIQZs=", "properties": {"@spider": "usps_collection_boxes", "addr:city": "WEIRTON", "addr:country": "US", "addr:full": "100 SAINT THOMAS DR", "addr:postcode": "26062", "addr:state": "WV", "amenity": "post_box", "brand": "United States Postal Service", "brand:wikidata": "Q668687", "collection_times": "Mo-Fr 16:00; Sa 15:30", "name": "USPS COLLECTION BOX - BLUE BOX", "note": "ON 12/24 AND 12/31, THIS BOX MAY BE COLLECTED AS EARLY AS 12 NOON.", "nsi_id": "unitedstatespostalservice-a77078", "operator": "United States Postal Service", "operator:short": "USPS", "operator:type": "public", "operator:wikidata": "Q668687", "ref": "2606200028"}, "type": "Feature"}
{"dataset_attributes": {"@spider": "usps_collection_boxes", "spider:collection_time": "2023-12-28T08:25:01.581378"}, "geometry": {"coordinates": [-80.547028, 40.408997], "type": "Point"}, "id": "0jsuy6KN6D70id9GO2JgWAsu4kA=", "properties": {"@spider": "usps_collection_boxes", "addr:city": "WEIRTON", "addr:country": "US", "addr:full": "317 PENCO RD-MAIN LOBBY", "addr:postcode": "26062", "addr:state": "WV", "amenity": "post_box", "brand": "United States Postal Service", "brand:wikidata": "Q668687", "collection_times": "Mo-Fr 17:45; Sa 16:45", "name": "USPS COLLECTION BOX - PO LOBBY", "note": "ON 12/24 AND 12/31, THIS BOX MAY BE COLLECTED AS EARLY AS 12 NOON.", "nsi_id": "unitedstatespostalservice-a77078", "operator": "United States Postal Service", "operator:short": "USPS", "operator:type": "public", "operator:wikidata": "Q668687", "ref": "2606200033"}, "type": "Feature"}
{"dataset_attributes": {"@spider": "usps_collection_boxes", "spider:collection_time": "2023-12-28T08:25:01.581378"}, "geometry": {"coordinates": [-80.5906349, 40.400809], "type": "Point"}, "id": "KaYjBmUj2eyhEKJ0MO3Lskk97pM=", "properties": {"@spider": "usps_collection_boxes", "addr:city": "WEIRTON", "addr:country": "US", "addr:full": "3500 WEST ST", "addr:postcode": "26062", "addr:state": "WV", "amenity": "post_box", "brand": "United States Postal Service", "brand:wikidata": "Q668687", "collection_times": "Mo-Fr 17:00; Sa 15:45", "name": "USPS COLLECTION BOX - PO LOBBY", "note": "ON 12/24 AND 12/31, THIS BOX MAY BE COLLECTED AS EARLY AS 12 NOON.", "nsi_id": "unitedstatespostalservice-a77078", "operator": "United States Postal Service", "operator:short": "USPS", "operator:type": "public", "operator:wikidata": "Q668687", "ref": "2606200037"}, "type": "Feature"}
{"dataset_attributes": {"@spider": "usps_collection_boxes", "spider:collection_time": "2023-12-28T08:25:01.581378"}, "geometry": {"coordinates": [-80.5895766, 40.406546], "type": "Point"}, "id": "iyD_tOIJtl_eA-MqanDFn_iB3ls=", "properties": {"@spider": "usps_collection_boxes", "addr:city": "WEIRTON", "addr:country": "US", "addr:full": "3126 WEST ST", "addr:postcode": "26062", "addr:state": "WV", "amenity": "post_box", "brand": "United States Postal Service", "brand:wikidata": "Q668687", "collection_times": "Mo-Fr 16:30; Sa 15:45", "name": "USPS COLLECTION BOX - BLUE BOX", "note": "ON 12/24 AND 12/31, THIS BOX MAY BE COLLECTED AS EARLY AS 12 NOON.", "nsi_id": "unitedstatespostalservice-a77078", "operator": "United States Postal Service", "operator:short": "USPS", "operator:type": "public", "operator:wikidata": "Q668687", "ref": "2606200039"}, "type": "Feature"}
{"dataset_attributes": {"@spider": "usps_collection_boxes", "spider:collection_time": "2023-12-28T08:25:01.581378"}, "geometry": {"coordinates": [-80.547063155, 40.408969643], "type": "Point"}, "id": "p6P2WR42gmk15L9w-wbZ6GXDHro=", "properties": {"@spider": "usps_collection_boxes", "addr:city": "WEIRTON", "addr:country": "US", "addr:full": "317 PENCO RD", "addr:postcode": "26062", "addr:state": "WV", "amenity": "post_box", "brand": "United States Postal Service", "brand:wikidata": "Q668687", "collection_times": "Mo-Fr 17:00; Sa 14:00", "name": "USPS COLLECTION BOX - PO LOBBY", "note": "ON 12/24 AND 12/31, THIS BOX MAY BE COLLECTED AS EARLY AS 12 NOON.", "nsi_id": "unitedstatespostalservice-a77078", "operator": "United States Postal Service", "operator:short": "USPS", "operator:type": "public", "operator:wikidata": "Q668687", "ref": "2606200041"}, "type": "Feature"}
{"dataset_attributes": {"@spider": "usps_collection_boxes", "spider:collection_time": "2023-12-28T08:25:01.581378"}, "geometry": {"coordinates": [-80.590653413, 40.400887538], "type": "Point"}, "id": "FsjJ4WUArnm02BmXYbYFhOtV-eA=", "properties": {"@spider": "usps_collection_boxes", "addr:city": "WEIRTON", "addr:country": "US", "addr:full": "115 MILDREN AVE", "addr:postcode": "26062", "addr:state": "WV", "amenity": "post_box", "brand": "United States Postal Service", "brand:wikidata": "Q668687", "collection_times": "Mo-Fr 17:00", "name": "USPS COLLECTION BOX - PO LOBBY", "note": "ON 12/24 AND 12/31, THIS BOX MAY BE COLLECTED AS EARLY AS 12 NOON.", "nsi_id": "unitedstatespostalservice-a77078", "operator": "United States Postal Service", "operator:short": "USPS", "operator:type": "public", "operator:wikidata": "Q668687", "ref": "2606200042"}, "type": "Feature"}
{"dataset_attributes": {"@spider": "usps_collection_boxes", "spider:collection_time": "2023-12-28T08:25:01.581378"}, "geometry": {"coordinates": [-80.611892, 40.271954], "type": "Point"}, "id": "6FLFd8qt_imJKpuU-1PbJ0M7t24=", "properties": {"@spider": "usps_collection_boxes", "addr:city": "WELLSBURG", "addr:country": "US", "addr:full": "931 CHARLES ST", "addr:postcode": "26070", "addr:state": "WV", "amenity": "post_box", "brand": "United States Postal Service", "brand:wikidata": "Q668687", "collection_times": "Mo-Fr 17:00; Sa 15:30", "name": "USPS COLLECTION BOX - BLUE BOX", "note": "ON 12/24 AND 12/31, THIS BOX MAY BE COLLECTED AS EARLY AS 12 NOON.", "nsi_id": "unitedstatespostalservice-a77078", "operator": "United States Postal Service", "operator:short": "USPS", "operator:type": "public", "operator:wikidata": "Q668687", "ref": "2607000001"}, "type": "Feature"}
{"dataset_attributes": {"@spider": "usps_collection_boxes", "spider:collection_time": "2023-12-28T08:25:01.581378"}, "geometry": {"coordinates": [-80.6092663, 40.290303], "type": "Point"}, "id": "IIAetayWuMg641rC7FLyYQUnHyU=", "properties": {"@spider": "usps_collection_boxes", "addr:city": "WELLSBURG", "addr:country": "US", "addr:full": "91 27TH ST", "addr:postcode": "26070", "addr:state": "WV", "amenity": "post_box", "brand": "United States Postal Service", "brand:wikidata": "Q668687", "collection_times": "Mo-Sa 11:00", "name": "USPS COLLECTION BOX - BLUE BOX", "nsi_id": "unitedstatespostalservice-a77078", "operator": "United States Postal Service", "operator:short": "USPS", "operator:type": "public", "operator:wikidata": "Q668687", "ref": "2607000006"}, "type": "Feature"}
{"dataset_attributes": {"@spider": "usps_collection_boxes", "spider:collection_time": "2023-12-28T08:25:01.581378"}, "geometry": {"coordinates": [-80.612834, 40.269729], "type": "Point"}, "id": "rEHmrp8_P3ZgXHhNuVRZ53tz8uo=", "properties": {"@spider": "usps_collection_boxes", "addr:city": "WELLSBURG", "addr:country": "US", "addr:full": "70 TOWN SQ", "addr:postcode": "26070", "addr:state": "WV", "amenity": "post_box", "brand": "United States Postal Service", "brand:wikidata": "Q668687", "collection_times": "Mo-Sa 14:15", "name": "USPS COLLECTION BOX - BLUE BOX", "note": "ON 12/24 AND 12/31, THIS BOX MAY BE COLLECTED AS EARLY AS 12 NOON.", "nsi_id": "unitedstatespostalservice-a77078", "operator": "United States Postal Service", "operator:short": "USPS", "operator:type": "public", "operator:wikidata": "Q668687", "ref": "2607000010"}, "type": "Feature"}
{"dataset_attributes": {"@spider": "usps_collection_boxes", "spider:collection_time": "2023-12-28T08:25:01.581378"}, "geometry": {"coordinates": [-80.611892, 40.271954], "type": "Point"}, "id": "BbTzYQf4VADO3syiO6pOvjvJF1M=", "properties": {"@spider": "usps_collection_boxes", "addr:city": "WELLSBURG", "addr:country": "US", "addr:full": "931 CHARLES ST", "addr:postcode": "26070", "addr:state": "WV", "amenity": "post_box", "brand": "United States Postal Service", "brand:wikidata": "Q668687", "collection_times": "Mo-Fr 17:00; Sa 15:30", "name": "USPS COLLECTION BOX - BLUE BOX", "note": "ON 12/24 AND 12/31, THIS BOX MAY BE COLLECTED AS EARLY AS 12 NOON.", "nsi_id": "unitedstatespostalservice-a77078", "operator": "United States Postal Service", "operator:short": "USPS", "operator:type": "public", "operator:wikidata": "Q668687", "ref": "2607000012"}, "type": "Feature"}
{"dataset_attributes": {"@spider": "usps_collection_boxes", "spider:collection_time": "2023-12-28T08:25:01.581378"}, "geometry": {"coordinates": [-80.611784, 40.272047], "type": "Point"}, "id": "aGcMWGSzSMZbo5xxbQ2A4AW4sWg=", "properties": {"@spider": "usps_collection_boxes", "addr:city": "WELLSBURG", "addr:country": "US", "addr:full": "944 CHARLES ST LBBY", "addr:postcode": "26070", "addr:state": "WV", "amenity": "post_box", "brand": "United States Postal Service", "brand:wikidata": "Q668687", "collection_times": "Mo-Fr 17:00; Sa 15:30", "name": "USPS COLLECTION BOX - PO LOBBY", "note": "ON 12/24 AND 12/31, THIS BOX MAY BE COLLECTED AS EARLY AS 12 NOON.", "nsi_id": "unitedstatespostalservice-a77078", "operator": "United States Postal Service", "operator:short": "USPS", "operator:type": "public", "operator:wikidata": "Q668687", "ref": "2607000013"}, "type": "Feature"}
{"dataset_attributes": {"@spider": "usps_collection_boxes", "spider:collection_time": "2023-12-28T08:25:01.581378"}, "geometry": {"coordinates": [-80.6116985, 40.272211752], "type": "Point"}, "id": "36GI1-lfmcrg3LAw171xfSpiG8s=", "properties": {"@spider": "usps_collection_boxes", "addr:city": "WELLSBURG", "addr:country": "US", "addr:full": "944 CHARLES ST", "addr:postcode": "26070", "addr:state": "WV", "amenity": "post_box", "brand": "United States Postal Service", "brand:wikidata": "Q668687", "collection_times": "Mo-Fr 17:00; Sa 12:00", "name": "USPS COLLECTION BOX - PO LOBBY", "note": "ON 12/24 AND 12/31, THIS BOX MAY BE COLLECTED AS EARLY AS 12 NOON.", "nsi_id": "unitedstatespostalservice-a77078", "operator": "United States Postal Service", "operator:short": "USPS", "operator:type": "public", "operator:wikidata": "Q668687", "ref": "2607000015"}, "type": "Feature"}
{"dataset_attributes": {"@spider": "usps_collection_boxes", "spider:collection_time": "2023-12-28T08:25:01.581378"}, "geometry": {"coordinates": [-80.663802061, 40.191009565], "type": "Point"}, "id": "56hYWl2dcOK3HPCWqA0O-3awQxs=", "properties": {"@spider": "usps_collection_boxes", "addr:city": "WINDSOR HEIGHTS", "addr:country": "US", "addr:full": "728 WINDY HILL RD", "addr:postcode": "26075", "addr:state": "WV", "amenity": "post_box", "brand": "United States Postal Service", "brand:wikidata": "Q668687", "collection_times": "Mo-Fr 11:55; Sa 11:45", "name": "USPS COLLECTION BOX - BLUE BOX", "nsi_id": "unitedstatespostalservice-a77078", "operator": "United States Postal Service", "operator:short": "USPS", "operator:type": "public", "operator:wikidata": "Q668687", "ref": "2607500001"}, "type": "Feature"}
{"dataset_attributes": {"@spider": "usps_collection_boxes", "spider:collection_time": "2023-12-28T08:25:01.581378"}, "geometry": {"coordinates": [-80.665192, 40.188721], "type": "Point"}, "id": "ZE2uGQr5lkdunghcanCo6O7otAY=", "properties": {"@spider": "usps_collection_boxes", "addr:city": "WINDSOR HEIGHTS", "addr:country": "US", "addr:full": "728 WINDY HILL RD LBBY", "addr:postcode": "26075", "addr:state": "WV", "amenity": "post_box", "brand": "United States Postal Service", "brand:wikidata": "Q668687", "collection_times": "Mo-Fr 11:55; Sa 11:45", "name": "USPS COLLECTION BOX - PO LOBBY", "nsi_id": "unitedstatespostalservice-a77078", "operator": "United States Postal Service", "operator:short": "USPS", "operator:type": "public", "operator:wikidata": "Q668687", "ref": "2607500002"}, "type": "Feature"}
{"dataset_attributes": {"@spider": "usps_collection_boxes", "spider:collection_time": "2023-12-28T08:25:01.581378"}, "geometry": {"coordinates": [-80.663802061, 40.191009565], "type": "Point"}, "id": "92DD7uPTWdb-sr8o_QCMUrqgkAA=", "properties": {"@spider": "usps_collection_boxes", "addr:city": "WINDSOR HEIGHTS", "addr:country": "US", "addr:full": "728 WINDY HILL RD", "addr:postcode": "26075", "addr:state": "WV", "amenity": "post_box", "brand": "United States Postal Service", "brand:wikidata": "Q668687", "collection_times": "Mo-Sa 11:55", "name": "USPS COLLECTION BOX - PO LOBBY", "nsi_id": "unitedstatespostalservice-a77078", "operator": "United States Postal Service", "operator:short": "USPS", "operator:type": "public", "operator:wikidata": "Q668687", "ref": "2607500004"}, "type": "Feature"}
