{"geometry": {"coordinates": [-81.560394712, 39.265887546], "type": "Point"}, "id": "P29dSdjdDeMX2geevGJo-Yz0obE=", "properties": {"@spider": "usps_collection_boxes", "addr:city": "PARKERSBURG", "addr:country": "US", "addr:full": "501 MARKET ST", "addr:postcode": "26101", "addr:state": "WV", "brand": "USPS", "collection_times": "Mo-Fr 12:30; Sa 10:00", "name": "USPS COLLECTION BOX - BLUE BOX", "note": "ON 12/24 AND 12/31, THIS BOX MAY BE COLLECTED AS EARLY AS 12 NOON.", "ref": "2610100001"}, "type": "Feature"}
{"geometry": {"coordinates": [-81.55825409, 39.265573368], "type": "Point"}, "id": "PLMdXTjDTnB9YMyx58BifXNR19c=", "properties": {"@spider": "usps_collection_boxes", "addr:city": "PARKERSBURG", "addr:country": "US", "addr:full": "601 AVERY ST", "addr:postcode": "26101", "addr:state": "WV", "brand": "USPS", "collection_times": "Mo-Sa 08:30", "name": "USPS COLLECTION BOX - BLUE BOX", "ref": "2610100009"}, "type": "Feature"}
{"geometry": {"coordinates": [-81.5410989, 39.26755], "type": "Point"}, "id": "WMOrNVYtM9oWsQg_wwD7rQRy1-I=", "properties": {"@spider": "usps_collection_boxes", "addr:city": "PARKERSBURG", "addr:country": "US", "addr:full": "1210 13TH ST", "addr:postcode": "26101", "addr:state": "WV", "brand": "USPS", "collection_times": "Mo-Fr 12:15; Sa 09:00", "name": "USPS COLLECTION BOX - BLUE BOX", "note": "ON 12/24 AND 12/31, THIS BOX MAY BE COLLECTED AS EARLY AS 12 NOON.", "ref": "2610100017"}, "type": "Feature"}
{"geometry": {"coordinates": [-81.552905847, 39.250665733], "type": "Point"}, "id": "KwlFONmEzLZszaM9zib8XreS5jQ=", "properties": {"@spider": "usps_collection_boxes", "addr:city": "PARKERSBURG", "addr:country": "US", "addr:full": "806 NEAL ST", "addr:postcode": "26101", "addr:state": "WV", "brand": "USPS", "collection_times": "Mo-Fr 15:00; Sa 12:30", "name": "USPS COLLECTION BOX - BLUE BOX", "note": "ON 12/24 AND 12/31, THIS BOX MAY BE COLLECTED AS EARLY AS 12 NOON.", "ref": "2610100018"}, "type": "Feature"}
{"geometry": {"coordinates": [-81.5529058467, 39.2506567333], "type": "Point"}, "id": "qTy92zm7YvYx6K1b0SY5G2aRgx4=", "properties": {"@spider": "usps_collection_boxes", "addr:city": "PARKERSBURG", "addr:country": "US", "addr:full": "806 NEAL ST", "addr:postcode": "26101", "addr:state": "WV", "brand": "USPS", "collection_times": "Mo-Fr 15:00; Sa 12:30", "name": "USPS COLLECTION BOX - BLUE BOX", "note": "ON 12/24 AND 12/31, THIS BOX MAY BE COLLECTED AS EARLY AS 12 NOON.", "ref": "2610100019"}, "type": "Feature"}
{"geometry": {"coordinates": [-81.55189709, 39.28660928], "type": "Point"}, "id": "EKghU9uLZ12nggyX66iGF5SA6Pc=", "properties": {"@spider": "usps_collection_boxes", "addr:city": "PARKERSBURG", "addr:country": "US", "addr:full": "180 PARK CENTER DR", "addr:postcode": "26101", "addr:state": "WV", "brand": "USPS", "collection_times": "Mo-Sa 11:30", "name": "USPS COLLECTION BOX - BLUE BOX", "ref": "2610100021"}, "type": "Feature"}
{"geometry": {"coordinates": [-81.5212165895, 39.2686139887], "type": "Point"}, "id": "qKvePM6330vHJ_GybhGAZwH0nsA=", "properties": {"@spider": "usps_collection_boxes", "addr:city": "PARKERSBURG", "addr:country": "US", "addr:full": "2007 7TH ST", "addr:postcode": "26101", "addr:state": "WV", "brand": "USPS", "collection_times": "Mo-Sa 12:15", "name": "USPS COLLECTION BOX - BLUE BOX", "note": "ON 12/24 AND 12/31, THIS BOX MAY BE COLLECTED AS EARLY AS 12 NOON.", "ref": "2610100032"}, "type": "Feature"}
{"geometry": {"coordinates": [-81.5450503692, 39.2326700743], "type": "Point"}, "id": "yxCoxzfr9hXFLWonTF3eHXgrsck=", "properties": {"@spider": "usps_collection_boxes", "addr:city": "PARKERSBURG", "addr:country": "US", "addr:full": "100 GIHON VLG", "addr:postcode": "26101", "addr:state": "WV", "brand": "USPS", "collection_times": "Mo-Sa 12:00", "name": "USPS COLLECTION BOX - BLUE BOX", "ref": "2610100041"}, "type": "Feature"}
{"geometry": {"coordinates": [-81.5449933, 39.232958], "type": "Point"}, "id": "7hCgROfR5td4hzZdZFOFg3Xl7M0=", "properties": {"@spider": "usps_collection_boxes", "addr:city": "PARKERSBURG", "addr:country": "US", "addr:full": "100 GIHON VLG", "addr:postcode": "26101", "addr:state": "WV", "brand": "USPS", "collection_times": "Mo-Sa 12:00", "name": "USPS COLLECTION BOX - BLUE BOX", "ref": "2610100042"}, "type": "Feature"}
{"geometry": {"coordinates": [-81.5571008, 39.249214], "type": "Point"}, "id": "1ewN6US8zMNyKSCna3qQYcAcq7o=", "properties": {"@spider": "usps_collection_boxes", "addr:city": "PARKERSBURG", "addr:country": "US", "addr:full": "1050 DIVISION ST", "addr:postcode": "26101", "addr:state": "WV", "brand": "USPS", "collection_times": "Mo-Sa 12:00", "name": "USPS COLLECTION BOX - BLUE BOX", "ref": "2610100044"}, "type": "Feature"}
{"geometry": {"coordinates": [-81.5629179597, 39.2647220005], "type": "Point"}, "id": "m6BmVJFOWhhD_i9r05506AGPI2w=", "properties": {"@spider": "usps_collection_boxes", "addr:city": "PARKERSBURG", "addr:country": "US", "addr:full": "1 COURT SQ", "addr:postcode": "26101", "addr:state": "WV", "brand": "USPS", "collection_times": "Mo-Fr 10:30; Sa 09:15", "name": "USPS COLLECTION BOX - BLUE BOX", "ref": "2610100049"}, "type": "Feature"}
{"geometry": {"coordinates": [-81.5510444, 39.276925], "type": "Point"}, "id": "XdftY3nddfy0WCfMs6QY-MhPV7w=", "properties": {"@spider": "usps_collection_boxes", "addr:city": "PARKERSBURG", "addr:country": "US", "addr:full": "600 18TH ST", "addr:postcode": "26101", "addr:state": "WV", "brand": "USPS", "collection_times": "Mo-Sa 12:30", "name": "USPS COLLECTION BOX - BLUE BOX", "note": "ON 12/24 AND 12/31, THIS BOX MAY BE COLLECTED AS EARLY AS 12 NOON.", "ref": "2610100052"}, "type": "Feature"}
{"geometry": {"coordinates": [-81.5633826, 39.263866], "type": "Point"}, "id": "NMoePHsp6-aMEC4NKcY2e1hJuRA=", "properties": {"@spider": "usps_collection_boxes", "addr:city": "PARKERSBURG", "addr:country": "US", "addr:full": "2 GOVERNMENT SQ", "addr:postcode": "26101", "addr:state": "WV", "brand": "USPS", "collection_times": "Mo-Fr 12:30; Sa 09:00", "name": "USPS COLLECTION BOX - BLUE BOX", "note": "ON 12/24 AND 12/31, THIS BOX MAY BE COLLECTED AS EARLY AS 12 NOON.", "ref": "2610100071"}, "type": "Feature"}
{"geometry": {"coordinates": [-81.5773558, 39.263947], "type": "Point"}, "id": "KrjX3w5TXvRFtUSElcLe7UjLbRQ=", "properties": {"@spider": "usps_collection_boxes", "addr:city": "PARKERSBURG", "addr:country": "US", "addr:full": "100 STAR AVE", "addr:postcode": "26101", "addr:state": "WV", "brand": "USPS", "collection_times": "Mo-Sa 08:30", "name": "USPS COLLECTION BOX - BLUE BOX", "ref": "2610100080"}, "type": "Feature"}
{"geometry": {"coordinates": [-81.5542837309, 39.2696782021], "type": "Point"}, "id": "SjSP1e5heJkCB7jxai2ZyeS-pV4=", "properties": {"@spider": "usps_collection_boxes", "addr:city": "PARKERSBURG", "addr:country": "US", "addr:full": "1050 MARKET ST", "addr:postcode": "26101", "addr:state": "WV", "brand": "USPS", "collection_times": "Mo-Fr 17:00; Sa 12:00", "name": "USPS COLLECTION BOX - BLUE BOX", "note": "ON 12/24 AND 12/31, THIS BOX MAY BE COLLECTED AS EARLY AS 12 NOON.", "ref": "2610100087"}, "type": "Feature"}
{"geometry": {"coordinates": [-81.554288187, 39.269678186], "type": "Point"}, "id": "WAlKPrQgwlmZEUbkORLq4LBfrH8=", "properties": {"@spider": "usps_collection_boxes", "addr:city": "PARKERSBURG", "addr:country": "US", "addr:full": "1050 MARKET ST", "addr:postcode": "26101", "addr:state": "WV", "brand": "USPS", "collection_times": "Mo-Fr 17:00; Sa 12:00", "name": "USPS COLLECTION BOX - BLUE BOX", "note": "ON 12/24 AND 12/31, THIS BOX MAY BE COLLECTED AS EARLY AS 12 NOON.", "ref": "2610100088"}, "type": "Feature"}
{"geometry": {"coordinates": [-81.554288187, 39.269678186], "type": "Point"}, "id": "uwDEraDlQGY3aV4qM1jQPmqlu1g=", "properties": {"@spider": "usps_collection_boxes", "addr:city": "PARKERSBURG", "addr:country": "US", "addr:full": "1050 MARKET ST", "addr:postcode": "26101", "addr:state": "WV", "brand": "USPS", "collection_times": "Mo-Fr 17:00; Sa 12:00", "name": "USPS COLLECTION BOX - BLUE BOX", "note": "ON 12/24 AND 12/31, THIS BOX MAY BE COLLECTED AS EARLY AS 12 NOON.", "ref": "2610100090"}, "type": "Feature"}
{"geometry": {"coordinates": [-81.5270961, 39.238485], "type": "Point"}, "id": "-UIGyggzA4CJpz4zS2iUgkaKo_U=", "properties": {"@spider": "usps_collection_boxes", "addr:city": "PARKERSBURG", "addr:country": "US", "addr:full": "400 RAYON DR", "addr:postcode": "26101", "addr:state": "WV", "brand": "USPS", "collection_times": "Mo-Sa 17:30", "name": "USPS COLLECTION BOX - BLUE BOX", "note": "ON 12/24 AND 12/31, THIS BOX MAY BE COLLECTED AS EARLY AS 12 NOON.", "ref": "2610100093"}, "type": "Feature"}
{"geometry": {"coordinates": [-81.554288187, 39.269678186], "type": "Point"}, "id": "c2cdNfI1XADGTZVvW3EROSiV54A=", "properties": {"@spider": "usps_collection_boxes", "addr:city": "PARKERSBURG", "addr:country": "US", "addr:full": "1050 MARKET ST", "addr:postcode": "26101", "addr:state": "WV", "brand": "USPS", "collection_times": "Mo-Fr 17:00; Sa 12:00", "name": "USPS COLLECTION BOX - BLUE BOX", "note": "ON 12/24 AND 12/31, THIS BOX MAY BE COLLECTED AS EARLY AS 12 NOON.", "ref": "2610100096"}, "type": "Feature"}
{"geometry": {"coordinates": [-81.552905847, 39.250656733], "type": "Point"}, "id": "5kg6oKaDA71AqxsVLkggiCIFW2g=", "properties": {"@spider": "usps_collection_boxes", "addr:city": "PARKERSBURG", "addr:country": "US", "addr:full": "806 NEAL ST", "addr:postcode": "26101", "addr:state": "WV", "brand": "USPS", "collection_times": "Mo-Fr 12:00", "name": "USPS COLLECTION BOX - PO LOBBY", "ref": "2610100104"}, "type": "Feature"}
{"geometry": {"coordinates": [-81.550638, 39.301233687], "type": "Point"}, "id": "hAAPVoxCwdGc8GwyI9tcAwUAxow=", "properties": {"@spider": "usps_collection_boxes", "addr:city": "PARKERSBURG", "addr:country": "US", "addr:full": "230 GRAND CENTRAL MALL", "addr:postcode": "26101", "addr:state": "WV", "brand": "USPS", "collection_times": "Mo-Fr 12:00", "name": "USPS COLLECTION BOX - PO LOBBY", "ref": "2610100105"}, "type": "Feature"}
{"geometry": {"coordinates": [-81.554288187, 39.269678186], "type": "Point"}, "id": "KnHQYPAUC9swRX0pZnS9aZ3_tHU=", "properties": {"@spider": "usps_collection_boxes", "addr:city": "PARKERSBURG", "addr:country": "US", "addr:full": "1050 MARKET ST", "addr:postcode": "26101", "addr:state": "WV", "brand": "USPS", "collection_times": "Mo-Fr 17:00; Sa 12:00", "name": "USPS COLLECTION BOX - PO LOBBY", "note": "ON 12/24 AND 12/31, THIS BOX MAY BE COLLECTED AS EARLY AS 12 NOON.", "ref": "2610100106"}, "type": "Feature"}
{"geometry": {"coordinates": [-81.531530044, 39.28692887], "type": "Point"}, "id": "x2rwEdIhz9PXTj3LA9pOP3CFxP4=", "properties": {"@spider": "usps_collection_boxes", "addr:city": "PARKERSBURG", "addr:country": "US", "addr:full": "3505 CENTRAL AVE", "addr:postcode": "26104", "addr:state": "WV", "brand": "USPS", "collection_times": "Mo-Fr 15:00; Sa 12:00", "name": "USPS COLLECTION BOX - BLUE BOX", "note": "ON 12/24 AND 12/31, THIS BOX MAY BE COLLECTED AS EARLY AS 12 NOON.", "ref": "2610400005"}, "type": "Feature"}
{"geometry": {"coordinates": [-81.531530044, 39.28692887], "type": "Point"}, "id": "kLDhaZan5rdwhgwv5YbO9CYf3BE=", "properties": {"@spider": "usps_collection_boxes", "addr:city": "PARKERSBURG", "addr:country": "US", "addr:full": "3505 CENTRAL AVE", "addr:postcode": "26104", "addr:state": "WV", "brand": "USPS", "collection_times": "Mo-Fr 15:00; Sa 12:00", "name": "USPS COLLECTION BOX - BLUE BOX", "note": "ON 12/24 AND 12/31, THIS BOX MAY BE COLLECTED AS EARLY AS 12 NOON.", "ref": "2610400006"}, "type": "Feature"}
{"geometry": {"coordinates": [-81.5230504, 39.294051], "type": "Point"}, "id": "rXsS9U-rtTYUizwW6kkcn5JTpkg=", "properties": {"@spider": "usps_collection_boxes", "addr:city": "PARKERSBURG", "addr:country": "US", "addr:full": "1 ROSEMAR CIR", "addr:postcode": "26104", "addr:state": "WV", "brand": "USPS", "collection_times": "Mo-Sa 12:30", "name": "USPS COLLECTION BOX - BLUE BOX", "note": "ON 12/24 AND 12/31, THIS BOX MAY BE COLLECTED AS EARLY AS 12 NOON.", "ref": "2610400018"}, "type": "Feature"}
{"geometry": {"coordinates": [-81.531530044, 39.28692887], "type": "Point"}, "id": "uKf0ZMVFQ82y_JhffoEAACLsDIU=", "properties": {"@spider": "usps_collection_boxes", "addr:city": "PARKERSBURG", "addr:country": "US", "addr:full": "3505 CENTRAL AVE", "addr:postcode": "26104", "addr:state": "WV", "brand": "USPS", "collection_times": "Mo-Fr 15:00; Sa 12:00", "name": "USPS COLLECTION BOX - BLUE BOX", "note": "ON 12/24 AND 12/31, THIS BOX MAY BE COLLECTED AS EARLY AS 12 NOON.", "ref": "2610400021"}, "type": "Feature"}
{"geometry": {"coordinates": [-81.531530044, 39.28692887], "type": "Point"}, "id": "yi-EBwmiWrOnjASiuSsyCvseFrk=", "properties": {"@spider": "usps_collection_boxes", "addr:city": "PARKERSBURG", "addr:country": "US", "addr:full": "3505 CENTRAL AVE", "addr:postcode": "26104", "addr:state": "WV", "brand": "USPS", "collection_times": "Mo-Sa 12:00", "name": "USPS COLLECTION BOX - PO LOBBY", "ref": "2610400024"}, "type": "Feature"}
{"geometry": {"coordinates": [-81.5491709679, 39.3060169971], "type": "Point"}, "id": "gbAqVF7sr0mneTZhwf7KkNsnsIA=", "properties": {"@spider": "usps_collection_boxes", "addr:city": "PARKERSBURG", "addr:country": "US", "addr:full": "800 GRAND CENTRAL AVE", "addr:postcode": "26105", "addr:state": "WV", "brand": "USPS", "collection_times": "Mo-Sa 13:00", "name": "USPS COLLECTION BOX - BLUE BOX", "note": "ON 12/24 AND 12/31, THIS BOX MAY BE COLLECTED AS EARLY AS 12 NOON.", "ref": "2610500000"}, "type": "Feature"}
{"geometry": {"coordinates": [-81.5378605, 39.3339], "type": "Point"}, "id": "w5bejLDnKjKA35I-V3_ocxt68N4=", "properties": {"@spider": "usps_collection_boxes", "addr:city": "PARKERSBURG", "addr:country": "US", "addr:full": "815 46TH ST", "addr:postcode": "26105", "addr:state": "WV", "brand": "USPS", "collection_times": "Mo-Sa 12:45", "name": "USPS COLLECTION BOX - BLUE BOX", "note": "ON 12/24 AND 12/31, THIS BOX MAY BE COLLECTED AS EARLY AS 12 NOON.", "ref": "2610500002"}, "type": "Feature"}
{"geometry": {"coordinates": [-81.5477084, 39.324649], "type": "Point"}, "id": "qM_lnDNq64TD_wnT8C1j1HGUzBU=", "properties": {"@spider": "usps_collection_boxes", "addr:city": "PARKERSBURG", "addr:country": "US", "addr:full": "609 29TH ST", "addr:postcode": "26105", "addr:state": "WV", "brand": "USPS", "collection_times": "Mo-Sa 12:45", "name": "USPS COLLECTION BOX - BLUE BOX", "note": "ON 12/24 AND 12/31, THIS BOX MAY BE COLLECTED AS EARLY AS 12 NOON.", "ref": "2610500003"}, "type": "Feature"}
{"geometry": {"coordinates": [-81.549834982, 39.323107991], "type": "Point"}, "id": "SZHj2aVlNiXSy0ZGAeKmOO-T24Q=", "properties": {"@spider": "usps_collection_boxes", "addr:city": "PARKERSBURG", "addr:country": "US", "addr:full": "600 27TH ST", "addr:postcode": "26105", "addr:state": "WV", "brand": "USPS", "collection_times": "Mo-Fr 16:30; Sa 12:00", "name": "USPS COLLECTION BOX - BLUE BOX", "note": "ON 12/24 AND 12/31, THIS BOX MAY BE COLLECTED AS EARLY AS 12 NOON.", "ref": "2610500006"}, "type": "Feature"}
{"geometry": {"coordinates": [-81.549834982, 39.323107991], "type": "Point"}, "id": "6xfcga-5heM2ZMb_u7IWmdsU-RI=", "properties": {"@spider": "usps_collection_boxes", "addr:city": "PARKERSBURG", "addr:country": "US", "addr:full": "600 27TH ST", "addr:postcode": "26105", "addr:state": "WV", "brand": "USPS", "collection_times": "Mo-Fr 16:30; Sa 12:00", "name": "USPS COLLECTION BOX - BLUE BOX", "note": "ON 12/24 AND 12/31, THIS BOX MAY BE COLLECTED AS EARLY AS 12 NOON.", "ref": "2610500007"}, "type": "Feature"}
{"geometry": {"coordinates": [-81.549834982, 39.323107991], "type": "Point"}, "id": "J-zrFJc2gZthpq-rh0ITsS0r5DE=", "properties": {"@spider": "usps_collection_boxes", "addr:city": "PARKERSBURG", "addr:country": "US", "addr:full": "600 27TH ST", "addr:postcode": "26105", "addr:state": "WV", "brand": "USPS", "collection_times": "Mo-Fr 16:30; Sa 12:00", "name": "USPS COLLECTION BOX - BLUE BOX", "note": "ON 12/24 AND 12/31, THIS BOX MAY BE COLLECTED AS EARLY AS 12 NOON.", "ref": "2610500011"}, "type": "Feature"}
{"geometry": {"coordinates": [-81.549834982, 39.323107991], "type": "Point"}, "id": "7HDxgJ1crJ49R8tZTFZuL4Gf0Og=", "properties": {"@spider": "usps_collection_boxes", "addr:city": "PARKERSBURG", "addr:country": "US", "addr:full": "600 27TH ST", "addr:postcode": "26105", "addr:state": "WV", "brand": "USPS", "collection_times": "Mo-Fr 16:30; Sa 12:00", "name": "USPS COLLECTION BOX - PO LOBBY", "note": "ON 12/24 AND 12/31, THIS BOX MAY BE COLLECTED AS EARLY AS 12 NOON.", "ref": "2610500013"}, "type": "Feature"}
{"geometry": {"coordinates": [-81.5485491, 39.298892], "type": "Point"}, "id": "-yuUJ5Ky4-czT8SHwX-4pY0davw=", "properties": {"@spider": "usps_collection_boxes", "addr:city": "PARKERSBURG", "addr:country": "US", "addr:full": "417 GRAND PARK DR", "addr:postcode": "26105", "addr:state": "WV", "brand": "USPS", "collection_times": "Mo-Sa 14:30", "name": "USPS COLLECTION BOX - BLUE BOX", "note": "ON 12/24 AND 12/31, THIS BOX MAY BE COLLECTED AS EARLY AS 12 NOON.", "ref": "2610500014"}, "type": "Feature"}
{"geometry": {"coordinates": [-81.549834982, 39.323107991], "type": "Point"}, "id": "K-DNAOSA-BYTLXDtGRrDILDm7kY=", "properties": {"@spider": "usps_collection_boxes", "addr:city": "PARKERSBURG", "addr:country": "US", "addr:full": "600 27TH ST", "addr:postcode": "26105", "addr:state": "WV", "brand": "USPS", "collection_times": "Mo-Sa 12:00", "name": "USPS COLLECTION BOX - PO LOBBY", "ref": "2610500016"}, "type": "Feature"}
{"geometry": {"coordinates": [-81.731137, 39.138555], "type": "Point"}, "id": "WQiuiS0USQwAQQgnHXQLJHKAy74=", "properties": {"@spider": "usps_collection_boxes", "addr:city": "BELLEVILLE", "addr:country": "US", "addr:full": "11293 HARRIS HWY", "addr:postcode": "26133", "addr:state": "WV", "brand": "USPS", "collection_times": "Mo-Fr 11:15; Sa 09:15", "name": "USPS COLLECTION BOX - BLUE BOX", "ref": "2613300000"}, "type": "Feature"}
{"geometry": {"coordinates": [-81.731161, 39.138467], "type": "Point"}, "id": "6YMnPE7D9JjvMJ32rtYXvt0AG5w=", "properties": {"@spider": "usps_collection_boxes", "addr:city": "BELLEVILLE", "addr:country": "US", "addr:full": "11293 HARRIS HWY", "addr:postcode": "26133", "addr:state": "WV", "brand": "USPS", "collection_times": "Mo-Fr 11:15; Sa 09:15", "name": "USPS COLLECTION BOX - PO LOBBY", "ref": "2613300001"}, "type": "Feature"}
{"geometry": {"coordinates": [-81.731111786, 39.138518771], "type": "Point"}, "id": "cwwyPEEABCmoneuF4VNKs5Gr52I=", "properties": {"@spider": "usps_collection_boxes", "addr:city": "BELLEVILLE", "addr:country": "US", "addr:full": "11293 HARRIS HWY", "addr:postcode": "26133", "addr:state": "WV", "brand": "USPS", "collection_times": "Mo-Fr 11:30; Sa 09:30", "name": "USPS COLLECTION BOX - PO LOBBY", "ref": "2613300003"}, "type": "Feature"}
{"geometry": {"coordinates": [-81.259492, 39.377998], "type": "Point"}, "id": "pjB6Bm0JkXpH5FHg2cP_3xs3jIc=", "properties": {"@spider": "usps_collection_boxes", "addr:city": "BELMONT", "addr:country": "US", "addr:full": "310 CLARK ST", "addr:postcode": "26134", "addr:state": "WV", "brand": "USPS", "collection_times": "Mo-Fr 11:45; Sa 12:00", "name": "USPS COLLECTION BOX - BLUE BOX", "ref": "2613400000"}, "type": "Feature"}
{"geometry": {"coordinates": [-81.259538, 39.377944], "type": "Point"}, "id": "wW6_LlWmuJeNu4YIYzEomp4Ngyo=", "properties": {"@spider": "usps_collection_boxes", "addr:city": "BELMONT", "addr:country": "US", "addr:full": "310 CLARK ST", "addr:postcode": "26134", "addr:state": "WV", "brand": "USPS", "collection_times": "Mo-Fr 11:45; Sa 12:15", "name": "USPS COLLECTION BOX - PO LOBBY", "note": "ON 12/24 AND 12/31, THIS BOX MAY BE COLLECTED AS EARLY AS 12 NOON.", "ref": "2613400001"}, "type": "Feature"}
{"geometry": {"coordinates": [-81.259468301, 39.379028041], "type": "Point"}, "id": "QnQrZNExe3w1rNRiI7dyxrYPB38=", "properties": {"@spider": "usps_collection_boxes", "addr:city": "BELMONT", "addr:country": "US", "addr:full": "310 CLARK ST", "addr:postcode": "26134", "addr:state": "WV", "brand": "USPS", "collection_times": "Mo-Fr 12:00; Sa 12:15", "name": "USPS COLLECTION BOX - PO LOBBY", "note": "ON 12/24 AND 12/31, THIS BOX MAY BE COLLECTED AS EARLY AS 12 NOON.", "ref": "2613400003"}, "type": "Feature"}
{"geometry": {"coordinates": [-81.461578489, 39.199465773], "type": "Point"}, "id": "pzgTYNcXfoVi5IoGwPQwTj55EzE=", "properties": {"@spider": "usps_collection_boxes", "addr:city": "DAVISVILLE", "addr:country": "US", "addr:full": "6362 STAUNTON TPKE", "addr:postcode": "26142", "addr:state": "WV", "brand": "USPS", "collection_times": "Mo-Fr 15:30; Sa 09:00", "name": "USPS COLLECTION BOX - BLUE BOX", "note": "ON 12/24 AND 12/31, THIS BOX MAY BE COLLECTED AS EARLY AS 12 NOON.", "ref": "2614200000"}, "type": "Feature"}
{"geometry": {"coordinates": [-81.46169, 39.199522], "type": "Point"}, "id": "fMFBFltAXE20hkh7dz8hnfAcMKk=", "properties": {"@spider": "usps_collection_boxes", "addr:city": "DAVISVILLE", "addr:country": "US", "addr:full": "6362 STAUNTON TPKE", "addr:postcode": "26142", "addr:state": "WV", "brand": "USPS", "collection_times": "Mo-Fr 14:00; Sa 09:00", "name": "USPS COLLECTION BOX - PO LOBBY", "note": "ON 12/24 AND 12/31, THIS BOX MAY BE COLLECTED AS EARLY AS 12 NOON.", "ref": "2614200001"}, "type": "Feature"}
{"geometry": {"coordinates": [-81.461578489, 39.199465773], "type": "Point"}, "id": "WN1UDsN4bDr0Ir-fkl18xogQElY=", "properties": {"@spider": "usps_collection_boxes", "addr:city": "DAVISVILLE", "addr:country": "US", "addr:full": "6362 STAUNTON TPKE", "addr:postcode": "26142", "addr:state": "WV", "brand": "USPS", "collection_times": "Mo-Fr 15:30; Sa 10:30", "name": "USPS COLLECTION BOX - PO LOBBY", "note": "ON 12/24 AND 12/31, THIS BOX MAY BE COLLECTED AS EARLY AS 12 NOON.", "ref": "2614200003"}, "type": "Feature"}
{"geometry": {"coordinates": [-81.519954583, 39.182770926], "type": "Point"}, "id": "qgDdEPaeLP7wn3m_7M6M5mAy4Ak=", "properties": {"@spider": "usps_collection_boxes", "addr:city": "MINERAL WELLS", "addr:country": "US", "addr:full": "1259 ELIZABETH PIKE", "addr:postcode": "26150", "addr:state": "WV", "brand": "USPS", "collection_times": "Mo-Fr 16:30; Sa 12:00", "name": "USPS COLLECTION BOX - BLUE BOX", "note": "ON 12/24 AND 12/31, THIS BOX MAY BE COLLECTED AS EARLY AS 12 NOON.", "ref": "2615000001"}, "type": "Feature"}
{"geometry": {"coordinates": [-81.519954583, 39.182770926], "type": "Point"}, "id": "D0jrKVNzg98o3K3UfQguismVFO8=", "properties": {"@spider": "usps_collection_boxes", "addr:city": "MINERAL WELLS", "addr:country": "US", "addr:full": "1259 ELIZABETH PIKE", "addr:postcode": "26150", "addr:state": "WV", "brand": "USPS", "collection_times": "Mo-Fr 16:30; Sa 12:00", "name": "USPS COLLECTION BOX - PO LOBBY", "note": "ON 12/24 AND 12/31, THIS BOX MAY BE COLLECTED AS EARLY AS 12 NOON.", "ref": "2615000003"}, "type": "Feature"}
{"geometry": {"coordinates": [-81.519954583, 39.182770926], "type": "Point"}, "id": "EcQ1kQNqjbz3fuIbiyeMgtes0C0=", "properties": {"@spider": "usps_collection_boxes", "addr:city": "MINERAL WELLS", "addr:country": "US", "addr:full": "1259 ELIZABETH PIKE", "addr:postcode": "26150", "addr:state": "WV", "brand": "USPS", "collection_times": "Mo-Fr 17:00; Sa 12:00", "name": "USPS COLLECTION BOX - PO LOBBY", "note": "ON 12/24 AND 12/31, THIS BOX MAY BE COLLECTED AS EARLY AS 12 NOON.", "ref": "2615000005"}, "type": "Feature"}
{"geometry": {"coordinates": [-81.2045806, 39.388634], "type": "Point"}, "id": "ssFTOEpDNXMDN9Ogt_IfNgeo7bQ=", "properties": {"@spider": "usps_collection_boxes", "addr:city": "SAINT MARYS", "addr:country": "US", "addr:full": "301 COURT LN", "addr:postcode": "26170", "addr:state": "WV", "brand": "USPS", "collection_times": "Mo-Sa 12:30", "name": "USPS COLLECTION BOX - BLUE BOX", "note": "ON 12/24 AND 12/31, THIS BOX MAY BE COLLECTED AS EARLY AS 12 NOON.", "ref": "2617000003"}, "type": "Feature"}
{"geometry": {"coordinates": [-81.205720078, 39.391026036], "type": "Point"}, "id": "Vg-3UD2Wy3xlrt350H6lLK7TQCk=", "properties": {"@spider": "usps_collection_boxes", "addr:city": "SAINT MARYS", "addr:country": "US", "addr:full": "402 2ND ST", "addr:postcode": "26170", "addr:state": "WV", "brand": "USPS", "collection_times": "Mo-Fr 16:00; Sa 11:30", "name": "USPS COLLECTION BOX - PO LOBBY", "note": "ON 12/24 AND 12/31, THIS BOX MAY BE COLLECTED AS EARLY AS 12 NOON.", "ref": "2617000014"}, "type": "Feature"}
{"geometry": {"coordinates": [-81.205720078, 39.391026036], "type": "Point"}, "id": "fy8Km40-kwSs8x1iqeLG6cTgWA0=", "properties": {"@spider": "usps_collection_boxes", "addr:city": "SAINT MARYS", "addr:country": "US", "addr:full": "402 2ND ST", "addr:postcode": "26170", "addr:state": "WV", "brand": "USPS", "collection_times": "Mo-Fr 16:00; Sa 11:30", "name": "USPS COLLECTION BOX - BLUE BOX", "note": "ON 12/24 AND 12/31, THIS BOX MAY BE COLLECTED AS EARLY AS 12 NOON.", "ref": "2617000015"}, "type": "Feature"}
{"geometry": {"coordinates": [-81.205720078, 39.391026036], "type": "Point"}, "id": "6ZoGb2IVJED7UQ6UNTFULcClcTo=", "properties": {"@spider": "usps_collection_boxes", "addr:city": "SAINT MARYS", "addr:country": "US", "addr:full": "402 2ND ST", "addr:postcode": "26170", "addr:state": "WV", "brand": "USPS", "collection_times": "Mo-Fr 16:30; Sa 12:00", "name": "USPS COLLECTION BOX - PO LOBBY", "note": "ON 12/24 AND 12/31, THIS BOX MAY BE COLLECTED AS EARLY AS 12 NOON.", "ref": "2617000018"}, "type": "Feature"}
{"geometry": {"coordinates": [-81.384124, 39.179109], "type": "Point"}, "id": "dmCnrsN4K2i7hYPWEKGX_UNZHEg=", "properties": {"@spider": "usps_collection_boxes", "addr:city": "WALKER", "addr:country": "US", "addr:full": "3928 WALKER RD", "addr:postcode": "26180", "addr:state": "WV", "brand": "USPS", "collection_times": "Mo-Fr 11:45; Sa 10:00", "name": "USPS COLLECTION BOX - BLUE BOX", "ref": "2618000000"}, "type": "Feature"}
{"geometry": {"coordinates": [-81.384007, 39.179132], "type": "Point"}, "id": "GWtCN8YTY5ES7dwhcW_Tlsj5xXM=", "properties": {"@spider": "usps_collection_boxes", "addr:city": "WALKER", "addr:country": "US", "addr:full": "3928 WALKER RD", "addr:postcode": "26180", "addr:state": "WV", "brand": "USPS", "collection_times": "Mo-Fr 11:45; Sa 10:00", "name": "USPS COLLECTION BOX - PO LOBBY", "ref": "2618000001"}, "type": "Feature"}
{"geometry": {"coordinates": [-81.384339164, 39.179125813], "type": "Point"}, "id": "UD43BZbRxy2hIpDby1qoTzrzNYA=", "properties": {"@spider": "usps_collection_boxes", "addr:city": "WALKER", "addr:country": "US", "addr:full": "3928 WALKER RD", "addr:postcode": "26180", "addr:state": "WV", "brand": "USPS", "collection_times": "Mo-Sa 12:00", "name": "USPS COLLECTION BOX - PO LOBBY", "ref": "2618000003"}, "type": "Feature"}
{"geometry": {"coordinates": [-81.671025, 39.261703], "type": "Point"}, "id": "3PiR9Vf6mXAwdkAnywz822fUZSU=", "properties": {"@spider": "usps_collection_boxes", "addr:city": "WASHINGTON", "addr:country": "US", "addr:full": "8791 DUPONT RD", "addr:postcode": "26181", "addr:state": "WV", "brand": "USPS", "collection_times": "Mo-Fr 16:30; Sa 11:00", "name": "USPS COLLECTION BOX - BLUE BOX", "note": "ON 12/24 AND 12/31, THIS BOX MAY BE COLLECTED AS EARLY AS 12 NOON.", "ref": "2618100000"}, "type": "Feature"}
{"geometry": {"coordinates": [-81.67111, 39.261658], "type": "Point"}, "id": "8zHyVrPwZFWPd-ifY9RxNi1FpO8=", "properties": {"@spider": "usps_collection_boxes", "addr:city": "WASHINGTON", "addr:country": "US", "addr:full": "8791 DUPONT RD", "addr:postcode": "26181", "addr:state": "WV", "brand": "USPS", "collection_times": "Mo-Fr 16:30; Sa 11:00", "name": "USPS COLLECTION BOX - PO LOBBY", "note": "ON 12/24 AND 12/31, THIS BOX MAY BE COLLECTED AS EARLY AS 12 NOON.", "ref": "2618100005"}, "type": "Feature"}
{"geometry": {"coordinates": [-81.6497284, 39.213514], "type": "Point"}, "id": "KKSYF4noevbMUpBifBVMNbPIppk=", "properties": {"@spider": "usps_collection_boxes", "addr:city": "WASHINGTON", "addr:country": "US", "addr:full": "34 NEW ENGLAND RIDGE RD", "addr:postcode": "26181", "addr:state": "WV", "brand": "USPS", "collection_times": "Mo-Sa 14:00", "name": "USPS COLLECTION BOX - BLUE BOX", "note": "ON 12/24 AND 12/31, THIS BOX MAY BE COLLECTED AS EARLY AS 12 NOON.", "ref": "2618100006"}, "type": "Feature"}
{"geometry": {"coordinates": [-81.671169186, 39.261540888], "type": "Point"}, "id": "BRZaDH5bpPwVBMJYRSlOCRasyJ0=", "properties": {"@spider": "usps_collection_boxes", "addr:city": "WASHINGTON", "addr:country": "US", "addr:full": "8791 DUPONT RD", "addr:postcode": "26181", "addr:state": "WV", "brand": "USPS", "collection_times": "Mo-Fr 16:30; Sa 12:00", "name": "USPS COLLECTION BOX - PO LOBBY", "note": "ON 12/24 AND 12/31, THIS BOX MAY BE COLLECTED AS EARLY AS 12 NOON.", "ref": "2618100008"}, "type": "Feature"}
{"geometry": {"coordinates": [-81.379871, 39.336115], "type": "Point"}, "id": "ik5HfDclf5QGQAkK0oD53ttAvsQ=", "properties": {"@spider": "usps_collection_boxes", "addr:city": "WAVERLY", "addr:country": "US", "addr:full": "64 WAVERLY ST", "addr:postcode": "26184", "addr:state": "WV", "brand": "USPS", "collection_times": "Mo-Fr 14:00; Sa 10:00", "name": "USPS COLLECTION BOX - BLUE BOX", "note": "ON 12/24 AND 12/31, THIS BOX MAY BE COLLECTED AS EARLY AS 12 NOON.", "ref": "2618400000"}, "type": "Feature"}
{"geometry": {"coordinates": [-81.379901, 39.336145], "type": "Point"}, "id": "4ET82s8tpgJRLeUT4ZJWHwsTCwo=", "properties": {"@spider": "usps_collection_boxes", "addr:city": "WAVERLY", "addr:country": "US", "addr:full": "64 WAVERLY ST", "addr:postcode": "26184", "addr:state": "WV", "brand": "USPS", "collection_times": "Mo-Fr 14:00; Sa 10:00", "name": "USPS COLLECTION BOX - PO LOBBY", "note": "ON 12/24 AND 12/31, THIS BOX MAY BE COLLECTED AS EARLY AS 12 NOON.", "ref": "2618400001"}, "type": "Feature"}
{"geometry": {"coordinates": [-81.379835849, 39.336288779], "type": "Point"}, "id": "5fQC32w0BDSCqYNPVbHjCXC9QMg=", "properties": {"@spider": "usps_collection_boxes", "addr:city": "WAVERLY", "addr:country": "US", "addr:full": "64 WAVERLY ST", "addr:postcode": "26184", "addr:state": "WV", "brand": "USPS", "collection_times": "Mo-Fr 14:00; Sa 10:30", "name": "USPS COLLECTION BOX - PO LOBBY", "note": "ON 12/24 AND 12/31, THIS BOX MAY BE COLLECTED AS EARLY AS 12 NOON.", "ref": "2618400003"}, "type": "Feature"}
{"geometry": {"coordinates": [-81.447264801, 39.402014899], "type": "Point"}, "id": "052hW5OtWFcV2KYLSc96hv_TxH0=", "properties": {"@spider": "usps_collection_boxes", "addr:city": "WILLIAMSTOWN", "addr:country": "US", "addr:full": "420 OAKWOOD AVE", "addr:postcode": "26187", "addr:state": "WV", "brand": "USPS", "collection_times": "Mo-Fr 16:00; Sa 11:30", "name": "USPS COLLECTION BOX - BLUE BOX", "note": "ON 12/24 AND 12/31, THIS BOX MAY BE COLLECTED AS EARLY AS 12 NOON.", "ref": "2618700000"}, "type": "Feature"}
{"geometry": {"coordinates": [-81.447264801, 39.402014899], "type": "Point"}, "id": "i4mWo0dGR4Z_ITo7SgW9ypFg0Fs=", "properties": {"@spider": "usps_collection_boxes", "addr:city": "WILLIAMSTOWN", "addr:country": "US", "addr:full": "420 OAKWOOD AVE", "addr:postcode": "26187", "addr:state": "WV", "brand": "USPS", "collection_times": "Mo-Fr 16:00; Sa 11:30", "name": "USPS COLLECTION BOX - PO LOBBY", "note": "ON 12/24 AND 12/31, THIS BOX MAY BE COLLECTED AS EARLY AS 12 NOON.", "ref": "2618700002"}, "type": "Feature"}
{"geometry": {"coordinates": [-81.447264801, 39.402014899], "type": "Point"}, "id": "-qYyIZEKgkSsEiI-UMggLYHwoAQ=", "properties": {"@spider": "usps_collection_boxes", "addr:city": "WILLIAMSTOWN", "addr:country": "US", "addr:full": "420 OAKWOOD AVE", "addr:postcode": "26187", "addr:state": "WV", "brand": "USPS", "collection_times": "Mo-Fr 16:30; Sa 12:00", "name": "USPS COLLECTION BOX - PO LOBBY", "note": "ON 12/24 AND 12/31, THIS BOX MAY BE COLLECTED AS EARLY AS 12 NOON.", "ref": "2618700005"}, "type": "Feature"}
