{"dataset_attributes": {"@spider": "usps_collection_boxes", "spider:collection_time": "2023-08-28T08:25:48.690851"}, "geometry": {"coordinates": [-80.235744015, 38.993490465], "type": "Point"}, "id": "S0_4dXAARyO1ZrSq_W1FVjO8e2U=", "properties": {"@spider": "usps_collection_boxes", "addr:city": "BUCKHANNON", "addr:country": "US", "addr:full": "5 WESTON RD", "addr:postcode": "26201", "addr:state": "WV", "amenity": "post_box", "brand": "United States Postal Service", "brand:wikidata": "Q668687", "collection_times": "Mo-Sa 09:30", "name": "USPS COLLECTION BOX - BLUE BOX", "nsi_id": "unitedstatespostalservice-a77078", "operator": "United States Postal Service", "operator:short": "USPS", "operator:type": "public", "operator:wikidata": "Q668687", "ref": "2620100001"}, "type": "Feature"}
{"dataset_attributes": {"@spider": "usps_collection_boxes", "spider:collection_time": "2023-08-28T08:25:48.690851"}, "geometry": {"coordinates": [-80.2305029, 38.993963], "type": "Point"}, "id": "xnQBaLFYdxN_VLqnqhbAlEHfvQI=", "properties": {"@spider": "usps_collection_boxes", "addr:city": "BUCKHANNON", "addr:country": "US", "addr:full": "2 E MAIN ST", "addr:postcode": "26201", "addr:state": "WV", "amenity": "post_box", "brand": "United States Postal Service", "brand:wikidata": "Q668687", "collection_times": "Mo-Sa 10:00", "name": "USPS COLLECTION BOX - BLUE BOX", "nsi_id": "unitedstatespostalservice-a77078", "operator": "United States Postal Service", "operator:short": "USPS", "operator:type": "public", "operator:wikidata": "Q668687", "ref": "2620100002"}, "type": "Feature"}
{"dataset_attributes": {"@spider": "usps_collection_boxes", "spider:collection_time": "2023-08-28T08:25:48.690851"}, "geometry": {"coordinates": [-80.2277676, 38.994296], "type": "Point"}, "id": "OlOdFAB-p3rCuD0h7C1-7zG9b4Y=", "properties": {"@spider": "usps_collection_boxes", "addr:city": "BUCKHANNON", "addr:country": "US", "addr:full": "70 E MAIN ST", "addr:postcode": "26201", "addr:state": "WV", "amenity": "post_box", "brand": "United States Postal Service", "brand:wikidata": "Q668687", "collection_times": "Mo-Fr 13:00; Sa 09:30", "name": "USPS COLLECTION BOX - BLUE BOX", "note": "ON 12/24 AND 12/31, THIS BOX MAY BE COLLECTED AS EARLY AS 12 NOON.", "nsi_id": "unitedstatespostalservice-a77078", "operator": "United States Postal Service", "operator:short": "USPS", "operator:type": "public", "operator:wikidata": "Q668687", "ref": "2620100004"}, "type": "Feature"}
{"dataset_attributes": {"@spider": "usps_collection_boxes", "spider:collection_time": "2023-08-28T08:25:48.690851"}, "geometry": {"coordinates": [-80.2316241, 38.993754], "type": "Point"}, "id": "oxDC61-nOlYJuxo_-IDyfuS8VYg=", "properties": {"@spider": "usps_collection_boxes", "addr:city": "BUCKHANNON", "addr:country": "US", "addr:full": "40 W MAIN ST", "addr:postcode": "26201", "addr:state": "WV", "amenity": "post_box", "brand": "United States Postal Service", "brand:wikidata": "Q668687", "collection_times": "Mo-Fr 10:00; Sa 09:30", "name": "USPS COLLECTION BOX - BLUE BOX", "nsi_id": "unitedstatespostalservice-a77078", "operator": "United States Postal Service", "operator:short": "USPS", "operator:type": "public", "operator:wikidata": "Q668687", "ref": "2620100021"}, "type": "Feature"}
{"dataset_attributes": {"@spider": "usps_collection_boxes", "spider:collection_time": "2023-08-28T08:25:48.690851"}, "geometry": {"coordinates": [-80.2271417, 38.9920183], "type": "Point"}, "id": "w9si1-1KlbClOGsUGtklzwBpLgQ=", "properties": {"@spider": "usps_collection_boxes", "addr:city": "BUCKHANNON", "addr:country": "US", "addr:full": "11 S SPRING ST", "addr:postcode": "26201", "addr:state": "WV", "amenity": "post_box", "brand": "United States Postal Service", "brand:wikidata": "Q668687", "collection_times": "Mo-Sa 13:15", "name": "USPS COLLECTION BOX - BLUE BOX", "note": "ON 12/24 AND 12/31, THIS BOX MAY BE COLLECTED AS EARLY AS 12 NOON.", "nsi_id": "unitedstatespostalservice-a77078", "operator": "United States Postal Service", "operator:short": "USPS", "operator:type": "public", "operator:wikidata": "Q668687", "ref": "2620100023"}, "type": "Feature"}
{"dataset_attributes": {"@spider": "usps_collection_boxes", "spider:collection_time": "2023-08-28T08:25:48.690851"}, "geometry": {"coordinates": [-80.229069823, 38.99262465], "type": "Point"}, "id": "KrPZoN7TauvYnLLQgR1CU7Xrecc=", "properties": {"@spider": "usps_collection_boxes", "addr:city": "BUCKHANNON", "addr:country": "US", "addr:full": "11 S SPRING ST", "addr:postcode": "26201", "addr:state": "WV", "amenity": "post_box", "brand": "United States Postal Service", "brand:wikidata": "Q668687", "collection_times": "Mo-Fr 16:30; Sa 15:00", "name": "USPS COLLECTION BOX - PO LOBBY", "note": "ON 12/24 AND 12/31, THIS BOX MAY BE COLLECTED AS EARLY AS 12 NOON.", "nsi_id": "unitedstatespostalservice-a77078", "operator": "United States Postal Service", "operator:short": "USPS", "operator:type": "public", "operator:wikidata": "Q668687", "ref": "2620100026"}, "type": "Feature"}
{"dataset_attributes": {"@spider": "usps_collection_boxes", "spider:collection_time": "2023-08-28T08:25:48.690851"}, "geometry": {"coordinates": [-80.229069823, 38.99262465], "type": "Point"}, "id": "yyGo1o1bY--FBex2Gn2aOenJ2pI=", "properties": {"@spider": "usps_collection_boxes", "addr:city": "BUCKHANNON", "addr:country": "US", "addr:full": "11 S SPRING ST", "addr:postcode": "26201", "addr:state": "WV", "amenity": "post_box", "brand": "United States Postal Service", "brand:wikidata": "Q668687", "collection_times": "Mo-Fr 16:30; Sa 12:00", "name": "USPS COLLECTION BOX - PO LOBBY", "note": "ON 12/24 AND 12/31, THIS BOX MAY BE COLLECTED AS EARLY AS 12 NOON.", "nsi_id": "unitedstatespostalservice-a77078", "operator": "United States Postal Service", "operator:short": "USPS", "operator:type": "public", "operator:wikidata": "Q668687", "ref": "2620100035"}, "type": "Feature"}
{"dataset_attributes": {"@spider": "usps_collection_boxes", "spider:collection_time": "2023-08-28T08:25:48.690851"}, "geometry": {"coordinates": [-80.582294, 38.228488], "type": "Point"}, "id": "_9infp_bQw5TPdWLlNSb89y79No=", "properties": {"@spider": "usps_collection_boxes", "addr:city": "FENWICK", "addr:country": "US", "addr:full": "2643 RICHWOOD RD", "addr:postcode": "26202", "addr:state": "WV", "amenity": "post_box", "brand": "United States Postal Service", "brand:wikidata": "Q668687", "collection_times": "Mo-Sa 12:45", "name": "USPS COLLECTION BOX - BLUE BOX", "note": "ON 12/24 AND 12/31, THIS BOX MAY BE COLLECTED AS EARLY AS 12 NOON.", "nsi_id": "unitedstatespostalservice-a77078", "operator": "United States Postal Service", "operator:short": "USPS", "operator:type": "public", "operator:wikidata": "Q668687", "ref": "2620200000"}, "type": "Feature"}
{"dataset_attributes": {"@spider": "usps_collection_boxes", "spider:collection_time": "2023-08-28T08:25:48.690851"}, "geometry": {"coordinates": [-80.58227, 38.22853], "type": "Point"}, "id": "Qt38d8SQN_yvY7lslEiqJjbebws=", "properties": {"@spider": "usps_collection_boxes", "addr:city": "FENWICK", "addr:country": "US", "addr:full": "2643 RICHWOOD RD", "addr:postcode": "26202", "addr:state": "WV", "amenity": "post_box", "brand": "United States Postal Service", "brand:wikidata": "Q668687", "collection_times": "Mo-Sa 12:45", "name": "USPS COLLECTION BOX - PO LOBBY", "note": "ON 12/24 AND 12/31, THIS BOX MAY BE COLLECTED AS EARLY AS 12 NOON.", "nsi_id": "unitedstatespostalservice-a77078", "operator": "United States Postal Service", "operator:short": "USPS", "operator:type": "public", "operator:wikidata": "Q668687", "ref": "2620200001"}, "type": "Feature"}
{"dataset_attributes": {"@spider": "usps_collection_boxes", "spider:collection_time": "2023-08-28T08:25:48.690851"}, "geometry": {"coordinates": [-80.582216538, 38.229661691], "type": "Point"}, "id": "7pLNmy6QWLhr-I-9s0EHQzZAbKk=", "properties": {"@spider": "usps_collection_boxes", "addr:city": "FENWICK", "addr:country": "US", "addr:full": "2643 RICHWOOD RD", "addr:postcode": "26202", "addr:state": "WV", "amenity": "post_box", "brand": "United States Postal Service", "brand:wikidata": "Q668687", "collection_times": "Mo-Sa 13:00", "name": "USPS COLLECTION BOX - PO LOBBY", "note": "ON 12/24 AND 12/31, THIS BOX MAY BE COLLECTED AS EARLY AS 12 NOON.", "nsi_id": "unitedstatespostalservice-a77078", "operator": "United States Postal Service", "operator:short": "USPS", "operator:type": "public", "operator:wikidata": "Q668687", "ref": "2620200003"}, "type": "Feature"}
{"dataset_attributes": {"@spider": "usps_collection_boxes", "spider:collection_time": "2023-08-28T08:25:48.690851"}, "geometry": {"coordinates": [-80.601734, 38.534883], "type": "Point"}, "id": "1QWgKnx2QfildN0zAwg3MNI2QnQ=", "properties": {"@spider": "usps_collection_boxes", "addr:city": "ERBACON", "addr:country": "US", "addr:full": "5776 ERBACON RD", "addr:postcode": "26203", "addr:state": "WV", "amenity": "post_box", "brand": "United States Postal Service", "brand:wikidata": "Q668687", "collection_times": "Mo-Fr 12:00; Sa 10:00", "name": "USPS COLLECTION BOX - BLUE BOX", "nsi_id": "unitedstatespostalservice-a77078", "operator": "United States Postal Service", "operator:short": "USPS", "operator:type": "public", "operator:wikidata": "Q668687", "ref": "2620300000"}, "type": "Feature"}
{"dataset_attributes": {"@spider": "usps_collection_boxes", "spider:collection_time": "2023-08-28T08:25:48.690851"}, "geometry": {"coordinates": [-80.601754, 38.534938], "type": "Point"}, "id": "SH_IoF-QRxR-UMK3XXir-59Bv2E=", "properties": {"@spider": "usps_collection_boxes", "addr:city": "ERBACON", "addr:country": "US", "addr:full": "5776 ERBACON RD", "addr:postcode": "26203", "addr:state": "WV", "amenity": "post_box", "brand": "United States Postal Service", "brand:wikidata": "Q668687", "collection_times": "Mo-Fr 12:00; Sa 10:00", "name": "USPS COLLECTION BOX - PO LOBBY", "nsi_id": "unitedstatespostalservice-a77078", "operator": "United States Postal Service", "operator:short": "USPS", "operator:type": "public", "operator:wikidata": "Q668687", "ref": "2620300001"}, "type": "Feature"}
{"dataset_attributes": {"@spider": "usps_collection_boxes", "spider:collection_time": "2023-08-28T08:25:48.690851"}, "geometry": {"coordinates": [-80.586838074, 38.518484709], "type": "Point"}, "id": "NUuGsmq2MpLdT-0sYFxhYtpH688=", "properties": {"@spider": "usps_collection_boxes", "addr:city": "ERBACON", "addr:country": "US", "addr:full": "5776 ERBACON RD", "addr:postcode": "26203", "addr:state": "WV", "amenity": "post_box", "brand": "United States Postal Service", "brand:wikidata": "Q668687", "collection_times": "Mo-Fr 13:00; Sa 12:00", "name": "USPS COLLECTION BOX - PO LOBBY", "note": "ON 12/24 AND 12/31, THIS BOX MAY BE COLLECTED AS EARLY AS 12 NOON.", "nsi_id": "unitedstatespostalservice-a77078", "operator": "United States Postal Service", "operator:short": "USPS", "operator:type": "public", "operator:wikidata": "Q668687", "ref": "2620300003"}, "type": "Feature"}
{"dataset_attributes": {"@spider": "usps_collection_boxes", "spider:collection_time": "2023-08-28T08:25:48.690851"}, "geometry": {"coordinates": [-80.653971617, 38.325171463], "type": "Point"}, "id": "UhnUHs1A11A7eSc-rHvu1P7x8_8=", "properties": {"@spider": "usps_collection_boxes", "addr:city": "CRAIGSVILLE", "addr:country": "US", "addr:full": "25 RED OAK DR", "addr:postcode": "26205", "addr:state": "WV", "amenity": "post_box", "brand": "United States Postal Service", "brand:wikidata": "Q668687", "collection_times": "Mo-Fr 15:45; Sa 10:30", "name": "USPS COLLECTION BOX - BLUE BOX", "note": "ON 12/24 AND 12/31, THIS BOX MAY BE COLLECTED AS EARLY AS 12 NOON.", "nsi_id": "unitedstatespostalservice-a77078", "operator": "United States Postal Service", "operator:short": "USPS", "operator:type": "public", "operator:wikidata": "Q668687", "ref": "2620500000"}, "type": "Feature"}
{"dataset_attributes": {"@spider": "usps_collection_boxes", "spider:collection_time": "2023-08-28T08:25:48.690851"}, "geometry": {"coordinates": [-80.653971617, 38.325171463], "type": "Point"}, "id": "bYazCkei-skW7iaAWWyHIw1iELA=", "properties": {"@spider": "usps_collection_boxes", "addr:city": "CRAIGSVILLE", "addr:country": "US", "addr:full": "25 RED OAK DR", "addr:postcode": "26205", "addr:state": "WV", "amenity": "post_box", "brand": "United States Postal Service", "brand:wikidata": "Q668687", "collection_times": "Mo-Fr 15:45; Sa 10:30", "name": "USPS COLLECTION BOX - PO LOBBY", "note": "ON 12/24 AND 12/31, THIS BOX MAY BE COLLECTED AS EARLY AS 12 NOON.", "nsi_id": "unitedstatespostalservice-a77078", "operator": "United States Postal Service", "operator:short": "USPS", "operator:type": "public", "operator:wikidata": "Q668687", "ref": "2620500001"}, "type": "Feature"}
{"dataset_attributes": {"@spider": "usps_collection_boxes", "spider:collection_time": "2023-08-28T08:25:48.690851"}, "geometry": {"coordinates": [-80.653971617, 38.325171463], "type": "Point"}, "id": "Y3AOJmNTRWESFeatGqPFI8vy7c0=", "properties": {"@spider": "usps_collection_boxes", "addr:city": "CRAIGSVILLE", "addr:country": "US", "addr:full": "25 RED OAK DR", "addr:postcode": "26205", "addr:state": "WV", "amenity": "post_box", "brand": "United States Postal Service", "brand:wikidata": "Q668687", "collection_times": "Mo-Fr 16:00; Sa 11:00", "name": "USPS COLLECTION BOX - PO LOBBY", "note": "ON 12/24 AND 12/31, THIS BOX MAY BE COLLECTED AS EARLY AS 12 NOON.", "nsi_id": "unitedstatespostalservice-a77078", "operator": "United States Postal Service", "operator:short": "USPS", "operator:type": "public", "operator:wikidata": "Q668687", "ref": "2620500003"}, "type": "Feature"}
{"dataset_attributes": {"@spider": "usps_collection_boxes", "spider:collection_time": "2023-08-28T08:25:48.690851"}, "geometry": {"coordinates": [-80.557193551, 38.410456409], "type": "Point"}, "id": "MRM8DA2zMq9Xycp0OZPl38R9tFA=", "properties": {"@spider": "usps_collection_boxes", "addr:city": "COWEN", "addr:country": "US", "addr:full": "25 ERBACON RD", "addr:postcode": "26206", "addr:state": "WV", "amenity": "post_box", "brand": "United States Postal Service", "brand:wikidata": "Q668687", "collection_times": "Mo-Fr 16:00; Sa 11:00", "name": "USPS COLLECTION BOX - BLUE BOX", "note": "ON 12/24 AND 12/31, THIS BOX MAY BE COLLECTED AS EARLY AS 12 NOON.", "nsi_id": "unitedstatespostalservice-a77078", "operator": "United States Postal Service", "operator:short": "USPS", "operator:type": "public", "operator:wikidata": "Q668687", "ref": "2620600000"}, "type": "Feature"}
{"dataset_attributes": {"@spider": "usps_collection_boxes", "spider:collection_time": "2023-08-28T08:25:48.690851"}, "geometry": {"coordinates": [-80.557193551, 38.410456409], "type": "Point"}, "id": "xN_4_EsB10uCxFHnpP4mBs-9LiQ=", "properties": {"@spider": "usps_collection_boxes", "addr:city": "COWEN", "addr:country": "US", "addr:full": "25 ERBACON RD", "addr:postcode": "26206", "addr:state": "WV", "amenity": "post_box", "brand": "United States Postal Service", "brand:wikidata": "Q668687", "collection_times": "Mo-Fr 16:00; Sa 11:00", "name": "USPS COLLECTION BOX - PO LOBBY", "note": "ON 12/24 AND 12/31, THIS BOX MAY BE COLLECTED AS EARLY AS 12 NOON.", "nsi_id": "unitedstatespostalservice-a77078", "operator": "United States Postal Service", "operator:short": "USPS", "operator:type": "public", "operator:wikidata": "Q668687", "ref": "2620600001"}, "type": "Feature"}
{"dataset_attributes": {"@spider": "usps_collection_boxes", "spider:collection_time": "2023-08-28T08:25:48.690851"}, "geometry": {"coordinates": [-80.557193551, 38.410456409], "type": "Point"}, "id": "gAAGBS4Usbl-7KBNXNm8G34D8d4=", "properties": {"@spider": "usps_collection_boxes", "addr:city": "COWEN", "addr:country": "US", "addr:full": "25 ERBACON RD", "addr:postcode": "26206", "addr:state": "WV", "amenity": "post_box", "brand": "United States Postal Service", "brand:wikidata": "Q668687", "collection_times": "Mo-Fr 16:00; Sa 11:00", "name": "USPS COLLECTION BOX - PO LOBBY", "note": "ON 12/24 AND 12/31, THIS BOX MAY BE COLLECTED AS EARLY AS 12 NOON.", "nsi_id": "unitedstatespostalservice-a77078", "operator": "United States Postal Service", "operator:short": "USPS", "operator:type": "public", "operator:wikidata": "Q668687", "ref": "2620600002"}, "type": "Feature"}
{"dataset_attributes": {"@spider": "usps_collection_boxes", "spider:collection_time": "2023-08-28T08:25:48.690851"}, "geometry": {"coordinates": [-80.557193551, 38.410456409], "type": "Point"}, "id": "H1bnIgfUBAYu7bffXoDLatf28zU=", "properties": {"@spider": "usps_collection_boxes", "addr:city": "COWEN", "addr:country": "US", "addr:full": "25 ERBACON RD", "addr:postcode": "26206", "addr:state": "WV", "amenity": "post_box", "brand": "United States Postal Service", "brand:wikidata": "Q668687", "collection_times": "Mo-Fr 16:00; Sa 11:30", "name": "USPS COLLECTION BOX - PO LOBBY", "note": "ON 12/24 AND 12/31, THIS BOX MAY BE COLLECTED AS EARLY AS 12 NOON.", "nsi_id": "unitedstatespostalservice-a77078", "operator": "United States Postal Service", "operator:short": "USPS", "operator:type": "public", "operator:wikidata": "Q668687", "ref": "2620600004"}, "type": "Feature"}
{"dataset_attributes": {"@spider": "usps_collection_boxes", "spider:collection_time": "2023-08-28T08:25:48.690851"}, "geometry": {"coordinates": [-80.275843, 38.904698], "type": "Point"}, "id": "7nVHV-46XFDuRaIy4JmY_Vbi868=", "properties": {"@spider": "usps_collection_boxes", "addr:city": "ADRIAN", "addr:country": "US", "addr:full": "6167 ROUTE 20 SOUTH RD", "addr:postcode": "26210", "addr:state": "WV", "amenity": "post_box", "brand": "United States Postal Service", "brand:wikidata": "Q668687", "collection_times": "Mo-Fr 10:45; Sa 08:45", "name": "USPS COLLECTION BOX - BLUE BOX", "nsi_id": "unitedstatespostalservice-a77078", "operator": "United States Postal Service", "operator:short": "USPS", "operator:type": "public", "operator:wikidata": "Q668687", "ref": "2621000000"}, "type": "Feature"}
{"dataset_attributes": {"@spider": "usps_collection_boxes", "spider:collection_time": "2023-08-28T08:25:48.690851"}, "geometry": {"coordinates": [-80.275843, 38.904698], "type": "Point"}, "id": "IQB71akENIJQL-MKhU6eykP35lU=", "properties": {"@spider": "usps_collection_boxes", "addr:city": "ADRIAN", "addr:country": "US", "addr:full": "6167 ROUTE 20 SOUTH RD", "addr:postcode": "26210", "addr:state": "WV", "amenity": "post_box", "brand": "United States Postal Service", "brand:wikidata": "Q668687", "collection_times": "Mo-Fr 10:45; Sa 08:45", "name": "USPS COLLECTION BOX - PO LOBBY", "nsi_id": "unitedstatespostalservice-a77078", "operator": "United States Postal Service", "operator:short": "USPS", "operator:type": "public", "operator:wikidata": "Q668687", "ref": "2621000001"}, "type": "Feature"}
{"dataset_attributes": {"@spider": "usps_collection_boxes", "spider:collection_time": "2023-08-28T08:25:48.690851"}, "geometry": {"coordinates": [-80.275819934, 38.904687157], "type": "Point"}, "id": "uXlGfoUqG8T-UQwQpEkglFH9TyQ=", "properties": {"@spider": "usps_collection_boxes", "addr:city": "ADRIAN", "addr:country": "US", "addr:full": "6167 ROUTE 20 SOUTH RD", "addr:postcode": "26210", "addr:state": "WV", "amenity": "post_box", "brand": "United States Postal Service", "brand:wikidata": "Q668687", "collection_times": "Mo-Fr 11:00; Sa 09:00", "name": "USPS COLLECTION BOX - PO LOBBY", "nsi_id": "unitedstatespostalservice-a77078", "operator": "United States Postal Service", "operator:short": "USPS", "operator:type": "public", "operator:wikidata": "Q668687", "ref": "2621000003"}, "type": "Feature"}
{"dataset_attributes": {"@spider": "usps_collection_boxes", "spider:collection_time": "2023-08-28T08:25:48.690851"}, "geometry": {"coordinates": [-80.446599, 38.516144], "type": "Point"}, "id": "OlWOgYWt9vLsdP6l2-wIzmVSg8o=", "properties": {"@spider": "usps_collection_boxes", "addr:city": "DIANA", "addr:country": "US", "addr:full": "4632 DIANA DR", "addr:postcode": "26217", "addr:state": "WV", "amenity": "post_box", "brand": "United States Postal Service", "brand:wikidata": "Q668687", "collection_times": "Mo-Fr 14:20; Sa 10:00", "name": "USPS COLLECTION BOX - BLUE BOX", "note": "ON 12/24 AND 12/31, THIS BOX MAY BE COLLECTED AS EARLY AS 12 NOON.", "nsi_id": "unitedstatespostalservice-a77078", "operator": "United States Postal Service", "operator:short": "USPS", "operator:type": "public", "operator:wikidata": "Q668687", "ref": "2621700000"}, "type": "Feature"}
{"dataset_attributes": {"@spider": "usps_collection_boxes", "spider:collection_time": "2023-08-28T08:25:48.690851"}, "geometry": {"coordinates": [-80.446599, 38.516144], "type": "Point"}, "id": "4mLhuKPvTjbeWSrvzgRLoAq85sY=", "properties": {"@spider": "usps_collection_boxes", "addr:city": "DIANA", "addr:country": "US", "addr:full": "4632 DIANA DR", "addr:postcode": "26217", "addr:state": "WV", "amenity": "post_box", "brand": "United States Postal Service", "brand:wikidata": "Q668687", "collection_times": "Mo-Fr 14:20; Sa 10:00", "name": "USPS COLLECTION BOX - PO LOBBY", "note": "ON 12/24 AND 12/31, THIS BOX MAY BE COLLECTED AS EARLY AS 12 NOON.", "nsi_id": "unitedstatespostalservice-a77078", "operator": "United States Postal Service", "operator:short": "USPS", "operator:type": "public", "operator:wikidata": "Q668687", "ref": "2621700001"}, "type": "Feature"}
{"dataset_attributes": {"@spider": "usps_collection_boxes", "spider:collection_time": "2023-08-28T08:25:48.690851"}, "geometry": {"coordinates": [-80.445689651, 38.563885173], "type": "Point"}, "id": "85AOJYi5F3SpeTjG0DgkGxKM-iY=", "properties": {"@spider": "usps_collection_boxes", "addr:city": "DIANA", "addr:country": "US", "addr:full": "4632 DIANA DR", "addr:postcode": "26217", "addr:state": "WV", "amenity": "post_box", "brand": "United States Postal Service", "brand:wikidata": "Q668687", "collection_times": "Mo-Fr 14:30; Sa 11:45", "name": "USPS COLLECTION BOX - PO LOBBY", "note": "ON 12/24 AND 12/31, THIS BOX MAY BE COLLECTED AS EARLY AS 12 NOON.", "nsi_id": "unitedstatespostalservice-a77078", "operator": "United States Postal Service", "operator:short": "USPS", "operator:type": "public", "operator:wikidata": "Q668687", "ref": "2621700003"}, "type": "Feature"}
{"dataset_attributes": {"@spider": "usps_collection_boxes", "spider:collection_time": "2023-08-28T08:25:48.690851"}, "geometry": {"coordinates": [-80.294531, 38.890429], "type": "Point"}, "id": "joD53Homi8NJcKeATpbsSWby49Q=", "properties": {"@spider": "usps_collection_boxes", "addr:city": "FRENCH CREEK", "addr:country": "US", "addr:full": "7688 RT 20 SOUTH RD", "addr:postcode": "26218", "addr:state": "WV", "amenity": "post_box", "brand": "United States Postal Service", "brand:wikidata": "Q668687", "collection_times": "Mo-Fr 14:15; Sa 10:55", "name": "USPS COLLECTION BOX - BLUE BOX", "note": "ON 12/24 AND 12/31, THIS BOX MAY BE COLLECTED AS EARLY AS 12 NOON.", "nsi_id": "unitedstatespostalservice-a77078", "operator": "United States Postal Service", "operator:short": "USPS", "operator:type": "public", "operator:wikidata": "Q668687", "ref": "2621800000"}, "type": "Feature"}
{"dataset_attributes": {"@spider": "usps_collection_boxes", "spider:collection_time": "2023-08-28T08:25:48.690851"}, "geometry": {"coordinates": [-80.294531, 38.890429], "type": "Point"}, "id": "vfreHwXA_JySk8mGhd0b1JQz7sg=", "properties": {"@spider": "usps_collection_boxes", "addr:city": "FRENCH CREEK", "addr:country": "US", "addr:full": "7688 RT 20 SOUTH RD", "addr:postcode": "26218", "addr:state": "WV", "amenity": "post_box", "brand": "United States Postal Service", "brand:wikidata": "Q668687", "collection_times": "Mo-Fr 14:15; Sa 10:55", "name": "USPS COLLECTION BOX - PO LOBBY", "note": "ON 12/24 AND 12/31, THIS BOX MAY BE COLLECTED AS EARLY AS 12 NOON.", "nsi_id": "unitedstatespostalservice-a77078", "operator": "United States Postal Service", "operator:short": "USPS", "operator:type": "public", "operator:wikidata": "Q668687", "ref": "2621800001"}, "type": "Feature"}
{"dataset_attributes": {"@spider": "usps_collection_boxes", "spider:collection_time": "2023-08-28T08:25:48.690851"}, "geometry": {"coordinates": [-80.294579923, 38.890437107], "type": "Point"}, "id": "HbxpG3ESpmyA5dUk1M_CRnHFx-s=", "properties": {"@spider": "usps_collection_boxes", "addr:city": "FRENCH CREEK", "addr:country": "US", "addr:full": "7688 RT 20 SOUTH RD", "addr:postcode": "26218", "addr:state": "WV", "amenity": "post_box", "brand": "United States Postal Service", "brand:wikidata": "Q668687", "collection_times": "Mo-Fr 14:30; Sa 11:00", "name": "USPS COLLECTION BOX - PO LOBBY", "note": "ON 12/24 AND 12/31, THIS BOX MAY BE COLLECTED AS EARLY AS 12 NOON.", "nsi_id": "unitedstatespostalservice-a77078", "operator": "United States Postal Service", "operator:short": "USPS", "operator:type": "public", "operator:wikidata": "Q668687", "ref": "2621800003"}, "type": "Feature"}
{"dataset_attributes": {"@spider": "usps_collection_boxes", "spider:collection_time": "2023-08-28T08:25:48.690851"}, "geometry": {"coordinates": [-80.388656226, 38.652124524], "type": "Point"}, "id": "5eCUq0SAEmGg6a9IVS3s8NsKcb4=", "properties": {"@spider": "usps_collection_boxes", "addr:city": "ROCK CAVE", "addr:country": "US", "addr:full": "40 SCHOOL LOOP RD", "addr:postcode": "26222", "addr:state": "WV", "amenity": "post_box", "brand": "United States Postal Service", "brand:wikidata": "Q668687", "collection_times": "Mo-Fr 12:00", "name": "USPS COLLECTION BOX - PO LOBBY", "nsi_id": "unitedstatespostalservice-a77078", "operator": "United States Postal Service", "operator:short": "USPS", "operator:type": "public", "operator:wikidata": "Q668687", "ref": "2622200002"}, "type": "Feature"}
{"dataset_attributes": {"@spider": "usps_collection_boxes", "spider:collection_time": "2023-08-28T08:25:48.690851"}, "geometry": {"coordinates": [-80.184731, 38.721542], "type": "Point"}, "id": "18bIpzv8rg3DeOIHYkFB0Fysrxc=", "properties": {"@spider": "usps_collection_boxes", "addr:city": "HELVETIA", "addr:country": "US", "addr:full": "4916 PICKENS RD", "addr:postcode": "26224", "addr:state": "WV", "amenity": "post_box", "brand": "United States Postal Service", "brand:wikidata": "Q668687", "collection_times": "Mo-Fr 12:45; Sa 10:45", "name": "USPS COLLECTION BOX - BLUE BOX", "note": "ON 12/24 AND 12/31, THIS BOX MAY BE COLLECTED AS EARLY AS 12 NOON.", "nsi_id": "unitedstatespostalservice-a77078", "operator": "United States Postal Service", "operator:short": "USPS", "operator:type": "public", "operator:wikidata": "Q668687", "ref": "2622400000"}, "type": "Feature"}
{"dataset_attributes": {"@spider": "usps_collection_boxes", "spider:collection_time": "2023-08-28T08:25:48.690851"}, "geometry": {"coordinates": [-80.1850788586, 38.7224590109], "type": "Point"}, "id": "FEoq00_cF6feXcUYfjJ0KR6umjo=", "properties": {"@spider": "usps_collection_boxes", "addr:city": "HELVETIA", "addr:country": "US", "addr:full": "PO BOX 9998", "addr:postcode": "26224", "addr:state": "WV", "amenity": "post_box", "brand": "United States Postal Service", "brand:wikidata": "Q668687", "collection_times": "Mo-Fr 12:45; Sa 10:45", "name": "USPS COLLECTION BOX - PO LOBBY", "note": "ON 12/24 AND 12/31, THIS BOX MAY BE COLLECTED AS EARLY AS 12 NOON.", "nsi_id": "unitedstatespostalservice-a77078", "operator": "United States Postal Service", "operator:short": "USPS", "operator:type": "public", "operator:wikidata": "Q668687", "ref": "2622400001"}, "type": "Feature"}
{"dataset_attributes": {"@spider": "usps_collection_boxes", "spider:collection_time": "2023-08-28T08:25:48.690851"}, "geometry": {"coordinates": [-80.2034791167, 38.7042491786], "type": "Point"}, "id": "yAfSmAXq1IZBLWCZp7xbA_-OiXQ=", "properties": {"@spider": "usps_collection_boxes", "addr:city": "HELVETIA", "addr:country": "US", "addr:full": "4916 PICKENS RD", "addr:postcode": "26224", "addr:state": "WV", "amenity": "post_box", "brand": "United States Postal Service", "brand:wikidata": "Q668687", "collection_times": "Mo-Fr 14:00; Sa 11:00", "name": "USPS COLLECTION BOX - PO LOBBY", "note": "ON 12/24 AND 12/31, THIS BOX MAY BE COLLECTED AS EARLY AS 12 NOON.", "nsi_id": "unitedstatespostalservice-a77078", "operator": "United States Postal Service", "operator:short": "USPS", "operator:type": "public", "operator:wikidata": "Q668687", "ref": "2622400003"}, "type": "Feature"}
{"dataset_attributes": {"@spider": "usps_collection_boxes", "spider:collection_time": "2023-08-28T08:25:48.690851"}, "geometry": {"coordinates": [-80.2291842878, 38.9935320043], "type": "Point"}, "id": "Io26V1hMCR7Ca5SLz3x2oX0cksI=", "properties": {"@spider": "usps_collection_boxes", "addr:city": "LORENTZ", "addr:country": "US", "addr:full": "3621 OLD WESTON RD", "addr:postcode": "26229", "addr:state": "WV", "amenity": "post_box", "brand": "United States Postal Service", "brand:wikidata": "Q668687", "collection_times": "Mo-Sa 13:30", "name": "USPS COLLECTION BOX - BLUE BOX", "note": "ON 12/24 AND 12/31, THIS BOX MAY BE COLLECTED AS EARLY AS 12 NOON.", "nsi_id": "unitedstatespostalservice-a77078", "operator": "United States Postal Service", "operator:short": "USPS", "operator:type": "public", "operator:wikidata": "Q668687", "ref": "2622900000"}, "type": "Feature"}
{"dataset_attributes": {"@spider": "usps_collection_boxes", "spider:collection_time": "2023-08-28T08:25:48.690851"}, "geometry": {"coordinates": [-80.303096249, 39.011454038], "type": "Point"}, "id": "ioBhKLlkjhNPzRJbZBsQiHqwDvw=", "properties": {"@spider": "usps_collection_boxes", "addr:city": "LORENTZ", "addr:country": "US", "addr:full": "3621 OLD WESTON RD", "addr:postcode": "26229", "addr:state": "WV", "amenity": "post_box", "brand": "United States Postal Service", "brand:wikidata": "Q668687", "collection_times": "Mo-Sa 14:00", "name": "USPS COLLECTION BOX - PO LOBBY", "note": "ON 12/24 AND 12/31, THIS BOX MAY BE COLLECTED AS EARLY AS 12 NOON.", "nsi_id": "unitedstatespostalservice-a77078", "operator": "United States Postal Service", "operator:short": "USPS", "operator:type": "public", "operator:wikidata": "Q668687", "ref": "2622900003"}, "type": "Feature"}
{"dataset_attributes": {"@spider": "usps_collection_boxes", "spider:collection_time": "2023-08-28T08:25:48.690851"}, "geometry": {"coordinates": [-80.2114740388, 38.6549770174], "type": "Point"}, "id": "Mcz9WCXD6uUGau50bOoQpSLUcLQ=", "properties": {"@spider": "usps_collection_boxes", "addr:city": "PICKENS", "addr:country": "US", "addr:full": "8 PICKENS RD", "addr:postcode": "26230", "addr:state": "WV", "amenity": "post_box", "brand": "United States Postal Service", "brand:wikidata": "Q668687", "collection_times": "Mo-Fr 11:30; Sa 08:00", "name": "USPS COLLECTION BOX - BLUE BOX", "nsi_id": "unitedstatespostalservice-a77078", "operator": "United States Postal Service", "operator:short": "USPS", "operator:type": "public", "operator:wikidata": "Q668687", "ref": "2623000000"}, "type": "Feature"}
{"dataset_attributes": {"@spider": "usps_collection_boxes", "spider:collection_time": "2023-08-28T08:25:48.690851"}, "geometry": {"coordinates": [-80.2097161, 38.6561102], "type": "Point"}, "id": "GcmGZaMU64kO1Upi9YNlTFGwDto=", "properties": {"@spider": "usps_collection_boxes", "addr:city": "PICKENS", "addr:country": "US", "addr:full": "8 PICKENS RD", "addr:postcode": "26230", "addr:state": "WV", "amenity": "post_box", "brand": "United States Postal Service", "brand:wikidata": "Q668687", "collection_times": "Mo-Fr 11:45; Sa 08:00", "name": "USPS COLLECTION BOX - PO LOBBY", "nsi_id": "unitedstatespostalservice-a77078", "operator": "United States Postal Service", "operator:short": "USPS", "operator:type": "public", "operator:wikidata": "Q668687", "ref": "2623000001"}, "type": "Feature"}
{"dataset_attributes": {"@spider": "usps_collection_boxes", "spider:collection_time": "2023-08-28T08:25:48.690851"}, "geometry": {"coordinates": [-80.2097161, 38.6561102], "type": "Point"}, "id": "aRLs-MWOcY7fNa2nSTtwhwKvp4Q=", "properties": {"@spider": "usps_collection_boxes", "addr:city": "PICKENS", "addr:country": "US", "addr:full": "8 PICKENS RD", "addr:postcode": "26230", "addr:state": "WV", "amenity": "post_box", "brand": "United States Postal Service", "brand:wikidata": "Q668687", "collection_times": "Mo-Fr 12:00; Sa 08:30", "name": "USPS COLLECTION BOX - PO LOBBY", "nsi_id": "unitedstatespostalservice-a77078", "operator": "United States Postal Service", "operator:short": "USPS", "operator:type": "public", "operator:wikidata": "Q668687", "ref": "2623000004"}, "type": "Feature"}
{"dataset_attributes": {"@spider": "usps_collection_boxes", "spider:collection_time": "2023-08-28T08:25:48.690851"}, "geometry": {"coordinates": [-80.135244, 38.83478], "type": "Point"}, "id": "Nsvc3VJ1GmD1EcwpaS8oOIg72Ro=", "properties": {"@spider": "usps_collection_boxes", "addr:city": "TALLMANSVILLE", "addr:country": "US", "addr:full": "6376 TALLMANSVILLE RD", "addr:postcode": "26237", "addr:state": "WV", "amenity": "post_box", "brand": "United States Postal Service", "brand:wikidata": "Q668687", "collection_times": "Mo-Fr 13:15; Sa 09:45", "name": "USPS COLLECTION BOX - BLUE BOX", "note": "ON 12/24 AND 12/31, THIS BOX MAY BE COLLECTED AS EARLY AS 12 NOON.", "nsi_id": "unitedstatespostalservice-a77078", "operator": "United States Postal Service", "operator:short": "USPS", "operator:type": "public", "operator:wikidata": "Q668687", "ref": "2623700000"}, "type": "Feature"}
{"dataset_attributes": {"@spider": "usps_collection_boxes", "spider:collection_time": "2023-08-28T08:25:48.690851"}, "geometry": {"coordinates": [-80.135244, 38.83478], "type": "Point"}, "id": "L89zDGxi7hAaoJoWY6HJA1geu_c=", "properties": {"@spider": "usps_collection_boxes", "addr:city": "TALLMANSVILLE", "addr:country": "US", "addr:full": "6376 TALLMANSVILLE RD", "addr:postcode": "26237", "addr:state": "WV", "amenity": "post_box", "brand": "United States Postal Service", "brand:wikidata": "Q668687", "collection_times": "Mo-Fr 13:15; Sa 09:45", "name": "USPS COLLECTION BOX - PO LOBBY", "note": "ON 12/24 AND 12/31, THIS BOX MAY BE COLLECTED AS EARLY AS 12 NOON.", "nsi_id": "unitedstatespostalservice-a77078", "operator": "United States Postal Service", "operator:short": "USPS", "operator:type": "public", "operator:wikidata": "Q668687", "ref": "2623700001"}, "type": "Feature"}
{"dataset_attributes": {"@spider": "usps_collection_boxes", "spider:collection_time": "2023-08-28T08:25:48.690851"}, "geometry": {"coordinates": [-80.175108914, 38.90871515], "type": "Point"}, "id": "KZy9bVOU2m5EaFIgYgntkk9HiF4=", "properties": {"@spider": "usps_collection_boxes", "addr:city": "TALLMANSVILLE", "addr:country": "US", "addr:full": "6376 TALLMANSVILLE RD", "addr:postcode": "26237", "addr:state": "WV", "amenity": "post_box", "brand": "United States Postal Service", "brand:wikidata": "Q668687", "collection_times": "Mo-Fr 13:30; Sa 10:00", "name": "USPS COLLECTION BOX - PO LOBBY", "note": "ON 12/24 AND 12/31, THIS BOX MAY BE COLLECTED AS EARLY AS 12 NOON.", "nsi_id": "unitedstatespostalservice-a77078", "operator": "United States Postal Service", "operator:short": "USPS", "operator:type": "public", "operator:wikidata": "Q668687", "ref": "2623700003"}, "type": "Feature"}
{"dataset_attributes": {"@spider": "usps_collection_boxes", "spider:collection_time": "2023-08-28T08:25:48.690851"}, "geometry": {"coordinates": [-80.135898, 39.083085], "type": "Point"}, "id": "SosOjfgUw4c22fW9ygS-T_vjplE=", "properties": {"@spider": "usps_collection_boxes", "addr:city": "VOLGA", "addr:country": "US", "addr:full": "14271 AUDRA PARK RD", "addr:postcode": "26238", "addr:state": "WV", "amenity": "post_box", "brand": "United States Postal Service", "brand:wikidata": "Q668687", "collection_times": "Mo-Fr 13:15; Sa 11:30", "name": "USPS COLLECTION BOX - BLUE BOX", "note": "ON 12/24 AND 12/31, THIS BOX MAY BE COLLECTED AS EARLY AS 12 NOON.", "nsi_id": "unitedstatespostalservice-a77078", "operator": "United States Postal Service", "operator:short": "USPS", "operator:type": "public", "operator:wikidata": "Q668687", "ref": "2623800000"}, "type": "Feature"}
{"dataset_attributes": {"@spider": "usps_collection_boxes", "spider:collection_time": "2023-08-28T08:25:48.690851"}, "geometry": {"coordinates": [-80.135898, 39.083085], "type": "Point"}, "id": "xcudNoHFmlM2vjufbhd-TfLUdvk=", "properties": {"@spider": "usps_collection_boxes", "addr:city": "VOLGA", "addr:country": "US", "addr:full": "14271 AUDRA PARK RD", "addr:postcode": "26238", "addr:state": "WV", "amenity": "post_box", "brand": "United States Postal Service", "brand:wikidata": "Q668687", "collection_times": "Mo-Fr 13:15; Sa 11:30", "name": "USPS COLLECTION BOX - PO LOBBY", "note": "ON 12/24 AND 12/31, THIS BOX MAY BE COLLECTED AS EARLY AS 12 NOON.", "nsi_id": "unitedstatespostalservice-a77078", "operator": "United States Postal Service", "operator:short": "USPS", "operator:type": "public", "operator:wikidata": "Q668687", "ref": "2623800001"}, "type": "Feature"}
{"dataset_attributes": {"@spider": "usps_collection_boxes", "spider:collection_time": "2023-08-28T08:25:48.690851"}, "geometry": {"coordinates": [-80.135737433, 39.082266764], "type": "Point"}, "id": "VdHvGZnxvCDLQD7W82_Vz0M4rjY=", "properties": {"@spider": "usps_collection_boxes", "addr:city": "VOLGA", "addr:country": "US", "addr:full": "14271 AUDRA PARK RD", "addr:postcode": "26238", "addr:state": "WV", "amenity": "post_box", "brand": "United States Postal Service", "brand:wikidata": "Q668687", "collection_times": "Mo-Fr 13:30; Sa 11:30", "name": "USPS COLLECTION BOX - PO LOBBY", "note": "ON 12/24 AND 12/31, THIS BOX MAY BE COLLECTED AS EARLY AS 12 NOON.", "nsi_id": "unitedstatespostalservice-a77078", "operator": "United States Postal Service", "operator:short": "USPS", "operator:type": "public", "operator:wikidata": "Q668687", "ref": "2623800003"}, "type": "Feature"}
{"dataset_attributes": {"@spider": "usps_collection_boxes", "spider:collection_time": "2023-08-28T08:25:48.690851"}, "geometry": {"coordinates": [-79.84678961, 38.925024007], "type": "Point"}, "id": "WIcOk3uJQD_fHmweJFJzUIT_xWs=", "properties": {"@spider": "usps_collection_boxes", "addr:city": "ELKINS", "addr:country": "US", "addr:full": "300 3RD ST", "addr:postcode": "26241", "addr:state": "WV", "amenity": "post_box", "brand": "United States Postal Service", "brand:wikidata": "Q668687", "collection_times": "Mo-Sa 12:00", "name": "USPS COLLECTION BOX - BLUE BOX", "nsi_id": "unitedstatespostalservice-a77078", "operator": "United States Postal Service", "operator:short": "USPS", "operator:type": "public", "operator:wikidata": "Q668687", "ref": "2624100000"}, "type": "Feature"}
{"dataset_attributes": {"@spider": "usps_collection_boxes", "spider:collection_time": "2023-08-28T08:25:48.690851"}, "geometry": {"coordinates": [-79.8624378, 38.932111], "type": "Point"}, "id": "KF8D1z7M3KFpxcBqsjcygOUkI3A=", "properties": {"@spider": "usps_collection_boxes", "addr:city": "ELKINS", "addr:country": "US", "addr:full": "1200 HARRISON AVE", "addr:postcode": "26241", "addr:state": "WV", "amenity": "post_box", "brand": "United States Postal Service", "brand:wikidata": "Q668687", "collection_times": "Mo-Fr 11:00; Sa 12:00", "name": "USPS COLLECTION BOX - BLUE BOX", "nsi_id": "unitedstatespostalservice-a77078", "operator": "United States Postal Service", "operator:short": "USPS", "operator:type": "public", "operator:wikidata": "Q668687", "ref": "2624100002"}, "type": "Feature"}
{"dataset_attributes": {"@spider": "usps_collection_boxes", "spider:collection_time": "2023-08-28T08:25:48.690851"}, "geometry": {"coordinates": [-79.8441038, 38.917856], "type": "Point"}, "id": "Psywv4d1MH0SpYdOXxYt3r3kws0=", "properties": {"@spider": "usps_collection_boxes", "addr:city": "ELKINS", "addr:country": "US", "addr:full": "450 11TH ST", "addr:postcode": "26241", "addr:state": "WV", "amenity": "post_box", "brand": "United States Postal Service", "brand:wikidata": "Q668687", "collection_times": "Mo-Sa 11:30", "name": "USPS COLLECTION BOX - BLUE BOX", "nsi_id": "unitedstatespostalservice-a77078", "operator": "United States Postal Service", "operator:short": "USPS", "operator:type": "public", "operator:wikidata": "Q668687", "ref": "2624100006"}, "type": "Feature"}
{"dataset_attributes": {"@spider": "usps_collection_boxes", "spider:collection_time": "2023-08-28T08:25:48.690851"}, "geometry": {"coordinates": [-79.8429199, 38.92268], "type": "Point"}, "id": "-H3cbjKoOHxBxWVdKi2N5cGrOUY=", "properties": {"@spider": "usps_collection_boxes", "addr:city": "ELKINS", "addr:country": "US", "addr:full": "4 RANDOLPH AVE", "addr:postcode": "26241", "addr:state": "WV", "amenity": "post_box", "brand": "United States Postal Service", "brand:wikidata": "Q668687", "collection_times": "Mo-Sa 11:30", "name": "USPS COLLECTION BOX - BLUE BOX", "nsi_id": "unitedstatespostalservice-a77078", "operator": "United States Postal Service", "operator:short": "USPS", "operator:type": "public", "operator:wikidata": "Q668687", "ref": "2624100011"}, "type": "Feature"}
{"dataset_attributes": {"@spider": "usps_collection_boxes", "spider:collection_time": "2023-08-28T08:25:48.690851"}, "geometry": {"coordinates": [-79.8552792, 38.927002], "type": "Point"}, "id": "nsdVgIQSBrhjGmNJrDgGZ_WrvVI=", "properties": {"@spider": "usps_collection_boxes", "addr:city": "ELKINS", "addr:country": "US", "addr:full": "909 GORMAN AVE", "addr:postcode": "26241", "addr:state": "WV", "amenity": "post_box", "brand": "United States Postal Service", "brand:wikidata": "Q668687", "collection_times": "Mo-Fr 11:00; Sa 10:00", "name": "USPS COLLECTION BOX - BLUE BOX", "nsi_id": "unitedstatespostalservice-a77078", "operator": "United States Postal Service", "operator:short": "USPS", "operator:type": "public", "operator:wikidata": "Q668687", "ref": "2624100017"}, "type": "Feature"}
{"dataset_attributes": {"@spider": "usps_collection_boxes", "spider:collection_time": "2023-08-28T08:25:48.690851"}, "geometry": {"coordinates": [-79.8495492, 38.926864], "type": "Point"}, "id": "tncDTDNzuSsR-c2KwbwoOc2lm5Q=", "properties": {"@spider": "usps_collection_boxes", "addr:city": "ELKINS", "addr:country": "US", "addr:full": "401 DAVIS AVE", "addr:postcode": "26241", "addr:state": "WV", "amenity": "post_box", "brand": "United States Postal Service", "brand:wikidata": "Q668687", "collection_times": "Mo-Sa 11:15", "name": "USPS COLLECTION BOX - BLUE BOX", "nsi_id": "unitedstatespostalservice-a77078", "operator": "United States Postal Service", "operator:short": "USPS", "operator:type": "public", "operator:wikidata": "Q668687", "ref": "2624100018"}, "type": "Feature"}
{"dataset_attributes": {"@spider": "usps_collection_boxes", "spider:collection_time": "2023-08-28T08:25:48.690851"}, "geometry": {"coordinates": [-79.84678961, 38.925024007], "type": "Point"}, "id": "5b0BqHu9GLcEbo5Ft8JCm2RICwo=", "properties": {"@spider": "usps_collection_boxes", "addr:city": "ELKINS", "addr:country": "US", "addr:full": "300 3RD ST", "addr:postcode": "26241", "addr:state": "WV", "amenity": "post_box", "brand": "United States Postal Service", "brand:wikidata": "Q668687", "collection_times": "Mo-Fr 17:15; Sa 16:45", "name": "USPS COLLECTION BOX - PO LOBBY", "note": "ON 12/24 AND 12/31, THIS BOX MAY BE COLLECTED AS EARLY AS 12 NOON.", "nsi_id": "unitedstatespostalservice-a77078", "operator": "United States Postal Service", "operator:short": "USPS", "operator:type": "public", "operator:wikidata": "Q668687", "ref": "2624100022"}, "type": "Feature"}
{"dataset_attributes": {"@spider": "usps_collection_boxes", "spider:collection_time": "2023-08-28T08:25:48.690851"}, "geometry": {"coordinates": [-79.8444185, 38.889886], "type": "Point"}, "id": "4HEK3SFturt1LF-drPVG-O1AbMk=", "properties": {"@spider": "usps_collection_boxes", "addr:city": "ELKINS", "addr:country": "US", "addr:full": "745 BEVERLY PIKE", "addr:postcode": "26241", "addr:state": "WV", "amenity": "post_box", "brand": "United States Postal Service", "brand:wikidata": "Q668687", "collection_times": "Mo-Sa 11:00", "name": "USPS COLLECTION BOX - BLUE BOX", "nsi_id": "unitedstatespostalservice-a77078", "operator": "United States Postal Service", "operator:short": "USPS", "operator:type": "public", "operator:wikidata": "Q668687", "ref": "2624100024"}, "type": "Feature"}
{"dataset_attributes": {"@spider": "usps_collection_boxes", "spider:collection_time": "2023-08-28T08:25:48.690851"}, "geometry": {"coordinates": [-79.8450149, 38.891817], "type": "Point"}, "id": "aGGbG5K-VgPUhKvCIbtdheDClBo=", "properties": {"@spider": "usps_collection_boxes", "addr:city": "ELKINS", "addr:country": "US", "addr:full": "761 BEVERLY PIKE", "addr:postcode": "26241", "addr:state": "WV", "amenity": "post_box", "brand": "United States Postal Service", "brand:wikidata": "Q668687", "collection_times": "Mo-Sa 11:00", "name": "USPS COLLECTION BOX - BLUE BOX", "nsi_id": "unitedstatespostalservice-a77078", "operator": "United States Postal Service", "operator:short": "USPS", "operator:type": "public", "operator:wikidata": "Q668687", "ref": "2624100025"}, "type": "Feature"}
{"dataset_attributes": {"@spider": "usps_collection_boxes", "spider:collection_time": "2023-08-28T08:25:48.690851"}, "geometry": {"coordinates": [-79.84678961, 38.925024007], "type": "Point"}, "id": "QYVUelNpg-oRrDHTRW8pgnbOBqE=", "properties": {"@spider": "usps_collection_boxes", "addr:city": "ELKINS", "addr:country": "US", "addr:full": "300 3RD ST FL 1", "addr:postcode": "26241", "addr:state": "WV", "amenity": "post_box", "brand": "United States Postal Service", "brand:wikidata": "Q668687", "collection_times": "Mo-Fr 16:30; Sa 12:00", "name": "USPS COLLECTION BOX - PO LOBBY", "note": "ON 12/24 AND 12/31, THIS BOX MAY BE COLLECTED AS EARLY AS 12 NOON.", "nsi_id": "unitedstatespostalservice-a77078", "operator": "United States Postal Service", "operator:short": "USPS", "operator:type": "public", "operator:wikidata": "Q668687", "ref": "2624100030"}, "type": "Feature"}
{"dataset_attributes": {"@spider": "usps_collection_boxes", "spider:collection_time": "2023-08-28T08:25:48.690851"}, "geometry": {"coordinates": [-79.938901476, 39.01408077], "type": "Point"}, "id": "GktQngcuT_OTSQ-r-hYaIi3VFy0=", "properties": {"@spider": "usps_collection_boxes", "addr:city": "BELINGTON", "addr:country": "US", "addr:full": "801 CRIM AVE", "addr:postcode": "26250", "addr:state": "WV", "amenity": "post_box", "brand": "United States Postal Service", "brand:wikidata": "Q668687", "collection_times": "Mo-Fr 15:45; Sa 10:45", "name": "USPS COLLECTION BOX - BLUE BOX", "note": "ON 12/24 AND 12/31, THIS BOX MAY BE COLLECTED AS EARLY AS 12 NOON.", "nsi_id": "unitedstatespostalservice-a77078", "operator": "United States Postal Service", "operator:short": "USPS", "operator:type": "public", "operator:wikidata": "Q668687", "ref": "2625000000"}, "type": "Feature"}
{"dataset_attributes": {"@spider": "usps_collection_boxes", "spider:collection_time": "2023-08-28T08:25:48.690851"}, "geometry": {"coordinates": [-79.938901476, 39.01408077], "type": "Point"}, "id": "dzUAeFoNgXxeKXpJomWBhePOqQQ=", "properties": {"@spider": "usps_collection_boxes", "addr:city": "BELINGTON", "addr:country": "US", "addr:full": "801 CRIM AVE", "addr:postcode": "26250", "addr:state": "WV", "amenity": "post_box", "brand": "United States Postal Service", "brand:wikidata": "Q668687", "collection_times": "Mo-Fr 16:00; Sa 10:45", "name": "USPS COLLECTION BOX - PO LOBBY", "note": "ON 12/24 AND 12/31, THIS BOX MAY BE COLLECTED AS EARLY AS 12 NOON.", "nsi_id": "unitedstatespostalservice-a77078", "operator": "United States Postal Service", "operator:short": "USPS", "operator:type": "public", "operator:wikidata": "Q668687", "ref": "2625000002"}, "type": "Feature"}
{"dataset_attributes": {"@spider": "usps_collection_boxes", "spider:collection_time": "2023-08-28T08:25:48.690851"}, "geometry": {"coordinates": [-79.938901476, 39.01408077], "type": "Point"}, "id": "9DWZJV__ps9uyfapm8PnOEWg5zA=", "properties": {"@spider": "usps_collection_boxes", "addr:city": "BELINGTON", "addr:country": "US", "addr:full": "801 CRIM AVE", "addr:postcode": "26250", "addr:state": "WV", "amenity": "post_box", "brand": "United States Postal Service", "brand:wikidata": "Q668687", "collection_times": "Mo-Fr 16:00; Sa 11:00", "name": "USPS COLLECTION BOX - PO LOBBY", "note": "ON 12/24 AND 12/31, THIS BOX MAY BE COLLECTED AS EARLY AS 12 NOON.", "nsi_id": "unitedstatespostalservice-a77078", "operator": "United States Postal Service", "operator:short": "USPS", "operator:type": "public", "operator:wikidata": "Q668687", "ref": "2625000004"}, "type": "Feature"}
{"dataset_attributes": {"@spider": "usps_collection_boxes", "spider:collection_time": "2023-08-28T08:25:48.690851"}, "geometry": {"coordinates": [-79.871713059, 38.839866097], "type": "Point"}, "id": "goXlYrcxwvYYzx240Qzp4QfzyM0=", "properties": {"@spider": "usps_collection_boxes", "addr:city": "BEVERLY", "addr:country": "US", "addr:full": "290 COURT ST", "addr:postcode": "26253", "addr:state": "WV", "amenity": "post_box", "brand": "United States Postal Service", "brand:wikidata": "Q668687", "collection_times": "Mo-Fr 16:00; Sa 11:00", "name": "USPS COLLECTION BOX - BLUE BOX", "note": "ON 12/24 AND 12/31, THIS BOX MAY BE COLLECTED AS EARLY AS 12 NOON.", "nsi_id": "unitedstatespostalservice-a77078", "operator": "United States Postal Service", "operator:short": "USPS", "operator:type": "public", "operator:wikidata": "Q668687", "ref": "2625300000"}, "type": "Feature"}
{"dataset_attributes": {"@spider": "usps_collection_boxes", "spider:collection_time": "2023-08-28T08:25:48.690851"}, "geometry": {"coordinates": [-79.871713059, 38.839866097], "type": "Point"}, "id": "GJI-gr7ODaAQH7VJT8IeN-J7uiA=", "properties": {"@spider": "usps_collection_boxes", "addr:city": "BEVERLY", "addr:country": "US", "addr:full": "290 COURT ST", "addr:postcode": "26253", "addr:state": "WV", "amenity": "post_box", "brand": "United States Postal Service", "brand:wikidata": "Q668687", "collection_times": "Mo-Fr 16:00; Sa 11:00", "name": "USPS COLLECTION BOX - PO LOBBY", "note": "ON 12/24 AND 12/31, THIS BOX MAY BE COLLECTED AS EARLY AS 12 NOON.", "nsi_id": "unitedstatespostalservice-a77078", "operator": "United States Postal Service", "operator:short": "USPS", "operator:type": "public", "operator:wikidata": "Q668687", "ref": "2625300001"}, "type": "Feature"}
{"dataset_attributes": {"@spider": "usps_collection_boxes", "spider:collection_time": "2023-08-28T08:25:48.690851"}, "geometry": {"coordinates": [-79.871713059, 38.839866097], "type": "Point"}, "id": "XShTfNFgmVhh-mK-1cJy7cWfshk=", "properties": {"@spider": "usps_collection_boxes", "addr:city": "BEVERLY", "addr:country": "US", "addr:full": "290 COURT ST", "addr:postcode": "26253", "addr:state": "WV", "amenity": "post_box", "brand": "United States Postal Service", "brand:wikidata": "Q668687", "collection_times": "Mo-Fr 16:30; Sa 11:00", "name": "USPS COLLECTION BOX - PO LOBBY", "note": "ON 12/24 AND 12/31, THIS BOX MAY BE COLLECTED AS EARLY AS 12 NOON.", "nsi_id": "unitedstatespostalservice-a77078", "operator": "United States Postal Service", "operator:short": "USPS", "operator:type": "public", "operator:wikidata": "Q668687", "ref": "2625300003"}, "type": "Feature"}
{"dataset_attributes": {"@spider": "usps_collection_boxes", "spider:collection_time": "2023-08-28T08:25:48.690851"}, "geometry": {"coordinates": [-79.6511631341, 38.9048806265], "type": "Point"}, "id": "bqpsPCs0O12QCm3pQSOvZycaUmY=", "properties": {"@spider": "usps_collection_boxes", "addr:city": "BOWDEN", "addr:country": "US", "addr:full": "8835 ALLEGHENY HWY", "addr:postcode": "26254", "addr:state": "WV", "amenity": "post_box", "brand": "United States Postal Service", "brand:wikidata": "Q668687", "collection_times": "Mo-Fr 12:30; Sa 08:30", "name": "USPS COLLECTION BOX - BLUE BOX", "note": "ON 12/24 AND 12/31, THIS BOX MAY BE COLLECTED AS EARLY AS 12 NOON.", "nsi_id": "unitedstatespostalservice-a77078", "operator": "United States Postal Service", "operator:short": "USPS", "operator:type": "public", "operator:wikidata": "Q668687", "ref": "2625400000"}, "type": "Feature"}
{"dataset_attributes": {"@spider": "usps_collection_boxes", "spider:collection_time": "2023-08-28T08:25:48.690851"}, "geometry": {"coordinates": [-79.6438066548, 38.9499536864], "type": "Point"}, "id": "hu6rbMTc4qzlnMLKgI-_CPVbuDw=", "properties": {"@spider": "usps_collection_boxes", "addr:city": "BOWDEN", "addr:country": "US", "addr:full": "8835 ALLEGHENY HWY", "addr:postcode": "26254", "addr:state": "WV", "amenity": "post_box", "brand": "United States Postal Service", "brand:wikidata": "Q668687", "collection_times": "Mo-Fr 12:30; Sa 08:30", "name": "USPS COLLECTION BOX - PO LOBBY", "note": "ON 12/24 AND 12/31, THIS BOX MAY BE COLLECTED AS EARLY AS 12 NOON.", "nsi_id": "unitedstatespostalservice-a77078", "operator": "United States Postal Service", "operator:short": "USPS", "operator:type": "public", "operator:wikidata": "Q668687", "ref": "2625400001"}, "type": "Feature"}
{"dataset_attributes": {"@spider": "usps_collection_boxes", "spider:collection_time": "2023-08-28T08:25:48.690851"}, "geometry": {"coordinates": [-79.651163134, 38.904880626], "type": "Point"}, "id": "8g8dwwo6UCcoBc6opjQ7CLp90nU=", "properties": {"@spider": "usps_collection_boxes", "addr:city": "BOWDEN", "addr:country": "US", "addr:full": "8835 ALLEGHENY HWY", "addr:postcode": "26254", "addr:state": "WV", "amenity": "post_box", "brand": "United States Postal Service", "brand:wikidata": "Q668687", "collection_times": "Mo-Fr 13:00; Sa 10:30", "name": "USPS COLLECTION BOX - PO LOBBY", "note": "ON 12/24 AND 12/31, THIS BOX MAY BE COLLECTED AS EARLY AS 12 NOON.", "nsi_id": "unitedstatespostalservice-a77078", "operator": "United States Postal Service", "operator:short": "USPS", "operator:type": "public", "operator:wikidata": "Q668687", "ref": "2625400003"}, "type": "Feature"}
{"dataset_attributes": {"@spider": "usps_collection_boxes", "spider:collection_time": "2023-08-28T08:25:48.690851"}, "geometry": {"coordinates": [-79.966611, 38.895915], "type": "Point"}, "id": "DizKldfrWMXlSfXhgLCYUKlqrGU=", "properties": {"@spider": "usps_collection_boxes", "addr:city": "COALTON", "addr:country": "US", "addr:full": "11 CHURCH ST", "addr:postcode": "26257", "addr:state": "WV", "amenity": "post_box", "brand": "United States Postal Service", "brand:wikidata": "Q668687", "collection_times": "Mo-Fr 14:15; Sa 09:45", "name": "USPS COLLECTION BOX - BLUE BOX", "note": "ON 12/24 AND 12/31, THIS BOX MAY BE COLLECTED AS EARLY AS 12 NOON.", "nsi_id": "unitedstatespostalservice-a77078", "operator": "United States Postal Service", "operator:short": "USPS", "operator:type": "public", "operator:wikidata": "Q668687", "ref": "2625700000"}, "type": "Feature"}
{"dataset_attributes": {"@spider": "usps_collection_boxes", "spider:collection_time": "2023-08-28T08:25:48.690851"}, "geometry": {"coordinates": [-79.966611, 38.895915], "type": "Point"}, "id": "krRFwwsXgsSXFz0Db8vEmnFbvco=", "properties": {"@spider": "usps_collection_boxes", "addr:city": "COALTON", "addr:country": "US", "addr:full": "11 CHURCH ST", "addr:postcode": "26257", "addr:state": "WV", "amenity": "post_box", "brand": "United States Postal Service", "brand:wikidata": "Q668687", "collection_times": "Mo-Fr 14:15; Sa 09:45", "name": "USPS COLLECTION BOX - PO LOBBY", "note": "ON 12/24 AND 12/31, THIS BOX MAY BE COLLECTED AS EARLY AS 12 NOON.", "nsi_id": "unitedstatespostalservice-a77078", "operator": "United States Postal Service", "operator:short": "USPS", "operator:type": "public", "operator:wikidata": "Q668687", "ref": "2625700001"}, "type": "Feature"}
{"dataset_attributes": {"@spider": "usps_collection_boxes", "spider:collection_time": "2023-08-28T08:25:48.690851"}, "geometry": {"coordinates": [-79.966686999, 38.89607886], "type": "Point"}, "id": "2olJ9VZV3GUAmmhMLe1mosnUGa0=", "properties": {"@spider": "usps_collection_boxes", "addr:city": "COALTON", "addr:country": "US", "addr:full": "11 CHURCH ST", "addr:postcode": "26257", "addr:state": "WV", "amenity": "post_box", "brand": "United States Postal Service", "brand:wikidata": "Q668687", "collection_times": "Mo-Fr 14:30; Sa 10:00", "name": "USPS COLLECTION BOX - PO LOBBY", "note": "ON 12/24 AND 12/31, THIS BOX MAY BE COLLECTED AS EARLY AS 12 NOON.", "nsi_id": "unitedstatespostalservice-a77078", "operator": "United States Postal Service", "operator:short": "USPS", "operator:type": "public", "operator:wikidata": "Q668687", "ref": "2625700003"}, "type": "Feature"}
{"dataset_attributes": {"@spider": "usps_collection_boxes", "spider:collection_time": "2023-08-28T08:25:48.690851"}, "geometry": {"coordinates": [-79.899292, 38.796515], "type": "Point"}, "id": "CaeVmxSXFwlAQFbf8qt1r78nlAM=", "properties": {"@spider": "usps_collection_boxes", "addr:city": "DAILEY", "addr:country": "US", "addr:full": "3391 SENECA TRL", "addr:postcode": "26259", "addr:state": "WV", "amenity": "post_box", "brand": "United States Postal Service", "brand:wikidata": "Q668687", "collection_times": "Mo-Fr 11:45; Sa 09:45", "name": "USPS COLLECTION BOX - BLUE BOX", "nsi_id": "unitedstatespostalservice-a77078", "operator": "United States Postal Service", "operator:short": "USPS", "operator:type": "public", "operator:wikidata": "Q668687", "ref": "2625900000"}, "type": "Feature"}
{"dataset_attributes": {"@spider": "usps_collection_boxes", "spider:collection_time": "2023-08-28T08:25:48.690851"}, "geometry": {"coordinates": [-79.899292, 38.796515], "type": "Point"}, "id": "IFrp7zOlXdp1JULErYdcV2BwEH4=", "properties": {"@spider": "usps_collection_boxes", "addr:city": "DAILEY", "addr:country": "US", "addr:full": "3391 SENECA TRL", "addr:postcode": "26259", "addr:state": "WV", "amenity": "post_box", "brand": "United States Postal Service", "brand:wikidata": "Q668687", "collection_times": "Mo-Fr 11:45; Sa 09:45", "name": "USPS COLLECTION BOX - PO LOBBY", "nsi_id": "unitedstatespostalservice-a77078", "operator": "United States Postal Service", "operator:short": "USPS", "operator:type": "public", "operator:wikidata": "Q668687", "ref": "2625900001"}, "type": "Feature"}
{"dataset_attributes": {"@spider": "usps_collection_boxes", "spider:collection_time": "2023-08-28T08:25:48.690851"}, "geometry": {"coordinates": [-79.920360807, 38.775185323], "type": "Point"}, "id": "UO34Q7B2UiwUtDpZq9rKehk83gM=", "properties": {"@spider": "usps_collection_boxes", "addr:city": "DAILEY", "addr:country": "US", "addr:full": "3391 SENECA TRL", "addr:postcode": "26259", "addr:state": "WV", "amenity": "post_box", "brand": "United States Postal Service", "brand:wikidata": "Q668687", "collection_times": "Mo-Fr 12:00; Sa 10:00", "name": "USPS COLLECTION BOX - PO LOBBY", "nsi_id": "unitedstatespostalservice-a77078", "operator": "United States Postal Service", "operator:short": "USPS", "operator:type": "public", "operator:wikidata": "Q668687", "ref": "2625900003"}, "type": "Feature"}
{"dataset_attributes": {"@spider": "usps_collection_boxes", "spider:collection_time": "2023-08-28T08:25:48.690851"}, "geometry": {"coordinates": [-79.465237869, 39.128762788], "type": "Point"}, "id": "A5pNZ2ROm2VSMvfilTU2JMYp994=", "properties": {"@spider": "usps_collection_boxes", "addr:city": "DAVIS", "addr:country": "US", "addr:full": "421 WILLIAM AVE", "addr:postcode": "26260", "addr:state": "WV", "amenity": "post_box", "brand": "United States Postal Service", "brand:wikidata": "Q668687", "collection_times": "Mo-Fr 15:45; Sa 11:00", "name": "USPS COLLECTION BOX - BLUE BOX", "note": "ON 12/24 AND 12/31, THIS BOX MAY BE COLLECTED AS EARLY AS 12 NOON.", "nsi_id": "unitedstatespostalservice-a77078", "operator": "United States Postal Service", "operator:short": "USPS", "operator:type": "public", "operator:wikidata": "Q668687", "ref": "2626000000"}, "type": "Feature"}
{"dataset_attributes": {"@spider": "usps_collection_boxes", "spider:collection_time": "2023-08-28T08:25:48.690851"}, "geometry": {"coordinates": [-79.465237869, 39.128762788], "type": "Point"}, "id": "kHdLDxdx1uaZXeYB1ww0SEgxgaA=", "properties": {"@spider": "usps_collection_boxes", "addr:city": "DAVIS", "addr:country": "US", "addr:full": "421 WILLIAM AVE", "addr:postcode": "26260", "addr:state": "WV", "amenity": "post_box", "brand": "United States Postal Service", "brand:wikidata": "Q668687", "collection_times": "Mo-Fr 15:45; Sa 11:00", "name": "USPS COLLECTION BOX - PO LOBBY", "note": "ON 12/24 AND 12/31, THIS BOX MAY BE COLLECTED AS EARLY AS 12 NOON.", "nsi_id": "unitedstatespostalservice-a77078", "operator": "United States Postal Service", "operator:short": "USPS", "operator:type": "public", "operator:wikidata": "Q668687", "ref": "2626000002"}, "type": "Feature"}
{"dataset_attributes": {"@spider": "usps_collection_boxes", "spider:collection_time": "2023-08-28T08:25:48.690851"}, "geometry": {"coordinates": [-79.465237869, 39.128762788], "type": "Point"}, "id": "1mlR12zC97NHwzk1S-vYImUKlW0=", "properties": {"@spider": "usps_collection_boxes", "addr:city": "DAVIS", "addr:country": "US", "addr:full": "421 WILLIAM AVE", "addr:postcode": "26260", "addr:state": "WV", "amenity": "post_box", "brand": "United States Postal Service", "brand:wikidata": "Q668687", "collection_times": "Mo-Fr 16:00; Sa 11:00", "name": "USPS COLLECTION BOX - PO LOBBY", "note": "ON 12/24 AND 12/31, THIS BOX MAY BE COLLECTED AS EARLY AS 12 NOON.", "nsi_id": "unitedstatespostalservice-a77078", "operator": "United States Postal Service", "operator:short": "USPS", "operator:type": "public", "operator:wikidata": "Q668687", "ref": "2626000005"}, "type": "Feature"}
{"dataset_attributes": {"@spider": "usps_collection_boxes", "spider:collection_time": "2023-08-28T08:25:48.690851"}, "geometry": {"coordinates": [-80.532143182, 38.225413894], "type": "Point"}, "id": "9mEV3NZH2jyhy84mIHXGzqRVSXg=", "properties": {"@spider": "usps_collection_boxes", "addr:city": "RICHWOOD", "addr:country": "US", "addr:full": "22 E MAIN ST", "addr:postcode": "26261", "addr:state": "WV", "amenity": "post_box", "brand": "United States Postal Service", "brand:wikidata": "Q668687", "collection_times": "Mo-Fr 16:15; Sa 12:00", "name": "USPS COLLECTION BOX - BLUE BOX", "note": "ON 12/24 AND 12/31, THIS BOX MAY BE COLLECTED AS EARLY AS 12 NOON.", "nsi_id": "unitedstatespostalservice-a77078", "operator": "United States Postal Service", "operator:short": "USPS", "operator:type": "public", "operator:wikidata": "Q668687", "ref": "2626100007"}, "type": "Feature"}
{"dataset_attributes": {"@spider": "usps_collection_boxes", "spider:collection_time": "2023-08-28T08:25:48.690851"}, "geometry": {"coordinates": [-80.532143182, 38.225413894], "type": "Point"}, "id": "MN2nbH6KYiT88j8sokRr4ucLFTY=", "properties": {"@spider": "usps_collection_boxes", "addr:city": "RICHWOOD", "addr:country": "US", "addr:full": "22 E MAIN ST", "addr:postcode": "26261", "addr:state": "WV", "amenity": "post_box", "brand": "United States Postal Service", "brand:wikidata": "Q668687", "collection_times": "Mo-Fr 16:30; Sa 12:00", "name": "USPS COLLECTION BOX - PO LOBBY", "note": "ON 12/24 AND 12/31, THIS BOX MAY BE COLLECTED AS EARLY AS 12 NOON.", "nsi_id": "unitedstatespostalservice-a77078", "operator": "United States Postal Service", "operator:short": "USPS", "operator:type": "public", "operator:wikidata": "Q668687", "ref": "2626100009"}, "type": "Feature"}
{"dataset_attributes": {"@spider": "usps_collection_boxes", "spider:collection_time": "2023-08-28T08:25:48.690851"}, "geometry": {"coordinates": [-80.532143182, 38.225413894], "type": "Point"}, "id": "0hXvM557Ql2IN__-0WRP8Xc2yhg=", "properties": {"@spider": "usps_collection_boxes", "addr:city": "RICHWOOD", "addr:country": "US", "addr:full": "22 E MAIN ST", "addr:postcode": "26261", "addr:state": "WV", "amenity": "post_box", "brand": "United States Postal Service", "brand:wikidata": "Q668687", "collection_times": "Mo-Fr 16:30; Sa 12:00", "name": "USPS COLLECTION BOX - PO LOBBY", "note": "ON 12/24 AND 12/31, THIS BOX MAY BE COLLECTED AS EARLY AS 12 NOON.", "nsi_id": "unitedstatespostalservice-a77078", "operator": "United States Postal Service", "operator:short": "USPS", "operator:type": "public", "operator:wikidata": "Q668687", "ref": "2626100013"}, "type": "Feature"}
{"dataset_attributes": {"@spider": "usps_collection_boxes", "spider:collection_time": "2023-08-28T08:25:48.690851"}, "geometry": {"coordinates": [-79.497656, 38.972127], "type": "Point"}, "id": "cmk8Jn3jg9mjZFZ4kdkc98tSQYU=", "properties": {"@spider": "usps_collection_boxes", "addr:city": "DRY FORK", "addr:country": "US", "addr:full": "4514 APPALACHIAN HWY", "addr:postcode": "26263", "addr:state": "WV", "amenity": "post_box", "brand": "United States Postal Service", "brand:wikidata": "Q668687", "collection_times": "Mo-Fr 12:45; Sa 11:15", "name": "USPS COLLECTION BOX - BLUE BOX", "note": "ON 12/24 AND 12/31, THIS BOX MAY BE COLLECTED AS EARLY AS 12 NOON.", "nsi_id": "unitedstatespostalservice-a77078", "operator": "United States Postal Service", "operator:short": "USPS", "operator:type": "public", "operator:wikidata": "Q668687", "ref": "2626300000"}, "type": "Feature"}
{"dataset_attributes": {"@spider": "usps_collection_boxes", "spider:collection_time": "2023-08-28T08:25:48.690851"}, "geometry": {"coordinates": [-79.497656, 38.972127], "type": "Point"}, "id": "GZvI2UfwlHVycxYU2M94T-IpfOk=", "properties": {"@spider": "usps_collection_boxes", "addr:city": "DRY FORK", "addr:country": "US", "addr:full": "4514 APPALACHIAN HWY", "addr:postcode": "26263", "addr:state": "WV", "amenity": "post_box", "brand": "United States Postal Service", "brand:wikidata": "Q668687", "collection_times": "Mo-Fr 12:45; Sa 11:15", "name": "USPS COLLECTION BOX - PO LOBBY", "note": "ON 12/24 AND 12/31, THIS BOX MAY BE COLLECTED AS EARLY AS 12 NOON.", "nsi_id": "unitedstatespostalservice-a77078", "operator": "United States Postal Service", "operator:short": "USPS", "operator:type": "public", "operator:wikidata": "Q668687", "ref": "2626300001"}, "type": "Feature"}
{"dataset_attributes": {"@spider": "usps_collection_boxes", "spider:collection_time": "2023-08-28T08:25:48.690851"}, "geometry": {"coordinates": [-79.499242603, 38.971471203], "type": "Point"}, "id": "pFEpyayUppALUNio2CcYXAOS3BA=", "properties": {"@spider": "usps_collection_boxes", "addr:city": "DRY FORK", "addr:country": "US", "addr:full": "4514 APPALACHIAN HWY", "addr:postcode": "26263", "addr:state": "WV", "amenity": "post_box", "brand": "United States Postal Service", "brand:wikidata": "Q668687", "collection_times": "Mo-Fr 13:00; Sa 11:30", "name": "USPS COLLECTION BOX - PO LOBBY", "note": "ON 12/24 AND 12/31, THIS BOX MAY BE COLLECTED AS EARLY AS 12 NOON.", "nsi_id": "unitedstatespostalservice-a77078", "operator": "United States Postal Service", "operator:short": "USPS", "operator:type": "public", "operator:wikidata": "Q668687", "ref": "2626300003"}, "type": "Feature"}
{"dataset_attributes": {"@spider": "usps_collection_boxes", "spider:collection_time": "2023-08-28T08:25:48.690851"}, "geometry": {"coordinates": [-79.828734, 38.547452], "type": "Point"}, "id": "EbgZI4zJKdF6-j3dKVAYxFd1HJI=", "properties": {"@spider": "usps_collection_boxes", "addr:city": "DURBIN", "addr:country": "US", "addr:full": "4345 STAUNTON PARKERSBURG TPKE", "addr:postcode": "26264", "addr:state": "WV", "amenity": "post_box", "brand": "United States Postal Service", "brand:wikidata": "Q668687", "collection_times": "Mo-Fr 12:30; Sa 11:15", "name": "USPS COLLECTION BOX - BLUE BOX", "note": "ON 12/24 AND 12/31, THIS BOX MAY BE COLLECTED AS EARLY AS 12 NOON.", "nsi_id": "unitedstatespostalservice-a77078", "operator": "United States Postal Service", "operator:short": "USPS", "operator:type": "public", "operator:wikidata": "Q668687", "ref": "2626400000"}, "type": "Feature"}
{"dataset_attributes": {"@spider": "usps_collection_boxes", "spider:collection_time": "2023-08-28T08:25:48.690851"}, "geometry": {"coordinates": [-79.828734, 38.547452], "type": "Point"}, "id": "ZEDN9m2HEb1QYqYq7cOtbQHyEH0=", "properties": {"@spider": "usps_collection_boxes", "addr:city": "DURBIN", "addr:country": "US", "addr:full": "4345 STAUNTON PARKERSBURG TPKE", "addr:postcode": "26264", "addr:state": "WV", "amenity": "post_box", "brand": "United States Postal Service", "brand:wikidata": "Q668687", "collection_times": "Mo-Fr 12:30; Sa 11:15", "name": "USPS COLLECTION BOX - PO LOBBY", "note": "ON 12/24 AND 12/31, THIS BOX MAY BE COLLECTED AS EARLY AS 12 NOON.", "nsi_id": "unitedstatespostalservice-a77078", "operator": "United States Postal Service", "operator:short": "USPS", "operator:type": "public", "operator:wikidata": "Q668687", "ref": "2626400001"}, "type": "Feature"}
{"dataset_attributes": {"@spider": "usps_collection_boxes", "spider:collection_time": "2023-08-28T08:25:48.690851"}, "geometry": {"coordinates": [-79.911648733, 38.630165313], "type": "Point"}, "id": "s33rMXRlDi4YWXuEgkPVECqUSKo=", "properties": {"@spider": "usps_collection_boxes", "addr:city": "DURBIN", "addr:country": "US", "addr:full": "4345 STAUNTON PARKERSBURG TPKE", "addr:postcode": "26264", "addr:state": "WV", "amenity": "post_box", "brand": "United States Postal Service", "brand:wikidata": "Q668687", "collection_times": "Mo-Fr 13:00; Sa 11:30", "name": "USPS COLLECTION BOX - PO LOBBY", "note": "ON 12/24 AND 12/31, THIS BOX MAY BE COLLECTED AS EARLY AS 12 NOON.", "nsi_id": "unitedstatespostalservice-a77078", "operator": "United States Postal Service", "operator:short": "USPS", "operator:type": "public", "operator:wikidata": "Q668687", "ref": "2626400003"}, "type": "Feature"}
{"dataset_attributes": {"@spider": "usps_collection_boxes", "spider:collection_time": "2023-08-28T08:25:48.690851"}, "geometry": {"coordinates": [-80.482567, 38.436484], "type": "Point"}, "id": "MohvJkKpPXRxYTnHmdg0z9-Hx5I=", "properties": {"@spider": "usps_collection_boxes", "addr:city": "UPPERGLADE", "addr:country": "US", "addr:full": "85 PLEASANT RIDGE RD", "addr:postcode": "26266", "addr:state": "WV", "amenity": "post_box", "brand": "United States Postal Service", "brand:wikidata": "Q668687", "collection_times": "Mo-Fr 11:45; Sa 09:30", "name": "USPS COLLECTION BOX - BLUE BOX", "nsi_id": "unitedstatespostalservice-a77078", "operator": "United States Postal Service", "operator:short": "USPS", "operator:type": "public", "operator:wikidata": "Q668687", "ref": "2626600000"}, "type": "Feature"}
{"dataset_attributes": {"@spider": "usps_collection_boxes", "spider:collection_time": "2023-08-28T08:25:48.690851"}, "geometry": {"coordinates": [-80.482539, 38.436551], "type": "Point"}, "id": "P0z0phX1ra1JceGc1GXvx1kS640=", "properties": {"@spider": "usps_collection_boxes", "addr:city": "UPPERGLADE", "addr:country": "US", "addr:full": "85 PLEASANT RIDGE RD", "addr:postcode": "26266", "addr:state": "WV", "amenity": "post_box", "brand": "United States Postal Service", "brand:wikidata": "Q668687", "collection_times": "Mo-Fr 11:45; Sa 09:30", "name": "USPS COLLECTION BOX - PO LOBBY", "nsi_id": "unitedstatespostalservice-a77078", "operator": "United States Postal Service", "operator:short": "USPS", "operator:type": "public", "operator:wikidata": "Q668687", "ref": "2626600001"}, "type": "Feature"}
{"dataset_attributes": {"@spider": "usps_collection_boxes", "spider:collection_time": "2023-08-28T08:25:48.690851"}, "geometry": {"coordinates": [-80.505129117, 38.410622697], "type": "Point"}, "id": "HkPfQ_V0-S5rsebp5jwsOUX22V8=", "properties": {"@spider": "usps_collection_boxes", "addr:city": "UPPERGLADE", "addr:country": "US", "addr:full": "85 PLEASANT RIDGE RD", "addr:postcode": "26266", "addr:state": "WV", "amenity": "post_box", "brand": "United States Postal Service", "brand:wikidata": "Q668687", "collection_times": "Mo-Fr 12:00; Sa 09:45", "name": "USPS COLLECTION BOX - PO LOBBY", "nsi_id": "unitedstatespostalservice-a77078", "operator": "United States Postal Service", "operator:short": "USPS", "operator:type": "public", "operator:wikidata": "Q668687", "ref": "2626600003"}, "type": "Feature"}
{"dataset_attributes": {"@spider": "usps_collection_boxes", "spider:collection_time": "2023-08-28T08:25:48.690851"}, "geometry": {"coordinates": [-79.640587, 39.078722], "type": "Point"}, "id": "aK53YL5LiF1O0qEWJLOB2CMCj_4=", "properties": {"@spider": "usps_collection_boxes", "addr:city": "HAMBLETON", "addr:country": "US", "addr:full": "197 CENTER ST", "addr:postcode": "26269", "addr:state": "WV", "amenity": "post_box", "brand": "United States Postal Service", "brand:wikidata": "Q668687", "collection_times": "Mo-Fr 12:45; Sa 09:00", "name": "USPS COLLECTION BOX - BLUE BOX", "note": "ON 12/24 AND 12/31, THIS BOX MAY BE COLLECTED AS EARLY AS 12 NOON.", "nsi_id": "unitedstatespostalservice-a77078", "operator": "United States Postal Service", "operator:short": "USPS", "operator:type": "public", "operator:wikidata": "Q668687", "ref": "2626900000"}, "type": "Feature"}
{"dataset_attributes": {"@spider": "usps_collection_boxes", "spider:collection_time": "2023-08-28T08:25:48.690851"}, "geometry": {"coordinates": [-79.640587, 39.078722], "type": "Point"}, "id": "TEftwx-wyTBzksY_K59lNXVAMaU=", "properties": {"@spider": "usps_collection_boxes", "addr:city": "HAMBLETON", "addr:country": "US", "addr:full": "197 CENTER ST", "addr:postcode": "26269", "addr:state": "WV", "amenity": "post_box", "brand": "United States Postal Service", "brand:wikidata": "Q668687", "collection_times": "Mo-Fr 12:30; Sa 09:00", "name": "USPS COLLECTION BOX - PO LOBBY", "note": "ON 12/24 AND 12/31, THIS BOX MAY BE COLLECTED AS EARLY AS 12 NOON.", "nsi_id": "unitedstatespostalservice-a77078", "operator": "United States Postal Service", "operator:short": "USPS", "operator:type": "public", "operator:wikidata": "Q668687", "ref": "2626900001"}, "type": "Feature"}
{"dataset_attributes": {"@spider": "usps_collection_boxes", "spider:collection_time": "2023-08-28T08:25:48.690851"}, "geometry": {"coordinates": [-79.644882751, 39.081260813], "type": "Point"}, "id": "X9JRNEKeg5IQCDt-T9s7F9D7WmE=", "properties": {"@spider": "usps_collection_boxes", "addr:city": "HAMBLETON", "addr:country": "US", "addr:full": "197 CENTER ST", "addr:postcode": "26269", "addr:state": "WV", "amenity": "post_box", "brand": "United States Postal Service", "brand:wikidata": "Q668687", "collection_times": "Mo-Fr 13:00; Sa 11:30", "name": "USPS COLLECTION BOX - PO LOBBY", "note": "ON 12/24 AND 12/31, THIS BOX MAY BE COLLECTED AS EARLY AS 12 NOON.", "nsi_id": "unitedstatespostalservice-a77078", "operator": "United States Postal Service", "operator:short": "USPS", "operator:type": "public", "operator:wikidata": "Q668687", "ref": "2626900003"}, "type": "Feature"}
{"dataset_attributes": {"@spider": "usps_collection_boxes", "spider:collection_time": "2023-08-28T08:25:48.690851"}, "geometry": {"coordinates": [-79.524143, 38.922373], "type": "Point"}, "id": "PZrJd4HSqEU3GGh0xzKJmOVKLJw=", "properties": {"@spider": "usps_collection_boxes", "addr:city": "HARMAN", "addr:country": "US", "addr:full": "62 MOTT ST", "addr:postcode": "26270", "addr:state": "WV", "amenity": "post_box", "brand": "United States Postal Service", "brand:wikidata": "Q668687", "collection_times": "Mo-Fr 15:45; Sa 11:30", "name": "USPS COLLECTION BOX - BLUE BOX", "note": "ON 12/24 AND 12/31, THIS BOX MAY BE COLLECTED AS EARLY AS 12 NOON.", "nsi_id": "unitedstatespostalservice-a77078", "operator": "United States Postal Service", "operator:short": "USPS", "operator:type": "public", "operator:wikidata": "Q668687", "ref": "2627000000"}, "type": "Feature"}
{"dataset_attributes": {"@spider": "usps_collection_boxes", "spider:collection_time": "2023-08-28T08:25:48.690851"}, "geometry": {"coordinates": [-79.524143, 38.922373], "type": "Point"}, "id": "-fDyO8QUOdix96x54MKeeFWhqmo=", "properties": {"@spider": "usps_collection_boxes", "addr:city": "HARMAN", "addr:country": "US", "addr:full": "62 MOTT ST", "addr:postcode": "26270", "addr:state": "WV", "amenity": "post_box", "brand": "United States Postal Service", "brand:wikidata": "Q668687", "collection_times": "Mo-Fr 15:45; Sa 11:30", "name": "USPS COLLECTION BOX - PO LOBBY", "note": "ON 12/24 AND 12/31, THIS BOX MAY BE COLLECTED AS EARLY AS 12 NOON.", "nsi_id": "unitedstatespostalservice-a77078", "operator": "United States Postal Service", "operator:short": "USPS", "operator:type": "public", "operator:wikidata": "Q668687", "ref": "2627000001"}, "type": "Feature"}
{"dataset_attributes": {"@spider": "usps_collection_boxes", "spider:collection_time": "2023-08-28T08:25:48.690851"}, "geometry": {"coordinates": [-79.524275535, 38.922267923], "type": "Point"}, "id": "aSJrSmgIvPIo_FRW608JMNcwHeQ=", "properties": {"@spider": "usps_collection_boxes", "addr:city": "HARMAN", "addr:country": "US", "addr:full": "62 MOTT ST", "addr:postcode": "26270", "addr:state": "WV", "amenity": "post_box", "brand": "United States Postal Service", "brand:wikidata": "Q668687", "collection_times": "Mo-Fr 15:45; Sa 11:30", "name": "USPS COLLECTION BOX - PO LOBBY", "note": "ON 12/24 AND 12/31, THIS BOX MAY BE COLLECTED AS EARLY AS 12 NOON.", "nsi_id": "unitedstatespostalservice-a77078", "operator": "United States Postal Service", "operator:short": "USPS", "operator:type": "public", "operator:wikidata": "Q668687", "ref": "2627000003"}, "type": "Feature"}
{"dataset_attributes": {"@spider": "usps_collection_boxes", "spider:collection_time": "2023-08-28T08:25:48.690851"}, "geometry": {"coordinates": [-79.632811, 39.072814], "type": "Point"}, "id": "0SAIGu8Xsf6lTBqYxW_H6mtDHY0=", "properties": {"@spider": "usps_collection_boxes", "addr:city": "HENDRICKS", "addr:country": "US", "addr:full": "43 SECOND ST", "addr:postcode": "26271", "addr:state": "WV", "amenity": "post_box", "brand": "United States Postal Service", "brand:wikidata": "Q668687", "collection_times": "Mo-Fr 12:30; Sa 09:15", "name": "USPS COLLECTION BOX - BLUE BOX", "note": "ON 12/24 AND 12/31, THIS BOX MAY BE COLLECTED AS EARLY AS 12 NOON.", "nsi_id": "unitedstatespostalservice-a77078", "operator": "United States Postal Service", "operator:short": "USPS", "operator:type": "public", "operator:wikidata": "Q668687", "ref": "2627100000"}, "type": "Feature"}
{"dataset_attributes": {"@spider": "usps_collection_boxes", "spider:collection_time": "2023-08-28T08:25:48.690851"}, "geometry": {"coordinates": [-79.631883, 39.0747], "type": "Point"}, "id": "gnCLOWQhyxg80U8fZZpSo65SC4M=", "properties": {"@spider": "usps_collection_boxes", "addr:city": "HENDRICKS", "addr:country": "US", "addr:full": "43 SECOND ST", "addr:postcode": "26271", "addr:state": "WV", "amenity": "post_box", "brand": "United States Postal Service", "brand:wikidata": "Q668687", "collection_times": "Mo-Fr 12:30; Sa 09:15", "name": "USPS COLLECTION BOX - PO LOBBY", "note": "ON 12/24 AND 12/31, THIS BOX MAY BE COLLECTED AS EARLY AS 12 NOON.", "nsi_id": "unitedstatespostalservice-a77078", "operator": "United States Postal Service", "operator:short": "USPS", "operator:type": "public", "operator:wikidata": "Q668687", "ref": "2627100001"}, "type": "Feature"}
{"dataset_attributes": {"@spider": "usps_collection_boxes", "spider:collection_time": "2023-08-28T08:25:48.690851"}, "geometry": {"coordinates": [-79.631535895, 39.07531342], "type": "Point"}, "id": "1LhshFsbjDxFbCr1FTpHG2VXBdM=", "properties": {"@spider": "usps_collection_boxes", "addr:city": "HENDRICKS", "addr:country": "US", "addr:full": "43 SECOND ST", "addr:postcode": "26271", "addr:state": "WV", "amenity": "post_box", "brand": "United States Postal Service", "brand:wikidata": "Q668687", "collection_times": "Mo-Fr 13:00; Sa 10:00", "name": "USPS COLLECTION BOX - PO LOBBY", "note": "ON 12/24 AND 12/31, THIS BOX MAY BE COLLECTED AS EARLY AS 12 NOON.", "nsi_id": "unitedstatespostalservice-a77078", "operator": "United States Postal Service", "operator:short": "USPS", "operator:type": "public", "operator:wikidata": "Q668687", "ref": "2627100003"}, "type": "Feature"}
{"dataset_attributes": {"@spider": "usps_collection_boxes", "spider:collection_time": "2023-08-28T08:25:48.690851"}, "geometry": {"coordinates": [-79.9792945906, 38.7127939533], "type": "Point"}, "id": "eE6c2AAaOz1Lvhy2idg6cXW7klE=", "properties": {"@spider": "usps_collection_boxes", "addr:city": "HUTTONSVILLE", "addr:country": "US", "addr:full": "11207 SENECA TRL", "addr:postcode": "26273", "addr:state": "WV", "amenity": "post_box", "brand": "United States Postal Service", "brand:wikidata": "Q668687", "collection_times": "Mo-Fr 15:00; Sa 10:45", "name": "USPS COLLECTION BOX - BLUE BOX", "note": "ON 12/24 AND 12/31, THIS BOX MAY BE COLLECTED AS EARLY AS 12 NOON.", "nsi_id": "unitedstatespostalservice-a77078", "operator": "United States Postal Service", "operator:short": "USPS", "operator:type": "public", "operator:wikidata": "Q668687", "ref": "2627300000"}, "type": "Feature"}
{"dataset_attributes": {"@spider": "usps_collection_boxes", "spider:collection_time": "2023-08-28T08:25:48.690851"}, "geometry": {"coordinates": [-79.976476, 38.731399], "type": "Point"}, "id": "b5IdI2Q-nWGf5m2yAOz_LOl-ooY=", "properties": {"@spider": "usps_collection_boxes", "addr:city": "HUTTONSVILLE", "addr:country": "US", "addr:full": "11207 SENECA TRL", "addr:postcode": "26273", "addr:state": "WV", "amenity": "post_box", "brand": "United States Postal Service", "brand:wikidata": "Q668687", "collection_times": "Mo-Fr 15:00; Sa 10:45", "name": "USPS COLLECTION BOX - PO LOBBY", "note": "ON 12/24 AND 12/31, THIS BOX MAY BE COLLECTED AS EARLY AS 12 NOON.", "nsi_id": "unitedstatespostalservice-a77078", "operator": "United States Postal Service", "operator:short": "USPS", "operator:type": "public", "operator:wikidata": "Q668687", "ref": "2627300001"}, "type": "Feature"}
{"dataset_attributes": {"@spider": "usps_collection_boxes", "spider:collection_time": "2023-08-28T08:25:48.690851"}, "geometry": {"coordinates": [-79.979294591, 38.712793953], "type": "Point"}, "id": "vbhYdvttde6XoJ1ncLyevSx2Pzo=", "properties": {"@spider": "usps_collection_boxes", "addr:city": "HUTTONSVILLE", "addr:country": "US", "addr:full": "11207 SENECA TRL", "addr:postcode": "26273", "addr:state": "WV", "amenity": "post_box", "brand": "United States Postal Service", "brand:wikidata": "Q668687", "collection_times": "Mo-Fr 15:45; Sa 10:45", "name": "USPS COLLECTION BOX - PO LOBBY", "note": "ON 12/24 AND 12/31, THIS BOX MAY BE COLLECTED AS EARLY AS 12 NOON.", "nsi_id": "unitedstatespostalservice-a77078", "operator": "United States Postal Service", "operator:short": "USPS", "operator:type": "public", "operator:wikidata": "Q668687", "ref": "2627300003"}, "type": "Feature"}
{"dataset_attributes": {"@spider": "usps_collection_boxes", "spider:collection_time": "2023-08-28T08:25:48.690851"}, "geometry": {"coordinates": [-79.94983, 38.978271], "type": "Point"}, "id": "tMW78YRXBafn996-FSKP4iR4fn8=", "properties": {"@spider": "usps_collection_boxes", "addr:city": "JUNIOR", "addr:country": "US", "addr:full": "204 BEECH ST", "addr:postcode": "26275", "addr:state": "WV", "amenity": "post_box", "brand": "United States Postal Service", "brand:wikidata": "Q668687", "collection_times": "Mo-Fr 11:45; Sa 10:30", "name": "USPS COLLECTION BOX - BLUE BOX", "nsi_id": "unitedstatespostalservice-a77078", "operator": "United States Postal Service", "operator:short": "USPS", "operator:type": "public", "operator:wikidata": "Q668687", "ref": "2627500000"}, "type": "Feature"}
{"dataset_attributes": {"@spider": "usps_collection_boxes", "spider:collection_time": "2023-08-28T08:25:48.690851"}, "geometry": {"coordinates": [-79.9498215, 38.978303], "type": "Point"}, "id": "j6XOSpZO_7GR4Hka7V05GYowyUA=", "properties": {"@spider": "usps_collection_boxes", "addr:city": "JUNIOR", "addr:country": "US", "addr:full": "204 BEECH ST", "addr:postcode": "26275", "addr:state": "WV", "amenity": "post_box", "brand": "United States Postal Service", "brand:wikidata": "Q668687", "collection_times": "Mo-Fr 11:45; Sa 10:30", "name": "USPS COLLECTION BOX - PO LOBBY", "nsi_id": "unitedstatespostalservice-a77078", "operator": "United States Postal Service", "operator:short": "USPS", "operator:type": "public", "operator:wikidata": "Q668687", "ref": "2627500001"}, "type": "Feature"}
{"dataset_attributes": {"@spider": "usps_collection_boxes", "spider:collection_time": "2023-08-28T08:25:48.690851"}, "geometry": {"coordinates": [-79.952102564, 38.976046614], "type": "Point"}, "id": "uxQPO7UH5A0BeRX9nlxWQa-oghI=", "properties": {"@spider": "usps_collection_boxes", "addr:city": "JUNIOR", "addr:country": "US", "addr:full": "204 BEECH ST", "addr:postcode": "26275", "addr:state": "WV", "amenity": "post_box", "brand": "United States Postal Service", "brand:wikidata": "Q668687", "collection_times": "Mo-Fr 12:00; Sa 10:45", "name": "USPS COLLECTION BOX - PO LOBBY", "nsi_id": "unitedstatespostalservice-a77078", "operator": "United States Postal Service", "operator:short": "USPS", "operator:type": "public", "operator:wikidata": "Q668687", "ref": "2627500003"}, "type": "Feature"}
{"dataset_attributes": {"@spider": "usps_collection_boxes", "spider:collection_time": "2023-08-28T08:25:48.690851"}, "geometry": {"coordinates": [-79.813298, 39.011642], "type": "Point"}, "id": "5Y7WcYFqNKuJV8vln-Lrj_oW9fI=", "properties": {"@spider": "usps_collection_boxes", "addr:city": "KERENS", "addr:country": "US", "addr:full": "5173 PARSONS RD", "addr:postcode": "26276", "addr:state": "WV", "amenity": "post_box", "brand": "United States Postal Service", "brand:wikidata": "Q668687", "collection_times": "Mo-Fr 11:30; Sa 09:30", "name": "USPS COLLECTION BOX - BLUE BOX", "nsi_id": "unitedstatespostalservice-a77078", "operator": "United States Postal Service", "operator:short": "USPS", "operator:type": "public", "operator:wikidata": "Q668687", "ref": "2627600000"}, "type": "Feature"}
{"dataset_attributes": {"@spider": "usps_collection_boxes", "spider:collection_time": "2023-08-28T08:25:48.690851"}, "geometry": {"coordinates": [-79.7497418061, 39.0331235994], "type": "Point"}, "id": "NLiW4iPHG7m-BAFGbtn-x_l_tEM=", "properties": {"@spider": "usps_collection_boxes", "addr:city": "KERENS", "addr:country": "US", "addr:full": "PO BOX 9998", "addr:postcode": "26276", "addr:state": "WV", "amenity": "post_box", "brand": "United States Postal Service", "brand:wikidata": "Q668687", "collection_times": "Mo-Sa 11:30", "name": "USPS COLLECTION BOX - PO LOBBY", "nsi_id": "unitedstatespostalservice-a77078", "operator": "United States Postal Service", "operator:short": "USPS", "operator:type": "public", "operator:wikidata": "Q668687", "ref": "2627600001"}, "type": "Feature"}
{"dataset_attributes": {"@spider": "usps_collection_boxes", "spider:collection_time": "2023-08-28T08:25:48.690851"}, "geometry": {"coordinates": [-79.821603809, 39.001544262], "type": "Point"}, "id": "Thy_iO0d5igBsrX0rKuA-s91SRM=", "properties": {"@spider": "usps_collection_boxes", "addr:city": "KERENS", "addr:country": "US", "addr:full": "5173 PARSONS RD", "addr:postcode": "26276", "addr:state": "WV", "amenity": "post_box", "brand": "United States Postal Service", "brand:wikidata": "Q668687", "collection_times": "Mo-Sa 12:00", "name": "USPS COLLECTION BOX - PO LOBBY", "nsi_id": "unitedstatespostalservice-a77078", "operator": "United States Postal Service", "operator:short": "USPS", "operator:type": "public", "operator:wikidata": "Q668687", "ref": "2627600004"}, "type": "Feature"}
{"dataset_attributes": {"@spider": "usps_collection_boxes", "spider:collection_time": "2023-08-28T08:25:48.690851"}, "geometry": {"coordinates": [-79.984862, 38.877732], "type": "Point"}, "id": "WYq-n59wRWKh6EdHgCsWaMkkDrE=", "properties": {"@spider": "usps_collection_boxes", "addr:city": "MABIE", "addr:country": "US", "addr:full": "1010 MABIE CASSITY RD", "addr:postcode": "26278", "addr:state": "WV", "amenity": "post_box", "brand": "United States Postal Service", "brand:wikidata": "Q668687", "collection_times": "Mo-Fr 12:15; Sa 10:30", "name": "USPS COLLECTION BOX - BLUE BOX", "note": "ON 12/24 AND 12/31, THIS BOX MAY BE COLLECTED AS EARLY AS 12 NOON.", "nsi_id": "unitedstatespostalservice-a77078", "operator": "United States Postal Service", "operator:short": "USPS", "operator:type": "public", "operator:wikidata": "Q668687", "ref": "2627800000"}, "type": "Feature"}
{"dataset_attributes": {"@spider": "usps_collection_boxes", "spider:collection_time": "2023-08-28T08:25:48.690851"}, "geometry": {"coordinates": [-79.984862, 38.877732], "type": "Point"}, "id": "Glsv6h7cO6eEX9OgVTcfw9L37r8=", "properties": {"@spider": "usps_collection_boxes", "addr:city": "MABIE", "addr:country": "US", "addr:full": "1010 MABIE CASSITY RD", "addr:postcode": "26278", "addr:state": "WV", "amenity": "post_box", "brand": "United States Postal Service", "brand:wikidata": "Q668687", "collection_times": "Mo-Fr 12:15; Sa 10:30", "name": "USPS COLLECTION BOX - PO LOBBY", "note": "ON 12/24 AND 12/31, THIS BOX MAY BE COLLECTED AS EARLY AS 12 NOON.", "nsi_id": "unitedstatespostalservice-a77078", "operator": "United States Postal Service", "operator:short": "USPS", "operator:type": "public", "operator:wikidata": "Q668687", "ref": "2627800001"}, "type": "Feature"}
{"dataset_attributes": {"@spider": "usps_collection_boxes", "spider:collection_time": "2023-08-28T08:25:48.690851"}, "geometry": {"coordinates": [-79.984006991, 38.877255584], "type": "Point"}, "id": "1q9Iruzf3XG-4t5Lq05T_dJVhVo=", "properties": {"@spider": "usps_collection_boxes", "addr:city": "MABIE", "addr:country": "US", "addr:full": "1010 MABIE CASSITY RD", "addr:postcode": "26278", "addr:state": "WV", "amenity": "post_box", "brand": "United States Postal Service", "brand:wikidata": "Q668687", "collection_times": "Mo-Fr 12:30; Sa 11:00", "name": "USPS COLLECTION BOX - PO LOBBY", "note": "ON 12/24 AND 12/31, THIS BOX MAY BE COLLECTED AS EARLY AS 12 NOON.", "nsi_id": "unitedstatespostalservice-a77078", "operator": "United States Postal Service", "operator:short": "USPS", "operator:type": "public", "operator:wikidata": "Q668687", "ref": "2627800003"}, "type": "Feature"}
{"dataset_attributes": {"@spider": "usps_collection_boxes", "spider:collection_time": "2023-08-28T08:25:48.690851"}, "geometry": {"coordinates": [-79.971245801, 38.729519645], "type": "Point"}, "id": "mSPxIxPbkeIa4SDLlikWnIVRFdc=", "properties": {"@spider": "usps_collection_boxes", "addr:city": "MILL CREEK", "addr:country": "US", "addr:full": "10054 SENECA TRL", "addr:postcode": "26280", "addr:state": "WV", "amenity": "post_box", "brand": "United States Postal Service", "brand:wikidata": "Q668687", "collection_times": "Mo-Fr 15:20; Sa 10:30", "name": "USPS COLLECTION BOX - BLUE BOX", "note": "ON 12/24 AND 12/31, THIS BOX MAY BE COLLECTED AS EARLY AS 12 NOON.", "nsi_id": "unitedstatespostalservice-a77078", "operator": "United States Postal Service", "operator:short": "USPS", "operator:type": "public", "operator:wikidata": "Q668687", "ref": "2628000000"}, "type": "Feature"}
{"dataset_attributes": {"@spider": "usps_collection_boxes", "spider:collection_time": "2023-08-28T08:25:48.690851"}, "geometry": {"coordinates": [-79.971245801, 38.729519645], "type": "Point"}, "id": "n7xsGMOkgh0Peuzzatb_Hwm8FSY=", "properties": {"@spider": "usps_collection_boxes", "addr:city": "MILL CREEK", "addr:country": "US", "addr:full": "10054 SENECA TRL", "addr:postcode": "26280", "addr:state": "WV", "amenity": "post_box", "brand": "United States Postal Service", "brand:wikidata": "Q668687", "collection_times": "Mo-Fr 15:20; Sa 10:30", "name": "USPS COLLECTION BOX - PO LOBBY", "note": "ON 12/24 AND 12/31, THIS BOX MAY BE COLLECTED AS EARLY AS 12 NOON.", "nsi_id": "unitedstatespostalservice-a77078", "operator": "United States Postal Service", "operator:short": "USPS", "operator:type": "public", "operator:wikidata": "Q668687", "ref": "2628000001"}, "type": "Feature"}
{"dataset_attributes": {"@spider": "usps_collection_boxes", "spider:collection_time": "2023-08-28T08:25:48.690851"}, "geometry": {"coordinates": [-79.971245801, 38.729519645], "type": "Point"}, "id": "4fR7_913MuHamGi001mhx7hl5MI=", "properties": {"@spider": "usps_collection_boxes", "addr:city": "MILL CREEK", "addr:country": "US", "addr:full": "10054 SENECA TRL", "addr:postcode": "26280", "addr:state": "WV", "amenity": "post_box", "brand": "United States Postal Service", "brand:wikidata": "Q668687", "collection_times": "Mo-Fr 15:45; Sa 10:45", "name": "USPS COLLECTION BOX - PO LOBBY", "note": "ON 12/24 AND 12/31, THIS BOX MAY BE COLLECTED AS EARLY AS 12 NOON.", "nsi_id": "unitedstatespostalservice-a77078", "operator": "United States Postal Service", "operator:short": "USPS", "operator:type": "public", "operator:wikidata": "Q668687", "ref": "2628000003"}, "type": "Feature"}
{"dataset_attributes": {"@spider": "usps_collection_boxes", "spider:collection_time": "2023-08-28T08:25:48.690851"}, "geometry": {"coordinates": [-79.808818, 39.068293], "type": "Point"}, "id": "B4ovCmQJCl9OsPfGFjaexLNTzK0=", "properties": {"@spider": "usps_collection_boxes", "addr:city": "MONTROSE", "addr:country": "US", "addr:full": "9152 PARSONS RD", "addr:postcode": "26283", "addr:state": "WV", "amenity": "post_box", "brand": "United States Postal Service", "brand:wikidata": "Q668687", "collection_times": "Mo-Fr 13:45; Sa 09:00", "name": "USPS COLLECTION BOX - BLUE BOX", "note": "ON 12/24 AND 12/31, THIS BOX MAY BE COLLECTED AS EARLY AS 12 NOON.", "nsi_id": "unitedstatespostalservice-a77078", "operator": "United States Postal Service", "operator:short": "USPS", "operator:type": "public", "operator:wikidata": "Q668687", "ref": "2628300000"}, "type": "Feature"}
{"dataset_attributes": {"@spider": "usps_collection_boxes", "spider:collection_time": "2023-08-28T08:25:48.690851"}, "geometry": {"coordinates": [-79.808818, 39.068293], "type": "Point"}, "id": "GOyxmJlb2HOKWuPC3gBxkgjsPaM=", "properties": {"@spider": "usps_collection_boxes", "addr:city": "MONTROSE", "addr:country": "US", "addr:full": "9152 PARSONS RD", "addr:postcode": "26283", "addr:state": "WV", "amenity": "post_box", "brand": "United States Postal Service", "brand:wikidata": "Q668687", "collection_times": "Mo-Fr 13:45; Sa 09:00", "name": "USPS COLLECTION BOX - PO LOBBY", "note": "ON 12/24 AND 12/31, THIS BOX MAY BE COLLECTED AS EARLY AS 12 NOON.", "nsi_id": "unitedstatespostalservice-a77078", "operator": "United States Postal Service", "operator:short": "USPS", "operator:type": "public", "operator:wikidata": "Q668687", "ref": "2628300001"}, "type": "Feature"}
{"dataset_attributes": {"@spider": "usps_collection_boxes", "spider:collection_time": "2023-08-28T08:25:48.690851"}, "geometry": {"coordinates": [-79.81302947, 39.011856646], "type": "Point"}, "id": "faxeGVIy85QTAK0G3Ch6Bxzg0WU=", "properties": {"@spider": "usps_collection_boxes", "addr:city": "MONTROSE", "addr:country": "US", "addr:full": "9152 PARSONS RD", "addr:postcode": "26283", "addr:state": "WV", "amenity": "post_box", "brand": "United States Postal Service", "brand:wikidata": "Q668687", "collection_times": "Mo-Fr 13:45; Sa 09:45", "name": "USPS COLLECTION BOX - PO LOBBY", "note": "ON 12/24 AND 12/31, THIS BOX MAY BE COLLECTED AS EARLY AS 12 NOON.", "nsi_id": "unitedstatespostalservice-a77078", "operator": "United States Postal Service", "operator:short": "USPS", "operator:type": "public", "operator:wikidata": "Q668687", "ref": "2628300003"}, "type": "Feature"}
{"dataset_attributes": {"@spider": "usps_collection_boxes", "spider:collection_time": "2023-08-28T08:25:48.690851"}, "geometry": {"coordinates": [-79.680869323, 39.098277001], "type": "Point"}, "id": "Z38TNIZ1hVq1YwHG9FTIdlP_EEE=", "properties": {"@spider": "usps_collection_boxes", "addr:city": "PARSONS", "addr:country": "US", "addr:full": "235 WALNUT ST", "addr:postcode": "26287", "addr:state": "WV", "amenity": "post_box", "brand": "United States Postal Service", "brand:wikidata": "Q668687", "collection_times": "Mo-Fr 16:15; Sa 11:00", "name": "USPS COLLECTION BOX - BLUE BOX", "note": "ON 12/24 AND 12/31, THIS BOX MAY BE COLLECTED AS EARLY AS 12 NOON.", "nsi_id": "unitedstatespostalservice-a77078", "operator": "United States Postal Service", "operator:short": "USPS", "operator:type": "public", "operator:wikidata": "Q668687", "ref": "2628700000"}, "type": "Feature"}
{"dataset_attributes": {"@spider": "usps_collection_boxes", "spider:collection_time": "2023-08-28T08:25:48.690851"}, "geometry": {"coordinates": [-79.680869323, 39.098277001], "type": "Point"}, "id": "fqesUu2YXX5H4pN3SiasNvbGxvM=", "properties": {"@spider": "usps_collection_boxes", "addr:city": "PARSONS", "addr:country": "US", "addr:full": "235 WALNUT ST", "addr:postcode": "26287", "addr:state": "WV", "amenity": "post_box", "brand": "United States Postal Service", "brand:wikidata": "Q668687", "collection_times": "Mo-Fr 16:30; Sa 11:00", "name": "USPS COLLECTION BOX - PO LOBBY", "note": "ON 12/24 AND 12/31, THIS BOX MAY BE COLLECTED AS EARLY AS 12 NOON.", "nsi_id": "unitedstatespostalservice-a77078", "operator": "United States Postal Service", "operator:short": "USPS", "operator:type": "public", "operator:wikidata": "Q668687", "ref": "2628700004"}, "type": "Feature"}
{"dataset_attributes": {"@spider": "usps_collection_boxes", "spider:collection_time": "2023-08-28T08:25:48.690851"}, "geometry": {"coordinates": [-79.680869323, 39.098277001], "type": "Point"}, "id": "hg3aXmzHK6Jf-H7JCaLuZ981XDQ=", "properties": {"@spider": "usps_collection_boxes", "addr:city": "PARSONS", "addr:country": "US", "addr:full": "235 WALNUT ST RM 1", "addr:postcode": "26287", "addr:state": "WV", "amenity": "post_box", "brand": "United States Postal Service", "brand:wikidata": "Q668687", "collection_times": "Mo-Fr 16:30; Sa 11:00", "name": "USPS COLLECTION BOX - PO LOBBY", "note": "ON 12/24 AND 12/31, THIS BOX MAY BE COLLECTED AS EARLY AS 12 NOON.", "nsi_id": "unitedstatespostalservice-a77078", "operator": "United States Postal Service", "operator:short": "USPS", "operator:type": "public", "operator:wikidata": "Q668687", "ref": "2628700006"}, "type": "Feature"}
{"dataset_attributes": {"@spider": "usps_collection_boxes", "spider:collection_time": "2023-08-28T08:25:48.690851"}, "geometry": {"coordinates": [-80.411503706, 38.479539686], "type": "Point"}, "id": "uJlcptQty9Hp8uxu_41XjBIhp1s=", "properties": {"@spider": "usps_collection_boxes", "addr:city": "WEBSTER SPRINGS", "addr:country": "US", "addr:full": "100 BACK FORK ST", "addr:postcode": "26288", "addr:state": "WV", "amenity": "post_box", "brand": "United States Postal Service", "brand:wikidata": "Q668687", "collection_times": "Mo-Fr 16:00; Sa 10:30", "name": "USPS COLLECTION BOX - BLUE BOX", "note": "ON 12/24 AND 12/31, THIS BOX MAY BE COLLECTED AS EARLY AS 12 NOON.", "nsi_id": "unitedstatespostalservice-a77078", "operator": "United States Postal Service", "operator:short": "USPS", "operator:type": "public", "operator:wikidata": "Q668687", "ref": "2628800000"}, "type": "Feature"}
{"dataset_attributes": {"@spider": "usps_collection_boxes", "spider:collection_time": "2023-08-28T08:25:48.690851"}, "geometry": {"coordinates": [-80.411503706, 38.479539686], "type": "Point"}, "id": "xaaY76bnOFd3hhA9lF10vQeszY0=", "properties": {"@spider": "usps_collection_boxes", "addr:city": "WEBSTER SPRINGS", "addr:country": "US", "addr:full": "100 BACK FORK ST", "addr:postcode": "26288", "addr:state": "WV", "amenity": "post_box", "brand": "United States Postal Service", "brand:wikidata": "Q668687", "collection_times": "Mo-Fr 16:00; Sa 10:30", "name": "USPS COLLECTION BOX - PO LOBBY", "note": "ON 12/24 AND 12/31, THIS BOX MAY BE COLLECTED AS EARLY AS 12 NOON.", "nsi_id": "unitedstatespostalservice-a77078", "operator": "United States Postal Service", "operator:short": "USPS", "operator:type": "public", "operator:wikidata": "Q668687", "ref": "2628800005"}, "type": "Feature"}
{"dataset_attributes": {"@spider": "usps_collection_boxes", "spider:collection_time": "2023-08-28T08:25:48.690851"}, "geometry": {"coordinates": [-80.411503706, 38.479539686], "type": "Point"}, "id": "TlmZ7uh1pngA8FWEANfV3TI_exE=", "properties": {"@spider": "usps_collection_boxes", "addr:city": "WEBSTER SPRINGS", "addr:country": "US", "addr:full": "100 BACK FORK ST", "addr:postcode": "26288", "addr:state": "WV", "amenity": "post_box", "brand": "United States Postal Service", "brand:wikidata": "Q668687", "collection_times": "Mo-Fr 16:00; Sa 10:30", "name": "USPS COLLECTION BOX - PO LOBBY", "note": "ON 12/24 AND 12/31, THIS BOX MAY BE COLLECTED AS EARLY AS 12 NOON.", "nsi_id": "unitedstatespostalservice-a77078", "operator": "United States Postal Service", "operator:short": "USPS", "operator:type": "public", "operator:wikidata": "Q668687", "ref": "2628800007"}, "type": "Feature"}
{"dataset_attributes": {"@spider": "usps_collection_boxes", "spider:collection_time": "2023-08-28T08:25:48.690851"}, "geometry": {"coordinates": [-79.50998, 38.988572], "type": "Point"}, "id": "QSJiUWjWx-5wpC6macQspe5gIg8=", "properties": {"@spider": "usps_collection_boxes", "addr:city": "RED CREEK", "addr:country": "US", "addr:full": "94 BUTCHERS RIDGE RD", "addr:postcode": "26289", "addr:state": "WV", "amenity": "post_box", "brand": "United States Postal Service", "brand:wikidata": "Q668687", "collection_times": "Mo-Sa 12:45", "name": "USPS COLLECTION BOX - BLUE BOX", "note": "ON 12/24 AND 12/31, THIS BOX MAY BE COLLECTED AS EARLY AS 12 NOON.", "nsi_id": "unitedstatespostalservice-a77078", "operator": "United States Postal Service", "operator:short": "USPS", "operator:type": "public", "operator:wikidata": "Q668687", "ref": "2628900000"}, "type": "Feature"}
{"dataset_attributes": {"@spider": "usps_collection_boxes", "spider:collection_time": "2023-08-28T08:25:48.690851"}, "geometry": {"coordinates": [-79.50998, 38.988572], "type": "Point"}, "id": "x1r_S6UR8-2Hf8rpr0ezdYIXg6Y=", "properties": {"@spider": "usps_collection_boxes", "addr:city": "RED CREEK", "addr:country": "US", "addr:full": "94 BUTCHERS RIDGE RD", "addr:postcode": "26289", "addr:state": "WV", "amenity": "post_box", "brand": "United States Postal Service", "brand:wikidata": "Q668687", "collection_times": "Mo-Sa 12:45", "name": "USPS COLLECTION BOX - PO LOBBY", "note": "ON 12/24 AND 12/31, THIS BOX MAY BE COLLECTED AS EARLY AS 12 NOON.", "nsi_id": "unitedstatespostalservice-a77078", "operator": "United States Postal Service", "operator:short": "USPS", "operator:type": "public", "operator:wikidata": "Q668687", "ref": "2628900001"}, "type": "Feature"}
{"dataset_attributes": {"@spider": "usps_collection_boxes", "spider:collection_time": "2023-08-28T08:25:48.690851"}, "geometry": {"coordinates": [-79.499693292, 39.001439516], "type": "Point"}, "id": "1n2zz8AMlN1Pln6tfityAsJ1H24=", "properties": {"@spider": "usps_collection_boxes", "addr:city": "RED CREEK", "addr:country": "US", "addr:full": "94 BUTCHERS RIDGE RD", "addr:postcode": "26289", "addr:state": "WV", "amenity": "post_box", "brand": "United States Postal Service", "brand:wikidata": "Q668687", "collection_times": "Mo-Sa 13:00", "name": "USPS COLLECTION BOX - PO LOBBY", "note": "ON 12/24 AND 12/31, THIS BOX MAY BE COLLECTED AS EARLY AS 12 NOON.", "nsi_id": "unitedstatespostalservice-a77078", "operator": "United States Postal Service", "operator:short": "USPS", "operator:type": "public", "operator:wikidata": "Q668687", "ref": "2628900003"}, "type": "Feature"}
{"dataset_attributes": {"@spider": "usps_collection_boxes", "spider:collection_time": "2023-08-28T08:25:48.690851"}, "geometry": {"coordinates": [-80.115120261, 38.415965804], "type": "Point"}, "id": "umziAXvFoIoXExwAWTBRKBwdBXk=", "properties": {"@spider": "usps_collection_boxes", "addr:city": "SLATYFORK", "addr:country": "US", "addr:full": "35161 SENECA TRL", "addr:postcode": "26291", "addr:state": "WV", "amenity": "post_box", "brand": "United States Postal Service", "brand:wikidata": "Q668687", "collection_times": "Mo-Fr 12:00; Sa 11:00", "name": "USPS COLLECTION BOX - PO LOBBY", "nsi_id": "unitedstatespostalservice-a77078", "operator": "United States Postal Service", "operator:short": "USPS", "operator:type": "public", "operator:wikidata": "Q668687", "ref": "2629100004"}, "type": "Feature"}
{"dataset_attributes": {"@spider": "usps_collection_boxes", "spider:collection_time": "2023-08-28T08:25:48.690851"}, "geometry": {"coordinates": [-80.111915738, 38.416622565], "type": "Point"}, "id": "_q3Fz9S9EET3zOOGvj3JiC9oS2o=", "properties": {"@spider": "usps_collection_boxes", "addr:city": "SLATYFORK", "addr:country": "US", "addr:full": "35161 SENECA TRL", "addr:postcode": "26291", "addr:state": "WV", "amenity": "post_box", "brand": "United States Postal Service", "brand:wikidata": "Q668687", "collection_times": "Mo-Fr 13:00; Sa 11:00", "name": "USPS COLLECTION BOX - BLUE BOX", "note": "ON 12/24 AND 12/31, THIS BOX MAY BE COLLECTED AS EARLY AS 12 NOON.", "nsi_id": "unitedstatespostalservice-a77078", "operator": "United States Postal Service", "operator:short": "USPS", "operator:type": "public", "operator:wikidata": "Q668687", "ref": "2629100006"}, "type": "Feature"}
{"dataset_attributes": {"@spider": "usps_collection_boxes", "spider:collection_time": "2023-08-28T08:25:48.690851"}, "geometry": {"coordinates": [-80.111915738, 38.416622565], "type": "Point"}, "id": "H6j7AwkoNXfm9pYiE1oy9IsRz-4=", "properties": {"@spider": "usps_collection_boxes", "addr:city": "SLATYFORK", "addr:country": "US", "addr:full": "35161 SENECA TRL", "addr:postcode": "26291", "addr:state": "WV", "amenity": "post_box", "brand": "United States Postal Service", "brand:wikidata": "Q668687", "collection_times": "Mo-Fr 13:00; Sa 11:00", "name": "USPS COLLECTION BOX - PO LOBBY", "note": "ON 12/24 AND 12/31, THIS BOX MAY BE COLLECTED AS EARLY AS 12 NOON.", "nsi_id": "unitedstatespostalservice-a77078", "operator": "United States Postal Service", "operator:short": "USPS", "operator:type": "public", "operator:wikidata": "Q668687", "ref": "2629100007"}, "type": "Feature"}
{"dataset_attributes": {"@spider": "usps_collection_boxes", "spider:collection_time": "2023-08-28T08:25:48.690851"}, "geometry": {"coordinates": [-79.499351448, 39.147792835], "type": "Point"}, "id": "uKbBgiUygH1bLkQMB_Tl3oeBfuw=", "properties": {"@spider": "usps_collection_boxes", "addr:city": "THOMAS", "addr:country": "US", "addr:full": "51 EAST AVE", "addr:postcode": "26292", "addr:state": "WV", "amenity": "post_box", "brand": "United States Postal Service", "brand:wikidata": "Q668687", "collection_times": "Mo-Fr 15:00; Sa 11:30", "name": "USPS COLLECTION BOX - BLUE BOX", "note": "ON 12/24 AND 12/31, THIS BOX MAY BE COLLECTED AS EARLY AS 12 NOON.", "nsi_id": "unitedstatespostalservice-a77078", "operator": "United States Postal Service", "operator:short": "USPS", "operator:type": "public", "operator:wikidata": "Q668687", "ref": "2629200000"}, "type": "Feature"}
{"dataset_attributes": {"@spider": "usps_collection_boxes", "spider:collection_time": "2023-08-28T08:25:48.690851"}, "geometry": {"coordinates": [-79.499351448, 39.147792835], "type": "Point"}, "id": "Nh2A34UgL3h1H8NkONLj6HjyJyA=", "properties": {"@spider": "usps_collection_boxes", "addr:city": "THOMAS", "addr:country": "US", "addr:full": "51 EAST AVE", "addr:postcode": "26292", "addr:state": "WV", "amenity": "post_box", "brand": "United States Postal Service", "brand:wikidata": "Q668687", "collection_times": "Mo-Fr 16:00; Sa 11:30", "name": "USPS COLLECTION BOX - PO LOBBY", "note": "ON 12/24 AND 12/31, THIS BOX MAY BE COLLECTED AS EARLY AS 12 NOON.", "nsi_id": "unitedstatespostalservice-a77078", "operator": "United States Postal Service", "operator:short": "USPS", "operator:type": "public", "operator:wikidata": "Q668687", "ref": "2629200001"}, "type": "Feature"}
{"dataset_attributes": {"@spider": "usps_collection_boxes", "spider:collection_time": "2023-08-28T08:25:48.690851"}, "geometry": {"coordinates": [-79.499351448, 39.147792835], "type": "Point"}, "id": "raL1oAxAcHx0A53wbWZ8MTxrnus=", "properties": {"@spider": "usps_collection_boxes", "addr:city": "THOMAS", "addr:country": "US", "addr:full": "51 EAST AVE", "addr:postcode": "26292", "addr:state": "WV", "amenity": "post_box", "brand": "United States Postal Service", "brand:wikidata": "Q668687", "collection_times": "Mo-Fr 16:00; Sa 11:30", "name": "USPS COLLECTION BOX - PO LOBBY", "note": "ON 12/24 AND 12/31, THIS BOX MAY BE COLLECTED AS EARLY AS 12 NOON.", "nsi_id": "unitedstatespostalservice-a77078", "operator": "United States Postal Service", "operator:short": "USPS", "operator:type": "public", "operator:wikidata": "Q668687", "ref": "2629200003"}, "type": "Feature"}
{"dataset_attributes": {"@spider": "usps_collection_boxes", "spider:collection_time": "2023-08-28T08:25:48.690851"}, "geometry": {"coordinates": [-79.928676, 38.772345], "type": "Point"}, "id": "je743yLfwdx3Rm7ozscgeImlZwc=", "properties": {"@spider": "usps_collection_boxes", "addr:city": "VALLEY BEND", "addr:country": "US", "addr:full": "5934 SENECA TRL", "addr:postcode": "26293", "addr:state": "WV", "amenity": "post_box", "brand": "United States Postal Service", "brand:wikidata": "Q668687", "collection_times": "Mo-Fr 12:15; Sa 09:30", "name": "USPS COLLECTION BOX - BLUE BOX", "note": "ON 12/24 AND 12/31, THIS BOX MAY BE COLLECTED AS EARLY AS 12 NOON.", "nsi_id": "unitedstatespostalservice-a77078", "operator": "United States Postal Service", "operator:short": "USPS", "operator:type": "public", "operator:wikidata": "Q668687", "ref": "2629300000"}, "type": "Feature"}
{"dataset_attributes": {"@spider": "usps_collection_boxes", "spider:collection_time": "2023-08-28T08:25:48.690851"}, "geometry": {"coordinates": [-79.928676, 38.772345], "type": "Point"}, "id": "t1N0zqsUD9zNfoVo2l5CE30XPoc=", "properties": {"@spider": "usps_collection_boxes", "addr:city": "VALLEY BEND", "addr:country": "US", "addr:full": "5934 SENECA TRL", "addr:postcode": "26293", "addr:state": "WV", "amenity": "post_box", "brand": "United States Postal Service", "brand:wikidata": "Q668687", "collection_times": "Mo-Fr 12:15; Sa 09:30", "name": "USPS COLLECTION BOX - PO LOBBY", "note": "ON 12/24 AND 12/31, THIS BOX MAY BE COLLECTED AS EARLY AS 12 NOON.", "nsi_id": "unitedstatespostalservice-a77078", "operator": "United States Postal Service", "operator:short": "USPS", "operator:type": "public", "operator:wikidata": "Q668687", "ref": "2629300001"}, "type": "Feature"}
{"dataset_attributes": {"@spider": "usps_collection_boxes", "spider:collection_time": "2023-08-28T08:25:48.690851"}, "geometry": {"coordinates": [-79.943933632, 38.769290195], "type": "Point"}, "id": "-YqsJUZeNgv5NyBair_s6Aizj1o=", "properties": {"@spider": "usps_collection_boxes", "addr:city": "VALLEY BEND", "addr:country": "US", "addr:full": "5934 SENECA TRL", "addr:postcode": "26293", "addr:state": "WV", "amenity": "post_box", "brand": "United States Postal Service", "brand:wikidata": "Q668687", "collection_times": "Mo-Fr 12:30; Sa 10:30", "name": "USPS COLLECTION BOX - PO LOBBY", "note": "ON 12/24 AND 12/31, THIS BOX MAY BE COLLECTED AS EARLY AS 12 NOON.", "nsi_id": "unitedstatespostalservice-a77078", "operator": "United States Postal Service", "operator:short": "USPS", "operator:type": "public", "operator:wikidata": "Q668687", "ref": "2629300003"}, "type": "Feature"}
{"dataset_attributes": {"@spider": "usps_collection_boxes", "spider:collection_time": "2023-08-28T08:25:48.690851"}, "geometry": {"coordinates": [-80.0420718607, 38.4823782098], "type": "Point"}, "id": "t4w_j2eg1lMxCDhGi507a5szOBI=", "properties": {"@spider": "usps_collection_boxes", "addr:city": "VALLEY HEAD", "addr:country": "US", "addr:full": "25232 SENECA TRL", "addr:postcode": "26294", "addr:state": "WV", "amenity": "post_box", "brand": "United States Postal Service", "brand:wikidata": "Q668687", "collection_times": "Mo-Fr 15:15; Sa 10:00", "name": "USPS COLLECTION BOX - BLUE BOX", "note": "ON 12/24 AND 12/31, THIS BOX MAY BE COLLECTED AS EARLY AS 12 NOON.", "nsi_id": "unitedstatespostalservice-a77078", "operator": "United States Postal Service", "operator:short": "USPS", "operator:type": "public", "operator:wikidata": "Q668687", "ref": "2629400000"}, "type": "Feature"}
{"dataset_attributes": {"@spider": "usps_collection_boxes", "spider:collection_time": "2023-08-28T08:25:48.690851"}, "geometry": {"coordinates": [-80.0381412726, 38.5201122302], "type": "Point"}, "id": "HyHj7pJww-lJzojzzqOY9DVxM1k=", "properties": {"@spider": "usps_collection_boxes", "addr:city": "VALLEY HEAD", "addr:country": "US", "addr:full": "25232 SENECA TRL", "addr:postcode": "26294", "addr:state": "WV", "amenity": "post_box", "brand": "United States Postal Service", "brand:wikidata": "Q668687", "collection_times": "Mo-Fr 15:15; Sa 10:00", "name": "USPS COLLECTION BOX - PO LOBBY", "note": "ON 12/24 AND 12/31, THIS BOX MAY BE COLLECTED AS EARLY AS 12 NOON.", "nsi_id": "unitedstatespostalservice-a77078", "operator": "United States Postal Service", "operator:short": "USPS", "operator:type": "public", "operator:wikidata": "Q668687", "ref": "2629400001"}, "type": "Feature"}
{"dataset_attributes": {"@spider": "usps_collection_boxes", "spider:collection_time": "2023-08-28T08:25:48.690851"}, "geometry": {"coordinates": [-80.042114165, 38.482383401], "type": "Point"}, "id": "7ROD9TEhm91iRoei3vkDdowxess=", "properties": {"@spider": "usps_collection_boxes", "addr:city": "VALLEY HEAD", "addr:country": "US", "addr:full": "25232 SENECA TRL", "addr:postcode": "26294", "addr:state": "WV", "amenity": "post_box", "brand": "United States Postal Service", "brand:wikidata": "Q668687", "collection_times": "Mo-Fr 15:45; Sa 11:00", "name": "USPS COLLECTION BOX - PO LOBBY", "note": "ON 12/24 AND 12/31, THIS BOX MAY BE COLLECTED AS EARLY AS 12 NOON.", "nsi_id": "unitedstatespostalservice-a77078", "operator": "United States Postal Service", "operator:short": "USPS", "operator:type": "public", "operator:wikidata": "Q668687", "ref": "2629400003"}, "type": "Feature"}
{"dataset_attributes": {"@spider": "usps_collection_boxes", "spider:collection_time": "2023-08-28T08:25:48.690851"}, "geometry": {"coordinates": [-80.300573744, 38.4867563774], "type": "Point"}, "id": "tWh81HzjjvrFvyrqR4DWH1DJta0=", "properties": {"@spider": "usps_collection_boxes", "addr:city": "BERGOO", "addr:country": "US", "addr:full": "19 POST OFFICE LN", "addr:postcode": "26298", "addr:state": "WV", "amenity": "post_box", "brand": "United States Postal Service", "brand:wikidata": "Q668687", "collection_times": "Mo-Sa 12:00", "name": "USPS COLLECTION BOX - BLUE BOX", "nsi_id": "unitedstatespostalservice-a77078", "operator": "United States Postal Service", "operator:short": "USPS", "operator:type": "public", "operator:wikidata": "Q668687", "ref": "2629800000"}, "type": "Feature"}
{"dataset_attributes": {"@spider": "usps_collection_boxes", "spider:collection_time": "2023-08-28T08:25:48.690851"}, "geometry": {"coordinates": [-80.300324, 38.486702], "type": "Point"}, "id": "2oyQ6SFdDGsX73Wx6v8_ZB4bXP8=", "properties": {"@spider": "usps_collection_boxes", "addr:city": "BERGOO", "addr:country": "US", "addr:full": "19 POST OFFICE LN", "addr:postcode": "26298", "addr:state": "WV", "amenity": "post_box", "brand": "United States Postal Service", "brand:wikidata": "Q668687", "collection_times": "Mo-Sa 12:00", "name": "USPS COLLECTION BOX - PO LOBBY", "nsi_id": "unitedstatespostalservice-a77078", "operator": "United States Postal Service", "operator:short": "USPS", "operator:type": "public", "operator:wikidata": "Q668687", "ref": "2629800001"}, "type": "Feature"}
{"dataset_attributes": {"@spider": "usps_collection_boxes", "spider:collection_time": "2023-08-28T08:25:48.690851"}, "geometry": {"coordinates": [-80.300573744, 38.486756377], "type": "Point"}, "id": "gGgiNjXfKSGLt6XsEUHqpjXdLrs=", "properties": {"@spider": "usps_collection_boxes", "addr:city": "BERGOO", "addr:country": "US", "addr:full": "19 POST OFFICE LN", "addr:postcode": "26298", "addr:state": "WV", "amenity": "post_box", "brand": "United States Postal Service", "brand:wikidata": "Q668687", "collection_times": "Mo-Fr 15:15; Sa 13:00", "name": "USPS COLLECTION BOX - PO LOBBY", "note": "ON 12/24 AND 12/31, THIS BOX MAY BE COLLECTED AS EARLY AS 12 NOON.", "nsi_id": "unitedstatespostalservice-a77078", "operator": "United States Postal Service", "operator:short": "USPS", "operator:type": "public", "operator:wikidata": "Q668687", "ref": "2629800003"}, "type": "Feature"}
