{"geometry": {"coordinates": [-80.3366431655, 39.2788132797], "type": "Point"}, "id": "COrnxki2TlKnUtU_hgoypGYPhXs=", "properties": {"@source_uri": "https://tools.usps.com/UspsToolsRestServices/rest/POLocator/findLocations", "@spider": "usps_collection_boxes", "addr:city": "CLARKSBURG", "addr:country": "US", "addr:postcode": "26301", "addr:state": "WV", "addr:street_address": "158 W MAIN ST", "amenity": "post_box", "collection_times": "Mo-Sa 13:00", "note": "ON 12/24 AND 12/31, THIS BOX MAY BE COLLECTED AS EARLY AS 12 NOON.", "nsi_id": "unitedstatespostalservice-a77078", "operator": "United States Postal Service", "operator:short": "USPS", "operator:type": "public", "operator:wikidata": "Q668687", "ref": "2630100004"}, "type": "Feature"}
{"geometry": {"coordinates": [-80.3389357, 39.279067], "type": "Point"}, "id": "NBtUZahTYt8gIu43XmDl_sIzNK4=", "properties": {"@source_uri": "https://tools.usps.com/UspsToolsRestServices/rest/POLocator/findLocations", "@spider": "usps_collection_boxes", "addr:city": "CLARKSBURG", "addr:country": "US", "addr:postcode": "26301", "addr:state": "WV", "addr:street_address": "229 W MAIN ST", "amenity": "post_box", "collection_times": "Mo-Fr 12:15; Sa 13:00", "note": "ON 12/24 AND 12/31, THIS BOX MAY BE COLLECTED AS EARLY AS 12 NOON.", "nsi_id": "unitedstatespostalservice-a77078", "operator": "United States Postal Service", "operator:short": "USPS", "operator:type": "public", "operator:wikidata": "Q668687", "ref": "2630100009"}, "type": "Feature"}
{"geometry": {"coordinates": [-80.3149858, 39.250739], "type": "Point"}, "id": "RuVUYk7iwwRdLJaj5aRE0f6n5Ls=", "properties": {"@source_uri": "https://tools.usps.com/UspsToolsRestServices/rest/POLocator/findLocations", "@spider": "usps_collection_boxes", "addr:city": "CLARKSBURG", "addr:country": "US", "addr:postcode": "26301", "addr:state": "WV", "addr:street_address": "208 COST AVE", "amenity": "post_box", "collection_times": "Mo-Sa 12:00", "nsi_id": "unitedstatespostalservice-a77078", "operator": "United States Postal Service", "operator:short": "USPS", "operator:type": "public", "operator:wikidata": "Q668687", "ref": "2630100010"}, "type": "Feature"}
{"geometry": {"coordinates": [-80.3432507, 39.280279], "type": "Point"}, "id": "mP5M-j4Odai-Q7wABc4lY6ujsjI=", "properties": {"@source_uri": "https://tools.usps.com/UspsToolsRestServices/rest/POLocator/findLocations", "@spider": "usps_collection_boxes", "addr:city": "CLARKSBURG", "addr:country": "US", "addr:postcode": "26301", "addr:state": "WV", "addr:street_address": "500 W MAIN ST", "amenity": "post_box", "collection_times": "Mo-Fr 12:30; Sa 13:00", "note": "ON 12/24 AND 12/31, THIS BOX MAY BE COLLECTED AS EARLY AS 12 NOON.", "nsi_id": "unitedstatespostalservice-a77078", "operator": "United States Postal Service", "operator:short": "USPS", "operator:type": "public", "operator:wikidata": "Q668687", "ref": "2630100015"}, "type": "Feature"}
{"geometry": {"coordinates": [-80.3415768, 39.278845], "type": "Point"}, "id": "C6y_LZnAKPaahk3h8fyaCkcTAhY=", "properties": {"@source_uri": "https://tools.usps.com/UspsToolsRestServices/rest/POLocator/findLocations", "@spider": "usps_collection_boxes", "addr:city": "CLARKSBURG", "addr:country": "US", "addr:postcode": "26301", "addr:state": "WV", "addr:street_address": "356 WASHINGTON AVE", "amenity": "post_box", "collection_times": "Mo-Fr 12:45; Sa 13:00", "note": "ON 12/24 AND 12/31, THIS BOX MAY BE COLLECTED AS EARLY AS 12 NOON.", "nsi_id": "unitedstatespostalservice-a77078", "operator": "United States Postal Service", "operator:short": "USPS", "operator:type": "public", "operator:wikidata": "Q668687", "ref": "2630100022"}, "type": "Feature"}
{"geometry": {"coordinates": [-80.3537841, 39.29058], "type": "Point"}, "id": "IuBQkBbtQh-9kW8Hzkmw4k9Nv-8=", "properties": {"@source_uri": "https://tools.usps.com/UspsToolsRestServices/rest/POLocator/findLocations", "@spider": "usps_collection_boxes", "addr:city": "CLARKSBURG", "addr:country": "US", "addr:postcode": "26301", "addr:state": "WV", "addr:street_address": "1302 W PIKE ST", "amenity": "post_box", "collection_times": "Mo-Sa 12:00", "nsi_id": "unitedstatespostalservice-a77078", "operator": "United States Postal Service", "operator:short": "USPS", "operator:type": "public", "operator:wikidata": "Q668687", "ref": "2630100032"}, "type": "Feature"}
{"geometry": {"coordinates": [-80.3263687, 39.274996], "type": "Point"}, "id": "dB-THgq17pI7LQthNOb5NCjUZqk=", "properties": {"@source_uri": "https://tools.usps.com/UspsToolsRestServices/rest/POLocator/findLocations", "@spider": "usps_collection_boxes", "addr:city": "CLARKSBURG", "addr:country": "US", "addr:postcode": "26301", "addr:state": "WV", "addr:street_address": "501 E MAIN ST", "amenity": "post_box", "collection_times": "Mo-Sa 12:00", "nsi_id": "unitedstatespostalservice-a77078", "operator": "United States Postal Service", "operator:short": "USPS", "operator:type": "public", "operator:wikidata": "Q668687", "ref": "2630100063"}, "type": "Feature"}
{"geometry": {"coordinates": [-80.3220846, 39.25755], "type": "Point"}, "id": "GIEfxzQ6rYlwUbZ9LDCMQ-ypPls=", "properties": {"@source_uri": "https://tools.usps.com/UspsToolsRestServices/rest/POLocator/findLocations", "@spider": "usps_collection_boxes", "addr:city": "CLARKSBURG", "addr:country": "US", "addr:postcode": "26301", "addr:state": "WV", "addr:street_address": "1500 BUCKHANNON PIKE", "amenity": "post_box", "collection_times": "Mo-Sa 12:00", "nsi_id": "unitedstatespostalservice-a77078", "operator": "United States Postal Service", "operator:short": "USPS", "operator:type": "public", "operator:wikidata": "Q668687", "ref": "2630100069"}, "type": "Feature"}
{"geometry": {"coordinates": [-80.3248711, 39.261592], "type": "Point"}, "id": "zmCB9HL8TaqM0dES8EQCwediDkk=", "properties": {"@source_uri": "https://tools.usps.com/UspsToolsRestServices/rest/POLocator/findLocations", "@spider": "usps_collection_boxes", "addr:city": "CLARKSBURG", "addr:country": "US", "addr:postcode": "26301", "addr:state": "WV", "addr:street_address": "1105 BUCKHANNON PIKE", "amenity": "post_box", "collection_times": "Mo-Sa 12:00", "nsi_id": "unitedstatespostalservice-a77078", "operator": "United States Postal Service", "operator:short": "USPS", "operator:type": "public", "operator:wikidata": "Q668687", "ref": "2630100070"}, "type": "Feature"}
{"geometry": {"coordinates": [-80.3736064, 39.270722], "type": "Point"}, "id": "_Oqr1UzP3VOij2sG0zDofxjrSAE=", "properties": {"@source_uri": "https://tools.usps.com/UspsToolsRestServices/rest/POLocator/findLocations", "@spider": "usps_collection_boxes", "addr:city": "CLARKSBURG", "addr:country": "US", "addr:postcode": "26301", "addr:state": "WV", "addr:street_address": "300 DAVISSON RUN RD", "amenity": "post_box", "collection_times": "Mo-Sa 08:30", "nsi_id": "unitedstatespostalservice-a77078", "operator": "United States Postal Service", "operator:short": "USPS", "operator:type": "public", "operator:wikidata": "Q668687", "ref": "2630100077"}, "type": "Feature"}
{"geometry": {"coordinates": [-80.3738627, 39.264527], "type": "Point"}, "id": "AaNSRbpEEeSSuVvc5R89QnpTzFc=", "properties": {"@source_uri": "https://tools.usps.com/UspsToolsRestServices/rest/POLocator/findLocations", "@spider": "usps_collection_boxes", "addr:city": "CLARKSBURG", "addr:country": "US", "addr:postcode": "26301", "addr:state": "WV", "addr:street_address": "505 ROSEBUD PLZ", "amenity": "post_box", "collection_times": "Mo-Sa 08:30", "nsi_id": "unitedstatespostalservice-a77078", "operator": "United States Postal Service", "operator:short": "USPS", "operator:type": "public", "operator:wikidata": "Q668687", "ref": "2630100095"}, "type": "Feature"}
{"geometry": {"coordinates": [-80.3366431655, 39.2788132797], "type": "Point"}, "id": "4vQBcffBnrWXl7qtnzeJ7hfmhws=", "properties": {"@source_uri": "https://tools.usps.com/UspsToolsRestServices/rest/POLocator/findLocations", "@spider": "usps_collection_boxes", "addr:city": "CLARKSBURG", "addr:country": "US", "addr:postcode": "26301", "addr:state": "WV", "addr:street_address": "158 W MAIN ST", "amenity": "post_box", "collection_times": "Mo-Fr 16:45; Sa 12:00", "indoor": "yes", "note": "ON 12/24 AND 12/31, THIS BOX MAY BE COLLECTED AS EARLY AS 12 NOON.", "nsi_id": "unitedstatespostalservice-a77078", "operator": "United States Postal Service", "operator:short": "USPS", "operator:type": "public", "operator:wikidata": "Q668687", "ref": "2630100098"}, "type": "Feature"}
{"geometry": {"coordinates": [-80.2818265634, 39.2767591269], "type": "Point"}, "id": "WJOgMaME0lUjB_8NxAIUupcmJ8s=", "properties": {"@source_uri": "https://tools.usps.com/UspsToolsRestServices/rest/POLocator/findLocations", "@spider": "usps_collection_boxes", "addr:city": "CLARKSBURG", "addr:country": "US", "addr:postcode": "26301", "addr:state": "WV", "addr:street_address": "196 EMILY DR", "amenity": "post_box", "collection_times": "Mo-Sa 08:30", "nsi_id": "unitedstatespostalservice-a77078", "operator": "United States Postal Service", "operator:short": "USPS", "operator:type": "public", "operator:wikidata": "Q668687", "ref": "2630100112"}, "type": "Feature"}
{"geometry": {"coordinates": [-80.2858777, 39.265246], "type": "Point"}, "id": "13DqmI_8-OAwxFnMmJotalxDeJM=", "properties": {"@source_uri": "https://tools.usps.com/UspsToolsRestServices/rest/POLocator/findLocations", "@spider": "usps_collection_boxes", "addr:city": "CLARKSBURG", "addr:country": "US", "addr:postcode": "26301", "addr:state": "WV", "addr:street_address": "530 EMILY DR", "amenity": "post_box", "collection_times": "Mo-Sa 08:30", "nsi_id": "unitedstatespostalservice-a77078", "operator": "United States Postal Service", "operator:short": "USPS", "operator:type": "public", "operator:wikidata": "Q668687", "ref": "2630100113"}, "type": "Feature"}
{"geometry": {"coordinates": [-80.336597, 39.278722], "type": "Point"}, "id": "bDi_3-TKK5-XM6rBcwix2NX8P98=", "properties": {"@source_uri": "https://tools.usps.com/UspsToolsRestServices/rest/POLocator/findLocations", "@spider": "usps_collection_boxes", "addr:city": "CLARKSBURG", "addr:country": "US", "addr:postcode": "26301", "addr:state": "WV", "addr:street_address": "153 W MAIN ST", "amenity": "post_box", "collection_times": "Mo-Sa 11:00", "nsi_id": "unitedstatespostalservice-a77078", "operator": "United States Postal Service", "operator:short": "USPS", "operator:type": "public", "operator:wikidata": "Q668687", "ref": "2630100123"}, "type": "Feature"}
{"geometry": {"coordinates": [-80.3366431655, 39.2788132797], "type": "Point"}, "id": "fm6n7EgxzRcLNlw2IDKvp5C_ckI=", "properties": {"@source_uri": "https://tools.usps.com/UspsToolsRestServices/rest/POLocator/findLocations", "@spider": "usps_collection_boxes", "addr:city": "CLARKSBURG", "addr:country": "US", "addr:postcode": "26301", "addr:state": "WV", "addr:street_address": "158 W MAIN ST", "amenity": "post_box", "collection_times": "Mo-Fr 16:30; Sa 12:00", "indoor": "yes", "note": "ON 12/24 AND 12/31, THIS BOX MAY BE COLLECTED AS EARLY AS 12 NOON.", "nsi_id": "unitedstatespostalservice-a77078", "operator": "United States Postal Service", "operator:short": "USPS", "operator:type": "public", "operator:wikidata": "Q668687", "ref": "2630100125"}, "type": "Feature"}
{"geometry": {"coordinates": [-80.282595062, 39.273303239], "type": "Point"}, "id": "tnd9bIhw9USvEkLaUbhSBUgaJCo=", "properties": {"@source_uri": "https://tools.usps.com/UspsToolsRestServices/rest/POLocator/findLocations", "@spider": "usps_collection_boxes", "addr:city": "CLARKSBURG", "addr:country": "US", "addr:postcode": "26301", "addr:state": "WV", "addr:street_address": "200 CAVA DR", "amenity": "post_box", "collection_times": "Mo-Fr 18:00; Sa 14:00", "indoor": "yes", "note": "ON 12/24 AND 12/31, THIS BOX MAY BE COLLECTED AS EARLY AS 12 NOON.", "nsi_id": "unitedstatespostalservice-a77078", "operator": "United States Postal Service", "operator:short": "USPS", "operator:type": "public", "operator:wikidata": "Q668687", "ref": "2630100126"}, "type": "Feature"}
{"geometry": {"coordinates": [-80.3504715223, 39.2939968941], "type": "Point"}, "id": "DIGioBtB8PKqJVoEr1g3e9QwpYA=", "properties": {"@source_uri": "https://tools.usps.com/UspsToolsRestServices/rest/POLocator/findLocations", "@spider": "usps_collection_boxes", "addr:city": "CLARKSBURG", "addr:country": "US", "addr:postcode": "26301", "addr:state": "WV", "addr:street_address": "1204 N 20TH ST", "amenity": "post_box", "collection_times": "Mo-Sa 09:30", "nsi_id": "unitedstatespostalservice-a77078", "operator": "United States Postal Service", "operator:short": "USPS", "operator:type": "public", "operator:wikidata": "Q668687", "ref": "2630100128"}, "type": "Feature"}
{"geometry": {"coordinates": [-80.282590562, 39.273312239], "type": "Point"}, "id": "gu1bvc5hDoizORHFxoiR_5hYkPU=", "properties": {"@source_uri": "https://tools.usps.com/UspsToolsRestServices/rest/POLocator/findLocations", "@spider": "usps_collection_boxes", "addr:city": "CLARKSBURG", "addr:country": "US", "addr:postcode": "26302", "addr:state": "WV", "addr:street_address": "200 CAVA DR", "amenity": "post_box", "collection_times": "Mo-Sa 14:30", "note": "ON 12/24 AND 12/31, THIS BOX MAY BE COLLECTED AS EARLY AS 12 NOON.", "nsi_id": "unitedstatespostalservice-a77078", "operator": "United States Postal Service", "operator:short": "USPS", "operator:type": "public", "operator:wikidata": "Q668687", "ref": "2630200001"}, "type": "Feature"}
{"geometry": {"coordinates": [-80.28447, 39.274351], "type": "Point"}, "id": "6HyvNYZj4_Jih3Sv600Rf6dNTeQ=", "properties": {"@source_uri": "https://tools.usps.com/UspsToolsRestServices/rest/POLocator/findLocations", "@spider": "usps_collection_boxes", "addr:city": "CLARKSBURG", "addr:country": "US", "addr:postcode": "26302", "addr:state": "WV", "addr:street_address": "200 CAVA DR", "amenity": "post_box", "collection_times": "Mo-Sa 17:00", "indoor": "yes", "note": "ON 12/24 AND 12/31, THIS BOX MAY BE COLLECTED AS EARLY AS 12 NOON.", "nsi_id": "unitedstatespostalservice-a77078", "operator": "United States Postal Service", "operator:short": "USPS", "operator:type": "public", "operator:wikidata": "Q668687", "ref": "2630200003"}, "type": "Feature"}
{"geometry": {"coordinates": [-80.838948, 39.429833], "type": "Point"}, "id": "odQ3DOyPe9OxU35QUUrNcqUxvI4=", "properties": {"@source_uri": "https://tools.usps.com/UspsToolsRestServices/rest/POLocator/findLocations", "@spider": "usps_collection_boxes", "addr:city": "ALMA", "addr:country": "US", "addr:postcode": "26320", "addr:state": "WV", "addr:street_address": "134 KLONDIKE RD", "amenity": "post_box", "collection_times": "Mo-Sa 11:30", "nsi_id": "unitedstatespostalservice-a77078", "operator": "United States Postal Service", "operator:short": "USPS", "operator:type": "public", "operator:wikidata": "Q668687", "ref": "2632000000"}, "type": "Feature"}
{"geometry": {"coordinates": [-80.838948, 39.429833], "type": "Point"}, "id": "cPpn0y6EXF5tOBcueCn4OFgHVQ8=", "properties": {"@source_uri": "https://tools.usps.com/UspsToolsRestServices/rest/POLocator/findLocations", "@spider": "usps_collection_boxes", "addr:city": "ALMA", "addr:country": "US", "addr:postcode": "26320", "addr:state": "WV", "addr:street_address": "134 KLONDIKE RD", "amenity": "post_box", "collection_times": "Mo-Sa 11:30", "indoor": "yes", "nsi_id": "unitedstatespostalservice-a77078", "operator": "United States Postal Service", "operator:short": "USPS", "operator:type": "public", "operator:wikidata": "Q668687", "ref": "2632000001"}, "type": "Feature"}
{"geometry": {"coordinates": [-80.874439428, 39.441171361], "type": "Point"}, "id": "YlbrZnaWpuzMDD1rDRaTgnUqDm8=", "properties": {"@source_uri": "https://tools.usps.com/UspsToolsRestServices/rest/POLocator/findLocations", "@spider": "usps_collection_boxes", "addr:city": "ALMA", "addr:country": "US", "addr:postcode": "26320", "addr:state": "WV", "addr:street_address": "134 KLONDIKE RD", "amenity": "post_box", "collection_times": "Mo-Fr 13:30; Sa 12:30", "indoor": "yes", "note": "ON 12/24 AND 12/31, THIS BOX MAY BE COLLECTED AS EARLY AS 12 NOON.", "nsi_id": "unitedstatespostalservice-a77078", "operator": "United States Postal Service", "operator:short": "USPS", "operator:type": "public", "operator:wikidata": "Q668687", "ref": "2632000003"}, "type": "Feature"}
{"geometry": {"coordinates": [-80.657604, 39.037503], "type": "Point"}, "id": "Rf4jmjrM4DyAacFY6EJoygF7YY8=", "properties": {"@source_uri": "https://tools.usps.com/UspsToolsRestServices/rest/POLocator/findLocations", "@spider": "usps_collection_boxes", "addr:city": "ALUM BRIDGE", "addr:country": "US", "addr:postcode": "26321", "addr:state": "WV", "addr:street_address": "14 MOODY LN", "amenity": "post_box", "collection_times": "Mo-Fr 11:15; Sa 09:00", "nsi_id": "unitedstatespostalservice-a77078", "operator": "United States Postal Service", "operator:short": "USPS", "operator:type": "public", "operator:wikidata": "Q668687", "ref": "2632100000"}, "type": "Feature"}
{"geometry": {"coordinates": [-80.657534, 39.037451], "type": "Point"}, "id": "wRL4btlNI7wgdi-RpuvByBipzfU=", "properties": {"@source_uri": "https://tools.usps.com/UspsToolsRestServices/rest/POLocator/findLocations", "@spider": "usps_collection_boxes", "addr:city": "ALUM BRIDGE", "addr:country": "US", "addr:postcode": "26321", "addr:state": "WV", "addr:street_address": "14 MOODY LN", "amenity": "post_box", "collection_times": "Mo-Fr 11:15; Sa 09:00", "indoor": "yes", "nsi_id": "unitedstatespostalservice-a77078", "operator": "United States Postal Service", "operator:short": "USPS", "operator:type": "public", "operator:wikidata": "Q668687", "ref": "2632100001"}, "type": "Feature"}
{"geometry": {"coordinates": [-80.658117575, 39.038303316], "type": "Point"}, "id": "AQiEGfspamSZOCC4yI-Y1bKa-Zk=", "properties": {"@source_uri": "https://tools.usps.com/UspsToolsRestServices/rest/POLocator/findLocations", "@spider": "usps_collection_boxes", "addr:city": "ALUM BRIDGE", "addr:country": "US", "addr:postcode": "26321", "addr:state": "WV", "addr:street_address": "14 MOODY LN", "amenity": "post_box", "collection_times": "Mo-Fr 11:30; Sa 09:30", "indoor": "yes", "nsi_id": "unitedstatespostalservice-a77078", "operator": "United States Postal Service", "operator:short": "USPS", "operator:type": "public", "operator:wikidata": "Q668687", "ref": "2632100003"}, "type": "Feature"}
{"geometry": {"coordinates": [-80.290909, 39.254964], "type": "Point"}, "id": "5TGyulS6oLBRSEoAj73oLSY44Ow=", "properties": {"@source_uri": "https://tools.usps.com/UspsToolsRestServices/rest/POLocator/findLocations", "@spider": "usps_collection_boxes", "addr:city": "ANMOORE", "addr:country": "US", "addr:postcode": "26323", "addr:state": "WV", "addr:street_address": "2919 PHILIPPI PIKE", "amenity": "post_box", "collection_times": "Mo-Fr 14:30; Sa 10:00", "note": "ON 12/24 AND 12/31, THIS BOX MAY BE COLLECTED AS EARLY AS 12 NOON.", "nsi_id": "unitedstatespostalservice-a77078", "operator": "United States Postal Service", "operator:short": "USPS", "operator:type": "public", "operator:wikidata": "Q668687", "ref": "2632300000"}, "type": "Feature"}
{"geometry": {"coordinates": [-80.290909, 39.254964], "type": "Point"}, "id": "ujn5mcUAvtsXFrijA-gODsGVxuk=", "properties": {"@source_uri": "https://tools.usps.com/UspsToolsRestServices/rest/POLocator/findLocations", "@spider": "usps_collection_boxes", "addr:city": "ANMOORE", "addr:country": "US", "addr:postcode": "26323", "addr:state": "WV", "addr:street_address": "2919 PHILIPPI PIKE", "amenity": "post_box", "collection_times": "Mo-Fr 14:30; Sa 10:00", "indoor": "yes", "note": "ON 12/24 AND 12/31, THIS BOX MAY BE COLLECTED AS EARLY AS 12 NOON.", "nsi_id": "unitedstatespostalservice-a77078", "operator": "United States Postal Service", "operator:short": "USPS", "operator:type": "public", "operator:wikidata": "Q668687", "ref": "2632300001"}, "type": "Feature"}
{"geometry": {"coordinates": [-80.2918471549, 39.2561293719], "type": "Point"}, "id": "9tTXi18bBy5SA9pODa8D9Fo5uWc=", "properties": {"@source_uri": "https://tools.usps.com/UspsToolsRestServices/rest/POLocator/findLocations", "@spider": "usps_collection_boxes", "addr:city": "ANMOORE", "addr:country": "US", "addr:postcode": "26323", "addr:state": "WV", "addr:street_address": "2919 PHILIPPI PIKE", "amenity": "post_box", "collection_times": "Mo-Fr 15:00; Sa 11:45", "indoor": "yes", "note": "ON 12/24 AND 12/31, THIS BOX MAY BE COLLECTED AS EARLY AS 12 NOON.", "nsi_id": "unitedstatespostalservice-a77078", "operator": "United States Postal Service", "operator:short": "USPS", "operator:type": "public", "operator:wikidata": "Q668687", "ref": "2632300003"}, "type": "Feature"}
{"geometry": {"coordinates": [-80.855334, 39.095509], "type": "Point"}, "id": "JAf3AiOzjv9JDQHA7ZxHadUY5jk=", "properties": {"@source_uri": "https://tools.usps.com/UspsToolsRestServices/rest/POLocator/findLocations", "@spider": "usps_collection_boxes", "addr:city": "AUBURN", "addr:country": "US", "addr:postcode": "26325", "addr:state": "WV", "addr:street_address": "12069 AUBURN RD", "amenity": "post_box", "collection_times": "Mo-Fr 11:30; Sa 10:15", "nsi_id": "unitedstatespostalservice-a77078", "operator": "United States Postal Service", "operator:short": "USPS", "operator:type": "public", "operator:wikidata": "Q668687", "ref": "2632500000"}, "type": "Feature"}
{"geometry": {"coordinates": [-80.855295, 39.095477], "type": "Point"}, "id": "lH6xneFOnzxx4Rc2XMzDupd4H6w=", "properties": {"@source_uri": "https://tools.usps.com/UspsToolsRestServices/rest/POLocator/findLocations", "@spider": "usps_collection_boxes", "addr:city": "AUBURN", "addr:country": "US", "addr:postcode": "26325", "addr:state": "WV", "addr:street_address": "12069 AUBURN RD", "amenity": "post_box", "collection_times": "Mo-Fr 11:45; Sa 10:15", "indoor": "yes", "nsi_id": "unitedstatespostalservice-a77078", "operator": "United States Postal Service", "operator:short": "USPS", "operator:type": "public", "operator:wikidata": "Q668687", "ref": "2632500001"}, "type": "Feature"}
{"geometry": {"coordinates": [-80.8557460089, 39.095705994], "type": "Point"}, "id": "x_EjfvS9xigHm3yjsJS82rH8yYk=", "properties": {"@source_uri": "https://tools.usps.com/UspsToolsRestServices/rest/POLocator/findLocations", "@spider": "usps_collection_boxes", "addr:city": "AUBURN", "addr:country": "US", "addr:postcode": "26325", "addr:state": "WV", "addr:street_address": "12069 AUBURN RD", "amenity": "post_box", "collection_times": "Mo-Fr 12:00", "indoor": "yes", "nsi_id": "unitedstatespostalservice-a77078", "operator": "United States Postal Service", "operator:short": "USPS", "operator:type": "public", "operator:wikidata": "Q668687", "ref": "2632500003"}, "type": "Feature"}
{"geometry": {"coordinates": [-80.2721381, 39.312285], "type": "Point"}, "id": "qhGIMXrh8lvezR1gc8IYNxwlX0Q=", "properties": {"@source_uri": "https://tools.usps.com/UspsToolsRestServices/rest/POLocator/findLocations", "@spider": "usps_collection_boxes", "addr:city": "BRIDGEPORT", "addr:country": "US", "addr:postcode": "26330", "addr:state": "WV", "addr:street_address": "2399 MEADOWBROOK MALL", "amenity": "post_box", "collection_times": "Mo-Sa 09:30", "nsi_id": "unitedstatespostalservice-a77078", "operator": "United States Postal Service", "operator:short": "USPS", "operator:type": "public", "operator:wikidata": "Q668687", "ref": "2633000010"}, "type": "Feature"}
{"geometry": {"coordinates": [-80.2799147, 39.328074], "type": "Point"}, "id": "sklFPrNeC7XBU9SerPo9cIGTfh4=", "properties": {"@source_uri": "https://tools.usps.com/UspsToolsRestServices/rest/POLocator/findLocations", "@spider": "usps_collection_boxes", "addr:city": "BRIDGEPORT", "addr:country": "US", "addr:postcode": "26330", "addr:state": "WV", "addr:street_address": "1 CUSTER HOLLOW RD", "amenity": "post_box", "collection_times": "Mo-Sa 09:30", "nsi_id": "unitedstatespostalservice-a77078", "operator": "United States Postal Service", "operator:short": "USPS", "operator:type": "public", "operator:wikidata": "Q668687", "ref": "2633000023"}, "type": "Feature"}
{"geometry": {"coordinates": [-80.256167993, 39.282397743], "type": "Point"}, "id": "w7JjCPTvYy3LrQBlhmbG-BDliCQ=", "properties": {"@source_uri": "https://tools.usps.com/UspsToolsRestServices/rest/POLocator/findLocations", "@spider": "usps_collection_boxes", "addr:city": "BRIDGEPORT", "addr:country": "US", "addr:postcode": "26330", "addr:state": "WV", "addr:street_address": "205 S VIRGINIA AVE", "amenity": "post_box", "collection_times": "Mo-Fr 13:00; Sa 12:00", "indoor": "yes", "note": "ON 12/24 AND 12/31, THIS BOX MAY BE COLLECTED AS EARLY AS 12 NOON.", "nsi_id": "unitedstatespostalservice-a77078", "operator": "United States Postal Service", "operator:short": "USPS", "operator:type": "public", "operator:wikidata": "Q668687", "ref": "2633000027"}, "type": "Feature"}
{"geometry": {"coordinates": [-80.2399169, 39.326963], "type": "Point"}, "id": "owpDSkECVVeI7ROrgna6ITZep5E=", "properties": {"@source_uri": "https://tools.usps.com/UspsToolsRestServices/rest/POLocator/findLocations", "@spider": "usps_collection_boxes", "addr:city": "BRIDGEPORT", "addr:country": "US", "addr:postcode": "26330", "addr:state": "WV", "addr:street_address": "527 MEDICAL PARK DR", "amenity": "post_box", "collection_times": "Mo-Fr 09:30; Sa 09:00", "nsi_id": "unitedstatespostalservice-a77078", "operator": "United States Postal Service", "operator:short": "USPS", "operator:type": "public", "operator:wikidata": "Q668687", "ref": "2633000028"}, "type": "Feature"}
{"geometry": {"coordinates": [-80.2354127, 39.33523], "type": "Point"}, "id": "iIgzGOztpTyj9vaV2absIQ1vzuU=", "properties": {"@source_uri": "https://tools.usps.com/UspsToolsRestServices/rest/POLocator/findLocations", "@spider": "usps_collection_boxes", "addr:city": "BRIDGEPORT", "addr:country": "US", "addr:postcode": "26330", "addr:state": "WV", "addr:street_address": "115 PROFESSIONAL PL", "amenity": "post_box", "collection_times": "Mo-Sa 13:00", "note": "ON 12/24 AND 12/31, THIS BOX MAY BE COLLECTED AS EARLY AS 12 NOON.", "nsi_id": "unitedstatespostalservice-a77078", "operator": "United States Postal Service", "operator:short": "USPS", "operator:type": "public", "operator:wikidata": "Q668687", "ref": "2633000030"}, "type": "Feature"}
{"geometry": {"coordinates": [-80.256167993, 39.282397743], "type": "Point"}, "id": "y9Ft8fL4_VE9Pi_zqOZomrdhrOA=", "properties": {"@source_uri": "https://tools.usps.com/UspsToolsRestServices/rest/POLocator/findLocations", "@spider": "usps_collection_boxes", "addr:city": "BRIDGEPORT", "addr:country": "US", "addr:postcode": "26330", "addr:state": "WV", "addr:street_address": "205 S VIRGINIA AVE", "amenity": "post_box", "collection_times": "Mo-Fr 16:00; Sa 12:00", "indoor": "yes", "note": "ON 12/24 AND 12/31, THIS BOX MAY BE COLLECTED AS EARLY AS 12 NOON.", "nsi_id": "unitedstatespostalservice-a77078", "operator": "United States Postal Service", "operator:short": "USPS", "operator:type": "public", "operator:wikidata": "Q668687", "ref": "2633000033"}, "type": "Feature"}
{"geometry": {"coordinates": [-80.655264962, 38.853740518], "type": "Point"}, "id": "a2Nj_3bjw0i7hIE8Q4h91hzfVjo=", "properties": {"@source_uri": "https://tools.usps.com/UspsToolsRestServices/rest/POLocator/findLocations", "@spider": "usps_collection_boxes", "addr:city": "BURNSVILLE", "addr:country": "US", "addr:postcode": "26335", "addr:state": "WV", "addr:street_address": "120 S MAIN ST", "amenity": "post_box", "collection_times": "Mo-Fr 15:30; Sa 09:15", "note": "ON 12/24 AND 12/31, THIS BOX MAY BE COLLECTED AS EARLY AS 12 NOON.", "nsi_id": "unitedstatespostalservice-a77078", "operator": "United States Postal Service", "operator:short": "USPS", "operator:type": "public", "operator:wikidata": "Q668687", "ref": "2633500000"}, "type": "Feature"}
{"geometry": {"coordinates": [-80.655264962, 38.853740518], "type": "Point"}, "id": "7jK7CO7yDLxZp7Z8QjI_Vjk-xxI=", "properties": {"@source_uri": "https://tools.usps.com/UspsToolsRestServices/rest/POLocator/findLocations", "@spider": "usps_collection_boxes", "addr:city": "BURNSVILLE", "addr:country": "US", "addr:postcode": "26335", "addr:state": "WV", "addr:street_address": "120 S MAIN ST", "amenity": "post_box", "collection_times": "Mo-Fr 15:30; Sa 09:15", "indoor": "yes", "note": "ON 12/24 AND 12/31, THIS BOX MAY BE COLLECTED AS EARLY AS 12 NOON.", "nsi_id": "unitedstatespostalservice-a77078", "operator": "United States Postal Service", "operator:short": "USPS", "operator:type": "public", "operator:wikidata": "Q668687", "ref": "2633500001"}, "type": "Feature"}
{"geometry": {"coordinates": [-80.655264532, 38.853715585], "type": "Point"}, "id": "tgx9eCvpPcMvT3bICiJSzaXwekA=", "properties": {"@source_uri": "https://tools.usps.com/UspsToolsRestServices/rest/POLocator/findLocations", "@spider": "usps_collection_boxes", "addr:city": "BURNSVILLE", "addr:country": "US", "addr:postcode": "26335", "addr:state": "WV", "addr:street_address": "126 S MAIN ST", "amenity": "post_box", "collection_times": "Mo-Fr 15:30; Sa 09:30", "indoor": "yes", "note": "ON 12/24 AND 12/31, THIS BOX MAY BE COLLECTED AS EARLY AS 12 NOON.", "nsi_id": "unitedstatespostalservice-a77078", "operator": "United States Postal Service", "operator:short": "USPS", "operator:type": "public", "operator:wikidata": "Q668687", "ref": "2633500003"}, "type": "Feature"}
{"geometry": {"coordinates": [-81.157591, 39.206973], "type": "Point"}, "id": "KVAXDH1YA9fUwPJrCbjujHKxDpc=", "properties": {"@source_uri": "https://tools.usps.com/UspsToolsRestServices/rest/POLocator/findLocations", "@spider": "usps_collection_boxes", "addr:city": "CAIRO", "addr:country": "US", "addr:postcode": "26337", "addr:state": "WV", "addr:street_address": "150 RAILROAD ST", "amenity": "post_box", "collection_times": "Mo-Fr 10:45; Sa 10:00", "indoor": "yes", "nsi_id": "unitedstatespostalservice-a77078", "operator": "United States Postal Service", "operator:short": "USPS", "operator:type": "public", "operator:wikidata": "Q668687", "ref": "2633700000"}, "type": "Feature"}
{"geometry": {"coordinates": [-81.157591, 39.206973], "type": "Point"}, "id": "vO1wbJXBJPqglfyeCI1u_u2EdJc=", "properties": {"@source_uri": "https://tools.usps.com/UspsToolsRestServices/rest/POLocator/findLocations", "@spider": "usps_collection_boxes", "addr:city": "CAIRO", "addr:country": "US", "addr:postcode": "26337", "addr:state": "WV", "addr:street_address": "150 RAILROAD ST", "amenity": "post_box", "collection_times": "Mo-Fr 10:45; Sa 10:00", "nsi_id": "unitedstatespostalservice-a77078", "operator": "United States Postal Service", "operator:short": "USPS", "operator:type": "public", "operator:wikidata": "Q668687", "ref": "2633700001"}, "type": "Feature"}
{"geometry": {"coordinates": [-81.1562075215, 39.2086216733], "type": "Point"}, "id": "yeQuOH_rsPdMjn3WYv4nurMbkMY=", "properties": {"@source_uri": "https://tools.usps.com/UspsToolsRestServices/rest/POLocator/findLocations", "@spider": "usps_collection_boxes", "addr:city": "CAIRO", "addr:country": "US", "addr:postcode": "26337", "addr:state": "WV", "addr:street_address": "150 RAILROAD ST", "amenity": "post_box", "collection_times": "Mo-Fr 11:00; Sa 10:15", "indoor": "yes", "nsi_id": "unitedstatespostalservice-a77078", "operator": "United States Postal Service", "operator:short": "USPS", "operator:type": "public", "operator:wikidata": "Q668687", "ref": "2633700003"}, "type": "Feature"}
{"geometry": {"coordinates": [-81.053865146, 39.267199906], "type": "Point"}, "id": "Vmq7_xvEswd1b4Z3HS7-NdJyYiU=", "properties": {"@source_uri": "https://tools.usps.com/UspsToolsRestServices/rest/POLocator/findLocations", "@spider": "usps_collection_boxes", "addr:city": "ELLENBORO", "addr:country": "US", "addr:postcode": "26346", "addr:state": "WV", "addr:street_address": "101 E WASHINGTON AVE", "amenity": "post_box", "collection_times": "Mo-Fr 16:15; Sa 09:45", "note": "ON 12/24 AND 12/31, THIS BOX MAY BE COLLECTED AS EARLY AS 12 NOON.", "nsi_id": "unitedstatespostalservice-a77078", "operator": "United States Postal Service", "operator:short": "USPS", "operator:type": "public", "operator:wikidata": "Q668687", "ref": "2634600000"}, "type": "Feature"}
{"geometry": {"coordinates": [-81.053865146, 39.267199906], "type": "Point"}, "id": "eqReR5i9KQW5zudkt5zQ8oJVjx0=", "properties": {"@source_uri": "https://tools.usps.com/UspsToolsRestServices/rest/POLocator/findLocations", "@spider": "usps_collection_boxes", "addr:city": "ELLENBORO", "addr:country": "US", "addr:postcode": "26346", "addr:state": "WV", "addr:street_address": "101 E WASHINGTON AVE", "amenity": "post_box", "collection_times": "Mo-Fr 16:15; Sa 09:45", "indoor": "yes", "note": "ON 12/24 AND 12/31, THIS BOX MAY BE COLLECTED AS EARLY AS 12 NOON.", "nsi_id": "unitedstatespostalservice-a77078", "operator": "United States Postal Service", "operator:short": "USPS", "operator:type": "public", "operator:wikidata": "Q668687", "ref": "2634600001"}, "type": "Feature"}
{"geometry": {"coordinates": [-81.053865146, 39.267199906], "type": "Point"}, "id": "mjPYhosybZFmGhoGQt2mqvcNKxU=", "properties": {"@source_uri": "https://tools.usps.com/UspsToolsRestServices/rest/POLocator/findLocations", "@spider": "usps_collection_boxes", "addr:city": "ELLENBORO", "addr:country": "US", "addr:postcode": "26346", "addr:state": "WV", "addr:street_address": "101 E WASHINGTON AVE", "amenity": "post_box", "collection_times": "Mo-Fr 16:15; Sa 10:00", "indoor": "yes", "note": "ON 12/24 AND 12/31, THIS BOX MAY BE COLLECTED AS EARLY AS 12 NOON.", "nsi_id": "unitedstatespostalservice-a77078", "operator": "United States Postal Service", "operator:short": "USPS", "operator:type": "public", "operator:wikidata": "Q668687", "ref": "2634600003"}, "type": "Feature"}
{"geometry": {"coordinates": [-80.1248787768, 39.2745092899], "type": "Point"}, "id": "5kIsHOUbzrTj0kf9_KsCB1tAaoI=", "properties": {"@source_uri": "https://tools.usps.com/UspsToolsRestServices/rest/POLocator/findLocations", "@spider": "usps_collection_boxes", "addr:city": "FLEMINGTON", "addr:country": "US", "addr:postcode": "26347", "addr:state": "WV", "addr:street_address": "42 E VETERANS MEMORIAL HWY", "amenity": "post_box", "collection_times": "Mo-Fr 14:00; Sa 10:00", "note": "ON 12/24 AND 12/31, THIS BOX MAY BE COLLECTED AS EARLY AS 12 NOON.", "nsi_id": "unitedstatespostalservice-a77078", "operator": "United States Postal Service", "operator:short": "USPS", "operator:type": "public", "operator:wikidata": "Q668687", "ref": "2634700000"}, "type": "Feature"}
{"geometry": {"coordinates": [-80.1248787768, 39.2745092899], "type": "Point"}, "id": "F0bgZieTKZit0IURarCCVdXllDg=", "properties": {"@source_uri": "https://tools.usps.com/UspsToolsRestServices/rest/POLocator/findLocations", "@spider": "usps_collection_boxes", "addr:city": "FLEMINGTON", "addr:country": "US", "addr:postcode": "26347", "addr:state": "WV", "addr:street_address": "42 E VETERANS MEMORIAL HWY", "amenity": "post_box", "collection_times": "Mo-Fr 14:00; Sa 10:00", "indoor": "yes", "note": "ON 12/24 AND 12/31, THIS BOX MAY BE COLLECTED AS EARLY AS 12 NOON.", "nsi_id": "unitedstatespostalservice-a77078", "operator": "United States Postal Service", "operator:short": "USPS", "operator:type": "public", "operator:wikidata": "Q668687", "ref": "2634700001"}, "type": "Feature"}
{"geometry": {"coordinates": [-80.131781176, 39.265964332], "type": "Point"}, "id": "C9-6Qss-Sqv4ePEs64Ptp3yZMOE=", "properties": {"@source_uri": "https://tools.usps.com/UspsToolsRestServices/rest/POLocator/findLocations", "@spider": "usps_collection_boxes", "addr:city": "FLEMINGTON", "addr:country": "US", "addr:postcode": "26347", "addr:state": "WV", "addr:street_address": "42 E VETERANS MEMORIAL HWY", "amenity": "post_box", "collection_times": "Mo-Fr 14:00; Sa 10:30", "indoor": "yes", "note": "ON 12/24 AND 12/31, THIS BOX MAY BE COLLECTED AS EARLY AS 12 NOON.", "nsi_id": "unitedstatespostalservice-a77078", "operator": "United States Postal Service", "operator:short": "USPS", "operator:type": "public", "operator:wikidata": "Q668687", "ref": "2634700003"}, "type": "Feature"}
{"geometry": {"coordinates": [-80.5243239584, 39.4676706955], "type": "Point"}, "id": "y_AVGGnjd_gpTVdHxrKsQYXJTm8=", "properties": {"@source_uri": "https://tools.usps.com/UspsToolsRestServices/rest/POLocator/findLocations", "@spider": "usps_collection_boxes", "addr:city": "FOLSOM", "addr:country": "US", "addr:postcode": "26348", "addr:state": "WV", "addr:street_address": "28456 SHORTLINE HWY", "amenity": "post_box", "collection_times": "Mo-Fr 10:45; Sa 10:00", "nsi_id": "unitedstatespostalservice-a77078", "operator": "United States Postal Service", "operator:short": "USPS", "operator:type": "public", "operator:wikidata": "Q668687", "ref": "2634800000"}, "type": "Feature"}
{"geometry": {"coordinates": [-80.5243239584, 39.4676706955], "type": "Point"}, "id": "H98SbJ07ugEKzfUNSYpFQ7ymexk=", "properties": {"@source_uri": "https://tools.usps.com/UspsToolsRestServices/rest/POLocator/findLocations", "@spider": "usps_collection_boxes", "addr:city": "FOLSOM", "addr:country": "US", "addr:postcode": "26348", "addr:state": "WV", "addr:street_address": "28456 SHORTLINE HWY", "amenity": "post_box", "collection_times": "Mo-Fr 10:45; Sa 10:00", "indoor": "yes", "nsi_id": "unitedstatespostalservice-a77078", "operator": "United States Postal Service", "operator:short": "USPS", "operator:type": "public", "operator:wikidata": "Q668687", "ref": "2634800001"}, "type": "Feature"}
{"geometry": {"coordinates": [-80.524859695, 39.471946854], "type": "Point"}, "id": "Q_PBLr7Cx1htxuKbr-oI0a26if8=", "properties": {"@source_uri": "https://tools.usps.com/UspsToolsRestServices/rest/POLocator/findLocations", "@spider": "usps_collection_boxes", "addr:city": "FOLSOM", "addr:country": "US", "addr:postcode": "26348", "addr:state": "WV", "addr:street_address": "28456 SHORTLINE HWY", "amenity": "post_box", "collection_times": "Mo-Fr 11:00", "indoor": "yes", "nsi_id": "unitedstatespostalservice-a77078", "operator": "United States Postal Service", "operator:short": "USPS", "operator:type": "public", "operator:wikidata": "Q668687", "ref": "2634800004"}, "type": "Feature"}
{"geometry": {"coordinates": [-80.1233475953, 39.2328123791], "type": "Point"}, "id": "IsC_u4oj7q0P_4NLWxAs4IiM9qM=", "properties": {"@source_uri": "https://tools.usps.com/UspsToolsRestServices/rest/POLocator/findLocations", "@spider": "usps_collection_boxes", "addr:city": "GALLOWAY", "addr:country": "US", "addr:postcode": "26349", "addr:state": "WV", "addr:street_address": "5130 GALLOWAY RD", "amenity": "post_box", "collection_times": "Mo-Fr 10:30; Sa 07:30", "nsi_id": "unitedstatespostalservice-a77078", "operator": "United States Postal Service", "operator:short": "USPS", "operator:type": "public", "operator:wikidata": "Q668687", "ref": "2634900000"}, "type": "Feature"}
{"geometry": {"coordinates": [-80.1209971922, 39.2317749183], "type": "Point"}, "id": "sjty7Y8kpAgCjXeEQMQ0BBT6KsY=", "properties": {"@source_uri": "https://tools.usps.com/UspsToolsRestServices/rest/POLocator/findLocations", "@spider": "usps_collection_boxes", "addr:city": "GALLOWAY", "addr:country": "US", "addr:postcode": "26349", "addr:state": "WV", "addr:street_address": "5130 GALLOWAY RD", "amenity": "post_box", "collection_times": "Mo-Fr 10:30; Sa 07:30", "indoor": "yes", "nsi_id": "unitedstatespostalservice-a77078", "operator": "United States Postal Service", "operator:short": "USPS", "operator:type": "public", "operator:wikidata": "Q668687", "ref": "2634900001"}, "type": "Feature"}
{"geometry": {"coordinates": [-80.123347595, 39.232812379], "type": "Point"}, "id": "h60EAUx5RghCZGbfha4lzbx0i7o=", "properties": {"@source_uri": "https://tools.usps.com/UspsToolsRestServices/rest/POLocator/findLocations", "@spider": "usps_collection_boxes", "addr:city": "GALLOWAY", "addr:country": "US", "addr:postcode": "26349", "addr:state": "WV", "addr:street_address": "5130 GALLOWAY RD", "amenity": "post_box", "collection_times": "Mo-Fr 11:00", "indoor": "yes", "nsi_id": "unitedstatespostalservice-a77078", "operator": "United States Postal Service", "operator:short": "USPS", "operator:type": "public", "operator:wikidata": "Q668687", "ref": "2634900003"}, "type": "Feature"}
{"geometry": {"coordinates": [-80.836751538, 38.933180088], "type": "Point"}, "id": "g2H3a9HH8hwaBghxzRSUkarviFg=", "properties": {"@source_uri": "https://tools.usps.com/UspsToolsRestServices/rest/POLocator/findLocations", "@spider": "usps_collection_boxes", "addr:city": "GLENVILLE", "addr:country": "US", "addr:postcode": "26351", "addr:state": "WV", "addr:street_address": "201 E MAIN ST", "amenity": "post_box", "collection_times": "Mo-Fr 16:00; Sa 11:00", "note": "ON 12/24 AND 12/31, THIS BOX MAY BE COLLECTED AS EARLY AS 12 NOON.", "nsi_id": "unitedstatespostalservice-a77078", "operator": "United States Postal Service", "operator:short": "USPS", "operator:type": "public", "operator:wikidata": "Q668687", "ref": "2635100010"}, "type": "Feature"}
{"geometry": {"coordinates": [-80.836751538, 38.933180088], "type": "Point"}, "id": "HmsjXSJwMK-VzJsZD05kP-fjNmE=", "properties": {"@source_uri": "https://tools.usps.com/UspsToolsRestServices/rest/POLocator/findLocations", "@spider": "usps_collection_boxes", "addr:city": "GLENVILLE", "addr:country": "US", "addr:postcode": "26351", "addr:state": "WV", "addr:street_address": "201 E MAIN ST", "amenity": "post_box", "collection_times": "Mo-Fr 16:00; Sa 11:00", "indoor": "yes", "note": "ON 12/24 AND 12/31, THIS BOX MAY BE COLLECTED AS EARLY AS 12 NOON.", "nsi_id": "unitedstatespostalservice-a77078", "operator": "United States Postal Service", "operator:short": "USPS", "operator:type": "public", "operator:wikidata": "Q668687", "ref": "2635100013"}, "type": "Feature"}
{"geometry": {"coordinates": [-80.836751538, 38.933180088], "type": "Point"}, "id": "pIaf-I5wvSUBxStu6FKkLohdDDw=", "properties": {"@source_uri": "https://tools.usps.com/UspsToolsRestServices/rest/POLocator/findLocations", "@spider": "usps_collection_boxes", "addr:city": "GLENVILLE", "addr:country": "US", "addr:postcode": "26351", "addr:state": "WV", "addr:street_address": "201 E MAIN ST RM 100", "amenity": "post_box", "collection_times": "Mo-Fr 16:00; Sa 11:00", "indoor": "yes", "note": "ON 12/24 AND 12/31, THIS BOX MAY BE COLLECTED AS EARLY AS 12 NOON.", "nsi_id": "unitedstatespostalservice-a77078", "operator": "United States Postal Service", "operator:short": "USPS", "operator:type": "public", "operator:wikidata": "Q668687", "ref": "2635100015"}, "type": "Feature"}
{"geometry": {"coordinates": [-80.024458542, 39.341285718], "type": "Point"}, "id": "mXbr2BPFv3K_EZj9FwihWnJUeBw=", "properties": {"@source_uri": "https://tools.usps.com/UspsToolsRestServices/rest/POLocator/findLocations", "@spider": "usps_collection_boxes", "addr:city": "GRAFTON", "addr:country": "US", "addr:postcode": "26354", "addr:state": "WV", "addr:street_address": "260 W MAIN ST", "amenity": "post_box", "collection_times": "Mo-Fr 16:30; Sa 16:00", "note": "ON 12/24 AND 12/31, THIS BOX MAY BE COLLECTED AS EARLY AS 12 NOON.", "nsi_id": "unitedstatespostalservice-a77078", "operator": "United States Postal Service", "operator:short": "USPS", "operator:type": "public", "operator:wikidata": "Q668687", "ref": "2635400001"}, "type": "Feature"}
{"geometry": {"coordinates": [-80.0240778, 39.340994], "type": "Point"}, "id": "OvaEmsIE3ioVT4gDzu7Eb_pAvJA=", "properties": {"@source_uri": "https://tools.usps.com/UspsToolsRestServices/rest/POLocator/findLocations", "@spider": "usps_collection_boxes", "addr:city": "GRAFTON", "addr:country": "US", "addr:postcode": "26354", "addr:state": "WV", "addr:street_address": "171 LATROBE ST", "amenity": "post_box", "collection_times": "Mo-Fr 16:30; Sa 16:00", "note": "ON 12/24 AND 12/31, THIS BOX MAY BE COLLECTED AS EARLY AS 12 NOON.", "nsi_id": "unitedstatespostalservice-a77078", "operator": "United States Postal Service", "operator:short": "USPS", "operator:type": "public", "operator:wikidata": "Q668687", "ref": "2635400002"}, "type": "Feature"}
{"geometry": {"coordinates": [-80.0031011, 39.346037], "type": "Point"}, "id": "YHk-7H2FqoOzPJf3FB7muIR4d_M=", "properties": {"@source_uri": "https://tools.usps.com/UspsToolsRestServices/rest/POLocator/findLocations", "@spider": "usps_collection_boxes", "addr:city": "GRAFTON", "addr:country": "US", "addr:postcode": "26354", "addr:state": "WV", "addr:street_address": "7 HARMAN CTR", "amenity": "post_box", "collection_times": "Mo-Sa 14:50", "note": "ON 12/24 AND 12/31, THIS BOX MAY BE COLLECTED AS EARLY AS 12 NOON.", "nsi_id": "unitedstatespostalservice-a77078", "operator": "United States Postal Service", "operator:short": "USPS", "operator:type": "public", "operator:wikidata": "Q668687", "ref": "2635400024"}, "type": "Feature"}
{"geometry": {"coordinates": [-80.0038793, 39.347138], "type": "Point"}, "id": "rGBPUZw5-CIrekmvDi2eeZtucVQ=", "properties": {"@source_uri": "https://tools.usps.com/UspsToolsRestServices/rest/POLocator/findLocations", "@spider": "usps_collection_boxes", "addr:city": "GRAFTON", "addr:country": "US", "addr:postcode": "26354", "addr:state": "WV", "addr:street_address": "45 VICTORY AVE", "amenity": "post_box", "collection_times": "Mo-Sa 14:50", "note": "ON 12/24 AND 12/31, THIS BOX MAY BE COLLECTED AS EARLY AS 12 NOON.", "nsi_id": "unitedstatespostalservice-a77078", "operator": "United States Postal Service", "operator:short": "USPS", "operator:type": "public", "operator:wikidata": "Q668687", "ref": "2635400025"}, "type": "Feature"}
{"geometry": {"coordinates": [-80.0223073, 39.341487], "type": "Point"}, "id": "5cIWQO5VEWKAZx_zoZRUCUXq2-o=", "properties": {"@source_uri": "https://tools.usps.com/UspsToolsRestServices/rest/POLocator/findLocations", "@spider": "usps_collection_boxes", "addr:city": "GRAFTON", "addr:country": "US", "addr:postcode": "26354", "addr:state": "WV", "addr:street_address": "214 W MAIN ST", "amenity": "post_box", "collection_times": "Mo-Sa 15:00", "note": "ON 12/24 AND 12/31, THIS BOX MAY BE COLLECTED AS EARLY AS 12 NOON.", "nsi_id": "unitedstatespostalservice-a77078", "operator": "United States Postal Service", "operator:short": "USPS", "operator:type": "public", "operator:wikidata": "Q668687", "ref": "2635400029"}, "type": "Feature"}
{"geometry": {"coordinates": [-80.024458542, 39.341285718], "type": "Point"}, "id": "NYliXlnbhoc6xr3HeiA_MOXT-b8=", "properties": {"@source_uri": "https://tools.usps.com/UspsToolsRestServices/rest/POLocator/findLocations", "@spider": "usps_collection_boxes", "addr:city": "GRAFTON", "addr:country": "US", "addr:postcode": "26354", "addr:state": "WV", "addr:street_address": "260 W MAIN ST", "amenity": "post_box", "collection_times": "Mo-Fr 16:30; Sa 16:00", "indoor": "yes", "note": "ON 12/24 AND 12/31, THIS BOX MAY BE COLLECTED AS EARLY AS 12 NOON.", "nsi_id": "unitedstatespostalservice-a77078", "operator": "United States Postal Service", "operator:short": "USPS", "operator:type": "public", "operator:wikidata": "Q668687", "ref": "2635400030"}, "type": "Feature"}
{"geometry": {"coordinates": [-80.025417, 39.343584], "type": "Point"}, "id": "wkZm3F5qI5XoaI4PAVesOHMOYd4=", "properties": {"@source_uri": "https://tools.usps.com/UspsToolsRestServices/rest/POLocator/findLocations", "@spider": "usps_collection_boxes", "addr:city": "GRAFTON", "addr:country": "US", "addr:postcode": "26354", "addr:state": "WV", "addr:street_address": "1 HOSPITAL PLZ", "amenity": "post_box", "collection_times": "Mo-Sa 12:30", "note": "ON 12/24 AND 12/31, THIS BOX MAY BE COLLECTED AS EARLY AS 12 NOON.", "nsi_id": "unitedstatespostalservice-a77078", "operator": "United States Postal Service", "operator:short": "USPS", "operator:type": "public", "operator:wikidata": "Q668687", "ref": "2635400031"}, "type": "Feature"}
{"geometry": {"coordinates": [-80.024458542, 39.341285718], "type": "Point"}, "id": "CamEVnSWpBV1yU-A7INnM0ozBpw=", "properties": {"@source_uri": "https://tools.usps.com/UspsToolsRestServices/rest/POLocator/findLocations", "@spider": "usps_collection_boxes", "addr:city": "GRAFTON", "addr:country": "US", "addr:postcode": "26354", "addr:state": "WV", "addr:street_address": "260 W MAIN ST", "amenity": "post_box", "collection_times": "Mo-Fr 16:30; Sa 11:00", "indoor": "yes", "note": "ON 12/24 AND 12/31, THIS BOX MAY BE COLLECTED AS EARLY AS 12 NOON.", "nsi_id": "unitedstatespostalservice-a77078", "operator": "United States Postal Service", "operator:short": "USPS", "operator:type": "public", "operator:wikidata": "Q668687", "ref": "2635400034"}, "type": "Feature"}
{"geometry": {"coordinates": [-80.312494, 39.367399], "type": "Point"}, "id": "_Z4r8IkiyR743KiQmggfgnY38hc=", "properties": {"@source_uri": "https://tools.usps.com/UspsToolsRestServices/rest/POLocator/findLocations", "@spider": "usps_collection_boxes", "addr:city": "GYPSY", "addr:country": "US", "addr:postcode": "26361", "addr:state": "WV", "addr:street_address": "6426 SHINNSTON PIKE", "amenity": "post_box", "collection_times": "Mo-Fr 13:45; Sa 11:30", "note": "ON 12/24 AND 12/31, THIS BOX MAY BE COLLECTED AS EARLY AS 12 NOON.", "nsi_id": "unitedstatespostalservice-a77078", "operator": "United States Postal Service", "operator:short": "USPS", "operator:type": "public", "operator:wikidata": "Q668687", "ref": "2636100000"}, "type": "Feature"}
{"geometry": {"coordinates": [-80.312494, 39.367399], "type": "Point"}, "id": "4Ren9qLAIZB5tnyZuyICMkx14aY=", "properties": {"@source_uri": "https://tools.usps.com/UspsToolsRestServices/rest/POLocator/findLocations", "@spider": "usps_collection_boxes", "addr:city": "GYPSY", "addr:country": "US", "addr:postcode": "26361", "addr:state": "WV", "addr:street_address": "6426 SHINNSTON PIKE", "amenity": "post_box", "collection_times": "Mo-Fr 13:45; Sa 11:30", "indoor": "yes", "note": "ON 12/24 AND 12/31, THIS BOX MAY BE COLLECTED AS EARLY AS 12 NOON.", "nsi_id": "unitedstatespostalservice-a77078", "operator": "United States Postal Service", "operator:short": "USPS", "operator:type": "public", "operator:wikidata": "Q668687", "ref": "2636100001"}, "type": "Feature"}
{"geometry": {"coordinates": [-80.312479588, 39.367423656], "type": "Point"}, "id": "zXyF6fHoAE2PpBuwmrU3hFwga2U=", "properties": {"@source_uri": "https://tools.usps.com/UspsToolsRestServices/rest/POLocator/findLocations", "@spider": "usps_collection_boxes", "addr:city": "GYPSY", "addr:country": "US", "addr:postcode": "26361", "addr:state": "WV", "addr:street_address": "6426 SHINNSTON PIKE", "amenity": "post_box", "collection_times": "Mo-Fr 14:00", "indoor": "yes", "note": "ON 12/24 AND 12/31, THIS BOX MAY BE COLLECTED AS EARLY AS 12 NOON.", "nsi_id": "unitedstatespostalservice-a77078", "operator": "United States Postal Service", "operator:short": "USPS", "operator:type": "public", "operator:wikidata": "Q668687", "ref": "2636100003"}, "type": "Feature"}
{"geometry": {"coordinates": [-81.0514600114, 39.2097699918], "type": "Point"}, "id": "OnThnD99AqtXgQ3ukkZsU5Ee8DE=", "properties": {"@source_uri": "https://tools.usps.com/UspsToolsRestServices/rest/POLocator/findLocations", "@spider": "usps_collection_boxes", "addr:city": "HARRISVILLE", "addr:country": "US", "addr:postcode": "26362", "addr:state": "WV", "addr:street_address": "117 E MAIN ST", "amenity": "post_box", "collection_times": "Mo-Fr 14:30", "note": "ON 12/24 AND 12/31, THIS BOX MAY BE COLLECTED AS EARLY AS 12 NOON.", "nsi_id": "unitedstatespostalservice-a77078", "operator": "United States Postal Service", "operator:short": "USPS", "operator:type": "public", "operator:wikidata": "Q668687", "ref": "2636200010"}, "type": "Feature"}
{"geometry": {"coordinates": [-81.047951696, 39.2086095], "type": "Point"}, "id": "-rOB_ZjJECtbDfpqmCgsNE78r08=", "properties": {"@source_uri": "https://tools.usps.com/UspsToolsRestServices/rest/POLocator/findLocations", "@spider": "usps_collection_boxes", "addr:city": "HARRISVILLE", "addr:country": "US", "addr:postcode": "26362", "addr:state": "WV", "addr:street_address": "602 E SOUTH ST", "amenity": "post_box", "collection_times": "Mo-Fr 16:00; Sa 10:30", "note": "ON 12/24 AND 12/31, THIS BOX MAY BE COLLECTED AS EARLY AS 12 NOON.", "nsi_id": "unitedstatespostalservice-a77078", "operator": "United States Postal Service", "operator:short": "USPS", "operator:type": "public", "operator:wikidata": "Q668687", "ref": "2636200011"}, "type": "Feature"}
{"geometry": {"coordinates": [-81.047951696, 39.2086095], "type": "Point"}, "id": "l_z6jt8NrutbXAfaj4LAbhpThuo=", "properties": {"@source_uri": "https://tools.usps.com/UspsToolsRestServices/rest/POLocator/findLocations", "@spider": "usps_collection_boxes", "addr:city": "HARRISVILLE", "addr:country": "US", "addr:postcode": "26362", "addr:state": "WV", "addr:street_address": "602 E SOUTH ST", "amenity": "post_box", "collection_times": "Mo-Fr 16:00; Sa 10:30", "indoor": "yes", "note": "ON 12/24 AND 12/31, THIS BOX MAY BE COLLECTED AS EARLY AS 12 NOON.", "nsi_id": "unitedstatespostalservice-a77078", "operator": "United States Postal Service", "operator:short": "USPS", "operator:type": "public", "operator:wikidata": "Q668687", "ref": "2636200014"}, "type": "Feature"}
{"geometry": {"coordinates": [-81.047951696, 39.2086095], "type": "Point"}, "id": "uwprpBxsEQSzPGBPtxj2hZqRu2U=", "properties": {"@source_uri": "https://tools.usps.com/UspsToolsRestServices/rest/POLocator/findLocations", "@spider": "usps_collection_boxes", "addr:city": "HARRISVILLE", "addr:country": "US", "addr:postcode": "26362", "addr:state": "WV", "addr:street_address": "602 E SOUTH ST", "amenity": "post_box", "collection_times": "Mo-Fr 16:00; Sa 10:30", "indoor": "yes", "note": "ON 12/24 AND 12/31, THIS BOX MAY BE COLLECTED AS EARLY AS 12 NOON.", "nsi_id": "unitedstatespostalservice-a77078", "operator": "United States Postal Service", "operator:short": "USPS", "operator:type": "public", "operator:wikidata": "Q668687", "ref": "2636200015"}, "type": "Feature"}
{"geometry": {"coordinates": [-81.047951696, 39.2086095], "type": "Point"}, "id": "WLflzYq_V6GprP2OTqPHLpYhplE=", "properties": {"@source_uri": "https://tools.usps.com/UspsToolsRestServices/rest/POLocator/findLocations", "@spider": "usps_collection_boxes", "addr:city": "HARRISVILLE", "addr:country": "US", "addr:postcode": "26362", "addr:state": "WV", "addr:street_address": "602 E SOUTH ST", "amenity": "post_box", "collection_times": "Mo-Fr 16:00; Sa 10:30", "indoor": "yes", "note": "ON 12/24 AND 12/31, THIS BOX MAY BE COLLECTED AS EARLY AS 12 NOON.", "nsi_id": "unitedstatespostalservice-a77078", "operator": "United States Postal Service", "operator:short": "USPS", "operator:type": "public", "operator:wikidata": "Q668687", "ref": "2636200018"}, "type": "Feature"}
{"geometry": {"coordinates": [-80.336538, 39.380699], "type": "Point"}, "id": "SoSwUzuXqlJDZ6IE93xKiNCcuE8=", "properties": {"@source_uri": "https://tools.usps.com/UspsToolsRestServices/rest/POLocator/findLocations", "@spider": "usps_collection_boxes", "addr:city": "HAYWOOD", "addr:country": "US", "addr:postcode": "26366", "addr:state": "WV", "addr:street_address": "1573 HAYWOOD RD", "amenity": "post_box", "collection_times": "Mo-Fr 14:45; Sa 11:00", "indoor": "yes", "note": "ON 12/24 AND 12/31, THIS BOX MAY BE COLLECTED AS EARLY AS 12 NOON.", "nsi_id": "unitedstatespostalservice-a77078", "operator": "United States Postal Service", "operator:short": "USPS", "operator:type": "public", "operator:wikidata": "Q668687", "ref": "2636600001"}, "type": "Feature"}
{"geometry": {"coordinates": [-80.336538, 39.380699], "type": "Point"}, "id": "REszj3U1hIq2O7S1E7hi4dETIWI=", "properties": {"@source_uri": "https://tools.usps.com/UspsToolsRestServices/rest/POLocator/findLocations", "@spider": "usps_collection_boxes", "addr:city": "HAYWOOD", "addr:country": "US", "addr:postcode": "26366", "addr:state": "WV", "addr:street_address": "1573 HAYWOOD RD", "amenity": "post_box", "collection_times": "Mo-Fr 14:45; Sa 11:00", "note": "ON 12/24 AND 12/31, THIS BOX MAY BE COLLECTED AS EARLY AS 12 NOON.", "nsi_id": "unitedstatespostalservice-a77078", "operator": "United States Postal Service", "operator:short": "USPS", "operator:type": "public", "operator:wikidata": "Q668687", "ref": "2636600002"}, "type": "Feature"}
{"geometry": {"coordinates": [-80.327447625, 39.350147895], "type": "Point"}, "id": "tY2wMTZ9UQNEDqpxbFKOH-DxDHo=", "properties": {"@source_uri": "https://tools.usps.com/UspsToolsRestServices/rest/POLocator/findLocations", "@spider": "usps_collection_boxes", "addr:city": "HAYWOOD", "addr:country": "US", "addr:postcode": "26366", "addr:state": "WV", "addr:street_address": "1573 HAYWOOD RD", "amenity": "post_box", "collection_times": "Mo-Fr 15:00; Sa 12:00", "indoor": "yes", "note": "ON 12/24 AND 12/31, THIS BOX MAY BE COLLECTED AS EARLY AS 12 NOON.", "nsi_id": "unitedstatespostalservice-a77078", "operator": "United States Postal Service", "operator:short": "USPS", "operator:type": "public", "operator:wikidata": "Q668687", "ref": "2636600004"}, "type": "Feature"}
{"geometry": {"coordinates": [-80.333019, 39.333588], "type": "Point"}, "id": "UdpPIXDa5hKC7n-OlhK5JR63C6c=", "properties": {"@source_uri": "https://tools.usps.com/UspsToolsRestServices/rest/POLocator/findLocations", "@spider": "usps_collection_boxes", "addr:city": "HEPZIBAH", "addr:country": "US", "addr:postcode": "26369", "addr:state": "WV", "addr:street_address": "3523 SHINNSTON PIKE", "amenity": "post_box", "collection_times": "Mo-Fr 11:45; Sa 09:30", "nsi_id": "unitedstatespostalservice-a77078", "operator": "United States Postal Service", "operator:short": "USPS", "operator:type": "public", "operator:wikidata": "Q668687", "ref": "2636900000"}, "type": "Feature"}
{"geometry": {"coordinates": [-80.333019, 39.333588], "type": "Point"}, "id": "bh4FgW-dxyERYoLe--2pcxRMnFA=", "properties": {"@source_uri": "https://tools.usps.com/UspsToolsRestServices/rest/POLocator/findLocations", "@spider": "usps_collection_boxes", "addr:city": "HEPZIBAH", "addr:country": "US", "addr:postcode": "26369", "addr:state": "WV", "addr:street_address": "3523 SHINNSTON PIKE", "amenity": "post_box", "collection_times": "Mo-Fr 11:45; Sa 09:30", "indoor": "yes", "nsi_id": "unitedstatespostalservice-a77078", "operator": "United States Postal Service", "operator:short": "USPS", "operator:type": "public", "operator:wikidata": "Q668687", "ref": "2636900001"}, "type": "Feature"}
{"geometry": {"coordinates": [-80.332932315, 39.333445941], "type": "Point"}, "id": "QEYZ35yX9uOJI-zZAJBtxZLtzMo=", "properties": {"@source_uri": "https://tools.usps.com/UspsToolsRestServices/rest/POLocator/findLocations", "@spider": "usps_collection_boxes", "addr:city": "HEPZIBAH", "addr:country": "US", "addr:postcode": "26369", "addr:state": "WV", "addr:street_address": "3523 SHINNSTON PIKE", "amenity": "post_box", "collection_times": "Mo-Fr 12:00; Sa 09:45", "indoor": "yes", "nsi_id": "unitedstatespostalservice-a77078", "operator": "United States Postal Service", "operator:short": "USPS", "operator:type": "public", "operator:wikidata": "Q668687", "ref": "2636900003"}, "type": "Feature"}
{"geometry": {"coordinates": [-80.381523, 38.943369], "type": "Point"}, "id": "EN02eTTt-j1G_3jeoEoEaAbUdQc=", "properties": {"@source_uri": "https://tools.usps.com/UspsToolsRestServices/rest/POLocator/findLocations", "@spider": "usps_collection_boxes", "addr:city": "HORNER", "addr:country": "US", "addr:postcode": "26372", "addr:state": "WV", "addr:street_address": "63 GEORGETOWN RD", "amenity": "post_box", "collection_times": "Mo-Fr 11:15; Sa 10:15", "nsi_id": "unitedstatespostalservice-a77078", "operator": "United States Postal Service", "operator:short": "USPS", "operator:type": "public", "operator:wikidata": "Q668687", "ref": "2637200000"}, "type": "Feature"}
{"geometry": {"coordinates": [-80.381498, 38.943404], "type": "Point"}, "id": "IvL0FvKeHR2VpLPyJXouSz6nzqU=", "properties": {"@source_uri": "https://tools.usps.com/UspsToolsRestServices/rest/POLocator/findLocations", "@spider": "usps_collection_boxes", "addr:city": "HORNER", "addr:country": "US", "addr:postcode": "26372", "addr:state": "WV", "addr:street_address": "63 GEORGETOWN RD", "amenity": "post_box", "collection_times": "Mo-Fr 11:15; Sa 10:15", "indoor": "yes", "nsi_id": "unitedstatespostalservice-a77078", "operator": "United States Postal Service", "operator:short": "USPS", "operator:type": "public", "operator:wikidata": "Q668687", "ref": "2637200001"}, "type": "Feature"}
{"geometry": {"coordinates": [-80.383576203, 38.999783665], "type": "Point"}, "id": "eBYJFyGRizEFDsAsbD9cHP6NJpY=", "properties": {"@source_uri": "https://tools.usps.com/UspsToolsRestServices/rest/POLocator/findLocations", "@spider": "usps_collection_boxes", "addr:city": "HORNER", "addr:country": "US", "addr:postcode": "26372", "addr:state": "WV", "addr:street_address": "63 GEORGETOWN RD", "amenity": "post_box", "collection_times": "Mo-Fr 11:30; Sa 10:15", "indoor": "yes", "nsi_id": "unitedstatespostalservice-a77078", "operator": "United States Postal Service", "operator:short": "USPS", "operator:type": "public", "operator:wikidata": "Q668687", "ref": "2637200003"}, "type": "Feature"}
{"geometry": {"coordinates": [-80.461393, 38.81525], "type": "Point"}, "id": "asP9pXQwpsQ4FwTcgyKjAQuvAzY=", "properties": {"@source_uri": "https://tools.usps.com/UspsToolsRestServices/rest/POLocator/findLocations", "@spider": "usps_collection_boxes", "addr:city": "IRELAND", "addr:country": "US", "addr:postcode": "26376", "addr:state": "WV", "addr:street_address": "234 WILDCAT RD", "amenity": "post_box", "collection_times": "Mo-Fr 11:45; Sa 11:00", "nsi_id": "unitedstatespostalservice-a77078", "operator": "United States Postal Service", "operator:short": "USPS", "operator:type": "public", "operator:wikidata": "Q668687", "ref": "2637600000"}, "type": "Feature"}
{"geometry": {"coordinates": [-80.461435, 38.81533], "type": "Point"}, "id": "864IbRjikSTUedys8NWne_m2Jxw=", "properties": {"@source_uri": "https://tools.usps.com/UspsToolsRestServices/rest/POLocator/findLocations", "@spider": "usps_collection_boxes", "addr:city": "IRELAND", "addr:country": "US", "addr:postcode": "26376", "addr:state": "WV", "addr:street_address": "234 WILDCAT RD", "amenity": "post_box", "collection_times": "Mo-Fr 11:45; Sa 11:15", "indoor": "yes", "nsi_id": "unitedstatespostalservice-a77078", "operator": "United States Postal Service", "operator:short": "USPS", "operator:type": "public", "operator:wikidata": "Q668687", "ref": "2637600001"}, "type": "Feature"}
{"geometry": {"coordinates": [-80.46101635, 38.814930262], "type": "Point"}, "id": "W3YQlrZY5MUkY7-SEXPOiY9FcU8=", "properties": {"@source_uri": "https://tools.usps.com/UspsToolsRestServices/rest/POLocator/findLocations", "@spider": "usps_collection_boxes", "addr:city": "IRELAND", "addr:country": "US", "addr:postcode": "26376", "addr:state": "WV", "addr:street_address": "234 WILDCAT RD", "amenity": "post_box", "collection_times": "Mo-Fr 12:00; Sa 11:15", "indoor": "yes", "nsi_id": "unitedstatespostalservice-a77078", "operator": "United States Postal Service", "operator:short": "USPS", "operator:type": "public", "operator:wikidata": "Q668687", "ref": "2637600003"}, "type": "Feature"}
{"geometry": {"coordinates": [-80.642144, 39.533122], "type": "Point"}, "id": "1ZAVfq_h1ylhPy8b4KxXbyfkYyA=", "properties": {"@source_uri": "https://tools.usps.com/UspsToolsRestServices/rest/POLocator/findLocations", "@spider": "usps_collection_boxes", "addr:city": "JACKSONBURG", "addr:country": "US", "addr:postcode": "26377", "addr:state": "WV", "addr:street_address": "18160 SHORTLINE HWY", "amenity": "post_box", "collection_times": "Mo-Fr 11:15; Sa 08:00", "nsi_id": "unitedstatespostalservice-a77078", "operator": "United States Postal Service", "operator:short": "USPS", "operator:type": "public", "operator:wikidata": "Q668687", "ref": "2637700000"}, "type": "Feature"}
{"geometry": {"coordinates": [-80.642144, 39.533122], "type": "Point"}, "id": "PbM6Sce-NvNMKAC4bPD7vU6ZvaU=", "properties": {"@source_uri": "https://tools.usps.com/UspsToolsRestServices/rest/POLocator/findLocations", "@spider": "usps_collection_boxes", "addr:city": "JACKSONBURG", "addr:country": "US", "addr:postcode": "26377", "addr:state": "WV", "addr:street_address": "18160 SHORTLINE HWY", "amenity": "post_box", "collection_times": "Mo-Fr 11:15; Sa 08:00", "indoor": "yes", "nsi_id": "unitedstatespostalservice-a77078", "operator": "United States Postal Service", "operator:short": "USPS", "operator:type": "public", "operator:wikidata": "Q668687", "ref": "2637700001"}, "type": "Feature"}
{"geometry": {"coordinates": [-80.641797854, 39.533104245], "type": "Point"}, "id": "Hkm4aWRk1zHhbieCqGHIluBU2MY=", "properties": {"@source_uri": "https://tools.usps.com/UspsToolsRestServices/rest/POLocator/findLocations", "@spider": "usps_collection_boxes", "addr:city": "JACKSONBURG", "addr:country": "US", "addr:postcode": "26377", "addr:state": "WV", "addr:street_address": "18160 SHORTLINE HWY", "amenity": "post_box", "collection_times": "Mo-Fr 11:30", "indoor": "yes", "nsi_id": "unitedstatespostalservice-a77078", "operator": "United States Postal Service", "operator:short": "USPS", "operator:type": "public", "operator:wikidata": "Q668687", "ref": "2637700003"}, "type": "Feature"}
{"geometry": {"coordinates": [-80.40044033, 39.104487376], "type": "Point"}, "id": "sprJynPnBT8hJNK691mKRdJoWG4=", "properties": {"@source_uri": "https://tools.usps.com/UspsToolsRestServices/rest/POLocator/findLocations", "@spider": "usps_collection_boxes", "addr:city": "JANE LEW", "addr:country": "US", "addr:postcode": "26378", "addr:state": "WV", "addr:street_address": "141 INDUSTRIAL PARK RD", "amenity": "post_box", "collection_times": "Mo-Fr 16:15; Sa 10:30", "note": "ON 12/24 AND 12/31, THIS BOX MAY BE COLLECTED AS EARLY AS 12 NOON.", "nsi_id": "unitedstatespostalservice-a77078", "operator": "United States Postal Service", "operator:short": "USPS", "operator:type": "public", "operator:wikidata": "Q668687", "ref": "2637800001"}, "type": "Feature"}
{"geometry": {"coordinates": [-80.40044033, 39.104487376], "type": "Point"}, "id": "91xfe3AxAckcQQZfJIj8xKWBTYg=", "properties": {"@source_uri": "https://tools.usps.com/UspsToolsRestServices/rest/POLocator/findLocations", "@spider": "usps_collection_boxes", "addr:city": "JANE LEW", "addr:country": "US", "addr:postcode": "26378", "addr:state": "WV", "addr:street_address": "141 INDUSTRIAL PARK RD", "amenity": "post_box", "collection_times": "Mo-Fr 16:15; Sa 10:30", "indoor": "yes", "note": "ON 12/24 AND 12/31, THIS BOX MAY BE COLLECTED AS EARLY AS 12 NOON.", "nsi_id": "unitedstatespostalservice-a77078", "operator": "United States Postal Service", "operator:short": "USPS", "operator:type": "public", "operator:wikidata": "Q668687", "ref": "2637800003"}, "type": "Feature"}
{"geometry": {"coordinates": [-80.40044033, 39.104487376], "type": "Point"}, "id": "h-WZhb4Iu8-qu_6a68mXmJLxMP8=", "properties": {"@source_uri": "https://tools.usps.com/UspsToolsRestServices/rest/POLocator/findLocations", "@spider": "usps_collection_boxes", "addr:city": "JANE LEW", "addr:country": "US", "addr:postcode": "26378", "addr:state": "WV", "addr:street_address": "141 INDUSTRIAL PARK RD", "amenity": "post_box", "collection_times": "Mo-Fr 16:15; Sa 10:30", "indoor": "yes", "note": "ON 12/24 AND 12/31, THIS BOX MAY BE COLLECTED AS EARLY AS 12 NOON.", "nsi_id": "unitedstatespostalservice-a77078", "operator": "United States Postal Service", "operator:short": "USPS", "operator:type": "public", "operator:wikidata": "Q668687", "ref": "2637800004"}, "type": "Feature"}
{"geometry": {"coordinates": [-80.40044033, 39.104487376], "type": "Point"}, "id": "zrBv36BD7-AbvQxz4O9oydyDbSM=", "properties": {"@source_uri": "https://tools.usps.com/UspsToolsRestServices/rest/POLocator/findLocations", "@spider": "usps_collection_boxes", "addr:city": "JANE LEW", "addr:country": "US", "addr:postcode": "26378", "addr:state": "WV", "addr:street_address": "141 INDUSTRIAL PARK RD", "amenity": "post_box", "collection_times": "Mo-Fr 16:30; Sa 10:30", "indoor": "yes", "note": "ON 12/24 AND 12/31, THIS BOX MAY BE COLLECTED AS EARLY AS 12 NOON.", "nsi_id": "unitedstatespostalservice-a77078", "operator": "United States Postal Service", "operator:short": "USPS", "operator:type": "public", "operator:wikidata": "Q668687", "ref": "2637800006"}, "type": "Feature"}
{"geometry": {"coordinates": [-80.350598967, 39.16029038], "type": "Point"}, "id": "-i5t9GILRKZbcuR3fJKd4r1ateQ=", "properties": {"@source_uri": "https://tools.usps.com/UspsToolsRestServices/rest/POLocator/findLocations", "@spider": "usps_collection_boxes", "addr:city": "LOST CREEK", "addr:country": "US", "addr:postcode": "26385", "addr:state": "WV", "addr:street_address": "107 E MAIN ST", "amenity": "post_box", "collection_times": "Mo-Fr 15:30; Sa 10:15", "note": "ON 12/24 AND 12/31, THIS BOX MAY BE COLLECTED AS EARLY AS 12 NOON.", "nsi_id": "unitedstatespostalservice-a77078", "operator": "United States Postal Service", "operator:short": "USPS", "operator:type": "public", "operator:wikidata": "Q668687", "ref": "2638500000"}, "type": "Feature"}
{"geometry": {"coordinates": [-80.350598967, 39.16029038], "type": "Point"}, "id": "1GC02f7-fVNWlTTDXFLFN3FF3Dg=", "properties": {"@source_uri": "https://tools.usps.com/UspsToolsRestServices/rest/POLocator/findLocations", "@spider": "usps_collection_boxes", "addr:city": "LOST CREEK", "addr:country": "US", "addr:postcode": "26385", "addr:state": "WV", "addr:street_address": "107 E MAIN ST", "amenity": "post_box", "collection_times": "Mo-Fr 15:30; Sa 10:15", "indoor": "yes", "note": "ON 12/24 AND 12/31, THIS BOX MAY BE COLLECTED AS EARLY AS 12 NOON.", "nsi_id": "unitedstatespostalservice-a77078", "operator": "United States Postal Service", "operator:short": "USPS", "operator:type": "public", "operator:wikidata": "Q668687", "ref": "2638500001"}, "type": "Feature"}
{"geometry": {"coordinates": [-80.350598967, 39.16029038], "type": "Point"}, "id": "qn7ZuV-_sNvojIOR1Dgk3Qi7eQ8=", "properties": {"@source_uri": "https://tools.usps.com/UspsToolsRestServices/rest/POLocator/findLocations", "@spider": "usps_collection_boxes", "addr:city": "LOST CREEK", "addr:country": "US", "addr:postcode": "26385", "addr:state": "WV", "addr:street_address": "107 E MAIN ST", "amenity": "post_box", "collection_times": "Mo-Fr 15:30; Sa 10:30", "indoor": "yes", "note": "ON 12/24 AND 12/31, THIS BOX MAY BE COLLECTED AS EARLY AS 12 NOON.", "nsi_id": "unitedstatespostalservice-a77078", "operator": "United States Postal Service", "operator:short": "USPS", "operator:type": "public", "operator:wikidata": "Q668687", "ref": "2638500002"}, "type": "Feature"}
{"geometry": {"coordinates": [-80.34654163, 39.375752088], "type": "Point"}, "id": "wLAEB1CGmTSNDt0PNrVe0yPII_U=", "properties": {"@source_uri": "https://tools.usps.com/UspsToolsRestServices/rest/POLocator/findLocations", "@spider": "usps_collection_boxes", "addr:city": "LUMBERPORT", "addr:country": "US", "addr:postcode": "26386", "addr:state": "WV", "addr:street_address": "489 MAIN ST", "amenity": "post_box", "collection_times": "Mo-Fr 15:30; Sa 10:30", "note": "ON 12/24 AND 12/31, THIS BOX MAY BE COLLECTED AS EARLY AS 12 NOON.", "nsi_id": "unitedstatespostalservice-a77078", "operator": "United States Postal Service", "operator:short": "USPS", "operator:type": "public", "operator:wikidata": "Q668687", "ref": "2638600000"}, "type": "Feature"}
{"geometry": {"coordinates": [-80.34654163, 39.375752088], "type": "Point"}, "id": "2Lwb3udaEI8Wosf2dVaeyzKLJ14=", "properties": {"@source_uri": "https://tools.usps.com/UspsToolsRestServices/rest/POLocator/findLocations", "@spider": "usps_collection_boxes", "addr:city": "LUMBERPORT", "addr:country": "US", "addr:postcode": "26386", "addr:state": "WV", "addr:street_address": "489 MAIN ST", "amenity": "post_box", "collection_times": "Mo-Fr 15:30; Sa 10:30", "indoor": "yes", "note": "ON 12/24 AND 12/31, THIS BOX MAY BE COLLECTED AS EARLY AS 12 NOON.", "nsi_id": "unitedstatespostalservice-a77078", "operator": "United States Postal Service", "operator:short": "USPS", "operator:type": "public", "operator:wikidata": "Q668687", "ref": "2638600001"}, "type": "Feature"}
{"geometry": {"coordinates": [-80.34654163, 39.375752088], "type": "Point"}, "id": "ynF9dPCSBxv7rjSOhNrfdjMonYk=", "properties": {"@source_uri": "https://tools.usps.com/UspsToolsRestServices/rest/POLocator/findLocations", "@spider": "usps_collection_boxes", "addr:city": "LUMBERPORT", "addr:country": "US", "addr:postcode": "26386", "addr:state": "WV", "addr:street_address": "489 MAIN ST", "amenity": "post_box", "collection_times": "Mo-Fr 15:30; Sa 10:30", "indoor": "yes", "note": "ON 12/24 AND 12/31, THIS BOX MAY BE COLLECTED AS EARLY AS 12 NOON.", "nsi_id": "unitedstatespostalservice-a77078", "operator": "United States Postal Service", "operator:short": "USPS", "operator:type": "public", "operator:wikidata": "Q668687", "ref": "2638600004"}, "type": "Feature"}
