{"geometry": {"coordinates": [-80.296631, 39.342093], "type": "Point"}, "id": "0NoLLjKcSlzRCLAdCw3h_51szKw=", "properties": {"@spider": "usps_collection_boxes", "addr:city": "MEADOWBROOK", "addr:country": "US", "addr:full": "3754 MEADOWBROOK RD", "addr:postcode": "26404", "addr:state": "WV", "amenity": "post_box", "brand": "United States Postal Service", "brand:wikidata": "Q668687", "collection_times": "Mo-Fr 11:45; Sa 14:30", "name": "USPS COLLECTION BOX - BLUE BOX", "note": "ON 12/24 AND 12/31, THIS BOX MAY BE COLLECTED AS EARLY AS 12 NOON.", "nsi_id": "unitedstatespostalservice-a77078", "operator": "United States Postal Service", "operator:short": "USPS", "operator:type": "public", "operator:wikidata": "Q668687", "ref": "2640400000"}, "type": "Feature"}
{"geometry": {"coordinates": [-80.3119605, 39.349371], "type": "Point"}, "id": "dzU2INLJHci7keydeyFOD9YXqqM=", "properties": {"@spider": "usps_collection_boxes", "addr:city": "MEADOWBROOK", "addr:country": "US", "addr:full": "3754 MEADOWBROOK RD", "addr:postcode": "26404", "addr:state": "WV", "amenity": "post_box", "brand": "United States Postal Service", "brand:wikidata": "Q668687", "collection_times": "Mo-Fr 11:45; Sa 14:30", "name": "USPS COLLECTION BOX - PO LOBBY", "note": "ON 12/24 AND 12/31, THIS BOX MAY BE COLLECTED AS EARLY AS 12 NOON.", "nsi_id": "unitedstatespostalservice-a77078", "operator": "United States Postal Service", "operator:short": "USPS", "operator:type": "public", "operator:wikidata": "Q668687", "ref": "2640400001"}, "type": "Feature"}
{"geometry": {"coordinates": [-80.305317549, 39.348595127], "type": "Point"}, "id": "bA9x7rsjNgTweO5hsVxNy9G4Fj8=", "properties": {"@spider": "usps_collection_boxes", "addr:city": "MEADOWBROOK", "addr:country": "US", "addr:full": "3754 MEADOWBROOK RD", "addr:postcode": "26404", "addr:state": "WV", "amenity": "post_box", "brand": "United States Postal Service", "brand:wikidata": "Q668687", "collection_times": "Mo-Fr 12:00", "name": "USPS COLLECTION BOX - PO LOBBY", "nsi_id": "unitedstatespostalservice-a77078", "operator": "United States Postal Service", "operator:short": "USPS", "operator:type": "public", "operator:wikidata": "Q668687", "ref": "2640400003"}, "type": "Feature"}
{"geometry": {"coordinates": [-79.917658, 39.196959], "type": "Point"}, "id": "O2EETg5jkxW4J45XVPkw_qR2LSM=", "properties": {"@spider": "usps_collection_boxes", "addr:city": "MOATSVILLE", "addr:country": "US", "addr:full": "13205 MORGANTOWN PIKE", "addr:postcode": "26405", "addr:state": "WV", "amenity": "post_box", "brand": "United States Postal Service", "brand:wikidata": "Q668687", "collection_times": "Mo-Fr 11:45; Sa 09:00", "name": "USPS COLLECTION BOX - BLUE BOX", "nsi_id": "unitedstatespostalservice-a77078", "operator": "United States Postal Service", "operator:short": "USPS", "operator:type": "public", "operator:wikidata": "Q668687", "ref": "2640500000"}, "type": "Feature"}
{"geometry": {"coordinates": [-79.8484593695, 39.2489039024], "type": "Point"}, "id": "1_yFaBYX7Og608HUC0j_ctvVw14=", "properties": {"@spider": "usps_collection_boxes", "addr:city": "MOATSVILLE", "addr:country": "US", "addr:full": "PO BOX 9998", "addr:postcode": "26405", "addr:state": "WV", "amenity": "post_box", "brand": "United States Postal Service", "brand:wikidata": "Q668687", "collection_times": "Mo-Fr 11:45; Sa 09:00", "name": "USPS COLLECTION BOX - PO LOBBY", "nsi_id": "unitedstatespostalservice-a77078", "operator": "United States Postal Service", "operator:short": "USPS", "operator:type": "public", "operator:wikidata": "Q668687", "ref": "2640500001"}, "type": "Feature"}
{"geometry": {"coordinates": [-79.917117217, 39.197165192], "type": "Point"}, "id": "QDEKW7sBjsTul6zDO63t5uaM7qA=", "properties": {"@spider": "usps_collection_boxes", "addr:city": "MOATSVILLE", "addr:country": "US", "addr:full": "13205 MORGANTOWN PIKE", "addr:postcode": "26405", "addr:state": "WV", "amenity": "post_box", "brand": "United States Postal Service", "brand:wikidata": "Q668687", "collection_times": "Mo-Fr 11:45", "name": "USPS COLLECTION BOX - PO LOBBY", "nsi_id": "unitedstatespostalservice-a77078", "operator": "United States Postal Service", "operator:short": "USPS", "operator:type": "public", "operator:wikidata": "Q668687", "ref": "2640500003"}, "type": "Feature"}
{"geometry": {"coordinates": [-80.345569, 39.216804], "type": "Point"}, "id": "NCK6R0wVRFP_QQ3GBpUrD6rhhio=", "properties": {"@spider": "usps_collection_boxes", "addr:city": "MOUNT CLARE", "addr:country": "US", "addr:full": "3801 MOUNT CLARE RD", "addr:postcode": "26408", "addr:state": "WV", "amenity": "post_box", "brand": "United States Postal Service", "brand:wikidata": "Q668687", "collection_times": "Mo-Fr 15:30; Sa 10:30", "name": "USPS COLLECTION BOX - BLUE BOX", "note": "ON 12/24 AND 12/31, THIS BOX MAY BE COLLECTED AS EARLY AS 12 NOON.", "nsi_id": "unitedstatespostalservice-a77078", "operator": "United States Postal Service", "operator:short": "USPS", "operator:type": "public", "operator:wikidata": "Q668687", "ref": "2640800000"}, "type": "Feature"}
{"geometry": {"coordinates": [-80.345569, 39.216804], "type": "Point"}, "id": "V2U8pg_9lJCez2U0T6PShSvfEj0=", "properties": {"@spider": "usps_collection_boxes", "addr:city": "MOUNT CLARE", "addr:country": "US", "addr:full": "3801 MOUNT CLARE RD", "addr:postcode": "26408", "addr:state": "WV", "amenity": "post_box", "brand": "United States Postal Service", "brand:wikidata": "Q668687", "collection_times": "Mo-Fr 15:30; Sa 10:30", "name": "USPS COLLECTION BOX - PO LOBBY", "note": "ON 12/24 AND 12/31, THIS BOX MAY BE COLLECTED AS EARLY AS 12 NOON.", "nsi_id": "unitedstatespostalservice-a77078", "operator": "United States Postal Service", "operator:short": "USPS", "operator:type": "public", "operator:wikidata": "Q668687", "ref": "2640800001"}, "type": "Feature"}
{"geometry": {"coordinates": [-80.349548905, 39.223203915], "type": "Point"}, "id": "egyY-ldpZGmH7BQrQVrardktzuE=", "properties": {"@spider": "usps_collection_boxes", "addr:city": "MOUNT CLARE", "addr:country": "US", "addr:full": "3801 MOUNT CLARE RD", "addr:postcode": "26408", "addr:state": "WV", "amenity": "post_box", "brand": "United States Postal Service", "brand:wikidata": "Q668687", "collection_times": "Mo-Fr 16:00; Sa 12:30", "name": "USPS COLLECTION BOX - PO LOBBY", "note": "ON 12/24 AND 12/31, THIS BOX MAY BE COLLECTED AS EARLY AS 12 NOON.", "nsi_id": "unitedstatespostalservice-a77078", "operator": "United States Postal Service", "operator:short": "USPS", "operator:type": "public", "operator:wikidata": "Q668687", "ref": "2640800003"}, "type": "Feature"}
{"geometry": {"coordinates": [-79.852825652, 39.388227391], "type": "Point"}, "id": "qe7FS_gZ5xY8SWlIIBdQGIXPZaE=", "properties": {"@spider": "usps_collection_boxes", "addr:city": "NEWBURG", "addr:country": "US", "addr:full": "54 MORGANTOWN AVE", "addr:postcode": "26410", "addr:state": "WV", "amenity": "post_box", "brand": "United States Postal Service", "brand:wikidata": "Q668687", "collection_times": "Mo-Fr 15:45; Sa 10:00", "name": "USPS COLLECTION BOX - BLUE BOX", "note": "ON 12/24 AND 12/31, THIS BOX MAY BE COLLECTED AS EARLY AS 12 NOON.", "nsi_id": "unitedstatespostalservice-a77078", "operator": "United States Postal Service", "operator:short": "USPS", "operator:type": "public", "operator:wikidata": "Q668687", "ref": "2641000000"}, "type": "Feature"}
{"geometry": {"coordinates": [-79.852825652, 39.388227391], "type": "Point"}, "id": "nj2R9en77yCxBzkNOuNsW8vjjiI=", "properties": {"@spider": "usps_collection_boxes", "addr:city": "NEWBURG", "addr:country": "US", "addr:full": "54 MORGANTOWN AVE", "addr:postcode": "26410", "addr:state": "WV", "amenity": "post_box", "brand": "United States Postal Service", "brand:wikidata": "Q668687", "collection_times": "Mo-Fr 15:45; Sa 10:00", "name": "USPS COLLECTION BOX - PO LOBBY", "note": "ON 12/24 AND 12/31, THIS BOX MAY BE COLLECTED AS EARLY AS 12 NOON.", "nsi_id": "unitedstatespostalservice-a77078", "operator": "United States Postal Service", "operator:short": "USPS", "operator:type": "public", "operator:wikidata": "Q668687", "ref": "2641000001"}, "type": "Feature"}
{"geometry": {"coordinates": [-79.852825652, 39.388227391], "type": "Point"}, "id": "0FQb0MUvSUkvRIDKWk-4sj1ufGg=", "properties": {"@spider": "usps_collection_boxes", "addr:city": "NEWBURG", "addr:country": "US", "addr:full": "54 MORGANTOWN AVE", "addr:postcode": "26410", "addr:state": "WV", "amenity": "post_box", "brand": "United States Postal Service", "brand:wikidata": "Q668687", "collection_times": "Mo-Fr 16:00; Sa 10:30", "name": "USPS COLLECTION BOX - PO LOBBY", "note": "ON 12/24 AND 12/31, THIS BOX MAY BE COLLECTED AS EARLY AS 12 NOON.", "nsi_id": "unitedstatespostalservice-a77078", "operator": "United States Postal Service", "operator:short": "USPS", "operator:type": "public", "operator:wikidata": "Q668687", "ref": "2641000003"}, "type": "Feature"}
{"geometry": {"coordinates": [-80.592689, 38.871294], "type": "Point"}, "id": "YDd2WzwCvmp30M_kg2Bt0_UXzKc=", "properties": {"@spider": "usps_collection_boxes", "addr:city": "ORLANDO", "addr:country": "US", "addr:full": "29 CEMETARY RD", "addr:postcode": "26412", "addr:state": "WV", "amenity": "post_box", "brand": "United States Postal Service", "brand:wikidata": "Q668687", "collection_times": "Mo-Sa 15:45", "name": "USPS COLLECTION BOX - BLUE BOX", "note": "ON 12/24 AND 12/31, THIS BOX MAY BE COLLECTED AS EARLY AS 12 NOON.", "nsi_id": "unitedstatespostalservice-a77078", "operator": "United States Postal Service", "operator:short": "USPS", "operator:type": "public", "operator:wikidata": "Q668687", "ref": "2641200000"}, "type": "Feature"}
{"geometry": {"coordinates": [-80.592689, 38.871294], "type": "Point"}, "id": "ZxbKKl3AKXy3Z4XED-0p0O7w3b4=", "properties": {"@spider": "usps_collection_boxes", "addr:city": "ORLANDO", "addr:country": "US", "addr:full": "29 CEMETARY RD", "addr:postcode": "26412", "addr:state": "WV", "amenity": "post_box", "brand": "United States Postal Service", "brand:wikidata": "Q668687", "collection_times": "Mo-Sa 15:45", "name": "USPS COLLECTION BOX - PO LOBBY", "note": "ON 12/24 AND 12/31, THIS BOX MAY BE COLLECTED AS EARLY AS 12 NOON.", "nsi_id": "unitedstatespostalservice-a77078", "operator": "United States Postal Service", "operator:short": "USPS", "operator:type": "public", "operator:wikidata": "Q668687", "ref": "2641200001"}, "type": "Feature"}
{"geometry": {"coordinates": [-80.592537507, 38.871356732], "type": "Point"}, "id": "QFSSAT2cSEUSAMUPCc_imvJkjZM=", "properties": {"@spider": "usps_collection_boxes", "addr:city": "ORLANDO", "addr:country": "US", "addr:full": "29 CEMETARY RD", "addr:postcode": "26412", "addr:state": "WV", "amenity": "post_box", "brand": "United States Postal Service", "brand:wikidata": "Q668687", "collection_times": "Mo-Sa 16:00", "name": "USPS COLLECTION BOX - PO LOBBY", "note": "ON 12/24 AND 12/31, THIS BOX MAY BE COLLECTED AS EARLY AS 12 NOON.", "nsi_id": "unitedstatespostalservice-a77078", "operator": "United States Postal Service", "operator:short": "USPS", "operator:type": "public", "operator:wikidata": "Q668687", "ref": "2641200003"}, "type": "Feature"}
{"geometry": {"coordinates": [-80.969342227, 39.285559044], "type": "Point"}, "id": "Pby6vYOsJcrxU-a5DQ_MRgLiuHY=", "properties": {"@spider": "usps_collection_boxes", "addr:city": "PENNSBORO", "addr:country": "US", "addr:full": "202 CLAYTON ST", "addr:postcode": "26415", "addr:state": "WV", "amenity": "post_box", "brand": "United States Postal Service", "brand:wikidata": "Q668687", "collection_times": "Mo-Fr 14:00; Sa 11:00", "name": "USPS COLLECTION BOX - BLUE BOX", "note": "ON 12/24 AND 12/31, THIS BOX MAY BE COLLECTED AS EARLY AS 12 NOON.", "nsi_id": "unitedstatespostalservice-a77078", "operator": "United States Postal Service", "operator:short": "USPS", "operator:type": "public", "operator:wikidata": "Q668687", "ref": "2641500003"}, "type": "Feature"}
{"geometry": {"coordinates": [-80.969342227, 39.285559044], "type": "Point"}, "id": "63bh1mmK5sUr5jfkLkzpJFQvwtg=", "properties": {"@spider": "usps_collection_boxes", "addr:city": "PENNSBORO", "addr:country": "US", "addr:full": "202 CLAYTON ST", "addr:postcode": "26415", "addr:state": "WV", "amenity": "post_box", "brand": "United States Postal Service", "brand:wikidata": "Q668687", "collection_times": "Mo-Fr 14:00; Sa 11:00", "name": "USPS COLLECTION BOX - PO LOBBY", "note": "ON 12/24 AND 12/31, THIS BOX MAY BE COLLECTED AS EARLY AS 12 NOON.", "nsi_id": "unitedstatespostalservice-a77078", "operator": "United States Postal Service", "operator:short": "USPS", "operator:type": "public", "operator:wikidata": "Q668687", "ref": "2641500006"}, "type": "Feature"}
{"geometry": {"coordinates": [-80.969342227, 39.285559044], "type": "Point"}, "id": "szK9kTIrEKhcJlfjFTYXWGEkYGA=", "properties": {"@spider": "usps_collection_boxes", "addr:city": "PENNSBORO", "addr:country": "US", "addr:full": "202 CLAYTON ST", "addr:postcode": "26415", "addr:state": "WV", "amenity": "post_box", "brand": "United States Postal Service", "brand:wikidata": "Q668687", "collection_times": "Mo-Fr 16:00; Sa 11:00", "name": "USPS COLLECTION BOX - PO LOBBY", "note": "ON 12/24 AND 12/31, THIS BOX MAY BE COLLECTED AS EARLY AS 12 NOON.", "nsi_id": "unitedstatespostalservice-a77078", "operator": "United States Postal Service", "operator:short": "USPS", "operator:type": "public", "operator:wikidata": "Q668687", "ref": "2641500008"}, "type": "Feature"}
{"geometry": {"coordinates": [-80.0409146, 39.1531578], "type": "Point"}, "id": "i8YT7-F3j7_H4LYLsmmtZjh_gIk=", "properties": {"@spider": "usps_collection_boxes", "addr:city": "PHILIPPI", "addr:country": "US", "addr:full": "105 S RAILROAD ST", "addr:postcode": "26416", "addr:state": "WV", "amenity": "post_box", "brand": "United States Postal Service", "brand:wikidata": "Q668687", "collection_times": "Mo-Fr 16:15; Sa 12:00", "name": "USPS COLLECTION BOX - BLUE BOX", "note": "ON 12/24 AND 12/31, THIS BOX MAY BE COLLECTED AS EARLY AS 12 NOON.", "nsi_id": "unitedstatespostalservice-a77078", "operator": "United States Postal Service", "operator:short": "USPS", "operator:type": "public", "operator:wikidata": "Q668687", "ref": "2641600002"}, "type": "Feature"}
{"geometry": {"coordinates": [-80.0409146, 39.1531578], "type": "Point"}, "id": "5EMX7ebbTQipgPWko2Irv3_Xpyc=", "properties": {"@spider": "usps_collection_boxes", "addr:city": "PHILIPPI", "addr:country": "US", "addr:full": "105 S RAILROAD ST", "addr:postcode": "26416", "addr:state": "WV", "amenity": "post_box", "brand": "United States Postal Service", "brand:wikidata": "Q668687", "collection_times": "Mo-Fr 16:30; Sa 12:00", "name": "USPS COLLECTION BOX - PO LOBBY", "note": "ON 12/24 AND 12/31, THIS BOX MAY BE COLLECTED AS EARLY AS 12 NOON.", "nsi_id": "unitedstatespostalservice-a77078", "operator": "United States Postal Service", "operator:short": "USPS", "operator:type": "public", "operator:wikidata": "Q668687", "ref": "2641600011"}, "type": "Feature"}
{"geometry": {"coordinates": [-80.0409146, 39.1531578], "type": "Point"}, "id": "MAQLlTMQR3BFl3sYALmfWG3i-Ts=", "properties": {"@spider": "usps_collection_boxes", "addr:city": "PHILIPPI", "addr:country": "US", "addr:full": "105 S RAILROAD ST", "addr:postcode": "26416", "addr:state": "WV", "amenity": "post_box", "brand": "United States Postal Service", "brand:wikidata": "Q668687", "collection_times": "Mo-Fr 16:30; Sa 12:00", "name": "USPS COLLECTION BOX - PO LOBBY", "note": "ON 12/24 AND 12/31, THIS BOX MAY BE COLLECTED AS EARLY AS 12 NOON.", "nsi_id": "unitedstatespostalservice-a77078", "operator": "United States Postal Service", "operator:short": "USPS", "operator:type": "public", "operator:wikidata": "Q668687", "ref": "2641600015"}, "type": "Feature"}
{"geometry": {"coordinates": [-80.678779, 39.56343], "type": "Point"}, "id": "X2uunm554c63CinqgYRuxRH6DJo=", "properties": {"@spider": "usps_collection_boxes", "addr:city": "PINE GROVE", "addr:country": "US", "addr:full": "35 TRIPLEX ST", "addr:postcode": "26419", "addr:state": "WV", "amenity": "post_box", "brand": "United States Postal Service", "brand:wikidata": "Q668687", "collection_times": "Mo-Fr 15:30; Sa 09:30", "name": "USPS COLLECTION BOX - BLUE BOX", "note": "ON 12/24 AND 12/31, THIS BOX MAY BE COLLECTED AS EARLY AS 12 NOON.", "nsi_id": "unitedstatespostalservice-a77078", "operator": "United States Postal Service", "operator:short": "USPS", "operator:type": "public", "operator:wikidata": "Q668687", "ref": "2641900000"}, "type": "Feature"}
{"geometry": {"coordinates": [-80.678779, 39.56343], "type": "Point"}, "id": "zd0Smrj25rVzeREDRxPBbdaols8=", "properties": {"@spider": "usps_collection_boxes", "addr:city": "PINE GROVE", "addr:country": "US", "addr:full": "35 TRIPLEX ST", "addr:postcode": "26419", "addr:state": "WV", "amenity": "post_box", "brand": "United States Postal Service", "brand:wikidata": "Q668687", "collection_times": "Mo-Fr 15:30; Sa 09:30", "name": "USPS COLLECTION BOX - PO LOBBY", "note": "ON 12/24 AND 12/31, THIS BOX MAY BE COLLECTED AS EARLY AS 12 NOON.", "nsi_id": "unitedstatespostalservice-a77078", "operator": "United States Postal Service", "operator:short": "USPS", "operator:type": "public", "operator:wikidata": "Q668687", "ref": "2641900001"}, "type": "Feature"}
{"geometry": {"coordinates": [-80.67924841, 39.563294148], "type": "Point"}, "id": "FqquvjIAw6uxBG1DmN-KfdA7o9M=", "properties": {"@spider": "usps_collection_boxes", "addr:city": "PINE GROVE", "addr:country": "US", "addr:full": "35 TRIPLEX ST", "addr:postcode": "26419", "addr:state": "WV", "amenity": "post_box", "brand": "United States Postal Service", "brand:wikidata": "Q668687", "collection_times": "Mo-Fr 16:00; Sa 10:00", "name": "USPS COLLECTION BOX - PO LOBBY", "note": "ON 12/24 AND 12/31, THIS BOX MAY BE COLLECTED AS EARLY AS 12 NOON.", "nsi_id": "unitedstatespostalservice-a77078", "operator": "United States Postal Service", "operator:short": "USPS", "operator:type": "public", "operator:wikidata": "Q668687", "ref": "2641900003"}, "type": "Feature"}
{"geometry": {"coordinates": [-80.9508930151, 39.186628982], "type": "Point"}, "id": "xjzWBIEH3nBxUU-hmK2AbgP1VmU=", "properties": {"@spider": "usps_collection_boxes", "addr:city": "PULLMAN", "addr:country": "US", "addr:full": "307 MAIN ST", "addr:postcode": "26421", "addr:state": "WV", "amenity": "post_box", "brand": "United States Postal Service", "brand:wikidata": "Q668687", "collection_times": "Mo-Fr 12:30; Sa 10:30", "name": "USPS COLLECTION BOX - BLUE BOX", "note": "ON 12/24 AND 12/31, THIS BOX MAY BE COLLECTED AS EARLY AS 12 NOON.", "nsi_id": "unitedstatespostalservice-a77078", "operator": "United States Postal Service", "operator:short": "USPS", "operator:type": "public", "operator:wikidata": "Q668687", "ref": "2642100000"}, "type": "Feature"}
{"geometry": {"coordinates": [-80.9508930151, 39.186628982], "type": "Point"}, "id": "SpS1L4YdTbDMrovrYPJCzsTuCts=", "properties": {"@spider": "usps_collection_boxes", "addr:city": "PULLMAN", "addr:country": "US", "addr:full": "307 MAIN ST", "addr:postcode": "26421", "addr:state": "WV", "amenity": "post_box", "brand": "United States Postal Service", "brand:wikidata": "Q668687", "collection_times": "Mo-Fr 12:30; Sa 10:30", "name": "USPS COLLECTION BOX - PO LOBBY", "note": "ON 12/24 AND 12/31, THIS BOX MAY BE COLLECTED AS EARLY AS 12 NOON.", "nsi_id": "unitedstatespostalservice-a77078", "operator": "United States Postal Service", "operator:short": "USPS", "operator:type": "public", "operator:wikidata": "Q668687", "ref": "2642100001"}, "type": "Feature"}
{"geometry": {"coordinates": [-80.9508930151, 39.186628982], "type": "Point"}, "id": "Ac9rY2UriE7XRON-QYj_E0cvSMQ=", "properties": {"@spider": "usps_collection_boxes", "addr:city": "PULLMAN", "addr:country": "US", "addr:full": "307 MAIN ST", "addr:postcode": "26421", "addr:state": "WV", "amenity": "post_box", "brand": "United States Postal Service", "brand:wikidata": "Q668687", "collection_times": "Mo-Fr 13:00; Sa 10:45", "name": "USPS COLLECTION BOX - PO LOBBY", "note": "ON 12/24 AND 12/31, THIS BOX MAY BE COLLECTED AS EARLY AS 12 NOON.", "nsi_id": "unitedstatespostalservice-a77078", "operator": "United States Postal Service", "operator:short": "USPS", "operator:type": "public", "operator:wikidata": "Q668687", "ref": "2642100003"}, "type": "Feature"}
{"geometry": {"coordinates": [-80.43489, 39.288363], "type": "Point"}, "id": "2UJSOf_c584rzp6DhzCuffPXycA=", "properties": {"@spider": "usps_collection_boxes", "addr:city": "REYNOLDSVILLE", "addr:country": "US", "addr:full": "24 GLADYS HOLLOW RD", "addr:postcode": "26422", "addr:state": "WV", "amenity": "post_box", "brand": "United States Postal Service", "brand:wikidata": "Q668687", "collection_times": "Mo-Fr 11:30; Sa 09:30", "name": "USPS COLLECTION BOX - BLUE BOX", "nsi_id": "unitedstatespostalservice-a77078", "operator": "United States Postal Service", "operator:short": "USPS", "operator:type": "public", "operator:wikidata": "Q668687", "ref": "2642200000"}, "type": "Feature"}
{"geometry": {"coordinates": [-80.43489, 39.288363], "type": "Point"}, "id": "hz_iGrma7UhRIMosG5nnz31GqnE=", "properties": {"@spider": "usps_collection_boxes", "addr:city": "REYNOLDSVILLE", "addr:country": "US", "addr:full": "24 GLADYS HOLLOW RD", "addr:postcode": "26422", "addr:state": "WV", "amenity": "post_box", "brand": "United States Postal Service", "brand:wikidata": "Q668687", "collection_times": "Mo-Fr 11:30; Sa 09:30", "name": "USPS COLLECTION BOX - PO LOBBY", "nsi_id": "unitedstatespostalservice-a77078", "operator": "United States Postal Service", "operator:short": "USPS", "operator:type": "public", "operator:wikidata": "Q668687", "ref": "2642200001"}, "type": "Feature"}
{"geometry": {"coordinates": [-80.434970634, 39.288738499], "type": "Point"}, "id": "b3Q80xCJXo_wlUrsXserOIzJemU=", "properties": {"@spider": "usps_collection_boxes", "addr:city": "REYNOLDSVILLE", "addr:country": "US", "addr:full": "24 GLADYS HOLLOW RD", "addr:postcode": "26422", "addr:state": "WV", "amenity": "post_box", "brand": "United States Postal Service", "brand:wikidata": "Q668687", "collection_times": "Mo-Fr 12:00; Sa 10:00", "name": "USPS COLLECTION BOX - PO LOBBY", "nsi_id": "unitedstatespostalservice-a77078", "operator": "United States Postal Service", "operator:short": "USPS", "operator:type": "public", "operator:wikidata": "Q668687", "ref": "2642200003"}, "type": "Feature"}
{"geometry": {"coordinates": [-80.175307, 39.272554], "type": "Point"}, "id": "j6BE-DsPjgxGT5DENHXb9-j5Qr0=", "properties": {"@spider": "usps_collection_boxes", "addr:city": "ROSEMONT", "addr:country": "US", "addr:full": "1791 W VETERANS MEMORIAL HWY", "addr:postcode": "26424", "addr:state": "WV", "amenity": "post_box", "brand": "United States Postal Service", "brand:wikidata": "Q668687", "collection_times": "Mo-Fr 11:30; Sa 10:00", "name": "USPS COLLECTION BOX - BLUE BOX", "nsi_id": "unitedstatespostalservice-a77078", "operator": "United States Postal Service", "operator:short": "USPS", "operator:type": "public", "operator:wikidata": "Q668687", "ref": "2642400000"}, "type": "Feature"}
{"geometry": {"coordinates": [-80.175307, 39.272554], "type": "Point"}, "id": "70elXawS8imzGvlNoIneWFK4rhI=", "properties": {"@spider": "usps_collection_boxes", "addr:city": "ROSEMONT", "addr:country": "US", "addr:full": "1791 W VETERANS MEMORIAL HWY", "addr:postcode": "26424", "addr:state": "WV", "amenity": "post_box", "brand": "United States Postal Service", "brand:wikidata": "Q668687", "collection_times": "Mo-Fr 11:30; Sa 10:00", "name": "USPS COLLECTION BOX - PO LOBBY", "nsi_id": "unitedstatespostalservice-a77078", "operator": "United States Postal Service", "operator:short": "USPS", "operator:type": "public", "operator:wikidata": "Q668687", "ref": "2642400001"}, "type": "Feature"}
{"geometry": {"coordinates": [-80.158893617, 39.269157806], "type": "Point"}, "id": "3MJue7L1EY9fMMGy-Xpdcb1fM6E=", "properties": {"@spider": "usps_collection_boxes", "addr:city": "ROSEMONT", "addr:country": "US", "addr:full": "1791 W VETERANS MEMORIAL HWY", "addr:postcode": "26424", "addr:state": "WV", "amenity": "post_box", "brand": "United States Postal Service", "brand:wikidata": "Q668687", "collection_times": "Mo-Fr 12:00; Sa 10:30", "name": "USPS COLLECTION BOX - PO LOBBY", "nsi_id": "unitedstatespostalservice-a77078", "operator": "United States Postal Service", "operator:short": "USPS", "operator:type": "public", "operator:wikidata": "Q668687", "ref": "2642400003"}, "type": "Feature"}
{"geometry": {"coordinates": [-79.667911, 39.346639], "type": "Point"}, "id": "7VoJ__2HNtTAuQRQzeNJy92ZjP4=", "properties": {"@spider": "usps_collection_boxes", "addr:city": "ROWLESBURG", "addr:country": "US", "addr:full": "21 CHESSIE LN", "addr:postcode": "26425", "addr:state": "WV", "amenity": "post_box", "brand": "United States Postal Service", "brand:wikidata": "Q668687", "collection_times": "Mo-Fr 15:30; Sa 08:45", "name": "USPS COLLECTION BOX - BLUE BOX", "note": "ON 12/24 AND 12/31, THIS BOX MAY BE COLLECTED AS EARLY AS 12 NOON.", "nsi_id": "unitedstatespostalservice-a77078", "operator": "United States Postal Service", "operator:short": "USPS", "operator:type": "public", "operator:wikidata": "Q668687", "ref": "2642500000"}, "type": "Feature"}
{"geometry": {"coordinates": [-79.667791, 39.346654], "type": "Point"}, "id": "T7fJU375prUYnR3atMWApxD3j14=", "properties": {"@spider": "usps_collection_boxes", "addr:city": "ROWLESBURG", "addr:country": "US", "addr:full": "21 CHESSIE LN", "addr:postcode": "26425", "addr:state": "WV", "amenity": "post_box", "brand": "United States Postal Service", "brand:wikidata": "Q668687", "collection_times": "Mo-Fr 15:30; Sa 08:45", "name": "USPS COLLECTION BOX - PO LOBBY", "note": "ON 12/24 AND 12/31, THIS BOX MAY BE COLLECTED AS EARLY AS 12 NOON.", "nsi_id": "unitedstatespostalservice-a77078", "operator": "United States Postal Service", "operator:short": "USPS", "operator:type": "public", "operator:wikidata": "Q668687", "ref": "2642500001"}, "type": "Feature"}
{"geometry": {"coordinates": [-79.667879636, 39.346646436], "type": "Point"}, "id": "0Gq_Z33OY17ZfOkmJImUew_f8Iw=", "properties": {"@spider": "usps_collection_boxes", "addr:city": "ROWLESBURG", "addr:country": "US", "addr:full": "21 CHESSIE LN", "addr:postcode": "26425", "addr:state": "WV", "amenity": "post_box", "brand": "United States Postal Service", "brand:wikidata": "Q668687", "collection_times": "Mo-Fr 15:30; Sa 10:00", "name": "USPS COLLECTION BOX - PO LOBBY", "note": "ON 12/24 AND 12/31, THIS BOX MAY BE COLLECTED AS EARLY AS 12 NOON.", "nsi_id": "unitedstatespostalservice-a77078", "operator": "United States Postal Service", "operator:short": "USPS", "operator:type": "public", "operator:wikidata": "Q668687", "ref": "2642500003"}, "type": "Feature"}
{"geometry": {"coordinates": [-80.5628427, 39.285225], "type": "Point"}, "id": "XEgZHGYDLNuHK3t6tTU9Dx99Nhs=", "properties": {"@spider": "usps_collection_boxes", "addr:city": "SALEM", "addr:country": "US", "addr:full": "105 NEW YORK AVE", "addr:postcode": "26426", "addr:state": "WV", "amenity": "post_box", "brand": "United States Postal Service", "brand:wikidata": "Q668687", "collection_times": "Mo-Sa 10:00", "name": "USPS COLLECTION BOX - BLUE BOX", "nsi_id": "unitedstatespostalservice-a77078", "operator": "United States Postal Service", "operator:short": "USPS", "operator:type": "public", "operator:wikidata": "Q668687", "ref": "2642600002"}, "type": "Feature"}
{"geometry": {"coordinates": [-80.565649, 39.283219], "type": "Point"}, "id": "tcR8xqXAUybpW4BHaO_EqjAbvRE=", "properties": {"@spider": "usps_collection_boxes", "addr:city": "SALEM", "addr:country": "US", "addr:full": "223 W MAIN ST", "addr:postcode": "26426", "addr:state": "WV", "amenity": "post_box", "brand": "United States Postal Service", "brand:wikidata": "Q668687", "collection_times": "Mo-Sa 10:00", "name": "USPS COLLECTION BOX - BLUE BOX", "nsi_id": "unitedstatespostalservice-a77078", "operator": "United States Postal Service", "operator:short": "USPS", "operator:type": "public", "operator:wikidata": "Q668687", "ref": "2642600003"}, "type": "Feature"}
{"geometry": {"coordinates": [-80.560720719, 39.282871472], "type": "Point"}, "id": "Xbf4ZcPVFM6Y-n-Tfapc7UfWCQ0=", "properties": {"@spider": "usps_collection_boxes", "addr:city": "SALEM", "addr:country": "US", "addr:full": "147 W MAIN ST", "addr:postcode": "26426", "addr:state": "WV", "amenity": "post_box", "brand": "United States Postal Service", "brand:wikidata": "Q668687", "collection_times": "Mo-Fr 16:15; Sa 10:30", "name": "USPS COLLECTION BOX - BLUE BOX", "note": "ON 12/24 AND 12/31, THIS BOX MAY BE COLLECTED AS EARLY AS 12 NOON.", "nsi_id": "unitedstatespostalservice-a77078", "operator": "United States Postal Service", "operator:short": "USPS", "operator:type": "public", "operator:wikidata": "Q668687", "ref": "2642600007"}, "type": "Feature"}
{"geometry": {"coordinates": [-80.5555566, 39.281816], "type": "Point"}, "id": "EbBa0-xyo1eoAPHufUfnArhqFLE=", "properties": {"@spider": "usps_collection_boxes", "addr:city": "SALEM", "addr:country": "US", "addr:full": "158 E MAIN ST", "addr:postcode": "26426", "addr:state": "WV", "amenity": "post_box", "brand": "United States Postal Service", "brand:wikidata": "Q668687", "collection_times": "Mo-Sa 10:00", "name": "USPS COLLECTION BOX - BLUE BOX", "nsi_id": "unitedstatespostalservice-a77078", "operator": "United States Postal Service", "operator:short": "USPS", "operator:type": "public", "operator:wikidata": "Q668687", "ref": "2642600008"}, "type": "Feature"}
{"geometry": {"coordinates": [-80.560720719, 39.282871472], "type": "Point"}, "id": "8_v7Z5ZP2CHr-GOjmzCLNk8M5yY=", "properties": {"@spider": "usps_collection_boxes", "addr:city": "SALEM", "addr:country": "US", "addr:full": "147 W MAIN ST", "addr:postcode": "26426", "addr:state": "WV", "amenity": "post_box", "brand": "United States Postal Service", "brand:wikidata": "Q668687", "collection_times": "Mo-Fr 16:15; Sa 10:45", "name": "USPS COLLECTION BOX - PO LOBBY", "note": "ON 12/24 AND 12/31, THIS BOX MAY BE COLLECTED AS EARLY AS 12 NOON.", "nsi_id": "unitedstatespostalservice-a77078", "operator": "United States Postal Service", "operator:short": "USPS", "operator:type": "public", "operator:wikidata": "Q668687", "ref": "2642600009"}, "type": "Feature"}
{"geometry": {"coordinates": [-80.560720719, 39.282871472], "type": "Point"}, "id": "bLpSphyI54hefFgZaSIrZYshiGM=", "properties": {"@spider": "usps_collection_boxes", "addr:city": "SALEM", "addr:country": "US", "addr:full": "147 W MAIN ST", "addr:postcode": "26426", "addr:state": "WV", "amenity": "post_box", "brand": "United States Postal Service", "brand:wikidata": "Q668687", "collection_times": "Mo-Fr 16:30; Sa 11:00", "name": "USPS COLLECTION BOX - PO LOBBY", "note": "ON 12/24 AND 12/31, THIS BOX MAY BE COLLECTED AS EARLY AS 12 NOON.", "nsi_id": "unitedstatespostalservice-a77078", "operator": "United States Postal Service", "operator:short": "USPS", "operator:type": "public", "operator:wikidata": "Q668687", "ref": "2642600011"}, "type": "Feature"}
{"geometry": {"coordinates": [-80.705298, 38.876843], "type": "Point"}, "id": "-VWqpl1I_RaLXQPIVWpBxz_Z6g4=", "properties": {"@spider": "usps_collection_boxes", "addr:city": "SANDFORK", "addr:country": "US", "addr:full": "5383 WV HIGHWAY 5 E", "addr:postcode": "26430", "addr:state": "WV", "amenity": "post_box", "brand": "United States Postal Service", "brand:wikidata": "Q668687", "collection_times": "Mo-Fr 12:45; Sa 10:45", "name": "USPS COLLECTION BOX - BLUE BOX", "note": "ON 12/24 AND 12/31, THIS BOX MAY BE COLLECTED AS EARLY AS 12 NOON.", "nsi_id": "unitedstatespostalservice-a77078", "operator": "United States Postal Service", "operator:short": "USPS", "operator:type": "public", "operator:wikidata": "Q668687", "ref": "2643000000"}, "type": "Feature"}
{"geometry": {"coordinates": [-80.750487, 38.914891], "type": "Point"}, "id": "FfvF1cYI80DgZ8nR5Ct3hGkVfWg=", "properties": {"@spider": "usps_collection_boxes", "addr:city": "SANDFORK", "addr:country": "US", "addr:full": "5383 WV HIGHWAY 5 E", "addr:postcode": "26430", "addr:state": "WV", "amenity": "post_box", "brand": "United States Postal Service", "brand:wikidata": "Q668687", "collection_times": "Mo-Fr 12:45; Sa 10:45", "name": "USPS COLLECTION BOX - PO LOBBY", "note": "ON 12/24 AND 12/31, THIS BOX MAY BE COLLECTED AS EARLY AS 12 NOON.", "nsi_id": "unitedstatespostalservice-a77078", "operator": "United States Postal Service", "operator:short": "USPS", "operator:type": "public", "operator:wikidata": "Q668687", "ref": "2643000001"}, "type": "Feature"}
{"geometry": {"coordinates": [-80.910570445, 38.961514412], "type": "Point"}, "id": "dMv2p0jslC9ZMrziGG-zi3hChhk=", "properties": {"@spider": "usps_collection_boxes", "addr:city": "SANDFORK", "addr:country": "US", "addr:full": "5383 WV HIGHWAY 5 E STE A", "addr:postcode": "26430", "addr:state": "WV", "amenity": "post_box", "brand": "United States Postal Service", "brand:wikidata": "Q668687", "collection_times": "Mo-Fr 13:00; Sa 11:00", "name": "USPS COLLECTION BOX - PO LOBBY", "note": "ON 12/24 AND 12/31, THIS BOX MAY BE COLLECTED AS EARLY AS 12 NOON.", "nsi_id": "unitedstatespostalservice-a77078", "operator": "United States Postal Service", "operator:short": "USPS", "operator:type": "public", "operator:wikidata": "Q668687", "ref": "2643000003"}, "type": "Feature"}
{"geometry": {"coordinates": [-80.297133387, 39.400884315], "type": "Point"}, "id": "-hp90HFPrQm0MQqqTAoQIu3WjsU=", "properties": {"@spider": "usps_collection_boxes", "addr:city": "SHINNSTON", "addr:country": "US", "addr:full": "1001 HOOD AVE", "addr:postcode": "26431", "addr:state": "WV", "amenity": "post_box", "brand": "United States Postal Service", "brand:wikidata": "Q668687", "collection_times": "Mo-Fr 15:45; Sa 14:00", "name": "USPS COLLECTION BOX - BLUE BOX", "note": "ON 12/24 AND 12/31, THIS BOX MAY BE COLLECTED AS EARLY AS 12 NOON.", "nsi_id": "unitedstatespostalservice-a77078", "operator": "United States Postal Service", "operator:short": "USPS", "operator:type": "public", "operator:wikidata": "Q668687", "ref": "2643100000"}, "type": "Feature"}
{"geometry": {"coordinates": [-80.3003099, 39.395975], "type": "Point"}, "id": "gaqiFcWeoB7IU3lfGD2ZNIivSlU=", "properties": {"@spider": "usps_collection_boxes", "addr:city": "SHINNSTON", "addr:country": "US", "addr:full": "412 PIKE ST", "addr:postcode": "26431", "addr:state": "WV", "amenity": "post_box", "brand": "United States Postal Service", "brand:wikidata": "Q668687", "collection_times": "Mo-Fr 14:00; Sa 13:00", "name": "USPS COLLECTION BOX - BLUE BOX", "note": "ON 12/24 AND 12/31, THIS BOX MAY BE COLLECTED AS EARLY AS 12 NOON.", "nsi_id": "unitedstatespostalservice-a77078", "operator": "United States Postal Service", "operator:short": "USPS", "operator:type": "public", "operator:wikidata": "Q668687", "ref": "2643100001"}, "type": "Feature"}
{"geometry": {"coordinates": [-80.3070876925, 39.3885617838], "type": "Point"}, "id": "vbY-eJrIAYZCAD-r3WMSrpk0LjI=", "properties": {"@spider": "usps_collection_boxes", "addr:city": "SHINNSTON", "addr:country": "US", "addr:full": "540 S PIKE ST", "addr:postcode": "26431", "addr:state": "WV", "amenity": "post_box", "brand": "United States Postal Service", "brand:wikidata": "Q668687", "collection_times": "Mo-Fr 13:00; Sa 12:00", "name": "USPS COLLECTION BOX - BLUE BOX", "note": "ON 12/24 AND 12/31, THIS BOX MAY BE COLLECTED AS EARLY AS 12 NOON.", "nsi_id": "unitedstatespostalservice-a77078", "operator": "United States Postal Service", "operator:short": "USPS", "operator:type": "public", "operator:wikidata": "Q668687", "ref": "2643100007"}, "type": "Feature"}
{"geometry": {"coordinates": [-80.297133387, 39.400884315], "type": "Point"}, "id": "UIx0xHuAjdP1ahirVJmyr8Vr9Dg=", "properties": {"@spider": "usps_collection_boxes", "addr:city": "SHINNSTON", "addr:country": "US", "addr:full": "1001 HOOD AVE", "addr:postcode": "26431", "addr:state": "WV", "amenity": "post_box", "brand": "United States Postal Service", "brand:wikidata": "Q668687", "collection_times": "Mo-Fr 16:00; Sa 10:00", "name": "USPS COLLECTION BOX - PO LOBBY", "note": "ON 12/24 AND 12/31, THIS BOX MAY BE COLLECTED AS EARLY AS 12 NOON.", "nsi_id": "unitedstatespostalservice-a77078", "operator": "United States Postal Service", "operator:short": "USPS", "operator:type": "public", "operator:wikidata": "Q668687", "ref": "2643100010"}, "type": "Feature"}
{"geometry": {"coordinates": [-80.297133387, 39.400884315], "type": "Point"}, "id": "J_6ElI-8R-7BX5ur382asub6N-Q=", "properties": {"@spider": "usps_collection_boxes", "addr:city": "SHINNSTON", "addr:country": "US", "addr:full": "1001 HOOD AVE", "addr:postcode": "26431", "addr:state": "WV", "amenity": "post_box", "brand": "United States Postal Service", "brand:wikidata": "Q668687", "collection_times": "Mo-Fr 16:00; Sa 10:00", "name": "USPS COLLECTION BOX - PO LOBBY", "note": "ON 12/24 AND 12/31, THIS BOX MAY BE COLLECTED AS EARLY AS 12 NOON.", "nsi_id": "unitedstatespostalservice-a77078", "operator": "United States Postal Service", "operator:short": "USPS", "operator:type": "public", "operator:wikidata": "Q668687", "ref": "2643100012"}, "type": "Feature"}
{"geometry": {"coordinates": [-80.093664, 39.266849], "type": "Point"}, "id": "mRa9Z9F_QtMMOhl8UXB1iFb0V8g=", "properties": {"@spider": "usps_collection_boxes", "addr:city": "SIMPSON", "addr:country": "US", "addr:full": "2230 SIMPSON RD", "addr:postcode": "26435", "addr:state": "WV", "amenity": "post_box", "brand": "United States Postal Service", "brand:wikidata": "Q668687", "collection_times": "Mo-Fr 10:15; Sa 09:00", "name": "USPS COLLECTION BOX - BLUE BOX", "nsi_id": "unitedstatespostalservice-a77078", "operator": "United States Postal Service", "operator:short": "USPS", "operator:type": "public", "operator:wikidata": "Q668687", "ref": "2643500000"}, "type": "Feature"}
{"geometry": {"coordinates": [-80.093664, 39.266849], "type": "Point"}, "id": "KEwP9QBKfqVUSioPT2lc7DhcOHI=", "properties": {"@spider": "usps_collection_boxes", "addr:city": "SIMPSON", "addr:country": "US", "addr:full": "2230 SIMPSON RD", "addr:postcode": "26435", "addr:state": "WV", "amenity": "post_box", "brand": "United States Postal Service", "brand:wikidata": "Q668687", "collection_times": "Mo-Sa 09:00", "name": "USPS COLLECTION BOX - PO LOBBY", "nsi_id": "unitedstatespostalservice-a77078", "operator": "United States Postal Service", "operator:short": "USPS", "operator:type": "public", "operator:wikidata": "Q668687", "ref": "2643500001"}, "type": "Feature"}
{"geometry": {"coordinates": [-80.093891649, 39.267001366], "type": "Point"}, "id": "8Fu6L7sXUsmuObx-3zJPuhMwSMk=", "properties": {"@spider": "usps_collection_boxes", "addr:city": "SIMPSON", "addr:country": "US", "addr:full": "2230 SIMPSON RD", "addr:postcode": "26435", "addr:state": "WV", "amenity": "post_box", "brand": "United States Postal Service", "brand:wikidata": "Q668687", "collection_times": "Mo-Sa 10:30", "name": "USPS COLLECTION BOX - PO LOBBY", "nsi_id": "unitedstatespostalservice-a77078", "operator": "United States Postal Service", "operator:short": "USPS", "operator:type": "public", "operator:wikidata": "Q668687", "ref": "2643500003"}, "type": "Feature"}
{"geometry": {"coordinates": [-80.776735, 39.294304], "type": "Point"}, "id": "cUBWxMzgXLRaTxqRSNYGCfklxR0=", "properties": {"@spider": "usps_collection_boxes", "addr:city": "SMITHBURG", "addr:country": "US", "addr:full": "2809 SMITHTON RD", "addr:postcode": "26436", "addr:state": "WV", "amenity": "post_box", "brand": "United States Postal Service", "brand:wikidata": "Q668687", "collection_times": "Mo-Fr 12:00; Sa 09:30", "name": "USPS COLLECTION BOX - BLUE BOX", "nsi_id": "unitedstatespostalservice-a77078", "operator": "United States Postal Service", "operator:short": "USPS", "operator:type": "public", "operator:wikidata": "Q668687", "ref": "2643600000"}, "type": "Feature"}
{"geometry": {"coordinates": [-80.776735, 39.294304], "type": "Point"}, "id": "Pop5pv6jpEMpqkpoLmnV1qqEgxk=", "properties": {"@spider": "usps_collection_boxes", "addr:city": "SMITHBURG", "addr:country": "US", "addr:full": "2809 SMITHTON RD", "addr:postcode": "26436", "addr:state": "WV", "amenity": "post_box", "brand": "United States Postal Service", "brand:wikidata": "Q668687", "collection_times": "Mo-Fr 12:00; Sa 09:30", "name": "USPS COLLECTION BOX - PO LOBBY", "nsi_id": "unitedstatespostalservice-a77078", "operator": "United States Postal Service", "operator:short": "USPS", "operator:type": "public", "operator:wikidata": "Q668687", "ref": "2643600001"}, "type": "Feature"}
{"geometry": {"coordinates": [-80.663033235, 39.282770315], "type": "Point"}, "id": "u_EE6Hls8tfcaseJiQ74NqVYfp0=", "properties": {"@spider": "usps_collection_boxes", "addr:city": "SMITHBURG", "addr:country": "US", "addr:full": "2809 SMITHTON RD", "addr:postcode": "26436", "addr:state": "WV", "amenity": "post_box", "brand": "United States Postal Service", "brand:wikidata": "Q668687", "collection_times": "Mo-Fr 12:00; Sa 09:45", "name": "USPS COLLECTION BOX - PO LOBBY", "nsi_id": "unitedstatespostalservice-a77078", "operator": "United States Postal Service", "operator:short": "USPS", "operator:type": "public", "operator:wikidata": "Q668687", "ref": "2643600003"}, "type": "Feature"}
{"geometry": {"coordinates": [-80.562515, 39.501244], "type": "Point"}, "id": "ybE1r9VXdHoLvM_SnnzrY_7IJkk=", "properties": {"@spider": "usps_collection_boxes", "addr:city": "SMITHFIELD", "addr:country": "US", "addr:full": "86 MANNINGTON RD", "addr:postcode": "26437", "addr:state": "WV", "amenity": "post_box", "brand": "United States Postal Service", "brand:wikidata": "Q668687", "collection_times": "Mo-Fr 11:15; Sa 08:00", "name": "USPS COLLECTION BOX - BLUE BOX", "nsi_id": "unitedstatespostalservice-a77078", "operator": "United States Postal Service", "operator:short": "USPS", "operator:type": "public", "operator:wikidata": "Q668687", "ref": "2643700000"}, "type": "Feature"}
{"geometry": {"coordinates": [-80.6034616836, 39.4883630084], "type": "Point"}, "id": "OTMvuMAizbvTN61Ic0U7fAYedR0=", "properties": {"@spider": "usps_collection_boxes", "addr:city": "SMITHFIELD", "addr:country": "US", "addr:full": "86 MANNINGTON RD", "addr:postcode": "26437", "addr:state": "WV", "amenity": "post_box", "brand": "United States Postal Service", "brand:wikidata": "Q668687", "collection_times": "Mo-Fr 11:15; Sa 08:00", "name": "USPS COLLECTION BOX - PO LOBBY", "nsi_id": "unitedstatespostalservice-a77078", "operator": "United States Postal Service", "operator:short": "USPS", "operator:type": "public", "operator:wikidata": "Q668687", "ref": "2643700001"}, "type": "Feature"}
{"geometry": {"coordinates": [-80.56165167, 39.499640297], "type": "Point"}, "id": "NWRXzyW38Sf-saPt0heFiDnT0ig=", "properties": {"@spider": "usps_collection_boxes", "addr:city": "SMITHFIELD", "addr:country": "US", "addr:full": "86 MANNINGTON RD", "addr:postcode": "26437", "addr:state": "WV", "amenity": "post_box", "brand": "United States Postal Service", "brand:wikidata": "Q668687", "collection_times": "Mo-Fr 11:30", "name": "USPS COLLECTION BOX - PO LOBBY", "nsi_id": "unitedstatespostalservice-a77078", "operator": "United States Postal Service", "operator:short": "USPS", "operator:type": "public", "operator:wikidata": "Q668687", "ref": "2643700003"}, "type": "Feature"}
{"geometry": {"coordinates": [-80.318055, 39.34707], "type": "Point"}, "id": "od_Mn_t7TQfzo3U4UtXvaNrxgws=", "properties": {"@spider": "usps_collection_boxes", "addr:city": "SPELTER", "addr:country": "US", "addr:full": "24 LEO MENENDEZ DR", "addr:postcode": "26438", "addr:state": "WV", "amenity": "post_box", "brand": "United States Postal Service", "brand:wikidata": "Q668687", "collection_times": "Mo-Fr 09:45; Sa 10:00", "name": "USPS COLLECTION BOX - BLUE BOX", "nsi_id": "unitedstatespostalservice-a77078", "operator": "United States Postal Service", "operator:short": "USPS", "operator:type": "public", "operator:wikidata": "Q668687", "ref": "2643800000"}, "type": "Feature"}
{"geometry": {"coordinates": [-80.318055, 39.34707], "type": "Point"}, "id": "DCf52NLrgT4qWzZ5AwnCubuupjo=", "properties": {"@spider": "usps_collection_boxes", "addr:city": "SPELTER", "addr:country": "US", "addr:full": "24 LEO MENENDEZ DR", "addr:postcode": "26438", "addr:state": "WV", "amenity": "post_box", "brand": "United States Postal Service", "brand:wikidata": "Q668687", "collection_times": "Mo-Fr 09:45; Sa 10:00", "name": "USPS COLLECTION BOX - PO LOBBY", "nsi_id": "unitedstatespostalservice-a77078", "operator": "United States Postal Service", "operator:short": "USPS", "operator:type": "public", "operator:wikidata": "Q668687", "ref": "2643800001"}, "type": "Feature"}
{"geometry": {"coordinates": [-80.317977391, 39.346894687], "type": "Point"}, "id": "ztrfqzEfaS0BemCCmTZEkd2U63o=", "properties": {"@spider": "usps_collection_boxes", "addr:city": "SPELTER", "addr:country": "US", "addr:full": "24 LEO MENENDEZ DR", "addr:postcode": "26438", "addr:state": "WV", "amenity": "post_box", "brand": "United States Postal Service", "brand:wikidata": "Q668687", "collection_times": "Mo-Fr 12:00", "name": "USPS COLLECTION BOX - PO LOBBY", "nsi_id": "unitedstatespostalservice-a77078", "operator": "United States Postal Service", "operator:short": "USPS", "operator:type": "public", "operator:wikidata": "Q668687", "ref": "2643800003"}, "type": "Feature"}
{"geometry": {"coordinates": [-79.937403, 39.342932], "type": "Point"}, "id": "-zGVFrqTzfrsTDa6A0dbk65p9mE=", "properties": {"@spider": "usps_collection_boxes", "addr:city": "THORNTON", "addr:country": "US", "addr:full": "3990 THORTON PIKE", "addr:postcode": "26440", "addr:state": "WV", "amenity": "post_box", "brand": "United States Postal Service", "brand:wikidata": "Q668687", "collection_times": "Mo-Fr 12:30; Sa 09:45", "name": "USPS COLLECTION BOX - PO LOBBY", "note": "ON 12/24 AND 12/31, THIS BOX MAY BE COLLECTED AS EARLY AS 12 NOON.", "nsi_id": "unitedstatespostalservice-a77078", "operator": "United States Postal Service", "operator:short": "USPS", "operator:type": "public", "operator:wikidata": "Q668687", "ref": "2644000001"}, "type": "Feature"}
{"geometry": {"coordinates": [-79.937381202, 39.342855896], "type": "Point"}, "id": "Ov4ochXcMxzwMyFqN2C7Vd4Opv8=", "properties": {"@spider": "usps_collection_boxes", "addr:city": "THORNTON", "addr:country": "US", "addr:full": "3990 THORTON PIKE", "addr:postcode": "26440", "addr:state": "WV", "amenity": "post_box", "brand": "United States Postal Service", "brand:wikidata": "Q668687", "collection_times": "Mo-Fr 13:00; Sa 11:00", "name": "USPS COLLECTION BOX - PO LOBBY", "note": "ON 12/24 AND 12/31, THIS BOX MAY BE COLLECTED AS EARLY AS 12 NOON.", "nsi_id": "unitedstatespostalservice-a77078", "operator": "United States Postal Service", "operator:short": "USPS", "operator:type": "public", "operator:wikidata": "Q668687", "ref": "2644000003"}, "type": "Feature"}
{"geometry": {"coordinates": [-80.764216, 39.020088], "type": "Point"}, "id": "kvAEzFl9w0sHysRh_1zzKjnSdKM=", "properties": {"@spider": "usps_collection_boxes", "addr:city": "TROY", "addr:country": "US", "addr:full": "3055 WV HIGHWAY 47 W", "addr:postcode": "26443", "addr:state": "WV", "amenity": "post_box", "brand": "United States Postal Service", "brand:wikidata": "Q668687", "collection_times": "Mo-Fr 11:45; Sa 10:15", "name": "USPS COLLECTION BOX - BLUE BOX", "nsi_id": "unitedstatespostalservice-a77078", "operator": "United States Postal Service", "operator:short": "USPS", "operator:type": "public", "operator:wikidata": "Q668687", "ref": "2644300000"}, "type": "Feature"}
{"geometry": {"coordinates": [-80.764216, 39.020088], "type": "Point"}, "id": "JO3DtFuobmKqaB7prb1o_Hc4kmI=", "properties": {"@spider": "usps_collection_boxes", "addr:city": "TROY", "addr:country": "US", "addr:full": "3055 WV HIGHWAY 47 W", "addr:postcode": "26443", "addr:state": "WV", "amenity": "post_box", "brand": "United States Postal Service", "brand:wikidata": "Q668687", "collection_times": "Mo-Fr 11:45; Sa 10:15", "name": "USPS COLLECTION BOX - PO LOBBY", "nsi_id": "unitedstatespostalservice-a77078", "operator": "United States Postal Service", "operator:short": "USPS", "operator:type": "public", "operator:wikidata": "Q668687", "ref": "2644300001"}, "type": "Feature"}
{"geometry": {"coordinates": [-80.768637144, 39.069759286], "type": "Point"}, "id": "VUX1Cp-9FLb35rCW8IaKu7Yu4NE=", "properties": {"@spider": "usps_collection_boxes", "addr:city": "TROY", "addr:country": "US", "addr:full": "3055 WV HIGHWAY 47 W", "addr:postcode": "26443", "addr:state": "WV", "amenity": "post_box", "brand": "United States Postal Service", "brand:wikidata": "Q668687", "collection_times": "Mo-Fr 12:00; Sa 10:30", "name": "USPS COLLECTION BOX - PO LOBBY", "nsi_id": "unitedstatespostalservice-a77078", "operator": "United States Postal Service", "operator:short": "USPS", "operator:type": "public", "operator:wikidata": "Q668687", "ref": "2644300003"}, "type": "Feature"}
{"geometry": {"coordinates": [-79.748, 39.391597], "type": "Point"}, "id": "IVNQAnWGf_oIWFY3vvpp7LrFByk=", "properties": {"@spider": "usps_collection_boxes", "addr:city": "TUNNELTON", "addr:country": "US", "addr:full": "24 BANK ST", "addr:postcode": "26444", "addr:state": "WV", "amenity": "post_box", "brand": "United States Postal Service", "brand:wikidata": "Q668687", "collection_times": "Mo-Fr 12:30; Sa 11:30", "name": "USPS COLLECTION BOX - BLUE BOX", "note": "ON 12/24 AND 12/31, THIS BOX MAY BE COLLECTED AS EARLY AS 12 NOON.", "nsi_id": "unitedstatespostalservice-a77078", "operator": "United States Postal Service", "operator:short": "USPS", "operator:type": "public", "operator:wikidata": "Q668687", "ref": "2644400000"}, "type": "Feature"}
{"geometry": {"coordinates": [-79.748066, 39.391575], "type": "Point"}, "id": "oYcUaNtGtNGzQ0O0ZB8wRDDsWJ8=", "properties": {"@spider": "usps_collection_boxes", "addr:city": "TUNNELTON", "addr:country": "US", "addr:full": "24 BANK ST", "addr:postcode": "26444", "addr:state": "WV", "amenity": "post_box", "brand": "United States Postal Service", "brand:wikidata": "Q668687", "collection_times": "Mo-Fr 12:30; Sa 11:30", "name": "USPS COLLECTION BOX - PO LOBBY", "note": "ON 12/24 AND 12/31, THIS BOX MAY BE COLLECTED AS EARLY AS 12 NOON.", "nsi_id": "unitedstatespostalservice-a77078", "operator": "United States Postal Service", "operator:short": "USPS", "operator:type": "public", "operator:wikidata": "Q668687", "ref": "2644400001"}, "type": "Feature"}
{"geometry": {"coordinates": [-79.747914302, 39.39166907], "type": "Point"}, "id": "-z2_tG0twORBjgR3kwxVmP9KVaY=", "properties": {"@spider": "usps_collection_boxes", "addr:city": "TUNNELTON", "addr:country": "US", "addr:full": "24 BANK ST", "addr:postcode": "26444", "addr:state": "WV", "amenity": "post_box", "brand": "United States Postal Service", "brand:wikidata": "Q668687", "collection_times": "Mo-Fr 15:00; Sa 12:00", "name": "USPS COLLECTION BOX - PO LOBBY", "note": "ON 12/24 AND 12/31, THIS BOX MAY BE COLLECTED AS EARLY AS 12 NOON.", "nsi_id": "unitedstatespostalservice-a77078", "operator": "United States Postal Service", "operator:short": "USPS", "operator:type": "public", "operator:wikidata": "Q668687", "ref": "2644400003"}, "type": "Feature"}
{"geometry": {"coordinates": [-80.451749, 38.871534], "type": "Point"}, "id": "6S6YS3iu9GYWRq7pPpmnDleN8Dc=", "properties": {"@spider": "usps_collection_boxes", "addr:city": "WALKERSVILLE", "addr:country": "US", "addr:full": "16957 US HIGHWAY 19 S", "addr:postcode": "26447", "addr:state": "WV", "amenity": "post_box", "brand": "United States Postal Service", "brand:wikidata": "Q668687", "collection_times": "Mo-Fr 12:45; Sa 09:30", "name": "USPS COLLECTION BOX - BLUE BOX", "note": "ON 12/24 AND 12/31, THIS BOX MAY BE COLLECTED AS EARLY AS 12 NOON.", "nsi_id": "unitedstatespostalservice-a77078", "operator": "United States Postal Service", "operator:short": "USPS", "operator:type": "public", "operator:wikidata": "Q668687", "ref": "2644700000"}, "type": "Feature"}
{"geometry": {"coordinates": [-80.451749, 38.871534], "type": "Point"}, "id": "W090UGf7bKp8O9qNWQ3_qWecHI8=", "properties": {"@spider": "usps_collection_boxes", "addr:city": "WALKERSVILLE", "addr:country": "US", "addr:full": "16957 US HIGHWAY 19 S", "addr:postcode": "26447", "addr:state": "WV", "amenity": "post_box", "brand": "United States Postal Service", "brand:wikidata": "Q668687", "collection_times": "Mo-Fr 12:45; Sa 09:30", "name": "USPS COLLECTION BOX - PO LOBBY", "note": "ON 12/24 AND 12/31, THIS BOX MAY BE COLLECTED AS EARLY AS 12 NOON.", "nsi_id": "unitedstatespostalservice-a77078", "operator": "United States Postal Service", "operator:short": "USPS", "operator:type": "public", "operator:wikidata": "Q668687", "ref": "2644700001"}, "type": "Feature"}
{"geometry": {"coordinates": [-80.450552082, 38.872722252], "type": "Point"}, "id": "532TraGlW0_24gBvF4giDIKz1e4=", "properties": {"@spider": "usps_collection_boxes", "addr:city": "WALKERSVILLE", "addr:country": "US", "addr:full": "16957 US HIGHWAY 19 S", "addr:postcode": "26447", "addr:state": "WV", "amenity": "post_box", "brand": "United States Postal Service", "brand:wikidata": "Q668687", "collection_times": "Mo-Fr 14:30; Sa 10:15", "name": "USPS COLLECTION BOX - PO LOBBY", "note": "ON 12/24 AND 12/31, THIS BOX MAY BE COLLECTED AS EARLY AS 12 NOON.", "nsi_id": "unitedstatespostalservice-a77078", "operator": "United States Postal Service", "operator:short": "USPS", "operator:type": "public", "operator:wikidata": "Q668687", "ref": "2644700003"}, "type": "Feature"}
{"geometry": {"coordinates": [-80.489969, 39.410532], "type": "Point"}, "id": "yVTFQhW3PmP7mg0L_ozMfQu_UXc=", "properties": {"@spider": "usps_collection_boxes", "addr:city": "WALLACE", "addr:country": "US", "addr:full": "7737 WALLACE PIKE", "addr:postcode": "26448", "addr:state": "WV", "amenity": "post_box", "brand": "United States Postal Service", "brand:wikidata": "Q668687", "collection_times": "Mo-Fr 14:00; Sa 09:00", "name": "USPS COLLECTION BOX - BLUE BOX", "note": "ON 12/24 AND 12/31, THIS BOX MAY BE COLLECTED AS EARLY AS 12 NOON.", "nsi_id": "unitedstatespostalservice-a77078", "operator": "United States Postal Service", "operator:short": "USPS", "operator:type": "public", "operator:wikidata": "Q668687", "ref": "2644800000"}, "type": "Feature"}
{"geometry": {"coordinates": [-80.489969, 39.410532], "type": "Point"}, "id": "94_XO9e7Y4mnOBAgS1JmU11SY10=", "properties": {"@spider": "usps_collection_boxes", "addr:city": "WALLACE", "addr:country": "US", "addr:full": "7737 WALLACE PIKE", "addr:postcode": "26448", "addr:state": "WV", "amenity": "post_box", "brand": "United States Postal Service", "brand:wikidata": "Q668687", "collection_times": "Mo-Fr 14:00; Sa 09:00", "name": "USPS COLLECTION BOX - PO LOBBY", "note": "ON 12/24 AND 12/31, THIS BOX MAY BE COLLECTED AS EARLY AS 12 NOON.", "nsi_id": "unitedstatespostalservice-a77078", "operator": "United States Postal Service", "operator:short": "USPS", "operator:type": "public", "operator:wikidata": "Q668687", "ref": "2644800001"}, "type": "Feature"}
{"geometry": {"coordinates": [-80.489928478, 39.410434676], "type": "Point"}, "id": "L3OIqyJz1YrKEXi12Qa2zEUUcAI=", "properties": {"@spider": "usps_collection_boxes", "addr:city": "WALLACE", "addr:country": "US", "addr:full": "7737 WALLACE PIKE", "addr:postcode": "26448", "addr:state": "WV", "amenity": "post_box", "brand": "United States Postal Service", "brand:wikidata": "Q668687", "collection_times": "Mo-Fr 14:30; Sa 10:00", "name": "USPS COLLECTION BOX - PO LOBBY", "note": "ON 12/24 AND 12/31, THIS BOX MAY BE COLLECTED AS EARLY AS 12 NOON.", "nsi_id": "unitedstatespostalservice-a77078", "operator": "United States Postal Service", "operator:short": "USPS", "operator:type": "public", "operator:wikidata": "Q668687", "ref": "2644800003"}, "type": "Feature"}
{"geometry": {"coordinates": [-80.40385, 39.202864], "type": "Point"}, "id": "Rm9WwTmbZuT7onULhYa894r2V0s=", "properties": {"@spider": "usps_collection_boxes", "addr:city": "WEST MILFORD", "addr:country": "US", "addr:full": "681 MAIN ST", "addr:postcode": "26451", "addr:state": "WV", "amenity": "post_box", "brand": "United States Postal Service", "brand:wikidata": "Q668687", "collection_times": "Mo-Fr 14:00; Sa 11:30", "name": "USPS COLLECTION BOX - BLUE BOX", "note": "ON 12/24 AND 12/31, THIS BOX MAY BE COLLECTED AS EARLY AS 12 NOON.", "nsi_id": "unitedstatespostalservice-a77078", "operator": "United States Postal Service", "operator:short": "USPS", "operator:type": "public", "operator:wikidata": "Q668687", "ref": "2645100000"}, "type": "Feature"}
{"geometry": {"coordinates": [-80.403807, 39.202931], "type": "Point"}, "id": "1cNJzSrkRG2ZHg8ck2tGbTS4MEs=", "properties": {"@spider": "usps_collection_boxes", "addr:city": "WEST MILFORD", "addr:country": "US", "addr:full": "681 MAIN ST", "addr:postcode": "26451", "addr:state": "WV", "amenity": "post_box", "brand": "United States Postal Service", "brand:wikidata": "Q668687", "collection_times": "Mo-Fr 14:00; Sa 11:30", "name": "USPS COLLECTION BOX - PO LOBBY", "note": "ON 12/24 AND 12/31, THIS BOX MAY BE COLLECTED AS EARLY AS 12 NOON.", "nsi_id": "unitedstatespostalservice-a77078", "operator": "United States Postal Service", "operator:short": "USPS", "operator:type": "public", "operator:wikidata": "Q668687", "ref": "2645100001"}, "type": "Feature"}
{"geometry": {"coordinates": [-80.403872083, 39.202890399], "type": "Point"}, "id": "sf1IUUrshGhd2D_UZ14qeG8dLE4=", "properties": {"@spider": "usps_collection_boxes", "addr:city": "WEST MILFORD", "addr:country": "US", "addr:full": "681 MAIN ST", "addr:postcode": "26451", "addr:state": "WV", "amenity": "post_box", "brand": "United States Postal Service", "brand:wikidata": "Q668687", "collection_times": "Mo-Fr 14:30; Sa 11:30", "name": "USPS COLLECTION BOX - PO LOBBY", "note": "ON 12/24 AND 12/31, THIS BOX MAY BE COLLECTED AS EARLY AS 12 NOON.", "nsi_id": "unitedstatespostalservice-a77078", "operator": "United States Postal Service", "operator:short": "USPS", "operator:type": "public", "operator:wikidata": "Q668687", "ref": "2645100003"}, "type": "Feature"}
{"geometry": {"coordinates": [-80.4485713, 39.040035], "type": "Point"}, "id": "6ROsPShX2p1s6VdvcX_tYyB-DvE=", "properties": {"@spider": "usps_collection_boxes", "addr:city": "WESTON", "addr:country": "US", "addr:full": "401 JOHN ST", "addr:postcode": "26452", "addr:state": "WV", "amenity": "post_box", "brand": "United States Postal Service", "brand:wikidata": "Q668687", "collection_times": "Mo-Sa 09:00", "name": "USPS COLLECTION BOX - BLUE BOX", "nsi_id": "unitedstatespostalservice-a77078", "operator": "United States Postal Service", "operator:short": "USPS", "operator:type": "public", "operator:wikidata": "Q668687", "ref": "2645200004"}, "type": "Feature"}
{"geometry": {"coordinates": [-80.4593688, 39.037372], "type": "Point"}, "id": "cn6ydXjsrrF3Am46ka6k0uOvoIU=", "properties": {"@spider": "usps_collection_boxes", "addr:city": "WESTON", "addr:country": "US", "addr:full": "21 GARTON PLZ", "addr:postcode": "26452", "addr:state": "WV", "amenity": "post_box", "brand": "United States Postal Service", "brand:wikidata": "Q668687", "collection_times": "Mo-Sa 11:30", "name": "USPS COLLECTION BOX - BLUE BOX", "nsi_id": "unitedstatespostalservice-a77078", "operator": "United States Postal Service", "operator:short": "USPS", "operator:type": "public", "operator:wikidata": "Q668687", "ref": "2645200007"}, "type": "Feature"}
{"geometry": {"coordinates": [-80.4219148, 39.018462], "type": "Point"}, "id": "GzzMPERb_MZ-k1LgTS6nl0CSCqY=", "properties": {"@spider": "usps_collection_boxes", "addr:city": "WESTON", "addr:country": "US", "addr:full": "100 MARKET PLACE MALL", "addr:postcode": "26452", "addr:state": "WV", "amenity": "post_box", "brand": "United States Postal Service", "brand:wikidata": "Q668687", "collection_times": "Mo-Sa 09:00", "name": "USPS COLLECTION BOX - BLUE BOX", "nsi_id": "unitedstatespostalservice-a77078", "operator": "United States Postal Service", "operator:short": "USPS", "operator:type": "public", "operator:wikidata": "Q668687", "ref": "2645200030"}, "type": "Feature"}
{"geometry": {"coordinates": [-80.467175524, 39.036681848], "type": "Point"}, "id": "0DRk9vmSB9Q-Potfdx56gval0D4=", "properties": {"@spider": "usps_collection_boxes", "addr:city": "WESTON", "addr:country": "US", "addr:full": "119 CENTER AVE", "addr:postcode": "26452", "addr:state": "WV", "amenity": "post_box", "brand": "United States Postal Service", "brand:wikidata": "Q668687", "collection_times": "Mo-Fr 16:30; Sa 12:00", "name": "USPS COLLECTION BOX - BLUE BOX", "note": "ON 12/24 AND 12/31, THIS BOX MAY BE COLLECTED AS EARLY AS 12 NOON.", "nsi_id": "unitedstatespostalservice-a77078", "operator": "United States Postal Service", "operator:short": "USPS", "operator:type": "public", "operator:wikidata": "Q668687", "ref": "2645200034"}, "type": "Feature"}
{"geometry": {"coordinates": [-80.467175524, 39.036681848], "type": "Point"}, "id": "9DU92sUVGYN9WsubyQYXLfVcUKo=", "properties": {"@spider": "usps_collection_boxes", "addr:city": "WESTON", "addr:country": "US", "addr:full": "119 CENTER AVE", "addr:postcode": "26452", "addr:state": "WV", "amenity": "post_box", "brand": "United States Postal Service", "brand:wikidata": "Q668687", "collection_times": "Mo-Fr 16:30; Sa 12:00", "name": "USPS COLLECTION BOX - PO LOBBY", "note": "ON 12/24 AND 12/31, THIS BOX MAY BE COLLECTED AS EARLY AS 12 NOON.", "nsi_id": "unitedstatespostalservice-a77078", "operator": "United States Postal Service", "operator:short": "USPS", "operator:type": "public", "operator:wikidata": "Q668687", "ref": "2645200035"}, "type": "Feature"}
{"geometry": {"coordinates": [-80.467175524, 39.036681848], "type": "Point"}, "id": "MvqHiVzD0ozB11m6cjoHSiOq9jI=", "properties": {"@spider": "usps_collection_boxes", "addr:city": "WESTON", "addr:country": "US", "addr:full": "119 CENTER AVE", "addr:postcode": "26452", "addr:state": "WV", "amenity": "post_box", "brand": "United States Postal Service", "brand:wikidata": "Q668687", "collection_times": "Mo-Fr 16:30; Sa 11:00", "name": "USPS COLLECTION BOX - PO LOBBY", "note": "ON 12/24 AND 12/31, THIS BOX MAY BE COLLECTED AS EARLY AS 12 NOON.", "nsi_id": "unitedstatespostalservice-a77078", "operator": "United States Postal Service", "operator:short": "USPS", "operator:type": "public", "operator:wikidata": "Q668687", "ref": "2645200038"}, "type": "Feature"}
{"geometry": {"coordinates": [-80.7755245, 39.29532], "type": "Point"}, "id": "YVPVaG0rn490uSwZbwtIOwcY9Xc=", "properties": {"@spider": "usps_collection_boxes", "addr:city": "WEST UNION", "addr:country": "US", "addr:full": "276 MAIN ST", "addr:postcode": "26456", "addr:state": "WV", "amenity": "post_box", "brand": "United States Postal Service", "brand:wikidata": "Q668687", "collection_times": "Mo-Fr 14:00", "name": "USPS COLLECTION BOX - BLUE BOX", "note": "ON 12/24 AND 12/31, THIS BOX MAY BE COLLECTED AS EARLY AS 12 NOON.", "nsi_id": "unitedstatespostalservice-a77078", "operator": "United States Postal Service", "operator:short": "USPS", "operator:type": "public", "operator:wikidata": "Q668687", "ref": "2645600006"}, "type": "Feature"}
{"geometry": {"coordinates": [-80.776885419, 39.294208975], "type": "Point"}, "id": "4Pt5bACE0YXen1FYqa8cUjo0YnM=", "properties": {"@spider": "usps_collection_boxes", "addr:city": "WEST UNION", "addr:country": "US", "addr:full": "208 COTTAGE AVE", "addr:postcode": "26456", "addr:state": "WV", "amenity": "post_box", "brand": "United States Postal Service", "brand:wikidata": "Q668687", "collection_times": "Mo-Fr 15:30; Sa 11:35", "name": "USPS COLLECTION BOX - BLUE BOX", "note": "ON 12/24 AND 12/31, THIS BOX MAY BE COLLECTED AS EARLY AS 12 NOON.", "nsi_id": "unitedstatespostalservice-a77078", "operator": "United States Postal Service", "operator:short": "USPS", "operator:type": "public", "operator:wikidata": "Q668687", "ref": "2645600007"}, "type": "Feature"}
{"geometry": {"coordinates": [-80.776885419, 39.294208975], "type": "Point"}, "id": "hzkDOK9pG5-xvtcBJQXYWx4_vH8=", "properties": {"@spider": "usps_collection_boxes", "addr:city": "WEST UNION", "addr:country": "US", "addr:full": "208 COTTAGE AVE", "addr:postcode": "26456", "addr:state": "WV", "amenity": "post_box", "brand": "United States Postal Service", "brand:wikidata": "Q668687", "collection_times": "Mo-Fr 15:30; Sa 11:30", "name": "USPS COLLECTION BOX - PO LOBBY", "note": "ON 12/24 AND 12/31, THIS BOX MAY BE COLLECTED AS EARLY AS 12 NOON.", "nsi_id": "unitedstatespostalservice-a77078", "operator": "United States Postal Service", "operator:short": "USPS", "operator:type": "public", "operator:wikidata": "Q668687", "ref": "2645600008"}, "type": "Feature"}
{"geometry": {"coordinates": [-80.777183667, 39.293895384], "type": "Point"}, "id": "7FXu_RE3-fqT_wR4YJA9nIW_-qM=", "properties": {"@spider": "usps_collection_boxes", "addr:city": "WEST UNION", "addr:country": "US", "addr:full": "106 COTTAGE AVE", "addr:postcode": "26456", "addr:state": "WV", "amenity": "post_box", "brand": "United States Postal Service", "brand:wikidata": "Q668687", "collection_times": "Mo-Fr 16:00; Sa 11:30", "name": "USPS COLLECTION BOX - PO LOBBY", "note": "ON 12/24 AND 12/31, THIS BOX MAY BE COLLECTED AS EARLY AS 12 NOON.", "nsi_id": "unitedstatespostalservice-a77078", "operator": "United States Postal Service", "operator:short": "USPS", "operator:type": "public", "operator:wikidata": "Q668687", "ref": "2645600010"}, "type": "Feature"}
{"geometry": {"coordinates": [-80.355205069, 39.43581958], "type": "Point"}, "id": "ZY_dLH9yKiIeGcKD0EpRuUAoX-4=", "properties": {"@spider": "usps_collection_boxes", "addr:city": "WYATT", "addr:country": "US", "addr:full": "151 JOETOWN RD", "addr:postcode": "26463", "addr:state": "WV", "amenity": "post_box", "brand": "United States Postal Service", "brand:wikidata": "Q668687", "collection_times": "Mo-Sa 10:30", "name": "USPS COLLECTION BOX - BLUE BOX", "nsi_id": "unitedstatespostalservice-a77078", "operator": "United States Postal Service", "operator:short": "USPS", "operator:type": "public", "operator:wikidata": "Q668687", "ref": "2646300000"}, "type": "Feature"}
{"geometry": {"coordinates": [-80.355205069, 39.43581958], "type": "Point"}, "id": "rSXsgyvYYumcpsioaxdGDXBBEV4=", "properties": {"@spider": "usps_collection_boxes", "addr:city": "WYATT", "addr:country": "US", "addr:full": "151 JOETOWN RD", "addr:postcode": "26463", "addr:state": "WV", "amenity": "post_box", "brand": "United States Postal Service", "brand:wikidata": "Q668687", "collection_times": "Mo-Fr 12:30; Sa 11:30", "name": "USPS COLLECTION BOX - PO LOBBY", "note": "ON 12/24 AND 12/31, THIS BOX MAY BE COLLECTED AS EARLY AS 12 NOON.", "nsi_id": "unitedstatespostalservice-a77078", "operator": "United States Postal Service", "operator:short": "USPS", "operator:type": "public", "operator:wikidata": "Q668687", "ref": "2646300002"}, "type": "Feature"}
