{"geometry": {"coordinates": [-79.973107711, 39.636235562], "type": "Point"}, "id": "uXFHf80gvuKS809SZyIX4doDZKo=", "properties": {"@source_uri": "https://tools.usps.com/UspsToolsRestServices/rest/POLocator/findLocations", "@spider": "usps_collection_boxes", "addr:city": "MORGANTOWN", "addr:country": "US", "addr:postcode": "26501", "addr:state": "WV", "addr:street_address": "1 OHIO AVE", "amenity": "post_box", "collection_times": "Mo-Fr 12:00", "indoor": "yes", "nsi_id": "unitedstatespostalservice-a77078", "operator": "United States Postal Service", "operator:short": "USPS", "operator:type": "public", "operator:wikidata": "Q668687", "ref": "2650100010"}, "type": "Feature"}
{"geometry": {"coordinates": [-79.957972363, 39.627277416], "type": "Point"}, "id": "O4RKJSmS4XmjEiUiDS5s-sbrlh4=", "properties": {"@source_uri": "https://tools.usps.com/UspsToolsRestServices/rest/POLocator/findLocations", "@spider": "usps_collection_boxes", "addr:city": "MORGANTOWN", "addr:country": "US", "addr:postcode": "26505", "addr:state": "WV", "addr:street_address": "40 HIGH ST", "amenity": "post_box", "collection_times": "Mo-Sa 10:05", "nsi_id": "unitedstatespostalservice-a77078", "operator": "United States Postal Service", "operator:short": "USPS", "operator:type": "public", "operator:wikidata": "Q668687", "ref": "2650500001"}, "type": "Feature"}
{"geometry": {"coordinates": [-79.9682209, 39.65079], "type": "Point"}, "id": "PcDmJBRRTBst75txnI2qA876ON0=", "properties": {"@source_uri": "https://tools.usps.com/UspsToolsRestServices/rest/POLocator/findLocations", "@spider": "usps_collection_boxes", "addr:city": "MORGANTOWN", "addr:country": "US", "addr:postcode": "26505", "addr:state": "WV", "addr:street_address": "350 PATTESON DR", "amenity": "post_box", "collection_times": "Mo-Sa 10:00", "nsi_id": "unitedstatespostalservice-a77078", "operator": "United States Postal Service", "operator:short": "USPS", "operator:type": "public", "operator:wikidata": "Q668687", "ref": "2650500009"}, "type": "Feature"}
{"geometry": {"coordinates": [-79.9536026, 39.594026], "type": "Point"}, "id": "X7bts-8a18qU9lX0vB0-Gm5g6sM=", "properties": {"@source_uri": "https://tools.usps.com/UspsToolsRestServices/rest/POLocator/findLocations", "@spider": "usps_collection_boxes", "addr:city": "MORGANTOWN", "addr:country": "US", "addr:postcode": "26505", "addr:state": "WV", "addr:street_address": "300 POSTAL PLZ", "amenity": "post_box", "collection_times": "Mo-Sa 14:30", "note": "ON 12/24 AND 12/31, THIS BOX MAY BE COLLECTED AS EARLY AS 12 NOON.", "nsi_id": "unitedstatespostalservice-a77078", "operator": "United States Postal Service", "operator:short": "USPS", "operator:type": "public", "operator:wikidata": "Q668687", "ref": "2650500011"}, "type": "Feature"}
{"geometry": {"coordinates": [-79.9561354, 39.629589], "type": "Point"}, "id": "guiTXO_OtqoJBs98BqjHgoyOr5k=", "properties": {"@source_uri": "https://tools.usps.com/UspsToolsRestServices/rest/POLocator/findLocations", "@spider": "usps_collection_boxes", "addr:city": "MORGANTOWN", "addr:country": "US", "addr:postcode": "26505", "addr:state": "WV", "addr:street_address": "265 HIGH ST", "amenity": "post_box", "collection_times": "Mo-Fr 14:00; Sa 09:30", "note": "ON 12/24 AND 12/31, THIS BOX MAY BE COLLECTED AS EARLY AS 12 NOON.", "nsi_id": "unitedstatespostalservice-a77078", "operator": "United States Postal Service", "operator:short": "USPS", "operator:type": "public", "operator:wikidata": "Q668687", "ref": "2650500033"}, "type": "Feature"}
{"geometry": {"coordinates": [-79.9248439632, 39.6221770205], "type": "Point"}, "id": "8DPB0G28VfKK9aUJzJc69rvh3Lc=", "properties": {"@source_uri": "https://tools.usps.com/UspsToolsRestServices/rest/POLocator/findLocations", "@spider": "usps_collection_boxes", "addr:city": "MORGANTOWN", "addr:country": "US", "addr:postcode": "26505", "addr:state": "WV", "addr:street_address": "1851 EARL L CORE RD", "amenity": "post_box", "collection_times": "Mo-Fr 11:00; Sa 10:00", "nsi_id": "unitedstatespostalservice-a77078", "operator": "United States Postal Service", "operator:short": "USPS", "operator:type": "public", "operator:wikidata": "Q668687", "ref": "2650500040"}, "type": "Feature"}
{"geometry": {"coordinates": [-79.9301627, 39.628238], "type": "Point"}, "id": "stuRR5iPkO9F7AEf4mbKGlu_ZJ0=", "properties": {"@source_uri": "https://tools.usps.com/UspsToolsRestServices/rest/POLocator/findLocations", "@spider": "usps_collection_boxes", "addr:city": "MORGANTOWN", "addr:country": "US", "addr:postcode": "26505", "addr:state": "WV", "addr:street_address": "1401 EARL L CORE RD", "amenity": "post_box", "collection_times": "Mo-Fr 11:00; Sa 10:30", "nsi_id": "unitedstatespostalservice-a77078", "operator": "United States Postal Service", "operator:short": "USPS", "operator:type": "public", "operator:wikidata": "Q668687", "ref": "2650500043"}, "type": "Feature"}
{"geometry": {"coordinates": [-79.8552561, 39.671387], "type": "Point"}, "id": "KD5TOwflmbl87rd2VAi6LL-YYiw=", "properties": {"@source_uri": "https://tools.usps.com/UspsToolsRestServices/rest/POLocator/findLocations", "@spider": "usps_collection_boxes", "addr:city": "MORGANTOWN", "addr:country": "US", "addr:postcode": "26505", "addr:state": "WV", "addr:street_address": "2600 CRANBERRY SQ", "amenity": "post_box", "collection_times": "Mo-Sa 09:30", "nsi_id": "unitedstatespostalservice-a77078", "operator": "United States Postal Service", "operator:short": "USPS", "operator:type": "public", "operator:wikidata": "Q668687", "ref": "2650500055"}, "type": "Feature"}
{"geometry": {"coordinates": [-79.983066498, 39.657657924], "type": "Point"}, "id": "dtTMKMRjDQMkgUY0QqAtl5dd04g=", "properties": {"@source_uri": "https://tools.usps.com/UspsToolsRestServices/rest/POLocator/findLocations", "@spider": "usps_collection_boxes", "addr:city": "MORGANTOWN", "addr:country": "US", "addr:postcode": "26505", "addr:state": "WV", "addr:street_address": "3400 UNIVERSITY AVE", "amenity": "post_box", "collection_times": "Mo-Fr 13:00; Sa 12:00", "note": "ON 12/24 AND 12/31, THIS BOX MAY BE COLLECTED AS EARLY AS 12 NOON.", "nsi_id": "unitedstatespostalservice-a77078", "operator": "United States Postal Service", "operator:short": "USPS", "operator:type": "public", "operator:wikidata": "Q668687", "ref": "2650500058"}, "type": "Feature"}
{"geometry": {"coordinates": [-79.9993553, 39.627648], "type": "Point"}, "id": "gNkpRs3CcSHhqgtBuTEc-t_a6-Q=", "properties": {"@source_uri": "https://tools.usps.com/UspsToolsRestServices/rest/POLocator/findLocations", "@spider": "usps_collection_boxes", "addr:city": "MORGANTOWN", "addr:country": "US", "addr:postcode": "26505", "addr:state": "WV", "addr:street_address": "9500 MALL RD", "amenity": "post_box", "collection_times": "Mo-Sa 09:30", "nsi_id": "unitedstatespostalservice-a77078", "operator": "United States Postal Service", "operator:short": "USPS", "operator:type": "public", "operator:wikidata": "Q668687", "ref": "2650500059"}, "type": "Feature"}
{"geometry": {"coordinates": [-79.9571563, 39.628249], "type": "Point"}, "id": "mtqWYdB4E3jZUqea1anEkCtpRPk=", "properties": {"@source_uri": "https://tools.usps.com/UspsToolsRestServices/rest/POLocator/findLocations", "@spider": "usps_collection_boxes", "addr:city": "MORGANTOWN", "addr:country": "US", "addr:postcode": "26505", "addr:state": "WV", "addr:street_address": "122 HIGH ST", "amenity": "post_box", "collection_times": "Mo-Fr 14:00; Sa 10:00", "note": "ON 12/24 AND 12/31, THIS BOX MAY BE COLLECTED AS EARLY AS 12 NOON.", "nsi_id": "unitedstatespostalservice-a77078", "operator": "United States Postal Service", "operator:short": "USPS", "operator:type": "public", "operator:wikidata": "Q668687", "ref": "2650500064"}, "type": "Feature"}
{"geometry": {"coordinates": [-79.9543244, 39.630247], "type": "Point"}, "id": "thP-KJhas7RZnd4Oilzra89yCM4=", "properties": {"@source_uri": "https://tools.usps.com/UspsToolsRestServices/rest/POLocator/findLocations", "@spider": "usps_collection_boxes", "addr:city": "MORGANTOWN", "addr:country": "US", "addr:postcode": "26505", "addr:state": "WV", "addr:street_address": "373 SPRUCE ST", "amenity": "post_box", "collection_times": "Mo-Fr 14:50; Sa 09:30", "note": "ON 12/24 AND 12/31, THIS BOX MAY BE COLLECTED AS EARLY AS 12 NOON.", "nsi_id": "unitedstatespostalservice-a77078", "operator": "United States Postal Service", "operator:short": "USPS", "operator:type": "public", "operator:wikidata": "Q668687", "ref": "2650500065"}, "type": "Feature"}
{"geometry": {"coordinates": [-79.9686183, 39.651655], "type": "Point"}, "id": "qmLyx2p9Zq1Cp-PMIQvq5SHmA4A=", "properties": {"@source_uri": "https://tools.usps.com/UspsToolsRestServices/rest/POLocator/findLocations", "@spider": "usps_collection_boxes", "addr:city": "MORGANTOWN", "addr:country": "US", "addr:postcode": "26505", "addr:state": "WV", "addr:street_address": "364 1/2 PATTESON DR", "amenity": "post_box", "collection_times": "Mo-Sa 09:30", "nsi_id": "unitedstatespostalservice-a77078", "operator": "United States Postal Service", "operator:short": "USPS", "operator:type": "public", "operator:wikidata": "Q668687", "ref": "2650500069"}, "type": "Feature"}
{"geometry": {"coordinates": [-79.9567863, 39.632708], "type": "Point"}, "id": "U1Z-8vyeaBGAfsE6FbLP7v_k_g4=", "properties": {"@source_uri": "https://tools.usps.com/UspsToolsRestServices/rest/POLocator/findLocations", "@spider": "usps_collection_boxes", "addr:city": "MORGANTOWN", "addr:country": "US", "addr:postcode": "26505", "addr:state": "WV", "addr:street_address": "1 BEECHURST AVE", "amenity": "post_box", "collection_times": "Mo-Fr 13:30; Sa 12:00", "note": "ON 12/24 AND 12/31, THIS BOX MAY BE COLLECTED AS EARLY AS 12 NOON.", "nsi_id": "unitedstatespostalservice-a77078", "operator": "United States Postal Service", "operator:short": "USPS", "operator:type": "public", "operator:wikidata": "Q668687", "ref": "2650500071"}, "type": "Feature"}
{"geometry": {"coordinates": [-79.9536890257, 39.6347890187], "type": "Point"}, "id": "rX-0kLz5cTZCXzYpCZJ7P_tLiuY=", "properties": {"@source_uri": "https://tools.usps.com/UspsToolsRestServices/rest/POLocator/findLocations", "@spider": "usps_collection_boxes", "addr:city": "MORGANTOWN", "addr:country": "US", "addr:postcode": "26505", "addr:state": "WV", "addr:street_address": "1550 UNIVERSITY AVE", "amenity": "post_box", "collection_times": "Mo-Fr 13:00; Sa 10:00", "note": "ON 12/24 AND 12/31, THIS BOX MAY BE COLLECTED AS EARLY AS 12 NOON.", "nsi_id": "unitedstatespostalservice-a77078", "operator": "United States Postal Service", "operator:short": "USPS", "operator:type": "public", "operator:wikidata": "Q668687", "ref": "2650500072"}, "type": "Feature"}
{"geometry": {"coordinates": [-79.9561581, 39.629586], "type": "Point"}, "id": "gtM5m_a1qdK3rdB-bbKVuTBa_Uk=", "properties": {"@source_uri": "https://tools.usps.com/UspsToolsRestServices/rest/POLocator/findLocations", "@spider": "usps_collection_boxes", "addr:city": "MORGANTOWN", "addr:country": "US", "addr:postcode": "26505", "addr:state": "WV", "addr:street_address": "265 HIGH ST", "amenity": "post_box", "collection_times": "Mo-Fr 14:00; Sa 09:30", "note": "ON 12/24 AND 12/31, THIS BOX MAY BE COLLECTED AS EARLY AS 12 NOON.", "nsi_id": "unitedstatespostalservice-a77078", "operator": "United States Postal Service", "operator:short": "USPS", "operator:type": "public", "operator:wikidata": "Q668687", "ref": "2650500090"}, "type": "Feature"}
{"geometry": {"coordinates": [-79.9571521, 39.628254], "type": "Point"}, "id": "Urz7r8GFQO5kzrZmto6Av2gDl7M=", "properties": {"@source_uri": "https://tools.usps.com/UspsToolsRestServices/rest/POLocator/findLocations", "@spider": "usps_collection_boxes", "addr:city": "MORGANTOWN", "addr:country": "US", "addr:postcode": "26505", "addr:state": "WV", "addr:street_address": "122 HIGH ST", "amenity": "post_box", "collection_times": "Mo-Fr 14:00; Sa 10:00", "note": "ON 12/24 AND 12/31, THIS BOX MAY BE COLLECTED AS EARLY AS 12 NOON.", "nsi_id": "unitedstatespostalservice-a77078", "operator": "United States Postal Service", "operator:short": "USPS", "operator:type": "public", "operator:wikidata": "Q668687", "ref": "2650500092"}, "type": "Feature"}
{"geometry": {"coordinates": [-79.984813435, 39.630389357], "type": "Point"}, "id": "p1bXOBjb87-ZQUBRcc3k1gibxGw=", "properties": {"@source_uri": "https://tools.usps.com/UspsToolsRestServices/rest/POLocator/findLocations", "@spider": "usps_collection_boxes", "addr:city": "MORGANTOWN", "addr:country": "US", "addr:postcode": "26505", "addr:state": "WV", "addr:street_address": "50 COMMERCE DR", "amenity": "post_box", "collection_times": "Mo-Sa 09:30", "nsi_id": "unitedstatespostalservice-a77078", "operator": "United States Postal Service", "operator:short": "USPS", "operator:type": "public", "operator:wikidata": "Q668687", "ref": "2650500100"}, "type": "Feature"}
{"geometry": {"coordinates": [-79.8557709, 39.672749], "type": "Point"}, "id": "0afsgeEAzggvGF9sLKSweIftQ1o=", "properties": {"@source_uri": "https://tools.usps.com/UspsToolsRestServices/rest/POLocator/findLocations", "@spider": "usps_collection_boxes", "addr:city": "MORGANTOWN", "addr:country": "US", "addr:postcode": "26505", "addr:state": "WV", "addr:street_address": "501 ASHEBROOKE SQ", "amenity": "post_box", "collection_times": "Mo-Sa 09:45", "nsi_id": "unitedstatespostalservice-a77078", "operator": "United States Postal Service", "operator:short": "USPS", "operator:type": "public", "operator:wikidata": "Q668687", "ref": "2650500101"}, "type": "Feature"}
{"geometry": {"coordinates": [-79.9628144, 39.60788], "type": "Point"}, "id": "sHsQ9wZE2I4-NkaXrfXLx-vnHzw=", "properties": {"@source_uri": "https://tools.usps.com/UspsToolsRestServices/rest/POLocator/findLocations", "@spider": "usps_collection_boxes", "addr:city": "MORGANTOWN", "addr:country": "US", "addr:postcode": "26505", "addr:state": "WV", "addr:street_address": "130 GREENBAG RD", "amenity": "post_box", "collection_times": "Mo-Sa 09:30", "nsi_id": "unitedstatespostalservice-a77078", "operator": "United States Postal Service", "operator:short": "USPS", "operator:type": "public", "operator:wikidata": "Q668687", "ref": "2650500102"}, "type": "Feature"}
{"geometry": {"coordinates": [-79.9731821, 39.636193], "type": "Point"}, "id": "SqHjQGI_Bn6zscMCn3uTFIBdmKw=", "properties": {"@source_uri": "https://tools.usps.com/UspsToolsRestServices/rest/POLocator/findLocations", "@spider": "usps_collection_boxes", "addr:city": "MORGANTOWN", "addr:country": "US", "addr:postcode": "26505", "addr:state": "WV", "addr:street_address": "1 OHIO AVE", "amenity": "post_box", "collection_times": "Mo-Fr 12:30; Sa 10:00", "note": "ON 12/24 AND 12/31, THIS BOX MAY BE COLLECTED AS EARLY AS 12 NOON.", "nsi_id": "unitedstatespostalservice-a77078", "operator": "United States Postal Service", "operator:short": "USPS", "operator:type": "public", "operator:wikidata": "Q668687", "ref": "2650500106"}, "type": "Feature"}
{"geometry": {"coordinates": [-79.9615911, 39.675756], "type": "Point"}, "id": "9Yf_5ayNEXlQ6o2f5f_ePGJLMRg=", "properties": {"@source_uri": "https://tools.usps.com/UspsToolsRestServices/rest/POLocator/findLocations", "@spider": "usps_collection_boxes", "addr:city": "MORGANTOWN", "addr:country": "US", "addr:postcode": "26505", "addr:state": "WV", "addr:street_address": "1705 VAN VOORHIS RD", "amenity": "post_box", "collection_times": "Mo-Sa 11:00", "nsi_id": "unitedstatespostalservice-a77078", "operator": "United States Postal Service", "operator:short": "USPS", "operator:type": "public", "operator:wikidata": "Q668687", "ref": "2650500110"}, "type": "Feature"}
{"geometry": {"coordinates": [-79.9731981, 39.636178], "type": "Point"}, "id": "Ip-ownZB5Pyokh2yPHwKKBz3nhg=", "properties": {"@source_uri": "https://tools.usps.com/UspsToolsRestServices/rest/POLocator/findLocations", "@spider": "usps_collection_boxes", "addr:city": "MORGANTOWN", "addr:country": "US", "addr:postcode": "26505", "addr:state": "WV", "addr:street_address": "1 OHIO AVE", "amenity": "post_box", "collection_times": "Mo-Fr 12:30; Sa 10:00", "note": "ON 12/24 AND 12/31, THIS BOX MAY BE COLLECTED AS EARLY AS 12 NOON.", "nsi_id": "unitedstatespostalservice-a77078", "operator": "United States Postal Service", "operator:short": "USPS", "operator:type": "public", "operator:wikidata": "Q668687", "ref": "2650500111"}, "type": "Feature"}
{"geometry": {"coordinates": [-79.9244352, 39.646326], "type": "Point"}, "id": "7Hy6RP4vYaQfgLt09-mCKZMAyMs=", "properties": {"@source_uri": "https://tools.usps.com/UspsToolsRestServices/rest/POLocator/findLocations", "@spider": "usps_collection_boxes", "addr:city": "MORGANTOWN", "addr:country": "US", "addr:postcode": "26505", "addr:state": "WV", "addr:street_address": "1756 MILEGROUND RD", "amenity": "post_box", "collection_times": "Mo-Sa 11:00", "nsi_id": "unitedstatespostalservice-a77078", "operator": "United States Postal Service", "operator:short": "USPS", "operator:type": "public", "operator:wikidata": "Q668687", "ref": "2650500113"}, "type": "Feature"}
{"geometry": {"coordinates": [-79.9629595, 39.626025], "type": "Point"}, "id": "S0TqvS0hLiw8q6Lg5MrcEq0H3Nw=", "properties": {"@source_uri": "https://tools.usps.com/UspsToolsRestServices/rest/POLocator/findLocations", "@spider": "usps_collection_boxes", "addr:city": "MORGANTOWN", "addr:country": "US", "addr:postcode": "26505", "addr:state": "WV", "addr:street_address": "150 CLAY ST", "amenity": "post_box", "collection_times": "Mo-Fr 09:30; Sa 09:00", "nsi_id": "unitedstatespostalservice-a77078", "operator": "United States Postal Service", "operator:short": "USPS", "operator:type": "public", "operator:wikidata": "Q668687", "ref": "2650500114"}, "type": "Feature"}
{"geometry": {"coordinates": [-79.983066498, 39.657657924], "type": "Point"}, "id": "j85XRqVhw8OdNHt285j8PSqVzrI=", "properties": {"@source_uri": "https://tools.usps.com/UspsToolsRestServices/rest/POLocator/findLocations", "@spider": "usps_collection_boxes", "addr:city": "MORGANTOWN", "addr:country": "US", "addr:postcode": "26505", "addr:state": "WV", "addr:street_address": "3400 UNIVERSITY AVE", "amenity": "post_box", "collection_times": "Mo-Fr 13:00; Sa 12:00", "indoor": "yes", "note": "ON 12/24 AND 12/31, THIS BOX MAY BE COLLECTED AS EARLY AS 12 NOON.", "nsi_id": "unitedstatespostalservice-a77078", "operator": "United States Postal Service", "operator:short": "USPS", "operator:type": "public", "operator:wikidata": "Q668687", "ref": "2650500118"}, "type": "Feature"}
{"geometry": {"coordinates": [-79.8955794, 39.648837], "type": "Point"}, "id": "gkunqZWk7tHXnWoYqaaYYW4bIDM=", "properties": {"@source_uri": "https://tools.usps.com/UspsToolsRestServices/rest/POLocator/findLocations", "@spider": "usps_collection_boxes", "addr:city": "MORGANTOWN", "addr:country": "US", "addr:postcode": "26505", "addr:state": "WV", "addr:street_address": "718 VENTURE DR", "amenity": "post_box", "collection_times": "Mo-Sa 10:00", "nsi_id": "unitedstatespostalservice-a77078", "operator": "United States Postal Service", "operator:short": "USPS", "operator:type": "public", "operator:wikidata": "Q668687", "ref": "2650500122"}, "type": "Feature"}
{"geometry": {"coordinates": [-79.9710918, 39.65457], "type": "Point"}, "id": "nKQwku0XLlQiyVazk7ya8mG55bc=", "properties": {"@source_uri": "https://tools.usps.com/UspsToolsRestServices/rest/POLocator/findLocations", "@spider": "usps_collection_boxes", "addr:city": "MORGANTOWN", "addr:country": "US", "addr:postcode": "26505", "addr:state": "WV", "addr:street_address": "3120 UNIVERSITY AVE", "amenity": "post_box", "collection_times": "Mo-Fr 12:30; Sa 11:00", "note": "ON 12/24 AND 12/31, THIS BOX MAY BE COLLECTED AS EARLY AS 12 NOON.", "nsi_id": "unitedstatespostalservice-a77078", "operator": "United States Postal Service", "operator:short": "USPS", "operator:type": "public", "operator:wikidata": "Q668687", "ref": "2650500126"}, "type": "Feature"}
{"geometry": {"coordinates": [-79.9805388, 39.668076], "type": "Point"}, "id": "e0LNPFMhptroCia01ljjL7qAL9U=", "properties": {"@source_uri": "https://tools.usps.com/UspsToolsRestServices/rest/POLocator/findLocations", "@spider": "usps_collection_boxes", "addr:city": "MORGANTOWN", "addr:country": "US", "addr:postcode": "26505", "addr:state": "WV", "addr:street_address": "3557 COLLINS FERRY RD", "amenity": "post_box", "collection_times": "Mo-Sa 11:00", "nsi_id": "unitedstatespostalservice-a77078", "operator": "United States Postal Service", "operator:short": "USPS", "operator:type": "public", "operator:wikidata": "Q668687", "ref": "2650500129"}, "type": "Feature"}
{"geometry": {"coordinates": [-79.9430266, 39.651683], "type": "Point"}, "id": "sHb6NViDPUq63Ew63cVWNE3ylBI=", "properties": {"@source_uri": "https://tools.usps.com/UspsToolsRestServices/rest/POLocator/findLocations", "@spider": "usps_collection_boxes", "addr:city": "MORGANTOWN", "addr:country": "US", "addr:postcode": "26505", "addr:state": "WV", "addr:street_address": "SUNCREST TOWN CENTRE", "amenity": "post_box", "collection_times": "Mo-Sa 10:00", "nsi_id": "unitedstatespostalservice-a77078", "operator": "United States Postal Service", "operator:short": "USPS", "operator:type": "public", "operator:wikidata": "Q668687", "ref": "2650500131"}, "type": "Feature"}
{"geometry": {"coordinates": [-79.9536233, 39.660636], "type": "Point"}, "id": "4SkjlNa-FbaJIR_1m6R-DyxzU7g=", "properties": {"@source_uri": "https://tools.usps.com/UspsToolsRestServices/rest/POLocator/findLocations", "@spider": "usps_collection_boxes", "addr:city": "MORGANTOWN", "addr:country": "US", "addr:postcode": "26505", "addr:state": "WV", "addr:street_address": "1231 PINEVIEW DR", "amenity": "post_box", "collection_times": "Mo-Sa 12:00", "nsi_id": "unitedstatespostalservice-a77078", "operator": "United States Postal Service", "operator:short": "USPS", "operator:type": "public", "operator:wikidata": "Q668687", "ref": "2650500132"}, "type": "Feature"}
{"geometry": {"coordinates": [-79.957972363, 39.627277416], "type": "Point"}, "id": "scy79pxW-TZ9FmFSea3HPhKx9f4=", "properties": {"@source_uri": "https://tools.usps.com/UspsToolsRestServices/rest/POLocator/findLocations", "@spider": "usps_collection_boxes", "addr:city": "MORGANTOWN", "addr:country": "US", "addr:postcode": "26505", "addr:state": "WV", "addr:street_address": "40 HIGH ST", "amenity": "post_box", "collection_times": "Mo-Fr 16:30; Sa 12:00", "indoor": "yes", "note": "ON 12/24 AND 12/31, THIS BOX MAY BE COLLECTED AS EARLY AS 12 NOON.", "nsi_id": "unitedstatespostalservice-a77078", "operator": "United States Postal Service", "operator:short": "USPS", "operator:type": "public", "operator:wikidata": "Q668687", "ref": "2650500135"}, "type": "Feature"}
{"geometry": {"coordinates": [-79.9512905, 39.614417], "type": "Point"}, "id": "rci-CP7v3zX1H31lvgTrjxMfJaE=", "properties": {"@source_uri": "https://tools.usps.com/UspsToolsRestServices/rest/POLocator/findLocations", "@spider": "usps_collection_boxes", "addr:city": "MORGANTOWN", "addr:country": "US", "addr:postcode": "26505", "addr:state": "WV", "addr:street_address": "1205 DORSEY AVE", "amenity": "post_box", "collection_times": "Mo-Sa 09:30", "nsi_id": "unitedstatespostalservice-a77078", "operator": "United States Postal Service", "operator:short": "USPS", "operator:type": "public", "operator:wikidata": "Q668687", "ref": "2650500136"}, "type": "Feature"}
{"geometry": {"coordinates": [-79.983066498, 39.657657924], "type": "Point"}, "id": "MamXSNiNn6ulRC32M_aX8dBl1LY=", "properties": {"@source_uri": "https://tools.usps.com/UspsToolsRestServices/rest/POLocator/findLocations", "@spider": "usps_collection_boxes", "addr:city": "MORGANTOWN", "addr:country": "US", "addr:postcode": "26505", "addr:state": "WV", "addr:street_address": "3400 UNIVERSITY AVE", "amenity": "post_box", "collection_times": "Mo-Fr 16:00; Sa 12:00", "indoor": "yes", "note": "ON 12/24 AND 12/31, THIS BOX MAY BE COLLECTED AS EARLY AS 12 NOON.", "nsi_id": "unitedstatespostalservice-a77078", "operator": "United States Postal Service", "operator:short": "USPS", "operator:type": "public", "operator:wikidata": "Q668687", "ref": "2650500145"}, "type": "Feature"}
{"geometry": {"coordinates": [-79.957972363, 39.627277416], "type": "Point"}, "id": "EQhTCVeu3H1js_YE1tX7uZdCoIA=", "properties": {"@source_uri": "https://tools.usps.com/UspsToolsRestServices/rest/POLocator/findLocations", "@spider": "usps_collection_boxes", "addr:city": "MORGANTOWN", "addr:country": "US", "addr:postcode": "26505", "addr:state": "WV", "addr:street_address": "40 HIGH ST", "amenity": "post_box", "collection_times": "Mo-Fr 17:00; Sa 12:00", "indoor": "yes", "note": "ON 12/24 AND 12/31, THIS BOX MAY BE COLLECTED AS EARLY AS 12 NOON.", "nsi_id": "unitedstatespostalservice-a77078", "operator": "United States Postal Service", "operator:short": "USPS", "operator:type": "public", "operator:wikidata": "Q668687", "ref": "2650500146"}, "type": "Feature"}
{"geometry": {"coordinates": [-79.815421, 39.493818], "type": "Point"}, "id": "K1fM3YxLycD2qNCEn34CJ3yz4t0=", "properties": {"@source_uri": "https://tools.usps.com/UspsToolsRestServices/rest/POLocator/findLocations", "@spider": "usps_collection_boxes", "addr:city": "ARTHURDALE", "addr:country": "US", "addr:postcode": "26520", "addr:state": "WV", "addr:street_address": "13258 N MOUNTAINEER HWY", "amenity": "post_box", "collection_times": "Mo-Fr 15:15; Sa 10:00", "note": "ON 12/24 AND 12/31, THIS BOX MAY BE COLLECTED AS EARLY AS 12 NOON.", "nsi_id": "unitedstatespostalservice-a77078", "operator": "United States Postal Service", "operator:short": "USPS", "operator:type": "public", "operator:wikidata": "Q668687", "ref": "2652000000"}, "type": "Feature"}
{"geometry": {"coordinates": [-79.815455, 39.493824], "type": "Point"}, "id": "9j4uXZ0flvQIhdsMv3fUhYs3qoQ=", "properties": {"@source_uri": "https://tools.usps.com/UspsToolsRestServices/rest/POLocator/findLocations", "@spider": "usps_collection_boxes", "addr:city": "ARTHURDALE", "addr:country": "US", "addr:postcode": "26520", "addr:state": "WV", "addr:street_address": "13258 N MOUNTAINEER HWY", "amenity": "post_box", "collection_times": "Mo-Fr 15:15; Sa 10:00", "indoor": "yes", "note": "ON 12/24 AND 12/31, THIS BOX MAY BE COLLECTED AS EARLY AS 12 NOON.", "nsi_id": "unitedstatespostalservice-a77078", "operator": "United States Postal Service", "operator:short": "USPS", "operator:type": "public", "operator:wikidata": "Q668687", "ref": "2652000001"}, "type": "Feature"}
{"geometry": {"coordinates": [-79.815259464, 39.494311628], "type": "Point"}, "id": "9nixeOK7zpD069bQLIdemtiRLgs=", "properties": {"@source_uri": "https://tools.usps.com/UspsToolsRestServices/rest/POLocator/findLocations", "@spider": "usps_collection_boxes", "addr:city": "ARTHURDALE", "addr:country": "US", "addr:postcode": "26520", "addr:state": "WV", "addr:street_address": "13258 N MOUNTAINEER HWY", "amenity": "post_box", "collection_times": "Mo-Fr 15:15; Sa 10:00", "indoor": "yes", "note": "ON 12/24 AND 12/31, THIS BOX MAY BE COLLECTED AS EARLY AS 12 NOON.", "nsi_id": "unitedstatespostalservice-a77078", "operator": "United States Postal Service", "operator:short": "USPS", "operator:type": "public", "operator:wikidata": "Q668687", "ref": "2652000004"}, "type": "Feature"}
{"geometry": {"coordinates": [-80.206244, 39.719818], "type": "Point"}, "id": "8_IKEbrG8NcgDbIFuoaODttpttU=", "properties": {"@source_uri": "https://tools.usps.com/UspsToolsRestServices/rest/POLocator/findLocations", "@spider": "usps_collection_boxes", "addr:city": "BLACKSVILLE", "addr:country": "US", "addr:postcode": "26521", "addr:state": "WV", "addr:street_address": "46 DAYBROOK RD", "amenity": "post_box", "collection_times": "Mo-Fr 15:30; Sa 11:30", "note": "ON 12/24 AND 12/31, THIS BOX MAY BE COLLECTED AS EARLY AS 12 NOON.", "nsi_id": "unitedstatespostalservice-a77078", "operator": "United States Postal Service", "operator:short": "USPS", "operator:type": "public", "operator:wikidata": "Q668687", "ref": "2652100000"}, "type": "Feature"}
{"geometry": {"coordinates": [-80.206214, 39.719833], "type": "Point"}, "id": "sT9Ur0lfPh6JqJw4V8Llxk_yksY=", "properties": {"@source_uri": "https://tools.usps.com/UspsToolsRestServices/rest/POLocator/findLocations", "@spider": "usps_collection_boxes", "addr:city": "BLACKSVILLE", "addr:country": "US", "addr:postcode": "26521", "addr:state": "WV", "addr:street_address": "46 DAYBROOK RD", "amenity": "post_box", "collection_times": "Mo-Fr 15:30; Sa 11:30", "indoor": "yes", "note": "ON 12/24 AND 12/31, THIS BOX MAY BE COLLECTED AS EARLY AS 12 NOON.", "nsi_id": "unitedstatespostalservice-a77078", "operator": "United States Postal Service", "operator:short": "USPS", "operator:type": "public", "operator:wikidata": "Q668687", "ref": "2652100001"}, "type": "Feature"}
{"geometry": {"coordinates": [-80.206266557, 39.719796683], "type": "Point"}, "id": "3VoT_dwrej4lw4zwkI4QP9q-9x4=", "properties": {"@source_uri": "https://tools.usps.com/UspsToolsRestServices/rest/POLocator/findLocations", "@spider": "usps_collection_boxes", "addr:city": "BLACKSVILLE", "addr:country": "US", "addr:postcode": "26521", "addr:state": "WV", "addr:street_address": "46 DAYBROOK RD", "amenity": "post_box", "collection_times": "Mo-Fr 15:30; Sa 11:30", "indoor": "yes", "note": "ON 12/24 AND 12/31, THIS BOX MAY BE COLLECTED AS EARLY AS 12 NOON.", "nsi_id": "unitedstatespostalservice-a77078", "operator": "United States Postal Service", "operator:short": "USPS", "operator:type": "public", "operator:wikidata": "Q668687", "ref": "2652100003"}, "type": "Feature"}
{"geometry": {"coordinates": [-79.64311484, 39.658678962], "type": "Point"}, "id": "OYWpOnORgdaXI9uOUbTVEruPwAs=", "properties": {"@source_uri": "https://tools.usps.com/UspsToolsRestServices/rest/POLocator/findLocations", "@spider": "usps_collection_boxes", "addr:city": "BRUCETON MILLS", "addr:country": "US", "addr:postcode": "26525", "addr:state": "WV", "addr:street_address": "1 MORGANTOWN ST", "amenity": "post_box", "collection_times": "Mo-Fr 16:00; Sa 11:00", "indoor": "yes", "note": "ON 12/24 AND 12/31, THIS BOX MAY BE COLLECTED AS EARLY AS 12 NOON.", "nsi_id": "unitedstatespostalservice-a77078", "operator": "United States Postal Service", "operator:short": "USPS", "operator:type": "public", "operator:wikidata": "Q668687", "ref": "2652500001"}, "type": "Feature"}
{"geometry": {"coordinates": [-79.64311484, 39.658678962], "type": "Point"}, "id": "Fq-_rBzq0rmCIr3PTiCI0ZCm9sc=", "properties": {"@source_uri": "https://tools.usps.com/UspsToolsRestServices/rest/POLocator/findLocations", "@spider": "usps_collection_boxes", "addr:city": "BRUCETON MILLS", "addr:country": "US", "addr:postcode": "26525", "addr:state": "WV", "addr:street_address": "1 MORGANTOWN ST", "amenity": "post_box", "collection_times": "Mo-Fr 16:00; Sa 11:00", "note": "ON 12/24 AND 12/31, THIS BOX MAY BE COLLECTED AS EARLY AS 12 NOON.", "nsi_id": "unitedstatespostalservice-a77078", "operator": "United States Postal Service", "operator:short": "USPS", "operator:type": "public", "operator:wikidata": "Q668687", "ref": "2652500004"}, "type": "Feature"}
{"geometry": {"coordinates": [-79.64311484, 39.658678962], "type": "Point"}, "id": "DcOizGXpmliCWxMTyBwlFpt-F3I=", "properties": {"@source_uri": "https://tools.usps.com/UspsToolsRestServices/rest/POLocator/findLocations", "@spider": "usps_collection_boxes", "addr:city": "BRUCETON MILLS", "addr:country": "US", "addr:postcode": "26525", "addr:state": "WV", "addr:street_address": "1 MORGANTOWN ST", "amenity": "post_box", "collection_times": "Mo-Fr 16:00; Sa 11:00", "indoor": "yes", "note": "ON 12/24 AND 12/31, THIS BOX MAY BE COLLECTED AS EARLY AS 12 NOON.", "nsi_id": "unitedstatespostalservice-a77078", "operator": "United States Postal Service", "operator:short": "USPS", "operator:type": "public", "operator:wikidata": "Q668687", "ref": "2652500005"}, "type": "Feature"}
{"geometry": {"coordinates": [-80.059765, 39.664688], "type": "Point"}, "id": "N3repaHk3Log76983x6Zm0GzRII=", "properties": {"@source_uri": "https://tools.usps.com/UspsToolsRestServices/rest/POLocator/findLocations", "@spider": "usps_collection_boxes", "addr:city": "CASSVILLE", "addr:country": "US", "addr:postcode": "26527", "addr:state": "WV", "addr:street_address": "778 MASON DIXON HWY", "amenity": "post_box", "collection_times": "Mo-Fr 15:45; Sa 09:45", "note": "ON 12/24 AND 12/31, THIS BOX MAY BE COLLECTED AS EARLY AS 12 NOON.", "nsi_id": "unitedstatespostalservice-a77078", "operator": "United States Postal Service", "operator:short": "USPS", "operator:type": "public", "operator:wikidata": "Q668687", "ref": "2652700000"}, "type": "Feature"}
{"geometry": {"coordinates": [-80.059866, 39.664668], "type": "Point"}, "id": "aBj1aLR3AxBADZV06plNb7c0VN0=", "properties": {"@source_uri": "https://tools.usps.com/UspsToolsRestServices/rest/POLocator/findLocations", "@spider": "usps_collection_boxes", "addr:city": "CASSVILLE", "addr:country": "US", "addr:postcode": "26527", "addr:state": "WV", "addr:street_address": "778 MASON DIXON HWY", "amenity": "post_box", "collection_times": "Mo-Fr 15:40; Sa 09:40", "indoor": "yes", "note": "ON 12/24 AND 12/31, THIS BOX MAY BE COLLECTED AS EARLY AS 12 NOON.", "nsi_id": "unitedstatespostalservice-a77078", "operator": "United States Postal Service", "operator:short": "USPS", "operator:type": "public", "operator:wikidata": "Q668687", "ref": "2652700001"}, "type": "Feature"}
{"geometry": {"coordinates": [-80.0627884314, 39.665479431], "type": "Point"}, "id": "IetqNTmgJuKkq1CNHhW6P6iObWs=", "properties": {"@source_uri": "https://tools.usps.com/UspsToolsRestServices/rest/POLocator/findLocations", "@spider": "usps_collection_boxes", "addr:city": "CASSVILLE", "addr:country": "US", "addr:postcode": "26527", "addr:state": "WV", "addr:street_address": "778 MASON DIXON HWY", "amenity": "post_box", "collection_times": "Mo-Fr 15:45; Sa 09:30", "indoor": "yes", "note": "ON 12/24 AND 12/31, THIS BOX MAY BE COLLECTED AS EARLY AS 12 NOON.", "nsi_id": "unitedstatespostalservice-a77078", "operator": "United States Postal Service", "operator:short": "USPS", "operator:type": "public", "operator:wikidata": "Q668687", "ref": "2652700002"}, "type": "Feature"}
{"geometry": {"coordinates": [-79.89235, 39.60703], "type": "Point"}, "id": "5IsM-6kZBXXi3AArHEYFDGsH2dY=", "properties": {"@source_uri": "https://tools.usps.com/UspsToolsRestServices/rest/POLocator/findLocations", "@spider": "usps_collection_boxes", "addr:city": "DELLSLOW", "addr:country": "US", "addr:postcode": "26531", "addr:state": "WV", "addr:street_address": "1902 ELJAZID ST", "amenity": "post_box", "collection_times": "Mo-Fr 15:45; Sa 11:45", "indoor": "yes", "note": "ON 12/24 AND 12/31, THIS BOX MAY BE COLLECTED AS EARLY AS 12 NOON.", "nsi_id": "unitedstatespostalservice-a77078", "operator": "United States Postal Service", "operator:short": "USPS", "operator:type": "public", "operator:wikidata": "Q668687", "ref": "2653100001"}, "type": "Feature"}
{"geometry": {"coordinates": [-79.89235, 39.60703], "type": "Point"}, "id": "mRIKhLZ-uvmX7usdrAEKxRxgUiY=", "properties": {"@source_uri": "https://tools.usps.com/UspsToolsRestServices/rest/POLocator/findLocations", "@spider": "usps_collection_boxes", "addr:city": "DELLSLOW", "addr:country": "US", "addr:postcode": "26531", "addr:state": "WV", "addr:street_address": "1902 ELJAZID ST", "amenity": "post_box", "collection_times": "Mo-Fr 15:45; Sa 11:45", "note": "ON 12/24 AND 12/31, THIS BOX MAY BE COLLECTED AS EARLY AS 12 NOON.", "nsi_id": "unitedstatespostalservice-a77078", "operator": "United States Postal Service", "operator:short": "USPS", "operator:type": "public", "operator:wikidata": "Q668687", "ref": "2653100003"}, "type": "Feature"}
{"geometry": {"coordinates": [-79.89235, 39.60703], "type": "Point"}, "id": "q1Sg2ayW5DorGfpEpm3jHdKKn5g=", "properties": {"@source_uri": "https://tools.usps.com/UspsToolsRestServices/rest/POLocator/findLocations", "@spider": "usps_collection_boxes", "addr:city": "DELLSLOW", "addr:country": "US", "addr:postcode": "26531", "addr:state": "WV", "addr:street_address": "1902 ELJAZID ST", "amenity": "post_box", "collection_times": "Mo-Fr 16:00; Sa 12:00", "indoor": "yes", "note": "ON 12/24 AND 12/31, THIS BOX MAY BE COLLECTED AS EARLY AS 12 NOON.", "nsi_id": "unitedstatespostalservice-a77078", "operator": "United States Postal Service", "operator:short": "USPS", "operator:type": "public", "operator:wikidata": "Q668687", "ref": "2653100005"}, "type": "Feature"}
{"geometry": {"coordinates": [-79.98766, 39.646489], "type": "Point"}, "id": "zE_Ra4V372UL8KTnY4HmOtBc6_U=", "properties": {"@source_uri": "https://tools.usps.com/UspsToolsRestServices/rest/POLocator/findLocations", "@spider": "usps_collection_boxes", "addr:city": "GRANVILLE", "addr:country": "US", "addr:postcode": "26534", "addr:state": "WV", "addr:street_address": "524 MAIN ST", "amenity": "post_box", "collection_times": "Mo-Fr 15:30; Sa 11:00", "note": "ON 12/24 AND 12/31, THIS BOX MAY BE COLLECTED AS EARLY AS 12 NOON.", "nsi_id": "unitedstatespostalservice-a77078", "operator": "United States Postal Service", "operator:short": "USPS", "operator:type": "public", "operator:wikidata": "Q668687", "ref": "2653400000"}, "type": "Feature"}
{"geometry": {"coordinates": [-79.987653, 39.646435], "type": "Point"}, "id": "TqTYjMD0MkikpnvvIto-ZiFlFow=", "properties": {"@source_uri": "https://tools.usps.com/UspsToolsRestServices/rest/POLocator/findLocations", "@spider": "usps_collection_boxes", "addr:city": "GRANVILLE", "addr:country": "US", "addr:postcode": "26534", "addr:state": "WV", "addr:street_address": "524 MAIN ST", "amenity": "post_box", "collection_times": "Mo-Fr 15:30; Sa 11:00", "indoor": "yes", "note": "ON 12/24 AND 12/31, THIS BOX MAY BE COLLECTED AS EARLY AS 12 NOON.", "nsi_id": "unitedstatespostalservice-a77078", "operator": "United States Postal Service", "operator:short": "USPS", "operator:type": "public", "operator:wikidata": "Q668687", "ref": "2653400001"}, "type": "Feature"}
{"geometry": {"coordinates": [-79.987633205, 39.646502233], "type": "Point"}, "id": "YHpQgFA-UzH1FAseFZ8hnhPcj3k=", "properties": {"@source_uri": "https://tools.usps.com/UspsToolsRestServices/rest/POLocator/findLocations", "@spider": "usps_collection_boxes", "addr:city": "GRANVILLE", "addr:country": "US", "addr:postcode": "26534", "addr:state": "WV", "addr:street_address": "524 MAIN ST", "amenity": "post_box", "collection_times": "Mo-Fr 15:30; Sa 11:00", "indoor": "yes", "note": "ON 12/24 AND 12/31, THIS BOX MAY BE COLLECTED AS EARLY AS 12 NOON.", "nsi_id": "unitedstatespostalservice-a77078", "operator": "United States Postal Service", "operator:short": "USPS", "operator:type": "public", "operator:wikidata": "Q668687", "ref": "2653400003"}, "type": "Feature"}
{"geometry": {"coordinates": [-79.681319665, 39.471960457], "type": "Point"}, "id": "L2jhYi02BrJ1YX_iVxUsw5IuLnI=", "properties": {"@source_uri": "https://tools.usps.com/UspsToolsRestServices/rest/POLocator/findLocations", "@spider": "usps_collection_boxes", "addr:city": "KINGWOOD", "addr:country": "US", "addr:postcode": "26537", "addr:state": "WV", "addr:street_address": "225 E MAIN ST", "amenity": "post_box", "collection_times": "Mo-Fr 15:45; Sa 12:00", "note": "ON 12/24 AND 12/31, THIS BOX MAY BE COLLECTED AS EARLY AS 12 NOON.", "nsi_id": "unitedstatespostalservice-a77078", "operator": "United States Postal Service", "operator:short": "USPS", "operator:type": "public", "operator:wikidata": "Q668687", "ref": "2653700000"}, "type": "Feature"}
{"geometry": {"coordinates": [-79.681319665, 39.471960457], "type": "Point"}, "id": "7NVw8pequGGCgy0o8sB2S_xdTuE=", "properties": {"@source_uri": "https://tools.usps.com/UspsToolsRestServices/rest/POLocator/findLocations", "@spider": "usps_collection_boxes", "addr:city": "KINGWOOD", "addr:country": "US", "addr:postcode": "26537", "addr:state": "WV", "addr:street_address": "225 E MAIN ST", "amenity": "post_box", "collection_times": "Mo-Fr 15:45; Sa 12:00", "note": "ON 12/24 AND 12/31, THIS BOX MAY BE COLLECTED AS EARLY AS 12 NOON.", "nsi_id": "unitedstatespostalservice-a77078", "operator": "United States Postal Service", "operator:short": "USPS", "operator:type": "public", "operator:wikidata": "Q668687", "ref": "2653700001"}, "type": "Feature"}
{"geometry": {"coordinates": [-79.6900333, 39.470447], "type": "Point"}, "id": "Il6EupUhuquLGeGDKdZzqFaqQss=", "properties": {"@source_uri": "https://tools.usps.com/UspsToolsRestServices/rest/POLocator/findLocations", "@spider": "usps_collection_boxes", "addr:city": "KINGWOOD", "addr:country": "US", "addr:postcode": "26537", "addr:state": "WV", "addr:street_address": "202 TUNNELTON ST", "amenity": "post_box", "collection_times": "Mo-Sa 11:00", "nsi_id": "unitedstatespostalservice-a77078", "operator": "United States Postal Service", "operator:short": "USPS", "operator:type": "public", "operator:wikidata": "Q668687", "ref": "2653700006"}, "type": "Feature"}
{"geometry": {"coordinates": [-79.6877391, 39.471934], "type": "Point"}, "id": "VadvPnhe17aMmbNogodlE0Km1oM=", "properties": {"@source_uri": "https://tools.usps.com/UspsToolsRestServices/rest/POLocator/findLocations", "@spider": "usps_collection_boxes", "addr:city": "KINGWOOD", "addr:country": "US", "addr:postcode": "26537", "addr:state": "WV", "addr:street_address": "103 W MAIN ST", "amenity": "post_box", "collection_times": "Mo-Fr 14:00; Sa 12:00", "note": "ON 12/24 AND 12/31, THIS BOX MAY BE COLLECTED AS EARLY AS 12 NOON.", "nsi_id": "unitedstatespostalservice-a77078", "operator": "United States Postal Service", "operator:short": "USPS", "operator:type": "public", "operator:wikidata": "Q668687", "ref": "2653700007"}, "type": "Feature"}
{"geometry": {"coordinates": [-79.681319665, 39.471960457], "type": "Point"}, "id": "D2zqxfA7WjarY6XpZWo000oTNRs=", "properties": {"@source_uri": "https://tools.usps.com/UspsToolsRestServices/rest/POLocator/findLocations", "@spider": "usps_collection_boxes", "addr:city": "KINGWOOD", "addr:country": "US", "addr:postcode": "26537", "addr:state": "WV", "addr:street_address": "225 E MAIN ST", "amenity": "post_box", "collection_times": "Mo-Fr 16:15; Sa 12:00", "indoor": "yes", "note": "ON 12/24 AND 12/31, THIS BOX MAY BE COLLECTED AS EARLY AS 12 NOON.", "nsi_id": "unitedstatespostalservice-a77078", "operator": "United States Postal Service", "operator:short": "USPS", "operator:type": "public", "operator:wikidata": "Q668687", "ref": "2653700011"}, "type": "Feature"}
{"geometry": {"coordinates": [-79.681319665, 39.471960457], "type": "Point"}, "id": "GpB3M-ULuwUu1nW55fGBMFWpCAE=", "properties": {"@source_uri": "https://tools.usps.com/UspsToolsRestServices/rest/POLocator/findLocations", "@spider": "usps_collection_boxes", "addr:city": "KINGWOOD", "addr:country": "US", "addr:postcode": "26537", "addr:state": "WV", "addr:street_address": "225 E MAIN ST", "amenity": "post_box", "collection_times": "Mo-Fr 16:15; Sa 12:00", "indoor": "yes", "note": "ON 12/24 AND 12/31, THIS BOX MAY BE COLLECTED AS EARLY AS 12 NOON.", "nsi_id": "unitedstatespostalservice-a77078", "operator": "United States Postal Service", "operator:short": "USPS", "operator:type": "public", "operator:wikidata": "Q668687", "ref": "2653700013"}, "type": "Feature"}
{"geometry": {"coordinates": [-79.681319665, 39.471960457], "type": "Point"}, "id": "9oLmkSntGtxlDnSc_7MoyCBW1WE=", "properties": {"@source_uri": "https://tools.usps.com/UspsToolsRestServices/rest/POLocator/findLocations", "@spider": "usps_collection_boxes", "addr:city": "KINGWOOD", "addr:country": "US", "addr:postcode": "26537", "addr:state": "WV", "addr:street_address": "225 E MAIN ST", "amenity": "post_box", "collection_times": "Mo-Fr 16:15; Sa 11:00", "indoor": "yes", "note": "ON 12/24 AND 12/31, THIS BOX MAY BE COLLECTED AS EARLY AS 12 NOON.", "nsi_id": "unitedstatespostalservice-a77078", "operator": "United States Postal Service", "operator:short": "USPS", "operator:type": "public", "operator:wikidata": "Q668687", "ref": "2653700016"}, "type": "Feature"}
{"geometry": {"coordinates": [-79.9789284, 39.678393], "type": "Point"}, "id": "A1UepCpiZ9C7dmHwap-Md-V8WHE=", "properties": {"@source_uri": "https://tools.usps.com/UspsToolsRestServices/rest/POLocator/findLocations", "@spider": "usps_collection_boxes", "addr:city": "MAIDSVILLE", "addr:country": "US", "addr:postcode": "26541", "addr:state": "WV", "addr:street_address": "933 LAZZELLE UNION RD", "amenity": "post_box", "collection_times": "Mo-Fr 12:45; Sa 10:00", "note": "ON 12/24 AND 12/31, THIS BOX MAY BE COLLECTED AS EARLY AS 12 NOON.", "nsi_id": "unitedstatespostalservice-a77078", "operator": "United States Postal Service", "operator:short": "USPS", "operator:type": "public", "operator:wikidata": "Q668687", "ref": "2654100000"}, "type": "Feature"}
{"geometry": {"coordinates": [-79.978901, 39.679625], "type": "Point"}, "id": "WZTygd1jmNt1yjaUeDs0NH6lSI8=", "properties": {"@source_uri": "https://tools.usps.com/UspsToolsRestServices/rest/POLocator/findLocations", "@spider": "usps_collection_boxes", "addr:city": "MAIDSVILLE", "addr:country": "US", "addr:postcode": "26541", "addr:state": "WV", "addr:street_address": "933 LAZZELLE UNION RD", "amenity": "post_box", "collection_times": "Mo-Fr 12:00; Sa 10:00", "indoor": "yes", "nsi_id": "unitedstatespostalservice-a77078", "operator": "United States Postal Service", "operator:short": "USPS", "operator:type": "public", "operator:wikidata": "Q668687", "ref": "2654100001"}, "type": "Feature"}
{"geometry": {"coordinates": [-79.978708141, 39.678384677], "type": "Point"}, "id": "32GzIuzO9vzyWj4nNRQnf922J7U=", "properties": {"@source_uri": "https://tools.usps.com/UspsToolsRestServices/rest/POLocator/findLocations", "@spider": "usps_collection_boxes", "addr:city": "MAIDSVILLE", "addr:country": "US", "addr:postcode": "26541", "addr:state": "WV", "addr:street_address": "933 LAZZELLE UNION RD", "amenity": "post_box", "collection_times": "Mo-Fr 12:00; Sa 11:15", "indoor": "yes", "nsi_id": "unitedstatespostalservice-a77078", "operator": "United States Postal Service", "operator:short": "USPS", "operator:type": "public", "operator:wikidata": "Q668687", "ref": "2654100003"}, "type": "Feature"}
{"geometry": {"coordinates": [-79.797637332, 39.552605497], "type": "Point"}, "id": "QQt9cXN4ANh_GqOWvgKqcA5-hG4=", "properties": {"@source_uri": "https://tools.usps.com/UspsToolsRestServices/rest/POLocator/findLocations", "@spider": "usps_collection_boxes", "addr:city": "MASONTOWN", "addr:country": "US", "addr:postcode": "26542", "addr:state": "WV", "addr:street_address": "20 N MAIN ST", "amenity": "post_box", "collection_times": "Mo-Fr 15:30; Sa 09:45", "note": "ON 12/24 AND 12/31, THIS BOX MAY BE COLLECTED AS EARLY AS 12 NOON.", "nsi_id": "unitedstatespostalservice-a77078", "operator": "United States Postal Service", "operator:short": "USPS", "operator:type": "public", "operator:wikidata": "Q668687", "ref": "2654200000"}, "type": "Feature"}
{"geometry": {"coordinates": [-79.797637332, 39.552605497], "type": "Point"}, "id": "ejQLgqwkQ-0mR9o6GegtCAJS0g0=", "properties": {"@source_uri": "https://tools.usps.com/UspsToolsRestServices/rest/POLocator/findLocations", "@spider": "usps_collection_boxes", "addr:city": "MASONTOWN", "addr:country": "US", "addr:postcode": "26542", "addr:state": "WV", "addr:street_address": "20 N MAIN ST", "amenity": "post_box", "collection_times": "Mo-Fr 15:30; Sa 09:45", "indoor": "yes", "note": "ON 12/24 AND 12/31, THIS BOX MAY BE COLLECTED AS EARLY AS 12 NOON.", "nsi_id": "unitedstatespostalservice-a77078", "operator": "United States Postal Service", "operator:short": "USPS", "operator:type": "public", "operator:wikidata": "Q668687", "ref": "2654200001"}, "type": "Feature"}
{"geometry": {"coordinates": [-79.797637332, 39.552605497], "type": "Point"}, "id": "MYCEXlLyj2yg-4DtprOtSkI5bLU=", "properties": {"@source_uri": "https://tools.usps.com/UspsToolsRestServices/rest/POLocator/findLocations", "@spider": "usps_collection_boxes", "addr:city": "MASONTOWN", "addr:country": "US", "addr:postcode": "26542", "addr:state": "WV", "addr:street_address": "20 N MAIN ST", "amenity": "post_box", "collection_times": "Mo-Fr 16:00; Sa 11:30", "indoor": "yes", "note": "ON 12/24 AND 12/31, THIS BOX MAY BE COLLECTED AS EARLY AS 12 NOON.", "nsi_id": "unitedstatespostalservice-a77078", "operator": "United States Postal Service", "operator:short": "USPS", "operator:type": "public", "operator:wikidata": "Q668687", "ref": "2654200003"}, "type": "Feature"}
{"geometry": {"coordinates": [-80.1619034968, 39.7090831381], "type": "Point"}, "id": "0Bu1bap1iobrgFY6CdDHTykr5kA=", "properties": {"@source_uri": "https://tools.usps.com/UspsToolsRestServices/rest/POLocator/findLocations", "@spider": "usps_collection_boxes", "addr:city": "PENTRESS", "addr:country": "US", "addr:postcode": "26544", "addr:state": "WV", "addr:street_address": "55 PENTRESS RD", "amenity": "post_box", "collection_times": "Mo-Fr 11:45; Sa 12:30", "note": "ON 12/24 AND 12/31, THIS BOX MAY BE COLLECTED AS EARLY AS 12 NOON.", "nsi_id": "unitedstatespostalservice-a77078", "operator": "United States Postal Service", "operator:short": "USPS", "operator:type": "public", "operator:wikidata": "Q668687", "ref": "2654400004"}, "type": "Feature"}
{"geometry": {"coordinates": [-80.1619034968, 39.7090831381], "type": "Point"}, "id": "1VZSeCL8ty8rCTICLel0P86pXnI=", "properties": {"@source_uri": "https://tools.usps.com/UspsToolsRestServices/rest/POLocator/findLocations", "@spider": "usps_collection_boxes", "addr:city": "PENTRESS", "addr:country": "US", "addr:postcode": "26544", "addr:state": "WV", "addr:street_address": "55 PENTRESS RD", "amenity": "post_box", "collection_times": "Mo-Fr 12:00; Sa 12:30", "indoor": "yes", "note": "ON 12/24 AND 12/31, THIS BOX MAY BE COLLECTED AS EARLY AS 12 NOON.", "nsi_id": "unitedstatespostalservice-a77078", "operator": "United States Postal Service", "operator:short": "USPS", "operator:type": "public", "operator:wikidata": "Q668687", "ref": "2654400005"}, "type": "Feature"}
{"geometry": {"coordinates": [-80.1619034968, 39.7090831381], "type": "Point"}, "id": "yB2AwReo4STJLvAs2mV7qM1h-y8=", "properties": {"@source_uri": "https://tools.usps.com/UspsToolsRestServices/rest/POLocator/findLocations", "@spider": "usps_collection_boxes", "addr:city": "PENTRESS", "addr:country": "US", "addr:postcode": "26544", "addr:state": "WV", "addr:street_address": "55 PENTRESS RD", "amenity": "post_box", "collection_times": "Mo-Fr 12:00; Sa 12:30", "indoor": "yes", "note": "ON 12/24 AND 12/31, THIS BOX MAY BE COLLECTED AS EARLY AS 12 NOON.", "nsi_id": "unitedstatespostalservice-a77078", "operator": "United States Postal Service", "operator:short": "USPS", "operator:type": "public", "operator:wikidata": "Q668687", "ref": "2654400006"}, "type": "Feature"}
{"geometry": {"coordinates": [-80.0236429647, 39.6670670154], "type": "Point"}, "id": "7TH2SaUUtdzHXX1P0Gq8rkKeEv4=", "properties": {"@source_uri": "https://tools.usps.com/UspsToolsRestServices/rest/POLocator/findLocations", "@spider": "usps_collection_boxes", "addr:city": "PURSGLOVE", "addr:country": "US", "addr:postcode": "26546", "addr:state": "WV", "addr:street_address": "576 BLUE HORIZON DR", "amenity": "post_box", "collection_times": "Mo-Fr 16:00; Sa 10:15", "note": "ON 12/24 AND 12/31, THIS BOX MAY BE COLLECTED AS EARLY AS 12 NOON.", "nsi_id": "unitedstatespostalservice-a77078", "operator": "United States Postal Service", "operator:short": "USPS", "operator:type": "public", "operator:wikidata": "Q668687", "ref": "2654600004"}, "type": "Feature"}
{"geometry": {"coordinates": [-80.0236429647, 39.6670670154], "type": "Point"}, "id": "Bi1Si8s6Iz_RMhQNMUMZ20UjYVM=", "properties": {"@source_uri": "https://tools.usps.com/UspsToolsRestServices/rest/POLocator/findLocations", "@spider": "usps_collection_boxes", "addr:city": "PURSGLOVE", "addr:country": "US", "addr:postcode": "26546", "addr:state": "WV", "addr:street_address": "576 BLUE HORIZON DR", "amenity": "post_box", "collection_times": "Mo-Fr 16:00; Sa 10:15", "indoor": "yes", "note": "ON 12/24 AND 12/31, THIS BOX MAY BE COLLECTED AS EARLY AS 12 NOON.", "nsi_id": "unitedstatespostalservice-a77078", "operator": "United States Postal Service", "operator:short": "USPS", "operator:type": "public", "operator:wikidata": "Q668687", "ref": "2654600005"}, "type": "Feature"}
{"geometry": {"coordinates": [-80.0236429647, 39.6670670154], "type": "Point"}, "id": "QrBW2lcucqunyLZwouqUDnRjSsI=", "properties": {"@source_uri": "https://tools.usps.com/UspsToolsRestServices/rest/POLocator/findLocations", "@spider": "usps_collection_boxes", "addr:city": "PURSGLOVE", "addr:country": "US", "addr:postcode": "26546", "addr:state": "WV", "addr:street_address": "576 BLUE HORIZON DR", "amenity": "post_box", "collection_times": "Mo-Fr 16:15; Sa 10:30", "indoor": "yes", "note": "ON 12/24 AND 12/31, THIS BOX MAY BE COLLECTED AS EARLY AS 12 NOON.", "nsi_id": "unitedstatespostalservice-a77078", "operator": "United States Postal Service", "operator:short": "USPS", "operator:type": "public", "operator:wikidata": "Q668687", "ref": "2654600006"}, "type": "Feature"}
{"geometry": {"coordinates": [-79.790363392, 39.508997446], "type": "Point"}, "id": "u4LpTzVlwbQBHCJp2XagS8iEMVA=", "properties": {"@source_uri": "https://tools.usps.com/UspsToolsRestServices/rest/POLocator/findLocations", "@spider": "usps_collection_boxes", "addr:city": "REEDSVILLE", "addr:country": "US", "addr:postcode": "26547", "addr:state": "WV", "addr:street_address": "13275 VETERANS MEMORIAL HWY", "amenity": "post_box", "collection_times": "Mo-Fr 15:30; Sa 10:30", "note": "ON 12/24 AND 12/31, THIS BOX MAY BE COLLECTED AS EARLY AS 12 NOON.", "nsi_id": "unitedstatespostalservice-a77078", "operator": "United States Postal Service", "operator:short": "USPS", "operator:type": "public", "operator:wikidata": "Q668687", "ref": "2654700000"}, "type": "Feature"}
{"geometry": {"coordinates": [-79.790363392, 39.508997446], "type": "Point"}, "id": "QskRkdzxD4CwIvV3bFYnDt5Lbyc=", "properties": {"@source_uri": "https://tools.usps.com/UspsToolsRestServices/rest/POLocator/findLocations", "@spider": "usps_collection_boxes", "addr:city": "REEDSVILLE", "addr:country": "US", "addr:postcode": "26547", "addr:state": "WV", "addr:street_address": "13275 VETERANS MEMORIAL HWY", "amenity": "post_box", "collection_times": "Mo-Fr 15:30; Sa 10:30", "indoor": "yes", "note": "ON 12/24 AND 12/31, THIS BOX MAY BE COLLECTED AS EARLY AS 12 NOON.", "nsi_id": "unitedstatespostalservice-a77078", "operator": "United States Postal Service", "operator:short": "USPS", "operator:type": "public", "operator:wikidata": "Q668687", "ref": "2654700001"}, "type": "Feature"}
{"geometry": {"coordinates": [-79.790363392, 39.508997446], "type": "Point"}, "id": "RJp4zSDrOQURSOyYHPk8ly_T_Xs=", "properties": {"@source_uri": "https://tools.usps.com/UspsToolsRestServices/rest/POLocator/findLocations", "@spider": "usps_collection_boxes", "addr:city": "REEDSVILLE", "addr:country": "US", "addr:postcode": "26547", "addr:state": "WV", "addr:street_address": "13275 VETERANS MEMORIAL HWY", "amenity": "post_box", "collection_times": "Mo-Fr 16:00; Sa 11:00", "indoor": "yes", "note": "ON 12/24 AND 12/31, THIS BOX MAY BE COLLECTED AS EARLY AS 12 NOON.", "nsi_id": "unitedstatespostalservice-a77078", "operator": "United States Postal Service", "operator:short": "USPS", "operator:type": "public", "operator:wikidata": "Q668687", "ref": "2654700003"}, "type": "Feature"}
{"geometry": {"coordinates": [-80.1659087, 39.482427], "type": "Point"}, "id": "oKulkoj581Qfdb6d5peG31aVnyE=", "properties": {"@source_uri": "https://tools.usps.com/UspsToolsRestServices/rest/POLocator/findLocations", "@spider": "usps_collection_boxes", "addr:city": "FAIRMONT", "addr:country": "US", "addr:postcode": "26554", "addr:state": "WV", "addr:street_address": "1325 LOCUST AVE", "amenity": "post_box", "collection_times": "Mo-Sa 10:00", "nsi_id": "unitedstatespostalservice-a77078", "operator": "United States Postal Service", "operator:short": "USPS", "operator:type": "public", "operator:wikidata": "Q668687", "ref": "2655400005"}, "type": "Feature"}
{"geometry": {"coordinates": [-80.1440057799, 39.4843739182], "type": "Point"}, "id": "6oFiTVO6D78NVsfSbsrzrONJIWQ=", "properties": {"@source_uri": "https://tools.usps.com/UspsToolsRestServices/rest/POLocator/findLocations", "@spider": "usps_collection_boxes", "addr:city": "FAIRMONT", "addr:country": "US", "addr:postcode": "26554", "addr:state": "WV", "addr:street_address": "301 MONROE ST", "amenity": "post_box", "collection_times": "Mo-Sa 11:00", "nsi_id": "unitedstatespostalservice-a77078", "operator": "United States Postal Service", "operator:short": "USPS", "operator:type": "public", "operator:wikidata": "Q668687", "ref": "2655400012"}, "type": "Feature"}
{"geometry": {"coordinates": [-80.1719646, 39.471666], "type": "Point"}, "id": "vlsT00_84DCZhc_QSorN508rI1A=", "properties": {"@source_uri": "https://tools.usps.com/UspsToolsRestServices/rest/POLocator/findLocations", "@spider": "usps_collection_boxes", "addr:city": "FAIRMONT", "addr:country": "US", "addr:postcode": "26554", "addr:state": "WV", "addr:street_address": "1228 COUNTRY CLUB RD", "amenity": "post_box", "collection_times": "Mo-Sa 09:45", "nsi_id": "unitedstatespostalservice-a77078", "operator": "United States Postal Service", "operator:short": "USPS", "operator:type": "public", "operator:wikidata": "Q668687", "ref": "2655400030"}, "type": "Feature"}
{"geometry": {"coordinates": [-80.1523383056, 39.4722827825], "type": "Point"}, "id": "N7tkXMLEn9fZA6A6kLDwrCnj6W4=", "properties": {"@source_uri": "https://tools.usps.com/UspsToolsRestServices/rest/POLocator/findLocations", "@spider": "usps_collection_boxes", "addr:city": "FAIRMONT", "addr:country": "US", "addr:postcode": "26554", "addr:state": "WV", "addr:street_address": "1000 GASTON AVE", "amenity": "post_box", "collection_times": "Mo-Sa 10:30", "nsi_id": "unitedstatespostalservice-a77078", "operator": "United States Postal Service", "operator:short": "USPS", "operator:type": "public", "operator:wikidata": "Q668687", "ref": "2655400032"}, "type": "Feature"}
{"geometry": {"coordinates": [-80.2151607, 39.465277], "type": "Point"}, "id": "X6X-T1Nghjp-hfID9CStgVu6WNE=", "properties": {"@source_uri": "https://tools.usps.com/UspsToolsRestServices/rest/POLocator/findLocations", "@spider": "usps_collection_boxes", "addr:city": "FAIRMONT", "addr:country": "US", "addr:postcode": "26554", "addr:state": "WV", "addr:street_address": "428 CAMDEN AVE", "amenity": "post_box", "collection_times": "Mo-Sa 09:30", "nsi_id": "unitedstatespostalservice-a77078", "operator": "United States Postal Service", "operator:short": "USPS", "operator:type": "public", "operator:wikidata": "Q668687", "ref": "2655400041"}, "type": "Feature"}
{"geometry": {"coordinates": [-80.141861396, 39.485844925], "type": "Point"}, "id": "T1-XQHQHrsL2EIOJGxXkkBNqfh4=", "properties": {"@source_uri": "https://tools.usps.com/UspsToolsRestServices/rest/POLocator/findLocations", "@spider": "usps_collection_boxes", "addr:city": "FAIRMONT", "addr:country": "US", "addr:postcode": "26554", "addr:state": "WV", "addr:street_address": "331 MADISON ST", "amenity": "post_box", "collection_times": "Mo-Sa 11:15", "nsi_id": "unitedstatespostalservice-a77078", "operator": "United States Postal Service", "operator:short": "USPS", "operator:type": "public", "operator:wikidata": "Q668687", "ref": "2655400043"}, "type": "Feature"}
{"geometry": {"coordinates": [-80.141861396, 39.485844925], "type": "Point"}, "id": "9HqPDfsNnKACwgiGi3sF9yIQa8A=", "properties": {"@source_uri": "https://tools.usps.com/UspsToolsRestServices/rest/POLocator/findLocations", "@spider": "usps_collection_boxes", "addr:city": "FAIRMONT", "addr:country": "US", "addr:postcode": "26554", "addr:state": "WV", "addr:street_address": "331 MADISON ST", "amenity": "post_box", "collection_times": "Mo-Sa 11:15", "nsi_id": "unitedstatespostalservice-a77078", "operator": "United States Postal Service", "operator:short": "USPS", "operator:type": "public", "operator:wikidata": "Q668687", "ref": "2655400044"}, "type": "Feature"}
{"geometry": {"coordinates": [-80.1370588, 39.48117], "type": "Point"}, "id": "COAHlT0ZTfiWWRSZVJ2QStble4o=", "properties": {"@source_uri": "https://tools.usps.com/UspsToolsRestServices/rest/POLocator/findLocations", "@spider": "usps_collection_boxes", "addr:city": "FAIRMONT", "addr:country": "US", "addr:postcode": "26554", "addr:state": "WV", "addr:street_address": "301 MARKET ST", "amenity": "post_box", "collection_times": "Mo-Sa 10:45", "nsi_id": "unitedstatespostalservice-a77078", "operator": "United States Postal Service", "operator:short": "USPS", "operator:type": "public", "operator:wikidata": "Q668687", "ref": "2655400055"}, "type": "Feature"}
{"geometry": {"coordinates": [-80.1297921, 39.479273], "type": "Point"}, "id": "sES9MBBsgnfv7cThZWEQ1GkEWH0=", "properties": {"@source_uri": "https://tools.usps.com/UspsToolsRestServices/rest/POLocator/findLocations", "@spider": "usps_collection_boxes", "addr:city": "FAIRMONT", "addr:country": "US", "addr:postcode": "26554", "addr:state": "WV", "addr:street_address": "503 MORGANTOWN AVE", "amenity": "post_box", "collection_times": "Mo-Sa 10:45", "nsi_id": "unitedstatespostalservice-a77078", "operator": "United States Postal Service", "operator:short": "USPS", "operator:type": "public", "operator:wikidata": "Q668687", "ref": "2655400060"}, "type": "Feature"}
{"geometry": {"coordinates": [-80.113520917, 39.484304509], "type": "Point"}, "id": "DtvolHkv2u_kKeqy6IZ4F0y912k=", "properties": {"@source_uri": "https://tools.usps.com/UspsToolsRestServices/rest/POLocator/findLocations", "@spider": "usps_collection_boxes", "addr:city": "FAIRMONT", "addr:country": "US", "addr:postcode": "26554", "addr:state": "WV", "addr:street_address": "1602 MORGANTOWN AVE", "amenity": "post_box", "collection_times": "Mo-Sa 10:45", "nsi_id": "unitedstatespostalservice-a77078", "operator": "United States Postal Service", "operator:short": "USPS", "operator:type": "public", "operator:wikidata": "Q668687", "ref": "2655400061"}, "type": "Feature"}
{"geometry": {"coordinates": [-80.1425021277, 39.4849253597], "type": "Point"}, "id": "uKgSKMmg8ULY8wAh1j1hb_Y0fGw=", "properties": {"@source_uri": "https://tools.usps.com/UspsToolsRestServices/rest/POLocator/findLocations", "@spider": "usps_collection_boxes", "addr:city": "FAIRMONT", "addr:country": "US", "addr:postcode": "26554", "addr:state": "WV", "addr:street_address": "301 ADAMS ST", "amenity": "post_box", "collection_times": "Mo-Fr 11:00", "nsi_id": "unitedstatespostalservice-a77078", "operator": "United States Postal Service", "operator:short": "USPS", "operator:type": "public", "operator:wikidata": "Q668687", "ref": "2655400073"}, "type": "Feature"}
{"geometry": {"coordinates": [-80.1399743, 39.498711], "type": "Point"}, "id": "GirEUBDCG0R5dsq5I_k5KGWBSss=", "properties": {"@source_uri": "https://tools.usps.com/UspsToolsRestServices/rest/POLocator/findLocations", "@spider": "usps_collection_boxes", "addr:city": "FAIRMONT", "addr:country": "US", "addr:postcode": "26554", "addr:state": "WV", "addr:street_address": "609 BELLVIEW BLVD", "amenity": "post_box", "collection_times": "Mo-Sa 11:00", "nsi_id": "unitedstatespostalservice-a77078", "operator": "United States Postal Service", "operator:short": "USPS", "operator:type": "public", "operator:wikidata": "Q668687", "ref": "2655400077"}, "type": "Feature"}
{"geometry": {"coordinates": [-80.1565095, 39.495473], "type": "Point"}, "id": "ZVyv4m8PHkHGHNUsqflZtuEkNQM=", "properties": {"@source_uri": "https://tools.usps.com/UspsToolsRestServices/rest/POLocator/findLocations", "@spider": "usps_collection_boxes", "addr:city": "FAIRMONT", "addr:country": "US", "addr:postcode": "26554", "addr:state": "WV", "addr:street_address": "200 GREENBRIER PLZ", "amenity": "post_box", "collection_times": "Mo-Sa 10:00", "nsi_id": "unitedstatespostalservice-a77078", "operator": "United States Postal Service", "operator:short": "USPS", "operator:type": "public", "operator:wikidata": "Q668687", "ref": "2655400084"}, "type": "Feature"}
{"geometry": {"coordinates": [-80.141861396, 39.485844925], "type": "Point"}, "id": "6jn6A6Ie1-VBIIzs3MAIKZYWpEo=", "properties": {"@source_uri": "https://tools.usps.com/UspsToolsRestServices/rest/POLocator/findLocations", "@spider": "usps_collection_boxes", "addr:city": "FAIRMONT", "addr:country": "US", "addr:postcode": "26554", "addr:state": "WV", "addr:street_address": "331 MADISON ST", "amenity": "post_box", "collection_times": "Mo-Sa 11:15", "indoor": "yes", "nsi_id": "unitedstatespostalservice-a77078", "operator": "United States Postal Service", "operator:short": "USPS", "operator:type": "public", "operator:wikidata": "Q668687", "ref": "2655400087"}, "type": "Feature"}
{"geometry": {"coordinates": [-80.137608361, 39.481782916], "type": "Point"}, "id": "2qeG3tpU64y0F_Sa9VA7ERgcU-Y=", "properties": {"@source_uri": "https://tools.usps.com/UspsToolsRestServices/rest/POLocator/findLocations", "@spider": "usps_collection_boxes", "addr:city": "FAIRMONT", "addr:country": "US", "addr:postcode": "26554", "addr:state": "WV", "addr:street_address": "215 MERCHANT ST", "amenity": "post_box", "collection_times": "Mo-Sa 10:45", "indoor": "yes", "nsi_id": "unitedstatespostalservice-a77078", "operator": "United States Postal Service", "operator:short": "USPS", "operator:type": "public", "operator:wikidata": "Q668687", "ref": "2655400091"}, "type": "Feature"}
{"geometry": {"coordinates": [-80.1905078, 39.424356], "type": "Point"}, "id": "2CZV-YHftk4iB9MzSS2Qw5uSU58=", "properties": {"@source_uri": "https://tools.usps.com/UspsToolsRestServices/rest/POLocator/findLocations", "@spider": "usps_collection_boxes", "addr:city": "FAIRMONT", "addr:country": "US", "addr:postcode": "26554", "addr:state": "WV", "addr:street_address": "32 TYGART MALL LOOP", "amenity": "post_box", "collection_times": "Mo-Sa 10:30", "nsi_id": "unitedstatespostalservice-a77078", "operator": "United States Postal Service", "operator:short": "USPS", "operator:type": "public", "operator:wikidata": "Q668687", "ref": "2655400093"}, "type": "Feature"}
{"geometry": {"coordinates": [-80.141861396, 39.485844925], "type": "Point"}, "id": "IxCYgiTZHASMDqHl4mswfLe1ayM=", "properties": {"@source_uri": "https://tools.usps.com/UspsToolsRestServices/rest/POLocator/findLocations", "@spider": "usps_collection_boxes", "addr:city": "FAIRMONT", "addr:country": "US", "addr:postcode": "26554", "addr:state": "WV", "addr:street_address": "331 MADISON ST", "amenity": "post_box", "collection_times": "Mo-Fr 17:00; Sa 12:00", "indoor": "yes", "note": "ON 12/24 AND 12/31, THIS BOX MAY BE COLLECTED AS EARLY AS 12 NOON.", "nsi_id": "unitedstatespostalservice-a77078", "operator": "United States Postal Service", "operator:short": "USPS", "operator:type": "public", "operator:wikidata": "Q668687", "ref": "2655400099"}, "type": "Feature"}
{"geometry": {"coordinates": [-80.137608361, 39.481782916], "type": "Point"}, "id": "v8AQRllTWH--1rUW2xhaz2K3Lsk=", "properties": {"@source_uri": "https://tools.usps.com/UspsToolsRestServices/rest/POLocator/findLocations", "@spider": "usps_collection_boxes", "addr:city": "FAIRMONT", "addr:country": "US", "addr:postcode": "26554", "addr:state": "WV", "addr:street_address": "215 MERCHANT ST", "amenity": "post_box", "collection_times": "Mo-Fr 16:00; Sa 12:00", "indoor": "yes", "note": "ON 12/24 AND 12/31, THIS BOX MAY BE COLLECTED AS EARLY AS 12 NOON.", "nsi_id": "unitedstatespostalservice-a77078", "operator": "United States Postal Service", "operator:short": "USPS", "operator:type": "public", "operator:wikidata": "Q668687", "ref": "2655400100"}, "type": "Feature"}
{"geometry": {"coordinates": [-80.215845654, 39.46474194], "type": "Point"}, "id": "Lm9eyKhZV6ggCVrJ44D8l1yauAE=", "properties": {"@source_uri": "https://tools.usps.com/UspsToolsRestServices/rest/POLocator/findLocations", "@spider": "usps_collection_boxes", "addr:city": "FAIRMONT", "addr:country": "US", "addr:postcode": "26554", "addr:state": "WV", "addr:street_address": "428 CAMDEN AVE SIDE", "amenity": "post_box", "collection_times": "Mo-Fr 12:00", "indoor": "yes", "nsi_id": "unitedstatespostalservice-a77078", "operator": "United States Postal Service", "operator:short": "USPS", "operator:type": "public", "operator:wikidata": "Q668687", "ref": "2655400101"}, "type": "Feature"}
{"geometry": {"coordinates": [-80.167480657, 39.504676024], "type": "Point"}, "id": "nVX0jRdVxpfXzqB-qy_m_xivn8c=", "properties": {"@source_uri": "https://tools.usps.com/UspsToolsRestServices/rest/POLocator/findLocations", "@spider": "usps_collection_boxes", "addr:city": "BARRACKVILLE", "addr:country": "US", "addr:postcode": "26559", "addr:state": "WV", "addr:street_address": "209 PIKE ST", "amenity": "post_box", "collection_times": "Mo-Fr 15:30; Sa 11:30", "note": "ON 12/24 AND 12/31, THIS BOX MAY BE COLLECTED AS EARLY AS 12 NOON.", "nsi_id": "unitedstatespostalservice-a77078", "operator": "United States Postal Service", "operator:short": "USPS", "operator:type": "public", "operator:wikidata": "Q668687", "ref": "2655900000"}, "type": "Feature"}
{"geometry": {"coordinates": [-80.167480657, 39.504676024], "type": "Point"}, "id": "mBxbwOWJonpMwdGPzkbIa9YkGlY=", "properties": {"@source_uri": "https://tools.usps.com/UspsToolsRestServices/rest/POLocator/findLocations", "@spider": "usps_collection_boxes", "addr:city": "BARRACKVILLE", "addr:country": "US", "addr:postcode": "26559", "addr:state": "WV", "addr:street_address": "209 PIKE ST", "amenity": "post_box", "collection_times": "Mo-Fr 15:30; Sa 11:30", "indoor": "yes", "note": "ON 12/24 AND 12/31, THIS BOX MAY BE COLLECTED AS EARLY AS 12 NOON.", "nsi_id": "unitedstatespostalservice-a77078", "operator": "United States Postal Service", "operator:short": "USPS", "operator:type": "public", "operator:wikidata": "Q668687", "ref": "2655900001"}, "type": "Feature"}
{"geometry": {"coordinates": [-80.167480657, 39.504676024], "type": "Point"}, "id": "-YL82K1amxzK66_6unyXYDmPU-E=", "properties": {"@source_uri": "https://tools.usps.com/UspsToolsRestServices/rest/POLocator/findLocations", "@spider": "usps_collection_boxes", "addr:city": "BARRACKVILLE", "addr:country": "US", "addr:postcode": "26559", "addr:state": "WV", "addr:street_address": "209 PIKE ST", "amenity": "post_box", "collection_times": "Mo-Fr 16:00; Sa 12:00", "indoor": "yes", "note": "ON 12/24 AND 12/31, THIS BOX MAY BE COLLECTED AS EARLY AS 12 NOON.", "nsi_id": "unitedstatespostalservice-a77078", "operator": "United States Postal Service", "operator:short": "USPS", "operator:type": "public", "operator:wikidata": "Q668687", "ref": "2655900003"}, "type": "Feature"}
{"geometry": {"coordinates": [-80.275679, 39.483014], "type": "Point"}, "id": "FMNDzbZbtLGYihn1Ep1GmjYhcS4=", "properties": {"@source_uri": "https://tools.usps.com/UspsToolsRestServices/rest/POLocator/findLocations", "@spider": "usps_collection_boxes", "addr:city": "CAROLINA", "addr:country": "US", "addr:postcode": "26563", "addr:state": "WV", "addr:street_address": "33 MAIN ST", "amenity": "post_box", "collection_times": "Mo-Fr 11:45; Sa 09:45", "nsi_id": "unitedstatespostalservice-a77078", "operator": "United States Postal Service", "operator:short": "USPS", "operator:type": "public", "operator:wikidata": "Q668687", "ref": "2656300000"}, "type": "Feature"}
{"geometry": {"coordinates": [-80.275728, 39.483063], "type": "Point"}, "id": "YH1w8G61EMi0aCYAX9F5xr3bbQA=", "properties": {"@source_uri": "https://tools.usps.com/UspsToolsRestServices/rest/POLocator/findLocations", "@spider": "usps_collection_boxes", "addr:city": "CAROLINA", "addr:country": "US", "addr:postcode": "26563", "addr:state": "WV", "addr:street_address": "33 MAIN ST", "amenity": "post_box", "collection_times": "Mo-Fr 11:45; Sa 09:45", "indoor": "yes", "nsi_id": "unitedstatespostalservice-a77078", "operator": "United States Postal Service", "operator:short": "USPS", "operator:type": "public", "operator:wikidata": "Q668687", "ref": "2656300001"}, "type": "Feature"}
{"geometry": {"coordinates": [-80.2718674515, 39.4783525832], "type": "Point"}, "id": "YMmynKAwbNSr4asi_1OHYYR3Op8=", "properties": {"@source_uri": "https://tools.usps.com/UspsToolsRestServices/rest/POLocator/findLocations", "@spider": "usps_collection_boxes", "addr:city": "CAROLINA", "addr:country": "US", "addr:postcode": "26563", "addr:state": "WV", "addr:street_address": "33 MAIN ST", "amenity": "post_box", "collection_times": "Mo-Fr 12:00; Sa 10:00", "indoor": "yes", "nsi_id": "unitedstatespostalservice-a77078", "operator": "United States Postal Service", "operator:short": "USPS", "operator:type": "public", "operator:wikidata": "Q668687", "ref": "2656300003"}, "type": "Feature"}
{"geometry": {"coordinates": [-80.129636, 39.435239], "type": "Point"}, "id": "RW0XkzIchfP-peAAvUX06lUqUDQ=", "properties": {"@source_uri": "https://tools.usps.com/UspsToolsRestServices/rest/POLocator/findLocations", "@spider": "usps_collection_boxes", "addr:city": "COLFAX", "addr:country": "US", "addr:postcode": "26566", "addr:state": "WV", "addr:street_address": "1734 COLFAX RD", "amenity": "post_box", "collection_times": "Mo-Fr 11:45; Sa 11:00", "nsi_id": "unitedstatespostalservice-a77078", "operator": "United States Postal Service", "operator:short": "USPS", "operator:type": "public", "operator:wikidata": "Q668687", "ref": "2656600000"}, "type": "Feature"}
{"geometry": {"coordinates": [-80.129636, 39.435239], "type": "Point"}, "id": "e0A6XMIXEy1HoxHXpW-_u1praQw=", "properties": {"@source_uri": "https://tools.usps.com/UspsToolsRestServices/rest/POLocator/findLocations", "@spider": "usps_collection_boxes", "addr:city": "COLFAX", "addr:country": "US", "addr:postcode": "26566", "addr:state": "WV", "addr:street_address": "1734 COLFAX RD", "amenity": "post_box", "collection_times": "Mo-Fr 11:45; Sa 11:00", "indoor": "yes", "nsi_id": "unitedstatespostalservice-a77078", "operator": "United States Postal Service", "operator:short": "USPS", "operator:type": "public", "operator:wikidata": "Q668687", "ref": "2656600001"}, "type": "Feature"}
{"geometry": {"coordinates": [-80.131086856, 39.435279422], "type": "Point"}, "id": "xXX6IVbCqzja_ZLvzfHe5yjyEjE=", "properties": {"@source_uri": "https://tools.usps.com/UspsToolsRestServices/rest/POLocator/findLocations", "@spider": "usps_collection_boxes", "addr:city": "COLFAX", "addr:country": "US", "addr:postcode": "26566", "addr:state": "WV", "addr:street_address": "1734 COLFAX RD", "amenity": "post_box", "collection_times": "Mo-Fr 12:00; Sa 11:15", "indoor": "yes", "nsi_id": "unitedstatespostalservice-a77078", "operator": "United States Postal Service", "operator:short": "USPS", "operator:type": "public", "operator:wikidata": "Q668687", "ref": "2656600003"}, "type": "Feature"}
{"geometry": {"coordinates": [-80.31554, 39.391364], "type": "Point"}, "id": "-bZDZDQrj7FaY6VAJrYWJceTwrc=", "properties": {"@source_uri": "https://tools.usps.com/UspsToolsRestServices/rest/POLocator/findLocations", "@spider": "usps_collection_boxes", "addr:city": "ENTERPRISE", "addr:country": "US", "addr:postcode": "26568", "addr:state": "WV", "addr:street_address": "3215 HOOD AVE", "amenity": "post_box", "collection_times": "Mo-Fr 11:45; Sa 09:45", "nsi_id": "unitedstatespostalservice-a77078", "operator": "United States Postal Service", "operator:short": "USPS", "operator:type": "public", "operator:wikidata": "Q668687", "ref": "2656800000"}, "type": "Feature"}
{"geometry": {"coordinates": [-80.31554, 39.391364], "type": "Point"}, "id": "vvJSqK2IDbSjhYnCo4rd142LxSc=", "properties": {"@source_uri": "https://tools.usps.com/UspsToolsRestServices/rest/POLocator/findLocations", "@spider": "usps_collection_boxes", "addr:city": "ENTERPRISE", "addr:country": "US", "addr:postcode": "26568", "addr:state": "WV", "addr:street_address": "3215 HOOD AVE", "amenity": "post_box", "collection_times": "Mo-Fr 11:45; Sa 09:45", "indoor": "yes", "nsi_id": "unitedstatespostalservice-a77078", "operator": "United States Postal Service", "operator:short": "USPS", "operator:type": "public", "operator:wikidata": "Q668687", "ref": "2656800001"}, "type": "Feature"}
{"geometry": {"coordinates": [-80.277577626, 39.421731039], "type": "Point"}, "id": "F8l5f2A2_SsrruXBDCWUKsK2yok=", "properties": {"@source_uri": "https://tools.usps.com/UspsToolsRestServices/rest/POLocator/findLocations", "@spider": "usps_collection_boxes", "addr:city": "ENTERPRISE", "addr:country": "US", "addr:postcode": "26568", "addr:state": "WV", "addr:street_address": "3215 HOOD AVE", "amenity": "post_box", "collection_times": "Mo-Fr 12:00; Sa 10:00", "indoor": "yes", "nsi_id": "unitedstatespostalservice-a77078", "operator": "United States Postal Service", "operator:short": "USPS", "operator:type": "public", "operator:wikidata": "Q668687", "ref": "2656800003"}, "type": "Feature"}
{"geometry": {"coordinates": [-80.247307, 39.592466], "type": "Point"}, "id": "PfJYZh9RK0AFnWTLStQ1KpUsMJA=", "properties": {"@source_uri": "https://tools.usps.com/UspsToolsRestServices/rest/POLocator/findLocations", "@spider": "usps_collection_boxes", "addr:city": "FAIRVIEW", "addr:country": "US", "addr:postcode": "26570", "addr:state": "WV", "addr:street_address": "310 MAIN ST", "amenity": "post_box", "collection_times": "Mo-Fr 14:45; Sa 11:00", "note": "ON 12/24 AND 12/31, THIS BOX MAY BE COLLECTED AS EARLY AS 12 NOON.", "nsi_id": "unitedstatespostalservice-a77078", "operator": "United States Postal Service", "operator:short": "USPS", "operator:type": "public", "operator:wikidata": "Q668687", "ref": "2657000000"}, "type": "Feature"}
{"geometry": {"coordinates": [-80.247214, 39.592493], "type": "Point"}, "id": "E_CsAWUKgjiBBMpk5_1BwV3hubQ=", "properties": {"@source_uri": "https://tools.usps.com/UspsToolsRestServices/rest/POLocator/findLocations", "@spider": "usps_collection_boxes", "addr:city": "FAIRVIEW", "addr:country": "US", "addr:postcode": "26570", "addr:state": "WV", "addr:street_address": "310 MAIN ST", "amenity": "post_box", "collection_times": "Mo-Fr 14:45; Sa 11:00", "indoor": "yes", "note": "ON 12/24 AND 12/31, THIS BOX MAY BE COLLECTED AS EARLY AS 12 NOON.", "nsi_id": "unitedstatespostalservice-a77078", "operator": "United States Postal Service", "operator:short": "USPS", "operator:type": "public", "operator:wikidata": "Q668687", "ref": "2657000001"}, "type": "Feature"}
{"geometry": {"coordinates": [-80.247435668, 39.592410832], "type": "Point"}, "id": "bGADL4PHt9YKlJ2U8VAXC63FhfY=", "properties": {"@source_uri": "https://tools.usps.com/UspsToolsRestServices/rest/POLocator/findLocations", "@spider": "usps_collection_boxes", "addr:city": "FAIRVIEW", "addr:country": "US", "addr:postcode": "26570", "addr:state": "WV", "addr:street_address": "310 MAIN ST", "amenity": "post_box", "collection_times": "Mo-Fr 15:00; Sa 11:00", "indoor": "yes", "note": "ON 12/24 AND 12/31, THIS BOX MAY BE COLLECTED AS EARLY AS 12 NOON.", "nsi_id": "unitedstatespostalservice-a77078", "operator": "United States Postal Service", "operator:short": "USPS", "operator:type": "public", "operator:wikidata": "Q668687", "ref": "2657000003"}, "type": "Feature"}
{"geometry": {"coordinates": [-80.249857, 39.514789], "type": "Point"}, "id": "qnBMWA-G-hzzOVcAyjztVRiVX2w=", "properties": {"@source_uri": "https://tools.usps.com/UspsToolsRestServices/rest/POLocator/findLocations", "@spider": "usps_collection_boxes", "addr:city": "FARMINGTON", "addr:country": "US", "addr:postcode": "26571", "addr:state": "WV", "addr:street_address": "3003 MAIN ST", "amenity": "post_box", "collection_times": "Mo-Fr 14:15; Sa 10:00", "note": "ON 12/24 AND 12/31, THIS BOX MAY BE COLLECTED AS EARLY AS 12 NOON.", "nsi_id": "unitedstatespostalservice-a77078", "operator": "United States Postal Service", "operator:short": "USPS", "operator:type": "public", "operator:wikidata": "Q668687", "ref": "2657100000"}, "type": "Feature"}
{"geometry": {"coordinates": [-80.249779, 39.514722], "type": "Point"}, "id": "ia6LWcPbg7GYswP8TM99pX3YX6Y=", "properties": {"@source_uri": "https://tools.usps.com/UspsToolsRestServices/rest/POLocator/findLocations", "@spider": "usps_collection_boxes", "addr:city": "FARMINGTON", "addr:country": "US", "addr:postcode": "26571", "addr:state": "WV", "addr:street_address": "3003 MAIN ST", "amenity": "post_box", "collection_times": "Mo-Fr 14:00; Sa 10:00", "indoor": "yes", "note": "ON 12/24 AND 12/31, THIS BOX MAY BE COLLECTED AS EARLY AS 12 NOON.", "nsi_id": "unitedstatespostalservice-a77078", "operator": "United States Postal Service", "operator:short": "USPS", "operator:type": "public", "operator:wikidata": "Q668687", "ref": "2657100002"}, "type": "Feature"}
{"geometry": {"coordinates": [-80.249860358, 39.514738801], "type": "Point"}, "id": "pGhzgQITIkAY_eZtTs8VFzL7Dx4=", "properties": {"@source_uri": "https://tools.usps.com/UspsToolsRestServices/rest/POLocator/findLocations", "@spider": "usps_collection_boxes", "addr:city": "FARMINGTON", "addr:country": "US", "addr:postcode": "26571", "addr:state": "WV", "addr:street_address": "3003 MAIN ST", "amenity": "post_box", "collection_times": "Mo-Fr 14:30; Sa 10:30", "indoor": "yes", "note": "ON 12/24 AND 12/31, THIS BOX MAY BE COLLECTED AS EARLY AS 12 NOON.", "nsi_id": "unitedstatespostalservice-a77078", "operator": "United States Postal Service", "operator:short": "USPS", "operator:type": "public", "operator:wikidata": "Q668687", "ref": "2657100004"}, "type": "Feature"}
{"geometry": {"coordinates": [-80.31229, 39.481708], "type": "Point"}, "id": "Tcqw72ZjHrCIwEybE2lRuXec2gE=", "properties": {"@source_uri": "https://tools.usps.com/UspsToolsRestServices/rest/POLocator/findLocations", "@spider": "usps_collection_boxes", "addr:city": "FOUR STATES", "addr:country": "US", "addr:postcode": "26572", "addr:state": "WV", "addr:street_address": "84 FOUR STATES RD", "amenity": "post_box", "collection_times": "Mo-Sa 10:00", "nsi_id": "unitedstatespostalservice-a77078", "operator": "United States Postal Service", "operator:short": "USPS", "operator:type": "public", "operator:wikidata": "Q668687", "ref": "2657200000"}, "type": "Feature"}
{"geometry": {"coordinates": [-80.3071220314, 39.4789960093], "type": "Point"}, "id": "hcbo_x5v9IuXhAt9r7S-SJ3BOkE=", "properties": {"@source_uri": "https://tools.usps.com/UspsToolsRestServices/rest/POLocator/findLocations", "@spider": "usps_collection_boxes", "addr:city": "FOUR STATES", "addr:country": "US", "addr:postcode": "26572", "addr:state": "WV", "addr:street_address": "84 FOUR STATES RD", "amenity": "post_box", "collection_times": "Mo-Sa 10:00", "indoor": "yes", "nsi_id": "unitedstatespostalservice-a77078", "operator": "United States Postal Service", "operator:short": "USPS", "operator:type": "public", "operator:wikidata": "Q668687", "ref": "2657200001"}, "type": "Feature"}
{"geometry": {"coordinates": [-80.306950807, 39.478646173], "type": "Point"}, "id": "zyM9mvv-9IzfkN0wLkwV9M5dHLw=", "properties": {"@source_uri": "https://tools.usps.com/UspsToolsRestServices/rest/POLocator/findLocations", "@spider": "usps_collection_boxes", "addr:city": "FOUR STATES", "addr:country": "US", "addr:postcode": "26572", "addr:state": "WV", "addr:street_address": "84 FOUR STATES RD", "amenity": "post_box", "collection_times": "Mo-Sa 10:00", "indoor": "yes", "nsi_id": "unitedstatespostalservice-a77078", "operator": "United States Postal Service", "operator:short": "USPS", "operator:type": "public", "operator:wikidata": "Q668687", "ref": "2657200003"}, "type": "Feature"}
{"geometry": {"coordinates": [-80.179866, 39.557115], "type": "Point"}, "id": "8nXw1FbXBFyV2IKfU0Px7b1xSO8=", "properties": {"@source_uri": "https://tools.usps.com/UspsToolsRestServices/rest/POLocator/findLocations", "@spider": "usps_collection_boxes", "addr:city": "GRANT TOWN", "addr:country": "US", "addr:postcode": "26574", "addr:state": "WV", "addr:street_address": "107 1/2 BALLAH AVE", "amenity": "post_box", "collection_times": "Mo-Fr 13:00; Sa 09:45", "note": "ON 12/24 AND 12/31, THIS BOX MAY BE COLLECTED AS EARLY AS 12 NOON.", "nsi_id": "unitedstatespostalservice-a77078", "operator": "United States Postal Service", "operator:short": "USPS", "operator:type": "public", "operator:wikidata": "Q668687", "ref": "2657400000"}, "type": "Feature"}
{"geometry": {"coordinates": [-80.179877, 39.557198], "type": "Point"}, "id": "Zk1OkJX_kc1G_--s4vnovxM3yx8=", "properties": {"@source_uri": "https://tools.usps.com/UspsToolsRestServices/rest/POLocator/findLocations", "@spider": "usps_collection_boxes", "addr:city": "GRANT TOWN", "addr:country": "US", "addr:postcode": "26574", "addr:state": "WV", "addr:street_address": "107 1/2 BALLAH AVE", "amenity": "post_box", "collection_times": "Mo-Fr 13:00; Sa 09:45", "indoor": "yes", "note": "ON 12/24 AND 12/31, THIS BOX MAY BE COLLECTED AS EARLY AS 12 NOON.", "nsi_id": "unitedstatespostalservice-a77078", "operator": "United States Postal Service", "operator:short": "USPS", "operator:type": "public", "operator:wikidata": "Q668687", "ref": "2657400001"}, "type": "Feature"}
{"geometry": {"coordinates": [-80.179780294, 39.557105699], "type": "Point"}, "id": "Oxygv_gykedTbB7aD3JI6RuNsN8=", "properties": {"@source_uri": "https://tools.usps.com/UspsToolsRestServices/rest/POLocator/findLocations", "@spider": "usps_collection_boxes", "addr:city": "GRANT TOWN", "addr:country": "US", "addr:postcode": "26574", "addr:state": "WV", "addr:street_address": "107 1/2 BALLAH AVE", "amenity": "post_box", "collection_times": "Mo-Fr 13:30; Sa 09:45", "indoor": "yes", "note": "ON 12/24 AND 12/31, THIS BOX MAY BE COLLECTED AS EARLY AS 12 NOON.", "nsi_id": "unitedstatespostalservice-a77078", "operator": "United States Postal Service", "operator:short": "USPS", "operator:type": "public", "operator:wikidata": "Q668687", "ref": "2657400003"}, "type": "Feature"}
{"geometry": {"coordinates": [-80.459173034, 39.683849185], "type": "Point"}, "id": "0QOwyaxq-4r4XUFzvCqgNIzsJmg=", "properties": {"@source_uri": "https://tools.usps.com/UspsToolsRestServices/rest/POLocator/findLocations", "@spider": "usps_collection_boxes", "addr:city": "HUNDRED", "addr:country": "US", "addr:postcode": "26575", "addr:state": "WV", "addr:street_address": "3992 HORNET HWY", "amenity": "post_box", "collection_times": "Mo-Fr 14:15; Sa 09:15", "note": "ON 12/24 AND 12/31, THIS BOX MAY BE COLLECTED AS EARLY AS 12 NOON.", "nsi_id": "unitedstatespostalservice-a77078", "operator": "United States Postal Service", "operator:short": "USPS", "operator:type": "public", "operator:wikidata": "Q668687", "ref": "2657500000"}, "type": "Feature"}
{"geometry": {"coordinates": [-80.459173034, 39.683849185], "type": "Point"}, "id": "mkNDkDEbcGKDRO7ieVkryT6rSRM=", "properties": {"@source_uri": "https://tools.usps.com/UspsToolsRestServices/rest/POLocator/findLocations", "@spider": "usps_collection_boxes", "addr:city": "HUNDRED", "addr:country": "US", "addr:postcode": "26575", "addr:state": "WV", "addr:street_address": "3992 HORNET HWY", "amenity": "post_box", "collection_times": "Mo-Fr 14:15; Sa 09:15", "indoor": "yes", "note": "ON 12/24 AND 12/31, THIS BOX MAY BE COLLECTED AS EARLY AS 12 NOON.", "nsi_id": "unitedstatespostalservice-a77078", "operator": "United States Postal Service", "operator:short": "USPS", "operator:type": "public", "operator:wikidata": "Q668687", "ref": "2657500001"}, "type": "Feature"}
{"geometry": {"coordinates": [-80.459173034, 39.683849185], "type": "Point"}, "id": "IdaMn-d7HQC9FgLzDIJT-0Qnkcw=", "properties": {"@source_uri": "https://tools.usps.com/UspsToolsRestServices/rest/POLocator/findLocations", "@spider": "usps_collection_boxes", "addr:city": "HUNDRED", "addr:country": "US", "addr:postcode": "26575", "addr:state": "WV", "addr:street_address": "3992 HORNET HWY", "amenity": "post_box", "collection_times": "Mo-Fr 16:00; Sa 09:00", "indoor": "yes", "note": "ON 12/24 AND 12/31, THIS BOX MAY BE COLLECTED AS EARLY AS 12 NOON.", "nsi_id": "unitedstatespostalservice-a77078", "operator": "United States Postal Service", "operator:short": "USPS", "operator:type": "public", "operator:wikidata": "Q668687", "ref": "2657500003"}, "type": "Feature"}
{"geometry": {"coordinates": [-80.2606049833, 39.4947339965], "type": "Point"}, "id": "lB2Bj9NOdLibc90mwNYptqyX_VU=", "properties": {"@source_uri": "https://tools.usps.com/UspsToolsRestServices/rest/POLocator/findLocations", "@spider": "usps_collection_boxes", "addr:city": "IDAMAY", "addr:country": "US", "addr:postcode": "26576", "addr:state": "WV", "addr:street_address": "1194 MAIN ST", "amenity": "post_box", "collection_times": "Mo-Fr 11:45; Sa 09:45", "nsi_id": "unitedstatespostalservice-a77078", "operator": "United States Postal Service", "operator:short": "USPS", "operator:type": "public", "operator:wikidata": "Q668687", "ref": "2657600000"}, "type": "Feature"}
{"geometry": {"coordinates": [-80.260616, 39.49475], "type": "Point"}, "id": "q3bSH1yx9zf5mfn3Ma1pwdtM028=", "properties": {"@source_uri": "https://tools.usps.com/UspsToolsRestServices/rest/POLocator/findLocations", "@spider": "usps_collection_boxes", "addr:city": "IDAMAY", "addr:country": "US", "addr:postcode": "26576", "addr:state": "WV", "addr:street_address": "1194 MAIN ST", "amenity": "post_box", "collection_times": "Mo-Fr 11:45; Sa 09:45", "indoor": "yes", "nsi_id": "unitedstatespostalservice-a77078", "operator": "United States Postal Service", "operator:short": "USPS", "operator:type": "public", "operator:wikidata": "Q668687", "ref": "2657600001"}, "type": "Feature"}
{"geometry": {"coordinates": [-80.260889132, 39.493568856], "type": "Point"}, "id": "sbgQAZduguta6vZgIeR8ZiTEhmE=", "properties": {"@source_uri": "https://tools.usps.com/UspsToolsRestServices/rest/POLocator/findLocations", "@spider": "usps_collection_boxes", "addr:city": "IDAMAY", "addr:country": "US", "addr:postcode": "26576", "addr:state": "WV", "addr:street_address": "1194 MAIN ST", "amenity": "post_box", "collection_times": "Mo-Fr 12:00; Sa 09:45", "indoor": "yes", "nsi_id": "unitedstatespostalservice-a77078", "operator": "United States Postal Service", "operator:short": "USPS", "operator:type": "public", "operator:wikidata": "Q668687", "ref": "2657600003"}, "type": "Feature"}
{"geometry": {"coordinates": [-80.175497, 39.44612], "type": "Point"}, "id": "2R0SWaAcoXt2ojqTWRQUbYcDNfU=", "properties": {"@source_uri": "https://tools.usps.com/UspsToolsRestServices/rest/POLocator/findLocations", "@spider": "usps_collection_boxes", "addr:city": "KINGMONT", "addr:country": "US", "addr:postcode": "26578", "addr:state": "WV", "addr:street_address": "2379 KINGMONT RD", "amenity": "post_box", "collection_times": "Mo-Fr 15:45; Sa 10:30", "note": "ON 12/24 AND 12/31, THIS BOX MAY BE COLLECTED AS EARLY AS 12 NOON.", "nsi_id": "unitedstatespostalservice-a77078", "operator": "United States Postal Service", "operator:short": "USPS", "operator:type": "public", "operator:wikidata": "Q668687", "ref": "2657800000"}, "type": "Feature"}
{"geometry": {"coordinates": [-80.175497, 39.44612], "type": "Point"}, "id": "n_OXN8GiavkiSk9L0OEUGEIrYGY=", "properties": {"@source_uri": "https://tools.usps.com/UspsToolsRestServices/rest/POLocator/findLocations", "@spider": "usps_collection_boxes", "addr:city": "KINGMONT", "addr:country": "US", "addr:postcode": "26578", "addr:state": "WV", "addr:street_address": "2379 KINGMONT RD", "amenity": "post_box", "collection_times": "Mo-Fr 15:45; Sa 10:30", "indoor": "yes", "note": "ON 12/24 AND 12/31, THIS BOX MAY BE COLLECTED AS EARLY AS 12 NOON.", "nsi_id": "unitedstatespostalservice-a77078", "operator": "United States Postal Service", "operator:short": "USPS", "operator:type": "public", "operator:wikidata": "Q668687", "ref": "2657800001"}, "type": "Feature"}
{"geometry": {"coordinates": [-80.175256749, 39.446103185], "type": "Point"}, "id": "kRx0NQlsSU9-SYTPNmqNTdBTSUc=", "properties": {"@source_uri": "https://tools.usps.com/UspsToolsRestServices/rest/POLocator/findLocations", "@spider": "usps_collection_boxes", "addr:city": "KINGMONT", "addr:country": "US", "addr:postcode": "26578", "addr:state": "WV", "addr:street_address": "2379 KINGMONT RD", "amenity": "post_box", "collection_times": "Mo-Fr 15:45; Sa 10:15", "indoor": "yes", "note": "ON 12/24 AND 12/31, THIS BOX MAY BE COLLECTED AS EARLY AS 12 NOON.", "nsi_id": "unitedstatespostalservice-a77078", "operator": "United States Postal Service", "operator:short": "USPS", "operator:type": "public", "operator:wikidata": "Q668687", "ref": "2657800003"}, "type": "Feature"}
{"geometry": {"coordinates": [-80.5987077369, 39.6684219346], "type": "Point"}, "id": "y5B47F7PSOxJPdQ3jEbghjAHip8=", "properties": {"@source_uri": "https://tools.usps.com/UspsToolsRestServices/rest/POLocator/findLocations", "@spider": "usps_collection_boxes", "addr:city": "LITTLETON", "addr:country": "US", "addr:postcode": "26581", "addr:state": "WV", "addr:street_address": "9585 HORNET HWY", "amenity": "post_box", "collection_times": "Mo-Fr 11:45; Sa 09:45", "indoor": "yes", "nsi_id": "unitedstatespostalservice-a77078", "operator": "United States Postal Service", "operator:short": "USPS", "operator:type": "public", "operator:wikidata": "Q668687", "ref": "2658100001"}, "type": "Feature"}
{"geometry": {"coordinates": [-80.516802996, 39.700508585], "type": "Point"}, "id": "iCc8NDB8m0wuGd8EJNzPFnil-PY=", "properties": {"@source_uri": "https://tools.usps.com/UspsToolsRestServices/rest/POLocator/findLocations", "@spider": "usps_collection_boxes", "addr:city": "LITTLETON", "addr:country": "US", "addr:postcode": "26581", "addr:state": "WV", "addr:street_address": "9585 HORNET HWY", "amenity": "post_box", "collection_times": "Mo-Fr 12:00; Sa 10:00", "indoor": "yes", "nsi_id": "unitedstatespostalservice-a77078", "operator": "United States Postal Service", "operator:short": "USPS", "operator:type": "public", "operator:wikidata": "Q668687", "ref": "2658100003"}, "type": "Feature"}
{"geometry": {"coordinates": [-80.342914506, 39.530440961], "type": "Point"}, "id": "1udgNSY1FUfcihYBcycniGVz-mI=", "properties": {"@source_uri": "https://tools.usps.com/UspsToolsRestServices/rest/POLocator/findLocations", "@spider": "usps_collection_boxes", "addr:city": "MANNINGTON", "addr:country": "US", "addr:postcode": "26582", "addr:state": "WV", "addr:street_address": "113 WATER ST", "amenity": "post_box", "collection_times": "Mo-Fr 15:30; Sa 11:00", "note": "ON 12/24 AND 12/31, THIS BOX MAY BE COLLECTED AS EARLY AS 12 NOON.", "nsi_id": "unitedstatespostalservice-a77078", "operator": "United States Postal Service", "operator:short": "USPS", "operator:type": "public", "operator:wikidata": "Q668687", "ref": "2658200007"}, "type": "Feature"}
{"geometry": {"coordinates": [-80.3220249, 39.518414], "type": "Point"}, "id": "9lRM6P2dH5yKNOChL2aXXcfzfhE=", "properties": {"@source_uri": "https://tools.usps.com/UspsToolsRestServices/rest/POLocator/findLocations", "@spider": "usps_collection_boxes", "addr:city": "MANNINGTON", "addr:country": "US", "addr:postcode": "26582", "addr:state": "WV", "addr:street_address": "4 RAINBOW PLZ", "amenity": "post_box", "collection_times": "Mo-Sa 10:00", "nsi_id": "unitedstatespostalservice-a77078", "operator": "United States Postal Service", "operator:short": "USPS", "operator:type": "public", "operator:wikidata": "Q668687", "ref": "2658200011"}, "type": "Feature"}
{"geometry": {"coordinates": [-80.342914506, 39.530440961], "type": "Point"}, "id": "ridQyiTUCg7bVfEuR6C7UqsF9R4=", "properties": {"@source_uri": "https://tools.usps.com/UspsToolsRestServices/rest/POLocator/findLocations", "@spider": "usps_collection_boxes", "addr:city": "MANNINGTON", "addr:country": "US", "addr:postcode": "26582", "addr:state": "WV", "addr:street_address": "113 WATER ST", "amenity": "post_box", "collection_times": "Mo-Fr 15:30; Sa 11:00", "indoor": "yes", "note": "ON 12/24 AND 12/31, THIS BOX MAY BE COLLECTED AS EARLY AS 12 NOON.", "nsi_id": "unitedstatespostalservice-a77078", "operator": "United States Postal Service", "operator:short": "USPS", "operator:type": "public", "operator:wikidata": "Q668687", "ref": "2658200012"}, "type": "Feature"}
{"geometry": {"coordinates": [-80.342914506, 39.530440961], "type": "Point"}, "id": "ezBZxT9IzMN6U-jeIAy_18b96xY=", "properties": {"@source_uri": "https://tools.usps.com/UspsToolsRestServices/rest/POLocator/findLocations", "@spider": "usps_collection_boxes", "addr:city": "MANNINGTON", "addr:country": "US", "addr:postcode": "26582", "addr:state": "WV", "addr:street_address": "113 WATER ST", "amenity": "post_box", "collection_times": "Mo-Fr 16:00; Sa 11:00", "indoor": "yes", "note": "ON 12/24 AND 12/31, THIS BOX MAY BE COLLECTED AS EARLY AS 12 NOON.", "nsi_id": "unitedstatespostalservice-a77078", "operator": "United States Postal Service", "operator:short": "USPS", "operator:type": "public", "operator:wikidata": "Q668687", "ref": "2658200015"}, "type": "Feature"}
{"geometry": {"coordinates": [-80.303798, 39.517194], "type": "Point"}, "id": "PRiMXjJH-tlaTZDYGqyE_kjXUdo=", "properties": {"@source_uri": "https://tools.usps.com/UspsToolsRestServices/rest/POLocator/findLocations", "@spider": "usps_collection_boxes", "addr:city": "RACHEL", "addr:country": "US", "addr:postcode": "26587", "addr:state": "WV", "addr:street_address": "134 RACHEL RD", "amenity": "post_box", "collection_times": "Mo-Fr 15:30; Sa 10:45", "note": "ON 12/24 AND 12/31, THIS BOX MAY BE COLLECTED AS EARLY AS 12 NOON.", "nsi_id": "unitedstatespostalservice-a77078", "operator": "United States Postal Service", "operator:short": "USPS", "operator:type": "public", "operator:wikidata": "Q668687", "ref": "2658700000"}, "type": "Feature"}
{"geometry": {"coordinates": [-80.303798, 39.517194], "type": "Point"}, "id": "Rf0zP0HdinRtyM8xHSF3cLkhLM8=", "properties": {"@source_uri": "https://tools.usps.com/UspsToolsRestServices/rest/POLocator/findLocations", "@spider": "usps_collection_boxes", "addr:city": "RACHEL", "addr:country": "US", "addr:postcode": "26587", "addr:state": "WV", "addr:street_address": "134 RACHEL RD", "amenity": "post_box", "collection_times": "Mo-Fr 15:30; Sa 10:45", "indoor": "yes", "note": "ON 12/24 AND 12/31, THIS BOX MAY BE COLLECTED AS EARLY AS 12 NOON.", "nsi_id": "unitedstatespostalservice-a77078", "operator": "United States Postal Service", "operator:short": "USPS", "operator:type": "public", "operator:wikidata": "Q668687", "ref": "2658700001"}, "type": "Feature"}
{"geometry": {"coordinates": [-80.30377279, 39.517166561], "type": "Point"}, "id": "9pYtEeU3q4jnb2v1ZuOZwy2iYMo=", "properties": {"@source_uri": "https://tools.usps.com/UspsToolsRestServices/rest/POLocator/findLocations", "@spider": "usps_collection_boxes", "addr:city": "RACHEL", "addr:country": "US", "addr:postcode": "26587", "addr:state": "WV", "addr:street_address": "134 RACHEL RD", "amenity": "post_box", "collection_times": "Mo-Fr 16:00; Sa 11:00", "indoor": "yes", "note": "ON 12/24 AND 12/31, THIS BOX MAY BE COLLECTED AS EARLY AS 12 NOON.", "nsi_id": "unitedstatespostalservice-a77078", "operator": "United States Postal Service", "operator:short": "USPS", "operator:type": "public", "operator:wikidata": "Q668687", "ref": "2658700003"}, "type": "Feature"}
{"geometry": {"coordinates": [-80.121943254, 39.529438383], "type": "Point"}, "id": "WOg0niEAZ1akDxod7Bs58WSOOyQ=", "properties": {"@source_uri": "https://tools.usps.com/UspsToolsRestServices/rest/POLocator/findLocations", "@spider": "usps_collection_boxes", "addr:city": "RIVESVILLE", "addr:country": "US", "addr:postcode": "26588", "addr:state": "WV", "addr:street_address": "214 MAIN ST", "amenity": "post_box", "collection_times": "Mo-Fr 15:45; Sa 10:45", "note": "ON 12/24 AND 12/31, THIS BOX MAY BE COLLECTED AS EARLY AS 12 NOON.", "nsi_id": "unitedstatespostalservice-a77078", "operator": "United States Postal Service", "operator:short": "USPS", "operator:type": "public", "operator:wikidata": "Q668687", "ref": "2658800000"}, "type": "Feature"}
{"geometry": {"coordinates": [-80.121943254, 39.529438383], "type": "Point"}, "id": "9wrpTdXZ9jtOwinRbTolyFsg8ek=", "properties": {"@source_uri": "https://tools.usps.com/UspsToolsRestServices/rest/POLocator/findLocations", "@spider": "usps_collection_boxes", "addr:city": "RIVESVILLE", "addr:country": "US", "addr:postcode": "26588", "addr:state": "WV", "addr:street_address": "214 MAIN ST", "amenity": "post_box", "collection_times": "Mo-Fr 15:45; Sa 10:45", "indoor": "yes", "note": "ON 12/24 AND 12/31, THIS BOX MAY BE COLLECTED AS EARLY AS 12 NOON.", "nsi_id": "unitedstatespostalservice-a77078", "operator": "United States Postal Service", "operator:short": "USPS", "operator:type": "public", "operator:wikidata": "Q668687", "ref": "2658800001"}, "type": "Feature"}
{"geometry": {"coordinates": [-80.121943254, 39.529438383], "type": "Point"}, "id": "eqoUvh5shfl8h4QiI7d30BNfQRc=", "properties": {"@source_uri": "https://tools.usps.com/UspsToolsRestServices/rest/POLocator/findLocations", "@spider": "usps_collection_boxes", "addr:city": "RIVESVILLE", "addr:country": "US", "addr:postcode": "26588", "addr:state": "WV", "addr:street_address": "214 MAIN ST", "amenity": "post_box", "collection_times": "Mo-Fr 16:00; Sa 12:00", "indoor": "yes", "note": "ON 12/24 AND 12/31, THIS BOX MAY BE COLLECTED AS EARLY AS 12 NOON.", "nsi_id": "unitedstatespostalservice-a77078", "operator": "United States Postal Service", "operator:short": "USPS", "operator:type": "public", "operator:wikidata": "Q668687", "ref": "2658800003"}, "type": "Feature"}
{"geometry": {"coordinates": [-80.298261, 39.703832], "type": "Point"}, "id": "6jvzJRo0EXrEr6GRCpTxV7cGg0Q=", "properties": {"@source_uri": "https://tools.usps.com/UspsToolsRestServices/rest/POLocator/findLocations", "@spider": "usps_collection_boxes", "addr:city": "WANA", "addr:country": "US", "addr:postcode": "26590", "addr:state": "WV", "addr:street_address": "8468 MASON DIXON HWY", "amenity": "post_box", "collection_times": "Mo-Fr 14:45; Sa 10:30", "note": "ON 12/24 AND 12/31, THIS BOX MAY BE COLLECTED AS EARLY AS 12 NOON.", "nsi_id": "unitedstatespostalservice-a77078", "operator": "United States Postal Service", "operator:short": "USPS", "operator:type": "public", "operator:wikidata": "Q668687", "ref": "2659000000"}, "type": "Feature"}
{"geometry": {"coordinates": [-80.298327, 39.703753], "type": "Point"}, "id": "DmSrbJX_iIgo2x-cJXpSJ9ysoIc=", "properties": {"@source_uri": "https://tools.usps.com/UspsToolsRestServices/rest/POLocator/findLocations", "@spider": "usps_collection_boxes", "addr:city": "WANA", "addr:country": "US", "addr:postcode": "26590", "addr:state": "WV", "addr:street_address": "8468 MASON DIXON HWY", "amenity": "post_box", "collection_times": "Mo-Fr 14:45; Sa 10:30", "indoor": "yes", "note": "ON 12/24 AND 12/31, THIS BOX MAY BE COLLECTED AS EARLY AS 12 NOON.", "nsi_id": "unitedstatespostalservice-a77078", "operator": "United States Postal Service", "operator:short": "USPS", "operator:type": "public", "operator:wikidata": "Q668687", "ref": "2659000001"}, "type": "Feature"}
{"geometry": {"coordinates": [-80.298313886, 39.703836749], "type": "Point"}, "id": "Z_WLs1PQzK4HxIdOA5A62WHY0EA=", "properties": {"@source_uri": "https://tools.usps.com/UspsToolsRestServices/rest/POLocator/findLocations", "@spider": "usps_collection_boxes", "addr:city": "WANA", "addr:country": "US", "addr:postcode": "26590", "addr:state": "WV", "addr:street_address": "8468 MASON DIXON HWY", "amenity": "post_box", "collection_times": "Mo-Fr 15:00; Sa 15:15", "indoor": "yes", "note": "ON 12/24 AND 12/31, THIS BOX MAY BE COLLECTED AS EARLY AS 12 NOON.", "nsi_id": "unitedstatespostalservice-a77078", "operator": "United States Postal Service", "operator:short": "USPS", "operator:type": "public", "operator:wikidata": "Q668687", "ref": "2659000004"}, "type": "Feature"}
{"geometry": {"coordinates": [-80.260544, 39.452272], "type": "Point"}, "id": "jjS9_KrOcJhkzT9d1GZzHuihP-w=", "properties": {"@source_uri": "https://tools.usps.com/UspsToolsRestServices/rest/POLocator/findLocations", "@spider": "usps_collection_boxes", "addr:city": "WORTHINGTON", "addr:country": "US", "addr:postcode": "26591", "addr:state": "WV", "addr:street_address": "287 MAIN ST", "amenity": "post_box", "collection_times": "Mo-Fr 13:45; Sa 10:15", "note": "ON 12/24 AND 12/31, THIS BOX MAY BE COLLECTED AS EARLY AS 12 NOON.", "nsi_id": "unitedstatespostalservice-a77078", "operator": "United States Postal Service", "operator:short": "USPS", "operator:type": "public", "operator:wikidata": "Q668687", "ref": "2659100000"}, "type": "Feature"}
{"geometry": {"coordinates": [-80.2606, 39.452227], "type": "Point"}, "id": "aZxpMpeRY44CLZv36EGpHgwmkn0=", "properties": {"@source_uri": "https://tools.usps.com/UspsToolsRestServices/rest/POLocator/findLocations", "@spider": "usps_collection_boxes", "addr:city": "WORTHINGTON", "addr:country": "US", "addr:postcode": "26591", "addr:state": "WV", "addr:street_address": "287 MAIN ST", "amenity": "post_box", "collection_times": "Mo-Fr 13:45; Sa 10:15", "indoor": "yes", "note": "ON 12/24 AND 12/31, THIS BOX MAY BE COLLECTED AS EARLY AS 12 NOON.", "nsi_id": "unitedstatespostalservice-a77078", "operator": "United States Postal Service", "operator:short": "USPS", "operator:type": "public", "operator:wikidata": "Q668687", "ref": "2659100001"}, "type": "Feature"}
{"geometry": {"coordinates": [-80.267214829, 39.451933111], "type": "Point"}, "id": "wyTl0T2-99ZNj3wfxgshW_MNG7U=", "properties": {"@source_uri": "https://tools.usps.com/UspsToolsRestServices/rest/POLocator/findLocations", "@spider": "usps_collection_boxes", "addr:city": "WORTHINGTON", "addr:country": "US", "addr:postcode": "26591", "addr:state": "WV", "addr:street_address": "287 MAIN ST", "amenity": "post_box", "collection_times": "Mo-Fr 14:00; Sa 10:30", "indoor": "yes", "note": "ON 12/24 AND 12/31, THIS BOX MAY BE COLLECTED AS EARLY AS 12 NOON.", "nsi_id": "unitedstatespostalservice-a77078", "operator": "United States Postal Service", "operator:short": "USPS", "operator:type": "public", "operator:wikidata": "Q668687", "ref": "2659100004"}, "type": "Feature"}
