{"dataset_attributes": {"@spider": "usps_collection_boxes", "spider:collection_time": "2023-10-25T08:26:15.836184"}, "geometry": {"coordinates": [-80.708624431, 38.663752138], "type": "Point"}, "id": "KK4WykAxvrKalCCHrbrZG0glUP4=", "properties": {"@spider": "usps_collection_boxes", "addr:city": "SUTTON", "addr:country": "US", "addr:full": "306 RIVERVIEW DR", "addr:postcode": "26601", "addr:state": "WV", "amenity": "post_box", "brand": "United States Postal Service", "brand:wikidata": "Q668687", "collection_times": "Mo-Fr 16:30; Sa 11:30", "name": "USPS COLLECTION BOX - BLUE BOX", "note": "ON 12/24 AND 12/31, THIS BOX MAY BE COLLECTED AS EARLY AS 12 NOON.", "nsi_id": "unitedstatespostalservice-a77078", "operator": "United States Postal Service", "operator:short": "USPS", "operator:type": "public", "operator:wikidata": "Q668687", "ref": "2660100004"}, "type": "Feature"}
{"dataset_attributes": {"@spider": "usps_collection_boxes", "spider:collection_time": "2023-10-25T08:26:15.836184"}, "geometry": {"coordinates": [-80.708624431, 38.663752138], "type": "Point"}, "id": "XNMB_ANxcrrlZFbkw4qtyGNY3eg=", "properties": {"@spider": "usps_collection_boxes", "addr:city": "SUTTON", "addr:country": "US", "addr:full": "306 RIVERVIEW DR", "addr:postcode": "26601", "addr:state": "WV", "amenity": "post_box", "brand": "United States Postal Service", "brand:wikidata": "Q668687", "collection_times": "Mo-Fr 16:30; Sa 11:30", "name": "USPS COLLECTION BOX - PO LOBBY", "note": "ON 12/24 AND 12/31, THIS BOX MAY BE COLLECTED AS EARLY AS 12 NOON.", "nsi_id": "unitedstatespostalservice-a77078", "operator": "United States Postal Service", "operator:short": "USPS", "operator:type": "public", "operator:wikidata": "Q668687", "ref": "2660100007"}, "type": "Feature"}
{"dataset_attributes": {"@spider": "usps_collection_boxes", "spider:collection_time": "2023-10-25T08:26:15.836184"}, "geometry": {"coordinates": [-80.708759, 38.663933], "type": "Point"}, "id": "q5z6e4e00g7UHJrfsRyoj8N8XDQ=", "properties": {"@spider": "usps_collection_boxes", "addr:city": "SUTTON", "addr:country": "US", "addr:full": "100 3RD ST", "addr:postcode": "26601", "addr:state": "WV", "amenity": "post_box", "brand": "United States Postal Service", "brand:wikidata": "Q668687", "collection_times": "Mo-Fr 16:30; Sa 11:30", "name": "USPS COLLECTION BOX - BLUE BOX", "note": "ON 12/24 AND 12/31, THIS BOX MAY BE COLLECTED AS EARLY AS 12 NOON.", "nsi_id": "unitedstatespostalservice-a77078", "operator": "United States Postal Service", "operator:short": "USPS", "operator:type": "public", "operator:wikidata": "Q668687", "ref": "2660100008"}, "type": "Feature"}
{"dataset_attributes": {"@spider": "usps_collection_boxes", "spider:collection_time": "2023-10-25T08:26:15.836184"}, "geometry": {"coordinates": [-80.708624431, 38.663752138], "type": "Point"}, "id": "ghDCJ3Hhd2qtFxLYgQXnJDJ72DQ=", "properties": {"@spider": "usps_collection_boxes", "addr:city": "SUTTON", "addr:country": "US", "addr:full": "306 RIVERVIEW DR", "addr:postcode": "26601", "addr:state": "WV", "amenity": "post_box", "brand": "United States Postal Service", "brand:wikidata": "Q668687", "collection_times": "Mo-Fr 16:30; Sa 11:00", "name": "USPS COLLECTION BOX - PO LOBBY", "note": "ON 12/24 AND 12/31, THIS BOX MAY BE COLLECTED AS EARLY AS 12 NOON.", "nsi_id": "unitedstatespostalservice-a77078", "operator": "United States Postal Service", "operator:short": "USPS", "operator:type": "public", "operator:wikidata": "Q668687", "ref": "2660100011"}, "type": "Feature"}
{"dataset_attributes": {"@spider": "usps_collection_boxes", "spider:collection_time": "2023-10-25T08:26:15.836184"}, "geometry": {"coordinates": [-80.6623582723, 38.710266029], "type": "Point"}, "id": "M2bMuwWT7kYd1Wb84d-aUcJ7hjI=", "properties": {"@spider": "usps_collection_boxes", "addr:city": "SUTTON", "addr:country": "US", "addr:full": "369 SCOTT FRK", "addr:postcode": "26601", "addr:state": "WV", "amenity": "post_box", "brand": "United States Postal Service", "brand:wikidata": "Q668687", "collection_times": "Mo-Fr 15:45; Sa 10:30", "name": "USPS COLLECTION BOX - BLUE BOX", "note": "ON 12/24 AND 12/31, THIS BOX MAY BE COLLECTED AS EARLY AS 12 NOON.", "nsi_id": "unitedstatespostalservice-a77078", "operator": "United States Postal Service", "operator:short": "USPS", "operator:type": "public", "operator:wikidata": "Q668687", "ref": "2660100012"}, "type": "Feature"}
{"dataset_attributes": {"@spider": "usps_collection_boxes", "spider:collection_time": "2023-10-25T08:26:15.836184"}, "geometry": {"coordinates": [-80.755661, 38.497905], "type": "Point"}, "id": "pQMIh4adc_EMQN_7Cz9gXoAz7LY=", "properties": {"@spider": "usps_collection_boxes", "addr:city": "BIRCH RIVER", "addr:country": "US", "addr:full": "55 POWELLS CREEK RD", "addr:postcode": "26610", "addr:state": "WV", "amenity": "post_box", "brand": "United States Postal Service", "brand:wikidata": "Q668687", "collection_times": "Mo-Fr 16:00; Sa 11:45", "name": "USPS COLLECTION BOX - BLUE BOX", "note": "ON 12/24 AND 12/31, THIS BOX MAY BE COLLECTED AS EARLY AS 12 NOON.", "nsi_id": "unitedstatespostalservice-a77078", "operator": "United States Postal Service", "operator:short": "USPS", "operator:type": "public", "operator:wikidata": "Q668687", "ref": "2661000000"}, "type": "Feature"}
{"dataset_attributes": {"@spider": "usps_collection_boxes", "spider:collection_time": "2023-10-25T08:26:15.836184"}, "geometry": {"coordinates": [-80.755661, 38.497905], "type": "Point"}, "id": "NMnI67OYWwoSz4z6p-GLmxb3nRY=", "properties": {"@spider": "usps_collection_boxes", "addr:city": "BIRCH RIVER", "addr:country": "US", "addr:full": "55 POWELLS CREEK RD", "addr:postcode": "26610", "addr:state": "WV", "amenity": "post_box", "brand": "United States Postal Service", "brand:wikidata": "Q668687", "collection_times": "Mo-Fr 16:00; Sa 11:45", "name": "USPS COLLECTION BOX - PO LOBBY", "note": "ON 12/24 AND 12/31, THIS BOX MAY BE COLLECTED AS EARLY AS 12 NOON.", "nsi_id": "unitedstatespostalservice-a77078", "operator": "United States Postal Service", "operator:short": "USPS", "operator:type": "public", "operator:wikidata": "Q668687", "ref": "2661000001"}, "type": "Feature"}
{"dataset_attributes": {"@spider": "usps_collection_boxes", "spider:collection_time": "2023-10-25T08:26:15.836184"}, "geometry": {"coordinates": [-80.755661, 38.497905], "type": "Point"}, "id": "S6iu7o2W_xpKPBNEfQ6fsCuSl04=", "properties": {"@spider": "usps_collection_boxes", "addr:city": "BIRCH RIVER", "addr:country": "US", "addr:full": "55 POWELLS CREEK RD", "addr:postcode": "26610", "addr:state": "WV", "amenity": "post_box", "brand": "United States Postal Service", "brand:wikidata": "Q668687", "collection_times": "Mo-Fr 16:00; Sa 11:45", "name": "USPS COLLECTION BOX - PO LOBBY", "note": "ON 12/24 AND 12/31, THIS BOX MAY BE COLLECTED AS EARLY AS 12 NOON.", "nsi_id": "unitedstatespostalservice-a77078", "operator": "United States Postal Service", "operator:short": "USPS", "operator:type": "public", "operator:wikidata": "Q668687", "ref": "2661000002"}, "type": "Feature"}
{"dataset_attributes": {"@spider": "usps_collection_boxes", "spider:collection_time": "2023-10-25T08:26:15.836184"}, "geometry": {"coordinates": [-80.755485295, 38.498125632], "type": "Point"}, "id": "yDQehaNFXocyHg0XmOZgwKT5uLk=", "properties": {"@spider": "usps_collection_boxes", "addr:city": "BIRCH RIVER", "addr:country": "US", "addr:full": "55 POWELLS CREEK RD", "addr:postcode": "26610", "addr:state": "WV", "amenity": "post_box", "brand": "United States Postal Service", "brand:wikidata": "Q668687", "collection_times": "Mo-Fr 16:00; Sa 11:45", "name": "USPS COLLECTION BOX - PO LOBBY", "note": "ON 12/24 AND 12/31, THIS BOX MAY BE COLLECTED AS EARLY AS 12 NOON.", "nsi_id": "unitedstatespostalservice-a77078", "operator": "United States Postal Service", "operator:short": "USPS", "operator:type": "public", "operator:wikidata": "Q668687", "ref": "2661000004"}, "type": "Feature"}
{"dataset_attributes": {"@spider": "usps_collection_boxes", "spider:collection_time": "2023-10-25T08:26:15.836184"}, "geometry": {"coordinates": [-80.824775, 38.492984], "type": "Point"}, "id": "5oL2PmW9Thnstwaub4PN0C4EmoA=", "properties": {"@spider": "usps_collection_boxes", "addr:city": "DILLE", "addr:country": "US", "addr:full": "7078 WIDEN DILLE RD", "addr:postcode": "26617", "addr:state": "WV", "amenity": "post_box", "brand": "United States Postal Service", "brand:wikidata": "Q668687", "collection_times": "Mo-Fr 11:45; Sa 10:00", "name": "USPS COLLECTION BOX - BLUE BOX", "nsi_id": "unitedstatespostalservice-a77078", "operator": "United States Postal Service", "operator:short": "USPS", "operator:type": "public", "operator:wikidata": "Q668687", "ref": "2661700000"}, "type": "Feature"}
{"dataset_attributes": {"@spider": "usps_collection_boxes", "spider:collection_time": "2023-10-25T08:26:15.836184"}, "geometry": {"coordinates": [-80.824775, 38.492984], "type": "Point"}, "id": "eneDmfdeVQNWR2S3iPgQvMdou5Y=", "properties": {"@spider": "usps_collection_boxes", "addr:city": "DILLE", "addr:country": "US", "addr:full": "7078 WIDEN DILLE RD", "addr:postcode": "26617", "addr:state": "WV", "amenity": "post_box", "brand": "United States Postal Service", "brand:wikidata": "Q668687", "collection_times": "Mo-Fr 11:45; Sa 10:00", "name": "USPS COLLECTION BOX - PO LOBBY", "nsi_id": "unitedstatespostalservice-a77078", "operator": "United States Postal Service", "operator:short": "USPS", "operator:type": "public", "operator:wikidata": "Q668687", "ref": "2661700001"}, "type": "Feature"}
{"dataset_attributes": {"@spider": "usps_collection_boxes", "spider:collection_time": "2023-10-25T08:26:15.836184"}, "geometry": {"coordinates": [-80.825189546, 38.48938706], "type": "Point"}, "id": "Wk54uh7cZAcAwy-bIpn54_Dr_Mo=", "properties": {"@spider": "usps_collection_boxes", "addr:city": "DILLE", "addr:country": "US", "addr:full": "7078 WIDEN DILLE RD", "addr:postcode": "26617", "addr:state": "WV", "amenity": "post_box", "brand": "United States Postal Service", "brand:wikidata": "Q668687", "collection_times": "Mo-Fr 14:00; Sa 10:30", "name": "USPS COLLECTION BOX - PO LOBBY", "note": "ON 12/24 AND 12/31, THIS BOX MAY BE COLLECTED AS EARLY AS 12 NOON.", "nsi_id": "unitedstatespostalservice-a77078", "operator": "United States Postal Service", "operator:short": "USPS", "operator:type": "public", "operator:wikidata": "Q668687", "ref": "2661700003"}, "type": "Feature"}
{"dataset_attributes": {"@spider": "usps_collection_boxes", "spider:collection_time": "2023-10-25T08:26:15.836184"}, "geometry": {"coordinates": [-80.6530371, 38.72179], "type": "Point"}, "id": "v2gRFfqd2_XhjzO1QnYGD31axgk=", "properties": {"@spider": "usps_collection_boxes", "addr:city": "FLATWOODS", "addr:country": "US", "addr:full": "308 FLATWOODS CORNER RD", "addr:postcode": "26621", "addr:state": "WV", "amenity": "post_box", "brand": "United States Postal Service", "brand:wikidata": "Q668687", "collection_times": "Mo-Fr 15:00; Sa 10:15", "name": "USPS COLLECTION BOX - BLUE BOX", "note": "ON 12/24 AND 12/31, THIS BOX MAY BE COLLECTED AS EARLY AS 12 NOON.", "nsi_id": "unitedstatespostalservice-a77078", "operator": "United States Postal Service", "operator:short": "USPS", "operator:type": "public", "operator:wikidata": "Q668687", "ref": "2662100000"}, "type": "Feature"}
{"dataset_attributes": {"@spider": "usps_collection_boxes", "spider:collection_time": "2023-10-25T08:26:15.836184"}, "geometry": {"coordinates": [-80.653, 38.721694], "type": "Point"}, "id": "LabsuFIvEtELiVHIHSkSz-XK_0Y=", "properties": {"@spider": "usps_collection_boxes", "addr:city": "FLATWOODS", "addr:country": "US", "addr:full": "308 FLATWOODS CORNER RD", "addr:postcode": "26621", "addr:state": "WV", "amenity": "post_box", "brand": "United States Postal Service", "brand:wikidata": "Q668687", "collection_times": "Mo-Fr 15:00; Sa 10:15", "name": "USPS COLLECTION BOX - PO LOBBY", "note": "ON 12/24 AND 12/31, THIS BOX MAY BE COLLECTED AS EARLY AS 12 NOON.", "nsi_id": "unitedstatespostalservice-a77078", "operator": "United States Postal Service", "operator:short": "USPS", "operator:type": "public", "operator:wikidata": "Q668687", "ref": "2662100001"}, "type": "Feature"}
{"dataset_attributes": {"@spider": "usps_collection_boxes", "spider:collection_time": "2023-10-25T08:26:15.836184"}, "geometry": {"coordinates": [-80.65336, 38.73416], "type": "Point"}, "id": "hzS0Buoar4EOIrETdwTJ32J18iA=", "properties": {"@spider": "usps_collection_boxes", "addr:city": "FLATWOODS", "addr:country": "US", "addr:full": "308 FLATWOODS CORNER RD", "addr:postcode": "26621", "addr:state": "WV", "amenity": "post_box", "brand": "United States Postal Service", "brand:wikidata": "Q668687", "collection_times": "Mo-Fr 15:00; Sa 10:15", "name": "USPS COLLECTION BOX - PO LOBBY", "note": "ON 12/24 AND 12/31, THIS BOX MAY BE COLLECTED AS EARLY AS 12 NOON.", "nsi_id": "unitedstatespostalservice-a77078", "operator": "United States Postal Service", "operator:short": "USPS", "operator:type": "public", "operator:wikidata": "Q668687", "ref": "2662100003"}, "type": "Feature"}
{"dataset_attributes": {"@spider": "usps_collection_boxes", "spider:collection_time": "2023-10-25T08:26:15.836184"}, "geometry": {"coordinates": [-80.856007, 38.637343], "type": "Point"}, "id": "Uya5kcoW2ZsMe__BqyFd5SMezTo=", "properties": {"@spider": "usps_collection_boxes", "addr:city": "FRAMETOWN", "addr:country": "US", "addr:full": "7441 ELK RIVER RD", "addr:postcode": "26623", "addr:state": "WV", "amenity": "post_box", "brand": "United States Postal Service", "brand:wikidata": "Q668687", "collection_times": "Mo-Fr 14:30; Sa 11:00", "name": "USPS COLLECTION BOX - BLUE BOX", "note": "ON 12/24 AND 12/31, THIS BOX MAY BE COLLECTED AS EARLY AS 12 NOON.", "nsi_id": "unitedstatespostalservice-a77078", "operator": "United States Postal Service", "operator:short": "USPS", "operator:type": "public", "operator:wikidata": "Q668687", "ref": "2662300000"}, "type": "Feature"}
{"dataset_attributes": {"@spider": "usps_collection_boxes", "spider:collection_time": "2023-10-25T08:26:15.836184"}, "geometry": {"coordinates": [-80.856007, 38.637343], "type": "Point"}, "id": "IYCtH6vGk-cnGAhR9lopPIw4IDA=", "properties": {"@spider": "usps_collection_boxes", "addr:city": "FRAMETOWN", "addr:country": "US", "addr:full": "7441 ELK RIVER RD", "addr:postcode": "26623", "addr:state": "WV", "amenity": "post_box", "brand": "United States Postal Service", "brand:wikidata": "Q668687", "collection_times": "Mo-Fr 14:30; Sa 11:00", "name": "USPS COLLECTION BOX - PO LOBBY", "note": "ON 12/24 AND 12/31, THIS BOX MAY BE COLLECTED AS EARLY AS 12 NOON.", "nsi_id": "unitedstatespostalservice-a77078", "operator": "United States Postal Service", "operator:short": "USPS", "operator:type": "public", "operator:wikidata": "Q668687", "ref": "2662300001"}, "type": "Feature"}
{"dataset_attributes": {"@spider": "usps_collection_boxes", "spider:collection_time": "2023-10-25T08:26:15.836184"}, "geometry": {"coordinates": [-80.865575263, 38.634843309], "type": "Point"}, "id": "2-yf3vfV4iRqB4UQeulKCY0q6kI=", "properties": {"@spider": "usps_collection_boxes", "addr:city": "FRAMETOWN", "addr:country": "US", "addr:full": "7441 ELK RIVER RD", "addr:postcode": "26623", "addr:state": "WV", "amenity": "post_box", "brand": "United States Postal Service", "brand:wikidata": "Q668687", "collection_times": "Mo-Fr 14:45; Sa 11:00", "name": "USPS COLLECTION BOX - PO LOBBY", "note": "ON 12/24 AND 12/31, THIS BOX MAY BE COLLECTED AS EARLY AS 12 NOON.", "nsi_id": "unitedstatespostalservice-a77078", "operator": "United States Postal Service", "operator:short": "USPS", "operator:type": "public", "operator:wikidata": "Q668687", "ref": "2662300004"}, "type": "Feature"}
{"dataset_attributes": {"@spider": "usps_collection_boxes", "spider:collection_time": "2023-10-25T08:26:15.836184"}, "geometry": {"coordinates": [-80.775887197, 38.670302247], "type": "Point"}, "id": "WnQqOsy6n33K-fvGYACZe2yB8Jw=", "properties": {"@spider": "usps_collection_boxes", "addr:city": "GASSAWAY", "addr:country": "US", "addr:full": "400 ELK ST", "addr:postcode": "26624", "addr:state": "WV", "amenity": "post_box", "brand": "United States Postal Service", "brand:wikidata": "Q668687", "collection_times": "Mo-Fr 17:00; Sa 10:30", "name": "USPS COLLECTION BOX - BLUE BOX", "note": "ON 12/24 AND 12/31, THIS BOX MAY BE COLLECTED AS EARLY AS 12 NOON.", "nsi_id": "unitedstatespostalservice-a77078", "operator": "United States Postal Service", "operator:short": "USPS", "operator:type": "public", "operator:wikidata": "Q668687", "ref": "2662400001"}, "type": "Feature"}
{"dataset_attributes": {"@spider": "usps_collection_boxes", "spider:collection_time": "2023-10-25T08:26:15.836184"}, "geometry": {"coordinates": [-80.7489789, 38.658214], "type": "Point"}, "id": "EdPs577sFcRbWftxki5gDEwCr1I=", "properties": {"@spider": "usps_collection_boxes", "addr:city": "GASSAWAY", "addr:country": "US", "addr:full": "2908 STATE ST", "addr:postcode": "26624", "addr:state": "WV", "amenity": "post_box", "brand": "United States Postal Service", "brand:wikidata": "Q668687", "collection_times": "Mo-Fr 16:00; Sa 10:30", "name": "USPS COLLECTION BOX - BLUE BOX", "note": "ON 12/24 AND 12/31, THIS BOX MAY BE COLLECTED AS EARLY AS 12 NOON.", "nsi_id": "unitedstatespostalservice-a77078", "operator": "United States Postal Service", "operator:short": "USPS", "operator:type": "public", "operator:wikidata": "Q668687", "ref": "2662400004"}, "type": "Feature"}
{"dataset_attributes": {"@spider": "usps_collection_boxes", "spider:collection_time": "2023-10-25T08:26:15.836184"}, "geometry": {"coordinates": [-80.7735135, 38.674664], "type": "Point"}, "id": "Y9PnzFf_k8plhXS6doUKaPscT_I=", "properties": {"@spider": "usps_collection_boxes", "addr:city": "GASSAWAY", "addr:country": "US", "addr:full": "700 ELK ST", "addr:postcode": "26624", "addr:state": "WV", "amenity": "post_box", "brand": "United States Postal Service", "brand:wikidata": "Q668687", "collection_times": "Mo-Fr 16:15; Sa 10:30", "name": "USPS COLLECTION BOX - BLUE BOX", "note": "ON 12/24 AND 12/31, THIS BOX MAY BE COLLECTED AS EARLY AS 12 NOON.", "nsi_id": "unitedstatespostalservice-a77078", "operator": "United States Postal Service", "operator:short": "USPS", "operator:type": "public", "operator:wikidata": "Q668687", "ref": "2662400005"}, "type": "Feature"}
{"dataset_attributes": {"@spider": "usps_collection_boxes", "spider:collection_time": "2023-10-25T08:26:15.836184"}, "geometry": {"coordinates": [-80.775887197, 38.670302247], "type": "Point"}, "id": "iaQI0f12XXqGfGN7XwFIXQwmiVM=", "properties": {"@spider": "usps_collection_boxes", "addr:city": "GASSAWAY", "addr:country": "US", "addr:full": "400 ELK ST", "addr:postcode": "26624", "addr:state": "WV", "amenity": "post_box", "brand": "United States Postal Service", "brand:wikidata": "Q668687", "collection_times": "Mo-Fr 17:00; Sa 10:30", "name": "USPS COLLECTION BOX - PO LOBBY", "note": "ON 12/24 AND 12/31, THIS BOX MAY BE COLLECTED AS EARLY AS 12 NOON.", "nsi_id": "unitedstatespostalservice-a77078", "operator": "United States Postal Service", "operator:short": "USPS", "operator:type": "public", "operator:wikidata": "Q668687", "ref": "2662400007"}, "type": "Feature"}
{"dataset_attributes": {"@spider": "usps_collection_boxes", "spider:collection_time": "2023-10-25T08:26:15.836184"}, "geometry": {"coordinates": [-80.775887197, 38.670302247], "type": "Point"}, "id": "fvyFELWzYbtsrBHRdABquVQPFPI=", "properties": {"@spider": "usps_collection_boxes", "addr:city": "GASSAWAY", "addr:country": "US", "addr:full": "400 ELK ST", "addr:postcode": "26624", "addr:state": "WV", "amenity": "post_box", "brand": "United States Postal Service", "brand:wikidata": "Q668687", "collection_times": "Mo-Fr 16:30; Sa 10:30", "name": "USPS COLLECTION BOX - PO LOBBY", "note": "ON 12/24 AND 12/31, THIS BOX MAY BE COLLECTED AS EARLY AS 12 NOON.", "nsi_id": "unitedstatespostalservice-a77078", "operator": "United States Postal Service", "operator:short": "USPS", "operator:type": "public", "operator:wikidata": "Q668687", "ref": "2662400009"}, "type": "Feature"}
{"dataset_attributes": {"@spider": "usps_collection_boxes", "spider:collection_time": "2023-10-25T08:26:15.836184"}, "geometry": {"coordinates": [-80.6420871, 38.761832], "type": "Point"}, "id": "K-xlyNwGozM4OPC0NIlCjSHX-xA=", "properties": {"@spider": "usps_collection_boxes", "addr:city": "HEATERS", "addr:country": "US", "addr:full": "4195 GAULEY TPKE", "addr:postcode": "26627", "addr:state": "WV", "amenity": "post_box", "brand": "United States Postal Service", "brand:wikidata": "Q668687", "collection_times": "Mo-Fr 11:15; Sa 10:30", "name": "USPS COLLECTION BOX - BLUE BOX", "nsi_id": "unitedstatespostalservice-a77078", "operator": "United States Postal Service", "operator:short": "USPS", "operator:type": "public", "operator:wikidata": "Q668687", "ref": "2662700000"}, "type": "Feature"}
{"dataset_attributes": {"@spider": "usps_collection_boxes", "spider:collection_time": "2023-10-25T08:26:15.836184"}, "geometry": {"coordinates": [-80.656488, 38.739341], "type": "Point"}, "id": "etddd9AJXymKSLMNc0s-uK4jdgM=", "properties": {"@spider": "usps_collection_boxes", "addr:city": "HEATERS", "addr:country": "US", "addr:full": "4195 GAULEY TPKE", "addr:postcode": "26627", "addr:state": "WV", "amenity": "post_box", "brand": "United States Postal Service", "brand:wikidata": "Q668687", "collection_times": "Mo-Fr 11:15; Sa 10:45", "name": "USPS COLLECTION BOX - PO LOBBY", "nsi_id": "unitedstatespostalservice-a77078", "operator": "United States Postal Service", "operator:short": "USPS", "operator:type": "public", "operator:wikidata": "Q668687", "ref": "2662700001"}, "type": "Feature"}
{"dataset_attributes": {"@spider": "usps_collection_boxes", "spider:collection_time": "2023-10-25T08:26:15.836184"}, "geometry": {"coordinates": [-80.641635023, 38.761996061], "type": "Point"}, "id": "ydJfzbNSZ5ZlyZ9sb8iy4MwWpEA=", "properties": {"@spider": "usps_collection_boxes", "addr:city": "HEATERS", "addr:country": "US", "addr:full": "4195 GAULEY TPKE", "addr:postcode": "26627", "addr:state": "WV", "amenity": "post_box", "brand": "United States Postal Service", "brand:wikidata": "Q668687", "collection_times": "Mo-Fr 11:30; Sa 12:00", "name": "USPS COLLECTION BOX - PO LOBBY", "nsi_id": "unitedstatespostalservice-a77078", "operator": "United States Postal Service", "operator:short": "USPS", "operator:type": "public", "operator:wikidata": "Q668687", "ref": "2662700003"}, "type": "Feature"}
{"dataset_attributes": {"@spider": "usps_collection_boxes", "spider:collection_time": "2023-10-25T08:26:15.836184"}, "geometry": {"coordinates": [-80.704661, 38.578541], "type": "Point"}, "id": "7Qi0AxmCLir5Sh8ZjqqcvjYGikA=", "properties": {"@spider": "usps_collection_boxes", "addr:city": "LITTLE BIRCH", "addr:country": "US", "addr:full": "6983 OLD TURNPIKE RD", "addr:postcode": "26629", "addr:state": "WV", "amenity": "post_box", "brand": "United States Postal Service", "brand:wikidata": "Q668687", "collection_times": "Mo-Fr 11:45; Sa 10:45", "name": "USPS COLLECTION BOX - BLUE BOX", "nsi_id": "unitedstatespostalservice-a77078", "operator": "United States Postal Service", "operator:short": "USPS", "operator:type": "public", "operator:wikidata": "Q668687", "ref": "2662900000"}, "type": "Feature"}
{"dataset_attributes": {"@spider": "usps_collection_boxes", "spider:collection_time": "2023-10-25T08:26:15.836184"}, "geometry": {"coordinates": [-80.704661, 38.578541], "type": "Point"}, "id": "zxap5U3wIX_McqsfcZVQEHCLeqQ=", "properties": {"@spider": "usps_collection_boxes", "addr:city": "LITTLE BIRCH", "addr:country": "US", "addr:full": "6983 OLD TURNPIKE RD", "addr:postcode": "26629", "addr:state": "WV", "amenity": "post_box", "brand": "United States Postal Service", "brand:wikidata": "Q668687", "collection_times": "Mo-Fr 11:45; Sa 10:45", "name": "USPS COLLECTION BOX - PO LOBBY", "nsi_id": "unitedstatespostalservice-a77078", "operator": "United States Postal Service", "operator:short": "USPS", "operator:type": "public", "operator:wikidata": "Q668687", "ref": "2662900001"}, "type": "Feature"}
{"dataset_attributes": {"@spider": "usps_collection_boxes", "spider:collection_time": "2023-10-25T08:26:15.836184"}, "geometry": {"coordinates": [-80.708660888, 38.581707997], "type": "Point"}, "id": "22g0SeEfy4_vpnAVqawU2qhqNrk=", "properties": {"@spider": "usps_collection_boxes", "addr:city": "LITTLE BIRCH", "addr:country": "US", "addr:full": "6983 OLD TURNPIKE RD", "addr:postcode": "26629", "addr:state": "WV", "amenity": "post_box", "brand": "United States Postal Service", "brand:wikidata": "Q668687", "collection_times": "Mo-Fr 12:00; Sa 13:30", "name": "USPS COLLECTION BOX - PO LOBBY", "note": "ON 12/24 AND 12/31, THIS BOX MAY BE COLLECTED AS EARLY AS 12 NOON.", "nsi_id": "unitedstatespostalservice-a77078", "operator": "United States Postal Service", "operator:short": "USPS", "operator:type": "public", "operator:wikidata": "Q668687", "ref": "2662900004"}, "type": "Feature"}
{"dataset_attributes": {"@spider": "usps_collection_boxes", "spider:collection_time": "2023-10-25T08:26:15.836184"}, "geometry": {"coordinates": [-80.564971, 38.781061], "type": "Point"}, "id": "kPLIKkRLktuKnh9jwkBEh-9vPDs=", "properties": {"@spider": "usps_collection_boxes", "addr:city": "NAPIER", "addr:country": "US", "addr:full": "7614 GAULEY TPKE", "addr:postcode": "26631", "addr:state": "WV", "amenity": "post_box", "brand": "United States Postal Service", "brand:wikidata": "Q668687", "collection_times": "Mo-Sa 10:00", "name": "USPS COLLECTION BOX - BLUE BOX", "nsi_id": "unitedstatespostalservice-a77078", "operator": "United States Postal Service", "operator:short": "USPS", "operator:type": "public", "operator:wikidata": "Q668687", "ref": "2663100000"}, "type": "Feature"}
{"dataset_attributes": {"@spider": "usps_collection_boxes", "spider:collection_time": "2023-10-25T08:26:15.836184"}, "geometry": {"coordinates": [-80.564971, 38.781061], "type": "Point"}, "id": "QULmah12u910EryDxAz9GIIB5nA=", "properties": {"@spider": "usps_collection_boxes", "addr:city": "NAPIER", "addr:country": "US", "addr:full": "7614 GAULEY TPKE", "addr:postcode": "26631", "addr:state": "WV", "amenity": "post_box", "brand": "United States Postal Service", "brand:wikidata": "Q668687", "collection_times": "Mo-Sa 10:00", "name": "USPS COLLECTION BOX - PO LOBBY", "nsi_id": "unitedstatespostalservice-a77078", "operator": "United States Postal Service", "operator:short": "USPS", "operator:type": "public", "operator:wikidata": "Q668687", "ref": "2663100001"}, "type": "Feature"}
{"dataset_attributes": {"@spider": "usps_collection_boxes", "spider:collection_time": "2023-10-25T08:26:15.836184"}, "geometry": {"coordinates": [-80.565560543, 38.779470137], "type": "Point"}, "id": "jt39OW4blAAQlPY3_9p9RoIA9Uk=", "properties": {"@spider": "usps_collection_boxes", "addr:city": "NAPIER", "addr:country": "US", "addr:full": "7614 GAULEY TPKE", "addr:postcode": "26631", "addr:state": "WV", "amenity": "post_box", "brand": "United States Postal Service", "brand:wikidata": "Q668687", "collection_times": "Mo-Sa 11:30", "name": "USPS COLLECTION BOX - PO LOBBY", "nsi_id": "unitedstatespostalservice-a77078", "operator": "United States Postal Service", "operator:short": "USPS", "operator:type": "public", "operator:wikidata": "Q668687", "ref": "2663100003"}, "type": "Feature"}
{"dataset_attributes": {"@spider": "usps_collection_boxes", "spider:collection_time": "2023-10-25T08:26:15.836184"}, "geometry": {"coordinates": [-80.94314, 38.742216], "type": "Point"}, "id": "Eiu1WazZf6w5tEiH_Ccf3J8S5JI=", "properties": {"@spider": "usps_collection_boxes", "addr:city": "ROSEDALE", "addr:country": "US", "addr:full": "11957 ROSEDALE RD", "addr:postcode": "26636", "addr:state": "WV", "amenity": "post_box", "brand": "United States Postal Service", "brand:wikidata": "Q668687", "collection_times": "Mo-Sa 11:30", "name": "USPS COLLECTION BOX - BLUE BOX", "nsi_id": "unitedstatespostalservice-a77078", "operator": "United States Postal Service", "operator:short": "USPS", "operator:type": "public", "operator:wikidata": "Q668687", "ref": "2663600000"}, "type": "Feature"}
{"dataset_attributes": {"@spider": "usps_collection_boxes", "spider:collection_time": "2023-10-25T08:26:15.836184"}, "geometry": {"coordinates": [-80.94314, 38.742216], "type": "Point"}, "id": "oXYfcL9JMcU9bp1HxkZ_0ouh6hE=", "properties": {"@spider": "usps_collection_boxes", "addr:city": "ROSEDALE", "addr:country": "US", "addr:full": "11957 ROSEDALE RD", "addr:postcode": "26636", "addr:state": "WV", "amenity": "post_box", "brand": "United States Postal Service", "brand:wikidata": "Q668687", "collection_times": "Mo-Sa 11:30", "name": "USPS COLLECTION BOX - PO LOBBY", "nsi_id": "unitedstatespostalservice-a77078", "operator": "United States Postal Service", "operator:short": "USPS", "operator:type": "public", "operator:wikidata": "Q668687", "ref": "2663600001"}, "type": "Feature"}
{"dataset_attributes": {"@spider": "usps_collection_boxes", "spider:collection_time": "2023-10-25T08:26:15.836184"}, "geometry": {"coordinates": [-80.91692, 38.78221], "type": "Point"}, "id": "7nIBMoD_GPPqwX3kTmp8bOUvPmE=", "properties": {"@spider": "usps_collection_boxes", "addr:city": "ROSEDALE", "addr:country": "US", "addr:full": "11957 ROSEDALE RD", "addr:postcode": "26636", "addr:state": "WV", "amenity": "post_box", "brand": "United States Postal Service", "brand:wikidata": "Q668687", "collection_times": "Mo-Fr 12:00; Sa 11:45", "name": "USPS COLLECTION BOX - PO LOBBY", "nsi_id": "unitedstatespostalservice-a77078", "operator": "United States Postal Service", "operator:short": "USPS", "operator:type": "public", "operator:wikidata": "Q668687", "ref": "2663600003"}, "type": "Feature"}
{"dataset_attributes": {"@spider": "usps_collection_boxes", "spider:collection_time": "2023-10-25T08:26:15.836184"}, "geometry": {"coordinates": [-80.8515471, 38.281064], "type": "Point"}, "id": "BD9Msc9Glr9lIPiI93NBXcyOKRM=", "properties": {"@spider": "usps_collection_boxes", "addr:city": "SUMMERSVILLE", "addr:country": "US", "addr:full": "705 MAIN ST", "addr:postcode": "26651", "addr:state": "WV", "amenity": "post_box", "brand": "United States Postal Service", "brand:wikidata": "Q668687", "collection_times": "Mo-Sa 14:30", "name": "USPS COLLECTION BOX - BLUE BOX", "note": "ON 12/24 AND 12/31, THIS BOX MAY BE COLLECTED AS EARLY AS 12 NOON.", "nsi_id": "unitedstatespostalservice-a77078", "operator": "United States Postal Service", "operator:short": "USPS", "operator:type": "public", "operator:wikidata": "Q668687", "ref": "2665100002"}, "type": "Feature"}
{"dataset_attributes": {"@spider": "usps_collection_boxes", "spider:collection_time": "2023-10-25T08:26:15.836184"}, "geometry": {"coordinates": [-80.8353244, 38.297237], "type": "Point"}, "id": "UwewgwRV_yf_Vro64k9O-qdALdE=", "properties": {"@spider": "usps_collection_boxes", "addr:city": "SUMMERSVILLE", "addr:country": "US", "addr:full": "201 MERCHANTS WALK", "addr:postcode": "26651", "addr:state": "WV", "amenity": "post_box", "brand": "United States Postal Service", "brand:wikidata": "Q668687", "collection_times": "Mo-Sa 11:00", "name": "USPS COLLECTION BOX - BLUE BOX", "nsi_id": "unitedstatespostalservice-a77078", "operator": "United States Postal Service", "operator:short": "USPS", "operator:type": "public", "operator:wikidata": "Q668687", "ref": "2665100005"}, "type": "Feature"}
{"dataset_attributes": {"@spider": "usps_collection_boxes", "spider:collection_time": "2023-10-25T08:26:15.836184"}, "geometry": {"coordinates": [-80.8510059588, 38.2746380187], "type": "Point"}, "id": "ck1TJ0GhOW6GEvgSrIdx4R8IelY=", "properties": {"@spider": "usps_collection_boxes", "addr:city": "SUMMERSVILLE", "addr:country": "US", "addr:full": "846 BROAD STREET", "addr:postcode": "26651", "addr:state": "WV", "amenity": "post_box", "brand": "United States Postal Service", "brand:wikidata": "Q668687", "collection_times": "Mo-Fr 17:00; Sa 16:00", "name": "USPS COLLECTION BOX - BLUE BOX", "note": "ON 12/24 AND 12/31, THIS BOX MAY BE COLLECTED AS EARLY AS 12 NOON.", "nsi_id": "unitedstatespostalservice-a77078", "operator": "United States Postal Service", "operator:short": "USPS", "operator:type": "public", "operator:wikidata": "Q668687", "ref": "2665100006"}, "type": "Feature"}
{"dataset_attributes": {"@spider": "usps_collection_boxes", "spider:collection_time": "2023-10-25T08:26:15.836184"}, "geometry": {"coordinates": [-80.8510059588, 38.2746380187], "type": "Point"}, "id": "M5BYIldwP1SnTOQdj-bFzA8BA7M=", "properties": {"@spider": "usps_collection_boxes", "addr:city": "SUMMERSVILLE", "addr:country": "US", "addr:full": "846 BROAD STREET", "addr:postcode": "26651", "addr:state": "WV", "amenity": "post_box", "brand": "United States Postal Service", "brand:wikidata": "Q668687", "collection_times": "Mo-Fr 17:00; Sa 16:00", "name": "USPS COLLECTION BOX - BLUE BOX", "note": "ON 12/24 AND 12/31, THIS BOX MAY BE COLLECTED AS EARLY AS 12 NOON.", "nsi_id": "unitedstatespostalservice-a77078", "operator": "United States Postal Service", "operator:short": "USPS", "operator:type": "public", "operator:wikidata": "Q668687", "ref": "2665100007"}, "type": "Feature"}
{"dataset_attributes": {"@spider": "usps_collection_boxes", "spider:collection_time": "2023-10-25T08:26:15.836184"}, "geometry": {"coordinates": [-80.8305623, 38.304802], "type": "Point"}, "id": "wwvgCWxgDHRNawCVNv0rbQYog2k=", "properties": {"@spider": "usps_collection_boxes", "addr:city": "SUMMERSVILLE", "addr:country": "US", "addr:full": "812 NORTHSIDE DR", "addr:postcode": "26651", "addr:state": "WV", "amenity": "post_box", "brand": "United States Postal Service", "brand:wikidata": "Q668687", "collection_times": "Mo-Sa 10:30", "name": "USPS COLLECTION BOX - BLUE BOX", "nsi_id": "unitedstatespostalservice-a77078", "operator": "United States Postal Service", "operator:short": "USPS", "operator:type": "public", "operator:wikidata": "Q668687", "ref": "2665100011"}, "type": "Feature"}
{"dataset_attributes": {"@spider": "usps_collection_boxes", "spider:collection_time": "2023-10-25T08:26:15.836184"}, "geometry": {"coordinates": [-80.8510059588, 38.2746380187], "type": "Point"}, "id": "1P5SbjpJf1_M-2Ik4LUWmlsUF7g=", "properties": {"@spider": "usps_collection_boxes", "addr:city": "SUMMERSVILLE", "addr:country": "US", "addr:full": "846 BROAD STREET", "addr:postcode": "26651", "addr:state": "WV", "amenity": "post_box", "brand": "United States Postal Service", "brand:wikidata": "Q668687", "collection_times": "Mo-Fr 17:00; Sa 16:00", "name": "USPS COLLECTION BOX - PO LOBBY", "note": "ON 12/24 AND 12/31, THIS BOX MAY BE COLLECTED AS EARLY AS 12 NOON.", "nsi_id": "unitedstatespostalservice-a77078", "operator": "United States Postal Service", "operator:short": "USPS", "operator:type": "public", "operator:wikidata": "Q668687", "ref": "2665100013"}, "type": "Feature"}
{"dataset_attributes": {"@spider": "usps_collection_boxes", "spider:collection_time": "2023-10-25T08:26:15.836184"}, "geometry": {"coordinates": [-80.8510059588, 38.2746380187], "type": "Point"}, "id": "7TabXNOR8gu3kAH8QhRvVOM85RM=", "properties": {"@spider": "usps_collection_boxes", "addr:city": "SUMMERSVILLE", "addr:country": "US", "addr:full": "846 BROAD STREET", "addr:postcode": "26651", "addr:state": "WV", "amenity": "post_box", "brand": "United States Postal Service", "brand:wikidata": "Q668687", "collection_times": "Mo-Fr 17:00; Sa 12:00", "name": "USPS COLLECTION BOX - PO LOBBY", "note": "ON 12/24 AND 12/31, THIS BOX MAY BE COLLECTED AS EARLY AS 12 NOON.", "nsi_id": "unitedstatespostalservice-a77078", "operator": "United States Postal Service", "operator:short": "USPS", "operator:type": "public", "operator:wikidata": "Q668687", "ref": "2665100016"}, "type": "Feature"}
{"dataset_attributes": {"@spider": "usps_collection_boxes", "spider:collection_time": "2023-10-25T08:26:15.836184"}, "geometry": {"coordinates": [-81.131507, 38.235914], "type": "Point"}, "id": "U6VEcikfskU7tVARnMPqqwmFIx0=", "properties": {"@spider": "usps_collection_boxes", "addr:city": "BELVA", "addr:country": "US", "addr:full": "24652 TURNPIKE RD", "addr:postcode": "26656", "addr:state": "WV", "amenity": "post_box", "brand": "United States Postal Service", "brand:wikidata": "Q668687", "collection_times": "Mo-Fr 11:45; Sa 11:00", "name": "USPS COLLECTION BOX - BLUE BOX", "nsi_id": "unitedstatespostalservice-a77078", "operator": "United States Postal Service", "operator:short": "USPS", "operator:type": "public", "operator:wikidata": "Q668687", "ref": "2665600000"}, "type": "Feature"}
{"dataset_attributes": {"@spider": "usps_collection_boxes", "spider:collection_time": "2023-10-25T08:26:15.836184"}, "geometry": {"coordinates": [-81.131507, 38.235914], "type": "Point"}, "id": "Y55wz8lGRSTOQ1G52UbmkC20MzA=", "properties": {"@spider": "usps_collection_boxes", "addr:city": "BELVA", "addr:country": "US", "addr:full": "24652 TURNPIKE RD", "addr:postcode": "26656", "addr:state": "WV", "amenity": "post_box", "brand": "United States Postal Service", "brand:wikidata": "Q668687", "collection_times": "Mo-Fr 11:45; Sa 11:00", "name": "USPS COLLECTION BOX - PO LOBBY", "nsi_id": "unitedstatespostalservice-a77078", "operator": "United States Postal Service", "operator:short": "USPS", "operator:type": "public", "operator:wikidata": "Q668687", "ref": "2665600001"}, "type": "Feature"}
{"dataset_attributes": {"@spider": "usps_collection_boxes", "spider:collection_time": "2023-10-25T08:26:15.836184"}, "geometry": {"coordinates": [-81.188109922, 38.232430285], "type": "Point"}, "id": "eWh6hQXIwGCwcTzv3WVrb2Gr41A=", "properties": {"@spider": "usps_collection_boxes", "addr:city": "BELVA", "addr:country": "US", "addr:full": "24652 TURNPIKE RD", "addr:postcode": "26656", "addr:state": "WV", "amenity": "post_box", "brand": "United States Postal Service", "brand:wikidata": "Q668687", "collection_times": "Mo-Fr 12:00; Sa 11:30", "name": "USPS COLLECTION BOX - PO LOBBY", "nsi_id": "unitedstatespostalservice-a77078", "operator": "United States Postal Service", "operator:short": "USPS", "operator:type": "public", "operator:wikidata": "Q668687", "ref": "2665600003"}, "type": "Feature"}
{"dataset_attributes": {"@spider": "usps_collection_boxes", "spider:collection_time": "2023-10-25T08:26:15.836184"}, "geometry": {"coordinates": [-80.74637, 38.328032], "type": "Point"}, "id": "Mhw4hO1GMIBcNp0gJ42fCpPRMA8=", "properties": {"@spider": "usps_collection_boxes", "addr:city": "CALVIN", "addr:country": "US", "addr:full": "14038 WEBSTER RD", "addr:postcode": "26660", "addr:state": "WV", "amenity": "post_box", "brand": "United States Postal Service", "brand:wikidata": "Q668687", "collection_times": "Mo-Sa 10:00", "name": "USPS COLLECTION BOX - BLUE BOX", "nsi_id": "unitedstatespostalservice-a77078", "operator": "United States Postal Service", "operator:short": "USPS", "operator:type": "public", "operator:wikidata": "Q668687", "ref": "2666000000"}, "type": "Feature"}
{"dataset_attributes": {"@spider": "usps_collection_boxes", "spider:collection_time": "2023-10-25T08:26:15.836184"}, "geometry": {"coordinates": [-80.746395, 38.32805], "type": "Point"}, "id": "rv86xsgcJejw9lg-5v5lgrEaExs=", "properties": {"@spider": "usps_collection_boxes", "addr:city": "CALVIN", "addr:country": "US", "addr:full": "14038 WEBSTER RD", "addr:postcode": "26660", "addr:state": "WV", "amenity": "post_box", "brand": "United States Postal Service", "brand:wikidata": "Q668687", "collection_times": "Mo-Sa 10:30", "name": "USPS COLLECTION BOX - PO LOBBY", "nsi_id": "unitedstatespostalservice-a77078", "operator": "United States Postal Service", "operator:short": "USPS", "operator:type": "public", "operator:wikidata": "Q668687", "ref": "2666000001"}, "type": "Feature"}
{"dataset_attributes": {"@spider": "usps_collection_boxes", "spider:collection_time": "2023-10-25T08:26:15.836184"}, "geometry": {"coordinates": [-80.71296778, 38.336609749], "type": "Point"}, "id": "9T_z0bhlGP6HbjLjnKAycLejhI4=", "properties": {"@spider": "usps_collection_boxes", "addr:city": "CALVIN", "addr:country": "US", "addr:full": "14038 WEBSTER RD", "addr:postcode": "26660", "addr:state": "WV", "amenity": "post_box", "brand": "United States Postal Service", "brand:wikidata": "Q668687", "collection_times": "Mo-Fr 12:00; Sa 11:30", "name": "USPS COLLECTION BOX - PO LOBBY", "nsi_id": "unitedstatespostalservice-a77078", "operator": "United States Postal Service", "operator:short": "USPS", "operator:type": "public", "operator:wikidata": "Q668687", "ref": "2666000003"}, "type": "Feature"}
{"dataset_attributes": {"@spider": "usps_collection_boxes", "spider:collection_time": "2023-10-25T08:26:15.836184"}, "geometry": {"coordinates": [-80.775833, 38.264731], "type": "Point"}, "id": "0NIcCqSm8CTEgiwp2JKWIje_kDQ=", "properties": {"@spider": "usps_collection_boxes", "addr:city": "CANVAS", "addr:country": "US", "addr:full": "20 OAKWOOD DR", "addr:postcode": "26662", "addr:state": "WV", "amenity": "post_box", "brand": "United States Postal Service", "brand:wikidata": "Q668687", "collection_times": "Mo-Fr 15:15; Sa 11:45", "name": "USPS COLLECTION BOX - BLUE BOX", "note": "ON 12/24 AND 12/31, THIS BOX MAY BE COLLECTED AS EARLY AS 12 NOON.", "nsi_id": "unitedstatespostalservice-a77078", "operator": "United States Postal Service", "operator:short": "USPS", "operator:type": "public", "operator:wikidata": "Q668687", "ref": "2666200000"}, "type": "Feature"}
{"dataset_attributes": {"@spider": "usps_collection_boxes", "spider:collection_time": "2023-10-25T08:26:15.836184"}, "geometry": {"coordinates": [-80.775743, 38.264689], "type": "Point"}, "id": "it3epwsLwToA00IvboYmH-6ccNc=", "properties": {"@spider": "usps_collection_boxes", "addr:city": "CANVAS", "addr:country": "US", "addr:full": "20 OAKWOOD DR", "addr:postcode": "26662", "addr:state": "WV", "amenity": "post_box", "brand": "United States Postal Service", "brand:wikidata": "Q668687", "collection_times": "Mo-Fr 15:15; Sa 11:45", "name": "USPS COLLECTION BOX - PO LOBBY", "note": "ON 12/24 AND 12/31, THIS BOX MAY BE COLLECTED AS EARLY AS 12 NOON.", "nsi_id": "unitedstatespostalservice-a77078", "operator": "United States Postal Service", "operator:short": "USPS", "operator:type": "public", "operator:wikidata": "Q668687", "ref": "2666200001"}, "type": "Feature"}
{"dataset_attributes": {"@spider": "usps_collection_boxes", "spider:collection_time": "2023-10-25T08:26:15.836184"}, "geometry": {"coordinates": [-80.775959068, 38.264798973], "type": "Point"}, "id": "QWA3hs0uSSfe3SfpvhmCDMUXiOg=", "properties": {"@spider": "usps_collection_boxes", "addr:city": "CANVAS", "addr:country": "US", "addr:full": "20 OAKWOOD DR", "addr:postcode": "26662", "addr:state": "WV", "amenity": "post_box", "brand": "United States Postal Service", "brand:wikidata": "Q668687", "collection_times": "Mo-Fr 15:45; Sa 11:45", "name": "USPS COLLECTION BOX - PO LOBBY", "note": "ON 12/24 AND 12/31, THIS BOX MAY BE COLLECTED AS EARLY AS 12 NOON.", "nsi_id": "unitedstatespostalservice-a77078", "operator": "United States Postal Service", "operator:short": "USPS", "operator:type": "public", "operator:wikidata": "Q668687", "ref": "2666200003"}, "type": "Feature"}
{"dataset_attributes": {"@spider": "usps_collection_boxes", "spider:collection_time": "2023-10-25T08:26:15.836184"}, "geometry": {"coordinates": [-80.997658, 38.270702], "type": "Point"}, "id": "d1xG1iyiLzw4Bosz2vYc8cFtLvI=", "properties": {"@spider": "usps_collection_boxes", "addr:city": "DRENNEN", "addr:country": "US", "addr:full": "12 MISTY RD", "addr:postcode": "26667", "addr:state": "WV", "amenity": "post_box", "brand": "United States Postal Service", "brand:wikidata": "Q668687", "collection_times": "Mo-Sa 09:00", "name": "USPS COLLECTION BOX - BLUE BOX", "nsi_id": "unitedstatespostalservice-a77078", "operator": "United States Postal Service", "operator:short": "USPS", "operator:type": "public", "operator:wikidata": "Q668687", "ref": "2666700000"}, "type": "Feature"}
{"dataset_attributes": {"@spider": "usps_collection_boxes", "spider:collection_time": "2023-10-25T08:26:15.836184"}, "geometry": {"coordinates": [-80.997658, 38.270702], "type": "Point"}, "id": "YN_VdHpF3fD9dX5T1IIE8qCi5h4=", "properties": {"@spider": "usps_collection_boxes", "addr:city": "DRENNEN", "addr:country": "US", "addr:full": "12 MISTY RD", "addr:postcode": "26667", "addr:state": "WV", "amenity": "post_box", "brand": "United States Postal Service", "brand:wikidata": "Q668687", "collection_times": "Mo-Sa 09:00", "name": "USPS COLLECTION BOX - PO LOBBY", "nsi_id": "unitedstatespostalservice-a77078", "operator": "United States Postal Service", "operator:short": "USPS", "operator:type": "public", "operator:wikidata": "Q668687", "ref": "2666700001"}, "type": "Feature"}
{"dataset_attributes": {"@spider": "usps_collection_boxes", "spider:collection_time": "2023-10-25T08:26:15.836184"}, "geometry": {"coordinates": [-81.007615369, 38.22594], "type": "Point"}, "id": "wLuJNxRnryIRts3_r6cl8EO1gAw=", "properties": {"@spider": "usps_collection_boxes", "addr:city": "DRENNEN", "addr:country": "US", "addr:full": "12 MISTY RD", "addr:postcode": "26667", "addr:state": "WV", "amenity": "post_box", "brand": "United States Postal Service", "brand:wikidata": "Q668687", "collection_times": "Mo-Sa 11:00", "name": "USPS COLLECTION BOX - PO LOBBY", "nsi_id": "unitedstatespostalservice-a77078", "operator": "United States Postal Service", "operator:short": "USPS", "operator:type": "public", "operator:wikidata": "Q668687", "ref": "2666700003"}, "type": "Feature"}
{"dataset_attributes": {"@spider": "usps_collection_boxes", "spider:collection_time": "2023-10-25T08:26:15.836184"}, "geometry": {"coordinates": [-80.980736, 38.278686], "type": "Point"}, "id": "pUtUWJQZrRS7XAYdt50Ot7D0k74=", "properties": {"@spider": "usps_collection_boxes", "addr:city": "GILBOA", "addr:country": "US", "addr:full": "5495 TURNPIKE RD", "addr:postcode": "26671", "addr:state": "WV", "amenity": "post_box", "brand": "United States Postal Service", "brand:wikidata": "Q668687", "collection_times": "Mo-Fr 11:15; Sa 10:15", "name": "USPS COLLECTION BOX - BLUE BOX", "nsi_id": "unitedstatespostalservice-a77078", "operator": "United States Postal Service", "operator:short": "USPS", "operator:type": "public", "operator:wikidata": "Q668687", "ref": "2667100000"}, "type": "Feature"}
{"dataset_attributes": {"@spider": "usps_collection_boxes", "spider:collection_time": "2023-10-25T08:26:15.836184"}, "geometry": {"coordinates": [-80.980736, 38.278686], "type": "Point"}, "id": "eMXNX7I-SBB_Jn7zFDPOJnmVSBk=", "properties": {"@spider": "usps_collection_boxes", "addr:city": "GILBOA", "addr:country": "US", "addr:full": "5495 TURNPIKE RD", "addr:postcode": "26671", "addr:state": "WV", "amenity": "post_box", "brand": "United States Postal Service", "brand:wikidata": "Q668687", "collection_times": "Mo-Fr 11:15; Sa 10:15", "name": "USPS COLLECTION BOX - PO LOBBY", "nsi_id": "unitedstatespostalservice-a77078", "operator": "United States Postal Service", "operator:short": "USPS", "operator:type": "public", "operator:wikidata": "Q668687", "ref": "2667100001"}, "type": "Feature"}
{"dataset_attributes": {"@spider": "usps_collection_boxes", "spider:collection_time": "2023-10-25T08:26:15.836184"}, "geometry": {"coordinates": [-80.934681959, 38.30292692], "type": "Point"}, "id": "BYzV5cGXGCEJ-hfzNSUSqdj6xss=", "properties": {"@spider": "usps_collection_boxes", "addr:city": "GILBOA", "addr:country": "US", "addr:full": "5495 TURNPIKE RD", "addr:postcode": "26671", "addr:state": "WV", "amenity": "post_box", "brand": "United States Postal Service", "brand:wikidata": "Q668687", "collection_times": "Mo-Sa 11:30", "name": "USPS COLLECTION BOX - PO LOBBY", "nsi_id": "unitedstatespostalservice-a77078", "operator": "United States Postal Service", "operator:short": "USPS", "operator:type": "public", "operator:wikidata": "Q668687", "ref": "2667100003"}, "type": "Feature"}
{"dataset_attributes": {"@spider": "usps_collection_boxes", "spider:collection_time": "2023-10-25T08:26:15.836184"}, "geometry": {"coordinates": [-80.933346, 38.23015], "type": "Point"}, "id": "716nyvCFV6Tcs_zg-lRZ7hFPeNA=", "properties": {"@spider": "usps_collection_boxes", "addr:city": "KESSLERS CRS LNS", "addr:country": "US", "addr:full": "5596 SUMMERSVILLE LAKE RD", "addr:postcode": "26675", "addr:state": "WV", "amenity": "post_box", "brand": "United States Postal Service", "brand:wikidata": "Q668687", "collection_times": "Mo-Sa 09:00", "name": "USPS COLLECTION BOX - BLUE BOX", "nsi_id": "unitedstatespostalservice-a77078", "operator": "United States Postal Service", "operator:short": "USPS", "operator:type": "public", "operator:wikidata": "Q668687", "ref": "2667500000"}, "type": "Feature"}
{"dataset_attributes": {"@spider": "usps_collection_boxes", "spider:collection_time": "2023-10-25T08:26:15.836184"}, "geometry": {"coordinates": [-80.933346, 38.23015], "type": "Point"}, "id": "KwBfF7Sj8uDbFZeri41vi_b_8Hk=", "properties": {"@spider": "usps_collection_boxes", "addr:city": "KESSLERS CRS LNS", "addr:country": "US", "addr:full": "5596 SUMMERSVILLE LAKE RD", "addr:postcode": "26675", "addr:state": "WV", "amenity": "post_box", "brand": "United States Postal Service", "brand:wikidata": "Q668687", "collection_times": "Mo-Sa 09:00", "name": "USPS COLLECTION BOX - PO LOBBY", "nsi_id": "unitedstatespostalservice-a77078", "operator": "United States Postal Service", "operator:short": "USPS", "operator:type": "public", "operator:wikidata": "Q668687", "ref": "2667500001"}, "type": "Feature"}
{"dataset_attributes": {"@spider": "usps_collection_boxes", "spider:collection_time": "2023-10-25T08:26:15.836184"}, "geometry": {"coordinates": [-80.932869666, 38.228139044], "type": "Point"}, "id": "vtCDuaWGMYLqjs1iqqrmXd9it8Q=", "properties": {"@spider": "usps_collection_boxes", "addr:city": "KESSLERS CRS LNS", "addr:country": "US", "addr:full": "5596 SUMMERSVILLE LAKE RD", "addr:postcode": "26675", "addr:state": "WV", "amenity": "post_box", "brand": "United States Postal Service", "brand:wikidata": "Q668687", "collection_times": "Mo-Sa 12:30", "name": "USPS COLLECTION BOX - PO LOBBY", "note": "ON 12/24 AND 12/31, THIS BOX MAY BE COLLECTED AS EARLY AS 12 NOON.", "nsi_id": "unitedstatespostalservice-a77078", "operator": "United States Postal Service", "operator:short": "USPS", "operator:type": "public", "operator:wikidata": "Q668687", "ref": "2667500003"}, "type": "Feature"}
{"dataset_attributes": {"@spider": "usps_collection_boxes", "spider:collection_time": "2023-10-25T08:26:15.836184"}, "geometry": {"coordinates": [-80.690748, 38.160759], "type": "Point"}, "id": "_Ld1nlgfqK0fcCqUuc9aL15pwAU=", "properties": {"@spider": "usps_collection_boxes", "addr:city": "LEIVASY", "addr:country": "US", "addr:full": "5325 LEIVASY RD", "addr:postcode": "26676", "addr:state": "WV", "amenity": "post_box", "brand": "United States Postal Service", "brand:wikidata": "Q668687", "collection_times": "Mo-Fr 11:45; Sa 10:15", "name": "USPS COLLECTION BOX - BLUE BOX", "nsi_id": "unitedstatespostalservice-a77078", "operator": "United States Postal Service", "operator:short": "USPS", "operator:type": "public", "operator:wikidata": "Q668687", "ref": "2667600000"}, "type": "Feature"}
{"dataset_attributes": {"@spider": "usps_collection_boxes", "spider:collection_time": "2023-10-25T08:26:15.836184"}, "geometry": {"coordinates": [-80.690779, 38.160812], "type": "Point"}, "id": "qkFab9dNINB9qWQS9nKtGVICd7s=", "properties": {"@spider": "usps_collection_boxes", "addr:city": "LEIVASY", "addr:country": "US", "addr:full": "5325 LEIVASY RD", "addr:postcode": "26676", "addr:state": "WV", "amenity": "post_box", "brand": "United States Postal Service", "brand:wikidata": "Q668687", "collection_times": "Mo-Fr 11:45; Sa 10:15", "name": "USPS COLLECTION BOX - PO LOBBY", "nsi_id": "unitedstatespostalservice-a77078", "operator": "United States Postal Service", "operator:short": "USPS", "operator:type": "public", "operator:wikidata": "Q668687", "ref": "2667600001"}, "type": "Feature"}
{"dataset_attributes": {"@spider": "usps_collection_boxes", "spider:collection_time": "2023-10-25T08:26:15.836184"}, "geometry": {"coordinates": [-80.69114789, 38.162998232], "type": "Point"}, "id": "WEEWGcYW-c6MK-zkmtJ0GA1OFvc=", "properties": {"@spider": "usps_collection_boxes", "addr:city": "LEIVASY", "addr:country": "US", "addr:full": "5325 LEIVASY RD", "addr:postcode": "26676", "addr:state": "WV", "amenity": "post_box", "brand": "United States Postal Service", "brand:wikidata": "Q668687", "collection_times": "Mo-Fr 12:00; Sa 11:30", "name": "USPS COLLECTION BOX - PO LOBBY", "nsi_id": "unitedstatespostalservice-a77078", "operator": "United States Postal Service", "operator:short": "USPS", "operator:type": "public", "operator:wikidata": "Q668687", "ref": "2667600003"}, "type": "Feature"}
{"dataset_attributes": {"@spider": "usps_collection_boxes", "spider:collection_time": "2023-10-25T08:26:15.836184"}, "geometry": {"coordinates": [-80.908769, 38.163389], "type": "Point"}, "id": "di8NbDfF4vQjNsUJyJ9B7SgVAfY=", "properties": {"@spider": "usps_collection_boxes", "addr:city": "MOUNT LOOKOUT", "addr:country": "US", "addr:full": "466 W MOUNT LOOKOUT RD", "addr:postcode": "26678", "addr:state": "WV", "amenity": "post_box", "brand": "United States Postal Service", "brand:wikidata": "Q668687", "collection_times": "Mo-Fr 15:30; Sa 11:45", "name": "USPS COLLECTION BOX - BLUE BOX", "note": "ON 12/24 AND 12/31, THIS BOX MAY BE COLLECTED AS EARLY AS 12 NOON.", "nsi_id": "unitedstatespostalservice-a77078", "operator": "United States Postal Service", "operator:short": "USPS", "operator:type": "public", "operator:wikidata": "Q668687", "ref": "2667800000"}, "type": "Feature"}
{"dataset_attributes": {"@spider": "usps_collection_boxes", "spider:collection_time": "2023-10-25T08:26:15.836184"}, "geometry": {"coordinates": [-80.908831, 38.163435], "type": "Point"}, "id": "gdAtHvl8nZO2J1BQBsLFtwDAMUU=", "properties": {"@spider": "usps_collection_boxes", "addr:city": "MOUNT LOOKOUT", "addr:country": "US", "addr:full": "466 W MOUNT LOOKOUT RD", "addr:postcode": "26678", "addr:state": "WV", "amenity": "post_box", "brand": "United States Postal Service", "brand:wikidata": "Q668687", "collection_times": "Mo-Fr 15:30; Sa 11:45", "name": "USPS COLLECTION BOX - PO LOBBY", "note": "ON 12/24 AND 12/31, THIS BOX MAY BE COLLECTED AS EARLY AS 12 NOON.", "nsi_id": "unitedstatespostalservice-a77078", "operator": "United States Postal Service", "operator:short": "USPS", "operator:type": "public", "operator:wikidata": "Q668687", "ref": "2667800001"}, "type": "Feature"}
{"dataset_attributes": {"@spider": "usps_collection_boxes", "spider:collection_time": "2023-10-25T08:26:15.836184"}, "geometry": {"coordinates": [-80.909312324, 38.164386282], "type": "Point"}, "id": "YwQE2V4CKVJmVRD58LdxIvzzOr4=", "properties": {"@spider": "usps_collection_boxes", "addr:city": "MOUNT LOOKOUT", "addr:country": "US", "addr:full": "466 W MOUNT LOOKOUT RD", "addr:postcode": "26678", "addr:state": "WV", "amenity": "post_box", "brand": "United States Postal Service", "brand:wikidata": "Q668687", "collection_times": "Mo-Fr 15:45; Sa 11:45", "name": "USPS COLLECTION BOX - PO LOBBY", "note": "ON 12/24 AND 12/31, THIS BOX MAY BE COLLECTED AS EARLY AS 12 NOON.", "nsi_id": "unitedstatespostalservice-a77078", "operator": "United States Postal Service", "operator:short": "USPS", "operator:type": "public", "operator:wikidata": "Q668687", "ref": "2667800003"}, "type": "Feature"}
{"dataset_attributes": {"@spider": "usps_collection_boxes", "spider:collection_time": "2023-10-25T08:26:15.836184"}, "geometry": {"coordinates": [-80.852890035, 38.199921146], "type": "Point"}, "id": "E0JaxvmyJ04RWIXUC_0LQWaus14=", "properties": {"@spider": "usps_collection_boxes", "addr:city": "MOUNT NEBO", "addr:country": "US", "addr:full": "594 RIVIERA RD", "addr:postcode": "26679", "addr:state": "WV", "amenity": "post_box", "brand": "United States Postal Service", "brand:wikidata": "Q668687", "collection_times": "Mo-Fr 16:00; Sa 11:00", "name": "USPS COLLECTION BOX - BLUE BOX", "note": "ON 12/24 AND 12/31, THIS BOX MAY BE COLLECTED AS EARLY AS 12 NOON.", "nsi_id": "unitedstatespostalservice-a77078", "operator": "United States Postal Service", "operator:short": "USPS", "operator:type": "public", "operator:wikidata": "Q668687", "ref": "2667900000"}, "type": "Feature"}
{"dataset_attributes": {"@spider": "usps_collection_boxes", "spider:collection_time": "2023-10-25T08:26:15.836184"}, "geometry": {"coordinates": [-80.852890035, 38.199921146], "type": "Point"}, "id": "TwiAcXTIQUw3s0xQk1XZMdweg14=", "properties": {"@spider": "usps_collection_boxes", "addr:city": "MOUNT NEBO", "addr:country": "US", "addr:full": "594 RIVIERA RD", "addr:postcode": "26679", "addr:state": "WV", "amenity": "post_box", "brand": "United States Postal Service", "brand:wikidata": "Q668687", "collection_times": "Mo-Fr 16:00; Sa 11:00", "name": "USPS COLLECTION BOX - PO LOBBY", "note": "ON 12/24 AND 12/31, THIS BOX MAY BE COLLECTED AS EARLY AS 12 NOON.", "nsi_id": "unitedstatespostalservice-a77078", "operator": "United States Postal Service", "operator:short": "USPS", "operator:type": "public", "operator:wikidata": "Q668687", "ref": "2667900001"}, "type": "Feature"}
{"dataset_attributes": {"@spider": "usps_collection_boxes", "spider:collection_time": "2023-10-25T08:26:15.836184"}, "geometry": {"coordinates": [-80.852890035, 38.199921146], "type": "Point"}, "id": "MWs_baTj1XNVuGeBT9dS0rQtc04=", "properties": {"@spider": "usps_collection_boxes", "addr:city": "MOUNT NEBO", "addr:country": "US", "addr:full": "594 RIVIERA RD", "addr:postcode": "26679", "addr:state": "WV", "amenity": "post_box", "brand": "United States Postal Service", "brand:wikidata": "Q668687", "collection_times": "Mo-Fr 16:00; Sa 11:30", "name": "USPS COLLECTION BOX - PO LOBBY", "note": "ON 12/24 AND 12/31, THIS BOX MAY BE COLLECTED AS EARLY AS 12 NOON.", "nsi_id": "unitedstatespostalservice-a77078", "operator": "United States Postal Service", "operator:short": "USPS", "operator:type": "public", "operator:wikidata": "Q668687", "ref": "2667900003"}, "type": "Feature"}
{"dataset_attributes": {"@spider": "usps_collection_boxes", "spider:collection_time": "2023-10-25T08:26:15.836184"}, "geometry": {"coordinates": [-80.880017, 38.106855], "type": "Point"}, "id": "DpOEiMqGGUzHo3gwbMiFsxd_j04=", "properties": {"@spider": "usps_collection_boxes", "addr:city": "NALLEN", "addr:country": "US", "addr:full": "9001 WILDERNESS HWY", "addr:postcode": "26680", "addr:state": "WV", "amenity": "post_box", "brand": "United States Postal Service", "brand:wikidata": "Q668687", "collection_times": "Mo-Fr 12:00; Sa 10:30", "name": "USPS COLLECTION BOX - BLUE BOX", "nsi_id": "unitedstatespostalservice-a77078", "operator": "United States Postal Service", "operator:short": "USPS", "operator:type": "public", "operator:wikidata": "Q668687", "ref": "2668000000"}, "type": "Feature"}
{"dataset_attributes": {"@spider": "usps_collection_boxes", "spider:collection_time": "2023-10-25T08:26:15.836184"}, "geometry": {"coordinates": [-80.880017, 38.106855], "type": "Point"}, "id": "l2uq1HMGC-bQIpv4fdSvo9koSEQ=", "properties": {"@spider": "usps_collection_boxes", "addr:city": "NALLEN", "addr:country": "US", "addr:full": "9001 WILDERNESS HWY", "addr:postcode": "26680", "addr:state": "WV", "amenity": "post_box", "brand": "United States Postal Service", "brand:wikidata": "Q668687", "collection_times": "Mo-Fr 12:00; Sa 10:30", "name": "USPS COLLECTION BOX - PO LOBBY", "nsi_id": "unitedstatespostalservice-a77078", "operator": "United States Postal Service", "operator:short": "USPS", "operator:type": "public", "operator:wikidata": "Q668687", "ref": "2668000001"}, "type": "Feature"}
{"dataset_attributes": {"@spider": "usps_collection_boxes", "spider:collection_time": "2023-10-25T08:26:15.836184"}, "geometry": {"coordinates": [-80.880167716, 38.106555944], "type": "Point"}, "id": "eqnUVRlbdui8TPDGCogtMXyyR4M=", "properties": {"@spider": "usps_collection_boxes", "addr:city": "NALLEN", "addr:country": "US", "addr:full": "9001 WILDERNESS HWY", "addr:postcode": "26680", "addr:state": "WV", "amenity": "post_box", "brand": "United States Postal Service", "brand:wikidata": "Q668687", "collection_times": "Mo-Fr 12:00; Sa 11:00", "name": "USPS COLLECTION BOX - PO LOBBY", "nsi_id": "unitedstatespostalservice-a77078", "operator": "United States Postal Service", "operator:short": "USPS", "operator:type": "public", "operator:wikidata": "Q668687", "ref": "2668000003"}, "type": "Feature"}
{"dataset_attributes": {"@spider": "usps_collection_boxes", "spider:collection_time": "2023-10-25T08:26:15.836184"}, "geometry": {"coordinates": [-80.687066656, 38.223922126], "type": "Point"}, "id": "MjV_13Hm83pYL4JRYEsfsZ9War4=", "properties": {"@spider": "usps_collection_boxes", "addr:city": "NETTIE", "addr:country": "US", "addr:full": "11427 CANVAS NETTIE RD", "addr:postcode": "26681", "addr:state": "WV", "amenity": "post_box", "brand": "United States Postal Service", "brand:wikidata": "Q668687", "collection_times": "Mo-Fr 16:00; Sa 11:30", "name": "USPS COLLECTION BOX - BLUE BOX", "note": "ON 12/24 AND 12/31, THIS BOX MAY BE COLLECTED AS EARLY AS 12 NOON.", "nsi_id": "unitedstatespostalservice-a77078", "operator": "United States Postal Service", "operator:short": "USPS", "operator:type": "public", "operator:wikidata": "Q668687", "ref": "2668100000"}, "type": "Feature"}
{"dataset_attributes": {"@spider": "usps_collection_boxes", "spider:collection_time": "2023-10-25T08:26:15.836184"}, "geometry": {"coordinates": [-80.687066656, 38.223922126], "type": "Point"}, "id": "SsfWCY6VvbUra3ebX5oXa1x1dgw=", "properties": {"@spider": "usps_collection_boxes", "addr:city": "NETTIE", "addr:country": "US", "addr:full": "11427 CANVAS NETTIE RD", "addr:postcode": "26681", "addr:state": "WV", "amenity": "post_box", "brand": "United States Postal Service", "brand:wikidata": "Q668687", "collection_times": "Mo-Fr 16:00; Sa 11:30", "name": "USPS COLLECTION BOX - PO LOBBY", "note": "ON 12/24 AND 12/31, THIS BOX MAY BE COLLECTED AS EARLY AS 12 NOON.", "nsi_id": "unitedstatespostalservice-a77078", "operator": "United States Postal Service", "operator:short": "USPS", "operator:type": "public", "operator:wikidata": "Q668687", "ref": "2668100001"}, "type": "Feature"}
{"dataset_attributes": {"@spider": "usps_collection_boxes", "spider:collection_time": "2023-10-25T08:26:15.836184"}, "geometry": {"coordinates": [-80.687066656, 38.223922126], "type": "Point"}, "id": "vBSHtC7UIi0KKx9OO56L0xfd-SI=", "properties": {"@spider": "usps_collection_boxes", "addr:city": "NETTIE", "addr:country": "US", "addr:full": "11427 CANVAS NETTIE RD", "addr:postcode": "26681", "addr:state": "WV", "amenity": "post_box", "brand": "United States Postal Service", "brand:wikidata": "Q668687", "collection_times": "Mo-Fr 16:30; Sa 11:30", "name": "USPS COLLECTION BOX - PO LOBBY", "note": "ON 12/24 AND 12/31, THIS BOX MAY BE COLLECTED AS EARLY AS 12 NOON.", "nsi_id": "unitedstatespostalservice-a77078", "operator": "United States Postal Service", "operator:short": "USPS", "operator:type": "public", "operator:wikidata": "Q668687", "ref": "2668100003"}, "type": "Feature"}
{"dataset_attributes": {"@spider": "usps_collection_boxes", "spider:collection_time": "2023-10-25T08:26:15.836184"}, "geometry": {"coordinates": [-81.069757, 38.262524], "type": "Point"}, "id": "t-aLjU0QGHYmVhoOPbpmx2OlpyE=", "properties": {"@spider": "usps_collection_boxes", "addr:city": "SWISS", "addr:country": "US", "addr:full": "20492 TURNPIKE RD", "addr:postcode": "26690", "addr:state": "WV", "amenity": "post_box", "brand": "United States Postal Service", "brand:wikidata": "Q668687", "collection_times": "Mo-Fr 13:15; Sa 11:15", "name": "USPS COLLECTION BOX - BLUE BOX", "note": "ON 12/24 AND 12/31, THIS BOX MAY BE COLLECTED AS EARLY AS 12 NOON.", "nsi_id": "unitedstatespostalservice-a77078", "operator": "United States Postal Service", "operator:short": "USPS", "operator:type": "public", "operator:wikidata": "Q668687", "ref": "2669000000"}, "type": "Feature"}
{"dataset_attributes": {"@spider": "usps_collection_boxes", "spider:collection_time": "2023-10-25T08:26:15.836184"}, "geometry": {"coordinates": [-81.069757, 38.262524], "type": "Point"}, "id": "QNanKIMReIPEup7MVzPAfEKfvrU=", "properties": {"@spider": "usps_collection_boxes", "addr:city": "SWISS", "addr:country": "US", "addr:full": "20492 TURNPIKE RD", "addr:postcode": "26690", "addr:state": "WV", "amenity": "post_box", "brand": "United States Postal Service", "brand:wikidata": "Q668687", "collection_times": "Mo-Fr 13:15; Sa 11:15", "name": "USPS COLLECTION BOX - PO LOBBY", "note": "ON 12/24 AND 12/31, THIS BOX MAY BE COLLECTED AS EARLY AS 12 NOON.", "nsi_id": "unitedstatespostalservice-a77078", "operator": "United States Postal Service", "operator:short": "USPS", "operator:type": "public", "operator:wikidata": "Q668687", "ref": "2669000001"}, "type": "Feature"}
{"dataset_attributes": {"@spider": "usps_collection_boxes", "spider:collection_time": "2023-10-25T08:26:15.836184"}, "geometry": {"coordinates": [-81.123996047, 38.241943081], "type": "Point"}, "id": "I9UQbVOoKeFvXYCPvAcexMzxmHE=", "properties": {"@spider": "usps_collection_boxes", "addr:city": "SWISS", "addr:country": "US", "addr:full": "20492 TURNPIKE RD", "addr:postcode": "26690", "addr:state": "WV", "amenity": "post_box", "brand": "United States Postal Service", "brand:wikidata": "Q668687", "collection_times": "Mo-Fr 13:30; Sa 12:00", "name": "USPS COLLECTION BOX - PO LOBBY", "note": "ON 12/24 AND 12/31, THIS BOX MAY BE COLLECTED AS EARLY AS 12 NOON.", "nsi_id": "unitedstatespostalservice-a77078", "operator": "United States Postal Service", "operator:short": "USPS", "operator:type": "public", "operator:wikidata": "Q668687", "ref": "2669000003"}, "type": "Feature"}
{"dataset_attributes": {"@spider": "usps_collection_boxes", "spider:collection_time": "2023-10-25T08:26:15.836184"}, "geometry": {"coordinates": [-80.659213, 38.421571], "type": "Point"}, "id": "NOilNzbYPG1TQYvA-IIj12Wb5KQ=", "properties": {"@spider": "usps_collection_boxes", "addr:city": "TIOGA", "addr:country": "US", "addr:full": "108 CULLER RD", "addr:postcode": "26691", "addr:state": "WV", "amenity": "post_box", "brand": "United States Postal Service", "brand:wikidata": "Q668687", "collection_times": "Mo-Sa 09:30", "name": "USPS COLLECTION BOX - BLUE BOX", "nsi_id": "unitedstatespostalservice-a77078", "operator": "United States Postal Service", "operator:short": "USPS", "operator:type": "public", "operator:wikidata": "Q668687", "ref": "2669100000"}, "type": "Feature"}
{"dataset_attributes": {"@spider": "usps_collection_boxes", "spider:collection_time": "2023-10-25T08:26:15.836184"}, "geometry": {"coordinates": [-80.659191, 38.421546], "type": "Point"}, "id": "o0sjvE9khCO7-sw1pr33PU9ff5I=", "properties": {"@spider": "usps_collection_boxes", "addr:city": "TIOGA", "addr:country": "US", "addr:full": "108 CULLER RD", "addr:postcode": "26691", "addr:state": "WV", "amenity": "post_box", "brand": "United States Postal Service", "brand:wikidata": "Q668687", "collection_times": "Mo-Sa 09:30", "name": "USPS COLLECTION BOX - PO LOBBY", "nsi_id": "unitedstatespostalservice-a77078", "operator": "United States Postal Service", "operator:short": "USPS", "operator:type": "public", "operator:wikidata": "Q668687", "ref": "2669100001"}, "type": "Feature"}
{"dataset_attributes": {"@spider": "usps_collection_boxes", "spider:collection_time": "2023-10-25T08:26:15.836184"}, "geometry": {"coordinates": [-80.658088857, 38.420335914], "type": "Point"}, "id": "m6AaadyV7EhMgK4GydtWK796eBw=", "properties": {"@spider": "usps_collection_boxes", "addr:city": "TIOGA", "addr:country": "US", "addr:full": "108 CULLER RD", "addr:postcode": "26691", "addr:state": "WV", "amenity": "post_box", "brand": "United States Postal Service", "brand:wikidata": "Q668687", "collection_times": "Mo-Sa 10:30", "name": "USPS COLLECTION BOX - PO LOBBY", "nsi_id": "unitedstatespostalservice-a77078", "operator": "United States Postal Service", "operator:short": "USPS", "operator:type": "public", "operator:wikidata": "Q668687", "ref": "2669100003"}, "type": "Feature"}
