{"dataset_attributes": {"@spider": "usps_collection_boxes", "spider:collection_time": "2023-09-10T08:22:19.197986"}, "geometry": {"coordinates": [-78.638682862, 39.294953946], "type": "Point"}, "id": "9g0lPw4DRkAeqfJbT4yYs6Ov5Hg=", "properties": {"@spider": "usps_collection_boxes", "addr:city": "AUGUSTA", "addr:country": "US", "addr:full": "16962 NORTHWESTERN PIKE", "addr:postcode": "26704", "addr:state": "WV", "amenity": "post_box", "brand": "United States Postal Service", "brand:wikidata": "Q668687", "collection_times": "Mo-Fr 16:00; Sa 12:00", "name": "USPS COLLECTION BOX - BLUE BOX", "note": "ON 12/24 AND 12/31, THIS BOX MAY BE COLLECTED AS EARLY AS 12 NOON.", "nsi_id": "unitedstatespostalservice-a77078", "operator": "United States Postal Service", "operator:short": "USPS", "operator:type": "public", "operator:wikidata": "Q668687", "ref": "2670400000"}, "type": "Feature"}
{"dataset_attributes": {"@spider": "usps_collection_boxes", "spider:collection_time": "2023-09-10T08:22:19.197986"}, "geometry": {"coordinates": [-78.638682862, 39.294953946], "type": "Point"}, "id": "0Z1W1SlbuZfSDYmdl-2HDQ5XGCs=", "properties": {"@spider": "usps_collection_boxes", "addr:city": "AUGUSTA", "addr:country": "US", "addr:full": "16962 NORTHWESTERN PIKE", "addr:postcode": "26704", "addr:state": "WV", "amenity": "post_box", "brand": "United States Postal Service", "brand:wikidata": "Q668687", "collection_times": "Mo-Fr 16:00; Sa 12:00", "name": "USPS COLLECTION BOX - PO LOBBY", "note": "ON 12/24 AND 12/31, THIS BOX MAY BE COLLECTED AS EARLY AS 12 NOON.", "nsi_id": "unitedstatespostalservice-a77078", "operator": "United States Postal Service", "operator:short": "USPS", "operator:type": "public", "operator:wikidata": "Q668687", "ref": "2670400001"}, "type": "Feature"}
{"dataset_attributes": {"@spider": "usps_collection_boxes", "spider:collection_time": "2023-09-10T08:22:19.197986"}, "geometry": {"coordinates": [-78.638682862, 39.294953946], "type": "Point"}, "id": "D5aPYed2FV7G8k5H0hCRxNFLlis=", "properties": {"@spider": "usps_collection_boxes", "addr:city": "AUGUSTA", "addr:country": "US", "addr:full": "16962 NORTHWESTERN PIKE", "addr:postcode": "26704", "addr:state": "WV", "amenity": "post_box", "brand": "United States Postal Service", "brand:wikidata": "Q668687", "collection_times": "Mo-Fr 16:00; Sa 12:00", "name": "USPS COLLECTION BOX - PO LOBBY", "note": "ON 12/24 AND 12/31, THIS BOX MAY BE COLLECTED AS EARLY AS 12 NOON.", "nsi_id": "unitedstatespostalservice-a77078", "operator": "United States Postal Service", "operator:short": "USPS", "operator:type": "public", "operator:wikidata": "Q668687", "ref": "2670400003"}, "type": "Feature"}
{"dataset_attributes": {"@spider": "usps_collection_boxes", "spider:collection_time": "2023-09-10T08:22:19.197986"}, "geometry": {"coordinates": [-79.554153458, 39.324291959], "type": "Point"}, "id": "fLNVKzNKLKOOnvAC3OYoQ3sIQso=", "properties": {"@spider": "usps_collection_boxes", "addr:city": "AURORA", "addr:country": "US", "addr:full": "24154 GEORGE WASHINGTON HWY", "addr:postcode": "26705", "addr:state": "WV", "amenity": "post_box", "brand": "United States Postal Service", "brand:wikidata": "Q668687", "collection_times": "Mo-Fr 11:45; Sa 11:30", "name": "USPS COLLECTION BOX - BLUE BOX", "nsi_id": "unitedstatespostalservice-a77078", "operator": "United States Postal Service", "operator:short": "USPS", "operator:type": "public", "operator:wikidata": "Q668687", "ref": "2670500000"}, "type": "Feature"}
{"dataset_attributes": {"@spider": "usps_collection_boxes", "spider:collection_time": "2023-09-10T08:22:19.197986"}, "geometry": {"coordinates": [-79.554185, 39.324321], "type": "Point"}, "id": "KA4yX4raLI1h1eUzSpjOz8rjKZU=", "properties": {"@spider": "usps_collection_boxes", "addr:city": "AURORA", "addr:country": "US", "addr:full": "24154 GEORGE WASHINGTON HWY", "addr:postcode": "26705", "addr:state": "WV", "amenity": "post_box", "brand": "United States Postal Service", "brand:wikidata": "Q668687", "collection_times": "Mo-Fr 11:45; Sa 11:30", "name": "USPS COLLECTION BOX - PO LOBBY", "nsi_id": "unitedstatespostalservice-a77078", "operator": "United States Postal Service", "operator:short": "USPS", "operator:type": "public", "operator:wikidata": "Q668687", "ref": "2670500001"}, "type": "Feature"}
{"dataset_attributes": {"@spider": "usps_collection_boxes", "spider:collection_time": "2023-09-10T08:22:19.197986"}, "geometry": {"coordinates": [-79.5541534582, 39.3242919586], "type": "Point"}, "id": "uu3Z-a7UIZWQ1_1TB3geo20BgXg=", "properties": {"@spider": "usps_collection_boxes", "addr:city": "AURORA", "addr:country": "US", "addr:full": "24154 GEORGE WASHINGTON HWY", "addr:postcode": "26705", "addr:state": "WV", "amenity": "post_box", "brand": "United States Postal Service", "brand:wikidata": "Q668687", "collection_times": "Mo-Fr 12:00; Sa 11:30", "name": "USPS COLLECTION BOX - PO LOBBY", "nsi_id": "unitedstatespostalservice-a77078", "operator": "United States Postal Service", "operator:short": "USPS", "operator:type": "public", "operator:wikidata": "Q668687", "ref": "2670500003"}, "type": "Feature"}
{"dataset_attributes": {"@spider": "usps_collection_boxes", "spider:collection_time": "2023-09-10T08:22:19.197986"}, "geometry": {"coordinates": [-79.3664179714, 39.2731874315], "type": "Point"}, "id": "2c25D_6swYpXc897r6ShAjvQON4=", "properties": {"@spider": "usps_collection_boxes", "addr:city": "BAYARD", "addr:country": "US", "addr:full": "2257 FRONT ST", "addr:postcode": "26707", "addr:state": "WV", "amenity": "post_box", "brand": "United States Postal Service", "brand:wikidata": "Q668687", "collection_times": "Mo-Fr 16:00; Sa 10:30", "name": "USPS COLLECTION BOX - BLUE BOX", "note": "ON 12/24 AND 12/31, THIS BOX MAY BE COLLECTED AS EARLY AS 12 NOON.", "nsi_id": "unitedstatespostalservice-a77078", "operator": "United States Postal Service", "operator:short": "USPS", "operator:type": "public", "operator:wikidata": "Q668687", "ref": "2670700000"}, "type": "Feature"}
{"dataset_attributes": {"@spider": "usps_collection_boxes", "spider:collection_time": "2023-09-10T08:22:19.197986"}, "geometry": {"coordinates": [-79.372787, 39.27339], "type": "Point"}, "id": "zKr0Qj_VuEJtuXmAfcsOnhltitk=", "properties": {"@spider": "usps_collection_boxes", "addr:city": "BAYARD", "addr:country": "US", "addr:full": "2257 FRONT ST", "addr:postcode": "26707", "addr:state": "WV", "amenity": "post_box", "brand": "United States Postal Service", "brand:wikidata": "Q668687", "collection_times": "Mo-Fr 16:00; Sa 10:30", "name": "USPS COLLECTION BOX - PO LOBBY", "note": "ON 12/24 AND 12/31, THIS BOX MAY BE COLLECTED AS EARLY AS 12 NOON.", "nsi_id": "unitedstatespostalservice-a77078", "operator": "United States Postal Service", "operator:short": "USPS", "operator:type": "public", "operator:wikidata": "Q668687", "ref": "2670700001"}, "type": "Feature"}
{"dataset_attributes": {"@spider": "usps_collection_boxes", "spider:collection_time": "2023-09-10T08:22:19.197986"}, "geometry": {"coordinates": [-79.366414877, 39.2731677], "type": "Point"}, "id": "1q52_f53QDnXXGUGf-ACi9VRzYI=", "properties": {"@spider": "usps_collection_boxes", "addr:city": "BAYARD", "addr:country": "US", "addr:full": "2257 FRONT ST", "addr:postcode": "26707", "addr:state": "WV", "amenity": "post_box", "brand": "United States Postal Service", "brand:wikidata": "Q668687", "collection_times": "Mo-Fr 16:00; Sa 14:30", "name": "USPS COLLECTION BOX - PO LOBBY", "note": "ON 12/24 AND 12/31, THIS BOX MAY BE COLLECTED AS EARLY AS 12 NOON.", "nsi_id": "unitedstatespostalservice-a77078", "operator": "United States Postal Service", "operator:short": "USPS", "operator:type": "public", "operator:wikidata": "Q668687", "ref": "2670700003"}, "type": "Feature"}
{"dataset_attributes": {"@spider": "usps_collection_boxes", "spider:collection_time": "2023-09-10T08:22:19.197986"}, "geometry": {"coordinates": [-78.917821011, 39.337042486], "type": "Point"}, "id": "hGWxHFFxpuNof-NmLA-izsKhIng=", "properties": {"@spider": "usps_collection_boxes", "addr:city": "BURLINGTON", "addr:country": "US", "addr:full": "10393 PATTERSON CREEK RD", "addr:postcode": "26710", "addr:state": "WV", "amenity": "post_box", "brand": "United States Postal Service", "brand:wikidata": "Q668687", "collection_times": "Mo-Fr 15:15; Sa 11:15", "name": "USPS COLLECTION BOX - BLUE BOX", "note": "ON 12/24 AND 12/31, THIS BOX MAY BE COLLECTED AS EARLY AS 12 NOON.", "nsi_id": "unitedstatespostalservice-a77078", "operator": "United States Postal Service", "operator:short": "USPS", "operator:type": "public", "operator:wikidata": "Q668687", "ref": "2671000000"}, "type": "Feature"}
{"dataset_attributes": {"@spider": "usps_collection_boxes", "spider:collection_time": "2023-09-10T08:22:19.197986"}, "geometry": {"coordinates": [-78.917821011, 39.337042486], "type": "Point"}, "id": "9rQwpQS8z6IJhWrF8aYl85pyNN0=", "properties": {"@spider": "usps_collection_boxes", "addr:city": "BURLINGTON", "addr:country": "US", "addr:full": "10393 PATTERSON CREEK RD", "addr:postcode": "26710", "addr:state": "WV", "amenity": "post_box", "brand": "United States Postal Service", "brand:wikidata": "Q668687", "collection_times": "Mo-Fr 15:15; Sa 11:15", "name": "USPS COLLECTION BOX - PO LOBBY", "note": "ON 12/24 AND 12/31, THIS BOX MAY BE COLLECTED AS EARLY AS 12 NOON.", "nsi_id": "unitedstatespostalservice-a77078", "operator": "United States Postal Service", "operator:short": "USPS", "operator:type": "public", "operator:wikidata": "Q668687", "ref": "2671000001"}, "type": "Feature"}
{"dataset_attributes": {"@spider": "usps_collection_boxes", "spider:collection_time": "2023-09-10T08:22:19.197986"}, "geometry": {"coordinates": [-78.917821011, 39.337042486], "type": "Point"}, "id": "6OBo334dJS6w0XXhttHaYyfCe0o=", "properties": {"@spider": "usps_collection_boxes", "addr:city": "BURLINGTON", "addr:country": "US", "addr:full": "10393 PATTERSON CREEK RD", "addr:postcode": "26710", "addr:state": "WV", "amenity": "post_box", "brand": "United States Postal Service", "brand:wikidata": "Q668687", "collection_times": "Mo-Fr 16:15; Sa 12:00", "name": "USPS COLLECTION BOX - PO LOBBY", "note": "ON 12/24 AND 12/31, THIS BOX MAY BE COLLECTED AS EARLY AS 12 NOON.", "nsi_id": "unitedstatespostalservice-a77078", "operator": "United States Postal Service", "operator:short": "USPS", "operator:type": "public", "operator:wikidata": "Q668687", "ref": "2671000003"}, "type": "Feature"}
{"dataset_attributes": {"@spider": "usps_collection_boxes", "spider:collection_time": "2023-09-10T08:22:19.197986"}, "geometry": {"coordinates": [-78.436190648, 39.298572799], "type": "Point"}, "id": "8hB9T5A8rCpNmk4CvlG2BmzkFrk=", "properties": {"@spider": "usps_collection_boxes", "addr:city": "CAPON BRIDGE", "addr:country": "US", "addr:full": "3164 NORTHWESTERN PIKE", "addr:postcode": "26711", "addr:state": "WV", "amenity": "post_box", "brand": "United States Postal Service", "brand:wikidata": "Q668687", "collection_times": "Mo-Fr 15:30; Sa 11:00", "name": "USPS COLLECTION BOX - BLUE BOX", "note": "ON 12/24 AND 12/31, THIS BOX MAY BE COLLECTED AS EARLY AS 12 NOON.", "nsi_id": "unitedstatespostalservice-a77078", "operator": "United States Postal Service", "operator:short": "USPS", "operator:type": "public", "operator:wikidata": "Q668687", "ref": "2671100000"}, "type": "Feature"}
{"dataset_attributes": {"@spider": "usps_collection_boxes", "spider:collection_time": "2023-09-10T08:22:19.197986"}, "geometry": {"coordinates": [-78.436190648, 39.298572799], "type": "Point"}, "id": "dfDQ7hzgBphCH7UwpCdoL6ofC6A=", "properties": {"@spider": "usps_collection_boxes", "addr:city": "CAPON BRIDGE", "addr:country": "US", "addr:full": "3164 NORTHWESTERN PIKE", "addr:postcode": "26711", "addr:state": "WV", "amenity": "post_box", "brand": "United States Postal Service", "brand:wikidata": "Q668687", "collection_times": "Mo-Fr 16:00; Sa 12:00", "name": "USPS COLLECTION BOX - PO LOBBY", "note": "ON 12/24 AND 12/31, THIS BOX MAY BE COLLECTED AS EARLY AS 12 NOON.", "nsi_id": "unitedstatespostalservice-a77078", "operator": "United States Postal Service", "operator:short": "USPS", "operator:type": "public", "operator:wikidata": "Q668687", "ref": "2671100001"}, "type": "Feature"}
{"dataset_attributes": {"@spider": "usps_collection_boxes", "spider:collection_time": "2023-09-10T08:22:19.197986"}, "geometry": {"coordinates": [-78.436190648, 39.298572799], "type": "Point"}, "id": "qXyeNR7bgypSiDGUv6HWeDjnS_A=", "properties": {"@spider": "usps_collection_boxes", "addr:city": "CAPON BRIDGE", "addr:country": "US", "addr:full": "3164 NORTHWESTERN PIKE", "addr:postcode": "26711", "addr:state": "WV", "amenity": "post_box", "brand": "United States Postal Service", "brand:wikidata": "Q668687", "collection_times": "Mo-Fr 16:45; Sa 12:00", "name": "USPS COLLECTION BOX - PO LOBBY", "note": "ON 12/24 AND 12/31, THIS BOX MAY BE COLLECTED AS EARLY AS 12 NOON.", "nsi_id": "unitedstatespostalservice-a77078", "operator": "United States Postal Service", "operator:short": "USPS", "operator:type": "public", "operator:wikidata": "Q668687", "ref": "2671100003"}, "type": "Feature"}
{"dataset_attributes": {"@spider": "usps_collection_boxes", "spider:collection_time": "2023-09-10T08:22:19.197986"}, "geometry": {"coordinates": [-79.519268, 39.301235], "type": "Point"}, "id": "dytM8lP_mphahthf4MPD7X2tsy0=", "properties": {"@spider": "usps_collection_boxes", "addr:city": "EGLON", "addr:country": "US", "addr:full": "56 EGLON RD", "addr:postcode": "26716", "addr:state": "WV", "amenity": "post_box", "brand": "United States Postal Service", "brand:wikidata": "Q668687", "collection_times": "Mo-Fr 13:15; Sa 11:45", "name": "USPS COLLECTION BOX - BLUE BOX", "note": "ON 12/24 AND 12/31, THIS BOX MAY BE COLLECTED AS EARLY AS 12 NOON.", "nsi_id": "unitedstatespostalservice-a77078", "operator": "United States Postal Service", "operator:short": "USPS", "operator:type": "public", "operator:wikidata": "Q668687", "ref": "2671600000"}, "type": "Feature"}
{"dataset_attributes": {"@spider": "usps_collection_boxes", "spider:collection_time": "2023-09-10T08:22:19.197986"}, "geometry": {"coordinates": [-79.519226, 39.301302], "type": "Point"}, "id": "ldUna9m1DLaiDHaX0h8zQgKzjLE=", "properties": {"@spider": "usps_collection_boxes", "addr:city": "EGLON", "addr:country": "US", "addr:full": "56 EGLON RD", "addr:postcode": "26716", "addr:state": "WV", "amenity": "post_box", "brand": "United States Postal Service", "brand:wikidata": "Q668687", "collection_times": "Mo-Fr 13:15; Sa 11:45", "name": "USPS COLLECTION BOX - PO LOBBY", "note": "ON 12/24 AND 12/31, THIS BOX MAY BE COLLECTED AS EARLY AS 12 NOON.", "nsi_id": "unitedstatespostalservice-a77078", "operator": "United States Postal Service", "operator:short": "USPS", "operator:type": "public", "operator:wikidata": "Q668687", "ref": "2671600001"}, "type": "Feature"}
{"dataset_attributes": {"@spider": "usps_collection_boxes", "spider:collection_time": "2023-09-10T08:22:19.197986"}, "geometry": {"coordinates": [-79.519293429, 39.30131501], "type": "Point"}, "id": "PeqST-yiXn74STvkEq-mRc7rl-E=", "properties": {"@spider": "usps_collection_boxes", "addr:city": "EGLON", "addr:country": "US", "addr:full": "56 EGLON RD", "addr:postcode": "26716", "addr:state": "WV", "amenity": "post_box", "brand": "United States Postal Service", "brand:wikidata": "Q668687", "collection_times": "Mo-Fr 13:30; Sa 12:00", "name": "USPS COLLECTION BOX - PO LOBBY", "note": "ON 12/24 AND 12/31, THIS BOX MAY BE COLLECTED AS EARLY AS 12 NOON.", "nsi_id": "unitedstatespostalservice-a77078", "operator": "United States Postal Service", "operator:short": "USPS", "operator:type": "public", "operator:wikidata": "Q668687", "ref": "2671600003"}, "type": "Feature"}
{"dataset_attributes": {"@spider": "usps_collection_boxes", "spider:collection_time": "2023-09-10T08:22:19.197986"}, "geometry": {"coordinates": [-79.154840409, 39.384165701], "type": "Point"}, "id": "KPjRT3IZU83sY8qr-WqApsvod3Q=", "properties": {"@spider": "usps_collection_boxes", "addr:city": "ELK GARDEN", "addr:country": "US", "addr:full": "90 OAK ST", "addr:postcode": "26717", "addr:state": "WV", "amenity": "post_box", "brand": "United States Postal Service", "brand:wikidata": "Q668687", "collection_times": "Mo-Fr 13:00; Sa 11:30", "name": "USPS COLLECTION BOX - BLUE BOX", "note": "ON 12/24 AND 12/31, THIS BOX MAY BE COLLECTED AS EARLY AS 12 NOON.", "nsi_id": "unitedstatespostalservice-a77078", "operator": "United States Postal Service", "operator:short": "USPS", "operator:type": "public", "operator:wikidata": "Q668687", "ref": "2671700000"}, "type": "Feature"}
{"dataset_attributes": {"@spider": "usps_collection_boxes", "spider:collection_time": "2023-09-10T08:22:19.197986"}, "geometry": {"coordinates": [-79.154840409, 39.384165701], "type": "Point"}, "id": "u4f-CZEcGWXzwn1IDFLpC8MpyF8=", "properties": {"@spider": "usps_collection_boxes", "addr:city": "ELK GARDEN", "addr:country": "US", "addr:full": "90 OAK ST", "addr:postcode": "26717", "addr:state": "WV", "amenity": "post_box", "brand": "United States Postal Service", "brand:wikidata": "Q668687", "collection_times": "Mo-Fr 13:00; Sa 11:30", "name": "USPS COLLECTION BOX - PO LOBBY", "note": "ON 12/24 AND 12/31, THIS BOX MAY BE COLLECTED AS EARLY AS 12 NOON.", "nsi_id": "unitedstatespostalservice-a77078", "operator": "United States Postal Service", "operator:short": "USPS", "operator:type": "public", "operator:wikidata": "Q668687", "ref": "2671700001"}, "type": "Feature"}
{"dataset_attributes": {"@spider": "usps_collection_boxes", "spider:collection_time": "2023-09-10T08:22:19.197986"}, "geometry": {"coordinates": [-79.154840409, 39.384165701], "type": "Point"}, "id": "f3ZN3-yytB9kd5OxzCi8_HRNKlY=", "properties": {"@spider": "usps_collection_boxes", "addr:city": "ELK GARDEN", "addr:country": "US", "addr:full": "90 OAK ST", "addr:postcode": "26717", "addr:state": "WV", "amenity": "post_box", "brand": "United States Postal Service", "brand:wikidata": "Q668687", "collection_times": "Mo-Fr 13:00; Sa 11:30", "name": "USPS COLLECTION BOX - PO LOBBY", "note": "ON 12/24 AND 12/31, THIS BOX MAY BE COLLECTED AS EARLY AS 12 NOON.", "nsi_id": "unitedstatespostalservice-a77078", "operator": "United States Postal Service", "operator:short": "USPS", "operator:type": "public", "operator:wikidata": "Q668687", "ref": "2671700003"}, "type": "Feature"}
{"dataset_attributes": {"@spider": "usps_collection_boxes", "spider:collection_time": "2023-09-10T08:22:19.197986"}, "geometry": {"coordinates": [-78.766269004, 39.50057947], "type": "Point"}, "id": "LNjgbYKSpSoCs0K7RgbMA4QijDY=", "properties": {"@spider": "usps_collection_boxes", "addr:city": "FORT ASHBY", "addr:country": "US", "addr:full": "10456 FRANKFORT HWY", "addr:postcode": "26719", "addr:state": "WV", "amenity": "post_box", "brand": "United States Postal Service", "brand:wikidata": "Q668687", "collection_times": "Mo-Fr 16:15; Sa 11:45", "name": "USPS COLLECTION BOX - BLUE BOX", "note": "ON 12/24 AND 12/31, THIS BOX MAY BE COLLECTED AS EARLY AS 12 NOON.", "nsi_id": "unitedstatespostalservice-a77078", "operator": "United States Postal Service", "operator:short": "USPS", "operator:type": "public", "operator:wikidata": "Q668687", "ref": "2671900000"}, "type": "Feature"}
{"dataset_attributes": {"@spider": "usps_collection_boxes", "spider:collection_time": "2023-09-10T08:22:19.197986"}, "geometry": {"coordinates": [-78.766269004, 39.50057947], "type": "Point"}, "id": "bjXEm7pGz_y5U-YI9gpjmp9YwGI=", "properties": {"@spider": "usps_collection_boxes", "addr:city": "FORT ASHBY", "addr:country": "US", "addr:full": "10456 FRANKFORT HWY", "addr:postcode": "26719", "addr:state": "WV", "amenity": "post_box", "brand": "United States Postal Service", "brand:wikidata": "Q668687", "collection_times": "Mo-Fr 16:15; Sa 11:45", "name": "USPS COLLECTION BOX - PO LOBBY", "note": "ON 12/24 AND 12/31, THIS BOX MAY BE COLLECTED AS EARLY AS 12 NOON.", "nsi_id": "unitedstatespostalservice-a77078", "operator": "United States Postal Service", "operator:short": "USPS", "operator:type": "public", "operator:wikidata": "Q668687", "ref": "2671900001"}, "type": "Feature"}
{"dataset_attributes": {"@spider": "usps_collection_boxes", "spider:collection_time": "2023-09-10T08:22:19.197986"}, "geometry": {"coordinates": [-78.766269004, 39.50057947], "type": "Point"}, "id": "HUu3DD3MWZ0hUhzLGFNlnCuCEks=", "properties": {"@spider": "usps_collection_boxes", "addr:city": "FORT ASHBY", "addr:country": "US", "addr:full": "10456 FRANKFORT HWY", "addr:postcode": "26719", "addr:state": "WV", "amenity": "post_box", "brand": "United States Postal Service", "brand:wikidata": "Q668687", "collection_times": "Mo-Fr 16:30; Sa 12:00", "name": "USPS COLLECTION BOX - PO LOBBY", "note": "ON 12/24 AND 12/31, THIS BOX MAY BE COLLECTED AS EARLY AS 12 NOON.", "nsi_id": "unitedstatespostalservice-a77078", "operator": "United States Postal Service", "operator:short": "USPS", "operator:type": "public", "operator:wikidata": "Q668687", "ref": "2671900003"}, "type": "Feature"}
{"dataset_attributes": {"@spider": "usps_collection_boxes", "spider:collection_time": "2023-09-10T08:22:19.197986"}, "geometry": {"coordinates": [-79.345562, 39.292551], "type": "Point"}, "id": "KploM2AzJoFHtK9bw_aFObjGY18=", "properties": {"@spider": "usps_collection_boxes", "addr:city": "GORMANIA", "addr:country": "US", "addr:full": "40 TRAIN LN", "addr:postcode": "26720", "addr:state": "WV", "amenity": "post_box", "brand": "United States Postal Service", "brand:wikidata": "Q668687", "collection_times": "Mo-Fr 11:00; Sa 10:15", "name": "USPS COLLECTION BOX - BLUE BOX", "nsi_id": "unitedstatespostalservice-a77078", "operator": "United States Postal Service", "operator:short": "USPS", "operator:type": "public", "operator:wikidata": "Q668687", "ref": "2672000000"}, "type": "Feature"}
{"dataset_attributes": {"@spider": "usps_collection_boxes", "spider:collection_time": "2023-09-10T08:22:19.197986"}, "geometry": {"coordinates": [-79.345562, 39.292551], "type": "Point"}, "id": "BOOis25SpsoFaTjGdHrPSs9VG4I=", "properties": {"@spider": "usps_collection_boxes", "addr:city": "GORMANIA", "addr:country": "US", "addr:full": "40 TRAIN LN", "addr:postcode": "26720", "addr:state": "WV", "amenity": "post_box", "brand": "United States Postal Service", "brand:wikidata": "Q668687", "collection_times": "Mo-Fr 11:00; Sa 10:15", "name": "USPS COLLECTION BOX - PO LOBBY", "nsi_id": "unitedstatespostalservice-a77078", "operator": "United States Postal Service", "operator:short": "USPS", "operator:type": "public", "operator:wikidata": "Q668687", "ref": "2672000001"}, "type": "Feature"}
{"dataset_attributes": {"@spider": "usps_collection_boxes", "spider:collection_time": "2023-09-10T08:22:19.197986"}, "geometry": {"coordinates": [-79.345235631, 39.29276378], "type": "Point"}, "id": "yY889KwWxTGtC5G_CvpaYYs0iC0=", "properties": {"@spider": "usps_collection_boxes", "addr:city": "GORMANIA", "addr:country": "US", "addr:full": "40 TRAIN LN", "addr:postcode": "26720", "addr:state": "WV", "amenity": "post_box", "brand": "United States Postal Service", "brand:wikidata": "Q668687", "collection_times": "Mo-Fr 11:30; Sa 12:00", "name": "USPS COLLECTION BOX - PO LOBBY", "nsi_id": "unitedstatespostalservice-a77078", "operator": "United States Postal Service", "operator:short": "USPS", "operator:type": "public", "operator:wikidata": "Q668687", "ref": "2672000002"}, "type": "Feature"}
{"dataset_attributes": {"@spider": "usps_collection_boxes", "spider:collection_time": "2023-09-10T08:22:19.197986"}, "geometry": {"coordinates": [-78.61906, 39.530005], "type": "Point"}, "id": "Fhx-MHHAjfW08TJ44uztXqFr7YM=", "properties": {"@spider": "usps_collection_boxes", "addr:city": "GREEN SPRING", "addr:country": "US", "addr:full": "167 BELL ST", "addr:postcode": "26722", "addr:state": "WV", "amenity": "post_box", "brand": "United States Postal Service", "brand:wikidata": "Q668687", "collection_times": "Mo-Fr 11:45; Sa 11:00", "name": "USPS COLLECTION BOX - BLUE BOX", "nsi_id": "unitedstatespostalservice-a77078", "operator": "United States Postal Service", "operator:short": "USPS", "operator:type": "public", "operator:wikidata": "Q668687", "ref": "2672200000"}, "type": "Feature"}
{"dataset_attributes": {"@spider": "usps_collection_boxes", "spider:collection_time": "2023-09-10T08:22:19.197986"}, "geometry": {"coordinates": [-78.619059, 39.530005], "type": "Point"}, "id": "O6nnYmZWUPRuovoimVaJ4K8oJdo=", "properties": {"@spider": "usps_collection_boxes", "addr:city": "GREEN SPRING", "addr:country": "US", "addr:full": "167 BELL ST", "addr:postcode": "26722", "addr:state": "WV", "amenity": "post_box", "brand": "United States Postal Service", "brand:wikidata": "Q668687", "collection_times": "Mo-Fr 11:45; Sa 11:00", "name": "USPS COLLECTION BOX - PO LOBBY", "nsi_id": "unitedstatespostalservice-a77078", "operator": "United States Postal Service", "operator:short": "USPS", "operator:type": "public", "operator:wikidata": "Q668687", "ref": "2672200001"}, "type": "Feature"}
{"dataset_attributes": {"@spider": "usps_collection_boxes", "spider:collection_time": "2023-09-10T08:22:19.197986"}, "geometry": {"coordinates": [-78.619046801, 39.529967831], "type": "Point"}, "id": "PpZs44iOwwEUnlbW4lgPV7NcMGI=", "properties": {"@spider": "usps_collection_boxes", "addr:city": "GREEN SPRING", "addr:country": "US", "addr:full": "167 BELL ST", "addr:postcode": "26722", "addr:state": "WV", "amenity": "post_box", "brand": "United States Postal Service", "brand:wikidata": "Q668687", "collection_times": "Mo-Fr 12:00; Sa 11:15", "name": "USPS COLLECTION BOX - PO LOBBY", "nsi_id": "unitedstatespostalservice-a77078", "operator": "United States Postal Service", "operator:short": "USPS", "operator:type": "public", "operator:wikidata": "Q668687", "ref": "2672200003"}, "type": "Feature"}
{"dataset_attributes": {"@spider": "usps_collection_boxes", "spider:collection_time": "2023-09-10T08:22:19.197986"}, "geometry": {"coordinates": [-78.9880917, 39.435892], "type": "Point"}, "id": "bRcEuEEOWhCQ3LtDP2tuoS0UNrA=", "properties": {"@spider": "usps_collection_boxes", "addr:city": "KEYSER", "addr:country": "US", "addr:full": "440 VIRGINIA ST", "addr:postcode": "26726", "addr:state": "WV", "amenity": "post_box", "brand": "United States Postal Service", "brand:wikidata": "Q668687", "collection_times": "Mo-Sa 12:30", "name": "USPS COLLECTION BOX - BLUE BOX", "note": "ON 12/24 AND 12/31, THIS BOX MAY BE COLLECTED AS EARLY AS 12 NOON.", "nsi_id": "unitedstatespostalservice-a77078", "operator": "United States Postal Service", "operator:short": "USPS", "operator:type": "public", "operator:wikidata": "Q668687", "ref": "2672600010"}, "type": "Feature"}
{"dataset_attributes": {"@spider": "usps_collection_boxes", "spider:collection_time": "2023-09-10T08:22:19.197986"}, "geometry": {"coordinates": [-78.9769342484, 39.4413628113], "type": "Point"}, "id": "k4nGrshbR1LkenEu1ZRhURgJY2I=", "properties": {"@spider": "usps_collection_boxes", "addr:city": "KEYSER", "addr:country": "US", "addr:full": "140 KEYSER MALL", "addr:postcode": "26726", "addr:state": "WV", "amenity": "post_box", "brand": "United States Postal Service", "brand:wikidata": "Q668687", "collection_times": "Mo-Sa 10:00", "name": "USPS COLLECTION BOX - BLUE BOX", "nsi_id": "unitedstatespostalservice-a77078", "operator": "United States Postal Service", "operator:short": "USPS", "operator:type": "public", "operator:wikidata": "Q668687", "ref": "2672600027"}, "type": "Feature"}
{"dataset_attributes": {"@spider": "usps_collection_boxes", "spider:collection_time": "2023-09-10T08:22:19.197986"}, "geometry": {"coordinates": [-78.9817899, 39.438386], "type": "Point"}, "id": "Juh_SZPAxXk7F1XGUXmmvvvTrko=", "properties": {"@spider": "usps_collection_boxes", "addr:city": "KEYSER", "addr:country": "US", "addr:full": "101 FORT AVE", "addr:postcode": "26726", "addr:state": "WV", "amenity": "post_box", "brand": "United States Postal Service", "brand:wikidata": "Q668687", "collection_times": "Mo-Sa 15:00", "name": "USPS COLLECTION BOX - BLUE BOX", "note": "ON 12/24 AND 12/31, THIS BOX MAY BE COLLECTED AS EARLY AS 12 NOON.", "nsi_id": "unitedstatespostalservice-a77078", "operator": "United States Postal Service", "operator:short": "USPS", "operator:type": "public", "operator:wikidata": "Q668687", "ref": "2672600028"}, "type": "Feature"}
{"dataset_attributes": {"@spider": "usps_collection_boxes", "spider:collection_time": "2023-09-10T08:22:19.197986"}, "geometry": {"coordinates": [-78.9729552, 39.439878], "type": "Point"}, "id": "mPydCFul5wqwgDiXa3369RgXdZs=", "properties": {"@spider": "usps_collection_boxes", "addr:city": "KEYSER", "addr:country": "US", "addr:full": "150 ARMSTRONG ST", "addr:postcode": "26726", "addr:state": "WV", "amenity": "post_box", "brand": "United States Postal Service", "brand:wikidata": "Q668687", "collection_times": "Mo-Sa 15:00", "name": "USPS COLLECTION BOX - BLUE BOX", "note": "ON 12/24 AND 12/31, THIS BOX MAY BE COLLECTED AS EARLY AS 12 NOON.", "nsi_id": "unitedstatespostalservice-a77078", "operator": "United States Postal Service", "operator:short": "USPS", "operator:type": "public", "operator:wikidata": "Q668687", "ref": "2672600035"}, "type": "Feature"}
{"dataset_attributes": {"@spider": "usps_collection_boxes", "spider:collection_time": "2023-09-10T08:22:19.197986"}, "geometry": {"coordinates": [-78.976552035, 39.439716727], "type": "Point"}, "id": "8Rf2l2t2ixiWR25zAivKooZsqx4=", "properties": {"@spider": "usps_collection_boxes", "addr:city": "KEYSER", "addr:country": "US", "addr:full": "2 N DAVIS ST", "addr:postcode": "26726", "addr:state": "WV", "amenity": "post_box", "brand": "United States Postal Service", "brand:wikidata": "Q668687", "collection_times": "Mo-Fr 16:30; Sa 15:30", "name": "USPS COLLECTION BOX - BLUE BOX", "note": "ON 12/24 AND 12/31, THIS BOX MAY BE COLLECTED AS EARLY AS 12 NOON.", "nsi_id": "unitedstatespostalservice-a77078", "operator": "United States Postal Service", "operator:short": "USPS", "operator:type": "public", "operator:wikidata": "Q668687", "ref": "2672600038"}, "type": "Feature"}
{"dataset_attributes": {"@spider": "usps_collection_boxes", "spider:collection_time": "2023-09-10T08:22:19.197986"}, "geometry": {"coordinates": [-79.0112416, 39.400814], "type": "Point"}, "id": "FcSr1f59wqvBCHLLZDE496sZGOw=", "properties": {"@spider": "usps_collection_boxes", "addr:city": "KEYSER", "addr:country": "US", "addr:full": "RR 4 BOX 82", "addr:postcode": "26726", "addr:state": "WV", "amenity": "post_box", "brand": "United States Postal Service", "brand:wikidata": "Q668687", "collection_times": "Mo-Sa 10:00", "name": "USPS COLLECTION BOX - BLUE BOX", "nsi_id": "unitedstatespostalservice-a77078", "operator": "United States Postal Service", "operator:short": "USPS", "operator:type": "public", "operator:wikidata": "Q668687", "ref": "2672600039"}, "type": "Feature"}
{"dataset_attributes": {"@spider": "usps_collection_boxes", "spider:collection_time": "2023-09-10T08:22:19.197986"}, "geometry": {"coordinates": [-78.976552035, 39.439716727], "type": "Point"}, "id": "uxhNxMDWtdNO2XamblqwfTQb2MQ=", "properties": {"@spider": "usps_collection_boxes", "addr:city": "KEYSER", "addr:country": "US", "addr:full": "2 N DAVIS ST", "addr:postcode": "26726", "addr:state": "WV", "amenity": "post_box", "brand": "United States Postal Service", "brand:wikidata": "Q668687", "collection_times": "Mo-Fr 16:30; Sa 15:30", "name": "USPS COLLECTION BOX - PO LOBBY", "note": "ON 12/24 AND 12/31, THIS BOX MAY BE COLLECTED AS EARLY AS 12 NOON.", "nsi_id": "unitedstatespostalservice-a77078", "operator": "United States Postal Service", "operator:short": "USPS", "operator:type": "public", "operator:wikidata": "Q668687", "ref": "2672600040"}, "type": "Feature"}
{"dataset_attributes": {"@spider": "usps_collection_boxes", "spider:collection_time": "2023-09-10T08:22:19.197986"}, "geometry": {"coordinates": [-78.976552035, 39.439716727], "type": "Point"}, "id": "CYdwomHZNLjjMjVBvSaGliKFFv8=", "properties": {"@spider": "usps_collection_boxes", "addr:city": "KEYSER", "addr:country": "US", "addr:full": "2 N DAVIS ST", "addr:postcode": "26726", "addr:state": "WV", "amenity": "post_box", "brand": "United States Postal Service", "brand:wikidata": "Q668687", "collection_times": "Mo-Fr 16:30; Sa 15:30", "name": "USPS COLLECTION BOX - BLUE BOX", "note": "ON 12/24 AND 12/31, THIS BOX MAY BE COLLECTED AS EARLY AS 12 NOON.", "nsi_id": "unitedstatespostalservice-a77078", "operator": "United States Postal Service", "operator:short": "USPS", "operator:type": "public", "operator:wikidata": "Q668687", "ref": "2672600042"}, "type": "Feature"}
{"dataset_attributes": {"@spider": "usps_collection_boxes", "spider:collection_time": "2023-09-10T08:22:19.197986"}, "geometry": {"coordinates": [-78.976552035, 39.439716727], "type": "Point"}, "id": "zZYEYtGeOhF-TvFj9Mg-bI8rgUo=", "properties": {"@spider": "usps_collection_boxes", "addr:city": "KEYSER", "addr:country": "US", "addr:full": "2 N DAVIS ST", "addr:postcode": "26726", "addr:state": "WV", "amenity": "post_box", "brand": "United States Postal Service", "brand:wikidata": "Q668687", "collection_times": "Mo-Fr 16:30; Sa 12:00", "name": "USPS COLLECTION BOX - PO LOBBY", "note": "ON 12/24 AND 12/31, THIS BOX MAY BE COLLECTED AS EARLY AS 12 NOON.", "nsi_id": "unitedstatespostalservice-a77078", "operator": "United States Postal Service", "operator:short": "USPS", "operator:type": "public", "operator:wikidata": "Q668687", "ref": "2672600045"}, "type": "Feature"}
{"dataset_attributes": {"@spider": "usps_collection_boxes", "spider:collection_time": "2023-09-10T08:22:19.197986"}, "geometry": {"coordinates": [-79.240036122, 39.277693082], "type": "Point"}, "id": "eay1WvIrvCVP7IcX75j1enP5efo=", "properties": {"@spider": "usps_collection_boxes", "addr:city": "MOUNT STORM", "addr:country": "US", "addr:full": "16615 GEORGE WASHINGTON HWY", "addr:postcode": "26739", "addr:state": "WV", "amenity": "post_box", "brand": "United States Postal Service", "brand:wikidata": "Q668687", "collection_times": "Mo-Fr 16:00; Sa 10:00", "name": "USPS COLLECTION BOX - BLUE BOX", "note": "ON 12/24 AND 12/31, THIS BOX MAY BE COLLECTED AS EARLY AS 12 NOON.", "nsi_id": "unitedstatespostalservice-a77078", "operator": "United States Postal Service", "operator:short": "USPS", "operator:type": "public", "operator:wikidata": "Q668687", "ref": "2673900000"}, "type": "Feature"}
{"dataset_attributes": {"@spider": "usps_collection_boxes", "spider:collection_time": "2023-09-10T08:22:19.197986"}, "geometry": {"coordinates": [-79.240036122, 39.277693082], "type": "Point"}, "id": "jSwtGf-wsrO4lxUaou1K_k2G2YU=", "properties": {"@spider": "usps_collection_boxes", "addr:city": "MOUNT STORM", "addr:country": "US", "addr:full": "16615 GEORGE WASHINGTON HWY", "addr:postcode": "26739", "addr:state": "WV", "amenity": "post_box", "brand": "United States Postal Service", "brand:wikidata": "Q668687", "collection_times": "Mo-Fr 16:00; Sa 10:00", "name": "USPS COLLECTION BOX - PO LOBBY", "note": "ON 12/24 AND 12/31, THIS BOX MAY BE COLLECTED AS EARLY AS 12 NOON.", "nsi_id": "unitedstatespostalservice-a77078", "operator": "United States Postal Service", "operator:short": "USPS", "operator:type": "public", "operator:wikidata": "Q668687", "ref": "2673900001"}, "type": "Feature"}
{"dataset_attributes": {"@spider": "usps_collection_boxes", "spider:collection_time": "2023-09-10T08:22:19.197986"}, "geometry": {"coordinates": [-79.240036122, 39.277693082], "type": "Point"}, "id": "GPYMSVsscHZHaH5MFv2rB_kGIK8=", "properties": {"@spider": "usps_collection_boxes", "addr:city": "MOUNT STORM", "addr:country": "US", "addr:full": "16615 GEORGE WASHINGTON HWY", "addr:postcode": "26739", "addr:state": "WV", "amenity": "post_box", "brand": "United States Postal Service", "brand:wikidata": "Q668687", "collection_times": "Mo-Fr 16:00; Sa 11:00", "name": "USPS COLLECTION BOX - PO LOBBY", "note": "ON 12/24 AND 12/31, THIS BOX MAY BE COLLECTED AS EARLY AS 12 NOON.", "nsi_id": "unitedstatespostalservice-a77078", "operator": "United States Postal Service", "operator:short": "USPS", "operator:type": "public", "operator:wikidata": "Q668687", "ref": "2673900004"}, "type": "Feature"}
{"dataset_attributes": {"@spider": "usps_collection_boxes", "spider:collection_time": "2023-09-10T08:22:19.197986"}, "geometry": {"coordinates": [-79.028533226, 39.374219181], "type": "Point"}, "id": "megKf-cLTjdPYdvvuxQmc1FcuJY=", "properties": {"@spider": "usps_collection_boxes", "addr:city": "NEW CREEK", "addr:country": "US", "addr:full": "15 NEW CREEK SCHOOL RD", "addr:postcode": "26743", "addr:state": "WV", "amenity": "post_box", "brand": "United States Postal Service", "brand:wikidata": "Q668687", "collection_times": "Mo-Fr 16:15; Sa 11:00", "name": "USPS COLLECTION BOX - BLUE BOX", "note": "ON 12/24 AND 12/31, THIS BOX MAY BE COLLECTED AS EARLY AS 12 NOON.", "nsi_id": "unitedstatespostalservice-a77078", "operator": "United States Postal Service", "operator:short": "USPS", "operator:type": "public", "operator:wikidata": "Q668687", "ref": "2674300000"}, "type": "Feature"}
{"dataset_attributes": {"@spider": "usps_collection_boxes", "spider:collection_time": "2023-09-10T08:22:19.197986"}, "geometry": {"coordinates": [-79.028533226, 39.374219181], "type": "Point"}, "id": "4VgmVNm90i1W4SHKyryTsPDyGDw=", "properties": {"@spider": "usps_collection_boxes", "addr:city": "NEW CREEK", "addr:country": "US", "addr:full": "15 NEW CREEK SCHOOL RD", "addr:postcode": "26743", "addr:state": "WV", "amenity": "post_box", "brand": "United States Postal Service", "brand:wikidata": "Q668687", "collection_times": "Mo-Fr 16:00; Sa 11:00", "name": "USPS COLLECTION BOX - PO LOBBY", "note": "ON 12/24 AND 12/31, THIS BOX MAY BE COLLECTED AS EARLY AS 12 NOON.", "nsi_id": "unitedstatespostalservice-a77078", "operator": "United States Postal Service", "operator:short": "USPS", "operator:type": "public", "operator:wikidata": "Q668687", "ref": "2674300001"}, "type": "Feature"}
{"dataset_attributes": {"@spider": "usps_collection_boxes", "spider:collection_time": "2023-09-10T08:22:19.197986"}, "geometry": {"coordinates": [-79.028533226, 39.374219181], "type": "Point"}, "id": "8om5KOkJV7s_l-AYlnPjaq5EmL8=", "properties": {"@spider": "usps_collection_boxes", "addr:city": "NEW CREEK", "addr:country": "US", "addr:full": "15 NEW CREEK SCHOOL RD", "addr:postcode": "26743", "addr:state": "WV", "amenity": "post_box", "brand": "United States Postal Service", "brand:wikidata": "Q668687", "collection_times": "Mo-Fr 16:15; Sa 12:00", "name": "USPS COLLECTION BOX - PO LOBBY", "note": "ON 12/24 AND 12/31, THIS BOX MAY BE COLLECTED AS EARLY AS 12 NOON.", "nsi_id": "unitedstatespostalservice-a77078", "operator": "United States Postal Service", "operator:short": "USPS", "operator:type": "public", "operator:wikidata": "Q668687", "ref": "2674300003"}, "type": "Feature"}
{"dataset_attributes": {"@spider": "usps_collection_boxes", "spider:collection_time": "2023-09-10T08:22:19.197986"}, "geometry": {"coordinates": [-79.046785584, 39.480917481], "type": "Point"}, "id": "nawNlRYta9Y3dhQreNO9mPgh1pU=", "properties": {"@spider": "usps_collection_boxes", "addr:city": "PIEDMONT", "addr:country": "US", "addr:full": "25 ASHFIELD ST", "addr:postcode": "26750", "addr:state": "WV", "amenity": "post_box", "brand": "United States Postal Service", "brand:wikidata": "Q668687", "collection_times": "Mo-Fr 13:45; Sa 11:00", "name": "USPS COLLECTION BOX - BLUE BOX", "note": "ON 12/24 AND 12/31, THIS BOX MAY BE COLLECTED AS EARLY AS 12 NOON.", "nsi_id": "unitedstatespostalservice-a77078", "operator": "United States Postal Service", "operator:short": "USPS", "operator:type": "public", "operator:wikidata": "Q668687", "ref": "2675000000"}, "type": "Feature"}
{"dataset_attributes": {"@spider": "usps_collection_boxes", "spider:collection_time": "2023-09-10T08:22:19.197986"}, "geometry": {"coordinates": [-79.046785584, 39.480917481], "type": "Point"}, "id": "cw6i-On8_riaxaHMRbNwR4_0N9g=", "properties": {"@spider": "usps_collection_boxes", "addr:city": "PIEDMONT", "addr:country": "US", "addr:full": "25 ASHFIELD ST", "addr:postcode": "26750", "addr:state": "WV", "amenity": "post_box", "brand": "United States Postal Service", "brand:wikidata": "Q668687", "collection_times": "Mo-Fr 13:45; Sa 11:00", "name": "USPS COLLECTION BOX - PO LOBBY", "note": "ON 12/24 AND 12/31, THIS BOX MAY BE COLLECTED AS EARLY AS 12 NOON.", "nsi_id": "unitedstatespostalservice-a77078", "operator": "United States Postal Service", "operator:short": "USPS", "operator:type": "public", "operator:wikidata": "Q668687", "ref": "2675000007"}, "type": "Feature"}
{"dataset_attributes": {"@spider": "usps_collection_boxes", "spider:collection_time": "2023-09-10T08:22:19.197986"}, "geometry": {"coordinates": [-79.046785584, 39.480917481], "type": "Point"}, "id": "D6R-UcbaSGgASQGGkTO_dtqzFS4=", "properties": {"@spider": "usps_collection_boxes", "addr:city": "PIEDMONT", "addr:country": "US", "addr:full": "25 ASHFIELD ST", "addr:postcode": "26750", "addr:state": "WV", "amenity": "post_box", "brand": "United States Postal Service", "brand:wikidata": "Q668687", "collection_times": "Mo-Fr 14:00; Sa 11:00", "name": "USPS COLLECTION BOX - PO LOBBY", "note": "ON 12/24 AND 12/31, THIS BOX MAY BE COLLECTED AS EARLY AS 12 NOON.", "nsi_id": "unitedstatespostalservice-a77078", "operator": "United States Postal Service", "operator:short": "USPS", "operator:type": "public", "operator:wikidata": "Q668687", "ref": "2675000009"}, "type": "Feature"}
{"dataset_attributes": {"@spider": "usps_collection_boxes", "spider:collection_time": "2023-09-10T08:22:19.197986"}, "geometry": {"coordinates": [-78.776166252, 39.64174393], "type": "Point"}, "id": "qYylits56LDUCHWJSHFYg3ESKs4=", "properties": {"@spider": "usps_collection_boxes", "addr:city": "RIDGELEY", "addr:country": "US", "addr:full": "400 VETERANS MEMORIAL HWY", "addr:postcode": "26753", "addr:state": "WV", "amenity": "post_box", "brand": "United States Postal Service", "brand:wikidata": "Q668687", "collection_times": "Mo-Fr 16:15; Sa 12:00", "name": "USPS COLLECTION BOX - BLUE BOX", "note": "ON 12/24 AND 12/31, THIS BOX MAY BE COLLECTED AS EARLY AS 12 NOON.", "nsi_id": "unitedstatespostalservice-a77078", "operator": "United States Postal Service", "operator:short": "USPS", "operator:type": "public", "operator:wikidata": "Q668687", "ref": "2675300000"}, "type": "Feature"}
{"dataset_attributes": {"@spider": "usps_collection_boxes", "spider:collection_time": "2023-09-10T08:22:19.197986"}, "geometry": {"coordinates": [-78.8005428, 39.560545], "type": "Point"}, "id": "zgNer-q49LC2lnU8_Yzl2MmIOPk=", "properties": {"@spider": "usps_collection_boxes", "addr:city": "RIDGELEY", "addr:country": "US", "addr:full": "9 HUNT CLUB PLZ", "addr:postcode": "26753", "addr:state": "WV", "amenity": "post_box", "brand": "United States Postal Service", "brand:wikidata": "Q668687", "collection_times": "Mo-Fr 12:30; Sa 12:00", "name": "USPS COLLECTION BOX - BLUE BOX", "note": "ON 12/24 AND 12/31, THIS BOX MAY BE COLLECTED AS EARLY AS 12 NOON.", "nsi_id": "unitedstatespostalservice-a77078", "operator": "United States Postal Service", "operator:short": "USPS", "operator:type": "public", "operator:wikidata": "Q668687", "ref": "2675300001"}, "type": "Feature"}
{"dataset_attributes": {"@spider": "usps_collection_boxes", "spider:collection_time": "2023-09-10T08:22:19.197986"}, "geometry": {"coordinates": [-78.776166252, 39.64174393], "type": "Point"}, "id": "gB4HGGlRXAJY9DnDNLsVWqjj048=", "properties": {"@spider": "usps_collection_boxes", "addr:city": "RIDGELEY", "addr:country": "US", "addr:full": "400 VETERANS MEMORIAL HWY", "addr:postcode": "26753", "addr:state": "WV", "amenity": "post_box", "brand": "United States Postal Service", "brand:wikidata": "Q668687", "collection_times": "Mo-Fr 16:15; Sa 12:00", "name": "USPS COLLECTION BOX - PO LOBBY", "note": "ON 12/24 AND 12/31, THIS BOX MAY BE COLLECTED AS EARLY AS 12 NOON.", "nsi_id": "unitedstatespostalservice-a77078", "operator": "United States Postal Service", "operator:short": "USPS", "operator:type": "public", "operator:wikidata": "Q668687", "ref": "2675300002"}, "type": "Feature"}
{"dataset_attributes": {"@spider": "usps_collection_boxes", "spider:collection_time": "2023-09-10T08:22:19.197986"}, "geometry": {"coordinates": [-78.768192595, 39.643607918], "type": "Point"}, "id": "qIVXtLtyY2d1f-SGVzi1vArmMB0=", "properties": {"@spider": "usps_collection_boxes", "addr:city": "RIDGELEY", "addr:country": "US", "addr:full": "400 VETERANS MEMORIAL HWY", "addr:postcode": "26753", "addr:state": "WV", "amenity": "post_box", "brand": "United States Postal Service", "brand:wikidata": "Q668687", "collection_times": "Mo-Fr 16:30; Sa 12:00", "name": "USPS COLLECTION BOX - PO LOBBY", "note": "ON 12/24 AND 12/31, THIS BOX MAY BE COLLECTED AS EARLY AS 12 NOON.", "nsi_id": "unitedstatespostalservice-a77078", "operator": "United States Postal Service", "operator:short": "USPS", "operator:type": "public", "operator:wikidata": "Q668687", "ref": "2675300004"}, "type": "Feature"}
{"dataset_attributes": {"@spider": "usps_collection_boxes", "spider:collection_time": "2023-09-10T08:22:19.197986"}, "geometry": {"coordinates": [-78.670995, 39.13947], "type": "Point"}, "id": "LDN2xP3T63963qNbvWEdlpRJMnA=", "properties": {"@spider": "usps_collection_boxes", "addr:city": "RIO", "addr:country": "US", "addr:full": "15115 FORD HILL RD", "addr:postcode": "26755", "addr:state": "WV", "amenity": "post_box", "brand": "United States Postal Service", "brand:wikidata": "Q668687", "collection_times": "Mo-Fr 13:45; Sa 11:30", "name": "USPS COLLECTION BOX - BLUE BOX", "note": "ON 12/24 AND 12/31, THIS BOX MAY BE COLLECTED AS EARLY AS 12 NOON.", "nsi_id": "unitedstatespostalservice-a77078", "operator": "United States Postal Service", "operator:short": "USPS", "operator:type": "public", "operator:wikidata": "Q668687", "ref": "2675500000"}, "type": "Feature"}
{"dataset_attributes": {"@spider": "usps_collection_boxes", "spider:collection_time": "2023-09-10T08:22:19.197986"}, "geometry": {"coordinates": [-78.670989757, 39.13950578], "type": "Point"}, "id": "L9iAVj3dCsHZu-9WTixj_9fUU8A=", "properties": {"@spider": "usps_collection_boxes", "addr:city": "RIO", "addr:country": "US", "addr:full": "15115 FORD HILL RD", "addr:postcode": "26755", "addr:state": "WV", "amenity": "post_box", "brand": "United States Postal Service", "brand:wikidata": "Q668687", "collection_times": "Mo-Sa 14:00", "name": "USPS COLLECTION BOX - PO LOBBY", "note": "ON 12/24 AND 12/31, THIS BOX MAY BE COLLECTED AS EARLY AS 12 NOON.", "nsi_id": "unitedstatespostalservice-a77078", "operator": "United States Postal Service", "operator:short": "USPS", "operator:type": "public", "operator:wikidata": "Q668687", "ref": "2675500002"}, "type": "Feature"}
{"dataset_attributes": {"@spider": "usps_collection_boxes", "spider:collection_time": "2023-09-10T08:22:19.197986"}, "geometry": {"coordinates": [-78.7564634, 39.34186], "type": "Point"}, "id": "csqIV2fW5W-Ee0YR19hu2Knfno8=", "properties": {"@spider": "usps_collection_boxes", "addr:city": "ROMNEY", "addr:country": "US", "addr:full": "92 E MAIN ST", "addr:postcode": "26757", "addr:state": "WV", "amenity": "post_box", "brand": "United States Postal Service", "brand:wikidata": "Q668687", "collection_times": "Mo-Sa 10:00", "name": "USPS COLLECTION BOX - BLUE BOX", "nsi_id": "unitedstatespostalservice-a77078", "operator": "United States Postal Service", "operator:short": "USPS", "operator:type": "public", "operator:wikidata": "Q668687", "ref": "2675700000"}, "type": "Feature"}
{"dataset_attributes": {"@spider": "usps_collection_boxes", "spider:collection_time": "2023-09-10T08:22:19.197986"}, "geometry": {"coordinates": [-78.7550249, 39.344606], "type": "Point"}, "id": "aCOcuDzSPu16YjYkgrspmXi5wYk=", "properties": {"@spider": "usps_collection_boxes", "addr:city": "ROMNEY", "addr:country": "US", "addr:full": "278 N HIGH ST", "addr:postcode": "26757", "addr:state": "WV", "amenity": "post_box", "brand": "United States Postal Service", "brand:wikidata": "Q668687", "collection_times": "Mo-Sa 10:30", "name": "USPS COLLECTION BOX - BLUE BOX", "nsi_id": "unitedstatespostalservice-a77078", "operator": "United States Postal Service", "operator:short": "USPS", "operator:type": "public", "operator:wikidata": "Q668687", "ref": "2675700001"}, "type": "Feature"}
{"dataset_attributes": {"@spider": "usps_collection_boxes", "spider:collection_time": "2023-09-10T08:22:19.197986"}, "geometry": {"coordinates": [-78.7535765, 39.345282], "type": "Point"}, "id": "hDCgnMsEotT5BH0-jYZrUL9PXFc=", "properties": {"@spider": "usps_collection_boxes", "addr:city": "ROMNEY", "addr:country": "US", "addr:full": "380 N GRAFTON ST", "addr:postcode": "26757", "addr:state": "WV", "amenity": "post_box", "brand": "United States Postal Service", "brand:wikidata": "Q668687", "collection_times": "Mo-Sa 11:15", "name": "USPS COLLECTION BOX - BLUE BOX", "nsi_id": "unitedstatespostalservice-a77078", "operator": "United States Postal Service", "operator:short": "USPS", "operator:type": "public", "operator:wikidata": "Q668687", "ref": "2675700003"}, "type": "Feature"}
{"dataset_attributes": {"@spider": "usps_collection_boxes", "spider:collection_time": "2023-09-10T08:22:19.197986"}, "geometry": {"coordinates": [-78.7581889, 39.34886], "type": "Point"}, "id": "Pm56wM4V2OUgEKyKCpHY1pp6ryo=", "properties": {"@spider": "usps_collection_boxes", "addr:city": "ROMNEY", "addr:country": "US", "addr:full": "450 DEPOT ST", "addr:postcode": "26757", "addr:state": "WV", "amenity": "post_box", "brand": "United States Postal Service", "brand:wikidata": "Q668687", "collection_times": "Mo-Sa 13:45", "name": "USPS COLLECTION BOX - BLUE BOX", "note": "ON 12/24 AND 12/31, THIS BOX MAY BE COLLECTED AS EARLY AS 12 NOON.", "nsi_id": "unitedstatespostalservice-a77078", "operator": "United States Postal Service", "operator:short": "USPS", "operator:type": "public", "operator:wikidata": "Q668687", "ref": "2675700006"}, "type": "Feature"}
{"dataset_attributes": {"@spider": "usps_collection_boxes", "spider:collection_time": "2023-09-10T08:22:19.197986"}, "geometry": {"coordinates": [-78.757324993, 39.342962477], "type": "Point"}, "id": "wcilMfJkfP3zqksaJhgpuUqCGso=", "properties": {"@spider": "usps_collection_boxes", "addr:city": "ROMNEY", "addr:country": "US", "addr:full": "71 N MARSHAM ST", "addr:postcode": "26757", "addr:state": "WV", "amenity": "post_box", "brand": "United States Postal Service", "brand:wikidata": "Q668687", "collection_times": "Mo-Fr 16:15; Sa 15:00", "name": "USPS COLLECTION BOX - BLUE BOX", "note": "ON 12/24 AND 12/31, THIS BOX MAY BE COLLECTED AS EARLY AS 12 NOON.", "nsi_id": "unitedstatespostalservice-a77078", "operator": "United States Postal Service", "operator:short": "USPS", "operator:type": "public", "operator:wikidata": "Q668687", "ref": "2675700008"}, "type": "Feature"}
{"dataset_attributes": {"@spider": "usps_collection_boxes", "spider:collection_time": "2023-09-10T08:22:19.197986"}, "geometry": {"coordinates": [-78.7042042, 39.33039], "type": "Point"}, "id": "o5tAMtAzDJXSMYyEz6jOmePm3QE=", "properties": {"@spider": "usps_collection_boxes", "addr:city": "ROMNEY", "addr:country": "US", "addr:full": "22268 NORTHWESTERN PIKE", "addr:postcode": "26757", "addr:state": "WV", "amenity": "post_box", "brand": "United States Postal Service", "brand:wikidata": "Q668687", "collection_times": "Mo-Sa 10:00", "name": "USPS COLLECTION BOX - BLUE BOX", "nsi_id": "unitedstatespostalservice-a77078", "operator": "United States Postal Service", "operator:short": "USPS", "operator:type": "public", "operator:wikidata": "Q668687", "ref": "2675700010"}, "type": "Feature"}
{"dataset_attributes": {"@spider": "usps_collection_boxes", "spider:collection_time": "2023-09-10T08:22:19.197986"}, "geometry": {"coordinates": [-78.757324993, 39.342962477], "type": "Point"}, "id": "7S75q2JNUL8_gAKvhhgY0sBUUTE=", "properties": {"@spider": "usps_collection_boxes", "addr:city": "ROMNEY", "addr:country": "US", "addr:full": "71 N MARSHAM ST", "addr:postcode": "26757", "addr:state": "WV", "amenity": "post_box", "brand": "United States Postal Service", "brand:wikidata": "Q668687", "collection_times": "Mo-Fr 16:15; Sa 15:00", "name": "USPS COLLECTION BOX - PO LOBBY", "note": "ON 12/24 AND 12/31, THIS BOX MAY BE COLLECTED AS EARLY AS 12 NOON.", "nsi_id": "unitedstatespostalservice-a77078", "operator": "United States Postal Service", "operator:short": "USPS", "operator:type": "public", "operator:wikidata": "Q668687", "ref": "2675700012"}, "type": "Feature"}
{"dataset_attributes": {"@spider": "usps_collection_boxes", "spider:collection_time": "2023-09-10T08:22:19.197986"}, "geometry": {"coordinates": [-78.757324993, 39.342962477], "type": "Point"}, "id": "LkiL18D33E6TbIA2HGmT-85X4TM=", "properties": {"@spider": "usps_collection_boxes", "addr:city": "ROMNEY", "addr:country": "US", "addr:full": "71 N MARSHAM ST", "addr:postcode": "26757", "addr:state": "WV", "amenity": "post_box", "brand": "United States Postal Service", "brand:wikidata": "Q668687", "collection_times": "Mo-Fr 16:30; Sa 12:00", "name": "USPS COLLECTION BOX - PO LOBBY", "note": "ON 12/24 AND 12/31, THIS BOX MAY BE COLLECTED AS EARLY AS 12 NOON.", "nsi_id": "unitedstatespostalservice-a77078", "operator": "United States Postal Service", "operator:short": "USPS", "operator:type": "public", "operator:wikidata": "Q668687", "ref": "2675700014"}, "type": "Feature"}
{"dataset_attributes": {"@spider": "usps_collection_boxes", "spider:collection_time": "2023-09-10T08:22:19.197986"}, "geometry": {"coordinates": [-78.701068913, 39.2690918366], "type": "Point"}, "id": "cCnlkFfxN99tFXEM6KIC9EpnSsg=", "properties": {"@spider": "usps_collection_boxes", "addr:city": "SHANKS", "addr:country": "US", "addr:full": "20661 NORTHWESTERN PIKE", "addr:postcode": "26761", "addr:state": "WV", "amenity": "post_box", "brand": "United States Postal Service", "brand:wikidata": "Q668687", "collection_times": "Mo-Fr 13:45; Sa 12:45", "name": "USPS COLLECTION BOX - BLUE BOX", "note": "ON 12/24 AND 12/31, THIS BOX MAY BE COLLECTED AS EARLY AS 12 NOON.", "nsi_id": "unitedstatespostalservice-a77078", "operator": "United States Postal Service", "operator:short": "USPS", "operator:type": "public", "operator:wikidata": "Q668687", "ref": "2676100000"}, "type": "Feature"}
{"dataset_attributes": {"@spider": "usps_collection_boxes", "spider:collection_time": "2023-09-10T08:22:19.197986"}, "geometry": {"coordinates": [-78.686883357, 39.313991219], "type": "Point"}, "id": "wyJ7njnGmmU-YG-KU5I-HnP84-s=", "properties": {"@spider": "usps_collection_boxes", "addr:city": "SHANKS", "addr:country": "US", "addr:full": "20661 NORTHWESTERN PIKE", "addr:postcode": "26761", "addr:state": "WV", "amenity": "post_box", "brand": "United States Postal Service", "brand:wikidata": "Q668687", "collection_times": "Mo-Fr 14:00; Sa 13:00", "name": "USPS COLLECTION BOX - PO LOBBY", "note": "ON 12/24 AND 12/31, THIS BOX MAY BE COLLECTED AS EARLY AS 12 NOON.", "nsi_id": "unitedstatespostalservice-a77078", "operator": "United States Postal Service", "operator:short": "USPS", "operator:type": "public", "operator:wikidata": "Q668687", "ref": "2676100002"}, "type": "Feature"}
{"dataset_attributes": {"@spider": "usps_collection_boxes", "spider:collection_time": "2023-09-10T08:22:19.197986"}, "geometry": {"coordinates": [-78.696524, 39.452373], "type": "Point"}, "id": "WdLlVd4bMQjGRgoaTISmYBYcyt4=", "properties": {"@spider": "usps_collection_boxes", "addr:city": "SPRINGFIELD", "addr:country": "US", "addr:full": "8485 CUMBERLAND RD", "addr:postcode": "26763", "addr:state": "WV", "amenity": "post_box", "brand": "United States Postal Service", "brand:wikidata": "Q668687", "collection_times": "Mo-Fr 16:00; Sa 11:30", "name": "USPS COLLECTION BOX - BLUE BOX", "note": "ON 12/24 AND 12/31, THIS BOX MAY BE COLLECTED AS EARLY AS 12 NOON.", "nsi_id": "unitedstatespostalservice-a77078", "operator": "United States Postal Service", "operator:short": "USPS", "operator:type": "public", "operator:wikidata": "Q668687", "ref": "2676300000"}, "type": "Feature"}
{"dataset_attributes": {"@spider": "usps_collection_boxes", "spider:collection_time": "2023-09-10T08:22:19.197986"}, "geometry": {"coordinates": [-78.6965, 39.452416], "type": "Point"}, "id": "bw2_WpN5vLfYbODLLBa36NPZeO0=", "properties": {"@spider": "usps_collection_boxes", "addr:city": "SPRINGFIELD", "addr:country": "US", "addr:full": "8485 CUMBERLAND RD", "addr:postcode": "26763", "addr:state": "WV", "amenity": "post_box", "brand": "United States Postal Service", "brand:wikidata": "Q668687", "collection_times": "Mo-Fr 16:00; Sa 11:30", "name": "USPS COLLECTION BOX - PO LOBBY", "note": "ON 12/24 AND 12/31, THIS BOX MAY BE COLLECTED AS EARLY AS 12 NOON.", "nsi_id": "unitedstatespostalservice-a77078", "operator": "United States Postal Service", "operator:short": "USPS", "operator:type": "public", "operator:wikidata": "Q668687", "ref": "2676300001"}, "type": "Feature"}
{"dataset_attributes": {"@spider": "usps_collection_boxes", "spider:collection_time": "2023-09-10T08:22:19.197986"}, "geometry": {"coordinates": [-78.696547992, 39.452368319], "type": "Point"}, "id": "nalq9vnis6siyPdPHDUs_GNFRrE=", "properties": {"@spider": "usps_collection_boxes", "addr:city": "SPRINGFIELD", "addr:country": "US", "addr:full": "8485 CUMBERLAND RD", "addr:postcode": "26763", "addr:state": "WV", "amenity": "post_box", "brand": "United States Postal Service", "brand:wikidata": "Q668687", "collection_times": "Mo-Fr 16:00; Sa 11:30", "name": "USPS COLLECTION BOX - PO LOBBY", "note": "ON 12/24 AND 12/31, THIS BOX MAY BE COLLECTED AS EARLY AS 12 NOON.", "nsi_id": "unitedstatespostalservice-a77078", "operator": "United States Postal Service", "operator:short": "USPS", "operator:type": "public", "operator:wikidata": "Q668687", "ref": "2676300003"}, "type": "Feature"}
{"dataset_attributes": {"@spider": "usps_collection_boxes", "spider:collection_time": "2023-09-10T08:22:19.197986"}, "geometry": {"coordinates": [-79.534161968, 39.442260176], "type": "Point"}, "id": "KnvwDxZsxIk_rJ0el25jWwaBv-0=", "properties": {"@spider": "usps_collection_boxes", "addr:city": "TERRA ALTA", "addr:country": "US", "addr:full": "103 N 4TH ST", "addr:postcode": "26764", "addr:state": "WV", "amenity": "post_box", "brand": "United States Postal Service", "brand:wikidata": "Q668687", "collection_times": "Mo-Fr 15:15; Sa 11:00", "name": "USPS COLLECTION BOX - BLUE BOX", "note": "ON 12/24 AND 12/31, THIS BOX MAY BE COLLECTED AS EARLY AS 12 NOON.", "nsi_id": "unitedstatespostalservice-a77078", "operator": "United States Postal Service", "operator:short": "USPS", "operator:type": "public", "operator:wikidata": "Q668687", "ref": "2676400001"}, "type": "Feature"}
{"dataset_attributes": {"@spider": "usps_collection_boxes", "spider:collection_time": "2023-09-10T08:22:19.197986"}, "geometry": {"coordinates": [-79.5402549, 39.443844], "type": "Point"}, "id": "bKJkNj5MwJYVVdC8DYKKFtm0b_s=", "properties": {"@spider": "usps_collection_boxes", "addr:city": "TERRA ALTA", "addr:country": "US", "addr:full": "701 E STATE AVE", "addr:postcode": "26764", "addr:state": "WV", "amenity": "post_box", "brand": "United States Postal Service", "brand:wikidata": "Q668687", "collection_times": "Mo-Sa 12:30", "name": "USPS COLLECTION BOX - BLUE BOX", "note": "ON 12/24 AND 12/31, THIS BOX MAY BE COLLECTED AS EARLY AS 12 NOON.", "nsi_id": "unitedstatespostalservice-a77078", "operator": "United States Postal Service", "operator:short": "USPS", "operator:type": "public", "operator:wikidata": "Q668687", "ref": "2676400004"}, "type": "Feature"}
{"dataset_attributes": {"@spider": "usps_collection_boxes", "spider:collection_time": "2023-09-10T08:22:19.197986"}, "geometry": {"coordinates": [-79.534161968, 39.442260176], "type": "Point"}, "id": "XgLIJ0nUBp_sZY03ASOjg8QqA08=", "properties": {"@spider": "usps_collection_boxes", "addr:city": "TERRA ALTA", "addr:country": "US", "addr:full": "103 N 4TH ST", "addr:postcode": "26764", "addr:state": "WV", "amenity": "post_box", "brand": "United States Postal Service", "brand:wikidata": "Q668687", "collection_times": "Mo-Fr 16:00; Sa 11:00", "name": "USPS COLLECTION BOX - PO LOBBY", "note": "ON 12/24 AND 12/31, THIS BOX MAY BE COLLECTED AS EARLY AS 12 NOON.", "nsi_id": "unitedstatespostalservice-a77078", "operator": "United States Postal Service", "operator:short": "USPS", "operator:type": "public", "operator:wikidata": "Q668687", "ref": "2676400006"}, "type": "Feature"}
{"dataset_attributes": {"@spider": "usps_collection_boxes", "spider:collection_time": "2023-09-10T08:22:19.197986"}, "geometry": {"coordinates": [-79.534161968, 39.442260176], "type": "Point"}, "id": "eMd2oLk_Bm5phuQaP36Y3iX2cVU=", "properties": {"@spider": "usps_collection_boxes", "addr:city": "TERRA ALTA", "addr:country": "US", "addr:full": "103 N 4TH ST", "addr:postcode": "26764", "addr:state": "WV", "amenity": "post_box", "brand": "United States Postal Service", "brand:wikidata": "Q668687", "collection_times": "Mo-Fr 16:00; Sa 11:00", "name": "USPS COLLECTION BOX - PO LOBBY", "note": "ON 12/24 AND 12/31, THIS BOX MAY BE COLLECTED AS EARLY AS 12 NOON.", "nsi_id": "unitedstatespostalservice-a77078", "operator": "United States Postal Service", "operator:short": "USPS", "operator:type": "public", "operator:wikidata": "Q668687", "ref": "2676400009"}, "type": "Feature"}
{"dataset_attributes": {"@spider": "usps_collection_boxes", "spider:collection_time": "2023-09-10T08:22:19.197986"}, "geometry": {"coordinates": [-78.775184, 39.61772], "type": "Point"}, "id": "XAxkh3YmyEVm5hu28qifLkvbhic=", "properties": {"@spider": "usps_collection_boxes", "addr:city": "WILEY FORD", "addr:country": "US", "addr:full": "50 SPRINGFIELD ST", "addr:postcode": "26767", "addr:state": "WV", "amenity": "post_box", "brand": "United States Postal Service", "brand:wikidata": "Q668687", "collection_times": "Mo-Fr 13:45; Sa 11:30", "name": "USPS COLLECTION BOX - BLUE BOX", "note": "ON 12/24 AND 12/31, THIS BOX MAY BE COLLECTED AS EARLY AS 12 NOON.", "nsi_id": "unitedstatespostalservice-a77078", "operator": "United States Postal Service", "operator:short": "USPS", "operator:type": "public", "operator:wikidata": "Q668687", "ref": "2676700000"}, "type": "Feature"}
{"dataset_attributes": {"@spider": "usps_collection_boxes", "spider:collection_time": "2023-09-10T08:22:19.197986"}, "geometry": {"coordinates": [-78.775184, 39.61772], "type": "Point"}, "id": "P9KOlJdbgIfbSe_coUbONB85K2o=", "properties": {"@spider": "usps_collection_boxes", "addr:city": "WILEY FORD", "addr:country": "US", "addr:full": "50 SPRINGFIELD ST", "addr:postcode": "26767", "addr:state": "WV", "amenity": "post_box", "brand": "United States Postal Service", "brand:wikidata": "Q668687", "collection_times": "Mo-Fr 13:45; Sa 11:30", "name": "USPS COLLECTION BOX - PO LOBBY", "note": "ON 12/24 AND 12/31, THIS BOX MAY BE COLLECTED AS EARLY AS 12 NOON.", "nsi_id": "unitedstatespostalservice-a77078", "operator": "United States Postal Service", "operator:short": "USPS", "operator:type": "public", "operator:wikidata": "Q668687", "ref": "2676700001"}, "type": "Feature"}
{"dataset_attributes": {"@spider": "usps_collection_boxes", "spider:collection_time": "2023-09-10T08:22:19.197986"}, "geometry": {"coordinates": [-78.775020992, 39.61775505], "type": "Point"}, "id": "f87iHGiBj8SZvS-_111VFZx9REY=", "properties": {"@spider": "usps_collection_boxes", "addr:city": "WILEY FORD", "addr:country": "US", "addr:full": "50 SPRINGFIELD ST", "addr:postcode": "26767", "addr:state": "WV", "amenity": "post_box", "brand": "United States Postal Service", "brand:wikidata": "Q668687", "collection_times": "Mo-Fr 15:00; Sa 12:00", "name": "USPS COLLECTION BOX - PO LOBBY", "note": "ON 12/24 AND 12/31, THIS BOX MAY BE COLLECTED AS EARLY AS 12 NOON.", "nsi_id": "unitedstatespostalservice-a77078", "operator": "United States Postal Service", "operator:short": "USPS", "operator:type": "public", "operator:wikidata": "Q668687", "ref": "2676700003"}, "type": "Feature"}
