{"geometry": {"coordinates": [-78.7470138, 39.041043], "type": "Point"}, "id": "zcwSFxUvOWr3gZscy3WgO4b8bfQ=", "properties": {"@source_uri": "https://tools.usps.com/UspsToolsRestServices/rest/POLocator/findLocations", "@spider": "usps_collection_boxes", "addr:city": "BAKER", "addr:country": "US", "addr:full": "25 STATE ROAD 259", "addr:postcode": "26801", "addr:state": "WV", "amenity": "post_box", "brand": "United States Postal Service", "brand:wikidata": "Q668687", "collection_times": "Mo-Fr 15:00; Sa 10:45", "name": "USPS COLLECTION BOX - BLUE BOX", "note": "ON 12/24 AND 12/31, THIS BOX MAY BE COLLECTED AS EARLY AS 12 NOON.", "nsi_id": "unitedstatespostalservice-a77078", "operator": "United States Postal Service", "operator:short": "USPS", "operator:type": "public", "operator:wikidata": "Q668687", "ref": "2680100000"}, "type": "Feature"}
{"geometry": {"coordinates": [-78.7469691, 39.041027], "type": "Point"}, "id": "-SGdFdNBB7PlC9BNmEdJBRATgoU=", "properties": {"@source_uri": "https://tools.usps.com/UspsToolsRestServices/rest/POLocator/findLocations", "@spider": "usps_collection_boxes", "addr:city": "BAKER", "addr:country": "US", "addr:full": "25 STATE ROAD 259", "addr:postcode": "26801", "addr:state": "WV", "amenity": "post_box", "brand": "United States Postal Service", "brand:wikidata": "Q668687", "collection_times": "Mo-Fr 15:00; Sa 10:45", "name": "USPS COLLECTION BOX - PO LOBBY", "note": "ON 12/24 AND 12/31, THIS BOX MAY BE COLLECTED AS EARLY AS 12 NOON.", "nsi_id": "unitedstatespostalservice-a77078", "operator": "United States Postal Service", "operator:short": "USPS", "operator:type": "public", "operator:wikidata": "Q668687", "ref": "2680100001"}, "type": "Feature"}
{"geometry": {"coordinates": [-78.747533024, 39.041127975], "type": "Point"}, "id": "ALvUjL3MGOvWo9I6LlRWLC7lcwA=", "properties": {"@source_uri": "https://tools.usps.com/UspsToolsRestServices/rest/POLocator/findLocations", "@spider": "usps_collection_boxes", "addr:city": "BAKER", "addr:country": "US", "addr:full": "25 STATE ROAD 259", "addr:postcode": "26801", "addr:state": "WV", "amenity": "post_box", "brand": "United States Postal Service", "brand:wikidata": "Q668687", "collection_times": "Mo-Fr 15:15; Sa 10:45", "name": "USPS COLLECTION BOX - PO LOBBY", "note": "ON 12/24 AND 12/31, THIS BOX MAY BE COLLECTED AS EARLY AS 12 NOON.", "nsi_id": "unitedstatespostalservice-a77078", "operator": "United States Postal Service", "operator:short": "USPS", "operator:type": "public", "operator:wikidata": "Q668687", "ref": "2680100003"}, "type": "Feature"}
{"geometry": {"coordinates": [-79.244047, 38.626005], "type": "Point"}, "id": "6YInO3I3CF3uYD3RxcoUkJoQvro=", "properties": {"@source_uri": "https://tools.usps.com/UspsToolsRestServices/rest/POLocator/findLocations", "@spider": "usps_collection_boxes", "addr:city": "BRANDYWINE", "addr:country": "US", "addr:full": "11615 BLUE GRAY TRL", "addr:postcode": "26802", "addr:state": "WV", "amenity": "post_box", "brand": "United States Postal Service", "brand:wikidata": "Q668687", "collection_times": "Mo-Fr 14:00; Sa 11:00", "name": "USPS COLLECTION BOX - BLUE BOX", "note": "ON 12/24 AND 12/31, THIS BOX MAY BE COLLECTED AS EARLY AS 12 NOON.", "nsi_id": "unitedstatespostalservice-a77078", "operator": "United States Postal Service", "operator:short": "USPS", "operator:type": "public", "operator:wikidata": "Q668687", "ref": "2680200000"}, "type": "Feature"}
{"geometry": {"coordinates": [-79.244047, 38.626005], "type": "Point"}, "id": "ARzMRv6V4RvnOlo3X-KVb9tX3SE=", "properties": {"@source_uri": "https://tools.usps.com/UspsToolsRestServices/rest/POLocator/findLocations", "@spider": "usps_collection_boxes", "addr:city": "BRANDYWINE", "addr:country": "US", "addr:full": "11615 BLUE GRAY TRL", "addr:postcode": "26802", "addr:state": "WV", "amenity": "post_box", "brand": "United States Postal Service", "brand:wikidata": "Q668687", "collection_times": "Mo-Fr 14:30; Sa 11:00", "name": "USPS COLLECTION BOX - PO LOBBY", "note": "ON 12/24 AND 12/31, THIS BOX MAY BE COLLECTED AS EARLY AS 12 NOON.", "nsi_id": "unitedstatespostalservice-a77078", "operator": "United States Postal Service", "operator:short": "USPS", "operator:type": "public", "operator:wikidata": "Q668687", "ref": "2680200001"}, "type": "Feature"}
{"geometry": {"coordinates": [-79.212357656, 38.608663449], "type": "Point"}, "id": "sHkQDaPxicIeJ1_-SVPU1mUxe70=", "properties": {"@source_uri": "https://tools.usps.com/UspsToolsRestServices/rest/POLocator/findLocations", "@spider": "usps_collection_boxes", "addr:city": "BRANDYWINE", "addr:country": "US", "addr:full": "11615 BLUE GRAY TRL", "addr:postcode": "26802", "addr:state": "WV", "amenity": "post_box", "brand": "United States Postal Service", "brand:wikidata": "Q668687", "collection_times": "Mo-Fr 15:30; Sa 11:30", "name": "USPS COLLECTION BOX - PO LOBBY", "note": "ON 12/24 AND 12/31, THIS BOX MAY BE COLLECTED AS EARLY AS 12 NOON.", "nsi_id": "unitedstatespostalservice-a77078", "operator": "United States Postal Service", "operator:short": "USPS", "operator:type": "public", "operator:wikidata": "Q668687", "ref": "2680200003"}, "type": "Feature"}
{"geometry": {"coordinates": [-79.49042, 38.672108], "type": "Point"}, "id": "OsgpOVpfYLtacJ0JS0L06RnrBy4=", "properties": {"@source_uri": "https://tools.usps.com/UspsToolsRestServices/rest/POLocator/findLocations", "@spider": "usps_collection_boxes", "addr:city": "CIRCLEVILLE", "addr:country": "US", "addr:full": "2878 MOUNT FREEDOM DR", "addr:postcode": "26804", "addr:state": "WV", "amenity": "post_box", "brand": "United States Postal Service", "brand:wikidata": "Q668687", "collection_times": "Mo-Fr 12:00; Sa 11:30", "name": "USPS COLLECTION BOX - BLUE BOX", "nsi_id": "unitedstatespostalservice-a77078", "operator": "United States Postal Service", "operator:short": "USPS", "operator:type": "public", "operator:wikidata": "Q668687", "ref": "2680400000"}, "type": "Feature"}
{"geometry": {"coordinates": [-79.49042, 38.672108], "type": "Point"}, "id": "gz3RCOu5ZqxYCHXGeUivg9O91Mc=", "properties": {"@source_uri": "https://tools.usps.com/UspsToolsRestServices/rest/POLocator/findLocations", "@spider": "usps_collection_boxes", "addr:city": "CIRCLEVILLE", "addr:country": "US", "addr:full": "2878 MOUNT FREEDOM DR", "addr:postcode": "26804", "addr:state": "WV", "amenity": "post_box", "brand": "United States Postal Service", "brand:wikidata": "Q668687", "collection_times": "Mo-Fr 12:00; Sa 11:30", "name": "USPS COLLECTION BOX - PO LOBBY", "nsi_id": "unitedstatespostalservice-a77078", "operator": "United States Postal Service", "operator:short": "USPS", "operator:type": "public", "operator:wikidata": "Q668687", "ref": "2680400001"}, "type": "Feature"}
{"geometry": {"coordinates": [-79.5312279, 38.6411175], "type": "Point"}, "id": "tUJXhX0Z54IMa964FO09DVb_Blw=", "properties": {"@source_uri": "https://tools.usps.com/UspsToolsRestServices/rest/POLocator/findLocations", "@spider": "usps_collection_boxes", "addr:city": "CIRCLEVILLE", "addr:country": "US", "addr:full": "2878 MOUNT FREEDOM DR", "addr:postcode": "26804", "addr:state": "WV", "amenity": "post_box", "brand": "United States Postal Service", "brand:wikidata": "Q668687", "collection_times": "Mo-Fr 12:30; Sa 11:45", "name": "USPS COLLECTION BOX - PO LOBBY", "note": "ON 12/24 AND 12/31, THIS BOX MAY BE COLLECTED AS EARLY AS 12 NOON.", "nsi_id": "unitedstatespostalservice-a77078", "operator": "United States Postal Service", "operator:short": "USPS", "operator:type": "public", "operator:wikidata": "Q668687", "ref": "2680400003"}, "type": "Feature"}
{"geometry": {"coordinates": [-79.330915814, 38.643426742], "type": "Point"}, "id": "XlDCrlO_TZt3pIMg6e74wFU8_Hg=", "properties": {"@source_uri": "https://tools.usps.com/UspsToolsRestServices/rest/POLocator/findLocations", "@spider": "usps_collection_boxes", "addr:city": "FRANKLIN", "addr:country": "US", "addr:full": "63 PINE ST", "addr:postcode": "26807", "addr:state": "WV", "amenity": "post_box", "brand": "United States Postal Service", "brand:wikidata": "Q668687", "collection_times": "Mo-Sa 16:00", "name": "USPS COLLECTION BOX - BLUE BOX", "note": "ON 12/24 AND 12/31, THIS BOX MAY BE COLLECTED AS EARLY AS 12 NOON.", "nsi_id": "unitedstatespostalservice-a77078", "operator": "United States Postal Service", "operator:short": "USPS", "operator:type": "public", "operator:wikidata": "Q668687", "ref": "2680700000"}, "type": "Feature"}
{"geometry": {"coordinates": [-79.330915814, 38.643426742], "type": "Point"}, "id": "9hD7yazVFfyMVKTYcpE7zgQNp_U=", "properties": {"@source_uri": "https://tools.usps.com/UspsToolsRestServices/rest/POLocator/findLocations", "@spider": "usps_collection_boxes", "addr:city": "FRANKLIN", "addr:country": "US", "addr:full": "63 PINE ST", "addr:postcode": "26807", "addr:state": "WV", "amenity": "post_box", "brand": "United States Postal Service", "brand:wikidata": "Q668687", "collection_times": "Mo-Sa 16:00", "name": "USPS COLLECTION BOX - PO LOBBY", "note": "ON 12/24 AND 12/31, THIS BOX MAY BE COLLECTED AS EARLY AS 12 NOON.", "nsi_id": "unitedstatespostalservice-a77078", "operator": "United States Postal Service", "operator:short": "USPS", "operator:type": "public", "operator:wikidata": "Q668687", "ref": "2680700001"}, "type": "Feature"}
{"geometry": {"coordinates": [-79.330915814, 38.643426742], "type": "Point"}, "id": "h8iBFJDFTszLsewrCsVDaXCz5Ys=", "properties": {"@source_uri": "https://tools.usps.com/UspsToolsRestServices/rest/POLocator/findLocations", "@spider": "usps_collection_boxes", "addr:city": "FRANKLIN", "addr:country": "US", "addr:full": "63 PINE ST", "addr:postcode": "26807", "addr:state": "WV", "amenity": "post_box", "brand": "United States Postal Service", "brand:wikidata": "Q668687", "collection_times": "Mo-Fr 16:00; Sa 11:30", "name": "USPS COLLECTION BOX - PO LOBBY", "note": "ON 12/24 AND 12/31, THIS BOX MAY BE COLLECTED AS EARLY AS 12 NOON.", "nsi_id": "unitedstatespostalservice-a77078", "operator": "United States Postal Service", "operator:short": "USPS", "operator:type": "public", "operator:wikidata": "Q668687", "ref": "2680700003"}, "type": "Feature"}
{"geometry": {"coordinates": [-78.413521, 39.223516], "type": "Point"}, "id": "68eiOQDtMcegKwiECn6NrV96yWY=", "properties": {"@source_uri": "https://tools.usps.com/UspsToolsRestServices/rest/POLocator/findLocations", "@spider": "usps_collection_boxes", "addr:city": "HIGH VIEW", "addr:country": "US", "addr:full": "2730 CARPERS PIKE", "addr:postcode": "26808", "addr:state": "WV", "amenity": "post_box", "brand": "United States Postal Service", "brand:wikidata": "Q668687", "collection_times": "Mo-Sa 11:45", "name": "USPS COLLECTION BOX - BLUE BOX", "nsi_id": "unitedstatespostalservice-a77078", "operator": "United States Postal Service", "operator:short": "USPS", "operator:type": "public", "operator:wikidata": "Q668687", "ref": "2680800000"}, "type": "Feature"}
{"geometry": {"coordinates": [-78.413521, 39.223516], "type": "Point"}, "id": "C3juyZGuBZ0IZMMKpSvGi9iZCeA=", "properties": {"@source_uri": "https://tools.usps.com/UspsToolsRestServices/rest/POLocator/findLocations", "@spider": "usps_collection_boxes", "addr:city": "HIGH VIEW", "addr:country": "US", "addr:full": "2730 CARPERS PIKE", "addr:postcode": "26808", "addr:state": "WV", "amenity": "post_box", "brand": "United States Postal Service", "brand:wikidata": "Q668687", "collection_times": "Mo-Sa 11:45", "name": "USPS COLLECTION BOX - PO LOBBY", "nsi_id": "unitedstatespostalservice-a77078", "operator": "United States Postal Service", "operator:short": "USPS", "operator:type": "public", "operator:wikidata": "Q668687", "ref": "2680800001"}, "type": "Feature"}
{"geometry": {"coordinates": [-78.413553765, 39.223523826], "type": "Point"}, "id": "Yd-7zJ56Hj4zn9527RnxsukbeM8=", "properties": {"@source_uri": "https://tools.usps.com/UspsToolsRestServices/rest/POLocator/findLocations", "@spider": "usps_collection_boxes", "addr:city": "HIGH VIEW", "addr:country": "US", "addr:full": "2730 CARPERS PIKE", "addr:postcode": "26808", "addr:state": "WV", "amenity": "post_box", "brand": "United States Postal Service", "brand:wikidata": "Q668687", "collection_times": "Mo-Sa 12:00", "name": "USPS COLLECTION BOX - PO LOBBY", "nsi_id": "unitedstatespostalservice-a77078", "operator": "United States Postal Service", "operator:short": "USPS", "operator:type": "public", "operator:wikidata": "Q668687", "ref": "2680800003"}, "type": "Feature"}
{"geometry": {"coordinates": [-78.833824, 38.930338], "type": "Point"}, "id": "HsT95EtX69xc8VlhT9mm0fFdSok=", "properties": {"@source_uri": "https://tools.usps.com/UspsToolsRestServices/rest/POLocator/findLocations", "@spider": "usps_collection_boxes", "addr:city": "LOST CITY", "addr:country": "US", "addr:full": "9330 STATE ROAD 259", "addr:postcode": "26810", "addr:state": "WV", "amenity": "post_box", "brand": "United States Postal Service", "brand:wikidata": "Q668687", "collection_times": "Mo-Fr 11:45; Sa 09:45", "name": "USPS COLLECTION BOX - BLUE BOX", "nsi_id": "unitedstatespostalservice-a77078", "operator": "United States Postal Service", "operator:short": "USPS", "operator:type": "public", "operator:wikidata": "Q668687", "ref": "2681000000"}, "type": "Feature"}
{"geometry": {"coordinates": [-78.833851847, 38.930351752], "type": "Point"}, "id": "e9kYjizI2J1tbTuCvzDQD7JV3V4=", "properties": {"@source_uri": "https://tools.usps.com/UspsToolsRestServices/rest/POLocator/findLocations", "@spider": "usps_collection_boxes", "addr:city": "LOST CITY", "addr:country": "US", "addr:full": "9330 STATE ROAD 259", "addr:postcode": "26810", "addr:state": "WV", "amenity": "post_box", "brand": "United States Postal Service", "brand:wikidata": "Q668687", "collection_times": "Mo-Fr 12:00; Sa 11:00", "name": "USPS COLLECTION BOX - PO LOBBY", "nsi_id": "unitedstatespostalservice-a77078", "operator": "United States Postal Service", "operator:short": "USPS", "operator:type": "public", "operator:wikidata": "Q668687", "ref": "2681000003"}, "type": "Feature"}
{"geometry": {"coordinates": [-78.865913, 38.876618], "type": "Point"}, "id": "y83mWMzeo44R18UDILWVs0tCvP8=", "properties": {"@source_uri": "https://tools.usps.com/UspsToolsRestServices/rest/POLocator/findLocations", "@spider": "usps_collection_boxes", "addr:city": "MATHIAS", "addr:country": "US", "addr:full": "14 MATHIAS ST", "addr:postcode": "26812", "addr:state": "WV", "amenity": "post_box", "brand": "United States Postal Service", "brand:wikidata": "Q668687", "collection_times": "Mo-Fr 15:30; Sa 11:15", "name": "USPS COLLECTION BOX - BLUE BOX", "note": "ON 12/24 AND 12/31, THIS BOX MAY BE COLLECTED AS EARLY AS 12 NOON.", "nsi_id": "unitedstatespostalservice-a77078", "operator": "United States Postal Service", "operator:short": "USPS", "operator:type": "public", "operator:wikidata": "Q668687", "ref": "2681200000"}, "type": "Feature"}
{"geometry": {"coordinates": [-78.865981, 38.876554], "type": "Point"}, "id": "fJJcU-V8iFw5Y8xyALoJsRZW6sU=", "properties": {"@source_uri": "https://tools.usps.com/UspsToolsRestServices/rest/POLocator/findLocations", "@spider": "usps_collection_boxes", "addr:city": "MATHIAS", "addr:country": "US", "addr:full": "14 MATHIAS ST", "addr:postcode": "26812", "addr:state": "WV", "amenity": "post_box", "brand": "United States Postal Service", "brand:wikidata": "Q668687", "collection_times": "Mo-Fr 15:30; Sa 11:15", "name": "USPS COLLECTION BOX - PO LOBBY", "note": "ON 12/24 AND 12/31, THIS BOX MAY BE COLLECTED AS EARLY AS 12 NOON.", "nsi_id": "unitedstatespostalservice-a77078", "operator": "United States Postal Service", "operator:short": "USPS", "operator:type": "public", "operator:wikidata": "Q668687", "ref": "2681200001"}, "type": "Feature"}
{"geometry": {"coordinates": [-78.865907168, 38.876565663], "type": "Point"}, "id": "TXdSp1yQJ3Vk9Pp3toVDOz7Xrr4=", "properties": {"@source_uri": "https://tools.usps.com/UspsToolsRestServices/rest/POLocator/findLocations", "@spider": "usps_collection_boxes", "addr:city": "MATHIAS", "addr:country": "US", "addr:full": "14 MATHIAS ST", "addr:postcode": "26812", "addr:state": "WV", "amenity": "post_box", "brand": "United States Postal Service", "brand:wikidata": "Q668687", "collection_times": "Mo-Fr 15:30; Sa 11:30", "name": "USPS COLLECTION BOX - PO LOBBY", "note": "ON 12/24 AND 12/31, THIS BOX MAY BE COLLECTED AS EARLY AS 12 NOON.", "nsi_id": "unitedstatespostalservice-a77078", "operator": "United States Postal Service", "operator:short": "USPS", "operator:type": "public", "operator:wikidata": "Q668687", "ref": "2681200003"}, "type": "Feature"}
{"geometry": {"coordinates": [-79.435872, 38.745981], "type": "Point"}, "id": "gOHTUjZMjjDdN2_bUuACs_fXq1Y=", "properties": {"@source_uri": "https://tools.usps.com/UspsToolsRestServices/rest/POLocator/findLocations", "@spider": "usps_collection_boxes", "addr:city": "RIVERTON", "addr:country": "US", "addr:full": "61 TUSCARORA LN", "addr:postcode": "26814", "addr:state": "WV", "amenity": "post_box", "brand": "United States Postal Service", "brand:wikidata": "Q668687", "collection_times": "Mo-Fr 11:45; Sa 11:00", "name": "USPS COLLECTION BOX - BLUE BOX", "nsi_id": "unitedstatespostalservice-a77078", "operator": "United States Postal Service", "operator:short": "USPS", "operator:type": "public", "operator:wikidata": "Q668687", "ref": "2681400000"}, "type": "Feature"}
{"geometry": {"coordinates": [-79.435872, 38.745981], "type": "Point"}, "id": "c8V1aO6PIq3H3X0xwYaZT2rG1zQ=", "properties": {"@source_uri": "https://tools.usps.com/UspsToolsRestServices/rest/POLocator/findLocations", "@spider": "usps_collection_boxes", "addr:city": "RIVERTON", "addr:country": "US", "addr:full": "61 TUSCARORA LN", "addr:postcode": "26814", "addr:state": "WV", "amenity": "post_box", "brand": "United States Postal Service", "brand:wikidata": "Q668687", "collection_times": "Mo-Fr 11:45; Sa 11:00", "name": "USPS COLLECTION BOX - PO LOBBY", "nsi_id": "unitedstatespostalservice-a77078", "operator": "United States Postal Service", "operator:short": "USPS", "operator:type": "public", "operator:wikidata": "Q668687", "ref": "2681400001"}, "type": "Feature"}
{"geometry": {"coordinates": [-79.44476, 38.7161], "type": "Point"}, "id": "mM8b7VOp21YfZ9VrHhtnbAaRRbk=", "properties": {"@source_uri": "https://tools.usps.com/UspsToolsRestServices/rest/POLocator/findLocations", "@spider": "usps_collection_boxes", "addr:city": "RIVERTON", "addr:country": "US", "addr:full": "61 TUSCARORA LN", "addr:postcode": "26814", "addr:state": "WV", "amenity": "post_box", "brand": "United States Postal Service", "brand:wikidata": "Q668687", "collection_times": "Mo-Fr 12:00; Sa 11:15", "name": "USPS COLLECTION BOX - PO LOBBY", "nsi_id": "unitedstatespostalservice-a77078", "operator": "United States Postal Service", "operator:short": "USPS", "operator:type": "public", "operator:wikidata": "Q668687", "ref": "2681400003"}, "type": "Feature"}
{"geometry": {"coordinates": [-79.3208514944, 38.5108575195], "type": "Point"}, "id": "Yck9hE3kKHB-sPg-1ZJfjMzIL8E=", "properties": {"@source_uri": "https://tools.usps.com/UspsToolsRestServices/rest/POLocator/findLocations", "@spider": "usps_collection_boxes", "addr:city": "SUGAR GROVE", "addr:country": "US", "addr:full": "10565 SUGAR GROVE RD", "addr:postcode": "26815", "addr:state": "WV", "amenity": "post_box", "brand": "United States Postal Service", "brand:wikidata": "Q668687", "collection_times": "Mo-Sa 12:00", "name": "USPS COLLECTION BOX - BLUE BOX", "nsi_id": "unitedstatespostalservice-a77078", "operator": "United States Postal Service", "operator:short": "USPS", "operator:type": "public", "operator:wikidata": "Q668687", "ref": "2681500000"}, "type": "Feature"}
{"geometry": {"coordinates": [-79.311387734, 38.512592771], "type": "Point"}, "id": "z1AHVKw6eJV9u6wuzUfnKqchrLs=", "properties": {"@source_uri": "https://tools.usps.com/UspsToolsRestServices/rest/POLocator/findLocations", "@spider": "usps_collection_boxes", "addr:city": "SUGAR GROVE", "addr:country": "US", "addr:full": "10565 SUGAR GROVE RD", "addr:postcode": "26815", "addr:state": "WV", "amenity": "post_box", "brand": "United States Postal Service", "brand:wikidata": "Q668687", "collection_times": "Mo-Fr 13:00; Sa 12:00", "name": "USPS COLLECTION BOX - PO LOBBY", "note": "ON 12/24 AND 12/31, THIS BOX MAY BE COLLECTED AS EARLY AS 12 NOON.", "nsi_id": "unitedstatespostalservice-a77078", "operator": "United States Postal Service", "operator:short": "USPS", "operator:type": "public", "operator:wikidata": "Q668687", "ref": "2681500003"}, "type": "Feature"}
{"geometry": {"coordinates": [-78.371681, 39.384575], "type": "Point"}, "id": "XUHWYC6pu5G59U79A5-GAFu4oOo=", "properties": {"@source_uri": "https://tools.usps.com/UspsToolsRestServices/rest/POLocator/findLocations", "@spider": "usps_collection_boxes", "addr:city": "BLOOMERY", "addr:country": "US", "addr:full": "17082 BLOOMERY PIKE", "addr:postcode": "26817", "addr:state": "WV", "amenity": "post_box", "brand": "United States Postal Service", "brand:wikidata": "Q668687", "collection_times": "Mo-Fr 12:30; Sa 11:30", "name": "USPS COLLECTION BOX - BLUE BOX", "note": "ON 12/24 AND 12/31, THIS BOX MAY BE COLLECTED AS EARLY AS 12 NOON.", "nsi_id": "unitedstatespostalservice-a77078", "operator": "United States Postal Service", "operator:short": "USPS", "operator:type": "public", "operator:wikidata": "Q668687", "ref": "2681700000"}, "type": "Feature"}
{"geometry": {"coordinates": [-78.371681, 39.384575], "type": "Point"}, "id": "LnS3cZHOtulFfhwccjCq5jd8l5Q=", "properties": {"@source_uri": "https://tools.usps.com/UspsToolsRestServices/rest/POLocator/findLocations", "@spider": "usps_collection_boxes", "addr:city": "BLOOMERY", "addr:country": "US", "addr:full": "17082 BLOOMERY PIKE", "addr:postcode": "26817", "addr:state": "WV", "amenity": "post_box", "brand": "United States Postal Service", "brand:wikidata": "Q668687", "collection_times": "Mo-Fr 12:45; Sa 11:45", "name": "USPS COLLECTION BOX - PO LOBBY", "note": "ON 12/24 AND 12/31, THIS BOX MAY BE COLLECTED AS EARLY AS 12 NOON.", "nsi_id": "unitedstatespostalservice-a77078", "operator": "United States Postal Service", "operator:short": "USPS", "operator:type": "public", "operator:wikidata": "Q668687", "ref": "2681700001"}, "type": "Feature"}
{"geometry": {"coordinates": [-78.3715517263, 39.3848442359], "type": "Point"}, "id": "8E104G76dyhEidn0ksmxflQya1U=", "properties": {"@source_uri": "https://tools.usps.com/UspsToolsRestServices/rest/POLocator/findLocations", "@spider": "usps_collection_boxes", "addr:city": "BLOOMERY", "addr:country": "US", "addr:full": "17082 BLOOMERY PIKE", "addr:postcode": "26817", "addr:state": "WV", "amenity": "post_box", "brand": "United States Postal Service", "brand:wikidata": "Q668687", "collection_times": "Mo-Fr 13:00; Sa 12:00", "name": "USPS COLLECTION BOX - PO LOBBY", "note": "ON 12/24 AND 12/31, THIS BOX MAY BE COLLECTED AS EARLY AS 12 NOON.", "nsi_id": "unitedstatespostalservice-a77078", "operator": "United States Postal Service", "operator:short": "USPS", "operator:type": "public", "operator:wikidata": "Q668687", "ref": "2681700003"}, "type": "Feature"}
{"geometry": {"coordinates": [-78.492681, 39.138278], "type": "Point"}, "id": "FdonJq6TJUxtCel6NoJ-_qHstKY=", "properties": {"@source_uri": "https://tools.usps.com/UspsToolsRestServices/rest/POLocator/findLocations", "@spider": "usps_collection_boxes", "addr:city": "CAPON SPRINGS", "addr:country": "US", "addr:full": "8960 BACK CREEK RD", "addr:postcode": "26823", "addr:state": "WV", "amenity": "post_box", "brand": "United States Postal Service", "brand:wikidata": "Q668687", "collection_times": "Mo-Fr 14:00; Sa 11:30", "name": "USPS COLLECTION BOX - BLUE BOX", "note": "ON 12/24 AND 12/31, THIS BOX MAY BE COLLECTED AS EARLY AS 12 NOON.", "nsi_id": "unitedstatespostalservice-a77078", "operator": "United States Postal Service", "operator:short": "USPS", "operator:type": "public", "operator:wikidata": "Q668687", "ref": "2682300000"}, "type": "Feature"}
{"geometry": {"coordinates": [-78.492681, 39.138278], "type": "Point"}, "id": "V_Bwn437LEaeN8xTUYJ8rNy5wiE=", "properties": {"@source_uri": "https://tools.usps.com/UspsToolsRestServices/rest/POLocator/findLocations", "@spider": "usps_collection_boxes", "addr:city": "CAPON SPRINGS", "addr:country": "US", "addr:full": "8960 BACK CREEK RD", "addr:postcode": "26823", "addr:state": "WV", "amenity": "post_box", "brand": "United States Postal Service", "brand:wikidata": "Q668687", "collection_times": "Mo-Fr 14:00; Sa 11:45", "name": "USPS COLLECTION BOX - PO LOBBY", "note": "ON 12/24 AND 12/31, THIS BOX MAY BE COLLECTED AS EARLY AS 12 NOON.", "nsi_id": "unitedstatespostalservice-a77078", "operator": "United States Postal Service", "operator:short": "USPS", "operator:type": "public", "operator:wikidata": "Q668687", "ref": "2682300001"}, "type": "Feature"}
{"geometry": {"coordinates": [-78.487810374, 39.139595317], "type": "Point"}, "id": "fJBmzADBOmeNFA49NRaxyUVzNq0=", "properties": {"@source_uri": "https://tools.usps.com/UspsToolsRestServices/rest/POLocator/findLocations", "@spider": "usps_collection_boxes", "addr:city": "CAPON SPRINGS", "addr:country": "US", "addr:full": "8960 BACK CREEK RD", "addr:postcode": "26823", "addr:state": "WV", "amenity": "post_box", "brand": "United States Postal Service", "brand:wikidata": "Q668687", "collection_times": "Mo-Fr 14:30; Sa 12:00", "name": "USPS COLLECTION BOX - PO LOBBY", "note": "ON 12/24 AND 12/31, THIS BOX MAY BE COLLECTED AS EARLY AS 12 NOON.", "nsi_id": "unitedstatespostalservice-a77078", "operator": "United States Postal Service", "operator:short": "USPS", "operator:type": "public", "operator:wikidata": "Q668687", "ref": "2682300003"}, "type": "Feature"}
{"geometry": {"coordinates": [-79.151113665, 39.107506198], "type": "Point"}, "id": "0fBmSQQQVLILGqa1ka2ZfWMZlEI=", "properties": {"@source_uri": "https://tools.usps.com/UspsToolsRestServices/rest/POLocator/findLocations", "@spider": "usps_collection_boxes", "addr:city": "MAYSVILLE", "addr:country": "US", "addr:full": "8995 LUNICE CREEK HWY", "addr:postcode": "26833", "addr:state": "WV", "amenity": "post_box", "brand": "United States Postal Service", "brand:wikidata": "Q668687", "collection_times": "Mo-Fr 15:30; Sa 11:30", "name": "USPS COLLECTION BOX - BLUE BOX", "note": "ON 12/24 AND 12/31, THIS BOX MAY BE COLLECTED AS EARLY AS 12 NOON.", "nsi_id": "unitedstatespostalservice-a77078", "operator": "United States Postal Service", "operator:short": "USPS", "operator:type": "public", "operator:wikidata": "Q668687", "ref": "2683300000"}, "type": "Feature"}
{"geometry": {"coordinates": [-79.151113665, 39.107506198], "type": "Point"}, "id": "FLWW7NugdRVEWABDWGUMgR59lKQ=", "properties": {"@source_uri": "https://tools.usps.com/UspsToolsRestServices/rest/POLocator/findLocations", "@spider": "usps_collection_boxes", "addr:city": "MAYSVILLE", "addr:country": "US", "addr:full": "8995 LUNICE CREEK HWY", "addr:postcode": "26833", "addr:state": "WV", "amenity": "post_box", "brand": "United States Postal Service", "brand:wikidata": "Q668687", "collection_times": "Mo-Fr 15:30; Sa 11:30", "name": "USPS COLLECTION BOX - PO LOBBY", "note": "ON 12/24 AND 12/31, THIS BOX MAY BE COLLECTED AS EARLY AS 12 NOON.", "nsi_id": "unitedstatespostalservice-a77078", "operator": "United States Postal Service", "operator:short": "USPS", "operator:type": "public", "operator:wikidata": "Q668687", "ref": "2683300001"}, "type": "Feature"}
{"geometry": {"coordinates": [-79.151113665, 39.107506198], "type": "Point"}, "id": "vYaxHThNIvrOvTNzr74MbP0Lr4g=", "properties": {"@source_uri": "https://tools.usps.com/UspsToolsRestServices/rest/POLocator/findLocations", "@spider": "usps_collection_boxes", "addr:city": "MAYSVILLE", "addr:country": "US", "addr:full": "8995 LUNICE CREEK HWY", "addr:postcode": "26833", "addr:state": "WV", "amenity": "post_box", "brand": "United States Postal Service", "brand:wikidata": "Q668687", "collection_times": "Mo-Fr 16:00; Sa 12:30", "name": "USPS COLLECTION BOX - PO LOBBY", "note": "ON 12/24 AND 12/31, THIS BOX MAY BE COLLECTED AS EARLY AS 12 NOON.", "nsi_id": "unitedstatespostalservice-a77078", "operator": "United States Postal Service", "operator:short": "USPS", "operator:type": "public", "operator:wikidata": "Q668687", "ref": "2683300003"}, "type": "Feature"}
{"geometry": {"coordinates": [-78.965227026, 39.0756830103], "type": "Point"}, "id": "S2L56UefQemWAS-VnKsO9wm11kw=", "properties": {"@source_uri": "https://tools.usps.com/UspsToolsRestServices/rest/POLocator/findLocations", "@spider": "usps_collection_boxes", "addr:city": "MOOREFIELD", "addr:country": "US", "addr:full": "743 N MAIN ST", "addr:postcode": "26836", "addr:state": "WV", "amenity": "post_box", "brand": "United States Postal Service", "brand:wikidata": "Q668687", "collection_times": "Mo-Fr 09:30; Sa 10:00", "name": "USPS COLLECTION BOX - BLUE BOX", "nsi_id": "unitedstatespostalservice-a77078", "operator": "United States Postal Service", "operator:short": "USPS", "operator:type": "public", "operator:wikidata": "Q668687", "ref": "2683600000"}, "type": "Feature"}
{"geometry": {"coordinates": [-78.9671210009, 39.0591070005], "type": "Point"}, "id": "ix5ZCnGAVfRmjRgi_i148t3iu_Y=", "properties": {"@source_uri": "https://tools.usps.com/UspsToolsRestServices/rest/POLocator/findLocations", "@spider": "usps_collection_boxes", "addr:city": "MOOREFIELD", "addr:country": "US", "addr:full": "201 CENTRAL AVE", "addr:postcode": "26836", "addr:state": "WV", "amenity": "post_box", "brand": "United States Postal Service", "brand:wikidata": "Q668687", "collection_times": "Mo-Sa 13:00", "name": "USPS COLLECTION BOX - BLUE BOX", "note": "ON 12/24 AND 12/31, THIS BOX MAY BE COLLECTED AS EARLY AS 12 NOON.", "nsi_id": "unitedstatespostalservice-a77078", "operator": "United States Postal Service", "operator:short": "USPS", "operator:type": "public", "operator:wikidata": "Q668687", "ref": "2683600002"}, "type": "Feature"}
{"geometry": {"coordinates": [-78.9682222, 39.063943], "type": "Point"}, "id": "XN4sahF4Hn6a94Tj67y7ffd5HDM=", "properties": {"@source_uri": "https://tools.usps.com/UspsToolsRestServices/rest/POLocator/findLocations", "@spider": "usps_collection_boxes", "addr:city": "MOOREFIELD", "addr:country": "US", "addr:full": "130 N ELM ST", "addr:postcode": "26836", "addr:state": "WV", "amenity": "post_box", "brand": "United States Postal Service", "brand:wikidata": "Q668687", "collection_times": "Mo-Sa 11:00", "name": "USPS COLLECTION BOX - BLUE BOX", "nsi_id": "unitedstatespostalservice-a77078", "operator": "United States Postal Service", "operator:short": "USPS", "operator:type": "public", "operator:wikidata": "Q668687", "ref": "2683600004"}, "type": "Feature"}
{"geometry": {"coordinates": [-78.9696265, 39.061734], "type": "Point"}, "id": "ZK1F_IkMmKLB99wLdUpdjTiuMUo=", "properties": {"@source_uri": "https://tools.usps.com/UspsToolsRestServices/rest/POLocator/findLocations", "@spider": "usps_collection_boxes", "addr:city": "MOOREFIELD", "addr:country": "US", "addr:full": "107 S MAIN ST", "addr:postcode": "26836", "addr:state": "WV", "amenity": "post_box", "brand": "United States Postal Service", "brand:wikidata": "Q668687", "collection_times": "Mo-Sa 11:00", "name": "USPS COLLECTION BOX - BLUE BOX", "nsi_id": "unitedstatespostalservice-a77078", "operator": "United States Postal Service", "operator:short": "USPS", "operator:type": "public", "operator:wikidata": "Q668687", "ref": "2683600006"}, "type": "Feature"}
{"geometry": {"coordinates": [-78.961606558, 39.070563191], "type": "Point"}, "id": "l4gSEzUGYgWdF1TYTjz-oXbjW5g=", "properties": {"@source_uri": "https://tools.usps.com/UspsToolsRestServices/rest/POLocator/findLocations", "@spider": "usps_collection_boxes", "addr:city": "MOOREFIELD", "addr:country": "US", "addr:full": "410 SPRING AVE", "addr:postcode": "26836", "addr:state": "WV", "amenity": "post_box", "brand": "United States Postal Service", "brand:wikidata": "Q668687", "collection_times": "Mo-Fr 16:45; Sa 15:30", "name": "USPS COLLECTION BOX - BLUE BOX", "note": "ON 12/24 AND 12/31, THIS BOX MAY BE COLLECTED AS EARLY AS 12 NOON.", "nsi_id": "unitedstatespostalservice-a77078", "operator": "United States Postal Service", "operator:short": "USPS", "operator:type": "public", "operator:wikidata": "Q668687", "ref": "2683600007"}, "type": "Feature"}
{"geometry": {"coordinates": [-78.9764147, 39.051778], "type": "Point"}, "id": "5ZQfO9Bw9O6FO0cO7ZnFHl6rxYI=", "properties": {"@source_uri": "https://tools.usps.com/UspsToolsRestServices/rest/POLocator/findLocations", "@spider": "usps_collection_boxes", "addr:city": "MOOREFIELD", "addr:country": "US", "addr:full": "542 S MAIN ST", "addr:postcode": "26836", "addr:state": "WV", "amenity": "post_box", "brand": "United States Postal Service", "brand:wikidata": "Q668687", "collection_times": "Mo-Sa 11:30", "name": "USPS COLLECTION BOX - BLUE BOX", "nsi_id": "unitedstatespostalservice-a77078", "operator": "United States Postal Service", "operator:short": "USPS", "operator:type": "public", "operator:wikidata": "Q668687", "ref": "2683600008"}, "type": "Feature"}
{"geometry": {"coordinates": [-78.961606558, 39.070563191], "type": "Point"}, "id": "jyGCDULatDs8mlfB5h2QUL9Gpkc=", "properties": {"@source_uri": "https://tools.usps.com/UspsToolsRestServices/rest/POLocator/findLocations", "@spider": "usps_collection_boxes", "addr:city": "MOOREFIELD", "addr:country": "US", "addr:full": "410 SPRING AVE", "addr:postcode": "26836", "addr:state": "WV", "amenity": "post_box", "brand": "United States Postal Service", "brand:wikidata": "Q668687", "collection_times": "Mo-Fr 16:45; Sa 15:30", "name": "USPS COLLECTION BOX - PO LOBBY", "note": "ON 12/24 AND 12/31, THIS BOX MAY BE COLLECTED AS EARLY AS 12 NOON.", "nsi_id": "unitedstatespostalservice-a77078", "operator": "United States Postal Service", "operator:short": "USPS", "operator:type": "public", "operator:wikidata": "Q668687", "ref": "2683600009"}, "type": "Feature"}
{"geometry": {"coordinates": [-78.9593779, 39.084829], "type": "Point"}, "id": "omDHDOwMSOrsfgrfpw6cvmSitlI=", "properties": {"@source_uri": "https://tools.usps.com/UspsToolsRestServices/rest/POLocator/findLocations", "@spider": "usps_collection_boxes", "addr:city": "MOOREFIELD", "addr:country": "US", "addr:full": "11 HARNESS RD", "addr:postcode": "26836", "addr:state": "WV", "amenity": "post_box", "brand": "United States Postal Service", "brand:wikidata": "Q668687", "collection_times": "Mo-Sa 09:30", "name": "USPS COLLECTION BOX - BLUE BOX", "nsi_id": "unitedstatespostalservice-a77078", "operator": "United States Postal Service", "operator:short": "USPS", "operator:type": "public", "operator:wikidata": "Q668687", "ref": "2683600010"}, "type": "Feature"}
{"geometry": {"coordinates": [-78.961606558, 39.070563191], "type": "Point"}, "id": "QnBP81OnYdq9qLTUMjajK-FmMI4=", "properties": {"@source_uri": "https://tools.usps.com/UspsToolsRestServices/rest/POLocator/findLocations", "@spider": "usps_collection_boxes", "addr:city": "MOOREFIELD", "addr:country": "US", "addr:full": "410 SPRING AVE", "addr:postcode": "26836", "addr:state": "WV", "amenity": "post_box", "brand": "United States Postal Service", "brand:wikidata": "Q668687", "collection_times": "Mo-Fr 16:30; Sa 12:00", "name": "USPS COLLECTION BOX - PO LOBBY", "note": "ON 12/24 AND 12/31, THIS BOX MAY BE COLLECTED AS EARLY AS 12 NOON.", "nsi_id": "unitedstatespostalservice-a77078", "operator": "United States Postal Service", "operator:short": "USPS", "operator:type": "public", "operator:wikidata": "Q668687", "ref": "2683600014"}, "type": "Feature"}
{"geometry": {"coordinates": [-78.953498, 39.136945], "type": "Point"}, "id": "7ynOVB_b25L89McjXJ4LMqFuV-k=", "properties": {"@source_uri": "https://tools.usps.com/UspsToolsRestServices/rest/POLocator/findLocations", "@spider": "usps_collection_boxes", "addr:city": "OLD FIELDS", "addr:country": "US", "addr:full": "165 OLD FIELDS RD", "addr:postcode": "26845", "addr:state": "WV", "amenity": "post_box", "brand": "United States Postal Service", "brand:wikidata": "Q668687", "collection_times": "Mo-Fr 14:45; Sa 11:45", "name": "USPS COLLECTION BOX - BLUE BOX", "note": "ON 12/24 AND 12/31, THIS BOX MAY BE COLLECTED AS EARLY AS 12 NOON.", "nsi_id": "unitedstatespostalservice-a77078", "operator": "United States Postal Service", "operator:short": "USPS", "operator:type": "public", "operator:wikidata": "Q668687", "ref": "2684500000"}, "type": "Feature"}
{"geometry": {"coordinates": [-78.953509, 39.136983], "type": "Point"}, "id": "cbA3V4XKPu082SW9PcADsjGJEhk=", "properties": {"@source_uri": "https://tools.usps.com/UspsToolsRestServices/rest/POLocator/findLocations", "@spider": "usps_collection_boxes", "addr:city": "OLD FIELDS", "addr:country": "US", "addr:full": "165 OLD FIELDS RD", "addr:postcode": "26845", "addr:state": "WV", "amenity": "post_box", "brand": "United States Postal Service", "brand:wikidata": "Q668687", "collection_times": "Mo-Fr 14:45; Sa 11:45", "name": "USPS COLLECTION BOX - PO LOBBY", "note": "ON 12/24 AND 12/31, THIS BOX MAY BE COLLECTED AS EARLY AS 12 NOON.", "nsi_id": "unitedstatespostalservice-a77078", "operator": "United States Postal Service", "operator:short": "USPS", "operator:type": "public", "operator:wikidata": "Q668687", "ref": "2684500001"}, "type": "Feature"}
{"geometry": {"coordinates": [-78.9520652391, 39.1361726683], "type": "Point"}, "id": "6AHhzVTfeUP4LbJRAKk8YZR5_dw=", "properties": {"@source_uri": "https://tools.usps.com/UspsToolsRestServices/rest/POLocator/findLocations", "@spider": "usps_collection_boxes", "addr:city": "OLD FIELDS", "addr:country": "US", "addr:full": "165 OLD FIELDS RD", "addr:postcode": "26845", "addr:state": "WV", "amenity": "post_box", "brand": "United States Postal Service", "brand:wikidata": "Q668687", "collection_times": "Mo-Fr 15:30; Sa 12:00", "name": "USPS COLLECTION BOX - PO LOBBY", "note": "ON 12/24 AND 12/31, THIS BOX MAY BE COLLECTED AS EARLY AS 12 NOON.", "nsi_id": "unitedstatespostalservice-a77078", "operator": "United States Postal Service", "operator:short": "USPS", "operator:type": "public", "operator:wikidata": "Q668687", "ref": "2684500003"}, "type": "Feature"}
{"geometry": {"coordinates": [-79.1243003, 38.99117], "type": "Point"}, "id": "X038kjvhPSBd9MwPT_avcjU99ak=", "properties": {"@source_uri": "https://tools.usps.com/UspsToolsRestServices/rest/POLocator/findLocations", "@spider": "usps_collection_boxes", "addr:city": "PETERSBURG", "addr:country": "US", "addr:full": "39 S MAIN ST", "addr:postcode": "26847", "addr:state": "WV", "amenity": "post_box", "brand": "United States Postal Service", "brand:wikidata": "Q668687", "collection_times": "Mo-Sa 09:45", "name": "USPS COLLECTION BOX - BLUE BOX", "nsi_id": "unitedstatespostalservice-a77078", "operator": "United States Postal Service", "operator:short": "USPS", "operator:type": "public", "operator:wikidata": "Q668687", "ref": "2684700000"}, "type": "Feature"}
{"geometry": {"coordinates": [-79.1234688, 38.995875], "type": "Point"}, "id": "n4RAuyqWh4AUose5m-g0PSSELBk=", "properties": {"@source_uri": "https://tools.usps.com/UspsToolsRestServices/rest/POLocator/findLocations", "@spider": "usps_collection_boxes", "addr:city": "PETERSBURG", "addr:country": "US", "addr:full": "5 HIGHLAND AVE", "addr:postcode": "26847", "addr:state": "WV", "amenity": "post_box", "brand": "United States Postal Service", "brand:wikidata": "Q668687", "collection_times": "Mo-Fr 15:15; Sa 14:30", "name": "USPS COLLECTION BOX - BLUE BOX", "note": "ON 12/24 AND 12/31, THIS BOX MAY BE COLLECTED AS EARLY AS 12 NOON.", "nsi_id": "unitedstatespostalservice-a77078", "operator": "United States Postal Service", "operator:short": "USPS", "operator:type": "public", "operator:wikidata": "Q668687", "ref": "2684700005"}, "type": "Feature"}
{"geometry": {"coordinates": [-79.1224884, 38.992914], "type": "Point"}, "id": "MfUVAS3Q_gU-9kXXkuiHPJQj3uQ=", "properties": {"@source_uri": "https://tools.usps.com/UspsToolsRestServices/rest/POLocator/findLocations", "@spider": "usps_collection_boxes", "addr:city": "PETERSBURG", "addr:country": "US", "addr:full": "28 VIRGINIA AVE", "addr:postcode": "26847", "addr:state": "WV", "amenity": "post_box", "brand": "United States Postal Service", "brand:wikidata": "Q668687", "collection_times": "Mo-Fr 12:30; Sa 12:00", "name": "USPS COLLECTION BOX - BLUE BOX", "note": "ON 12/24 AND 12/31, THIS BOX MAY BE COLLECTED AS EARLY AS 12 NOON.", "nsi_id": "unitedstatespostalservice-a77078", "operator": "United States Postal Service", "operator:short": "USPS", "operator:type": "public", "operator:wikidata": "Q668687", "ref": "2684700006"}, "type": "Feature"}
{"geometry": {"coordinates": [-79.1287314, 38.995843], "type": "Point"}, "id": "oEk7pmVall7s7pqSiEBiGYg7D7E=", "properties": {"@source_uri": "https://tools.usps.com/UspsToolsRestServices/rest/POLocator/findLocations", "@spider": "usps_collection_boxes", "addr:city": "PETERSBURG", "addr:country": "US", "addr:full": "204 BRYAN ST", "addr:postcode": "26847", "addr:state": "WV", "amenity": "post_box", "brand": "United States Postal Service", "brand:wikidata": "Q668687", "collection_times": "Mo-Sa 11:00", "name": "USPS COLLECTION BOX - BLUE BOX", "nsi_id": "unitedstatespostalservice-a77078", "operator": "United States Postal Service", "operator:short": "USPS", "operator:type": "public", "operator:wikidata": "Q668687", "ref": "2684700008"}, "type": "Feature"}
{"geometry": {"coordinates": [-79.139351216, 39.00275299], "type": "Point"}, "id": "Nka3gvz7lPvkDMzQk1QgsxIgzbU=", "properties": {"@source_uri": "https://tools.usps.com/UspsToolsRestServices/rest/POLocator/findLocations", "@spider": "usps_collection_boxes", "addr:city": "PETERSBURG", "addr:country": "US", "addr:full": "1 POSTAL SQ", "addr:postcode": "26847", "addr:state": "WV", "amenity": "post_box", "brand": "United States Postal Service", "brand:wikidata": "Q668687", "collection_times": "Mo-Sa 16:45", "name": "USPS COLLECTION BOX - BLUE BOX", "note": "ON 12/24 AND 12/31, THIS BOX MAY BE COLLECTED AS EARLY AS 12 NOON.", "nsi_id": "unitedstatespostalservice-a77078", "operator": "United States Postal Service", "operator:short": "USPS", "operator:type": "public", "operator:wikidata": "Q668687", "ref": "2684700011"}, "type": "Feature"}
{"geometry": {"coordinates": [-79.139351216, 39.00275299], "type": "Point"}, "id": "71LrsrYZvs3kAxMPoNNSG5o9X7U=", "properties": {"@source_uri": "https://tools.usps.com/UspsToolsRestServices/rest/POLocator/findLocations", "@spider": "usps_collection_boxes", "addr:city": "PETERSBURG", "addr:country": "US", "addr:full": "1 POSTAL SQ", "addr:postcode": "26847", "addr:state": "WV", "amenity": "post_box", "brand": "United States Postal Service", "brand:wikidata": "Q668687", "collection_times": "Mo-Sa 17:15", "name": "USPS COLLECTION BOX - PO LOBBY", "note": "ON 12/24 AND 12/31, THIS BOX MAY BE COLLECTED AS EARLY AS 12 NOON.", "nsi_id": "unitedstatespostalservice-a77078", "operator": "United States Postal Service", "operator:short": "USPS", "operator:type": "public", "operator:wikidata": "Q668687", "ref": "2684700012"}, "type": "Feature"}
{"geometry": {"coordinates": [-79.139351216, 39.00275299], "type": "Point"}, "id": "-7x8gsmAaZR_qauE1CpKQ-PsRsE=", "properties": {"@source_uri": "https://tools.usps.com/UspsToolsRestServices/rest/POLocator/findLocations", "@spider": "usps_collection_boxes", "addr:city": "PETERSBURG", "addr:country": "US", "addr:full": "1 POSTAL SQ", "addr:postcode": "26847", "addr:state": "WV", "amenity": "post_box", "brand": "United States Postal Service", "brand:wikidata": "Q668687", "collection_times": "Mo-Fr 16:30; Sa 12:00", "name": "USPS COLLECTION BOX - PO LOBBY", "note": "ON 12/24 AND 12/31, THIS BOX MAY BE COLLECTED AS EARLY AS 12 NOON.", "nsi_id": "unitedstatespostalservice-a77078", "operator": "United States Postal Service", "operator:short": "USPS", "operator:type": "public", "operator:wikidata": "Q668687", "ref": "2684700014"}, "type": "Feature"}
{"geometry": {"coordinates": [-78.594966496, 39.076353394], "type": "Point"}, "id": "go7YbQ80Lk8d9Br8EM0cWvGtN7k=", "properties": {"@source_uri": "https://tools.usps.com/UspsToolsRestServices/rest/POLocator/findLocations", "@spider": "usps_collection_boxes", "addr:city": "WARDENSVILLE", "addr:country": "US", "addr:full": "5 W MAIN ST", "addr:postcode": "26851", "addr:state": "WV", "amenity": "post_box", "brand": "United States Postal Service", "brand:wikidata": "Q668687", "collection_times": "Mo-Fr 15:30; Sa 11:30", "name": "USPS COLLECTION BOX - BLUE BOX", "note": "ON 12/24 AND 12/31, THIS BOX MAY BE COLLECTED AS EARLY AS 12 NOON.", "nsi_id": "unitedstatespostalservice-a77078", "operator": "United States Postal Service", "operator:short": "USPS", "operator:type": "public", "operator:wikidata": "Q668687", "ref": "2685100000"}, "type": "Feature"}
{"geometry": {"coordinates": [-78.594966496, 39.076353394], "type": "Point"}, "id": "k9ocFNpMQIjum_QHlG87OrxhGYA=", "properties": {"@source_uri": "https://tools.usps.com/UspsToolsRestServices/rest/POLocator/findLocations", "@spider": "usps_collection_boxes", "addr:city": "WARDENSVILLE", "addr:country": "US", "addr:full": "5 W MAIN ST", "addr:postcode": "26851", "addr:state": "WV", "amenity": "post_box", "brand": "United States Postal Service", "brand:wikidata": "Q668687", "collection_times": "Mo-Fr 15:30; Sa 11:30", "name": "USPS COLLECTION BOX - PO LOBBY", "note": "ON 12/24 AND 12/31, THIS BOX MAY BE COLLECTED AS EARLY AS 12 NOON.", "nsi_id": "unitedstatespostalservice-a77078", "operator": "United States Postal Service", "operator:short": "USPS", "operator:type": "public", "operator:wikidata": "Q668687", "ref": "2685100001"}, "type": "Feature"}
{"geometry": {"coordinates": [-78.594966496, 39.076353394], "type": "Point"}, "id": "M1xX19uiwiaZEq3pejCNRld5q6A=", "properties": {"@source_uri": "https://tools.usps.com/UspsToolsRestServices/rest/POLocator/findLocations", "@spider": "usps_collection_boxes", "addr:city": "WARDENSVILLE", "addr:country": "US", "addr:full": "5 W MAIN ST", "addr:postcode": "26851", "addr:state": "WV", "amenity": "post_box", "brand": "United States Postal Service", "brand:wikidata": "Q668687", "collection_times": "Mo-Fr 16:15; Sa 11:45", "name": "USPS COLLECTION BOX - PO LOBBY", "note": "ON 12/24 AND 12/31, THIS BOX MAY BE COLLECTED AS EARLY AS 12 NOON.", "nsi_id": "unitedstatespostalservice-a77078", "operator": "United States Postal Service", "operator:short": "USPS", "operator:type": "public", "operator:wikidata": "Q668687", "ref": "2685100003"}, "type": "Feature"}
{"geometry": {"coordinates": [-78.922386, 39.240899], "type": "Point"}, "id": "f6x0FYqizhOJzKOFALWD7rYQCJc=", "properties": {"@source_uri": "https://tools.usps.com/UspsToolsRestServices/rest/POLocator/findLocations", "@spider": "usps_collection_boxes", "addr:city": "PURGITSVILLE", "addr:country": "US", "addr:full": "6406 PURGITSVILLE PIKE", "addr:postcode": "26852", "addr:state": "WV", "amenity": "post_box", "brand": "United States Postal Service", "brand:wikidata": "Q668687", "collection_times": "Mo-Fr 13:00; Sa 11:45", "name": "USPS COLLECTION BOX - BLUE BOX", "note": "ON 12/24 AND 12/31, THIS BOX MAY BE COLLECTED AS EARLY AS 12 NOON.", "nsi_id": "unitedstatespostalservice-a77078", "operator": "United States Postal Service", "operator:short": "USPS", "operator:type": "public", "operator:wikidata": "Q668687", "ref": "2685200000"}, "type": "Feature"}
{"geometry": {"coordinates": [-78.922336, 39.24087], "type": "Point"}, "id": "14KgIfoWIRO2gkehP7KA_Pi-Qew=", "properties": {"@source_uri": "https://tools.usps.com/UspsToolsRestServices/rest/POLocator/findLocations", "@spider": "usps_collection_boxes", "addr:city": "PURGITSVILLE", "addr:country": "US", "addr:full": "6406 PURGITSVILLE PIKE", "addr:postcode": "26852", "addr:state": "WV", "amenity": "post_box", "brand": "United States Postal Service", "brand:wikidata": "Q668687", "collection_times": "Mo-Fr 12:45; Sa 11:45", "name": "USPS COLLECTION BOX - PO LOBBY", "note": "ON 12/24 AND 12/31, THIS BOX MAY BE COLLECTED AS EARLY AS 12 NOON.", "nsi_id": "unitedstatespostalservice-a77078", "operator": "United States Postal Service", "operator:short": "USPS", "operator:type": "public", "operator:wikidata": "Q668687", "ref": "2685200001"}, "type": "Feature"}
{"geometry": {"coordinates": [-78.922405583, 39.240866046], "type": "Point"}, "id": "OjBjRDU4xYSpCvAOpRo_yb9VPdU=", "properties": {"@source_uri": "https://tools.usps.com/UspsToolsRestServices/rest/POLocator/findLocations", "@spider": "usps_collection_boxes", "addr:city": "PURGITSVILLE", "addr:country": "US", "addr:full": "6406 PURGITSVILLE PIKE", "addr:postcode": "26852", "addr:state": "WV", "amenity": "post_box", "brand": "United States Postal Service", "brand:wikidata": "Q668687", "collection_times": "Mo-Fr 13:00; Sa 12:00", "name": "USPS COLLECTION BOX - PO LOBBY", "note": "ON 12/24 AND 12/31, THIS BOX MAY BE COLLECTED AS EARLY AS 12 NOON.", "nsi_id": "unitedstatespostalservice-a77078", "operator": "United States Postal Service", "operator:short": "USPS", "operator:type": "public", "operator:wikidata": "Q668687", "ref": "2685200003"}, "type": "Feature"}
{"geometry": {"coordinates": [-79.2129889593, 38.9951210185], "type": "Point"}, "id": "DL8o1ehRtSiomjYsog7-soFB-sw=", "properties": {"@source_uri": "https://tools.usps.com/UspsToolsRestServices/rest/POLocator/findLocations", "@spider": "usps_collection_boxes", "addr:city": "CABINS", "addr:country": "US", "addr:full": "5181 N FORK HWY", "addr:postcode": "26855", "addr:state": "WV", "amenity": "post_box", "brand": "United States Postal Service", "brand:wikidata": "Q668687", "collection_times": "Mo-Sa 13:00", "name": "USPS COLLECTION BOX - PO LOBBY", "note": "ON 12/24 AND 12/31, THIS BOX MAY BE COLLECTED AS EARLY AS 12 NOON.", "nsi_id": "unitedstatespostalservice-a77078", "operator": "United States Postal Service", "operator:short": "USPS", "operator:type": "public", "operator:wikidata": "Q668687", "ref": "2685500004"}, "type": "Feature"}
{"geometry": {"coordinates": [-79.2129889593, 38.9951210185], "type": "Point"}, "id": "qVStcFapoB8mNEm8QgNc6iagAMU=", "properties": {"@source_uri": "https://tools.usps.com/UspsToolsRestServices/rest/POLocator/findLocations", "@spider": "usps_collection_boxes", "addr:city": "CABINS", "addr:country": "US", "addr:full": "5181 N FORK HWY", "addr:postcode": "26855", "addr:state": "WV", "amenity": "post_box", "brand": "United States Postal Service", "brand:wikidata": "Q668687", "collection_times": "Mo-Sa 13:00", "name": "USPS COLLECTION BOX - BLUE BOX", "note": "ON 12/24 AND 12/31, THIS BOX MAY BE COLLECTED AS EARLY AS 12 NOON.", "nsi_id": "unitedstatespostalservice-a77078", "operator": "United States Postal Service", "operator:short": "USPS", "operator:type": "public", "operator:wikidata": "Q668687", "ref": "2685500005"}, "type": "Feature"}
{"geometry": {"coordinates": [-79.2129889593, 38.9951210185], "type": "Point"}, "id": "VngQTmvwKeCnDFzxvLzC4mLWb14=", "properties": {"@source_uri": "https://tools.usps.com/UspsToolsRestServices/rest/POLocator/findLocations", "@spider": "usps_collection_boxes", "addr:city": "CABINS", "addr:country": "US", "addr:full": "5181 N FORK HWY", "addr:postcode": "26855", "addr:state": "WV", "amenity": "post_box", "brand": "United States Postal Service", "brand:wikidata": "Q668687", "collection_times": "Mo-Sa 13:00", "name": "USPS COLLECTION BOX - PO LOBBY", "note": "ON 12/24 AND 12/31, THIS BOX MAY BE COLLECTED AS EARLY AS 12 NOON.", "nsi_id": "unitedstatespostalservice-a77078", "operator": "United States Postal Service", "operator:short": "USPS", "operator:type": "public", "operator:wikidata": "Q668687", "ref": "2685500006"}, "type": "Feature"}
{"geometry": {"coordinates": [-78.507964, 39.182734], "type": "Point"}, "id": "HnlTZ6mg_jMI4wSyR2Eep6R3wYo=", "properties": {"@source_uri": "https://tools.usps.com/UspsToolsRestServices/rest/POLocator/findLocations", "@spider": "usps_collection_boxes", "addr:city": "YELLOW SPRING", "addr:country": "US", "addr:full": "7966 CARPERS PIKE", "addr:postcode": "26865", "addr:state": "WV", "amenity": "post_box", "brand": "United States Postal Service", "brand:wikidata": "Q668687", "collection_times": "Mo-Fr 11:45; Sa 12:00", "name": "USPS COLLECTION BOX - BLUE BOX", "nsi_id": "unitedstatespostalservice-a77078", "operator": "United States Postal Service", "operator:short": "USPS", "operator:type": "public", "operator:wikidata": "Q668687", "ref": "2686500000"}, "type": "Feature"}
{"geometry": {"coordinates": [-78.4971422194, 39.1833190454], "type": "Point"}, "id": "HS01YeXkHcLT4PKMw7yggcWrtvg=", "properties": {"@source_uri": "https://tools.usps.com/UspsToolsRestServices/rest/POLocator/findLocations", "@spider": "usps_collection_boxes", "addr:city": "YELLOW SPRING", "addr:country": "US", "addr:full": "PO BOX 9998", "addr:postcode": "26865", "addr:state": "WV", "amenity": "post_box", "brand": "United States Postal Service", "brand:wikidata": "Q668687", "collection_times": "Mo-Fr 11:45; Sa 12:00", "name": "USPS COLLECTION BOX - PO LOBBY", "nsi_id": "unitedstatespostalservice-a77078", "operator": "United States Postal Service", "operator:short": "USPS", "operator:type": "public", "operator:wikidata": "Q668687", "ref": "2686500001"}, "type": "Feature"}
{"geometry": {"coordinates": [-78.508124005, 39.182577329], "type": "Point"}, "id": "hVkMKW9oCN269b3sKqlKFdLqhrw=", "properties": {"@source_uri": "https://tools.usps.com/UspsToolsRestServices/rest/POLocator/findLocations", "@spider": "usps_collection_boxes", "addr:city": "YELLOW SPRING", "addr:country": "US", "addr:full": "7966 CARPERS PIKE", "addr:postcode": "26865", "addr:state": "WV", "amenity": "post_box", "brand": "United States Postal Service", "brand:wikidata": "Q668687", "collection_times": "Mo-Sa 12:00", "name": "USPS COLLECTION BOX - PO LOBBY", "nsi_id": "unitedstatespostalservice-a77078", "operator": "United States Postal Service", "operator:short": "USPS", "operator:type": "public", "operator:wikidata": "Q668687", "ref": "2686500003"}, "type": "Feature"}
{"geometry": {"coordinates": [-79.283636, 38.791357], "type": "Point"}, "id": "tVL6OIGI4n_WpKFSakignYgplZE=", "properties": {"@source_uri": "https://tools.usps.com/UspsToolsRestServices/rest/POLocator/findLocations", "@spider": "usps_collection_boxes", "addr:city": "UPPER TRACT", "addr:country": "US", "addr:full": "11477 PETERSBURG PIKE", "addr:postcode": "26866", "addr:state": "WV", "amenity": "post_box", "brand": "United States Postal Service", "brand:wikidata": "Q668687", "collection_times": "Mo-Fr 16:00; Sa 12:35", "name": "USPS COLLECTION BOX - BLUE BOX", "note": "ON 12/24 AND 12/31, THIS BOX MAY BE COLLECTED AS EARLY AS 12 NOON.", "nsi_id": "unitedstatespostalservice-a77078", "operator": "United States Postal Service", "operator:short": "USPS", "operator:type": "public", "operator:wikidata": "Q668687", "ref": "2686600000"}, "type": "Feature"}
{"geometry": {"coordinates": [-79.2687399, 38.82735], "type": "Point"}, "id": "jf-FfAGrMcCHsVUgnvi-Ikzo8Go=", "properties": {"@source_uri": "https://tools.usps.com/UspsToolsRestServices/rest/POLocator/findLocations", "@spider": "usps_collection_boxes", "addr:city": "UPPER TRACT", "addr:country": "US", "addr:full": "11477 PETERSBURG PIKE", "addr:postcode": "26866", "addr:state": "WV", "amenity": "post_box", "brand": "United States Postal Service", "brand:wikidata": "Q668687", "collection_times": "Mo-Fr 16:00; Sa 13:00", "name": "USPS COLLECTION BOX - PO LOBBY", "note": "ON 12/24 AND 12/31, THIS BOX MAY BE COLLECTED AS EARLY AS 12 NOON.", "nsi_id": "unitedstatespostalservice-a77078", "operator": "United States Postal Service", "operator:short": "USPS", "operator:type": "public", "operator:wikidata": "Q668687", "ref": "2686600002"}, "type": "Feature"}
{"geometry": {"coordinates": [-79.388182, 38.836233], "type": "Point"}, "id": "su8HQ7iVp7C83GJzNA9wpf-eOMs=", "properties": {"@source_uri": "https://tools.usps.com/UspsToolsRestServices/rest/POLocator/findLocations", "@spider": "usps_collection_boxes", "addr:city": "SENECA ROCKS", "addr:country": "US", "addr:full": "648 ALLEGHENY DR", "addr:postcode": "26884", "addr:state": "WV", "amenity": "post_box", "brand": "United States Postal Service", "brand:wikidata": "Q668687", "collection_times": "Mo-Fr 12:45; Sa 11:45", "name": "USPS COLLECTION BOX - BLUE BOX", "note": "ON 12/24 AND 12/31, THIS BOX MAY BE COLLECTED AS EARLY AS 12 NOON.", "nsi_id": "unitedstatespostalservice-a77078", "operator": "United States Postal Service", "operator:short": "USPS", "operator:type": "public", "operator:wikidata": "Q668687", "ref": "2688400000"}, "type": "Feature"}
{"geometry": {"coordinates": [-79.388182, 38.836233], "type": "Point"}, "id": "TyJfL0QX0OYMwtJ-NFyjLt37vi8=", "properties": {"@source_uri": "https://tools.usps.com/UspsToolsRestServices/rest/POLocator/findLocations", "@spider": "usps_collection_boxes", "addr:city": "SENECA ROCKS", "addr:country": "US", "addr:full": "648 ALLEGHENY DR", "addr:postcode": "26884", "addr:state": "WV", "amenity": "post_box", "brand": "United States Postal Service", "brand:wikidata": "Q668687", "collection_times": "Mo-Fr 13:00; Sa 11:45", "name": "USPS COLLECTION BOX - PO LOBBY", "note": "ON 12/24 AND 12/31, THIS BOX MAY BE COLLECTED AS EARLY AS 12 NOON.", "nsi_id": "unitedstatespostalservice-a77078", "operator": "United States Postal Service", "operator:short": "USPS", "operator:type": "public", "operator:wikidata": "Q668687", "ref": "2688400002"}, "type": "Feature"}
{"geometry": {"coordinates": [-79.397958352, 38.83920111], "type": "Point"}, "id": "pnZ6oZ7z3M3TROeFh58s2VWQ604=", "properties": {"@source_uri": "https://tools.usps.com/UspsToolsRestServices/rest/POLocator/findLocations", "@spider": "usps_collection_boxes", "addr:city": "SENECA ROCKS", "addr:country": "US", "addr:full": "648 ALLEGHENY DR", "addr:postcode": "26884", "addr:state": "WV", "amenity": "post_box", "brand": "United States Postal Service", "brand:wikidata": "Q668687", "collection_times": "Mo-Fr 13:00; Sa 12:00", "name": "USPS COLLECTION BOX - PO LOBBY", "note": "ON 12/24 AND 12/31, THIS BOX MAY BE COLLECTED AS EARLY AS 12 NOON.", "nsi_id": "unitedstatespostalservice-a77078", "operator": "United States Postal Service", "operator:short": "USPS", "operator:type": "public", "operator:wikidata": "Q668687", "ref": "2688400004"}, "type": "Feature"}
{"geometry": {"coordinates": [-79.421753, 38.847573], "type": "Point"}, "id": "E4WBRVDgR8XAffy2X2Iad6lh8Nw=", "properties": {"@source_uri": "https://tools.usps.com/UspsToolsRestServices/rest/POLocator/findLocations", "@spider": "usps_collection_boxes", "addr:city": "ONEGO", "addr:country": "US", "addr:full": "2942 ALLEGHENY DR", "addr:postcode": "26886", "addr:state": "WV", "amenity": "post_box", "brand": "United States Postal Service", "brand:wikidata": "Q668687", "collection_times": "Mo-Sa 14:30", "name": "USPS COLLECTION BOX - PO LOBBY", "note": "ON 12/24 AND 12/31, THIS BOX MAY BE COLLECTED AS EARLY AS 12 NOON.", "nsi_id": "unitedstatespostalservice-a77078", "operator": "United States Postal Service", "operator:short": "USPS", "operator:type": "public", "operator:wikidata": "Q668687", "ref": "2688600000"}, "type": "Feature"}
{"geometry": {"coordinates": [-79.421753, 38.847573], "type": "Point"}, "id": "TjQ3iVvoGHQQruIZkkxvFrEM1xE=", "properties": {"@source_uri": "https://tools.usps.com/UspsToolsRestServices/rest/POLocator/findLocations", "@spider": "usps_collection_boxes", "addr:city": "ONEGO", "addr:country": "US", "addr:full": "2942 ALLEGHENY DR", "addr:postcode": "26886", "addr:state": "WV", "amenity": "post_box", "brand": "United States Postal Service", "brand:wikidata": "Q668687", "collection_times": "Mo-Sa 14:30", "name": "USPS COLLECTION BOX - BLUE BOX", "note": "ON 12/24 AND 12/31, THIS BOX MAY BE COLLECTED AS EARLY AS 12 NOON.", "nsi_id": "unitedstatespostalservice-a77078", "operator": "United States Postal Service", "operator:short": "USPS", "operator:type": "public", "operator:wikidata": "Q668687", "ref": "2688600001"}, "type": "Feature"}
{"geometry": {"coordinates": [-79.397958352, 38.83920111], "type": "Point"}, "id": "zzrSe6rVTaVaTXU47LhE6gI3API=", "properties": {"@source_uri": "https://tools.usps.com/UspsToolsRestServices/rest/POLocator/findLocations", "@spider": "usps_collection_boxes", "addr:city": "ONEGO", "addr:country": "US", "addr:full": "2942 ALLEGHENY DR", "addr:postcode": "26886", "addr:state": "WV", "amenity": "post_box", "brand": "United States Postal Service", "brand:wikidata": "Q668687", "collection_times": "Mo-Fr 14:30; Sa 15:00", "name": "USPS COLLECTION BOX - PO LOBBY", "note": "ON 12/24 AND 12/31, THIS BOX MAY BE COLLECTED AS EARLY AS 12 NOON.", "nsi_id": "unitedstatespostalservice-a77078", "operator": "United States Postal Service", "operator:short": "USPS", "operator:type": "public", "operator:wikidata": "Q668687", "ref": "2688600003"}, "type": "Feature"}
