{"geometry": {"coordinates": [-80.4321275, 35.9737552], "type": "Point"}, "id": "0pqj_bumg8F7gj36FaTpq-UmjQw=", "properties": {"@source_uri": "https://tools.usps.com/UspsToolsRestServices/rest/POLocator/findLocations", "@spider": "usps_collection_boxes", "addr:city": "ADVANCE", "addr:country": "US", "addr:postcode": "27006", "addr:state": "NC", "addr:street_address": "5396 US HIGHWAY 158", "amenity": "post_box", "collection_times": "Mo-Sa 12:00", "nsi_id": "unitedstatespostalservice-a77078", "operator": "United States Postal Service", "operator:short": "USPS", "operator:type": "public", "operator:wikidata": "Q668687", "ref": "2700600004"}, "type": "Feature"}
{"geometry": {"coordinates": [-80.41304774, 35.945990267], "type": "Point"}, "id": "5x891uJl2d_UOxerTmlI2t7Vqrc=", "properties": {"@source_uri": "https://tools.usps.com/UspsToolsRestServices/rest/POLocator/findLocations", "@spider": "usps_collection_boxes", "addr:city": "ADVANCE", "addr:country": "US", "addr:postcode": "27006", "addr:state": "NC", "addr:street_address": "1860 NC HIGHWAY 801 S", "amenity": "post_box", "collection_times": "Mo-Fr 17:00; Sa 12:00", "note": "ON 12/24 AND 12/31, THIS BOX MAY BE COLLECTED AS EARLY AS 12 NOON.", "nsi_id": "unitedstatespostalservice-a77078", "operator": "United States Postal Service", "operator:short": "USPS", "operator:type": "public", "operator:wikidata": "Q668687", "ref": "2700600006"}, "type": "Feature"}
{"geometry": {"coordinates": [-80.4224578, 36.005566], "type": "Point"}, "id": "uKF9IhWNkMOTv0T6Wu62vslwKvE=", "properties": {"@source_uri": "https://tools.usps.com/UspsToolsRestServices/rest/POLocator/findLocations", "@spider": "usps_collection_boxes", "addr:city": "ADVANCE", "addr:country": "US", "addr:postcode": "27006", "addr:state": "NC", "addr:street_address": "324 BERMUDA RUN DR", "amenity": "post_box", "collection_times": "Mo-Sa 12:00", "nsi_id": "unitedstatespostalservice-a77078", "operator": "United States Postal Service", "operator:short": "USPS", "operator:type": "public", "operator:wikidata": "Q668687", "ref": "2700600012"}, "type": "Feature"}
{"geometry": {"coordinates": [-80.446566, 36.010514], "type": "Point"}, "id": "jqbDWJojgHIJLSXAkJWo054whLM=", "properties": {"@source_uri": "https://tools.usps.com/UspsToolsRestServices/rest/POLocator/findLocations", "@spider": "usps_collection_boxes", "addr:city": "ADVANCE", "addr:country": "US", "addr:postcode": "27006", "addr:state": "NC", "addr:street_address": "329 NC HIGHWAY 801 N", "amenity": "post_box", "collection_times": "Mo-Sa 12:00", "nsi_id": "unitedstatespostalservice-a77078", "operator": "United States Postal Service", "operator:short": "USPS", "operator:type": "public", "operator:wikidata": "Q668687", "ref": "2700600015"}, "type": "Feature"}
{"geometry": {"coordinates": [-80.41304774, 35.945990267], "type": "Point"}, "id": "MnA_vZB0g5J3U75NN8qE9TAVMLk=", "properties": {"@source_uri": "https://tools.usps.com/UspsToolsRestServices/rest/POLocator/findLocations", "@spider": "usps_collection_boxes", "addr:city": "ADVANCE", "addr:country": "US", "addr:postcode": "27006", "addr:state": "NC", "addr:street_address": "1860 NC HIGHWAY 801 S", "amenity": "post_box", "collection_times": "Mo-Fr 17:00", "indoor": "yes", "note": "ON 12/24 AND 12/31, THIS BOX MAY BE COLLECTED AS EARLY AS 12 NOON.", "nsi_id": "unitedstatespostalservice-a77078", "operator": "United States Postal Service", "operator:short": "USPS", "operator:type": "public", "operator:wikidata": "Q668687", "ref": "2700600017"}, "type": "Feature"}
{"geometry": {"coordinates": [-80.55718005, 36.403818264], "type": "Point"}, "id": "e9n41-59gFTQnLcYzQz6i0pAfi0=", "properties": {"@source_uri": "https://tools.usps.com/UspsToolsRestServices/rest/POLocator/findLocations", "@spider": "usps_collection_boxes", "addr:city": "ARARAT", "addr:country": "US", "addr:postcode": "27007", "addr:state": "NC", "addr:street_address": "1354 ARARAT RD", "amenity": "post_box", "collection_times": "Mo-Fr 16:15; Sa 10:30", "note": "ON 12/24 AND 12/31, THIS BOX MAY BE COLLECTED AS EARLY AS 12 NOON.", "nsi_id": "unitedstatespostalservice-a77078", "operator": "United States Postal Service", "operator:short": "USPS", "operator:type": "public", "operator:wikidata": "Q668687", "ref": "2700700001"}, "type": "Feature"}
{"geometry": {"coordinates": [-80.55718005, 36.403818264], "type": "Point"}, "id": "wjM0s-4qtco8igtlw5_YruNSEoE=", "properties": {"@source_uri": "https://tools.usps.com/UspsToolsRestServices/rest/POLocator/findLocations", "@spider": "usps_collection_boxes", "addr:city": "ARARAT", "addr:country": "US", "addr:postcode": "27007", "addr:state": "NC", "addr:street_address": "1354 ARARAT RD", "amenity": "post_box", "collection_times": "Mo-Fr 16:00; Sa 12:00", "indoor": "yes", "note": "ON 12/24 AND 12/31, THIS BOX MAY BE COLLECTED AS EARLY AS 12 NOON.", "nsi_id": "unitedstatespostalservice-a77078", "operator": "United States Postal Service", "operator:short": "USPS", "operator:type": "public", "operator:wikidata": "Q668687", "ref": "2700700002"}, "type": "Feature"}
{"geometry": {"coordinates": [-80.069270226, 36.244218089], "type": "Point"}, "id": "5zwAGnkhyFuDQZbB11Ycq9XB1ro=", "properties": {"@source_uri": "https://tools.usps.com/UspsToolsRestServices/rest/POLocator/findLocations", "@spider": "usps_collection_boxes", "addr:city": "BELEWS CREEK", "addr:country": "US", "addr:postcode": "27009", "addr:state": "NC", "addr:street_address": "8540 BELEWS CREEK RD", "amenity": "post_box", "collection_times": "Mo-Fr 16:15; Sa 10:45", "note": "ON 12/24 AND 12/31, THIS BOX MAY BE COLLECTED AS EARLY AS 12 NOON.", "nsi_id": "unitedstatespostalservice-a77078", "operator": "United States Postal Service", "operator:short": "USPS", "operator:type": "public", "operator:wikidata": "Q668687", "ref": "2700900002"}, "type": "Feature"}
{"geometry": {"coordinates": [-80.069270226, 36.244218089], "type": "Point"}, "id": "H1P8s4qw4NnZji39E-kfsvmV5vM=", "properties": {"@source_uri": "https://tools.usps.com/UspsToolsRestServices/rest/POLocator/findLocations", "@spider": "usps_collection_boxes", "addr:city": "BELEWS CREEK", "addr:country": "US", "addr:postcode": "27009", "addr:state": "NC", "addr:street_address": "8540 BELEWS CREEK RD", "amenity": "post_box", "collection_times": "Mo-Fr 16:15; Sa 10:45", "indoor": "yes", "note": "ON 12/24 AND 12/31, THIS BOX MAY BE COLLECTED AS EARLY AS 12 NOON.", "nsi_id": "unitedstatespostalservice-a77078", "operator": "United States Postal Service", "operator:short": "USPS", "operator:type": "public", "operator:wikidata": "Q668687", "ref": "2700900004"}, "type": "Feature"}
{"geometry": {"coordinates": [-80.069270226, 36.244218089], "type": "Point"}, "id": "vraFUsBg8BMx0HyeDyVrE-ejq4A=", "properties": {"@source_uri": "https://tools.usps.com/UspsToolsRestServices/rest/POLocator/findLocations", "@spider": "usps_collection_boxes", "addr:city": "BELEWS CREEK", "addr:country": "US", "addr:postcode": "27009", "addr:state": "NC", "addr:street_address": "8540 BELEWS CREEK RD", "amenity": "post_box", "collection_times": "Mo-Fr 16:30; Sa 11:00", "indoor": "yes", "note": "ON 12/24 AND 12/31, THIS BOX MAY BE COLLECTED AS EARLY AS 12 NOON.", "nsi_id": "unitedstatespostalservice-a77078", "operator": "United States Postal Service", "operator:short": "USPS", "operator:type": "public", "operator:wikidata": "Q668687", "ref": "2700900005"}, "type": "Feature"}
{"geometry": {"coordinates": [-80.3368926442, 36.1854942115], "type": "Point"}, "id": "5pN01wCb2Z8ug7fGgOQui6VOYWE=", "properties": {"@source_uri": "https://tools.usps.com/UspsToolsRestServices/rest/POLocator/findLocations", "@spider": "usps_collection_boxes", "addr:city": "BETHANIA", "addr:country": "US", "addr:postcode": "27010", "addr:state": "NC", "addr:street_address": "5670 MAIN ST", "amenity": "post_box", "collection_times": "Mo-Fr 16:00; Sa 11:00", "note": "ON 12/24 AND 12/31, THIS BOX MAY BE COLLECTED AS EARLY AS 12 NOON.", "nsi_id": "unitedstatespostalservice-a77078", "operator": "United States Postal Service", "operator:short": "USPS", "operator:type": "public", "operator:wikidata": "Q668687", "ref": "2701000002"}, "type": "Feature"}
{"geometry": {"coordinates": [-80.336892644, 36.185485211], "type": "Point"}, "id": "dmM6xPdgytW6ZjupgdQaXA4-Wi0=", "properties": {"@source_uri": "https://tools.usps.com/UspsToolsRestServices/rest/POLocator/findLocations", "@spider": "usps_collection_boxes", "addr:city": "BETHANIA", "addr:country": "US", "addr:postcode": "27010", "addr:state": "NC", "addr:street_address": "5670 MAIN ST", "amenity": "post_box", "collection_times": "Mo-Fr 16:00; Sa 11:00", "indoor": "yes", "note": "ON 12/24 AND 12/31, THIS BOX MAY BE COLLECTED AS EARLY AS 12 NOON.", "nsi_id": "unitedstatespostalservice-a77078", "operator": "United States Postal Service", "operator:short": "USPS", "operator:type": "public", "operator:wikidata": "Q668687", "ref": "2701000004"}, "type": "Feature"}
{"geometry": {"coordinates": [-80.336892644, 36.185485211], "type": "Point"}, "id": "wexJnuVj1-IDna56ToiMSglX0Rg=", "properties": {"@source_uri": "https://tools.usps.com/UspsToolsRestServices/rest/POLocator/findLocations", "@spider": "usps_collection_boxes", "addr:city": "BETHANIA", "addr:country": "US", "addr:postcode": "27010", "addr:state": "NC", "addr:street_address": "5670 MAIN ST", "amenity": "post_box", "collection_times": "Mo-Fr 16:00; Sa 11:00", "indoor": "yes", "note": "ON 12/24 AND 12/31, THIS BOX MAY BE COLLECTED AS EARLY AS 12 NOON.", "nsi_id": "unitedstatespostalservice-a77078", "operator": "United States Postal Service", "operator:short": "USPS", "operator:type": "public", "operator:wikidata": "Q668687", "ref": "2701000005"}, "type": "Feature"}
{"geometry": {"coordinates": [-80.708575995, 36.23121923], "type": "Point"}, "id": "nUFk1lYQnz6QveeQg_FiEpCK--U=", "properties": {"@source_uri": "https://tools.usps.com/UspsToolsRestServices/rest/POLocator/findLocations", "@spider": "usps_collection_boxes", "addr:city": "BOONVILLE", "addr:country": "US", "addr:postcode": "27011", "addr:state": "NC", "addr:street_address": "202 S CAROLINA AVE", "amenity": "post_box", "collection_times": "Mo-Fr 16:30; Sa 10:30", "note": "ON 12/24 AND 12/31, THIS BOX MAY BE COLLECTED AS EARLY AS 12 NOON.", "nsi_id": "unitedstatespostalservice-a77078", "operator": "United States Postal Service", "operator:short": "USPS", "operator:type": "public", "operator:wikidata": "Q668687", "ref": "2701100002"}, "type": "Feature"}
{"geometry": {"coordinates": [-80.708575995, 36.23121923], "type": "Point"}, "id": "FZB0Srz8zMII6LkJdZuiORrnl5Q=", "properties": {"@source_uri": "https://tools.usps.com/UspsToolsRestServices/rest/POLocator/findLocations", "@spider": "usps_collection_boxes", "addr:city": "BOONVILLE", "addr:country": "US", "addr:postcode": "27011", "addr:state": "NC", "addr:street_address": "202 S CAROLINA AVE", "amenity": "post_box", "collection_times": "Mo-Fr 16:30; Sa 10:30", "indoor": "yes", "note": "ON 12/24 AND 12/31, THIS BOX MAY BE COLLECTED AS EARLY AS 12 NOON.", "nsi_id": "unitedstatespostalservice-a77078", "operator": "United States Postal Service", "operator:short": "USPS", "operator:type": "public", "operator:wikidata": "Q668687", "ref": "2701100003"}, "type": "Feature"}
{"geometry": {"coordinates": [-80.708575995, 36.23121923], "type": "Point"}, "id": "0cxjrqF0fY_DLvjRPF4aCxnehDE=", "properties": {"@source_uri": "https://tools.usps.com/UspsToolsRestServices/rest/POLocator/findLocations", "@spider": "usps_collection_boxes", "addr:city": "BOONVILLE", "addr:country": "US", "addr:postcode": "27011", "addr:state": "NC", "addr:street_address": "202 S CAROLINA AVE", "amenity": "post_box", "collection_times": "Mo-Fr 16:30; Sa 10:30", "indoor": "yes", "note": "ON 12/24 AND 12/31, THIS BOX MAY BE COLLECTED AS EARLY AS 12 NOON.", "nsi_id": "unitedstatespostalservice-a77078", "operator": "United States Postal Service", "operator:short": "USPS", "operator:type": "public", "operator:wikidata": "Q668687", "ref": "2701100004"}, "type": "Feature"}
{"geometry": {"coordinates": [-80.3862978, 36.042406], "type": "Point"}, "id": "FWyy526OYgDlfNCeBfoYp5VCPpg=", "properties": {"@source_uri": "https://tools.usps.com/UspsToolsRestServices/rest/POLocator/findLocations", "@spider": "usps_collection_boxes", "addr:city": "CLEMMONS", "addr:country": "US", "addr:postcode": "27012", "addr:state": "NC", "addr:street_address": "2255 LEWISVILLE CLEMMONS RD", "amenity": "post_box", "collection_times": "Mo-Sa 10:00", "nsi_id": "unitedstatespostalservice-a77078", "operator": "United States Postal Service", "operator:short": "USPS", "operator:type": "public", "operator:wikidata": "Q668687", "ref": "2701200001"}, "type": "Feature"}
{"geometry": {"coordinates": [-80.380509122, 36.021835955], "type": "Point"}, "id": "ZSyIJRxk8zvy1FCEhVyYjK9f1EE=", "properties": {"@source_uri": "https://tools.usps.com/UspsToolsRestServices/rest/POLocator/findLocations", "@spider": "usps_collection_boxes", "addr:city": "CLEMMONS", "addr:country": "US", "addr:postcode": "27012", "addr:state": "NC", "addr:street_address": "3630 CLEMMONS RD", "amenity": "post_box", "collection_times": "Mo-Fr 17:00; Sa 11:30", "note": "ON 12/24 AND 12/31, THIS BOX MAY BE COLLECTED AS EARLY AS 12 NOON.", "nsi_id": "unitedstatespostalservice-a77078", "operator": "United States Postal Service", "operator:short": "USPS", "operator:type": "public", "operator:wikidata": "Q668687", "ref": "2701200003"}, "type": "Feature"}
{"geometry": {"coordinates": [-80.381678223, 36.0340245095], "type": "Point"}, "id": "DEuQH4jA_b6mvY3z6dgpPKj8iDU=", "properties": {"@source_uri": "https://tools.usps.com/UspsToolsRestServices/rest/POLocator/findLocations", "@spider": "usps_collection_boxes", "addr:city": "CLEMMONS", "addr:country": "US", "addr:postcode": "27012", "addr:state": "NC", "addr:street_address": "6000 MEADOWBROOK MALL CT", "amenity": "post_box", "collection_times": "Mo-Sa 10:00", "nsi_id": "unitedstatespostalservice-a77078", "operator": "United States Postal Service", "operator:short": "USPS", "operator:type": "public", "operator:wikidata": "Q668687", "ref": "2701200005"}, "type": "Feature"}
{"geometry": {"coordinates": [-80.3809795, 36.03017], "type": "Point"}, "id": "E5t5gquGzLrlOmDLymII8KhQ1yw=", "properties": {"@source_uri": "https://tools.usps.com/UspsToolsRestServices/rest/POLocator/findLocations", "@spider": "usps_collection_boxes", "addr:city": "CLEMMONS", "addr:country": "US", "addr:postcode": "27012", "addr:state": "NC", "addr:street_address": "2501 LEWISVILLE CLEMMONS RD", "amenity": "post_box", "collection_times": "Mo-Sa 10:00", "nsi_id": "unitedstatespostalservice-a77078", "operator": "United States Postal Service", "operator:short": "USPS", "operator:type": "public", "operator:wikidata": "Q668687", "ref": "2701200006"}, "type": "Feature"}
{"geometry": {"coordinates": [-80.3827973, 36.029459], "type": "Point"}, "id": "fmqRldQD0AnZSlw-KdcteyadVCM=", "properties": {"@source_uri": "https://tools.usps.com/UspsToolsRestServices/rest/POLocator/findLocations", "@spider": "usps_collection_boxes", "addr:city": "CLEMMONS", "addr:country": "US", "addr:postcode": "27012", "addr:state": "NC", "addr:street_address": "2520 LEWISVILLE CLEMMONS RD", "amenity": "post_box", "collection_times": "Mo-Sa 10:00", "nsi_id": "unitedstatespostalservice-a77078", "operator": "United States Postal Service", "operator:short": "USPS", "operator:type": "public", "operator:wikidata": "Q668687", "ref": "2701200010"}, "type": "Feature"}
{"geometry": {"coordinates": [-80.380509122, 36.021835955], "type": "Point"}, "id": "HBM4jZ-rVg3QQBaEbkW5pLiY6GE=", "properties": {"@source_uri": "https://tools.usps.com/UspsToolsRestServices/rest/POLocator/findLocations", "@spider": "usps_collection_boxes", "addr:city": "CLEMMONS", "addr:country": "US", "addr:postcode": "27012", "addr:state": "NC", "addr:street_address": "3630 CLEMMONS RD", "amenity": "post_box", "collection_times": "Mo-Fr 17:00; Sa 11:30", "indoor": "yes", "note": "ON 12/24 AND 12/31, THIS BOX MAY BE COLLECTED AS EARLY AS 12 NOON.", "nsi_id": "unitedstatespostalservice-a77078", "operator": "United States Postal Service", "operator:short": "USPS", "operator:type": "public", "operator:wikidata": "Q668687", "ref": "2701200013"}, "type": "Feature"}
{"geometry": {"coordinates": [-80.380509122, 36.021835955], "type": "Point"}, "id": "PZLSw_Z94qtToaag1_AfPa9cxQc=", "properties": {"@source_uri": "https://tools.usps.com/UspsToolsRestServices/rest/POLocator/findLocations", "@spider": "usps_collection_boxes", "addr:city": "CLEMMONS", "addr:country": "US", "addr:postcode": "27012", "addr:state": "NC", "addr:street_address": "3630 CLEMMONS RD", "amenity": "post_box", "collection_times": "Mo-Fr 17:00; Sa 11:30", "indoor": "yes", "note": "ON 12/24 AND 12/31, THIS BOX MAY BE COLLECTED AS EARLY AS 12 NOON.", "nsi_id": "unitedstatespostalservice-a77078", "operator": "United States Postal Service", "operator:short": "USPS", "operator:type": "public", "operator:wikidata": "Q668687", "ref": "2701200018"}, "type": "Feature"}
{"geometry": {"coordinates": [-80.67737701, 35.733561602], "type": "Point"}, "id": "pPU5AOU1_YeMt17oS8x4V02y1dg=", "properties": {"@source_uri": "https://tools.usps.com/UspsToolsRestServices/rest/POLocator/findLocations", "@spider": "usps_collection_boxes", "addr:city": "CLEVELAND", "addr:country": "US", "addr:postcode": "27013", "addr:state": "NC", "addr:street_address": "105 W MAIN ST", "amenity": "post_box", "collection_times": "Mo-Fr 16:30; Sa 10:30", "note": "ON 12/24 AND 12/31, THIS BOX MAY BE COLLECTED AS EARLY AS 12 NOON.", "nsi_id": "unitedstatespostalservice-a77078", "operator": "United States Postal Service", "operator:short": "USPS", "operator:type": "public", "operator:wikidata": "Q668687", "ref": "2701300001"}, "type": "Feature"}
{"geometry": {"coordinates": [-80.6927681507, 35.7298771473], "type": "Point"}, "id": "5KTtpL64b0Htb30kB1wuk2eqBPA=", "properties": {"@source_uri": "https://tools.usps.com/UspsToolsRestServices/rest/POLocator/findLocations", "@spider": "usps_collection_boxes", "addr:city": "CLEVELAND", "addr:country": "US", "addr:postcode": "27013", "addr:state": "NC", "addr:street_address": "11713 STATESVILLE BLVD", "amenity": "post_box", "collection_times": "Mo-Fr 12:00; Sa 10:30", "nsi_id": "unitedstatespostalservice-a77078", "operator": "United States Postal Service", "operator:short": "USPS", "operator:type": "public", "operator:wikidata": "Q668687", "ref": "2701300004"}, "type": "Feature"}
{"geometry": {"coordinates": [-80.67737701, 35.733561602], "type": "Point"}, "id": "dz-zJUvAkbim2wrcq0SuzjKhfPY=", "properties": {"@source_uri": "https://tools.usps.com/UspsToolsRestServices/rest/POLocator/findLocations", "@spider": "usps_collection_boxes", "addr:city": "CLEVELAND", "addr:country": "US", "addr:postcode": "27013", "addr:state": "NC", "addr:street_address": "105 W MAIN ST", "amenity": "post_box", "collection_times": "Mo-Fr 16:30; Sa 10:30", "indoor": "yes", "note": "ON 12/24 AND 12/31, THIS BOX MAY BE COLLECTED AS EARLY AS 12 NOON.", "nsi_id": "unitedstatespostalservice-a77078", "operator": "United States Postal Service", "operator:short": "USPS", "operator:type": "public", "operator:wikidata": "Q668687", "ref": "2701300006"}, "type": "Feature"}
{"geometry": {"coordinates": [-80.67737701, 35.733561602], "type": "Point"}, "id": "aHMXExNi2H4qcQxTnd1VOxt0WyM=", "properties": {"@source_uri": "https://tools.usps.com/UspsToolsRestServices/rest/POLocator/findLocations", "@spider": "usps_collection_boxes", "addr:city": "CLEVELAND", "addr:country": "US", "addr:postcode": "27013", "addr:state": "NC", "addr:street_address": "105 W MAIN ST", "amenity": "post_box", "collection_times": "Mo-Fr 16:30; Sa 11:00", "indoor": "yes", "note": "ON 12/24 AND 12/31, THIS BOX MAY BE COLLECTED AS EARLY AS 12 NOON.", "nsi_id": "unitedstatespostalservice-a77078", "operator": "United States Postal Service", "operator:short": "USPS", "operator:type": "public", "operator:wikidata": "Q668687", "ref": "2701300008"}, "type": "Feature"}
{"geometry": {"coordinates": [-80.551896213, 35.813195935], "type": "Point"}, "id": "tx1pUvi8gkLG5NdJOW9MUhuA3NI=", "properties": {"@source_uri": "https://tools.usps.com/UspsToolsRestServices/rest/POLocator/findLocations", "@spider": "usps_collection_boxes", "addr:city": "COOLEEMEE", "addr:country": "US", "addr:postcode": "27014", "addr:state": "NC", "addr:street_address": "7814 NC HWY 801 S", "amenity": "post_box", "collection_times": "Mo-Fr 16:30; Sa 10:30", "note": "ON 12/24 AND 12/31, THIS BOX MAY BE COLLECTED AS EARLY AS 12 NOON.", "nsi_id": "unitedstatespostalservice-a77078", "operator": "United States Postal Service", "operator:short": "USPS", "operator:type": "public", "operator:wikidata": "Q668687", "ref": "2701400003"}, "type": "Feature"}
{"geometry": {"coordinates": [-80.551896213, 35.813195935], "type": "Point"}, "id": "G0tZ64VTzWONuHgiESVik-oFoMw=", "properties": {"@source_uri": "https://tools.usps.com/UspsToolsRestServices/rest/POLocator/findLocations", "@spider": "usps_collection_boxes", "addr:city": "COOLEEMEE", "addr:country": "US", "addr:postcode": "27014", "addr:state": "NC", "addr:street_address": "7814 NC HWY 801 S", "amenity": "post_box", "collection_times": "Mo-Fr 16:30; Sa 10:30", "indoor": "yes", "note": "ON 12/24 AND 12/31, THIS BOX MAY BE COLLECTED AS EARLY AS 12 NOON.", "nsi_id": "unitedstatespostalservice-a77078", "operator": "United States Postal Service", "operator:short": "USPS", "operator:type": "public", "operator:wikidata": "Q668687", "ref": "2701400004"}, "type": "Feature"}
{"geometry": {"coordinates": [-80.551896213, 35.813195935], "type": "Point"}, "id": "pf9QXbncNVANX7JXXm_hpPxT9Fs=", "properties": {"@source_uri": "https://tools.usps.com/UspsToolsRestServices/rest/POLocator/findLocations", "@spider": "usps_collection_boxes", "addr:city": "COOLEEMEE", "addr:country": "US", "addr:postcode": "27014", "addr:state": "NC", "addr:street_address": "7814 NC HWY 801 S", "amenity": "post_box", "collection_times": "Mo-Fr 16:30", "indoor": "yes", "note": "ON 12/24 AND 12/31, THIS BOX MAY BE COLLECTED AS EARLY AS 12 NOON.", "nsi_id": "unitedstatespostalservice-a77078", "operator": "United States Postal Service", "operator:short": "USPS", "operator:type": "public", "operator:wikidata": "Q668687", "ref": "2701400005"}, "type": "Feature"}
{"geometry": {"coordinates": [-80.203581, 36.409286501], "type": "Point"}, "id": "VeepdYldQee77jzDSlXl3tFwTRs=", "properties": {"@source_uri": "https://tools.usps.com/UspsToolsRestServices/rest/POLocator/findLocations", "@spider": "usps_collection_boxes", "addr:city": "DANBURY", "addr:country": "US", "addr:postcode": "27016", "addr:state": "NC", "addr:street_address": "303 N MAIN ST", "amenity": "post_box", "collection_times": "Mo-Fr 16:30; Sa 10:30", "note": "ON 12/24 AND 12/31, THIS BOX MAY BE COLLECTED AS EARLY AS 12 NOON.", "nsi_id": "unitedstatespostalservice-a77078", "operator": "United States Postal Service", "operator:short": "USPS", "operator:type": "public", "operator:wikidata": "Q668687", "ref": "2701600001"}, "type": "Feature"}
{"geometry": {"coordinates": [-80.203581, 36.409286501], "type": "Point"}, "id": "_LP_cTrLpwJUmNJ7Q7oz9VFlKPU=", "properties": {"@source_uri": "https://tools.usps.com/UspsToolsRestServices/rest/POLocator/findLocations", "@spider": "usps_collection_boxes", "addr:city": "DANBURY", "addr:country": "US", "addr:postcode": "27016", "addr:state": "NC", "addr:street_address": "303 N MAIN ST", "amenity": "post_box", "collection_times": "Mo-Fr 16:30; Sa 10:30", "indoor": "yes", "note": "ON 12/24 AND 12/31, THIS BOX MAY BE COLLECTED AS EARLY AS 12 NOON.", "nsi_id": "unitedstatespostalservice-a77078", "operator": "United States Postal Service", "operator:short": "USPS", "operator:type": "public", "operator:wikidata": "Q668687", "ref": "2701600004"}, "type": "Feature"}
{"geometry": {"coordinates": [-80.203581, 36.409286501], "type": "Point"}, "id": "W-CsiD0Nl-jtaptc09HLT4rqVCI=", "properties": {"@source_uri": "https://tools.usps.com/UspsToolsRestServices/rest/POLocator/findLocations", "@spider": "usps_collection_boxes", "addr:city": "DANBURY", "addr:country": "US", "addr:postcode": "27016", "addr:state": "NC", "addr:street_address": "303 N MAIN ST", "amenity": "post_box", "collection_times": "Mo-Fr 16:30", "indoor": "yes", "note": "ON 12/24 AND 12/31, THIS BOX MAY BE COLLECTED AS EARLY AS 12 NOON.", "nsi_id": "unitedstatespostalservice-a77078", "operator": "United States Postal Service", "operator:short": "USPS", "operator:type": "public", "operator:wikidata": "Q668687", "ref": "2701600005"}, "type": "Feature"}
{"geometry": {"coordinates": [-80.724830338, 36.396003571], "type": "Point"}, "id": "xvRZDig1CctQ8xGmqH4hXKAzKfo=", "properties": {"@source_uri": "https://tools.usps.com/UspsToolsRestServices/rest/POLocator/findLocations", "@spider": "usps_collection_boxes", "addr:city": "DOBSON", "addr:country": "US", "addr:postcode": "27017", "addr:state": "NC", "addr:street_address": "214 W KAPP ST", "amenity": "post_box", "collection_times": "Mo-Fr 16:45; Sa 11:00", "note": "ON 12/24 AND 12/31, THIS BOX MAY BE COLLECTED AS EARLY AS 12 NOON.", "nsi_id": "unitedstatespostalservice-a77078", "operator": "United States Postal Service", "operator:short": "USPS", "operator:type": "public", "operator:wikidata": "Q668687", "ref": "2701700001"}, "type": "Feature"}
{"geometry": {"coordinates": [-80.724830338, 36.396003571], "type": "Point"}, "id": "Q0kPvxBkw1_8fdTmT3DHndhWVm8=", "properties": {"@source_uri": "https://tools.usps.com/UspsToolsRestServices/rest/POLocator/findLocations", "@spider": "usps_collection_boxes", "addr:city": "DOBSON", "addr:country": "US", "addr:postcode": "27017", "addr:state": "NC", "addr:street_address": "214 W KAPP ST", "amenity": "post_box", "collection_times": "Mo-Fr 16:45; Sa 11:00", "indoor": "yes", "note": "ON 12/24 AND 12/31, THIS BOX MAY BE COLLECTED AS EARLY AS 12 NOON.", "nsi_id": "unitedstatespostalservice-a77078", "operator": "United States Postal Service", "operator:short": "USPS", "operator:type": "public", "operator:wikidata": "Q668687", "ref": "2701700002"}, "type": "Feature"}
{"geometry": {"coordinates": [-80.724830338, 36.396003571], "type": "Point"}, "id": "BRid386IgokPST1EqYrLwgBDrgs=", "properties": {"@source_uri": "https://tools.usps.com/UspsToolsRestServices/rest/POLocator/findLocations", "@spider": "usps_collection_boxes", "addr:city": "DOBSON", "addr:country": "US", "addr:postcode": "27017", "addr:state": "NC", "addr:street_address": "214 W KAPP ST", "amenity": "post_box", "collection_times": "Mo-Fr 16:45; Sa 11:00", "indoor": "yes", "note": "ON 12/24 AND 12/31, THIS BOX MAY BE COLLECTED AS EARLY AS 12 NOON.", "nsi_id": "unitedstatespostalservice-a77078", "operator": "United States Postal Service", "operator:short": "USPS", "operator:type": "public", "operator:wikidata": "Q668687", "ref": "2701700003"}, "type": "Feature"}
{"geometry": {"coordinates": [-80.49648503, 36.217182743], "type": "Point"}, "id": "OnrQENQnj9DMinYSn6UBjeLEqW8=", "properties": {"@source_uri": "https://tools.usps.com/UspsToolsRestServices/rest/POLocator/findLocations", "@spider": "usps_collection_boxes", "addr:city": "EAST BEND", "addr:country": "US", "addr:postcode": "27018", "addr:state": "NC", "addr:street_address": "448 E MAIN ST", "amenity": "post_box", "collection_times": "Mo-Fr 16:15; Sa 10:30", "note": "ON 12/24 AND 12/31, THIS BOX MAY BE COLLECTED AS EARLY AS 12 NOON.", "nsi_id": "unitedstatespostalservice-a77078", "operator": "United States Postal Service", "operator:short": "USPS", "operator:type": "public", "operator:wikidata": "Q668687", "ref": "2701800001"}, "type": "Feature"}
{"geometry": {"coordinates": [-80.49648503, 36.217182743], "type": "Point"}, "id": "1OJS26EzTrC-nr7gDwUNIWVUHv8=", "properties": {"@source_uri": "https://tools.usps.com/UspsToolsRestServices/rest/POLocator/findLocations", "@spider": "usps_collection_boxes", "addr:city": "EAST BEND", "addr:country": "US", "addr:postcode": "27018", "addr:state": "NC", "addr:street_address": "448 E MAIN ST", "amenity": "post_box", "collection_times": "Mo-Fr 16:15; Sa 10:30", "indoor": "yes", "note": "ON 12/24 AND 12/31, THIS BOX MAY BE COLLECTED AS EARLY AS 12 NOON.", "nsi_id": "unitedstatespostalservice-a77078", "operator": "United States Postal Service", "operator:short": "USPS", "operator:type": "public", "operator:wikidata": "Q668687", "ref": "2701800002"}, "type": "Feature"}
{"geometry": {"coordinates": [-80.49648503, 36.217182743], "type": "Point"}, "id": "Tr2GdzF_pyeL2tA2NXltY7cwNFs=", "properties": {"@source_uri": "https://tools.usps.com/UspsToolsRestServices/rest/POLocator/findLocations", "@spider": "usps_collection_boxes", "addr:city": "EAST BEND", "addr:country": "US", "addr:postcode": "27018", "addr:state": "NC", "addr:street_address": "448 E MAIN ST", "amenity": "post_box", "collection_times": "Mo-Fr 16:30; Sa 10:30", "indoor": "yes", "note": "ON 12/24 AND 12/31, THIS BOX MAY BE COLLECTED AS EARLY AS 12 NOON.", "nsi_id": "unitedstatespostalservice-a77078", "operator": "United States Postal Service", "operator:short": "USPS", "operator:type": "public", "operator:wikidata": "Q668687", "ref": "2701800003"}, "type": "Feature"}
{"geometry": {"coordinates": [-80.220103334, 36.26566249], "type": "Point"}, "id": "sjKtgYxKb6A6T8snsbrkxlquF6o=", "properties": {"@source_uri": "https://tools.usps.com/UspsToolsRestServices/rest/POLocator/findLocations", "@spider": "usps_collection_boxes", "addr:city": "GERMANTON", "addr:country": "US", "addr:postcode": "27019", "addr:state": "NC", "addr:street_address": "3188 NC 65 HWY W", "amenity": "post_box", "collection_times": "Mo-Fr 16:15; Sa 10:45", "note": "ON 12/24 AND 12/31, THIS BOX MAY BE COLLECTED AS EARLY AS 12 NOON.", "nsi_id": "unitedstatespostalservice-a77078", "operator": "United States Postal Service", "operator:short": "USPS", "operator:type": "public", "operator:wikidata": "Q668687", "ref": "2701900001"}, "type": "Feature"}
{"geometry": {"coordinates": [-80.220103334, 36.26566249], "type": "Point"}, "id": "F_vTqzufhUW944yIQ4tTrimBpsU=", "properties": {"@source_uri": "https://tools.usps.com/UspsToolsRestServices/rest/POLocator/findLocations", "@spider": "usps_collection_boxes", "addr:city": "GERMANTON", "addr:country": "US", "addr:postcode": "27019", "addr:state": "NC", "addr:street_address": "3188 NC 65 HWY W", "amenity": "post_box", "collection_times": "Mo-Fr 16:15; Sa 10:45", "indoor": "yes", "note": "ON 12/24 AND 12/31, THIS BOX MAY BE COLLECTED AS EARLY AS 12 NOON.", "nsi_id": "unitedstatespostalservice-a77078", "operator": "United States Postal Service", "operator:short": "USPS", "operator:type": "public", "operator:wikidata": "Q668687", "ref": "2701900002"}, "type": "Feature"}
{"geometry": {"coordinates": [-80.220103334, 36.26566249], "type": "Point"}, "id": "5aUI98GfHkCKm4VgflYJUxH8iak=", "properties": {"@source_uri": "https://tools.usps.com/UspsToolsRestServices/rest/POLocator/findLocations", "@spider": "usps_collection_boxes", "addr:city": "GERMANTON", "addr:country": "US", "addr:postcode": "27019", "addr:state": "NC", "addr:street_address": "3188 NC 65 HWY W", "amenity": "post_box", "collection_times": "Mo-Fr 16:30; Sa 11:00", "indoor": "yes", "note": "ON 12/24 AND 12/31, THIS BOX MAY BE COLLECTED AS EARLY AS 12 NOON.", "nsi_id": "unitedstatespostalservice-a77078", "operator": "United States Postal Service", "operator:short": "USPS", "operator:type": "public", "operator:wikidata": "Q668687", "ref": "2701900003"}, "type": "Feature"}
{"geometry": {"coordinates": [-80.795449342, 36.117825272], "type": "Point"}, "id": "9i8JDZZ2wNaITre1UaNoseGPmv4=", "properties": {"@source_uri": "https://tools.usps.com/UspsToolsRestServices/rest/POLocator/findLocations", "@spider": "usps_collection_boxes", "addr:city": "HAMPTONVILLE", "addr:country": "US", "addr:postcode": "27020", "addr:state": "NC", "addr:street_address": "2943 ROCKY BRANCH RD", "amenity": "post_box", "collection_times": "Mo-Fr 16:00; Sa 11:00", "note": "ON 12/24 AND 12/31, THIS BOX MAY BE COLLECTED AS EARLY AS 12 NOON.", "nsi_id": "unitedstatespostalservice-a77078", "operator": "United States Postal Service", "operator:short": "USPS", "operator:type": "public", "operator:wikidata": "Q668687", "ref": "2702000001"}, "type": "Feature"}
{"geometry": {"coordinates": [-80.795449342, 36.117825272], "type": "Point"}, "id": "hHuKDJmX0InKV2bmOGqP5aX5FEg=", "properties": {"@source_uri": "https://tools.usps.com/UspsToolsRestServices/rest/POLocator/findLocations", "@spider": "usps_collection_boxes", "addr:city": "HAMPTONVILLE", "addr:country": "US", "addr:postcode": "27020", "addr:state": "NC", "addr:street_address": "2943 ROCKY BRANCH RD", "amenity": "post_box", "collection_times": "Mo-Fr 16:00; Sa 11:00", "indoor": "yes", "note": "ON 12/24 AND 12/31, THIS BOX MAY BE COLLECTED AS EARLY AS 12 NOON.", "nsi_id": "unitedstatespostalservice-a77078", "operator": "United States Postal Service", "operator:short": "USPS", "operator:type": "public", "operator:wikidata": "Q668687", "ref": "2702000002"}, "type": "Feature"}
{"geometry": {"coordinates": [-80.795449342, 36.117825272], "type": "Point"}, "id": "FOmGfGmoOIWMYygZZe38rvhB8zQ=", "properties": {"@source_uri": "https://tools.usps.com/UspsToolsRestServices/rest/POLocator/findLocations", "@spider": "usps_collection_boxes", "addr:city": "HAMPTONVILLE", "addr:country": "US", "addr:postcode": "27020", "addr:state": "NC", "addr:street_address": "2943 ROCKY BRANCH RD", "amenity": "post_box", "collection_times": "Mo-Fr 16:00; Sa 11:00", "indoor": "yes", "note": "ON 12/24 AND 12/31, THIS BOX MAY BE COLLECTED AS EARLY AS 12 NOON.", "nsi_id": "unitedstatespostalservice-a77078", "operator": "United States Postal Service", "operator:short": "USPS", "operator:type": "public", "operator:wikidata": "Q668687", "ref": "2702000003"}, "type": "Feature"}
{"geometry": {"coordinates": [-80.3598423807, 36.2794204291], "type": "Point"}, "id": "cyf53QKIU7yWePYFAGE4Dk8FTcg=", "properties": {"@source_uri": "https://tools.usps.com/UspsToolsRestServices/rest/POLocator/findLocations", "@spider": "usps_collection_boxes", "addr:city": "KING", "addr:country": "US", "addr:postcode": "27021", "addr:state": "NC", "addr:street_address": "228 S MAIN ST", "amenity": "post_box", "collection_times": "Mo-Sa 12:00", "nsi_id": "unitedstatespostalservice-a77078", "operator": "United States Postal Service", "operator:short": "USPS", "operator:type": "public", "operator:wikidata": "Q668687", "ref": "2702100004"}, "type": "Feature"}
{"geometry": {"coordinates": [-80.3610981, 36.262751], "type": "Point"}, "id": "7zwJRT5Bl6FnuLW4ri4Iibgavlg=", "properties": {"@source_uri": "https://tools.usps.com/UspsToolsRestServices/rest/POLocator/findLocations", "@spider": "usps_collection_boxes", "addr:city": "KING", "addr:country": "US", "addr:postcode": "27021", "addr:state": "NC", "addr:street_address": "735J S MAIN ST", "amenity": "post_box", "collection_times": "Mo-Sa 11:30", "nsi_id": "unitedstatespostalservice-a77078", "operator": "United States Postal Service", "operator:short": "USPS", "operator:type": "public", "operator:wikidata": "Q668687", "ref": "2702100007"}, "type": "Feature"}
{"geometry": {"coordinates": [-80.35935, 36.282005], "type": "Point"}, "id": "4eNKgUA30j69DW1NORlZrFQ5xyY=", "properties": {"@source_uri": "https://tools.usps.com/UspsToolsRestServices/rest/POLocator/findLocations", "@spider": "usps_collection_boxes", "addr:city": "KING", "addr:country": "US", "addr:postcode": "27021", "addr:state": "NC", "addr:street_address": "603 S MAIN ST", "amenity": "post_box", "collection_times": "Mo-Fr 16:15; Sa 11:45", "note": "ON 12/24 AND 12/31, THIS BOX MAY BE COLLECTED AS EARLY AS 12 NOON.", "nsi_id": "unitedstatespostalservice-a77078", "operator": "United States Postal Service", "operator:short": "USPS", "operator:type": "public", "operator:wikidata": "Q668687", "ref": "2702100009"}, "type": "Feature"}
{"geometry": {"coordinates": [-80.3293676, 36.300714], "type": "Point"}, "id": "Bz7A3g57uplXK62PsC_EKxAmvHI=", "properties": {"@source_uri": "https://tools.usps.com/UspsToolsRestServices/rest/POLocator/findLocations", "@spider": "usps_collection_boxes", "addr:city": "KING", "addr:country": "US", "addr:postcode": "27021", "addr:state": "NC", "addr:street_address": "525 MOUNTAINVIEW RD", "amenity": "post_box", "collection_times": "Mo-Sa 12:00", "nsi_id": "unitedstatespostalservice-a77078", "operator": "United States Postal Service", "operator:short": "USPS", "operator:type": "public", "operator:wikidata": "Q668687", "ref": "2702100010"}, "type": "Feature"}
{"geometry": {"coordinates": [-80.360598211, 36.266545478], "type": "Point"}, "id": "23qER3B2awZ4B-o_bWG5GWD16ak=", "properties": {"@source_uri": "https://tools.usps.com/UspsToolsRestServices/rest/POLocator/findLocations", "@spider": "usps_collection_boxes", "addr:city": "KING", "addr:country": "US", "addr:postcode": "27021", "addr:state": "NC", "addr:street_address": "603 S MAIN ST", "amenity": "post_box", "collection_times": "Mo-Fr 16:15; Sa 11:45", "indoor": "yes", "note": "ON 12/24 AND 12/31, THIS BOX MAY BE COLLECTED AS EARLY AS 12 NOON.", "nsi_id": "unitedstatespostalservice-a77078", "operator": "United States Postal Service", "operator:short": "USPS", "operator:type": "public", "operator:wikidata": "Q668687", "ref": "2702100012"}, "type": "Feature"}
{"geometry": {"coordinates": [-80.360598211, 36.266545478], "type": "Point"}, "id": "-RiqCvk_Tn670te6ae8t5j8B_Xg=", "properties": {"@source_uri": "https://tools.usps.com/UspsToolsRestServices/rest/POLocator/findLocations", "@spider": "usps_collection_boxes", "addr:city": "KING", "addr:country": "US", "addr:postcode": "27021", "addr:state": "NC", "addr:street_address": "603 S MAIN ST", "amenity": "post_box", "collection_times": "Mo-Fr 16:30; Sa 12:00", "indoor": "yes", "note": "ON 12/24 AND 12/31, THIS BOX MAY BE COLLECTED AS EARLY AS 12 NOON.", "nsi_id": "unitedstatespostalservice-a77078", "operator": "United States Postal Service", "operator:short": "USPS", "operator:type": "public", "operator:wikidata": "Q668687", "ref": "2702100015"}, "type": "Feature"}
{"geometry": {"coordinates": [-80.233032181, 36.489474973], "type": "Point"}, "id": "4UycAg9Nttb27hpCiZl41_sgExU=", "properties": {"@source_uri": "https://tools.usps.com/UspsToolsRestServices/rest/POLocator/findLocations", "@spider": "usps_collection_boxes", "addr:city": "LAWSONVILLE", "addr:country": "US", "addr:postcode": "27022", "addr:state": "NC", "addr:street_address": "3471 PINEY GROVE CHURCH RD", "amenity": "post_box", "collection_times": "Mo-Fr 16:00; Sa 11:30", "note": "ON 12/24 AND 12/31, THIS BOX MAY BE COLLECTED AS EARLY AS 12 NOON.", "nsi_id": "unitedstatespostalservice-a77078", "operator": "United States Postal Service", "operator:short": "USPS", "operator:type": "public", "operator:wikidata": "Q668687", "ref": "2702200002"}, "type": "Feature"}
{"geometry": {"coordinates": [-80.233032181, 36.489474973], "type": "Point"}, "id": "0n_pR6TSEXhr1HGAT_ZxSiEqmU4=", "properties": {"@source_uri": "https://tools.usps.com/UspsToolsRestServices/rest/POLocator/findLocations", "@spider": "usps_collection_boxes", "addr:city": "LAWSONVILLE", "addr:country": "US", "addr:postcode": "27022", "addr:state": "NC", "addr:street_address": "3471 PINEY GROVE CHURCH RD", "amenity": "post_box", "collection_times": "Mo-Fr 16:00; Sa 11:30", "indoor": "yes", "note": "ON 12/24 AND 12/31, THIS BOX MAY BE COLLECTED AS EARLY AS 12 NOON.", "nsi_id": "unitedstatespostalservice-a77078", "operator": "United States Postal Service", "operator:short": "USPS", "operator:type": "public", "operator:wikidata": "Q668687", "ref": "2702200004"}, "type": "Feature"}
{"geometry": {"coordinates": [-80.233032181, 36.489474973], "type": "Point"}, "id": "tZepkTkstcjlYkpg-xxWwl_ztGU=", "properties": {"@source_uri": "https://tools.usps.com/UspsToolsRestServices/rest/POLocator/findLocations", "@spider": "usps_collection_boxes", "addr:city": "LAWSONVILLE", "addr:country": "US", "addr:postcode": "27022", "addr:state": "NC", "addr:street_address": "3471 PINEY GROVE CHURCH RD", "amenity": "post_box", "collection_times": "Mo-Fr 16:00; Sa 11:30", "indoor": "yes", "note": "ON 12/24 AND 12/31, THIS BOX MAY BE COLLECTED AS EARLY AS 12 NOON.", "nsi_id": "unitedstatespostalservice-a77078", "operator": "United States Postal Service", "operator:short": "USPS", "operator:type": "public", "operator:wikidata": "Q668687", "ref": "2702200005"}, "type": "Feature"}
{"geometry": {"coordinates": [-80.4011067, 36.0909034], "type": "Point"}, "id": "JCS8pS9pWNI5r7TrZKM0KIJBlRw=", "properties": {"@source_uri": "https://tools.usps.com/UspsToolsRestServices/rest/POLocator/findLocations", "@spider": "usps_collection_boxes", "addr:city": "LEWISVILLE", "addr:country": "US", "addr:postcode": "27023", "addr:state": "NC", "addr:street_address": "7011 GREAT WAGON ROAD", "amenity": "post_box", "collection_times": "Mo-Fr 17:00; Sa 12:00", "note": "ON 12/24 AND 12/31, THIS BOX MAY BE COLLECTED AS EARLY AS 12 NOON.", "nsi_id": "unitedstatespostalservice-a77078", "operator": "United States Postal Service", "operator:short": "USPS", "operator:type": "public", "operator:wikidata": "Q668687", "ref": "2702300002"}, "type": "Feature"}
{"geometry": {"coordinates": [-80.4011067, 36.0909034], "type": "Point"}, "id": "L1BqWkHBiFaryIx7bAb5bzME8-8=", "properties": {"@source_uri": "https://tools.usps.com/UspsToolsRestServices/rest/POLocator/findLocations", "@spider": "usps_collection_boxes", "addr:city": "LEWISVILLE", "addr:country": "US", "addr:postcode": "27023", "addr:state": "NC", "addr:street_address": "7011 GREAT WAGON RD", "amenity": "post_box", "collection_times": "Mo-Fr 17:00; Sa 12:00", "indoor": "yes", "note": "ON 12/24 AND 12/31, THIS BOX MAY BE COLLECTED AS EARLY AS 12 NOON.", "nsi_id": "unitedstatespostalservice-a77078", "operator": "United States Postal Service", "operator:short": "USPS", "operator:type": "public", "operator:wikidata": "Q668687", "ref": "2702300004"}, "type": "Feature"}
{"geometry": {"coordinates": [-80.4011067, 36.0909034], "type": "Point"}, "id": "9LLD5TZtOQRLq1rIz89xjxFTWcw=", "properties": {"@source_uri": "https://tools.usps.com/UspsToolsRestServices/rest/POLocator/findLocations", "@spider": "usps_collection_boxes", "addr:city": "LEWISVILLE", "addr:country": "US", "addr:postcode": "27023", "addr:state": "NC", "addr:street_address": "7011 GREAT WAGON RD", "amenity": "post_box", "collection_times": "Mo-Fr 17:00; Sa 12:00", "indoor": "yes", "note": "ON 12/24 AND 12/31, THIS BOX MAY BE COLLECTED AS EARLY AS 12 NOON.", "nsi_id": "unitedstatespostalservice-a77078", "operator": "United States Postal Service", "operator:short": "USPS", "operator:type": "public", "operator:wikidata": "Q668687", "ref": "2702300008"}, "type": "Feature"}
{"geometry": {"coordinates": [-80.8680219, 36.5266744], "type": "Point"}, "id": "-e-wDgnSaXhgNM_0pyyEcjox77Y=", "properties": {"@source_uri": "https://tools.usps.com/UspsToolsRestServices/rest/POLocator/findLocations", "@spider": "usps_collection_boxes", "addr:city": "LOWGAP", "addr:country": "US", "addr:postcode": "27024", "addr:state": "NC", "addr:street_address": "8855 W PINE ST", "amenity": "post_box", "collection_times": "Mo-Fr 16:45; Sa 11:45", "note": "ON 12/24 AND 12/31, THIS BOX MAY BE COLLECTED AS EARLY AS 12 NOON.", "nsi_id": "unitedstatespostalservice-a77078", "operator": "United States Postal Service", "operator:short": "USPS", "operator:type": "public", "operator:wikidata": "Q668687", "ref": "2702400001"}, "type": "Feature"}
{"geometry": {"coordinates": [-80.866797098, 36.523039634], "type": "Point"}, "id": "JnmHupldxMuxsyBir9_-E1tTL6E=", "properties": {"@source_uri": "https://tools.usps.com/UspsToolsRestServices/rest/POLocator/findLocations", "@spider": "usps_collection_boxes", "addr:city": "LOWGAP", "addr:country": "US", "addr:postcode": "27024", "addr:state": "NC", "addr:street_address": "8855 W PINE ST", "amenity": "post_box", "collection_times": "Mo-Fr 16:45; Sa 11:45", "indoor": "yes", "note": "ON 12/24 AND 12/31, THIS BOX MAY BE COLLECTED AS EARLY AS 12 NOON.", "nsi_id": "unitedstatespostalservice-a77078", "operator": "United States Postal Service", "operator:short": "USPS", "operator:type": "public", "operator:wikidata": "Q668687", "ref": "2702400002"}, "type": "Feature"}
{"geometry": {"coordinates": [-80.866797098, 36.523039634], "type": "Point"}, "id": "sYhsWqdJE38MAk1hX-7lCx1PVus=", "properties": {"@source_uri": "https://tools.usps.com/UspsToolsRestServices/rest/POLocator/findLocations", "@spider": "usps_collection_boxes", "addr:city": "LOWGAP", "addr:country": "US", "addr:postcode": "27024", "addr:state": "NC", "addr:street_address": "8855 W PINE ST", "amenity": "post_box", "collection_times": "Mo-Fr 16:45; Sa 11:45", "indoor": "yes", "note": "ON 12/24 AND 12/31, THIS BOX MAY BE COLLECTED AS EARLY AS 12 NOON.", "nsi_id": "unitedstatespostalservice-a77078", "operator": "United States Postal Service", "operator:short": "USPS", "operator:type": "public", "operator:wikidata": "Q668687", "ref": "2702400003"}, "type": "Feature"}
{"geometry": {"coordinates": [-79.9596884, 36.387493], "type": "Point"}, "id": "ZdXLyWz9DA67oOCZYmEYOV-Gv58=", "properties": {"@source_uri": "https://tools.usps.com/UspsToolsRestServices/rest/POLocator/findLocations", "@spider": "usps_collection_boxes", "addr:city": "MADISON", "addr:country": "US", "addr:postcode": "27025", "addr:state": "NC", "addr:street_address": "100 S MARKET ST", "amenity": "post_box", "collection_times": "Mo-Fr 15:00; Sa 12:00", "note": "ON 12/24 AND 12/31, THIS BOX MAY BE COLLECTED AS EARLY AS 12 NOON.", "nsi_id": "unitedstatespostalservice-a77078", "operator": "United States Postal Service", "operator:short": "USPS", "operator:type": "public", "operator:wikidata": "Q668687", "ref": "2702500003"}, "type": "Feature"}
{"geometry": {"coordinates": [-79.968023, 36.390416], "type": "Point"}, "id": "dZfEuYEIv5p42kXlbn90HJd5OgU=", "properties": {"@source_uri": "https://tools.usps.com/UspsToolsRestServices/rest/POLocator/findLocations", "@spider": "usps_collection_boxes", "addr:city": "MADISON", "addr:country": "US", "addr:postcode": "27025", "addr:state": "NC", "addr:street_address": "302 HIGHWAY ST", "amenity": "post_box", "collection_times": "Mo-Fr 17:00; Sa 12:00", "note": "ON 12/24 AND 12/31, THIS BOX MAY BE COLLECTED AS EARLY AS 12 NOON.", "nsi_id": "unitedstatespostalservice-a77078", "operator": "United States Postal Service", "operator:short": "USPS", "operator:type": "public", "operator:wikidata": "Q668687", "ref": "2702500010"}, "type": "Feature"}
{"geometry": {"coordinates": [-79.9687621, 36.396658], "type": "Point"}, "id": "ta6Td740aSZYi5J_Si5jIpUvSy8=", "properties": {"@source_uri": "https://tools.usps.com/UspsToolsRestServices/rest/POLocator/findLocations", "@spider": "usps_collection_boxes", "addr:city": "MADISON", "addr:country": "US", "addr:postcode": "27025", "addr:state": "NC", "addr:street_address": "118 NEW MARKET", "amenity": "post_box", "collection_times": "Mo-Sa 10:30", "nsi_id": "unitedstatespostalservice-a77078", "operator": "United States Postal Service", "operator:short": "USPS", "operator:type": "public", "operator:wikidata": "Q668687", "ref": "2702500011"}, "type": "Feature"}
{"geometry": {"coordinates": [-79.968023, 36.390416], "type": "Point"}, "id": "XahniIujtV6vNEdED7RF3H8ZvNE=", "properties": {"@source_uri": "https://tools.usps.com/UspsToolsRestServices/rest/POLocator/findLocations", "@spider": "usps_collection_boxes", "addr:city": "MADISON", "addr:country": "US", "addr:postcode": "27025", "addr:state": "NC", "addr:street_address": "302 HIGHWAY ST", "amenity": "post_box", "collection_times": "Mo-Fr 17:00; Sa 12:00", "indoor": "yes", "note": "ON 12/24 AND 12/31, THIS BOX MAY BE COLLECTED AS EARLY AS 12 NOON.", "nsi_id": "unitedstatespostalservice-a77078", "operator": "United States Postal Service", "operator:short": "USPS", "operator:type": "public", "operator:wikidata": "Q668687", "ref": "2702500014"}, "type": "Feature"}
{"geometry": {"coordinates": [-79.968023047, 36.39040819], "type": "Point"}, "id": "N5ULNVemqiB6O4ThXHHmFNgFHw0=", "properties": {"@source_uri": "https://tools.usps.com/UspsToolsRestServices/rest/POLocator/findLocations", "@spider": "usps_collection_boxes", "addr:city": "MADISON", "addr:country": "US", "addr:postcode": "27025", "addr:state": "NC", "addr:street_address": "302 HIGHWAY ST STE 195", "amenity": "post_box", "collection_times": "Mo-Fr 17:00; Sa 12:00", "indoor": "yes", "note": "ON 12/24 AND 12/31, THIS BOX MAY BE COLLECTED AS EARLY AS 12 NOON.", "nsi_id": "unitedstatespostalservice-a77078", "operator": "United States Postal Service", "operator:short": "USPS", "operator:type": "public", "operator:wikidata": "Q668687", "ref": "2702500017"}, "type": "Feature"}
{"geometry": {"coordinates": [-79.976643214, 36.415035961], "type": "Point"}, "id": "3ZFD_3JpvEehL47wOPiKl6dr4J4=", "properties": {"@source_uri": "https://tools.usps.com/UspsToolsRestServices/rest/POLocator/findLocations", "@spider": "usps_collection_boxes", "addr:city": "MAYODAN", "addr:country": "US", "addr:postcode": "27027", "addr:state": "NC", "addr:street_address": "1000 W MAIN ST", "amenity": "post_box", "collection_times": "Mo-Fr 17:00; Sa 11:45", "note": "ON 12/24 AND 12/31, THIS BOX MAY BE COLLECTED AS EARLY AS 12 NOON.", "nsi_id": "unitedstatespostalservice-a77078", "operator": "United States Postal Service", "operator:short": "USPS", "operator:type": "public", "operator:wikidata": "Q668687", "ref": "2702700002"}, "type": "Feature"}
{"geometry": {"coordinates": [-79.976643214, 36.415035961], "type": "Point"}, "id": "LW3zL7woS87wEMon6TFcdbsiu2o=", "properties": {"@source_uri": "https://tools.usps.com/UspsToolsRestServices/rest/POLocator/findLocations", "@spider": "usps_collection_boxes", "addr:city": "MAYODAN", "addr:country": "US", "addr:postcode": "27027", "addr:state": "NC", "addr:street_address": "1000 W MAIN ST", "amenity": "post_box", "collection_times": "Mo-Fr 16:30; Sa 11:45", "indoor": "yes", "note": "ON 12/24 AND 12/31, THIS BOX MAY BE COLLECTED AS EARLY AS 12 NOON.", "nsi_id": "unitedstatespostalservice-a77078", "operator": "United States Postal Service", "operator:short": "USPS", "operator:type": "public", "operator:wikidata": "Q668687", "ref": "2702700007"}, "type": "Feature"}
{"geometry": {"coordinates": [-79.976643214, 36.415035961], "type": "Point"}, "id": "aAcreOIZg7p-_bQt-5ay3VBl_Bs=", "properties": {"@source_uri": "https://tools.usps.com/UspsToolsRestServices/rest/POLocator/findLocations", "@spider": "usps_collection_boxes", "addr:city": "MAYODAN", "addr:country": "US", "addr:postcode": "27027", "addr:state": "NC", "addr:street_address": "1000 W MAIN ST", "amenity": "post_box", "collection_times": "Mo-Fr 17:00; Sa 12:00", "indoor": "yes", "note": "ON 12/24 AND 12/31, THIS BOX MAY BE COLLECTED AS EARLY AS 12 NOON.", "nsi_id": "unitedstatespostalservice-a77078", "operator": "United States Postal Service", "operator:short": "USPS", "operator:type": "public", "operator:wikidata": "Q668687", "ref": "2702700009"}, "type": "Feature"}
{"geometry": {"coordinates": [-80.5790810103, 35.9127050014], "type": "Point"}, "id": "9meuyYghA3hqv6zFKs5bbB73Rx4=", "properties": {"@source_uri": "https://tools.usps.com/UspsToolsRestServices/rest/POLocator/findLocations", "@spider": "usps_collection_boxes", "addr:city": "MOCKSVILLE", "addr:country": "US", "addr:postcode": "27028", "addr:state": "NC", "addr:street_address": "1119 YADKINVILLE RD", "amenity": "post_box", "collection_times": "Mo-Fr 17:00; Sa 15:00", "note": "ON 12/24 AND 12/31, THIS BOX MAY BE COLLECTED AS EARLY AS 12 NOON.", "nsi_id": "unitedstatespostalservice-a77078", "operator": "United States Postal Service", "operator:short": "USPS", "operator:type": "public", "operator:wikidata": "Q668687", "ref": "2702800007"}, "type": "Feature"}
{"geometry": {"coordinates": [-80.5708066, 35.899253], "type": "Point"}, "id": "CFBNTncLckcmY05mk7YL7obwHCY=", "properties": {"@source_uri": "https://tools.usps.com/UspsToolsRestServices/rest/POLocator/findLocations", "@spider": "usps_collection_boxes", "addr:city": "MOCKSVILLE", "addr:country": "US", "addr:postcode": "27028", "addr:state": "NC", "addr:street_address": "210 HOSPITAL ST", "amenity": "post_box", "collection_times": "Mo-Sa 14:00", "note": "ON 12/24 AND 12/31, THIS BOX MAY BE COLLECTED AS EARLY AS 12 NOON.", "nsi_id": "unitedstatespostalservice-a77078", "operator": "United States Postal Service", "operator:short": "USPS", "operator:type": "public", "operator:wikidata": "Q668687", "ref": "2702800014"}, "type": "Feature"}
{"geometry": {"coordinates": [-80.58046504, 35.912284675], "type": "Point"}, "id": "GL0uajA5Crk69n7Fz4UYmE8Boxw=", "properties": {"@source_uri": "https://tools.usps.com/UspsToolsRestServices/rest/POLocator/findLocations", "@spider": "usps_collection_boxes", "addr:city": "MOCKSVILLE", "addr:country": "US", "addr:postcode": "27028", "addr:state": "NC", "addr:street_address": "1119 YADKINVILLE RD", "amenity": "post_box", "collection_times": "Mo-Fr 17:00; Sa 15:00", "indoor": "yes", "note": "ON 12/24 AND 12/31, THIS BOX MAY BE COLLECTED AS EARLY AS 12 NOON.", "nsi_id": "unitedstatespostalservice-a77078", "operator": "United States Postal Service", "operator:short": "USPS", "operator:type": "public", "operator:wikidata": "Q668687", "ref": "2702800017"}, "type": "Feature"}
{"geometry": {"coordinates": [-80.5617314, 35.893708], "type": "Point"}, "id": "kbig5AUq7J0dhg6sUWrfDQut8Jc=", "properties": {"@source_uri": "https://tools.usps.com/UspsToolsRestServices/rest/POLocator/findLocations", "@spider": "usps_collection_boxes", "addr:city": "MOCKSVILLE", "addr:country": "US", "addr:postcode": "27028", "addr:state": "NC", "addr:street_address": "140 S MAIN ST", "amenity": "post_box", "collection_times": "Mo-Sa 14:00", "note": "ON 12/24 AND 12/31, THIS BOX MAY BE COLLECTED AS EARLY AS 12 NOON.", "nsi_id": "unitedstatespostalservice-a77078", "operator": "United States Postal Service", "operator:short": "USPS", "operator:type": "public", "operator:wikidata": "Q668687", "ref": "2702800018"}, "type": "Feature"}
{"geometry": {"coordinates": [-80.5885657, 35.927247], "type": "Point"}, "id": "UN_iI69ohQjsMa-nZjoLAF3OMA8=", "properties": {"@source_uri": "https://tools.usps.com/UspsToolsRestServices/rest/POLocator/findLocations", "@spider": "usps_collection_boxes", "addr:city": "MOCKSVILLE", "addr:country": "US", "addr:postcode": "27028", "addr:state": "NC", "addr:street_address": "261 COOPER CREEK DR", "amenity": "post_box", "collection_times": "Mo-Sa 11:00", "nsi_id": "unitedstatespostalservice-a77078", "operator": "United States Postal Service", "operator:short": "USPS", "operator:type": "public", "operator:wikidata": "Q668687", "ref": "2702800019"}, "type": "Feature"}
{"geometry": {"coordinates": [-80.5629073, 35.892974], "type": "Point"}, "id": "pHKwCqrzMhgkYfjtN7PBs6XUFWQ=", "properties": {"@source_uri": "https://tools.usps.com/UspsToolsRestServices/rest/POLocator/findLocations", "@spider": "usps_collection_boxes", "addr:city": "MOCKSVILLE", "addr:country": "US", "addr:postcode": "27028", "addr:state": "NC", "addr:street_address": "254 W WATER ST", "amenity": "post_box", "collection_times": "Mo-Sa 14:00", "note": "ON 12/24 AND 12/31, THIS BOX MAY BE COLLECTED AS EARLY AS 12 NOON.", "nsi_id": "unitedstatespostalservice-a77078", "operator": "United States Postal Service", "operator:short": "USPS", "operator:type": "public", "operator:wikidata": "Q668687", "ref": "2702800020"}, "type": "Feature"}
{"geometry": {"coordinates": [-80.58046504, 35.912284675], "type": "Point"}, "id": "fP6Dz1LTTr8NglfTCFXeEsam1yU=", "properties": {"@source_uri": "https://tools.usps.com/UspsToolsRestServices/rest/POLocator/findLocations", "@spider": "usps_collection_boxes", "addr:city": "MOCKSVILLE", "addr:country": "US", "addr:postcode": "27028", "addr:state": "NC", "addr:street_address": "1119 YADKINVILLE RD", "amenity": "post_box", "collection_times": "Mo-Fr 17:00", "indoor": "yes", "note": "ON 12/24 AND 12/31, THIS BOX MAY BE COLLECTED AS EARLY AS 12 NOON.", "nsi_id": "unitedstatespostalservice-a77078", "operator": "United States Postal Service", "operator:short": "USPS", "operator:type": "public", "operator:wikidata": "Q668687", "ref": "2702800022"}, "type": "Feature"}
{"geometry": {"coordinates": [-80.606861615, 36.499088137], "type": "Point"}, "id": "RoukkzLq6ErrQzjIQfSP4CI662Y=", "properties": {"@source_uri": "https://tools.usps.com/UspsToolsRestServices/rest/POLocator/findLocations", "@spider": "usps_collection_boxes", "addr:city": "MOUNT AIRY", "addr:country": "US", "addr:postcode": "27030", "addr:state": "NC", "addr:street_address": "111 S MAIN ST", "amenity": "post_box", "collection_times": "Mo-Fr 17:00; Sa 14:30", "note": "ON 12/24 AND 12/31, THIS BOX MAY BE COLLECTED AS EARLY AS 12 NOON.", "nsi_id": "unitedstatespostalservice-a77078", "operator": "United States Postal Service", "operator:short": "USPS", "operator:type": "public", "operator:wikidata": "Q668687", "ref": "2703000001"}, "type": "Feature"}
{"geometry": {"coordinates": [-80.6078418, 36.500965], "type": "Point"}, "id": "BDVqpyjWaLVkIiUSRUHwG8gCcro=", "properties": {"@source_uri": "https://tools.usps.com/UspsToolsRestServices/rest/POLocator/findLocations", "@spider": "usps_collection_boxes", "addr:city": "MOUNT AIRY", "addr:country": "US", "addr:postcode": "27030", "addr:state": "NC", "addr:street_address": "200 N MAIN ST", "amenity": "post_box", "collection_times": "Mo-Sa 12:30", "note": "ON 12/24 AND 12/31, THIS BOX MAY BE COLLECTED AS EARLY AS 12 NOON.", "nsi_id": "unitedstatespostalservice-a77078", "operator": "United States Postal Service", "operator:short": "USPS", "operator:type": "public", "operator:wikidata": "Q668687", "ref": "2703000004"}, "type": "Feature"}
{"geometry": {"coordinates": [-80.6087472, 36.502941], "type": "Point"}, "id": "SlSwV0IvhTkEA0H87xelbl5QESQ=", "properties": {"@source_uri": "https://tools.usps.com/UspsToolsRestServices/rest/POLocator/findLocations", "@spider": "usps_collection_boxes", "addr:city": "MOUNT AIRY", "addr:country": "US", "addr:postcode": "27030", "addr:state": "NC", "addr:street_address": "457 N MAIN ST", "amenity": "post_box", "collection_times": "Mo-Sa 11:30", "nsi_id": "unitedstatespostalservice-a77078", "operator": "United States Postal Service", "operator:short": "USPS", "operator:type": "public", "operator:wikidata": "Q668687", "ref": "2703000010"}, "type": "Feature"}
{"geometry": {"coordinates": [-80.6221531, 36.505617], "type": "Point"}, "id": "azsHl3R4agsVAGRpqkYoAJPtAwY=", "properties": {"@source_uri": "https://tools.usps.com/UspsToolsRestServices/rest/POLocator/findLocations", "@spider": "usps_collection_boxes", "addr:city": "MOUNT AIRY", "addr:country": "US", "addr:postcode": "27030", "addr:state": "NC", "addr:street_address": "70 MAYBERRY MALL", "amenity": "post_box", "collection_times": "Mo-Sa 12:30", "note": "ON 12/24 AND 12/31, THIS BOX MAY BE COLLECTED AS EARLY AS 12 NOON.", "nsi_id": "unitedstatespostalservice-a77078", "operator": "United States Postal Service", "operator:short": "USPS", "operator:type": "public", "operator:wikidata": "Q668687", "ref": "2703000017"}, "type": "Feature"}
{"geometry": {"coordinates": [-80.611463, 36.488523], "type": "Point"}, "id": "xbddzXZcXTVgAHLlqLoWY68BBjY=", "properties": {"@source_uri": "https://tools.usps.com/UspsToolsRestServices/rest/POLocator/findLocations", "@spider": "usps_collection_boxes", "addr:city": "MOUNT AIRY", "addr:country": "US", "addr:postcode": "27030", "addr:state": "NC", "addr:street_address": "830 ROCKFORD ST", "amenity": "post_box", "collection_times": "Mo-Fr 14:30; Sa 13:30", "note": "ON 12/24 AND 12/31, THIS BOX MAY BE COLLECTED AS EARLY AS 12 NOON.", "nsi_id": "unitedstatespostalservice-a77078", "operator": "United States Postal Service", "operator:short": "USPS", "operator:type": "public", "operator:wikidata": "Q668687", "ref": "2703000020"}, "type": "Feature"}
{"geometry": {"coordinates": [-80.6138673, 36.48252], "type": "Point"}, "id": "j_lc2PK8u64u12FK5b8Y0AyLZ20=", "properties": {"@source_uri": "https://tools.usps.com/UspsToolsRestServices/rest/POLocator/findLocations", "@spider": "usps_collection_boxes", "addr:city": "MOUNT AIRY", "addr:country": "US", "addr:postcode": "27030", "addr:state": "NC", "addr:street_address": "1949 ROCKFORD ST", "amenity": "post_box", "collection_times": "Mo-Fr 13:00; Sa 12:00", "note": "ON 12/24 AND 12/31, THIS BOX MAY BE COLLECTED AS EARLY AS 12 NOON.", "nsi_id": "unitedstatespostalservice-a77078", "operator": "United States Postal Service", "operator:short": "USPS", "operator:type": "public", "operator:wikidata": "Q668687", "ref": "2703000023"}, "type": "Feature"}
{"geometry": {"coordinates": [-80.6170917, 36.475909], "type": "Point"}, "id": "ZOCFl1Z8OeERthObu_OFpHYk8fg=", "properties": {"@source_uri": "https://tools.usps.com/UspsToolsRestServices/rest/POLocator/findLocations", "@spider": "usps_collection_boxes", "addr:city": "MOUNT AIRY", "addr:country": "US", "addr:postcode": "27030", "addr:state": "NC", "addr:street_address": "2133 ROCKFORD ST", "amenity": "post_box", "collection_times": "Mo-Fr 12:30; Sa 12:00", "note": "ON 12/24 AND 12/31, THIS BOX MAY BE COLLECTED AS EARLY AS 12 NOON.", "nsi_id": "unitedstatespostalservice-a77078", "operator": "United States Postal Service", "operator:short": "USPS", "operator:type": "public", "operator:wikidata": "Q668687", "ref": "2703000026"}, "type": "Feature"}
{"geometry": {"coordinates": [-80.5915687, 36.487022], "type": "Point"}, "id": "62mZayiI2wu5cYG_ljP-r3zVEF8=", "properties": {"@source_uri": "https://tools.usps.com/UspsToolsRestServices/rest/POLocator/findLocations", "@spider": "usps_collection_boxes", "addr:city": "MOUNT AIRY", "addr:country": "US", "addr:postcode": "27030", "addr:state": "NC", "addr:street_address": "1645 S MAIN ST", "amenity": "post_box", "collection_times": "Mo-Sa 13:30", "note": "ON 12/24 AND 12/31, THIS BOX MAY BE COLLECTED AS EARLY AS 12 NOON.", "nsi_id": "unitedstatespostalservice-a77078", "operator": "United States Postal Service", "operator:short": "USPS", "operator:type": "public", "operator:wikidata": "Q668687", "ref": "2703000027"}, "type": "Feature"}
{"geometry": {"coordinates": [-80.606861615, 36.499088137], "type": "Point"}, "id": "VLXnUtjScZzuoxSvdmj8Wm1N7tI=", "properties": {"@source_uri": "https://tools.usps.com/UspsToolsRestServices/rest/POLocator/findLocations", "@spider": "usps_collection_boxes", "addr:city": "MOUNT AIRY", "addr:country": "US", "addr:postcode": "27030", "addr:state": "NC", "addr:street_address": "111 S MAIN ST", "amenity": "post_box", "collection_times": "Mo-Fr 17:00", "indoor": "yes", "note": "ON 12/24 AND 12/31, THIS BOX MAY BE COLLECTED AS EARLY AS 12 NOON.", "nsi_id": "unitedstatespostalservice-a77078", "operator": "United States Postal Service", "operator:short": "USPS", "operator:type": "public", "operator:wikidata": "Q668687", "ref": "2703000035"}, "type": "Feature"}
{"geometry": {"coordinates": [-80.6035199, 36.523208], "type": "Point"}, "id": "FptjNu0HD0US1HfZjOzkrPmo9rk=", "properties": {"@source_uri": "https://tools.usps.com/UspsToolsRestServices/rest/POLocator/findLocations", "@spider": "usps_collection_boxes", "addr:city": "MOUNT AIRY", "addr:country": "US", "addr:postcode": "27030", "addr:state": "NC", "addr:street_address": "1910 N MAIN ST", "amenity": "post_box", "collection_times": "Mo-Sa 13:30", "note": "ON 12/24 AND 12/31, THIS BOX MAY BE COLLECTED AS EARLY AS 12 NOON.", "nsi_id": "unitedstatespostalservice-a77078", "operator": "United States Postal Service", "operator:short": "USPS", "operator:type": "public", "operator:wikidata": "Q668687", "ref": "2703000036"}, "type": "Feature"}
{"geometry": {"coordinates": [-80.6171481, 36.485893], "type": "Point"}, "id": "5n42ZL0ZqB41Y0XcICXT1AhR87U=", "properties": {"@source_uri": "https://tools.usps.com/UspsToolsRestServices/rest/POLocator/findLocations", "@spider": "usps_collection_boxes", "addr:city": "MOUNT AIRY", "addr:country": "US", "addr:postcode": "27030", "addr:state": "NC", "addr:street_address": "692 S ANDY GRIFFITH PKWY", "amenity": "post_box", "collection_times": "Mo-Sa 13:30", "note": "ON 12/24 AND 12/31, THIS BOX MAY BE COLLECTED AS EARLY AS 12 NOON.", "nsi_id": "unitedstatespostalservice-a77078", "operator": "United States Postal Service", "operator:short": "USPS", "operator:type": "public", "operator:wikidata": "Q668687", "ref": "2703000037"}, "type": "Feature"}
{"geometry": {"coordinates": [-80.606861615, 36.499088137], "type": "Point"}, "id": "ylwYb62BqyZk4BAvmjeytjp4N7k=", "properties": {"@source_uri": "https://tools.usps.com/UspsToolsRestServices/rest/POLocator/findLocations", "@spider": "usps_collection_boxes", "addr:city": "MOUNT AIRY", "addr:country": "US", "addr:postcode": "27030", "addr:state": "NC", "addr:street_address": "111 S MAIN ST", "amenity": "post_box", "collection_times": "Mo-Fr 16:30", "indoor": "yes", "note": "ON 12/24 AND 12/31, THIS BOX MAY BE COLLECTED AS EARLY AS 12 NOON.", "nsi_id": "unitedstatespostalservice-a77078", "operator": "United States Postal Service", "operator:short": "USPS", "operator:type": "public", "operator:wikidata": "Q668687", "ref": "2703000039"}, "type": "Feature"}
{"geometry": {"coordinates": [-80.3614441327, 36.1528112601], "type": "Point"}, "id": "cla74JBTo_xO9W5ntivoPfkbgDM=", "properties": {"@source_uri": "https://tools.usps.com/UspsToolsRestServices/rest/POLocator/findLocations", "@spider": "usps_collection_boxes", "addr:city": "PFAFFTOWN", "addr:country": "US", "addr:postcode": "27040", "addr:state": "NC", "addr:street_address": "4715 YADKINVILLE RD", "amenity": "post_box", "collection_times": "Mo-Fr 15:45; Sa 10:45", "note": "ON 12/24 AND 12/31, THIS BOX MAY BE COLLECTED AS EARLY AS 12 NOON.", "nsi_id": "unitedstatespostalservice-a77078", "operator": "United States Postal Service", "operator:short": "USPS", "operator:type": "public", "operator:wikidata": "Q668687", "ref": "2704000001"}, "type": "Feature"}
{"geometry": {"coordinates": [-80.361444133, 36.15280226], "type": "Point"}, "id": "g1d7r8Nsoy4NUtGOeixtA2DPg_Y=", "properties": {"@source_uri": "https://tools.usps.com/UspsToolsRestServices/rest/POLocator/findLocations", "@spider": "usps_collection_boxes", "addr:city": "PFAFFTOWN", "addr:country": "US", "addr:postcode": "27040", "addr:state": "NC", "addr:street_address": "4715 YADKINVILLE RD", "amenity": "post_box", "collection_times": "Mo-Fr 15:45; Sa 10:45", "indoor": "yes", "note": "ON 12/24 AND 12/31, THIS BOX MAY BE COLLECTED AS EARLY AS 12 NOON.", "nsi_id": "unitedstatespostalservice-a77078", "operator": "United States Postal Service", "operator:short": "USPS", "operator:type": "public", "operator:wikidata": "Q668687", "ref": "2704000002"}, "type": "Feature"}
{"geometry": {"coordinates": [-80.361444133, 36.15280226], "type": "Point"}, "id": "IrqJP18b0fTRqr6BSi6hdNrBIo4=", "properties": {"@source_uri": "https://tools.usps.com/UspsToolsRestServices/rest/POLocator/findLocations", "@spider": "usps_collection_boxes", "addr:city": "PFAFFTOWN", "addr:country": "US", "addr:postcode": "27040", "addr:state": "NC", "addr:street_address": "4715 YADKINVILLE RD", "amenity": "post_box", "collection_times": "Mo-Fr 16:00; Sa 11:00", "indoor": "yes", "note": "ON 12/24 AND 12/31, THIS BOX MAY BE COLLECTED AS EARLY AS 12 NOON.", "nsi_id": "unitedstatespostalservice-a77078", "operator": "United States Postal Service", "operator:short": "USPS", "operator:type": "public", "operator:wikidata": "Q668687", "ref": "2704000003"}, "type": "Feature"}
{"geometry": {"coordinates": [-80.479074855, 36.379141863], "type": "Point"}, "id": "kXjiPmIN5hRou35wkIAOZ2NxgIc=", "properties": {"@source_uri": "https://tools.usps.com/UspsToolsRestServices/rest/POLocator/findLocations", "@spider": "usps_collection_boxes", "addr:city": "PILOT MOUNTAIN", "addr:country": "US", "addr:postcode": "27041", "addr:state": "NC", "addr:street_address": "647K S KEY ST", "amenity": "post_box", "collection_times": "Mo-Fr 16:30; Sa 12:00", "note": "ON 12/24 AND 12/31, THIS BOX MAY BE COLLECTED AS EARLY AS 12 NOON.", "nsi_id": "unitedstatespostalservice-a77078", "operator": "United States Postal Service", "operator:short": "USPS", "operator:type": "public", "operator:wikidata": "Q668687", "ref": "2704100003"}, "type": "Feature"}
{"geometry": {"coordinates": [-80.4683726, 36.385539], "type": "Point"}, "id": "QiBqHKCcl4JFWL_nyvEmeXyAP8g=", "properties": {"@source_uri": "https://tools.usps.com/UspsToolsRestServices/rest/POLocator/findLocations", "@spider": "usps_collection_boxes", "addr:city": "PILOT MOUNTAIN", "addr:country": "US", "addr:postcode": "27041", "addr:state": "NC", "addr:street_address": "124 W MAIN ST", "amenity": "post_box", "collection_times": "Mo-Sa 12:00", "nsi_id": "unitedstatespostalservice-a77078", "operator": "United States Postal Service", "operator:short": "USPS", "operator:type": "public", "operator:wikidata": "Q668687", "ref": "2704100005"}, "type": "Feature"}
{"geometry": {"coordinates": [-80.479074855, 36.379141863], "type": "Point"}, "id": "QpdJdPTuBH9CT7CHlc-CY2IZKwg=", "properties": {"@source_uri": "https://tools.usps.com/UspsToolsRestServices/rest/POLocator/findLocations", "@spider": "usps_collection_boxes", "addr:city": "PILOT MOUNTAIN", "addr:country": "US", "addr:postcode": "27041", "addr:state": "NC", "addr:street_address": "647K S KEY ST", "amenity": "post_box", "collection_times": "Mo-Fr 16:30; Sa 12:00", "indoor": "yes", "note": "ON 12/24 AND 12/31, THIS BOX MAY BE COLLECTED AS EARLY AS 12 NOON.", "nsi_id": "unitedstatespostalservice-a77078", "operator": "United States Postal Service", "operator:short": "USPS", "operator:type": "public", "operator:wikidata": "Q668687", "ref": "2704100006"}, "type": "Feature"}
{"geometry": {"coordinates": [-80.479074855, 36.379141863], "type": "Point"}, "id": "1aTZzyDf-7NpY6dOh6dNr4cClTc=", "properties": {"@source_uri": "https://tools.usps.com/UspsToolsRestServices/rest/POLocator/findLocations", "@spider": "usps_collection_boxes", "addr:city": "PILOT MOUNTAIN", "addr:country": "US", "addr:postcode": "27041", "addr:state": "NC", "addr:street_address": "647K S KEY ST", "amenity": "post_box", "collection_times": "Mo-Fr 16:30; Sa 12:00", "indoor": "yes", "note": "ON 12/24 AND 12/31, THIS BOX MAY BE COLLECTED AS EARLY AS 12 NOON.", "nsi_id": "unitedstatespostalservice-a77078", "operator": "United States Postal Service", "operator:short": "USPS", "operator:type": "public", "operator:wikidata": "Q668687", "ref": "2704100009"}, "type": "Feature"}
{"geometry": {"coordinates": [-80.050732563, 36.320856841], "type": "Point"}, "id": "UgP0idq4zxm3VzPLFU3dH3xDt6s=", "properties": {"@source_uri": "https://tools.usps.com/UspsToolsRestServices/rest/POLocator/findLocations", "@spider": "usps_collection_boxes", "addr:city": "PINE HALL", "addr:country": "US", "addr:postcode": "27042", "addr:state": "NC", "addr:street_address": "1716 PINE HALL RD", "amenity": "post_box", "collection_times": "Mo-Fr 16:15; Sa 11:15", "note": "ON 12/24 AND 12/31, THIS BOX MAY BE COLLECTED AS EARLY AS 12 NOON.", "nsi_id": "unitedstatespostalservice-a77078", "operator": "United States Postal Service", "operator:short": "USPS", "operator:type": "public", "operator:wikidata": "Q668687", "ref": "2704200001"}, "type": "Feature"}
{"geometry": {"coordinates": [-80.050732563, 36.320856841], "type": "Point"}, "id": "AasYRTTObIirxajfhem8hV0PBro=", "properties": {"@source_uri": "https://tools.usps.com/UspsToolsRestServices/rest/POLocator/findLocations", "@spider": "usps_collection_boxes", "addr:city": "PINE HALL", "addr:country": "US", "addr:postcode": "27042", "addr:state": "NC", "addr:street_address": "1716 PINE HALL RD", "amenity": "post_box", "collection_times": "Mo-Fr 16:15; Sa 11:15", "indoor": "yes", "note": "ON 12/24 AND 12/31, THIS BOX MAY BE COLLECTED AS EARLY AS 12 NOON.", "nsi_id": "unitedstatespostalservice-a77078", "operator": "United States Postal Service", "operator:short": "USPS", "operator:type": "public", "operator:wikidata": "Q668687", "ref": "2704200002"}, "type": "Feature"}
{"geometry": {"coordinates": [-80.050732563, 36.320856841], "type": "Point"}, "id": "OrQ0Jw24BrNJQZiT8QHUohEHH2A=", "properties": {"@source_uri": "https://tools.usps.com/UspsToolsRestServices/rest/POLocator/findLocations", "@spider": "usps_collection_boxes", "addr:city": "PINE HALL", "addr:country": "US", "addr:postcode": "27042", "addr:state": "NC", "addr:street_address": "1716 PINE HALL RD", "amenity": "post_box", "collection_times": "Mo-Fr 16:30; Sa 11:30", "indoor": "yes", "note": "ON 12/24 AND 12/31, THIS BOX MAY BE COLLECTED AS EARLY AS 12 NOON.", "nsi_id": "unitedstatespostalservice-a77078", "operator": "United States Postal Service", "operator:short": "USPS", "operator:type": "public", "operator:wikidata": "Q668687", "ref": "2704200003"}, "type": "Feature"}
{"geometry": {"coordinates": [-80.434916626, 36.331197253], "type": "Point"}, "id": "LJk_gs748GTeqHWWKoeB3hBlVgI=", "properties": {"@source_uri": "https://tools.usps.com/UspsToolsRestServices/rest/POLocator/findLocations", "@spider": "usps_collection_boxes", "addr:city": "PINNACLE", "addr:country": "US", "addr:postcode": "27043", "addr:state": "NC", "addr:street_address": "2870 N OLD 52 RD", "amenity": "post_box", "collection_times": "Mo-Fr 16:15; Sa 11:15", "note": "ON 12/24 AND 12/31, THIS BOX MAY BE COLLECTED AS EARLY AS 12 NOON.", "nsi_id": "unitedstatespostalservice-a77078", "operator": "United States Postal Service", "operator:short": "USPS", "operator:type": "public", "operator:wikidata": "Q668687", "ref": "2704300001"}, "type": "Feature"}
{"geometry": {"coordinates": [-80.434916626, 36.331197253], "type": "Point"}, "id": "7ojN8ggP082Zd9KFlb_sSsbR46s=", "properties": {"@source_uri": "https://tools.usps.com/UspsToolsRestServices/rest/POLocator/findLocations", "@spider": "usps_collection_boxes", "addr:city": "PINNACLE", "addr:country": "US", "addr:postcode": "27043", "addr:state": "NC", "addr:street_address": "2870 N OLD 52 RD", "amenity": "post_box", "collection_times": "Mo-Fr 16:15; Sa 11:15", "indoor": "yes", "note": "ON 12/24 AND 12/31, THIS BOX MAY BE COLLECTED AS EARLY AS 12 NOON.", "nsi_id": "unitedstatespostalservice-a77078", "operator": "United States Postal Service", "operator:short": "USPS", "operator:type": "public", "operator:wikidata": "Q668687", "ref": "2704300003"}, "type": "Feature"}
{"geometry": {"coordinates": [-80.434916626, 36.331197253], "type": "Point"}, "id": "rQ9EZdS68g1IdURHVfp_s8U0ZM8=", "properties": {"@source_uri": "https://tools.usps.com/UspsToolsRestServices/rest/POLocator/findLocations", "@spider": "usps_collection_boxes", "addr:city": "PINNACLE", "addr:country": "US", "addr:postcode": "27043", "addr:state": "NC", "addr:street_address": "2870 N OLD 52 RD", "amenity": "post_box", "collection_times": "Mo-Fr 16:30; Sa 11:30", "indoor": "yes", "note": "ON 12/24 AND 12/31, THIS BOX MAY BE COLLECTED AS EARLY AS 12 NOON.", "nsi_id": "unitedstatespostalservice-a77078", "operator": "United States Postal Service", "operator:short": "USPS", "operator:type": "public", "operator:wikidata": "Q668687", "ref": "2704300004"}, "type": "Feature"}
{"geometry": {"coordinates": [-80.296786605, 36.24372663], "type": "Point"}, "id": "A2TWXiPZ8mgvkjXbAYj2vZ8js1I=", "properties": {"@source_uri": "https://tools.usps.com/UspsToolsRestServices/rest/POLocator/findLocations", "@spider": "usps_collection_boxes", "addr:city": "RURAL HALL", "addr:country": "US", "addr:postcode": "27045", "addr:state": "NC", "addr:street_address": "8201 BROAD ST", "amenity": "post_box", "collection_times": "Mo-Fr 16:15; Sa 11:45", "note": "ON 12/24 AND 12/31, THIS BOX MAY BE COLLECTED AS EARLY AS 12 NOON.", "nsi_id": "unitedstatespostalservice-a77078", "operator": "United States Postal Service", "operator:short": "USPS", "operator:type": "public", "operator:wikidata": "Q668687", "ref": "2704500002"}, "type": "Feature"}
{"geometry": {"coordinates": [-80.296786605, 36.24372663], "type": "Point"}, "id": "hxZxtf0Q8OE4TjBD50ob7hls_Lo=", "properties": {"@source_uri": "https://tools.usps.com/UspsToolsRestServices/rest/POLocator/findLocations", "@spider": "usps_collection_boxes", "addr:city": "RURAL HALL", "addr:country": "US", "addr:postcode": "27045", "addr:state": "NC", "addr:street_address": "8201 BROAD ST", "amenity": "post_box", "collection_times": "Mo-Fr 16:30; Sa 12:00", "indoor": "yes", "note": "ON 12/24 AND 12/31, THIS BOX MAY BE COLLECTED AS EARLY AS 12 NOON.", "nsi_id": "unitedstatespostalservice-a77078", "operator": "United States Postal Service", "operator:short": "USPS", "operator:type": "public", "operator:wikidata": "Q668687", "ref": "2704500004"}, "type": "Feature"}
{"geometry": {"coordinates": [-80.296786605, 36.24372663], "type": "Point"}, "id": "1dsE2rpgLrPWXL7pJIMJpY4EKNU=", "properties": {"@source_uri": "https://tools.usps.com/UspsToolsRestServices/rest/POLocator/findLocations", "@spider": "usps_collection_boxes", "addr:city": "RURAL HALL", "addr:country": "US", "addr:postcode": "27045", "addr:state": "NC", "addr:street_address": "8201 BROAD ST", "amenity": "post_box", "collection_times": "Mo-Fr 16:30; Sa 12:00", "indoor": "yes", "note": "ON 12/24 AND 12/31, THIS BOX MAY BE COLLECTED AS EARLY AS 12 NOON.", "nsi_id": "unitedstatespostalservice-a77078", "operator": "United States Postal Service", "operator:short": "USPS", "operator:type": "public", "operator:wikidata": "Q668687", "ref": "2704500006"}, "type": "Feature"}
{"geometry": {"coordinates": [-80.104082546, 36.499080437], "type": "Point"}, "id": "72UaCTmsCBcjlCLr39Yad4lrQjY=", "properties": {"@source_uri": "https://tools.usps.com/UspsToolsRestServices/rest/POLocator/findLocations", "@spider": "usps_collection_boxes", "addr:city": "SANDY RIDGE", "addr:country": "US", "addr:postcode": "27046", "addr:state": "NC", "addr:street_address": "4918 NC 704 HWY E", "amenity": "post_box", "collection_times": "Mo-Fr 15:45; Sa 10:30", "note": "ON 12/24 AND 12/31, THIS BOX MAY BE COLLECTED AS EARLY AS 12 NOON.", "nsi_id": "unitedstatespostalservice-a77078", "operator": "United States Postal Service", "operator:short": "USPS", "operator:type": "public", "operator:wikidata": "Q668687", "ref": "2704600001"}, "type": "Feature"}
{"geometry": {"coordinates": [-80.104082546, 36.499080437], "type": "Point"}, "id": "BRFfuCUiEa5MMNpm5YZ35tjQKl4=", "properties": {"@source_uri": "https://tools.usps.com/UspsToolsRestServices/rest/POLocator/findLocations", "@spider": "usps_collection_boxes", "addr:city": "SANDY RIDGE", "addr:country": "US", "addr:postcode": "27046", "addr:state": "NC", "addr:street_address": "4918 NC 704 HWY E", "amenity": "post_box", "collection_times": "Mo-Fr 15:45; Sa 10:30", "indoor": "yes", "note": "ON 12/24 AND 12/31, THIS BOX MAY BE COLLECTED AS EARLY AS 12 NOON.", "nsi_id": "unitedstatespostalservice-a77078", "operator": "United States Postal Service", "operator:short": "USPS", "operator:type": "public", "operator:wikidata": "Q668687", "ref": "2704600002"}, "type": "Feature"}
{"geometry": {"coordinates": [-80.104082546, 36.499080437], "type": "Point"}, "id": "c4hQ5P30XNeSbSnDS4ptmhQ4lLs=", "properties": {"@source_uri": "https://tools.usps.com/UspsToolsRestServices/rest/POLocator/findLocations", "@spider": "usps_collection_boxes", "addr:city": "SANDY RIDGE", "addr:country": "US", "addr:postcode": "27046", "addr:state": "NC", "addr:street_address": "4918 NC 704 HWY E", "amenity": "post_box", "collection_times": "Mo-Fr 16:00; Sa 10:30", "indoor": "yes", "note": "ON 12/24 AND 12/31, THIS BOX MAY BE COLLECTED AS EARLY AS 12 NOON.", "nsi_id": "unitedstatespostalservice-a77078", "operator": "United States Postal Service", "operator:short": "USPS", "operator:type": "public", "operator:wikidata": "Q668687", "ref": "2704600003"}, "type": "Feature"}
{"geometry": {"coordinates": [-80.562600877, 36.286679263], "type": "Point"}, "id": "n2Q3djUdBHaRHNAKZCNQj_cfDRQ=", "properties": {"@source_uri": "https://tools.usps.com/UspsToolsRestServices/rest/POLocator/findLocations", "@spider": "usps_collection_boxes", "addr:city": "SILOAM", "addr:country": "US", "addr:postcode": "27047", "addr:state": "NC", "addr:street_address": "7051 SILOAM RD", "amenity": "post_box", "collection_times": "Mo-Fr 16:00; Sa 10:00", "note": "ON 12/24 AND 12/31, THIS BOX MAY BE COLLECTED AS EARLY AS 12 NOON.", "nsi_id": "unitedstatespostalservice-a77078", "operator": "United States Postal Service", "operator:short": "USPS", "operator:type": "public", "operator:wikidata": "Q668687", "ref": "2704700001"}, "type": "Feature"}
{"geometry": {"coordinates": [-80.562600877, 36.286679263], "type": "Point"}, "id": "mp_B_QiIhcaRgFX45EJnZfwz9mk=", "properties": {"@source_uri": "https://tools.usps.com/UspsToolsRestServices/rest/POLocator/findLocations", "@spider": "usps_collection_boxes", "addr:city": "SILOAM", "addr:country": "US", "addr:postcode": "27047", "addr:state": "NC", "addr:street_address": "7051 SILOAM RD", "amenity": "post_box", "collection_times": "Mo-Fr 16:00; Sa 10:00", "indoor": "yes", "note": "ON 12/24 AND 12/31, THIS BOX MAY BE COLLECTED AS EARLY AS 12 NOON.", "nsi_id": "unitedstatespostalservice-a77078", "operator": "United States Postal Service", "operator:short": "USPS", "operator:type": "public", "operator:wikidata": "Q668687", "ref": "2704700002"}, "type": "Feature"}
{"geometry": {"coordinates": [-80.562600877, 36.286679263], "type": "Point"}, "id": "FKiZtSb4w379vVoASpwa_2aGtHQ=", "properties": {"@source_uri": "https://tools.usps.com/UspsToolsRestServices/rest/POLocator/findLocations", "@spider": "usps_collection_boxes", "addr:city": "SILOAM", "addr:country": "US", "addr:postcode": "27047", "addr:state": "NC", "addr:street_address": "7051 SILOAM RD", "amenity": "post_box", "collection_times": "Mo-Fr 16:00; Sa 10:30", "indoor": "yes", "note": "ON 12/24 AND 12/31, THIS BOX MAY BE COLLECTED AS EARLY AS 12 NOON.", "nsi_id": "unitedstatespostalservice-a77078", "operator": "United States Postal Service", "operator:short": "USPS", "operator:type": "public", "operator:wikidata": "Q668687", "ref": "2704700003"}, "type": "Feature"}
{"geometry": {"coordinates": [-79.905868575, 36.466429569], "type": "Point"}, "id": "IxRGZHXzNYO0OLRDw9hxhc_g9tc=", "properties": {"@source_uri": "https://tools.usps.com/UspsToolsRestServices/rest/POLocator/findLocations", "@spider": "usps_collection_boxes", "addr:city": "STONEVILLE", "addr:country": "US", "addr:postcode": "27048", "addr:state": "NC", "addr:street_address": "106 E MAIN ST", "amenity": "post_box", "collection_times": "Mo-Fr 16:45; Sa 11:45", "note": "ON 12/24 AND 12/31, THIS BOX MAY BE COLLECTED AS EARLY AS 12 NOON.", "nsi_id": "unitedstatespostalservice-a77078", "operator": "United States Postal Service", "operator:short": "USPS", "operator:type": "public", "operator:wikidata": "Q668687", "ref": "2704800001"}, "type": "Feature"}
{"geometry": {"coordinates": [-79.905868575, 36.466429569], "type": "Point"}, "id": "ePvc9fYgs-sPruwYGfZe_w9AUCo=", "properties": {"@source_uri": "https://tools.usps.com/UspsToolsRestServices/rest/POLocator/findLocations", "@spider": "usps_collection_boxes", "addr:city": "STONEVILLE", "addr:country": "US", "addr:postcode": "27048", "addr:state": "NC", "addr:street_address": "106 E MAIN ST", "amenity": "post_box", "collection_times": "Mo-Fr 17:00; Sa 12:00", "indoor": "yes", "note": "ON 12/24 AND 12/31, THIS BOX MAY BE COLLECTED AS EARLY AS 12 NOON.", "nsi_id": "unitedstatespostalservice-a77078", "operator": "United States Postal Service", "operator:short": "USPS", "operator:type": "public", "operator:wikidata": "Q668687", "ref": "2704800005"}, "type": "Feature"}
{"geometry": {"coordinates": [-79.905868575, 36.466429569], "type": "Point"}, "id": "Q2Q4aK17m9ggHv16oyLjZ9gpzP8=", "properties": {"@source_uri": "https://tools.usps.com/UspsToolsRestServices/rest/POLocator/findLocations", "@spider": "usps_collection_boxes", "addr:city": "STONEVILLE", "addr:country": "US", "addr:postcode": "27048", "addr:state": "NC", "addr:street_address": "106 E MAIN ST", "amenity": "post_box", "collection_times": "Mo-Fr 17:00; Sa 12:00", "indoor": "yes", "note": "ON 12/24 AND 12/31, THIS BOX MAY BE COLLECTED AS EARLY AS 12 NOON.", "nsi_id": "unitedstatespostalservice-a77078", "operator": "United States Postal Service", "operator:short": "USPS", "operator:type": "public", "operator:wikidata": "Q668687", "ref": "2704800006"}, "type": "Feature"}
{"geometry": {"coordinates": [-80.63216832, 36.501249324], "type": "Point"}, "id": "5deBMbrIU2AoY6Qruph0ZinMgbs=", "properties": {"@source_uri": "https://tools.usps.com/UspsToolsRestServices/rest/POLocator/findLocations", "@spider": "usps_collection_boxes", "addr:city": "TOAST", "addr:country": "US", "addr:postcode": "27049", "addr:state": "NC", "addr:street_address": "1110 W PINE ST", "amenity": "post_box", "collection_times": "Mo-Fr 16:00; Sa 10:00", "note": "ON 12/24 AND 12/31, THIS BOX MAY BE COLLECTED AS EARLY AS 12 NOON.", "nsi_id": "unitedstatespostalservice-a77078", "operator": "United States Postal Service", "operator:short": "USPS", "operator:type": "public", "operator:wikidata": "Q668687", "ref": "2704900002"}, "type": "Feature"}
{"geometry": {"coordinates": [-80.63216832, 36.501249324], "type": "Point"}, "id": "4BulXWVu5YcgqGfJ1syEHbnxTVU=", "properties": {"@source_uri": "https://tools.usps.com/UspsToolsRestServices/rest/POLocator/findLocations", "@spider": "usps_collection_boxes", "addr:city": "TOAST", "addr:country": "US", "addr:postcode": "27049", "addr:state": "NC", "addr:street_address": "1110 W PINE ST", "amenity": "post_box", "collection_times": "Mo-Fr 16:00; Sa 10:00", "indoor": "yes", "note": "ON 12/24 AND 12/31, THIS BOX MAY BE COLLECTED AS EARLY AS 12 NOON.", "nsi_id": "unitedstatespostalservice-a77078", "operator": "United States Postal Service", "operator:short": "USPS", "operator:type": "public", "operator:wikidata": "Q668687", "ref": "2704900003"}, "type": "Feature"}
{"geometry": {"coordinates": [-80.63216832, 36.501249324], "type": "Point"}, "id": "8FQbe_ImRKbzDi8fQabuMpkSvp8=", "properties": {"@source_uri": "https://tools.usps.com/UspsToolsRestServices/rest/POLocator/findLocations", "@spider": "usps_collection_boxes", "addr:city": "TOAST", "addr:country": "US", "addr:postcode": "27049", "addr:state": "NC", "addr:street_address": "1110 W PINE ST", "amenity": "post_box", "collection_times": "Mo-Fr 16:00", "indoor": "yes", "note": "ON 12/24 AND 12/31, THIS BOX MAY BE COLLECTED AS EARLY AS 12 NOON.", "nsi_id": "unitedstatespostalservice-a77078", "operator": "United States Postal Service", "operator:short": "USPS", "operator:type": "public", "operator:wikidata": "Q668687", "ref": "2704900004"}, "type": "Feature"}
{"geometry": {"coordinates": [-80.371379585, 36.238472833], "type": "Point"}, "id": "wHkEhTYurG0GsrLnvPTrmpiXLmE=", "properties": {"@source_uri": "https://tools.usps.com/UspsToolsRestServices/rest/POLocator/findLocations", "@spider": "usps_collection_boxes", "addr:city": "TOBACCOVILLE", "addr:country": "US", "addr:postcode": "27050", "addr:state": "NC", "addr:street_address": "6900 DORAL DR", "amenity": "post_box", "collection_times": "Mo-Fr 16:00; Sa 11:30", "note": "ON 12/24 AND 12/31, THIS BOX MAY BE COLLECTED AS EARLY AS 12 NOON.", "nsi_id": "unitedstatespostalservice-a77078", "operator": "United States Postal Service", "operator:short": "USPS", "operator:type": "public", "operator:wikidata": "Q668687", "ref": "2705000004"}, "type": "Feature"}
{"geometry": {"coordinates": [-80.371379585, 36.238472833], "type": "Point"}, "id": "rW11mCk6UlY6OAgaB4qlQcJK8eU=", "properties": {"@source_uri": "https://tools.usps.com/UspsToolsRestServices/rest/POLocator/findLocations", "@spider": "usps_collection_boxes", "addr:city": "TOBACCOVILLE", "addr:country": "US", "addr:postcode": "27050", "addr:state": "NC", "addr:street_address": "6900 DORAL DR", "amenity": "post_box", "collection_times": "Mo-Fr 16:00; Sa 11:30", "indoor": "yes", "note": "ON 12/24 AND 12/31, THIS BOX MAY BE COLLECTED AS EARLY AS 12 NOON.", "nsi_id": "unitedstatespostalservice-a77078", "operator": "United States Postal Service", "operator:short": "USPS", "operator:type": "public", "operator:wikidata": "Q668687", "ref": "2705000006"}, "type": "Feature"}
{"geometry": {"coordinates": [-80.371379585, 36.238472833], "type": "Point"}, "id": "cFQN6_hcMuGTIAcWtDC9NgcCr1E=", "properties": {"@source_uri": "https://tools.usps.com/UspsToolsRestServices/rest/POLocator/findLocations", "@spider": "usps_collection_boxes", "addr:city": "TOBACCOVILLE", "addr:country": "US", "addr:postcode": "27050", "addr:state": "NC", "addr:street_address": "6900 DORAL DR", "amenity": "post_box", "collection_times": "Mo-Fr 16:15; Sa 11:45", "indoor": "yes", "note": "ON 12/24 AND 12/31, THIS BOX MAY BE COLLECTED AS EARLY AS 12 NOON.", "nsi_id": "unitedstatespostalservice-a77078", "operator": "United States Postal Service", "operator:short": "USPS", "operator:type": "public", "operator:wikidata": "Q668687", "ref": "2705000007"}, "type": "Feature"}
{"geometry": {"coordinates": [-80.153004481, 36.174438115], "type": "Point"}, "id": "-jDWjpAulN3WyRcyuWjcxpW8bk8=", "properties": {"@source_uri": "https://tools.usps.com/UspsToolsRestServices/rest/POLocator/findLocations", "@spider": "usps_collection_boxes", "addr:city": "WALKERTOWN", "addr:country": "US", "addr:postcode": "27051", "addr:state": "NC", "addr:street_address": "4970 US HIGHWAY 311 N", "amenity": "post_box", "collection_times": "Mo-Fr 17:00; Sa 12:00", "note": "ON 12/24 AND 12/31, THIS BOX MAY BE COLLECTED AS EARLY AS 12 NOON.", "nsi_id": "unitedstatespostalservice-a77078", "operator": "United States Postal Service", "operator:short": "USPS", "operator:type": "public", "operator:wikidata": "Q668687", "ref": "2705100004"}, "type": "Feature"}
{"geometry": {"coordinates": [-80.153004481, 36.174438115], "type": "Point"}, "id": "H9ml-Zi6gT8ZvZ7tbzt9JR07BPE=", "properties": {"@source_uri": "https://tools.usps.com/UspsToolsRestServices/rest/POLocator/findLocations", "@spider": "usps_collection_boxes", "addr:city": "WALKERTOWN", "addr:country": "US", "addr:postcode": "27051", "addr:state": "NC", "addr:street_address": "4970 US HIGHWAY 311 N", "amenity": "post_box", "collection_times": "Mo-Fr 17:00; Sa 12:00", "indoor": "yes", "note": "ON 12/24 AND 12/31, THIS BOX MAY BE COLLECTED AS EARLY AS 12 NOON.", "nsi_id": "unitedstatespostalservice-a77078", "operator": "United States Postal Service", "operator:short": "USPS", "operator:type": "public", "operator:wikidata": "Q668687", "ref": "2705100006"}, "type": "Feature"}
{"geometry": {"coordinates": [-80.153004481, 36.174438115], "type": "Point"}, "id": "rBOA5o2HWYmTnc7yIzOteckCaj8=", "properties": {"@source_uri": "https://tools.usps.com/UspsToolsRestServices/rest/POLocator/findLocations", "@spider": "usps_collection_boxes", "addr:city": "WALKERTOWN", "addr:country": "US", "addr:postcode": "27051", "addr:state": "NC", "addr:street_address": "4970 US HIGHWAY 311 N", "amenity": "post_box", "collection_times": "Mo-Fr 17:00; Sa 12:00", "indoor": "yes", "note": "ON 12/24 AND 12/31, THIS BOX MAY BE COLLECTED AS EARLY AS 12 NOON.", "nsi_id": "unitedstatespostalservice-a77078", "operator": "United States Postal Service", "operator:short": "USPS", "operator:type": "public", "operator:wikidata": "Q668687", "ref": "2705100010"}, "type": "Feature"}
{"geometry": {"coordinates": [-80.141765551, 36.294884057], "type": "Point"}, "id": "IxBjLjnQ7HFT3-zJa58j5o5T7w4=", "properties": {"@source_uri": "https://tools.usps.com/UspsToolsRestServices/rest/POLocator/findLocations", "@spider": "usps_collection_boxes", "addr:city": "WALNUT COVE", "addr:country": "US", "addr:postcode": "27052", "addr:state": "NC", "addr:street_address": "217 N MAIN ST", "amenity": "post_box", "collection_times": "Mo-Fr 16:15; Sa 11:45", "note": "ON 12/24 AND 12/31, THIS BOX MAY BE COLLECTED AS EARLY AS 12 NOON.", "nsi_id": "unitedstatespostalservice-a77078", "operator": "United States Postal Service", "operator:short": "USPS", "operator:type": "public", "operator:wikidata": "Q668687", "ref": "2705200002"}, "type": "Feature"}
{"geometry": {"coordinates": [-80.141765551, 36.294884057], "type": "Point"}, "id": "c7DRugziUos3w2GOevEtq1n99V8=", "properties": {"@source_uri": "https://tools.usps.com/UspsToolsRestServices/rest/POLocator/findLocations", "@spider": "usps_collection_boxes", "addr:city": "WALNUT COVE", "addr:country": "US", "addr:postcode": "27052", "addr:state": "NC", "addr:street_address": "217 N MAIN ST", "amenity": "post_box", "collection_times": "Mo-Fr 16:15; Sa 11:45", "indoor": "yes", "note": "ON 12/24 AND 12/31, THIS BOX MAY BE COLLECTED AS EARLY AS 12 NOON.", "nsi_id": "unitedstatespostalservice-a77078", "operator": "United States Postal Service", "operator:short": "USPS", "operator:type": "public", "operator:wikidata": "Q668687", "ref": "2705200005"}, "type": "Feature"}
{"geometry": {"coordinates": [-80.141765551, 36.294884057], "type": "Point"}, "id": "OmZe-fKB8ddy-xZUeXIC4pNshcY=", "properties": {"@source_uri": "https://tools.usps.com/UspsToolsRestServices/rest/POLocator/findLocations", "@spider": "usps_collection_boxes", "addr:city": "WALNUT COVE", "addr:country": "US", "addr:postcode": "27052", "addr:state": "NC", "addr:street_address": "217 N MAIN ST", "amenity": "post_box", "collection_times": "Mo-Fr 16:30; Sa 12:00", "indoor": "yes", "note": "ON 12/24 AND 12/31, THIS BOX MAY BE COLLECTED AS EARLY AS 12 NOON.", "nsi_id": "unitedstatespostalservice-a77078", "operator": "United States Postal Service", "operator:short": "USPS", "operator:type": "public", "operator:wikidata": "Q668687", "ref": "2705200007"}, "type": "Feature"}
{"geometry": {"coordinates": [-80.44765927, 36.476981498], "type": "Point"}, "id": "DPNv_xW5IM1wyBbbDWBk5TPA7dU=", "properties": {"@source_uri": "https://tools.usps.com/UspsToolsRestServices/rest/POLocator/findLocations", "@spider": "usps_collection_boxes", "addr:city": "WESTFIELD", "addr:country": "US", "addr:postcode": "27053", "addr:state": "NC", "addr:street_address": "6648 WESTFIELD RD", "amenity": "post_box", "collection_times": "Mo-Fr 16:30; Sa 11:00", "indoor": "yes", "note": "ON 12/24 AND 12/31, THIS BOX MAY BE COLLECTED AS EARLY AS 12 NOON.", "nsi_id": "unitedstatespostalservice-a77078", "operator": "United States Postal Service", "operator:short": "USPS", "operator:type": "public", "operator:wikidata": "Q668687", "ref": "2705300003"}, "type": "Feature"}
{"geometry": {"coordinates": [-80.44765927, 36.476981498], "type": "Point"}, "id": "jif0uS2GUbcBz2LlMecRAM4DvWU=", "properties": {"@source_uri": "https://tools.usps.com/UspsToolsRestServices/rest/POLocator/findLocations", "@spider": "usps_collection_boxes", "addr:city": "WESTFIELD", "addr:country": "US", "addr:postcode": "27053", "addr:state": "NC", "addr:street_address": "6648 WESTFIELD RD", "amenity": "post_box", "collection_times": "Mo-Fr 16:30; Sa 11:00", "note": "ON 12/24 AND 12/31, THIS BOX MAY BE COLLECTED AS EARLY AS 12 NOON.", "nsi_id": "unitedstatespostalservice-a77078", "operator": "United States Postal Service", "operator:short": "USPS", "operator:type": "public", "operator:wikidata": "Q668687", "ref": "2705300004"}, "type": "Feature"}
{"geometry": {"coordinates": [-80.44765927, 36.476981498], "type": "Point"}, "id": "kWeJ7FDiUEhG-2vtjK3ZN9m4rjQ=", "properties": {"@source_uri": "https://tools.usps.com/UspsToolsRestServices/rest/POLocator/findLocations", "@spider": "usps_collection_boxes", "addr:city": "WESTFIELD", "addr:country": "US", "addr:postcode": "27053", "addr:state": "NC", "addr:street_address": "6648 WESTFIELD RD", "amenity": "post_box", "collection_times": "Mo-Fr 16:30; Sa 11:00", "indoor": "yes", "note": "ON 12/24 AND 12/31, THIS BOX MAY BE COLLECTED AS EARLY AS 12 NOON.", "nsi_id": "unitedstatespostalservice-a77078", "operator": "United States Postal Service", "operator:short": "USPS", "operator:type": "public", "operator:wikidata": "Q668687", "ref": "2705300005"}, "type": "Feature"}
{"geometry": {"coordinates": [-80.585960108, 35.772445486], "type": "Point"}, "id": "7ILXCZEpPFEp0txwyUiVnzDkHaE=", "properties": {"@source_uri": "https://tools.usps.com/UspsToolsRestServices/rest/POLocator/findLocations", "@spider": "usps_collection_boxes", "addr:city": "WOODLEAF", "addr:country": "US", "addr:postcode": "27054", "addr:state": "NC", "addr:street_address": "4220 POTNECK RD", "amenity": "post_box", "collection_times": "Mo-Fr 16:30; Sa 11:00", "note": "ON 12/24 AND 12/31, THIS BOX MAY BE COLLECTED AS EARLY AS 12 NOON.", "nsi_id": "unitedstatespostalservice-a77078", "operator": "United States Postal Service", "operator:short": "USPS", "operator:type": "public", "operator:wikidata": "Q668687", "ref": "2705400001"}, "type": "Feature"}
{"geometry": {"coordinates": [-80.585960108, 35.772445486], "type": "Point"}, "id": "AHQeN7VvkwmRvtxx3EX7yRm9S1g=", "properties": {"@source_uri": "https://tools.usps.com/UspsToolsRestServices/rest/POLocator/findLocations", "@spider": "usps_collection_boxes", "addr:city": "WOODLEAF", "addr:country": "US", "addr:postcode": "27054", "addr:state": "NC", "addr:street_address": "4220 POTNECK RD", "amenity": "post_box", "collection_times": "Mo-Fr 16:30; Sa 11:00", "indoor": "yes", "note": "ON 12/24 AND 12/31, THIS BOX MAY BE COLLECTED AS EARLY AS 12 NOON.", "nsi_id": "unitedstatespostalservice-a77078", "operator": "United States Postal Service", "operator:short": "USPS", "operator:type": "public", "operator:wikidata": "Q668687", "ref": "2705400003"}, "type": "Feature"}
{"geometry": {"coordinates": [-80.585960108, 35.772445486], "type": "Point"}, "id": "ALtGSLwNmqEOx7h_i2Jp2aFYbKU=", "properties": {"@source_uri": "https://tools.usps.com/UspsToolsRestServices/rest/POLocator/findLocations", "@spider": "usps_collection_boxes", "addr:city": "WOODLEAF", "addr:country": "US", "addr:postcode": "27054", "addr:state": "NC", "addr:street_address": "4220 POTNECK RD", "amenity": "post_box", "collection_times": "Mo-Fr 16:30", "indoor": "yes", "note": "ON 12/24 AND 12/31, THIS BOX MAY BE COLLECTED AS EARLY AS 12 NOON.", "nsi_id": "unitedstatespostalservice-a77078", "operator": "United States Postal Service", "operator:short": "USPS", "operator:type": "public", "operator:wikidata": "Q668687", "ref": "2705400004"}, "type": "Feature"}
{"geometry": {"coordinates": [-80.6603981, 36.117669], "type": "Point"}, "id": "7-ZzfEXpc2W1ovAJvMLUpX7FS7s=", "properties": {"@source_uri": "https://tools.usps.com/UspsToolsRestServices/rest/POLocator/findLocations", "@spider": "usps_collection_boxes", "addr:city": "YADKINVILLE", "addr:country": "US", "addr:postcode": "27055", "addr:state": "NC", "addr:street_address": "940 S STATE ST", "amenity": "post_box", "collection_times": "Mo-Sa 10:00", "nsi_id": "unitedstatespostalservice-a77078", "operator": "United States Postal Service", "operator:short": "USPS", "operator:type": "public", "operator:wikidata": "Q668687", "ref": "2705500002"}, "type": "Feature"}
{"geometry": {"coordinates": [-80.6586778, 36.134551], "type": "Point"}, "id": "K_jrijavTBqWFpk7m6OwYLLTtxU=", "properties": {"@source_uri": "https://tools.usps.com/UspsToolsRestServices/rest/POLocator/findLocations", "@spider": "usps_collection_boxes", "addr:city": "YADKINVILLE", "addr:country": "US", "addr:postcode": "27055", "addr:state": "NC", "addr:street_address": "212 E MAIN ST", "amenity": "post_box", "collection_times": "Mo-Sa 12:00", "nsi_id": "unitedstatespostalservice-a77078", "operator": "United States Postal Service", "operator:short": "USPS", "operator:type": "public", "operator:wikidata": "Q668687", "ref": "2705500006"}, "type": "Feature"}
{"geometry": {"coordinates": [-80.663636, 36.134239], "type": "Point"}, "id": "4q0C-tplVSj7eoeB0dHqMPzWsUo=", "properties": {"@source_uri": "https://tools.usps.com/UspsToolsRestServices/rest/POLocator/findLocations", "@spider": "usps_collection_boxes", "addr:city": "YADKINVILLE", "addr:country": "US", "addr:postcode": "27055", "addr:state": "NC", "addr:street_address": "305 W MAIN ST", "amenity": "post_box", "collection_times": "Mo-Fr 16:30; Sa 12:00", "note": "ON 12/24 AND 12/31, THIS BOX MAY BE COLLECTED AS EARLY AS 12 NOON.", "nsi_id": "unitedstatespostalservice-a77078", "operator": "United States Postal Service", "operator:short": "USPS", "operator:type": "public", "operator:wikidata": "Q668687", "ref": "2705500007"}, "type": "Feature"}
{"geometry": {"coordinates": [-80.663533, 36.134264], "type": "Point"}, "id": "D3NHozPzP5QyV6Zue9jM0ZiKAmI=", "properties": {"@source_uri": "https://tools.usps.com/UspsToolsRestServices/rest/POLocator/findLocations", "@spider": "usps_collection_boxes", "addr:city": "YADKINVILLE", "addr:country": "US", "addr:postcode": "27055", "addr:state": "NC", "addr:street_address": "305 W MAIN ST", "amenity": "post_box", "collection_times": "Mo-Fr 16:30; Sa 12:00", "indoor": "yes", "note": "ON 12/24 AND 12/31, THIS BOX MAY BE COLLECTED AS EARLY AS 12 NOON.", "nsi_id": "unitedstatespostalservice-a77078", "operator": "United States Postal Service", "operator:short": "USPS", "operator:type": "public", "operator:wikidata": "Q668687", "ref": "2705500009"}, "type": "Feature"}
{"geometry": {"coordinates": [-80.663783815, 36.13418079], "type": "Point"}, "id": "uESRxDx3Nb7q-aRQO9THmwu3WH0=", "properties": {"@source_uri": "https://tools.usps.com/UspsToolsRestServices/rest/POLocator/findLocations", "@spider": "usps_collection_boxes", "addr:city": "YADKINVILLE", "addr:country": "US", "addr:postcode": "27055", "addr:state": "NC", "addr:street_address": "315 W MAIN ST", "amenity": "post_box", "collection_times": "Mo-Fr 16:30; Sa 11:30", "indoor": "yes", "note": "ON 12/24 AND 12/31, THIS BOX MAY BE COLLECTED AS EARLY AS 12 NOON.", "nsi_id": "unitedstatespostalservice-a77078", "operator": "United States Postal Service", "operator:short": "USPS", "operator:type": "public", "operator:wikidata": "Q668687", "ref": "2705500012"}, "type": "Feature"}
