{"geometry": {"coordinates": [-80.2459972656, 36.0963512237], "type": "Point"}, "id": "7ycKfpTtbSg2NDgbtnKuWaUob9A=", "properties": {"@source_uri": "https://tools.usps.com/UspsToolsRestServices/rest/POLocator/findLocations", "@spider": "usps_collection_boxes", "addr:city": "WINSTON SALEM", "addr:country": "US", "addr:postcode": "27101", "addr:state": "NC", "addr:street_address": "200 TOWN RUN LN", "amenity": "post_box", "collection_times": "Mo-Fr 17:00; Sa 10:00", "note": "ON 12/24 AND 12/31, THIS BOX MAY BE COLLECTED AS EARLY AS 12 NOON.", "nsi_id": "unitedstatespostalservice-a77078", "operator": "United States Postal Service", "operator:short": "USPS", "operator:type": "public", "operator:wikidata": "Q668687", "ref": "2710100001"}, "type": "Feature"}
{"geometry": {"coordinates": [-80.2476059045, 36.0962110662], "type": "Point"}, "id": "DwDs4flZPU1tPECS0gzqfMbI-1c=", "properties": {"@source_uri": "https://tools.usps.com/UspsToolsRestServices/rest/POLocator/findLocations", "@spider": "usps_collection_boxes", "addr:city": "WINSTON SALEM", "addr:country": "US", "addr:postcode": "27101", "addr:state": "NC", "addr:street_address": "235 W MARSHALL ST", "amenity": "post_box", "collection_times": "Mo-Fr 15:00; Sa 10:00", "note": "ON 12/24 AND 12/31, THIS BOX MAY BE COLLECTED AS EARLY AS 12 NOON.", "nsi_id": "unitedstatespostalservice-a77078", "operator": "United States Postal Service", "operator:short": "USPS", "operator:type": "public", "operator:wikidata": "Q668687", "ref": "2710100007"}, "type": "Feature"}
{"geometry": {"coordinates": [-80.2490571, 36.097929], "type": "Point"}, "id": "3p6hSJcPzDCMNNgLIqXlvSMFIF0=", "properties": {"@source_uri": "https://tools.usps.com/UspsToolsRestServices/rest/POLocator/findLocations", "@spider": "usps_collection_boxes", "addr:city": "WINSTON SALEM", "addr:country": "US", "addr:postcode": "27101", "addr:state": "NC", "addr:street_address": "500 W 4TH ST", "amenity": "post_box", "collection_times": "Mo-Fr 14:45; Sa 10:00", "note": "ON 12/24 AND 12/31, THIS BOX MAY BE COLLECTED AS EARLY AS 12 NOON.", "nsi_id": "unitedstatespostalservice-a77078", "operator": "United States Postal Service", "operator:short": "USPS", "operator:type": "public", "operator:wikidata": "Q668687", "ref": "2710100008"}, "type": "Feature"}
{"geometry": {"coordinates": [-80.247005, 36.09778], "type": "Point"}, "id": "zTr4sOG7OMwUfXf9oZNT8uZcIAM=", "properties": {"@source_uri": "https://tools.usps.com/UspsToolsRestServices/rest/POLocator/findLocations", "@spider": "usps_collection_boxes", "addr:city": "WINSTON SALEM", "addr:country": "US", "addr:postcode": "27101", "addr:state": "NC", "addr:street_address": "633 W 4TH ST", "amenity": "post_box", "collection_times": "Mo-Fr 14:30; Sa 10:00", "note": "ON 12/24 AND 12/31, THIS BOX MAY BE COLLECTED AS EARLY AS 12 NOON.", "nsi_id": "unitedstatespostalservice-a77078", "operator": "United States Postal Service", "operator:short": "USPS", "operator:type": "public", "operator:wikidata": "Q668687", "ref": "2710100010"}, "type": "Feature"}
{"geometry": {"coordinates": [-80.242659999, 36.083329998], "type": "Point"}, "id": "R0kOtF0pJnWYVJP-1FZWmsG-TIY=", "properties": {"@source_uri": "https://tools.usps.com/UspsToolsRestServices/rest/POLocator/findLocations", "@spider": "usps_collection_boxes", "addr:city": "WINSTON SALEM", "addr:country": "US", "addr:postcode": "27101", "addr:state": "NC", "addr:street_address": "900 OLD SALEM RD", "amenity": "post_box", "collection_times": "Mo-Fr 17:00; Sa 10:00", "note": "ON 12/24 AND 12/31, THIS BOX MAY BE COLLECTED AS EARLY AS 12 NOON.", "nsi_id": "unitedstatespostalservice-a77078", "operator": "United States Postal Service", "operator:short": "USPS", "operator:type": "public", "operator:wikidata": "Q668687", "ref": "2710100011"}, "type": "Feature"}
{"geometry": {"coordinates": [-80.2459815613, 36.0960650487], "type": "Point"}, "id": "88AgKWY5lecCTrcUccCeA41W7bg=", "properties": {"@source_uri": "https://tools.usps.com/UspsToolsRestServices/rest/POLocator/findLocations", "@spider": "usps_collection_boxes", "addr:city": "WINSTON SALEM", "addr:country": "US", "addr:postcode": "27101", "addr:state": "NC", "addr:street_address": "201 W 2ND ST", "amenity": "post_box", "collection_times": "Mo-Fr 16:00; Sa 10:00", "note": "ON 12/24 AND 12/31, THIS BOX MAY BE COLLECTED AS EARLY AS 12 NOON.", "nsi_id": "unitedstatespostalservice-a77078", "operator": "United States Postal Service", "operator:short": "USPS", "operator:type": "public", "operator:wikidata": "Q668687", "ref": "2710100015"}, "type": "Feature"}
{"geometry": {"coordinates": [-80.2261366, 36.089937], "type": "Point"}, "id": "_2qgogBor_evDvHqFJbxtIPOQnQ=", "properties": {"@source_uri": "https://tools.usps.com/UspsToolsRestServices/rest/POLocator/findLocations", "@spider": "usps_collection_boxes", "addr:city": "WINSTON SALEM", "addr:country": "US", "addr:postcode": "27101", "addr:state": "NC", "addr:street_address": "601 S MARTIN LUTHER KING JR DR", "amenity": "post_box", "collection_times": "Mo-Fr 17:00", "note": "ON 12/24 AND 12/31, THIS BOX MAY BE COLLECTED AS EARLY AS 12 NOON.", "nsi_id": "unitedstatespostalservice-a77078", "operator": "United States Postal Service", "operator:short": "USPS", "operator:type": "public", "operator:wikidata": "Q668687", "ref": "2710100017"}, "type": "Feature"}
{"geometry": {"coordinates": [-80.2438034, 36.096887], "type": "Point"}, "id": "6C0hGx-V8dAi-IobQwXy1vAQc5k=", "properties": {"@source_uri": "https://tools.usps.com/UspsToolsRestServices/rest/POLocator/findLocations", "@spider": "usps_collection_boxes", "addr:city": "WINSTON SALEM", "addr:country": "US", "addr:postcode": "27101", "addr:state": "NC", "addr:street_address": "200 N MAIN ST", "amenity": "post_box", "collection_times": "Mo-Fr 13:00", "note": "ON 12/24 AND 12/31, THIS BOX MAY BE COLLECTED AS EARLY AS 12 NOON.", "nsi_id": "unitedstatespostalservice-a77078", "operator": "United States Postal Service", "operator:short": "USPS", "operator:type": "public", "operator:wikidata": "Q668687", "ref": "2710100028"}, "type": "Feature"}
{"geometry": {"coordinates": [-80.2570629, 36.098576], "type": "Point"}, "id": "OTCep7atr_LFe1VMb3RJJV_qwMk=", "properties": {"@source_uri": "https://tools.usps.com/UspsToolsRestServices/rest/POLocator/findLocations", "@spider": "usps_collection_boxes", "addr:city": "WINSTON SALEM", "addr:country": "US", "addr:postcode": "27101", "addr:state": "NC", "addr:street_address": "875 W 5TH ST", "amenity": "post_box", "collection_times": "Mo-Fr 13:30; Sa 10:00", "note": "ON 12/24 AND 12/31, THIS BOX MAY BE COLLECTED AS EARLY AS 12 NOON.", "nsi_id": "unitedstatespostalservice-a77078", "operator": "United States Postal Service", "operator:short": "USPS", "operator:type": "public", "operator:wikidata": "Q668687", "ref": "2710100029"}, "type": "Feature"}
{"geometry": {"coordinates": [-80.2574147, 36.096818], "type": "Point"}, "id": "6ZXsI0AWITHBqpEmz_JP5txiIqM=", "properties": {"@source_uri": "https://tools.usps.com/UspsToolsRestServices/rest/POLocator/findLocations", "@spider": "usps_collection_boxes", "addr:city": "WINSTON SALEM", "addr:country": "US", "addr:postcode": "27101", "addr:state": "NC", "addr:street_address": "916 W 4TH ST", "amenity": "post_box", "collection_times": "Mo-Sa 09:00", "nsi_id": "unitedstatespostalservice-a77078", "operator": "United States Postal Service", "operator:short": "USPS", "operator:type": "public", "operator:wikidata": "Q668687", "ref": "2710100038"}, "type": "Feature"}
{"geometry": {"coordinates": [-80.2573478, 36.095243], "type": "Point"}, "id": "EWlHT6nu6GxC-qpKdFTUD-8hfHM=", "properties": {"@source_uri": "https://tools.usps.com/UspsToolsRestServices/rest/POLocator/findLocations", "@spider": "usps_collection_boxes", "addr:city": "WINSTON SALEM", "addr:country": "US", "addr:postcode": "27101", "addr:state": "NC", "addr:street_address": "1001 BURKE ST", "amenity": "post_box", "collection_times": "Mo-Fr 10:00; Sa 09:30", "nsi_id": "unitedstatespostalservice-a77078", "operator": "United States Postal Service", "operator:short": "USPS", "operator:type": "public", "operator:wikidata": "Q668687", "ref": "2710100041"}, "type": "Feature"}
{"geometry": {"coordinates": [-80.246599997, 36.097334021], "type": "Point"}, "id": "0gmjEfz8_I4EE1Q5A_uzHHL0ovM=", "properties": {"@source_uri": "https://tools.usps.com/UspsToolsRestServices/rest/POLocator/findLocations", "@spider": "usps_collection_boxes", "addr:city": "WINSTON SALEM", "addr:country": "US", "addr:postcode": "27101", "addr:state": "NC", "addr:street_address": "235 N CHERRY STREET", "amenity": "post_box", "collection_times": "Mo-Fr 15:45; Sa 10:00", "note": "ON 12/24 AND 12/31, THIS BOX MAY BE COLLECTED AS EARLY AS 12 NOON.", "nsi_id": "unitedstatespostalservice-a77078", "operator": "United States Postal Service", "operator:short": "USPS", "operator:type": "public", "operator:wikidata": "Q668687", "ref": "2710100048"}, "type": "Feature"}
{"geometry": {"coordinates": [-80.2461619, 36.099749], "type": "Point"}, "id": "Ra7K6mybLHeEvGXeUWv6Ji1jukU=", "properties": {"@source_uri": "https://tools.usps.com/UspsToolsRestServices/rest/POLocator/findLocations", "@spider": "usps_collection_boxes", "addr:city": "WINSTON SALEM", "addr:country": "US", "addr:postcode": "27101", "addr:state": "NC", "addr:street_address": "201 W 5TH ST", "amenity": "post_box", "collection_times": "Mo-Fr 13:00; Sa 10:00", "note": "ON 12/24 AND 12/31, THIS BOX MAY BE COLLECTED AS EARLY AS 12 NOON.", "nsi_id": "unitedstatespostalservice-a77078", "operator": "United States Postal Service", "operator:short": "USPS", "operator:type": "public", "operator:wikidata": "Q668687", "ref": "2710100053"}, "type": "Feature"}
{"geometry": {"coordinates": [-80.2471086, 36.09799], "type": "Point"}, "id": "u71-A5L0IkVgVqCZQheIxsi_FGY=", "properties": {"@source_uri": "https://tools.usps.com/UspsToolsRestServices/rest/POLocator/findLocations", "@spider": "usps_collection_boxes", "addr:city": "WINSTON SALEM", "addr:country": "US", "addr:postcode": "27101", "addr:state": "NC", "addr:street_address": "216 W 4TH ST", "amenity": "post_box", "collection_times": "Mo-Fr 12:30; Sa 10:00", "note": "ON 12/24 AND 12/31, THIS BOX MAY BE COLLECTED AS EARLY AS 12 NOON.", "nsi_id": "unitedstatespostalservice-a77078", "operator": "United States Postal Service", "operator:short": "USPS", "operator:type": "public", "operator:wikidata": "Q668687", "ref": "2710100056"}, "type": "Feature"}
{"geometry": {"coordinates": [-80.2496237, 36.088272], "type": "Point"}, "id": "JjDRdY97paHY4jn5V_bT4hfKv8E=", "properties": {"@source_uri": "https://tools.usps.com/UspsToolsRestServices/rest/POLocator/findLocations", "@spider": "usps_collection_boxes", "addr:city": "WINSTON SALEM", "addr:country": "US", "addr:postcode": "27101", "addr:state": "NC", "addr:street_address": "432 S BROAD ST", "amenity": "post_box", "collection_times": "Mo-Fr 15:45; Sa 10:00", "note": "ON 12/24 AND 12/31, THIS BOX MAY BE COLLECTED AS EARLY AS 12 NOON.", "nsi_id": "unitedstatespostalservice-a77078", "operator": "United States Postal Service", "operator:short": "USPS", "operator:type": "public", "operator:wikidata": "Q668687", "ref": "2710100067"}, "type": "Feature"}
{"geometry": {"coordinates": [-80.2326383, 36.103753], "type": "Point"}, "id": "OXP3vjbnLEpu8QTMr8KClJ2hB2A=", "properties": {"@source_uri": "https://tools.usps.com/UspsToolsRestServices/rest/POLocator/findLocations", "@spider": "usps_collection_boxes", "addr:city": "WINSTON SALEM", "addr:country": "US", "addr:postcode": "27101", "addr:state": "NC", "addr:street_address": "741 HIGHLAND AVE", "amenity": "post_box", "collection_times": "Mo-Sa 09:00", "nsi_id": "unitedstatespostalservice-a77078", "operator": "United States Postal Service", "operator:short": "USPS", "operator:type": "public", "operator:wikidata": "Q668687", "ref": "2710100068"}, "type": "Feature"}
{"geometry": {"coordinates": [-80.2524429, 36.085095], "type": "Point"}, "id": "C6UdwjGS2W2ipWeyyms-RWXZhik=", "properties": {"@source_uri": "https://tools.usps.com/UspsToolsRestServices/rest/POLocator/findLocations", "@spider": "usps_collection_boxes", "addr:city": "WINSTON SALEM", "addr:country": "US", "addr:postcode": "27101", "addr:state": "NC", "addr:street_address": "650 GRANVILLE DR", "amenity": "post_box", "collection_times": "Mo-Fr 15:30; Sa 10:00", "note": "ON 12/24 AND 12/31, THIS BOX MAY BE COLLECTED AS EARLY AS 12 NOON.", "nsi_id": "unitedstatespostalservice-a77078", "operator": "United States Postal Service", "operator:short": "USPS", "operator:type": "public", "operator:wikidata": "Q668687", "ref": "2710100072"}, "type": "Feature"}
{"geometry": {"coordinates": [-80.2491859, 36.099363], "type": "Point"}, "id": "XYcG4Pvd_XkshYXI7eD2I1aWAyI=", "properties": {"@source_uri": "https://tools.usps.com/UspsToolsRestServices/rest/POLocator/findLocations", "@spider": "usps_collection_boxes", "addr:city": "WINSTON SALEM", "addr:country": "US", "addr:postcode": "27101", "addr:state": "NC", "addr:street_address": "500 W 5TH ST", "amenity": "post_box", "collection_times": "Mo-Sa 10:00", "nsi_id": "unitedstatespostalservice-a77078", "operator": "United States Postal Service", "operator:short": "USPS", "operator:type": "public", "operator:wikidata": "Q668687", "ref": "2710100076"}, "type": "Feature"}
{"geometry": {"coordinates": [-80.2442959, 36.09103], "type": "Point"}, "id": "dpE5PKFE_9alaME4g8SIcb3ECC0=", "properties": {"@source_uri": "https://tools.usps.com/UspsToolsRestServices/rest/POLocator/findLocations", "@spider": "usps_collection_boxes", "addr:city": "WINSTON SALEM", "addr:country": "US", "addr:postcode": "27101", "addr:state": "NC", "addr:street_address": "119 BROOKSTOWN AVE", "amenity": "post_box", "collection_times": "Mo-Fr 10:30; Sa 10:00", "nsi_id": "unitedstatespostalservice-a77078", "operator": "United States Postal Service", "operator:short": "USPS", "operator:type": "public", "operator:wikidata": "Q668687", "ref": "2710100078"}, "type": "Feature"}
{"geometry": {"coordinates": [-80.245997266, 36.096351224], "type": "Point"}, "id": "H3qoZylbi5woL1LKmlmi098Nxos=", "properties": {"@source_uri": "https://tools.usps.com/UspsToolsRestServices/rest/POLocator/findLocations", "@spider": "usps_collection_boxes", "addr:city": "WINSTON SALEM", "addr:country": "US", "addr:postcode": "27101", "addr:state": "NC", "addr:street_address": "200 TOWN RUN LN", "amenity": "post_box", "collection_times": "Mo-Fr 17:00", "indoor": "yes", "note": "ON 12/24 AND 12/31, THIS BOX MAY BE COLLECTED AS EARLY AS 12 NOON.", "nsi_id": "unitedstatespostalservice-a77078", "operator": "United States Postal Service", "operator:short": "USPS", "operator:type": "public", "operator:wikidata": "Q668687", "ref": "2710100084"}, "type": "Feature"}
{"geometry": {"coordinates": [-80.245997266, 36.096351224], "type": "Point"}, "id": "KmW2ArnFS-yS-8EAYTDo8AvUi2Y=", "properties": {"@source_uri": "https://tools.usps.com/UspsToolsRestServices/rest/POLocator/findLocations", "@spider": "usps_collection_boxes", "addr:city": "WINSTON SALEM", "addr:country": "US", "addr:postcode": "27101", "addr:state": "NC", "addr:street_address": "200 TOWN RUN LN", "amenity": "post_box", "collection_times": "Mo-Fr 17:00", "indoor": "yes", "note": "ON 12/24 AND 12/31, THIS BOX MAY BE COLLECTED AS EARLY AS 12 NOON.", "nsi_id": "unitedstatespostalservice-a77078", "operator": "United States Postal Service", "operator:short": "USPS", "operator:type": "public", "operator:wikidata": "Q668687", "ref": "2710100089"}, "type": "Feature"}
{"geometry": {"coordinates": [-80.3267521, 36.039891], "type": "Point"}, "id": "tS4QM4gMYkaKIyePw0d8-SqXuZ0=", "properties": {"@source_uri": "https://tools.usps.com/UspsToolsRestServices/rest/POLocator/findLocations", "@spider": "usps_collection_boxes", "addr:city": "WINSTON SALEM", "addr:country": "US", "addr:postcode": "27103", "addr:state": "NC", "addr:street_address": "3909 WESTPOINT BLVD", "amenity": "post_box", "collection_times": "Mo-Fr 10:30", "nsi_id": "unitedstatespostalservice-a77078", "operator": "United States Postal Service", "operator:short": "USPS", "operator:type": "public", "operator:wikidata": "Q668687", "ref": "2710300005"}, "type": "Feature"}
{"geometry": {"coordinates": [-80.2950390753, 36.0717752375], "type": "Point"}, "id": "WhImaZZijJoVRBwf96FTRHGB-Qw=", "properties": {"@source_uri": "https://tools.usps.com/UspsToolsRestServices/rest/POLocator/findLocations", "@spider": "usps_collection_boxes", "addr:city": "WINSTON SALEM", "addr:country": "US", "addr:postcode": "27103", "addr:state": "NC", "addr:street_address": "3224 SILAS CREEK PKWY", "amenity": "post_box", "collection_times": "Mo-Fr 14:00; Sa 10:00", "note": "ON 12/24 AND 12/31, THIS BOX MAY BE COLLECTED AS EARLY AS 12 NOON.", "nsi_id": "unitedstatespostalservice-a77078", "operator": "United States Postal Service", "operator:short": "USPS", "operator:type": "public", "operator:wikidata": "Q668687", "ref": "2710300007"}, "type": "Feature"}
{"geometry": {"coordinates": [-80.3258857, 36.047787], "type": "Point"}, "id": "x7dW3wpJqpGCZ9cYIKFzH7jmeLc=", "properties": {"@source_uri": "https://tools.usps.com/UspsToolsRestServices/rest/POLocator/findLocations", "@spider": "usps_collection_boxes", "addr:city": "WINSTON SALEM", "addr:country": "US", "addr:postcode": "27103", "addr:state": "NC", "addr:street_address": "3831 KIMWELL DR", "amenity": "post_box", "collection_times": "Mo-Sa 10:00", "nsi_id": "unitedstatespostalservice-a77078", "operator": "United States Postal Service", "operator:short": "USPS", "operator:type": "public", "operator:wikidata": "Q668687", "ref": "2710300009"}, "type": "Feature"}
{"geometry": {"coordinates": [-80.2704795, 36.069651], "type": "Point"}, "id": "E7eZ8O7oEqROv6U_hvjgX5Xiwzo=", "properties": {"@source_uri": "https://tools.usps.com/UspsToolsRestServices/rest/POLocator/findLocations", "@spider": "usps_collection_boxes", "addr:city": "WINSTON SALEM", "addr:country": "US", "addr:postcode": "27103", "addr:state": "NC", "addr:street_address": "2100 SILAS CREEK PKWY", "amenity": "post_box", "collection_times": "Mo-Fr 15:30; Sa 10:00", "note": "ON 12/24 AND 12/31, THIS BOX MAY BE COLLECTED AS EARLY AS 12 NOON.", "nsi_id": "unitedstatespostalservice-a77078", "operator": "United States Postal Service", "operator:short": "USPS", "operator:type": "public", "operator:wikidata": "Q668687", "ref": "2710300012"}, "type": "Feature"}
{"geometry": {"coordinates": [-80.287028, 36.090306], "type": "Point"}, "id": "RFx9sDnUburZQGwwezAHLNyZivI=", "properties": {"@source_uri": "https://tools.usps.com/UspsToolsRestServices/rest/POLocator/findLocations", "@spider": "usps_collection_boxes", "addr:city": "WINSTON SALEM", "addr:country": "US", "addr:postcode": "27103", "addr:state": "NC", "addr:street_address": "380 KNOLLWOOD ST", "amenity": "post_box", "collection_times": "Mo-Fr 15:00", "note": "ON 12/24 AND 12/31, THIS BOX MAY BE COLLECTED AS EARLY AS 12 NOON.", "nsi_id": "unitedstatespostalservice-a77078", "operator": "United States Postal Service", "operator:short": "USPS", "operator:type": "public", "operator:wikidata": "Q668687", "ref": "2710300013"}, "type": "Feature"}
{"geometry": {"coordinates": [-80.2751062, 36.091426], "type": "Point"}, "id": "aZ5wdK8AuF6qwXITLSVC8UMp0pY=", "properties": {"@source_uri": "https://tools.usps.com/UspsToolsRestServices/rest/POLocator/findLocations", "@spider": "usps_collection_boxes", "addr:city": "WINSTON SALEM", "addr:country": "US", "addr:postcode": "27103", "addr:state": "NC", "addr:street_address": "2219 CLOVERDALE AVE", "amenity": "post_box", "collection_times": "Mo-Fr 10:30; Sa 10:00", "nsi_id": "unitedstatespostalservice-a77078", "operator": "United States Postal Service", "operator:short": "USPS", "operator:type": "public", "operator:wikidata": "Q668687", "ref": "2710300017"}, "type": "Feature"}
{"geometry": {"coordinates": [-80.2815605, 36.0915], "type": "Point"}, "id": "wL6i9wKfLHg_Aw46Z_OJmVzq1hk=", "properties": {"@source_uri": "https://tools.usps.com/UspsToolsRestServices/rest/POLocator/findLocations", "@spider": "usps_collection_boxes", "addr:city": "WINSTON SALEM", "addr:country": "US", "addr:postcode": "27103", "addr:state": "NC", "addr:street_address": "285 S STRATFORD RD", "amenity": "post_box", "collection_times": "Mo-Fr 15:00; Sa 10:00", "note": "ON 12/24 AND 12/31, THIS BOX MAY BE COLLECTED AS EARLY AS 12 NOON.", "nsi_id": "unitedstatespostalservice-a77078", "operator": "United States Postal Service", "operator:short": "USPS", "operator:type": "public", "operator:wikidata": "Q668687", "ref": "2710300022"}, "type": "Feature"}
{"geometry": {"coordinates": [-80.3011834, 36.085953], "type": "Point"}, "id": "k_VWuc_yBAZalWFK4Y3zC7qdD0c=", "properties": {"@source_uri": "https://tools.usps.com/UspsToolsRestServices/rest/POLocator/findLocations", "@spider": "usps_collection_boxes", "addr:city": "WINSTON SALEM", "addr:country": "US", "addr:postcode": "27103", "addr:state": "NC", "addr:street_address": "114 CHARLOIS BLVD", "amenity": "post_box", "collection_times": "Mo-Fr 15:30; Sa 10:00", "note": "ON 12/24 AND 12/31, THIS BOX MAY BE COLLECTED AS EARLY AS 12 NOON.", "nsi_id": "unitedstatespostalservice-a77078", "operator": "United States Postal Service", "operator:short": "USPS", "operator:type": "public", "operator:wikidata": "Q668687", "ref": "2710300024"}, "type": "Feature"}
{"geometry": {"coordinates": [-80.3004765, 36.081211], "type": "Point"}, "id": "ITNyD1gnh_vWUPrAmERILEqM61A=", "properties": {"@source_uri": "https://tools.usps.com/UspsToolsRestServices/rest/POLocator/findLocations", "@spider": "usps_collection_boxes", "addr:city": "WINSTON SALEM", "addr:country": "US", "addr:postcode": "27103", "addr:state": "NC", "addr:street_address": "290 CHARLOIS BLVD", "amenity": "post_box", "collection_times": "Mo-Fr 15:30; Sa 10:00", "note": "ON 12/24 AND 12/31, THIS BOX MAY BE COLLECTED AS EARLY AS 12 NOON.", "nsi_id": "unitedstatespostalservice-a77078", "operator": "United States Postal Service", "operator:short": "USPS", "operator:type": "public", "operator:wikidata": "Q668687", "ref": "2710300030"}, "type": "Feature"}
{"geometry": {"coordinates": [-80.2939705, 36.082414], "type": "Point"}, "id": "NbdQLHAId3xfaeLCIGaV9VN8uxA=", "properties": {"@source_uri": "https://tools.usps.com/UspsToolsRestServices/rest/POLocator/findLocations", "@spider": "usps_collection_boxes", "addr:city": "WINSTON SALEM", "addr:country": "US", "addr:postcode": "27103", "addr:state": "NC", "addr:street_address": "3000 BETHESDA PL", "amenity": "post_box", "collection_times": "Mo-Fr 15:15; Sa 10:00", "note": "ON 12/24 AND 12/31, THIS BOX MAY BE COLLECTED AS EARLY AS 12 NOON.", "nsi_id": "unitedstatespostalservice-a77078", "operator": "United States Postal Service", "operator:short": "USPS", "operator:type": "public", "operator:wikidata": "Q668687", "ref": "2710300035"}, "type": "Feature"}
{"geometry": {"coordinates": [-80.2582647, 36.073812], "type": "Point"}, "id": "D9vTV9zg_8TCr9Ktv0tZe_EtcFc=", "properties": {"@source_uri": "https://tools.usps.com/UspsToolsRestServices/rest/POLocator/findLocations", "@spider": "usps_collection_boxes", "addr:city": "WINSTON SALEM", "addr:country": "US", "addr:postcode": "27103", "addr:state": "NC", "addr:street_address": "1415 PETERS CREEK PKWY", "amenity": "post_box", "collection_times": "Mo-Fr 13:00; Sa 10:00", "note": "ON 12/24 AND 12/31, THIS BOX MAY BE COLLECTED AS EARLY AS 12 NOON.", "nsi_id": "unitedstatespostalservice-a77078", "operator": "United States Postal Service", "operator:short": "USPS", "operator:type": "public", "operator:wikidata": "Q668687", "ref": "2710300041"}, "type": "Feature"}
{"geometry": {"coordinates": [-80.3099818, 36.075821], "type": "Point"}, "id": "vQTSG9BanXTK1kS3z50HHY_ck7s=", "properties": {"@source_uri": "https://tools.usps.com/UspsToolsRestServices/rest/POLocator/findLocations", "@spider": "usps_collection_boxes", "addr:city": "WINSTON SALEM", "addr:country": "US", "addr:postcode": "27103", "addr:state": "NC", "addr:street_address": "3331 HEALY DR", "amenity": "post_box", "collection_times": "Mo-Fr 17:00; Sa 10:00", "note": "ON 12/24 AND 12/31, THIS BOX MAY BE COLLECTED AS EARLY AS 12 NOON.", "nsi_id": "unitedstatespostalservice-a77078", "operator": "United States Postal Service", "operator:short": "USPS", "operator:type": "public", "operator:wikidata": "Q668687", "ref": "2710300060"}, "type": "Feature"}
{"geometry": {"coordinates": [-80.2833426, 36.09222], "type": "Point"}, "id": "KKzt6H2GRqCAMQDflEkikE86-Lo=", "properties": {"@source_uri": "https://tools.usps.com/UspsToolsRestServices/rest/POLocator/findLocations", "@spider": "usps_collection_boxes", "addr:city": "WINSTON SALEM", "addr:country": "US", "addr:postcode": "27103", "addr:state": "NC", "addr:street_address": "300 S STRATFORD RD", "amenity": "post_box", "collection_times": "Mo-Fr 15:00; Sa 10:00", "note": "ON 12/24 AND 12/31, THIS BOX MAY BE COLLECTED AS EARLY AS 12 NOON.", "nsi_id": "unitedstatespostalservice-a77078", "operator": "United States Postal Service", "operator:short": "USPS", "operator:type": "public", "operator:wikidata": "Q668687", "ref": "2710300066"}, "type": "Feature"}
{"geometry": {"coordinates": [-80.3034830584, 36.0624454133], "type": "Point"}, "id": "7UGgGR4S4ku3tbV-3rivZicLHTY=", "properties": {"@source_uri": "https://tools.usps.com/UspsToolsRestServices/rest/POLocator/findLocations", "@spider": "usps_collection_boxes", "addr:city": "WINSTON SALEM", "addr:country": "US", "addr:postcode": "27103", "addr:state": "NC", "addr:street_address": "696 HANES MALL BLVD", "amenity": "post_box", "collection_times": "Mo-Fr 12:00; Sa 10:00", "nsi_id": "unitedstatespostalservice-a77078", "operator": "United States Postal Service", "operator:short": "USPS", "operator:type": "public", "operator:wikidata": "Q668687", "ref": "2710300072"}, "type": "Feature"}
{"geometry": {"coordinates": [-80.3008330056, 36.0680899797], "type": "Point"}, "id": "ehms6oHKcTiWVOosdhayNiR-2eU=", "properties": {"@source_uri": "https://tools.usps.com/UspsToolsRestServices/rest/POLocator/findLocations", "@spider": "usps_collection_boxes", "addr:city": "WINSTON SALEM", "addr:country": "US", "addr:postcode": "27103", "addr:state": "NC", "addr:street_address": "3320 SILAS CREEK PKWY STE 502", "amenity": "post_box", "collection_times": "Mo-Fr 15:45; Sa 10:00", "note": "ON 12/24 AND 12/31, THIS BOX MAY BE COLLECTED AS EARLY AS 12 NOON.", "nsi_id": "unitedstatespostalservice-a77078", "operator": "United States Postal Service", "operator:short": "USPS", "operator:type": "public", "operator:wikidata": "Q668687", "ref": "2710300078"}, "type": "Feature"}
{"geometry": {"coordinates": [-80.2971058, 36.079154], "type": "Point"}, "id": "BO0r2_49V3rnj2i-lN-WxA0QKpM=", "properties": {"@source_uri": "https://tools.usps.com/UspsToolsRestServices/rest/POLocator/findLocations", "@spider": "usps_collection_boxes", "addr:city": "WINSTON SALEM", "addr:country": "US", "addr:postcode": "27103", "addr:state": "NC", "addr:street_address": "3190 MAPLEWOOD AVE", "amenity": "post_box", "collection_times": "Mo-Fr 15:15; Sa 10:00", "note": "ON 12/24 AND 12/31, THIS BOX MAY BE COLLECTED AS EARLY AS 12 NOON.", "nsi_id": "unitedstatespostalservice-a77078", "operator": "United States Postal Service", "operator:short": "USPS", "operator:type": "public", "operator:wikidata": "Q668687", "ref": "2710300080"}, "type": "Feature"}
{"geometry": {"coordinates": [-80.3122905, 36.07392], "type": "Point"}, "id": "VGEiUfwrcEPgRyJZ5QO3iF7Sq28=", "properties": {"@source_uri": "https://tools.usps.com/UspsToolsRestServices/rest/POLocator/findLocations", "@spider": "usps_collection_boxes", "addr:city": "WINSTON SALEM", "addr:country": "US", "addr:postcode": "27103", "addr:state": "NC", "addr:street_address": "1336 WESTGATE CENTER DR", "amenity": "post_box", "collection_times": "Mo-Fr 15:30; Sa 10:00", "note": "ON 12/24 AND 12/31, THIS BOX MAY BE COLLECTED AS EARLY AS 12 NOON.", "nsi_id": "unitedstatespostalservice-a77078", "operator": "United States Postal Service", "operator:short": "USPS", "operator:type": "public", "operator:wikidata": "Q668687", "ref": "2710300082"}, "type": "Feature"}
{"geometry": {"coordinates": [-80.3029423, 36.057894], "type": "Point"}, "id": "IBEISF07ge0_T-0VRwwJPjSO4Sk=", "properties": {"@source_uri": "https://tools.usps.com/UspsToolsRestServices/rest/POLocator/findLocations", "@spider": "usps_collection_boxes", "addr:city": "WINSTON SALEM", "addr:country": "US", "addr:postcode": "27103", "addr:state": "NC", "addr:street_address": "190 KIMEL PARK DR", "amenity": "post_box", "collection_times": "Mo-Fr 10:30; Sa 10:00", "nsi_id": "unitedstatespostalservice-a77078", "operator": "United States Postal Service", "operator:short": "USPS", "operator:type": "public", "operator:wikidata": "Q668687", "ref": "2710300087"}, "type": "Feature"}
{"geometry": {"coordinates": [-80.3102721, 36.076441], "type": "Point"}, "id": "eboAcBm_FZl1T_x8W_AAhq_l5LQ=", "properties": {"@source_uri": "https://tools.usps.com/UspsToolsRestServices/rest/POLocator/findLocations", "@spider": "usps_collection_boxes", "addr:city": "WINSTON SALEM", "addr:country": "US", "addr:postcode": "27103", "addr:state": "NC", "addr:street_address": "3331 HEALY DR", "amenity": "post_box", "collection_times": "Mo-Fr 17:00; Sa 10:00", "indoor": "yes", "note": "ON 12/24 AND 12/31, THIS BOX MAY BE COLLECTED AS EARLY AS 12 NOON.", "nsi_id": "unitedstatespostalservice-a77078", "operator": "United States Postal Service", "operator:short": "USPS", "operator:type": "public", "operator:wikidata": "Q668687", "ref": "2710300089"}, "type": "Feature"}
{"geometry": {"coordinates": [-80.3008330056, 36.0680899797], "type": "Point"}, "id": "VPQphYreVD2v_-eVWLcal47iVq8=", "properties": {"@source_uri": "https://tools.usps.com/UspsToolsRestServices/rest/POLocator/findLocations", "@spider": "usps_collection_boxes", "addr:city": "WINSTON SALEM", "addr:country": "US", "addr:postcode": "27103", "addr:state": "NC", "addr:street_address": "3320 SILAS CREEK PKWY STE 502", "amenity": "post_box", "collection_times": "Mo-Fr 15:45", "indoor": "yes", "note": "ON 12/24 AND 12/31, THIS BOX MAY BE COLLECTED AS EARLY AS 12 NOON.", "nsi_id": "unitedstatespostalservice-a77078", "operator": "United States Postal Service", "operator:short": "USPS", "operator:type": "public", "operator:wikidata": "Q668687", "ref": "2710300091"}, "type": "Feature"}
{"geometry": {"coordinates": [-80.3008330056, 36.0680899797], "type": "Point"}, "id": "xHOtCwy7m2iJASj4UVR4hr3tZF0=", "properties": {"@source_uri": "https://tools.usps.com/UspsToolsRestServices/rest/POLocator/findLocations", "@spider": "usps_collection_boxes", "addr:city": "WINSTON SALEM", "addr:country": "US", "addr:postcode": "27103", "addr:state": "NC", "addr:street_address": "3320 SILAS CREEK PKWY STE 500", "amenity": "post_box", "collection_times": "Mo-Sa 18:00", "indoor": "yes", "note": "ON 12/24 AND 12/31, THIS BOX MAY BE COLLECTED AS EARLY AS 12 NOON.", "nsi_id": "unitedstatespostalservice-a77078", "operator": "United States Postal Service", "operator:short": "USPS", "operator:type": "public", "operator:wikidata": "Q668687", "ref": "2710300103"}, "type": "Feature"}
{"geometry": {"coordinates": [-80.310564584, 36.075735707], "type": "Point"}, "id": "qXM69K_gB1PAnK8fR_5B8N3El50=", "properties": {"@source_uri": "https://tools.usps.com/UspsToolsRestServices/rest/POLocator/findLocations", "@spider": "usps_collection_boxes", "addr:city": "WINSTON SALEM", "addr:country": "US", "addr:postcode": "27103", "addr:state": "NC", "addr:street_address": "3331 HEALY DR", "amenity": "post_box", "collection_times": "Mo-Fr 17:00", "indoor": "yes", "note": "ON 12/24 AND 12/31, THIS BOX MAY BE COLLECTED AS EARLY AS 12 NOON.", "nsi_id": "unitedstatespostalservice-a77078", "operator": "United States Postal Service", "operator:short": "USPS", "operator:type": "public", "operator:wikidata": "Q668687", "ref": "2710300104"}, "type": "Feature"}
{"geometry": {"coordinates": [-80.2738314, 36.096183], "type": "Point"}, "id": "7X5AE0duSR3Rm72YgN4VuBN-Nwc=", "properties": {"@source_uri": "https://tools.usps.com/UspsToolsRestServices/rest/POLocator/findLocations", "@spider": "usps_collection_boxes", "addr:city": "WINSTON SALEM", "addr:country": "US", "addr:postcode": "27104", "addr:state": "NC", "addr:street_address": "1950 W 1ST ST", "amenity": "post_box", "collection_times": "Mo-Fr 15:15; Sa 10:00", "note": "ON 12/24 AND 12/31, THIS BOX MAY BE COLLECTED AS EARLY AS 12 NOON.", "nsi_id": "unitedstatespostalservice-a77078", "operator": "United States Postal Service", "operator:short": "USPS", "operator:type": "public", "operator:wikidata": "Q668687", "ref": "2710400005"}, "type": "Feature"}
{"geometry": {"coordinates": [-80.2761766, 36.095811], "type": "Point"}, "id": "HRSfnYCExFoN4wHdFlpUlTEKCtg=", "properties": {"@source_uri": "https://tools.usps.com/UspsToolsRestServices/rest/POLocator/findLocations", "@spider": "usps_collection_boxes", "addr:city": "WINSTON SALEM", "addr:country": "US", "addr:postcode": "27104", "addr:state": "NC", "addr:street_address": "101 S STRATFORD RD", "amenity": "post_box", "collection_times": "Mo-Fr 15:15; Sa 10:00", "note": "ON 12/24 AND 12/31, THIS BOX MAY BE COLLECTED AS EARLY AS 12 NOON.", "nsi_id": "unitedstatespostalservice-a77078", "operator": "United States Postal Service", "operator:short": "USPS", "operator:type": "public", "operator:wikidata": "Q668687", "ref": "2710400009"}, "type": "Feature"}
{"geometry": {"coordinates": [-80.3094911, 36.091055], "type": "Point"}, "id": "O1zn8J3hSBrlnDhkvzn1sXTOkvg=", "properties": {"@source_uri": "https://tools.usps.com/UspsToolsRestServices/rest/POLocator/findLocations", "@spider": "usps_collection_boxes", "addr:city": "WINSTON SALEM", "addr:country": "US", "addr:postcode": "27104", "addr:state": "NC", "addr:street_address": "4400 SILAS CREEK PKWY", "amenity": "post_box", "collection_times": "Mo-Fr 15:15; Sa 10:00", "note": "ON 12/24 AND 12/31, THIS BOX MAY BE COLLECTED AS EARLY AS 12 NOON.", "nsi_id": "unitedstatespostalservice-a77078", "operator": "United States Postal Service", "operator:short": "USPS", "operator:type": "public", "operator:wikidata": "Q668687", "ref": "2710400011"}, "type": "Feature"}
{"geometry": {"coordinates": [-80.3275224, 36.080412], "type": "Point"}, "id": "qFez-vuhgk7xAmDWpbZpT7jMIRY=", "properties": {"@source_uri": "https://tools.usps.com/UspsToolsRestServices/rest/POLocator/findLocations", "@spider": "usps_collection_boxes", "addr:city": "WINSTON SALEM", "addr:country": "US", "addr:postcode": "27104", "addr:state": "NC", "addr:street_address": "100 CLUB OAKS CT", "amenity": "post_box", "collection_times": "Mo-Fr 12:45; Sa 10:00", "note": "ON 12/24 AND 12/31, THIS BOX MAY BE COLLECTED AS EARLY AS 12 NOON.", "nsi_id": "unitedstatespostalservice-a77078", "operator": "United States Postal Service", "operator:short": "USPS", "operator:type": "public", "operator:wikidata": "Q668687", "ref": "2710400016"}, "type": "Feature"}
{"geometry": {"coordinates": [-80.2643699, 36.119995], "type": "Point"}, "id": "NCV4qCK4f8rWEk9zOkgxvvEqnLE=", "properties": {"@source_uri": "https://tools.usps.com/UspsToolsRestServices/rest/POLocator/findLocations", "@spider": "usps_collection_boxes", "addr:city": "WINSTON SALEM", "addr:country": "US", "addr:postcode": "27104", "addr:state": "NC", "addr:street_address": "1351 SUSANNA WESLEY DR", "amenity": "post_box", "collection_times": "Mo-Fr 15:30; Sa 10:00", "note": "ON 12/24 AND 12/31, THIS BOX MAY BE COLLECTED AS EARLY AS 12 NOON.", "nsi_id": "unitedstatespostalservice-a77078", "operator": "United States Postal Service", "operator:short": "USPS", "operator:type": "public", "operator:wikidata": "Q668687", "ref": "2710400019"}, "type": "Feature"}
{"geometry": {"coordinates": [-80.2779211, 36.096507], "type": "Point"}, "id": "0EbSbnrnp3x4EYjPQrhk3hSdzR0=", "properties": {"@source_uri": "https://tools.usps.com/UspsToolsRestServices/rest/POLocator/findLocations", "@spider": "usps_collection_boxes", "addr:city": "WINSTON SALEM", "addr:country": "US", "addr:postcode": "27104", "addr:state": "NC", "addr:street_address": "134 S STRATFORD RD", "amenity": "post_box", "collection_times": "Mo-Fr 15:30; Sa 10:00", "note": "ON 12/24 AND 12/31, THIS BOX MAY BE COLLECTED AS EARLY AS 12 NOON.", "nsi_id": "unitedstatespostalservice-a77078", "operator": "United States Postal Service", "operator:short": "USPS", "operator:type": "public", "operator:wikidata": "Q668687", "ref": "2710400020"}, "type": "Feature"}
{"geometry": {"coordinates": [-80.337678535, 36.073713653], "type": "Point"}, "id": "0JNnnQMGqTyliGqekreSJjF0zAE=", "properties": {"@source_uri": "https://tools.usps.com/UspsToolsRestServices/rest/POLocator/findLocations", "@spider": "usps_collection_boxes", "addr:city": "WINSTON SALEM", "addr:country": "US", "addr:postcode": "27104", "addr:state": "NC", "addr:street_address": "420 JONESTOWN RD", "amenity": "post_box", "collection_times": "Mo-Fr 12:00; Sa 10:00", "nsi_id": "unitedstatespostalservice-a77078", "operator": "United States Postal Service", "operator:short": "USPS", "operator:type": "public", "operator:wikidata": "Q668687", "ref": "2710400023"}, "type": "Feature"}
{"geometry": {"coordinates": [-80.3408829, 36.08131], "type": "Point"}, "id": "xDcSsAfaYrV-1etRAovO57Uy0-Y=", "properties": {"@source_uri": "https://tools.usps.com/UspsToolsRestServices/rest/POLocator/findLocations", "@spider": "usps_collection_boxes", "addr:city": "WINSTON SALEM", "addr:country": "US", "addr:postcode": "27104", "addr:state": "NC", "addr:street_address": "4834 COUNTRY CLUB RD", "amenity": "post_box", "collection_times": "Mo-Fr 15:15; Sa 10:00", "note": "ON 12/24 AND 12/31, THIS BOX MAY BE COLLECTED AS EARLY AS 12 NOON.", "nsi_id": "unitedstatespostalservice-a77078", "operator": "United States Postal Service", "operator:short": "USPS", "operator:type": "public", "operator:wikidata": "Q668687", "ref": "2710400027"}, "type": "Feature"}
{"geometry": {"coordinates": [-80.3356515, 36.080681], "type": "Point"}, "id": "65V1mc-Fy_Yq1TTA23QwdWZORHo=", "properties": {"@source_uri": "https://tools.usps.com/UspsToolsRestServices/rest/POLocator/findLocations", "@spider": "usps_collection_boxes", "addr:city": "WINSTON SALEM", "addr:country": "US", "addr:postcode": "27104", "addr:state": "NC", "addr:street_address": "104 CAMBRIDGE PLAZA DR", "amenity": "post_box", "collection_times": "Mo-Fr 15:15; Sa 10:00", "note": "ON 12/24 AND 12/31, THIS BOX MAY BE COLLECTED AS EARLY AS 12 NOON.", "nsi_id": "unitedstatespostalservice-a77078", "operator": "United States Postal Service", "operator:short": "USPS", "operator:type": "public", "operator:wikidata": "Q668687", "ref": "2710400034"}, "type": "Feature"}
{"geometry": {"coordinates": [-80.2422094, 36.113705], "type": "Point"}, "id": "fO4_vqy8S2pgWLhfFDvDIY1uXdk=", "properties": {"@source_uri": "https://tools.usps.com/UspsToolsRestServices/rest/POLocator/findLocations", "@spider": "usps_collection_boxes", "addr:city": "WINSTON SALEM", "addr:country": "US", "addr:postcode": "27105", "addr:state": "NC", "addr:street_address": "1500 N PATTERSON AVE", "amenity": "post_box", "collection_times": "Mo-Fr 17:00; Sa 10:00", "note": "ON 12/24 AND 12/31, THIS BOX MAY BE COLLECTED AS EARLY AS 12 NOON.", "nsi_id": "unitedstatespostalservice-a77078", "operator": "United States Postal Service", "operator:short": "USPS", "operator:type": "public", "operator:wikidata": "Q668687", "ref": "2710500004"}, "type": "Feature"}
{"geometry": {"coordinates": [-80.2779403, 36.17731], "type": "Point"}, "id": "kTZQUXrumGqKO1PR3qt_xSD5E0A=", "properties": {"@source_uri": "https://tools.usps.com/UspsToolsRestServices/rest/POLocator/findLocations", "@spider": "usps_collection_boxes", "addr:city": "WINSTON SALEM", "addr:country": "US", "addr:postcode": "27105", "addr:state": "NC", "addr:street_address": "5710 UNIVERSITY PKWY", "amenity": "post_box", "collection_times": "Mo-Fr 10:30; Sa 10:00", "nsi_id": "unitedstatespostalservice-a77078", "operator": "United States Postal Service", "operator:short": "USPS", "operator:type": "public", "operator:wikidata": "Q668687", "ref": "2710500013"}, "type": "Feature"}
{"geometry": {"coordinates": [-80.2585189, 36.125185], "type": "Point"}, "id": "Dte3NlGxTW2Le43m4ocJ546OwFI=", "properties": {"@source_uri": "https://tools.usps.com/UspsToolsRestServices/rest/POLocator/findLocations", "@spider": "usps_collection_boxes", "addr:city": "WINSTON SALEM", "addr:country": "US", "addr:postcode": "27105", "addr:state": "NC", "addr:street_address": "2701 UNIVERSITY PKWY", "amenity": "post_box", "collection_times": "Mo-Fr 15:45; Sa 10:00", "note": "ON 12/24 AND 12/31, THIS BOX MAY BE COLLECTED AS EARLY AS 12 NOON.", "nsi_id": "unitedstatespostalservice-a77078", "operator": "United States Postal Service", "operator:short": "USPS", "operator:type": "public", "operator:wikidata": "Q668687", "ref": "2710500021"}, "type": "Feature"}
{"geometry": {"coordinates": [-80.2638190241, 36.1502799886], "type": "Point"}, "id": "wMGIMelnWa4jKpXqN_Y2DX0tkyM=", "properties": {"@source_uri": "https://tools.usps.com/UspsToolsRestServices/rest/POLocator/findLocations", "@spider": "usps_collection_boxes", "addr:city": "WINSTON SALEM", "addr:country": "US", "addr:postcode": "27105", "addr:state": "NC", "addr:street_address": "4431 CHERRY ST", "amenity": "post_box", "collection_times": "Mo-Fr 15:15; Sa 10:00", "note": "ON 12/24 AND 12/31, THIS BOX MAY BE COLLECTED AS EARLY AS 12 NOON.", "nsi_id": "unitedstatespostalservice-a77078", "operator": "United States Postal Service", "operator:short": "USPS", "operator:type": "public", "operator:wikidata": "Q668687", "ref": "2710500023"}, "type": "Feature"}
{"geometry": {"coordinates": [-80.271774, 36.184959], "type": "Point"}, "id": "Zuk3GKs3n2P0hGMHyuLKdfjdZY0=", "properties": {"@source_uri": "https://tools.usps.com/UspsToolsRestServices/rest/POLocator/findLocations", "@spider": "usps_collection_boxes", "addr:city": "WINSTON SALEM", "addr:country": "US", "addr:postcode": "27105", "addr:state": "NC", "addr:street_address": "200 SUMMIT SQUARE BLVD", "amenity": "post_box", "collection_times": "Mo-Fr 10:30; Sa 10:00", "nsi_id": "unitedstatespostalservice-a77078", "operator": "United States Postal Service", "operator:short": "USPS", "operator:type": "public", "operator:wikidata": "Q668687", "ref": "2710500043"}, "type": "Feature"}
{"geometry": {"coordinates": [-80.2426392, 36.113458], "type": "Point"}, "id": "8PUYvMrO_q2XAb1_3vkqJZm0SSo=", "properties": {"@source_uri": "https://tools.usps.com/UspsToolsRestServices/rest/POLocator/findLocations", "@spider": "usps_collection_boxes", "addr:city": "WINSTON SALEM", "addr:country": "US", "addr:postcode": "27105", "addr:state": "NC", "addr:street_address": "1500 N PATTERSON AVE", "amenity": "post_box", "collection_times": "Mo-Fr 17:00; Sa 10:00", "indoor": "yes", "note": "ON 12/24 AND 12/31, THIS BOX MAY BE COLLECTED AS EARLY AS 12 NOON.", "nsi_id": "unitedstatespostalservice-a77078", "operator": "United States Postal Service", "operator:short": "USPS", "operator:type": "public", "operator:wikidata": "Q668687", "ref": "2710500046"}, "type": "Feature"}
{"geometry": {"coordinates": [-80.241904963, 36.113209123], "type": "Point"}, "id": "29GC3h6xoYsKpKYp_ADeA1hYkXA=", "properties": {"@source_uri": "https://tools.usps.com/UspsToolsRestServices/rest/POLocator/findLocations", "@spider": "usps_collection_boxes", "addr:city": "WINSTON SALEM", "addr:country": "US", "addr:postcode": "27105", "addr:state": "NC", "addr:street_address": "1500 N PATTERSON AVE", "amenity": "post_box", "collection_times": "Mo-Fr 15:00", "indoor": "yes", "note": "ON 12/24 AND 12/31, THIS BOX MAY BE COLLECTED AS EARLY AS 12 NOON.", "nsi_id": "unitedstatespostalservice-a77078", "operator": "United States Postal Service", "operator:short": "USPS", "operator:type": "public", "operator:wikidata": "Q668687", "ref": "2710500049"}, "type": "Feature"}
{"geometry": {"coordinates": [-80.3132623, 36.115414], "type": "Point"}, "id": "mED8qyWngiJNPoaRTfJc7YHv5rw=", "properties": {"@source_uri": "https://tools.usps.com/UspsToolsRestServices/rest/POLocator/findLocations", "@spider": "usps_collection_boxes", "addr:city": "WINSTON SALEM", "addr:country": "US", "addr:postcode": "27106", "addr:state": "NC", "addr:street_address": "3300 ROBINHOOD RD", "amenity": "post_box", "collection_times": "Mo-Fr 15:30; Sa 10:00", "note": "ON 12/24 AND 12/31, THIS BOX MAY BE COLLECTED AS EARLY AS 12 NOON.", "nsi_id": "unitedstatespostalservice-a77078", "operator": "United States Postal Service", "operator:short": "USPS", "operator:type": "public", "operator:wikidata": "Q668687", "ref": "2710600006"}, "type": "Feature"}
{"geometry": {"coordinates": [-80.2723999, 36.151504], "type": "Point"}, "id": "g5tdtoccg7jJtoCmHhLVbidGqko=", "properties": {"@source_uri": "https://tools.usps.com/UspsToolsRestServices/rest/POLocator/findLocations", "@spider": "usps_collection_boxes", "addr:city": "WINSTON SALEM", "addr:country": "US", "addr:postcode": "27106", "addr:state": "NC", "addr:street_address": "4305 ENTERPRISE DR", "amenity": "post_box", "collection_times": "Mo-Fr 16:00; Sa 10:00", "note": "ON 12/24 AND 12/31, THIS BOX MAY BE COLLECTED AS EARLY AS 12 NOON.", "nsi_id": "unitedstatespostalservice-a77078", "operator": "United States Postal Service", "operator:short": "USPS", "operator:type": "public", "operator:wikidata": "Q668687", "ref": "2710600025"}, "type": "Feature"}
{"geometry": {"coordinates": [-80.2692924, 36.148543], "type": "Point"}, "id": "XiPH8UwiL2noY8-iXSejGA8SraY=", "properties": {"@source_uri": "https://tools.usps.com/UspsToolsRestServices/rest/POLocator/findLocations", "@spider": "usps_collection_boxes", "addr:city": "WINSTON SALEM", "addr:country": "US", "addr:postcode": "27106", "addr:state": "NC", "addr:street_address": "8025 N POINT BLVD", "amenity": "post_box", "collection_times": "Mo-Fr 15:45; Sa 10:00", "note": "ON 12/24 AND 12/31, THIS BOX MAY BE COLLECTED AS EARLY AS 12 NOON.", "nsi_id": "unitedstatespostalservice-a77078", "operator": "United States Postal Service", "operator:short": "USPS", "operator:type": "public", "operator:wikidata": "Q668687", "ref": "2710600030"}, "type": "Feature"}
{"geometry": {"coordinates": [-80.2778973, 36.133356], "type": "Point"}, "id": "dgLje2mYy-AwrNvIvsjVOLTQMnw=", "properties": {"@source_uri": "https://tools.usps.com/UspsToolsRestServices/rest/POLocator/findLocations", "@spider": "usps_collection_boxes", "addr:city": "WINSTON SALEM", "addr:country": "US", "addr:postcode": "27106", "addr:state": "NC", "addr:street_address": "1834 WAKE FOREST RD", "amenity": "post_box", "collection_times": "Mo-Fr 15:30; Sa 10:00", "note": "ON 12/24 AND 12/31, THIS BOX MAY BE COLLECTED AS EARLY AS 12 NOON.", "nsi_id": "unitedstatespostalservice-a77078", "operator": "United States Postal Service", "operator:short": "USPS", "operator:type": "public", "operator:wikidata": "Q668687", "ref": "2710600032"}, "type": "Feature"}
{"geometry": {"coordinates": [-80.3150668, 36.155003], "type": "Point"}, "id": "GShY1KiRbIUdfKPiDekeZfqLxN8=", "properties": {"@source_uri": "https://tools.usps.com/UspsToolsRestServices/rest/POLocator/findLocations", "@spider": "usps_collection_boxes", "addr:city": "WINSTON SALEM", "addr:country": "US", "addr:postcode": "27106", "addr:state": "NC", "addr:street_address": "3600 REYNOLDA RD", "amenity": "post_box", "collection_times": "Mo-Sa 09:00", "nsi_id": "unitedstatespostalservice-a77078", "operator": "United States Postal Service", "operator:short": "USPS", "operator:type": "public", "operator:wikidata": "Q668687", "ref": "2710600034"}, "type": "Feature"}
{"geometry": {"coordinates": [-80.2855218, 36.127203], "type": "Point"}, "id": "V_ObO71XXTWoVNcWtZRSw3U72qs=", "properties": {"@source_uri": "https://tools.usps.com/UspsToolsRestServices/rest/POLocator/findLocations", "@spider": "usps_collection_boxes", "addr:city": "WINSTON SALEM", "addr:country": "US", "addr:postcode": "27106", "addr:state": "NC", "addr:street_address": "114 REYNOLDA VLG", "amenity": "post_box", "collection_times": "Mo-Fr 10:30; Sa 10:00", "nsi_id": "unitedstatespostalservice-a77078", "operator": "United States Postal Service", "operator:short": "USPS", "operator:type": "public", "operator:wikidata": "Q668687", "ref": "2710600038"}, "type": "Feature"}
{"geometry": {"coordinates": [-80.263522, 36.124337], "type": "Point"}, "id": "UAL0mXWjpwehU_iD-rQEc2WtMcI=", "properties": {"@source_uri": "https://tools.usps.com/UspsToolsRestServices/rest/POLocator/findLocations", "@spider": "usps_collection_boxes", "addr:city": "WINSTON SALEM", "addr:country": "US", "addr:postcode": "27106", "addr:state": "NC", "addr:street_address": "723 COLISEUM DR", "amenity": "post_box", "collection_times": "Mo-Fr 15:30; Sa 10:00", "note": "ON 12/24 AND 12/31, THIS BOX MAY BE COLLECTED AS EARLY AS 12 NOON.", "nsi_id": "unitedstatespostalservice-a77078", "operator": "United States Postal Service", "operator:short": "USPS", "operator:type": "public", "operator:wikidata": "Q668687", "ref": "2710600040"}, "type": "Feature"}
{"geometry": {"coordinates": [-80.2636544, 36.123204], "type": "Point"}, "id": "GFPsxy-qPZgVyXc4qBk5Xg3RRmI=", "properties": {"@source_uri": "https://tools.usps.com/UspsToolsRestServices/rest/POLocator/findLocations", "@spider": "usps_collection_boxes", "addr:city": "WINSTON SALEM", "addr:country": "US", "addr:postcode": "27106", "addr:state": "NC", "addr:street_address": "710 COLISEUM DR", "amenity": "post_box", "collection_times": "Mo-Fr 15:45; Sa 10:00", "note": "ON 12/24 AND 12/31, THIS BOX MAY BE COLLECTED AS EARLY AS 12 NOON.", "nsi_id": "unitedstatespostalservice-a77078", "operator": "United States Postal Service", "operator:short": "USPS", "operator:type": "public", "operator:wikidata": "Q668687", "ref": "2710600044"}, "type": "Feature"}
{"geometry": {"coordinates": [-80.315697, 36.117372], "type": "Point"}, "id": "hHjiXsa--f01yCWKKhng4-jj4h8=", "properties": {"@source_uri": "https://tools.usps.com/UspsToolsRestServices/rest/POLocator/findLocations", "@spider": "usps_collection_boxes", "addr:city": "WINSTON SALEM", "addr:country": "US", "addr:postcode": "27106", "addr:state": "NC", "addr:street_address": "3450 ROBINHOOD RD", "amenity": "post_box", "collection_times": "Mo-Fr 17:00; Sa 10:00", "note": "ON 12/24 AND 12/31, THIS BOX MAY BE COLLECTED AS EARLY AS 12 NOON.", "nsi_id": "unitedstatespostalservice-a77078", "operator": "United States Postal Service", "operator:short": "USPS", "operator:type": "public", "operator:wikidata": "Q668687", "ref": "2710600064"}, "type": "Feature"}
{"geometry": {"coordinates": [-80.2999187, 36.141854], "type": "Point"}, "id": "0SRTsKWikTckqnjbkw1x8QWWzBk=", "properties": {"@source_uri": "https://tools.usps.com/UspsToolsRestServices/rest/POLocator/findLocations", "@spider": "usps_collection_boxes", "addr:city": "WINSTON SALEM", "addr:country": "US", "addr:postcode": "27106", "addr:state": "NC", "addr:street_address": "2808 REYNOLDA RD", "amenity": "post_box", "collection_times": "Mo-Fr 10:30; Sa 10:00", "nsi_id": "unitedstatespostalservice-a77078", "operator": "United States Postal Service", "operator:short": "USPS", "operator:type": "public", "operator:wikidata": "Q668687", "ref": "2710600066"}, "type": "Feature"}
{"geometry": {"coordinates": [-80.275850786, 36.150657474], "type": "Point"}, "id": "478JEQT8TVmTvGIze4aCkt8nckI=", "properties": {"@source_uri": "https://tools.usps.com/UspsToolsRestServices/rest/POLocator/findLocations", "@spider": "usps_collection_boxes", "addr:city": "WINSTON SALEM", "addr:country": "US", "addr:postcode": "27106", "addr:state": "NC", "addr:street_address": "7840 N POINT BLVD", "amenity": "post_box", "collection_times": "Mo-Fr 17:00; Sa 10:00", "note": "ON 12/24 AND 12/31, THIS BOX MAY BE COLLECTED AS EARLY AS 12 NOON.", "nsi_id": "unitedstatespostalservice-a77078", "operator": "United States Postal Service", "operator:short": "USPS", "operator:type": "public", "operator:wikidata": "Q668687", "ref": "2710600068"}, "type": "Feature"}
{"geometry": {"coordinates": [-80.275801, 36.152099], "type": "Point"}, "id": "dXUManYE61xos4kauLeM1cAvoJM=", "properties": {"@source_uri": "https://tools.usps.com/UspsToolsRestServices/rest/POLocator/findLocations", "@spider": "usps_collection_boxes", "addr:city": "WINSTON SALEM", "addr:country": "US", "addr:postcode": "27106", "addr:state": "NC", "addr:street_address": "7840 N POINT BLVD", "amenity": "post_box", "collection_times": "Mo-Fr 17:00; Sa 10:00", "indoor": "yes", "note": "ON 12/24 AND 12/31, THIS BOX MAY BE COLLECTED AS EARLY AS 12 NOON.", "nsi_id": "unitedstatespostalservice-a77078", "operator": "United States Postal Service", "operator:short": "USPS", "operator:type": "public", "operator:wikidata": "Q668687", "ref": "2710600071"}, "type": "Feature"}
{"geometry": {"coordinates": [-80.275801, 36.152099], "type": "Point"}, "id": "6nOnm2Gi-PVe9wHo8sbwwqe0mkQ=", "properties": {"@source_uri": "https://tools.usps.com/UspsToolsRestServices/rest/POLocator/findLocations", "@spider": "usps_collection_boxes", "addr:city": "WINSTON SALEM", "addr:country": "US", "addr:postcode": "27106", "addr:state": "NC", "addr:street_address": "7840 N POINT BLVD", "amenity": "post_box", "collection_times": "Mo-Fr 17:00; Sa 10:00", "name": "USPS COLLECTION BOX - APC", "note": "ON 12/24 AND 12/31, THIS BOX MAY BE COLLECTED AS EARLY AS 12 NOON.", "nsi_id": "unitedstatespostalservice-a77078", "operator": "United States Postal Service", "operator:short": "USPS", "operator:type": "public", "operator:wikidata": "Q668687", "ref": "2710600072"}, "type": "Feature"}
{"geometry": {"coordinates": [-80.275850786, 36.150657474], "type": "Point"}, "id": "wmpJ4j5z3cPpFYer7VhkXeLQWB8=", "properties": {"@source_uri": "https://tools.usps.com/UspsToolsRestServices/rest/POLocator/findLocations", "@spider": "usps_collection_boxes", "addr:city": "WINSTON SALEM", "addr:country": "US", "addr:postcode": "27106", "addr:state": "NC", "addr:street_address": "7840 N POINT BLVD", "amenity": "post_box", "collection_times": "Mo-Fr 17:00", "indoor": "yes", "note": "ON 12/24 AND 12/31, THIS BOX MAY BE COLLECTED AS EARLY AS 12 NOON.", "nsi_id": "unitedstatespostalservice-a77078", "operator": "United States Postal Service", "operator:short": "USPS", "operator:type": "public", "operator:wikidata": "Q668687", "ref": "2710600079"}, "type": "Feature"}
{"geometry": {"coordinates": [-80.206708132, 36.069812591], "type": "Point"}, "id": "zUjZ6_tzvD-SIc3fqF7-s4hpmPk=", "properties": {"@source_uri": "https://tools.usps.com/UspsToolsRestServices/rest/POLocator/findLocations", "@spider": "usps_collection_boxes", "addr:city": "WINSTON SALEM", "addr:country": "US", "addr:postcode": "27107", "addr:state": "NC", "addr:street_address": "1995 PLEASANT ST", "amenity": "post_box", "collection_times": "Mo-Fr 17:00; Sa 10:00", "note": "ON 12/24 AND 12/31, THIS BOX MAY BE COLLECTED AS EARLY AS 12 NOON.", "nsi_id": "unitedstatespostalservice-a77078", "operator": "United States Postal Service", "operator:short": "USPS", "operator:type": "public", "operator:wikidata": "Q668687", "ref": "2710700011"}, "type": "Feature"}
{"geometry": {"coordinates": [-80.1788415, 36.07721], "type": "Point"}, "id": "mF7fiRakDp1uNRQ6TWHcSfuZoHk=", "properties": {"@source_uri": "https://tools.usps.com/UspsToolsRestServices/rest/POLocator/findLocations", "@spider": "usps_collection_boxes", "addr:city": "WINSTON SALEM", "addr:country": "US", "addr:postcode": "27107", "addr:state": "NC", "addr:street_address": "3039 WAUGHTOWN ST", "amenity": "post_box", "collection_times": "Mo-Fr 11:00; Sa 10:00", "nsi_id": "unitedstatespostalservice-a77078", "operator": "United States Postal Service", "operator:short": "USPS", "operator:type": "public", "operator:wikidata": "Q668687", "ref": "2710700017"}, "type": "Feature"}
{"geometry": {"coordinates": [-80.2526947, 36.066212], "type": "Point"}, "id": "Ls5XinEhoWm3cEzxweXfy04mOWI=", "properties": {"@source_uri": "https://tools.usps.com/UspsToolsRestServices/rest/POLocator/findLocations", "@spider": "usps_collection_boxes", "addr:city": "WINSTON SALEM", "addr:country": "US", "addr:postcode": "27107", "addr:state": "NC", "addr:street_address": "1101 SILAS CREEK PKWY", "amenity": "post_box", "collection_times": "Mo-Fr 15:15; Sa 10:00", "note": "ON 12/24 AND 12/31, THIS BOX MAY BE COLLECTED AS EARLY AS 12 NOON.", "nsi_id": "unitedstatespostalservice-a77078", "operator": "United States Postal Service", "operator:short": "USPS", "operator:type": "public", "operator:wikidata": "Q668687", "ref": "2710700021"}, "type": "Feature"}
{"geometry": {"coordinates": [-80.2262804, 36.057137], "type": "Point"}, "id": "YO5BwtkBABH5qJ5c9TeifR-jdUk=", "properties": {"@source_uri": "https://tools.usps.com/UspsToolsRestServices/rest/POLocator/findLocations", "@spider": "usps_collection_boxes", "addr:city": "WINSTON SALEM", "addr:country": "US", "addr:postcode": "27107", "addr:state": "NC", "addr:street_address": "3300 OLD LEXINGTON RD", "amenity": "post_box", "collection_times": "Mo-Sa 08:45", "nsi_id": "unitedstatespostalservice-a77078", "operator": "United States Postal Service", "operator:short": "USPS", "operator:type": "public", "operator:wikidata": "Q668687", "ref": "2710700037"}, "type": "Feature"}
{"geometry": {"coordinates": [-80.206708132, 36.069812591], "type": "Point"}, "id": "lLFk6Sw7Su_-6NFdWvVZkTbQRjE=", "properties": {"@source_uri": "https://tools.usps.com/UspsToolsRestServices/rest/POLocator/findLocations", "@spider": "usps_collection_boxes", "addr:city": "WINSTON SALEM", "addr:country": "US", "addr:postcode": "27107", "addr:state": "NC", "addr:street_address": "1995 PLEASANT ST", "amenity": "post_box", "collection_times": "Mo-Fr 17:00; Sa 10:00", "indoor": "yes", "note": "ON 12/24 AND 12/31, THIS BOX MAY BE COLLECTED AS EARLY AS 12 NOON.", "nsi_id": "unitedstatespostalservice-a77078", "operator": "United States Postal Service", "operator:short": "USPS", "operator:type": "public", "operator:wikidata": "Q668687", "ref": "2710700038"}, "type": "Feature"}
{"geometry": {"coordinates": [-80.206708132, 36.069812591], "type": "Point"}, "id": "oTY13Dy3utQsn-g0j4v0oGTDr1U=", "properties": {"@source_uri": "https://tools.usps.com/UspsToolsRestServices/rest/POLocator/findLocations", "@spider": "usps_collection_boxes", "addr:city": "WINSTON SALEM", "addr:country": "US", "addr:postcode": "27107", "addr:state": "NC", "addr:street_address": "1995 PLEASANT ST", "amenity": "post_box", "collection_times": "Mo-Fr 15:00", "indoor": "yes", "note": "ON 12/24 AND 12/31, THIS BOX MAY BE COLLECTED AS EARLY AS 12 NOON.", "nsi_id": "unitedstatespostalservice-a77078", "operator": "United States Postal Service", "operator:short": "USPS", "operator:type": "public", "operator:wikidata": "Q668687", "ref": "2710700042"}, "type": "Feature"}
{"geometry": {"coordinates": [-80.259814313, 36.049643047], "type": "Point"}, "id": "5Q_reVyZD_u1udUcGsLPYn4TeEM=", "properties": {"@source_uri": "https://tools.usps.com/UspsToolsRestServices/rest/POLocator/findLocations", "@spider": "usps_collection_boxes", "addr:city": "WINSTON SALEM", "addr:country": "US", "addr:postcode": "27127", "addr:state": "NC", "addr:street_address": "3100 PETERS CREEK PKWY", "amenity": "post_box", "collection_times": "Mo-Fr 11:30; Sa 10:00", "nsi_id": "unitedstatespostalservice-a77078", "operator": "United States Postal Service", "operator:short": "USPS", "operator:type": "public", "operator:wikidata": "Q668687", "ref": "2712700002"}, "type": "Feature"}
{"geometry": {"coordinates": [-80.2690578934, 35.9933302271], "type": "Point"}, "id": "Z5EeuaPKtG_99EBbl7Fh-k2c5gE=", "properties": {"@source_uri": "https://tools.usps.com/UspsToolsRestServices/rest/POLocator/findLocations", "@spider": "usps_collection_boxes", "addr:city": "WINSTON SALEM", "addr:country": "US", "addr:postcode": "27127", "addr:state": "NC", "addr:street_address": "12201 N NC HIGHWAY 150", "amenity": "post_box", "collection_times": "Mo-Fr 10:00", "nsi_id": "unitedstatespostalservice-a77078", "operator": "United States Postal Service", "operator:short": "USPS", "operator:type": "public", "operator:wikidata": "Q668687", "ref": "2712700003"}, "type": "Feature"}
