{"geometry": {"coordinates": [-79.658646857, 36.109521241], "type": "Point"}, "id": "g0HZn2Qzhg0C401BOpH0NZ08hdw=", "properties": {"@source_uri": "https://tools.usps.com/UspsToolsRestServices/rest/POLocator/findLocations", "@spider": "usps_collection_boxes", "addr:city": "MCLEANSVILLE", "addr:country": "US", "addr:postcode": "27301", "addr:state": "NC", "addr:street_address": "5711 MCLEANSVILLE RD", "amenity": "post_box", "collection_times": "Mo-Fr 16:30; Sa 11:30", "note": "ON 12/24 AND 12/31, THIS BOX MAY BE COLLECTED AS EARLY AS 12 NOON.", "nsi_id": "unitedstatespostalservice-a77078", "operator": "United States Postal Service", "operator:short": "USPS", "operator:type": "public", "operator:wikidata": "Q668687", "ref": "2730100001"}, "type": "Feature"}
{"geometry": {"coordinates": [-79.658646857, 36.109521241], "type": "Point"}, "id": "QrsQQARotUlA1wVkHl_7ZPEXrHo=", "properties": {"@source_uri": "https://tools.usps.com/UspsToolsRestServices/rest/POLocator/findLocations", "@spider": "usps_collection_boxes", "addr:city": "MCLEANSVILLE", "addr:country": "US", "addr:postcode": "27301", "addr:state": "NC", "addr:street_address": "5711 MCLEANSVILLE RD", "amenity": "post_box", "collection_times": "Mo-Fr 16:30; Sa 11:30", "indoor": "yes", "note": "ON 12/24 AND 12/31, THIS BOX MAY BE COLLECTED AS EARLY AS 12 NOON.", "nsi_id": "unitedstatespostalservice-a77078", "operator": "United States Postal Service", "operator:short": "USPS", "operator:type": "public", "operator:wikidata": "Q668687", "ref": "2730100004"}, "type": "Feature"}
{"geometry": {"coordinates": [-79.658646857, 36.109521241], "type": "Point"}, "id": "XtYiG772c5d8swp_Id4vG0EQ7TQ=", "properties": {"@source_uri": "https://tools.usps.com/UspsToolsRestServices/rest/POLocator/findLocations", "@spider": "usps_collection_boxes", "addr:city": "MCLEANSVILLE", "addr:country": "US", "addr:postcode": "27301", "addr:state": "NC", "addr:street_address": "5711 MCLEANSVILLE RD", "amenity": "post_box", "collection_times": "Mo-Fr 16:30", "indoor": "yes", "note": "ON 12/24 AND 12/31, THIS BOX MAY BE COLLECTED AS EARLY AS 12 NOON.", "nsi_id": "unitedstatespostalservice-a77078", "operator": "United States Postal Service", "operator:short": "USPS", "operator:type": "public", "operator:wikidata": "Q668687", "ref": "2730100005"}, "type": "Feature"}
{"geometry": {"coordinates": [-79.2662708, 36.09672], "type": "Point"}, "id": "2Y6pI36VT2q6swKzDCKDCUZR8FU=", "properties": {"@source_uri": "https://tools.usps.com/UspsToolsRestServices/rest/POLocator/findLocations", "@spider": "usps_collection_boxes", "addr:city": "MEBANE", "addr:country": "US", "addr:postcode": "27302", "addr:state": "NC", "addr:street_address": "100 N FIFTH ST", "amenity": "post_box", "collection_times": "Mo-Fr 11:00", "nsi_id": "unitedstatespostalservice-a77078", "operator": "United States Postal Service", "operator:short": "USPS", "operator:type": "public", "operator:wikidata": "Q668687", "ref": "2730200003"}, "type": "Feature"}
{"geometry": {"coordinates": [-79.2701666, 36.095241], "type": "Point"}, "id": "QAARr-6Gpj-eb08HG4tnqtgg_Ag=", "properties": {"@source_uri": "https://tools.usps.com/UspsToolsRestServices/rest/POLocator/findLocations", "@spider": "usps_collection_boxes", "addr:city": "MEBANE", "addr:country": "US", "addr:postcode": "27302", "addr:state": "NC", "addr:street_address": "100 S THIRD ST", "amenity": "post_box", "collection_times": "Mo-Fr 11:00", "nsi_id": "unitedstatespostalservice-a77078", "operator": "United States Postal Service", "operator:short": "USPS", "operator:type": "public", "operator:wikidata": "Q668687", "ref": "2730200004"}, "type": "Feature"}
{"geometry": {"coordinates": [-79.2671807, 36.094729], "type": "Point"}, "id": "WaVyYXU2sAPBW6byEwhpc42eL7M=", "properties": {"@source_uri": "https://tools.usps.com/UspsToolsRestServices/rest/POLocator/findLocations", "@spider": "usps_collection_boxes", "addr:city": "MEBANE", "addr:country": "US", "addr:postcode": "27302", "addr:state": "NC", "addr:street_address": "100 S FIFTH ST", "amenity": "post_box", "collection_times": "Mo-Fr 11:00", "nsi_id": "unitedstatespostalservice-a77078", "operator": "United States Postal Service", "operator:short": "USPS", "operator:type": "public", "operator:wikidata": "Q668687", "ref": "2730200006"}, "type": "Feature"}
{"geometry": {"coordinates": [-79.2702163, 36.097676], "type": "Point"}, "id": "jImcavmtiH9o9oq_m0Gt3-J9f-k=", "properties": {"@source_uri": "https://tools.usps.com/UspsToolsRestServices/rest/POLocator/findLocations", "@spider": "usps_collection_boxes", "addr:city": "MEBANE", "addr:country": "US", "addr:postcode": "27302", "addr:state": "NC", "addr:street_address": "200 W CLAY ST", "amenity": "post_box", "collection_times": "Mo-Fr 11:00", "nsi_id": "unitedstatespostalservice-a77078", "operator": "United States Postal Service", "operator:short": "USPS", "operator:type": "public", "operator:wikidata": "Q668687", "ref": "2730200009"}, "type": "Feature"}
{"geometry": {"coordinates": [-79.2753127, 36.073695], "type": "Point"}, "id": "DEbhVEzLTEbHr2_QJJ3-oQ55tOc=", "properties": {"@source_uri": "https://tools.usps.com/UspsToolsRestServices/rest/POLocator/findLocations", "@spider": "usps_collection_boxes", "addr:city": "MEBANE", "addr:country": "US", "addr:postcode": "27302", "addr:state": "NC", "addr:street_address": "1024 MEBANE OAKS RD", "amenity": "post_box", "collection_times": "Mo-Sa 11:00", "nsi_id": "unitedstatespostalservice-a77078", "operator": "United States Postal Service", "operator:short": "USPS", "operator:type": "public", "operator:wikidata": "Q668687", "ref": "2730200016"}, "type": "Feature"}
{"geometry": {"coordinates": [-79.2910215, 36.077890509], "type": "Point"}, "id": "BZj2rCpzq77sMER2ZOU0R2jNoQ0=", "properties": {"@source_uri": "https://tools.usps.com/UspsToolsRestServices/rest/POLocator/findLocations", "@spider": "usps_collection_boxes", "addr:city": "MEBANE", "addr:country": "US", "addr:postcode": "27302", "addr:state": "NC", "addr:street_address": "100 VILLAGE DR", "amenity": "post_box", "collection_times": "Mo-Fr 17:00; Sa 11:15", "note": "ON 12/24 AND 12/31, THIS BOX MAY BE COLLECTED AS EARLY AS 12 NOON.", "nsi_id": "unitedstatespostalservice-a77078", "operator": "United States Postal Service", "operator:short": "USPS", "operator:type": "public", "operator:wikidata": "Q668687", "ref": "2730200017"}, "type": "Feature"}
{"geometry": {"coordinates": [-79.2910215, 36.077890509], "type": "Point"}, "id": "NjFIRj742p2IbtiSBTx6-matsh0=", "properties": {"@source_uri": "https://tools.usps.com/UspsToolsRestServices/rest/POLocator/findLocations", "@spider": "usps_collection_boxes", "addr:city": "MEBANE", "addr:country": "US", "addr:postcode": "27302", "addr:state": "NC", "addr:street_address": "100 VILLAGE DR", "amenity": "post_box", "collection_times": "Mo-Fr 17:00; Sa 11:30", "indoor": "yes", "note": "ON 12/24 AND 12/31, THIS BOX MAY BE COLLECTED AS EARLY AS 12 NOON.", "nsi_id": "unitedstatespostalservice-a77078", "operator": "United States Postal Service", "operator:short": "USPS", "operator:type": "public", "operator:wikidata": "Q668687", "ref": "2730200018"}, "type": "Feature"}
{"geometry": {"coordinates": [-79.2910215, 36.077890509], "type": "Point"}, "id": "AxaFhKH28ekKJNCC37xyWmz8qmo=", "properties": {"@source_uri": "https://tools.usps.com/UspsToolsRestServices/rest/POLocator/findLocations", "@spider": "usps_collection_boxes", "addr:city": "MEBANE", "addr:country": "US", "addr:postcode": "27302", "addr:state": "NC", "addr:street_address": "100 VILLAGE DR", "amenity": "post_box", "collection_times": "Mo-Fr 16:30; Sa 11:30", "indoor": "yes", "note": "ON 12/24 AND 12/31, THIS BOX MAY BE COLLECTED AS EARLY AS 12 NOON.", "nsi_id": "unitedstatespostalservice-a77078", "operator": "United States Postal Service", "operator:short": "USPS", "operator:type": "public", "operator:wikidata": "Q668687", "ref": "2730200022"}, "type": "Feature"}
{"geometry": {"coordinates": [-79.2038365173, 36.5387213843], "type": "Point"}, "id": "BOl5xZmDHj7V0pM7SgcQUdITANI=", "properties": {"@source_uri": "https://tools.usps.com/UspsToolsRestServices/rest/POLocator/findLocations", "@spider": "usps_collection_boxes", "addr:city": "MILTON", "addr:country": "US", "addr:postcode": "27305", "addr:state": "NC", "addr:street_address": "19 BRIDGE ST N", "amenity": "post_box", "collection_times": "Mo-Fr 15:30", "note": "ON 12/24 AND 12/31, THIS BOX MAY BE COLLECTED AS EARLY AS 12 NOON.", "nsi_id": "unitedstatespostalservice-a77078", "operator": "United States Postal Service", "operator:short": "USPS", "operator:type": "public", "operator:wikidata": "Q668687", "ref": "2730500006"}, "type": "Feature"}
{"geometry": {"coordinates": [-80.003865187, 35.215464195], "type": "Point"}, "id": "_62kFS2EV_uGcHw_p7h2TFRm5kw=", "properties": {"@source_uri": "https://tools.usps.com/UspsToolsRestServices/rest/POLocator/findLocations", "@spider": "usps_collection_boxes", "addr:city": "MOUNT GILEAD", "addr:country": "US", "addr:postcode": "27306", "addr:state": "NC", "addr:street_address": "106 N SCHOOL ST", "amenity": "post_box", "collection_times": "Mo-Fr 16:30; Sa 12:00", "note": "ON 12/24 AND 12/31, THIS BOX MAY BE COLLECTED AS EARLY AS 12 NOON.", "nsi_id": "unitedstatespostalservice-a77078", "operator": "United States Postal Service", "operator:short": "USPS", "operator:type": "public", "operator:wikidata": "Q668687", "ref": "2730600004"}, "type": "Feature"}
{"geometry": {"coordinates": [-80.003865187, 35.215464195], "type": "Point"}, "id": "Hp8NVe0BI5xe6M1FqWcueqTYeXs=", "properties": {"@source_uri": "https://tools.usps.com/UspsToolsRestServices/rest/POLocator/findLocations", "@spider": "usps_collection_boxes", "addr:city": "MOUNT GILEAD", "addr:country": "US", "addr:postcode": "27306", "addr:state": "NC", "addr:street_address": "106 N SCHOOL ST", "amenity": "post_box", "collection_times": "Mo-Fr 16:30; Sa 12:00", "indoor": "yes", "note": "ON 12/24 AND 12/31, THIS BOX MAY BE COLLECTED AS EARLY AS 12 NOON.", "nsi_id": "unitedstatespostalservice-a77078", "operator": "United States Postal Service", "operator:short": "USPS", "operator:type": "public", "operator:wikidata": "Q668687", "ref": "2730600006"}, "type": "Feature"}
{"geometry": {"coordinates": [-80.003865187, 35.215464195], "type": "Point"}, "id": "I1bKuTdLLbX73g3sSYq4QdAgZdg=", "properties": {"@source_uri": "https://tools.usps.com/UspsToolsRestServices/rest/POLocator/findLocations", "@spider": "usps_collection_boxes", "addr:city": "MOUNT GILEAD", "addr:country": "US", "addr:postcode": "27306", "addr:state": "NC", "addr:street_address": "106 N SCHOOL ST", "amenity": "post_box", "collection_times": "Mo-Fr 16:30; Sa 12:00", "indoor": "yes", "note": "ON 12/24 AND 12/31, THIS BOX MAY BE COLLECTED AS EARLY AS 12 NOON.", "nsi_id": "unitedstatespostalservice-a77078", "operator": "United States Postal Service", "operator:short": "USPS", "operator:type": "public", "operator:wikidata": "Q668687", "ref": "2730600007"}, "type": "Feature"}
{"geometry": {"coordinates": [-79.998652748, 36.171872898], "type": "Point"}, "id": "MuaFVgFxTpPIDbE3APet850Ctxw=", "properties": {"@source_uri": "https://tools.usps.com/UspsToolsRestServices/rest/POLocator/findLocations", "@spider": "usps_collection_boxes", "addr:city": "OAK RIDGE", "addr:country": "US", "addr:postcode": "27310", "addr:state": "NC", "addr:street_address": "8323 LINVILLE RD", "amenity": "post_box", "collection_times": "Mo-Fr 16:15; Sa 11:15", "note": "ON 12/24 AND 12/31, THIS BOX MAY BE COLLECTED AS EARLY AS 12 NOON.", "nsi_id": "unitedstatespostalservice-a77078", "operator": "United States Postal Service", "operator:short": "USPS", "operator:type": "public", "operator:wikidata": "Q668687", "ref": "2731000003"}, "type": "Feature"}
{"geometry": {"coordinates": [-79.998652748, 36.171872898], "type": "Point"}, "id": "kQuLyvNsq9go7Uy9oJbwSKzesX4=", "properties": {"@source_uri": "https://tools.usps.com/UspsToolsRestServices/rest/POLocator/findLocations", "@spider": "usps_collection_boxes", "addr:city": "OAK RIDGE", "addr:country": "US", "addr:postcode": "27310", "addr:state": "NC", "addr:street_address": "8323 LINVILLE RD", "amenity": "post_box", "collection_times": "Mo-Fr 16:30; Sa 11:30", "indoor": "yes", "note": "ON 12/24 AND 12/31, THIS BOX MAY BE COLLECTED AS EARLY AS 12 NOON.", "nsi_id": "unitedstatespostalservice-a77078", "operator": "United States Postal Service", "operator:short": "USPS", "operator:type": "public", "operator:wikidata": "Q668687", "ref": "2731000004"}, "type": "Feature"}
{"geometry": {"coordinates": [-79.998652748, 36.171872898], "type": "Point"}, "id": "P83XQp1hZ3wtgDi-7TuGbd6X1y4=", "properties": {"@source_uri": "https://tools.usps.com/UspsToolsRestServices/rest/POLocator/findLocations", "@spider": "usps_collection_boxes", "addr:city": "OAK RIDGE", "addr:country": "US", "addr:postcode": "27310", "addr:state": "NC", "addr:street_address": "8323 LINVILLE RD", "amenity": "post_box", "collection_times": "Mo-Fr 16:30; Sa 11:30", "indoor": "yes", "note": "ON 12/24 AND 12/31, THIS BOX MAY BE COLLECTED AS EARLY AS 12 NOON.", "nsi_id": "unitedstatespostalservice-a77078", "operator": "United States Postal Service", "operator:short": "USPS", "operator:type": "public", "operator:wikidata": "Q668687", "ref": "2731000006"}, "type": "Feature"}
{"geometry": {"coordinates": [-79.4858670139, 36.4848550113], "type": "Point"}, "id": "8VTQtHFbXGranDF2PGWIYAWH0K0=", "properties": {"@source_uri": "https://tools.usps.com/UspsToolsRestServices/rest/POLocator/findLocations", "@spider": "usps_collection_boxes", "addr:city": "PELHAM", "addr:country": "US", "addr:postcode": "27311", "addr:state": "NC", "addr:street_address": "6331 OLD US HIGHWAY 29", "amenity": "post_box", "collection_times": "Mo-Fr 16:30; Sa 12:00", "note": "ON 12/24 AND 12/31, THIS BOX MAY BE COLLECTED AS EARLY AS 12 NOON.", "nsi_id": "unitedstatespostalservice-a77078", "operator": "United States Postal Service", "operator:short": "USPS", "operator:type": "public", "operator:wikidata": "Q668687", "ref": "2731100001"}, "type": "Feature"}
{"geometry": {"coordinates": [-79.48634504, 36.484868139], "type": "Point"}, "id": "K-If1iqoVFu0s97guKKkeGDaBg8=", "properties": {"@source_uri": "https://tools.usps.com/UspsToolsRestServices/rest/POLocator/findLocations", "@spider": "usps_collection_boxes", "addr:city": "PELHAM", "addr:country": "US", "addr:postcode": "27311", "addr:state": "NC", "addr:street_address": "6331 OLD US HIGHWAY 29", "amenity": "post_box", "collection_times": "Mo-Fr 16:30; Sa 12:00", "indoor": "yes", "note": "ON 12/24 AND 12/31, THIS BOX MAY BE COLLECTED AS EARLY AS 12 NOON.", "nsi_id": "unitedstatespostalservice-a77078", "operator": "United States Postal Service", "operator:short": "USPS", "operator:type": "public", "operator:wikidata": "Q668687", "ref": "2731100002"}, "type": "Feature"}
{"geometry": {"coordinates": [-79.48634504, 36.484868139], "type": "Point"}, "id": "TGsPfKLJCX5UHDEJ8L0L3-60ZOI=", "properties": {"@source_uri": "https://tools.usps.com/UspsToolsRestServices/rest/POLocator/findLocations", "@spider": "usps_collection_boxes", "addr:city": "PELHAM", "addr:country": "US", "addr:postcode": "27311", "addr:state": "NC", "addr:street_address": "6331 OLD US HIGHWAY 29", "amenity": "post_box", "collection_times": "Mo-Fr 16:30; Sa 12:00", "indoor": "yes", "note": "ON 12/24 AND 12/31, THIS BOX MAY BE COLLECTED AS EARLY AS 12 NOON.", "nsi_id": "unitedstatespostalservice-a77078", "operator": "United States Postal Service", "operator:short": "USPS", "operator:type": "public", "operator:wikidata": "Q668687", "ref": "2731100003"}, "type": "Feature"}
{"geometry": {"coordinates": [-79.161231604, 35.71967556], "type": "Point"}, "id": "4ZUgSxFLhtGOcLS5zo-d0_HNHUY=", "properties": {"@source_uri": "https://tools.usps.com/UspsToolsRestServices/rest/POLocator/findLocations", "@spider": "usps_collection_boxes", "addr:city": "PITTSBORO", "addr:country": "US", "addr:postcode": "27312", "addr:state": "NC", "addr:street_address": "916 EAST ST", "amenity": "post_box", "collection_times": "Mo-Fr 16:30; Sa 12:00", "note": "ON 12/24 AND 12/31, THIS BOX MAY BE COLLECTED AS EARLY AS 12 NOON.", "nsi_id": "unitedstatespostalservice-a77078", "operator": "United States Postal Service", "operator:short": "USPS", "operator:type": "public", "operator:wikidata": "Q668687", "ref": "2731200002"}, "type": "Feature"}
{"geometry": {"coordinates": [-79.0841994, 35.798816], "type": "Point"}, "id": "7c0kV1Bea0Fu4oI7LDi_csJU-8A=", "properties": {"@source_uri": "https://tools.usps.com/UspsToolsRestServices/rest/POLocator/findLocations", "@spider": "usps_collection_boxes", "addr:city": "PITTSBORO", "addr:country": "US", "addr:postcode": "27312", "addr:state": "NC", "addr:street_address": "30 FEARRINGTON POST", "amenity": "post_box", "collection_times": "Mo-Sa 10:00", "nsi_id": "unitedstatespostalservice-a77078", "operator": "United States Postal Service", "operator:short": "USPS", "operator:type": "public", "operator:wikidata": "Q668687", "ref": "2731200006"}, "type": "Feature"}
{"geometry": {"coordinates": [-79.0888969, 35.803591], "type": "Point"}, "id": "ZQT6MhI431tfy-YTGGMs57X6OK0=", "properties": {"@source_uri": "https://tools.usps.com/UspsToolsRestServices/rest/POLocator/findLocations", "@spider": "usps_collection_boxes", "addr:city": "PITTSBORO", "addr:country": "US", "addr:postcode": "27312", "addr:state": "NC", "addr:street_address": "1 CREEKWOOD", "amenity": "post_box", "collection_times": "Mo-Sa 10:30", "nsi_id": "unitedstatespostalservice-a77078", "operator": "United States Postal Service", "operator:short": "USPS", "operator:type": "public", "operator:wikidata": "Q668687", "ref": "2731200008"}, "type": "Feature"}
{"geometry": {"coordinates": [-79.1780142948, 35.7221403372], "type": "Point"}, "id": "IfOciWEwadm8jta_-YykeE_yd3I=", "properties": {"@source_uri": "https://tools.usps.com/UspsToolsRestServices/rest/POLocator/findLocations", "@spider": "usps_collection_boxes", "addr:city": "PITTSBORO", "addr:country": "US", "addr:postcode": "27312", "addr:state": "NC", "addr:street_address": "50 SALISBURY ST", "amenity": "post_box", "collection_times": "Mo-Sa 11:00", "nsi_id": "unitedstatespostalservice-a77078", "operator": "United States Postal Service", "operator:short": "USPS", "operator:type": "public", "operator:wikidata": "Q668687", "ref": "2731200009"}, "type": "Feature"}
{"geometry": {"coordinates": [-79.161231604, 35.71967556], "type": "Point"}, "id": "jCkV_KWKTMPNZZ_6o_ezpCfJkgw=", "properties": {"@source_uri": "https://tools.usps.com/UspsToolsRestServices/rest/POLocator/findLocations", "@spider": "usps_collection_boxes", "addr:city": "PITTSBORO", "addr:country": "US", "addr:postcode": "27312", "addr:state": "NC", "addr:street_address": "916 EAST ST", "amenity": "post_box", "collection_times": "Mo-Fr 16:30; Sa 12:00", "indoor": "yes", "note": "ON 12/24 AND 12/31, THIS BOX MAY BE COLLECTED AS EARLY AS 12 NOON.", "nsi_id": "unitedstatespostalservice-a77078", "operator": "United States Postal Service", "operator:short": "USPS", "operator:type": "public", "operator:wikidata": "Q668687", "ref": "2731200010"}, "type": "Feature"}
{"geometry": {"coordinates": [-79.161231604, 35.71967556], "type": "Point"}, "id": "1yaBeaSAhCwELsGUMpbviQonduw=", "properties": {"@source_uri": "https://tools.usps.com/UspsToolsRestServices/rest/POLocator/findLocations", "@spider": "usps_collection_boxes", "addr:city": "PITTSBORO", "addr:country": "US", "addr:postcode": "27312", "addr:state": "NC", "addr:street_address": "916 EAST ST", "amenity": "post_box", "collection_times": "Mo-Fr 16:30; Sa 12:00", "indoor": "yes", "note": "ON 12/24 AND 12/31, THIS BOX MAY BE COLLECTED AS EARLY AS 12 NOON.", "nsi_id": "unitedstatespostalservice-a77078", "operator": "United States Postal Service", "operator:short": "USPS", "operator:type": "public", "operator:wikidata": "Q668687", "ref": "2731200011"}, "type": "Feature"}
{"geometry": {"coordinates": [-79.161231604, 35.71967556], "type": "Point"}, "id": "CBn-VhVE4uhcv_qd2STs1G_xZUY=", "properties": {"@source_uri": "https://tools.usps.com/UspsToolsRestServices/rest/POLocator/findLocations", "@spider": "usps_collection_boxes", "addr:city": "PITTSBORO", "addr:country": "US", "addr:postcode": "27312", "addr:state": "NC", "addr:street_address": "916 EAST ST", "amenity": "post_box", "collection_times": "Mo-Fr 16:30; Sa 12:00", "indoor": "yes", "note": "ON 12/24 AND 12/31, THIS BOX MAY BE COLLECTED AS EARLY AS 12 NOON.", "nsi_id": "unitedstatespostalservice-a77078", "operator": "United States Postal Service", "operator:short": "USPS", "operator:type": "public", "operator:wikidata": "Q668687", "ref": "2731200013"}, "type": "Feature"}
{"geometry": {"coordinates": [-79.7648138, 35.969450383], "type": "Point"}, "id": "Ws43_pwNIFNVzBpuOJVQ-FofiKI=", "properties": {"@source_uri": "https://tools.usps.com/UspsToolsRestServices/rest/POLocator/findLocations", "@spider": "usps_collection_boxes", "addr:city": "PLEASANT GARDEN", "addr:country": "US", "addr:postcode": "27313", "addr:state": "NC", "addr:street_address": "4621 PLEASANT GARDEN RD", "amenity": "post_box", "collection_times": "Mo-Fr 16:00; Sa 10:30", "note": "ON 12/24 AND 12/31, THIS BOX MAY BE COLLECTED AS EARLY AS 12 NOON.", "nsi_id": "unitedstatespostalservice-a77078", "operator": "United States Postal Service", "operator:short": "USPS", "operator:type": "public", "operator:wikidata": "Q668687", "ref": "2731300002"}, "type": "Feature"}
{"geometry": {"coordinates": [-79.7648138, 35.969450383], "type": "Point"}, "id": "m1e9PwgpIxjHzsUloeTrNOSLjZs=", "properties": {"@source_uri": "https://tools.usps.com/UspsToolsRestServices/rest/POLocator/findLocations", "@spider": "usps_collection_boxes", "addr:city": "PLEASANT GARDEN", "addr:country": "US", "addr:postcode": "27313", "addr:state": "NC", "addr:street_address": "4621 PLEASANT GARDEN RD", "amenity": "post_box", "collection_times": "Mo-Fr 16:00; Sa 10:30", "indoor": "yes", "note": "ON 12/24 AND 12/31, THIS BOX MAY BE COLLECTED AS EARLY AS 12 NOON.", "nsi_id": "unitedstatespostalservice-a77078", "operator": "United States Postal Service", "operator:short": "USPS", "operator:type": "public", "operator:wikidata": "Q668687", "ref": "2731300004"}, "type": "Feature"}
{"geometry": {"coordinates": [-79.7648138, 35.969450383], "type": "Point"}, "id": "7dfJCRagp-wwRt78MEZeYKNQd0k=", "properties": {"@source_uri": "https://tools.usps.com/UspsToolsRestServices/rest/POLocator/findLocations", "@spider": "usps_collection_boxes", "addr:city": "PLEASANT GARDEN", "addr:country": "US", "addr:postcode": "27313", "addr:state": "NC", "addr:street_address": "4621 PLEASANT GARDEN RD", "amenity": "post_box", "collection_times": "Mo-Fr 16:00", "indoor": "yes", "note": "ON 12/24 AND 12/31, THIS BOX MAY BE COLLECTED AS EARLY AS 12 NOON.", "nsi_id": "unitedstatespostalservice-a77078", "operator": "United States Postal Service", "operator:short": "USPS", "operator:type": "public", "operator:wikidata": "Q668687", "ref": "2731300005"}, "type": "Feature"}
{"geometry": {"coordinates": [-79.1902500294, 36.2497600197], "type": "Point"}, "id": "oD667EnUH195JAQlnFzUn41pdZU=", "properties": {"@source_uri": "https://tools.usps.com/UspsToolsRestServices/rest/POLocator/findLocations", "@spider": "usps_collection_boxes", "addr:city": "PROSPECT HILL", "addr:country": "US", "addr:postcode": "27314", "addr:state": "NC", "addr:street_address": "17 MAIN ST", "amenity": "post_box", "collection_times": "Mo-Fr 16:00; Sa 10:00", "note": "ON 12/24 AND 12/31, THIS BOX MAY BE COLLECTED AS EARLY AS 12 NOON.", "nsi_id": "unitedstatespostalservice-a77078", "operator": "United States Postal Service", "operator:short": "USPS", "operator:type": "public", "operator:wikidata": "Q668687", "ref": "2731400002"}, "type": "Feature"}
{"geometry": {"coordinates": [-79.19025024, 36.249559486], "type": "Point"}, "id": "PSsTENO1keZxzFbkNG3Vp-bKpEg=", "properties": {"@source_uri": "https://tools.usps.com/UspsToolsRestServices/rest/POLocator/findLocations", "@spider": "usps_collection_boxes", "addr:city": "PROSPECT HILL", "addr:country": "US", "addr:postcode": "27314", "addr:state": "NC", "addr:street_address": "17 MAIN ST", "amenity": "post_box", "collection_times": "Mo-Fr 16:00; Sa 10:00", "indoor": "yes", "note": "ON 12/24 AND 12/31, THIS BOX MAY BE COLLECTED AS EARLY AS 12 NOON.", "nsi_id": "unitedstatespostalservice-a77078", "operator": "United States Postal Service", "operator:short": "USPS", "operator:type": "public", "operator:wikidata": "Q668687", "ref": "2731400003"}, "type": "Feature"}
{"geometry": {"coordinates": [-79.19025024, 36.249559486], "type": "Point"}, "id": "ueUfrTWyf4qKAgtH9eZRx0A9xRU=", "properties": {"@source_uri": "https://tools.usps.com/UspsToolsRestServices/rest/POLocator/findLocations", "@spider": "usps_collection_boxes", "addr:city": "PROSPECT HILL", "addr:country": "US", "addr:postcode": "27314", "addr:state": "NC", "addr:street_address": "17 MAIN ST", "amenity": "post_box", "collection_times": "Mo-Fr 16:00; Sa 10:00", "indoor": "yes", "note": "ON 12/24 AND 12/31, THIS BOX MAY BE COLLECTED AS EARLY AS 12 NOON.", "nsi_id": "unitedstatespostalservice-a77078", "operator": "United States Postal Service", "operator:short": "USPS", "operator:type": "public", "operator:wikidata": "Q668687", "ref": "2731400004"}, "type": "Feature"}
{"geometry": {"coordinates": [-79.37147739, 36.501704158], "type": "Point"}, "id": "Pjv_2wpAA0e8Y4Wi_mAkBvlR4is=", "properties": {"@source_uri": "https://tools.usps.com/UspsToolsRestServices/rest/POLocator/findLocations", "@spider": "usps_collection_boxes", "addr:city": "PROVIDENCE", "addr:country": "US", "addr:postcode": "27315", "addr:state": "NC", "addr:street_address": "48 PARK SPRINGS RD", "amenity": "post_box", "collection_times": "Mo-Fr 16:00; Sa 11:30", "note": "ON 12/24 AND 12/31, THIS BOX MAY BE COLLECTED AS EARLY AS 12 NOON.", "nsi_id": "unitedstatespostalservice-a77078", "operator": "United States Postal Service", "operator:short": "USPS", "operator:type": "public", "operator:wikidata": "Q668687", "ref": "2731500002"}, "type": "Feature"}
{"geometry": {"coordinates": [-79.37147739, 36.501704158], "type": "Point"}, "id": "sEj7fRmasYeBitsC_pc74xGr6P8=", "properties": {"@source_uri": "https://tools.usps.com/UspsToolsRestServices/rest/POLocator/findLocations", "@spider": "usps_collection_boxes", "addr:city": "PROVIDENCE", "addr:country": "US", "addr:postcode": "27315", "addr:state": "NC", "addr:street_address": "48 PARK SPRINGS RD", "amenity": "post_box", "collection_times": "Mo-Fr 16:00; Sa 11:30", "indoor": "yes", "note": "ON 12/24 AND 12/31, THIS BOX MAY BE COLLECTED AS EARLY AS 12 NOON.", "nsi_id": "unitedstatespostalservice-a77078", "operator": "United States Postal Service", "operator:short": "USPS", "operator:type": "public", "operator:wikidata": "Q668687", "ref": "2731500003"}, "type": "Feature"}
{"geometry": {"coordinates": [-79.37147739, 36.501704158], "type": "Point"}, "id": "GsNHrI7ZQxyT3ozZEFvUWBgcijQ=", "properties": {"@source_uri": "https://tools.usps.com/UspsToolsRestServices/rest/POLocator/findLocations", "@spider": "usps_collection_boxes", "addr:city": "PROVIDENCE", "addr:country": "US", "addr:postcode": "27315", "addr:state": "NC", "addr:street_address": "48 PARK SPRINGS RD", "amenity": "post_box", "collection_times": "Mo-Fr 16:00; Sa 11:30", "indoor": "yes", "note": "ON 12/24 AND 12/31, THIS BOX MAY BE COLLECTED AS EARLY AS 12 NOON.", "nsi_id": "unitedstatespostalservice-a77078", "operator": "United States Postal Service", "operator:short": "USPS", "operator:type": "public", "operator:wikidata": "Q668687", "ref": "2731500004"}, "type": "Feature"}
{"geometry": {"coordinates": [-79.654531985, 35.733074899], "type": "Point"}, "id": "5qQGaRN09SM5svb68ZAsnReJPAI=", "properties": {"@source_uri": "https://tools.usps.com/UspsToolsRestServices/rest/POLocator/findLocations", "@spider": "usps_collection_boxes", "addr:city": "RAMSEUR", "addr:country": "US", "addr:postcode": "27316", "addr:state": "NC", "addr:street_address": "1514 MAIN ST", "amenity": "post_box", "collection_times": "Mo-Fr 16:15; Sa 10:45", "note": "ON 12/24 AND 12/31, THIS BOX MAY BE COLLECTED AS EARLY AS 12 NOON.", "nsi_id": "unitedstatespostalservice-a77078", "operator": "United States Postal Service", "operator:short": "USPS", "operator:type": "public", "operator:wikidata": "Q668687", "ref": "2731600002"}, "type": "Feature"}
{"geometry": {"coordinates": [-79.654531985, 35.733074899], "type": "Point"}, "id": "X9NQWy2Tv0hopci19JPdv325OBM=", "properties": {"@source_uri": "https://tools.usps.com/UspsToolsRestServices/rest/POLocator/findLocations", "@spider": "usps_collection_boxes", "addr:city": "RAMSEUR", "addr:country": "US", "addr:postcode": "27316", "addr:state": "NC", "addr:street_address": "1514 MAIN ST", "amenity": "post_box", "collection_times": "Mo-Fr 16:15; Sa 10:45", "indoor": "yes", "note": "ON 12/24 AND 12/31, THIS BOX MAY BE COLLECTED AS EARLY AS 12 NOON.", "nsi_id": "unitedstatespostalservice-a77078", "operator": "United States Postal Service", "operator:short": "USPS", "operator:type": "public", "operator:wikidata": "Q668687", "ref": "2731600005"}, "type": "Feature"}
{"geometry": {"coordinates": [-79.654531985, 35.733074899], "type": "Point"}, "id": "1b3uu27vKGrEf2w6Xs71vRaUriE=", "properties": {"@source_uri": "https://tools.usps.com/UspsToolsRestServices/rest/POLocator/findLocations", "@spider": "usps_collection_boxes", "addr:city": "RAMSEUR", "addr:country": "US", "addr:postcode": "27316", "addr:state": "NC", "addr:street_address": "1514 MAIN ST", "amenity": "post_box", "collection_times": "Mo-Fr 16:30; Sa 11:00", "indoor": "yes", "note": "ON 12/24 AND 12/31, THIS BOX MAY BE COLLECTED AS EARLY AS 12 NOON.", "nsi_id": "unitedstatespostalservice-a77078", "operator": "United States Postal Service", "operator:short": "USPS", "operator:type": "public", "operator:wikidata": "Q668687", "ref": "2731600006"}, "type": "Feature"}
{"geometry": {"coordinates": [-79.817358144, 35.820923526], "type": "Point"}, "id": "ckUzOa-LglZM-nybPrJ172yyTXI=", "properties": {"@source_uri": "https://tools.usps.com/UspsToolsRestServices/rest/POLocator/findLocations", "@spider": "usps_collection_boxes", "addr:city": "RANDLEMAN", "addr:country": "US", "addr:postcode": "27317", "addr:state": "NC", "addr:street_address": "611 W ACADEMY ST", "amenity": "post_box", "collection_times": "Mo-Sa 09:30", "nsi_id": "unitedstatespostalservice-a77078", "operator": "United States Postal Service", "operator:short": "USPS", "operator:type": "public", "operator:wikidata": "Q668687", "ref": "2731700003"}, "type": "Feature"}
{"geometry": {"coordinates": [-79.8034174, 35.822302], "type": "Point"}, "id": "Jzrc9FoZ5I7UAnl0qNSU3ijjufw=", "properties": {"@source_uri": "https://tools.usps.com/UspsToolsRestServices/rest/POLocator/findLocations", "@spider": "usps_collection_boxes", "addr:city": "RANDLEMAN", "addr:country": "US", "addr:postcode": "27317", "addr:state": "NC", "addr:street_address": "411 N MAIN ST", "amenity": "post_box", "collection_times": "Mo-Sa 09:00", "nsi_id": "unitedstatespostalservice-a77078", "operator": "United States Postal Service", "operator:short": "USPS", "operator:type": "public", "operator:wikidata": "Q668687", "ref": "2731700009"}, "type": "Feature"}
{"geometry": {"coordinates": [-79.8122625, 35.800349], "type": "Point"}, "id": "YpwlQpJly5yJ5uQXUFidtu6FjtI=", "properties": {"@source_uri": "https://tools.usps.com/UspsToolsRestServices/rest/POLocator/findLocations", "@spider": "usps_collection_boxes", "addr:city": "RANDLEMAN", "addr:country": "US", "addr:postcode": "27317", "addr:state": "NC", "addr:street_address": "113 POINTE SOUTH DR", "amenity": "post_box", "collection_times": "Mo-Sa 09:00", "nsi_id": "unitedstatespostalservice-a77078", "operator": "United States Postal Service", "operator:short": "USPS", "operator:type": "public", "operator:wikidata": "Q668687", "ref": "2731700011"}, "type": "Feature"}
{"geometry": {"coordinates": [-79.817358144, 35.820923526], "type": "Point"}, "id": "BlDL5fXxWnGwM7h3VIO8VojlWF8=", "properties": {"@source_uri": "https://tools.usps.com/UspsToolsRestServices/rest/POLocator/findLocations", "@spider": "usps_collection_boxes", "addr:city": "RANDLEMAN", "addr:country": "US", "addr:postcode": "27317", "addr:state": "NC", "addr:street_address": "611 W ACADEMY ST", "amenity": "post_box", "collection_times": "Mo-Fr 17:00; Sa 12:00", "indoor": "yes", "note": "ON 12/24 AND 12/31, THIS BOX MAY BE COLLECTED AS EARLY AS 12 NOON.", "nsi_id": "unitedstatespostalservice-a77078", "operator": "United States Postal Service", "operator:short": "USPS", "operator:type": "public", "operator:wikidata": "Q668687", "ref": "2731700014"}, "type": "Feature"}
{"geometry": {"coordinates": [-79.817358144, 35.820923526], "type": "Point"}, "id": "zujH-zZYkncgkfvqByygQ-iumhI=", "properties": {"@source_uri": "https://tools.usps.com/UspsToolsRestServices/rest/POLocator/findLocations", "@spider": "usps_collection_boxes", "addr:city": "RANDLEMAN", "addr:country": "US", "addr:postcode": "27317", "addr:state": "NC", "addr:street_address": "611 W ACADEMY ST", "amenity": "post_box", "collection_times": "Mo-Fr 17:00; Sa 11:00", "indoor": "yes", "note": "ON 12/24 AND 12/31, THIS BOX MAY BE COLLECTED AS EARLY AS 12 NOON.", "nsi_id": "unitedstatespostalservice-a77078", "operator": "United States Postal Service", "operator:short": "USPS", "operator:type": "public", "operator:wikidata": "Q668687", "ref": "2731700017"}, "type": "Feature"}
{"geometry": {"coordinates": [-79.66299303, 36.35625151], "type": "Point"}, "id": "0uoo0897Uea93XCj2EM73DcQA2M=", "properties": {"@source_uri": "https://tools.usps.com/UspsToolsRestServices/rest/POLocator/findLocations", "@spider": "usps_collection_boxes", "addr:city": "REIDSVILLE", "addr:country": "US", "addr:postcode": "27320", "addr:state": "NC", "addr:street_address": "201 PIEDMONT ST", "amenity": "post_box", "collection_times": "Mo-Fr 17:00; Sa 11:45", "note": "ON 12/24 AND 12/31, THIS BOX MAY BE COLLECTED AS EARLY AS 12 NOON.", "nsi_id": "unitedstatespostalservice-a77078", "operator": "United States Postal Service", "operator:short": "USPS", "operator:type": "public", "operator:wikidata": "Q668687", "ref": "2732000001"}, "type": "Feature"}
{"geometry": {"coordinates": [-79.6652981, 36.361519], "type": "Point"}, "id": "u3f_FPF_EgFZMFeq0YyzXSHw_yI=", "properties": {"@source_uri": "https://tools.usps.com/UspsToolsRestServices/rest/POLocator/findLocations", "@spider": "usps_collection_boxes", "addr:city": "REIDSVILLE", "addr:country": "US", "addr:postcode": "27320", "addr:state": "NC", "addr:street_address": "227 W MOREHEAD ST", "amenity": "post_box", "collection_times": "Mo-Sa 15:00", "note": "ON 12/24 AND 12/31, THIS BOX MAY BE COLLECTED AS EARLY AS 12 NOON.", "nsi_id": "unitedstatespostalservice-a77078", "operator": "United States Postal Service", "operator:short": "USPS", "operator:type": "public", "operator:wikidata": "Q668687", "ref": "2732000009"}, "type": "Feature"}
{"geometry": {"coordinates": [-79.6664623, 36.352908], "type": "Point"}, "id": "zflJNYL0Liy293G0pyfDpXUPlVQ=", "properties": {"@source_uri": "https://tools.usps.com/UspsToolsRestServices/rest/POLocator/findLocations", "@spider": "usps_collection_boxes", "addr:city": "REIDSVILLE", "addr:country": "US", "addr:postcode": "27320", "addr:state": "NC", "addr:street_address": "618 S MAIN ST", "amenity": "post_box", "collection_times": "Mo-Sa 15:00", "note": "ON 12/24 AND 12/31, THIS BOX MAY BE COLLECTED AS EARLY AS 12 NOON.", "nsi_id": "unitedstatespostalservice-a77078", "operator": "United States Postal Service", "operator:short": "USPS", "operator:type": "public", "operator:wikidata": "Q668687", "ref": "2732000015"}, "type": "Feature"}
{"geometry": {"coordinates": [-79.6857143, 36.325145], "type": "Point"}, "id": "H5UBAjOnhIpNg7PJkT6ZX6uYh04=", "properties": {"@source_uri": "https://tools.usps.com/UspsToolsRestServices/rest/POLocator/findLocations", "@spider": "usps_collection_boxes", "addr:city": "REIDSVILLE", "addr:country": "US", "addr:postcode": "27320", "addr:state": "NC", "addr:street_address": "1130 FREEWAY DR", "amenity": "post_box", "collection_times": "Mo-Sa 11:00", "nsi_id": "unitedstatespostalservice-a77078", "operator": "United States Postal Service", "operator:short": "USPS", "operator:type": "public", "operator:wikidata": "Q668687", "ref": "2732000018"}, "type": "Feature"}
{"geometry": {"coordinates": [-79.6905406, 36.329653], "type": "Point"}, "id": "b9j3ZYCZQxdeS13toNRPSXGOp4o=", "properties": {"@source_uri": "https://tools.usps.com/UspsToolsRestServices/rest/POLocator/findLocations", "@spider": "usps_collection_boxes", "addr:city": "REIDSVILLE", "addr:country": "US", "addr:postcode": "27320", "addr:state": "NC", "addr:street_address": "1419 FREEWAY DR", "amenity": "post_box", "collection_times": "Mo-Sa 10:00", "nsi_id": "unitedstatespostalservice-a77078", "operator": "United States Postal Service", "operator:short": "USPS", "operator:type": "public", "operator:wikidata": "Q668687", "ref": "2732000025"}, "type": "Feature"}
{"geometry": {"coordinates": [-79.66299303, 36.35625151], "type": "Point"}, "id": "3PfPgfV3rpa7d10uQXIU0sQKdE8=", "properties": {"@source_uri": "https://tools.usps.com/UspsToolsRestServices/rest/POLocator/findLocations", "@spider": "usps_collection_boxes", "addr:city": "REIDSVILLE", "addr:country": "US", "addr:postcode": "27320", "addr:state": "NC", "addr:street_address": "201 PIEDMONT ST", "amenity": "post_box", "collection_times": "Mo-Fr 17:00; Sa 11:45", "indoor": "yes", "note": "ON 12/24 AND 12/31, THIS BOX MAY BE COLLECTED AS EARLY AS 12 NOON.", "nsi_id": "unitedstatespostalservice-a77078", "operator": "United States Postal Service", "operator:short": "USPS", "operator:type": "public", "operator:wikidata": "Q668687", "ref": "2732000028"}, "type": "Feature"}
{"geometry": {"coordinates": [-79.66299303, 36.35625151], "type": "Point"}, "id": "Ua2rVw8QOdF7i6HpDsfMXpGYyS8=", "properties": {"@source_uri": "https://tools.usps.com/UspsToolsRestServices/rest/POLocator/findLocations", "@spider": "usps_collection_boxes", "addr:city": "REIDSVILLE", "addr:country": "US", "addr:postcode": "27320", "addr:state": "NC", "addr:street_address": "201 PIEDMONT ST", "amenity": "post_box", "collection_times": "Mo-Fr 17:00; Sa 11:45", "indoor": "yes", "note": "ON 12/24 AND 12/31, THIS BOX MAY BE COLLECTED AS EARLY AS 12 NOON.", "nsi_id": "unitedstatespostalservice-a77078", "operator": "United States Postal Service", "operator:short": "USPS", "operator:type": "public", "operator:wikidata": "Q668687", "ref": "2732000030"}, "type": "Feature"}
{"geometry": {"coordinates": [-79.66299303, 36.35625151], "type": "Point"}, "id": "D5gshz_l46WFGNITghAAlQAXpMs=", "properties": {"@source_uri": "https://tools.usps.com/UspsToolsRestServices/rest/POLocator/findLocations", "@spider": "usps_collection_boxes", "addr:city": "REIDSVILLE", "addr:country": "US", "addr:postcode": "27320", "addr:state": "NC", "addr:street_address": "201 PIEDMONT ST", "amenity": "post_box", "collection_times": "Mo-Fr 16:30; Sa 12:00", "indoor": "yes", "note": "ON 12/24 AND 12/31, THIS BOX MAY BE COLLECTED AS EARLY AS 12 NOON.", "nsi_id": "unitedstatespostalservice-a77078", "operator": "United States Postal Service", "operator:short": "USPS", "operator:type": "public", "operator:wikidata": "Q668687", "ref": "2732000034"}, "type": "Feature"}
{"geometry": {"coordinates": [-79.586413023, 35.43563328], "type": "Point"}, "id": "lwQkyMlKzuD1HpwKr5SayEWbsk8=", "properties": {"@source_uri": "https://tools.usps.com/UspsToolsRestServices/rest/POLocator/findLocations", "@spider": "usps_collection_boxes", "addr:city": "ROBBINS", "addr:country": "US", "addr:postcode": "27325", "addr:state": "NC", "addr:street_address": "181 N MIDDLETON ST", "amenity": "post_box", "collection_times": "Mo-Fr 17:00; Sa 12:00", "indoor": "yes", "note": "ON 12/24 AND 12/31, THIS BOX MAY BE COLLECTED AS EARLY AS 12 NOON.", "nsi_id": "unitedstatespostalservice-a77078", "operator": "United States Postal Service", "operator:short": "USPS", "operator:type": "public", "operator:wikidata": "Q668687", "ref": "2732500002"}, "type": "Feature"}
{"geometry": {"coordinates": [-79.586413023, 35.43563328], "type": "Point"}, "id": "2cNCLDgcR7TYVeukOytwd8yvVzg=", "properties": {"@source_uri": "https://tools.usps.com/UspsToolsRestServices/rest/POLocator/findLocations", "@spider": "usps_collection_boxes", "addr:city": "ROBBINS", "addr:country": "US", "addr:postcode": "27325", "addr:state": "NC", "addr:street_address": "181 N MIDDLETON ST", "amenity": "post_box", "collection_times": "Mo-Fr 17:00; Sa 12:00", "note": "ON 12/24 AND 12/31, THIS BOX MAY BE COLLECTED AS EARLY AS 12 NOON.", "nsi_id": "unitedstatespostalservice-a77078", "operator": "United States Postal Service", "operator:short": "USPS", "operator:type": "public", "operator:wikidata": "Q668687", "ref": "2732500003"}, "type": "Feature"}
{"geometry": {"coordinates": [-79.586413023, 35.43563328], "type": "Point"}, "id": "q5Md3GTDnnxzXvErsNBVsRPpeW8=", "properties": {"@source_uri": "https://tools.usps.com/UspsToolsRestServices/rest/POLocator/findLocations", "@spider": "usps_collection_boxes", "addr:city": "ROBBINS", "addr:country": "US", "addr:postcode": "27325", "addr:state": "NC", "addr:street_address": "181 N MIDDLETON ST", "amenity": "post_box", "collection_times": "Mo-Fr 17:00; Sa 12:00", "indoor": "yes", "note": "ON 12/24 AND 12/31, THIS BOX MAY BE COLLECTED AS EARLY AS 12 NOON.", "nsi_id": "unitedstatespostalservice-a77078", "operator": "United States Postal Service", "operator:short": "USPS", "operator:type": "public", "operator:wikidata": "Q668687", "ref": "2732500004"}, "type": "Feature"}
{"geometry": {"coordinates": [-79.5436250323, 36.4503830096], "type": "Point"}, "id": "mzxxWHJcmPI6dNQUeCIzqU7r6ZE=", "properties": {"@source_uri": "https://tools.usps.com/UspsToolsRestServices/rest/POLocator/findLocations", "@spider": "usps_collection_boxes", "addr:city": "RUFFIN", "addr:country": "US", "addr:postcode": "27326", "addr:state": "NC", "addr:street_address": "9682 US HIGHWAY 29 BUSINESS", "amenity": "post_box", "collection_times": "Mo-Fr 16:45; Sa 11:45", "note": "ON 12/24 AND 12/31, THIS BOX MAY BE COLLECTED AS EARLY AS 12 NOON.", "nsi_id": "unitedstatespostalservice-a77078", "operator": "United States Postal Service", "operator:short": "USPS", "operator:type": "public", "operator:wikidata": "Q668687", "ref": "2732600003"}, "type": "Feature"}
{"geometry": {"coordinates": [-79.543209501, 36.450111791], "type": "Point"}, "id": "lKuXC6LvBJtqEJyukQV_jbblD5I=", "properties": {"@source_uri": "https://tools.usps.com/UspsToolsRestServices/rest/POLocator/findLocations", "@spider": "usps_collection_boxes", "addr:city": "RUFFIN", "addr:country": "US", "addr:postcode": "27326", "addr:state": "NC", "addr:street_address": "9682 US HIGHWAY 29 BUSINESS", "amenity": "post_box", "collection_times": "Mo-Fr 16:45; Sa 11:45", "indoor": "yes", "note": "ON 12/24 AND 12/31, THIS BOX MAY BE COLLECTED AS EARLY AS 12 NOON.", "nsi_id": "unitedstatespostalservice-a77078", "operator": "United States Postal Service", "operator:short": "USPS", "operator:type": "public", "operator:wikidata": "Q668687", "ref": "2732600005"}, "type": "Feature"}
{"geometry": {"coordinates": [-79.543209501, 36.450111791], "type": "Point"}, "id": "4XQGa_9RVNWxscqEEd9WveAPPfM=", "properties": {"@source_uri": "https://tools.usps.com/UspsToolsRestServices/rest/POLocator/findLocations", "@spider": "usps_collection_boxes", "addr:city": "RUFFIN", "addr:country": "US", "addr:postcode": "27326", "addr:state": "NC", "addr:street_address": "9682 US HIGHWAY 29 BUSINESS", "amenity": "post_box", "collection_times": "Mo-Fr 16:45; Sa 11:45", "indoor": "yes", "note": "ON 12/24 AND 12/31, THIS BOX MAY BE COLLECTED AS EARLY AS 12 NOON.", "nsi_id": "unitedstatespostalservice-a77078", "operator": "United States Postal Service", "operator:short": "USPS", "operator:type": "public", "operator:wikidata": "Q668687", "ref": "2732600006"}, "type": "Feature"}
{"geometry": {"coordinates": [-79.1768181, 35.4796579], "type": "Point"}, "id": "D-l7R495Tn3DWATHgUkAmifrbk4=", "properties": {"@source_uri": "https://tools.usps.com/UspsToolsRestServices/rest/POLocator/findLocations", "@spider": "usps_collection_boxes", "addr:city": "SANFORD", "addr:country": "US", "addr:postcode": "27330", "addr:state": "NC", "addr:street_address": "210 COURTLAND DR", "amenity": "post_box", "collection_times": "Mo-Sa 10:30", "nsi_id": "unitedstatespostalservice-a77078", "operator": "United States Postal Service", "operator:short": "USPS", "operator:type": "public", "operator:wikidata": "Q668687", "ref": "2733000001"}, "type": "Feature"}
{"geometry": {"coordinates": [-79.1725999, 35.485481], "type": "Point"}, "id": "Hb3QsZkKzsxRYbx-LmQfeMZbnfA=", "properties": {"@source_uri": "https://tools.usps.com/UspsToolsRestServices/rest/POLocator/findLocations", "@spider": "usps_collection_boxes", "addr:city": "SANFORD", "addr:country": "US", "addr:postcode": "27330", "addr:state": "NC", "addr:street_address": "300 N 3RD ST", "amenity": "post_box", "collection_times": "Mo-Sa 10:00", "nsi_id": "unitedstatespostalservice-a77078", "operator": "United States Postal Service", "operator:short": "USPS", "operator:type": "public", "operator:wikidata": "Q668687", "ref": "2733000011"}, "type": "Feature"}
{"geometry": {"coordinates": [-79.175062, 35.482092], "type": "Point"}, "id": "Zwrkv9cx9FDIrzFwNEDMYwIhq08=", "properties": {"@source_uri": "https://tools.usps.com/UspsToolsRestServices/rest/POLocator/findLocations", "@spider": "usps_collection_boxes", "addr:city": "SANFORD", "addr:country": "US", "addr:postcode": "27330", "addr:state": "NC", "addr:street_address": "103 N 1ST ST", "amenity": "post_box", "collection_times": "Mo-Sa 11:00", "nsi_id": "unitedstatespostalservice-a77078", "operator": "United States Postal Service", "operator:short": "USPS", "operator:type": "public", "operator:wikidata": "Q668687", "ref": "2733000012"}, "type": "Feature"}
{"geometry": {"coordinates": [-79.1794754, 35.485806], "type": "Point"}, "id": "W8l-P-8YExjsGOvjYddOzSB8bac=", "properties": {"@source_uri": "https://tools.usps.com/UspsToolsRestServices/rest/POLocator/findLocations", "@spider": "usps_collection_boxes", "addr:city": "SANFORD", "addr:country": "US", "addr:postcode": "27330", "addr:state": "NC", "addr:street_address": "405 HAWKINS AVE", "amenity": "post_box", "collection_times": "Mo-Sa 12:00", "nsi_id": "unitedstatespostalservice-a77078", "operator": "United States Postal Service", "operator:short": "USPS", "operator:type": "public", "operator:wikidata": "Q668687", "ref": "2733000014"}, "type": "Feature"}
{"geometry": {"coordinates": [-79.1779499, 35.479374], "type": "Point"}, "id": "9qOHEh5Tag1Dt0n4vNEH51ePsIA=", "properties": {"@source_uri": "https://tools.usps.com/UspsToolsRestServices/rest/POLocator/findLocations", "@spider": "usps_collection_boxes", "addr:city": "SANFORD", "addr:country": "US", "addr:postcode": "27330", "addr:state": "NC", "addr:street_address": "201 S STEELE ST", "amenity": "post_box", "collection_times": "Mo-Sa 09:30", "nsi_id": "unitedstatespostalservice-a77078", "operator": "United States Postal Service", "operator:short": "USPS", "operator:type": "public", "operator:wikidata": "Q668687", "ref": "2733000016"}, "type": "Feature"}
{"geometry": {"coordinates": [-79.1803112, 35.481916], "type": "Point"}, "id": "mYdPom_YigXBoLMWj4eJYHPxspY=", "properties": {"@source_uri": "https://tools.usps.com/UspsToolsRestServices/rest/POLocator/findLocations", "@spider": "usps_collection_boxes", "addr:city": "SANFORD", "addr:country": "US", "addr:postcode": "27330", "addr:state": "NC", "addr:street_address": "153 N STEELE ST", "amenity": "post_box", "collection_times": "Mo-Sa 10:30", "nsi_id": "unitedstatespostalservice-a77078", "operator": "United States Postal Service", "operator:short": "USPS", "operator:type": "public", "operator:wikidata": "Q668687", "ref": "2733000017"}, "type": "Feature"}
{"geometry": {"coordinates": [-79.1794242, 35.479637], "type": "Point"}, "id": "_8BGWzVCVZhYHTJHxxmpygcs-7U=", "properties": {"@source_uri": "https://tools.usps.com/UspsToolsRestServices/rest/POLocator/findLocations", "@spider": "usps_collection_boxes", "addr:city": "SANFORD", "addr:country": "US", "addr:postcode": "27330", "addr:state": "NC", "addr:street_address": "131 S HORNER BLVD", "amenity": "post_box", "collection_times": "Mo-Sa 10:00", "nsi_id": "unitedstatespostalservice-a77078", "operator": "United States Postal Service", "operator:short": "USPS", "operator:type": "public", "operator:wikidata": "Q668687", "ref": "2733000019"}, "type": "Feature"}
{"geometry": {"coordinates": [-79.1999862, 35.487505], "type": "Point"}, "id": "LXuRhj1o_zalBvPPDWGh01k4F7o=", "properties": {"@source_uri": "https://tools.usps.com/UspsToolsRestServices/rest/POLocator/findLocations", "@spider": "usps_collection_boxes", "addr:city": "SANFORD", "addr:country": "US", "addr:postcode": "27330", "addr:state": "NC", "addr:street_address": "1007 SPRING LN", "amenity": "post_box", "collection_times": "Mo-Fr 13:45; Sa 12:00", "note": "ON 12/24 AND 12/31, THIS BOX MAY BE COLLECTED AS EARLY AS 12 NOON.", "nsi_id": "unitedstatespostalservice-a77078", "operator": "United States Postal Service", "operator:short": "USPS", "operator:type": "public", "operator:wikidata": "Q668687", "ref": "2733000021"}, "type": "Feature"}
{"geometry": {"coordinates": [-79.1856694, 35.477314], "type": "Point"}, "id": "YmSY98onCZxyZz_qLXa73SWRwKM=", "properties": {"@source_uri": "https://tools.usps.com/UspsToolsRestServices/rest/POLocator/findLocations", "@spider": "usps_collection_boxes", "addr:city": "SANFORD", "addr:country": "US", "addr:postcode": "27330", "addr:state": "NC", "addr:street_address": "530 CARTHAGE ST", "amenity": "post_box", "collection_times": "Mo-Fr 14:15; Sa 12:00", "note": "ON 12/24 AND 12/31, THIS BOX MAY BE COLLECTED AS EARLY AS 12 NOON.", "nsi_id": "unitedstatespostalservice-a77078", "operator": "United States Postal Service", "operator:short": "USPS", "operator:type": "public", "operator:wikidata": "Q668687", "ref": "2733000025"}, "type": "Feature"}
{"geometry": {"coordinates": [-79.1869194, 35.474411], "type": "Point"}, "id": "42nc77kFcXRSworDiQh4OWdTP-4=", "properties": {"@source_uri": "https://tools.usps.com/UspsToolsRestServices/rest/POLocator/findLocations", "@spider": "usps_collection_boxes", "addr:city": "SANFORD", "addr:country": "US", "addr:postcode": "27330", "addr:state": "NC", "addr:street_address": "805 WICKER ST", "amenity": "post_box", "collection_times": "Mo-Sa 10:30", "nsi_id": "unitedstatespostalservice-a77078", "operator": "United States Postal Service", "operator:short": "USPS", "operator:type": "public", "operator:wikidata": "Q668687", "ref": "2733000027"}, "type": "Feature"}
{"geometry": {"coordinates": [-79.1391751, 35.452022], "type": "Point"}, "id": "84OgetgzbROHxmjZ0XkwrTg0JqQ=", "properties": {"@source_uri": "https://tools.usps.com/UspsToolsRestServices/rest/POLocator/findLocations", "@spider": "usps_collection_boxes", "addr:city": "SANFORD", "addr:country": "US", "addr:postcode": "27330", "addr:state": "NC", "addr:street_address": "2904 S HORNER BLVD", "amenity": "post_box", "collection_times": "Mo-Sa 10:00", "nsi_id": "unitedstatespostalservice-a77078", "operator": "United States Postal Service", "operator:short": "USPS", "operator:type": "public", "operator:wikidata": "Q668687", "ref": "2733000030"}, "type": "Feature"}
{"geometry": {"coordinates": [-79.165817368, 35.469567758], "type": "Point"}, "id": "_jy8TGhj7ahZ26aNGPT-b0W3DOg=", "properties": {"@source_uri": "https://tools.usps.com/UspsToolsRestServices/rest/POLocator/findLocations", "@spider": "usps_collection_boxes", "addr:city": "SANFORD", "addr:country": "US", "addr:postcode": "27330", "addr:state": "NC", "addr:street_address": "1200 S HORNER BLVD", "amenity": "post_box", "collection_times": "Mo-Fr 17:00; Sa 12:00", "note": "ON 12/24 AND 12/31, THIS BOX MAY BE COLLECTED AS EARLY AS 12 NOON.", "nsi_id": "unitedstatespostalservice-a77078", "operator": "United States Postal Service", "operator:short": "USPS", "operator:type": "public", "operator:wikidata": "Q668687", "ref": "2733000033"}, "type": "Feature"}
{"geometry": {"coordinates": [-79.1922255, 35.472503], "type": "Point"}, "id": "KDbAHNGrXxVBfKh1geVLkjDDQSo=", "properties": {"@source_uri": "https://tools.usps.com/UspsToolsRestServices/rest/POLocator/findLocations", "@spider": "usps_collection_boxes", "addr:city": "SANFORD", "addr:country": "US", "addr:postcode": "27330", "addr:state": "NC", "addr:street_address": "101 TIMBERWOOD PL", "amenity": "post_box", "collection_times": "Mo-Sa 12:00", "nsi_id": "unitedstatespostalservice-a77078", "operator": "United States Postal Service", "operator:short": "USPS", "operator:type": "public", "operator:wikidata": "Q668687", "ref": "2733000050"}, "type": "Feature"}
{"geometry": {"coordinates": [-79.165817368, 35.469567758], "type": "Point"}, "id": "GEKKdfbJV0KAA9VarACkWMTBvdY=", "properties": {"@source_uri": "https://tools.usps.com/UspsToolsRestServices/rest/POLocator/findLocations", "@spider": "usps_collection_boxes", "addr:city": "SANFORD", "addr:country": "US", "addr:postcode": "27330", "addr:state": "NC", "addr:street_address": "1200 S HORNER BLVD", "amenity": "post_box", "collection_times": "Mo-Fr 17:00; Sa 12:00", "note": "ON 12/24 AND 12/31, THIS BOX MAY BE COLLECTED AS EARLY AS 12 NOON.", "nsi_id": "unitedstatespostalservice-a77078", "operator": "United States Postal Service", "operator:short": "USPS", "operator:type": "public", "operator:wikidata": "Q668687", "ref": "2733000051"}, "type": "Feature"}
{"geometry": {"coordinates": [-79.1878692, 35.468907], "type": "Point"}, "id": "zgEYBgqmxNDx2I5zrm9opN7C-44=", "properties": {"@source_uri": "https://tools.usps.com/UspsToolsRestServices/rest/POLocator/findLocations", "@spider": "usps_collection_boxes", "addr:city": "SANFORD", "addr:country": "US", "addr:postcode": "27330", "addr:state": "NC", "addr:street_address": "1135 CARTHAGE ST", "amenity": "post_box", "collection_times": "Mo-Sa 10:15", "nsi_id": "unitedstatespostalservice-a77078", "operator": "United States Postal Service", "operator:short": "USPS", "operator:type": "public", "operator:wikidata": "Q668687", "ref": "2733000053"}, "type": "Feature"}
{"geometry": {"coordinates": [-79.165817368, 35.469567758], "type": "Point"}, "id": "vWFnfxRacxsy11NVKyozMqBgkNw=", "properties": {"@source_uri": "https://tools.usps.com/UspsToolsRestServices/rest/POLocator/findLocations", "@spider": "usps_collection_boxes", "addr:city": "SANFORD", "addr:country": "US", "addr:postcode": "27330", "addr:state": "NC", "addr:street_address": "1200 S HORNER BLVD", "amenity": "post_box", "collection_times": "Mo-Fr 17:00; Sa 12:00", "indoor": "yes", "note": "ON 12/24 AND 12/31, THIS BOX MAY BE COLLECTED AS EARLY AS 12 NOON.", "nsi_id": "unitedstatespostalservice-a77078", "operator": "United States Postal Service", "operator:short": "USPS", "operator:type": "public", "operator:wikidata": "Q668687", "ref": "2733000054"}, "type": "Feature"}
{"geometry": {"coordinates": [-79.165817368, 35.469567758], "type": "Point"}, "id": "8pEgMghaj-8hriDKPSWi-ckEQIA=", "properties": {"@source_uri": "https://tools.usps.com/UspsToolsRestServices/rest/POLocator/findLocations", "@spider": "usps_collection_boxes", "addr:city": "SANFORD", "addr:country": "US", "addr:postcode": "27330", "addr:state": "NC", "addr:street_address": "1200 S HORNER BLVD", "amenity": "post_box", "collection_times": "Mo-Fr 17:00; Sa 12:00", "indoor": "yes", "note": "ON 12/24 AND 12/31, THIS BOX MAY BE COLLECTED AS EARLY AS 12 NOON.", "nsi_id": "unitedstatespostalservice-a77078", "operator": "United States Postal Service", "operator:short": "USPS", "operator:type": "public", "operator:wikidata": "Q668687", "ref": "2733000055"}, "type": "Feature"}
{"geometry": {"coordinates": [-79.2176750433, 35.439405526], "type": "Point"}, "id": "2xcMVPq3ZuyYJAsb9y_ABUVhIx0=", "properties": {"@source_uri": "https://tools.usps.com/UspsToolsRestServices/rest/POLocator/findLocations", "@spider": "usps_collection_boxes", "addr:city": "SANFORD", "addr:country": "US", "addr:postcode": "27330", "addr:state": "NC", "addr:street_address": "2220 JEFFERSON DAVIS HWY", "amenity": "post_box", "collection_times": "Mo-Sa 12:00", "nsi_id": "unitedstatespostalservice-a77078", "operator": "United States Postal Service", "operator:short": "USPS", "operator:type": "public", "operator:wikidata": "Q668687", "ref": "2733000056"}, "type": "Feature"}
{"geometry": {"coordinates": [-79.165817368, 35.469567758], "type": "Point"}, "id": "CsCMFFYXzziow3-ZebW570P9Ogs=", "properties": {"@source_uri": "https://tools.usps.com/UspsToolsRestServices/rest/POLocator/findLocations", "@spider": "usps_collection_boxes", "addr:city": "SANFORD", "addr:country": "US", "addr:postcode": "27330", "addr:state": "NC", "addr:street_address": "1200 S HORNER BLVD", "amenity": "post_box", "collection_times": "Mo-Fr 17:00; Sa 12:00", "name": "USPS COLLECTION BOX - APC", "note": "ON 12/24 AND 12/31, THIS BOX MAY BE COLLECTED AS EARLY AS 12 NOON.", "nsi_id": "unitedstatespostalservice-a77078", "operator": "United States Postal Service", "operator:short": "USPS", "operator:type": "public", "operator:wikidata": "Q668687", "ref": "2733000057"}, "type": "Feature"}
{"geometry": {"coordinates": [-79.165817368, 35.469567758], "type": "Point"}, "id": "EI1ZnUR0omgucbpuTJIQendpjqM=", "properties": {"@source_uri": "https://tools.usps.com/UspsToolsRestServices/rest/POLocator/findLocations", "@spider": "usps_collection_boxes", "addr:city": "SANFORD", "addr:country": "US", "addr:postcode": "27330", "addr:state": "NC", "addr:street_address": "1200 S HORNER BLVD", "amenity": "post_box", "collection_times": "Mo-Fr 17:00; Sa 12:00", "indoor": "yes", "note": "ON 12/24 AND 12/31, THIS BOX MAY BE COLLECTED AS EARLY AS 12 NOON.", "nsi_id": "unitedstatespostalservice-a77078", "operator": "United States Postal Service", "operator:short": "USPS", "operator:type": "public", "operator:wikidata": "Q668687", "ref": "2733000062"}, "type": "Feature"}
{"geometry": {"coordinates": [-79.1513773841, 35.4553624024], "type": "Point"}, "id": "rXRCPjf3JtY3plk0lJz1qoesrUQ=", "properties": {"@source_uri": "https://tools.usps.com/UspsToolsRestServices/rest/POLocator/findLocations", "@spider": "usps_collection_boxes", "addr:city": "SANFORD", "addr:country": "US", "addr:postcode": "27332", "addr:state": "NC", "addr:street_address": "2600 LEE AVE", "amenity": "post_box", "collection_times": "Mo-Fr 14:00; Sa 12:00", "note": "ON 12/24 AND 12/31, THIS BOX MAY BE COLLECTED AS EARLY AS 12 NOON.", "nsi_id": "unitedstatespostalservice-a77078", "operator": "United States Postal Service", "operator:short": "USPS", "operator:type": "public", "operator:wikidata": "Q668687", "ref": "2733200001"}, "type": "Feature"}
{"geometry": {"coordinates": [-79.150121587, 35.457762238], "type": "Point"}, "id": "27fQ8TZxGUzYtEEj8DZ2lotxPLA=", "properties": {"@source_uri": "https://tools.usps.com/UspsToolsRestServices/rest/POLocator/findLocations", "@spider": "usps_collection_boxes", "addr:city": "SANFORD", "addr:country": "US", "addr:postcode": "27332", "addr:state": "NC", "addr:street_address": "124 E MAIN ST", "amenity": "post_box", "collection_times": "Mo-Sa 09:30", "nsi_id": "unitedstatespostalservice-a77078", "operator": "United States Postal Service", "operator:short": "USPS", "operator:type": "public", "operator:wikidata": "Q668687", "ref": "2733200002"}, "type": "Feature"}
{"geometry": {"coordinates": [-79.1098610401, 35.4037319941], "type": "Point"}, "id": "Ag0IsbYOtBY93-Ldg1hurQcDCi4=", "properties": {"@source_uri": "https://tools.usps.com/UspsToolsRestServices/rest/POLocator/findLocations", "@spider": "usps_collection_boxes", "addr:city": "SANFORD", "addr:country": "US", "addr:postcode": "27332", "addr:state": "NC", "addr:street_address": "1 TRACEWAY", "amenity": "post_box", "collection_times": "Mo-Sa 10:30", "nsi_id": "unitedstatespostalservice-a77078", "operator": "United States Postal Service", "operator:short": "USPS", "operator:type": "public", "operator:wikidata": "Q668687", "ref": "2733200003"}, "type": "Feature"}
{"geometry": {"coordinates": [-79.32128564, 35.947572045], "type": "Point"}, "id": "EUvMDx96noiQbQCL3OtZtXmKWvg=", "properties": {"@source_uri": "https://tools.usps.com/UspsToolsRestServices/rest/POLocator/findLocations", "@spider": "usps_collection_boxes", "addr:city": "SAXAPAHAW", "addr:country": "US", "addr:postcode": "27340", "addr:state": "NC", "addr:street_address": "1612 JORDAN DR", "amenity": "post_box", "collection_times": "Mo-Fr 16:15; Sa 11:15", "note": "ON 12/24 AND 12/31, THIS BOX MAY BE COLLECTED AS EARLY AS 12 NOON.", "nsi_id": "unitedstatespostalservice-a77078", "operator": "United States Postal Service", "operator:short": "USPS", "operator:type": "public", "operator:wikidata": "Q668687", "ref": "2734000001"}, "type": "Feature"}
{"geometry": {"coordinates": [-79.32128564, 35.947572045], "type": "Point"}, "id": "fM5fKbtkDJ9oI08iDeQXKHW7r9E=", "properties": {"@source_uri": "https://tools.usps.com/UspsToolsRestServices/rest/POLocator/findLocations", "@spider": "usps_collection_boxes", "addr:city": "SAXAPAHAW", "addr:country": "US", "addr:postcode": "27340", "addr:state": "NC", "addr:street_address": "1612 JORDAN DR", "amenity": "post_box", "collection_times": "Mo-Fr 16:15; Sa 11:15", "indoor": "yes", "note": "ON 12/24 AND 12/31, THIS BOX MAY BE COLLECTED AS EARLY AS 12 NOON.", "nsi_id": "unitedstatespostalservice-a77078", "operator": "United States Postal Service", "operator:short": "USPS", "operator:type": "public", "operator:wikidata": "Q668687", "ref": "2734000002"}, "type": "Feature"}
{"geometry": {"coordinates": [-79.32128564, 35.947572045], "type": "Point"}, "id": "SKgfID89ht90Zfv7B6m606suFRc=", "properties": {"@source_uri": "https://tools.usps.com/UspsToolsRestServices/rest/POLocator/findLocations", "@spider": "usps_collection_boxes", "addr:city": "SAXAPAHAW", "addr:country": "US", "addr:postcode": "27340", "addr:state": "NC", "addr:street_address": "1612 JORDAN DR", "amenity": "post_box", "collection_times": "Mo-Fr 16:30; Sa 11:30", "indoor": "yes", "note": "ON 12/24 AND 12/31, THIS BOX MAY BE COLLECTED AS EARLY AS 12 NOON.", "nsi_id": "unitedstatespostalservice-a77078", "operator": "United States Postal Service", "operator:short": "USPS", "operator:type": "public", "operator:wikidata": "Q668687", "ref": "2734000003"}, "type": "Feature"}
{"geometry": {"coordinates": [-79.779983282, 35.542917095], "type": "Point"}, "id": "NLxn26c9hnu97insqq3PBhBrOZo=", "properties": {"@source_uri": "https://tools.usps.com/UspsToolsRestServices/rest/POLocator/findLocations", "@spider": "usps_collection_boxes", "addr:city": "SEAGROVE", "addr:country": "US", "addr:postcode": "27341", "addr:state": "NC", "addr:street_address": "231 N BROAD ST", "amenity": "post_box", "collection_times": "Mo-Fr 16:30; Sa 12:00", "note": "ON 12/24 AND 12/31, THIS BOX MAY BE COLLECTED AS EARLY AS 12 NOON.", "nsi_id": "unitedstatespostalservice-a77078", "operator": "United States Postal Service", "operator:short": "USPS", "operator:type": "public", "operator:wikidata": "Q668687", "ref": "2734100003"}, "type": "Feature"}
{"geometry": {"coordinates": [-79.779983282, 35.542917095], "type": "Point"}, "id": "-JAKFgbpcPlBhInG0TB2LUs1oGc=", "properties": {"@source_uri": "https://tools.usps.com/UspsToolsRestServices/rest/POLocator/findLocations", "@spider": "usps_collection_boxes", "addr:city": "SEAGROVE", "addr:country": "US", "addr:postcode": "27341", "addr:state": "NC", "addr:street_address": "231 N BROAD ST", "amenity": "post_box", "collection_times": "Mo-Fr 16:30; Sa 12:00", "indoor": "yes", "note": "ON 12/24 AND 12/31, THIS BOX MAY BE COLLECTED AS EARLY AS 12 NOON.", "nsi_id": "unitedstatespostalservice-a77078", "operator": "United States Postal Service", "operator:short": "USPS", "operator:type": "public", "operator:wikidata": "Q668687", "ref": "2734100005"}, "type": "Feature"}
{"geometry": {"coordinates": [-79.779983282, 35.542917095], "type": "Point"}, "id": "NORsuWRBSdloxgc2tCF6a5i19dE=", "properties": {"@source_uri": "https://tools.usps.com/UspsToolsRestServices/rest/POLocator/findLocations", "@spider": "usps_collection_boxes", "addr:city": "SEAGROVE", "addr:country": "US", "addr:postcode": "27341", "addr:state": "NC", "addr:street_address": "231 N BROAD ST", "amenity": "post_box", "collection_times": "Mo-Fr 16:30; Sa 12:00", "indoor": "yes", "note": "ON 12/24 AND 12/31, THIS BOX MAY BE COLLECTED AS EARLY AS 12 NOON.", "nsi_id": "unitedstatespostalservice-a77078", "operator": "United States Postal Service", "operator:short": "USPS", "operator:type": "public", "operator:wikidata": "Q668687", "ref": "2734100006"}, "type": "Feature"}
{"geometry": {"coordinates": [-79.620494686, 36.067416082], "type": "Point"}, "id": "Yx3OzGsWHmJ4yhSfp-DcR7rC9eo=", "properties": {"@source_uri": "https://tools.usps.com/UspsToolsRestServices/rest/POLocator/findLocations", "@spider": "usps_collection_boxes", "addr:city": "SEDALIA", "addr:country": "US", "addr:postcode": "27342", "addr:state": "NC", "addr:street_address": "6151 BURLINGTON RD", "amenity": "post_box", "collection_times": "Mo-Fr 17:00; Sa 11:30", "note": "ON 12/24 AND 12/31, THIS BOX MAY BE COLLECTED AS EARLY AS 12 NOON.", "nsi_id": "unitedstatespostalservice-a77078", "operator": "United States Postal Service", "operator:short": "USPS", "operator:type": "public", "operator:wikidata": "Q668687", "ref": "2734200002"}, "type": "Feature"}
{"geometry": {"coordinates": [-79.620494686, 36.067416082], "type": "Point"}, "id": "KlUmqkAhzZ2RBhLwLD8YnypnEpU=", "properties": {"@source_uri": "https://tools.usps.com/UspsToolsRestServices/rest/POLocator/findLocations", "@spider": "usps_collection_boxes", "addr:city": "SEDALIA", "addr:country": "US", "addr:postcode": "27342", "addr:state": "NC", "addr:street_address": "6151 BURLINGTON RD", "amenity": "post_box", "collection_times": "Mo-Fr 17:00; Sa 11:30", "indoor": "yes", "note": "ON 12/24 AND 12/31, THIS BOX MAY BE COLLECTED AS EARLY AS 12 NOON.", "nsi_id": "unitedstatespostalservice-a77078", "operator": "United States Postal Service", "operator:short": "USPS", "operator:type": "public", "operator:wikidata": "Q668687", "ref": "2734200003"}, "type": "Feature"}
{"geometry": {"coordinates": [-79.1483371277, 36.5002184643], "type": "Point"}, "id": "70f7BT7UMt-CB_pyNWt-4UdEQ64=", "properties": {"@source_uri": "https://tools.usps.com/UspsToolsRestServices/rest/POLocator/findLocations", "@spider": "usps_collection_boxes", "addr:city": "SEMORA", "addr:country": "US", "addr:postcode": "27343", "addr:state": "NC", "addr:street_address": "14757 NC HIGHWAY 119 N", "amenity": "post_box", "collection_times": "Mo-Fr 16:15; Sa 11:30", "note": "ON 12/24 AND 12/31, THIS BOX MAY BE COLLECTED AS EARLY AS 12 NOON.", "nsi_id": "unitedstatespostalservice-a77078", "operator": "United States Postal Service", "operator:short": "USPS", "operator:type": "public", "operator:wikidata": "Q668687", "ref": "2734300002"}, "type": "Feature"}
{"geometry": {"coordinates": [-79.148336724, 36.500226751], "type": "Point"}, "id": "cwdl_aqNmHyks7Oa-Q5rNoB2_wI=", "properties": {"@source_uri": "https://tools.usps.com/UspsToolsRestServices/rest/POLocator/findLocations", "@spider": "usps_collection_boxes", "addr:city": "SEMORA", "addr:country": "US", "addr:postcode": "27343", "addr:state": "NC", "addr:street_address": "14757 NC HIGHWAY 119 N", "amenity": "post_box", "collection_times": "Mo-Fr 16:15; Sa 11:30", "indoor": "yes", "note": "ON 12/24 AND 12/31, THIS BOX MAY BE COLLECTED AS EARLY AS 12 NOON.", "nsi_id": "unitedstatespostalservice-a77078", "operator": "United States Postal Service", "operator:short": "USPS", "operator:type": "public", "operator:wikidata": "Q668687", "ref": "2734300003"}, "type": "Feature"}
{"geometry": {"coordinates": [-79.148336724, 36.500226751], "type": "Point"}, "id": "-A7c70s-4VV_Hgygh3d96WQCzms=", "properties": {"@source_uri": "https://tools.usps.com/UspsToolsRestServices/rest/POLocator/findLocations", "@spider": "usps_collection_boxes", "addr:city": "SEMORA", "addr:country": "US", "addr:postcode": "27343", "addr:state": "NC", "addr:street_address": "14757 NC HIGHWAY 119 N", "amenity": "post_box", "collection_times": "Mo-Fr 16:15; Sa 11:30", "indoor": "yes", "note": "ON 12/24 AND 12/31, THIS BOX MAY BE COLLECTED AS EARLY AS 12 NOON.", "nsi_id": "unitedstatespostalservice-a77078", "operator": "United States Postal Service", "operator:short": "USPS", "operator:type": "public", "operator:wikidata": "Q668687", "ref": "2734300004"}, "type": "Feature"}
{"geometry": {"coordinates": [-79.462670052, 35.723174001], "type": "Point"}, "id": "LoPhKvSm6N0G3nkuW0i5udHE9f4=", "properties": {"@source_uri": "https://tools.usps.com/UspsToolsRestServices/rest/POLocator/findLocations", "@spider": "usps_collection_boxes", "addr:city": "SILER CITY", "addr:country": "US", "addr:postcode": "27344", "addr:state": "NC", "addr:street_address": "116 E RALEIGH ST", "amenity": "post_box", "collection_times": "Mo-Fr 17:00; Sa 11:45", "note": "ON 12/24 AND 12/31, THIS BOX MAY BE COLLECTED AS EARLY AS 12 NOON.", "nsi_id": "unitedstatespostalservice-a77078", "operator": "United States Postal Service", "operator:short": "USPS", "operator:type": "public", "operator:wikidata": "Q668687", "ref": "2734400001"}, "type": "Feature"}
{"geometry": {"coordinates": [-79.462670052, 35.723174001], "type": "Point"}, "id": "UrwQJBLf_eVw4Jm-Evmqne57n6Y=", "properties": {"@source_uri": "https://tools.usps.com/UspsToolsRestServices/rest/POLocator/findLocations", "@spider": "usps_collection_boxes", "addr:city": "SILER CITY", "addr:country": "US", "addr:postcode": "27344", "addr:state": "NC", "addr:street_address": "116 E RALEIGH ST", "amenity": "post_box", "collection_times": "Mo-Fr 16:30; Sa 11:45", "indoor": "yes", "note": "ON 12/24 AND 12/31, THIS BOX MAY BE COLLECTED AS EARLY AS 12 NOON.", "nsi_id": "unitedstatespostalservice-a77078", "operator": "United States Postal Service", "operator:short": "USPS", "operator:type": "public", "operator:wikidata": "Q668687", "ref": "2734400010"}, "type": "Feature"}
{"geometry": {"coordinates": [-79.462670052, 35.723174001], "type": "Point"}, "id": "TsdiUzxufoN6DgY1VHCNBZ7QdB8=", "properties": {"@source_uri": "https://tools.usps.com/UspsToolsRestServices/rest/POLocator/findLocations", "@spider": "usps_collection_boxes", "addr:city": "SILER CITY", "addr:country": "US", "addr:postcode": "27344", "addr:state": "NC", "addr:street_address": "116 E RALEIGH ST", "amenity": "post_box", "collection_times": "Mo-Fr 16:30; Sa 12:00", "indoor": "yes", "note": "ON 12/24 AND 12/31, THIS BOX MAY BE COLLECTED AS EARLY AS 12 NOON.", "nsi_id": "unitedstatespostalservice-a77078", "operator": "United States Postal Service", "operator:short": "USPS", "operator:type": "public", "operator:wikidata": "Q668687", "ref": "2734400013"}, "type": "Feature"}
{"geometry": {"coordinates": [-79.431313028, 35.893759507], "type": "Point"}, "id": "nFCTPmN7PA9BSZea1JZYAdJmte4=", "properties": {"@source_uri": "https://tools.usps.com/UspsToolsRestServices/rest/POLocator/findLocations", "@spider": "usps_collection_boxes", "addr:city": "SNOW CAMP", "addr:country": "US", "addr:postcode": "27349", "addr:state": "NC", "addr:street_address": "130 W GREENSBORO CHAPEL HILL RD", "amenity": "post_box", "collection_times": "Mo-Fr 16:15; Sa 10:15", "note": "ON 12/24 AND 12/31, THIS BOX MAY BE COLLECTED AS EARLY AS 12 NOON.", "nsi_id": "unitedstatespostalservice-a77078", "operator": "United States Postal Service", "operator:short": "USPS", "operator:type": "public", "operator:wikidata": "Q668687", "ref": "2734900001"}, "type": "Feature"}
{"geometry": {"coordinates": [-79.431313028, 35.893759507], "type": "Point"}, "id": "jEzpcf1AV-iYefCx76MLsuz8E08=", "properties": {"@source_uri": "https://tools.usps.com/UspsToolsRestServices/rest/POLocator/findLocations", "@spider": "usps_collection_boxes", "addr:city": "SNOW CAMP", "addr:country": "US", "addr:postcode": "27349", "addr:state": "NC", "addr:street_address": "130 W GREENSBORO CHAPEL HILL RD", "amenity": "post_box", "collection_times": "Mo-Fr 16:15; Sa 10:15", "indoor": "yes", "note": "ON 12/24 AND 12/31, THIS BOX MAY BE COLLECTED AS EARLY AS 12 NOON.", "nsi_id": "unitedstatespostalservice-a77078", "operator": "United States Postal Service", "operator:short": "USPS", "operator:type": "public", "operator:wikidata": "Q668687", "ref": "2734900003"}, "type": "Feature"}
{"geometry": {"coordinates": [-79.431313028, 35.893759507], "type": "Point"}, "id": "PNtal0BKhypoXMaJaBMSyKcAKZc=", "properties": {"@source_uri": "https://tools.usps.com/UspsToolsRestServices/rest/POLocator/findLocations", "@spider": "usps_collection_boxes", "addr:city": "SNOW CAMP", "addr:country": "US", "addr:postcode": "27349", "addr:state": "NC", "addr:street_address": "130 W GREENSBORO CHAPEL HILL RD", "amenity": "post_box", "collection_times": "Mo-Fr 16:30; Sa 10:30", "indoor": "yes", "note": "ON 12/24 AND 12/31, THIS BOX MAY BE COLLECTED AS EARLY AS 12 NOON.", "nsi_id": "unitedstatespostalservice-a77078", "operator": "United States Postal Service", "operator:short": "USPS", "operator:type": "public", "operator:wikidata": "Q668687", "ref": "2734900004"}, "type": "Feature"}
{"geometry": {"coordinates": [-79.862872037, 35.826057637], "type": "Point"}, "id": "_o4UstcJYcYiWv9PnI8-FhJlpt8=", "properties": {"@source_uri": "https://tools.usps.com/UspsToolsRestServices/rest/POLocator/findLocations", "@spider": "usps_collection_boxes", "addr:city": "SOPHIA", "addr:country": "US", "addr:postcode": "27350", "addr:state": "NC", "addr:street_address": "5814 US HIGHWAY 311", "amenity": "post_box", "collection_times": "Mo-Fr 16:45; Sa 11:45", "note": "ON 12/24 AND 12/31, THIS BOX MAY BE COLLECTED AS EARLY AS 12 NOON.", "nsi_id": "unitedstatespostalservice-a77078", "operator": "United States Postal Service", "operator:short": "USPS", "operator:type": "public", "operator:wikidata": "Q668687", "ref": "2735000002"}, "type": "Feature"}
{"geometry": {"coordinates": [-79.862872037, 35.826057637], "type": "Point"}, "id": "zU44BofeRf2cyBbzOK42DNeQE84=", "properties": {"@source_uri": "https://tools.usps.com/UspsToolsRestServices/rest/POLocator/findLocations", "@spider": "usps_collection_boxes", "addr:city": "SOPHIA", "addr:country": "US", "addr:postcode": "27350", "addr:state": "NC", "addr:street_address": "5814 US HIGHWAY 311", "amenity": "post_box", "collection_times": "Mo-Fr 16:45; Sa 11:45", "indoor": "yes", "note": "ON 12/24 AND 12/31, THIS BOX MAY BE COLLECTED AS EARLY AS 12 NOON.", "nsi_id": "unitedstatespostalservice-a77078", "operator": "United States Postal Service", "operator:short": "USPS", "operator:type": "public", "operator:wikidata": "Q668687", "ref": "2735000003"}, "type": "Feature"}
{"geometry": {"coordinates": [-79.862872037, 35.826057637], "type": "Point"}, "id": "Mp8xkZqQ8S5Bmaz-OOfcl_TLdxU=", "properties": {"@source_uri": "https://tools.usps.com/UspsToolsRestServices/rest/POLocator/findLocations", "@spider": "usps_collection_boxes", "addr:city": "SOPHIA", "addr:country": "US", "addr:postcode": "27350", "addr:state": "NC", "addr:street_address": "5814 US HIGHWAY 311", "amenity": "post_box", "collection_times": "Mo-Fr 17:00; Sa 12:00", "indoor": "yes", "note": "ON 12/24 AND 12/31, THIS BOX MAY BE COLLECTED AS EARLY AS 12 NOON.", "nsi_id": "unitedstatespostalservice-a77078", "operator": "United States Postal Service", "operator:short": "USPS", "operator:type": "public", "operator:wikidata": "Q668687", "ref": "2735000004"}, "type": "Feature"}
{"geometry": {"coordinates": [-80.266908509, 35.664804665], "type": "Point"}, "id": "KObYFmM7f0Z1Kshg6mkz8_lDM88=", "properties": {"@source_uri": "https://tools.usps.com/UspsToolsRestServices/rest/POLocator/findLocations", "@spider": "usps_collection_boxes", "addr:city": "SOUTHMONT", "addr:country": "US", "addr:postcode": "27351", "addr:state": "NC", "addr:street_address": "10584 NC HIGHWAY 8 S", "amenity": "post_box", "collection_times": "Mo-Fr 16:00; Sa 10:45", "note": "ON 12/24 AND 12/31, THIS BOX MAY BE COLLECTED AS EARLY AS 12 NOON.", "nsi_id": "unitedstatespostalservice-a77078", "operator": "United States Postal Service", "operator:short": "USPS", "operator:type": "public", "operator:wikidata": "Q668687", "ref": "2735100001"}, "type": "Feature"}
{"geometry": {"coordinates": [-80.266908509, 35.664804665], "type": "Point"}, "id": "9s-KsXPjKSSsvReSiMzjQKEXs2o=", "properties": {"@source_uri": "https://tools.usps.com/UspsToolsRestServices/rest/POLocator/findLocations", "@spider": "usps_collection_boxes", "addr:city": "SOUTHMONT", "addr:country": "US", "addr:postcode": "27351", "addr:state": "NC", "addr:street_address": "10584 NC HIGHWAY 8 S", "amenity": "post_box", "collection_times": "Mo-Fr 16:00; Sa 10:45", "indoor": "yes", "note": "ON 12/24 AND 12/31, THIS BOX MAY BE COLLECTED AS EARLY AS 12 NOON.", "nsi_id": "unitedstatespostalservice-a77078", "operator": "United States Postal Service", "operator:short": "USPS", "operator:type": "public", "operator:wikidata": "Q668687", "ref": "2735100003"}, "type": "Feature"}
{"geometry": {"coordinates": [-80.266908509, 35.664804665], "type": "Point"}, "id": "RcN5uZIM0bBlkKvyAHKXEe9eX-M=", "properties": {"@source_uri": "https://tools.usps.com/UspsToolsRestServices/rest/POLocator/findLocations", "@spider": "usps_collection_boxes", "addr:city": "SOUTHMONT", "addr:country": "US", "addr:postcode": "27351", "addr:state": "NC", "addr:street_address": "10584 NC HIGHWAY 8 S", "amenity": "post_box", "collection_times": "Mo-Fr 16:15; Sa 11:00", "indoor": "yes", "note": "ON 12/24 AND 12/31, THIS BOX MAY BE COLLECTED AS EARLY AS 12 NOON.", "nsi_id": "unitedstatespostalservice-a77078", "operator": "United States Postal Service", "operator:short": "USPS", "operator:type": "public", "operator:wikidata": "Q668687", "ref": "2735100004"}, "type": "Feature"}
{"geometry": {"coordinates": [-79.553006036, 35.795509828], "type": "Point"}, "id": "wTqbfoTFJNrRUktite5vKebryT4=", "properties": {"@source_uri": "https://tools.usps.com/UspsToolsRestServices/rest/POLocator/findLocations", "@spider": "usps_collection_boxes", "addr:city": "STALEY", "addr:country": "US", "addr:postcode": "27355", "addr:state": "NC", "addr:street_address": "229 W FRANKLINVILLE ST", "amenity": "post_box", "collection_times": "Mo-Fr 16:15; Sa 10:45", "note": "ON 12/24 AND 12/31, THIS BOX MAY BE COLLECTED AS EARLY AS 12 NOON.", "nsi_id": "unitedstatespostalservice-a77078", "operator": "United States Postal Service", "operator:short": "USPS", "operator:type": "public", "operator:wikidata": "Q668687", "ref": "2735500002"}, "type": "Feature"}
{"geometry": {"coordinates": [-79.553006036, 35.795509828], "type": "Point"}, "id": "iio0sw7rm2K9x5bnCa6koMNCZZc=", "properties": {"@source_uri": "https://tools.usps.com/UspsToolsRestServices/rest/POLocator/findLocations", "@spider": "usps_collection_boxes", "addr:city": "STALEY", "addr:country": "US", "addr:postcode": "27355", "addr:state": "NC", "addr:street_address": "229 W FRANKLINVILLE ST", "amenity": "post_box", "collection_times": "Mo-Fr 16:15; Sa 10:45", "indoor": "yes", "note": "ON 12/24 AND 12/31, THIS BOX MAY BE COLLECTED AS EARLY AS 12 NOON.", "nsi_id": "unitedstatespostalservice-a77078", "operator": "United States Postal Service", "operator:short": "USPS", "operator:type": "public", "operator:wikidata": "Q668687", "ref": "2735500003"}, "type": "Feature"}
{"geometry": {"coordinates": [-79.553006036, 35.795509828], "type": "Point"}, "id": "9w6KhtQvS2R8ab6V__aMKxAKqpo=", "properties": {"@source_uri": "https://tools.usps.com/UspsToolsRestServices/rest/POLocator/findLocations", "@spider": "usps_collection_boxes", "addr:city": "STALEY", "addr:country": "US", "addr:postcode": "27355", "addr:state": "NC", "addr:street_address": "229 W FRANKLINVILLE ST", "amenity": "post_box", "collection_times": "Mo-Fr 16:30; Sa 11:00", "indoor": "yes", "note": "ON 12/24 AND 12/31, THIS BOX MAY BE COLLECTED AS EARLY AS 12 NOON.", "nsi_id": "unitedstatespostalservice-a77078", "operator": "United States Postal Service", "operator:short": "USPS", "operator:type": "public", "operator:wikidata": "Q668687", "ref": "2735500004"}, "type": "Feature"}
{"geometry": {"coordinates": [-79.784098844, 35.398636827], "type": "Point"}, "id": "jbzUrTQhEkq3FSdr922fBV_XjAE=", "properties": {"@source_uri": "https://tools.usps.com/UspsToolsRestServices/rest/POLocator/findLocations", "@spider": "usps_collection_boxes", "addr:city": "STAR", "addr:country": "US", "addr:postcode": "27356", "addr:state": "NC", "addr:street_address": "202 S MAIN ST", "amenity": "post_box", "collection_times": "Mo-Fr 17:00; Sa 12:00", "note": "ON 12/24 AND 12/31, THIS BOX MAY BE COLLECTED AS EARLY AS 12 NOON.", "nsi_id": "unitedstatespostalservice-a77078", "operator": "United States Postal Service", "operator:short": "USPS", "operator:type": "public", "operator:wikidata": "Q668687", "ref": "2735600002"}, "type": "Feature"}
{"geometry": {"coordinates": [-79.784098844, 35.398636827], "type": "Point"}, "id": "Aoi-7JL6sa-Wn0cIIXTlyH1NQIg=", "properties": {"@source_uri": "https://tools.usps.com/UspsToolsRestServices/rest/POLocator/findLocations", "@spider": "usps_collection_boxes", "addr:city": "STAR", "addr:country": "US", "addr:postcode": "27356", "addr:state": "NC", "addr:street_address": "202 S MAIN ST", "amenity": "post_box", "collection_times": "Mo-Fr 17:00; Sa 12:00", "indoor": "yes", "note": "ON 12/24 AND 12/31, THIS BOX MAY BE COLLECTED AS EARLY AS 12 NOON.", "nsi_id": "unitedstatespostalservice-a77078", "operator": "United States Postal Service", "operator:short": "USPS", "operator:type": "public", "operator:wikidata": "Q668687", "ref": "2735600003"}, "type": "Feature"}
{"geometry": {"coordinates": [-79.784098844, 35.398636827], "type": "Point"}, "id": "XUao_2Q-XeHE63XYrPsNgpOGfqk=", "properties": {"@source_uri": "https://tools.usps.com/UspsToolsRestServices/rest/POLocator/findLocations", "@spider": "usps_collection_boxes", "addr:city": "STAR", "addr:country": "US", "addr:postcode": "27356", "addr:state": "NC", "addr:street_address": "202 S MAIN ST", "amenity": "post_box", "collection_times": "Mo-Fr 17:00; Sa 12:00", "indoor": "yes", "note": "ON 12/24 AND 12/31, THIS BOX MAY BE COLLECTED AS EARLY AS 12 NOON.", "nsi_id": "unitedstatespostalservice-a77078", "operator": "United States Postal Service", "operator:short": "USPS", "operator:type": "public", "operator:wikidata": "Q668687", "ref": "2735600004"}, "type": "Feature"}
{"geometry": {"coordinates": [-79.981291663, 36.238937373], "type": "Point"}, "id": "lG-zsqHZkq4GhYBOCC6StN1d0iA=", "properties": {"@source_uri": "https://tools.usps.com/UspsToolsRestServices/rest/POLocator/findLocations", "@spider": "usps_collection_boxes", "addr:city": "STOKESDALE", "addr:country": "US", "addr:postcode": "27357", "addr:state": "NC", "addr:street_address": "8210 US HIGHWAY 158", "amenity": "post_box", "collection_times": "Mo-Fr 16:15; Sa 11:45", "note": "ON 12/24 AND 12/31, THIS BOX MAY BE COLLECTED AS EARLY AS 12 NOON.", "nsi_id": "unitedstatespostalservice-a77078", "operator": "United States Postal Service", "operator:short": "USPS", "operator:type": "public", "operator:wikidata": "Q668687", "ref": "2735700001"}, "type": "Feature"}
{"geometry": {"coordinates": [-79.981291663, 36.238937373], "type": "Point"}, "id": "eotLiLCcdX3-dNnDg36PAOYC3Hw=", "properties": {"@source_uri": "https://tools.usps.com/UspsToolsRestServices/rest/POLocator/findLocations", "@spider": "usps_collection_boxes", "addr:city": "STOKESDALE", "addr:country": "US", "addr:postcode": "27357", "addr:state": "NC", "addr:street_address": "8210 US HIGHWAY 158", "amenity": "post_box", "collection_times": "Mo-Fr 16:15; Sa 11:45", "indoor": "yes", "note": "ON 12/24 AND 12/31, THIS BOX MAY BE COLLECTED AS EARLY AS 12 NOON.", "nsi_id": "unitedstatespostalservice-a77078", "operator": "United States Postal Service", "operator:short": "USPS", "operator:type": "public", "operator:wikidata": "Q668687", "ref": "2735700002"}, "type": "Feature"}
{"geometry": {"coordinates": [-79.981291663, 36.238937373], "type": "Point"}, "id": "VLgGFwN4Y45JMs_B50HL3ypdZQE=", "properties": {"@source_uri": "https://tools.usps.com/UspsToolsRestServices/rest/POLocator/findLocations", "@spider": "usps_collection_boxes", "addr:city": "STOKESDALE", "addr:country": "US", "addr:postcode": "27357", "addr:state": "NC", "addr:street_address": "8210 US HIGHWAY 158", "amenity": "post_box", "collection_times": "Mo-Fr 16:30; Sa 12:00", "indoor": "yes", "note": "ON 12/24 AND 12/31, THIS BOX MAY BE COLLECTED AS EARLY AS 12 NOON.", "nsi_id": "unitedstatespostalservice-a77078", "operator": "United States Postal Service", "operator:short": "USPS", "operator:type": "public", "operator:wikidata": "Q668687", "ref": "2735700003"}, "type": "Feature"}
{"geometry": {"coordinates": [-79.902584206, 36.198983063], "type": "Point"}, "id": "uo7E5IV-hxooz8_UABNI4ADo2tM=", "properties": {"@source_uri": "https://tools.usps.com/UspsToolsRestServices/rest/POLocator/findLocations", "@spider": "usps_collection_boxes", "addr:city": "SUMMERFIELD", "addr:country": "US", "addr:postcode": "27358", "addr:state": "NC", "addr:street_address": "7412 SUMMERFIELD RD", "amenity": "post_box", "collection_times": "Mo-Fr 16:30; Sa 12:00", "note": "ON 12/24 AND 12/31, THIS BOX MAY BE COLLECTED AS EARLY AS 12 NOON.", "nsi_id": "unitedstatespostalservice-a77078", "operator": "United States Postal Service", "operator:short": "USPS", "operator:type": "public", "operator:wikidata": "Q668687", "ref": "2735800001"}, "type": "Feature"}
{"geometry": {"coordinates": [-79.902584206, 36.198983063], "type": "Point"}, "id": "5GE3HnUFz6lg_BCQa4LTcgxmRDI=", "properties": {"@source_uri": "https://tools.usps.com/UspsToolsRestServices/rest/POLocator/findLocations", "@spider": "usps_collection_boxes", "addr:city": "SUMMERFIELD", "addr:country": "US", "addr:postcode": "27358", "addr:state": "NC", "addr:street_address": "7412 SUMMERFIELD RD", "amenity": "post_box", "collection_times": "Mo-Fr 16:30; Sa 12:00", "indoor": "yes", "note": "ON 12/24 AND 12/31, THIS BOX MAY BE COLLECTED AS EARLY AS 12 NOON.", "nsi_id": "unitedstatespostalservice-a77078", "operator": "United States Postal Service", "operator:short": "USPS", "operator:type": "public", "operator:wikidata": "Q668687", "ref": "2735800002"}, "type": "Feature"}
{"geometry": {"coordinates": [-79.902584206, 36.198983063], "type": "Point"}, "id": "ws9GuKvOLiKEvGIfXbR6MSPI7gY=", "properties": {"@source_uri": "https://tools.usps.com/UspsToolsRestServices/rest/POLocator/findLocations", "@spider": "usps_collection_boxes", "addr:city": "SUMMERFIELD", "addr:country": "US", "addr:postcode": "27358", "addr:state": "NC", "addr:street_address": "7412 SUMMERFIELD RD", "amenity": "post_box", "collection_times": "Mo-Fr 16:30", "indoor": "yes", "note": "ON 12/24 AND 12/31, THIS BOX MAY BE COLLECTED AS EARLY AS 12 NOON.", "nsi_id": "unitedstatespostalservice-a77078", "operator": "United States Postal Service", "operator:short": "USPS", "operator:type": "public", "operator:wikidata": "Q668687", "ref": "2735800004"}, "type": "Feature"}
{"geometry": {"coordinates": [-80.084457025, 35.8814700068], "type": "Point"}, "id": "02j-clVh74zjuGNwYwKGR6FOBT8=", "properties": {"@source_uri": "https://tools.usps.com/UspsToolsRestServices/rest/POLocator/findLocations", "@spider": "usps_collection_boxes", "addr:city": "THOMASVILLE", "addr:country": "US", "addr:postcode": "27360", "addr:state": "NC", "addr:street_address": "101 W MAIN ST", "amenity": "post_box", "collection_times": "Mo-Fr 17:00; Sa 11:45", "note": "ON 12/24 AND 12/31, THIS BOX MAY BE COLLECTED AS EARLY AS 12 NOON.", "nsi_id": "unitedstatespostalservice-a77078", "operator": "United States Postal Service", "operator:short": "USPS", "operator:type": "public", "operator:wikidata": "Q668687", "ref": "2736000004"}, "type": "Feature"}
{"geometry": {"coordinates": [-80.1116371, 35.88029], "type": "Point"}, "id": "FiEPe0NqNc2a3GZsVe0lzucx4QQ=", "properties": {"@source_uri": "https://tools.usps.com/UspsToolsRestServices/rest/POLocator/findLocations", "@spider": "usps_collection_boxes", "addr:city": "THOMASVILLE", "addr:country": "US", "addr:postcode": "27360", "addr:state": "NC", "addr:street_address": "207 OLD LEXINGTON RD", "amenity": "post_box", "collection_times": "Mo-Sa 10:00", "nsi_id": "unitedstatespostalservice-a77078", "operator": "United States Postal Service", "operator:short": "USPS", "operator:type": "public", "operator:wikidata": "Q668687", "ref": "2736000007"}, "type": "Feature"}
{"geometry": {"coordinates": [-80.0823958, 35.884199], "type": "Point"}, "id": "i0HpzV9T08qK4pfi9abnhIlPfis=", "properties": {"@source_uri": "https://tools.usps.com/UspsToolsRestServices/rest/POLocator/findLocations", "@spider": "usps_collection_boxes", "addr:city": "THOMASVILLE", "addr:country": "US", "addr:postcode": "27360", "addr:state": "NC", "addr:street_address": "34 SALEM ST", "amenity": "post_box", "collection_times": "Mo-Sa 10:00", "nsi_id": "unitedstatespostalservice-a77078", "operator": "United States Postal Service", "operator:short": "USPS", "operator:type": "public", "operator:wikidata": "Q668687", "ref": "2736000009"}, "type": "Feature"}
{"geometry": {"coordinates": [-80.0940361, 35.8570955], "type": "Point"}, "id": "Af91QtVZAjDzbo8CsyWlnbr9t7U=", "properties": {"@source_uri": "https://tools.usps.com/UspsToolsRestServices/rest/POLocator/findLocations", "@spider": "usps_collection_boxes", "addr:city": "THOMASVILLE", "addr:country": "US", "addr:postcode": "27360", "addr:state": "NC", "addr:street_address": "1120 RANDOLPH ST", "amenity": "post_box", "collection_times": "Mo-Sa 10:00", "nsi_id": "unitedstatespostalservice-a77078", "operator": "United States Postal Service", "operator:short": "USPS", "operator:type": "public", "operator:wikidata": "Q668687", "ref": "2736000011"}, "type": "Feature"}
{"geometry": {"coordinates": [-80.0727477143, 35.8589351307], "type": "Point"}, "id": "Ygw2sgsayAvcVMlKarSitTJMmFQ=", "properties": {"@source_uri": "https://tools.usps.com/UspsToolsRestServices/rest/POLocator/findLocations", "@spider": "usps_collection_boxes", "addr:city": "THOMASVILLE", "addr:country": "US", "addr:postcode": "27360", "addr:state": "NC", "addr:street_address": "1122 RANDOLPH ST", "amenity": "post_box", "collection_times": "Mo-Sa 10:00", "nsi_id": "unitedstatespostalservice-a77078", "operator": "United States Postal Service", "operator:short": "USPS", "operator:type": "public", "operator:wikidata": "Q668687", "ref": "2736000012"}, "type": "Feature"}
{"geometry": {"coordinates": [-80.0703015, 35.864566], "type": "Point"}, "id": "iUQvfI_t7XQYiwhoExOTmdtNbwU=", "properties": {"@source_uri": "https://tools.usps.com/UspsToolsRestServices/rest/POLocator/findLocations", "@spider": "usps_collection_boxes", "addr:city": "THOMASVILLE", "addr:country": "US", "addr:postcode": "27360", "addr:state": "NC", "addr:street_address": "1025 RANDOLPH ST", "amenity": "post_box", "collection_times": "Mo-Sa 10:00", "nsi_id": "unitedstatespostalservice-a77078", "operator": "United States Postal Service", "operator:short": "USPS", "operator:type": "public", "operator:wikidata": "Q668687", "ref": "2736000013"}, "type": "Feature"}
{"geometry": {"coordinates": [-80.081265, 35.87748], "type": "Point"}, "id": "OIQjxHcm0CxwUJrEzj9iy-G78-w=", "properties": {"@source_uri": "https://tools.usps.com/UspsToolsRestServices/rest/POLocator/findLocations", "@spider": "usps_collection_boxes", "addr:city": "THOMASVILLE", "addr:country": "US", "addr:postcode": "27360", "addr:state": "NC", "addr:street_address": "911 RANDOLPH ST", "amenity": "post_box", "collection_times": "Mo-Sa 10:00", "nsi_id": "unitedstatespostalservice-a77078", "operator": "United States Postal Service", "operator:short": "USPS", "operator:type": "public", "operator:wikidata": "Q668687", "ref": "2736000014"}, "type": "Feature"}
{"geometry": {"coordinates": [-80.071160125, 35.871810192], "type": "Point"}, "id": "516Z1wdn9RGPWTzdqUaQz2ct_YY=", "properties": {"@source_uri": "https://tools.usps.com/UspsToolsRestServices/rest/POLocator/findLocations", "@spider": "usps_collection_boxes", "addr:city": "THOMASVILLE", "addr:country": "US", "addr:postcode": "27360", "addr:state": "NC", "addr:street_address": "801 JULIAN AVE", "amenity": "post_box", "collection_times": "Mo-Sa 10:00", "nsi_id": "unitedstatespostalservice-a77078", "operator": "United States Postal Service", "operator:short": "USPS", "operator:type": "public", "operator:wikidata": "Q668687", "ref": "2736000015"}, "type": "Feature"}
{"geometry": {"coordinates": [-80.0666719, 35.899738], "type": "Point"}, "id": "6n_VN8g3W1EnK8jmP-2-DBfJPXA=", "properties": {"@source_uri": "https://tools.usps.com/UspsToolsRestServices/rest/POLocator/findLocations", "@spider": "usps_collection_boxes", "addr:city": "THOMASVILLE", "addr:country": "US", "addr:postcode": "27360", "addr:state": "NC", "addr:street_address": "801 NATIONAL HWY", "amenity": "post_box", "collection_times": "Mo-Sa 10:00", "nsi_id": "unitedstatespostalservice-a77078", "operator": "United States Postal Service", "operator:short": "USPS", "operator:type": "public", "operator:wikidata": "Q668687", "ref": "2736000018"}, "type": "Feature"}
{"geometry": {"coordinates": [-80.0573160954, 35.9179899581], "type": "Point"}, "id": "v7r0SzoX1KAEyYNc3bp96BMa3eU=", "properties": {"@source_uri": "https://tools.usps.com/UspsToolsRestServices/rest/POLocator/findLocations", "@spider": "usps_collection_boxes", "addr:city": "THOMASVILLE", "addr:country": "US", "addr:postcode": "27360", "addr:state": "NC", "addr:street_address": "1401 NATIONAL HWY", "amenity": "post_box", "collection_times": "Mo-Sa 12:00", "nsi_id": "unitedstatespostalservice-a77078", "operator": "United States Postal Service", "operator:short": "USPS", "operator:type": "public", "operator:wikidata": "Q668687", "ref": "2736000021"}, "type": "Feature"}
{"geometry": {"coordinates": [-80.085157635, 35.881618948], "type": "Point"}, "id": "5fhXD6_omfiBIFmHGwkCj4ZHA5s=", "properties": {"@source_uri": "https://tools.usps.com/UspsToolsRestServices/rest/POLocator/findLocations", "@spider": "usps_collection_boxes", "addr:city": "THOMASVILLE", "addr:country": "US", "addr:postcode": "27360", "addr:state": "NC", "addr:street_address": "101 W MAIN ST", "amenity": "post_box", "collection_times": "Mo-Fr 17:00; Sa 11:45", "indoor": "yes", "note": "ON 12/24 AND 12/31, THIS BOX MAY BE COLLECTED AS EARLY AS 12 NOON.", "nsi_id": "unitedstatespostalservice-a77078", "operator": "United States Postal Service", "operator:short": "USPS", "operator:type": "public", "operator:wikidata": "Q668687", "ref": "2736000035"}, "type": "Feature"}
{"geometry": {"coordinates": [-80.085157635, 35.881618948], "type": "Point"}, "id": "mtDbkvdJATCrWaWvn2k-vb5tScU=", "properties": {"@source_uri": "https://tools.usps.com/UspsToolsRestServices/rest/POLocator/findLocations", "@spider": "usps_collection_boxes", "addr:city": "THOMASVILLE", "addr:country": "US", "addr:postcode": "27360", "addr:state": "NC", "addr:street_address": "101 W MAIN ST", "amenity": "post_box", "collection_times": "Mo-Fr 17:00; Sa 11:45", "indoor": "yes", "note": "ON 12/24 AND 12/31, THIS BOX MAY BE COLLECTED AS EARLY AS 12 NOON.", "nsi_id": "unitedstatespostalservice-a77078", "operator": "United States Postal Service", "operator:short": "USPS", "operator:type": "public", "operator:wikidata": "Q668687", "ref": "2736000036"}, "type": "Feature"}
{"geometry": {"coordinates": [-80.0677923, 35.854768], "type": "Point"}, "id": "DR9UTz_k2tigSOPR13ScaqZy0Bg=", "properties": {"@source_uri": "https://tools.usps.com/UspsToolsRestServices/rest/POLocator/findLocations", "@spider": "usps_collection_boxes", "addr:city": "THOMASVILLE", "addr:country": "US", "addr:postcode": "27360", "addr:state": "NC", "addr:street_address": "1585 LIBERTY DR", "amenity": "post_box", "collection_times": "Mo-Sa 10:00", "nsi_id": "unitedstatespostalservice-a77078", "operator": "United States Postal Service", "operator:short": "USPS", "operator:type": "public", "operator:wikidata": "Q668687", "ref": "2736000037"}, "type": "Feature"}
{"geometry": {"coordinates": [-80.085157635, 35.881618948], "type": "Point"}, "id": "Sf3WIHQy8Kqj-6EquYlwkOSCmzE=", "properties": {"@source_uri": "https://tools.usps.com/UspsToolsRestServices/rest/POLocator/findLocations", "@spider": "usps_collection_boxes", "addr:city": "THOMASVILLE", "addr:country": "US", "addr:postcode": "27360", "addr:state": "NC", "addr:street_address": "101 W MAIN ST", "amenity": "post_box", "collection_times": "Mo-Fr 17:00; Sa 12:00", "indoor": "yes", "note": "ON 12/24 AND 12/31, THIS BOX MAY BE COLLECTED AS EARLY AS 12 NOON.", "nsi_id": "unitedstatespostalservice-a77078", "operator": "United States Postal Service", "operator:short": "USPS", "operator:type": "public", "operator:wikidata": "Q668687", "ref": "2736000040"}, "type": "Feature"}
{"geometry": {"coordinates": [-79.988632284, 35.896820761], "type": "Point"}, "id": "ILv5kq3qQor8J5ts4fzOTL7UTs4=", "properties": {"@source_uri": "https://tools.usps.com/UspsToolsRestServices/rest/POLocator/findLocations", "@spider": "usps_collection_boxes", "addr:city": "TRINITY", "addr:country": "US", "addr:postcode": "27370", "addr:state": "NC", "addr:street_address": "7259 NC HIGHWAY 62", "amenity": "post_box", "collection_times": "Mo-Fr 16:45; Sa 11:15", "note": "ON 12/24 AND 12/31, THIS BOX MAY BE COLLECTED AS EARLY AS 12 NOON.", "nsi_id": "unitedstatespostalservice-a77078", "operator": "United States Postal Service", "operator:short": "USPS", "operator:type": "public", "operator:wikidata": "Q668687", "ref": "2737000001"}, "type": "Feature"}
{"geometry": {"coordinates": [-79.988632284, 35.896820761], "type": "Point"}, "id": "L9eqcSIUqvxMewWbFDPBiR8J3m8=", "properties": {"@source_uri": "https://tools.usps.com/UspsToolsRestServices/rest/POLocator/findLocations", "@spider": "usps_collection_boxes", "addr:city": "TRINITY", "addr:country": "US", "addr:postcode": "27370", "addr:state": "NC", "addr:street_address": "7259 NC HIGHWAY 62", "amenity": "post_box", "collection_times": "Mo-Fr 16:45; Sa 11:15", "indoor": "yes", "note": "ON 12/24 AND 12/31, THIS BOX MAY BE COLLECTED AS EARLY AS 12 NOON.", "nsi_id": "unitedstatespostalservice-a77078", "operator": "United States Postal Service", "operator:short": "USPS", "operator:type": "public", "operator:wikidata": "Q668687", "ref": "2737000004"}, "type": "Feature"}
{"geometry": {"coordinates": [-79.988632284, 35.896820761], "type": "Point"}, "id": "ffKqIWrTiehJ46hdZQGQ4-FjzxY=", "properties": {"@source_uri": "https://tools.usps.com/UspsToolsRestServices/rest/POLocator/findLocations", "@spider": "usps_collection_boxes", "addr:city": "TRINITY", "addr:country": "US", "addr:postcode": "27370", "addr:state": "NC", "addr:street_address": "7259 NC HIGHWAY 62", "amenity": "post_box", "collection_times": "Mo-Fr 16:45; Sa 11:15", "indoor": "yes", "note": "ON 12/24 AND 12/31, THIS BOX MAY BE COLLECTED AS EARLY AS 12 NOON.", "nsi_id": "unitedstatespostalservice-a77078", "operator": "United States Postal Service", "operator:short": "USPS", "operator:type": "public", "operator:wikidata": "Q668687", "ref": "2737000005"}, "type": "Feature"}
{"geometry": {"coordinates": [-79.895073601, 35.364851811], "type": "Point"}, "id": "IuYKQHBGBunA0hiwjSB7O8pysy8=", "properties": {"@source_uri": "https://tools.usps.com/UspsToolsRestServices/rest/POLocator/findLocations", "@spider": "usps_collection_boxes", "addr:city": "TROY", "addr:country": "US", "addr:postcode": "27371", "addr:state": "NC", "addr:street_address": "601 N MAIN ST", "amenity": "post_box", "collection_times": "Mo-Fr 17:00; Sa 12:00", "note": "ON 12/24 AND 12/31, THIS BOX MAY BE COLLECTED AS EARLY AS 12 NOON.", "nsi_id": "unitedstatespostalservice-a77078", "operator": "United States Postal Service", "operator:short": "USPS", "operator:type": "public", "operator:wikidata": "Q668687", "ref": "2737100001"}, "type": "Feature"}
{"geometry": {"coordinates": [-79.894102582, 35.361412248], "type": "Point"}, "id": "_YifpP0XMZ9-q2wFawFDy-NiJiY=", "properties": {"@source_uri": "https://tools.usps.com/UspsToolsRestServices/rest/POLocator/findLocations", "@spider": "usps_collection_boxes", "addr:city": "TROY", "addr:country": "US", "addr:postcode": "27371", "addr:state": "NC", "addr:street_address": "318 N MAIN ST", "amenity": "post_box", "collection_times": "Mo-Sa 15:00", "note": "ON 12/24 AND 12/31, THIS BOX MAY BE COLLECTED AS EARLY AS 12 NOON.", "nsi_id": "unitedstatespostalservice-a77078", "operator": "United States Postal Service", "operator:short": "USPS", "operator:type": "public", "operator:wikidata": "Q668687", "ref": "2737100002"}, "type": "Feature"}
{"geometry": {"coordinates": [-79.892667746, 35.358502743], "type": "Point"}, "id": "GZLwC_vj6SwCkc5mLlp6uFXViVY=", "properties": {"@source_uri": "https://tools.usps.com/UspsToolsRestServices/rest/POLocator/findLocations", "@spider": "usps_collection_boxes", "addr:city": "TROY", "addr:country": "US", "addr:postcode": "27371", "addr:state": "NC", "addr:street_address": "102 S PEARL ST", "amenity": "post_box", "collection_times": "Mo-Sa 15:00", "note": "ON 12/24 AND 12/31, THIS BOX MAY BE COLLECTED AS EARLY AS 12 NOON.", "nsi_id": "unitedstatespostalservice-a77078", "operator": "United States Postal Service", "operator:short": "USPS", "operator:type": "public", "operator:wikidata": "Q668687", "ref": "2737100003"}, "type": "Feature"}
{"geometry": {"coordinates": [-79.911360021, 35.34802877], "type": "Point"}, "id": "bmSkwAacjCst0zFKL0RYdYPUcws=", "properties": {"@source_uri": "https://tools.usps.com/UspsToolsRestServices/rest/POLocator/findLocations", "@spider": "usps_collection_boxes", "addr:city": "TROY", "addr:country": "US", "addr:postcode": "27371", "addr:state": "NC", "addr:street_address": "902 ALBEMARLE RD", "amenity": "post_box", "collection_times": "Mo-Sa 13:00", "note": "ON 12/24 AND 12/31, THIS BOX MAY BE COLLECTED AS EARLY AS 12 NOON.", "nsi_id": "unitedstatespostalservice-a77078", "operator": "United States Postal Service", "operator:short": "USPS", "operator:type": "public", "operator:wikidata": "Q668687", "ref": "2737100005"}, "type": "Feature"}
{"geometry": {"coordinates": [-80.043894798, 35.359067334], "type": "Point"}, "id": "PBdT6vq9pRdw_2mOodFAZDYGFII=", "properties": {"@source_uri": "https://tools.usps.com/UspsToolsRestServices/rest/POLocator/findLocations", "@spider": "usps_collection_boxes", "addr:city": "TROY", "addr:country": "US", "addr:postcode": "27371", "addr:state": "NC", "addr:street_address": "2205 RIVER RD", "amenity": "post_box", "collection_times": "Mo-Sa 12:00", "nsi_id": "unitedstatespostalservice-a77078", "operator": "United States Postal Service", "operator:short": "USPS", "operator:type": "public", "operator:wikidata": "Q668687", "ref": "2737100007"}, "type": "Feature"}
{"geometry": {"coordinates": [-79.895073601, 35.364851811], "type": "Point"}, "id": "N38csMUF7yTtQNem_xPIuapWK_8=", "properties": {"@source_uri": "https://tools.usps.com/UspsToolsRestServices/rest/POLocator/findLocations", "@spider": "usps_collection_boxes", "addr:city": "TROY", "addr:country": "US", "addr:postcode": "27371", "addr:state": "NC", "addr:street_address": "601 N MAIN ST", "amenity": "post_box", "collection_times": "Mo-Fr 17:00; Sa 12:00", "indoor": "yes", "note": "ON 12/24 AND 12/31, THIS BOX MAY BE COLLECTED AS EARLY AS 12 NOON.", "nsi_id": "unitedstatespostalservice-a77078", "operator": "United States Postal Service", "operator:short": "USPS", "operator:type": "public", "operator:wikidata": "Q668687", "ref": "2737100008"}, "type": "Feature"}
{"geometry": {"coordinates": [-79.895073601, 35.364851811], "type": "Point"}, "id": "SeVi9GrrwG3x_IUiGa0gZivgC8M=", "properties": {"@source_uri": "https://tools.usps.com/UspsToolsRestServices/rest/POLocator/findLocations", "@spider": "usps_collection_boxes", "addr:city": "TROY", "addr:country": "US", "addr:postcode": "27371", "addr:state": "NC", "addr:street_address": "601 N MAIN ST", "amenity": "post_box", "collection_times": "Mo-Fr 17:00; Sa 12:00", "indoor": "yes", "note": "ON 12/24 AND 12/31, THIS BOX MAY BE COLLECTED AS EARLY AS 12 NOON.", "nsi_id": "unitedstatespostalservice-a77078", "operator": "United States Postal Service", "operator:short": "USPS", "operator:type": "public", "operator:wikidata": "Q668687", "ref": "2737100011"}, "type": "Feature"}
{"geometry": {"coordinates": [-80.1377822116, 36.0096424744], "type": "Point"}, "id": "Ez01031WArKoi2J-ElNS5_BT6B4=", "properties": {"@source_uri": "https://tools.usps.com/UspsToolsRestServices/rest/POLocator/findLocations", "@spider": "usps_collection_boxes", "addr:city": "WALLBURG", "addr:country": "US", "addr:postcode": "27373", "addr:state": "NC", "addr:street_address": "8590 N NC HIGHWAY 109", "amenity": "post_box", "collection_times": "Mo-Fr 16:30; Sa 11:45", "note": "ON 12/24 AND 12/31, THIS BOX MAY BE COLLECTED AS EARLY AS 12 NOON.", "nsi_id": "unitedstatespostalservice-a77078", "operator": "United States Postal Service", "operator:short": "USPS", "operator:type": "public", "operator:wikidata": "Q668687", "ref": "2737300001"}, "type": "Feature"}
{"geometry": {"coordinates": [-80.137811631, 36.009657395], "type": "Point"}, "id": "NCu3LIWAzgQR7NZ-8S8D_wGqyYg=", "properties": {"@source_uri": "https://tools.usps.com/UspsToolsRestServices/rest/POLocator/findLocations", "@spider": "usps_collection_boxes", "addr:city": "WALLBURG", "addr:country": "US", "addr:postcode": "27373", "addr:state": "NC", "addr:street_address": "8590 N NC HIGHWAY 109", "amenity": "post_box", "collection_times": "Mo-Fr 16:30; Sa 11:45", "indoor": "yes", "note": "ON 12/24 AND 12/31, THIS BOX MAY BE COLLECTED AS EARLY AS 12 NOON.", "nsi_id": "unitedstatespostalservice-a77078", "operator": "United States Postal Service", "operator:short": "USPS", "operator:type": "public", "operator:wikidata": "Q668687", "ref": "2737300003"}, "type": "Feature"}
{"geometry": {"coordinates": [-80.137811631, 36.009657395], "type": "Point"}, "id": "JX3jfIqu2TqpBIoqWa0jSuOtdnU=", "properties": {"@source_uri": "https://tools.usps.com/UspsToolsRestServices/rest/POLocator/findLocations", "@spider": "usps_collection_boxes", "addr:city": "WALLBURG", "addr:country": "US", "addr:postcode": "27373", "addr:state": "NC", "addr:street_address": "8590 N NC HIGHWAY 109", "amenity": "post_box", "collection_times": "Mo-Fr 16:45; Sa 12:00", "indoor": "yes", "note": "ON 12/24 AND 12/31, THIS BOX MAY BE COLLECTED AS EARLY AS 12 NOON.", "nsi_id": "unitedstatespostalservice-a77078", "operator": "United States Postal Service", "operator:short": "USPS", "operator:type": "public", "operator:wikidata": "Q668687", "ref": "2737300004"}, "type": "Feature"}
{"geometry": {"coordinates": [-80.2542509978, 35.9116249932], "type": "Point"}, "id": "1qPbxHVHpKWaznyp_wMnr5Q-IvA=", "properties": {"@source_uri": "https://tools.usps.com/UspsToolsRestServices/rest/POLocator/findLocations", "@spider": "usps_collection_boxes", "addr:city": "WELCOME", "addr:country": "US", "addr:postcode": "27374", "addr:state": "NC", "addr:street_address": "6325 OLD US HIGHWAY 52", "amenity": "post_box", "collection_times": "Mo-Fr 16:35; Sa 11:15", "note": "ON 12/24 AND 12/31, THIS BOX MAY BE COLLECTED AS EARLY AS 12 NOON.", "nsi_id": "unitedstatespostalservice-a77078", "operator": "United States Postal Service", "operator:short": "USPS", "operator:type": "public", "operator:wikidata": "Q668687", "ref": "2737400002"}, "type": "Feature"}
{"geometry": {"coordinates": [-80.253976952, 35.911285542], "type": "Point"}, "id": "QzfGfipKFWH5wRiV9GU_G5IWs5Q=", "properties": {"@source_uri": "https://tools.usps.com/UspsToolsRestServices/rest/POLocator/findLocations", "@spider": "usps_collection_boxes", "addr:city": "WELCOME", "addr:country": "US", "addr:postcode": "27374", "addr:state": "NC", "addr:street_address": "6325 OLD US HIGHWAY 52", "amenity": "post_box", "collection_times": "Mo-Fr 16:35; Sa 11:15", "indoor": "yes", "note": "ON 12/24 AND 12/31, THIS BOX MAY BE COLLECTED AS EARLY AS 12 NOON.", "nsi_id": "unitedstatespostalservice-a77078", "operator": "United States Postal Service", "operator:short": "USPS", "operator:type": "public", "operator:wikidata": "Q668687", "ref": "2737400004"}, "type": "Feature"}
{"geometry": {"coordinates": [-80.253976952, 35.911285542], "type": "Point"}, "id": "mCS5egwdL0OAnOPijbP09eMSR5U=", "properties": {"@source_uri": "https://tools.usps.com/UspsToolsRestServices/rest/POLocator/findLocations", "@spider": "usps_collection_boxes", "addr:city": "WELCOME", "addr:country": "US", "addr:postcode": "27374", "addr:state": "NC", "addr:street_address": "6325 OLD US HIGHWAY 52", "amenity": "post_box", "collection_times": "Mo-Fr 16:35; Sa 11:15", "indoor": "yes", "note": "ON 12/24 AND 12/31, THIS BOX MAY BE COLLECTED AS EARLY AS 12 NOON.", "nsi_id": "unitedstatespostalservice-a77078", "operator": "United States Postal Service", "operator:short": "USPS", "operator:type": "public", "operator:wikidata": "Q668687", "ref": "2737400007"}, "type": "Feature"}
{"geometry": {"coordinates": [-79.77016, 36.39848], "type": "Point"}, "id": "SYLtj3uWl-q7t1mU08Y7Y2i6gWI=", "properties": {"@source_uri": "https://tools.usps.com/UspsToolsRestServices/rest/POLocator/findLocations", "@spider": "usps_collection_boxes", "addr:city": "WENTWORTH", "addr:country": "US", "addr:postcode": "27375", "addr:state": "NC", "addr:street_address": "200 COUNTY HOME RD", "amenity": "post_box", "collection_times": "Mo-Fr 16:45", "indoor": "yes", "note": "ON 12/24 AND 12/31, THIS BOX MAY BE COLLECTED AS EARLY AS 12 NOON.", "nsi_id": "unitedstatespostalservice-a77078", "operator": "United States Postal Service", "operator:short": "USPS", "operator:type": "public", "operator:wikidata": "Q668687", "ref": "2737500001"}, "type": "Feature"}
{"geometry": {"coordinates": [-79.77016, 36.39848], "type": "Point"}, "id": "1irUPEY3xFgq7EdFGWcm_TpSn0o=", "properties": {"@source_uri": "https://tools.usps.com/UspsToolsRestServices/rest/POLocator/findLocations", "@spider": "usps_collection_boxes", "addr:city": "WENTWORTH", "addr:country": "US", "addr:postcode": "27375", "addr:state": "NC", "addr:street_address": "200 COUNTY HOME RD", "amenity": "post_box", "collection_times": "Mo-Fr 16:45", "note": "ON 12/24 AND 12/31, THIS BOX MAY BE COLLECTED AS EARLY AS 12 NOON.", "nsi_id": "unitedstatespostalservice-a77078", "operator": "United States Postal Service", "operator:short": "USPS", "operator:type": "public", "operator:wikidata": "Q668687", "ref": "2737500002"}, "type": "Feature"}
{"geometry": {"coordinates": [-79.77016, 36.39848], "type": "Point"}, "id": "UHHosUu3DcqpjpMB7Wcl71enzfw=", "properties": {"@source_uri": "https://tools.usps.com/UspsToolsRestServices/rest/POLocator/findLocations", "@spider": "usps_collection_boxes", "addr:city": "WENTWORTH", "addr:country": "US", "addr:postcode": "27375", "addr:state": "NC", "addr:street_address": "200 COUNTY HOME RD", "amenity": "post_box", "collection_times": "Mo-Fr 16:45", "indoor": "yes", "note": "ON 12/24 AND 12/31, THIS BOX MAY BE COLLECTED AS EARLY AS 12 NOON.", "nsi_id": "unitedstatespostalservice-a77078", "operator": "United States Postal Service", "operator:short": "USPS", "operator:type": "public", "operator:wikidata": "Q668687", "ref": "2737500003"}, "type": "Feature"}
{"geometry": {"coordinates": [-79.569445969, 35.244681411], "type": "Point"}, "id": "lA44AFKxroVVo5QuLeMVoUF_KOI=", "properties": {"@source_uri": "https://tools.usps.com/UspsToolsRestServices/rest/POLocator/findLocations", "@spider": "usps_collection_boxes", "addr:city": "WEST END", "addr:country": "US", "addr:postcode": "27376", "addr:state": "NC", "addr:street_address": "5161 NC HIGHWAY 211", "amenity": "post_box", "collection_times": "Mo-Fr 16:30; Sa 10:00", "note": "ON 12/24 AND 12/31, THIS BOX MAY BE COLLECTED AS EARLY AS 12 NOON.", "nsi_id": "unitedstatespostalservice-a77078", "operator": "United States Postal Service", "operator:short": "USPS", "operator:type": "public", "operator:wikidata": "Q668687", "ref": "2737600002"}, "type": "Feature"}
{"geometry": {"coordinates": [-79.584813307, 35.264776747], "type": "Point"}, "id": "tQDrgDSYmaQwPMj4usl95yN7lzI=", "properties": {"@source_uri": "https://tools.usps.com/UspsToolsRestServices/rest/POLocator/findLocations", "@spider": "usps_collection_boxes", "addr:city": "WEST END", "addr:country": "US", "addr:postcode": "27376", "addr:state": "NC", "addr:street_address": "135 N TRADE ST", "amenity": "post_box", "collection_times": "Mo-Fr 13:00; Sa 11:00", "note": "ON 12/24 AND 12/31, THIS BOX MAY BE COLLECTED AS EARLY AS 12 NOON.", "nsi_id": "unitedstatespostalservice-a77078", "operator": "United States Postal Service", "operator:short": "USPS", "operator:type": "public", "operator:wikidata": "Q668687", "ref": "2737600003"}, "type": "Feature"}
{"geometry": {"coordinates": [-79.589028231, 35.257219101], "type": "Point"}, "id": "G0yXOoK5sVhyhiviEO6uVzMGZ18=", "properties": {"@source_uri": "https://tools.usps.com/UspsToolsRestServices/rest/POLocator/findLocations", "@spider": "usps_collection_boxes", "addr:city": "WEST END", "addr:country": "US", "addr:postcode": "27376", "addr:state": "NC", "addr:street_address": "556 LONGLEAF DR", "amenity": "post_box", "collection_times": "Mo-Sa 12:00", "nsi_id": "unitedstatespostalservice-a77078", "operator": "United States Postal Service", "operator:short": "USPS", "operator:type": "public", "operator:wikidata": "Q668687", "ref": "2737600004"}, "type": "Feature"}
{"geometry": {"coordinates": [-79.569445969, 35.244681411], "type": "Point"}, "id": "032UL7DjYFbrmyJqSdjB4uV8fAY=", "properties": {"@source_uri": "https://tools.usps.com/UspsToolsRestServices/rest/POLocator/findLocations", "@spider": "usps_collection_boxes", "addr:city": "WEST END", "addr:country": "US", "addr:postcode": "27376", "addr:state": "NC", "addr:street_address": "5161 NC HIGHWAY 211", "amenity": "post_box", "collection_times": "Mo-Fr 16:30; Sa 10:00", "indoor": "yes", "note": "ON 12/24 AND 12/31, THIS BOX MAY BE COLLECTED AS EARLY AS 12 NOON.", "nsi_id": "unitedstatespostalservice-a77078", "operator": "United States Postal Service", "operator:short": "USPS", "operator:type": "public", "operator:wikidata": "Q668687", "ref": "2737600007"}, "type": "Feature"}
{"geometry": {"coordinates": [-79.569445969, 35.244681411], "type": "Point"}, "id": "VJFyp7m_f3KqakrqSuywj6_hr38=", "properties": {"@source_uri": "https://tools.usps.com/UspsToolsRestServices/rest/POLocator/findLocations", "@spider": "usps_collection_boxes", "addr:city": "WEST END", "addr:country": "US", "addr:postcode": "27376", "addr:state": "NC", "addr:street_address": "5161 NC HIGHWAY 211", "amenity": "post_box", "collection_times": "Mo-Fr 16:30; Sa 10:00", "indoor": "yes", "note": "ON 12/24 AND 12/31, THIS BOX MAY BE COLLECTED AS EARLY AS 12 NOON.", "nsi_id": "unitedstatespostalservice-a77078", "operator": "United States Postal Service", "operator:short": "USPS", "operator:type": "public", "operator:wikidata": "Q668687", "ref": "2737600009"}, "type": "Feature"}
{"geometry": {"coordinates": [-79.5637866, 36.063716], "type": "Point"}, "id": "KH2RNN5d2VqYC7S5lA7lu4bm0N8=", "properties": {"@source_uri": "https://tools.usps.com/UspsToolsRestServices/rest/POLocator/findLocations", "@spider": "usps_collection_boxes", "addr:city": "WHITSETT", "addr:country": "US", "addr:postcode": "27377", "addr:state": "NC", "addr:street_address": "1101 NC HIGHWAY 61", "amenity": "post_box", "collection_times": "Mo-Sa 12:00", "nsi_id": "unitedstatespostalservice-a77078", "operator": "United States Postal Service", "operator:short": "USPS", "operator:type": "public", "operator:wikidata": "Q668687", "ref": "2737700002"}, "type": "Feature"}
{"geometry": {"coordinates": [-79.564218059, 36.067131105], "type": "Point"}, "id": "3NZz6MNdj1MJfeRU9Qbr4eGicp0=", "properties": {"@source_uri": "https://tools.usps.com/UspsToolsRestServices/rest/POLocator/findLocations", "@spider": "usps_collection_boxes", "addr:city": "WHITSETT", "addr:country": "US", "addr:postcode": "27377", "addr:state": "NC", "addr:street_address": "1001 NC HIGHWAY 61", "amenity": "post_box", "collection_times": "Mo-Fr 16:15; Sa 11:45", "note": "ON 12/24 AND 12/31, THIS BOX MAY BE COLLECTED AS EARLY AS 12 NOON.", "nsi_id": "unitedstatespostalservice-a77078", "operator": "United States Postal Service", "operator:short": "USPS", "operator:type": "public", "operator:wikidata": "Q668687", "ref": "2737700004"}, "type": "Feature"}
{"geometry": {"coordinates": [-79.564218059, 36.067131105], "type": "Point"}, "id": "Orhh3L1cgRyTXlCINaOoWJS9H9I=", "properties": {"@source_uri": "https://tools.usps.com/UspsToolsRestServices/rest/POLocator/findLocations", "@spider": "usps_collection_boxes", "addr:city": "WHITSETT", "addr:country": "US", "addr:postcode": "27377", "addr:state": "NC", "addr:street_address": "1001 NC HIGHWAY 61", "amenity": "post_box", "collection_times": "Mo-Fr 16:15; Sa 11:45", "indoor": "yes", "note": "ON 12/24 AND 12/31, THIS BOX MAY BE COLLECTED AS EARLY AS 12 NOON.", "nsi_id": "unitedstatespostalservice-a77078", "operator": "United States Postal Service", "operator:short": "USPS", "operator:type": "public", "operator:wikidata": "Q668687", "ref": "2737700006"}, "type": "Feature"}
{"geometry": {"coordinates": [-79.6076805, 36.064515], "type": "Point"}, "id": "_OnmCr95VFZLXVBau-E_6Ppwsgg=", "properties": {"@source_uri": "https://tools.usps.com/UspsToolsRestServices/rest/POLocator/findLocations", "@spider": "usps_collection_boxes", "addr:city": "WHITSETT", "addr:country": "US", "addr:postcode": "27377", "addr:state": "NC", "addr:street_address": "6307 BURLINGTON RD", "amenity": "post_box", "collection_times": "Mo-Sa 12:00", "nsi_id": "unitedstatespostalservice-a77078", "operator": "United States Postal Service", "operator:short": "USPS", "operator:type": "public", "operator:wikidata": "Q668687", "ref": "2737700007"}, "type": "Feature"}
{"geometry": {"coordinates": [-79.564218059, 36.067131105], "type": "Point"}, "id": "Tx4N7ahUKZRYryUVcBPgtYrLXgI=", "properties": {"@source_uri": "https://tools.usps.com/UspsToolsRestServices/rest/POLocator/findLocations", "@spider": "usps_collection_boxes", "addr:city": "WHITSETT", "addr:country": "US", "addr:postcode": "27377", "addr:state": "NC", "addr:street_address": "1001 NC HIGHWAY 61", "amenity": "post_box", "collection_times": "Mo-Fr 16:30; Sa 12:00", "indoor": "yes", "note": "ON 12/24 AND 12/31, THIS BOX MAY BE COLLECTED AS EARLY AS 12 NOON.", "nsi_id": "unitedstatespostalservice-a77078", "operator": "United States Postal Service", "operator:short": "USPS", "operator:type": "public", "operator:wikidata": "Q668687", "ref": "2737700010"}, "type": "Feature"}
{"geometry": {"coordinates": [-79.335107, 36.403645], "type": "Point"}, "id": "p_ClTqREUzzEId_UcaVeg0sf42A=", "properties": {"@source_uri": "https://tools.usps.com/UspsToolsRestServices/rest/POLocator/findLocations", "@spider": "usps_collection_boxes", "addr:city": "YANCEYVILLE", "addr:country": "US", "addr:postcode": "27379", "addr:state": "NC", "addr:street_address": "146 MAIN ST", "amenity": "post_box", "collection_times": "Mo-Fr 16:30; Sa 12:00", "note": "ON 12/24 AND 12/31, THIS BOX MAY BE COLLECTED AS EARLY AS 12 NOON.", "nsi_id": "unitedstatespostalservice-a77078", "operator": "United States Postal Service", "operator:short": "USPS", "operator:type": "public", "operator:wikidata": "Q668687", "ref": "2737900001"}, "type": "Feature"}
{"geometry": {"coordinates": [-79.335009, 36.403681], "type": "Point"}, "id": "n9PVjyL4z7UgDQYBLcihN728mI8=", "properties": {"@source_uri": "https://tools.usps.com/UspsToolsRestServices/rest/POLocator/findLocations", "@spider": "usps_collection_boxes", "addr:city": "YANCEYVILLE", "addr:country": "US", "addr:postcode": "27379", "addr:state": "NC", "addr:street_address": "146 MAIN ST", "amenity": "post_box", "collection_times": "Mo-Fr 16:30; Sa 12:00", "indoor": "yes", "note": "ON 12/24 AND 12/31, THIS BOX MAY BE COLLECTED AS EARLY AS 12 NOON.", "nsi_id": "unitedstatespostalservice-a77078", "operator": "United States Postal Service", "operator:short": "USPS", "operator:type": "public", "operator:wikidata": "Q668687", "ref": "2737900002"}, "type": "Feature"}
{"geometry": {"coordinates": [-79.339144026, 36.403588592], "type": "Point"}, "id": "7Xq7yTwBGlDRuKz0g_lHUE0Hxzw=", "properties": {"@source_uri": "https://tools.usps.com/UspsToolsRestServices/rest/POLocator/findLocations", "@spider": "usps_collection_boxes", "addr:city": "YANCEYVILLE", "addr:country": "US", "addr:postcode": "27379", "addr:state": "NC", "addr:street_address": "146 MAIN ST W", "amenity": "post_box", "collection_times": "Mo-Fr 16:30; Sa 12:00", "indoor": "yes", "note": "ON 12/24 AND 12/31, THIS BOX MAY BE COLLECTED AS EARLY AS 12 NOON.", "nsi_id": "unitedstatespostalservice-a77078", "operator": "United States Postal Service", "operator:short": "USPS", "operator:type": "public", "operator:wikidata": "Q668687", "ref": "2737900003"}, "type": "Feature"}
