{"geometry": {"coordinates": [-79.7837468, 36.073525], "type": "Point"}, "id": "LU1WrCpVDhUCCmHR-1xtg0CiJ6c=", "properties": {"@source_uri": "https://tools.usps.com/UspsToolsRestServices/rest/POLocator/findLocations", "@spider": "usps_collection_boxes", "addr:city": "GREENSBORO", "addr:country": "US", "addr:postcode": "27401", "addr:state": "NC", "addr:street_address": "201 N MURROW BLVD", "amenity": "post_box", "collection_times": "Mo-Fr 17:00; Sa 14:00", "note": "ON 12/24 AND 12/31, THIS BOX MAY BE COLLECTED AS EARLY AS 12 NOON.", "nsi_id": "unitedstatespostalservice-a77078", "operator": "United States Postal Service", "operator:short": "USPS", "operator:type": "public", "operator:wikidata": "Q668687", "ref": "2740100007"}, "type": "Feature"}
{"geometry": {"coordinates": [-79.783382897, 36.074293449], "type": "Point"}, "id": "LsiACudafbW14wPNQHc5B4AG79s=", "properties": {"@source_uri": "https://tools.usps.com/UspsToolsRestServices/rest/POLocator/findLocations", "@spider": "usps_collection_boxes", "addr:city": "GREENSBORO", "addr:country": "US", "addr:postcode": "27401", "addr:state": "NC", "addr:street_address": "201 N MURROW BLVD", "amenity": "post_box", "collection_times": "Mo-Fr 17:00; Sa 14:00", "note": "ON 12/24 AND 12/31, THIS BOX MAY BE COLLECTED AS EARLY AS 12 NOON.", "nsi_id": "unitedstatespostalservice-a77078", "operator": "United States Postal Service", "operator:short": "USPS", "operator:type": "public", "operator:wikidata": "Q668687", "ref": "2740100009"}, "type": "Feature"}
{"geometry": {"coordinates": [-79.7833828974, 36.0742934491], "type": "Point"}, "id": "0HsfEcRuSJrr12pJUs5inQix70g=", "properties": {"@source_uri": "https://tools.usps.com/UspsToolsRestServices/rest/POLocator/findLocations", "@spider": "usps_collection_boxes", "addr:city": "GREENSBORO", "addr:country": "US", "addr:postcode": "27401", "addr:state": "NC", "addr:street_address": "201 N MURROW BLVD", "amenity": "post_box", "collection_times": "Mo-Fr 17:00; Sa 14:00", "note": "ON 12/24 AND 12/31, THIS BOX MAY BE COLLECTED AS EARLY AS 12 NOON.", "nsi_id": "unitedstatespostalservice-a77078", "operator": "United States Postal Service", "operator:short": "USPS", "operator:type": "public", "operator:wikidata": "Q668687", "ref": "2740100010"}, "type": "Feature"}
{"geometry": {"coordinates": [-79.8010199, 36.072906], "type": "Point"}, "id": "VnG_dcNPyXk-JdEz8AX1GqgqGH4=", "properties": {"@source_uri": "https://tools.usps.com/UspsToolsRestServices/rest/POLocator/findLocations", "@spider": "usps_collection_boxes", "addr:city": "GREENSBORO", "addr:country": "US", "addr:postcode": "27401", "addr:state": "NC", "addr:street_address": "830 W MARKET ST", "amenity": "post_box", "collection_times": "Mo-Sa 09:30", "nsi_id": "unitedstatespostalservice-a77078", "operator": "United States Postal Service", "operator:short": "USPS", "operator:type": "public", "operator:wikidata": "Q668687", "ref": "2740100014"}, "type": "Feature"}
{"geometry": {"coordinates": [-79.7955387172, 36.0728174383], "type": "Point"}, "id": "BD3-v8W7tJglE6Pk0oylSY5fMSs=", "properties": {"@source_uri": "https://tools.usps.com/UspsToolsRestServices/rest/POLocator/findLocations", "@spider": "usps_collection_boxes", "addr:city": "GREENSBORO", "addr:country": "US", "addr:postcode": "27401", "addr:state": "NC", "addr:street_address": "440 W MARKET ST", "amenity": "post_box", "collection_times": "Mo-Fr 15:30", "note": "ON 12/24 AND 12/31, THIS BOX MAY BE COLLECTED AS EARLY AS 12 NOON.", "nsi_id": "unitedstatespostalservice-a77078", "operator": "United States Postal Service", "operator:short": "USPS", "operator:type": "public", "operator:wikidata": "Q668687", "ref": "2740100015"}, "type": "Feature"}
{"geometry": {"coordinates": [-79.7940778, 36.073171], "type": "Point"}, "id": "TRhLpUtcWuo2zBhY8kQZDDPV_2o=", "properties": {"@source_uri": "https://tools.usps.com/UspsToolsRestServices/rest/POLocator/findLocations", "@spider": "usps_collection_boxes", "addr:city": "GREENSBORO", "addr:country": "US", "addr:postcode": "27401", "addr:state": "NC", "addr:street_address": "400 W MARKET ST", "amenity": "post_box", "collection_times": "Mo-Fr 15:30", "note": "ON 12/24 AND 12/31, THIS BOX MAY BE COLLECTED AS EARLY AS 12 NOON.", "nsi_id": "unitedstatespostalservice-a77078", "operator": "United States Postal Service", "operator:short": "USPS", "operator:type": "public", "operator:wikidata": "Q668687", "ref": "2740100029"}, "type": "Feature"}
{"geometry": {"coordinates": [-79.7920327, 36.072509], "type": "Point"}, "id": "WDs2xAYKZnQnXZfrHT23JhpVWf8=", "properties": {"@source_uri": "https://tools.usps.com/UspsToolsRestServices/rest/POLocator/findLocations", "@spider": "usps_collection_boxes", "addr:city": "GREENSBORO", "addr:country": "US", "addr:postcode": "27401", "addr:state": "NC", "addr:street_address": "201 W MARKET ST", "amenity": "post_box", "collection_times": "Mo-Fr 15:30; Sa 11:00", "note": "ON 12/24 AND 12/31, THIS BOX MAY BE COLLECTED AS EARLY AS 12 NOON.", "nsi_id": "unitedstatespostalservice-a77078", "operator": "United States Postal Service", "operator:short": "USPS", "operator:type": "public", "operator:wikidata": "Q668687", "ref": "2740100032"}, "type": "Feature"}
{"geometry": {"coordinates": [-79.7946483, 36.087444], "type": "Point"}, "id": "XX6-f0cos2cOJsCBuWGw1oAe9Y4=", "properties": {"@source_uri": "https://tools.usps.com/UspsToolsRestServices/rest/POLocator/findLocations", "@spider": "usps_collection_boxes", "addr:city": "GREENSBORO", "addr:country": "US", "addr:postcode": "27401", "addr:state": "NC", "addr:street_address": "405 PARKWAY", "amenity": "post_box", "collection_times": "Mo-Sa 09:00", "nsi_id": "unitedstatespostalservice-a77078", "operator": "United States Postal Service", "operator:short": "USPS", "operator:type": "public", "operator:wikidata": "Q668687", "ref": "2740100041"}, "type": "Feature"}
{"geometry": {"coordinates": [-79.792432138, 36.07425062], "type": "Point"}, "id": "Q6Jzi-n7Bd8M25azKONetK4R36w=", "properties": {"@source_uri": "https://tools.usps.com/UspsToolsRestServices/rest/POLocator/findLocations", "@spider": "usps_collection_boxes", "addr:city": "GREENSBORO", "addr:country": "US", "addr:postcode": "27401", "addr:state": "NC", "addr:street_address": "200 COMMERCE PLACE", "amenity": "post_box", "collection_times": "Mo-Fr 17:00; Sa 11:00", "note": "ON 12/24 AND 12/31, THIS BOX MAY BE COLLECTED AS EARLY AS 12 NOON.", "nsi_id": "unitedstatespostalservice-a77078", "operator": "United States Postal Service", "operator:short": "USPS", "operator:type": "public", "operator:wikidata": "Q668687", "ref": "2740100043"}, "type": "Feature"}
{"geometry": {"coordinates": [-79.7913088071, 36.0760877634], "type": "Point"}, "id": "hgwXwy18WfPGd0z2zruhOclICqA=", "properties": {"@source_uri": "https://tools.usps.com/UspsToolsRestServices/rest/POLocator/findLocations", "@spider": "usps_collection_boxes", "addr:city": "GREENSBORO", "addr:country": "US", "addr:postcode": "27401", "addr:state": "NC", "addr:street_address": "331 N GREENE ST", "amenity": "post_box", "collection_times": "Mo-Fr 15:15", "note": "ON 12/24 AND 12/31, THIS BOX MAY BE COLLECTED AS EARLY AS 12 NOON.", "nsi_id": "unitedstatespostalservice-a77078", "operator": "United States Postal Service", "operator:short": "USPS", "operator:type": "public", "operator:wikidata": "Q668687", "ref": "2740100049"}, "type": "Feature"}
{"geometry": {"coordinates": [-79.7905445, 36.07261], "type": "Point"}, "id": "UNvzggbYfxF2XXn7nR4nQ5W6GKs=", "properties": {"@source_uri": "https://tools.usps.com/UspsToolsRestServices/rest/POLocator/findLocations", "@spider": "usps_collection_boxes", "addr:city": "GREENSBORO", "addr:country": "US", "addr:postcode": "27401", "addr:state": "NC", "addr:street_address": "100 S ELM ST", "amenity": "post_box", "collection_times": "Mo-Fr 15:30; Sa 11:00", "note": "ON 12/24 AND 12/31, THIS BOX MAY BE COLLECTED AS EARLY AS 12 NOON.", "nsi_id": "unitedstatespostalservice-a77078", "operator": "United States Postal Service", "operator:short": "USPS", "operator:type": "public", "operator:wikidata": "Q668687", "ref": "2740100052"}, "type": "Feature"}
{"geometry": {"coordinates": [-79.7854592273, 36.085902453], "type": "Point"}, "id": "-PYFYpPa3t3Bhm-MxN4m4wC2QkI=", "properties": {"@source_uri": "https://tools.usps.com/UspsToolsRestServices/rest/POLocator/findLocations", "@spider": "usps_collection_boxes", "addr:city": "GREENSBORO", "addr:country": "US", "addr:postcode": "27401", "addr:state": "NC", "addr:street_address": "900 CHERRY ST", "amenity": "post_box", "collection_times": "Mo-Fr 14:30; Sa 11:00", "note": "ON 12/24 AND 12/31, THIS BOX MAY BE COLLECTED AS EARLY AS 12 NOON.", "nsi_id": "unitedstatespostalservice-a77078", "operator": "United States Postal Service", "operator:short": "USPS", "operator:type": "public", "operator:wikidata": "Q668687", "ref": "2740100059"}, "type": "Feature"}
{"geometry": {"coordinates": [-79.789846, 36.077559], "type": "Point"}, "id": "pHIs-Bl2g8zRJSzzeoBkYiKYNFQ=", "properties": {"@source_uri": "https://tools.usps.com/UspsToolsRestServices/rest/POLocator/findLocations", "@spider": "usps_collection_boxes", "addr:city": "GREENSBORO", "addr:country": "US", "addr:postcode": "27401", "addr:state": "NC", "addr:street_address": "400 N ELM ST", "amenity": "post_box", "collection_times": "Mo-Fr 15:30; Sa 11:00", "note": "ON 12/24 AND 12/31, THIS BOX MAY BE COLLECTED AS EARLY AS 12 NOON.", "nsi_id": "unitedstatespostalservice-a77078", "operator": "United States Postal Service", "operator:short": "USPS", "operator:type": "public", "operator:wikidata": "Q668687", "ref": "2740100067"}, "type": "Feature"}
{"geometry": {"coordinates": [-79.7906026, 36.073633], "type": "Point"}, "id": "lFM_Lapf2KZ0JMbO-RASl3Whib0=", "properties": {"@source_uri": "https://tools.usps.com/UspsToolsRestServices/rest/POLocator/findLocations", "@spider": "usps_collection_boxes", "addr:city": "GREENSBORO", "addr:country": "US", "addr:postcode": "27401", "addr:state": "NC", "addr:street_address": "101 W FRIENDLY AVE", "amenity": "post_box", "collection_times": "Mo-Fr 15:00", "note": "ON 12/24 AND 12/31, THIS BOX MAY BE COLLECTED AS EARLY AS 12 NOON.", "nsi_id": "unitedstatespostalservice-a77078", "operator": "United States Postal Service", "operator:short": "USPS", "operator:type": "public", "operator:wikidata": "Q668687", "ref": "2740100081"}, "type": "Feature"}
{"geometry": {"coordinates": [-79.7978242, 36.080372], "type": "Point"}, "id": "MrxJTU_-MoeGYlxccQEF200qqJY=", "properties": {"@source_uri": "https://tools.usps.com/UspsToolsRestServices/rest/POLocator/findLocations", "@spider": "usps_collection_boxes", "addr:city": "GREENSBORO", "addr:country": "US", "addr:postcode": "27401", "addr:state": "NC", "addr:street_address": "500 N CEDAR ST", "amenity": "post_box", "collection_times": "Mo-Sa 11:00", "nsi_id": "unitedstatespostalservice-a77078", "operator": "United States Postal Service", "operator:short": "USPS", "operator:type": "public", "operator:wikidata": "Q668687", "ref": "2740100087"}, "type": "Feature"}
{"geometry": {"coordinates": [-79.7958478, 36.07515], "type": "Point"}, "id": "BPCetWh96wkOLBTmXKHMTah5_1o=", "properties": {"@source_uri": "https://tools.usps.com/UspsToolsRestServices/rest/POLocator/findLocations", "@spider": "usps_collection_boxes", "addr:city": "GREENSBORO", "addr:country": "US", "addr:postcode": "27401", "addr:state": "NC", "addr:street_address": "232 N EDGEWORTH ST", "amenity": "post_box", "collection_times": "Mo-Fr 12:00; Sa 11:00", "nsi_id": "unitedstatespostalservice-a77078", "operator": "United States Postal Service", "operator:short": "USPS", "operator:type": "public", "operator:wikidata": "Q668687", "ref": "2740100099"}, "type": "Feature"}
{"geometry": {"coordinates": [-79.7837418, 36.073518], "type": "Point"}, "id": "RHGTIQ9epm3mrJqqb7skz-vZQzQ=", "properties": {"@source_uri": "https://tools.usps.com/UspsToolsRestServices/rest/POLocator/findLocations", "@spider": "usps_collection_boxes", "addr:city": "GREENSBORO", "addr:country": "US", "addr:postcode": "27401", "addr:state": "NC", "addr:street_address": "201 N MURROW BLVD", "amenity": "post_box", "collection_times": "Mo-Fr 17:00; Sa 14:00", "note": "ON 12/24 AND 12/31, THIS BOX MAY BE COLLECTED AS EARLY AS 12 NOON.", "nsi_id": "unitedstatespostalservice-a77078", "operator": "United States Postal Service", "operator:short": "USPS", "operator:type": "public", "operator:wikidata": "Q668687", "ref": "2740100102"}, "type": "Feature"}
{"geometry": {"coordinates": [-79.7865012, 36.088763], "type": "Point"}, "id": "Z0ux8vTryTuq0SAM91KV_K0GCRA=", "properties": {"@source_uri": "https://tools.usps.com/UspsToolsRestServices/rest/POLocator/findLocations", "@spider": "usps_collection_boxes", "addr:city": "GREENSBORO", "addr:country": "US", "addr:postcode": "27401", "addr:state": "NC", "addr:street_address": "301 E WENDOVER AVE", "amenity": "post_box", "collection_times": "Mo-Fr 14:30; Sa 11:00", "note": "ON 12/24 AND 12/31, THIS BOX MAY BE COLLECTED AS EARLY AS 12 NOON.", "nsi_id": "unitedstatespostalservice-a77078", "operator": "United States Postal Service", "operator:short": "USPS", "operator:type": "public", "operator:wikidata": "Q668687", "ref": "2740100113"}, "type": "Feature"}
{"geometry": {"coordinates": [-79.7958478, 36.072816], "type": "Point"}, "id": "T7ba6vUmGRM0H7yQmBrFPS8iLZ4=", "properties": {"@source_uri": "https://tools.usps.com/UspsToolsRestServices/rest/POLocator/findLocations", "@spider": "usps_collection_boxes", "addr:city": "GREENSBORO", "addr:country": "US", "addr:postcode": "27401", "addr:state": "NC", "addr:street_address": "440 W MARKET ST", "amenity": "post_box", "collection_times": "Mo-Fr 15:30", "note": "ON 12/24 AND 12/31, THIS BOX MAY BE COLLECTED AS EARLY AS 12 NOON.", "nsi_id": "unitedstatespostalservice-a77078", "operator": "United States Postal Service", "operator:short": "USPS", "operator:type": "public", "operator:wikidata": "Q668687", "ref": "2740100127"}, "type": "Feature"}
{"geometry": {"coordinates": [-79.7906669601, 36.0722279996], "type": "Point"}, "id": "BwbT_zDcKH-JIetgwX82nMyPOS8=", "properties": {"@source_uri": "https://tools.usps.com/UspsToolsRestServices/rest/POLocator/findLocations", "@spider": "usps_collection_boxes", "addr:city": "GREENSBORO", "addr:country": "US", "addr:postcode": "27401", "addr:state": "NC", "addr:street_address": "100 S ELM ST", "amenity": "post_box", "collection_times": "Mo-Fr 15:30; Sa 11:00", "note": "ON 12/24 AND 12/31, THIS BOX MAY BE COLLECTED AS EARLY AS 12 NOON.", "nsi_id": "unitedstatespostalservice-a77078", "operator": "United States Postal Service", "operator:short": "USPS", "operator:type": "public", "operator:wikidata": "Q668687", "ref": "2740100131"}, "type": "Feature"}
{"geometry": {"coordinates": [-79.7833171, 36.074015], "type": "Point"}, "id": "AHNj1MtGb3MQP1pAsrTJbqkCWwQ=", "properties": {"@source_uri": "https://tools.usps.com/UspsToolsRestServices/rest/POLocator/findLocations", "@spider": "usps_collection_boxes", "addr:city": "GREENSBORO", "addr:country": "US", "addr:postcode": "27401", "addr:state": "NC", "addr:street_address": "201 N MURROW BLVD", "amenity": "post_box", "collection_times": "Mo-Fr 17:00; Sa 14:00", "name": "USPS COLLECTION BOX - APC", "note": "ON 12/24 AND 12/31, THIS BOX MAY BE COLLECTED AS EARLY AS 12 NOON.", "nsi_id": "unitedstatespostalservice-a77078", "operator": "United States Postal Service", "operator:short": "USPS", "operator:type": "public", "operator:wikidata": "Q668687", "ref": "2740100139"}, "type": "Feature"}
{"geometry": {"coordinates": [-79.783439, 36.073043], "type": "Point"}, "id": "hLl1jExssNwhR0JbUrM9XJdTN-s=", "properties": {"@source_uri": "https://tools.usps.com/UspsToolsRestServices/rest/POLocator/findLocations", "@spider": "usps_collection_boxes", "addr:city": "GREENSBORO", "addr:country": "US", "addr:postcode": "27401", "addr:state": "NC", "addr:street_address": "201 N MURROW BLVD", "amenity": "post_box", "collection_times": "Mo-Fr 17:00; Sa 14:00", "indoor": "yes", "note": "ON 12/24 AND 12/31, THIS BOX MAY BE COLLECTED AS EARLY AS 12 NOON.", "nsi_id": "unitedstatespostalservice-a77078", "operator": "United States Postal Service", "operator:short": "USPS", "operator:type": "public", "operator:wikidata": "Q668687", "ref": "2740100145"}, "type": "Feature"}
{"geometry": {"coordinates": [-79.783382897, 36.074293449], "type": "Point"}, "id": "XQF8A1CZ7zXe7IQXBu4jUgJ8Go4=", "properties": {"@source_uri": "https://tools.usps.com/UspsToolsRestServices/rest/POLocator/findLocations", "@spider": "usps_collection_boxes", "addr:city": "GREENSBORO", "addr:country": "US", "addr:postcode": "27401", "addr:state": "NC", "addr:street_address": "201 N MURROW BLVD", "amenity": "post_box", "collection_times": "Mo-Fr 17:00; Sa 14:00", "note": "ON 12/24 AND 12/31, THIS BOX MAY BE COLLECTED AS EARLY AS 12 NOON.", "nsi_id": "unitedstatespostalservice-a77078", "operator": "United States Postal Service", "operator:short": "USPS", "operator:type": "public", "operator:wikidata": "Q668687", "ref": "2740100146"}, "type": "Feature"}
{"geometry": {"coordinates": [-79.783387397, 36.074284449], "type": "Point"}, "id": "eAZVmMyYm4dXAQROpMSzXzVlJpA=", "properties": {"@source_uri": "https://tools.usps.com/UspsToolsRestServices/rest/POLocator/findLocations", "@spider": "usps_collection_boxes", "addr:city": "GREENSBORO", "addr:country": "US", "addr:postcode": "27401", "addr:state": "NC", "addr:street_address": "201 N MURROW BLVD", "amenity": "post_box", "collection_times": "Mo-Fr 17:00", "indoor": "yes", "note": "ON 12/24 AND 12/31, THIS BOX MAY BE COLLECTED AS EARLY AS 12 NOON.", "nsi_id": "unitedstatespostalservice-a77078", "operator": "United States Postal Service", "operator:short": "USPS", "operator:type": "public", "operator:wikidata": "Q668687", "ref": "2740100149"}, "type": "Feature"}
{"geometry": {"coordinates": [-79.80566677, 36.068703391], "type": "Point"}, "id": "7xMYvJU8FZJ7Pj_PGlOoGdzIL9w=", "properties": {"@source_uri": "https://tools.usps.com/UspsToolsRestServices/rest/POLocator/findLocations", "@spider": "usps_collection_boxes", "addr:city": "GREENSBORO", "addr:country": "US", "addr:postcode": "27403", "addr:state": "NC", "addr:street_address": "328 TATE ST", "amenity": "post_box", "collection_times": "Mo-Sa 09:30", "nsi_id": "unitedstatespostalservice-a77078", "operator": "United States Postal Service", "operator:short": "USPS", "operator:type": "public", "operator:wikidata": "Q668687", "ref": "2740300007"}, "type": "Feature"}
{"geometry": {"coordinates": [-79.8466968, 36.072745], "type": "Point"}, "id": "3om98ugvvOoZvRhpVkSQE8-vCxk=", "properties": {"@source_uri": "https://tools.usps.com/UspsToolsRestServices/rest/POLocator/findLocations", "@spider": "usps_collection_boxes", "addr:city": "GREENSBORO", "addr:country": "US", "addr:postcode": "27403", "addr:state": "NC", "addr:street_address": "3701 W MARKET ST", "amenity": "post_box", "collection_times": "Mo-Fr 15:00", "note": "ON 12/24 AND 12/31, THIS BOX MAY BE COLLECTED AS EARLY AS 12 NOON.", "nsi_id": "unitedstatespostalservice-a77078", "operator": "United States Postal Service", "operator:short": "USPS", "operator:type": "public", "operator:wikidata": "Q668687", "ref": "2740300012"}, "type": "Feature"}
{"geometry": {"coordinates": [-79.817053737, 36.064218166], "type": "Point"}, "id": "CpNE92cu7Us5zy2CXBbW96lIq4E=", "properties": {"@source_uri": "https://tools.usps.com/UspsToolsRestServices/rest/POLocator/findLocations", "@spider": "usps_collection_boxes", "addr:city": "GREENSBORO", "addr:country": "US", "addr:postcode": "27403", "addr:state": "NC", "addr:street_address": "1615 SPRING GARDEN ST", "amenity": "post_box", "collection_times": "Mo-Fr 12:00; Sa 11:00", "nsi_id": "unitedstatespostalservice-a77078", "operator": "United States Postal Service", "operator:short": "USPS", "operator:type": "public", "operator:wikidata": "Q668687", "ref": "2740300017"}, "type": "Feature"}
{"geometry": {"coordinates": [-79.8270684, 36.082699], "type": "Point"}, "id": "17BAVhIu2GAwgJN8bdUo2f9dtX8=", "properties": {"@source_uri": "https://tools.usps.com/UspsToolsRestServices/rest/POLocator/findLocations", "@spider": "usps_collection_boxes", "addr:city": "GREENSBORO", "addr:country": "US", "addr:postcode": "27403", "addr:state": "NC", "addr:street_address": "501 N ELAM AVE", "amenity": "post_box", "collection_times": "Mo-Fr 15:00; Sa 11:00", "note": "ON 12/24 AND 12/31, THIS BOX MAY BE COLLECTED AS EARLY AS 12 NOON.", "nsi_id": "unitedstatespostalservice-a77078", "operator": "United States Postal Service", "operator:short": "USPS", "operator:type": "public", "operator:wikidata": "Q668687", "ref": "2740300027"}, "type": "Feature"}
{"geometry": {"coordinates": [-79.8273622, 36.068702], "type": "Point"}, "id": "0W3no5h1cUW_uTFHj5eKHNPvVyk=", "properties": {"@source_uri": "https://tools.usps.com/UspsToolsRestServices/rest/POLocator/findLocations", "@spider": "usps_collection_boxes", "addr:city": "GREENSBORO", "addr:country": "US", "addr:postcode": "27403", "addr:state": "NC", "addr:street_address": "2113 WALKER AVE", "amenity": "post_box", "collection_times": "Mo-Sa 09:30", "nsi_id": "unitedstatespostalservice-a77078", "operator": "United States Postal Service", "operator:short": "USPS", "operator:type": "public", "operator:wikidata": "Q668687", "ref": "2740300030"}, "type": "Feature"}
{"geometry": {"coordinates": [-79.8353021, 36.046044], "type": "Point"}, "id": "te08WoxlY2b5EXPpx3wE9LQK0QE=", "properties": {"@source_uri": "https://tools.usps.com/UspsToolsRestServices/rest/POLocator/findLocations", "@spider": "usps_collection_boxes", "addr:city": "GREENSBORO", "addr:country": "US", "addr:postcode": "27403", "addr:state": "NC", "addr:street_address": "5 TERRACE WAY", "amenity": "post_box", "collection_times": "Mo-Fr 09:00", "nsi_id": "unitedstatespostalservice-a77078", "operator": "United States Postal Service", "operator:short": "USPS", "operator:type": "public", "operator:wikidata": "Q668687", "ref": "2740300032"}, "type": "Feature"}
{"geometry": {"coordinates": [-79.833005, 36.08584], "type": "Point"}, "id": "Es_bweniVLQ2AAcR8NpZrCUXl9Q=", "properties": {"@source_uri": "https://tools.usps.com/UspsToolsRestServices/rest/POLocator/findLocations", "@spider": "usps_collection_boxes", "addr:city": "GREENSBORO", "addr:country": "US", "addr:postcode": "27404", "addr:state": "NC", "addr:street_address": "3116 NORTHLINE AVE", "amenity": "post_box", "collection_times": "Mo-Fr 17:00", "indoor": "yes", "note": "ON 12/24 AND 12/31, THIS BOX MAY BE COLLECTED AS EARLY AS 12 NOON.", "nsi_id": "unitedstatespostalservice-a77078", "operator": "United States Postal Service", "operator:short": "USPS", "operator:type": "public", "operator:wikidata": "Q668687", "ref": "2740400001"}, "type": "Feature"}
{"geometry": {"coordinates": [-79.7649727, 36.114145], "type": "Point"}, "id": "n16cK53AsNkseXVgpIghmyWl5J8=", "properties": {"@source_uri": "https://tools.usps.com/UspsToolsRestServices/rest/POLocator/findLocations", "@spider": "usps_collection_boxes", "addr:city": "GREENSBORO", "addr:country": "US", "addr:postcode": "27405", "addr:state": "NC", "addr:street_address": "3105 SUMMIT AVE", "amenity": "post_box", "collection_times": "Mo-Sa 09:00", "nsi_id": "unitedstatespostalservice-a77078", "operator": "United States Postal Service", "operator:short": "USPS", "operator:type": "public", "operator:wikidata": "Q668687", "ref": "2740500005"}, "type": "Feature"}
{"geometry": {"coordinates": [-79.757785, 36.091165], "type": "Point"}, "id": "KIv9WYkSKnExgHppLj5XirbHRkY=", "properties": {"@source_uri": "https://tools.usps.com/UspsToolsRestServices/rest/POLocator/findLocations", "@spider": "usps_collection_boxes", "addr:city": "GREENSBORO", "addr:country": "US", "addr:postcode": "27405", "addr:state": "NC", "addr:street_address": "3101 YANCEYVILLE ST", "amenity": "post_box", "collection_times": "Mo-Sa 09:00", "nsi_id": "unitedstatespostalservice-a77078", "operator": "United States Postal Service", "operator:short": "USPS", "operator:type": "public", "operator:wikidata": "Q668687", "ref": "2740500006"}, "type": "Feature"}
{"geometry": {"coordinates": [-79.7622505, 36.087562], "type": "Point"}, "id": "wBgqNrYLc6yyiU_1Pgh4VlH0kjk=", "properties": {"@source_uri": "https://tools.usps.com/UspsToolsRestServices/rest/POLocator/findLocations", "@spider": "usps_collection_boxes", "addr:city": "GREENSBORO", "addr:country": "US", "addr:postcode": "27405", "addr:state": "NC", "addr:street_address": "1803 E WENDOVER AVE", "amenity": "post_box", "collection_times": "Mo-Sa 10:00", "nsi_id": "unitedstatespostalservice-a77078", "operator": "United States Postal Service", "operator:short": "USPS", "operator:type": "public", "operator:wikidata": "Q668687", "ref": "2740500007"}, "type": "Feature"}
{"geometry": {"coordinates": [-79.7644676, 36.106766], "type": "Point"}, "id": "CRKzszKnftWaMzKHFlHo4pxPxyM=", "properties": {"@source_uri": "https://tools.usps.com/UspsToolsRestServices/rest/POLocator/findLocations", "@spider": "usps_collection_boxes", "addr:city": "GREENSBORO", "addr:country": "US", "addr:postcode": "27405", "addr:state": "NC", "addr:street_address": "2400 SUMMIT AVE", "amenity": "post_box", "collection_times": "Mo-Fr 15:00; Sa 11:00", "note": "ON 12/24 AND 12/31, THIS BOX MAY BE COLLECTED AS EARLY AS 12 NOON.", "nsi_id": "unitedstatespostalservice-a77078", "operator": "United States Postal Service", "operator:short": "USPS", "operator:type": "public", "operator:wikidata": "Q668687", "ref": "2740500010"}, "type": "Feature"}
{"geometry": {"coordinates": [-79.7827866, 36.102402], "type": "Point"}, "id": "1Du-VbWUZWHDXst3B0EcsDQVvK8=", "properties": {"@source_uri": "https://tools.usps.com/UspsToolsRestServices/rest/POLocator/findLocations", "@spider": "usps_collection_boxes", "addr:city": "GREENSBORO", "addr:country": "US", "addr:postcode": "27405", "addr:state": "NC", "addr:street_address": "2200 GOLDEN GATE DR", "amenity": "post_box", "collection_times": "Mo-Sa 09:00", "nsi_id": "unitedstatespostalservice-a77078", "operator": "United States Postal Service", "operator:short": "USPS", "operator:type": "public", "operator:wikidata": "Q668687", "ref": "2740500011"}, "type": "Feature"}
{"geometry": {"coordinates": [-79.7772669, 36.083803], "type": "Point"}, "id": "lfDSHNdC9qchG8oAGAz2bk6C3rU=", "properties": {"@source_uri": "https://tools.usps.com/UspsToolsRestServices/rest/POLocator/findLocations", "@spider": "usps_collection_boxes", "addr:city": "GREENSBORO", "addr:country": "US", "addr:postcode": "27405", "addr:state": "NC", "addr:street_address": "913 SULLIVAN ST", "amenity": "post_box", "collection_times": "Mo-Sa 10:00", "nsi_id": "unitedstatespostalservice-a77078", "operator": "United States Postal Service", "operator:short": "USPS", "operator:type": "public", "operator:wikidata": "Q668687", "ref": "2740500022"}, "type": "Feature"}
{"geometry": {"coordinates": [-79.7749305, 36.085663], "type": "Point"}, "id": "ekkTKvpw5I_cEkvxqceOtrp9GLo=", "properties": {"@source_uri": "https://tools.usps.com/UspsToolsRestServices/rest/POLocator/findLocations", "@spider": "usps_collection_boxes", "addr:city": "GREENSBORO", "addr:country": "US", "addr:postcode": "27405", "addr:state": "NC", "addr:street_address": "901 E BESSEMER AVE", "amenity": "post_box", "collection_times": "Mo-Sa 09:00", "nsi_id": "unitedstatespostalservice-a77078", "operator": "United States Postal Service", "operator:short": "USPS", "operator:type": "public", "operator:wikidata": "Q668687", "ref": "2740500025"}, "type": "Feature"}
{"geometry": {"coordinates": [-79.7798953876, 36.0948950774], "type": "Point"}, "id": "aVqEfjiu58jBoBHra4kJ1as7yaY=", "properties": {"@source_uri": "https://tools.usps.com/UspsToolsRestServices/rest/POLocator/findLocations", "@spider": "usps_collection_boxes", "addr:city": "GREENSBORO", "addr:country": "US", "addr:postcode": "27405", "addr:state": "NC", "addr:street_address": "1585 YANCEYVILLE ST", "amenity": "post_box", "collection_times": "Mo-Fr 16:00; Sa 14:00", "note": "ON 12/24 AND 12/31, THIS BOX MAY BE COLLECTED AS EARLY AS 12 NOON.", "nsi_id": "unitedstatespostalservice-a77078", "operator": "United States Postal Service", "operator:short": "USPS", "operator:type": "public", "operator:wikidata": "Q668687", "ref": "2740500028"}, "type": "Feature"}
{"geometry": {"coordinates": [-79.779895388, 36.094895077], "type": "Point"}, "id": "wWkSDTna1_CLOyORdzwSryBXiYY=", "properties": {"@source_uri": "https://tools.usps.com/UspsToolsRestServices/rest/POLocator/findLocations", "@spider": "usps_collection_boxes", "addr:city": "GREENSBORO", "addr:country": "US", "addr:postcode": "27405", "addr:state": "NC", "addr:street_address": "1585 YANCEYVILLE ST", "amenity": "post_box", "collection_times": "Mo-Fr 16:00; Sa 14:00", "note": "ON 12/24 AND 12/31, THIS BOX MAY BE COLLECTED AS EARLY AS 12 NOON.", "nsi_id": "unitedstatespostalservice-a77078", "operator": "United States Postal Service", "operator:short": "USPS", "operator:type": "public", "operator:wikidata": "Q668687", "ref": "2740500031"}, "type": "Feature"}
{"geometry": {"coordinates": [-79.7624287, 36.084542], "type": "Point"}, "id": "bNBVpNH5_NQ0EGOC2ABu2NEKeS4=", "properties": {"@source_uri": "https://tools.usps.com/UspsToolsRestServices/rest/POLocator/findLocations", "@spider": "usps_collection_boxes", "addr:city": "GREENSBORO", "addr:country": "US", "addr:postcode": "27405", "addr:state": "NC", "addr:street_address": "1802 E BESSEMER AVE", "amenity": "post_box", "collection_times": "Mo-Sa 09:30", "nsi_id": "unitedstatespostalservice-a77078", "operator": "United States Postal Service", "operator:short": "USPS", "operator:type": "public", "operator:wikidata": "Q668687", "ref": "2740500042"}, "type": "Feature"}
{"geometry": {"coordinates": [-79.7440358, 36.095365], "type": "Point"}, "id": "GvTrOol6uloTDv95iwOLuTdje1M=", "properties": {"@source_uri": "https://tools.usps.com/UspsToolsRestServices/rest/POLocator/findLocations", "@spider": "usps_collection_boxes", "addr:city": "GREENSBORO", "addr:country": "US", "addr:postcode": "27405", "addr:state": "NC", "addr:street_address": "2521 PHILLIPS AVE", "amenity": "post_box", "collection_times": "Mo-Sa 09:30", "nsi_id": "unitedstatespostalservice-a77078", "operator": "United States Postal Service", "operator:short": "USPS", "operator:type": "public", "operator:wikidata": "Q668687", "ref": "2740500046"}, "type": "Feature"}
{"geometry": {"coordinates": [-79.7807559, 36.113393], "type": "Point"}, "id": "QOt0xzIXpvSM2fj9sZF-3wzgB5k=", "properties": {"@source_uri": "https://tools.usps.com/UspsToolsRestServices/rest/POLocator/findLocations", "@spider": "usps_collection_boxes", "addr:city": "GREENSBORO", "addr:country": "US", "addr:postcode": "27405", "addr:state": "NC", "addr:street_address": "2720 N CHURCH ST", "amenity": "post_box", "collection_times": "Mo-Fr 15:00; Sa 11:00", "note": "ON 12/24 AND 12/31, THIS BOX MAY BE COLLECTED AS EARLY AS 12 NOON.", "nsi_id": "unitedstatespostalservice-a77078", "operator": "United States Postal Service", "operator:short": "USPS", "operator:type": "public", "operator:wikidata": "Q668687", "ref": "2740500048"}, "type": "Feature"}
{"geometry": {"coordinates": [-79.7834641, 36.115302], "type": "Point"}, "id": "WE0d-RYc7NusatMqsRCu3QEMIKc=", "properties": {"@source_uri": "https://tools.usps.com/UspsToolsRestServices/rest/POLocator/findLocations", "@spider": "usps_collection_boxes", "addr:city": "GREENSBORO", "addr:country": "US", "addr:postcode": "27405", "addr:state": "NC", "addr:street_address": "2710 HENRY ST", "amenity": "post_box", "collection_times": "Mo-Fr 11:00", "nsi_id": "unitedstatespostalservice-a77078", "operator": "United States Postal Service", "operator:short": "USPS", "operator:type": "public", "operator:wikidata": "Q668687", "ref": "2740500059"}, "type": "Feature"}
{"geometry": {"coordinates": [-79.7872584, 36.101482], "type": "Point"}, "id": "0UcNOW5bf4_GdF213vr8SejaRPA=", "properties": {"@source_uri": "https://tools.usps.com/UspsToolsRestServices/rest/POLocator/findLocations", "@spider": "usps_collection_boxes", "addr:city": "GREENSBORO", "addr:country": "US", "addr:postcode": "27405", "addr:state": "NC", "addr:street_address": "201 STATE ST", "amenity": "post_box", "collection_times": "Mo-Fr 14:30", "note": "ON 12/24 AND 12/31, THIS BOX MAY BE COLLECTED AS EARLY AS 12 NOON.", "nsi_id": "unitedstatespostalservice-a77078", "operator": "United States Postal Service", "operator:short": "USPS", "operator:type": "public", "operator:wikidata": "Q668687", "ref": "2740500061"}, "type": "Feature"}
{"geometry": {"coordinates": [-79.779895388, 36.094895077], "type": "Point"}, "id": "rPN0srHJsvHqX4669jn1xlycVs0=", "properties": {"@source_uri": "https://tools.usps.com/UspsToolsRestServices/rest/POLocator/findLocations", "@spider": "usps_collection_boxes", "addr:city": "GREENSBORO", "addr:country": "US", "addr:postcode": "27405", "addr:state": "NC", "addr:street_address": "1585 YANCEYVILLE ST", "amenity": "post_box", "collection_times": "Mo-Fr 17:00; Sa 14:00", "name": "USPS COLLECTION BOX - APC", "note": "ON 12/24 AND 12/31, THIS BOX MAY BE COLLECTED AS EARLY AS 12 NOON.", "nsi_id": "unitedstatespostalservice-a77078", "operator": "United States Postal Service", "operator:short": "USPS", "operator:type": "public", "operator:wikidata": "Q668687", "ref": "2740500062"}, "type": "Feature"}
{"geometry": {"coordinates": [-79.779895388, 36.094895077], "type": "Point"}, "id": "WHJHRtYAsNNXtGhvkNPy0WDoTHM=", "properties": {"@source_uri": "https://tools.usps.com/UspsToolsRestServices/rest/POLocator/findLocations", "@spider": "usps_collection_boxes", "addr:city": "GREENSBORO", "addr:country": "US", "addr:postcode": "27405", "addr:state": "NC", "addr:street_address": "1585 YANCEYVILLE ST", "amenity": "post_box", "collection_times": "Mo-Fr 17:00; Sa 14:00", "indoor": "yes", "note": "ON 12/24 AND 12/31, THIS BOX MAY BE COLLECTED AS EARLY AS 12 NOON.", "nsi_id": "unitedstatespostalservice-a77078", "operator": "United States Postal Service", "operator:short": "USPS", "operator:type": "public", "operator:wikidata": "Q668687", "ref": "2740500063"}, "type": "Feature"}
{"geometry": {"coordinates": [-79.779895388, 36.094895077], "type": "Point"}, "id": "7KelbJ48B4c6H9TlOI0tsJgTWTQ=", "properties": {"@source_uri": "https://tools.usps.com/UspsToolsRestServices/rest/POLocator/findLocations", "@spider": "usps_collection_boxes", "addr:city": "GREENSBORO", "addr:country": "US", "addr:postcode": "27405", "addr:state": "NC", "addr:street_address": "1585 YANCEYVILLE ST", "amenity": "post_box", "collection_times": "Mo-Fr 16:00", "indoor": "yes", "note": "ON 12/24 AND 12/31, THIS BOX MAY BE COLLECTED AS EARLY AS 12 NOON.", "nsi_id": "unitedstatespostalservice-a77078", "operator": "United States Postal Service", "operator:short": "USPS", "operator:type": "public", "operator:wikidata": "Q668687", "ref": "2740500066"}, "type": "Feature"}
{"geometry": {"coordinates": [-79.757785, 36.091165], "type": "Point"}, "id": "NeW0kPwAGf2TuMbp7M7jY4zlFTQ=", "properties": {"@source_uri": "https://tools.usps.com/UspsToolsRestServices/rest/POLocator/findLocations", "@spider": "usps_collection_boxes", "addr:city": "GREENSBORO", "addr:country": "US", "addr:postcode": "27405", "addr:state": "NC", "addr:street_address": "1585 YANCEYVILLE ST", "amenity": "post_box", "collection_times": "Mo-Fr 16:00; Sa 14:00", "note": "ON 12/24 AND 12/31, THIS BOX MAY BE COLLECTED AS EARLY AS 12 NOON.", "nsi_id": "unitedstatespostalservice-a77078", "operator": "United States Postal Service", "operator:short": "USPS", "operator:type": "public", "operator:wikidata": "Q668687", "ref": "2740500068"}, "type": "Feature"}
{"geometry": {"coordinates": [-79.7705811, 36.049188], "type": "Point"}, "id": "c3hZJpti_M-ETB1i_XxHyn5a2b8=", "properties": {"@source_uri": "https://tools.usps.com/UspsToolsRestServices/rest/POLocator/findLocations", "@spider": "usps_collection_boxes", "addr:city": "GREENSBORO", "addr:country": "US", "addr:postcode": "27406", "addr:state": "NC", "addr:street_address": "2401 S SIDE BLVD", "amenity": "post_box", "collection_times": "Mo-Fr 14:00; Sa 11:00", "note": "ON 12/24 AND 12/31, THIS BOX MAY BE COLLECTED AS EARLY AS 12 NOON.", "nsi_id": "unitedstatespostalservice-a77078", "operator": "United States Postal Service", "operator:short": "USPS", "operator:type": "public", "operator:wikidata": "Q668687", "ref": "2740600005"}, "type": "Feature"}
{"geometry": {"coordinates": [-79.796817452, 36.042066367], "type": "Point"}, "id": "K6RTaSOmqfmeWAS-DrxON8K6b9k=", "properties": {"@source_uri": "https://tools.usps.com/UspsToolsRestServices/rest/POLocator/findLocations", "@spider": "usps_collection_boxes", "addr:city": "GREENSBORO", "addr:country": "US", "addr:postcode": "27406", "addr:state": "NC", "addr:street_address": "2300 SOABAR ST", "amenity": "post_box", "collection_times": "Mo-Fr 16:00; Sa 14:00", "note": "ON 12/24 AND 12/31, THIS BOX MAY BE COLLECTED AS EARLY AS 12 NOON.", "nsi_id": "unitedstatespostalservice-a77078", "operator": "United States Postal Service", "operator:short": "USPS", "operator:type": "public", "operator:wikidata": "Q668687", "ref": "2740600007"}, "type": "Feature"}
{"geometry": {"coordinates": [-79.796817452, 36.042066367], "type": "Point"}, "id": "uxbE_wIfGKDGy3tPmNiY-y0VKzg=", "properties": {"@source_uri": "https://tools.usps.com/UspsToolsRestServices/rest/POLocator/findLocations", "@spider": "usps_collection_boxes", "addr:city": "GREENSBORO", "addr:country": "US", "addr:postcode": "27406", "addr:state": "NC", "addr:street_address": "2300 SOABAR ST", "amenity": "post_box", "collection_times": "Mo-Fr 16:00; Sa 14:00", "note": "ON 12/24 AND 12/31, THIS BOX MAY BE COLLECTED AS EARLY AS 12 NOON.", "nsi_id": "unitedstatespostalservice-a77078", "operator": "United States Postal Service", "operator:short": "USPS", "operator:type": "public", "operator:wikidata": "Q668687", "ref": "2740600008"}, "type": "Feature"}
{"geometry": {"coordinates": [-79.796817452, 36.042066367], "type": "Point"}, "id": "p92TJZBK01-K9ZvaNsHpirHhV-c=", "properties": {"@source_uri": "https://tools.usps.com/UspsToolsRestServices/rest/POLocator/findLocations", "@spider": "usps_collection_boxes", "addr:city": "GREENSBORO", "addr:country": "US", "addr:postcode": "27406", "addr:state": "NC", "addr:street_address": "2300 SOABAR ST", "amenity": "post_box", "collection_times": "Mo-Fr 16:00; Sa 14:00", "note": "ON 12/24 AND 12/31, THIS BOX MAY BE COLLECTED AS EARLY AS 12 NOON.", "nsi_id": "unitedstatespostalservice-a77078", "operator": "United States Postal Service", "operator:short": "USPS", "operator:type": "public", "operator:wikidata": "Q668687", "ref": "2740600009"}, "type": "Feature"}
{"geometry": {"coordinates": [-79.8055491, 36.008818], "type": "Point"}, "id": "OJk-Pocv_3XQNHetfLtBAbGvnks=", "properties": {"@source_uri": "https://tools.usps.com/UspsToolsRestServices/rest/POLocator/findLocations", "@spider": "usps_collection_boxes", "addr:city": "GREENSBORO", "addr:country": "US", "addr:postcode": "27406", "addr:state": "NC", "addr:street_address": "3200 RANDLEMAN RD", "amenity": "post_box", "collection_times": "Mo-Sa 09:00", "nsi_id": "unitedstatespostalservice-a77078", "operator": "United States Postal Service", "operator:short": "USPS", "operator:type": "public", "operator:wikidata": "Q668687", "ref": "2740600015"}, "type": "Feature"}
{"geometry": {"coordinates": [-79.7908989712, 36.0474989964], "type": "Point"}, "id": "SPLgeF6eHpQNThpOJWrmQMhtnEA=", "properties": {"@source_uri": "https://tools.usps.com/UspsToolsRestServices/rest/POLocator/findLocations", "@spider": "usps_collection_boxes", "addr:city": "GREENSBORO", "addr:country": "US", "addr:postcode": "27406", "addr:state": "NC", "addr:street_address": "2005 S ELM EUGENE ST", "amenity": "post_box", "collection_times": "Mo-Fr 11:30; Sa 11:00", "nsi_id": "unitedstatespostalservice-a77078", "operator": "United States Postal Service", "operator:short": "USPS", "operator:type": "public", "operator:wikidata": "Q668687", "ref": "2740600025"}, "type": "Feature"}
{"geometry": {"coordinates": [-79.7745511, 36.047706], "type": "Point"}, "id": "g7pOSK60pPMM_hAoAaHQN5ewKZM=", "properties": {"@source_uri": "https://tools.usps.com/UspsToolsRestServices/rest/POLocator/findLocations", "@spider": "usps_collection_boxes", "addr:city": "GREENSBORO", "addr:country": "US", "addr:postcode": "27406", "addr:state": "NC", "addr:street_address": "2031 MARTIN LUTHER KING JR DR", "amenity": "post_box", "collection_times": "Mo-Sa 09:00", "nsi_id": "unitedstatespostalservice-a77078", "operator": "United States Postal Service", "operator:short": "USPS", "operator:type": "public", "operator:wikidata": "Q668687", "ref": "2740600030"}, "type": "Feature"}
{"geometry": {"coordinates": [-79.796817452, 36.042066367], "type": "Point"}, "id": "wwIF1i8ER3iiIFHYXbuwPE4Wawk=", "properties": {"@source_uri": "https://tools.usps.com/UspsToolsRestServices/rest/POLocator/findLocations", "@spider": "usps_collection_boxes", "addr:city": "GREENSBORO", "addr:country": "US", "addr:postcode": "27406", "addr:state": "NC", "addr:street_address": "2300 SOABAR ST", "amenity": "post_box", "collection_times": "Mo-Fr 17:00; Sa 14:00", "indoor": "yes", "note": "ON 12/24 AND 12/31, THIS BOX MAY BE COLLECTED AS EARLY AS 12 NOON.", "nsi_id": "unitedstatespostalservice-a77078", "operator": "United States Postal Service", "operator:short": "USPS", "operator:type": "public", "operator:wikidata": "Q668687", "ref": "2740600048"}, "type": "Feature"}
{"geometry": {"coordinates": [-79.796817452, 36.042066367], "type": "Point"}, "id": "NFuhGMPoTZVzfxAcatkMdjiz6eQ=", "properties": {"@source_uri": "https://tools.usps.com/UspsToolsRestServices/rest/POLocator/findLocations", "@spider": "usps_collection_boxes", "addr:city": "GREENSBORO", "addr:country": "US", "addr:postcode": "27406", "addr:state": "NC", "addr:street_address": "2300 SOABAR ST", "amenity": "post_box", "collection_times": "Mo-Fr 16:00", "indoor": "yes", "note": "ON 12/24 AND 12/31, THIS BOX MAY BE COLLECTED AS EARLY AS 12 NOON.", "nsi_id": "unitedstatespostalservice-a77078", "operator": "United States Postal Service", "operator:short": "USPS", "operator:type": "public", "operator:wikidata": "Q668687", "ref": "2740600052"}, "type": "Feature"}
{"geometry": {"coordinates": [-79.8518219962, 36.0687829955], "type": "Point"}, "id": "n5po5f96CxiXg8Xcq0s3e01U7sE=", "properties": {"@source_uri": "https://tools.usps.com/UspsToolsRestServices/rest/POLocator/findLocations", "@spider": "usps_collection_boxes", "addr:city": "GREENSBORO", "addr:country": "US", "addr:postcode": "27407", "addr:state": "NC", "addr:street_address": "4125 WALKER AVE", "amenity": "post_box", "collection_times": "Mo-Fr 15:00; Sa 11:00", "note": "ON 12/24 AND 12/31, THIS BOX MAY BE COLLECTED AS EARLY AS 12 NOON.", "nsi_id": "unitedstatespostalservice-a77078", "operator": "United States Postal Service", "operator:short": "USPS", "operator:type": "public", "operator:wikidata": "Q668687", "ref": "2740700004"}, "type": "Feature"}
{"geometry": {"coordinates": [-79.896924, 36.017001], "type": "Point"}, "id": "UdzKOkIOX_S9XgJeu8v8JUfVj4I=", "properties": {"@source_uri": "https://tools.usps.com/UspsToolsRestServices/rest/POLocator/findLocations", "@spider": "usps_collection_boxes", "addr:city": "GREENSBORO", "addr:country": "US", "addr:postcode": "27407", "addr:state": "NC", "addr:street_address": "5710 W GATE CITY BLVD", "amenity": "post_box", "collection_times": "Mo-Sa 09:00", "nsi_id": "unitedstatespostalservice-a77078", "operator": "United States Postal Service", "operator:short": "USPS", "operator:type": "public", "operator:wikidata": "Q668687", "ref": "2740700007"}, "type": "Feature"}
{"geometry": {"coordinates": [-79.8715024855, 36.0555694058], "type": "Point"}, "id": "1kb6NSwpm8-C-ushwk2oZyhO_L4=", "properties": {"@source_uri": "https://tools.usps.com/UspsToolsRestServices/rest/POLocator/findLocations", "@spider": "usps_collection_boxes", "addr:city": "GREENSBORO", "addr:country": "US", "addr:postcode": "27407", "addr:state": "NC", "addr:street_address": "901 NORWALK ST", "amenity": "post_box", "collection_times": "Mo-Sa 09:00", "nsi_id": "unitedstatespostalservice-a77078", "operator": "United States Postal Service", "operator:short": "USPS", "operator:type": "public", "operator:wikidata": "Q668687", "ref": "2740700011"}, "type": "Feature"}
{"geometry": {"coordinates": [-79.8670217, 36.030934], "type": "Point"}, "id": "3WvBcRBdAGJuaxLw50tHG6GjMRA=", "properties": {"@source_uri": "https://tools.usps.com/UspsToolsRestServices/rest/POLocator/findLocations", "@spider": "usps_collection_boxes", "addr:city": "GREENSBORO", "addr:country": "US", "addr:postcode": "27407", "addr:state": "NC", "addr:street_address": "4607 W GATE CITY BLVD", "amenity": "post_box", "collection_times": "Mo-Fr 16:00; Sa 14:00", "note": "ON 12/24 AND 12/31, THIS BOX MAY BE COLLECTED AS EARLY AS 12 NOON.", "nsi_id": "unitedstatespostalservice-a77078", "operator": "United States Postal Service", "operator:short": "USPS", "operator:type": "public", "operator:wikidata": "Q668687", "ref": "2740700022"}, "type": "Feature"}
{"geometry": {"coordinates": [-79.867631812, 36.032018314], "type": "Point"}, "id": "rzBwYJD-nnxDR5kOWNk0Lvr9hYg=", "properties": {"@source_uri": "https://tools.usps.com/UspsToolsRestServices/rest/POLocator/findLocations", "@spider": "usps_collection_boxes", "addr:city": "GREENSBORO", "addr:country": "US", "addr:postcode": "27407", "addr:state": "NC", "addr:street_address": "4607 W GATE CITY BLVD", "amenity": "post_box", "collection_times": "Mo-Fr 16:00; Sa 14:00", "note": "ON 12/24 AND 12/31, THIS BOX MAY BE COLLECTED AS EARLY AS 12 NOON.", "nsi_id": "unitedstatespostalservice-a77078", "operator": "United States Postal Service", "operator:short": "USPS", "operator:type": "public", "operator:wikidata": "Q668687", "ref": "2740700023"}, "type": "Feature"}
{"geometry": {"coordinates": [-79.8615379, 36.06869], "type": "Point"}, "id": "mNLA0PWWMQEx7tM1PIaVG8DUFls=", "properties": {"@source_uri": "https://tools.usps.com/UspsToolsRestServices/rest/POLocator/findLocations", "@spider": "usps_collection_boxes", "addr:city": "GREENSBORO", "addr:country": "US", "addr:postcode": "27407", "addr:state": "NC", "addr:street_address": "105 POMONA DR", "amenity": "post_box", "collection_times": "Mo-Fr 15:00; Sa 11:00", "note": "ON 12/24 AND 12/31, THIS BOX MAY BE COLLECTED AS EARLY AS 12 NOON.", "nsi_id": "unitedstatespostalservice-a77078", "operator": "United States Postal Service", "operator:short": "USPS", "operator:type": "public", "operator:wikidata": "Q668687", "ref": "2740700030"}, "type": "Feature"}
{"geometry": {"coordinates": [-79.8379659, 36.038722], "type": "Point"}, "id": "iLZOwbyTMYEHMfGVyfSXAUBhc5U=", "properties": {"@source_uri": "https://tools.usps.com/UspsToolsRestServices/rest/POLocator/findLocations", "@spider": "usps_collection_boxes", "addr:city": "GREENSBORO", "addr:country": "US", "addr:postcode": "27407", "addr:state": "NC", "addr:street_address": "2500 VANSTORY ST", "amenity": "post_box", "collection_times": "Mo-Sa 09:00", "nsi_id": "unitedstatespostalservice-a77078", "operator": "United States Postal Service", "operator:short": "USPS", "operator:type": "public", "operator:wikidata": "Q668687", "ref": "2740700037"}, "type": "Feature"}
{"geometry": {"coordinates": [-79.867565, 36.03694], "type": "Point"}, "id": "sghfyWMYGwffRlCsS7Wl37zj7Mc=", "properties": {"@source_uri": "https://tools.usps.com/UspsToolsRestServices/rest/POLocator/findLocations", "@spider": "usps_collection_boxes", "addr:city": "GREENSBORO", "addr:country": "US", "addr:postcode": "27407", "addr:state": "NC", "addr:street_address": "3410 W WENDOVER AVE", "amenity": "post_box", "collection_times": "Mo-Fr 15:00; Sa 11:00", "note": "ON 12/24 AND 12/31, THIS BOX MAY BE COLLECTED AS EARLY AS 12 NOON.", "nsi_id": "unitedstatespostalservice-a77078", "operator": "United States Postal Service", "operator:short": "USPS", "operator:type": "public", "operator:wikidata": "Q668687", "ref": "2740700043"}, "type": "Feature"}
{"geometry": {"coordinates": [-79.8422405, 36.049111], "type": "Point"}, "id": "yOhRkxZd6A3bapedS5KG7pIEer4=", "properties": {"@source_uri": "https://tools.usps.com/UspsToolsRestServices/rest/POLocator/findLocations", "@spider": "usps_collection_boxes", "addr:city": "GREENSBORO", "addr:country": "US", "addr:postcode": "27407", "addr:state": "NC", "addr:street_address": "2300 W MEADOWVIEW RD", "amenity": "post_box", "collection_times": "Mo-Fr 15:00; Sa 11:00", "note": "ON 12/24 AND 12/31, THIS BOX MAY BE COLLECTED AS EARLY AS 12 NOON.", "nsi_id": "unitedstatespostalservice-a77078", "operator": "United States Postal Service", "operator:short": "USPS", "operator:type": "public", "operator:wikidata": "Q668687", "ref": "2740700056"}, "type": "Feature"}
{"geometry": {"coordinates": [-79.8420466, 36.048351], "type": "Point"}, "id": "nLnqN8qrSoP64kgfYTL-b29wO48=", "properties": {"@source_uri": "https://tools.usps.com/UspsToolsRestServices/rest/POLocator/findLocations", "@spider": "usps_collection_boxes", "addr:city": "GREENSBORO", "addr:country": "US", "addr:postcode": "27407", "addr:state": "NC", "addr:street_address": "2303 W MEADOWVIEW RD", "amenity": "post_box", "collection_times": "Mo-Sa 09:30", "nsi_id": "unitedstatespostalservice-a77078", "operator": "United States Postal Service", "operator:short": "USPS", "operator:type": "public", "operator:wikidata": "Q668687", "ref": "2740700057"}, "type": "Feature"}
{"geometry": {"coordinates": [-79.868315, 36.035936], "type": "Point"}, "id": "GDgzETy7aZF-qxb5RTSQXc3keAI=", "properties": {"@source_uri": "https://tools.usps.com/UspsToolsRestServices/rest/POLocator/findLocations", "@spider": "usps_collection_boxes", "addr:city": "GREENSBORO", "addr:country": "US", "addr:postcode": "27407", "addr:state": "NC", "addr:street_address": "2751 PATTERSON ST", "amenity": "post_box", "collection_times": "Mo-Sa 09:00", "nsi_id": "unitedstatespostalservice-a77078", "operator": "United States Postal Service", "operator:short": "USPS", "operator:type": "public", "operator:wikidata": "Q668687", "ref": "2740700061"}, "type": "Feature"}
{"geometry": {"coordinates": [-79.8517441071, 36.0414434599], "type": "Point"}, "id": "ywgrGwrlU7F9C7Qhc6ezrW5YYN4=", "properties": {"@source_uri": "https://tools.usps.com/UspsToolsRestServices/rest/POLocator/findLocations", "@spider": "usps_collection_boxes", "addr:city": "GREENSBORO", "addr:country": "US", "addr:postcode": "27407", "addr:state": "NC", "addr:street_address": "2001 BOULEVARD A", "amenity": "post_box", "collection_times": "Mo-Sa 09:00", "nsi_id": "unitedstatespostalservice-a77078", "operator": "United States Postal Service", "operator:short": "USPS", "operator:type": "public", "operator:wikidata": "Q668687", "ref": "2740700062"}, "type": "Feature"}
{"geometry": {"coordinates": [-79.902589243, 36.0512015046], "type": "Point"}, "id": "5bm3naV3poCxDs2fMsF4IJF3O8Y=", "properties": {"@source_uri": "https://tools.usps.com/UspsToolsRestServices/rest/POLocator/findLocations", "@spider": "usps_collection_boxes", "addr:city": "GREENSBORO", "addr:country": "US", "addr:postcode": "27407", "addr:state": "NC", "addr:street_address": "1317 BRIDFORD PKWY", "amenity": "post_box", "collection_times": "Mo-Sa 09:00", "nsi_id": "unitedstatespostalservice-a77078", "operator": "United States Postal Service", "operator:short": "USPS", "operator:type": "public", "operator:wikidata": "Q668687", "ref": "2740700063"}, "type": "Feature"}
{"geometry": {"coordinates": [-79.863807, 36.059855], "type": "Point"}, "id": "HCk2rMeuMSweFhS7UG1hb-W44Cc=", "properties": {"@source_uri": "https://tools.usps.com/UspsToolsRestServices/rest/POLocator/findLocations", "@spider": "usps_collection_boxes", "addr:city": "GREENSBORO", "addr:country": "US", "addr:postcode": "27407", "addr:state": "NC", "addr:street_address": "16 OAK BRANCH DR", "amenity": "post_box", "collection_times": "Mo-Fr 10:45", "nsi_id": "unitedstatespostalservice-a77078", "operator": "United States Postal Service", "operator:short": "USPS", "operator:type": "public", "operator:wikidata": "Q668687", "ref": "2740700083"}, "type": "Feature"}
{"geometry": {"coordinates": [-79.8637888, 36.059861], "type": "Point"}, "id": "9nPpiYZncBWDa5Wzn1jHV-KWKro=", "properties": {"@source_uri": "https://tools.usps.com/UspsToolsRestServices/rest/POLocator/findLocations", "@spider": "usps_collection_boxes", "addr:city": "GREENSBORO", "addr:country": "US", "addr:postcode": "27407", "addr:state": "NC", "addr:street_address": "16 OAK BRANCH DR", "amenity": "post_box", "collection_times": "Mo-Fr 10:45", "nsi_id": "unitedstatespostalservice-a77078", "operator": "United States Postal Service", "operator:short": "USPS", "operator:type": "public", "operator:wikidata": "Q668687", "ref": "2740700084"}, "type": "Feature"}
{"geometry": {"coordinates": [-79.8620418, 36.06023], "type": "Point"}, "id": "iS9op_1BNV3O0Qiuwv97ObqEBXY=", "properties": {"@source_uri": "https://tools.usps.com/UspsToolsRestServices/rest/POLocator/findLocations", "@spider": "usps_collection_boxes", "addr:city": "GREENSBORO", "addr:country": "US", "addr:postcode": "27407", "addr:state": "NC", "addr:street_address": "3411 W WENDOVER AVE", "amenity": "post_box", "collection_times": "Mo-Sa 09:30", "nsi_id": "unitedstatespostalservice-a77078", "operator": "United States Postal Service", "operator:short": "USPS", "operator:type": "public", "operator:wikidata": "Q668687", "ref": "2740700087"}, "type": "Feature"}
{"geometry": {"coordinates": [-79.867565, 36.03694], "type": "Point"}, "id": "KskmO9giy7DzatJV1zcoIfSC_qE=", "properties": {"@source_uri": "https://tools.usps.com/UspsToolsRestServices/rest/POLocator/findLocations", "@spider": "usps_collection_boxes", "addr:city": "GREENSBORO", "addr:country": "US", "addr:postcode": "27407", "addr:state": "NC", "addr:street_address": "301 FOUR SEASONS TOWN CTR", "amenity": "post_box", "collection_times": "Mo-Fr 17:00", "indoor": "yes", "note": "ON 12/24 AND 12/31, THIS BOX MAY BE COLLECTED AS EARLY AS 12 NOON.", "nsi_id": "unitedstatespostalservice-a77078", "operator": "United States Postal Service", "operator:short": "USPS", "operator:type": "public", "operator:wikidata": "Q668687", "ref": "2740700097"}, "type": "Feature"}
{"geometry": {"coordinates": [-79.867908183, 36.031243422], "type": "Point"}, "id": "x35PTMQ6oyFkR1Afn5G7-19laqk=", "properties": {"@source_uri": "https://tools.usps.com/UspsToolsRestServices/rest/POLocator/findLocations", "@spider": "usps_collection_boxes", "addr:city": "GREENSBORO", "addr:country": "US", "addr:postcode": "27407", "addr:state": "NC", "addr:street_address": "4615 W GATE CITY BLVD", "amenity": "post_box", "collection_times": "Mo-Fr 16:00", "indoor": "yes", "note": "ON 12/24 AND 12/31, THIS BOX MAY BE COLLECTED AS EARLY AS 12 NOON.", "nsi_id": "unitedstatespostalservice-a77078", "operator": "United States Postal Service", "operator:short": "USPS", "operator:type": "public", "operator:wikidata": "Q668687", "ref": "2740700098"}, "type": "Feature"}
{"geometry": {"coordinates": [-79.8040328743, 36.0844102348], "type": "Point"}, "id": "EAkWexP-Hs7w_XAVA6sxd_D8N50=", "properties": {"@source_uri": "https://tools.usps.com/UspsToolsRestServices/rest/POLocator/findLocations", "@spider": "usps_collection_boxes", "addr:city": "GREENSBORO", "addr:country": "US", "addr:postcode": "27408", "addr:state": "NC", "addr:street_address": "1060 GRECADE ST", "amenity": "post_box", "collection_times": "Mo-Sa 09:00", "nsi_id": "unitedstatespostalservice-a77078", "operator": "United States Postal Service", "operator:short": "USPS", "operator:type": "public", "operator:wikidata": "Q668687", "ref": "2740800018"}, "type": "Feature"}
{"geometry": {"coordinates": [-79.8041605, 36.086646], "type": "Point"}, "id": "jUeN6cQBqPQXQpfvCZ72qcCPmKk=", "properties": {"@source_uri": "https://tools.usps.com/UspsToolsRestServices/rest/POLocator/findLocations", "@spider": "usps_collection_boxes", "addr:city": "GREENSBORO", "addr:country": "US", "addr:postcode": "27408", "addr:state": "NC", "addr:street_address": "1205 W BESSEMER AVE", "amenity": "post_box", "collection_times": "Mo-Fr 10:15", "nsi_id": "unitedstatespostalservice-a77078", "operator": "United States Postal Service", "operator:short": "USPS", "operator:type": "public", "operator:wikidata": "Q668687", "ref": "2740800021"}, "type": "Feature"}
{"geometry": {"coordinates": [-79.8074470273, 36.087347989], "type": "Point"}, "id": "eBPl_Jh8z_WXPlvBjPMBZDoiOg4=", "properties": {"@source_uri": "https://tools.usps.com/UspsToolsRestServices/rest/POLocator/findLocations", "@spider": "usps_collection_boxes", "addr:city": "GREENSBORO", "addr:country": "US", "addr:postcode": "27408", "addr:state": "NC", "addr:street_address": "1400 BATTLEGROUND AVE", "amenity": "post_box", "collection_times": "Mo-Fr 09:00", "nsi_id": "unitedstatespostalservice-a77078", "operator": "United States Postal Service", "operator:short": "USPS", "operator:type": "public", "operator:wikidata": "Q668687", "ref": "2740800025"}, "type": "Feature"}
{"geometry": {"coordinates": [-79.8311934, 36.0907476], "type": "Point"}, "id": "nCB6Onfss9t73ByGvQE5IeOFeAU=", "properties": {"@source_uri": "https://tools.usps.com/UspsToolsRestServices/rest/POLocator/findLocations", "@spider": "usps_collection_boxes", "addr:city": "GREENSBORO", "addr:country": "US", "addr:postcode": "27408", "addr:state": "NC", "addr:street_address": "3116 NORTHLINE AVE", "amenity": "post_box", "collection_times": "Mo-Fr 16:00", "note": "ON 12/24 AND 12/31, THIS BOX MAY BE COLLECTED AS EARLY AS 12 NOON.", "nsi_id": "unitedstatespostalservice-a77078", "operator": "United States Postal Service", "operator:short": "USPS", "operator:type": "public", "operator:wikidata": "Q668687", "ref": "2740800031"}, "type": "Feature"}
{"geometry": {"coordinates": [-79.8311934, 36.0907476], "type": "Point"}, "id": "jkFMJUJPINoKU7V82kgZVtMBEOs=", "properties": {"@source_uri": "https://tools.usps.com/UspsToolsRestServices/rest/POLocator/findLocations", "@spider": "usps_collection_boxes", "addr:city": "GREENSBORO", "addr:country": "US", "addr:postcode": "27408", "addr:state": "NC", "addr:street_address": "3116 NORTHLINE AVE", "amenity": "post_box", "collection_times": "Mo-Fr 16:00", "note": "ON 12/24 AND 12/31, THIS BOX MAY BE COLLECTED AS EARLY AS 12 NOON.", "nsi_id": "unitedstatespostalservice-a77078", "operator": "United States Postal Service", "operator:short": "USPS", "operator:type": "public", "operator:wikidata": "Q668687", "ref": "2740800032"}, "type": "Feature"}
{"geometry": {"coordinates": [-79.8311934, 36.0907476], "type": "Point"}, "id": "cbkL9yCzxCJQt885KAljvxZbJI8=", "properties": {"@source_uri": "https://tools.usps.com/UspsToolsRestServices/rest/POLocator/findLocations", "@spider": "usps_collection_boxes", "addr:city": "GREENSBORO", "addr:country": "US", "addr:postcode": "27408", "addr:state": "NC", "addr:street_address": "3116 NORTHLINE AVE", "amenity": "post_box", "collection_times": "Mo-Fr 16:00", "note": "ON 12/24 AND 12/31, THIS BOX MAY BE COLLECTED AS EARLY AS 12 NOON.", "nsi_id": "unitedstatespostalservice-a77078", "operator": "United States Postal Service", "operator:short": "USPS", "operator:type": "public", "operator:wikidata": "Q668687", "ref": "2740800033"}, "type": "Feature"}
{"geometry": {"coordinates": [-79.8103423, 36.09079], "type": "Point"}, "id": "z94iGlH2pJp8I0Bra6YkDeQ6yZ4=", "properties": {"@source_uri": "https://tools.usps.com/UspsToolsRestServices/rest/POLocator/findLocations", "@spider": "usps_collection_boxes", "addr:city": "GREENSBORO", "addr:country": "US", "addr:postcode": "27408", "addr:state": "NC", "addr:street_address": "1616 BATTLEGROUND AVE STE A", "amenity": "post_box", "collection_times": "Mo-Fr 09:30", "nsi_id": "unitedstatespostalservice-a77078", "operator": "United States Postal Service", "operator:short": "USPS", "operator:type": "public", "operator:wikidata": "Q668687", "ref": "2740800046"}, "type": "Feature"}
{"geometry": {"coordinates": [-79.834653411, 36.114373544], "type": "Point"}, "id": "1W3dFE15ov9bl6eznkF-pV7NC10=", "properties": {"@source_uri": "https://tools.usps.com/UspsToolsRestServices/rest/POLocator/findLocations", "@spider": "usps_collection_boxes", "addr:city": "GREENSBORO", "addr:country": "US", "addr:postcode": "27408", "addr:state": "NC", "addr:street_address": "2941 BATTLEGROUND AVE", "amenity": "post_box", "collection_times": "Mo-Fr 16:00; Sa 12:30", "note": "ON 12/24 AND 12/31, THIS BOX MAY BE COLLECTED AS EARLY AS 12 NOON.", "nsi_id": "unitedstatespostalservice-a77078", "operator": "United States Postal Service", "operator:short": "USPS", "operator:type": "public", "operator:wikidata": "Q668687", "ref": "2740800054"}, "type": "Feature"}
{"geometry": {"coordinates": [-79.8155277, 36.097491], "type": "Point"}, "id": "VOxuH3iTrLE0yEhXegX8DMcipb0=", "properties": {"@source_uri": "https://tools.usps.com/UspsToolsRestServices/rest/POLocator/findLocations", "@spider": "usps_collection_boxes", "addr:city": "GREENSBORO", "addr:country": "US", "addr:postcode": "27408", "addr:state": "NC", "addr:street_address": "1515 W CORNWALLIS DR", "amenity": "post_box", "collection_times": "Mo-Fr 15:00", "note": "ON 12/24 AND 12/31, THIS BOX MAY BE COLLECTED AS EARLY AS 12 NOON.", "nsi_id": "unitedstatespostalservice-a77078", "operator": "United States Postal Service", "operator:short": "USPS", "operator:type": "public", "operator:wikidata": "Q668687", "ref": "2740800064"}, "type": "Feature"}
{"geometry": {"coordinates": [-79.8279781, 36.085023], "type": "Point"}, "id": "d1mbJSsOwjoVEAVDPmP2d_aRLwA=", "properties": {"@source_uri": "https://tools.usps.com/UspsToolsRestServices/rest/POLocator/findLocations", "@spider": "usps_collection_boxes", "addr:city": "GREENSBORO", "addr:country": "US", "addr:postcode": "27408", "addr:state": "NC", "addr:street_address": "620 GREEN VALLEY RD", "amenity": "post_box", "collection_times": "Mo-Fr 15:00", "note": "ON 12/24 AND 12/31, THIS BOX MAY BE COLLECTED AS EARLY AS 12 NOON.", "nsi_id": "unitedstatespostalservice-a77078", "operator": "United States Postal Service", "operator:short": "USPS", "operator:type": "public", "operator:wikidata": "Q668687", "ref": "2740800069"}, "type": "Feature"}
{"geometry": {"coordinates": [-79.7927180118, 36.0885520075], "type": "Point"}, "id": "GGTcN7RsVbdAc_psg0TF1sAMT5Q=", "properties": {"@source_uri": "https://tools.usps.com/UspsToolsRestServices/rest/POLocator/findLocations", "@spider": "usps_collection_boxes", "addr:city": "GREENSBORO", "addr:country": "US", "addr:postcode": "27408", "addr:state": "NC", "addr:street_address": "324 W WENDOVER AVE", "amenity": "post_box", "collection_times": "Mo-Fr 15:30", "note": "ON 12/24 AND 12/31, THIS BOX MAY BE COLLECTED AS EARLY AS 12 NOON.", "nsi_id": "unitedstatespostalservice-a77078", "operator": "United States Postal Service", "operator:short": "USPS", "operator:type": "public", "operator:wikidata": "Q668687", "ref": "2740800075"}, "type": "Feature"}
{"geometry": {"coordinates": [-79.7923362, 36.088827], "type": "Point"}, "id": "jLqWrhpbA0djN_MxAk3o5FYuYvY=", "properties": {"@source_uri": "https://tools.usps.com/UspsToolsRestServices/rest/POLocator/findLocations", "@spider": "usps_collection_boxes", "addr:city": "GREENSBORO", "addr:country": "US", "addr:postcode": "27408", "addr:state": "NC", "addr:street_address": "324 W WENDOVER AVE", "amenity": "post_box", "collection_times": "Mo-Fr 15:30; Sa 11:00", "note": "ON 12/24 AND 12/31, THIS BOX MAY BE COLLECTED AS EARLY AS 12 NOON.", "nsi_id": "unitedstatespostalservice-a77078", "operator": "United States Postal Service", "operator:short": "USPS", "operator:type": "public", "operator:wikidata": "Q668687", "ref": "2740800083"}, "type": "Feature"}
{"geometry": {"coordinates": [-79.8166517, 36.091015], "type": "Point"}, "id": "gbTqeijR18CBEdFcTalUPdUGq9g=", "properties": {"@source_uri": "https://tools.usps.com/UspsToolsRestServices/rest/POLocator/findLocations", "@spider": "usps_collection_boxes", "addr:city": "GREENSBORO", "addr:country": "US", "addr:postcode": "27408", "addr:state": "NC", "addr:street_address": "806 GREEN VALLEY RD", "amenity": "post_box", "collection_times": "Mo-Fr 15:00; Sa 11:00", "note": "ON 12/24 AND 12/31, THIS BOX MAY BE COLLECTED AS EARLY AS 12 NOON.", "nsi_id": "unitedstatespostalservice-a77078", "operator": "United States Postal Service", "operator:short": "USPS", "operator:type": "public", "operator:wikidata": "Q668687", "ref": "2740800087"}, "type": "Feature"}
{"geometry": {"coordinates": [-79.8159489594, 36.0909540095], "type": "Point"}, "id": "qY8rVH4yETAxCuuRjwixR5JIt3E=", "properties": {"@source_uri": "https://tools.usps.com/UspsToolsRestServices/rest/POLocator/findLocations", "@spider": "usps_collection_boxes", "addr:city": "GREENSBORO", "addr:country": "US", "addr:postcode": "27408", "addr:state": "NC", "addr:street_address": "806 GREEN VALLEY RD", "amenity": "post_box", "collection_times": "Mo-Fr 15:00", "note": "ON 12/24 AND 12/31, THIS BOX MAY BE COLLECTED AS EARLY AS 12 NOON.", "nsi_id": "unitedstatespostalservice-a77078", "operator": "United States Postal Service", "operator:short": "USPS", "operator:type": "public", "operator:wikidata": "Q668687", "ref": "2740800088"}, "type": "Feature"}
{"geometry": {"coordinates": [-79.825958309, 36.108813723], "type": "Point"}, "id": "_Awa-AwavM7WWWwtU46DrNrcLpg=", "properties": {"@source_uri": "https://tools.usps.com/UspsToolsRestServices/rest/POLocator/findLocations", "@spider": "usps_collection_boxes", "addr:city": "GREENSBORO", "addr:country": "US", "addr:postcode": "27408", "addr:state": "NC", "addr:street_address": "2307 W CONE BLVD", "amenity": "post_box", "collection_times": "Mo-Fr 15:00", "note": "ON 12/24 AND 12/31, THIS BOX MAY BE COLLECTED AS EARLY AS 12 NOON.", "nsi_id": "unitedstatespostalservice-a77078", "operator": "United States Postal Service", "operator:short": "USPS", "operator:type": "public", "operator:wikidata": "Q668687", "ref": "2740800091"}, "type": "Feature"}
{"geometry": {"coordinates": [-79.8129291, 36.093641], "type": "Point"}, "id": "BLMowvPSpIC9wnPOuIVEKWD_hP0=", "properties": {"@source_uri": "https://tools.usps.com/UspsToolsRestServices/rest/POLocator/findLocations", "@spider": "usps_collection_boxes", "addr:city": "GREENSBORO", "addr:country": "US", "addr:postcode": "27408", "addr:state": "NC", "addr:street_address": "1852 BANKING ST", "amenity": "post_box", "collection_times": "Mo-Fr 16:00; Sa 12:30", "note": "ON 12/24 AND 12/31, THIS BOX MAY BE COLLECTED AS EARLY AS 12 NOON.", "nsi_id": "unitedstatespostalservice-a77078", "operator": "United States Postal Service", "operator:short": "USPS", "operator:type": "public", "operator:wikidata": "Q668687", "ref": "2740800095"}, "type": "Feature"}
{"geometry": {"coordinates": [-79.8129389, 36.093643], "type": "Point"}, "id": "Ksy3R-5h2_YQQo_tNYUsckrIgqE=", "properties": {"@source_uri": "https://tools.usps.com/UspsToolsRestServices/rest/POLocator/findLocations", "@spider": "usps_collection_boxes", "addr:city": "GREENSBORO", "addr:country": "US", "addr:postcode": "27408", "addr:state": "NC", "addr:street_address": "1852 BANKING ST", "amenity": "post_box", "collection_times": "Mo-Fr 16:00", "note": "ON 12/24 AND 12/31, THIS BOX MAY BE COLLECTED AS EARLY AS 12 NOON.", "nsi_id": "unitedstatespostalservice-a77078", "operator": "United States Postal Service", "operator:short": "USPS", "operator:type": "public", "operator:wikidata": "Q668687", "ref": "2740800096"}, "type": "Feature"}
{"geometry": {"coordinates": [-79.834414006, 36.114121781], "type": "Point"}, "id": "tHO5zElii4OqXxqYJ9zjoq0u-NU=", "properties": {"@source_uri": "https://tools.usps.com/UspsToolsRestServices/rest/POLocator/findLocations", "@spider": "usps_collection_boxes", "addr:city": "GREENSBORO", "addr:country": "US", "addr:postcode": "27408", "addr:state": "NC", "addr:street_address": "2941 BATTLEGROUND AVE", "amenity": "post_box", "collection_times": "Mo-Fr 17:00; Sa 12:30", "indoor": "yes", "note": "ON 12/24 AND 12/31, THIS BOX MAY BE COLLECTED AS EARLY AS 12 NOON.", "nsi_id": "unitedstatespostalservice-a77078", "operator": "United States Postal Service", "operator:short": "USPS", "operator:type": "public", "operator:wikidata": "Q668687", "ref": "2740800109"}, "type": "Feature"}
{"geometry": {"coordinates": [-79.8311934, 36.0907476], "type": "Point"}, "id": "aLkX39prkLzUKe-VOlBhcBu0f10=", "properties": {"@source_uri": "https://tools.usps.com/UspsToolsRestServices/rest/POLocator/findLocations", "@spider": "usps_collection_boxes", "addr:city": "GREENSBORO", "addr:country": "US", "addr:postcode": "27408", "addr:state": "NC", "addr:street_address": "3116 NORTHLINE AVE", "amenity": "post_box", "collection_times": "Mo-Fr 17:00; Sa 12:30", "indoor": "yes", "note": "ON 12/24 AND 12/31, THIS BOX MAY BE COLLECTED AS EARLY AS 12 NOON.", "nsi_id": "unitedstatespostalservice-a77078", "operator": "United States Postal Service", "operator:short": "USPS", "operator:type": "public", "operator:wikidata": "Q668687", "ref": "2740800110"}, "type": "Feature"}
{"geometry": {"coordinates": [-79.8311934, 36.0907476], "type": "Point"}, "id": "x5KccWiMTyx07t7qTVaSjnUkA28=", "properties": {"@source_uri": "https://tools.usps.com/UspsToolsRestServices/rest/POLocator/findLocations", "@spider": "usps_collection_boxes", "addr:city": "GREENSBORO", "addr:country": "US", "addr:postcode": "27408", "addr:state": "NC", "addr:street_address": "701 GREEN VALLEY RD", "amenity": "post_box", "collection_times": "Mo-Fr 15:00", "note": "ON 12/24 AND 12/31, THIS BOX MAY BE COLLECTED AS EARLY AS 12 NOON.", "nsi_id": "unitedstatespostalservice-a77078", "operator": "United States Postal Service", "operator:short": "USPS", "operator:type": "public", "operator:wikidata": "Q668687", "ref": "2740800114"}, "type": "Feature"}
{"geometry": {"coordinates": [-79.8192879743, 36.0911850147], "type": "Point"}, "id": "rhskLdIwHorN6fcFP6g5EPB4TDc=", "properties": {"@source_uri": "https://tools.usps.com/UspsToolsRestServices/rest/POLocator/findLocations", "@spider": "usps_collection_boxes", "addr:city": "GREENSBORO", "addr:country": "US", "addr:postcode": "27408", "addr:state": "NC", "addr:street_address": "800 GREEN VALLEY RD", "amenity": "post_box", "collection_times": "Mo-Fr 15:00", "note": "ON 12/24 AND 12/31, THIS BOX MAY BE COLLECTED AS EARLY AS 12 NOON.", "nsi_id": "unitedstatespostalservice-a77078", "operator": "United States Postal Service", "operator:short": "USPS", "operator:type": "public", "operator:wikidata": "Q668687", "ref": "2740800115"}, "type": "Feature"}
{"geometry": {"coordinates": [-79.8192879743, 36.0911850147], "type": "Point"}, "id": "Xeh3im8-ADDHXss68mScNlaaouI=", "properties": {"@source_uri": "https://tools.usps.com/UspsToolsRestServices/rest/POLocator/findLocations", "@spider": "usps_collection_boxes", "addr:city": "GREENSBORO", "addr:country": "US", "addr:postcode": "27408", "addr:state": "NC", "addr:street_address": "800 GREEN VALLEY RD", "amenity": "post_box", "collection_times": "Mo-Fr 15:00", "note": "ON 12/24 AND 12/31, THIS BOX MAY BE COLLECTED AS EARLY AS 12 NOON.", "nsi_id": "unitedstatespostalservice-a77078", "operator": "United States Postal Service", "operator:short": "USPS", "operator:type": "public", "operator:wikidata": "Q668687", "ref": "2740800116"}, "type": "Feature"}
{"geometry": {"coordinates": [-79.8162785, 36.0994686], "type": "Point"}, "id": "7aI-wF5v6t549p5R9ojidccIMfg=", "properties": {"@source_uri": "https://tools.usps.com/UspsToolsRestServices/rest/POLocator/findLocations", "@spider": "usps_collection_boxes", "addr:city": "GREENSBORO", "addr:country": "US", "addr:postcode": "27408", "addr:state": "NC", "addr:street_address": "7 CORPORATE CENTER CT", "amenity": "post_box", "collection_times": "Mo-Fr 15:15", "note": "ON 12/24 AND 12/31, THIS BOX MAY BE COLLECTED AS EARLY AS 12 NOON.", "nsi_id": "unitedstatespostalservice-a77078", "operator": "United States Postal Service", "operator:short": "USPS", "operator:type": "public", "operator:wikidata": "Q668687", "ref": "2740800117"}, "type": "Feature"}
{"geometry": {"coordinates": [-79.8861819461, 36.0672044963], "type": "Point"}, "id": "Vdhu4L5D6zWaeFX9I7Pv84I5shQ=", "properties": {"@source_uri": "https://tools.usps.com/UspsToolsRestServices/rest/POLocator/findLocations", "@spider": "usps_collection_boxes", "addr:city": "GREENSBORO", "addr:country": "US", "addr:postcode": "27409", "addr:state": "NC", "addr:street_address": "400 EDWARDIA DR", "amenity": "post_box", "collection_times": "Mo-Fr 15:00; Sa 11:00", "note": "ON 12/24 AND 12/31, THIS BOX MAY BE COLLECTED AS EARLY AS 12 NOON.", "nsi_id": "unitedstatespostalservice-a77078", "operator": "United States Postal Service", "operator:short": "USPS", "operator:type": "public", "operator:wikidata": "Q668687", "ref": "2740900008"}, "type": "Feature"}
{"geometry": {"coordinates": [-79.879421005, 36.068792006], "type": "Point"}, "id": "50ahHtcUQMrHmz__5p24C6Txuic=", "properties": {"@source_uri": "https://tools.usps.com/UspsToolsRestServices/rest/POLocator/findLocations", "@spider": "usps_collection_boxes", "addr:city": "GREENSBORO", "addr:country": "US", "addr:postcode": "27409", "addr:state": "NC", "addr:street_address": "5111 W MARKET ST", "amenity": "post_box", "collection_times": "Mo-Fr 15:30; Sa 11:00", "note": "ON 12/24 AND 12/31, THIS BOX MAY BE COLLECTED AS EARLY AS 12 NOON.", "nsi_id": "unitedstatespostalservice-a77078", "operator": "United States Postal Service", "operator:short": "USPS", "operator:type": "public", "operator:wikidata": "Q668687", "ref": "2740900012"}, "type": "Feature"}
{"geometry": {"coordinates": [-79.9298992, 36.082868], "type": "Point"}, "id": "QjT2qdsh-DI_HOJn4s7gOzAFT9M=", "properties": {"@source_uri": "https://tools.usps.com/UspsToolsRestServices/rest/POLocator/findLocations", "@spider": "usps_collection_boxes", "addr:city": "GREENSBORO", "addr:country": "US", "addr:postcode": "27409", "addr:state": "NC", "addr:street_address": "6900 DOWNWIND RD", "amenity": "post_box", "collection_times": "Mo-Fr 09:00", "nsi_id": "unitedstatespostalservice-a77078", "operator": "United States Postal Service", "operator:short": "USPS", "operator:type": "public", "operator:wikidata": "Q668687", "ref": "2740900014"}, "type": "Feature"}
{"geometry": {"coordinates": [-79.895040172, 36.076645421], "type": "Point"}, "id": "vap8DGIJ33tN4VCx_k432sap1-g=", "properties": {"@source_uri": "https://tools.usps.com/UspsToolsRestServices/rest/POLocator/findLocations", "@spider": "usps_collection_boxes", "addr:city": "GREENSBORO", "addr:country": "US", "addr:postcode": "27409", "addr:state": "NC", "addr:street_address": "5704 W MARKET ST", "amenity": "post_box", "collection_times": "Mo-Fr 16:00; Sa 14:00", "note": "ON 12/24 AND 12/31, THIS BOX MAY BE COLLECTED AS EARLY AS 12 NOON.", "nsi_id": "unitedstatespostalservice-a77078", "operator": "United States Postal Service", "operator:short": "USPS", "operator:type": "public", "operator:wikidata": "Q668687", "ref": "2740900021"}, "type": "Feature"}
{"geometry": {"coordinates": [-79.8949440382, 36.07723099], "type": "Point"}, "id": "KHkJDBIkeI-vZcPRZMH7QNO6UWQ=", "properties": {"@source_uri": "https://tools.usps.com/UspsToolsRestServices/rest/POLocator/findLocations", "@spider": "usps_collection_boxes", "addr:city": "GREENSBORO", "addr:country": "US", "addr:postcode": "27409", "addr:state": "NC", "addr:street_address": "5704 W MARKET ST", "amenity": "post_box", "collection_times": "Mo-Fr 16:00; Sa 14:00", "note": "ON 12/24 AND 12/31, THIS BOX MAY BE COLLECTED AS EARLY AS 12 NOON.", "nsi_id": "unitedstatespostalservice-a77078", "operator": "United States Postal Service", "operator:short": "USPS", "operator:type": "public", "operator:wikidata": "Q668687", "ref": "2740900022"}, "type": "Feature"}
{"geometry": {"coordinates": [-79.895040172, 36.076645421], "type": "Point"}, "id": "ymczhX2AqnMTAgSorMIrF5ZQMlc=", "properties": {"@source_uri": "https://tools.usps.com/UspsToolsRestServices/rest/POLocator/findLocations", "@spider": "usps_collection_boxes", "addr:city": "GREENSBORO", "addr:country": "US", "addr:postcode": "27409", "addr:state": "NC", "addr:street_address": "5704 W MARKET ST", "amenity": "post_box", "collection_times": "Mo-Fr 16:00; Sa 14:00", "note": "ON 12/24 AND 12/31, THIS BOX MAY BE COLLECTED AS EARLY AS 12 NOON.", "nsi_id": "unitedstatespostalservice-a77078", "operator": "United States Postal Service", "operator:short": "USPS", "operator:type": "public", "operator:wikidata": "Q668687", "ref": "2740900023"}, "type": "Feature"}
{"geometry": {"coordinates": [-79.895040172, 36.076645421], "type": "Point"}, "id": "bsgFutkOxjS0wPJQLDtYmDMZ7MI=", "properties": {"@source_uri": "https://tools.usps.com/UspsToolsRestServices/rest/POLocator/findLocations", "@spider": "usps_collection_boxes", "addr:city": "GREENSBORO", "addr:country": "US", "addr:postcode": "27409", "addr:state": "NC", "addr:street_address": "5704 W MARKET ST", "amenity": "post_box", "collection_times": "Mo-Fr 16:00; Sa 14:00", "note": "ON 12/24 AND 12/31, THIS BOX MAY BE COLLECTED AS EARLY AS 12 NOON.", "nsi_id": "unitedstatespostalservice-a77078", "operator": "United States Postal Service", "operator:short": "USPS", "operator:type": "public", "operator:wikidata": "Q668687", "ref": "2740900024"}, "type": "Feature"}
{"geometry": {"coordinates": [-79.895040172, 36.076645421], "type": "Point"}, "id": "EcZBrsirdjSmPD6MBGgw0O2KXGU=", "properties": {"@source_uri": "https://tools.usps.com/UspsToolsRestServices/rest/POLocator/findLocations", "@spider": "usps_collection_boxes", "addr:city": "GREENSBORO", "addr:country": "US", "addr:postcode": "27409", "addr:state": "NC", "addr:street_address": "5704 W MARKET ST", "amenity": "post_box", "collection_times": "Mo-Fr 16:00; Sa 14:00", "note": "ON 12/24 AND 12/31, THIS BOX MAY BE COLLECTED AS EARLY AS 12 NOON.", "nsi_id": "unitedstatespostalservice-a77078", "operator": "United States Postal Service", "operator:short": "USPS", "operator:type": "public", "operator:wikidata": "Q668687", "ref": "2740900025"}, "type": "Feature"}
{"geometry": {"coordinates": [-79.9446324, 36.07413], "type": "Point"}, "id": "PGH2tY5ZwBWxdB6coC6vp6XLnSs=", "properties": {"@source_uri": "https://tools.usps.com/UspsToolsRestServices/rest/POLocator/findLocations", "@spider": "usps_collection_boxes", "addr:city": "GREENSBORO", "addr:country": "US", "addr:postcode": "27409", "addr:state": "NC", "addr:street_address": "7011 ALBERT PICK RD", "amenity": "post_box", "collection_times": "Mo-Fr 15:00", "note": "ON 12/24 AND 12/31, THIS BOX MAY BE COLLECTED AS EARLY AS 12 NOON.", "nsi_id": "unitedstatespostalservice-a77078", "operator": "United States Postal Service", "operator:short": "USPS", "operator:type": "public", "operator:wikidata": "Q668687", "ref": "2740900034"}, "type": "Feature"}
{"geometry": {"coordinates": [-79.963359177, 36.076189531], "type": "Point"}, "id": "xHNSGznp9ZI0ETbY-_Kw9XCFstA=", "properties": {"@source_uri": "https://tools.usps.com/UspsToolsRestServices/rest/POLocator/findLocations", "@spider": "usps_collection_boxes", "addr:city": "GREENSBORO", "addr:country": "US", "addr:postcode": "27409", "addr:state": "NC", "addr:street_address": "7624 THORNDIKE RD", "amenity": "post_box", "collection_times": "Mo-Fr 09:00", "nsi_id": "unitedstatespostalservice-a77078", "operator": "United States Postal Service", "operator:short": "USPS", "operator:type": "public", "operator:wikidata": "Q668687", "ref": "2740900059"}, "type": "Feature"}
{"geometry": {"coordinates": [-79.954061, 36.115252], "type": "Point"}, "id": "OpT5qMD0CXz3mxRQ6DvpoC29BHg=", "properties": {"@source_uri": "https://tools.usps.com/UspsToolsRestServices/rest/POLocator/findLocations", "@spider": "usps_collection_boxes", "addr:city": "GREENSBORO", "addr:country": "US", "addr:postcode": "27409", "addr:state": "NC", "addr:street_address": "7614 BUSINESS PARK DR", "amenity": "post_box", "collection_times": "Mo-Fr 09:00", "nsi_id": "unitedstatespostalservice-a77078", "operator": "United States Postal Service", "operator:short": "USPS", "operator:type": "public", "operator:wikidata": "Q668687", "ref": "2740900066"}, "type": "Feature"}
{"geometry": {"coordinates": [-79.9538242, 36.063801], "type": "Point"}, "id": "hyA0rrb7pGKpflVZQlBSidp8um4=", "properties": {"@source_uri": "https://tools.usps.com/UspsToolsRestServices/rest/POLocator/findLocations", "@spider": "usps_collection_boxes", "addr:city": "GREENSBORO", "addr:country": "US", "addr:postcode": "27409", "addr:state": "NC", "addr:street_address": "4524 GREEN POINT DR", "amenity": "post_box", "collection_times": "Mo-Fr 15:00", "note": "ON 12/24 AND 12/31, THIS BOX MAY BE COLLECTED AS EARLY AS 12 NOON.", "nsi_id": "unitedstatespostalservice-a77078", "operator": "United States Postal Service", "operator:short": "USPS", "operator:type": "public", "operator:wikidata": "Q668687", "ref": "2740900069"}, "type": "Feature"}
{"geometry": {"coordinates": [-79.9632658, 36.083655], "type": "Point"}, "id": "OX5_ZXuEqMW3N3AYI-LP2WVUrZc=", "properties": {"@source_uri": "https://tools.usps.com/UspsToolsRestServices/rest/POLocator/findLocations", "@spider": "usps_collection_boxes", "addr:city": "GREENSBORO", "addr:country": "US", "addr:postcode": "27409", "addr:state": "NC", "addr:street_address": "204 CENTREPORT DR", "amenity": "post_box", "collection_times": "Mo-Fr 09:00", "nsi_id": "unitedstatespostalservice-a77078", "operator": "United States Postal Service", "operator:short": "USPS", "operator:type": "public", "operator:wikidata": "Q668687", "ref": "2740900079"}, "type": "Feature"}
{"geometry": {"coordinates": [-79.9111274, 36.0703], "type": "Point"}, "id": "3Dr1iB8DZGDqSj4eSYswUEBVn6g=", "properties": {"@source_uri": "https://tools.usps.com/UspsToolsRestServices/rest/POLocator/findLocations", "@spider": "usps_collection_boxes", "addr:city": "GREENSBORO", "addr:country": "US", "addr:postcode": "27409", "addr:state": "NC", "addr:street_address": "222 S SWING RD", "amenity": "post_box", "collection_times": "Mo-Fr 09:00", "nsi_id": "unitedstatespostalservice-a77078", "operator": "United States Postal Service", "operator:short": "USPS", "operator:type": "public", "operator:wikidata": "Q668687", "ref": "2740900082"}, "type": "Feature"}
{"geometry": {"coordinates": [-79.9074356, 36.065096], "type": "Point"}, "id": "hXAy3FhDmUgwe0PZQkAiEi2CN1E=", "properties": {"@source_uri": "https://tools.usps.com/UspsToolsRestServices/rest/POLocator/findLocations", "@spider": "usps_collection_boxes", "addr:city": "GREENSBORO", "addr:country": "US", "addr:postcode": "27409", "addr:state": "NC", "addr:street_address": "624 GUILFORD COLLEGE RD", "amenity": "post_box", "collection_times": "Mo-Fr 09:00", "nsi_id": "unitedstatespostalservice-a77078", "operator": "United States Postal Service", "operator:short": "USPS", "operator:type": "public", "operator:wikidata": "Q668687", "ref": "2740900083"}, "type": "Feature"}
{"geometry": {"coordinates": [-79.9531613, 36.11141], "type": "Point"}, "id": "6A9XHBvCsdhuZ3mI-ILPhoayYVU=", "properties": {"@source_uri": "https://tools.usps.com/UspsToolsRestServices/rest/POLocator/findLocations", "@spider": "usps_collection_boxes", "addr:city": "GREENSBORO", "addr:country": "US", "addr:postcode": "27409", "addr:state": "NC", "addr:street_address": "532 N REGIONAL RD", "amenity": "post_box", "collection_times": "Mo-Fr 09:00", "nsi_id": "unitedstatespostalservice-a77078", "operator": "United States Postal Service", "operator:short": "USPS", "operator:type": "public", "operator:wikidata": "Q668687", "ref": "2740900084"}, "type": "Feature"}
{"geometry": {"coordinates": [-79.9568390287, 36.10948799], "type": "Point"}, "id": "JbLPfe7zlx975Wj_E43PwRHnE30=", "properties": {"@source_uri": "https://tools.usps.com/UspsToolsRestServices/rest/POLocator/findLocations", "@spider": "usps_collection_boxes", "addr:city": "GREENSBORO", "addr:country": "US", "addr:postcode": "27409", "addr:state": "NC", "addr:street_address": "6520 BRYAN BLVD", "amenity": "post_box", "collection_times": "Mo-Fr 09:30", "nsi_id": "unitedstatespostalservice-a77078", "operator": "United States Postal Service", "operator:short": "USPS", "operator:type": "public", "operator:wikidata": "Q668687", "ref": "2740900086"}, "type": "Feature"}
{"geometry": {"coordinates": [-79.9633159768, 36.0788800037], "type": "Point"}, "id": "Xt140ZNAo09enxK-L22PRVsWvX4=", "properties": {"@source_uri": "https://tools.usps.com/UspsToolsRestServices/rest/POLocator/findLocations", "@spider": "usps_collection_boxes", "addr:city": "GREENSBORO", "addr:country": "US", "addr:postcode": "27409", "addr:state": "NC", "addr:street_address": "7819 NATIONAL SERVICE RD", "amenity": "post_box", "collection_times": "Mo-Fr 09:30", "nsi_id": "unitedstatespostalservice-a77078", "operator": "United States Postal Service", "operator:short": "USPS", "operator:type": "public", "operator:wikidata": "Q668687", "ref": "2740900088"}, "type": "Feature"}
{"geometry": {"coordinates": [-79.9389094, 36.078663], "type": "Point"}, "id": "k1Kv8b1NOAmNXFMxQJOGxB-tCiQ=", "properties": {"@source_uri": "https://tools.usps.com/UspsToolsRestServices/rest/POLocator/findLocations", "@spider": "usps_collection_boxes", "addr:city": "GREENSBORO", "addr:country": "US", "addr:postcode": "27409", "addr:state": "NC", "addr:street_address": "309 GALLIMORE DAIRY RD", "amenity": "post_box", "collection_times": "Mo-Fr 15:00", "note": "ON 12/24 AND 12/31, THIS BOX MAY BE COLLECTED AS EARLY AS 12 NOON.", "nsi_id": "unitedstatespostalservice-a77078", "operator": "United States Postal Service", "operator:short": "USPS", "operator:type": "public", "operator:wikidata": "Q668687", "ref": "2740900090"}, "type": "Feature"}
{"geometry": {"coordinates": [-79.9507804, 36.070086], "type": "Point"}, "id": "r2oysg5-erIDZ6hxdo5nIwctEq0=", "properties": {"@source_uri": "https://tools.usps.com/UspsToolsRestServices/rest/POLocator/findLocations", "@spider": "usps_collection_boxes", "addr:city": "GREENSBORO", "addr:country": "US", "addr:postcode": "27409", "addr:state": "NC", "addr:street_address": "496 GALLIMORE DAIRY RD", "amenity": "post_box", "collection_times": "Mo-Fr 09:00", "nsi_id": "unitedstatespostalservice-a77078", "operator": "United States Postal Service", "operator:short": "USPS", "operator:type": "public", "operator:wikidata": "Q668687", "ref": "2740900092"}, "type": "Feature"}
{"geometry": {"coordinates": [-79.9369866, 36.105178], "type": "Point"}, "id": "_Uf6aS6BFtLjnR8hLcKPql8uHyg=", "properties": {"@source_uri": "https://tools.usps.com/UspsToolsRestServices/rest/POLocator/findLocations", "@spider": "usps_collection_boxes", "addr:city": "GREENSBORO", "addr:country": "US", "addr:postcode": "27409", "addr:state": "NC", "addr:street_address": "6415 BRYAN BLVD", "amenity": "post_box", "collection_times": "Mo-Fr 09:00", "nsi_id": "unitedstatespostalservice-a77078", "operator": "United States Postal Service", "operator:short": "USPS", "operator:type": "public", "operator:wikidata": "Q668687", "ref": "2740900101"}, "type": "Feature"}
{"geometry": {"coordinates": [-79.9849753, 36.089823], "type": "Point"}, "id": "4R9dEusucjHncY8rhAC6DEpMu6k=", "properties": {"@source_uri": "https://tools.usps.com/UspsToolsRestServices/rest/POLocator/findLocations", "@spider": "usps_collection_boxes", "addr:city": "GREENSBORO", "addr:country": "US", "addr:postcode": "27409", "addr:state": "NC", "addr:street_address": "7900 MCCLOUD RD", "amenity": "post_box", "collection_times": "Mo-Fr 09:30", "nsi_id": "unitedstatespostalservice-a77078", "operator": "United States Postal Service", "operator:short": "USPS", "operator:type": "public", "operator:wikidata": "Q668687", "ref": "2740900103"}, "type": "Feature"}
{"geometry": {"coordinates": [-79.8946514522, 36.0766496563], "type": "Point"}, "id": "USkmNOdyL0-p5z4QBEKyRlT9uX8=", "properties": {"@source_uri": "https://tools.usps.com/UspsToolsRestServices/rest/POLocator/findLocations", "@spider": "usps_collection_boxes", "addr:city": "GREENSBORO", "addr:country": "US", "addr:postcode": "27409", "addr:state": "NC", "addr:street_address": "5704 W MARKET ST", "amenity": "post_box", "collection_times": "Mo-Fr 17:00", "name": "USPS COLLECTION BOX - APC", "note": "ON 12/24 AND 12/31, THIS BOX MAY BE COLLECTED AS EARLY AS 12 NOON.", "nsi_id": "unitedstatespostalservice-a77078", "operator": "United States Postal Service", "operator:short": "USPS", "operator:type": "public", "operator:wikidata": "Q668687", "ref": "2740900105"}, "type": "Feature"}
{"geometry": {"coordinates": [-79.895040172, 36.076645421], "type": "Point"}, "id": "A5TWSkH-P7XSVOahQ8Www4JPWxI=", "properties": {"@source_uri": "https://tools.usps.com/UspsToolsRestServices/rest/POLocator/findLocations", "@spider": "usps_collection_boxes", "addr:city": "GREENSBORO", "addr:country": "US", "addr:postcode": "27409", "addr:state": "NC", "addr:street_address": "5704 W MARKET ST", "amenity": "post_box", "collection_times": "Mo-Fr 17:00", "indoor": "yes", "note": "ON 12/24 AND 12/31, THIS BOX MAY BE COLLECTED AS EARLY AS 12 NOON.", "nsi_id": "unitedstatespostalservice-a77078", "operator": "United States Postal Service", "operator:short": "USPS", "operator:type": "public", "operator:wikidata": "Q668687", "ref": "2740900106"}, "type": "Feature"}
{"geometry": {"coordinates": [-79.895040172, 36.076645421], "type": "Point"}, "id": "jQY2EetCz3cF9hvJBk58ffAzTak=", "properties": {"@source_uri": "https://tools.usps.com/UspsToolsRestServices/rest/POLocator/findLocations", "@spider": "usps_collection_boxes", "addr:city": "GREENSBORO", "addr:country": "US", "addr:postcode": "27409", "addr:state": "NC", "addr:street_address": "5704 W MARKET ST", "amenity": "post_box", "collection_times": "Mo-Fr 17:00; Sa 12:30", "indoor": "yes", "note": "ON 12/24 AND 12/31, THIS BOX MAY BE COLLECTED AS EARLY AS 12 NOON.", "nsi_id": "unitedstatespostalservice-a77078", "operator": "United States Postal Service", "operator:short": "USPS", "operator:type": "public", "operator:wikidata": "Q668687", "ref": "2740900108"}, "type": "Feature"}
{"geometry": {"coordinates": [-79.8451899, 36.121697], "type": "Point"}, "id": "hCye0WDaBLi103hK-R-0j1H3WD0=", "properties": {"@source_uri": "https://tools.usps.com/UspsToolsRestServices/rest/POLocator/findLocations", "@spider": "usps_collection_boxes", "addr:city": "GREENSBORO", "addr:country": "US", "addr:postcode": "27410", "addr:state": "NC", "addr:street_address": "3383 BATTLEGROUND AVE", "amenity": "post_box", "collection_times": "Mo-Fr 15:00; Sa 11:00", "note": "ON 12/24 AND 12/31, THIS BOX MAY BE COLLECTED AS EARLY AS 12 NOON.", "nsi_id": "unitedstatespostalservice-a77078", "operator": "United States Postal Service", "operator:short": "USPS", "operator:type": "public", "operator:wikidata": "Q668687", "ref": "2741000002"}, "type": "Feature"}
{"geometry": {"coordinates": [-79.8452049, 36.121691], "type": "Point"}, "id": "J1hXv-3glVe7-Sd4fehTwfZ6kn0=", "properties": {"@source_uri": "https://tools.usps.com/UspsToolsRestServices/rest/POLocator/findLocations", "@spider": "usps_collection_boxes", "addr:city": "GREENSBORO", "addr:country": "US", "addr:postcode": "27410", "addr:state": "NC", "addr:street_address": "3383 BATTLEGROUND AVE", "amenity": "post_box", "collection_times": "Mo-Fr 15:00; Sa 11:00", "note": "ON 12/24 AND 12/31, THIS BOX MAY BE COLLECTED AS EARLY AS 12 NOON.", "nsi_id": "unitedstatespostalservice-a77078", "operator": "United States Postal Service", "operator:short": "USPS", "operator:type": "public", "operator:wikidata": "Q668687", "ref": "2741000003"}, "type": "Feature"}
{"geometry": {"coordinates": [-79.8565664, 36.130184], "type": "Point"}, "id": "DnmzS2Td5Sbn3XYyjLSb-_e5XhA=", "properties": {"@source_uri": "https://tools.usps.com/UspsToolsRestServices/rest/POLocator/findLocations", "@spider": "usps_collection_boxes", "addr:city": "GREENSBORO", "addr:country": "US", "addr:postcode": "27410", "addr:state": "NC", "addr:street_address": "3707 BATTLEGROUND AVE", "amenity": "post_box", "collection_times": "Mo-Fr 15:00; Sa 11:00", "note": "ON 12/24 AND 12/31, THIS BOX MAY BE COLLECTED AS EARLY AS 12 NOON.", "nsi_id": "unitedstatespostalservice-a77078", "operator": "United States Postal Service", "operator:short": "USPS", "operator:type": "public", "operator:wikidata": "Q668687", "ref": "2741000005"}, "type": "Feature"}
{"geometry": {"coordinates": [-79.8885619, 36.091987], "type": "Point"}, "id": "kUIpnjZ5AHjh8E0zyl5eWm_E85U=", "properties": {"@source_uri": "https://tools.usps.com/UspsToolsRestServices/rest/POLocator/findLocations", "@spider": "usps_collection_boxes", "addr:city": "GREENSBORO", "addr:country": "US", "addr:postcode": "27410", "addr:state": "NC", "addr:street_address": "5800 W FRIENDLY AVE", "amenity": "post_box", "collection_times": "Mo-Fr 11:30; Sa 11:00", "nsi_id": "unitedstatespostalservice-a77078", "operator": "United States Postal Service", "operator:short": "USPS", "operator:type": "public", "operator:wikidata": "Q668687", "ref": "2741000008"}, "type": "Feature"}
{"geometry": {"coordinates": [-79.845012991, 36.087398987], "type": "Point"}, "id": "UOQI0W1XG5Aa4P4uQvMpBkCLX24=", "properties": {"@source_uri": "https://tools.usps.com/UspsToolsRestServices/rest/POLocator/findLocations", "@spider": "usps_collection_boxes", "addr:city": "GREENSBORO", "addr:country": "US", "addr:postcode": "27410", "addr:state": "NC", "addr:street_address": "3608 W FRIENDLY AVE", "amenity": "post_box", "collection_times": "Mo-Fr 09:00", "nsi_id": "unitedstatespostalservice-a77078", "operator": "United States Postal Service", "operator:short": "USPS", "operator:type": "public", "operator:wikidata": "Q668687", "ref": "2741000019"}, "type": "Feature"}
{"geometry": {"coordinates": [-79.867559, 36.03239], "type": "Point"}, "id": "y-ey99sF3G4_0E9JVHMGaDO5Hws=", "properties": {"@source_uri": "https://tools.usps.com/UspsToolsRestServices/rest/POLocator/findLocations", "@spider": "usps_collection_boxes", "addr:city": "GREENSBORO", "addr:country": "US", "addr:postcode": "27417", "addr:state": "NC", "addr:street_address": "4615 HIGH POINT RD", "amenity": "post_box", "collection_times": "Mo-Fr 16:00", "indoor": "yes", "note": "ON 12/24 AND 12/31, THIS BOX MAY BE COLLECTED AS EARLY AS 12 NOON.", "nsi_id": "unitedstatespostalservice-a77078", "operator": "United States Postal Service", "operator:short": "USPS", "operator:type": "public", "operator:wikidata": "Q668687", "ref": "2741700001"}, "type": "Feature"}
{"geometry": {"coordinates": [-79.833908, 36.113759], "type": "Point"}, "id": "xwj3mdPJmM0mJJfEgRBepb7-8mY=", "properties": {"@source_uri": "https://tools.usps.com/UspsToolsRestServices/rest/POLocator/findLocations", "@spider": "usps_collection_boxes", "addr:city": "GREENSBORO", "addr:country": "US", "addr:postcode": "27438", "addr:state": "NC", "addr:street_address": "2941 BATTLEGROUND AVE", "amenity": "post_box", "collection_times": "Mo-Fr 17:00; Sa 12:30", "indoor": "yes", "note": "ON 12/24 AND 12/31, THIS BOX MAY BE COLLECTED AS EARLY AS 12 NOON.", "nsi_id": "unitedstatespostalservice-a77078", "operator": "United States Postal Service", "operator:short": "USPS", "operator:type": "public", "operator:wikidata": "Q668687", "ref": "2743800001"}, "type": "Feature"}
{"geometry": {"coordinates": [-79.833909, 36.113759], "type": "Point"}, "id": "dDoxCAmdqrZSOD-M022F43ukZig=", "properties": {"@source_uri": "https://tools.usps.com/UspsToolsRestServices/rest/POLocator/findLocations", "@spider": "usps_collection_boxes", "addr:city": "GREENSBORO", "addr:country": "US", "addr:postcode": "27438", "addr:state": "NC", "addr:street_address": "2941 BATTLEGROUND AVE", "amenity": "post_box", "collection_times": "Mo-Fr 17:00; Sa 12:30", "name": "USPS COLLECTION BOX - APC", "note": "ON 12/24 AND 12/31, THIS BOX MAY BE COLLECTED AS EARLY AS 12 NOON.", "nsi_id": "unitedstatespostalservice-a77078", "operator": "United States Postal Service", "operator:short": "USPS", "operator:type": "public", "operator:wikidata": "Q668687", "ref": "2743800002"}, "type": "Feature"}
{"geometry": {"coordinates": [-79.8294009919, 36.1198699829], "type": "Point"}, "id": "KVL6c3O3PbBXD_-ZKQvj03S1Tb0=", "properties": {"@source_uri": "https://tools.usps.com/UspsToolsRestServices/rest/POLocator/findLocations", "@spider": "usps_collection_boxes", "addr:city": "GREENSBORO", "addr:country": "US", "addr:postcode": "27455", "addr:state": "NC", "addr:street_address": "1905 ASHWOOD CT", "amenity": "post_box", "collection_times": "Mo-Fr 09:30; Sa 09:00", "nsi_id": "unitedstatespostalservice-a77078", "operator": "United States Postal Service", "operator:short": "USPS", "operator:type": "public", "operator:wikidata": "Q668687", "ref": "2745500007"}, "type": "Feature"}
{"geometry": {"coordinates": [-79.8272294, 36.11838], "type": "Point"}, "id": "3BdLYs-l1JigmWbRJwnqr1YNEhk=", "properties": {"@source_uri": "https://tools.usps.com/UspsToolsRestServices/rest/POLocator/findLocations", "@spider": "usps_collection_boxes", "addr:city": "GREENSBORO", "addr:country": "US", "addr:postcode": "27455", "addr:state": "NC", "addr:street_address": "2002 PISGAH CHURCH RD", "amenity": "post_box", "collection_times": "Mo-Sa 09:00", "nsi_id": "unitedstatespostalservice-a77078", "operator": "United States Postal Service", "operator:short": "USPS", "operator:type": "public", "operator:wikidata": "Q668687", "ref": "2745500009"}, "type": "Feature"}
{"geometry": {"coordinates": [-79.9806088, 36.105672], "type": "Point"}, "id": "2vWqmfX6Zvd6OKmYHAFNHGuIeYc=", "properties": {"@source_uri": "https://tools.usps.com/UspsToolsRestServices/rest/POLocator/findLocations", "@spider": "usps_collection_boxes", "addr:city": "GREENSBORO", "addr:country": "US", "addr:postcode": "27498", "addr:state": "NC", "addr:street_address": "1120 PLEASANT RIDGE RD", "amenity": "post_box", "collection_times": "Mo-Fr 17:00; Sa 15:00", "note": "ON 12/24 AND 12/31, THIS BOX MAY BE COLLECTED AS EARLY AS 12 NOON.", "nsi_id": "unitedstatespostalservice-a77078", "operator": "United States Postal Service", "operator:short": "USPS", "operator:type": "public", "operator:wikidata": "Q668687", "ref": "2749800164"}, "type": "Feature"}
