{"dataset_attributes": {"@spider": "usps_collection_boxes", "spider:collection_time": "2023-11-25T08:23:32.202811"}, "geometry": {"coordinates": [-78.6436664, 35.777052], "type": "Point"}, "id": "QNV_7vLYdIADjZYxA5bulxXF_7A=", "properties": {"@spider": "usps_collection_boxes", "addr:city": "RALEIGH", "addr:country": "US", "addr:full": "301 W MARTIN ST", "addr:postcode": "27601", "addr:state": "NC", "amenity": "post_box", "brand": "United States Postal Service", "brand:wikidata": "Q668687", "collection_times": "Mo-Fr 15:00; Sa 10:00", "name": "USPS COLLECTION BOX - BLUE BOX", "note": "ON 12/24 AND 12/31, THIS BOX MAY BE COLLECTED AS EARLY AS 12 NOON.", "nsi_id": "unitedstatespostalservice-a77078", "operator": "United States Postal Service", "operator:short": "USPS", "operator:type": "public", "operator:wikidata": "Q668687", "ref": "2760100008"}, "type": "Feature"}
{"dataset_attributes": {"@spider": "usps_collection_boxes", "spider:collection_time": "2023-11-25T08:23:32.202811"}, "geometry": {"coordinates": [-78.6395331, 35.781245], "type": "Point"}, "id": "VwTyctTpMzAelwqeWHsUZLdpoW4=", "properties": {"@spider": "usps_collection_boxes", "addr:city": "RALEIGH", "addr:country": "US", "addr:full": "16 W EDENTON ST.", "addr:postcode": "27601", "addr:state": "NC", "amenity": "post_box", "brand": "United States Postal Service", "brand:wikidata": "Q668687", "collection_times": "Mo-Fr 13:00; Sa 10:00", "name": "USPS COLLECTION BOX - BLUE BOX", "note": "ON 12/24 AND 12/31, THIS BOX MAY BE COLLECTED AS EARLY AS 12 NOON.", "nsi_id": "unitedstatespostalservice-a77078", "operator": "United States Postal Service", "operator:short": "USPS", "operator:type": "public", "operator:wikidata": "Q668687", "ref": "2760100013"}, "type": "Feature"}
{"dataset_attributes": {"@spider": "usps_collection_boxes", "spider:collection_time": "2023-11-25T08:23:32.202811"}, "geometry": {"coordinates": [-78.6383989, 35.774298], "type": "Point"}, "id": "aGHHgdtCHuIR5RLBYsND2VCnQeQ=", "properties": {"@spider": "usps_collection_boxes", "addr:city": "RALEIGH", "addr:country": "US", "addr:full": "429 S WILMINGTON ST", "addr:postcode": "27601", "addr:state": "NC", "amenity": "post_box", "brand": "United States Postal Service", "brand:wikidata": "Q668687", "collection_times": "Mo-Fr 15:00; Sa 10:00", "name": "USPS COLLECTION BOX - BLUE BOX", "note": "ON 12/24 AND 12/31, THIS BOX MAY BE COLLECTED AS EARLY AS 12 NOON.", "nsi_id": "unitedstatespostalservice-a77078", "operator": "United States Postal Service", "operator:short": "USPS", "operator:type": "public", "operator:wikidata": "Q668687", "ref": "2760100032"}, "type": "Feature"}
{"dataset_attributes": {"@spider": "usps_collection_boxes", "spider:collection_time": "2023-11-25T08:23:32.202811"}, "geometry": {"coordinates": [-78.641666, 35.778415], "type": "Point"}, "id": "QlVOS-Tv791bdegtdvrx_ARCsGI=", "properties": {"@spider": "usps_collection_boxes", "addr:city": "RALEIGH", "addr:country": "US", "addr:full": "127 W HARGETT ST", "addr:postcode": "27601", "addr:state": "NC", "amenity": "post_box", "brand": "United States Postal Service", "brand:wikidata": "Q668687", "collection_times": "Mo-Fr 15:00; Sa 10:00", "name": "USPS COLLECTION BOX - BLUE BOX", "note": "ON 12/24 AND 12/31, THIS BOX MAY BE COLLECTED AS EARLY AS 12 NOON.", "nsi_id": "unitedstatespostalservice-a77078", "operator": "United States Postal Service", "operator:short": "USPS", "operator:type": "public", "operator:wikidata": "Q668687", "ref": "2760100037"}, "type": "Feature"}
{"dataset_attributes": {"@spider": "usps_collection_boxes", "spider:collection_time": "2023-11-25T08:23:32.202811"}, "geometry": {"coordinates": [-78.6400072, 35.778443], "type": "Point"}, "id": "aFELcKtYMSJYpNXS_qWivvHmkd0=", "properties": {"@spider": "usps_collection_boxes", "addr:city": "RALEIGH", "addr:country": "US", "addr:full": "23 HARGETT ST", "addr:postcode": "27601", "addr:state": "NC", "amenity": "post_box", "brand": "United States Postal Service", "brand:wikidata": "Q668687", "collection_times": "Mo-Fr 15:00; Sa 10:00", "name": "USPS COLLECTION BOX - BLUE BOX", "note": "ON 12/24 AND 12/31, THIS BOX MAY BE COLLECTED AS EARLY AS 12 NOON.", "nsi_id": "unitedstatespostalservice-a77078", "operator": "United States Postal Service", "operator:short": "USPS", "operator:type": "public", "operator:wikidata": "Q668687", "ref": "2760100038"}, "type": "Feature"}
{"dataset_attributes": {"@spider": "usps_collection_boxes", "spider:collection_time": "2023-11-25T08:23:32.202811"}, "geometry": {"coordinates": [-78.6341259, 35.783668], "type": "Point"}, "id": "apFxuWU1alzq60JD96zC5DwknxM=", "properties": {"@spider": "usps_collection_boxes", "addr:city": "RALEIGH", "addr:country": "US", "addr:full": "310 E LANE ST", "addr:postcode": "27601", "addr:state": "NC", "amenity": "post_box", "brand": "United States Postal Service", "brand:wikidata": "Q668687", "collection_times": "Mo-Fr 15:00; Sa 10:00", "name": "USPS COLLECTION BOX - BLUE BOX", "note": "ON 12/24 AND 12/31, THIS BOX MAY BE COLLECTED AS EARLY AS 12 NOON.", "nsi_id": "unitedstatespostalservice-a77078", "operator": "United States Postal Service", "operator:short": "USPS", "operator:type": "public", "operator:wikidata": "Q668687", "ref": "2760100049"}, "type": "Feature"}
{"dataset_attributes": {"@spider": "usps_collection_boxes", "spider:collection_time": "2023-11-25T08:23:32.202811"}, "geometry": {"coordinates": [-78.6389139, 35.783795], "type": "Point"}, "id": "emaubxXrnxzzb9YytOZN4ySNSVA=", "properties": {"@spider": "usps_collection_boxes", "addr:city": "RALEIGH", "addr:country": "US", "addr:full": "50 W LANE ST.", "addr:postcode": "27601", "addr:state": "NC", "amenity": "post_box", "brand": "United States Postal Service", "brand:wikidata": "Q668687", "collection_times": "Mo-Fr 16:00; Sa 10:00", "name": "USPS COLLECTION BOX - BLUE BOX", "note": "ON 12/24 AND 12/31, THIS BOX MAY BE COLLECTED AS EARLY AS 12 NOON.", "nsi_id": "unitedstatespostalservice-a77078", "operator": "United States Postal Service", "operator:short": "USPS", "operator:type": "public", "operator:wikidata": "Q668687", "ref": "2760100053"}, "type": "Feature"}
{"dataset_attributes": {"@spider": "usps_collection_boxes", "spider:collection_time": "2023-11-25T08:23:32.202811"}, "geometry": {"coordinates": [-78.6362312, 35.780471], "type": "Point"}, "id": "auQcO3uDo-qaXE4P9-dNuS2IlyY=", "properties": {"@spider": "usps_collection_boxes", "addr:city": "RALEIGH", "addr:country": "US", "addr:full": "4 N BLOUNT ST", "addr:postcode": "27601", "addr:state": "NC", "amenity": "post_box", "brand": "United States Postal Service", "brand:wikidata": "Q668687", "collection_times": "Mo-Fr 16:00; Sa 10:00", "name": "USPS COLLECTION BOX - BLUE BOX", "note": "ON 12/24 AND 12/31, THIS BOX MAY BE COLLECTED AS EARLY AS 12 NOON.", "nsi_id": "unitedstatespostalservice-a77078", "operator": "United States Postal Service", "operator:short": "USPS", "operator:type": "public", "operator:wikidata": "Q668687", "ref": "2760100065"}, "type": "Feature"}
{"dataset_attributes": {"@spider": "usps_collection_boxes", "spider:collection_time": "2023-11-25T08:23:32.202811"}, "geometry": {"coordinates": [-78.6338218, 35.780322], "type": "Point"}, "id": "d9TLqvv5UPlxJDjb0fAzJd3jYEc=", "properties": {"@spider": "usps_collection_boxes", "addr:city": "RALEIGH", "addr:country": "US", "addr:full": "311 NEW BERN AVE", "addr:postcode": "27601", "addr:state": "NC", "amenity": "post_box", "brand": "United States Postal Service", "brand:wikidata": "Q668687", "collection_times": "Mo-Fr 17:00; Sa 10:00", "name": "USPS COLLECTION BOX - BLUE BOX", "note": "ON 12/24 AND 12/31, THIS BOX MAY BE COLLECTED AS EARLY AS 12 NOON.", "nsi_id": "unitedstatespostalservice-a77078", "operator": "United States Postal Service", "operator:short": "USPS", "operator:type": "public", "operator:wikidata": "Q668687", "ref": "2760100088"}, "type": "Feature"}
{"dataset_attributes": {"@spider": "usps_collection_boxes", "spider:collection_time": "2023-11-25T08:23:32.202811"}, "geometry": {"coordinates": [-78.6338226, 35.780325], "type": "Point"}, "id": "OGWvgpRbRVwFWrOKfCZYQjiptSk=", "properties": {"@spider": "usps_collection_boxes", "addr:city": "RALEIGH", "addr:country": "US", "addr:full": "311 NEW BERN AVE", "addr:postcode": "27601", "addr:state": "NC", "amenity": "post_box", "brand": "United States Postal Service", "brand:wikidata": "Q668687", "collection_times": "Mo-Fr 17:00; Sa 10:00", "name": "USPS COLLECTION BOX - BLUE BOX", "note": "ON 12/24 AND 12/31, THIS BOX MAY BE COLLECTED AS EARLY AS 12 NOON.", "nsi_id": "unitedstatespostalservice-a77078", "operator": "United States Postal Service", "operator:short": "USPS", "operator:type": "public", "operator:wikidata": "Q668687", "ref": "2760100089"}, "type": "Feature"}
{"dataset_attributes": {"@spider": "usps_collection_boxes", "spider:collection_time": "2023-11-25T08:23:32.202811"}, "geometry": {"coordinates": [-78.6338277, 35.780308], "type": "Point"}, "id": "4bPvCtXq2mwHWY70sk1AKPbeqW8=", "properties": {"@spider": "usps_collection_boxes", "addr:city": "RALEIGH", "addr:country": "US", "addr:full": "311 NEW BERN AVE", "addr:postcode": "27601", "addr:state": "NC", "amenity": "post_box", "brand": "United States Postal Service", "brand:wikidata": "Q668687", "collection_times": "Mo-Fr 17:00; Sa 10:00", "name": "USPS COLLECTION BOX - BLUE BOX", "note": "ON 12/24 AND 12/31, THIS BOX MAY BE COLLECTED AS EARLY AS 12 NOON.", "nsi_id": "unitedstatespostalservice-a77078", "operator": "United States Postal Service", "operator:short": "USPS", "operator:type": "public", "operator:wikidata": "Q668687", "ref": "2760100090"}, "type": "Feature"}
{"dataset_attributes": {"@spider": "usps_collection_boxes", "spider:collection_time": "2023-11-25T08:23:32.202811"}, "geometry": {"coordinates": [-78.6338379, 35.78032], "type": "Point"}, "id": "3KJ2F5kGc0zYZ0koDDMs4-i_zfY=", "properties": {"@spider": "usps_collection_boxes", "addr:city": "RALEIGH", "addr:country": "US", "addr:full": "311 NEW BERN AVE", "addr:postcode": "27601", "addr:state": "NC", "amenity": "post_box", "brand": "United States Postal Service", "brand:wikidata": "Q668687", "collection_times": "Mo-Fr 17:00; Sa 10:00", "name": "USPS COLLECTION BOX - BLUE BOX", "note": "ON 12/24 AND 12/31, THIS BOX MAY BE COLLECTED AS EARLY AS 12 NOON.", "nsi_id": "unitedstatespostalservice-a77078", "operator": "United States Postal Service", "operator:short": "USPS", "operator:type": "public", "operator:wikidata": "Q668687", "ref": "2760100093"}, "type": "Feature"}
{"dataset_attributes": {"@spider": "usps_collection_boxes", "spider:collection_time": "2023-11-25T08:23:32.202811"}, "geometry": {"coordinates": [-78.6393333824, 35.776719], "type": "Point"}, "id": "_LjhQHkWywV04f3LkgGLfo82JRk=", "properties": {"@spider": "usps_collection_boxes", "addr:city": "RALEIGH", "addr:country": "US", "addr:full": "300 FAYETTEVILLE ST", "addr:postcode": "27601", "addr:state": "NC", "amenity": "post_box", "brand": "United States Postal Service", "brand:wikidata": "Q668687", "collection_times": "Mo-Fr 15:00; Sa 10:00", "name": "USPS COLLECTION BOX - BLUE BOX", "note": "ON 12/24 AND 12/31, THIS BOX MAY BE COLLECTED AS EARLY AS 12 NOON.", "nsi_id": "unitedstatespostalservice-a77078", "operator": "United States Postal Service", "operator:short": "USPS", "operator:type": "public", "operator:wikidata": "Q668687", "ref": "2760100095"}, "type": "Feature"}
{"dataset_attributes": {"@spider": "usps_collection_boxes", "spider:collection_time": "2023-11-25T08:23:32.202811"}, "geometry": {"coordinates": [-78.634728, 35.780242], "type": "Point"}, "id": "HEDm086arrQhEsroGC0mH6PTibg=", "properties": {"@spider": "usps_collection_boxes", "addr:city": "RALEIGH", "addr:country": "US", "addr:full": "311 NEW BERN AVE", "addr:postcode": "27601", "addr:state": "NC", "amenity": "post_box", "brand": "United States Postal Service", "brand:wikidata": "Q668687", "collection_times": "Mo-Fr 17:00", "name": "USPS COLLECTION BOX - PO LOBBY", "note": "ON 12/24 AND 12/31, THIS BOX MAY BE COLLECTED AS EARLY AS 12 NOON.", "nsi_id": "unitedstatespostalservice-a77078", "operator": "United States Postal Service", "operator:short": "USPS", "operator:type": "public", "operator:wikidata": "Q668687", "ref": "2760100096"}, "type": "Feature"}
{"dataset_attributes": {"@spider": "usps_collection_boxes", "spider:collection_time": "2023-11-25T08:23:32.202811"}, "geometry": {"coordinates": [-78.6393378824, 35.776719], "type": "Point"}, "id": "01tsFSQfZEMI-pmV1wq7IxKhrB0=", "properties": {"@spider": "usps_collection_boxes", "addr:city": "RALEIGH", "addr:country": "US", "addr:full": "300 FAYETTEVILLE ST", "addr:postcode": "27601", "addr:state": "NC", "amenity": "post_box", "brand": "United States Postal Service", "brand:wikidata": "Q668687", "collection_times": "Mo-Fr 16:00", "name": "USPS COLLECTION BOX - PO LOBBY", "note": "ON 12/24 AND 12/31, THIS BOX MAY BE COLLECTED AS EARLY AS 12 NOON.", "nsi_id": "unitedstatespostalservice-a77078", "operator": "United States Postal Service", "operator:short": "USPS", "operator:type": "public", "operator:wikidata": "Q668687", "ref": "2760100100"}, "type": "Feature"}
{"dataset_attributes": {"@spider": "usps_collection_boxes", "spider:collection_time": "2023-11-25T08:23:32.202811"}, "geometry": {"coordinates": [-78.6347128221, 35.7802794916], "type": "Point"}, "id": "R7rxno88OWnPR_WRUxC5f6sIYfU=", "properties": {"@spider": "usps_collection_boxes", "addr:city": "RALEIGH", "addr:country": "US", "addr:full": "311 NEW BERN AVE", "addr:postcode": "27601", "addr:state": "NC", "amenity": "post_box", "brand": "United States Postal Service", "brand:wikidata": "Q668687", "collection_times": "Mo-Fr 17:00", "name": "USPS COLLECTION BOX - PO LOBBY", "note": "ON 12/24 AND 12/31, THIS BOX MAY BE COLLECTED AS EARLY AS 12 NOON.", "nsi_id": "unitedstatespostalservice-a77078", "operator": "United States Postal Service", "operator:short": "USPS", "operator:type": "public", "operator:wikidata": "Q668687", "ref": "2760100101"}, "type": "Feature"}
{"dataset_attributes": {"@spider": "usps_collection_boxes", "spider:collection_time": "2023-11-25T08:23:32.202811"}, "geometry": {"coordinates": [-78.6393333824, 35.776719], "type": "Point"}, "id": "GhWVMIUY9tbxQ14lmJ1CfT2nXvo=", "properties": {"@spider": "usps_collection_boxes", "addr:city": "RALEIGH", "addr:country": "US", "addr:full": "300 FAYETTEVILLE ST", "addr:postcode": "27602", "addr:state": "NC", "amenity": "post_box", "brand": "United States Postal Service", "brand:wikidata": "Q668687", "collection_times": "Mo-Fr 16:00", "name": "USPS COLLECTION BOX - PO LOBBY", "note": "ON 12/24 AND 12/31, THIS BOX MAY BE COLLECTED AS EARLY AS 12 NOON.", "nsi_id": "unitedstatespostalservice-a77078", "operator": "United States Postal Service", "operator:short": "USPS", "operator:type": "public", "operator:wikidata": "Q668687", "ref": "2760200002"}, "type": "Feature"}
{"dataset_attributes": {"@spider": "usps_collection_boxes", "spider:collection_time": "2023-11-25T08:23:32.202811"}, "geometry": {"coordinates": [-78.666499507, 35.772683548], "type": "Point"}, "id": "W9GcjP-itIMffQBzkTNs1mgIf94=", "properties": {"@spider": "usps_collection_boxes", "addr:city": "RALEIGH", "addr:country": "US", "addr:full": "711 BARBOUR DR", "addr:postcode": "27603", "addr:state": "NC", "amenity": "post_box", "brand": "United States Postal Service", "brand:wikidata": "Q668687", "collection_times": "Mo-Fr 12:00; Sa 10:00", "name": "USPS COLLECTION BOX - BLUE BOX", "nsi_id": "unitedstatespostalservice-a77078", "operator": "United States Postal Service", "operator:short": "USPS", "operator:type": "public", "operator:wikidata": "Q668687", "ref": "2760300000"}, "type": "Feature"}
{"dataset_attributes": {"@spider": "usps_collection_boxes", "spider:collection_time": "2023-11-25T08:23:32.202811"}, "geometry": {"coordinates": [-78.6502618, 35.776875], "type": "Point"}, "id": "JJwKbzGc1mlKFSGgCgSaW8R1G3I=", "properties": {"@spider": "usps_collection_boxes", "addr:city": "RALEIGH", "addr:country": "US", "addr:full": "236 S BOYLAN AVE", "addr:postcode": "27603", "addr:state": "NC", "amenity": "post_box", "brand": "United States Postal Service", "brand:wikidata": "Q668687", "collection_times": "Mo-Fr 11:30; Sa 10:00", "name": "USPS COLLECTION BOX - BLUE BOX", "nsi_id": "unitedstatespostalservice-a77078", "operator": "United States Postal Service", "operator:short": "USPS", "operator:type": "public", "operator:wikidata": "Q668687", "ref": "2760300002"}, "type": "Feature"}
{"dataset_attributes": {"@spider": "usps_collection_boxes", "spider:collection_time": "2023-11-25T08:23:32.202811"}, "geometry": {"coordinates": [-78.6493752, 35.74896], "type": "Point"}, "id": "Y_J4hRXS3T55Uht0ay9GoZ7xeU0=", "properties": {"@spider": "usps_collection_boxes", "addr:city": "RALEIGH", "addr:country": "US", "addr:full": "400 CAROLINA PINES AVE", "addr:postcode": "27603", "addr:state": "NC", "amenity": "post_box", "brand": "United States Postal Service", "brand:wikidata": "Q668687", "collection_times": "Mo-Sa 10:00", "name": "USPS COLLECTION BOX - BLUE BOX", "nsi_id": "unitedstatespostalservice-a77078", "operator": "United States Postal Service", "operator:short": "USPS", "operator:type": "public", "operator:wikidata": "Q668687", "ref": "2760300004"}, "type": "Feature"}
{"dataset_attributes": {"@spider": "usps_collection_boxes", "spider:collection_time": "2023-11-25T08:23:32.202811"}, "geometry": {"coordinates": [-78.6632249, 35.761552], "type": "Point"}, "id": "d5TRP_20bro4OxyBjMt1BFXGaDQ=", "properties": {"@spider": "usps_collection_boxes", "addr:city": "RALEIGH", "addr:country": "US", "addr:full": "1200 FARMERS MARKET DR", "addr:postcode": "27603", "addr:state": "NC", "amenity": "post_box", "brand": "United States Postal Service", "brand:wikidata": "Q668687", "collection_times": "Mo-Fr 14:00; Sa 10:00", "name": "USPS COLLECTION BOX - BLUE BOX", "note": "ON 12/24 AND 12/31, THIS BOX MAY BE COLLECTED AS EARLY AS 12 NOON.", "nsi_id": "unitedstatespostalservice-a77078", "operator": "United States Postal Service", "operator:short": "USPS", "operator:type": "public", "operator:wikidata": "Q668687", "ref": "2760300005"}, "type": "Feature"}
{"dataset_attributes": {"@spider": "usps_collection_boxes", "spider:collection_time": "2023-11-25T08:23:32.202811"}, "geometry": {"coordinates": [-78.642782, 35.780106981], "type": "Point"}, "id": "GtCmihHvHeetpTHbAVPUa1OCVWk=", "properties": {"@spider": "usps_collection_boxes", "addr:city": "RALEIGH", "addr:country": "US", "addr:full": "225 HILLSBOROUGH ST", "addr:postcode": "27603", "addr:state": "NC", "amenity": "post_box", "brand": "United States Postal Service", "brand:wikidata": "Q668687", "collection_times": "Mo-Fr 14:00; Sa 10:00", "name": "USPS COLLECTION BOX - BLUE BOX", "note": "ON 12/24 AND 12/31, THIS BOX MAY BE COLLECTED AS EARLY AS 12 NOON.", "nsi_id": "unitedstatespostalservice-a77078", "operator": "United States Postal Service", "operator:short": "USPS", "operator:type": "public", "operator:wikidata": "Q668687", "ref": "2760300007"}, "type": "Feature"}
{"dataset_attributes": {"@spider": "usps_collection_boxes", "spider:collection_time": "2023-11-25T08:23:32.202811"}, "geometry": {"coordinates": [-78.6470195, 35.735741], "type": "Point"}, "id": "QUDMYSY969n2Ok3JKeIwj-MQye4=", "properties": {"@spider": "usps_collection_boxes", "addr:city": "RALEIGH", "addr:country": "US", "addr:full": "322 CHAPANOKE RD", "addr:postcode": "27603", "addr:state": "NC", "amenity": "post_box", "brand": "United States Postal Service", "brand:wikidata": "Q668687", "collection_times": "Mo-Fr 14:00; Sa 10:00", "name": "USPS COLLECTION BOX - BLUE BOX", "note": "ON 12/24 AND 12/31, THIS BOX MAY BE COLLECTED AS EARLY AS 12 NOON.", "nsi_id": "unitedstatespostalservice-a77078", "operator": "United States Postal Service", "operator:short": "USPS", "operator:type": "public", "operator:wikidata": "Q668687", "ref": "2760300009"}, "type": "Feature"}
{"dataset_attributes": {"@spider": "usps_collection_boxes", "spider:collection_time": "2023-11-25T08:23:32.202811"}, "geometry": {"coordinates": [-78.6429488, 35.782702], "type": "Point"}, "id": "87N12UWzdQYTDQDrkbUxi9nWieM=", "properties": {"@spider": "usps_collection_boxes", "addr:city": "RALEIGH", "addr:country": "US", "addr:full": "216 W JONES ST", "addr:postcode": "27603", "addr:state": "NC", "amenity": "post_box", "brand": "United States Postal Service", "brand:wikidata": "Q668687", "collection_times": "Mo-Fr 16:00; Sa 10:00", "name": "USPS COLLECTION BOX - BLUE BOX", "note": "ON 12/24 AND 12/31, THIS BOX MAY BE COLLECTED AS EARLY AS 12 NOON.", "nsi_id": "unitedstatespostalservice-a77078", "operator": "United States Postal Service", "operator:short": "USPS", "operator:type": "public", "operator:wikidata": "Q668687", "ref": "2760300011"}, "type": "Feature"}
{"dataset_attributes": {"@spider": "usps_collection_boxes", "spider:collection_time": "2023-11-25T08:23:32.202811"}, "geometry": {"coordinates": [-78.6554642, 35.769499], "type": "Point"}, "id": "er1S9VOxG8Mq0LuiMZt0czgQMcw=", "properties": {"@spider": "usps_collection_boxes", "addr:city": "RALEIGH", "addr:country": "US", "addr:full": "2001 MAIL SERVICE CTR", "addr:postcode": "27603", "addr:state": "NC", "amenity": "post_box", "brand": "United States Postal Service", "brand:wikidata": "Q668687", "collection_times": "Mo-Fr 16:00; Sa 10:00", "name": "USPS COLLECTION BOX - BLUE BOX", "note": "ON 12/24 AND 12/31, THIS BOX MAY BE COLLECTED AS EARLY AS 12 NOON.", "nsi_id": "unitedstatespostalservice-a77078", "operator": "United States Postal Service", "operator:short": "USPS", "operator:type": "public", "operator:wikidata": "Q668687", "ref": "2760300013"}, "type": "Feature"}
{"dataset_attributes": {"@spider": "usps_collection_boxes", "spider:collection_time": "2023-11-25T08:23:32.202811"}, "geometry": {"coordinates": [-78.7057454, 35.650867], "type": "Point"}, "id": "uzNEmMA2uWVYM9m8PDv3q4RAqek=", "properties": {"@spider": "usps_collection_boxes", "addr:city": "RALEIGH", "addr:country": "US", "addr:full": "9101 FAYETTEVILLE RD", "addr:postcode": "27603", "addr:state": "NC", "amenity": "post_box", "brand": "United States Postal Service", "brand:wikidata": "Q668687", "collection_times": "Mo-Fr 13:00; Sa 10:00", "name": "USPS COLLECTION BOX - BLUE BOX", "note": "ON 12/24 AND 12/31, THIS BOX MAY BE COLLECTED AS EARLY AS 12 NOON.", "nsi_id": "unitedstatespostalservice-a77078", "operator": "United States Postal Service", "operator:short": "USPS", "operator:type": "public", "operator:wikidata": "Q668687", "ref": "2760300014"}, "type": "Feature"}
{"dataset_attributes": {"@spider": "usps_collection_boxes", "spider:collection_time": "2023-11-25T08:23:32.202811"}, "geometry": {"coordinates": [-78.6540376, 35.72533], "type": "Point"}, "id": "pUOqaQ6wGufp7V9lQV9VRGTmtb4=", "properties": {"@spider": "usps_collection_boxes", "addr:city": "RALEIGH", "addr:country": "US", "addr:full": "1450 GARNER STATION BLVD", "addr:postcode": "27603", "addr:state": "NC", "amenity": "post_box", "brand": "United States Postal Service", "brand:wikidata": "Q668687", "collection_times": "Mo-Fr 12:00; Sa 10:00", "name": "USPS COLLECTION BOX - BLUE BOX", "nsi_id": "unitedstatespostalservice-a77078", "operator": "United States Postal Service", "operator:short": "USPS", "operator:type": "public", "operator:wikidata": "Q668687", "ref": "2760300015"}, "type": "Feature"}
{"dataset_attributes": {"@spider": "usps_collection_boxes", "spider:collection_time": "2023-11-25T08:23:32.202811"}, "geometry": {"coordinates": [-78.6448884, 35.780512], "type": "Point"}, "id": "5zfFFvMmoUEsgbO_nBYKFHdbeTc=", "properties": {"@spider": "usps_collection_boxes", "addr:city": "RALEIGH", "addr:country": "US", "addr:full": "327 HILLSBOROUGH ST", "addr:postcode": "27603", "addr:state": "NC", "amenity": "post_box", "brand": "United States Postal Service", "brand:wikidata": "Q668687", "collection_times": "Mo-Fr 14:00; Sa 10:00", "name": "USPS COLLECTION BOX - BLUE BOX", "note": "ON 12/24 AND 12/31, THIS BOX MAY BE COLLECTED AS EARLY AS 12 NOON.", "nsi_id": "unitedstatespostalservice-a77078", "operator": "United States Postal Service", "operator:short": "USPS", "operator:type": "public", "operator:wikidata": "Q668687", "ref": "2760300016"}, "type": "Feature"}
{"dataset_attributes": {"@spider": "usps_collection_boxes", "spider:collection_time": "2023-11-25T08:23:32.202811"}, "geometry": {"coordinates": [-78.644128972, 35.786636987], "type": "Point"}, "id": "b-Hpa8uMuyC2_ijVCzvvX-vG5O8=", "properties": {"@spider": "usps_collection_boxes", "addr:city": "RALEIGH", "addr:country": "US", "addr:full": "436 N HARRINGTON ST", "addr:postcode": "27603", "addr:state": "NC", "amenity": "post_box", "brand": "United States Postal Service", "brand:wikidata": "Q668687", "collection_times": "Mo-Fr 14:00; Sa 10:00", "name": "USPS COLLECTION BOX - BLUE BOX", "note": "ON 12/24 AND 12/31, THIS BOX MAY BE COLLECTED AS EARLY AS 12 NOON.", "nsi_id": "unitedstatespostalservice-a77078", "operator": "United States Postal Service", "operator:short": "USPS", "operator:type": "public", "operator:wikidata": "Q668687", "ref": "2760300017"}, "type": "Feature"}
{"dataset_attributes": {"@spider": "usps_collection_boxes", "spider:collection_time": "2023-11-25T08:23:32.202811"}, "geometry": {"coordinates": [-78.6390609, 35.782643], "type": "Point"}, "id": "beC8C5nnafqqkNkfM0Ph85WZ79M=", "properties": {"@spider": "usps_collection_boxes", "addr:city": "RALEIGH", "addr:country": "US", "addr:full": "16 W JONES ST", "addr:postcode": "27603", "addr:state": "NC", "amenity": "post_box", "brand": "United States Postal Service", "brand:wikidata": "Q668687", "collection_times": "Mo-Fr 16:00; Sa 10:00", "name": "USPS COLLECTION BOX - BLUE BOX", "note": "ON 12/24 AND 12/31, THIS BOX MAY BE COLLECTED AS EARLY AS 12 NOON.", "nsi_id": "unitedstatespostalservice-a77078", "operator": "United States Postal Service", "operator:short": "USPS", "operator:type": "public", "operator:wikidata": "Q668687", "ref": "2760300020"}, "type": "Feature"}
{"dataset_attributes": {"@spider": "usps_collection_boxes", "spider:collection_time": "2023-11-25T08:23:32.202811"}, "geometry": {"coordinates": [-78.6804466, 35.743905], "type": "Point"}, "id": "UL1ea24SaT_CFxsdu6R2MImt3vg=", "properties": {"@spider": "usps_collection_boxes", "addr:city": "RALEIGH", "addr:country": "US", "addr:full": "2720 LAKE WHEELER RD", "addr:postcode": "27603", "addr:state": "NC", "amenity": "post_box", "brand": "United States Postal Service", "brand:wikidata": "Q668687", "collection_times": "Mo-Fr 15:00; Sa 10:00", "name": "USPS COLLECTION BOX - BLUE BOX", "note": "ON 12/24 AND 12/31, THIS BOX MAY BE COLLECTED AS EARLY AS 12 NOON.", "nsi_id": "unitedstatespostalservice-a77078", "operator": "United States Postal Service", "operator:short": "USPS", "operator:type": "public", "operator:wikidata": "Q668687", "ref": "2760300022"}, "type": "Feature"}
{"dataset_attributes": {"@spider": "usps_collection_boxes", "spider:collection_time": "2023-11-25T08:23:32.202811"}, "geometry": {"coordinates": [-78.645464042, 35.757537994], "type": "Point"}, "id": "nqlVPVgtH-FXy9ukLxqKiz_EWek=", "properties": {"@spider": "usps_collection_boxes", "addr:city": "RALEIGH", "addr:country": "US", "addr:full": "130 PENMARC DRIVE", "addr:postcode": "27603", "addr:state": "NC", "amenity": "post_box", "brand": "United States Postal Service", "brand:wikidata": "Q668687", "collection_times": "Mo-Fr 14:00; Sa 10:00", "name": "USPS COLLECTION BOX - BLUE BOX", "note": "ON 12/24 AND 12/31, THIS BOX MAY BE COLLECTED AS EARLY AS 12 NOON.", "nsi_id": "unitedstatespostalservice-a77078", "operator": "United States Postal Service", "operator:short": "USPS", "operator:type": "public", "operator:wikidata": "Q668687", "ref": "2760300028"}, "type": "Feature"}
{"dataset_attributes": {"@spider": "usps_collection_boxes", "spider:collection_time": "2023-11-25T08:23:32.202811"}, "geometry": {"coordinates": [-78.6489811, 35.730897], "type": "Point"}, "id": "ld60ANp3WWHGVaXzMjsUssB2ijc=", "properties": {"@spider": "usps_collection_boxes", "addr:city": "RALEIGH", "addr:country": "US", "addr:full": "331 TRYON RD", "addr:postcode": "27603", "addr:state": "NC", "amenity": "post_box", "brand": "United States Postal Service", "brand:wikidata": "Q668687", "collection_times": "Mo-Fr 14:00; Sa 10:00", "name": "USPS COLLECTION BOX - BLUE BOX", "note": "ON 12/24 AND 12/31, THIS BOX MAY BE COLLECTED AS EARLY AS 12 NOON.", "nsi_id": "unitedstatespostalservice-a77078", "operator": "United States Postal Service", "operator:short": "USPS", "operator:type": "public", "operator:wikidata": "Q668687", "ref": "2760300033"}, "type": "Feature"}
{"dataset_attributes": {"@spider": "usps_collection_boxes", "spider:collection_time": "2023-11-25T08:23:32.202811"}, "geometry": {"coordinates": [-78.645861, 35.774559], "type": "Point"}, "id": "FkCv5MwU6JBYI4gnA9MMGgYrAeA=", "properties": {"@spider": "usps_collection_boxes", "addr:city": "RALEIGH", "addr:country": "US", "addr:full": "516 W CABARRUS ST", "addr:postcode": "27603", "addr:state": "NC", "amenity": "post_box", "brand": "United States Postal Service", "brand:wikidata": "Q668687", "collection_times": "Mo-Fr 11:30; Sa 10:00", "name": "USPS COLLECTION BOX - BLUE BOX", "nsi_id": "unitedstatespostalservice-a77078", "operator": "United States Postal Service", "operator:short": "USPS", "operator:type": "public", "operator:wikidata": "Q668687", "ref": "2760300036"}, "type": "Feature"}
{"dataset_attributes": {"@spider": "usps_collection_boxes", "spider:collection_time": "2023-11-25T08:23:32.202811"}, "geometry": {"coordinates": [-78.6091352, 35.820567], "type": "Point"}, "id": "ilE5DmhsfgPFEFP38Cf_fGjzzAk=", "properties": {"@spider": "usps_collection_boxes", "addr:city": "RALEIGH", "addr:country": "US", "addr:full": "3200 BEECHLEAF CT", "addr:postcode": "27604", "addr:state": "NC", "amenity": "post_box", "brand": "United States Postal Service", "brand:wikidata": "Q668687", "collection_times": "Mo-Sa 09:00", "name": "USPS COLLECTION BOX - BLUE BOX", "nsi_id": "unitedstatespostalservice-a77078", "operator": "United States Postal Service", "operator:short": "USPS", "operator:type": "public", "operator:wikidata": "Q668687", "ref": "2760400004"}, "type": "Feature"}
{"dataset_attributes": {"@spider": "usps_collection_boxes", "spider:collection_time": "2023-11-25T08:23:32.202811"}, "geometry": {"coordinates": [-78.6091314, 35.820575], "type": "Point"}, "id": "3PzyxuOiWv5quzLvv1VOfQ47SDU=", "properties": {"@spider": "usps_collection_boxes", "addr:city": "RALEIGH", "addr:country": "US", "addr:full": "3200 BEECHLEAF CT", "addr:postcode": "27604", "addr:state": "NC", "amenity": "post_box", "brand": "United States Postal Service", "brand:wikidata": "Q668687", "collection_times": "Mo-Sa 09:00", "name": "USPS COLLECTION BOX - BLUE BOX", "nsi_id": "unitedstatespostalservice-a77078", "operator": "United States Postal Service", "operator:short": "USPS", "operator:type": "public", "operator:wikidata": "Q668687", "ref": "2760400005"}, "type": "Feature"}
{"dataset_attributes": {"@spider": "usps_collection_boxes", "spider:collection_time": "2023-11-25T08:23:32.202811"}, "geometry": {"coordinates": [-78.595168221, 35.817412938], "type": "Point"}, "id": "YiCouOaYDJ1DQvj6OnJehgGK_oo=", "properties": {"@spider": "usps_collection_boxes", "addr:city": "RALEIGH", "addr:country": "US", "addr:full": "2777 BRENTWOOD RD", "addr:postcode": "27604", "addr:state": "NC", "amenity": "post_box", "brand": "United States Postal Service", "brand:wikidata": "Q668687", "collection_times": "Mo-Fr 16:00; Sa 10:00", "name": "USPS COLLECTION BOX - BLUE BOX", "note": "ON 12/24 AND 12/31, THIS BOX MAY BE COLLECTED AS EARLY AS 12 NOON.", "nsi_id": "unitedstatespostalservice-a77078", "operator": "United States Postal Service", "operator:short": "USPS", "operator:type": "public", "operator:wikidata": "Q668687", "ref": "2760400006"}, "type": "Feature"}
{"dataset_attributes": {"@spider": "usps_collection_boxes", "spider:collection_time": "2023-11-25T08:23:32.202811"}, "geometry": {"coordinates": [-78.595168221, 35.817412938], "type": "Point"}, "id": "UPmzKK26SW733GbVg3jpxXSbhuQ=", "properties": {"@spider": "usps_collection_boxes", "addr:city": "RALEIGH", "addr:country": "US", "addr:full": "2777 BRENTWOOD RD", "addr:postcode": "27604", "addr:state": "NC", "amenity": "post_box", "brand": "United States Postal Service", "brand:wikidata": "Q668687", "collection_times": "Mo-Fr 16:00; Sa 10:00", "name": "USPS COLLECTION BOX - BLUE BOX", "note": "ON 12/24 AND 12/31, THIS BOX MAY BE COLLECTED AS EARLY AS 12 NOON.", "nsi_id": "unitedstatespostalservice-a77078", "operator": "United States Postal Service", "operator:short": "USPS", "operator:type": "public", "operator:wikidata": "Q668687", "ref": "2760400007"}, "type": "Feature"}
{"dataset_attributes": {"@spider": "usps_collection_boxes", "spider:collection_time": "2023-11-25T08:23:32.202811"}, "geometry": {"coordinates": [-78.5871980983, 35.8242415262], "type": "Point"}, "id": "ww2BfD_1LLsgZKDpWGCIpE7-u8w=", "properties": {"@spider": "usps_collection_boxes", "addr:city": "RALEIGH", "addr:country": "US", "addr:full": "3101 STARMOUNT DR", "addr:postcode": "27604", "addr:state": "NC", "amenity": "post_box", "brand": "United States Postal Service", "brand:wikidata": "Q668687", "collection_times": "Mo-Fr 11:00; Sa 10:00", "name": "USPS COLLECTION BOX - BLUE BOX", "nsi_id": "unitedstatespostalservice-a77078", "operator": "United States Postal Service", "operator:short": "USPS", "operator:type": "public", "operator:wikidata": "Q668687", "ref": "2760400010"}, "type": "Feature"}
{"dataset_attributes": {"@spider": "usps_collection_boxes", "spider:collection_time": "2023-11-25T08:23:32.202811"}, "geometry": {"coordinates": [-78.5800584387, 35.8473254866], "type": "Point"}, "id": "jcDotc96Tza9_vUbE-7Ckz0b2BU=", "properties": {"@spider": "usps_collection_boxes", "addr:city": "RALEIGH", "addr:country": "US", "addr:full": "4654 CAPITAL BLVD", "addr:postcode": "27604", "addr:state": "NC", "amenity": "post_box", "brand": "United States Postal Service", "brand:wikidata": "Q668687", "collection_times": "Mo-Fr 11:00; Sa 10:00", "name": "USPS COLLECTION BOX - BLUE BOX", "nsi_id": "unitedstatespostalservice-a77078", "operator": "United States Postal Service", "operator:short": "USPS", "operator:type": "public", "operator:wikidata": "Q668687", "ref": "2760400016"}, "type": "Feature"}
{"dataset_attributes": {"@spider": "usps_collection_boxes", "spider:collection_time": "2023-11-25T08:23:32.202811"}, "geometry": {"coordinates": [-78.57963374, 35.871644368], "type": "Point"}, "id": "Omg-B-XH_kbqi_DOax5yHC6erkM=", "properties": {"@spider": "usps_collection_boxes", "addr:city": "RALEIGH", "addr:country": "US", "addr:full": "6320 CAPITAL BLVD", "addr:postcode": "27604", "addr:state": "NC", "amenity": "post_box", "brand": "United States Postal Service", "brand:wikidata": "Q668687", "collection_times": "Mo-Fr 16:00; Sa 10:00", "name": "USPS COLLECTION BOX - BLUE BOX", "note": "ON 12/24 AND 12/31, THIS BOX MAY BE COLLECTED AS EARLY AS 12 NOON.", "nsi_id": "unitedstatespostalservice-a77078", "operator": "United States Postal Service", "operator:short": "USPS", "operator:type": "public", "operator:wikidata": "Q668687", "ref": "2760400017"}, "type": "Feature"}
{"dataset_attributes": {"@spider": "usps_collection_boxes", "spider:collection_time": "2023-11-25T08:23:32.202811"}, "geometry": {"coordinates": [-78.6024727, 35.820919], "type": "Point"}, "id": "JTqd1PG4ZC6KNso_GSmk371gnYQ=", "properties": {"@spider": "usps_collection_boxes", "addr:city": "RALEIGH", "addr:country": "US", "addr:full": "3000 HIGHWOODS BLVD", "addr:postcode": "27604", "addr:state": "NC", "amenity": "post_box", "brand": "United States Postal Service", "brand:wikidata": "Q668687", "collection_times": "Mo-Fr 16:00; Sa 10:00", "name": "USPS COLLECTION BOX - BLUE BOX", "note": "ON 12/24 AND 12/31, THIS BOX MAY BE COLLECTED AS EARLY AS 12 NOON.", "nsi_id": "unitedstatespostalservice-a77078", "operator": "United States Postal Service", "operator:short": "USPS", "operator:type": "public", "operator:wikidata": "Q668687", "ref": "2760400023"}, "type": "Feature"}
{"dataset_attributes": {"@spider": "usps_collection_boxes", "spider:collection_time": "2023-11-25T08:23:32.202811"}, "geometry": {"coordinates": [-78.5833209, 35.84774], "type": "Point"}, "id": "aJtn0kaEOkoEQKWYbS67bWr2K38=", "properties": {"@spider": "usps_collection_boxes", "addr:city": "RALEIGH", "addr:country": "US", "addr:full": "4600 CAPITAL BLVD", "addr:postcode": "27604", "addr:state": "NC", "amenity": "post_box", "brand": "United States Postal Service", "brand:wikidata": "Q668687", "collection_times": "Mo-Fr 11:00; Sa 10:00", "name": "USPS COLLECTION BOX - BLUE BOX", "nsi_id": "unitedstatespostalservice-a77078", "operator": "United States Postal Service", "operator:short": "USPS", "operator:type": "public", "operator:wikidata": "Q668687", "ref": "2760400025"}, "type": "Feature"}
{"dataset_attributes": {"@spider": "usps_collection_boxes", "spider:collection_time": "2023-11-25T08:23:32.202811"}, "geometry": {"coordinates": [-78.596524959, 35.848506999], "type": "Point"}, "id": "5foD2_WO5UvvfbXhbsd-I3cMdn0=", "properties": {"@spider": "usps_collection_boxes", "addr:city": "RALEIGH", "addr:country": "US", "addr:full": "4901 DEPARTURE DR.", "addr:postcode": "27604", "addr:state": "NC", "amenity": "post_box", "brand": "United States Postal Service", "brand:wikidata": "Q668687", "collection_times": "Mo-Fr 16:00; Sa 10:00", "name": "USPS COLLECTION BOX - BLUE BOX", "note": "ON 12/24 AND 12/31, THIS BOX MAY BE COLLECTED AS EARLY AS 12 NOON.", "nsi_id": "unitedstatespostalservice-a77078", "operator": "United States Postal Service", "operator:short": "USPS", "operator:type": "public", "operator:wikidata": "Q668687", "ref": "2760400027"}, "type": "Feature"}
{"dataset_attributes": {"@spider": "usps_collection_boxes", "spider:collection_time": "2023-11-25T08:23:32.202811"}, "geometry": {"coordinates": [-78.596524959, 35.848506999], "type": "Point"}, "id": "V8fyO9IqqP1plye41QF5JLMKM3c=", "properties": {"@spider": "usps_collection_boxes", "addr:city": "RALEIGH", "addr:country": "US", "addr:full": "4901 DEPARTURE DR.", "addr:postcode": "27604", "addr:state": "NC", "amenity": "post_box", "brand": "United States Postal Service", "brand:wikidata": "Q668687", "collection_times": "Mo-Fr 16:00; Sa 10:00", "name": "USPS COLLECTION BOX - BLUE BOX", "note": "ON 12/24 AND 12/31, THIS BOX MAY BE COLLECTED AS EARLY AS 12 NOON.", "nsi_id": "unitedstatespostalservice-a77078", "operator": "United States Postal Service", "operator:short": "USPS", "operator:type": "public", "operator:wikidata": "Q668687", "ref": "2760400028"}, "type": "Feature"}
{"dataset_attributes": {"@spider": "usps_collection_boxes", "spider:collection_time": "2023-11-25T08:23:32.202811"}, "geometry": {"coordinates": [-78.596524959, 35.848506999], "type": "Point"}, "id": "C3juQ9wyw8Jy4HfAVn480FlB7cE=", "properties": {"@spider": "usps_collection_boxes", "addr:city": "RALEIGH", "addr:country": "US", "addr:full": "4901 DEPARTURE DR.", "addr:postcode": "27604", "addr:state": "NC", "amenity": "post_box", "brand": "United States Postal Service", "brand:wikidata": "Q668687", "collection_times": "Mo-Fr 16:00; Sa 10:00", "name": "USPS COLLECTION BOX - BLUE BOX", "note": "ON 12/24 AND 12/31, THIS BOX MAY BE COLLECTED AS EARLY AS 12 NOON.", "nsi_id": "unitedstatespostalservice-a77078", "operator": "United States Postal Service", "operator:short": "USPS", "operator:type": "public", "operator:wikidata": "Q668687", "ref": "2760400029"}, "type": "Feature"}
{"dataset_attributes": {"@spider": "usps_collection_boxes", "spider:collection_time": "2023-11-25T08:23:32.202811"}, "geometry": {"coordinates": [-78.6384166, 35.788587], "type": "Point"}, "id": "bhhZg_UMZvUQvIwpV3D_n7x8HdY=", "properties": {"@spider": "usps_collection_boxes", "addr:city": "RALEIGH", "addr:country": "US", "addr:full": "15 E PEACE ST", "addr:postcode": "27604", "addr:state": "NC", "amenity": "post_box", "brand": "United States Postal Service", "brand:wikidata": "Q668687", "collection_times": "Mo-Fr 16:00; Sa 10:00", "name": "USPS COLLECTION BOX - BLUE BOX", "note": "ON 12/24 AND 12/31, THIS BOX MAY BE COLLECTED AS EARLY AS 12 NOON.", "nsi_id": "unitedstatespostalservice-a77078", "operator": "United States Postal Service", "operator:short": "USPS", "operator:type": "public", "operator:wikidata": "Q668687", "ref": "2760400034"}, "type": "Feature"}
{"dataset_attributes": {"@spider": "usps_collection_boxes", "spider:collection_time": "2023-11-25T08:23:32.202811"}, "geometry": {"coordinates": [-78.6040004, 35.817339], "type": "Point"}, "id": "_rIE6zrS5YYnwBwbh9nJlCWxvi4=", "properties": {"@spider": "usps_collection_boxes", "addr:city": "RALEIGH", "addr:country": "US", "addr:full": "3101 POPLARWOOD CT", "addr:postcode": "27604", "addr:state": "NC", "amenity": "post_box", "brand": "United States Postal Service", "brand:wikidata": "Q668687", "collection_times": "Mo-Sa 10:00", "name": "USPS COLLECTION BOX - BLUE BOX", "nsi_id": "unitedstatespostalservice-a77078", "operator": "United States Postal Service", "operator:short": "USPS", "operator:type": "public", "operator:wikidata": "Q668687", "ref": "2760400038"}, "type": "Feature"}
{"dataset_attributes": {"@spider": "usps_collection_boxes", "spider:collection_time": "2023-11-25T08:23:32.202811"}, "geometry": {"coordinates": [-78.6039918, 35.817341], "type": "Point"}, "id": "p6oqhkTC5PALHkbl9kJtu_estWs=", "properties": {"@spider": "usps_collection_boxes", "addr:city": "RALEIGH", "addr:country": "US", "addr:full": "3101 POPLARWOOD CT", "addr:postcode": "27604", "addr:state": "NC", "amenity": "post_box", "brand": "United States Postal Service", "brand:wikidata": "Q668687", "collection_times": "Mo-Sa 10:00", "name": "USPS COLLECTION BOX - BLUE BOX", "nsi_id": "unitedstatespostalservice-a77078", "operator": "United States Postal Service", "operator:short": "USPS", "operator:type": "public", "operator:wikidata": "Q668687", "ref": "2760400039"}, "type": "Feature"}
{"dataset_attributes": {"@spider": "usps_collection_boxes", "spider:collection_time": "2023-11-25T08:23:32.202811"}, "geometry": {"coordinates": [-78.6040119, 35.817345], "type": "Point"}, "id": "-eR6lxYZGDXrCC_KE-K0xwqkPOI=", "properties": {"@spider": "usps_collection_boxes", "addr:city": "RALEIGH", "addr:country": "US", "addr:full": "3101 POPLARWOOD CT", "addr:postcode": "27604", "addr:state": "NC", "amenity": "post_box", "brand": "United States Postal Service", "brand:wikidata": "Q668687", "collection_times": "Mo-Sa 10:00", "name": "USPS COLLECTION BOX - BLUE BOX", "nsi_id": "unitedstatespostalservice-a77078", "operator": "United States Postal Service", "operator:short": "USPS", "operator:type": "public", "operator:wikidata": "Q668687", "ref": "2760400041"}, "type": "Feature"}
{"dataset_attributes": {"@spider": "usps_collection_boxes", "spider:collection_time": "2023-11-25T08:23:32.202811"}, "geometry": {"coordinates": [-78.6396213, 35.787141], "type": "Point"}, "id": "H_kgtl7FVALBvsW5YWCaDlYUNUs=", "properties": {"@spider": "usps_collection_boxes", "addr:city": "RALEIGH", "addr:country": "US", "addr:full": "433 N SALISBURY ST", "addr:postcode": "27604", "addr:state": "NC", "amenity": "post_box", "brand": "United States Postal Service", "brand:wikidata": "Q668687", "collection_times": "Mo-Fr 15:00; Sa 10:00", "name": "USPS COLLECTION BOX - BLUE BOX", "note": "ON 12/24 AND 12/31, THIS BOX MAY BE COLLECTED AS EARLY AS 12 NOON.", "nsi_id": "unitedstatespostalservice-a77078", "operator": "United States Postal Service", "operator:short": "USPS", "operator:type": "public", "operator:wikidata": "Q668687", "ref": "2760400043"}, "type": "Feature"}
{"dataset_attributes": {"@spider": "usps_collection_boxes", "spider:collection_time": "2023-11-25T08:23:32.202811"}, "geometry": {"coordinates": [-78.6063804, 35.819457], "type": "Point"}, "id": "ITYsTvKtJgNVipGZQ46z2ZeZAnc=", "properties": {"@spider": "usps_collection_boxes", "addr:city": "RALEIGH", "addr:country": "US", "addr:full": "3100 SMOKETREE CT", "addr:postcode": "27604", "addr:state": "NC", "amenity": "post_box", "brand": "United States Postal Service", "brand:wikidata": "Q668687", "collection_times": "Mo-Fr 15:00; Sa 10:00", "name": "USPS COLLECTION BOX - BLUE BOX", "note": "ON 12/24 AND 12/31, THIS BOX MAY BE COLLECTED AS EARLY AS 12 NOON.", "nsi_id": "unitedstatespostalservice-a77078", "operator": "United States Postal Service", "operator:short": "USPS", "operator:type": "public", "operator:wikidata": "Q668687", "ref": "2760400045"}, "type": "Feature"}
{"dataset_attributes": {"@spider": "usps_collection_boxes", "spider:collection_time": "2023-11-25T08:23:32.202811"}, "geometry": {"coordinates": [-78.6063912, 35.819445], "type": "Point"}, "id": "OvkK2tv_IZK2G3bE8kT2oJv75ls=", "properties": {"@spider": "usps_collection_boxes", "addr:city": "RALEIGH", "addr:country": "US", "addr:full": "3100 SMOKETREE CT", "addr:postcode": "27604", "addr:state": "NC", "amenity": "post_box", "brand": "United States Postal Service", "brand:wikidata": "Q668687", "collection_times": "Mo-Fr 15:00; Sa 10:00", "name": "USPS COLLECTION BOX - BLUE BOX", "note": "ON 12/24 AND 12/31, THIS BOX MAY BE COLLECTED AS EARLY AS 12 NOON.", "nsi_id": "unitedstatespostalservice-a77078", "operator": "United States Postal Service", "operator:short": "USPS", "operator:type": "public", "operator:wikidata": "Q668687", "ref": "2760400046"}, "type": "Feature"}
{"dataset_attributes": {"@spider": "usps_collection_boxes", "spider:collection_time": "2023-11-25T08:23:32.202811"}, "geometry": {"coordinates": [-78.6091494, 35.820548], "type": "Point"}, "id": "H763F785yMuIoVXAEZRXpznqLPo=", "properties": {"@spider": "usps_collection_boxes", "addr:city": "RALEIGH", "addr:country": "US", "addr:full": "3200 BEECHLEAF CT", "addr:postcode": "27604", "addr:state": "NC", "amenity": "post_box", "brand": "United States Postal Service", "brand:wikidata": "Q668687", "collection_times": "Mo-Sa 09:00", "name": "USPS COLLECTION BOX - BLUE BOX", "nsi_id": "unitedstatespostalservice-a77078", "operator": "United States Postal Service", "operator:short": "USPS", "operator:type": "public", "operator:wikidata": "Q668687", "ref": "2760400049"}, "type": "Feature"}
{"dataset_attributes": {"@spider": "usps_collection_boxes", "spider:collection_time": "2023-11-25T08:23:32.202811"}, "geometry": {"coordinates": [-78.6255107, 35.799453], "type": "Point"}, "id": "VajERC2eW15O-L_EsFFkSuDI3Yk=", "properties": {"@spider": "usps_collection_boxes", "addr:city": "RALEIGH", "addr:country": "US", "addr:full": "1526 WAKE FOREST RD", "addr:postcode": "27604", "addr:state": "NC", "amenity": "post_box", "brand": "United States Postal Service", "brand:wikidata": "Q668687", "collection_times": "Mo-Fr 13:00; Sa 10:00", "name": "USPS COLLECTION BOX - BLUE BOX", "note": "ON 12/24 AND 12/31, THIS BOX MAY BE COLLECTED AS EARLY AS 12 NOON.", "nsi_id": "unitedstatespostalservice-a77078", "operator": "United States Postal Service", "operator:short": "USPS", "operator:type": "public", "operator:wikidata": "Q668687", "ref": "2760400054"}, "type": "Feature"}
{"dataset_attributes": {"@spider": "usps_collection_boxes", "spider:collection_time": "2023-11-25T08:23:32.202811"}, "geometry": {"coordinates": [-78.6072784, 35.826096], "type": "Point"}, "id": "1ZZXP8cyyJ95mUeQhrseqglIqUU=", "properties": {"@spider": "usps_collection_boxes", "addr:city": "RALEIGH", "addr:country": "US", "addr:full": "3261 ATLANTIC AVE", "addr:postcode": "27604", "addr:state": "NC", "amenity": "post_box", "brand": "United States Postal Service", "brand:wikidata": "Q668687", "collection_times": "Mo-Sa 09:30", "name": "USPS COLLECTION BOX - BLUE BOX", "nsi_id": "unitedstatespostalservice-a77078", "operator": "United States Postal Service", "operator:short": "USPS", "operator:type": "public", "operator:wikidata": "Q668687", "ref": "2760400057"}, "type": "Feature"}
{"dataset_attributes": {"@spider": "usps_collection_boxes", "spider:collection_time": "2023-11-25T08:23:32.202811"}, "geometry": {"coordinates": [-78.6006599418, 35.8164971686], "type": "Point"}, "id": "wXJQu5iOQlEIL9B6ky183xV7hdk=", "properties": {"@spider": "usps_collection_boxes", "addr:city": "RALEIGH", "addr:country": "US", "addr:full": "2728 CAPITAL BLVD", "addr:postcode": "27604", "addr:state": "NC", "amenity": "post_box", "brand": "United States Postal Service", "brand:wikidata": "Q668687", "collection_times": "Mo-Sa 09:30", "name": "USPS COLLECTION BOX - BLUE BOX", "nsi_id": "unitedstatespostalservice-a77078", "operator": "United States Postal Service", "operator:short": "USPS", "operator:type": "public", "operator:wikidata": "Q668687", "ref": "2760400060"}, "type": "Feature"}
{"dataset_attributes": {"@spider": "usps_collection_boxes", "spider:collection_time": "2023-11-25T08:23:32.202811"}, "geometry": {"coordinates": [-78.6071447, 35.822917], "type": "Point"}, "id": "3ZRlomkM303sQxw2iZ6FMe_Nm8E=", "properties": {"@spider": "usps_collection_boxes", "addr:city": "RALEIGH", "addr:country": "US", "addr:full": "3128 HIGHWOODS BLVD", "addr:postcode": "27604", "addr:state": "NC", "amenity": "post_box", "brand": "United States Postal Service", "brand:wikidata": "Q668687", "collection_times": "Mo-Fr 16:00; Sa 10:00", "name": "USPS COLLECTION BOX - BLUE BOX", "note": "ON 12/24 AND 12/31, THIS BOX MAY BE COLLECTED AS EARLY AS 12 NOON.", "nsi_id": "unitedstatespostalservice-a77078", "operator": "United States Postal Service", "operator:short": "USPS", "operator:type": "public", "operator:wikidata": "Q668687", "ref": "2760400064"}, "type": "Feature"}
{"dataset_attributes": {"@spider": "usps_collection_boxes", "spider:collection_time": "2023-11-25T08:23:32.202811"}, "geometry": {"coordinates": [-78.6071649, 35.822922], "type": "Point"}, "id": "tBUT3eeK_zocQlIoRsJzxd5Boc8=", "properties": {"@spider": "usps_collection_boxes", "addr:city": "RALEIGH", "addr:country": "US", "addr:full": "3128 HIGHWOODS BLVD", "addr:postcode": "27604", "addr:state": "NC", "amenity": "post_box", "brand": "United States Postal Service", "brand:wikidata": "Q668687", "collection_times": "Mo-Fr 16:00; Sa 10:00", "name": "USPS COLLECTION BOX - BLUE BOX", "note": "ON 12/24 AND 12/31, THIS BOX MAY BE COLLECTED AS EARLY AS 12 NOON.", "nsi_id": "unitedstatespostalservice-a77078", "operator": "United States Postal Service", "operator:short": "USPS", "operator:type": "public", "operator:wikidata": "Q668687", "ref": "2760400065"}, "type": "Feature"}
{"dataset_attributes": {"@spider": "usps_collection_boxes", "spider:collection_time": "2023-11-25T08:23:32.202811"}, "geometry": {"coordinates": [-78.595168221, 35.817412938], "type": "Point"}, "id": "9WidOpjwgFNhnj_5ZUuG0-7uruI=", "properties": {"@spider": "usps_collection_boxes", "addr:city": "RALEIGH", "addr:country": "US", "addr:full": "2777 BRENTWOOD RD", "addr:postcode": "27604", "addr:state": "NC", "amenity": "post_box", "brand": "United States Postal Service", "brand:wikidata": "Q668687", "collection_times": "Mo-Fr 16:30", "name": "USPS COLLECTION BOX - PO LOBBY", "note": "ON 12/24 AND 12/31, THIS BOX MAY BE COLLECTED AS EARLY AS 12 NOON.", "nsi_id": "unitedstatespostalservice-a77078", "operator": "United States Postal Service", "operator:short": "USPS", "operator:type": "public", "operator:wikidata": "Q668687", "ref": "2760400073"}, "type": "Feature"}
{"dataset_attributes": {"@spider": "usps_collection_boxes", "spider:collection_time": "2023-11-25T08:23:32.202811"}, "geometry": {"coordinates": [-78.6620024, 35.790332], "type": "Point"}, "id": "kpdgO0aHSzaZdVu2HSuZ3MTReqg=", "properties": {"@spider": "usps_collection_boxes", "addr:city": "RALEIGH", "addr:country": "US", "addr:full": "2113 CAMERON ST", "addr:postcode": "27605", "addr:state": "NC", "amenity": "post_box", "brand": "United States Postal Service", "brand:wikidata": "Q668687", "collection_times": "Mo-Fr 15:00; Sa 10:00", "name": "USPS COLLECTION BOX - BLUE BOX", "note": "ON 12/24 AND 12/31, THIS BOX MAY BE COLLECTED AS EARLY AS 12 NOON.", "nsi_id": "unitedstatespostalservice-a77078", "operator": "United States Postal Service", "operator:short": "USPS", "operator:type": "public", "operator:wikidata": "Q668687", "ref": "2760500002"}, "type": "Feature"}
{"dataset_attributes": {"@spider": "usps_collection_boxes", "spider:collection_time": "2023-11-25T08:23:32.202811"}, "geometry": {"coordinates": [-78.6608070315, 35.7947489926], "type": "Point"}, "id": "WpyBMjnnQFG2a8TFLtxfc8H4w3s=", "properties": {"@spider": "usps_collection_boxes", "addr:city": "RALEIGH", "addr:country": "US", "addr:full": "806 OBERLIN RD", "addr:postcode": "27605", "addr:state": "NC", "amenity": "post_box", "brand": "United States Postal Service", "brand:wikidata": "Q668687", "collection_times": "Mo-Fr 16:00; Sa 10:00", "name": "USPS COLLECTION BOX - BLUE BOX", "note": "ON 12/24 AND 12/31, THIS BOX MAY BE COLLECTED AS EARLY AS 12 NOON.", "nsi_id": "unitedstatespostalservice-a77078", "operator": "United States Postal Service", "operator:short": "USPS", "operator:type": "public", "operator:wikidata": "Q668687", "ref": "2760500004"}, "type": "Feature"}
{"dataset_attributes": {"@spider": "usps_collection_boxes", "spider:collection_time": "2023-11-25T08:23:32.202811"}, "geometry": {"coordinates": [-78.6608070315, 35.7947489926], "type": "Point"}, "id": "ePhGwKi63FvD0lNjG02VWf09D1Y=", "properties": {"@spider": "usps_collection_boxes", "addr:city": "RALEIGH", "addr:country": "US", "addr:full": "806 OBERLIN RD", "addr:postcode": "27605", "addr:state": "NC", "amenity": "post_box", "brand": "United States Postal Service", "brand:wikidata": "Q668687", "collection_times": "Mo-Fr 16:00; Sa 10:00", "name": "USPS COLLECTION BOX - BLUE BOX", "note": "ON 12/24 AND 12/31, THIS BOX MAY BE COLLECTED AS EARLY AS 12 NOON.", "nsi_id": "unitedstatespostalservice-a77078", "operator": "United States Postal Service", "operator:short": "USPS", "operator:type": "public", "operator:wikidata": "Q668687", "ref": "2760500005"}, "type": "Feature"}
{"dataset_attributes": {"@spider": "usps_collection_boxes", "spider:collection_time": "2023-11-25T08:23:32.202811"}, "geometry": {"coordinates": [-78.6608070315, 35.7947489926], "type": "Point"}, "id": "Jg0w6Fvq9pyXosCY0akSqljpJtc=", "properties": {"@spider": "usps_collection_boxes", "addr:city": "RALEIGH", "addr:country": "US", "addr:full": "806 OBERLIN RD", "addr:postcode": "27605", "addr:state": "NC", "amenity": "post_box", "brand": "United States Postal Service", "brand:wikidata": "Q668687", "collection_times": "Mo-Fr 16:00; Sa 10:00", "name": "USPS COLLECTION BOX - BLUE BOX", "note": "ON 12/24 AND 12/31, THIS BOX MAY BE COLLECTED AS EARLY AS 12 NOON.", "nsi_id": "unitedstatespostalservice-a77078", "operator": "United States Postal Service", "operator:short": "USPS", "operator:type": "public", "operator:wikidata": "Q668687", "ref": "2760500006"}, "type": "Feature"}
{"dataset_attributes": {"@spider": "usps_collection_boxes", "spider:collection_time": "2023-11-25T08:23:32.202811"}, "geometry": {"coordinates": [-78.6436465, 35.796021], "type": "Point"}, "id": "8BlHFHlvlGtHES4YKUri7WxtbnU=", "properties": {"@spider": "usps_collection_boxes", "addr:city": "RALEIGH", "addr:country": "US", "addr:full": "1318 DALE ST", "addr:postcode": "27605", "addr:state": "NC", "amenity": "post_box", "brand": "United States Postal Service", "brand:wikidata": "Q668687", "collection_times": "Mo-Sa 10:00", "name": "USPS COLLECTION BOX - BLUE BOX", "nsi_id": "unitedstatespostalservice-a77078", "operator": "United States Postal Service", "operator:short": "USPS", "operator:type": "public", "operator:wikidata": "Q668687", "ref": "2760500010"}, "type": "Feature"}
{"dataset_attributes": {"@spider": "usps_collection_boxes", "spider:collection_time": "2023-11-25T08:23:32.202811"}, "geometry": {"coordinates": [-78.661248, 35.789858], "type": "Point"}, "id": "piRvJAUzQQ9tWCVM5KUfbkSzB_M=", "properties": {"@spider": "usps_collection_boxes", "addr:city": "RALEIGH", "addr:country": "US", "addr:full": "425 DANIELS ST", "addr:postcode": "27605", "addr:state": "NC", "amenity": "post_box", "brand": "United States Postal Service", "brand:wikidata": "Q668687", "collection_times": "Mo-Fr 14:00; Sa 10:00", "name": "USPS COLLECTION BOX - BLUE BOX", "note": "ON 12/24 AND 12/31, THIS BOX MAY BE COLLECTED AS EARLY AS 12 NOON.", "nsi_id": "unitedstatespostalservice-a77078", "operator": "United States Postal Service", "operator:short": "USPS", "operator:type": "public", "operator:wikidata": "Q668687", "ref": "2760500011"}, "type": "Feature"}
{"dataset_attributes": {"@spider": "usps_collection_boxes", "spider:collection_time": "2023-11-25T08:23:32.202811"}, "geometry": {"coordinates": [-78.6620086, 35.788011], "type": "Point"}, "id": "jJ_WJYdALakrLkrVXeltYpWktBc=", "properties": {"@spider": "usps_collection_boxes", "addr:city": "RALEIGH", "addr:country": "US", "addr:full": "219 OBERLIN RD", "addr:postcode": "27605", "addr:state": "NC", "amenity": "post_box", "brand": "United States Postal Service", "brand:wikidata": "Q668687", "collection_times": "Mo-Sa 10:00", "name": "USPS COLLECTION BOX - BLUE BOX", "nsi_id": "unitedstatespostalservice-a77078", "operator": "United States Postal Service", "operator:short": "USPS", "operator:type": "public", "operator:wikidata": "Q668687", "ref": "2760500020"}, "type": "Feature"}
{"dataset_attributes": {"@spider": "usps_collection_boxes", "spider:collection_time": "2023-11-25T08:23:32.202811"}, "geometry": {"coordinates": [-78.662960007, 35.793323985], "type": "Point"}, "id": "JxnHCfKjUYcT3l4CKbt9Q_dYips=", "properties": {"@spider": "usps_collection_boxes", "addr:city": "RALEIGH", "addr:country": "US", "addr:full": "625 OBERLIN RD", "addr:postcode": "27605", "addr:state": "NC", "amenity": "post_box", "brand": "United States Postal Service", "brand:wikidata": "Q668687", "collection_times": "Mo-Sa 09:00", "name": "USPS COLLECTION BOX - BLUE BOX", "nsi_id": "unitedstatespostalservice-a77078", "operator": "United States Postal Service", "operator:short": "USPS", "operator:type": "public", "operator:wikidata": "Q668687", "ref": "2760500023"}, "type": "Feature"}
{"dataset_attributes": {"@spider": "usps_collection_boxes", "spider:collection_time": "2023-11-25T08:23:32.202811"}, "geometry": {"coordinates": [-78.662117039, 35.794912021], "type": "Point"}, "id": "H6TbDQAb0rGLLTV2_eZ84BN_oIo=", "properties": {"@spider": "usps_collection_boxes", "addr:city": "RALEIGH", "addr:country": "US", "addr:full": "801 OBERLIN RD", "addr:postcode": "27605", "addr:state": "NC", "amenity": "post_box", "brand": "United States Postal Service", "brand:wikidata": "Q668687", "collection_times": "Mo-Sa 09:00", "name": "USPS COLLECTION BOX - BLUE BOX", "nsi_id": "unitedstatespostalservice-a77078", "operator": "United States Postal Service", "operator:short": "USPS", "operator:type": "public", "operator:wikidata": "Q668687", "ref": "2760500024"}, "type": "Feature"}
{"dataset_attributes": {"@spider": "usps_collection_boxes", "spider:collection_time": "2023-11-25T08:23:32.202811"}, "geometry": {"coordinates": [-78.6602609, 35.798619], "type": "Point"}, "id": "EfedyRtJV-gbKBm9Crcl6Hh2VEo=", "properties": {"@spider": "usps_collection_boxes", "addr:city": "RALEIGH", "addr:country": "US", "addr:full": "1101 OBERLIN RD", "addr:postcode": "27605", "addr:state": "NC", "amenity": "post_box", "brand": "United States Postal Service", "brand:wikidata": "Q668687", "collection_times": "Mo-Sa 10:00", "name": "USPS COLLECTION BOX - BLUE BOX", "nsi_id": "unitedstatespostalservice-a77078", "operator": "United States Postal Service", "operator:short": "USPS", "operator:type": "public", "operator:wikidata": "Q668687", "ref": "2760500026"}, "type": "Feature"}
{"dataset_attributes": {"@spider": "usps_collection_boxes", "spider:collection_time": "2023-11-25T08:23:32.202811"}, "geometry": {"coordinates": [-78.6575455, 35.79126], "type": "Point"}, "id": "pY7XMAdOEQ73cSVFDlIqJrhfZ8E=", "properties": {"@spider": "usps_collection_boxes", "addr:city": "RALEIGH", "addr:country": "US", "addr:full": "1900 CAMERON ST", "addr:postcode": "27605", "addr:state": "NC", "amenity": "post_box", "brand": "United States Postal Service", "brand:wikidata": "Q668687", "collection_times": "Mo-Fr 15:00; Sa 10:00", "name": "USPS COLLECTION BOX - BLUE BOX", "note": "ON 12/24 AND 12/31, THIS BOX MAY BE COLLECTED AS EARLY AS 12 NOON.", "nsi_id": "unitedstatespostalservice-a77078", "operator": "United States Postal Service", "operator:short": "USPS", "operator:type": "public", "operator:wikidata": "Q668687", "ref": "2760500027"}, "type": "Feature"}
{"dataset_attributes": {"@spider": "usps_collection_boxes", "spider:collection_time": "2023-11-25T08:23:32.202811"}, "geometry": {"coordinates": [-78.6509116, 35.788767], "type": "Point"}, "id": "-pAv_SFnUHqdYOPec_4ORplmXlE=", "properties": {"@spider": "usps_collection_boxes", "addr:city": "RALEIGH", "addr:country": "US", "addr:full": "700 SAINT MARYS ST", "addr:postcode": "27605", "addr:state": "NC", "amenity": "post_box", "brand": "United States Postal Service", "brand:wikidata": "Q668687", "collection_times": "Mo-Fr 13:00; Sa 10:00", "name": "USPS COLLECTION BOX - BLUE BOX", "note": "ON 12/24 AND 12/31, THIS BOX MAY BE COLLECTED AS EARLY AS 12 NOON.", "nsi_id": "unitedstatespostalservice-a77078", "operator": "United States Postal Service", "operator:short": "USPS", "operator:type": "public", "operator:wikidata": "Q668687", "ref": "2760500029"}, "type": "Feature"}
{"dataset_attributes": {"@spider": "usps_collection_boxes", "spider:collection_time": "2023-11-25T08:23:32.202811"}, "geometry": {"coordinates": [-78.6633689, 35.790492], "type": "Point"}, "id": "HK6AqYYRxwe6gkwfzCKPqpzPjkk=", "properties": {"@spider": "usps_collection_boxes", "addr:city": "RALEIGH", "addr:country": "US", "addr:full": "2202 STAFFORD AVE", "addr:postcode": "27605", "addr:state": "NC", "amenity": "post_box", "brand": "United States Postal Service", "brand:wikidata": "Q668687", "collection_times": "Mo-Fr 14:00; Sa 10:00", "name": "USPS COLLECTION BOX - BLUE BOX", "note": "ON 12/24 AND 12/31, THIS BOX MAY BE COLLECTED AS EARLY AS 12 NOON.", "nsi_id": "unitedstatespostalservice-a77078", "operator": "United States Postal Service", "operator:short": "USPS", "operator:type": "public", "operator:wikidata": "Q668687", "ref": "2760500033"}, "type": "Feature"}
{"dataset_attributes": {"@spider": "usps_collection_boxes", "spider:collection_time": "2023-11-25T08:23:32.202811"}, "geometry": {"coordinates": [-78.6503559717, 35.7969859968], "type": "Point"}, "id": "b4w4NW86rm5MwvwL-3gEGmEfciI=", "properties": {"@spider": "usps_collection_boxes", "addr:city": "RALEIGH", "addr:country": "US", "addr:full": "606 WADE AVE", "addr:postcode": "27605", "addr:state": "NC", "amenity": "post_box", "brand": "United States Postal Service", "brand:wikidata": "Q668687", "collection_times": "Mo-Fr 15:00; Sa 10:00", "name": "USPS COLLECTION BOX - BLUE BOX", "note": "ON 12/24 AND 12/31, THIS BOX MAY BE COLLECTED AS EARLY AS 12 NOON.", "nsi_id": "unitedstatespostalservice-a77078", "operator": "United States Postal Service", "operator:short": "USPS", "operator:type": "public", "operator:wikidata": "Q668687", "ref": "2760500035"}, "type": "Feature"}
{"dataset_attributes": {"@spider": "usps_collection_boxes", "spider:collection_time": "2023-11-25T08:23:32.202811"}, "geometry": {"coordinates": [-78.6588552, 35.799047], "type": "Point"}, "id": "9IlfaHzSn5b6tm3XYSDBBB1gPzw=", "properties": {"@spider": "usps_collection_boxes", "addr:city": "RALEIGH", "addr:country": "US", "addr:full": "1029 WADE AVE", "addr:postcode": "27605", "addr:state": "NC", "amenity": "post_box", "brand": "United States Postal Service", "brand:wikidata": "Q668687", "collection_times": "Mo-Fr 15:00; Sa 10:00", "name": "USPS COLLECTION BOX - BLUE BOX", "note": "ON 12/24 AND 12/31, THIS BOX MAY BE COLLECTED AS EARLY AS 12 NOON.", "nsi_id": "unitedstatespostalservice-a77078", "operator": "United States Postal Service", "operator:short": "USPS", "operator:type": "public", "operator:wikidata": "Q668687", "ref": "2760500040"}, "type": "Feature"}
{"dataset_attributes": {"@spider": "usps_collection_boxes", "spider:collection_time": "2023-11-25T08:23:32.202811"}, "geometry": {"coordinates": [-78.6524699, 35.793477], "type": "Point"}, "id": "uCesOHEQGIPjFlul3JavqtZsUkQ=", "properties": {"@spider": "usps_collection_boxes", "addr:city": "RALEIGH", "addr:country": "US", "addr:full": "871 WASHINGTON ST", "addr:postcode": "27605", "addr:state": "NC", "amenity": "post_box", "brand": "United States Postal Service", "brand:wikidata": "Q668687", "collection_times": "Mo-Fr 14:00; Sa 10:00", "name": "USPS COLLECTION BOX - BLUE BOX", "note": "ON 12/24 AND 12/31, THIS BOX MAY BE COLLECTED AS EARLY AS 12 NOON.", "nsi_id": "unitedstatespostalservice-a77078", "operator": "United States Postal Service", "operator:short": "USPS", "operator:type": "public", "operator:wikidata": "Q668687", "ref": "2760500041"}, "type": "Feature"}
{"dataset_attributes": {"@spider": "usps_collection_boxes", "spider:collection_time": "2023-11-25T08:23:32.202811"}, "geometry": {"coordinates": [-78.6470633, 35.796236], "type": "Point"}, "id": "Gd_HtGC6QZvpSXLhTg8qEmXkXTc=", "properties": {"@spider": "usps_collection_boxes", "addr:city": "RALEIGH", "addr:country": "US", "addr:full": "1307 GLENWOOD AVE", "addr:postcode": "27605", "addr:state": "NC", "amenity": "post_box", "brand": "United States Postal Service", "brand:wikidata": "Q668687", "collection_times": "Mo-Fr 11:00; Sa 10:00", "name": "USPS COLLECTION BOX - BLUE BOX", "nsi_id": "unitedstatespostalservice-a77078", "operator": "United States Postal Service", "operator:short": "USPS", "operator:type": "public", "operator:wikidata": "Q668687", "ref": "2760500042"}, "type": "Feature"}
{"dataset_attributes": {"@spider": "usps_collection_boxes", "spider:collection_time": "2023-11-25T08:23:32.202811"}, "geometry": {"coordinates": [-78.661314198, 35.795014137], "type": "Point"}, "id": "0zuErP3BTzFBNwgz-hD4mgFO5AM=", "properties": {"@spider": "usps_collection_boxes", "addr:city": "RALEIGH", "addr:country": "US", "addr:full": "806 OBERLIN RD", "addr:postcode": "27605", "addr:state": "NC", "amenity": "post_box", "brand": "United States Postal Service", "brand:wikidata": "Q668687", "collection_times": "Mo-Fr 16:00", "name": "USPS COLLECTION BOX - PO LOBBY", "note": "ON 12/24 AND 12/31, THIS BOX MAY BE COLLECTED AS EARLY AS 12 NOON.", "nsi_id": "unitedstatespostalservice-a77078", "operator": "United States Postal Service", "operator:short": "USPS", "operator:type": "public", "operator:wikidata": "Q668687", "ref": "2760500044"}, "type": "Feature"}
{"dataset_attributes": {"@spider": "usps_collection_boxes", "spider:collection_time": "2023-11-25T08:23:32.202811"}, "geometry": {"coordinates": [-78.6613141977, 35.7950141371], "type": "Point"}, "id": "gO4t1PyR0A-wcex5DL0qlmixNWo=", "properties": {"@spider": "usps_collection_boxes", "addr:city": "RALEIGH", "addr:country": "US", "addr:full": "806 OBERLIN RD", "addr:postcode": "27605", "addr:state": "NC", "amenity": "post_box", "brand": "United States Postal Service", "brand:wikidata": "Q668687", "collection_times": "Mo-Fr 16:00", "name": "USPS COLLECTION BOX - PO LOBBY", "note": "ON 12/24 AND 12/31, THIS BOX MAY BE COLLECTED AS EARLY AS 12 NOON.", "nsi_id": "unitedstatespostalservice-a77078", "operator": "United States Postal Service", "operator:short": "USPS", "operator:type": "public", "operator:wikidata": "Q668687", "ref": "2760500047"}, "type": "Feature"}
{"dataset_attributes": {"@spider": "usps_collection_boxes", "spider:collection_time": "2023-11-25T08:23:32.202811"}, "geometry": {"coordinates": [-78.675645217, 35.780475061], "type": "Point"}, "id": "kMwuUafk3faiOYhdDga1Uotjnew=", "properties": {"@spider": "usps_collection_boxes", "addr:city": "RALEIGH", "addr:country": "US", "addr:full": "2109 AVENT FERRY RD", "addr:postcode": "27606", "addr:state": "NC", "amenity": "post_box", "brand": "United States Postal Service", "brand:wikidata": "Q668687", "collection_times": "Mo-Fr 11:00; Sa 10:00", "name": "USPS COLLECTION BOX - BLUE BOX", "nsi_id": "unitedstatespostalservice-a77078", "operator": "United States Postal Service", "operator:short": "USPS", "operator:type": "public", "operator:wikidata": "Q668687", "ref": "2760600000"}, "type": "Feature"}
{"dataset_attributes": {"@spider": "usps_collection_boxes", "spider:collection_time": "2023-11-25T08:23:32.202811"}, "geometry": {"coordinates": [-78.6963243, 35.76661], "type": "Point"}, "id": "oTXFl1FpA9U31BzmBCpi207Wso4=", "properties": {"@spider": "usps_collection_boxes", "addr:city": "RALEIGH", "addr:country": "US", "addr:full": "3233 AVENT FERRY RD", "addr:postcode": "27606", "addr:state": "NC", "amenity": "post_box", "brand": "United States Postal Service", "brand:wikidata": "Q668687", "collection_times": "Mo-Fr 16:00; Sa 10:00", "name": "USPS COLLECTION BOX - BLUE BOX", "note": "ON 12/24 AND 12/31, THIS BOX MAY BE COLLECTED AS EARLY AS 12 NOON.", "nsi_id": "unitedstatespostalservice-a77078", "operator": "United States Postal Service", "operator:short": "USPS", "operator:type": "public", "operator:wikidata": "Q668687", "ref": "2760600001"}, "type": "Feature"}
{"dataset_attributes": {"@spider": "usps_collection_boxes", "spider:collection_time": "2023-11-25T08:23:32.202811"}, "geometry": {"coordinates": [-78.7283578, 35.76811], "type": "Point"}, "id": "nEh9aIdlxoDG8BjzQOJxnSLDTUM=", "properties": {"@spider": "usps_collection_boxes", "addr:city": "RALEIGH", "addr:country": "US", "addr:full": "5511 CAPITAL CENTER DR", "addr:postcode": "27606", "addr:state": "NC", "amenity": "post_box", "brand": "United States Postal Service", "brand:wikidata": "Q668687", "collection_times": "Mo-Fr 11:30; Sa 10:00", "name": "USPS COLLECTION BOX - BLUE BOX", "nsi_id": "unitedstatespostalservice-a77078", "operator": "United States Postal Service", "operator:short": "USPS", "operator:type": "public", "operator:wikidata": "Q668687", "ref": "2760600005"}, "type": "Feature"}
{"dataset_attributes": {"@spider": "usps_collection_boxes", "spider:collection_time": "2023-11-25T08:23:32.202811"}, "geometry": {"coordinates": [-78.7283533, 35.768113], "type": "Point"}, "id": "iD0liyfPoWWgaZnfjhxArY1oSGQ=", "properties": {"@spider": "usps_collection_boxes", "addr:city": "RALEIGH", "addr:country": "US", "addr:full": "5511 CAPITAL CENTER DR", "addr:postcode": "27606", "addr:state": "NC", "amenity": "post_box", "brand": "United States Postal Service", "brand:wikidata": "Q668687", "collection_times": "Mo-Fr 11:30; Sa 10:00", "name": "USPS COLLECTION BOX - BLUE BOX", "nsi_id": "unitedstatespostalservice-a77078", "operator": "United States Postal Service", "operator:short": "USPS", "operator:type": "public", "operator:wikidata": "Q668687", "ref": "2760600006"}, "type": "Feature"}
{"dataset_attributes": {"@spider": "usps_collection_boxes", "spider:collection_time": "2023-11-25T08:23:32.202811"}, "geometry": {"coordinates": [-78.6809333, 35.771376], "type": "Point"}, "id": "qs8ZLfwbdLeUwZWzLR7SLxBEB3I=", "properties": {"@spider": "usps_collection_boxes", "addr:city": "RALEIGH", "addr:country": "US", "addr:full": "1001 CAPABILITY DR", "addr:postcode": "27606", "addr:state": "NC", "amenity": "post_box", "brand": "United States Postal Service", "brand:wikidata": "Q668687", "collection_times": "Mo-Fr 14:00; Sa 10:00", "name": "USPS COLLECTION BOX - BLUE BOX", "note": "ON 12/24 AND 12/31, THIS BOX MAY BE COLLECTED AS EARLY AS 12 NOON.", "nsi_id": "unitedstatespostalservice-a77078", "operator": "United States Postal Service", "operator:short": "USPS", "operator:type": "public", "operator:wikidata": "Q668687", "ref": "2760600007"}, "type": "Feature"}
{"dataset_attributes": {"@spider": "usps_collection_boxes", "spider:collection_time": "2023-11-25T08:23:32.202811"}, "geometry": {"coordinates": [-78.7209814, 35.773763], "type": "Point"}, "id": "wVmbMnq6H3qLKZgtzGP_t2cVxYc=", "properties": {"@spider": "usps_collection_boxes", "addr:city": "RALEIGH", "addr:country": "US", "addr:full": "4917 WATERS EDGE DR", "addr:postcode": "27606", "addr:state": "NC", "amenity": "post_box", "brand": "United States Postal Service", "brand:wikidata": "Q668687", "collection_times": "Mo-Fr 16:00; Sa 10:00", "name": "USPS COLLECTION BOX - BLUE BOX", "note": "ON 12/24 AND 12/31, THIS BOX MAY BE COLLECTED AS EARLY AS 12 NOON.", "nsi_id": "unitedstatespostalservice-a77078", "operator": "United States Postal Service", "operator:short": "USPS", "operator:type": "public", "operator:wikidata": "Q668687", "ref": "2760600010"}, "type": "Feature"}
{"dataset_attributes": {"@spider": "usps_collection_boxes", "spider:collection_time": "2023-11-25T08:23:32.202811"}, "geometry": {"coordinates": [-78.7316115, 35.762779], "type": "Point"}, "id": "RVC3dBTMiI3Ick5R_Z68uRNN7bs=", "properties": {"@spider": "usps_collection_boxes", "addr:city": "RALEIGH", "addr:country": "US", "addr:full": "5540 CENTERVIEW DR", "addr:postcode": "27606", "addr:state": "NC", "amenity": "post_box", "brand": "United States Postal Service", "brand:wikidata": "Q668687", "collection_times": "Mo-Fr 12:30; Sa 10:00", "name": "USPS COLLECTION BOX - BLUE BOX", "note": "ON 12/24 AND 12/31, THIS BOX MAY BE COLLECTED AS EARLY AS 12 NOON.", "nsi_id": "unitedstatespostalservice-a77078", "operator": "United States Postal Service", "operator:short": "USPS", "operator:type": "public", "operator:wikidata": "Q668687", "ref": "2760600013"}, "type": "Feature"}
{"dataset_attributes": {"@spider": "usps_collection_boxes", "spider:collection_time": "2023-11-25T08:23:32.202811"}, "geometry": {"coordinates": [-78.7021305, 35.791987], "type": "Point"}, "id": "jKNZSzXbsQ7AI3IePzch0qppH-4=", "properties": {"@spider": "usps_collection_boxes", "addr:city": "RALEIGH", "addr:country": "US", "addr:full": "600 HUTTON ST", "addr:postcode": "27606", "addr:state": "NC", "amenity": "post_box", "brand": "United States Postal Service", "brand:wikidata": "Q668687", "collection_times": "Mo-Fr 11:00; Sa 10:00", "name": "USPS COLLECTION BOX - BLUE BOX", "nsi_id": "unitedstatespostalservice-a77078", "operator": "United States Postal Service", "operator:short": "USPS", "operator:type": "public", "operator:wikidata": "Q668687", "ref": "2760600021"}, "type": "Feature"}
{"dataset_attributes": {"@spider": "usps_collection_boxes", "spider:collection_time": "2023-11-25T08:23:32.202811"}, "geometry": {"coordinates": [-78.7230212, 35.768183], "type": "Point"}, "id": "HcsiP3LQMqDVljRfhQ4tiC6EFWc=", "properties": {"@spider": "usps_collection_boxes", "addr:city": "RALEIGH", "addr:country": "US", "addr:full": "801 JONES FRANKLIN RD", "addr:postcode": "27606", "addr:state": "NC", "amenity": "post_box", "brand": "United States Postal Service", "brand:wikidata": "Q668687", "collection_times": "Mo-Fr 13:00; Sa 10:00", "name": "USPS COLLECTION BOX - BLUE BOX", "note": "ON 12/24 AND 12/31, THIS BOX MAY BE COLLECTED AS EARLY AS 12 NOON.", "nsi_id": "unitedstatespostalservice-a77078", "operator": "United States Postal Service", "operator:short": "USPS", "operator:type": "public", "operator:wikidata": "Q668687", "ref": "2760600022"}, "type": "Feature"}
{"dataset_attributes": {"@spider": "usps_collection_boxes", "spider:collection_time": "2023-11-25T08:23:32.202811"}, "geometry": {"coordinates": [-78.7145738, 35.789531], "type": "Point"}, "id": "y60jNiMT7Qw_o28UFb2pcdhxAis=", "properties": {"@spider": "usps_collection_boxes", "addr:city": "RALEIGH", "addr:country": "US", "addr:full": "200 POWELL DR", "addr:postcode": "27606", "addr:state": "NC", "amenity": "post_box", "brand": "United States Postal Service", "brand:wikidata": "Q668687", "collection_times": "Mo-Fr 13:00; Sa 10:00", "name": "USPS COLLECTION BOX - BLUE BOX", "note": "ON 12/24 AND 12/31, THIS BOX MAY BE COLLECTED AS EARLY AS 12 NOON.", "nsi_id": "unitedstatespostalservice-a77078", "operator": "United States Postal Service", "operator:short": "USPS", "operator:type": "public", "operator:wikidata": "Q668687", "ref": "2760600023"}, "type": "Feature"}
{"dataset_attributes": {"@spider": "usps_collection_boxes", "spider:collection_time": "2023-11-25T08:23:32.202811"}, "geometry": {"coordinates": [-78.7027536, 35.786711], "type": "Point"}, "id": "sem0-rJjamHZY7P0FdA6TczSoBk=", "properties": {"@spider": "usps_collection_boxes", "addr:city": "RALEIGH", "addr:country": "US", "addr:full": "4530 WESTERN BLVD", "addr:postcode": "27606", "addr:state": "NC", "amenity": "post_box", "brand": "United States Postal Service", "brand:wikidata": "Q668687", "collection_times": "Mo-Fr 13:00; Sa 10:00", "name": "USPS COLLECTION BOX - BLUE BOX", "note": "ON 12/24 AND 12/31, THIS BOX MAY BE COLLECTED AS EARLY AS 12 NOON.", "nsi_id": "unitedstatespostalservice-a77078", "operator": "United States Postal Service", "operator:short": "USPS", "operator:type": "public", "operator:wikidata": "Q668687", "ref": "2760600025"}, "type": "Feature"}
{"dataset_attributes": {"@spider": "usps_collection_boxes", "spider:collection_time": "2023-11-25T08:23:32.202811"}, "geometry": {"coordinates": [-78.7207366, 35.784075], "type": "Point"}, "id": "X2r8SJbkjnMQ7fDEfLn2MZUterU=", "properties": {"@spider": "usps_collection_boxes", "addr:city": "RALEIGH", "addr:country": "US", "addr:full": "5500 WESTERN BLVD", "addr:postcode": "27606", "addr:state": "NC", "amenity": "post_box", "brand": "United States Postal Service", "brand:wikidata": "Q668687", "collection_times": "Mo-Fr 13:00; Sa 10:00", "name": "USPS COLLECTION BOX - BLUE BOX", "note": "ON 12/24 AND 12/31, THIS BOX MAY BE COLLECTED AS EARLY AS 12 NOON.", "nsi_id": "unitedstatespostalservice-a77078", "operator": "United States Postal Service", "operator:short": "USPS", "operator:type": "public", "operator:wikidata": "Q668687", "ref": "2760600026"}, "type": "Feature"}
{"dataset_attributes": {"@spider": "usps_collection_boxes", "spider:collection_time": "2023-11-25T08:23:32.202811"}, "geometry": {"coordinates": [-78.6766879, 35.770971], "type": "Point"}, "id": "i4sPBa_xZl_JrurBmT3LO7NNwNE=", "properties": {"@spider": "usps_collection_boxes", "addr:city": "RALEIGH", "addr:country": "US", "addr:full": "1017 MAIN CAMPUS DR", "addr:postcode": "27606", "addr:state": "NC", "amenity": "post_box", "brand": "United States Postal Service", "brand:wikidata": "Q668687", "collection_times": "Mo-Fr 14:00; Sa 10:00", "name": "USPS COLLECTION BOX - BLUE BOX", "note": "ON 12/24 AND 12/31, THIS BOX MAY BE COLLECTED AS EARLY AS 12 NOON.", "nsi_id": "unitedstatespostalservice-a77078", "operator": "United States Postal Service", "operator:short": "USPS", "operator:type": "public", "operator:wikidata": "Q668687", "ref": "2760600027"}, "type": "Feature"}
{"dataset_attributes": {"@spider": "usps_collection_boxes", "spider:collection_time": "2023-11-25T08:23:32.202811"}, "geometry": {"coordinates": [-78.7076021356, 35.7508454946], "type": "Point"}, "id": "WOoYPfmVg0A57uM_daMHLD-3b3Q=", "properties": {"@spider": "usps_collection_boxes", "addr:city": "RALEIGH", "addr:country": "US", "addr:full": "2100 LAKE DAM RD", "addr:postcode": "27606", "addr:state": "NC", "amenity": "post_box", "brand": "United States Postal Service", "brand:wikidata": "Q668687", "collection_times": "Mo-Fr 14:30; Sa 10:00", "name": "USPS COLLECTION BOX - BLUE BOX", "note": "ON 12/24 AND 12/31, THIS BOX MAY BE COLLECTED AS EARLY AS 12 NOON.", "nsi_id": "unitedstatespostalservice-a77078", "operator": "United States Postal Service", "operator:short": "USPS", "operator:type": "public", "operator:wikidata": "Q668687", "ref": "2760600028"}, "type": "Feature"}
{"dataset_attributes": {"@spider": "usps_collection_boxes", "spider:collection_time": "2023-11-25T08:23:32.202811"}, "geometry": {"coordinates": [-78.7420523733, 35.7658550585], "type": "Point"}, "id": "H29ypVEZCpPHUm_vL-8fHgSTx68=", "properties": {"@spider": "usps_collection_boxes", "addr:city": "RALEIGH", "addr:country": "US", "addr:full": "1299 BUCK JONES RD", "addr:postcode": "27606", "addr:state": "NC", "amenity": "post_box", "brand": "United States Postal Service", "brand:wikidata": "Q668687", "collection_times": "Mo-Fr 14:30; Sa 13:00", "name": "USPS COLLECTION BOX - BLUE BOX", "note": "ON 12/24 AND 12/31, THIS BOX MAY BE COLLECTED AS EARLY AS 12 NOON.", "nsi_id": "unitedstatespostalservice-a77078", "operator": "United States Postal Service", "operator:short": "USPS", "operator:type": "public", "operator:wikidata": "Q668687", "ref": "2760600030"}, "type": "Feature"}
{"dataset_attributes": {"@spider": "usps_collection_boxes", "spider:collection_time": "2023-11-25T08:23:32.202811"}, "geometry": {"coordinates": [-78.6974343, 35.665141], "type": "Point"}, "id": "CqbR48jh7J3yxhtZHZclx9-88_M=", "properties": {"@spider": "usps_collection_boxes", "addr:city": "RALEIGH", "addr:country": "US", "addr:full": "7971 FAYETTEVILLE RD", "addr:postcode": "27606", "addr:state": "NC", "amenity": "post_box", "brand": "United States Postal Service", "brand:wikidata": "Q668687", "collection_times": "Mo-Fr 13:00; Sa 10:00", "name": "USPS COLLECTION BOX - BLUE BOX", "note": "ON 12/24 AND 12/31, THIS BOX MAY BE COLLECTED AS EARLY AS 12 NOON.", "nsi_id": "unitedstatespostalservice-a77078", "operator": "United States Postal Service", "operator:short": "USPS", "operator:type": "public", "operator:wikidata": "Q668687", "ref": "2760600031"}, "type": "Feature"}
{"dataset_attributes": {"@spider": "usps_collection_boxes", "spider:collection_time": "2023-11-25T08:23:32.202811"}, "geometry": {"coordinates": [-78.6601299, 35.780659], "type": "Point"}, "id": "VZpnciKekUhpH0guiwl713lILUk=", "properties": {"@spider": "usps_collection_boxes", "addr:city": "RALEIGH", "addr:country": "US", "addr:full": "301 ASHE AVE", "addr:postcode": "27606", "addr:state": "NC", "amenity": "post_box", "brand": "United States Postal Service", "brand:wikidata": "Q668687", "collection_times": "Mo-Sa 10:00", "name": "USPS COLLECTION BOX - BLUE BOX", "nsi_id": "unitedstatespostalservice-a77078", "operator": "United States Postal Service", "operator:short": "USPS", "operator:type": "public", "operator:wikidata": "Q668687", "ref": "2760600032"}, "type": "Feature"}
{"dataset_attributes": {"@spider": "usps_collection_boxes", "spider:collection_time": "2023-11-25T08:23:32.202811"}, "geometry": {"coordinates": [-78.707557, 35.750858], "type": "Point"}, "id": "CwP3HPw83RRYjtoLD67PPkAVZIo=", "properties": {"@spider": "usps_collection_boxes", "addr:city": "RALEIGH", "addr:country": "US", "addr:full": "2100 LAKE DAM RD", "addr:postcode": "27606", "addr:state": "NC", "amenity": "post_box", "brand": "United States Postal Service", "brand:wikidata": "Q668687", "collection_times": "Mo-Fr 17:00; Sa 12:00", "name": "USPS COLLECTION BOX - PO LOBBY", "note": "ON 12/24 AND 12/31, THIS BOX MAY BE COLLECTED AS EARLY AS 12 NOON.", "nsi_id": "unitedstatespostalservice-a77078", "operator": "United States Postal Service", "operator:short": "USPS", "operator:type": "public", "operator:wikidata": "Q668687", "ref": "2760600033"}, "type": "Feature"}
{"dataset_attributes": {"@spider": "usps_collection_boxes", "spider:collection_time": "2023-11-25T08:23:32.202811"}, "geometry": {"coordinates": [-78.7075945049, 35.7508617565], "type": "Point"}, "id": "3H8sGnSDSPwgpYOwqv10WAaDDXo=", "properties": {"@spider": "usps_collection_boxes", "addr:city": "RALEIGH", "addr:country": "US", "addr:full": "2100 LAKE DAM RD", "addr:postcode": "27606", "addr:state": "NC", "amenity": "post_box", "brand": "United States Postal Service", "brand:wikidata": "Q668687", "collection_times": "Mo-Fr 17:00; Sa 12:00", "name": "USPS COLLECTION BOX - PO LOBBY", "note": "ON 12/24 AND 12/31, THIS BOX MAY BE COLLECTED AS EARLY AS 12 NOON.", "nsi_id": "unitedstatespostalservice-a77078", "operator": "United States Postal Service", "operator:short": "USPS", "operator:type": "public", "operator:wikidata": "Q668687", "ref": "2760600035"}, "type": "Feature"}
{"dataset_attributes": {"@spider": "usps_collection_boxes", "spider:collection_time": "2023-11-25T08:23:32.202811"}, "geometry": {"coordinates": [-78.7081869965, 35.815508997], "type": "Point"}, "id": "VB6reL9VvRLMaelNDOJ9_mXR_0Y=", "properties": {"@spider": "usps_collection_boxes", "addr:city": "RALEIGH", "addr:country": "US", "addr:full": "4601 LAKE BOONE TRL", "addr:postcode": "27607", "addr:state": "NC", "amenity": "post_box", "brand": "United States Postal Service", "brand:wikidata": "Q668687", "collection_times": "Mo-Fr 14:00; Sa 10:00", "name": "USPS COLLECTION BOX - BLUE BOX", "note": "ON 12/24 AND 12/31, THIS BOX MAY BE COLLECTED AS EARLY AS 12 NOON.", "nsi_id": "unitedstatespostalservice-a77078", "operator": "United States Postal Service", "operator:short": "USPS", "operator:type": "public", "operator:wikidata": "Q668687", "ref": "2760700002"}, "type": "Feature"}
{"dataset_attributes": {"@spider": "usps_collection_boxes", "spider:collection_time": "2023-11-25T08:23:32.202811"}, "geometry": {"coordinates": [-78.7035806, 35.81904], "type": "Point"}, "id": "t7CfAKEf5ANJ_tg102x_M0Fyt0A=", "properties": {"@spider": "usps_collection_boxes", "addr:city": "RALEIGH", "addr:country": "US", "addr:full": "2800 BLUE RIDGE RD", "addr:postcode": "27607", "addr:state": "NC", "amenity": "post_box", "brand": "United States Postal Service", "brand:wikidata": "Q668687", "collection_times": "Mo-Fr 13:00; Sa 10:00", "name": "USPS COLLECTION BOX - BLUE BOX", "note": "ON 12/24 AND 12/31, THIS BOX MAY BE COLLECTED AS EARLY AS 12 NOON.", "nsi_id": "unitedstatespostalservice-a77078", "operator": "United States Postal Service", "operator:short": "USPS", "operator:type": "public", "operator:wikidata": "Q668687", "ref": "2760700004"}, "type": "Feature"}
{"dataset_attributes": {"@spider": "usps_collection_boxes", "spider:collection_time": "2023-11-25T08:23:32.202811"}, "geometry": {"coordinates": [-78.7076528, 35.815287], "type": "Point"}, "id": "IjAFbjinoa6mRyOqewKSSW5sRAU=", "properties": {"@spider": "usps_collection_boxes", "addr:city": "RALEIGH", "addr:country": "US", "addr:full": "4601 LAKE BOONE TRL", "addr:postcode": "27607", "addr:state": "NC", "amenity": "post_box", "brand": "United States Postal Service", "brand:wikidata": "Q668687", "collection_times": "Mo-Fr 14:00; Sa 10:00", "name": "USPS COLLECTION BOX - BLUE BOX", "note": "ON 12/24 AND 12/31, THIS BOX MAY BE COLLECTED AS EARLY AS 12 NOON.", "nsi_id": "unitedstatespostalservice-a77078", "operator": "United States Postal Service", "operator:short": "USPS", "operator:type": "public", "operator:wikidata": "Q668687", "ref": "2760700006"}, "type": "Feature"}
{"dataset_attributes": {"@spider": "usps_collection_boxes", "spider:collection_time": "2023-11-25T08:23:32.202811"}, "geometry": {"coordinates": [-78.6938528, 35.81705], "type": "Point"}, "id": "Jx86_zzP6hleTce5582MhJO2q6c=", "properties": {"@spider": "usps_collection_boxes", "addr:city": "RALEIGH", "addr:country": "US", "addr:full": "3800 LAKE BOONE TRL", "addr:postcode": "27607", "addr:state": "NC", "amenity": "post_box", "brand": "United States Postal Service", "brand:wikidata": "Q668687", "collection_times": "Mo-Fr 16:00; Sa 10:00", "name": "USPS COLLECTION BOX - BLUE BOX", "note": "ON 12/24 AND 12/31, THIS BOX MAY BE COLLECTED AS EARLY AS 12 NOON.", "nsi_id": "unitedstatespostalservice-a77078", "operator": "United States Postal Service", "operator:short": "USPS", "operator:type": "public", "operator:wikidata": "Q668687", "ref": "2760700007"}, "type": "Feature"}
{"dataset_attributes": {"@spider": "usps_collection_boxes", "spider:collection_time": "2023-11-25T08:23:32.202811"}, "geometry": {"coordinates": [-78.7481647, 35.794637], "type": "Point"}, "id": "smL_rZ6lZDIEARcAVDqBfZkc0HI=", "properties": {"@spider": "usps_collection_boxes", "addr:city": "RALEIGH", "addr:country": "US", "addr:full": "7400 CHAPEL HILL RD", "addr:postcode": "27607", "addr:state": "NC", "amenity": "post_box", "brand": "United States Postal Service", "brand:wikidata": "Q668687", "collection_times": "Mo-Sa 10:00", "name": "USPS COLLECTION BOX - BLUE BOX", "nsi_id": "unitedstatespostalservice-a77078", "operator": "United States Postal Service", "operator:short": "USPS", "operator:type": "public", "operator:wikidata": "Q668687", "ref": "2760700011"}, "type": "Feature"}
{"dataset_attributes": {"@spider": "usps_collection_boxes", "spider:collection_time": "2023-11-25T08:23:32.202811"}, "geometry": {"coordinates": [-78.749800966, 35.794924007], "type": "Point"}, "id": "fGIr3B8-DjB2Wo6tDgALdXz123Q=", "properties": {"@spider": "usps_collection_boxes", "addr:city": "RALEIGH", "addr:country": "US", "addr:full": "7424 CHAPEL HILL RD", "addr:postcode": "27607", "addr:state": "NC", "amenity": "post_box", "brand": "United States Postal Service", "brand:wikidata": "Q668687", "collection_times": "Mo-Sa 10:00", "name": "USPS COLLECTION BOX - BLUE BOX", "nsi_id": "unitedstatespostalservice-a77078", "operator": "United States Postal Service", "operator:short": "USPS", "operator:type": "public", "operator:wikidata": "Q668687", "ref": "2760700012"}, "type": "Feature"}
{"dataset_attributes": {"@spider": "usps_collection_boxes", "spider:collection_time": "2023-11-25T08:23:32.202811"}, "geometry": {"coordinates": [-78.6769264, 35.809698], "type": "Point"}, "id": "W2DrEHRq2LDllFVmGBkhe0Ex8SE=", "properties": {"@spider": "usps_collection_boxes", "addr:city": "RALEIGH", "addr:country": "US", "addr:full": "3051 MEDLIN DR", "addr:postcode": "27607", "addr:state": "NC", "amenity": "post_box", "brand": "United States Postal Service", "brand:wikidata": "Q668687", "collection_times": "Mo-Fr 12:30; Sa 10:00", "name": "USPS COLLECTION BOX - BLUE BOX", "note": "ON 12/24 AND 12/31, THIS BOX MAY BE COLLECTED AS EARLY AS 12 NOON.", "nsi_id": "unitedstatespostalservice-a77078", "operator": "United States Postal Service", "operator:short": "USPS", "operator:type": "public", "operator:wikidata": "Q668687", "ref": "2760700015"}, "type": "Feature"}
{"dataset_attributes": {"@spider": "usps_collection_boxes", "spider:collection_time": "2023-11-25T08:23:32.202811"}, "geometry": {"coordinates": [-78.6941589595, 35.8151779956], "type": "Point"}, "id": "PYdfym9VTx7qHhe0Ew5XuJeOjRo=", "properties": {"@spider": "usps_collection_boxes", "addr:city": "RALEIGH", "addr:country": "US", "addr:full": "3300 DRAKE CIR", "addr:postcode": "27607", "addr:state": "NC", "amenity": "post_box", "brand": "United States Postal Service", "brand:wikidata": "Q668687", "collection_times": "Mo-Fr 14:00; Sa 10:00", "name": "USPS COLLECTION BOX - BLUE BOX", "note": "ON 12/24 AND 12/31, THIS BOX MAY BE COLLECTED AS EARLY AS 12 NOON.", "nsi_id": "unitedstatespostalservice-a77078", "operator": "United States Postal Service", "operator:short": "USPS", "operator:type": "public", "operator:wikidata": "Q668687", "ref": "2760700017"}, "type": "Feature"}
{"dataset_attributes": {"@spider": "usps_collection_boxes", "spider:collection_time": "2023-11-25T08:23:32.202811"}, "geometry": {"coordinates": [-78.6938599, 35.81703], "type": "Point"}, "id": "PhoRuFDUsleJUCJhVM474UO4SAk=", "properties": {"@spider": "usps_collection_boxes", "addr:city": "RALEIGH", "addr:country": "US", "addr:full": "3800 LAKE BOONE TRL", "addr:postcode": "27607", "addr:state": "NC", "amenity": "post_box", "brand": "United States Postal Service", "brand:wikidata": "Q668687", "collection_times": "Mo-Fr 16:00; Sa 10:00", "name": "USPS COLLECTION BOX - BLUE BOX", "note": "ON 12/24 AND 12/31, THIS BOX MAY BE COLLECTED AS EARLY AS 12 NOON.", "nsi_id": "unitedstatespostalservice-a77078", "operator": "United States Postal Service", "operator:short": "USPS", "operator:type": "public", "operator:wikidata": "Q668687", "ref": "2760700027"}, "type": "Feature"}
{"dataset_attributes": {"@spider": "usps_collection_boxes", "spider:collection_time": "2023-11-25T08:23:32.202811"}, "geometry": {"coordinates": [-78.7031921, 35.817155], "type": "Point"}, "id": "2a8SdAJzE3lgeCii8smLO5Nokgc=", "properties": {"@spider": "usps_collection_boxes", "addr:city": "RALEIGH", "addr:country": "US", "addr:full": "4420 LAKE BOONE TRL", "addr:postcode": "27607", "addr:state": "NC", "amenity": "post_box", "brand": "United States Postal Service", "brand:wikidata": "Q668687", "collection_times": "Mo-Fr 13:00; Sa 10:00", "name": "USPS COLLECTION BOX - BLUE BOX", "note": "ON 12/24 AND 12/31, THIS BOX MAY BE COLLECTED AS EARLY AS 12 NOON.", "nsi_id": "unitedstatespostalservice-a77078", "operator": "United States Postal Service", "operator:short": "USPS", "operator:type": "public", "operator:wikidata": "Q668687", "ref": "2760700030"}, "type": "Feature"}
{"dataset_attributes": {"@spider": "usps_collection_boxes", "spider:collection_time": "2023-11-25T08:23:32.202811"}, "geometry": {"coordinates": [-78.6662439, 35.785336], "type": "Point"}, "id": "DpRkcH2fQupGyvrk5ktRcic9qXY=", "properties": {"@spider": "usps_collection_boxes", "addr:city": "RALEIGH", "addr:country": "US", "addr:full": "2300 STINSON DR", "addr:postcode": "27607", "addr:state": "NC", "amenity": "post_box", "brand": "United States Postal Service", "brand:wikidata": "Q668687", "collection_times": "Mo-Fr 13:00; Sa 10:00", "name": "USPS COLLECTION BOX - BLUE BOX", "note": "ON 12/24 AND 12/31, THIS BOX MAY BE COLLECTED AS EARLY AS 12 NOON.", "nsi_id": "unitedstatespostalservice-a77078", "operator": "United States Postal Service", "operator:short": "USPS", "operator:type": "public", "operator:wikidata": "Q668687", "ref": "2760700034"}, "type": "Feature"}
{"dataset_attributes": {"@spider": "usps_collection_boxes", "spider:collection_time": "2023-11-25T08:23:32.202811"}, "geometry": {"coordinates": [-78.6871919, 35.802331], "type": "Point"}, "id": "jNV69Fh5AwCB5EDJZ37YRdSlvmo=", "properties": {"@spider": "usps_collection_boxes", "addr:city": "RALEIGH", "addr:country": "US", "addr:full": "1200 RIDGE RD", "addr:postcode": "27607", "addr:state": "NC", "amenity": "post_box", "brand": "United States Postal Service", "brand:wikidata": "Q668687", "collection_times": "Mo-Fr 12:30; Sa 10:00", "name": "USPS COLLECTION BOX - BLUE BOX", "note": "ON 12/24 AND 12/31, THIS BOX MAY BE COLLECTED AS EARLY AS 12 NOON.", "nsi_id": "unitedstatespostalservice-a77078", "operator": "United States Postal Service", "operator:short": "USPS", "operator:type": "public", "operator:wikidata": "Q668687", "ref": "2760700035"}, "type": "Feature"}
{"dataset_attributes": {"@spider": "usps_collection_boxes", "spider:collection_time": "2023-11-25T08:23:32.202811"}, "geometry": {"coordinates": [-78.6705647, 35.785893], "type": "Point"}, "id": "3lWstyFFzBRTntvkZiAa97OJWzc=", "properties": {"@spider": "usps_collection_boxes", "addr:city": "RALEIGH", "addr:country": "US", "addr:full": "2600 STINSON DR", "addr:postcode": "27607", "addr:state": "NC", "amenity": "post_box", "brand": "United States Postal Service", "brand:wikidata": "Q668687", "collection_times": "Mo-Fr 13:00; Sa 10:00", "name": "USPS COLLECTION BOX - BLUE BOX", "note": "ON 12/24 AND 12/31, THIS BOX MAY BE COLLECTED AS EARLY AS 12 NOON.", "nsi_id": "unitedstatespostalservice-a77078", "operator": "United States Postal Service", "operator:short": "USPS", "operator:type": "public", "operator:wikidata": "Q668687", "ref": "2760700040"}, "type": "Feature"}
{"dataset_attributes": {"@spider": "usps_collection_boxes", "spider:collection_time": "2023-11-25T08:23:32.202811"}, "geometry": {"coordinates": [-78.7091949, 35.80212], "type": "Point"}, "id": "tJwI-d4ae6e3HXxW4uRxV9TCyIw=", "properties": {"@spider": "usps_collection_boxes", "addr:city": "RALEIGH", "addr:country": "US", "addr:full": "4000 WESTCHASE BLVD", "addr:postcode": "27607", "addr:state": "NC", "amenity": "post_box", "brand": "United States Postal Service", "brand:wikidata": "Q668687", "collection_times": "Mo-Fr 16:00; Sa 10:00", "name": "USPS COLLECTION BOX - BLUE BOX", "note": "ON 12/24 AND 12/31, THIS BOX MAY BE COLLECTED AS EARLY AS 12 NOON.", "nsi_id": "unitedstatespostalservice-a77078", "operator": "United States Postal Service", "operator:short": "USPS", "operator:type": "public", "operator:wikidata": "Q668687", "ref": "2760700041"}, "type": "Feature"}
{"dataset_attributes": {"@spider": "usps_collection_boxes", "spider:collection_time": "2023-11-25T08:23:32.202811"}, "geometry": {"coordinates": [-78.7097419, 35.802291], "type": "Point"}, "id": "otn1KLKG461SAlYPJTvmP-jrU-w=", "properties": {"@spider": "usps_collection_boxes", "addr:city": "RALEIGH", "addr:country": "US", "addr:full": "4020 WESTCHASE BLVD", "addr:postcode": "27607", "addr:state": "NC", "amenity": "post_box", "brand": "United States Postal Service", "brand:wikidata": "Q668687", "collection_times": "Mo-Fr 16:00; Sa 10:00", "name": "USPS COLLECTION BOX - BLUE BOX", "note": "ON 12/24 AND 12/31, THIS BOX MAY BE COLLECTED AS EARLY AS 12 NOON.", "nsi_id": "unitedstatespostalservice-a77078", "operator": "United States Postal Service", "operator:short": "USPS", "operator:type": "public", "operator:wikidata": "Q668687", "ref": "2760700045"}, "type": "Feature"}
{"dataset_attributes": {"@spider": "usps_collection_boxes", "spider:collection_time": "2023-11-25T08:23:32.202811"}, "geometry": {"coordinates": [-78.7097381, 35.80228], "type": "Point"}, "id": "3b5dCGck8cCwncAVUzfSNDE0GHY=", "properties": {"@spider": "usps_collection_boxes", "addr:city": "RALEIGH", "addr:country": "US", "addr:full": "4020 WESTCHASE BLVD", "addr:postcode": "27607", "addr:state": "NC", "amenity": "post_box", "brand": "United States Postal Service", "brand:wikidata": "Q668687", "collection_times": "Mo-Fr 16:00; Sa 10:00", "name": "USPS COLLECTION BOX - BLUE BOX", "note": "ON 12/24 AND 12/31, THIS BOX MAY BE COLLECTED AS EARLY AS 12 NOON.", "nsi_id": "unitedstatespostalservice-a77078", "operator": "United States Postal Service", "operator:short": "USPS", "operator:type": "public", "operator:wikidata": "Q668687", "ref": "2760700046"}, "type": "Feature"}
{"dataset_attributes": {"@spider": "usps_collection_boxes", "spider:collection_time": "2023-11-25T08:23:32.202811"}, "geometry": {"coordinates": [-78.670235, 35.793815], "type": "Point"}, "id": "EVOvSFO8C5OxAxHe4bAyWX3-S50=", "properties": {"@spider": "usps_collection_boxes", "addr:city": "RALEIGH", "addr:country": "US", "addr:full": "3915 BERYL RD", "addr:postcode": "27607", "addr:state": "NC", "amenity": "post_box", "brand": "United States Postal Service", "brand:wikidata": "Q668687", "collection_times": "Mo-Fr 16:00; Sa 10:00", "name": "USPS COLLECTION BOX - BLUE BOX", "note": "ON 12/24 AND 12/31, THIS BOX MAY BE COLLECTED AS EARLY AS 12 NOON.", "nsi_id": "unitedstatespostalservice-a77078", "operator": "United States Postal Service", "operator:short": "USPS", "operator:type": "public", "operator:wikidata": "Q668687", "ref": "2760700050"}, "type": "Feature"}
{"dataset_attributes": {"@spider": "usps_collection_boxes", "spider:collection_time": "2023-11-25T08:23:32.202811"}, "geometry": {"coordinates": [-78.670235, 35.793815], "type": "Point"}, "id": "l3hfHVrYGmnUWN699Q54j2Z4MtM=", "properties": {"@spider": "usps_collection_boxes", "addr:city": "RALEIGH", "addr:country": "US", "addr:full": "3915 BERYL RD", "addr:postcode": "27607", "addr:state": "NC", "amenity": "post_box", "brand": "United States Postal Service", "brand:wikidata": "Q668687", "collection_times": "Mo-Fr 16:00; Sa 10:00", "name": "USPS COLLECTION BOX - BLUE BOX", "note": "ON 12/24 AND 12/31, THIS BOX MAY BE COLLECTED AS EARLY AS 12 NOON.", "nsi_id": "unitedstatespostalservice-a77078", "operator": "United States Postal Service", "operator:short": "USPS", "operator:type": "public", "operator:wikidata": "Q668687", "ref": "2760700051"}, "type": "Feature"}
{"dataset_attributes": {"@spider": "usps_collection_boxes", "spider:collection_time": "2023-11-25T08:23:32.202811"}, "geometry": {"coordinates": [-78.670235, 35.793815], "type": "Point"}, "id": "9RavdUk9GerTU2RBX08lF9zH4Kk=", "properties": {"@spider": "usps_collection_boxes", "addr:city": "RALEIGH", "addr:country": "US", "addr:full": "3915 BERYL RD", "addr:postcode": "27607", "addr:state": "NC", "amenity": "post_box", "brand": "United States Postal Service", "brand:wikidata": "Q668687", "collection_times": "Mo-Fr 16:00; Sa 10:00", "name": "USPS COLLECTION BOX - BLUE BOX", "note": "ON 12/24 AND 12/31, THIS BOX MAY BE COLLECTED AS EARLY AS 12 NOON.", "nsi_id": "unitedstatespostalservice-a77078", "operator": "United States Postal Service", "operator:short": "USPS", "operator:type": "public", "operator:wikidata": "Q668687", "ref": "2760700052"}, "type": "Feature"}
{"dataset_attributes": {"@spider": "usps_collection_boxes", "spider:collection_time": "2023-11-25T08:23:32.202811"}, "geometry": {"coordinates": [-78.70525867, 35.815142087], "type": "Point"}, "id": "t14lL9TZVYpGVF0N_ZT9y7QDXRk=", "properties": {"@spider": "usps_collection_boxes", "addr:city": "RALEIGH", "addr:country": "US", "addr:full": "2500 BLUE RIDGE RD", "addr:postcode": "27607", "addr:state": "NC", "amenity": "post_box", "brand": "United States Postal Service", "brand:wikidata": "Q668687", "collection_times": "Mo-Fr 13:00; Sa 10:00", "name": "USPS COLLECTION BOX - BLUE BOX", "note": "ON 12/24 AND 12/31, THIS BOX MAY BE COLLECTED AS EARLY AS 12 NOON.", "nsi_id": "unitedstatespostalservice-a77078", "operator": "United States Postal Service", "operator:short": "USPS", "operator:type": "public", "operator:wikidata": "Q668687", "ref": "2760700063"}, "type": "Feature"}
{"dataset_attributes": {"@spider": "usps_collection_boxes", "spider:collection_time": "2023-11-25T08:23:32.202811"}, "geometry": {"coordinates": [-78.6924239506, 35.7943556705], "type": "Point"}, "id": "4VNIPkQv4BSvhJQqq_UnSi_nRlQ=", "properties": {"@spider": "usps_collection_boxes", "addr:city": "RALEIGH", "addr:country": "US", "addr:full": "3919 BERYL RD", "addr:postcode": "27607", "addr:state": "NC", "amenity": "post_box", "brand": "United States Postal Service", "brand:wikidata": "Q668687", "collection_times": "Mo-Fr 16:30", "name": "USPS COLLECTION BOX - PO LOBBY", "note": "ON 12/24 AND 12/31, THIS BOX MAY BE COLLECTED AS EARLY AS 12 NOON.", "nsi_id": "unitedstatespostalservice-a77078", "operator": "United States Postal Service", "operator:short": "USPS", "operator:type": "public", "operator:wikidata": "Q668687", "ref": "2760700075"}, "type": "Feature"}
{"dataset_attributes": {"@spider": "usps_collection_boxes", "spider:collection_time": "2023-11-25T08:23:32.202811"}, "geometry": {"coordinates": [-78.6583636, 35.799841], "type": "Point"}, "id": "aKVGeO7IybAMJv0NmgiR9sTzJj8=", "properties": {"@spider": "usps_collection_boxes", "addr:city": "RALEIGH", "addr:country": "US", "addr:full": "1301 ANNAPOLIS DR", "addr:postcode": "27608", "addr:state": "NC", "amenity": "post_box", "brand": "United States Postal Service", "brand:wikidata": "Q668687", "collection_times": "Mo-Sa 09:00", "name": "USPS COLLECTION BOX - BLUE BOX", "nsi_id": "unitedstatespostalservice-a77078", "operator": "United States Postal Service", "operator:short": "USPS", "operator:type": "public", "operator:wikidata": "Q668687", "ref": "2760800002"}, "type": "Feature"}
{"dataset_attributes": {"@spider": "usps_collection_boxes", "spider:collection_time": "2023-11-25T08:23:32.202811"}, "geometry": {"coordinates": [-78.6467118, 35.804499], "type": "Point"}, "id": "3oPz053Xo-aYegMPL5vlVdWHehE=", "properties": {"@spider": "usps_collection_boxes", "addr:city": "RALEIGH", "addr:country": "US", "addr:full": "2009 FAIRVIEW RD", "addr:postcode": "27608", "addr:state": "NC", "amenity": "post_box", "brand": "United States Postal Service", "brand:wikidata": "Q668687", "collection_times": "Mo-Fr 16:00; Sa 10:00", "name": "USPS COLLECTION BOX - BLUE BOX", "note": "ON 12/24 AND 12/31, THIS BOX MAY BE COLLECTED AS EARLY AS 12 NOON.", "nsi_id": "unitedstatespostalservice-a77078", "operator": "United States Postal Service", "operator:short": "USPS", "operator:type": "public", "operator:wikidata": "Q668687", "ref": "2760800009"}, "type": "Feature"}
{"dataset_attributes": {"@spider": "usps_collection_boxes", "spider:collection_time": "2023-11-25T08:23:32.202811"}, "geometry": {"coordinates": [-78.6453954, 35.800833], "type": "Point"}, "id": "RLPNMa61hkWeBTWCcIn8KFu9CfE=", "properties": {"@spider": "usps_collection_boxes", "addr:city": "RALEIGH", "addr:country": "US", "addr:full": "700 HARVEY ST", "addr:postcode": "27608", "addr:state": "NC", "amenity": "post_box", "brand": "United States Postal Service", "brand:wikidata": "Q668687", "collection_times": "Mo-Fr 14:00; Sa 10:00", "name": "USPS COLLECTION BOX - BLUE BOX", "note": "ON 12/24 AND 12/31, THIS BOX MAY BE COLLECTED AS EARLY AS 12 NOON.", "nsi_id": "unitedstatespostalservice-a77078", "operator": "United States Postal Service", "operator:short": "USPS", "operator:type": "public", "operator:wikidata": "Q668687", "ref": "2760800012"}, "type": "Feature"}
{"dataset_attributes": {"@spider": "usps_collection_boxes", "spider:collection_time": "2023-11-25T08:23:32.202811"}, "geometry": {"coordinates": [-78.6560894, 35.809997], "type": "Point"}, "id": "Axham5EWmYyrj9NDaRuvr5rsFYw=", "properties": {"@spider": "usps_collection_boxes", "addr:city": "RALEIGH", "addr:country": "US", "addr:full": "2601 OBERLIN RD", "addr:postcode": "27608", "addr:state": "NC", "amenity": "post_box", "brand": "United States Postal Service", "brand:wikidata": "Q668687", "collection_times": "Mo-Fr 16:00; Sa 10:00", "name": "USPS COLLECTION BOX - BLUE BOX", "note": "ON 12/24 AND 12/31, THIS BOX MAY BE COLLECTED AS EARLY AS 12 NOON.", "nsi_id": "unitedstatespostalservice-a77078", "operator": "United States Postal Service", "operator:short": "USPS", "operator:type": "public", "operator:wikidata": "Q668687", "ref": "2760800016"}, "type": "Feature"}
{"dataset_attributes": {"@spider": "usps_collection_boxes", "spider:collection_time": "2023-11-25T08:23:32.202811"}, "geometry": {"coordinates": [-78.6319591, 35.828403], "type": "Point"}, "id": "Zerm_JbUsdfD9TrlBg2UFrpN5NI=", "properties": {"@spider": "usps_collection_boxes", "addr:city": "RALEIGH", "addr:country": "US", "addr:full": "3825 BARRETT DR", "addr:postcode": "27609", "addr:state": "NC", "amenity": "post_box", "brand": "United States Postal Service", "brand:wikidata": "Q668687", "collection_times": "Mo-Fr 15:00; Sa 10:00", "name": "USPS COLLECTION BOX - BLUE BOX", "note": "ON 12/24 AND 12/31, THIS BOX MAY BE COLLECTED AS EARLY AS 12 NOON.", "nsi_id": "unitedstatespostalservice-a77078", "operator": "United States Postal Service", "operator:short": "USPS", "operator:type": "public", "operator:wikidata": "Q668687", "ref": "2760900001"}, "type": "Feature"}
{"dataset_attributes": {"@spider": "usps_collection_boxes", "spider:collection_time": "2023-11-25T08:23:32.202811"}, "geometry": {"coordinates": [-78.6083438, 35.833598], "type": "Point"}, "id": "NIh6oxr9Iek-S0QxZJOYAx59F4E=", "properties": {"@spider": "usps_collection_boxes", "addr:city": "RALEIGH", "addr:country": "US", "addr:full": "3925 TARHEEL DR", "addr:postcode": "27609", "addr:state": "NC", "amenity": "post_box", "brand": "United States Postal Service", "brand:wikidata": "Q668687", "collection_times": "Mo-Fr 11:00; Sa 10:00", "name": "USPS COLLECTION BOX - BLUE BOX", "nsi_id": "unitedstatespostalservice-a77078", "operator": "United States Postal Service", "operator:short": "USPS", "operator:type": "public", "operator:wikidata": "Q668687", "ref": "2760900004"}, "type": "Feature"}
{"dataset_attributes": {"@spider": "usps_collection_boxes", "spider:collection_time": "2023-11-25T08:23:32.202811"}, "geometry": {"coordinates": [-78.6304681, 35.830991], "type": "Point"}, "id": "M3p66bElrTJoH3X_ZbJRCW9wIQg=", "properties": {"@spider": "usps_collection_boxes", "addr:city": "RALEIGH", "addr:country": "US", "addr:full": "4020 BARRETT DR", "addr:postcode": "27609", "addr:state": "NC", "amenity": "post_box", "brand": "United States Postal Service", "brand:wikidata": "Q668687", "collection_times": "Mo-Fr 16:00; Sa 10:00", "name": "USPS COLLECTION BOX - BLUE BOX", "note": "ON 12/24 AND 12/31, THIS BOX MAY BE COLLECTED AS EARLY AS 12 NOON.", "nsi_id": "unitedstatespostalservice-a77078", "operator": "United States Postal Service", "operator:short": "USPS", "operator:type": "public", "operator:wikidata": "Q668687", "ref": "2760900006"}, "type": "Feature"}
{"dataset_attributes": {"@spider": "usps_collection_boxes", "spider:collection_time": "2023-11-25T08:23:32.202811"}, "geometry": {"coordinates": [-78.6304599, 35.830988], "type": "Point"}, "id": "0L6VyHVbCmlfplQfOTeD9CRZPqk=", "properties": {"@spider": "usps_collection_boxes", "addr:city": "RALEIGH", "addr:country": "US", "addr:full": "4020 BARRETT DR", "addr:postcode": "27609", "addr:state": "NC", "amenity": "post_box", "brand": "United States Postal Service", "brand:wikidata": "Q668687", "collection_times": "Mo-Fr 16:00; Sa 10:00", "name": "USPS COLLECTION BOX - BLUE BOX", "note": "ON 12/24 AND 12/31, THIS BOX MAY BE COLLECTED AS EARLY AS 12 NOON.", "nsi_id": "unitedstatespostalservice-a77078", "operator": "United States Postal Service", "operator:short": "USPS", "operator:type": "public", "operator:wikidata": "Q668687", "ref": "2760900007"}, "type": "Feature"}
{"dataset_attributes": {"@spider": "usps_collection_boxes", "spider:collection_time": "2023-11-25T08:23:32.202811"}, "geometry": {"coordinates": [-78.6192273, 35.834389], "type": "Point"}, "id": "uT-bOzme07L8eguG6rZyLpcAkNo=", "properties": {"@spider": "usps_collection_boxes", "addr:city": "RALEIGH", "addr:country": "US", "addr:full": "3700 BENSON DR", "addr:postcode": "27609", "addr:state": "NC", "amenity": "post_box", "brand": "United States Postal Service", "brand:wikidata": "Q668687", "collection_times": "Mo-Fr 13:00; Sa 10:00", "name": "USPS COLLECTION BOX - BLUE BOX", "note": "ON 12/24 AND 12/31, THIS BOX MAY BE COLLECTED AS EARLY AS 12 NOON.", "nsi_id": "unitedstatespostalservice-a77078", "operator": "United States Postal Service", "operator:short": "USPS", "operator:type": "public", "operator:wikidata": "Q668687", "ref": "2760900008"}, "type": "Feature"}
{"dataset_attributes": {"@spider": "usps_collection_boxes", "spider:collection_time": "2023-11-25T08:23:32.202811"}, "geometry": {"coordinates": [-78.6164418, 35.842007], "type": "Point"}, "id": "bL3p24esGRdQk4q2gZMPUgKocHI=", "properties": {"@spider": "usps_collection_boxes", "addr:city": "RALEIGH", "addr:country": "US", "addr:full": "4405 BLAND RD", "addr:postcode": "27609", "addr:state": "NC", "amenity": "post_box", "brand": "United States Postal Service", "brand:wikidata": "Q668687", "collection_times": "Mo-Fr 11:00; Sa 10:00", "name": "USPS COLLECTION BOX - BLUE BOX", "nsi_id": "unitedstatespostalservice-a77078", "operator": "United States Postal Service", "operator:short": "USPS", "operator:type": "public", "operator:wikidata": "Q668687", "ref": "2760900012"}, "type": "Feature"}
{"dataset_attributes": {"@spider": "usps_collection_boxes", "spider:collection_time": "2023-11-25T08:23:32.202811"}, "geometry": {"coordinates": [-78.6149372, 35.84216], "type": "Point"}, "id": "yIS4B9L196HmPxOwcWADpmx2TPo=", "properties": {"@spider": "usps_collection_boxes", "addr:city": "RALEIGH", "addr:country": "US", "addr:full": "4407 BLAND RD", "addr:postcode": "27609", "addr:state": "NC", "amenity": "post_box", "brand": "United States Postal Service", "brand:wikidata": "Q668687", "collection_times": "Mo-Sa 09:00", "name": "USPS COLLECTION BOX - BLUE BOX", "nsi_id": "unitedstatespostalservice-a77078", "operator": "United States Postal Service", "operator:short": "USPS", "operator:type": "public", "operator:wikidata": "Q668687", "ref": "2760900014"}, "type": "Feature"}
{"dataset_attributes": {"@spider": "usps_collection_boxes", "spider:collection_time": "2023-11-25T08:23:32.202811"}, "geometry": {"coordinates": [-78.6337420338, 35.8325390126], "type": "Point"}, "id": "nknquBa93rdAgjIL0Uv612fjyhc=", "properties": {"@spider": "usps_collection_boxes", "addr:city": "RALEIGH", "addr:country": "US", "addr:full": "3801 COMPUTER DR", "addr:postcode": "27609", "addr:state": "NC", "amenity": "post_box", "brand": "United States Postal Service", "brand:wikidata": "Q668687", "collection_times": "Mo-Fr 16:00; Sa 10:00", "name": "USPS COLLECTION BOX - BLUE BOX", "note": "ON 12/24 AND 12/31, THIS BOX MAY BE COLLECTED AS EARLY AS 12 NOON.", "nsi_id": "unitedstatespostalservice-a77078", "operator": "United States Postal Service", "operator:short": "USPS", "operator:type": "public", "operator:wikidata": "Q668687", "ref": "2760900017"}, "type": "Feature"}
{"dataset_attributes": {"@spider": "usps_collection_boxes", "spider:collection_time": "2023-11-25T08:23:32.202811"}, "geometry": {"coordinates": [-78.61828396, 35.83244501], "type": "Point"}, "id": "329jMrHudTPfKG7v6uprYqAcB9I=", "properties": {"@spider": "usps_collection_boxes", "addr:city": "RALEIGH", "addr:country": "US", "addr:full": "1112 DRESSER CT", "addr:postcode": "27609", "addr:state": "NC", "amenity": "post_box", "brand": "United States Postal Service", "brand:wikidata": "Q668687", "collection_times": "Mo-Sa 09:30", "name": "USPS COLLECTION BOX - BLUE BOX", "nsi_id": "unitedstatespostalservice-a77078", "operator": "United States Postal Service", "operator:short": "USPS", "operator:type": "public", "operator:wikidata": "Q668687", "ref": "2760900019"}, "type": "Feature"}
{"dataset_attributes": {"@spider": "usps_collection_boxes", "spider:collection_time": "2023-11-25T08:23:32.202811"}, "geometry": {"coordinates": [-78.6171079793, 35.8274089945], "type": "Point"}, "id": "vT7e9flYdOV3L8j3ldNHk1BfHPU=", "properties": {"@spider": "usps_collection_boxes", "addr:city": "RALEIGH", "addr:country": "US", "addr:full": "3400 EXECUTIVE DR", "addr:postcode": "27609", "addr:state": "NC", "amenity": "post_box", "brand": "United States Postal Service", "brand:wikidata": "Q668687", "collection_times": "Mo-Fr 13:00; Sa 10:00", "name": "USPS COLLECTION BOX - BLUE BOX", "note": "ON 12/24 AND 12/31, THIS BOX MAY BE COLLECTED AS EARLY AS 12 NOON.", "nsi_id": "unitedstatespostalservice-a77078", "operator": "United States Postal Service", "operator:short": "USPS", "operator:type": "public", "operator:wikidata": "Q668687", "ref": "2760900020"}, "type": "Feature"}
{"dataset_attributes": {"@spider": "usps_collection_boxes", "spider:collection_time": "2023-11-25T08:23:32.202811"}, "geometry": {"coordinates": [-78.6154414, 35.849511], "type": "Point"}, "id": "BDZw4EponOHQQ5owrjE0fTeLCoI=", "properties": {"@spider": "usps_collection_boxes", "addr:city": "RALEIGH", "addr:country": "US", "addr:full": "5001 FALLS OF NEUSE RD", "addr:postcode": "27609", "addr:state": "NC", "amenity": "post_box", "brand": "United States Postal Service", "brand:wikidata": "Q668687", "collection_times": "Mo-Fr 11:00; Sa 10:00", "name": "USPS COLLECTION BOX - BLUE BOX", "nsi_id": "unitedstatespostalservice-a77078", "operator": "United States Postal Service", "operator:short": "USPS", "operator:type": "public", "operator:wikidata": "Q668687", "ref": "2760900026"}, "type": "Feature"}
{"dataset_attributes": {"@spider": "usps_collection_boxes", "spider:collection_time": "2023-11-25T08:23:32.202811"}, "geometry": {"coordinates": [-78.6195395, 35.865614], "type": "Point"}, "id": "VTygg1tlph3u11bWv0qZ7MIts5k=", "properties": {"@spider": "usps_collection_boxes", "addr:city": "RALEIGH", "addr:country": "US", "addr:full": "6000 FALLS OF NEUSE RD", "addr:postcode": "27609", "addr:state": "NC", "amenity": "post_box", "brand": "United States Postal Service", "brand:wikidata": "Q668687", "collection_times": "Mo-Sa 10:00", "name": "USPS COLLECTION BOX - BLUE BOX", "nsi_id": "unitedstatespostalservice-a77078", "operator": "United States Postal Service", "operator:short": "USPS", "operator:type": "public", "operator:wikidata": "Q668687", "ref": "2760900027"}, "type": "Feature"}
{"dataset_attributes": {"@spider": "usps_collection_boxes", "spider:collection_time": "2023-11-25T08:23:32.202811"}, "geometry": {"coordinates": [-78.6217933, 35.861852], "type": "Point"}, "id": "t0C85v42xC7xjvcFFm5szqgYtGU=", "properties": {"@spider": "usps_collection_boxes", "addr:city": "RALEIGH", "addr:country": "US", "addr:full": "5800 FARINGDON PL", "addr:postcode": "27609", "addr:state": "NC", "amenity": "post_box", "brand": "United States Postal Service", "brand:wikidata": "Q668687", "collection_times": "Mo-Fr 11:00; Sa 10:00", "name": "USPS COLLECTION BOX - BLUE BOX", "nsi_id": "unitedstatespostalservice-a77078", "operator": "United States Postal Service", "operator:short": "USPS", "operator:type": "public", "operator:wikidata": "Q668687", "ref": "2760900028"}, "type": "Feature"}
{"dataset_attributes": {"@spider": "usps_collection_boxes", "spider:collection_time": "2023-11-25T08:23:32.202811"}, "geometry": {"coordinates": [-78.642767, 35.844839], "type": "Point"}, "id": "vp9GOfp9Jy3vbQVjqASgjTd9foM=", "properties": {"@spider": "usps_collection_boxes", "addr:city": "RALEIGH", "addr:country": "US", "addr:full": "4700 HOMEWOOD CT", "addr:postcode": "27609", "addr:state": "NC", "amenity": "post_box", "brand": "United States Postal Service", "brand:wikidata": "Q668687", "collection_times": "Mo-Fr 15:00; Sa 10:00", "name": "USPS COLLECTION BOX - BLUE BOX", "note": "ON 12/24 AND 12/31, THIS BOX MAY BE COLLECTED AS EARLY AS 12 NOON.", "nsi_id": "unitedstatespostalservice-a77078", "operator": "United States Postal Service", "operator:short": "USPS", "operator:type": "public", "operator:wikidata": "Q668687", "ref": "2760900033"}, "type": "Feature"}
{"dataset_attributes": {"@spider": "usps_collection_boxes", "spider:collection_time": "2023-11-25T08:23:32.202811"}, "geometry": {"coordinates": [-78.6189224493, 35.820658049], "type": "Point"}, "id": "31QGwEd86d-uILuDX0lS27jFyDA=", "properties": {"@spider": "usps_collection_boxes", "addr:city": "RALEIGH", "addr:country": "US", "addr:full": "3001 INDUSTRIAL DR", "addr:postcode": "27609", "addr:state": "NC", "amenity": "post_box", "brand": "United States Postal Service", "brand:wikidata": "Q668687", "collection_times": "Mo-Sa 10:00", "name": "USPS COLLECTION BOX - BLUE BOX", "nsi_id": "unitedstatespostalservice-a77078", "operator": "United States Postal Service", "operator:short": "USPS", "operator:type": "public", "operator:wikidata": "Q668687", "ref": "2760900034"}, "type": "Feature"}
{"dataset_attributes": {"@spider": "usps_collection_boxes", "spider:collection_time": "2023-11-25T08:23:32.202811"}, "geometry": {"coordinates": [-78.6136887, 35.849679], "type": "Point"}, "id": "FThVlEv25bFRk2e6d2gIFUNkNMQ=", "properties": {"@spider": "usps_collection_boxes", "addr:city": "RALEIGH", "addr:country": "US", "addr:full": "5000 FALLS OF NEUSE RD", "addr:postcode": "27609", "addr:state": "NC", "amenity": "post_box", "brand": "United States Postal Service", "brand:wikidata": "Q668687", "collection_times": "Mo-Fr 10:45; Sa 10:00", "name": "USPS COLLECTION BOX - BLUE BOX", "nsi_id": "unitedstatespostalservice-a77078", "operator": "United States Postal Service", "operator:short": "USPS", "operator:type": "public", "operator:wikidata": "Q668687", "ref": "2760900035"}, "type": "Feature"}
{"dataset_attributes": {"@spider": "usps_collection_boxes", "spider:collection_time": "2023-11-25T08:23:32.202811"}, "geometry": {"coordinates": [-78.6180909, 35.828947], "type": "Point"}, "id": "yPwRVJ-E3_u5gn0Xa2k2nIanMMk=", "properties": {"@spider": "usps_collection_boxes", "addr:city": "RALEIGH", "addr:country": "US", "addr:full": "3404 WAKE FOREST RD", "addr:postcode": "27609", "addr:state": "NC", "amenity": "post_box", "brand": "United States Postal Service", "brand:wikidata": "Q668687", "collection_times": "Mo-Fr 11:30; Sa 10:00", "name": "USPS COLLECTION BOX - BLUE BOX", "nsi_id": "unitedstatespostalservice-a77078", "operator": "United States Postal Service", "operator:short": "USPS", "operator:type": "public", "operator:wikidata": "Q668687", "ref": "2760900039"}, "type": "Feature"}
{"dataset_attributes": {"@spider": "usps_collection_boxes", "spider:collection_time": "2023-11-25T08:23:32.202811"}, "geometry": {"coordinates": [-78.6092656634, 35.8410756799], "type": "Point"}, "id": "-vl-GSsUMR4qt8xAKNCi8UeqxXM=", "properties": {"@spider": "usps_collection_boxes", "addr:city": "RALEIGH", "addr:country": "US", "addr:full": "1637 N MARKET DR", "addr:postcode": "27609", "addr:state": "NC", "amenity": "post_box", "brand": "United States Postal Service", "brand:wikidata": "Q668687", "collection_times": "Mo-Fr 11:00; Sa 10:00", "name": "USPS COLLECTION BOX - BLUE BOX", "nsi_id": "unitedstatespostalservice-a77078", "operator": "United States Postal Service", "operator:short": "USPS", "operator:type": "public", "operator:wikidata": "Q668687", "ref": "2760900045"}, "type": "Feature"}
{"dataset_attributes": {"@spider": "usps_collection_boxes", "spider:collection_time": "2023-11-25T08:23:32.202811"}, "geometry": {"coordinates": [-78.631828026, 35.829511008], "type": "Point"}, "id": "omw4ay2e3EurjyYCHUYtPLkE8dQ=", "properties": {"@spider": "usps_collection_boxes", "addr:city": "RALEIGH", "addr:country": "US", "addr:full": "3820 MERTON DR", "addr:postcode": "27609", "addr:state": "NC", "amenity": "post_box", "brand": "United States Postal Service", "brand:wikidata": "Q668687", "collection_times": "Mo-Fr 11:00; Sa 10:00", "name": "USPS COLLECTION BOX - BLUE BOX", "nsi_id": "unitedstatespostalservice-a77078", "operator": "United States Postal Service", "operator:short": "USPS", "operator:type": "public", "operator:wikidata": "Q668687", "ref": "2760900046"}, "type": "Feature"}
{"dataset_attributes": {"@spider": "usps_collection_boxes", "spider:collection_time": "2023-11-25T08:23:32.202811"}, "geometry": {"coordinates": [-78.64345104, 35.856313461], "type": "Point"}, "id": "A9L6DVh5td-lIJ8HR3Bz94Im_EE=", "properties": {"@spider": "usps_collection_boxes", "addr:city": "RALEIGH", "addr:country": "US", "addr:full": "224 W MILLBROOK RD", "addr:postcode": "27609", "addr:state": "NC", "amenity": "post_box", "brand": "United States Postal Service", "brand:wikidata": "Q668687", "collection_times": "Mo-Fr 15:00; Sa 10:00", "name": "USPS COLLECTION BOX - BLUE BOX", "note": "ON 12/24 AND 12/31, THIS BOX MAY BE COLLECTED AS EARLY AS 12 NOON.", "nsi_id": "unitedstatespostalservice-a77078", "operator": "United States Postal Service", "operator:short": "USPS", "operator:type": "public", "operator:wikidata": "Q668687", "ref": "2760900047"}, "type": "Feature"}
{"dataset_attributes": {"@spider": "usps_collection_boxes", "spider:collection_time": "2023-11-25T08:23:32.202811"}, "geometry": {"coordinates": [-78.6156263, 35.851237], "type": "Point"}, "id": "RVmba9iqew53e_TUpQhltzd14-A=", "properties": {"@spider": "usps_collection_boxes", "addr:city": "RALEIGH", "addr:country": "US", "addr:full": "1307 E MILLBROOK RD", "addr:postcode": "27609", "addr:state": "NC", "amenity": "post_box", "brand": "United States Postal Service", "brand:wikidata": "Q668687", "collection_times": "Mo-Sa 09:15", "name": "USPS COLLECTION BOX - BLUE BOX", "nsi_id": "unitedstatespostalservice-a77078", "operator": "United States Postal Service", "operator:short": "USPS", "operator:type": "public", "operator:wikidata": "Q668687", "ref": "2760900048"}, "type": "Feature"}
{"dataset_attributes": {"@spider": "usps_collection_boxes", "spider:collection_time": "2023-11-25T08:23:32.202811"}, "geometry": {"coordinates": [-78.621731, 35.827345], "type": "Point"}, "id": "uHhrdhHqijzQWime3qtPf91JD7Q=", "properties": {"@spider": "usps_collection_boxes", "addr:city": "RALEIGH", "addr:country": "US", "addr:full": "1110 NAVAHO DR", "addr:postcode": "27609", "addr:state": "NC", "amenity": "post_box", "brand": "United States Postal Service", "brand:wikidata": "Q668687", "collection_times": "Mo-Fr 15:30; Sa 10:00", "name": "USPS COLLECTION BOX - BLUE BOX", "note": "ON 12/24 AND 12/31, THIS BOX MAY BE COLLECTED AS EARLY AS 12 NOON.", "nsi_id": "unitedstatespostalservice-a77078", "operator": "United States Postal Service", "operator:short": "USPS", "operator:type": "public", "operator:wikidata": "Q668687", "ref": "2760900054"}, "type": "Feature"}
{"dataset_attributes": {"@spider": "usps_collection_boxes", "spider:collection_time": "2023-11-25T08:23:32.202811"}, "geometry": {"coordinates": [-78.6195265, 35.86561], "type": "Point"}, "id": "TuMCCooub3Gqz7ba5bMDgw7Pnf4=", "properties": {"@spider": "usps_collection_boxes", "addr:city": "RALEIGH", "addr:country": "US", "addr:full": "6000 FALLS OF NEUSE RD", "addr:postcode": "27609", "addr:state": "NC", "amenity": "post_box", "brand": "United States Postal Service", "brand:wikidata": "Q668687", "collection_times": "Mo-Sa 10:00", "name": "USPS COLLECTION BOX - BLUE BOX", "nsi_id": "unitedstatespostalservice-a77078", "operator": "United States Postal Service", "operator:short": "USPS", "operator:type": "public", "operator:wikidata": "Q668687", "ref": "2760900056"}, "type": "Feature"}
{"dataset_attributes": {"@spider": "usps_collection_boxes", "spider:collection_time": "2023-11-25T08:23:32.202811"}, "geometry": {"coordinates": [-78.6230242, 35.864968], "type": "Point"}, "id": "lrElkJEd9spcEVafhwGssGFKIMI=", "properties": {"@spider": "usps_collection_boxes", "addr:city": "RALEIGH", "addr:country": "US", "addr:full": "901 RIDGEFIELD DR", "addr:postcode": "27609", "addr:state": "NC", "amenity": "post_box", "brand": "United States Postal Service", "brand:wikidata": "Q668687", "collection_times": "Mo-Sa 10:00", "name": "USPS COLLECTION BOX - BLUE BOX", "nsi_id": "unitedstatespostalservice-a77078", "operator": "United States Postal Service", "operator:short": "USPS", "operator:type": "public", "operator:wikidata": "Q668687", "ref": "2760900057"}, "type": "Feature"}
{"dataset_attributes": {"@spider": "usps_collection_boxes", "spider:collection_time": "2023-11-25T08:23:32.202811"}, "geometry": {"coordinates": [-78.637553331, 35.86279944], "type": "Point"}, "id": "ubtVJB5xwsuj0FOASZYsLhyAoUQ=", "properties": {"@spider": "usps_collection_boxes", "addr:city": "RALEIGH", "addr:country": "US", "addr:full": "5986 SIX FORKS RD", "addr:postcode": "27609", "addr:state": "NC", "amenity": "post_box", "brand": "United States Postal Service", "brand:wikidata": "Q668687", "collection_times": "Mo-Fr 15:00; Sa 10:00", "name": "USPS COLLECTION BOX - BLUE BOX", "note": "ON 12/24 AND 12/31, THIS BOX MAY BE COLLECTED AS EARLY AS 12 NOON.", "nsi_id": "unitedstatespostalservice-a77078", "operator": "United States Postal Service", "operator:short": "USPS", "operator:type": "public", "operator:wikidata": "Q668687", "ref": "2760900060"}, "type": "Feature"}
{"dataset_attributes": {"@spider": "usps_collection_boxes", "spider:collection_time": "2023-11-25T08:23:32.202811"}, "geometry": {"coordinates": [-78.6441811, 35.842742], "type": "Point"}, "id": "V7z60bc5H7K-3uFSOEtx7mcuj7M=", "properties": {"@spider": "usps_collection_boxes", "addr:city": "RALEIGH", "addr:country": "US", "addr:full": "4601 SIX FORKS RD", "addr:postcode": "27609", "addr:state": "NC", "amenity": "post_box", "brand": "United States Postal Service", "brand:wikidata": "Q668687", "collection_times": "Mo-Sa 10:00", "name": "USPS COLLECTION BOX - BLUE BOX", "nsi_id": "unitedstatespostalservice-a77078", "operator": "United States Postal Service", "operator:short": "USPS", "operator:type": "public", "operator:wikidata": "Q668687", "ref": "2760900070"}, "type": "Feature"}
{"dataset_attributes": {"@spider": "usps_collection_boxes", "spider:collection_time": "2023-11-25T08:23:32.202811"}, "geometry": {"coordinates": [-78.641759756, 35.855276571], "type": "Point"}, "id": "1CyBcCqs82QUBXEurW3j7YxJMy0=", "properties": {"@spider": "usps_collection_boxes", "addr:city": "RALEIGH", "addr:country": "US", "addr:full": "5400 SIX FORKS RD", "addr:postcode": "27609", "addr:state": "NC", "amenity": "post_box", "brand": "United States Postal Service", "brand:wikidata": "Q668687", "collection_times": "Mo-Fr 13:00; Sa 10:00", "name": "USPS COLLECTION BOX - BLUE BOX", "note": "ON 12/24 AND 12/31, THIS BOX MAY BE COLLECTED AS EARLY AS 12 NOON.", "nsi_id": "unitedstatespostalservice-a77078", "operator": "United States Postal Service", "operator:short": "USPS", "operator:type": "public", "operator:wikidata": "Q668687", "ref": "2760900072"}, "type": "Feature"}
{"dataset_attributes": {"@spider": "usps_collection_boxes", "spider:collection_time": "2023-11-25T08:23:32.202811"}, "geometry": {"coordinates": [-78.6399808, 35.856942], "type": "Point"}, "id": "jMJ2F3WTc65c86QmUVz78g5Gqks=", "properties": {"@spider": "usps_collection_boxes", "addr:city": "RALEIGH", "addr:country": "US", "addr:full": "5510 SIX FORKS RD", "addr:postcode": "27609", "addr:state": "NC", "amenity": "post_box", "brand": "United States Postal Service", "brand:wikidata": "Q668687", "collection_times": "Mo-Fr 15:00; Sa 10:00", "name": "USPS COLLECTION BOX - BLUE BOX", "note": "ON 12/24 AND 12/31, THIS BOX MAY BE COLLECTED AS EARLY AS 12 NOON.", "nsi_id": "unitedstatespostalservice-a77078", "operator": "United States Postal Service", "operator:short": "USPS", "operator:type": "public", "operator:wikidata": "Q668687", "ref": "2760900075"}, "type": "Feature"}
{"dataset_attributes": {"@spider": "usps_collection_boxes", "spider:collection_time": "2023-11-25T08:23:32.202811"}, "geometry": {"coordinates": [-78.6322739, 35.822117], "type": "Point"}, "id": "hkwiEQe8siQY2h8MeMpDajDkDSk=", "properties": {"@spider": "usps_collection_boxes", "addr:city": "RALEIGH", "addr:country": "US", "addr:full": "100 E SIX FORKS RD", "addr:postcode": "27609", "addr:state": "NC", "amenity": "post_box", "brand": "United States Postal Service", "brand:wikidata": "Q668687", "collection_times": "Mo-Fr 11:00; Sa 10:00", "name": "USPS COLLECTION BOX - BLUE BOX", "nsi_id": "unitedstatespostalservice-a77078", "operator": "United States Postal Service", "operator:short": "USPS", "operator:type": "public", "operator:wikidata": "Q668687", "ref": "2760900077"}, "type": "Feature"}
{"dataset_attributes": {"@spider": "usps_collection_boxes", "spider:collection_time": "2023-11-25T08:23:32.202811"}, "geometry": {"coordinates": [-78.6138799, 35.84208], "type": "Point"}, "id": "iNENjM6L6CXOc6j56fdtiFsmsHI=", "properties": {"@spider": "usps_collection_boxes", "addr:city": "RALEIGH", "addr:country": "US", "addr:full": "4505 FALLS OF NEUSE RD", "addr:postcode": "27609", "addr:state": "NC", "amenity": "post_box", "brand": "United States Postal Service", "brand:wikidata": "Q668687", "collection_times": "Mo-Fr 11:00; Sa 10:00", "name": "USPS COLLECTION BOX - BLUE BOX", "nsi_id": "unitedstatespostalservice-a77078", "operator": "United States Postal Service", "operator:short": "USPS", "operator:type": "public", "operator:wikidata": "Q668687", "ref": "2760900080"}, "type": "Feature"}
{"dataset_attributes": {"@spider": "usps_collection_boxes", "spider:collection_time": "2023-11-25T08:23:32.202811"}, "geometry": {"coordinates": [-78.6231478, 35.867165], "type": "Point"}, "id": "ZJg3mdoLRME48fjMT4xi0TsDwHs=", "properties": {"@spider": "usps_collection_boxes", "addr:city": "RALEIGH", "addr:country": "US", "addr:full": "805 SPRING FOREST RD", "addr:postcode": "27609", "addr:state": "NC", "amenity": "post_box", "brand": "United States Postal Service", "brand:wikidata": "Q668687", "collection_times": "Mo-Fr 11:00; Sa 10:00", "name": "USPS COLLECTION BOX - BLUE BOX", "nsi_id": "unitedstatespostalservice-a77078", "operator": "United States Postal Service", "operator:short": "USPS", "operator:type": "public", "operator:wikidata": "Q668687", "ref": "2760900081"}, "type": "Feature"}
{"dataset_attributes": {"@spider": "usps_collection_boxes", "spider:collection_time": "2023-11-25T08:23:32.202811"}, "geometry": {"coordinates": [-78.639067979, 35.858242999], "type": "Point"}, "id": "zWIYW9PWRLExt8_S4uSLujePvbs=", "properties": {"@spider": "usps_collection_boxes", "addr:city": "RALEIGH", "addr:country": "US", "addr:full": "5660 SIX FORKS RD", "addr:postcode": "27609", "addr:state": "NC", "amenity": "post_box", "brand": "United States Postal Service", "brand:wikidata": "Q668687", "collection_times": "Mo-Fr 15:00; Sa 10:00", "name": "USPS COLLECTION BOX - BLUE BOX", "note": "ON 12/24 AND 12/31, THIS BOX MAY BE COLLECTED AS EARLY AS 12 NOON.", "nsi_id": "unitedstatespostalservice-a77078", "operator": "United States Postal Service", "operator:short": "USPS", "operator:type": "public", "operator:wikidata": "Q668687", "ref": "2760900083"}, "type": "Feature"}
{"dataset_attributes": {"@spider": "usps_collection_boxes", "spider:collection_time": "2023-11-25T08:23:32.202811"}, "geometry": {"coordinates": [-78.6148718, 35.835751], "type": "Point"}, "id": "17B0wdd0in3z0x1Sdapb1L4luhE=", "properties": {"@spider": "usps_collection_boxes", "addr:city": "RALEIGH", "addr:country": "US", "addr:full": "4015 WAKE FOREST RD", "addr:postcode": "27609", "addr:state": "NC", "amenity": "post_box", "brand": "United States Postal Service", "brand:wikidata": "Q668687", "collection_times": "Mo-Fr 11:00; Sa 10:00", "name": "USPS COLLECTION BOX - BLUE BOX", "nsi_id": "unitedstatespostalservice-a77078", "operator": "United States Postal Service", "operator:short": "USPS", "operator:type": "public", "operator:wikidata": "Q668687", "ref": "2760900084"}, "type": "Feature"}
{"dataset_attributes": {"@spider": "usps_collection_boxes", "spider:collection_time": "2023-11-25T08:23:32.202811"}, "geometry": {"coordinates": [-78.61420325, 35.837288959], "type": "Point"}, "id": "8_6aDmxb1NydteTVYl0IkhYg4kY=", "properties": {"@spider": "usps_collection_boxes", "addr:city": "RALEIGH", "addr:country": "US", "addr:full": "4105 BLAND RD", "addr:postcode": "27609", "addr:state": "NC", "amenity": "post_box", "brand": "United States Postal Service", "brand:wikidata": "Q668687", "collection_times": "Mo-Sa 10:00", "name": "USPS COLLECTION BOX - BLUE BOX", "nsi_id": "unitedstatespostalservice-a77078", "operator": "United States Postal Service", "operator:short": "USPS", "operator:type": "public", "operator:wikidata": "Q668687", "ref": "2760900085"}, "type": "Feature"}
{"dataset_attributes": {"@spider": "usps_collection_boxes", "spider:collection_time": "2023-11-25T08:23:32.202811"}, "geometry": {"coordinates": [-78.6427442, 35.855323], "type": "Point"}, "id": "45XsfAqvL93wHuJoSC1B4SNoDt0=", "properties": {"@spider": "usps_collection_boxes", "addr:city": "RALEIGH", "addr:country": "US", "addr:full": "5401 SIX FORKS RD", "addr:postcode": "27609", "addr:state": "NC", "amenity": "post_box", "brand": "United States Postal Service", "brand:wikidata": "Q668687", "collection_times": "Mo-Fr 15:00; Sa 10:00", "name": "USPS COLLECTION BOX - BLUE BOX", "note": "ON 12/24 AND 12/31, THIS BOX MAY BE COLLECTED AS EARLY AS 12 NOON.", "nsi_id": "unitedstatespostalservice-a77078", "operator": "United States Postal Service", "operator:short": "USPS", "operator:type": "public", "operator:wikidata": "Q668687", "ref": "2760900096"}, "type": "Feature"}
{"dataset_attributes": {"@spider": "usps_collection_boxes", "spider:collection_time": "2023-11-25T08:23:32.202811"}, "geometry": {"coordinates": [-78.6192619608, 35.8125500175], "type": "Point"}, "id": "apdQPT5f8iZ1q4MBBbn-r2E06ZU=", "properties": {"@spider": "usps_collection_boxes", "addr:city": "RALEIGH", "addr:country": "US", "addr:full": "2415 ATLANTIC AVE", "addr:postcode": "27609", "addr:state": "NC", "amenity": "post_box", "brand": "United States Postal Service", "brand:wikidata": "Q668687", "collection_times": "Mo-Fr 16:00; Sa 10:00", "name": "USPS COLLECTION BOX - BLUE BOX", "note": "ON 12/24 AND 12/31, THIS BOX MAY BE COLLECTED AS EARLY AS 12 NOON.", "nsi_id": "unitedstatespostalservice-a77078", "operator": "United States Postal Service", "operator:short": "USPS", "operator:type": "public", "operator:wikidata": "Q668687", "ref": "2760900108"}, "type": "Feature"}
{"dataset_attributes": {"@spider": "usps_collection_boxes", "spider:collection_time": "2023-11-25T08:23:32.202811"}, "geometry": {"coordinates": [-78.6192619608, 35.8125500175], "type": "Point"}, "id": "-dKyNdP39kKDsLBMTDN-wUiUvsI=", "properties": {"@spider": "usps_collection_boxes", "addr:city": "RALEIGH", "addr:country": "US", "addr:full": "2415 ATLANTIC AVE", "addr:postcode": "27609", "addr:state": "NC", "amenity": "post_box", "brand": "United States Postal Service", "brand:wikidata": "Q668687", "collection_times": "Mo-Fr 16:00; Sa 10:00", "name": "USPS COLLECTION BOX - BLUE BOX", "note": "ON 12/24 AND 12/31, THIS BOX MAY BE COLLECTED AS EARLY AS 12 NOON.", "nsi_id": "unitedstatespostalservice-a77078", "operator": "United States Postal Service", "operator:short": "USPS", "operator:type": "public", "operator:wikidata": "Q668687", "ref": "2760900109"}, "type": "Feature"}
{"dataset_attributes": {"@spider": "usps_collection_boxes", "spider:collection_time": "2023-11-25T08:23:32.202811"}, "geometry": {"coordinates": [-78.6404272, 35.837405], "type": "Point"}, "id": "kIMofXpiutQPp_FX23SMUIa-vMc=", "properties": {"@spider": "usps_collection_boxes", "addr:city": "RALEIGH", "addr:country": "US", "addr:full": "4208 SIX FORKS RD", "addr:postcode": "27609", "addr:state": "NC", "amenity": "post_box", "brand": "United States Postal Service", "brand:wikidata": "Q668687", "collection_times": "Mo-Fr 11:00; Sa 10:00", "name": "USPS COLLECTION BOX - BLUE BOX", "nsi_id": "unitedstatespostalservice-a77078", "operator": "United States Postal Service", "operator:short": "USPS", "operator:type": "public", "operator:wikidata": "Q668687", "ref": "2760900110"}, "type": "Feature"}
{"dataset_attributes": {"@spider": "usps_collection_boxes", "spider:collection_time": "2023-11-25T08:23:32.202811"}, "geometry": {"coordinates": [-78.643536, 35.837885], "type": "Point"}, "id": "J8x0MifPTKgvCwJApa-YMmJwmeY=", "properties": {"@spider": "usps_collection_boxes", "addr:city": "RALEIGH", "addr:country": "US", "addr:full": "4350 LASSITER AT NORTH HILLS AVE", "addr:postcode": "27609", "addr:state": "NC", "amenity": "post_box", "brand": "United States Postal Service", "brand:wikidata": "Q668687", "collection_times": "Mo-Fr 11:00; Sa 10:00", "name": "USPS COLLECTION BOX - BLUE BOX", "nsi_id": "unitedstatespostalservice-a77078", "operator": "United States Postal Service", "operator:short": "USPS", "operator:type": "public", "operator:wikidata": "Q668687", "ref": "2760900112"}, "type": "Feature"}
{"dataset_attributes": {"@spider": "usps_collection_boxes", "spider:collection_time": "2023-11-25T08:23:32.202811"}, "geometry": {"coordinates": [-78.64102, 35.837385], "type": "Point"}, "id": "x8A3bVqmdtMe_jW4kTTrkeiKwhM=", "properties": {"@spider": "usps_collection_boxes", "addr:city": "RALEIGH", "addr:country": "US", "addr:full": "3016 WAKE FOREST ROAD", "addr:postcode": "27609", "addr:state": "NC", "amenity": "post_box", "brand": "United States Postal Service", "brand:wikidata": "Q668687", "collection_times": "Mo-Fr 17:00; Sa 12:00", "name": "USPS COLLECTION BOX - PO LOBBY", "note": "ON 12/24 AND 12/31, THIS BOX MAY BE COLLECTED AS EARLY AS 12 NOON.", "nsi_id": "unitedstatespostalservice-a77078", "operator": "United States Postal Service", "operator:short": "USPS", "operator:type": "public", "operator:wikidata": "Q668687", "ref": "2760900122"}, "type": "Feature"}
{"dataset_attributes": {"@spider": "usps_collection_boxes", "spider:collection_time": "2023-11-25T08:23:32.202811"}, "geometry": {"coordinates": [-78.5686652, 35.768391], "type": "Point"}, "id": "ewsMisW7_IQFEJPSGG5Q7RP-MN4=", "properties": {"@spider": "usps_collection_boxes", "addr:city": "RALEIGH", "addr:country": "US", "addr:full": "4000 CARYA DR", "addr:postcode": "27610", "addr:state": "NC", "amenity": "post_box", "brand": "United States Postal Service", "brand:wikidata": "Q668687", "collection_times": "Mo-Fr 13:00; Sa 10:00", "name": "USPS COLLECTION BOX - BLUE BOX", "note": "ON 12/24 AND 12/31, THIS BOX MAY BE COLLECTED AS EARLY AS 12 NOON.", "nsi_id": "unitedstatespostalservice-a77078", "operator": "United States Postal Service", "operator:short": "USPS", "operator:type": "public", "operator:wikidata": "Q668687", "ref": "2761000002"}, "type": "Feature"}
{"dataset_attributes": {"@spider": "usps_collection_boxes", "spider:collection_time": "2023-11-25T08:23:32.202811"}, "geometry": {"coordinates": [-78.61557, 35.778625], "type": "Point"}, "id": "DTwY0aTfRU5-ql5dWrSG5TT9MCw=", "properties": {"@spider": "usps_collection_boxes", "addr:city": "RALEIGH", "addr:country": "US", "addr:full": "2101 GLASCOCK ST", "addr:postcode": "27610", "addr:state": "NC", "amenity": "post_box", "brand": "United States Postal Service", "brand:wikidata": "Q668687", "collection_times": "Mo-Fr 13:00; Sa 10:00", "name": "USPS COLLECTION BOX - BLUE BOX", "note": "ON 12/24 AND 12/31, THIS BOX MAY BE COLLECTED AS EARLY AS 12 NOON.", "nsi_id": "unitedstatespostalservice-a77078", "operator": "United States Postal Service", "operator:short": "USPS", "operator:type": "public", "operator:wikidata": "Q668687", "ref": "2761000005"}, "type": "Feature"}
{"dataset_attributes": {"@spider": "usps_collection_boxes", "spider:collection_time": "2023-11-25T08:23:32.202811"}, "geometry": {"coordinates": [-78.5812413, 35.796725], "type": "Point"}, "id": "mcKoXESabuwzJ_BrQB-o6-mfwxw=", "properties": {"@spider": "usps_collection_boxes", "addr:city": "RALEIGH", "addr:country": "US", "addr:full": "3540 MAITLAND DR", "addr:postcode": "27610", "addr:state": "NC", "amenity": "post_box", "brand": "United States Postal Service", "brand:wikidata": "Q668687", "collection_times": "Mo-Sa 10:00", "name": "USPS COLLECTION BOX - BLUE BOX", "nsi_id": "unitedstatespostalservice-a77078", "operator": "United States Postal Service", "operator:short": "USPS", "operator:type": "public", "operator:wikidata": "Q668687", "ref": "2761000007"}, "type": "Feature"}
{"dataset_attributes": {"@spider": "usps_collection_boxes", "spider:collection_time": "2023-11-25T08:23:32.202811"}, "geometry": {"coordinates": [-78.6204477, 35.785332], "type": "Point"}, "id": "B7ceeJCfMyT_9UTDEKtjJ39nAy8=", "properties": {"@spider": "usps_collection_boxes", "addr:city": "RALEIGH", "addr:country": "US", "addr:full": "1315 OAKWOOD AVE", "addr:postcode": "27610", "addr:state": "NC", "amenity": "post_box", "brand": "United States Postal Service", "brand:wikidata": "Q668687", "collection_times": "Mo-Fr 11:00; Sa 10:00", "name": "USPS COLLECTION BOX - BLUE BOX", "nsi_id": "unitedstatespostalservice-a77078", "operator": "United States Postal Service", "operator:short": "USPS", "operator:type": "public", "operator:wikidata": "Q668687", "ref": "2761000008"}, "type": "Feature"}
{"dataset_attributes": {"@spider": "usps_collection_boxes", "spider:collection_time": "2023-11-25T08:23:32.202811"}, "geometry": {"coordinates": [-78.6065094, 35.779172], "type": "Point"}, "id": "-I5epY68n1RvDYa80yy9D-MRgL4=", "properties": {"@spider": "usps_collection_boxes", "addr:city": "RALEIGH", "addr:country": "US", "addr:full": "2100 NEW BERN AVE", "addr:postcode": "27610", "addr:state": "NC", "amenity": "post_box", "brand": "United States Postal Service", "brand:wikidata": "Q668687", "collection_times": "Mo-Fr 12:00; Sa 10:00", "name": "USPS COLLECTION BOX - BLUE BOX", "nsi_id": "unitedstatespostalservice-a77078", "operator": "United States Postal Service", "operator:short": "USPS", "operator:type": "public", "operator:wikidata": "Q668687", "ref": "2761000010"}, "type": "Feature"}
{"dataset_attributes": {"@spider": "usps_collection_boxes", "spider:collection_time": "2023-11-25T08:23:32.202811"}, "geometry": {"coordinates": [-78.569227, 35.800622], "type": "Point"}, "id": "ABpi7ZQgsV2XO29rjMlPqxtOFio=", "properties": {"@spider": "usps_collection_boxes", "addr:city": "RALEIGH", "addr:country": "US", "addr:full": "3943 NEW BERN AVE", "addr:postcode": "27610", "addr:state": "NC", "amenity": "post_box", "brand": "United States Postal Service", "brand:wikidata": "Q668687", "collection_times": "Mo-Sa 10:00", "name": "USPS COLLECTION BOX - BLUE BOX", "nsi_id": "unitedstatespostalservice-a77078", "operator": "United States Postal Service", "operator:short": "USPS", "operator:type": "public", "operator:wikidata": "Q668687", "ref": "2761000013"}, "type": "Feature"}
{"dataset_attributes": {"@spider": "usps_collection_boxes", "spider:collection_time": "2023-11-25T08:23:32.202811"}, "geometry": {"coordinates": [-78.6127134, 35.761366], "type": "Point"}, "id": "fldII27QRAkz-gc0n_wSYLK5Jew=", "properties": {"@spider": "usps_collection_boxes", "addr:city": "RALEIGH", "addr:country": "US", "addr:full": "1429 ROCK QUARRY RD", "addr:postcode": "27610", "addr:state": "NC", "amenity": "post_box", "brand": "United States Postal Service", "brand:wikidata": "Q668687", "collection_times": "Mo-Sa 09:00", "name": "USPS COLLECTION BOX - BLUE BOX", "nsi_id": "unitedstatespostalservice-a77078", "operator": "United States Postal Service", "operator:short": "USPS", "operator:type": "public", "operator:wikidata": "Q668687", "ref": "2761000016"}, "type": "Feature"}
{"dataset_attributes": {"@spider": "usps_collection_boxes", "spider:collection_time": "2023-11-25T08:23:32.202811"}, "geometry": {"coordinates": [-78.584387963, 35.7780050094], "type": "Point"}, "id": "qAklUFOvfqh04D9EwJ4L223X_fU=", "properties": {"@spider": "usps_collection_boxes", "addr:city": "RALEIGH", "addr:country": "US", "addr:full": "236 SUNNYBROOK RD", "addr:postcode": "27610", "addr:state": "NC", "amenity": "post_box", "brand": "United States Postal Service", "brand:wikidata": "Q668687", "collection_times": "Mo-Fr 14:00; Sa 10:00", "name": "USPS COLLECTION BOX - BLUE BOX", "note": "ON 12/24 AND 12/31, THIS BOX MAY BE COLLECTED AS EARLY AS 12 NOON.", "nsi_id": "unitedstatespostalservice-a77078", "operator": "United States Postal Service", "operator:short": "USPS", "operator:type": "public", "operator:wikidata": "Q668687", "ref": "2761000018"}, "type": "Feature"}
{"dataset_attributes": {"@spider": "usps_collection_boxes", "spider:collection_time": "2023-11-25T08:23:32.202811"}, "geometry": {"coordinates": [-78.5867186, 35.787804], "type": "Point"}, "id": "UbvS77VyONc78_vFX0oVgc4T6Yo=", "properties": {"@spider": "usps_collection_boxes", "addr:city": "RALEIGH", "addr:country": "US", "addr:full": "3001 CALUMET DR", "addr:postcode": "27610", "addr:state": "NC", "amenity": "post_box", "brand": "United States Postal Service", "brand:wikidata": "Q668687", "collection_times": "Mo-Fr 12:00; Sa 10:00", "name": "USPS COLLECTION BOX - BLUE BOX", "nsi_id": "unitedstatespostalservice-a77078", "operator": "United States Postal Service", "operator:short": "USPS", "operator:type": "public", "operator:wikidata": "Q668687", "ref": "2761000020"}, "type": "Feature"}
{"dataset_attributes": {"@spider": "usps_collection_boxes", "spider:collection_time": "2023-11-25T08:23:32.202811"}, "geometry": {"coordinates": [-78.5785691, 35.764516], "type": "Point"}, "id": "pWFqxCGm-pJ85ZBCFjDtQVDsNa0=", "properties": {"@spider": "usps_collection_boxes", "addr:city": "RALEIGH", "addr:country": "US", "addr:full": "1020 BIRCH RIDGE DR", "addr:postcode": "27610", "addr:state": "NC", "amenity": "post_box", "brand": "United States Postal Service", "brand:wikidata": "Q668687", "collection_times": "Mo-Fr 13:00; Sa 10:00", "name": "USPS COLLECTION BOX - BLUE BOX", "note": "ON 12/24 AND 12/31, THIS BOX MAY BE COLLECTED AS EARLY AS 12 NOON.", "nsi_id": "unitedstatespostalservice-a77078", "operator": "United States Postal Service", "operator:short": "USPS", "operator:type": "public", "operator:wikidata": "Q668687", "ref": "2761000021"}, "type": "Feature"}
{"dataset_attributes": {"@spider": "usps_collection_boxes", "spider:collection_time": "2023-11-25T08:23:32.202811"}, "geometry": {"coordinates": [-78.615360017, 35.754796986], "type": "Point"}, "id": "a6JSzbTeldb6FNTPW4odV0GZ_sg=", "properties": {"@spider": "usps_collection_boxes", "addr:city": "RALEIGH", "addr:country": "US", "addr:full": "1601 CROSS LINK RD", "addr:postcode": "27610", "addr:state": "NC", "amenity": "post_box", "brand": "United States Postal Service", "brand:wikidata": "Q668687", "collection_times": "Mo-Fr 13:00; Sa 10:00", "name": "USPS COLLECTION BOX - BLUE BOX", "note": "ON 12/24 AND 12/31, THIS BOX MAY BE COLLECTED AS EARLY AS 12 NOON.", "nsi_id": "unitedstatespostalservice-a77078", "operator": "United States Postal Service", "operator:short": "USPS", "operator:type": "public", "operator:wikidata": "Q668687", "ref": "2761000026"}, "type": "Feature"}
{"dataset_attributes": {"@spider": "usps_collection_boxes", "spider:collection_time": "2023-11-25T08:23:32.202811"}, "geometry": {"coordinates": [-78.5834139096, 35.7780597485], "type": "Point"}, "id": "i0OBiHoHpT8ZibHBQGmYbtFeNOc=", "properties": {"@spider": "usps_collection_boxes", "addr:city": "RALEIGH", "addr:country": "US", "addr:full": "236 SUNNYBROOK RD", "addr:postcode": "27610", "addr:state": "NC", "amenity": "post_box", "brand": "United States Postal Service", "brand:wikidata": "Q668687", "collection_times": "Mo-Fr 16:30; Sa 12:00", "name": "USPS COLLECTION BOX - PO LOBBY", "note": "ON 12/24 AND 12/31, THIS BOX MAY BE COLLECTED AS EARLY AS 12 NOON.", "nsi_id": "unitedstatespostalservice-a77078", "operator": "United States Postal Service", "operator:short": "USPS", "operator:type": "public", "operator:wikidata": "Q668687", "ref": "2761000031"}, "type": "Feature"}
{"dataset_attributes": {"@spider": "usps_collection_boxes", "spider:collection_time": "2023-11-25T08:23:32.202811"}, "geometry": {"coordinates": [-78.680023969, 35.841785006], "type": "Point"}, "id": "HC_6DQjvXYlI7jMVplYSopIX1w8=", "properties": {"@spider": "usps_collection_boxes", "addr:city": "RALEIGH", "addr:country": "US", "addr:full": "4601 GLENWOOD AVE", "addr:postcode": "27612", "addr:state": "NC", "amenity": "post_box", "brand": "United States Postal Service", "brand:wikidata": "Q668687", "collection_times": "Mo-Fr 16:00; Sa 14:00", "name": "USPS COLLECTION BOX - BLUE BOX", "note": "ON 12/24 AND 12/31, THIS BOX MAY BE COLLECTED AS EARLY AS 12 NOON.", "nsi_id": "unitedstatespostalservice-a77078", "operator": "United States Postal Service", "operator:short": "USPS", "operator:type": "public", "operator:wikidata": "Q668687", "ref": "2761200004"}, "type": "Feature"}
{"dataset_attributes": {"@spider": "usps_collection_boxes", "spider:collection_time": "2023-11-25T08:23:32.202811"}, "geometry": {"coordinates": [-78.680023969, 35.841785006], "type": "Point"}, "id": "Khq5UCVz6TgaRRq6t1JQ6KBmFnI=", "properties": {"@spider": "usps_collection_boxes", "addr:city": "RALEIGH", "addr:country": "US", "addr:full": "4601 GLENWOOD AVE", "addr:postcode": "27612", "addr:state": "NC", "amenity": "post_box", "brand": "United States Postal Service", "brand:wikidata": "Q668687", "collection_times": "Mo-Fr 16:00; Sa 14:00", "name": "USPS COLLECTION BOX - BLUE BOX", "note": "ON 12/24 AND 12/31, THIS BOX MAY BE COLLECTED AS EARLY AS 12 NOON.", "nsi_id": "unitedstatespostalservice-a77078", "operator": "United States Postal Service", "operator:short": "USPS", "operator:type": "public", "operator:wikidata": "Q668687", "ref": "2761200005"}, "type": "Feature"}
{"dataset_attributes": {"@spider": "usps_collection_boxes", "spider:collection_time": "2023-11-25T08:23:32.202811"}, "geometry": {"coordinates": [-78.7118921, 35.859731], "type": "Point"}, "id": "DuvXmPlltW-1iY_0Nzy1WI8f3Eg=", "properties": {"@spider": "usps_collection_boxes", "addr:city": "RALEIGH", "addr:country": "US", "addr:full": "4600 PLEASANT VALLEY RD", "addr:postcode": "27612", "addr:state": "NC", "amenity": "post_box", "brand": "United States Postal Service", "brand:wikidata": "Q668687", "collection_times": "Mo-Fr 13:00; Sa 10:00", "name": "USPS COLLECTION BOX - BLUE BOX", "note": "ON 12/24 AND 12/31, THIS BOX MAY BE COLLECTED AS EARLY AS 12 NOON.", "nsi_id": "unitedstatespostalservice-a77078", "operator": "United States Postal Service", "operator:short": "USPS", "operator:type": "public", "operator:wikidata": "Q668687", "ref": "2761200020"}, "type": "Feature"}
{"dataset_attributes": {"@spider": "usps_collection_boxes", "spider:collection_time": "2023-11-25T08:23:32.202811"}, "geometry": {"coordinates": [-78.7285699, 35.872974], "type": "Point"}, "id": "oKNq_688B9TGApiHWetOsIhddg0=", "properties": {"@spider": "usps_collection_boxes", "addr:city": "RALEIGH", "addr:country": "US", "addr:full": "6708 WESTBOROUGH DR", "addr:postcode": "27612", "addr:state": "NC", "amenity": "post_box", "brand": "United States Postal Service", "brand:wikidata": "Q668687", "collection_times": "Mo-Fr 15:00; Sa 10:00", "name": "USPS COLLECTION BOX - BLUE BOX", "note": "ON 12/24 AND 12/31, THIS BOX MAY BE COLLECTED AS EARLY AS 12 NOON.", "nsi_id": "unitedstatespostalservice-a77078", "operator": "United States Postal Service", "operator:short": "USPS", "operator:type": "public", "operator:wikidata": "Q668687", "ref": "2761200021"}, "type": "Feature"}
{"dataset_attributes": {"@spider": "usps_collection_boxes", "spider:collection_time": "2023-11-25T08:23:32.202811"}, "geometry": {"coordinates": [-78.6658217, 35.824616], "type": "Point"}, "id": "xrKK8LDgapmgeVK4_2hL9t-YnPU=", "properties": {"@spider": "usps_collection_boxes", "addr:city": "RALEIGH", "addr:country": "US", "addr:full": "3201 GLENWOOD AVE", "addr:postcode": "27612", "addr:state": "NC", "amenity": "post_box", "brand": "United States Postal Service", "brand:wikidata": "Q668687", "collection_times": "Mo-Fr 15:00; Sa 10:00", "name": "USPS COLLECTION BOX - BLUE BOX", "note": "ON 12/24 AND 12/31, THIS BOX MAY BE COLLECTED AS EARLY AS 12 NOON.", "nsi_id": "unitedstatespostalservice-a77078", "operator": "United States Postal Service", "operator:short": "USPS", "operator:type": "public", "operator:wikidata": "Q668687", "ref": "2761200022"}, "type": "Feature"}
{"dataset_attributes": {"@spider": "usps_collection_boxes", "spider:collection_time": "2023-11-25T08:23:32.202811"}, "geometry": {"coordinates": [-78.699970923, 35.854172853], "type": "Point"}, "id": "1j_yZgjW9KZlDmhqsk2n5YWvCvk=", "properties": {"@spider": "usps_collection_boxes", "addr:city": "RALEIGH", "addr:country": "US", "addr:full": "6001 GLENWOOD AVE", "addr:postcode": "27612", "addr:state": "NC", "amenity": "post_box", "brand": "United States Postal Service", "brand:wikidata": "Q668687", "collection_times": "Mo-Fr 15:00; Sa 10:00", "name": "USPS COLLECTION BOX - BLUE BOX", "note": "ON 12/24 AND 12/31, THIS BOX MAY BE COLLECTED AS EARLY AS 12 NOON.", "nsi_id": "unitedstatespostalservice-a77078", "operator": "United States Postal Service", "operator:short": "USPS", "operator:type": "public", "operator:wikidata": "Q668687", "ref": "2761200035"}, "type": "Feature"}
{"dataset_attributes": {"@spider": "usps_collection_boxes", "spider:collection_time": "2023-11-25T08:23:32.202811"}, "geometry": {"coordinates": [-78.6786499, 35.843774], "type": "Point"}, "id": "6zGdgCdnlRL04WZDD5zrft7zgmo=", "properties": {"@spider": "usps_collection_boxes", "addr:city": "RALEIGH", "addr:country": "US", "addr:full": "4600 MARRIOTT DR", "addr:postcode": "27612", "addr:state": "NC", "amenity": "post_box", "brand": "United States Postal Service", "brand:wikidata": "Q668687", "collection_times": "Mo-Fr 16:00; Sa 10:00", "name": "USPS COLLECTION BOX - BLUE BOX", "note": "ON 12/24 AND 12/31, THIS BOX MAY BE COLLECTED AS EARLY AS 12 NOON.", "nsi_id": "unitedstatespostalservice-a77078", "operator": "United States Postal Service", "operator:short": "USPS", "operator:type": "public", "operator:wikidata": "Q668687", "ref": "2761200038"}, "type": "Feature"}
{"dataset_attributes": {"@spider": "usps_collection_boxes", "spider:collection_time": "2023-11-25T08:23:32.202811"}, "geometry": {"coordinates": [-78.707904699, 35.860050375], "type": "Point"}, "id": "BxypP0msr8VSKom-2Zu5ueVc-3E=", "properties": {"@spider": "usps_collection_boxes", "addr:city": "RALEIGH", "addr:country": "US", "addr:full": "6600 GLENWOOD AVE", "addr:postcode": "27612", "addr:state": "NC", "amenity": "post_box", "brand": "United States Postal Service", "brand:wikidata": "Q668687", "collection_times": "Mo-Fr 16:00; Sa 10:00", "name": "USPS COLLECTION BOX - BLUE BOX", "note": "ON 12/24 AND 12/31, THIS BOX MAY BE COLLECTED AS EARLY AS 12 NOON.", "nsi_id": "unitedstatespostalservice-a77078", "operator": "United States Postal Service", "operator:short": "USPS", "operator:type": "public", "operator:wikidata": "Q668687", "ref": "2761200040"}, "type": "Feature"}
{"dataset_attributes": {"@spider": "usps_collection_boxes", "spider:collection_time": "2023-11-25T08:23:32.202811"}, "geometry": {"coordinates": [-78.7117695, 35.853537], "type": "Point"}, "id": "iCgZXD6Q8rt6jQ9ZDceGJmL6B8A=", "properties": {"@spider": "usps_collection_boxes", "addr:city": "RALEIGH", "addr:country": "US", "addr:full": "5540 MCNEELY DR", "addr:postcode": "27612", "addr:state": "NC", "amenity": "post_box", "brand": "United States Postal Service", "brand:wikidata": "Q668687", "collection_times": "Mo-Fr 15:00; Sa 10:00", "name": "USPS COLLECTION BOX - BLUE BOX", "note": "ON 12/24 AND 12/31, THIS BOX MAY BE COLLECTED AS EARLY AS 12 NOON.", "nsi_id": "unitedstatespostalservice-a77078", "operator": "United States Postal Service", "operator:short": "USPS", "operator:type": "public", "operator:wikidata": "Q668687", "ref": "2761200043"}, "type": "Feature"}
{"dataset_attributes": {"@spider": "usps_collection_boxes", "spider:collection_time": "2023-11-25T08:23:32.202811"}, "geometry": {"coordinates": [-78.6820874, 35.857682], "type": "Point"}, "id": "Ie_TSuYORK6N3z0cs2yY7Gz1Sy0=", "properties": {"@spider": "usps_collection_boxes", "addr:city": "RALEIGH", "addr:country": "US", "addr:full": "2840 PLAZA PL", "addr:postcode": "27612", "addr:state": "NC", "amenity": "post_box", "brand": "United States Postal Service", "brand:wikidata": "Q668687", "collection_times": "Mo-Fr 15:00; Sa 10:00", "name": "USPS COLLECTION BOX - BLUE BOX", "note": "ON 12/24 AND 12/31, THIS BOX MAY BE COLLECTED AS EARLY AS 12 NOON.", "nsi_id": "unitedstatespostalservice-a77078", "operator": "United States Postal Service", "operator:short": "USPS", "operator:type": "public", "operator:wikidata": "Q668687", "ref": "2761200059"}, "type": "Feature"}
{"dataset_attributes": {"@spider": "usps_collection_boxes", "spider:collection_time": "2023-11-25T08:23:32.202811"}, "geometry": {"coordinates": [-78.6653067, 35.829615], "type": "Point"}, "id": "m4_xM01kaxqcG3teX4NYJV0W31I=", "properties": {"@spider": "usps_collection_boxes", "addr:city": "RALEIGH", "addr:country": "US", "addr:full": "3600 GLENWOOD AVE", "addr:postcode": "27612", "addr:state": "NC", "amenity": "post_box", "brand": "United States Postal Service", "brand:wikidata": "Q668687", "collection_times": "Mo-Fr 15:00; Sa 10:00", "name": "USPS COLLECTION BOX - BLUE BOX", "note": "ON 12/24 AND 12/31, THIS BOX MAY BE COLLECTED AS EARLY AS 12 NOON.", "nsi_id": "unitedstatespostalservice-a77078", "operator": "United States Postal Service", "operator:short": "USPS", "operator:type": "public", "operator:wikidata": "Q668687", "ref": "2761200066"}, "type": "Feature"}
{"dataset_attributes": {"@spider": "usps_collection_boxes", "spider:collection_time": "2023-11-25T08:23:32.202811"}, "geometry": {"coordinates": [-78.6677803, 35.831317], "type": "Point"}, "id": "g4cVvg8O9nN2ixgqhkGuxsFJ1ns=", "properties": {"@spider": "usps_collection_boxes", "addr:city": "RALEIGH", "addr:country": "US", "addr:full": "3737 GLENWOOD AVE", "addr:postcode": "27612", "addr:state": "NC", "amenity": "post_box", "brand": "United States Postal Service", "brand:wikidata": "Q668687", "collection_times": "Mo-Fr 15:00; Sa 10:00", "name": "USPS COLLECTION BOX - BLUE BOX", "note": "ON 12/24 AND 12/31, THIS BOX MAY BE COLLECTED AS EARLY AS 12 NOON.", "nsi_id": "unitedstatespostalservice-a77078", "operator": "United States Postal Service", "operator:short": "USPS", "operator:type": "public", "operator:wikidata": "Q668687", "ref": "2761200088"}, "type": "Feature"}
{"dataset_attributes": {"@spider": "usps_collection_boxes", "spider:collection_time": "2023-11-25T08:23:32.202811"}, "geometry": {"coordinates": [-78.6785899, 35.871488], "type": "Point"}, "id": "Mx3Hzkw_LIKYd5Sa0gMM2n8pl0s=", "properties": {"@spider": "usps_collection_boxes", "addr:city": "RALEIGH", "addr:country": "US", "addr:full": "6300 CREEDMOOR RD", "addr:postcode": "27612", "addr:state": "NC", "amenity": "post_box", "brand": "United States Postal Service", "brand:wikidata": "Q668687", "collection_times": "Mo-Fr 12:00; Sa 10:00", "name": "USPS COLLECTION BOX - BLUE BOX", "nsi_id": "unitedstatespostalservice-a77078", "operator": "United States Postal Service", "operator:short": "USPS", "operator:type": "public", "operator:wikidata": "Q668687", "ref": "2761200089"}, "type": "Feature"}
{"dataset_attributes": {"@spider": "usps_collection_boxes", "spider:collection_time": "2023-11-25T08:23:32.202811"}, "geometry": {"coordinates": [-78.6820368, 35.902002], "type": "Point"}, "id": "DSmZsFAQkuek9RvkK5k-ta52B8s=", "properties": {"@spider": "usps_collection_boxes", "addr:city": "RALEIGH", "addr:country": "US", "addr:full": "8387 CREEDMOOR RD", "addr:postcode": "27613", "addr:state": "NC", "amenity": "post_box", "brand": "United States Postal Service", "brand:wikidata": "Q668687", "collection_times": "Mo-Fr 14:00; Sa 10:00", "name": "USPS COLLECTION BOX - BLUE BOX", "note": "ON 12/24 AND 12/31, THIS BOX MAY BE COLLECTED AS EARLY AS 12 NOON.", "nsi_id": "unitedstatespostalservice-a77078", "operator": "United States Postal Service", "operator:short": "USPS", "operator:type": "public", "operator:wikidata": "Q668687", "ref": "2761300005"}, "type": "Feature"}
{"dataset_attributes": {"@spider": "usps_collection_boxes", "spider:collection_time": "2023-11-25T08:23:32.202811"}, "geometry": {"coordinates": [-78.7254961, 35.897225], "type": "Point"}, "id": "FeJaJiJaZiF2klT-WKTwMdVYsYI=", "properties": {"@spider": "usps_collection_boxes", "addr:city": "RALEIGH", "addr:country": "US", "addr:full": "9101 LEESVILLE RD", "addr:postcode": "27613", "addr:state": "NC", "amenity": "post_box", "brand": "United States Postal Service", "brand:wikidata": "Q668687", "collection_times": "Mo-Fr 16:00; Sa 10:00", "name": "USPS COLLECTION BOX - BLUE BOX", "note": "ON 12/24 AND 12/31, THIS BOX MAY BE COLLECTED AS EARLY AS 12 NOON.", "nsi_id": "unitedstatespostalservice-a77078", "operator": "United States Postal Service", "operator:short": "USPS", "operator:type": "public", "operator:wikidata": "Q668687", "ref": "2761300006"}, "type": "Feature"}
{"dataset_attributes": {"@spider": "usps_collection_boxes", "spider:collection_time": "2023-11-25T08:23:32.202811"}, "geometry": {"coordinates": [-78.681085746, 35.900462895], "type": "Point"}, "id": "56QVlSqVXPnv4D3muds96rIAipE=", "properties": {"@spider": "usps_collection_boxes", "addr:city": "RALEIGH", "addr:country": "US", "addr:full": "8311 CREEDMOOR RD", "addr:postcode": "27613", "addr:state": "NC", "amenity": "post_box", "brand": "United States Postal Service", "brand:wikidata": "Q668687", "collection_times": "Mo-Fr 16:00; Sa 10:00", "name": "USPS COLLECTION BOX - BLUE BOX", "note": "ON 12/24 AND 12/31, THIS BOX MAY BE COLLECTED AS EARLY AS 12 NOON.", "nsi_id": "unitedstatespostalservice-a77078", "operator": "United States Postal Service", "operator:short": "USPS", "operator:type": "public", "operator:wikidata": "Q668687", "ref": "2761300007"}, "type": "Feature"}
{"dataset_attributes": {"@spider": "usps_collection_boxes", "spider:collection_time": "2023-11-25T08:23:32.202811"}, "geometry": {"coordinates": [-78.7172591, 35.867836], "type": "Point"}, "id": "Rx_Y-aVWOXTazSnfOTvB87RDxqs=", "properties": {"@spider": "usps_collection_boxes", "addr:city": "RALEIGH", "addr:country": "US", "addr:full": "1427 BARTON PLACE DR", "addr:postcode": "27613", "addr:state": "NC", "amenity": "post_box", "brand": "United States Postal Service", "brand:wikidata": "Q668687", "collection_times": "Mo-Fr 16:00; Sa 10:00", "name": "USPS COLLECTION BOX - BLUE BOX", "note": "ON 12/24 AND 12/31, THIS BOX MAY BE COLLECTED AS EARLY AS 12 NOON.", "nsi_id": "unitedstatespostalservice-a77078", "operator": "United States Postal Service", "operator:short": "USPS", "operator:type": "public", "operator:wikidata": "Q668687", "ref": "2761300009"}, "type": "Feature"}
{"dataset_attributes": {"@spider": "usps_collection_boxes", "spider:collection_time": "2023-11-25T08:23:32.202811"}, "geometry": {"coordinates": [-78.6793007, 35.887137], "type": "Point"}, "id": "-Ukm29F43lOVYxRPFzyatlJsgcE=", "properties": {"@spider": "usps_collection_boxes", "addr:city": "RALEIGH", "addr:country": "US", "addr:full": "7300 CREEDMOOR RD", "addr:postcode": "27613", "addr:state": "NC", "amenity": "post_box", "brand": "United States Postal Service", "brand:wikidata": "Q668687", "collection_times": "Mo-Fr 15:00; Sa 10:00", "name": "USPS COLLECTION BOX - BLUE BOX", "note": "ON 12/24 AND 12/31, THIS BOX MAY BE COLLECTED AS EARLY AS 12 NOON.", "nsi_id": "unitedstatespostalservice-a77078", "operator": "United States Postal Service", "operator:short": "USPS", "operator:type": "public", "operator:wikidata": "Q668687", "ref": "2761300010"}, "type": "Feature"}
{"dataset_attributes": {"@spider": "usps_collection_boxes", "spider:collection_time": "2023-11-25T08:23:32.202811"}, "geometry": {"coordinates": [-78.7859747, 35.91034], "type": "Point"}, "id": "xDUu8IppgXYoAUooKNBcXlWjFjE=", "properties": {"@spider": "usps_collection_boxes", "addr:city": "RALEIGH", "addr:country": "US", "addr:full": "8100 BRIER CREEK PKWY", "addr:postcode": "27613", "addr:state": "NC", "amenity": "post_box", "brand": "United States Postal Service", "brand:wikidata": "Q668687", "collection_times": "Mo-Fr 15:00; Sa 10:00", "name": "USPS COLLECTION BOX - BLUE BOX", "note": "ON 12/24 AND 12/31, THIS BOX MAY BE COLLECTED AS EARLY AS 12 NOON.", "nsi_id": "unitedstatespostalservice-a77078", "operator": "United States Postal Service", "operator:short": "USPS", "operator:type": "public", "operator:wikidata": "Q668687", "ref": "2761300012"}, "type": "Feature"}
{"dataset_attributes": {"@spider": "usps_collection_boxes", "spider:collection_time": "2023-11-25T08:23:32.202811"}, "geometry": {"coordinates": [-78.5805913, 35.885055], "type": "Point"}, "id": "fp8cuU4CxHLF5raEEkP7BMnF7ec=", "properties": {"@spider": "usps_collection_boxes", "addr:city": "RALEIGH", "addr:country": "US", "addr:full": "3209 GRESHAM LAKE RD", "addr:postcode": "27615", "addr:state": "NC", "amenity": "post_box", "brand": "United States Postal Service", "brand:wikidata": "Q668687", "collection_times": "Mo-Sa 10:00", "name": "USPS COLLECTION BOX - BLUE BOX", "nsi_id": "unitedstatespostalservice-a77078", "operator": "United States Postal Service", "operator:short": "USPS", "operator:type": "public", "operator:wikidata": "Q668687", "ref": "2761500003"}, "type": "Feature"}
{"dataset_attributes": {"@spider": "usps_collection_boxes", "spider:collection_time": "2023-11-25T08:23:32.202811"}, "geometry": {"coordinates": [-78.5806042, 35.885054], "type": "Point"}, "id": "k72DvW5xtr0is6HwKQlbXHNQE6Y=", "properties": {"@spider": "usps_collection_boxes", "addr:city": "RALEIGH", "addr:country": "US", "addr:full": "3209 GRESHAM LAKE RD", "addr:postcode": "27615", "addr:state": "NC", "amenity": "post_box", "brand": "United States Postal Service", "brand:wikidata": "Q668687", "collection_times": "Mo-Sa 10:00", "name": "USPS COLLECTION BOX - BLUE BOX", "nsi_id": "unitedstatespostalservice-a77078", "operator": "United States Postal Service", "operator:short": "USPS", "operator:type": "public", "operator:wikidata": "Q668687", "ref": "2761500007"}, "type": "Feature"}
{"dataset_attributes": {"@spider": "usps_collection_boxes", "spider:collection_time": "2023-11-25T08:23:32.202811"}, "geometry": {"coordinates": [-78.6603819, 35.886231], "type": "Point"}, "id": "3nxs_JjhqADkcBmX97LBARUlUgQ=", "properties": {"@spider": "usps_collection_boxes", "addr:city": "RALEIGH", "addr:country": "US", "addr:full": "7713 LEAD MINE RD", "addr:postcode": "27615", "addr:state": "NC", "amenity": "post_box", "brand": "United States Postal Service", "brand:wikidata": "Q668687", "collection_times": "Mo-Fr 13:00; Sa 10:00", "name": "USPS COLLECTION BOX - BLUE BOX", "note": "ON 12/24 AND 12/31, THIS BOX MAY BE COLLECTED AS EARLY AS 12 NOON.", "nsi_id": "unitedstatespostalservice-a77078", "operator": "United States Postal Service", "operator:short": "USPS", "operator:type": "public", "operator:wikidata": "Q668687", "ref": "2761500009"}, "type": "Feature"}
{"dataset_attributes": {"@spider": "usps_collection_boxes", "spider:collection_time": "2023-11-25T08:23:32.202811"}, "geometry": {"coordinates": [-78.6007478, 35.892279], "type": "Point"}, "id": "cbdQgvlIZcb2gXn0kNnshPtMe0k=", "properties": {"@spider": "usps_collection_boxes", "addr:city": "RALEIGH", "addr:country": "US", "addr:full": "8320 LITCHFORD RD", "addr:postcode": "27615", "addr:state": "NC", "amenity": "post_box", "brand": "United States Postal Service", "brand:wikidata": "Q668687", "collection_times": "Mo-Fr 12:00; Sa 10:00", "name": "USPS COLLECTION BOX - BLUE BOX", "nsi_id": "unitedstatespostalservice-a77078", "operator": "United States Postal Service", "operator:short": "USPS", "operator:type": "public", "operator:wikidata": "Q668687", "ref": "2761500011"}, "type": "Feature"}
{"dataset_attributes": {"@spider": "usps_collection_boxes", "spider:collection_time": "2023-11-25T08:23:32.202811"}, "geometry": {"coordinates": [-78.642719974, 35.873970006], "type": "Point"}, "id": "9Ktz8A7sHunF6GUt-MGyGeYhrHM=", "properties": {"@spider": "usps_collection_boxes", "addr:city": "RALEIGH", "addr:country": "US", "addr:full": "120 WIND CHIME CT", "addr:postcode": "27615", "addr:state": "NC", "amenity": "post_box", "brand": "United States Postal Service", "brand:wikidata": "Q668687", "collection_times": "Mo-Fr 15:00; Sa 10:00", "name": "USPS COLLECTION BOX - BLUE BOX", "note": "ON 12/24 AND 12/31, THIS BOX MAY BE COLLECTED AS EARLY AS 12 NOON.", "nsi_id": "unitedstatespostalservice-a77078", "operator": "United States Postal Service", "operator:short": "USPS", "operator:type": "public", "operator:wikidata": "Q668687", "ref": "2761500022"}, "type": "Feature"}
{"dataset_attributes": {"@spider": "usps_collection_boxes", "spider:collection_time": "2023-11-25T08:23:32.202811"}, "geometry": {"coordinates": [-78.646088204, 35.881375292], "type": "Point"}, "id": "JOdS82OKaT99uY-unWGR_f7XsA8=", "properties": {"@spider": "usps_collection_boxes", "addr:city": "RALEIGH", "addr:country": "US", "addr:full": "7401 SIX FORKS RD", "addr:postcode": "27615", "addr:state": "NC", "amenity": "post_box", "brand": "United States Postal Service", "brand:wikidata": "Q668687", "collection_times": "Mo-Fr 15:00; Sa 10:00", "name": "USPS COLLECTION BOX - BLUE BOX", "note": "ON 12/24 AND 12/31, THIS BOX MAY BE COLLECTED AS EARLY AS 12 NOON.", "nsi_id": "unitedstatespostalservice-a77078", "operator": "United States Postal Service", "operator:short": "USPS", "operator:type": "public", "operator:wikidata": "Q668687", "ref": "2761500032"}, "type": "Feature"}
{"dataset_attributes": {"@spider": "usps_collection_boxes", "spider:collection_time": "2023-11-25T08:23:32.202811"}, "geometry": {"coordinates": [-78.6254627, 35.890298], "type": "Point"}, "id": "z0mp9juKKoxvhMyAsp_LxwjUdFM=", "properties": {"@spider": "usps_collection_boxes", "addr:city": "RALEIGH", "addr:country": "US", "addr:full": "7800 FALLS OF NEUSE RD", "addr:postcode": "27615", "addr:state": "NC", "amenity": "post_box", "brand": "United States Postal Service", "brand:wikidata": "Q668687", "collection_times": "Mo-Fr 16:00; Sa 13:00", "name": "USPS COLLECTION BOX - BLUE BOX", "note": "ON 12/24 AND 12/31, THIS BOX MAY BE COLLECTED AS EARLY AS 12 NOON.", "nsi_id": "unitedstatespostalservice-a77078", "operator": "United States Postal Service", "operator:short": "USPS", "operator:type": "public", "operator:wikidata": "Q668687", "ref": "2761500044"}, "type": "Feature"}
{"dataset_attributes": {"@spider": "usps_collection_boxes", "spider:collection_time": "2023-11-25T08:23:32.202811"}, "geometry": {"coordinates": [-78.6434633, 35.876031], "type": "Point"}, "id": "rMLzSgEfJZHjrxp_KkTahLOpzRg=", "properties": {"@spider": "usps_collection_boxes", "addr:city": "RALEIGH", "addr:country": "US", "addr:full": "142 MINE LAKE CT", "addr:postcode": "27615", "addr:state": "NC", "amenity": "post_box", "brand": "United States Postal Service", "brand:wikidata": "Q668687", "collection_times": "Mo-Fr 15:00; Sa 10:00", "name": "USPS COLLECTION BOX - BLUE BOX", "note": "ON 12/24 AND 12/31, THIS BOX MAY BE COLLECTED AS EARLY AS 12 NOON.", "nsi_id": "unitedstatespostalservice-a77078", "operator": "United States Postal Service", "operator:short": "USPS", "operator:type": "public", "operator:wikidata": "Q668687", "ref": "2761500045"}, "type": "Feature"}
{"dataset_attributes": {"@spider": "usps_collection_boxes", "spider:collection_time": "2023-11-25T08:23:32.202811"}, "geometry": {"coordinates": [-78.648310406, 35.88446521], "type": "Point"}, "id": "8SxOvGq1ICuHZ8Eo-JGS2u54PM0=", "properties": {"@spider": "usps_collection_boxes", "addr:city": "RALEIGH", "addr:country": "US", "addr:full": "120 HORIZON DR", "addr:postcode": "27615", "addr:state": "NC", "amenity": "post_box", "brand": "United States Postal Service", "brand:wikidata": "Q668687", "collection_times": "Mo-Fr 16:00; Sa 10:00", "name": "USPS COLLECTION BOX - BLUE BOX", "note": "ON 12/24 AND 12/31, THIS BOX MAY BE COLLECTED AS EARLY AS 12 NOON.", "nsi_id": "unitedstatespostalservice-a77078", "operator": "United States Postal Service", "operator:short": "USPS", "operator:type": "public", "operator:wikidata": "Q668687", "ref": "2761500048"}, "type": "Feature"}
{"dataset_attributes": {"@spider": "usps_collection_boxes", "spider:collection_time": "2023-11-25T08:23:32.202811"}, "geometry": {"coordinates": [-78.639692012, 35.870782996], "type": "Point"}, "id": "BUURUdb1Wzdk-uXHVs0W7Sf9SCk=", "properties": {"@spider": "usps_collection_boxes", "addr:city": "RALEIGH", "addr:country": "US", "addr:full": "6600 SIX FORKS RD", "addr:postcode": "27615", "addr:state": "NC", "amenity": "post_box", "brand": "United States Postal Service", "brand:wikidata": "Q668687", "collection_times": "Mo-Fr 15:00; Sa 10:00", "name": "USPS COLLECTION BOX - BLUE BOX", "note": "ON 12/24 AND 12/31, THIS BOX MAY BE COLLECTED AS EARLY AS 12 NOON.", "nsi_id": "unitedstatespostalservice-a77078", "operator": "United States Postal Service", "operator:short": "USPS", "operator:type": "public", "operator:wikidata": "Q668687", "ref": "2761500050"}, "type": "Feature"}
{"dataset_attributes": {"@spider": "usps_collection_boxes", "spider:collection_time": "2023-11-25T08:23:32.202811"}, "geometry": {"coordinates": [-78.6254551, 35.890278], "type": "Point"}, "id": "DJkfyo2Oxs4OU6y2mLUA-ymKbtc=", "properties": {"@spider": "usps_collection_boxes", "addr:city": "RALEIGH", "addr:country": "US", "addr:full": "7800 FALLS OF NEUSE RD", "addr:postcode": "27615", "addr:state": "NC", "amenity": "post_box", "brand": "United States Postal Service", "brand:wikidata": "Q668687", "collection_times": "Mo-Fr 16:00; Sa 13:00", "name": "USPS COLLECTION BOX - BLUE BOX", "note": "ON 12/24 AND 12/31, THIS BOX MAY BE COLLECTED AS EARLY AS 12 NOON.", "nsi_id": "unitedstatespostalservice-a77078", "operator": "United States Postal Service", "operator:short": "USPS", "operator:type": "public", "operator:wikidata": "Q668687", "ref": "2761500052"}, "type": "Feature"}
{"dataset_attributes": {"@spider": "usps_collection_boxes", "spider:collection_time": "2023-11-25T08:23:32.202811"}, "geometry": {"coordinates": [-78.588677, 35.906041], "type": "Point"}, "id": "TdWxGXwloXHjkvQD39pcGtprmQw=", "properties": {"@spider": "usps_collection_boxes", "addr:city": "RALEIGH", "addr:country": "US", "addr:full": "1121 FALLS RIVER AVE", "addr:postcode": "27615", "addr:state": "NC", "amenity": "post_box", "brand": "United States Postal Service", "brand:wikidata": "Q668687", "collection_times": "Mo-Fr 12:00; Sa 10:00", "name": "USPS COLLECTION BOX - BLUE BOX", "nsi_id": "unitedstatespostalservice-a77078", "operator": "United States Postal Service", "operator:short": "USPS", "operator:type": "public", "operator:wikidata": "Q668687", "ref": "2761500053"}, "type": "Feature"}
{"dataset_attributes": {"@spider": "usps_collection_boxes", "spider:collection_time": "2023-11-25T08:23:32.202811"}, "geometry": {"coordinates": [-78.5591805, 35.941127], "type": "Point"}, "id": "P49z7E6tlZGmQ29MRjXq77540m0=", "properties": {"@spider": "usps_collection_boxes", "addr:city": "RALEIGH", "addr:country": "US", "addr:full": "13200 FALLS OF NEUSE RD", "addr:postcode": "27615", "addr:state": "NC", "amenity": "post_box", "brand": "United States Postal Service", "brand:wikidata": "Q668687", "collection_times": "Mo-Fr 12:00; Sa 10:00", "name": "USPS COLLECTION BOX - BLUE BOX", "nsi_id": "unitedstatespostalservice-a77078", "operator": "United States Postal Service", "operator:short": "USPS", "operator:type": "public", "operator:wikidata": "Q668687", "ref": "2761500056"}, "type": "Feature"}
{"dataset_attributes": {"@spider": "usps_collection_boxes", "spider:collection_time": "2023-11-25T08:23:32.202811"}, "geometry": {"coordinates": [-78.5434788, 35.943301], "type": "Point"}, "id": "wvNhWhx1nHSnFW5EQ3YjpbWWoVA=", "properties": {"@spider": "usps_collection_boxes", "addr:city": "RALEIGH", "addr:country": "US", "addr:full": "14460 FALLS OF NEUSE RD", "addr:postcode": "27615", "addr:state": "NC", "amenity": "post_box", "brand": "United States Postal Service", "brand:wikidata": "Q668687", "collection_times": "Mo-Fr 12:00; Sa 10:00", "name": "USPS COLLECTION BOX - BLUE BOX", "nsi_id": "unitedstatespostalservice-a77078", "operator": "United States Postal Service", "operator:short": "USPS", "operator:type": "public", "operator:wikidata": "Q668687", "ref": "2761500057"}, "type": "Feature"}
{"dataset_attributes": {"@spider": "usps_collection_boxes", "spider:collection_time": "2023-11-25T08:23:32.202811"}, "geometry": {"coordinates": [-78.6472445, 35.896363], "type": "Point"}, "id": "PvItdgk-2wzgLQhO4_L7jj_IDvU=", "properties": {"@spider": "usps_collection_boxes", "addr:city": "RALEIGH", "addr:country": "US", "addr:full": "9131 ANSON WAY", "addr:postcode": "27615", "addr:state": "NC", "amenity": "post_box", "brand": "United States Postal Service", "brand:wikidata": "Q668687", "collection_times": "Mo-Fr 16:00; Sa 10:00", "name": "USPS COLLECTION BOX - BLUE BOX", "note": "ON 12/24 AND 12/31, THIS BOX MAY BE COLLECTED AS EARLY AS 12 NOON.", "nsi_id": "unitedstatespostalservice-a77078", "operator": "United States Postal Service", "operator:short": "USPS", "operator:type": "public", "operator:wikidata": "Q668687", "ref": "2761500058"}, "type": "Feature"}
{"dataset_attributes": {"@spider": "usps_collection_boxes", "spider:collection_time": "2023-11-25T08:23:32.202811"}, "geometry": {"coordinates": [-78.6525139, 35.899129], "type": "Point"}, "id": "BbnHEh0U6hryAKX6AP9SlsHCAME=", "properties": {"@spider": "usps_collection_boxes", "addr:city": "RALEIGH", "addr:country": "US", "addr:full": "8701 SIX FORKS RD", "addr:postcode": "27615", "addr:state": "NC", "amenity": "post_box", "brand": "United States Postal Service", "brand:wikidata": "Q668687", "collection_times": "Mo-Fr 13:00; Sa 10:00", "name": "USPS COLLECTION BOX - BLUE BOX", "note": "ON 12/24 AND 12/31, THIS BOX MAY BE COLLECTED AS EARLY AS 12 NOON.", "nsi_id": "unitedstatespostalservice-a77078", "operator": "United States Postal Service", "operator:short": "USPS", "operator:type": "public", "operator:wikidata": "Q668687", "ref": "2761500059"}, "type": "Feature"}
{"dataset_attributes": {"@spider": "usps_collection_boxes", "spider:collection_time": "2023-11-25T08:23:32.202811"}, "geometry": {"coordinates": [-78.627369557, 35.89049903], "type": "Point"}, "id": "0vRTOX5agiwIMwe3hUt0PtXJA-g=", "properties": {"@spider": "usps_collection_boxes", "addr:city": "RALEIGH", "addr:country": "US", "addr:full": "7800 FALLS OF NEUSE RD", "addr:postcode": "27615", "addr:state": "NC", "amenity": "post_box", "brand": "United States Postal Service", "brand:wikidata": "Q668687", "collection_times": "Mo-Fr 16:30; Sa 13:00", "name": "USPS COLLECTION BOX - PO LOBBY", "note": "ON 12/24 AND 12/31, THIS BOX MAY BE COLLECTED AS EARLY AS 12 NOON.", "nsi_id": "unitedstatespostalservice-a77078", "operator": "United States Postal Service", "operator:short": "USPS", "operator:type": "public", "operator:wikidata": "Q668687", "ref": "2761500069"}, "type": "Feature"}
{"dataset_attributes": {"@spider": "usps_collection_boxes", "spider:collection_time": "2023-11-25T08:23:32.202811"}, "geometry": {"coordinates": [-78.5790142, 35.858398], "type": "Point"}, "id": "W6HPcBuC1L6CYw9OzafxVTbrIdw=", "properties": {"@spider": "usps_collection_boxes", "addr:city": "RALEIGH", "addr:country": "US", "addr:full": "5200 GREENS DAIRY RD", "addr:postcode": "27616", "addr:state": "NC", "amenity": "post_box", "brand": "United States Postal Service", "brand:wikidata": "Q668687", "collection_times": "Mo-Sa 09:30", "name": "USPS COLLECTION BOX - BLUE BOX", "nsi_id": "unitedstatespostalservice-a77078", "operator": "United States Postal Service", "operator:short": "USPS", "operator:type": "public", "operator:wikidata": "Q668687", "ref": "2761600001"}, "type": "Feature"}
{"dataset_attributes": {"@spider": "usps_collection_boxes", "spider:collection_time": "2023-11-25T08:23:32.202811"}, "geometry": {"coordinates": [-78.5397506, 35.874502], "type": "Point"}, "id": "E3J8bxZ4ViSJPp_TxUdpxQuR204=", "properties": {"@spider": "usps_collection_boxes", "addr:city": "RALEIGH", "addr:country": "US", "addr:full": "7440 LOUISBURG RD", "addr:postcode": "27616", "addr:state": "NC", "amenity": "post_box", "brand": "United States Postal Service", "brand:wikidata": "Q668687", "collection_times": "Mo-Sa 09:00", "name": "USPS COLLECTION BOX - BLUE BOX", "nsi_id": "unitedstatespostalservice-a77078", "operator": "United States Postal Service", "operator:short": "USPS", "operator:type": "public", "operator:wikidata": "Q668687", "ref": "2761600002"}, "type": "Feature"}
{"dataset_attributes": {"@spider": "usps_collection_boxes", "spider:collection_time": "2023-11-25T08:23:32.202811"}, "geometry": {"coordinates": [-78.5960864705, 35.8484672931], "type": "Point"}, "id": "B-guWsiJlDrX9NQr4O6bB26U7bo=", "properties": {"@spider": "usps_collection_boxes", "addr:city": "RALEIGH", "addr:country": "US", "addr:full": "4901 DEPARTURE DR", "addr:postcode": "27616", "addr:state": "NC", "amenity": "post_box", "brand": "United States Postal Service", "brand:wikidata": "Q668687", "collection_times": "Mo-Fr 16:30", "name": "USPS COLLECTION BOX - PO LOBBY", "note": "ON 12/24 AND 12/31, THIS BOX MAY BE COLLECTED AS EARLY AS 12 NOON.", "nsi_id": "unitedstatespostalservice-a77078", "operator": "United States Postal Service", "operator:short": "USPS", "operator:type": "public", "operator:wikidata": "Q668687", "ref": "2761600011"}, "type": "Feature"}
{"dataset_attributes": {"@spider": "usps_collection_boxes", "spider:collection_time": "2023-11-25T08:23:32.202811"}, "geometry": {"coordinates": [-78.5794400173, 35.8719241209], "type": "Point"}, "id": "Km1_n_Y1L_QxEPR6XVcbYPdrhhY=", "properties": {"@spider": "usps_collection_boxes", "addr:city": "RALEIGH", "addr:country": "US", "addr:full": "6320 CAPITAL BLVD STE 120", "addr:postcode": "27616", "addr:state": "NC", "amenity": "post_box", "brand": "United States Postal Service", "brand:wikidata": "Q668687", "collection_times": "Mo-Fr 16:30", "name": "USPS COLLECTION BOX - PO LOBBY", "note": "ON 12/24 AND 12/31, THIS BOX MAY BE COLLECTED AS EARLY AS 12 NOON.", "nsi_id": "unitedstatespostalservice-a77078", "operator": "United States Postal Service", "operator:short": "USPS", "operator:type": "public", "operator:wikidata": "Q668687", "ref": "2761600012"}, "type": "Feature"}
{"dataset_attributes": {"@spider": "usps_collection_boxes", "spider:collection_time": "2023-11-25T08:23:32.202811"}, "geometry": {"coordinates": [-78.626655, 35.82066], "type": "Point"}, "id": "TG9Pv1w2ckXoQMn50QrJianbc7s=", "properties": {"@spider": "usps_collection_boxes", "addr:city": "RALEIGH", "addr:country": "US", "addr:full": "3016 WAKE FOREST ROAD", "addr:postcode": "27619", "addr:state": "NC", "amenity": "post_box", "brand": "United States Postal Service", "brand:wikidata": "Q668687", "collection_times": "Mo-Fr 17:00; Sa 12:00", "name": "USPS COLLECTION BOX - PO LOBBY", "note": "ON 12/24 AND 12/31, THIS BOX MAY BE COLLECTED AS EARLY AS 12 NOON.", "nsi_id": "unitedstatespostalservice-a77078", "operator": "United States Postal Service", "operator:short": "USPS", "operator:type": "public", "operator:wikidata": "Q668687", "ref": "2761900001"}, "type": "Feature"}
{"dataset_attributes": {"@spider": "usps_collection_boxes", "spider:collection_time": "2023-11-25T08:23:32.202811"}, "geometry": {"coordinates": [-78.583422, 35.778463], "type": "Point"}, "id": "yLyzuj98TpxRZ6U92NW9opXQvBU=", "properties": {"@spider": "usps_collection_boxes", "addr:city": "RALEIGH", "addr:country": "US", "addr:full": "236 SUNNYBROOK RD", "addr:postcode": "27620", "addr:state": "NC", "amenity": "post_box", "brand": "United States Postal Service", "brand:wikidata": "Q668687", "collection_times": "Mo-Fr 17:00; Sa 13:30", "name": "USPS COLLECTION BOX - PO LOBBY", "note": "ON 12/24 AND 12/31, THIS BOX MAY BE COLLECTED AS EARLY AS 12 NOON.", "nsi_id": "unitedstatespostalservice-a77078", "operator": "United States Postal Service", "operator:short": "USPS", "operator:type": "public", "operator:wikidata": "Q668687", "ref": "2762000001"}, "type": "Feature"}
{"dataset_attributes": {"@spider": "usps_collection_boxes", "spider:collection_time": "2023-11-25T08:23:32.202811"}, "geometry": {"coordinates": [-78.626655, 35.82066], "type": "Point"}, "id": "lvLeG5tRmS_7wlQdmjlhlrskp7Y=", "properties": {"@spider": "usps_collection_boxes", "addr:city": "RALEIGH", "addr:country": "US", "addr:full": "3016 WAKE FOREST ROAD", "addr:postcode": "27622", "addr:state": "NC", "amenity": "post_box", "brand": "United States Postal Service", "brand:wikidata": "Q668687", "collection_times": "Mo-Fr 17:00; Sa 12:00", "name": "USPS COLLECTION BOX - APC", "note": "ON 12/24 AND 12/31, THIS BOX MAY BE COLLECTED AS EARLY AS 12 NOON.", "nsi_id": "unitedstatespostalservice-a77078", "operator": "United States Postal Service", "operator:short": "USPS", "operator:type": "public", "operator:wikidata": "Q668687", "ref": "2762200002"}, "type": "Feature"}
{"dataset_attributes": {"@spider": "usps_collection_boxes", "spider:collection_time": "2023-11-25T08:23:32.202811"}, "geometry": {"coordinates": [-78.62737, 35.890429], "type": "Point"}, "id": "zvxuPT4XSSmXGi2hkarz3SgfZJA=", "properties": {"@spider": "usps_collection_boxes", "addr:city": "RALEIGH", "addr:country": "US", "addr:full": "7800 FALLS OF NEUSE RD", "addr:postcode": "27624", "addr:state": "NC", "amenity": "post_box", "brand": "United States Postal Service", "brand:wikidata": "Q668687", "collection_times": "Mo-Fr 17:00; Sa 13:30", "name": "USPS COLLECTION BOX - PO LOBBY", "note": "ON 12/24 AND 12/31, THIS BOX MAY BE COLLECTED AS EARLY AS 12 NOON.", "nsi_id": "unitedstatespostalservice-a77078", "operator": "United States Postal Service", "operator:short": "USPS", "operator:type": "public", "operator:wikidata": "Q668687", "ref": "2762400001"}, "type": "Feature"}
{"dataset_attributes": {"@spider": "usps_collection_boxes", "spider:collection_time": "2023-11-25T08:23:32.202811"}, "geometry": {"coordinates": [-78.62737, 35.890429], "type": "Point"}, "id": "RdNBoye3F5qZZ2a3bD1hUhIOtfs=", "properties": {"@spider": "usps_collection_boxes", "addr:city": "RALEIGH", "addr:country": "US", "addr:full": "7800 FALLS OF NEUSE RD", "addr:postcode": "27624", "addr:state": "NC", "amenity": "post_box", "brand": "United States Postal Service", "brand:wikidata": "Q668687", "collection_times": "Mo-Fr 17:00; Sa 13:30", "name": "USPS COLLECTION BOX - APC", "note": "ON 12/24 AND 12/31, THIS BOX MAY BE COLLECTED AS EARLY AS 12 NOON.", "nsi_id": "unitedstatespostalservice-a77078", "operator": "United States Postal Service", "operator:short": "USPS", "operator:type": "public", "operator:wikidata": "Q668687", "ref": "2762400002"}, "type": "Feature"}
{"dataset_attributes": {"@spider": "usps_collection_boxes", "spider:collection_time": "2023-11-25T08:23:32.202811"}, "geometry": {"coordinates": [-78.6466286276, 35.8044736297], "type": "Point"}, "id": "F8o9z_Bwkucx2vdAcDuTdDPjuLs=", "properties": {"@spider": "usps_collection_boxes", "addr:city": "RALEIGH", "addr:country": "US", "addr:full": "2009 FAIRVIEW RD", "addr:postcode": "27628", "addr:state": "NC", "amenity": "post_box", "brand": "United States Postal Service", "brand:wikidata": "Q668687", "collection_times": "Mo-Fr 16:00", "name": "USPS COLLECTION BOX - PO LOBBY", "note": "ON 12/24 AND 12/31, THIS BOX MAY BE COLLECTED AS EARLY AS 12 NOON.", "nsi_id": "unitedstatespostalservice-a77078", "operator": "United States Postal Service", "operator:short": "USPS", "operator:type": "public", "operator:wikidata": "Q668687", "ref": "2762800001"}, "type": "Feature"}
{"dataset_attributes": {"@spider": "usps_collection_boxes", "spider:collection_time": "2023-11-25T08:23:32.202811"}, "geometry": {"coordinates": [-78.6466286276, 35.8044736297], "type": "Point"}, "id": "ZLa1bj6gM30HvK3u-a55SrCDBBE=", "properties": {"@spider": "usps_collection_boxes", "addr:city": "RALEIGH", "addr:country": "US", "addr:full": "2009 FAIRVIEW RD", "addr:postcode": "27628", "addr:state": "NC", "amenity": "post_box", "brand": "United States Postal Service", "brand:wikidata": "Q668687", "collection_times": "Mo-Fr 16:00", "name": "USPS COLLECTION BOX - PO LOBBY", "note": "ON 12/24 AND 12/31, THIS BOX MAY BE COLLECTED AS EARLY AS 12 NOON.", "nsi_id": "unitedstatespostalservice-a77078", "operator": "United States Postal Service", "operator:short": "USPS", "operator:type": "public", "operator:wikidata": "Q668687", "ref": "2762800002"}, "type": "Feature"}
{"dataset_attributes": {"@spider": "usps_collection_boxes", "spider:collection_time": "2023-11-25T08:23:32.202811"}, "geometry": {"coordinates": [-78.595142, 35.817428], "type": "Point"}, "id": "taS2lBzzLM9jAl0RWXihy8uKmSw=", "properties": {"@spider": "usps_collection_boxes", "addr:city": "RALEIGH", "addr:country": "US", "addr:full": "2777 BRENTWOOD RD", "addr:postcode": "27629", "addr:state": "NC", "amenity": "post_box", "brand": "United States Postal Service", "brand:wikidata": "Q668687", "collection_times": "Mo-Fr 17:00; Sa 12:00", "name": "USPS COLLECTION BOX - PO LOBBY", "note": "ON 12/24 AND 12/31, THIS BOX MAY BE COLLECTED AS EARLY AS 12 NOON.", "nsi_id": "unitedstatespostalservice-a77078", "operator": "United States Postal Service", "operator:short": "USPS", "operator:type": "public", "operator:wikidata": "Q668687", "ref": "2762900001"}, "type": "Feature"}
{"dataset_attributes": {"@spider": "usps_collection_boxes", "spider:collection_time": "2023-11-25T08:23:32.202811"}, "geometry": {"coordinates": [-78.692323, 35.79435], "type": "Point"}, "id": "RZ0Z9qvfpBy8prH6kP_MzqHXy44=", "properties": {"@spider": "usps_collection_boxes", "addr:city": "RALEIGH", "addr:country": "US", "addr:full": "3919 BERYL RD", "addr:postcode": "27636", "addr:state": "NC", "amenity": "post_box", "brand": "United States Postal Service", "brand:wikidata": "Q668687", "collection_times": "Mo-Fr 16:30", "name": "USPS COLLECTION BOX - PO LOBBY", "note": "ON 12/24 AND 12/31, THIS BOX MAY BE COLLECTED AS EARLY AS 12 NOON.", "nsi_id": "unitedstatespostalservice-a77078", "operator": "United States Postal Service", "operator:short": "USPS", "operator:type": "public", "operator:wikidata": "Q668687", "ref": "2763600001"}, "type": "Feature"}
{"dataset_attributes": {"@spider": "usps_collection_boxes", "spider:collection_time": "2023-11-25T08:23:32.202811"}, "geometry": {"coordinates": [-78.596122, 35.848243], "type": "Point"}, "id": "8XI3VXOdhhAVct24Ga1Vn9CdwhQ=", "properties": {"@spider": "usps_collection_boxes", "addr:city": "RALEIGH", "addr:country": "US", "addr:full": "4901 DEPARTURE DR", "addr:postcode": "27658", "addr:state": "NC", "amenity": "post_box", "brand": "United States Postal Service", "brand:wikidata": "Q668687", "collection_times": "Mo-Fr 17:00", "name": "USPS COLLECTION BOX - PO LOBBY", "note": "ON 12/24 AND 12/31, THIS BOX MAY BE COLLECTED AS EARLY AS 12 NOON.", "nsi_id": "unitedstatespostalservice-a77078", "operator": "United States Postal Service", "operator:short": "USPS", "operator:type": "public", "operator:wikidata": "Q668687", "ref": "2765800001"}, "type": "Feature"}
{"dataset_attributes": {"@spider": "usps_collection_boxes", "spider:collection_time": "2023-11-25T08:23:32.202811"}, "geometry": {"coordinates": [-78.579637, 35.871691], "type": "Point"}, "id": "gNOTx1pHj0ddMJgutGvJmO_opBQ=", "properties": {"@spider": "usps_collection_boxes", "addr:city": "RALEIGH", "addr:country": "US", "addr:full": "6320 CAPITAL BLVD", "addr:postcode": "27661", "addr:state": "NC", "amenity": "post_box", "brand": "United States Postal Service", "brand:wikidata": "Q668687", "collection_times": "Mo-Fr 17:00", "name": "USPS COLLECTION BOX - PO LOBBY", "note": "ON 12/24 AND 12/31, THIS BOX MAY BE COLLECTED AS EARLY AS 12 NOON.", "nsi_id": "unitedstatespostalservice-a77078", "operator": "United States Postal Service", "operator:short": "USPS", "operator:type": "public", "operator:wikidata": "Q668687", "ref": "2766100001"}, "type": "Feature"}
{"dataset_attributes": {"@spider": "usps_collection_boxes", "spider:collection_time": "2023-11-25T08:23:32.202811"}, "geometry": {"coordinates": [-78.7496303, 35.908165], "type": "Point"}, "id": "VsokaOnjzaeKVL6lYnRKOmyqlWE=", "properties": {"@spider": "usps_collection_boxes", "addr:city": "RALEIGH", "addr:country": "US", "addr:full": "1 FLORETTA PL", "addr:postcode": "27675", "addr:state": "NC", "amenity": "post_box", "brand": "United States Postal Service", "brand:wikidata": "Q668687", "collection_times": "Mo-Fr 16:00; Sa 13:00", "name": "USPS COLLECTION BOX - BLUE BOX", "note": "ON 12/24 AND 12/31, THIS BOX MAY BE COLLECTED AS EARLY AS 12 NOON.", "nsi_id": "unitedstatespostalservice-a77078", "operator": "United States Postal Service", "operator:short": "USPS", "operator:type": "public", "operator:wikidata": "Q668687", "ref": "2767500002"}, "type": "Feature"}
{"dataset_attributes": {"@spider": "usps_collection_boxes", "spider:collection_time": "2023-11-25T08:23:32.202811"}, "geometry": {"coordinates": [-78.74873, 35.904861], "type": "Point"}, "id": "CYZrEJcI03a8j1zgCmJ5ohPrz8U=", "properties": {"@spider": "usps_collection_boxes", "addr:city": "RALEIGH", "addr:country": "US", "addr:full": "1 FLORETTA PL", "addr:postcode": "27675", "addr:state": "NC", "amenity": "post_box", "brand": "United States Postal Service", "brand:wikidata": "Q668687", "collection_times": "Mo-Fr 17:00; Sa 14:00", "name": "USPS COLLECTION BOX - PO LOBBY", "note": "ON 12/24 AND 12/31, THIS BOX MAY BE COLLECTED AS EARLY AS 12 NOON.", "nsi_id": "unitedstatespostalservice-a77078", "operator": "United States Postal Service", "operator:short": "USPS", "operator:type": "public", "operator:wikidata": "Q668687", "ref": "2767500003"}, "type": "Feature"}
{"dataset_attributes": {"@spider": "usps_collection_boxes", "spider:collection_time": "2023-11-25T08:23:32.202811"}, "geometry": {"coordinates": [-78.750163987, 35.907258986], "type": "Point"}, "id": "oM9hhTrnNTM-jlMP0jaGPczM7sM=", "properties": {"@spider": "usps_collection_boxes", "addr:city": "RALEIGH", "addr:country": "US", "addr:full": "1 FLORETTA PL", "addr:postcode": "27675", "addr:state": "NC", "amenity": "post_box", "brand": "United States Postal Service", "brand:wikidata": "Q668687", "collection_times": "Mo-Fr 17:00; Sa 14:00", "name": "USPS COLLECTION BOX - APC", "note": "ON 12/24 AND 12/31, THIS BOX MAY BE COLLECTED AS EARLY AS 12 NOON.", "nsi_id": "unitedstatespostalservice-a77078", "operator": "United States Postal Service", "operator:short": "USPS", "operator:type": "public", "operator:wikidata": "Q668687", "ref": "2767500004"}, "type": "Feature"}
{"dataset_attributes": {"@spider": "usps_collection_boxes", "spider:collection_time": "2023-11-25T08:23:32.202811"}, "geometry": {"coordinates": [-78.750163987, 35.907258986], "type": "Point"}, "id": "fCQkWmXfaKiZXuuqwH9Qrdrgaq4=", "properties": {"@spider": "usps_collection_boxes", "addr:city": "RALEIGH", "addr:country": "US", "addr:full": "1 FLORETTA PL", "addr:postcode": "27676", "addr:state": "NC", "amenity": "post_box", "brand": "United States Postal Service", "brand:wikidata": "Q668687", "collection_times": "Mo-Fr 17:00; Sa 13:00", "name": "USPS COLLECTION BOX - PO LOBBY", "note": "ON 12/24 AND 12/31, THIS BOX MAY BE COLLECTED AS EARLY AS 12 NOON.", "nsi_id": "unitedstatespostalservice-a77078", "operator": "United States Postal Service", "operator:short": "USPS", "operator:type": "public", "operator:wikidata": "Q668687", "ref": "2767600002"}, "type": "Feature"}
