{"geometry": {"coordinates": [-78.900363, 35.997354], "type": "Point"}, "id": "mQ6qYzBDL_sVxLvKaZymw2d5wlU=", "properties": {"@spider": "usps_collection_boxes", "addr:city": "DURHAM", "addr:country": "US", "addr:full": "323 E CHAPEL HILL ST", "addr:postcode": "27701", "addr:state": "NC", "amenity": "post_box", "brand": "United States Postal Service", "brand:wikidata": "Q668687", "collection_times": "Mo-Fr 17:00; Sa 10:00", "name": "USPS COLLECTION BOX - BLUE BOX", "note": "ON 12/24 AND 12/31, THIS BOX MAY BE COLLECTED AS EARLY AS 12 NOON.", "nsi_id": "unitedstatespostalservice-a77078", "operator": "United States Postal Service", "operator:short": "USPS", "operator:type": "public", "operator:wikidata": "Q668687", "ref": "2770100000"}, "type": "Feature"}
{"geometry": {"coordinates": [-78.9109578, 36.011281], "type": "Point"}, "id": "A_hDcU0p4K6d43yJQkJDpzWnVtE=", "properties": {"@spider": "usps_collection_boxes", "addr:city": "DURHAM", "addr:country": "US", "addr:full": "1016 WATTS ST", "addr:postcode": "27701", "addr:state": "NC", "amenity": "post_box", "brand": "United States Postal Service", "brand:wikidata": "Q668687", "collection_times": "Mo-Sa 10:00", "name": "USPS COLLECTION BOX - BLUE BOX", "nsi_id": "unitedstatespostalservice-a77078", "operator": "United States Postal Service", "operator:short": "USPS", "operator:type": "public", "operator:wikidata": "Q668687", "ref": "2770100012"}, "type": "Feature"}
{"geometry": {"coordinates": [-78.9098621, 36.002333], "type": "Point"}, "id": "3oKk1_cKZTy4Mhir9i_Hl7xCXyI=", "properties": {"@spider": "usps_collection_boxes", "addr:city": "DURHAM", "addr:country": "US", "addr:full": "1006 LAMOND AVE", "addr:postcode": "27701", "addr:state": "NC", "amenity": "post_box", "brand": "United States Postal Service", "brand:wikidata": "Q668687", "collection_times": "Mo-Sa 09:00", "name": "USPS COLLECTION BOX - BLUE BOX", "nsi_id": "unitedstatespostalservice-a77078", "operator": "United States Postal Service", "operator:short": "USPS", "operator:type": "public", "operator:wikidata": "Q668687", "ref": "2770100014"}, "type": "Feature"}
{"geometry": {"coordinates": [-78.9220394, 35.996827], "type": "Point"}, "id": "cpYxPqcuCIGJOmK-C0Js3p-_K-M=", "properties": {"@spider": "usps_collection_boxes", "addr:city": "DURHAM", "addr:country": "US", "addr:full": "1500 DUKE UNIVERSITY RD", "addr:postcode": "27701", "addr:state": "NC", "amenity": "post_box", "brand": "United States Postal Service", "brand:wikidata": "Q668687", "collection_times": "Mo-Fr 12:00; Sa 10:00", "name": "USPS COLLECTION BOX - BLUE BOX", "nsi_id": "unitedstatespostalservice-a77078", "operator": "United States Postal Service", "operator:short": "USPS", "operator:type": "public", "operator:wikidata": "Q668687", "ref": "2770100016"}, "type": "Feature"}
{"geometry": {"coordinates": [-78.8907983, 35.974716], "type": "Point"}, "id": "eVMTCabw85Q4wWTUNZnxzFbvNXc=", "properties": {"@spider": "usps_collection_boxes", "addr:city": "DURHAM", "addr:country": "US", "addr:full": "1101 E LAWSON ST", "addr:postcode": "27701", "addr:state": "NC", "amenity": "post_box", "brand": "United States Postal Service", "brand:wikidata": "Q668687", "collection_times": "Mo-Sa 10:00", "name": "USPS COLLECTION BOX - BLUE BOX", "nsi_id": "unitedstatespostalservice-a77078", "operator": "United States Postal Service", "operator:short": "USPS", "operator:type": "public", "operator:wikidata": "Q668687", "ref": "2770100021"}, "type": "Feature"}
{"geometry": {"coordinates": [-78.907617673, 35.996873406], "type": "Point"}, "id": "0w5YmdlXHS6puWT2R5Xx5x8s5Uk=", "properties": {"@spider": "usps_collection_boxes", "addr:city": "DURHAM", "addr:country": "US", "addr:full": "404 WILLARD ST", "addr:postcode": "27701", "addr:state": "NC", "amenity": "post_box", "brand": "United States Postal Service", "brand:wikidata": "Q668687", "collection_times": "Mo-Fr 15:00; Sa 10:00", "name": "USPS COLLECTION BOX - BLUE BOX", "note": "ON 12/24 AND 12/31, THIS BOX MAY BE COLLECTED AS EARLY AS 12 NOON.", "nsi_id": "unitedstatespostalservice-a77078", "operator": "United States Postal Service", "operator:short": "USPS", "operator:type": "public", "operator:wikidata": "Q668687", "ref": "2770100028"}, "type": "Feature"}
{"geometry": {"coordinates": [-78.909729566, 36.000293535], "type": "Point"}, "id": "Hrs6mz4IRPRPoU6uV8r9OLHCa0U=", "properties": {"@spider": "usps_collection_boxes", "addr:city": "DURHAM", "addr:country": "US", "addr:full": "905 W MAIN ST", "addr:postcode": "27701", "addr:state": "NC", "amenity": "post_box", "brand": "United States Postal Service", "brand:wikidata": "Q668687", "collection_times": "Mo-Fr 15:00; Sa 10:00", "name": "USPS COLLECTION BOX - BLUE BOX", "note": "ON 12/24 AND 12/31, THIS BOX MAY BE COLLECTED AS EARLY AS 12 NOON.", "nsi_id": "unitedstatespostalservice-a77078", "operator": "United States Postal Service", "operator:short": "USPS", "operator:type": "public", "operator:wikidata": "Q668687", "ref": "2770100032"}, "type": "Feature"}
{"geometry": {"coordinates": [-78.9097914271, 36.0169584955], "type": "Point"}, "id": "wVf6V82JI-x5CbvQP19sbbY4T1A=", "properties": {"@spider": "usps_collection_boxes", "addr:city": "DURHAM", "addr:country": "US", "addr:full": "1058 W CLUB BLVD", "addr:postcode": "27701", "addr:state": "NC", "amenity": "post_box", "brand": "United States Postal Service", "brand:wikidata": "Q668687", "collection_times": "Mo-Fr 15:00; Sa 10:00", "name": "USPS COLLECTION BOX - BLUE BOX", "note": "ON 12/24 AND 12/31, THIS BOX MAY BE COLLECTED AS EARLY AS 12 NOON.", "nsi_id": "unitedstatespostalservice-a77078", "operator": "United States Postal Service", "operator:short": "USPS", "operator:type": "public", "operator:wikidata": "Q668687", "ref": "2770100036"}, "type": "Feature"}
{"geometry": {"coordinates": [-78.9007319691, 35.9996219845], "type": "Point"}, "id": "Tno8kagsz-asywcs-y7_8MCd0LY=", "properties": {"@spider": "usps_collection_boxes", "addr:city": "DURHAM", "addr:country": "US", "addr:full": "400 FOSTER ST", "addr:postcode": "27701", "addr:state": "NC", "amenity": "post_box", "brand": "United States Postal Service", "brand:wikidata": "Q668687", "collection_times": "Mo-Sa 10:00", "name": "USPS COLLECTION BOX - BLUE BOX", "nsi_id": "unitedstatespostalservice-a77078", "operator": "United States Postal Service", "operator:short": "USPS", "operator:type": "public", "operator:wikidata": "Q668687", "ref": "2770100039"}, "type": "Feature"}
{"geometry": {"coordinates": [-78.9014664, 36.004415], "type": "Point"}, "id": "nvRDRvfaBhAes9RsW6rF4el-4jU=", "properties": {"@spider": "usps_collection_boxes", "addr:city": "DURHAM", "addr:country": "US", "addr:full": "721 FOSTER ST", "addr:postcode": "27701", "addr:state": "NC", "amenity": "post_box", "brand": "United States Postal Service", "brand:wikidata": "Q668687", "collection_times": "Mo-Fr 11:00; Sa 10:00", "name": "USPS COLLECTION BOX - BLUE BOX", "nsi_id": "unitedstatespostalservice-a77078", "operator": "United States Postal Service", "operator:short": "USPS", "operator:type": "public", "operator:wikidata": "Q668687", "ref": "2770100040"}, "type": "Feature"}
{"geometry": {"coordinates": [-78.9074561597, 36.0186504124], "type": "Point"}, "id": "kaXhGgc08OIRP7CcAgIcOLjma84=", "properties": {"@spider": "usps_collection_boxes", "addr:city": "DURHAM", "addr:country": "US", "addr:full": "1530 N GREGSON ST", "addr:postcode": "27701", "addr:state": "NC", "amenity": "post_box", "brand": "United States Postal Service", "brand:wikidata": "Q668687", "collection_times": "Mo-Fr 15:00; Sa 10:00", "name": "USPS COLLECTION BOX - BLUE BOX", "note": "ON 12/24 AND 12/31, THIS BOX MAY BE COLLECTED AS EARLY AS 12 NOON.", "nsi_id": "unitedstatespostalservice-a77078", "operator": "United States Postal Service", "operator:short": "USPS", "operator:type": "public", "operator:wikidata": "Q668687", "ref": "2770100053"}, "type": "Feature"}
{"geometry": {"coordinates": [-78.9035057364, 36.0015112034], "type": "Point"}, "id": "ctn9W5pCdcHGc-LvtXQqK1Wq2WY=", "properties": {"@spider": "usps_collection_boxes", "addr:city": "DURHAM", "addr:country": "US", "addr:full": "423 MORRIS ST", "addr:postcode": "27701", "addr:state": "NC", "amenity": "post_box", "brand": "United States Postal Service", "brand:wikidata": "Q668687", "collection_times": "Mo-Fr 15:00; Sa 10:00", "name": "USPS COLLECTION BOX - BLUE BOX", "note": "ON 12/24 AND 12/31, THIS BOX MAY BE COLLECTED AS EARLY AS 12 NOON.", "nsi_id": "unitedstatespostalservice-a77078", "operator": "United States Postal Service", "operator:short": "USPS", "operator:type": "public", "operator:wikidata": "Q668687", "ref": "2770100061"}, "type": "Feature"}
{"geometry": {"coordinates": [-78.9141594, 35.996792], "type": "Point"}, "id": "WGL_l-QxmM7vxoqp2sdsy63tvZc=", "properties": {"@spider": "usps_collection_boxes", "addr:city": "DURHAM", "addr:country": "US", "addr:full": "807 W CHAPEL HILL ST", "addr:postcode": "27701", "addr:state": "NC", "amenity": "post_box", "brand": "United States Postal Service", "brand:wikidata": "Q668687", "collection_times": "Mo-Fr 11:00; Sa 10:00", "name": "USPS COLLECTION BOX - BLUE BOX", "nsi_id": "unitedstatespostalservice-a77078", "operator": "United States Postal Service", "operator:short": "USPS", "operator:type": "public", "operator:wikidata": "Q668687", "ref": "2770100062"}, "type": "Feature"}
{"geometry": {"coordinates": [-78.9025337, 35.99884], "type": "Point"}, "id": "Z--gW9s448jVWoIfBx_SuGrXSIc=", "properties": {"@spider": "usps_collection_boxes", "addr:city": "DURHAM", "addr:country": "US", "addr:full": "300 W MORGAN ST", "addr:postcode": "27701", "addr:state": "NC", "amenity": "post_box", "brand": "United States Postal Service", "brand:wikidata": "Q668687", "collection_times": "Mo-Fr 11:00; Sa 10:00", "name": "USPS COLLECTION BOX - BLUE BOX", "nsi_id": "unitedstatespostalservice-a77078", "operator": "United States Postal Service", "operator:short": "USPS", "operator:type": "public", "operator:wikidata": "Q668687", "ref": "2770100067"}, "type": "Feature"}
{"geometry": {"coordinates": [-78.9025139, 35.998826], "type": "Point"}, "id": "VYtzgJA7QGvjvw1oVvFqYxXzm4E=", "properties": {"@spider": "usps_collection_boxes", "addr:city": "DURHAM", "addr:country": "US", "addr:full": "300 W MORGAN ST", "addr:postcode": "27701", "addr:state": "NC", "amenity": "post_box", "brand": "United States Postal Service", "brand:wikidata": "Q668687", "collection_times": "Mo-Fr 11:00; Sa 10:00", "name": "USPS COLLECTION BOX - BLUE BOX", "nsi_id": "unitedstatespostalservice-a77078", "operator": "United States Postal Service", "operator:short": "USPS", "operator:type": "public", "operator:wikidata": "Q668687", "ref": "2770100073"}, "type": "Feature"}
{"geometry": {"coordinates": [-78.90028, 35.996932], "type": "Point"}, "id": "IP0Rj5SnKX6qP8eTLUzZmtt4vL4=", "properties": {"@spider": "usps_collection_boxes", "addr:city": "DURHAM", "addr:country": "US", "addr:full": "323 E CHAPEL HILL ST", "addr:postcode": "27701", "addr:state": "NC", "amenity": "post_box", "brand": "United States Postal Service", "brand:wikidata": "Q668687", "collection_times": "Mo-Fr 17:00; Sa 12:00", "name": "USPS COLLECTION BOX - PO LOBBY", "note": "ON 12/24 AND 12/31, THIS BOX MAY BE COLLECTED AS EARLY AS 12 NOON.", "nsi_id": "unitedstatespostalservice-a77078", "operator": "United States Postal Service", "operator:short": "USPS", "operator:type": "public", "operator:wikidata": "Q668687", "ref": "2770100078"}, "type": "Feature"}
{"geometry": {"coordinates": [-78.902290754, 35.99206027], "type": "Point"}, "id": "Uw5UPsMHgu-jqR4L5IPy3UzdGpk=", "properties": {"@spider": "usps_collection_boxes", "addr:city": "DURHAM", "addr:country": "US", "addr:full": "280 S MANGUM ST", "addr:postcode": "27701", "addr:state": "NC", "amenity": "post_box", "brand": "United States Postal Service", "brand:wikidata": "Q668687", "collection_times": "Mo-Fr 15:00; Sa 10:00", "name": "USPS COLLECTION BOX - BLUE BOX", "note": "ON 12/24 AND 12/31, THIS BOX MAY BE COLLECTED AS EARLY AS 12 NOON.", "nsi_id": "unitedstatespostalservice-a77078", "operator": "United States Postal Service", "operator:short": "USPS", "operator:type": "public", "operator:wikidata": "Q668687", "ref": "2770100079"}, "type": "Feature"}
{"geometry": {"coordinates": [-78.9024415, 35.996086], "type": "Point"}, "id": "Zs_Q2C51AkQCD020GhzOz9rC4V8=", "properties": {"@spider": "usps_collection_boxes", "addr:city": "DURHAM", "addr:country": "US", "addr:full": "102 MARKET ST", "addr:postcode": "27701", "addr:state": "NC", "amenity": "post_box", "brand": "United States Postal Service", "brand:wikidata": "Q668687", "collection_times": "Mo-Fr 16:00; Sa 10:00", "name": "USPS COLLECTION BOX - BLUE BOX", "note": "ON 12/24 AND 12/31, THIS BOX MAY BE COLLECTED AS EARLY AS 12 NOON.", "nsi_id": "unitedstatespostalservice-a77078", "operator": "United States Postal Service", "operator:short": "USPS", "operator:type": "public", "operator:wikidata": "Q668687", "ref": "2770100084"}, "type": "Feature"}
{"geometry": {"coordinates": [-78.9024837, 35.996085], "type": "Point"}, "id": "dZlmIfpYPVHXr8B2bwGXR96J-lE=", "properties": {"@spider": "usps_collection_boxes", "addr:city": "DURHAM", "addr:country": "US", "addr:full": "102 MARKET ST", "addr:postcode": "27701", "addr:state": "NC", "amenity": "post_box", "brand": "United States Postal Service", "brand:wikidata": "Q668687", "collection_times": "Mo-Fr 16:00; Sa 10:00", "name": "USPS COLLECTION BOX - BLUE BOX", "note": "ON 12/24 AND 12/31, THIS BOX MAY BE COLLECTED AS EARLY AS 12 NOON.", "nsi_id": "unitedstatespostalservice-a77078", "operator": "United States Postal Service", "operator:short": "USPS", "operator:type": "public", "operator:wikidata": "Q668687", "ref": "2770100086"}, "type": "Feature"}
{"geometry": {"coordinates": [-78.9002847655, 35.9969545082], "type": "Point"}, "id": "fOO5N3nIXo9DPVFpdQFIarkezHk=", "properties": {"@spider": "usps_collection_boxes", "addr:city": "DURHAM", "addr:country": "US", "addr:full": "323 E CHAPEL HILL ST", "addr:postcode": "27701", "addr:state": "NC", "amenity": "post_box", "brand": "United States Postal Service", "brand:wikidata": "Q668687", "collection_times": "Mo-Fr 17:00", "name": "USPS COLLECTION BOX - PO LOBBY", "note": "ON 12/24 AND 12/31, THIS BOX MAY BE COLLECTED AS EARLY AS 12 NOON.", "nsi_id": "unitedstatespostalservice-a77078", "operator": "United States Postal Service", "operator:short": "USPS", "operator:type": "public", "operator:wikidata": "Q668687", "ref": "2770100091"}, "type": "Feature"}
{"geometry": {"coordinates": [-78.871418524, 35.995068646], "type": "Point"}, "id": "YGvuV3MlE9Ikvk6w8rr8VGWqoes=", "properties": {"@spider": "usps_collection_boxes", "addr:city": "DURHAM", "addr:country": "US", "addr:full": "1100 N MIAMI BLVD", "addr:postcode": "27703", "addr:state": "NC", "amenity": "post_box", "brand": "United States Postal Service", "brand:wikidata": "Q668687", "collection_times": "Mo-Fr 17:00; Sa 12:30", "name": "USPS COLLECTION BOX - BLUE BOX", "note": "ON 12/24 AND 12/31, THIS BOX MAY BE COLLECTED AS EARLY AS 12 NOON.", "nsi_id": "unitedstatespostalservice-a77078", "operator": "United States Postal Service", "operator:short": "USPS", "operator:type": "public", "operator:wikidata": "Q668687", "ref": "2770300001"}, "type": "Feature"}
{"geometry": {"coordinates": [-78.871418524, 35.995068646], "type": "Point"}, "id": "vqLlcFfhO5CLpmSIRC-G8IUYT3s=", "properties": {"@spider": "usps_collection_boxes", "addr:city": "DURHAM", "addr:country": "US", "addr:full": "1100 N MIAMI BLVD", "addr:postcode": "27703", "addr:state": "NC", "amenity": "post_box", "brand": "United States Postal Service", "brand:wikidata": "Q668687", "collection_times": "Mo-Fr 17:00; Sa 12:30", "name": "USPS COLLECTION BOX - BLUE BOX", "note": "ON 12/24 AND 12/31, THIS BOX MAY BE COLLECTED AS EARLY AS 12 NOON.", "nsi_id": "unitedstatespostalservice-a77078", "operator": "United States Postal Service", "operator:short": "USPS", "operator:type": "public", "operator:wikidata": "Q668687", "ref": "2770300002"}, "type": "Feature"}
{"geometry": {"coordinates": [-78.8677258254, 35.9924573231], "type": "Point"}, "id": "J41-Ra2UtGzFhoOV9R_jTAmLvvY=", "properties": {"@spider": "usps_collection_boxes", "addr:city": "DURHAM", "addr:country": "US", "addr:full": "1935 HOLLOWAY ST", "addr:postcode": "27703", "addr:state": "NC", "amenity": "post_box", "brand": "United States Postal Service", "brand:wikidata": "Q668687", "collection_times": "Mo-Fr 11:30; Sa 10:00", "name": "USPS COLLECTION BOX - BLUE BOX", "nsi_id": "unitedstatespostalservice-a77078", "operator": "United States Postal Service", "operator:short": "USPS", "operator:type": "public", "operator:wikidata": "Q668687", "ref": "2770300016"}, "type": "Feature"}
{"geometry": {"coordinates": [-78.820496166, 35.981351965], "type": "Point"}, "id": "mnP8YmZVaGuiBhJFGSdsYG-dxj0=", "properties": {"@spider": "usps_collection_boxes", "addr:city": "DURHAM", "addr:country": "US", "addr:full": "3801 WAKE FOREST RD", "addr:postcode": "27703", "addr:state": "NC", "amenity": "post_box", "brand": "United States Postal Service", "brand:wikidata": "Q668687", "collection_times": "Mo-Fr 11:00; Sa 10:00", "name": "USPS COLLECTION BOX - BLUE BOX", "nsi_id": "unitedstatespostalservice-a77078", "operator": "United States Postal Service", "operator:short": "USPS", "operator:type": "public", "operator:wikidata": "Q668687", "ref": "2770300022"}, "type": "Feature"}
{"geometry": {"coordinates": [-78.8700327, 35.99131], "type": "Point"}, "id": "7pwZc13qmkaWdew0tSTolpfkZCA=", "properties": {"@spider": "usps_collection_boxes", "addr:city": "DURHAM", "addr:country": "US", "addr:full": "622 GARY ST", "addr:postcode": "27703", "addr:state": "NC", "amenity": "post_box", "brand": "United States Postal Service", "brand:wikidata": "Q668687", "collection_times": "Mo-Fr 12:00; Sa 10:00", "name": "USPS COLLECTION BOX - BLUE BOX", "nsi_id": "unitedstatespostalservice-a77078", "operator": "United States Postal Service", "operator:short": "USPS", "operator:type": "public", "operator:wikidata": "Q668687", "ref": "2770300024"}, "type": "Feature"}
{"geometry": {"coordinates": [-78.8714185237, 35.9950686462], "type": "Point"}, "id": "NgAua6SNotmuH-ZSQotpSBeQ18s=", "properties": {"@spider": "usps_collection_boxes", "addr:city": "DURHAM", "addr:country": "US", "addr:full": "1100 N MIAMI BLVD", "addr:postcode": "27703", "addr:state": "NC", "amenity": "post_box", "brand": "United States Postal Service", "brand:wikidata": "Q668687", "collection_times": "Mo-Fr 17:00; Sa 12:30", "name": "USPS COLLECTION BOX - BLUE BOX", "note": "ON 12/24 AND 12/31, THIS BOX MAY BE COLLECTED AS EARLY AS 12 NOON.", "nsi_id": "unitedstatespostalservice-a77078", "operator": "United States Postal Service", "operator:short": "USPS", "operator:type": "public", "operator:wikidata": "Q668687", "ref": "2770300026"}, "type": "Feature"}
{"geometry": {"coordinates": [-78.8456687, 35.883207], "type": "Point"}, "id": "hMzKWQw5yPZm7u4ovEvNaflRXA8=", "properties": {"@spider": "usps_collection_boxes", "addr:city": "DURHAM", "addr:country": "US", "addr:full": "4625 CREEKSTONE DR", "addr:postcode": "27703", "addr:state": "NC", "amenity": "post_box", "brand": "United States Postal Service", "brand:wikidata": "Q668687", "collection_times": "Mo-Fr 12:00; Sa 10:00", "name": "USPS COLLECTION BOX - BLUE BOX", "nsi_id": "unitedstatespostalservice-a77078", "operator": "United States Postal Service", "operator:short": "USPS", "operator:type": "public", "operator:wikidata": "Q668687", "ref": "2770300034"}, "type": "Feature"}
{"geometry": {"coordinates": [-78.8523111, 35.880588], "type": "Point"}, "id": "KfaHyc0ubczMtp_UmsG0GEzvlhk=", "properties": {"@spider": "usps_collection_boxes", "addr:city": "DURHAM", "addr:country": "US", "addr:full": "5400 S MIAMI BLVD", "addr:postcode": "27703", "addr:state": "NC", "amenity": "post_box", "brand": "United States Postal Service", "brand:wikidata": "Q668687", "collection_times": "Mo-Fr 12:00; Sa 10:00", "name": "USPS COLLECTION BOX - BLUE BOX", "nsi_id": "unitedstatespostalservice-a77078", "operator": "United States Postal Service", "operator:short": "USPS", "operator:type": "public", "operator:wikidata": "Q668687", "ref": "2770300035"}, "type": "Feature"}
{"geometry": {"coordinates": [-78.8459858, 35.872464], "type": "Point"}, "id": "HSjv_1_MYvPi357A5qtVTEN9T_o=", "properties": {"@spider": "usps_collection_boxes", "addr:city": "DURHAM", "addr:country": "US", "addr:full": "4222 EMPEROR BLVD", "addr:postcode": "27703", "addr:state": "NC", "amenity": "post_box", "brand": "United States Postal Service", "brand:wikidata": "Q668687", "collection_times": "Mo-Fr 16:30; Sa 10:00", "name": "USPS COLLECTION BOX - BLUE BOX", "note": "ON 12/24 AND 12/31, THIS BOX MAY BE COLLECTED AS EARLY AS 12 NOON.", "nsi_id": "unitedstatespostalservice-a77078", "operator": "United States Postal Service", "operator:short": "USPS", "operator:type": "public", "operator:wikidata": "Q668687", "ref": "2770300036"}, "type": "Feature"}
{"geometry": {"coordinates": [-78.8416144947, 35.8780753269], "type": "Point"}, "id": "ClUAyyCiIwjddGILlEHxzGrogSc=", "properties": {"@spider": "usps_collection_boxes", "addr:city": "DURHAM", "addr:country": "US", "addr:full": "1005 SLATER RD", "addr:postcode": "27703", "addr:state": "NC", "amenity": "post_box", "brand": "United States Postal Service", "brand:wikidata": "Q668687", "collection_times": "Mo-Fr 16:30; Sa 10:00", "name": "USPS COLLECTION BOX - BLUE BOX", "note": "ON 12/24 AND 12/31, THIS BOX MAY BE COLLECTED AS EARLY AS 12 NOON.", "nsi_id": "unitedstatespostalservice-a77078", "operator": "United States Postal Service", "operator:short": "USPS", "operator:type": "public", "operator:wikidata": "Q668687", "ref": "2770300038"}, "type": "Feature"}
{"geometry": {"coordinates": [-78.841541986, 35.87763801], "type": "Point"}, "id": "JIr5HQ7_02Ngeh2TIhIB81ccsZY=", "properties": {"@spider": "usps_collection_boxes", "addr:city": "DURHAM", "addr:country": "US", "addr:full": "1005 SLATER RD", "addr:postcode": "27703", "addr:state": "NC", "amenity": "post_box", "brand": "United States Postal Service", "brand:wikidata": "Q668687", "collection_times": "Mo-Fr 16:30; Sa 10:00", "name": "USPS COLLECTION BOX - BLUE BOX", "note": "ON 12/24 AND 12/31, THIS BOX MAY BE COLLECTED AS EARLY AS 12 NOON.", "nsi_id": "unitedstatespostalservice-a77078", "operator": "United States Postal Service", "operator:short": "USPS", "operator:type": "public", "operator:wikidata": "Q668687", "ref": "2770300039"}, "type": "Feature"}
{"geometry": {"coordinates": [-78.88485171, 35.975855025], "type": "Point"}, "id": "Va97Tmpwgvg0cmAB-a52g7UUz7o=", "properties": {"@spider": "usps_collection_boxes", "addr:city": "DURHAM", "addr:country": "US", "addr:full": "800 BACON ST", "addr:postcode": "27703", "addr:state": "NC", "amenity": "post_box", "brand": "United States Postal Service", "brand:wikidata": "Q668687", "collection_times": "Mo-Fr 12:00; Sa 10:00", "name": "USPS COLLECTION BOX - BLUE BOX", "nsi_id": "unitedstatespostalservice-a77078", "operator": "United States Postal Service", "operator:short": "USPS", "operator:type": "public", "operator:wikidata": "Q668687", "ref": "2770300040"}, "type": "Feature"}
{"geometry": {"coordinates": [-78.871489, 35.995151], "type": "Point"}, "id": "HatiJkXQiNK2TbO5rlMEpP1F7v4=", "properties": {"@spider": "usps_collection_boxes", "addr:city": "DURHAM", "addr:country": "US", "addr:full": "1100 N MIAMI BLVD", "addr:postcode": "27703", "addr:state": "NC", "amenity": "post_box", "brand": "United States Postal Service", "brand:wikidata": "Q668687", "collection_times": "Mo-Fr 17:00; Sa 12:30", "name": "USPS COLLECTION BOX - PO LOBBY", "note": "ON 12/24 AND 12/31, THIS BOX MAY BE COLLECTED AS EARLY AS 12 NOON.", "nsi_id": "unitedstatespostalservice-a77078", "operator": "United States Postal Service", "operator:short": "USPS", "operator:type": "public", "operator:wikidata": "Q668687", "ref": "2770300041"}, "type": "Feature"}
{"geometry": {"coordinates": [-78.8714185237, 35.9950686462], "type": "Point"}, "id": "GEYmEOJ_MkXEzbLGQX8Sv3gaKMY=", "properties": {"@spider": "usps_collection_boxes", "addr:city": "DURHAM", "addr:country": "US", "addr:full": "1100 N MIAMI BLVD", "addr:postcode": "27703", "addr:state": "NC", "amenity": "post_box", "brand": "United States Postal Service", "brand:wikidata": "Q668687", "collection_times": "Mo-Fr 16:00; Sa 12:00", "name": "USPS COLLECTION BOX - PO LOBBY", "note": "ON 12/24 AND 12/31, THIS BOX MAY BE COLLECTED AS EARLY AS 12 NOON.", "nsi_id": "unitedstatespostalservice-a77078", "operator": "United States Postal Service", "operator:short": "USPS", "operator:type": "public", "operator:wikidata": "Q668687", "ref": "2770300044"}, "type": "Feature"}
{"geometry": {"coordinates": [-78.8922603913, 36.034809422], "type": "Point"}, "id": "Y_gbBrKVDuoGoAOk7hZm8Tig7U0=", "properties": {"@spider": "usps_collection_boxes", "addr:city": "DURHAM", "addr:country": "US", "addr:full": "3409 N ROXBORO ST", "addr:postcode": "27704", "addr:state": "NC", "amenity": "post_box", "brand": "United States Postal Service", "brand:wikidata": "Q668687", "collection_times": "Mo-Fr 16:30; Sa 11:30", "name": "USPS COLLECTION BOX - BLUE BOX", "note": "ON 12/24 AND 12/31, THIS BOX MAY BE COLLECTED AS EARLY AS 12 NOON.", "nsi_id": "unitedstatespostalservice-a77078", "operator": "United States Postal Service", "operator:short": "USPS", "operator:type": "public", "operator:wikidata": "Q668687", "ref": "2770400002"}, "type": "Feature"}
{"geometry": {"coordinates": [-78.8957144259, 36.0190529989], "type": "Point"}, "id": "Wycw5EOtRwE38btv9s1XYzncLsQ=", "properties": {"@spider": "usps_collection_boxes", "addr:city": "DURHAM", "addr:country": "US", "addr:full": "310 W CLUB BLVD", "addr:postcode": "27704", "addr:state": "NC", "amenity": "post_box", "brand": "United States Postal Service", "brand:wikidata": "Q668687", "collection_times": "Mo-Sa 10:00", "name": "USPS COLLECTION BOX - BLUE BOX", "nsi_id": "unitedstatespostalservice-a77078", "operator": "United States Postal Service", "operator:short": "USPS", "operator:type": "public", "operator:wikidata": "Q668687", "ref": "2770400009"}, "type": "Feature"}
{"geometry": {"coordinates": [-78.9072077833, 36.068015003], "type": "Point"}, "id": "MmRY6362i42hS710A-8Pr_AIGUM=", "properties": {"@spider": "usps_collection_boxes", "addr:city": "DURHAM", "addr:country": "US", "addr:full": "5106 N ROXBORO ST", "addr:postcode": "27704", "addr:state": "NC", "amenity": "post_box", "brand": "United States Postal Service", "brand:wikidata": "Q668687", "collection_times": "Mo-Fr 15:00; Sa 10:00", "name": "USPS COLLECTION BOX - BLUE BOX", "note": "ON 12/24 AND 12/31, THIS BOX MAY BE COLLECTED AS EARLY AS 12 NOON.", "nsi_id": "unitedstatespostalservice-a77078", "operator": "United States Postal Service", "operator:short": "USPS", "operator:type": "public", "operator:wikidata": "Q668687", "ref": "2770400011"}, "type": "Feature"}
{"geometry": {"coordinates": [-78.905546488, 36.031038009], "type": "Point"}, "id": "2MmnSU0y1VgPgAwBlRAF7yGO_Zk=", "properties": {"@spider": "usps_collection_boxes", "addr:city": "DURHAM", "addr:country": "US", "addr:full": "2609 N DUKE ST", "addr:postcode": "27704", "addr:state": "NC", "amenity": "post_box", "brand": "United States Postal Service", "brand:wikidata": "Q668687", "collection_times": "Mo-Fr 16:00; Sa 10:00", "name": "USPS COLLECTION BOX - BLUE BOX", "note": "ON 12/24 AND 12/31, THIS BOX MAY BE COLLECTED AS EARLY AS 12 NOON.", "nsi_id": "unitedstatespostalservice-a77078", "operator": "United States Postal Service", "operator:short": "USPS", "operator:type": "public", "operator:wikidata": "Q668687", "ref": "2770400018"}, "type": "Feature"}
{"geometry": {"coordinates": [-78.8933186, 36.03845], "type": "Point"}, "id": "TQDDK1EcI_37591Kl5vShydQ2m0=", "properties": {"@spider": "usps_collection_boxes", "addr:city": "DURHAM", "addr:country": "US", "addr:full": "3500 N ROXBORO ST", "addr:postcode": "27704", "addr:state": "NC", "amenity": "post_box", "brand": "United States Postal Service", "brand:wikidata": "Q668687", "collection_times": "Mo-Fr 12:00; Sa 10:00", "name": "USPS COLLECTION BOX - BLUE BOX", "nsi_id": "unitedstatespostalservice-a77078", "operator": "United States Postal Service", "operator:short": "USPS", "operator:type": "public", "operator:wikidata": "Q668687", "ref": "2770400020"}, "type": "Feature"}
{"geometry": {"coordinates": [-78.9057550829, 36.0478204171], "type": "Point"}, "id": "RYst7-Grl6iXn1uPbzigvMiBi_0=", "properties": {"@spider": "usps_collection_boxes", "addr:city": "DURHAM", "addr:country": "US", "addr:full": "3600 N DUKE ST", "addr:postcode": "27704", "addr:state": "NC", "amenity": "post_box", "brand": "United States Postal Service", "brand:wikidata": "Q668687", "collection_times": "Mo-Fr 15:00; Sa 10:00", "name": "USPS COLLECTION BOX - BLUE BOX", "note": "ON 12/24 AND 12/31, THIS BOX MAY BE COLLECTED AS EARLY AS 12 NOON.", "nsi_id": "unitedstatespostalservice-a77078", "operator": "United States Postal Service", "operator:short": "USPS", "operator:type": "public", "operator:wikidata": "Q668687", "ref": "2770400022"}, "type": "Feature"}
{"geometry": {"coordinates": [-78.9052095, 36.047061], "type": "Point"}, "id": "7pSX1ljiky7nfTrRh0mEI62GSKk=", "properties": {"@spider": "usps_collection_boxes", "addr:city": "DURHAM", "addr:country": "US", "addr:full": "3414 N DUKE ST", "addr:postcode": "27704", "addr:state": "NC", "amenity": "post_box", "brand": "United States Postal Service", "brand:wikidata": "Q668687", "collection_times": "Mo-Fr 16:00; Sa 10:00", "name": "USPS COLLECTION BOX - BLUE BOX", "note": "ON 12/24 AND 12/31, THIS BOX MAY BE COLLECTED AS EARLY AS 12 NOON.", "nsi_id": "unitedstatespostalservice-a77078", "operator": "United States Postal Service", "operator:short": "USPS", "operator:type": "public", "operator:wikidata": "Q668687", "ref": "2770400026"}, "type": "Feature"}
{"geometry": {"coordinates": [-78.8870159, 36.017242], "type": "Point"}, "id": "0qUeEqL0C9dJa3AGHAv-mPtHWYU=", "properties": {"@spider": "usps_collection_boxes", "addr:city": "DURHAM", "addr:country": "US", "addr:full": "2000 AVONDALE DR", "addr:postcode": "27704", "addr:state": "NC", "amenity": "post_box", "brand": "United States Postal Service", "brand:wikidata": "Q668687", "collection_times": "Mo-Sa 10:00", "name": "USPS COLLECTION BOX - BLUE BOX", "nsi_id": "unitedstatespostalservice-a77078", "operator": "United States Postal Service", "operator:short": "USPS", "operator:type": "public", "operator:wikidata": "Q668687", "ref": "2770400028"}, "type": "Feature"}
{"geometry": {"coordinates": [-78.8922603913, 36.034809422], "type": "Point"}, "id": "a4B0phKeLmIpRTl_Uf07oOCh2Dw=", "properties": {"@spider": "usps_collection_boxes", "addr:city": "DURHAM", "addr:country": "US", "addr:full": "3409 N ROXBORO ST", "addr:postcode": "27704", "addr:state": "NC", "amenity": "post_box", "brand": "United States Postal Service", "brand:wikidata": "Q668687", "collection_times": "Mo-Fr 16:30; Sa 11:30", "name": "USPS COLLECTION BOX - BLUE BOX", "note": "ON 12/24 AND 12/31, THIS BOX MAY BE COLLECTED AS EARLY AS 12 NOON.", "nsi_id": "unitedstatespostalservice-a77078", "operator": "United States Postal Service", "operator:short": "USPS", "operator:type": "public", "operator:wikidata": "Q668687", "ref": "2770400029"}, "type": "Feature"}
{"geometry": {"coordinates": [-78.904663, 36.064236], "type": "Point"}, "id": "Z4-z9VaVZr-U2hfcqPSiSdgMpds=", "properties": {"@spider": "usps_collection_boxes", "addr:city": "DURHAM", "addr:country": "US", "addr:full": "4900 N ROXBORO ST", "addr:postcode": "27704", "addr:state": "NC", "amenity": "post_box", "brand": "United States Postal Service", "brand:wikidata": "Q668687", "collection_times": "Mo-Fr 12:00; Sa 10:00", "name": "USPS COLLECTION BOX - BLUE BOX", "nsi_id": "unitedstatespostalservice-a77078", "operator": "United States Postal Service", "operator:short": "USPS", "operator:type": "public", "operator:wikidata": "Q668687", "ref": "2770400034"}, "type": "Feature"}
{"geometry": {"coordinates": [-78.893809, 36.035926], "type": "Point"}, "id": "Ho4oCui7p0B51K6nJGkVqS8YudI=", "properties": {"@spider": "usps_collection_boxes", "addr:city": "DURHAM", "addr:country": "US", "addr:full": "3500 N ROXBORO ST", "addr:postcode": "27704", "addr:state": "NC", "amenity": "post_box", "brand": "United States Postal Service", "brand:wikidata": "Q668687", "collection_times": "Mo-Fr 17:00; Sa 12:30", "name": "USPS COLLECTION BOX - PO LOBBY", "note": "ON 12/24 AND 12/31, THIS BOX MAY BE COLLECTED AS EARLY AS 12 NOON.", "nsi_id": "unitedstatespostalservice-a77078", "operator": "United States Postal Service", "operator:short": "USPS", "operator:type": "public", "operator:wikidata": "Q668687", "ref": "2770400037"}, "type": "Feature"}
{"geometry": {"coordinates": [-78.8938092445, 36.0359246022], "type": "Point"}, "id": "XUZvSPr_IwFhsvGmxTgdDNCWwK0=", "properties": {"@spider": "usps_collection_boxes", "addr:city": "DURHAM", "addr:country": "US", "addr:full": "3500 N ROXBORO ST", "addr:postcode": "27704", "addr:state": "NC", "amenity": "post_box", "brand": "United States Postal Service", "brand:wikidata": "Q668687", "collection_times": "Mo-Fr 17:00; Sa 12:30", "name": "USPS COLLECTION BOX - PO LOBBY", "note": "ON 12/24 AND 12/31, THIS BOX MAY BE COLLECTED AS EARLY AS 12 NOON.", "nsi_id": "unitedstatespostalservice-a77078", "operator": "United States Postal Service", "operator:short": "USPS", "operator:type": "public", "operator:wikidata": "Q668687", "ref": "2770400040"}, "type": "Feature"}
{"geometry": {"coordinates": [-78.9498536545, 36.0131248438], "type": "Point"}, "id": "tE28yD9i_oDJGcjZOTNURDxPokA=", "properties": {"@spider": "usps_collection_boxes", "addr:city": "DURHAM", "addr:country": "US", "addr:full": "3520 KANGAROO DR", "addr:postcode": "27705", "addr:state": "NC", "amenity": "post_box", "brand": "United States Postal Service", "brand:wikidata": "Q668687", "collection_times": "Mo-Fr 17:00; Sa 12:30", "name": "USPS COLLECTION BOX - BLUE BOX", "note": "ON 12/24 AND 12/31, THIS BOX MAY BE COLLECTED AS EARLY AS 12 NOON.", "nsi_id": "unitedstatespostalservice-a77078", "operator": "United States Postal Service", "operator:short": "USPS", "operator:type": "public", "operator:wikidata": "Q668687", "ref": "2770500002"}, "type": "Feature"}
{"geometry": {"coordinates": [-78.9221463, 36.007529], "type": "Point"}, "id": "n--ALeHM0CI-aXSYrcDJXwl1w5M=", "properties": {"@spider": "usps_collection_boxes", "addr:city": "DURHAM", "addr:country": "US", "addr:full": "626 9TH ST", "addr:postcode": "27705", "addr:state": "NC", "amenity": "post_box", "brand": "United States Postal Service", "brand:wikidata": "Q668687", "collection_times": "Mo-Fr 15:00; Sa 10:00", "name": "USPS COLLECTION BOX - BLUE BOX", "note": "ON 12/24 AND 12/31, THIS BOX MAY BE COLLECTED AS EARLY AS 12 NOON.", "nsi_id": "unitedstatespostalservice-a77078", "operator": "United States Postal Service", "operator:short": "USPS", "operator:type": "public", "operator:wikidata": "Q668687", "ref": "2770500005"}, "type": "Feature"}
{"geometry": {"coordinates": [-78.9288975, 36.038277], "type": "Point"}, "id": "xLRELmGoLJSKQu0OkRRJB9yevRc=", "properties": {"@spider": "usps_collection_boxes", "addr:city": "DURHAM", "addr:country": "US", "addr:full": "3300 GUESS RD", "addr:postcode": "27705", "addr:state": "NC", "amenity": "post_box", "brand": "United States Postal Service", "brand:wikidata": "Q668687", "collection_times": "Mo-Fr 15:00; Sa 10:00", "name": "USPS COLLECTION BOX - BLUE BOX", "note": "ON 12/24 AND 12/31, THIS BOX MAY BE COLLECTED AS EARLY AS 12 NOON.", "nsi_id": "unitedstatespostalservice-a77078", "operator": "United States Postal Service", "operator:short": "USPS", "operator:type": "public", "operator:wikidata": "Q668687", "ref": "2770500009"}, "type": "Feature"}
{"geometry": {"coordinates": [-78.929242, 36.05749], "type": "Point"}, "id": "UJHqf_7PUDWqPjKLirUaC020hr8=", "properties": {"@spider": "usps_collection_boxes", "addr:city": "DURHAM", "addr:country": "US", "addr:full": "1500 HORTON RD", "addr:postcode": "27705", "addr:state": "NC", "amenity": "post_box", "brand": "United States Postal Service", "brand:wikidata": "Q668687", "collection_times": "Mo-Sa 10:00", "name": "USPS COLLECTION BOX - BLUE BOX", "nsi_id": "unitedstatespostalservice-a77078", "operator": "United States Postal Service", "operator:short": "USPS", "operator:type": "public", "operator:wikidata": "Q668687", "ref": "2770500011"}, "type": "Feature"}
{"geometry": {"coordinates": [-78.9618241, 35.976115], "type": "Point"}, "id": "jXOy0uDWwIbOtLfkqRdYRbz75u0=", "properties": {"@spider": "usps_collection_boxes", "addr:city": "DURHAM", "addr:country": "US", "addr:full": "18 W COLONY PL", "addr:postcode": "27705", "addr:state": "NC", "amenity": "post_box", "brand": "United States Postal Service", "brand:wikidata": "Q668687", "collection_times": "Mo-Sa 10:00", "name": "USPS COLLECTION BOX - BLUE BOX", "nsi_id": "unitedstatespostalservice-a77078", "operator": "United States Postal Service", "operator:short": "USPS", "operator:type": "public", "operator:wikidata": "Q668687", "ref": "2770500013"}, "type": "Feature"}
{"geometry": {"coordinates": [-78.9539889893, 36.0231760126], "type": "Point"}, "id": "r4Hl4TMOBy83OvWM-ykRVpR9DLA=", "properties": {"@spider": "usps_collection_boxes", "addr:city": "DURHAM", "addr:country": "US", "addr:full": "3600 HILLSBOROUGH RD", "addr:postcode": "27705", "addr:state": "NC", "amenity": "post_box", "brand": "United States Postal Service", "brand:wikidata": "Q668687", "collection_times": "Mo-Fr 15:00; Sa 10:00", "name": "USPS COLLECTION BOX - BLUE BOX", "note": "ON 12/24 AND 12/31, THIS BOX MAY BE COLLECTED AS EARLY AS 12 NOON.", "nsi_id": "unitedstatespostalservice-a77078", "operator": "United States Postal Service", "operator:short": "USPS", "operator:type": "public", "operator:wikidata": "Q668687", "ref": "2770500024"}, "type": "Feature"}
{"geometry": {"coordinates": [-78.9194071287, 36.013382602], "type": "Point"}, "id": "PvcgNK0utZ6uzmvtXYbpQuRYC-s=", "properties": {"@spider": "usps_collection_boxes", "addr:city": "DURHAM", "addr:country": "US", "addr:full": "922 BROAD ST", "addr:postcode": "27705", "addr:state": "NC", "amenity": "post_box", "brand": "United States Postal Service", "brand:wikidata": "Q668687", "collection_times": "Mo-Fr 15:00; Sa 10:00", "name": "USPS COLLECTION BOX - BLUE BOX", "note": "ON 12/24 AND 12/31, THIS BOX MAY BE COLLECTED AS EARLY AS 12 NOON.", "nsi_id": "unitedstatespostalservice-a77078", "operator": "United States Postal Service", "operator:short": "USPS", "operator:type": "public", "operator:wikidata": "Q668687", "ref": "2770500029"}, "type": "Feature"}
{"geometry": {"coordinates": [-78.919734335, 36.008649398], "type": "Point"}, "id": "IDlV9fCYesNR9vl1OhivJM9-PeA=", "properties": {"@spider": "usps_collection_boxes", "addr:city": "DURHAM", "addr:country": "US", "addr:full": "715 BROAD ST", "addr:postcode": "27705", "addr:state": "NC", "amenity": "post_box", "brand": "United States Postal Service", "brand:wikidata": "Q668687", "collection_times": "Mo-Fr 15:00; Sa 10:00", "name": "USPS COLLECTION BOX - BLUE BOX", "note": "ON 12/24 AND 12/31, THIS BOX MAY BE COLLECTED AS EARLY AS 12 NOON.", "nsi_id": "unitedstatespostalservice-a77078", "operator": "United States Postal Service", "operator:short": "USPS", "operator:type": "public", "operator:wikidata": "Q668687", "ref": "2770500030"}, "type": "Feature"}
{"geometry": {"coordinates": [-78.9330088, 36.006961], "type": "Point"}, "id": "pxEyvI_HZGs9VKDsC-TcDXqYr6A=", "properties": {"@spider": "usps_collection_boxes", "addr:city": "DURHAM", "addr:country": "US", "addr:full": "100 FLOWERS DR", "addr:postcode": "27705", "addr:state": "NC", "amenity": "post_box", "brand": "United States Postal Service", "brand:wikidata": "Q668687", "collection_times": "Mo-Fr 12:00; Sa 10:00", "name": "USPS COLLECTION BOX - BLUE BOX", "nsi_id": "unitedstatespostalservice-a77078", "operator": "United States Postal Service", "operator:short": "USPS", "operator:type": "public", "operator:wikidata": "Q668687", "ref": "2770500032"}, "type": "Feature"}
{"geometry": {"coordinates": [-78.982227, 36.032274], "type": "Point"}, "id": "lV19CzccrN9hxocrvNIzXGzMtj8=", "properties": {"@spider": "usps_collection_boxes", "addr:city": "DURHAM", "addr:country": "US", "addr:full": "4701 HILLSBOROUGH RD", "addr:postcode": "27705", "addr:state": "NC", "amenity": "post_box", "brand": "United States Postal Service", "brand:wikidata": "Q668687", "collection_times": "Mo-Sa 10:00", "name": "USPS COLLECTION BOX - BLUE BOX", "nsi_id": "unitedstatespostalservice-a77078", "operator": "United States Postal Service", "operator:short": "USPS", "operator:type": "public", "operator:wikidata": "Q668687", "ref": "2770500035"}, "type": "Feature"}
{"geometry": {"coordinates": [-78.9628986418, 36.0268132279], "type": "Point"}, "id": "e-98ttOoPt0uIs1EI26uaqetGGw=", "properties": {"@spider": "usps_collection_boxes", "addr:city": "DURHAM", "addr:country": "US", "addr:full": "4102 NEAL RD", "addr:postcode": "27705", "addr:state": "NC", "amenity": "post_box", "brand": "United States Postal Service", "brand:wikidata": "Q668687", "collection_times": "Mo-Sa 10:00", "name": "USPS COLLECTION BOX - BLUE BOX", "nsi_id": "unitedstatespostalservice-a77078", "operator": "United States Postal Service", "operator:short": "USPS", "operator:type": "public", "operator:wikidata": "Q668687", "ref": "2770500038"}, "type": "Feature"}
{"geometry": {"coordinates": [-78.9495759, 36.025121], "type": "Point"}, "id": "8Fqw9wwU_agJlodpEqj216NeSDI=", "properties": {"@spider": "usps_collection_boxes", "addr:city": "DURHAM", "addr:country": "US", "addr:full": "3200 CROASDAILE DR", "addr:postcode": "27705", "addr:state": "NC", "amenity": "post_box", "brand": "United States Postal Service", "brand:wikidata": "Q668687", "collection_times": "Mo-Fr 15:30; Sa 10:00", "name": "USPS COLLECTION BOX - BLUE BOX", "note": "ON 12/24 AND 12/31, THIS BOX MAY BE COLLECTED AS EARLY AS 12 NOON.", "nsi_id": "unitedstatespostalservice-a77078", "operator": "United States Postal Service", "operator:short": "USPS", "operator:type": "public", "operator:wikidata": "Q668687", "ref": "2770500041"}, "type": "Feature"}
{"geometry": {"coordinates": [-78.9371415, 36.030861], "type": "Point"}, "id": "0reOpNpLIW_6OaeiVS0IxMbHsBs=", "properties": {"@spider": "usps_collection_boxes", "addr:city": "DURHAM", "addr:country": "US", "addr:full": "1821 HILLANDALE RD", "addr:postcode": "27705", "addr:state": "NC", "amenity": "post_box", "brand": "United States Postal Service", "brand:wikidata": "Q668687", "collection_times": "Mo-Fr 16:00; Sa 10:00", "name": "USPS COLLECTION BOX - BLUE BOX", "note": "ON 12/24 AND 12/31, THIS BOX MAY BE COLLECTED AS EARLY AS 12 NOON.", "nsi_id": "unitedstatespostalservice-a77078", "operator": "United States Postal Service", "operator:short": "USPS", "operator:type": "public", "operator:wikidata": "Q668687", "ref": "2770500044"}, "type": "Feature"}
{"geometry": {"coordinates": [-78.9217375, 36.018182], "type": "Point"}, "id": "KDfA0DD9j6bJgJtjjfVwWxkMccE=", "properties": {"@spider": "usps_collection_boxes", "addr:city": "DURHAM", "addr:country": "US", "addr:full": "1912 W CLUB BLVD", "addr:postcode": "27705", "addr:state": "NC", "amenity": "post_box", "brand": "United States Postal Service", "brand:wikidata": "Q668687", "collection_times": "Mo-Fr 15:00; Sa 10:00", "name": "USPS COLLECTION BOX - BLUE BOX", "note": "ON 12/24 AND 12/31, THIS BOX MAY BE COLLECTED AS EARLY AS 12 NOON.", "nsi_id": "unitedstatespostalservice-a77078", "operator": "United States Postal Service", "operator:short": "USPS", "operator:type": "public", "operator:wikidata": "Q668687", "ref": "2770500048"}, "type": "Feature"}
{"geometry": {"coordinates": [-78.9221295, 36.007518], "type": "Point"}, "id": "zGekJIIg0aSbTDEUnMmUTjGXHes=", "properties": {"@spider": "usps_collection_boxes", "addr:city": "DURHAM", "addr:country": "US", "addr:full": "626 9TH ST", "addr:postcode": "27705", "addr:state": "NC", "amenity": "post_box", "brand": "United States Postal Service", "brand:wikidata": "Q668687", "collection_times": "Mo-Fr 15:00; Sa 10:00", "name": "USPS COLLECTION BOX - BLUE BOX", "note": "ON 12/24 AND 12/31, THIS BOX MAY BE COLLECTED AS EARLY AS 12 NOON.", "nsi_id": "unitedstatespostalservice-a77078", "operator": "United States Postal Service", "operator:short": "USPS", "operator:type": "public", "operator:wikidata": "Q668687", "ref": "2770500050"}, "type": "Feature"}
{"geometry": {"coordinates": [-78.955504719, 36.013602512], "type": "Point"}, "id": "61Rn30OMa-fwrqlyu7-PTpqvhc4=", "properties": {"@spider": "usps_collection_boxes", "addr:city": "DURHAM", "addr:country": "US", "addr:full": "411 ANDREWS RD", "addr:postcode": "27705", "addr:state": "NC", "amenity": "post_box", "brand": "United States Postal Service", "brand:wikidata": "Q668687", "collection_times": "Mo-Fr 15:30; Sa 10:00", "name": "USPS COLLECTION BOX - BLUE BOX", "note": "ON 12/24 AND 12/31, THIS BOX MAY BE COLLECTED AS EARLY AS 12 NOON.", "nsi_id": "unitedstatespostalservice-a77078", "operator": "United States Postal Service", "operator:short": "USPS", "operator:type": "public", "operator:wikidata": "Q668687", "ref": "2770500056"}, "type": "Feature"}
{"geometry": {"coordinates": [-78.9498536545, 36.0131248438], "type": "Point"}, "id": "BZesi70jNPoOkJFs-8WZ4PbNUQs=", "properties": {"@spider": "usps_collection_boxes", "addr:city": "DURHAM", "addr:country": "US", "addr:full": "3520 KANGAROO DR", "addr:postcode": "27705", "addr:state": "NC", "amenity": "post_box", "brand": "United States Postal Service", "brand:wikidata": "Q668687", "collection_times": "Mo-Fr 17:00; Sa 12:30", "name": "USPS COLLECTION BOX - BLUE BOX", "note": "ON 12/24 AND 12/31, THIS BOX MAY BE COLLECTED AS EARLY AS 12 NOON.", "nsi_id": "unitedstatespostalservice-a77078", "operator": "United States Postal Service", "operator:short": "USPS", "operator:type": "public", "operator:wikidata": "Q668687", "ref": "2770500057"}, "type": "Feature"}
{"geometry": {"coordinates": [-78.9390345, 36.009925], "type": "Point"}, "id": "7qS9zzABInM5qwDCKEh55DNK4_g=", "properties": {"@spider": "usps_collection_boxes", "addr:city": "DURHAM", "addr:country": "US", "addr:full": "508 FULTON ST", "addr:postcode": "27705", "addr:state": "NC", "amenity": "post_box", "brand": "United States Postal Service", "brand:wikidata": "Q668687", "collection_times": "Mo-Fr 15:00", "name": "USPS COLLECTION BOX - BLUE BOX", "note": "ON 12/24 AND 12/31, THIS BOX MAY BE COLLECTED AS EARLY AS 12 NOON.", "nsi_id": "unitedstatespostalservice-a77078", "operator": "United States Postal Service", "operator:short": "USPS", "operator:type": "public", "operator:wikidata": "Q668687", "ref": "2770500059"}, "type": "Feature"}
{"geometry": {"coordinates": [-78.9250305015, 36.0173805239], "type": "Point"}, "id": "yXPCMpo8VJ9NRPYZ4iCjBC2DdJw=", "properties": {"@spider": "usps_collection_boxes", "addr:city": "DURHAM", "addr:country": "US", "addr:full": "2031 W CLUB BLVD", "addr:postcode": "27705", "addr:state": "NC", "amenity": "post_box", "brand": "United States Postal Service", "brand:wikidata": "Q668687", "collection_times": "Mo-Sa 10:00", "name": "USPS COLLECTION BOX - BLUE BOX", "nsi_id": "unitedstatespostalservice-a77078", "operator": "United States Postal Service", "operator:short": "USPS", "operator:type": "public", "operator:wikidata": "Q668687", "ref": "2770500063"}, "type": "Feature"}
{"geometry": {"coordinates": [-78.949012777, 36.013089513], "type": "Point"}, "id": "n-LNfQ7UQFy7dYSTPMHWrPHhYrQ=", "properties": {"@spider": "usps_collection_boxes", "addr:city": "DURHAM", "addr:country": "US", "addr:full": "3520 KANGAROO DR", "addr:postcode": "27705", "addr:state": "NC", "amenity": "post_box", "brand": "United States Postal Service", "brand:wikidata": "Q668687", "collection_times": "Mo-Fr 17:00; Sa 12:30", "name": "USPS COLLECTION BOX - PO LOBBY", "note": "ON 12/24 AND 12/31, THIS BOX MAY BE COLLECTED AS EARLY AS 12 NOON.", "nsi_id": "unitedstatespostalservice-a77078", "operator": "United States Postal Service", "operator:short": "USPS", "operator:type": "public", "operator:wikidata": "Q668687", "ref": "2770500064"}, "type": "Feature"}
{"geometry": {"coordinates": [-78.949012777, 36.013089513], "type": "Point"}, "id": "cmDkhqm2HcLSgM_sh1mx2jrBaXQ=", "properties": {"@spider": "usps_collection_boxes", "addr:city": "DURHAM", "addr:country": "US", "addr:full": "3520 KANGAROO DR", "addr:postcode": "27705", "addr:state": "NC", "amenity": "post_box", "brand": "United States Postal Service", "brand:wikidata": "Q668687", "collection_times": "Mo-Fr 16:00; Sa 12:00", "name": "USPS COLLECTION BOX - PO LOBBY", "note": "ON 12/24 AND 12/31, THIS BOX MAY BE COLLECTED AS EARLY AS 12 NOON.", "nsi_id": "unitedstatespostalservice-a77078", "operator": "United States Postal Service", "operator:short": "USPS", "operator:type": "public", "operator:wikidata": "Q668687", "ref": "2770500070"}, "type": "Feature"}
{"geometry": {"coordinates": [-78.9553691191, 35.956380396], "type": "Point"}, "id": "G4Dp6cMtgV_k-tje3hHnjeqbwDM=", "properties": {"@spider": "usps_collection_boxes", "addr:city": "DURHAM", "addr:country": "US", "addr:full": "3710 SHANNON RD", "addr:postcode": "27707", "addr:state": "NC", "amenity": "post_box", "brand": "United States Postal Service", "brand:wikidata": "Q668687", "collection_times": "Mo-Fr 17:00; Sa 12:30", "name": "USPS COLLECTION BOX - BLUE BOX", "note": "ON 12/24 AND 12/31, THIS BOX MAY BE COLLECTED AS EARLY AS 12 NOON.", "nsi_id": "unitedstatespostalservice-a77078", "operator": "United States Postal Service", "operator:short": "USPS", "operator:type": "public", "operator:wikidata": "Q668687", "ref": "2770700003"}, "type": "Feature"}
{"geometry": {"coordinates": [-78.901087518, 35.975896888], "type": "Point"}, "id": "uzqqhJfd1e_BKZldpa91U9MRafo=", "properties": {"@spider": "usps_collection_boxes", "addr:city": "DURHAM", "addr:country": "US", "addr:full": "1801 FAYETTEVILLE ST", "addr:postcode": "27707", "addr:state": "NC", "amenity": "post_box", "brand": "United States Postal Service", "brand:wikidata": "Q668687", "collection_times": "Mo-Fr 12:00; Sa 10:00", "name": "USPS COLLECTION BOX - BLUE BOX", "nsi_id": "unitedstatespostalservice-a77078", "operator": "United States Postal Service", "operator:short": "USPS", "operator:type": "public", "operator:wikidata": "Q668687", "ref": "2770700007"}, "type": "Feature"}
{"geometry": {"coordinates": [-78.9276299, 35.988073], "type": "Point"}, "id": "neY-BVCX6-rZVMyjgACiR52VoYM=", "properties": {"@spider": "usps_collection_boxes", "addr:city": "DURHAM", "addr:country": "US", "addr:full": "2000 CHAPEL HILL RD", "addr:postcode": "27707", "addr:state": "NC", "amenity": "post_box", "brand": "United States Postal Service", "brand:wikidata": "Q668687", "collection_times": "Mo-Sa 10:00", "name": "USPS COLLECTION BOX - BLUE BOX", "nsi_id": "unitedstatespostalservice-a77078", "operator": "United States Postal Service", "operator:short": "USPS", "operator:type": "public", "operator:wikidata": "Q668687", "ref": "2770700010"}, "type": "Feature"}
{"geometry": {"coordinates": [-78.925266328, 35.988562927], "type": "Point"}, "id": "eNT_9OmkRO2_3XBaOOM9k-lycPE=", "properties": {"@spider": "usps_collection_boxes", "addr:city": "DURHAM", "addr:country": "US", "addr:full": "1904 CHAPEL HILL RD", "addr:postcode": "27707", "addr:state": "NC", "amenity": "post_box", "brand": "United States Postal Service", "brand:wikidata": "Q668687", "collection_times": "Mo-Sa 10:00", "name": "USPS COLLECTION BOX - BLUE BOX", "nsi_id": "unitedstatespostalservice-a77078", "operator": "United States Postal Service", "operator:short": "USPS", "operator:type": "public", "operator:wikidata": "Q668687", "ref": "2770700011"}, "type": "Feature"}
{"geometry": {"coordinates": [-78.9249468, 35.973738], "type": "Point"}, "id": "NI7lMxJttNOyZbyZIAxStxEHFVc=", "properties": {"@spider": "usps_collection_boxes", "addr:city": "DURHAM", "addr:country": "US", "addr:full": "2502 UNIVERSITY DR", "addr:postcode": "27707", "addr:state": "NC", "amenity": "post_box", "brand": "United States Postal Service", "brand:wikidata": "Q668687", "collection_times": "Mo-Fr 15:00; Sa 10:00", "name": "USPS COLLECTION BOX - BLUE BOX", "note": "ON 12/24 AND 12/31, THIS BOX MAY BE COLLECTED AS EARLY AS 12 NOON.", "nsi_id": "unitedstatespostalservice-a77078", "operator": "United States Postal Service", "operator:short": "USPS", "operator:type": "public", "operator:wikidata": "Q668687", "ref": "2770700015"}, "type": "Feature"}
{"geometry": {"coordinates": [-78.9553691191, 35.956380396], "type": "Point"}, "id": "46yICGLAaQkectPbIy4eQhQtIAA=", "properties": {"@spider": "usps_collection_boxes", "addr:city": "DURHAM", "addr:country": "US", "addr:full": "3710 SHANNON RD", "addr:postcode": "27707", "addr:state": "NC", "amenity": "post_box", "brand": "United States Postal Service", "brand:wikidata": "Q668687", "collection_times": "Mo-Fr 17:00; Sa 12:30", "name": "USPS COLLECTION BOX - BLUE BOX", "note": "ON 12/24 AND 12/31, THIS BOX MAY BE COLLECTED AS EARLY AS 12 NOON.", "nsi_id": "unitedstatespostalservice-a77078", "operator": "United States Postal Service", "operator:short": "USPS", "operator:type": "public", "operator:wikidata": "Q668687", "ref": "2770700017"}, "type": "Feature"}
{"geometry": {"coordinates": [-78.9553691191, 35.956380396], "type": "Point"}, "id": "nrnP45Rwp-tk-j8vf83v53Ix9JE=", "properties": {"@spider": "usps_collection_boxes", "addr:city": "DURHAM", "addr:country": "US", "addr:full": "3710 SHANNON RD", "addr:postcode": "27707", "addr:state": "NC", "amenity": "post_box", "brand": "United States Postal Service", "brand:wikidata": "Q668687", "collection_times": "Mo-Fr 17:00; Sa 12:30", "name": "USPS COLLECTION BOX - BLUE BOX", "note": "ON 12/24 AND 12/31, THIS BOX MAY BE COLLECTED AS EARLY AS 12 NOON.", "nsi_id": "unitedstatespostalservice-a77078", "operator": "United States Postal Service", "operator:short": "USPS", "operator:type": "public", "operator:wikidata": "Q668687", "ref": "2770700018"}, "type": "Feature"}
{"geometry": {"coordinates": [-78.9657305, 35.953947], "type": "Point"}, "id": "hDXHG0zFksoh-tSxE5Zs4g5J5xE=", "properties": {"@spider": "usps_collection_boxes", "addr:city": "DURHAM", "addr:country": "US", "addr:full": "4705 UNIVERSITY DR", "addr:postcode": "27707", "addr:state": "NC", "amenity": "post_box", "brand": "United States Postal Service", "brand:wikidata": "Q668687", "collection_times": "Mo-Sa 10:00", "name": "USPS COLLECTION BOX - BLUE BOX", "nsi_id": "unitedstatespostalservice-a77078", "operator": "United States Postal Service", "operator:short": "USPS", "operator:type": "public", "operator:wikidata": "Q668687", "ref": "2770700021"}, "type": "Feature"}
{"geometry": {"coordinates": [-78.958155208, 35.971636692], "type": "Point"}, "id": "unGeeDBLlcNV7qtws0c92B3btqk=", "properties": {"@spider": "usps_collection_boxes", "addr:city": "DURHAM", "addr:country": "US", "addr:full": "3100 TOWER BLVD", "addr:postcode": "27707", "addr:state": "NC", "amenity": "post_box", "brand": "United States Postal Service", "brand:wikidata": "Q668687", "collection_times": "Mo-Fr 16:00; Sa 10:00", "name": "USPS COLLECTION BOX - BLUE BOX", "note": "ON 12/24 AND 12/31, THIS BOX MAY BE COLLECTED AS EARLY AS 12 NOON.", "nsi_id": "unitedstatespostalservice-a77078", "operator": "United States Postal Service", "operator:short": "USPS", "operator:type": "public", "operator:wikidata": "Q668687", "ref": "2770700026"}, "type": "Feature"}
{"geometry": {"coordinates": [-78.9337779353, 35.9741120935], "type": "Point"}, "id": "CrbT0HIJEIkkbtLK7a43YtEjUwY=", "properties": {"@spider": "usps_collection_boxes", "addr:city": "DURHAM", "addr:country": "US", "addr:full": "2821 DURHAM CHAPEL HILL BLVD", "addr:postcode": "27707", "addr:state": "NC", "amenity": "post_box", "brand": "United States Postal Service", "brand:wikidata": "Q668687", "collection_times": "Mo-Fr 15:30; Sa 10:00", "name": "USPS COLLECTION BOX - BLUE BOX", "note": "ON 12/24 AND 12/31, THIS BOX MAY BE COLLECTED AS EARLY AS 12 NOON.", "nsi_id": "unitedstatespostalservice-a77078", "operator": "United States Postal Service", "operator:short": "USPS", "operator:type": "public", "operator:wikidata": "Q668687", "ref": "2770700027"}, "type": "Feature"}
{"geometry": {"coordinates": [-78.9859133, 35.940565], "type": "Point"}, "id": "Zvbf1EnDS7BPDxFZkMi6DilWtmw=", "properties": {"@spider": "usps_collection_boxes", "addr:city": "DURHAM", "addr:country": "US", "addr:full": "4905 PINE CONE DR", "addr:postcode": "27707", "addr:state": "NC", "amenity": "post_box", "brand": "United States Postal Service", "brand:wikidata": "Q668687", "collection_times": "Mo-Sa 10:00", "name": "USPS COLLECTION BOX - BLUE BOX", "nsi_id": "unitedstatespostalservice-a77078", "operator": "United States Postal Service", "operator:short": "USPS", "operator:type": "public", "operator:wikidata": "Q668687", "ref": "2770700031"}, "type": "Feature"}
{"geometry": {"coordinates": [-78.956184964, 35.920951998], "type": "Point"}, "id": "a_wvrZ_2z1JL9Vrfgn6Cks0H7Ow=", "properties": {"@spider": "usps_collection_boxes", "addr:city": "DURHAM", "addr:country": "US", "addr:full": "4711 HOPE VALLEY RD", "addr:postcode": "27707", "addr:state": "NC", "amenity": "post_box", "brand": "United States Postal Service", "brand:wikidata": "Q668687", "collection_times": "Mo-Fr 15:00; Sa 10:00", "name": "USPS COLLECTION BOX - BLUE BOX", "note": "ON 12/24 AND 12/31, THIS BOX MAY BE COLLECTED AS EARLY AS 12 NOON.", "nsi_id": "unitedstatespostalservice-a77078", "operator": "United States Postal Service", "operator:short": "USPS", "operator:type": "public", "operator:wikidata": "Q668687", "ref": "2770700034"}, "type": "Feature"}
{"geometry": {"coordinates": [-78.9075121822, 35.9635840293], "type": "Point"}, "id": "vniLaHvtOHkOnVr78xMt3AXZ59o=", "properties": {"@spider": "usps_collection_boxes", "addr:city": "DURHAM", "addr:country": "US", "addr:full": "3000 FAYETTEVILLE ST", "addr:postcode": "27707", "addr:state": "NC", "amenity": "post_box", "brand": "United States Postal Service", "brand:wikidata": "Q668687", "collection_times": "Mo-Sa 10:00", "name": "USPS COLLECTION BOX - BLUE BOX", "nsi_id": "unitedstatespostalservice-a77078", "operator": "United States Postal Service", "operator:short": "USPS", "operator:type": "public", "operator:wikidata": "Q668687", "ref": "2770700039"}, "type": "Feature"}
{"geometry": {"coordinates": [-78.9605977303, 35.9647443741], "type": "Point"}, "id": "nLIxa5XR-Ed8bTXqu-DAPZx1roI=", "properties": {"@spider": "usps_collection_boxes", "addr:city": "DURHAM", "addr:country": "US", "addr:full": "3500 WESTGATE DR", "addr:postcode": "27707", "addr:state": "NC", "amenity": "post_box", "brand": "United States Postal Service", "brand:wikidata": "Q668687", "collection_times": "Mo-Fr 15:30; Sa 10:00", "name": "USPS COLLECTION BOX - BLUE BOX", "note": "ON 12/24 AND 12/31, THIS BOX MAY BE COLLECTED AS EARLY AS 12 NOON.", "nsi_id": "unitedstatespostalservice-a77078", "operator": "United States Postal Service", "operator:short": "USPS", "operator:type": "public", "operator:wikidata": "Q668687", "ref": "2770700041"}, "type": "Feature"}
{"geometry": {"coordinates": [-78.977965803, 35.9611811591], "type": "Point"}, "id": "WxoupH-cE7fBGFxTTyhfd9_7Ds8=", "properties": {"@spider": "usps_collection_boxes", "addr:city": "DURHAM", "addr:country": "US", "addr:full": "4600 DURHAM CHAPEL HILL BLVD", "addr:postcode": "27707", "addr:state": "NC", "amenity": "post_box", "brand": "United States Postal Service", "brand:wikidata": "Q668687", "collection_times": "Mo-Sa 10:00", "name": "USPS COLLECTION BOX - BLUE BOX", "nsi_id": "unitedstatespostalservice-a77078", "operator": "United States Postal Service", "operator:short": "USPS", "operator:type": "public", "operator:wikidata": "Q668687", "ref": "2770700045"}, "type": "Feature"}
{"geometry": {"coordinates": [-78.89945398, 35.987949011], "type": "Point"}, "id": "ZOFhCPEzp0LyWFATrmYuOf2WZ8M=", "properties": {"@spider": "usps_collection_boxes", "addr:city": "DURHAM", "addr:country": "US", "addr:full": "401 E LAKEWOOD AVE", "addr:postcode": "27707", "addr:state": "NC", "amenity": "post_box", "brand": "United States Postal Service", "brand:wikidata": "Q668687", "collection_times": "Mo-Sa 10:00", "name": "USPS COLLECTION BOX - BLUE BOX", "nsi_id": "unitedstatespostalservice-a77078", "operator": "United States Postal Service", "operator:short": "USPS", "operator:type": "public", "operator:wikidata": "Q668687", "ref": "2770700049"}, "type": "Feature"}
{"geometry": {"coordinates": [-78.9581552077, 35.9716366922], "type": "Point"}, "id": "6fN36KDSaKaYcuAYY3pjJUvm5A0=", "properties": {"@spider": "usps_collection_boxes", "addr:city": "DURHAM", "addr:country": "US", "addr:full": "3100 TOWER BLVD", "addr:postcode": "27707", "addr:state": "NC", "amenity": "post_box", "brand": "United States Postal Service", "brand:wikidata": "Q668687", "collection_times": "Mo-Fr 16:00; Sa 10:00", "name": "USPS COLLECTION BOX - BLUE BOX", "note": "ON 12/24 AND 12/31, THIS BOX MAY BE COLLECTED AS EARLY AS 12 NOON.", "nsi_id": "unitedstatespostalservice-a77078", "operator": "United States Postal Service", "operator:short": "USPS", "operator:type": "public", "operator:wikidata": "Q668687", "ref": "2770700050"}, "type": "Feature"}
{"geometry": {"coordinates": [-78.950505955, 35.966785737], "type": "Point"}, "id": "nBWX5LdruzfGq-GCG88EFkl7l8M=", "properties": {"@spider": "usps_collection_boxes", "addr:city": "DURHAM", "addr:country": "US", "addr:full": "3713 UNIVERSITY DR", "addr:postcode": "27707", "addr:state": "NC", "amenity": "post_box", "brand": "United States Postal Service", "brand:wikidata": "Q668687", "collection_times": "Mo-Sa 10:00", "name": "USPS COLLECTION BOX - BLUE BOX", "nsi_id": "unitedstatespostalservice-a77078", "operator": "United States Postal Service", "operator:short": "USPS", "operator:type": "public", "operator:wikidata": "Q668687", "ref": "2770700056"}, "type": "Feature"}
{"geometry": {"coordinates": [-78.9553691191, 35.956380396], "type": "Point"}, "id": "OeKKIPYSxMYgQCpffu1QT2Gh9pw=", "properties": {"@spider": "usps_collection_boxes", "addr:city": "DURHAM", "addr:country": "US", "addr:full": "3710 SHANNON RD", "addr:postcode": "27707", "addr:state": "NC", "amenity": "post_box", "brand": "United States Postal Service", "brand:wikidata": "Q668687", "collection_times": "Mo-Fr 17:00; Sa 12:30", "name": "USPS COLLECTION BOX - BLUE BOX", "note": "ON 12/24 AND 12/31, THIS BOX MAY BE COLLECTED AS EARLY AS 12 NOON.", "nsi_id": "unitedstatespostalservice-a77078", "operator": "United States Postal Service", "operator:short": "USPS", "operator:type": "public", "operator:wikidata": "Q668687", "ref": "2770700057"}, "type": "Feature"}
{"geometry": {"coordinates": [-78.9581552077, 35.9716366922], "type": "Point"}, "id": "OJzG_sj1SKjnzN9Wh01cQoAJ78M=", "properties": {"@spider": "usps_collection_boxes", "addr:city": "DURHAM", "addr:country": "US", "addr:full": "3100 TOWER BLVD", "addr:postcode": "27707", "addr:state": "NC", "amenity": "post_box", "brand": "United States Postal Service", "brand:wikidata": "Q668687", "collection_times": "Mo-Fr 16:00; Sa 10:00", "name": "USPS COLLECTION BOX - BLUE BOX", "note": "ON 12/24 AND 12/31, THIS BOX MAY BE COLLECTED AS EARLY AS 12 NOON.", "nsi_id": "unitedstatespostalservice-a77078", "operator": "United States Postal Service", "operator:short": "USPS", "operator:type": "public", "operator:wikidata": "Q668687", "ref": "2770700061"}, "type": "Feature"}
{"geometry": {"coordinates": [-78.957936, 35.963163], "type": "Point"}, "id": "sRaJM0TI1yzWAn5qFYHOF7eTfSY=", "properties": {"@spider": "usps_collection_boxes", "addr:city": "DURHAM", "addr:country": "US", "addr:full": "4215 UNIVERSITY DR", "addr:postcode": "27707", "addr:state": "NC", "amenity": "post_box", "brand": "United States Postal Service", "brand:wikidata": "Q668687", "collection_times": "Mo-Fr 15:30; Sa 10:00", "name": "USPS COLLECTION BOX - BLUE BOX", "note": "ON 12/24 AND 12/31, THIS BOX MAY BE COLLECTED AS EARLY AS 12 NOON.", "nsi_id": "unitedstatespostalservice-a77078", "operator": "United States Postal Service", "operator:short": "USPS", "operator:type": "public", "operator:wikidata": "Q668687", "ref": "2770700065"}, "type": "Feature"}
{"geometry": {"coordinates": [-78.9945111635, 35.9544060801], "type": "Point"}, "id": "WEsm5fMNC0-83Iuy70FvUYFBnBo=", "properties": {"@spider": "usps_collection_boxes", "addr:city": "DURHAM", "addr:country": "US", "addr:full": "5400 NEW HOPE COMMONS DR", "addr:postcode": "27707", "addr:state": "NC", "amenity": "post_box", "brand": "United States Postal Service", "brand:wikidata": "Q668687", "collection_times": "Mo-Sa 10:00", "name": "USPS COLLECTION BOX - BLUE BOX", "nsi_id": "unitedstatespostalservice-a77078", "operator": "United States Postal Service", "operator:short": "USPS", "operator:type": "public", "operator:wikidata": "Q668687", "ref": "2770700066"}, "type": "Feature"}
{"geometry": {"coordinates": [-78.9600511365, 35.9641555184], "type": "Point"}, "id": "edHGbuTroGYAiCh6y0QtSKUbky4=", "properties": {"@spider": "usps_collection_boxes", "addr:city": "DURHAM", "addr:country": "US", "addr:full": "3518 WESTGATE DR", "addr:postcode": "27707", "addr:state": "NC", "amenity": "post_box", "brand": "United States Postal Service", "brand:wikidata": "Q668687", "collection_times": "Mo-Fr 15:30; Sa 10:00", "name": "USPS COLLECTION BOX - BLUE BOX", "note": "ON 12/24 AND 12/31, THIS BOX MAY BE COLLECTED AS EARLY AS 12 NOON.", "nsi_id": "unitedstatespostalservice-a77078", "operator": "United States Postal Service", "operator:short": "USPS", "operator:type": "public", "operator:wikidata": "Q668687", "ref": "2770700067"}, "type": "Feature"}
{"geometry": {"coordinates": [-78.955174, 35.95611], "type": "Point"}, "id": "rqOcTfh0DiNFR6_2556ebTik8v0=", "properties": {"@spider": "usps_collection_boxes", "addr:city": "DURHAM", "addr:country": "US", "addr:full": "3710 SHANNON RD", "addr:postcode": "27707", "addr:state": "NC", "amenity": "post_box", "brand": "United States Postal Service", "brand:wikidata": "Q668687", "collection_times": "Mo-Fr 17:00; Sa 12:30", "name": "USPS COLLECTION BOX - PO LOBBY", "note": "ON 12/24 AND 12/31, THIS BOX MAY BE COLLECTED AS EARLY AS 12 NOON.", "nsi_id": "unitedstatespostalservice-a77078", "operator": "United States Postal Service", "operator:short": "USPS", "operator:type": "public", "operator:wikidata": "Q668687", "ref": "2770700069"}, "type": "Feature"}
{"geometry": {"coordinates": [-78.955369119, 35.956380396], "type": "Point"}, "id": "jUhDFF-zt1yXld56G2bvhyVNp-M=", "properties": {"@spider": "usps_collection_boxes", "addr:city": "DURHAM", "addr:country": "US", "addr:full": "3710 SHANNON RD", "addr:postcode": "27707", "addr:state": "NC", "amenity": "post_box", "brand": "United States Postal Service", "brand:wikidata": "Q668687", "collection_times": "Mo-Fr 17:00; Sa 13:30", "name": "USPS COLLECTION BOX - PO LOBBY", "note": "ON 12/24 AND 12/31, THIS BOX MAY BE COLLECTED AS EARLY AS 12 NOON.", "nsi_id": "unitedstatespostalservice-a77078", "operator": "United States Postal Service", "operator:short": "USPS", "operator:type": "public", "operator:wikidata": "Q668687", "ref": "2770700077"}, "type": "Feature"}
{"geometry": {"coordinates": [-78.8778872352, 35.9110197444], "type": "Point"}, "id": "kTWjNF3VL6iFg3FdRZxiOijKkoE=", "properties": {"@spider": "usps_collection_boxes", "addr:city": "DURHAM", "addr:country": "US", "addr:full": "65 TW ALEXANDER DR", "addr:postcode": "27709", "addr:state": "NC", "amenity": "post_box", "brand": "United States Postal Service", "brand:wikidata": "Q668687", "collection_times": "Mo-Fr 17:00; Sa 11:00", "name": "USPS COLLECTION BOX - BLUE BOX", "note": "ON 12/24 AND 12/31, THIS BOX MAY BE COLLECTED AS EARLY AS 12 NOON.", "nsi_id": "unitedstatespostalservice-a77078", "operator": "United States Postal Service", "operator:short": "USPS", "operator:type": "public", "operator:wikidata": "Q668687", "ref": "2770900005"}, "type": "Feature"}
{"geometry": {"coordinates": [-78.879351, 35.902642], "type": "Point"}, "id": "JUZs3bYTHsBPwX67hHiB6fW7t9E=", "properties": {"@spider": "usps_collection_boxes", "addr:city": "DURHAM", "addr:country": "US", "addr:full": "65 T.W. ALEXANDER DR", "addr:postcode": "27709", "addr:state": "NC", "amenity": "post_box", "brand": "United States Postal Service", "brand:wikidata": "Q668687", "collection_times": "Mo-Fr 17:00; Sa 12:30", "name": "USPS COLLECTION BOX - PO LOBBY", "note": "ON 12/24 AND 12/31, THIS BOX MAY BE COLLECTED AS EARLY AS 12 NOON.", "nsi_id": "unitedstatespostalservice-a77078", "operator": "United States Postal Service", "operator:short": "USPS", "operator:type": "public", "operator:wikidata": "Q668687", "ref": "2770900007"}, "type": "Feature"}
{"geometry": {"coordinates": [-78.877793, 35.909855], "type": "Point"}, "id": "XdcvFPpQqj-d866-A6LRQvIIA2w=", "properties": {"@spider": "usps_collection_boxes", "addr:city": "DURHAM", "addr:country": "US", "addr:full": "65 T. W. ALEXANDER DR", "addr:postcode": "27709", "addr:state": "NC", "amenity": "post_box", "brand": "United States Postal Service", "brand:wikidata": "Q668687", "collection_times": "Mo-Fr 17:00; Sa 12:30", "name": "USPS COLLECTION BOX - APC", "note": "ON 12/24 AND 12/31, THIS BOX MAY BE COLLECTED AS EARLY AS 12 NOON.", "nsi_id": "unitedstatespostalservice-a77078", "operator": "United States Postal Service", "operator:short": "USPS", "operator:type": "public", "operator:wikidata": "Q668687", "ref": "2770900008"}, "type": "Feature"}
{"geometry": {"coordinates": [-78.877754413, 35.9098212803], "type": "Point"}, "id": "v2OKBT0-Pd_iB8ERc3Ho2Zk-TC8=", "properties": {"@spider": "usps_collection_boxes", "addr:city": "DURHAM", "addr:country": "US", "addr:full": "65 TW ALEXANDER DR", "addr:postcode": "27709", "addr:state": "NC", "amenity": "post_box", "brand": "United States Postal Service", "brand:wikidata": "Q668687", "collection_times": "Mo-Fr 17:00; Sa 11:00", "name": "USPS COLLECTION BOX - BLUE BOX", "note": "ON 12/24 AND 12/31, THIS BOX MAY BE COLLECTED AS EARLY AS 12 NOON.", "nsi_id": "unitedstatespostalservice-a77078", "operator": "United States Postal Service", "operator:short": "USPS", "operator:type": "public", "operator:wikidata": "Q668687", "ref": "2770900009"}, "type": "Feature"}
{"geometry": {"coordinates": [-78.8778872352, 35.9110197444], "type": "Point"}, "id": "Cijjif69hKPkC2BssxvmMRfUM10=", "properties": {"@spider": "usps_collection_boxes", "addr:city": "DURHAM", "addr:country": "US", "addr:full": "65 TW ALEXANDER DR", "addr:postcode": "27709", "addr:state": "NC", "amenity": "post_box", "brand": "United States Postal Service", "brand:wikidata": "Q668687", "collection_times": "Mo-Fr 17:00; Sa 12:00", "name": "USPS COLLECTION BOX - PO LOBBY", "note": "ON 12/24 AND 12/31, THIS BOX MAY BE COLLECTED AS EARLY AS 12 NOON.", "nsi_id": "unitedstatespostalservice-a77078", "operator": "United States Postal Service", "operator:short": "USPS", "operator:type": "public", "operator:wikidata": "Q668687", "ref": "2770900010"}, "type": "Feature"}
{"geometry": {"coordinates": [-78.9136904476, 36.0895892181], "type": "Point"}, "id": "4wDMDCg-jKS4fgV7NXDz4YoKAt0=", "properties": {"@spider": "usps_collection_boxes", "addr:city": "DURHAM", "addr:country": "US", "addr:full": "311 MILTON RD", "addr:postcode": "27712", "addr:state": "NC", "amenity": "post_box", "brand": "United States Postal Service", "brand:wikidata": "Q668687", "collection_times": "Mo-Fr 16:30; Sa 10:00", "name": "USPS COLLECTION BOX - BLUE BOX", "note": "ON 12/24 AND 12/31, THIS BOX MAY BE COLLECTED AS EARLY AS 12 NOON.", "nsi_id": "unitedstatespostalservice-a77078", "operator": "United States Postal Service", "operator:short": "USPS", "operator:type": "public", "operator:wikidata": "Q668687", "ref": "2771200001"}, "type": "Feature"}
{"geometry": {"coordinates": [-78.9114735, 36.076581], "type": "Point"}, "id": "EOSNc-hqxzbY-RPjLDvXXZoVpsA=", "properties": {"@spider": "usps_collection_boxes", "addr:city": "DURHAM", "addr:country": "US", "addr:full": "5279 N ROXBORO RD", "addr:postcode": "27712", "addr:state": "NC", "amenity": "post_box", "brand": "United States Postal Service", "brand:wikidata": "Q668687", "collection_times": "Mo-Sa 10:00", "name": "USPS COLLECTION BOX - BLUE BOX", "nsi_id": "unitedstatespostalservice-a77078", "operator": "United States Postal Service", "operator:short": "USPS", "operator:type": "public", "operator:wikidata": "Q668687", "ref": "2771200004"}, "type": "Feature"}
{"geometry": {"coordinates": [-78.913467, 36.088759], "type": "Point"}, "id": "APgF_TEPn16Zl8cZ7K3ThZU6QUc=", "properties": {"@spider": "usps_collection_boxes", "addr:city": "DURHAM", "addr:country": "US", "addr:full": "311 MILTON RD", "addr:postcode": "27712", "addr:state": "NC", "amenity": "post_box", "brand": "United States Postal Service", "brand:wikidata": "Q668687", "collection_times": "Mo-Fr 17:00; Sa 12:00", "name": "USPS COLLECTION BOX - PO LOBBY", "note": "ON 12/24 AND 12/31, THIS BOX MAY BE COLLECTED AS EARLY AS 12 NOON.", "nsi_id": "unitedstatespostalservice-a77078", "operator": "United States Postal Service", "operator:short": "USPS", "operator:type": "public", "operator:wikidata": "Q668687", "ref": "2771200008"}, "type": "Feature"}
{"geometry": {"coordinates": [-78.913725194, 36.0897054119], "type": "Point"}, "id": "9E03Xmkn1Sn-KjtS_9Oo9sqeVnE=", "properties": {"@spider": "usps_collection_boxes", "addr:city": "DURHAM", "addr:country": "US", "addr:full": "311 MILTON RD", "addr:postcode": "27712", "addr:state": "NC", "amenity": "post_box", "brand": "United States Postal Service", "brand:wikidata": "Q668687", "collection_times": "Mo-Fr 16:00", "name": "USPS COLLECTION BOX - PO LOBBY", "note": "ON 12/24 AND 12/31, THIS BOX MAY BE COLLECTED AS EARLY AS 12 NOON.", "nsi_id": "unitedstatespostalservice-a77078", "operator": "United States Postal Service", "operator:short": "USPS", "operator:type": "public", "operator:wikidata": "Q668687", "ref": "2771200011"}, "type": "Feature"}
{"geometry": {"coordinates": [-78.9107568, 35.895217], "type": "Point"}, "id": "BZGm-SB-ishFJOfVTCrrSfVjpcE=", "properties": {"@spider": "usps_collection_boxes", "addr:city": "DURHAM", "addr:country": "US", "addr:full": "5100 REVERE RD", "addr:postcode": "27713", "addr:state": "NC", "amenity": "post_box", "brand": "United States Postal Service", "brand:wikidata": "Q668687", "collection_times": "Mo-Sa 10:00", "name": "USPS COLLECTION BOX - BLUE BOX", "nsi_id": "unitedstatespostalservice-a77078", "operator": "United States Postal Service", "operator:short": "USPS", "operator:type": "public", "operator:wikidata": "Q668687", "ref": "2771300002"}, "type": "Feature"}
{"geometry": {"coordinates": [-78.8952545754, 35.9032138401], "type": "Point"}, "id": "DMNZ9vAQ5TTbO_Fi1_hP5nVORQ0=", "properties": {"@spider": "usps_collection_boxes", "addr:city": "DURHAM", "addr:country": "US", "addr:full": "4621 NC HIGHWAY 55", "addr:postcode": "27713", "addr:state": "NC", "amenity": "post_box", "brand": "United States Postal Service", "brand:wikidata": "Q668687", "collection_times": "Mo-Fr 15:00; Sa 10:00", "name": "USPS COLLECTION BOX - BLUE BOX", "note": "ON 12/24 AND 12/31, THIS BOX MAY BE COLLECTED AS EARLY AS 12 NOON.", "nsi_id": "unitedstatespostalservice-a77078", "operator": "United States Postal Service", "operator:short": "USPS", "operator:type": "public", "operator:wikidata": "Q668687", "ref": "2771300006"}, "type": "Feature"}
{"geometry": {"coordinates": [-78.8996119305, 35.9107584876], "type": "Point"}, "id": "QfmaGF1vTrdlSir1J0NHyx8tRl0=", "properties": {"@spider": "usps_collection_boxes", "addr:city": "DURHAM", "addr:country": "US", "addr:full": "2525 MERIDIAN PKWY", "addr:postcode": "27713", "addr:state": "NC", "amenity": "post_box", "brand": "United States Postal Service", "brand:wikidata": "Q668687", "collection_times": "Mo-Sa 10:00", "name": "USPS COLLECTION BOX - BLUE BOX", "nsi_id": "unitedstatespostalservice-a77078", "operator": "United States Postal Service", "operator:short": "USPS", "operator:type": "public", "operator:wikidata": "Q668687", "ref": "2771300011"}, "type": "Feature"}
{"geometry": {"coordinates": [-78.9311135, 35.91625], "type": "Point"}, "id": "Wi5mPx-0m06pHsqOX2WvDR76cpE=", "properties": {"@spider": "usps_collection_boxes", "addr:city": "DURHAM", "addr:country": "US", "addr:full": "6011 FAYETTEVILLE RD", "addr:postcode": "27713", "addr:state": "NC", "amenity": "post_box", "brand": "United States Postal Service", "brand:wikidata": "Q668687", "collection_times": "Mo-Sa 10:00", "name": "USPS COLLECTION BOX - BLUE BOX", "nsi_id": "unitedstatespostalservice-a77078", "operator": "United States Postal Service", "operator:short": "USPS", "operator:type": "public", "operator:wikidata": "Q668687", "ref": "2771300019"}, "type": "Feature"}
{"geometry": {"coordinates": [-78.939164001, 35.9059809967], "type": "Point"}, "id": "CDjI-MoRlq2HpMOTMygZda1u3Dw=", "properties": {"@spider": "usps_collection_boxes", "addr:city": "DURHAM", "addr:country": "US", "addr:full": "6920 FAYETTEVILLE RD", "addr:postcode": "27713", "addr:state": "NC", "amenity": "post_box", "brand": "United States Postal Service", "brand:wikidata": "Q668687", "collection_times": "Mo-Fr 15:30; Sa 10:00", "name": "USPS COLLECTION BOX - BLUE BOX", "note": "ON 12/24 AND 12/31, THIS BOX MAY BE COLLECTED AS EARLY AS 12 NOON.", "nsi_id": "unitedstatespostalservice-a77078", "operator": "United States Postal Service", "operator:short": "USPS", "operator:type": "public", "operator:wikidata": "Q668687", "ref": "2771300020"}, "type": "Feature"}
{"geometry": {"coordinates": [-78.9333098277, 35.9135885995], "type": "Point"}, "id": "oXoJNQH0h-MyDEYonzCQOQnVrpU=", "properties": {"@spider": "usps_collection_boxes", "addr:city": "DURHAM", "addr:country": "US", "addr:full": "6224 FAYETTEVILLE RD", "addr:postcode": "27713", "addr:state": "NC", "amenity": "post_box", "brand": "United States Postal Service", "brand:wikidata": "Q668687", "collection_times": "Mo-Sa 10:00", "name": "USPS COLLECTION BOX - BLUE BOX", "nsi_id": "unitedstatespostalservice-a77078", "operator": "United States Postal Service", "operator:short": "USPS", "operator:type": "public", "operator:wikidata": "Q668687", "ref": "2771300022"}, "type": "Feature"}
{"geometry": {"coordinates": [-78.9296919, 35.921058], "type": "Point"}, "id": "vWQwlJ3qXFj48lYh_2_Eev38F5g=", "properties": {"@spider": "usps_collection_boxes", "addr:city": "DURHAM", "addr:country": "US", "addr:full": "5850 FAYETTEVILLE RD", "addr:postcode": "27713", "addr:state": "NC", "amenity": "post_box", "brand": "United States Postal Service", "brand:wikidata": "Q668687", "collection_times": "Mo-Fr 15:00; Sa 10:00", "name": "USPS COLLECTION BOX - BLUE BOX", "note": "ON 12/24 AND 12/31, THIS BOX MAY BE COLLECTED AS EARLY AS 12 NOON.", "nsi_id": "unitedstatespostalservice-a77078", "operator": "United States Postal Service", "operator:short": "USPS", "operator:type": "public", "operator:wikidata": "Q668687", "ref": "2771300024"}, "type": "Feature"}
{"geometry": {"coordinates": [-78.9228450829, 35.9491915348], "type": "Point"}, "id": "04_IX-a1iIXRPnS0LBeR1aaLEUc=", "properties": {"@spider": "usps_collection_boxes", "addr:city": "DURHAM", "addr:country": "US", "addr:full": "3825 S ROXBORO ST", "addr:postcode": "27713", "addr:state": "NC", "amenity": "post_box", "brand": "United States Postal Service", "brand:wikidata": "Q668687", "collection_times": "Mo-Sa 10:00", "name": "USPS COLLECTION BOX - BLUE BOX", "nsi_id": "unitedstatespostalservice-a77078", "operator": "United States Postal Service", "operator:short": "USPS", "operator:type": "public", "operator:wikidata": "Q668687", "ref": "2771300025"}, "type": "Feature"}
