{"dataset_attributes": {"@spider": "usps_collection_boxes"}, "geometry": {"coordinates": [-76.788508334, 35.301076052], "type": "Point"}, "id": "BwenXblTBY-fkJSeu5gjEqV5RPg=", "properties": {"@spider": "usps_collection_boxes", "addr:city": "AURORA", "addr:country": "US", "addr:full": "186 N 5TH ST", "addr:postcode": "27806", "addr:state": "NC", "amenity": "post_box", "brand": "United States Postal Service", "brand:wikidata": "Q668687", "collection_times": "Mo-Fr 16:00; Sa 11:30", "name": "USPS COLLECTION BOX - BLUE BOX", "note": "ON 12/24 AND 12/31, THIS BOX MAY BE COLLECTED AS EARLY AS 12 NOON.", "nsi_id": "unitedstatespostalservice-a77078", "operator": "United States Postal Service", "operator:short": "USPS", "operator:type": "public", "operator:wikidata": "Q668687", "ref": "2780600001"}, "type": "Feature"}
{"dataset_attributes": {"@spider": "usps_collection_boxes"}, "geometry": {"coordinates": [-76.788508334, 35.301076052], "type": "Point"}, "id": "bEXSnFjg3iQET7Xu6cFrrpIgRjI=", "properties": {"@spider": "usps_collection_boxes", "addr:city": "AURORA", "addr:country": "US", "addr:full": "186 N 5TH ST", "addr:postcode": "27806", "addr:state": "NC", "amenity": "post_box", "brand": "United States Postal Service", "brand:wikidata": "Q668687", "collection_times": "Mo-Fr 16:00; Sa 11:30", "name": "USPS COLLECTION BOX - PO LOBBY", "note": "ON 12/24 AND 12/31, THIS BOX MAY BE COLLECTED AS EARLY AS 12 NOON.", "nsi_id": "unitedstatespostalservice-a77078", "operator": "United States Postal Service", "operator:short": "USPS", "operator:type": "public", "operator:wikidata": "Q668687", "ref": "2780600002"}, "type": "Feature"}
{"dataset_attributes": {"@spider": "usps_collection_boxes"}, "geometry": {"coordinates": [-76.788508334, 35.301076052], "type": "Point"}, "id": "bz3Z4bwoROVGScTbfsLOI0oRroI=", "properties": {"@spider": "usps_collection_boxes", "addr:city": "AURORA", "addr:country": "US", "addr:full": "186 N 5TH ST", "addr:postcode": "27806", "addr:state": "NC", "amenity": "post_box", "brand": "United States Postal Service", "brand:wikidata": "Q668687", "collection_times": "Mo-Fr 16:00", "name": "USPS COLLECTION BOX - PO LOBBY", "note": "ON 12/24 AND 12/31, THIS BOX MAY BE COLLECTED AS EARLY AS 12 NOON.", "nsi_id": "unitedstatespostalservice-a77078", "operator": "United States Postal Service", "operator:short": "USPS", "operator:type": "public", "operator:wikidata": "Q668687", "ref": "2780600003"}, "type": "Feature"}
{"dataset_attributes": {"@spider": "usps_collection_boxes"}, "geometry": {"coordinates": [-76.806737293, 35.475822354], "type": "Point"}, "id": "Mnds4yejQTwBWd05E3bK6hO8OlM=", "properties": {"@spider": "usps_collection_boxes", "addr:city": "BATH", "addr:country": "US", "addr:full": "415 CARTERET ST", "addr:postcode": "27808", "addr:state": "NC", "amenity": "post_box", "brand": "United States Postal Service", "brand:wikidata": "Q668687", "collection_times": "Mo-Fr 16:00; Sa 11:30", "name": "USPS COLLECTION BOX - BLUE BOX", "note": "ON 12/24 AND 12/31, THIS BOX MAY BE COLLECTED AS EARLY AS 12 NOON.", "nsi_id": "unitedstatespostalservice-a77078", "operator": "United States Postal Service", "operator:short": "USPS", "operator:type": "public", "operator:wikidata": "Q668687", "ref": "2780800001"}, "type": "Feature"}
{"dataset_attributes": {"@spider": "usps_collection_boxes"}, "geometry": {"coordinates": [-76.806737293, 35.475822354], "type": "Point"}, "id": "xg7ySv7Q84FNeKvsYLbfS8o4uFA=", "properties": {"@spider": "usps_collection_boxes", "addr:city": "BATH", "addr:country": "US", "addr:full": "415 CARTERET ST", "addr:postcode": "27808", "addr:state": "NC", "amenity": "post_box", "brand": "United States Postal Service", "brand:wikidata": "Q668687", "collection_times": "Mo-Fr 16:00; Sa 11:30", "name": "USPS COLLECTION BOX - PO LOBBY", "note": "ON 12/24 AND 12/31, THIS BOX MAY BE COLLECTED AS EARLY AS 12 NOON.", "nsi_id": "unitedstatespostalservice-a77078", "operator": "United States Postal Service", "operator:short": "USPS", "operator:type": "public", "operator:wikidata": "Q668687", "ref": "2780800002"}, "type": "Feature"}
{"dataset_attributes": {"@spider": "usps_collection_boxes"}, "geometry": {"coordinates": [-76.806737293, 35.475822354], "type": "Point"}, "id": "nzsYrrp5QLcNRvLocMdNe1eTAGk=", "properties": {"@spider": "usps_collection_boxes", "addr:city": "BATH", "addr:country": "US", "addr:full": "415 CARTERET ST", "addr:postcode": "27808", "addr:state": "NC", "amenity": "post_box", "brand": "United States Postal Service", "brand:wikidata": "Q668687", "collection_times": "Mo-Fr 16:00; Sa 11:30", "name": "USPS COLLECTION BOX - PO LOBBY", "note": "ON 12/24 AND 12/31, THIS BOX MAY BE COLLECTED AS EARLY AS 12 NOON.", "nsi_id": "unitedstatespostalservice-a77078", "operator": "United States Postal Service", "operator:short": "USPS", "operator:type": "public", "operator:wikidata": "Q668687", "ref": "2780800003"}, "type": "Feature"}
{"dataset_attributes": {"@spider": "usps_collection_boxes"}, "geometry": {"coordinates": [-76.627731284, 35.548991997], "type": "Point"}, "id": "DI19J2ZSfRlMXoyFgNSg5mYQAnU=", "properties": {"@spider": "usps_collection_boxes", "addr:city": "BELHAVEN", "addr:country": "US", "addr:full": "614 W OLD COUNTY RD", "addr:postcode": "27810", "addr:state": "NC", "amenity": "post_box", "brand": "United States Postal Service", "brand:wikidata": "Q668687", "collection_times": "Mo-Fr 16:30; Sa 11:00", "name": "USPS COLLECTION BOX - PO LOBBY", "note": "ON 12/24 AND 12/31, THIS BOX MAY BE COLLECTED AS EARLY AS 12 NOON.", "nsi_id": "unitedstatespostalservice-a77078", "operator": "United States Postal Service", "operator:short": "USPS", "operator:type": "public", "operator:wikidata": "Q668687", "ref": "2781000001"}, "type": "Feature"}
{"dataset_attributes": {"@spider": "usps_collection_boxes"}, "geometry": {"coordinates": [-76.627731284, 35.548991997], "type": "Point"}, "id": "N77F0NfmEEIty9FHPFsm28RU9IA=", "properties": {"@spider": "usps_collection_boxes", "addr:city": "BELHAVEN", "addr:country": "US", "addr:full": "614 W OLD COUNTY RD", "addr:postcode": "27810", "addr:state": "NC", "amenity": "post_box", "brand": "United States Postal Service", "brand:wikidata": "Q668687", "collection_times": "Mo-Fr 16:30; Sa 11:00", "name": "USPS COLLECTION BOX - BLUE BOX", "note": "ON 12/24 AND 12/31, THIS BOX MAY BE COLLECTED AS EARLY AS 12 NOON.", "nsi_id": "unitedstatespostalservice-a77078", "operator": "United States Postal Service", "operator:short": "USPS", "operator:type": "public", "operator:wikidata": "Q668687", "ref": "2781000004"}, "type": "Feature"}
{"dataset_attributes": {"@spider": "usps_collection_boxes"}, "geometry": {"coordinates": [-76.627731284, 35.548991997], "type": "Point"}, "id": "LCmrcgbFG6uRVMCvelk-bgipqsE=", "properties": {"@spider": "usps_collection_boxes", "addr:city": "BELHAVEN", "addr:country": "US", "addr:full": "614 W OLD COUNTY RD", "addr:postcode": "27810", "addr:state": "NC", "amenity": "post_box", "brand": "United States Postal Service", "brand:wikidata": "Q668687", "collection_times": "Mo-Fr 16:30; Sa 11:00", "name": "USPS COLLECTION BOX - PO LOBBY", "note": "ON 12/24 AND 12/31, THIS BOX MAY BE COLLECTED AS EARLY AS 12 NOON.", "nsi_id": "unitedstatespostalservice-a77078", "operator": "United States Postal Service", "operator:short": "USPS", "operator:type": "public", "operator:wikidata": "Q668687", "ref": "2781000007"}, "type": "Feature"}
{"dataset_attributes": {"@spider": "usps_collection_boxes"}, "geometry": {"coordinates": [-77.006713947, 36.50155415], "type": "Point"}, "id": "7dyyWrMn159nNOJ0qKY2Etf7nG4=", "properties": {"@spider": "usps_collection_boxes", "addr:city": "COMO", "addr:country": "US", "addr:full": "1226 US HIGHWAY 258 N", "addr:postcode": "27818", "addr:state": "NC", "amenity": "post_box", "brand": "United States Postal Service", "brand:wikidata": "Q668687", "collection_times": "Mo-Fr 16:30; Sa 11:00", "name": "USPS COLLECTION BOX - BLUE BOX", "note": "ON 12/24 AND 12/31, THIS BOX MAY BE COLLECTED AS EARLY AS 12 NOON.", "nsi_id": "unitedstatespostalservice-a77078", "operator": "United States Postal Service", "operator:short": "USPS", "operator:type": "public", "operator:wikidata": "Q668687", "ref": "2781800001"}, "type": "Feature"}
{"dataset_attributes": {"@spider": "usps_collection_boxes"}, "geometry": {"coordinates": [-77.006713947, 36.50155415], "type": "Point"}, "id": "6o1InCRl_k-7iumY4pi4DepA1Lo=", "properties": {"@spider": "usps_collection_boxes", "addr:city": "COMO", "addr:country": "US", "addr:full": "1226 US HIGHWAY 258 N", "addr:postcode": "27818", "addr:state": "NC", "amenity": "post_box", "brand": "United States Postal Service", "brand:wikidata": "Q668687", "collection_times": "Mo-Fr 16:30; Sa 11:00", "name": "USPS COLLECTION BOX - PO LOBBY", "note": "ON 12/24 AND 12/31, THIS BOX MAY BE COLLECTED AS EARLY AS 12 NOON.", "nsi_id": "unitedstatespostalservice-a77078", "operator": "United States Postal Service", "operator:short": "USPS", "operator:type": "public", "operator:wikidata": "Q668687", "ref": "2781800002"}, "type": "Feature"}
{"dataset_attributes": {"@spider": "usps_collection_boxes"}, "geometry": {"coordinates": [-77.006713947, 36.50155415], "type": "Point"}, "id": "8tMHIA5ywtvr29TTqgCiahseWrE=", "properties": {"@spider": "usps_collection_boxes", "addr:city": "COMO", "addr:country": "US", "addr:full": "1226 US HIGHWAY 258 N", "addr:postcode": "27818", "addr:state": "NC", "amenity": "post_box", "brand": "United States Postal Service", "brand:wikidata": "Q668687", "collection_times": "Mo-Fr 16:30; Sa 11:00", "name": "USPS COLLECTION BOX - PO LOBBY", "note": "ON 12/24 AND 12/31, THIS BOX MAY BE COLLECTED AS EARLY AS 12 NOON.", "nsi_id": "unitedstatespostalservice-a77078", "operator": "United States Postal Service", "operator:short": "USPS", "operator:type": "public", "operator:wikidata": "Q668687", "ref": "2781800003"}, "type": "Feature"}
{"dataset_attributes": {"@spider": "usps_collection_boxes"}, "geometry": {"coordinates": [-76.881311015, 35.326064382], "type": "Point"}, "id": "uLz0DhHkRDeO13625KVuo3zfFcY=", "properties": {"@spider": "usps_collection_boxes", "addr:city": "EDWARD", "addr:country": "US", "addr:full": "19160 NC HIGHWAY 33 E", "addr:postcode": "27821", "addr:state": "NC", "amenity": "post_box", "brand": "United States Postal Service", "brand:wikidata": "Q668687", "collection_times": "Mo-Fr 16:00; Sa 11:30", "name": "USPS COLLECTION BOX - PO LOBBY", "note": "ON 12/24 AND 12/31, THIS BOX MAY BE COLLECTED AS EARLY AS 12 NOON.", "nsi_id": "unitedstatespostalservice-a77078", "operator": "United States Postal Service", "operator:short": "USPS", "operator:type": "public", "operator:wikidata": "Q668687", "ref": "2782100001"}, "type": "Feature"}
{"dataset_attributes": {"@spider": "usps_collection_boxes"}, "geometry": {"coordinates": [-76.881311015, 35.326064382], "type": "Point"}, "id": "oYDPALKoNmaVf7jX8-4F6ITfDOw=", "properties": {"@spider": "usps_collection_boxes", "addr:city": "EDWARD", "addr:country": "US", "addr:full": "19160 NC HIGHWAY 33 E", "addr:postcode": "27821", "addr:state": "NC", "amenity": "post_box", "brand": "United States Postal Service", "brand:wikidata": "Q668687", "collection_times": "Mo-Fr 16:00; Sa 11:30", "name": "USPS COLLECTION BOX - BLUE BOX", "note": "ON 12/24 AND 12/31, THIS BOX MAY BE COLLECTED AS EARLY AS 12 NOON.", "nsi_id": "unitedstatespostalservice-a77078", "operator": "United States Postal Service", "operator:short": "USPS", "operator:type": "public", "operator:wikidata": "Q668687", "ref": "2782100002"}, "type": "Feature"}
{"dataset_attributes": {"@spider": "usps_collection_boxes"}, "geometry": {"coordinates": [-76.881311015, 35.326064382], "type": "Point"}, "id": "DKgN2OGNNpU-qHX2aGIfGzxibCw=", "properties": {"@spider": "usps_collection_boxes", "addr:city": "EDWARD", "addr:country": "US", "addr:full": "19160 NC HIGHWAY 33 E", "addr:postcode": "27821", "addr:state": "NC", "amenity": "post_box", "brand": "United States Postal Service", "brand:wikidata": "Q668687", "collection_times": "Mo-Fr 16:00; Sa 11:45", "name": "USPS COLLECTION BOX - PO LOBBY", "note": "ON 12/24 AND 12/31, THIS BOX MAY BE COLLECTED AS EARLY AS 12 NOON.", "nsi_id": "unitedstatespostalservice-a77078", "operator": "United States Postal Service", "operator:short": "USPS", "operator:type": "public", "operator:wikidata": "Q668687", "ref": "2782100003"}, "type": "Feature"}
{"dataset_attributes": {"@spider": "usps_collection_boxes"}, "geometry": {"coordinates": [-76.004858336, 35.509054181], "type": "Point"}, "id": "NAAfcXdEVa3FVZYotsfKRS0L-s4=", "properties": {"@spider": "usps_collection_boxes", "addr:city": "ENGELHARD", "addr:country": "US", "addr:full": "34668 US HIGHWAY 264", "addr:postcode": "27824", "addr:state": "NC", "amenity": "post_box", "brand": "United States Postal Service", "brand:wikidata": "Q668687", "collection_times": "Mo-Fr 15:15; Sa 12:00", "name": "USPS COLLECTION BOX - BLUE BOX", "note": "ON 12/24 AND 12/31, THIS BOX MAY BE COLLECTED AS EARLY AS 12 NOON.", "nsi_id": "unitedstatespostalservice-a77078", "operator": "United States Postal Service", "operator:short": "USPS", "operator:type": "public", "operator:wikidata": "Q668687", "ref": "2782400001"}, "type": "Feature"}
{"dataset_attributes": {"@spider": "usps_collection_boxes"}, "geometry": {"coordinates": [-76.004858336, 35.509054181], "type": "Point"}, "id": "5k9zjfIslbJToXNRk6XcH2hM-rc=", "properties": {"@spider": "usps_collection_boxes", "addr:city": "ENGELHARD", "addr:country": "US", "addr:full": "34668 US HIGHWAY 264", "addr:postcode": "27824", "addr:state": "NC", "amenity": "post_box", "brand": "United States Postal Service", "brand:wikidata": "Q668687", "collection_times": "Mo-Fr 15:15; Sa 12:00", "name": "USPS COLLECTION BOX - PO LOBBY", "note": "ON 12/24 AND 12/31, THIS BOX MAY BE COLLECTED AS EARLY AS 12 NOON.", "nsi_id": "unitedstatespostalservice-a77078", "operator": "United States Postal Service", "operator:short": "USPS", "operator:type": "public", "operator:wikidata": "Q668687", "ref": "2782400002"}, "type": "Feature"}
{"dataset_attributes": {"@spider": "usps_collection_boxes"}, "geometry": {"coordinates": [-76.004858336, 35.509054181], "type": "Point"}, "id": "oSiqVU8C5YF4paIk5cOqjW5rPeU=", "properties": {"@spider": "usps_collection_boxes", "addr:city": "ENGELHARD", "addr:country": "US", "addr:full": "34668 US HIGHWAY 264", "addr:postcode": "27824", "addr:state": "NC", "amenity": "post_box", "brand": "United States Postal Service", "brand:wikidata": "Q668687", "collection_times": "Mo-Fr 15:45; Sa 12:00", "name": "USPS COLLECTION BOX - PO LOBBY", "note": "ON 12/24 AND 12/31, THIS BOX MAY BE COLLECTED AS EARLY AS 12 NOON.", "nsi_id": "unitedstatespostalservice-a77078", "operator": "United States Postal Service", "operator:short": "USPS", "operator:type": "public", "operator:wikidata": "Q668687", "ref": "2782400003"}, "type": "Feature"}
{"dataset_attributes": {"@spider": "usps_collection_boxes"}, "geometry": {"coordinates": [-76.225121631, 35.542968371], "type": "Point"}, "id": "ueGvhPsXQYGBSbfmrxTmrzHifTk=", "properties": {"@spider": "usps_collection_boxes", "addr:city": "FAIRFIELD", "addr:country": "US", "addr:full": "7089 NC HIGHWAY 94", "addr:postcode": "27826", "addr:state": "NC", "amenity": "post_box", "brand": "United States Postal Service", "brand:wikidata": "Q668687", "collection_times": "Mo-Fr 15:15; Sa 10:00", "name": "USPS COLLECTION BOX - PO LOBBY", "note": "ON 12/24 AND 12/31, THIS BOX MAY BE COLLECTED AS EARLY AS 12 NOON.", "nsi_id": "unitedstatespostalservice-a77078", "operator": "United States Postal Service", "operator:short": "USPS", "operator:type": "public", "operator:wikidata": "Q668687", "ref": "2782600001"}, "type": "Feature"}
{"dataset_attributes": {"@spider": "usps_collection_boxes"}, "geometry": {"coordinates": [-76.225121631, 35.542968371], "type": "Point"}, "id": "3nV0gaEHKJYrcosGVQP3BQEBgSM=", "properties": {"@spider": "usps_collection_boxes", "addr:city": "FAIRFIELD", "addr:country": "US", "addr:full": "7089 NC HIGHWAY 94", "addr:postcode": "27826", "addr:state": "NC", "amenity": "post_box", "brand": "United States Postal Service", "brand:wikidata": "Q668687", "collection_times": "Mo-Fr 15:15; Sa 10:00", "name": "USPS COLLECTION BOX - BLUE BOX", "note": "ON 12/24 AND 12/31, THIS BOX MAY BE COLLECTED AS EARLY AS 12 NOON.", "nsi_id": "unitedstatespostalservice-a77078", "operator": "United States Postal Service", "operator:short": "USPS", "operator:type": "public", "operator:wikidata": "Q668687", "ref": "2782600002"}, "type": "Feature"}
{"dataset_attributes": {"@spider": "usps_collection_boxes"}, "geometry": {"coordinates": [-76.225121631, 35.542968371], "type": "Point"}, "id": "Zk0uBn9Z4zyuOwKzuIeSNeDYKDg=", "properties": {"@spider": "usps_collection_boxes", "addr:city": "FAIRFIELD", "addr:country": "US", "addr:full": "7089 NC HIGHWAY 94", "addr:postcode": "27826", "addr:state": "NC", "amenity": "post_box", "brand": "United States Postal Service", "brand:wikidata": "Q668687", "collection_times": "Mo-Fr 15:30", "name": "USPS COLLECTION BOX - PO LOBBY", "note": "ON 12/24 AND 12/31, THIS BOX MAY BE COLLECTED AS EARLY AS 12 NOON.", "nsi_id": "unitedstatespostalservice-a77078", "operator": "United States Postal Service", "operator:short": "USPS", "operator:type": "public", "operator:wikidata": "Q668687", "ref": "2782600003"}, "type": "Feature"}
{"dataset_attributes": {"@spider": "usps_collection_boxes"}, "geometry": {"coordinates": [-77.346433431, 36.532000301], "type": "Point"}, "id": "mR48ucEuoUxEwwMKtt24gPTMwVw=", "properties": {"@spider": "usps_collection_boxes", "addr:city": "MARGARETTSVILLE", "addr:country": "US", "addr:full": "2717 TOWER RD", "addr:postcode": "27853", "addr:state": "NC", "amenity": "post_box", "brand": "United States Postal Service", "brand:wikidata": "Q668687", "collection_times": "Mo-Fr 16:45; Sa 11:00", "name": "USPS COLLECTION BOX - BLUE BOX", "note": "ON 12/24 AND 12/31, THIS BOX MAY BE COLLECTED AS EARLY AS 12 NOON.", "nsi_id": "unitedstatespostalservice-a77078", "operator": "United States Postal Service", "operator:short": "USPS", "operator:type": "public", "operator:wikidata": "Q668687", "ref": "2785300001"}, "type": "Feature"}
{"dataset_attributes": {"@spider": "usps_collection_boxes"}, "geometry": {"coordinates": [-77.346433431, 36.532000301], "type": "Point"}, "id": "GNXXq2IJjVNmJj1mJQTW-39IVbs=", "properties": {"@spider": "usps_collection_boxes", "addr:city": "MARGARETTSVILLE", "addr:country": "US", "addr:full": "2717 TOWER RD", "addr:postcode": "27853", "addr:state": "NC", "amenity": "post_box", "brand": "United States Postal Service", "brand:wikidata": "Q668687", "collection_times": "Mo-Fr 16:45; Sa 11:00", "name": "USPS COLLECTION BOX - PO LOBBY", "note": "ON 12/24 AND 12/31, THIS BOX MAY BE COLLECTED AS EARLY AS 12 NOON.", "nsi_id": "unitedstatespostalservice-a77078", "operator": "United States Postal Service", "operator:short": "USPS", "operator:type": "public", "operator:wikidata": "Q668687", "ref": "2785300002"}, "type": "Feature"}
{"dataset_attributes": {"@spider": "usps_collection_boxes"}, "geometry": {"coordinates": [-77.346433431, 36.532000301], "type": "Point"}, "id": "aAY0YT2LfgTtyXUPF6HLG-uzP1M=", "properties": {"@spider": "usps_collection_boxes", "addr:city": "MARGARETTSVILLE", "addr:country": "US", "addr:full": "2717 TOWER RD", "addr:postcode": "27853", "addr:state": "NC", "amenity": "post_box", "brand": "United States Postal Service", "brand:wikidata": "Q668687", "collection_times": "Mo-Fr 16:45; Sa 11:00", "name": "USPS COLLECTION BOX - PO LOBBY", "note": "ON 12/24 AND 12/31, THIS BOX MAY BE COLLECTED AS EARLY AS 12 NOON.", "nsi_id": "unitedstatespostalservice-a77078", "operator": "United States Postal Service", "operator:short": "USPS", "operator:type": "public", "operator:wikidata": "Q668687", "ref": "2785300003"}, "type": "Feature"}
{"dataset_attributes": {"@spider": "usps_collection_boxes"}, "geometry": {"coordinates": [-77.100995528, 36.442869348], "type": "Point"}, "id": "0rwkAszpPpzaGuXi1IUP3102_Ww=", "properties": {"@spider": "usps_collection_boxes", "addr:city": "MURFREESBORO", "addr:country": "US", "addr:full": "115 N WYNN ST", "addr:postcode": "27855", "addr:state": "NC", "amenity": "post_box", "brand": "United States Postal Service", "brand:wikidata": "Q668687", "collection_times": "Mo-Fr 17:00; Sa 12:00", "name": "USPS COLLECTION BOX - PO LOBBY", "note": "ON 12/24 AND 12/31, THIS BOX MAY BE COLLECTED AS EARLY AS 12 NOON.", "nsi_id": "unitedstatespostalservice-a77078", "operator": "United States Postal Service", "operator:short": "USPS", "operator:type": "public", "operator:wikidata": "Q668687", "ref": "2785500002"}, "type": "Feature"}
{"dataset_attributes": {"@spider": "usps_collection_boxes"}, "geometry": {"coordinates": [-77.100995528, 36.442869348], "type": "Point"}, "id": "-Dq87nmHJ7XCzN2whwzKIrJht9o=", "properties": {"@spider": "usps_collection_boxes", "addr:city": "MURFREESBORO", "addr:country": "US", "addr:full": "115 N WYNN ST", "addr:postcode": "27855", "addr:state": "NC", "amenity": "post_box", "brand": "United States Postal Service", "brand:wikidata": "Q668687", "collection_times": "Mo-Fr 17:00; Sa 12:00", "name": "USPS COLLECTION BOX - BLUE BOX", "note": "ON 12/24 AND 12/31, THIS BOX MAY BE COLLECTED AS EARLY AS 12 NOON.", "nsi_id": "unitedstatespostalservice-a77078", "operator": "United States Postal Service", "operator:short": "USPS", "operator:type": "public", "operator:wikidata": "Q668687", "ref": "2785500008"}, "type": "Feature"}
{"dataset_attributes": {"@spider": "usps_collection_boxes"}, "geometry": {"coordinates": [-77.100995528, 36.442869348], "type": "Point"}, "id": "KJhcCOo3n5qccwaYTWw5o65IFro=", "properties": {"@spider": "usps_collection_boxes", "addr:city": "MURFREESBORO", "addr:country": "US", "addr:full": "115 N WYNN ST", "addr:postcode": "27855", "addr:state": "NC", "amenity": "post_box", "brand": "United States Postal Service", "brand:wikidata": "Q668687", "collection_times": "Mo-Fr 17:00", "name": "USPS COLLECTION BOX - PO LOBBY", "note": "ON 12/24 AND 12/31, THIS BOX MAY BE COLLECTED AS EARLY AS 12 NOON.", "nsi_id": "unitedstatespostalservice-a77078", "operator": "United States Postal Service", "operator:short": "USPS", "operator:type": "public", "operator:wikidata": "Q668687", "ref": "2785500011"}, "type": "Feature"}
{"dataset_attributes": {"@spider": "usps_collection_boxes"}, "geometry": {"coordinates": [-76.657633485, 35.588446254], "type": "Point"}, "id": "wWPbbKNUiEIhSb2XuKlK6NEcL_M=", "properties": {"@spider": "usps_collection_boxes", "addr:city": "PANTEGO", "addr:country": "US", "addr:full": "26022 US HIGHWAY 264 E", "addr:postcode": "27860", "addr:state": "NC", "amenity": "post_box", "brand": "United States Postal Service", "brand:wikidata": "Q668687", "collection_times": "Mo-Fr 16:30; Sa 09:00", "name": "USPS COLLECTION BOX - BLUE BOX", "note": "ON 12/24 AND 12/31, THIS BOX MAY BE COLLECTED AS EARLY AS 12 NOON.", "nsi_id": "unitedstatespostalservice-a77078", "operator": "United States Postal Service", "operator:short": "USPS", "operator:type": "public", "operator:wikidata": "Q668687", "ref": "2786000001"}, "type": "Feature"}
{"dataset_attributes": {"@spider": "usps_collection_boxes"}, "geometry": {"coordinates": [-76.657633485, 35.588446254], "type": "Point"}, "id": "JJuPz1UxhO9MICN0HBTZT7iql9k=", "properties": {"@spider": "usps_collection_boxes", "addr:city": "PANTEGO", "addr:country": "US", "addr:full": "26022 US HIGHWAY 264 E", "addr:postcode": "27860", "addr:state": "NC", "amenity": "post_box", "brand": "United States Postal Service", "brand:wikidata": "Q668687", "collection_times": "Mo-Fr 16:30; Sa 09:00", "name": "USPS COLLECTION BOX - PO LOBBY", "note": "ON 12/24 AND 12/31, THIS BOX MAY BE COLLECTED AS EARLY AS 12 NOON.", "nsi_id": "unitedstatespostalservice-a77078", "operator": "United States Postal Service", "operator:short": "USPS", "operator:type": "public", "operator:wikidata": "Q668687", "ref": "2786000002"}, "type": "Feature"}
{"dataset_attributes": {"@spider": "usps_collection_boxes"}, "geometry": {"coordinates": [-76.657633485, 35.588446254], "type": "Point"}, "id": "wmsaJBTsBiJTKafV3AOIgo-TWGQ=", "properties": {"@spider": "usps_collection_boxes", "addr:city": "PANTEGO", "addr:country": "US", "addr:full": "26022 US HIGHWAY 264 E", "addr:postcode": "27860", "addr:state": "NC", "amenity": "post_box", "brand": "United States Postal Service", "brand:wikidata": "Q668687", "collection_times": "Mo-Fr 16:30", "name": "USPS COLLECTION BOX - PO LOBBY", "note": "ON 12/24 AND 12/31, THIS BOX MAY BE COLLECTED AS EARLY AS 12 NOON.", "nsi_id": "unitedstatespostalservice-a77078", "operator": "United States Postal Service", "operator:short": "USPS", "operator:type": "public", "operator:wikidata": "Q668687", "ref": "2786000003"}, "type": "Feature"}
{"dataset_attributes": {"@spider": "usps_collection_boxes"}, "geometry": {"coordinates": [-77.198837582, 36.472447488], "type": "Point"}, "id": "myB1d3R5fkDRMK7SDyUxW4KPOLw=", "properties": {"@spider": "usps_collection_boxes", "addr:city": "PENDLETON", "addr:country": "US", "addr:full": "7488 NC HIGHWAY 35", "addr:postcode": "27862", "addr:state": "NC", "amenity": "post_box", "brand": "United States Postal Service", "brand:wikidata": "Q668687", "collection_times": "Mo-Fr 16:15; Sa 11:30", "name": "USPS COLLECTION BOX - PO LOBBY", "note": "ON 12/24 AND 12/31, THIS BOX MAY BE COLLECTED AS EARLY AS 12 NOON.", "nsi_id": "unitedstatespostalservice-a77078", "operator": "United States Postal Service", "operator:short": "USPS", "operator:type": "public", "operator:wikidata": "Q668687", "ref": "2786200001"}, "type": "Feature"}
{"dataset_attributes": {"@spider": "usps_collection_boxes"}, "geometry": {"coordinates": [-77.198837582, 36.472447488], "type": "Point"}, "id": "WwUV3UsNuPSXJDt-emoKEZsla4Y=", "properties": {"@spider": "usps_collection_boxes", "addr:city": "PENDLETON", "addr:country": "US", "addr:full": "7488 NC HIGHWAY 35", "addr:postcode": "27862", "addr:state": "NC", "amenity": "post_box", "brand": "United States Postal Service", "brand:wikidata": "Q668687", "collection_times": "Mo-Fr 16:15; Sa 11:30", "name": "USPS COLLECTION BOX - BLUE BOX", "note": "ON 12/24 AND 12/31, THIS BOX MAY BE COLLECTED AS EARLY AS 12 NOON.", "nsi_id": "unitedstatespostalservice-a77078", "operator": "United States Postal Service", "operator:short": "USPS", "operator:type": "public", "operator:wikidata": "Q668687", "ref": "2786200002"}, "type": "Feature"}
{"dataset_attributes": {"@spider": "usps_collection_boxes"}, "geometry": {"coordinates": [-77.198837582, 36.472447488], "type": "Point"}, "id": "pR8gXro0PVj8otQzM3fwxOQdmoE=", "properties": {"@spider": "usps_collection_boxes", "addr:city": "PENDLETON", "addr:country": "US", "addr:full": "7488 NC HIGHWAY 35", "addr:postcode": "27862", "addr:state": "NC", "amenity": "post_box", "brand": "United States Postal Service", "brand:wikidata": "Q668687", "collection_times": "Mo-Fr 16:15; Sa 11:30", "name": "USPS COLLECTION BOX - PO LOBBY", "note": "ON 12/24 AND 12/31, THIS BOX MAY BE COLLECTED AS EARLY AS 12 NOON.", "nsi_id": "unitedstatespostalservice-a77078", "operator": "United States Postal Service", "operator:short": "USPS", "operator:type": "public", "operator:wikidata": "Q668687", "ref": "2786200003"}, "type": "Feature"}
{"dataset_attributes": {"@spider": "usps_collection_boxes"}, "geometry": {"coordinates": [-76.861649055, 35.607384666], "type": "Point"}, "id": "wcz1wVIyoOpwpKQCs1_nB27bJ4o=", "properties": {"@spider": "usps_collection_boxes", "addr:city": "PINETOWN", "addr:country": "US", "addr:full": "378 MAIN ST", "addr:postcode": "27865", "addr:state": "NC", "amenity": "post_box", "brand": "United States Postal Service", "brand:wikidata": "Q668687", "collection_times": "Mo-Fr 16:00; Sa 10:45", "name": "USPS COLLECTION BOX - BLUE BOX", "note": "ON 12/24 AND 12/31, THIS BOX MAY BE COLLECTED AS EARLY AS 12 NOON.", "nsi_id": "unitedstatespostalservice-a77078", "operator": "United States Postal Service", "operator:short": "USPS", "operator:type": "public", "operator:wikidata": "Q668687", "ref": "2786500001"}, "type": "Feature"}
{"dataset_attributes": {"@spider": "usps_collection_boxes"}, "geometry": {"coordinates": [-76.861649055, 35.607384666], "type": "Point"}, "id": "VNTou4_mHw1pJqdImv8b8bpPOYI=", "properties": {"@spider": "usps_collection_boxes", "addr:city": "PINETOWN", "addr:country": "US", "addr:full": "378 MAIN ST", "addr:postcode": "27865", "addr:state": "NC", "amenity": "post_box", "brand": "United States Postal Service", "brand:wikidata": "Q668687", "collection_times": "Mo-Fr 16:00; Sa 10:45", "name": "USPS COLLECTION BOX - PO LOBBY", "note": "ON 12/24 AND 12/31, THIS BOX MAY BE COLLECTED AS EARLY AS 12 NOON.", "nsi_id": "unitedstatespostalservice-a77078", "operator": "United States Postal Service", "operator:short": "USPS", "operator:type": "public", "operator:wikidata": "Q668687", "ref": "2786500002"}, "type": "Feature"}
{"dataset_attributes": {"@spider": "usps_collection_boxes"}, "geometry": {"coordinates": [-76.861649055, 35.607384666], "type": "Point"}, "id": "3lkgBYB-GEY-hWlHrvnDyte_gC0=", "properties": {"@spider": "usps_collection_boxes", "addr:city": "PINETOWN", "addr:country": "US", "addr:full": "378 MAIN ST", "addr:postcode": "27865", "addr:state": "NC", "amenity": "post_box", "brand": "United States Postal Service", "brand:wikidata": "Q668687", "collection_times": "Mo-Fr 16:00; Sa 10:30", "name": "USPS COLLECTION BOX - PO LOBBY", "note": "ON 12/24 AND 12/31, THIS BOX MAY BE COLLECTED AS EARLY AS 12 NOON.", "nsi_id": "unitedstatespostalservice-a77078", "operator": "United States Postal Service", "operator:short": "USPS", "operator:type": "public", "operator:wikidata": "Q668687", "ref": "2786500003"}, "type": "Feature"}
{"dataset_attributes": {"@spider": "usps_collection_boxes"}, "geometry": {"coordinates": [-76.451547773, 35.495541693], "type": "Point"}, "id": "QojuVGp0QSll5YRpH5yJTZnlGfA=", "properties": {"@spider": "usps_collection_boxes", "addr:city": "SCRANTON", "addr:country": "US", "addr:full": "500 OLD US HIGHWAY 264", "addr:postcode": "27875", "addr:state": "NC", "amenity": "post_box", "brand": "United States Postal Service", "brand:wikidata": "Q668687", "collection_times": "Mo-Fr 16:00; Sa 10:30", "name": "USPS COLLECTION BOX - BLUE BOX", "note": "ON 12/24 AND 12/31, THIS BOX MAY BE COLLECTED AS EARLY AS 12 NOON.", "nsi_id": "unitedstatespostalservice-a77078", "operator": "United States Postal Service", "operator:short": "USPS", "operator:type": "public", "operator:wikidata": "Q668687", "ref": "2787500001"}, "type": "Feature"}
{"dataset_attributes": {"@spider": "usps_collection_boxes"}, "geometry": {"coordinates": [-76.451547773, 35.495541693], "type": "Point"}, "id": "KbiD2VDudiICE0ke4Dl5PjYrLUY=", "properties": {"@spider": "usps_collection_boxes", "addr:city": "SCRANTON", "addr:country": "US", "addr:full": "500 OLD US HIGHWAY 264", "addr:postcode": "27875", "addr:state": "NC", "amenity": "post_box", "brand": "United States Postal Service", "brand:wikidata": "Q668687", "collection_times": "Mo-Fr 16:00; Sa 10:30", "name": "USPS COLLECTION BOX - PO LOBBY", "note": "ON 12/24 AND 12/31, THIS BOX MAY BE COLLECTED AS EARLY AS 12 NOON.", "nsi_id": "unitedstatespostalservice-a77078", "operator": "United States Postal Service", "operator:short": "USPS", "operator:type": "public", "operator:wikidata": "Q668687", "ref": "2787500002"}, "type": "Feature"}
{"dataset_attributes": {"@spider": "usps_collection_boxes"}, "geometry": {"coordinates": [-76.451547773, 35.495541693], "type": "Point"}, "id": "9ZVLWGY2yL1tUTIs8eM8nKOoEHY=", "properties": {"@spider": "usps_collection_boxes", "addr:city": "SCRANTON", "addr:country": "US", "addr:full": "500 OLD US HIGHWAY 264", "addr:postcode": "27875", "addr:state": "NC", "amenity": "post_box", "brand": "United States Postal Service", "brand:wikidata": "Q668687", "collection_times": "Mo-Fr 16:30; Sa 11:30", "name": "USPS COLLECTION BOX - PO LOBBY", "note": "ON 12/24 AND 12/31, THIS BOX MAY BE COLLECTED AS EARLY AS 12 NOON.", "nsi_id": "unitedstatespostalservice-a77078", "operator": "United States Postal Service", "operator:short": "USPS", "operator:type": "public", "operator:wikidata": "Q668687", "ref": "2787500003"}, "type": "Feature"}
{"dataset_attributes": {"@spider": "usps_collection_boxes"}, "geometry": {"coordinates": [-77.190020906, 36.514309409], "type": "Point"}, "id": "cPqRdQMEjfWh_tA5G0OygUyyKHY=", "properties": {"@spider": "usps_collection_boxes", "addr:city": "SEVERN", "addr:country": "US", "addr:full": "410 MAIN ST", "addr:postcode": "27877", "addr:state": "NC", "amenity": "post_box", "brand": "United States Postal Service", "brand:wikidata": "Q668687", "collection_times": "Mo-Fr 16:30; Sa 10:30", "name": "USPS COLLECTION BOX - BLUE BOX", "note": "ON 12/24 AND 12/31, THIS BOX MAY BE COLLECTED AS EARLY AS 12 NOON.", "nsi_id": "unitedstatespostalservice-a77078", "operator": "United States Postal Service", "operator:short": "USPS", "operator:type": "public", "operator:wikidata": "Q668687", "ref": "2787700001"}, "type": "Feature"}
{"dataset_attributes": {"@spider": "usps_collection_boxes"}, "geometry": {"coordinates": [-77.190020906, 36.514309409], "type": "Point"}, "id": "DYh_P__ez0z3utiWuedxHxd9Nss=", "properties": {"@spider": "usps_collection_boxes", "addr:city": "SEVERN", "addr:country": "US", "addr:full": "410 MAIN ST", "addr:postcode": "27877", "addr:state": "NC", "amenity": "post_box", "brand": "United States Postal Service", "brand:wikidata": "Q668687", "collection_times": "Mo-Fr 16:30; Sa 10:30", "name": "USPS COLLECTION BOX - PO LOBBY", "note": "ON 12/24 AND 12/31, THIS BOX MAY BE COLLECTED AS EARLY AS 12 NOON.", "nsi_id": "unitedstatespostalservice-a77078", "operator": "United States Postal Service", "operator:short": "USPS", "operator:type": "public", "operator:wikidata": "Q668687", "ref": "2787700002"}, "type": "Feature"}
{"dataset_attributes": {"@spider": "usps_collection_boxes"}, "geometry": {"coordinates": [-77.190020906, 36.514309409], "type": "Point"}, "id": "MeUO9XXd9no8UUjjEFFLlZBZLZ4=", "properties": {"@spider": "usps_collection_boxes", "addr:city": "SEVERN", "addr:country": "US", "addr:full": "410 MAIN ST", "addr:postcode": "27877", "addr:state": "NC", "amenity": "post_box", "brand": "United States Postal Service", "brand:wikidata": "Q668687", "collection_times": "Mo-Fr 16:30", "name": "USPS COLLECTION BOX - PO LOBBY", "note": "ON 12/24 AND 12/31, THIS BOX MAY BE COLLECTED AS EARLY AS 12 NOON.", "nsi_id": "unitedstatespostalservice-a77078", "operator": "United States Postal Service", "operator:short": "USPS", "operator:type": "public", "operator:wikidata": "Q668687", "ref": "2787700003"}, "type": "Feature"}
{"dataset_attributes": {"@spider": "usps_collection_boxes"}, "geometry": {"coordinates": [-76.316989671, 35.42135775], "type": "Point"}, "id": "4MT3Vk-TTkY8n_4_sghmApeXias=", "properties": {"@spider": "usps_collection_boxes", "addr:city": "SWANQUARTER", "addr:country": "US", "addr:full": "1271 MAIN ST", "addr:postcode": "27885", "addr:state": "NC", "amenity": "post_box", "brand": "United States Postal Service", "brand:wikidata": "Q668687", "collection_times": "Mo-Fr 15:00", "name": "USPS COLLECTION BOX - PO LOBBY", "note": "ON 12/24 AND 12/31, THIS BOX MAY BE COLLECTED AS EARLY AS 12 NOON.", "nsi_id": "unitedstatespostalservice-a77078", "operator": "United States Postal Service", "operator:short": "USPS", "operator:type": "public", "operator:wikidata": "Q668687", "ref": "2788500000"}, "type": "Feature"}
{"dataset_attributes": {"@spider": "usps_collection_boxes"}, "geometry": {"coordinates": [-76.316989671, 35.42135775], "type": "Point"}, "id": "6_2bj4LkfiRlFiTHLFPD1fSowCE=", "properties": {"@spider": "usps_collection_boxes", "addr:city": "SWANQUARTER", "addr:country": "US", "addr:full": "1271 MAIN ST", "addr:postcode": "27885", "addr:state": "NC", "amenity": "post_box", "brand": "United States Postal Service", "brand:wikidata": "Q668687", "collection_times": "Mo-Fr 15:00", "name": "USPS COLLECTION BOX - BLUE BOX", "note": "ON 12/24 AND 12/31, THIS BOX MAY BE COLLECTED AS EARLY AS 12 NOON.", "nsi_id": "unitedstatespostalservice-a77078", "operator": "United States Postal Service", "operator:short": "USPS", "operator:type": "public", "operator:wikidata": "Q668687", "ref": "2788500001"}, "type": "Feature"}
{"dataset_attributes": {"@spider": "usps_collection_boxes"}, "geometry": {"coordinates": [-76.316989671, 35.42135775], "type": "Point"}, "id": "PnskafF0KdV2uCTa43gl5gJn4Ig=", "properties": {"@spider": "usps_collection_boxes", "addr:city": "SWANQUARTER", "addr:country": "US", "addr:full": "1271 MAIN ST", "addr:postcode": "27885", "addr:state": "NC", "amenity": "post_box", "brand": "United States Postal Service", "brand:wikidata": "Q668687", "collection_times": "Mo-Fr 16:00", "name": "USPS COLLECTION BOX - PO LOBBY", "note": "ON 12/24 AND 12/31, THIS BOX MAY BE COLLECTED AS EARLY AS 12 NOON.", "nsi_id": "unitedstatespostalservice-a77078", "operator": "United States Postal Service", "operator:short": "USPS", "operator:type": "public", "operator:wikidata": "Q668687", "ref": "2788500003"}, "type": "Feature"}
