{"geometry": {"coordinates": [-76.241846269, 36.294210097], "type": "Point"}, "id": "6ZHvR3SdndFA07RFY_e9qKuXSeI=", "properties": {"@source_uri": "https://tools.usps.com/UspsToolsRestServices/rest/POLocator/findLocations", "@spider": "usps_collection_boxes", "addr:city": "ELIZABETH CITY", "addr:country": "US", "addr:postcode": "27909", "addr:state": "NC", "addr:street_address": "1407 W EHRINGHAUS ST", "amenity": "post_box", "collection_times": "Mo-Sa 10:00", "nsi_id": "unitedstatespostalservice-a77078", "operator": "United States Postal Service", "operator:short": "USPS", "operator:type": "public", "operator:wikidata": "Q668687", "ref": "2790900002"}, "type": "Feature"}
{"geometry": {"coordinates": [-76.238180651, 36.288490903], "type": "Point"}, "id": "5eKNzfPw3XJ8LcMr3QctCVKpdfA=", "properties": {"@source_uri": "https://tools.usps.com/UspsToolsRestServices/rest/POLocator/findLocations", "@spider": "usps_collection_boxes", "addr:city": "ELIZABETH CITY", "addr:country": "US", "addr:postcode": "27909", "addr:state": "NC", "addr:street_address": "1400 WALKER AVE", "amenity": "post_box", "collection_times": "Mo-Sa 10:00", "nsi_id": "unitedstatespostalservice-a77078", "operator": "United States Postal Service", "operator:short": "USPS", "operator:type": "public", "operator:wikidata": "Q668687", "ref": "2790900004"}, "type": "Feature"}
{"geometry": {"coordinates": [-76.2408858438, 36.2898589347], "type": "Point"}, "id": "PRNqkBqrWzaFUD008-8tFRsGKpY=", "properties": {"@source_uri": "https://tools.usps.com/UspsToolsRestServices/rest/POLocator/findLocations", "@spider": "usps_collection_boxes", "addr:city": "ELIZABETH CITY", "addr:country": "US", "addr:postcode": "27909", "addr:state": "NC", "addr:street_address": "828 WESTWAY ST", "amenity": "post_box", "collection_times": "Mo-Sa 10:00", "nsi_id": "unitedstatespostalservice-a77078", "operator": "United States Postal Service", "operator:short": "USPS", "operator:type": "public", "operator:wikidata": "Q668687", "ref": "2790900005"}, "type": "Feature"}
{"geometry": {"coordinates": [-76.191740974, 36.262555538], "type": "Point"}, "id": "cQCZ4g8zfedwX1YNmfzo2dT9hO8=", "properties": {"@source_uri": "https://tools.usps.com/UspsToolsRestServices/rest/POLocator/findLocations", "@spider": "usps_collection_boxes", "addr:city": "ELIZABETH CITY", "addr:country": "US", "addr:postcode": "27909", "addr:state": "NC", "addr:street_address": "1684 WEEKSVILLE RD", "amenity": "post_box", "collection_times": "Mo-Fr 10:00", "nsi_id": "unitedstatespostalservice-a77078", "operator": "United States Postal Service", "operator:short": "USPS", "operator:type": "public", "operator:wikidata": "Q668687", "ref": "2790900019"}, "type": "Feature"}
{"geometry": {"coordinates": [-76.248591432, 36.293551022], "type": "Point"}, "id": "68ehUb2TGuKnfhKkPm23cQQBlcY=", "properties": {"@source_uri": "https://tools.usps.com/UspsToolsRestServices/rest/POLocator/findLocations", "@spider": "usps_collection_boxes", "addr:city": "ELIZABETH CITY", "addr:country": "US", "addr:postcode": "27909", "addr:state": "NC", "addr:street_address": "522 S HUGHES BLVD", "amenity": "post_box", "collection_times": "Mo-Fr 10:00", "nsi_id": "unitedstatespostalservice-a77078", "operator": "United States Postal Service", "operator:short": "USPS", "operator:type": "public", "operator:wikidata": "Q668687", "ref": "2790900023"}, "type": "Feature"}
{"geometry": {"coordinates": [-76.21954734, 36.299816131], "type": "Point"}, "id": "2I5HKSRwN4Wew1Jq6Ht6qlyCXB0=", "properties": {"@source_uri": "https://tools.usps.com/UspsToolsRestServices/rest/POLocator/findLocations", "@spider": "usps_collection_boxes", "addr:city": "ELIZABETH CITY", "addr:country": "US", "addr:postcode": "27909", "addr:state": "NC", "addr:street_address": "608 E MAIN ST", "amenity": "post_box", "collection_times": "Mo-Fr 09:00", "nsi_id": "unitedstatespostalservice-a77078", "operator": "United States Postal Service", "operator:short": "USPS", "operator:type": "public", "operator:wikidata": "Q668687", "ref": "2790900031"}, "type": "Feature"}
{"geometry": {"coordinates": [-76.22170616, 36.300025213], "type": "Point"}, "id": "RvP8o-8B6V8qgzxgKLpwWdqgubM=", "properties": {"@source_uri": "https://tools.usps.com/UspsToolsRestServices/rest/POLocator/findLocations", "@spider": "usps_collection_boxes", "addr:city": "ELIZABETH CITY", "addr:country": "US", "addr:postcode": "27909", "addr:state": "NC", "addr:street_address": "306 E MAIN ST", "amenity": "post_box", "collection_times": "Mo-Sa 09:00", "nsi_id": "unitedstatespostalservice-a77078", "operator": "United States Postal Service", "operator:short": "USPS", "operator:type": "public", "operator:wikidata": "Q668687", "ref": "2790900034"}, "type": "Feature"}
{"geometry": {"coordinates": [-76.22191878, 36.300812258], "type": "Point"}, "id": "js8bhtReqCtHNZzqTmqFvYx3GYE=", "properties": {"@source_uri": "https://tools.usps.com/UspsToolsRestServices/rest/POLocator/findLocations", "@spider": "usps_collection_boxes", "addr:city": "ELIZABETH CITY", "addr:country": "US", "addr:postcode": "27909", "addr:state": "NC", "addr:street_address": "300 E COLONIAL AVE", "amenity": "post_box", "collection_times": "Mo-Fr 09:00", "nsi_id": "unitedstatespostalservice-a77078", "operator": "United States Postal Service", "operator:short": "USPS", "operator:type": "public", "operator:wikidata": "Q668687", "ref": "2790900038"}, "type": "Feature"}
{"geometry": {"coordinates": [-76.225638955, 36.329282813], "type": "Point"}, "id": "i-UpBUWYwjcAs4mwnn8Arisykh0=", "properties": {"@source_uri": "https://tools.usps.com/UspsToolsRestServices/rest/POLocator/findLocations", "@spider": "usps_collection_boxes", "addr:city": "ELIZABETH CITY", "addr:country": "US", "addr:postcode": "27909", "addr:state": "NC", "addr:street_address": "1313 N ROAD ST", "amenity": "post_box", "collection_times": "Mo-Sa 10:00", "nsi_id": "unitedstatespostalservice-a77078", "operator": "United States Postal Service", "operator:short": "USPS", "operator:type": "public", "operator:wikidata": "Q668687", "ref": "2790900048"}, "type": "Feature"}
{"geometry": {"coordinates": [-76.234667821, 36.295371549], "type": "Point"}, "id": "VrvgQkPD8iFCugj9OISo82QfO1E=", "properties": {"@source_uri": "https://tools.usps.com/UspsToolsRestServices/rest/POLocator/findLocations", "@spider": "usps_collection_boxes", "addr:city": "ELIZABETH CITY", "addr:country": "US", "addr:postcode": "27909", "addr:state": "NC", "addr:street_address": "1001 W EHRINGHAUS ST", "amenity": "post_box", "collection_times": "Mo-Fr 17:00; Sa 12:00", "note": "ON 12/24 AND 12/31, THIS BOX MAY BE COLLECTED AS EARLY AS 12 NOON.", "nsi_id": "unitedstatespostalservice-a77078", "operator": "United States Postal Service", "operator:short": "USPS", "operator:type": "public", "operator:wikidata": "Q668687", "ref": "2790900053"}, "type": "Feature"}
{"geometry": {"coordinates": [-76.234667821, 36.295371549], "type": "Point"}, "id": "yUsLq-OZW87IH5tav8Dg60UtA98=", "properties": {"@source_uri": "https://tools.usps.com/UspsToolsRestServices/rest/POLocator/findLocations", "@spider": "usps_collection_boxes", "addr:city": "ELIZABETH CITY", "addr:country": "US", "addr:postcode": "27909", "addr:state": "NC", "addr:street_address": "1001 W EHRINGHAUS ST", "amenity": "post_box", "collection_times": "Mo-Fr 17:00; Sa 12:00", "note": "ON 12/24 AND 12/31, THIS BOX MAY BE COLLECTED AS EARLY AS 12 NOON.", "nsi_id": "unitedstatespostalservice-a77078", "operator": "United States Postal Service", "operator:short": "USPS", "operator:type": "public", "operator:wikidata": "Q668687", "ref": "2790900054"}, "type": "Feature"}
{"geometry": {"coordinates": [-76.223280871, 36.277499624], "type": "Point"}, "id": "AGewTtqhfXErOvjVislk9HsTGk8=", "properties": {"@source_uri": "https://tools.usps.com/UspsToolsRestServices/rest/POLocator/findLocations", "@spider": "usps_collection_boxes", "addr:city": "ELIZABETH CITY", "addr:country": "US", "addr:postcode": "27909", "addr:state": "NC", "addr:street_address": "100 FORREST SKIPPER DR", "amenity": "post_box", "collection_times": "Mo-Sa 10:00", "nsi_id": "unitedstatespostalservice-a77078", "operator": "United States Postal Service", "operator:short": "USPS", "operator:type": "public", "operator:wikidata": "Q668687", "ref": "2790900058"}, "type": "Feature"}
{"geometry": {"coordinates": [-76.227610144, 36.332135519], "type": "Point"}, "id": "VaIvg_KRTnZ6-h53GT1MpImpnkM=", "properties": {"@source_uri": "https://tools.usps.com/UspsToolsRestServices/rest/POLocator/findLocations", "@spider": "usps_collection_boxes", "addr:city": "ELIZABETH CITY", "addr:country": "US", "addr:postcode": "27909", "addr:state": "NC", "addr:street_address": "1500 EMERALD LAKE CIR", "amenity": "post_box", "collection_times": "Mo-Fr 10:00", "nsi_id": "unitedstatespostalservice-a77078", "operator": "United States Postal Service", "operator:short": "USPS", "operator:type": "public", "operator:wikidata": "Q668687", "ref": "2790900061"}, "type": "Feature"}
{"geometry": {"coordinates": [-76.234667821, 36.295371549], "type": "Point"}, "id": "sAMUWwKsfDjTvNf2TL3YJJQjGH4=", "properties": {"@source_uri": "https://tools.usps.com/UspsToolsRestServices/rest/POLocator/findLocations", "@spider": "usps_collection_boxes", "addr:city": "ELIZABETH CITY", "addr:country": "US", "addr:postcode": "27909", "addr:state": "NC", "addr:street_address": "1001 W EHRINGHAUS ST", "amenity": "post_box", "collection_times": "Mo-Fr 16:30; Sa 12:00", "indoor": "yes", "note": "ON 12/24 AND 12/31, THIS BOX MAY BE COLLECTED AS EARLY AS 12 NOON.", "nsi_id": "unitedstatespostalservice-a77078", "operator": "United States Postal Service", "operator:short": "USPS", "operator:type": "public", "operator:wikidata": "Q668687", "ref": "2790900065"}, "type": "Feature"}
{"geometry": {"coordinates": [-76.234667821, 36.295371549], "type": "Point"}, "id": "Fb7MVrbs9a46bQ5c100ooVhL9XY=", "properties": {"@source_uri": "https://tools.usps.com/UspsToolsRestServices/rest/POLocator/findLocations", "@spider": "usps_collection_boxes", "addr:city": "ELIZABETH CITY", "addr:country": "US", "addr:postcode": "27909", "addr:state": "NC", "addr:street_address": "1001 W EHRINGHAUS ST", "amenity": "post_box", "collection_times": "Mo-Fr 16:30; Sa 12:00", "indoor": "yes", "note": "ON 12/24 AND 12/31, THIS BOX MAY BE COLLECTED AS EARLY AS 12 NOON.", "nsi_id": "unitedstatespostalservice-a77078", "operator": "United States Postal Service", "operator:short": "USPS", "operator:type": "public", "operator:wikidata": "Q668687", "ref": "2790900070"}, "type": "Feature"}
{"geometry": {"coordinates": [-76.975022219, 36.274601172], "type": "Point"}, "id": "rOBRnOiWJnoSJxH-3Mqm1MdP10k=", "properties": {"@source_uri": "https://tools.usps.com/UspsToolsRestServices/rest/POLocator/findLocations", "@spider": "usps_collection_boxes", "addr:city": "AHOSKIE", "addr:country": "US", "addr:postcode": "27910", "addr:state": "NC", "addr:street_address": "1337 MEMORIAL DR E", "amenity": "post_box", "collection_times": "Mo-Sa 09:45", "nsi_id": "unitedstatespostalservice-a77078", "operator": "United States Postal Service", "operator:short": "USPS", "operator:type": "public", "operator:wikidata": "Q668687", "ref": "2791000006"}, "type": "Feature"}
{"geometry": {"coordinates": [-76.973689519, 36.273832341], "type": "Point"}, "id": "1NwJV0ODVKHCsvmogHSvsTK8PeA=", "properties": {"@source_uri": "https://tools.usps.com/UspsToolsRestServices/rest/POLocator/findLocations", "@spider": "usps_collection_boxes", "addr:city": "AHOSKIE", "addr:country": "US", "addr:postcode": "27910", "addr:state": "NC", "addr:street_address": "1450 MEMORIAL DR E", "amenity": "post_box", "collection_times": "Mo-Sa 09:30", "nsi_id": "unitedstatespostalservice-a77078", "operator": "United States Postal Service", "operator:short": "USPS", "operator:type": "public", "operator:wikidata": "Q668687", "ref": "2791000007"}, "type": "Feature"}
{"geometry": {"coordinates": [-76.987340463, 36.285015525], "type": "Point"}, "id": "XSCWwZmeY9_mijWRlYh1On_5ycI=", "properties": {"@source_uri": "https://tools.usps.com/UspsToolsRestServices/rest/POLocator/findLocations", "@spider": "usps_collection_boxes", "addr:city": "AHOSKIE", "addr:country": "US", "addr:postcode": "27910", "addr:state": "NC", "addr:street_address": "115 CHURCH ST W", "amenity": "post_box", "collection_times": "Mo-Fr 17:00; Sa 12:00", "note": "ON 12/24 AND 12/31, THIS BOX MAY BE COLLECTED AS EARLY AS 12 NOON.", "nsi_id": "unitedstatespostalservice-a77078", "operator": "United States Postal Service", "operator:short": "USPS", "operator:type": "public", "operator:wikidata": "Q668687", "ref": "2791000009"}, "type": "Feature"}
{"geometry": {"coordinates": [-76.983749273, 36.284437368], "type": "Point"}, "id": "1GW8qz-IGjGa5w9v-nLwyXqHFao=", "properties": {"@source_uri": "https://tools.usps.com/UspsToolsRestServices/rest/POLocator/findLocations", "@spider": "usps_collection_boxes", "addr:city": "AHOSKIE", "addr:country": "US", "addr:postcode": "27910", "addr:state": "NC", "addr:street_address": "301 MAIN ST E", "amenity": "post_box", "collection_times": "Mo-Sa 09:45", "nsi_id": "unitedstatespostalservice-a77078", "operator": "United States Postal Service", "operator:short": "USPS", "operator:type": "public", "operator:wikidata": "Q668687", "ref": "2791000010"}, "type": "Feature"}
{"geometry": {"coordinates": [-76.982375068, 36.286272869], "type": "Point"}, "id": "4Iz7yGDBK0SPd3ksq_ntjyRv1mA=", "properties": {"@source_uri": "https://tools.usps.com/UspsToolsRestServices/rest/POLocator/findLocations", "@spider": "usps_collection_boxes", "addr:city": "AHOSKIE", "addr:country": "US", "addr:postcode": "27910", "addr:state": "NC", "addr:street_address": "321 MAPLE ST N", "amenity": "post_box", "collection_times": "Mo-Sa 13:00", "note": "ON 12/24 AND 12/31, THIS BOX MAY BE COLLECTED AS EARLY AS 12 NOON.", "nsi_id": "unitedstatespostalservice-a77078", "operator": "United States Postal Service", "operator:short": "USPS", "operator:type": "public", "operator:wikidata": "Q668687", "ref": "2791000011"}, "type": "Feature"}
{"geometry": {"coordinates": [-76.986086917, 36.289140544], "type": "Point"}, "id": "b63qWeC-F_axqMJypMpsene1wV8=", "properties": {"@source_uri": "https://tools.usps.com/UspsToolsRestServices/rest/POLocator/findLocations", "@spider": "usps_collection_boxes", "addr:city": "AHOSKIE", "addr:country": "US", "addr:postcode": "27910", "addr:state": "NC", "addr:street_address": "313 HAYES ST W", "amenity": "post_box", "collection_times": "Mo-Sa 11:00", "nsi_id": "unitedstatespostalservice-a77078", "operator": "United States Postal Service", "operator:short": "USPS", "operator:type": "public", "operator:wikidata": "Q668687", "ref": "2791000014"}, "type": "Feature"}
{"geometry": {"coordinates": [-76.985561481, 36.294588147], "type": "Point"}, "id": "naENlaMAn139Gfy18BCUUnB-11s=", "properties": {"@source_uri": "https://tools.usps.com/UspsToolsRestServices/rest/POLocator/findLocations", "@spider": "usps_collection_boxes", "addr:city": "AHOSKIE", "addr:country": "US", "addr:postcode": "27910", "addr:state": "NC", "addr:street_address": "619 BAKER ST W", "amenity": "post_box", "collection_times": "Mo-Sa 08:30", "nsi_id": "unitedstatespostalservice-a77078", "operator": "United States Postal Service", "operator:short": "USPS", "operator:type": "public", "operator:wikidata": "Q668687", "ref": "2791000015"}, "type": "Feature"}
{"geometry": {"coordinates": [-76.994130054, 36.289765028], "type": "Point"}, "id": "h1NGQpL6D3m0lcCioGCxzEoSUP0=", "properties": {"@source_uri": "https://tools.usps.com/UspsToolsRestServices/rest/POLocator/findLocations", "@spider": "usps_collection_boxes", "addr:city": "AHOSKIE", "addr:country": "US", "addr:postcode": "27910", "addr:state": "NC", "addr:street_address": "102 PEMBROKE AVE S", "amenity": "post_box", "collection_times": "Mo-Sa 11:00", "nsi_id": "unitedstatespostalservice-a77078", "operator": "United States Postal Service", "operator:short": "USPS", "operator:type": "public", "operator:wikidata": "Q668687", "ref": "2791000018"}, "type": "Feature"}
{"geometry": {"coordinates": [-76.982196422, 36.277908988], "type": "Point"}, "id": "NbgHHLH4bea_eXIJN2kcqJzZ2pQ=", "properties": {"@source_uri": "https://tools.usps.com/UspsToolsRestServices/rest/POLocator/findLocations", "@spider": "usps_collection_boxes", "addr:city": "AHOSKIE", "addr:country": "US", "addr:postcode": "27910", "addr:state": "NC", "addr:street_address": "717 MEMORIAL DR E", "amenity": "post_box", "collection_times": "Mo-Sa 09:00", "nsi_id": "unitedstatespostalservice-a77078", "operator": "United States Postal Service", "operator:short": "USPS", "operator:type": "public", "operator:wikidata": "Q668687", "ref": "2791000019"}, "type": "Feature"}
{"geometry": {"coordinates": [-76.995628065, 36.284818569], "type": "Point"}, "id": "3n70Kjhjmk2SVmMGVk_BdEk6bEE=", "properties": {"@source_uri": "https://tools.usps.com/UspsToolsRestServices/rest/POLocator/findLocations", "@spider": "usps_collection_boxes", "addr:city": "AHOSKIE", "addr:country": "US", "addr:postcode": "27910", "addr:state": "NC", "addr:street_address": "703 MEMORIAL DR W", "amenity": "post_box", "collection_times": "Mo-Sa 09:00", "nsi_id": "unitedstatespostalservice-a77078", "operator": "United States Postal Service", "operator:short": "USPS", "operator:type": "public", "operator:wikidata": "Q668687", "ref": "2791000020"}, "type": "Feature"}
{"geometry": {"coordinates": [-76.987340463, 36.285015525], "type": "Point"}, "id": "cskzBB9v6vuap-3hK7iq3d_B9hg=", "properties": {"@source_uri": "https://tools.usps.com/UspsToolsRestServices/rest/POLocator/findLocations", "@spider": "usps_collection_boxes", "addr:city": "AHOSKIE", "addr:country": "US", "addr:postcode": "27910", "addr:state": "NC", "addr:street_address": "115 CHURCH ST W", "amenity": "post_box", "collection_times": "Mo-Fr 17:00; Sa 12:00", "indoor": "yes", "note": "ON 12/24 AND 12/31, THIS BOX MAY BE COLLECTED AS EARLY AS 12 NOON.", "nsi_id": "unitedstatespostalservice-a77078", "operator": "United States Postal Service", "operator:short": "USPS", "operator:type": "public", "operator:wikidata": "Q668687", "ref": "2791000021"}, "type": "Feature"}
{"geometry": {"coordinates": [-76.987340463, 36.285015525], "type": "Point"}, "id": "-wkxJg0qDS6PL6IKX8DCzxEsdd4=", "properties": {"@source_uri": "https://tools.usps.com/UspsToolsRestServices/rest/POLocator/findLocations", "@spider": "usps_collection_boxes", "addr:city": "AHOSKIE", "addr:country": "US", "addr:postcode": "27910", "addr:state": "NC", "addr:street_address": "115 CHURCH ST W", "amenity": "post_box", "collection_times": "Mo-Fr 17:00", "indoor": "yes", "note": "ON 12/24 AND 12/31, THIS BOX MAY BE COLLECTED AS EARLY AS 12 NOON.", "nsi_id": "unitedstatespostalservice-a77078", "operator": "United States Postal Service", "operator:short": "USPS", "operator:type": "public", "operator:wikidata": "Q668687", "ref": "2791000023"}, "type": "Feature"}
{"geometry": {"coordinates": [-75.5046879759, 35.344003013], "type": "Point"}, "id": "QITBqy9hbexwdhG0-FfOANHEtEA=", "properties": {"@source_uri": "https://tools.usps.com/UspsToolsRestServices/rest/POLocator/findLocations", "@spider": "usps_collection_boxes", "addr:city": "AVON", "addr:country": "US", "addr:postcode": "27915", "addr:state": "NC", "addr:street_address": "41196 NC HIGHWAY 12", "amenity": "post_box", "collection_times": "Mo-Fr 15:00; Sa 12:30", "indoor": "yes", "note": "ON 12/24 AND 12/31, THIS BOX MAY BE COLLECTED AS EARLY AS 12 NOON.", "nsi_id": "unitedstatespostalservice-a77078", "operator": "United States Postal Service", "operator:short": "USPS", "operator:type": "public", "operator:wikidata": "Q668687", "ref": "2791500001"}, "type": "Feature"}
{"geometry": {"coordinates": [-75.5046879759, 35.344003013], "type": "Point"}, "id": "cJmMCazRhgyf7xM3HmtnOKTrkJc=", "properties": {"@source_uri": "https://tools.usps.com/UspsToolsRestServices/rest/POLocator/findLocations", "@spider": "usps_collection_boxes", "addr:city": "AVON", "addr:country": "US", "addr:postcode": "27915", "addr:state": "NC", "addr:street_address": "41196 NC HIGHWAY 12", "amenity": "post_box", "collection_times": "Mo-Fr 15:30; Sa 12:30", "indoor": "yes", "note": "ON 12/24 AND 12/31, THIS BOX MAY BE COLLECTED AS EARLY AS 12 NOON.", "nsi_id": "unitedstatespostalservice-a77078", "operator": "United States Postal Service", "operator:short": "USPS", "operator:type": "public", "operator:wikidata": "Q668687", "ref": "2791500004"}, "type": "Feature"}
{"geometry": {"coordinates": [-75.90570757, 36.323757335], "type": "Point"}, "id": "-6CoC7wFkvaT_vbW5abSEo-fAqk=", "properties": {"@source_uri": "https://tools.usps.com/UspsToolsRestServices/rest/POLocator/findLocations", "@spider": "usps_collection_boxes", "addr:city": "AYDLETT", "addr:country": "US", "addr:postcode": "27916", "addr:state": "NC", "addr:street_address": "523 AYDLETT RD", "amenity": "post_box", "collection_times": "Mo-Fr 16:15; Sa 11:15", "note": "ON 12/24 AND 12/31, THIS BOX MAY BE COLLECTED AS EARLY AS 12 NOON.", "nsi_id": "unitedstatespostalservice-a77078", "operator": "United States Postal Service", "operator:short": "USPS", "operator:type": "public", "operator:wikidata": "Q668687", "ref": "2791600001"}, "type": "Feature"}
{"geometry": {"coordinates": [-75.90570757, 36.323757335], "type": "Point"}, "id": "I9ydeBPKjT84Ykb1f_GbcjAsVU8=", "properties": {"@source_uri": "https://tools.usps.com/UspsToolsRestServices/rest/POLocator/findLocations", "@spider": "usps_collection_boxes", "addr:city": "AYDLETT", "addr:country": "US", "addr:postcode": "27916", "addr:state": "NC", "addr:street_address": "523 AYDLETT RD", "amenity": "post_box", "collection_times": "Mo-Fr 16:15; Sa 11:15", "indoor": "yes", "note": "ON 12/24 AND 12/31, THIS BOX MAY BE COLLECTED AS EARLY AS 12 NOON.", "nsi_id": "unitedstatespostalservice-a77078", "operator": "United States Postal Service", "operator:short": "USPS", "operator:type": "public", "operator:wikidata": "Q668687", "ref": "2791600002"}, "type": "Feature"}
{"geometry": {"coordinates": [-75.90570757, 36.323757335], "type": "Point"}, "id": "jjgoZ6y7aMOlFIPsZSLcLGxQ7sU=", "properties": {"@source_uri": "https://tools.usps.com/UspsToolsRestServices/rest/POLocator/findLocations", "@spider": "usps_collection_boxes", "addr:city": "AYDLETT", "addr:country": "US", "addr:postcode": "27916", "addr:state": "NC", "addr:street_address": "523 AYDLETT RD", "amenity": "post_box", "collection_times": "Mo-Fr 16:15", "indoor": "yes", "note": "ON 12/24 AND 12/31, THIS BOX MAY BE COLLECTED AS EARLY AS 12 NOON.", "nsi_id": "unitedstatespostalservice-a77078", "operator": "United States Postal Service", "operator:short": "USPS", "operator:type": "public", "operator:wikidata": "Q668687", "ref": "2791600003"}, "type": "Feature"}
{"geometry": {"coordinates": [-75.977846501, 36.388147409], "type": "Point"}, "id": "vVhOnR0HmfYI9RQc-W0t60k3fYU=", "properties": {"@source_uri": "https://tools.usps.com/UspsToolsRestServices/rest/POLocator/findLocations", "@spider": "usps_collection_boxes", "addr:city": "BARCO", "addr:country": "US", "addr:postcode": "27917", "addr:state": "NC", "addr:street_address": "3929 CARATOKE HWY", "amenity": "post_box", "collection_times": "Mo-Fr 16:15; Sa 11:00", "note": "ON 12/24 AND 12/31, THIS BOX MAY BE COLLECTED AS EARLY AS 12 NOON.", "nsi_id": "unitedstatespostalservice-a77078", "operator": "United States Postal Service", "operator:short": "USPS", "operator:type": "public", "operator:wikidata": "Q668687", "ref": "2791700001"}, "type": "Feature"}
{"geometry": {"coordinates": [-75.977842001, 36.388147409], "type": "Point"}, "id": "801aNIdSnKHiS-iFhpYzOppoQpA=", "properties": {"@source_uri": "https://tools.usps.com/UspsToolsRestServices/rest/POLocator/findLocations", "@spider": "usps_collection_boxes", "addr:city": "BARCO", "addr:country": "US", "addr:postcode": "27917", "addr:state": "NC", "addr:street_address": "3929 CARATOKE HWY", "amenity": "post_box", "collection_times": "Mo-Fr 16:15; Sa 11:00", "indoor": "yes", "note": "ON 12/24 AND 12/31, THIS BOX MAY BE COLLECTED AS EARLY AS 12 NOON.", "nsi_id": "unitedstatespostalservice-a77078", "operator": "United States Postal Service", "operator:short": "USPS", "operator:type": "public", "operator:wikidata": "Q668687", "ref": "2791700002"}, "type": "Feature"}
{"geometry": {"coordinates": [-75.977842001, 36.388147409], "type": "Point"}, "id": "LK2TZwpJtrVgc9SASwN3tkpup1Q=", "properties": {"@source_uri": "https://tools.usps.com/UspsToolsRestServices/rest/POLocator/findLocations", "@spider": "usps_collection_boxes", "addr:city": "BARCO", "addr:country": "US", "addr:postcode": "27917", "addr:state": "NC", "addr:street_address": "3929 CARATOKE HWY", "amenity": "post_box", "collection_times": "Mo-Fr 16:15; Sa 11:00", "indoor": "yes", "note": "ON 12/24 AND 12/31, THIS BOX MAY BE COLLECTED AS EARLY AS 12 NOON.", "nsi_id": "unitedstatespostalservice-a77078", "operator": "United States Postal Service", "operator:short": "USPS", "operator:type": "public", "operator:wikidata": "Q668687", "ref": "2791700003"}, "type": "Feature"}
{"geometry": {"coordinates": [-76.539141388, 36.268601503], "type": "Point"}, "id": "PlhgmIF737jFHtgrwSvNqBuf8SQ=", "properties": {"@source_uri": "https://tools.usps.com/UspsToolsRestServices/rest/POLocator/findLocations", "@spider": "usps_collection_boxes", "addr:city": "BELVIDERE", "addr:country": "US", "addr:postcode": "27919", "addr:state": "NC", "addr:street_address": "1517 BELVIDERE RD", "amenity": "post_box", "collection_times": "Mo-Fr 16:30; Sa 11:00", "indoor": "yes", "note": "ON 12/24 AND 12/31, THIS BOX MAY BE COLLECTED AS EARLY AS 12 NOON.", "nsi_id": "unitedstatespostalservice-a77078", "operator": "United States Postal Service", "operator:short": "USPS", "operator:type": "public", "operator:wikidata": "Q668687", "ref": "2791900001"}, "type": "Feature"}
{"geometry": {"coordinates": [-76.539141388, 36.268601503], "type": "Point"}, "id": "Lgl2XX9xmU5If8Q9g_VAabKoONU=", "properties": {"@source_uri": "https://tools.usps.com/UspsToolsRestServices/rest/POLocator/findLocations", "@spider": "usps_collection_boxes", "addr:city": "BELVIDERE", "addr:country": "US", "addr:postcode": "27919", "addr:state": "NC", "addr:street_address": "1517 BELVIDERE RD", "amenity": "post_box", "collection_times": "Mo-Fr 16:30; Sa 11:00", "note": "ON 12/24 AND 12/31, THIS BOX MAY BE COLLECTED AS EARLY AS 12 NOON.", "nsi_id": "unitedstatespostalservice-a77078", "operator": "United States Postal Service", "operator:short": "USPS", "operator:type": "public", "operator:wikidata": "Q668687", "ref": "2791900002"}, "type": "Feature"}
{"geometry": {"coordinates": [-76.539141388, 36.268601503], "type": "Point"}, "id": "NU_2AH4CVuKDXnxKtBkzbTHvvZY=", "properties": {"@source_uri": "https://tools.usps.com/UspsToolsRestServices/rest/POLocator/findLocations", "@spider": "usps_collection_boxes", "addr:city": "BELVIDERE", "addr:country": "US", "addr:postcode": "27919", "addr:state": "NC", "addr:street_address": "1517 BELVIDERE RD", "amenity": "post_box", "collection_times": "Mo-Fr 16:30; Sa 11:00", "indoor": "yes", "note": "ON 12/24 AND 12/31, THIS BOX MAY BE COLLECTED AS EARLY AS 12 NOON.", "nsi_id": "unitedstatespostalservice-a77078", "operator": "United States Postal Service", "operator:short": "USPS", "operator:type": "public", "operator:wikidata": "Q668687", "ref": "2791900003"}, "type": "Feature"}
{"geometry": {"coordinates": [-75.5416899712, 35.2684090171], "type": "Point"}, "id": "yi1YTJ9gJewdROhaEohuIIox8bg=", "properties": {"@source_uri": "https://tools.usps.com/UspsToolsRestServices/rest/POLocator/findLocations", "@spider": "usps_collection_boxes", "addr:city": "BUXTON", "addr:country": "US", "addr:postcode": "27920", "addr:state": "NC", "addr:street_address": "48042 NC 12 HWY", "amenity": "post_box", "collection_times": "Mo-Fr 14:45; Sa 12:30", "indoor": "yes", "note": "ON 12/24 AND 12/31, THIS BOX MAY BE COLLECTED AS EARLY AS 12 NOON.", "nsi_id": "unitedstatespostalservice-a77078", "operator": "United States Postal Service", "operator:short": "USPS", "operator:type": "public", "operator:wikidata": "Q668687", "ref": "2792000001"}, "type": "Feature"}
{"geometry": {"coordinates": [-75.5416899712, 35.2684090171], "type": "Point"}, "id": "QVXbrtdO2MMewW57UHfNSy87Kbg=", "properties": {"@source_uri": "https://tools.usps.com/UspsToolsRestServices/rest/POLocator/findLocations", "@spider": "usps_collection_boxes", "addr:city": "BUXTON", "addr:country": "US", "addr:postcode": "27920", "addr:state": "NC", "addr:street_address": "48042 NC 12 HWY", "amenity": "post_box", "collection_times": "Mo-Fr 15:20; Sa 12:30", "indoor": "yes", "note": "ON 12/24 AND 12/31, THIS BOX MAY BE COLLECTED AS EARLY AS 12 NOON.", "nsi_id": "unitedstatespostalservice-a77078", "operator": "United States Postal Service", "operator:short": "USPS", "operator:type": "public", "operator:wikidata": "Q668687", "ref": "2792000003"}, "type": "Feature"}
{"geometry": {"coordinates": [-76.1749223, 36.3234196], "type": "Point"}, "id": "fetdQ07L1Wyx8xiLhCql9DFuYYk=", "properties": {"@source_uri": "https://tools.usps.com/UspsToolsRestServices/rest/POLocator/findLocations", "@spider": "usps_collection_boxes", "addr:city": "CAMDEN", "addr:country": "US", "addr:postcode": "27921", "addr:state": "NC", "addr:street_address": "107 US HIGHWAY 158 E", "amenity": "post_box", "collection_times": "Mo-Fr 16:30; Sa 11:00", "note": "ON 12/24 AND 12/31, THIS BOX MAY BE COLLECTED AS EARLY AS 12 NOON.", "nsi_id": "unitedstatespostalservice-a77078", "operator": "United States Postal Service", "operator:short": "USPS", "operator:type": "public", "operator:wikidata": "Q668687", "ref": "2792100001"}, "type": "Feature"}
{"geometry": {"coordinates": [-76.170738674, 36.329003583], "type": "Point"}, "id": "hRJrkVGrzk_a8qGIKu_0G1npf6I=", "properties": {"@source_uri": "https://tools.usps.com/UspsToolsRestServices/rest/POLocator/findLocations", "@spider": "usps_collection_boxes", "addr:city": "CAMDEN", "addr:country": "US", "addr:postcode": "27921", "addr:state": "NC", "addr:street_address": "107 US HIGHWAY 158 E", "amenity": "post_box", "collection_times": "Mo-Fr 16:30; Sa 11:00", "indoor": "yes", "note": "ON 12/24 AND 12/31, THIS BOX MAY BE COLLECTED AS EARLY AS 12 NOON.", "nsi_id": "unitedstatespostalservice-a77078", "operator": "United States Postal Service", "operator:short": "USPS", "operator:type": "public", "operator:wikidata": "Q668687", "ref": "2792100002"}, "type": "Feature"}
{"geometry": {"coordinates": [-76.170738674, 36.329003583], "type": "Point"}, "id": "y4ou-9CXLHFN7siZyJ3dIRSq3-E=", "properties": {"@source_uri": "https://tools.usps.com/UspsToolsRestServices/rest/POLocator/findLocations", "@spider": "usps_collection_boxes", "addr:city": "CAMDEN", "addr:country": "US", "addr:postcode": "27921", "addr:state": "NC", "addr:street_address": "107 US HIGHWAY 158 E", "amenity": "post_box", "collection_times": "Mo-Fr 16:30; Sa 10:30", "indoor": "yes", "note": "ON 12/24 AND 12/31, THIS BOX MAY BE COLLECTED AS EARLY AS 12 NOON.", "nsi_id": "unitedstatespostalservice-a77078", "operator": "United States Postal Service", "operator:short": "USPS", "operator:type": "public", "operator:wikidata": "Q668687", "ref": "2792100003"}, "type": "Feature"}
{"geometry": {"coordinates": [-76.910457036, 36.355742996], "type": "Point"}, "id": "CqIZ0IEO50_X1lC5F26CNMW6tAQ=", "properties": {"@source_uri": "https://tools.usps.com/UspsToolsRestServices/rest/POLocator/findLocations", "@spider": "usps_collection_boxes", "addr:city": "COFIELD", "addr:country": "US", "addr:postcode": "27922", "addr:state": "NC", "addr:street_address": "1240 AHOSKIE COFIELD RD", "amenity": "post_box", "collection_times": "Mo-Fr 16:30; Sa 11:30", "note": "ON 12/24 AND 12/31, THIS BOX MAY BE COLLECTED AS EARLY AS 12 NOON.", "nsi_id": "unitedstatespostalservice-a77078", "operator": "United States Postal Service", "operator:short": "USPS", "operator:type": "public", "operator:wikidata": "Q668687", "ref": "2792200001"}, "type": "Feature"}
{"geometry": {"coordinates": [-76.910457036, 36.355742996], "type": "Point"}, "id": "TvXiB4lzZj95byFXl72ZG4DvA78=", "properties": {"@source_uri": "https://tools.usps.com/UspsToolsRestServices/rest/POLocator/findLocations", "@spider": "usps_collection_boxes", "addr:city": "COFIELD", "addr:country": "US", "addr:postcode": "27922", "addr:state": "NC", "addr:street_address": "1240 AHOSKIE COFIELD RD", "amenity": "post_box", "collection_times": "Mo-Fr 16:30; Sa 11:30", "indoor": "yes", "note": "ON 12/24 AND 12/31, THIS BOX MAY BE COLLECTED AS EARLY AS 12 NOON.", "nsi_id": "unitedstatespostalservice-a77078", "operator": "United States Postal Service", "operator:short": "USPS", "operator:type": "public", "operator:wikidata": "Q668687", "ref": "2792200002"}, "type": "Feature"}
{"geometry": {"coordinates": [-76.910457036, 36.355742996], "type": "Point"}, "id": "ZMetN_L9rjK-h8c_jAWIR_2VDDI=", "properties": {"@source_uri": "https://tools.usps.com/UspsToolsRestServices/rest/POLocator/findLocations", "@spider": "usps_collection_boxes", "addr:city": "COFIELD", "addr:country": "US", "addr:postcode": "27922", "addr:state": "NC", "addr:street_address": "1240 AHOSKIE COFIELD RD", "amenity": "post_box", "collection_times": "Mo-Fr 16:30; Sa 11:30", "indoor": "yes", "note": "ON 12/24 AND 12/31, THIS BOX MAY BE COLLECTED AS EARLY AS 12 NOON.", "nsi_id": "unitedstatespostalservice-a77078", "operator": "United States Postal Service", "operator:short": "USPS", "operator:type": "public", "operator:wikidata": "Q668687", "ref": "2792200003"}, "type": "Feature"}
{"geometry": {"coordinates": [-75.954968048, 36.346461883], "type": "Point"}, "id": "T3-D5s4HUkZfJODB8FH4jgOftu0=", "properties": {"@source_uri": "https://tools.usps.com/UspsToolsRestServices/rest/POLocator/findLocations", "@spider": "usps_collection_boxes", "addr:city": "COINJOCK", "addr:country": "US", "addr:postcode": "27923", "addr:state": "NC", "addr:street_address": "183 WORTH GUARD RD", "amenity": "post_box", "collection_times": "Mo-Fr 16:15; Sa 11:15", "indoor": "yes", "note": "ON 12/24 AND 12/31, THIS BOX MAY BE COLLECTED AS EARLY AS 12 NOON.", "nsi_id": "unitedstatespostalservice-a77078", "operator": "United States Postal Service", "operator:short": "USPS", "operator:type": "public", "operator:wikidata": "Q668687", "ref": "2792300001"}, "type": "Feature"}
{"geometry": {"coordinates": [-75.954968048, 36.346461883], "type": "Point"}, "id": "0fxirsaG01kkokhe5CkhcTlzCEY=", "properties": {"@source_uri": "https://tools.usps.com/UspsToolsRestServices/rest/POLocator/findLocations", "@spider": "usps_collection_boxes", "addr:city": "COINJOCK", "addr:country": "US", "addr:postcode": "27923", "addr:state": "NC", "addr:street_address": "183 WORTH GUARD RD", "amenity": "post_box", "collection_times": "Mo-Fr 16:15; Sa 11:15", "note": "ON 12/24 AND 12/31, THIS BOX MAY BE COLLECTED AS EARLY AS 12 NOON.", "nsi_id": "unitedstatespostalservice-a77078", "operator": "United States Postal Service", "operator:short": "USPS", "operator:type": "public", "operator:wikidata": "Q668687", "ref": "2792300002"}, "type": "Feature"}
{"geometry": {"coordinates": [-75.954968048, 36.346461883], "type": "Point"}, "id": "bvvSLO3r_80V9fVBNymjYuqnFNw=", "properties": {"@source_uri": "https://tools.usps.com/UspsToolsRestServices/rest/POLocator/findLocations", "@spider": "usps_collection_boxes", "addr:city": "COINJOCK", "addr:country": "US", "addr:postcode": "27923", "addr:state": "NC", "addr:street_address": "183 WORTH GUARD RD", "amenity": "post_box", "collection_times": "Mo-Fr 16:30; Sa 11:15", "indoor": "yes", "note": "ON 12/24 AND 12/31, THIS BOX MAY BE COLLECTED AS EARLY AS 12 NOON.", "nsi_id": "unitedstatespostalservice-a77078", "operator": "United States Postal Service", "operator:short": "USPS", "operator:type": "public", "operator:wikidata": "Q668687", "ref": "2792300003"}, "type": "Feature"}
{"geometry": {"coordinates": [-76.768586178, 36.201553508], "type": "Point"}, "id": "ujocCQkGOHsIwl2ktDNI-cxF9go=", "properties": {"@source_uri": "https://tools.usps.com/UspsToolsRestServices/rest/POLocator/findLocations", "@spider": "usps_collection_boxes", "addr:city": "COLERAIN", "addr:country": "US", "addr:postcode": "27924", "addr:state": "NC", "addr:street_address": "107 W RIVER ST", "amenity": "post_box", "collection_times": "Mo-Fr 16:30; Sa 11:00", "note": "ON 12/24 AND 12/31, THIS BOX MAY BE COLLECTED AS EARLY AS 12 NOON.", "nsi_id": "unitedstatespostalservice-a77078", "operator": "United States Postal Service", "operator:short": "USPS", "operator:type": "public", "operator:wikidata": "Q668687", "ref": "2792400001"}, "type": "Feature"}
{"geometry": {"coordinates": [-76.768586178, 36.201553508], "type": "Point"}, "id": "TvQUD8305Y7r_KxgwD1gTrDDi4k=", "properties": {"@source_uri": "https://tools.usps.com/UspsToolsRestServices/rest/POLocator/findLocations", "@spider": "usps_collection_boxes", "addr:city": "COLERAIN", "addr:country": "US", "addr:postcode": "27924", "addr:state": "NC", "addr:street_address": "107 W RIVER ST", "amenity": "post_box", "collection_times": "Mo-Fr 16:30; Sa 11:00", "indoor": "yes", "note": "ON 12/24 AND 12/31, THIS BOX MAY BE COLLECTED AS EARLY AS 12 NOON.", "nsi_id": "unitedstatespostalservice-a77078", "operator": "United States Postal Service", "operator:short": "USPS", "operator:type": "public", "operator:wikidata": "Q668687", "ref": "2792400003"}, "type": "Feature"}
{"geometry": {"coordinates": [-76.768586178, 36.201553508], "type": "Point"}, "id": "A1fsAbVgiQDTHIcl1pd1tODJsYY=", "properties": {"@source_uri": "https://tools.usps.com/UspsToolsRestServices/rest/POLocator/findLocations", "@spider": "usps_collection_boxes", "addr:city": "COLERAIN", "addr:country": "US", "addr:postcode": "27924", "addr:state": "NC", "addr:street_address": "107 W RIVER ST", "amenity": "post_box", "collection_times": "Mo-Fr 16:30; Sa 11:00", "indoor": "yes", "note": "ON 12/24 AND 12/31, THIS BOX MAY BE COLLECTED AS EARLY AS 12 NOON.", "nsi_id": "unitedstatespostalservice-a77078", "operator": "United States Postal Service", "operator:short": "USPS", "operator:type": "public", "operator:wikidata": "Q668687", "ref": "2792400004"}, "type": "Feature"}
{"geometry": {"coordinates": [-76.252109346, 35.916841529], "type": "Point"}, "id": "APcM6FrlLW-G0Ul3y9ifB5Qvz7U=", "properties": {"@source_uri": "https://tools.usps.com/UspsToolsRestServices/rest/POLocator/findLocations", "@spider": "usps_collection_boxes", "addr:city": "COLUMBIA", "addr:country": "US", "addr:postcode": "27925", "addr:state": "NC", "addr:street_address": "114 S BROAD ST", "amenity": "post_box", "collection_times": "Mo-Fr 16:45; Sa 11:00", "note": "ON 12/24 AND 12/31, THIS BOX MAY BE COLLECTED AS EARLY AS 12 NOON.", "nsi_id": "unitedstatespostalservice-a77078", "operator": "United States Postal Service", "operator:short": "USPS", "operator:type": "public", "operator:wikidata": "Q668687", "ref": "2792500001"}, "type": "Feature"}
{"geometry": {"coordinates": [-76.252109346, 35.916841529], "type": "Point"}, "id": "TYyRHNsuj6iRFlI96y6lK_DzqCA=", "properties": {"@source_uri": "https://tools.usps.com/UspsToolsRestServices/rest/POLocator/findLocations", "@spider": "usps_collection_boxes", "addr:city": "COLUMBIA", "addr:country": "US", "addr:postcode": "27925", "addr:state": "NC", "addr:street_address": "114 S BROAD ST", "amenity": "post_box", "collection_times": "Mo-Fr 16:45; Sa 11:00", "indoor": "yes", "note": "ON 12/24 AND 12/31, THIS BOX MAY BE COLLECTED AS EARLY AS 12 NOON.", "nsi_id": "unitedstatespostalservice-a77078", "operator": "United States Postal Service", "operator:short": "USPS", "operator:type": "public", "operator:wikidata": "Q668687", "ref": "2792500002"}, "type": "Feature"}
{"geometry": {"coordinates": [-76.253197573, 35.915977907], "type": "Point"}, "id": "W4xYDvXV3ZOS2Pn_G0nOcls9ybg=", "properties": {"@source_uri": "https://tools.usps.com/UspsToolsRestServices/rest/POLocator/findLocations", "@spider": "usps_collection_boxes", "addr:city": "COLUMBIA", "addr:country": "US", "addr:postcode": "27925", "addr:state": "NC", "addr:street_address": "203 S LUDINGTON DR", "amenity": "post_box", "collection_times": "Mo-Sa 10:00", "nsi_id": "unitedstatespostalservice-a77078", "operator": "United States Postal Service", "operator:short": "USPS", "operator:type": "public", "operator:wikidata": "Q668687", "ref": "2792500003"}, "type": "Feature"}
{"geometry": {"coordinates": [-76.252109346, 35.916841529], "type": "Point"}, "id": "9dfaP0iUT6Pg5N3zimQ8jafVYoE=", "properties": {"@source_uri": "https://tools.usps.com/UspsToolsRestServices/rest/POLocator/findLocations", "@spider": "usps_collection_boxes", "addr:city": "COLUMBIA", "addr:country": "US", "addr:postcode": "27925", "addr:state": "NC", "addr:street_address": "114 S BROAD ST", "amenity": "post_box", "collection_times": "Mo-Fr 16:45; Sa 11:00", "indoor": "yes", "note": "ON 12/24 AND 12/31, THIS BOX MAY BE COLLECTED AS EARLY AS 12 NOON.", "nsi_id": "unitedstatespostalservice-a77078", "operator": "United States Postal Service", "operator:short": "USPS", "operator:type": "public", "operator:wikidata": "Q668687", "ref": "2792500005"}, "type": "Feature"}
{"geometry": {"coordinates": [-76.576702693, 36.53383903], "type": "Point"}, "id": "90UjQRDMWXtFaTPemv4srswrGlQ=", "properties": {"@source_uri": "https://tools.usps.com/UspsToolsRestServices/rest/POLocator/findLocations", "@spider": "usps_collection_boxes", "addr:city": "CORAPEAKE", "addr:country": "US", "addr:postcode": "27926", "addr:state": "NC", "addr:street_address": "1398 NC HIGHWAY 32 N", "amenity": "post_box", "collection_times": "Mo-Fr 16:30; Sa 12:00", "indoor": "yes", "note": "ON 12/24 AND 12/31, THIS BOX MAY BE COLLECTED AS EARLY AS 12 NOON.", "nsi_id": "unitedstatespostalservice-a77078", "operator": "United States Postal Service", "operator:short": "USPS", "operator:type": "public", "operator:wikidata": "Q668687", "ref": "2792600001"}, "type": "Feature"}
{"geometry": {"coordinates": [-76.576702693, 36.53383903], "type": "Point"}, "id": "4dRmcxaa59X_tOUu49EWAudRsS0=", "properties": {"@source_uri": "https://tools.usps.com/UspsToolsRestServices/rest/POLocator/findLocations", "@spider": "usps_collection_boxes", "addr:city": "CORAPEAKE", "addr:country": "US", "addr:postcode": "27926", "addr:state": "NC", "addr:street_address": "1398 NC HIGHWAY 32 N", "amenity": "post_box", "collection_times": "Mo-Fr 16:30; Sa 12:00", "note": "ON 12/24 AND 12/31, THIS BOX MAY BE COLLECTED AS EARLY AS 12 NOON.", "nsi_id": "unitedstatespostalservice-a77078", "operator": "United States Postal Service", "operator:short": "USPS", "operator:type": "public", "operator:wikidata": "Q668687", "ref": "2792600002"}, "type": "Feature"}
{"geometry": {"coordinates": [-76.576702693, 36.53383903], "type": "Point"}, "id": "iD-15PxNmNTQweAH5gFACd795H0=", "properties": {"@source_uri": "https://tools.usps.com/UspsToolsRestServices/rest/POLocator/findLocations", "@spider": "usps_collection_boxes", "addr:city": "CORAPEAKE", "addr:country": "US", "addr:postcode": "27926", "addr:state": "NC", "addr:street_address": "1398 NC HIGHWAY 32 N", "amenity": "post_box", "collection_times": "Mo-Fr 16:30; Sa 11:30", "indoor": "yes", "note": "ON 12/24 AND 12/31, THIS BOX MAY BE COLLECTED AS EARLY AS 12 NOON.", "nsi_id": "unitedstatespostalservice-a77078", "operator": "United States Postal Service", "operator:short": "USPS", "operator:type": "public", "operator:wikidata": "Q668687", "ref": "2792600003"}, "type": "Feature"}
{"geometry": {"coordinates": [-75.8171475, 36.327141], "type": "Point"}, "id": "9z_SIxNaFYR_Po2-ly5eXiI9B2o=", "properties": {"@source_uri": "https://tools.usps.com/UspsToolsRestServices/rest/POLocator/findLocations", "@spider": "usps_collection_boxes", "addr:city": "COROLLA", "addr:country": "US", "addr:postcode": "27927", "addr:state": "NC", "addr:street_address": "803 OCEAN TRL", "amenity": "post_box", "collection_times": "Mo-Sa 11:00", "nsi_id": "unitedstatespostalservice-a77078", "operator": "United States Postal Service", "operator:short": "USPS", "operator:type": "public", "operator:wikidata": "Q668687", "ref": "2792700003"}, "type": "Feature"}
{"geometry": {"coordinates": [-75.798599425, 36.280350925], "type": "Point"}, "id": "hMgkM4UMoaAS7vnjinxhX_DQF4o=", "properties": {"@source_uri": "https://tools.usps.com/UspsToolsRestServices/rest/POLocator/findLocations", "@spider": "usps_collection_boxes", "addr:city": "COROLLA", "addr:country": "US", "addr:postcode": "27927", "addr:state": "NC", "addr:street_address": "508 HUNT CLUB DR", "amenity": "post_box", "collection_times": "Mo-Sa 11:00", "nsi_id": "unitedstatespostalservice-a77078", "operator": "United States Postal Service", "operator:short": "USPS", "operator:type": "public", "operator:wikidata": "Q668687", "ref": "2792700005"}, "type": "Feature"}
{"geometry": {"coordinates": [-75.83063693, 36.380064375], "type": "Point"}, "id": "QRorGA4f88gDVjMSBUh9GQ4cql0=", "properties": {"@source_uri": "https://tools.usps.com/UspsToolsRestServices/rest/POLocator/findLocations", "@spider": "usps_collection_boxes", "addr:city": "COROLLA", "addr:country": "US", "addr:postcode": "27927", "addr:state": "NC", "addr:street_address": "1150 OCEAN TRL", "amenity": "post_box", "collection_times": "Mo-Fr 14:00; Sa 11:00", "note": "ON 12/24 AND 12/31, THIS BOX MAY BE COLLECTED AS EARLY AS 12 NOON.", "nsi_id": "unitedstatespostalservice-a77078", "operator": "United States Postal Service", "operator:short": "USPS", "operator:type": "public", "operator:wikidata": "Q668687", "ref": "2792700006"}, "type": "Feature"}
{"geometry": {"coordinates": [-75.83063693, 36.380064375], "type": "Point"}, "id": "ba-wiVT7MyqOoVad8-S5YdMu_4M=", "properties": {"@source_uri": "https://tools.usps.com/UspsToolsRestServices/rest/POLocator/findLocations", "@spider": "usps_collection_boxes", "addr:city": "COROLLA", "addr:country": "US", "addr:postcode": "27927", "addr:state": "NC", "addr:street_address": "1150 OCEAN TRL", "amenity": "post_box", "collection_times": "Mo-Fr 15:15; Sa 12:00", "indoor": "yes", "note": "ON 12/24 AND 12/31, THIS BOX MAY BE COLLECTED AS EARLY AS 12 NOON.", "nsi_id": "unitedstatespostalservice-a77078", "operator": "United States Postal Service", "operator:short": "USPS", "operator:type": "public", "operator:wikidata": "Q668687", "ref": "2792700008"}, "type": "Feature"}
{"geometry": {"coordinates": [-76.395212612, 35.870302447], "type": "Point"}, "id": "6zQI_TxiSvB0fGDkdLUD1zKqb9o=", "properties": {"@source_uri": "https://tools.usps.com/UspsToolsRestServices/rest/POLocator/findLocations", "@spider": "usps_collection_boxes", "addr:city": "CRESWELL", "addr:country": "US", "addr:postcode": "27928", "addr:state": "NC", "addr:street_address": "201 W MAIN ST", "amenity": "post_box", "collection_times": "Mo-Fr 16:30; Sa 10:30", "note": "ON 12/24 AND 12/31, THIS BOX MAY BE COLLECTED AS EARLY AS 12 NOON.", "nsi_id": "unitedstatespostalservice-a77078", "operator": "United States Postal Service", "operator:short": "USPS", "operator:type": "public", "operator:wikidata": "Q668687", "ref": "2792800001"}, "type": "Feature"}
{"geometry": {"coordinates": [-76.395212612, 35.870302447], "type": "Point"}, "id": "-xt3Dd0TTl463Vr8qIJpbsQO-50=", "properties": {"@source_uri": "https://tools.usps.com/UspsToolsRestServices/rest/POLocator/findLocations", "@spider": "usps_collection_boxes", "addr:city": "CRESWELL", "addr:country": "US", "addr:postcode": "27928", "addr:state": "NC", "addr:street_address": "201 W MAIN ST", "amenity": "post_box", "collection_times": "Mo-Fr 16:30; Sa 10:30", "indoor": "yes", "note": "ON 12/24 AND 12/31, THIS BOX MAY BE COLLECTED AS EARLY AS 12 NOON.", "nsi_id": "unitedstatespostalservice-a77078", "operator": "United States Postal Service", "operator:short": "USPS", "operator:type": "public", "operator:wikidata": "Q668687", "ref": "2792800002"}, "type": "Feature"}
{"geometry": {"coordinates": [-76.395212612, 35.870302447], "type": "Point"}, "id": "nhmh9bHb0e1-rGwPnGDMK-bsA3o=", "properties": {"@source_uri": "https://tools.usps.com/UspsToolsRestServices/rest/POLocator/findLocations", "@spider": "usps_collection_boxes", "addr:city": "CRESWELL", "addr:country": "US", "addr:postcode": "27928", "addr:state": "NC", "addr:street_address": "201 W MAIN ST", "amenity": "post_box", "collection_times": "Mo-Fr 16:30; Sa 10:30", "indoor": "yes", "note": "ON 12/24 AND 12/31, THIS BOX MAY BE COLLECTED AS EARLY AS 12 NOON.", "nsi_id": "unitedstatespostalservice-a77078", "operator": "United States Postal Service", "operator:short": "USPS", "operator:type": "public", "operator:wikidata": "Q668687", "ref": "2792800003"}, "type": "Feature"}
{"geometry": {"coordinates": [-76.60812221, 36.061152182], "type": "Point"}, "id": "SvwBo5UfQBLJ6Oy8UKZ_HglQKOA=", "properties": {"@source_uri": "https://tools.usps.com/UspsToolsRestServices/rest/POLocator/findLocations", "@spider": "usps_collection_boxes", "addr:city": "EDENTON", "addr:country": "US", "addr:postcode": "27932", "addr:state": "NC", "addr:street_address": "100 N BROAD ST", "amenity": "post_box", "collection_times": "Mo-Fr 17:00; Sa 13:30", "note": "ON 12/24 AND 12/31, THIS BOX MAY BE COLLECTED AS EARLY AS 12 NOON.", "nsi_id": "unitedstatespostalservice-a77078", "operator": "United States Postal Service", "operator:short": "USPS", "operator:type": "public", "operator:wikidata": "Q668687", "ref": "2793200003"}, "type": "Feature"}
{"geometry": {"coordinates": [-76.606171384, 36.067779633], "type": "Point"}, "id": "9d4hOi_SdJ71T7IUKmKoYjz59cY=", "properties": {"@source_uri": "https://tools.usps.com/UspsToolsRestServices/rest/POLocator/findLocations", "@spider": "usps_collection_boxes", "addr:city": "EDENTON", "addr:country": "US", "addr:postcode": "27932", "addr:state": "NC", "addr:street_address": "705 N BROAD ST", "amenity": "post_box", "collection_times": "Mo-Sa 11:00", "nsi_id": "unitedstatespostalservice-a77078", "operator": "United States Postal Service", "operator:short": "USPS", "operator:type": "public", "operator:wikidata": "Q668687", "ref": "2793200004"}, "type": "Feature"}
{"geometry": {"coordinates": [-76.611761608, 36.073064904], "type": "Point"}, "id": "WrYPPpIvRxHB3e9nwKbn1WKttdE=", "properties": {"@source_uri": "https://tools.usps.com/UspsToolsRestServices/rest/POLocator/findLocations", "@spider": "usps_collection_boxes", "addr:city": "EDENTON", "addr:country": "US", "addr:postcode": "27932", "addr:state": "NC", "addr:street_address": "300 VIRGINIA RD", "amenity": "post_box", "collection_times": "Mo-Sa 11:00", "nsi_id": "unitedstatespostalservice-a77078", "operator": "United States Postal Service", "operator:short": "USPS", "operator:type": "public", "operator:wikidata": "Q668687", "ref": "2793200005"}, "type": "Feature"}
{"geometry": {"coordinates": [-76.597014349, 36.074777534], "type": "Point"}, "id": "dFJHDshTSNH74KfyWq-84HsxcSo=", "properties": {"@source_uri": "https://tools.usps.com/UspsToolsRestServices/rest/POLocator/findLocations", "@spider": "usps_collection_boxes", "addr:city": "EDENTON", "addr:country": "US", "addr:postcode": "27932", "addr:state": "NC", "addr:street_address": "1200 N BROAD ST", "amenity": "post_box", "collection_times": "Mo-Sa 11:00", "nsi_id": "unitedstatespostalservice-a77078", "operator": "United States Postal Service", "operator:short": "USPS", "operator:type": "public", "operator:wikidata": "Q668687", "ref": "2793200008"}, "type": "Feature"}
{"geometry": {"coordinates": [-76.60833545, 36.058184049], "type": "Point"}, "id": "-pkLAj0MkzRycGQy5j8sdJFrtlk=", "properties": {"@source_uri": "https://tools.usps.com/UspsToolsRestServices/rest/POLocator/findLocations", "@spider": "usps_collection_boxes", "addr:city": "EDENTON", "addr:country": "US", "addr:postcode": "27932", "addr:state": "NC", "addr:street_address": "107 E KING ST", "amenity": "post_box", "collection_times": "Mo-Sa 11:00", "nsi_id": "unitedstatespostalservice-a77078", "operator": "United States Postal Service", "operator:short": "USPS", "operator:type": "public", "operator:wikidata": "Q668687", "ref": "2793200011"}, "type": "Feature"}
{"geometry": {"coordinates": [-76.609242553, 36.057919211], "type": "Point"}, "id": "pu9kDYOdJZYUgW6h_0FHoJnQUoY=", "properties": {"@source_uri": "https://tools.usps.com/UspsToolsRestServices/rest/POLocator/findLocations", "@spider": "usps_collection_boxes", "addr:city": "EDENTON", "addr:country": "US", "addr:postcode": "27932", "addr:state": "NC", "addr:street_address": "400 S BROAD ST", "amenity": "post_box", "collection_times": "Mo-Sa 11:00", "nsi_id": "unitedstatespostalservice-a77078", "operator": "United States Postal Service", "operator:short": "USPS", "operator:type": "public", "operator:wikidata": "Q668687", "ref": "2793200013"}, "type": "Feature"}
{"geometry": {"coordinates": [-76.608839643, 36.058984293], "type": "Point"}, "id": "cpfscFNYXp2cyl5pvnGtzCBKghc=", "properties": {"@source_uri": "https://tools.usps.com/UspsToolsRestServices/rest/POLocator/findLocations", "@spider": "usps_collection_boxes", "addr:city": "EDENTON", "addr:country": "US", "addr:postcode": "27932", "addr:state": "NC", "addr:street_address": "215 S BROAD ST", "amenity": "post_box", "collection_times": "Mo-Sa 11:00", "nsi_id": "unitedstatespostalservice-a77078", "operator": "United States Postal Service", "operator:short": "USPS", "operator:type": "public", "operator:wikidata": "Q668687", "ref": "2793200015"}, "type": "Feature"}
{"geometry": {"coordinates": [-76.60812221, 36.061152182], "type": "Point"}, "id": "MhVE-iNu8erPuW8SYOW75GISsis=", "properties": {"@source_uri": "https://tools.usps.com/UspsToolsRestServices/rest/POLocator/findLocations", "@spider": "usps_collection_boxes", "addr:city": "EDENTON", "addr:country": "US", "addr:postcode": "27932", "addr:state": "NC", "addr:street_address": "100 N BROAD ST", "amenity": "post_box", "collection_times": "Mo-Fr 17:00; Sa 13:30", "indoor": "yes", "note": "ON 12/24 AND 12/31, THIS BOX MAY BE COLLECTED AS EARLY AS 12 NOON.", "nsi_id": "unitedstatespostalservice-a77078", "operator": "United States Postal Service", "operator:short": "USPS", "operator:type": "public", "operator:wikidata": "Q668687", "ref": "2793200020"}, "type": "Feature"}
{"geometry": {"coordinates": [-76.60812221, 36.061152182], "type": "Point"}, "id": "YKFZRDkrEzSCTpWIQf9FMfZ0fz8=", "properties": {"@source_uri": "https://tools.usps.com/UspsToolsRestServices/rest/POLocator/findLocations", "@spider": "usps_collection_boxes", "addr:city": "EDENTON", "addr:country": "US", "addr:postcode": "27932", "addr:state": "NC", "addr:street_address": "100 N BROAD ST", "amenity": "post_box", "collection_times": "Mo-Fr 17:00", "indoor": "yes", "note": "ON 12/24 AND 12/31, THIS BOX MAY BE COLLECTED AS EARLY AS 12 NOON.", "nsi_id": "unitedstatespostalservice-a77078", "operator": "United States Postal Service", "operator:short": "USPS", "operator:type": "public", "operator:wikidata": "Q668687", "ref": "2793200023"}, "type": "Feature"}
{"geometry": {"coordinates": [-76.853696816, 36.427212633], "type": "Point"}, "id": "6Bb4SAbbus9PF9kBMB9nzGVVNpw=", "properties": {"@source_uri": "https://tools.usps.com/UspsToolsRestServices/rest/POLocator/findLocations", "@spider": "usps_collection_boxes", "addr:city": "EURE", "addr:country": "US", "addr:postcode": "27935", "addr:state": "NC", "addr:street_address": "1203 NC 137", "amenity": "post_box", "collection_times": "Mo-Fr 16:30; Sa 10:00", "note": "ON 12/24 AND 12/31, THIS BOX MAY BE COLLECTED AS EARLY AS 12 NOON.", "nsi_id": "unitedstatespostalservice-a77078", "operator": "United States Postal Service", "operator:short": "USPS", "operator:type": "public", "operator:wikidata": "Q668687", "ref": "2793500001"}, "type": "Feature"}
{"geometry": {"coordinates": [-76.853696816, 36.427212633], "type": "Point"}, "id": "misQj9KN2x-ehMfiSPPAvzGGUHQ=", "properties": {"@source_uri": "https://tools.usps.com/UspsToolsRestServices/rest/POLocator/findLocations", "@spider": "usps_collection_boxes", "addr:city": "EURE", "addr:country": "US", "addr:postcode": "27935", "addr:state": "NC", "addr:street_address": "1203 NC 137", "amenity": "post_box", "collection_times": "Mo-Fr 16:30; Sa 10:00", "indoor": "yes", "note": "ON 12/24 AND 12/31, THIS BOX MAY BE COLLECTED AS EARLY AS 12 NOON.", "nsi_id": "unitedstatespostalservice-a77078", "operator": "United States Postal Service", "operator:short": "USPS", "operator:type": "public", "operator:wikidata": "Q668687", "ref": "2793500002"}, "type": "Feature"}
{"geometry": {"coordinates": [-76.853696816, 36.427212633], "type": "Point"}, "id": "wTu2E_AtkScyjq1Nu7NmextAlpo=", "properties": {"@source_uri": "https://tools.usps.com/UspsToolsRestServices/rest/POLocator/findLocations", "@spider": "usps_collection_boxes", "addr:city": "EURE", "addr:country": "US", "addr:postcode": "27935", "addr:state": "NC", "addr:street_address": "1203 NC 137", "amenity": "post_box", "collection_times": "Mo-Fr 16:30; Sa 10:00", "indoor": "yes", "note": "ON 12/24 AND 12/31, THIS BOX MAY BE COLLECTED AS EARLY AS 12 NOON.", "nsi_id": "unitedstatespostalservice-a77078", "operator": "United States Postal Service", "operator:short": "USPS", "operator:type": "public", "operator:wikidata": "Q668687", "ref": "2793500003"}, "type": "Feature"}
{"geometry": {"coordinates": [-75.6252465173, 35.233731185], "type": "Point"}, "id": "hHC3Q4S7h0TBHeo6sJNk53EgxxQ=", "properties": {"@source_uri": "https://tools.usps.com/UspsToolsRestServices/rest/POLocator/findLocations", "@spider": "usps_collection_boxes", "addr:city": "FRISCO", "addr:country": "US", "addr:postcode": "27936", "addr:state": "NC", "addr:street_address": "53590 NC HIGHWAY 12", "amenity": "post_box", "collection_times": "Mo-Fr 14:30; Sa 12:00", "indoor": "yes", "note": "ON 12/24 AND 12/31, THIS BOX MAY BE COLLECTED AS EARLY AS 12 NOON.", "nsi_id": "unitedstatespostalservice-a77078", "operator": "United States Postal Service", "operator:short": "USPS", "operator:type": "public", "operator:wikidata": "Q668687", "ref": "2793600001"}, "type": "Feature"}
{"geometry": {"coordinates": [-75.6252465173, 35.233731185], "type": "Point"}, "id": "lDdH03_S1DgfL4DX0Ip9l5jje1o=", "properties": {"@source_uri": "https://tools.usps.com/UspsToolsRestServices/rest/POLocator/findLocations", "@spider": "usps_collection_boxes", "addr:city": "FRISCO", "addr:country": "US", "addr:postcode": "27936", "addr:state": "NC", "addr:street_address": "53590 NC HIGHWAY 12", "amenity": "post_box", "collection_times": "Mo-Fr 14:45", "indoor": "yes", "note": "ON 12/24 AND 12/31, THIS BOX MAY BE COLLECTED AS EARLY AS 12 NOON.", "nsi_id": "unitedstatespostalservice-a77078", "operator": "United States Postal Service", "operator:short": "USPS", "operator:type": "public", "operator:wikidata": "Q668687", "ref": "2793600003"}, "type": "Feature"}
{"geometry": {"coordinates": [-76.768834414, 36.503632843], "type": "Point"}, "id": "uYFDhc73AISz3sy-hGZG3w_q8IA=", "properties": {"@source_uri": "https://tools.usps.com/UspsToolsRestServices/rest/POLocator/findLocations", "@spider": "usps_collection_boxes", "addr:city": "GATES", "addr:country": "US", "addr:postcode": "27937", "addr:state": "NC", "addr:street_address": "958 NC HIGHWAY 37 N", "amenity": "post_box", "collection_times": "Mo-Fr 16:00; Sa 11:30", "note": "ON 12/24 AND 12/31, THIS BOX MAY BE COLLECTED AS EARLY AS 12 NOON.", "nsi_id": "unitedstatespostalservice-a77078", "operator": "United States Postal Service", "operator:short": "USPS", "operator:type": "public", "operator:wikidata": "Q668687", "ref": "2793700001"}, "type": "Feature"}
{"geometry": {"coordinates": [-76.768834414, 36.503632843], "type": "Point"}, "id": "Vj7wm2LhNGNEUWh_bXBJXBSgeVs=", "properties": {"@source_uri": "https://tools.usps.com/UspsToolsRestServices/rest/POLocator/findLocations", "@spider": "usps_collection_boxes", "addr:city": "GATES", "addr:country": "US", "addr:postcode": "27937", "addr:state": "NC", "addr:street_address": "958 NC HIGHWAY 37 N", "amenity": "post_box", "collection_times": "Mo-Fr 16:00; Sa 11:30", "indoor": "yes", "note": "ON 12/24 AND 12/31, THIS BOX MAY BE COLLECTED AS EARLY AS 12 NOON.", "nsi_id": "unitedstatespostalservice-a77078", "operator": "United States Postal Service", "operator:short": "USPS", "operator:type": "public", "operator:wikidata": "Q668687", "ref": "2793700002"}, "type": "Feature"}
{"geometry": {"coordinates": [-76.768834414, 36.503632843], "type": "Point"}, "id": "9iMKbSrcNoqdQZYw43UFTHu4uvM=", "properties": {"@source_uri": "https://tools.usps.com/UspsToolsRestServices/rest/POLocator/findLocations", "@spider": "usps_collection_boxes", "addr:city": "GATES", "addr:country": "US", "addr:postcode": "27937", "addr:state": "NC", "addr:street_address": "958 NC HIGHWAY 37 N", "amenity": "post_box", "collection_times": "Mo-Fr 16:00; Sa 11:30", "indoor": "yes", "note": "ON 12/24 AND 12/31, THIS BOX MAY BE COLLECTED AS EARLY AS 12 NOON.", "nsi_id": "unitedstatespostalservice-a77078", "operator": "United States Postal Service", "operator:short": "USPS", "operator:type": "public", "operator:wikidata": "Q668687", "ref": "2793700003"}, "type": "Feature"}
{"geometry": {"coordinates": [-76.752612555, 36.403357507], "type": "Point"}, "id": "3ckWgXmI9dAEm5B3UvjLmICtQ-E=", "properties": {"@source_uri": "https://tools.usps.com/UspsToolsRestServices/rest/POLocator/findLocations", "@spider": "usps_collection_boxes", "addr:city": "GATESVILLE", "addr:country": "US", "addr:postcode": "27938", "addr:state": "NC", "addr:street_address": "106 COURT ST", "amenity": "post_box", "collection_times": "Mo-Fr 16:15; Sa 11:30", "indoor": "yes", "note": "ON 12/24 AND 12/31, THIS BOX MAY BE COLLECTED AS EARLY AS 12 NOON.", "nsi_id": "unitedstatespostalservice-a77078", "operator": "United States Postal Service", "operator:short": "USPS", "operator:type": "public", "operator:wikidata": "Q668687", "ref": "2793800001"}, "type": "Feature"}
{"geometry": {"coordinates": [-76.752612555, 36.403357507], "type": "Point"}, "id": "yFu8f_K3QCjvoRHdnH4ZBSXzklk=", "properties": {"@source_uri": "https://tools.usps.com/UspsToolsRestServices/rest/POLocator/findLocations", "@spider": "usps_collection_boxes", "addr:city": "GATESVILLE", "addr:country": "US", "addr:postcode": "27938", "addr:state": "NC", "addr:street_address": "106 COURT ST", "amenity": "post_box", "collection_times": "Mo-Fr 16:15; Sa 11:30", "note": "ON 12/24 AND 12/31, THIS BOX MAY BE COLLECTED AS EARLY AS 12 NOON.", "nsi_id": "unitedstatespostalservice-a77078", "operator": "United States Postal Service", "operator:short": "USPS", "operator:type": "public", "operator:wikidata": "Q668687", "ref": "2793800002"}, "type": "Feature"}
{"geometry": {"coordinates": [-76.752612555, 36.403357507], "type": "Point"}, "id": "sd2g-eQkZscMXbRbu6_MoC-ApV8=", "properties": {"@source_uri": "https://tools.usps.com/UspsToolsRestServices/rest/POLocator/findLocations", "@spider": "usps_collection_boxes", "addr:city": "GATESVILLE", "addr:country": "US", "addr:postcode": "27938", "addr:state": "NC", "addr:street_address": "106 COURT ST", "amenity": "post_box", "collection_times": "Mo-Fr 16:20; Sa 11:30", "indoor": "yes", "note": "ON 12/24 AND 12/31, THIS BOX MAY BE COLLECTED AS EARLY AS 12 NOON.", "nsi_id": "unitedstatespostalservice-a77078", "operator": "United States Postal Service", "operator:short": "USPS", "operator:type": "public", "operator:wikidata": "Q668687", "ref": "2793800003"}, "type": "Feature"}
{"geometry": {"coordinates": [-75.878733386, 36.238726244], "type": "Point"}, "id": "xLawCCR4bfbcRXWkGhAB8FqROzM=", "properties": {"@source_uri": "https://tools.usps.com/UspsToolsRestServices/rest/POLocator/findLocations", "@spider": "usps_collection_boxes", "addr:city": "GRANDY", "addr:country": "US", "addr:postcode": "27939", "addr:state": "NC", "addr:street_address": "123 FORBES LOOP UNIT C", "amenity": "post_box", "collection_times": "Mo-Fr 16:00; Sa 12:00", "indoor": "yes", "note": "ON 12/24 AND 12/31, THIS BOX MAY BE COLLECTED AS EARLY AS 12 NOON.", "nsi_id": "unitedstatespostalservice-a77078", "operator": "United States Postal Service", "operator:short": "USPS", "operator:type": "public", "operator:wikidata": "Q668687", "ref": "2793900001"}, "type": "Feature"}
{"geometry": {"coordinates": [-75.878733386, 36.238726244], "type": "Point"}, "id": "XwdRyHrGBZx3jXHzLXMozxLgBWo=", "properties": {"@source_uri": "https://tools.usps.com/UspsToolsRestServices/rest/POLocator/findLocations", "@spider": "usps_collection_boxes", "addr:city": "GRANDY", "addr:country": "US", "addr:postcode": "27939", "addr:state": "NC", "addr:street_address": "123 FORBES LOOP UNIT C", "amenity": "post_box", "collection_times": "Mo-Fr 16:00; Sa 12:00", "note": "ON 12/24 AND 12/31, THIS BOX MAY BE COLLECTED AS EARLY AS 12 NOON.", "nsi_id": "unitedstatespostalservice-a77078", "operator": "United States Postal Service", "operator:short": "USPS", "operator:type": "public", "operator:wikidata": "Q668687", "ref": "2793900002"}, "type": "Feature"}
{"geometry": {"coordinates": [-75.878733386, 36.238726244], "type": "Point"}, "id": "rGbxIP5PRiyi6zljYjN4iYFkiBc=", "properties": {"@source_uri": "https://tools.usps.com/UspsToolsRestServices/rest/POLocator/findLocations", "@spider": "usps_collection_boxes", "addr:city": "GRANDY", "addr:country": "US", "addr:postcode": "27939", "addr:state": "NC", "addr:street_address": "123 FORBES LOOP UNIT C", "amenity": "post_box", "collection_times": "Mo-Fr 16:00; Sa 12:00", "indoor": "yes", "note": "ON 12/24 AND 12/31, THIS BOX MAY BE COLLECTED AS EARLY AS 12 NOON.", "nsi_id": "unitedstatespostalservice-a77078", "operator": "United States Postal Service", "operator:short": "USPS", "operator:type": "public", "operator:wikidata": "Q668687", "ref": "2793900003"}, "type": "Feature"}
{"geometry": {"coordinates": [-75.813943617, 36.10120892], "type": "Point"}, "id": "CBk0_AV1qS0AlCCP6STYVtWOF2s=", "properties": {"@source_uri": "https://tools.usps.com/UspsToolsRestServices/rest/POLocator/findLocations", "@spider": "usps_collection_boxes", "addr:city": "HARBINGER", "addr:country": "US", "addr:postcode": "27941", "addr:state": "NC", "addr:street_address": "8732 CARATOKE HWY", "amenity": "post_box", "collection_times": "Mo-Fr 15:15; Sa 11:30", "note": "ON 12/24 AND 12/31, THIS BOX MAY BE COLLECTED AS EARLY AS 12 NOON.", "nsi_id": "unitedstatespostalservice-a77078", "operator": "United States Postal Service", "operator:short": "USPS", "operator:type": "public", "operator:wikidata": "Q668687", "ref": "2794100001"}, "type": "Feature"}
{"geometry": {"coordinates": [-75.813943617, 36.10120892], "type": "Point"}, "id": "Rq4ZTfGaOnFItra6-qK2tfr1TWA=", "properties": {"@source_uri": "https://tools.usps.com/UspsToolsRestServices/rest/POLocator/findLocations", "@spider": "usps_collection_boxes", "addr:city": "HARBINGER", "addr:country": "US", "addr:postcode": "27941", "addr:state": "NC", "addr:street_address": "8732 CARATOKE HWY", "amenity": "post_box", "collection_times": "Mo-Fr 15:15; Sa 11:30", "indoor": "yes", "note": "ON 12/24 AND 12/31, THIS BOX MAY BE COLLECTED AS EARLY AS 12 NOON.", "nsi_id": "unitedstatespostalservice-a77078", "operator": "United States Postal Service", "operator:short": "USPS", "operator:type": "public", "operator:wikidata": "Q668687", "ref": "2794100002"}, "type": "Feature"}
{"geometry": {"coordinates": [-75.813943617, 36.10120892], "type": "Point"}, "id": "fPj0WXh5UPmThNql6e8-rxqiR3E=", "properties": {"@source_uri": "https://tools.usps.com/UspsToolsRestServices/rest/POLocator/findLocations", "@spider": "usps_collection_boxes", "addr:city": "HARBINGER", "addr:country": "US", "addr:postcode": "27941", "addr:state": "NC", "addr:street_address": "8732 CARATOKE HWY", "amenity": "post_box", "collection_times": "Mo-Fr 15:40; Sa 12:00", "indoor": "yes", "note": "ON 12/24 AND 12/31, THIS BOX MAY BE COLLECTED AS EARLY AS 12 NOON.", "nsi_id": "unitedstatespostalservice-a77078", "operator": "United States Postal Service", "operator:short": "USPS", "operator:type": "public", "operator:wikidata": "Q668687", "ref": "2794100003"}, "type": "Feature"}
{"geometry": {"coordinates": [-76.791641503, 36.302201711], "type": "Point"}, "id": "K22-wbKLivvy6GsMEChsLofWUdg=", "properties": {"@source_uri": "https://tools.usps.com/UspsToolsRestServices/rest/POLocator/findLocations", "@spider": "usps_collection_boxes", "addr:city": "HARRELLSVILLE", "addr:country": "US", "addr:postcode": "27942", "addr:state": "NC", "addr:street_address": "116 E MAIN ST", "amenity": "post_box", "collection_times": "Mo-Fr 16:30; Sa 11:45", "indoor": "yes", "note": "ON 12/24 AND 12/31, THIS BOX MAY BE COLLECTED AS EARLY AS 12 NOON.", "nsi_id": "unitedstatespostalservice-a77078", "operator": "United States Postal Service", "operator:short": "USPS", "operator:type": "public", "operator:wikidata": "Q668687", "ref": "2794200001"}, "type": "Feature"}
{"geometry": {"coordinates": [-76.791641503, 36.302201711], "type": "Point"}, "id": "y0po_NWFKhs_hF603azKe3-elTA=", "properties": {"@source_uri": "https://tools.usps.com/UspsToolsRestServices/rest/POLocator/findLocations", "@spider": "usps_collection_boxes", "addr:city": "HARRELLSVILLE", "addr:country": "US", "addr:postcode": "27942", "addr:state": "NC", "addr:street_address": "116 E MAIN ST", "amenity": "post_box", "collection_times": "Mo-Fr 16:30; Sa 11:45", "note": "ON 12/24 AND 12/31, THIS BOX MAY BE COLLECTED AS EARLY AS 12 NOON.", "nsi_id": "unitedstatespostalservice-a77078", "operator": "United States Postal Service", "operator:short": "USPS", "operator:type": "public", "operator:wikidata": "Q668687", "ref": "2794200002"}, "type": "Feature"}
{"geometry": {"coordinates": [-76.791641503, 36.302201711], "type": "Point"}, "id": "JpfQqw7KmEAztBgg6kyYgj3EX2o=", "properties": {"@source_uri": "https://tools.usps.com/UspsToolsRestServices/rest/POLocator/findLocations", "@spider": "usps_collection_boxes", "addr:city": "HARRELLSVILLE", "addr:country": "US", "addr:postcode": "27942", "addr:state": "NC", "addr:street_address": "116 E MAIN ST", "amenity": "post_box", "collection_times": "Mo-Fr 16:30; Sa 11:45", "indoor": "yes", "note": "ON 12/24 AND 12/31, THIS BOX MAY BE COLLECTED AS EARLY AS 12 NOON.", "nsi_id": "unitedstatespostalservice-a77078", "operator": "United States Postal Service", "operator:short": "USPS", "operator:type": "public", "operator:wikidata": "Q668687", "ref": "2794200003"}, "type": "Feature"}
{"geometry": {"coordinates": [-75.6903809941, 35.2189510107], "type": "Point"}, "id": "zgFbi8QPFTNQA_9qi1dJeLcxmi8=", "properties": {"@source_uri": "https://tools.usps.com/UspsToolsRestServices/rest/POLocator/findLocations", "@spider": "usps_collection_boxes", "addr:city": "HATTERAS", "addr:country": "US", "addr:postcode": "27943", "addr:state": "NC", "addr:street_address": "57689 NC HIGHWAY 12", "amenity": "post_box", "collection_times": "Mo-Fr 14:30; Sa 12:30", "indoor": "yes", "note": "ON 12/24 AND 12/31, THIS BOX MAY BE COLLECTED AS EARLY AS 12 NOON.", "nsi_id": "unitedstatespostalservice-a77078", "operator": "United States Postal Service", "operator:short": "USPS", "operator:type": "public", "operator:wikidata": "Q668687", "ref": "2794300002"}, "type": "Feature"}
{"geometry": {"coordinates": [-75.6903809941, 35.2189510107], "type": "Point"}, "id": "6WPdsoOmJEcdMkAsMR5O8JbaRxQ=", "properties": {"@source_uri": "https://tools.usps.com/UspsToolsRestServices/rest/POLocator/findLocations", "@spider": "usps_collection_boxes", "addr:city": "HATTERAS", "addr:country": "US", "addr:postcode": "27943", "addr:state": "NC", "addr:street_address": "57689 NC HIGHWAY 12", "amenity": "post_box", "collection_times": "Mo-Fr 14:30; Sa 12:30", "indoor": "yes", "note": "ON 12/24 AND 12/31, THIS BOX MAY BE COLLECTED AS EARLY AS 12 NOON.", "nsi_id": "unitedstatespostalservice-a77078", "operator": "United States Postal Service", "operator:short": "USPS", "operator:type": "public", "operator:wikidata": "Q668687", "ref": "2794300004"}, "type": "Feature"}
{"geometry": {"coordinates": [-76.465980648, 36.188864905], "type": "Point"}, "id": "qS3YtX_c1yxbKGe77V9SDZtvoH0=", "properties": {"@source_uri": "https://tools.usps.com/UspsToolsRestServices/rest/POLocator/findLocations", "@spider": "usps_collection_boxes", "addr:city": "HERTFORD", "addr:country": "US", "addr:postcode": "27944", "addr:state": "NC", "addr:street_address": "101 N CHURCH ST", "amenity": "post_box", "collection_times": "Mo-Sa 11:00", "nsi_id": "unitedstatespostalservice-a77078", "operator": "United States Postal Service", "operator:short": "USPS", "operator:type": "public", "operator:wikidata": "Q668687", "ref": "2794400003"}, "type": "Feature"}
{"geometry": {"coordinates": [-76.466502639, 36.1899375], "type": "Point"}, "id": "yj03KnHWS7cSLfc96COZSXOnjlc=", "properties": {"@source_uri": "https://tools.usps.com/UspsToolsRestServices/rest/POLocator/findLocations", "@spider": "usps_collection_boxes", "addr:city": "HERTFORD", "addr:country": "US", "addr:postcode": "27944", "addr:state": "NC", "addr:street_address": "115 W GRUBB ST", "amenity": "post_box", "collection_times": "Mo-Fr 17:00; Sa 11:00", "note": "ON 12/24 AND 12/31, THIS BOX MAY BE COLLECTED AS EARLY AS 12 NOON.", "nsi_id": "unitedstatespostalservice-a77078", "operator": "United States Postal Service", "operator:short": "USPS", "operator:type": "public", "operator:wikidata": "Q668687", "ref": "2794400006"}, "type": "Feature"}
{"geometry": {"coordinates": [-76.466502639, 36.1899375], "type": "Point"}, "id": "_-pTR8_loSmiuyXVZ1qPfq0i60k=", "properties": {"@source_uri": "https://tools.usps.com/UspsToolsRestServices/rest/POLocator/findLocations", "@spider": "usps_collection_boxes", "addr:city": "HERTFORD", "addr:country": "US", "addr:postcode": "27944", "addr:state": "NC", "addr:street_address": "115 W GRUBB ST", "amenity": "post_box", "collection_times": "Mo-Fr 16:30; Sa 12:00", "indoor": "yes", "note": "ON 12/24 AND 12/31, THIS BOX MAY BE COLLECTED AS EARLY AS 12 NOON.", "nsi_id": "unitedstatespostalservice-a77078", "operator": "United States Postal Service", "operator:short": "USPS", "operator:type": "public", "operator:wikidata": "Q668687", "ref": "2794400009"}, "type": "Feature"}
{"geometry": {"coordinates": [-76.466502639, 36.1899375], "type": "Point"}, "id": "yZ2w3IVMcDl3946B5QILZKmw3FE=", "properties": {"@source_uri": "https://tools.usps.com/UspsToolsRestServices/rest/POLocator/findLocations", "@spider": "usps_collection_boxes", "addr:city": "HERTFORD", "addr:country": "US", "addr:postcode": "27944", "addr:state": "NC", "addr:street_address": "115 W GRUBB ST", "amenity": "post_box", "collection_times": "Mo-Fr 16:30", "indoor": "yes", "note": "ON 12/24 AND 12/31, THIS BOX MAY BE COLLECTED AS EARLY AS 12 NOON.", "nsi_id": "unitedstatespostalservice-a77078", "operator": "United States Postal Service", "operator:short": "USPS", "operator:type": "public", "operator:wikidata": "Q668687", "ref": "2794400011"}, "type": "Feature"}
{"geometry": {"coordinates": [-76.603734481, 36.348408274], "type": "Point"}, "id": "kHEoKCxvW7A2R_Rmt9Azh_3bjWs=", "properties": {"@source_uri": "https://tools.usps.com/UspsToolsRestServices/rest/POLocator/findLocations", "@spider": "usps_collection_boxes", "addr:city": "HOBBSVILLE", "addr:country": "US", "addr:postcode": "27946", "addr:state": "NC", "addr:street_address": "385 HOBBSVILLE RD", "amenity": "post_box", "collection_times": "Mo-Fr 16:45; Sa 11:30", "indoor": "yes", "note": "ON 12/24 AND 12/31, THIS BOX MAY BE COLLECTED AS EARLY AS 12 NOON.", "nsi_id": "unitedstatespostalservice-a77078", "operator": "United States Postal Service", "operator:short": "USPS", "operator:type": "public", "operator:wikidata": "Q668687", "ref": "2794600001"}, "type": "Feature"}
{"geometry": {"coordinates": [-76.603734481, 36.348408274], "type": "Point"}, "id": "nJhbh6ouPvy4qYLx0JhiQ_Cfh8U=", "properties": {"@source_uri": "https://tools.usps.com/UspsToolsRestServices/rest/POLocator/findLocations", "@spider": "usps_collection_boxes", "addr:city": "HOBBSVILLE", "addr:country": "US", "addr:postcode": "27946", "addr:state": "NC", "addr:street_address": "385 HOBBSVILLE RD", "amenity": "post_box", "collection_times": "Mo-Fr 16:45; Sa 11:30", "note": "ON 12/24 AND 12/31, THIS BOX MAY BE COLLECTED AS EARLY AS 12 NOON.", "nsi_id": "unitedstatespostalservice-a77078", "operator": "United States Postal Service", "operator:short": "USPS", "operator:type": "public", "operator:wikidata": "Q668687", "ref": "2794600002"}, "type": "Feature"}
{"geometry": {"coordinates": [-76.603734481, 36.348408274], "type": "Point"}, "id": "_U9QlHyCgzwG9_tawtEcYiCTzEU=", "properties": {"@source_uri": "https://tools.usps.com/UspsToolsRestServices/rest/POLocator/findLocations", "@spider": "usps_collection_boxes", "addr:city": "HOBBSVILLE", "addr:country": "US", "addr:postcode": "27946", "addr:state": "NC", "addr:street_address": "385 HOBBSVILLE RD", "amenity": "post_box", "collection_times": "Mo-Fr 17:00; Sa 11:30", "indoor": "yes", "note": "ON 12/24 AND 12/31, THIS BOX MAY BE COLLECTED AS EARLY AS 12 NOON.", "nsi_id": "unitedstatespostalservice-a77078", "operator": "United States Postal Service", "operator:short": "USPS", "operator:type": "public", "operator:wikidata": "Q668687", "ref": "2794600003"}, "type": "Feature"}
{"geometry": {"coordinates": [-75.865323679, 36.202583651], "type": "Point"}, "id": "ltqOMdn9N0__wsP0rumKVdWORDc=", "properties": {"@source_uri": "https://tools.usps.com/UspsToolsRestServices/rest/POLocator/findLocations", "@spider": "usps_collection_boxes", "addr:city": "JARVISBURG", "addr:country": "US", "addr:postcode": "27947", "addr:state": "NC", "addr:street_address": "7066 CARATOKE HWY", "amenity": "post_box", "collection_times": "Mo-Fr 15:45; Sa 11:30", "indoor": "yes", "note": "ON 12/24 AND 12/31, THIS BOX MAY BE COLLECTED AS EARLY AS 12 NOON.", "nsi_id": "unitedstatespostalservice-a77078", "operator": "United States Postal Service", "operator:short": "USPS", "operator:type": "public", "operator:wikidata": "Q668687", "ref": "2794700001"}, "type": "Feature"}
{"geometry": {"coordinates": [-75.865323679, 36.202583651], "type": "Point"}, "id": "Dxl-Y8bMTWmlfyKcIip4Ow3dK6s=", "properties": {"@source_uri": "https://tools.usps.com/UspsToolsRestServices/rest/POLocator/findLocations", "@spider": "usps_collection_boxes", "addr:city": "JARVISBURG", "addr:country": "US", "addr:postcode": "27947", "addr:state": "NC", "addr:street_address": "7066 CARATOKE HWY", "amenity": "post_box", "collection_times": "Mo-Fr 15:45; Sa 11:30", "note": "ON 12/24 AND 12/31, THIS BOX MAY BE COLLECTED AS EARLY AS 12 NOON.", "nsi_id": "unitedstatespostalservice-a77078", "operator": "United States Postal Service", "operator:short": "USPS", "operator:type": "public", "operator:wikidata": "Q668687", "ref": "2794700002"}, "type": "Feature"}
{"geometry": {"coordinates": [-75.865323679, 36.202583651], "type": "Point"}, "id": "v0pqeKnCySkm4mPDi5sCGVNT6K0=", "properties": {"@source_uri": "https://tools.usps.com/UspsToolsRestServices/rest/POLocator/findLocations", "@spider": "usps_collection_boxes", "addr:city": "JARVISBURG", "addr:country": "US", "addr:postcode": "27947", "addr:state": "NC", "addr:street_address": "7066 CARATOKE HWY", "amenity": "post_box", "collection_times": "Mo-Fr 15:55; Sa 11:30", "indoor": "yes", "note": "ON 12/24 AND 12/31, THIS BOX MAY BE COLLECTED AS EARLY AS 12 NOON.", "nsi_id": "unitedstatespostalservice-a77078", "operator": "United States Postal Service", "operator:short": "USPS", "operator:type": "public", "operator:wikidata": "Q668687", "ref": "2794700003"}, "type": "Feature"}
{"geometry": {"coordinates": [-75.6598391, 36.011759429], "type": "Point"}, "id": "H-BBJs0BJhjgACacwmJsvAtiYC8=", "properties": {"@source_uri": "https://tools.usps.com/UspsToolsRestServices/rest/POLocator/findLocations", "@spider": "usps_collection_boxes", "addr:city": "KILL DEVIL HL", "addr:country": "US", "addr:postcode": "27948", "addr:state": "NC", "addr:street_address": "302 S CROATAN HWY", "amenity": "post_box", "collection_times": "Mo-Fr 16:15; Sa 12:00", "note": "ON 12/24 AND 12/31, THIS BOX MAY BE COLLECTED AS EARLY AS 12 NOON.", "nsi_id": "unitedstatespostalservice-a77078", "operator": "United States Postal Service", "operator:short": "USPS", "operator:type": "public", "operator:wikidata": "Q668687", "ref": "2794800001"}, "type": "Feature"}
{"geometry": {"coordinates": [-75.6941629926, 36.0117119998], "type": "Point"}, "id": "s0KJNFVmtIeTDmm-i-3G26DaB5s=", "properties": {"@source_uri": "https://tools.usps.com/UspsToolsRestServices/rest/POLocator/findLocations", "@spider": "usps_collection_boxes", "addr:city": "KILL DEVIL HL", "addr:country": "US", "addr:postcode": "27948", "addr:state": "NC", "addr:street_address": "100 WATERSEDGE DR", "amenity": "post_box", "collection_times": "Mo-Sa 10:30", "nsi_id": "unitedstatespostalservice-a77078", "operator": "United States Postal Service", "operator:short": "USPS", "operator:type": "public", "operator:wikidata": "Q668687", "ref": "2794800006"}, "type": "Feature"}
{"geometry": {"coordinates": [-75.680401807, 36.025869216], "type": "Point"}, "id": "TNr8GhEd5E11pATSjFOg6NBFtpM=", "properties": {"@source_uri": "https://tools.usps.com/UspsToolsRestServices/rest/POLocator/findLocations", "@spider": "usps_collection_boxes", "addr:city": "KILL DEVIL HL", "addr:country": "US", "addr:postcode": "27948", "addr:state": "NC", "addr:street_address": "700 SKIP JACK LN", "amenity": "post_box", "collection_times": "Mo-Sa 10:30", "nsi_id": "unitedstatespostalservice-a77078", "operator": "United States Postal Service", "operator:short": "USPS", "operator:type": "public", "operator:wikidata": "Q668687", "ref": "2794800011"}, "type": "Feature"}
{"geometry": {"coordinates": [-75.6598391, 36.011759429], "type": "Point"}, "id": "0sEkxXdJ-VmJLHNmoESc7CzWUv0=", "properties": {"@source_uri": "https://tools.usps.com/UspsToolsRestServices/rest/POLocator/findLocations", "@spider": "usps_collection_boxes", "addr:city": "KILL DEVIL HL", "addr:country": "US", "addr:postcode": "27948", "addr:state": "NC", "addr:street_address": "302 S CROATAN HWY", "amenity": "post_box", "collection_times": "Mo-Fr 16:15; Sa 12:00", "indoor": "yes", "note": "ON 12/24 AND 12/31, THIS BOX MAY BE COLLECTED AS EARLY AS 12 NOON.", "nsi_id": "unitedstatespostalservice-a77078", "operator": "United States Postal Service", "operator:short": "USPS", "operator:type": "public", "operator:wikidata": "Q668687", "ref": "2794800013"}, "type": "Feature"}
{"geometry": {"coordinates": [-75.6598391, 36.011759429], "type": "Point"}, "id": "-W1kEzJVPIwKJPCd5g5imxwVjYw=", "properties": {"@source_uri": "https://tools.usps.com/UspsToolsRestServices/rest/POLocator/findLocations", "@spider": "usps_collection_boxes", "addr:city": "KILL DEVIL HL", "addr:country": "US", "addr:postcode": "27948", "addr:state": "NC", "addr:street_address": "302 S CROATAN HWY", "amenity": "post_box", "collection_times": "Mo-Fr 16:30; Sa 12:00", "indoor": "yes", "note": "ON 12/24 AND 12/31, THIS BOX MAY BE COLLECTED AS EARLY AS 12 NOON.", "nsi_id": "unitedstatespostalservice-a77078", "operator": "United States Postal Service", "operator:short": "USPS", "operator:type": "public", "operator:wikidata": "Q668687", "ref": "2794800016"}, "type": "Feature"}
{"geometry": {"coordinates": [-75.6920960153, 36.0662600007], "type": "Point"}, "id": "t5Bbr0IGbmPWPjnoK2hnn9_tCDA=", "properties": {"@source_uri": "https://tools.usps.com/UspsToolsRestServices/rest/POLocator/findLocations", "@spider": "usps_collection_boxes", "addr:city": "KITTY HAWK", "addr:country": "US", "addr:postcode": "27949", "addr:state": "NC", "addr:street_address": "3841 N CROATAN HWY", "amenity": "post_box", "collection_times": "Mo-Fr 15:45; Sa 12:00", "note": "ON 12/24 AND 12/31, THIS BOX MAY BE COLLECTED AS EARLY AS 12 NOON.", "nsi_id": "unitedstatespostalservice-a77078", "operator": "United States Postal Service", "operator:short": "USPS", "operator:type": "public", "operator:wikidata": "Q668687", "ref": "2794900001"}, "type": "Feature"}
{"geometry": {"coordinates": [-75.723934619, 36.098004657], "type": "Point"}, "id": "iCVM_OwNIJXt6D-JlSloU6fjwZg=", "properties": {"@source_uri": "https://tools.usps.com/UspsToolsRestServices/rest/POLocator/findLocations", "@spider": "usps_collection_boxes", "addr:city": "KITTY HAWK", "addr:country": "US", "addr:postcode": "27949", "addr:state": "NC", "addr:street_address": "5500 N CROATAN HWY", "amenity": "post_box", "collection_times": "Mo-Sa 10:45", "nsi_id": "unitedstatespostalservice-a77078", "operator": "United States Postal Service", "operator:short": "USPS", "operator:type": "public", "operator:wikidata": "Q668687", "ref": "2794900009"}, "type": "Feature"}
{"geometry": {"coordinates": [-75.752199, 36.16434], "type": "Point"}, "id": "l-w95A_jQ0ynO_q0oYigKzvVKwE=", "properties": {"@source_uri": "https://tools.usps.com/UspsToolsRestServices/rest/POLocator/findLocations", "@spider": "usps_collection_boxes", "addr:city": "KITTY HAWK", "addr:country": "US", "addr:postcode": "27949", "addr:state": "NC", "addr:street_address": "1187 DUCK RD UNIT #3", "amenity": "post_box", "collection_times": "Mo-Sa 11:30", "nsi_id": "unitedstatespostalservice-a77078", "operator": "United States Postal Service", "operator:short": "USPS", "operator:type": "public", "operator:wikidata": "Q668687", "ref": "2794900011"}, "type": "Feature"}
{"geometry": {"coordinates": [-75.6920960153, 36.0662600007], "type": "Point"}, "id": "FjRqWqzAu7kA6enUGZDAjbC5UTA=", "properties": {"@source_uri": "https://tools.usps.com/UspsToolsRestServices/rest/POLocator/findLocations", "@spider": "usps_collection_boxes", "addr:city": "KITTY HAWK", "addr:country": "US", "addr:postcode": "27949", "addr:state": "NC", "addr:street_address": "3841 N CROATAN HWY", "amenity": "post_box", "collection_times": "Mo-Fr 15:45; Sa 12:00", "indoor": "yes", "note": "ON 12/24 AND 12/31, THIS BOX MAY BE COLLECTED AS EARLY AS 12 NOON.", "nsi_id": "unitedstatespostalservice-a77078", "operator": "United States Postal Service", "operator:short": "USPS", "operator:type": "public", "operator:wikidata": "Q668687", "ref": "2794900023"}, "type": "Feature"}
{"geometry": {"coordinates": [-75.692882387, 36.065544126], "type": "Point"}, "id": "2r66WEm5_yOZyFRQdTjh_qrhcLQ=", "properties": {"@source_uri": "https://tools.usps.com/UspsToolsRestServices/rest/POLocator/findLocations", "@spider": "usps_collection_boxes", "addr:city": "KITTY HAWK", "addr:country": "US", "addr:postcode": "27949", "addr:state": "NC", "addr:street_address": "3841 N CROATAN HWY", "amenity": "post_box", "collection_times": "Mo-Fr 16:30; Sa 12:00", "indoor": "yes", "note": "ON 12/24 AND 12/31, THIS BOX MAY BE COLLECTED AS EARLY AS 12 NOON.", "nsi_id": "unitedstatespostalservice-a77078", "operator": "United States Postal Service", "operator:short": "USPS", "operator:type": "public", "operator:wikidata": "Q668687", "ref": "2794900024"}, "type": "Feature"}
{"geometry": {"coordinates": [-75.92551918, 36.529831184], "type": "Point"}, "id": "xRGwoO_WCHocVHnXYH2fyvOjV4Q=", "properties": {"@source_uri": "https://tools.usps.com/UspsToolsRestServices/rest/POLocator/findLocations", "@spider": "usps_collection_boxes", "addr:city": "KNOTTS ISLAND", "addr:country": "US", "addr:postcode": "27950", "addr:state": "NC", "addr:street_address": "407 KNOTTS ISLAND RD", "amenity": "post_box", "collection_times": "Mo-Fr 14:30; Sa 12:30", "note": "ON 12/24 AND 12/31, THIS BOX MAY BE COLLECTED AS EARLY AS 12 NOON.", "nsi_id": "unitedstatespostalservice-a77078", "operator": "United States Postal Service", "operator:short": "USPS", "operator:type": "public", "operator:wikidata": "Q668687", "ref": "2795000001"}, "type": "Feature"}
{"geometry": {"coordinates": [-75.92551468, 36.529831184], "type": "Point"}, "id": "ifSKFxu7UQN7fPAG0DMBMAokuiE=", "properties": {"@source_uri": "https://tools.usps.com/UspsToolsRestServices/rest/POLocator/findLocations", "@spider": "usps_collection_boxes", "addr:city": "KNOTTS ISLAND", "addr:country": "US", "addr:postcode": "27950", "addr:state": "NC", "addr:street_address": "407 KNOTTS ISLAND RD", "amenity": "post_box", "collection_times": "Mo-Fr 14:30; Sa 12:30", "indoor": "yes", "note": "ON 12/24 AND 12/31, THIS BOX MAY BE COLLECTED AS EARLY AS 12 NOON.", "nsi_id": "unitedstatespostalservice-a77078", "operator": "United States Postal Service", "operator:short": "USPS", "operator:type": "public", "operator:wikidata": "Q668687", "ref": "2795000002"}, "type": "Feature"}
{"geometry": {"coordinates": [-75.92551468, 36.529831184], "type": "Point"}, "id": "y_yUSV9XpcVnnvK1rIXH_3e92fc=", "properties": {"@source_uri": "https://tools.usps.com/UspsToolsRestServices/rest/POLocator/findLocations", "@spider": "usps_collection_boxes", "addr:city": "KNOTTS ISLAND", "addr:country": "US", "addr:postcode": "27950", "addr:state": "NC", "addr:street_address": "407 KNOTTS ISLAND RD", "amenity": "post_box", "collection_times": "Mo-Fr 15:15; Sa 12:30", "indoor": "yes", "note": "ON 12/24 AND 12/31, THIS BOX MAY BE COLLECTED AS EARLY AS 12 NOON.", "nsi_id": "unitedstatespostalservice-a77078", "operator": "United States Postal Service", "operator:short": "USPS", "operator:type": "public", "operator:wikidata": "Q668687", "ref": "2795000003"}, "type": "Feature"}
{"geometry": {"coordinates": [-75.842559583, 35.865270867], "type": "Point"}, "id": "zYg1PhEw8NcnkMsP_Isb5rBjoQA=", "properties": {"@source_uri": "https://tools.usps.com/UspsToolsRestServices/rest/POLocator/findLocations", "@spider": "usps_collection_boxes", "addr:city": "MANNS HARBOR", "addr:country": "US", "addr:postcode": "27953", "addr:state": "NC", "addr:street_address": "US HWY 64", "amenity": "post_box", "collection_times": "Mo-Fr 16:15; Sa 11:15", "note": "ON 12/24 AND 12/31, THIS BOX MAY BE COLLECTED AS EARLY AS 12 NOON.", "nsi_id": "unitedstatespostalservice-a77078", "operator": "United States Postal Service", "operator:short": "USPS", "operator:type": "public", "operator:wikidata": "Q668687", "ref": "2795300001"}, "type": "Feature"}
{"geometry": {"coordinates": [-75.842559583, 35.865270867], "type": "Point"}, "id": "1n2fA5lP87XB2cjHOwW3m5EkZ4s=", "properties": {"@source_uri": "https://tools.usps.com/UspsToolsRestServices/rest/POLocator/findLocations", "@spider": "usps_collection_boxes", "addr:city": "MANNS HARBOR", "addr:country": "US", "addr:postcode": "27953", "addr:state": "NC", "addr:street_address": "US HWY 64", "amenity": "post_box", "collection_times": "Mo-Fr 16:15; Sa 11:15", "indoor": "yes", "note": "ON 12/24 AND 12/31, THIS BOX MAY BE COLLECTED AS EARLY AS 12 NOON.", "nsi_id": "unitedstatespostalservice-a77078", "operator": "United States Postal Service", "operator:short": "USPS", "operator:type": "public", "operator:wikidata": "Q668687", "ref": "2795300002"}, "type": "Feature"}
{"geometry": {"coordinates": [-75.765035599, 35.889116226], "type": "Point"}, "id": "7GL7VyMvdyQJE1qPUfqpN-FbtKI=", "properties": {"@source_uri": "https://tools.usps.com/UspsToolsRestServices/rest/POLocator/findLocations", "@spider": "usps_collection_boxes", "addr:city": "MANNS HARBOR", "addr:country": "US", "addr:postcode": "27953", "addr:state": "NC", "addr:street_address": "6941 US HIGHWAY 64", "amenity": "post_box", "collection_times": "Mo-Fr 16:15; Sa 11:30", "indoor": "yes", "note": "ON 12/24 AND 12/31, THIS BOX MAY BE COLLECTED AS EARLY AS 12 NOON.", "nsi_id": "unitedstatespostalservice-a77078", "operator": "United States Postal Service", "operator:short": "USPS", "operator:type": "public", "operator:wikidata": "Q668687", "ref": "2795300003"}, "type": "Feature"}
{"geometry": {"coordinates": [-75.6693399864, 35.9105169894], "type": "Point"}, "id": "2v-YD9Uq-p8dx46atwMrzN5gEKI=", "properties": {"@source_uri": "https://tools.usps.com/UspsToolsRestServices/rest/POLocator/findLocations", "@spider": "usps_collection_boxes", "addr:city": "MANTEO", "addr:country": "US", "addr:postcode": "27954", "addr:state": "NC", "addr:street_address": "405 QUEEN ELIZABETH AVE", "amenity": "post_box", "collection_times": "Mo-Sa 10:00", "nsi_id": "unitedstatespostalservice-a77078", "operator": "United States Postal Service", "operator:short": "USPS", "operator:type": "public", "operator:wikidata": "Q668687", "ref": "2795400001"}, "type": "Feature"}
{"geometry": {"coordinates": [-75.6770781, 35.9084098], "type": "Point"}, "id": "4gt_Dz13O9lPCoq-IdEEKL99aLM=", "properties": {"@source_uri": "https://tools.usps.com/UspsToolsRestServices/rest/POLocator/findLocations", "@spider": "usps_collection_boxes", "addr:city": "MANTEO", "addr:country": "US", "addr:postcode": "27954", "addr:state": "NC", "addr:street_address": "212B US HIGHWAY 64 AND 264", "amenity": "post_box", "collection_times": "Mo-Fr 16:30; Sa 12:00", "note": "ON 12/24 AND 12/31, THIS BOX MAY BE COLLECTED AS EARLY AS 12 NOON.", "nsi_id": "unitedstatespostalservice-a77078", "operator": "United States Postal Service", "operator:short": "USPS", "operator:type": "public", "operator:wikidata": "Q668687", "ref": "2795400003"}, "type": "Feature"}
{"geometry": {"coordinates": [-75.6730419746, 35.9041982339], "type": "Point"}, "id": "uj_W0OGSJlZHBOg0C-h2MkWVtoE=", "properties": {"@source_uri": "https://tools.usps.com/UspsToolsRestServices/rest/POLocator/findLocations", "@spider": "usps_collection_boxes", "addr:city": "MANTEO", "addr:country": "US", "addr:postcode": "27954", "addr:state": "NC", "addr:street_address": "212B US HIGHWAY 64 AND 264", "amenity": "post_box", "collection_times": "Mo-Fr 16:30; Sa 12:00", "indoor": "yes", "note": "ON 12/24 AND 12/31, THIS BOX MAY BE COLLECTED AS EARLY AS 12 NOON.", "nsi_id": "unitedstatespostalservice-a77078", "operator": "United States Postal Service", "operator:short": "USPS", "operator:type": "public", "operator:wikidata": "Q668687", "ref": "2795400004"}, "type": "Feature"}
{"geometry": {"coordinates": [-75.672275458, 35.903224344], "type": "Point"}, "id": "WAh6qmnWI7U9e9FWDRne2xru7LE=", "properties": {"@source_uri": "https://tools.usps.com/UspsToolsRestServices/rest/POLocator/findLocations", "@spider": "usps_collection_boxes", "addr:city": "MANTEO", "addr:country": "US", "addr:postcode": "27954", "addr:state": "NC", "addr:street_address": "212 US HIGHWAY 64 AND 264", "amenity": "post_box", "collection_times": "Mo-Fr 16:30; Sa 12:00", "indoor": "yes", "note": "ON 12/24 AND 12/31, THIS BOX MAY BE COLLECTED AS EARLY AS 12 NOON.", "nsi_id": "unitedstatespostalservice-a77078", "operator": "United States Postal Service", "operator:short": "USPS", "operator:type": "public", "operator:wikidata": "Q668687", "ref": "2795400007"}, "type": "Feature"}
{"geometry": {"coordinates": [-76.002819787, 36.41322904], "type": "Point"}, "id": "meeY9sn22DsSg14sZ8-xHNycnH8=", "properties": {"@source_uri": "https://tools.usps.com/UspsToolsRestServices/rest/POLocator/findLocations", "@spider": "usps_collection_boxes", "addr:city": "MAPLE", "addr:country": "US", "addr:postcode": "27956", "addr:state": "NC", "addr:street_address": "3452 CARATOKE HWY", "amenity": "post_box", "collection_times": "Mo-Fr 15:15; Sa 10:30", "note": "ON 12/24 AND 12/31, THIS BOX MAY BE COLLECTED AS EARLY AS 12 NOON.", "nsi_id": "unitedstatespostalservice-a77078", "operator": "United States Postal Service", "operator:short": "USPS", "operator:type": "public", "operator:wikidata": "Q668687", "ref": "2795600001"}, "type": "Feature"}
{"geometry": {"coordinates": [-76.002819787, 36.41323804], "type": "Point"}, "id": "ox7sLayHh0fnJ1J_R9W4pUe15tk=", "properties": {"@source_uri": "https://tools.usps.com/UspsToolsRestServices/rest/POLocator/findLocations", "@spider": "usps_collection_boxes", "addr:city": "MAPLE", "addr:country": "US", "addr:postcode": "27956", "addr:state": "NC", "addr:street_address": "3452 CARATOKE HWY", "amenity": "post_box", "collection_times": "Mo-Fr 15:15; Sa 10:30", "indoor": "yes", "note": "ON 12/24 AND 12/31, THIS BOX MAY BE COLLECTED AS EARLY AS 12 NOON.", "nsi_id": "unitedstatespostalservice-a77078", "operator": "United States Postal Service", "operator:short": "USPS", "operator:type": "public", "operator:wikidata": "Q668687", "ref": "2795600002"}, "type": "Feature"}
{"geometry": {"coordinates": [-76.002819787, 36.41323804], "type": "Point"}, "id": "A8JP3lOUx0PrHp2DaV7_iRfKRD8=", "properties": {"@source_uri": "https://tools.usps.com/UspsToolsRestServices/rest/POLocator/findLocations", "@spider": "usps_collection_boxes", "addr:city": "MAPLE", "addr:country": "US", "addr:postcode": "27956", "addr:state": "NC", "addr:street_address": "3452 CARATOKE HWY", "amenity": "post_box", "collection_times": "Mo-Fr 15:15; Sa 10:30", "indoor": "yes", "note": "ON 12/24 AND 12/31, THIS BOX MAY BE COLLECTED AS EARLY AS 12 NOON.", "nsi_id": "unitedstatespostalservice-a77078", "operator": "United States Postal Service", "operator:short": "USPS", "operator:type": "public", "operator:wikidata": "Q668687", "ref": "2795600003"}, "type": "Feature"}
{"geometry": {"coordinates": [-76.771689147, 36.01142692], "type": "Point"}, "id": "06yl9kIrxEV_fj4I71CcsUxqlcE=", "properties": {"@source_uri": "https://tools.usps.com/UspsToolsRestServices/rest/POLocator/findLocations", "@spider": "usps_collection_boxes", "addr:city": "MERRY HILL", "addr:country": "US", "addr:postcode": "27957", "addr:state": "NC", "addr:street_address": "335 OLD MERRY HILL RD", "amenity": "post_box", "collection_times": "Mo-Fr 16:15; Sa 10:30", "note": "ON 12/24 AND 12/31, THIS BOX MAY BE COLLECTED AS EARLY AS 12 NOON.", "nsi_id": "unitedstatespostalservice-a77078", "operator": "United States Postal Service", "operator:short": "USPS", "operator:type": "public", "operator:wikidata": "Q668687", "ref": "2795700001"}, "type": "Feature"}
{"geometry": {"coordinates": [-76.771689147, 36.01142692], "type": "Point"}, "id": "ngvZC2F-ln0GaENSeAuut9uhJg4=", "properties": {"@source_uri": "https://tools.usps.com/UspsToolsRestServices/rest/POLocator/findLocations", "@spider": "usps_collection_boxes", "addr:city": "MERRY HILL", "addr:country": "US", "addr:postcode": "27957", "addr:state": "NC", "addr:street_address": "335 OLD MERRY HILL RD", "amenity": "post_box", "collection_times": "Mo-Fr 16:15; Sa 10:30", "indoor": "yes", "note": "ON 12/24 AND 12/31, THIS BOX MAY BE COLLECTED AS EARLY AS 12 NOON.", "nsi_id": "unitedstatespostalservice-a77078", "operator": "United States Postal Service", "operator:short": "USPS", "operator:type": "public", "operator:wikidata": "Q668687", "ref": "2795700003"}, "type": "Feature"}
{"geometry": {"coordinates": [-76.771689147, 36.01142692], "type": "Point"}, "id": "Wav1Yqb7m7_qcwdIrhEM9Xz9cXU=", "properties": {"@source_uri": "https://tools.usps.com/UspsToolsRestServices/rest/POLocator/findLocations", "@spider": "usps_collection_boxes", "addr:city": "MERRY HILL", "addr:country": "US", "addr:postcode": "27957", "addr:state": "NC", "addr:street_address": "335 OLD MERRY HILL RD", "amenity": "post_box", "collection_times": "Mo-Fr 16:15; Sa 10:30", "indoor": "yes", "note": "ON 12/24 AND 12/31, THIS BOX MAY BE COLLECTED AS EARLY AS 12 NOON.", "nsi_id": "unitedstatespostalservice-a77078", "operator": "United States Postal Service", "operator:short": "USPS", "operator:type": "public", "operator:wikidata": "Q668687", "ref": "2795700004"}, "type": "Feature"}
{"geometry": {"coordinates": [-76.174630666, 36.521535481], "type": "Point"}, "id": "Y-nVIJDNofqluPPz0HitSODnDUs=", "properties": {"@source_uri": "https://tools.usps.com/UspsToolsRestServices/rest/POLocator/findLocations", "@spider": "usps_collection_boxes", "addr:city": "MOYOCK", "addr:country": "US", "addr:postcode": "27958", "addr:state": "NC", "addr:street_address": "574 CARATOKE HWY", "amenity": "post_box", "collection_times": "Mo-Fr 16:00; Sa 11:30", "note": "ON 12/24 AND 12/31, THIS BOX MAY BE COLLECTED AS EARLY AS 12 NOON.", "nsi_id": "unitedstatespostalservice-a77078", "operator": "United States Postal Service", "operator:short": "USPS", "operator:type": "public", "operator:wikidata": "Q668687", "ref": "2795800002"}, "type": "Feature"}
{"geometry": {"coordinates": [-76.190896612, 36.548070936], "type": "Point"}, "id": "-q2axhF0FM561IVSGz6Ah0s1pAk=", "properties": {"@source_uri": "https://tools.usps.com/UspsToolsRestServices/rest/POLocator/findLocations", "@spider": "usps_collection_boxes", "addr:city": "MOYOCK", "addr:country": "US", "addr:postcode": "27958", "addr:state": "NC", "addr:street_address": "141 CARATOKE HWY", "amenity": "post_box", "collection_times": "Mo-Sa 09:30", "nsi_id": "unitedstatespostalservice-a77078", "operator": "United States Postal Service", "operator:short": "USPS", "operator:type": "public", "operator:wikidata": "Q668687", "ref": "2795800003"}, "type": "Feature"}
{"geometry": {"coordinates": [-76.174630666, 36.521535481], "type": "Point"}, "id": "UG8gnpJSjX_AupsV1kTn6-FJcHI=", "properties": {"@source_uri": "https://tools.usps.com/UspsToolsRestServices/rest/POLocator/findLocations", "@spider": "usps_collection_boxes", "addr:city": "MOYOCK", "addr:country": "US", "addr:postcode": "27958", "addr:state": "NC", "addr:street_address": "574 CARATOKE HWY", "amenity": "post_box", "collection_times": "Mo-Fr 16:15; Sa 11:30", "indoor": "yes", "note": "ON 12/24 AND 12/31, THIS BOX MAY BE COLLECTED AS EARLY AS 12 NOON.", "nsi_id": "unitedstatespostalservice-a77078", "operator": "United States Postal Service", "operator:short": "USPS", "operator:type": "public", "operator:wikidata": "Q668687", "ref": "2795800006"}, "type": "Feature"}
{"geometry": {"coordinates": [-76.174630666, 36.521535481], "type": "Point"}, "id": "fkG1-c1Wu52xysgeK5gpmfRargI=", "properties": {"@source_uri": "https://tools.usps.com/UspsToolsRestServices/rest/POLocator/findLocations", "@spider": "usps_collection_boxes", "addr:city": "MOYOCK", "addr:country": "US", "addr:postcode": "27958", "addr:state": "NC", "addr:street_address": "574 CARATOKE HWY", "amenity": "post_box", "collection_times": "Mo-Fr 16:30", "indoor": "yes", "note": "ON 12/24 AND 12/31, THIS BOX MAY BE COLLECTED AS EARLY AS 12 NOON.", "nsi_id": "unitedstatespostalservice-a77078", "operator": "United States Postal Service", "operator:short": "USPS", "operator:type": "public", "operator:wikidata": "Q668687", "ref": "2795800008"}, "type": "Feature"}
{"geometry": {"coordinates": [-75.623558577, 35.951100284], "type": "Point"}, "id": "Vbt5jBxq3eUFsmq-MmyMKcnZat8=", "properties": {"@source_uri": "https://tools.usps.com/UspsToolsRestServices/rest/POLocator/findLocations", "@spider": "usps_collection_boxes", "addr:city": "NAGS HEAD", "addr:country": "US", "addr:postcode": "27959", "addr:state": "NC", "addr:street_address": "100 DEERING ST", "amenity": "post_box", "collection_times": "Mo-Fr 15:30; Sa 10:30", "indoor": "yes", "note": "ON 12/24 AND 12/31, THIS BOX MAY BE COLLECTED AS EARLY AS 12 NOON.", "nsi_id": "unitedstatespostalservice-a77078", "operator": "United States Postal Service", "operator:short": "USPS", "operator:type": "public", "operator:wikidata": "Q668687", "ref": "2795900001"}, "type": "Feature"}
{"geometry": {"coordinates": [-75.623558577, 35.951100284], "type": "Point"}, "id": "ohiFpV0cbDAAge5oyP4gS1logOg=", "properties": {"@source_uri": "https://tools.usps.com/UspsToolsRestServices/rest/POLocator/findLocations", "@spider": "usps_collection_boxes", "addr:city": "NAGS HEAD", "addr:country": "US", "addr:postcode": "27959", "addr:state": "NC", "addr:street_address": "100 DEERING ST", "amenity": "post_box", "collection_times": "Mo-Fr 15:30; Sa 10:30", "note": "ON 12/24 AND 12/31, THIS BOX MAY BE COLLECTED AS EARLY AS 12 NOON.", "nsi_id": "unitedstatespostalservice-a77078", "operator": "United States Postal Service", "operator:short": "USPS", "operator:type": "public", "operator:wikidata": "Q668687", "ref": "2795900002"}, "type": "Feature"}
{"geometry": {"coordinates": [-75.597630229, 35.910195777], "type": "Point"}, "id": "aedfpXwtzeoPwWqcEJ2REPFh7tM=", "properties": {"@source_uri": "https://tools.usps.com/UspsToolsRestServices/rest/POLocator/findLocations", "@spider": "usps_collection_boxes", "addr:city": "NAGS HEAD", "addr:country": "US", "addr:postcode": "27959", "addr:state": "NC", "addr:street_address": "7213 S VIRGINIA DARE TRL", "amenity": "post_box", "collection_times": "Mo-Sa 11:00", "nsi_id": "unitedstatespostalservice-a77078", "operator": "United States Postal Service", "operator:short": "USPS", "operator:type": "public", "operator:wikidata": "Q668687", "ref": "2795900003"}, "type": "Feature"}
{"geometry": {"coordinates": [-75.623558577, 35.951100284], "type": "Point"}, "id": "DXllTF1SLplY4rzU2E6OiWeiZAE=", "properties": {"@source_uri": "https://tools.usps.com/UspsToolsRestServices/rest/POLocator/findLocations", "@spider": "usps_collection_boxes", "addr:city": "NAGS HEAD", "addr:country": "US", "addr:postcode": "27959", "addr:state": "NC", "addr:street_address": "100 DEERING ST", "amenity": "post_box", "collection_times": "Mo-Fr 16:30; Sa 12:00", "indoor": "yes", "note": "ON 12/24 AND 12/31, THIS BOX MAY BE COLLECTED AS EARLY AS 12 NOON.", "nsi_id": "unitedstatespostalservice-a77078", "operator": "United States Postal Service", "operator:short": "USPS", "operator:type": "public", "operator:wikidata": "Q668687", "ref": "2795900005"}, "type": "Feature"}
{"geometry": {"coordinates": [-75.9724600315, 35.1068669861], "type": "Point"}, "id": "9Z61aqvQJ0zcOBF1SYPG4HUKVUo=", "properties": {"@source_uri": "https://tools.usps.com/UspsToolsRestServices/rest/POLocator/findLocations", "@spider": "usps_collection_boxes", "addr:city": "OCRACOKE", "addr:country": "US", "addr:postcode": "27960", "addr:state": "NC", "addr:street_address": "1122 IRVIN GARRISH HWY", "amenity": "post_box", "collection_times": "Mo-Sa 12:30", "indoor": "yes", "note": "ON 12/24 AND 12/31, THIS BOX MAY BE COLLECTED AS EARLY AS 12 NOON.", "nsi_id": "unitedstatespostalservice-a77078", "operator": "United States Postal Service", "operator:short": "USPS", "operator:type": "public", "operator:wikidata": "Q668687", "ref": "2796000004"}, "type": "Feature"}
{"geometry": {"coordinates": [-75.9724600315, 35.1068669861], "type": "Point"}, "id": "xTS1lZCvZGeVJXj0xphgUbBuSy4=", "properties": {"@source_uri": "https://tools.usps.com/UspsToolsRestServices/rest/POLocator/findLocations", "@spider": "usps_collection_boxes", "addr:city": "OCRACOKE", "addr:country": "US", "addr:postcode": "27960", "addr:state": "NC", "addr:street_address": "1122 IRVIN GARRISH HWY", "amenity": "post_box", "collection_times": "Mo-Sa 12:45", "indoor": "yes", "note": "ON 12/24 AND 12/31, THIS BOX MAY BE COLLECTED AS EARLY AS 12 NOON.", "nsi_id": "unitedstatespostalservice-a77078", "operator": "United States Postal Service", "operator:short": "USPS", "operator:type": "public", "operator:wikidata": "Q668687", "ref": "2796000006"}, "type": "Feature"}
{"geometry": {"coordinates": [-76.7487645, 35.8606834], "type": "Point"}, "id": "4Jzx5iSUG8bc-pdgNRM4RzeOkfg=", "properties": {"@source_uri": "https://tools.usps.com/UspsToolsRestServices/rest/POLocator/findLocations", "@spider": "usps_collection_boxes", "addr:city": "PLYMOUTH", "addr:country": "US", "addr:postcode": "27962", "addr:state": "NC", "addr:street_address": "416 US HIGHWAY 64 E", "amenity": "post_box", "collection_times": "Mo-Sa 09:00", "nsi_id": "unitedstatespostalservice-a77078", "operator": "United States Postal Service", "operator:short": "USPS", "operator:type": "public", "operator:wikidata": "Q668687", "ref": "2796200007"}, "type": "Feature"}
{"geometry": {"coordinates": [-76.751462744, 35.865540061], "type": "Point"}, "id": "WUJXi1KgZCpFjZB8fvLjyLSmZsI=", "properties": {"@source_uri": "https://tools.usps.com/UspsToolsRestServices/rest/POLocator/findLocations", "@spider": "usps_collection_boxes", "addr:city": "PLYMOUTH", "addr:country": "US", "addr:postcode": "27962", "addr:state": "NC", "addr:street_address": "113 W MAIN ST", "amenity": "post_box", "collection_times": "Mo-Fr 17:00; Sa 12:00", "note": "ON 12/24 AND 12/31, THIS BOX MAY BE COLLECTED AS EARLY AS 12 NOON.", "nsi_id": "unitedstatespostalservice-a77078", "operator": "United States Postal Service", "operator:short": "USPS", "operator:type": "public", "operator:wikidata": "Q668687", "ref": "2796200012"}, "type": "Feature"}
{"geometry": {"coordinates": [-76.749035094, 35.866906742], "type": "Point"}, "id": "sIERQyYbIwaCnYjOuIHmKa_uawM=", "properties": {"@source_uri": "https://tools.usps.com/UspsToolsRestServices/rest/POLocator/findLocations", "@spider": "usps_collection_boxes", "addr:city": "PLYMOUTH", "addr:country": "US", "addr:postcode": "27962", "addr:state": "NC", "addr:street_address": "120 ADAMS ST", "amenity": "post_box", "collection_times": "Mo-Fr 15:00; Sa 09:30", "note": "ON 12/24 AND 12/31, THIS BOX MAY BE COLLECTED AS EARLY AS 12 NOON.", "nsi_id": "unitedstatespostalservice-a77078", "operator": "United States Postal Service", "operator:short": "USPS", "operator:type": "public", "operator:wikidata": "Q668687", "ref": "2796200014"}, "type": "Feature"}
{"geometry": {"coordinates": [-76.751462744, 35.865540061], "type": "Point"}, "id": "eDMy5UGFsdUmUhUNMhzHPbrm-Qo=", "properties": {"@source_uri": "https://tools.usps.com/UspsToolsRestServices/rest/POLocator/findLocations", "@spider": "usps_collection_boxes", "addr:city": "PLYMOUTH", "addr:country": "US", "addr:postcode": "27962", "addr:state": "NC", "addr:street_address": "113 W MAIN ST", "amenity": "post_box", "collection_times": "Mo-Fr 17:00; Sa 12:00", "indoor": "yes", "note": "ON 12/24 AND 12/31, THIS BOX MAY BE COLLECTED AS EARLY AS 12 NOON.", "nsi_id": "unitedstatespostalservice-a77078", "operator": "United States Postal Service", "operator:short": "USPS", "operator:type": "public", "operator:wikidata": "Q668687", "ref": "2796200015"}, "type": "Feature"}
{"geometry": {"coordinates": [-76.751462744, 35.865540061], "type": "Point"}, "id": "pYqpZNDsvth-2aDLlus2VXdK95Y=", "properties": {"@source_uri": "https://tools.usps.com/UspsToolsRestServices/rest/POLocator/findLocations", "@spider": "usps_collection_boxes", "addr:city": "PLYMOUTH", "addr:country": "US", "addr:postcode": "27962", "addr:state": "NC", "addr:street_address": "113 W MAIN ST", "amenity": "post_box", "collection_times": "Mo-Fr 17:00", "indoor": "yes", "note": "ON 12/24 AND 12/31, THIS BOX MAY BE COLLECTED AS EARLY AS 12 NOON.", "nsi_id": "unitedstatespostalservice-a77078", "operator": "United States Postal Service", "operator:short": "USPS", "operator:type": "public", "operator:wikidata": "Q668687", "ref": "2796200017"}, "type": "Feature"}
{"geometry": {"coordinates": [-75.793167974, 36.079826503], "type": "Point"}, "id": "27s5_BDiJiWwZt-yX2lKVO_jCHU=", "properties": {"@source_uri": "https://tools.usps.com/UspsToolsRestServices/rest/POLocator/findLocations", "@spider": "usps_collection_boxes", "addr:city": "POINT HARBOR", "addr:country": "US", "addr:postcode": "27964", "addr:state": "NC", "addr:street_address": "9142 CARATOKE HWY", "amenity": "post_box", "collection_times": "Mo-Fr 15:15; Sa 11:30", "indoor": "yes", "note": "ON 12/24 AND 12/31, THIS BOX MAY BE COLLECTED AS EARLY AS 12 NOON.", "nsi_id": "unitedstatespostalservice-a77078", "operator": "United States Postal Service", "operator:short": "USPS", "operator:type": "public", "operator:wikidata": "Q668687", "ref": "2796400001"}, "type": "Feature"}
{"geometry": {"coordinates": [-75.793167974, 36.079826503], "type": "Point"}, "id": "AY3dMDMjiOvy0ZmVBPqctdjUHmQ=", "properties": {"@source_uri": "https://tools.usps.com/UspsToolsRestServices/rest/POLocator/findLocations", "@spider": "usps_collection_boxes", "addr:city": "POINT HARBOR", "addr:country": "US", "addr:postcode": "27964", "addr:state": "NC", "addr:street_address": "9142 CARATOKE HWY", "amenity": "post_box", "collection_times": "Mo-Fr 15:15; Sa 11:30", "note": "ON 12/24 AND 12/31, THIS BOX MAY BE COLLECTED AS EARLY AS 12 NOON.", "nsi_id": "unitedstatespostalservice-a77078", "operator": "United States Postal Service", "operator:short": "USPS", "operator:type": "public", "operator:wikidata": "Q668687", "ref": "2796400002"}, "type": "Feature"}
{"geometry": {"coordinates": [-75.793167974, 36.079826503], "type": "Point"}, "id": "Q5Clfoq2kjtLcf5pb8E_xysQaTU=", "properties": {"@source_uri": "https://tools.usps.com/UspsToolsRestServices/rest/POLocator/findLocations", "@spider": "usps_collection_boxes", "addr:city": "POINT HARBOR", "addr:country": "US", "addr:postcode": "27964", "addr:state": "NC", "addr:street_address": "9142 CARATOKE HWY", "amenity": "post_box", "collection_times": "Mo-Fr 15:15; Sa 11:30", "indoor": "yes", "note": "ON 12/24 AND 12/31, THIS BOX MAY BE COLLECTED AS EARLY AS 12 NOON.", "nsi_id": "unitedstatespostalservice-a77078", "operator": "United States Postal Service", "operator:short": "USPS", "operator:type": "public", "operator:wikidata": "Q668687", "ref": "2796400003"}, "type": "Feature"}
{"geometry": {"coordinates": [-75.892664626, 36.281586039], "type": "Point"}, "id": "ci5MQhJEAWWNpJ0soK3qr4iGz6g=", "properties": {"@source_uri": "https://tools.usps.com/UspsToolsRestServices/rest/POLocator/findLocations", "@spider": "usps_collection_boxes", "addr:city": "POPLAR BRANCH", "addr:country": "US", "addr:postcode": "27965", "addr:state": "NC", "addr:street_address": "227 POPLAR BRANCH RD", "amenity": "post_box", "collection_times": "Mo-Fr 16:15; Sa 11:00", "indoor": "yes", "note": "ON 12/24 AND 12/31, THIS BOX MAY BE COLLECTED AS EARLY AS 12 NOON.", "nsi_id": "unitedstatespostalservice-a77078", "operator": "United States Postal Service", "operator:short": "USPS", "operator:type": "public", "operator:wikidata": "Q668687", "ref": "2796500003"}, "type": "Feature"}
{"geometry": {"coordinates": [-75.892664626, 36.281586039], "type": "Point"}, "id": "1COaCkWAq785ibYb6pSF8hTBfMI=", "properties": {"@source_uri": "https://tools.usps.com/UspsToolsRestServices/rest/POLocator/findLocations", "@spider": "usps_collection_boxes", "addr:city": "POPLAR BRANCH", "addr:country": "US", "addr:postcode": "27965", "addr:state": "NC", "addr:street_address": "227 POPLAR BRANCH RD", "amenity": "post_box", "collection_times": "Mo-Fr 16:15; Sa 11:30", "indoor": "yes", "note": "ON 12/24 AND 12/31, THIS BOX MAY BE COLLECTED AS EARLY AS 12 NOON.", "nsi_id": "unitedstatespostalservice-a77078", "operator": "United States Postal Service", "operator:short": "USPS", "operator:type": "public", "operator:wikidata": "Q668687", "ref": "2796500004"}, "type": "Feature"}
{"geometry": {"coordinates": [-75.858884306, 36.162244802], "type": "Point"}, "id": "WWa0OEUCVsdAo3S0U1ZcUS0Ew_8=", "properties": {"@source_uri": "https://tools.usps.com/UspsToolsRestServices/rest/POLocator/findLocations", "@spider": "usps_collection_boxes", "addr:city": "POWELLS POINT", "addr:country": "US", "addr:postcode": "27966", "addr:state": "NC", "addr:street_address": "7664 CARATOKE HWY", "amenity": "post_box", "collection_times": "Mo-Fr 15:30; Sa 11:30", "note": "ON 12/24 AND 12/31, THIS BOX MAY BE COLLECTED AS EARLY AS 12 NOON.", "nsi_id": "unitedstatespostalservice-a77078", "operator": "United States Postal Service", "operator:short": "USPS", "operator:type": "public", "operator:wikidata": "Q668687", "ref": "2796600001"}, "type": "Feature"}
{"geometry": {"coordinates": [-75.858884306, 36.162244802], "type": "Point"}, "id": "lqIz1aG40gStMjjCGOObNhRkQpA=", "properties": {"@source_uri": "https://tools.usps.com/UspsToolsRestServices/rest/POLocator/findLocations", "@spider": "usps_collection_boxes", "addr:city": "POWELLS POINT", "addr:country": "US", "addr:postcode": "27966", "addr:state": "NC", "addr:street_address": "7664 CARATOKE HWY", "amenity": "post_box", "collection_times": "Mo-Fr 15:30; Sa 11:30", "indoor": "yes", "note": "ON 12/24 AND 12/31, THIS BOX MAY BE COLLECTED AS EARLY AS 12 NOON.", "nsi_id": "unitedstatespostalservice-a77078", "operator": "United States Postal Service", "operator:short": "USPS", "operator:type": "public", "operator:wikidata": "Q668687", "ref": "2796600002"}, "type": "Feature"}
{"geometry": {"coordinates": [-75.858884306, 36.162244802], "type": "Point"}, "id": "dPuWQn2N734SvuYaILN1dEyseWk=", "properties": {"@source_uri": "https://tools.usps.com/UspsToolsRestServices/rest/POLocator/findLocations", "@spider": "usps_collection_boxes", "addr:city": "POWELLS POINT", "addr:country": "US", "addr:postcode": "27966", "addr:state": "NC", "addr:street_address": "7664 CARATOKE HWY", "amenity": "post_box", "collection_times": "Mo-Fr 15:45; Sa 11:30", "indoor": "yes", "note": "ON 12/24 AND 12/31, THIS BOX MAY BE COLLECTED AS EARLY AS 12 NOON.", "nsi_id": "unitedstatespostalservice-a77078", "operator": "United States Postal Service", "operator:short": "USPS", "operator:type": "public", "operator:wikidata": "Q668687", "ref": "2796600003"}, "type": "Feature"}
{"geometry": {"coordinates": [-76.932029588, 36.22579379], "type": "Point"}, "id": "WozNo93T7HEuyRVJZPHy7mfp57E=", "properties": {"@source_uri": "https://tools.usps.com/UspsToolsRestServices/rest/POLocator/findLocations", "@spider": "usps_collection_boxes", "addr:city": "POWELLSVILLE", "addr:country": "US", "addr:postcode": "27967", "addr:state": "NC", "addr:street_address": "103 BETHLEHEM CHURCH RD", "amenity": "post_box", "collection_times": "Mo-Fr 16:30; Sa 11:30", "note": "ON 12/24 AND 12/31, THIS BOX MAY BE COLLECTED AS EARLY AS 12 NOON.", "nsi_id": "unitedstatespostalservice-a77078", "operator": "United States Postal Service", "operator:short": "USPS", "operator:type": "public", "operator:wikidata": "Q668687", "ref": "2796700001"}, "type": "Feature"}
{"geometry": {"coordinates": [-76.932029588, 36.22579379], "type": "Point"}, "id": "2vksAtk0Pebp1V9HvJgAotj-UKM=", "properties": {"@source_uri": "https://tools.usps.com/UspsToolsRestServices/rest/POLocator/findLocations", "@spider": "usps_collection_boxes", "addr:city": "POWELLSVILLE", "addr:country": "US", "addr:postcode": "27967", "addr:state": "NC", "addr:street_address": "103 BETHLEHEM CHURCH RD", "amenity": "post_box", "collection_times": "Mo-Fr 16:30; Sa 11:30", "indoor": "yes", "note": "ON 12/24 AND 12/31, THIS BOX MAY BE COLLECTED AS EARLY AS 12 NOON.", "nsi_id": "unitedstatespostalservice-a77078", "operator": "United States Postal Service", "operator:short": "USPS", "operator:type": "public", "operator:wikidata": "Q668687", "ref": "2796700002"}, "type": "Feature"}
{"geometry": {"coordinates": [-76.932029588, 36.22579379], "type": "Point"}, "id": "pH4S7LBH4BL48AlDOOb74Ztk28o=", "properties": {"@source_uri": "https://tools.usps.com/UspsToolsRestServices/rest/POLocator/findLocations", "@spider": "usps_collection_boxes", "addr:city": "POWELLSVILLE", "addr:country": "US", "addr:postcode": "27967", "addr:state": "NC", "addr:street_address": "103 BETHLEHEM CHURCH RD", "amenity": "post_box", "collection_times": "Mo-Fr 16:30; Sa 11:30", "indoor": "yes", "note": "ON 12/24 AND 12/31, THIS BOX MAY BE COLLECTED AS EARLY AS 12 NOON.", "nsi_id": "unitedstatespostalservice-a77078", "operator": "United States Postal Service", "operator:short": "USPS", "operator:type": "public", "operator:wikidata": "Q668687", "ref": "2796700003"}, "type": "Feature"}
{"geometry": {"coordinates": [-75.4683380087, 35.5623170154], "type": "Point"}, "id": "DzCSY8r1D2nVn0fToHwuDoIffew=", "properties": {"@source_uri": "https://tools.usps.com/UspsToolsRestServices/rest/POLocator/findLocations", "@spider": "usps_collection_boxes", "addr:city": "RODANTHE", "addr:country": "US", "addr:postcode": "27968", "addr:state": "NC", "addr:street_address": "25969 NC HIGHWAY 12", "amenity": "post_box", "collection_times": "Mo-Fr 15:00; Sa 11:30", "indoor": "yes", "note": "ON 12/24 AND 12/31, THIS BOX MAY BE COLLECTED AS EARLY AS 12 NOON.", "nsi_id": "unitedstatespostalservice-a77078", "operator": "United States Postal Service", "operator:short": "USPS", "operator:type": "public", "operator:wikidata": "Q668687", "ref": "2796800002"}, "type": "Feature"}
{"geometry": {"coordinates": [-75.4683380087, 35.5623170154], "type": "Point"}, "id": "ogq1K4bf8ni79o7VubIZrNdqKP4=", "properties": {"@source_uri": "https://tools.usps.com/UspsToolsRestServices/rest/POLocator/findLocations", "@spider": "usps_collection_boxes", "addr:city": "RODANTHE", "addr:country": "US", "addr:postcode": "27968", "addr:state": "NC", "addr:street_address": "25969 NC HIGHWAY 12", "amenity": "post_box", "collection_times": "Mo-Fr 15:45; Sa 12:00", "indoor": "yes", "note": "ON 12/24 AND 12/31, THIS BOX MAY BE COLLECTED AS EARLY AS 12 NOON.", "nsi_id": "unitedstatespostalservice-a77078", "operator": "United States Postal Service", "operator:short": "USPS", "operator:type": "public", "operator:wikidata": "Q668687", "ref": "2796800004"}, "type": "Feature"}
{"geometry": {"coordinates": [-76.813921767, 36.462978349], "type": "Point"}, "id": "NTsNulIGop46qfUxPLhwOyzJsMs=", "properties": {"@source_uri": "https://tools.usps.com/UspsToolsRestServices/rest/POLocator/findLocations", "@spider": "usps_collection_boxes", "addr:city": "RODUCO", "addr:country": "US", "addr:postcode": "27969", "addr:state": "NC", "addr:street_address": "1453 US HIGHWAY 158 W", "amenity": "post_box", "collection_times": "Mo-Fr 14:15; Sa 09:45", "note": "ON 12/24 AND 12/31, THIS BOX MAY BE COLLECTED AS EARLY AS 12 NOON.", "nsi_id": "unitedstatespostalservice-a77078", "operator": "United States Postal Service", "operator:short": "USPS", "operator:type": "public", "operator:wikidata": "Q668687", "ref": "2796900001"}, "type": "Feature"}
{"geometry": {"coordinates": [-76.813921767, 36.462978349], "type": "Point"}, "id": "hyzOILCShPz5GY3i_8ywxbxZVpM=", "properties": {"@source_uri": "https://tools.usps.com/UspsToolsRestServices/rest/POLocator/findLocations", "@spider": "usps_collection_boxes", "addr:city": "RODUCO", "addr:country": "US", "addr:postcode": "27969", "addr:state": "NC", "addr:street_address": "1453 US HIGHWAY 158 W", "amenity": "post_box", "collection_times": "Mo-Fr 14:15; Sa 09:45", "indoor": "yes", "note": "ON 12/24 AND 12/31, THIS BOX MAY BE COLLECTED AS EARLY AS 12 NOON.", "nsi_id": "unitedstatespostalservice-a77078", "operator": "United States Postal Service", "operator:short": "USPS", "operator:type": "public", "operator:wikidata": "Q668687", "ref": "2796900002"}, "type": "Feature"}
{"geometry": {"coordinates": [-76.813921767, 36.462978349], "type": "Point"}, "id": "VID5PfNNn5qza-ovQmOdPshDSJg=", "properties": {"@source_uri": "https://tools.usps.com/UspsToolsRestServices/rest/POLocator/findLocations", "@spider": "usps_collection_boxes", "addr:city": "RODUCO", "addr:country": "US", "addr:postcode": "27969", "addr:state": "NC", "addr:street_address": "1453 US HIGHWAY 158 W", "amenity": "post_box", "collection_times": "Mo-Fr 15:00; Sa 10:00", "indoor": "yes", "note": "ON 12/24 AND 12/31, THIS BOX MAY BE COLLECTED AS EARLY AS 12 NOON.", "nsi_id": "unitedstatespostalservice-a77078", "operator": "United States Postal Service", "operator:short": "USPS", "operator:type": "public", "operator:wikidata": "Q668687", "ref": "2796900003"}, "type": "Feature"}
{"geometry": {"coordinates": [-76.660491978, 35.876360301], "type": "Point"}, "id": "rAal52Vkt9Egwjx6hHD6c7jLjlE=", "properties": {"@source_uri": "https://tools.usps.com/UspsToolsRestServices/rest/POLocator/findLocations", "@spider": "usps_collection_boxes", "addr:city": "ROPER", "addr:country": "US", "addr:postcode": "27970", "addr:state": "NC", "addr:street_address": "101 W HIGHWAY 64 BYP", "amenity": "post_box", "collection_times": "Mo-Fr 16:30; Sa 11:30", "indoor": "yes", "note": "ON 12/24 AND 12/31, THIS BOX MAY BE COLLECTED AS EARLY AS 12 NOON.", "nsi_id": "unitedstatespostalservice-a77078", "operator": "United States Postal Service", "operator:short": "USPS", "operator:type": "public", "operator:wikidata": "Q668687", "ref": "2797000001"}, "type": "Feature"}
{"geometry": {"coordinates": [-76.660491978, 35.876360301], "type": "Point"}, "id": "yfD9M-9WR_qG4p3vRtaLrMn7IQk=", "properties": {"@source_uri": "https://tools.usps.com/UspsToolsRestServices/rest/POLocator/findLocations", "@spider": "usps_collection_boxes", "addr:city": "ROPER", "addr:country": "US", "addr:postcode": "27970", "addr:state": "NC", "addr:street_address": "101 W HIGHWAY 64 BYP", "amenity": "post_box", "collection_times": "Mo-Fr 16:30; Sa 11:30", "note": "ON 12/24 AND 12/31, THIS BOX MAY BE COLLECTED AS EARLY AS 12 NOON.", "nsi_id": "unitedstatespostalservice-a77078", "operator": "United States Postal Service", "operator:short": "USPS", "operator:type": "public", "operator:wikidata": "Q668687", "ref": "2797000002"}, "type": "Feature"}
{"geometry": {"coordinates": [-76.660491978, 35.876360301], "type": "Point"}, "id": "Ha-JjIyV14H7TVeaFDTVMfrXdwg=", "properties": {"@source_uri": "https://tools.usps.com/UspsToolsRestServices/rest/POLocator/findLocations", "@spider": "usps_collection_boxes", "addr:city": "ROPER", "addr:country": "US", "addr:postcode": "27970", "addr:state": "NC", "addr:street_address": "101 W HIGHWAY 64 BYP", "amenity": "post_box", "collection_times": "Mo-Fr 16:45; Sa 11:30", "indoor": "yes", "note": "ON 12/24 AND 12/31, THIS BOX MAY BE COLLECTED AS EARLY AS 12 NOON.", "nsi_id": "unitedstatespostalservice-a77078", "operator": "United States Postal Service", "operator:short": "USPS", "operator:type": "public", "operator:wikidata": "Q668687", "ref": "2797000003"}, "type": "Feature"}
{"geometry": {"coordinates": [-76.093045006, 36.408094511], "type": "Point"}, "id": "lgtVvyhiSFy8Mc14BoUuBytj5XI=", "properties": {"@source_uri": "https://tools.usps.com/UspsToolsRestServices/rest/POLocator/findLocations", "@spider": "usps_collection_boxes", "addr:city": "SHAWBORO", "addr:country": "US", "addr:postcode": "27973", "addr:state": "NC", "addr:street_address": "814 SHAWBORO RD", "amenity": "post_box", "collection_times": "Mo-Fr 15:30; Sa 11:30", "note": "ON 12/24 AND 12/31, THIS BOX MAY BE COLLECTED AS EARLY AS 12 NOON.", "nsi_id": "unitedstatespostalservice-a77078", "operator": "United States Postal Service", "operator:short": "USPS", "operator:type": "public", "operator:wikidata": "Q668687", "ref": "2797300001"}, "type": "Feature"}
{"geometry": {"coordinates": [-76.093045006, 36.408103511], "type": "Point"}, "id": "wPXWFH0290OROk4z3TFI7MwlDRE=", "properties": {"@source_uri": "https://tools.usps.com/UspsToolsRestServices/rest/POLocator/findLocations", "@spider": "usps_collection_boxes", "addr:city": "SHAWBORO", "addr:country": "US", "addr:postcode": "27973", "addr:state": "NC", "addr:street_address": "814 SHAWBORO RD", "amenity": "post_box", "collection_times": "Mo-Fr 15:30; Sa 11:30", "indoor": "yes", "note": "ON 12/24 AND 12/31, THIS BOX MAY BE COLLECTED AS EARLY AS 12 NOON.", "nsi_id": "unitedstatespostalservice-a77078", "operator": "United States Postal Service", "operator:short": "USPS", "operator:type": "public", "operator:wikidata": "Q668687", "ref": "2797300002"}, "type": "Feature"}
{"geometry": {"coordinates": [-76.093045006, 36.408103511], "type": "Point"}, "id": "Q6gAGff97oim1FMcNHxXDEY74vU=", "properties": {"@source_uri": "https://tools.usps.com/UspsToolsRestServices/rest/POLocator/findLocations", "@spider": "usps_collection_boxes", "addr:city": "SHAWBORO", "addr:country": "US", "addr:postcode": "27973", "addr:state": "NC", "addr:street_address": "814 SHAWBORO RD", "amenity": "post_box", "collection_times": "Mo-Fr 16:00; Sa 11:30", "indoor": "yes", "note": "ON 12/24 AND 12/31, THIS BOX MAY BE COLLECTED AS EARLY AS 12 NOON.", "nsi_id": "unitedstatespostalservice-a77078", "operator": "United States Postal Service", "operator:short": "USPS", "operator:type": "public", "operator:wikidata": "Q668687", "ref": "2797300003"}, "type": "Feature"}
{"geometry": {"coordinates": [-76.08549092, 36.273324003], "type": "Point"}, "id": "0mcO_0vHRx6p6XKwTSWHTbuLxw0=", "properties": {"@source_uri": "https://tools.usps.com/UspsToolsRestServices/rest/POLocator/findLocations", "@spider": "usps_collection_boxes", "addr:city": "SHILOH", "addr:country": "US", "addr:postcode": "27974", "addr:state": "NC", "addr:street_address": "928 NC HIGHWAY 343 S", "amenity": "post_box", "collection_times": "Mo-Fr 15:45; Sa 12:00", "note": "ON 12/24 AND 12/31, THIS BOX MAY BE COLLECTED AS EARLY AS 12 NOON.", "nsi_id": "unitedstatespostalservice-a77078", "operator": "United States Postal Service", "operator:short": "USPS", "operator:type": "public", "operator:wikidata": "Q668687", "ref": "2797400001"}, "type": "Feature"}
{"geometry": {"coordinates": [-76.085488917, 36.27333957], "type": "Point"}, "id": "16bQ0l-MNZ2BfqxyW0ly57K4u2w=", "properties": {"@source_uri": "https://tools.usps.com/UspsToolsRestServices/rest/POLocator/findLocations", "@spider": "usps_collection_boxes", "addr:city": "SHILOH", "addr:country": "US", "addr:postcode": "27974", "addr:state": "NC", "addr:street_address": "928 NC HIGHWAY 343 S", "amenity": "post_box", "collection_times": "Mo-Fr 16:00; Sa 12:15", "indoor": "yes", "note": "ON 12/24 AND 12/31, THIS BOX MAY BE COLLECTED AS EARLY AS 12 NOON.", "nsi_id": "unitedstatespostalservice-a77078", "operator": "United States Postal Service", "operator:short": "USPS", "operator:type": "public", "operator:wikidata": "Q668687", "ref": "2797400002"}, "type": "Feature"}
{"geometry": {"coordinates": [-76.32956084, 36.445177301], "type": "Point"}, "id": "v4CSxZdet0ccE-KSdMNnOIc1xqs=", "properties": {"@source_uri": "https://tools.usps.com/UspsToolsRestServices/rest/POLocator/findLocations", "@spider": "usps_collection_boxes", "addr:city": "SOUTH MILLS", "addr:country": "US", "addr:postcode": "27976", "addr:state": "NC", "addr:street_address": "215 MAIN ST", "amenity": "post_box", "collection_times": "Mo-Fr 16:30; Sa 11:00", "note": "ON 12/24 AND 12/31, THIS BOX MAY BE COLLECTED AS EARLY AS 12 NOON.", "nsi_id": "unitedstatespostalservice-a77078", "operator": "United States Postal Service", "operator:short": "USPS", "operator:type": "public", "operator:wikidata": "Q668687", "ref": "2797600001"}, "type": "Feature"}
{"geometry": {"coordinates": [-76.32956084, 36.445177301], "type": "Point"}, "id": "DI-rLpsVD1HPkisSZrVjG5kknU0=", "properties": {"@source_uri": "https://tools.usps.com/UspsToolsRestServices/rest/POLocator/findLocations", "@spider": "usps_collection_boxes", "addr:city": "SOUTH MILLS", "addr:country": "US", "addr:postcode": "27976", "addr:state": "NC", "addr:street_address": "215 MAIN ST", "amenity": "post_box", "collection_times": "Mo-Fr 16:30; Sa 11:00", "indoor": "yes", "note": "ON 12/24 AND 12/31, THIS BOX MAY BE COLLECTED AS EARLY AS 12 NOON.", "nsi_id": "unitedstatespostalservice-a77078", "operator": "United States Postal Service", "operator:short": "USPS", "operator:type": "public", "operator:wikidata": "Q668687", "ref": "2797600002"}, "type": "Feature"}
{"geometry": {"coordinates": [-76.3291299605, 36.4450879937], "type": "Point"}, "id": "ZCY9kJNxVkG7FSwa26VcqHOTrJ0=", "properties": {"@source_uri": "https://tools.usps.com/UspsToolsRestServices/rest/POLocator/findLocations", "@spider": "usps_collection_boxes", "addr:city": "SOUTH MILLS", "addr:country": "US", "addr:postcode": "27976", "addr:state": "NC", "addr:street_address": "215 MAIN ST", "amenity": "post_box", "collection_times": "Mo-Fr 16:15", "indoor": "yes", "note": "ON 12/24 AND 12/31, THIS BOX MAY BE COLLECTED AS EARLY AS 12 NOON.", "nsi_id": "unitedstatespostalservice-a77078", "operator": "United States Postal Service", "operator:short": "USPS", "operator:type": "public", "operator:wikidata": "Q668687", "ref": "2797600003"}, "type": "Feature"}
{"geometry": {"coordinates": [-76.612608081, 36.441273454], "type": "Point"}, "id": "vbHa1m--Xe18aZlt50J3z2-gPes=", "properties": {"@source_uri": "https://tools.usps.com/UspsToolsRestServices/rest/POLocator/findLocations", "@spider": "usps_collection_boxes", "addr:city": "SUNBURY", "addr:country": "US", "addr:postcode": "27979", "addr:state": "NC", "addr:street_address": "990 US HIGHWAY 158 E", "amenity": "post_box", "collection_times": "Mo-Fr 16:00; Sa 11:30", "note": "ON 12/24 AND 12/31, THIS BOX MAY BE COLLECTED AS EARLY AS 12 NOON.", "nsi_id": "unitedstatespostalservice-a77078", "operator": "United States Postal Service", "operator:short": "USPS", "operator:type": "public", "operator:wikidata": "Q668687", "ref": "2797900001"}, "type": "Feature"}
{"geometry": {"coordinates": [-76.612608081, 36.441273454], "type": "Point"}, "id": "oX_UUOmXho8ipZRL9tx4dk8eBMY=", "properties": {"@source_uri": "https://tools.usps.com/UspsToolsRestServices/rest/POLocator/findLocations", "@spider": "usps_collection_boxes", "addr:city": "SUNBURY", "addr:country": "US", "addr:postcode": "27979", "addr:state": "NC", "addr:street_address": "990 US HIGHWAY 158 E", "amenity": "post_box", "collection_times": "Mo-Fr 16:00; Sa 11:30", "indoor": "yes", "note": "ON 12/24 AND 12/31, THIS BOX MAY BE COLLECTED AS EARLY AS 12 NOON.", "nsi_id": "unitedstatespostalservice-a77078", "operator": "United States Postal Service", "operator:short": "USPS", "operator:type": "public", "operator:wikidata": "Q668687", "ref": "2797900002"}, "type": "Feature"}
{"geometry": {"coordinates": [-76.612608081, 36.441273454], "type": "Point"}, "id": "F_A5-CkmElrsxqi7VeA_5UBq_8U=", "properties": {"@source_uri": "https://tools.usps.com/UspsToolsRestServices/rest/POLocator/findLocations", "@spider": "usps_collection_boxes", "addr:city": "SUNBURY", "addr:country": "US", "addr:postcode": "27979", "addr:state": "NC", "addr:street_address": "990 US HIGHWAY 158 E", "amenity": "post_box", "collection_times": "Mo-Fr 16:00; Sa 11:30", "indoor": "yes", "note": "ON 12/24 AND 12/31, THIS BOX MAY BE COLLECTED AS EARLY AS 12 NOON.", "nsi_id": "unitedstatespostalservice-a77078", "operator": "United States Postal Service", "operator:short": "USPS", "operator:type": "public", "operator:wikidata": "Q668687", "ref": "2797900003"}, "type": "Feature"}
{"geometry": {"coordinates": [-76.61093125, 36.214862503], "type": "Point"}, "id": "IHbEQdGXLH3nfFMG5NZLg9Z2x38=", "properties": {"@source_uri": "https://tools.usps.com/UspsToolsRestServices/rest/POLocator/findLocations", "@spider": "usps_collection_boxes", "addr:city": "TYNER", "addr:country": "US", "addr:postcode": "27980", "addr:state": "NC", "addr:street_address": "630 CENTER HILL RD", "amenity": "post_box", "collection_times": "Mo-Fr 16:30; Sa 11:00", "indoor": "yes", "note": "ON 12/24 AND 12/31, THIS BOX MAY BE COLLECTED AS EARLY AS 12 NOON.", "nsi_id": "unitedstatespostalservice-a77078", "operator": "United States Postal Service", "operator:short": "USPS", "operator:type": "public", "operator:wikidata": "Q668687", "ref": "2798000001"}, "type": "Feature"}
{"geometry": {"coordinates": [-76.61093125, 36.214862503], "type": "Point"}, "id": "S7rfZZvsh_0jgX-MRU5ofesvclI=", "properties": {"@source_uri": "https://tools.usps.com/UspsToolsRestServices/rest/POLocator/findLocations", "@spider": "usps_collection_boxes", "addr:city": "TYNER", "addr:country": "US", "addr:postcode": "27980", "addr:state": "NC", "addr:street_address": "630 CENTER HILL RD", "amenity": "post_box", "collection_times": "Mo-Fr 16:30; Sa 11:00", "note": "ON 12/24 AND 12/31, THIS BOX MAY BE COLLECTED AS EARLY AS 12 NOON.", "nsi_id": "unitedstatespostalservice-a77078", "operator": "United States Postal Service", "operator:short": "USPS", "operator:type": "public", "operator:wikidata": "Q668687", "ref": "2798000002"}, "type": "Feature"}
{"geometry": {"coordinates": [-76.61093125, 36.214862503], "type": "Point"}, "id": "TBFaB1sUZZSI3VX4ejgrK2zm0Co=", "properties": {"@source_uri": "https://tools.usps.com/UspsToolsRestServices/rest/POLocator/findLocations", "@spider": "usps_collection_boxes", "addr:city": "TYNER", "addr:country": "US", "addr:postcode": "27980", "addr:state": "NC", "addr:street_address": "630 CENTER HILL RD", "amenity": "post_box", "collection_times": "Mo-Fr 16:30; Sa 11:00", "indoor": "yes", "note": "ON 12/24 AND 12/31, THIS BOX MAY BE COLLECTED AS EARLY AS 12 NOON.", "nsi_id": "unitedstatespostalservice-a77078", "operator": "United States Postal Service", "operator:short": "USPS", "operator:type": "public", "operator:wikidata": "Q668687", "ref": "2798000003"}, "type": "Feature"}
{"geometry": {"coordinates": [-75.637571105, 35.846051383], "type": "Point"}, "id": "MGpOY_UiMt_ww3FXx_o_xVDViKA=", "properties": {"@source_uri": "https://tools.usps.com/UspsToolsRestServices/rest/POLocator/findLocations", "@spider": "usps_collection_boxes", "addr:city": "WANCHESE", "addr:country": "US", "addr:postcode": "27981", "addr:state": "NC", "addr:street_address": "3525 MILL LANDING RD", "amenity": "post_box", "collection_times": "Mo-Fr 16:15; Sa 11:30", "indoor": "yes", "note": "ON 12/24 AND 12/31, THIS BOX MAY BE COLLECTED AS EARLY AS 12 NOON.", "nsi_id": "unitedstatespostalservice-a77078", "operator": "United States Postal Service", "operator:short": "USPS", "operator:type": "public", "operator:wikidata": "Q668687", "ref": "2798100002"}, "type": "Feature"}
{"geometry": {"coordinates": [-75.637571105, 35.846051383], "type": "Point"}, "id": "gpCKJyN73q4mp34BaEMdgspPLk0=", "properties": {"@source_uri": "https://tools.usps.com/UspsToolsRestServices/rest/POLocator/findLocations", "@spider": "usps_collection_boxes", "addr:city": "WANCHESE", "addr:country": "US", "addr:postcode": "27981", "addr:state": "NC", "addr:street_address": "3525 MILL LANDING RD", "amenity": "post_box", "collection_times": "Mo-Fr 16:15; Sa 11:30", "note": "ON 12/24 AND 12/31, THIS BOX MAY BE COLLECTED AS EARLY AS 12 NOON.", "nsi_id": "unitedstatespostalservice-a77078", "operator": "United States Postal Service", "operator:short": "USPS", "operator:type": "public", "operator:wikidata": "Q668687", "ref": "2798100003"}, "type": "Feature"}
{"geometry": {"coordinates": [-75.637571105, 35.846051383], "type": "Point"}, "id": "5pu8Q3lFBcIeyTJ0DWHy6_05yIg=", "properties": {"@source_uri": "https://tools.usps.com/UspsToolsRestServices/rest/POLocator/findLocations", "@spider": "usps_collection_boxes", "addr:city": "WANCHESE", "addr:country": "US", "addr:postcode": "27981", "addr:state": "NC", "addr:street_address": "3525 MILL LANDING RD", "amenity": "post_box", "collection_times": "Mo-Fr 16:30; Sa 11:30", "indoor": "yes", "note": "ON 12/24 AND 12/31, THIS BOX MAY BE COLLECTED AS EARLY AS 12 NOON.", "nsi_id": "unitedstatespostalservice-a77078", "operator": "United States Postal Service", "operator:short": "USPS", "operator:type": "public", "operator:wikidata": "Q668687", "ref": "2798100004"}, "type": "Feature"}
{"geometry": {"coordinates": [-76.947015375, 35.999023401], "type": "Point"}, "id": "rsIVjAVL94ZunljpZNQ1j3padrw=", "properties": {"@source_uri": "https://tools.usps.com/UspsToolsRestServices/rest/POLocator/findLocations", "@spider": "usps_collection_boxes", "addr:city": "WINDSOR", "addr:country": "US", "addr:postcode": "27983", "addr:state": "NC", "addr:street_address": "130 N KING ST", "amenity": "post_box", "collection_times": "Mo-Fr 16:45; Sa 15:00", "note": "ON 12/24 AND 12/31, THIS BOX MAY BE COLLECTED AS EARLY AS 12 NOON.", "nsi_id": "unitedstatespostalservice-a77078", "operator": "United States Postal Service", "operator:short": "USPS", "operator:type": "public", "operator:wikidata": "Q668687", "ref": "2798300003"}, "type": "Feature"}
{"geometry": {"coordinates": [-76.947015375, 35.999023401], "type": "Point"}, "id": "ChhASIzGIEWEt30x7wtH4_yL1IE=", "properties": {"@source_uri": "https://tools.usps.com/UspsToolsRestServices/rest/POLocator/findLocations", "@spider": "usps_collection_boxes", "addr:city": "WINDSOR", "addr:country": "US", "addr:postcode": "27983", "addr:state": "NC", "addr:street_address": "130 N KING ST", "amenity": "post_box", "collection_times": "Mo-Fr 16:45; Sa 15:00", "indoor": "yes", "note": "ON 12/24 AND 12/31, THIS BOX MAY BE COLLECTED AS EARLY AS 12 NOON.", "nsi_id": "unitedstatespostalservice-a77078", "operator": "United States Postal Service", "operator:short": "USPS", "operator:type": "public", "operator:wikidata": "Q668687", "ref": "2798300011"}, "type": "Feature"}
{"geometry": {"coordinates": [-76.947015375, 35.999023401], "type": "Point"}, "id": "vde1wlSCe-n5nkZ7RAzNwt7pmDs=", "properties": {"@source_uri": "https://tools.usps.com/UspsToolsRestServices/rest/POLocator/findLocations", "@spider": "usps_collection_boxes", "addr:city": "WINDSOR", "addr:country": "US", "addr:postcode": "27983", "addr:state": "NC", "addr:street_address": "130 N KING ST", "amenity": "post_box", "collection_times": "Mo-Fr 17:00", "indoor": "yes", "note": "ON 12/24 AND 12/31, THIS BOX MAY BE COLLECTED AS EARLY AS 12 NOON.", "nsi_id": "unitedstatespostalservice-a77078", "operator": "United States Postal Service", "operator:short": "USPS", "operator:type": "public", "operator:wikidata": "Q668687", "ref": "2798300015"}, "type": "Feature"}
{"geometry": {"coordinates": [-76.463618914, 36.21933003], "type": "Point"}, "id": "ULPAuYBDAOkGfz2hBZmFUPK5eng=", "properties": {"@source_uri": "https://tools.usps.com/UspsToolsRestServices/rest/POLocator/findLocations", "@spider": "usps_collection_boxes", "addr:city": "WINFALL", "addr:country": "US", "addr:postcode": "27985", "addr:state": "NC", "addr:street_address": "317 MAIN ST", "amenity": "post_box", "collection_times": "Mo-Fr 16:45; Sa 10:30", "note": "ON 12/24 AND 12/31, THIS BOX MAY BE COLLECTED AS EARLY AS 12 NOON.", "nsi_id": "unitedstatespostalservice-a77078", "operator": "United States Postal Service", "operator:short": "USPS", "operator:type": "public", "operator:wikidata": "Q668687", "ref": "2798500003"}, "type": "Feature"}
{"geometry": {"coordinates": [-76.463618914, 36.21933003], "type": "Point"}, "id": "2LMTJAWVKhtl0u__KA4J_M-t6Jg=", "properties": {"@source_uri": "https://tools.usps.com/UspsToolsRestServices/rest/POLocator/findLocations", "@spider": "usps_collection_boxes", "addr:city": "WINFALL", "addr:country": "US", "addr:postcode": "27985", "addr:state": "NC", "addr:street_address": "317 MAIN ST", "amenity": "post_box", "collection_times": "Mo-Fr 17:00; Sa 10:30", "indoor": "yes", "note": "ON 12/24 AND 12/31, THIS BOX MAY BE COLLECTED AS EARLY AS 12 NOON.", "nsi_id": "unitedstatespostalservice-a77078", "operator": "United States Postal Service", "operator:short": "USPS", "operator:type": "public", "operator:wikidata": "Q668687", "ref": "2798500004"}, "type": "Feature"}
{"geometry": {"coordinates": [-76.933644616, 36.393953859], "type": "Point"}, "id": "D7JtO2J57vg-fIidsIXq7WPEMJo=", "properties": {"@source_uri": "https://tools.usps.com/UspsToolsRestServices/rest/POLocator/findLocations", "@spider": "usps_collection_boxes", "addr:city": "WINTON", "addr:country": "US", "addr:postcode": "27986", "addr:state": "NC", "addr:street_address": "406 N MAIN ST", "amenity": "post_box", "collection_times": "Mo-Fr 16:45; Sa 12:00", "note": "ON 12/24 AND 12/31, THIS BOX MAY BE COLLECTED AS EARLY AS 12 NOON.", "nsi_id": "unitedstatespostalservice-a77078", "operator": "United States Postal Service", "operator:short": "USPS", "operator:type": "public", "operator:wikidata": "Q668687", "ref": "2798600001"}, "type": "Feature"}
{"geometry": {"coordinates": [-76.933644616, 36.393953859], "type": "Point"}, "id": "UZKQ7YnZ2XH9ocP88ovqSHQU8QI=", "properties": {"@source_uri": "https://tools.usps.com/UspsToolsRestServices/rest/POLocator/findLocations", "@spider": "usps_collection_boxes", "addr:city": "WINTON", "addr:country": "US", "addr:postcode": "27986", "addr:state": "NC", "addr:street_address": "406 N MAIN ST", "amenity": "post_box", "collection_times": "Mo-Fr 16:45; Sa 12:00", "indoor": "yes", "note": "ON 12/24 AND 12/31, THIS BOX MAY BE COLLECTED AS EARLY AS 12 NOON.", "nsi_id": "unitedstatespostalservice-a77078", "operator": "United States Postal Service", "operator:short": "USPS", "operator:type": "public", "operator:wikidata": "Q668687", "ref": "2798600002"}, "type": "Feature"}
{"geometry": {"coordinates": [-76.933644616, 36.393953859], "type": "Point"}, "id": "F5mZOAbm1fbduZyYGtbE82H26VM=", "properties": {"@source_uri": "https://tools.usps.com/UspsToolsRestServices/rest/POLocator/findLocations", "@spider": "usps_collection_boxes", "addr:city": "WINTON", "addr:country": "US", "addr:postcode": "27986", "addr:state": "NC", "addr:street_address": "406 N MAIN ST", "amenity": "post_box", "collection_times": "Mo-Fr 16:45", "indoor": "yes", "note": "ON 12/24 AND 12/31, THIS BOX MAY BE COLLECTED AS EARLY AS 12 NOON.", "nsi_id": "unitedstatespostalservice-a77078", "operator": "United States Postal Service", "operator:short": "USPS", "operator:type": "public", "operator:wikidata": "Q668687", "ref": "2798600003"}, "type": "Feature"}
