{"dataset_attributes": {"@spider": "usps_collection_boxes"}, "geometry": {"coordinates": [-77.948909517, 34.237231732], "type": "Point"}, "id": "B-Aw_0OC6tQi-0sg34e4kuZXZF4=", "properties": {"@spider": "usps_collection_boxes", "addr:city": "WILMINGTON", "addr:country": "US", "addr:full": "152 N FRONT ST", "addr:postcode": "28401", "addr:state": "NC", "amenity": "post_box", "brand": "United States Postal Service", "brand:wikidata": "Q668687", "collection_times": "Mo-Sa 17:00", "name": "USPS COLLECTION BOX - BLUE BOX", "note": "ON 12/24 AND 12/31, THIS BOX MAY BE COLLECTED AS EARLY AS 12 NOON.", "nsi_id": "unitedstatespostalservice-a77078", "operator": "United States Postal Service", "operator:short": "USPS", "operator:type": "public", "operator:wikidata": "Q668687", "ref": "2840100002"}, "type": "Feature"}
{"dataset_attributes": {"@spider": "usps_collection_boxes"}, "geometry": {"coordinates": [-77.937975146, 34.228585114], "type": "Point"}, "id": "BeFniOtXwpjqRCtXaPa-T1GIsew=", "properties": {"@spider": "usps_collection_boxes", "addr:city": "WILMINGTON", "addr:country": "US", "addr:full": "CASTLE ST", "addr:postcode": "28401", "addr:state": "NC", "amenity": "post_box", "brand": "United States Postal Service", "brand:wikidata": "Q668687", "collection_times": "Mo-Sa 11:00", "name": "USPS COLLECTION BOX - BLUE BOX", "nsi_id": "unitedstatespostalservice-a77078", "operator": "United States Postal Service", "operator:short": "USPS", "operator:type": "public", "operator:wikidata": "Q668687", "ref": "2840100030"}, "type": "Feature"}
{"dataset_attributes": {"@spider": "usps_collection_boxes"}, "geometry": {"coordinates": [-77.931190276, 34.200599405], "type": "Point"}, "id": "4LeKJ-l9ufcr0j31sNo_UP9xiG4=", "properties": {"@spider": "usps_collection_boxes", "addr:city": "WILMINGTON", "addr:country": "US", "addr:full": "MEDICAL CENTER DR", "addr:postcode": "28401", "addr:state": "NC", "amenity": "post_box", "brand": "United States Postal Service", "brand:wikidata": "Q668687", "collection_times": "Mo-Sa 13:00", "name": "USPS COLLECTION BOX - BLUE BOX", "note": "ON 12/24 AND 12/31, THIS BOX MAY BE COLLECTED AS EARLY AS 12 NOON.", "nsi_id": "unitedstatespostalservice-a77078", "operator": "United States Postal Service", "operator:short": "USPS", "operator:type": "public", "operator:wikidata": "Q668687", "ref": "2840100035"}, "type": "Feature"}
{"dataset_attributes": {"@spider": "usps_collection_boxes"}, "geometry": {"coordinates": [-77.947979116, 34.196632021], "type": "Point"}, "id": "9oF9RUIXO41AGBKYMHPm8tTapQo=", "properties": {"@spider": "usps_collection_boxes", "addr:city": "WILMINGTON", "addr:country": "US", "addr:full": "2200 BURNETT BLVD", "addr:postcode": "28401", "addr:state": "NC", "amenity": "post_box", "brand": "United States Postal Service", "brand:wikidata": "Q668687", "collection_times": "Mo-Sa 13:00", "name": "USPS COLLECTION BOX - BLUE BOX", "note": "ON 12/24 AND 12/31, THIS BOX MAY BE COLLECTED AS EARLY AS 12 NOON.", "nsi_id": "unitedstatespostalservice-a77078", "operator": "United States Postal Service", "operator:short": "USPS", "operator:type": "public", "operator:wikidata": "Q668687", "ref": "2840100037"}, "type": "Feature"}
{"dataset_attributes": {"@spider": "usps_collection_boxes"}, "geometry": {"coordinates": [-77.938969459, 34.237259253], "type": "Point"}, "id": "5tEZ0V8K3xXKrQEnvW1dJSocac0=", "properties": {"@spider": "usps_collection_boxes", "addr:city": "WILMINGTON", "addr:country": "US", "addr:full": "PRINCESS ST", "addr:postcode": "28401", "addr:state": "NC", "amenity": "post_box", "brand": "United States Postal Service", "brand:wikidata": "Q668687", "collection_times": "Mo-Sa 11:00", "name": "USPS COLLECTION BOX - BLUE BOX", "nsi_id": "unitedstatespostalservice-a77078", "operator": "United States Postal Service", "operator:short": "USPS", "operator:type": "public", "operator:wikidata": "Q668687", "ref": "2840100042"}, "type": "Feature"}
{"dataset_attributes": {"@spider": "usps_collection_boxes"}, "geometry": {"coordinates": [-77.944215867, 34.243103466], "type": "Point"}, "id": "dToXyWKDfYtb9nhyEBdNeSgADLQ=", "properties": {"@spider": "usps_collection_boxes", "addr:city": "WILMINGTON", "addr:country": "US", "addr:full": "N 5TH ST", "addr:postcode": "28401", "addr:state": "NC", "amenity": "post_box", "brand": "United States Postal Service", "brand:wikidata": "Q668687", "collection_times": "Mo-Sa 11:00", "name": "USPS COLLECTION BOX - BLUE BOX", "nsi_id": "unitedstatespostalservice-a77078", "operator": "United States Postal Service", "operator:short": "USPS", "operator:type": "public", "operator:wikidata": "Q668687", "ref": "2840100050"}, "type": "Feature"}
{"dataset_attributes": {"@spider": "usps_collection_boxes"}, "geometry": {"coordinates": [-77.925433255, 34.201811919], "type": "Point"}, "id": "UFNGsWk93sAmcbgixJpx0SHQAZU=", "properties": {"@spider": "usps_collection_boxes", "addr:city": "WILMINGTON", "addr:country": "US", "addr:full": "GLENMEAD RD", "addr:postcode": "28401", "addr:state": "NC", "amenity": "post_box", "brand": "United States Postal Service", "brand:wikidata": "Q668687", "collection_times": "Mo-Sa 13:00", "name": "USPS COLLECTION BOX - BLUE BOX", "note": "ON 12/24 AND 12/31, THIS BOX MAY BE COLLECTED AS EARLY AS 12 NOON.", "nsi_id": "unitedstatespostalservice-a77078", "operator": "United States Postal Service", "operator:short": "USPS", "operator:type": "public", "operator:wikidata": "Q668687", "ref": "2840100062"}, "type": "Feature"}
{"dataset_attributes": {"@spider": "usps_collection_boxes"}, "geometry": {"coordinates": [-77.945840784, 34.237859767], "type": "Point"}, "id": "BqQHSmFZhpo5OpyiJmipS2HMThA=", "properties": {"@spider": "usps_collection_boxes", "addr:city": "WILMINGTON", "addr:country": "US", "addr:full": "335 CHESTNUT ST", "addr:postcode": "28401", "addr:state": "NC", "amenity": "post_box", "brand": "United States Postal Service", "brand:wikidata": "Q668687", "collection_times": "Mo-Sa 11:00", "name": "USPS COLLECTION BOX - BLUE BOX", "nsi_id": "unitedstatespostalservice-a77078", "operator": "United States Postal Service", "operator:short": "USPS", "operator:type": "public", "operator:wikidata": "Q668687", "ref": "2840100089"}, "type": "Feature"}
{"dataset_attributes": {"@spider": "usps_collection_boxes"}, "geometry": {"coordinates": [-77.931315557, 34.23668417], "type": "Point"}, "id": "89yht0gm-prS3kW7pZdd3UfDGZU=", "properties": {"@spider": "usps_collection_boxes", "addr:city": "WILMINGTON", "addr:country": "US", "addr:full": "MARKET ST", "addr:postcode": "28401", "addr:state": "NC", "amenity": "post_box", "brand": "United States Postal Service", "brand:wikidata": "Q668687", "collection_times": "Mo-Sa 11:00", "name": "USPS COLLECTION BOX - BLUE BOX", "nsi_id": "unitedstatespostalservice-a77078", "operator": "United States Postal Service", "operator:short": "USPS", "operator:type": "public", "operator:wikidata": "Q668687", "ref": "2840100093"}, "type": "Feature"}
{"dataset_attributes": {"@spider": "usps_collection_boxes"}, "geometry": {"coordinates": [-77.928408134, 34.198086072], "type": "Point"}, "id": "KCKQ3ylWc1sPWJ1RHqJ0wIwAY-A=", "properties": {"@spider": "usps_collection_boxes", "addr:city": "WILMINGTON", "addr:country": "US", "addr:full": "PHYSICIAN'S DR", "addr:postcode": "28401", "addr:state": "NC", "amenity": "post_box", "brand": "United States Postal Service", "brand:wikidata": "Q668687", "collection_times": "Mo-Sa 13:00", "name": "USPS COLLECTION BOX - BLUE BOX", "note": "ON 12/24 AND 12/31, THIS BOX MAY BE COLLECTED AS EARLY AS 12 NOON.", "nsi_id": "unitedstatespostalservice-a77078", "operator": "United States Postal Service", "operator:short": "USPS", "operator:type": "public", "operator:wikidata": "Q668687", "ref": "2840100095"}, "type": "Feature"}
{"dataset_attributes": {"@spider": "usps_collection_boxes"}, "geometry": {"coordinates": [-77.939752332, 34.191428525], "type": "Point"}, "id": "CA8rHD4EqR01vzwMmNgdbWqtRcw=", "properties": {"@spider": "usps_collection_boxes", "addr:city": "WILMINGTON", "addr:country": "US", "addr:full": "330 SHIPYARD BLVD", "addr:postcode": "28401", "addr:state": "NC", "amenity": "post_box", "brand": "United States Postal Service", "brand:wikidata": "Q668687", "collection_times": "Mo-Sa 13:00", "name": "USPS COLLECTION BOX - BLUE BOX", "note": "ON 12/24 AND 12/31, THIS BOX MAY BE COLLECTED AS EARLY AS 12 NOON.", "nsi_id": "unitedstatespostalservice-a77078", "operator": "United States Postal Service", "operator:short": "USPS", "operator:type": "public", "operator:wikidata": "Q668687", "ref": "2840100108"}, "type": "Feature"}
{"dataset_attributes": {"@spider": "usps_collection_boxes"}, "geometry": {"coordinates": [-77.933440459, 34.189922537], "type": "Point"}, "id": "HVQPzYd6MtvIEpdbwxHBSzK9GII=", "properties": {"@spider": "usps_collection_boxes", "addr:city": "WILMINGTON", "addr:country": "US", "addr:full": "2638 CAROLINA BEACH RD", "addr:postcode": "28401", "addr:state": "NC", "amenity": "post_box", "brand": "United States Postal Service", "brand:wikidata": "Q668687", "collection_times": "Mo-Sa 13:00", "name": "USPS COLLECTION BOX - BLUE BOX", "note": "ON 12/24 AND 12/31, THIS BOX MAY BE COLLECTED AS EARLY AS 12 NOON.", "nsi_id": "unitedstatespostalservice-a77078", "operator": "United States Postal Service", "operator:short": "USPS", "operator:type": "public", "operator:wikidata": "Q668687", "ref": "2840100109"}, "type": "Feature"}
{"dataset_attributes": {"@spider": "usps_collection_boxes"}, "geometry": {"coordinates": [-77.9489095174, 34.2372317319], "type": "Point"}, "id": "V2IGHxPPDJCol8uE0ljuj2ZNXJY=", "properties": {"@spider": "usps_collection_boxes", "addr:city": "WILMINGTON", "addr:country": "US", "addr:full": "152 N FRONT ST", "addr:postcode": "28401", "addr:state": "NC", "amenity": "post_box", "brand": "United States Postal Service", "brand:wikidata": "Q668687", "collection_times": "Mo-Fr 17:00; Sa 12:00", "name": "USPS COLLECTION BOX - PO LOBBY", "note": "ON 12/24 AND 12/31, THIS BOX MAY BE COLLECTED AS EARLY AS 12 NOON.", "nsi_id": "unitedstatespostalservice-a77078", "operator": "United States Postal Service", "operator:short": "USPS", "operator:type": "public", "operator:wikidata": "Q668687", "ref": "2840100112"}, "type": "Feature"}
{"dataset_attributes": {"@spider": "usps_collection_boxes"}, "geometry": {"coordinates": [-77.9489095174, 34.2372317319], "type": "Point"}, "id": "7s48hxUpN19rhmT3_3m51agsoVs=", "properties": {"@spider": "usps_collection_boxes", "addr:city": "WILMINGTON", "addr:country": "US", "addr:full": "152 N FRONT ST", "addr:postcode": "28401", "addr:state": "NC", "amenity": "post_box", "brand": "United States Postal Service", "brand:wikidata": "Q668687", "collection_times": "Mo-Fr 17:00; Sa 12:00", "name": "USPS COLLECTION BOX - PO LOBBY", "note": "ON 12/24 AND 12/31, THIS BOX MAY BE COLLECTED AS EARLY AS 12 NOON.", "nsi_id": "unitedstatespostalservice-a77078", "operator": "United States Postal Service", "operator:short": "USPS", "operator:type": "public", "operator:wikidata": "Q668687", "ref": "2840100113"}, "type": "Feature"}
{"dataset_attributes": {"@spider": "usps_collection_boxes"}, "geometry": {"coordinates": [-77.9489095174, 34.2372317319], "type": "Point"}, "id": "WqI0p6uMAqpOcDXu0Tl73lCri8s=", "properties": {"@spider": "usps_collection_boxes", "addr:city": "WILMINGTON", "addr:country": "US", "addr:full": "152 N FRONT ST", "addr:postcode": "28401", "addr:state": "NC", "amenity": "post_box", "brand": "United States Postal Service", "brand:wikidata": "Q668687", "collection_times": "Mo-Fr 17:00", "name": "USPS COLLECTION BOX - PO LOBBY", "note": "ON 12/24 AND 12/31, THIS BOX MAY BE COLLECTED AS EARLY AS 12 NOON.", "nsi_id": "unitedstatespostalservice-a77078", "operator": "United States Postal Service", "operator:short": "USPS", "operator:type": "public", "operator:wikidata": "Q668687", "ref": "2840100123"}, "type": "Feature"}
{"dataset_attributes": {"@spider": "usps_collection_boxes"}, "geometry": {"coordinates": [-77.905718389, 34.216678585], "type": "Point"}, "id": "t5rTlKUW6O0O9ZwQfFgecPxSg-0=", "properties": {"@spider": "usps_collection_boxes", "addr:city": "WILMINGTON", "addr:country": "US", "addr:full": "3500 OLEANDER DR", "addr:postcode": "28403", "addr:state": "NC", "amenity": "post_box", "brand": "United States Postal Service", "brand:wikidata": "Q668687", "collection_times": "Mo-Sa 11:00", "name": "USPS COLLECTION BOX - BLUE BOX", "nsi_id": "unitedstatespostalservice-a77078", "operator": "United States Postal Service", "operator:short": "USPS", "operator:type": "public", "operator:wikidata": "Q668687", "ref": "2840300018"}, "type": "Feature"}
{"dataset_attributes": {"@spider": "usps_collection_boxes"}, "geometry": {"coordinates": [-77.873528319, 34.235236086], "type": "Point"}, "id": "NeHtOZ_M0ACADpX2MgEaOs3atu8=", "properties": {"@spider": "usps_collection_boxes", "addr:city": "WILMINGTON", "addr:country": "US", "addr:full": "351 S COLLEGE RD", "addr:postcode": "28403", "addr:state": "NC", "amenity": "post_box", "brand": "United States Postal Service", "brand:wikidata": "Q668687", "collection_times": "Mo-Sa 11:00", "name": "USPS COLLECTION BOX - BLUE BOX", "nsi_id": "unitedstatespostalservice-a77078", "operator": "United States Postal Service", "operator:short": "USPS", "operator:type": "public", "operator:wikidata": "Q668687", "ref": "2840300027"}, "type": "Feature"}
{"dataset_attributes": {"@spider": "usps_collection_boxes"}, "geometry": {"coordinates": [-77.876436744, 34.238739854], "type": "Point"}, "id": "vFneVaRBA7A8Au6AX5lxJiTf6_o=", "properties": {"@spider": "usps_collection_boxes", "addr:city": "WILMINGTON", "addr:country": "US", "addr:full": "5051 NEW CENTRE DR", "addr:postcode": "28403", "addr:state": "NC", "amenity": "post_box", "brand": "United States Postal Service", "brand:wikidata": "Q668687", "collection_times": "Mo-Sa 11:00", "name": "USPS COLLECTION BOX - BLUE BOX", "nsi_id": "unitedstatespostalservice-a77078", "operator": "United States Postal Service", "operator:short": "USPS", "operator:type": "public", "operator:wikidata": "Q668687", "ref": "2840300073"}, "type": "Feature"}
{"dataset_attributes": {"@spider": "usps_collection_boxes"}, "geometry": {"coordinates": [-77.849721539, 34.208940559], "type": "Point"}, "id": "qQQqdkFzEF98FY2V_90T-E9Lpf0=", "properties": {"@spider": "usps_collection_boxes", "addr:city": "WILMINGTON", "addr:country": "US", "addr:full": "5710 OLEANDER DR", "addr:postcode": "28403", "addr:state": "NC", "amenity": "post_box", "brand": "United States Postal Service", "brand:wikidata": "Q668687", "collection_times": "Mo-Sa 13:00", "name": "USPS COLLECTION BOX - BLUE BOX", "note": "ON 12/24 AND 12/31, THIS BOX MAY BE COLLECTED AS EARLY AS 12 NOON.", "nsi_id": "unitedstatespostalservice-a77078", "operator": "United States Postal Service", "operator:short": "USPS", "operator:type": "public", "operator:wikidata": "Q668687", "ref": "2840300075"}, "type": "Feature"}
{"dataset_attributes": {"@spider": "usps_collection_boxes"}, "geometry": {"coordinates": [-77.890649516, 34.199204135], "type": "Point"}, "id": "XkspoWKJPBAGNnI0lod0cuzd3bs=", "properties": {"@spider": "usps_collection_boxes", "addr:city": "WILMINGTON", "addr:country": "US", "addr:full": "4400 SHIPYARD BLVD", "addr:postcode": "28403", "addr:state": "NC", "amenity": "post_box", "brand": "United States Postal Service", "brand:wikidata": "Q668687", "collection_times": "Mo-Sa 11:00", "name": "USPS COLLECTION BOX - BLUE BOX", "nsi_id": "unitedstatespostalservice-a77078", "operator": "United States Postal Service", "operator:short": "USPS", "operator:type": "public", "operator:wikidata": "Q668687", "ref": "2840300081"}, "type": "Feature"}
{"dataset_attributes": {"@spider": "usps_collection_boxes"}, "geometry": {"coordinates": [-77.8912660648, 34.1772248453], "type": "Point"}, "id": "uNWJ0GPAkWSwzX-jP6A1wU59Ntg=", "properties": {"@spider": "usps_collection_boxes", "addr:city": "WILMINGTON", "addr:country": "US", "addr:full": "3600 S COLLEGE RD", "addr:postcode": "28403", "addr:state": "NC", "amenity": "post_box", "brand": "United States Postal Service", "brand:wikidata": "Q668687", "collection_times": "Mo-Sa 11:00", "name": "USPS COLLECTION BOX - BLUE BOX", "nsi_id": "unitedstatespostalservice-a77078", "operator": "United States Postal Service", "operator:short": "USPS", "operator:type": "public", "operator:wikidata": "Q668687", "ref": "2840300095"}, "type": "Feature"}
{"dataset_attributes": {"@spider": "usps_collection_boxes"}, "geometry": {"coordinates": [-77.898235042, 34.213209416], "type": "Point"}, "id": "JBL9kPf07iBIQ5vjFJm6Uuu7lW0=", "properties": {"@spider": "usps_collection_boxes", "addr:city": "WILMINGTON", "addr:country": "US", "addr:full": "3916 OLEANDER DR", "addr:postcode": "28403", "addr:state": "NC", "amenity": "post_box", "brand": "United States Postal Service", "brand:wikidata": "Q668687", "collection_times": "Mo-Sa 17:00", "name": "USPS COLLECTION BOX - BLUE BOX", "note": "ON 12/24 AND 12/31, THIS BOX MAY BE COLLECTED AS EARLY AS 12 NOON.", "nsi_id": "unitedstatespostalservice-a77078", "operator": "United States Postal Service", "operator:short": "USPS", "operator:type": "public", "operator:wikidata": "Q668687", "ref": "2840300096"}, "type": "Feature"}
{"dataset_attributes": {"@spider": "usps_collection_boxes"}, "geometry": {"coordinates": [-77.898235042, 34.213209416], "type": "Point"}, "id": "ndlSYkwq2xgN3UflRgXDeaIvbHU=", "properties": {"@spider": "usps_collection_boxes", "addr:city": "WILMINGTON", "addr:country": "US", "addr:full": "3916 OLEANDER DR", "addr:postcode": "28403", "addr:state": "NC", "amenity": "post_box", "brand": "United States Postal Service", "brand:wikidata": "Q668687", "collection_times": "Mo-Fr 17:00; Sa 12:00", "name": "USPS COLLECTION BOX - PO LOBBY", "note": "ON 12/24 AND 12/31, THIS BOX MAY BE COLLECTED AS EARLY AS 12 NOON.", "nsi_id": "unitedstatespostalservice-a77078", "operator": "United States Postal Service", "operator:short": "USPS", "operator:type": "public", "operator:wikidata": "Q668687", "ref": "2840300097"}, "type": "Feature"}
{"dataset_attributes": {"@spider": "usps_collection_boxes"}, "geometry": {"coordinates": [-77.898235042, 34.213209416], "type": "Point"}, "id": "FVWx87_4ZsTFxTOncP92smye9f0=", "properties": {"@spider": "usps_collection_boxes", "addr:city": "WILMINGTON", "addr:country": "US", "addr:full": "3916 OLEANDER DR", "addr:postcode": "28403", "addr:state": "NC", "amenity": "post_box", "brand": "United States Postal Service", "brand:wikidata": "Q668687", "collection_times": "Mo-Fr 17:00; Sa 12:00", "name": "USPS COLLECTION BOX - PO LOBBY", "note": "ON 12/24 AND 12/31, THIS BOX MAY BE COLLECTED AS EARLY AS 12 NOON.", "nsi_id": "unitedstatespostalservice-a77078", "operator": "United States Postal Service", "operator:short": "USPS", "operator:type": "public", "operator:wikidata": "Q668687", "ref": "2840300098"}, "type": "Feature"}
{"dataset_attributes": {"@spider": "usps_collection_boxes"}, "geometry": {"coordinates": [-77.841244822, 34.209604418], "type": "Point"}, "id": "xdkpGHg-YLvQjusHya6ug_FLrm0=", "properties": {"@spider": "usps_collection_boxes", "addr:city": "WILMINGTON", "addr:country": "US", "addr:full": "5917 OLEANDER DR", "addr:postcode": "28403", "addr:state": "NC", "amenity": "post_box", "brand": "United States Postal Service", "brand:wikidata": "Q668687", "collection_times": "Mo-Sa 13:00", "name": "USPS COLLECTION BOX - BLUE BOX", "note": "ON 12/24 AND 12/31, THIS BOX MAY BE COLLECTED AS EARLY AS 12 NOON.", "nsi_id": "unitedstatespostalservice-a77078", "operator": "United States Postal Service", "operator:short": "USPS", "operator:type": "public", "operator:wikidata": "Q668687", "ref": "2840300100"}, "type": "Feature"}
{"dataset_attributes": {"@spider": "usps_collection_boxes"}, "geometry": {"coordinates": [-77.880331576, 34.231713319], "type": "Point"}, "id": "-gIRW1seu3fs0G73Hanu3SfmZew=", "properties": {"@spider": "usps_collection_boxes", "addr:city": "WILMINGTON", "addr:country": "US", "addr:full": "4922 RANDALL PKWY", "addr:postcode": "28403", "addr:state": "NC", "amenity": "post_box", "brand": "United States Postal Service", "brand:wikidata": "Q668687", "collection_times": "Mo-Sa 11:00", "name": "USPS COLLECTION BOX - BLUE BOX", "nsi_id": "unitedstatespostalservice-a77078", "operator": "United States Postal Service", "operator:short": "USPS", "operator:type": "public", "operator:wikidata": "Q668687", "ref": "2840300101"}, "type": "Feature"}
{"dataset_attributes": {"@spider": "usps_collection_boxes"}, "geometry": {"coordinates": [-77.830231808, 34.224186981], "type": "Point"}, "id": "nA3sCFhLMw4_DgpS7f1AFNHJ21s=", "properties": {"@spider": "usps_collection_boxes", "addr:city": "WILMINGTON", "addr:country": "US", "addr:full": "1508 MILITARY CUTOFF RD", "addr:postcode": "28403", "addr:state": "NC", "amenity": "post_box", "brand": "United States Postal Service", "brand:wikidata": "Q668687", "collection_times": "Mo-Sa 13:00", "name": "USPS COLLECTION BOX - BLUE BOX", "note": "ON 12/24 AND 12/31, THIS BOX MAY BE COLLECTED AS EARLY AS 12 NOON.", "nsi_id": "unitedstatespostalservice-a77078", "operator": "United States Postal Service", "operator:short": "USPS", "operator:type": "public", "operator:wikidata": "Q668687", "ref": "2840300102"}, "type": "Feature"}
{"dataset_attributes": {"@spider": "usps_collection_boxes"}, "geometry": {"coordinates": [-77.86587605, 34.239910823], "type": "Point"}, "id": "Ucgu13FdFkDZPmXRKDNzNomP6Kk=", "properties": {"@spider": "usps_collection_boxes", "addr:city": "WILMINGTON", "addr:country": "US", "addr:full": "215 RACINE DR", "addr:postcode": "28403", "addr:state": "NC", "amenity": "post_box", "brand": "United States Postal Service", "brand:wikidata": "Q668687", "collection_times": "Mo-Sa 13:00", "name": "USPS COLLECTION BOX - BLUE BOX", "note": "ON 12/24 AND 12/31, THIS BOX MAY BE COLLECTED AS EARLY AS 12 NOON.", "nsi_id": "unitedstatespostalservice-a77078", "operator": "United States Postal Service", "operator:short": "USPS", "operator:type": "public", "operator:wikidata": "Q668687", "ref": "2840300103"}, "type": "Feature"}
{"dataset_attributes": {"@spider": "usps_collection_boxes"}, "geometry": {"coordinates": [-77.867025577, 34.238168718], "type": "Point"}, "id": "9zLUw25VNubbo29jX8-5umpNjsY=", "properties": {"@spider": "usps_collection_boxes", "addr:city": "WILMINGTON", "addr:country": "US", "addr:full": "265 RACINE DR", "addr:postcode": "28403", "addr:state": "NC", "amenity": "post_box", "brand": "United States Postal Service", "brand:wikidata": "Q668687", "collection_times": "Mo-Sa 13:00", "name": "USPS COLLECTION BOX - BLUE BOX", "note": "ON 12/24 AND 12/31, THIS BOX MAY BE COLLECTED AS EARLY AS 12 NOON.", "nsi_id": "unitedstatespostalservice-a77078", "operator": "United States Postal Service", "operator:short": "USPS", "operator:type": "public", "operator:wikidata": "Q668687", "ref": "2840300104"}, "type": "Feature"}
{"dataset_attributes": {"@spider": "usps_collection_boxes"}, "geometry": {"coordinates": [-77.927881854, 34.211232274], "type": "Point"}, "id": "xsEwI2jYLuT07rVFbgZkeMQMtzo=", "properties": {"@spider": "usps_collection_boxes", "addr:city": "WILMINGTON", "addr:country": "US", "addr:full": "1402 LITTLE JOHN CIR", "addr:postcode": "28403", "addr:state": "NC", "amenity": "post_box", "brand": "United States Postal Service", "brand:wikidata": "Q668687", "collection_times": "Mo-Sa 11:00", "name": "USPS COLLECTION BOX - BLUE BOX", "nsi_id": "unitedstatespostalservice-a77078", "operator": "United States Postal Service", "operator:short": "USPS", "operator:type": "public", "operator:wikidata": "Q668687", "ref": "2840300105"}, "type": "Feature"}
{"dataset_attributes": {"@spider": "usps_collection_boxes"}, "geometry": {"coordinates": [-77.898235042, 34.213209416], "type": "Point"}, "id": "Sjz_VyITgMk-f5Llw_mBGgvA9iQ=", "properties": {"@spider": "usps_collection_boxes", "addr:city": "WILMINGTON", "addr:country": "US", "addr:full": "3916 OLEANDER DR", "addr:postcode": "28403", "addr:state": "NC", "amenity": "post_box", "brand": "United States Postal Service", "brand:wikidata": "Q668687", "collection_times": "Mo-Sa 17:00", "name": "USPS COLLECTION BOX - PO LOBBY", "note": "ON 12/24 AND 12/31, THIS BOX MAY BE COLLECTED AS EARLY AS 12 NOON.", "nsi_id": "unitedstatespostalservice-a77078", "operator": "United States Postal Service", "operator:short": "USPS", "operator:type": "public", "operator:wikidata": "Q668687", "ref": "2840300117"}, "type": "Feature"}
{"dataset_attributes": {"@spider": "usps_collection_boxes"}, "geometry": {"coordinates": [-77.876389482, 34.249971823], "type": "Point"}, "id": "Bze05rLRmNyG5OvdqA-ct2IY9Ww=", "properties": {"@spider": "usps_collection_boxes", "addr:city": "WILMINGTON", "addr:country": "US", "addr:full": "314 LENNON DR", "addr:postcode": "28405", "addr:state": "NC", "amenity": "post_box", "brand": "United States Postal Service", "brand:wikidata": "Q668687", "collection_times": "Mo-Sa 17:00", "name": "USPS COLLECTION BOX - BLUE BOX", "note": "ON 12/24 AND 12/31, THIS BOX MAY BE COLLECTED AS EARLY AS 12 NOON.", "nsi_id": "unitedstatespostalservice-a77078", "operator": "United States Postal Service", "operator:short": "USPS", "operator:type": "public", "operator:wikidata": "Q668687", "ref": "2840500012"}, "type": "Feature"}
{"dataset_attributes": {"@spider": "usps_collection_boxes"}, "geometry": {"coordinates": [-77.843749928, 34.26087949], "type": "Point"}, "id": "-yJVCQUqpPjCDKkbL4O9a0KRkSo=", "properties": {"@spider": "usps_collection_boxes", "addr:city": "WILMINGTON", "addr:country": "US", "addr:full": "315 VAN DYKE DR", "addr:postcode": "28405", "addr:state": "NC", "amenity": "post_box", "brand": "United States Postal Service", "brand:wikidata": "Q668687", "collection_times": "Mo-Sa 13:00", "name": "USPS COLLECTION BOX - BLUE BOX", "note": "ON 12/24 AND 12/31, THIS BOX MAY BE COLLECTED AS EARLY AS 12 NOON.", "nsi_id": "unitedstatespostalservice-a77078", "operator": "United States Postal Service", "operator:short": "USPS", "operator:type": "public", "operator:wikidata": "Q668687", "ref": "2840500017"}, "type": "Feature"}
{"dataset_attributes": {"@spider": "usps_collection_boxes"}, "geometry": {"coordinates": [-77.910576444, 34.267031288], "type": "Point"}, "id": "1JGJiX2MZsqGl5x3vEd0z210EtQ=", "properties": {"@spider": "usps_collection_boxes", "addr:city": "WILMINGTON", "addr:country": "US", "addr:full": "1740 AIRPORT BLVD", "addr:postcode": "28405", "addr:state": "NC", "amenity": "post_box", "brand": "United States Postal Service", "brand:wikidata": "Q668687", "collection_times": "Mo-Sa 11:00", "name": "USPS COLLECTION BOX - BLUE BOX", "nsi_id": "unitedstatespostalservice-a77078", "operator": "United States Postal Service", "operator:short": "USPS", "operator:type": "public", "operator:wikidata": "Q668687", "ref": "2840500023"}, "type": "Feature"}
{"dataset_attributes": {"@spider": "usps_collection_boxes"}, "geometry": {"coordinates": [-77.831382684, 34.227440835], "type": "Point"}, "id": "y-NT50WsJJtPE5MvMioC-Sonj74=", "properties": {"@spider": "usps_collection_boxes", "addr:city": "WILMINGTON", "addr:country": "US", "addr:full": "1410 COMMONWEALTH DR", "addr:postcode": "28405", "addr:state": "NC", "amenity": "post_box", "brand": "United States Postal Service", "brand:wikidata": "Q668687", "collection_times": "Mo-Sa 13:00", "name": "USPS COLLECTION BOX - BLUE BOX", "note": "ON 12/24 AND 12/31, THIS BOX MAY BE COLLECTED AS EARLY AS 12 NOON.", "nsi_id": "unitedstatespostalservice-a77078", "operator": "United States Postal Service", "operator:short": "USPS", "operator:type": "public", "operator:wikidata": "Q668687", "ref": "2840500027"}, "type": "Feature"}
{"dataset_attributes": {"@spider": "usps_collection_boxes"}, "geometry": {"coordinates": [-77.890802963, 34.242541206], "type": "Point"}, "id": "MZoakddNqkkp_PJkymVeGjESCWk=", "properties": {"@spider": "usps_collection_boxes", "addr:city": "WILMINGTON", "addr:country": "US", "addr:full": "4400 MARKET ST", "addr:postcode": "28405", "addr:state": "NC", "amenity": "post_box", "brand": "United States Postal Service", "brand:wikidata": "Q668687", "collection_times": "Mo-Sa 11:00", "name": "USPS COLLECTION BOX - BLUE BOX", "nsi_id": "unitedstatespostalservice-a77078", "operator": "United States Postal Service", "operator:short": "USPS", "operator:type": "public", "operator:wikidata": "Q668687", "ref": "2840500028"}, "type": "Feature"}
{"dataset_attributes": {"@spider": "usps_collection_boxes"}, "geometry": {"coordinates": [-77.824815036, 34.241686982], "type": "Point"}, "id": "w0XPSL44Knm3UEHnJLi77Y3-VHA=", "properties": {"@spider": "usps_collection_boxes", "addr:city": "WILMINGTON", "addr:country": "US", "addr:full": "1800 SIR TYLER DR", "addr:postcode": "28405", "addr:state": "NC", "amenity": "post_box", "brand": "United States Postal Service", "brand:wikidata": "Q668687", "collection_times": "Mo-Fr 13:00", "name": "USPS COLLECTION BOX - BLUE BOX", "note": "ON 12/24 AND 12/31, THIS BOX MAY BE COLLECTED AS EARLY AS 12 NOON.", "nsi_id": "unitedstatespostalservice-a77078", "operator": "United States Postal Service", "operator:short": "USPS", "operator:type": "public", "operator:wikidata": "Q668687", "ref": "2840500036"}, "type": "Feature"}
{"dataset_attributes": {"@spider": "usps_collection_boxes"}, "geometry": {"coordinates": [-77.828137303, 34.238107898], "type": "Point"}, "id": "zSNObdAOzdIIEFG0SkMz6rWCPF4=", "properties": {"@spider": "usps_collection_boxes", "addr:city": "WILMINGTON", "addr:country": "US", "addr:full": "1111 MILITARY CUTOFF RD", "addr:postcode": "28405", "addr:state": "NC", "amenity": "post_box", "brand": "United States Postal Service", "brand:wikidata": "Q668687", "collection_times": "Mo-Fr 13:00", "name": "USPS COLLECTION BOX - BLUE BOX", "note": "ON 12/24 AND 12/31, THIS BOX MAY BE COLLECTED AS EARLY AS 12 NOON.", "nsi_id": "unitedstatespostalservice-a77078", "operator": "United States Postal Service", "operator:short": "USPS", "operator:type": "public", "operator:wikidata": "Q668687", "ref": "2840500039"}, "type": "Feature"}
{"dataset_attributes": {"@spider": "usps_collection_boxes"}, "geometry": {"coordinates": [-77.876389482, 34.249971823], "type": "Point"}, "id": "kTmCRA1KFkyYUiQbtIxNoBJ62B8=", "properties": {"@spider": "usps_collection_boxes", "addr:city": "WILMINGTON", "addr:country": "US", "addr:full": "314 LENNON DR", "addr:postcode": "28405", "addr:state": "NC", "amenity": "post_box", "brand": "United States Postal Service", "brand:wikidata": "Q668687", "collection_times": "Mo-Sa 17:00", "name": "USPS COLLECTION BOX - PO LOBBY", "note": "ON 12/24 AND 12/31, THIS BOX MAY BE COLLECTED AS EARLY AS 12 NOON.", "nsi_id": "unitedstatespostalservice-a77078", "operator": "United States Postal Service", "operator:short": "USPS", "operator:type": "public", "operator:wikidata": "Q668687", "ref": "2840500041"}, "type": "Feature"}
{"dataset_attributes": {"@spider": "usps_collection_boxes"}, "geometry": {"coordinates": [-77.876389482, 34.249971823], "type": "Point"}, "id": "mGsrAMnpdDr4H70FzpdgD8AeyqY=", "properties": {"@spider": "usps_collection_boxes", "addr:city": "WILMINGTON", "addr:country": "US", "addr:full": "314 LENNON DR", "addr:postcode": "28405", "addr:state": "NC", "amenity": "post_box", "brand": "United States Postal Service", "brand:wikidata": "Q668687", "collection_times": "Mo-Sa 17:00", "name": "USPS COLLECTION BOX - PO LOBBY", "note": "ON 12/24 AND 12/31, THIS BOX MAY BE COLLECTED AS EARLY AS 12 NOON.", "nsi_id": "unitedstatespostalservice-a77078", "operator": "United States Postal Service", "operator:short": "USPS", "operator:type": "public", "operator:wikidata": "Q668687", "ref": "2840500042"}, "type": "Feature"}
{"dataset_attributes": {"@spider": "usps_collection_boxes"}, "geometry": {"coordinates": [-77.866471949, 34.241009855], "type": "Point"}, "id": "6QO-06pJcbF-QWsVQIF4F_3Q9o0=", "properties": {"@spider": "usps_collection_boxes", "addr:city": "WILMINGTON", "addr:country": "US", "addr:full": "230 GOVERNMENT CENTER DR", "addr:postcode": "28405", "addr:state": "NC", "amenity": "post_box", "brand": "United States Postal Service", "brand:wikidata": "Q668687", "collection_times": "Mo-Sa 13:00", "name": "USPS COLLECTION BOX - BLUE BOX", "note": "ON 12/24 AND 12/31, THIS BOX MAY BE COLLECTED AS EARLY AS 12 NOON.", "nsi_id": "unitedstatespostalservice-a77078", "operator": "United States Postal Service", "operator:short": "USPS", "operator:type": "public", "operator:wikidata": "Q668687", "ref": "2840500044"}, "type": "Feature"}
{"dataset_attributes": {"@spider": "usps_collection_boxes"}, "geometry": {"coordinates": [-77.876389482, 34.249971823], "type": "Point"}, "id": "h4uSntY9jxaGoecI98omwNJJ-HU=", "properties": {"@spider": "usps_collection_boxes", "addr:city": "WILMINGTON", "addr:country": "US", "addr:full": "314 LENNON DR", "addr:postcode": "28405", "addr:state": "NC", "amenity": "post_box", "brand": "United States Postal Service", "brand:wikidata": "Q668687", "collection_times": "Mo-Sa 17:00", "name": "USPS COLLECTION BOX - APC", "note": "ON 12/24 AND 12/31, THIS BOX MAY BE COLLECTED AS EARLY AS 12 NOON.", "nsi_id": "unitedstatespostalservice-a77078", "operator": "United States Postal Service", "operator:short": "USPS", "operator:type": "public", "operator:wikidata": "Q668687", "ref": "2840500045"}, "type": "Feature"}
{"dataset_attributes": {"@spider": "usps_collection_boxes"}, "geometry": {"coordinates": [-77.829297099, 34.230162068], "type": "Point"}, "id": "9Z9p2RbVrCs7KK9IVVEEe_lXR44=", "properties": {"@spider": "usps_collection_boxes", "addr:city": "WILMINGTON", "addr:country": "US", "addr:full": "1319 MILITARY CUTOFF RD", "addr:postcode": "28405", "addr:state": "NC", "amenity": "post_box", "brand": "United States Postal Service", "brand:wikidata": "Q668687", "collection_times": "Mo-Sa 13:00", "name": "USPS COLLECTION BOX - BLUE BOX", "note": "ON 12/24 AND 12/31, THIS BOX MAY BE COLLECTED AS EARLY AS 12 NOON.", "nsi_id": "unitedstatespostalservice-a77078", "operator": "United States Postal Service", "operator:short": "USPS", "operator:type": "public", "operator:wikidata": "Q668687", "ref": "2840500047"}, "type": "Feature"}
{"dataset_attributes": {"@spider": "usps_collection_boxes"}, "geometry": {"coordinates": [-77.876389482, 34.249980823], "type": "Point"}, "id": "O5H8veE-IvLNST6tbWKItJCJn_k=", "properties": {"@spider": "usps_collection_boxes", "addr:city": "WILMINGTON", "addr:country": "US", "addr:full": "314 LENNON DR", "addr:postcode": "28405", "addr:state": "NC", "amenity": "post_box", "brand": "United States Postal Service", "brand:wikidata": "Q668687", "collection_times": "Mo-Fr 17:00", "name": "USPS COLLECTION BOX - PO LOBBY", "note": "ON 12/24 AND 12/31, THIS BOX MAY BE COLLECTED AS EARLY AS 12 NOON.", "nsi_id": "unitedstatespostalservice-a77078", "operator": "United States Postal Service", "operator:short": "USPS", "operator:type": "public", "operator:wikidata": "Q668687", "ref": "2840500051"}, "type": "Feature"}
{"dataset_attributes": {"@spider": "usps_collection_boxes"}, "geometry": {"coordinates": [-77.791761842, 34.298235079], "type": "Point"}, "id": "z3TTFfFHohzl8p24U_qK4Iudl10=", "properties": {"@spider": "usps_collection_boxes", "addr:city": "WILMINGTON", "addr:country": "US", "addr:full": "8207 MARKET ST", "addr:postcode": "28411", "addr:state": "NC", "amenity": "post_box", "brand": "United States Postal Service", "brand:wikidata": "Q668687", "collection_times": "Mo-Sa 17:00", "name": "USPS COLLECTION BOX - BLUE BOX", "note": "ON 12/24 AND 12/31, THIS BOX MAY BE COLLECTED AS EARLY AS 12 NOON.", "nsi_id": "unitedstatespostalservice-a77078", "operator": "United States Postal Service", "operator:short": "USPS", "operator:type": "public", "operator:wikidata": "Q668687", "ref": "2841100000"}, "type": "Feature"}
{"dataset_attributes": {"@spider": "usps_collection_boxes"}, "geometry": {"coordinates": [-77.791761842, 34.298235079], "type": "Point"}, "id": "GkWYhuEtuwIzI3uD2tkpgsK8Cl8=", "properties": {"@spider": "usps_collection_boxes", "addr:city": "WILMINGTON", "addr:country": "US", "addr:full": "8207 MARKET ST", "addr:postcode": "28411", "addr:state": "NC", "amenity": "post_box", "brand": "United States Postal Service", "brand:wikidata": "Q668687", "collection_times": "Mo-Fr 17:00; Sa 12:00", "name": "USPS COLLECTION BOX - PO LOBBY", "note": "ON 12/24 AND 12/31, THIS BOX MAY BE COLLECTED AS EARLY AS 12 NOON.", "nsi_id": "unitedstatespostalservice-a77078", "operator": "United States Postal Service", "operator:short": "USPS", "operator:type": "public", "operator:wikidata": "Q668687", "ref": "2841100002"}, "type": "Feature"}
{"dataset_attributes": {"@spider": "usps_collection_boxes"}, "geometry": {"coordinates": [-77.791761842, 34.298235079], "type": "Point"}, "id": "4e1t39Ss3PP-rUGXWrzGjNVCdqY=", "properties": {"@spider": "usps_collection_boxes", "addr:city": "WILMINGTON", "addr:country": "US", "addr:full": "8207 MARKET ST", "addr:postcode": "28411", "addr:state": "NC", "amenity": "post_box", "brand": "United States Postal Service", "brand:wikidata": "Q668687", "collection_times": "Mo-Fr 17:00; Sa 12:00", "name": "USPS COLLECTION BOX - PO LOBBY", "note": "ON 12/24 AND 12/31, THIS BOX MAY BE COLLECTED AS EARLY AS 12 NOON.", "nsi_id": "unitedstatespostalservice-a77078", "operator": "United States Postal Service", "operator:short": "USPS", "operator:type": "public", "operator:wikidata": "Q668687", "ref": "2841100003"}, "type": "Feature"}
{"dataset_attributes": {"@spider": "usps_collection_boxes"}, "geometry": {"coordinates": [-77.895551727, 34.132448406], "type": "Point"}, "id": "WPaRdu1GPscUJSVUf3nW1wXD0wg=", "properties": {"@spider": "usps_collection_boxes", "addr:city": "WILMINGTON", "addr:country": "US", "addr:full": "5675 CAROLINA BEACH RD", "addr:postcode": "28412", "addr:state": "NC", "amenity": "post_box", "brand": "United States Postal Service", "brand:wikidata": "Q668687", "collection_times": "Mo-Sa 17:00", "name": "USPS COLLECTION BOX - BLUE BOX", "note": "ON 12/24 AND 12/31, THIS BOX MAY BE COLLECTED AS EARLY AS 12 NOON.", "nsi_id": "unitedstatespostalservice-a77078", "operator": "United States Postal Service", "operator:short": "USPS", "operator:type": "public", "operator:wikidata": "Q668687", "ref": "2841200017"}, "type": "Feature"}
{"dataset_attributes": {"@spider": "usps_collection_boxes"}, "geometry": {"coordinates": [-77.895551727, 34.132448406], "type": "Point"}, "id": "D9V8OQhQgE5mBXiVA1VSohxK9ho=", "properties": {"@spider": "usps_collection_boxes", "addr:city": "WILMINGTON", "addr:country": "US", "addr:full": "5675 CAROLINA BEACH RD", "addr:postcode": "28412", "addr:state": "NC", "amenity": "post_box", "brand": "United States Postal Service", "brand:wikidata": "Q668687", "collection_times": "Mo-Fr 17:00; Sa 13:00", "name": "USPS COLLECTION BOX - PO LOBBY", "note": "ON 12/24 AND 12/31, THIS BOX MAY BE COLLECTED AS EARLY AS 12 NOON.", "nsi_id": "unitedstatespostalservice-a77078", "operator": "United States Postal Service", "operator:short": "USPS", "operator:type": "public", "operator:wikidata": "Q668687", "ref": "2841200018"}, "type": "Feature"}
{"dataset_attributes": {"@spider": "usps_collection_boxes"}, "geometry": {"coordinates": [-77.895551727, 34.132448406], "type": "Point"}, "id": "OOJQxt02Hk7f3mRzBx-TAaopiDA=", "properties": {"@spider": "usps_collection_boxes", "addr:city": "WILMINGTON", "addr:country": "US", "addr:full": "5675 CAROLINA BEACH RD", "addr:postcode": "28412", "addr:state": "NC", "amenity": "post_box", "brand": "United States Postal Service", "brand:wikidata": "Q668687", "collection_times": "Mo-Fr 17:00; Sa 13:00", "name": "USPS COLLECTION BOX - APC", "note": "ON 12/24 AND 12/31, THIS BOX MAY BE COLLECTED AS EARLY AS 12 NOON.", "nsi_id": "unitedstatespostalservice-a77078", "operator": "United States Postal Service", "operator:short": "USPS", "operator:type": "public", "operator:wikidata": "Q668687", "ref": "2841200020"}, "type": "Feature"}
{"dataset_attributes": {"@spider": "usps_collection_boxes"}, "geometry": {"coordinates": [-77.895551727, 34.132448406], "type": "Point"}, "id": "VXHnuDTFc_dJ7PR0Bu-I88DNJik=", "properties": {"@spider": "usps_collection_boxes", "addr:city": "WILMINGTON", "addr:country": "US", "addr:full": "5675 CAROLINA BEACH RD", "addr:postcode": "28412", "addr:state": "NC", "amenity": "post_box", "brand": "United States Postal Service", "brand:wikidata": "Q668687", "collection_times": "Mo-Sa 17:00", "name": "USPS COLLECTION BOX - PO LOBBY", "note": "ON 12/24 AND 12/31, THIS BOX MAY BE COLLECTED AS EARLY AS 12 NOON.", "nsi_id": "unitedstatespostalservice-a77078", "operator": "United States Postal Service", "operator:short": "USPS", "operator:type": "public", "operator:wikidata": "Q668687", "ref": "2841200026"}, "type": "Feature"}
{"dataset_attributes": {"@spider": "usps_collection_boxes"}, "geometry": {"coordinates": [-77.925681054, 34.548446234], "type": "Point"}, "id": "7_S1fQXhjz8eUZ66O_GtMhiSIX0=", "properties": {"@spider": "usps_collection_boxes", "addr:city": "BURGAW", "addr:country": "US", "addr:full": "100 E SATCHWELL ST", "addr:postcode": "28425", "addr:state": "NC", "amenity": "post_box", "brand": "United States Postal Service", "brand:wikidata": "Q668687", "collection_times": "Mo-Fr 16:30; Sa 12:00", "name": "USPS COLLECTION BOX - BLUE BOX", "note": "ON 12/24 AND 12/31, THIS BOX MAY BE COLLECTED AS EARLY AS 12 NOON.", "nsi_id": "unitedstatespostalservice-a77078", "operator": "United States Postal Service", "operator:short": "USPS", "operator:type": "public", "operator:wikidata": "Q668687", "ref": "2842500001"}, "type": "Feature"}
{"dataset_attributes": {"@spider": "usps_collection_boxes"}, "geometry": {"coordinates": [-77.925681054, 34.548446234], "type": "Point"}, "id": "0uWQSWyaIj3mc8bHAXOXdFlu2Ck=", "properties": {"@spider": "usps_collection_boxes", "addr:city": "BURGAW", "addr:country": "US", "addr:full": "100 E SATCHWELL ST", "addr:postcode": "28425", "addr:state": "NC", "amenity": "post_box", "brand": "United States Postal Service", "brand:wikidata": "Q668687", "collection_times": "Mo-Fr 16:30; Sa 12:00", "name": "USPS COLLECTION BOX - BLUE BOX", "note": "ON 12/24 AND 12/31, THIS BOX MAY BE COLLECTED AS EARLY AS 12 NOON.", "nsi_id": "unitedstatespostalservice-a77078", "operator": "United States Postal Service", "operator:short": "USPS", "operator:type": "public", "operator:wikidata": "Q668687", "ref": "2842500003"}, "type": "Feature"}
{"dataset_attributes": {"@spider": "usps_collection_boxes"}, "geometry": {"coordinates": [-77.925681054, 34.548446234], "type": "Point"}, "id": "NddbY18_16hd9Ipz--PyFdsWpfg=", "properties": {"@spider": "usps_collection_boxes", "addr:city": "BURGAW", "addr:country": "US", "addr:full": "100 E SATCHWELL ST", "addr:postcode": "28425", "addr:state": "NC", "amenity": "post_box", "brand": "United States Postal Service", "brand:wikidata": "Q668687", "collection_times": "Mo-Fr 16:30; Sa 12:00", "name": "USPS COLLECTION BOX - PO LOBBY", "note": "ON 12/24 AND 12/31, THIS BOX MAY BE COLLECTED AS EARLY AS 12 NOON.", "nsi_id": "unitedstatespostalservice-a77078", "operator": "United States Postal Service", "operator:short": "USPS", "operator:type": "public", "operator:wikidata": "Q668687", "ref": "2842500006"}, "type": "Feature"}
{"dataset_attributes": {"@spider": "usps_collection_boxes"}, "geometry": {"coordinates": [-77.925681054, 34.548446234], "type": "Point"}, "id": "cDiKztWnc4Ne_gM5M-O1viru1Ck=", "properties": {"@spider": "usps_collection_boxes", "addr:city": "BURGAW", "addr:country": "US", "addr:full": "100 E SATCHWELL ST", "addr:postcode": "28425", "addr:state": "NC", "amenity": "post_box", "brand": "United States Postal Service", "brand:wikidata": "Q668687", "collection_times": "Mo-Fr 16:30; Sa 12:00", "name": "USPS COLLECTION BOX - PO LOBBY", "note": "ON 12/24 AND 12/31, THIS BOX MAY BE COLLECTED AS EARLY AS 12 NOON.", "nsi_id": "unitedstatespostalservice-a77078", "operator": "United States Postal Service", "operator:short": "USPS", "operator:type": "public", "operator:wikidata": "Q668687", "ref": "2842500008"}, "type": "Feature"}
{"dataset_attributes": {"@spider": "usps_collection_boxes"}, "geometry": {"coordinates": [-77.9013094369, 34.0492973378], "type": "Point"}, "id": "l4h64hTm3UMDkaRAISB19l-4vHI=", "properties": {"@spider": "usps_collection_boxes", "addr:city": "CAROLINA BEACH", "addr:country": "US", "addr:full": "1323 BRIDGE BARRIER RD", "addr:postcode": "28428", "addr:state": "NC", "amenity": "post_box", "brand": "United States Postal Service", "brand:wikidata": "Q668687", "collection_times": "Mo-Fr 16:30; Sa 12:00", "name": "USPS COLLECTION BOX - BLUE BOX", "note": "ON 12/24 AND 12/31, THIS BOX MAY BE COLLECTED AS EARLY AS 12 NOON.", "nsi_id": "unitedstatespostalservice-a77078", "operator": "United States Postal Service", "operator:short": "USPS", "operator:type": "public", "operator:wikidata": "Q668687", "ref": "2842800001"}, "type": "Feature"}
{"dataset_attributes": {"@spider": "usps_collection_boxes"}, "geometry": {"coordinates": [-77.901309437, 34.049297338], "type": "Point"}, "id": "0n4mku0EmI9q-Souq_SxhcOpU20=", "properties": {"@spider": "usps_collection_boxes", "addr:city": "CAROLINA BEACH", "addr:country": "US", "addr:full": "1323 BRIDGE BARRIER RD", "addr:postcode": "28428", "addr:state": "NC", "amenity": "post_box", "brand": "United States Postal Service", "brand:wikidata": "Q668687", "collection_times": "Mo-Fr 16:30; Sa 12:00", "name": "USPS COLLECTION BOX - BLUE BOX", "note": "ON 12/24 AND 12/31, THIS BOX MAY BE COLLECTED AS EARLY AS 12 NOON.", "nsi_id": "unitedstatespostalservice-a77078", "operator": "United States Postal Service", "operator:short": "USPS", "operator:type": "public", "operator:wikidata": "Q668687", "ref": "2842800002"}, "type": "Feature"}
{"dataset_attributes": {"@spider": "usps_collection_boxes"}, "geometry": {"coordinates": [-77.901309437, 34.049297338], "type": "Point"}, "id": "ArTrGF5XnVpHalgbE9ICw6mKwzA=", "properties": {"@spider": "usps_collection_boxes", "addr:city": "CAROLINA BEACH", "addr:country": "US", "addr:full": "1323 BRIDGE BARRIER RD", "addr:postcode": "28428", "addr:state": "NC", "amenity": "post_box", "brand": "United States Postal Service", "brand:wikidata": "Q668687", "collection_times": "Mo-Fr 16:30; Sa 12:00", "name": "USPS COLLECTION BOX - PO LOBBY", "note": "ON 12/24 AND 12/31, THIS BOX MAY BE COLLECTED AS EARLY AS 12 NOON.", "nsi_id": "unitedstatespostalservice-a77078", "operator": "United States Postal Service", "operator:short": "USPS", "operator:type": "public", "operator:wikidata": "Q668687", "ref": "2842800004"}, "type": "Feature"}
{"dataset_attributes": {"@spider": "usps_collection_boxes"}, "geometry": {"coordinates": [-77.901309437, 34.049297338], "type": "Point"}, "id": "Z1Bz8WhD67Dv0vUNFTKGUpUhiGA=", "properties": {"@spider": "usps_collection_boxes", "addr:city": "CAROLINA BEACH", "addr:country": "US", "addr:full": "1323 BRIDGE BARRIER RD", "addr:postcode": "28428", "addr:state": "NC", "amenity": "post_box", "brand": "United States Postal Service", "brand:wikidata": "Q668687", "collection_times": "Mo-Fr 16:30; Sa 12:00", "name": "USPS COLLECTION BOX - PO LOBBY", "note": "ON 12/24 AND 12/31, THIS BOX MAY BE COLLECTED AS EARLY AS 12 NOON.", "nsi_id": "unitedstatespostalservice-a77078", "operator": "United States Postal Service", "operator:short": "USPS", "operator:type": "public", "operator:wikidata": "Q668687", "ref": "2842800006"}, "type": "Feature"}
{"dataset_attributes": {"@spider": "usps_collection_boxes"}, "geometry": {"coordinates": [-77.901309437, 34.049297338], "type": "Point"}, "id": "lIM8ivevnSnDmVZLrwchuixrSx8=", "properties": {"@spider": "usps_collection_boxes", "addr:city": "CAROLINA BEACH", "addr:country": "US", "addr:full": "1323 BRIDGE BARRIER RD", "addr:postcode": "28428", "addr:state": "NC", "amenity": "post_box", "brand": "United States Postal Service", "brand:wikidata": "Q668687", "collection_times": "Mo-Fr 16:30; Sa 12:00", "name": "USPS COLLECTION BOX - PO LOBBY", "note": "ON 12/24 AND 12/31, THIS BOX MAY BE COLLECTED AS EARLY AS 12 NOON.", "nsi_id": "unitedstatespostalservice-a77078", "operator": "United States Postal Service", "operator:short": "USPS", "operator:type": "public", "operator:wikidata": "Q668687", "ref": "2842800008"}, "type": "Feature"}
{"dataset_attributes": {"@spider": "usps_collection_boxes"}, "geometry": {"coordinates": [-77.9013094369, 34.0492973378], "type": "Point"}, "id": "hMaYIQiLQh2OWkApZ8Irv5IlxKE=", "properties": {"@spider": "usps_collection_boxes", "addr:city": "CAROLINA BEACH", "addr:country": "US", "addr:full": "1323 BRIDGE BARRIER RD", "addr:postcode": "28428", "addr:state": "NC", "amenity": "post_box", "brand": "United States Postal Service", "brand:wikidata": "Q668687", "collection_times": "Mo-Fr 16:30", "name": "USPS COLLECTION BOX - PO LOBBY", "note": "ON 12/24 AND 12/31, THIS BOX MAY BE COLLECTED AS EARLY AS 12 NOON.", "nsi_id": "unitedstatespostalservice-a77078", "operator": "United States Postal Service", "operator:short": "USPS", "operator:type": "public", "operator:wikidata": "Q668687", "ref": "2842800010"}, "type": "Feature"}
{"dataset_attributes": {"@spider": "usps_collection_boxes"}, "geometry": {"coordinates": [-77.897835901, 34.35431662], "type": "Point"}, "id": "FnQl8gzo8Cs0qyFMAIHqdym78Ts=", "properties": {"@spider": "usps_collection_boxes", "addr:city": "CASTLE HAYNE", "addr:country": "US", "addr:full": "4024 HOLLY SHELTER RD", "addr:postcode": "28429", "addr:state": "NC", "amenity": "post_box", "brand": "United States Postal Service", "brand:wikidata": "Q668687", "collection_times": "Mo-Fr 16:30; Sa 13:00", "name": "USPS COLLECTION BOX - BLUE BOX", "note": "ON 12/24 AND 12/31, THIS BOX MAY BE COLLECTED AS EARLY AS 12 NOON.", "nsi_id": "unitedstatespostalservice-a77078", "operator": "United States Postal Service", "operator:short": "USPS", "operator:type": "public", "operator:wikidata": "Q668687", "ref": "2842900001"}, "type": "Feature"}
{"dataset_attributes": {"@spider": "usps_collection_boxes"}, "geometry": {"coordinates": [-77.897835901, 34.35431662], "type": "Point"}, "id": "sesVKHZSEFhjSTR3qPP4n_pYHd8=", "properties": {"@spider": "usps_collection_boxes", "addr:city": "CASTLE HAYNE", "addr:country": "US", "addr:full": "4024 HOLLY SHELTER RD", "addr:postcode": "28429", "addr:state": "NC", "amenity": "post_box", "brand": "United States Postal Service", "brand:wikidata": "Q668687", "collection_times": "Mo-Fr 16:30; Sa 13:00", "name": "USPS COLLECTION BOX - PO LOBBY", "note": "ON 12/24 AND 12/31, THIS BOX MAY BE COLLECTED AS EARLY AS 12 NOON.", "nsi_id": "unitedstatespostalservice-a77078", "operator": "United States Postal Service", "operator:short": "USPS", "operator:type": "public", "operator:wikidata": "Q668687", "ref": "2842900003"}, "type": "Feature"}
{"dataset_attributes": {"@spider": "usps_collection_boxes"}, "geometry": {"coordinates": [-77.897835901, 34.35431662], "type": "Point"}, "id": "rrW3bmRT4AvE6Xg8-U9dW5SK1lo=", "properties": {"@spider": "usps_collection_boxes", "addr:city": "CASTLE HAYNE", "addr:country": "US", "addr:full": "4024 HOLLY SHELTER RD", "addr:postcode": "28429", "addr:state": "NC", "amenity": "post_box", "brand": "United States Postal Service", "brand:wikidata": "Q668687", "collection_times": "Mo-Fr 16:30; Sa 13:00", "name": "USPS COLLECTION BOX - PO LOBBY", "note": "ON 12/24 AND 12/31, THIS BOX MAY BE COLLECTED AS EARLY AS 12 NOON.", "nsi_id": "unitedstatespostalservice-a77078", "operator": "United States Postal Service", "operator:short": "USPS", "operator:type": "public", "operator:wikidata": "Q668687", "ref": "2842900005"}, "type": "Feature"}
{"dataset_attributes": {"@spider": "usps_collection_boxes"}, "geometry": {"coordinates": [-77.710121038, 34.365454466], "type": "Point"}, "id": "J8YTM0ZiukKrS9WSzIbHYtWVV8w=", "properties": {"@spider": "usps_collection_boxes", "addr:city": "HAMPSTEAD", "addr:country": "US", "addr:full": "121 DAN OWEN DR", "addr:postcode": "28443", "addr:state": "NC", "amenity": "post_box", "brand": "United States Postal Service", "brand:wikidata": "Q668687", "collection_times": "Mo-Fr 16:30; Sa 12:00", "name": "USPS COLLECTION BOX - BLUE BOX", "note": "ON 12/24 AND 12/31, THIS BOX MAY BE COLLECTED AS EARLY AS 12 NOON.", "nsi_id": "unitedstatespostalservice-a77078", "operator": "United States Postal Service", "operator:short": "USPS", "operator:type": "public", "operator:wikidata": "Q668687", "ref": "2844300001"}, "type": "Feature"}
{"dataset_attributes": {"@spider": "usps_collection_boxes"}, "geometry": {"coordinates": [-77.710121038, 34.365454466], "type": "Point"}, "id": "Ws5DsyRHiTejsXskH1BMzuG-J5c=", "properties": {"@spider": "usps_collection_boxes", "addr:city": "HAMPSTEAD", "addr:country": "US", "addr:full": "121 DAN OWEN DR", "addr:postcode": "28443", "addr:state": "NC", "amenity": "post_box", "brand": "United States Postal Service", "brand:wikidata": "Q668687", "collection_times": "Mo-Fr 16:30; Sa 12:00", "name": "USPS COLLECTION BOX - BLUE BOX", "note": "ON 12/24 AND 12/31, THIS BOX MAY BE COLLECTED AS EARLY AS 12 NOON.", "nsi_id": "unitedstatespostalservice-a77078", "operator": "United States Postal Service", "operator:short": "USPS", "operator:type": "public", "operator:wikidata": "Q668687", "ref": "2844300002"}, "type": "Feature"}
{"dataset_attributes": {"@spider": "usps_collection_boxes"}, "geometry": {"coordinates": [-77.710121038, 34.365454466], "type": "Point"}, "id": "KPzOb-l650kIVzUyhzg-Pn8S9rk=", "properties": {"@spider": "usps_collection_boxes", "addr:city": "HAMPSTEAD", "addr:country": "US", "addr:full": "121 DAN OWEN DR", "addr:postcode": "28443", "addr:state": "NC", "amenity": "post_box", "brand": "United States Postal Service", "brand:wikidata": "Q668687", "collection_times": "Mo-Fr 16:30; Sa 12:00", "name": "USPS COLLECTION BOX - PO LOBBY", "note": "ON 12/24 AND 12/31, THIS BOX MAY BE COLLECTED AS EARLY AS 12 NOON.", "nsi_id": "unitedstatespostalservice-a77078", "operator": "United States Postal Service", "operator:short": "USPS", "operator:type": "public", "operator:wikidata": "Q668687", "ref": "2844300003"}, "type": "Feature"}
{"dataset_attributes": {"@spider": "usps_collection_boxes"}, "geometry": {"coordinates": [-77.710121038, 34.365454466], "type": "Point"}, "id": "H7gcr3smGJFnLID1gRkvEKwoO0o=", "properties": {"@spider": "usps_collection_boxes", "addr:city": "HAMPSTEAD", "addr:country": "US", "addr:full": "121 DAN OWEN DR", "addr:postcode": "28443", "addr:state": "NC", "amenity": "post_box", "brand": "United States Postal Service", "brand:wikidata": "Q668687", "collection_times": "Mo-Fr 16:30; Sa 12:00", "name": "USPS COLLECTION BOX - PO LOBBY", "note": "ON 12/24 AND 12/31, THIS BOX MAY BE COLLECTED AS EARLY AS 12 NOON.", "nsi_id": "unitedstatespostalservice-a77078", "operator": "United States Postal Service", "operator:short": "USPS", "operator:type": "public", "operator:wikidata": "Q668687", "ref": "2844300004"}, "type": "Feature"}
{"dataset_attributes": {"@spider": "usps_collection_boxes"}, "geometry": {"coordinates": [-77.710121038, 34.3654544663], "type": "Point"}, "id": "p2zbbeNUfw6yiSS0wHxarAsP4oM=", "properties": {"@spider": "usps_collection_boxes", "addr:city": "HAMPSTEAD", "addr:country": "US", "addr:full": "121 DAN OWEN DR", "addr:postcode": "28443", "addr:state": "NC", "amenity": "post_box", "brand": "United States Postal Service", "brand:wikidata": "Q668687", "collection_times": "Mo-Fr 16:30; Sa 12:00", "name": "USPS COLLECTION BOX - PO LOBBY", "note": "ON 12/24 AND 12/31, THIS BOX MAY BE COLLECTED AS EARLY AS 12 NOON.", "nsi_id": "unitedstatespostalservice-a77078", "operator": "United States Postal Service", "operator:short": "USPS", "operator:type": "public", "operator:wikidata": "Q668687", "ref": "2844300006"}, "type": "Feature"}
{"dataset_attributes": {"@spider": "usps_collection_boxes"}, "geometry": {"coordinates": [-77.551708692, 34.498110791], "type": "Point"}, "id": "JbZX9ZZFr-unr-lpLBNRxInCsIw=", "properties": {"@spider": "usps_collection_boxes", "addr:city": "HOLLY RIDGE", "addr:country": "US", "addr:full": "213 HOLLY ST", "addr:postcode": "28445", "addr:state": "NC", "amenity": "post_box", "brand": "United States Postal Service", "brand:wikidata": "Q668687", "collection_times": "Mo-Fr 16:30; Sa 11:00", "name": "USPS COLLECTION BOX - BLUE BOX", "note": "ON 12/24 AND 12/31, THIS BOX MAY BE COLLECTED AS EARLY AS 12 NOON.", "nsi_id": "unitedstatespostalservice-a77078", "operator": "United States Postal Service", "operator:short": "USPS", "operator:type": "public", "operator:wikidata": "Q668687", "ref": "2844500001"}, "type": "Feature"}
{"dataset_attributes": {"@spider": "usps_collection_boxes"}, "geometry": {"coordinates": [-77.551708692, 34.498110791], "type": "Point"}, "id": "yNl6Pn1qMaSKD22JLkAN_4RO60s=", "properties": {"@spider": "usps_collection_boxes", "addr:city": "HOLLY RIDGE", "addr:country": "US", "addr:full": "213 HOLLY ST", "addr:postcode": "28445", "addr:state": "NC", "amenity": "post_box", "brand": "United States Postal Service", "brand:wikidata": "Q668687", "collection_times": "Mo-Fr 16:30; Sa 11:00", "name": "USPS COLLECTION BOX - PO LOBBY", "note": "ON 12/24 AND 12/31, THIS BOX MAY BE COLLECTED AS EARLY AS 12 NOON.", "nsi_id": "unitedstatespostalservice-a77078", "operator": "United States Postal Service", "operator:short": "USPS", "operator:type": "public", "operator:wikidata": "Q668687", "ref": "2844500004"}, "type": "Feature"}
{"dataset_attributes": {"@spider": "usps_collection_boxes"}, "geometry": {"coordinates": [-77.551708692, 34.498110791], "type": "Point"}, "id": "GgBHM8qlHBdF-vIFdyRE46vHITk=", "properties": {"@spider": "usps_collection_boxes", "addr:city": "HOLLY RIDGE", "addr:country": "US", "addr:full": "213 HOLLY ST", "addr:postcode": "28445", "addr:state": "NC", "amenity": "post_box", "brand": "United States Postal Service", "brand:wikidata": "Q668687", "collection_times": "Mo-Fr 16:30; Sa 11:00", "name": "USPS COLLECTION BOX - PO LOBBY", "note": "ON 12/24 AND 12/31, THIS BOX MAY BE COLLECTED AS EARLY AS 12 NOON.", "nsi_id": "unitedstatespostalservice-a77078", "operator": "United States Postal Service", "operator:short": "USPS", "operator:type": "public", "operator:wikidata": "Q668687", "ref": "2844500005"}, "type": "Feature"}
{"dataset_attributes": {"@spider": "usps_collection_boxes"}, "geometry": {"coordinates": [-77.561949491, 34.447977808], "type": "Point"}, "id": "64bT0d5giMSEw1G6-oKVpCRy248=", "properties": {"@spider": "usps_collection_boxes", "addr:city": "HOLLY RIDGE", "addr:country": "US", "addr:full": "13567 NC HIGHWAY 50 UNIT D", "addr:postcode": "28445", "addr:state": "NC", "amenity": "post_box", "brand": "United States Postal Service", "brand:wikidata": "Q668687", "collection_times": "Mo-Fr 14:45; Sa 11:00", "name": "USPS COLLECTION BOX - BLUE BOX", "note": "ON 12/24 AND 12/31, THIS BOX MAY BE COLLECTED AS EARLY AS 12 NOON.", "nsi_id": "unitedstatespostalservice-a77078", "operator": "United States Postal Service", "operator:short": "USPS", "operator:type": "public", "operator:wikidata": "Q668687", "ref": "2844500006"}, "type": "Feature"}
{"dataset_attributes": {"@spider": "usps_collection_boxes"}, "geometry": {"coordinates": [-77.561949491, 34.447977808], "type": "Point"}, "id": "kM_o8TxXzgZ5VUWIj8fW_umAnfo=", "properties": {"@spider": "usps_collection_boxes", "addr:city": "HOLLY RIDGE", "addr:country": "US", "addr:full": "13567 NC HIGHWAY 50 UNIT D", "addr:postcode": "28445", "addr:state": "NC", "amenity": "post_box", "brand": "United States Postal Service", "brand:wikidata": "Q668687", "collection_times": "Mo-Fr 14:45; Sa 11:00", "name": "USPS COLLECTION BOX - PO LOBBY", "note": "ON 12/24 AND 12/31, THIS BOX MAY BE COLLECTED AS EARLY AS 12 NOON.", "nsi_id": "unitedstatespostalservice-a77078", "operator": "United States Postal Service", "operator:short": "USPS", "operator:type": "public", "operator:wikidata": "Q668687", "ref": "2844500007"}, "type": "Feature"}
{"dataset_attributes": {"@spider": "usps_collection_boxes"}, "geometry": {"coordinates": [-77.551708692, 34.498110791], "type": "Point"}, "id": "pBsy2UZLuLtkeCcv7C27EUtX3NE=", "properties": {"@spider": "usps_collection_boxes", "addr:city": "HOLLY RIDGE", "addr:country": "US", "addr:full": "213 HOLLY ST", "addr:postcode": "28445", "addr:state": "NC", "amenity": "post_box", "brand": "United States Postal Service", "brand:wikidata": "Q668687", "collection_times": "Mo-Fr 16:30", "name": "USPS COLLECTION BOX - PO LOBBY", "note": "ON 12/24 AND 12/31, THIS BOX MAY BE COLLECTED AS EARLY AS 12 NOON.", "nsi_id": "unitedstatespostalservice-a77078", "operator": "United States Postal Service", "operator:short": "USPS", "operator:type": "public", "operator:wikidata": "Q668687", "ref": "2844500011"}, "type": "Feature"}
{"dataset_attributes": {"@spider": "usps_collection_boxes"}, "geometry": {"coordinates": [-77.905680788, 34.001275211], "type": "Point"}, "id": "dF9LIrEaCMnMFFntmkSNPiQG1DU=", "properties": {"@spider": "usps_collection_boxes", "addr:city": "KURE BEACH", "addr:country": "US", "addr:full": "237 FORT FISHER BLVD N", "addr:postcode": "28449", "addr:state": "NC", "amenity": "post_box", "brand": "United States Postal Service", "brand:wikidata": "Q668687", "collection_times": "Mo-Fr 16:15; Sa 12:00", "name": "USPS COLLECTION BOX - BLUE BOX", "note": "ON 12/24 AND 12/31, THIS BOX MAY BE COLLECTED AS EARLY AS 12 NOON.", "nsi_id": "unitedstatespostalservice-a77078", "operator": "United States Postal Service", "operator:short": "USPS", "operator:type": "public", "operator:wikidata": "Q668687", "ref": "2844900002"}, "type": "Feature"}
{"dataset_attributes": {"@spider": "usps_collection_boxes"}, "geometry": {"coordinates": [-77.905680788, 34.001275211], "type": "Point"}, "id": "DO7yeJUyEA-A-WUZx1NzFtd5D3o=", "properties": {"@spider": "usps_collection_boxes", "addr:city": "KURE BEACH", "addr:country": "US", "addr:full": "237 FORT FISHER BLVD N", "addr:postcode": "28449", "addr:state": "NC", "amenity": "post_box", "brand": "United States Postal Service", "brand:wikidata": "Q668687", "collection_times": "Mo-Fr 16:15; Sa 12:00", "name": "USPS COLLECTION BOX - PO LOBBY", "note": "ON 12/24 AND 12/31, THIS BOX MAY BE COLLECTED AS EARLY AS 12 NOON.", "nsi_id": "unitedstatespostalservice-a77078", "operator": "United States Postal Service", "operator:short": "USPS", "operator:type": "public", "operator:wikidata": "Q668687", "ref": "2844900003"}, "type": "Feature"}
{"dataset_attributes": {"@spider": "usps_collection_boxes"}, "geometry": {"coordinates": [-77.905680788, 34.001275211], "type": "Point"}, "id": "rG4zyD14q1bXRDWTH7VvMWyK90M=", "properties": {"@spider": "usps_collection_boxes", "addr:city": "KURE BEACH", "addr:country": "US", "addr:full": "237 FORT FISHER BLVD N", "addr:postcode": "28449", "addr:state": "NC", "amenity": "post_box", "brand": "United States Postal Service", "brand:wikidata": "Q668687", "collection_times": "Mo-Fr 16:15; Sa 12:00", "name": "USPS COLLECTION BOX - PO LOBBY", "note": "ON 12/24 AND 12/31, THIS BOX MAY BE COLLECTED AS EARLY AS 12 NOON.", "nsi_id": "unitedstatespostalservice-a77078", "operator": "United States Postal Service", "operator:short": "USPS", "operator:type": "public", "operator:wikidata": "Q668687", "ref": "2844900004"}, "type": "Feature"}
{"dataset_attributes": {"@spider": "usps_collection_boxes"}, "geometry": {"coordinates": [-77.9056807877, 34.0012752115], "type": "Point"}, "id": "tVsQ2yI2uVT0niPjuZOPWi3XS7M=", "properties": {"@spider": "usps_collection_boxes", "addr:city": "KURE BEACH", "addr:country": "US", "addr:full": "237 FORT FISHER BLVD N", "addr:postcode": "28449", "addr:state": "NC", "amenity": "post_box", "brand": "United States Postal Service", "brand:wikidata": "Q668687", "collection_times": "Mo-Fr 16:15; Sa 12:00", "name": "USPS COLLECTION BOX - PO LOBBY", "note": "ON 12/24 AND 12/31, THIS BOX MAY BE COLLECTED AS EARLY AS 12 NOON.", "nsi_id": "unitedstatespostalservice-a77078", "operator": "United States Postal Service", "operator:short": "USPS", "operator:type": "public", "operator:wikidata": "Q668687", "ref": "2844900006"}, "type": "Feature"}
{"dataset_attributes": {"@spider": "usps_collection_boxes"}, "geometry": {"coordinates": [-78.02692837, 34.210059789], "type": "Point"}, "id": "ys7xEos5s35gYXtSrbbzpAXbWPs=", "properties": {"@spider": "usps_collection_boxes", "addr:city": "LELAND", "addr:country": "US", "addr:full": "1107 NEW POINTE BLVD", "addr:postcode": "28451", "addr:state": "NC", "amenity": "post_box", "brand": "United States Postal Service", "brand:wikidata": "Q668687", "collection_times": "Mo-Fr 10:00", "name": "USPS COLLECTION BOX - BLUE BOX", "nsi_id": "unitedstatespostalservice-a77078", "operator": "United States Postal Service", "operator:short": "USPS", "operator:type": "public", "operator:wikidata": "Q668687", "ref": "2845100001"}, "type": "Feature"}
{"dataset_attributes": {"@spider": "usps_collection_boxes"}, "geometry": {"coordinates": [-77.996160113, 34.233575167], "type": "Point"}, "id": "ExlIoIlOPoiyR0bo5qUlfsQUVWk=", "properties": {"@spider": "usps_collection_boxes", "addr:city": "LELAND", "addr:country": "US", "addr:full": "112 VILLAGE RD NE", "addr:postcode": "28451", "addr:state": "NC", "amenity": "post_box", "brand": "United States Postal Service", "brand:wikidata": "Q668687", "collection_times": "Mo-Fr 09:00", "name": "USPS COLLECTION BOX - BLUE BOX", "nsi_id": "unitedstatespostalservice-a77078", "operator": "United States Postal Service", "operator:short": "USPS", "operator:type": "public", "operator:wikidata": "Q668687", "ref": "2845100002"}, "type": "Feature"}
{"dataset_attributes": {"@spider": "usps_collection_boxes"}, "geometry": {"coordinates": [-78.031990523, 34.249442158], "type": "Point"}, "id": "HwTnazqIOrZWPQqrTx4ONh5uQzo=", "properties": {"@spider": "usps_collection_boxes", "addr:city": "LELAND", "addr:country": "US", "addr:full": "1123 VILLAGE RD NE", "addr:postcode": "28451", "addr:state": "NC", "amenity": "post_box", "brand": "United States Postal Service", "brand:wikidata": "Q668687", "collection_times": "Mo-Fr 16:30; Sa 12:00", "name": "USPS COLLECTION BOX - BLUE BOX", "note": "ON 12/24 AND 12/31, THIS BOX MAY BE COLLECTED AS EARLY AS 12 NOON.", "nsi_id": "unitedstatespostalservice-a77078", "operator": "United States Postal Service", "operator:short": "USPS", "operator:type": "public", "operator:wikidata": "Q668687", "ref": "2845100003"}, "type": "Feature"}
{"dataset_attributes": {"@spider": "usps_collection_boxes"}, "geometry": {"coordinates": [-78.019953413, 34.21723013], "type": "Point"}, "id": "UkS8hFynNSUzrZtWihi2UXQji8Q=", "properties": {"@spider": "usps_collection_boxes", "addr:city": "LELAND", "addr:country": "US", "addr:full": "511 OLDE WATERFORD WAY", "addr:postcode": "28451", "addr:state": "NC", "amenity": "post_box", "brand": "United States Postal Service", "brand:wikidata": "Q668687", "collection_times": "Mo-Fr 11:00", "name": "USPS COLLECTION BOX - BLUE BOX", "nsi_id": "unitedstatespostalservice-a77078", "operator": "United States Postal Service", "operator:short": "USPS", "operator:type": "public", "operator:wikidata": "Q668687", "ref": "2845100004"}, "type": "Feature"}
{"dataset_attributes": {"@spider": "usps_collection_boxes"}, "geometry": {"coordinates": [-78.031990523, 34.249442158], "type": "Point"}, "id": "X9739qMKSyWXO7vNsMWcW-nKxT4=", "properties": {"@spider": "usps_collection_boxes", "addr:city": "LELAND", "addr:country": "US", "addr:full": "1123 VILLAGE RD NE", "addr:postcode": "28451", "addr:state": "NC", "amenity": "post_box", "brand": "United States Postal Service", "brand:wikidata": "Q668687", "collection_times": "Mo-Fr 16:30; Sa 12:00", "name": "USPS COLLECTION BOX - BLUE BOX", "note": "ON 12/24 AND 12/31, THIS BOX MAY BE COLLECTED AS EARLY AS 12 NOON.", "nsi_id": "unitedstatespostalservice-a77078", "operator": "United States Postal Service", "operator:short": "USPS", "operator:type": "public", "operator:wikidata": "Q668687", "ref": "2845100005"}, "type": "Feature"}
{"dataset_attributes": {"@spider": "usps_collection_boxes"}, "geometry": {"coordinates": [-78.031990523, 34.249442158], "type": "Point"}, "id": "yVKtdwvlR9qpZU1c4B6TvHr2Egs=", "properties": {"@spider": "usps_collection_boxes", "addr:city": "LELAND", "addr:country": "US", "addr:full": "1123 VILLAGE RD NE", "addr:postcode": "28451", "addr:state": "NC", "amenity": "post_box", "brand": "United States Postal Service", "brand:wikidata": "Q668687", "collection_times": "Mo-Fr 16:30; Sa 12:00", "name": "USPS COLLECTION BOX - BLUE BOX", "note": "ON 12/24 AND 12/31, THIS BOX MAY BE COLLECTED AS EARLY AS 12 NOON.", "nsi_id": "unitedstatespostalservice-a77078", "operator": "United States Postal Service", "operator:short": "USPS", "operator:type": "public", "operator:wikidata": "Q668687", "ref": "2845100006"}, "type": "Feature"}
{"dataset_attributes": {"@spider": "usps_collection_boxes"}, "geometry": {"coordinates": [-78.028701997, 34.211046476], "type": "Point"}, "id": "fv9oPv9gZ1hDfmKSW22v2Bt4FUA=", "properties": {"@spider": "usps_collection_boxes", "addr:city": "LELAND", "addr:country": "US", "addr:full": "1012 GRANDIFLORA DR", "addr:postcode": "28451", "addr:state": "NC", "amenity": "post_box", "brand": "United States Postal Service", "brand:wikidata": "Q668687", "collection_times": "Mo-Fr 11:00", "name": "USPS COLLECTION BOX - BLUE BOX", "nsi_id": "unitedstatespostalservice-a77078", "operator": "United States Postal Service", "operator:short": "USPS", "operator:type": "public", "operator:wikidata": "Q668687", "ref": "2845100007"}, "type": "Feature"}
{"dataset_attributes": {"@spider": "usps_collection_boxes"}, "geometry": {"coordinates": [-78.031990523, 34.249442158], "type": "Point"}, "id": "UMHHyn7xA8hNRaefoOBHPoEan7o=", "properties": {"@spider": "usps_collection_boxes", "addr:city": "LELAND", "addr:country": "US", "addr:full": "1123 VILLAGE RD NE", "addr:postcode": "28451", "addr:state": "NC", "amenity": "post_box", "brand": "United States Postal Service", "brand:wikidata": "Q668687", "collection_times": "Mo-Fr 16:30; Sa 12:00", "name": "USPS COLLECTION BOX - PO LOBBY", "note": "ON 12/24 AND 12/31, THIS BOX MAY BE COLLECTED AS EARLY AS 12 NOON.", "nsi_id": "unitedstatespostalservice-a77078", "operator": "United States Postal Service", "operator:short": "USPS", "operator:type": "public", "operator:wikidata": "Q668687", "ref": "2845100008"}, "type": "Feature"}
{"dataset_attributes": {"@spider": "usps_collection_boxes"}, "geometry": {"coordinates": [-78.031990523, 34.249442158], "type": "Point"}, "id": "s1Axy0758W60epVKUOHtCqqAbIY=", "properties": {"@spider": "usps_collection_boxes", "addr:city": "LELAND", "addr:country": "US", "addr:full": "1123 VILLAGE RD NE", "addr:postcode": "28451", "addr:state": "NC", "amenity": "post_box", "brand": "United States Postal Service", "brand:wikidata": "Q668687", "collection_times": "Mo-Fr 16:30; Sa 12:00", "name": "USPS COLLECTION BOX - PO LOBBY", "note": "ON 12/24 AND 12/31, THIS BOX MAY BE COLLECTED AS EARLY AS 12 NOON.", "nsi_id": "unitedstatespostalservice-a77078", "operator": "United States Postal Service", "operator:short": "USPS", "operator:type": "public", "operator:wikidata": "Q668687", "ref": "2845100009"}, "type": "Feature"}
{"dataset_attributes": {"@spider": "usps_collection_boxes"}, "geometry": {"coordinates": [-78.031990523, 34.249442158], "type": "Point"}, "id": "Ufl-trwbiYaXjP89-WATLGz_SfA=", "properties": {"@spider": "usps_collection_boxes", "addr:city": "LELAND", "addr:country": "US", "addr:full": "1123 VILLAGE RD NE", "addr:postcode": "28451", "addr:state": "NC", "amenity": "post_box", "brand": "United States Postal Service", "brand:wikidata": "Q668687", "collection_times": "Mo-Fr 16:30; Sa 12:00", "name": "USPS COLLECTION BOX - PO LOBBY", "note": "ON 12/24 AND 12/31, THIS BOX MAY BE COLLECTED AS EARLY AS 12 NOON.", "nsi_id": "unitedstatespostalservice-a77078", "operator": "United States Postal Service", "operator:short": "USPS", "operator:type": "public", "operator:wikidata": "Q668687", "ref": "2845100010"}, "type": "Feature"}
{"dataset_attributes": {"@spider": "usps_collection_boxes"}, "geometry": {"coordinates": [-78.031990523, 34.249442158], "type": "Point"}, "id": "BdZbDNDdOtz_pd3SxQHaYbeIAhU=", "properties": {"@spider": "usps_collection_boxes", "addr:city": "LELAND", "addr:country": "US", "addr:full": "1123 VILLAGE RD NE", "addr:postcode": "28451", "addr:state": "NC", "amenity": "post_box", "brand": "United States Postal Service", "brand:wikidata": "Q668687", "collection_times": "Mo-Fr 16:30; Sa 12:00", "name": "USPS COLLECTION BOX - PO LOBBY", "note": "ON 12/24 AND 12/31, THIS BOX MAY BE COLLECTED AS EARLY AS 12 NOON.", "nsi_id": "unitedstatespostalservice-a77078", "operator": "United States Postal Service", "operator:short": "USPS", "operator:type": "public", "operator:wikidata": "Q668687", "ref": "2845100017"}, "type": "Feature"}
{"dataset_attributes": {"@spider": "usps_collection_boxes"}, "geometry": {"coordinates": [-77.880512962, 34.442752084], "type": "Point"}, "id": "PnrAtPGI_ClAs4NmprufL33D4tM=", "properties": {"@spider": "usps_collection_boxes", "addr:city": "ROCKY POINT", "addr:country": "US", "addr:full": "7974 US HIGHWAY 117 S", "addr:postcode": "28457", "addr:state": "NC", "amenity": "post_box", "brand": "United States Postal Service", "brand:wikidata": "Q668687", "collection_times": "Mo-Fr 16:30; Sa 12:00", "name": "USPS COLLECTION BOX - BLUE BOX", "note": "ON 12/24 AND 12/31, THIS BOX MAY BE COLLECTED AS EARLY AS 12 NOON.", "nsi_id": "unitedstatespostalservice-a77078", "operator": "United States Postal Service", "operator:short": "USPS", "operator:type": "public", "operator:wikidata": "Q668687", "ref": "2845700001"}, "type": "Feature"}
{"dataset_attributes": {"@spider": "usps_collection_boxes"}, "geometry": {"coordinates": [-77.880512962, 34.442752084], "type": "Point"}, "id": "cL5BQ8D6MVkuGLpZiexWxQhyJ5I=", "properties": {"@spider": "usps_collection_boxes", "addr:city": "ROCKY POINT", "addr:country": "US", "addr:full": "7974 US HIGHWAY 117 S", "addr:postcode": "28457", "addr:state": "NC", "amenity": "post_box", "brand": "United States Postal Service", "brand:wikidata": "Q668687", "collection_times": "Mo-Fr 16:30; Sa 12:00", "name": "USPS COLLECTION BOX - PO LOBBY", "note": "ON 12/24 AND 12/31, THIS BOX MAY BE COLLECTED AS EARLY AS 12 NOON.", "nsi_id": "unitedstatespostalservice-a77078", "operator": "United States Postal Service", "operator:short": "USPS", "operator:type": "public", "operator:wikidata": "Q668687", "ref": "2845700002"}, "type": "Feature"}
{"dataset_attributes": {"@spider": "usps_collection_boxes"}, "geometry": {"coordinates": [-77.880512962, 34.442752084], "type": "Point"}, "id": "QXQCVbSlsqroWRqZPjJU-FevB_o=", "properties": {"@spider": "usps_collection_boxes", "addr:city": "ROCKY POINT", "addr:country": "US", "addr:full": "7974 US HIGHWAY 117 S", "addr:postcode": "28457", "addr:state": "NC", "amenity": "post_box", "brand": "United States Postal Service", "brand:wikidata": "Q668687", "collection_times": "Mo-Fr 16:30; Sa 12:00", "name": "USPS COLLECTION BOX - PO LOBBY", "note": "ON 12/24 AND 12/31, THIS BOX MAY BE COLLECTED AS EARLY AS 12 NOON.", "nsi_id": "unitedstatespostalservice-a77078", "operator": "United States Postal Service", "operator:short": "USPS", "operator:type": "public", "operator:wikidata": "Q668687", "ref": "2845700003"}, "type": "Feature"}
{"dataset_attributes": {"@spider": "usps_collection_boxes"}, "geometry": {"coordinates": [-77.8805129624, 34.4427520844], "type": "Point"}, "id": "QSg5QYJpqrCRl_lwZlYBry4vb4I=", "properties": {"@spider": "usps_collection_boxes", "addr:city": "ROCKY POINT", "addr:country": "US", "addr:full": "7974 US HIGHWAY 117 S", "addr:postcode": "28457", "addr:state": "NC", "amenity": "post_box", "brand": "United States Postal Service", "brand:wikidata": "Q668687", "collection_times": "Mo-Fr 16:30", "name": "USPS COLLECTION BOX - PO LOBBY", "note": "ON 12/24 AND 12/31, THIS BOX MAY BE COLLECTED AS EARLY AS 12 NOON.", "nsi_id": "unitedstatespostalservice-a77078", "operator": "United States Postal Service", "operator:short": "USPS", "operator:type": "public", "operator:wikidata": "Q668687", "ref": "2845700004"}, "type": "Feature"}
{"dataset_attributes": {"@spider": "usps_collection_boxes"}, "geometry": {"coordinates": [-77.431018104, 34.54991329], "type": "Point"}, "id": "8XGZzVw4BK1912aSmudOns_x2LQ=", "properties": {"@spider": "usps_collection_boxes", "addr:city": "N TOPSAIL BEACH", "addr:country": "US", "addr:full": "2001 NC HIGHWAY 172", "addr:postcode": "28460", "addr:state": "NC", "amenity": "post_box", "brand": "United States Postal Service", "brand:wikidata": "Q668687", "collection_times": "Mo-Fr 16:15; Sa 10:00", "name": "USPS COLLECTION BOX - BLUE BOX", "note": "ON 12/24 AND 12/31, THIS BOX MAY BE COLLECTED AS EARLY AS 12 NOON.", "nsi_id": "unitedstatespostalservice-a77078", "operator": "United States Postal Service", "operator:short": "USPS", "operator:type": "public", "operator:wikidata": "Q668687", "ref": "2846000001"}, "type": "Feature"}
{"dataset_attributes": {"@spider": "usps_collection_boxes"}, "geometry": {"coordinates": [-77.42554837, 34.493257646], "type": "Point"}, "id": "wiO2oMp2t1hb7V9NYoOix2mVO4A=", "properties": {"@spider": "usps_collection_boxes", "addr:city": "N TOPSAIL BEACH", "addr:country": "US", "addr:full": "2008 LOGGERHEAD CT", "addr:postcode": "28460", "addr:state": "NC", "amenity": "post_box", "brand": "United States Postal Service", "brand:wikidata": "Q668687", "collection_times": "Mo-Fr 12:00", "name": "USPS COLLECTION BOX - BLUE BOX", "nsi_id": "unitedstatespostalservice-a77078", "operator": "United States Postal Service", "operator:short": "USPS", "operator:type": "public", "operator:wikidata": "Q668687", "ref": "2846000008"}, "type": "Feature"}
{"dataset_attributes": {"@spider": "usps_collection_boxes"}, "geometry": {"coordinates": [-77.352204899, 34.523441161], "type": "Point"}, "id": "03FfwoB6tH9guZC9UHDDEl1z_ag=", "properties": {"@spider": "usps_collection_boxes", "addr:city": "N TOPSAIL BEACH", "addr:country": "US", "addr:full": "2181 NEW RIVER INLET RD", "addr:postcode": "28460", "addr:state": "NC", "amenity": "post_box", "brand": "United States Postal Service", "brand:wikidata": "Q668687", "collection_times": "Mo-Fr 11:00", "name": "USPS COLLECTION BOX - BLUE BOX", "nsi_id": "unitedstatespostalservice-a77078", "operator": "United States Postal Service", "operator:short": "USPS", "operator:type": "public", "operator:wikidata": "Q668687", "ref": "2846000009"}, "type": "Feature"}
{"dataset_attributes": {"@spider": "usps_collection_boxes"}, "geometry": {"coordinates": [-77.436770307, 34.526277509], "type": "Point"}, "id": "wInuAl-lim7KyqHupPQce7UgXT4=", "properties": {"@spider": "usps_collection_boxes", "addr:city": "N TOPSAIL BEACH", "addr:country": "US", "addr:full": "965 OLD FOLKSTONE RD", "addr:postcode": "28460", "addr:state": "NC", "amenity": "post_box", "brand": "United States Postal Service", "brand:wikidata": "Q668687", "collection_times": "Mo-Fr 10:00", "name": "USPS COLLECTION BOX - BLUE BOX", "nsi_id": "unitedstatespostalservice-a77078", "operator": "United States Postal Service", "operator:short": "USPS", "operator:type": "public", "operator:wikidata": "Q668687", "ref": "2846000010"}, "type": "Feature"}
{"dataset_attributes": {"@spider": "usps_collection_boxes"}, "geometry": {"coordinates": [-77.431018104, 34.54991329], "type": "Point"}, "id": "CV8xjzr5gjyi331iSRyQLYxd9Vg=", "properties": {"@spider": "usps_collection_boxes", "addr:city": "N TOPSAIL BEACH", "addr:country": "US", "addr:full": "2001 NC HIGHWAY 172", "addr:postcode": "28460", "addr:state": "NC", "amenity": "post_box", "brand": "United States Postal Service", "brand:wikidata": "Q668687", "collection_times": "Mo-Fr 16:15; Sa 11:15", "name": "USPS COLLECTION BOX - PO LOBBY", "note": "ON 12/24 AND 12/31, THIS BOX MAY BE COLLECTED AS EARLY AS 12 NOON.", "nsi_id": "unitedstatespostalservice-a77078", "operator": "United States Postal Service", "operator:short": "USPS", "operator:type": "public", "operator:wikidata": "Q668687", "ref": "2846000011"}, "type": "Feature"}
{"dataset_attributes": {"@spider": "usps_collection_boxes"}, "geometry": {"coordinates": [-77.431018104, 34.54991329], "type": "Point"}, "id": "TW5llPmbXC0V4FoTwXxFK5BPcEw=", "properties": {"@spider": "usps_collection_boxes", "addr:city": "N TOPSAIL BEACH", "addr:country": "US", "addr:full": "2001 NC HIGHWAY 172", "addr:postcode": "28460", "addr:state": "NC", "amenity": "post_box", "brand": "United States Postal Service", "brand:wikidata": "Q668687", "collection_times": "Mo-Fr 16:15; Sa 11:15", "name": "USPS COLLECTION BOX - PO LOBBY", "note": "ON 12/24 AND 12/31, THIS BOX MAY BE COLLECTED AS EARLY AS 12 NOON.", "nsi_id": "unitedstatespostalservice-a77078", "operator": "United States Postal Service", "operator:short": "USPS", "operator:type": "public", "operator:wikidata": "Q668687", "ref": "2846000012"}, "type": "Feature"}
{"dataset_attributes": {"@spider": "usps_collection_boxes"}, "geometry": {"coordinates": [-77.431018104, 34.54991329], "type": "Point"}, "id": "96-0F3rrXFrghmi3gCHVNCmGeus=", "properties": {"@spider": "usps_collection_boxes", "addr:city": "N TOPSAIL BEACH", "addr:country": "US", "addr:full": "2001 NC HIGHWAY 172", "addr:postcode": "28460", "addr:state": "NC", "amenity": "post_box", "brand": "United States Postal Service", "brand:wikidata": "Q668687", "collection_times": "Mo-Fr 16:15; Sa 11:15", "name": "USPS COLLECTION BOX - PO LOBBY", "note": "ON 12/24 AND 12/31, THIS BOX MAY BE COLLECTED AS EARLY AS 12 NOON.", "nsi_id": "unitedstatespostalservice-a77078", "operator": "United States Postal Service", "operator:short": "USPS", "operator:type": "public", "operator:wikidata": "Q668687", "ref": "2846000013"}, "type": "Feature"}
{"dataset_attributes": {"@spider": "usps_collection_boxes"}, "geometry": {"coordinates": [-77.431018104, 34.54991329], "type": "Point"}, "id": "tZhI3CmaY3RXK-Y8jMMTZAwipo4=", "properties": {"@spider": "usps_collection_boxes", "addr:city": "N TOPSAIL BEACH", "addr:country": "US", "addr:full": "2001 NC HIGHWAY 172", "addr:postcode": "28460", "addr:state": "NC", "amenity": "post_box", "brand": "United States Postal Service", "brand:wikidata": "Q668687", "collection_times": "Mo-Fr 16:15; Sa 11:15", "name": "USPS COLLECTION BOX - PO LOBBY", "note": "ON 12/24 AND 12/31, THIS BOX MAY BE COLLECTED AS EARLY AS 12 NOON.", "nsi_id": "unitedstatespostalservice-a77078", "operator": "United States Postal Service", "operator:short": "USPS", "operator:type": "public", "operator:wikidata": "Q668687", "ref": "2846000017"}, "type": "Feature"}
{"dataset_attributes": {"@spider": "usps_collection_boxes"}, "geometry": {"coordinates": [-78.0671539089, 34.0308389564], "type": "Point"}, "id": "HeJozG3AKUX33hJVHAZVBi_Yc1M=", "properties": {"@spider": "usps_collection_boxes", "addr:city": "SOUTHPORT", "addr:country": "US", "addr:full": "4 E BOILING SPRING RD", "addr:postcode": "28461", "addr:state": "NC", "amenity": "post_box", "brand": "United States Postal Service", "brand:wikidata": "Q668687", "collection_times": "Mo-Sa 12:30", "name": "USPS COLLECTION BOX - BLUE BOX", "note": "ON 12/24 AND 12/31, THIS BOX MAY BE COLLECTED AS EARLY AS 12 NOON.", "nsi_id": "unitedstatespostalservice-a77078", "operator": "United States Postal Service", "operator:short": "USPS", "operator:type": "public", "operator:wikidata": "Q668687", "ref": "2846100012"}, "type": "Feature"}
{"dataset_attributes": {"@spider": "usps_collection_boxes"}, "geometry": {"coordinates": [-78.0177464703, 33.9198145059], "type": "Point"}, "id": "pjlbOzMzBDXxpYTvfx1rd0A8cjQ=", "properties": {"@spider": "usps_collection_boxes", "addr:city": "SOUTHPORT", "addr:country": "US", "addr:full": "206 E NASH ST", "addr:postcode": "28461", "addr:state": "NC", "amenity": "post_box", "brand": "United States Postal Service", "brand:wikidata": "Q668687", "collection_times": "Mo-Fr 16:30; Sa 13:30", "name": "USPS COLLECTION BOX - BLUE BOX", "note": "ON 12/24 AND 12/31, THIS BOX MAY BE COLLECTED AS EARLY AS 12 NOON.", "nsi_id": "unitedstatespostalservice-a77078", "operator": "United States Postal Service", "operator:short": "USPS", "operator:type": "public", "operator:wikidata": "Q668687", "ref": "2846100014"}, "type": "Feature"}
{"dataset_attributes": {"@spider": "usps_collection_boxes"}, "geometry": {"coordinates": [-78.0177464703, 33.9198145059], "type": "Point"}, "id": "GTeFo-imFIUnVhXoeuQoHmCugdk=", "properties": {"@spider": "usps_collection_boxes", "addr:city": "SOUTHPORT", "addr:country": "US", "addr:full": "206 E NASH ST", "addr:postcode": "28461", "addr:state": "NC", "amenity": "post_box", "brand": "United States Postal Service", "brand:wikidata": "Q668687", "collection_times": "Mo-Fr 16:30; Sa 13:30", "name": "USPS COLLECTION BOX - BLUE BOX", "note": "ON 12/24 AND 12/31, THIS BOX MAY BE COLLECTED AS EARLY AS 12 NOON.", "nsi_id": "unitedstatespostalservice-a77078", "operator": "United States Postal Service", "operator:short": "USPS", "operator:type": "public", "operator:wikidata": "Q668687", "ref": "2846100015"}, "type": "Feature"}
{"dataset_attributes": {"@spider": "usps_collection_boxes"}, "geometry": {"coordinates": [-78.0177464703, 33.9198145059], "type": "Point"}, "id": "oNFKZgc3-A5QxQR9o5AxL7z-NRA=", "properties": {"@spider": "usps_collection_boxes", "addr:city": "SOUTHPORT", "addr:country": "US", "addr:full": "206 E NASH ST", "addr:postcode": "28461", "addr:state": "NC", "amenity": "post_box", "brand": "United States Postal Service", "brand:wikidata": "Q668687", "collection_times": "Mo-Fr 16:30; Sa 13:30", "name": "USPS COLLECTION BOX - PO LOBBY", "note": "ON 12/24 AND 12/31, THIS BOX MAY BE COLLECTED AS EARLY AS 12 NOON.", "nsi_id": "unitedstatespostalservice-a77078", "operator": "United States Postal Service", "operator:short": "USPS", "operator:type": "public", "operator:wikidata": "Q668687", "ref": "2846100016"}, "type": "Feature"}
{"dataset_attributes": {"@spider": "usps_collection_boxes"}, "geometry": {"coordinates": [-78.0177464703, 33.9198145059], "type": "Point"}, "id": "ucDJJuX6F2j-kP5hnMmyJkApixE=", "properties": {"@spider": "usps_collection_boxes", "addr:city": "SOUTHPORT", "addr:country": "US", "addr:full": "206 E NASH ST", "addr:postcode": "28461", "addr:state": "NC", "amenity": "post_box", "brand": "United States Postal Service", "brand:wikidata": "Q668687", "collection_times": "Mo-Fr 16:30; Sa 13:30", "name": "USPS COLLECTION BOX - PO LOBBY", "note": "ON 12/24 AND 12/31, THIS BOX MAY BE COLLECTED AS EARLY AS 12 NOON.", "nsi_id": "unitedstatespostalservice-a77078", "operator": "United States Postal Service", "operator:short": "USPS", "operator:type": "public", "operator:wikidata": "Q668687", "ref": "2846100017"}, "type": "Feature"}
{"dataset_attributes": {"@spider": "usps_collection_boxes"}, "geometry": {"coordinates": [-78.0177464703, 33.9198145059], "type": "Point"}, "id": "L6TBSORgt6Fez0W1OXx35JLN6wM=", "properties": {"@spider": "usps_collection_boxes", "addr:city": "SOUTHPORT", "addr:country": "US", "addr:full": "206 E NASH ST", "addr:postcode": "28461", "addr:state": "NC", "amenity": "post_box", "brand": "United States Postal Service", "brand:wikidata": "Q668687", "collection_times": "Mo-Fr 16:30", "name": "USPS COLLECTION BOX - PO LOBBY", "note": "ON 12/24 AND 12/31, THIS BOX MAY BE COLLECTED AS EARLY AS 12 NOON.", "nsi_id": "unitedstatespostalservice-a77078", "operator": "United States Postal Service", "operator:short": "USPS", "operator:type": "public", "operator:wikidata": "Q668687", "ref": "2846100020"}, "type": "Feature"}
{"dataset_attributes": {"@spider": "usps_collection_boxes"}, "geometry": {"coordinates": [-78.0087534491, 34.7683035129], "type": "Point"}, "id": "PD_GquNAz8rpQJLI9mf47CfHFIg=", "properties": {"@spider": "usps_collection_boxes", "addr:city": "TEACHEY", "addr:country": "US", "addr:full": "103 N WEST AVE", "addr:postcode": "28464", "addr:state": "NC", "amenity": "post_box", "brand": "United States Postal Service", "brand:wikidata": "Q668687", "collection_times": "Mo-Fr 16:30; Sa 09:30", "name": "USPS COLLECTION BOX - BLUE BOX", "note": "ON 12/24 AND 12/31, THIS BOX MAY BE COLLECTED AS EARLY AS 12 NOON.", "nsi_id": "unitedstatespostalservice-a77078", "operator": "United States Postal Service", "operator:short": "USPS", "operator:type": "public", "operator:wikidata": "Q668687", "ref": "2846400001"}, "type": "Feature"}
{"dataset_attributes": {"@spider": "usps_collection_boxes"}, "geometry": {"coordinates": [-78.008753449, 34.768303513], "type": "Point"}, "id": "03oOWvtyuUFsPnK0dA8nqRBEDRY=", "properties": {"@spider": "usps_collection_boxes", "addr:city": "TEACHEY", "addr:country": "US", "addr:full": "103 N WEST AVE", "addr:postcode": "28464", "addr:state": "NC", "amenity": "post_box", "brand": "United States Postal Service", "brand:wikidata": "Q668687", "collection_times": "Mo-Fr 16:30; Sa 09:30", "name": "USPS COLLECTION BOX - PO LOBBY", "note": "ON 12/24 AND 12/31, THIS BOX MAY BE COLLECTED AS EARLY AS 12 NOON.", "nsi_id": "unitedstatespostalservice-a77078", "operator": "United States Postal Service", "operator:short": "USPS", "operator:type": "public", "operator:wikidata": "Q668687", "ref": "2846400004"}, "type": "Feature"}
{"dataset_attributes": {"@spider": "usps_collection_boxes"}, "geometry": {"coordinates": [-78.008753449, 34.768303513], "type": "Point"}, "id": "meeE-3YSIDA0LXC0563I3fGVMWY=", "properties": {"@spider": "usps_collection_boxes", "addr:city": "TEACHEY", "addr:country": "US", "addr:full": "103 N WEST AVE", "addr:postcode": "28464", "addr:state": "NC", "amenity": "post_box", "brand": "United States Postal Service", "brand:wikidata": "Q668687", "collection_times": "Mo-Fr 16:30; Sa 09:30", "name": "USPS COLLECTION BOX - PO LOBBY", "note": "ON 12/24 AND 12/31, THIS BOX MAY BE COLLECTED AS EARLY AS 12 NOON.", "nsi_id": "unitedstatespostalservice-a77078", "operator": "United States Postal Service", "operator:short": "USPS", "operator:type": "public", "operator:wikidata": "Q668687", "ref": "2846400005"}, "type": "Feature"}
{"dataset_attributes": {"@spider": "usps_collection_boxes"}, "geometry": {"coordinates": [-78.116220235, 33.913389082], "type": "Point"}, "id": "8EGCcKYWOUTBtoNvcjPGVaVag5A=", "properties": {"@spider": "usps_collection_boxes", "addr:city": "OAK ISLAND", "addr:country": "US", "addr:full": "4601 E OAK ISLAND DR", "addr:postcode": "28465", "addr:state": "NC", "amenity": "post_box", "brand": "United States Postal Service", "brand:wikidata": "Q668687", "collection_times": "Mo-Sa 12:30", "name": "USPS COLLECTION BOX - BLUE BOX", "note": "ON 12/24 AND 12/31, THIS BOX MAY BE COLLECTED AS EARLY AS 12 NOON.", "nsi_id": "unitedstatespostalservice-a77078", "operator": "United States Postal Service", "operator:short": "USPS", "operator:type": "public", "operator:wikidata": "Q668687", "ref": "2846500003"}, "type": "Feature"}
{"dataset_attributes": {"@spider": "usps_collection_boxes"}, "geometry": {"coordinates": [-78.106832944, 33.912136298], "type": "Point"}, "id": "tRyZs3iYzxeVxnXevmBjbkvf-BM=", "properties": {"@spider": "usps_collection_boxes", "addr:city": "OAK ISLAND", "addr:country": "US", "addr:full": "5703 E OAK ISLAND DR", "addr:postcode": "28465", "addr:state": "NC", "amenity": "post_box", "brand": "United States Postal Service", "brand:wikidata": "Q668687", "collection_times": "Mo-Fr 16:30; Sa 13:30", "name": "USPS COLLECTION BOX - PO LOBBY", "note": "ON 12/24 AND 12/31, THIS BOX MAY BE COLLECTED AS EARLY AS 12 NOON.", "nsi_id": "unitedstatespostalservice-a77078", "operator": "United States Postal Service", "operator:short": "USPS", "operator:type": "public", "operator:wikidata": "Q668687", "ref": "2846500005"}, "type": "Feature"}
{"dataset_attributes": {"@spider": "usps_collection_boxes"}, "geometry": {"coordinates": [-77.99456643, 34.736558115], "type": "Point"}, "id": "EyNG0tKKSyD12lh88nD1VRemwTc=", "properties": {"@spider": "usps_collection_boxes", "addr:city": "WALLACE", "addr:country": "US", "addr:full": "202 E SOUTHERLAND ST", "addr:postcode": "28466", "addr:state": "NC", "amenity": "post_box", "brand": "United States Postal Service", "brand:wikidata": "Q668687", "collection_times": "Mo-Fr 16:30; Sa 12:00", "name": "USPS COLLECTION BOX - BLUE BOX", "note": "ON 12/24 AND 12/31, THIS BOX MAY BE COLLECTED AS EARLY AS 12 NOON.", "nsi_id": "unitedstatespostalservice-a77078", "operator": "United States Postal Service", "operator:short": "USPS", "operator:type": "public", "operator:wikidata": "Q668687", "ref": "2846600008"}, "type": "Feature"}
{"dataset_attributes": {"@spider": "usps_collection_boxes"}, "geometry": {"coordinates": [-77.9945664298, 34.7365581152], "type": "Point"}, "id": "2bcn0iZ4T40roZaB0vKXDgiNCz4=", "properties": {"@spider": "usps_collection_boxes", "addr:city": "WALLACE", "addr:country": "US", "addr:full": "202 E SOUTHERLAND ST", "addr:postcode": "28466", "addr:state": "NC", "amenity": "post_box", "brand": "United States Postal Service", "brand:wikidata": "Q668687", "collection_times": "Mo-Fr 16:30; Sa 12:00", "name": "USPS COLLECTION BOX - BLUE BOX", "note": "ON 12/24 AND 12/31, THIS BOX MAY BE COLLECTED AS EARLY AS 12 NOON.", "nsi_id": "unitedstatespostalservice-a77078", "operator": "United States Postal Service", "operator:short": "USPS", "operator:type": "public", "operator:wikidata": "Q668687", "ref": "2846600009"}, "type": "Feature"}
{"dataset_attributes": {"@spider": "usps_collection_boxes"}, "geometry": {"coordinates": [-77.99456643, 34.736558115], "type": "Point"}, "id": "VKM-J3evWudYkkr_y2VoZuDCu-4=", "properties": {"@spider": "usps_collection_boxes", "addr:city": "WALLACE", "addr:country": "US", "addr:full": "202 E SOUTHERLAND ST", "addr:postcode": "28466", "addr:state": "NC", "amenity": "post_box", "brand": "United States Postal Service", "brand:wikidata": "Q668687", "collection_times": "Mo-Fr 16:30; Sa 12:00", "name": "USPS COLLECTION BOX - PO LOBBY", "note": "ON 12/24 AND 12/31, THIS BOX MAY BE COLLECTED AS EARLY AS 12 NOON.", "nsi_id": "unitedstatespostalservice-a77078", "operator": "United States Postal Service", "operator:short": "USPS", "operator:type": "public", "operator:wikidata": "Q668687", "ref": "2846600011"}, "type": "Feature"}
{"dataset_attributes": {"@spider": "usps_collection_boxes"}, "geometry": {"coordinates": [-77.99456643, 34.736558115], "type": "Point"}, "id": "hLKwTd857xeB_ydjJYbqZaM9IQ0=", "properties": {"@spider": "usps_collection_boxes", "addr:city": "WALLACE", "addr:country": "US", "addr:full": "202 E SOUTHERLAND ST", "addr:postcode": "28466", "addr:state": "NC", "amenity": "post_box", "brand": "United States Postal Service", "brand:wikidata": "Q668687", "collection_times": "Mo-Fr 16:30; Sa 12:00", "name": "USPS COLLECTION BOX - PO LOBBY", "note": "ON 12/24 AND 12/31, THIS BOX MAY BE COLLECTED AS EARLY AS 12 NOON.", "nsi_id": "unitedstatespostalservice-a77078", "operator": "United States Postal Service", "operator:short": "USPS", "operator:type": "public", "operator:wikidata": "Q668687", "ref": "2846600012"}, "type": "Feature"}
{"dataset_attributes": {"@spider": "usps_collection_boxes"}, "geometry": {"coordinates": [-77.99456643, 34.736558115], "type": "Point"}, "id": "mkCZqotCuDtI50spUgyHukS5ooI=", "properties": {"@spider": "usps_collection_boxes", "addr:city": "WALLACE", "addr:country": "US", "addr:full": "202 E SOUTHERLAND ST", "addr:postcode": "28466", "addr:state": "NC", "amenity": "post_box", "brand": "United States Postal Service", "brand:wikidata": "Q668687", "collection_times": "Mo-Fr 16:30; Sa 12:00", "name": "USPS COLLECTION BOX - PO LOBBY", "note": "ON 12/24 AND 12/31, THIS BOX MAY BE COLLECTED AS EARLY AS 12 NOON.", "nsi_id": "unitedstatespostalservice-a77078", "operator": "United States Postal Service", "operator:short": "USPS", "operator:type": "public", "operator:wikidata": "Q668687", "ref": "2846600014"}, "type": "Feature"}
{"dataset_attributes": {"@spider": "usps_collection_boxes"}, "geometry": {"coordinates": [-77.979240012, 34.689550379], "type": "Point"}, "id": "EzUXM2ffyV7Uptp2Gp8pVz8uPmI=", "properties": {"@spider": "usps_collection_boxes", "addr:city": "WILLARD", "addr:country": "US", "addr:full": "130 WILLARD RAILROAD ST", "addr:postcode": "28478", "addr:state": "NC", "amenity": "post_box", "brand": "United States Postal Service", "brand:wikidata": "Q668687", "collection_times": "Mo-Fr 16:30; Sa 11:30", "name": "USPS COLLECTION BOX - BLUE BOX", "note": "ON 12/24 AND 12/31, THIS BOX MAY BE COLLECTED AS EARLY AS 12 NOON.", "nsi_id": "unitedstatespostalservice-a77078", "operator": "United States Postal Service", "operator:short": "USPS", "operator:type": "public", "operator:wikidata": "Q668687", "ref": "2847800001"}, "type": "Feature"}
{"dataset_attributes": {"@spider": "usps_collection_boxes"}, "geometry": {"coordinates": [-77.979240012, 34.689550379], "type": "Point"}, "id": "yaIXw3UIugAuEYM9n71hHL6_VKI=", "properties": {"@spider": "usps_collection_boxes", "addr:city": "WILLARD", "addr:country": "US", "addr:full": "130 WILLARD RAILROAD ST", "addr:postcode": "28478", "addr:state": "NC", "amenity": "post_box", "brand": "United States Postal Service", "brand:wikidata": "Q668687", "collection_times": "Mo-Fr 16:30; Sa 11:30", "name": "USPS COLLECTION BOX - PO LOBBY", "note": "ON 12/24 AND 12/31, THIS BOX MAY BE COLLECTED AS EARLY AS 12 NOON.", "nsi_id": "unitedstatespostalservice-a77078", "operator": "United States Postal Service", "operator:short": "USPS", "operator:type": "public", "operator:wikidata": "Q668687", "ref": "2847800003"}, "type": "Feature"}
{"dataset_attributes": {"@spider": "usps_collection_boxes"}, "geometry": {"coordinates": [-77.979240012, 34.689550379], "type": "Point"}, "id": "io3aOcGiuOBn00VD16SuAhybd6o=", "properties": {"@spider": "usps_collection_boxes", "addr:city": "WILLARD", "addr:country": "US", "addr:full": "130 WILLARD RAILROAD ST", "addr:postcode": "28478", "addr:state": "NC", "amenity": "post_box", "brand": "United States Postal Service", "brand:wikidata": "Q668687", "collection_times": "Mo-Fr 16:30; Sa 11:30", "name": "USPS COLLECTION BOX - PO LOBBY", "note": "ON 12/24 AND 12/31, THIS BOX MAY BE COLLECTED AS EARLY AS 12 NOON.", "nsi_id": "unitedstatespostalservice-a77078", "operator": "United States Postal Service", "operator:short": "USPS", "operator:type": "public", "operator:wikidata": "Q668687", "ref": "2847800004"}, "type": "Feature"}
{"dataset_attributes": {"@spider": "usps_collection_boxes"}, "geometry": {"coordinates": [-77.809686336, 34.216609845], "type": "Point"}, "id": "mfkF2PPRXf0-998MFMdGOVKKF-E=", "properties": {"@spider": "usps_collection_boxes", "addr:city": "WRITSVLLE BCH", "addr:country": "US", "addr:full": "206 CAUSEWAY DR", "addr:postcode": "28480", "addr:state": "NC", "amenity": "post_box", "brand": "United States Postal Service", "brand:wikidata": "Q668687", "collection_times": "Mo-Fr 16:30; Sa 12:00", "name": "USPS COLLECTION BOX - BLUE BOX", "note": "ON 12/24 AND 12/31, THIS BOX MAY BE COLLECTED AS EARLY AS 12 NOON.", "nsi_id": "unitedstatespostalservice-a77078", "operator": "United States Postal Service", "operator:short": "USPS", "operator:type": "public", "operator:wikidata": "Q668687", "ref": "2848000003"}, "type": "Feature"}
{"dataset_attributes": {"@spider": "usps_collection_boxes"}, "geometry": {"coordinates": [-77.809686336, 34.216609845], "type": "Point"}, "id": "gnHesqe_j9KR60yVFC0YFn1UTIA=", "properties": {"@spider": "usps_collection_boxes", "addr:city": "WRITSVLLE BCH", "addr:country": "US", "addr:full": "206 CAUSEWAY DR", "addr:postcode": "28480", "addr:state": "NC", "amenity": "post_box", "brand": "United States Postal Service", "brand:wikidata": "Q668687", "collection_times": "Mo-Fr 16:30; Sa 12:00", "name": "USPS COLLECTION BOX - BLUE BOX", "note": "ON 12/24 AND 12/31, THIS BOX MAY BE COLLECTED AS EARLY AS 12 NOON.", "nsi_id": "unitedstatespostalservice-a77078", "operator": "United States Postal Service", "operator:short": "USPS", "operator:type": "public", "operator:wikidata": "Q668687", "ref": "2848000005"}, "type": "Feature"}
{"dataset_attributes": {"@spider": "usps_collection_boxes"}, "geometry": {"coordinates": [-77.809686336, 34.216609845], "type": "Point"}, "id": "qlst8_orsjqAKdsSDM3hzn4kmj8=", "properties": {"@spider": "usps_collection_boxes", "addr:city": "WRITSVLLE BCH", "addr:country": "US", "addr:full": "206 CAUSEWAY DR", "addr:postcode": "28480", "addr:state": "NC", "amenity": "post_box", "brand": "United States Postal Service", "brand:wikidata": "Q668687", "collection_times": "Mo-Fr 16:30; Sa 12:00", "name": "USPS COLLECTION BOX - PO LOBBY", "note": "ON 12/24 AND 12/31, THIS BOX MAY BE COLLECTED AS EARLY AS 12 NOON.", "nsi_id": "unitedstatespostalservice-a77078", "operator": "United States Postal Service", "operator:short": "USPS", "operator:type": "public", "operator:wikidata": "Q668687", "ref": "2848000007"}, "type": "Feature"}
{"dataset_attributes": {"@spider": "usps_collection_boxes"}, "geometry": {"coordinates": [-77.809686336, 34.216609845], "type": "Point"}, "id": "IUPD1CqjVF26k33qdsAo8o-E82c=", "properties": {"@spider": "usps_collection_boxes", "addr:city": "WRITSVLLE BCH", "addr:country": "US", "addr:full": "206 CAUSEWAY DR", "addr:postcode": "28480", "addr:state": "NC", "amenity": "post_box", "brand": "United States Postal Service", "brand:wikidata": "Q668687", "collection_times": "Mo-Fr 16:30; Sa 12:00", "name": "USPS COLLECTION BOX - PO LOBBY", "note": "ON 12/24 AND 12/31, THIS BOX MAY BE COLLECTED AS EARLY AS 12 NOON.", "nsi_id": "unitedstatespostalservice-a77078", "operator": "United States Postal Service", "operator:short": "USPS", "operator:type": "public", "operator:wikidata": "Q668687", "ref": "2848000009"}, "type": "Feature"}
{"dataset_attributes": {"@spider": "usps_collection_boxes"}, "geometry": {"coordinates": [-77.809686336, 34.216609845], "type": "Point"}, "id": "lXsR11IOfP6fApwNVemNsyafhuw=", "properties": {"@spider": "usps_collection_boxes", "addr:city": "WRITSVLLE BCH", "addr:country": "US", "addr:full": "206 CAUSEWAY DR", "addr:postcode": "28480", "addr:state": "NC", "amenity": "post_box", "brand": "United States Postal Service", "brand:wikidata": "Q668687", "collection_times": "Mo-Fr 16:30; Sa 12:00", "name": "USPS COLLECTION BOX - PO LOBBY", "note": "ON 12/24 AND 12/31, THIS BOX MAY BE COLLECTED AS EARLY AS 12 NOON.", "nsi_id": "unitedstatespostalservice-a77078", "operator": "United States Postal Service", "operator:short": "USPS", "operator:type": "public", "operator:wikidata": "Q668687", "ref": "2848000011"}, "type": "Feature"}
