{"geometry": {"coordinates": [-82.5534786, 35.594548], "type": "Point"}, "id": "CEfzjiqQ2bIWZxeLjnMdx1_rmG8=", "properties": {"@source_uri": "https://tools.usps.com/UspsToolsRestServices/rest/POLocator/findLocations", "@spider": "usps_collection_boxes", "addr:city": "ASHEVILLE", "addr:country": "US", "addr:postcode": "28801", "addr:state": "NC", "addr:street_address": "11 CHURCH ST", "amenity": "post_box", "brand": "United States Postal Service", "brand:wikidata": "Q668687", "collection_times": "Mo-Fr 12:00", "nsi_id": "unitedstatespostalservice-a77078", "operator": "United States Postal Service", "operator:short": "USPS", "operator:type": "public", "operator:wikidata": "Q668687", "ref": "2880100014"}, "type": "Feature"}
{"geometry": {"coordinates": [-82.556313, 35.596196], "type": "Point"}, "id": "jPXA-X5JLUr5GLBJeR0__2-N5_c=", "properties": {"@source_uri": "https://tools.usps.com/UspsToolsRestServices/rest/POLocator/findLocations", "@spider": "usps_collection_boxes", "addr:city": "ASHEVILLE", "addr:country": "US", "addr:postcode": "28801", "addr:state": "NC", "addr:street_address": "31 PAGE AVE", "amenity": "post_box", "brand": "United States Postal Service", "brand:wikidata": "Q668687", "collection_times": "Mo-Fr 11:00", "nsi_id": "unitedstatespostalservice-a77078", "operator": "United States Postal Service", "operator:short": "USPS", "operator:type": "public", "operator:wikidata": "Q668687", "ref": "2880100027"}, "type": "Feature"}
{"geometry": {"coordinates": [-82.550535, 35.595245], "type": "Point"}, "id": "RiqKFz6710poruxRhIiC40DyNQs=", "properties": {"@source_uri": "https://tools.usps.com/UspsToolsRestServices/rest/POLocator/findLocations", "@spider": "usps_collection_boxes", "addr:city": "ASHEVILLE", "addr:country": "US", "addr:postcode": "28801", "addr:state": "NC", "addr:street_address": "33 COXE AVE", "amenity": "post_box", "brand": "United States Postal Service", "brand:wikidata": "Q668687", "collection_times": "Mo-Fr 17:00; Sa 12:00", "note": "ON 12/24 AND 12/31, THIS BOX MAY BE COLLECTED AS EARLY AS 12 NOON.", "nsi_id": "unitedstatespostalservice-a77078", "operator": "United States Postal Service", "operator:short": "USPS", "operator:type": "public", "operator:wikidata": "Q668687", "ref": "2880100033"}, "type": "Feature"}
{"geometry": {"coordinates": [-82.550535, 35.595245], "type": "Point"}, "id": "fwuClI6bAekpXi1sjAgg7Df9mhg=", "properties": {"@source_uri": "https://tools.usps.com/UspsToolsRestServices/rest/POLocator/findLocations", "@spider": "usps_collection_boxes", "addr:city": "ASHEVILLE", "addr:country": "US", "addr:postcode": "28801", "addr:state": "NC", "addr:street_address": "33 COXE AVE", "amenity": "post_box", "brand": "United States Postal Service", "brand:wikidata": "Q668687", "collection_times": "Mo-Fr 17:00; Sa 12:00", "note": "ON 12/24 AND 12/31, THIS BOX MAY BE COLLECTED AS EARLY AS 12 NOON.", "nsi_id": "unitedstatespostalservice-a77078", "operator": "United States Postal Service", "operator:short": "USPS", "operator:type": "public", "operator:wikidata": "Q668687", "ref": "2880100034"}, "type": "Feature"}
{"geometry": {"coordinates": [-82.550535, 35.595245], "type": "Point"}, "id": "UgCo0ecLjoAZcyXHufWCD25obMM=", "properties": {"@source_uri": "https://tools.usps.com/UspsToolsRestServices/rest/POLocator/findLocations", "@spider": "usps_collection_boxes", "addr:city": "ASHEVILLE", "addr:country": "US", "addr:postcode": "28801", "addr:state": "NC", "addr:street_address": "33 COXE AVE", "amenity": "post_box", "brand": "United States Postal Service", "brand:wikidata": "Q668687", "collection_times": "Mo-Fr 17:00; Sa 12:00", "note": "ON 12/24 AND 12/31, THIS BOX MAY BE COLLECTED AS EARLY AS 12 NOON.", "nsi_id": "unitedstatespostalservice-a77078", "operator": "United States Postal Service", "operator:short": "USPS", "operator:type": "public", "operator:wikidata": "Q668687", "ref": "2880100035"}, "type": "Feature"}
{"geometry": {"coordinates": [-82.550535, 35.595245], "type": "Point"}, "id": "ALiOEXocl2a7UAqWWe-rFDF9unw=", "properties": {"@source_uri": "https://tools.usps.com/UspsToolsRestServices/rest/POLocator/findLocations", "@spider": "usps_collection_boxes", "addr:city": "ASHEVILLE", "addr:country": "US", "addr:postcode": "28801", "addr:state": "NC", "addr:street_address": "29 N MARKET ST", "amenity": "post_box", "brand": "United States Postal Service", "brand:wikidata": "Q668687", "collection_times": "Mo-Fr 13:00", "note": "ON 12/24 AND 12/31, THIS BOX MAY BE COLLECTED AS EARLY AS 12 NOON.", "nsi_id": "unitedstatespostalservice-a77078", "operator": "United States Postal Service", "operator:short": "USPS", "operator:type": "public", "operator:wikidata": "Q668687", "ref": "2880100081"}, "type": "Feature"}
{"geometry": {"coordinates": [-82.5460569, 35.599745], "type": "Point"}, "id": "f-SgSQfER9T9MB1wgdJpHEyNyl8=", "properties": {"@source_uri": "https://tools.usps.com/UspsToolsRestServices/rest/POLocator/findLocations", "@spider": "usps_collection_boxes", "addr:city": "ASHEVILLE", "addr:country": "US", "addr:postcode": "28801", "addr:state": "NC", "addr:street_address": "70 WOODFIN PL", "amenity": "post_box", "brand": "United States Postal Service", "brand:wikidata": "Q668687", "collection_times": "Mo-Fr 13:15", "note": "ON 12/24 AND 12/31, THIS BOX MAY BE COLLECTED AS EARLY AS 12 NOON.", "nsi_id": "unitedstatespostalservice-a77078", "operator": "United States Postal Service", "operator:short": "USPS", "operator:type": "public", "operator:wikidata": "Q668687", "ref": "2880100088"}, "type": "Feature"}
{"geometry": {"coordinates": [-82.5489714, 35.595988], "type": "Point"}, "id": "imv2W8dQmnMXxPPhPyFey78wXvk=", "properties": {"@source_uri": "https://tools.usps.com/UspsToolsRestServices/rest/POLocator/findLocations", "@spider": "usps_collection_boxes", "addr:city": "ASHEVILLE", "addr:country": "US", "addr:postcode": "28801", "addr:state": "NC", "addr:street_address": "60 COURT PLZ", "amenity": "post_box", "brand": "United States Postal Service", "brand:wikidata": "Q668687", "collection_times": "Mo-Fr 16:00", "note": "ON 12/24 AND 12/31, THIS BOX MAY BE COLLECTED AS EARLY AS 12 NOON.", "nsi_id": "unitedstatespostalservice-a77078", "operator": "United States Postal Service", "operator:short": "USPS", "operator:type": "public", "operator:wikidata": "Q668687", "ref": "2880100098"}, "type": "Feature"}
{"geometry": {"coordinates": [-82.5489633, 35.595994], "type": "Point"}, "id": "bIBYhb5KU-G3dMpnWViXh4R0xJs=", "properties": {"@source_uri": "https://tools.usps.com/UspsToolsRestServices/rest/POLocator/findLocations", "@spider": "usps_collection_boxes", "addr:city": "ASHEVILLE", "addr:country": "US", "addr:postcode": "28801", "addr:state": "NC", "addr:street_address": "60 COURT PLZ", "amenity": "post_box", "brand": "United States Postal Service", "brand:wikidata": "Q668687", "collection_times": "Mo-Fr 16:00", "note": "ON 12/24 AND 12/31, THIS BOX MAY BE COLLECTED AS EARLY AS 12 NOON.", "nsi_id": "unitedstatespostalservice-a77078", "operator": "United States Postal Service", "operator:short": "USPS", "operator:type": "public", "operator:wikidata": "Q668687", "ref": "2880100099"}, "type": "Feature"}
{"geometry": {"coordinates": [-82.5453722, 35.598021], "type": "Point"}, "id": "6ww5toW_R4NjAzDuFpezmQdAEsA=", "properties": {"@source_uri": "https://tools.usps.com/UspsToolsRestServices/rest/POLocator/findLocations", "@spider": "usps_collection_boxes", "addr:city": "ASHEVILLE", "addr:country": "US", "addr:postcode": "28801", "addr:state": "NC", "addr:street_address": "COLLEGE ST", "amenity": "post_box", "brand": "United States Postal Service", "brand:wikidata": "Q668687", "collection_times": "Mo-Fr 13:15; Sa 13:00", "note": "ON 12/24 AND 12/31, THIS BOX MAY BE COLLECTED AS EARLY AS 12 NOON.", "nsi_id": "unitedstatespostalservice-a77078", "operator": "United States Postal Service", "operator:short": "USPS", "operator:type": "public", "operator:wikidata": "Q668687", "ref": "2880100102"}, "type": "Feature"}
{"geometry": {"coordinates": [-82.5546437, 35.595594], "type": "Point"}, "id": "24hKKIwqQIs_-asKE0NUJ1IkihE=", "properties": {"@source_uri": "https://tools.usps.com/UspsToolsRestServices/rest/POLocator/findLocations", "@spider": "usps_collection_boxes", "addr:city": "ASHEVILLE", "addr:country": "US", "addr:postcode": "28801", "addr:state": "NC", "addr:street_address": "46 HAYWOOD ST", "amenity": "post_box", "brand": "United States Postal Service", "brand:wikidata": "Q668687", "collection_times": "Mo-Fr 12:00; Sa 12:15", "note": "ON 12/24 AND 12/31, THIS BOX MAY BE COLLECTED AS EARLY AS 12 NOON.", "nsi_id": "unitedstatespostalservice-a77078", "operator": "United States Postal Service", "operator:short": "USPS", "operator:type": "public", "operator:wikidata": "Q668687", "ref": "2880100118"}, "type": "Feature"}
{"geometry": {"coordinates": [-82.5502953, 35.580588], "type": "Point"}, "id": "mfA7_wzEcE3sR4hKeMx7y_p7Omk=", "properties": {"@source_uri": "https://tools.usps.com/UspsToolsRestServices/rest/POLocator/findLocations", "@spider": "usps_collection_boxes", "addr:city": "ASHEVILLE", "addr:country": "US", "addr:postcode": "28801", "addr:state": "NC", "addr:street_address": "428 BILTMORE AVE", "amenity": "post_box", "brand": "United States Postal Service", "brand:wikidata": "Q668687", "collection_times": "Mo-Fr 09:30", "nsi_id": "unitedstatespostalservice-a77078", "operator": "United States Postal Service", "operator:short": "USPS", "operator:type": "public", "operator:wikidata": "Q668687", "ref": "2880100125"}, "type": "Feature"}
{"geometry": {"coordinates": [-82.5498429, 35.576489], "type": "Point"}, "id": "oco3dJwE6jpN9Yw0s9ZOc31VgkA=", "properties": {"@source_uri": "https://tools.usps.com/UspsToolsRestServices/rest/POLocator/findLocations", "@spider": "usps_collection_boxes", "addr:city": "ASHEVILLE", "addr:country": "US", "addr:postcode": "28801", "addr:state": "NC", "addr:street_address": "509 BILTMORE AVE", "amenity": "post_box", "brand": "United States Postal Service", "brand:wikidata": "Q668687", "collection_times": "Mo-Sa 10:00", "nsi_id": "unitedstatespostalservice-a77078", "operator": "United States Postal Service", "operator:short": "USPS", "operator:type": "public", "operator:wikidata": "Q668687", "ref": "2880100126"}, "type": "Feature"}
{"geometry": {"coordinates": [-82.5588449, 35.591768], "type": "Point"}, "id": "7V-T49y2QSAfshY6pCCOOcA62bE=", "properties": {"@source_uri": "https://tools.usps.com/UspsToolsRestServices/rest/POLocator/findLocations", "@spider": "usps_collection_boxes", "addr:city": "ASHEVILLE", "addr:country": "US", "addr:postcode": "28801", "addr:state": "NC", "addr:street_address": "50 S FRENCH BROAD AVE", "amenity": "post_box", "brand": "United States Postal Service", "brand:wikidata": "Q668687", "collection_times": "Mo-Fr 10:00", "nsi_id": "unitedstatespostalservice-a77078", "operator": "United States Postal Service", "operator:short": "USPS", "operator:type": "public", "operator:wikidata": "Q668687", "ref": "2880100129"}, "type": "Feature"}
{"geometry": {"coordinates": [-82.5508392844, 35.5807266462], "type": "Point"}, "id": "BOstJbHvGW1QJWM3P8kMF6NUAeQ=", "properties": {"@source_uri": "https://tools.usps.com/UspsToolsRestServices/rest/POLocator/findLocations", "@spider": "usps_collection_boxes", "addr:city": "ASHEVILLE", "addr:country": "US", "addr:postcode": "28801", "addr:state": "NC", "addr:street_address": "417 BILTMORE AVE", "amenity": "post_box", "brand": "United States Postal Service", "brand:wikidata": "Q668687", "collection_times": "Mo-Fr 10:00", "nsi_id": "unitedstatespostalservice-a77078", "operator": "United States Postal Service", "operator:short": "USPS", "operator:type": "public", "operator:wikidata": "Q668687", "ref": "2880100137"}, "type": "Feature"}
{"geometry": {"coordinates": [-82.5576068, 35.591834], "type": "Point"}, "id": "NTBMju8kGAHxz1yy-aYLpzAy6Kk=", "properties": {"@source_uri": "https://tools.usps.com/UspsToolsRestServices/rest/POLocator/findLocations", "@spider": "usps_collection_boxes", "addr:city": "ASHEVILLE", "addr:country": "US", "addr:postcode": "28801", "addr:state": "NC", "addr:street_address": "48 GROVE ST", "amenity": "post_box", "brand": "United States Postal Service", "brand:wikidata": "Q668687", "collection_times": "Mo-Fr 10:00", "nsi_id": "unitedstatespostalservice-a77078", "operator": "United States Postal Service", "operator:short": "USPS", "operator:type": "public", "operator:wikidata": "Q668687", "ref": "2880100139"}, "type": "Feature"}
{"geometry": {"coordinates": [-82.5571947, 35.594495], "type": "Point"}, "id": "nsrxv2790j-VVI6HG6mVQIr7Jnc=", "properties": {"@source_uri": "https://tools.usps.com/UspsToolsRestServices/rest/POLocator/findLocations", "@spider": "usps_collection_boxes", "addr:city": "ASHEVILLE", "addr:country": "US", "addr:postcode": "28801", "addr:state": "NC", "addr:street_address": "100 OTIS ST", "amenity": "post_box", "brand": "United States Postal Service", "brand:wikidata": "Q668687", "collection_times": "Mo-Fr 16:00", "note": "ON 12/24 AND 12/31, THIS BOX MAY BE COLLECTED AS EARLY AS 12 NOON.", "nsi_id": "unitedstatespostalservice-a77078", "operator": "United States Postal Service", "operator:short": "USPS", "operator:type": "public", "operator:wikidata": "Q668687", "ref": "2880100143"}, "type": "Feature"}
{"geometry": {"coordinates": [-82.5474372, 35.597501], "type": "Point"}, "id": "JngoiVGIK6E8hKxZNF0Fttc3dd8=", "properties": {"@source_uri": "https://tools.usps.com/UspsToolsRestServices/rest/POLocator/findLocations", "@spider": "usps_collection_boxes", "addr:city": "ASHEVILLE", "addr:country": "US", "addr:postcode": "28801", "addr:state": "NC", "addr:street_address": "1 OAK PLZ", "amenity": "post_box", "brand": "United States Postal Service", "brand:wikidata": "Q668687", "collection_times": "Mo-Fr 13:15", "note": "ON 12/24 AND 12/31, THIS BOX MAY BE COLLECTED AS EARLY AS 12 NOON.", "nsi_id": "unitedstatespostalservice-a77078", "operator": "United States Postal Service", "operator:short": "USPS", "operator:type": "public", "operator:wikidata": "Q668687", "ref": "2880100144"}, "type": "Feature"}
{"geometry": {"coordinates": [-82.5534513, 35.59531], "type": "Point"}, "id": "nLIvdQJS2sdfXo0u_tnQGSkzTI4=", "properties": {"@source_uri": "https://tools.usps.com/UspsToolsRestServices/rest/POLocator/findLocations", "@spider": "usps_collection_boxes", "addr:city": "ASHEVILLE", "addr:country": "US", "addr:postcode": "28801", "addr:state": "NC", "addr:street_address": "1 RANKIN AVE", "amenity": "post_box", "brand": "United States Postal Service", "brand:wikidata": "Q668687", "collection_times": "Mo-Fr 16:15", "note": "ON 12/24 AND 12/31, THIS BOX MAY BE COLLECTED AS EARLY AS 12 NOON.", "nsi_id": "unitedstatespostalservice-a77078", "operator": "United States Postal Service", "operator:short": "USPS", "operator:type": "public", "operator:wikidata": "Q668687", "ref": "2880100154"}, "type": "Feature"}
{"geometry": {"coordinates": [-82.5509609, 35.592602], "type": "Point"}, "id": "SlUKZ3YwpFh3jDW_MsBPSY-YZcw=", "properties": {"@source_uri": "https://tools.usps.com/UspsToolsRestServices/rest/POLocator/findLocations", "@spider": "usps_collection_boxes", "addr:city": "ASHEVILLE", "addr:country": "US", "addr:postcode": "28801", "addr:state": "NC", "addr:street_address": "64 BILTMORE AVE", "amenity": "post_box", "brand": "United States Postal Service", "brand:wikidata": "Q668687", "collection_times": "Mo-Fr 11:00", "nsi_id": "unitedstatespostalservice-a77078", "operator": "United States Postal Service", "operator:short": "USPS", "operator:type": "public", "operator:wikidata": "Q668687", "ref": "2880100158"}, "type": "Feature"}
{"geometry": {"coordinates": [-82.6311841, 35.613575], "type": "Point"}, "id": "l70P-fg6xpBzJltak9pNDJsVdpQ=", "properties": {"@source_uri": "https://tools.usps.com/UspsToolsRestServices/rest/POLocator/findLocations", "@spider": "usps_collection_boxes", "addr:city": "ASHEVILLE", "addr:country": "US", "addr:postcode": "28801", "addr:state": "NC", "addr:street_address": "575 NEW LEICESTER HWY", "amenity": "post_box", "brand": "United States Postal Service", "brand:wikidata": "Q668687", "collection_times": "Mo-Fr 11:00", "nsi_id": "unitedstatespostalservice-a77078", "operator": "United States Postal Service", "operator:short": "USPS", "operator:type": "public", "operator:wikidata": "Q668687", "ref": "2880100159"}, "type": "Feature"}
{"geometry": {"coordinates": [-82.550535, 35.595245], "type": "Point"}, "id": "CRRk_ZwxZbTWvrGHawQxPLXJwek=", "properties": {"@source_uri": "https://tools.usps.com/UspsToolsRestServices/rest/POLocator/findLocations", "@spider": "usps_collection_boxes", "addr:city": "ASHEVILLE", "addr:country": "US", "addr:postcode": "28801", "addr:state": "NC", "addr:street_address": "33 COXE AVE", "amenity": "post_box", "brand": "United States Postal Service", "brand:wikidata": "Q668687", "collection_times": "Mo-Fr 17:00; Sa 13:00", "indoor": "yes", "note": "ON 12/24 AND 12/31, THIS BOX MAY BE COLLECTED AS EARLY AS 12 NOON.", "nsi_id": "unitedstatespostalservice-a77078", "operator": "United States Postal Service", "operator:short": "USPS", "operator:type": "public", "operator:wikidata": "Q668687", "ref": "2880100162"}, "type": "Feature"}
{"geometry": {"coordinates": [-82.550535, 35.595245], "type": "Point"}, "id": "8jN_nP5PoD3ha8AdJQPBMq3oXM8=", "properties": {"@source_uri": "https://tools.usps.com/UspsToolsRestServices/rest/POLocator/findLocations", "@spider": "usps_collection_boxes", "addr:city": "ASHEVILLE", "addr:country": "US", "addr:postcode": "28801", "addr:state": "NC", "addr:street_address": "33 COXE AVE", "amenity": "post_box", "brand": "United States Postal Service", "brand:wikidata": "Q668687", "collection_times": "Mo-Fr 17:00; Sa 13:00", "indoor": "yes", "note": "ON 12/24 AND 12/31, THIS BOX MAY BE COLLECTED AS EARLY AS 12 NOON.", "nsi_id": "unitedstatespostalservice-a77078", "operator": "United States Postal Service", "operator:short": "USPS", "operator:type": "public", "operator:wikidata": "Q668687", "ref": "2880100163"}, "type": "Feature"}
{"geometry": {"coordinates": [-82.5513614, 35.594951], "type": "Point"}, "id": "IgzNJldksuqwR7yt-LKgl3kU-58=", "properties": {"@source_uri": "https://tools.usps.com/UspsToolsRestServices/rest/POLocator/findLocations", "@spider": "usps_collection_boxes", "addr:city": "ASHEVILLE", "addr:country": "US", "addr:postcode": "28801", "addr:state": "NC", "addr:street_address": "10 S PACK SQ", "amenity": "post_box", "brand": "United States Postal Service", "brand:wikidata": "Q668687", "collection_times": "Mo-Fr 16:00", "note": "ON 12/24 AND 12/31, THIS BOX MAY BE COLLECTED AS EARLY AS 12 NOON.", "nsi_id": "unitedstatespostalservice-a77078", "operator": "United States Postal Service", "operator:short": "USPS", "operator:type": "public", "operator:wikidata": "Q668687", "ref": "2880100164"}, "type": "Feature"}
{"geometry": {"coordinates": [-82.550535, 35.595245], "type": "Point"}, "id": "MQ0xh1yvtK8Me0FrZ61Xc9IZC0A=", "properties": {"@source_uri": "https://tools.usps.com/UspsToolsRestServices/rest/POLocator/findLocations", "@spider": "usps_collection_boxes", "addr:city": "ASHEVILLE", "addr:country": "US", "addr:postcode": "28801", "addr:state": "NC", "addr:street_address": "33 COXE AVE", "amenity": "post_box", "brand": "United States Postal Service", "brand:wikidata": "Q668687", "collection_times": "Mo-Fr 17:00; Sa 12:00", "indoor": "yes", "note": "ON 12/24 AND 12/31, THIS BOX MAY BE COLLECTED AS EARLY AS 12 NOON.", "nsi_id": "unitedstatespostalservice-a77078", "operator": "United States Postal Service", "operator:short": "USPS", "operator:type": "public", "operator:wikidata": "Q668687", "ref": "2880100168"}, "type": "Feature"}
{"geometry": {"coordinates": [-82.550494998, 35.6011329804], "type": "Point"}, "id": "1naKZeUX1TW4moWLS6oG38p_0Hg=", "properties": {"@source_uri": "https://tools.usps.com/UspsToolsRestServices/rest/POLocator/findLocations", "@spider": "usps_collection_boxes", "addr:city": "ASHEVILLE", "addr:country": "US", "addr:postcode": "28801", "addr:state": "NC", "addr:street_address": "55 ORANGE ST", "amenity": "post_box", "brand": "United States Postal Service", "brand:wikidata": "Q668687", "collection_times": "Mo-Fr 12:00", "nsi_id": "unitedstatespostalservice-a77078", "operator": "United States Postal Service", "operator:short": "USPS", "operator:type": "public", "operator:wikidata": "Q668687", "ref": "2880100169"}, "type": "Feature"}
{"geometry": {"coordinates": [-82.533232672, 35.543823192], "type": "Point"}, "id": "sesbFspr9TL3d0NWCaMqB63kBy4=", "properties": {"@source_uri": "https://tools.usps.com/UspsToolsRestServices/rest/POLocator/findLocations", "@spider": "usps_collection_boxes", "addr:city": "ASHEVILLE", "addr:country": "US", "addr:postcode": "28803", "addr:state": "NC", "addr:street_address": "780 HENDERSONVILLE RD", "amenity": "post_box", "brand": "United States Postal Service", "brand:wikidata": "Q668687", "collection_times": "Mo-Fr 17:00; Sa 13:30", "note": "ON 12/24 AND 12/31, THIS BOX MAY BE COLLECTED AS EARLY AS 12 NOON.", "nsi_id": "unitedstatespostalservice-a77078", "operator": "United States Postal Service", "operator:short": "USPS", "operator:type": "public", "operator:wikidata": "Q668687", "ref": "2880300004"}, "type": "Feature"}
{"geometry": {"coordinates": [-82.533232672, 35.543823192], "type": "Point"}, "id": "27ImN7P1kxGBZ636rWVfQTeIeFY=", "properties": {"@source_uri": "https://tools.usps.com/UspsToolsRestServices/rest/POLocator/findLocations", "@spider": "usps_collection_boxes", "addr:city": "ASHEVILLE", "addr:country": "US", "addr:postcode": "28803", "addr:state": "NC", "addr:street_address": "780 HENDERSONVILLE RD", "amenity": "post_box", "brand": "United States Postal Service", "brand:wikidata": "Q668687", "collection_times": "Mo-Fr 17:00; Sa 13:30", "note": "ON 12/24 AND 12/31, THIS BOX MAY BE COLLECTED AS EARLY AS 12 NOON.", "nsi_id": "unitedstatespostalservice-a77078", "operator": "United States Postal Service", "operator:short": "USPS", "operator:type": "public", "operator:wikidata": "Q668687", "ref": "2880300005"}, "type": "Feature"}
{"geometry": {"coordinates": [-82.533232672, 35.543823192], "type": "Point"}, "id": "ZQ-TmqtcsfreVLT34StU5DFJbVM=", "properties": {"@source_uri": "https://tools.usps.com/UspsToolsRestServices/rest/POLocator/findLocations", "@spider": "usps_collection_boxes", "addr:city": "ASHEVILLE", "addr:country": "US", "addr:postcode": "28803", "addr:state": "NC", "addr:street_address": "780 HENDERSONVILLE RD", "amenity": "post_box", "brand": "United States Postal Service", "brand:wikidata": "Q668687", "collection_times": "Mo-Fr 17:00; Sa 13:30", "note": "ON 12/24 AND 12/31, THIS BOX MAY BE COLLECTED AS EARLY AS 12 NOON.", "nsi_id": "unitedstatespostalservice-a77078", "operator": "United States Postal Service", "operator:short": "USPS", "operator:type": "public", "operator:wikidata": "Q668687", "ref": "2880300006"}, "type": "Feature"}
{"geometry": {"coordinates": [-82.5417542, 35.565607], "type": "Point"}, "id": "jowT2EZ25SJ9-CaKaEuynDCyOwk=", "properties": {"@source_uri": "https://tools.usps.com/UspsToolsRestServices/rest/POLocator/findLocations", "@spider": "usps_collection_boxes", "addr:city": "ASHEVILLE", "addr:country": "US", "addr:postcode": "28803", "addr:state": "NC", "addr:street_address": "13 ALL SOULS CRES", "amenity": "post_box", "brand": "United States Postal Service", "brand:wikidata": "Q668687", "collection_times": "Mo-Fr 12:30", "note": "ON 12/24 AND 12/31, THIS BOX MAY BE COLLECTED AS EARLY AS 12 NOON.", "nsi_id": "unitedstatespostalservice-a77078", "operator": "United States Postal Service", "operator:short": "USPS", "operator:type": "public", "operator:wikidata": "Q668687", "ref": "2880300007"}, "type": "Feature"}
{"geometry": {"coordinates": [-82.5461049, 35.573152], "type": "Point"}, "id": "rpPVSjkLoJPs5nwn_sqije2eB9A=", "properties": {"@source_uri": "https://tools.usps.com/UspsToolsRestServices/rest/POLocator/findLocations", "@spider": "usps_collection_boxes", "addr:city": "ASHEVILLE", "addr:country": "US", "addr:postcode": "28803", "addr:state": "NC", "addr:street_address": "675 BILTMORE AVE", "amenity": "post_box", "brand": "United States Postal Service", "brand:wikidata": "Q668687", "collection_times": "Mo-Fr 10:00", "nsi_id": "unitedstatespostalservice-a77078", "operator": "United States Postal Service", "operator:short": "USPS", "operator:type": "public", "operator:wikidata": "Q668687", "ref": "2880300008"}, "type": "Feature"}
{"geometry": {"coordinates": [-82.5286626, 35.523122], "type": "Point"}, "id": "I7lOSIeF95jWUiWkzl2wn2ifSVc=", "properties": {"@source_uri": "https://tools.usps.com/UspsToolsRestServices/rest/POLocator/findLocations", "@spider": "usps_collection_boxes", "addr:city": "ASHEVILLE", "addr:country": "US", "addr:postcode": "28803", "addr:state": "NC", "addr:street_address": "1378 HENDERSONVILLE RD", "amenity": "post_box", "brand": "United States Postal Service", "brand:wikidata": "Q668687", "collection_times": "Mo-Fr 10:00", "nsi_id": "unitedstatespostalservice-a77078", "operator": "United States Postal Service", "operator:short": "USPS", "operator:type": "public", "operator:wikidata": "Q668687", "ref": "2880300012"}, "type": "Feature"}
{"geometry": {"coordinates": [-82.5223449, 35.513276], "type": "Point"}, "id": "mGN0Who4GDGjuViTo07QYxsqgM4=", "properties": {"@source_uri": "https://tools.usps.com/UspsToolsRestServices/rest/POLocator/findLocations", "@spider": "usps_collection_boxes", "addr:city": "ASHEVILLE", "addr:country": "US", "addr:postcode": "28803", "addr:state": "NC", "addr:street_address": "80 PEACHTREE RD", "amenity": "post_box", "brand": "United States Postal Service", "brand:wikidata": "Q668687", "collection_times": "Mo-Fr 10:00", "nsi_id": "unitedstatespostalservice-a77078", "operator": "United States Postal Service", "operator:short": "USPS", "operator:type": "public", "operator:wikidata": "Q668687", "ref": "2880300013"}, "type": "Feature"}
{"geometry": {"coordinates": [-82.5369333, 35.540698], "type": "Point"}, "id": "Sr6V5c7S_FNiyLfPaS68bbJB08Y=", "properties": {"@source_uri": "https://tools.usps.com/UspsToolsRestServices/rest/POLocator/findLocations", "@spider": "usps_collection_boxes", "addr:city": "ASHEVILLE", "addr:country": "US", "addr:postcode": "28803", "addr:state": "NC", "addr:street_address": "355 VANDERBILT RD", "amenity": "post_box", "brand": "United States Postal Service", "brand:wikidata": "Q668687", "collection_times": "Mo-Fr 12:45", "note": "ON 12/24 AND 12/31, THIS BOX MAY BE COLLECTED AS EARLY AS 12 NOON.", "nsi_id": "unitedstatespostalservice-a77078", "operator": "United States Postal Service", "operator:short": "USPS", "operator:type": "public", "operator:wikidata": "Q668687", "ref": "2880300016"}, "type": "Feature"}
{"geometry": {"coordinates": [-82.5585385, 35.48856], "type": "Point"}, "id": "uZvkXHOhvTRxBL4FMYwNBy982r4=", "properties": {"@source_uri": "https://tools.usps.com/UspsToolsRestServices/rest/POLocator/findLocations", "@spider": "usps_collection_boxes", "addr:city": "ASHEVILLE", "addr:country": "US", "addr:postcode": "28803", "addr:state": "NC", "addr:street_address": "115 TECHNOLOGY DR", "amenity": "post_box", "brand": "United States Postal Service", "brand:wikidata": "Q668687", "collection_times": "Mo-Fr 12:00", "nsi_id": "unitedstatespostalservice-a77078", "operator": "United States Postal Service", "operator:short": "USPS", "operator:type": "public", "operator:wikidata": "Q668687", "ref": "2880300017"}, "type": "Feature"}
{"geometry": {"coordinates": [-82.5059236, 35.5704], "type": "Point"}, "id": "QzyVQiL3WJDezzLRgoCT0kD-Now=", "properties": {"@source_uri": "https://tools.usps.com/UspsToolsRestServices/rest/POLocator/findLocations", "@spider": "usps_collection_boxes", "addr:city": "ASHEVILLE", "addr:country": "US", "addr:postcode": "28803", "addr:state": "NC", "addr:street_address": "800 FAIRVIEW RD", "amenity": "post_box", "brand": "United States Postal Service", "brand:wikidata": "Q668687", "collection_times": "Mo-Fr 12:15", "note": "ON 12/24 AND 12/31, THIS BOX MAY BE COLLECTED AS EARLY AS 12 NOON.", "nsi_id": "unitedstatespostalservice-a77078", "operator": "United States Postal Service", "operator:short": "USPS", "operator:type": "public", "operator:wikidata": "Q668687", "ref": "2880300021"}, "type": "Feature"}
{"geometry": {"coordinates": [-82.5541326, 35.487117], "type": "Point"}, "id": "Q8qsKpgypNquwmrmfIUQ16T3zM4=", "properties": {"@source_uri": "https://tools.usps.com/UspsToolsRestServices/rest/POLocator/findLocations", "@spider": "usps_collection_boxes", "addr:city": "ASHEVILLE", "addr:country": "US", "addr:postcode": "28803", "addr:state": "NC", "addr:street_address": "1 TOWN SQUARE BLVD", "amenity": "post_box", "brand": "United States Postal Service", "brand:wikidata": "Q668687", "collection_times": "Mo-Fr 12:00", "nsi_id": "unitedstatespostalservice-a77078", "operator": "United States Postal Service", "operator:short": "USPS", "operator:type": "public", "operator:wikidata": "Q668687", "ref": "2880300023"}, "type": "Feature"}
{"geometry": {"coordinates": [-82.554539185, 35.623809001], "type": "Point"}, "id": "SLH-Al-rOsydFwOV8FnwZO4ybno=", "properties": {"@source_uri": "https://tools.usps.com/UspsToolsRestServices/rest/POLocator/findLocations", "@spider": "usps_collection_boxes", "addr:city": "ASHEVILLE", "addr:country": "US", "addr:postcode": "28804", "addr:state": "NC", "addr:street_address": "725 MERRIMON AVE", "amenity": "post_box", "brand": "United States Postal Service", "brand:wikidata": "Q668687", "collection_times": "Mo-Fr 17:00; Sa 13:00", "note": "ON 12/24 AND 12/31, THIS BOX MAY BE COLLECTED AS EARLY AS 12 NOON.", "nsi_id": "unitedstatespostalservice-a77078", "operator": "United States Postal Service", "operator:short": "USPS", "operator:type": "public", "operator:wikidata": "Q668687", "ref": "2880400000"}, "type": "Feature"}
{"geometry": {"coordinates": [-82.5540029, 35.629499], "type": "Point"}, "id": "pXwLNaBSMqwyUB0hjC7EH7M12l4=", "properties": {"@source_uri": "https://tools.usps.com/UspsToolsRestServices/rest/POLocator/findLocations", "@spider": "usps_collection_boxes", "addr:city": "ASHEVILLE", "addr:country": "US", "addr:postcode": "28804", "addr:state": "NC", "addr:street_address": "860 MERRIMON AVE", "amenity": "post_box", "brand": "United States Postal Service", "brand:wikidata": "Q668687", "collection_times": "Mo-Fr 13:30", "note": "ON 12/24 AND 12/31, THIS BOX MAY BE COLLECTED AS EARLY AS 12 NOON.", "nsi_id": "unitedstatespostalservice-a77078", "operator": "United States Postal Service", "operator:short": "USPS", "operator:type": "public", "operator:wikidata": "Q668687", "ref": "2880400004"}, "type": "Feature"}
{"geometry": {"coordinates": [-82.5527319, 35.626715], "type": "Point"}, "id": "_jqNvDk4sIxlLwwbWRuU-c0H78U=", "properties": {"@source_uri": "https://tools.usps.com/UspsToolsRestServices/rest/POLocator/findLocations", "@spider": "usps_collection_boxes", "addr:city": "ASHEVILLE", "addr:country": "US", "addr:postcode": "28804", "addr:state": "NC", "addr:street_address": "825 MERRIMON AVE", "amenity": "post_box", "brand": "United States Postal Service", "brand:wikidata": "Q668687", "collection_times": "Mo-Fr 13:30; Sa 13:00", "note": "ON 12/24 AND 12/31, THIS BOX MAY BE COLLECTED AS EARLY AS 12 NOON.", "nsi_id": "unitedstatespostalservice-a77078", "operator": "United States Postal Service", "operator:short": "USPS", "operator:type": "public", "operator:wikidata": "Q668687", "ref": "2880400007"}, "type": "Feature"}
{"geometry": {"coordinates": [-82.5838666, 35.631768], "type": "Point"}, "id": "_XYzf2HZOrV-2tKMPsjW5hmTlvs=", "properties": {"@source_uri": "https://tools.usps.com/UspsToolsRestServices/rest/POLocator/findLocations", "@spider": "usps_collection_boxes", "addr:city": "ASHEVILLE", "addr:country": "US", "addr:postcode": "28804", "addr:state": "NC", "addr:street_address": "ELK PARK DR", "amenity": "post_box", "brand": "United States Postal Service", "brand:wikidata": "Q668687", "collection_times": "Mo-Fr 11:00", "nsi_id": "unitedstatespostalservice-a77078", "operator": "United States Postal Service", "operator:short": "USPS", "operator:type": "public", "operator:wikidata": "Q668687", "ref": "2880400008"}, "type": "Feature"}
{"geometry": {"coordinates": [-82.5644766, 35.61627], "type": "Point"}, "id": "1nRc6Yff2EUSFfP1p4iIGQqyS-U=", "properties": {"@source_uri": "https://tools.usps.com/UspsToolsRestServices/rest/POLocator/findLocations", "@spider": "usps_collection_boxes", "addr:city": "ASHEVILLE", "addr:country": "US", "addr:postcode": "28804", "addr:state": "NC", "addr:street_address": "1 UNIVERSITY HTS", "amenity": "post_box", "brand": "United States Postal Service", "brand:wikidata": "Q668687", "collection_times": "Mo-Fr 13:45", "note": "ON 12/24 AND 12/31, THIS BOX MAY BE COLLECTED AS EARLY AS 12 NOON.", "nsi_id": "unitedstatespostalservice-a77078", "operator": "United States Postal Service", "operator:short": "USPS", "operator:type": "public", "operator:wikidata": "Q668687", "ref": "2880400009"}, "type": "Feature"}
{"geometry": {"coordinates": [-82.5899333, 35.636059], "type": "Point"}, "id": "dmLrGr6QHcnLyTV5ysFpKer30Fw=", "properties": {"@source_uri": "https://tools.usps.com/UspsToolsRestServices/rest/POLocator/findLocations", "@spider": "usps_collection_boxes", "addr:city": "ASHEVILLE", "addr:country": "US", "addr:postcode": "28804", "addr:state": "NC", "addr:street_address": "201 ELK PARK DR", "amenity": "post_box", "brand": "United States Postal Service", "brand:wikidata": "Q668687", "collection_times": "Mo-Fr 11:00", "nsi_id": "unitedstatespostalservice-a77078", "operator": "United States Postal Service", "operator:short": "USPS", "operator:type": "public", "operator:wikidata": "Q668687", "ref": "2880400010"}, "type": "Feature"}
{"geometry": {"coordinates": [-82.554539185, 35.623809001], "type": "Point"}, "id": "6xrgEYIFBrAqFlmKcXi3E2GVR4A=", "properties": {"@source_uri": "https://tools.usps.com/UspsToolsRestServices/rest/POLocator/findLocations", "@spider": "usps_collection_boxes", "addr:city": "ASHEVILLE", "addr:country": "US", "addr:postcode": "28804", "addr:state": "NC", "addr:street_address": "725 MERRIMON AVE", "amenity": "post_box", "brand": "United States Postal Service", "brand:wikidata": "Q668687", "collection_times": "Mo-Fr 17:00; Sa 13:00", "indoor": "yes", "note": "ON 12/24 AND 12/31, THIS BOX MAY BE COLLECTED AS EARLY AS 12 NOON.", "nsi_id": "unitedstatespostalservice-a77078", "operator": "United States Postal Service", "operator:short": "USPS", "operator:type": "public", "operator:wikidata": "Q668687", "ref": "2880400013"}, "type": "Feature"}
{"geometry": {"coordinates": [-82.554539185, 35.623809001], "type": "Point"}, "id": "y7IdJbpQPHt4xKg09C28dU9q4EQ=", "properties": {"@source_uri": "https://tools.usps.com/UspsToolsRestServices/rest/POLocator/findLocations", "@spider": "usps_collection_boxes", "addr:city": "ASHEVILLE", "addr:country": "US", "addr:postcode": "28804", "addr:state": "NC", "addr:street_address": "725 MERRIMON AVE", "amenity": "post_box", "brand": "United States Postal Service", "brand:wikidata": "Q668687", "collection_times": "Mo-Fr 17:00; Sa 13:00", "indoor": "yes", "note": "ON 12/24 AND 12/31, THIS BOX MAY BE COLLECTED AS EARLY AS 12 NOON.", "nsi_id": "unitedstatespostalservice-a77078", "operator": "United States Postal Service", "operator:short": "USPS", "operator:type": "public", "operator:wikidata": "Q668687", "ref": "2880400014"}, "type": "Feature"}
{"geometry": {"coordinates": [-82.554539185, 35.623809001], "type": "Point"}, "id": "tC4usMQhQnXA-BiUx_efivlAyOY=", "properties": {"@source_uri": "https://tools.usps.com/UspsToolsRestServices/rest/POLocator/findLocations", "@spider": "usps_collection_boxes", "addr:city": "ASHEVILLE", "addr:country": "US", "addr:postcode": "28804", "addr:state": "NC", "addr:street_address": "725 MERRIMON AVE", "amenity": "post_box", "brand": "United States Postal Service", "brand:wikidata": "Q668687", "collection_times": "Mo-Fr 17:00; Sa 12:00", "indoor": "yes", "note": "ON 12/24 AND 12/31, THIS BOX MAY BE COLLECTED AS EARLY AS 12 NOON.", "nsi_id": "unitedstatespostalservice-a77078", "operator": "United States Postal Service", "operator:short": "USPS", "operator:type": "public", "operator:wikidata": "Q668687", "ref": "2880400019"}, "type": "Feature"}
{"geometry": {"coordinates": [-82.487650144, 35.587357783], "type": "Point"}, "id": "6CpBPXBKSHjc4B4YJJt31i94pTs=", "properties": {"@source_uri": "https://tools.usps.com/UspsToolsRestServices/rest/POLocator/findLocations", "@spider": "usps_collection_boxes", "addr:city": "ASHEVILLE", "addr:country": "US", "addr:postcode": "28805", "addr:state": "NC", "addr:street_address": "1141 TUNNEL RD", "amenity": "post_box", "brand": "United States Postal Service", "brand:wikidata": "Q668687", "collection_times": "Mo-Fr 17:00; Sa 12:45", "note": "ON 12/24 AND 12/31, THIS BOX MAY BE COLLECTED AS EARLY AS 12 NOON.", "nsi_id": "unitedstatespostalservice-a77078", "operator": "United States Postal Service", "operator:short": "USPS", "operator:type": "public", "operator:wikidata": "Q668687", "ref": "2880500001"}, "type": "Feature"}
{"geometry": {"coordinates": [-82.487650144, 35.587357783], "type": "Point"}, "id": "ZiDmYdLUFx9gSqSM-A16dTERsmQ=", "properties": {"@source_uri": "https://tools.usps.com/UspsToolsRestServices/rest/POLocator/findLocations", "@spider": "usps_collection_boxes", "addr:city": "ASHEVILLE", "addr:country": "US", "addr:postcode": "28805", "addr:state": "NC", "addr:street_address": "1141 TUNNEL RD", "amenity": "post_box", "brand": "United States Postal Service", "brand:wikidata": "Q668687", "collection_times": "Mo-Fr 17:00; Sa 12:45", "note": "ON 12/24 AND 12/31, THIS BOX MAY BE COLLECTED AS EARLY AS 12 NOON.", "nsi_id": "unitedstatespostalservice-a77078", "operator": "United States Postal Service", "operator:short": "USPS", "operator:type": "public", "operator:wikidata": "Q668687", "ref": "2880500002"}, "type": "Feature"}
{"geometry": {"coordinates": [-82.487650144, 35.587357783], "type": "Point"}, "id": "8jomBh2yrewIYssQYKSocElepT0=", "properties": {"@source_uri": "https://tools.usps.com/UspsToolsRestServices/rest/POLocator/findLocations", "@spider": "usps_collection_boxes", "addr:city": "ASHEVILLE", "addr:country": "US", "addr:postcode": "28805", "addr:state": "NC", "addr:street_address": "1141 TUNNEL RD", "amenity": "post_box", "brand": "United States Postal Service", "brand:wikidata": "Q668687", "collection_times": "Mo-Fr 17:00; Sa 12:45", "note": "ON 12/24 AND 12/31, THIS BOX MAY BE COLLECTED AS EARLY AS 12 NOON.", "nsi_id": "unitedstatespostalservice-a77078", "operator": "United States Postal Service", "operator:short": "USPS", "operator:type": "public", "operator:wikidata": "Q668687", "ref": "2880500003"}, "type": "Feature"}
{"geometry": {"coordinates": [-82.487650144, 35.587357783], "type": "Point"}, "id": "--4BG3UoZ7SDTqyEHNMFbyyeYl8=", "properties": {"@source_uri": "https://tools.usps.com/UspsToolsRestServices/rest/POLocator/findLocations", "@spider": "usps_collection_boxes", "addr:city": "ASHEVILLE", "addr:country": "US", "addr:postcode": "28805", "addr:state": "NC", "addr:street_address": "1141 TUNNEL RD", "amenity": "post_box", "brand": "United States Postal Service", "brand:wikidata": "Q668687", "collection_times": "Mo-Fr 17:00; Sa 13:00", "indoor": "yes", "note": "ON 12/24 AND 12/31, THIS BOX MAY BE COLLECTED AS EARLY AS 12 NOON.", "nsi_id": "unitedstatespostalservice-a77078", "operator": "United States Postal Service", "operator:short": "USPS", "operator:type": "public", "operator:wikidata": "Q668687", "ref": "2880500020"}, "type": "Feature"}
{"geometry": {"coordinates": [-82.487650144, 35.587357783], "type": "Point"}, "id": "NZ92uA0DBmneCMQq1mSUU0w7H5I=", "properties": {"@source_uri": "https://tools.usps.com/UspsToolsRestServices/rest/POLocator/findLocations", "@spider": "usps_collection_boxes", "addr:city": "ASHEVILLE", "addr:country": "US", "addr:postcode": "28805", "addr:state": "NC", "addr:street_address": "1141 TUNNEL RD", "amenity": "post_box", "brand": "United States Postal Service", "brand:wikidata": "Q668687", "collection_times": "Mo-Fr 17:00; Sa 13:00", "indoor": "yes", "note": "ON 12/24 AND 12/31, THIS BOX MAY BE COLLECTED AS EARLY AS 12 NOON.", "nsi_id": "unitedstatespostalservice-a77078", "operator": "United States Postal Service", "operator:short": "USPS", "operator:type": "public", "operator:wikidata": "Q668687", "ref": "2880500021"}, "type": "Feature"}
{"geometry": {"coordinates": [-82.487650144, 35.587357783], "type": "Point"}, "id": "jo64uoo9KiB6eiSHsM69ZrQmIpk=", "properties": {"@source_uri": "https://tools.usps.com/UspsToolsRestServices/rest/POLocator/findLocations", "@spider": "usps_collection_boxes", "addr:city": "ASHEVILLE", "addr:country": "US", "addr:postcode": "28805", "addr:state": "NC", "addr:street_address": "1141 TUNNEL RD", "amenity": "post_box", "brand": "United States Postal Service", "brand:wikidata": "Q668687", "collection_times": "Mo-Fr 17:00; Sa 12:00", "indoor": "yes", "note": "ON 12/24 AND 12/31, THIS BOX MAY BE COLLECTED AS EARLY AS 12 NOON.", "nsi_id": "unitedstatespostalservice-a77078", "operator": "United States Postal Service", "operator:short": "USPS", "operator:type": "public", "operator:wikidata": "Q668687", "ref": "2880500027"}, "type": "Feature"}
{"geometry": {"coordinates": [-82.5826837, 35.59124], "type": "Point"}, "id": "g2CdBNd-EgR5TWcKrFQJ9cX9Qdo=", "properties": {"@source_uri": "https://tools.usps.com/UspsToolsRestServices/rest/POLocator/findLocations", "@spider": "usps_collection_boxes", "addr:city": "ASHEVILLE", "addr:country": "US", "addr:postcode": "28806", "addr:state": "NC", "addr:street_address": "12 REGENT PARK BLVD", "amenity": "post_box", "brand": "United States Postal Service", "brand:wikidata": "Q668687", "collection_times": "Mo-Fr 11:00", "nsi_id": "unitedstatespostalservice-a77078", "operator": "United States Postal Service", "operator:short": "USPS", "operator:type": "public", "operator:wikidata": "Q668687", "ref": "2880600005"}, "type": "Feature"}
{"geometry": {"coordinates": [-82.5820833, 35.577706], "type": "Point"}, "id": "3xqydZZvSKIEzLvlWd93t9aNUpc=", "properties": {"@source_uri": "https://tools.usps.com/UspsToolsRestServices/rest/POLocator/findLocations", "@spider": "usps_collection_boxes", "addr:city": "ASHEVILLE", "addr:country": "US", "addr:postcode": "28806", "addr:state": "NC", "addr:street_address": "462 HAYWOOD RD", "amenity": "post_box", "brand": "United States Postal Service", "brand:wikidata": "Q668687", "collection_times": "Mo-Sa 09:00", "nsi_id": "unitedstatespostalservice-a77078", "operator": "United States Postal Service", "operator:short": "USPS", "operator:type": "public", "operator:wikidata": "Q668687", "ref": "2880600033"}, "type": "Feature"}
{"geometry": {"coordinates": [-82.602404584, 35.585058978], "type": "Point"}, "id": "6KgbjT2fhP0nsd0AIIUJKmWuekk=", "properties": {"@source_uri": "https://tools.usps.com/UspsToolsRestServices/rest/POLocator/findLocations", "@spider": "usps_collection_boxes", "addr:city": "ASHEVILLE", "addr:country": "US", "addr:postcode": "28806", "addr:state": "NC", "addr:street_address": "1302 PATTON AVE", "amenity": "post_box", "brand": "United States Postal Service", "brand:wikidata": "Q668687", "collection_times": "Mo-Fr 17:00; Sa 12:00", "note": "ON 12/24 AND 12/31, THIS BOX MAY BE COLLECTED AS EARLY AS 12 NOON.", "nsi_id": "unitedstatespostalservice-a77078", "operator": "United States Postal Service", "operator:short": "USPS", "operator:type": "public", "operator:wikidata": "Q668687", "ref": "2880600037"}, "type": "Feature"}
{"geometry": {"coordinates": [-82.5994774, 35.524746], "type": "Point"}, "id": "PTXuqjJFL8sWYgh_pWoyUonPjOI=", "properties": {"@source_uri": "https://tools.usps.com/UspsToolsRestServices/rest/POLocator/findLocations", "@spider": "usps_collection_boxes", "addr:city": "ASHEVILLE", "addr:country": "US", "addr:postcode": "28806", "addr:state": "NC", "addr:street_address": "200 RIDGEFIELD BLVD", "amenity": "post_box", "brand": "United States Postal Service", "brand:wikidata": "Q668687", "collection_times": "Mo-Fr 14:45", "note": "ON 12/24 AND 12/31, THIS BOX MAY BE COLLECTED AS EARLY AS 12 NOON.", "nsi_id": "unitedstatespostalservice-a77078", "operator": "United States Postal Service", "operator:short": "USPS", "operator:type": "public", "operator:wikidata": "Q668687", "ref": "2880600041"}, "type": "Feature"}
{"geometry": {"coordinates": [-82.5752862, 35.592265], "type": "Point"}, "id": "MvmlwPIvd7AN4sUfiMC-otimKk0=", "properties": {"@source_uri": "https://tools.usps.com/UspsToolsRestServices/rest/POLocator/findLocations", "@spider": "usps_collection_boxes", "addr:city": "ASHEVILLE", "addr:country": "US", "addr:postcode": "28806", "addr:state": "NC", "addr:street_address": "WESTGATE PKWY", "amenity": "post_box", "brand": "United States Postal Service", "brand:wikidata": "Q668687", "collection_times": "Mo-Fr 13:30", "note": "ON 12/24 AND 12/31, THIS BOX MAY BE COLLECTED AS EARLY AS 12 NOON.", "nsi_id": "unitedstatespostalservice-a77078", "operator": "United States Postal Service", "operator:short": "USPS", "operator:type": "public", "operator:wikidata": "Q668687", "ref": "2880600043"}, "type": "Feature"}
{"geometry": {"coordinates": [-82.5905599, 35.578561], "type": "Point"}, "id": "gGi6JY7nqEQ45LC0lizjTBz6LkY=", "properties": {"@source_uri": "https://tools.usps.com/UspsToolsRestServices/rest/POLocator/findLocations", "@spider": "usps_collection_boxes", "addr:city": "ASHEVILLE", "addr:country": "US", "addr:postcode": "28806", "addr:state": "NC", "addr:street_address": "669 HAYWOOD RD", "amenity": "post_box", "brand": "United States Postal Service", "brand:wikidata": "Q668687", "collection_times": "Mo-Fr 14:30", "note": "ON 12/24 AND 12/31, THIS BOX MAY BE COLLECTED AS EARLY AS 12 NOON.", "nsi_id": "unitedstatespostalservice-a77078", "operator": "United States Postal Service", "operator:short": "USPS", "operator:type": "public", "operator:wikidata": "Q668687", "ref": "2880600048"}, "type": "Feature"}
{"geometry": {"coordinates": [-82.602404584, 35.585058978], "type": "Point"}, "id": "UHxdTMQ6gypgk4tt_zeACMxlTfc=", "properties": {"@source_uri": "https://tools.usps.com/UspsToolsRestServices/rest/POLocator/findLocations", "@spider": "usps_collection_boxes", "addr:city": "ASHEVILLE", "addr:country": "US", "addr:postcode": "28806", "addr:state": "NC", "addr:street_address": "1302 PATTON AVE", "amenity": "post_box", "brand": "United States Postal Service", "brand:wikidata": "Q668687", "collection_times": "Mo-Fr 17:00; Sa 13:00", "indoor": "yes", "note": "ON 12/24 AND 12/31, THIS BOX MAY BE COLLECTED AS EARLY AS 12 NOON.", "nsi_id": "unitedstatespostalservice-a77078", "operator": "United States Postal Service", "operator:short": "USPS", "operator:type": "public", "operator:wikidata": "Q668687", "ref": "2880600050"}, "type": "Feature"}
{"geometry": {"coordinates": [-82.602404584, 35.585058978], "type": "Point"}, "id": "Luv4JyG0OEOKeS6MrTnnvEhGOc0=", "properties": {"@source_uri": "https://tools.usps.com/UspsToolsRestServices/rest/POLocator/findLocations", "@spider": "usps_collection_boxes", "addr:city": "ASHEVILLE", "addr:country": "US", "addr:postcode": "28806", "addr:state": "NC", "addr:street_address": "1302 PATTON AVE", "amenity": "post_box", "brand": "United States Postal Service", "brand:wikidata": "Q668687", "collection_times": "Mo-Fr 17:00; Sa 13:00", "indoor": "yes", "note": "ON 12/24 AND 12/31, THIS BOX MAY BE COLLECTED AS EARLY AS 12 NOON.", "nsi_id": "unitedstatespostalservice-a77078", "operator": "United States Postal Service", "operator:short": "USPS", "operator:type": "public", "operator:wikidata": "Q668687", "ref": "2880600051"}, "type": "Feature"}
{"geometry": {"coordinates": [-82.5421986, 35.598742], "type": "Point"}, "id": "gcCBvZgFHqK79vHvN2H3HTQf91U=", "properties": {"@source_uri": "https://tools.usps.com/UspsToolsRestServices/rest/POLocator/findLocations", "@spider": "usps_collection_boxes", "addr:city": "ASHEVILLE", "addr:country": "US", "addr:postcode": "28806", "addr:state": "NC", "addr:street_address": "537 COLLEGE ST", "amenity": "post_box", "brand": "United States Postal Service", "brand:wikidata": "Q668687", "collection_times": "Mo-Fr 10:00", "nsi_id": "unitedstatespostalservice-a77078", "operator": "United States Postal Service", "operator:short": "USPS", "operator:type": "public", "operator:wikidata": "Q668687", "ref": "2880600052"}, "type": "Feature"}
{"geometry": {"coordinates": [-82.602404584, 35.585058978], "type": "Point"}, "id": "JdlbTBIIwJJI-s2GsvU4ssy44RQ=", "properties": {"@source_uri": "https://tools.usps.com/UspsToolsRestServices/rest/POLocator/findLocations", "@spider": "usps_collection_boxes", "addr:city": "ASHEVILLE", "addr:country": "US", "addr:postcode": "28806", "addr:state": "NC", "addr:street_address": "1302 PATTON AVE", "amenity": "post_box", "brand": "United States Postal Service", "brand:wikidata": "Q668687", "collection_times": "Mo-Fr 17:00; Sa 12:00", "indoor": "yes", "note": "ON 12/24 AND 12/31, THIS BOX MAY BE COLLECTED AS EARLY AS 12 NOON.", "nsi_id": "unitedstatespostalservice-a77078", "operator": "United States Postal Service", "operator:short": "USPS", "operator:type": "public", "operator:wikidata": "Q668687", "ref": "2880600058"}, "type": "Feature"}
{"geometry": {"coordinates": [-82.58719, 35.57856], "type": "Point"}, "id": "ZzKy-uAu5AO6N7SlhP-cxbKW_uc=", "properties": {"@source_uri": "https://tools.usps.com/UspsToolsRestServices/rest/POLocator/findLocations", "@spider": "usps_collection_boxes", "addr:city": "ASHEVILLE", "addr:country": "US", "addr:postcode": "28806", "addr:state": "NC", "addr:street_address": "1302 PATTON AVE", "amenity": "post_box", "brand": "United States Postal Service", "brand:wikidata": "Q668687", "collection_times": "Mo-Fr 17:00; Sa 12:00", "note": "ON 12/24 AND 12/31, THIS BOX MAY BE COLLECTED AS EARLY AS 12 NOON.", "nsi_id": "unitedstatespostalservice-a77078", "operator": "United States Postal Service", "operator:short": "USPS", "operator:type": "public", "operator:wikidata": "Q668687", "ref": "2880600060"}, "type": "Feature"}
{"geometry": {"coordinates": [-82.6003435857, 35.5522992634], "type": "Point"}, "id": "ZIPttknAElGAoPcKXsWCf1QX12E=", "properties": {"@source_uri": "https://tools.usps.com/UspsToolsRestServices/rest/POLocator/findLocations", "@spider": "usps_collection_boxes", "addr:city": "ASHEVILLE", "addr:country": "US", "addr:postcode": "28810", "addr:state": "NC", "addr:street_address": "591 BREVARD RD", "amenity": "post_box", "brand": "United States Postal Service", "brand:wikidata": "Q668687", "collection_times": "Mo-Fr 17:45; Sa 12:00", "note": "ON 12/24 AND 12/31, THIS BOX MAY BE COLLECTED AS EARLY AS 12 NOON.", "nsi_id": "unitedstatespostalservice-a77078", "operator": "United States Postal Service", "operator:short": "USPS", "operator:type": "public", "operator:wikidata": "Q668687", "ref": "2881000009"}, "type": "Feature"}
{"geometry": {"coordinates": [-82.533378, 35.54426], "type": "Point"}, "id": "KI4ifBGDYcISz5kZXRvb5EPPL3o=", "properties": {"@source_uri": "https://tools.usps.com/UspsToolsRestServices/rest/POLocator/findLocations", "@spider": "usps_collection_boxes", "addr:city": "ASHEVILLE", "addr:country": "US", "addr:postcode": "28813", "addr:state": "NC", "addr:street_address": "780 HENDERSONVILLE RD", "amenity": "post_box", "brand": "United States Postal Service", "brand:wikidata": "Q668687", "collection_times": "Mo-Fr 17:00; Sa 13:00", "indoor": "yes", "note": "ON 12/24 AND 12/31, THIS BOX MAY BE COLLECTED AS EARLY AS 12 NOON.", "nsi_id": "unitedstatespostalservice-a77078", "operator": "United States Postal Service", "operator:short": "USPS", "operator:type": "public", "operator:wikidata": "Q668687", "ref": "2881300001"}, "type": "Feature"}
{"geometry": {"coordinates": [-82.533378, 35.544261], "type": "Point"}, "id": "JmMZ4BP_SYorHuw39gApYUPtFIE=", "properties": {"@source_uri": "https://tools.usps.com/UspsToolsRestServices/rest/POLocator/findLocations", "@spider": "usps_collection_boxes", "addr:city": "ASHEVILLE", "addr:country": "US", "addr:postcode": "28813", "addr:state": "NC", "addr:street_address": "780 HENDERSONVILLE RD", "amenity": "post_box", "brand": "United States Postal Service", "brand:wikidata": "Q668687", "collection_times": "Mo-Fr 17:00; Sa 13:00", "indoor": "yes", "note": "ON 12/24 AND 12/31, THIS BOX MAY BE COLLECTED AS EARLY AS 12 NOON.", "nsi_id": "unitedstatespostalservice-a77078", "operator": "United States Postal Service", "operator:short": "USPS", "operator:type": "public", "operator:wikidata": "Q668687", "ref": "2881300002"}, "type": "Feature"}
{"geometry": {"coordinates": [-82.533232672, 35.543823192], "type": "Point"}, "id": "ZislhTq5JGq5-qubOYuk4aw1K_k=", "properties": {"@source_uri": "https://tools.usps.com/UspsToolsRestServices/rest/POLocator/findLocations", "@spider": "usps_collection_boxes", "addr:city": "ASHEVILLE", "addr:country": "US", "addr:postcode": "28813", "addr:state": "NC", "addr:street_address": "780 HENDERSONVILLE RD", "amenity": "post_box", "brand": "United States Postal Service", "brand:wikidata": "Q668687", "collection_times": "Mo-Fr 17:00; Sa 13:30", "indoor": "yes", "note": "ON 12/24 AND 12/31, THIS BOX MAY BE COLLECTED AS EARLY AS 12 NOON.", "nsi_id": "unitedstatespostalservice-a77078", "operator": "United States Postal Service", "operator:short": "USPS", "operator:type": "public", "operator:wikidata": "Q668687", "ref": "2881300003"}, "type": "Feature"}
