{"geometry": {"coordinates": [-83.956408068, 35.039730207], "type": "Point"}, "id": "sebgMTqw5w_pgOIN0lIiDv23OSc=", "properties": {"@spider": "usps_collection_boxes", "addr:city": "BRASSTOWN", "addr:country": "US", "addr:full": "98 SETTAWIG RD", "addr:postcode": "28902", "addr:state": "NC", "brand": "USPS", "collection_times": "Mo-Fr 16:15; Sa 10:00", "name": "USPS COLLECTION BOX - BLUE BOX", "note": "ON 12/24 AND 12/31, THIS BOX MAY BE COLLECTED AS EARLY AS 12 NOON.", "ref": "2890200002"}, "type": "Feature"}
{"geometry": {"coordinates": [-83.956408068, 35.039730207], "type": "Point"}, "id": "uh-KuiqsiY0WzpvPxuu6dJm_zA8=", "properties": {"@spider": "usps_collection_boxes", "addr:city": "BRASSTOWN", "addr:country": "US", "addr:full": "98 SETTAWIG RD", "addr:postcode": "28902", "addr:state": "NC", "brand": "USPS", "collection_times": "Mo-Fr 16:15; Sa 10:00", "name": "USPS COLLECTION BOX - PO LOBBY", "note": "ON 12/24 AND 12/31, THIS BOX MAY BE COLLECTED AS EARLY AS 12 NOON.", "ref": "2890200003"}, "type": "Feature"}
{"geometry": {"coordinates": [-83.956408068, 35.039730207], "type": "Point"}, "id": "C9CcwvTt9WlSJJNdFVD3hMQYAIw=", "properties": {"@spider": "usps_collection_boxes", "addr:city": "BRASSTOWN", "addr:country": "US", "addr:full": "98 SETTAWIG RD", "addr:postcode": "28902", "addr:state": "NC", "brand": "USPS", "collection_times": "Mo-Fr 16:15; Sa 10:00", "name": "USPS COLLECTION BOX - PO LOBBY", "note": "ON 12/24 AND 12/31, THIS BOX MAY BE COLLECTED AS EARLY AS 12 NOON.", "ref": "2890200005"}, "type": "Feature"}
{"geometry": {"coordinates": [-84.140889549, 35.001426792], "type": "Point"}, "id": "PH7JnNcCRajHTjNQjnXOXL_CbJI=", "properties": {"@spider": "usps_collection_boxes", "addr:city": "CULBERSON", "addr:country": "US", "addr:full": "HIGHWAY 60", "addr:postcode": "28903", "addr:state": "NC", "brand": "USPS", "collection_times": "Mo-Fr 16:00; Sa 10:00", "name": "USPS COLLECTION BOX - BLUE BOX", "note": "ON 12/24 AND 12/31, THIS BOX MAY BE COLLECTED AS EARLY AS 12 NOON.", "ref": "2890300002"}, "type": "Feature"}
{"geometry": {"coordinates": [-84.140889549, 35.001426792], "type": "Point"}, "id": "g6d7u3bnpLHcPWrTPoiT9m6lmEE=", "properties": {"@spider": "usps_collection_boxes", "addr:city": "CULBERSON", "addr:country": "US", "addr:full": "HIGHWAY 60", "addr:postcode": "28903", "addr:state": "NC", "brand": "USPS", "collection_times": "Mo-Fr 16:00; Sa 10:00", "name": "USPS COLLECTION BOX - PO LOBBY", "note": "ON 12/24 AND 12/31, THIS BOX MAY BE COLLECTED AS EARLY AS 12 NOON.", "ref": "2890300003"}, "type": "Feature"}
{"geometry": {"coordinates": [-84.140889549, 35.001426792], "type": "Point"}, "id": "e1mBmZQniFICF5Oldw8vDvZBRrs=", "properties": {"@spider": "usps_collection_boxes", "addr:city": "CULBERSON", "addr:country": "US", "addr:full": "HIGHWAY 60", "addr:postcode": "28903", "addr:state": "NC", "brand": "USPS", "collection_times": "Mo-Fr 16:00", "name": "USPS COLLECTION BOX - PO LOBBY", "note": "ON 12/24 AND 12/31, THIS BOX MAY BE COLLECTED AS EARLY AS 12 NOON.", "ref": "2890300004"}, "type": "Feature"}
{"geometry": {"coordinates": [-84.028693919, 35.089952587], "type": "Point"}, "id": "K3PsiPK3VEmk9bSHE9ERZ5WeY_g=", "properties": {"@spider": "usps_collection_boxes", "addr:city": "MURPHY", "addr:country": "US", "addr:full": "388 VALLEY RIVER AVE", "addr:postcode": "28906", "addr:state": "NC", "brand": "USPS", "collection_times": "Mo-Fr 17:00; Sa 13:00", "name": "USPS COLLECTION BOX - BLUE BOX", "note": "ON 12/24 AND 12/31, THIS BOX MAY BE COLLECTED AS EARLY AS 12 NOON.", "ref": "2890600002"}, "type": "Feature"}
{"geometry": {"coordinates": [-84.0333504, 35.086945], "type": "Point"}, "id": "h9OHrfXSQ37ukSBVkc8rczBqWl0=", "properties": {"@spider": "usps_collection_boxes", "addr:city": "MURPHY", "addr:country": "US", "addr:full": "75 PEACHTREE ST", "addr:postcode": "28906", "addr:state": "NC", "brand": "USPS", "collection_times": "Mo-Fr 14:00; Sa 12:00", "name": "USPS COLLECTION BOX - BLUE BOX", "note": "ON 12/24 AND 12/31, THIS BOX MAY BE COLLECTED AS EARLY AS 12 NOON.", "ref": "2890600004"}, "type": "Feature"}
{"geometry": {"coordinates": [-84.0146142, 35.104864], "type": "Point"}, "id": "z9nnpLN-e7nAD_-jIGedBFB-DF4=", "properties": {"@spider": "usps_collection_boxes", "addr:city": "MURPHY", "addr:country": "US", "addr:full": "1210 ANDREWS RD", "addr:postcode": "28906", "addr:state": "NC", "brand": "USPS", "collection_times": "Mo-Sa 10:00", "name": "USPS COLLECTION BOX - BLUE BOX", "ref": "2890600008"}, "type": "Feature"}
{"geometry": {"coordinates": [-84.0083317, 35.106112], "type": "Point"}, "id": "nxEPRZETAg6IAEnkUbVJh6QEcKc=", "properties": {"@spider": "usps_collection_boxes", "addr:city": "MURPHY", "addr:country": "US", "addr:full": "2044 HIGHWAY 19", "addr:postcode": "28906", "addr:state": "NC", "brand": "USPS", "collection_times": "Mo-Sa 10:00", "name": "USPS COLLECTION BOX - BLUE BOX", "ref": "2890600009"}, "type": "Feature"}
{"geometry": {"coordinates": [-84.0108674, 35.107621], "type": "Point"}, "id": "3DzxgF9JF85DqeRByU8LOGiCHow=", "properties": {"@spider": "usps_collection_boxes", "addr:city": "MURPHY", "addr:country": "US", "addr:full": "1450 ANDREWS RD", "addr:postcode": "28906", "addr:state": "NC", "brand": "USPS", "collection_times": "Mo-Sa 10:00", "name": "USPS COLLECTION BOX - BLUE BOX", "ref": "2890600011"}, "type": "Feature"}
{"geometry": {"coordinates": [-83.9656726, 35.072425], "type": "Point"}, "id": "N5Bg-tnbaunQMcmOPwCbI8WwZRM=", "properties": {"@spider": "usps_collection_boxes", "addr:city": "MURPHY", "addr:country": "US", "addr:full": "4130 HIGHWAY 64 E", "addr:postcode": "28906", "addr:state": "NC", "brand": "USPS", "collection_times": "Mo-Sa 12:00", "name": "USPS COLLECTION BOX - BLUE BOX", "ref": "2890600012"}, "type": "Feature"}
{"geometry": {"coordinates": [-84.028693919, 35.089952587], "type": "Point"}, "id": "tiVd-5OiZZlS9iD1b8xbU4zKtIU=", "properties": {"@spider": "usps_collection_boxes", "addr:city": "MURPHY", "addr:country": "US", "addr:full": "388 VALLEY RIVER AVE", "addr:postcode": "28906", "addr:state": "NC", "brand": "USPS", "collection_times": "Mo-Fr 17:00; Sa 13:00", "name": "USPS COLLECTION BOX - PO LOBBY", "note": "ON 12/24 AND 12/31, THIS BOX MAY BE COLLECTED AS EARLY AS 12 NOON.", "ref": "2890600015"}, "type": "Feature"}
{"geometry": {"coordinates": [-84.028693919, 35.089952587], "type": "Point"}, "id": "78fxyVr0i-tmQUrL15tszDlCtHo=", "properties": {"@spider": "usps_collection_boxes", "addr:city": "MURPHY", "addr:country": "US", "addr:full": "388 VALLEY RIVER AVE", "addr:postcode": "28906", "addr:state": "NC", "brand": "USPS", "collection_times": "Mo-Fr 17:00; Sa 13:00", "name": "USPS COLLECTION BOX - PO LOBBY", "note": "ON 12/24 AND 12/31, THIS BOX MAY BE COLLECTED AS EARLY AS 12 NOON.", "ref": "2890600016"}, "type": "Feature"}
{"geometry": {"coordinates": [-84.028693919, 35.089952587], "type": "Point"}, "id": "ty-vB8Gjtrp-SJLZ2pcupewOvSA=", "properties": {"@spider": "usps_collection_boxes", "addr:city": "MURPHY", "addr:country": "US", "addr:full": "388 VALLEY RIVER AVE", "addr:postcode": "28906", "addr:state": "NC", "brand": "USPS", "collection_times": "Mo-Fr 17:00; Sa 13:00", "name": "USPS COLLECTION BOX - PO LOBBY", "note": "ON 12/24 AND 12/31, THIS BOX MAY BE COLLECTED AS EARLY AS 12 NOON.", "ref": "2890600020"}, "type": "Feature"}
