{"geometry": {"coordinates": [-80.217601569, 33.750124666], "type": "Point"}, "id": "qHVaEqCM7LuuzZSjhpYUsao42Ok=", "properties": {"@source_uri": "https://tools.usps.com/UspsToolsRestServices/rest/POLocator/findLocations", "@spider": "usps_collection_boxes", "addr:city": "ALCOLU", "addr:country": "US", "addr:postcode": "29001", "addr:state": "SC", "addr:street_address": "1842 MAIN ST", "amenity": "post_box", "collection_times": "Mo-Fr 15:45; Sa 09:45", "note": "ON 12/24 AND 12/31, THIS BOX MAY BE COLLECTED AS EARLY AS 12 NOON.", "nsi_id": "unitedstatespostalservice-a77078", "operator": "United States Postal Service", "operator:short": "USPS", "operator:type": "public", "operator:wikidata": "Q668687", "ref": "2900100000"}, "type": "Feature"}
{"geometry": {"coordinates": [-80.217601569, 33.750124666], "type": "Point"}, "id": "Dm5dy2BgD8FNgpoqnmLB9dxq-mc=", "properties": {"@source_uri": "https://tools.usps.com/UspsToolsRestServices/rest/POLocator/findLocations", "@spider": "usps_collection_boxes", "addr:city": "ALCOLU", "addr:country": "US", "addr:postcode": "29001", "addr:state": "SC", "addr:street_address": "1842 MAIN ST", "amenity": "post_box", "collection_times": "Mo-Fr 15:45; Sa 09:45", "indoor": "yes", "note": "ON 12/24 AND 12/31, THIS BOX MAY BE COLLECTED AS EARLY AS 12 NOON.", "nsi_id": "unitedstatespostalservice-a77078", "operator": "United States Postal Service", "operator:short": "USPS", "operator:type": "public", "operator:wikidata": "Q668687", "ref": "2900100001"}, "type": "Feature"}
{"geometry": {"coordinates": [-80.217601569, 33.750124666], "type": "Point"}, "id": "_cz-Vv0KgC9AB-HPWW2QPMjABsU=", "properties": {"@source_uri": "https://tools.usps.com/UspsToolsRestServices/rest/POLocator/findLocations", "@spider": "usps_collection_boxes", "addr:city": "ALCOLU", "addr:country": "US", "addr:postcode": "29001", "addr:state": "SC", "addr:street_address": "1842 MAIN ST", "amenity": "post_box", "collection_times": "Mo-Fr 15:45; Sa 09:45", "indoor": "yes", "note": "ON 12/24 AND 12/31, THIS BOX MAY BE COLLECTED AS EARLY AS 12 NOON.", "nsi_id": "unitedstatespostalservice-a77078", "operator": "United States Postal Service", "operator:short": "USPS", "operator:type": "public", "operator:wikidata": "Q668687", "ref": "2900100002"}, "type": "Feature"}
{"geometry": {"coordinates": [-80.217601569, 33.750124666], "type": "Point"}, "id": "eW6YHbg4uExiGIsyFTAR2Tfu-mk=", "properties": {"@source_uri": "https://tools.usps.com/UspsToolsRestServices/rest/POLocator/findLocations", "@spider": "usps_collection_boxes", "addr:city": "ALCOLU", "addr:country": "US", "addr:postcode": "29001", "addr:state": "SC", "addr:street_address": "1842 MAIN ST", "amenity": "post_box", "collection_times": "Mo-Fr 15:00; Sa 09:45", "indoor": "yes", "note": "ON 12/24 AND 12/31, THIS BOX MAY BE COLLECTED AS EARLY AS 12 NOON.", "nsi_id": "unitedstatespostalservice-a77078", "operator": "United States Postal Service", "operator:short": "USPS", "operator:type": "public", "operator:wikidata": "Q668687", "ref": "2900100012"}, "type": "Feature"}
{"geometry": {"coordinates": [-81.23706, 34.12437], "type": "Point"}, "id": "7fWm6-dLFp5S8r85TXNevRFDaik=", "properties": {"@source_uri": "https://tools.usps.com/UspsToolsRestServices/rest/POLocator/findLocations", "@spider": "usps_collection_boxes", "addr:city": "BALLENTINE", "addr:country": "US", "addr:postcode": "29002", "addr:state": "SC", "addr:street_address": "1720 DUTCH FORK RD", "amenity": "post_box", "collection_times": "Mo-Fr 15:45; Sa 09:45", "note": "ON 12/24 AND 12/31, THIS BOX MAY BE COLLECTED AS EARLY AS 12 NOON.", "nsi_id": "unitedstatespostalservice-a77078", "operator": "United States Postal Service", "operator:short": "USPS", "operator:type": "public", "operator:wikidata": "Q668687", "ref": "2900200001"}, "type": "Feature"}
{"geometry": {"coordinates": [-81.249859472, 34.130576329], "type": "Point"}, "id": "fN9fVdP05VGtbo0p9i7u-feQVJA=", "properties": {"@source_uri": "https://tools.usps.com/UspsToolsRestServices/rest/POLocator/findLocations", "@spider": "usps_collection_boxes", "addr:city": "BALLENTINE", "addr:country": "US", "addr:postcode": "29002", "addr:state": "SC", "addr:street_address": "1720 DUTCH FORK RD", "amenity": "post_box", "collection_times": "Mo-Fr 15:45; Sa 09:45", "indoor": "yes", "note": "ON 12/24 AND 12/31, THIS BOX MAY BE COLLECTED AS EARLY AS 12 NOON.", "nsi_id": "unitedstatespostalservice-a77078", "operator": "United States Postal Service", "operator:short": "USPS", "operator:type": "public", "operator:wikidata": "Q668687", "ref": "2900200002"}, "type": "Feature"}
{"geometry": {"coordinates": [-81.249859472, 34.130576329], "type": "Point"}, "id": "ibZ-0Rh589WSpKIeDoCSVsu1xSc=", "properties": {"@source_uri": "https://tools.usps.com/UspsToolsRestServices/rest/POLocator/findLocations", "@spider": "usps_collection_boxes", "addr:city": "BALLENTINE", "addr:country": "US", "addr:postcode": "29002", "addr:state": "SC", "addr:street_address": "1720 DUTCH FORK RD", "amenity": "post_box", "collection_times": "Mo-Fr 15:45; Sa 09:45", "indoor": "yes", "note": "ON 12/24 AND 12/31, THIS BOX MAY BE COLLECTED AS EARLY AS 12 NOON.", "nsi_id": "unitedstatespostalservice-a77078", "operator": "United States Postal Service", "operator:short": "USPS", "operator:type": "public", "operator:wikidata": "Q668687", "ref": "2900200003"}, "type": "Feature"}
{"geometry": {"coordinates": [-81.249859472, 34.130576329], "type": "Point"}, "id": "EsT0VkAiJ6hoDP0lJNuKaBQZAdk=", "properties": {"@source_uri": "https://tools.usps.com/UspsToolsRestServices/rest/POLocator/findLocations", "@spider": "usps_collection_boxes", "addr:city": "BALLENTINE", "addr:country": "US", "addr:postcode": "29002", "addr:state": "SC", "addr:street_address": "1720 DUTCH FORK RD", "amenity": "post_box", "collection_times": "Mo-Fr 15:45; Sa 09:45", "indoor": "yes", "note": "ON 12/24 AND 12/31, THIS BOX MAY BE COLLECTED AS EARLY AS 12 NOON.", "nsi_id": "unitedstatespostalservice-a77078", "operator": "United States Postal Service", "operator:short": "USPS", "operator:type": "public", "operator:wikidata": "Q668687", "ref": "2900200006"}, "type": "Feature"}
{"geometry": {"coordinates": [-81.033599147, 33.296651206], "type": "Point"}, "id": "wkjkDuxslqWvClEp1FSuW7KRgcw=", "properties": {"@source_uri": "https://tools.usps.com/UspsToolsRestServices/rest/POLocator/findLocations", "@spider": "usps_collection_boxes", "addr:city": "BAMBERG", "addr:country": "US", "addr:postcode": "29003", "addr:state": "SC", "addr:street_address": "11955 HERITAGE HWY", "amenity": "post_box", "collection_times": "Mo-Fr 16:15; Sa 10:45", "note": "ON 12/24 AND 12/31, THIS BOX MAY BE COLLECTED AS EARLY AS 12 NOON.", "nsi_id": "unitedstatespostalservice-a77078", "operator": "United States Postal Service", "operator:short": "USPS", "operator:type": "public", "operator:wikidata": "Q668687", "ref": "2900300001"}, "type": "Feature"}
{"geometry": {"coordinates": [-81.033599147, 33.296651206], "type": "Point"}, "id": "oa6EHGbVHCE1-NgZWQfTmrFi-3Y=", "properties": {"@source_uri": "https://tools.usps.com/UspsToolsRestServices/rest/POLocator/findLocations", "@spider": "usps_collection_boxes", "addr:city": "BAMBERG", "addr:country": "US", "addr:postcode": "29003", "addr:state": "SC", "addr:street_address": "11955 HERITAGE HWY", "amenity": "post_box", "collection_times": "Mo-Fr 16:15; Sa 10:45", "indoor": "yes", "note": "ON 12/24 AND 12/31, THIS BOX MAY BE COLLECTED AS EARLY AS 12 NOON.", "nsi_id": "unitedstatespostalservice-a77078", "operator": "United States Postal Service", "operator:short": "USPS", "operator:type": "public", "operator:wikidata": "Q668687", "ref": "2900300003"}, "type": "Feature"}
{"geometry": {"coordinates": [-81.033599147, 33.296651206], "type": "Point"}, "id": "gdhgBSpsn2QEeDl9AION4osx67E=", "properties": {"@source_uri": "https://tools.usps.com/UspsToolsRestServices/rest/POLocator/findLocations", "@spider": "usps_collection_boxes", "addr:city": "BAMBERG", "addr:country": "US", "addr:postcode": "29003", "addr:state": "SC", "addr:street_address": "11955 HERITAGE HWY", "amenity": "post_box", "collection_times": "Mo-Fr 15:45; Sa 09:45", "indoor": "yes", "note": "ON 12/24 AND 12/31, THIS BOX MAY BE COLLECTED AS EARLY AS 12 NOON.", "nsi_id": "unitedstatespostalservice-a77078", "operator": "United States Postal Service", "operator:short": "USPS", "operator:type": "public", "operator:wikidata": "Q668687", "ref": "2900300005"}, "type": "Feature"}
{"geometry": {"coordinates": [-80.341374288, 34.416852252], "type": "Point"}, "id": "VckOzMvf1mDM4h1xnr009NMUUm8=", "properties": {"@source_uri": "https://tools.usps.com/UspsToolsRestServices/rest/POLocator/findLocations", "@spider": "usps_collection_boxes", "addr:city": "BETHUNE", "addr:country": "US", "addr:postcode": "29009", "addr:state": "SC", "addr:street_address": "503 KING ST E", "amenity": "post_box", "collection_times": "Mo-Fr 15:45; Sa 10:45", "note": "ON 12/24 AND 12/31, THIS BOX MAY BE COLLECTED AS EARLY AS 12 NOON.", "nsi_id": "unitedstatespostalservice-a77078", "operator": "United States Postal Service", "operator:short": "USPS", "operator:type": "public", "operator:wikidata": "Q668687", "ref": "2900900000"}, "type": "Feature"}
{"geometry": {"coordinates": [-80.341374288, 34.416852252], "type": "Point"}, "id": "a7z0Fp2CTDnsrDepWDvdYFMLF_A=", "properties": {"@source_uri": "https://tools.usps.com/UspsToolsRestServices/rest/POLocator/findLocations", "@spider": "usps_collection_boxes", "addr:city": "BETHUNE", "addr:country": "US", "addr:postcode": "29009", "addr:state": "SC", "addr:street_address": "503 KING ST E", "amenity": "post_box", "collection_times": "Mo-Fr 15:45; Sa 10:45", "indoor": "yes", "note": "ON 12/24 AND 12/31, THIS BOX MAY BE COLLECTED AS EARLY AS 12 NOON.", "nsi_id": "unitedstatespostalservice-a77078", "operator": "United States Postal Service", "operator:short": "USPS", "operator:type": "public", "operator:wikidata": "Q668687", "ref": "2900900001"}, "type": "Feature"}
{"geometry": {"coordinates": [-80.341374288, 34.416852252], "type": "Point"}, "id": "I9Vsy13boh1T0sXRF0r6UNhHTRc=", "properties": {"@source_uri": "https://tools.usps.com/UspsToolsRestServices/rest/POLocator/findLocations", "@spider": "usps_collection_boxes", "addr:city": "BETHUNE", "addr:country": "US", "addr:postcode": "29009", "addr:state": "SC", "addr:street_address": "503 KING ST E", "amenity": "post_box", "collection_times": "Mo-Fr 15:45; Sa 10:45", "indoor": "yes", "note": "ON 12/24 AND 12/31, THIS BOX MAY BE COLLECTED AS EARLY AS 12 NOON.", "nsi_id": "unitedstatespostalservice-a77078", "operator": "United States Postal Service", "operator:short": "USPS", "operator:type": "public", "operator:wikidata": "Q668687", "ref": "2900900002"}, "type": "Feature"}
{"geometry": {"coordinates": [-80.341374288, 34.416852252], "type": "Point"}, "id": "AlNSmvmm87V5iAor4OrM1x_0hE4=", "properties": {"@source_uri": "https://tools.usps.com/UspsToolsRestServices/rest/POLocator/findLocations", "@spider": "usps_collection_boxes", "addr:city": "BETHUNE", "addr:country": "US", "addr:postcode": "29009", "addr:state": "SC", "addr:street_address": "503 KING ST E", "amenity": "post_box", "collection_times": "Mo-Fr 15:45; Sa 09:45", "indoor": "yes", "note": "ON 12/24 AND 12/31, THIS BOX MAY BE COLLECTED AS EARLY AS 12 NOON.", "nsi_id": "unitedstatespostalservice-a77078", "operator": "United States Postal Service", "operator:short": "USPS", "operator:type": "public", "operator:wikidata": "Q668687", "ref": "2900900004"}, "type": "Feature"}
{"geometry": {"coordinates": [-80.247153695, 34.219128926], "type": "Point"}, "id": "cfV7uBrLZlzAc5o0hHveGNczCLI=", "properties": {"@source_uri": "https://tools.usps.com/UspsToolsRestServices/rest/POLocator/findLocations", "@spider": "usps_collection_boxes", "addr:city": "BISHOPVILLE", "addr:country": "US", "addr:postcode": "29010", "addr:state": "SC", "addr:street_address": "228 N MAIN ST", "amenity": "post_box", "collection_times": "Mo-Sa 15:00", "note": "ON 12/24 AND 12/31, THIS BOX MAY BE COLLECTED AS EARLY AS 12 NOON.", "nsi_id": "unitedstatespostalservice-a77078", "operator": "United States Postal Service", "operator:short": "USPS", "operator:type": "public", "operator:wikidata": "Q668687", "ref": "2901000002"}, "type": "Feature"}
{"geometry": {"coordinates": [-80.2489269805, 34.2175820117], "type": "Point"}, "id": "p_7FUP6w5Stmb6HpYD7iTOlT4QQ=", "properties": {"@source_uri": "https://tools.usps.com/UspsToolsRestServices/rest/POLocator/findLocations", "@spider": "usps_collection_boxes", "addr:city": "BISHOPVILLE", "addr:country": "US", "addr:postcode": "29010", "addr:state": "SC", "addr:street_address": "105 S MAIN ST", "amenity": "post_box", "collection_times": "Mo-Sa 15:00", "note": "ON 12/24 AND 12/31, THIS BOX MAY BE COLLECTED AS EARLY AS 12 NOON.", "nsi_id": "unitedstatespostalservice-a77078", "operator": "United States Postal Service", "operator:short": "USPS", "operator:type": "public", "operator:wikidata": "Q668687", "ref": "2901000004"}, "type": "Feature"}
{"geometry": {"coordinates": [-80.2433629894, 34.2232470048], "type": "Point"}, "id": "_6pY3QFmKuZp-2VJGTk6_ZlpNNw=", "properties": {"@source_uri": "https://tools.usps.com/UspsToolsRestServices/rest/POLocator/findLocations", "@spider": "usps_collection_boxes", "addr:city": "BISHOPVILLE", "addr:country": "US", "addr:postcode": "29010", "addr:state": "SC", "addr:street_address": "451 N MAIN ST", "amenity": "post_box", "collection_times": "Mo-Fr 17:00; Sa 16:00", "note": "ON 12/24 AND 12/31, THIS BOX MAY BE COLLECTED AS EARLY AS 12 NOON.", "nsi_id": "unitedstatespostalservice-a77078", "operator": "United States Postal Service", "operator:short": "USPS", "operator:type": "public", "operator:wikidata": "Q668687", "ref": "2901000007"}, "type": "Feature"}
{"geometry": {"coordinates": [-80.2433629894, 34.2232470048], "type": "Point"}, "id": "SkV-DO88XevSlLmQc7Uyc35QjPo=", "properties": {"@source_uri": "https://tools.usps.com/UspsToolsRestServices/rest/POLocator/findLocations", "@spider": "usps_collection_boxes", "addr:city": "BISHOPVILLE", "addr:country": "US", "addr:postcode": "29010", "addr:state": "SC", "addr:street_address": "451 N MAIN ST", "amenity": "post_box", "collection_times": "Mo-Fr 17:00; Sa 16:00", "indoor": "yes", "note": "ON 12/24 AND 12/31, THIS BOX MAY BE COLLECTED AS EARLY AS 12 NOON.", "nsi_id": "unitedstatespostalservice-a77078", "operator": "United States Postal Service", "operator:short": "USPS", "operator:type": "public", "operator:wikidata": "Q668687", "ref": "2901000018"}, "type": "Feature"}
{"geometry": {"coordinates": [-81.154599954, 34.560761354], "type": "Point"}, "id": "xFg6arF93cm3uubNEvuFjbxbq60=", "properties": {"@source_uri": "https://tools.usps.com/UspsToolsRestServices/rest/POLocator/findLocations", "@spider": "usps_collection_boxes", "addr:city": "BLACKSTOCK", "addr:country": "US", "addr:postcode": "29014", "addr:state": "SC", "addr:street_address": "1083 DURHAM RD", "amenity": "post_box", "collection_times": "Mo-Fr 15:45; Sa 09:45", "note": "ON 12/24 AND 12/31, THIS BOX MAY BE COLLECTED AS EARLY AS 12 NOON.", "nsi_id": "unitedstatespostalservice-a77078", "operator": "United States Postal Service", "operator:short": "USPS", "operator:type": "public", "operator:wikidata": "Q668687", "ref": "2901400000"}, "type": "Feature"}
{"geometry": {"coordinates": [-81.154599954, 34.560761354], "type": "Point"}, "id": "ywt2Kjo3nkQbg8UIVQ5_S921vuU=", "properties": {"@source_uri": "https://tools.usps.com/UspsToolsRestServices/rest/POLocator/findLocations", "@spider": "usps_collection_boxes", "addr:city": "BLACKSTOCK", "addr:country": "US", "addr:postcode": "29014", "addr:state": "SC", "addr:street_address": "1083 DURHAM RD", "amenity": "post_box", "collection_times": "Mo-Fr 15:45; Sa 09:45", "indoor": "yes", "note": "ON 12/24 AND 12/31, THIS BOX MAY BE COLLECTED AS EARLY AS 12 NOON.", "nsi_id": "unitedstatespostalservice-a77078", "operator": "United States Postal Service", "operator:short": "USPS", "operator:type": "public", "operator:wikidata": "Q668687", "ref": "2901400001"}, "type": "Feature"}
{"geometry": {"coordinates": [-81.154599954, 34.560761354], "type": "Point"}, "id": "yWyTJYmtCxoZgwls7y60LfDJHU0=", "properties": {"@source_uri": "https://tools.usps.com/UspsToolsRestServices/rest/POLocator/findLocations", "@spider": "usps_collection_boxes", "addr:city": "BLACKSTOCK", "addr:country": "US", "addr:postcode": "29014", "addr:state": "SC", "addr:street_address": "1083 DURHAM RD", "amenity": "post_box", "collection_times": "Mo-Fr 15:45; Sa 09:45", "indoor": "yes", "note": "ON 12/24 AND 12/31, THIS BOX MAY BE COLLECTED AS EARLY AS 12 NOON.", "nsi_id": "unitedstatespostalservice-a77078", "operator": "United States Postal Service", "operator:short": "USPS", "operator:type": "public", "operator:wikidata": "Q668687", "ref": "2901400003"}, "type": "Feature"}
{"geometry": {"coordinates": [-81.403400041, 34.417940615], "type": "Point"}, "id": "47DVZzTXKLhG6PsvAiS2dRruC_U=", "properties": {"@source_uri": "https://tools.usps.com/UspsToolsRestServices/rest/POLocator/findLocations", "@spider": "usps_collection_boxes", "addr:city": "BLAIR", "addr:country": "US", "addr:postcode": "29015", "addr:state": "SC", "addr:street_address": "96 GRANITE RD", "amenity": "post_box", "collection_times": "Mo-Fr 15:45; Sa 09:45", "note": "ON 12/24 AND 12/31, THIS BOX MAY BE COLLECTED AS EARLY AS 12 NOON.", "nsi_id": "unitedstatespostalservice-a77078", "operator": "United States Postal Service", "operator:short": "USPS", "operator:type": "public", "operator:wikidata": "Q668687", "ref": "2901500000"}, "type": "Feature"}
{"geometry": {"coordinates": [-81.403400041, 34.417940615], "type": "Point"}, "id": "ARW6xgn9o797r4LzbjEO0ASOqjI=", "properties": {"@source_uri": "https://tools.usps.com/UspsToolsRestServices/rest/POLocator/findLocations", "@spider": "usps_collection_boxes", "addr:city": "BLAIR", "addr:country": "US", "addr:postcode": "29015", "addr:state": "SC", "addr:street_address": "96 GRANITE RD", "amenity": "post_box", "collection_times": "Mo-Fr 15:45; Sa 09:45", "indoor": "yes", "note": "ON 12/24 AND 12/31, THIS BOX MAY BE COLLECTED AS EARLY AS 12 NOON.", "nsi_id": "unitedstatespostalservice-a77078", "operator": "United States Postal Service", "operator:short": "USPS", "operator:type": "public", "operator:wikidata": "Q668687", "ref": "2901500001"}, "type": "Feature"}
{"geometry": {"coordinates": [-81.403400041, 34.417940615], "type": "Point"}, "id": "_ENqRd06V_MxhlC3jnDATADiEo4=", "properties": {"@source_uri": "https://tools.usps.com/UspsToolsRestServices/rest/POLocator/findLocations", "@spider": "usps_collection_boxes", "addr:city": "BLAIR", "addr:country": "US", "addr:postcode": "29015", "addr:state": "SC", "addr:street_address": "96 GRANITE RD", "amenity": "post_box", "collection_times": "Mo-Fr 15:45; Sa 09:45", "indoor": "yes", "note": "ON 12/24 AND 12/31, THIS BOX MAY BE COLLECTED AS EARLY AS 12 NOON.", "nsi_id": "unitedstatespostalservice-a77078", "operator": "United States Postal Service", "operator:short": "USPS", "operator:type": "public", "operator:wikidata": "Q668687", "ref": "2901500003"}, "type": "Feature"}
{"geometry": {"coordinates": [-80.978244137, 34.215698863], "type": "Point"}, "id": "gUyfeJtD6B-MyPFu2orGyJB_xNY=", "properties": {"@source_uri": "https://tools.usps.com/UspsToolsRestServices/rest/POLocator/findLocations", "@spider": "usps_collection_boxes", "addr:city": "BLYTHEWOOD", "addr:country": "US", "addr:postcode": "29016", "addr:state": "SC", "addr:street_address": "401 MCNULTY ST", "amenity": "post_box", "collection_times": "Mo-Fr 16:30; Sa 10:30", "note": "ON 12/24 AND 12/31, THIS BOX MAY BE COLLECTED AS EARLY AS 12 NOON.", "nsi_id": "unitedstatespostalservice-a77078", "operator": "United States Postal Service", "operator:short": "USPS", "operator:type": "public", "operator:wikidata": "Q668687", "ref": "2901600001"}, "type": "Feature"}
{"geometry": {"coordinates": [-80.978244137, 34.215698863], "type": "Point"}, "id": "40144ITRlW-VeuGTRrs0bvBNq1U=", "properties": {"@source_uri": "https://tools.usps.com/UspsToolsRestServices/rest/POLocator/findLocations", "@spider": "usps_collection_boxes", "addr:city": "BLYTHEWOOD", "addr:country": "US", "addr:postcode": "29016", "addr:state": "SC", "addr:street_address": "401 MCNULTY ST", "amenity": "post_box", "collection_times": "Mo-Fr 16:30; Sa 10:30", "note": "ON 12/24 AND 12/31, THIS BOX MAY BE COLLECTED AS EARLY AS 12 NOON.", "nsi_id": "unitedstatespostalservice-a77078", "operator": "United States Postal Service", "operator:short": "USPS", "operator:type": "public", "operator:wikidata": "Q668687", "ref": "2901600002"}, "type": "Feature"}
{"geometry": {"coordinates": [-80.978244137, 34.215698863], "type": "Point"}, "id": "fZMyVdBDrVu1pgRNoqjflXazGGQ=", "properties": {"@source_uri": "https://tools.usps.com/UspsToolsRestServices/rest/POLocator/findLocations", "@spider": "usps_collection_boxes", "addr:city": "BLYTHEWOOD", "addr:country": "US", "addr:postcode": "29016", "addr:state": "SC", "addr:street_address": "401 MCNULTY ST", "amenity": "post_box", "collection_times": "Mo-Fr 16:30; Sa 10:30", "indoor": "yes", "note": "ON 12/24 AND 12/31, THIS BOX MAY BE COLLECTED AS EARLY AS 12 NOON.", "nsi_id": "unitedstatespostalservice-a77078", "operator": "United States Postal Service", "operator:short": "USPS", "operator:type": "public", "operator:wikidata": "Q668687", "ref": "2901600003"}, "type": "Feature"}
{"geometry": {"coordinates": [-80.978244137, 34.215698863], "type": "Point"}, "id": "-wgawf3X7MUxMgAJYCkEwOmGn-I=", "properties": {"@source_uri": "https://tools.usps.com/UspsToolsRestServices/rest/POLocator/findLocations", "@spider": "usps_collection_boxes", "addr:city": "BLYTHEWOOD", "addr:country": "US", "addr:postcode": "29016", "addr:state": "SC", "addr:street_address": "401 MCNULTY ST", "amenity": "post_box", "collection_times": "Mo-Fr 16:30; Sa 10:30", "indoor": "yes", "note": "ON 12/24 AND 12/31, THIS BOX MAY BE COLLECTED AS EARLY AS 12 NOON.", "nsi_id": "unitedstatespostalservice-a77078", "operator": "United States Postal Service", "operator:short": "USPS", "operator:type": "public", "operator:wikidata": "Q668687", "ref": "2901600005"}, "type": "Feature"}
{"geometry": {"coordinates": [-80.683242744, 33.349374412], "type": "Point"}, "id": "2XjuYr7x822fbsasxKf_DmEwkxA=", "properties": {"@source_uri": "https://tools.usps.com/UspsToolsRestServices/rest/POLocator/findLocations", "@spider": "usps_collection_boxes", "addr:city": "BOWMAN", "addr:country": "US", "addr:postcode": "29018", "addr:state": "SC", "addr:street_address": "6902 CHARLESTON HWY", "amenity": "post_box", "collection_times": "Mo-Fr 15:45; Sa 09:45", "note": "ON 12/24 AND 12/31, THIS BOX MAY BE COLLECTED AS EARLY AS 12 NOON.", "nsi_id": "unitedstatespostalservice-a77078", "operator": "United States Postal Service", "operator:short": "USPS", "operator:type": "public", "operator:wikidata": "Q668687", "ref": "2901800000"}, "type": "Feature"}
{"geometry": {"coordinates": [-80.683242744, 33.349374412], "type": "Point"}, "id": "Kzj7mfP10ztKKYYUXH2qvJkL0jY=", "properties": {"@source_uri": "https://tools.usps.com/UspsToolsRestServices/rest/POLocator/findLocations", "@spider": "usps_collection_boxes", "addr:city": "BOWMAN", "addr:country": "US", "addr:postcode": "29018", "addr:state": "SC", "addr:street_address": "6902 CHARLESTON HWY", "amenity": "post_box", "collection_times": "Mo-Fr 15:45; Sa 09:45", "indoor": "yes", "note": "ON 12/24 AND 12/31, THIS BOX MAY BE COLLECTED AS EARLY AS 12 NOON.", "nsi_id": "unitedstatespostalservice-a77078", "operator": "United States Postal Service", "operator:short": "USPS", "operator:type": "public", "operator:wikidata": "Q668687", "ref": "2901800001"}, "type": "Feature"}
{"geometry": {"coordinates": [-80.683242744, 33.349374412], "type": "Point"}, "id": "_WWe7pV38oXEExWAPrHr0Ejgw3I=", "properties": {"@source_uri": "https://tools.usps.com/UspsToolsRestServices/rest/POLocator/findLocations", "@spider": "usps_collection_boxes", "addr:city": "BOWMAN", "addr:country": "US", "addr:postcode": "29018", "addr:state": "SC", "addr:street_address": "6902 CHARLESTON HWY", "amenity": "post_box", "collection_times": "Mo-Fr 15:45; Sa 09:45", "indoor": "yes", "note": "ON 12/24 AND 12/31, THIS BOX MAY BE COLLECTED AS EARLY AS 12 NOON.", "nsi_id": "unitedstatespostalservice-a77078", "operator": "United States Postal Service", "operator:short": "USPS", "operator:type": "public", "operator:wikidata": "Q668687", "ref": "2901800005"}, "type": "Feature"}
{"geometry": {"coordinates": [-80.6068544, 34.246304], "type": "Point"}, "id": "FXOU2MHpBZgi-nD8wxseEt22dho=", "properties": {"@source_uri": "https://tools.usps.com/UspsToolsRestServices/rest/POLocator/findLocations", "@spider": "usps_collection_boxes", "addr:city": "CAMDEN", "addr:country": "US", "addr:postcode": "29020", "addr:state": "SC", "addr:street_address": "541 E DEKALB ST", "amenity": "post_box", "collection_times": "Mo-Sa 11:00", "nsi_id": "unitedstatespostalservice-a77078", "operator": "United States Postal Service", "operator:short": "USPS", "operator:type": "public", "operator:wikidata": "Q668687", "ref": "2902000001"}, "type": "Feature"}
{"geometry": {"coordinates": [-80.606780895, 34.246439475], "type": "Point"}, "id": "j8PIOd72igVuxPK6Wpfq8jh7Sn8=", "properties": {"@source_uri": "https://tools.usps.com/UspsToolsRestServices/rest/POLocator/findLocations", "@spider": "usps_collection_boxes", "addr:city": "CAMDEN", "addr:country": "US", "addr:postcode": "29020", "addr:state": "SC", "addr:street_address": "542 E DEKALB ST", "amenity": "post_box", "collection_times": "Mo-Fr 17:00; Sa 11:15", "indoor": "yes", "note": "ON 12/24 AND 12/31, THIS BOX MAY BE COLLECTED AS EARLY AS 12 NOON.", "nsi_id": "unitedstatespostalservice-a77078", "operator": "United States Postal Service", "operator:short": "USPS", "operator:type": "public", "operator:wikidata": "Q668687", "ref": "2902000003"}, "type": "Feature"}
{"geometry": {"coordinates": [-80.6448605, 34.251883], "type": "Point"}, "id": "5aPntMVlKTL4Z-VW4LHlKKm1D10=", "properties": {"@source_uri": "https://tools.usps.com/UspsToolsRestServices/rest/POLocator/findLocations", "@spider": "usps_collection_boxes", "addr:city": "CAMDEN", "addr:country": "US", "addr:postcode": "29020", "addr:state": "SC", "addr:street_address": "1671 SPRINGDALE DR", "amenity": "post_box", "collection_times": "Mo-Sa 10:30", "nsi_id": "unitedstatespostalservice-a77078", "operator": "United States Postal Service", "operator:short": "USPS", "operator:type": "public", "operator:wikidata": "Q668687", "ref": "2902000006"}, "type": "Feature"}
{"geometry": {"coordinates": [-80.6076634, 34.250615], "type": "Point"}, "id": "A44e6KPxrV_6Nwn8f6811vhqpdY=", "properties": {"@source_uri": "https://tools.usps.com/UspsToolsRestServices/rest/POLocator/findLocations", "@spider": "usps_collection_boxes", "addr:city": "CAMDEN", "addr:country": "US", "addr:postcode": "29020", "addr:state": "SC", "addr:street_address": "1301 MONUMENT SQ", "amenity": "post_box", "collection_times": "Mo-Sa 10:00", "nsi_id": "unitedstatespostalservice-a77078", "operator": "United States Postal Service", "operator:short": "USPS", "operator:type": "public", "operator:wikidata": "Q668687", "ref": "2902000011"}, "type": "Feature"}
{"geometry": {"coordinates": [-80.6025661, 34.244446], "type": "Point"}, "id": "V09WE7ZtFXmCjTi1dqhCr1lhbYU=", "properties": {"@source_uri": "https://tools.usps.com/UspsToolsRestServices/rest/POLocator/findLocations", "@spider": "usps_collection_boxes", "addr:city": "CAMDEN", "addr:country": "US", "addr:postcode": "29020", "addr:state": "SC", "addr:street_address": "1000 LYTTLETON ST", "amenity": "post_box", "collection_times": "Mo-Sa 11:00", "nsi_id": "unitedstatespostalservice-a77078", "operator": "United States Postal Service", "operator:short": "USPS", "operator:type": "public", "operator:wikidata": "Q668687", "ref": "2902000015"}, "type": "Feature"}
{"geometry": {"coordinates": [-80.607176515, 34.247250513], "type": "Point"}, "id": "v64K5bvTiuLUeGEAy3tp0oMmxLU=", "properties": {"@source_uri": "https://tools.usps.com/UspsToolsRestServices/rest/POLocator/findLocations", "@spider": "usps_collection_boxes", "addr:city": "CAMDEN", "addr:country": "US", "addr:postcode": "29020", "addr:state": "SC", "addr:street_address": "1110 BROAD ST", "amenity": "post_box", "collection_times": "Mo-Fr 17:00; Sa 13:00", "note": "ON 12/24 AND 12/31, THIS BOX MAY BE COLLECTED AS EARLY AS 12 NOON.", "nsi_id": "unitedstatespostalservice-a77078", "operator": "United States Postal Service", "operator:short": "USPS", "operator:type": "public", "operator:wikidata": "Q668687", "ref": "2902000025"}, "type": "Feature"}
{"geometry": {"coordinates": [-80.612085093, 34.278654501], "type": "Point"}, "id": "FCzyVys-InSqAYw6p0OsAthIeO4=", "properties": {"@source_uri": "https://tools.usps.com/UspsToolsRestServices/rest/POLocator/findLocations", "@spider": "usps_collection_boxes", "addr:city": "CAMDEN", "addr:country": "US", "addr:postcode": "29020", "addr:state": "SC", "addr:street_address": "2629 LIBERTY HILL RD", "amenity": "post_box", "collection_times": "Mo-Fr 16:45; Sa 12:15", "note": "ON 12/24 AND 12/31, THIS BOX MAY BE COLLECTED AS EARLY AS 12 NOON.", "nsi_id": "unitedstatespostalservice-a77078", "operator": "United States Postal Service", "operator:short": "USPS", "operator:type": "public", "operator:wikidata": "Q668687", "ref": "2902000027"}, "type": "Feature"}
{"geometry": {"coordinates": [-80.612085093, 34.278654501], "type": "Point"}, "id": "bMG-2wJaAiSd4HBwHiQ3260ubrk=", "properties": {"@source_uri": "https://tools.usps.com/UspsToolsRestServices/rest/POLocator/findLocations", "@spider": "usps_collection_boxes", "addr:city": "CAMDEN", "addr:country": "US", "addr:postcode": "29020", "addr:state": "SC", "addr:street_address": "2629 LIBERTY HILL RD", "amenity": "post_box", "collection_times": "Mo-Fr 16:45; Sa 12:15", "indoor": "yes", "note": "ON 12/24 AND 12/31, THIS BOX MAY BE COLLECTED AS EARLY AS 12 NOON.", "nsi_id": "unitedstatespostalservice-a77078", "operator": "United States Postal Service", "operator:short": "USPS", "operator:type": "public", "operator:wikidata": "Q668687", "ref": "2902000030"}, "type": "Feature"}
{"geometry": {"coordinates": [-80.612085093, 34.278654501], "type": "Point"}, "id": "swTbuIvVErVt7bSZSNquQ9aGlq8=", "properties": {"@source_uri": "https://tools.usps.com/UspsToolsRestServices/rest/POLocator/findLocations", "@spider": "usps_collection_boxes", "addr:city": "CAMDEN", "addr:country": "US", "addr:postcode": "29020", "addr:state": "SC", "addr:street_address": "2629 LIBERTY HILL RD", "amenity": "post_box", "collection_times": "Mo-Fr 16:45; Sa 12:15", "indoor": "yes", "note": "ON 12/24 AND 12/31, THIS BOX MAY BE COLLECTED AS EARLY AS 12 NOON.", "nsi_id": "unitedstatespostalservice-a77078", "operator": "United States Postal Service", "operator:short": "USPS", "operator:type": "public", "operator:wikidata": "Q668687", "ref": "2902000031"}, "type": "Feature"}
{"geometry": {"coordinates": [-80.606780895, 34.246439475], "type": "Point"}, "id": "ty8bSQFWLCB-eVzcfsCuh1MeYno=", "properties": {"@source_uri": "https://tools.usps.com/UspsToolsRestServices/rest/POLocator/findLocations", "@spider": "usps_collection_boxes", "addr:city": "CAMDEN", "addr:country": "US", "addr:postcode": "29020", "addr:state": "SC", "addr:street_address": "542 E DEKALB ST", "amenity": "post_box", "collection_times": "Mo-Fr 17:00; Sa 11:00", "indoor": "yes", "note": "ON 12/24 AND 12/31, THIS BOX MAY BE COLLECTED AS EARLY AS 12 NOON.", "nsi_id": "unitedstatespostalservice-a77078", "operator": "United States Postal Service", "operator:short": "USPS", "operator:type": "public", "operator:wikidata": "Q668687", "ref": "2902000038"}, "type": "Feature"}
{"geometry": {"coordinates": [-80.612085093, 34.278654501], "type": "Point"}, "id": "Cwq8yVPeMCxi0Lncbnc7c5Zqbs8=", "properties": {"@source_uri": "https://tools.usps.com/UspsToolsRestServices/rest/POLocator/findLocations", "@spider": "usps_collection_boxes", "addr:city": "CAMDEN", "addr:country": "US", "addr:postcode": "29020", "addr:state": "SC", "addr:street_address": "2629 LIBERTY HILL RD", "amenity": "post_box", "collection_times": "Mo-Fr 14:00", "indoor": "yes", "note": "ON 12/24 AND 12/31, THIS BOX MAY BE COLLECTED AS EARLY AS 12 NOON.", "nsi_id": "unitedstatespostalservice-a77078", "operator": "United States Postal Service", "operator:short": "USPS", "operator:type": "public", "operator:wikidata": "Q668687", "ref": "2902000039"}, "type": "Feature"}
{"geometry": {"coordinates": [-80.715374585, 33.557598616], "type": "Point"}, "id": "xtRzG0B7awaB8XYtTJ0K0jR7wjo=", "properties": {"@source_uri": "https://tools.usps.com/UspsToolsRestServices/rest/POLocator/findLocations", "@spider": "usps_collection_boxes", "addr:city": "CAMERON", "addr:country": "US", "addr:postcode": "29030", "addr:state": "SC", "addr:street_address": "304 BOYCE LAWTON DR", "amenity": "post_box", "collection_times": "Mo-Fr 15:45; Sa 09:45", "note": "ON 12/24 AND 12/31, THIS BOX MAY BE COLLECTED AS EARLY AS 12 NOON.", "nsi_id": "unitedstatespostalservice-a77078", "operator": "United States Postal Service", "operator:short": "USPS", "operator:type": "public", "operator:wikidata": "Q668687", "ref": "2903000000"}, "type": "Feature"}
{"geometry": {"coordinates": [-80.715374585, 33.557598616], "type": "Point"}, "id": "4FhHXWsiP4jagqkUnc5pS08svJo=", "properties": {"@source_uri": "https://tools.usps.com/UspsToolsRestServices/rest/POLocator/findLocations", "@spider": "usps_collection_boxes", "addr:city": "CAMERON", "addr:country": "US", "addr:postcode": "29030", "addr:state": "SC", "addr:street_address": "304 BOYCE LAWTON DR", "amenity": "post_box", "collection_times": "Mo-Fr 15:45; Sa 09:45", "indoor": "yes", "note": "ON 12/24 AND 12/31, THIS BOX MAY BE COLLECTED AS EARLY AS 12 NOON.", "nsi_id": "unitedstatespostalservice-a77078", "operator": "United States Postal Service", "operator:short": "USPS", "operator:type": "public", "operator:wikidata": "Q668687", "ref": "2903000001"}, "type": "Feature"}
{"geometry": {"coordinates": [-80.715374585, 33.557598616], "type": "Point"}, "id": "E4pqgO6KL2xKCIMlT5NgwjZaWr0=", "properties": {"@source_uri": "https://tools.usps.com/UspsToolsRestServices/rest/POLocator/findLocations", "@spider": "usps_collection_boxes", "addr:city": "CAMERON", "addr:country": "US", "addr:postcode": "29030", "addr:state": "SC", "addr:street_address": "304 BOYCE LAWTON DR", "amenity": "post_box", "collection_times": "Mo-Fr 15:45; Sa 09:45", "indoor": "yes", "note": "ON 12/24 AND 12/31, THIS BOX MAY BE COLLECTED AS EARLY AS 12 NOON.", "nsi_id": "unitedstatespostalservice-a77078", "operator": "United States Postal Service", "operator:short": "USPS", "operator:type": "public", "operator:wikidata": "Q668687", "ref": "2903000003"}, "type": "Feature"}
{"geometry": {"coordinates": [-81.46833229, 34.593114103], "type": "Point"}, "id": "RV4LPrySbrSfHzSawZ9SkMQc01E=", "properties": {"@source_uri": "https://tools.usps.com/UspsToolsRestServices/rest/POLocator/findLocations", "@spider": "usps_collection_boxes", "addr:city": "CARLISLE", "addr:country": "US", "addr:postcode": "29031", "addr:state": "SC", "addr:street_address": "4512 KING KENNEDY ST", "amenity": "post_box", "collection_times": "Mo-Fr 15:45; Sa 09:45", "note": "ON 12/24 AND 12/31, THIS BOX MAY BE COLLECTED AS EARLY AS 12 NOON.", "nsi_id": "unitedstatespostalservice-a77078", "operator": "United States Postal Service", "operator:short": "USPS", "operator:type": "public", "operator:wikidata": "Q668687", "ref": "2903100000"}, "type": "Feature"}
{"geometry": {"coordinates": [-81.46833229, 34.593114103], "type": "Point"}, "id": "ylqIah5No4lxameZEDdaENO5OnA=", "properties": {"@source_uri": "https://tools.usps.com/UspsToolsRestServices/rest/POLocator/findLocations", "@spider": "usps_collection_boxes", "addr:city": "CARLISLE", "addr:country": "US", "addr:postcode": "29031", "addr:state": "SC", "addr:street_address": "4512 KING KENNEDY ST", "amenity": "post_box", "collection_times": "Mo-Fr 15:45; Sa 09:45", "indoor": "yes", "note": "ON 12/24 AND 12/31, THIS BOX MAY BE COLLECTED AS EARLY AS 12 NOON.", "nsi_id": "unitedstatespostalservice-a77078", "operator": "United States Postal Service", "operator:short": "USPS", "operator:type": "public", "operator:wikidata": "Q668687", "ref": "2903100001"}, "type": "Feature"}
{"geometry": {"coordinates": [-81.46833229, 34.593114103], "type": "Point"}, "id": "OhW8r3sBLj1NyuGpiupCFMTyAik=", "properties": {"@source_uri": "https://tools.usps.com/UspsToolsRestServices/rest/POLocator/findLocations", "@spider": "usps_collection_boxes", "addr:city": "CARLISLE", "addr:country": "US", "addr:postcode": "29031", "addr:state": "SC", "addr:street_address": "4512 KING KENNEDY ST", "amenity": "post_box", "collection_times": "Mo-Fr 15:45; Sa 09:45", "indoor": "yes", "note": "ON 12/24 AND 12/31, THIS BOX MAY BE COLLECTED AS EARLY AS 12 NOON.", "nsi_id": "unitedstatespostalservice-a77078", "operator": "United States Postal Service", "operator:short": "USPS", "operator:type": "public", "operator:wikidata": "Q668687", "ref": "2903100003"}, "type": "Feature"}
{"geometry": {"coordinates": [-80.435498952, 34.364813355], "type": "Point"}, "id": "h1XC6jLfsUtzbtNr8FLzhLT2RI8=", "properties": {"@source_uri": "https://tools.usps.com/UspsToolsRestServices/rest/POLocator/findLocations", "@spider": "usps_collection_boxes", "addr:city": "CASSATT", "addr:country": "US", "addr:postcode": "29032", "addr:state": "SC", "addr:street_address": "2589 HIGHWAY 1 N", "amenity": "post_box", "collection_times": "Mo-Fr 15:45; Sa 09:45", "note": "ON 12/24 AND 12/31, THIS BOX MAY BE COLLECTED AS EARLY AS 12 NOON.", "nsi_id": "unitedstatespostalservice-a77078", "operator": "United States Postal Service", "operator:short": "USPS", "operator:type": "public", "operator:wikidata": "Q668687", "ref": "2903200000"}, "type": "Feature"}
{"geometry": {"coordinates": [-80.435498952, 34.364813355], "type": "Point"}, "id": "JhoE9c3L4K9GI-Vzajw9GOf9rrw=", "properties": {"@source_uri": "https://tools.usps.com/UspsToolsRestServices/rest/POLocator/findLocations", "@spider": "usps_collection_boxes", "addr:city": "CASSATT", "addr:country": "US", "addr:postcode": "29032", "addr:state": "SC", "addr:street_address": "2589 HIGHWAY 1 N", "amenity": "post_box", "collection_times": "Mo-Fr 15:45; Sa 09:45", "indoor": "yes", "note": "ON 12/24 AND 12/31, THIS BOX MAY BE COLLECTED AS EARLY AS 12 NOON.", "nsi_id": "unitedstatespostalservice-a77078", "operator": "United States Postal Service", "operator:short": "USPS", "operator:type": "public", "operator:wikidata": "Q668687", "ref": "2903200001"}, "type": "Feature"}
{"geometry": {"coordinates": [-80.435498952, 34.364813355], "type": "Point"}, "id": "Z_oQbIch1E_UDgQIqSrrX7XV9bQ=", "properties": {"@source_uri": "https://tools.usps.com/UspsToolsRestServices/rest/POLocator/findLocations", "@spider": "usps_collection_boxes", "addr:city": "CASSATT", "addr:country": "US", "addr:postcode": "29032", "addr:state": "SC", "addr:street_address": "2589 HIGHWAY 1 N", "amenity": "post_box", "collection_times": "Mo-Fr 15:45; Sa 09:45", "indoor": "yes", "note": "ON 12/24 AND 12/31, THIS BOX MAY BE COLLECTED AS EARLY AS 12 NOON.", "nsi_id": "unitedstatespostalservice-a77078", "operator": "United States Postal Service", "operator:short": "USPS", "operator:type": "public", "operator:wikidata": "Q668687", "ref": "2903200003"}, "type": "Feature"}
{"geometry": {"coordinates": [-81.3527119818, 34.1659030105], "type": "Point"}, "id": "U_tiYibS5CwmlT01qxWWC2tUpds=", "properties": {"@source_uri": "https://tools.usps.com/UspsToolsRestServices/rest/POLocator/findLocations", "@spider": "usps_collection_boxes", "addr:city": "CHAPIN", "addr:country": "US", "addr:postcode": "29036", "addr:state": "SC", "addr:street_address": "1249 CHAPIN RD", "amenity": "post_box", "collection_times": "Mo-Fr 16:15; Sa 11:15", "note": "ON 12/24 AND 12/31, THIS BOX MAY BE COLLECTED AS EARLY AS 12 NOON.", "nsi_id": "unitedstatespostalservice-a77078", "operator": "United States Postal Service", "operator:short": "USPS", "operator:type": "public", "operator:wikidata": "Q668687", "ref": "2903600001"}, "type": "Feature"}
{"geometry": {"coordinates": [-81.352598116, 34.166459939], "type": "Point"}, "id": "a4fzkHSs51GKdroNzPpiRPqTnJ8=", "properties": {"@source_uri": "https://tools.usps.com/UspsToolsRestServices/rest/POLocator/findLocations", "@spider": "usps_collection_boxes", "addr:city": "CHAPIN", "addr:country": "US", "addr:postcode": "29036", "addr:state": "SC", "addr:street_address": "1249 CHAPIN RD", "amenity": "post_box", "collection_times": "Mo-Fr 16:15; Sa 11:15", "indoor": "yes", "note": "ON 12/24 AND 12/31, THIS BOX MAY BE COLLECTED AS EARLY AS 12 NOON.", "nsi_id": "unitedstatespostalservice-a77078", "operator": "United States Postal Service", "operator:short": "USPS", "operator:type": "public", "operator:wikidata": "Q668687", "ref": "2903600003"}, "type": "Feature"}
{"geometry": {"coordinates": [-81.2749083, 34.142781], "type": "Point"}, "id": "icGYgps7hUxY3YOVYVdRdh82aV4=", "properties": {"@source_uri": "https://tools.usps.com/UspsToolsRestServices/rest/POLocator/findLocations", "@spider": "usps_collection_boxes", "addr:city": "CHAPIN", "addr:country": "US", "addr:postcode": "29036", "addr:state": "SC", "addr:street_address": "110 LOWMAN HOME BARN RD", "amenity": "post_box", "collection_times": "Mo-Sa 10:00", "nsi_id": "unitedstatespostalservice-a77078", "operator": "United States Postal Service", "operator:short": "USPS", "operator:type": "public", "operator:wikidata": "Q668687", "ref": "2903600004"}, "type": "Feature"}
{"geometry": {"coordinates": [-81.352598116, 34.166459939], "type": "Point"}, "id": "yI-u1ddlC-lIDu8NSPiHFouRbsI=", "properties": {"@source_uri": "https://tools.usps.com/UspsToolsRestServices/rest/POLocator/findLocations", "@spider": "usps_collection_boxes", "addr:city": "CHAPIN", "addr:country": "US", "addr:postcode": "29036", "addr:state": "SC", "addr:street_address": "1249 CHAPIN RD", "amenity": "post_box", "collection_times": "Mo-Fr 16:00; Sa 10:00", "indoor": "yes", "note": "ON 12/24 AND 12/31, THIS BOX MAY BE COLLECTED AS EARLY AS 12 NOON.", "nsi_id": "unitedstatespostalservice-a77078", "operator": "United States Postal Service", "operator:short": "USPS", "operator:type": "public", "operator:wikidata": "Q668687", "ref": "2903600009"}, "type": "Feature"}
{"geometry": {"coordinates": [-81.866490352, 34.179257542], "type": "Point"}, "id": "P6wWdgP-RatS0Nl09rjff5UXM_U=", "properties": {"@source_uri": "https://tools.usps.com/UspsToolsRestServices/rest/POLocator/findLocations", "@spider": "usps_collection_boxes", "addr:city": "CHAPPELLS", "addr:country": "US", "addr:postcode": "29037", "addr:state": "SC", "addr:street_address": "390 SC HIGHWAY 39", "amenity": "post_box", "collection_times": "Mo-Fr 14:00; Sa 10:45", "note": "ON 12/24 AND 12/31, THIS BOX MAY BE COLLECTED AS EARLY AS 12 NOON.", "nsi_id": "unitedstatespostalservice-a77078", "operator": "United States Postal Service", "operator:short": "USPS", "operator:type": "public", "operator:wikidata": "Q668687", "ref": "2903700000"}, "type": "Feature"}
{"geometry": {"coordinates": [-81.866490352, 34.179257542], "type": "Point"}, "id": "k0V2ju7PXoS3yQAQkVomDlORYJI=", "properties": {"@source_uri": "https://tools.usps.com/UspsToolsRestServices/rest/POLocator/findLocations", "@spider": "usps_collection_boxes", "addr:city": "CHAPPELLS", "addr:country": "US", "addr:postcode": "29037", "addr:state": "SC", "addr:street_address": "390 SC HIGHWAY 39", "amenity": "post_box", "collection_times": "Mo-Fr 13:45; Sa 09:45", "indoor": "yes", "note": "ON 12/24 AND 12/31, THIS BOX MAY BE COLLECTED AS EARLY AS 12 NOON.", "nsi_id": "unitedstatespostalservice-a77078", "operator": "United States Postal Service", "operator:short": "USPS", "operator:type": "public", "operator:wikidata": "Q668687", "ref": "2903700003"}, "type": "Feature"}
{"geometry": {"coordinates": [-81.00731621, 33.378288684], "type": "Point"}, "id": "3aUmYEhgXouH27sa_2wqD22BCYo=", "properties": {"@source_uri": "https://tools.usps.com/UspsToolsRestServices/rest/POLocator/findLocations", "@spider": "usps_collection_boxes", "addr:city": "COPE", "addr:country": "US", "addr:postcode": "29038", "addr:state": "SC", "addr:street_address": "204 COTTON AVE", "amenity": "post_box", "collection_times": "Mo-Fr 15:45; Sa 09:45", "note": "ON 12/24 AND 12/31, THIS BOX MAY BE COLLECTED AS EARLY AS 12 NOON.", "nsi_id": "unitedstatespostalservice-a77078", "operator": "United States Postal Service", "operator:short": "USPS", "operator:type": "public", "operator:wikidata": "Q668687", "ref": "2903800000"}, "type": "Feature"}
{"geometry": {"coordinates": [-81.00731621, 33.378288684], "type": "Point"}, "id": "x0F8BlG7OsAjQ5NhQK_92fgrYbg=", "properties": {"@source_uri": "https://tools.usps.com/UspsToolsRestServices/rest/POLocator/findLocations", "@spider": "usps_collection_boxes", "addr:city": "COPE", "addr:country": "US", "addr:postcode": "29038", "addr:state": "SC", "addr:street_address": "204 COTTON AVE", "amenity": "post_box", "collection_times": "Mo-Fr 15:45; Sa 09:45", "indoor": "yes", "note": "ON 12/24 AND 12/31, THIS BOX MAY BE COLLECTED AS EARLY AS 12 NOON.", "nsi_id": "unitedstatespostalservice-a77078", "operator": "United States Postal Service", "operator:short": "USPS", "operator:type": "public", "operator:wikidata": "Q668687", "ref": "2903800001"}, "type": "Feature"}
{"geometry": {"coordinates": [-81.00731621, 33.378288684], "type": "Point"}, "id": "EX6AakENJ0yod1vZftDBFFEaF90=", "properties": {"@source_uri": "https://tools.usps.com/UspsToolsRestServices/rest/POLocator/findLocations", "@spider": "usps_collection_boxes", "addr:city": "COPE", "addr:country": "US", "addr:postcode": "29038", "addr:state": "SC", "addr:street_address": "204 COTTON AVE", "amenity": "post_box", "collection_times": "Mo-Fr 15:45; Sa 09:45", "indoor": "yes", "note": "ON 12/24 AND 12/31, THIS BOX MAY BE COLLECTED AS EARLY AS 12 NOON.", "nsi_id": "unitedstatespostalservice-a77078", "operator": "United States Postal Service", "operator:short": "USPS", "operator:type": "public", "operator:wikidata": "Q668687", "ref": "2903800003"}, "type": "Feature"}
{"geometry": {"coordinates": [-80.926035968, 33.434917781], "type": "Point"}, "id": "Dd7fuKMAJRT5SsQzXFPE8Uf4PCo=", "properties": {"@source_uri": "https://tools.usps.com/UspsToolsRestServices/rest/POLocator/findLocations", "@spider": "usps_collection_boxes", "addr:city": "CORDOVA", "addr:country": "US", "addr:postcode": "29039", "addr:state": "SC", "addr:street_address": "2046 LEGRAND SMOAK ST", "amenity": "post_box", "collection_times": "Mo-Fr 15:45; Sa 09:45", "note": "ON 12/24 AND 12/31, THIS BOX MAY BE COLLECTED AS EARLY AS 12 NOON.", "nsi_id": "unitedstatespostalservice-a77078", "operator": "United States Postal Service", "operator:short": "USPS", "operator:type": "public", "operator:wikidata": "Q668687", "ref": "2903900000"}, "type": "Feature"}
{"geometry": {"coordinates": [-80.926035968, 33.434917781], "type": "Point"}, "id": "m6SFzyePbQW3F7PreaSbdzelxN0=", "properties": {"@source_uri": "https://tools.usps.com/UspsToolsRestServices/rest/POLocator/findLocations", "@spider": "usps_collection_boxes", "addr:city": "CORDOVA", "addr:country": "US", "addr:postcode": "29039", "addr:state": "SC", "addr:street_address": "2046 LEGRAND SMOAK ST", "amenity": "post_box", "collection_times": "Mo-Fr 15:45; Sa 09:45", "indoor": "yes", "note": "ON 12/24 AND 12/31, THIS BOX MAY BE COLLECTED AS EARLY AS 12 NOON.", "nsi_id": "unitedstatespostalservice-a77078", "operator": "United States Postal Service", "operator:short": "USPS", "operator:type": "public", "operator:wikidata": "Q668687", "ref": "2903900001"}, "type": "Feature"}
{"geometry": {"coordinates": [-80.926035968, 33.434917781], "type": "Point"}, "id": "jmpYllcQapNnNvFKZH5Kpw29zzE=", "properties": {"@source_uri": "https://tools.usps.com/UspsToolsRestServices/rest/POLocator/findLocations", "@spider": "usps_collection_boxes", "addr:city": "CORDOVA", "addr:country": "US", "addr:postcode": "29039", "addr:state": "SC", "addr:street_address": "2046 LEGRAND SMOAK ST", "amenity": "post_box", "collection_times": "Mo-Fr 15:45; Sa 09:45", "indoor": "yes", "note": "ON 12/24 AND 12/31, THIS BOX MAY BE COLLECTED AS EARLY AS 12 NOON.", "nsi_id": "unitedstatespostalservice-a77078", "operator": "United States Postal Service", "operator:short": "USPS", "operator:type": "public", "operator:wikidata": "Q668687", "ref": "2903900002"}, "type": "Feature"}
{"geometry": {"coordinates": [-80.926035968, 33.434917781], "type": "Point"}, "id": "kgtjsqAYwzz9ibluvjlz7vVrjrk=", "properties": {"@source_uri": "https://tools.usps.com/UspsToolsRestServices/rest/POLocator/findLocations", "@spider": "usps_collection_boxes", "addr:city": "CORDOVA", "addr:country": "US", "addr:postcode": "29039", "addr:state": "SC", "addr:street_address": "2046 LEGRAND SMOAK ST", "amenity": "post_box", "collection_times": "Mo-Fr 15:45; Sa 09:45", "indoor": "yes", "note": "ON 12/24 AND 12/31, THIS BOX MAY BE COLLECTED AS EARLY AS 12 NOON.", "nsi_id": "unitedstatespostalservice-a77078", "operator": "United States Postal Service", "operator:short": "USPS", "operator:type": "public", "operator:wikidata": "Q668687", "ref": "2903900004"}, "type": "Feature"}
{"geometry": {"coordinates": [-80.443882415, 34.016973483], "type": "Point"}, "id": "17wnYqvuD71-UXyPXeseAJd5MPg=", "properties": {"@source_uri": "https://tools.usps.com/UspsToolsRestServices/rest/POLocator/findLocations", "@spider": "usps_collection_boxes", "addr:city": "DALZELL", "addr:country": "US", "addr:postcode": "29040", "addr:state": "SC", "addr:street_address": "4235 CAMDEN HWY", "amenity": "post_box", "collection_times": "Mo-Fr 15:45; Sa 09:45", "note": "ON 12/24 AND 12/31, THIS BOX MAY BE COLLECTED AS EARLY AS 12 NOON.", "nsi_id": "unitedstatespostalservice-a77078", "operator": "United States Postal Service", "operator:short": "USPS", "operator:type": "public", "operator:wikidata": "Q668687", "ref": "2904000000"}, "type": "Feature"}
{"geometry": {"coordinates": [-80.443882415, 34.016973483], "type": "Point"}, "id": "yGRGDAa55cU8lNFubhzqCcun2mI=", "properties": {"@source_uri": "https://tools.usps.com/UspsToolsRestServices/rest/POLocator/findLocations", "@spider": "usps_collection_boxes", "addr:city": "DALZELL", "addr:country": "US", "addr:postcode": "29040", "addr:state": "SC", "addr:street_address": "4235 CAMDEN HWY", "amenity": "post_box", "collection_times": "Mo-Fr 15:45; Sa 09:45", "indoor": "yes", "note": "ON 12/24 AND 12/31, THIS BOX MAY BE COLLECTED AS EARLY AS 12 NOON.", "nsi_id": "unitedstatespostalservice-a77078", "operator": "United States Postal Service", "operator:short": "USPS", "operator:type": "public", "operator:wikidata": "Q668687", "ref": "2904000001"}, "type": "Feature"}
{"geometry": {"coordinates": [-80.443882415, 34.016973483], "type": "Point"}, "id": "9vayJMP8BTUwXnR0uQmgPf5UBu8=", "properties": {"@source_uri": "https://tools.usps.com/UspsToolsRestServices/rest/POLocator/findLocations", "@spider": "usps_collection_boxes", "addr:city": "DALZELL", "addr:country": "US", "addr:postcode": "29040", "addr:state": "SC", "addr:street_address": "4235 CAMDEN HWY", "amenity": "post_box", "collection_times": "Mo-Fr 15:45; Sa 09:45", "indoor": "yes", "note": "ON 12/24 AND 12/31, THIS BOX MAY BE COLLECTED AS EARLY AS 12 NOON.", "nsi_id": "unitedstatespostalservice-a77078", "operator": "United States Postal Service", "operator:short": "USPS", "operator:type": "public", "operator:wikidata": "Q668687", "ref": "2904000003"}, "type": "Feature"}
{"geometry": {"coordinates": [-80.298620531, 33.594876546], "type": "Point"}, "id": "1gNxExr5Ks2OBZFIoZiGmsWU57U=", "properties": {"@source_uri": "https://tools.usps.com/UspsToolsRestServices/rest/POLocator/findLocations", "@spider": "usps_collection_boxes", "addr:city": "DAVIS STATION", "addr:country": "US", "addr:postcode": "29041", "addr:state": "SC", "addr:street_address": "5232 MOSES DINGLE RD", "amenity": "post_box", "collection_times": "Mo-Fr 15:45; Sa 09:45", "indoor": "yes", "note": "ON 12/24 AND 12/31, THIS BOX MAY BE COLLECTED AS EARLY AS 12 NOON.", "nsi_id": "unitedstatespostalservice-a77078", "operator": "United States Postal Service", "operator:short": "USPS", "operator:type": "public", "operator:wikidata": "Q668687", "ref": "2904100000"}, "type": "Feature"}
{"geometry": {"coordinates": [-80.298620531, 33.594876546], "type": "Point"}, "id": "pStGtWUdOSx15-46ezX1ohkxFKI=", "properties": {"@source_uri": "https://tools.usps.com/UspsToolsRestServices/rest/POLocator/findLocations", "@spider": "usps_collection_boxes", "addr:city": "DAVIS STATION", "addr:country": "US", "addr:postcode": "29041", "addr:state": "SC", "addr:street_address": "5232 MOSES DINGLE RD", "amenity": "post_box", "collection_times": "Mo-Fr 15:45; Sa 09:45", "note": "ON 12/24 AND 12/31, THIS BOX MAY BE COLLECTED AS EARLY AS 12 NOON.", "nsi_id": "unitedstatespostalservice-a77078", "operator": "United States Postal Service", "operator:short": "USPS", "operator:type": "public", "operator:wikidata": "Q668687", "ref": "2904100001"}, "type": "Feature"}
{"geometry": {"coordinates": [-80.298620531, 33.594876546], "type": "Point"}, "id": "pB972bXminwymDIc3FCjYrj3B1c=", "properties": {"@source_uri": "https://tools.usps.com/UspsToolsRestServices/rest/POLocator/findLocations", "@spider": "usps_collection_boxes", "addr:city": "DAVIS STATION", "addr:country": "US", "addr:postcode": "29041", "addr:state": "SC", "addr:street_address": "5232 MOSES DINGLE RD", "amenity": "post_box", "collection_times": "Mo-Fr 15:45; Sa 09:45", "indoor": "yes", "note": "ON 12/24 AND 12/31, THIS BOX MAY BE COLLECTED AS EARLY AS 12 NOON.", "nsi_id": "unitedstatespostalservice-a77078", "operator": "United States Postal Service", "operator:short": "USPS", "operator:type": "public", "operator:wikidata": "Q668687", "ref": "2904100002"}, "type": "Feature"}
{"geometry": {"coordinates": [-80.298620531, 33.594876546], "type": "Point"}, "id": "O4mx_juYO97WjOKth41x8pckiIc=", "properties": {"@source_uri": "https://tools.usps.com/UspsToolsRestServices/rest/POLocator/findLocations", "@spider": "usps_collection_boxes", "addr:city": "DAVIS STATION", "addr:country": "US", "addr:postcode": "29041", "addr:state": "SC", "addr:street_address": "5232 MOSES DINGLE RD", "amenity": "post_box", "collection_times": "Mo-Fr 15:45; Sa 09:45", "indoor": "yes", "note": "ON 12/24 AND 12/31, THIS BOX MAY BE COLLECTED AS EARLY AS 12 NOON.", "nsi_id": "unitedstatespostalservice-a77078", "operator": "United States Postal Service", "operator:short": "USPS", "operator:type": "public", "operator:wikidata": "Q668687", "ref": "2904100004"}, "type": "Feature"}
{"geometry": {"coordinates": [-81.142764823, 33.321618241], "type": "Point"}, "id": "oquWmpil9cqWkvAP5aQ0CydW-MQ=", "properties": {"@source_uri": "https://tools.usps.com/UspsToolsRestServices/rest/POLocator/findLocations", "@spider": "usps_collection_boxes", "addr:city": "DENMARK", "addr:country": "US", "addr:postcode": "29042", "addr:state": "SC", "addr:street_address": "5022 CAROLINA HWY", "amenity": "post_box", "collection_times": "Mo-Fr 15:45; Sa 09:45", "note": "ON 12/24 AND 12/31, THIS BOX MAY BE COLLECTED AS EARLY AS 12 NOON.", "nsi_id": "unitedstatespostalservice-a77078", "operator": "United States Postal Service", "operator:short": "USPS", "operator:type": "public", "operator:wikidata": "Q668687", "ref": "2904200000"}, "type": "Feature"}
{"geometry": {"coordinates": [-81.142764823, 33.321618241], "type": "Point"}, "id": "BjcIt3Ejea_9b8lIh3kJzuc_f0I=", "properties": {"@source_uri": "https://tools.usps.com/UspsToolsRestServices/rest/POLocator/findLocations", "@spider": "usps_collection_boxes", "addr:city": "DENMARK", "addr:country": "US", "addr:postcode": "29042", "addr:state": "SC", "addr:street_address": "5022 CAROLINA HWY", "amenity": "post_box", "collection_times": "Mo-Fr 15:45; Sa 09:45", "indoor": "yes", "note": "ON 12/24 AND 12/31, THIS BOX MAY BE COLLECTED AS EARLY AS 12 NOON.", "nsi_id": "unitedstatespostalservice-a77078", "operator": "United States Postal Service", "operator:short": "USPS", "operator:type": "public", "operator:wikidata": "Q668687", "ref": "2904200002"}, "type": "Feature"}
{"geometry": {"coordinates": [-81.1274409, 33.307252], "type": "Point"}, "id": "LroYiXCT1StwPUjaulWovdTVBtk=", "properties": {"@source_uri": "https://tools.usps.com/UspsToolsRestServices/rest/POLocator/findLocations", "@spider": "usps_collection_boxes", "addr:city": "DENMARK", "addr:country": "US", "addr:postcode": "29042", "addr:state": "SC", "addr:street_address": "213 WIGGENS DR", "amenity": "post_box", "collection_times": "Mo-Fr 14:30; Sa 09:45", "note": "ON 12/24 AND 12/31, THIS BOX MAY BE COLLECTED AS EARLY AS 12 NOON.", "nsi_id": "unitedstatespostalservice-a77078", "operator": "United States Postal Service", "operator:short": "USPS", "operator:type": "public", "operator:wikidata": "Q668687", "ref": "2904200006"}, "type": "Feature"}
{"geometry": {"coordinates": [-81.142764823, 33.321618241], "type": "Point"}, "id": "ofhtOcAsIior2VPWj2VmvYBToj0=", "properties": {"@source_uri": "https://tools.usps.com/UspsToolsRestServices/rest/POLocator/findLocations", "@spider": "usps_collection_boxes", "addr:city": "DENMARK", "addr:country": "US", "addr:postcode": "29042", "addr:state": "SC", "addr:street_address": "5022 CAROLINA HWY", "amenity": "post_box", "collection_times": "Mo-Fr 15:45; Sa 09:45", "indoor": "yes", "note": "ON 12/24 AND 12/31, THIS BOX MAY BE COLLECTED AS EARLY AS 12 NOON.", "nsi_id": "unitedstatespostalservice-a77078", "operator": "United States Postal Service", "operator:short": "USPS", "operator:type": "public", "operator:wikidata": "Q668687", "ref": "2904200011"}, "type": "Feature"}
{"geometry": {"coordinates": [-81.142764823, 33.321618241], "type": "Point"}, "id": "CHhkaVNfE8tJ8Hx_AYFFBQRpG0c=", "properties": {"@source_uri": "https://tools.usps.com/UspsToolsRestServices/rest/POLocator/findLocations", "@spider": "usps_collection_boxes", "addr:city": "DENMARK", "addr:country": "US", "addr:postcode": "29042", "addr:state": "SC", "addr:street_address": "5022 CAROLINA HWY", "amenity": "post_box", "collection_times": "Mo-Fr 15:45; Sa 09:45", "indoor": "yes", "note": "ON 12/24 AND 12/31, THIS BOX MAY BE COLLECTED AS EARLY AS 12 NOON.", "nsi_id": "unitedstatespostalservice-a77078", "operator": "United States Postal Service", "operator:short": "USPS", "operator:type": "public", "operator:wikidata": "Q668687", "ref": "2904200015"}, "type": "Feature"}
{"geometry": {"coordinates": [-80.701435453, 33.879644692], "type": "Point"}, "id": "vheWDXXdWVImfi854dUey-J1q88=", "properties": {"@source_uri": "https://tools.usps.com/UspsToolsRestServices/rest/POLocator/findLocations", "@spider": "usps_collection_boxes", "addr:city": "EASTOVER", "addr:country": "US", "addr:postcode": "29044", "addr:state": "SC", "addr:street_address": "301 MAIN ST", "amenity": "post_box", "collection_times": "Mo-Fr 15:45; Sa 10:45", "note": "ON 12/24 AND 12/31, THIS BOX MAY BE COLLECTED AS EARLY AS 12 NOON.", "nsi_id": "unitedstatespostalservice-a77078", "operator": "United States Postal Service", "operator:short": "USPS", "operator:type": "public", "operator:wikidata": "Q668687", "ref": "2904400000"}, "type": "Feature"}
{"geometry": {"coordinates": [-80.701435453, 33.879644692], "type": "Point"}, "id": "b7QhDae8uRkMMSTgNUwn4Kp1S2Q=", "properties": {"@source_uri": "https://tools.usps.com/UspsToolsRestServices/rest/POLocator/findLocations", "@spider": "usps_collection_boxes", "addr:city": "EASTOVER", "addr:country": "US", "addr:postcode": "29044", "addr:state": "SC", "addr:street_address": "301 MAIN ST", "amenity": "post_box", "collection_times": "Mo-Fr 15:45; Sa 10:45", "indoor": "yes", "note": "ON 12/24 AND 12/31, THIS BOX MAY BE COLLECTED AS EARLY AS 12 NOON.", "nsi_id": "unitedstatespostalservice-a77078", "operator": "United States Postal Service", "operator:short": "USPS", "operator:type": "public", "operator:wikidata": "Q668687", "ref": "2904400001"}, "type": "Feature"}
{"geometry": {"coordinates": [-80.701435453, 33.879644692], "type": "Point"}, "id": "1q5CwrNixgoOP-r2MfCvKIckC5A=", "properties": {"@source_uri": "https://tools.usps.com/UspsToolsRestServices/rest/POLocator/findLocations", "@spider": "usps_collection_boxes", "addr:city": "EASTOVER", "addr:country": "US", "addr:postcode": "29044", "addr:state": "SC", "addr:street_address": "301 MAIN ST", "amenity": "post_box", "collection_times": "Mo-Fr 15:45; Sa 10:45", "indoor": "yes", "note": "ON 12/24 AND 12/31, THIS BOX MAY BE COLLECTED AS EARLY AS 12 NOON.", "nsi_id": "unitedstatespostalservice-a77078", "operator": "United States Postal Service", "operator:short": "USPS", "operator:type": "public", "operator:wikidata": "Q668687", "ref": "2904400006"}, "type": "Feature"}
{"geometry": {"coordinates": [-80.701435453, 33.879644692], "type": "Point"}, "id": "G0Gm-oB_2tnZ5gtWUCRzEkbzZVs=", "properties": {"@source_uri": "https://tools.usps.com/UspsToolsRestServices/rest/POLocator/findLocations", "@spider": "usps_collection_boxes", "addr:city": "EASTOVER", "addr:country": "US", "addr:postcode": "29044", "addr:state": "SC", "addr:street_address": "301 MAIN ST", "amenity": "post_box", "collection_times": "Mo-Fr 15:45; Sa 09:45", "indoor": "yes", "note": "ON 12/24 AND 12/31, THIS BOX MAY BE COLLECTED AS EARLY AS 12 NOON.", "nsi_id": "unitedstatespostalservice-a77078", "operator": "United States Postal Service", "operator:short": "USPS", "operator:type": "public", "operator:wikidata": "Q668687", "ref": "2904400007"}, "type": "Feature"}
{"geometry": {"coordinates": [-80.793455326, 34.170798404], "type": "Point"}, "id": "tWuzOla1buP8PEdDrGAzH78tdkM=", "properties": {"@source_uri": "https://tools.usps.com/UspsToolsRestServices/rest/POLocator/findLocations", "@spider": "usps_collection_boxes", "addr:city": "ELGIN", "addr:country": "US", "addr:postcode": "29045", "addr:state": "SC", "addr:street_address": "1100 CHURCH ST", "amenity": "post_box", "collection_times": "Mo-Fr 16:45; Sa 11:30", "note": "ON 12/24 AND 12/31, THIS BOX MAY BE COLLECTED AS EARLY AS 12 NOON.", "nsi_id": "unitedstatespostalservice-a77078", "operator": "United States Postal Service", "operator:short": "USPS", "operator:type": "public", "operator:wikidata": "Q668687", "ref": "2904500000"}, "type": "Feature"}
{"geometry": {"coordinates": [-80.793455326, 34.170798404], "type": "Point"}, "id": "irHoWWniPPqGARtTESr-eP3IN6s=", "properties": {"@source_uri": "https://tools.usps.com/UspsToolsRestServices/rest/POLocator/findLocations", "@spider": "usps_collection_boxes", "addr:city": "ELGIN", "addr:country": "US", "addr:postcode": "29045", "addr:state": "SC", "addr:street_address": "1100 CHURCH ST", "amenity": "post_box", "collection_times": "Mo-Fr 16:45; Sa 11:30", "indoor": "yes", "note": "ON 12/24 AND 12/31, THIS BOX MAY BE COLLECTED AS EARLY AS 12 NOON.", "nsi_id": "unitedstatespostalservice-a77078", "operator": "United States Postal Service", "operator:short": "USPS", "operator:type": "public", "operator:wikidata": "Q668687", "ref": "2904500001"}, "type": "Feature"}
{"geometry": {"coordinates": [-80.8548672, 34.128874], "type": "Point"}, "id": "49Re3p1hWus_flnqijsuIykMJLg=", "properties": {"@source_uri": "https://tools.usps.com/UspsToolsRestServices/rest/POLocator/findLocations", "@spider": "usps_collection_boxes", "addr:city": "ELGIN", "addr:country": "US", "addr:postcode": "29045", "addr:state": "SC", "addr:street_address": "10600 TWO NOTCH RD", "amenity": "post_box", "collection_times": "Mo-Fr 12:30", "note": "ON 12/24 AND 12/31, THIS BOX MAY BE COLLECTED AS EARLY AS 12 NOON.", "nsi_id": "unitedstatespostalservice-a77078", "operator": "United States Postal Service", "operator:short": "USPS", "operator:type": "public", "operator:wikidata": "Q668687", "ref": "2904500002"}, "type": "Feature"}
{"geometry": {"coordinates": [-80.793455326, 34.170798404], "type": "Point"}, "id": "xwaAzjEA_ry7yjlbUDO0L5_WvE0=", "properties": {"@source_uri": "https://tools.usps.com/UspsToolsRestServices/rest/POLocator/findLocations", "@spider": "usps_collection_boxes", "addr:city": "ELGIN", "addr:country": "US", "addr:postcode": "29045", "addr:state": "SC", "addr:street_address": "1100 CHURCH ST", "amenity": "post_box", "collection_times": "Mo-Fr 16:45; Sa 11:30", "indoor": "yes", "note": "ON 12/24 AND 12/31, THIS BOX MAY BE COLLECTED AS EARLY AS 12 NOON.", "nsi_id": "unitedstatespostalservice-a77078", "operator": "United States Postal Service", "operator:short": "USPS", "operator:type": "public", "operator:wikidata": "Q668687", "ref": "2904500005"}, "type": "Feature"}
{"geometry": {"coordinates": [-80.163624214, 34.104654526], "type": "Point"}, "id": "u5SmIjrLjNBjC0VrSc7-dNhMozM=", "properties": {"@source_uri": "https://tools.usps.com/UspsToolsRestServices/rest/POLocator/findLocations", "@spider": "usps_collection_boxes", "addr:city": "ELLIOTT", "addr:country": "US", "addr:postcode": "29046", "addr:state": "SC", "addr:street_address": "1783 ELLIOTT HWY", "amenity": "post_box", "collection_times": "Mo-Fr 15:45; Sa 09:45", "note": "ON 12/24 AND 12/31, THIS BOX MAY BE COLLECTED AS EARLY AS 12 NOON.", "nsi_id": "unitedstatespostalservice-a77078", "operator": "United States Postal Service", "operator:short": "USPS", "operator:type": "public", "operator:wikidata": "Q668687", "ref": "2904600001"}, "type": "Feature"}
{"geometry": {"coordinates": [-80.5745387631, 33.5190939063], "type": "Point"}, "id": "ooeCIBCr_lAbzN4KBXnPBsTiQwU=", "properties": {"@source_uri": "https://tools.usps.com/UspsToolsRestServices/rest/POLocator/findLocations", "@spider": "usps_collection_boxes", "addr:city": "ELLOREE", "addr:country": "US", "addr:postcode": "29047", "addr:state": "SC", "addr:street_address": "6417 OLD #6 HWY", "amenity": "post_box", "collection_times": "Mo-Fr 15:45; Sa 09:45", "note": "ON 12/24 AND 12/31, THIS BOX MAY BE COLLECTED AS EARLY AS 12 NOON.", "nsi_id": "unitedstatespostalservice-a77078", "operator": "United States Postal Service", "operator:short": "USPS", "operator:type": "public", "operator:wikidata": "Q668687", "ref": "2904700000"}, "type": "Feature"}
{"geometry": {"coordinates": [-80.5745387631, 33.5190939063], "type": "Point"}, "id": "7DKjaS9ZPUxVZcgO4ekMzEN_FFI=", "properties": {"@source_uri": "https://tools.usps.com/UspsToolsRestServices/rest/POLocator/findLocations", "@spider": "usps_collection_boxes", "addr:city": "ELLOREE", "addr:country": "US", "addr:postcode": "29047", "addr:state": "SC", "addr:street_address": "6417 OLD #6 HWY", "amenity": "post_box", "collection_times": "Mo-Fr 15:45; Sa 09:45", "indoor": "yes", "note": "ON 12/24 AND 12/31, THIS BOX MAY BE COLLECTED AS EARLY AS 12 NOON.", "nsi_id": "unitedstatespostalservice-a77078", "operator": "United States Postal Service", "operator:short": "USPS", "operator:type": "public", "operator:wikidata": "Q668687", "ref": "2904700001"}, "type": "Feature"}
{"geometry": {"coordinates": [-80.57248217, 33.531084627], "type": "Point"}, "id": "J1WPzQGKsNAoY_CjwT1MHjyudb8=", "properties": {"@source_uri": "https://tools.usps.com/UspsToolsRestServices/rest/POLocator/findLocations", "@spider": "usps_collection_boxes", "addr:city": "ELLOREE", "addr:country": "US", "addr:postcode": "29047", "addr:state": "SC", "addr:street_address": "6417 OLD NUMBER SIX HWY", "amenity": "post_box", "collection_times": "Mo-Fr 15:45; Sa 09:45", "indoor": "yes", "note": "ON 12/24 AND 12/31, THIS BOX MAY BE COLLECTED AS EARLY AS 12 NOON.", "nsi_id": "unitedstatespostalservice-a77078", "operator": "United States Postal Service", "operator:short": "USPS", "operator:type": "public", "operator:wikidata": "Q668687", "ref": "2904700003"}, "type": "Feature"}
{"geometry": {"coordinates": [-80.347915146, 33.394243855], "type": "Point"}, "id": "HeIlN56-KiLJhV0hm6ADz1Iaw_o=", "properties": {"@source_uri": "https://tools.usps.com/UspsToolsRestServices/rest/POLocator/findLocations", "@spider": "usps_collection_boxes", "addr:city": "EUTAWVILLE", "addr:country": "US", "addr:postcode": "29048", "addr:state": "SC", "addr:street_address": "313 PORCHER AVE", "amenity": "post_box", "collection_times": "Mo-Fr 15:45; Sa 10:45", "note": "ON 12/24 AND 12/31, THIS BOX MAY BE COLLECTED AS EARLY AS 12 NOON.", "nsi_id": "unitedstatespostalservice-a77078", "operator": "United States Postal Service", "operator:short": "USPS", "operator:type": "public", "operator:wikidata": "Q668687", "ref": "2904800000"}, "type": "Feature"}
{"geometry": {"coordinates": [-80.347915146, 33.394243855], "type": "Point"}, "id": "bXrGB5p21CGy2PksvOnlgCXbrDI=", "properties": {"@source_uri": "https://tools.usps.com/UspsToolsRestServices/rest/POLocator/findLocations", "@spider": "usps_collection_boxes", "addr:city": "EUTAWVILLE", "addr:country": "US", "addr:postcode": "29048", "addr:state": "SC", "addr:street_address": "313 PORCHER AVE", "amenity": "post_box", "collection_times": "Mo-Fr 15:45; Sa 10:45", "indoor": "yes", "note": "ON 12/24 AND 12/31, THIS BOX MAY BE COLLECTED AS EARLY AS 12 NOON.", "nsi_id": "unitedstatespostalservice-a77078", "operator": "United States Postal Service", "operator:short": "USPS", "operator:type": "public", "operator:wikidata": "Q668687", "ref": "2904800001"}, "type": "Feature"}
{"geometry": {"coordinates": [-80.347915146, 33.394243855], "type": "Point"}, "id": "9ZoAGHdt8LSABNoImSx-1Z6rcso=", "properties": {"@source_uri": "https://tools.usps.com/UspsToolsRestServices/rest/POLocator/findLocations", "@spider": "usps_collection_boxes", "addr:city": "EUTAWVILLE", "addr:country": "US", "addr:postcode": "29048", "addr:state": "SC", "addr:street_address": "313 PORCHER AVE", "amenity": "post_box", "collection_times": "Mo-Fr 15:45; Sa 10:45", "indoor": "yes", "note": "ON 12/24 AND 12/31, THIS BOX MAY BE COLLECTED AS EARLY AS 12 NOON.", "nsi_id": "unitedstatespostalservice-a77078", "operator": "United States Postal Service", "operator:short": "USPS", "operator:type": "public", "operator:wikidata": "Q668687", "ref": "2904800003"}, "type": "Feature"}
{"geometry": {"coordinates": [-80.347915146, 33.394243855], "type": "Point"}, "id": "EcLwF8k7X_Eru_y3hlVB_4_wtuM=", "properties": {"@source_uri": "https://tools.usps.com/UspsToolsRestServices/rest/POLocator/findLocations", "@spider": "usps_collection_boxes", "addr:city": "EUTAWVILLE", "addr:country": "US", "addr:postcode": "29048", "addr:state": "SC", "addr:street_address": "313 PORCHER AVE", "amenity": "post_box", "collection_times": "Mo-Fr 15:45; Sa 09:45", "indoor": "yes", "note": "ON 12/24 AND 12/31, THIS BOX MAY BE COLLECTED AS EARLY AS 12 NOON.", "nsi_id": "unitedstatespostalservice-a77078", "operator": "United States Postal Service", "operator:short": "USPS", "operator:type": "public", "operator:wikidata": "Q668687", "ref": "2904800004"}, "type": "Feature"}
{"geometry": {"coordinates": [-80.103220661, 33.821917513], "type": "Point"}, "id": "g0XJG0y6S_zV5y9wEIK7vy-BDFA=", "properties": {"@source_uri": "https://tools.usps.com/UspsToolsRestServices/rest/POLocator/findLocations", "@spider": "usps_collection_boxes", "addr:city": "GABLE", "addr:country": "US", "addr:postcode": "29051", "addr:state": "SC", "addr:street_address": "12306 HWY 301", "amenity": "post_box", "collection_times": "Mo-Fr 15:45; Sa 09:45", "note": "ON 12/24 AND 12/31, THIS BOX MAY BE COLLECTED AS EARLY AS 12 NOON.", "nsi_id": "unitedstatespostalservice-a77078", "operator": "United States Postal Service", "operator:short": "USPS", "operator:type": "public", "operator:wikidata": "Q668687", "ref": "2905100000"}, "type": "Feature"}
{"geometry": {"coordinates": [-80.103220661, 33.821917513], "type": "Point"}, "id": "ZkODQbPzMQaNqcbJrAyQW4Q5w_E=", "properties": {"@source_uri": "https://tools.usps.com/UspsToolsRestServices/rest/POLocator/findLocations", "@spider": "usps_collection_boxes", "addr:city": "GABLE", "addr:country": "US", "addr:postcode": "29051", "addr:state": "SC", "addr:street_address": "12306 HWY 301", "amenity": "post_box", "collection_times": "Mo-Fr 15:45; Sa 09:45", "indoor": "yes", "note": "ON 12/24 AND 12/31, THIS BOX MAY BE COLLECTED AS EARLY AS 12 NOON.", "nsi_id": "unitedstatespostalservice-a77078", "operator": "United States Postal Service", "operator:short": "USPS", "operator:type": "public", "operator:wikidata": "Q668687", "ref": "2905100001"}, "type": "Feature"}
{"geometry": {"coordinates": [-80.103220661, 33.821917513], "type": "Point"}, "id": "FOMX5jNbkR3BCrxmpOzdPDbfY54=", "properties": {"@source_uri": "https://tools.usps.com/UspsToolsRestServices/rest/POLocator/findLocations", "@spider": "usps_collection_boxes", "addr:city": "GABLE", "addr:country": "US", "addr:postcode": "29051", "addr:state": "SC", "addr:street_address": "12306 HWY 301", "amenity": "post_box", "collection_times": "Mo-Fr 15:45; Sa 09:45", "indoor": "yes", "note": "ON 12/24 AND 12/31, THIS BOX MAY BE COLLECTED AS EARLY AS 12 NOON.", "nsi_id": "unitedstatespostalservice-a77078", "operator": "United States Postal Service", "operator:short": "USPS", "operator:type": "public", "operator:wikidata": "Q668687", "ref": "2905100003"}, "type": "Feature"}
{"geometry": {"coordinates": [-80.764670242, 33.845442726], "type": "Point"}, "id": "oJFVmdxBoI3ASSujUv2tCMo5yqk=", "properties": {"@source_uri": "https://tools.usps.com/UspsToolsRestServices/rest/POLocator/findLocations", "@spider": "usps_collection_boxes", "addr:city": "GADSDEN", "addr:country": "US", "addr:postcode": "29052", "addr:state": "SC", "addr:street_address": "7731 BLUFF RD", "amenity": "post_box", "collection_times": "Mo-Fr 15:45; Sa 09:45", "note": "ON 12/24 AND 12/31, THIS BOX MAY BE COLLECTED AS EARLY AS 12 NOON.", "nsi_id": "unitedstatespostalservice-a77078", "operator": "United States Postal Service", "operator:short": "USPS", "operator:type": "public", "operator:wikidata": "Q668687", "ref": "2905200000"}, "type": "Feature"}
{"geometry": {"coordinates": [-80.764670242, 33.845442726], "type": "Point"}, "id": "riA5-F4mcE77dmJwpkLHH8oN4BQ=", "properties": {"@source_uri": "https://tools.usps.com/UspsToolsRestServices/rest/POLocator/findLocations", "@spider": "usps_collection_boxes", "addr:city": "GADSDEN", "addr:country": "US", "addr:postcode": "29052", "addr:state": "SC", "addr:street_address": "7731 BLUFF RD", "amenity": "post_box", "collection_times": "Mo-Fr 15:45; Sa 09:45", "indoor": "yes", "note": "ON 12/24 AND 12/31, THIS BOX MAY BE COLLECTED AS EARLY AS 12 NOON.", "nsi_id": "unitedstatespostalservice-a77078", "operator": "United States Postal Service", "operator:short": "USPS", "operator:type": "public", "operator:wikidata": "Q668687", "ref": "2905200001"}, "type": "Feature"}
{"geometry": {"coordinates": [-80.764670242, 33.845442726], "type": "Point"}, "id": "k56dL4iZ0yhmALoQDCQ3UmQiRgc=", "properties": {"@source_uri": "https://tools.usps.com/UspsToolsRestServices/rest/POLocator/findLocations", "@spider": "usps_collection_boxes", "addr:city": "GADSDEN", "addr:country": "US", "addr:postcode": "29052", "addr:state": "SC", "addr:street_address": "7731 BLUFF RD", "amenity": "post_box", "collection_times": "Mo-Fr 15:45; Sa 09:45", "indoor": "yes", "note": "ON 12/24 AND 12/31, THIS BOX MAY BE COLLECTED AS EARLY AS 12 NOON.", "nsi_id": "unitedstatespostalservice-a77078", "operator": "United States Postal Service", "operator:short": "USPS", "operator:type": "public", "operator:wikidata": "Q668687", "ref": "2905200002"}, "type": "Feature"}
{"geometry": {"coordinates": [-80.764670242, 33.845442726], "type": "Point"}, "id": "buZvE0EubFkQauRvj-tTry5pnIs=", "properties": {"@source_uri": "https://tools.usps.com/UspsToolsRestServices/rest/POLocator/findLocations", "@spider": "usps_collection_boxes", "addr:city": "GADSDEN", "addr:country": "US", "addr:postcode": "29052", "addr:state": "SC", "addr:street_address": "7731 BLUFF RD", "amenity": "post_box", "collection_times": "Mo-Fr 15:45; Sa 09:45", "indoor": "yes", "note": "ON 12/24 AND 12/31, THIS BOX MAY BE COLLECTED AS EARLY AS 12 NOON.", "nsi_id": "unitedstatespostalservice-a77078", "operator": "United States Postal Service", "operator:short": "USPS", "operator:type": "public", "operator:wikidata": "Q668687", "ref": "2905200004"}, "type": "Feature"}
{"geometry": {"coordinates": [-81.1020492955, 33.8131532298], "type": "Point"}, "id": "xnSqZ0nXX8m3cF40oE1wyRMxX9k=", "properties": {"@source_uri": "https://tools.usps.com/UspsToolsRestServices/rest/POLocator/findLocations", "@spider": "usps_collection_boxes", "addr:city": "GASTON", "addr:country": "US", "addr:postcode": "29053", "addr:state": "SC", "addr:street_address": "220 S MAIN ST", "amenity": "post_box", "collection_times": "Mo-Fr 16:45; Sa 10:45", "note": "ON 12/24 AND 12/31, THIS BOX MAY BE COLLECTED AS EARLY AS 12 NOON.", "nsi_id": "unitedstatespostalservice-a77078", "operator": "United States Postal Service", "operator:short": "USPS", "operator:type": "public", "operator:wikidata": "Q668687", "ref": "2905300000"}, "type": "Feature"}
{"geometry": {"coordinates": [-81.102049296, 33.81315323], "type": "Point"}, "id": "A1e6EBwXZIwA58boqwnaDOV4OS0=", "properties": {"@source_uri": "https://tools.usps.com/UspsToolsRestServices/rest/POLocator/findLocations", "@spider": "usps_collection_boxes", "addr:city": "GASTON", "addr:country": "US", "addr:postcode": "29053", "addr:state": "SC", "addr:street_address": "220 S MAIN ST", "amenity": "post_box", "collection_times": "Mo-Fr 16:45; Sa 10:45", "indoor": "yes", "note": "ON 12/24 AND 12/31, THIS BOX MAY BE COLLECTED AS EARLY AS 12 NOON.", "nsi_id": "unitedstatespostalservice-a77078", "operator": "United States Postal Service", "operator:short": "USPS", "operator:type": "public", "operator:wikidata": "Q668687", "ref": "2905300001"}, "type": "Feature"}
{"geometry": {"coordinates": [-80.9753230355, 33.8087567347], "type": "Point"}, "id": "fzSDRoZAukOxhClVJ70sxwwPXGs=", "properties": {"@source_uri": "https://tools.usps.com/UspsToolsRestServices/rest/POLocator/findLocations", "@spider": "usps_collection_boxes", "addr:city": "GASTON", "addr:country": "US", "addr:postcode": "29053", "addr:state": "SC", "addr:street_address": "1720 OLD STATE RD", "amenity": "post_box", "collection_times": "Mo-Sa 10:00", "nsi_id": "unitedstatespostalservice-a77078", "operator": "United States Postal Service", "operator:short": "USPS", "operator:type": "public", "operator:wikidata": "Q668687", "ref": "2905300003"}, "type": "Feature"}
{"geometry": {"coordinates": [-81.102049296, 33.81315323], "type": "Point"}, "id": "7bvC5iPvB_hRYp_8mVQ3b2YXcyA=", "properties": {"@source_uri": "https://tools.usps.com/UspsToolsRestServices/rest/POLocator/findLocations", "@spider": "usps_collection_boxes", "addr:city": "GASTON", "addr:country": "US", "addr:postcode": "29053", "addr:state": "SC", "addr:street_address": "220 S MAIN ST", "amenity": "post_box", "collection_times": "Mo-Fr 15:45; Sa 09:45", "indoor": "yes", "note": "ON 12/24 AND 12/31, THIS BOX MAY BE COLLECTED AS EARLY AS 12 NOON.", "nsi_id": "unitedstatespostalservice-a77078", "operator": "United States Postal Service", "operator:short": "USPS", "operator:type": "public", "operator:wikidata": "Q668687", "ref": "2905300004"}, "type": "Feature"}
{"geometry": {"coordinates": [-81.399795924, 33.922457706], "type": "Point"}, "id": "W_az_TnSQEFCwwA9MkznnZae7Og=", "properties": {"@source_uri": "https://tools.usps.com/UspsToolsRestServices/rest/POLocator/findLocations", "@spider": "usps_collection_boxes", "addr:city": "GILBERT", "addr:country": "US", "addr:postcode": "29054", "addr:state": "SC", "addr:street_address": "401 BROAD ST", "amenity": "post_box", "collection_times": "Mo-Fr 15:45; Sa 09:45", "note": "ON 12/24 AND 12/31, THIS BOX MAY BE COLLECTED AS EARLY AS 12 NOON.", "nsi_id": "unitedstatespostalservice-a77078", "operator": "United States Postal Service", "operator:short": "USPS", "operator:type": "public", "operator:wikidata": "Q668687", "ref": "2905400000"}, "type": "Feature"}
{"geometry": {"coordinates": [-81.399795924, 33.922457706], "type": "Point"}, "id": "SCcYBQWRdNmgPaQGa4GvUGkbzV0=", "properties": {"@source_uri": "https://tools.usps.com/UspsToolsRestServices/rest/POLocator/findLocations", "@spider": "usps_collection_boxes", "addr:city": "GILBERT", "addr:country": "US", "addr:postcode": "29054", "addr:state": "SC", "addr:street_address": "401 BROAD ST", "amenity": "post_box", "collection_times": "Mo-Fr 15:45; Sa 09:45", "indoor": "yes", "note": "ON 12/24 AND 12/31, THIS BOX MAY BE COLLECTED AS EARLY AS 12 NOON.", "nsi_id": "unitedstatespostalservice-a77078", "operator": "United States Postal Service", "operator:short": "USPS", "operator:type": "public", "operator:wikidata": "Q668687", "ref": "2905400001"}, "type": "Feature"}
{"geometry": {"coordinates": [-81.399795924, 33.922457706], "type": "Point"}, "id": "bQ65hLzSwhqn6ftMFJp8vGIX220=", "properties": {"@source_uri": "https://tools.usps.com/UspsToolsRestServices/rest/POLocator/findLocations", "@spider": "usps_collection_boxes", "addr:city": "GILBERT", "addr:country": "US", "addr:postcode": "29054", "addr:state": "SC", "addr:street_address": "401 BROAD ST", "amenity": "post_box", "collection_times": "Mo-Fr 15:45; Sa 09:45", "indoor": "yes", "note": "ON 12/24 AND 12/31, THIS BOX MAY BE COLLECTED AS EARLY AS 12 NOON.", "nsi_id": "unitedstatespostalservice-a77078", "operator": "United States Postal Service", "operator:short": "USPS", "operator:type": "public", "operator:wikidata": "Q668687", "ref": "2905400004"}, "type": "Feature"}
{"geometry": {"coordinates": [-80.88972834, 34.567368957], "type": "Point"}, "id": "DGK8U7hxpdfGQy3tpe7z2tbGbns=", "properties": {"@source_uri": "https://tools.usps.com/UspsToolsRestServices/rest/POLocator/findLocations", "@spider": "usps_collection_boxes", "addr:city": "GREAT FALLS", "addr:country": "US", "addr:postcode": "29055", "addr:state": "SC", "addr:street_address": "649 DEARBORN ST", "amenity": "post_box", "collection_times": "Mo-Fr 15:45; Sa 09:45", "note": "ON 12/24 AND 12/31, THIS BOX MAY BE COLLECTED AS EARLY AS 12 NOON.", "nsi_id": "unitedstatespostalservice-a77078", "operator": "United States Postal Service", "operator:short": "USPS", "operator:type": "public", "operator:wikidata": "Q668687", "ref": "2905500000"}, "type": "Feature"}
{"geometry": {"coordinates": [-80.88972834, 34.567368957], "type": "Point"}, "id": "9Hk-nT5hcqwEXjnG11yeySD7PaA=", "properties": {"@source_uri": "https://tools.usps.com/UspsToolsRestServices/rest/POLocator/findLocations", "@spider": "usps_collection_boxes", "addr:city": "GREAT FALLS", "addr:country": "US", "addr:postcode": "29055", "addr:state": "SC", "addr:street_address": "649 DEARBORN ST", "amenity": "post_box", "collection_times": "Mo-Fr 15:45; Sa 09:45", "indoor": "yes", "note": "ON 12/24 AND 12/31, THIS BOX MAY BE COLLECTED AS EARLY AS 12 NOON.", "nsi_id": "unitedstatespostalservice-a77078", "operator": "United States Postal Service", "operator:short": "USPS", "operator:type": "public", "operator:wikidata": "Q668687", "ref": "2905500001"}, "type": "Feature"}
{"geometry": {"coordinates": [-80.8980269, 34.571481], "type": "Point"}, "id": "cBxpsSWaPyAjHut2QrhwGBah9Nk=", "properties": {"@source_uri": "https://tools.usps.com/UspsToolsRestServices/rest/POLocator/findLocations", "@spider": "usps_collection_boxes", "addr:city": "GREAT FALLS", "addr:country": "US", "addr:postcode": "29055", "addr:state": "SC", "addr:street_address": "326 DEARBORN ST", "amenity": "post_box", "collection_times": "Mo-Fr 14:00; Sa 09:45", "note": "ON 12/24 AND 12/31, THIS BOX MAY BE COLLECTED AS EARLY AS 12 NOON.", "nsi_id": "unitedstatespostalservice-a77078", "operator": "United States Postal Service", "operator:short": "USPS", "operator:type": "public", "operator:wikidata": "Q668687", "ref": "2905500004"}, "type": "Feature"}
{"geometry": {"coordinates": [-80.88972834, 34.567368957], "type": "Point"}, "id": "E2UjFwHNh-BvIJi9jEjaNy9ykbc=", "properties": {"@source_uri": "https://tools.usps.com/UspsToolsRestServices/rest/POLocator/findLocations", "@spider": "usps_collection_boxes", "addr:city": "GREAT FALLS", "addr:country": "US", "addr:postcode": "29055", "addr:state": "SC", "addr:street_address": "649 DEARBORN ST", "amenity": "post_box", "collection_times": "Mo-Fr 15:45; Sa 09:45", "indoor": "yes", "note": "ON 12/24 AND 12/31, THIS BOX MAY BE COLLECTED AS EARLY AS 12 NOON.", "nsi_id": "unitedstatespostalservice-a77078", "operator": "United States Postal Service", "operator:short": "USPS", "operator:type": "public", "operator:wikidata": "Q668687", "ref": "2905500008"}, "type": "Feature"}
{"geometry": {"coordinates": [-79.990049841, 33.581408612], "type": "Point"}, "id": "KC5jYD-BLmvM4pcnpoIn5fAy34I=", "properties": {"@source_uri": "https://tools.usps.com/UspsToolsRestServices/rest/POLocator/findLocations", "@spider": "usps_collection_boxes", "addr:city": "GREELEYVILLE", "addr:country": "US", "addr:postcode": "29056", "addr:state": "SC", "addr:street_address": "24 C.E. MURRY BLVD", "amenity": "post_box", "collection_times": "Mo-Fr 15:45; Sa 09:45", "note": "ON 12/24 AND 12/31, THIS BOX MAY BE COLLECTED AS EARLY AS 12 NOON.", "nsi_id": "unitedstatespostalservice-a77078", "operator": "United States Postal Service", "operator:short": "USPS", "operator:type": "public", "operator:wikidata": "Q668687", "ref": "2905600000"}, "type": "Feature"}
{"geometry": {"coordinates": [-79.990049841, 33.581408612], "type": "Point"}, "id": "csg6T-nWyaFg1-st8_vPQRMk7DY=", "properties": {"@source_uri": "https://tools.usps.com/UspsToolsRestServices/rest/POLocator/findLocations", "@spider": "usps_collection_boxes", "addr:city": "GREELEYVILLE", "addr:country": "US", "addr:postcode": "29056", "addr:state": "SC", "addr:street_address": "24 C.E. MURRY BLVD", "amenity": "post_box", "collection_times": "Mo-Fr 15:45; Sa 09:45", "indoor": "yes", "note": "ON 12/24 AND 12/31, THIS BOX MAY BE COLLECTED AS EARLY AS 12 NOON.", "nsi_id": "unitedstatespostalservice-a77078", "operator": "United States Postal Service", "operator:short": "USPS", "operator:type": "public", "operator:wikidata": "Q668687", "ref": "2905600003"}, "type": "Feature"}
{"geometry": {"coordinates": [-79.990049841, 33.581408612], "type": "Point"}, "id": "r9-zHuf_9V6tPqOJWIhn0e30Ks4=", "properties": {"@source_uri": "https://tools.usps.com/UspsToolsRestServices/rest/POLocator/findLocations", "@spider": "usps_collection_boxes", "addr:city": "GREELEYVILLE", "addr:country": "US", "addr:postcode": "29056", "addr:state": "SC", "addr:street_address": "24 C.E. MURRY BLVD", "amenity": "post_box", "collection_times": "Mo-Fr 15:45; Sa 09:45", "indoor": "yes", "note": "ON 12/24 AND 12/31, THIS BOX MAY BE COLLECTED AS EARLY AS 12 NOON.", "nsi_id": "unitedstatespostalservice-a77078", "operator": "United States Postal Service", "operator:short": "USPS", "operator:type": "public", "operator:wikidata": "Q668687", "ref": "2905600004"}, "type": "Feature"}
{"geometry": {"coordinates": [-80.675178817, 34.592347634], "type": "Point"}, "id": "TocBwvD7vpjBB9EWPd9T886iZto=", "properties": {"@source_uri": "https://tools.usps.com/UspsToolsRestServices/rest/POLocator/findLocations", "@spider": "usps_collection_boxes", "addr:city": "HEATH SPRINGS", "addr:country": "US", "addr:postcode": "29058", "addr:state": "SC", "addr:street_address": "101 N MAIN ST", "amenity": "post_box", "collection_times": "Mo-Fr 15:45; Sa 09:45", "note": "ON 12/24 AND 12/31, THIS BOX MAY BE COLLECTED AS EARLY AS 12 NOON.", "nsi_id": "unitedstatespostalservice-a77078", "operator": "United States Postal Service", "operator:short": "USPS", "operator:type": "public", "operator:wikidata": "Q668687", "ref": "2905800000"}, "type": "Feature"}
{"geometry": {"coordinates": [-80.675178817, 34.592347634], "type": "Point"}, "id": "oKlLwrNeqeyTMDuvQQJxKySiGbo=", "properties": {"@source_uri": "https://tools.usps.com/UspsToolsRestServices/rest/POLocator/findLocations", "@spider": "usps_collection_boxes", "addr:city": "HEATH SPRINGS", "addr:country": "US", "addr:postcode": "29058", "addr:state": "SC", "addr:street_address": "101 N MAIN ST", "amenity": "post_box", "collection_times": "Mo-Fr 15:45; Sa 09:45", "indoor": "yes", "note": "ON 12/24 AND 12/31, THIS BOX MAY BE COLLECTED AS EARLY AS 12 NOON.", "nsi_id": "unitedstatespostalservice-a77078", "operator": "United States Postal Service", "operator:short": "USPS", "operator:type": "public", "operator:wikidata": "Q668687", "ref": "2905800001"}, "type": "Feature"}
{"geometry": {"coordinates": [-80.675178817, 34.592347634], "type": "Point"}, "id": "t10OmotiXSokdqThS3Hs_PJyzxI=", "properties": {"@source_uri": "https://tools.usps.com/UspsToolsRestServices/rest/POLocator/findLocations", "@spider": "usps_collection_boxes", "addr:city": "HEATH SPRINGS", "addr:country": "US", "addr:postcode": "29058", "addr:state": "SC", "addr:street_address": "101 N MAIN ST", "amenity": "post_box", "collection_times": "Mo-Fr 15:45; Sa 09:45", "indoor": "yes", "note": "ON 12/24 AND 12/31, THIS BOX MAY BE COLLECTED AS EARLY AS 12 NOON.", "nsi_id": "unitedstatespostalservice-a77078", "operator": "United States Postal Service", "operator:short": "USPS", "operator:type": "public", "operator:wikidata": "Q668687", "ref": "2905800003"}, "type": "Feature"}
{"geometry": {"coordinates": [-80.411242366, 33.319810877], "type": "Point"}, "id": "phtro9dn-GZoOY2DJzlxtsVbBR4=", "properties": {"@source_uri": "https://tools.usps.com/UspsToolsRestServices/rest/POLocator/findLocations", "@spider": "usps_collection_boxes", "addr:city": "HOLLY HILL", "addr:country": "US", "addr:postcode": "29059", "addr:state": "SC", "addr:street_address": "525 GARDNER BLVD", "amenity": "post_box", "collection_times": "Mo-Fr 15:45; Sa 10:15", "indoor": "yes", "note": "ON 12/24 AND 12/31, THIS BOX MAY BE COLLECTED AS EARLY AS 12 NOON.", "nsi_id": "unitedstatespostalservice-a77078", "operator": "United States Postal Service", "operator:short": "USPS", "operator:type": "public", "operator:wikidata": "Q668687", "ref": "2905900002"}, "type": "Feature"}
{"geometry": {"coordinates": [-80.414338, 33.323315], "type": "Point"}, "id": "IQC5pirfO_RCS1xGQ01HsJKjybo=", "properties": {"@source_uri": "https://tools.usps.com/UspsToolsRestServices/rest/POLocator/findLocations", "@spider": "usps_collection_boxes", "addr:city": "HOLLY HILL", "addr:country": "US", "addr:postcode": "29059", "addr:state": "SC", "addr:street_address": "8506 OLD STATE RD", "amenity": "post_box", "collection_times": "Mo-Fr 15:15; Sa 10:15", "note": "ON 12/24 AND 12/31, THIS BOX MAY BE COLLECTED AS EARLY AS 12 NOON.", "nsi_id": "unitedstatespostalservice-a77078", "operator": "United States Postal Service", "operator:short": "USPS", "operator:type": "public", "operator:wikidata": "Q668687", "ref": "2905900003"}, "type": "Feature"}
{"geometry": {"coordinates": [-80.411242366, 33.319810877], "type": "Point"}, "id": "CbeZahfKSJQ-E5zpejxb-l7gI7s=", "properties": {"@source_uri": "https://tools.usps.com/UspsToolsRestServices/rest/POLocator/findLocations", "@spider": "usps_collection_boxes", "addr:city": "HOLLY HILL", "addr:country": "US", "addr:postcode": "29059", "addr:state": "SC", "addr:street_address": "525 GARDNER BLVD", "amenity": "post_box", "collection_times": "Mo-Fr 15:45; Sa 10:15", "note": "ON 12/24 AND 12/31, THIS BOX MAY BE COLLECTED AS EARLY AS 12 NOON.", "nsi_id": "unitedstatespostalservice-a77078", "operator": "United States Postal Service", "operator:short": "USPS", "operator:type": "public", "operator:wikidata": "Q668687", "ref": "2905900005"}, "type": "Feature"}
{"geometry": {"coordinates": [-80.411242366, 33.319810877], "type": "Point"}, "id": "1uTDzfKUZmBp3CGqV9aNPu7jyxc=", "properties": {"@source_uri": "https://tools.usps.com/UspsToolsRestServices/rest/POLocator/findLocations", "@spider": "usps_collection_boxes", "addr:city": "HOLLY HILL", "addr:country": "US", "addr:postcode": "29059", "addr:state": "SC", "addr:street_address": "525 GARDNER BLVD", "amenity": "post_box", "collection_times": "Mo-Fr 15:45; Sa 10:15", "indoor": "yes", "note": "ON 12/24 AND 12/31, THIS BOX MAY BE COLLECTED AS EARLY AS 12 NOON.", "nsi_id": "unitedstatespostalservice-a77078", "operator": "United States Postal Service", "operator:short": "USPS", "operator:type": "public", "operator:wikidata": "Q668687", "ref": "2905900010"}, "type": "Feature"}
{"geometry": {"coordinates": [-80.876682941, 33.901157043], "type": "Point"}, "id": "cHU4d0drDhWITyoFn6rC4n3sMzw=", "properties": {"@source_uri": "https://tools.usps.com/UspsToolsRestServices/rest/POLocator/findLocations", "@spider": "usps_collection_boxes", "addr:city": "HOPKINS", "addr:country": "US", "addr:postcode": "29061", "addr:state": "SC", "addr:street_address": "6200 LOWER RICHLAND BLVD", "amenity": "post_box", "collection_times": "Mo-Fr 15:45; Sa 09:45", "note": "ON 12/24 AND 12/31, THIS BOX MAY BE COLLECTED AS EARLY AS 12 NOON.", "nsi_id": "unitedstatespostalservice-a77078", "operator": "United States Postal Service", "operator:short": "USPS", "operator:type": "public", "operator:wikidata": "Q668687", "ref": "2906100000"}, "type": "Feature"}
{"geometry": {"coordinates": [-80.876682941, 33.901157043], "type": "Point"}, "id": "FIZbKWY1JpbTxMT4zit-wplcJ9w=", "properties": {"@source_uri": "https://tools.usps.com/UspsToolsRestServices/rest/POLocator/findLocations", "@spider": "usps_collection_boxes", "addr:city": "HOPKINS", "addr:country": "US", "addr:postcode": "29061", "addr:state": "SC", "addr:street_address": "6200 LOWER RICHLAND BLVD", "amenity": "post_box", "collection_times": "Mo-Fr 15:45; Sa 09:45", "indoor": "yes", "note": "ON 12/24 AND 12/31, THIS BOX MAY BE COLLECTED AS EARLY AS 12 NOON.", "nsi_id": "unitedstatespostalservice-a77078", "operator": "United States Postal Service", "operator:short": "USPS", "operator:type": "public", "operator:wikidata": "Q668687", "ref": "2906100001"}, "type": "Feature"}
{"geometry": {"coordinates": [-80.876682941, 33.901157043], "type": "Point"}, "id": "LjhEOKaEQCrLtUasan0MEPrT2wQ=", "properties": {"@source_uri": "https://tools.usps.com/UspsToolsRestServices/rest/POLocator/findLocations", "@spider": "usps_collection_boxes", "addr:city": "HOPKINS", "addr:country": "US", "addr:postcode": "29061", "addr:state": "SC", "addr:street_address": "6200 LOWER RICHLAND BLVD", "amenity": "post_box", "collection_times": "Mo-Fr 15:45; Sa 09:45", "indoor": "yes", "note": "ON 12/24 AND 12/31, THIS BOX MAY BE COLLECTED AS EARLY AS 12 NOON.", "nsi_id": "unitedstatespostalservice-a77078", "operator": "United States Postal Service", "operator:short": "USPS", "operator:type": "public", "operator:wikidata": "Q668687", "ref": "2906100003"}, "type": "Feature"}
{"geometry": {"coordinates": [-80.567590357, 34.021869906], "type": "Point"}, "id": "14aacKBdhc0JnN8-D-q173CtDec=", "properties": {"@source_uri": "https://tools.usps.com/UspsToolsRestServices/rest/POLocator/findLocations", "@spider": "usps_collection_boxes", "addr:city": "HORATIO", "addr:country": "US", "addr:postcode": "29062", "addr:state": "SC", "addr:street_address": "3240 HORATIO HAGOOD RD", "amenity": "post_box", "collection_times": "Mo-Fr 14:00; Sa 09:45", "note": "ON 12/24 AND 12/31, THIS BOX MAY BE COLLECTED AS EARLY AS 12 NOON.", "nsi_id": "unitedstatespostalservice-a77078", "operator": "United States Postal Service", "operator:short": "USPS", "operator:type": "public", "operator:wikidata": "Q668687", "ref": "2906200002"}, "type": "Feature"}
{"geometry": {"coordinates": [-80.567590357, 34.021869906], "type": "Point"}, "id": "IbzWT6un2z4ApQyx3GPtl8d9o5Q=", "properties": {"@source_uri": "https://tools.usps.com/UspsToolsRestServices/rest/POLocator/findLocations", "@spider": "usps_collection_boxes", "addr:city": "HORATIO", "addr:country": "US", "addr:postcode": "29062", "addr:state": "SC", "addr:street_address": "3240 HORATIO HAGOOD RD", "amenity": "post_box", "collection_times": "Mo-Fr 14:00; Sa 09:45", "indoor": "yes", "note": "ON 12/24 AND 12/31, THIS BOX MAY BE COLLECTED AS EARLY AS 12 NOON.", "nsi_id": "unitedstatespostalservice-a77078", "operator": "United States Postal Service", "operator:short": "USPS", "operator:type": "public", "operator:wikidata": "Q668687", "ref": "2906200003"}, "type": "Feature"}
{"geometry": {"coordinates": [-81.188099031, 34.0963729863], "type": "Point"}, "id": "WRTXKigNyHjsOMDG2BC2rSl6Mn0=", "properties": {"@source_uri": "https://tools.usps.com/UspsToolsRestServices/rest/POLocator/findLocations", "@spider": "usps_collection_boxes", "addr:city": "IRMO", "addr:country": "US", "addr:postcode": "29063", "addr:state": "SC", "addr:street_address": "7821 SAINT ANDREWS RD", "amenity": "post_box", "collection_times": "Mo-Fr 16:45; Sa 11:30", "note": "ON 12/24 AND 12/31, THIS BOX MAY BE COLLECTED AS EARLY AS 12 NOON.", "nsi_id": "unitedstatespostalservice-a77078", "operator": "United States Postal Service", "operator:short": "USPS", "operator:type": "public", "operator:wikidata": "Q668687", "ref": "2906300000"}, "type": "Feature"}
{"geometry": {"coordinates": [-81.187483883, 34.096113199], "type": "Point"}, "id": "CFRMScMyxvRfSLulPRkCOvRnuKk=", "properties": {"@source_uri": "https://tools.usps.com/UspsToolsRestServices/rest/POLocator/findLocations", "@spider": "usps_collection_boxes", "addr:city": "IRMO", "addr:country": "US", "addr:postcode": "29063", "addr:state": "SC", "addr:street_address": "7821 SAINT ANDREWS RD", "amenity": "post_box", "collection_times": "Mo-Fr 16:45; Sa 11:30", "indoor": "yes", "note": "ON 12/24 AND 12/31, THIS BOX MAY BE COLLECTED AS EARLY AS 12 NOON.", "nsi_id": "unitedstatespostalservice-a77078", "operator": "United States Postal Service", "operator:short": "USPS", "operator:type": "public", "operator:wikidata": "Q668687", "ref": "2906300007"}, "type": "Feature"}
{"geometry": {"coordinates": [-81.1575306, 34.092522], "type": "Point"}, "id": "gSBNE_i6KRHMb4GnT6KDnw0uMTA=", "properties": {"@source_uri": "https://tools.usps.com/UspsToolsRestServices/rest/POLocator/findLocations", "@spider": "usps_collection_boxes", "addr:city": "IRMO", "addr:country": "US", "addr:postcode": "29063", "addr:state": "SC", "addr:street_address": "100 DUTCHMAN BLVD", "amenity": "post_box", "collection_times": "Mo-Sa 08:45", "nsi_id": "unitedstatespostalservice-a77078", "operator": "United States Postal Service", "operator:short": "USPS", "operator:type": "public", "operator:wikidata": "Q668687", "ref": "2906300009"}, "type": "Feature"}
{"geometry": {"coordinates": [-81.187483883, 34.096113199], "type": "Point"}, "id": "tCbZ2yjidDNhsgyZCKnQlDawiWU=", "properties": {"@source_uri": "https://tools.usps.com/UspsToolsRestServices/rest/POLocator/findLocations", "@spider": "usps_collection_boxes", "addr:city": "IRMO", "addr:country": "US", "addr:postcode": "29063", "addr:state": "SC", "addr:street_address": "7821 SAINT ANDREWS RD", "amenity": "post_box", "collection_times": "Mo-Fr 16:45; Sa 11:30", "name": "USPS COLLECTION BOX - APC", "note": "ON 12/24 AND 12/31, THIS BOX MAY BE COLLECTED AS EARLY AS 12 NOON.", "nsi_id": "unitedstatespostalservice-a77078", "operator": "United States Postal Service", "operator:short": "USPS", "operator:type": "public", "operator:wikidata": "Q668687", "ref": "2906300010"}, "type": "Feature"}
{"geometry": {"coordinates": [-81.187483883, 34.096113199], "type": "Point"}, "id": "AvJmr5jQLIRC2FRe3Gx9g0rL4Nc=", "properties": {"@source_uri": "https://tools.usps.com/UspsToolsRestServices/rest/POLocator/findLocations", "@spider": "usps_collection_boxes", "addr:city": "IRMO", "addr:country": "US", "addr:postcode": "29063", "addr:state": "SC", "addr:street_address": "7821 SAINT ANDREWS RD", "amenity": "post_box", "collection_times": "Mo-Fr 16:45; Sa 11:15", "indoor": "yes", "note": "ON 12/24 AND 12/31, THIS BOX MAY BE COLLECTED AS EARLY AS 12 NOON.", "nsi_id": "unitedstatespostalservice-a77078", "operator": "United States Postal Service", "operator:short": "USPS", "operator:type": "public", "operator:wikidata": "Q668687", "ref": "2906300016"}, "type": "Feature"}
{"geometry": {"coordinates": [-81.286491761, 34.265334204], "type": "Point"}, "id": "vRcjCUskxWkUMXsDIDqsfyWaSik=", "properties": {"@source_uri": "https://tools.usps.com/UspsToolsRestServices/rest/POLocator/findLocations", "@spider": "usps_collection_boxes", "addr:city": "JENKINSVILLE", "addr:country": "US", "addr:postcode": "29065", "addr:state": "SC", "addr:street_address": "11298 STATE HIGHWAY 215 S", "amenity": "post_box", "collection_times": "Mo-Fr 15:45; Sa 09:45", "indoor": "yes", "note": "ON 12/24 AND 12/31, THIS BOX MAY BE COLLECTED AS EARLY AS 12 NOON.", "nsi_id": "unitedstatespostalservice-a77078", "operator": "United States Postal Service", "operator:short": "USPS", "operator:type": "public", "operator:wikidata": "Q668687", "ref": "2906500001"}, "type": "Feature"}
{"geometry": {"coordinates": [-81.286491761, 34.265334204], "type": "Point"}, "id": "pwioOJpI0B7RGCFLGfZiMwDm6Oc=", "properties": {"@source_uri": "https://tools.usps.com/UspsToolsRestServices/rest/POLocator/findLocations", "@spider": "usps_collection_boxes", "addr:city": "JENKINSVILLE", "addr:country": "US", "addr:postcode": "29065", "addr:state": "SC", "addr:street_address": "11298 STATE HIGHWAY 215 S", "amenity": "post_box", "collection_times": "Mo-Fr 15:45; Sa 09:45", "indoor": "yes", "note": "ON 12/24 AND 12/31, THIS BOX MAY BE COLLECTED AS EARLY AS 12 NOON.", "nsi_id": "unitedstatespostalservice-a77078", "operator": "United States Postal Service", "operator:short": "USPS", "operator:type": "public", "operator:wikidata": "Q668687", "ref": "2906500003"}, "type": "Feature"}
{"geometry": {"coordinates": [-80.586924994, 34.554196017], "type": "Point"}, "id": "uOOhBAc47tTFeJx9ast6btrd70o=", "properties": {"@source_uri": "https://tools.usps.com/UspsToolsRestServices/rest/POLocator/findLocations", "@spider": "usps_collection_boxes", "addr:city": "KERSHAW", "addr:country": "US", "addr:postcode": "29067", "addr:state": "SC", "addr:street_address": "521 N MATSON ST", "amenity": "post_box", "collection_times": "Mo-Fr 15:45; Sa 10:15", "note": "ON 12/24 AND 12/31, THIS BOX MAY BE COLLECTED AS EARLY AS 12 NOON.", "nsi_id": "unitedstatespostalservice-a77078", "operator": "United States Postal Service", "operator:short": "USPS", "operator:type": "public", "operator:wikidata": "Q668687", "ref": "2906700000"}, "type": "Feature"}
{"geometry": {"coordinates": [-80.586924994, 34.554196017], "type": "Point"}, "id": "LiSkNONsXrPNLFyl_gNwnmI3gPc=", "properties": {"@source_uri": "https://tools.usps.com/UspsToolsRestServices/rest/POLocator/findLocations", "@spider": "usps_collection_boxes", "addr:city": "KERSHAW", "addr:country": "US", "addr:postcode": "29067", "addr:state": "SC", "addr:street_address": "521 N MATSON ST", "amenity": "post_box", "collection_times": "Mo-Fr 15:45; Sa 10:15", "indoor": "yes", "note": "ON 12/24 AND 12/31, THIS BOX MAY BE COLLECTED AS EARLY AS 12 NOON.", "nsi_id": "unitedstatespostalservice-a77078", "operator": "United States Postal Service", "operator:short": "USPS", "operator:type": "public", "operator:wikidata": "Q668687", "ref": "2906700002"}, "type": "Feature"}
{"geometry": {"coordinates": [-80.5818988, 34.540799], "type": "Point"}, "id": "44Xl4teMJUH5TV63ZELuWYIDYKM=", "properties": {"@source_uri": "https://tools.usps.com/UspsToolsRestServices/rest/POLocator/findLocations", "@spider": "usps_collection_boxes", "addr:city": "KERSHAW", "addr:country": "US", "addr:postcode": "29067", "addr:state": "SC", "addr:street_address": "513 S HAMPTON ST", "amenity": "post_box", "collection_times": "Mo-Sa 09:00", "nsi_id": "unitedstatespostalservice-a77078", "operator": "United States Postal Service", "operator:short": "USPS", "operator:type": "public", "operator:wikidata": "Q668687", "ref": "2906700003"}, "type": "Feature"}
{"geometry": {"coordinates": [-80.5867722, 34.556145], "type": "Point"}, "id": "xcovUyKhuq4atuN-U_zsRT5bqMo=", "properties": {"@source_uri": "https://tools.usps.com/UspsToolsRestServices/rest/POLocator/findLocations", "@spider": "usps_collection_boxes", "addr:city": "KERSHAW", "addr:country": "US", "addr:postcode": "29067", "addr:state": "SC", "addr:street_address": "610 N MATSON ST", "amenity": "post_box", "collection_times": "Mo-Sa 10:30", "nsi_id": "unitedstatespostalservice-a77078", "operator": "United States Postal Service", "operator:short": "USPS", "operator:type": "public", "operator:wikidata": "Q668687", "ref": "2906700004"}, "type": "Feature"}
{"geometry": {"coordinates": [-80.586924994, 34.554196017], "type": "Point"}, "id": "EJG1jdbgTP7SLvnTSRngagX53e0=", "properties": {"@source_uri": "https://tools.usps.com/UspsToolsRestServices/rest/POLocator/findLocations", "@spider": "usps_collection_boxes", "addr:city": "KERSHAW", "addr:country": "US", "addr:postcode": "29067", "addr:state": "SC", "addr:street_address": "521 N MATSON ST", "amenity": "post_box", "collection_times": "Mo-Fr 15:45; Sa 10:15", "indoor": "yes", "note": "ON 12/24 AND 12/31, THIS BOX MAY BE COLLECTED AS EARLY AS 12 NOON.", "nsi_id": "unitedstatespostalservice-a77078", "operator": "United States Postal Service", "operator:short": "USPS", "operator:type": "public", "operator:wikidata": "Q668687", "ref": "2906700005"}, "type": "Feature"}
{"geometry": {"coordinates": [-80.586924994, 34.554196017], "type": "Point"}, "id": "Ec38XMSFRHF4B1l1yiaKGCCbuzM=", "properties": {"@source_uri": "https://tools.usps.com/UspsToolsRestServices/rest/POLocator/findLocations", "@spider": "usps_collection_boxes", "addr:city": "KERSHAW", "addr:country": "US", "addr:postcode": "29067", "addr:state": "SC", "addr:street_address": "521 N MATSON ST", "amenity": "post_box", "collection_times": "Mo-Fr 15:45; Sa 10:00", "indoor": "yes", "note": "ON 12/24 AND 12/31, THIS BOX MAY BE COLLECTED AS EARLY AS 12 NOON.", "nsi_id": "unitedstatespostalservice-a77078", "operator": "United States Postal Service", "operator:short": "USPS", "operator:type": "public", "operator:wikidata": "Q668687", "ref": "2906700009"}, "type": "Feature"}
{"geometry": {"coordinates": [-80.0631959923, 34.1696270062], "type": "Point"}, "id": "BlgVAsEpdSy9XRjIu1WCGC-Igu0=", "properties": {"@source_uri": "https://tools.usps.com/UspsToolsRestServices/rest/POLocator/findLocations", "@spider": "usps_collection_boxes", "addr:city": "LAMAR", "addr:country": "US", "addr:postcode": "29069", "addr:state": "SC", "addr:street_address": "110 MAIN ST", "amenity": "post_box", "collection_times": "Mo-Fr 16:00; Sa 09:45", "note": "ON 12/24 AND 12/31, THIS BOX MAY BE COLLECTED AS EARLY AS 12 NOON.", "nsi_id": "unitedstatespostalservice-a77078", "operator": "United States Postal Service", "operator:short": "USPS", "operator:type": "public", "operator:wikidata": "Q668687", "ref": "2906900000"}, "type": "Feature"}
{"geometry": {"coordinates": [-80.063369624, 34.169528346], "type": "Point"}, "id": "zqzbfX7Chj-dKz6byAigOv-KLwA=", "properties": {"@source_uri": "https://tools.usps.com/UspsToolsRestServices/rest/POLocator/findLocations", "@spider": "usps_collection_boxes", "addr:city": "LAMAR", "addr:country": "US", "addr:postcode": "29069", "addr:state": "SC", "addr:street_address": "110 MAIN ST", "amenity": "post_box", "collection_times": "Mo-Fr 16:00; Sa 09:45", "indoor": "yes", "note": "ON 12/24 AND 12/31, THIS BOX MAY BE COLLECTED AS EARLY AS 12 NOON.", "nsi_id": "unitedstatespostalservice-a77078", "operator": "United States Postal Service", "operator:short": "USPS", "operator:type": "public", "operator:wikidata": "Q668687", "ref": "2906900001"}, "type": "Feature"}
{"geometry": {"coordinates": [-80.063369624, 34.169528346], "type": "Point"}, "id": "PiLF9w6ranO9hsLH_oH7kET--SA=", "properties": {"@source_uri": "https://tools.usps.com/UspsToolsRestServices/rest/POLocator/findLocations", "@spider": "usps_collection_boxes", "addr:city": "LAMAR", "addr:country": "US", "addr:postcode": "29069", "addr:state": "SC", "addr:street_address": "110 MAIN ST", "amenity": "post_box", "collection_times": "Mo-Fr 15:45; Sa 09:45", "indoor": "yes", "note": "ON 12/24 AND 12/31, THIS BOX MAY BE COLLECTED AS EARLY AS 12 NOON.", "nsi_id": "unitedstatespostalservice-a77078", "operator": "United States Postal Service", "operator:short": "USPS", "operator:type": "public", "operator:wikidata": "Q668687", "ref": "2906900003"}, "type": "Feature"}
{"geometry": {"coordinates": [-81.528686383, 33.9142892717], "type": "Point"}, "id": "lRmZTCpxlj_NfD-ZpDJDTNFfdLQ=", "properties": {"@source_uri": "https://tools.usps.com/UspsToolsRestServices/rest/POLocator/findLocations", "@spider": "usps_collection_boxes", "addr:city": "BATES-LEESVILLE", "addr:country": "US", "addr:postcode": "29070", "addr:state": "SC", "addr:street_address": "110 E CHURCH ST", "amenity": "post_box", "collection_times": "Mo-Fr 16:30; Sa 14:30", "note": "ON 12/24 AND 12/31, THIS BOX MAY BE COLLECTED AS EARLY AS 12 NOON.", "nsi_id": "unitedstatespostalservice-a77078", "operator": "United States Postal Service", "operator:short": "USPS", "operator:type": "public", "operator:wikidata": "Q668687", "ref": "2907000005"}, "type": "Feature"}
{"geometry": {"coordinates": [-81.528686383, 33.9142892717], "type": "Point"}, "id": "yLbd0bkN3WSIxUK71WYz-QQ2LbQ=", "properties": {"@source_uri": "https://tools.usps.com/UspsToolsRestServices/rest/POLocator/findLocations", "@spider": "usps_collection_boxes", "addr:city": "BATES-LEESVILLE", "addr:country": "US", "addr:postcode": "29070", "addr:state": "SC", "addr:street_address": "110 E CHURCH ST", "amenity": "post_box", "collection_times": "Mo-Fr 16:30; Sa 14:30", "indoor": "yes", "note": "ON 12/24 AND 12/31, THIS BOX MAY BE COLLECTED AS EARLY AS 12 NOON.", "nsi_id": "unitedstatespostalservice-a77078", "operator": "United States Postal Service", "operator:short": "USPS", "operator:type": "public", "operator:wikidata": "Q668687", "ref": "2907000007"}, "type": "Feature"}
{"geometry": {"coordinates": [-81.528686383, 33.9142892717], "type": "Point"}, "id": "1IF-3CV5Xy-N_EEp40hHu2oybQM=", "properties": {"@source_uri": "https://tools.usps.com/UspsToolsRestServices/rest/POLocator/findLocations", "@spider": "usps_collection_boxes", "addr:city": "BATES-LEESVILLE", "addr:country": "US", "addr:postcode": "29070", "addr:state": "SC", "addr:street_address": "110 E CHURCH ST", "amenity": "post_box", "collection_times": "Mo-Fr 16:30; Sa 14:30", "indoor": "yes", "note": "ON 12/24 AND 12/31, THIS BOX MAY BE COLLECTED AS EARLY AS 12 NOON.", "nsi_id": "unitedstatespostalservice-a77078", "operator": "United States Postal Service", "operator:short": "USPS", "operator:type": "public", "operator:wikidata": "Q668687", "ref": "2907000008"}, "type": "Feature"}
{"geometry": {"coordinates": [-81.528686383, 33.9142892717], "type": "Point"}, "id": "7QTRfwBMnRnFJRw9LerBeEu_T3M=", "properties": {"@source_uri": "https://tools.usps.com/UspsToolsRestServices/rest/POLocator/findLocations", "@spider": "usps_collection_boxes", "addr:city": "BATES-LEESVILLE", "addr:country": "US", "addr:postcode": "29070", "addr:state": "SC", "addr:street_address": "110 E CHURCH ST", "amenity": "post_box", "collection_times": "Mo-Fr 16:30; Sa 14:30", "indoor": "yes", "note": "ON 12/24 AND 12/31, THIS BOX MAY BE COLLECTED AS EARLY AS 12 NOON.", "nsi_id": "unitedstatespostalservice-a77078", "operator": "United States Postal Service", "operator:short": "USPS", "operator:type": "public", "operator:wikidata": "Q668687", "ref": "2907000009"}, "type": "Feature"}
{"geometry": {"coordinates": [-81.528686383, 33.9142892717], "type": "Point"}, "id": "Q5ilbj8BVcmKzlFd0LCFObaU9ko=", "properties": {"@source_uri": "https://tools.usps.com/UspsToolsRestServices/rest/POLocator/findLocations", "@spider": "usps_collection_boxes", "addr:city": "BATES-LEESVILLE", "addr:country": "US", "addr:postcode": "29070", "addr:state": "SC", "addr:street_address": "110 E CHURCH ST", "amenity": "post_box", "collection_times": "Mo-Fr 16:30; Sa 11:00", "indoor": "yes", "note": "ON 12/24 AND 12/31, THIS BOX MAY BE COLLECTED AS EARLY AS 12 NOON.", "nsi_id": "unitedstatespostalservice-a77078", "operator": "United States Postal Service", "operator:short": "USPS", "operator:type": "public", "operator:wikidata": "Q668687", "ref": "2907000012"}, "type": "Feature"}
{"geometry": {"coordinates": [-81.2336084, 33.952984], "type": "Point"}, "id": "P8AXZgWAljNraFk218PYWQ3PXDc=", "properties": {"@source_uri": "https://tools.usps.com/UspsToolsRestServices/rest/POLocator/findLocations", "@spider": "usps_collection_boxes", "addr:city": "LEXINGTON", "addr:country": "US", "addr:postcode": "29072", "addr:state": "SC", "addr:street_address": "1070 S LAKE RD", "amenity": "post_box", "collection_times": "Mo-Sa 14:00", "note": "ON 12/24 AND 12/31, THIS BOX MAY BE COLLECTED AS EARLY AS 12 NOON.", "nsi_id": "unitedstatespostalservice-a77078", "operator": "United States Postal Service", "operator:short": "USPS", "operator:type": "public", "operator:wikidata": "Q668687", "ref": "2907200009"}, "type": "Feature"}
{"geometry": {"coordinates": [-81.2369599, 33.982842], "type": "Point"}, "id": "_Vl4X8q2RGe-Owbj3gbFdh2sFC8=", "properties": {"@source_uri": "https://tools.usps.com/UspsToolsRestServices/rest/POLocator/findLocations", "@spider": "usps_collection_boxes", "addr:city": "LEXINGTON", "addr:country": "US", "addr:postcode": "29072", "addr:state": "SC", "addr:street_address": "106 N CHURCH ST", "amenity": "post_box", "collection_times": "Mo-Sa 14:00", "note": "ON 12/24 AND 12/31, THIS BOX MAY BE COLLECTED AS EARLY AS 12 NOON.", "nsi_id": "unitedstatespostalservice-a77078", "operator": "United States Postal Service", "operator:short": "USPS", "operator:type": "public", "operator:wikidata": "Q668687", "ref": "2907200011"}, "type": "Feature"}
{"geometry": {"coordinates": [-81.2454247, 33.987753], "type": "Point"}, "id": "qRtxOcq-oswtkKHH25QDtPrvQ9M=", "properties": {"@source_uri": "https://tools.usps.com/UspsToolsRestServices/rest/POLocator/findLocations", "@spider": "usps_collection_boxes", "addr:city": "LEXINGTON", "addr:country": "US", "addr:postcode": "29072", "addr:state": "SC", "addr:street_address": "201 COLUMBIA AVE", "amenity": "post_box", "collection_times": "Mo-Sa 14:00", "note": "ON 12/24 AND 12/31, THIS BOX MAY BE COLLECTED AS EARLY AS 12 NOON.", "nsi_id": "unitedstatespostalservice-a77078", "operator": "United States Postal Service", "operator:short": "USPS", "operator:type": "public", "operator:wikidata": "Q668687", "ref": "2907200019"}, "type": "Feature"}
{"geometry": {"coordinates": [-81.2100642, 33.976277], "type": "Point"}, "id": "XKxsPipoQNl82aK4U3YUI_4EEIw=", "properties": {"@source_uri": "https://tools.usps.com/UspsToolsRestServices/rest/POLocator/findLocations", "@spider": "usps_collection_boxes", "addr:city": "LEXINGTON", "addr:country": "US", "addr:postcode": "29072", "addr:state": "SC", "addr:street_address": "100 TARRAR SPRINGS RD", "amenity": "post_box", "collection_times": "Mo-Sa 14:00", "note": "ON 12/24 AND 12/31, THIS BOX MAY BE COLLECTED AS EARLY AS 12 NOON.", "nsi_id": "unitedstatespostalservice-a77078", "operator": "United States Postal Service", "operator:short": "USPS", "operator:type": "public", "operator:wikidata": "Q668687", "ref": "2907200026"}, "type": "Feature"}
{"geometry": {"coordinates": [-81.220014158, 33.998490475], "type": "Point"}, "id": "PNqOWO6_tBMjTDpWRAvWvaJ47Uk=", "properties": {"@source_uri": "https://tools.usps.com/UspsToolsRestServices/rest/POLocator/findLocations", "@spider": "usps_collection_boxes", "addr:city": "LEXINGTON", "addr:country": "US", "addr:postcode": "29072", "addr:state": "SC", "addr:street_address": "100 OLD CHEROKEE RD", "amenity": "post_box", "collection_times": "Mo-Sa 14:00", "note": "ON 12/24 AND 12/31, THIS BOX MAY BE COLLECTED AS EARLY AS 12 NOON.", "nsi_id": "unitedstatespostalservice-a77078", "operator": "United States Postal Service", "operator:short": "USPS", "operator:type": "public", "operator:wikidata": "Q668687", "ref": "2907200027"}, "type": "Feature"}
{"geometry": {"coordinates": [-81.225280754, 33.911099992], "type": "Point"}, "id": "6i5gTovJyDq5legcJJBTHBb_Vm4=", "properties": {"@source_uri": "https://tools.usps.com/UspsToolsRestServices/rest/POLocator/findLocations", "@spider": "usps_collection_boxes", "addr:city": "LEXINGTON", "addr:country": "US", "addr:postcode": "29072", "addr:state": "SC", "addr:street_address": "1830 S LAKE DR", "amenity": "post_box", "collection_times": "Mo-Fr 16:45; Sa 14:45", "indoor": "yes", "note": "ON 12/24 AND 12/31, THIS BOX MAY BE COLLECTED AS EARLY AS 12 NOON.", "nsi_id": "unitedstatespostalservice-a77078", "operator": "United States Postal Service", "operator:short": "USPS", "operator:type": "public", "operator:wikidata": "Q668687", "ref": "2907200034"}, "type": "Feature"}
{"geometry": {"coordinates": [-81.225280754, 33.911099992], "type": "Point"}, "id": "u0yqudLyXPseVeFO-tIOhSaPlsk=", "properties": {"@source_uri": "https://tools.usps.com/UspsToolsRestServices/rest/POLocator/findLocations", "@spider": "usps_collection_boxes", "addr:city": "LEXINGTON", "addr:country": "US", "addr:postcode": "29072", "addr:state": "SC", "addr:street_address": "1830 S LAKE DR", "amenity": "post_box", "collection_times": "Mo-Fr 16:45; Sa 14:45", "indoor": "yes", "note": "ON 12/24 AND 12/31, THIS BOX MAY BE COLLECTED AS EARLY AS 12 NOON.", "nsi_id": "unitedstatespostalservice-a77078", "operator": "United States Postal Service", "operator:short": "USPS", "operator:type": "public", "operator:wikidata": "Q668687", "ref": "2907200035"}, "type": "Feature"}
{"geometry": {"coordinates": [-81.225280754, 33.911099992], "type": "Point"}, "id": "pke9qW9A77psseTJP23MU9gw3ik=", "properties": {"@source_uri": "https://tools.usps.com/UspsToolsRestServices/rest/POLocator/findLocations", "@spider": "usps_collection_boxes", "addr:city": "LEXINGTON", "addr:country": "US", "addr:postcode": "29072", "addr:state": "SC", "addr:street_address": "1830 S LAKE DR", "amenity": "post_box", "collection_times": "Mo-Fr 16:45; Sa 14:45", "indoor": "yes", "note": "ON 12/24 AND 12/31, THIS BOX MAY BE COLLECTED AS EARLY AS 12 NOON.", "nsi_id": "unitedstatespostalservice-a77078", "operator": "United States Postal Service", "operator:short": "USPS", "operator:type": "public", "operator:wikidata": "Q668687", "ref": "2907200036"}, "type": "Feature"}
{"geometry": {"coordinates": [-81.225280754, 33.911099992], "type": "Point"}, "id": "r6KRduPN2h76gJ5cFPIzUgdbIO8=", "properties": {"@source_uri": "https://tools.usps.com/UspsToolsRestServices/rest/POLocator/findLocations", "@spider": "usps_collection_boxes", "addr:city": "LEXINGTON", "addr:country": "US", "addr:postcode": "29072", "addr:state": "SC", "addr:street_address": "1830 S LAKE DR", "amenity": "post_box", "collection_times": "Mo-Fr 17:00; Sa 14:45", "note": "ON 12/24 AND 12/31, THIS BOX MAY BE COLLECTED AS EARLY AS 12 NOON.", "nsi_id": "unitedstatespostalservice-a77078", "operator": "United States Postal Service", "operator:short": "USPS", "operator:type": "public", "operator:wikidata": "Q668687", "ref": "2907200039"}, "type": "Feature"}
{"geometry": {"coordinates": [-81.2307881, 33.996414], "type": "Point"}, "id": "hBDVFu5OGkUwnYA9-V8oOL0j_wg=", "properties": {"@source_uri": "https://tools.usps.com/UspsToolsRestServices/rest/POLocator/findLocations", "@spider": "usps_collection_boxes", "addr:city": "LEXINGTON", "addr:country": "US", "addr:postcode": "29072", "addr:state": "SC", "addr:street_address": "929 N LAKE DR", "amenity": "post_box", "collection_times": "Mo-Fr 16:45; Sa 12:00", "note": "ON 12/24 AND 12/31, THIS BOX MAY BE COLLECTED AS EARLY AS 12 NOON.", "nsi_id": "unitedstatespostalservice-a77078", "operator": "United States Postal Service", "operator:short": "USPS", "operator:type": "public", "operator:wikidata": "Q668687", "ref": "2907200040"}, "type": "Feature"}
{"geometry": {"coordinates": [-81.2358252, 33.979343], "type": "Point"}, "id": "bC2sj0DOYwQde_9P0aN0oIjVpOU=", "properties": {"@source_uri": "https://tools.usps.com/UspsToolsRestServices/rest/POLocator/findLocations", "@spider": "usps_collection_boxes", "addr:city": "LEXINGTON", "addr:country": "US", "addr:postcode": "29072", "addr:state": "SC", "addr:street_address": "212 S LAKE DR", "amenity": "post_box", "collection_times": "Mo-Sa 14:00", "note": "ON 12/24 AND 12/31, THIS BOX MAY BE COLLECTED AS EARLY AS 12 NOON.", "nsi_id": "unitedstatespostalservice-a77078", "operator": "United States Postal Service", "operator:short": "USPS", "operator:type": "public", "operator:wikidata": "Q668687", "ref": "2907200041"}, "type": "Feature"}
{"geometry": {"coordinates": [-81.249701603, 33.98478507], "type": "Point"}, "id": "WDrpe4OsPmiTuqZEdSreGFa3Gcs=", "properties": {"@source_uri": "https://tools.usps.com/UspsToolsRestServices/rest/POLocator/findLocations", "@spider": "usps_collection_boxes", "addr:city": "LEXINGTON", "addr:country": "US", "addr:postcode": "29072", "addr:state": "SC", "addr:street_address": "710 W MAIN ST", "amenity": "post_box", "collection_times": "Mo-Fr 17:00; Sa 12:30", "note": "ON 12/24 AND 12/31, THIS BOX MAY BE COLLECTED AS EARLY AS 12 NOON.", "nsi_id": "unitedstatespostalservice-a77078", "operator": "United States Postal Service", "operator:short": "USPS", "operator:type": "public", "operator:wikidata": "Q668687", "ref": "2907200042"}, "type": "Feature"}
{"geometry": {"coordinates": [-81.2494099705, 33.9853530023], "type": "Point"}, "id": "vmPipyM0UkrMYapoYNIJ0u1CpLo=", "properties": {"@source_uri": "https://tools.usps.com/UspsToolsRestServices/rest/POLocator/findLocations", "@spider": "usps_collection_boxes", "addr:city": "LEXINGTON", "addr:country": "US", "addr:postcode": "29072", "addr:state": "SC", "addr:street_address": "710 W MAIN ST", "amenity": "post_box", "collection_times": "Mo-Fr 16:45; Sa 12:30", "indoor": "yes", "note": "ON 12/24 AND 12/31, THIS BOX MAY BE COLLECTED AS EARLY AS 12 NOON.", "nsi_id": "unitedstatespostalservice-a77078", "operator": "United States Postal Service", "operator:short": "USPS", "operator:type": "public", "operator:wikidata": "Q668687", "ref": "2907200044"}, "type": "Feature"}
{"geometry": {"coordinates": [-81.2494099705, 33.9853530023], "type": "Point"}, "id": "0hmzkvovtMuejFcCqKCMvw2dcxo=", "properties": {"@source_uri": "https://tools.usps.com/UspsToolsRestServices/rest/POLocator/findLocations", "@spider": "usps_collection_boxes", "addr:city": "LEXINGTON", "addr:country": "US", "addr:postcode": "29072", "addr:state": "SC", "addr:street_address": "710 W MAIN ST", "amenity": "post_box", "collection_times": "Mo-Fr 16:45; Sa 12:30", "indoor": "yes", "note": "ON 12/24 AND 12/31, THIS BOX MAY BE COLLECTED AS EARLY AS 12 NOON.", "nsi_id": "unitedstatespostalservice-a77078", "operator": "United States Postal Service", "operator:short": "USPS", "operator:type": "public", "operator:wikidata": "Q668687", "ref": "2907200045"}, "type": "Feature"}
{"geometry": {"coordinates": [-81.2494099705, 33.9853530023], "type": "Point"}, "id": "5snncVbLnxFLQlB0RA852VbX0LM=", "properties": {"@source_uri": "https://tools.usps.com/UspsToolsRestServices/rest/POLocator/findLocations", "@spider": "usps_collection_boxes", "addr:city": "LEXINGTON", "addr:country": "US", "addr:postcode": "29072", "addr:state": "SC", "addr:street_address": "710 W MAIN ST", "amenity": "post_box", "collection_times": "Mo-Fr 16:45; Sa 12:30", "indoor": "yes", "note": "ON 12/24 AND 12/31, THIS BOX MAY BE COLLECTED AS EARLY AS 12 NOON.", "nsi_id": "unitedstatespostalservice-a77078", "operator": "United States Postal Service", "operator:short": "USPS", "operator:type": "public", "operator:wikidata": "Q668687", "ref": "2907200046"}, "type": "Feature"}
{"geometry": {"coordinates": [-81.2494099705, 33.9853530023], "type": "Point"}, "id": "sxFGu-9KFZkmpEa3G8lKr6SndSo=", "properties": {"@source_uri": "https://tools.usps.com/UspsToolsRestServices/rest/POLocator/findLocations", "@spider": "usps_collection_boxes", "addr:city": "LEXINGTON", "addr:country": "US", "addr:postcode": "29072", "addr:state": "SC", "addr:street_address": "710 W MAIN ST", "amenity": "post_box", "collection_times": "Mo-Fr 16:45; Sa 12:30", "name": "USPS COLLECTION BOX - APC", "note": "ON 12/24 AND 12/31, THIS BOX MAY BE COLLECTED AS EARLY AS 12 NOON.", "nsi_id": "unitedstatespostalservice-a77078", "operator": "United States Postal Service", "operator:short": "USPS", "operator:type": "public", "operator:wikidata": "Q668687", "ref": "2907200047"}, "type": "Feature"}
{"geometry": {"coordinates": [-81.1711120145, 34.0127790086], "type": "Point"}, "id": "qo8hgQxGK6HqHYuSDXnoNj9eIUs=", "properties": {"@source_uri": "https://tools.usps.com/UspsToolsRestServices/rest/POLocator/findLocations", "@spider": "usps_collection_boxes", "addr:city": "LEXINGTON", "addr:country": "US", "addr:postcode": "29072", "addr:state": "SC", "addr:street_address": "4711 SUNSET BLVD", "amenity": "post_box", "collection_times": "Mo-Fr 13:00; Sa 10:30", "note": "ON 12/24 AND 12/31, THIS BOX MAY BE COLLECTED AS EARLY AS 12 NOON.", "nsi_id": "unitedstatespostalservice-a77078", "operator": "United States Postal Service", "operator:short": "USPS", "operator:type": "public", "operator:wikidata": "Q668687", "ref": "2907200052"}, "type": "Feature"}
{"geometry": {"coordinates": [-81.2494099705, 33.9853530023], "type": "Point"}, "id": "7tFEca432NP20HQwKEiZz6oAgus=", "properties": {"@source_uri": "https://tools.usps.com/UspsToolsRestServices/rest/POLocator/findLocations", "@spider": "usps_collection_boxes", "addr:city": "LEXINGTON", "addr:country": "US", "addr:postcode": "29072", "addr:state": "SC", "addr:street_address": "710 W MAIN ST", "amenity": "post_box", "collection_times": "Mo-Fr 16:45; Sa 11:00", "indoor": "yes", "note": "ON 12/24 AND 12/31, THIS BOX MAY BE COLLECTED AS EARLY AS 12 NOON.", "nsi_id": "unitedstatespostalservice-a77078", "operator": "United States Postal Service", "operator:short": "USPS", "operator:type": "public", "operator:wikidata": "Q668687", "ref": "2907200058"}, "type": "Feature"}
{"geometry": {"coordinates": [-81.225280754, 33.911099992], "type": "Point"}, "id": "0TXNExhG0A2R10agt8fmrQtYOWA=", "properties": {"@source_uri": "https://tools.usps.com/UspsToolsRestServices/rest/POLocator/findLocations", "@spider": "usps_collection_boxes", "addr:city": "LEXINGTON", "addr:country": "US", "addr:postcode": "29072", "addr:state": "SC", "addr:street_address": "1830 S LAKE DR", "amenity": "post_box", "collection_times": "Mo-Fr 12:00; Sa 11:00", "indoor": "yes", "nsi_id": "unitedstatespostalservice-a77078", "operator": "United States Postal Service", "operator:short": "USPS", "operator:type": "public", "operator:wikidata": "Q668687", "ref": "2907200059"}, "type": "Feature"}
{"geometry": {"coordinates": [-80.804138283, 34.472589], "type": "Point"}, "id": "p1iBM-PyY7G9oFsTOxsA0aPgkUU=", "properties": {"@source_uri": "https://tools.usps.com/UspsToolsRestServices/rest/POLocator/findLocations", "@spider": "usps_collection_boxes", "addr:city": "LIBERTY HILL", "addr:country": "US", "addr:postcode": "29074", "addr:state": "SC", "addr:street_address": "4049 JOHN G RICHARDS RD", "amenity": "post_box", "collection_times": "Mo-Fr 15:45; Sa 09:45", "note": "ON 12/24 AND 12/31, THIS BOX MAY BE COLLECTED AS EARLY AS 12 NOON.", "nsi_id": "unitedstatespostalservice-a77078", "operator": "United States Postal Service", "operator:short": "USPS", "operator:type": "public", "operator:wikidata": "Q668687", "ref": "2907400000"}, "type": "Feature"}
{"geometry": {"coordinates": [-80.804138283, 34.472589], "type": "Point"}, "id": "C66G6JL2KVOFVSESPb0uIvyUTuE=", "properties": {"@source_uri": "https://tools.usps.com/UspsToolsRestServices/rest/POLocator/findLocations", "@spider": "usps_collection_boxes", "addr:city": "LIBERTY HILL", "addr:country": "US", "addr:postcode": "29074", "addr:state": "SC", "addr:street_address": "4049 JOHN G RICHARDS RD", "amenity": "post_box", "collection_times": "Mo-Fr 15:45; Sa 09:45", "indoor": "yes", "note": "ON 12/24 AND 12/31, THIS BOX MAY BE COLLECTED AS EARLY AS 12 NOON.", "nsi_id": "unitedstatespostalservice-a77078", "operator": "United States Postal Service", "operator:short": "USPS", "operator:type": "public", "operator:wikidata": "Q668687", "ref": "2907400001"}, "type": "Feature"}
{"geometry": {"coordinates": [-80.804138283, 34.472589], "type": "Point"}, "id": "7KE4m7Qpd2kbhuuBI6e2RiHJEms=", "properties": {"@source_uri": "https://tools.usps.com/UspsToolsRestServices/rest/POLocator/findLocations", "@spider": "usps_collection_boxes", "addr:city": "LIBERTY HILL", "addr:country": "US", "addr:postcode": "29074", "addr:state": "SC", "addr:street_address": "4049 JOHN G RICHARDS RD", "amenity": "post_box", "collection_times": "Mo-Fr 15:45; Sa 09:45", "indoor": "yes", "note": "ON 12/24 AND 12/31, THIS BOX MAY BE COLLECTED AS EARLY AS 12 NOON.", "nsi_id": "unitedstatespostalservice-a77078", "operator": "United States Postal Service", "operator:short": "USPS", "operator:type": "public", "operator:wikidata": "Q668687", "ref": "2907400003"}, "type": "Feature"}
{"geometry": {"coordinates": [-81.421780795, 34.193313397], "type": "Point"}, "id": "BVlr4jcGljZw1sbzW5txUEh1LCc=", "properties": {"@source_uri": "https://tools.usps.com/UspsToolsRestServices/rest/POLocator/findLocations", "@spider": "usps_collection_boxes", "addr:city": "LITTLE MOUNTAIN", "addr:country": "US", "addr:postcode": "29075", "addr:state": "SC", "addr:street_address": "5953 WHEELAND RD", "amenity": "post_box", "collection_times": "Mo-Fr 15:45; Sa 09:45", "note": "ON 12/24 AND 12/31, THIS BOX MAY BE COLLECTED AS EARLY AS 12 NOON.", "nsi_id": "unitedstatespostalservice-a77078", "operator": "United States Postal Service", "operator:short": "USPS", "operator:type": "public", "operator:wikidata": "Q668687", "ref": "2907500000"}, "type": "Feature"}
{"geometry": {"coordinates": [-81.421780795, 34.193313397], "type": "Point"}, "id": "xuNDIohPDUuZp5HcPZ6Ft7pFxZ0=", "properties": {"@source_uri": "https://tools.usps.com/UspsToolsRestServices/rest/POLocator/findLocations", "@spider": "usps_collection_boxes", "addr:city": "LITTLE MOUNTAIN", "addr:country": "US", "addr:postcode": "29075", "addr:state": "SC", "addr:street_address": "5953 WHEELAND RD", "amenity": "post_box", "collection_times": "Mo-Fr 15:45; Sa 09:45", "indoor": "yes", "note": "ON 12/24 AND 12/31, THIS BOX MAY BE COLLECTED AS EARLY AS 12 NOON.", "nsi_id": "unitedstatespostalservice-a77078", "operator": "United States Postal Service", "operator:short": "USPS", "operator:type": "public", "operator:wikidata": "Q668687", "ref": "2907500001"}, "type": "Feature"}
{"geometry": {"coordinates": [-81.421780795, 34.193313397], "type": "Point"}, "id": "cv3jUbKaVxByWJfA73UiDs8eqPA=", "properties": {"@source_uri": "https://tools.usps.com/UspsToolsRestServices/rest/POLocator/findLocations", "@spider": "usps_collection_boxes", "addr:city": "LITTLE MOUNTAIN", "addr:country": "US", "addr:postcode": "29075", "addr:state": "SC", "addr:street_address": "5953 WHEELAND RD", "amenity": "post_box", "collection_times": "Mo-Fr 15:45; Sa 09:45", "indoor": "yes", "note": "ON 12/24 AND 12/31, THIS BOX MAY BE COLLECTED AS EARLY AS 12 NOON.", "nsi_id": "unitedstatespostalservice-a77078", "operator": "United States Postal Service", "operator:short": "USPS", "operator:type": "public", "operator:wikidata": "Q668687", "ref": "2907500004"}, "type": "Feature"}
{"geometry": {"coordinates": [-80.675951827, 34.231403492], "type": "Point"}, "id": "JhMuir-uiuSHEH0_luQyC8Qf7Qw=", "properties": {"@source_uri": "https://tools.usps.com/UspsToolsRestServices/rest/POLocator/findLocations", "@spider": "usps_collection_boxes", "addr:city": "LUGOFF", "addr:country": "US", "addr:postcode": "29078", "addr:state": "SC", "addr:street_address": "40 PLAZA DR", "amenity": "post_box", "collection_times": "Mo-Fr 16:15; Sa 10:45", "note": "ON 12/24 AND 12/31, THIS BOX MAY BE COLLECTED AS EARLY AS 12 NOON.", "nsi_id": "unitedstatespostalservice-a77078", "operator": "United States Postal Service", "operator:short": "USPS", "operator:type": "public", "operator:wikidata": "Q668687", "ref": "2907800000"}, "type": "Feature"}
{"geometry": {"coordinates": [-80.675951827, 34.231403492], "type": "Point"}, "id": "-HdKNf6Al_nSwxFr5cQIffHCyXg=", "properties": {"@source_uri": "https://tools.usps.com/UspsToolsRestServices/rest/POLocator/findLocations", "@spider": "usps_collection_boxes", "addr:city": "LUGOFF", "addr:country": "US", "addr:postcode": "29078", "addr:state": "SC", "addr:street_address": "40 PLAZA DR", "amenity": "post_box", "collection_times": "Mo-Fr 16:15; Sa 10:45", "indoor": "yes", "note": "ON 12/24 AND 12/31, THIS BOX MAY BE COLLECTED AS EARLY AS 12 NOON.", "nsi_id": "unitedstatespostalservice-a77078", "operator": "United States Postal Service", "operator:short": "USPS", "operator:type": "public", "operator:wikidata": "Q668687", "ref": "2907800002"}, "type": "Feature"}
{"geometry": {"coordinates": [-80.675951827, 34.231403492], "type": "Point"}, "id": "cTR5y7d3h3gilkZbtR55r5jusQM=", "properties": {"@source_uri": "https://tools.usps.com/UspsToolsRestServices/rest/POLocator/findLocations", "@spider": "usps_collection_boxes", "addr:city": "LUGOFF", "addr:country": "US", "addr:postcode": "29078", "addr:state": "SC", "addr:street_address": "40 PLAZA DR", "amenity": "post_box", "collection_times": "Mo-Fr 15:45; Sa 09:45", "indoor": "yes", "note": "ON 12/24 AND 12/31, THIS BOX MAY BE COLLECTED AS EARLY AS 12 NOON.", "nsi_id": "unitedstatespostalservice-a77078", "operator": "United States Postal Service", "operator:short": "USPS", "operator:type": "public", "operator:wikidata": "Q668687", "ref": "2907800005"}, "type": "Feature"}
{"geometry": {"coordinates": [-80.110810753, 34.28764658], "type": "Point"}, "id": "bWSlxxnGj6PT5SljP3IUxMvs0fs=", "properties": {"@source_uri": "https://tools.usps.com/UspsToolsRestServices/rest/POLocator/findLocations", "@spider": "usps_collection_boxes", "addr:city": "LYDIA", "addr:country": "US", "addr:postcode": "29079", "addr:state": "SC", "addr:street_address": "5179 INDIAN BRANCH RD", "amenity": "post_box", "collection_times": "Mo-Fr 15:45; Sa 09:45", "note": "ON 12/24 AND 12/31, THIS BOX MAY BE COLLECTED AS EARLY AS 12 NOON.", "nsi_id": "unitedstatespostalservice-a77078", "operator": "United States Postal Service", "operator:short": "USPS", "operator:type": "public", "operator:wikidata": "Q668687", "ref": "2907900000"}, "type": "Feature"}
{"geometry": {"coordinates": [-80.110810753, 34.28764658], "type": "Point"}, "id": "dkfCQIBhf01f0lO1U6ClqqzYNfs=", "properties": {"@source_uri": "https://tools.usps.com/UspsToolsRestServices/rest/POLocator/findLocations", "@spider": "usps_collection_boxes", "addr:city": "LYDIA", "addr:country": "US", "addr:postcode": "29079", "addr:state": "SC", "addr:street_address": "5179 INDIAN BRANCH RD", "amenity": "post_box", "collection_times": "Mo-Fr 15:45; Sa 09:45", "indoor": "yes", "note": "ON 12/24 AND 12/31, THIS BOX MAY BE COLLECTED AS EARLY AS 12 NOON.", "nsi_id": "unitedstatespostalservice-a77078", "operator": "United States Postal Service", "operator:short": "USPS", "operator:type": "public", "operator:wikidata": "Q668687", "ref": "2907900001"}, "type": "Feature"}
{"geometry": {"coordinates": [-80.110810753, 34.28764658], "type": "Point"}, "id": "WjaIJpc-2qkb9XSS7m0QRNxU8os=", "properties": {"@source_uri": "https://tools.usps.com/UspsToolsRestServices/rest/POLocator/findLocations", "@spider": "usps_collection_boxes", "addr:city": "LYDIA", "addr:country": "US", "addr:postcode": "29079", "addr:state": "SC", "addr:street_address": "5179 INDIAN BRANCH RD", "amenity": "post_box", "collection_times": "Mo-Fr 15:45; Sa 09:45", "indoor": "yes", "note": "ON 12/24 AND 12/31, THIS BOX MAY BE COLLECTED AS EARLY AS 12 NOON.", "nsi_id": "unitedstatespostalservice-a77078", "operator": "United States Postal Service", "operator:short": "USPS", "operator:type": "public", "operator:wikidata": "Q668687", "ref": "2907900003"}, "type": "Feature"}
{"geometry": {"coordinates": [-80.075491968, 34.060091647], "type": "Point"}, "id": "EvndI9JyA_-moFHvZ-oSwAy7Sw4=", "properties": {"@source_uri": "https://tools.usps.com/UspsToolsRestServices/rest/POLocator/findLocations", "@spider": "usps_collection_boxes", "addr:city": "LYNCHBURG", "addr:country": "US", "addr:postcode": "29080", "addr:state": "SC", "addr:street_address": "85 MAGNOLIA ST", "amenity": "post_box", "collection_times": "Mo-Fr 15:45; Sa 09:45", "note": "ON 12/24 AND 12/31, THIS BOX MAY BE COLLECTED AS EARLY AS 12 NOON.", "nsi_id": "unitedstatespostalservice-a77078", "operator": "United States Postal Service", "operator:short": "USPS", "operator:type": "public", "operator:wikidata": "Q668687", "ref": "2908000000"}, "type": "Feature"}
{"geometry": {"coordinates": [-80.075491968, 34.060091647], "type": "Point"}, "id": "FETgXLWBl7EqV-ZNHum9AXultUI=", "properties": {"@source_uri": "https://tools.usps.com/UspsToolsRestServices/rest/POLocator/findLocations", "@spider": "usps_collection_boxes", "addr:city": "LYNCHBURG", "addr:country": "US", "addr:postcode": "29080", "addr:state": "SC", "addr:street_address": "85 MAGNOLIA ST", "amenity": "post_box", "collection_times": "Mo-Fr 15:45; Sa 09:45", "indoor": "yes", "note": "ON 12/24 AND 12/31, THIS BOX MAY BE COLLECTED AS EARLY AS 12 NOON.", "nsi_id": "unitedstatespostalservice-a77078", "operator": "United States Postal Service", "operator:short": "USPS", "operator:type": "public", "operator:wikidata": "Q668687", "ref": "2908000001"}, "type": "Feature"}
{"geometry": {"coordinates": [-80.075491968, 34.060091647], "type": "Point"}, "id": "iq3jEpBFSVxPIiI63X_LAaBgLtg=", "properties": {"@source_uri": "https://tools.usps.com/UspsToolsRestServices/rest/POLocator/findLocations", "@spider": "usps_collection_boxes", "addr:city": "LYNCHBURG", "addr:country": "US", "addr:postcode": "29080", "addr:state": "SC", "addr:street_address": "85 MAGNOLIA ST", "amenity": "post_box", "collection_times": "Mo-Fr 15:45; Sa 09:45", "indoor": "yes", "note": "ON 12/24 AND 12/31, THIS BOX MAY BE COLLECTED AS EARLY AS 12 NOON.", "nsi_id": "unitedstatespostalservice-a77078", "operator": "United States Postal Service", "operator:short": "USPS", "operator:type": "public", "operator:wikidata": "Q668687", "ref": "2908000003"}, "type": "Feature"}
{"geometry": {"coordinates": [-81.013849233, 33.096923749], "type": "Point"}, "id": "PFCKivu-YjBhvQuVfXpZaVquEY4=", "properties": {"@source_uri": "https://tools.usps.com/UspsToolsRestServices/rest/POLocator/findLocations", "@spider": "usps_collection_boxes", "addr:city": "EHRHARDT", "addr:country": "US", "addr:postcode": "29081", "addr:state": "SC", "addr:street_address": "13443 BROXTON BRIDGE RD", "amenity": "post_box", "collection_times": "Mo-Fr 15:45; Sa 09:45", "note": "ON 12/24 AND 12/31, THIS BOX MAY BE COLLECTED AS EARLY AS 12 NOON.", "nsi_id": "unitedstatespostalservice-a77078", "operator": "United States Postal Service", "operator:short": "USPS", "operator:type": "public", "operator:wikidata": "Q668687", "ref": "2908100000"}, "type": "Feature"}
{"geometry": {"coordinates": [-81.013849233, 33.096923749], "type": "Point"}, "id": "R5UmAGXS63oITTo13iskDS-HkbY=", "properties": {"@source_uri": "https://tools.usps.com/UspsToolsRestServices/rest/POLocator/findLocations", "@spider": "usps_collection_boxes", "addr:city": "EHRHARDT", "addr:country": "US", "addr:postcode": "29081", "addr:state": "SC", "addr:street_address": "13443 BROXTON BRIDGE RD", "amenity": "post_box", "collection_times": "Mo-Fr 15:45; Sa 09:45", "indoor": "yes", "note": "ON 12/24 AND 12/31, THIS BOX MAY BE COLLECTED AS EARLY AS 12 NOON.", "nsi_id": "unitedstatespostalservice-a77078", "operator": "United States Postal Service", "operator:short": "USPS", "operator:type": "public", "operator:wikidata": "Q668687", "ref": "2908100001"}, "type": "Feature"}
{"geometry": {"coordinates": [-81.013849233, 33.096923749], "type": "Point"}, "id": "DLK_z8TMpQCCnNrs2BvT4qQJvqQ=", "properties": {"@source_uri": "https://tools.usps.com/UspsToolsRestServices/rest/POLocator/findLocations", "@spider": "usps_collection_boxes", "addr:city": "EHRHARDT", "addr:country": "US", "addr:postcode": "29081", "addr:state": "SC", "addr:street_address": "13443 BROXTON BRIDGE RD", "amenity": "post_box", "collection_times": "Mo-Fr 15:45; Sa 09:45", "indoor": "yes", "note": "ON 12/24 AND 12/31, THIS BOX MAY BE COLLECTED AS EARLY AS 12 NOON.", "nsi_id": "unitedstatespostalservice-a77078", "operator": "United States Postal Service", "operator:short": "USPS", "operator:type": "public", "operator:wikidata": "Q668687", "ref": "2908100003"}, "type": "Feature"}
{"geometry": {"coordinates": [-80.953443932, 33.066001244], "type": "Point"}, "id": "d2jPv_ZnQ4j6MK2C2UKXAoOCvuk=", "properties": {"@source_uri": "https://tools.usps.com/UspsToolsRestServices/rest/POLocator/findLocations", "@spider": "usps_collection_boxes", "addr:city": "LODGE", "addr:country": "US", "addr:postcode": "29082", "addr:state": "SC", "addr:street_address": "21080 BELLS HWY", "amenity": "post_box", "collection_times": "Mo-Fr 15:45; Sa 09:45", "note": "ON 12/24 AND 12/31, THIS BOX MAY BE COLLECTED AS EARLY AS 12 NOON.", "nsi_id": "unitedstatespostalservice-a77078", "operator": "United States Postal Service", "operator:short": "USPS", "operator:type": "public", "operator:wikidata": "Q668687", "ref": "2908200000"}, "type": "Feature"}
{"geometry": {"coordinates": [-80.953443932, 33.066001244], "type": "Point"}, "id": "jPo8qlozJ0lyC1Z8dToToc7w2yQ=", "properties": {"@source_uri": "https://tools.usps.com/UspsToolsRestServices/rest/POLocator/findLocations", "@spider": "usps_collection_boxes", "addr:city": "LODGE", "addr:country": "US", "addr:postcode": "29082", "addr:state": "SC", "addr:street_address": "21080 BELLS HWY", "amenity": "post_box", "collection_times": "Mo-Fr 15:45; Sa 09:45", "indoor": "yes", "note": "ON 12/24 AND 12/31, THIS BOX MAY BE COLLECTED AS EARLY AS 12 NOON.", "nsi_id": "unitedstatespostalservice-a77078", "operator": "United States Postal Service", "operator:short": "USPS", "operator:type": "public", "operator:wikidata": "Q668687", "ref": "2908200001"}, "type": "Feature"}
{"geometry": {"coordinates": [-80.953443932, 33.066001244], "type": "Point"}, "id": "2HQL9tLxiVT07W6dKH_3zVEJ5zg=", "properties": {"@source_uri": "https://tools.usps.com/UspsToolsRestServices/rest/POLocator/findLocations", "@spider": "usps_collection_boxes", "addr:city": "LODGE", "addr:country": "US", "addr:postcode": "29082", "addr:state": "SC", "addr:street_address": "21080 BELLS HWY", "amenity": "post_box", "collection_times": "Mo-Fr 15:45; Sa 09:45", "indoor": "yes", "note": "ON 12/24 AND 12/31, THIS BOX MAY BE COLLECTED AS EARLY AS 12 NOON.", "nsi_id": "unitedstatespostalservice-a77078", "operator": "United States Postal Service", "operator:short": "USPS", "operator:type": "public", "operator:wikidata": "Q668687", "ref": "2908200003"}, "type": "Feature"}
