{"geometry": {"coordinates": [-80.258140039, 34.469278392], "type": "Point"}, "id": "xBBjnDbF9_dsWXA_-BLo7HYZzD4=", "properties": {"@source_uri": "https://tools.usps.com/UspsToolsRestServices/rest/POLocator/findLocations", "@spider": "usps_collection_boxes", "addr:city": "MCBEE", "addr:country": "US", "addr:postcode": "29101", "addr:state": "SC", "addr:street_address": "111 W PINE AVE", "amenity": "post_box", "collection_times": "Mo-Fr 15:45; Sa 09:45", "note": "ON 12/24 AND 12/31, THIS BOX MAY BE COLLECTED AS EARLY AS 12 NOON.", "nsi_id": "unitedstatespostalservice-a77078", "operator": "United States Postal Service", "operator:short": "USPS", "operator:type": "public", "operator:wikidata": "Q668687", "ref": "2910100001"}, "type": "Feature"}
{"geometry": {"coordinates": [-80.258140039, 34.469278392], "type": "Point"}, "id": "Qzn7WeWUONq8QrvIrdGLitn0k2I=", "properties": {"@source_uri": "https://tools.usps.com/UspsToolsRestServices/rest/POLocator/findLocations", "@spider": "usps_collection_boxes", "addr:city": "MCBEE", "addr:country": "US", "addr:postcode": "29101", "addr:state": "SC", "addr:street_address": "111 W PINE AVE", "amenity": "post_box", "collection_times": "Mo-Fr 15:45; Sa 09:45", "indoor": "yes", "note": "ON 12/24 AND 12/31, THIS BOX MAY BE COLLECTED AS EARLY AS 12 NOON.", "nsi_id": "unitedstatespostalservice-a77078", "operator": "United States Postal Service", "operator:short": "USPS", "operator:type": "public", "operator:wikidata": "Q668687", "ref": "2910100002"}, "type": "Feature"}
{"geometry": {"coordinates": [-80.258140039, 34.469278392], "type": "Point"}, "id": "QpPnuHks864wdM6GIW4a_KKYzqI=", "properties": {"@source_uri": "https://tools.usps.com/UspsToolsRestServices/rest/POLocator/findLocations", "@spider": "usps_collection_boxes", "addr:city": "MCBEE", "addr:country": "US", "addr:postcode": "29101", "addr:state": "SC", "addr:street_address": "111 W PINE AVE", "amenity": "post_box", "collection_times": "Mo-Fr 15:45; Sa 09:45", "indoor": "yes", "note": "ON 12/24 AND 12/31, THIS BOX MAY BE COLLECTED AS EARLY AS 12 NOON.", "nsi_id": "unitedstatespostalservice-a77078", "operator": "United States Postal Service", "operator:short": "USPS", "operator:type": "public", "operator:wikidata": "Q668687", "ref": "2910100004"}, "type": "Feature"}
{"geometry": {"coordinates": [-80.211681, 33.694088503], "type": "Point"}, "id": "NTGZ5If8c4Uc46Lx8pfEJF18IcQ=", "properties": {"@source_uri": "https://tools.usps.com/UspsToolsRestServices/rest/POLocator/findLocations", "@spider": "usps_collection_boxes", "addr:city": "MANNING", "addr:country": "US", "addr:postcode": "29102", "addr:state": "SC", "addr:street_address": "10 W KEITT ST", "amenity": "post_box", "collection_times": "Mo-Fr 16:15; Sa 09:45", "note": "ON 12/24 AND 12/31, THIS BOX MAY BE COLLECTED AS EARLY AS 12 NOON.", "nsi_id": "unitedstatespostalservice-a77078", "operator": "United States Postal Service", "operator:short": "USPS", "operator:type": "public", "operator:wikidata": "Q668687", "ref": "2910200000"}, "type": "Feature"}
{"geometry": {"coordinates": [-80.211681, 33.694088503], "type": "Point"}, "id": "_r0Z-Z7z-UILnd1QSlwjIkHzQTY=", "properties": {"@source_uri": "https://tools.usps.com/UspsToolsRestServices/rest/POLocator/findLocations", "@spider": "usps_collection_boxes", "addr:city": "MANNING", "addr:country": "US", "addr:postcode": "29102", "addr:state": "SC", "addr:street_address": "10 W KEITT ST", "amenity": "post_box", "collection_times": "Mo-Fr 16:15; Sa 09:45", "indoor": "yes", "note": "ON 12/24 AND 12/31, THIS BOX MAY BE COLLECTED AS EARLY AS 12 NOON.", "nsi_id": "unitedstatespostalservice-a77078", "operator": "United States Postal Service", "operator:short": "USPS", "operator:type": "public", "operator:wikidata": "Q668687", "ref": "2910200002"}, "type": "Feature"}
{"geometry": {"coordinates": [-80.2416824, 33.704382], "type": "Point"}, "id": "jZrHdl043jO5kgIR0-xCJxAHPqM=", "properties": {"@source_uri": "https://tools.usps.com/UspsToolsRestServices/rest/POLocator/findLocations", "@spider": "usps_collection_boxes", "addr:city": "MANNING", "addr:country": "US", "addr:postcode": "29102", "addr:state": "SC", "addr:street_address": "3014 PAXVILLE HWY", "amenity": "post_box", "collection_times": "Mo-Sa 12:45", "note": "ON 12/24 AND 12/31, THIS BOX MAY BE COLLECTED AS EARLY AS 12 NOON.", "nsi_id": "unitedstatespostalservice-a77078", "operator": "United States Postal Service", "operator:short": "USPS", "operator:type": "public", "operator:wikidata": "Q668687", "ref": "2910200005"}, "type": "Feature"}
{"geometry": {"coordinates": [-80.358427, 33.738889], "type": "Point"}, "id": "MI0aULGnydiTUtnTz4YvXpKtcsE=", "properties": {"@source_uri": "https://tools.usps.com/UspsToolsRestServices/rest/POLocator/findLocations", "@spider": "usps_collection_boxes", "addr:city": "MANNING", "addr:country": "US", "addr:postcode": "29102", "addr:state": "SC", "addr:street_address": "10119 LEWIS RD", "amenity": "post_box", "collection_times": "Mo-Fr 12:45; Sa 12:15", "note": "ON 12/24 AND 12/31, THIS BOX MAY BE COLLECTED AS EARLY AS 12 NOON.", "nsi_id": "unitedstatespostalservice-a77078", "operator": "United States Postal Service", "operator:short": "USPS", "operator:type": "public", "operator:wikidata": "Q668687", "ref": "2910200006"}, "type": "Feature"}
{"geometry": {"coordinates": [-80.210926, 33.695225], "type": "Point"}, "id": "1xsonFhbGMfsvPwcOS3mfYRNFJE=", "properties": {"@source_uri": "https://tools.usps.com/UspsToolsRestServices/rest/POLocator/findLocations", "@spider": "usps_collection_boxes", "addr:city": "MANNING", "addr:country": "US", "addr:postcode": "29102", "addr:state": "SC", "addr:street_address": "1 W BOYCE ST", "amenity": "post_box", "collection_times": "Mo-Fr 14:15; Sa 14:00", "note": "ON 12/24 AND 12/31, THIS BOX MAY BE COLLECTED AS EARLY AS 12 NOON.", "nsi_id": "unitedstatespostalservice-a77078", "operator": "United States Postal Service", "operator:short": "USPS", "operator:type": "public", "operator:wikidata": "Q668687", "ref": "2910200008"}, "type": "Feature"}
{"geometry": {"coordinates": [-80.2094723, 33.687034], "type": "Point"}, "id": "kM9MNhfWErqvGjsd1KUVfzBsAsY=", "properties": {"@source_uri": "https://tools.usps.com/UspsToolsRestServices/rest/POLocator/findLocations", "@spider": "usps_collection_boxes", "addr:city": "MANNING", "addr:country": "US", "addr:postcode": "29102", "addr:state": "SC", "addr:street_address": "50 E HOSPITAL ST", "amenity": "post_box", "collection_times": "Mo-Fr 14:15; Sa 14:00", "note": "ON 12/24 AND 12/31, THIS BOX MAY BE COLLECTED AS EARLY AS 12 NOON.", "nsi_id": "unitedstatespostalservice-a77078", "operator": "United States Postal Service", "operator:short": "USPS", "operator:type": "public", "operator:wikidata": "Q668687", "ref": "2910200011"}, "type": "Feature"}
{"geometry": {"coordinates": [-80.2175899, 33.58569], "type": "Point"}, "id": "4JE9RvBvTS3MZeJX-LUuDWQhIts=", "properties": {"@source_uri": "https://tools.usps.com/UspsToolsRestServices/rest/POLocator/findLocations", "@spider": "usps_collection_boxes", "addr:city": "MANNING", "addr:country": "US", "addr:postcode": "29102", "addr:state": "SC", "addr:street_address": "2609 PLAYERS COURSE DR", "amenity": "post_box", "collection_times": "Mo-Sa 13:00", "note": "ON 12/24 AND 12/31, THIS BOX MAY BE COLLECTED AS EARLY AS 12 NOON.", "nsi_id": "unitedstatespostalservice-a77078", "operator": "United States Postal Service", "operator:short": "USPS", "operator:type": "public", "operator:wikidata": "Q668687", "ref": "2910200013"}, "type": "Feature"}
{"geometry": {"coordinates": [-80.2218372, 33.68699], "type": "Point"}, "id": "tjkTeONHFJI7g4D1kL6I-OhqupI=", "properties": {"@source_uri": "https://tools.usps.com/UspsToolsRestServices/rest/POLocator/findLocations", "@spider": "usps_collection_boxes", "addr:city": "MANNING", "addr:country": "US", "addr:postcode": "29102", "addr:state": "SC", "addr:street_address": "411 SUNSET DR", "amenity": "post_box", "collection_times": "Mo-Sa 14:30", "note": "ON 12/24 AND 12/31, THIS BOX MAY BE COLLECTED AS EARLY AS 12 NOON.", "nsi_id": "unitedstatespostalservice-a77078", "operator": "United States Postal Service", "operator:short": "USPS", "operator:type": "public", "operator:wikidata": "Q668687", "ref": "2910200014"}, "type": "Feature"}
{"geometry": {"coordinates": [-80.211681, 33.694088503], "type": "Point"}, "id": "liqsZ8CerX0X8GsMJOc5ircgmfU=", "properties": {"@source_uri": "https://tools.usps.com/UspsToolsRestServices/rest/POLocator/findLocations", "@spider": "usps_collection_boxes", "addr:city": "MANNING", "addr:country": "US", "addr:postcode": "29102", "addr:state": "SC", "addr:street_address": "10 W KEITT ST", "amenity": "post_box", "collection_times": "Mo-Fr 16:00; Sa 09:45", "indoor": "yes", "note": "ON 12/24 AND 12/31, THIS BOX MAY BE COLLECTED AS EARLY AS 12 NOON.", "nsi_id": "unitedstatespostalservice-a77078", "operator": "United States Postal Service", "operator:short": "USPS", "operator:type": "public", "operator:wikidata": "Q668687", "ref": "2910200017"}, "type": "Feature"}
{"geometry": {"coordinates": [-80.207584909, 33.982314699], "type": "Point"}, "id": "FuGUu4_-M8GNzNVYmg15r4MIrSI=", "properties": {"@source_uri": "https://tools.usps.com/UspsToolsRestServices/rest/POLocator/findLocations", "@spider": "usps_collection_boxes", "addr:city": "MAYESVILLE", "addr:country": "US", "addr:postcode": "29104", "addr:state": "SC", "addr:street_address": "4650 FLORENCE HWY", "amenity": "post_box", "collection_times": "Mo-Fr 15:45; Sa 09:45", "note": "ON 12/24 AND 12/31, THIS BOX MAY BE COLLECTED AS EARLY AS 12 NOON.", "nsi_id": "unitedstatespostalservice-a77078", "operator": "United States Postal Service", "operator:short": "USPS", "operator:type": "public", "operator:wikidata": "Q668687", "ref": "2910400000"}, "type": "Feature"}
{"geometry": {"coordinates": [-80.207584909, 33.982314699], "type": "Point"}, "id": "M6ICtTP_2X7pbDLCskNrwZ6xWW8=", "properties": {"@source_uri": "https://tools.usps.com/UspsToolsRestServices/rest/POLocator/findLocations", "@spider": "usps_collection_boxes", "addr:city": "MAYESVILLE", "addr:country": "US", "addr:postcode": "29104", "addr:state": "SC", "addr:street_address": "4650 FLORENCE HWY", "amenity": "post_box", "collection_times": "Mo-Fr 15:45; Sa 09:45", "indoor": "yes", "note": "ON 12/24 AND 12/31, THIS BOX MAY BE COLLECTED AS EARLY AS 12 NOON.", "nsi_id": "unitedstatespostalservice-a77078", "operator": "United States Postal Service", "operator:short": "USPS", "operator:type": "public", "operator:wikidata": "Q668687", "ref": "2910400001"}, "type": "Feature"}
{"geometry": {"coordinates": [-80.207584909, 33.982314699], "type": "Point"}, "id": "YQeof_jb6U9mcoiB9Apx6qOGDDA=", "properties": {"@source_uri": "https://tools.usps.com/UspsToolsRestServices/rest/POLocator/findLocations", "@spider": "usps_collection_boxes", "addr:city": "MAYESVILLE", "addr:country": "US", "addr:postcode": "29104", "addr:state": "SC", "addr:street_address": "4650 FLORENCE HWY", "amenity": "post_box", "collection_times": "Mo-Fr 15:45; Sa 09:45", "indoor": "yes", "note": "ON 12/24 AND 12/31, THIS BOX MAY BE COLLECTED AS EARLY AS 12 NOON.", "nsi_id": "unitedstatespostalservice-a77078", "operator": "United States Postal Service", "operator:short": "USPS", "operator:type": "public", "operator:wikidata": "Q668687", "ref": "2910400003"}, "type": "Feature"}
{"geometry": {"coordinates": [-80.207584909, 33.982314699], "type": "Point"}, "id": "-Qz6tO8DFNK5INkw_ulp0AvG6vA=", "properties": {"@source_uri": "https://tools.usps.com/UspsToolsRestServices/rest/POLocator/findLocations", "@spider": "usps_collection_boxes", "addr:city": "MAYESVILLE", "addr:country": "US", "addr:postcode": "29104", "addr:state": "SC", "addr:street_address": "4650 FLORENCE HWY", "amenity": "post_box", "collection_times": "Mo-Fr 15:45; Sa 09:45", "indoor": "yes", "note": "ON 12/24 AND 12/31, THIS BOX MAY BE COLLECTED AS EARLY AS 12 NOON.", "nsi_id": "unitedstatespostalservice-a77078", "operator": "United States Postal Service", "operator:short": "USPS", "operator:type": "public", "operator:wikidata": "Q668687", "ref": "2910400006"}, "type": "Feature"}
{"geometry": {"coordinates": [-81.609820131, 33.850197314], "type": "Point"}, "id": "HQxSw0yXqxCczF5dl80bkqw9Uac=", "properties": {"@source_uri": "https://tools.usps.com/UspsToolsRestServices/rest/POLocator/findLocations", "@spider": "usps_collection_boxes", "addr:city": "MONETTA", "addr:country": "US", "addr:postcode": "29105", "addr:state": "SC", "addr:street_address": "230 MAIN ST", "amenity": "post_box", "collection_times": "Mo-Fr 15:45; Sa 09:45", "note": "ON 12/24 AND 12/31, THIS BOX MAY BE COLLECTED AS EARLY AS 12 NOON.", "nsi_id": "unitedstatespostalservice-a77078", "operator": "United States Postal Service", "operator:short": "USPS", "operator:type": "public", "operator:wikidata": "Q668687", "ref": "2910500000"}, "type": "Feature"}
{"geometry": {"coordinates": [-81.609820131, 33.850197314], "type": "Point"}, "id": "AOMEmSEIoW8ICxwqI-qjJE-mjUY=", "properties": {"@source_uri": "https://tools.usps.com/UspsToolsRestServices/rest/POLocator/findLocations", "@spider": "usps_collection_boxes", "addr:city": "MONETTA", "addr:country": "US", "addr:postcode": "29105", "addr:state": "SC", "addr:street_address": "230 MAIN ST", "amenity": "post_box", "collection_times": "Mo-Fr 15:45; Sa 09:45", "indoor": "yes", "note": "ON 12/24 AND 12/31, THIS BOX MAY BE COLLECTED AS EARLY AS 12 NOON.", "nsi_id": "unitedstatespostalservice-a77078", "operator": "United States Postal Service", "operator:short": "USPS", "operator:type": "public", "operator:wikidata": "Q668687", "ref": "2910500001"}, "type": "Feature"}
{"geometry": {"coordinates": [-81.609820131, 33.850197314], "type": "Point"}, "id": "2lk3AAysKPj7n4cMEA1ZNW23xmU=", "properties": {"@source_uri": "https://tools.usps.com/UspsToolsRestServices/rest/POLocator/findLocations", "@spider": "usps_collection_boxes", "addr:city": "MONETTA", "addr:country": "US", "addr:postcode": "29105", "addr:state": "SC", "addr:street_address": "230 MAIN ST", "amenity": "post_box", "collection_times": "Mo-Fr 15:45", "indoor": "yes", "note": "ON 12/24 AND 12/31, THIS BOX MAY BE COLLECTED AS EARLY AS 12 NOON.", "nsi_id": "unitedstatespostalservice-a77078", "operator": "United States Postal Service", "operator:short": "USPS", "operator:type": "public", "operator:wikidata": "Q668687", "ref": "2910500003"}, "type": "Feature"}
{"geometry": {"coordinates": [-81.124525949, 33.531747319], "type": "Point"}, "id": "q6EsZhbHMaYmo_QxKsUIY9z-3AA=", "properties": {"@source_uri": "https://tools.usps.com/UspsToolsRestServices/rest/POLocator/findLocations", "@spider": "usps_collection_boxes", "addr:city": "NEESES", "addr:country": "US", "addr:postcode": "29107", "addr:state": "SC", "addr:street_address": "323 RICE ST", "amenity": "post_box", "collection_times": "Mo-Fr 15:45; Sa 09:45", "note": "ON 12/24 AND 12/31, THIS BOX MAY BE COLLECTED AS EARLY AS 12 NOON.", "nsi_id": "unitedstatespostalservice-a77078", "operator": "United States Postal Service", "operator:short": "USPS", "operator:type": "public", "operator:wikidata": "Q668687", "ref": "2910700000"}, "type": "Feature"}
{"geometry": {"coordinates": [-81.124525949, 33.531747319], "type": "Point"}, "id": "Dw1q-YhveLH2M7nkUp19hIJ2hlU=", "properties": {"@source_uri": "https://tools.usps.com/UspsToolsRestServices/rest/POLocator/findLocations", "@spider": "usps_collection_boxes", "addr:city": "NEESES", "addr:country": "US", "addr:postcode": "29107", "addr:state": "SC", "addr:street_address": "323 RICE ST", "amenity": "post_box", "collection_times": "Mo-Fr 15:45; Sa 09:45", "indoor": "yes", "note": "ON 12/24 AND 12/31, THIS BOX MAY BE COLLECTED AS EARLY AS 12 NOON.", "nsi_id": "unitedstatespostalservice-a77078", "operator": "United States Postal Service", "operator:short": "USPS", "operator:type": "public", "operator:wikidata": "Q668687", "ref": "2910700002"}, "type": "Feature"}
{"geometry": {"coordinates": [-81.124525949, 33.531747319], "type": "Point"}, "id": "YslxH6lFqhTcqWcQ6E28bzwEELw=", "properties": {"@source_uri": "https://tools.usps.com/UspsToolsRestServices/rest/POLocator/findLocations", "@spider": "usps_collection_boxes", "addr:city": "NEESES", "addr:country": "US", "addr:postcode": "29107", "addr:state": "SC", "addr:street_address": "323 RICE ST", "amenity": "post_box", "collection_times": "Mo-Fr 15:45; Sa 09:45", "indoor": "yes", "note": "ON 12/24 AND 12/31, THIS BOX MAY BE COLLECTED AS EARLY AS 12 NOON.", "nsi_id": "unitedstatespostalservice-a77078", "operator": "United States Postal Service", "operator:short": "USPS", "operator:type": "public", "operator:wikidata": "Q668687", "ref": "2910700004"}, "type": "Feature"}
{"geometry": {"coordinates": [-81.619889372, 34.276490561], "type": "Point"}, "id": "BWcNUm23i28v2400M9RqP1yh3m8=", "properties": {"@source_uri": "https://tools.usps.com/UspsToolsRestServices/rest/POLocator/findLocations", "@spider": "usps_collection_boxes", "addr:city": "NEWBERRY", "addr:country": "US", "addr:postcode": "29108", "addr:state": "SC", "addr:street_address": "1321 COLLEGE ST", "amenity": "post_box", "collection_times": "Mo-Fr 16:45; Sa 10:45", "note": "ON 12/24 AND 12/31, THIS BOX MAY BE COLLECTED AS EARLY AS 12 NOON.", "nsi_id": "unitedstatespostalservice-a77078", "operator": "United States Postal Service", "operator:short": "USPS", "operator:type": "public", "operator:wikidata": "Q668687", "ref": "2910800000"}, "type": "Feature"}
{"geometry": {"coordinates": [-81.619889372, 34.276490561], "type": "Point"}, "id": "1tmXQATTbSIYxPAWRRD6njYxJ7g=", "properties": {"@source_uri": "https://tools.usps.com/UspsToolsRestServices/rest/POLocator/findLocations", "@spider": "usps_collection_boxes", "addr:city": "NEWBERRY", "addr:country": "US", "addr:postcode": "29108", "addr:state": "SC", "addr:street_address": "1321 COLLEGE ST", "amenity": "post_box", "collection_times": "Mo-Fr 16:45; Sa 10:45", "indoor": "yes", "note": "ON 12/24 AND 12/31, THIS BOX MAY BE COLLECTED AS EARLY AS 12 NOON.", "nsi_id": "unitedstatespostalservice-a77078", "operator": "United States Postal Service", "operator:short": "USPS", "operator:type": "public", "operator:wikidata": "Q668687", "ref": "2910800003"}, "type": "Feature"}
{"geometry": {"coordinates": [-81.6198145, 34.274685], "type": "Point"}, "id": "sZs07i4MGVFYJPNLMDDYBVBd9fc=", "properties": {"@source_uri": "https://tools.usps.com/UspsToolsRestServices/rest/POLocator/findLocations", "@spider": "usps_collection_boxes", "addr:city": "NEWBERRY", "addr:country": "US", "addr:postcode": "29108", "addr:state": "SC", "addr:street_address": "1119 BOYCE ST", "amenity": "post_box", "collection_times": "Mo-Fr 11:00", "nsi_id": "unitedstatespostalservice-a77078", "operator": "United States Postal Service", "operator:short": "USPS", "operator:type": "public", "operator:wikidata": "Q668687", "ref": "2910800004"}, "type": "Feature"}
{"geometry": {"coordinates": [-81.6058169, 34.293516], "type": "Point"}, "id": "yu3Je5735F6AQ2vkogL7IIs2h7g=", "properties": {"@source_uri": "https://tools.usps.com/UspsToolsRestServices/rest/POLocator/findLocations", "@spider": "usps_collection_boxes", "addr:city": "NEWBERRY", "addr:country": "US", "addr:postcode": "29108", "addr:state": "SC", "addr:street_address": "1915 WILSON RD", "amenity": "post_box", "collection_times": "Mo-Fr 11:00", "nsi_id": "unitedstatespostalservice-a77078", "operator": "United States Postal Service", "operator:short": "USPS", "operator:type": "public", "operator:wikidata": "Q668687", "ref": "2910800011"}, "type": "Feature"}
{"geometry": {"coordinates": [-81.6061549, 34.29026], "type": "Point"}, "id": "T0XBam3-AwEI1fHXlS8Bw5klE58=", "properties": {"@source_uri": "https://tools.usps.com/UspsToolsRestServices/rest/POLocator/findLocations", "@spider": "usps_collection_boxes", "addr:city": "NEWBERRY", "addr:country": "US", "addr:postcode": "29108", "addr:state": "SC", "addr:street_address": "2669 KINARD ST", "amenity": "post_box", "collection_times": "Mo-Fr 11:00", "nsi_id": "unitedstatespostalservice-a77078", "operator": "United States Postal Service", "operator:short": "USPS", "operator:type": "public", "operator:wikidata": "Q668687", "ref": "2910800012"}, "type": "Feature"}
{"geometry": {"coordinates": [-81.619889372, 34.276490561], "type": "Point"}, "id": "dpLhkTRX0vfZG5INvK5P1Cn_ACY=", "properties": {"@source_uri": "https://tools.usps.com/UspsToolsRestServices/rest/POLocator/findLocations", "@spider": "usps_collection_boxes", "addr:city": "NEWBERRY", "addr:country": "US", "addr:postcode": "29108", "addr:state": "SC", "addr:street_address": "1321 COLLEGE ST", "amenity": "post_box", "collection_times": "Mo-Fr 16:45; Sa 10:45", "indoor": "yes", "note": "ON 12/24 AND 12/31, THIS BOX MAY BE COLLECTED AS EARLY AS 12 NOON.", "nsi_id": "unitedstatespostalservice-a77078", "operator": "United States Postal Service", "operator:short": "USPS", "operator:type": "public", "operator:wikidata": "Q668687", "ref": "2910800015"}, "type": "Feature"}
{"geometry": {"coordinates": [-81.619889372, 34.276490561], "type": "Point"}, "id": "28Int8F7C9bF-_6Qg9Vtl3xkKCQ=", "properties": {"@source_uri": "https://tools.usps.com/UspsToolsRestServices/rest/POLocator/findLocations", "@spider": "usps_collection_boxes", "addr:city": "NEWBERRY", "addr:country": "US", "addr:postcode": "29108", "addr:state": "SC", "addr:street_address": "1321 COLLEGE ST", "amenity": "post_box", "collection_times": "Mo-Fr 16:45; Sa 10:45", "indoor": "yes", "note": "ON 12/24 AND 12/31, THIS BOX MAY BE COLLECTED AS EARLY AS 12 NOON.", "nsi_id": "unitedstatespostalservice-a77078", "operator": "United States Postal Service", "operator:short": "USPS", "operator:type": "public", "operator:wikidata": "Q668687", "ref": "2910800018"}, "type": "Feature"}
{"geometry": {"coordinates": [-80.031017174, 33.846237714], "type": "Point"}, "id": "VDl2CgE37mXs-m2QgxcEIc16Bkk=", "properties": {"@source_uri": "https://tools.usps.com/UspsToolsRestServices/rest/POLocator/findLocations", "@spider": "usps_collection_boxes", "addr:city": "NEW ZION", "addr:country": "US", "addr:postcode": "29111", "addr:state": "SC", "addr:street_address": "6702 SALEM RD", "amenity": "post_box", "collection_times": "Mo-Fr 15:45; Sa 09:45", "note": "ON 12/24 AND 12/31, THIS BOX MAY BE COLLECTED AS EARLY AS 12 NOON.", "nsi_id": "unitedstatespostalservice-a77078", "operator": "United States Postal Service", "operator:short": "USPS", "operator:type": "public", "operator:wikidata": "Q668687", "ref": "2911100000"}, "type": "Feature"}
{"geometry": {"coordinates": [-80.031017174, 33.846237714], "type": "Point"}, "id": "73wTZkkWqNKvYHgl73ZfsvlY1_U=", "properties": {"@source_uri": "https://tools.usps.com/UspsToolsRestServices/rest/POLocator/findLocations", "@spider": "usps_collection_boxes", "addr:city": "NEW ZION", "addr:country": "US", "addr:postcode": "29111", "addr:state": "SC", "addr:street_address": "6702 SALEM RD", "amenity": "post_box", "collection_times": "Mo-Fr 15:45; Sa 09:45", "indoor": "yes", "note": "ON 12/24 AND 12/31, THIS BOX MAY BE COLLECTED AS EARLY AS 12 NOON.", "nsi_id": "unitedstatespostalservice-a77078", "operator": "United States Postal Service", "operator:short": "USPS", "operator:type": "public", "operator:wikidata": "Q668687", "ref": "2911100003"}, "type": "Feature"}
{"geometry": {"coordinates": [-81.103339079, 33.616765464], "type": "Point"}, "id": "-BZIGsMU-PzZlcnmgKPZToMsfBs=", "properties": {"@source_uri": "https://tools.usps.com/UspsToolsRestServices/rest/POLocator/findLocations", "@spider": "usps_collection_boxes", "addr:city": "NORTH", "addr:country": "US", "addr:postcode": "29112", "addr:state": "SC", "addr:street_address": "7903 SALLEY RD", "amenity": "post_box", "collection_times": "Mo-Fr 15:45; Sa 09:45", "note": "ON 12/24 AND 12/31, THIS BOX MAY BE COLLECTED AS EARLY AS 12 NOON.", "nsi_id": "unitedstatespostalservice-a77078", "operator": "United States Postal Service", "operator:short": "USPS", "operator:type": "public", "operator:wikidata": "Q668687", "ref": "2911200000"}, "type": "Feature"}
{"geometry": {"coordinates": [-81.103339079, 33.616765464], "type": "Point"}, "id": "3vuNplSKHIA8QwnTvkHAdXpg2RE=", "properties": {"@source_uri": "https://tools.usps.com/UspsToolsRestServices/rest/POLocator/findLocations", "@spider": "usps_collection_boxes", "addr:city": "NORTH", "addr:country": "US", "addr:postcode": "29112", "addr:state": "SC", "addr:street_address": "7903 SALLEY RD", "amenity": "post_box", "collection_times": "Mo-Fr 15:45; Sa 09:45", "indoor": "yes", "note": "ON 12/24 AND 12/31, THIS BOX MAY BE COLLECTED AS EARLY AS 12 NOON.", "nsi_id": "unitedstatespostalservice-a77078", "operator": "United States Postal Service", "operator:short": "USPS", "operator:type": "public", "operator:wikidata": "Q668687", "ref": "2911200001"}, "type": "Feature"}
{"geometry": {"coordinates": [-81.103339079, 33.616765464], "type": "Point"}, "id": "OjVqqVYyUow0pglGUYbg0GAOHLo=", "properties": {"@source_uri": "https://tools.usps.com/UspsToolsRestServices/rest/POLocator/findLocations", "@spider": "usps_collection_boxes", "addr:city": "NORTH", "addr:country": "US", "addr:postcode": "29112", "addr:state": "SC", "addr:street_address": "7903 SALLEY RD", "amenity": "post_box", "collection_times": "Mo-Fr 15:45; Sa 09:45", "indoor": "yes", "note": "ON 12/24 AND 12/31, THIS BOX MAY BE COLLECTED AS EARLY AS 12 NOON.", "nsi_id": "unitedstatespostalservice-a77078", "operator": "United States Postal Service", "operator:short": "USPS", "operator:type": "public", "operator:wikidata": "Q668687", "ref": "2911200003"}, "type": "Feature"}
{"geometry": {"coordinates": [-81.125444533, 33.450752158], "type": "Point"}, "id": "6OGHeYXrqqJelqM_nsJu-pbi_Jw=", "properties": {"@source_uri": "https://tools.usps.com/UspsToolsRestServices/rest/POLocator/findLocations", "@spider": "usps_collection_boxes", "addr:city": "NORWAY", "addr:country": "US", "addr:postcode": "29113", "addr:state": "SC", "addr:street_address": "8414 SAVANNAH HWY", "amenity": "post_box", "collection_times": "Mo-Fr 15:45; Sa 09:45", "note": "ON 12/24 AND 12/31, THIS BOX MAY BE COLLECTED AS EARLY AS 12 NOON.", "nsi_id": "unitedstatespostalservice-a77078", "operator": "United States Postal Service", "operator:short": "USPS", "operator:type": "public", "operator:wikidata": "Q668687", "ref": "2911300000"}, "type": "Feature"}
{"geometry": {"coordinates": [-81.125444533, 33.450752158], "type": "Point"}, "id": "MvbzNSvyktjzG-pTF7NfsuVMP4o=", "properties": {"@source_uri": "https://tools.usps.com/UspsToolsRestServices/rest/POLocator/findLocations", "@spider": "usps_collection_boxes", "addr:city": "NORWAY", "addr:country": "US", "addr:postcode": "29113", "addr:state": "SC", "addr:street_address": "8414 SAVANNAH HWY", "amenity": "post_box", "collection_times": "Mo-Fr 15:45; Sa 09:45", "indoor": "yes", "note": "ON 12/24 AND 12/31, THIS BOX MAY BE COLLECTED AS EARLY AS 12 NOON.", "nsi_id": "unitedstatespostalservice-a77078", "operator": "United States Postal Service", "operator:short": "USPS", "operator:type": "public", "operator:wikidata": "Q668687", "ref": "2911300001"}, "type": "Feature"}
{"geometry": {"coordinates": [-81.125444533, 33.450752158], "type": "Point"}, "id": "8MdQrq1NG0Y-gaaHJ3AOT1GOFY8=", "properties": {"@source_uri": "https://tools.usps.com/UspsToolsRestServices/rest/POLocator/findLocations", "@spider": "usps_collection_boxes", "addr:city": "NORWAY", "addr:country": "US", "addr:postcode": "29113", "addr:state": "SC", "addr:street_address": "8414 SAVANNAH HWY", "amenity": "post_box", "collection_times": "Mo-Fr 15:45; Sa 09:45", "indoor": "yes", "note": "ON 12/24 AND 12/31, THIS BOX MAY BE COLLECTED AS EARLY AS 12 NOON.", "nsi_id": "unitedstatespostalservice-a77078", "operator": "United States Postal Service", "operator:short": "USPS", "operator:type": "public", "operator:wikidata": "Q668687", "ref": "2911300003"}, "type": "Feature"}
{"geometry": {"coordinates": [-79.933531063, 33.937961928], "type": "Point"}, "id": "YLXEo8Wt2umx_Ds83PHW-jdWRyE=", "properties": {"@source_uri": "https://tools.usps.com/UspsToolsRestServices/rest/POLocator/findLocations", "@spider": "usps_collection_boxes", "addr:city": "OLANTA", "addr:country": "US", "addr:postcode": "29114", "addr:state": "SC", "addr:street_address": "219 N JONES RD", "amenity": "post_box", "collection_times": "Mo-Fr 15:45; Sa 09:45", "note": "ON 12/24 AND 12/31, THIS BOX MAY BE COLLECTED AS EARLY AS 12 NOON.", "nsi_id": "unitedstatespostalservice-a77078", "operator": "United States Postal Service", "operator:short": "USPS", "operator:type": "public", "operator:wikidata": "Q668687", "ref": "2911400000"}, "type": "Feature"}
{"geometry": {"coordinates": [-79.933531063, 33.937961928], "type": "Point"}, "id": "apNtUSwnb2f_UR-z5cnUQ7J8Mtc=", "properties": {"@source_uri": "https://tools.usps.com/UspsToolsRestServices/rest/POLocator/findLocations", "@spider": "usps_collection_boxes", "addr:city": "OLANTA", "addr:country": "US", "addr:postcode": "29114", "addr:state": "SC", "addr:street_address": "219 N JONES RD", "amenity": "post_box", "collection_times": "Mo-Fr 15:45; Sa 09:45", "indoor": "yes", "note": "ON 12/24 AND 12/31, THIS BOX MAY BE COLLECTED AS EARLY AS 12 NOON.", "nsi_id": "unitedstatespostalservice-a77078", "operator": "United States Postal Service", "operator:short": "USPS", "operator:type": "public", "operator:wikidata": "Q668687", "ref": "2911400001"}, "type": "Feature"}
{"geometry": {"coordinates": [-79.933531063, 33.937961928], "type": "Point"}, "id": "6IGhQbdbl8GOBqT_b9Yps40q6hc=", "properties": {"@source_uri": "https://tools.usps.com/UspsToolsRestServices/rest/POLocator/findLocations", "@spider": "usps_collection_boxes", "addr:city": "OLANTA", "addr:country": "US", "addr:postcode": "29114", "addr:state": "SC", "addr:street_address": "219 N JONES RD", "amenity": "post_box", "collection_times": "Mo-Fr 15:45; Sa 09:45", "indoor": "yes", "note": "ON 12/24 AND 12/31, THIS BOX MAY BE COLLECTED AS EARLY AS 12 NOON.", "nsi_id": "unitedstatespostalservice-a77078", "operator": "United States Postal Service", "operator:short": "USPS", "operator:type": "public", "operator:wikidata": "Q668687", "ref": "2911400003"}, "type": "Feature"}
{"geometry": {"coordinates": [-80.86783974, 33.493626469], "type": "Point"}, "id": "fi3YsCDQ8GTsr6a3th2HBcVtApY=", "properties": {"@source_uri": "https://tools.usps.com/UspsToolsRestServices/rest/POLocator/findLocations", "@spider": "usps_collection_boxes", "addr:city": "ORANGEBURG", "addr:country": "US", "addr:postcode": "29115", "addr:state": "SC", "addr:street_address": "1550 MIDDLETON ST", "amenity": "post_box", "collection_times": "Mo-Fr 17:00; Sa 15:00", "note": "ON 12/24 AND 12/31, THIS BOX MAY BE COLLECTED AS EARLY AS 12 NOON.", "nsi_id": "unitedstatespostalservice-a77078", "operator": "United States Postal Service", "operator:short": "USPS", "operator:type": "public", "operator:wikidata": "Q668687", "ref": "2911500000"}, "type": "Feature"}
{"geometry": {"coordinates": [-80.8646571, 33.50875], "type": "Point"}, "id": "CVKBhINr5rPvGNwp9OgDkWMkQ0A=", "properties": {"@source_uri": "https://tools.usps.com/UspsToolsRestServices/rest/POLocator/findLocations", "@spider": "usps_collection_boxes", "addr:city": "ORANGEBURG", "addr:country": "US", "addr:postcode": "29115", "addr:state": "SC", "addr:street_address": "1600 BOULEVARD ST", "amenity": "post_box", "collection_times": "Mo-Sa 13:30", "note": "ON 12/24 AND 12/31, THIS BOX MAY BE COLLECTED AS EARLY AS 12 NOON.", "nsi_id": "unitedstatespostalservice-a77078", "operator": "United States Postal Service", "operator:short": "USPS", "operator:type": "public", "operator:wikidata": "Q668687", "ref": "2911500008"}, "type": "Feature"}
{"geometry": {"coordinates": [-80.8917591, 33.52544], "type": "Point"}, "id": "D5g2JG6ROTrYwqNYyOskGL2wiRo=", "properties": {"@source_uri": "https://tools.usps.com/UspsToolsRestServices/rest/POLocator/findLocations", "@spider": "usps_collection_boxes", "addr:city": "ORANGEBURG", "addr:country": "US", "addr:postcode": "29115", "addr:state": "SC", "addr:street_address": "2795 NORTH RD", "amenity": "post_box", "collection_times": "Mo-Sa 13:30", "note": "ON 12/24 AND 12/31, THIS BOX MAY BE COLLECTED AS EARLY AS 12 NOON.", "nsi_id": "unitedstatespostalservice-a77078", "operator": "United States Postal Service", "operator:short": "USPS", "operator:type": "public", "operator:wikidata": "Q668687", "ref": "2911500010"}, "type": "Feature"}
{"geometry": {"coordinates": [-80.8672599, 33.501873], "type": "Point"}, "id": "hH04MFj1ZnlYrd79u4hb4Ri8rio=", "properties": {"@source_uri": "https://tools.usps.com/UspsToolsRestServices/rest/POLocator/findLocations", "@spider": "usps_collection_boxes", "addr:city": "ORANGEBURG", "addr:country": "US", "addr:postcode": "29115", "addr:state": "SC", "addr:street_address": "1500 CAROLINA AVE", "amenity": "post_box", "collection_times": "Mo-Sa 13:45", "note": "ON 12/24 AND 12/31, THIS BOX MAY BE COLLECTED AS EARLY AS 12 NOON.", "nsi_id": "unitedstatespostalservice-a77078", "operator": "United States Postal Service", "operator:short": "USPS", "operator:type": "public", "operator:wikidata": "Q668687", "ref": "2911500011"}, "type": "Feature"}
{"geometry": {"coordinates": [-80.8602583, 33.514898], "type": "Point"}, "id": "IoAOaWBVyXJd7v2zW4I_HL9e9lI=", "properties": {"@source_uri": "https://tools.usps.com/UspsToolsRestServices/rest/POLocator/findLocations", "@spider": "usps_collection_boxes", "addr:city": "ORANGEBURG", "addr:country": "US", "addr:postcode": "29115", "addr:state": "SC", "addr:street_address": "1346 CHESTNUT ST", "amenity": "post_box", "collection_times": "Mo-Sa 13:15", "note": "ON 12/24 AND 12/31, THIS BOX MAY BE COLLECTED AS EARLY AS 12 NOON.", "nsi_id": "unitedstatespostalservice-a77078", "operator": "United States Postal Service", "operator:short": "USPS", "operator:type": "public", "operator:wikidata": "Q668687", "ref": "2911500012"}, "type": "Feature"}
{"geometry": {"coordinates": [-80.8650541, 33.515857], "type": "Point"}, "id": "lCd9nf0FXtmt0aO9d9NKIFue2yw=", "properties": {"@source_uri": "https://tools.usps.com/UspsToolsRestServices/rest/POLocator/findLocations", "@spider": "usps_collection_boxes", "addr:city": "ORANGEBURG", "addr:country": "US", "addr:postcode": "29115", "addr:state": "SC", "addr:street_address": "1530 CHESTNUT ST", "amenity": "post_box", "collection_times": "Mo-Sa 13:15", "note": "ON 12/24 AND 12/31, THIS BOX MAY BE COLLECTED AS EARLY AS 12 NOON.", "nsi_id": "unitedstatespostalservice-a77078", "operator": "United States Postal Service", "operator:short": "USPS", "operator:type": "public", "operator:wikidata": "Q668687", "ref": "2911500013"}, "type": "Feature"}
{"geometry": {"coordinates": [-80.8552644, 33.496716], "type": "Point"}, "id": "_Nq8TLTGq409bpUillu5oy2HsBw=", "properties": {"@source_uri": "https://tools.usps.com/UspsToolsRestServices/rest/POLocator/findLocations", "@spider": "usps_collection_boxes", "addr:city": "ORANGEBURG", "addr:country": "US", "addr:postcode": "29115", "addr:state": "SC", "addr:street_address": "400 COLLEGE AVE", "amenity": "post_box", "collection_times": "Mo-Sa 13:45", "note": "ON 12/24 AND 12/31, THIS BOX MAY BE COLLECTED AS EARLY AS 12 NOON.", "nsi_id": "unitedstatespostalservice-a77078", "operator": "United States Postal Service", "operator:short": "USPS", "operator:type": "public", "operator:wikidata": "Q668687", "ref": "2911500016"}, "type": "Feature"}
{"geometry": {"coordinates": [-80.852217, 33.49603], "type": "Point"}, "id": "HrCtkvPy0oz3tFJFyLuOm9RfQN8=", "properties": {"@source_uri": "https://tools.usps.com/UspsToolsRestServices/rest/POLocator/findLocations", "@spider": "usps_collection_boxes", "addr:city": "ORANGEBURG", "addr:country": "US", "addr:postcode": "29115", "addr:state": "SC", "addr:street_address": "300 COLLEGE AVE", "amenity": "post_box", "collection_times": "Mo-Sa 13:45", "note": "ON 12/24 AND 12/31, THIS BOX MAY BE COLLECTED AS EARLY AS 12 NOON.", "nsi_id": "unitedstatespostalservice-a77078", "operator": "United States Postal Service", "operator:short": "USPS", "operator:type": "public", "operator:wikidata": "Q668687", "ref": "2911500017"}, "type": "Feature"}
{"geometry": {"coordinates": [-80.8623024, 33.498523], "type": "Point"}, "id": "S971W-5h-6_P60d8rVWBPt0Em2s=", "properties": {"@source_uri": "https://tools.usps.com/UspsToolsRestServices/rest/POLocator/findLocations", "@spider": "usps_collection_boxes", "addr:city": "ORANGEBURG", "addr:country": "US", "addr:postcode": "29115", "addr:state": "SC", "addr:street_address": "500 ELLIS AVE", "amenity": "post_box", "collection_times": "Mo-Sa 13:15", "note": "ON 12/24 AND 12/31, THIS BOX MAY BE COLLECTED AS EARLY AS 12 NOON.", "nsi_id": "unitedstatespostalservice-a77078", "operator": "United States Postal Service", "operator:short": "USPS", "operator:type": "public", "operator:wikidata": "Q668687", "ref": "2911500018"}, "type": "Feature"}
{"geometry": {"coordinates": [-80.8607118, 33.49532], "type": "Point"}, "id": "3yH8EF55ttFbBG0-dEsq_gLFUuQ=", "properties": {"@source_uri": "https://tools.usps.com/UspsToolsRestServices/rest/POLocator/findLocations", "@spider": "usps_collection_boxes", "addr:city": "ORANGEBURG", "addr:country": "US", "addr:postcode": "29115", "addr:state": "SC", "addr:street_address": "1550 HENLEY ST", "amenity": "post_box", "collection_times": "Mo-Sa 13:15", "note": "ON 12/24 AND 12/31, THIS BOX MAY BE COLLECTED AS EARLY AS 12 NOON.", "nsi_id": "unitedstatespostalservice-a77078", "operator": "United States Postal Service", "operator:short": "USPS", "operator:type": "public", "operator:wikidata": "Q668687", "ref": "2911500019"}, "type": "Feature"}
{"geometry": {"coordinates": [-80.86355, 33.49003], "type": "Point"}, "id": "YbNwwQesDh2fv2QPhtLerYsXo5E=", "properties": {"@source_uri": "https://tools.usps.com/UspsToolsRestServices/rest/POLocator/findLocations", "@spider": "usps_collection_boxes", "addr:city": "ORANGEBURG", "addr:country": "US", "addr:postcode": "29115", "addr:state": "SC", "addr:street_address": "201 PROSPERITY DR", "amenity": "post_box", "collection_times": "Mo-Sa 10:45", "nsi_id": "unitedstatespostalservice-a77078", "operator": "United States Postal Service", "operator:short": "USPS", "operator:type": "public", "operator:wikidata": "Q668687", "ref": "2911500020"}, "type": "Feature"}
{"geometry": {"coordinates": [-80.8632588, 33.489262], "type": "Point"}, "id": "7mEz287fcdpQHCqDvCE5lpYncCI=", "properties": {"@source_uri": "https://tools.usps.com/UspsToolsRestServices/rest/POLocator/findLocations", "@spider": "usps_collection_boxes", "addr:city": "ORANGEBURG", "addr:country": "US", "addr:postcode": "29115", "addr:state": "SC", "addr:street_address": "1240 RUSSELL ST", "amenity": "post_box", "collection_times": "Mo-Sa 14:00", "note": "ON 12/24 AND 12/31, THIS BOX MAY BE COLLECTED AS EARLY AS 12 NOON.", "nsi_id": "unitedstatespostalservice-a77078", "operator": "United States Postal Service", "operator:short": "USPS", "operator:type": "public", "operator:wikidata": "Q668687", "ref": "2911500026"}, "type": "Feature"}
{"geometry": {"coordinates": [-80.8627011, 33.49155], "type": "Point"}, "id": "KoGI3zy3S3-yze7GRew2PYHEEh4=", "properties": {"@source_uri": "https://tools.usps.com/UspsToolsRestServices/rest/POLocator/findLocations", "@spider": "usps_collection_boxes", "addr:city": "ORANGEBURG", "addr:country": "US", "addr:postcode": "29115", "addr:state": "SC", "addr:street_address": "300 SAINT PAUL ST", "amenity": "post_box", "collection_times": "Mo-Sa 14:00", "note": "ON 12/24 AND 12/31, THIS BOX MAY BE COLLECTED AS EARLY AS 12 NOON.", "nsi_id": "unitedstatespostalservice-a77078", "operator": "United States Postal Service", "operator:short": "USPS", "operator:type": "public", "operator:wikidata": "Q668687", "ref": "2911500028"}, "type": "Feature"}
{"geometry": {"coordinates": [-80.8684759, 33.481709], "type": "Point"}, "id": "erwDR8Bxyl0TeTVDRmKC7dHeQhw=", "properties": {"@source_uri": "https://tools.usps.com/UspsToolsRestServices/rest/POLocator/findLocations", "@spider": "usps_collection_boxes", "addr:city": "ORANGEBURG", "addr:country": "US", "addr:postcode": "29115", "addr:state": "SC", "addr:street_address": "100 RIVERSIDE DR", "amenity": "post_box", "collection_times": "Mo-Sa 14:00", "note": "ON 12/24 AND 12/31, THIS BOX MAY BE COLLECTED AS EARLY AS 12 NOON.", "nsi_id": "unitedstatespostalservice-a77078", "operator": "United States Postal Service", "operator:short": "USPS", "operator:type": "public", "operator:wikidata": "Q668687", "ref": "2911500032"}, "type": "Feature"}
{"geometry": {"coordinates": [-80.8315708, 33.54017], "type": "Point"}, "id": "xWxS-gRVrej5AXRCQ_wE-vW_HRM=", "properties": {"@source_uri": "https://tools.usps.com/UspsToolsRestServices/rest/POLocator/findLocations", "@spider": "usps_collection_boxes", "addr:city": "ORANGEBURG", "addr:country": "US", "addr:postcode": "29115", "addr:state": "SC", "addr:street_address": "3000 SAINT MATTHEWS RD", "amenity": "post_box", "collection_times": "Mo-Sa 11:45", "nsi_id": "unitedstatespostalservice-a77078", "operator": "United States Postal Service", "operator:short": "USPS", "operator:type": "public", "operator:wikidata": "Q668687", "ref": "2911500033"}, "type": "Feature"}
{"geometry": {"coordinates": [-80.8258187, 33.554913], "type": "Point"}, "id": "T4VduEMiycemOoVliQdUI3iE5C8=", "properties": {"@source_uri": "https://tools.usps.com/UspsToolsRestServices/rest/POLocator/findLocations", "@spider": "usps_collection_boxes", "addr:city": "ORANGEBURG", "addr:country": "US", "addr:postcode": "29115", "addr:state": "SC", "addr:street_address": "3292 SAINT MATTHEWS RD", "amenity": "post_box", "collection_times": "Mo-Sa 11:45", "nsi_id": "unitedstatespostalservice-a77078", "operator": "United States Postal Service", "operator:short": "USPS", "operator:type": "public", "operator:wikidata": "Q668687", "ref": "2911500034"}, "type": "Feature"}
{"geometry": {"coordinates": [-80.8562824, 33.521781], "type": "Point"}, "id": "L6FCLyzZbNS3DqDLMeQcboiq7Bo=", "properties": {"@source_uri": "https://tools.usps.com/UspsToolsRestServices/rest/POLocator/findLocations", "@spider": "usps_collection_boxes", "addr:city": "ORANGEBURG", "addr:country": "US", "addr:postcode": "29115", "addr:state": "SC", "addr:street_address": "1700 VILLAGE PARK DR", "amenity": "post_box", "collection_times": "Mo-Sa 11:45", "nsi_id": "unitedstatespostalservice-a77078", "operator": "United States Postal Service", "operator:short": "USPS", "operator:type": "public", "operator:wikidata": "Q668687", "ref": "2911500036"}, "type": "Feature"}
{"geometry": {"coordinates": [-80.8471763, 33.470321], "type": "Point"}, "id": "i8mRghUkxC3H824cxcGi7BWajLk=", "properties": {"@source_uri": "https://tools.usps.com/UspsToolsRestServices/rest/POLocator/findLocations", "@spider": "usps_collection_boxes", "addr:city": "ORANGEBURG", "addr:country": "US", "addr:postcode": "29115", "addr:state": "SC", "addr:street_address": "1720 CHARLESTON HWY", "amenity": "post_box", "collection_times": "Mo-Sa 12:45", "note": "ON 12/24 AND 12/31, THIS BOX MAY BE COLLECTED AS EARLY AS 12 NOON.", "nsi_id": "unitedstatespostalservice-a77078", "operator": "United States Postal Service", "operator:short": "USPS", "operator:type": "public", "operator:wikidata": "Q668687", "ref": "2911500037"}, "type": "Feature"}
{"geometry": {"coordinates": [-80.8834313, 33.480931], "type": "Point"}, "id": "-n4b0sQBZH5D7oAXLlHxvLgXOp4=", "properties": {"@source_uri": "https://tools.usps.com/UspsToolsRestServices/rest/POLocator/findLocations", "@spider": "usps_collection_boxes", "addr:city": "ORANGEBURG", "addr:country": "US", "addr:postcode": "29115", "addr:state": "SC", "addr:street_address": "1935 OLD EDISTO DR", "amenity": "post_box", "collection_times": "Mo-Sa 14:00", "note": "ON 12/24 AND 12/31, THIS BOX MAY BE COLLECTED AS EARLY AS 12 NOON.", "nsi_id": "unitedstatespostalservice-a77078", "operator": "United States Postal Service", "operator:short": "USPS", "operator:type": "public", "operator:wikidata": "Q668687", "ref": "2911500041"}, "type": "Feature"}
{"geometry": {"coordinates": [-80.86783974, 33.493626469], "type": "Point"}, "id": "TvDOHNz2UA10nt2SmdgCN0D_h10=", "properties": {"@source_uri": "https://tools.usps.com/UspsToolsRestServices/rest/POLocator/findLocations", "@spider": "usps_collection_boxes", "addr:city": "ORANGEBURG", "addr:country": "US", "addr:postcode": "29115", "addr:state": "SC", "addr:street_address": "1550 MIDDLETON ST", "amenity": "post_box", "collection_times": "Mo-Fr 17:00; Sa 12:00", "indoor": "yes", "note": "ON 12/24 AND 12/31, THIS BOX MAY BE COLLECTED AS EARLY AS 12 NOON.", "nsi_id": "unitedstatespostalservice-a77078", "operator": "United States Postal Service", "operator:short": "USPS", "operator:type": "public", "operator:wikidata": "Q668687", "ref": "2911500045"}, "type": "Feature"}
{"geometry": {"coordinates": [-81.3227589993, 34.2417770039], "type": "Point"}, "id": "Yv8qc1MsAteMCtHIp90fKo1REpc=", "properties": {"@source_uri": "https://tools.usps.com/UspsToolsRestServices/rest/POLocator/findLocations", "@spider": "usps_collection_boxes", "addr:city": "PEAK", "addr:country": "US", "addr:postcode": "29122", "addr:state": "SC", "addr:street_address": "10 RIVER ST", "amenity": "post_box", "collection_times": "Mo-Fr 15:45; Sa 09:45", "note": "ON 12/24 AND 12/31, THIS BOX MAY BE COLLECTED AS EARLY AS 12 NOON.", "nsi_id": "unitedstatespostalservice-a77078", "operator": "United States Postal Service", "operator:short": "USPS", "operator:type": "public", "operator:wikidata": "Q668687", "ref": "2912200000"}, "type": "Feature"}
{"geometry": {"coordinates": [-81.322865361, 34.241930247], "type": "Point"}, "id": "-SBF_JxraLTSWrHcZKgLVrX5hNw=", "properties": {"@source_uri": "https://tools.usps.com/UspsToolsRestServices/rest/POLocator/findLocations", "@spider": "usps_collection_boxes", "addr:city": "PEAK", "addr:country": "US", "addr:postcode": "29122", "addr:state": "SC", "addr:street_address": "10 RIVER ST", "amenity": "post_box", "collection_times": "Mo-Fr 15:45; Sa 09:45", "indoor": "yes", "note": "ON 12/24 AND 12/31, THIS BOX MAY BE COLLECTED AS EARLY AS 12 NOON.", "nsi_id": "unitedstatespostalservice-a77078", "operator": "United States Postal Service", "operator:short": "USPS", "operator:type": "public", "operator:wikidata": "Q668687", "ref": "2912200001"}, "type": "Feature"}
{"geometry": {"coordinates": [-81.322865361, 34.241930247], "type": "Point"}, "id": "c5H3wrdIc5xb_b7Ap0jm-0ghnWs=", "properties": {"@source_uri": "https://tools.usps.com/UspsToolsRestServices/rest/POLocator/findLocations", "@spider": "usps_collection_boxes", "addr:city": "PEAK", "addr:country": "US", "addr:postcode": "29122", "addr:state": "SC", "addr:street_address": "10 RIVER ST", "amenity": "post_box", "collection_times": "Mo-Fr 15:45; Sa 09:45", "indoor": "yes", "note": "ON 12/24 AND 12/31, THIS BOX MAY BE COLLECTED AS EARLY AS 12 NOON.", "nsi_id": "unitedstatespostalservice-a77078", "operator": "United States Postal Service", "operator:short": "USPS", "operator:type": "public", "operator:wikidata": "Q668687", "ref": "2912200003"}, "type": "Feature"}
{"geometry": {"coordinates": [-81.246977673, 33.763447288], "type": "Point"}, "id": "86bQ090kWaPMWo66D2KpGUJut18=", "properties": {"@source_uri": "https://tools.usps.com/UspsToolsRestServices/rest/POLocator/findLocations", "@spider": "usps_collection_boxes", "addr:city": "PELION", "addr:country": "US", "addr:postcode": "29123", "addr:state": "SC", "addr:street_address": "739 PINE ST", "amenity": "post_box", "collection_times": "Mo-Fr 15:45; Sa 10:45", "note": "ON 12/24 AND 12/31, THIS BOX MAY BE COLLECTED AS EARLY AS 12 NOON.", "nsi_id": "unitedstatespostalservice-a77078", "operator": "United States Postal Service", "operator:short": "USPS", "operator:type": "public", "operator:wikidata": "Q668687", "ref": "2912300000"}, "type": "Feature"}
{"geometry": {"coordinates": [-81.246977673, 33.763447288], "type": "Point"}, "id": "IbcVrjEIpj0wAk2KBZaBPWwJGr0=", "properties": {"@source_uri": "https://tools.usps.com/UspsToolsRestServices/rest/POLocator/findLocations", "@spider": "usps_collection_boxes", "addr:city": "PELION", "addr:country": "US", "addr:postcode": "29123", "addr:state": "SC", "addr:street_address": "739 PINE ST", "amenity": "post_box", "collection_times": "Mo-Fr 15:45; Sa 10:45", "indoor": "yes", "note": "ON 12/24 AND 12/31, THIS BOX MAY BE COLLECTED AS EARLY AS 12 NOON.", "nsi_id": "unitedstatespostalservice-a77078", "operator": "United States Postal Service", "operator:short": "USPS", "operator:type": "public", "operator:wikidata": "Q668687", "ref": "2912300001"}, "type": "Feature"}
{"geometry": {"coordinates": [-81.246977673, 33.763447288], "type": "Point"}, "id": "cWc1g1EHCL7XRMyvRZG-F2t91wo=", "properties": {"@source_uri": "https://tools.usps.com/UspsToolsRestServices/rest/POLocator/findLocations", "@spider": "usps_collection_boxes", "addr:city": "PELION", "addr:country": "US", "addr:postcode": "29123", "addr:state": "SC", "addr:street_address": "739 PINE ST", "amenity": "post_box", "collection_times": "Mo-Fr 15:45; Sa 10:45", "indoor": "yes", "note": "ON 12/24 AND 12/31, THIS BOX MAY BE COLLECTED AS EARLY AS 12 NOON.", "nsi_id": "unitedstatespostalservice-a77078", "operator": "United States Postal Service", "operator:short": "USPS", "operator:type": "public", "operator:wikidata": "Q668687", "ref": "2912300003"}, "type": "Feature"}
{"geometry": {"coordinates": [-80.462553101, 33.739962273], "type": "Point"}, "id": "PgQEEtmAfXLeKBK6sFSiTGGAL1A=", "properties": {"@source_uri": "https://tools.usps.com/UspsToolsRestServices/rest/POLocator/findLocations", "@spider": "usps_collection_boxes", "addr:city": "PINEWOOD", "addr:country": "US", "addr:postcode": "29125", "addr:state": "SC", "addr:street_address": "18 E CLARK ST", "amenity": "post_box", "collection_times": "Mo-Fr 15:45; Sa 09:45", "note": "ON 12/24 AND 12/31, THIS BOX MAY BE COLLECTED AS EARLY AS 12 NOON.", "nsi_id": "unitedstatespostalservice-a77078", "operator": "United States Postal Service", "operator:short": "USPS", "operator:type": "public", "operator:wikidata": "Q668687", "ref": "2912500000"}, "type": "Feature"}
{"geometry": {"coordinates": [-80.462553101, 33.739962273], "type": "Point"}, "id": "xQo2nq3Ix4iEBe6L0kaofMQ87D0=", "properties": {"@source_uri": "https://tools.usps.com/UspsToolsRestServices/rest/POLocator/findLocations", "@spider": "usps_collection_boxes", "addr:city": "PINEWOOD", "addr:country": "US", "addr:postcode": "29125", "addr:state": "SC", "addr:street_address": "18 E CLARK ST", "amenity": "post_box", "collection_times": "Mo-Fr 15:45; Sa 09:45", "indoor": "yes", "note": "ON 12/24 AND 12/31, THIS BOX MAY BE COLLECTED AS EARLY AS 12 NOON.", "nsi_id": "unitedstatespostalservice-a77078", "operator": "United States Postal Service", "operator:short": "USPS", "operator:type": "public", "operator:wikidata": "Q668687", "ref": "2912500001"}, "type": "Feature"}
{"geometry": {"coordinates": [-80.462553101, 33.739962273], "type": "Point"}, "id": "tuu4VBv9LMrhsnhvdVhVsXkRTps=", "properties": {"@source_uri": "https://tools.usps.com/UspsToolsRestServices/rest/POLocator/findLocations", "@spider": "usps_collection_boxes", "addr:city": "PINEWOOD", "addr:country": "US", "addr:postcode": "29125", "addr:state": "SC", "addr:street_address": "18 E CLARK ST", "amenity": "post_box", "collection_times": "Mo-Fr 15:45; Sa 09:45", "indoor": "yes", "note": "ON 12/24 AND 12/31, THIS BOX MAY BE COLLECTED AS EARLY AS 12 NOON.", "nsi_id": "unitedstatespostalservice-a77078", "operator": "United States Postal Service", "operator:short": "USPS", "operator:type": "public", "operator:wikidata": "Q668687", "ref": "2912500003"}, "type": "Feature"}
{"geometry": {"coordinates": [-81.4051869704, 34.2585600048], "type": "Point"}, "id": "XTyExalQeZAHLt8gnLmDUfpcSuQ=", "properties": {"@source_uri": "https://tools.usps.com/UspsToolsRestServices/rest/POLocator/findLocations", "@spider": "usps_collection_boxes", "addr:city": "POMARIA", "addr:country": "US", "addr:postcode": "29126", "addr:state": "SC", "addr:street_address": "5375 US HIGHWAY 176", "amenity": "post_box", "collection_times": "Mo-Fr 15:45; Sa 09:45", "note": "ON 12/24 AND 12/31, THIS BOX MAY BE COLLECTED AS EARLY AS 12 NOON.", "nsi_id": "unitedstatespostalservice-a77078", "operator": "United States Postal Service", "operator:short": "USPS", "operator:type": "public", "operator:wikidata": "Q668687", "ref": "2912600000"}, "type": "Feature"}
{"geometry": {"coordinates": [-81.406095972, 34.258392414], "type": "Point"}, "id": "vPl3XSRukxw19-wFlEPU2pQ4AjY=", "properties": {"@source_uri": "https://tools.usps.com/UspsToolsRestServices/rest/POLocator/findLocations", "@spider": "usps_collection_boxes", "addr:city": "POMARIA", "addr:country": "US", "addr:postcode": "29126", "addr:state": "SC", "addr:street_address": "5375 US HIGHWAY 176", "amenity": "post_box", "collection_times": "Mo-Fr 15:45; Sa 09:45", "indoor": "yes", "note": "ON 12/24 AND 12/31, THIS BOX MAY BE COLLECTED AS EARLY AS 12 NOON.", "nsi_id": "unitedstatespostalservice-a77078", "operator": "United States Postal Service", "operator:short": "USPS", "operator:type": "public", "operator:wikidata": "Q668687", "ref": "2912600001"}, "type": "Feature"}
{"geometry": {"coordinates": [-81.406095972, 34.258392414], "type": "Point"}, "id": "FBeekifLRF1fHmpqARO_HnpjFZE=", "properties": {"@source_uri": "https://tools.usps.com/UspsToolsRestServices/rest/POLocator/findLocations", "@spider": "usps_collection_boxes", "addr:city": "POMARIA", "addr:country": "US", "addr:postcode": "29126", "addr:state": "SC", "addr:street_address": "5375 US HIGHWAY 176", "amenity": "post_box", "collection_times": "Mo-Fr 15:45; Sa 09:45", "indoor": "yes", "note": "ON 12/24 AND 12/31, THIS BOX MAY BE COLLECTED AS EARLY AS 12 NOON.", "nsi_id": "unitedstatespostalservice-a77078", "operator": "United States Postal Service", "operator:short": "USPS", "operator:type": "public", "operator:wikidata": "Q668687", "ref": "2912600004"}, "type": "Feature"}
{"geometry": {"coordinates": [-81.534554322, 34.210326941], "type": "Point"}, "id": "0zsnJZg9VP_nbuHUomHECYjTdKk=", "properties": {"@source_uri": "https://tools.usps.com/UspsToolsRestServices/rest/POLocator/findLocations", "@spider": "usps_collection_boxes", "addr:city": "PROSPERITY", "addr:country": "US", "addr:postcode": "29127", "addr:state": "SC", "addr:street_address": "155 N MAIN ST", "amenity": "post_box", "collection_times": "Mo-Fr 15:45; Sa 09:45", "indoor": "yes", "note": "ON 12/24 AND 12/31, THIS BOX MAY BE COLLECTED AS EARLY AS 12 NOON.", "nsi_id": "unitedstatespostalservice-a77078", "operator": "United States Postal Service", "operator:short": "USPS", "operator:type": "public", "operator:wikidata": "Q668687", "ref": "2912700001"}, "type": "Feature"}
{"geometry": {"coordinates": [-81.5349860217, 34.2100919849], "type": "Point"}, "id": "6BWYOWN86BEOh2TEJlpA7h5cbzg=", "properties": {"@source_uri": "https://tools.usps.com/UspsToolsRestServices/rest/POLocator/findLocations", "@spider": "usps_collection_boxes", "addr:city": "PROSPERITY", "addr:country": "US", "addr:postcode": "29127", "addr:state": "SC", "addr:street_address": "155 N MAIN ST", "amenity": "post_box", "collection_times": "Mo-Fr 15:45; Sa 09:45", "note": "ON 12/24 AND 12/31, THIS BOX MAY BE COLLECTED AS EARLY AS 12 NOON.", "nsi_id": "unitedstatespostalservice-a77078", "operator": "United States Postal Service", "operator:short": "USPS", "operator:type": "public", "operator:wikidata": "Q668687", "ref": "2912700002"}, "type": "Feature"}
{"geometry": {"coordinates": [-81.534554322, 34.210326941], "type": "Point"}, "id": "-T8G90lBPos5pcAsGFKv9FzSyt0=", "properties": {"@source_uri": "https://tools.usps.com/UspsToolsRestServices/rest/POLocator/findLocations", "@spider": "usps_collection_boxes", "addr:city": "PROSPERITY", "addr:country": "US", "addr:postcode": "29127", "addr:state": "SC", "addr:street_address": "155 N MAIN ST", "amenity": "post_box", "collection_times": "Mo-Fr 15:45; Sa 09:45", "indoor": "yes", "note": "ON 12/24 AND 12/31, THIS BOX MAY BE COLLECTED AS EARLY AS 12 NOON.", "nsi_id": "unitedstatespostalservice-a77078", "operator": "United States Postal Service", "operator:short": "USPS", "operator:type": "public", "operator:wikidata": "Q668687", "ref": "2912700005"}, "type": "Feature"}
{"geometry": {"coordinates": [-80.534283487, 34.096311889], "type": "Point"}, "id": "bijzlWkuCsMNNXSOgZP0kL4r7DM=", "properties": {"@source_uri": "https://tools.usps.com/UspsToolsRestServices/rest/POLocator/findLocations", "@spider": "usps_collection_boxes", "addr:city": "REMBERT", "addr:country": "US", "addr:postcode": "29128", "addr:state": "SC", "addr:street_address": "8335 CAMDEN HWY", "amenity": "post_box", "collection_times": "Mo-Fr 15:45; Sa 09:45", "note": "ON 12/24 AND 12/31, THIS BOX MAY BE COLLECTED AS EARLY AS 12 NOON.", "nsi_id": "unitedstatespostalservice-a77078", "operator": "United States Postal Service", "operator:short": "USPS", "operator:type": "public", "operator:wikidata": "Q668687", "ref": "2912800000"}, "type": "Feature"}
{"geometry": {"coordinates": [-80.534283487, 34.096311889], "type": "Point"}, "id": "bWujtmKyMC1qGoBIdHTHHYQOSZY=", "properties": {"@source_uri": "https://tools.usps.com/UspsToolsRestServices/rest/POLocator/findLocations", "@spider": "usps_collection_boxes", "addr:city": "REMBERT", "addr:country": "US", "addr:postcode": "29128", "addr:state": "SC", "addr:street_address": "8335 CAMDEN HWY", "amenity": "post_box", "collection_times": "Mo-Fr 15:45; Sa 09:45", "indoor": "yes", "note": "ON 12/24 AND 12/31, THIS BOX MAY BE COLLECTED AS EARLY AS 12 NOON.", "nsi_id": "unitedstatespostalservice-a77078", "operator": "United States Postal Service", "operator:short": "USPS", "operator:type": "public", "operator:wikidata": "Q668687", "ref": "2912800001"}, "type": "Feature"}
{"geometry": {"coordinates": [-80.534283487, 34.096311889], "type": "Point"}, "id": "lnF6Njg2kPkpQ0Q2q0JqGR1Oylw=", "properties": {"@source_uri": "https://tools.usps.com/UspsToolsRestServices/rest/POLocator/findLocations", "@spider": "usps_collection_boxes", "addr:city": "REMBERT", "addr:country": "US", "addr:postcode": "29128", "addr:state": "SC", "addr:street_address": "8335 CAMDEN HWY", "amenity": "post_box", "collection_times": "Mo-Fr 15:45; Sa 09:45", "indoor": "yes", "note": "ON 12/24 AND 12/31, THIS BOX MAY BE COLLECTED AS EARLY AS 12 NOON.", "nsi_id": "unitedstatespostalservice-a77078", "operator": "United States Postal Service", "operator:short": "USPS", "operator:type": "public", "operator:wikidata": "Q668687", "ref": "2912800003"}, "type": "Feature"}
{"geometry": {"coordinates": [-81.659942392, 33.8455245], "type": "Point"}, "id": "k7biHG2apMQlBovmmR__ds6RJlY=", "properties": {"@source_uri": "https://tools.usps.com/UspsToolsRestServices/rest/POLocator/findLocations", "@spider": "usps_collection_boxes", "addr:city": "RIDGE SPRING", "addr:country": "US", "addr:postcode": "29129", "addr:state": "SC", "addr:street_address": "610 E MAIN ST", "amenity": "post_box", "collection_times": "Mo-Fr 15:45; Sa 09:45", "note": "ON 12/24 AND 12/31, THIS BOX MAY BE COLLECTED AS EARLY AS 12 NOON.", "nsi_id": "unitedstatespostalservice-a77078", "operator": "United States Postal Service", "operator:short": "USPS", "operator:type": "public", "operator:wikidata": "Q668687", "ref": "2912900000"}, "type": "Feature"}
{"geometry": {"coordinates": [-81.659942392, 33.8455245], "type": "Point"}, "id": "ET_NZUw1igssWiOuadzbwfsD29s=", "properties": {"@source_uri": "https://tools.usps.com/UspsToolsRestServices/rest/POLocator/findLocations", "@spider": "usps_collection_boxes", "addr:city": "RIDGE SPRING", "addr:country": "US", "addr:postcode": "29129", "addr:state": "SC", "addr:street_address": "610 E MAIN ST", "amenity": "post_box", "collection_times": "Mo-Fr 11:30; Sa 09:45", "indoor": "yes", "nsi_id": "unitedstatespostalservice-a77078", "operator": "United States Postal Service", "operator:short": "USPS", "operator:type": "public", "operator:wikidata": "Q668687", "ref": "2912900001"}, "type": "Feature"}
{"geometry": {"coordinates": [-81.659942392, 33.8455245], "type": "Point"}, "id": "bXbDQwfv9v_DRBmXalJxaqHSfLg=", "properties": {"@source_uri": "https://tools.usps.com/UspsToolsRestServices/rest/POLocator/findLocations", "@spider": "usps_collection_boxes", "addr:city": "RIDGE SPRING", "addr:country": "US", "addr:postcode": "29129", "addr:state": "SC", "addr:street_address": "610 E MAIN ST", "amenity": "post_box", "collection_times": "Mo-Fr 11:30; Sa 09:45", "indoor": "yes", "nsi_id": "unitedstatespostalservice-a77078", "operator": "United States Postal Service", "operator:short": "USPS", "operator:type": "public", "operator:wikidata": "Q668687", "ref": "2912900003"}, "type": "Feature"}
{"geometry": {"coordinates": [-80.95877475, 34.305658596], "type": "Point"}, "id": "0PlvWV99XchyKda2oASK_Fv2CDM=", "properties": {"@source_uri": "https://tools.usps.com/UspsToolsRestServices/rest/POLocator/findLocations", "@spider": "usps_collection_boxes", "addr:city": "RIDGEWAY", "addr:country": "US", "addr:postcode": "29130", "addr:state": "SC", "addr:street_address": "290 S PALMER ST", "amenity": "post_box", "collection_times": "Mo-Fr 15:45; Sa 09:45", "note": "ON 12/24 AND 12/31, THIS BOX MAY BE COLLECTED AS EARLY AS 12 NOON.", "nsi_id": "unitedstatespostalservice-a77078", "operator": "United States Postal Service", "operator:short": "USPS", "operator:type": "public", "operator:wikidata": "Q668687", "ref": "2913000000"}, "type": "Feature"}
{"geometry": {"coordinates": [-80.95877475, 34.305658596], "type": "Point"}, "id": "aN812CUHzGYOIHe74ut8NL3yLrQ=", "properties": {"@source_uri": "https://tools.usps.com/UspsToolsRestServices/rest/POLocator/findLocations", "@spider": "usps_collection_boxes", "addr:city": "RIDGEWAY", "addr:country": "US", "addr:postcode": "29130", "addr:state": "SC", "addr:street_address": "290 S PALMER ST", "amenity": "post_box", "collection_times": "Mo-Fr 15:45; Sa 09:45", "indoor": "yes", "note": "ON 12/24 AND 12/31, THIS BOX MAY BE COLLECTED AS EARLY AS 12 NOON.", "nsi_id": "unitedstatespostalservice-a77078", "operator": "United States Postal Service", "operator:short": "USPS", "operator:type": "public", "operator:wikidata": "Q668687", "ref": "2913000001"}, "type": "Feature"}
{"geometry": {"coordinates": [-80.95877475, 34.305658596], "type": "Point"}, "id": "Gb3hWEgFKlJf4aXq1tUqKU12wVI=", "properties": {"@source_uri": "https://tools.usps.com/UspsToolsRestServices/rest/POLocator/findLocations", "@spider": "usps_collection_boxes", "addr:city": "RIDGEWAY", "addr:country": "US", "addr:postcode": "29130", "addr:state": "SC", "addr:street_address": "290 S PALMER ST", "amenity": "post_box", "collection_times": "Mo-Fr 15:45; Sa 09:45", "indoor": "yes", "note": "ON 12/24 AND 12/31, THIS BOX MAY BE COLLECTED AS EARLY AS 12 NOON.", "nsi_id": "unitedstatespostalservice-a77078", "operator": "United States Postal Service", "operator:short": "USPS", "operator:type": "public", "operator:wikidata": "Q668687", "ref": "2913000003"}, "type": "Feature"}
{"geometry": {"coordinates": [-80.8356450316, 33.3710959989], "type": "Point"}, "id": "_uVJWL2sVBfPcovmp7KrzcMITPE=", "properties": {"@source_uri": "https://tools.usps.com/UspsToolsRestServices/rest/POLocator/findLocations", "@spider": "usps_collection_boxes", "addr:city": "ROWESVILLE", "addr:country": "US", "addr:postcode": "29133", "addr:state": "SC", "addr:street_address": "219 ROWES PUMP DR", "amenity": "post_box", "collection_times": "Mo-Fr 15:45; Sa 09:45", "note": "ON 12/24 AND 12/31, THIS BOX MAY BE COLLECTED AS EARLY AS 12 NOON.", "nsi_id": "unitedstatespostalservice-a77078", "operator": "United States Postal Service", "operator:short": "USPS", "operator:type": "public", "operator:wikidata": "Q668687", "ref": "2913300000"}, "type": "Feature"}
{"geometry": {"coordinates": [-80.83590078, 33.371085667], "type": "Point"}, "id": "FqERUSPbxQHWtQlmUGiJeSXwqqk=", "properties": {"@source_uri": "https://tools.usps.com/UspsToolsRestServices/rest/POLocator/findLocations", "@spider": "usps_collection_boxes", "addr:city": "ROWESVILLE", "addr:country": "US", "addr:postcode": "29133", "addr:state": "SC", "addr:street_address": "219 ROWES PUMP DR", "amenity": "post_box", "collection_times": "Mo-Fr 15:45; Sa 09:45", "indoor": "yes", "note": "ON 12/24 AND 12/31, THIS BOX MAY BE COLLECTED AS EARLY AS 12 NOON.", "nsi_id": "unitedstatespostalservice-a77078", "operator": "United States Postal Service", "operator:short": "USPS", "operator:type": "public", "operator:wikidata": "Q668687", "ref": "2913300001"}, "type": "Feature"}
{"geometry": {"coordinates": [-80.83590078, 33.371085667], "type": "Point"}, "id": "ELfinN_myWsPWRgoV5AEcoxSJkc=", "properties": {"@source_uri": "https://tools.usps.com/UspsToolsRestServices/rest/POLocator/findLocations", "@spider": "usps_collection_boxes", "addr:city": "ROWESVILLE", "addr:country": "US", "addr:postcode": "29133", "addr:state": "SC", "addr:street_address": "219 ROWES PUMP DR", "amenity": "post_box", "collection_times": "Mo-Fr 15:45; Sa 09:45", "indoor": "yes", "note": "ON 12/24 AND 12/31, THIS BOX MAY BE COLLECTED AS EARLY AS 12 NOON.", "nsi_id": "unitedstatespostalservice-a77078", "operator": "United States Postal Service", "operator:short": "USPS", "operator:type": "public", "operator:wikidata": "Q668687", "ref": "2913300003"}, "type": "Feature"}
{"geometry": {"coordinates": [-80.776539071, 33.666435722], "type": "Point"}, "id": "cOyOSW03Ur3ZF8RmjihKW0R4Pbk=", "properties": {"@source_uri": "https://tools.usps.com/UspsToolsRestServices/rest/POLocator/findLocations", "@spider": "usps_collection_boxes", "addr:city": "SAINT MATTHEWS", "addr:country": "US", "addr:postcode": "29135", "addr:state": "SC", "addr:street_address": "616 F R HUFF DR", "amenity": "post_box", "collection_times": "Mo-Fr 15:45; Sa 10:45", "note": "ON 12/24 AND 12/31, THIS BOX MAY BE COLLECTED AS EARLY AS 12 NOON.", "nsi_id": "unitedstatespostalservice-a77078", "operator": "United States Postal Service", "operator:short": "USPS", "operator:type": "public", "operator:wikidata": "Q668687", "ref": "2913500001"}, "type": "Feature"}
{"geometry": {"coordinates": [-80.776539071, 33.666435722], "type": "Point"}, "id": "1q4zh5I_p15zpyhnn2Xe4Lw_MKk=", "properties": {"@source_uri": "https://tools.usps.com/UspsToolsRestServices/rest/POLocator/findLocations", "@spider": "usps_collection_boxes", "addr:city": "SAINT MATTHEWS", "addr:country": "US", "addr:postcode": "29135", "addr:state": "SC", "addr:street_address": "616 F R HUFF DR", "amenity": "post_box", "collection_times": "Mo-Fr 15:45; Sa 10:45", "indoor": "yes", "note": "ON 12/24 AND 12/31, THIS BOX MAY BE COLLECTED AS EARLY AS 12 NOON.", "nsi_id": "unitedstatespostalservice-a77078", "operator": "United States Postal Service", "operator:short": "USPS", "operator:type": "public", "operator:wikidata": "Q668687", "ref": "2913500002"}, "type": "Feature"}
{"geometry": {"coordinates": [-80.8788242, 33.632559], "type": "Point"}, "id": "BTA5ri06JCVWzx2IrPosTzIOkGU=", "properties": {"@source_uri": "https://tools.usps.com/UspsToolsRestServices/rest/POLocator/findLocations", "@spider": "usps_collection_boxes", "addr:city": "SAINT MATTHEWS", "addr:country": "US", "addr:postcode": "29135", "addr:state": "SC", "addr:street_address": "1300A BURKE RD", "amenity": "post_box", "collection_times": "Mo-Sa 10:00", "nsi_id": "unitedstatespostalservice-a77078", "operator": "United States Postal Service", "operator:short": "USPS", "operator:type": "public", "operator:wikidata": "Q668687", "ref": "2913500005"}, "type": "Feature"}
{"geometry": {"coordinates": [-80.776539071, 33.666435722], "type": "Point"}, "id": "aYmI3vn9gNfhC8yN67DypAVvQNs=", "properties": {"@source_uri": "https://tools.usps.com/UspsToolsRestServices/rest/POLocator/findLocations", "@spider": "usps_collection_boxes", "addr:city": "SAINT MATTHEWS", "addr:country": "US", "addr:postcode": "29135", "addr:state": "SC", "addr:street_address": "616 F R HUFF DR", "amenity": "post_box", "collection_times": "Mo-Fr 15:45; Sa 10:45", "indoor": "yes", "note": "ON 12/24 AND 12/31, THIS BOX MAY BE COLLECTED AS EARLY AS 12 NOON.", "nsi_id": "unitedstatespostalservice-a77078", "operator": "United States Postal Service", "operator:short": "USPS", "operator:type": "public", "operator:wikidata": "Q668687", "ref": "2913500008"}, "type": "Feature"}
{"geometry": {"coordinates": [-80.776584968, 33.666595008], "type": "Point"}, "id": "F7AmUqeRRfHW9CNOR6LmHWFFBZE=", "properties": {"@source_uri": "https://tools.usps.com/UspsToolsRestServices/rest/POLocator/findLocations", "@spider": "usps_collection_boxes", "addr:city": "SAINT MATTHEWS", "addr:country": "US", "addr:postcode": "29135", "addr:state": "SC", "addr:street_address": "614 F R HUFF DR", "amenity": "post_box", "collection_times": "Mo-Fr 13:00; Sa 10:45", "note": "ON 12/24 AND 12/31, THIS BOX MAY BE COLLECTED AS EARLY AS 12 NOON.", "nsi_id": "unitedstatespostalservice-a77078", "operator": "United States Postal Service", "operator:short": "USPS", "operator:type": "public", "operator:wikidata": "Q668687", "ref": "2913500009"}, "type": "Feature"}
{"geometry": {"coordinates": [-81.303844734, 33.566119848], "type": "Point"}, "id": "I_uaT_44wINxTW01qubSQPec3fE=", "properties": {"@source_uri": "https://tools.usps.com/UspsToolsRestServices/rest/POLocator/findLocations", "@spider": "usps_collection_boxes", "addr:city": "SALLEY", "addr:country": "US", "addr:postcode": "29137", "addr:state": "SC", "addr:street_address": "115 RAILROAD AVE N", "amenity": "post_box", "collection_times": "Mo-Fr 15:45; Sa 09:45", "note": "ON 12/24 AND 12/31, THIS BOX MAY BE COLLECTED AS EARLY AS 12 NOON.", "nsi_id": "unitedstatespostalservice-a77078", "operator": "United States Postal Service", "operator:short": "USPS", "operator:type": "public", "operator:wikidata": "Q668687", "ref": "2913700000"}, "type": "Feature"}
{"geometry": {"coordinates": [-81.303844734, 33.566119848], "type": "Point"}, "id": "kbCXZDI6NW8rtPqu7DlnRR7Fh3Y=", "properties": {"@source_uri": "https://tools.usps.com/UspsToolsRestServices/rest/POLocator/findLocations", "@spider": "usps_collection_boxes", "addr:city": "SALLEY", "addr:country": "US", "addr:postcode": "29137", "addr:state": "SC", "addr:street_address": "115 RAILROAD AVE N", "amenity": "post_box", "collection_times": "Mo-Fr 15:45; Sa 09:45", "indoor": "yes", "note": "ON 12/24 AND 12/31, THIS BOX MAY BE COLLECTED AS EARLY AS 12 NOON.", "nsi_id": "unitedstatespostalservice-a77078", "operator": "United States Postal Service", "operator:short": "USPS", "operator:type": "public", "operator:wikidata": "Q668687", "ref": "2913700001"}, "type": "Feature"}
{"geometry": {"coordinates": [-81.303844734, 33.566119848], "type": "Point"}, "id": "_gmpIMWQ4ESECYupz_E1psSffcs=", "properties": {"@source_uri": "https://tools.usps.com/UspsToolsRestServices/rest/POLocator/findLocations", "@spider": "usps_collection_boxes", "addr:city": "SALLEY", "addr:country": "US", "addr:postcode": "29137", "addr:state": "SC", "addr:street_address": "115 RAILROAD AVE N", "amenity": "post_box", "collection_times": "Mo-Fr 15:45; Sa 09:45", "indoor": "yes", "note": "ON 12/24 AND 12/31, THIS BOX MAY BE COLLECTED AS EARLY AS 12 NOON.", "nsi_id": "unitedstatespostalservice-a77078", "operator": "United States Postal Service", "operator:short": "USPS", "operator:type": "public", "operator:wikidata": "Q668687", "ref": "2913700004"}, "type": "Feature"}
{"geometry": {"coordinates": [-81.762338769, 34.009603589], "type": "Point"}, "id": "iRN0gYwqlS0DU0vfDd3Iyvu70Q8=", "properties": {"@source_uri": "https://tools.usps.com/UspsToolsRestServices/rest/POLocator/findLocations", "@spider": "usps_collection_boxes", "addr:city": "SALUDA", "addr:country": "US", "addr:postcode": "29138", "addr:state": "SC", "addr:street_address": "424 TRAVIS AVE", "amenity": "post_box", "collection_times": "Mo-Fr 15:45; Sa 10:45", "indoor": "yes", "note": "ON 12/24 AND 12/31, THIS BOX MAY BE COLLECTED AS EARLY AS 12 NOON.", "nsi_id": "unitedstatespostalservice-a77078", "operator": "United States Postal Service", "operator:short": "USPS", "operator:type": "public", "operator:wikidata": "Q668687", "ref": "2913800001"}, "type": "Feature"}
{"geometry": {"coordinates": [-81.7722229, 34.001533], "type": "Point"}, "id": "QsPUZvIOoLZa6y5QJVF8TRiyBzs=", "properties": {"@source_uri": "https://tools.usps.com/UspsToolsRestServices/rest/POLocator/findLocations", "@spider": "usps_collection_boxes", "addr:city": "SALUDA", "addr:country": "US", "addr:postcode": "29138", "addr:state": "SC", "addr:street_address": "100 S MAIN ST", "amenity": "post_box", "collection_times": "Mo-Fr 14:00; Sa 10:45", "note": "ON 12/24 AND 12/31, THIS BOX MAY BE COLLECTED AS EARLY AS 12 NOON.", "nsi_id": "unitedstatespostalservice-a77078", "operator": "United States Postal Service", "operator:short": "USPS", "operator:type": "public", "operator:wikidata": "Q668687", "ref": "2913800002"}, "type": "Feature"}
{"geometry": {"coordinates": [-81.762338769, 34.009603589], "type": "Point"}, "id": "Qfd4Gn__FmnDQBl9fU1GEi9eBS4=", "properties": {"@source_uri": "https://tools.usps.com/UspsToolsRestServices/rest/POLocator/findLocations", "@spider": "usps_collection_boxes", "addr:city": "SALUDA", "addr:country": "US", "addr:postcode": "29138", "addr:state": "SC", "addr:street_address": "424 TRAVIS AVE", "amenity": "post_box", "collection_times": "Mo-Fr 15:45; Sa 10:45", "indoor": "yes", "note": "ON 12/24 AND 12/31, THIS BOX MAY BE COLLECTED AS EARLY AS 12 NOON.", "nsi_id": "unitedstatespostalservice-a77078", "operator": "United States Postal Service", "operator:short": "USPS", "operator:type": "public", "operator:wikidata": "Q668687", "ref": "2913800012"}, "type": "Feature"}
{"geometry": {"coordinates": [-81.762338769, 34.009603589], "type": "Point"}, "id": "KRmC5c_sMd0ugKUfac1P6Xj65-w=", "properties": {"@source_uri": "https://tools.usps.com/UspsToolsRestServices/rest/POLocator/findLocations", "@spider": "usps_collection_boxes", "addr:city": "SALUDA", "addr:country": "US", "addr:postcode": "29138", "addr:state": "SC", "addr:street_address": "424 TRAVIS AVE", "amenity": "post_box", "collection_times": "Mo-Fr 15:45; Sa 10:45", "indoor": "yes", "note": "ON 12/24 AND 12/31, THIS BOX MAY BE COLLECTED AS EARLY AS 12 NOON.", "nsi_id": "unitedstatespostalservice-a77078", "operator": "United States Postal Service", "operator:short": "USPS", "operator:type": "public", "operator:wikidata": "Q668687", "ref": "2913800013"}, "type": "Feature"}
{"geometry": {"coordinates": [-81.762338769, 34.009603589], "type": "Point"}, "id": "8ZWnOJAF6LfKG2lj_yIB0Uph_Rg=", "properties": {"@source_uri": "https://tools.usps.com/UspsToolsRestServices/rest/POLocator/findLocations", "@spider": "usps_collection_boxes", "addr:city": "SALUDA", "addr:country": "US", "addr:postcode": "29138", "addr:state": "SC", "addr:street_address": "424 TRAVIS AVE", "amenity": "post_box", "collection_times": "Mo-Fr 15:45; Sa 10:45", "indoor": "yes", "note": "ON 12/24 AND 12/31, THIS BOX MAY BE COLLECTED AS EARLY AS 12 NOON.", "nsi_id": "unitedstatespostalservice-a77078", "operator": "United States Postal Service", "operator:short": "USPS", "operator:type": "public", "operator:wikidata": "Q668687", "ref": "2913800014"}, "type": "Feature"}
{"geometry": {"coordinates": [-81.76946, 34.001025], "type": "Point"}, "id": "4yfg6uVLmvoeM2otmzphjHORgZA=", "properties": {"@source_uri": "https://tools.usps.com/UspsToolsRestServices/rest/POLocator/findLocations", "@spider": "usps_collection_boxes", "addr:city": "SALUDA", "addr:country": "US", "addr:postcode": "29138", "addr:state": "SC", "addr:street_address": "424 TRAVIS AVE", "amenity": "post_box", "collection_times": "Mo-Fr 15:45; Sa 10:45", "note": "ON 12/24 AND 12/31, THIS BOX MAY BE COLLECTED AS EARLY AS 12 NOON.", "nsi_id": "unitedstatespostalservice-a77078", "operator": "United States Postal Service", "operator:short": "USPS", "operator:type": "public", "operator:wikidata": "Q668687", "ref": "2913800015"}, "type": "Feature"}
{"geometry": {"coordinates": [-81.762338769, 34.009603589], "type": "Point"}, "id": "KTSHf7C0KN4JAqR4cIH_XHOMQKQ=", "properties": {"@source_uri": "https://tools.usps.com/UspsToolsRestServices/rest/POLocator/findLocations", "@spider": "usps_collection_boxes", "addr:city": "SALUDA", "addr:country": "US", "addr:postcode": "29138", "addr:state": "SC", "addr:street_address": "424 TRAVIS AVE", "amenity": "post_box", "collection_times": "Mo-Fr 15:45; Sa 10:45", "indoor": "yes", "note": "ON 12/24 AND 12/31, THIS BOX MAY BE COLLECTED AS EARLY AS 12 NOON.", "nsi_id": "unitedstatespostalservice-a77078", "operator": "United States Postal Service", "operator:short": "USPS", "operator:type": "public", "operator:wikidata": "Q668687", "ref": "2913800019"}, "type": "Feature"}
{"geometry": {"coordinates": [-80.478915761, 33.484250359], "type": "Point"}, "id": "kRe-Z5-rQrrf0I_uzPgYC2csmbQ=", "properties": {"@source_uri": "https://tools.usps.com/UspsToolsRestServices/rest/POLocator/findLocations", "@spider": "usps_collection_boxes", "addr:city": "SANTEE", "addr:country": "US", "addr:postcode": "29142", "addr:state": "SC", "addr:street_address": "689 BASS DR", "amenity": "post_box", "collection_times": "Mo-Fr 15:45; Sa 09:45", "note": "ON 12/24 AND 12/31, THIS BOX MAY BE COLLECTED AS EARLY AS 12 NOON.", "nsi_id": "unitedstatespostalservice-a77078", "operator": "United States Postal Service", "operator:short": "USPS", "operator:type": "public", "operator:wikidata": "Q668687", "ref": "2914200000"}, "type": "Feature"}
{"geometry": {"coordinates": [-80.478915761, 33.484250359], "type": "Point"}, "id": "e1beM0uXLmZgtVWZlxO9dba0sqo=", "properties": {"@source_uri": "https://tools.usps.com/UspsToolsRestServices/rest/POLocator/findLocations", "@spider": "usps_collection_boxes", "addr:city": "SANTEE", "addr:country": "US", "addr:postcode": "29142", "addr:state": "SC", "addr:street_address": "689 BASS DR", "amenity": "post_box", "collection_times": "Mo-Fr 15:45; Sa 09:45", "indoor": "yes", "note": "ON 12/24 AND 12/31, THIS BOX MAY BE COLLECTED AS EARLY AS 12 NOON.", "nsi_id": "unitedstatespostalservice-a77078", "operator": "United States Postal Service", "operator:short": "USPS", "operator:type": "public", "operator:wikidata": "Q668687", "ref": "2914200001"}, "type": "Feature"}
{"geometry": {"coordinates": [-80.4725959, 33.477927], "type": "Point"}, "id": "FLXUzw_NZr8XBsqXJu39QOZ1lIk=", "properties": {"@source_uri": "https://tools.usps.com/UspsToolsRestServices/rest/POLocator/findLocations", "@spider": "usps_collection_boxes", "addr:city": "SANTEE", "addr:country": "US", "addr:postcode": "29142", "addr:state": "SC", "addr:street_address": "250 PLAZA CIR", "amenity": "post_box", "collection_times": "Mo-Fr 09:00", "nsi_id": "unitedstatespostalservice-a77078", "operator": "United States Postal Service", "operator:short": "USPS", "operator:type": "public", "operator:wikidata": "Q668687", "ref": "2914200002"}, "type": "Feature"}
{"geometry": {"coordinates": [-80.478915761, 33.484250359], "type": "Point"}, "id": "PI0_A-eKn5HbXA-MEvUITe_AxHE=", "properties": {"@source_uri": "https://tools.usps.com/UspsToolsRestServices/rest/POLocator/findLocations", "@spider": "usps_collection_boxes", "addr:city": "SANTEE", "addr:country": "US", "addr:postcode": "29142", "addr:state": "SC", "addr:street_address": "689 BASS DR", "amenity": "post_box", "collection_times": "Mo-Fr 15:45; Sa 09:45", "indoor": "yes", "note": "ON 12/24 AND 12/31, THIS BOX MAY BE COLLECTED AS EARLY AS 12 NOON.", "nsi_id": "unitedstatespostalservice-a77078", "operator": "United States Postal Service", "operator:short": "USPS", "operator:type": "public", "operator:wikidata": "Q668687", "ref": "2914200003"}, "type": "Feature"}
{"geometry": {"coordinates": [-80.478915761, 33.484250359], "type": "Point"}, "id": "6XaJig4RVLQQ2zV82MWMyd7rrfY=", "properties": {"@source_uri": "https://tools.usps.com/UspsToolsRestServices/rest/POLocator/findLocations", "@spider": "usps_collection_boxes", "addr:city": "SANTEE", "addr:country": "US", "addr:postcode": "29142", "addr:state": "SC", "addr:street_address": "689 BASS DR", "amenity": "post_box", "collection_times": "Mo-Fr 15:45; Sa 09:45", "indoor": "yes", "note": "ON 12/24 AND 12/31, THIS BOX MAY BE COLLECTED AS EARLY AS 12 NOON.", "nsi_id": "unitedstatespostalservice-a77078", "operator": "United States Postal Service", "operator:short": "USPS", "operator:type": "public", "operator:wikidata": "Q668687", "ref": "2914200008"}, "type": "Feature"}
{"geometry": {"coordinates": [-81.716016732, 34.218351815], "type": "Point"}, "id": "fKzuFMzv_OoACoWv_SVH309_77I=", "properties": {"@source_uri": "https://tools.usps.com/UspsToolsRestServices/rest/POLocator/findLocations", "@spider": "usps_collection_boxes", "addr:city": "SILVERSTREET", "addr:country": "US", "addr:postcode": "29145", "addr:state": "SC", "addr:street_address": "1195 MAIN ST", "amenity": "post_box", "collection_times": "Mo-Fr 15:45; Sa 09:45", "note": "ON 12/24 AND 12/31, THIS BOX MAY BE COLLECTED AS EARLY AS 12 NOON.", "nsi_id": "unitedstatespostalservice-a77078", "operator": "United States Postal Service", "operator:short": "USPS", "operator:type": "public", "operator:wikidata": "Q668687", "ref": "2914500000"}, "type": "Feature"}
{"geometry": {"coordinates": [-81.716016732, 34.218351815], "type": "Point"}, "id": "3HeuTi_lGd43XVOwz8i7vkmrV4Y=", "properties": {"@source_uri": "https://tools.usps.com/UspsToolsRestServices/rest/POLocator/findLocations", "@spider": "usps_collection_boxes", "addr:city": "SILVERSTREET", "addr:country": "US", "addr:postcode": "29145", "addr:state": "SC", "addr:street_address": "1195 MAIN ST", "amenity": "post_box", "collection_times": "Mo-Fr 15:45; Sa 09:45", "indoor": "yes", "note": "ON 12/24 AND 12/31, THIS BOX MAY BE COLLECTED AS EARLY AS 12 NOON.", "nsi_id": "unitedstatespostalservice-a77078", "operator": "United States Postal Service", "operator:short": "USPS", "operator:type": "public", "operator:wikidata": "Q668687", "ref": "2914500001"}, "type": "Feature"}
{"geometry": {"coordinates": [-81.716016732, 34.218351815], "type": "Point"}, "id": "SB5gGlyzMHsc5j9drjuiayu946Q=", "properties": {"@source_uri": "https://tools.usps.com/UspsToolsRestServices/rest/POLocator/findLocations", "@spider": "usps_collection_boxes", "addr:city": "SILVERSTREET", "addr:country": "US", "addr:postcode": "29145", "addr:state": "SC", "addr:street_address": "1195 MAIN ST", "amenity": "post_box", "collection_times": "Mo-Fr 15:45; Sa 09:45", "indoor": "yes", "note": "ON 12/24 AND 12/31, THIS BOX MAY BE COLLECTED AS EARLY AS 12 NOON.", "nsi_id": "unitedstatespostalservice-a77078", "operator": "United States Postal Service", "operator:short": "USPS", "operator:type": "public", "operator:wikidata": "Q668687", "ref": "2914500003"}, "type": "Feature"}
{"geometry": {"coordinates": [-81.279787546, 33.49671167], "type": "Point"}, "id": "h5lsZ_BcZH7GV1VeeTWjff3j0TI=", "properties": {"@source_uri": "https://tools.usps.com/UspsToolsRestServices/rest/POLocator/findLocations", "@spider": "usps_collection_boxes", "addr:city": "SPRINGFIELD", "addr:country": "US", "addr:postcode": "29146", "addr:state": "SC", "addr:street_address": "7220 FESTIVAL TRAIL RD", "amenity": "post_box", "collection_times": "Mo-Fr 15:45; Sa 09:45", "note": "ON 12/24 AND 12/31, THIS BOX MAY BE COLLECTED AS EARLY AS 12 NOON.", "nsi_id": "unitedstatespostalservice-a77078", "operator": "United States Postal Service", "operator:short": "USPS", "operator:type": "public", "operator:wikidata": "Q668687", "ref": "2914600000"}, "type": "Feature"}
{"geometry": {"coordinates": [-81.279787546, 33.49671167], "type": "Point"}, "id": "Ep-giiCkH0ImKdLv4DhL41Aepak=", "properties": {"@source_uri": "https://tools.usps.com/UspsToolsRestServices/rest/POLocator/findLocations", "@spider": "usps_collection_boxes", "addr:city": "SPRINGFIELD", "addr:country": "US", "addr:postcode": "29146", "addr:state": "SC", "addr:street_address": "7220 FESTIVAL TRAIL RD", "amenity": "post_box", "collection_times": "Mo-Fr 15:45; Sa 09:45", "indoor": "yes", "note": "ON 12/24 AND 12/31, THIS BOX MAY BE COLLECTED AS EARLY AS 12 NOON.", "nsi_id": "unitedstatespostalservice-a77078", "operator": "United States Postal Service", "operator:short": "USPS", "operator:type": "public", "operator:wikidata": "Q668687", "ref": "2914600001"}, "type": "Feature"}
{"geometry": {"coordinates": [-81.279787546, 33.49671167], "type": "Point"}, "id": "1jj714RzyiYgaJ-TYS2UjpMGhAE=", "properties": {"@source_uri": "https://tools.usps.com/UspsToolsRestServices/rest/POLocator/findLocations", "@spider": "usps_collection_boxes", "addr:city": "SPRINGFIELD", "addr:country": "US", "addr:postcode": "29146", "addr:state": "SC", "addr:street_address": "7220 FESTIVAL TRAIL RD", "amenity": "post_box", "collection_times": "Mo-Fr 15:45; Sa 09:30", "indoor": "yes", "note": "ON 12/24 AND 12/31, THIS BOX MAY BE COLLECTED AS EARLY AS 12 NOON.", "nsi_id": "unitedstatespostalservice-a77078", "operator": "United States Postal Service", "operator:short": "USPS", "operator:type": "public", "operator:wikidata": "Q668687", "ref": "2914600003"}, "type": "Feature"}
{"geometry": {"coordinates": [-80.96828133, 34.089185173], "type": "Point"}, "id": "RT4raNTh6NdpE1rrrXFsBQeZE0w=", "properties": {"@source_uri": "https://tools.usps.com/UspsToolsRestServices/rest/POLocator/findLocations", "@spider": "usps_collection_boxes", "addr:city": "STATE PARK", "addr:country": "US", "addr:postcode": "29147", "addr:state": "SC", "addr:street_address": "20 HINTON ST", "amenity": "post_box", "collection_times": "Mo-Fr 15:45", "note": "ON 12/24 AND 12/31, THIS BOX MAY BE COLLECTED AS EARLY AS 12 NOON.", "nsi_id": "unitedstatespostalservice-a77078", "operator": "United States Postal Service", "operator:short": "USPS", "operator:type": "public", "operator:wikidata": "Q668687", "ref": "2914700000"}, "type": "Feature"}
{"geometry": {"coordinates": [-80.96828133, 34.089185173], "type": "Point"}, "id": "4el3Afs4xM01A4lzrlEMokGch4w=", "properties": {"@source_uri": "https://tools.usps.com/UspsToolsRestServices/rest/POLocator/findLocations", "@spider": "usps_collection_boxes", "addr:city": "STATE PARK", "addr:country": "US", "addr:postcode": "29147", "addr:state": "SC", "addr:street_address": "20 HINTON ST", "amenity": "post_box", "collection_times": "Mo-Fr 15:45", "indoor": "yes", "note": "ON 12/24 AND 12/31, THIS BOX MAY BE COLLECTED AS EARLY AS 12 NOON.", "nsi_id": "unitedstatespostalservice-a77078", "operator": "United States Postal Service", "operator:short": "USPS", "operator:type": "public", "operator:wikidata": "Q668687", "ref": "2914700001"}, "type": "Feature"}
{"geometry": {"coordinates": [-80.96828133, 34.089185173], "type": "Point"}, "id": "3NKJtofWMSmKcpSsQY-B5F4xJ34=", "properties": {"@source_uri": "https://tools.usps.com/UspsToolsRestServices/rest/POLocator/findLocations", "@spider": "usps_collection_boxes", "addr:city": "STATE PARK", "addr:country": "US", "addr:postcode": "29147", "addr:state": "SC", "addr:street_address": "20 HINTON ST", "amenity": "post_box", "collection_times": "Mo-Fr 15:45", "indoor": "yes", "note": "ON 12/24 AND 12/31, THIS BOX MAY BE COLLECTED AS EARLY AS 12 NOON.", "nsi_id": "unitedstatespostalservice-a77078", "operator": "United States Postal Service", "operator:short": "USPS", "operator:type": "public", "operator:wikidata": "Q668687", "ref": "2914700003"}, "type": "Feature"}
{"geometry": {"coordinates": [-80.353959643, 33.608616356], "type": "Point"}, "id": "Wty14RDkIzLwkWkUym0x83OUaDY=", "properties": {"@source_uri": "https://tools.usps.com/UspsToolsRestServices/rest/POLocator/findLocations", "@spider": "usps_collection_boxes", "addr:city": "SUMMERTON", "addr:country": "US", "addr:postcode": "29148", "addr:state": "SC", "addr:street_address": "4 LARRY KING HWY", "amenity": "post_box", "collection_times": "Mo-Fr 15:45; Sa 09:45", "note": "ON 12/24 AND 12/31, THIS BOX MAY BE COLLECTED AS EARLY AS 12 NOON.", "nsi_id": "unitedstatespostalservice-a77078", "operator": "United States Postal Service", "operator:short": "USPS", "operator:type": "public", "operator:wikidata": "Q668687", "ref": "2914800000"}, "type": "Feature"}
{"geometry": {"coordinates": [-80.353959643, 33.608616356], "type": "Point"}, "id": "N2gUvJDt2c_k0Cqu1gFzRGm615c=", "properties": {"@source_uri": "https://tools.usps.com/UspsToolsRestServices/rest/POLocator/findLocations", "@spider": "usps_collection_boxes", "addr:city": "SUMMERTON", "addr:country": "US", "addr:postcode": "29148", "addr:state": "SC", "addr:street_address": "4 LARRY KING HWY", "amenity": "post_box", "collection_times": "Mo-Fr 15:45; Sa 09:45", "indoor": "yes", "note": "ON 12/24 AND 12/31, THIS BOX MAY BE COLLECTED AS EARLY AS 12 NOON.", "nsi_id": "unitedstatespostalservice-a77078", "operator": "United States Postal Service", "operator:short": "USPS", "operator:type": "public", "operator:wikidata": "Q668687", "ref": "2914800002"}, "type": "Feature"}
{"geometry": {"coordinates": [-80.353959643, 33.608616356], "type": "Point"}, "id": "zGU_YxzsR7oxonHwfD3BTckiqTI=", "properties": {"@source_uri": "https://tools.usps.com/UspsToolsRestServices/rest/POLocator/findLocations", "@spider": "usps_collection_boxes", "addr:city": "SUMMERTON", "addr:country": "US", "addr:postcode": "29148", "addr:state": "SC", "addr:street_address": "4 LARRY KING HWY", "amenity": "post_box", "collection_times": "Mo-Fr 15:45; Sa 09:45", "indoor": "yes", "note": "ON 12/24 AND 12/31, THIS BOX MAY BE COLLECTED AS EARLY AS 12 NOON.", "nsi_id": "unitedstatespostalservice-a77078", "operator": "United States Postal Service", "operator:short": "USPS", "operator:type": "public", "operator:wikidata": "Q668687", "ref": "2914800005"}, "type": "Feature"}
{"geometry": {"coordinates": [-80.353959643, 33.608616356], "type": "Point"}, "id": "v5jJb1OV4ryabSUO7b8raaft4d4=", "properties": {"@source_uri": "https://tools.usps.com/UspsToolsRestServices/rest/POLocator/findLocations", "@spider": "usps_collection_boxes", "addr:city": "SUMMERTON", "addr:country": "US", "addr:postcode": "29148", "addr:state": "SC", "addr:street_address": "4 LARRY KING HWY", "amenity": "post_box", "collection_times": "Mo-Fr 15:45; Sa 09:45", "indoor": "yes", "note": "ON 12/24 AND 12/31, THIS BOX MAY BE COLLECTED AS EARLY AS 12 NOON.", "nsi_id": "unitedstatespostalservice-a77078", "operator": "United States Postal Service", "operator:short": "USPS", "operator:type": "public", "operator:wikidata": "Q668687", "ref": "2914800006"}, "type": "Feature"}
{"geometry": {"coordinates": [-80.341159537, 33.925263515], "type": "Point"}, "id": "8V0kasQtUdVQCFa51UINDLR2oEE=", "properties": {"@source_uri": "https://tools.usps.com/UspsToolsRestServices/rest/POLocator/findLocations", "@spider": "usps_collection_boxes", "addr:city": "SUMTER", "addr:country": "US", "addr:postcode": "29150", "addr:state": "SC", "addr:street_address": "311 N MAIN ST", "amenity": "post_box", "collection_times": "Mo-Sa 17:00", "note": "ON 12/24 AND 12/31, THIS BOX MAY BE COLLECTED AS EARLY AS 12 NOON.", "nsi_id": "unitedstatespostalservice-a77078", "operator": "United States Postal Service", "operator:short": "USPS", "operator:type": "public", "operator:wikidata": "Q668687", "ref": "2915000005"}, "type": "Feature"}
{"geometry": {"coordinates": [-80.341159537, 33.925263515], "type": "Point"}, "id": "gXdy4PKPYvPabtCvYZ-0ZTQyKWs=", "properties": {"@source_uri": "https://tools.usps.com/UspsToolsRestServices/rest/POLocator/findLocations", "@spider": "usps_collection_boxes", "addr:city": "SUMTER", "addr:country": "US", "addr:postcode": "29150", "addr:state": "SC", "addr:street_address": "311 N MAIN ST", "amenity": "post_box", "collection_times": "Mo-Sa 17:00", "indoor": "yes", "note": "ON 12/24 AND 12/31, THIS BOX MAY BE COLLECTED AS EARLY AS 12 NOON.", "nsi_id": "unitedstatespostalservice-a77078", "operator": "United States Postal Service", "operator:short": "USPS", "operator:type": "public", "operator:wikidata": "Q668687", "ref": "2915000008"}, "type": "Feature"}
{"geometry": {"coordinates": [-80.341159537, 33.925263515], "type": "Point"}, "id": "UwpSQkz5MmMqSW0aUONmWB-2rvo=", "properties": {"@source_uri": "https://tools.usps.com/UspsToolsRestServices/rest/POLocator/findLocations", "@spider": "usps_collection_boxes", "addr:city": "SUMTER", "addr:country": "US", "addr:postcode": "29150", "addr:state": "SC", "addr:street_address": "311 N MAIN ST", "amenity": "post_box", "collection_times": "Mo-Sa 17:00", "indoor": "yes", "note": "ON 12/24 AND 12/31, THIS BOX MAY BE COLLECTED AS EARLY AS 12 NOON.", "nsi_id": "unitedstatespostalservice-a77078", "operator": "United States Postal Service", "operator:short": "USPS", "operator:type": "public", "operator:wikidata": "Q668687", "ref": "2915000009"}, "type": "Feature"}
{"geometry": {"coordinates": [-80.341159537, 33.925263515], "type": "Point"}, "id": "RFwmzdY0ejVQ1h0Ez_fx7szgLhA=", "properties": {"@source_uri": "https://tools.usps.com/UspsToolsRestServices/rest/POLocator/findLocations", "@spider": "usps_collection_boxes", "addr:city": "SUMTER", "addr:country": "US", "addr:postcode": "29150", "addr:state": "SC", "addr:street_address": "311 N MAIN ST", "amenity": "post_box", "collection_times": "Mo-Sa 17:00", "indoor": "yes", "note": "ON 12/24 AND 12/31, THIS BOX MAY BE COLLECTED AS EARLY AS 12 NOON.", "nsi_id": "unitedstatespostalservice-a77078", "operator": "United States Postal Service", "operator:short": "USPS", "operator:type": "public", "operator:wikidata": "Q668687", "ref": "2915000010"}, "type": "Feature"}
{"geometry": {"coordinates": [-80.3401430418, 33.9230719832], "type": "Point"}, "id": "oZIn4oHifAh0uDOPUbfKUknAjU0=", "properties": {"@source_uri": "https://tools.usps.com/UspsToolsRestServices/rest/POLocator/findLocations", "@spider": "usps_collection_boxes", "addr:city": "SUMTER", "addr:country": "US", "addr:postcode": "29150", "addr:state": "SC", "addr:street_address": "13 E CANAL ST", "amenity": "post_box", "collection_times": "Mo-Fr 11:30", "nsi_id": "unitedstatespostalservice-a77078", "operator": "United States Postal Service", "operator:short": "USPS", "operator:type": "public", "operator:wikidata": "Q668687", "ref": "2915000011"}, "type": "Feature"}
{"geometry": {"coordinates": [-80.3379270343, 33.9211969934], "type": "Point"}, "id": "1DFCsOeTbgYnOtAObidPgKFdMC8=", "properties": {"@source_uri": "https://tools.usps.com/UspsToolsRestServices/rest/POLocator/findLocations", "@spider": "usps_collection_boxes", "addr:city": "SUMTER", "addr:country": "US", "addr:postcode": "29150", "addr:state": "SC", "addr:street_address": "20 N MAGNOLIA ST", "amenity": "post_box", "collection_times": "Mo-Fr 10:30; Sa 12:45", "note": "ON 12/24 AND 12/31, THIS BOX MAY BE COLLECTED AS EARLY AS 12 NOON.", "nsi_id": "unitedstatespostalservice-a77078", "operator": "United States Postal Service", "operator:short": "USPS", "operator:type": "public", "operator:wikidata": "Q668687", "ref": "2915000012"}, "type": "Feature"}
{"geometry": {"coordinates": [-80.3757288, 33.953483], "type": "Point"}, "id": "BhBDPSMN_a6tx-qRYgWfJWxTYjA=", "properties": {"@source_uri": "https://tools.usps.com/UspsToolsRestServices/rest/POLocator/findLocations", "@spider": "usps_collection_boxes", "addr:city": "SUMTER", "addr:country": "US", "addr:postcode": "29150", "addr:state": "SC", "addr:street_address": "1121 BROAD ST", "amenity": "post_box", "collection_times": "Mo-Sa 14:00", "note": "ON 12/24 AND 12/31, THIS BOX MAY BE COLLECTED AS EARLY AS 12 NOON.", "nsi_id": "unitedstatespostalservice-a77078", "operator": "United States Postal Service", "operator:short": "USPS", "operator:type": "public", "operator:wikidata": "Q668687", "ref": "2915000024"}, "type": "Feature"}
{"geometry": {"coordinates": [-80.3901209777, 33.9555829968], "type": "Point"}, "id": "uD6N3BB214lSWyuuvkri-QiFcBI=", "properties": {"@source_uri": "https://tools.usps.com/UspsToolsRestServices/rest/POLocator/findLocations", "@spider": "usps_collection_boxes", "addr:city": "SUMTER", "addr:country": "US", "addr:postcode": "29150", "addr:state": "SC", "addr:street_address": "1300 BROAD ST", "amenity": "post_box", "collection_times": "Mo-Sa 14:00", "note": "ON 12/24 AND 12/31, THIS BOX MAY BE COLLECTED AS EARLY AS 12 NOON.", "nsi_id": "unitedstatespostalservice-a77078", "operator": "United States Postal Service", "operator:short": "USPS", "operator:type": "public", "operator:wikidata": "Q668687", "ref": "2915000029"}, "type": "Feature"}
{"geometry": {"coordinates": [-80.3681139, 33.931513], "type": "Point"}, "id": "BLSCur-eCJK5wCfieBvedSKhhag=", "properties": {"@source_uri": "https://tools.usps.com/UspsToolsRestServices/rest/POLocator/findLocations", "@spider": "usps_collection_boxes", "addr:city": "SUMTER", "addr:country": "US", "addr:postcode": "29150", "addr:state": "SC", "addr:street_address": "493 N GUIGNARD DR", "amenity": "post_box", "collection_times": "Mo-Sa 13:45", "note": "ON 12/24 AND 12/31, THIS BOX MAY BE COLLECTED AS EARLY AS 12 NOON.", "nsi_id": "unitedstatespostalservice-a77078", "operator": "United States Postal Service", "operator:short": "USPS", "operator:type": "public", "operator:wikidata": "Q668687", "ref": "2915000035"}, "type": "Feature"}
{"geometry": {"coordinates": [-80.34149104, 33.922231376], "type": "Point"}, "id": "j0h7eCIZ3zDZnIUB2S2Lmpn-aT0=", "properties": {"@source_uri": "https://tools.usps.com/UspsToolsRestServices/rest/POLocator/findLocations", "@spider": "usps_collection_boxes", "addr:city": "SUMTER", "addr:country": "US", "addr:postcode": "29150", "addr:state": "SC", "addr:street_address": "119 N MAIN ST", "amenity": "post_box", "collection_times": "Mo-Fr 17:00; Sa 13:00", "note": "ON 12/24 AND 12/31, THIS BOX MAY BE COLLECTED AS EARLY AS 12 NOON.", "nsi_id": "unitedstatespostalservice-a77078", "operator": "United States Postal Service", "operator:short": "USPS", "operator:type": "public", "operator:wikidata": "Q668687", "ref": "2915000043"}, "type": "Feature"}
{"geometry": {"coordinates": [-80.3435526, 33.923098], "type": "Point"}, "id": "Zur9wXsHc4glen6DQLHr7Ui3rIY=", "properties": {"@source_uri": "https://tools.usps.com/UspsToolsRestServices/rest/POLocator/findLocations", "@spider": "usps_collection_boxes", "addr:city": "SUMTER", "addr:country": "US", "addr:postcode": "29150", "addr:state": "SC", "addr:street_address": "101 W CANAL ST", "amenity": "post_box", "collection_times": "Mo-Sa 13:00", "note": "ON 12/24 AND 12/31, THIS BOX MAY BE COLLECTED AS EARLY AS 12 NOON.", "nsi_id": "unitedstatespostalservice-a77078", "operator": "United States Postal Service", "operator:short": "USPS", "operator:type": "public", "operator:wikidata": "Q668687", "ref": "2915000045"}, "type": "Feature"}
{"geometry": {"coordinates": [-80.3385329621, 33.9237569943], "type": "Point"}, "id": "4yA3XhbiVeV3IrG9rrAh2ObYHF8=", "properties": {"@source_uri": "https://tools.usps.com/UspsToolsRestServices/rest/POLocator/findLocations", "@spider": "usps_collection_boxes", "addr:city": "SUMTER", "addr:country": "US", "addr:postcode": "29150", "addr:state": "SC", "addr:street_address": "32 E CALHOUN ST", "amenity": "post_box", "collection_times": "Mo-Sa 12:45", "note": "ON 12/24 AND 12/31, THIS BOX MAY BE COLLECTED AS EARLY AS 12 NOON.", "nsi_id": "unitedstatespostalservice-a77078", "operator": "United States Postal Service", "operator:short": "USPS", "operator:type": "public", "operator:wikidata": "Q668687", "ref": "2915000065"}, "type": "Feature"}
{"geometry": {"coordinates": [-80.380201, 33.904286], "type": "Point"}, "id": "lmsDBk-iVR9v-tGYrmr0Ih1IlWg=", "properties": {"@source_uri": "https://tools.usps.com/UspsToolsRestServices/rest/POLocator/findLocations", "@spider": "usps_collection_boxes", "addr:city": "SUMTER", "addr:country": "US", "addr:postcode": "29150", "addr:state": "SC", "addr:street_address": "360 PINEWOOD RD", "amenity": "post_box", "collection_times": "Mo-Sa 13:15", "note": "ON 12/24 AND 12/31, THIS BOX MAY BE COLLECTED AS EARLY AS 12 NOON.", "nsi_id": "unitedstatespostalservice-a77078", "operator": "United States Postal Service", "operator:short": "USPS", "operator:type": "public", "operator:wikidata": "Q668687", "ref": "2915000068"}, "type": "Feature"}
{"geometry": {"coordinates": [-80.3434445, 33.922751], "type": "Point"}, "id": "5I2R2o13kU7RuqfqO_O-ASyLvqQ=", "properties": {"@source_uri": "https://tools.usps.com/UspsToolsRestServices/rest/POLocator/findLocations", "@spider": "usps_collection_boxes", "addr:city": "SUMTER", "addr:country": "US", "addr:postcode": "29150", "addr:state": "SC", "addr:street_address": "115 N SUMTER ST", "amenity": "post_box", "collection_times": "Mo-Sa 13:00", "note": "ON 12/24 AND 12/31, THIS BOX MAY BE COLLECTED AS EARLY AS 12 NOON.", "nsi_id": "unitedstatespostalservice-a77078", "operator": "United States Postal Service", "operator:short": "USPS", "operator:type": "public", "operator:wikidata": "Q668687", "ref": "2915000070"}, "type": "Feature"}
{"geometry": {"coordinates": [-80.34323, 33.9057], "type": "Point"}, "id": "nbTVBWik2rqIHll6DyF60xCf_dg=", "properties": {"@source_uri": "https://tools.usps.com/UspsToolsRestServices/rest/POLocator/findLocations", "@spider": "usps_collection_boxes", "addr:city": "SUMTER", "addr:country": "US", "addr:postcode": "29150", "addr:state": "SC", "addr:street_address": "1455 S GUIGNARD DR", "amenity": "post_box", "collection_times": "Mo-Fr 16:00; Sa 13:00", "note": "ON 12/24 AND 12/31, THIS BOX MAY BE COLLECTED AS EARLY AS 12 NOON.", "nsi_id": "unitedstatespostalservice-a77078", "operator": "United States Postal Service", "operator:short": "USPS", "operator:type": "public", "operator:wikidata": "Q668687", "ref": "2915000073"}, "type": "Feature"}
{"geometry": {"coordinates": [-80.3995633, 33.955075], "type": "Point"}, "id": "ddnh3NN8Oac-gjd0VXZRatUDb_w=", "properties": {"@source_uri": "https://tools.usps.com/UspsToolsRestServices/rest/POLocator/findLocations", "@spider": "usps_collection_boxes", "addr:city": "SUMTER", "addr:country": "US", "addr:postcode": "29150", "addr:state": "SC", "addr:street_address": "1254 WILSON HALL RD", "amenity": "post_box", "collection_times": "Mo-Sa 14:00", "note": "ON 12/24 AND 12/31, THIS BOX MAY BE COLLECTED AS EARLY AS 12 NOON.", "nsi_id": "unitedstatespostalservice-a77078", "operator": "United States Postal Service", "operator:short": "USPS", "operator:type": "public", "operator:wikidata": "Q668687", "ref": "2915000076"}, "type": "Feature"}
{"geometry": {"coordinates": [-80.341159537, 33.925263515], "type": "Point"}, "id": "HDp6aoyYxHOL4artaup_tQ4F4QU=", "properties": {"@source_uri": "https://tools.usps.com/UspsToolsRestServices/rest/POLocator/findLocations", "@spider": "usps_collection_boxes", "addr:city": "SUMTER", "addr:country": "US", "addr:postcode": "29150", "addr:state": "SC", "addr:street_address": "311 N MAIN ST", "amenity": "post_box", "collection_times": "Mo-Sa 17:00", "name": "USPS COLLECTION BOX - APC", "note": "ON 12/24 AND 12/31, THIS BOX MAY BE COLLECTED AS EARLY AS 12 NOON.", "nsi_id": "unitedstatespostalservice-a77078", "operator": "United States Postal Service", "operator:short": "USPS", "operator:type": "public", "operator:wikidata": "Q668687", "ref": "2915000081"}, "type": "Feature"}
{"geometry": {"coordinates": [-80.34323, 33.9057], "type": "Point"}, "id": "0TxEmsZV0KjYmk2U_Be3N6JATwA=", "properties": {"@source_uri": "https://tools.usps.com/UspsToolsRestServices/rest/POLocator/findLocations", "@spider": "usps_collection_boxes", "addr:city": "SUMTER", "addr:country": "US", "addr:postcode": "29150", "addr:state": "SC", "addr:street_address": "311 N MAIN ST", "amenity": "post_box", "collection_times": "Mo-Fr 16:30; Sa 14:00", "indoor": "yes", "note": "ON 12/24 AND 12/31, THIS BOX MAY BE COLLECTED AS EARLY AS 12 NOON.", "nsi_id": "unitedstatespostalservice-a77078", "operator": "United States Postal Service", "operator:short": "USPS", "operator:type": "public", "operator:wikidata": "Q668687", "ref": "2915000093"}, "type": "Feature"}
{"geometry": {"coordinates": [-80.3721179908, 33.9467149852], "type": "Point"}, "id": "0_1RraKw4JM8jG1HVML5lCBWuKg=", "properties": {"@source_uri": "https://tools.usps.com/UspsToolsRestServices/rest/POLocator/findLocations", "@spider": "usps_collection_boxes", "addr:city": "SUMTER", "addr:country": "US", "addr:postcode": "29150", "addr:state": "SC", "addr:street_address": "1011 BROAD ST", "amenity": "post_box", "collection_times": "Mo-Fr 13:15", "indoor": "yes", "note": "ON 12/24 AND 12/31, THIS BOX MAY BE COLLECTED AS EARLY AS 12 NOON.", "nsi_id": "unitedstatespostalservice-a77078", "operator": "United States Postal Service", "operator:short": "USPS", "operator:type": "public", "operator:wikidata": "Q668687", "ref": "2915000096"}, "type": "Feature"}
{"geometry": {"coordinates": [-80.480962024, 33.971999189], "type": "Point"}, "id": "jeDKgO3TYR_Nm8W0dCVECk0W6G0=", "properties": {"@source_uri": "https://tools.usps.com/UspsToolsRestServices/rest/POLocator/findLocations", "@spider": "usps_collection_boxes", "addr:city": "SHAW AFB", "addr:country": "US", "addr:postcode": "29152", "addr:state": "SC", "addr:street_address": "510 NELSON AVE", "amenity": "post_box", "collection_times": "Mo-Fr 16:00; Sa 13:00", "note": "ON 12/24 AND 12/31, THIS BOX MAY BE COLLECTED AS EARLY AS 12 NOON.", "nsi_id": "unitedstatespostalservice-a77078", "operator": "United States Postal Service", "operator:short": "USPS", "operator:type": "public", "operator:wikidata": "Q668687", "ref": "2915200008"}, "type": "Feature"}
{"geometry": {"coordinates": [-80.480962024, 33.971999189], "type": "Point"}, "id": "aDxk6w3uxyMyrwtJ4i8FLR5JviQ=", "properties": {"@source_uri": "https://tools.usps.com/UspsToolsRestServices/rest/POLocator/findLocations", "@spider": "usps_collection_boxes", "addr:city": "SHAW AFB", "addr:country": "US", "addr:postcode": "29152", "addr:state": "SC", "addr:street_address": "510 NELSON AVE", "amenity": "post_box", "collection_times": "Mo-Fr 16:00; Sa 13:00", "indoor": "yes", "note": "ON 12/24 AND 12/31, THIS BOX MAY BE COLLECTED AS EARLY AS 12 NOON.", "nsi_id": "unitedstatespostalservice-a77078", "operator": "United States Postal Service", "operator:short": "USPS", "operator:type": "public", "operator:wikidata": "Q668687", "ref": "2915200009"}, "type": "Feature"}
{"geometry": {"coordinates": [-80.4865419, 33.96929], "type": "Point"}, "id": "7brdSQ3gMDmwSXYZX0xk8iPZWXM=", "properties": {"@source_uri": "https://tools.usps.com/UspsToolsRestServices/rest/POLocator/findLocations", "@spider": "usps_collection_boxes", "addr:city": "SHAW AFB", "addr:country": "US", "addr:postcode": "29152", "addr:state": "SC", "addr:street_address": "417 POLISKA DR", "amenity": "post_box", "collection_times": "Mo-Sa 09:00", "nsi_id": "unitedstatespostalservice-a77078", "operator": "United States Postal Service", "operator:short": "USPS", "operator:type": "public", "operator:wikidata": "Q668687", "ref": "2915200010"}, "type": "Feature"}
{"geometry": {"coordinates": [-80.480962024, 33.971999189], "type": "Point"}, "id": "K7Q1sMNnVACH93KL1umzyLA5rQ0=", "properties": {"@source_uri": "https://tools.usps.com/UspsToolsRestServices/rest/POLocator/findLocations", "@spider": "usps_collection_boxes", "addr:city": "SHAW AFB", "addr:country": "US", "addr:postcode": "29152", "addr:state": "SC", "addr:street_address": "510 NELSON AVE", "amenity": "post_box", "collection_times": "Mo-Fr 16:00; Sa 13:00", "indoor": "yes", "note": "ON 12/24 AND 12/31, THIS BOX MAY BE COLLECTED AS EARLY AS 12 NOON.", "nsi_id": "unitedstatespostalservice-a77078", "operator": "United States Postal Service", "operator:short": "USPS", "operator:type": "public", "operator:wikidata": "Q668687", "ref": "2915200012"}, "type": "Feature"}
{"geometry": {"coordinates": [-81.1006187997, 33.736506873], "type": "Point"}, "id": "-K0qaW_Sv9qzLvHBdKF_Rb63aBw=", "properties": {"@source_uri": "https://tools.usps.com/UspsToolsRestServices/rest/POLocator/findLocations", "@spider": "usps_collection_boxes", "addr:city": "SWANSEA", "addr:country": "US", "addr:postcode": "29160", "addr:state": "SC", "addr:street_address": "295 S CHURCH ST", "amenity": "post_box", "collection_times": "Mo-Fr 15:45; Sa 09:45", "note": "ON 12/24 AND 12/31, THIS BOX MAY BE COLLECTED AS EARLY AS 12 NOON.", "nsi_id": "unitedstatespostalservice-a77078", "operator": "United States Postal Service", "operator:short": "USPS", "operator:type": "public", "operator:wikidata": "Q668687", "ref": "2916000000"}, "type": "Feature"}
{"geometry": {"coordinates": [-81.1006188, 33.736506873], "type": "Point"}, "id": "1IFZPqR8uagvLvkYKr9Bx-yGsBw=", "properties": {"@source_uri": "https://tools.usps.com/UspsToolsRestServices/rest/POLocator/findLocations", "@spider": "usps_collection_boxes", "addr:city": "SWANSEA", "addr:country": "US", "addr:postcode": "29160", "addr:state": "SC", "addr:street_address": "295 S CHURCH ST", "amenity": "post_box", "collection_times": "Mo-Fr 15:45; Sa 09:45", "indoor": "yes", "note": "ON 12/24 AND 12/31, THIS BOX MAY BE COLLECTED AS EARLY AS 12 NOON.", "nsi_id": "unitedstatespostalservice-a77078", "operator": "United States Postal Service", "operator:short": "USPS", "operator:type": "public", "operator:wikidata": "Q668687", "ref": "2916000001"}, "type": "Feature"}
{"geometry": {"coordinates": [-81.1006188, 33.736506873], "type": "Point"}, "id": "vrE4hdbW5QzymG-wXenbCMZcuik=", "properties": {"@source_uri": "https://tools.usps.com/UspsToolsRestServices/rest/POLocator/findLocations", "@spider": "usps_collection_boxes", "addr:city": "SWANSEA", "addr:country": "US", "addr:postcode": "29160", "addr:state": "SC", "addr:street_address": "295 S CHURCH ST", "amenity": "post_box", "collection_times": "Mo-Fr 15:45; Sa 09:45", "indoor": "yes", "note": "ON 12/24 AND 12/31, THIS BOX MAY BE COLLECTED AS EARLY AS 12 NOON.", "nsi_id": "unitedstatespostalservice-a77078", "operator": "United States Postal Service", "operator:short": "USPS", "operator:type": "public", "operator:wikidata": "Q668687", "ref": "2916000003"}, "type": "Feature"}
{"geometry": {"coordinates": [-79.940045482, 34.135744377], "type": "Point"}, "id": "VNX0HfsuvBzoZhSSmMTAmSi3iyk=", "properties": {"@source_uri": "https://tools.usps.com/UspsToolsRestServices/rest/POLocator/findLocations", "@spider": "usps_collection_boxes", "addr:city": "TIMMONSVILLE", "addr:country": "US", "addr:postcode": "29161", "addr:state": "SC", "addr:street_address": "203 E MAIN ST", "amenity": "post_box", "collection_times": "Mo-Fr 15:45; Sa 09:45", "indoor": "yes", "note": "ON 12/24 AND 12/31, THIS BOX MAY BE COLLECTED AS EARLY AS 12 NOON.", "nsi_id": "unitedstatespostalservice-a77078", "operator": "United States Postal Service", "operator:short": "USPS", "operator:type": "public", "operator:wikidata": "Q668687", "ref": "2916100000"}, "type": "Feature"}
{"geometry": {"coordinates": [-79.940045482, 34.135744377], "type": "Point"}, "id": "xoR8rAj5T719L4sgzzHw1pmL-HE=", "properties": {"@source_uri": "https://tools.usps.com/UspsToolsRestServices/rest/POLocator/findLocations", "@spider": "usps_collection_boxes", "addr:city": "TIMMONSVILLE", "addr:country": "US", "addr:postcode": "29161", "addr:state": "SC", "addr:street_address": "203 E MAIN ST", "amenity": "post_box", "collection_times": "Mo-Fr 15:45; Sa 09:45", "note": "ON 12/24 AND 12/31, THIS BOX MAY BE COLLECTED AS EARLY AS 12 NOON.", "nsi_id": "unitedstatespostalservice-a77078", "operator": "United States Postal Service", "operator:short": "USPS", "operator:type": "public", "operator:wikidata": "Q668687", "ref": "2916100003"}, "type": "Feature"}
{"geometry": {"coordinates": [-79.940045482, 34.135744377], "type": "Point"}, "id": "ryMZkKjfsrM9itG9jpOERWfwXCo=", "properties": {"@source_uri": "https://tools.usps.com/UspsToolsRestServices/rest/POLocator/findLocations", "@spider": "usps_collection_boxes", "addr:city": "TIMMONSVILLE", "addr:country": "US", "addr:postcode": "29161", "addr:state": "SC", "addr:street_address": "203 E MAIN ST", "amenity": "post_box", "collection_times": "Mo-Fr 15:45; Sa 09:45", "indoor": "yes", "note": "ON 12/24 AND 12/31, THIS BOX MAY BE COLLECTED AS EARLY AS 12 NOON.", "nsi_id": "unitedstatespostalservice-a77078", "operator": "United States Postal Service", "operator:short": "USPS", "operator:type": "public", "operator:wikidata": "Q668687", "ref": "2916100006"}, "type": "Feature"}
{"geometry": {"coordinates": [-79.940045482, 34.135744377], "type": "Point"}, "id": "_UZAKxCm5v921SOIEl7iUaskOoU=", "properties": {"@source_uri": "https://tools.usps.com/UspsToolsRestServices/rest/POLocator/findLocations", "@spider": "usps_collection_boxes", "addr:city": "TIMMONSVILLE", "addr:country": "US", "addr:postcode": "29161", "addr:state": "SC", "addr:street_address": "203 E MAIN ST", "amenity": "post_box", "collection_times": "Mo-Fr 15:45; Sa 09:45", "indoor": "yes", "note": "ON 12/24 AND 12/31, THIS BOX MAY BE COLLECTED AS EARLY AS 12 NOON.", "nsi_id": "unitedstatespostalservice-a77078", "operator": "United States Postal Service", "operator:short": "USPS", "operator:type": "public", "operator:wikidata": "Q668687", "ref": "2916100007"}, "type": "Feature"}
{"geometry": {"coordinates": [-80.024684877, 33.889145192], "type": "Point"}, "id": "fiW_R-Pir0B2JFcdUeQQDYwbW3w=", "properties": {"@source_uri": "https://tools.usps.com/UspsToolsRestServices/rest/POLocator/findLocations", "@spider": "usps_collection_boxes", "addr:city": "TURBEVILLE", "addr:country": "US", "addr:postcode": "29162", "addr:state": "SC", "addr:street_address": "1290 CLARENCE COKER HWY", "amenity": "post_box", "collection_times": "Mo-Fr 15:45; Sa 09:45", "indoor": "yes", "note": "ON 12/24 AND 12/31, THIS BOX MAY BE COLLECTED AS EARLY AS 12 NOON.", "nsi_id": "unitedstatespostalservice-a77078", "operator": "United States Postal Service", "operator:short": "USPS", "operator:type": "public", "operator:wikidata": "Q668687", "ref": "2916200001"}, "type": "Feature"}
{"geometry": {"coordinates": [-80.024684877, 33.889145192], "type": "Point"}, "id": "gV5Ft0FFr0PVeOZXq8IeG6vMYZM=", "properties": {"@source_uri": "https://tools.usps.com/UspsToolsRestServices/rest/POLocator/findLocations", "@spider": "usps_collection_boxes", "addr:city": "TURBEVILLE", "addr:country": "US", "addr:postcode": "29162", "addr:state": "SC", "addr:street_address": "1290 CLARENCE COKER HWY", "amenity": "post_box", "collection_times": "Mo-Fr 15:45; Sa 09:45", "note": "ON 12/24 AND 12/31, THIS BOX MAY BE COLLECTED AS EARLY AS 12 NOON.", "nsi_id": "unitedstatespostalservice-a77078", "operator": "United States Postal Service", "operator:short": "USPS", "operator:type": "public", "operator:wikidata": "Q668687", "ref": "2916200003"}, "type": "Feature"}
{"geometry": {"coordinates": [-80.024684877, 33.889145192], "type": "Point"}, "id": "O1FH2LW0MscwPod-c7noR3DxPEA=", "properties": {"@source_uri": "https://tools.usps.com/UspsToolsRestServices/rest/POLocator/findLocations", "@spider": "usps_collection_boxes", "addr:city": "TURBEVILLE", "addr:country": "US", "addr:postcode": "29162", "addr:state": "SC", "addr:street_address": "1290 CLARENCE COKER HWY", "amenity": "post_box", "collection_times": "Mo-Fr 15:45; Sa 09:45", "indoor": "yes", "note": "ON 12/24 AND 12/31, THIS BOX MAY BE COLLECTED AS EARLY AS 12 NOON.", "nsi_id": "unitedstatespostalservice-a77078", "operator": "United States Postal Service", "operator:short": "USPS", "operator:type": "public", "operator:wikidata": "Q668687", "ref": "2916200004"}, "type": "Feature"}
{"geometry": {"coordinates": [-80.024684877, 33.889145192], "type": "Point"}, "id": "QkKJTLm5tNvMm5Ugs9b2xWPmTPw=", "properties": {"@source_uri": "https://tools.usps.com/UspsToolsRestServices/rest/POLocator/findLocations", "@spider": "usps_collection_boxes", "addr:city": "TURBEVILLE", "addr:country": "US", "addr:postcode": "29162", "addr:state": "SC", "addr:street_address": "1290 CLARENCE COKER HWY", "amenity": "post_box", "collection_times": "Mo-Fr 15:45; Sa 09:45", "indoor": "yes", "note": "ON 12/24 AND 12/31, THIS BOX MAY BE COLLECTED AS EARLY AS 12 NOON.", "nsi_id": "unitedstatespostalservice-a77078", "operator": "United States Postal Service", "operator:short": "USPS", "operator:type": "public", "operator:wikidata": "Q668687", "ref": "2916200005"}, "type": "Feature"}
{"geometry": {"coordinates": [-80.4242550211, 33.436155996], "type": "Point"}, "id": "tE3Al1MiBJc6JHMgi1rANBwaSCg=", "properties": {"@source_uri": "https://tools.usps.com/UspsToolsRestServices/rest/POLocator/findLocations", "@spider": "usps_collection_boxes", "addr:city": "VANCE", "addr:country": "US", "addr:postcode": "29163", "addr:state": "SC", "addr:street_address": "450 CAMDEN RD", "amenity": "post_box", "collection_times": "Mo-Fr 15:45; Sa 09:45", "note": "ON 12/24 AND 12/31, THIS BOX MAY BE COLLECTED AS EARLY AS 12 NOON.", "nsi_id": "unitedstatespostalservice-a77078", "operator": "United States Postal Service", "operator:short": "USPS", "operator:type": "public", "operator:wikidata": "Q668687", "ref": "2916300000"}, "type": "Feature"}
{"geometry": {"coordinates": [-80.423650531, 33.436318611], "type": "Point"}, "id": "34suezykKpYjd9c4vUNJfwQXmU4=", "properties": {"@source_uri": "https://tools.usps.com/UspsToolsRestServices/rest/POLocator/findLocations", "@spider": "usps_collection_boxes", "addr:city": "VANCE", "addr:country": "US", "addr:postcode": "29163", "addr:state": "SC", "addr:street_address": "450 CAMDEN RD", "amenity": "post_box", "collection_times": "Mo-Fr 15:45; Sa 09:45", "indoor": "yes", "note": "ON 12/24 AND 12/31, THIS BOX MAY BE COLLECTED AS EARLY AS 12 NOON.", "nsi_id": "unitedstatespostalservice-a77078", "operator": "United States Postal Service", "operator:short": "USPS", "operator:type": "public", "operator:wikidata": "Q668687", "ref": "2916300001"}, "type": "Feature"}
{"geometry": {"coordinates": [-80.423650531, 33.436318611], "type": "Point"}, "id": "d6fANsUxmOLPDGcqso4rDuCRF0s=", "properties": {"@source_uri": "https://tools.usps.com/UspsToolsRestServices/rest/POLocator/findLocations", "@spider": "usps_collection_boxes", "addr:city": "VANCE", "addr:country": "US", "addr:postcode": "29163", "addr:state": "SC", "addr:street_address": "450 CAMDEN RD", "amenity": "post_box", "collection_times": "Mo-Fr 15:45; Sa 09:45", "indoor": "yes", "note": "ON 12/24 AND 12/31, THIS BOX MAY BE COLLECTED AS EARLY AS 12 NOON.", "nsi_id": "unitedstatespostalservice-a77078", "operator": "United States Postal Service", "operator:short": "USPS", "operator:type": "public", "operator:wikidata": "Q668687", "ref": "2916300003"}, "type": "Feature"}
{"geometry": {"coordinates": [-81.359622788, 33.650370164], "type": "Point"}, "id": "Vj2ONHW0K-MGo1D-A9gJUvT7JOs=", "properties": {"@source_uri": "https://tools.usps.com/UspsToolsRestServices/rest/POLocator/findLocations", "@spider": "usps_collection_boxes", "addr:city": "WAGENER", "addr:country": "US", "addr:postcode": "29164", "addr:state": "SC", "addr:street_address": "171 PARK ST NE", "amenity": "post_box", "collection_times": "Mo-Fr 15:45; Sa 10:45", "indoor": "yes", "note": "ON 12/24 AND 12/31, THIS BOX MAY BE COLLECTED AS EARLY AS 12 NOON.", "nsi_id": "unitedstatespostalservice-a77078", "operator": "United States Postal Service", "operator:short": "USPS", "operator:type": "public", "operator:wikidata": "Q668687", "ref": "2916400001"}, "type": "Feature"}
{"geometry": {"coordinates": [-81.359622788, 33.650370164], "type": "Point"}, "id": "Kutf3KCzplTPrgOnTgoTfakmSuk=", "properties": {"@source_uri": "https://tools.usps.com/UspsToolsRestServices/rest/POLocator/findLocations", "@spider": "usps_collection_boxes", "addr:city": "WAGENER", "addr:country": "US", "addr:postcode": "29164", "addr:state": "SC", "addr:street_address": "171 PARK ST NE", "amenity": "post_box", "collection_times": "Mo-Fr 15:45; Sa 10:45", "indoor": "yes", "note": "ON 12/24 AND 12/31, THIS BOX MAY BE COLLECTED AS EARLY AS 12 NOON.", "nsi_id": "unitedstatespostalservice-a77078", "operator": "United States Postal Service", "operator:short": "USPS", "operator:type": "public", "operator:wikidata": "Q668687", "ref": "2916400002"}, "type": "Feature"}
{"geometry": {"coordinates": [-81.359622788, 33.650370164], "type": "Point"}, "id": "ID_8i_tceOibMLEtV8Ejr9WKY5k=", "properties": {"@source_uri": "https://tools.usps.com/UspsToolsRestServices/rest/POLocator/findLocations", "@spider": "usps_collection_boxes", "addr:city": "WAGENER", "addr:country": "US", "addr:postcode": "29164", "addr:state": "SC", "addr:street_address": "171 PARK ST NE", "amenity": "post_box", "collection_times": "Mo-Fr 15:45; Sa 10:45", "note": "ON 12/24 AND 12/31, THIS BOX MAY BE COLLECTED AS EARLY AS 12 NOON.", "nsi_id": "unitedstatespostalservice-a77078", "operator": "United States Postal Service", "operator:short": "USPS", "operator:type": "public", "operator:wikidata": "Q668687", "ref": "2916400004"}, "type": "Feature"}
{"geometry": {"coordinates": [-81.359622788, 33.650370164], "type": "Point"}, "id": "EmawTGZUXAu80p9_squJFBYX39U=", "properties": {"@source_uri": "https://tools.usps.com/UspsToolsRestServices/rest/POLocator/findLocations", "@spider": "usps_collection_boxes", "addr:city": "WAGENER", "addr:country": "US", "addr:postcode": "29164", "addr:state": "SC", "addr:street_address": "171 PARK ST NE", "amenity": "post_box", "collection_times": "Mo-Fr 15:45; Sa 10:45", "indoor": "yes", "note": "ON 12/24 AND 12/31, THIS BOX MAY BE COLLECTED AS EARLY AS 12 NOON.", "nsi_id": "unitedstatespostalservice-a77078", "operator": "United States Postal Service", "operator:short": "USPS", "operator:type": "public", "operator:wikidata": "Q668687", "ref": "2916400006"}, "type": "Feature"}
{"geometry": {"coordinates": [-81.732422265, 33.857633261], "type": "Point"}, "id": "RRU8_FwTvu4uau7IgajSP2j2P3I=", "properties": {"@source_uri": "https://tools.usps.com/UspsToolsRestServices/rest/POLocator/findLocations", "@spider": "usps_collection_boxes", "addr:city": "WARD", "addr:country": "US", "addr:postcode": "29166", "addr:state": "SC", "addr:street_address": "109 E FRONT ST", "amenity": "post_box", "collection_times": "Mo-Fr 15:45; Sa 09:45", "note": "ON 12/24 AND 12/31, THIS BOX MAY BE COLLECTED AS EARLY AS 12 NOON.", "nsi_id": "unitedstatespostalservice-a77078", "operator": "United States Postal Service", "operator:short": "USPS", "operator:type": "public", "operator:wikidata": "Q668687", "ref": "2916600000"}, "type": "Feature"}
{"geometry": {"coordinates": [-81.732422265, 33.857633261], "type": "Point"}, "id": "dkauBh6Z7P_4LxyawscaLvISB0s=", "properties": {"@source_uri": "https://tools.usps.com/UspsToolsRestServices/rest/POLocator/findLocations", "@spider": "usps_collection_boxes", "addr:city": "WARD", "addr:country": "US", "addr:postcode": "29166", "addr:state": "SC", "addr:street_address": "109 E FRONT ST", "amenity": "post_box", "collection_times": "Mo-Fr 15:45; Sa 09:45", "indoor": "yes", "note": "ON 12/24 AND 12/31, THIS BOX MAY BE COLLECTED AS EARLY AS 12 NOON.", "nsi_id": "unitedstatespostalservice-a77078", "operator": "United States Postal Service", "operator:short": "USPS", "operator:type": "public", "operator:wikidata": "Q668687", "ref": "2916600001"}, "type": "Feature"}
{"geometry": {"coordinates": [-81.732422265, 33.857633261], "type": "Point"}, "id": "rZuX8fb82aYCeZrixD2VepjibG0=", "properties": {"@source_uri": "https://tools.usps.com/UspsToolsRestServices/rest/POLocator/findLocations", "@spider": "usps_collection_boxes", "addr:city": "WARD", "addr:country": "US", "addr:postcode": "29166", "addr:state": "SC", "addr:street_address": "109 E FRONT ST", "amenity": "post_box", "collection_times": "Mo-Fr 15:45; Sa 09:45", "indoor": "yes", "note": "ON 12/24 AND 12/31, THIS BOX MAY BE COLLECTED AS EARLY AS 12 NOON.", "nsi_id": "unitedstatespostalservice-a77078", "operator": "United States Postal Service", "operator:short": "USPS", "operator:type": "public", "operator:wikidata": "Q668687", "ref": "2916600003"}, "type": "Feature"}
{"geometry": {"coordinates": [-80.517589977, 33.883915065], "type": "Point"}, "id": "jIqcLXFA-M0Cn43BCF8_U4iKiGM=", "properties": {"@source_uri": "https://tools.usps.com/UspsToolsRestServices/rest/POLocator/findLocations", "@spider": "usps_collection_boxes", "addr:city": "WEDGEFIELD", "addr:country": "US", "addr:postcode": "29168", "addr:state": "SC", "addr:street_address": "2385 HIGHWAY 261 S", "amenity": "post_box", "collection_times": "Mo-Fr 15:45; Sa 09:45", "note": "ON 12/24 AND 12/31, THIS BOX MAY BE COLLECTED AS EARLY AS 12 NOON.", "nsi_id": "unitedstatespostalservice-a77078", "operator": "United States Postal Service", "operator:short": "USPS", "operator:type": "public", "operator:wikidata": "Q668687", "ref": "2916800000"}, "type": "Feature"}
{"geometry": {"coordinates": [-80.517589977, 33.883915065], "type": "Point"}, "id": "H4Lu3Ce3iJhu3dJ_npxX_MZHxCg=", "properties": {"@source_uri": "https://tools.usps.com/UspsToolsRestServices/rest/POLocator/findLocations", "@spider": "usps_collection_boxes", "addr:city": "WEDGEFIELD", "addr:country": "US", "addr:postcode": "29168", "addr:state": "SC", "addr:street_address": "2385 HIGHWAY 261 S", "amenity": "post_box", "collection_times": "Mo-Fr 15:45; Sa 09:45", "indoor": "yes", "note": "ON 12/24 AND 12/31, THIS BOX MAY BE COLLECTED AS EARLY AS 12 NOON.", "nsi_id": "unitedstatespostalservice-a77078", "operator": "United States Postal Service", "operator:short": "USPS", "operator:type": "public", "operator:wikidata": "Q668687", "ref": "2916800001"}, "type": "Feature"}
{"geometry": {"coordinates": [-80.517589977, 33.883915065], "type": "Point"}, "id": "WuA6AovD9IN7pOA6XDSlge1Ol38=", "properties": {"@source_uri": "https://tools.usps.com/UspsToolsRestServices/rest/POLocator/findLocations", "@spider": "usps_collection_boxes", "addr:city": "WEDGEFIELD", "addr:country": "US", "addr:postcode": "29168", "addr:state": "SC", "addr:street_address": "2385 HIGHWAY 261 S", "amenity": "post_box", "collection_times": "Mo-Fr 15:45; Sa 09:45", "indoor": "yes", "note": "ON 12/24 AND 12/31, THIS BOX MAY BE COLLECTED AS EARLY AS 12 NOON.", "nsi_id": "unitedstatespostalservice-a77078", "operator": "United States Postal Service", "operator:short": "USPS", "operator:type": "public", "operator:wikidata": "Q668687", "ref": "2916800003"}, "type": "Feature"}
{"geometry": {"coordinates": [-81.086111, 33.99382], "type": "Point"}, "id": "XHi0rwpLdj69U4czMQpXfGbbBqI=", "properties": {"@source_uri": "https://tools.usps.com/UspsToolsRestServices/rest/POLocator/findLocations", "@spider": "usps_collection_boxes", "addr:city": "WEST COLUMBIA", "addr:country": "US", "addr:postcode": "29169", "addr:state": "SC", "addr:street_address": "1535 PLATT SPRINGS RD", "amenity": "post_box", "collection_times": "Mo-Fr 17:30; Sa 15:45", "note": "ON 12/24 AND 12/31, THIS BOX MAY BE COLLECTED AS EARLY AS 12 NOON.", "nsi_id": "unitedstatespostalservice-a77078", "operator": "United States Postal Service", "operator:short": "USPS", "operator:type": "public", "operator:wikidata": "Q668687", "ref": "2916900000"}, "type": "Feature"}
{"geometry": {"coordinates": [-81.079741498, 33.978418595], "type": "Point"}, "id": "UtV-p7wMq9AGjS8eC9vl3URdLnA=", "properties": {"@source_uri": "https://tools.usps.com/UspsToolsRestServices/rest/POLocator/findLocations", "@spider": "usps_collection_boxes", "addr:city": "WEST COLUMBIA", "addr:country": "US", "addr:postcode": "29169", "addr:state": "SC", "addr:street_address": "1535 PLATT SPRINGS RD", "amenity": "post_box", "collection_times": "Mo-Fr 17:30; Sa 15:45", "indoor": "yes", "note": "ON 12/24 AND 12/31, THIS BOX MAY BE COLLECTED AS EARLY AS 12 NOON.", "nsi_id": "unitedstatespostalservice-a77078", "operator": "United States Postal Service", "operator:short": "USPS", "operator:type": "public", "operator:wikidata": "Q668687", "ref": "2916900004"}, "type": "Feature"}
{"geometry": {"coordinates": [-81.0732623, 33.990533], "type": "Point"}, "id": "PyJUFuiQhiYNXY6JGl9cgjIC3DI=", "properties": {"@source_uri": "https://tools.usps.com/UspsToolsRestServices/rest/POLocator/findLocations", "@spider": "usps_collection_boxes", "addr:city": "WEST COLUMBIA", "addr:country": "US", "addr:postcode": "29169", "addr:state": "SC", "addr:street_address": "200 12TH ST", "amenity": "post_box", "collection_times": "Mo-Fr 15:15; Sa 11:00", "note": "ON 12/24 AND 12/31, THIS BOX MAY BE COLLECTED AS EARLY AS 12 NOON.", "nsi_id": "unitedstatespostalservice-a77078", "operator": "United States Postal Service", "operator:short": "USPS", "operator:type": "public", "operator:wikidata": "Q668687", "ref": "2916900007"}, "type": "Feature"}
{"geometry": {"coordinates": [-81.0977894, 33.982655], "type": "Point"}, "id": "WjxYxlauz0XBjVgxdt2yNqyKb7w=", "properties": {"@source_uri": "https://tools.usps.com/UspsToolsRestServices/rest/POLocator/findLocations", "@spider": "usps_collection_boxes", "addr:city": "WEST COLUMBIA", "addr:country": "US", "addr:postcode": "29169", "addr:state": "SC", "addr:street_address": "2307 AUGUSTA RD", "amenity": "post_box", "collection_times": "Mo-Fr 14:00; Sa 11:00", "note": "ON 12/24 AND 12/31, THIS BOX MAY BE COLLECTED AS EARLY AS 12 NOON.", "nsi_id": "unitedstatespostalservice-a77078", "operator": "United States Postal Service", "operator:short": "USPS", "operator:type": "public", "operator:wikidata": "Q668687", "ref": "2916900009"}, "type": "Feature"}
{"geometry": {"coordinates": [-81.126821168, 33.976555791], "type": "Point"}, "id": "ZNQnPbqz8zs6oqjUVGChZPc9VF8=", "properties": {"@source_uri": "https://tools.usps.com/UspsToolsRestServices/rest/POLocator/findLocations", "@spider": "usps_collection_boxes", "addr:city": "WEST COLUMBIA", "addr:country": "US", "addr:postcode": "29169", "addr:state": "SC", "addr:street_address": "3236 AUGUSTA RD", "amenity": "post_box", "collection_times": "Mo-Fr 14:00; Sa 11:00", "note": "ON 12/24 AND 12/31, THIS BOX MAY BE COLLECTED AS EARLY AS 12 NOON.", "nsi_id": "unitedstatespostalservice-a77078", "operator": "United States Postal Service", "operator:short": "USPS", "operator:type": "public", "operator:wikidata": "Q668687", "ref": "2916900017"}, "type": "Feature"}
{"geometry": {"coordinates": [-81.0780473, 33.998198], "type": "Point"}, "id": "77bEV92WRhSh2_sbWXzxrOqvHrM=", "properties": {"@source_uri": "https://tools.usps.com/UspsToolsRestServices/rest/POLocator/findLocations", "@spider": "usps_collection_boxes", "addr:city": "WEST COLUMBIA", "addr:country": "US", "addr:postcode": "29169", "addr:state": "SC", "addr:street_address": "1190 SUNSET BLVD", "amenity": "post_box", "collection_times": "Mo-Fr 15:15; Sa 11:00", "note": "ON 12/24 AND 12/31, THIS BOX MAY BE COLLECTED AS EARLY AS 12 NOON.", "nsi_id": "unitedstatespostalservice-a77078", "operator": "United States Postal Service", "operator:short": "USPS", "operator:type": "public", "operator:wikidata": "Q668687", "ref": "2916900018"}, "type": "Feature"}
{"geometry": {"coordinates": [-81.1037299, 34.001501], "type": "Point"}, "id": "VCidl4p1AnPAdM-q8DhKkBizfIE=", "properties": {"@source_uri": "https://tools.usps.com/UspsToolsRestServices/rest/POLocator/findLocations", "@spider": "usps_collection_boxes", "addr:city": "WEST COLUMBIA", "addr:country": "US", "addr:postcode": "29169", "addr:state": "SC", "addr:street_address": "2271 SUNSET BLVD", "amenity": "post_box", "collection_times": "Mo-Fr 16:00; Sa 11:00", "note": "ON 12/24 AND 12/31, THIS BOX MAY BE COLLECTED AS EARLY AS 12 NOON.", "nsi_id": "unitedstatespostalservice-a77078", "operator": "United States Postal Service", "operator:short": "USPS", "operator:type": "public", "operator:wikidata": "Q668687", "ref": "2916900019"}, "type": "Feature"}
{"geometry": {"coordinates": [-81.0552113, 33.986516], "type": "Point"}, "id": "X4xIY-WCj7_fd3lAMq69THIVaUA=", "properties": {"@source_uri": "https://tools.usps.com/UspsToolsRestServices/rest/POLocator/findLocations", "@spider": "usps_collection_boxes", "addr:city": "WEST COLUMBIA", "addr:country": "US", "addr:postcode": "29169", "addr:state": "SC", "addr:street_address": "200 KNOX ABBOTT DR", "amenity": "post_box", "collection_times": "Mo-Fr 16:30; Sa 11:00", "note": "ON 12/24 AND 12/31, THIS BOX MAY BE COLLECTED AS EARLY AS 12 NOON.", "nsi_id": "unitedstatespostalservice-a77078", "operator": "United States Postal Service", "operator:short": "USPS", "operator:type": "public", "operator:wikidata": "Q668687", "ref": "2916900024"}, "type": "Feature"}
{"geometry": {"coordinates": [-81.0652629, 33.980873], "type": "Point"}, "id": "-F0TLLXmLVidXkzMKXGYgZa6fOk=", "properties": {"@source_uri": "https://tools.usps.com/UspsToolsRestServices/rest/POLocator/findLocations", "@spider": "usps_collection_boxes", "addr:city": "WEST COLUMBIA", "addr:country": "US", "addr:postcode": "29169", "addr:state": "SC", "addr:street_address": "989 KNOX ABBOTT DR", "amenity": "post_box", "collection_times": "Mo-Fr 15:00; Sa 11:00", "note": "ON 12/24 AND 12/31, THIS BOX MAY BE COLLECTED AS EARLY AS 12 NOON.", "nsi_id": "unitedstatespostalservice-a77078", "operator": "United States Postal Service", "operator:short": "USPS", "operator:type": "public", "operator:wikidata": "Q668687", "ref": "2916900028"}, "type": "Feature"}
{"geometry": {"coordinates": [-81.0552242, 33.98237], "type": "Point"}, "id": "yXyA2WK9JjS-HtCL18M1QyyCqQM=", "properties": {"@source_uri": "https://tools.usps.com/UspsToolsRestServices/rest/POLocator/findLocations", "@spider": "usps_collection_boxes", "addr:city": "WEST COLUMBIA", "addr:country": "US", "addr:postcode": "29169", "addr:state": "SC", "addr:street_address": "1301 STATE ST", "amenity": "post_box", "collection_times": "Mo-Fr 15:00; Sa 11:00", "note": "ON 12/24 AND 12/31, THIS BOX MAY BE COLLECTED AS EARLY AS 12 NOON.", "nsi_id": "unitedstatespostalservice-a77078", "operator": "United States Postal Service", "operator:short": "USPS", "operator:type": "public", "operator:wikidata": "Q668687", "ref": "2916900030"}, "type": "Feature"}
{"geometry": {"coordinates": [-81.1120009893, 33.9585669962], "type": "Point"}, "id": "B1GyGzUFX9938dUN2yOlIEM84PM=", "properties": {"@source_uri": "https://tools.usps.com/UspsToolsRestServices/rest/POLocator/findLocations", "@spider": "usps_collection_boxes", "addr:city": "WEST COLUMBIA", "addr:country": "US", "addr:postcode": "29169", "addr:state": "SC", "addr:street_address": "3142 PLATT SPRINGS RD", "amenity": "post_box", "collection_times": "Mo-Fr 15:00; Sa 11:00", "note": "ON 12/24 AND 12/31, THIS BOX MAY BE COLLECTED AS EARLY AS 12 NOON.", "nsi_id": "unitedstatespostalservice-a77078", "operator": "United States Postal Service", "operator:short": "USPS", "operator:type": "public", "operator:wikidata": "Q668687", "ref": "2916900032"}, "type": "Feature"}
{"geometry": {"coordinates": [-81.0774121, 33.947395], "type": "Point"}, "id": "o1xCet8_oAw08yQy-lAYTw5IE3w=", "properties": {"@source_uri": "https://tools.usps.com/UspsToolsRestServices/rest/POLocator/findLocations", "@spider": "usps_collection_boxes", "addr:city": "WEST COLUMBIA", "addr:country": "US", "addr:postcode": "29169", "addr:state": "SC", "addr:street_address": "2427 CHARLESTON HWY", "amenity": "post_box", "collection_times": "Mo-Fr 14:45; Sa 11:00", "note": "ON 12/24 AND 12/31, THIS BOX MAY BE COLLECTED AS EARLY AS 12 NOON.", "nsi_id": "unitedstatespostalservice-a77078", "operator": "United States Postal Service", "operator:short": "USPS", "operator:type": "public", "operator:wikidata": "Q668687", "ref": "2916900035"}, "type": "Feature"}
{"geometry": {"coordinates": [-81.1136941, 34.005286], "type": "Point"}, "id": "tpmlWAqdZgAXDBUdKlisT1Wlgvo=", "properties": {"@source_uri": "https://tools.usps.com/UspsToolsRestServices/rest/POLocator/findLocations", "@spider": "usps_collection_boxes", "addr:city": "WEST COLUMBIA", "addr:country": "US", "addr:postcode": "29169", "addr:state": "SC", "addr:street_address": "2720 SUNSET BLVD", "amenity": "post_box", "collection_times": "Mo-Fr 15:30; Sa 11:00", "note": "ON 12/24 AND 12/31, THIS BOX MAY BE COLLECTED AS EARLY AS 12 NOON.", "nsi_id": "unitedstatespostalservice-a77078", "operator": "United States Postal Service", "operator:short": "USPS", "operator:type": "public", "operator:wikidata": "Q668687", "ref": "2916900036"}, "type": "Feature"}
{"geometry": {"coordinates": [-81.1118450021, 34.0031909915], "type": "Point"}, "id": "IUHrrXlcC1-GUyL_e92gwDdhilI=", "properties": {"@source_uri": "https://tools.usps.com/UspsToolsRestServices/rest/POLocator/findLocations", "@spider": "usps_collection_boxes", "addr:city": "WEST COLUMBIA", "addr:country": "US", "addr:postcode": "29169", "addr:state": "SC", "addr:street_address": "205 MEDICAL CIR", "amenity": "post_box", "collection_times": "Mo-Fr 15:45; Sa 11:00", "note": "ON 12/24 AND 12/31, THIS BOX MAY BE COLLECTED AS EARLY AS 12 NOON.", "nsi_id": "unitedstatespostalservice-a77078", "operator": "United States Postal Service", "operator:short": "USPS", "operator:type": "public", "operator:wikidata": "Q668687", "ref": "2916900037"}, "type": "Feature"}
{"geometry": {"coordinates": [-81.1034780187, 33.9935140004], "type": "Point"}, "id": "sv7cZlR8-GiA2SOsenf1guqh1a4=", "properties": {"@source_uri": "https://tools.usps.com/UspsToolsRestServices/rest/POLocator/findLocations", "@spider": "usps_collection_boxes", "addr:city": "WEST COLUMBIA", "addr:country": "US", "addr:postcode": "29169", "addr:state": "SC", "addr:street_address": "104 CORPORATE BLVD", "amenity": "post_box", "collection_times": "Mo-Fr 15:45; Sa 11:00", "note": "ON 12/24 AND 12/31, THIS BOX MAY BE COLLECTED AS EARLY AS 12 NOON.", "nsi_id": "unitedstatespostalservice-a77078", "operator": "United States Postal Service", "operator:short": "USPS", "operator:type": "public", "operator:wikidata": "Q668687", "ref": "2916900045"}, "type": "Feature"}
{"geometry": {"coordinates": [-81.1335628, 33.914518], "type": "Point"}, "id": "DuVHFGhtDWVrVsDobr69ZahPNOc=", "properties": {"@source_uri": "https://tools.usps.com/UspsToolsRestServices/rest/POLocator/findLocations", "@spider": "usps_collection_boxes", "addr:city": "WEST COLUMBIA", "addr:country": "US", "addr:postcode": "29169", "addr:state": "SC", "addr:street_address": "702 MAIN ST", "amenity": "post_box", "collection_times": "Mo-Fr 14:30; Sa 11:00", "note": "ON 12/24 AND 12/31, THIS BOX MAY BE COLLECTED AS EARLY AS 12 NOON.", "nsi_id": "unitedstatespostalservice-a77078", "operator": "United States Postal Service", "operator:short": "USPS", "operator:type": "public", "operator:wikidata": "Q668687", "ref": "2916900048"}, "type": "Feature"}
{"geometry": {"coordinates": [-81.06087599, 33.9313090052], "type": "Point"}, "id": "iJRDPQSIiTDwyY57Hw2dhOtBx2g=", "properties": {"@source_uri": "https://tools.usps.com/UspsToolsRestServices/rest/POLocator/findLocations", "@spider": "usps_collection_boxes", "addr:city": "WEST COLUMBIA", "addr:country": "US", "addr:postcode": "29169", "addr:state": "SC", "addr:street_address": "2001 DIXIANA RD", "amenity": "post_box", "collection_times": "Mo-Fr 18:30; Sa 18:00", "note": "ON 12/24 AND 12/31, THIS BOX MAY BE COLLECTED AS EARLY AS 12 NOON.", "nsi_id": "unitedstatespostalservice-a77078", "operator": "United States Postal Service", "operator:short": "USPS", "operator:type": "public", "operator:wikidata": "Q668687", "ref": "2916900050"}, "type": "Feature"}
{"geometry": {"coordinates": [-81.079741498, 33.978418595], "type": "Point"}, "id": "fY4wU9xAIPSFtVwIG_t_tViESag=", "properties": {"@source_uri": "https://tools.usps.com/UspsToolsRestServices/rest/POLocator/findLocations", "@spider": "usps_collection_boxes", "addr:city": "WEST COLUMBIA", "addr:country": "US", "addr:postcode": "29169", "addr:state": "SC", "addr:street_address": "1535 PLATT SPRINGS RD", "amenity": "post_box", "collection_times": "Mo-Fr 17:30; Sa 15:45", "indoor": "yes", "note": "ON 12/24 AND 12/31, THIS BOX MAY BE COLLECTED AS EARLY AS 12 NOON.", "nsi_id": "unitedstatespostalservice-a77078", "operator": "United States Postal Service", "operator:short": "USPS", "operator:type": "public", "operator:wikidata": "Q668687", "ref": "2916900056"}, "type": "Feature"}
{"geometry": {"coordinates": [-81.1014292, 33.944281], "type": "Point"}, "id": "Y4GUZ3oKcb2wji1bKMdl-jqZoHg=", "properties": {"@source_uri": "https://tools.usps.com/UspsToolsRestServices/rest/POLocator/findLocations", "@spider": "usps_collection_boxes", "addr:city": "WEST COLUMBIA", "addr:country": "US", "addr:postcode": "29169", "addr:state": "SC", "addr:street_address": "102 TRADE ZONE DR", "amenity": "post_box", "collection_times": "Mo-Fr 14:30; Sa 11:00", "note": "ON 12/24 AND 12/31, THIS BOX MAY BE COLLECTED AS EARLY AS 12 NOON.", "nsi_id": "unitedstatespostalservice-a77078", "operator": "United States Postal Service", "operator:short": "USPS", "operator:type": "public", "operator:wikidata": "Q668687", "ref": "2916900057"}, "type": "Feature"}
{"geometry": {"coordinates": [-81.0785964, 33.927938], "type": "Point"}, "id": "7KtPs2CG0-bvPF7lnIkXlRpCgC4=", "properties": {"@source_uri": "https://tools.usps.com/UspsToolsRestServices/rest/POLocator/findLocations", "@spider": "usps_collection_boxes", "addr:city": "WEST COLUMBIA", "addr:country": "US", "addr:postcode": "29169", "addr:state": "SC", "addr:street_address": "3040 CHARLESTON HWY", "amenity": "post_box", "collection_times": "Mo-Fr 14:45; Sa 11:00", "note": "ON 12/24 AND 12/31, THIS BOX MAY BE COLLECTED AS EARLY AS 12 NOON.", "nsi_id": "unitedstatespostalservice-a77078", "operator": "United States Postal Service", "operator:short": "USPS", "operator:type": "public", "operator:wikidata": "Q668687", "ref": "2916900060"}, "type": "Feature"}
{"geometry": {"coordinates": [-81.124948932, 33.946890648], "type": "Point"}, "id": "ChaoU47Iq_83sYXWUPM5KNeavXQ=", "properties": {"@source_uri": "https://tools.usps.com/UspsToolsRestServices/rest/POLocator/findLocations", "@spider": "usps_collection_boxes", "addr:city": "WEST COLUMBIA", "addr:country": "US", "addr:postcode": "29169", "addr:state": "SC", "addr:street_address": "3000 AVIATION WAY", "amenity": "post_box", "collection_times": "Mo-Fr 14:15; Sa 11:00", "note": "ON 12/24 AND 12/31, THIS BOX MAY BE COLLECTED AS EARLY AS 12 NOON.", "nsi_id": "unitedstatespostalservice-a77078", "operator": "United States Postal Service", "operator:short": "USPS", "operator:type": "public", "operator:wikidata": "Q668687", "ref": "2916900062"}, "type": "Feature"}
{"geometry": {"coordinates": [-81.0791519755, 33.9780630097], "type": "Point"}, "id": "j2yVyQdGussp7apY9VSuX8ayUbY=", "properties": {"@source_uri": "https://tools.usps.com/UspsToolsRestServices/rest/POLocator/findLocations", "@spider": "usps_collection_boxes", "addr:city": "WEST COLUMBIA", "addr:country": "US", "addr:postcode": "29169", "addr:state": "SC", "addr:street_address": "1535 PLATT SPRINGS RD", "amenity": "post_box", "collection_times": "Mo-Fr 17:30; Sa 15:45", "name": "USPS COLLECTION BOX - APC", "note": "ON 12/24 AND 12/31, THIS BOX MAY BE COLLECTED AS EARLY AS 12 NOON.", "nsi_id": "unitedstatespostalservice-a77078", "operator": "United States Postal Service", "operator:short": "USPS", "operator:type": "public", "operator:wikidata": "Q668687", "ref": "2916900064"}, "type": "Feature"}
{"geometry": {"coordinates": [-81.0610779, 33.904388], "type": "Point"}, "id": "jKQNEmdKAUhP8q6pPXUUuq5zLS8=", "properties": {"@source_uri": "https://tools.usps.com/UspsToolsRestServices/rest/POLocator/findLocations", "@spider": "usps_collection_boxes", "addr:city": "WEST COLUMBIA", "addr:country": "US", "addr:postcode": "29169", "addr:state": "SC", "addr:street_address": "105 FARMERS MARKET DR", "amenity": "post_box", "collection_times": "Mo-Sa 12:00", "nsi_id": "unitedstatespostalservice-a77078", "operator": "United States Postal Service", "operator:short": "USPS", "operator:type": "public", "operator:wikidata": "Q668687", "ref": "2916900071"}, "type": "Feature"}
{"geometry": {"coordinates": [-81.079741498, 33.978418595], "type": "Point"}, "id": "KnswS_vUCrSCZrI3N9CKCVRkilk=", "properties": {"@source_uri": "https://tools.usps.com/UspsToolsRestServices/rest/POLocator/findLocations", "@spider": "usps_collection_boxes", "addr:city": "WEST COLUMBIA", "addr:country": "US", "addr:postcode": "29169", "addr:state": "SC", "addr:street_address": "1535 PLATT SPRINGS RD", "amenity": "post_box", "collection_times": "Mo-Fr 17:00; Sa 15:00", "indoor": "yes", "note": "ON 12/24 AND 12/31, THIS BOX MAY BE COLLECTED AS EARLY AS 12 NOON.", "nsi_id": "unitedstatespostalservice-a77078", "operator": "United States Postal Service", "operator:short": "USPS", "operator:type": "public", "operator:wikidata": "Q668687", "ref": "2916900077"}, "type": "Feature"}
{"geometry": {"coordinates": [-80.598863575, 34.455295071], "type": "Point"}, "id": "zpTO5rmpd85bt98QGpaPHMnQOYE=", "properties": {"@source_uri": "https://tools.usps.com/UspsToolsRestServices/rest/POLocator/findLocations", "@spider": "usps_collection_boxes", "addr:city": "WESTVILLE", "addr:country": "US", "addr:postcode": "29175", "addr:state": "SC", "addr:street_address": "3141 KERSHAW HWY", "amenity": "post_box", "collection_times": "Mo-Fr 15:45; Sa 09:45", "note": "ON 12/24 AND 12/31, THIS BOX MAY BE COLLECTED AS EARLY AS 12 NOON.", "nsi_id": "unitedstatespostalservice-a77078", "operator": "United States Postal Service", "operator:short": "USPS", "operator:type": "public", "operator:wikidata": "Q668687", "ref": "2917500000"}, "type": "Feature"}
{"geometry": {"coordinates": [-80.598863575, 34.455295071], "type": "Point"}, "id": "9c5n6w8KZiXedb8EZf-Ub-ZiEPY=", "properties": {"@source_uri": "https://tools.usps.com/UspsToolsRestServices/rest/POLocator/findLocations", "@spider": "usps_collection_boxes", "addr:city": "WESTVILLE", "addr:country": "US", "addr:postcode": "29175", "addr:state": "SC", "addr:street_address": "3141 KERSHAW HWY", "amenity": "post_box", "collection_times": "Mo-Fr 15:45; Sa 09:45", "indoor": "yes", "note": "ON 12/24 AND 12/31, THIS BOX MAY BE COLLECTED AS EARLY AS 12 NOON.", "nsi_id": "unitedstatespostalservice-a77078", "operator": "United States Postal Service", "operator:short": "USPS", "operator:type": "public", "operator:wikidata": "Q668687", "ref": "2917500001"}, "type": "Feature"}
{"geometry": {"coordinates": [-80.598863575, 34.455295071], "type": "Point"}, "id": "cJsc3bkQLs83fE3a9JQYYQKspkY=", "properties": {"@source_uri": "https://tools.usps.com/UspsToolsRestServices/rest/POLocator/findLocations", "@spider": "usps_collection_boxes", "addr:city": "WESTVILLE", "addr:country": "US", "addr:postcode": "29175", "addr:state": "SC", "addr:street_address": "3141 KERSHAW HWY", "amenity": "post_box", "collection_times": "Mo-Fr 12:00; Sa 09:45", "indoor": "yes", "nsi_id": "unitedstatespostalservice-a77078", "operator": "United States Postal Service", "operator:short": "USPS", "operator:type": "public", "operator:wikidata": "Q668687", "ref": "2917500003"}, "type": "Feature"}
{"geometry": {"coordinates": [-81.2660789775, 34.140622017], "type": "Point"}, "id": "_9IegRvVGg1YiuByKrdx8qnWfQ0=", "properties": {"@source_uri": "https://tools.usps.com/UspsToolsRestServices/rest/POLocator/findLocations", "@spider": "usps_collection_boxes", "addr:city": "WHITE ROCK", "addr:country": "US", "addr:postcode": "29177", "addr:state": "SC", "addr:street_address": "1947 DUTCH FORK RD", "amenity": "post_box", "collection_times": "Mo-Fr 15:45; Sa 09:45", "note": "ON 12/24 AND 12/31, THIS BOX MAY BE COLLECTED AS EARLY AS 12 NOON.", "nsi_id": "unitedstatespostalservice-a77078", "operator": "United States Postal Service", "operator:short": "USPS", "operator:type": "public", "operator:wikidata": "Q668687", "ref": "2917700001"}, "type": "Feature"}
{"geometry": {"coordinates": [-81.264786496, 34.142296743], "type": "Point"}, "id": "QJzSwwTpF_AX2KGlY6JBqHwgcZU=", "properties": {"@source_uri": "https://tools.usps.com/UspsToolsRestServices/rest/POLocator/findLocations", "@spider": "usps_collection_boxes", "addr:city": "WHITE ROCK", "addr:country": "US", "addr:postcode": "29177", "addr:state": "SC", "addr:street_address": "1947 DUTCH FORK RD", "amenity": "post_box", "collection_times": "Mo-Fr 15:45; Sa 09:45", "indoor": "yes", "note": "ON 12/24 AND 12/31, THIS BOX MAY BE COLLECTED AS EARLY AS 12 NOON.", "nsi_id": "unitedstatespostalservice-a77078", "operator": "United States Postal Service", "operator:short": "USPS", "operator:type": "public", "operator:wikidata": "Q668687", "ref": "2917700003"}, "type": "Feature"}
{"geometry": {"coordinates": [-81.264786496, 34.142296743], "type": "Point"}, "id": "zc0hKF-sNAXfb00bni7d1u7SRec=", "properties": {"@source_uri": "https://tools.usps.com/UspsToolsRestServices/rest/POLocator/findLocations", "@spider": "usps_collection_boxes", "addr:city": "WHITE ROCK", "addr:country": "US", "addr:postcode": "29177", "addr:state": "SC", "addr:street_address": "1947 DUTCH FORK RD", "amenity": "post_box", "collection_times": "Mo-Fr 15:45; Sa 09:45", "indoor": "yes", "note": "ON 12/24 AND 12/31, THIS BOX MAY BE COLLECTED AS EARLY AS 12 NOON.", "nsi_id": "unitedstatespostalservice-a77078", "operator": "United States Postal Service", "operator:short": "USPS", "operator:type": "public", "operator:wikidata": "Q668687", "ref": "2917700005"}, "type": "Feature"}
{"geometry": {"coordinates": [-81.615272353, 34.503013912], "type": "Point"}, "id": "Zturh8wGwKciAI0Ormd5yjTn1aY=", "properties": {"@source_uri": "https://tools.usps.com/UspsToolsRestServices/rest/POLocator/findLocations", "@spider": "usps_collection_boxes", "addr:city": "WHITMIRE", "addr:country": "US", "addr:postcode": "29178", "addr:state": "SC", "addr:street_address": "205 MAIN ST", "amenity": "post_box", "collection_times": "Mo-Fr 15:45; Sa 09:45", "note": "ON 12/24 AND 12/31, THIS BOX MAY BE COLLECTED AS EARLY AS 12 NOON.", "nsi_id": "unitedstatespostalservice-a77078", "operator": "United States Postal Service", "operator:short": "USPS", "operator:type": "public", "operator:wikidata": "Q668687", "ref": "2917800000"}, "type": "Feature"}
{"geometry": {"coordinates": [-81.615272353, 34.503013912], "type": "Point"}, "id": "8zAFBMqP41boIWtYefdnZ_629uo=", "properties": {"@source_uri": "https://tools.usps.com/UspsToolsRestServices/rest/POLocator/findLocations", "@spider": "usps_collection_boxes", "addr:city": "WHITMIRE", "addr:country": "US", "addr:postcode": "29178", "addr:state": "SC", "addr:street_address": "205 MAIN ST", "amenity": "post_box", "collection_times": "Mo-Fr 15:45; Sa 09:45", "indoor": "yes", "note": "ON 12/24 AND 12/31, THIS BOX MAY BE COLLECTED AS EARLY AS 12 NOON.", "nsi_id": "unitedstatespostalservice-a77078", "operator": "United States Postal Service", "operator:short": "USPS", "operator:type": "public", "operator:wikidata": "Q668687", "ref": "2917800001"}, "type": "Feature"}
{"geometry": {"coordinates": [-81.615272353, 34.503013912], "type": "Point"}, "id": "xnpZFf_aBBpu8F6gdHdpfymEvZU=", "properties": {"@source_uri": "https://tools.usps.com/UspsToolsRestServices/rest/POLocator/findLocations", "@spider": "usps_collection_boxes", "addr:city": "WHITMIRE", "addr:country": "US", "addr:postcode": "29178", "addr:state": "SC", "addr:street_address": "205 MAIN ST", "amenity": "post_box", "collection_times": "Mo-Fr 15:45; Sa 09:45", "indoor": "yes", "note": "ON 12/24 AND 12/31, THIS BOX MAY BE COLLECTED AS EARLY AS 12 NOON.", "nsi_id": "unitedstatespostalservice-a77078", "operator": "United States Postal Service", "operator:short": "USPS", "operator:type": "public", "operator:wikidata": "Q668687", "ref": "2917800003"}, "type": "Feature"}
{"geometry": {"coordinates": [-81.08719973, 34.382717507], "type": "Point"}, "id": "kAdGuQJn1lbwXf426DW9MFWejSI=", "properties": {"@source_uri": "https://tools.usps.com/UspsToolsRestServices/rest/POLocator/findLocations", "@spider": "usps_collection_boxes", "addr:city": "WINNSBORO", "addr:country": "US", "addr:postcode": "29180", "addr:state": "SC", "addr:street_address": "144 N CONGRESS ST", "amenity": "post_box", "collection_times": "Mo-Fr 15:45; Sa 10:15", "indoor": "yes", "note": "ON 12/24 AND 12/31, THIS BOX MAY BE COLLECTED AS EARLY AS 12 NOON.", "nsi_id": "unitedstatespostalservice-a77078", "operator": "United States Postal Service", "operator:short": "USPS", "operator:type": "public", "operator:wikidata": "Q668687", "ref": "2918000000"}, "type": "Feature"}
{"geometry": {"coordinates": [-81.1010409, 34.370618], "type": "Point"}, "id": "-ATuABbTWyF6q9BXSNwwIegiGLg=", "properties": {"@source_uri": "https://tools.usps.com/UspsToolsRestServices/rest/POLocator/findLocations", "@spider": "usps_collection_boxes", "addr:city": "WINNSBORO", "addr:country": "US", "addr:postcode": "29180", "addr:state": "SC", "addr:street_address": "107 S 321 BYP", "amenity": "post_box", "collection_times": "Mo-Fr 13:00", "note": "ON 12/24 AND 12/31, THIS BOX MAY BE COLLECTED AS EARLY AS 12 NOON.", "nsi_id": "unitedstatespostalservice-a77078", "operator": "United States Postal Service", "operator:short": "USPS", "operator:type": "public", "operator:wikidata": "Q668687", "ref": "2918000002"}, "type": "Feature"}
{"geometry": {"coordinates": [-81.0868916, 34.348803], "type": "Point"}, "id": "XXO4ni49PFV9wKQVFRYQN2BVPoM=", "properties": {"@source_uri": "https://tools.usps.com/UspsToolsRestServices/rest/POLocator/findLocations", "@spider": "usps_collection_boxes", "addr:city": "WINNSBORO", "addr:country": "US", "addr:postcode": "29180", "addr:state": "SC", "addr:street_address": "1200 COLUMBIA RD", "amenity": "post_box", "collection_times": "Mo-Fr 14:00", "note": "ON 12/24 AND 12/31, THIS BOX MAY BE COLLECTED AS EARLY AS 12 NOON.", "nsi_id": "unitedstatespostalservice-a77078", "operator": "United States Postal Service", "operator:short": "USPS", "operator:type": "public", "operator:wikidata": "Q668687", "ref": "2918000003"}, "type": "Feature"}
{"geometry": {"coordinates": [-81.0866233, 34.380423], "type": "Point"}, "id": "lVMIVsgJgaA-7Ee9F5TVVj35jwc=", "properties": {"@source_uri": "https://tools.usps.com/UspsToolsRestServices/rest/POLocator/findLocations", "@spider": "usps_collection_boxes", "addr:city": "WINNSBORO", "addr:country": "US", "addr:postcode": "29180", "addr:state": "SC", "addr:street_address": "101 W WASHINGTON ST", "amenity": "post_box", "collection_times": "Mo-Fr 13:30", "note": "ON 12/24 AND 12/31, THIS BOX MAY BE COLLECTED AS EARLY AS 12 NOON.", "nsi_id": "unitedstatespostalservice-a77078", "operator": "United States Postal Service", "operator:short": "USPS", "operator:type": "public", "operator:wikidata": "Q668687", "ref": "2918000006"}, "type": "Feature"}
{"geometry": {"coordinates": [-81.0876942, 34.384305], "type": "Point"}, "id": "qHzivcJrkFgZtwQ8pdwbQVTGyLw=", "properties": {"@source_uri": "https://tools.usps.com/UspsToolsRestServices/rest/POLocator/findLocations", "@spider": "usps_collection_boxes", "addr:city": "WINNSBORO", "addr:country": "US", "addr:postcode": "29180", "addr:state": "SC", "addr:street_address": "214 N CONGRESS ST", "amenity": "post_box", "collection_times": "Mo-Fr 13:30", "note": "ON 12/24 AND 12/31, THIS BOX MAY BE COLLECTED AS EARLY AS 12 NOON.", "nsi_id": "unitedstatespostalservice-a77078", "operator": "United States Postal Service", "operator:short": "USPS", "operator:type": "public", "operator:wikidata": "Q668687", "ref": "2918000008"}, "type": "Feature"}
{"geometry": {"coordinates": [-81.0865472, 34.35844], "type": "Point"}, "id": "nZzDR8w5IN3wedfyXf8z0QjgTyA=", "properties": {"@source_uri": "https://tools.usps.com/UspsToolsRestServices/rest/POLocator/findLocations", "@spider": "usps_collection_boxes", "addr:city": "WINNSBORO", "addr:country": "US", "addr:postcode": "29180", "addr:state": "SC", "addr:street_address": "900 COLUMBIA RD", "amenity": "post_box", "collection_times": "Mo-Fr 13:45", "note": "ON 12/24 AND 12/31, THIS BOX MAY BE COLLECTED AS EARLY AS 12 NOON.", "nsi_id": "unitedstatespostalservice-a77078", "operator": "United States Postal Service", "operator:short": "USPS", "operator:type": "public", "operator:wikidata": "Q668687", "ref": "2918000010"}, "type": "Feature"}
{"geometry": {"coordinates": [-81.08719973, 34.382717507], "type": "Point"}, "id": "Cfzwgptbet2s-1M5P81-vojb9bE=", "properties": {"@source_uri": "https://tools.usps.com/UspsToolsRestServices/rest/POLocator/findLocations", "@spider": "usps_collection_boxes", "addr:city": "WINNSBORO", "addr:country": "US", "addr:postcode": "29180", "addr:state": "SC", "addr:street_address": "144 N CONGRESS ST", "amenity": "post_box", "collection_times": "Mo-Fr 15:45; Sa 10:15", "note": "ON 12/24 AND 12/31, THIS BOX MAY BE COLLECTED AS EARLY AS 12 NOON.", "nsi_id": "unitedstatespostalservice-a77078", "operator": "United States Postal Service", "operator:short": "USPS", "operator:type": "public", "operator:wikidata": "Q668687", "ref": "2918000015"}, "type": "Feature"}
{"geometry": {"coordinates": [-81.125209, 34.317987], "type": "Point"}, "id": "Ya5XoICE5DUU2Y7quBERTI86ZDU=", "properties": {"@source_uri": "https://tools.usps.com/UspsToolsRestServices/rest/POLocator/findLocations", "@spider": "usps_collection_boxes", "addr:city": "WINNSBORO", "addr:country": "US", "addr:postcode": "29180", "addr:state": "SC", "addr:street_address": "255 KELLY MILLER RD", "amenity": "post_box", "collection_times": "Mo-Fr 09:15", "nsi_id": "unitedstatespostalservice-a77078", "operator": "United States Postal Service", "operator:short": "USPS", "operator:type": "public", "operator:wikidata": "Q668687", "ref": "2918000018"}, "type": "Feature"}
{"geometry": {"coordinates": [-81.08719973, 34.382717507], "type": "Point"}, "id": "EQ-AgBJY5hF6tkEQ2NI5_NCgA78=", "properties": {"@source_uri": "https://tools.usps.com/UspsToolsRestServices/rest/POLocator/findLocations", "@spider": "usps_collection_boxes", "addr:city": "WINNSBORO", "addr:country": "US", "addr:postcode": "29180", "addr:state": "SC", "addr:street_address": "144 N CONGRESS ST", "amenity": "post_box", "collection_times": "Mo-Fr 15:45; Sa 10:15", "indoor": "yes", "note": "ON 12/24 AND 12/31, THIS BOX MAY BE COLLECTED AS EARLY AS 12 NOON.", "nsi_id": "unitedstatespostalservice-a77078", "operator": "United States Postal Service", "operator:short": "USPS", "operator:type": "public", "operator:wikidata": "Q668687", "ref": "2918000020"}, "type": "Feature"}
