{"dataset_attributes": {"@spider": "usps_collection_boxes"}, "geometry": {"coordinates": [-81.0189217, 33.969171], "type": "Point"}, "id": "3pS9yf-H7HkORETHLXA-WjbyKC0=", "properties": {"@spider": "usps_collection_boxes", "addr:city": "COLUMBIA", "addr:country": "US", "addr:full": "1 NATIONAL GUARD RD", "addr:postcode": "29201", "addr:state": "SC", "amenity": "post_box", "brand": "United States Postal Service", "brand:wikidata": "Q668687", "collection_times": "Mo-Fr 16:45", "name": "USPS COLLECTION BOX - BLUE BOX", "note": "ON 12/24 AND 12/31, THIS BOX MAY BE COLLECTED AS EARLY AS 12 NOON.", "nsi_id": "unitedstatespostalservice-a77078", "operator": "United States Postal Service", "operator:short": "USPS", "operator:type": "public", "operator:wikidata": "Q668687", "ref": "2920100031"}, "type": "Feature"}
{"dataset_attributes": {"@spider": "usps_collection_boxes"}, "geometry": {"coordinates": [-81.0364627, 34.020979], "type": "Point"}, "id": "sRny_qAirRgPRGYqiik5oiJwS4g=", "properties": {"@spider": "usps_collection_boxes", "addr:city": "COLUMBIA", "addr:country": "US", "addr:full": "1535 CONFEDERATE AVE", "addr:postcode": "29201", "addr:state": "SC", "amenity": "post_box", "brand": "United States Postal Service", "brand:wikidata": "Q668687", "collection_times": "Mo-Fr 14:00", "name": "USPS COLLECTION BOX - BLUE BOX", "note": "ON 12/24 AND 12/31, THIS BOX MAY BE COLLECTED AS EARLY AS 12 NOON.", "nsi_id": "unitedstatespostalservice-a77078", "operator": "United States Postal Service", "operator:short": "USPS", "operator:type": "public", "operator:wikidata": "Q668687", "ref": "2920100041"}, "type": "Feature"}
{"dataset_attributes": {"@spider": "usps_collection_boxes"}, "geometry": {"coordinates": [-81.0307467, 34.003388], "type": "Point"}, "id": "89AKI-WRwN8kwI3Ao34cjpEXDw8=", "properties": {"@spider": "usps_collection_boxes", "addr:city": "COLUMBIA", "addr:country": "US", "addr:full": "1233 MARION ST", "addr:postcode": "29201", "addr:state": "SC", "amenity": "post_box", "brand": "United States Postal Service", "brand:wikidata": "Q668687", "collection_times": "Mo-Fr 15:45; Sa 13:00", "name": "USPS COLLECTION BOX - BLUE BOX", "note": "ON 12/24 AND 12/31, THIS BOX MAY BE COLLECTED AS EARLY AS 12 NOON.", "nsi_id": "unitedstatespostalservice-a77078", "operator": "United States Postal Service", "operator:short": "USPS", "operator:type": "public", "operator:wikidata": "Q668687", "ref": "2920100042"}, "type": "Feature"}
{"dataset_attributes": {"@spider": "usps_collection_boxes"}, "geometry": {"coordinates": [-81.0307239, 34.003384], "type": "Point"}, "id": "3xJ0RVdv2-0VC9xAJvHCIDXzlH0=", "properties": {"@spider": "usps_collection_boxes", "addr:city": "COLUMBIA", "addr:country": "US", "addr:full": "1233 MARION ST", "addr:postcode": "29201", "addr:state": "SC", "amenity": "post_box", "brand": "United States Postal Service", "brand:wikidata": "Q668687", "collection_times": "Mo-Fr 15:45; Sa 13:00", "name": "USPS COLLECTION BOX - BLUE BOX", "note": "ON 12/24 AND 12/31, THIS BOX MAY BE COLLECTED AS EARLY AS 12 NOON.", "nsi_id": "unitedstatespostalservice-a77078", "operator": "United States Postal Service", "operator:short": "USPS", "operator:type": "public", "operator:wikidata": "Q668687", "ref": "2920100043"}, "type": "Feature"}
{"dataset_attributes": {"@spider": "usps_collection_boxes"}, "geometry": {"coordinates": [-81.0424519, 33.992611], "type": "Point"}, "id": "UkoK7nNp4JF92boFSfGqI7r0lFc=", "properties": {"@spider": "usps_collection_boxes", "addr:city": "COLUMBIA", "addr:country": "US", "addr:full": "800 HUGER ST", "addr:postcode": "29201", "addr:state": "SC", "amenity": "post_box", "brand": "United States Postal Service", "brand:wikidata": "Q668687", "collection_times": "Mo-Fr 12:15", "name": "USPS COLLECTION BOX - BLUE BOX", "note": "ON 12/24 AND 12/31, THIS BOX MAY BE COLLECTED AS EARLY AS 12 NOON.", "nsi_id": "unitedstatespostalservice-a77078", "operator": "United States Postal Service", "operator:short": "USPS", "operator:type": "public", "operator:wikidata": "Q668687", "ref": "2920100056"}, "type": "Feature"}
{"dataset_attributes": {"@spider": "usps_collection_boxes"}, "geometry": {"coordinates": [-81.0482166, 33.998296], "type": "Point"}, "id": "ERimPgTqRomWWL392YXmuzGl2N0=", "properties": {"@spider": "usps_collection_boxes", "addr:city": "COLUMBIA", "addr:country": "US", "addr:full": "301 GERVAIS ST", "addr:postcode": "29201", "addr:state": "SC", "amenity": "post_box", "brand": "United States Postal Service", "brand:wikidata": "Q668687", "collection_times": "Mo-Fr 16:30", "name": "USPS COLLECTION BOX - BLUE BOX", "note": "ON 12/24 AND 12/31, THIS BOX MAY BE COLLECTED AS EARLY AS 12 NOON.", "nsi_id": "unitedstatespostalservice-a77078", "operator": "United States Postal Service", "operator:short": "USPS", "operator:type": "public", "operator:wikidata": "Q668687", "ref": "2920100060"}, "type": "Feature"}
{"dataset_attributes": {"@spider": "usps_collection_boxes"}, "geometry": {"coordinates": [-81.0312987, 33.99592], "type": "Point"}, "id": "whuIXe-g134tNwF7E1NNhiNN19M=", "properties": {"@spider": "usps_collection_boxes", "addr:city": "COLUMBIA", "addr:country": "US", "addr:full": "801 MAIN ST", "addr:postcode": "29201", "addr:state": "SC", "amenity": "post_box", "brand": "United States Postal Service", "brand:wikidata": "Q668687", "collection_times": "Mo-Fr 12:00", "name": "USPS COLLECTION BOX - BLUE BOX", "nsi_id": "unitedstatespostalservice-a77078", "operator": "United States Postal Service", "operator:short": "USPS", "operator:type": "public", "operator:wikidata": "Q668687", "ref": "2920100066"}, "type": "Feature"}
{"dataset_attributes": {"@spider": "usps_collection_boxes"}, "geometry": {"coordinates": [-81.0342411, 34.002576], "type": "Point"}, "id": "MMBwrcmejPTBEU8XzSNBfjbFm_o=", "properties": {"@spider": "usps_collection_boxes", "addr:city": "COLUMBIA", "addr:country": "US", "addr:full": "1122 LADY ST", "addr:postcode": "29201", "addr:state": "SC", "amenity": "post_box", "brand": "United States Postal Service", "brand:wikidata": "Q668687", "collection_times": "Mo-Fr 16:00", "name": "USPS COLLECTION BOX - BLUE BOX", "note": "ON 12/24 AND 12/31, THIS BOX MAY BE COLLECTED AS EARLY AS 12 NOON.", "nsi_id": "unitedstatespostalservice-a77078", "operator": "United States Postal Service", "operator:short": "USPS", "operator:type": "public", "operator:wikidata": "Q668687", "ref": "2920100090"}, "type": "Feature"}
{"dataset_attributes": {"@spider": "usps_collection_boxes"}, "geometry": {"coordinates": [-81.0322458, 34.003262], "type": "Point"}, "id": "ZrO9ti51e_0CXBOupO0UNU9REZs=", "properties": {"@spider": "usps_collection_boxes", "addr:city": "COLUMBIA", "addr:country": "US", "addr:full": "1301 LADY ST", "addr:postcode": "29201", "addr:state": "SC", "amenity": "post_box", "brand": "United States Postal Service", "brand:wikidata": "Q668687", "collection_times": "Mo-Fr 16:00", "name": "USPS COLLECTION BOX - BLUE BOX", "note": "ON 12/24 AND 12/31, THIS BOX MAY BE COLLECTED AS EARLY AS 12 NOON.", "nsi_id": "unitedstatespostalservice-a77078", "operator": "United States Postal Service", "operator:short": "USPS", "operator:type": "public", "operator:wikidata": "Q668687", "ref": "2920100091"}, "type": "Feature"}
{"dataset_attributes": {"@spider": "usps_collection_boxes"}, "geometry": {"coordinates": [-81.0362218, 34.004597], "type": "Point"}, "id": "fORDPx0vgbT0me9jE1nFTGpi96A=", "properties": {"@spider": "usps_collection_boxes", "addr:city": "COLUMBIA", "addr:country": "US", "addr:full": "1441 MAIN ST", "addr:postcode": "29201", "addr:state": "SC", "amenity": "post_box", "brand": "United States Postal Service", "brand:wikidata": "Q668687", "collection_times": "Mo-Fr 15:15", "name": "USPS COLLECTION BOX - BLUE BOX", "note": "ON 12/24 AND 12/31, THIS BOX MAY BE COLLECTED AS EARLY AS 12 NOON.", "nsi_id": "unitedstatespostalservice-a77078", "operator": "United States Postal Service", "operator:short": "USPS", "operator:type": "public", "operator:wikidata": "Q668687", "ref": "2920100111"}, "type": "Feature"}
{"dataset_attributes": {"@spider": "usps_collection_boxes"}, "geometry": {"coordinates": [-81.0352583, 33.996181], "type": "Point"}, "id": "UxNLkTDl9YKj-uF5i2bjfjFoyhc=", "properties": {"@spider": "usps_collection_boxes", "addr:city": "COLUMBIA", "addr:country": "US", "addr:full": "955 PARK ST", "addr:postcode": "29201", "addr:state": "SC", "amenity": "post_box", "brand": "United States Postal Service", "brand:wikidata": "Q668687", "collection_times": "Mo-Fr 15:15", "name": "USPS COLLECTION BOX - BLUE BOX", "note": "ON 12/24 AND 12/31, THIS BOX MAY BE COLLECTED AS EARLY AS 12 NOON.", "nsi_id": "unitedstatespostalservice-a77078", "operator": "United States Postal Service", "operator:short": "USPS", "operator:type": "public", "operator:wikidata": "Q668687", "ref": "2920100119"}, "type": "Feature"}
{"dataset_attributes": {"@spider": "usps_collection_boxes"}, "geometry": {"coordinates": [-81.0307746, 33.99884], "type": "Point"}, "id": "I8AOg72dOnp-WSVRnZeG0BA6TZw=", "properties": {"@spider": "usps_collection_boxes", "addr:city": "COLUMBIA", "addr:country": "US", "addr:full": "945 SUMTER ST", "addr:postcode": "29201", "addr:state": "SC", "amenity": "post_box", "brand": "United States Postal Service", "brand:wikidata": "Q668687", "collection_times": "Mo-Fr 12:00", "name": "USPS COLLECTION BOX - BLUE BOX", "nsi_id": "unitedstatespostalservice-a77078", "operator": "United States Postal Service", "operator:short": "USPS", "operator:type": "public", "operator:wikidata": "Q668687", "ref": "2920100122"}, "type": "Feature"}
{"dataset_attributes": {"@spider": "usps_collection_boxes"}, "geometry": {"coordinates": [-81.0287994, 34.007195], "type": "Point"}, "id": "qZCG0gbMKF-0Pj2TLUdKuKhe-YU=", "properties": {"@spider": "usps_collection_boxes", "addr:city": "COLUMBIA", "addr:country": "US", "addr:full": "1600 HAMPTON ST", "addr:postcode": "29201", "addr:state": "SC", "amenity": "post_box", "brand": "United States Postal Service", "brand:wikidata": "Q668687", "collection_times": "Mo-Fr 13:45", "name": "USPS COLLECTION BOX - BLUE BOX", "note": "ON 12/24 AND 12/31, THIS BOX MAY BE COLLECTED AS EARLY AS 12 NOON.", "nsi_id": "unitedstatespostalservice-a77078", "operator": "United States Postal Service", "operator:short": "USPS", "operator:type": "public", "operator:wikidata": "Q668687", "ref": "2920100127"}, "type": "Feature"}
{"dataset_attributes": {"@spider": "usps_collection_boxes"}, "geometry": {"coordinates": [-81.0482194, 34.008813], "type": "Point"}, "id": "2CdMKc-awCMZwhVRSy2ZsJMeWPs=", "properties": {"@spider": "usps_collection_boxes", "addr:city": "COLUMBIA", "addr:country": "US", "addr:full": "5000 THURMOND MALL", "addr:postcode": "29201", "addr:state": "SC", "amenity": "post_box", "brand": "United States Postal Service", "brand:wikidata": "Q668687", "collection_times": "Mo-Fr 16:00", "name": "USPS COLLECTION BOX - BLUE BOX", "note": "ON 12/24 AND 12/31, THIS BOX MAY BE COLLECTED AS EARLY AS 12 NOON.", "nsi_id": "unitedstatespostalservice-a77078", "operator": "United States Postal Service", "operator:short": "USPS", "operator:type": "public", "operator:wikidata": "Q668687", "ref": "2920100139"}, "type": "Feature"}
{"dataset_attributes": {"@spider": "usps_collection_boxes"}, "geometry": {"coordinates": [-81.0355758, 34.00369], "type": "Point"}, "id": "8irAWEkM6VovNXWivExBR9PsS5I=", "properties": {"@spider": "usps_collection_boxes", "addr:city": "COLUMBIA", "addr:country": "US", "addr:full": "1114 WASHINGTON ST", "addr:postcode": "29201", "addr:state": "SC", "amenity": "post_box", "brand": "United States Postal Service", "brand:wikidata": "Q668687", "collection_times": "Mo-Fr 13:30", "name": "USPS COLLECTION BOX - BLUE BOX", "note": "ON 12/24 AND 12/31, THIS BOX MAY BE COLLECTED AS EARLY AS 12 NOON.", "nsi_id": "unitedstatespostalservice-a77078", "operator": "United States Postal Service", "operator:short": "USPS", "operator:type": "public", "operator:wikidata": "Q668687", "ref": "2920100144"}, "type": "Feature"}
{"dataset_attributes": {"@spider": "usps_collection_boxes"}, "geometry": {"coordinates": [-81.0339579, 34.004184], "type": "Point"}, "id": "nSttBOuMNzQkL4dmumRdqRMRFnM=", "properties": {"@spider": "usps_collection_boxes", "addr:city": "COLUMBIA", "addr:country": "US", "addr:full": "1216 WASHINGTON ST", "addr:postcode": "29201", "addr:state": "SC", "amenity": "post_box", "brand": "United States Postal Service", "brand:wikidata": "Q668687", "collection_times": "Mo-Fr 13:15", "name": "USPS COLLECTION BOX - BLUE BOX", "note": "ON 12/24 AND 12/31, THIS BOX MAY BE COLLECTED AS EARLY AS 12 NOON.", "nsi_id": "unitedstatespostalservice-a77078", "operator": "United States Postal Service", "operator:short": "USPS", "operator:type": "public", "operator:wikidata": "Q668687", "ref": "2920100146"}, "type": "Feature"}
{"dataset_attributes": {"@spider": "usps_collection_boxes"}, "geometry": {"coordinates": [-81.0348373, 34.003924], "type": "Point"}, "id": "LQFcjMawO9NQP65SIw-QAi3LjEI=", "properties": {"@spider": "usps_collection_boxes", "addr:city": "COLUMBIA", "addr:country": "US", "addr:full": "1136 WASHINGTON ST", "addr:postcode": "29201", "addr:state": "SC", "amenity": "post_box", "brand": "United States Postal Service", "brand:wikidata": "Q668687", "collection_times": "Mo-Fr 13:30", "name": "USPS COLLECTION BOX - BLUE BOX", "note": "ON 12/24 AND 12/31, THIS BOX MAY BE COLLECTED AS EARLY AS 12 NOON.", "nsi_id": "unitedstatespostalservice-a77078", "operator": "United States Postal Service", "operator:short": "USPS", "operator:type": "public", "operator:wikidata": "Q668687", "ref": "2920100147"}, "type": "Feature"}
{"dataset_attributes": {"@spider": "usps_collection_boxes"}, "geometry": {"coordinates": [-81.0402359, 34.010298], "type": "Point"}, "id": "1kb-TS-ht5iBSzrvm0bGAnJpQRY=", "properties": {"@spider": "usps_collection_boxes", "addr:city": "COLUMBIA", "addr:country": "US", "addr:full": "1901 ASSEMBLY ST", "addr:postcode": "29201", "addr:state": "SC", "amenity": "post_box", "brand": "United States Postal Service", "brand:wikidata": "Q668687", "collection_times": "Mo-Fr 15:30", "name": "USPS COLLECTION BOX - BLUE BOX", "note": "ON 12/24 AND 12/31, THIS BOX MAY BE COLLECTED AS EARLY AS 12 NOON.", "nsi_id": "unitedstatespostalservice-a77078", "operator": "United States Postal Service", "operator:short": "USPS", "operator:type": "public", "operator:wikidata": "Q668687", "ref": "2920100153"}, "type": "Feature"}
{"dataset_attributes": {"@spider": "usps_collection_boxes"}, "geometry": {"coordinates": [-81.0368599, 34.005205], "type": "Point"}, "id": "CjMF9xgAQ9dnmVE0iqxXePv0fD4=", "properties": {"@spider": "usps_collection_boxes", "addr:city": "COLUMBIA", "addr:country": "US", "addr:full": "1501 MAIN ST", "addr:postcode": "29201", "addr:state": "SC", "amenity": "post_box", "brand": "United States Postal Service", "brand:wikidata": "Q668687", "collection_times": "Mo-Fr 15:00", "name": "USPS COLLECTION BOX - BLUE BOX", "note": "ON 12/24 AND 12/31, THIS BOX MAY BE COLLECTED AS EARLY AS 12 NOON.", "nsi_id": "unitedstatespostalservice-a77078", "operator": "United States Postal Service", "operator:short": "USPS", "operator:type": "public", "operator:wikidata": "Q668687", "ref": "2920100170"}, "type": "Feature"}
{"dataset_attributes": {"@spider": "usps_collection_boxes"}, "geometry": {"coordinates": [-81.0402585, 34.011485], "type": "Point"}, "id": "k2DvF0ef_Y5k62RdSmLH5fur2tQ=", "properties": {"@spider": "usps_collection_boxes", "addr:city": "COLUMBIA", "addr:country": "US", "addr:full": "2001 ASSEMBLY ST", "addr:postcode": "29201", "addr:state": "SC", "amenity": "post_box", "brand": "United States Postal Service", "brand:wikidata": "Q668687", "collection_times": "Mo-Fr 15:30", "name": "USPS COLLECTION BOX - BLUE BOX", "note": "ON 12/24 AND 12/31, THIS BOX MAY BE COLLECTED AS EARLY AS 12 NOON.", "nsi_id": "unitedstatespostalservice-a77078", "operator": "United States Postal Service", "operator:short": "USPS", "operator:type": "public", "operator:wikidata": "Q668687", "ref": "2920100178"}, "type": "Feature"}
{"dataset_attributes": {"@spider": "usps_collection_boxes"}, "geometry": {"coordinates": [-81.0334414, 34.008763], "type": "Point"}, "id": "4h4HsVc1EXzHRNf-0mFdNZY0NGQ=", "properties": {"@spider": "usps_collection_boxes", "addr:city": "COLUMBIA", "addr:country": "US", "addr:full": "1328 BLANDING ST", "addr:postcode": "29201", "addr:state": "SC", "amenity": "post_box", "brand": "United States Postal Service", "brand:wikidata": "Q668687", "collection_times": "Mo-Fr 16:00", "name": "USPS COLLECTION BOX - BLUE BOX", "note": "ON 12/24 AND 12/31, THIS BOX MAY BE COLLECTED AS EARLY AS 12 NOON.", "nsi_id": "unitedstatespostalservice-a77078", "operator": "United States Postal Service", "operator:short": "USPS", "operator:type": "public", "operator:wikidata": "Q668687", "ref": "2920100183"}, "type": "Feature"}
{"dataset_attributes": {"@spider": "usps_collection_boxes"}, "geometry": {"coordinates": [-81.0307896, 34.003402], "type": "Point"}, "id": "4eZ8Dox00yy--GkBsFHambXLejw=", "properties": {"@spider": "usps_collection_boxes", "addr:city": "COLUMBIA", "addr:country": "US", "addr:full": "1233 MARION ST", "addr:postcode": "29201", "addr:state": "SC", "amenity": "post_box", "brand": "United States Postal Service", "brand:wikidata": "Q668687", "collection_times": "Mo-Fr 15:45; Sa 13:00", "name": "USPS COLLECTION BOX - BLUE BOX", "note": "ON 12/24 AND 12/31, THIS BOX MAY BE COLLECTED AS EARLY AS 12 NOON.", "nsi_id": "unitedstatespostalservice-a77078", "operator": "United States Postal Service", "operator:short": "USPS", "operator:type": "public", "operator:wikidata": "Q668687", "ref": "2920100184"}, "type": "Feature"}
{"dataset_attributes": {"@spider": "usps_collection_boxes"}, "geometry": {"coordinates": [-81.038137731, 34.007077385], "type": "Point"}, "id": "RjQcVslnYuIHIZrInF2hNkK1B1Q=", "properties": {"@spider": "usps_collection_boxes", "addr:city": "COLUMBIA", "addr:country": "US", "addr:full": "1601 ASSEMBLY ST", "addr:postcode": "29202", "addr:state": "SC", "amenity": "post_box", "brand": "United States Postal Service", "brand:wikidata": "Q668687", "collection_times": "Mo-Fr 17:00; Sa 15:00", "name": "USPS COLLECTION BOX - BLUE BOX", "note": "ON 12/24 AND 12/31, THIS BOX MAY BE COLLECTED AS EARLY AS 12 NOON.", "nsi_id": "unitedstatespostalservice-a77078", "operator": "United States Postal Service", "operator:short": "USPS", "operator:type": "public", "operator:wikidata": "Q668687", "ref": "2920200000"}, "type": "Feature"}
{"dataset_attributes": {"@spider": "usps_collection_boxes"}, "geometry": {"coordinates": [-81.038130189, 34.007066751], "type": "Point"}, "id": "IpuJVdVALRtz81Tjlk2NhJU_4TU=", "properties": {"@spider": "usps_collection_boxes", "addr:city": "COLUMBIA", "addr:country": "US", "addr:full": "1601 ASSEMBLY ST", "addr:postcode": "29202", "addr:state": "SC", "amenity": "post_box", "brand": "United States Postal Service", "brand:wikidata": "Q668687", "collection_times": "Mo-Fr 17:00; Sa 15:00", "name": "USPS COLLECTION BOX - PO LOBBY", "note": "ON 12/24 AND 12/31, THIS BOX MAY BE COLLECTED AS EARLY AS 12 NOON.", "nsi_id": "unitedstatespostalservice-a77078", "operator": "United States Postal Service", "operator:short": "USPS", "operator:type": "public", "operator:wikidata": "Q668687", "ref": "2920200005"}, "type": "Feature"}
{"dataset_attributes": {"@spider": "usps_collection_boxes"}, "geometry": {"coordinates": [-81.038130189, 34.007066751], "type": "Point"}, "id": "2I6RjLdfUvwgOHhpUlO1yLzQIH0=", "properties": {"@spider": "usps_collection_boxes", "addr:city": "COLUMBIA", "addr:country": "US", "addr:full": "1601 ASSEMBLY ST", "addr:postcode": "29202", "addr:state": "SC", "amenity": "post_box", "brand": "United States Postal Service", "brand:wikidata": "Q668687", "collection_times": "Mo-Fr 17:00", "name": "USPS COLLECTION BOX - BLUE BOX", "note": "ON 12/24 AND 12/31, THIS BOX MAY BE COLLECTED AS EARLY AS 12 NOON.", "nsi_id": "unitedstatespostalservice-a77078", "operator": "United States Postal Service", "operator:short": "USPS", "operator:type": "public", "operator:wikidata": "Q668687", "ref": "2920200009"}, "type": "Feature"}
{"dataset_attributes": {"@spider": "usps_collection_boxes"}, "geometry": {"coordinates": [-81.038130189, 34.007066751], "type": "Point"}, "id": "S-5JrocVGxlA2Fd6haMK-0vu2Xc=", "properties": {"@spider": "usps_collection_boxes", "addr:city": "COLUMBIA", "addr:country": "US", "addr:full": "1601 ASSEMBLY ST", "addr:postcode": "29202", "addr:state": "SC", "amenity": "post_box", "brand": "United States Postal Service", "brand:wikidata": "Q668687", "collection_times": "Mo-Fr 17:00; Sa 15:00", "name": "USPS COLLECTION BOX - BLUE BOX", "note": "ON 12/24 AND 12/31, THIS BOX MAY BE COLLECTED AS EARLY AS 12 NOON.", "nsi_id": "unitedstatespostalservice-a77078", "operator": "United States Postal Service", "operator:short": "USPS", "operator:type": "public", "operator:wikidata": "Q668687", "ref": "2920200010"}, "type": "Feature"}
{"dataset_attributes": {"@spider": "usps_collection_boxes"}, "geometry": {"coordinates": [-81.038130189, 34.007066751], "type": "Point"}, "id": "kdKn9JSI9SBpELVVQIpzuZKMJak=", "properties": {"@spider": "usps_collection_boxes", "addr:city": "COLUMBIA", "addr:country": "US", "addr:full": "1601 ASSEMBLY ST", "addr:postcode": "29202", "addr:state": "SC", "amenity": "post_box", "brand": "United States Postal Service", "brand:wikidata": "Q668687", "collection_times": "Mo-Fr 17:00; Sa 15:00", "name": "USPS COLLECTION BOX - APC", "note": "ON 12/24 AND 12/31, THIS BOX MAY BE COLLECTED AS EARLY AS 12 NOON.", "nsi_id": "unitedstatespostalservice-a77078", "operator": "United States Postal Service", "operator:short": "USPS", "operator:type": "public", "operator:wikidata": "Q668687", "ref": "2920200011"}, "type": "Feature"}
{"dataset_attributes": {"@spider": "usps_collection_boxes"}, "geometry": {"coordinates": [-81.038130189, 34.007066751], "type": "Point"}, "id": "ElaLiYTonwdRYaXPgBGlhpRQ1yM=", "properties": {"@spider": "usps_collection_boxes", "addr:city": "COLUMBIA", "addr:country": "US", "addr:full": "1601 ASSEMBLY ST", "addr:postcode": "29202", "addr:state": "SC", "amenity": "post_box", "brand": "United States Postal Service", "brand:wikidata": "Q668687", "collection_times": "Mo-Fr 17:00", "name": "USPS COLLECTION BOX - PO LOBBY", "note": "ON 12/24 AND 12/31, THIS BOX MAY BE COLLECTED AS EARLY AS 12 NOON.", "nsi_id": "unitedstatespostalservice-a77078", "operator": "United States Postal Service", "operator:short": "USPS", "operator:type": "public", "operator:wikidata": "Q668687", "ref": "2920200014"}, "type": "Feature"}
{"dataset_attributes": {"@spider": "usps_collection_boxes"}, "geometry": {"coordinates": [-81.0279639, 34.045773], "type": "Point"}, "id": "p04JdP1dTiwrqnDzqmrQWDOv8CE=", "properties": {"@spider": "usps_collection_boxes", "addr:city": "COLUMBIA", "addr:country": "US", "addr:full": "4908 COLONIAL DR", "addr:postcode": "29203", "addr:state": "SC", "amenity": "post_box", "brand": "United States Postal Service", "brand:wikidata": "Q668687", "collection_times": "Mo-Fr 16:15", "name": "USPS COLLECTION BOX - BLUE BOX", "note": "ON 12/24 AND 12/31, THIS BOX MAY BE COLLECTED AS EARLY AS 12 NOON.", "nsi_id": "unitedstatespostalservice-a77078", "operator": "United States Postal Service", "operator:short": "USPS", "operator:type": "public", "operator:wikidata": "Q668687", "ref": "2920300003"}, "type": "Feature"}
{"dataset_attributes": {"@spider": "usps_collection_boxes"}, "geometry": {"coordinates": [-81.043284748, 34.039522449], "type": "Point"}, "id": "QEYlh-_lcx7lZnN2cyN_dAmCbRM=", "properties": {"@spider": "usps_collection_boxes", "addr:city": "COLUMBIA", "addr:country": "US", "addr:full": "4026 LAMAR ST", "addr:postcode": "29203", "addr:state": "SC", "amenity": "post_box", "brand": "United States Postal Service", "brand:wikidata": "Q668687", "collection_times": "Mo-Fr 16:15; Sa 13:45", "name": "USPS COLLECTION BOX - BLUE BOX", "note": "ON 12/24 AND 12/31, THIS BOX MAY BE COLLECTED AS EARLY AS 12 NOON.", "nsi_id": "unitedstatespostalservice-a77078", "operator": "United States Postal Service", "operator:short": "USPS", "operator:type": "public", "operator:wikidata": "Q668687", "ref": "2920300011"}, "type": "Feature"}
{"dataset_attributes": {"@spider": "usps_collection_boxes"}, "geometry": {"coordinates": [-81.043284748, 34.039522449], "type": "Point"}, "id": "1cFK1OQ5gyskEYIjei6LYNJMkIs=", "properties": {"@spider": "usps_collection_boxes", "addr:city": "COLUMBIA", "addr:country": "US", "addr:full": "4026 LAMAR ST", "addr:postcode": "29203", "addr:state": "SC", "amenity": "post_box", "brand": "United States Postal Service", "brand:wikidata": "Q668687", "collection_times": "Mo-Fr 16:15", "name": "USPS COLLECTION BOX - PO LOBBY", "note": "ON 12/24 AND 12/31, THIS BOX MAY BE COLLECTED AS EARLY AS 12 NOON.", "nsi_id": "unitedstatespostalservice-a77078", "operator": "United States Postal Service", "operator:short": "USPS", "operator:type": "public", "operator:wikidata": "Q668687", "ref": "2920300012"}, "type": "Feature"}
{"dataset_attributes": {"@spider": "usps_collection_boxes"}, "geometry": {"coordinates": [-81.0284177, 34.052415], "type": "Point"}, "id": "8SnGz7p6pTGfob-k4Gh1WswZLTY=", "properties": {"@spider": "usps_collection_boxes", "addr:city": "COLUMBIA", "addr:country": "US", "addr:full": "5112 FAIRFIELD RD", "addr:postcode": "29203", "addr:state": "SC", "amenity": "post_box", "brand": "United States Postal Service", "brand:wikidata": "Q668687", "collection_times": "Mo-Fr 16:15", "name": "USPS COLLECTION BOX - BLUE BOX", "note": "ON 12/24 AND 12/31, THIS BOX MAY BE COLLECTED AS EARLY AS 12 NOON.", "nsi_id": "unitedstatespostalservice-a77078", "operator": "United States Postal Service", "operator:short": "USPS", "operator:type": "public", "operator:wikidata": "Q668687", "ref": "2920300013"}, "type": "Feature"}
{"dataset_attributes": {"@spider": "usps_collection_boxes"}, "geometry": {"coordinates": [-80.9533619885, 34.1069390039], "type": "Point"}, "id": "tmyY-VTNPQBCvXL1D6uMrmtVFl8=", "properties": {"@spider": "usps_collection_boxes", "addr:city": "COLUMBIA", "addr:country": "US", "addr:full": "8901 FARROW RD", "addr:postcode": "29203", "addr:state": "SC", "amenity": "post_box", "brand": "United States Postal Service", "brand:wikidata": "Q668687", "collection_times": "Mo-Fr 15:30", "name": "USPS COLLECTION BOX - BLUE BOX", "note": "ON 12/24 AND 12/31, THIS BOX MAY BE COLLECTED AS EARLY AS 12 NOON.", "nsi_id": "unitedstatespostalservice-a77078", "operator": "United States Postal Service", "operator:short": "USPS", "operator:type": "public", "operator:wikidata": "Q668687", "ref": "2920300015"}, "type": "Feature"}
{"dataset_attributes": {"@spider": "usps_collection_boxes"}, "geometry": {"coordinates": [-80.9949507, 34.059922], "type": "Point"}, "id": "lIs4-f8qwYpSD7qXzRrPV4Srio4=", "properties": {"@spider": "usps_collection_boxes", "addr:city": "COLUMBIA", "addr:country": "US", "addr:full": "6200 FARROW RD", "addr:postcode": "29203", "addr:state": "SC", "amenity": "post_box", "brand": "United States Postal Service", "brand:wikidata": "Q668687", "collection_times": "Mo-Fr 15:45", "name": "USPS COLLECTION BOX - BLUE BOX", "note": "ON 12/24 AND 12/31, THIS BOX MAY BE COLLECTED AS EARLY AS 12 NOON.", "nsi_id": "unitedstatespostalservice-a77078", "operator": "United States Postal Service", "operator:short": "USPS", "operator:type": "public", "operator:wikidata": "Q668687", "ref": "2920300018"}, "type": "Feature"}
{"dataset_attributes": {"@spider": "usps_collection_boxes"}, "geometry": {"coordinates": [-81.0088934, 34.06339], "type": "Point"}, "id": "E8X-b53XkrTGHAUNV1e3PB-c5rk=", "properties": {"@spider": "usps_collection_boxes", "addr:city": "COLUMBIA", "addr:country": "US", "addr:full": "6325 N MAIN ST", "addr:postcode": "29203", "addr:state": "SC", "amenity": "post_box", "brand": "United States Postal Service", "brand:wikidata": "Q668687", "collection_times": "Mo-Fr 16:00", "name": "USPS COLLECTION BOX - BLUE BOX", "note": "ON 12/24 AND 12/31, THIS BOX MAY BE COLLECTED AS EARLY AS 12 NOON.", "nsi_id": "unitedstatespostalservice-a77078", "operator": "United States Postal Service", "operator:short": "USPS", "operator:type": "public", "operator:wikidata": "Q668687", "ref": "2920300022"}, "type": "Feature"}
{"dataset_attributes": {"@spider": "usps_collection_boxes"}, "geometry": {"coordinates": [-81.0352179, 34.027639], "type": "Point"}, "id": "bZ2Iaf0jnOJm1K0qgpFvkCgscIs=", "properties": {"@spider": "usps_collection_boxes", "addr:city": "COLUMBIA", "addr:country": "US", "addr:full": "2 MEDICAL PARK RD", "addr:postcode": "29203", "addr:state": "SC", "amenity": "post_box", "brand": "United States Postal Service", "brand:wikidata": "Q668687", "collection_times": "Mo-Fr 15:00", "name": "USPS COLLECTION BOX - BLUE BOX", "note": "ON 12/24 AND 12/31, THIS BOX MAY BE COLLECTED AS EARLY AS 12 NOON.", "nsi_id": "unitedstatespostalservice-a77078", "operator": "United States Postal Service", "operator:short": "USPS", "operator:type": "public", "operator:wikidata": "Q668687", "ref": "2920300027"}, "type": "Feature"}
{"dataset_attributes": {"@spider": "usps_collection_boxes"}, "geometry": {"coordinates": [-81.0007566, 34.070134], "type": "Point"}, "id": "uxCD87jeeCHHHQKCLESt0NVT7Cc=", "properties": {"@spider": "usps_collection_boxes", "addr:city": "COLUMBIA", "addr:country": "US", "addr:full": "6904 N MAIN ST", "addr:postcode": "29203", "addr:state": "SC", "amenity": "post_box", "brand": "United States Postal Service", "brand:wikidata": "Q668687", "collection_times": "Mo-Fr 16:00", "name": "USPS COLLECTION BOX - BLUE BOX", "note": "ON 12/24 AND 12/31, THIS BOX MAY BE COLLECTED AS EARLY AS 12 NOON.", "nsi_id": "unitedstatespostalservice-a77078", "operator": "United States Postal Service", "operator:short": "USPS", "operator:type": "public", "operator:wikidata": "Q668687", "ref": "2920300029"}, "type": "Feature"}
{"dataset_attributes": {"@spider": "usps_collection_boxes"}, "geometry": {"coordinates": [-80.9974195, 34.074772], "type": "Point"}, "id": "Duw0McID9ddajcyayp6kuiycBoI=", "properties": {"@spider": "usps_collection_boxes", "addr:city": "COLUMBIA", "addr:country": "US", "addr:full": "99 PLUMBERS RD", "addr:postcode": "29203", "addr:state": "SC", "amenity": "post_box", "brand": "United States Postal Service", "brand:wikidata": "Q668687", "collection_times": "Mo-Fr 16:00", "name": "USPS COLLECTION BOX - BLUE BOX", "note": "ON 12/24 AND 12/31, THIS BOX MAY BE COLLECTED AS EARLY AS 12 NOON.", "nsi_id": "unitedstatespostalservice-a77078", "operator": "United States Postal Service", "operator:short": "USPS", "operator:type": "public", "operator:wikidata": "Q668687", "ref": "2920300032"}, "type": "Feature"}
{"dataset_attributes": {"@spider": "usps_collection_boxes"}, "geometry": {"coordinates": [-81.0236819, 34.06497], "type": "Point"}, "id": "JTxU9hme21r9RIfPQeBI75fS8cY=", "properties": {"@spider": "usps_collection_boxes", "addr:city": "COLUMBIA", "addr:country": "US", "addr:full": "5901 FAIRFIELD RD", "addr:postcode": "29203", "addr:state": "SC", "amenity": "post_box", "brand": "United States Postal Service", "brand:wikidata": "Q668687", "collection_times": "Mo-Fr 16:00", "name": "USPS COLLECTION BOX - BLUE BOX", "note": "ON 12/24 AND 12/31, THIS BOX MAY BE COLLECTED AS EARLY AS 12 NOON.", "nsi_id": "unitedstatespostalservice-a77078", "operator": "United States Postal Service", "operator:short": "USPS", "operator:type": "public", "operator:wikidata": "Q668687", "ref": "2920300038"}, "type": "Feature"}
{"dataset_attributes": {"@spider": "usps_collection_boxes"}, "geometry": {"coordinates": [-81.0316983, 34.027123], "type": "Point"}, "id": "r_EHwPgDfM5hxVzWEkt_Ondm_ik=", "properties": {"@spider": "usps_collection_boxes", "addr:city": "COLUMBIA", "addr:country": "US", "addr:full": "9 RICHLAND MEDICAL PARK DR", "addr:postcode": "29203", "addr:state": "SC", "amenity": "post_box", "brand": "United States Postal Service", "brand:wikidata": "Q668687", "collection_times": "Mo-Fr 15:00", "name": "USPS COLLECTION BOX - BLUE BOX", "note": "ON 12/24 AND 12/31, THIS BOX MAY BE COLLECTED AS EARLY AS 12 NOON.", "nsi_id": "unitedstatespostalservice-a77078", "operator": "United States Postal Service", "operator:short": "USPS", "operator:type": "public", "operator:wikidata": "Q668687", "ref": "2920300040"}, "type": "Feature"}
{"dataset_attributes": {"@spider": "usps_collection_boxes"}, "geometry": {"coordinates": [-81.0392922, 34.042746], "type": "Point"}, "id": "g-JabCBRMkhW1SbwR99jCoVxeOA=", "properties": {"@spider": "usps_collection_boxes", "addr:city": "COLUMBIA", "addr:country": "US", "addr:full": "4201 N MAIN ST", "addr:postcode": "29203", "addr:state": "SC", "amenity": "post_box", "brand": "United States Postal Service", "brand:wikidata": "Q668687", "collection_times": "Mo-Fr 16:15", "name": "USPS COLLECTION BOX - BLUE BOX", "note": "ON 12/24 AND 12/31, THIS BOX MAY BE COLLECTED AS EARLY AS 12 NOON.", "nsi_id": "unitedstatespostalservice-a77078", "operator": "United States Postal Service", "operator:short": "USPS", "operator:type": "public", "operator:wikidata": "Q668687", "ref": "2920300047"}, "type": "Feature"}
{"dataset_attributes": {"@spider": "usps_collection_boxes"}, "geometry": {"coordinates": [-80.9581139, 34.103942], "type": "Point"}, "id": "KDIstSq0-eMaj-kEapohoRFfZCY=", "properties": {"@spider": "usps_collection_boxes", "addr:city": "COLUMBIA", "addr:country": "US", "addr:full": "125 GATEWAY BLVD.", "addr:postcode": "29203", "addr:state": "SC", "amenity": "post_box", "brand": "United States Postal Service", "brand:wikidata": "Q668687", "collection_times": "Mo-Fr 15:30", "name": "USPS COLLECTION BOX - BLUE BOX", "note": "ON 12/24 AND 12/31, THIS BOX MAY BE COLLECTED AS EARLY AS 12 NOON.", "nsi_id": "unitedstatespostalservice-a77078", "operator": "United States Postal Service", "operator:short": "USPS", "operator:type": "public", "operator:wikidata": "Q668687", "ref": "2920300049"}, "type": "Feature"}
{"dataset_attributes": {"@spider": "usps_collection_boxes"}, "geometry": {"coordinates": [-81.0311194, 34.028832], "type": "Point"}, "id": "imXU5thP_gyQFjkjyMcacfR1aj4=", "properties": {"@spider": "usps_collection_boxes", "addr:city": "COLUMBIA", "addr:country": "US", "addr:full": "14 RICHLAND MEDICAL PARK DR", "addr:postcode": "29203", "addr:state": "SC", "amenity": "post_box", "brand": "United States Postal Service", "brand:wikidata": "Q668687", "collection_times": "Mo-Fr 15:00", "name": "USPS COLLECTION BOX - BLUE BOX", "note": "ON 12/24 AND 12/31, THIS BOX MAY BE COLLECTED AS EARLY AS 12 NOON.", "nsi_id": "unitedstatespostalservice-a77078", "operator": "United States Postal Service", "operator:short": "USPS", "operator:type": "public", "operator:wikidata": "Q668687", "ref": "2920300050"}, "type": "Feature"}
{"dataset_attributes": {"@spider": "usps_collection_boxes"}, "geometry": {"coordinates": [-80.9701444, 34.101068], "type": "Point"}, "id": "uoZat7rTsF7Nq00uFoNx_BUhBzQ=", "properties": {"@spider": "usps_collection_boxes", "addr:city": "COLUMBIA", "addr:country": "US", "addr:full": "101 RESEARCH DR", "addr:postcode": "29203", "addr:state": "SC", "amenity": "post_box", "brand": "United States Postal Service", "brand:wikidata": "Q668687", "collection_times": "Mo-Fr 15:45", "name": "USPS COLLECTION BOX - BLUE BOX", "note": "ON 12/24 AND 12/31, THIS BOX MAY BE COLLECTED AS EARLY AS 12 NOON.", "nsi_id": "unitedstatespostalservice-a77078", "operator": "United States Postal Service", "operator:short": "USPS", "operator:type": "public", "operator:wikidata": "Q668687", "ref": "2920300051"}, "type": "Feature"}
{"dataset_attributes": {"@spider": "usps_collection_boxes"}, "geometry": {"coordinates": [-80.9701346, 34.101077], "type": "Point"}, "id": "Y1Ev1lw-LDDKx2pzRLl0epHaGfE=", "properties": {"@spider": "usps_collection_boxes", "addr:city": "COLUMBIA", "addr:country": "US", "addr:full": "101 RESEARCH DR", "addr:postcode": "29203", "addr:state": "SC", "amenity": "post_box", "brand": "United States Postal Service", "brand:wikidata": "Q668687", "collection_times": "Mo-Fr 15:45", "name": "USPS COLLECTION BOX - BLUE BOX", "note": "ON 12/24 AND 12/31, THIS BOX MAY BE COLLECTED AS EARLY AS 12 NOON.", "nsi_id": "unitedstatespostalservice-a77078", "operator": "United States Postal Service", "operator:short": "USPS", "operator:type": "public", "operator:wikidata": "Q668687", "ref": "2920300054"}, "type": "Feature"}
{"dataset_attributes": {"@spider": "usps_collection_boxes"}, "geometry": {"coordinates": [-81.043284748, 34.039522449], "type": "Point"}, "id": "4RQdM1GDmjuJS2H0JhLQZJueJGk=", "properties": {"@spider": "usps_collection_boxes", "addr:city": "COLUMBIA", "addr:country": "US", "addr:full": "4026 LAMAR ST", "addr:postcode": "29203", "addr:state": "SC", "amenity": "post_box", "brand": "United States Postal Service", "brand:wikidata": "Q668687", "collection_times": "Mo-Fr 16:30", "name": "USPS COLLECTION BOX - PO LOBBY", "note": "ON 12/24 AND 12/31, THIS BOX MAY BE COLLECTED AS EARLY AS 12 NOON.", "nsi_id": "unitedstatespostalservice-a77078", "operator": "United States Postal Service", "operator:short": "USPS", "operator:type": "public", "operator:wikidata": "Q668687", "ref": "2920300059"}, "type": "Feature"}
{"dataset_attributes": {"@spider": "usps_collection_boxes"}, "geometry": {"coordinates": [-81.00761526, 34.030277618], "type": "Point"}, "id": "brhURCEBDNEYchiZ0bfV9U8h9DA=", "properties": {"@spider": "usps_collection_boxes", "addr:city": "COLUMBIA", "addr:country": "US", "addr:full": "2638 TWO NOTCH RD", "addr:postcode": "29204", "addr:state": "SC", "amenity": "post_box", "brand": "United States Postal Service", "brand:wikidata": "Q668687", "collection_times": "Mo-Fr 16:30; Sa 13:45", "name": "USPS COLLECTION BOX - BLUE BOX", "note": "ON 12/24 AND 12/31, THIS BOX MAY BE COLLECTED AS EARLY AS 12 NOON.", "nsi_id": "unitedstatespostalservice-a77078", "operator": "United States Postal Service", "operator:short": "USPS", "operator:type": "public", "operator:wikidata": "Q668687", "ref": "2920400009"}, "type": "Feature"}
{"dataset_attributes": {"@spider": "usps_collection_boxes"}, "geometry": {"coordinates": [-81.0084663, 34.013959], "type": "Point"}, "id": "FtWUGTSlA_4Q1T6TxEzzG0M93ns=", "properties": {"@spider": "usps_collection_boxes", "addr:city": "COLUMBIA", "addr:country": "US", "addr:full": "2551 FOREST DR", "addr:postcode": "29204", "addr:state": "SC", "amenity": "post_box", "brand": "United States Postal Service", "brand:wikidata": "Q668687", "collection_times": "Mo-Fr 15:15", "name": "USPS COLLECTION BOX - BLUE BOX", "note": "ON 12/24 AND 12/31, THIS BOX MAY BE COLLECTED AS EARLY AS 12 NOON.", "nsi_id": "unitedstatespostalservice-a77078", "operator": "United States Postal Service", "operator:short": "USPS", "operator:type": "public", "operator:wikidata": "Q668687", "ref": "2920400014"}, "type": "Feature"}
{"dataset_attributes": {"@spider": "usps_collection_boxes"}, "geometry": {"coordinates": [-80.9885659, 34.018312], "type": "Point"}, "id": "D-du79phtX6hhKXgP4HSQgmm1EI=", "properties": {"@spider": "usps_collection_boxes", "addr:city": "COLUMBIA", "addr:country": "US", "addr:full": "3600 FOREST DR", "addr:postcode": "29204", "addr:state": "SC", "amenity": "post_box", "brand": "United States Postal Service", "brand:wikidata": "Q668687", "collection_times": "Mo-Fr 16:00", "name": "USPS COLLECTION BOX - BLUE BOX", "note": "ON 12/24 AND 12/31, THIS BOX MAY BE COLLECTED AS EARLY AS 12 NOON.", "nsi_id": "unitedstatespostalservice-a77078", "operator": "United States Postal Service", "operator:short": "USPS", "operator:type": "public", "operator:wikidata": "Q668687", "ref": "2920400017"}, "type": "Feature"}
{"dataset_attributes": {"@spider": "usps_collection_boxes"}, "geometry": {"coordinates": [-80.9863799, 34.018803], "type": "Point"}, "id": "lTMsPufk7Xwr5c1i46nB9j3vHU8=", "properties": {"@spider": "usps_collection_boxes", "addr:city": "COLUMBIA", "addr:country": "US", "addr:full": "3700 FOREST DR", "addr:postcode": "29204", "addr:state": "SC", "amenity": "post_box", "brand": "United States Postal Service", "brand:wikidata": "Q668687", "collection_times": "Mo-Fr 15:45", "name": "USPS COLLECTION BOX - BLUE BOX", "note": "ON 12/24 AND 12/31, THIS BOX MAY BE COLLECTED AS EARLY AS 12 NOON.", "nsi_id": "unitedstatespostalservice-a77078", "operator": "United States Postal Service", "operator:short": "USPS", "operator:type": "public", "operator:wikidata": "Q668687", "ref": "2920400021"}, "type": "Feature"}
{"dataset_attributes": {"@spider": "usps_collection_boxes"}, "geometry": {"coordinates": [-81.0140315, 34.01383], "type": "Point"}, "id": "GmLShu6DteNBhBVH94sA1wcyhcA=", "properties": {"@spider": "usps_collection_boxes", "addr:city": "COLUMBIA", "addr:country": "US", "addr:full": "2435 FOREST DR", "addr:postcode": "29204", "addr:state": "SC", "amenity": "post_box", "brand": "United States Postal Service", "brand:wikidata": "Q668687", "collection_times": "Mo-Fr 15:15", "name": "USPS COLLECTION BOX - BLUE BOX", "note": "ON 12/24 AND 12/31, THIS BOX MAY BE COLLECTED AS EARLY AS 12 NOON.", "nsi_id": "unitedstatespostalservice-a77078", "operator": "United States Postal Service", "operator:short": "USPS", "operator:type": "public", "operator:wikidata": "Q668687", "ref": "2920400025"}, "type": "Feature"}
{"dataset_attributes": {"@spider": "usps_collection_boxes"}, "geometry": {"coordinates": [-81.0112053, 34.015225], "type": "Point"}, "id": "W_x9TTd-Ia0G-ehEPfmc7ajAY5s=", "properties": {"@spider": "usps_collection_boxes", "addr:city": "COLUMBIA", "addr:country": "US", "addr:full": "2761 LAUREL ST", "addr:postcode": "29204", "addr:state": "SC", "amenity": "post_box", "brand": "United States Postal Service", "brand:wikidata": "Q668687", "collection_times": "Mo-Fr 11:00", "name": "USPS COLLECTION BOX - BLUE BOX", "nsi_id": "unitedstatespostalservice-a77078", "operator": "United States Postal Service", "operator:short": "USPS", "operator:type": "public", "operator:wikidata": "Q668687", "ref": "2920400034"}, "type": "Feature"}
{"dataset_attributes": {"@spider": "usps_collection_boxes"}, "geometry": {"coordinates": [-81.0027969, 34.015743], "type": "Point"}, "id": "oC-SsJ_cNeQZ-iJIeOgnfsignOM=", "properties": {"@spider": "usps_collection_boxes", "addr:city": "COLUMBIA", "addr:country": "US", "addr:full": "2719 MIDDLEBURG DR", "addr:postcode": "29204", "addr:state": "SC", "amenity": "post_box", "brand": "United States Postal Service", "brand:wikidata": "Q668687", "collection_times": "Mo-Fr 14:45", "name": "USPS COLLECTION BOX - BLUE BOX", "note": "ON 12/24 AND 12/31, THIS BOX MAY BE COLLECTED AS EARLY AS 12 NOON.", "nsi_id": "unitedstatespostalservice-a77078", "operator": "United States Postal Service", "operator:short": "USPS", "operator:type": "public", "operator:wikidata": "Q668687", "ref": "2920400037"}, "type": "Feature"}
{"dataset_attributes": {"@spider": "usps_collection_boxes"}, "geometry": {"coordinates": [-81.004107, 34.015944], "type": "Point"}, "id": "X8ykOD3vgGyU2YVMYuRRRWSeH98=", "properties": {"@spider": "usps_collection_boxes", "addr:city": "COLUMBIA", "addr:country": "US", "addr:full": "2711 MIDDLEBURG DR", "addr:postcode": "29204", "addr:state": "SC", "amenity": "post_box", "brand": "United States Postal Service", "brand:wikidata": "Q668687", "collection_times": "Mo-Fr 14:45", "name": "USPS COLLECTION BOX - BLUE BOX", "note": "ON 12/24 AND 12/31, THIS BOX MAY BE COLLECTED AS EARLY AS 12 NOON.", "nsi_id": "unitedstatespostalservice-a77078", "operator": "United States Postal Service", "operator:short": "USPS", "operator:type": "public", "operator:wikidata": "Q668687", "ref": "2920400040"}, "type": "Feature"}
{"dataset_attributes": {"@spider": "usps_collection_boxes"}, "geometry": {"coordinates": [-81.0211036, 34.016702], "type": "Point"}, "id": "POa2o9MQPqJy32ZUS3DYIc6KWWI=", "properties": {"@spider": "usps_collection_boxes", "addr:city": "COLUMBIA", "addr:country": "US", "addr:full": "2211 READ ST", "addr:postcode": "29204", "addr:state": "SC", "amenity": "post_box", "brand": "United States Postal Service", "brand:wikidata": "Q668687", "collection_times": "Mo-Fr 11:00", "name": "USPS COLLECTION BOX - BLUE BOX", "nsi_id": "unitedstatespostalservice-a77078", "operator": "United States Postal Service", "operator:short": "USPS", "operator:type": "public", "operator:wikidata": "Q668687", "ref": "2920400041"}, "type": "Feature"}
{"dataset_attributes": {"@spider": "usps_collection_boxes"}, "geometry": {"coordinates": [-81.0032129, 34.018985], "type": "Point"}, "id": "0fS8ACYP6tNDY8wl4Lso75SksZw=", "properties": {"@spider": "usps_collection_boxes", "addr:city": "COLUMBIA", "addr:country": "US", "addr:full": "1777 SAINT JULIAN PL", "addr:postcode": "29204", "addr:state": "SC", "amenity": "post_box", "brand": "United States Postal Service", "brand:wikidata": "Q668687", "collection_times": "Mo-Fr 11:15", "name": "USPS COLLECTION BOX - BLUE BOX", "nsi_id": "unitedstatespostalservice-a77078", "operator": "United States Postal Service", "operator:short": "USPS", "operator:type": "public", "operator:wikidata": "Q668687", "ref": "2920400042"}, "type": "Feature"}
{"dataset_attributes": {"@spider": "usps_collection_boxes"}, "geometry": {"coordinates": [-81.00761526, 34.030277618], "type": "Point"}, "id": "9EcQokReepxtZ0yPo4IwYYz_qG0=", "properties": {"@spider": "usps_collection_boxes", "addr:city": "COLUMBIA", "addr:country": "US", "addr:full": "2638 TWO NOTCH RD", "addr:postcode": "29204", "addr:state": "SC", "amenity": "post_box", "brand": "United States Postal Service", "brand:wikidata": "Q668687", "collection_times": "Mo-Fr 16:15; Sa 13:45", "name": "USPS COLLECTION BOX - BLUE BOX", "note": "ON 12/24 AND 12/31, THIS BOX MAY BE COLLECTED AS EARLY AS 12 NOON.", "nsi_id": "unitedstatespostalservice-a77078", "operator": "United States Postal Service", "operator:short": "USPS", "operator:type": "public", "operator:wikidata": "Q668687", "ref": "2920400045"}, "type": "Feature"}
{"dataset_attributes": {"@spider": "usps_collection_boxes"}, "geometry": {"coordinates": [-81.0026908, 34.019756], "type": "Point"}, "id": "xMClqJfMoOK8oiAoJj86wKR18wg=", "properties": {"@spider": "usps_collection_boxes", "addr:city": "COLUMBIA", "addr:country": "US", "addr:full": "1800 SAINT JULIAN PL", "addr:postcode": "29204", "addr:state": "SC", "amenity": "post_box", "brand": "United States Postal Service", "brand:wikidata": "Q668687", "collection_times": "Mo-Fr 15:00", "name": "USPS COLLECTION BOX - BLUE BOX", "note": "ON 12/24 AND 12/31, THIS BOX MAY BE COLLECTED AS EARLY AS 12 NOON.", "nsi_id": "unitedstatespostalservice-a77078", "operator": "United States Postal Service", "operator:short": "USPS", "operator:type": "public", "operator:wikidata": "Q668687", "ref": "2920400046"}, "type": "Feature"}
{"dataset_attributes": {"@spider": "usps_collection_boxes"}, "geometry": {"coordinates": [-81.0001674, 34.038963], "type": "Point"}, "id": "jGx0AP5VLyYRjtJ-LMXCQUDl9MQ=", "properties": {"@spider": "usps_collection_boxes", "addr:city": "COLUMBIA", "addr:country": "US", "addr:full": "3220 TWO NOTCH RD", "addr:postcode": "29204", "addr:state": "SC", "amenity": "post_box", "brand": "United States Postal Service", "brand:wikidata": "Q668687", "collection_times": "Mo-Fr 15:30", "name": "USPS COLLECTION BOX - BLUE BOX", "note": "ON 12/24 AND 12/31, THIS BOX MAY BE COLLECTED AS EARLY AS 12 NOON.", "nsi_id": "unitedstatespostalservice-a77078", "operator": "United States Postal Service", "operator:short": "USPS", "operator:type": "public", "operator:wikidata": "Q668687", "ref": "2920400054"}, "type": "Feature"}
{"dataset_attributes": {"@spider": "usps_collection_boxes"}, "geometry": {"coordinates": [-81.00761526, 34.030277618], "type": "Point"}, "id": "IlDe7PZwda_AjZSAwiDUM8Oyg0s=", "properties": {"@spider": "usps_collection_boxes", "addr:city": "COLUMBIA", "addr:country": "US", "addr:full": "2638 TWO NOTCH RD", "addr:postcode": "29204", "addr:state": "SC", "amenity": "post_box", "brand": "United States Postal Service", "brand:wikidata": "Q668687", "collection_times": "Mo-Fr 16:30", "name": "USPS COLLECTION BOX - PO LOBBY", "note": "ON 12/24 AND 12/31, THIS BOX MAY BE COLLECTED AS EARLY AS 12 NOON.", "nsi_id": "unitedstatespostalservice-a77078", "operator": "United States Postal Service", "operator:short": "USPS", "operator:type": "public", "operator:wikidata": "Q668687", "ref": "2920400062"}, "type": "Feature"}
{"dataset_attributes": {"@spider": "usps_collection_boxes"}, "geometry": {"coordinates": [-80.9957779, 33.997518], "type": "Point"}, "id": "BOXCazhkzMi_sldVOFdkmoi0_s0=", "properties": {"@spider": "usps_collection_boxes", "addr:city": "COLUMBIA", "addr:country": "US", "addr:full": "3200 DEVINE ST", "addr:postcode": "29205", "addr:state": "SC", "amenity": "post_box", "brand": "United States Postal Service", "brand:wikidata": "Q668687", "collection_times": "Mo-Fr 14:00", "name": "USPS COLLECTION BOX - BLUE BOX", "note": "ON 12/24 AND 12/31, THIS BOX MAY BE COLLECTED AS EARLY AS 12 NOON.", "nsi_id": "unitedstatespostalservice-a77078", "operator": "United States Postal Service", "operator:short": "USPS", "operator:type": "public", "operator:wikidata": "Q668687", "ref": "2920500001"}, "type": "Feature"}
{"dataset_attributes": {"@spider": "usps_collection_boxes"}, "geometry": {"coordinates": [-80.9994491, 33.997777], "type": "Point"}, "id": "J11Upu4AlUzJrTMV_HO1ZmH4N_I=", "properties": {"@spider": "usps_collection_boxes", "addr:city": "COLUMBIA", "addr:country": "US", "addr:full": "2930 DEVINE ST", "addr:postcode": "29205", "addr:state": "SC", "amenity": "post_box", "brand": "United States Postal Service", "brand:wikidata": "Q668687", "collection_times": "Mo-Fr 14:00", "name": "USPS COLLECTION BOX - BLUE BOX", "note": "ON 12/24 AND 12/31, THIS BOX MAY BE COLLECTED AS EARLY AS 12 NOON.", "nsi_id": "unitedstatespostalservice-a77078", "operator": "United States Postal Service", "operator:short": "USPS", "operator:type": "public", "operator:wikidata": "Q668687", "ref": "2920500008"}, "type": "Feature"}
{"dataset_attributes": {"@spider": "usps_collection_boxes"}, "geometry": {"coordinates": [-80.9847405, 33.991347], "type": "Point"}, "id": "CaFH8dMONMrS9boy0tl19NGE2tE=", "properties": {"@spider": "usps_collection_boxes", "addr:city": "COLUMBIA", "addr:country": "US", "addr:full": "3923 DUNCAN ST", "addr:postcode": "29205", "addr:state": "SC", "amenity": "post_box", "brand": "United States Postal Service", "brand:wikidata": "Q668687", "collection_times": "Mo-Fr 12:15", "name": "USPS COLLECTION BOX - BLUE BOX", "note": "ON 12/24 AND 12/31, THIS BOX MAY BE COLLECTED AS EARLY AS 12 NOON.", "nsi_id": "unitedstatespostalservice-a77078", "operator": "United States Postal Service", "operator:short": "USPS", "operator:type": "public", "operator:wikidata": "Q668687", "ref": "2920500017"}, "type": "Feature"}
{"dataset_attributes": {"@spider": "usps_collection_boxes"}, "geometry": {"coordinates": [-81.0111519, 33.995866], "type": "Point"}, "id": "srkfsiZb9qYdA7UQRkUl_2OGiE8=", "properties": {"@spider": "usps_collection_boxes", "addr:city": "COLUMBIA", "addr:country": "US", "addr:full": "2414 WHEAT ST", "addr:postcode": "29205", "addr:state": "SC", "amenity": "post_box", "brand": "United States Postal Service", "brand:wikidata": "Q668687", "collection_times": "Mo-Fr 12:15", "name": "USPS COLLECTION BOX - BLUE BOX", "note": "ON 12/24 AND 12/31, THIS BOX MAY BE COLLECTED AS EARLY AS 12 NOON.", "nsi_id": "unitedstatespostalservice-a77078", "operator": "United States Postal Service", "operator:short": "USPS", "operator:type": "public", "operator:wikidata": "Q668687", "ref": "2920500019"}, "type": "Feature"}
{"dataset_attributes": {"@spider": "usps_collection_boxes"}, "geometry": {"coordinates": [-81.0159417409, 34.0004892389], "type": "Point"}, "id": "17pIJxeS8I_OJook827XEIZNtHE=", "properties": {"@spider": "usps_collection_boxes", "addr:city": "COLUMBIA", "addr:country": "US", "addr:full": "2108 GREENE ST", "addr:postcode": "29205", "addr:state": "SC", "amenity": "post_box", "brand": "United States Postal Service", "brand:wikidata": "Q668687", "collection_times": "Mo-Fr 14:30; Sa 13:30", "name": "USPS COLLECTION BOX - BLUE BOX", "note": "ON 12/24 AND 12/31, THIS BOX MAY BE COLLECTED AS EARLY AS 12 NOON.", "nsi_id": "unitedstatespostalservice-a77078", "operator": "United States Postal Service", "operator:short": "USPS", "operator:type": "public", "operator:wikidata": "Q668687", "ref": "2920500021"}, "type": "Feature"}
{"dataset_attributes": {"@spider": "usps_collection_boxes"}, "geometry": {"coordinates": [-80.9888799, 33.98797], "type": "Point"}, "id": "KjUMymIFu9UTs4H6czAEUIhP30g=", "properties": {"@spider": "usps_collection_boxes", "addr:city": "COLUMBIA", "addr:country": "US", "addr:full": "3729 ROSEWOOD DR", "addr:postcode": "29205", "addr:state": "SC", "amenity": "post_box", "brand": "United States Postal Service", "brand:wikidata": "Q668687", "collection_times": "Mo-Fr 12:15", "name": "USPS COLLECTION BOX - BLUE BOX", "note": "ON 12/24 AND 12/31, THIS BOX MAY BE COLLECTED AS EARLY AS 12 NOON.", "nsi_id": "unitedstatespostalservice-a77078", "operator": "United States Postal Service", "operator:short": "USPS", "operator:type": "public", "operator:wikidata": "Q668687", "ref": "2920500038"}, "type": "Feature"}
{"dataset_attributes": {"@spider": "usps_collection_boxes"}, "geometry": {"coordinates": [-81.0062021, 33.986634], "type": "Point"}, "id": "vzK04bF-UX-DW9WtyeJ9k8bfQq8=", "properties": {"@spider": "usps_collection_boxes", "addr:city": "COLUMBIA", "addr:country": "US", "addr:full": "2708 ROSEWOOD DR", "addr:postcode": "29205", "addr:state": "SC", "amenity": "post_box", "brand": "United States Postal Service", "brand:wikidata": "Q668687", "collection_times": "Mo-Fr 12:15", "name": "USPS COLLECTION BOX - BLUE BOX", "note": "ON 12/24 AND 12/31, THIS BOX MAY BE COLLECTED AS EARLY AS 12 NOON.", "nsi_id": "unitedstatespostalservice-a77078", "operator": "United States Postal Service", "operator:short": "USPS", "operator:type": "public", "operator:wikidata": "Q668687", "ref": "2920500041"}, "type": "Feature"}
{"dataset_attributes": {"@spider": "usps_collection_boxes"}, "geometry": {"coordinates": [-80.9800681, 33.991923], "type": "Point"}, "id": "aW0eVYX2zxuNP_XYh325TWpZelo=", "properties": {"@spider": "usps_collection_boxes", "addr:city": "COLUMBIA", "addr:country": "US", "addr:full": "619 BELTLINE BLVD", "addr:postcode": "29205", "addr:state": "SC", "amenity": "post_box", "brand": "United States Postal Service", "brand:wikidata": "Q668687", "collection_times": "Mo-Fr 12:15", "name": "USPS COLLECTION BOX - BLUE BOX", "note": "ON 12/24 AND 12/31, THIS BOX MAY BE COLLECTED AS EARLY AS 12 NOON.", "nsi_id": "unitedstatespostalservice-a77078", "operator": "United States Postal Service", "operator:short": "USPS", "operator:type": "public", "operator:wikidata": "Q668687", "ref": "2920500053"}, "type": "Feature"}
{"dataset_attributes": {"@spider": "usps_collection_boxes"}, "geometry": {"coordinates": [-81.015946241, 34.000489239], "type": "Point"}, "id": "YAt40ywIpwNW8wzbtG9s1Bg5zdc=", "properties": {"@spider": "usps_collection_boxes", "addr:city": "COLUMBIA", "addr:country": "US", "addr:full": "2108 GREENE ST", "addr:postcode": "29205", "addr:state": "SC", "amenity": "post_box", "brand": "United States Postal Service", "brand:wikidata": "Q668687", "collection_times": "Mo-Fr 16:15", "name": "USPS COLLECTION BOX - PO LOBBY", "note": "ON 12/24 AND 12/31, THIS BOX MAY BE COLLECTED AS EARLY AS 12 NOON.", "nsi_id": "unitedstatespostalservice-a77078", "operator": "United States Postal Service", "operator:short": "USPS", "operator:type": "public", "operator:wikidata": "Q668687", "ref": "2920500059"}, "type": "Feature"}
{"dataset_attributes": {"@spider": "usps_collection_boxes"}, "geometry": {"coordinates": [-81.015946241, 34.000489239], "type": "Point"}, "id": "3bcFpqCT-gtMXK7_Cb7DkRMdBDY=", "properties": {"@spider": "usps_collection_boxes", "addr:city": "COLUMBIA", "addr:country": "US", "addr:full": "2108 GREENE ST", "addr:postcode": "29205", "addr:state": "SC", "amenity": "post_box", "brand": "United States Postal Service", "brand:wikidata": "Q668687", "collection_times": "Mo-Fr 16:15", "name": "USPS COLLECTION BOX - PO LOBBY", "note": "ON 12/24 AND 12/31, THIS BOX MAY BE COLLECTED AS EARLY AS 12 NOON.", "nsi_id": "unitedstatespostalservice-a77078", "operator": "United States Postal Service", "operator:short": "USPS", "operator:type": "public", "operator:wikidata": "Q668687", "ref": "2920500060"}, "type": "Feature"}
{"dataset_attributes": {"@spider": "usps_collection_boxes"}, "geometry": {"coordinates": [-81.015946241, 34.000489239], "type": "Point"}, "id": "cjkq0L32onzPKG2hkJkGAMiY438=", "properties": {"@spider": "usps_collection_boxes", "addr:city": "COLUMBIA", "addr:country": "US", "addr:full": "2108 GREENE ST", "addr:postcode": "29205", "addr:state": "SC", "amenity": "post_box", "brand": "United States Postal Service", "brand:wikidata": "Q668687", "collection_times": "Mo-Fr 16:30", "name": "USPS COLLECTION BOX - PO LOBBY", "note": "ON 12/24 AND 12/31, THIS BOX MAY BE COLLECTED AS EARLY AS 12 NOON.", "nsi_id": "unitedstatespostalservice-a77078", "operator": "United States Postal Service", "operator:short": "USPS", "operator:type": "public", "operator:wikidata": "Q668687", "ref": "2920500064"}, "type": "Feature"}
{"dataset_attributes": {"@spider": "usps_collection_boxes"}, "geometry": {"coordinates": [-80.9744539, 34.019659], "type": "Point"}, "id": "-CEij0ISYysSc2xGmNUP8JZWG_I=", "properties": {"@spider": "usps_collection_boxes", "addr:city": "COLUMBIA", "addr:country": "US", "addr:full": "5220 CLEMSON AVE", "addr:postcode": "29206", "addr:state": "SC", "amenity": "post_box", "brand": "United States Postal Service", "brand:wikidata": "Q668687", "collection_times": "Mo-Fr 11:15", "name": "USPS COLLECTION BOX - BLUE BOX", "nsi_id": "unitedstatespostalservice-a77078", "operator": "United States Postal Service", "operator:short": "USPS", "operator:type": "public", "operator:wikidata": "Q668687", "ref": "2920600001"}, "type": "Feature"}
{"dataset_attributes": {"@spider": "usps_collection_boxes"}, "geometry": {"coordinates": [-80.9496823, 34.057814], "type": "Point"}, "id": "gTTgyLiJ6yDB-zmQRLhsz9R1oQU=", "properties": {"@spider": "usps_collection_boxes", "addr:city": "COLUMBIA", "addr:country": "US", "addr:full": "2500 DECKER BLVD", "addr:postcode": "29206", "addr:state": "SC", "amenity": "post_box", "brand": "United States Postal Service", "brand:wikidata": "Q668687", "collection_times": "Mo-Fr 15:45", "name": "USPS COLLECTION BOX - BLUE BOX", "note": "ON 12/24 AND 12/31, THIS BOX MAY BE COLLECTED AS EARLY AS 12 NOON.", "nsi_id": "unitedstatespostalservice-a77078", "operator": "United States Postal Service", "operator:short": "USPS", "operator:type": "public", "operator:wikidata": "Q668687", "ref": "2920600003"}, "type": "Feature"}
{"dataset_attributes": {"@spider": "usps_collection_boxes"}, "geometry": {"coordinates": [-80.9637091, 34.016656], "type": "Point"}, "id": "fVLks1liHYGsmSpnbH3BbkCshbY=", "properties": {"@spider": "usps_collection_boxes", "addr:city": "COLUMBIA", "addr:country": "US", "addr:full": "4840 FOREST DR", "addr:postcode": "29206", "addr:state": "SC", "amenity": "post_box", "brand": "United States Postal Service", "brand:wikidata": "Q668687", "collection_times": "Mo-Fr 16:30; Sa 14:15", "name": "USPS COLLECTION BOX - BLUE BOX", "note": "ON 12/24 AND 12/31, THIS BOX MAY BE COLLECTED AS EARLY AS 12 NOON.", "nsi_id": "unitedstatespostalservice-a77078", "operator": "United States Postal Service", "operator:short": "USPS", "operator:type": "public", "operator:wikidata": "Q668687", "ref": "2920600006"}, "type": "Feature"}
{"dataset_attributes": {"@spider": "usps_collection_boxes"}, "geometry": {"coordinates": [-80.9649803, 34.018365], "type": "Point"}, "id": "s2WJGhOP7qHTbdjMfudQnDRDthc=", "properties": {"@spider": "usps_collection_boxes", "addr:city": "COLUMBIA", "addr:country": "US", "addr:full": "4810 FOREST DR", "addr:postcode": "29206", "addr:state": "SC", "amenity": "post_box", "brand": "United States Postal Service", "brand:wikidata": "Q668687", "collection_times": "Mo-Fr 16:30; Sa 14:15", "name": "USPS COLLECTION BOX - BLUE BOX", "note": "ON 12/24 AND 12/31, THIS BOX MAY BE COLLECTED AS EARLY AS 12 NOON.", "nsi_id": "unitedstatespostalservice-a77078", "operator": "United States Postal Service", "operator:short": "USPS", "operator:type": "public", "operator:wikidata": "Q668687", "ref": "2920600007"}, "type": "Feature"}
{"dataset_attributes": {"@spider": "usps_collection_boxes"}, "geometry": {"coordinates": [-80.9705999, 34.019711], "type": "Point"}, "id": "Sunstvtaq-KstPdDDqGngXRhpmw=", "properties": {"@spider": "usps_collection_boxes", "addr:city": "COLUMBIA", "addr:country": "US", "addr:full": "4700 FOREST DR", "addr:postcode": "29206", "addr:state": "SC", "amenity": "post_box", "brand": "United States Postal Service", "brand:wikidata": "Q668687", "collection_times": "Mo-Fr 11:15", "name": "USPS COLLECTION BOX - BLUE BOX", "nsi_id": "unitedstatespostalservice-a77078", "operator": "United States Postal Service", "operator:short": "USPS", "operator:type": "public", "operator:wikidata": "Q668687", "ref": "2920600010"}, "type": "Feature"}
{"dataset_attributes": {"@spider": "usps_collection_boxes"}, "geometry": {"coordinates": [-80.943824911, 34.017592583], "type": "Point"}, "id": "XWRvbF_zerEX7lrD7io4l7-0B1o=", "properties": {"@spider": "usps_collection_boxes", "addr:city": "COLUMBIA", "addr:country": "US", "addr:full": "4350 MAGRUDER AVE", "addr:postcode": "29206", "addr:state": "SC", "amenity": "post_box", "brand": "United States Postal Service", "brand:wikidata": "Q668687", "collection_times": "Mo-Fr 13:00", "name": "USPS COLLECTION BOX - PO LOBBY", "note": "ON 12/24 AND 12/31, THIS BOX MAY BE COLLECTED AS EARLY AS 12 NOON.", "nsi_id": "unitedstatespostalservice-a77078", "operator": "United States Postal Service", "operator:short": "USPS", "operator:type": "public", "operator:wikidata": "Q668687", "ref": "2920600013"}, "type": "Feature"}
{"dataset_attributes": {"@spider": "usps_collection_boxes"}, "geometry": {"coordinates": [-80.943824911, 34.017592583], "type": "Point"}, "id": "AcbTwyXkKkEw4richUmS8kG4k-c=", "properties": {"@spider": "usps_collection_boxes", "addr:city": "COLUMBIA", "addr:country": "US", "addr:full": "4350 MAGRUDER AVE", "addr:postcode": "29206", "addr:state": "SC", "amenity": "post_box", "brand": "United States Postal Service", "brand:wikidata": "Q668687", "collection_times": "Mo-Fr 13:00; Sa 14:30", "name": "USPS COLLECTION BOX - BLUE BOX", "note": "ON 12/24 AND 12/31, THIS BOX MAY BE COLLECTED AS EARLY AS 12 NOON.", "nsi_id": "unitedstatespostalservice-a77078", "operator": "United States Postal Service", "operator:short": "USPS", "operator:type": "public", "operator:wikidata": "Q668687", "ref": "2920600014"}, "type": "Feature"}
{"dataset_attributes": {"@spider": "usps_collection_boxes"}, "geometry": {"coordinates": [-80.9457607, 34.010401], "type": "Point"}, "id": "jL7ZuUn61ppSRvBUXtsOty-wPqE=", "properties": {"@spider": "usps_collection_boxes", "addr:city": "COLUMBIA", "addr:country": "US", "addr:full": "4282 EARLY ST", "addr:postcode": "29206", "addr:state": "SC", "amenity": "post_box", "brand": "United States Postal Service", "brand:wikidata": "Q668687", "collection_times": "Mo-Fr 13:00", "name": "USPS COLLECTION BOX - BLUE BOX", "note": "ON 12/24 AND 12/31, THIS BOX MAY BE COLLECTED AS EARLY AS 12 NOON.", "nsi_id": "unitedstatespostalservice-a77078", "operator": "United States Postal Service", "operator:short": "USPS", "operator:type": "public", "operator:wikidata": "Q668687", "ref": "2920600015"}, "type": "Feature"}
{"dataset_attributes": {"@spider": "usps_collection_boxes"}, "geometry": {"coordinates": [-80.9379019, 34.01218], "type": "Point"}, "id": "WkYjZxqQ7OgEyDAT4VpnGDA5ZKw=", "properties": {"@spider": "usps_collection_boxes", "addr:city": "COLUMBIA", "addr:country": "US", "addr:full": "4500 STUART ST", "addr:postcode": "29206", "addr:state": "SC", "amenity": "post_box", "brand": "United States Postal Service", "brand:wikidata": "Q668687", "collection_times": "Mo-Fr 12:45", "name": "USPS COLLECTION BOX - BLUE BOX", "note": "ON 12/24 AND 12/31, THIS BOX MAY BE COLLECTED AS EARLY AS 12 NOON.", "nsi_id": "unitedstatespostalservice-a77078", "operator": "United States Postal Service", "operator:short": "USPS", "operator:type": "public", "operator:wikidata": "Q668687", "ref": "2920600016"}, "type": "Feature"}
{"dataset_attributes": {"@spider": "usps_collection_boxes"}, "geometry": {"coordinates": [-80.955101826, 34.0019383413], "type": "Point"}, "id": "QvMbhJeaRoB-S2FwmYR0zOimk0M=", "properties": {"@spider": "usps_collection_boxes", "addr:city": "COLUMBIA", "addr:country": "US", "addr:full": "2159 SUMTER AVE", "addr:postcode": "29206", "addr:state": "SC", "amenity": "post_box", "brand": "United States Postal Service", "brand:wikidata": "Q668687", "collection_times": "Mo-Fr 13:00", "name": "USPS COLLECTION BOX - BLUE BOX", "note": "ON 12/24 AND 12/31, THIS BOX MAY BE COLLECTED AS EARLY AS 12 NOON.", "nsi_id": "unitedstatespostalservice-a77078", "operator": "United States Postal Service", "operator:short": "USPS", "operator:type": "public", "operator:wikidata": "Q668687", "ref": "2920600020"}, "type": "Feature"}
{"dataset_attributes": {"@spider": "usps_collection_boxes"}, "geometry": {"coordinates": [-80.9436194, 34.021927], "type": "Point"}, "id": "SNKONdXi8bokdfSDK6tw6ajPiFg=", "properties": {"@spider": "usps_collection_boxes", "addr:city": "COLUMBIA", "addr:country": "US", "addr:full": "4110 MOSEBY ST", "addr:postcode": "29206", "addr:state": "SC", "amenity": "post_box", "brand": "United States Postal Service", "brand:wikidata": "Q668687", "collection_times": "Mo-Fr 12:00", "name": "USPS COLLECTION BOX - BLUE BOX", "nsi_id": "unitedstatespostalservice-a77078", "operator": "United States Postal Service", "operator:short": "USPS", "operator:type": "public", "operator:wikidata": "Q668687", "ref": "2920600023"}, "type": "Feature"}
{"dataset_attributes": {"@spider": "usps_collection_boxes"}, "geometry": {"coordinates": [-80.9573183, 34.062051], "type": "Point"}, "id": "D5G5l5aCfCLNehe2nd23Z7ilKIc=", "properties": {"@spider": "usps_collection_boxes", "addr:city": "COLUMBIA", "addr:country": "US", "addr:full": "6941 N TRENHOLM RD", "addr:postcode": "29206", "addr:state": "SC", "amenity": "post_box", "brand": "United States Postal Service", "brand:wikidata": "Q668687", "collection_times": "Mo-Fr 16:00", "name": "USPS COLLECTION BOX - BLUE BOX", "note": "ON 12/24 AND 12/31, THIS BOX MAY BE COLLECTED AS EARLY AS 12 NOON.", "nsi_id": "unitedstatespostalservice-a77078", "operator": "United States Postal Service", "operator:short": "USPS", "operator:type": "public", "operator:wikidata": "Q668687", "ref": "2920600026"}, "type": "Feature"}
{"dataset_attributes": {"@spider": "usps_collection_boxes"}, "geometry": {"coordinates": [-80.9253352, 34.020822], "type": "Point"}, "id": "rt9irx5IDzkCpzGPfBJj7Oy7S_Y=", "properties": {"@spider": "usps_collection_boxes", "addr:city": "COLUMBIA", "addr:country": "US", "addr:full": "10000 HAMPTON PKWY", "addr:postcode": "29206", "addr:state": "SC", "amenity": "post_box", "brand": "United States Postal Service", "brand:wikidata": "Q668687", "collection_times": "Mo-Fr 12:00", "name": "USPS COLLECTION BOX - BLUE BOX", "nsi_id": "unitedstatespostalservice-a77078", "operator": "United States Postal Service", "operator:short": "USPS", "operator:type": "public", "operator:wikidata": "Q668687", "ref": "2920600031"}, "type": "Feature"}
{"dataset_attributes": {"@spider": "usps_collection_boxes"}, "geometry": {"coordinates": [-80.9500524, 34.022045], "type": "Point"}, "id": "U3eAn3-3W6TpKg6GCRloE_Z3gB8=", "properties": {"@spider": "usps_collection_boxes", "addr:city": "COLUMBIA", "addr:country": "US", "addr:full": "5450 FOREST DR", "addr:postcode": "29206", "addr:state": "SC", "amenity": "post_box", "brand": "United States Postal Service", "brand:wikidata": "Q668687", "collection_times": "Mo-Fr 11:30", "name": "USPS COLLECTION BOX - BLUE BOX", "nsi_id": "unitedstatespostalservice-a77078", "operator": "United States Postal Service", "operator:short": "USPS", "operator:type": "public", "operator:wikidata": "Q668687", "ref": "2920600033"}, "type": "Feature"}
{"dataset_attributes": {"@spider": "usps_collection_boxes"}, "geometry": {"coordinates": [-80.9637163, 34.016657], "type": "Point"}, "id": "2iTmFXV8BZtrv0B8OCywwHICpfA=", "properties": {"@spider": "usps_collection_boxes", "addr:city": "COLUMBIA", "addr:country": "US", "addr:full": "4840 FOREST DR", "addr:postcode": "29206", "addr:state": "SC", "amenity": "post_box", "brand": "United States Postal Service", "brand:wikidata": "Q668687", "collection_times": "Mo-Fr 16:30; Sa 14:15", "name": "USPS COLLECTION BOX - APC", "note": "ON 12/24 AND 12/31, THIS BOX MAY BE COLLECTED AS EARLY AS 12 NOON.", "nsi_id": "unitedstatespostalservice-a77078", "operator": "United States Postal Service", "operator:short": "USPS", "operator:type": "public", "operator:wikidata": "Q668687", "ref": "2920600037"}, "type": "Feature"}
{"dataset_attributes": {"@spider": "usps_collection_boxes"}, "geometry": {"coordinates": [-80.965227, 34.018508], "type": "Point"}, "id": "eD0-8CaagreAINBOgQkz9-HvAsw=", "properties": {"@spider": "usps_collection_boxes", "addr:city": "COLUMBIA", "addr:country": "US", "addr:full": "4840 FOREST DR", "addr:postcode": "29206", "addr:state": "SC", "amenity": "post_box", "brand": "United States Postal Service", "brand:wikidata": "Q668687", "collection_times": "Mo-Fr 16:45; Sa 13:45", "name": "USPS COLLECTION BOX - PO LOBBY", "note": "ON 12/24 AND 12/31, THIS BOX MAY BE COLLECTED AS EARLY AS 12 NOON.", "nsi_id": "unitedstatespostalservice-a77078", "operator": "United States Postal Service", "operator:short": "USPS", "operator:type": "public", "operator:wikidata": "Q668687", "ref": "2920600040"}, "type": "Feature"}
{"dataset_attributes": {"@spider": "usps_collection_boxes"}, "geometry": {"coordinates": [-80.943824911, 34.017592583], "type": "Point"}, "id": "CDIlA6jAjaQqawnq4KRimRCR4z4=", "properties": {"@spider": "usps_collection_boxes", "addr:city": "COLUMBIA", "addr:country": "US", "addr:full": "4350 MAGRUDER AVE", "addr:postcode": "29206", "addr:state": "SC", "amenity": "post_box", "brand": "United States Postal Service", "brand:wikidata": "Q668687", "collection_times": "Mo-Fr 16:15", "name": "USPS COLLECTION BOX - PO LOBBY", "note": "ON 12/24 AND 12/31, THIS BOX MAY BE COLLECTED AS EARLY AS 12 NOON.", "nsi_id": "unitedstatespostalservice-a77078", "operator": "United States Postal Service", "operator:short": "USPS", "operator:type": "public", "operator:wikidata": "Q668687", "ref": "2920600046"}, "type": "Feature"}
{"dataset_attributes": {"@spider": "usps_collection_boxes"}, "geometry": {"coordinates": [-80.9426493, 33.962504], "type": "Point"}, "id": "RZTuPKRdz6rsion58MiBPFtS-bA=", "properties": {"@spider": "usps_collection_boxes", "addr:city": "COLUMBIA", "addr:country": "US", "addr:full": "7509 GARNERS FERRY RD", "addr:postcode": "29209", "addr:state": "SC", "amenity": "post_box", "brand": "United States Postal Service", "brand:wikidata": "Q668687", "collection_times": "Mo-Fr 15:00", "name": "USPS COLLECTION BOX - BLUE BOX", "note": "ON 12/24 AND 12/31, THIS BOX MAY BE COLLECTED AS EARLY AS 12 NOON.", "nsi_id": "unitedstatespostalservice-a77078", "operator": "United States Postal Service", "operator:short": "USPS", "operator:type": "public", "operator:wikidata": "Q668687", "ref": "2920900002"}, "type": "Feature"}
{"dataset_attributes": {"@spider": "usps_collection_boxes"}, "geometry": {"coordinates": [-80.9575071, 33.976197], "type": "Point"}, "id": "Q3upVfPNqlUitk5j0f4XVXXgRiQ=", "properties": {"@spider": "usps_collection_boxes", "addr:city": "COLUMBIA", "addr:country": "US", "addr:full": "6800 GARNERS FERRY RD", "addr:postcode": "29209", "addr:state": "SC", "amenity": "post_box", "brand": "United States Postal Service", "brand:wikidata": "Q668687", "collection_times": "Mo-Fr 15:00", "name": "USPS COLLECTION BOX - BLUE BOX", "note": "ON 12/24 AND 12/31, THIS BOX MAY BE COLLECTED AS EARLY AS 12 NOON.", "nsi_id": "unitedstatespostalservice-a77078", "operator": "United States Postal Service", "operator:short": "USPS", "operator:type": "public", "operator:wikidata": "Q668687", "ref": "2920900003"}, "type": "Feature"}
{"dataset_attributes": {"@spider": "usps_collection_boxes"}, "geometry": {"coordinates": [-80.9690849, 33.982835], "type": "Point"}, "id": "p_pFF7JfPV5GKmXpjI7JUZeNR1o=", "properties": {"@spider": "usps_collection_boxes", "addr:city": "COLUMBIA", "addr:country": "US", "addr:full": "6000 GARNERS FERRY RD", "addr:postcode": "29209", "addr:state": "SC", "amenity": "post_box", "brand": "United States Postal Service", "brand:wikidata": "Q668687", "collection_times": "Mo-Fr 16:00; Sa 14:45", "name": "USPS COLLECTION BOX - BLUE BOX", "note": "ON 12/24 AND 12/31, THIS BOX MAY BE COLLECTED AS EARLY AS 12 NOON.", "nsi_id": "unitedstatespostalservice-a77078", "operator": "United States Postal Service", "operator:short": "USPS", "operator:type": "public", "operator:wikidata": "Q668687", "ref": "2920900006"}, "type": "Feature"}
{"dataset_attributes": {"@spider": "usps_collection_boxes"}, "geometry": {"coordinates": [-80.9662099, 33.993197], "type": "Point"}, "id": "4NxcwRD9GqW0sZwLL092UTl5kco=", "properties": {"@spider": "usps_collection_boxes", "addr:city": "COLUMBIA", "addr:country": "US", "addr:full": "4500 JACKSON BLVD", "addr:postcode": "29209", "addr:state": "SC", "amenity": "post_box", "brand": "United States Postal Service", "brand:wikidata": "Q668687", "collection_times": "Mo-Fr 15:00", "name": "USPS COLLECTION BOX - BLUE BOX", "note": "ON 12/24 AND 12/31, THIS BOX MAY BE COLLECTED AS EARLY AS 12 NOON.", "nsi_id": "unitedstatespostalservice-a77078", "operator": "United States Postal Service", "operator:short": "USPS", "operator:type": "public", "operator:wikidata": "Q668687", "ref": "2920900011"}, "type": "Feature"}
{"dataset_attributes": {"@spider": "usps_collection_boxes"}, "geometry": {"coordinates": [-80.945580186, 33.968617008], "type": "Point"}, "id": "d3PvqDZ5KiDT37qGP_okSwfrsOo=", "properties": {"@spider": "usps_collection_boxes", "addr:city": "COLUMBIA", "addr:country": "US", "addr:full": "7406 GARNERS FERRY RD", "addr:postcode": "29209", "addr:state": "SC", "amenity": "post_box", "brand": "United States Postal Service", "brand:wikidata": "Q668687", "collection_times": "Mo-Fr 16:30; Sa 15:00", "name": "USPS COLLECTION BOX - BLUE BOX", "note": "ON 12/24 AND 12/31, THIS BOX MAY BE COLLECTED AS EARLY AS 12 NOON.", "nsi_id": "unitedstatespostalservice-a77078", "operator": "United States Postal Service", "operator:short": "USPS", "operator:type": "public", "operator:wikidata": "Q668687", "ref": "2920900012"}, "type": "Feature"}
{"dataset_attributes": {"@spider": "usps_collection_boxes"}, "geometry": {"coordinates": [-80.945580186, 33.968617008], "type": "Point"}, "id": "EdR_YfnxnmxuFpectpVvLKQ-le0=", "properties": {"@spider": "usps_collection_boxes", "addr:city": "COLUMBIA", "addr:country": "US", "addr:full": "7406 GARNERS FERRY RD", "addr:postcode": "29209", "addr:state": "SC", "amenity": "post_box", "brand": "United States Postal Service", "brand:wikidata": "Q668687", "collection_times": "Mo-Fr 16:30; Sa 15:00", "name": "USPS COLLECTION BOX - BLUE BOX", "note": "ON 12/24 AND 12/31, THIS BOX MAY BE COLLECTED AS EARLY AS 12 NOON.", "nsi_id": "unitedstatespostalservice-a77078", "operator": "United States Postal Service", "operator:short": "USPS", "operator:type": "public", "operator:wikidata": "Q668687", "ref": "2920900017"}, "type": "Feature"}
{"dataset_attributes": {"@spider": "usps_collection_boxes"}, "geometry": {"coordinates": [-80.9870023, 33.945789], "type": "Point"}, "id": "VjV8VPswNdSWclXB5kMBlujvzMQ=", "properties": {"@spider": "usps_collection_boxes", "addr:city": "COLUMBIA", "addr:country": "US", "addr:full": "3020 BLUFF RD", "addr:postcode": "29209", "addr:state": "SC", "amenity": "post_box", "brand": "United States Postal Service", "brand:wikidata": "Q668687", "collection_times": "Mo-Fr 16:15", "name": "USPS COLLECTION BOX - BLUE BOX", "note": "ON 12/24 AND 12/31, THIS BOX MAY BE COLLECTED AS EARLY AS 12 NOON.", "nsi_id": "unitedstatespostalservice-a77078", "operator": "United States Postal Service", "operator:short": "USPS", "operator:type": "public", "operator:wikidata": "Q668687", "ref": "2920900025"}, "type": "Feature"}
{"dataset_attributes": {"@spider": "usps_collection_boxes"}, "geometry": {"coordinates": [-80.945580186, 33.968617008], "type": "Point"}, "id": "KYBoWojTp_2Ysc7drqEXYSM165k=", "properties": {"@spider": "usps_collection_boxes", "addr:city": "COLUMBIA", "addr:country": "US", "addr:full": "7406 GARNERS FERRY RD", "addr:postcode": "29209", "addr:state": "SC", "amenity": "post_box", "brand": "United States Postal Service", "brand:wikidata": "Q668687", "collection_times": "Mo-Fr 17:00", "name": "USPS COLLECTION BOX - PO LOBBY", "note": "ON 12/24 AND 12/31, THIS BOX MAY BE COLLECTED AS EARLY AS 12 NOON.", "nsi_id": "unitedstatespostalservice-a77078", "operator": "United States Postal Service", "operator:short": "USPS", "operator:type": "public", "operator:wikidata": "Q668687", "ref": "2920900035"}, "type": "Feature"}
{"dataset_attributes": {"@spider": "usps_collection_boxes"}, "geometry": {"coordinates": [-81.108273716, 34.052562781], "type": "Point"}, "id": "JfS6haXF4F1YSNNkD-tnSx2lXlQ=", "properties": {"@spider": "usps_collection_boxes", "addr:city": "COLUMBIA", "addr:country": "US", "addr:full": "3315 BROAD RIVER RD", "addr:postcode": "29210", "addr:state": "SC", "amenity": "post_box", "brand": "United States Postal Service", "brand:wikidata": "Q668687", "collection_times": "Mo-Fr 14:00", "name": "USPS COLLECTION BOX - BLUE BOX", "note": "ON 12/24 AND 12/31, THIS BOX MAY BE COLLECTED AS EARLY AS 12 NOON.", "nsi_id": "unitedstatespostalservice-a77078", "operator": "United States Postal Service", "operator:short": "USPS", "operator:type": "public", "operator:wikidata": "Q668687", "ref": "2921000001"}, "type": "Feature"}
{"dataset_attributes": {"@spider": "usps_collection_boxes"}, "geometry": {"coordinates": [-81.0889444, 34.032149], "type": "Point"}, "id": "Y5hOGKVEqh3fmYtt2OE0SRQfQLI=", "properties": {"@spider": "usps_collection_boxes", "addr:city": "COLUMBIA", "addr:country": "US", "addr:full": "1613 BROAD RIVER RD", "addr:postcode": "29210", "addr:state": "SC", "amenity": "post_box", "brand": "United States Postal Service", "brand:wikidata": "Q668687", "collection_times": "Mo-Fr 15:30", "name": "USPS COLLECTION BOX - BLUE BOX", "note": "ON 12/24 AND 12/31, THIS BOX MAY BE COLLECTED AS EARLY AS 12 NOON.", "nsi_id": "unitedstatespostalservice-a77078", "operator": "United States Postal Service", "operator:short": "USPS", "operator:type": "public", "operator:wikidata": "Q668687", "ref": "2921000005"}, "type": "Feature"}
{"dataset_attributes": {"@spider": "usps_collection_boxes"}, "geometry": {"coordinates": [-81.098458688, 34.040142807], "type": "Point"}, "id": "blg5qzd8uAP6RNQ4gL0l_6iF_v4=", "properties": {"@spider": "usps_collection_boxes", "addr:city": "COLUMBIA", "addr:country": "US", "addr:full": "1120 BRIARGATE CIR", "addr:postcode": "29210", "addr:state": "SC", "amenity": "post_box", "brand": "United States Postal Service", "brand:wikidata": "Q668687", "collection_times": "Mo-Fr 17:00; Sa 14:15", "name": "USPS COLLECTION BOX - BLUE BOX", "note": "ON 12/24 AND 12/31, THIS BOX MAY BE COLLECTED AS EARLY AS 12 NOON.", "nsi_id": "unitedstatespostalservice-a77078", "operator": "United States Postal Service", "operator:short": "USPS", "operator:type": "public", "operator:wikidata": "Q668687", "ref": "2921000009"}, "type": "Feature"}
{"dataset_attributes": {"@spider": "usps_collection_boxes"}, "geometry": {"coordinates": [-81.098458688, 34.040142807], "type": "Point"}, "id": "IDI6xtGgH6T9Z1O-7qimfqXuQrY=", "properties": {"@spider": "usps_collection_boxes", "addr:city": "COLUMBIA", "addr:country": "US", "addr:full": "1120 BRIARGATE CIR", "addr:postcode": "29210", "addr:state": "SC", "amenity": "post_box", "brand": "United States Postal Service", "brand:wikidata": "Q668687", "collection_times": "Mo-Fr 17:00; Sa 13:00", "name": "USPS COLLECTION BOX - PO LOBBY", "note": "ON 12/24 AND 12/31, THIS BOX MAY BE COLLECTED AS EARLY AS 12 NOON.", "nsi_id": "unitedstatespostalservice-a77078", "operator": "United States Postal Service", "operator:short": "USPS", "operator:type": "public", "operator:wikidata": "Q668687", "ref": "2921000015"}, "type": "Feature"}
{"dataset_attributes": {"@spider": "usps_collection_boxes"}, "geometry": {"coordinates": [-81.098458688, 34.040142807], "type": "Point"}, "id": "425RnwB9-rYkwrn-u4baOtukgKo=", "properties": {"@spider": "usps_collection_boxes", "addr:city": "COLUMBIA", "addr:country": "US", "addr:full": "1120 BRIARGATE CIR", "addr:postcode": "29210", "addr:state": "SC", "amenity": "post_box", "brand": "United States Postal Service", "brand:wikidata": "Q668687", "collection_times": "Mo-Fr 17:00; Sa 13:00", "name": "USPS COLLECTION BOX - PO LOBBY", "note": "ON 12/24 AND 12/31, THIS BOX MAY BE COLLECTED AS EARLY AS 12 NOON.", "nsi_id": "unitedstatespostalservice-a77078", "operator": "United States Postal Service", "operator:short": "USPS", "operator:type": "public", "operator:wikidata": "Q668687", "ref": "2921000016"}, "type": "Feature"}
{"dataset_attributes": {"@spider": "usps_collection_boxes"}, "geometry": {"coordinates": [-81.0947124, 34.033518], "type": "Point"}, "id": "CMu7SoKprq0seppOpl2FF36eEcg=", "properties": {"@spider": "usps_collection_boxes", "addr:city": "COLUMBIA", "addr:country": "US", "addr:full": "810 DUTCH SQUARE BLVD", "addr:postcode": "29210", "addr:state": "SC", "amenity": "post_box", "brand": "United States Postal Service", "brand:wikidata": "Q668687", "collection_times": "Mo-Fr 15:15; Sa 14:00", "name": "USPS COLLECTION BOX - BLUE BOX", "note": "ON 12/24 AND 12/31, THIS BOX MAY BE COLLECTED AS EARLY AS 12 NOON.", "nsi_id": "unitedstatespostalservice-a77078", "operator": "United States Postal Service", "operator:short": "USPS", "operator:type": "public", "operator:wikidata": "Q668687", "ref": "2921000019"}, "type": "Feature"}
{"dataset_attributes": {"@spider": "usps_collection_boxes"}, "geometry": {"coordinates": [-81.1222259892, 34.0341029894], "type": "Point"}, "id": "oDY1RXU8LFEJPr_AJVVO8ErlUjE=", "properties": {"@spider": "usps_collection_boxes", "addr:city": "COLUMBIA", "addr:country": "US", "addr:full": "111 EXECUTIVE CENTER DR", "addr:postcode": "29210", "addr:state": "SC", "amenity": "post_box", "brand": "United States Postal Service", "brand:wikidata": "Q668687", "collection_times": "Mo-Fr 16:15", "name": "USPS COLLECTION BOX - BLUE BOX", "note": "ON 12/24 AND 12/31, THIS BOX MAY BE COLLECTED AS EARLY AS 12 NOON.", "nsi_id": "unitedstatespostalservice-a77078", "operator": "United States Postal Service", "operator:short": "USPS", "operator:type": "public", "operator:wikidata": "Q668687", "ref": "2921000029"}, "type": "Feature"}
{"dataset_attributes": {"@spider": "usps_collection_boxes"}, "geometry": {"coordinates": [-81.0873342, 34.041307], "type": "Point"}, "id": "4kqTGg7pLKBtETuM4b30IjXn7uk=", "properties": {"@spider": "usps_collection_boxes", "addr:city": "COLUMBIA", "addr:country": "US", "addr:full": "1345 GARNER LN", "addr:postcode": "29210", "addr:state": "SC", "amenity": "post_box", "brand": "United States Postal Service", "brand:wikidata": "Q668687", "collection_times": "Mo-Fr 15:00", "name": "USPS COLLECTION BOX - BLUE BOX", "note": "ON 12/24 AND 12/31, THIS BOX MAY BE COLLECTED AS EARLY AS 12 NOON.", "nsi_id": "unitedstatespostalservice-a77078", "operator": "United States Postal Service", "operator:short": "USPS", "operator:type": "public", "operator:wikidata": "Q668687", "ref": "2921000031"}, "type": "Feature"}
{"dataset_attributes": {"@spider": "usps_collection_boxes"}, "geometry": {"coordinates": [-81.0775307, 34.021596], "type": "Point"}, "id": "LgITYtDjIuAIwXKWXtrTPZpka44=", "properties": {"@spider": "usps_collection_boxes", "addr:city": "COLUMBIA", "addr:country": "US", "addr:full": "177 GREYSTONE BLVD", "addr:postcode": "29210", "addr:state": "SC", "amenity": "post_box", "brand": "United States Postal Service", "brand:wikidata": "Q668687", "collection_times": "Mo-Fr 15:45", "name": "USPS COLLECTION BOX - BLUE BOX", "note": "ON 12/24 AND 12/31, THIS BOX MAY BE COLLECTED AS EARLY AS 12 NOON.", "nsi_id": "unitedstatespostalservice-a77078", "operator": "United States Postal Service", "operator:short": "USPS", "operator:type": "public", "operator:wikidata": "Q668687", "ref": "2921000032"}, "type": "Feature"}
{"dataset_attributes": {"@spider": "usps_collection_boxes"}, "geometry": {"coordinates": [-81.1248368, 34.031885], "type": "Point"}, "id": "XTN3Kp1w6-T43GX4iRj5hLIlMnE=", "properties": {"@spider": "usps_collection_boxes", "addr:city": "COLUMBIA", "addr:country": "US", "addr:full": "125 OUTLET POINTE BLVD", "addr:postcode": "29210", "addr:state": "SC", "amenity": "post_box", "brand": "United States Postal Service", "brand:wikidata": "Q668687", "collection_times": "Mo-Fr 16:00", "name": "USPS COLLECTION BOX - BLUE BOX", "note": "ON 12/24 AND 12/31, THIS BOX MAY BE COLLECTED AS EARLY AS 12 NOON.", "nsi_id": "unitedstatespostalservice-a77078", "operator": "United States Postal Service", "operator:short": "USPS", "operator:type": "public", "operator:wikidata": "Q668687", "ref": "2921000039"}, "type": "Feature"}
{"dataset_attributes": {"@spider": "usps_collection_boxes"}, "geometry": {"coordinates": [-81.1252299, 34.044828], "type": "Point"}, "id": "BamrUMNI95yX-ajroxxweRLyvXU=", "properties": {"@spider": "usps_collection_boxes", "addr:city": "COLUMBIA", "addr:country": "US", "addr:full": "612 SAINT ANDREWS RD", "addr:postcode": "29210", "addr:state": "SC", "amenity": "post_box", "brand": "United States Postal Service", "brand:wikidata": "Q668687", "collection_times": "Mo-Fr 14:45", "name": "USPS COLLECTION BOX - BLUE BOX", "note": "ON 12/24 AND 12/31, THIS BOX MAY BE COLLECTED AS EARLY AS 12 NOON.", "nsi_id": "unitedstatespostalservice-a77078", "operator": "United States Postal Service", "operator:short": "USPS", "operator:type": "public", "operator:wikidata": "Q668687", "ref": "2921000043"}, "type": "Feature"}
{"dataset_attributes": {"@spider": "usps_collection_boxes"}, "geometry": {"coordinates": [-81.1424522, 34.043443], "type": "Point"}, "id": "bfGcGnQtgubspuaPDK1Me_ktNec=", "properties": {"@spider": "usps_collection_boxes", "addr:city": "COLUMBIA", "addr:country": "US", "addr:full": "326 SAINT ANDREWS RD", "addr:postcode": "29210", "addr:state": "SC", "amenity": "post_box", "brand": "United States Postal Service", "brand:wikidata": "Q668687", "collection_times": "Mo-Fr 15:00", "name": "USPS COLLECTION BOX - BLUE BOX", "note": "ON 12/24 AND 12/31, THIS BOX MAY BE COLLECTED AS EARLY AS 12 NOON.", "nsi_id": "unitedstatespostalservice-a77078", "operator": "United States Postal Service", "operator:short": "USPS", "operator:type": "public", "operator:wikidata": "Q668687", "ref": "2921000044"}, "type": "Feature"}
{"dataset_attributes": {"@spider": "usps_collection_boxes"}, "geometry": {"coordinates": [-81.1210299, 34.04391], "type": "Point"}, "id": "TsiiLxnVf3xbusCxgfFUsta0Zuc=", "properties": {"@spider": "usps_collection_boxes", "addr:city": "COLUMBIA", "addr:country": "US", "addr:full": "736 SAINT ANDREWS RD", "addr:postcode": "29210", "addr:state": "SC", "amenity": "post_box", "brand": "United States Postal Service", "brand:wikidata": "Q668687", "collection_times": "Mo-Fr 14:30; Sa 14:45", "name": "USPS COLLECTION BOX - BLUE BOX", "note": "ON 12/24 AND 12/31, THIS BOX MAY BE COLLECTED AS EARLY AS 12 NOON.", "nsi_id": "unitedstatespostalservice-a77078", "operator": "United States Postal Service", "operator:short": "USPS", "operator:type": "public", "operator:wikidata": "Q668687", "ref": "2921000048"}, "type": "Feature"}
{"dataset_attributes": {"@spider": "usps_collection_boxes"}, "geometry": {"coordinates": [-81.08061, 34.031355], "type": "Point"}, "id": "RY9_1mEUkoajoRBqcEe0T6QkCnk=", "properties": {"@spider": "usps_collection_boxes", "addr:city": "COLUMBIA", "addr:country": "US", "addr:full": "140 STONERIDGE DR", "addr:postcode": "29210", "addr:state": "SC", "amenity": "post_box", "brand": "United States Postal Service", "brand:wikidata": "Q668687", "collection_times": "Mo-Fr 15:45", "name": "USPS COLLECTION BOX - BLUE BOX", "note": "ON 12/24 AND 12/31, THIS BOX MAY BE COLLECTED AS EARLY AS 12 NOON.", "nsi_id": "unitedstatespostalservice-a77078", "operator": "United States Postal Service", "operator:short": "USPS", "operator:type": "public", "operator:wikidata": "Q668687", "ref": "2921000053"}, "type": "Feature"}
{"dataset_attributes": {"@spider": "usps_collection_boxes"}, "geometry": {"coordinates": [-81.0806403199, 34.0160248001], "type": "Point"}, "id": "DEI3XGfwyajus152HzEeQDkJs-I=", "properties": {"@spider": "usps_collection_boxes", "addr:city": "COLUMBIA", "addr:country": "US", "addr:full": "236 STONERIDGE DR", "addr:postcode": "29210", "addr:state": "SC", "amenity": "post_box", "brand": "United States Postal Service", "brand:wikidata": "Q668687", "collection_times": "Mo-Fr 15:45", "name": "USPS COLLECTION BOX - BLUE BOX", "note": "ON 12/24 AND 12/31, THIS BOX MAY BE COLLECTED AS EARLY AS 12 NOON.", "nsi_id": "unitedstatespostalservice-a77078", "operator": "United States Postal Service", "operator:short": "USPS", "operator:type": "public", "operator:wikidata": "Q668687", "ref": "2921000054"}, "type": "Feature"}
{"dataset_attributes": {"@spider": "usps_collection_boxes"}, "geometry": {"coordinates": [-81.0793247, 34.01429], "type": "Point"}, "id": "TYQY7AKZDZgHUs9bqfx7ZJIHBEw=", "properties": {"@spider": "usps_collection_boxes", "addr:city": "COLUMBIA", "addr:country": "US", "addr:full": "220 STONERIDGE DR", "addr:postcode": "29210", "addr:state": "SC", "amenity": "post_box", "brand": "United States Postal Service", "brand:wikidata": "Q668687", "collection_times": "Mo-Fr 15:45", "name": "USPS COLLECTION BOX - BLUE BOX", "note": "ON 12/24 AND 12/31, THIS BOX MAY BE COLLECTED AS EARLY AS 12 NOON.", "nsi_id": "unitedstatespostalservice-a77078", "operator": "United States Postal Service", "operator:short": "USPS", "operator:type": "public", "operator:wikidata": "Q668687", "ref": "2921000055"}, "type": "Feature"}
{"dataset_attributes": {"@spider": "usps_collection_boxes"}, "geometry": {"coordinates": [-81.1321729, 34.045244], "type": "Point"}, "id": "72aPdeLo40GXz97kdK3Pk0sxaEo=", "properties": {"@spider": "usps_collection_boxes", "addr:city": "COLUMBIA", "addr:country": "US", "addr:full": "455 SAINT ANDREWS RD", "addr:postcode": "29210", "addr:state": "SC", "amenity": "post_box", "brand": "United States Postal Service", "brand:wikidata": "Q668687", "collection_times": "Mo-Fr 15:00", "name": "USPS COLLECTION BOX - BLUE BOX", "note": "ON 12/24 AND 12/31, THIS BOX MAY BE COLLECTED AS EARLY AS 12 NOON.", "nsi_id": "unitedstatespostalservice-a77078", "operator": "United States Postal Service", "operator:short": "USPS", "operator:type": "public", "operator:wikidata": "Q668687", "ref": "2921000062"}, "type": "Feature"}
{"dataset_attributes": {"@spider": "usps_collection_boxes"}, "geometry": {"coordinates": [-81.1343371, 34.060502], "type": "Point"}, "id": "z8dWDv7WN6YE8mGZv1RzVxKvsQU=", "properties": {"@spider": "usps_collection_boxes", "addr:city": "COLUMBIA", "addr:country": "US", "addr:full": "3800 FERNANDINA RD", "addr:postcode": "29210", "addr:state": "SC", "amenity": "post_box", "brand": "United States Postal Service", "brand:wikidata": "Q668687", "collection_times": "Mo-Fr 13:45", "name": "USPS COLLECTION BOX - BLUE BOX", "note": "ON 12/24 AND 12/31, THIS BOX MAY BE COLLECTED AS EARLY AS 12 NOON.", "nsi_id": "unitedstatespostalservice-a77078", "operator": "United States Postal Service", "operator:short": "USPS", "operator:type": "public", "operator:wikidata": "Q668687", "ref": "2921000081"}, "type": "Feature"}
{"dataset_attributes": {"@spider": "usps_collection_boxes"}, "geometry": {"coordinates": [-81.1070870148, 34.0390670039], "type": "Point"}, "id": "lKc8iQ0uSL6CfbPfuGF5S_cmIco=", "properties": {"@spider": "usps_collection_boxes", "addr:city": "COLUMBIA", "addr:country": "US", "addr:full": "1400 BROWNING RD", "addr:postcode": "29210", "addr:state": "SC", "amenity": "post_box", "brand": "United States Postal Service", "brand:wikidata": "Q668687", "collection_times": "Mo-Fr 14:30", "name": "USPS COLLECTION BOX - BLUE BOX", "note": "ON 12/24 AND 12/31, THIS BOX MAY BE COLLECTED AS EARLY AS 12 NOON.", "nsi_id": "unitedstatespostalservice-a77078", "operator": "United States Postal Service", "operator:short": "USPS", "operator:type": "public", "operator:wikidata": "Q668687", "ref": "2921000082"}, "type": "Feature"}
{"dataset_attributes": {"@spider": "usps_collection_boxes"}, "geometry": {"coordinates": [-81.1208038, 34.034643], "type": "Point"}, "id": "YWnKmdfhzzLiXmTm2iZ_Dl0yCU4=", "properties": {"@spider": "usps_collection_boxes", "addr:city": "COLUMBIA", "addr:country": "US", "addr:full": "221 EXECUTIVE CENTER DR", "addr:postcode": "29210", "addr:state": "SC", "amenity": "post_box", "brand": "United States Postal Service", "brand:wikidata": "Q668687", "collection_times": "Mo-Fr 16:15", "name": "USPS COLLECTION BOX - BLUE BOX", "note": "ON 12/24 AND 12/31, THIS BOX MAY BE COLLECTED AS EARLY AS 12 NOON.", "nsi_id": "unitedstatespostalservice-a77078", "operator": "United States Postal Service", "operator:short": "USPS", "operator:type": "public", "operator:wikidata": "Q668687", "ref": "2921000088"}, "type": "Feature"}
{"dataset_attributes": {"@spider": "usps_collection_boxes"}, "geometry": {"coordinates": [-81.098458688, 34.040142807], "type": "Point"}, "id": "_fjteb3kSDBzT4MqCU52Xf2C36A=", "properties": {"@spider": "usps_collection_boxes", "addr:city": "COLUMBIA", "addr:country": "US", "addr:full": "1120 BRIARGATE CIR", "addr:postcode": "29210", "addr:state": "SC", "amenity": "post_box", "brand": "United States Postal Service", "brand:wikidata": "Q668687", "collection_times": "Mo-Fr 17:00; Sa 12:00", "name": "USPS COLLECTION BOX - PO LOBBY", "note": "ON 12/24 AND 12/31, THIS BOX MAY BE COLLECTED AS EARLY AS 12 NOON.", "nsi_id": "unitedstatespostalservice-a77078", "operator": "United States Postal Service", "operator:short": "USPS", "operator:type": "public", "operator:wikidata": "Q668687", "ref": "2921000096"}, "type": "Feature"}
{"dataset_attributes": {"@spider": "usps_collection_boxes"}, "geometry": {"coordinates": [-81.1578549, 34.074038], "type": "Point"}, "id": "8OVwoFoFs50CQmANaAq4PZ2PdHo=", "properties": {"@spider": "usps_collection_boxes", "addr:city": "COLUMBIA", "addr:country": "US", "addr:full": "275 HARBISON BLVD", "addr:postcode": "29212", "addr:state": "SC", "amenity": "post_box", "brand": "United States Postal Service", "brand:wikidata": "Q668687", "collection_times": "Mo-Fr 15:45; Sa 14:30", "name": "USPS COLLECTION BOX - BLUE BOX", "note": "ON 12/24 AND 12/31, THIS BOX MAY BE COLLECTED AS EARLY AS 12 NOON.", "nsi_id": "unitedstatespostalservice-a77078", "operator": "United States Postal Service", "operator:short": "USPS", "operator:type": "public", "operator:wikidata": "Q668687", "ref": "2921200000"}, "type": "Feature"}
{"dataset_attributes": {"@spider": "usps_collection_boxes"}, "geometry": {"coordinates": [-81.1494219, 34.079771], "type": "Point"}, "id": "_9kJdclI_4F622MCZYbWludee8o=", "properties": {"@spider": "usps_collection_boxes", "addr:city": "COLUMBIA", "addr:country": "US", "addr:full": "401 HARBISON BLVD", "addr:postcode": "29212", "addr:state": "SC", "amenity": "post_box", "brand": "United States Postal Service", "brand:wikidata": "Q668687", "collection_times": "Mo-Fr 16:00", "name": "USPS COLLECTION BOX - BLUE BOX", "note": "ON 12/24 AND 12/31, THIS BOX MAY BE COLLECTED AS EARLY AS 12 NOON.", "nsi_id": "unitedstatespostalservice-a77078", "operator": "United States Postal Service", "operator:short": "USPS", "operator:type": "public", "operator:wikidata": "Q668687", "ref": "2921200004"}, "type": "Feature"}
{"dataset_attributes": {"@spider": "usps_collection_boxes"}, "geometry": {"coordinates": [-81.1469390249, 34.0736949928], "type": "Point"}, "id": "tSaaFGGQ7gvV24eMgQKg3MvORVE=", "properties": {"@spider": "usps_collection_boxes", "addr:city": "COLUMBIA", "addr:country": "US", "addr:full": "1 HARBISON WAY", "addr:postcode": "29212", "addr:state": "SC", "amenity": "post_box", "brand": "United States Postal Service", "brand:wikidata": "Q668687", "collection_times": "Mo-Fr 16:15", "name": "USPS COLLECTION BOX - BLUE BOX", "note": "ON 12/24 AND 12/31, THIS BOX MAY BE COLLECTED AS EARLY AS 12 NOON.", "nsi_id": "unitedstatespostalservice-a77078", "operator": "United States Postal Service", "operator:short": "USPS", "operator:type": "public", "operator:wikidata": "Q668687", "ref": "2921200006"}, "type": "Feature"}
{"dataset_attributes": {"@spider": "usps_collection_boxes"}, "geometry": {"coordinates": [-81.1624588, 34.056942], "type": "Point"}, "id": "0NsCth9zJ7YSkeTUOefotBBxxKE=", "properties": {"@spider": "usps_collection_boxes", "addr:city": "COLUMBIA", "addr:country": "US", "addr:full": "6169 SAINT ANDREWS RD", "addr:postcode": "29212", "addr:state": "SC", "amenity": "post_box", "brand": "United States Postal Service", "brand:wikidata": "Q668687", "collection_times": "Mo-Fr 15:15; Sa 14:30", "name": "USPS COLLECTION BOX - BLUE BOX", "note": "ON 12/24 AND 12/31, THIS BOX MAY BE COLLECTED AS EARLY AS 12 NOON.", "nsi_id": "unitedstatespostalservice-a77078", "operator": "United States Postal Service", "operator:short": "USPS", "operator:type": "public", "operator:wikidata": "Q668687", "ref": "2921200010"}, "type": "Feature"}
{"dataset_attributes": {"@spider": "usps_collection_boxes"}, "geometry": {"coordinates": [-81.1792773, 34.077318], "type": "Point"}, "id": "JTugXSE3ZqSpE1ITOvJa11mr-wM=", "properties": {"@spider": "usps_collection_boxes", "addr:city": "COLUMBIA", "addr:country": "US", "addr:full": "7033 SAINT ANDREWS RD", "addr:postcode": "29212", "addr:state": "SC", "amenity": "post_box", "brand": "United States Postal Service", "brand:wikidata": "Q668687", "collection_times": "Mo-Fr 15:15", "name": "USPS COLLECTION BOX - BLUE BOX", "note": "ON 12/24 AND 12/31, THIS BOX MAY BE COLLECTED AS EARLY AS 12 NOON.", "nsi_id": "unitedstatespostalservice-a77078", "operator": "United States Postal Service", "operator:short": "USPS", "operator:type": "public", "operator:wikidata": "Q668687", "ref": "2921200025"}, "type": "Feature"}
{"dataset_attributes": {"@spider": "usps_collection_boxes"}, "geometry": {"coordinates": [-81.1763969, 34.072513], "type": "Point"}, "id": "2kJUbVny9dEdpLv2D-t11c_xna4=", "properties": {"@spider": "usps_collection_boxes", "addr:city": "COLUMBIA", "addr:country": "US", "addr:full": "6903 SAINT ANDREWS RD STE 1", "addr:postcode": "29212", "addr:state": "SC", "amenity": "post_box", "brand": "United States Postal Service", "brand:wikidata": "Q668687", "collection_times": "Mo-Fr 15:15; Sa 13:15", "name": "USPS COLLECTION BOX - BLUE BOX", "note": "ON 12/24 AND 12/31, THIS BOX MAY BE COLLECTED AS EARLY AS 12 NOON.", "nsi_id": "unitedstatespostalservice-a77078", "operator": "United States Postal Service", "operator:short": "USPS", "operator:type": "public", "operator:wikidata": "Q668687", "ref": "2921200033"}, "type": "Feature"}
{"dataset_attributes": {"@spider": "usps_collection_boxes"}, "geometry": {"coordinates": [-80.9913544, 34.060156], "type": "Point"}, "id": "y4UnoKIuZJaJyEPE7cHgB2i2Z5Q=", "properties": {"@spider": "usps_collection_boxes", "addr:city": "COLUMBIA", "addr:country": "US", "addr:full": "300 ARBOR LAKE DR", "addr:postcode": "29223", "addr:state": "SC", "amenity": "post_box", "brand": "United States Postal Service", "brand:wikidata": "Q668687", "collection_times": "Mo-Fr 15:30", "name": "USPS COLLECTION BOX - BLUE BOX", "note": "ON 12/24 AND 12/31, THIS BOX MAY BE COLLECTED AS EARLY AS 12 NOON.", "nsi_id": "unitedstatespostalservice-a77078", "operator": "United States Postal Service", "operator:short": "USPS", "operator:type": "public", "operator:wikidata": "Q668687", "ref": "2922300003"}, "type": "Feature"}
{"dataset_attributes": {"@spider": "usps_collection_boxes"}, "geometry": {"coordinates": [-80.9616326, 34.064819], "type": "Point"}, "id": "njB4AcDKHwbRwQNvdONRgfMWoEI=", "properties": {"@spider": "usps_collection_boxes", "addr:city": "COLUMBIA", "addr:country": "US", "addr:full": "7201 TWO NOTCH RD", "addr:postcode": "29223", "addr:state": "SC", "amenity": "post_box", "brand": "United States Postal Service", "brand:wikidata": "Q668687", "collection_times": "Mo-Fr 15:15", "name": "USPS COLLECTION BOX - BLUE BOX", "note": "ON 12/24 AND 12/31, THIS BOX MAY BE COLLECTED AS EARLY AS 12 NOON.", "nsi_id": "unitedstatespostalservice-a77078", "operator": "United States Postal Service", "operator:short": "USPS", "operator:type": "public", "operator:wikidata": "Q668687", "ref": "2922300006"}, "type": "Feature"}
{"dataset_attributes": {"@spider": "usps_collection_boxes"}, "geometry": {"coordinates": [-80.9348919741, 34.0863534255], "type": "Point"}, "id": "MS15JK7rwOG7huS7Lu1oxdVzn9M=", "properties": {"@spider": "usps_collection_boxes", "addr:city": "COLUMBIA", "addr:country": "US", "addr:full": "8505 TWO NOTCH RD", "addr:postcode": "29223", "addr:state": "SC", "amenity": "post_box", "brand": "United States Postal Service", "brand:wikidata": "Q668687", "collection_times": "Mo-Fr 17:00; Sa 13:30", "name": "USPS COLLECTION BOX - BLUE BOX", "note": "ON 12/24 AND 12/31, THIS BOX MAY BE COLLECTED AS EARLY AS 12 NOON.", "nsi_id": "unitedstatespostalservice-a77078", "operator": "United States Postal Service", "operator:short": "USPS", "operator:type": "public", "operator:wikidata": "Q668687", "ref": "2922300014"}, "type": "Feature"}
{"dataset_attributes": {"@spider": "usps_collection_boxes"}, "geometry": {"coordinates": [-80.9348919741, 34.0863534255], "type": "Point"}, "id": "6rr-HKzfmVZRhs9DTfJaklrVmu4=", "properties": {"@spider": "usps_collection_boxes", "addr:city": "COLUMBIA", "addr:country": "US", "addr:full": "8505 TWO NOTCH RD", "addr:postcode": "29223", "addr:state": "SC", "amenity": "post_box", "brand": "United States Postal Service", "brand:wikidata": "Q668687", "collection_times": "Mo-Fr 17:00; Sa 13:30", "name": "USPS COLLECTION BOX - BLUE BOX", "note": "ON 12/24 AND 12/31, THIS BOX MAY BE COLLECTED AS EARLY AS 12 NOON.", "nsi_id": "unitedstatespostalservice-a77078", "operator": "United States Postal Service", "operator:short": "USPS", "operator:type": "public", "operator:wikidata": "Q668687", "ref": "2922300015"}, "type": "Feature"}
{"dataset_attributes": {"@spider": "usps_collection_boxes"}, "geometry": {"coordinates": [-80.9348919741, 34.0863534255], "type": "Point"}, "id": "7oUUZdqvIyMCcQvMn99LKPoDQtw=", "properties": {"@spider": "usps_collection_boxes", "addr:city": "COLUMBIA", "addr:country": "US", "addr:full": "8505 TWO NOTCH RD", "addr:postcode": "29223", "addr:state": "SC", "amenity": "post_box", "brand": "United States Postal Service", "brand:wikidata": "Q668687", "collection_times": "Mo-Fr 17:00; Sa 13:30", "name": "USPS COLLECTION BOX - BLUE BOX", "note": "ON 12/24 AND 12/31, THIS BOX MAY BE COLLECTED AS EARLY AS 12 NOON.", "nsi_id": "unitedstatespostalservice-a77078", "operator": "United States Postal Service", "operator:short": "USPS", "operator:type": "public", "operator:wikidata": "Q668687", "ref": "2922300017"}, "type": "Feature"}
{"dataset_attributes": {"@spider": "usps_collection_boxes"}, "geometry": {"coordinates": [-80.9738109, 34.059333], "type": "Point"}, "id": "7A06W3NPVqtLrnkvxMvT9ZQnWJ0=", "properties": {"@spider": "usps_collection_boxes", "addr:city": "COLUMBIA", "addr:country": "US", "addr:full": "6202 SHAKESPEARE RD", "addr:postcode": "29223", "addr:state": "SC", "amenity": "post_box", "brand": "United States Postal Service", "brand:wikidata": "Q668687", "collection_times": "Mo-Fr 15:15", "name": "USPS COLLECTION BOX - BLUE BOX", "note": "ON 12/24 AND 12/31, THIS BOX MAY BE COLLECTED AS EARLY AS 12 NOON.", "nsi_id": "unitedstatespostalservice-a77078", "operator": "United States Postal Service", "operator:short": "USPS", "operator:type": "public", "operator:wikidata": "Q668687", "ref": "2922300024"}, "type": "Feature"}
{"dataset_attributes": {"@spider": "usps_collection_boxes"}, "geometry": {"coordinates": [-80.9180878, 34.099536], "type": "Point"}, "id": "fP2kHGHyYHsIVmbFK8uRIJcytLk=", "properties": {"@spider": "usps_collection_boxes", "addr:city": "COLUMBIA", "addr:country": "US", "addr:full": "9380 TWO NOTCH RD", "addr:postcode": "29223", "addr:state": "SC", "amenity": "post_box", "brand": "United States Postal Service", "brand:wikidata": "Q668687", "collection_times": "Mo-Fr 14:30", "name": "USPS COLLECTION BOX - BLUE BOX", "note": "ON 12/24 AND 12/31, THIS BOX MAY BE COLLECTED AS EARLY AS 12 NOON.", "nsi_id": "unitedstatespostalservice-a77078", "operator": "United States Postal Service", "operator:short": "USPS", "operator:type": "public", "operator:wikidata": "Q668687", "ref": "2922300026"}, "type": "Feature"}
{"dataset_attributes": {"@spider": "usps_collection_boxes"}, "geometry": {"coordinates": [-80.9554018, 34.067994], "type": "Point"}, "id": "wWG9MaZbQvSt_lswvEYJQ2Nf5rM=", "properties": {"@spider": "usps_collection_boxes", "addr:city": "COLUMBIA", "addr:country": "US", "addr:full": "7325 TWO NOTCH RD", "addr:postcode": "29223", "addr:state": "SC", "amenity": "post_box", "brand": "United States Postal Service", "brand:wikidata": "Q668687", "collection_times": "Mo-Fr 15:00", "name": "USPS COLLECTION BOX - BLUE BOX", "note": "ON 12/24 AND 12/31, THIS BOX MAY BE COLLECTED AS EARLY AS 12 NOON.", "nsi_id": "unitedstatespostalservice-a77078", "operator": "United States Postal Service", "operator:short": "USPS", "operator:type": "public", "operator:wikidata": "Q668687", "ref": "2922300027"}, "type": "Feature"}
{"dataset_attributes": {"@spider": "usps_collection_boxes"}, "geometry": {"coordinates": [-80.9031273, 34.105042], "type": "Point"}, "id": "d6brsvTLJCjlWSCk8LB2pfvd94Q=", "properties": {"@spider": "usps_collection_boxes", "addr:city": "COLUMBIA", "addr:country": "US", "addr:full": "9710 TWO NOTCH RD", "addr:postcode": "29223", "addr:state": "SC", "amenity": "post_box", "brand": "United States Postal Service", "brand:wikidata": "Q668687", "collection_times": "Mo-Fr 14:45", "name": "USPS COLLECTION BOX - BLUE BOX", "note": "ON 12/24 AND 12/31, THIS BOX MAY BE COLLECTED AS EARLY AS 12 NOON.", "nsi_id": "unitedstatespostalservice-a77078", "operator": "United States Postal Service", "operator:short": "USPS", "operator:type": "public", "operator:wikidata": "Q668687", "ref": "2922300029"}, "type": "Feature"}
{"dataset_attributes": {"@spider": "usps_collection_boxes"}, "geometry": {"coordinates": [-80.9590817, 34.083828], "type": "Point"}, "id": "YSrRuZtQ1HWgEuoPuB8GitIRBvA=", "properties": {"@spider": "usps_collection_boxes", "addr:city": "COLUMBIA", "addr:country": "US", "addr:full": "7909 PARKLANE RD", "addr:postcode": "29223", "addr:state": "SC", "amenity": "post_box", "brand": "United States Postal Service", "brand:wikidata": "Q668687", "collection_times": "Mo-Fr 15:15", "name": "USPS COLLECTION BOX - BLUE BOX", "note": "ON 12/24 AND 12/31, THIS BOX MAY BE COLLECTED AS EARLY AS 12 NOON.", "nsi_id": "unitedstatespostalservice-a77078", "operator": "United States Postal Service", "operator:short": "USPS", "operator:type": "public", "operator:wikidata": "Q668687", "ref": "2922300031"}, "type": "Feature"}
{"dataset_attributes": {"@spider": "usps_collection_boxes"}, "geometry": {"coordinates": [-80.934888513, 34.086361484], "type": "Point"}, "id": "7ezS22teCpkMv3DtLe93nVkmv3Q=", "properties": {"@spider": "usps_collection_boxes", "addr:city": "COLUMBIA", "addr:country": "US", "addr:full": "8505 TWO NOTCH RD", "addr:postcode": "29223", "addr:state": "SC", "amenity": "post_box", "brand": "United States Postal Service", "brand:wikidata": "Q668687", "collection_times": "Mo-Fr 17:00; Sa 13:00", "name": "USPS COLLECTION BOX - PO LOBBY", "note": "ON 12/24 AND 12/31, THIS BOX MAY BE COLLECTED AS EARLY AS 12 NOON.", "nsi_id": "unitedstatespostalservice-a77078", "operator": "United States Postal Service", "operator:short": "USPS", "operator:type": "public", "operator:wikidata": "Q668687", "ref": "2922300032"}, "type": "Feature"}
{"dataset_attributes": {"@spider": "usps_collection_boxes"}, "geometry": {"coordinates": [-80.934888513, 34.086361484], "type": "Point"}, "id": "F2fgmsSox_W7rXOj2-HXkZ3gAVc=", "properties": {"@spider": "usps_collection_boxes", "addr:city": "COLUMBIA", "addr:country": "US", "addr:full": "8505 TWO NOTCH RD", "addr:postcode": "29223", "addr:state": "SC", "amenity": "post_box", "brand": "United States Postal Service", "brand:wikidata": "Q668687", "collection_times": "Mo-Fr 17:00; Sa 13:00", "name": "USPS COLLECTION BOX - PO LOBBY", "note": "ON 12/24 AND 12/31, THIS BOX MAY BE COLLECTED AS EARLY AS 12 NOON.", "nsi_id": "unitedstatespostalservice-a77078", "operator": "United States Postal Service", "operator:short": "USPS", "operator:type": "public", "operator:wikidata": "Q668687", "ref": "2922300047"}, "type": "Feature"}
{"dataset_attributes": {"@spider": "usps_collection_boxes"}, "geometry": {"coordinates": [-80.9096433, 34.10146], "type": "Point"}, "id": "PP3dSmKNIQBEpU4MHUEfcPmlcik=", "properties": {"@spider": "usps_collection_boxes", "addr:city": "COLUMBIA", "addr:country": "US", "addr:full": "9600 TWO NOTCH RD", "addr:postcode": "29223", "addr:state": "SC", "amenity": "post_box", "brand": "United States Postal Service", "brand:wikidata": "Q668687", "collection_times": "Mo-Fr 14:30", "name": "USPS COLLECTION BOX - BLUE BOX", "note": "ON 12/24 AND 12/31, THIS BOX MAY BE COLLECTED AS EARLY AS 12 NOON.", "nsi_id": "unitedstatespostalservice-a77078", "operator": "United States Postal Service", "operator:short": "USPS", "operator:type": "public", "operator:wikidata": "Q668687", "ref": "2922300051"}, "type": "Feature"}
{"dataset_attributes": {"@spider": "usps_collection_boxes"}, "geometry": {"coordinates": [-80.8852078, 34.114528], "type": "Point"}, "id": "9hnMWsM2wl6Ar8G0yaECH8PRjzI=", "properties": {"@spider": "usps_collection_boxes", "addr:city": "COLUMBIA", "addr:country": "US", "addr:full": "10134 TWO NOTCH RD", "addr:postcode": "29223", "addr:state": "SC", "amenity": "post_box", "brand": "United States Postal Service", "brand:wikidata": "Q668687", "collection_times": "Mo-Fr 14:45", "name": "USPS COLLECTION BOX - BLUE BOX", "note": "ON 12/24 AND 12/31, THIS BOX MAY BE COLLECTED AS EARLY AS 12 NOON.", "nsi_id": "unitedstatespostalservice-a77078", "operator": "United States Postal Service", "operator:short": "USPS", "operator:type": "public", "operator:wikidata": "Q668687", "ref": "2922300052"}, "type": "Feature"}
{"dataset_attributes": {"@spider": "usps_collection_boxes"}, "geometry": {"coordinates": [-80.9445045, 34.072574], "type": "Point"}, "id": "TYwB-eJdKCddl76ka61wpugZ06w=", "properties": {"@spider": "usps_collection_boxes", "addr:city": "COLUMBIA", "addr:country": "US", "addr:full": "3000 SCOTSMAN RD", "addr:postcode": "29223", "addr:state": "SC", "amenity": "post_box", "brand": "United States Postal Service", "brand:wikidata": "Q668687", "collection_times": "Mo-Fr 15:00", "name": "USPS COLLECTION BOX - BLUE BOX", "note": "ON 12/24 AND 12/31, THIS BOX MAY BE COLLECTED AS EARLY AS 12 NOON.", "nsi_id": "unitedstatespostalservice-a77078", "operator": "United States Postal Service", "operator:short": "USPS", "operator:type": "public", "operator:wikidata": "Q668687", "ref": "2922300053"}, "type": "Feature"}
{"dataset_attributes": {"@spider": "usps_collection_boxes"}, "geometry": {"coordinates": [-80.934888513, 34.086361484], "type": "Point"}, "id": "zXBGD-eWXsjboP4NtvsJkatWL-w=", "properties": {"@spider": "usps_collection_boxes", "addr:city": "COLUMBIA", "addr:country": "US", "addr:full": "8505 TWO NOTCH RD", "addr:postcode": "29223", "addr:state": "SC", "amenity": "post_box", "brand": "United States Postal Service", "brand:wikidata": "Q668687", "collection_times": "Mo-Fr 17:00; Sa 13:00", "name": "USPS COLLECTION BOX - APC", "note": "ON 12/24 AND 12/31, THIS BOX MAY BE COLLECTED AS EARLY AS 12 NOON.", "nsi_id": "unitedstatespostalservice-a77078", "operator": "United States Postal Service", "operator:short": "USPS", "operator:type": "public", "operator:wikidata": "Q668687", "ref": "2922300060"}, "type": "Feature"}
{"dataset_attributes": {"@spider": "usps_collection_boxes"}, "geometry": {"coordinates": [-80.890120404, 34.08368444], "type": "Point"}, "id": "3M7kbZomxl3Qn_KfFbUB2hLDR88=", "properties": {"@spider": "usps_collection_boxes", "addr:city": "COLUMBIA", "addr:country": "US", "addr:full": "841 POLO RD", "addr:postcode": "29223", "addr:state": "SC", "amenity": "post_box", "brand": "United States Postal Service", "brand:wikidata": "Q668687", "collection_times": "Mo-Fr 16:00; Sa 11:45", "name": "USPS COLLECTION BOX - PO LOBBY", "note": "ON 12/24 AND 12/31, THIS BOX MAY BE COLLECTED AS EARLY AS 12 NOON.", "nsi_id": "unitedstatespostalservice-a77078", "operator": "United States Postal Service", "operator:short": "USPS", "operator:type": "public", "operator:wikidata": "Q668687", "ref": "2922300062"}, "type": "Feature"}
{"dataset_attributes": {"@spider": "usps_collection_boxes"}, "geometry": {"coordinates": [-80.934888513, 34.086361484], "type": "Point"}, "id": "czlZNeoDFAnGDSCtxJvPQ1b_Ik4=", "properties": {"@spider": "usps_collection_boxes", "addr:city": "COLUMBIA", "addr:country": "US", "addr:full": "8505 TWO NOTCH RD", "addr:postcode": "29223", "addr:state": "SC", "amenity": "post_box", "brand": "United States Postal Service", "brand:wikidata": "Q668687", "collection_times": "Mo-Fr 17:00; Sa 13:00", "name": "USPS COLLECTION BOX - PO LOBBY", "note": "ON 12/24 AND 12/31, THIS BOX MAY BE COLLECTED AS EARLY AS 12 NOON.", "nsi_id": "unitedstatespostalservice-a77078", "operator": "United States Postal Service", "operator:short": "USPS", "operator:type": "public", "operator:wikidata": "Q668687", "ref": "2922300069"}, "type": "Feature"}
{"dataset_attributes": {"@spider": "usps_collection_boxes"}, "geometry": {"coordinates": [-80.9047446699, 34.1412179058], "type": "Point"}, "id": "8hknR4tGuu3HHe8EkOfR4Zrugho=", "properties": {"@spider": "usps_collection_boxes", "addr:city": "COLUMBIA", "addr:country": "US", "addr:full": "1805 CLEMSON RD", "addr:postcode": "29229", "addr:state": "SC", "amenity": "post_box", "brand": "United States Postal Service", "brand:wikidata": "Q668687", "collection_times": "Mo-Fr 15:30; Sa 14:00", "name": "USPS COLLECTION BOX - BLUE BOX", "note": "ON 12/24 AND 12/31, THIS BOX MAY BE COLLECTED AS EARLY AS 12 NOON.", "nsi_id": "unitedstatespostalservice-a77078", "operator": "United States Postal Service", "operator:short": "USPS", "operator:type": "public", "operator:wikidata": "Q668687", "ref": "2922900000"}, "type": "Feature"}
{"dataset_attributes": {"@spider": "usps_collection_boxes"}, "geometry": {"coordinates": [-80.904045523, 34.141397803], "type": "Point"}, "id": "gYZOirGJ9fG9SExilzYnLGuCeXU=", "properties": {"@spider": "usps_collection_boxes", "addr:city": "COLUMBIA", "addr:country": "US", "addr:full": "1805 CLEMSON RD", "addr:postcode": "29229", "addr:state": "SC", "amenity": "post_box", "brand": "United States Postal Service", "brand:wikidata": "Q668687", "collection_times": "Mo-Fr 15:30; Sa 13:45", "name": "USPS COLLECTION BOX - PO LOBBY", "note": "ON 12/24 AND 12/31, THIS BOX MAY BE COLLECTED AS EARLY AS 12 NOON.", "nsi_id": "unitedstatespostalservice-a77078", "operator": "United States Postal Service", "operator:short": "USPS", "operator:type": "public", "operator:wikidata": "Q668687", "ref": "2922900003"}, "type": "Feature"}
{"dataset_attributes": {"@spider": "usps_collection_boxes"}, "geometry": {"coordinates": [-80.904045523, 34.141397803], "type": "Point"}, "id": "FUzIdKYV4bIu5wvxxk8FnJyTIAM=", "properties": {"@spider": "usps_collection_boxes", "addr:city": "COLUMBIA", "addr:country": "US", "addr:full": "1805 CLEMSON RD", "addr:postcode": "29229", "addr:state": "SC", "amenity": "post_box", "brand": "United States Postal Service", "brand:wikidata": "Q668687", "collection_times": "Mo-Fr 15:30; Sa 13:45", "name": "USPS COLLECTION BOX - PO LOBBY", "note": "ON 12/24 AND 12/31, THIS BOX MAY BE COLLECTED AS EARLY AS 12 NOON.", "nsi_id": "unitedstatespostalservice-a77078", "operator": "United States Postal Service", "operator:short": "USPS", "operator:type": "public", "operator:wikidata": "Q668687", "ref": "2922900004"}, "type": "Feature"}
{"dataset_attributes": {"@spider": "usps_collection_boxes"}, "geometry": {"coordinates": [-80.904045523, 34.141397803], "type": "Point"}, "id": "Uyg2w1n6IeYZYuyKkDH3rCZcyfE=", "properties": {"@spider": "usps_collection_boxes", "addr:city": "COLUMBIA", "addr:country": "US", "addr:full": "1805 CLEMSON RD", "addr:postcode": "29229", "addr:state": "SC", "amenity": "post_box", "brand": "United States Postal Service", "brand:wikidata": "Q668687", "collection_times": "Mo-Fr 15:30; Sa 13:45", "name": "USPS COLLECTION BOX - APC", "note": "ON 12/24 AND 12/31, THIS BOX MAY BE COLLECTED AS EARLY AS 12 NOON.", "nsi_id": "unitedstatespostalservice-a77078", "operator": "United States Postal Service", "operator:short": "USPS", "operator:type": "public", "operator:wikidata": "Q668687", "ref": "2922900005"}, "type": "Feature"}
{"dataset_attributes": {"@spider": "usps_collection_boxes"}, "geometry": {"coordinates": [-80.904045523, 34.141397803], "type": "Point"}, "id": "qVPhvfRdDCYyR5yPMKVsUlLfODM=", "properties": {"@spider": "usps_collection_boxes", "addr:city": "COLUMBIA", "addr:country": "US", "addr:full": "1805 CLEMSON RD", "addr:postcode": "29229", "addr:state": "SC", "amenity": "post_box", "brand": "United States Postal Service", "brand:wikidata": "Q668687", "collection_times": "Mo-Fr 17:00; Sa 14:00", "name": "USPS COLLECTION BOX - PO LOBBY", "note": "ON 12/24 AND 12/31, THIS BOX MAY BE COLLECTED AS EARLY AS 12 NOON.", "nsi_id": "unitedstatespostalservice-a77078", "operator": "United States Postal Service", "operator:short": "USPS", "operator:type": "public", "operator:wikidata": "Q668687", "ref": "2922900017"}, "type": "Feature"}
