{"geometry": {"coordinates": [-81.930078112, 34.945867374], "type": "Point"}, "id": "rTdM4kbh-0_UDT2GQQnVTNNuNhE=", "properties": {"@source_uri": "https://tools.usps.com/UspsToolsRestServices/rest/POLocator/findLocations", "@spider": "usps_collection_boxes", "addr:city": "SPARTANBURG", "addr:country": "US", "addr:postcode": "29301", "addr:state": "SC", "addr:street_address": "250 S CHURCH ST", "amenity": "post_box", "collection_times": "Mo-Fr 17:00; Sa 13:00", "indoor": "yes", "note": "ON 12/24 AND 12/31, THIS BOX MAY BE COLLECTED AS EARLY AS 12 NOON.", "nsi_id": "unitedstatespostalservice-a77078", "operator": "United States Postal Service", "operator:short": "USPS", "operator:type": "public", "operator:wikidata": "Q668687", "ref": "2930100051"}, "type": "Feature"}
{"geometry": {"coordinates": [-81.930078112, 34.945867374], "type": "Point"}, "id": "CH2uM60NBneTgsAV2kI-g9gEN5M=", "properties": {"@source_uri": "https://tools.usps.com/UspsToolsRestServices/rest/POLocator/findLocations", "@spider": "usps_collection_boxes", "addr:city": "SPARTANBURG", "addr:country": "US", "addr:postcode": "29301", "addr:state": "SC", "addr:street_address": "250 S CHURCH ST", "amenity": "post_box", "collection_times": "Mo-Fr 17:00; Sa 13:00", "indoor": "yes", "note": "ON 12/24 AND 12/31, THIS BOX MAY BE COLLECTED AS EARLY AS 12 NOON.", "nsi_id": "unitedstatespostalservice-a77078", "operator": "United States Postal Service", "operator:short": "USPS", "operator:type": "public", "operator:wikidata": "Q668687", "ref": "2930100052"}, "type": "Feature"}
{"geometry": {"coordinates": [-81.8859537282, 34.9186376979], "type": "Point"}, "id": "8SI-HQIlXXcZVN6HbLhYFB20rn8=", "properties": {"@source_uri": "https://tools.usps.com/UspsToolsRestServices/rest/POLocator/findLocations", "@spider": "usps_collection_boxes", "addr:city": "SPARTANBURG", "addr:country": "US", "addr:postcode": "29301", "addr:state": "SC", "addr:street_address": "230 CEDAR SPRINGS RD", "amenity": "post_box", "collection_times": "Mo-Sa 12:30", "note": "ON 12/24 AND 12/31, THIS BOX MAY BE COLLECTED AS EARLY AS 12 NOON.", "nsi_id": "unitedstatespostalservice-a77078", "operator": "United States Postal Service", "operator:short": "USPS", "operator:type": "public", "operator:wikidata": "Q668687", "ref": "2930100061"}, "type": "Feature"}
{"geometry": {"coordinates": [-81.87841311, 34.936364316], "type": "Point"}, "id": "-XvUzKZx6Y9-q_oIed1aBFh5v74=", "properties": {"@source_uri": "https://tools.usps.com/UspsToolsRestServices/rest/POLocator/findLocations", "@spider": "usps_collection_boxes", "addr:city": "SPARTANBURG", "addr:country": "US", "addr:postcode": "29301", "addr:state": "SC", "addr:street_address": "2445 COUNTRY CLUB RD", "amenity": "post_box", "collection_times": "Mo-Sa 12:30", "note": "ON 12/24 AND 12/31, THIS BOX MAY BE COLLECTED AS EARLY AS 12 NOON.", "nsi_id": "unitedstatespostalservice-a77078", "operator": "United States Postal Service", "operator:short": "USPS", "operator:type": "public", "operator:wikidata": "Q668687", "ref": "2930100064"}, "type": "Feature"}
{"geometry": {"coordinates": [-81.947145, 34.946385], "type": "Point"}, "id": "GvE0ZNy5kvSSAosTtl0NwooNRXs=", "properties": {"@source_uri": "https://tools.usps.com/UspsToolsRestServices/rest/POLocator/findLocations", "@spider": "usps_collection_boxes", "addr:city": "SPARTANBURG", "addr:country": "US", "addr:postcode": "29301", "addr:state": "SC", "addr:street_address": "627 OTIS BLVD", "amenity": "post_box", "collection_times": "Mo-Sa 12:00", "nsi_id": "unitedstatespostalservice-a77078", "operator": "United States Postal Service", "operator:short": "USPS", "operator:type": "public", "operator:wikidata": "Q668687", "ref": "2930100065"}, "type": "Feature"}
{"geometry": {"coordinates": [-81.894327131, 34.964128939], "type": "Point"}, "id": "yH09knmxJA1VA_5ZlZVcKDqi5Bg=", "properties": {"@source_uri": "https://tools.usps.com/UspsToolsRestServices/rest/POLocator/findLocations", "@spider": "usps_collection_boxes", "addr:city": "SPARTANBURG", "addr:country": "US", "addr:postcode": "29301", "addr:state": "SC", "addr:street_address": "147 FERNWOOD DR", "amenity": "post_box", "collection_times": "Mo-Fr 16:00; Sa 12:15", "note": "ON 12/24 AND 12/31, THIS BOX MAY BE COLLECTED AS EARLY AS 12 NOON.", "nsi_id": "unitedstatespostalservice-a77078", "operator": "United States Postal Service", "operator:short": "USPS", "operator:type": "public", "operator:wikidata": "Q668687", "ref": "2930100072"}, "type": "Feature"}
{"geometry": {"coordinates": [-81.947145, 34.946385], "type": "Point"}, "id": "h3mqQ5U91Vibv91oyinM7Rkti3c=", "properties": {"@source_uri": "https://tools.usps.com/UspsToolsRestServices/rest/POLocator/findLocations", "@spider": "usps_collection_boxes", "addr:city": "SPARTANBURG", "addr:country": "US", "addr:postcode": "29301", "addr:state": "SC", "addr:street_address": "1214 UNION ST", "amenity": "post_box", "collection_times": "Mo-Sa 12:15", "note": "ON 12/24 AND 12/31, THIS BOX MAY BE COLLECTED AS EARLY AS 12 NOON.", "nsi_id": "unitedstatespostalservice-a77078", "operator": "United States Postal Service", "operator:short": "USPS", "operator:type": "public", "operator:wikidata": "Q668687", "ref": "2930100076"}, "type": "Feature"}
{"geometry": {"coordinates": [-81.894113995, 34.977713879], "type": "Point"}, "id": "4ZpoKIjo_w95ud74JElUutbKNos=", "properties": {"@source_uri": "https://tools.usps.com/UspsToolsRestServices/rest/POLocator/findLocations", "@spider": "usps_collection_boxes", "addr:city": "SPARTANBURG", "addr:country": "US", "addr:postcode": "29301", "addr:state": "SC", "addr:street_address": "1700 SKYLYN DR", "amenity": "post_box", "collection_times": "Mo-Fr 12:30; Sa 11:00", "note": "ON 12/24 AND 12/31, THIS BOX MAY BE COLLECTED AS EARLY AS 12 NOON.", "nsi_id": "unitedstatespostalservice-a77078", "operator": "United States Postal Service", "operator:short": "USPS", "operator:type": "public", "operator:wikidata": "Q668687", "ref": "2930100077"}, "type": "Feature"}
{"geometry": {"coordinates": [-82.1175125989, 34.9227129611], "type": "Point"}, "id": "zetSvdLidf1J_6LvRZriYig2H3Y=", "properties": {"@source_uri": "https://tools.usps.com/UspsToolsRestServices/rest/POLocator/findLocations", "@spider": "usps_collection_boxes", "addr:city": "SPARTANBURG", "addr:country": "US", "addr:postcode": "29301", "addr:state": "SC", "addr:street_address": "945 E MAIN ST", "amenity": "post_box", "collection_times": "Mo-Fr 12:00; Sa 11:00", "nsi_id": "unitedstatespostalservice-a77078", "operator": "United States Postal Service", "operator:short": "USPS", "operator:type": "public", "operator:wikidata": "Q668687", "ref": "2930100083"}, "type": "Feature"}
{"geometry": {"coordinates": [-81.990988, 34.939118], "type": "Point"}, "id": "IbJbMGmuXIuvB2XUVtFvKjp5Zjc=", "properties": {"@source_uri": "https://tools.usps.com/UspsToolsRestServices/rest/POLocator/findLocations", "@spider": "usps_collection_boxes", "addr:city": "SPARTANBURG", "addr:country": "US", "addr:postcode": "29301", "addr:state": "SC", "addr:street_address": "410 DRAYTON AVE", "amenity": "post_box", "collection_times": "Mo-Sa 12:45", "note": "ON 12/24 AND 12/31, THIS BOX MAY BE COLLECTED AS EARLY AS 12 NOON.", "nsi_id": "unitedstatespostalservice-a77078", "operator": "United States Postal Service", "operator:short": "USPS", "operator:type": "public", "operator:wikidata": "Q668687", "ref": "2930100087"}, "type": "Feature"}
{"geometry": {"coordinates": [-81.953556727, 34.95385318], "type": "Point"}, "id": "rW_xPNpc6sgTeGADL_5UDS8JgZY=", "properties": {"@source_uri": "https://tools.usps.com/UspsToolsRestServices/rest/POLocator/findLocations", "@spider": "usps_collection_boxes", "addr:city": "SPARTANBURG", "addr:country": "US", "addr:postcode": "29301", "addr:state": "SC", "addr:street_address": "630 FARLEY AVE", "amenity": "post_box", "collection_times": "Mo-Sa 13:00", "note": "ON 12/24 AND 12/31, THIS BOX MAY BE COLLECTED AS EARLY AS 12 NOON.", "nsi_id": "unitedstatespostalservice-a77078", "operator": "United States Postal Service", "operator:short": "USPS", "operator:type": "public", "operator:wikidata": "Q668687", "ref": "2930100099"}, "type": "Feature"}
{"geometry": {"coordinates": [-81.947145, 34.946385], "type": "Point"}, "id": "RdlGvPwBLkCzQlJHfz5CklQZ0Sg=", "properties": {"@source_uri": "https://tools.usps.com/UspsToolsRestServices/rest/POLocator/findLocations", "@spider": "usps_collection_boxes", "addr:city": "SPARTANBURG", "addr:country": "US", "addr:postcode": "29301", "addr:state": "SC", "addr:street_address": "701 PLUME ST", "amenity": "post_box", "collection_times": "Mo-Sa 12:00", "nsi_id": "unitedstatespostalservice-a77078", "operator": "United States Postal Service", "operator:short": "USPS", "operator:type": "public", "operator:wikidata": "Q668687", "ref": "2930100105"}, "type": "Feature"}
{"geometry": {"coordinates": [-81.947145, 34.946385], "type": "Point"}, "id": "rDoH3nKwxQ6IDbfnUp0I_rM85gE=", "properties": {"@source_uri": "https://tools.usps.com/UspsToolsRestServices/rest/POLocator/findLocations", "@spider": "usps_collection_boxes", "addr:city": "SPARTANBURG", "addr:country": "US", "addr:postcode": "29301", "addr:state": "SC", "addr:street_address": "366 N CHURCH ST", "amenity": "post_box", "collection_times": "Mo-Sa 11:45", "nsi_id": "unitedstatespostalservice-a77078", "operator": "United States Postal Service", "operator:short": "USPS", "operator:type": "public", "operator:wikidata": "Q668687", "ref": "2930100113"}, "type": "Feature"}
{"geometry": {"coordinates": [-81.9610135584, 34.9766143775], "type": "Point"}, "id": "EgHT_Q19oegsgGRvVt6NRH9uAPM=", "properties": {"@source_uri": "https://tools.usps.com/UspsToolsRestServices/rest/POLocator/findLocations", "@spider": "usps_collection_boxes", "addr:city": "SPARTANBURG", "addr:country": "US", "addr:postcode": "29301", "addr:state": "SC", "addr:street_address": "1305 ASHEVILLE HWY", "amenity": "post_box", "collection_times": "Mo-Sa 12:00", "nsi_id": "unitedstatespostalservice-a77078", "operator": "United States Postal Service", "operator:short": "USPS", "operator:type": "public", "operator:wikidata": "Q668687", "ref": "2930100124"}, "type": "Feature"}
{"geometry": {"coordinates": [-81.979990513, 34.99184788], "type": "Point"}, "id": "AS2yUABDtxyfq74zC08BrZxiEtc=", "properties": {"@source_uri": "https://tools.usps.com/UspsToolsRestServices/rest/POLocator/findLocations", "@spider": "usps_collection_boxes", "addr:city": "SPARTANBURG", "addr:country": "US", "addr:postcode": "29301", "addr:state": "SC", "addr:street_address": "7312 VALLEY FALLS RD", "amenity": "post_box", "collection_times": "Mo-Fr 12:45; Sa 11:00", "note": "ON 12/24 AND 12/31, THIS BOX MAY BE COLLECTED AS EARLY AS 12 NOON.", "nsi_id": "unitedstatespostalservice-a77078", "operator": "United States Postal Service", "operator:short": "USPS", "operator:type": "public", "operator:wikidata": "Q668687", "ref": "2930100127"}, "type": "Feature"}
{"geometry": {"coordinates": [-81.986450863, 34.920829447], "type": "Point"}, "id": "zCoBU_D25OEI58pa7ClOzqTUpVU=", "properties": {"@source_uri": "https://tools.usps.com/UspsToolsRestServices/rest/POLocator/findLocations", "@spider": "usps_collection_boxes", "addr:city": "SPARTANBURG", "addr:country": "US", "addr:postcode": "29301", "addr:state": "SC", "addr:street_address": "300 E BLACKSTOCK RD", "amenity": "post_box", "collection_times": "Mo-Fr 16:45; Sa 13:15", "note": "ON 12/24 AND 12/31, THIS BOX MAY BE COLLECTED AS EARLY AS 12 NOON.", "nsi_id": "unitedstatespostalservice-a77078", "operator": "United States Postal Service", "operator:short": "USPS", "operator:type": "public", "operator:wikidata": "Q668687", "ref": "2930100130"}, "type": "Feature"}
{"geometry": {"coordinates": [-81.947145, 34.946385], "type": "Point"}, "id": "RmbmzK0xCmiK6KGn6dQhNM2ICOU=", "properties": {"@source_uri": "https://tools.usps.com/UspsToolsRestServices/rest/POLocator/findLocations", "@spider": "usps_collection_boxes", "addr:city": "SPARTANBURG", "addr:country": "US", "addr:postcode": "29301", "addr:state": "SC", "addr:street_address": "201 MAGNOLIA ST", "amenity": "post_box", "collection_times": "Mo-Sa 13:00", "note": "ON 12/24 AND 12/31, THIS BOX MAY BE COLLECTED AS EARLY AS 12 NOON.", "nsi_id": "unitedstatespostalservice-a77078", "operator": "United States Postal Service", "operator:short": "USPS", "operator:type": "public", "operator:wikidata": "Q668687", "ref": "2930100133"}, "type": "Feature"}
{"geometry": {"coordinates": [-81.917565034, 34.953769221], "type": "Point"}, "id": "prUYv7YamiDfA7SV6J0Uzb0gSVI=", "properties": {"@source_uri": "https://tools.usps.com/UspsToolsRestServices/rest/POLocator/findLocations", "@spider": "usps_collection_boxes", "addr:city": "SPARTANBURG", "addr:country": "US", "addr:postcode": "29301", "addr:state": "SC", "addr:street_address": "551 E MAIN ST", "amenity": "post_box", "collection_times": "Mo-Fr 11:45; Sa 10:00", "nsi_id": "unitedstatespostalservice-a77078", "operator": "United States Postal Service", "operator:short": "USPS", "operator:type": "public", "operator:wikidata": "Q668687", "ref": "2930100139"}, "type": "Feature"}
{"geometry": {"coordinates": [-81.947145, 34.946385], "type": "Point"}, "id": "OOZZQBmHwshEJQ3NCM1JbkqUtxY=", "properties": {"@source_uri": "https://tools.usps.com/UspsToolsRestServices/rest/POLocator/findLocations", "@spider": "usps_collection_boxes", "addr:city": "SPARTANBURG", "addr:country": "US", "addr:postcode": "29301", "addr:state": "SC", "addr:street_address": "1855 E MAIN ST", "amenity": "post_box", "collection_times": "Mo-Fr 12:30; Sa 12:15", "note": "ON 12/24 AND 12/31, THIS BOX MAY BE COLLECTED AS EARLY AS 12 NOON.", "nsi_id": "unitedstatespostalservice-a77078", "operator": "United States Postal Service", "operator:short": "USPS", "operator:type": "public", "operator:wikidata": "Q668687", "ref": "2930100142"}, "type": "Feature"}
{"geometry": {"coordinates": [-81.9403785, 34.9678805115], "type": "Point"}, "id": "BWT4Az7JQ9207Mp4qo2jryiXYWU=", "properties": {"@source_uri": "https://tools.usps.com/UspsToolsRestServices/rest/POLocator/findLocations", "@spider": "usps_collection_boxes", "addr:city": "SPARTANBURG", "addr:country": "US", "addr:postcode": "29301", "addr:state": "SC", "addr:street_address": "100 E WOOD ST", "amenity": "post_box", "collection_times": "Mo-Fr 12:30; Sa 09:00", "note": "ON 12/24 AND 12/31, THIS BOX MAY BE COLLECTED AS EARLY AS 12 NOON.", "nsi_id": "unitedstatespostalservice-a77078", "operator": "United States Postal Service", "operator:short": "USPS", "operator:type": "public", "operator:wikidata": "Q668687", "ref": "2930100145"}, "type": "Feature"}
{"geometry": {"coordinates": [-81.961483574, 34.950064394], "type": "Point"}, "id": "IXddLED6K10m4PuFdCCWCWfPxkk=", "properties": {"@source_uri": "https://tools.usps.com/UspsToolsRestServices/rest/POLocator/findLocations", "@spider": "usps_collection_boxes", "addr:city": "SPARTANBURG", "addr:country": "US", "addr:postcode": "29301", "addr:state": "SC", "addr:street_address": "1200 TEXTILE RD", "amenity": "post_box", "collection_times": "Mo-Sa 13:30", "note": "ON 12/24 AND 12/31, THIS BOX MAY BE COLLECTED AS EARLY AS 12 NOON.", "nsi_id": "unitedstatespostalservice-a77078", "operator": "United States Postal Service", "operator:short": "USPS", "operator:type": "public", "operator:wikidata": "Q668687", "ref": "2930100148"}, "type": "Feature"}
{"geometry": {"coordinates": [-81.916842034, 34.948908346], "type": "Point"}, "id": "eTlQQFYILW77BHgbTBORNN3s0F0=", "properties": {"@source_uri": "https://tools.usps.com/UspsToolsRestServices/rest/POLocator/findLocations", "@spider": "usps_collection_boxes", "addr:city": "SPARTANBURG", "addr:country": "US", "addr:postcode": "29301", "addr:state": "SC", "addr:street_address": "266 S PINE ST", "amenity": "post_box", "collection_times": "Mo-Sa 11:30", "nsi_id": "unitedstatespostalservice-a77078", "operator": "United States Postal Service", "operator:short": "USPS", "operator:type": "public", "operator:wikidata": "Q668687", "ref": "2930100160"}, "type": "Feature"}
{"geometry": {"coordinates": [-81.9339272166, 34.9509129414], "type": "Point"}, "id": "lNN8LZMVIbxptxWbhb0OWDmbEGI=", "properties": {"@source_uri": "https://tools.usps.com/UspsToolsRestServices/rest/POLocator/findLocations", "@spider": "usps_collection_boxes", "addr:city": "SPARTANBURG", "addr:country": "US", "addr:postcode": "29301", "addr:state": "SC", "addr:street_address": "155 MAGNOLIA ST", "amenity": "post_box", "collection_times": "Mo-Fr 13:00; Sa 12:00", "note": "ON 12/24 AND 12/31, THIS BOX MAY BE COLLECTED AS EARLY AS 12 NOON.", "nsi_id": "unitedstatespostalservice-a77078", "operator": "United States Postal Service", "operator:short": "USPS", "operator:type": "public", "operator:wikidata": "Q668687", "ref": "2930100163"}, "type": "Feature"}
{"geometry": {"coordinates": [-81.947145, 34.946385], "type": "Point"}, "id": "zJXGcFMz2-as38PeOC91dtT9x98=", "properties": {"@source_uri": "https://tools.usps.com/UspsToolsRestServices/rest/POLocator/findLocations", "@spider": "usps_collection_boxes", "addr:city": "SPARTANBURG", "addr:country": "US", "addr:postcode": "29301", "addr:state": "SC", "addr:street_address": "3720 BOILING SPRINGS RD", "amenity": "post_box", "collection_times": "Mo-Sa 12:45", "note": "ON 12/24 AND 12/31, THIS BOX MAY BE COLLECTED AS EARLY AS 12 NOON.", "nsi_id": "unitedstatespostalservice-a77078", "operator": "United States Postal Service", "operator:short": "USPS", "operator:type": "public", "operator:wikidata": "Q668687", "ref": "2930100165"}, "type": "Feature"}
{"geometry": {"coordinates": [-81.990988, 34.939118], "type": "Point"}, "id": "VM94YFzbYvfqZjD8nug531CZhuw=", "properties": {"@source_uri": "https://tools.usps.com/UspsToolsRestServices/rest/POLocator/findLocations", "@spider": "usps_collection_boxes", "addr:city": "SPARTANBURG", "addr:country": "US", "addr:postcode": "29301", "addr:state": "SC", "addr:street_address": "105 N PINE ST", "amenity": "post_box", "collection_times": "Mo-Sa 12:45", "note": "ON 12/24 AND 12/31, THIS BOX MAY BE COLLECTED AS EARLY AS 12 NOON.", "nsi_id": "unitedstatespostalservice-a77078", "operator": "United States Postal Service", "operator:short": "USPS", "operator:type": "public", "operator:wikidata": "Q668687", "ref": "2930100169"}, "type": "Feature"}
{"geometry": {"coordinates": [-81.930276927, 34.949878144], "type": "Point"}, "id": "H_hZtA56OiwFX1zSgSnPovJzYR0=", "properties": {"@source_uri": "https://tools.usps.com/UspsToolsRestServices/rest/POLocator/findLocations", "@spider": "usps_collection_boxes", "addr:city": "SPARTANBURG", "addr:country": "US", "addr:postcode": "29301", "addr:state": "SC", "addr:street_address": "142 E MAIN ST", "amenity": "post_box", "collection_times": "Mo-Sa 12:45", "note": "ON 12/24 AND 12/31, THIS BOX MAY BE COLLECTED AS EARLY AS 12 NOON.", "nsi_id": "unitedstatespostalservice-a77078", "operator": "United States Postal Service", "operator:short": "USPS", "operator:type": "public", "operator:wikidata": "Q668687", "ref": "2930100173"}, "type": "Feature"}
{"geometry": {"coordinates": [-81.947145, 34.946385], "type": "Point"}, "id": "5h11HB5YM-XuKLgiPYnhDfFW_lQ=", "properties": {"@source_uri": "https://tools.usps.com/UspsToolsRestServices/rest/POLocator/findLocations", "@spider": "usps_collection_boxes", "addr:city": "SPARTANBURG", "addr:country": "US", "addr:postcode": "29301", "addr:state": "SC", "addr:street_address": "818 E MAIN ST", "amenity": "post_box", "collection_times": "Mo-Sa 12:30", "note": "ON 12/24 AND 12/31, THIS BOX MAY BE COLLECTED AS EARLY AS 12 NOON.", "nsi_id": "unitedstatespostalservice-a77078", "operator": "United States Postal Service", "operator:short": "USPS", "operator:type": "public", "operator:wikidata": "Q668687", "ref": "2930100202"}, "type": "Feature"}
{"geometry": {"coordinates": [-81.947145, 34.946385], "type": "Point"}, "id": "kRpAEouBsm-5rWCxtjjn0YUfiBs=", "properties": {"@source_uri": "https://tools.usps.com/UspsToolsRestServices/rest/POLocator/findLocations", "@spider": "usps_collection_boxes", "addr:city": "SPARTANBURG", "addr:country": "US", "addr:postcode": "29301", "addr:state": "SC", "addr:street_address": "250 S CHURCH ST", "amenity": "post_box", "collection_times": "Mo-Fr 17:00; Sa 13:00", "note": "ON 12/24 AND 12/31, THIS BOX MAY BE COLLECTED AS EARLY AS 12 NOON.", "nsi_id": "unitedstatespostalservice-a77078", "operator": "United States Postal Service", "operator:short": "USPS", "operator:type": "public", "operator:wikidata": "Q668687", "ref": "2930100209"}, "type": "Feature"}
{"geometry": {"coordinates": [-81.870765329, 34.97261713], "type": "Point"}, "id": "Luytn4z2cU1l4RZB9LErjI5doMw=", "properties": {"@source_uri": "https://tools.usps.com/UspsToolsRestServices/rest/POLocator/findLocations", "@spider": "usps_collection_boxes", "addr:city": "SPARTANBURG", "addr:country": "US", "addr:postcode": "29301", "addr:state": "SC", "addr:street_address": "400 WEBBER RD", "amenity": "post_box", "collection_times": "Mo-Sa 12:15", "note": "ON 12/24 AND 12/31, THIS BOX MAY BE COLLECTED AS EARLY AS 12 NOON.", "nsi_id": "unitedstatespostalservice-a77078", "operator": "United States Postal Service", "operator:short": "USPS", "operator:type": "public", "operator:wikidata": "Q668687", "ref": "2930100222"}, "type": "Feature"}
{"geometry": {"coordinates": [-81.9954103431, 34.9464066159], "type": "Point"}, "id": "ZDC212-CPKnK8IGyS9Fs6WBTNQI=", "properties": {"@source_uri": "https://tools.usps.com/UspsToolsRestServices/rest/POLocator/findLocations", "@spider": "usps_collection_boxes", "addr:city": "SPARTANBURG", "addr:country": "US", "addr:postcode": "29301", "addr:state": "SC", "addr:street_address": "520 W BLACKSTOCK RD", "amenity": "post_box", "collection_times": "Mo-Fr 17:00; Sa 13:15", "indoor": "yes", "note": "ON 12/24 AND 12/31, THIS BOX MAY BE COLLECTED AS EARLY AS 12 NOON.", "nsi_id": "unitedstatespostalservice-a77078", "operator": "United States Postal Service", "operator:short": "USPS", "operator:type": "public", "operator:wikidata": "Q668687", "ref": "2930100225"}, "type": "Feature"}
{"geometry": {"coordinates": [-81.995410343, 34.946406616], "type": "Point"}, "id": "D3BM0vBm9caGPnNjBEu8yg-jCZ8=", "properties": {"@source_uri": "https://tools.usps.com/UspsToolsRestServices/rest/POLocator/findLocations", "@spider": "usps_collection_boxes", "addr:city": "SPARTANBURG", "addr:country": "US", "addr:postcode": "29301", "addr:state": "SC", "addr:street_address": "520 W BLACKSTOCK RD", "amenity": "post_box", "collection_times": "Mo-Fr 17:00; Sa 13:15", "indoor": "yes", "note": "ON 12/24 AND 12/31, THIS BOX MAY BE COLLECTED AS EARLY AS 12 NOON.", "nsi_id": "unitedstatespostalservice-a77078", "operator": "United States Postal Service", "operator:short": "USPS", "operator:type": "public", "operator:wikidata": "Q668687", "ref": "2930100226"}, "type": "Feature"}
{"geometry": {"coordinates": [-81.930078112, 34.945867374], "type": "Point"}, "id": "CwMo_0p7snRGIe-SvG2R3Aqmj9o=", "properties": {"@source_uri": "https://tools.usps.com/UspsToolsRestServices/rest/POLocator/findLocations", "@spider": "usps_collection_boxes", "addr:city": "SPARTANBURG", "addr:country": "US", "addr:postcode": "29301", "addr:state": "SC", "addr:street_address": "250 S CHURCH ST", "amenity": "post_box", "collection_times": "Mo-Fr 17:00; Sa 13:00", "indoor": "yes", "note": "ON 12/24 AND 12/31, THIS BOX MAY BE COLLECTED AS EARLY AS 12 NOON.", "nsi_id": "unitedstatespostalservice-a77078", "operator": "United States Postal Service", "operator:short": "USPS", "operator:type": "public", "operator:wikidata": "Q668687", "ref": "2930100245"}, "type": "Feature"}
{"geometry": {"coordinates": [-81.93093598, 34.945623979], "type": "Point"}, "id": "aJzq4i5wF2D9h_Mt5_iMVFGTGoQ=", "properties": {"@source_uri": "https://tools.usps.com/UspsToolsRestServices/rest/POLocator/findLocations", "@spider": "usps_collection_boxes", "addr:city": "SPARTANBURG", "addr:country": "US", "addr:postcode": "29301", "addr:state": "SC", "addr:street_address": "250 S CHURCH ST", "amenity": "post_box", "collection_times": "Mo-Fr 12:00", "indoor": "yes", "nsi_id": "unitedstatespostalservice-a77078", "operator": "United States Postal Service", "operator:short": "USPS", "operator:type": "public", "operator:wikidata": "Q668687", "ref": "2930100257"}, "type": "Feature"}
{"geometry": {"coordinates": [-81.9954103431, 34.9464066159], "type": "Point"}, "id": "vRLG5a2YvJIuXw8MCpiHWqWCxj0=", "properties": {"@source_uri": "https://tools.usps.com/UspsToolsRestServices/rest/POLocator/findLocations", "@spider": "usps_collection_boxes", "addr:city": "SPARTANBURG", "addr:country": "US", "addr:postcode": "29301", "addr:state": "SC", "addr:street_address": "520 W BLACKSTOCK RD", "amenity": "post_box", "collection_times": "Mo-Fr 17:00", "indoor": "yes", "note": "ON 12/24 AND 12/31, THIS BOX MAY BE COLLECTED AS EARLY AS 12 NOON.", "nsi_id": "unitedstatespostalservice-a77078", "operator": "United States Postal Service", "operator:short": "USPS", "operator:type": "public", "operator:wikidata": "Q668687", "ref": "2930100258"}, "type": "Feature"}
{"geometry": {"coordinates": [-81.9637229675, 35.0194229907], "type": "Point"}, "id": "TjPMZZ3R_25TzZHTsEsuZpAWkgE=", "properties": {"@source_uri": "https://tools.usps.com/UspsToolsRestServices/rest/POLocator/findLocations", "@spider": "usps_collection_boxes", "addr:city": "BOILING SPRINGS", "addr:country": "US", "addr:postcode": "29316", "addr:state": "SC", "addr:street_address": "1943 BOILING SPRINGS RD", "amenity": "post_box", "collection_times": "Mo-Fr 17:00; Sa 13:00", "note": "ON 12/24 AND 12/31, THIS BOX MAY BE COLLECTED AS EARLY AS 12 NOON.", "nsi_id": "unitedstatespostalservice-a77078", "operator": "United States Postal Service", "operator:short": "USPS", "operator:type": "public", "operator:wikidata": "Q668687", "ref": "2931600000"}, "type": "Feature"}
{"geometry": {"coordinates": [-81.962420495, 35.01885226], "type": "Point"}, "id": "sFAqCHnRPs6Y8l6btajJ2nbeNZ8=", "properties": {"@source_uri": "https://tools.usps.com/UspsToolsRestServices/rest/POLocator/findLocations", "@spider": "usps_collection_boxes", "addr:city": "BOILING SPRINGS", "addr:country": "US", "addr:postcode": "29316", "addr:state": "SC", "addr:street_address": "1943 BOILING SPRINGS RD", "amenity": "post_box", "collection_times": "Mo-Fr 17:00", "indoor": "yes", "note": "ON 12/24 AND 12/31, THIS BOX MAY BE COLLECTED AS EARLY AS 12 NOON.", "nsi_id": "unitedstatespostalservice-a77078", "operator": "United States Postal Service", "operator:short": "USPS", "operator:type": "public", "operator:wikidata": "Q668687", "ref": "2931600006"}, "type": "Feature"}
{"geometry": {"coordinates": [-81.994648259, 34.956899802], "type": "Point"}, "id": "kHlb52ruuFfrBfWTHfLtOxqaTto=", "properties": {"@source_uri": "https://tools.usps.com/UspsToolsRestServices/rest/POLocator/findLocations", "@spider": "usps_collection_boxes", "addr:city": "ARCADIA", "addr:country": "US", "addr:postcode": "29320", "addr:state": "SC", "addr:street_address": "1893 HAYNE ST", "amenity": "post_box", "collection_times": "Mo-Fr 15:45; Sa 09:45", "indoor": "yes", "note": "ON 12/24 AND 12/31, THIS BOX MAY BE COLLECTED AS EARLY AS 12 NOON.", "nsi_id": "unitedstatespostalservice-a77078", "operator": "United States Postal Service", "operator:short": "USPS", "operator:type": "public", "operator:wikidata": "Q668687", "ref": "2932000001"}, "type": "Feature"}
{"geometry": {"coordinates": [-81.994648259, 34.956899802], "type": "Point"}, "id": "ds4rBdwc_80uAjPM2zl_zrE8694=", "properties": {"@source_uri": "https://tools.usps.com/UspsToolsRestServices/rest/POLocator/findLocations", "@spider": "usps_collection_boxes", "addr:city": "ARCADIA", "addr:country": "US", "addr:postcode": "29320", "addr:state": "SC", "addr:street_address": "1893 HAYNE ST", "amenity": "post_box", "collection_times": "Mo-Fr 15:45; Sa 09:45", "indoor": "yes", "note": "ON 12/24 AND 12/31, THIS BOX MAY BE COLLECTED AS EARLY AS 12 NOON.", "nsi_id": "unitedstatespostalservice-a77078", "operator": "United States Postal Service", "operator:short": "USPS", "operator:type": "public", "operator:wikidata": "Q668687", "ref": "2932000003"}, "type": "Feature"}
{"geometry": {"coordinates": [-81.662676623, 34.723138206], "type": "Point"}, "id": "YX_Fq21DVYtVN2GOYNPKpOkN15w=", "properties": {"@source_uri": "https://tools.usps.com/UspsToolsRestServices/rest/POLocator/findLocations", "@spider": "usps_collection_boxes", "addr:city": "BUFFALO", "addr:country": "US", "addr:postcode": "29321", "addr:state": "SC", "addr:street_address": "857 MAIN ST", "amenity": "post_box", "collection_times": "Mo-Fr 15:45; Sa 09:45", "note": "ON 12/24 AND 12/31, THIS BOX MAY BE COLLECTED AS EARLY AS 12 NOON.", "nsi_id": "unitedstatespostalservice-a77078", "operator": "United States Postal Service", "operator:short": "USPS", "operator:type": "public", "operator:wikidata": "Q668687", "ref": "2932100000"}, "type": "Feature"}
{"geometry": {"coordinates": [-81.662676623, 34.723138206], "type": "Point"}, "id": "OrG-L-43GYgdrYOefUv5ynLUPJI=", "properties": {"@source_uri": "https://tools.usps.com/UspsToolsRestServices/rest/POLocator/findLocations", "@spider": "usps_collection_boxes", "addr:city": "BUFFALO", "addr:country": "US", "addr:postcode": "29321", "addr:state": "SC", "addr:street_address": "857 MAIN ST", "amenity": "post_box", "collection_times": "Mo-Fr 15:45; Sa 09:45", "indoor": "yes", "note": "ON 12/24 AND 12/31, THIS BOX MAY BE COLLECTED AS EARLY AS 12 NOON.", "nsi_id": "unitedstatespostalservice-a77078", "operator": "United States Postal Service", "operator:short": "USPS", "operator:type": "public", "operator:wikidata": "Q668687", "ref": "2932100001"}, "type": "Feature"}
{"geometry": {"coordinates": [-81.662676623, 34.723138206], "type": "Point"}, "id": "bMEJ3tzLGrOEK4DFBuYstSdlVlk=", "properties": {"@source_uri": "https://tools.usps.com/UspsToolsRestServices/rest/POLocator/findLocations", "@spider": "usps_collection_boxes", "addr:city": "BUFFALO", "addr:country": "US", "addr:postcode": "29321", "addr:state": "SC", "addr:street_address": "857 MAIN ST", "amenity": "post_box", "collection_times": "Mo-Fr 15:45; Sa 09:45", "indoor": "yes", "note": "ON 12/24 AND 12/31, THIS BOX MAY BE COLLECTED AS EARLY AS 12 NOON.", "nsi_id": "unitedstatespostalservice-a77078", "operator": "United States Postal Service", "operator:short": "USPS", "operator:type": "public", "operator:wikidata": "Q668687", "ref": "2932100002"}, "type": "Feature"}
{"geometry": {"coordinates": [-81.662676623, 34.723138206], "type": "Point"}, "id": "q-UQxd6XEF4uO8wF41ZrGLpshAY=", "properties": {"@source_uri": "https://tools.usps.com/UspsToolsRestServices/rest/POLocator/findLocations", "@spider": "usps_collection_boxes", "addr:city": "BUFFALO", "addr:country": "US", "addr:postcode": "29321", "addr:state": "SC", "addr:street_address": "857 MAIN ST", "amenity": "post_box", "collection_times": "Mo-Fr 15:45; Sa 09:45", "indoor": "yes", "note": "ON 12/24 AND 12/31, THIS BOX MAY BE COLLECTED AS EARLY AS 12 NOON.", "nsi_id": "unitedstatespostalservice-a77078", "operator": "United States Postal Service", "operator:short": "USPS", "operator:type": "public", "operator:wikidata": "Q668687", "ref": "2932100004"}, "type": "Feature"}
{"geometry": {"coordinates": [-82.150013439, 35.115048621], "type": "Point"}, "id": "5QqpHge47ov691tnJVXr5U8X4Zo=", "properties": {"@source_uri": "https://tools.usps.com/UspsToolsRestServices/rest/POLocator/findLocations", "@spider": "usps_collection_boxes", "addr:city": "CAMPOBELLO", "addr:country": "US", "addr:postcode": "29322", "addr:state": "SC", "addr:street_address": "30 S MAIN ST", "amenity": "post_box", "collection_times": "Mo-Fr 15:45; Sa 09:45", "note": "ON 12/24 AND 12/31, THIS BOX MAY BE COLLECTED AS EARLY AS 12 NOON.", "nsi_id": "unitedstatespostalservice-a77078", "operator": "United States Postal Service", "operator:short": "USPS", "operator:type": "public", "operator:wikidata": "Q668687", "ref": "2932200000"}, "type": "Feature"}
{"geometry": {"coordinates": [-82.150013439, 35.115048621], "type": "Point"}, "id": "C6hTvNW5xx-l-pbhaiDd47ALM9w=", "properties": {"@source_uri": "https://tools.usps.com/UspsToolsRestServices/rest/POLocator/findLocations", "@spider": "usps_collection_boxes", "addr:city": "CAMPOBELLO", "addr:country": "US", "addr:postcode": "29322", "addr:state": "SC", "addr:street_address": "30 S MAIN ST", "amenity": "post_box", "collection_times": "Mo-Fr 15:45; Sa 09:45", "indoor": "yes", "note": "ON 12/24 AND 12/31, THIS BOX MAY BE COLLECTED AS EARLY AS 12 NOON.", "nsi_id": "unitedstatespostalservice-a77078", "operator": "United States Postal Service", "operator:short": "USPS", "operator:type": "public", "operator:wikidata": "Q668687", "ref": "2932200001"}, "type": "Feature"}
{"geometry": {"coordinates": [-82.1503600395, 35.114739982], "type": "Point"}, "id": "2neeZCjeLfZNHCOSyUVSQQqq9EA=", "properties": {"@source_uri": "https://tools.usps.com/UspsToolsRestServices/rest/POLocator/findLocations", "@spider": "usps_collection_boxes", "addr:city": "CAMPOBELLO", "addr:country": "US", "addr:postcode": "29322", "addr:state": "SC", "addr:street_address": "30 S MAIN ST", "amenity": "post_box", "collection_times": "Mo-Fr 15:45; Sa 09:45", "indoor": "yes", "note": "ON 12/24 AND 12/31, THIS BOX MAY BE COLLECTED AS EARLY AS 12 NOON.", "nsi_id": "unitedstatespostalservice-a77078", "operator": "United States Postal Service", "operator:short": "USPS", "operator:type": "public", "operator:wikidata": "Q668687", "ref": "2932200004"}, "type": "Feature"}
{"geometry": {"coordinates": [-82.150013439, 35.115048621], "type": "Point"}, "id": "Yl8UlNx8zCwMXSEQBoBGDV9SYhk=", "properties": {"@source_uri": "https://tools.usps.com/UspsToolsRestServices/rest/POLocator/findLocations", "@spider": "usps_collection_boxes", "addr:city": "CAMPOBELLO", "addr:country": "US", "addr:postcode": "29322", "addr:state": "SC", "addr:street_address": "30 S MAIN ST", "amenity": "post_box", "collection_times": "Mo-Fr 15:45; Sa 09:45", "indoor": "yes", "note": "ON 12/24 AND 12/31, THIS BOX MAY BE COLLECTED AS EARLY AS 12 NOON.", "nsi_id": "unitedstatespostalservice-a77078", "operator": "United States Postal Service", "operator:short": "USPS", "operator:type": "public", "operator:wikidata": "Q668687", "ref": "2932200005"}, "type": "Feature"}
{"geometry": {"coordinates": [-81.85968261, 35.147314464], "type": "Point"}, "id": "YLZxdfnHH4bOF921CsTX2E7L0_I=", "properties": {"@source_uri": "https://tools.usps.com/UspsToolsRestServices/rest/POLocator/findLocations", "@spider": "usps_collection_boxes", "addr:city": "CHESNEE", "addr:country": "US", "addr:postcode": "29323", "addr:state": "SC", "addr:street_address": "103 E CHESTER ST", "amenity": "post_box", "collection_times": "Mo-Fr 16:00; Sa 10:30", "note": "ON 12/24 AND 12/31, THIS BOX MAY BE COLLECTED AS EARLY AS 12 NOON.", "nsi_id": "unitedstatespostalservice-a77078", "operator": "United States Postal Service", "operator:short": "USPS", "operator:type": "public", "operator:wikidata": "Q668687", "ref": "2932300000"}, "type": "Feature"}
{"geometry": {"coordinates": [-81.86158, 35.14456], "type": "Point"}, "id": "nRYJbukpv1GT20KR_2DZ7QhD1vE=", "properties": {"@source_uri": "https://tools.usps.com/UspsToolsRestServices/rest/POLocator/findLocations", "@spider": "usps_collection_boxes", "addr:city": "CHESNEE", "addr:country": "US", "addr:postcode": "29323", "addr:state": "SC", "addr:street_address": "103 E CHESTER ST", "amenity": "post_box", "collection_times": "Mo-Fr 16:00; Sa 10:30", "indoor": "yes", "note": "ON 12/24 AND 12/31, THIS BOX MAY BE COLLECTED AS EARLY AS 12 NOON.", "nsi_id": "unitedstatespostalservice-a77078", "operator": "United States Postal Service", "operator:short": "USPS", "operator:type": "public", "operator:wikidata": "Q668687", "ref": "2932300001"}, "type": "Feature"}
{"geometry": {"coordinates": [-81.86158, 35.14456], "type": "Point"}, "id": "WCkxNbjVA6EzcNZmFVDTEbunjbY=", "properties": {"@source_uri": "https://tools.usps.com/UspsToolsRestServices/rest/POLocator/findLocations", "@spider": "usps_collection_boxes", "addr:city": "CHESNEE", "addr:country": "US", "addr:postcode": "29323", "addr:state": "SC", "addr:street_address": "103 E CHESTER ST", "amenity": "post_box", "collection_times": "Mo-Fr 16:00; Sa 10:30", "indoor": "yes", "note": "ON 12/24 AND 12/31, THIS BOX MAY BE COLLECTED AS EARLY AS 12 NOON.", "nsi_id": "unitedstatespostalservice-a77078", "operator": "United States Postal Service", "operator:short": "USPS", "operator:type": "public", "operator:wikidata": "Q668687", "ref": "2932300006"}, "type": "Feature"}
{"geometry": {"coordinates": [-81.86158, 35.14456], "type": "Point"}, "id": "8oKstzE-eELJYuZZiT9wZSfldoc=", "properties": {"@source_uri": "https://tools.usps.com/UspsToolsRestServices/rest/POLocator/findLocations", "@spider": "usps_collection_boxes", "addr:city": "CHESNEE", "addr:country": "US", "addr:postcode": "29323", "addr:state": "SC", "addr:street_address": "103 E CHESTER ST", "amenity": "post_box", "collection_times": "Mo-Fr 15:45; Sa 09:45", "indoor": "yes", "note": "ON 12/24 AND 12/31, THIS BOX MAY BE COLLECTED AS EARLY AS 12 NOON.", "nsi_id": "unitedstatespostalservice-a77078", "operator": "United States Postal Service", "operator:short": "USPS", "operator:type": "public", "operator:wikidata": "Q668687", "ref": "2932300009"}, "type": "Feature"}
{"geometry": {"coordinates": [-81.823730447, 34.984452009], "type": "Point"}, "id": "eDzTApckUbvba3tKK12QrVzOaPo=", "properties": {"@source_uri": "https://tools.usps.com/UspsToolsRestServices/rest/POLocator/findLocations", "@spider": "usps_collection_boxes", "addr:city": "CLIFTON", "addr:country": "US", "addr:postcode": "29324", "addr:state": "SC", "addr:street_address": "1017 COWPENS CLIFTON RD", "amenity": "post_box", "collection_times": "Mo-Fr 15:45; Sa 09:45", "note": "ON 12/24 AND 12/31, THIS BOX MAY BE COLLECTED AS EARLY AS 12 NOON.", "nsi_id": "unitedstatespostalservice-a77078", "operator": "United States Postal Service", "operator:short": "USPS", "operator:type": "public", "operator:wikidata": "Q668687", "ref": "2932400000"}, "type": "Feature"}
{"geometry": {"coordinates": [-81.823730447, 34.984452009], "type": "Point"}, "id": "jTS7jgYkOhEz69D5CkDkU_HO8QM=", "properties": {"@source_uri": "https://tools.usps.com/UspsToolsRestServices/rest/POLocator/findLocations", "@spider": "usps_collection_boxes", "addr:city": "CLIFTON", "addr:country": "US", "addr:postcode": "29324", "addr:state": "SC", "addr:street_address": "1017 COWPENS CLIFTON RD", "amenity": "post_box", "collection_times": "Mo-Fr 15:45; Sa 09:45", "indoor": "yes", "note": "ON 12/24 AND 12/31, THIS BOX MAY BE COLLECTED AS EARLY AS 12 NOON.", "nsi_id": "unitedstatespostalservice-a77078", "operator": "United States Postal Service", "operator:short": "USPS", "operator:type": "public", "operator:wikidata": "Q668687", "ref": "2932400001"}, "type": "Feature"}
{"geometry": {"coordinates": [-81.823730447, 34.984452009], "type": "Point"}, "id": "ROcNNkixxFTQZgTRRM9GUcgLw2Q=", "properties": {"@source_uri": "https://tools.usps.com/UspsToolsRestServices/rest/POLocator/findLocations", "@spider": "usps_collection_boxes", "addr:city": "CLIFTON", "addr:country": "US", "addr:postcode": "29324", "addr:state": "SC", "addr:street_address": "1017 COWPENS CLIFTON RD", "amenity": "post_box", "collection_times": "Mo-Fr 15:45; Sa 09:45", "indoor": "yes", "note": "ON 12/24 AND 12/31, THIS BOX MAY BE COLLECTED AS EARLY AS 12 NOON.", "nsi_id": "unitedstatespostalservice-a77078", "operator": "United States Postal Service", "operator:short": "USPS", "operator:type": "public", "operator:wikidata": "Q668687", "ref": "2932400003"}, "type": "Feature"}
{"geometry": {"coordinates": [-81.878724, 34.465906], "type": "Point"}, "id": "bgbusx3bh8R1x_F8X1QFMv_Ht7E=", "properties": {"@source_uri": "https://tools.usps.com/UspsToolsRestServices/rest/POLocator/findLocations", "@spider": "usps_collection_boxes", "addr:city": "CLINTON", "addr:country": "US", "addr:postcode": "29325", "addr:state": "SC", "addr:street_address": "503 S BROAD ST", "amenity": "post_box", "collection_times": "Mo-Sa 13:15", "note": "ON 12/24 AND 12/31, THIS BOX MAY BE COLLECTED AS EARLY AS 12 NOON.", "nsi_id": "unitedstatespostalservice-a77078", "operator": "United States Postal Service", "operator:short": "USPS", "operator:type": "public", "operator:wikidata": "Q668687", "ref": "2932500008"}, "type": "Feature"}
{"geometry": {"coordinates": [-81.9410399, 34.481258], "type": "Point"}, "id": "F9UIKBHAbNn8iMx-zaQtkl73bAw=", "properties": {"@source_uri": "https://tools.usps.com/UspsToolsRestServices/rest/POLocator/findLocations", "@spider": "usps_collection_boxes", "addr:city": "CLINTON", "addr:country": "US", "addr:postcode": "29325", "addr:state": "SC", "addr:street_address": "22725 HIGHWAY 76 E", "amenity": "post_box", "collection_times": "Mo-Sa 10:30", "nsi_id": "unitedstatespostalservice-a77078", "operator": "United States Postal Service", "operator:short": "USPS", "operator:type": "public", "operator:wikidata": "Q668687", "ref": "2932500022"}, "type": "Feature"}
{"geometry": {"coordinates": [-81.88268271, 34.475227994], "type": "Point"}, "id": "aWKo12vdqODKGmRSDswdoFBVMfs=", "properties": {"@source_uri": "https://tools.usps.com/UspsToolsRestServices/rest/POLocator/findLocations", "@spider": "usps_collection_boxes", "addr:city": "CLINTON", "addr:country": "US", "addr:postcode": "29325", "addr:state": "SC", "addr:street_address": "202 ELIZABETH ST", "amenity": "post_box", "collection_times": "Mo-Fr 16:15; Sa 15:00", "indoor": "yes", "note": "ON 12/24 AND 12/31, THIS BOX MAY BE COLLECTED AS EARLY AS 12 NOON.", "nsi_id": "unitedstatespostalservice-a77078", "operator": "United States Postal Service", "operator:short": "USPS", "operator:type": "public", "operator:wikidata": "Q668687", "ref": "2932500023"}, "type": "Feature"}
{"geometry": {"coordinates": [-81.88268271, 34.475227994], "type": "Point"}, "id": "qtFkCcZIOaUWuxbF1EiOtvyxe7c=", "properties": {"@source_uri": "https://tools.usps.com/UspsToolsRestServices/rest/POLocator/findLocations", "@spider": "usps_collection_boxes", "addr:city": "CLINTON", "addr:country": "US", "addr:postcode": "29325", "addr:state": "SC", "addr:street_address": "202 ELIZABETH ST", "amenity": "post_box", "collection_times": "Mo-Fr 16:15; Sa 15:00", "indoor": "yes", "note": "ON 12/24 AND 12/31, THIS BOX MAY BE COLLECTED AS EARLY AS 12 NOON.", "nsi_id": "unitedstatespostalservice-a77078", "operator": "United States Postal Service", "operator:short": "USPS", "operator:type": "public", "operator:wikidata": "Q668687", "ref": "2932500024"}, "type": "Feature"}
{"geometry": {"coordinates": [-81.88268271, 34.475227994], "type": "Point"}, "id": "FbFJsINa3vMeNjh1l0tGnh_tHSg=", "properties": {"@source_uri": "https://tools.usps.com/UspsToolsRestServices/rest/POLocator/findLocations", "@spider": "usps_collection_boxes", "addr:city": "CLINTON", "addr:country": "US", "addr:postcode": "29325", "addr:state": "SC", "addr:street_address": "202 ELIZABETH ST", "amenity": "post_box", "collection_times": "Mo-Fr 16:15; Sa 15:00", "note": "ON 12/24 AND 12/31, THIS BOX MAY BE COLLECTED AS EARLY AS 12 NOON.", "nsi_id": "unitedstatespostalservice-a77078", "operator": "United States Postal Service", "operator:short": "USPS", "operator:type": "public", "operator:wikidata": "Q668687", "ref": "2932500025"}, "type": "Feature"}
{"geometry": {"coordinates": [-81.88268271, 34.475227994], "type": "Point"}, "id": "TGN3ZMZ4E17qyGa8ASK4qItnGdU=", "properties": {"@source_uri": "https://tools.usps.com/UspsToolsRestServices/rest/POLocator/findLocations", "@spider": "usps_collection_boxes", "addr:city": "CLINTON", "addr:country": "US", "addr:postcode": "29325", "addr:state": "SC", "addr:street_address": "202 ELIZABETH ST", "amenity": "post_box", "collection_times": "Mo-Fr 16:15; Sa 15:00", "indoor": "yes", "note": "ON 12/24 AND 12/31, THIS BOX MAY BE COLLECTED AS EARLY AS 12 NOON.", "nsi_id": "unitedstatespostalservice-a77078", "operator": "United States Postal Service", "operator:short": "USPS", "operator:type": "public", "operator:wikidata": "Q668687", "ref": "2932500026"}, "type": "Feature"}
{"geometry": {"coordinates": [-81.88268271, 34.475227994], "type": "Point"}, "id": "H1kB-hyvw3iOoelJ_rtYBmH5-Fs=", "properties": {"@source_uri": "https://tools.usps.com/UspsToolsRestServices/rest/POLocator/findLocations", "@spider": "usps_collection_boxes", "addr:city": "CLINTON", "addr:country": "US", "addr:postcode": "29325", "addr:state": "SC", "addr:street_address": "202 ELIZABETH ST", "amenity": "post_box", "collection_times": "Mo-Fr 15:45; Sa 09:45", "indoor": "yes", "note": "ON 12/24 AND 12/31, THIS BOX MAY BE COLLECTED AS EARLY AS 12 NOON.", "nsi_id": "unitedstatespostalservice-a77078", "operator": "United States Postal Service", "operator:short": "USPS", "operator:type": "public", "operator:wikidata": "Q668687", "ref": "2932500034"}, "type": "Feature"}
{"geometry": {"coordinates": [-81.8318866737, 34.9939994071], "type": "Point"}, "id": "3dg20RoOM3WNEXYh085_ulAfLUc=", "properties": {"@source_uri": "https://tools.usps.com/UspsToolsRestServices/rest/POLocator/findLocations", "@spider": "usps_collection_boxes", "addr:city": "CONVERSE", "addr:country": "US", "addr:postcode": "29329", "addr:state": "SC", "addr:street_address": "250 E MAIN ST", "amenity": "post_box", "collection_times": "Mo-Fr 15:45; Sa 09:45", "note": "ON 12/24 AND 12/31, THIS BOX MAY BE COLLECTED AS EARLY AS 12 NOON.", "nsi_id": "unitedstatespostalservice-a77078", "operator": "United States Postal Service", "operator:short": "USPS", "operator:type": "public", "operator:wikidata": "Q668687", "ref": "2932900000"}, "type": "Feature"}
{"geometry": {"coordinates": [-81.926953912, 34.950689364], "type": "Point"}, "id": "Ubu5RWpBuMHRayk0eEITktJuhEM=", "properties": {"@source_uri": "https://tools.usps.com/UspsToolsRestServices/rest/POLocator/findLocations", "@spider": "usps_collection_boxes", "addr:city": "CONVERSE", "addr:country": "US", "addr:postcode": "29329", "addr:state": "SC", "addr:street_address": "250 E MAIN ST", "amenity": "post_box", "collection_times": "Mo-Fr 15:45; Sa 09:45", "indoor": "yes", "note": "ON 12/24 AND 12/31, THIS BOX MAY BE COLLECTED AS EARLY AS 12 NOON.", "nsi_id": "unitedstatespostalservice-a77078", "operator": "United States Postal Service", "operator:short": "USPS", "operator:type": "public", "operator:wikidata": "Q668687", "ref": "2932900003"}, "type": "Feature"}
{"geometry": {"coordinates": [-81.926953912, 34.950689364], "type": "Point"}, "id": "mD-BWpGaz7fk60XZgzfCptwa0eI=", "properties": {"@source_uri": "https://tools.usps.com/UspsToolsRestServices/rest/POLocator/findLocations", "@spider": "usps_collection_boxes", "addr:city": "CONVERSE", "addr:country": "US", "addr:postcode": "29329", "addr:state": "SC", "addr:street_address": "250 E MAIN ST", "amenity": "post_box", "collection_times": "Mo-Fr 15:45; Sa 09:45", "indoor": "yes", "note": "ON 12/24 AND 12/31, THIS BOX MAY BE COLLECTED AS EARLY AS 12 NOON.", "nsi_id": "unitedstatespostalservice-a77078", "operator": "United States Postal Service", "operator:short": "USPS", "operator:type": "public", "operator:wikidata": "Q668687", "ref": "2932900004"}, "type": "Feature"}
{"geometry": {"coordinates": [-81.805551598, 35.017737992], "type": "Point"}, "id": "O1EonOjdbpOTFUwIeNtVcugs5E4=", "properties": {"@source_uri": "https://tools.usps.com/UspsToolsRestServices/rest/POLocator/findLocations", "@spider": "usps_collection_boxes", "addr:city": "COWPENS", "addr:country": "US", "addr:postcode": "29330", "addr:state": "SC", "addr:street_address": "106 W CHURCH ST", "amenity": "post_box", "collection_times": "Mo-Fr 15:45; Sa 10:45", "indoor": "yes", "note": "ON 12/24 AND 12/31, THIS BOX MAY BE COLLECTED AS EARLY AS 12 NOON.", "nsi_id": "unitedstatespostalservice-a77078", "operator": "United States Postal Service", "operator:short": "USPS", "operator:type": "public", "operator:wikidata": "Q668687", "ref": "2933000000"}, "type": "Feature"}
{"geometry": {"coordinates": [-81.805551598, 35.017737992], "type": "Point"}, "id": "ZE29QDdw8jq-eN-MmI318LvNnNw=", "properties": {"@source_uri": "https://tools.usps.com/UspsToolsRestServices/rest/POLocator/findLocations", "@spider": "usps_collection_boxes", "addr:city": "COWPENS", "addr:country": "US", "addr:postcode": "29330", "addr:state": "SC", "addr:street_address": "106 W CHURCH ST", "amenity": "post_box", "collection_times": "Mo-Fr 15:45; Sa 10:45", "note": "ON 12/24 AND 12/31, THIS BOX MAY BE COLLECTED AS EARLY AS 12 NOON.", "nsi_id": "unitedstatespostalservice-a77078", "operator": "United States Postal Service", "operator:short": "USPS", "operator:type": "public", "operator:wikidata": "Q668687", "ref": "2933000001"}, "type": "Feature"}
{"geometry": {"coordinates": [-81.805551598, 35.017737992], "type": "Point"}, "id": "TfTTR-YwWo7tbVRvdWgwD9XqM9k=", "properties": {"@source_uri": "https://tools.usps.com/UspsToolsRestServices/rest/POLocator/findLocations", "@spider": "usps_collection_boxes", "addr:city": "COWPENS", "addr:country": "US", "addr:postcode": "29330", "addr:state": "SC", "addr:street_address": "106 W CHURCH ST", "amenity": "post_box", "collection_times": "Mo-Fr 15:45; Sa 09:45", "indoor": "yes", "note": "ON 12/24 AND 12/31, THIS BOX MAY BE COLLECTED AS EARLY AS 12 NOON.", "nsi_id": "unitedstatespostalservice-a77078", "operator": "United States Postal Service", "operator:short": "USPS", "operator:type": "public", "operator:wikidata": "Q668687", "ref": "2933000007"}, "type": "Feature"}
{"geometry": {"coordinates": [-81.859542707, 34.642257593], "type": "Point"}, "id": "lZYRzoF_7rLU1ceNCHZIfBMivPI=", "properties": {"@source_uri": "https://tools.usps.com/UspsToolsRestServices/rest/POLocator/findLocations", "@spider": "usps_collection_boxes", "addr:city": "CROSS ANCHOR", "addr:country": "US", "addr:postcode": "29331", "addr:state": "SC", "addr:street_address": "635 UNION HWY", "amenity": "post_box", "collection_times": "Mo-Fr 15:45; Sa 09:45", "note": "ON 12/24 AND 12/31, THIS BOX MAY BE COLLECTED AS EARLY AS 12 NOON.", "nsi_id": "unitedstatespostalservice-a77078", "operator": "United States Postal Service", "operator:short": "USPS", "operator:type": "public", "operator:wikidata": "Q668687", "ref": "2933100000"}, "type": "Feature"}
{"geometry": {"coordinates": [-81.859542707, 34.642257593], "type": "Point"}, "id": "flSbRV0XUqa66EatmiE5M2Y11C4=", "properties": {"@source_uri": "https://tools.usps.com/UspsToolsRestServices/rest/POLocator/findLocations", "@spider": "usps_collection_boxes", "addr:city": "CROSS ANCHOR", "addr:country": "US", "addr:postcode": "29331", "addr:state": "SC", "addr:street_address": "635 UNION HWY", "amenity": "post_box", "collection_times": "Mo-Fr 15:45; Sa 09:45", "indoor": "yes", "note": "ON 12/24 AND 12/31, THIS BOX MAY BE COLLECTED AS EARLY AS 12 NOON.", "nsi_id": "unitedstatespostalservice-a77078", "operator": "United States Postal Service", "operator:short": "USPS", "operator:type": "public", "operator:wikidata": "Q668687", "ref": "2933100002"}, "type": "Feature"}
{"geometry": {"coordinates": [-81.983018307, 34.304714501], "type": "Point"}, "id": "1FHclglFgW_HcKxvpaNzW1HMhQE=", "properties": {"@source_uri": "https://tools.usps.com/UspsToolsRestServices/rest/POLocator/findLocations", "@spider": "usps_collection_boxes", "addr:city": "CROSS HILL", "addr:country": "US", "addr:postcode": "29332", "addr:state": "SC", "addr:street_address": "968 N MAIN ST", "amenity": "post_box", "collection_times": "Mo-Fr 15:45; Sa 09:45", "note": "ON 12/24 AND 12/31, THIS BOX MAY BE COLLECTED AS EARLY AS 12 NOON.", "nsi_id": "unitedstatespostalservice-a77078", "operator": "United States Postal Service", "operator:short": "USPS", "operator:type": "public", "operator:wikidata": "Q668687", "ref": "2933200000"}, "type": "Feature"}
{"geometry": {"coordinates": [-81.983018307, 34.304714501], "type": "Point"}, "id": "ES1mjaAGrO5CIcHT3OpUKVmDyrk=", "properties": {"@source_uri": "https://tools.usps.com/UspsToolsRestServices/rest/POLocator/findLocations", "@spider": "usps_collection_boxes", "addr:city": "CROSS HILL", "addr:country": "US", "addr:postcode": "29332", "addr:state": "SC", "addr:street_address": "968 N MAIN ST", "amenity": "post_box", "collection_times": "Mo-Fr 15:45; Sa 09:45", "indoor": "yes", "note": "ON 12/24 AND 12/31, THIS BOX MAY BE COLLECTED AS EARLY AS 12 NOON.", "nsi_id": "unitedstatespostalservice-a77078", "operator": "United States Postal Service", "operator:short": "USPS", "operator:type": "public", "operator:wikidata": "Q668687", "ref": "2933200001"}, "type": "Feature"}
{"geometry": {"coordinates": [-81.983018307, 34.304714501], "type": "Point"}, "id": "jFJm-PV8_pmjn7rMIeFWA_A-zrw=", "properties": {"@source_uri": "https://tools.usps.com/UspsToolsRestServices/rest/POLocator/findLocations", "@spider": "usps_collection_boxes", "addr:city": "CROSS HILL", "addr:country": "US", "addr:postcode": "29332", "addr:state": "SC", "addr:street_address": "968 N MAIN ST", "amenity": "post_box", "collection_times": "Mo-Fr 15:45; Sa 09:45", "indoor": "yes", "note": "ON 12/24 AND 12/31, THIS BOX MAY BE COLLECTED AS EARLY AS 12 NOON.", "nsi_id": "unitedstatespostalservice-a77078", "operator": "United States Postal Service", "operator:short": "USPS", "operator:type": "public", "operator:wikidata": "Q668687", "ref": "2933200004"}, "type": "Feature"}
{"geometry": {"coordinates": [-81.9132525, 34.969792472], "type": "Point"}, "id": "sc3HVmEmOmAoa3Wgqk69ayK_1-o=", "properties": {"@source_uri": "https://tools.usps.com/UspsToolsRestServices/rest/POLocator/findLocations", "@spider": "usps_collection_boxes", "addr:city": "DRAYTON", "addr:country": "US", "addr:postcode": "29333", "addr:state": "SC", "addr:street_address": "1955 DRAYTON RD", "amenity": "post_box", "collection_times": "Mo-Fr 15:45; Sa 10:45", "note": "ON 12/24 AND 12/31, THIS BOX MAY BE COLLECTED AS EARLY AS 12 NOON.", "nsi_id": "unitedstatespostalservice-a77078", "operator": "United States Postal Service", "operator:short": "USPS", "operator:type": "public", "operator:wikidata": "Q668687", "ref": "2933300000"}, "type": "Feature"}
{"geometry": {"coordinates": [-81.9132525, 34.969792472], "type": "Point"}, "id": "o2nZL18HY8LzQNTNBphZ0r959fY=", "properties": {"@source_uri": "https://tools.usps.com/UspsToolsRestServices/rest/POLocator/findLocations", "@spider": "usps_collection_boxes", "addr:city": "DRAYTON", "addr:country": "US", "addr:postcode": "29333", "addr:state": "SC", "addr:street_address": "1955 DRAYTON RD", "amenity": "post_box", "collection_times": "Mo-Fr 15:45; Sa 10:45", "indoor": "yes", "note": "ON 12/24 AND 12/31, THIS BOX MAY BE COLLECTED AS EARLY AS 12 NOON.", "nsi_id": "unitedstatespostalservice-a77078", "operator": "United States Postal Service", "operator:short": "USPS", "operator:type": "public", "operator:wikidata": "Q668687", "ref": "2933300001"}, "type": "Feature"}
{"geometry": {"coordinates": [-81.9132525, 34.969792472], "type": "Point"}, "id": "Z5vLgWg3apj3sk90GnQbIH38mzI=", "properties": {"@source_uri": "https://tools.usps.com/UspsToolsRestServices/rest/POLocator/findLocations", "@spider": "usps_collection_boxes", "addr:city": "DRAYTON", "addr:country": "US", "addr:postcode": "29333", "addr:state": "SC", "addr:street_address": "1955 DRAYTON RD", "amenity": "post_box", "collection_times": "Mo-Fr 15:45; Sa 10:45", "indoor": "yes", "note": "ON 12/24 AND 12/31, THIS BOX MAY BE COLLECTED AS EARLY AS 12 NOON.", "nsi_id": "unitedstatespostalservice-a77078", "operator": "United States Postal Service", "operator:short": "USPS", "operator:type": "public", "operator:wikidata": "Q668687", "ref": "2933300002"}, "type": "Feature"}
{"geometry": {"coordinates": [-81.9132525, 34.969792472], "type": "Point"}, "id": "4Rmy-yRgicGp6_XWVGrjcsofPs0=", "properties": {"@source_uri": "https://tools.usps.com/UspsToolsRestServices/rest/POLocator/findLocations", "@spider": "usps_collection_boxes", "addr:city": "DRAYTON", "addr:country": "US", "addr:postcode": "29333", "addr:state": "SC", "addr:street_address": "1955 DRAYTON RD", "amenity": "post_box", "collection_times": "Mo-Fr 15:45; Sa 10:45", "indoor": "yes", "note": "ON 12/24 AND 12/31, THIS BOX MAY BE COLLECTED AS EARLY AS 12 NOON.", "nsi_id": "unitedstatespostalservice-a77078", "operator": "United States Postal Service", "operator:short": "USPS", "operator:type": "public", "operator:wikidata": "Q668687", "ref": "2933300004"}, "type": "Feature"}
{"geometry": {"coordinates": [-82.1101562, 34.914051], "type": "Point"}, "id": "Y7RZAdsTdSi6-dO7txFPpvV2k-c=", "properties": {"@source_uri": "https://tools.usps.com/UspsToolsRestServices/rest/POLocator/findLocations", "@spider": "usps_collection_boxes", "addr:city": "DUNCAN", "addr:country": "US", "addr:postcode": "29334", "addr:state": "SC", "addr:street_address": "1402 E MAIN ST", "amenity": "post_box", "collection_times": "Mo-Fr 12:00", "nsi_id": "unitedstatespostalservice-a77078", "operator": "United States Postal Service", "operator:short": "USPS", "operator:type": "public", "operator:wikidata": "Q668687", "ref": "2933400000"}, "type": "Feature"}
{"geometry": {"coordinates": [-82.141232752, 34.937832576], "type": "Point"}, "id": "RgqYmbNNBDS63Yel0ycQlUg1JRE=", "properties": {"@source_uri": "https://tools.usps.com/UspsToolsRestServices/rest/POLocator/findLocations", "@spider": "usps_collection_boxes", "addr:city": "DUNCAN", "addr:country": "US", "addr:postcode": "29334", "addr:state": "SC", "addr:street_address": "131 W MAIN ST", "amenity": "post_box", "collection_times": "Mo-Fr 15:45; Sa 10:45", "note": "ON 12/24 AND 12/31, THIS BOX MAY BE COLLECTED AS EARLY AS 12 NOON.", "nsi_id": "unitedstatespostalservice-a77078", "operator": "United States Postal Service", "operator:short": "USPS", "operator:type": "public", "operator:wikidata": "Q668687", "ref": "2933400003"}, "type": "Feature"}
{"geometry": {"coordinates": [-82.141232752, 34.937832576], "type": "Point"}, "id": "G4t9KAhjm8Kg0SXc8XNj_j9X0c8=", "properties": {"@source_uri": "https://tools.usps.com/UspsToolsRestServices/rest/POLocator/findLocations", "@spider": "usps_collection_boxes", "addr:city": "DUNCAN", "addr:country": "US", "addr:postcode": "29334", "addr:state": "SC", "addr:street_address": "131 W MAIN ST", "amenity": "post_box", "collection_times": "Mo-Fr 15:45; Sa 10:45", "indoor": "yes", "note": "ON 12/24 AND 12/31, THIS BOX MAY BE COLLECTED AS EARLY AS 12 NOON.", "nsi_id": "unitedstatespostalservice-a77078", "operator": "United States Postal Service", "operator:short": "USPS", "operator:type": "public", "operator:wikidata": "Q668687", "ref": "2933400005"}, "type": "Feature"}
{"geometry": {"coordinates": [-82.0670872, 34.888165], "type": "Point"}, "id": "zuD45Yz0RAwFLpiE6sfYjs5VL9g=", "properties": {"@source_uri": "https://tools.usps.com/UspsToolsRestServices/rest/POLocator/findLocations", "@spider": "usps_collection_boxes", "addr:city": "DUNCAN", "addr:country": "US", "addr:postcode": "29334", "addr:state": "SC", "addr:street_address": "2153 E MAIN ST", "amenity": "post_box", "collection_times": "Mo-Fr 12:00", "nsi_id": "unitedstatespostalservice-a77078", "operator": "United States Postal Service", "operator:short": "USPS", "operator:type": "public", "operator:wikidata": "Q668687", "ref": "2933400006"}, "type": "Feature"}
{"geometry": {"coordinates": [-82.099309, 34.905949], "type": "Point"}, "id": "BUsAJmzBbmDrUkwDTnC-MpPFQeo=", "properties": {"@source_uri": "https://tools.usps.com/UspsToolsRestServices/rest/POLocator/findLocations", "@spider": "usps_collection_boxes", "addr:city": "DUNCAN", "addr:country": "US", "addr:postcode": "29334", "addr:state": "SC", "addr:street_address": "1605 E MAIN ST", "amenity": "post_box", "collection_times": "Mo-Fr 12:00", "nsi_id": "unitedstatespostalservice-a77078", "operator": "United States Postal Service", "operator:short": "USPS", "operator:type": "public", "operator:wikidata": "Q668687", "ref": "2933400007"}, "type": "Feature"}
{"geometry": {"coordinates": [-82.141232752, 34.937832576], "type": "Point"}, "id": "NaVTiQ46JUpNqIJiBoBqo-Rf1DM=", "properties": {"@source_uri": "https://tools.usps.com/UspsToolsRestServices/rest/POLocator/findLocations", "@spider": "usps_collection_boxes", "addr:city": "DUNCAN", "addr:country": "US", "addr:postcode": "29334", "addr:state": "SC", "addr:street_address": "131 W MAIN ST", "amenity": "post_box", "collection_times": "Mo-Fr 15:45; Sa 10:45", "indoor": "yes", "note": "ON 12/24 AND 12/31, THIS BOX MAY BE COLLECTED AS EARLY AS 12 NOON.", "nsi_id": "unitedstatespostalservice-a77078", "operator": "United States Postal Service", "operator:short": "USPS", "operator:type": "public", "operator:wikidata": "Q668687", "ref": "2933400011"}, "type": "Feature"}
{"geometry": {"coordinates": [-81.949693867, 34.658711742], "type": "Point"}, "id": "NKe4GT6sOmNCh5zGyGd9zu2gSdo=", "properties": {"@source_uri": "https://tools.usps.com/UspsToolsRestServices/rest/POLocator/findLocations", "@spider": "usps_collection_boxes", "addr:city": "ENOREE", "addr:country": "US", "addr:postcode": "29335", "addr:state": "SC", "addr:street_address": "1369 PARKER RD", "amenity": "post_box", "collection_times": "Mo-Fr 15:45; Sa 09:45", "note": "ON 12/24 AND 12/31, THIS BOX MAY BE COLLECTED AS EARLY AS 12 NOON.", "nsi_id": "unitedstatespostalservice-a77078", "operator": "United States Postal Service", "operator:short": "USPS", "operator:type": "public", "operator:wikidata": "Q668687", "ref": "2933500000"}, "type": "Feature"}
{"geometry": {"coordinates": [-81.949693867, 34.658711742], "type": "Point"}, "id": "u8qvBvvRiGbgSkz8wIzfaMMljI0=", "properties": {"@source_uri": "https://tools.usps.com/UspsToolsRestServices/rest/POLocator/findLocations", "@spider": "usps_collection_boxes", "addr:city": "ENOREE", "addr:country": "US", "addr:postcode": "29335", "addr:state": "SC", "addr:street_address": "1369 PARKER RD", "amenity": "post_box", "collection_times": "Mo-Fr 15:45; Sa 09:45", "indoor": "yes", "note": "ON 12/24 AND 12/31, THIS BOX MAY BE COLLECTED AS EARLY AS 12 NOON.", "nsi_id": "unitedstatespostalservice-a77078", "operator": "United States Postal Service", "operator:short": "USPS", "operator:type": "public", "operator:wikidata": "Q668687", "ref": "2933500001"}, "type": "Feature"}
{"geometry": {"coordinates": [-81.949693867, 34.658711742], "type": "Point"}, "id": "fcG8hZcshQrEAOurM0hPso19-7s=", "properties": {"@source_uri": "https://tools.usps.com/UspsToolsRestServices/rest/POLocator/findLocations", "@spider": "usps_collection_boxes", "addr:city": "ENOREE", "addr:country": "US", "addr:postcode": "29335", "addr:state": "SC", "addr:street_address": "1369 PARKER RD", "amenity": "post_box", "collection_times": "Mo-Fr 15:45; Sa 09:45", "indoor": "yes", "note": "ON 12/24 AND 12/31, THIS BOX MAY BE COLLECTED AS EARLY AS 12 NOON.", "nsi_id": "unitedstatespostalservice-a77078", "operator": "United States Postal Service", "operator:short": "USPS", "operator:type": "public", "operator:wikidata": "Q668687", "ref": "2933500003"}, "type": "Feature"}
{"geometry": {"coordinates": [-82.012621, 34.95618], "type": "Point"}, "id": "pJebcUfcqy-uzr_LEVPM6sESs0E=", "properties": {"@source_uri": "https://tools.usps.com/UspsToolsRestServices/rest/POLocator/findLocations", "@spider": "usps_collection_boxes", "addr:city": "FAIRFOREST", "addr:country": "US", "addr:postcode": "29336", "addr:state": "SC", "addr:street_address": "2435 FAIRFOREST CLEVEDALE RD", "amenity": "post_box", "collection_times": "Mo-Fr 15:45", "note": "ON 12/24 AND 12/31, THIS BOX MAY BE COLLECTED AS EARLY AS 12 NOON.", "nsi_id": "unitedstatespostalservice-a77078", "operator": "United States Postal Service", "operator:short": "USPS", "operator:type": "public", "operator:wikidata": "Q668687", "ref": "2933600000"}, "type": "Feature"}
{"geometry": {"coordinates": [-82.012621, 34.95618], "type": "Point"}, "id": "PrHwwlYFmYA2M9gpnUVEV7PVKaU=", "properties": {"@source_uri": "https://tools.usps.com/UspsToolsRestServices/rest/POLocator/findLocations", "@spider": "usps_collection_boxes", "addr:city": "FAIRFOREST", "addr:country": "US", "addr:postcode": "29336", "addr:state": "SC", "addr:street_address": "2435 FAIRFOREST CLEVEDALE RD", "amenity": "post_box", "collection_times": "Mo-Fr 15:45", "indoor": "yes", "note": "ON 12/24 AND 12/31, THIS BOX MAY BE COLLECTED AS EARLY AS 12 NOON.", "nsi_id": "unitedstatespostalservice-a77078", "operator": "United States Postal Service", "operator:short": "USPS", "operator:type": "public", "operator:wikidata": "Q668687", "ref": "2933600001"}, "type": "Feature"}
{"geometry": {"coordinates": [-82.000486932, 35.136792983], "type": "Point"}, "id": "i3ifujXL-k_NxjghLuULVxx5lBU=", "properties": {"@source_uri": "https://tools.usps.com/UspsToolsRestServices/rest/POLocator/findLocations", "@spider": "usps_collection_boxes", "addr:city": "FINGERVILLE", "addr:country": "US", "addr:postcode": "29338", "addr:state": "SC", "addr:street_address": "10275 FRANKLIN ST", "amenity": "post_box", "collection_times": "Mo-Fr 15:45; Sa 09:45", "indoor": "yes", "note": "ON 12/24 AND 12/31, THIS BOX MAY BE COLLECTED AS EARLY AS 12 NOON.", "nsi_id": "unitedstatespostalservice-a77078", "operator": "United States Postal Service", "operator:short": "USPS", "operator:type": "public", "operator:wikidata": "Q668687", "ref": "2933800000"}, "type": "Feature"}
{"geometry": {"coordinates": [-82.000486932, 35.136792983], "type": "Point"}, "id": "j_Fv746gaZKrfWn4elut2D7aKWA=", "properties": {"@source_uri": "https://tools.usps.com/UspsToolsRestServices/rest/POLocator/findLocations", "@spider": "usps_collection_boxes", "addr:city": "FINGERVILLE", "addr:country": "US", "addr:postcode": "29338", "addr:state": "SC", "addr:street_address": "10275 FRANKLIN ST", "amenity": "post_box", "collection_times": "Mo-Fr 15:45; Sa 09:45", "note": "ON 12/24 AND 12/31, THIS BOX MAY BE COLLECTED AS EARLY AS 12 NOON.", "nsi_id": "unitedstatespostalservice-a77078", "operator": "United States Postal Service", "operator:short": "USPS", "operator:type": "public", "operator:wikidata": "Q668687", "ref": "2933800001"}, "type": "Feature"}
{"geometry": {"coordinates": [-82.000486932, 35.136792983], "type": "Point"}, "id": "Yn4m00SKyeRbCGKwaWRsGXrOENs=", "properties": {"@source_uri": "https://tools.usps.com/UspsToolsRestServices/rest/POLocator/findLocations", "@spider": "usps_collection_boxes", "addr:city": "FINGERVILLE", "addr:country": "US", "addr:postcode": "29338", "addr:state": "SC", "addr:street_address": "10275 FRANKLIN ST", "amenity": "post_box", "collection_times": "Mo-Fr 15:45; Sa 09:45", "indoor": "yes", "note": "ON 12/24 AND 12/31, THIS BOX MAY BE COLLECTED AS EARLY AS 12 NOON.", "nsi_id": "unitedstatespostalservice-a77078", "operator": "United States Postal Service", "operator:short": "USPS", "operator:type": "public", "operator:wikidata": "Q668687", "ref": "2933800003"}, "type": "Feature"}
{"geometry": {"coordinates": [-81.6460672859, 35.0599625318], "type": "Point"}, "id": "HrVjPJoOreMl6UqxwvDWIAkQ2bU=", "properties": {"@source_uri": "https://tools.usps.com/UspsToolsRestServices/rest/POLocator/findLocations", "@spider": "usps_collection_boxes", "addr:city": "GAFFNEY", "addr:country": "US", "addr:postcode": "29340", "addr:state": "SC", "addr:street_address": "901 COLLEGE DR", "amenity": "post_box", "collection_times": "Mo-Fr 10:45", "nsi_id": "unitedstatespostalservice-a77078", "operator": "United States Postal Service", "operator:short": "USPS", "operator:type": "public", "operator:wikidata": "Q668687", "ref": "2934000007"}, "type": "Feature"}
{"geometry": {"coordinates": [-81.6525061, 35.06709], "type": "Point"}, "id": "9sZa8Uq6d06SaL-lT1ZqRrmzs2U=", "properties": {"@source_uri": "https://tools.usps.com/UspsToolsRestServices/rest/POLocator/findLocations", "@spider": "usps_collection_boxes", "addr:city": "GAFFNEY", "addr:country": "US", "addr:postcode": "29340", "addr:state": "SC", "addr:street_address": "500 S PETTY ST", "amenity": "post_box", "collection_times": "Mo-Fr 10:45; Sa 11:15", "nsi_id": "unitedstatespostalservice-a77078", "operator": "United States Postal Service", "operator:short": "USPS", "operator:type": "public", "operator:wikidata": "Q668687", "ref": "2934000010"}, "type": "Feature"}
{"geometry": {"coordinates": [-81.6284561, 35.080995], "type": "Point"}, "id": "znEELz3fnC9b0NG3thxByDv3Lyk=", "properties": {"@source_uri": "https://tools.usps.com/UspsToolsRestServices/rest/POLocator/findLocations", "@spider": "usps_collection_boxes", "addr:city": "GAFFNEY", "addr:country": "US", "addr:postcode": "29340", "addr:state": "SC", "addr:street_address": "1607 CHEROKEE AVE", "amenity": "post_box", "collection_times": "Mo-Fr 10:30", "nsi_id": "unitedstatespostalservice-a77078", "operator": "United States Postal Service", "operator:short": "USPS", "operator:type": "public", "operator:wikidata": "Q668687", "ref": "2934000019"}, "type": "Feature"}
{"geometry": {"coordinates": [-81.6509439, 35.071138], "type": "Point"}, "id": "soisy9ls5Wv1HI7ljF0O-jgalhs=", "properties": {"@source_uri": "https://tools.usps.com/UspsToolsRestServices/rest/POLocator/findLocations", "@spider": "usps_collection_boxes", "addr:city": "GAFFNEY", "addr:country": "US", "addr:postcode": "29340", "addr:state": "SC", "addr:street_address": "204 S LIMESTONE ST", "amenity": "post_box", "collection_times": "Mo-Fr 10:30", "nsi_id": "unitedstatespostalservice-a77078", "operator": "United States Postal Service", "operator:short": "USPS", "operator:type": "public", "operator:wikidata": "Q668687", "ref": "2934000021"}, "type": "Feature"}
{"geometry": {"coordinates": [-81.6470757, 35.07573], "type": "Point"}, "id": "Gs3PG5UUT0u3NAdjBY6YbKxSLx8=", "properties": {"@source_uri": "https://tools.usps.com/UspsToolsRestServices/rest/POLocator/findLocations", "@spider": "usps_collection_boxes", "addr:city": "GAFFNEY", "addr:country": "US", "addr:postcode": "29340", "addr:state": "SC", "addr:street_address": "523 N LIMESTONE ST", "amenity": "post_box", "collection_times": "Mo-Fr 10:30", "nsi_id": "unitedstatespostalservice-a77078", "operator": "United States Postal Service", "operator:short": "USPS", "operator:type": "public", "operator:wikidata": "Q668687", "ref": "2934000026"}, "type": "Feature"}
{"geometry": {"coordinates": [-81.6349923, 35.089781], "type": "Point"}, "id": "AbZT2reCu04jQlu6HqVutJlxi00=", "properties": {"@source_uri": "https://tools.usps.com/UspsToolsRestServices/rest/POLocator/findLocations", "@spider": "usps_collection_boxes", "addr:city": "GAFFNEY", "addr:country": "US", "addr:postcode": "29340", "addr:state": "SC", "addr:street_address": "1530 N LIMESTONE ST", "amenity": "post_box", "collection_times": "Mo-Fr 10:15", "nsi_id": "unitedstatespostalservice-a77078", "operator": "United States Postal Service", "operator:short": "USPS", "operator:type": "public", "operator:wikidata": "Q668687", "ref": "2934000027"}, "type": "Feature"}
{"geometry": {"coordinates": [-81.6480666, 35.072739], "type": "Point"}, "id": "jXcpXRQAuWWPlYmRxDQWVCls3Ak=", "properties": {"@source_uri": "https://tools.usps.com/UspsToolsRestServices/rest/POLocator/findLocations", "@spider": "usps_collection_boxes", "addr:city": "GAFFNEY", "addr:country": "US", "addr:postcode": "29340", "addr:state": "SC", "addr:street_address": "125 E FLOYD BAKER BLVD", "amenity": "post_box", "collection_times": "Mo-Fr 11:00; Sa 11:15", "nsi_id": "unitedstatespostalservice-a77078", "operator": "United States Postal Service", "operator:short": "USPS", "operator:type": "public", "operator:wikidata": "Q668687", "ref": "2934000028"}, "type": "Feature"}
{"geometry": {"coordinates": [-81.636869, 35.087768], "type": "Point"}, "id": "zbv1h-Hhtx5-NOdSES3GyW2w9fI=", "properties": {"@source_uri": "https://tools.usps.com/UspsToolsRestServices/rest/POLocator/findLocations", "@spider": "usps_collection_boxes", "addr:city": "GAFFNEY", "addr:country": "US", "addr:postcode": "29340", "addr:state": "SC", "addr:street_address": "1434 N LIMESTONE ST", "amenity": "post_box", "collection_times": "Mo-Fr 10:15; Sa 11:30", "nsi_id": "unitedstatespostalservice-a77078", "operator": "United States Postal Service", "operator:short": "USPS", "operator:type": "public", "operator:wikidata": "Q668687", "ref": "2934000031"}, "type": "Feature"}
{"geometry": {"coordinates": [-81.6434742, 35.073236], "type": "Point"}, "id": "4ZpyOpmOh3zCVdwFIMcf7E4n_9k=", "properties": {"@source_uri": "https://tools.usps.com/UspsToolsRestServices/rest/POLocator/findLocations", "@spider": "usps_collection_boxes", "addr:city": "GAFFNEY", "addr:country": "US", "addr:postcode": "29340", "addr:state": "SC", "addr:street_address": "312 E FREDERICK ST", "amenity": "post_box", "collection_times": "Mo-Fr 10:45; Sa 11:15", "nsi_id": "unitedstatespostalservice-a77078", "operator": "United States Postal Service", "operator:short": "USPS", "operator:type": "public", "operator:wikidata": "Q668687", "ref": "2934000032"}, "type": "Feature"}
{"geometry": {"coordinates": [-81.6538622, 35.0771988], "type": "Point"}, "id": "G5U8PToPnJzsrneqC2-tm8XjfcI=", "properties": {"@source_uri": "https://tools.usps.com/UspsToolsRestServices/rest/POLocator/findLocations", "@spider": "usps_collection_boxes", "addr:city": "GAFFNEY", "addr:country": "US", "addr:postcode": "29341", "addr:state": "SC", "addr:street_address": "1208 W FLOYD BAKER BLVD", "amenity": "post_box", "collection_times": "Mo-Fr 17:00; Sa 11:45", "note": "ON 12/24 AND 12/31, THIS BOX MAY BE COLLECTED AS EARLY AS 12 NOON.", "nsi_id": "unitedstatespostalservice-a77078", "operator": "United States Postal Service", "operator:short": "USPS", "operator:type": "public", "operator:wikidata": "Q668687", "ref": "2934100010"}, "type": "Feature"}
{"geometry": {"coordinates": [-81.657616616, 35.083366638], "type": "Point"}, "id": "8yh2hsgW8esHXIt_PF4Wc5yxt3M=", "properties": {"@source_uri": "https://tools.usps.com/UspsToolsRestServices/rest/POLocator/findLocations", "@spider": "usps_collection_boxes", "addr:city": "GAFFNEY", "addr:country": "US", "addr:postcode": "29341", "addr:state": "SC", "addr:street_address": "1208 W FLOYD BAKER BLVD", "amenity": "post_box", "collection_times": "Mo-Fr 17:00; Sa 11:45", "indoor": "yes", "note": "ON 12/24 AND 12/31, THIS BOX MAY BE COLLECTED AS EARLY AS 12 NOON.", "nsi_id": "unitedstatespostalservice-a77078", "operator": "United States Postal Service", "operator:short": "USPS", "operator:type": "public", "operator:wikidata": "Q668687", "ref": "2934100014"}, "type": "Feature"}
{"geometry": {"coordinates": [-81.657616616, 35.083366638], "type": "Point"}, "id": "6DCH4YD9QciPrM5aTsC-199cWVA=", "properties": {"@source_uri": "https://tools.usps.com/UspsToolsRestServices/rest/POLocator/findLocations", "@spider": "usps_collection_boxes", "addr:city": "GAFFNEY", "addr:country": "US", "addr:postcode": "29341", "addr:state": "SC", "addr:street_address": "1208 W FLOYD BAKER BLVD", "amenity": "post_box", "collection_times": "Mo-Fr 17:00; Sa 11:45", "indoor": "yes", "note": "ON 12/24 AND 12/31, THIS BOX MAY BE COLLECTED AS EARLY AS 12 NOON.", "nsi_id": "unitedstatespostalservice-a77078", "operator": "United States Postal Service", "operator:short": "USPS", "operator:type": "public", "operator:wikidata": "Q668687", "ref": "2934100015"}, "type": "Feature"}
{"geometry": {"coordinates": [-81.7130333, 35.08108], "type": "Point"}, "id": "wZmTsC4CHUANTCW-DkwXqqLsqYI=", "properties": {"@source_uri": "https://tools.usps.com/UspsToolsRestServices/rest/POLocator/findLocations", "@spider": "usps_collection_boxes", "addr:city": "GAFFNEY", "addr:country": "US", "addr:postcode": "29341", "addr:state": "SC", "addr:street_address": "1 FACTORY SHOPS BLVD", "amenity": "post_box", "collection_times": "Mo-Fr 11:30", "nsi_id": "unitedstatespostalservice-a77078", "operator": "United States Postal Service", "operator:short": "USPS", "operator:type": "public", "operator:wikidata": "Q668687", "ref": "2934100016"}, "type": "Feature"}
{"geometry": {"coordinates": [-81.7036006, 35.078085], "type": "Point"}, "id": "pWltwIj4_21b_LIRW_KqPDJyEvE=", "properties": {"@source_uri": "https://tools.usps.com/UspsToolsRestServices/rest/POLocator/findLocations", "@spider": "usps_collection_boxes", "addr:city": "GAFFNEY", "addr:country": "US", "addr:postcode": "29341", "addr:state": "SC", "addr:street_address": "909 HYATT ST", "amenity": "post_box", "collection_times": "Mo-Fr 11:30", "nsi_id": "unitedstatespostalservice-a77078", "operator": "United States Postal Service", "operator:short": "USPS", "operator:type": "public", "operator:wikidata": "Q668687", "ref": "2934100018"}, "type": "Feature"}
{"geometry": {"coordinates": [-81.657616616, 35.083366638], "type": "Point"}, "id": "UJv4UN_H_XwJ3dGvP4_mTBHSpZU=", "properties": {"@source_uri": "https://tools.usps.com/UspsToolsRestServices/rest/POLocator/findLocations", "@spider": "usps_collection_boxes", "addr:city": "GAFFNEY", "addr:country": "US", "addr:postcode": "29341", "addr:state": "SC", "addr:street_address": "1208 W FLOYD BAKER BLVD", "amenity": "post_box", "collection_times": "Mo-Fr 16:45; Sa 11:00", "indoor": "yes", "note": "ON 12/24 AND 12/31, THIS BOX MAY BE COLLECTED AS EARLY AS 12 NOON.", "nsi_id": "unitedstatespostalservice-a77078", "operator": "United States Postal Service", "operator:short": "USPS", "operator:type": "public", "operator:wikidata": "Q668687", "ref": "2934100022"}, "type": "Feature"}
{"geometry": {"coordinates": [-81.838024431, 34.942600215], "type": "Point"}, "id": "Az_qoyhKnE73B1V_1WyDqfYvocs=", "properties": {"@source_uri": "https://tools.usps.com/UspsToolsRestServices/rest/POLocator/findLocations", "@spider": "usps_collection_boxes", "addr:city": "GLENDALE", "addr:country": "US", "addr:postcode": "29346", "addr:state": "SC", "addr:street_address": "350 BROADWAY ST", "amenity": "post_box", "collection_times": "Mo-Fr 15:45; Sa 09:45", "note": "ON 12/24 AND 12/31, THIS BOX MAY BE COLLECTED AS EARLY AS 12 NOON.", "nsi_id": "unitedstatespostalservice-a77078", "operator": "United States Postal Service", "operator:short": "USPS", "operator:type": "public", "operator:wikidata": "Q668687", "ref": "2934600000"}, "type": "Feature"}
{"geometry": {"coordinates": [-81.838024431, 34.942600215], "type": "Point"}, "id": "kNFwTrloVF1kpu_vVNF6ZDYB6c0=", "properties": {"@source_uri": "https://tools.usps.com/UspsToolsRestServices/rest/POLocator/findLocations", "@spider": "usps_collection_boxes", "addr:city": "GLENDALE", "addr:country": "US", "addr:postcode": "29346", "addr:state": "SC", "addr:street_address": "350 BROADWAY ST", "amenity": "post_box", "collection_times": "Mo-Fr 15:45; Sa 09:45", "indoor": "yes", "note": "ON 12/24 AND 12/31, THIS BOX MAY BE COLLECTED AS EARLY AS 12 NOON.", "nsi_id": "unitedstatespostalservice-a77078", "operator": "United States Postal Service", "operator:short": "USPS", "operator:type": "public", "operator:wikidata": "Q668687", "ref": "2934600001"}, "type": "Feature"}
{"geometry": {"coordinates": [-81.838024431, 34.942600215], "type": "Point"}, "id": "TEyZ9sKxC7GhCGfsWFqPbFbvxFo=", "properties": {"@source_uri": "https://tools.usps.com/UspsToolsRestServices/rest/POLocator/findLocations", "@spider": "usps_collection_boxes", "addr:city": "GLENDALE", "addr:country": "US", "addr:postcode": "29346", "addr:state": "SC", "addr:street_address": "350 BROADWAY ST", "amenity": "post_box", "collection_times": "Mo-Fr 15:45; Sa 09:45", "indoor": "yes", "note": "ON 12/24 AND 12/31, THIS BOX MAY BE COLLECTED AS EARLY AS 12 NOON.", "nsi_id": "unitedstatespostalservice-a77078", "operator": "United States Postal Service", "operator:short": "USPS", "operator:type": "public", "operator:wikidata": "Q668687", "ref": "2934600003"}, "type": "Feature"}
{"geometry": {"coordinates": [-82.133207469, 35.079117633], "type": "Point"}, "id": "EbuNwp4nhwqVz9LAsdvUKOu7k4A=", "properties": {"@source_uri": "https://tools.usps.com/UspsToolsRestServices/rest/POLocator/findLocations", "@spider": "usps_collection_boxes", "addr:city": "GRAMLING", "addr:country": "US", "addr:postcode": "29348", "addr:state": "SC", "addr:street_address": "14921 ASHEVILLE HWY", "amenity": "post_box", "collection_times": "Mo-Fr 15:45; Sa 09:45", "note": "ON 12/24 AND 12/31, THIS BOX MAY BE COLLECTED AS EARLY AS 12 NOON.", "nsi_id": "unitedstatespostalservice-a77078", "operator": "United States Postal Service", "operator:short": "USPS", "operator:type": "public", "operator:wikidata": "Q668687", "ref": "2934800000"}, "type": "Feature"}
{"geometry": {"coordinates": [-82.133207469, 35.079117633], "type": "Point"}, "id": "cqRCpnEsC-tEykAfbk-_AciYaJM=", "properties": {"@source_uri": "https://tools.usps.com/UspsToolsRestServices/rest/POLocator/findLocations", "@spider": "usps_collection_boxes", "addr:city": "GRAMLING", "addr:country": "US", "addr:postcode": "29348", "addr:state": "SC", "addr:street_address": "14921 ASHEVILLE HWY", "amenity": "post_box", "collection_times": "Mo-Fr 15:45; Sa 09:45", "indoor": "yes", "note": "ON 12/24 AND 12/31, THIS BOX MAY BE COLLECTED AS EARLY AS 12 NOON.", "nsi_id": "unitedstatespostalservice-a77078", "operator": "United States Postal Service", "operator:short": "USPS", "operator:type": "public", "operator:wikidata": "Q668687", "ref": "2934800001"}, "type": "Feature"}
{"geometry": {"coordinates": [-82.133207469, 35.079117633], "type": "Point"}, "id": "fl3XqNzElRAfrqd9bNG8XPPoOQs=", "properties": {"@source_uri": "https://tools.usps.com/UspsToolsRestServices/rest/POLocator/findLocations", "@spider": "usps_collection_boxes", "addr:city": "GRAMLING", "addr:country": "US", "addr:postcode": "29348", "addr:state": "SC", "addr:street_address": "14921 ASHEVILLE HWY", "amenity": "post_box", "collection_times": "Mo-Fr 15:45; Sa 09:45", "indoor": "yes", "note": "ON 12/24 AND 12/31, THIS BOX MAY BE COLLECTED AS EARLY AS 12 NOON.", "nsi_id": "unitedstatespostalservice-a77078", "operator": "United States Postal Service", "operator:short": "USPS", "operator:type": "public", "operator:wikidata": "Q668687", "ref": "2934800003"}, "type": "Feature"}
{"geometry": {"coordinates": [-82.090744912, 35.045441843], "type": "Point"}, "id": "mtfd6VNzE5t1EZYZAv7KxKSjifE=", "properties": {"@source_uri": "https://tools.usps.com/UspsToolsRestServices/rest/POLocator/findLocations", "@spider": "usps_collection_boxes", "addr:city": "INMAN", "addr:country": "US", "addr:postcode": "29349", "addr:state": "SC", "addr:street_address": "14 BLACKSTOCK RD", "amenity": "post_box", "collection_times": "Mo-Fr 15:45; Sa 10:45", "indoor": "yes", "note": "ON 12/24 AND 12/31, THIS BOX MAY BE COLLECTED AS EARLY AS 12 NOON.", "nsi_id": "unitedstatespostalservice-a77078", "operator": "United States Postal Service", "operator:short": "USPS", "operator:type": "public", "operator:wikidata": "Q668687", "ref": "2934900003"}, "type": "Feature"}
{"geometry": {"coordinates": [-82.090744912, 35.045441843], "type": "Point"}, "id": "xIKrxrRYkN7dR3-9UTt3BGdXv0I=", "properties": {"@source_uri": "https://tools.usps.com/UspsToolsRestServices/rest/POLocator/findLocations", "@spider": "usps_collection_boxes", "addr:city": "INMAN", "addr:country": "US", "addr:postcode": "29349", "addr:state": "SC", "addr:street_address": "14 BLACKSTOCK RD", "amenity": "post_box", "collection_times": "Mo-Fr 15:45; Sa 10:45", "indoor": "yes", "note": "ON 12/24 AND 12/31, THIS BOX MAY BE COLLECTED AS EARLY AS 12 NOON.", "nsi_id": "unitedstatespostalservice-a77078", "operator": "United States Postal Service", "operator:short": "USPS", "operator:type": "public", "operator:wikidata": "Q668687", "ref": "2934900004"}, "type": "Feature"}
{"geometry": {"coordinates": [-82.090744912, 35.045441843], "type": "Point"}, "id": "YTWVM9j0JKrYdfvtxRlf7qeZ1Es=", "properties": {"@source_uri": "https://tools.usps.com/UspsToolsRestServices/rest/POLocator/findLocations", "@spider": "usps_collection_boxes", "addr:city": "INMAN", "addr:country": "US", "addr:postcode": "29349", "addr:state": "SC", "addr:street_address": "14 BLACKSTOCK RD", "amenity": "post_box", "collection_times": "Mo-Fr 15:45; Sa 09:45", "indoor": "yes", "note": "ON 12/24 AND 12/31, THIS BOX MAY BE COLLECTED AS EARLY AS 12 NOON.", "nsi_id": "unitedstatespostalservice-a77078", "operator": "United States Postal Service", "operator:short": "USPS", "operator:type": "public", "operator:wikidata": "Q668687", "ref": "2934900007"}, "type": "Feature"}
{"geometry": {"coordinates": [-81.811966853, 34.414210026], "type": "Point"}, "id": "3oI4FHY_Ca-Tuh09mg6KVvJdbIU=", "properties": {"@source_uri": "https://tools.usps.com/UspsToolsRestServices/rest/POLocator/findLocations", "@spider": "usps_collection_boxes", "addr:city": "JOANNA", "addr:country": "US", "addr:postcode": "29351", "addr:state": "SC", "addr:street_address": "106 REGNERY PLZ", "amenity": "post_box", "collection_times": "Mo-Fr 15:45; Sa 09:45", "indoor": "yes", "note": "ON 12/24 AND 12/31, THIS BOX MAY BE COLLECTED AS EARLY AS 12 NOON.", "nsi_id": "unitedstatespostalservice-a77078", "operator": "United States Postal Service", "operator:short": "USPS", "operator:type": "public", "operator:wikidata": "Q668687", "ref": "2935100003"}, "type": "Feature"}
{"geometry": {"coordinates": [-81.811966853, 34.414210026], "type": "Point"}, "id": "RQXWFhRZb_O7bwJu2gDZRP4PRyI=", "properties": {"@source_uri": "https://tools.usps.com/UspsToolsRestServices/rest/POLocator/findLocations", "@spider": "usps_collection_boxes", "addr:city": "JOANNA", "addr:country": "US", "addr:postcode": "29351", "addr:state": "SC", "addr:street_address": "106 REGNERY PLZ", "amenity": "post_box", "collection_times": "Mo-Fr 13:00; Sa 09:45", "indoor": "yes", "note": "ON 12/24 AND 12/31, THIS BOX MAY BE COLLECTED AS EARLY AS 12 NOON.", "nsi_id": "unitedstatespostalservice-a77078", "operator": "United States Postal Service", "operator:short": "USPS", "operator:type": "public", "operator:wikidata": "Q668687", "ref": "2935100005"}, "type": "Feature"}
{"geometry": {"coordinates": [-81.698328, 34.8295], "type": "Point"}, "id": "E_Z1JUh8A-YUZq5gliAIJ-oGCEQ=", "properties": {"@source_uri": "https://tools.usps.com/UspsToolsRestServices/rest/POLocator/findLocations", "@spider": "usps_collection_boxes", "addr:city": "JONESVILLE", "addr:country": "US", "addr:postcode": "29353", "addr:state": "SC", "addr:street_address": "2912 FURMAN FENDLEY HWY", "amenity": "post_box", "collection_times": "Mo-Fr 15:45; Sa 09:45", "indoor": "yes", "note": "ON 12/24 AND 12/31, THIS BOX MAY BE COLLECTED AS EARLY AS 12 NOON.", "nsi_id": "unitedstatespostalservice-a77078", "operator": "United States Postal Service", "operator:short": "USPS", "operator:type": "public", "operator:wikidata": "Q668687", "ref": "2935300001"}, "type": "Feature"}
{"geometry": {"coordinates": [-81.698346296, 34.829527472], "type": "Point"}, "id": "EM48QNkMijfHGyoTA4BWs9aMB3c=", "properties": {"@source_uri": "https://tools.usps.com/UspsToolsRestServices/rest/POLocator/findLocations", "@spider": "usps_collection_boxes", "addr:city": "JONESVILLE", "addr:country": "US", "addr:postcode": "29353", "addr:state": "SC", "addr:street_address": "2912 FURMAN L FENDLEY HWY", "amenity": "post_box", "collection_times": "Mo-Fr 15:45; Sa 09:45", "indoor": "yes", "note": "ON 12/24 AND 12/31, THIS BOX MAY BE COLLECTED AS EARLY AS 12 NOON.", "nsi_id": "unitedstatespostalservice-a77078", "operator": "United States Postal Service", "operator:short": "USPS", "operator:type": "public", "operator:wikidata": "Q668687", "ref": "2935300005"}, "type": "Feature"}
{"geometry": {"coordinates": [-81.6977260363, 34.8298289929], "type": "Point"}, "id": "nHyBWFO_5J3xL0t1c-89vwiN35E=", "properties": {"@source_uri": "https://tools.usps.com/UspsToolsRestServices/rest/POLocator/findLocations", "@spider": "usps_collection_boxes", "addr:city": "JONESVILLE", "addr:country": "US", "addr:postcode": "29353", "addr:state": "SC", "addr:street_address": "2912 FURMAN L FENDLEY HWY", "amenity": "post_box", "collection_times": "Mo-Fr 15:45", "indoor": "yes", "note": "ON 12/24 AND 12/31, THIS BOX MAY BE COLLECTED AS EARLY AS 12 NOON.", "nsi_id": "unitedstatespostalservice-a77078", "operator": "United States Postal Service", "operator:short": "USPS", "operator:type": "public", "operator:wikidata": "Q668687", "ref": "2935300006"}, "type": "Feature"}
{"geometry": {"coordinates": [-81.6977260363, 34.8298289929], "type": "Point"}, "id": "2tlexQP7orINyMl2zQhE7iQoE3U=", "properties": {"@source_uri": "https://tools.usps.com/UspsToolsRestServices/rest/POLocator/findLocations", "@spider": "usps_collection_boxes", "addr:city": "JONESVILLE", "addr:country": "US", "addr:postcode": "29353", "addr:state": "SC", "addr:street_address": "2912 FURMAN L FENDLEY HWY", "amenity": "post_box", "collection_times": "Mo-Fr 15:45; Sa 09:45", "indoor": "yes", "note": "ON 12/24 AND 12/31, THIS BOX MAY BE COLLECTED AS EARLY AS 12 NOON.", "nsi_id": "unitedstatespostalservice-a77078", "operator": "United States Postal Service", "operator:short": "USPS", "operator:type": "public", "operator:wikidata": "Q668687", "ref": "2935300007"}, "type": "Feature"}
{"geometry": {"coordinates": [-82.184239647, 35.176459759], "type": "Point"}, "id": "XfEu3pfYSOfHkfzcglhoufSXIO4=", "properties": {"@source_uri": "https://tools.usps.com/UspsToolsRestServices/rest/POLocator/findLocations", "@spider": "usps_collection_boxes", "addr:city": "LANDRUM", "addr:country": "US", "addr:postcode": "29356", "addr:state": "SC", "addr:street_address": "500 E RUTHERFORD ST", "amenity": "post_box", "collection_times": "Mo-Fr 15:45; Sa 10:45", "note": "ON 12/24 AND 12/31, THIS BOX MAY BE COLLECTED AS EARLY AS 12 NOON.", "nsi_id": "unitedstatespostalservice-a77078", "operator": "United States Postal Service", "operator:short": "USPS", "operator:type": "public", "operator:wikidata": "Q668687", "ref": "2935600000"}, "type": "Feature"}
{"geometry": {"coordinates": [-82.184239647, 35.176459759], "type": "Point"}, "id": "A0m10HiKDiI8Z8VWD9bOffhTmpY=", "properties": {"@source_uri": "https://tools.usps.com/UspsToolsRestServices/rest/POLocator/findLocations", "@spider": "usps_collection_boxes", "addr:city": "LANDRUM", "addr:country": "US", "addr:postcode": "29356", "addr:state": "SC", "addr:street_address": "500 E RUTHERFORD ST", "amenity": "post_box", "collection_times": "Mo-Fr 15:45; Sa 10:45", "indoor": "yes", "note": "ON 12/24 AND 12/31, THIS BOX MAY BE COLLECTED AS EARLY AS 12 NOON.", "nsi_id": "unitedstatespostalservice-a77078", "operator": "United States Postal Service", "operator:short": "USPS", "operator:type": "public", "operator:wikidata": "Q668687", "ref": "2935600007"}, "type": "Feature"}
{"geometry": {"coordinates": [-82.184239647, 35.176459759], "type": "Point"}, "id": "5dGS2J_bOHxcvvT4NDFeHORmDpU=", "properties": {"@source_uri": "https://tools.usps.com/UspsToolsRestServices/rest/POLocator/findLocations", "@spider": "usps_collection_boxes", "addr:city": "LANDRUM", "addr:country": "US", "addr:postcode": "29356", "addr:state": "SC", "addr:street_address": "500 E RUTHERFORD ST", "amenity": "post_box", "collection_times": "Mo-Fr 15:45; Sa 10:45", "indoor": "yes", "note": "ON 12/24 AND 12/31, THIS BOX MAY BE COLLECTED AS EARLY AS 12 NOON.", "nsi_id": "unitedstatespostalservice-a77078", "operator": "United States Postal Service", "operator:short": "USPS", "operator:type": "public", "operator:wikidata": "Q668687", "ref": "2935600008"}, "type": "Feature"}
{"geometry": {"coordinates": [-82.18424, 35.175], "type": "Point"}, "id": "XaG639DZ-0LUlvvwWIv_vAMw2xY=", "properties": {"@source_uri": "https://tools.usps.com/UspsToolsRestServices/rest/POLocator/findLocations", "@spider": "usps_collection_boxes", "addr:city": "LANDRUM", "addr:country": "US", "addr:postcode": "29356", "addr:state": "SC", "addr:street_address": "1851 HIGHWAY 14 E", "amenity": "post_box", "collection_times": "Mo-Fr 11:30", "nsi_id": "unitedstatespostalservice-a77078", "operator": "United States Postal Service", "operator:short": "USPS", "operator:type": "public", "operator:wikidata": "Q668687", "ref": "2935600011"}, "type": "Feature"}
{"geometry": {"coordinates": [-82.184239647, 35.176459759], "type": "Point"}, "id": "D4rYd5nwPChi6NnUfU1SCNyKasU=", "properties": {"@source_uri": "https://tools.usps.com/UspsToolsRestServices/rest/POLocator/findLocations", "@spider": "usps_collection_boxes", "addr:city": "LANDRUM", "addr:country": "US", "addr:postcode": "29356", "addr:state": "SC", "addr:street_address": "500 E RUTHERFORD ST", "amenity": "post_box", "collection_times": "Mo-Fr 15:45; Sa 09:45", "indoor": "yes", "note": "ON 12/24 AND 12/31, THIS BOX MAY BE COLLECTED AS EARLY AS 12 NOON.", "nsi_id": "unitedstatespostalservice-a77078", "operator": "United States Postal Service", "operator:short": "USPS", "operator:type": "public", "operator:wikidata": "Q668687", "ref": "2935600015"}, "type": "Feature"}
{"geometry": {"coordinates": [-82.012899, 34.500587], "type": "Point"}, "id": "ndD8Vv1-9hj7BHWMNP3h6yqzSHk=", "properties": {"@source_uri": "https://tools.usps.com/UspsToolsRestServices/rest/POLocator/findLocations", "@spider": "usps_collection_boxes", "addr:city": "LAURENS", "addr:country": "US", "addr:postcode": "29360", "addr:state": "SC", "addr:street_address": "302 N HARPER ST", "amenity": "post_box", "collection_times": "Mo-Fr 16:45; Sa 12:30", "indoor": "yes", "note": "ON 12/24 AND 12/31, THIS BOX MAY BE COLLECTED AS EARLY AS 12 NOON.", "nsi_id": "unitedstatespostalservice-a77078", "operator": "United States Postal Service", "operator:short": "USPS", "operator:type": "public", "operator:wikidata": "Q668687", "ref": "2936000003"}, "type": "Feature"}
{"geometry": {"coordinates": [-82.012899, 34.500587], "type": "Point"}, "id": "TY2gsUR-uiH71VSZW5ldGQV4zAs=", "properties": {"@source_uri": "https://tools.usps.com/UspsToolsRestServices/rest/POLocator/findLocations", "@spider": "usps_collection_boxes", "addr:city": "LAURENS", "addr:country": "US", "addr:postcode": "29360", "addr:state": "SC", "addr:street_address": "302 N HARPER ST", "amenity": "post_box", "collection_times": "Mo-Fr 16:45; Sa 12:30", "indoor": "yes", "note": "ON 12/24 AND 12/31, THIS BOX MAY BE COLLECTED AS EARLY AS 12 NOON.", "nsi_id": "unitedstatespostalservice-a77078", "operator": "United States Postal Service", "operator:short": "USPS", "operator:type": "public", "operator:wikidata": "Q668687", "ref": "2936000004"}, "type": "Feature"}
{"geometry": {"coordinates": [-82.0354739, 34.492776], "type": "Point"}, "id": "CPac0AN-6D2Z1uTgLeEX0bv8kNw=", "properties": {"@source_uri": "https://tools.usps.com/UspsToolsRestServices/rest/POLocator/findLocations", "@spider": "usps_collection_boxes", "addr:city": "LAURENS", "addr:country": "US", "addr:postcode": "29360", "addr:state": "SC", "addr:street_address": "1017 W MAIN ST", "amenity": "post_box", "collection_times": "Mo-Sa 10:00", "nsi_id": "unitedstatespostalservice-a77078", "operator": "United States Postal Service", "operator:short": "USPS", "operator:type": "public", "operator:wikidata": "Q668687", "ref": "2936000009"}, "type": "Feature"}
{"geometry": {"coordinates": [-82.0201279791, 34.5021930125], "type": "Point"}, "id": "eBExXDbXYOyfTwjNJ0NDRD60EyQ=", "properties": {"@source_uri": "https://tools.usps.com/UspsToolsRestServices/rest/POLocator/findLocations", "@spider": "usps_collection_boxes", "addr:city": "LAURENS", "addr:country": "US", "addr:postcode": "29360", "addr:state": "SC", "addr:street_address": "330 CHURCH ST", "amenity": "post_box", "collection_times": "Mo-Sa 09:30", "nsi_id": "unitedstatespostalservice-a77078", "operator": "United States Postal Service", "operator:short": "USPS", "operator:type": "public", "operator:wikidata": "Q668687", "ref": "2936000013"}, "type": "Feature"}
{"geometry": {"coordinates": [-82.0310554, 34.493415], "type": "Point"}, "id": "5zq9FgtLD-vbAjbu8Rn0zzs3M4s=", "properties": {"@source_uri": "https://tools.usps.com/UspsToolsRestServices/rest/POLocator/findLocations", "@spider": "usps_collection_boxes", "addr:city": "LAURENS", "addr:country": "US", "addr:postcode": "29360", "addr:state": "SC", "addr:street_address": "918 W MAIN ST", "amenity": "post_box", "collection_times": "Mo-Sa 10:00", "nsi_id": "unitedstatespostalservice-a77078", "operator": "United States Postal Service", "operator:short": "USPS", "operator:type": "public", "operator:wikidata": "Q668687", "ref": "2936000015"}, "type": "Feature"}
{"geometry": {"coordinates": [-82.015794, 34.5051304973], "type": "Point"}, "id": "emRvcjBP_bFrzAB-aw3eVuPU71s=", "properties": {"@source_uri": "https://tools.usps.com/UspsToolsRestServices/rest/POLocator/findLocations", "@spider": "usps_collection_boxes", "addr:city": "LAURENS", "addr:country": "US", "addr:postcode": "29360", "addr:state": "SC", "addr:street_address": "241 HILLCREST DR", "amenity": "post_box", "collection_times": "Mo-Sa 09:30", "nsi_id": "unitedstatespostalservice-a77078", "operator": "United States Postal Service", "operator:short": "USPS", "operator:type": "public", "operator:wikidata": "Q668687", "ref": "2936000024"}, "type": "Feature"}
{"geometry": {"coordinates": [-82.012899, 34.500587], "type": "Point"}, "id": "JeQ3iozr9UgGqH2IQgbAuuS5xJA=", "properties": {"@source_uri": "https://tools.usps.com/UspsToolsRestServices/rest/POLocator/findLocations", "@spider": "usps_collection_boxes", "addr:city": "LAURENS", "addr:country": "US", "addr:postcode": "29360", "addr:state": "SC", "addr:street_address": "302 N HARPER ST", "amenity": "post_box", "collection_times": "Mo-Fr 16:45; Sa 12:30", "indoor": "yes", "note": "ON 12/24 AND 12/31, THIS BOX MAY BE COLLECTED AS EARLY AS 12 NOON.", "nsi_id": "unitedstatespostalservice-a77078", "operator": "United States Postal Service", "operator:short": "USPS", "operator:type": "public", "operator:wikidata": "Q668687", "ref": "2936000026"}, "type": "Feature"}
{"geometry": {"coordinates": [-82.0200037, 34.507023], "type": "Point"}, "id": "EWhvm4DplpFVegnROOsob0zUUQs=", "properties": {"@source_uri": "https://tools.usps.com/UspsToolsRestServices/rest/POLocator/findLocations", "@spider": "usps_collection_boxes", "addr:city": "LAURENS", "addr:country": "US", "addr:postcode": "29360", "addr:state": "SC", "addr:street_address": "100 HILLCREST SQ", "amenity": "post_box", "collection_times": "Mo-Sa 09:30", "nsi_id": "unitedstatespostalservice-a77078", "operator": "United States Postal Service", "operator:short": "USPS", "operator:type": "public", "operator:wikidata": "Q668687", "ref": "2936000028"}, "type": "Feature"}
{"geometry": {"coordinates": [-82.012210014, 34.500619981], "type": "Point"}, "id": "SoXNdIx-cKTd6m2QinNdJY-julw=", "properties": {"@source_uri": "https://tools.usps.com/UspsToolsRestServices/rest/POLocator/findLocations", "@spider": "usps_collection_boxes", "addr:city": "LAURENS", "addr:country": "US", "addr:postcode": "29360", "addr:state": "SC", "addr:street_address": "302 N HARPER ST", "amenity": "post_box", "collection_times": "Mo-Fr 17:00; Sa 12:30", "indoor": "yes", "note": "ON 12/24 AND 12/31, THIS BOX MAY BE COLLECTED AS EARLY AS 12 NOON.", "nsi_id": "unitedstatespostalservice-a77078", "operator": "United States Postal Service", "operator:short": "USPS", "operator:type": "public", "operator:wikidata": "Q668687", "ref": "2936000032"}, "type": "Feature"}
{"geometry": {"coordinates": [-81.459683728, 34.788520028], "type": "Point"}, "id": "qyWUemKdGUK2RZoLCaH2i31rQ2g=", "properties": {"@source_uri": "https://tools.usps.com/UspsToolsRestServices/rest/POLocator/findLocations", "@spider": "usps_collection_boxes", "addr:city": "LOCKHART", "addr:country": "US", "addr:postcode": "29364", "addr:state": "SC", "addr:street_address": "404 S 2ND ST", "amenity": "post_box", "collection_times": "Mo-Fr 15:45; Sa 10:00", "note": "ON 12/24 AND 12/31, THIS BOX MAY BE COLLECTED AS EARLY AS 12 NOON.", "nsi_id": "unitedstatespostalservice-a77078", "operator": "United States Postal Service", "operator:short": "USPS", "operator:type": "public", "operator:wikidata": "Q668687", "ref": "2936400000"}, "type": "Feature"}
{"geometry": {"coordinates": [-81.459683728, 34.788520028], "type": "Point"}, "id": "IUEMnTw1Dt2zWXDE7bNvcLHvVrc=", "properties": {"@source_uri": "https://tools.usps.com/UspsToolsRestServices/rest/POLocator/findLocations", "@spider": "usps_collection_boxes", "addr:city": "LOCKHART", "addr:country": "US", "addr:postcode": "29364", "addr:state": "SC", "addr:street_address": "404 S 2ND ST", "amenity": "post_box", "collection_times": "Mo-Fr 12:00; Sa 10:00", "indoor": "yes", "nsi_id": "unitedstatespostalservice-a77078", "operator": "United States Postal Service", "operator:short": "USPS", "operator:type": "public", "operator:wikidata": "Q668687", "ref": "2936400001"}, "type": "Feature"}
{"geometry": {"coordinates": [-81.459683728, 34.788520028], "type": "Point"}, "id": "PpTC1JW0L4lEussVT7xOcT891Ps=", "properties": {"@source_uri": "https://tools.usps.com/UspsToolsRestServices/rest/POLocator/findLocations", "@spider": "usps_collection_boxes", "addr:city": "LOCKHART", "addr:country": "US", "addr:postcode": "29364", "addr:state": "SC", "addr:street_address": "404 S 2ND ST", "amenity": "post_box", "collection_times": "Mo-Fr 12:00; Sa 10:00", "indoor": "yes", "nsi_id": "unitedstatespostalservice-a77078", "operator": "United States Postal Service", "operator:short": "USPS", "operator:type": "public", "operator:wikidata": "Q668687", "ref": "2936400003"}, "type": "Feature"}
{"geometry": {"coordinates": [-82.142967, 34.95571], "type": "Point"}, "id": "nfBXj0ff41Hc-WdkMgZl_JGMTGk=", "properties": {"@source_uri": "https://tools.usps.com/UspsToolsRestServices/rest/POLocator/findLocations", "@spider": "usps_collection_boxes", "addr:city": "LYMAN", "addr:country": "US", "addr:postcode": "29365", "addr:state": "SC", "addr:street_address": "12490 GREENVILLE HWY", "amenity": "post_box", "collection_times": "Mo-Fr 16:15; Sa 10:45", "note": "ON 12/24 AND 12/31, THIS BOX MAY BE COLLECTED AS EARLY AS 12 NOON.", "nsi_id": "unitedstatespostalservice-a77078", "operator": "United States Postal Service", "operator:short": "USPS", "operator:type": "public", "operator:wikidata": "Q668687", "ref": "2936500001"}, "type": "Feature"}
{"geometry": {"coordinates": [-82.143054, 34.955683], "type": "Point"}, "id": "UNcYVocbrl0IIb8mdIiXgwydlR0=", "properties": {"@source_uri": "https://tools.usps.com/UspsToolsRestServices/rest/POLocator/findLocations", "@spider": "usps_collection_boxes", "addr:city": "LYMAN", "addr:country": "US", "addr:postcode": "29365", "addr:state": "SC", "addr:street_address": "12490 GREENVILLE HWY", "amenity": "post_box", "collection_times": "Mo-Fr 16:15; Sa 10:45", "indoor": "yes", "note": "ON 12/24 AND 12/31, THIS BOX MAY BE COLLECTED AS EARLY AS 12 NOON.", "nsi_id": "unitedstatespostalservice-a77078", "operator": "United States Postal Service", "operator:short": "USPS", "operator:type": "public", "operator:wikidata": "Q668687", "ref": "2936500008"}, "type": "Feature"}
{"geometry": {"coordinates": [-82.143054, 34.955683], "type": "Point"}, "id": "OyBOVXhubpkr0-hrjeiuVd8IlHk=", "properties": {"@source_uri": "https://tools.usps.com/UspsToolsRestServices/rest/POLocator/findLocations", "@spider": "usps_collection_boxes", "addr:city": "LYMAN", "addr:country": "US", "addr:postcode": "29365", "addr:state": "SC", "addr:street_address": "12490 GREENVILLE HWY", "amenity": "post_box", "collection_times": "Mo-Fr 16:15; Sa 10:45", "indoor": "yes", "note": "ON 12/24 AND 12/31, THIS BOX MAY BE COLLECTED AS EARLY AS 12 NOON.", "nsi_id": "unitedstatespostalservice-a77078", "operator": "United States Postal Service", "operator:short": "USPS", "operator:type": "public", "operator:wikidata": "Q668687", "ref": "2936500009"}, "type": "Feature"}
{"geometry": {"coordinates": [-82.143054, 34.955683], "type": "Point"}, "id": "IWw3Ckb8XgCQVG03g7AzaORO1n4=", "properties": {"@source_uri": "https://tools.usps.com/UspsToolsRestServices/rest/POLocator/findLocations", "@spider": "usps_collection_boxes", "addr:city": "LYMAN", "addr:country": "US", "addr:postcode": "29365", "addr:state": "SC", "addr:street_address": "12490 GREENVILLE HWY", "amenity": "post_box", "collection_times": "Mo-Fr 16:15; Sa 10:45", "indoor": "yes", "note": "ON 12/24 AND 12/31, THIS BOX MAY BE COLLECTED AS EARLY AS 12 NOON.", "nsi_id": "unitedstatespostalservice-a77078", "operator": "United States Postal Service", "operator:short": "USPS", "operator:type": "public", "operator:wikidata": "Q668687", "ref": "2936500010"}, "type": "Feature"}
{"geometry": {"coordinates": [-82.1427705, 34.95570749], "type": "Point"}, "id": "ooSkQwAamD30JNBqAdRsAE9GaXM=", "properties": {"@source_uri": "https://tools.usps.com/UspsToolsRestServices/rest/POLocator/findLocations", "@spider": "usps_collection_boxes", "addr:city": "LYMAN", "addr:country": "US", "addr:postcode": "29365", "addr:state": "SC", "addr:street_address": "12490 GREENVILLE HWY", "amenity": "post_box", "collection_times": "Mo-Fr 15:45; Sa 09:45", "indoor": "yes", "note": "ON 12/24 AND 12/31, THIS BOX MAY BE COLLECTED AS EARLY AS 12 NOON.", "nsi_id": "unitedstatespostalservice-a77078", "operator": "United States Postal Service", "operator:short": "USPS", "operator:type": "public", "operator:wikidata": "Q668687", "ref": "2936500014"}, "type": "Feature"}
{"geometry": {"coordinates": [-81.861440691, 35.082447728], "type": "Point"}, "id": "ZH4w0YsEKjGnvKyN0DrW025dLz4=", "properties": {"@source_uri": "https://tools.usps.com/UspsToolsRestServices/rest/POLocator/findLocations", "@spider": "usps_collection_boxes", "addr:city": "MAYO", "addr:country": "US", "addr:postcode": "29368", "addr:state": "SC", "addr:street_address": "4496 CHESNEE HWY", "amenity": "post_box", "collection_times": "Mo-Fr 15:45; Sa 09:45", "note": "ON 12/24 AND 12/31, THIS BOX MAY BE COLLECTED AS EARLY AS 12 NOON.", "nsi_id": "unitedstatespostalservice-a77078", "operator": "United States Postal Service", "operator:short": "USPS", "operator:type": "public", "operator:wikidata": "Q668687", "ref": "2936800000"}, "type": "Feature"}
{"geometry": {"coordinates": [-81.861440691, 35.082447728], "type": "Point"}, "id": "UEyOIt7m3kfM8suQjmK51SWRKio=", "properties": {"@source_uri": "https://tools.usps.com/UspsToolsRestServices/rest/POLocator/findLocations", "@spider": "usps_collection_boxes", "addr:city": "MAYO", "addr:country": "US", "addr:postcode": "29368", "addr:state": "SC", "addr:street_address": "4496 CHESNEE HWY", "amenity": "post_box", "collection_times": "Mo-Fr 15:45; Sa 09:45", "indoor": "yes", "note": "ON 12/24 AND 12/31, THIS BOX MAY BE COLLECTED AS EARLY AS 12 NOON.", "nsi_id": "unitedstatespostalservice-a77078", "operator": "United States Postal Service", "operator:short": "USPS", "operator:type": "public", "operator:wikidata": "Q668687", "ref": "2936800001"}, "type": "Feature"}
{"geometry": {"coordinates": [-81.861440691, 35.082447728], "type": "Point"}, "id": "ISv1Jp0TTKb8WW8QKUnpV5Zzj5s=", "properties": {"@source_uri": "https://tools.usps.com/UspsToolsRestServices/rest/POLocator/findLocations", "@spider": "usps_collection_boxes", "addr:city": "MAYO", "addr:country": "US", "addr:postcode": "29368", "addr:state": "SC", "addr:street_address": "4496 CHESNEE HWY", "amenity": "post_box", "collection_times": "Mo-Fr 15:45; Sa 09:45", "indoor": "yes", "note": "ON 12/24 AND 12/31, THIS BOX MAY BE COLLECTED AS EARLY AS 12 NOON.", "nsi_id": "unitedstatespostalservice-a77078", "operator": "United States Postal Service", "operator:short": "USPS", "operator:type": "public", "operator:wikidata": "Q668687", "ref": "2936800002"}, "type": "Feature"}
{"geometry": {"coordinates": [-81.861440691, 35.082447728], "type": "Point"}, "id": "awDvqHCj7TKhMH69064LiiKLgaU=", "properties": {"@source_uri": "https://tools.usps.com/UspsToolsRestServices/rest/POLocator/findLocations", "@spider": "usps_collection_boxes", "addr:city": "MAYO", "addr:country": "US", "addr:postcode": "29368", "addr:state": "SC", "addr:street_address": "4496 CHESNEE HWY", "amenity": "post_box", "collection_times": "Mo-Fr 15:45; Sa 09:45", "indoor": "yes", "note": "ON 12/24 AND 12/31, THIS BOX MAY BE COLLECTED AS EARLY AS 12 NOON.", "nsi_id": "unitedstatespostalservice-a77078", "operator": "United States Postal Service", "operator:short": "USPS", "operator:type": "public", "operator:wikidata": "Q668687", "ref": "2936800004"}, "type": "Feature"}
{"geometry": {"coordinates": [-82.023508362, 34.861602134], "type": "Point"}, "id": "l1WGmToV9NkSt0pgUp5OeVIQkI8=", "properties": {"@source_uri": "https://tools.usps.com/UspsToolsRestServices/rest/POLocator/findLocations", "@spider": "usps_collection_boxes", "addr:city": "MOORE", "addr:country": "US", "addr:postcode": "29369", "addr:state": "SC", "addr:street_address": "1129 MOORE DUNCAN HWY", "amenity": "post_box", "collection_times": "Mo-Fr 15:45; Sa 09:45", "indoor": "yes", "note": "ON 12/24 AND 12/31, THIS BOX MAY BE COLLECTED AS EARLY AS 12 NOON.", "nsi_id": "unitedstatespostalservice-a77078", "operator": "United States Postal Service", "operator:short": "USPS", "operator:type": "public", "operator:wikidata": "Q668687", "ref": "2936900001"}, "type": "Feature"}
{"geometry": {"coordinates": [-81.9728924, 34.8946711], "type": "Point"}, "id": "sL91CUCHE-KtMkXF47eGrzIQnXQ=", "properties": {"@source_uri": "https://tools.usps.com/UspsToolsRestServices/rest/POLocator/findLocations", "@spider": "usps_collection_boxes", "addr:city": "MOORE", "addr:country": "US", "addr:postcode": "29369", "addr:state": "SC", "addr:street_address": "1129 MOORE DUNCAN HWY", "amenity": "post_box", "collection_times": "Mo-Fr 15:45; Sa 09:45", "note": "ON 12/24 AND 12/31, THIS BOX MAY BE COLLECTED AS EARLY AS 12 NOON.", "nsi_id": "unitedstatespostalservice-a77078", "operator": "United States Postal Service", "operator:short": "USPS", "operator:type": "public", "operator:wikidata": "Q668687", "ref": "2936900004"}, "type": "Feature"}
{"geometry": {"coordinates": [-82.023508362, 34.861602134], "type": "Point"}, "id": "YT8zGgPOcFZNtJ3MlZwA9YJQ6CU=", "properties": {"@source_uri": "https://tools.usps.com/UspsToolsRestServices/rest/POLocator/findLocations", "@spider": "usps_collection_boxes", "addr:city": "MOORE", "addr:country": "US", "addr:postcode": "29369", "addr:state": "SC", "addr:street_address": "1129 MOORE DUNCAN HWY", "amenity": "post_box", "collection_times": "Mo-Fr 15:45; Sa 09:45", "indoor": "yes", "note": "ON 12/24 AND 12/31, THIS BOX MAY BE COLLECTED AS EARLY AS 12 NOON.", "nsi_id": "unitedstatespostalservice-a77078", "operator": "United States Postal Service", "operator:short": "USPS", "operator:type": "public", "operator:wikidata": "Q668687", "ref": "2936900006"}, "type": "Feature"}
{"geometry": {"coordinates": [-81.968839036, 34.361445081], "type": "Point"}, "id": "7XmOjiHrtO0w7N4mQbm9mzFWH7U=", "properties": {"@source_uri": "https://tools.usps.com/UspsToolsRestServices/rest/POLocator/findLocations", "@spider": "usps_collection_boxes", "addr:city": "MOUNTVILLE", "addr:country": "US", "addr:postcode": "29370", "addr:state": "SC", "addr:street_address": "1466 MOUNTVILLE RD", "amenity": "post_box", "collection_times": "Mo-Fr 15:45; Sa 09:45", "indoor": "yes", "note": "ON 12/24 AND 12/31, THIS BOX MAY BE COLLECTED AS EARLY AS 12 NOON.", "nsi_id": "unitedstatespostalservice-a77078", "operator": "United States Postal Service", "operator:short": "USPS", "operator:type": "public", "operator:wikidata": "Q668687", "ref": "2937000001"}, "type": "Feature"}
{"geometry": {"coordinates": [-81.968839036, 34.361445081], "type": "Point"}, "id": "0XTHQ4gaPXSDmh57HyYU87nxdRI=", "properties": {"@source_uri": "https://tools.usps.com/UspsToolsRestServices/rest/POLocator/findLocations", "@spider": "usps_collection_boxes", "addr:city": "MOUNTVILLE", "addr:country": "US", "addr:postcode": "29370", "addr:state": "SC", "addr:street_address": "1466 MOUNTVILLE RD", "amenity": "post_box", "collection_times": "Mo-Fr 15:45; Sa 09:45", "note": "ON 12/24 AND 12/31, THIS BOX MAY BE COLLECTED AS EARLY AS 12 NOON.", "nsi_id": "unitedstatespostalservice-a77078", "operator": "United States Postal Service", "operator:short": "USPS", "operator:type": "public", "operator:wikidata": "Q668687", "ref": "2937000002"}, "type": "Feature"}
{"geometry": {"coordinates": [-81.968839036, 34.361445081], "type": "Point"}, "id": "PzZUnCb8cP2eU846NOURroxpBec=", "properties": {"@source_uri": "https://tools.usps.com/UspsToolsRestServices/rest/POLocator/findLocations", "@spider": "usps_collection_boxes", "addr:city": "MOUNTVILLE", "addr:country": "US", "addr:postcode": "29370", "addr:state": "SC", "addr:street_address": "1466 MOUNTVILLE RD", "amenity": "post_box", "collection_times": "Mo-Fr 15:45; Sa 09:45", "indoor": "yes", "note": "ON 12/24 AND 12/31, THIS BOX MAY BE COLLECTED AS EARLY AS 12 NOON.", "nsi_id": "unitedstatespostalservice-a77078", "operator": "United States Postal Service", "operator:short": "USPS", "operator:type": "public", "operator:wikidata": "Q668687", "ref": "2937000004"}, "type": "Feature"}
{"geometry": {"coordinates": [-81.763992993, 34.900234928], "type": "Point"}, "id": "SYzL7P4vqzZXZ2QxbG8SqaMTTEY=", "properties": {"@source_uri": "https://tools.usps.com/UspsToolsRestServices/rest/POLocator/findLocations", "@spider": "usps_collection_boxes", "addr:city": "PACOLET", "addr:country": "US", "addr:postcode": "29372", "addr:state": "SC", "addr:street_address": "250 W MAIN ST", "amenity": "post_box", "collection_times": "Mo-Fr 15:45; Sa 09:45", "note": "ON 12/24 AND 12/31, THIS BOX MAY BE COLLECTED AS EARLY AS 12 NOON.", "nsi_id": "unitedstatespostalservice-a77078", "operator": "United States Postal Service", "operator:short": "USPS", "operator:type": "public", "operator:wikidata": "Q668687", "ref": "2937200000"}, "type": "Feature"}
{"geometry": {"coordinates": [-81.763992993, 34.900234928], "type": "Point"}, "id": "vS7kQKv7jz1sNXVYbncH3xWrhF4=", "properties": {"@source_uri": "https://tools.usps.com/UspsToolsRestServices/rest/POLocator/findLocations", "@spider": "usps_collection_boxes", "addr:city": "PACOLET", "addr:country": "US", "addr:postcode": "29372", "addr:state": "SC", "addr:street_address": "250 W MAIN ST", "amenity": "post_box", "collection_times": "Mo-Fr 15:45; Sa 09:45", "indoor": "yes", "note": "ON 12/24 AND 12/31, THIS BOX MAY BE COLLECTED AS EARLY AS 12 NOON.", "nsi_id": "unitedstatespostalservice-a77078", "operator": "United States Postal Service", "operator:short": "USPS", "operator:type": "public", "operator:wikidata": "Q668687", "ref": "2937200001"}, "type": "Feature"}
{"geometry": {"coordinates": [-81.763992993, 34.900234928], "type": "Point"}, "id": "w8Ms2xsYxOseEvFCxFnPhcmjGHI=", "properties": {"@source_uri": "https://tools.usps.com/UspsToolsRestServices/rest/POLocator/findLocations", "@spider": "usps_collection_boxes", "addr:city": "PACOLET", "addr:country": "US", "addr:postcode": "29372", "addr:state": "SC", "addr:street_address": "250 W MAIN ST", "amenity": "post_box", "collection_times": "Mo-Fr 15:45; Sa 09:45", "indoor": "yes", "note": "ON 12/24 AND 12/31, THIS BOX MAY BE COLLECTED AS EARLY AS 12 NOON.", "nsi_id": "unitedstatespostalservice-a77078", "operator": "United States Postal Service", "operator:short": "USPS", "operator:type": "public", "operator:wikidata": "Q668687", "ref": "2937200003"}, "type": "Feature"}
{"geometry": {"coordinates": [-81.741347729, 34.920246478], "type": "Point"}, "id": "Y2mfmrpSljxz2pY6FQSIPftUtNE=", "properties": {"@source_uri": "https://tools.usps.com/UspsToolsRestServices/rest/POLocator/findLocations", "@spider": "usps_collection_boxes", "addr:city": "PACOLET MILLS", "addr:country": "US", "addr:postcode": "29373", "addr:state": "SC", "addr:street_address": "215 MONTGOMERY AVE", "amenity": "post_box", "collection_times": "Mo-Fr 11:15; Sa 09:45", "nsi_id": "unitedstatespostalservice-a77078", "operator": "United States Postal Service", "operator:short": "USPS", "operator:type": "public", "operator:wikidata": "Q668687", "ref": "2937300000"}, "type": "Feature"}
{"geometry": {"coordinates": [-81.741347729, 34.920246478], "type": "Point"}, "id": "Hd9rLEHDyZnaExtzPCjSxTH8MPM=", "properties": {"@source_uri": "https://tools.usps.com/UspsToolsRestServices/rest/POLocator/findLocations", "@spider": "usps_collection_boxes", "addr:city": "PACOLET MILLS", "addr:country": "US", "addr:postcode": "29373", "addr:state": "SC", "addr:street_address": "215 MONTGOMERY AVE", "amenity": "post_box", "collection_times": "Mo-Fr 11:15; Sa 09:45", "indoor": "yes", "nsi_id": "unitedstatespostalservice-a77078", "operator": "United States Postal Service", "operator:short": "USPS", "operator:type": "public", "operator:wikidata": "Q668687", "ref": "2937300001"}, "type": "Feature"}
{"geometry": {"coordinates": [-81.741347729, 34.920246478], "type": "Point"}, "id": "hVIZe4eh0Y8HdN4eJdkaz8hMoF0=", "properties": {"@source_uri": "https://tools.usps.com/UspsToolsRestServices/rest/POLocator/findLocations", "@spider": "usps_collection_boxes", "addr:city": "PACOLET MILLS", "addr:country": "US", "addr:postcode": "29373", "addr:state": "SC", "addr:street_address": "215 MONTGOMERY AVE", "amenity": "post_box", "collection_times": "Mo-Fr 11:15; Sa 09:45", "indoor": "yes", "nsi_id": "unitedstatespostalservice-a77078", "operator": "United States Postal Service", "operator:short": "USPS", "operator:type": "public", "operator:wikidata": "Q668687", "ref": "2937300003"}, "type": "Feature"}
{"geometry": {"coordinates": [-81.871408803, 34.830679596], "type": "Point"}, "id": "xWu62QQIwhGuCvWfGiHJkjynnRI=", "properties": {"@source_uri": "https://tools.usps.com/UspsToolsRestServices/rest/POLocator/findLocations", "@spider": "usps_collection_boxes", "addr:city": "PAULINE", "addr:country": "US", "addr:postcode": "29374", "addr:state": "SC", "addr:street_address": "2990 HIGHWAY 56", "amenity": "post_box", "collection_times": "Mo-Fr 15:45; Sa 09:45", "note": "ON 12/24 AND 12/31, THIS BOX MAY BE COLLECTED AS EARLY AS 12 NOON.", "nsi_id": "unitedstatespostalservice-a77078", "operator": "United States Postal Service", "operator:short": "USPS", "operator:type": "public", "operator:wikidata": "Q668687", "ref": "2937400000"}, "type": "Feature"}
{"geometry": {"coordinates": [-81.871408803, 34.830679596], "type": "Point"}, "id": "qanCvzKvLPYa2g93O6j55wFa3io=", "properties": {"@source_uri": "https://tools.usps.com/UspsToolsRestServices/rest/POLocator/findLocations", "@spider": "usps_collection_boxes", "addr:city": "PAULINE", "addr:country": "US", "addr:postcode": "29374", "addr:state": "SC", "addr:street_address": "2990 HIGHWAY 56", "amenity": "post_box", "collection_times": "Mo-Fr 15:45; Sa 09:45", "indoor": "yes", "note": "ON 12/24 AND 12/31, THIS BOX MAY BE COLLECTED AS EARLY AS 12 NOON.", "nsi_id": "unitedstatespostalservice-a77078", "operator": "United States Postal Service", "operator:short": "USPS", "operator:type": "public", "operator:wikidata": "Q668687", "ref": "2937400001"}, "type": "Feature"}
{"geometry": {"coordinates": [-81.871408803, 34.830679596], "type": "Point"}, "id": "wARdDh4kg8REBT_2e0EELcNXE70=", "properties": {"@source_uri": "https://tools.usps.com/UspsToolsRestServices/rest/POLocator/findLocations", "@spider": "usps_collection_boxes", "addr:city": "PAULINE", "addr:country": "US", "addr:postcode": "29374", "addr:state": "SC", "addr:street_address": "2990 HIGHWAY 56", "amenity": "post_box", "collection_times": "Mo-Fr 15:45; Sa 09:45", "indoor": "yes", "note": "ON 12/24 AND 12/31, THIS BOX MAY BE COLLECTED AS EARLY AS 12 NOON.", "nsi_id": "unitedstatespostalservice-a77078", "operator": "United States Postal Service", "operator:short": "USPS", "operator:type": "public", "operator:wikidata": "Q668687", "ref": "2937400003"}, "type": "Feature"}
{"geometry": {"coordinates": [-82.11749817, 34.863676476], "type": "Point"}, "id": "pRPiEB77fspU07krQqakMVqz8-8=", "properties": {"@source_uri": "https://tools.usps.com/UspsToolsRestServices/rest/POLocator/findLocations", "@spider": "usps_collection_boxes", "addr:city": "REIDVILLE", "addr:country": "US", "addr:postcode": "29375", "addr:state": "SC", "addr:street_address": "7460 REIDVILLE RD", "amenity": "post_box", "collection_times": "Mo-Fr 15:45; Sa 09:45", "note": "ON 12/24 AND 12/31, THIS BOX MAY BE COLLECTED AS EARLY AS 12 NOON.", "nsi_id": "unitedstatespostalservice-a77078", "operator": "United States Postal Service", "operator:short": "USPS", "operator:type": "public", "operator:wikidata": "Q668687", "ref": "2937500000"}, "type": "Feature"}
{"geometry": {"coordinates": [-82.11749817, 34.863676476], "type": "Point"}, "id": "913h02qblOsAaHYoYWZ1pD58wbw=", "properties": {"@source_uri": "https://tools.usps.com/UspsToolsRestServices/rest/POLocator/findLocations", "@spider": "usps_collection_boxes", "addr:city": "REIDVILLE", "addr:country": "US", "addr:postcode": "29375", "addr:state": "SC", "addr:street_address": "7460 REIDVILLE RD", "amenity": "post_box", "collection_times": "Mo-Fr 15:45; Sa 09:45", "indoor": "yes", "note": "ON 12/24 AND 12/31, THIS BOX MAY BE COLLECTED AS EARLY AS 12 NOON.", "nsi_id": "unitedstatespostalservice-a77078", "operator": "United States Postal Service", "operator:short": "USPS", "operator:type": "public", "operator:wikidata": "Q668687", "ref": "2937500001"}, "type": "Feature"}
{"geometry": {"coordinates": [-82.11749817, 34.863676476], "type": "Point"}, "id": "pIH6XUh73DqTNAlTvCoHFmyFlhg=", "properties": {"@source_uri": "https://tools.usps.com/UspsToolsRestServices/rest/POLocator/findLocations", "@spider": "usps_collection_boxes", "addr:city": "REIDVILLE", "addr:country": "US", "addr:postcode": "29375", "addr:state": "SC", "addr:street_address": "7460 REIDVILLE RD", "amenity": "post_box", "collection_times": "Mo-Fr 15:45; Sa 09:45", "indoor": "yes", "note": "ON 12/24 AND 12/31, THIS BOX MAY BE COLLECTED AS EARLY AS 12 NOON.", "nsi_id": "unitedstatespostalservice-a77078", "operator": "United States Postal Service", "operator:short": "USPS", "operator:type": "public", "operator:wikidata": "Q668687", "ref": "2937500003"}, "type": "Feature"}
{"geometry": {"coordinates": [-82.11749817, 34.863676476], "type": "Point"}, "id": "Ff1YESuvO61je2MQdzSTWdfv_Ck=", "properties": {"@source_uri": "https://tools.usps.com/UspsToolsRestServices/rest/POLocator/findLocations", "@spider": "usps_collection_boxes", "addr:city": "REIDVILLE", "addr:country": "US", "addr:postcode": "29375", "addr:state": "SC", "addr:street_address": "7460 REIDVILLE RD", "amenity": "post_box", "collection_times": "Mo-Fr 15:45; Sa 09:45", "indoor": "yes", "note": "ON 12/24 AND 12/31, THIS BOX MAY BE COLLECTED AS EARLY AS 12 NOON.", "nsi_id": "unitedstatespostalservice-a77078", "operator": "United States Postal Service", "operator:short": "USPS", "operator:type": "public", "operator:wikidata": "Q668687", "ref": "2937500004"}, "type": "Feature"}
{"geometry": {"coordinates": [-81.9569108168, 34.8827719945], "type": "Point"}, "id": "MCKcOePN7yesIbNqtM_mlE9LLF0=", "properties": {"@source_uri": "https://tools.usps.com/UspsToolsRestServices/rest/POLocator/findLocations", "@spider": "usps_collection_boxes", "addr:city": "ROEBUCK", "addr:country": "US", "addr:postcode": "29376", "addr:state": "SC", "addr:street_address": "4301 S CHURCH STREET EXT", "amenity": "post_box", "collection_times": "Mo-Fr 15:45; Sa 10:45", "note": "ON 12/24 AND 12/31, THIS BOX MAY BE COLLECTED AS EARLY AS 12 NOON.", "nsi_id": "unitedstatespostalservice-a77078", "operator": "United States Postal Service", "operator:short": "USPS", "operator:type": "public", "operator:wikidata": "Q668687", "ref": "2937600000"}, "type": "Feature"}
{"geometry": {"coordinates": [-81.956910817, 34.882771994], "type": "Point"}, "id": "z8vT7GRlC39TRihqPNj9wHqE6DY=", "properties": {"@source_uri": "https://tools.usps.com/UspsToolsRestServices/rest/POLocator/findLocations", "@spider": "usps_collection_boxes", "addr:city": "ROEBUCK", "addr:country": "US", "addr:postcode": "29376", "addr:state": "SC", "addr:street_address": "4301 S CHURCH STREET EXT", "amenity": "post_box", "collection_times": "Mo-Fr 15:45; Sa 10:45", "indoor": "yes", "note": "ON 12/24 AND 12/31, THIS BOX MAY BE COLLECTED AS EARLY AS 12 NOON.", "nsi_id": "unitedstatespostalservice-a77078", "operator": "United States Postal Service", "operator:short": "USPS", "operator:type": "public", "operator:wikidata": "Q668687", "ref": "2937600001"}, "type": "Feature"}
{"geometry": {"coordinates": [-81.956910817, 34.882771994], "type": "Point"}, "id": "uya5l49cQ-L6gg0nnRO-zaIUx0s=", "properties": {"@source_uri": "https://tools.usps.com/UspsToolsRestServices/rest/POLocator/findLocations", "@spider": "usps_collection_boxes", "addr:city": "ROEBUCK", "addr:country": "US", "addr:postcode": "29376", "addr:state": "SC", "addr:street_address": "4301 S CHURCH STREET EXT", "amenity": "post_box", "collection_times": "Mo-Fr 15:45; Sa 10:45", "indoor": "yes", "note": "ON 12/24 AND 12/31, THIS BOX MAY BE COLLECTED AS EARLY AS 12 NOON.", "nsi_id": "unitedstatespostalservice-a77078", "operator": "United States Postal Service", "operator:short": "USPS", "operator:type": "public", "operator:wikidata": "Q668687", "ref": "2937600003"}, "type": "Feature"}
{"geometry": {"coordinates": [-81.956910817, 34.882771994], "type": "Point"}, "id": "RSwpCJX7zzwVv7iYu8ErkFCqRMo=", "properties": {"@source_uri": "https://tools.usps.com/UspsToolsRestServices/rest/POLocator/findLocations", "@spider": "usps_collection_boxes", "addr:city": "ROEBUCK", "addr:country": "US", "addr:postcode": "29376", "addr:state": "SC", "addr:street_address": "4301 S CHURCH STREET EXT", "amenity": "post_box", "collection_times": "Mo-Fr 15:45; Sa 10:45", "indoor": "yes", "note": "ON 12/24 AND 12/31, THIS BOX MAY BE COLLECTED AS EARLY AS 12 NOON.", "nsi_id": "unitedstatespostalservice-a77078", "operator": "United States Postal Service", "operator:short": "USPS", "operator:type": "public", "operator:wikidata": "Q668687", "ref": "2937600005"}, "type": "Feature"}
{"geometry": {"coordinates": [-82.098335909, 34.928442399], "type": "Point"}, "id": "rd0wwvkdxazjbVmjVSNcfi2YrNw=", "properties": {"@source_uri": "https://tools.usps.com/UspsToolsRestServices/rest/POLocator/findLocations", "@spider": "usps_collection_boxes", "addr:city": "STARTEX", "addr:country": "US", "addr:postcode": "29377", "addr:state": "SC", "addr:street_address": "21 N MAIN ST", "amenity": "post_box", "collection_times": "Mo-Fr 15:45; Sa 09:45", "note": "ON 12/24 AND 12/31, THIS BOX MAY BE COLLECTED AS EARLY AS 12 NOON.", "nsi_id": "unitedstatespostalservice-a77078", "operator": "United States Postal Service", "operator:short": "USPS", "operator:type": "public", "operator:wikidata": "Q668687", "ref": "2937700000"}, "type": "Feature"}
{"geometry": {"coordinates": [-82.098335909, 34.928442399], "type": "Point"}, "id": "6w_PXxHBGHObHAcgIAsS_KME3yY=", "properties": {"@source_uri": "https://tools.usps.com/UspsToolsRestServices/rest/POLocator/findLocations", "@spider": "usps_collection_boxes", "addr:city": "STARTEX", "addr:country": "US", "addr:postcode": "29377", "addr:state": "SC", "addr:street_address": "21 N MAIN ST", "amenity": "post_box", "collection_times": "Mo-Fr 15:45; Sa 09:45", "indoor": "yes", "note": "ON 12/24 AND 12/31, THIS BOX MAY BE COLLECTED AS EARLY AS 12 NOON.", "nsi_id": "unitedstatespostalservice-a77078", "operator": "United States Postal Service", "operator:short": "USPS", "operator:type": "public", "operator:wikidata": "Q668687", "ref": "2937700001"}, "type": "Feature"}
{"geometry": {"coordinates": [-82.098335909, 34.928442399], "type": "Point"}, "id": "RVycm-Fg53w23MVWohIA8Xv6wWs=", "properties": {"@source_uri": "https://tools.usps.com/UspsToolsRestServices/rest/POLocator/findLocations", "@spider": "usps_collection_boxes", "addr:city": "STARTEX", "addr:country": "US", "addr:postcode": "29377", "addr:state": "SC", "addr:street_address": "21 N MAIN ST", "amenity": "post_box", "collection_times": "Mo-Fr 15:45; Sa 09:45", "indoor": "yes", "note": "ON 12/24 AND 12/31, THIS BOX MAY BE COLLECTED AS EARLY AS 12 NOON.", "nsi_id": "unitedstatespostalservice-a77078", "operator": "United States Postal Service", "operator:short": "USPS", "operator:type": "public", "operator:wikidata": "Q668687", "ref": "2937700003"}, "type": "Feature"}
{"geometry": {"coordinates": [-81.969403724, 34.966309245], "type": "Point"}, "id": "M42Tv2GeaJvQFCj9XjqEhBXbKnk=", "properties": {"@source_uri": "https://tools.usps.com/UspsToolsRestServices/rest/POLocator/findLocations", "@spider": "usps_collection_boxes", "addr:city": "UNA", "addr:country": "US", "addr:postcode": "29378", "addr:state": "SC", "addr:street_address": "331 SIBLEY ST", "amenity": "post_box", "collection_times": "Mo-Fr 15:45; Sa 09:45", "indoor": "yes", "note": "ON 12/24 AND 12/31, THIS BOX MAY BE COLLECTED AS EARLY AS 12 NOON.", "nsi_id": "unitedstatespostalservice-a77078", "operator": "United States Postal Service", "operator:short": "USPS", "operator:type": "public", "operator:wikidata": "Q668687", "ref": "2937800000"}, "type": "Feature"}
{"geometry": {"coordinates": [-81.969403724, 34.966309245], "type": "Point"}, "id": "SrAhYEWGeaZG7XgnX8f3GsUJLQI=", "properties": {"@source_uri": "https://tools.usps.com/UspsToolsRestServices/rest/POLocator/findLocations", "@spider": "usps_collection_boxes", "addr:city": "UNA", "addr:country": "US", "addr:postcode": "29378", "addr:state": "SC", "addr:street_address": "331 SIBLEY ST", "amenity": "post_box", "collection_times": "Mo-Fr 15:45; Sa 09:45", "note": "ON 12/24 AND 12/31, THIS BOX MAY BE COLLECTED AS EARLY AS 12 NOON.", "nsi_id": "unitedstatespostalservice-a77078", "operator": "United States Postal Service", "operator:short": "USPS", "operator:type": "public", "operator:wikidata": "Q668687", "ref": "2937800001"}, "type": "Feature"}
{"geometry": {"coordinates": [-81.969403724, 34.966309245], "type": "Point"}, "id": "srISI0FxCELMCoub6teQq_NkTNA=", "properties": {"@source_uri": "https://tools.usps.com/UspsToolsRestServices/rest/POLocator/findLocations", "@spider": "usps_collection_boxes", "addr:city": "UNA", "addr:country": "US", "addr:postcode": "29378", "addr:state": "SC", "addr:street_address": "331 SIBLEY ST", "amenity": "post_box", "collection_times": "Mo-Fr 15:45; Sa 09:45", "indoor": "yes", "note": "ON 12/24 AND 12/31, THIS BOX MAY BE COLLECTED AS EARLY AS 12 NOON.", "nsi_id": "unitedstatespostalservice-a77078", "operator": "United States Postal Service", "operator:short": "USPS", "operator:type": "public", "operator:wikidata": "Q668687", "ref": "2937800003"}, "type": "Feature"}
{"geometry": {"coordinates": [-81.6199442, 34.715466], "type": "Point"}, "id": "C8gFfNyeMOY2P69CCmGap-tVQmM=", "properties": {"@source_uri": "https://tools.usps.com/UspsToolsRestServices/rest/POLocator/findLocations", "@spider": "usps_collection_boxes", "addr:city": "UNION", "addr:country": "US", "addr:postcode": "29379", "addr:state": "SC", "addr:street_address": "400 E MAIN ST", "amenity": "post_box", "collection_times": "Mo-Sa 15:15", "note": "ON 12/24 AND 12/31, THIS BOX MAY BE COLLECTED AS EARLY AS 12 NOON.", "nsi_id": "unitedstatespostalservice-a77078", "operator": "United States Postal Service", "operator:short": "USPS", "operator:type": "public", "operator:wikidata": "Q668687", "ref": "2937900001"}, "type": "Feature"}
{"geometry": {"coordinates": [-81.6365610257, 34.7037139976], "type": "Point"}, "id": "I5bR1ygGXS_L7NaN55EOzCpPBr8=", "properties": {"@source_uri": "https://tools.usps.com/UspsToolsRestServices/rest/POLocator/findLocations", "@spider": "usps_collection_boxes", "addr:city": "UNION", "addr:country": "US", "addr:postcode": "29379", "addr:state": "SC", "addr:street_address": "804 INDUSTRIAL PARK RD", "amenity": "post_box", "collection_times": "Mo-Fr 16:15; Sa 15:30", "note": "ON 12/24 AND 12/31, THIS BOX MAY BE COLLECTED AS EARLY AS 12 NOON.", "nsi_id": "unitedstatespostalservice-a77078", "operator": "United States Postal Service", "operator:short": "USPS", "operator:type": "public", "operator:wikidata": "Q668687", "ref": "2937900002"}, "type": "Feature"}
{"geometry": {"coordinates": [-81.6224389, 34.715276], "type": "Point"}, "id": "uJbP1Gt_eCofzPk5wC26LtfL0nY=", "properties": {"@source_uri": "https://tools.usps.com/UspsToolsRestServices/rest/POLocator/findLocations", "@spider": "usps_collection_boxes", "addr:city": "UNION", "addr:country": "US", "addr:postcode": "29379", "addr:state": "SC", "addr:street_address": "200 E MAIN ST", "amenity": "post_box", "collection_times": "Mo-Sa 15:00", "note": "ON 12/24 AND 12/31, THIS BOX MAY BE COLLECTED AS EARLY AS 12 NOON.", "nsi_id": "unitedstatespostalservice-a77078", "operator": "United States Postal Service", "operator:short": "USPS", "operator:type": "public", "operator:wikidata": "Q668687", "ref": "2937900009"}, "type": "Feature"}
{"geometry": {"coordinates": [-81.6250199, 34.71563], "type": "Point"}, "id": "BA1QVUt3EA3Wnyo5nXYo9ThfTQo=", "properties": {"@source_uri": "https://tools.usps.com/UspsToolsRestServices/rest/POLocator/findLocations", "@spider": "usps_collection_boxes", "addr:city": "UNION", "addr:country": "US", "addr:postcode": "29379", "addr:state": "SC", "addr:street_address": "100 SHARPE AVE", "amenity": "post_box", "collection_times": "Mo-Sa 15:00", "note": "ON 12/24 AND 12/31, THIS BOX MAY BE COLLECTED AS EARLY AS 12 NOON.", "nsi_id": "unitedstatespostalservice-a77078", "operator": "United States Postal Service", "operator:short": "USPS", "operator:type": "public", "operator:wikidata": "Q668687", "ref": "2937900010"}, "type": "Feature"}
{"geometry": {"coordinates": [-81.6291789, 34.725401], "type": "Point"}, "id": "emlV-sPJHsjwyHV11sQPk0S2wfA=", "properties": {"@source_uri": "https://tools.usps.com/UspsToolsRestServices/rest/POLocator/findLocations", "@spider": "usps_collection_boxes", "addr:city": "UNION", "addr:country": "US", "addr:postcode": "29379", "addr:state": "SC", "addr:street_address": "315 THOMPSON BLVD", "amenity": "post_box", "collection_times": "Mo-Sa 15:00", "note": "ON 12/24 AND 12/31, THIS BOX MAY BE COLLECTED AS EARLY AS 12 NOON.", "nsi_id": "unitedstatespostalservice-a77078", "operator": "United States Postal Service", "operator:short": "USPS", "operator:type": "public", "operator:wikidata": "Q668687", "ref": "2937900013"}, "type": "Feature"}
{"geometry": {"coordinates": [-81.6237023, 34.715186], "type": "Point"}, "id": "wXWSrKVetGuc5NTkxYHeu2TpRQQ=", "properties": {"@source_uri": "https://tools.usps.com/UspsToolsRestServices/rest/POLocator/findLocations", "@spider": "usps_collection_boxes", "addr:city": "UNION", "addr:country": "US", "addr:postcode": "29379", "addr:state": "SC", "addr:street_address": "100 E MAIN ST", "amenity": "post_box", "collection_times": "Mo-Sa 15:00", "note": "ON 12/24 AND 12/31, THIS BOX MAY BE COLLECTED AS EARLY AS 12 NOON.", "nsi_id": "unitedstatespostalservice-a77078", "operator": "United States Postal Service", "operator:short": "USPS", "operator:type": "public", "operator:wikidata": "Q668687", "ref": "2937900017"}, "type": "Feature"}
{"geometry": {"coordinates": [-81.637792478, 34.703884216], "type": "Point"}, "id": "7voUk3EWBNX0u46lkJbJjvU1was=", "properties": {"@source_uri": "https://tools.usps.com/UspsToolsRestServices/rest/POLocator/findLocations", "@spider": "usps_collection_boxes", "addr:city": "UNION", "addr:country": "US", "addr:postcode": "29379", "addr:state": "SC", "addr:street_address": "804 INDUSTRIAL PARK RD", "amenity": "post_box", "collection_times": "Mo-Fr 16:15; Sa 15:30", "indoor": "yes", "note": "ON 12/24 AND 12/31, THIS BOX MAY BE COLLECTED AS EARLY AS 12 NOON.", "nsi_id": "unitedstatespostalservice-a77078", "operator": "United States Postal Service", "operator:short": "USPS", "operator:type": "public", "operator:wikidata": "Q668687", "ref": "2937900029"}, "type": "Feature"}
{"geometry": {"coordinates": [-81.637792478, 34.703884216], "type": "Point"}, "id": "nMMTEP0VtS_eQMLR17LGVJuAryk=", "properties": {"@source_uri": "https://tools.usps.com/UspsToolsRestServices/rest/POLocator/findLocations", "@spider": "usps_collection_boxes", "addr:city": "UNION", "addr:country": "US", "addr:postcode": "29379", "addr:state": "SC", "addr:street_address": "804 INDUSTRIAL PARK RD", "amenity": "post_box", "collection_times": "Mo-Fr 16:15; Sa 15:30", "indoor": "yes", "note": "ON 12/24 AND 12/31, THIS BOX MAY BE COLLECTED AS EARLY AS 12 NOON.", "nsi_id": "unitedstatespostalservice-a77078", "operator": "United States Postal Service", "operator:short": "USPS", "operator:type": "public", "operator:wikidata": "Q668687", "ref": "2937900030"}, "type": "Feature"}
{"geometry": {"coordinates": [-81.6387747, 34.720077], "type": "Point"}, "id": "SZd4TIuNWapE29K9vWDZKp8hb90=", "properties": {"@source_uri": "https://tools.usps.com/UspsToolsRestServices/rest/POLocator/findLocations", "@spider": "usps_collection_boxes", "addr:city": "UNION", "addr:country": "US", "addr:postcode": "29379", "addr:state": "SC", "addr:street_address": "408 N DUNCAN BY-PASS", "amenity": "post_box", "collection_times": "Mo-Sa 11:00", "nsi_id": "unitedstatespostalservice-a77078", "operator": "United States Postal Service", "operator:short": "USPS", "operator:type": "public", "operator:wikidata": "Q668687", "ref": "2937900031"}, "type": "Feature"}
{"geometry": {"coordinates": [-81.637792478, 34.703884216], "type": "Point"}, "id": "RCCLm-pzr_sFXuK0vfDX9UcX8s4=", "properties": {"@source_uri": "https://tools.usps.com/UspsToolsRestServices/rest/POLocator/findLocations", "@spider": "usps_collection_boxes", "addr:city": "UNION", "addr:country": "US", "addr:postcode": "29379", "addr:state": "SC", "addr:street_address": "804 INDUSTRIAL PARK RD", "amenity": "post_box", "collection_times": "Mo-Fr 16:00; Sa 15:00", "indoor": "yes", "note": "ON 12/24 AND 12/31, THIS BOX MAY BE COLLECTED AS EARLY AS 12 NOON.", "nsi_id": "unitedstatespostalservice-a77078", "operator": "United States Postal Service", "operator:short": "USPS", "operator:type": "public", "operator:wikidata": "Q668687", "ref": "2937900039"}, "type": "Feature"}
{"geometry": {"coordinates": [-82.055978834, 34.357861506], "type": "Point"}, "id": "XhG9wlgKLlcPs73nihYaSuLge5s=", "properties": {"@source_uri": "https://tools.usps.com/UspsToolsRestServices/rest/POLocator/findLocations", "@spider": "usps_collection_boxes", "addr:city": "WATERLOO", "addr:country": "US", "addr:postcode": "29384", "addr:state": "SC", "addr:street_address": "11219 HIGHWAY 221 S", "amenity": "post_box", "collection_times": "Mo-Fr 15:45; Sa 09:45", "indoor": "yes", "note": "ON 12/24 AND 12/31, THIS BOX MAY BE COLLECTED AS EARLY AS 12 NOON.", "nsi_id": "unitedstatespostalservice-a77078", "operator": "United States Postal Service", "operator:short": "USPS", "operator:type": "public", "operator:wikidata": "Q668687", "ref": "2938400001"}, "type": "Feature"}
{"geometry": {"coordinates": [-82.055978834, 34.357861506], "type": "Point"}, "id": "zSDZ93BdFL1UvM6Nf4W8qPOyWOo=", "properties": {"@source_uri": "https://tools.usps.com/UspsToolsRestServices/rest/POLocator/findLocations", "@spider": "usps_collection_boxes", "addr:city": "WATERLOO", "addr:country": "US", "addr:postcode": "29384", "addr:state": "SC", "addr:street_address": "11219 HIGHWAY 221 S", "amenity": "post_box", "collection_times": "Mo-Fr 15:45; Sa 09:45", "indoor": "yes", "note": "ON 12/24 AND 12/31, THIS BOX MAY BE COLLECTED AS EARLY AS 12 NOON.", "nsi_id": "unitedstatespostalservice-a77078", "operator": "United States Postal Service", "operator:short": "USPS", "operator:type": "public", "operator:wikidata": "Q668687", "ref": "2938400003"}, "type": "Feature"}
{"geometry": {"coordinates": [-82.098686244, 34.956087295], "type": "Point"}, "id": "ZXzgiXQEMSbiV-GPeBzsSm9IpxA=", "properties": {"@source_uri": "https://tools.usps.com/UspsToolsRestServices/rest/POLocator/findLocations", "@spider": "usps_collection_boxes", "addr:city": "WELLFORD", "addr:country": "US", "addr:postcode": "29385", "addr:state": "SC", "addr:street_address": "1003 MAIN ST", "amenity": "post_box", "collection_times": "Mo-Fr 15:45; Sa 09:15", "note": "ON 12/24 AND 12/31, THIS BOX MAY BE COLLECTED AS EARLY AS 12 NOON.", "nsi_id": "unitedstatespostalservice-a77078", "operator": "United States Postal Service", "operator:short": "USPS", "operator:type": "public", "operator:wikidata": "Q668687", "ref": "2938500000"}, "type": "Feature"}
{"geometry": {"coordinates": [-82.098686244, 34.956087295], "type": "Point"}, "id": "HwiwwFD1Glcc8kZky2NHQz3YkIw=", "properties": {"@source_uri": "https://tools.usps.com/UspsToolsRestServices/rest/POLocator/findLocations", "@spider": "usps_collection_boxes", "addr:city": "WELLFORD", "addr:country": "US", "addr:postcode": "29385", "addr:state": "SC", "addr:street_address": "1003 MAIN ST", "amenity": "post_box", "collection_times": "Mo-Fr 15:45; Sa 09:15", "indoor": "yes", "note": "ON 12/24 AND 12/31, THIS BOX MAY BE COLLECTED AS EARLY AS 12 NOON.", "nsi_id": "unitedstatespostalservice-a77078", "operator": "United States Postal Service", "operator:short": "USPS", "operator:type": "public", "operator:wikidata": "Q668687", "ref": "2938500001"}, "type": "Feature"}
{"geometry": {"coordinates": [-82.098686244, 34.956087295], "type": "Point"}, "id": "z7H7JDVzr5gy4s61BYOpJCPHe4E=", "properties": {"@source_uri": "https://tools.usps.com/UspsToolsRestServices/rest/POLocator/findLocations", "@spider": "usps_collection_boxes", "addr:city": "WELLFORD", "addr:country": "US", "addr:postcode": "29385", "addr:state": "SC", "addr:street_address": "1003 MAIN ST", "amenity": "post_box", "collection_times": "Mo-Fr 15:45; Sa 09:15", "indoor": "yes", "note": "ON 12/24 AND 12/31, THIS BOX MAY BE COLLECTED AS EARLY AS 12 NOON.", "nsi_id": "unitedstatespostalservice-a77078", "operator": "United States Postal Service", "operator:short": "USPS", "operator:type": "public", "operator:wikidata": "Q668687", "ref": "2938500003"}, "type": "Feature"}
{"geometry": {"coordinates": [-81.81761754, 34.903505192], "type": "Point"}, "id": "KZHbB1ujL7T9xrMHRzccV2V1FJc=", "properties": {"@source_uri": "https://tools.usps.com/UspsToolsRestServices/rest/POLocator/findLocations", "@spider": "usps_collection_boxes", "addr:city": "WHITE STONE", "addr:country": "US", "addr:postcode": "29386", "addr:state": "SC", "addr:street_address": "3430 SOUTHPORT RD", "amenity": "post_box", "collection_times": "Mo-Fr 15:45; Sa 09:45", "indoor": "yes", "note": "ON 12/24 AND 12/31, THIS BOX MAY BE COLLECTED AS EARLY AS 12 NOON.", "nsi_id": "unitedstatespostalservice-a77078", "operator": "United States Postal Service", "operator:short": "USPS", "operator:type": "public", "operator:wikidata": "Q668687", "ref": "2938600001"}, "type": "Feature"}
{"geometry": {"coordinates": [-81.81761754, 34.903505192], "type": "Point"}, "id": "1J9ZnRFYJ170eWc0A7-lzDhkGQE=", "properties": {"@source_uri": "https://tools.usps.com/UspsToolsRestServices/rest/POLocator/findLocations", "@spider": "usps_collection_boxes", "addr:city": "WHITE STONE", "addr:country": "US", "addr:postcode": "29386", "addr:state": "SC", "addr:street_address": "3430 SOUTHPORT RD", "amenity": "post_box", "collection_times": "Mo-Fr 15:45; Sa 09:45", "note": "ON 12/24 AND 12/31, THIS BOX MAY BE COLLECTED AS EARLY AS 12 NOON.", "nsi_id": "unitedstatespostalservice-a77078", "operator": "United States Postal Service", "operator:short": "USPS", "operator:type": "public", "operator:wikidata": "Q668687", "ref": "2938600002"}, "type": "Feature"}
{"geometry": {"coordinates": [-81.81761754, 34.903505192], "type": "Point"}, "id": "SmNngz8Z5V6U2XOjJBjVOZTKZ_o=", "properties": {"@source_uri": "https://tools.usps.com/UspsToolsRestServices/rest/POLocator/findLocations", "@spider": "usps_collection_boxes", "addr:city": "WHITE STONE", "addr:country": "US", "addr:postcode": "29386", "addr:state": "SC", "addr:street_address": "3430 SOUTHPORT RD", "amenity": "post_box", "collection_times": "Mo-Fr 15:45; Sa 09:45", "indoor": "yes", "note": "ON 12/24 AND 12/31, THIS BOX MAY BE COLLECTED AS EARLY AS 12 NOON.", "nsi_id": "unitedstatespostalservice-a77078", "operator": "United States Postal Service", "operator:short": "USPS", "operator:type": "public", "operator:wikidata": "Q668687", "ref": "2938600004"}, "type": "Feature"}
{"geometry": {"coordinates": [-82.043217941, 34.753580647], "type": "Point"}, "id": "4gELFSqE-zqrb-ITZX38Zr9fzG0=", "properties": {"@source_uri": "https://tools.usps.com/UspsToolsRestServices/rest/POLocator/findLocations", "@spider": "usps_collection_boxes", "addr:city": "WOODRUFF", "addr:country": "US", "addr:postcode": "29388", "addr:state": "SC", "addr:street_address": "955 N MAIN ST", "amenity": "post_box", "collection_times": "Mo-Fr 16:30; Sa 12:15", "note": "ON 12/24 AND 12/31, THIS BOX MAY BE COLLECTED AS EARLY AS 12 NOON.", "nsi_id": "unitedstatespostalservice-a77078", "operator": "United States Postal Service", "operator:short": "USPS", "operator:type": "public", "operator:wikidata": "Q668687", "ref": "2938800000"}, "type": "Feature"}
{"geometry": {"coordinates": [-82.043217941, 34.753580647], "type": "Point"}, "id": "PTbc6VY79aHRZrbJiIZGvJHOpgc=", "properties": {"@source_uri": "https://tools.usps.com/UspsToolsRestServices/rest/POLocator/findLocations", "@spider": "usps_collection_boxes", "addr:city": "WOODRUFF", "addr:country": "US", "addr:postcode": "29388", "addr:state": "SC", "addr:street_address": "955 N MAIN ST", "amenity": "post_box", "collection_times": "Mo-Fr 16:30; Sa 12:15", "indoor": "yes", "note": "ON 12/24 AND 12/31, THIS BOX MAY BE COLLECTED AS EARLY AS 12 NOON.", "nsi_id": "unitedstatespostalservice-a77078", "operator": "United States Postal Service", "operator:short": "USPS", "operator:type": "public", "operator:wikidata": "Q668687", "ref": "2938800002"}, "type": "Feature"}
{"geometry": {"coordinates": [-82.0366331, 34.739169], "type": "Point"}, "id": "PqYaYn4NWtCyh-XWaIV2hfG6T9M=", "properties": {"@source_uri": "https://tools.usps.com/UspsToolsRestServices/rest/POLocator/findLocations", "@spider": "usps_collection_boxes", "addr:city": "WOODRUFF", "addr:country": "US", "addr:postcode": "29388", "addr:state": "SC", "addr:street_address": "131 S MAIN ST", "amenity": "post_box", "collection_times": "Mo-Fr 12:00", "nsi_id": "unitedstatespostalservice-a77078", "operator": "United States Postal Service", "operator:short": "USPS", "operator:type": "public", "operator:wikidata": "Q668687", "ref": "2938800004"}, "type": "Feature"}
{"geometry": {"coordinates": [-82.0349141, 34.73735], "type": "Point"}, "id": "u3gzALEEhEV0Z4btVVjmqXSabiA=", "properties": {"@source_uri": "https://tools.usps.com/UspsToolsRestServices/rest/POLocator/findLocations", "@spider": "usps_collection_boxes", "addr:city": "WOODRUFF", "addr:country": "US", "addr:postcode": "29388", "addr:state": "SC", "addr:street_address": "345 S MAIN ST", "amenity": "post_box", "collection_times": "Mo-Fr 12:00", "nsi_id": "unitedstatespostalservice-a77078", "operator": "United States Postal Service", "operator:short": "USPS", "operator:type": "public", "operator:wikidata": "Q668687", "ref": "2938800006"}, "type": "Feature"}
{"geometry": {"coordinates": [-82.038159, 34.742028], "type": "Point"}, "id": "Wlwo6-uEpnN5CZRJ5UVPdsqqCRY=", "properties": {"@source_uri": "https://tools.usps.com/UspsToolsRestServices/rest/POLocator/findLocations", "@spider": "usps_collection_boxes", "addr:city": "WOODRUFF", "addr:country": "US", "addr:postcode": "29388", "addr:state": "SC", "addr:street_address": "247 N MAIN ST", "amenity": "post_box", "collection_times": "Mo-Fr 12:00", "nsi_id": "unitedstatespostalservice-a77078", "operator": "United States Postal Service", "operator:short": "USPS", "operator:type": "public", "operator:wikidata": "Q668687", "ref": "2938800011"}, "type": "Feature"}
{"geometry": {"coordinates": [-82.043217941, 34.753580647], "type": "Point"}, "id": "QeJBIAEPegs4Y0mQOt4merEnWDw=", "properties": {"@source_uri": "https://tools.usps.com/UspsToolsRestServices/rest/POLocator/findLocations", "@spider": "usps_collection_boxes", "addr:city": "WOODRUFF", "addr:country": "US", "addr:postcode": "29388", "addr:state": "SC", "addr:street_address": "955 N MAIN ST", "amenity": "post_box", "collection_times": "Mo-Fr 16:30; Sa 12:15", "indoor": "yes", "note": "ON 12/24 AND 12/31, THIS BOX MAY BE COLLECTED AS EARLY AS 12 NOON.", "nsi_id": "unitedstatespostalservice-a77078", "operator": "United States Postal Service", "operator:short": "USPS", "operator:type": "public", "operator:wikidata": "Q668687", "ref": "2938800013"}, "type": "Feature"}
{"geometry": {"coordinates": [-82.043217941, 34.753580647], "type": "Point"}, "id": "9e_zceXhHdYF9b7Zv-LNFis1ft0=", "properties": {"@source_uri": "https://tools.usps.com/UspsToolsRestServices/rest/POLocator/findLocations", "@spider": "usps_collection_boxes", "addr:city": "WOODRUFF", "addr:country": "US", "addr:postcode": "29388", "addr:state": "SC", "addr:street_address": "955 N MAIN ST", "amenity": "post_box", "collection_times": "Mo-Fr 16:30; Sa 12:15", "indoor": "yes", "note": "ON 12/24 AND 12/31, THIS BOX MAY BE COLLECTED AS EARLY AS 12 NOON.", "nsi_id": "unitedstatespostalservice-a77078", "operator": "United States Postal Service", "operator:short": "USPS", "operator:type": "public", "operator:wikidata": "Q668687", "ref": "2938800014"}, "type": "Feature"}
{"geometry": {"coordinates": [-82.043217941, 34.753580647], "type": "Point"}, "id": "jX7G6g41FxwjtfQQI7ialLEtywI=", "properties": {"@source_uri": "https://tools.usps.com/UspsToolsRestServices/rest/POLocator/findLocations", "@spider": "usps_collection_boxes", "addr:city": "WOODRUFF", "addr:country": "US", "addr:postcode": "29388", "addr:state": "SC", "addr:street_address": "955 N MAIN ST", "amenity": "post_box", "collection_times": "Mo-Fr 16:30; Sa 12:15", "indoor": "yes", "note": "ON 12/24 AND 12/31, THIS BOX MAY BE COLLECTED AS EARLY AS 12 NOON.", "nsi_id": "unitedstatespostalservice-a77078", "operator": "United States Postal Service", "operator:short": "USPS", "operator:type": "public", "operator:wikidata": "Q668687", "ref": "2938800018"}, "type": "Feature"}
