{"geometry": {"coordinates": [-80.054660548, 32.899586639], "type": "Point"}, "id": "MgodchDEGImQlwY5tT4OygCtwtk=", "properties": {"@spider": "usps_collection_boxes", "addr:city": "CHARLESTON", "addr:country": "US", "addr:full": "101 W SIMPSON ST", "addr:postcode": "29404", "addr:state": "SC", "brand": "USPS", "brand:wikidata": "Q668687", "collection_times": "Mo-Fr 14:45", "name": "USPS COLLECTION BOX - BLUE BOX", "note": "ON 12/24 AND 12/31, THIS BOX MAY BE COLLECTED AS EARLY AS 12 NOON.", "ref": "2940400006"}, "type": "Feature"}
{"geometry": {"coordinates": [-80.05841946, 32.896131431], "type": "Point"}, "id": "18h54I3MgQbD0J4iUpEOK-GDXyg=", "properties": {"@spider": "usps_collection_boxes", "addr:city": "CHARLESTON", "addr:country": "US", "addr:full": "204 W HILL ST", "addr:postcode": "29404", "addr:state": "SC", "brand": "USPS", "brand:wikidata": "Q668687", "collection_times": "Mo-Fr 14:30", "name": "USPS COLLECTION BOX - BLUE BOX", "note": "ON 12/24 AND 12/31, THIS BOX MAY BE COLLECTED AS EARLY AS 12 NOON.", "ref": "2940400008"}, "type": "Feature"}
{"geometry": {"coordinates": [-80.024519569, 32.80830041], "type": "Point"}, "id": "SZMU1hWhbq2pG-EYJ8fr7tsxmbA=", "properties": {"@spider": "usps_collection_boxes", "addr:city": "CHARLESTON", "addr:country": "US", "addr:full": "1964 ASHLEY RIVER RD STE B", "addr:postcode": "29414", "addr:state": "SC", "brand": "USPS", "brand:wikidata": "Q668687", "collection_times": "Mo-Fr 17:00; Sa 13:00", "name": "USPS COLLECTION BOX - BLUE BOX", "note": "ON 12/24 AND 12/31, THIS BOX MAY BE COLLECTED AS EARLY AS 12 NOON.", "ref": "2941400000"}, "type": "Feature"}
{"geometry": {"coordinates": [-80.0233890768, 32.8086743191], "type": "Point"}, "id": "EX9y5Aqr4qo2dXLFTCLsbhPI6r8=", "properties": {"@spider": "usps_collection_boxes", "addr:city": "CHARLESTON", "addr:country": "US", "addr:full": "1964 ASHLEY RIVER RD STE B", "addr:postcode": "29414", "addr:state": "SC", "brand": "USPS", "brand:wikidata": "Q668687", "collection_times": "Mo-Fr 17:00; Sa 13:00", "name": "USPS COLLECTION BOX - BLUE BOX", "note": "ON 12/24 AND 12/31, THIS BOX MAY BE COLLECTED AS EARLY AS 12 NOON.", "ref": "2941400001"}, "type": "Feature"}
{"geometry": {"coordinates": [-80.024519569, 32.80830041], "type": "Point"}, "id": "QwzjQiD3xO-9A4ZwVnDtWEH_uEg=", "properties": {"@spider": "usps_collection_boxes", "addr:city": "CHARLESTON", "addr:country": "US", "addr:full": "1964 ASHLEY RIVER RD STE B", "addr:postcode": "29414", "addr:state": "SC", "brand": "USPS", "brand:wikidata": "Q668687", "collection_times": "Mo-Fr 17:00; Sa 13:00", "name": "USPS COLLECTION BOX - EXPRESS", "note": "ON 12/24 AND 12/31, THIS BOX MAY BE COLLECTED AS EARLY AS 12 NOON.", "ref": "2941400002"}, "type": "Feature"}
{"geometry": {"coordinates": [-80.024519569, 32.80830041], "type": "Point"}, "id": "RGFa1WtvQdEaX239o9AspLqMGiE=", "properties": {"@spider": "usps_collection_boxes", "addr:city": "CHARLESTON", "addr:country": "US", "addr:full": "1964 ASHLEY RIVER RD STE B", "addr:postcode": "29414", "addr:state": "SC", "brand": "USPS", "brand:wikidata": "Q668687", "collection_times": "Mo-Fr 17:00; Sa 13:00", "name": "USPS COLLECTION BOX - PO LOBBY", "note": "ON 12/24 AND 12/31, THIS BOX MAY BE COLLECTED AS EARLY AS 12 NOON.", "ref": "2941400006"}, "type": "Feature"}
{"geometry": {"coordinates": [-80.024519569, 32.80830041], "type": "Point"}, "id": "qP8iK-6sArwOBEn3Rb9owZNt-tQ=", "properties": {"@spider": "usps_collection_boxes", "addr:city": "CHARLESTON", "addr:country": "US", "addr:full": "1964 ASHLEY RIVER RD STE B", "addr:postcode": "29414", "addr:state": "SC", "brand": "USPS", "brand:wikidata": "Q668687", "collection_times": "Mo-Fr 17:00; Sa 13:00", "name": "USPS COLLECTION BOX - PO LOBBY", "note": "ON 12/24 AND 12/31, THIS BOX MAY BE COLLECTED AS EARLY AS 12 NOON.", "ref": "2941400007"}, "type": "Feature"}
{"geometry": {"coordinates": [-80.038935869, 32.812629284], "type": "Point"}, "id": "B11S9b8VpM35vh1sb6eyb2G_SCo=", "properties": {"@spider": "usps_collection_boxes", "addr:city": "CHARLESTON", "addr:country": "US", "addr:full": "2245 ASHLEY CROSSING DR UNIT F", "addr:postcode": "29414", "addr:state": "SC", "brand": "USPS", "brand:wikidata": "Q668687", "collection_times": "Mo-Fr 12:00; Sa 10:30", "name": "USPS COLLECTION BOX - BLUE BOX", "ref": "2941400010"}, "type": "Feature"}
{"geometry": {"coordinates": [-80.04132407, 32.810433607], "type": "Point"}, "id": "GrNJvaC420KEwzIYq7sR8OxU-eU=", "properties": {"@spider": "usps_collection_boxes", "addr:city": "CHARLESTON", "addr:country": "US", "addr:full": "2095 HENRY TECKLENBURG DR", "addr:postcode": "29414", "addr:state": "SC", "brand": "USPS", "brand:wikidata": "Q668687", "collection_times": "Mo-Fr 12:15; Sa 10:30", "name": "USPS COLLECTION BOX - BLUE BOX", "note": "ON 12/24 AND 12/31, THIS BOX MAY BE COLLECTED AS EARLY AS 12 NOON.", "ref": "2941400011"}, "type": "Feature"}
{"geometry": {"coordinates": [-80.024519569, 32.80830041], "type": "Point"}, "id": "pX3wLmEMNZr6VvgvEgDG0iAbqJU=", "properties": {"@spider": "usps_collection_boxes", "addr:city": "CHARLESTON", "addr:country": "US", "addr:full": "1964 ASHLEY RIVER RD STE B", "addr:postcode": "29414", "addr:state": "SC", "brand": "USPS", "brand:wikidata": "Q668687", "collection_times": "Mo-Fr 17:00; Sa 13:00", "name": "USPS COLLECTION BOX - APC", "note": "ON 12/24 AND 12/31, THIS BOX MAY BE COLLECTED AS EARLY AS 12 NOON.", "ref": "2941400014"}, "type": "Feature"}
{"geometry": {"coordinates": [-80.024519569, 32.80830041], "type": "Point"}, "id": "6G9aiTQyQBfHgkMINjnmwLPkEEw=", "properties": {"@spider": "usps_collection_boxes", "addr:city": "CHARLESTON", "addr:country": "US", "addr:full": "1964 ASHLEY RIVER RD STE B", "addr:postcode": "29414", "addr:state": "SC", "brand": "USPS", "brand:wikidata": "Q668687", "collection_times": "Mo-Fr 12:00", "name": "USPS COLLECTION BOX - PO LOBBY", "ref": "2941400019"}, "type": "Feature"}
{"geometry": {"coordinates": [-80.817168636, 33.250024359], "type": "Point"}, "id": "04EgtcY7go_HEFmUvT-YHpKT2nQ=", "properties": {"@spider": "usps_collection_boxes", "addr:city": "BRANCHVILLE", "addr:country": "US", "addr:full": "250 EDWARD ST", "addr:postcode": "29432", "addr:state": "SC", "brand": "USPS", "brand:wikidata": "Q668687", "collection_times": "Mo-Fr 15:45; Sa 09:45", "name": "USPS COLLECTION BOX - BLUE BOX", "note": "ON 12/24 AND 12/31, THIS BOX MAY BE COLLECTED AS EARLY AS 12 NOON.", "ref": "2943200004"}, "type": "Feature"}
{"geometry": {"coordinates": [-80.817168636, 33.250024359], "type": "Point"}, "id": "VvZSsvH_dJc-W-6VGqXvTof_UPo=", "properties": {"@spider": "usps_collection_boxes", "addr:city": "BRANCHVILLE", "addr:country": "US", "addr:full": "250 EDWARD ST", "addr:postcode": "29432", "addr:state": "SC", "brand": "USPS", "brand:wikidata": "Q668687", "collection_times": "Mo-Fr 15:45; Sa 09:45", "name": "USPS COLLECTION BOX - PO LOBBY", "note": "ON 12/24 AND 12/31, THIS BOX MAY BE COLLECTED AS EARLY AS 12 NOON.", "ref": "2943200008"}, "type": "Feature"}
{"geometry": {"coordinates": [-80.817168636, 33.250024359], "type": "Point"}, "id": "MX6vrlKvrUzwYaUnialBeqPuwk4=", "properties": {"@spider": "usps_collection_boxes", "addr:city": "BRANCHVILLE", "addr:country": "US", "addr:full": "250 EDWARD ST", "addr:postcode": "29432", "addr:state": "SC", "brand": "USPS", "brand:wikidata": "Q668687", "collection_times": "Mo-Fr 15:45; Sa 09:45", "name": "USPS COLLECTION BOX - PO LOBBY", "note": "ON 12/24 AND 12/31, THIS BOX MAY BE COLLECTED AS EARLY AS 12 NOON.", "ref": "2943200010"}, "type": "Feature"}
{"geometry": {"coordinates": [-80.477553238, 32.934773724], "type": "Point"}, "id": "lwvBgMvF0ebryiteLWFbBcz4DSs=", "properties": {"@spider": "usps_collection_boxes", "addr:city": "COTTAGEVILLE", "addr:country": "US", "addr:full": "10969 COTTAGEVILLE HWY", "addr:postcode": "29435", "addr:state": "SC", "brand": "USPS", "brand:wikidata": "Q668687", "collection_times": "Mo-Fr 15:45; Sa 09:45", "name": "USPS COLLECTION BOX - BLUE BOX", "note": "ON 12/24 AND 12/31, THIS BOX MAY BE COLLECTED AS EARLY AS 12 NOON.", "ref": "2943500001"}, "type": "Feature"}
{"geometry": {"coordinates": [-80.477553238, 32.934773724], "type": "Point"}, "id": "etJq-RrOdljzw-sC-YUD3tjbKZQ=", "properties": {"@spider": "usps_collection_boxes", "addr:city": "COTTAGEVILLE", "addr:country": "US", "addr:full": "10969 COTTAGEVILLE HWY", "addr:postcode": "29435", "addr:state": "SC", "brand": "USPS", "brand:wikidata": "Q668687", "collection_times": "Mo-Fr 15:45; Sa 09:45", "name": "USPS COLLECTION BOX - PO LOBBY", "note": "ON 12/24 AND 12/31, THIS BOX MAY BE COLLECTED AS EARLY AS 12 NOON.", "ref": "2943500002"}, "type": "Feature"}
{"geometry": {"coordinates": [-80.477553238, 32.934773724], "type": "Point"}, "id": "BfZix75FNpmUYSo-nrS8CyFnmvU=", "properties": {"@spider": "usps_collection_boxes", "addr:city": "COTTAGEVILLE", "addr:country": "US", "addr:full": "10969 COTTAGEVILLE HWY", "addr:postcode": "29435", "addr:state": "SC", "brand": "USPS", "brand:wikidata": "Q668687", "collection_times": "Mo-Fr 15:45; Sa 09:45", "name": "USPS COLLECTION BOX - PO LOBBY", "note": "ON 12/24 AND 12/31, THIS BOX MAY BE COLLECTED AS EARLY AS 12 NOON.", "ref": "2943500003"}, "type": "Feature"}
{"geometry": {"coordinates": [-80.477553238, 32.934773724], "type": "Point"}, "id": "MRWAbqXWEn4CdDCGH11JRlDvlNk=", "properties": {"@spider": "usps_collection_boxes", "addr:city": "COTTAGEVILLE", "addr:country": "US", "addr:full": "10969 COTTAGEVILLE HWY", "addr:postcode": "29435", "addr:state": "SC", "brand": "USPS", "brand:wikidata": "Q668687", "collection_times": "Mo-Fr 15:45; Sa 09:45", "name": "USPS COLLECTION BOX - PO LOBBY", "note": "ON 12/24 AND 12/31, THIS BOX MAY BE COLLECTED AS EARLY AS 12 NOON.", "ref": "2943500005"}, "type": "Feature"}
{"geometry": {"coordinates": [-80.298986545, 32.524565635], "type": "Point"}, "id": "1rRwNFl1H5DZwtt-LPD9a95DKP0=", "properties": {"@spider": "usps_collection_boxes", "addr:city": "EDISTO ISLAND", "addr:country": "US", "addr:full": "539 HIGHWAY 174", "addr:postcode": "29438", "addr:state": "SC", "brand": "USPS", "brand:wikidata": "Q668687", "collection_times": "Mo-Fr 15:45; Sa 10:45", "name": "USPS COLLECTION BOX - BLUE BOX", "note": "ON 12/24 AND 12/31, THIS BOX MAY BE COLLECTED AS EARLY AS 12 NOON.", "ref": "2943800001"}, "type": "Feature"}
{"geometry": {"coordinates": [-80.297570067, 32.50418778], "type": "Point"}, "id": "nvKZmgPs1RhrbaAjq1olIEGpmlc=", "properties": {"@spider": "usps_collection_boxes", "addr:city": "EDISTO ISLAND", "addr:country": "US", "addr:full": "108 JUNGLE RD", "addr:postcode": "29438", "addr:state": "SC", "brand": "USPS", "brand:wikidata": "Q668687", "collection_times": "Mo-Fr 11:00; Sa 10:45", "name": "USPS COLLECTION BOX - BLUE BOX", "ref": "2943800002"}, "type": "Feature"}
{"geometry": {"coordinates": [-80.298986545, 32.524565635], "type": "Point"}, "id": "0HwHP1qC_37qAh2R8GqIQvPrPQo=", "properties": {"@spider": "usps_collection_boxes", "addr:city": "EDISTO ISLAND", "addr:country": "US", "addr:full": "539 HIGHWAY 174", "addr:postcode": "29438", "addr:state": "SC", "brand": "USPS", "brand:wikidata": "Q668687", "collection_times": "Mo-Fr 15:45; Sa 10:45", "name": "USPS COLLECTION BOX - PO LOBBY", "note": "ON 12/24 AND 12/31, THIS BOX MAY BE COLLECTED AS EARLY AS 12 NOON.", "ref": "2943800003"}, "type": "Feature"}
{"geometry": {"coordinates": [-80.298986545, 32.524565635], "type": "Point"}, "id": "qYw8HRQJIO1gVY6rwWeP9PNGAOE=", "properties": {"@spider": "usps_collection_boxes", "addr:city": "EDISTO ISLAND", "addr:country": "US", "addr:full": "539 HIGHWAY 174", "addr:postcode": "29438", "addr:state": "SC", "brand": "USPS", "brand:wikidata": "Q668687", "collection_times": "Mo-Fr 15:45; Sa 10:45", "name": "USPS COLLECTION BOX - PO LOBBY", "note": "ON 12/24 AND 12/31, THIS BOX MAY BE COLLECTED AS EARLY AS 12 NOON.", "ref": "2943800004"}, "type": "Feature"}
{"geometry": {"coordinates": [-80.298986545, 32.524565635], "type": "Point"}, "id": "Cu52Zru3rRMeC4v2XYArjKt34Ss=", "properties": {"@spider": "usps_collection_boxes", "addr:city": "EDISTO ISLAND", "addr:country": "US", "addr:full": "539 HIGHWAY 174", "addr:postcode": "29438", "addr:state": "SC", "brand": "USPS", "brand:wikidata": "Q668687", "collection_times": "Mo-Fr 15:45; Sa 10:45", "name": "USPS COLLECTION BOX - PO LOBBY", "note": "ON 12/24 AND 12/31, THIS BOX MAY BE COLLECTED AS EARLY AS 12 NOON.", "ref": "2943800007"}, "type": "Feature"}
{"geometry": {"coordinates": [-79.942014635, 32.657929284], "type": "Point"}, "id": "VtRLMQ26_fi8dpXxh4GVPHqXBdY=", "properties": {"@spider": "usps_collection_boxes", "addr:city": "FOLLY BEACH", "addr:country": "US", "addr:full": "107 E INDIAN AVE", "addr:postcode": "29439", "addr:state": "SC", "brand": "USPS", "brand:wikidata": "Q668687", "collection_times": "Mo-Fr 15:45; Sa 09:45", "name": "USPS COLLECTION BOX - BLUE BOX", "note": "ON 12/24 AND 12/31, THIS BOX MAY BE COLLECTED AS EARLY AS 12 NOON.", "ref": "2943900001"}, "type": "Feature"}
{"geometry": {"coordinates": [-79.942014635, 32.657929284], "type": "Point"}, "id": "tR1DkvzPxMkknkzKpem3WRcGZLo=", "properties": {"@spider": "usps_collection_boxes", "addr:city": "FOLLY BEACH", "addr:country": "US", "addr:full": "107 E INDIAN AVE", "addr:postcode": "29439", "addr:state": "SC", "brand": "USPS", "brand:wikidata": "Q668687", "collection_times": "Mo-Fr 15:45; Sa 09:45", "name": "USPS COLLECTION BOX - PO LOBBY", "note": "ON 12/24 AND 12/31, THIS BOX MAY BE COLLECTED AS EARLY AS 12 NOON.", "ref": "2943900003"}, "type": "Feature"}
{"geometry": {"coordinates": [-79.942014635, 32.657929284], "type": "Point"}, "id": "UtrNrtoU2e6Qol1Dzd826CUGEXU=", "properties": {"@spider": "usps_collection_boxes", "addr:city": "FOLLY BEACH", "addr:country": "US", "addr:full": "107 E INDIAN AVE", "addr:postcode": "29439", "addr:state": "SC", "brand": "USPS", "brand:wikidata": "Q668687", "collection_times": "Mo-Fr 15:45; Sa 09:45", "name": "USPS COLLECTION BOX - PO LOBBY", "note": "ON 12/24 AND 12/31, THIS BOX MAY BE COLLECTED AS EARLY AS 12 NOON.", "ref": "2943900004"}, "type": "Feature"}
{"geometry": {"coordinates": [-79.942014635, 32.657929284], "type": "Point"}, "id": "6_dYaBQ5VATcY_Bu-XQEfjYkwnQ=", "properties": {"@spider": "usps_collection_boxes", "addr:city": "FOLLY BEACH", "addr:country": "US", "addr:full": "107 E INDIAN AVE", "addr:postcode": "29439", "addr:state": "SC", "brand": "USPS", "brand:wikidata": "Q668687", "collection_times": "Mo-Fr 15:45; Sa 09:45", "name": "USPS COLLECTION BOX - PO LOBBY", "note": "ON 12/24 AND 12/31, THIS BOX MAY BE COLLECTED AS EARLY AS 12 NOON.", "ref": "2943900006"}, "type": "Feature"}
{"geometry": {"coordinates": [-80.61432913, 32.731425901], "type": "Point"}, "id": "JHza4I-nbdDIJkENsMb0X6G_FJw=", "properties": {"@spider": "usps_collection_boxes", "addr:city": "GREEN POND", "addr:country": "US", "addr:full": "12225 GREEN POND HWY", "addr:postcode": "29446", "addr:state": "SC", "brand": "USPS", "brand:wikidata": "Q668687", "collection_times": "Mo-Fr 15:45; Sa 09:45", "name": "USPS COLLECTION BOX - BLUE BOX", "note": "ON 12/24 AND 12/31, THIS BOX MAY BE COLLECTED AS EARLY AS 12 NOON.", "ref": "2944600001"}, "type": "Feature"}
{"geometry": {"coordinates": [-80.61432913, 32.731425901], "type": "Point"}, "id": "dWTTXKLa0_nC9duNpvVUuA-NAz0=", "properties": {"@spider": "usps_collection_boxes", "addr:city": "GREEN POND", "addr:country": "US", "addr:full": "12225 GREEN POND HWY", "addr:postcode": "29446", "addr:state": "SC", "brand": "USPS", "brand:wikidata": "Q668687", "collection_times": "Mo-Fr 15:45; Sa 09:45", "name": "USPS COLLECTION BOX - PO LOBBY", "note": "ON 12/24 AND 12/31, THIS BOX MAY BE COLLECTED AS EARLY AS 12 NOON.", "ref": "2944600005"}, "type": "Feature"}
{"geometry": {"coordinates": [-80.243835826, 32.734143652], "type": "Point"}, "id": "a3yCb561Xwo4Nn-oBpsXGGW0A70=", "properties": {"@spider": "usps_collection_boxes", "addr:city": "HOLLYWOOD", "addr:country": "US", "addr:full": "6345 HIGHWAY 162", "addr:postcode": "29449", "addr:state": "SC", "brand": "USPS", "brand:wikidata": "Q668687", "collection_times": "Mo-Fr 15:45; Sa 10:45", "name": "USPS COLLECTION BOX - PO LOBBY", "note": "ON 12/24 AND 12/31, THIS BOX MAY BE COLLECTED AS EARLY AS 12 NOON.", "ref": "2944900001"}, "type": "Feature"}
{"geometry": {"coordinates": [-80.243835826, 32.734143652], "type": "Point"}, "id": "FDtbq0XnO34QBC3AskQBhRfA3kQ=", "properties": {"@spider": "usps_collection_boxes", "addr:city": "HOLLYWOOD", "addr:country": "US", "addr:full": "6345 HIGHWAY 162", "addr:postcode": "29449", "addr:state": "SC", "brand": "USPS", "brand:wikidata": "Q668687", "collection_times": "Mo-Fr 15:45; Sa 10:45", "name": "USPS COLLECTION BOX - PO LOBBY", "note": "ON 12/24 AND 12/31, THIS BOX MAY BE COLLECTED AS EARLY AS 12 NOON.", "ref": "2944900002"}, "type": "Feature"}
{"geometry": {"coordinates": [-80.248939895, 32.733420352], "type": "Point"}, "id": "OXbsByrC-GN7IGxjGKqXpPBOSCg=", "properties": {"@spider": "usps_collection_boxes", "addr:city": "HOLLYWOOD", "addr:country": "US", "addr:full": "6435 HIGHWAY 162", "addr:postcode": "29449", "addr:state": "SC", "brand": "USPS", "brand:wikidata": "Q668687", "collection_times": "Mo-Fr 15:45; Sa 10:45", "name": "USPS COLLECTION BOX - BLUE BOX", "note": "ON 12/24 AND 12/31, THIS BOX MAY BE COLLECTED AS EARLY AS 12 NOON.", "ref": "2944900003"}, "type": "Feature"}
{"geometry": {"coordinates": [-80.243835826, 32.734143652], "type": "Point"}, "id": "HEr7GF3vtmD0XdyXjyg_TkvfY3A=", "properties": {"@spider": "usps_collection_boxes", "addr:city": "HOLLYWOOD", "addr:country": "US", "addr:full": "6345 HIGHWAY 162", "addr:postcode": "29449", "addr:state": "SC", "brand": "USPS", "brand:wikidata": "Q668687", "collection_times": "Mo-Fr 15:45; Sa 10:45", "name": "USPS COLLECTION BOX - PO LOBBY", "note": "ON 12/24 AND 12/31, THIS BOX MAY BE COLLECTED AS EARLY AS 12 NOON.", "ref": "2944900006"}, "type": "Feature"}
{"geometry": {"coordinates": [-80.461055402, 32.77397772], "type": "Point"}, "id": "h_sBUi8MQY9RP0K8HzWjdEmhUBI=", "properties": {"@spider": "usps_collection_boxes", "addr:city": "JACKSONBORO", "addr:country": "US", "addr:full": "16534 ACE BASIN PKWY", "addr:postcode": "29452", "addr:state": "SC", "brand": "USPS", "brand:wikidata": "Q668687", "collection_times": "Mo-Fr 15:45; Sa 09:45", "name": "USPS COLLECTION BOX - BLUE BOX", "note": "ON 12/24 AND 12/31, THIS BOX MAY BE COLLECTED AS EARLY AS 12 NOON.", "ref": "2945200001"}, "type": "Feature"}
{"geometry": {"coordinates": [-80.461055402, 32.77397772], "type": "Point"}, "id": "wYomkogZsUydmnyfnbLt2vqoJ2o=", "properties": {"@spider": "usps_collection_boxes", "addr:city": "JACKSONBORO", "addr:country": "US", "addr:full": "16534 ACE BASIN PKWY", "addr:postcode": "29452", "addr:state": "SC", "brand": "USPS", "brand:wikidata": "Q668687", "collection_times": "Mo-Fr 15:45; Sa 09:45", "name": "USPS COLLECTION BOX - PO LOBBY", "note": "ON 12/24 AND 12/31, THIS BOX MAY BE COLLECTED AS EARLY AS 12 NOON.", "ref": "2945200002"}, "type": "Feature"}
{"geometry": {"coordinates": [-80.461055402, 32.77397772], "type": "Point"}, "id": "qEavHQM_t7f0E6ekDNcohkMSZx0=", "properties": {"@spider": "usps_collection_boxes", "addr:city": "JACKSONBORO", "addr:country": "US", "addr:full": "16534 ACE BASIN PKWY", "addr:postcode": "29452", "addr:state": "SC", "brand": "USPS", "brand:wikidata": "Q668687", "collection_times": "Mo-Fr 15:45; Sa 09:45", "name": "USPS COLLECTION BOX - PO LOBBY", "note": "ON 12/24 AND 12/31, THIS BOX MAY BE COLLECTED AS EARLY AS 12 NOON.", "ref": "2945200004"}, "type": "Feature"}
{"geometry": {"coordinates": [-80.54028339, 32.936951525], "type": "Point"}, "id": "aB6N8yC8mc0Vm6siMkRzFqSPdCY=", "properties": {"@spider": "usps_collection_boxes", "addr:city": "ROUND O", "addr:country": "US", "addr:full": "11110 ROUND O RD", "addr:postcode": "29474", "addr:state": "SC", "brand": "USPS", "brand:wikidata": "Q668687", "collection_times": "Mo-Fr 15:45; Sa 09:45", "name": "USPS COLLECTION BOX - PO LOBBY", "note": "ON 12/24 AND 12/31, THIS BOX MAY BE COLLECTED AS EARLY AS 12 NOON.", "ref": "2947400001"}, "type": "Feature"}
{"geometry": {"coordinates": [-80.54028339, 32.936951525], "type": "Point"}, "id": "0VMrwqnb89hJjMIxLbIoJnenfso=", "properties": {"@spider": "usps_collection_boxes", "addr:city": "ROUND O", "addr:country": "US", "addr:full": "11110 ROUND O RD", "addr:postcode": "29474", "addr:state": "SC", "brand": "USPS", "brand:wikidata": "Q668687", "collection_times": "Mo-Fr 15:45; Sa 09:45", "name": "USPS COLLECTION BOX - BLUE BOX", "note": "ON 12/24 AND 12/31, THIS BOX MAY BE COLLECTED AS EARLY AS 12 NOON.", "ref": "2947400002"}, "type": "Feature"}
{"geometry": {"coordinates": [-80.540231979, 32.936975985], "type": "Point"}, "id": "NRouiHfF7Lna7cFAKIquG4wMcKU=", "properties": {"@spider": "usps_collection_boxes", "addr:city": "ROUND O", "addr:country": "US", "addr:full": "11110 ROUND O RD", "addr:postcode": "29474", "addr:state": "SC", "brand": "USPS", "brand:wikidata": "Q668687", "collection_times": "Mo-Fr 15:45; Sa 09:30", "name": "USPS COLLECTION BOX - PO LOBBY", "note": "ON 12/24 AND 12/31, THIS BOX MAY BE COLLECTED AS EARLY AS 12 NOON.", "ref": "2947400004"}, "type": "Feature"}
{"geometry": {"coordinates": [-80.813404373, 33.007063883], "type": "Point"}, "id": "SLzcIn5htSg78beb-Dh-m2ebJcA=", "properties": {"@spider": "usps_collection_boxes", "addr:city": "RUFFIN", "addr:country": "US", "addr:full": "21972 LOWCOUNTRY HWY", "addr:postcode": "29475", "addr:state": "SC", "brand": "USPS", "brand:wikidata": "Q668687", "collection_times": "Mo-Fr 15:45; Sa 09:45", "name": "USPS COLLECTION BOX - BLUE BOX", "note": "ON 12/24 AND 12/31, THIS BOX MAY BE COLLECTED AS EARLY AS 12 NOON.", "ref": "2947500001"}, "type": "Feature"}
{"geometry": {"coordinates": [-80.813404373, 33.007063883], "type": "Point"}, "id": "G7V3p-fDW8MXygTdITa7gX69_1M=", "properties": {"@spider": "usps_collection_boxes", "addr:city": "RUFFIN", "addr:country": "US", "addr:full": "21972 LOWCOUNTRY HWY", "addr:postcode": "29475", "addr:state": "SC", "brand": "USPS", "brand:wikidata": "Q668687", "collection_times": "Mo-Fr 15:45; Sa 09:45", "name": "USPS COLLECTION BOX - PO LOBBY", "note": "ON 12/24 AND 12/31, THIS BOX MAY BE COLLECTED AS EARLY AS 12 NOON.", "ref": "2947500002"}, "type": "Feature"}
{"geometry": {"coordinates": [-80.813404373, 33.007063883], "type": "Point"}, "id": "5KrMQ54_nnjRItc4i7UgAdFq80U=", "properties": {"@spider": "usps_collection_boxes", "addr:city": "RUFFIN", "addr:country": "US", "addr:full": "21972 LOWCOUNTRY HWY", "addr:postcode": "29475", "addr:state": "SC", "brand": "USPS", "brand:wikidata": "Q668687", "collection_times": "Mo-Fr 15:45; Sa 09:45", "name": "USPS COLLECTION BOX - PO LOBBY", "note": "ON 12/24 AND 12/31, THIS BOX MAY BE COLLECTED AS EARLY AS 12 NOON.", "ref": "2947500005"}, "type": "Feature"}
{"geometry": {"coordinates": [-80.813251556, 33.088252107], "type": "Point"}, "id": "P0evD8XSGMOYd8gXJGCi8vLiY70=", "properties": {"@spider": "usps_collection_boxes", "addr:city": "SMOAKS", "addr:country": "US", "addr:full": "27639 LOWCOUNTRY HWY", "addr:postcode": "29481", "addr:state": "SC", "brand": "USPS", "brand:wikidata": "Q668687", "collection_times": "Mo-Fr 11:15; Sa 09:45", "name": "USPS COLLECTION BOX - BLUE BOX", "ref": "2948100001"}, "type": "Feature"}
{"geometry": {"coordinates": [-80.813251556, 33.088252107], "type": "Point"}, "id": "nBb-vdSGSuEth-Hyg5lVm6Q9m9M=", "properties": {"@spider": "usps_collection_boxes", "addr:city": "SMOAKS", "addr:country": "US", "addr:full": "27639 LOWCOUNTRY HWY", "addr:postcode": "29481", "addr:state": "SC", "brand": "USPS", "brand:wikidata": "Q668687", "collection_times": "Mo-Fr 11:15; Sa 09:45", "name": "USPS COLLECTION BOX - PO LOBBY", "ref": "2948100002"}, "type": "Feature"}
{"geometry": {"coordinates": [-80.813251556, 33.088252107], "type": "Point"}, "id": "LLvTjzMiPErdk_DLkZCcU9TjJ4k=", "properties": {"@spider": "usps_collection_boxes", "addr:city": "SMOAKS", "addr:country": "US", "addr:full": "27639 LOWCOUNTRY HWY", "addr:postcode": "29481", "addr:state": "SC", "brand": "USPS", "brand:wikidata": "Q668687", "collection_times": "Mo-Fr 11:15; Sa 09:45", "name": "USPS COLLECTION BOX - PO LOBBY", "ref": "2948100004"}, "type": "Feature"}
{"geometry": {"coordinates": [-80.674233527, 32.916718278], "type": "Point"}, "id": "3bUIQx6DlFv3RkhMdKqGw9mHjy0=", "properties": {"@spider": "usps_collection_boxes", "addr:city": "WALTERBORO", "addr:country": "US", "addr:full": "489 BELLS HWY", "addr:postcode": "29488", "addr:state": "SC", "brand": "USPS", "brand:wikidata": "Q668687", "collection_times": "Mo-Fr 12:45", "name": "USPS COLLECTION BOX - BLUE BOX", "note": "ON 12/24 AND 12/31, THIS BOX MAY BE COLLECTED AS EARLY AS 12 NOON.", "ref": "2948800003"}, "type": "Feature"}
{"geometry": {"coordinates": [-80.663510557, 32.902751458], "type": "Point"}, "id": "9jtDpAphoESaCnUnuOobl-nZ0f4=", "properties": {"@spider": "usps_collection_boxes", "addr:city": "WALTERBORO", "addr:country": "US", "addr:full": "333 E WASHINGTON ST", "addr:postcode": "29488", "addr:state": "SC", "brand": "USPS", "brand:wikidata": "Q668687", "collection_times": "Mo-Fr 16:15; Sa 14:00", "name": "USPS COLLECTION BOX - BLUE BOX", "note": "ON 12/24 AND 12/31, THIS BOX MAY BE COLLECTED AS EARLY AS 12 NOON.", "ref": "2948800004"}, "type": "Feature"}
{"geometry": {"coordinates": [-80.668576907, 32.90360619], "type": "Point"}, "id": "29sBkQ3wjubSP7Ql-ZBr7nzN4jA=", "properties": {"@spider": "usps_collection_boxes", "addr:city": "WALTERBORO", "addr:country": "US", "addr:full": "31 KLEIN ST", "addr:postcode": "29488", "addr:state": "SC", "brand": "USPS", "brand:wikidata": "Q668687", "collection_times": "Mo-Fr 13:00", "name": "USPS COLLECTION BOX - BLUE BOX", "note": "ON 12/24 AND 12/31, THIS BOX MAY BE COLLECTED AS EARLY AS 12 NOON.", "ref": "2948800005"}, "type": "Feature"}
{"geometry": {"coordinates": [-80.675908523, 32.921987312], "type": "Point"}, "id": "HCGJ_pFVp-6mgGh-ouiaN_9RK-Q=", "properties": {"@spider": "usps_collection_boxes", "addr:city": "WALTERBORO", "addr:country": "US", "addr:full": "221 ROBERTSON BLVD", "addr:postcode": "29488", "addr:state": "SC", "brand": "USPS", "brand:wikidata": "Q668687", "collection_times": "Mo-Fr 11:00", "name": "USPS COLLECTION BOX - BLUE BOX", "ref": "2948800018"}, "type": "Feature"}
{"geometry": {"coordinates": [-80.671392326, 32.903150324], "type": "Point"}, "id": "8xIsdORhjBIiUiTWx7XG22ISDSY=", "properties": {"@spider": "usps_collection_boxes", "addr:city": "WALTERBORO", "addr:country": "US", "addr:full": "333 W WASHINGTON ST", "addr:postcode": "29488", "addr:state": "SC", "brand": "USPS", "brand:wikidata": "Q668687", "collection_times": "Mo-Fr 16:15; Sa 14:00", "name": "USPS COLLECTION BOX - PO LOBBY", "note": "ON 12/24 AND 12/31, THIS BOX MAY BE COLLECTED AS EARLY AS 12 NOON.", "ref": "2948800022"}, "type": "Feature"}
{"geometry": {"coordinates": [-80.671392326, 32.903150324], "type": "Point"}, "id": "nNZ8OfMAj6YRzadiWJs7gMeFM5g=", "properties": {"@spider": "usps_collection_boxes", "addr:city": "WALTERBORO", "addr:country": "US", "addr:full": "333 W WASHINGTON ST", "addr:postcode": "29488", "addr:state": "SC", "brand": "USPS", "brand:wikidata": "Q668687", "collection_times": "Mo-Fr 16:15; Sa 14:00", "name": "USPS COLLECTION BOX - PO LOBBY", "note": "ON 12/24 AND 12/31, THIS BOX MAY BE COLLECTED AS EARLY AS 12 NOON.", "ref": "2948800023"}, "type": "Feature"}
{"geometry": {"coordinates": [-80.6805382, 32.922515106], "type": "Point"}, "id": "_D4TvTZik--T9AYb8TTuyT-bzWY=", "properties": {"@spider": "usps_collection_boxes", "addr:city": "WALTERBORO", "addr:country": "US", "addr:full": "1033 BELLS HWY", "addr:postcode": "29488", "addr:state": "SC", "brand": "USPS", "brand:wikidata": "Q668687", "collection_times": "Mo-Fr 12:45", "name": "USPS COLLECTION BOX - BLUE BOX", "note": "ON 12/24 AND 12/31, THIS BOX MAY BE COLLECTED AS EARLY AS 12 NOON.", "ref": "2948800024"}, "type": "Feature"}
{"geometry": {"coordinates": [-80.663510557, 32.902751458], "type": "Point"}, "id": "tY54_8Ac2P8ZzfWUMajLBoMzDHo=", "properties": {"@spider": "usps_collection_boxes", "addr:city": "WALTERBORO", "addr:country": "US", "addr:full": "333 E WASHINGTON ST", "addr:postcode": "29488", "addr:state": "SC", "brand": "USPS", "brand:wikidata": "Q668687", "collection_times": "Mo-Fr 16:15; Sa 14:00", "name": "USPS COLLECTION BOX - PO LOBBY", "note": "ON 12/24 AND 12/31, THIS BOX MAY BE COLLECTED AS EARLY AS 12 NOON.", "ref": "2948800028"}, "type": "Feature"}
{"geometry": {"coordinates": [-80.840736822, 33.035572382], "type": "Point"}, "id": "k8US2ZResThE2phK5tUUY39At4E=", "properties": {"@spider": "usps_collection_boxes", "addr:city": "WILLIAMS", "addr:country": "US", "addr:full": "1718 GEORGE WARREN DR", "addr:postcode": "29493", "addr:state": "SC", "brand": "USPS", "brand:wikidata": "Q668687", "collection_times": "Mo-Fr 15:45; Sa 09:45", "name": "USPS COLLECTION BOX - BLUE BOX", "note": "ON 12/24 AND 12/31, THIS BOX MAY BE COLLECTED AS EARLY AS 12 NOON.", "ref": "2949300001"}, "type": "Feature"}
{"geometry": {"coordinates": [-80.840736822, 33.035572382], "type": "Point"}, "id": "JnDnSV7FN6qjbFz2io8XJwJsfF0=", "properties": {"@spider": "usps_collection_boxes", "addr:city": "WILLIAMS", "addr:country": "US", "addr:full": "1718 GEORGE WARREN DR", "addr:postcode": "29493", "addr:state": "SC", "brand": "USPS", "brand:wikidata": "Q668687", "collection_times": "Mo-Fr 15:45; Sa 09:45", "name": "USPS COLLECTION BOX - PO LOBBY", "note": "ON 12/24 AND 12/31, THIS BOX MAY BE COLLECTED AS EARLY AS 12 NOON.", "ref": "2949300003"}, "type": "Feature"}
