{"geometry": {"coordinates": [-79.741695809, 34.228945387], "type": "Point"}, "id": "dVUkkzSprQ6Fo5-_DbbBWgefj_o=", "properties": {"@spider": "usps_collection_boxes", "addr:city": "FLORENCE", "addr:country": "US", "addr:full": "625 E ASHBY RD", "addr:postcode": "29501", "addr:state": "SC", "brand": "USPS", "brand:wikidata": "Q668687", "collection_times": "Mo-Sa 11:45", "name": "USPS COLLECTION BOX - BLUE BOX", "ref": "2950100004"}, "type": "Feature"}
{"geometry": {"coordinates": [-79.768481192, 34.191754536], "type": "Point"}, "id": "9RBm_LHLBSGgRDPJlVSb4KEZgvI=", "properties": {"@spider": "usps_collection_boxes", "addr:city": "FLORENCE", "addr:country": "US", "addr:full": "204 W PINE ST", "addr:postcode": "29501", "addr:state": "SC", "brand": "USPS", "brand:wikidata": "Q668687", "collection_times": "Mo-Fr 13:45", "name": "USPS COLLECTION BOX - BLUE BOX", "note": "ON 12/24 AND 12/31, THIS BOX MAY BE COLLECTED AS EARLY AS 12 NOON.", "ref": "2950100011"}, "type": "Feature"}
{"geometry": {"coordinates": [-79.773333962, 34.196985422], "type": "Point"}, "id": "zNWjbRgVVoJcT0_R4SoVmSbCJ9U=", "properties": {"@spider": "usps_collection_boxes", "addr:city": "FLORENCE", "addr:country": "US", "addr:full": "401 W EVANS ST", "addr:postcode": "29501", "addr:state": "SC", "brand": "USPS", "brand:wikidata": "Q668687", "collection_times": "Mo-Sa 11:45", "name": "USPS COLLECTION BOX - PO LOBBY", "ref": "2950100017"}, "type": "Feature"}
{"geometry": {"coordinates": [-79.778653453, 34.178702594], "type": "Point"}, "id": "XyBtfnrpKuDHOHU4ce1u4vEJZcE=", "properties": {"@spider": "usps_collection_boxes", "addr:city": "FLORENCE", "addr:country": "US", "addr:full": "951 PARK AVE", "addr:postcode": "29501", "addr:state": "SC", "brand": "USPS", "brand:wikidata": "Q668687", "collection_times": "Mo-Fr 12:45", "name": "USPS COLLECTION BOX - BLUE BOX", "note": "ON 12/24 AND 12/31, THIS BOX MAY BE COLLECTED AS EARLY AS 12 NOON.", "ref": "2950100019"}, "type": "Feature"}
{"geometry": {"coordinates": [-79.647276317, 34.196105879], "type": "Point"}, "id": "SyHbE1_5a0uDfT5S8WtIPZI3qIM=", "properties": {"@spider": "usps_collection_boxes", "addr:city": "FLORENCE", "addr:country": "US", "addr:full": "5130 E PALMETTO ST", "addr:postcode": "29501", "addr:state": "SC", "brand": "USPS", "brand:wikidata": "Q668687", "collection_times": "Mo-Fr 09:45", "name": "USPS COLLECTION BOX - BLUE BOX", "ref": "2950100026"}, "type": "Feature"}
{"geometry": {"coordinates": [-79.658005931, 34.197861882], "type": "Point"}, "id": "P7jZTOVnHvZeyABB6Xidg9oL2JY=", "properties": {"@spider": "usps_collection_boxes", "addr:city": "FLORENCE", "addr:country": "US", "addr:full": "4711 PATRIOT LN", "addr:postcode": "29501", "addr:state": "SC", "brand": "USPS", "brand:wikidata": "Q668687", "collection_times": "Mo-Sa 09:45", "name": "USPS COLLECTION BOX - BLUE BOX", "ref": "2950100029"}, "type": "Feature"}
{"geometry": {"coordinates": [-79.730686907, 34.266632235], "type": "Point"}, "id": "7MMVKoKJ5lVwIUwZqOCaUF2C_Lw=", "properties": {"@spider": "usps_collection_boxes", "addr:city": "FLORENCE", "addr:country": "US", "addr:full": "3001 T V RD", "addr:postcode": "29501", "addr:state": "SC", "brand": "USPS", "brand:wikidata": "Q668687", "collection_times": "Mo-Sa 11:15", "name": "USPS COLLECTION BOX - BLUE BOX", "ref": "2950100030"}, "type": "Feature"}
{"geometry": {"coordinates": [-79.766644118, 34.176848567], "type": "Point"}, "id": "wfPgXX86pPTjA9fAslyIQ3NOeRA=", "properties": {"@spider": "usps_collection_boxes", "addr:city": "FLORENCE", "addr:country": "US", "addr:full": "927 S IRBY ST", "addr:postcode": "29501", "addr:state": "SC", "brand": "USPS", "brand:wikidata": "Q668687", "collection_times": "Mo-Fr 13:00; Sa 13:15", "name": "USPS COLLECTION BOX - BLUE BOX", "note": "ON 12/24 AND 12/31, THIS BOX MAY BE COLLECTED AS EARLY AS 12 NOON.", "ref": "2950100033"}, "type": "Feature"}
{"geometry": {"coordinates": [-79.770706739, 34.144527296], "type": "Point"}, "id": "Dxb12rvI91SMA-SFCBeI7XZCfY0=", "properties": {"@spider": "usps_collection_boxes", "addr:city": "FLORENCE", "addr:country": "US", "addr:full": "2685 S IRBY ST", "addr:postcode": "29501", "addr:state": "SC", "brand": "USPS", "brand:wikidata": "Q668687", "collection_times": "Mo-Fr 14:00", "name": "USPS COLLECTION BOX - BLUE BOX", "note": "ON 12/24 AND 12/31, THIS BOX MAY BE COLLECTED AS EARLY AS 12 NOON.", "ref": "2950100035"}, "type": "Feature"}
{"geometry": {"coordinates": [-79.788825848, 34.167017455], "type": "Point"}, "id": "nt0fLXTqRuH-ZVdWqN3TetRGne8=", "properties": {"@spider": "usps_collection_boxes", "addr:city": "FLORENCE", "addr:country": "US", "addr:full": "1307 2ND LOOP RD", "addr:postcode": "29501", "addr:state": "SC", "brand": "USPS", "brand:wikidata": "Q668687", "collection_times": "Mo-Sa 13:30", "name": "USPS COLLECTION BOX - BLUE BOX", "note": "ON 12/24 AND 12/31, THIS BOX MAY BE COLLECTED AS EARLY AS 12 NOON.", "ref": "2950100039"}, "type": "Feature"}
{"geometry": {"coordinates": [-79.79905586, 34.170232907], "type": "Point"}, "id": "OS5bmND4ILp0N1yOqBdnJIAUiew=", "properties": {"@spider": "usps_collection_boxes", "addr:city": "FLORENCE", "addr:country": "US", "addr:full": "1800 2ND LOOP RD", "addr:postcode": "29501", "addr:state": "SC", "brand": "USPS", "brand:wikidata": "Q668687", "collection_times": "Mo-Sa 13:30", "name": "USPS COLLECTION BOX - BLUE BOX", "note": "ON 12/24 AND 12/31, THIS BOX MAY BE COLLECTED AS EARLY AS 12 NOON.", "ref": "2950100041"}, "type": "Feature"}
{"geometry": {"coordinates": [-79.778131355, 34.167535517], "type": "Point"}, "id": "n3H4_1p_8yyxIpSDWI2aSl8J52E=", "properties": {"@spider": "usps_collection_boxes", "addr:city": "FLORENCE", "addr:country": "US", "addr:full": "804 2ND LOOP RD", "addr:postcode": "29501", "addr:state": "SC", "brand": "USPS", "brand:wikidata": "Q668687", "collection_times": "Mo-Fr 13:30; Sa 13:45", "name": "USPS COLLECTION BOX - BLUE BOX", "note": "ON 12/24 AND 12/31, THIS BOX MAY BE COLLECTED AS EARLY AS 12 NOON.", "ref": "2950100042"}, "type": "Feature"}
{"geometry": {"coordinates": [-79.768316403, 34.183606301], "type": "Point"}, "id": "8Lqexr7bw4FqtZcqvNvfQ0iGPrQ=", "properties": {"@spider": "usps_collection_boxes", "addr:city": "FLORENCE", "addr:country": "US", "addr:full": "221 CHEROKEE RD", "addr:postcode": "29501", "addr:state": "SC", "brand": "USPS", "brand:wikidata": "Q668687", "collection_times": "Mo-Fr 13:00; Sa 13:15", "name": "USPS COLLECTION BOX - BLUE BOX", "note": "ON 12/24 AND 12/31, THIS BOX MAY BE COLLECTED AS EARLY AS 12 NOON.", "ref": "2950100049"}, "type": "Feature"}
{"geometry": {"coordinates": [-79.803172016, 34.195447418], "type": "Point"}, "id": "t_rFiK-ybaqIKnsa8DMfZKQxBlY=", "properties": {"@spider": "usps_collection_boxes", "addr:city": "FLORENCE", "addr:country": "US", "addr:full": "1901 W EVANS ST", "addr:postcode": "29501", "addr:state": "SC", "brand": "USPS", "brand:wikidata": "Q668687", "collection_times": "Mo-Sa 19:00", "name": "USPS COLLECTION BOX - PO LOBBY", "note": "ON 12/24 AND 12/31, THIS BOX MAY BE COLLECTED AS EARLY AS 12 NOON.", "ref": "2950100055"}, "type": "Feature"}
{"geometry": {"coordinates": [-79.803172016, 34.195447418], "type": "Point"}, "id": "B8MAS7FRk_BVxg28R0ucd48LQYM=", "properties": {"@spider": "usps_collection_boxes", "addr:city": "FLORENCE", "addr:country": "US", "addr:full": "1901 W EVANS ST", "addr:postcode": "29501", "addr:state": "SC", "brand": "USPS", "brand:wikidata": "Q668687", "collection_times": "Mo-Sa 19:00", "name": "USPS COLLECTION BOX - PO LOBBY", "note": "ON 12/24 AND 12/31, THIS BOX MAY BE COLLECTED AS EARLY AS 12 NOON.", "ref": "2950100056"}, "type": "Feature"}
{"geometry": {"coordinates": [-79.803172016, 34.195447418], "type": "Point"}, "id": "9rIW4IP_EpfLwGriQEsnB-uLRMQ=", "properties": {"@spider": "usps_collection_boxes", "addr:city": "FLORENCE", "addr:country": "US", "addr:full": "1901 W EVANS ST", "addr:postcode": "29501", "addr:state": "SC", "brand": "USPS", "brand:wikidata": "Q668687", "collection_times": "Mo-Sa 19:00", "name": "USPS COLLECTION BOX - PO LOBBY", "note": "ON 12/24 AND 12/31, THIS BOX MAY BE COLLECTED AS EARLY AS 12 NOON.", "ref": "2950100057"}, "type": "Feature"}
{"geometry": {"coordinates": [-79.811985592, 34.191692694], "type": "Point"}, "id": "wiroemDOmeo5cFPNWkF1kD6Q4qc=", "properties": {"@spider": "usps_collection_boxes", "addr:city": "FLORENCE", "addr:country": "US", "addr:full": "201 DOZIER BLVD", "addr:postcode": "29501", "addr:state": "SC", "brand": "USPS", "brand:wikidata": "Q668687", "collection_times": "Mo-Fr 11:45", "name": "USPS COLLECTION BOX - BLUE BOX", "ref": "2950100063"}, "type": "Feature"}
{"geometry": {"coordinates": [-79.773333962, 34.196985422], "type": "Point"}, "id": "raVnIFmFEJN-6U14iQ2mkDr-44w=", "properties": {"@spider": "usps_collection_boxes", "addr:city": "FLORENCE", "addr:country": "US", "addr:full": "401 W EVANS ST", "addr:postcode": "29501", "addr:state": "SC", "brand": "USPS", "brand:wikidata": "Q668687", "collection_times": "Mo-Sa 11:45", "name": "USPS COLLECTION BOX - PO LOBBY", "ref": "2950100065"}, "type": "Feature"}
{"geometry": {"coordinates": [-79.773333962, 34.196985422], "type": "Point"}, "id": "tovn9mYnvyVtKY-3yv3BM2UP3eI=", "properties": {"@spider": "usps_collection_boxes", "addr:city": "FLORENCE", "addr:country": "US", "addr:full": "401 W EVANS ST", "addr:postcode": "29501", "addr:state": "SC", "brand": "USPS", "brand:wikidata": "Q668687", "collection_times": "Mo-Sa 11:45", "name": "USPS COLLECTION BOX - PO LOBBY", "ref": "2950100066"}, "type": "Feature"}
{"geometry": {"coordinates": [-79.806612061, 34.18849742], "type": "Point"}, "id": "NACoDiJmN-8DSw3EHYf1TOqXL_A=", "properties": {"@spider": "usps_collection_boxes", "addr:city": "FLORENCE", "addr:country": "US", "addr:full": "1930 W PALMETTO ST", "addr:postcode": "29501", "addr:state": "SC", "brand": "USPS", "brand:wikidata": "Q668687", "collection_times": "Mo-Fr 13:45; Sa 15:00", "name": "USPS COLLECTION BOX - BLUE BOX", "note": "ON 12/24 AND 12/31, THIS BOX MAY BE COLLECTED AS EARLY AS 12 NOON.", "ref": "2950100083"}, "type": "Feature"}
{"geometry": {"coordinates": [-79.807424181, 34.18823817], "type": "Point"}, "id": "N5SxjqZawun9mDq33IFJJO7vw7o=", "properties": {"@spider": "usps_collection_boxes", "addr:city": "FLORENCE", "addr:country": "US", "addr:full": "1945 W PALMETTO ST", "addr:postcode": "29501", "addr:state": "SC", "brand": "USPS", "brand:wikidata": "Q668687", "collection_times": "Mo-Fr 13:45; Sa 15:00", "name": "USPS COLLECTION BOX - BLUE BOX", "note": "ON 12/24 AND 12/31, THIS BOX MAY BE COLLECTED AS EARLY AS 12 NOON.", "ref": "2950100085"}, "type": "Feature"}
{"geometry": {"coordinates": [-79.774714606, 34.194676391], "type": "Point"}, "id": "pD4S5W9eQCs0pDY41ANhD2n6V1U=", "properties": {"@spider": "usps_collection_boxes", "addr:city": "FLORENCE", "addr:country": "US", "addr:full": "221 WARLEY ST", "addr:postcode": "29501", "addr:state": "SC", "brand": "USPS", "brand:wikidata": "Q668687", "collection_times": "Mo-Fr 13:30", "name": "USPS COLLECTION BOX - BLUE BOX", "note": "ON 12/24 AND 12/31, THIS BOX MAY BE COLLECTED AS EARLY AS 12 NOON.", "ref": "2950100099"}, "type": "Feature"}
{"geometry": {"coordinates": [-79.824919816, 34.17591018], "type": "Point"}, "id": "Op2dxJwy9iJnpJ-UtaTmhy4Za3Q=", "properties": {"@spider": "usps_collection_boxes", "addr:city": "FLORENCE", "addr:country": "US", "addr:full": "838 S PARKER DR", "addr:postcode": "29501", "addr:state": "SC", "brand": "USPS", "brand:wikidata": "Q668687", "collection_times": "Mo-Sa 12:45", "name": "USPS COLLECTION BOX - BLUE BOX", "note": "ON 12/24 AND 12/31, THIS BOX MAY BE COLLECTED AS EARLY AS 12 NOON.", "ref": "2950100105"}, "type": "Feature"}
{"geometry": {"coordinates": [-79.777559597, 34.212136389], "type": "Point"}, "id": "Gkwj6WPBk1Fyld-ejuVOdn-TeNA=", "properties": {"@spider": "usps_collection_boxes", "addr:city": "FLORENCE", "addr:country": "US", "addr:full": "619 W LUCAS ST", "addr:postcode": "29501", "addr:state": "SC", "brand": "USPS", "brand:wikidata": "Q668687", "collection_times": "Mo-Fr 09:30", "name": "USPS COLLECTION BOX - BLUE BOX", "ref": "2950100106"}, "type": "Feature"}
{"geometry": {"coordinates": [-79.764433889, 34.197213475], "type": "Point"}, "id": "dhj3GHa25XQbUYpqHziS2Lvzfsw=", "properties": {"@spider": "usps_collection_boxes", "addr:city": "FLORENCE", "addr:country": "US", "addr:full": "181 E EVANS ST", "addr:postcode": "29501", "addr:state": "SC", "brand": "USPS", "brand:wikidata": "Q668687", "collection_times": "Mo-Fr 14:00", "name": "USPS COLLECTION BOX - BLUE BOX", "note": "ON 12/24 AND 12/31, THIS BOX MAY BE COLLECTED AS EARLY AS 12 NOON.", "ref": "2950100110"}, "type": "Feature"}
{"geometry": {"coordinates": [-79.741695809, 34.228945387], "type": "Point"}, "id": "TpvmVJ-7JGnaVXT1jSfXLT24eEg=", "properties": {"@spider": "usps_collection_boxes", "addr:city": "FLORENCE", "addr:country": "US", "addr:full": "625 E ASHBY RD", "addr:postcode": "29501", "addr:state": "SC", "brand": "USPS", "brand:wikidata": "Q668687", "collection_times": "Mo-Sa 11:45", "name": "USPS COLLECTION BOX - PO LOBBY", "ref": "2950100111"}, "type": "Feature"}
{"geometry": {"coordinates": [-79.708245805, 34.196663717], "type": "Point"}, "id": "5reVjfSFGz41K0kx2CyqEDpphN8=", "properties": {"@spider": "usps_collection_boxes", "addr:city": "FLORENCE", "addr:country": "US", "addr:full": "3026 E PALMETTO ST", "addr:postcode": "29501", "addr:state": "SC", "brand": "USPS", "brand:wikidata": "Q668687", "collection_times": "Mo-Fr 13:45", "name": "USPS COLLECTION BOX - BLUE BOX", "note": "ON 12/24 AND 12/31, THIS BOX MAY BE COLLECTED AS EARLY AS 12 NOON.", "ref": "2950100126"}, "type": "Feature"}
{"geometry": {"coordinates": [-79.82573815, 34.178625531], "type": "Point"}, "id": "eCbiQNTk21lenvIgpltq9o-qrVk=", "properties": {"@spider": "usps_collection_boxes", "addr:city": "FLORENCE", "addr:country": "US", "addr:full": "2640 W PALMETTO ST", "addr:postcode": "29501", "addr:state": "SC", "brand": "USPS", "brand:wikidata": "Q668687", "collection_times": "Mo-Fr 13:45", "name": "USPS COLLECTION BOX - BLUE BOX", "note": "ON 12/24 AND 12/31, THIS BOX MAY BE COLLECTED AS EARLY AS 12 NOON.", "ref": "2950100130"}, "type": "Feature"}
{"geometry": {"coordinates": [-79.845109597, 34.168823666], "type": "Point"}, "id": "CYT_VNuLwACjMtw3SrNebUeMKRw=", "properties": {"@spider": "usps_collection_boxes", "addr:city": "FLORENCE", "addr:country": "US", "addr:full": "3209 W PALMETTO ST", "addr:postcode": "29501", "addr:state": "SC", "brand": "USPS", "brand:wikidata": "Q668687", "collection_times": "Mo-Fr 13:30", "name": "USPS COLLECTION BOX - BLUE BOX", "note": "ON 12/24 AND 12/31, THIS BOX MAY BE COLLECTED AS EARLY AS 12 NOON.", "ref": "2950100134"}, "type": "Feature"}
{"geometry": {"coordinates": [-79.83288663, 34.188868675], "type": "Point"}, "id": "U-_NgXaMi6KtLnCLxDvvRLWXVYI=", "properties": {"@spider": "usps_collection_boxes", "addr:city": "FLORENCE", "addr:country": "US", "addr:full": "2600 DAVID H MCLEOD BLVD", "addr:postcode": "29501", "addr:state": "SC", "brand": "USPS", "brand:wikidata": "Q668687", "collection_times": "Mo-Fr 14:15; Sa 14:45", "name": "USPS COLLECTION BOX - BLUE BOX", "note": "ON 12/24 AND 12/31, THIS BOX MAY BE COLLECTED AS EARLY AS 12 NOON.", "ref": "2950100135"}, "type": "Feature"}
{"geometry": {"coordinates": [-79.832515138, 34.167370806], "type": "Point"}, "id": "Mp4xjdpmskRncWStKfns4VyFn58=", "properties": {"@spider": "usps_collection_boxes", "addr:city": "FLORENCE", "addr:country": "US", "addr:full": "1406 WILLOW TRACE DR", "addr:postcode": "29501", "addr:state": "SC", "brand": "USPS", "brand:wikidata": "Q668687", "collection_times": "Mo-Sa 09:45", "name": "USPS COLLECTION BOX - BLUE BOX", "ref": "2950100145"}, "type": "Feature"}
{"geometry": {"coordinates": [-79.754384532, 34.16303356], "type": "Point"}, "id": "xHYubn_ZtnBMUduV7ZpvcFBQgwk=", "properties": {"@spider": "usps_collection_boxes", "addr:city": "FLORENCE", "addr:country": "US", "addr:full": "1590 FREEDOM BLVD", "addr:postcode": "29501", "addr:state": "SC", "brand": "USPS", "brand:wikidata": "Q668687", "collection_times": "Mo-Fr 13:15", "name": "USPS COLLECTION BOX - BLUE BOX", "note": "ON 12/24 AND 12/31, THIS BOX MAY BE COLLECTED AS EARLY AS 12 NOON.", "ref": "2950100146"}, "type": "Feature"}
{"geometry": {"coordinates": [-79.754384532, 34.16303356], "type": "Point"}, "id": "wqpme0ACdEoTyb7tE8Yl88hO2OA=", "properties": {"@spider": "usps_collection_boxes", "addr:city": "FLORENCE", "addr:country": "US", "addr:full": "1590 FREEDOM BLVD", "addr:postcode": "29501", "addr:state": "SC", "brand": "USPS", "brand:wikidata": "Q668687", "collection_times": "Mo-Fr 13:15", "name": "USPS COLLECTION BOX - BLUE BOX", "note": "ON 12/24 AND 12/31, THIS BOX MAY BE COLLECTED AS EARLY AS 12 NOON.", "ref": "2950100147"}, "type": "Feature"}
{"geometry": {"coordinates": [-79.757523054, 34.16223103], "type": "Point"}, "id": "O7kviATjkpRT794j4INEZE5781o=", "properties": {"@spider": "usps_collection_boxes", "addr:city": "FLORENCE", "addr:country": "US", "addr:full": "500 PAMPLICO HWY", "addr:postcode": "29501", "addr:state": "SC", "brand": "USPS", "brand:wikidata": "Q668687", "collection_times": "Mo-Fr 13:00; Sa 13:30", "name": "USPS COLLECTION BOX - BLUE BOX", "note": "ON 12/24 AND 12/31, THIS BOX MAY BE COLLECTED AS EARLY AS 12 NOON.", "ref": "2950100148"}, "type": "Feature"}
{"geometry": {"coordinates": [-79.803172016, 34.195447418], "type": "Point"}, "id": "Wxte2AzGkN4k9wBwmhKZ7BOjRas=", "properties": {"@spider": "usps_collection_boxes", "addr:city": "FLORENCE", "addr:country": "US", "addr:full": "1901 W EVANS ST", "addr:postcode": "29501", "addr:state": "SC", "brand": "USPS", "brand:wikidata": "Q668687", "collection_times": "Mo-Sa 19:00", "name": "USPS COLLECTION BOX - APC", "note": "ON 12/24 AND 12/31, THIS BOX MAY BE COLLECTED AS EARLY AS 12 NOON.", "ref": "2950100150"}, "type": "Feature"}
{"geometry": {"coordinates": [-79.768305631, 34.198470021], "type": "Point"}, "id": "prIrsZozqvulIY1FSDU0ajGJXks=", "properties": {"@spider": "usps_collection_boxes", "addr:city": "FLORENCE", "addr:country": "US", "addr:full": "180 N IRBY ST", "addr:postcode": "29501", "addr:state": "SC", "brand": "USPS", "brand:wikidata": "Q668687", "collection_times": "Mo-Fr 14:15", "name": "USPS COLLECTION BOX - BLUE BOX", "note": "ON 12/24 AND 12/31, THIS BOX MAY BE COLLECTED AS EARLY AS 12 NOON.", "ref": "2950100152"}, "type": "Feature"}
{"geometry": {"coordinates": [-79.741695809, 34.228945387], "type": "Point"}, "id": "r5o6aW-01oy_KUQNXYU3y7p1eGw=", "properties": {"@spider": "usps_collection_boxes", "addr:city": "FLORENCE", "addr:country": "US", "addr:full": "625 E ASHBY RD", "addr:postcode": "29501", "addr:state": "SC", "brand": "USPS", "brand:wikidata": "Q668687", "collection_times": "Mo-Sa 11:45", "name": "USPS COLLECTION BOX - PO LOBBY", "ref": "2950100155"}, "type": "Feature"}
{"geometry": {"coordinates": [-79.768323631, 34.198803021], "type": "Point"}, "id": "YiV9HA3KtOPhhDXCj9oM5sy1klM=", "properties": {"@spider": "usps_collection_boxes", "addr:city": "FLORENCE", "addr:country": "US", "addr:full": "181 N IRBY ST", "addr:postcode": "29501", "addr:state": "SC", "brand": "USPS", "brand:wikidata": "Q668687", "collection_times": "Mo-Fr 14:15", "name": "USPS COLLECTION BOX - BLUE BOX", "note": "ON 12/24 AND 12/31, THIS BOX MAY BE COLLECTED AS EARLY AS 12 NOON.", "ref": "2950100162"}, "type": "Feature"}
{"geometry": {"coordinates": [-79.803172016, 34.195447418], "type": "Point"}, "id": "Cu-l2JoM3JCMQ30J7kBTJU71jx0=", "properties": {"@spider": "usps_collection_boxes", "addr:city": "FLORENCE", "addr:country": "US", "addr:full": "1901 W EVANS ST", "addr:postcode": "29501", "addr:state": "SC", "brand": "USPS", "brand:wikidata": "Q668687", "collection_times": "Mo-Fr 17:00; Sa 13:00", "name": "USPS COLLECTION BOX - PO LOBBY", "note": "ON 12/24 AND 12/31, THIS BOX MAY BE COLLECTED AS EARLY AS 12 NOON.", "ref": "2950100166"}, "type": "Feature"}
{"geometry": {"coordinates": [-79.741695809, 34.228945387], "type": "Point"}, "id": "l9yRXrFqFFmrIxNbUV8JmhaEM9A=", "properties": {"@spider": "usps_collection_boxes", "addr:city": "FLORENCE", "addr:country": "US", "addr:full": "625 E ASHBY RD", "addr:postcode": "29501", "addr:state": "SC", "brand": "USPS", "brand:wikidata": "Q668687", "collection_times": "Mo-Fr 12:00", "name": "USPS COLLECTION BOX - PO LOBBY", "ref": "2950100167"}, "type": "Feature"}
{"geometry": {"coordinates": [-79.773333962, 34.196985422], "type": "Point"}, "id": "7JpBm-sPFyXTrEvbFbFlzsztFHA=", "properties": {"@spider": "usps_collection_boxes", "addr:city": "FLORENCE", "addr:country": "US", "addr:full": "401 W EVANS ST", "addr:postcode": "29501", "addr:state": "SC", "brand": "USPS", "brand:wikidata": "Q668687", "collection_times": "Mo-Fr 12:00", "name": "USPS COLLECTION BOX - PO LOBBY", "ref": "2950100168"}, "type": "Feature"}
{"geometry": {"coordinates": [-79.771523555, 34.166963984], "type": "Point"}, "id": "EOq2zExoQXj8hmqkL29mz8ivvQc=", "properties": {"@spider": "usps_collection_boxes", "addr:city": "FLORENCE", "addr:country": "US", "addr:full": "510 2ND LOOP RD", "addr:postcode": "29505", "addr:state": "SC", "brand": "USPS", "brand:wikidata": "Q668687", "collection_times": "Mo-Fr 17:00; Sa 13:30", "name": "USPS COLLECTION BOX - BLUE BOX", "note": "ON 12/24 AND 12/31, THIS BOX MAY BE COLLECTED AS EARLY AS 12 NOON.", "ref": "2950500000"}, "type": "Feature"}
{"geometry": {"coordinates": [-79.771523555, 34.166963984], "type": "Point"}, "id": "B7yNS_RPDQngiDKzOms2eEf79yo=", "properties": {"@spider": "usps_collection_boxes", "addr:city": "FLORENCE", "addr:country": "US", "addr:full": "510 2ND LOOP RD", "addr:postcode": "29505", "addr:state": "SC", "brand": "USPS", "brand:wikidata": "Q668687", "collection_times": "Mo-Fr 16:30; Sa 11:45", "name": "USPS COLLECTION BOX - PO LOBBY", "note": "ON 12/24 AND 12/31, THIS BOX MAY BE COLLECTED AS EARLY AS 12 NOON.", "ref": "2950500001"}, "type": "Feature"}
{"geometry": {"coordinates": [-79.771523555, 34.166963984], "type": "Point"}, "id": "FR7YVVs5KolAqFCl_a3bgNUqFdw=", "properties": {"@spider": "usps_collection_boxes", "addr:city": "FLORENCE", "addr:country": "US", "addr:full": "510 2ND LOOP RD", "addr:postcode": "29505", "addr:state": "SC", "brand": "USPS", "brand:wikidata": "Q668687", "collection_times": "Mo-Fr 16:30; Sa 11:45", "name": "USPS COLLECTION BOX - PO LOBBY", "note": "ON 12/24 AND 12/31, THIS BOX MAY BE COLLECTED AS EARLY AS 12 NOON.", "ref": "2950500002"}, "type": "Feature"}
{"geometry": {"coordinates": [-79.767787838, 34.156438534], "type": "Point"}, "id": "_nZhw6UjdgJoo6Q8jUjLD6oIfGQ=", "properties": {"@spider": "usps_collection_boxes", "addr:city": "FLORENCE", "addr:country": "US", "addr:full": "2014 S IRBY ST", "addr:postcode": "29505", "addr:state": "SC", "brand": "USPS", "brand:wikidata": "Q668687", "collection_times": "Mo-Fr 14:00; Sa 14:30", "name": "USPS COLLECTION BOX - BLUE BOX", "note": "ON 12/24 AND 12/31, THIS BOX MAY BE COLLECTED AS EARLY AS 12 NOON.", "ref": "2950500005"}, "type": "Feature"}
{"geometry": {"coordinates": [-79.771523555, 34.166963984], "type": "Point"}, "id": "t1n_M2ioiyhlE066c4ZMY4eBK-c=", "properties": {"@spider": "usps_collection_boxes", "addr:city": "FLORENCE", "addr:country": "US", "addr:full": "510 2ND LOOP RD", "addr:postcode": "29505", "addr:state": "SC", "brand": "USPS", "brand:wikidata": "Q668687", "collection_times": "Mo-Fr 16:00; Sa 11:00", "name": "USPS COLLECTION BOX - PO LOBBY", "note": "ON 12/24 AND 12/31, THIS BOX MAY BE COLLECTED AS EARLY AS 12 NOON.", "ref": "2950500010"}, "type": "Feature"}
{"geometry": {"coordinates": [-79.685795056, 34.615945814], "type": "Point"}, "id": "OkW_jQhZ60SHeGRR6SsB5JphilI=", "properties": {"@spider": "usps_collection_boxes", "addr:city": "BENNETTSVILLE", "addr:country": "US", "addr:full": "208 W MAIN ST", "addr:postcode": "29512", "addr:state": "SC", "brand": "USPS", "brand:wikidata": "Q668687", "collection_times": "Mo-Fr 17:00; Sa 12:00", "name": "USPS COLLECTION BOX - PO LOBBY", "note": "ON 12/24 AND 12/31, THIS BOX MAY BE COLLECTED AS EARLY AS 12 NOON.", "ref": "2951200016"}, "type": "Feature"}
{"geometry": {"coordinates": [-79.685795056, 34.615945814], "type": "Point"}, "id": "jlZrC4DRq5tFruv6K6fZyNs-HTs=", "properties": {"@spider": "usps_collection_boxes", "addr:city": "BENNETTSVILLE", "addr:country": "US", "addr:full": "208 W MAIN ST", "addr:postcode": "29512", "addr:state": "SC", "brand": "USPS", "brand:wikidata": "Q668687", "collection_times": "Mo-Fr 17:00; Sa 12:00", "name": "USPS COLLECTION BOX - PO LOBBY", "note": "ON 12/24 AND 12/31, THIS BOX MAY BE COLLECTED AS EARLY AS 12 NOON.", "ref": "2951200017"}, "type": "Feature"}
{"geometry": {"coordinates": [-79.685795056, 34.615945814], "type": "Point"}, "id": "VWnQeVJwAtWqmdbcbQT7Z_tnNOQ=", "properties": {"@spider": "usps_collection_boxes", "addr:city": "BENNETTSVILLE", "addr:country": "US", "addr:full": "208 W MAIN ST", "addr:postcode": "29512", "addr:state": "SC", "brand": "USPS", "brand:wikidata": "Q668687", "collection_times": "Mo-Fr 17:00; Sa 12:00", "name": "USPS COLLECTION BOX - BLUE BOX", "note": "ON 12/24 AND 12/31, THIS BOX MAY BE COLLECTED AS EARLY AS 12 NOON.", "ref": "2951200018"}, "type": "Feature"}
{"geometry": {"coordinates": [-79.685795056, 34.615945814], "type": "Point"}, "id": "az_29NFmFj4ZcEnJ_vs4B3q4tEo=", "properties": {"@spider": "usps_collection_boxes", "addr:city": "BENNETTSVILLE", "addr:country": "US", "addr:full": "208 W MAIN ST", "addr:postcode": "29512", "addr:state": "SC", "brand": "USPS", "brand:wikidata": "Q668687", "collection_times": "Mo-Fr 17:00; Sa 12:00", "name": "USPS COLLECTION BOX - BLUE BOX", "note": "ON 12/24 AND 12/31, THIS BOX MAY BE COLLECTED AS EARLY AS 12 NOON.", "ref": "2951200019"}, "type": "Feature"}
{"geometry": {"coordinates": [-79.685795056, 34.615945814], "type": "Point"}, "id": "wdPaX2ybODrGcSrN4v8brtPwePs=", "properties": {"@spider": "usps_collection_boxes", "addr:city": "BENNETTSVILLE", "addr:country": "US", "addr:full": "208 W MAIN ST", "addr:postcode": "29512", "addr:state": "SC", "brand": "USPS", "brand:wikidata": "Q668687", "collection_times": "Mo-Fr 17:00; Sa 12:00", "name": "USPS COLLECTION BOX - BLUE BOX", "note": "ON 12/24 AND 12/31, THIS BOX MAY BE COLLECTED AS EARLY AS 12 NOON.", "ref": "2951200028"}, "type": "Feature"}
{"geometry": {"coordinates": [-79.685795056, 34.615945814], "type": "Point"}, "id": "PT5--sZ_25Oyk7mQF1z6m5EhQSQ=", "properties": {"@spider": "usps_collection_boxes", "addr:city": "BENNETTSVILLE", "addr:country": "US", "addr:full": "208 W MAIN ST", "addr:postcode": "29512", "addr:state": "SC", "brand": "USPS", "brand:wikidata": "Q668687", "collection_times": "Mo-Fr 17:00; Sa 12:00", "name": "USPS COLLECTION BOX - PO LOBBY", "note": "ON 12/24 AND 12/31, THIS BOX MAY BE COLLECTED AS EARLY AS 12 NOON.", "ref": "2951200030"}, "type": "Feature"}
{"geometry": {"coordinates": [-79.655597846, 34.510285941], "type": "Point"}, "id": "i5A1Pu2D38FF2icbllINReYogC4=", "properties": {"@spider": "usps_collection_boxes", "addr:city": "BLENHEIM", "addr:country": "US", "addr:full": "105 W HIGH ST", "addr:postcode": "29516", "addr:state": "SC", "brand": "USPS", "brand:wikidata": "Q668687", "collection_times": "Mo-Fr 15:45; Sa 09:45", "name": "USPS COLLECTION BOX - PO LOBBY", "note": "ON 12/24 AND 12/31, THIS BOX MAY BE COLLECTED AS EARLY AS 12 NOON.", "ref": "2951600002"}, "type": "Feature"}
{"geometry": {"coordinates": [-79.655597846, 34.510285941], "type": "Point"}, "id": "XkPkpxTEqpxl-zlb2gCjCctMDRo=", "properties": {"@spider": "usps_collection_boxes", "addr:city": "BLENHEIM", "addr:country": "US", "addr:full": "105 W HIGH ST", "addr:postcode": "29516", "addr:state": "SC", "brand": "USPS", "brand:wikidata": "Q668687", "collection_times": "Mo-Fr 15:45; Sa 09:45", "name": "USPS COLLECTION BOX - BLUE BOX", "note": "ON 12/24 AND 12/31, THIS BOX MAY BE COLLECTED AS EARLY AS 12 NOON.", "ref": "2951600003"}, "type": "Feature"}
{"geometry": {"coordinates": [-79.655597846, 34.510285941], "type": "Point"}, "id": "Mj1L-0_MDUbTWbzJP7S6BC9gVK4=", "properties": {"@spider": "usps_collection_boxes", "addr:city": "BLENHEIM", "addr:country": "US", "addr:full": "105 W HIGH ST", "addr:postcode": "29516", "addr:state": "SC", "brand": "USPS", "brand:wikidata": "Q668687", "collection_times": "Mo-Fr 15:45; Sa 09:45", "name": "USPS COLLECTION BOX - PO LOBBY", "note": "ON 12/24 AND 12/31, THIS BOX MAY BE COLLECTED AS EARLY AS 12 NOON.", "ref": "2951600005"}, "type": "Feature"}
{"geometry": {"coordinates": [-79.790122906, 33.791491888], "type": "Point"}, "id": "XUdyebR6xfzAz3nTN_-tQ5oIUig=", "properties": {"@spider": "usps_collection_boxes", "addr:city": "CADES", "addr:country": "US", "addr:full": "3116 N WILLIAMSBURG COUNTY HWY", "addr:postcode": "29518", "addr:state": "SC", "brand": "USPS", "brand:wikidata": "Q668687", "collection_times": "Mo-Fr 15:45; Sa 10:00", "name": "USPS COLLECTION BOX - PO LOBBY", "note": "ON 12/24 AND 12/31, THIS BOX MAY BE COLLECTED AS EARLY AS 12 NOON.", "ref": "2951800001"}, "type": "Feature"}
{"geometry": {"coordinates": [-79.790122906, 33.791491888], "type": "Point"}, "id": "FV6AU8YNmeInPduTg1HjKPtUjgc=", "properties": {"@spider": "usps_collection_boxes", "addr:city": "CADES", "addr:country": "US", "addr:full": "3116 N WILLIAMSBURG COUNTY HWY", "addr:postcode": "29518", "addr:state": "SC", "brand": "USPS", "brand:wikidata": "Q668687", "collection_times": "Mo-Fr 15:45; Sa 10:00", "name": "USPS COLLECTION BOX - BLUE BOX", "note": "ON 12/24 AND 12/31, THIS BOX MAY BE COLLECTED AS EARLY AS 12 NOON.", "ref": "2951800002"}, "type": "Feature"}
{"geometry": {"coordinates": [-79.790122906, 33.791491888], "type": "Point"}, "id": "A90ZdpbqhPDTwxcVMgbwCsxsJ_8=", "properties": {"@spider": "usps_collection_boxes", "addr:city": "CADES", "addr:country": "US", "addr:full": "3116 N WILLIAMSBURG COUNTY HWY", "addr:postcode": "29518", "addr:state": "SC", "brand": "USPS", "brand:wikidata": "Q668687", "collection_times": "Mo-Fr 15:45; Sa 09:45", "name": "USPS COLLECTION BOX - PO LOBBY", "note": "ON 12/24 AND 12/31, THIS BOX MAY BE COLLECTED AS EARLY AS 12 NOON.", "ref": "2951800004"}, "type": "Feature"}
{"geometry": {"coordinates": [-79.352528025, 34.03266843], "type": "Point"}, "id": "uv2dn-QPGtYFgQr61zipmXegYwM=", "properties": {"@spider": "usps_collection_boxes", "addr:city": "CENTENARY", "addr:country": "US", "addr:full": "4811 S HIGHWAY 41A", "addr:postcode": "29519", "addr:state": "SC", "brand": "USPS", "brand:wikidata": "Q668687", "collection_times": "Mo-Fr 15:45; Sa 09:45", "name": "USPS COLLECTION BOX - BLUE BOX", "note": "ON 12/24 AND 12/31, THIS BOX MAY BE COLLECTED AS EARLY AS 12 NOON.", "ref": "2951900001"}, "type": "Feature"}
{"geometry": {"coordinates": [-79.352528025, 34.03266843], "type": "Point"}, "id": "N1LFouAuk7fyjPtG98zfKUgkKDU=", "properties": {"@spider": "usps_collection_boxes", "addr:city": "CENTENARY", "addr:country": "US", "addr:full": "4811 S HIGHWAY 41A", "addr:postcode": "29519", "addr:state": "SC", "brand": "USPS", "brand:wikidata": "Q668687", "collection_times": "Mo-Fr 15:45; Sa 09:45", "name": "USPS COLLECTION BOX - PO LOBBY", "note": "ON 12/24 AND 12/31, THIS BOX MAY BE COLLECTED AS EARLY AS 12 NOON.", "ref": "2951900003"}, "type": "Feature"}
{"geometry": {"coordinates": [-79.885231893, 34.696562093], "type": "Point"}, "id": "fyHjg8fHJHkUpszpLQNFkXsAByk=", "properties": {"@spider": "usps_collection_boxes", "addr:city": "CHERAW", "addr:country": "US", "addr:full": "200 3RD ST", "addr:postcode": "29520", "addr:state": "SC", "brand": "USPS", "brand:wikidata": "Q668687", "collection_times": "Mo-Fr 16:15; Sa 10:15", "name": "USPS COLLECTION BOX - BLUE BOX", "note": "ON 12/24 AND 12/31, THIS BOX MAY BE COLLECTED AS EARLY AS 12 NOON.", "ref": "2952000006"}, "type": "Feature"}
{"geometry": {"coordinates": [-79.885427248, 34.696431583], "type": "Point"}, "id": "Hk2Ef5i7aWEUA5UMGE0CQ8EDkBs=", "properties": {"@spider": "usps_collection_boxes", "addr:city": "CHERAW", "addr:country": "US", "addr:full": "201 3RD ST", "addr:postcode": "29520", "addr:state": "SC", "brand": "USPS", "brand:wikidata": "Q668687", "collection_times": "Mo-Fr 16:15; Sa 10:15", "name": "USPS COLLECTION BOX - BLUE BOX", "note": "ON 12/24 AND 12/31, THIS BOX MAY BE COLLECTED AS EARLY AS 12 NOON.", "ref": "2952000007"}, "type": "Feature"}
{"geometry": {"coordinates": [-79.885427248, 34.696431583], "type": "Point"}, "id": "THXBzD3HUzR3QTLS1EYOy2lp9Gs=", "properties": {"@spider": "usps_collection_boxes", "addr:city": "CHERAW", "addr:country": "US", "addr:full": "201 3RD ST", "addr:postcode": "29520", "addr:state": "SC", "brand": "USPS", "brand:wikidata": "Q668687", "collection_times": "Mo-Fr 16:15; Sa 10:15", "name": "USPS COLLECTION BOX - BLUE BOX", "note": "ON 12/24 AND 12/31, THIS BOX MAY BE COLLECTED AS EARLY AS 12 NOON.", "ref": "2952000008"}, "type": "Feature"}
{"geometry": {"coordinates": [-79.9285771452, 34.7002236738], "type": "Point"}, "id": "tilXwwkeCco9KtDyt_p28KB-w_A=", "properties": {"@spider": "usps_collection_boxes", "addr:city": "CHERAW", "addr:country": "US", "addr:full": "1640 STATE ROAD", "addr:postcode": "29520", "addr:state": "SC", "brand": "USPS", "brand:wikidata": "Q668687", "collection_times": "Mo-Fr 16:00; Sa 10:00", "name": "USPS COLLECTION BOX - BLUE BOX", "note": "ON 12/24 AND 12/31, THIS BOX MAY BE COLLECTED AS EARLY AS 12 NOON.", "ref": "2952000030"}, "type": "Feature"}
{"geometry": {"coordinates": [-79.884507232, 34.696900047], "type": "Point"}, "id": "lhvKAGiLev2FmBc2ES6ie-tgCi0=", "properties": {"@spider": "usps_collection_boxes", "addr:city": "CHERAW", "addr:country": "US", "addr:full": "248 MARKET ST", "addr:postcode": "29520", "addr:state": "SC", "brand": "USPS", "brand:wikidata": "Q668687", "collection_times": "Mo-Fr 16:15; Sa 10:15", "name": "USPS COLLECTION BOX - PO LOBBY", "note": "ON 12/24 AND 12/31, THIS BOX MAY BE COLLECTED AS EARLY AS 12 NOON.", "ref": "2952000039"}, "type": "Feature"}
{"geometry": {"coordinates": [-79.884507232, 34.696900047], "type": "Point"}, "id": "S252V5_14KYFw-tdqWm7RY5J3xE=", "properties": {"@spider": "usps_collection_boxes", "addr:city": "CHERAW", "addr:country": "US", "addr:full": "248 MARKET ST", "addr:postcode": "29520", "addr:state": "SC", "brand": "USPS", "brand:wikidata": "Q668687", "collection_times": "Mo-Fr 16:15; Sa 10:15", "name": "USPS COLLECTION BOX - PO LOBBY", "note": "ON 12/24 AND 12/31, THIS BOX MAY BE COLLECTED AS EARLY AS 12 NOON.", "ref": "2952000040"}, "type": "Feature"}
{"geometry": {"coordinates": [-79.928077284, 34.69693453], "type": "Point"}, "id": "JILwzzVObJ6mD38RrWitLAkgZdY=", "properties": {"@spider": "usps_collection_boxes", "addr:city": "CHERAW", "addr:country": "US", "addr:full": "91 CALVARY RD", "addr:postcode": "29520", "addr:state": "SC", "brand": "USPS", "brand:wikidata": "Q668687", "collection_times": "Mo-Fr 16:00; Sa 10:00", "name": "USPS COLLECTION BOX - BLUE BOX", "note": "ON 12/24 AND 12/31, THIS BOX MAY BE COLLECTED AS EARLY AS 12 NOON.", "ref": "2952000042"}, "type": "Feature"}
{"geometry": {"coordinates": [-79.885231893, 34.696562093], "type": "Point"}, "id": "tfzCc7Mwm3JGnUAnO6GgomejRhI=", "properties": {"@spider": "usps_collection_boxes", "addr:city": "CHERAW", "addr:country": "US", "addr:full": "200 3RD ST", "addr:postcode": "29520", "addr:state": "SC", "brand": "USPS", "brand:wikidata": "Q668687", "collection_times": "Mo-Fr 16:15; Sa 10:15", "name": "USPS COLLECTION BOX - PO LOBBY", "note": "ON 12/24 AND 12/31, THIS BOX MAY BE COLLECTED AS EARLY AS 12 NOON.", "ref": "2952000047"}, "type": "Feature"}
{"geometry": {"coordinates": [-79.545084552, 34.580126756], "type": "Point"}, "id": "SZMkNI4t80V5Xb42-TGgWhG7uCg=", "properties": {"@spider": "usps_collection_boxes", "addr:city": "CLIO", "addr:country": "US", "addr:full": "117 RED BLUFF ST", "addr:postcode": "29525", "addr:state": "SC", "brand": "USPS", "brand:wikidata": "Q668687", "collection_times": "Mo-Fr 15:45; Sa 09:45", "name": "USPS COLLECTION BOX - BLUE BOX", "note": "ON 12/24 AND 12/31, THIS BOX MAY BE COLLECTED AS EARLY AS 12 NOON.", "ref": "2952500001"}, "type": "Feature"}
{"geometry": {"coordinates": [-79.545084552, 34.580126756], "type": "Point"}, "id": "yEKhzjLLyh7YLIfqDVQm4sZ5aLE=", "properties": {"@spider": "usps_collection_boxes", "addr:city": "CLIO", "addr:country": "US", "addr:full": "117 RED BLUFF ST", "addr:postcode": "29525", "addr:state": "SC", "brand": "USPS", "brand:wikidata": "Q668687", "collection_times": "Mo-Fr 15:45; Sa 09:45", "name": "USPS COLLECTION BOX - PO LOBBY", "note": "ON 12/24 AND 12/31, THIS BOX MAY BE COLLECTED AS EARLY AS 12 NOON.", "ref": "2952500002"}, "type": "Feature"}
{"geometry": {"coordinates": [-79.545080888, 34.580130317], "type": "Point"}, "id": "HPtz1vGouDSWFnSO-9Mx7g99INs=", "properties": {"@spider": "usps_collection_boxes", "addr:city": "CLIO", "addr:country": "US", "addr:full": "117 RED BLUFF ST", "addr:postcode": "29525", "addr:state": "SC", "brand": "USPS", "brand:wikidata": "Q668687", "collection_times": "Mo-Fr 15:45; Sa 09:30", "name": "USPS COLLECTION BOX - PO LOBBY", "note": "ON 12/24 AND 12/31, THIS BOX MAY BE COLLECTED AS EARLY AS 12 NOON.", "ref": "2952500004"}, "type": "Feature"}
{"geometry": {"coordinates": [-79.749073475, 33.970518576], "type": "Point"}, "id": "K-4mqXDwsGAhFU2yjMhsx8lFP1Q=", "properties": {"@spider": "usps_collection_boxes", "addr:city": "COWARD", "addr:country": "US", "addr:full": "3701 US HIGHWAY 52", "addr:postcode": "29530", "addr:state": "SC", "brand": "USPS", "brand:wikidata": "Q668687", "collection_times": "Mo-Fr 15:45; Sa 09:45", "name": "USPS COLLECTION BOX - PO LOBBY", "note": "ON 12/24 AND 12/31, THIS BOX MAY BE COLLECTED AS EARLY AS 12 NOON.", "ref": "2953000001"}, "type": "Feature"}
{"geometry": {"coordinates": [-79.749073475, 33.970518576], "type": "Point"}, "id": "lC2RcJpV3gYQhjWFJ_0eICCbs3Q=", "properties": {"@spider": "usps_collection_boxes", "addr:city": "COWARD", "addr:country": "US", "addr:full": "3701 US HIGHWAY 52", "addr:postcode": "29530", "addr:state": "SC", "brand": "USPS", "brand:wikidata": "Q668687", "collection_times": "Mo-Fr 15:45; Sa 09:45", "name": "USPS COLLECTION BOX - BLUE BOX", "note": "ON 12/24 AND 12/31, THIS BOX MAY BE COLLECTED AS EARLY AS 12 NOON.", "ref": "2953000002"}, "type": "Feature"}
{"geometry": {"coordinates": [-79.749073475, 33.970518576], "type": "Point"}, "id": "Wxs5e3sTUtGluVV7AvymimIyvSM=", "properties": {"@spider": "usps_collection_boxes", "addr:city": "COWARD", "addr:country": "US", "addr:full": "3701 US HIGHWAY 52", "addr:postcode": "29530", "addr:state": "SC", "brand": "USPS", "brand:wikidata": "Q668687", "collection_times": "Mo-Fr 15:45; Sa 09:45", "name": "USPS COLLECTION BOX - PO LOBBY", "note": "ON 12/24 AND 12/31, THIS BOX MAY BE COLLECTED AS EARLY AS 12 NOON.", "ref": "2953000004"}, "type": "Feature"}
{"geometry": {"coordinates": [-79.749073475, 33.970518576], "type": "Point"}, "id": "xpN1U9k8EIksnEh1UeoLdzfJEcU=", "properties": {"@spider": "usps_collection_boxes", "addr:city": "COWARD", "addr:country": "US", "addr:full": "3701 US HIGHWAY 52", "addr:postcode": "29530", "addr:state": "SC", "brand": "USPS", "brand:wikidata": "Q668687", "collection_times": "Mo-Fr 15:45; Sa 09:45", "name": "USPS COLLECTION BOX - PO LOBBY", "note": "ON 12/24 AND 12/31, THIS BOX MAY BE COLLECTED AS EARLY AS 12 NOON.", "ref": "2953000005"}, "type": "Feature"}
{"geometry": {"coordinates": [-79.87660557, 34.299797155], "type": "Point"}, "id": "Xq0WeMZqUMGA_-Kqn_5iG74nhQQ=", "properties": {"@spider": "usps_collection_boxes", "addr:city": "DARLINGTON", "addr:country": "US", "addr:full": "413 PEARL ST", "addr:postcode": "29532", "addr:state": "SC", "brand": "USPS", "brand:wikidata": "Q668687", "collection_times": "Mo-Sa 13:15", "name": "USPS COLLECTION BOX - BLUE BOX", "note": "ON 12/24 AND 12/31, THIS BOX MAY BE COLLECTED AS EARLY AS 12 NOON.", "ref": "2953200003"}, "type": "Feature"}
{"geometry": {"coordinates": [-79.867079166, 34.305355624], "type": "Point"}, "id": "6LSgiNbS9TDC4VO3MbeZ3rUk_t0=", "properties": {"@spider": "usps_collection_boxes", "addr:city": "DARLINGTON", "addr:country": "US", "addr:full": "264 CASHUA ST", "addr:postcode": "29532", "addr:state": "SC", "brand": "USPS", "brand:wikidata": "Q668687", "collection_times": "Mo-Sa 13:45", "name": "USPS COLLECTION BOX - BLUE BOX", "note": "ON 12/24 AND 12/31, THIS BOX MAY BE COLLECTED AS EARLY AS 12 NOON.", "ref": "2953200004"}, "type": "Feature"}
{"geometry": {"coordinates": [-79.87315791, 34.30228672], "type": "Point"}, "id": "sUdDnGxLnsxvtCm00xHJfaiVq1k=", "properties": {"@spider": "usps_collection_boxes", "addr:city": "DARLINGTON", "addr:country": "US", "addr:full": "105 DARGAN ST SE", "addr:postcode": "29532", "addr:state": "SC", "brand": "USPS", "brand:wikidata": "Q668687", "collection_times": "Mo-Sa 13:30", "name": "USPS COLLECTION BOX - BLUE BOX", "note": "ON 12/24 AND 12/31, THIS BOX MAY BE COLLECTED AS EARLY AS 12 NOON.", "ref": "2953200007"}, "type": "Feature"}
{"geometry": {"coordinates": [-79.868056605, 34.302286428], "type": "Point"}, "id": "at6k4hqHC2NsUe1dGwTiS4KqJ38=", "properties": {"@spider": "usps_collection_boxes", "addr:city": "DARLINGTON", "addr:country": "US", "addr:full": "300 RUSSELL ST", "addr:postcode": "29532", "addr:state": "SC", "brand": "USPS", "brand:wikidata": "Q668687", "collection_times": "Mo-Sa 13:30", "name": "USPS COLLECTION BOX - BLUE BOX", "note": "ON 12/24 AND 12/31, THIS BOX MAY BE COLLECTED AS EARLY AS 12 NOON.", "ref": "2953200011"}, "type": "Feature"}
{"geometry": {"coordinates": [-79.870655269, 34.303085508], "type": "Point"}, "id": "OCSk7pkcWCJbZx5Tmy9iHLuiK4k=", "properties": {"@spider": "usps_collection_boxes", "addr:city": "DARLINGTON", "addr:country": "US", "addr:full": "52 PUBLIC SQ", "addr:postcode": "29532", "addr:state": "SC", "brand": "USPS", "brand:wikidata": "Q668687", "collection_times": "Mo-Sa 13:30", "name": "USPS COLLECTION BOX - EXPRESS", "note": "ON 12/24 AND 12/31, THIS BOX MAY BE COLLECTED AS EARLY AS 12 NOON.", "ref": "2953200016"}, "type": "Feature"}
{"geometry": {"coordinates": [-79.870655269, 34.303085508], "type": "Point"}, "id": "cWRuPtQl2r2jg2PEwjsreLXYTwY=", "properties": {"@spider": "usps_collection_boxes", "addr:city": "DARLINGTON", "addr:country": "US", "addr:full": "52 PUBLIC SQ", "addr:postcode": "29532", "addr:state": "SC", "brand": "USPS", "brand:wikidata": "Q668687", "collection_times": "Mo-Sa 13:30", "name": "USPS COLLECTION BOX - BLUE BOX", "note": "ON 12/24 AND 12/31, THIS BOX MAY BE COLLECTED AS EARLY AS 12 NOON.", "ref": "2953200017"}, "type": "Feature"}
{"geometry": {"coordinates": [-79.864486728, 34.294040381], "type": "Point"}, "id": "YtclMkIKgEoZtf-5uL6dkKBdHio=", "properties": {"@spider": "usps_collection_boxes", "addr:city": "DARLINGTON", "addr:country": "US", "addr:full": "805 S MAIN ST", "addr:postcode": "29532", "addr:state": "SC", "brand": "USPS", "brand:wikidata": "Q668687", "collection_times": "Mo-Sa 13:30", "name": "USPS COLLECTION BOX - BLUE BOX", "note": "ON 12/24 AND 12/31, THIS BOX MAY BE COLLECTED AS EARLY AS 12 NOON.", "ref": "2953200020"}, "type": "Feature"}
{"geometry": {"coordinates": [-79.862021592, 34.289759067], "type": "Point"}, "id": "9ETdGvdiTiEHB6j3PHDvR98ss2g=", "properties": {"@spider": "usps_collection_boxes", "addr:city": "DARLINGTON", "addr:country": "US", "addr:full": "1104 S MAIN ST", "addr:postcode": "29532", "addr:state": "SC", "brand": "USPS", "brand:wikidata": "Q668687", "collection_times": "Mo-Sa 13:30", "name": "USPS COLLECTION BOX - BLUE BOX", "note": "ON 12/24 AND 12/31, THIS BOX MAY BE COLLECTED AS EARLY AS 12 NOON.", "ref": "2953200024"}, "type": "Feature"}
{"geometry": {"coordinates": [-79.881901815, 34.318770972], "type": "Point"}, "id": "zbRyj2V_Quperx4lqaU0mm2uPZ0=", "properties": {"@spider": "usps_collection_boxes", "addr:city": "DARLINGTON", "addr:country": "US", "addr:full": "115 E SMITH AVE", "addr:postcode": "29532", "addr:state": "SC", "brand": "USPS", "brand:wikidata": "Q668687", "collection_times": "Mo-Fr 17:00; Sa 15:30", "name": "USPS COLLECTION BOX - PO LOBBY", "note": "ON 12/24 AND 12/31, THIS BOX MAY BE COLLECTED AS EARLY AS 12 NOON.", "ref": "2953200025"}, "type": "Feature"}
{"geometry": {"coordinates": [-79.881901815, 34.318770972], "type": "Point"}, "id": "9PB4SI3RCvx9ea6AOKnvz2VrKMQ=", "properties": {"@spider": "usps_collection_boxes", "addr:city": "DARLINGTON", "addr:country": "US", "addr:full": "115 E SMITH AVE", "addr:postcode": "29532", "addr:state": "SC", "brand": "USPS", "brand:wikidata": "Q668687", "collection_times": "Mo-Fr 17:00; Sa 15:30", "name": "USPS COLLECTION BOX - PO LOBBY", "note": "ON 12/24 AND 12/31, THIS BOX MAY BE COLLECTED AS EARLY AS 12 NOON.", "ref": "2953200027"}, "type": "Feature"}
{"geometry": {"coordinates": [-79.881901815, 34.318770972], "type": "Point"}, "id": "eFsX1L8pZ3TWNY38q67dLf2EiYo=", "properties": {"@spider": "usps_collection_boxes", "addr:city": "DARLINGTON", "addr:country": "US", "addr:full": "115 E SMITH AVE", "addr:postcode": "29532", "addr:state": "SC", "brand": "USPS", "brand:wikidata": "Q668687", "collection_times": "Mo-Fr 17:00; Sa 15:30", "name": "USPS COLLECTION BOX - BLUE BOX", "note": "ON 12/24 AND 12/31, THIS BOX MAY BE COLLECTED AS EARLY AS 12 NOON.", "ref": "2953200029"}, "type": "Feature"}
{"geometry": {"coordinates": [-79.881901815, 34.318770972], "type": "Point"}, "id": "ROkuAwbpl7By6d_I8pbrBmUKXow=", "properties": {"@spider": "usps_collection_boxes", "addr:city": "DARLINGTON", "addr:country": "US", "addr:full": "115 E SMITH AVE", "addr:postcode": "29532", "addr:state": "SC", "brand": "USPS", "brand:wikidata": "Q668687", "collection_times": "Mo-Fr 17:00; Sa 13:00", "name": "USPS COLLECTION BOX - PO LOBBY", "note": "ON 12/24 AND 12/31, THIS BOX MAY BE COLLECTED AS EARLY AS 12 NOON.", "ref": "2953200033"}, "type": "Feature"}
{"geometry": {"coordinates": [-79.374649882, 34.418555336], "type": "Point"}, "id": "56nYYem9FeM001yrNt7XyuLb2-4=", "properties": {"@spider": "usps_collection_boxes", "addr:city": "DILLON", "addr:country": "US", "addr:full": "300 W MAIN ST", "addr:postcode": "29536", "addr:state": "SC", "brand": "USPS", "brand:wikidata": "Q668687", "collection_times": "Mo-Fr 16:15; Sa 12:15", "name": "USPS COLLECTION BOX - PO LOBBY", "note": "ON 12/24 AND 12/31, THIS BOX MAY BE COLLECTED AS EARLY AS 12 NOON.", "ref": "2953600001"}, "type": "Feature"}
{"geometry": {"coordinates": [-79.374649882, 34.418555336], "type": "Point"}, "id": "KDMFyo03aiXxvZNsxYR02erf2V0=", "properties": {"@spider": "usps_collection_boxes", "addr:city": "DILLON", "addr:country": "US", "addr:full": "300 W MAIN ST", "addr:postcode": "29536", "addr:state": "SC", "brand": "USPS", "brand:wikidata": "Q668687", "collection_times": "Mo-Fr 16:15; Sa 12:15", "name": "USPS COLLECTION BOX - PO LOBBY", "note": "ON 12/24 AND 12/31, THIS BOX MAY BE COLLECTED AS EARLY AS 12 NOON.", "ref": "2953600002"}, "type": "Feature"}
{"geometry": {"coordinates": [-79.3651364, 34.424435448], "type": "Point"}, "id": "rmAtSZE1YNINJPMpSdxC4dnia0s=", "properties": {"@spider": "usps_collection_boxes", "addr:city": "DILLON", "addr:country": "US", "addr:full": "1000 HIGHWAY 301 N", "addr:postcode": "29536", "addr:state": "SC", "brand": "USPS", "brand:wikidata": "Q668687", "collection_times": "Mo-Sa 12:00", "name": "USPS COLLECTION BOX - BLUE BOX", "ref": "2953600007"}, "type": "Feature"}
{"geometry": {"coordinates": [-79.3763186532, 34.4182044253], "type": "Point"}, "id": "54pPVPSECxWvONZeRY_KsHHVbec=", "properties": {"@spider": "usps_collection_boxes", "addr:city": "DILLON", "addr:country": "US", "addr:full": "400 W HAMPTON ST", "addr:postcode": "29536", "addr:state": "SC", "brand": "USPS", "brand:wikidata": "Q668687", "collection_times": "Mo-Sa 12:00", "name": "USPS COLLECTION BOX - BLUE BOX", "ref": "2953600009"}, "type": "Feature"}
{"geometry": {"coordinates": [-79.365244237, 34.418530915], "type": "Point"}, "id": "BCjjwWZBJf_ZjdN19P4DFukejhA=", "properties": {"@spider": "usps_collection_boxes", "addr:city": "DILLON", "addr:country": "US", "addr:full": "500 N 8TH AVE", "addr:postcode": "29536", "addr:state": "SC", "brand": "USPS", "brand:wikidata": "Q668687", "collection_times": "Mo-Sa 12:00", "name": "USPS COLLECTION BOX - BLUE BOX", "ref": "2953600010"}, "type": "Feature"}
{"geometry": {"coordinates": [-79.366059516, 34.421309239], "type": "Point"}, "id": "19wrmDt7wXxwjIoTpVdrSjN-r8w=", "properties": {"@spider": "usps_collection_boxes", "addr:city": "DILLON", "addr:country": "US", "addr:full": "301 E JACKSON ST", "addr:postcode": "29536", "addr:state": "SC", "brand": "USPS", "brand:wikidata": "Q668687", "collection_times": "Mo-Sa 12:15", "name": "USPS COLLECTION BOX - BLUE BOX", "note": "ON 12/24 AND 12/31, THIS BOX MAY BE COLLECTED AS EARLY AS 12 NOON.", "ref": "2953600011"}, "type": "Feature"}
{"geometry": {"coordinates": [-79.3679085645, 34.4149097061], "type": "Point"}, "id": "mjFnJ08s-CaY--b8AIFiGIZ2CK0=", "properties": {"@spider": "usps_collection_boxes", "addr:city": "DILLON", "addr:country": "US", "addr:full": "504 E MAIN ST", "addr:postcode": "29536", "addr:state": "SC", "brand": "USPS", "brand:wikidata": "Q668687", "collection_times": "Mo-Sa 12:00", "name": "USPS COLLECTION BOX - BLUE BOX", "ref": "2953600012"}, "type": "Feature"}
{"geometry": {"coordinates": [-79.374649882, 34.418555336], "type": "Point"}, "id": "KS1AidswzbdDp7OzcwMjwsVjgRU=", "properties": {"@spider": "usps_collection_boxes", "addr:city": "DILLON", "addr:country": "US", "addr:full": "300 W MAIN ST", "addr:postcode": "29536", "addr:state": "SC", "brand": "USPS", "brand:wikidata": "Q668687", "collection_times": "Mo-Fr 16:15; Sa 12:15", "name": "USPS COLLECTION BOX - BLUE BOX", "note": "ON 12/24 AND 12/31, THIS BOX MAY BE COLLECTED AS EARLY AS 12 NOON.", "ref": "2953600014"}, "type": "Feature"}
{"geometry": {"coordinates": [-79.374649882, 34.418555336], "type": "Point"}, "id": "-Uo9dohtpq62L41Wk9jfTeps05w=", "properties": {"@spider": "usps_collection_boxes", "addr:city": "DILLON", "addr:country": "US", "addr:full": "300 W MAIN ST", "addr:postcode": "29536", "addr:state": "SC", "brand": "USPS", "brand:wikidata": "Q668687", "collection_times": "Mo-Fr 16:15; Sa 12:15", "name": "USPS COLLECTION BOX - BLUE BOX", "note": "ON 12/24 AND 12/31, THIS BOX MAY BE COLLECTED AS EARLY AS 12 NOON.", "ref": "2953600015"}, "type": "Feature"}
{"geometry": {"coordinates": [-79.367162707, 34.432994356], "type": "Point"}, "id": "YxlohSQUJipguGxViU5ZU5cMKLA=", "properties": {"@spider": "usps_collection_boxes", "addr:city": "DILLON", "addr:country": "US", "addr:full": "413 RADFORD BLVD", "addr:postcode": "29536", "addr:state": "SC", "brand": "USPS", "brand:wikidata": "Q668687", "collection_times": "Mo-Sa 12:15", "name": "USPS COLLECTION BOX - BLUE BOX", "note": "ON 12/24 AND 12/31, THIS BOX MAY BE COLLECTED AS EARLY AS 12 NOON.", "ref": "2953600020"}, "type": "Feature"}
{"geometry": {"coordinates": [-79.374649882, 34.418555336], "type": "Point"}, "id": "CMt1Sl0ARzStCs_oXhLa3E-YEj8=", "properties": {"@spider": "usps_collection_boxes", "addr:city": "DILLON", "addr:country": "US", "addr:full": "300 W MAIN ST", "addr:postcode": "29536", "addr:state": "SC", "brand": "USPS", "brand:wikidata": "Q668687", "collection_times": "Mo-Fr 16:30; Sa 12:00", "name": "USPS COLLECTION BOX - PO LOBBY", "note": "ON 12/24 AND 12/31, THIS BOX MAY BE COLLECTED AS EARLY AS 12 NOON.", "ref": "2953600023"}, "type": "Feature"}
{"geometry": {"coordinates": [-79.761736373, 34.069318564], "type": "Point"}, "id": "9vB9yIY3K6seZSJr9IS2KtZ_Iv8=", "properties": {"@spider": "usps_collection_boxes", "addr:city": "EFFINGHAM", "addr:country": "US", "addr:full": "5913 S IRBY ST", "addr:postcode": "29541", "addr:state": "SC", "brand": "USPS", "brand:wikidata": "Q668687", "collection_times": "Mo-Fr 15:45; Sa 10:45", "name": "USPS COLLECTION BOX - BLUE BOX", "note": "ON 12/24 AND 12/31, THIS BOX MAY BE COLLECTED AS EARLY AS 12 NOON.", "ref": "2954100001"}, "type": "Feature"}
{"geometry": {"coordinates": [-79.761736373, 34.069318564], "type": "Point"}, "id": "UWCKExI0_JgI4DXqvW7o24oyF0s=", "properties": {"@spider": "usps_collection_boxes", "addr:city": "EFFINGHAM", "addr:country": "US", "addr:full": "5913 S IRBY ST", "addr:postcode": "29541", "addr:state": "SC", "brand": "USPS", "brand:wikidata": "Q668687", "collection_times": "Mo-Fr 15:45; Sa 10:45", "name": "USPS COLLECTION BOX - PO LOBBY", "note": "ON 12/24 AND 12/31, THIS BOX MAY BE COLLECTED AS EARLY AS 12 NOON.", "ref": "2954100002"}, "type": "Feature"}
{"geometry": {"coordinates": [-79.761736373, 34.069318564], "type": "Point"}, "id": "1YodS02eu1t_kzAvbzozBlLGezA=", "properties": {"@spider": "usps_collection_boxes", "addr:city": "EFFINGHAM", "addr:country": "US", "addr:full": "5913 S IRBY ST", "addr:postcode": "29541", "addr:state": "SC", "brand": "USPS", "brand:wikidata": "Q668687", "collection_times": "Mo-Fr 15:45; Sa 10:45", "name": "USPS COLLECTION BOX - PO LOBBY", "note": "ON 12/24 AND 12/31, THIS BOX MAY BE COLLECTED AS EARLY AS 12 NOON.", "ref": "2954100003"}, "type": "Feature"}
{"geometry": {"coordinates": [-79.761736373, 34.069318564], "type": "Point"}, "id": "32-qljG40ZouPUuk2ZK4x_9Wgus=", "properties": {"@spider": "usps_collection_boxes", "addr:city": "EFFINGHAM", "addr:country": "US", "addr:full": "5913 S IRBY ST", "addr:postcode": "29541", "addr:state": "SC", "brand": "USPS", "brand:wikidata": "Q668687", "collection_times": "Mo-Fr 15:45; Sa 10:45", "name": "USPS COLLECTION BOX - PO LOBBY", "note": "ON 12/24 AND 12/31, THIS BOX MAY BE COLLECTED AS EARLY AS 12 NOON.", "ref": "2954100005"}, "type": "Feature"}
{"geometry": {"coordinates": [-79.27611807, 34.289380137], "type": "Point"}, "id": "wizHD5aXrjiqZh7X5QFkCAB3cko=", "properties": {"@spider": "usps_collection_boxes", "addr:city": "FORK", "addr:country": "US", "addr:full": "4114 HIGHWAY 57 S", "addr:postcode": "29543", "addr:state": "SC", "brand": "USPS", "brand:wikidata": "Q668687", "collection_times": "Mo-Fr 15:45; Sa 09:45", "name": "USPS COLLECTION BOX - BLUE BOX", "note": "ON 12/24 AND 12/31, THIS BOX MAY BE COLLECTED AS EARLY AS 12 NOON.", "ref": "2954300001"}, "type": "Feature"}
{"geometry": {"coordinates": [-79.27611807, 34.289380137], "type": "Point"}, "id": "Vaf2jmdkdw0crDMS-FJlpiDzt50=", "properties": {"@spider": "usps_collection_boxes", "addr:city": "FORK", "addr:country": "US", "addr:full": "4114 HIGHWAY 57 S", "addr:postcode": "29543", "addr:state": "SC", "brand": "USPS", "brand:wikidata": "Q668687", "collection_times": "Mo-Fr 15:45; Sa 09:45", "name": "USPS COLLECTION BOX - PO LOBBY", "note": "ON 12/24 AND 12/31, THIS BOX MAY BE COLLECTED AS EARLY AS 12 NOON.", "ref": "2954300002"}, "type": "Feature"}
{"geometry": {"coordinates": [-79.27611807, 34.289380137], "type": "Point"}, "id": "F8NBMTnpVTspKD1ZjKr6rZo2Wzc=", "properties": {"@spider": "usps_collection_boxes", "addr:city": "FORK", "addr:country": "US", "addr:full": "4114 HIGHWAY 57 S", "addr:postcode": "29543", "addr:state": "SC", "brand": "USPS", "brand:wikidata": "Q668687", "collection_times": "Mo-Fr 15:45; Sa 09:45", "name": "USPS COLLECTION BOX - PO LOBBY", "note": "ON 12/24 AND 12/31, THIS BOX MAY BE COLLECTED AS EARLY AS 12 NOON.", "ref": "2954300004"}, "type": "Feature"}
{"geometry": {"coordinates": [-79.340505272, 33.915252397], "type": "Point"}, "id": "Rk_eze4WDHbcLtVRarWuDefmSpc=", "properties": {"@spider": "usps_collection_boxes", "addr:city": "GRESHAM", "addr:country": "US", "addr:full": "7027 HIGHWAY 908", "addr:postcode": "29546", "addr:state": "SC", "brand": "USPS", "brand:wikidata": "Q668687", "collection_times": "Mo-Fr 15:45; Sa 09:45", "name": "USPS COLLECTION BOX - BLUE BOX", "note": "ON 12/24 AND 12/31, THIS BOX MAY BE COLLECTED AS EARLY AS 12 NOON.", "ref": "2954600001"}, "type": "Feature"}
{"geometry": {"coordinates": [-79.340505272, 33.915252397], "type": "Point"}, "id": "QCv9m7ikZfJ39vLsPICemWIJUgA=", "properties": {"@spider": "usps_collection_boxes", "addr:city": "GRESHAM", "addr:country": "US", "addr:full": "7027 HIGHWAY 908", "addr:postcode": "29546", "addr:state": "SC", "brand": "USPS", "brand:wikidata": "Q668687", "collection_times": "Mo-Fr 15:45; Sa 09:45", "name": "USPS COLLECTION BOX - PO LOBBY", "note": "ON 12/24 AND 12/31, THIS BOX MAY BE COLLECTED AS EARLY AS 12 NOON.", "ref": "2954600002"}, "type": "Feature"}
{"geometry": {"coordinates": [-79.340505272, 33.915252397], "type": "Point"}, "id": "DWPYNQqW3rwpSV3rHTOaihZ59dQ=", "properties": {"@spider": "usps_collection_boxes", "addr:city": "GRESHAM", "addr:country": "US", "addr:full": "7027 HIGHWAY 908", "addr:postcode": "29546", "addr:state": "SC", "brand": "USPS", "brand:wikidata": "Q668687", "collection_times": "Mo-Fr 15:45; Sa 09:45", "name": "USPS COLLECTION BOX - PO LOBBY", "note": "ON 12/24 AND 12/31, THIS BOX MAY BE COLLECTED AS EARLY AS 12 NOON.", "ref": "2954600004"}, "type": "Feature"}
{"geometry": {"coordinates": [-79.32711705, 34.475924399], "type": "Point"}, "id": "uVZ-0KjxL7r7XrFvROD7DejtQHE=", "properties": {"@spider": "usps_collection_boxes", "addr:city": "HAMER", "addr:country": "US", "addr:full": "2809 HIGHWAY 301 N", "addr:postcode": "29547", "addr:state": "SC", "brand": "USPS", "brand:wikidata": "Q668687", "collection_times": "Mo-Fr 15:45; Sa 09:45", "name": "USPS COLLECTION BOX - BLUE BOX", "note": "ON 12/24 AND 12/31, THIS BOX MAY BE COLLECTED AS EARLY AS 12 NOON.", "ref": "2954700001"}, "type": "Feature"}
{"geometry": {"coordinates": [-79.3271170496, 34.4759243989], "type": "Point"}, "id": "mGSpHziyw9In_rrsviN114jUaGY=", "properties": {"@spider": "usps_collection_boxes", "addr:city": "HAMER", "addr:country": "US", "addr:full": "2809 HIGHWAY 301 N", "addr:postcode": "29547", "addr:state": "SC", "brand": "USPS", "brand:wikidata": "Q668687", "collection_times": "Mo-Fr 15:45; Sa 09:45", "name": "USPS COLLECTION BOX - PO LOBBY", "note": "ON 12/24 AND 12/31, THIS BOX MAY BE COLLECTED AS EARLY AS 12 NOON.", "ref": "2954700002"}, "type": "Feature"}
{"geometry": {"coordinates": [-79.3083171974, 34.4992820785], "type": "Point"}, "id": "T0vD3zfaL5QkYRuikSaeCYEQXKE=", "properties": {"@spider": "usps_collection_boxes", "addr:city": "HAMER", "addr:country": "US", "addr:full": "3346 HIGHWAY 301 N", "addr:postcode": "29547", "addr:state": "SC", "brand": "USPS", "brand:wikidata": "Q668687", "collection_times": "Mo-Sa 10:00", "name": "USPS COLLECTION BOX - BLUE BOX", "ref": "2954700003"}, "type": "Feature"}
{"geometry": {"coordinates": [-79.32711705, 34.475924399], "type": "Point"}, "id": "0bP4O0yBqs6hrkC0hvOVTdwwUpo=", "properties": {"@spider": "usps_collection_boxes", "addr:city": "HAMER", "addr:country": "US", "addr:full": "2809 HIGHWAY 301 N", "addr:postcode": "29547", "addr:state": "SC", "brand": "USPS", "brand:wikidata": "Q668687", "collection_times": "Mo-Fr 15:45; Sa 09:45", "name": "USPS COLLECTION BOX - PO LOBBY", "note": "ON 12/24 AND 12/31, THIS BOX MAY BE COLLECTED AS EARLY AS 12 NOON.", "ref": "2954700006"}, "type": "Feature"}
{"geometry": {"coordinates": [-80.068109487, 34.370193511], "type": "Point"}, "id": "hC9yD5d3-FMngQ8ZXDJinXYOEd8=", "properties": {"@spider": "usps_collection_boxes", "addr:city": "HARTSVILLE", "addr:country": "US", "addr:full": "500 S 4TH ST", "addr:postcode": "29550", "addr:state": "SC", "brand": "USPS", "brand:wikidata": "Q668687", "collection_times": "Mo-Fr 16:45; Sa 11:45", "name": "USPS COLLECTION BOX - EXPRESS", "note": "ON 12/24 AND 12/31, THIS BOX MAY BE COLLECTED AS EARLY AS 12 NOON.", "ref": "2955000001"}, "type": "Feature"}
{"geometry": {"coordinates": [-80.068109487, 34.370193511], "type": "Point"}, "id": "If5NGZih-D-BZczdvAIbGF8YKxQ=", "properties": {"@spider": "usps_collection_boxes", "addr:city": "HARTSVILLE", "addr:country": "US", "addr:full": "500 S 4TH ST", "addr:postcode": "29550", "addr:state": "SC", "brand": "USPS", "brand:wikidata": "Q668687", "collection_times": "Mo-Fr 17:00; Sa 11:45", "name": "USPS COLLECTION BOX - BLUE BOX", "note": "ON 12/24 AND 12/31, THIS BOX MAY BE COLLECTED AS EARLY AS 12 NOON.", "ref": "2955000002"}, "type": "Feature"}
{"geometry": {"coordinates": [-80.073280948, 34.374067171], "type": "Point"}, "id": "WhrPTdoRWo2S28rnDF09FV4xgss=", "properties": {"@spider": "usps_collection_boxes", "addr:city": "HARTSVILLE", "addr:country": "US", "addr:full": "110 S 5TH ST", "addr:postcode": "29550", "addr:state": "SC", "brand": "USPS", "brand:wikidata": "Q668687", "collection_times": "Mo-Fr 14:00; Sa 11:45", "name": "USPS COLLECTION BOX - BLUE BOX", "note": "ON 12/24 AND 12/31, THIS BOX MAY BE COLLECTED AS EARLY AS 12 NOON.", "ref": "2955000004"}, "type": "Feature"}
{"geometry": {"coordinates": [-80.075211384, 34.391458078], "type": "Point"}, "id": "TYsH1Xm84jQpfLjf8z9Ltj8J0QU=", "properties": {"@spider": "usps_collection_boxes", "addr:city": "HARTSVILLE", "addr:country": "US", "addr:full": "1042 N 5TH ST", "addr:postcode": "29550", "addr:state": "SC", "brand": "USPS", "brand:wikidata": "Q668687", "collection_times": "Mo-Fr 14:00; Sa 11:45", "name": "USPS COLLECTION BOX - BLUE BOX", "note": "ON 12/24 AND 12/31, THIS BOX MAY BE COLLECTED AS EARLY AS 12 NOON.", "ref": "2955000012"}, "type": "Feature"}
{"geometry": {"coordinates": [-80.068109487, 34.370193511], "type": "Point"}, "id": "96drIJk4KLEiRS75nZL87-vHPps=", "properties": {"@spider": "usps_collection_boxes", "addr:city": "HARTSVILLE", "addr:country": "US", "addr:full": "500 S 4TH ST", "addr:postcode": "29550", "addr:state": "SC", "brand": "USPS", "brand:wikidata": "Q668687", "collection_times": "Mo-Fr 16:45; Sa 11:45", "name": "USPS COLLECTION BOX - PO LOBBY", "note": "ON 12/24 AND 12/31, THIS BOX MAY BE COLLECTED AS EARLY AS 12 NOON.", "ref": "2955000017"}, "type": "Feature"}
{"geometry": {"coordinates": [-80.106418475, 34.349048342], "type": "Point"}, "id": "vzkUJW5IrfZt8bkxpJoGf94fvxE=", "properties": {"@spider": "usps_collection_boxes", "addr:city": "HARTSVILLE", "addr:country": "US", "addr:full": "1304 W BOBO NEWSOM HWY", "addr:postcode": "29550", "addr:state": "SC", "brand": "USPS", "brand:wikidata": "Q668687", "collection_times": "Mo-Fr 14:00; Sa 11:45", "name": "USPS COLLECTION BOX - BLUE BOX", "note": "ON 12/24 AND 12/31, THIS BOX MAY BE COLLECTED AS EARLY AS 12 NOON.", "ref": "2955000021"}, "type": "Feature"}
{"geometry": {"coordinates": [-80.103990525, 34.351476785], "type": "Point"}, "id": "1yZXwxnX1PxR8cpR_5LMCYHjulU=", "properties": {"@spider": "usps_collection_boxes", "addr:city": "HARTSVILLE", "addr:country": "US", "addr:full": "701 MEDICAL PARK DR", "addr:postcode": "29550", "addr:state": "SC", "brand": "USPS", "brand:wikidata": "Q668687", "collection_times": "Mo-Fr 14:00; Sa 11:45", "name": "USPS COLLECTION BOX - BLUE BOX", "note": "ON 12/24 AND 12/31, THIS BOX MAY BE COLLECTED AS EARLY AS 12 NOON.", "ref": "2955000022"}, "type": "Feature"}
{"geometry": {"coordinates": [-80.068109487, 34.370193511], "type": "Point"}, "id": "i70WdiLkHQHH0KgpHvuvH_4HOEM=", "properties": {"@spider": "usps_collection_boxes", "addr:city": "HARTSVILLE", "addr:country": "US", "addr:full": "500 S 4TH ST", "addr:postcode": "29550", "addr:state": "SC", "brand": "USPS", "brand:wikidata": "Q668687", "collection_times": "Mo-Fr 17:00; Sa 11:45", "name": "USPS COLLECTION BOX - PO LOBBY", "note": "ON 12/24 AND 12/31, THIS BOX MAY BE COLLECTED AS EARLY AS 12 NOON.", "ref": "2955000027"}, "type": "Feature"}
{"geometry": {"coordinates": [-79.444202921, 33.753222415], "type": "Point"}, "id": "Q70gRPOEX07xkm3WS78k_2WN6X4=", "properties": {"@spider": "usps_collection_boxes", "addr:city": "HEMINGWAY", "addr:country": "US", "addr:full": "301 E BROAD ST", "addr:postcode": "29554", "addr:state": "SC", "brand": "USPS", "brand:wikidata": "Q668687", "collection_times": "Mo-Fr 16:15; Sa 09:45", "name": "USPS COLLECTION BOX - BLUE BOX", "note": "ON 12/24 AND 12/31, THIS BOX MAY BE COLLECTED AS EARLY AS 12 NOON.", "ref": "2955400001"}, "type": "Feature"}
{"geometry": {"coordinates": [-79.444202921, 33.753222415], "type": "Point"}, "id": "DsMiKpiaz676QU-i_lP5mXLpjCs=", "properties": {"@spider": "usps_collection_boxes", "addr:city": "HEMINGWAY", "addr:country": "US", "addr:full": "301 E BROAD ST", "addr:postcode": "29554", "addr:state": "SC", "brand": "USPS", "brand:wikidata": "Q668687", "collection_times": "Mo-Fr 16:15; Sa 09:45", "name": "USPS COLLECTION BOX - PO LOBBY", "note": "ON 12/24 AND 12/31, THIS BOX MAY BE COLLECTED AS EARLY AS 12 NOON.", "ref": "2955400004"}, "type": "Feature"}
{"geometry": {"coordinates": [-79.444202921, 33.753222415], "type": "Point"}, "id": "-9O46oVYJLp8SOfarbvi6-3pfoo=", "properties": {"@spider": "usps_collection_boxes", "addr:city": "HEMINGWAY", "addr:country": "US", "addr:full": "301 E BROAD ST", "addr:postcode": "29554", "addr:state": "SC", "brand": "USPS", "brand:wikidata": "Q668687", "collection_times": "Mo-Fr 16:15; Sa 09:45", "name": "USPS COLLECTION BOX - PO LOBBY", "note": "ON 12/24 AND 12/31, THIS BOX MAY BE COLLECTED AS EARLY AS 12 NOON.", "ref": "2955400005"}, "type": "Feature"}
{"geometry": {"coordinates": [-79.444202921, 33.753222415], "type": "Point"}, "id": "vArqYyGN1LNlLYSckBuFT7s4Q48=", "properties": {"@spider": "usps_collection_boxes", "addr:city": "HEMINGWAY", "addr:country": "US", "addr:full": "301 E BROAD ST", "addr:postcode": "29554", "addr:state": "SC", "brand": "USPS", "brand:wikidata": "Q668687", "collection_times": "Mo-Fr 16:00; Sa 09:45", "name": "USPS COLLECTION BOX - PO LOBBY", "note": "ON 12/24 AND 12/31, THIS BOX MAY BE COLLECTED AS EARLY AS 12 NOON.", "ref": "2955400008"}, "type": "Feature"}
{"geometry": {"coordinates": [-79.445458965, 33.827082225], "type": "Point"}, "id": "wBYNUkZd_Q0LxhB3FoDurMF-_Xk=", "properties": {"@spider": "usps_collection_boxes", "addr:city": "JOHNSONVILLE", "addr:country": "US", "addr:full": "417 N GEORGETOWN HWY", "addr:postcode": "29555", "addr:state": "SC", "brand": "USPS", "brand:wikidata": "Q668687", "collection_times": "Mo-Fr 15:45; Sa 10:45", "name": "USPS COLLECTION BOX - PO LOBBY", "note": "ON 12/24 AND 12/31, THIS BOX MAY BE COLLECTED AS EARLY AS 12 NOON.", "ref": "2955500001"}, "type": "Feature"}
{"geometry": {"coordinates": [-79.445458965, 33.827082225], "type": "Point"}, "id": "p5jg7uJA5m9_OI3NHHDgwpPkZvI=", "properties": {"@spider": "usps_collection_boxes", "addr:city": "JOHNSONVILLE", "addr:country": "US", "addr:full": "417 N GEORGETOWN HWY", "addr:postcode": "29555", "addr:state": "SC", "brand": "USPS", "brand:wikidata": "Q668687", "collection_times": "Mo-Fr 15:45; Sa 10:45", "name": "USPS COLLECTION BOX - PO LOBBY", "note": "ON 12/24 AND 12/31, THIS BOX MAY BE COLLECTED AS EARLY AS 12 NOON.", "ref": "2955500002"}, "type": "Feature"}
{"geometry": {"coordinates": [-79.445458965, 33.827082225], "type": "Point"}, "id": "2J5HOTkG81i-C073mVKBerYaf1g=", "properties": {"@spider": "usps_collection_boxes", "addr:city": "JOHNSONVILLE", "addr:country": "US", "addr:full": "417 N GEORGETOWN HWY", "addr:postcode": "29555", "addr:state": "SC", "brand": "USPS", "brand:wikidata": "Q668687", "collection_times": "Mo-Fr 15:45; Sa 10:45", "name": "USPS COLLECTION BOX - BLUE BOX", "note": "ON 12/24 AND 12/31, THIS BOX MAY BE COLLECTED AS EARLY AS 12 NOON.", "ref": "2955500003"}, "type": "Feature"}
{"geometry": {"coordinates": [-79.445458965, 33.827082225], "type": "Point"}, "id": "MCsuYnDvl3oYS0ogcHTrwv21Mrs=", "properties": {"@spider": "usps_collection_boxes", "addr:city": "JOHNSONVILLE", "addr:country": "US", "addr:full": "417 N GEORGETOWN HWY", "addr:postcode": "29555", "addr:state": "SC", "brand": "USPS", "brand:wikidata": "Q668687", "collection_times": "Mo-Fr 15:45; Sa 10:15", "name": "USPS COLLECTION BOX - PO LOBBY", "note": "ON 12/24 AND 12/31, THIS BOX MAY BE COLLECTED AS EARLY AS 12 NOON.", "ref": "2955500006"}, "type": "Feature"}
{"geometry": {"coordinates": [-79.831178671, 33.665010878], "type": "Point"}, "id": "qMe0nJKfpnPVaVSwyr6oCnwwtZg=", "properties": {"@spider": "usps_collection_boxes", "addr:city": "KINGSTREE", "addr:country": "US", "addr:full": "129 W MILL ST", "addr:postcode": "29556", "addr:state": "SC", "brand": "USPS", "brand:wikidata": "Q668687", "collection_times": "Mo-Fr 16:15; Sa 11:15", "name": "USPS COLLECTION BOX - BLUE BOX", "note": "ON 12/24 AND 12/31, THIS BOX MAY BE COLLECTED AS EARLY AS 12 NOON.", "ref": "2955600001"}, "type": "Feature"}
{"geometry": {"coordinates": [-79.831178671, 33.665010878], "type": "Point"}, "id": "1UgIKf5m_d6xXgk5hzOMxV8j1FU=", "properties": {"@spider": "usps_collection_boxes", "addr:city": "KINGSTREE", "addr:country": "US", "addr:full": "129 W MILL ST", "addr:postcode": "29556", "addr:state": "SC", "brand": "USPS", "brand:wikidata": "Q668687", "collection_times": "Mo-Fr 16:15; Sa 11:15", "name": "USPS COLLECTION BOX - BLUE BOX", "note": "ON 12/24 AND 12/31, THIS BOX MAY BE COLLECTED AS EARLY AS 12 NOON.", "ref": "2955600004"}, "type": "Feature"}
{"geometry": {"coordinates": [-79.824571487, 33.682810186], "type": "Point"}, "id": "m19TtLn4CZy_oSxyEm_V0aGdxdg=", "properties": {"@spider": "usps_collection_boxes", "addr:city": "KINGSTREE", "addr:country": "US", "addr:full": "1673 N LONGSTREET ST", "addr:postcode": "29556", "addr:state": "SC", "brand": "USPS", "brand:wikidata": "Q668687", "collection_times": "Mo-Fr 15:15; Sa 10:45", "name": "USPS COLLECTION BOX - BLUE BOX", "note": "ON 12/24 AND 12/31, THIS BOX MAY BE COLLECTED AS EARLY AS 12 NOON.", "ref": "2955600005"}, "type": "Feature"}
{"geometry": {"coordinates": [-79.826421555, 33.664654647], "type": "Point"}, "id": "ukTEiTKWfWcxep7py1Di87qDgRA=", "properties": {"@spider": "usps_collection_boxes", "addr:city": "KINGSTREE", "addr:country": "US", "addr:full": "300 E MAIN ST", "addr:postcode": "29556", "addr:state": "SC", "brand": "USPS", "brand:wikidata": "Q668687", "collection_times": "Mo-Fr 15:15; Sa 10:00", "name": "USPS COLLECTION BOX - BLUE BOX", "note": "ON 12/24 AND 12/31, THIS BOX MAY BE COLLECTED AS EARLY AS 12 NOON.", "ref": "2955600007"}, "type": "Feature"}
{"geometry": {"coordinates": [-79.822016502, 33.665762361], "type": "Point"}, "id": "9Zjq83A9W829-hv63Q5369nIE8M=", "properties": {"@spider": "usps_collection_boxes", "addr:city": "KINGSTREE", "addr:country": "US", "addr:full": "522 E MAIN ST", "addr:postcode": "29556", "addr:state": "SC", "brand": "USPS", "brand:wikidata": "Q668687", "collection_times": "Mo-Fr 15:15; Sa 11:00", "name": "USPS COLLECTION BOX - BLUE BOX", "note": "ON 12/24 AND 12/31, THIS BOX MAY BE COLLECTED AS EARLY AS 12 NOON.", "ref": "2955600008"}, "type": "Feature"}
{"geometry": {"coordinates": [-79.831178671, 33.665010878], "type": "Point"}, "id": "_zGrc0Yy7BLOaut8Qcc7v8wjnco=", "properties": {"@spider": "usps_collection_boxes", "addr:city": "KINGSTREE", "addr:country": "US", "addr:full": "129 W MILL ST", "addr:postcode": "29556", "addr:state": "SC", "brand": "USPS", "brand:wikidata": "Q668687", "collection_times": "Mo-Fr 16:15; Sa 11:15", "name": "USPS COLLECTION BOX - PO LOBBY", "note": "ON 12/24 AND 12/31, THIS BOX MAY BE COLLECTED AS EARLY AS 12 NOON.", "ref": "2955600014"}, "type": "Feature"}
{"geometry": {"coordinates": [-79.831178671, 33.665010878], "type": "Point"}, "id": "WZ-gbZok0TCQ9fcE888BJj2D7Qg=", "properties": {"@spider": "usps_collection_boxes", "addr:city": "KINGSTREE", "addr:country": "US", "addr:full": "129 W MILL ST", "addr:postcode": "29556", "addr:state": "SC", "brand": "USPS", "brand:wikidata": "Q668687", "collection_times": "Mo-Fr 16:15; Sa 11:15", "name": "USPS COLLECTION BOX - PO LOBBY", "note": "ON 12/24 AND 12/31, THIS BOX MAY BE COLLECTED AS EARLY AS 12 NOON.", "ref": "2955600018"}, "type": "Feature"}
{"geometry": {"coordinates": [-79.75714365, 33.874919883], "type": "Point"}, "id": "ZsvWb2Qdewbra__X7DfqUEFd4dU=", "properties": {"@spider": "usps_collection_boxes", "addr:city": "LAKE CITY", "addr:country": "US", "addr:full": "226 W MAIN ST", "addr:postcode": "29560", "addr:state": "SC", "brand": "USPS", "brand:wikidata": "Q668687", "collection_times": "Mo-Fr 16:15; Sa 10:45", "name": "USPS COLLECTION BOX - PO LOBBY", "note": "ON 12/24 AND 12/31, THIS BOX MAY BE COLLECTED AS EARLY AS 12 NOON.", "ref": "2956000001"}, "type": "Feature"}
{"geometry": {"coordinates": [-79.75714365, 33.874919883], "type": "Point"}, "id": "G-3_AMbURudt4jc-n7uUrvhvri0=", "properties": {"@spider": "usps_collection_boxes", "addr:city": "LAKE CITY", "addr:country": "US", "addr:full": "226 W MAIN ST", "addr:postcode": "29560", "addr:state": "SC", "brand": "USPS", "brand:wikidata": "Q668687", "collection_times": "Mo-Fr 16:15; Sa 10:45", "name": "USPS COLLECTION BOX - BLUE BOX", "note": "ON 12/24 AND 12/31, THIS BOX MAY BE COLLECTED AS EARLY AS 12 NOON.", "ref": "2956000002"}, "type": "Feature"}
{"geometry": {"coordinates": [-79.75714365, 33.874919883], "type": "Point"}, "id": "IBmsN4FnEFbOqAj5TTez9v-pnAY=", "properties": {"@spider": "usps_collection_boxes", "addr:city": "LAKE CITY", "addr:country": "US", "addr:full": "226 W MAIN ST", "addr:postcode": "29560", "addr:state": "SC", "brand": "USPS", "brand:wikidata": "Q668687", "collection_times": "Mo-Fr 16:15; Sa 10:45", "name": "USPS COLLECTION BOX - BLUE BOX", "note": "ON 12/24 AND 12/31, THIS BOX MAY BE COLLECTED AS EARLY AS 12 NOON.", "ref": "2956000003"}, "type": "Feature"}
{"geometry": {"coordinates": [-79.759131629, 33.880229995], "type": "Point"}, "id": "3VGTxjcN1A6gubXLfcVva42rCEo=", "properties": {"@spider": "usps_collection_boxes", "addr:city": "LAKE CITY", "addr:country": "US", "addr:full": "258 N RON MCNAIR BLVD", "addr:postcode": "29560", "addr:state": "SC", "brand": "USPS", "brand:wikidata": "Q668687", "collection_times": "Mo-Fr 11:30; Sa 10:30", "name": "USPS COLLECTION BOX - BLUE BOX", "ref": "2956000004"}, "type": "Feature"}
{"geometry": {"coordinates": [-79.762595014, 33.865174383], "type": "Point"}, "id": "-yiPdz695vJocUcURmXg9V0cNmc=", "properties": {"@spider": "usps_collection_boxes", "addr:city": "LAKE CITY", "addr:country": "US", "addr:full": "345 S RON MCNAIR BLVD", "addr:postcode": "29560", "addr:state": "SC", "brand": "USPS", "brand:wikidata": "Q668687", "collection_times": "Mo-Fr 11:30; Sa 10:30", "name": "USPS COLLECTION BOX - BLUE BOX", "ref": "2956000005"}, "type": "Feature"}
{"geometry": {"coordinates": [-79.753675352, 33.876838974], "type": "Point"}, "id": "5hYCz2QEk7quP-ccdz_nbKFlPxI=", "properties": {"@spider": "usps_collection_boxes", "addr:city": "LAKE CITY", "addr:country": "US", "addr:full": "202 KELLEY ST", "addr:postcode": "29560", "addr:state": "SC", "brand": "USPS", "brand:wikidata": "Q668687", "collection_times": "Mo-Fr 11:30; Sa 10:30", "name": "USPS COLLECTION BOX - BLUE BOX", "ref": "2956000008"}, "type": "Feature"}
{"geometry": {"coordinates": [-79.759021495, 33.880191871], "type": "Point"}, "id": "f0Q33uYY0GVTM6UP44eN9mcWlgk=", "properties": {"@spider": "usps_collection_boxes", "addr:city": "LAKE CITY", "addr:country": "US", "addr:full": "257 N RON MCNAIR BLVD", "addr:postcode": "29560", "addr:state": "SC", "brand": "USPS", "brand:wikidata": "Q668687", "collection_times": "Mo-Fr 11:30; Sa 10:30", "name": "USPS COLLECTION BOX - BLUE BOX", "ref": "2956000010"}, "type": "Feature"}
{"geometry": {"coordinates": [-79.754430561, 33.872661552], "type": "Point"}, "id": "XEr5ORgD3xQUWbrJ4dHtkoq--Dg=", "properties": {"@spider": "usps_collection_boxes", "addr:city": "LAKE CITY", "addr:country": "US", "addr:full": "101 E MAIN ST", "addr:postcode": "29560", "addr:state": "SC", "brand": "USPS", "brand:wikidata": "Q668687", "collection_times": "Mo-Fr 11:30; Sa 10:30", "name": "USPS COLLECTION BOX - BLUE BOX", "ref": "2956000014"}, "type": "Feature"}
{"geometry": {"coordinates": [-79.75714365, 33.874919883], "type": "Point"}, "id": "Ziz8hC4yNFnEET-6hSy8Mi6HaQM=", "properties": {"@spider": "usps_collection_boxes", "addr:city": "LAKE CITY", "addr:country": "US", "addr:full": "226 W MAIN ST", "addr:postcode": "29560", "addr:state": "SC", "brand": "USPS", "brand:wikidata": "Q668687", "collection_times": "Mo-Fr 16:15; Sa 10:45", "name": "USPS COLLECTION BOX - PO LOBBY", "note": "ON 12/24 AND 12/31, THIS BOX MAY BE COLLECTED AS EARLY AS 12 NOON.", "ref": "2956000016"}, "type": "Feature"}
{"geometry": {"coordinates": [-79.75714365, 33.874919883], "type": "Point"}, "id": "THnYtZetyH-BXCGxnJ6S2OyMqOM=", "properties": {"@spider": "usps_collection_boxes", "addr:city": "LAKE CITY", "addr:country": "US", "addr:full": "226 W MAIN ST", "addr:postcode": "29560", "addr:state": "SC", "brand": "USPS", "brand:wikidata": "Q668687", "collection_times": "Mo-Fr 16:15; Sa 10:45", "name": "USPS COLLECTION BOX - PO LOBBY", "note": "ON 12/24 AND 12/31, THIS BOX MAY BE COLLECTED AS EARLY AS 12 NOON.", "ref": "2956000020"}, "type": "Feature"}
{"geometry": {"coordinates": [-79.167554017, 34.344915131], "type": "Point"}, "id": "CM9HV0uM9osYsw7XpcwlST9nyOw=", "properties": {"@spider": "usps_collection_boxes", "addr:city": "LAKE VIEW", "addr:country": "US", "addr:full": "211 RICHARD TEMPLE BLVD", "addr:postcode": "29563", "addr:state": "SC", "brand": "USPS", "brand:wikidata": "Q668687", "collection_times": "Mo-Fr 15:45; Sa 09:45", "name": "USPS COLLECTION BOX - BLUE BOX", "note": "ON 12/24 AND 12/31, THIS BOX MAY BE COLLECTED AS EARLY AS 12 NOON.", "ref": "2956300001"}, "type": "Feature"}
{"geometry": {"coordinates": [-79.167554017, 34.344915131], "type": "Point"}, "id": "jkxQjNZlkx4Fp64yv6spNmZvKt4=", "properties": {"@spider": "usps_collection_boxes", "addr:city": "LAKE VIEW", "addr:country": "US", "addr:full": "211 RICHARD TEMPLE BLVD", "addr:postcode": "29563", "addr:state": "SC", "brand": "USPS", "brand:wikidata": "Q668687", "collection_times": "Mo-Fr 15:45; Sa 09:45", "name": "USPS COLLECTION BOX - PO LOBBY", "note": "ON 12/24 AND 12/31, THIS BOX MAY BE COLLECTED AS EARLY AS 12 NOON.", "ref": "2956300002"}, "type": "Feature"}
{"geometry": {"coordinates": [-79.167554017, 34.344915131], "type": "Point"}, "id": "EYE2-nijwZXbJUK78F7qcscteHc=", "properties": {"@spider": "usps_collection_boxes", "addr:city": "LAKE VIEW", "addr:country": "US", "addr:full": "211 RICHARD TEMPLE BLVD", "addr:postcode": "29563", "addr:state": "SC", "brand": "USPS", "brand:wikidata": "Q668687", "collection_times": "Mo-Fr 15:45; Sa 09:45", "name": "USPS COLLECTION BOX - PO LOBBY", "note": "ON 12/24 AND 12/31, THIS BOX MAY BE COLLECTED AS EARLY AS 12 NOON.", "ref": "2956300004"}, "type": "Feature"}
{"geometry": {"coordinates": [-79.878678524, 33.522873366], "type": "Point"}, "id": "SYxLp6XuPOuSqSk1fH5B9J6e7tA=", "properties": {"@spider": "usps_collection_boxes", "addr:city": "LANE", "addr:country": "US", "addr:full": "341 S LANE RD", "addr:postcode": "29564", "addr:state": "SC", "brand": "USPS", "brand:wikidata": "Q668687", "collection_times": "Mo-Fr 15:45; Sa 09:45", "name": "USPS COLLECTION BOX - BLUE BOX", "note": "ON 12/24 AND 12/31, THIS BOX MAY BE COLLECTED AS EARLY AS 12 NOON.", "ref": "2956400001"}, "type": "Feature"}
{"geometry": {"coordinates": [-79.878678524, 33.522873366], "type": "Point"}, "id": "7XPOPasbYxWA_Xnuz_nDzzuDt1U=", "properties": {"@spider": "usps_collection_boxes", "addr:city": "LANE", "addr:country": "US", "addr:full": "341 S LANE RD", "addr:postcode": "29564", "addr:state": "SC", "brand": "USPS", "brand:wikidata": "Q668687", "collection_times": "Mo-Fr 15:45; Sa 09:45", "name": "USPS COLLECTION BOX - PO LOBBY", "note": "ON 12/24 AND 12/31, THIS BOX MAY BE COLLECTED AS EARLY AS 12 NOON.", "ref": "2956400002"}, "type": "Feature"}
{"geometry": {"coordinates": [-79.878678524, 33.522873366], "type": "Point"}, "id": "wUkqqHnKW7fz8T85GhdLJS5o0tY=", "properties": {"@spider": "usps_collection_boxes", "addr:city": "LANE", "addr:country": "US", "addr:full": "341 S LANE RD", "addr:postcode": "29564", "addr:state": "SC", "brand": "USPS", "brand:wikidata": "Q668687", "collection_times": "Mo-Fr 15:45; Sa 09:45", "name": "USPS COLLECTION BOX - PO LOBBY", "note": "ON 12/24 AND 12/31, THIS BOX MAY BE COLLECTED AS EARLY AS 12 NOON.", "ref": "2956400004"}, "type": "Feature"}
{"geometry": {"coordinates": [-79.433915071, 34.338423015], "type": "Point"}, "id": "Yoiw2YDUyfdwizJFCkt2sBnL3yw=", "properties": {"@spider": "usps_collection_boxes", "addr:city": "LATTA", "addr:country": "US", "addr:full": "115 W MAIN ST", "addr:postcode": "29565", "addr:state": "SC", "brand": "USPS", "brand:wikidata": "Q668687", "collection_times": "Mo-Fr 15:45; Sa 10:45", "name": "USPS COLLECTION BOX - BLUE BOX", "note": "ON 12/24 AND 12/31, THIS BOX MAY BE COLLECTED AS EARLY AS 12 NOON.", "ref": "2956500001"}, "type": "Feature"}
{"geometry": {"coordinates": [-79.433028011, 34.336755054], "type": "Point"}, "id": "UaVYsd8_6C83JeWWXh2x4ZUyPfM=", "properties": {"@spider": "usps_collection_boxes", "addr:city": "LATTA", "addr:country": "US", "addr:full": "101 E LEITNER ST", "addr:postcode": "29565", "addr:state": "SC", "brand": "USPS", "brand:wikidata": "Q668687", "collection_times": "Mo-Fr 15:45", "name": "USPS COLLECTION BOX - BLUE BOX", "note": "ON 12/24 AND 12/31, THIS BOX MAY BE COLLECTED AS EARLY AS 12 NOON.", "ref": "2956500003"}, "type": "Feature"}
{"geometry": {"coordinates": [-79.433915071, 34.338423015], "type": "Point"}, "id": "gYvCXqZkzXMz65gGfXsuzsVZFuM=", "properties": {"@spider": "usps_collection_boxes", "addr:city": "LATTA", "addr:country": "US", "addr:full": "115 W MAIN ST", "addr:postcode": "29565", "addr:state": "SC", "brand": "USPS", "brand:wikidata": "Q668687", "collection_times": "Mo-Fr 15:45; Sa 10:45", "name": "USPS COLLECTION BOX - PO LOBBY", "note": "ON 12/24 AND 12/31, THIS BOX MAY BE COLLECTED AS EARLY AS 12 NOON.", "ref": "2956500006"}, "type": "Feature"}
{"geometry": {"coordinates": [-79.433915071, 34.338423015], "type": "Point"}, "id": "T2effgqRJj_K8M1gRmQ7zeXt5iI=", "properties": {"@spider": "usps_collection_boxes", "addr:city": "LATTA", "addr:country": "US", "addr:full": "115 W MAIN ST", "addr:postcode": "29565", "addr:state": "SC", "brand": "USPS", "brand:wikidata": "Q668687", "collection_times": "Mo-Fr 15:45; Sa 10:45", "name": "USPS COLLECTION BOX - PO LOBBY", "note": "ON 12/24 AND 12/31, THIS BOX MAY BE COLLECTED AS EARLY AS 12 NOON.", "ref": "2956500007"}, "type": "Feature"}
{"geometry": {"coordinates": [-79.433915071, 34.338423015], "type": "Point"}, "id": "KRcKJzPgHLU1oTPoRUXCLcE453Q=", "properties": {"@spider": "usps_collection_boxes", "addr:city": "LATTA", "addr:country": "US", "addr:full": "115 W MAIN ST", "addr:postcode": "29565", "addr:state": "SC", "brand": "USPS", "brand:wikidata": "Q668687", "collection_times": "Mo-Fr 15:45; Sa 10:15", "name": "USPS COLLECTION BOX - PO LOBBY", "note": "ON 12/24 AND 12/31, THIS BOX MAY BE COLLECTED AS EARLY AS 12 NOON.", "ref": "2956500011"}, "type": "Feature"}
{"geometry": {"coordinates": [-79.4049399376, 34.475102061], "type": "Point"}, "id": "uRTy6E5m54Tj9KvBS40IEjAiDA4=", "properties": {"@spider": "usps_collection_boxes", "addr:city": "LITTLE ROCK", "addr:country": "US", "addr:full": "1403 HARLLEES BRIDGE RD", "addr:postcode": "29567", "addr:state": "SC", "brand": "USPS", "brand:wikidata": "Q668687", "collection_times": "Mo-Fr 15:45; Sa 09:45", "name": "USPS COLLECTION BOX - PO LOBBY", "note": "ON 12/24 AND 12/31, THIS BOX MAY BE COLLECTED AS EARLY AS 12 NOON.", "ref": "2956700001"}, "type": "Feature"}
{"geometry": {"coordinates": [-79.404939938, 34.475102061], "type": "Point"}, "id": "6aSa4benX9ATuBs6OaDvwUuP_44=", "properties": {"@spider": "usps_collection_boxes", "addr:city": "LITTLE ROCK", "addr:country": "US", "addr:full": "1403 HARLLEES BRIDGE RD", "addr:postcode": "29567", "addr:state": "SC", "brand": "USPS", "brand:wikidata": "Q668687", "collection_times": "Mo-Fr 15:45; Sa 09:45", "name": "USPS COLLECTION BOX - BLUE BOX", "note": "ON 12/24 AND 12/31, THIS BOX MAY BE COLLECTED AS EARLY AS 12 NOON.", "ref": "2956700002"}, "type": "Feature"}
{"geometry": {"coordinates": [-79.4049399376, 34.475102061], "type": "Point"}, "id": "aaV9WbMgutdh9hmHaRWrssxF3aA=", "properties": {"@spider": "usps_collection_boxes", "addr:city": "LITTLE ROCK", "addr:country": "US", "addr:full": "1403 HARLLEES BRIDGE RD", "addr:postcode": "29567", "addr:state": "SC", "brand": "USPS", "brand:wikidata": "Q668687", "collection_times": "Mo-Fr 15:45; Sa 09:45", "name": "USPS COLLECTION BOX - PO LOBBY", "note": "ON 12/24 AND 12/31, THIS BOX MAY BE COLLECTED AS EARLY AS 12 NOON.", "ref": "2956700004"}, "type": "Feature"}
{"geometry": {"coordinates": [-79.54668274, 34.667532008], "type": "Point"}, "id": "eFTXe57LE6AldUgnlAovzNnZ_CE=", "properties": {"@spider": "usps_collection_boxes", "addr:city": "MCCOLL", "addr:country": "US", "addr:full": "201 N MAIN ST", "addr:postcode": "29570", "addr:state": "SC", "brand": "USPS", "brand:wikidata": "Q668687", "collection_times": "Mo-Fr 15:45; Sa 09:45", "name": "USPS COLLECTION BOX - BLUE BOX", "note": "ON 12/24 AND 12/31, THIS BOX MAY BE COLLECTED AS EARLY AS 12 NOON.", "ref": "2957000005"}, "type": "Feature"}
{"geometry": {"coordinates": [-79.54668274, 34.667532008], "type": "Point"}, "id": "UfkoqW2hmfa_g_p72KfERRqp4Bs=", "properties": {"@spider": "usps_collection_boxes", "addr:city": "MCCOLL", "addr:country": "US", "addr:full": "201 N MAIN ST", "addr:postcode": "29570", "addr:state": "SC", "brand": "USPS", "brand:wikidata": "Q668687", "collection_times": "Mo-Fr 15:45; Sa 09:45", "name": "USPS COLLECTION BOX - PO LOBBY", "note": "ON 12/24 AND 12/31, THIS BOX MAY BE COLLECTED AS EARLY AS 12 NOON.", "ref": "2957000010"}, "type": "Feature"}
{"geometry": {"coordinates": [-79.54668274, 34.667532008], "type": "Point"}, "id": "6hqbpunqB4mw1tg_MU6nxA5-BjA=", "properties": {"@spider": "usps_collection_boxes", "addr:city": "MCCOLL", "addr:country": "US", "addr:full": "201 N MAIN ST", "addr:postcode": "29570", "addr:state": "SC", "brand": "USPS", "brand:wikidata": "Q668687", "collection_times": "Mo-Fr 15:45; Sa 09:45", "name": "USPS COLLECTION BOX - PO LOBBY", "note": "ON 12/24 AND 12/31, THIS BOX MAY BE COLLECTED AS EARLY AS 12 NOON.", "ref": "2957000016"}, "type": "Feature"}
{"geometry": {"coordinates": [-79.397931872, 34.191913747], "type": "Point"}, "id": "ryk5rY-SNE6hwxSnVJ-wcnoB95w=", "properties": {"@spider": "usps_collection_boxes", "addr:city": "MARION", "addr:country": "US", "addr:full": "1205 N MAIN ST", "addr:postcode": "29571", "addr:state": "SC", "brand": "USPS", "brand:wikidata": "Q668687", "collection_times": "Mo-Fr 15:15", "name": "USPS COLLECTION BOX - BLUE BOX", "note": "ON 12/24 AND 12/31, THIS BOX MAY BE COLLECTED AS EARLY AS 12 NOON.", "ref": "2957100004"}, "type": "Feature"}
{"geometry": {"coordinates": [-79.400261062, 34.180831069], "type": "Point"}, "id": "UkSvba6gw0Q3Uc6fDKkSVEjhAkE=", "properties": {"@spider": "usps_collection_boxes", "addr:city": "MARION", "addr:country": "US", "addr:full": "301 N MAIN ST", "addr:postcode": "29571", "addr:state": "SC", "brand": "USPS", "brand:wikidata": "Q668687", "collection_times": "Mo-Fr 15:15", "name": "USPS COLLECTION BOX - BLUE BOX", "note": "ON 12/24 AND 12/31, THIS BOX MAY BE COLLECTED AS EARLY AS 12 NOON.", "ref": "2957100005"}, "type": "Feature"}
{"geometry": {"coordinates": [-79.399995606, 34.184464229], "type": "Point"}, "id": "uFgRD9ucXLPLH7jZkE5Yogeqq70=", "properties": {"@spider": "usps_collection_boxes", "addr:city": "MARION", "addr:country": "US", "addr:full": "719 N MAIN ST", "addr:postcode": "29571", "addr:state": "SC", "brand": "USPS", "brand:wikidata": "Q668687", "collection_times": "Mo-Fr 15:15", "name": "USPS COLLECTION BOX - BLUE BOX", "note": "ON 12/24 AND 12/31, THIS BOX MAY BE COLLECTED AS EARLY AS 12 NOON.", "ref": "2957100010"}, "type": "Feature"}
{"geometry": {"coordinates": [-79.382256479, 34.179048878], "type": "Point"}, "id": "2RW2O63EGL6izHrrmRIj77zcPo8=", "properties": {"@spider": "usps_collection_boxes", "addr:city": "MARION", "addr:country": "US", "addr:full": "1900 E HIGHWAY 76", "addr:postcode": "29571", "addr:state": "SC", "brand": "USPS", "brand:wikidata": "Q668687", "collection_times": "Mo-Fr 15:00", "name": "USPS COLLECTION BOX - BLUE BOX", "note": "ON 12/24 AND 12/31, THIS BOX MAY BE COLLECTED AS EARLY AS 12 NOON.", "ref": "2957100015"}, "type": "Feature"}
{"geometry": {"coordinates": [-79.400451655, 34.176649009], "type": "Point"}, "id": "9y9Z0fuIdFEypFK65fZs_dpj0ek=", "properties": {"@spider": "usps_collection_boxes", "addr:city": "MARION", "addr:country": "US", "addr:full": "201 S MAIN ST", "addr:postcode": "29571", "addr:state": "SC", "brand": "USPS", "brand:wikidata": "Q668687", "collection_times": "Mo-Fr 16:45; Sa 15:00", "name": "USPS COLLECTION BOX - BLUE BOX", "note": "ON 12/24 AND 12/31, THIS BOX MAY BE COLLECTED AS EARLY AS 12 NOON.", "ref": "2957100016"}, "type": "Feature"}
{"geometry": {"coordinates": [-79.400451655, 34.176649009], "type": "Point"}, "id": "B99nQqx_8sVlU-f8rzNCO8p9FKE=", "properties": {"@spider": "usps_collection_boxes", "addr:city": "MARION", "addr:country": "US", "addr:full": "201 S MAIN ST", "addr:postcode": "29571", "addr:state": "SC", "brand": "USPS", "brand:wikidata": "Q668687", "collection_times": "Mo-Fr 16:45; Sa 15:00", "name": "USPS COLLECTION BOX - BLUE BOX", "note": "ON 12/24 AND 12/31, THIS BOX MAY BE COLLECTED AS EARLY AS 12 NOON.", "ref": "2957100018"}, "type": "Feature"}
{"geometry": {"coordinates": [-79.400451655, 34.176649009], "type": "Point"}, "id": "96v0KUoT9PKaSKha9aZ-solysx0=", "properties": {"@spider": "usps_collection_boxes", "addr:city": "MARION", "addr:country": "US", "addr:full": "201 S MAIN ST", "addr:postcode": "29571", "addr:state": "SC", "brand": "USPS", "brand:wikidata": "Q668687", "collection_times": "Mo-Fr 16:00; Sa 11:00", "name": "USPS COLLECTION BOX - PO LOBBY", "note": "ON 12/24 AND 12/31, THIS BOX MAY BE COLLECTED AS EARLY AS 12 NOON.", "ref": "2957100024"}, "type": "Feature"}
{"geometry": {"coordinates": [-79.255277239, 34.208792193], "type": "Point"}, "id": "eDk5CK9-fYNxLJYir7S3WIkc0y0=", "properties": {"@spider": "usps_collection_boxes", "addr:city": "MULLINS", "addr:country": "US", "addr:full": "320 N MAIN ST", "addr:postcode": "29574", "addr:state": "SC", "brand": "USPS", "brand:wikidata": "Q668687", "collection_times": "Mo-Fr 17:00; Sa 15:30", "name": "USPS COLLECTION BOX - BLUE BOX", "note": "ON 12/24 AND 12/31, THIS BOX MAY BE COLLECTED AS EARLY AS 12 NOON.", "ref": "2957400001"}, "type": "Feature"}
{"geometry": {"coordinates": [-79.25389713, 34.202742968], "type": "Point"}, "id": "KMDrQQDfUQQ0RB0iVHfO74IN_eY=", "properties": {"@spider": "usps_collection_boxes", "addr:city": "MULLINS", "addr:country": "US", "addr:full": "300 S MAIN ST", "addr:postcode": "29574", "addr:state": "SC", "brand": "USPS", "brand:wikidata": "Q668687", "collection_times": "Mo-Fr 16:30; Sa 15:15", "name": "USPS COLLECTION BOX - BLUE BOX", "note": "ON 12/24 AND 12/31, THIS BOX MAY BE COLLECTED AS EARLY AS 12 NOON.", "ref": "2957400005"}, "type": "Feature"}
{"geometry": {"coordinates": [-79.254232231, 34.204088594], "type": "Point"}, "id": "VmVkVYernL-D4auxoTIiqF7gF_A=", "properties": {"@spider": "usps_collection_boxes", "addr:city": "MULLINS", "addr:country": "US", "addr:full": "100 W LAUREL ST", "addr:postcode": "29574", "addr:state": "SC", "brand": "USPS", "brand:wikidata": "Q668687", "collection_times": "Mo-Fr 16:30; Sa 15:15", "name": "USPS COLLECTION BOX - BLUE BOX", "note": "ON 12/24 AND 12/31, THIS BOX MAY BE COLLECTED AS EARLY AS 12 NOON.", "ref": "2957400008"}, "type": "Feature"}
{"geometry": {"coordinates": [-79.256153591, 34.199659772], "type": "Point"}, "id": "W-JnjYNq1spAaGtNupzv13-fZSk=", "properties": {"@spider": "usps_collection_boxes", "addr:city": "MULLINS", "addr:country": "US", "addr:full": "221 W MCINTYRE ST", "addr:postcode": "29574", "addr:state": "SC", "brand": "USPS", "brand:wikidata": "Q668687", "collection_times": "Mo-Fr 16:30; Sa 15:15", "name": "USPS COLLECTION BOX - BLUE BOX", "note": "ON 12/24 AND 12/31, THIS BOX MAY BE COLLECTED AS EARLY AS 12 NOON.", "ref": "2957400012"}, "type": "Feature"}
{"geometry": {"coordinates": [-79.252056073, 34.203010054], "type": "Point"}, "id": "H0e62zih2V7dk0l6xMUlfNJP_XU=", "properties": {"@spider": "usps_collection_boxes", "addr:city": "MULLINS", "addr:country": "US", "addr:full": "300 S PARK ST", "addr:postcode": "29574", "addr:state": "SC", "brand": "USPS", "brand:wikidata": "Q668687", "collection_times": "Mo-Fr 16:45; Sa 15:30", "name": "USPS COLLECTION BOX - BLUE BOX", "note": "ON 12/24 AND 12/31, THIS BOX MAY BE COLLECTED AS EARLY AS 12 NOON.", "ref": "2957400014"}, "type": "Feature"}
{"geometry": {"coordinates": [-79.252404082, 34.196716864], "type": "Point"}, "id": "Fx7C3FcKWVUujFUD7a7P6RHj5dQ=", "properties": {"@spider": "usps_collection_boxes", "addr:city": "MULLINS", "addr:country": "US", "addr:full": "700 S MAIN ST", "addr:postcode": "29574", "addr:state": "SC", "brand": "USPS", "brand:wikidata": "Q668687", "collection_times": "Mo-Fr 16:45; Sa 15:15", "name": "USPS COLLECTION BOX - BLUE BOX", "note": "ON 12/24 AND 12/31, THIS BOX MAY BE COLLECTED AS EARLY AS 12 NOON.", "ref": "2957400018"}, "type": "Feature"}
{"geometry": {"coordinates": [-79.255277239, 34.208792193], "type": "Point"}, "id": "tm_DAt-hJP5MgiCIuZNaOYOspyA=", "properties": {"@spider": "usps_collection_boxes", "addr:city": "MULLINS", "addr:country": "US", "addr:full": "320 N MAIN ST", "addr:postcode": "29574", "addr:state": "SC", "brand": "USPS", "brand:wikidata": "Q668687", "collection_times": "Mo-Fr 17:00; Sa 15:30", "name": "USPS COLLECTION BOX - PO LOBBY", "note": "ON 12/24 AND 12/31, THIS BOX MAY BE COLLECTED AS EARLY AS 12 NOON.", "ref": "2957400022"}, "type": "Feature"}
{"geometry": {"coordinates": [-79.255277239, 34.208792193], "type": "Point"}, "id": "3uOtg2BVzHav-PI-mmzt0leewRs=", "properties": {"@spider": "usps_collection_boxes", "addr:city": "MULLINS", "addr:country": "US", "addr:full": "320 N MAIN ST", "addr:postcode": "29574", "addr:state": "SC", "brand": "USPS", "brand:wikidata": "Q668687", "collection_times": "Mo-Fr 17:00; Sa 15:30", "name": "USPS COLLECTION BOX - PO LOBBY", "note": "ON 12/24 AND 12/31, THIS BOX MAY BE COLLECTED AS EARLY AS 12 NOON.", "ref": "2957400023"}, "type": "Feature"}
{"geometry": {"coordinates": [-79.326233429, 34.188692766], "type": "Point"}, "id": "MCllvPclHMZBAtbgjcgdQYTLVlM=", "properties": {"@spider": "usps_collection_boxes", "addr:city": "MULLINS", "addr:country": "US", "addr:full": "2845 E HIGHWAY 76", "addr:postcode": "29574", "addr:state": "SC", "brand": "USPS", "brand:wikidata": "Q668687", "collection_times": "Mo-Fr 16:15; Sa 15:00", "name": "USPS COLLECTION BOX - BLUE BOX", "note": "ON 12/24 AND 12/31, THIS BOX MAY BE COLLECTED AS EARLY AS 12 NOON.", "ref": "2957400024"}, "type": "Feature"}
{"geometry": {"coordinates": [-79.336128956, 34.1877096], "type": "Point"}, "id": "UNByBguVEa-ITmgkJ_r709p76jM=", "properties": {"@spider": "usps_collection_boxes", "addr:city": "MULLINS", "addr:country": "US", "addr:full": "2715 E HIGHWAY 76", "addr:postcode": "29574", "addr:state": "SC", "brand": "USPS", "brand:wikidata": "Q668687", "collection_times": "Mo-Fr 16:15; Sa 15:00", "name": "USPS COLLECTION BOX - BLUE BOX", "note": "ON 12/24 AND 12/31, THIS BOX MAY BE COLLECTED AS EARLY AS 12 NOON.", "ref": "2957400025"}, "type": "Feature"}
{"geometry": {"coordinates": [-79.252950828, 34.199090048], "type": "Point"}, "id": "f_ozgjbKci5im0dWiQIILno0mXg=", "properties": {"@spider": "usps_collection_boxes", "addr:city": "MULLINS", "addr:country": "US", "addr:full": "518 S MAIN ST", "addr:postcode": "29574", "addr:state": "SC", "brand": "USPS", "brand:wikidata": "Q668687", "collection_times": "Mo-Fr 16:45; Sa 15:15", "name": "USPS COLLECTION BOX - BLUE BOX", "note": "ON 12/24 AND 12/31, THIS BOX MAY BE COLLECTED AS EARLY AS 12 NOON.", "ref": "2957400026"}, "type": "Feature"}
{"geometry": {"coordinates": [-79.337955069, 34.186579804], "type": "Point"}, "id": "DbGvcRPBWEwaQTaOJakSNiNrDLo=", "properties": {"@spider": "usps_collection_boxes", "addr:city": "MULLINS", "addr:country": "US", "addr:full": "137 AIRPORT CT", "addr:postcode": "29574", "addr:state": "SC", "brand": "USPS", "brand:wikidata": "Q668687", "collection_times": "Mo-Fr 16:15; Sa 15:00", "name": "USPS COLLECTION BOX - BLUE BOX", "note": "ON 12/24 AND 12/31, THIS BOX MAY BE COLLECTED AS EARLY AS 12 NOON.", "ref": "2957400027"}, "type": "Feature"}
{"geometry": {"coordinates": [-79.255277239, 34.208792193], "type": "Point"}, "id": "p7US3Q3J91zQ8CJ7qfS-OWaaIH8=", "properties": {"@spider": "usps_collection_boxes", "addr:city": "MULLINS", "addr:country": "US", "addr:full": "320 N MAIN ST", "addr:postcode": "29574", "addr:state": "SC", "brand": "USPS", "brand:wikidata": "Q668687", "collection_times": "Mo-Fr 17:00; Sa 12:00", "name": "USPS COLLECTION BOX - PO LOBBY", "note": "ON 12/24 AND 12/31, THIS BOX MAY BE COLLECTED AS EARLY AS 12 NOON.", "ref": "2957400031"}, "type": "Feature"}
{"geometry": {"coordinates": [-79.514149722, 33.658008828], "type": "Point"}, "id": "qYY5hqUwvEAmXyMT3tLxCwCBlHg=", "properties": {"@spider": "usps_collection_boxes", "addr:city": "NESMITH", "addr:country": "US", "addr:full": "11 MINGO CHANDLER RD", "addr:postcode": "29580", "addr:state": "SC", "brand": "USPS", "brand:wikidata": "Q668687", "collection_times": "Mo-Fr 15:45; Sa 09:45", "name": "USPS COLLECTION BOX - BLUE BOX", "note": "ON 12/24 AND 12/31, THIS BOX MAY BE COLLECTED AS EARLY AS 12 NOON.", "ref": "2958000001"}, "type": "Feature"}
{"geometry": {"coordinates": [-79.514149722, 33.658008828], "type": "Point"}, "id": "26Wz0bUGDJDn4Q4TvO18rcNJgOs=", "properties": {"@spider": "usps_collection_boxes", "addr:city": "NESMITH", "addr:country": "US", "addr:full": "11 MINGO CHANDLER RD", "addr:postcode": "29580", "addr:state": "SC", "brand": "USPS", "brand:wikidata": "Q668687", "collection_times": "Mo-Fr 15:45; Sa 09:45", "name": "USPS COLLECTION BOX - PO LOBBY", "note": "ON 12/24 AND 12/31, THIS BOX MAY BE COLLECTED AS EARLY AS 12 NOON.", "ref": "2958000003"}, "type": "Feature"}
{"geometry": {"coordinates": [-79.14635397, 34.232161673], "type": "Point"}, "id": "HUMxO9mmQmniOwY5MCpx5Xe2WU4=", "properties": {"@spider": "usps_collection_boxes", "addr:city": "NICHOLS", "addr:country": "US", "addr:full": "206 S NICHOLS ST", "addr:postcode": "29581", "addr:state": "SC", "brand": "USPS", "brand:wikidata": "Q668687", "collection_times": "Mo-Fr 15:45; Sa 09:45", "name": "USPS COLLECTION BOX - BLUE BOX", "note": "ON 12/24 AND 12/31, THIS BOX MAY BE COLLECTED AS EARLY AS 12 NOON.", "ref": "2958100001"}, "type": "Feature"}
{"geometry": {"coordinates": [-79.14635397, 34.232161673], "type": "Point"}, "id": "xZZz5-CzYMSghvOKsKZQsvqM0d4=", "properties": {"@spider": "usps_collection_boxes", "addr:city": "NICHOLS", "addr:country": "US", "addr:full": "206 S NICHOLS ST", "addr:postcode": "29581", "addr:state": "SC", "brand": "USPS", "brand:wikidata": "Q668687", "collection_times": "Mo-Fr 15:45; Sa 09:45", "name": "USPS COLLECTION BOX - PO LOBBY", "note": "ON 12/24 AND 12/31, THIS BOX MAY BE COLLECTED AS EARLY AS 12 NOON.", "ref": "2958100002"}, "type": "Feature"}
{"geometry": {"coordinates": [-79.14635397, 34.232161673], "type": "Point"}, "id": "oQSomARywogdfUByoXOaA4LUAOc=", "properties": {"@spider": "usps_collection_boxes", "addr:city": "NICHOLS", "addr:country": "US", "addr:full": "206 S NICHOLS ST", "addr:postcode": "29581", "addr:state": "SC", "brand": "USPS", "brand:wikidata": "Q668687", "collection_times": "Mo-Fr 15:45; Sa 09:45", "name": "USPS COLLECTION BOX - PO LOBBY", "note": "ON 12/24 AND 12/31, THIS BOX MAY BE COLLECTED AS EARLY AS 12 NOON.", "ref": "2958100004"}, "type": "Feature"}
{"geometry": {"coordinates": [-79.5674289668, 33.9957320197], "type": "Point"}, "id": "jt3lKfUy0DPV6GfyZgtYgZ9R9RE=", "properties": {"@spider": "usps_collection_boxes", "addr:city": "PAMPLICO", "addr:country": "US", "addr:full": "132 S TRADE ST", "addr:postcode": "29583", "addr:state": "SC", "brand": "USPS", "brand:wikidata": "Q668687", "collection_times": "Mo-Fr 15:45; Sa 09:45", "name": "USPS COLLECTION BOX - BLUE BOX", "note": "ON 12/24 AND 12/31, THIS BOX MAY BE COLLECTED AS EARLY AS 12 NOON.", "ref": "2958300001"}, "type": "Feature"}
{"geometry": {"coordinates": [-79.5674289668, 33.9957320197], "type": "Point"}, "id": "esd6lS3fW0uvcAZQB-kXZArrcbI=", "properties": {"@spider": "usps_collection_boxes", "addr:city": "PAMPLICO", "addr:country": "US", "addr:full": "132 S TRADE ST", "addr:postcode": "29583", "addr:state": "SC", "brand": "USPS", "brand:wikidata": "Q668687", "collection_times": "Mo-Fr 15:45; Sa 09:45", "name": "USPS COLLECTION BOX - PO LOBBY", "note": "ON 12/24 AND 12/31, THIS BOX MAY BE COLLECTED AS EARLY AS 12 NOON.", "ref": "2958300004"}, "type": "Feature"}
{"geometry": {"coordinates": [-79.5674289668, 33.9957320197], "type": "Point"}, "id": "woZKZ8pUhY7m1lyd5CrOjH7rQ9w=", "properties": {"@spider": "usps_collection_boxes", "addr:city": "PAMPLICO", "addr:country": "US", "addr:full": "132 S TRADE ST", "addr:postcode": "29583", "addr:state": "SC", "brand": "USPS", "brand:wikidata": "Q668687", "collection_times": "Mo-Fr 15:45; Sa 09:45", "name": "USPS COLLECTION BOX - PO LOBBY", "note": "ON 12/24 AND 12/31, THIS BOX MAY BE COLLECTED AS EARLY AS 12 NOON.", "ref": "2958300005"}, "type": "Feature"}
{"geometry": {"coordinates": [-80.048514503, 34.572481345], "type": "Point"}, "id": "zOb5atpVyyhtrznLwnD0sYENBQY=", "properties": {"@spider": "usps_collection_boxes", "addr:city": "PATRICK", "addr:country": "US", "addr:full": "215 S MAIN ST", "addr:postcode": "29584", "addr:state": "SC", "brand": "USPS", "brand:wikidata": "Q668687", "collection_times": "Mo-Fr 15:45; Sa 09:45", "name": "USPS COLLECTION BOX - PO LOBBY", "note": "ON 12/24 AND 12/31, THIS BOX MAY BE COLLECTED AS EARLY AS 12 NOON.", "ref": "2958400001"}, "type": "Feature"}
{"geometry": {"coordinates": [-80.048514503, 34.572481345], "type": "Point"}, "id": "V62hGqbbYzA-Sgr29jiewXiMu6Y=", "properties": {"@spider": "usps_collection_boxes", "addr:city": "PATRICK", "addr:country": "US", "addr:full": "215 S MAIN ST", "addr:postcode": "29584", "addr:state": "SC", "brand": "USPS", "brand:wikidata": "Q668687", "collection_times": "Mo-Fr 15:45; Sa 09:45", "name": "USPS COLLECTION BOX - BLUE BOX", "note": "ON 12/24 AND 12/31, THIS BOX MAY BE COLLECTED AS EARLY AS 12 NOON.", "ref": "2958400002"}, "type": "Feature"}
{"geometry": {"coordinates": [-80.048514503, 34.572481345], "type": "Point"}, "id": "3LpgFSRFvGyfkxt5I-EqvIGl1N4=", "properties": {"@spider": "usps_collection_boxes", "addr:city": "PATRICK", "addr:country": "US", "addr:full": "215 S MAIN ST", "addr:postcode": "29584", "addr:state": "SC", "brand": "USPS", "brand:wikidata": "Q668687", "collection_times": "Mo-Fr 11:30; Sa 09:45", "name": "USPS COLLECTION BOX - PO LOBBY", "ref": "2958400004"}, "type": "Feature"}
{"geometry": {"coordinates": [-79.315592466, 34.098878156], "type": "Point"}, "id": "ClHiZaWhW7SDixKcQ_H52iypdHU=", "properties": {"@spider": "usps_collection_boxes", "addr:city": "RAINS", "addr:country": "US", "addr:full": "2677 TROY ATKINSON RD", "addr:postcode": "29589", "addr:state": "SC", "brand": "USPS", "brand:wikidata": "Q668687", "collection_times": "Mo-Fr 15:45; Sa 09:45", "name": "USPS COLLECTION BOX - BLUE BOX", "note": "ON 12/24 AND 12/31, THIS BOX MAY BE COLLECTED AS EARLY AS 12 NOON.", "ref": "2958900001"}, "type": "Feature"}
{"geometry": {"coordinates": [-79.315592466, 34.098878156], "type": "Point"}, "id": "NgOh5QFU746o7ms-NBHLAzJMWPY=", "properties": {"@spider": "usps_collection_boxes", "addr:city": "RAINS", "addr:country": "US", "addr:full": "2677 TROY ATKINSON RD", "addr:postcode": "29589", "addr:state": "SC", "brand": "USPS", "brand:wikidata": "Q668687", "collection_times": "Mo-Fr 13:00; Sa 09:45", "name": "USPS COLLECTION BOX - PO LOBBY", "note": "ON 12/24 AND 12/31, THIS BOX MAY BE COLLECTED AS EARLY AS 12 NOON.", "ref": "2958900002"}, "type": "Feature"}
{"geometry": {"coordinates": [-79.315592466, 34.098878156], "type": "Point"}, "id": "rU9oVBjlGAi5O5nxVvr2m8OyVUk=", "properties": {"@spider": "usps_collection_boxes", "addr:city": "RAINS", "addr:country": "US", "addr:full": "2677 TROY ATKINSON RD", "addr:postcode": "29589", "addr:state": "SC", "brand": "USPS", "brand:wikidata": "Q668687", "collection_times": "Mo-Fr 15:45; Sa 09:45", "name": "USPS COLLECTION BOX - PO LOBBY", "note": "ON 12/24 AND 12/31, THIS BOX MAY BE COLLECTED AS EARLY AS 12 NOON.", "ref": "2958900004"}, "type": "Feature"}
{"geometry": {"coordinates": [-79.85330252, 33.597208951], "type": "Point"}, "id": "yLDNOV5DBNDh5nactCVo4y4BdYk=", "properties": {"@spider": "usps_collection_boxes", "addr:city": "SALTERS", "addr:country": "US", "addr:full": "33 DEPOT ST", "addr:postcode": "29590", "addr:state": "SC", "brand": "USPS", "brand:wikidata": "Q668687", "collection_times": "Mo-Fr 15:45; Sa 09:45", "name": "USPS COLLECTION BOX - BLUE BOX", "note": "ON 12/24 AND 12/31, THIS BOX MAY BE COLLECTED AS EARLY AS 12 NOON.", "ref": "2959000002"}, "type": "Feature"}
{"geometry": {"coordinates": [-79.85330252, 33.597208951], "type": "Point"}, "id": "m2fPIhUHcu5rQUxNXm19nejGc00=", "properties": {"@spider": "usps_collection_boxes", "addr:city": "SALTERS", "addr:country": "US", "addr:full": "33 DEPOT ST", "addr:postcode": "29590", "addr:state": "SC", "brand": "USPS", "brand:wikidata": "Q668687", "collection_times": "Mo-Fr 15:45; Sa 09:45", "name": "USPS COLLECTION BOX - PO LOBBY", "note": "ON 12/24 AND 12/31, THIS BOX MAY BE COLLECTED AS EARLY AS 12 NOON.", "ref": "2959000003"}, "type": "Feature"}
{"geometry": {"coordinates": [-79.85330252, 33.597208951], "type": "Point"}, "id": "kqIYj9OhmRJAnSvzuCF5TSqVshM=", "properties": {"@spider": "usps_collection_boxes", "addr:city": "SALTERS", "addr:country": "US", "addr:full": "33 DEPOT ST", "addr:postcode": "29590", "addr:state": "SC", "brand": "USPS", "brand:wikidata": "Q668687", "collection_times": "Mo-Fr 15:45; Sa 09:45", "name": "USPS COLLECTION BOX - PO LOBBY", "note": "ON 12/24 AND 12/31, THIS BOX MAY BE COLLECTED AS EARLY AS 12 NOON.", "ref": "2959000005"}, "type": "Feature"}
{"geometry": {"coordinates": [-79.745601357, 33.915979519], "type": "Point"}, "id": "OojUpXDbNZvQQTLvo_WGDmid1PM=", "properties": {"@spider": "usps_collection_boxes", "addr:city": "SCRANTON", "addr:country": "US", "addr:full": "1810 US 52 HWY", "addr:postcode": "29591", "addr:state": "SC", "brand": "USPS", "brand:wikidata": "Q668687", "collection_times": "Mo-Fr 15:45; Sa 10:45", "name": "USPS COLLECTION BOX - BLUE BOX", "note": "ON 12/24 AND 12/31, THIS BOX MAY BE COLLECTED AS EARLY AS 12 NOON.", "ref": "2959100001"}, "type": "Feature"}
{"geometry": {"coordinates": [-79.745601357, 33.915979519], "type": "Point"}, "id": "g6RudmbdELUrL-XcThXAXCmQh9w=", "properties": {"@spider": "usps_collection_boxes", "addr:city": "SCRANTON", "addr:country": "US", "addr:full": "1810 US 52 HWY", "addr:postcode": "29591", "addr:state": "SC", "brand": "USPS", "brand:wikidata": "Q668687", "collection_times": "Mo-Fr 15:45; Sa 10:45", "name": "USPS COLLECTION BOX - PO LOBBY", "note": "ON 12/24 AND 12/31, THIS BOX MAY BE COLLECTED AS EARLY AS 12 NOON.", "ref": "2959100002"}, "type": "Feature"}
{"geometry": {"coordinates": [-79.745601357, 33.915979519], "type": "Point"}, "id": "4zC14X_AK4bGzlV83P5djZwqjZk=", "properties": {"@spider": "usps_collection_boxes", "addr:city": "SCRANTON", "addr:country": "US", "addr:full": "1810 US 52 HWY", "addr:postcode": "29591", "addr:state": "SC", "brand": "USPS", "brand:wikidata": "Q668687", "collection_times": "Mo-Fr 15:45; Sa 10:45", "name": "USPS COLLECTION BOX - PO LOBBY", "note": "ON 12/24 AND 12/31, THIS BOX MAY BE COLLECTED AS EARLY AS 12 NOON.", "ref": "2959100004"}, "type": "Feature"}
{"geometry": {"coordinates": [-79.745601357, 33.915979519], "type": "Point"}, "id": "Dtk-LCBLHxymjCUg2mObFzXvwkA=", "properties": {"@spider": "usps_collection_boxes", "addr:city": "SCRANTON", "addr:country": "US", "addr:full": "1810 US 52 HWY", "addr:postcode": "29591", "addr:state": "SC", "brand": "USPS", "brand:wikidata": "Q668687", "collection_times": "Mo-Fr 15:45; Sa 10:00", "name": "USPS COLLECTION BOX - PO LOBBY", "note": "ON 12/24 AND 12/31, THIS BOX MAY BE COLLECTED AS EARLY AS 12 NOON.", "ref": "2959100005"}, "type": "Feature"}
{"geometry": {"coordinates": [-79.47679831, 34.27872971], "type": "Point"}, "id": "OyTbT9DfokFwJbvwIJBYixPYaYM=", "properties": {"@spider": "usps_collection_boxes", "addr:city": "SELLERS", "addr:country": "US", "addr:full": "2806 HIGHWAY 301", "addr:postcode": "29592", "addr:state": "SC", "brand": "USPS", "brand:wikidata": "Q668687", "collection_times": "Mo-Fr 15:45; Sa 09:45", "name": "USPS COLLECTION BOX - BLUE BOX", "note": "ON 12/24 AND 12/31, THIS BOX MAY BE COLLECTED AS EARLY AS 12 NOON.", "ref": "2959200001"}, "type": "Feature"}
{"geometry": {"coordinates": [-79.47679831, 34.27872971], "type": "Point"}, "id": "8NUPFJ6kIjnOuJT4egIg2g4T314=", "properties": {"@spider": "usps_collection_boxes", "addr:city": "SELLERS", "addr:country": "US", "addr:full": "2806 HIGHWAY 301", "addr:postcode": "29592", "addr:state": "SC", "brand": "USPS", "brand:wikidata": "Q668687", "collection_times": "Mo-Fr 15:45; Sa 09:45", "name": "USPS COLLECTION BOX - PO LOBBY", "note": "ON 12/24 AND 12/31, THIS BOX MAY BE COLLECTED AS EARLY AS 12 NOON.", "ref": "2959200002"}, "type": "Feature"}
{"geometry": {"coordinates": [-79.47679831, 34.27872971], "type": "Point"}, "id": "Fzmp_nl9poR_8tR6ozxzN0aBewo=", "properties": {"@spider": "usps_collection_boxes", "addr:city": "SELLERS", "addr:country": "US", "addr:full": "2806 HIGHWAY 301", "addr:postcode": "29592", "addr:state": "SC", "brand": "USPS", "brand:wikidata": "Q668687", "collection_times": "Mo-Fr 15:45; Sa 09:45", "name": "USPS COLLECTION BOX - PO LOBBY", "note": "ON 12/24 AND 12/31, THIS BOX MAY BE COLLECTED AS EARLY AS 12 NOON.", "ref": "2959200004"}, "type": "Feature"}
{"geometry": {"coordinates": [-79.853910508, 34.509825294], "type": "Point"}, "id": "vTGec6Mv3R1qOvrqqeZFWMTMKVY=", "properties": {"@spider": "usps_collection_boxes", "addr:city": "SOCIETY HILL", "addr:country": "US", "addr:full": "269 S MAIN ST", "addr:postcode": "29593", "addr:state": "SC", "brand": "USPS", "brand:wikidata": "Q668687", "collection_times": "Mo-Fr 15:45; Sa 09:45", "name": "USPS COLLECTION BOX - BLUE BOX", "note": "ON 12/24 AND 12/31, THIS BOX MAY BE COLLECTED AS EARLY AS 12 NOON.", "ref": "2959300001"}, "type": "Feature"}
{"geometry": {"coordinates": [-79.853910508, 34.509825294], "type": "Point"}, "id": "C6mwewliZ0zN4jFqlMgn90tqerE=", "properties": {"@spider": "usps_collection_boxes", "addr:city": "SOCIETY HILL", "addr:country": "US", "addr:full": "269 S MAIN ST", "addr:postcode": "29593", "addr:state": "SC", "brand": "USPS", "brand:wikidata": "Q668687", "collection_times": "Mo-Fr 15:45; Sa 09:45", "name": "USPS COLLECTION BOX - PO LOBBY", "note": "ON 12/24 AND 12/31, THIS BOX MAY BE COLLECTED AS EARLY AS 12 NOON.", "ref": "2959300002"}, "type": "Feature"}
{"geometry": {"coordinates": [-79.853910508, 34.509825294], "type": "Point"}, "id": "nQ6hEfUqz2gSTKsSXSWSjPw7q5w=", "properties": {"@spider": "usps_collection_boxes", "addr:city": "SOCIETY HILL", "addr:country": "US", "addr:full": "269 S MAIN ST", "addr:postcode": "29593", "addr:state": "SC", "brand": "USPS", "brand:wikidata": "Q668687", "collection_times": "Mo-Fr 15:45; Sa 09:45", "name": "USPS COLLECTION BOX - PO LOBBY", "note": "ON 12/24 AND 12/31, THIS BOX MAY BE COLLECTED AS EARLY AS 12 NOON.", "ref": "2959300004"}, "type": "Feature"}
{"geometry": {"coordinates": [-79.58685563, 34.644362371], "type": "Point"}, "id": "jgev5mTBsmHPa7SB-I-Tmbpe9KQ=", "properties": {"@spider": "usps_collection_boxes", "addr:city": "TATUM", "addr:country": "US", "addr:full": "104 N STANTON ST", "addr:postcode": "29594", "addr:state": "SC", "brand": "USPS", "brand:wikidata": "Q668687", "collection_times": "Mo-Fr 15:45; Sa 09:45", "name": "USPS COLLECTION BOX - BLUE BOX", "note": "ON 12/24 AND 12/31, THIS BOX MAY BE COLLECTED AS EARLY AS 12 NOON.", "ref": "2959400001"}, "type": "Feature"}
{"geometry": {"coordinates": [-79.58685563, 34.644362371], "type": "Point"}, "id": "FlLOzl4_7Onhey0dzZW6CT_X2Tc=", "properties": {"@spider": "usps_collection_boxes", "addr:city": "TATUM", "addr:country": "US", "addr:full": "104 N STANTON ST", "addr:postcode": "29594", "addr:state": "SC", "brand": "USPS", "brand:wikidata": "Q668687", "collection_times": "Mo-Fr 15:45; Sa 09:45", "name": "USPS COLLECTION BOX - PO LOBBY", "note": "ON 12/24 AND 12/31, THIS BOX MAY BE COLLECTED AS EARLY AS 12 NOON.", "ref": "2959400002"}, "type": "Feature"}
{"geometry": {"coordinates": [-79.58685563, 34.644362371], "type": "Point"}, "id": "ciIyZRExg5tUSDrgm0iIdTdDBMg=", "properties": {"@spider": "usps_collection_boxes", "addr:city": "TATUM", "addr:country": "US", "addr:full": "104 N STANTON ST", "addr:postcode": "29594", "addr:state": "SC", "brand": "USPS", "brand:wikidata": "Q668687", "collection_times": "Mo-Fr 15:45; Sa 09:45", "name": "USPS COLLECTION BOX - PO LOBBY", "note": "ON 12/24 AND 12/31, THIS BOX MAY BE COLLECTED AS EARLY AS 12 NOON.", "ref": "2959400004"}, "type": "Feature"}
{"geometry": {"coordinates": [-79.862340239, 34.716657846], "type": "Point"}, "id": "40AAJsDLduM0ekPi2fjG8AkuD3U=", "properties": {"@spider": "usps_collection_boxes", "addr:city": "WALLACE", "addr:country": "US", "addr:full": "4130 POST OFFICE DR", "addr:postcode": "29596", "addr:state": "SC", "brand": "USPS", "brand:wikidata": "Q668687", "collection_times": "Mo-Fr 15:45; Sa 14:30", "name": "USPS COLLECTION BOX - BLUE BOX", "note": "ON 12/24 AND 12/31, THIS BOX MAY BE COLLECTED AS EARLY AS 12 NOON.", "ref": "2959600001"}, "type": "Feature"}
{"geometry": {"coordinates": [-79.862340239, 34.716657846], "type": "Point"}, "id": "5VjBvQXjNIcZMJTdyUF_WPiTCqA=", "properties": {"@spider": "usps_collection_boxes", "addr:city": "WALLACE", "addr:country": "US", "addr:full": "4130 POST OFFICE DR", "addr:postcode": "29596", "addr:state": "SC", "brand": "USPS", "brand:wikidata": "Q668687", "collection_times": "Mo-Fr 15:45", "name": "USPS COLLECTION BOX - PO LOBBY", "note": "ON 12/24 AND 12/31, THIS BOX MAY BE COLLECTED AS EARLY AS 12 NOON.", "ref": "2959600002"}, "type": "Feature"}
{"geometry": {"coordinates": [-79.862340239, 34.716657846], "type": "Point"}, "id": "l2VpfKFa68N6WuyS6XL7Xl7s9l4=", "properties": {"@spider": "usps_collection_boxes", "addr:city": "WALLACE", "addr:country": "US", "addr:full": "4130 POST OFFICE DR", "addr:postcode": "29596", "addr:state": "SC", "brand": "USPS", "brand:wikidata": "Q668687", "collection_times": "Mo-Fr 15:45", "name": "USPS COLLECTION BOX - PO LOBBY", "note": "ON 12/24 AND 12/31, THIS BOX MAY BE COLLECTED AS EARLY AS 12 NOON.", "ref": "2959600004"}, "type": "Feature"}
{"geometry": {"coordinates": [-78.729300534, 33.801861461], "type": "Point"}, "id": "e0sUq8_bK7BgxRTDGV0vfFKDllA=", "properties": {"@spider": "usps_collection_boxes", "addr:city": "N. MYRTLE BEACH", "addr:country": "US", "addr:full": "4009 HIGHWAY 17 S", "addr:postcode": "29598", "addr:state": "SC", "brand": "USPS", "brand:wikidata": "Q668687", "collection_times": "Mo-Fr 16:00; Sa 11:15", "name": "USPS COLLECTION BOX - PO LOBBY", "note": "ON 12/24 AND 12/31, THIS BOX MAY BE COLLECTED AS EARLY AS 12 NOON.", "ref": "2959800000"}, "type": "Feature"}
{"geometry": {"coordinates": [-78.729300534, 33.801861461], "type": "Point"}, "id": "NRdwHbqPkdzH9cpkykN4RuCjJ3o=", "properties": {"@spider": "usps_collection_boxes", "addr:city": "N. MYRTLE BEACH", "addr:country": "US", "addr:full": "4009 HIGHWAY 17 S", "addr:postcode": "29598", "addr:state": "SC", "brand": "USPS", "brand:wikidata": "Q668687", "collection_times": "Mo-Fr 16:00; Sa 11:15", "name": "USPS COLLECTION BOX - PO LOBBY", "note": "ON 12/24 AND 12/31, THIS BOX MAY BE COLLECTED AS EARLY AS 12 NOON.", "ref": "2959800001"}, "type": "Feature"}
{"geometry": {"coordinates": [-78.729300534, 33.801861461], "type": "Point"}, "id": "x8aocpswxyhjr1xxmrR7G7zPuRo=", "properties": {"@spider": "usps_collection_boxes", "addr:city": "N. MYRTLE BEACH", "addr:country": "US", "addr:full": "4009 HIGHWAY 17 S", "addr:postcode": "29598", "addr:state": "SC", "brand": "USPS", "brand:wikidata": "Q668687", "collection_times": "Mo-Fr 16:00", "name": "USPS COLLECTION BOX - PO LOBBY", "note": "ON 12/24 AND 12/31, THIS BOX MAY BE COLLECTED AS EARLY AS 12 NOON.", "ref": "2959800003"}, "type": "Feature"}
