{"geometry": {"coordinates": [-83.268261367, 34.793509856], "type": "Point"}, "id": "1-oZh0sh5jk-S2kw3Dc9AYcsFco=", "properties": {"@spider": "usps_collection_boxes", "addr:city": "LONG CREEK", "addr:country": "US", "addr:full": "13851 LONG CREEK HWY", "addr:postcode": "29658", "addr:state": "SC", "brand": "USPS", "collection_times": "Mo-Fr 15:45; Sa 09:45", "name": "USPS COLLECTION BOX - BLUE BOX", "note": "ON 12/24 AND 12/31, THIS BOX MAY BE COLLECTED AS EARLY AS 12 NOON.", "ref": "2965800000"}, "type": "Feature"}
{"geometry": {"coordinates": [-83.268261367, 34.793509856], "type": "Point"}, "id": "5SHa1FQ6uhz9o1fUEYlPwfwyAUU=", "properties": {"@spider": "usps_collection_boxes", "addr:city": "LONG CREEK", "addr:country": "US", "addr:full": "13851 LONG CREEK HWY", "addr:postcode": "29658", "addr:state": "SC", "brand": "USPS", "collection_times": "Mo-Fr 15:45; Sa 09:45", "name": "USPS COLLECTION BOX - PO LOBBY", "note": "ON 12/24 AND 12/31, THIS BOX MAY BE COLLECTED AS EARLY AS 12 NOON.", "ref": "2965800001"}, "type": "Feature"}
{"geometry": {"coordinates": [-83.268261367, 34.793509856], "type": "Point"}, "id": "v9xXaqIbUuEt26v6wwvh_UVFwEY=", "properties": {"@spider": "usps_collection_boxes", "addr:city": "LONG CREEK", "addr:country": "US", "addr:full": "13851 LONG CREEK HWY", "addr:postcode": "29658", "addr:state": "SC", "brand": "USPS", "collection_times": "Mo-Fr 03:45; Sa 09:45", "name": "USPS COLLECTION BOX - PO LOBBY", "ref": "2965800003"}, "type": "Feature"}
