{"geometry": {"coordinates": [-81.515698257, 35.11829895], "type": "Point"}, "id": "sGnj18HiHCt3-tmKxGPAEOt4mC4=", "properties": {"@source_uri": "https://tools.usps.com/UspsToolsRestServices/rest/POLocator/findLocations", "@spider": "usps_collection_boxes", "addr:city": "BLACKSBURG", "addr:country": "US", "addr:postcode": "29702", "addr:state": "SC", "addr:street_address": "202 W PINE ST", "amenity": "post_box", "collection_times": "Mo-Fr 16:30; Sa 12:00", "note": "ON 12/24 AND 12/31, THIS BOX MAY BE COLLECTED AS EARLY AS 12 NOON.", "nsi_id": "unitedstatespostalservice-a77078", "operator": "United States Postal Service", "operator:short": "USPS", "operator:type": "public", "operator:wikidata": "Q668687", "ref": "2970200005"}, "type": "Feature"}
{"geometry": {"coordinates": [-81.515698257, 35.11829895], "type": "Point"}, "id": "ovBgQmCmJtxVXvGu-wQdFWY9Y9o=", "properties": {"@source_uri": "https://tools.usps.com/UspsToolsRestServices/rest/POLocator/findLocations", "@spider": "usps_collection_boxes", "addr:city": "BLACKSBURG", "addr:country": "US", "addr:postcode": "29702", "addr:state": "SC", "addr:street_address": "202 W PINE ST", "amenity": "post_box", "collection_times": "Mo-Fr 16:30; Sa 12:00", "indoor": "yes", "note": "ON 12/24 AND 12/31, THIS BOX MAY BE COLLECTED AS EARLY AS 12 NOON.", "nsi_id": "unitedstatespostalservice-a77078", "operator": "United States Postal Service", "operator:short": "USPS", "operator:type": "public", "operator:wikidata": "Q668687", "ref": "2970200007"}, "type": "Feature"}
{"geometry": {"coordinates": [-81.5093723, 35.142281], "type": "Point"}, "id": "dOMiiayOIxOgS3HcZdbdf4impd8=", "properties": {"@source_uri": "https://tools.usps.com/UspsToolsRestServices/rest/POLocator/findLocations", "@spider": "usps_collection_boxes", "addr:city": "BLACKSBURG", "addr:country": "US", "addr:postcode": "29702", "addr:state": "SC", "addr:street_address": "1011 N MOUNTAIN ST", "amenity": "post_box", "collection_times": "Mo-Sa 12:00", "nsi_id": "unitedstatespostalservice-a77078", "operator": "United States Postal Service", "operator:short": "USPS", "operator:type": "public", "operator:wikidata": "Q668687", "ref": "2970200008"}, "type": "Feature"}
{"geometry": {"coordinates": [-81.515698257, 35.11829895], "type": "Point"}, "id": "luSY_qRVV12ArtQhU35IT4sbynI=", "properties": {"@source_uri": "https://tools.usps.com/UspsToolsRestServices/rest/POLocator/findLocations", "@spider": "usps_collection_boxes", "addr:city": "BLACKSBURG", "addr:country": "US", "addr:postcode": "29702", "addr:state": "SC", "addr:street_address": "202 W PINE ST", "amenity": "post_box", "collection_times": "Mo-Fr 16:30; Sa 12:00", "indoor": "yes", "note": "ON 12/24 AND 12/31, THIS BOX MAY BE COLLECTED AS EARLY AS 12 NOON.", "nsi_id": "unitedstatespostalservice-a77078", "operator": "United States Postal Service", "operator:short": "USPS", "operator:type": "public", "operator:wikidata": "Q668687", "ref": "2970200010"}, "type": "Feature"}
{"geometry": {"coordinates": [-81.2133490114, 35.1493660012], "type": "Point"}, "id": "50qhFTDm-klv87Fa7lqqvPudaFo=", "properties": {"@source_uri": "https://tools.usps.com/UspsToolsRestServices/rest/POLocator/findLocations", "@spider": "usps_collection_boxes", "addr:city": "BOWLING GREEN", "addr:country": "US", "addr:postcode": "29703", "addr:state": "SC", "addr:street_address": "1771 N HIGHWAY 321", "amenity": "post_box", "collection_times": "Mo-Fr 16:30; Sa 10:00", "note": "ON 12/24 AND 12/31, THIS BOX MAY BE COLLECTED AS EARLY AS 12 NOON.", "nsi_id": "unitedstatespostalservice-a77078", "operator": "United States Postal Service", "operator:short": "USPS", "operator:type": "public", "operator:wikidata": "Q668687", "ref": "2970300002"}, "type": "Feature"}
{"geometry": {"coordinates": [-81.212959433, 35.149403954], "type": "Point"}, "id": "hnb23i41KUG5f3TSqQOzpQ5V_FA=", "properties": {"@source_uri": "https://tools.usps.com/UspsToolsRestServices/rest/POLocator/findLocations", "@spider": "usps_collection_boxes", "addr:city": "BOWLING GREEN", "addr:country": "US", "addr:postcode": "29703", "addr:state": "SC", "addr:street_address": "1771 N HIGHWAY 321", "amenity": "post_box", "collection_times": "Mo-Fr 16:30; Sa 10:00", "indoor": "yes", "note": "ON 12/24 AND 12/31, THIS BOX MAY BE COLLECTED AS EARLY AS 12 NOON.", "nsi_id": "unitedstatespostalservice-a77078", "operator": "United States Postal Service", "operator:short": "USPS", "operator:type": "public", "operator:wikidata": "Q668687", "ref": "2970300003"}, "type": "Feature"}
{"geometry": {"coordinates": [-81.212959433, 35.149403954], "type": "Point"}, "id": "JhSXO7qq4CnwY_xLs0SgsWSDoQE=", "properties": {"@source_uri": "https://tools.usps.com/UspsToolsRestServices/rest/POLocator/findLocations", "@spider": "usps_collection_boxes", "addr:city": "BOWLING GREEN", "addr:country": "US", "addr:postcode": "29703", "addr:state": "SC", "addr:street_address": "1771 N HIGHWAY 321", "amenity": "post_box", "collection_times": "Mo-Fr 16:30; Sa 10:00", "indoor": "yes", "note": "ON 12/24 AND 12/31, THIS BOX MAY BE COLLECTED AS EARLY AS 12 NOON.", "nsi_id": "unitedstatespostalservice-a77078", "operator": "United States Postal Service", "operator:short": "USPS", "operator:type": "public", "operator:wikidata": "Q668687", "ref": "2970300004"}, "type": "Feature"}
{"geometry": {"coordinates": [-81.212959433, 35.149403954], "type": "Point"}, "id": "CUGL7RAfvbcYbDSZQh8UyZwSGwE=", "properties": {"@source_uri": "https://tools.usps.com/UspsToolsRestServices/rest/POLocator/findLocations", "@spider": "usps_collection_boxes", "addr:city": "BOWLING GREEN", "addr:country": "US", "addr:postcode": "29703", "addr:state": "SC", "addr:street_address": "1771 N HIGHWAY 321", "amenity": "post_box", "collection_times": "Mo-Fr 16:30; Sa 10:00", "indoor": "yes", "note": "ON 12/24 AND 12/31, THIS BOX MAY BE COLLECTED AS EARLY AS 12 NOON.", "nsi_id": "unitedstatespostalservice-a77078", "operator": "United States Postal Service", "operator:short": "USPS", "operator:type": "public", "operator:wikidata": "Q668687", "ref": "2970300005"}, "type": "Feature"}
{"geometry": {"coordinates": [-80.912388459, 34.853368818], "type": "Point"}, "id": "3hlZ-7CcN5D79ht9IeDgoa-PsYQ=", "properties": {"@source_uri": "https://tools.usps.com/UspsToolsRestServices/rest/POLocator/findLocations", "@spider": "usps_collection_boxes", "addr:city": "CATAWBA", "addr:country": "US", "addr:postcode": "29704", "addr:state": "SC", "addr:street_address": "4795 CURETON FERRY RD", "amenity": "post_box", "collection_times": "Mo-Fr 16:15; Sa 11:00", "note": "ON 12/24 AND 12/31, THIS BOX MAY BE COLLECTED AS EARLY AS 12 NOON.", "nsi_id": "unitedstatespostalservice-a77078", "operator": "United States Postal Service", "operator:short": "USPS", "operator:type": "public", "operator:wikidata": "Q668687", "ref": "2970400003"}, "type": "Feature"}
{"geometry": {"coordinates": [-80.912388459, 34.853368818], "type": "Point"}, "id": "kvO_SLOS5JcZEyKqkyH0_L5yIZ4=", "properties": {"@source_uri": "https://tools.usps.com/UspsToolsRestServices/rest/POLocator/findLocations", "@spider": "usps_collection_boxes", "addr:city": "CATAWBA", "addr:country": "US", "addr:postcode": "29704", "addr:state": "SC", "addr:street_address": "4795 CURETON FERRY RD", "amenity": "post_box", "collection_times": "Mo-Fr 16:15; Sa 11:00", "indoor": "yes", "note": "ON 12/24 AND 12/31, THIS BOX MAY BE COLLECTED AS EARLY AS 12 NOON.", "nsi_id": "unitedstatespostalservice-a77078", "operator": "United States Postal Service", "operator:short": "USPS", "operator:type": "public", "operator:wikidata": "Q668687", "ref": "2970400005"}, "type": "Feature"}
{"geometry": {"coordinates": [-80.912388459, 34.853368818], "type": "Point"}, "id": "rzdP1ACHahmAs500j8p83A1Rihg=", "properties": {"@source_uri": "https://tools.usps.com/UspsToolsRestServices/rest/POLocator/findLocations", "@spider": "usps_collection_boxes", "addr:city": "CATAWBA", "addr:country": "US", "addr:postcode": "29704", "addr:state": "SC", "addr:street_address": "4795 CURETON FERRY RD", "amenity": "post_box", "collection_times": "Mo-Fr 16:15; Sa 11:00", "indoor": "yes", "note": "ON 12/24 AND 12/31, THIS BOX MAY BE COLLECTED AS EARLY AS 12 NOON.", "nsi_id": "unitedstatespostalservice-a77078", "operator": "United States Postal Service", "operator:short": "USPS", "operator:type": "public", "operator:wikidata": "Q668687", "ref": "2970400006"}, "type": "Feature"}
{"geometry": {"coordinates": [-81.2086360348, 34.7089119929], "type": "Point"}, "id": "Tg0JqnV8_VFd9JanwU2OaxNqso0=", "properties": {"@source_uri": "https://tools.usps.com/UspsToolsRestServices/rest/POLocator/findLocations", "@spider": "usps_collection_boxes", "addr:city": "CHESTER", "addr:country": "US", "addr:postcode": "29706", "addr:state": "SC", "addr:street_address": "131 SALUDA ST", "amenity": "post_box", "collection_times": "Mo-Fr 17:00; Sa 15:00", "note": "ON 12/24 AND 12/31, THIS BOX MAY BE COLLECTED AS EARLY AS 12 NOON.", "nsi_id": "unitedstatespostalservice-a77078", "operator": "United States Postal Service", "operator:short": "USPS", "operator:type": "public", "operator:wikidata": "Q668687", "ref": "2970600003"}, "type": "Feature"}
{"geometry": {"coordinates": [-81.214275, 34.70608], "type": "Point"}, "id": "5Lj81jJ4tgnE2pi2yuKxuQNWMsg=", "properties": {"@source_uri": "https://tools.usps.com/UspsToolsRestServices/rest/POLocator/findLocations", "@spider": "usps_collection_boxes", "addr:city": "CHESTER", "addr:country": "US", "addr:postcode": "29706", "addr:state": "SC", "addr:street_address": "109 CESTRAIN SQ", "amenity": "post_box", "collection_times": "Mo-Fr 16:00; Sa 14:00", "note": "ON 12/24 AND 12/31, THIS BOX MAY BE COLLECTED AS EARLY AS 12 NOON.", "nsi_id": "unitedstatespostalservice-a77078", "operator": "United States Postal Service", "operator:short": "USPS", "operator:type": "public", "operator:wikidata": "Q668687", "ref": "2970600006"}, "type": "Feature"}
{"geometry": {"coordinates": [-81.2120960007, 34.7050020027], "type": "Point"}, "id": "85EFyrcHHF8FF90M6IQPOPsKrdg=", "properties": {"@source_uri": "https://tools.usps.com/UspsToolsRestServices/rest/POLocator/findLocations", "@spider": "usps_collection_boxes", "addr:city": "CHESTER", "addr:country": "US", "addr:postcode": "29706", "addr:state": "SC", "addr:street_address": "135 GADSDEN ST", "amenity": "post_box", "collection_times": "Mo-Fr 16:00; Sa 14:00", "note": "ON 12/24 AND 12/31, THIS BOX MAY BE COLLECTED AS EARLY AS 12 NOON.", "nsi_id": "unitedstatespostalservice-a77078", "operator": "United States Postal Service", "operator:short": "USPS", "operator:type": "public", "operator:wikidata": "Q668687", "ref": "2970600010"}, "type": "Feature"}
{"geometry": {"coordinates": [-81.1928576, 34.708251], "type": "Point"}, "id": "Vp9Q06H4lLFnEJMG0QsTce291zs=", "properties": {"@source_uri": "https://tools.usps.com/UspsToolsRestServices/rest/POLocator/findLocations", "@spider": "usps_collection_boxes", "addr:city": "CHESTER", "addr:country": "US", "addr:postcode": "29706", "addr:state": "SC", "addr:street_address": "1841 J A COCHRAN BYP", "amenity": "post_box", "collection_times": "Mo-Fr 16:00; Sa 14:00", "note": "ON 12/24 AND 12/31, THIS BOX MAY BE COLLECTED AS EARLY AS 12 NOON.", "nsi_id": "unitedstatespostalservice-a77078", "operator": "United States Postal Service", "operator:short": "USPS", "operator:type": "public", "operator:wikidata": "Q668687", "ref": "2970600015"}, "type": "Feature"}
{"geometry": {"coordinates": [-81.214275, 34.70608], "type": "Point"}, "id": "Vxx5h5tdpw8C_JPqV3FpS35k2yc=", "properties": {"@source_uri": "https://tools.usps.com/UspsToolsRestServices/rest/POLocator/findLocations", "@spider": "usps_collection_boxes", "addr:city": "CHESTER", "addr:country": "US", "addr:postcode": "29706", "addr:state": "SC", "addr:street_address": "1661 J A COCHRAN BYP", "amenity": "post_box", "collection_times": "Mo-Fr 16:00; Sa 14:00", "note": "ON 12/24 AND 12/31, THIS BOX MAY BE COLLECTED AS EARLY AS 12 NOON.", "nsi_id": "unitedstatespostalservice-a77078", "operator": "United States Postal Service", "operator:short": "USPS", "operator:type": "public", "operator:wikidata": "Q668687", "ref": "2970600016"}, "type": "Feature"}
{"geometry": {"coordinates": [-81.2086360348, 34.7089119929], "type": "Point"}, "id": "gKzWvWinil7KZeV3zn2G9EM1kKc=", "properties": {"@source_uri": "https://tools.usps.com/UspsToolsRestServices/rest/POLocator/findLocations", "@spider": "usps_collection_boxes", "addr:city": "CHESTER", "addr:country": "US", "addr:postcode": "29706", "addr:state": "SC", "addr:street_address": "131 SALUDA ST", "amenity": "post_box", "collection_times": "Mo-Fr 17:00; Sa 15:00", "indoor": "yes", "note": "ON 12/24 AND 12/31, THIS BOX MAY BE COLLECTED AS EARLY AS 12 NOON.", "nsi_id": "unitedstatespostalservice-a77078", "operator": "United States Postal Service", "operator:short": "USPS", "operator:type": "public", "operator:wikidata": "Q668687", "ref": "2970600017"}, "type": "Feature"}
{"geometry": {"coordinates": [-81.2086360348, 34.7089119929], "type": "Point"}, "id": "6YkbTjS_ApAw_y-8iYRsMevSEU4=", "properties": {"@source_uri": "https://tools.usps.com/UspsToolsRestServices/rest/POLocator/findLocations", "@spider": "usps_collection_boxes", "addr:city": "CHESTER", "addr:country": "US", "addr:postcode": "29706", "addr:state": "SC", "addr:street_address": "131 SALUDA ST", "amenity": "post_box", "collection_times": "Mo-Fr 17:00; Sa 15:00", "indoor": "yes", "note": "ON 12/24 AND 12/31, THIS BOX MAY BE COLLECTED AS EARLY AS 12 NOON.", "nsi_id": "unitedstatespostalservice-a77078", "operator": "United States Postal Service", "operator:short": "USPS", "operator:type": "public", "operator:wikidata": "Q668687", "ref": "2970600018"}, "type": "Feature"}
{"geometry": {"coordinates": [-81.2086360348, 34.7089119929], "type": "Point"}, "id": "ywvOIK0-DEBB8T1L-qkopM77gCM=", "properties": {"@source_uri": "https://tools.usps.com/UspsToolsRestServices/rest/POLocator/findLocations", "@spider": "usps_collection_boxes", "addr:city": "CHESTER", "addr:country": "US", "addr:postcode": "29706", "addr:state": "SC", "addr:street_address": "131 SALUDA ST", "amenity": "post_box", "collection_times": "Mo-Fr 17:00; Sa 15:00", "indoor": "yes", "note": "ON 12/24 AND 12/31, THIS BOX MAY BE COLLECTED AS EARLY AS 12 NOON.", "nsi_id": "unitedstatespostalservice-a77078", "operator": "United States Postal Service", "operator:short": "USPS", "operator:type": "public", "operator:wikidata": "Q668687", "ref": "2970600021"}, "type": "Feature"}
{"geometry": {"coordinates": [-80.991725963, 35.059526088], "type": "Point"}, "id": "orI1iY7eEpyFQ_qqGmet1helIoY=", "properties": {"@source_uri": "https://tools.usps.com/UspsToolsRestServices/rest/POLocator/findLocations", "@spider": "usps_collection_boxes", "addr:city": "FORT MILL", "addr:country": "US", "addr:postcode": "29708", "addr:state": "SC", "addr:street_address": "2879 HIGHWAY 160 W", "amenity": "post_box", "collection_times": "Mo-Fr 12:00", "nsi_id": "unitedstatespostalservice-a77078", "operator": "United States Postal Service", "operator:short": "USPS", "operator:type": "public", "operator:wikidata": "Q668687", "ref": "2970800000"}, "type": "Feature"}
{"geometry": {"coordinates": [-80.991725963, 35.059526088], "type": "Point"}, "id": "f00yWRECtctJv6adxOwN0Z32NNk=", "properties": {"@source_uri": "https://tools.usps.com/UspsToolsRestServices/rest/POLocator/findLocations", "@spider": "usps_collection_boxes", "addr:city": "FORT MILL", "addr:country": "US", "addr:postcode": "29708", "addr:state": "SC", "addr:street_address": "2879 HIGHWAY 160 W", "amenity": "post_box", "collection_times": "Mo-Fr 12:00", "nsi_id": "unitedstatespostalservice-a77078", "operator": "United States Postal Service", "operator:short": "USPS", "operator:type": "public", "operator:wikidata": "Q668687", "ref": "2970800002"}, "type": "Feature"}
{"geometry": {"coordinates": [-80.9416766, 35.096405], "type": "Point"}, "id": "T0RYp83vZIT-sIz0tuLg3oGhw68=", "properties": {"@source_uri": "https://tools.usps.com/UspsToolsRestServices/rest/POLocator/findLocations", "@spider": "usps_collection_boxes", "addr:city": "FORT MILL", "addr:country": "US", "addr:postcode": "29708", "addr:state": "SC", "addr:street_address": "377 CAROWINDS BLVD", "amenity": "post_box", "collection_times": "Mo-Fr 12:00; Sa 10:00", "nsi_id": "unitedstatespostalservice-a77078", "operator": "United States Postal Service", "operator:short": "USPS", "operator:type": "public", "operator:wikidata": "Q668687", "ref": "2970800004"}, "type": "Feature"}
{"geometry": {"coordinates": [-80.9931326, 35.062033], "type": "Point"}, "id": "nWJA5snRudhNSxP36LBw9eCxW0c=", "properties": {"@source_uri": "https://tools.usps.com/UspsToolsRestServices/rest/POLocator/findLocations", "@spider": "usps_collection_boxes", "addr:city": "FORT MILL", "addr:country": "US", "addr:postcode": "29708", "addr:state": "SC", "addr:street_address": "737 STOCKBRIDGE DR", "amenity": "post_box", "collection_times": "Mo-Fr 12:00", "nsi_id": "unitedstatespostalservice-a77078", "operator": "United States Postal Service", "operator:short": "USPS", "operator:type": "public", "operator:wikidata": "Q668687", "ref": "2970800005"}, "type": "Feature"}
{"geometry": {"coordinates": [-80.9670803, 35.028092], "type": "Point"}, "id": "-LasHdanrkTi92BN6ayzH9FuvX0=", "properties": {"@source_uri": "https://tools.usps.com/UspsToolsRestServices/rest/POLocator/findLocations", "@spider": "usps_collection_boxes", "addr:city": "FORT MILL", "addr:country": "US", "addr:postcode": "29708", "addr:state": "SC", "addr:street_address": "951 MARKET ST", "amenity": "post_box", "collection_times": "Mo-Sa 12:00", "nsi_id": "unitedstatespostalservice-a77078", "operator": "United States Postal Service", "operator:short": "USPS", "operator:type": "public", "operator:wikidata": "Q668687", "ref": "2970800006"}, "type": "Feature"}
{"geometry": {"coordinates": [-80.084985658, 34.735695748], "type": "Point"}, "id": "2sbk3_acAbp4Qp0YM6vbQKwCtDo=", "properties": {"@source_uri": "https://tools.usps.com/UspsToolsRestServices/rest/POLocator/findLocations", "@spider": "usps_collection_boxes", "addr:city": "CHESTERFIELD", "addr:country": "US", "addr:postcode": "29709", "addr:state": "SC", "addr:street_address": "200 E MAIN ST", "amenity": "post_box", "collection_times": "Mo-Fr 16:45; Sa 12:00", "note": "ON 12/24 AND 12/31, THIS BOX MAY BE COLLECTED AS EARLY AS 12 NOON.", "nsi_id": "unitedstatespostalservice-a77078", "operator": "United States Postal Service", "operator:short": "USPS", "operator:type": "public", "operator:wikidata": "Q668687", "ref": "2970900004"}, "type": "Feature"}
{"geometry": {"coordinates": [-80.088275915, 34.736069176], "type": "Point"}, "id": "BJK_keVo6Ql8jCVUOeuOpwZjEv4=", "properties": {"@source_uri": "https://tools.usps.com/UspsToolsRestServices/rest/POLocator/findLocations", "@spider": "usps_collection_boxes", "addr:city": "CHESTERFIELD", "addr:country": "US", "addr:postcode": "29709", "addr:state": "SC", "addr:street_address": "198 MAIN ST", "amenity": "post_box", "collection_times": "Mo-Fr 15:00; Sa 14:00", "note": "ON 12/24 AND 12/31, THIS BOX MAY BE COLLECTED AS EARLY AS 12 NOON.", "nsi_id": "unitedstatespostalservice-a77078", "operator": "United States Postal Service", "operator:short": "USPS", "operator:type": "public", "operator:wikidata": "Q668687", "ref": "2970900006"}, "type": "Feature"}
{"geometry": {"coordinates": [-80.084985658, 34.735695748], "type": "Point"}, "id": "nR4kNDWG3gkgxhLbpWYfwyBUxkA=", "properties": {"@source_uri": "https://tools.usps.com/UspsToolsRestServices/rest/POLocator/findLocations", "@spider": "usps_collection_boxes", "addr:city": "CHESTERFIELD", "addr:country": "US", "addr:postcode": "29709", "addr:state": "SC", "addr:street_address": "200 E MAIN ST", "amenity": "post_box", "collection_times": "Mo-Fr 16:45; Sa 12:00", "indoor": "yes", "note": "ON 12/24 AND 12/31, THIS BOX MAY BE COLLECTED AS EARLY AS 12 NOON.", "nsi_id": "unitedstatespostalservice-a77078", "operator": "United States Postal Service", "operator:short": "USPS", "operator:type": "public", "operator:wikidata": "Q668687", "ref": "2970900008"}, "type": "Feature"}
{"geometry": {"coordinates": [-80.084985658, 34.735695748], "type": "Point"}, "id": "zqKOqHUTg_P_E8TLnSUmmKEUpTI=", "properties": {"@source_uri": "https://tools.usps.com/UspsToolsRestServices/rest/POLocator/findLocations", "@spider": "usps_collection_boxes", "addr:city": "CHESTERFIELD", "addr:country": "US", "addr:postcode": "29709", "addr:state": "SC", "addr:street_address": "200 E MAIN ST", "amenity": "post_box", "collection_times": "Mo-Fr 16:45; Sa 12:00", "indoor": "yes", "note": "ON 12/24 AND 12/31, THIS BOX MAY BE COLLECTED AS EARLY AS 12 NOON.", "nsi_id": "unitedstatespostalservice-a77078", "operator": "United States Postal Service", "operator:short": "USPS", "operator:type": "public", "operator:wikidata": "Q668687", "ref": "2970900009"}, "type": "Feature"}
{"geometry": {"coordinates": [-80.084985658, 34.735695748], "type": "Point"}, "id": "IwDdVDBcprb3fCvjI5g-HFezbH0=", "properties": {"@source_uri": "https://tools.usps.com/UspsToolsRestServices/rest/POLocator/findLocations", "@spider": "usps_collection_boxes", "addr:city": "CHESTERFIELD", "addr:country": "US", "addr:postcode": "29709", "addr:state": "SC", "addr:street_address": "200 E MAIN ST", "amenity": "post_box", "collection_times": "Mo-Fr 16:45; Sa 12:00", "indoor": "yes", "note": "ON 12/24 AND 12/31, THIS BOX MAY BE COLLECTED AS EARLY AS 12 NOON.", "nsi_id": "unitedstatespostalservice-a77078", "operator": "United States Postal Service", "operator:short": "USPS", "operator:type": "public", "operator:wikidata": "Q668687", "ref": "2970900011"}, "type": "Feature"}
{"geometry": {"coordinates": [-81.0819799, 35.120431], "type": "Point"}, "id": "bMIQSs0taAKfwjg8IOjoH_r5Xo0=", "properties": {"@source_uri": "https://tools.usps.com/UspsToolsRestServices/rest/POLocator/findLocations", "@spider": "usps_collection_boxes", "addr:city": "CLOVER", "addr:country": "US", "addr:postcode": "29710", "addr:state": "SC", "addr:street_address": "144 HIGHWAY 274", "amenity": "post_box", "collection_times": "Mo-Sa 13:30", "note": "ON 12/24 AND 12/31, THIS BOX MAY BE COLLECTED AS EARLY AS 12 NOON.", "nsi_id": "unitedstatespostalservice-a77078", "operator": "United States Postal Service", "operator:short": "USPS", "operator:type": "public", "operator:wikidata": "Q668687", "ref": "2971000004"}, "type": "Feature"}
{"geometry": {"coordinates": [-81.0421091, 35.110336], "type": "Point"}, "id": "pW2aQyBJoLHn9LwzEjCjhkHob-E=", "properties": {"@source_uri": "https://tools.usps.com/UspsToolsRestServices/rest/POLocator/findLocations", "@spider": "usps_collection_boxes", "addr:city": "CLOVER", "addr:country": "US", "addr:postcode": "29710", "addr:state": "SC", "addr:street_address": "4052 CHARLOTTE HWY", "amenity": "post_box", "collection_times": "Mo-Sa 13:30", "note": "ON 12/24 AND 12/31, THIS BOX MAY BE COLLECTED AS EARLY AS 12 NOON.", "nsi_id": "unitedstatespostalservice-a77078", "operator": "United States Postal Service", "operator:short": "USPS", "operator:type": "public", "operator:wikidata": "Q668687", "ref": "2971000016"}, "type": "Feature"}
{"geometry": {"coordinates": [-81.0819764, 35.120428], "type": "Point"}, "id": "id3Q7vySwq6oDazP62uHiBBMDH8=", "properties": {"@source_uri": "https://tools.usps.com/UspsToolsRestServices/rest/POLocator/findLocations", "@spider": "usps_collection_boxes", "addr:city": "CLOVER", "addr:country": "US", "addr:postcode": "29710", "addr:state": "SC", "addr:street_address": "144 HIGHWAY 274", "amenity": "post_box", "collection_times": "Mo-Sa 13:30", "note": "ON 12/24 AND 12/31, THIS BOX MAY BE COLLECTED AS EARLY AS 12 NOON.", "nsi_id": "unitedstatespostalservice-a77078", "operator": "United States Postal Service", "operator:short": "USPS", "operator:type": "public", "operator:wikidata": "Q668687", "ref": "2971000017"}, "type": "Feature"}
{"geometry": {"coordinates": [-81.210634504, 35.106919591], "type": "Point"}, "id": "Q8E_MOouRPWFd1n08Z3ipD0Pq8I=", "properties": {"@source_uri": "https://tools.usps.com/UspsToolsRestServices/rest/POLocator/findLocations", "@spider": "usps_collection_boxes", "addr:city": "CLOVER", "addr:country": "US", "addr:postcode": "29710", "addr:state": "SC", "addr:street_address": "913 BETHEL ST", "amenity": "post_box", "collection_times": "Mo-Fr 17:00; Sa 16:00", "note": "ON 12/24 AND 12/31, THIS BOX MAY BE COLLECTED AS EARLY AS 12 NOON.", "nsi_id": "unitedstatespostalservice-a77078", "operator": "United States Postal Service", "operator:short": "USPS", "operator:type": "public", "operator:wikidata": "Q668687", "ref": "2971000018"}, "type": "Feature"}
{"geometry": {"coordinates": [-81.2248000322, 35.1120780153], "type": "Point"}, "id": "H_cdg6o5TDEjfk6JKvewcfXQLUQ=", "properties": {"@source_uri": "https://tools.usps.com/UspsToolsRestServices/rest/POLocator/findLocations", "@spider": "usps_collection_boxes", "addr:city": "CLOVER", "addr:country": "US", "addr:postcode": "29710", "addr:state": "SC", "addr:street_address": "124 N MAIN ST", "amenity": "post_box", "collection_times": "Mo-Sa 12:00", "nsi_id": "unitedstatespostalservice-a77078", "operator": "United States Postal Service", "operator:short": "USPS", "operator:type": "public", "operator:wikidata": "Q668687", "ref": "2971000020"}, "type": "Feature"}
{"geometry": {"coordinates": [-81.210634504, 35.106919591], "type": "Point"}, "id": "I_Kxy1vwb-_lPxXESgm1rX6UuAI=", "properties": {"@source_uri": "https://tools.usps.com/UspsToolsRestServices/rest/POLocator/findLocations", "@spider": "usps_collection_boxes", "addr:city": "CLOVER", "addr:country": "US", "addr:postcode": "29710", "addr:state": "SC", "addr:street_address": "913 BETHEL ST", "amenity": "post_box", "collection_times": "Mo-Fr 17:00; Sa 16:00", "indoor": "yes", "note": "ON 12/24 AND 12/31, THIS BOX MAY BE COLLECTED AS EARLY AS 12 NOON.", "nsi_id": "unitedstatespostalservice-a77078", "operator": "United States Postal Service", "operator:short": "USPS", "operator:type": "public", "operator:wikidata": "Q668687", "ref": "2971000022"}, "type": "Feature"}
{"geometry": {"coordinates": [-81.210634504, 35.106919591], "type": "Point"}, "id": "rXPMfoIfaCeZ-GfWPzMYHnB9os4=", "properties": {"@source_uri": "https://tools.usps.com/UspsToolsRestServices/rest/POLocator/findLocations", "@spider": "usps_collection_boxes", "addr:city": "CLOVER", "addr:country": "US", "addr:postcode": "29710", "addr:state": "SC", "addr:street_address": "913 BETHEL ST", "amenity": "post_box", "collection_times": "Mo-Fr 17:00; Sa 16:00", "indoor": "yes", "note": "ON 12/24 AND 12/31, THIS BOX MAY BE COLLECTED AS EARLY AS 12 NOON.", "nsi_id": "unitedstatespostalservice-a77078", "operator": "United States Postal Service", "operator:short": "USPS", "operator:type": "public", "operator:wikidata": "Q668687", "ref": "2971000023"}, "type": "Feature"}
{"geometry": {"coordinates": [-81.210634504, 35.106919591], "type": "Point"}, "id": "DNXKxfzasb5vycVuALKvecNJHMs=", "properties": {"@source_uri": "https://tools.usps.com/UspsToolsRestServices/rest/POLocator/findLocations", "@spider": "usps_collection_boxes", "addr:city": "CLOVER", "addr:country": "US", "addr:postcode": "29710", "addr:state": "SC", "addr:street_address": "913 BETHEL ST", "amenity": "post_box", "collection_times": "Mo-Fr 17:00", "indoor": "yes", "note": "ON 12/24 AND 12/31, THIS BOX MAY BE COLLECTED AS EARLY AS 12 NOON.", "nsi_id": "unitedstatespostalservice-a77078", "operator": "United States Postal Service", "operator:short": "USPS", "operator:type": "public", "operator:wikidata": "Q668687", "ref": "2971000028"}, "type": "Feature"}
{"geometry": {"coordinates": [-81.010928649, 34.804759628], "type": "Point"}, "id": "2_2zrEfwF_EDTrkUTs35jaOpbb0=", "properties": {"@source_uri": "https://tools.usps.com/UspsToolsRestServices/rest/POLocator/findLocations", "@spider": "usps_collection_boxes", "addr:city": "EDGEMOOR", "addr:country": "US", "addr:postcode": "29712", "addr:state": "SC", "addr:street_address": "4469 EDGELAND RD", "amenity": "post_box", "collection_times": "Mo-Fr 16:00; Sa 09:15", "note": "ON 12/24 AND 12/31, THIS BOX MAY BE COLLECTED AS EARLY AS 12 NOON.", "nsi_id": "unitedstatespostalservice-a77078", "operator": "United States Postal Service", "operator:short": "USPS", "operator:type": "public", "operator:wikidata": "Q668687", "ref": "2971200001"}, "type": "Feature"}
{"geometry": {"coordinates": [-81.010928649, 34.804759628], "type": "Point"}, "id": "8cA6jSrlkDpSanwOvfOFFnTwkZE=", "properties": {"@source_uri": "https://tools.usps.com/UspsToolsRestServices/rest/POLocator/findLocations", "@spider": "usps_collection_boxes", "addr:city": "EDGEMOOR", "addr:country": "US", "addr:postcode": "29712", "addr:state": "SC", "addr:street_address": "4469 EDGELAND RD", "amenity": "post_box", "collection_times": "Mo-Fr 16:00; Sa 09:15", "indoor": "yes", "note": "ON 12/24 AND 12/31, THIS BOX MAY BE COLLECTED AS EARLY AS 12 NOON.", "nsi_id": "unitedstatespostalservice-a77078", "operator": "United States Postal Service", "operator:short": "USPS", "operator:type": "public", "operator:wikidata": "Q668687", "ref": "2971200002"}, "type": "Feature"}
{"geometry": {"coordinates": [-81.010928649, 34.804759628], "type": "Point"}, "id": "m8DkUDNWAT9weqVCVb5fyBYaQR0=", "properties": {"@source_uri": "https://tools.usps.com/UspsToolsRestServices/rest/POLocator/findLocations", "@spider": "usps_collection_boxes", "addr:city": "EDGEMOOR", "addr:country": "US", "addr:postcode": "29712", "addr:state": "SC", "addr:street_address": "4469 EDGELAND RD", "amenity": "post_box", "collection_times": "Mo-Fr 16:00; Sa 09:00", "indoor": "yes", "note": "ON 12/24 AND 12/31, THIS BOX MAY BE COLLECTED AS EARLY AS 12 NOON.", "nsi_id": "unitedstatespostalservice-a77078", "operator": "United States Postal Service", "operator:short": "USPS", "operator:type": "public", "operator:wikidata": "Q668687", "ref": "2971200003"}, "type": "Feature"}
{"geometry": {"coordinates": [-80.884785059, 34.705208195], "type": "Point"}, "id": "pbzKxzSiw6iWTY42Iz5wZMe31t8=", "properties": {"@source_uri": "https://tools.usps.com/UspsToolsRestServices/rest/POLocator/findLocations", "@spider": "usps_collection_boxes", "addr:city": "FORT LAWN", "addr:country": "US", "addr:postcode": "29714", "addr:state": "SC", "addr:street_address": "5915 LANCASTER HWY", "amenity": "post_box", "collection_times": "Mo-Fr 15:30; Sa 11:00", "note": "ON 12/24 AND 12/31, THIS BOX MAY BE COLLECTED AS EARLY AS 12 NOON.", "nsi_id": "unitedstatespostalservice-a77078", "operator": "United States Postal Service", "operator:short": "USPS", "operator:type": "public", "operator:wikidata": "Q668687", "ref": "2971400001"}, "type": "Feature"}
{"geometry": {"coordinates": [-80.884785059, 34.705208195], "type": "Point"}, "id": "5vntWlz-eLYxGGN3cyP4YXACQw4=", "properties": {"@source_uri": "https://tools.usps.com/UspsToolsRestServices/rest/POLocator/findLocations", "@spider": "usps_collection_boxes", "addr:city": "FORT LAWN", "addr:country": "US", "addr:postcode": "29714", "addr:state": "SC", "addr:street_address": "5915 LANCASTER HWY", "amenity": "post_box", "collection_times": "Mo-Fr 15:30; Sa 11:00", "indoor": "yes", "note": "ON 12/24 AND 12/31, THIS BOX MAY BE COLLECTED AS EARLY AS 12 NOON.", "nsi_id": "unitedstatespostalservice-a77078", "operator": "United States Postal Service", "operator:short": "USPS", "operator:type": "public", "operator:wikidata": "Q668687", "ref": "2971400002"}, "type": "Feature"}
{"geometry": {"coordinates": [-80.884785059, 34.705208195], "type": "Point"}, "id": "1opVFfGPh8PjI3exFRowZv0FPTc=", "properties": {"@source_uri": "https://tools.usps.com/UspsToolsRestServices/rest/POLocator/findLocations", "@spider": "usps_collection_boxes", "addr:city": "FORT LAWN", "addr:country": "US", "addr:postcode": "29714", "addr:state": "SC", "addr:street_address": "5915 LANCASTER HWY", "amenity": "post_box", "collection_times": "Mo-Fr 15:30; Sa 11:00", "indoor": "yes", "note": "ON 12/24 AND 12/31, THIS BOX MAY BE COLLECTED AS EARLY AS 12 NOON.", "nsi_id": "unitedstatespostalservice-a77078", "operator": "United States Postal Service", "operator:short": "USPS", "operator:type": "public", "operator:wikidata": "Q668687", "ref": "2971400003"}, "type": "Feature"}
{"geometry": {"coordinates": [-80.884785059, 34.705208195], "type": "Point"}, "id": "FOaxC8P4BlBw1nDMiHhFmrJA764=", "properties": {"@source_uri": "https://tools.usps.com/UspsToolsRestServices/rest/POLocator/findLocations", "@spider": "usps_collection_boxes", "addr:city": "FORT LAWN", "addr:country": "US", "addr:postcode": "29714", "addr:state": "SC", "addr:street_address": "5915 LANCASTER HWY", "amenity": "post_box", "collection_times": "Mo-Fr 15:30; Sa 11:00", "indoor": "yes", "note": "ON 12/24 AND 12/31, THIS BOX MAY BE COLLECTED AS EARLY AS 12 NOON.", "nsi_id": "unitedstatespostalservice-a77078", "operator": "United States Postal Service", "operator:short": "USPS", "operator:type": "public", "operator:wikidata": "Q668687", "ref": "2971400004"}, "type": "Feature"}
{"geometry": {"coordinates": [-80.939413097, 35.007122477], "type": "Point"}, "id": "sTSWagiP-Ld4YQQShBzBify0o0U=", "properties": {"@source_uri": "https://tools.usps.com/UspsToolsRestServices/rest/POLocator/findLocations", "@spider": "usps_collection_boxes", "addr:city": "FORT MILL", "addr:country": "US", "addr:postcode": "29715", "addr:state": "SC", "addr:street_address": "201 TOM HALL ST", "amenity": "post_box", "collection_times": "Mo-Fr 17:00; Sa 14:00", "note": "ON 12/24 AND 12/31, THIS BOX MAY BE COLLECTED AS EARLY AS 12 NOON.", "nsi_id": "unitedstatespostalservice-a77078", "operator": "United States Postal Service", "operator:short": "USPS", "operator:type": "public", "operator:wikidata": "Q668687", "ref": "2971500003"}, "type": "Feature"}
{"geometry": {"coordinates": [-80.9397529629, 35.0078029907], "type": "Point"}, "id": "S-Y4I_s1Xb9wVO0yqJMHaKJZYIw=", "properties": {"@source_uri": "https://tools.usps.com/UspsToolsRestServices/rest/POLocator/findLocations", "@spider": "usps_collection_boxes", "addr:city": "FORT MILL", "addr:country": "US", "addr:postcode": "29715", "addr:state": "SC", "addr:street_address": "201 TOM HALL ST", "amenity": "post_box", "collection_times": "Mo-Fr 17:00; Sa 14:00", "note": "ON 12/24 AND 12/31, THIS BOX MAY BE COLLECTED AS EARLY AS 12 NOON.", "nsi_id": "unitedstatespostalservice-a77078", "operator": "United States Postal Service", "operator:short": "USPS", "operator:type": "public", "operator:wikidata": "Q668687", "ref": "2971500004"}, "type": "Feature"}
{"geometry": {"coordinates": [-80.962704, 35.024921], "type": "Point"}, "id": "Bb-knRJ5e3C8LXY2_pHvuEg72Cw=", "properties": {"@source_uri": "https://tools.usps.com/UspsToolsRestServices/rest/POLocator/findLocations", "@spider": "usps_collection_boxes", "addr:city": "FORT MILL", "addr:country": "US", "addr:postcode": "29715", "addr:state": "SC", "addr:street_address": "1329 HIGHWAY 160 W", "amenity": "post_box", "collection_times": "Mo-Fr 11:00; Sa 10:00", "nsi_id": "unitedstatespostalservice-a77078", "operator": "United States Postal Service", "operator:short": "USPS", "operator:type": "public", "operator:wikidata": "Q668687", "ref": "2971500006"}, "type": "Feature"}
{"geometry": {"coordinates": [-80.939413097, 35.007122477], "type": "Point"}, "id": "1GYKjeq8105NoNbXCXkCibs5J3E=", "properties": {"@source_uri": "https://tools.usps.com/UspsToolsRestServices/rest/POLocator/findLocations", "@spider": "usps_collection_boxes", "addr:city": "FORT MILL", "addr:country": "US", "addr:postcode": "29715", "addr:state": "SC", "addr:street_address": "201 TOM HALL ST", "amenity": "post_box", "collection_times": "Mo-Fr 17:00; Sa 14:00", "indoor": "yes", "note": "ON 12/24 AND 12/31, THIS BOX MAY BE COLLECTED AS EARLY AS 12 NOON.", "nsi_id": "unitedstatespostalservice-a77078", "operator": "United States Postal Service", "operator:short": "USPS", "operator:type": "public", "operator:wikidata": "Q668687", "ref": "2971500021"}, "type": "Feature"}
{"geometry": {"coordinates": [-80.939413097, 35.007122477], "type": "Point"}, "id": "xF84Q1EpYHNHhufpaVZLiJJ-Zxc=", "properties": {"@source_uri": "https://tools.usps.com/UspsToolsRestServices/rest/POLocator/findLocations", "@spider": "usps_collection_boxes", "addr:city": "FORT MILL", "addr:country": "US", "addr:postcode": "29715", "addr:state": "SC", "addr:street_address": "201 TOM HALL ST", "amenity": "post_box", "collection_times": "Mo-Fr 17:00; Sa 14:00", "indoor": "yes", "note": "ON 12/24 AND 12/31, THIS BOX MAY BE COLLECTED AS EARLY AS 12 NOON.", "nsi_id": "unitedstatespostalservice-a77078", "operator": "United States Postal Service", "operator:short": "USPS", "operator:type": "public", "operator:wikidata": "Q668687", "ref": "2971500022"}, "type": "Feature"}
{"geometry": {"coordinates": [-80.848001, 34.950639], "type": "Point"}, "id": "j4q7sI0BZP2MMZLjK_pEy4VZHdo=", "properties": {"@source_uri": "https://tools.usps.com/UspsToolsRestServices/rest/POLocator/findLocations", "@spider": "usps_collection_boxes", "addr:city": "FORT MILL", "addr:country": "US", "addr:postcode": "29715", "addr:state": "SC", "addr:street_address": "8175 CHARLOTTE HWY", "amenity": "post_box", "collection_times": "Mo-Sa 12:00", "nsi_id": "unitedstatespostalservice-a77078", "operator": "United States Postal Service", "operator:short": "USPS", "operator:type": "public", "operator:wikidata": "Q668687", "ref": "2971500023"}, "type": "Feature"}
{"geometry": {"coordinates": [-80.913724, 35.008298], "type": "Point"}, "id": "0qBI69Ke4ycyeubrlEEuN8T-lWg=", "properties": {"@source_uri": "https://tools.usps.com/UspsToolsRestServices/rest/POLocator/findLocations", "@spider": "usps_collection_boxes", "addr:city": "FORT MILL", "addr:country": "US", "addr:postcode": "29715", "addr:state": "SC", "addr:street_address": "1360 HIGHWAY 160 E", "amenity": "post_box", "collection_times": "Mo-Sa 12:00", "nsi_id": "unitedstatespostalservice-a77078", "operator": "United States Postal Service", "operator:short": "USPS", "operator:type": "public", "operator:wikidata": "Q668687", "ref": "2971500025"}, "type": "Feature"}
{"geometry": {"coordinates": [-80.844237991, 34.937656017], "type": "Point"}, "id": "Z-M8p_BR6F9ujpcoD6RkfpLppB0=", "properties": {"@source_uri": "https://tools.usps.com/UspsToolsRestServices/rest/POLocator/findLocations", "@spider": "usps_collection_boxes", "addr:city": "FORT MILL", "addr:country": "US", "addr:postcode": "29715", "addr:state": "SC", "addr:street_address": "5074 GRANDVIEW DR", "amenity": "post_box", "collection_times": "Mo-Sa 12:00", "nsi_id": "unitedstatespostalservice-a77078", "operator": "United States Postal Service", "operator:short": "USPS", "operator:type": "public", "operator:wikidata": "Q668687", "ref": "2971500028"}, "type": "Feature"}
{"geometry": {"coordinates": [-80.939413097, 35.007122477], "type": "Point"}, "id": "1oy6FUvefdWd6ussZaCnFKfr0TQ=", "properties": {"@source_uri": "https://tools.usps.com/UspsToolsRestServices/rest/POLocator/findLocations", "@spider": "usps_collection_boxes", "addr:city": "FORT MILL", "addr:country": "US", "addr:postcode": "29715", "addr:state": "SC", "addr:street_address": "201 TOM HALL ST", "amenity": "post_box", "collection_times": "Mo-Fr 17:00; Sa 14:00", "indoor": "yes", "note": "ON 12/24 AND 12/31, THIS BOX MAY BE COLLECTED AS EARLY AS 12 NOON.", "nsi_id": "unitedstatespostalservice-a77078", "operator": "United States Postal Service", "operator:short": "USPS", "operator:type": "public", "operator:wikidata": "Q668687", "ref": "2971500033"}, "type": "Feature"}
{"geometry": {"coordinates": [-80.9205922, 35.0698521], "type": "Point"}, "id": "3_lFkhyfelqNF82B_3EZcRte_LE=", "properties": {"@source_uri": "https://tools.usps.com/UspsToolsRestServices/rest/POLocator/findLocations", "@spider": "usps_collection_boxes", "addr:city": "FORT MILL", "addr:country": "US", "addr:postcode": "29715", "addr:state": "SC", "addr:street_address": "201 TOM HALL ST", "amenity": "post_box", "collection_times": "Mo-Fr 17:00; Sa 14:00", "name": "USPS COLLECTION BOX - APC", "note": "ON 12/24 AND 12/31, THIS BOX MAY BE COLLECTED AS EARLY AS 12 NOON.", "nsi_id": "unitedstatespostalservice-a77078", "operator": "United States Postal Service", "operator:short": "USPS", "operator:type": "public", "operator:wikidata": "Q668687", "ref": "2971500035"}, "type": "Feature"}
{"geometry": {"coordinates": [-81.416674065, 34.983765577], "type": "Point"}, "id": "bYnB9DcCjYiGnKS4SO9BfpukH7w=", "properties": {"@source_uri": "https://tools.usps.com/UspsToolsRestServices/rest/POLocator/findLocations", "@spider": "usps_collection_boxes", "addr:city": "HICKORY GROVE", "addr:country": "US", "addr:postcode": "29717", "addr:state": "SC", "addr:street_address": "6015 WYLIE AVE", "amenity": "post_box", "collection_times": "Mo-Fr 16:30; Sa 10:00", "note": "ON 12/24 AND 12/31, THIS BOX MAY BE COLLECTED AS EARLY AS 12 NOON.", "nsi_id": "unitedstatespostalservice-a77078", "operator": "United States Postal Service", "operator:short": "USPS", "operator:type": "public", "operator:wikidata": "Q668687", "ref": "2971700002"}, "type": "Feature"}
{"geometry": {"coordinates": [-81.416674065, 34.983765577], "type": "Point"}, "id": "D2TsB2chZoABpYSTB9ADn7dXkTo=", "properties": {"@source_uri": "https://tools.usps.com/UspsToolsRestServices/rest/POLocator/findLocations", "@spider": "usps_collection_boxes", "addr:city": "HICKORY GROVE", "addr:country": "US", "addr:postcode": "29717", "addr:state": "SC", "addr:street_address": "6015 WYLIE AVE", "amenity": "post_box", "collection_times": "Mo-Fr 16:30; Sa 10:00", "indoor": "yes", "note": "ON 12/24 AND 12/31, THIS BOX MAY BE COLLECTED AS EARLY AS 12 NOON.", "nsi_id": "unitedstatespostalservice-a77078", "operator": "United States Postal Service", "operator:short": "USPS", "operator:type": "public", "operator:wikidata": "Q668687", "ref": "2971700003"}, "type": "Feature"}
{"geometry": {"coordinates": [-81.4132389, 34.979315], "type": "Point"}, "id": "qizpXh0FT7yXIeFeBEfpSrmcXC0=", "properties": {"@source_uri": "https://tools.usps.com/UspsToolsRestServices/rest/POLocator/findLocations", "@spider": "usps_collection_boxes", "addr:city": "HICKORY GROVE", "addr:country": "US", "addr:postcode": "29717", "addr:state": "SC", "addr:street_address": "4060 PEACHTREE ST", "amenity": "post_box", "collection_times": "Mo-Fr 10:30", "nsi_id": "unitedstatespostalservice-a77078", "operator": "United States Postal Service", "operator:short": "USPS", "operator:type": "public", "operator:wikidata": "Q668687", "ref": "2971700004"}, "type": "Feature"}
{"geometry": {"coordinates": [-81.416674065, 34.983765577], "type": "Point"}, "id": "Kqzzp5xWuK2YUnwdGTUDZjC268U=", "properties": {"@source_uri": "https://tools.usps.com/UspsToolsRestServices/rest/POLocator/findLocations", "@spider": "usps_collection_boxes", "addr:city": "HICKORY GROVE", "addr:country": "US", "addr:postcode": "29717", "addr:state": "SC", "addr:street_address": "6015 WYLIE AVE", "amenity": "post_box", "collection_times": "Mo-Fr 16:30; Sa 10:00", "indoor": "yes", "note": "ON 12/24 AND 12/31, THIS BOX MAY BE COLLECTED AS EARLY AS 12 NOON.", "nsi_id": "unitedstatespostalservice-a77078", "operator": "United States Postal Service", "operator:short": "USPS", "operator:type": "public", "operator:wikidata": "Q668687", "ref": "2971700006"}, "type": "Feature"}
{"geometry": {"coordinates": [-80.388547665, 34.652750029], "type": "Point"}, "id": "C-AvNh2tX7RqwWk5Tlt1fmCQgd8=", "properties": {"@source_uri": "https://tools.usps.com/UspsToolsRestServices/rest/POLocator/findLocations", "@spider": "usps_collection_boxes", "addr:city": "JEFFERSON", "addr:country": "US", "addr:postcode": "29718", "addr:state": "SC", "addr:street_address": "108 S MAIN ST", "amenity": "post_box", "collection_times": "Mo-Fr 16:30; Sa 09:45", "note": "ON 12/24 AND 12/31, THIS BOX MAY BE COLLECTED AS EARLY AS 12 NOON.", "nsi_id": "unitedstatespostalservice-a77078", "operator": "United States Postal Service", "operator:short": "USPS", "operator:type": "public", "operator:wikidata": "Q668687", "ref": "2971800003"}, "type": "Feature"}
{"geometry": {"coordinates": [-80.388547665, 34.652750029], "type": "Point"}, "id": "QEh5yy8p1c8-WKQzu5TbGnV-lNc=", "properties": {"@source_uri": "https://tools.usps.com/UspsToolsRestServices/rest/POLocator/findLocations", "@spider": "usps_collection_boxes", "addr:city": "JEFFERSON", "addr:country": "US", "addr:postcode": "29718", "addr:state": "SC", "addr:street_address": "108 S MAIN ST", "amenity": "post_box", "collection_times": "Mo-Fr 16:30; Sa 09:45", "indoor": "yes", "note": "ON 12/24 AND 12/31, THIS BOX MAY BE COLLECTED AS EARLY AS 12 NOON.", "nsi_id": "unitedstatespostalservice-a77078", "operator": "United States Postal Service", "operator:short": "USPS", "operator:type": "public", "operator:wikidata": "Q668687", "ref": "2971800004"}, "type": "Feature"}
{"geometry": {"coordinates": [-80.388547665, 34.652750029], "type": "Point"}, "id": "IkDj1nl_IicGJSTnhVpi2-p2L_c=", "properties": {"@source_uri": "https://tools.usps.com/UspsToolsRestServices/rest/POLocator/findLocations", "@spider": "usps_collection_boxes", "addr:city": "JEFFERSON", "addr:country": "US", "addr:postcode": "29718", "addr:state": "SC", "addr:street_address": "108 S MAIN ST", "amenity": "post_box", "collection_times": "Mo-Fr 16:30; Sa 09:45", "indoor": "yes", "note": "ON 12/24 AND 12/31, THIS BOX MAY BE COLLECTED AS EARLY AS 12 NOON.", "nsi_id": "unitedstatespostalservice-a77078", "operator": "United States Postal Service", "operator:short": "USPS", "operator:type": "public", "operator:wikidata": "Q668687", "ref": "2971800005"}, "type": "Feature"}
{"geometry": {"coordinates": [-80.388547665, 34.652750029], "type": "Point"}, "id": "BejJrDfZnA5WhKv4betlc6l3SAI=", "properties": {"@source_uri": "https://tools.usps.com/UspsToolsRestServices/rest/POLocator/findLocations", "@spider": "usps_collection_boxes", "addr:city": "JEFFERSON", "addr:country": "US", "addr:postcode": "29718", "addr:state": "SC", "addr:street_address": "108 S MAIN ST", "amenity": "post_box", "collection_times": "Mo-Fr 16:30; Sa 09:45", "indoor": "yes", "note": "ON 12/24 AND 12/31, THIS BOX MAY BE COLLECTED AS EARLY AS 12 NOON.", "nsi_id": "unitedstatespostalservice-a77078", "operator": "United States Postal Service", "operator:short": "USPS", "operator:type": "public", "operator:wikidata": "Q668687", "ref": "2971800006"}, "type": "Feature"}
{"geometry": {"coordinates": [-80.773506487, 34.72527166], "type": "Point"}, "id": "sYzxkaGl7D38SETi_UfsR_FFY3Q=", "properties": {"@source_uri": "https://tools.usps.com/UspsToolsRestServices/rest/POLocator/findLocations", "@spider": "usps_collection_boxes", "addr:city": "LANCASTER", "addr:country": "US", "addr:postcode": "29720", "addr:state": "SC", "addr:street_address": "501 N MAIN ST", "amenity": "post_box", "collection_times": "Mo-Fr 17:00; Sa 13:00", "note": "ON 12/24 AND 12/31, THIS BOX MAY BE COLLECTED AS EARLY AS 12 NOON.", "nsi_id": "unitedstatespostalservice-a77078", "operator": "United States Postal Service", "operator:short": "USPS", "operator:type": "public", "operator:wikidata": "Q668687", "ref": "2972000003"}, "type": "Feature"}
{"geometry": {"coordinates": [-80.773506487, 34.72527166], "type": "Point"}, "id": "WNjT3EoDjnuRe4d69z8yF6F9rC0=", "properties": {"@source_uri": "https://tools.usps.com/UspsToolsRestServices/rest/POLocator/findLocations", "@spider": "usps_collection_boxes", "addr:city": "LANCASTER", "addr:country": "US", "addr:postcode": "29720", "addr:state": "SC", "addr:street_address": "501 N MAIN ST", "amenity": "post_box", "collection_times": "Mo-Fr 17:00; Sa 13:00", "note": "ON 12/24 AND 12/31, THIS BOX MAY BE COLLECTED AS EARLY AS 12 NOON.", "nsi_id": "unitedstatespostalservice-a77078", "operator": "United States Postal Service", "operator:short": "USPS", "operator:type": "public", "operator:wikidata": "Q668687", "ref": "2972000004"}, "type": "Feature"}
{"geometry": {"coordinates": [-80.773506487, 34.72527166], "type": "Point"}, "id": "qsNDZ4k01Lrq72zMHCRiFvPxu1M=", "properties": {"@source_uri": "https://tools.usps.com/UspsToolsRestServices/rest/POLocator/findLocations", "@spider": "usps_collection_boxes", "addr:city": "LANCASTER", "addr:country": "US", "addr:postcode": "29720", "addr:state": "SC", "addr:street_address": "501 N MAIN ST", "amenity": "post_box", "collection_times": "Mo-Fr 17:00; Sa 13:00", "note": "ON 12/24 AND 12/31, THIS BOX MAY BE COLLECTED AS EARLY AS 12 NOON.", "nsi_id": "unitedstatespostalservice-a77078", "operator": "United States Postal Service", "operator:short": "USPS", "operator:type": "public", "operator:wikidata": "Q668687", "ref": "2972000005"}, "type": "Feature"}
{"geometry": {"coordinates": [-80.7875239, 34.717156], "type": "Point"}, "id": "pO3bHMFdEo2bg0QafyZkGRmwKbU=", "properties": {"@source_uri": "https://tools.usps.com/UspsToolsRestServices/rest/POLocator/findLocations", "@spider": "usps_collection_boxes", "addr:city": "LANCASTER", "addr:country": "US", "addr:postcode": "29720", "addr:state": "SC", "addr:street_address": "800 W MEETING ST", "amenity": "post_box", "collection_times": "Mo-Fr 09:00", "nsi_id": "unitedstatespostalservice-a77078", "operator": "United States Postal Service", "operator:short": "USPS", "operator:type": "public", "operator:wikidata": "Q668687", "ref": "2972000011"}, "type": "Feature"}
{"geometry": {"coordinates": [-80.7752224, 34.731285], "type": "Point"}, "id": "K5o4Z98jMEcvFK7fM7p3HM7DvBY=", "properties": {"@source_uri": "https://tools.usps.com/UspsToolsRestServices/rest/POLocator/findLocations", "@spider": "usps_collection_boxes", "addr:city": "LANCASTER", "addr:country": "US", "addr:postcode": "29720", "addr:state": "SC", "addr:street_address": "929 N MAIN ST", "amenity": "post_box", "collection_times": "Mo-Fr 09:00", "nsi_id": "unitedstatespostalservice-a77078", "operator": "United States Postal Service", "operator:short": "USPS", "operator:type": "public", "operator:wikidata": "Q668687", "ref": "2972000014"}, "type": "Feature"}
{"geometry": {"coordinates": [-80.7955949, 34.71562], "type": "Point"}, "id": "YzQVf85ousHKcbXiNxxEGbv9KXE=", "properties": {"@source_uri": "https://tools.usps.com/UspsToolsRestServices/rest/POLocator/findLocations", "@spider": "usps_collection_boxes", "addr:city": "LANCASTER", "addr:country": "US", "addr:postcode": "29720", "addr:state": "SC", "addr:street_address": "1020 W MEETING ST", "amenity": "post_box", "collection_times": "Mo-Fr 09:00", "nsi_id": "unitedstatespostalservice-a77078", "operator": "United States Postal Service", "operator:short": "USPS", "operator:type": "public", "operator:wikidata": "Q668687", "ref": "2972000017"}, "type": "Feature"}
{"geometry": {"coordinates": [-80.773506487, 34.72527166], "type": "Point"}, "id": "bY4P3rOJg1rEPg5PUS2kSORxMH0=", "properties": {"@source_uri": "https://tools.usps.com/UspsToolsRestServices/rest/POLocator/findLocations", "@spider": "usps_collection_boxes", "addr:city": "LANCASTER", "addr:country": "US", "addr:postcode": "29720", "addr:state": "SC", "addr:street_address": "501 N MAIN ST", "amenity": "post_box", "collection_times": "Mo-Fr 17:00; Sa 13:00", "indoor": "yes", "note": "ON 12/24 AND 12/31, THIS BOX MAY BE COLLECTED AS EARLY AS 12 NOON.", "nsi_id": "unitedstatespostalservice-a77078", "operator": "United States Postal Service", "operator:short": "USPS", "operator:type": "public", "operator:wikidata": "Q668687", "ref": "2972000021"}, "type": "Feature"}
{"geometry": {"coordinates": [-80.773506487, 34.72527166], "type": "Point"}, "id": "GMtx7IQQyXSmsF9GHDQfyr1Yzfs=", "properties": {"@source_uri": "https://tools.usps.com/UspsToolsRestServices/rest/POLocator/findLocations", "@spider": "usps_collection_boxes", "addr:city": "LANCASTER", "addr:country": "US", "addr:postcode": "29720", "addr:state": "SC", "addr:street_address": "501 N MAIN ST", "amenity": "post_box", "collection_times": "Mo-Fr 17:00; Sa 13:00", "indoor": "yes", "note": "ON 12/24 AND 12/31, THIS BOX MAY BE COLLECTED AS EARLY AS 12 NOON.", "nsi_id": "unitedstatespostalservice-a77078", "operator": "United States Postal Service", "operator:short": "USPS", "operator:type": "public", "operator:wikidata": "Q668687", "ref": "2972000022"}, "type": "Feature"}
{"geometry": {"coordinates": [-80.7872117904, 34.6917110574], "type": "Point"}, "id": "gvVCDUO6Ve5YvY3ek-DAz8i1qZc=", "properties": {"@source_uri": "https://tools.usps.com/UspsToolsRestServices/rest/POLocator/findLocations", "@spider": "usps_collection_boxes", "addr:city": "LANCASTER", "addr:country": "US", "addr:postcode": "29720", "addr:state": "SC", "addr:street_address": "1714 AIRPORT RD", "amenity": "post_box", "collection_times": "Mo-Sa 09:00", "nsi_id": "unitedstatespostalservice-a77078", "operator": "United States Postal Service", "operator:short": "USPS", "operator:type": "public", "operator:wikidata": "Q668687", "ref": "2972000024"}, "type": "Feature"}
{"geometry": {"coordinates": [-80.773506487, 34.72527166], "type": "Point"}, "id": "wmZR0M8xMSqt_HXv6rXS4HbA_dk=", "properties": {"@source_uri": "https://tools.usps.com/UspsToolsRestServices/rest/POLocator/findLocations", "@spider": "usps_collection_boxes", "addr:city": "LANCASTER", "addr:country": "US", "addr:postcode": "29720", "addr:state": "SC", "addr:street_address": "501 N MAIN ST", "amenity": "post_box", "collection_times": "Mo-Fr 17:00; Sa 13:00", "indoor": "yes", "note": "ON 12/24 AND 12/31, THIS BOX MAY BE COLLECTED AS EARLY AS 12 NOON.", "nsi_id": "unitedstatespostalservice-a77078", "operator": "United States Postal Service", "operator:short": "USPS", "operator:type": "public", "operator:wikidata": "Q668687", "ref": "2972000030"}, "type": "Feature"}
{"geometry": {"coordinates": [-80.8453878516, 34.89622838], "type": "Point"}, "id": "m1ne1olcgKLHPZimFd_EtxfpvxA=", "properties": {"@source_uri": "https://tools.usps.com/UspsToolsRestServices/rest/POLocator/findLocations", "@spider": "usps_collection_boxes", "addr:city": "LANCASTER", "addr:country": "US", "addr:postcode": "29720", "addr:state": "SC", "addr:street_address": "2226 ACADIA FALLS LN", "amenity": "post_box", "collection_times": "Mo-Fr 09:00", "nsi_id": "unitedstatespostalservice-a77078", "operator": "United States Postal Service", "operator:short": "USPS", "operator:type": "public", "operator:wikidata": "Q668687", "ref": "2972000031"}, "type": "Feature"}
{"geometry": {"coordinates": [-81.226852747, 34.869243247], "type": "Point"}, "id": "mPS0CwRqTT-QIcA0JqLqva50DOk=", "properties": {"@source_uri": "https://tools.usps.com/UspsToolsRestServices/rest/POLocator/findLocations", "@spider": "usps_collection_boxes", "addr:city": "MC CONNELLS", "addr:country": "US", "addr:postcode": "29726", "addr:state": "SC", "addr:street_address": "4182 CHESTER HWY", "amenity": "post_box", "collection_times": "Mo-Fr 16:15; Sa 10:00", "note": "ON 12/24 AND 12/31, THIS BOX MAY BE COLLECTED AS EARLY AS 12 NOON.", "nsi_id": "unitedstatespostalservice-a77078", "operator": "United States Postal Service", "operator:short": "USPS", "operator:type": "public", "operator:wikidata": "Q668687", "ref": "2972600001"}, "type": "Feature"}
{"geometry": {"coordinates": [-81.226852747, 34.869243247], "type": "Point"}, "id": "P6z-xRw9B7KWsY--Mnru3j8QO1I=", "properties": {"@source_uri": "https://tools.usps.com/UspsToolsRestServices/rest/POLocator/findLocations", "@spider": "usps_collection_boxes", "addr:city": "MC CONNELLS", "addr:country": "US", "addr:postcode": "29726", "addr:state": "SC", "addr:street_address": "4182 CHESTER HWY", "amenity": "post_box", "collection_times": "Mo-Fr 16:15; Sa 10:00", "indoor": "yes", "note": "ON 12/24 AND 12/31, THIS BOX MAY BE COLLECTED AS EARLY AS 12 NOON.", "nsi_id": "unitedstatespostalservice-a77078", "operator": "United States Postal Service", "operator:short": "USPS", "operator:type": "public", "operator:wikidata": "Q668687", "ref": "2972600002"}, "type": "Feature"}
{"geometry": {"coordinates": [-81.226852747, 34.869243247], "type": "Point"}, "id": "1VWYz7Syiu2SWFbyeHGw9oZnfYw=", "properties": {"@source_uri": "https://tools.usps.com/UspsToolsRestServices/rest/POLocator/findLocations", "@spider": "usps_collection_boxes", "addr:city": "MC CONNELLS", "addr:country": "US", "addr:postcode": "29726", "addr:state": "SC", "addr:street_address": "4182 CHESTER HWY", "amenity": "post_box", "collection_times": "Mo-Fr 16:15; Sa 10:00", "indoor": "yes", "note": "ON 12/24 AND 12/31, THIS BOX MAY BE COLLECTED AS EARLY AS 12 NOON.", "nsi_id": "unitedstatespostalservice-a77078", "operator": "United States Postal Service", "operator:short": "USPS", "operator:type": "public", "operator:wikidata": "Q668687", "ref": "2972600003"}, "type": "Feature"}
{"geometry": {"coordinates": [-80.2267219, 34.769341444], "type": "Point"}, "id": "AeLVVcEXQDtdYMJ9J3wAW2DIeUs=", "properties": {"@source_uri": "https://tools.usps.com/UspsToolsRestServices/rest/POLocator/findLocations", "@spider": "usps_collection_boxes", "addr:city": "MOUNT CROGHAN", "addr:country": "US", "addr:postcode": "29727", "addr:state": "SC", "addr:street_address": "6 CAMDEN RD", "amenity": "post_box", "collection_times": "Mo-Fr 16:30; Sa 10:00", "note": "ON 12/24 AND 12/31, THIS BOX MAY BE COLLECTED AS EARLY AS 12 NOON.", "nsi_id": "unitedstatespostalservice-a77078", "operator": "United States Postal Service", "operator:short": "USPS", "operator:type": "public", "operator:wikidata": "Q668687", "ref": "2972700003"}, "type": "Feature"}
{"geometry": {"coordinates": [-80.2267219, 34.769341444], "type": "Point"}, "id": "QjjU7FUOCHlsluI7cJAPGWXK-Xo=", "properties": {"@source_uri": "https://tools.usps.com/UspsToolsRestServices/rest/POLocator/findLocations", "@spider": "usps_collection_boxes", "addr:city": "MOUNT CROGHAN", "addr:country": "US", "addr:postcode": "29727", "addr:state": "SC", "addr:street_address": "6 CAMDEN RD", "amenity": "post_box", "collection_times": "Mo-Fr 16:30; Sa 10:00", "indoor": "yes", "note": "ON 12/24 AND 12/31, THIS BOX MAY BE COLLECTED AS EARLY AS 12 NOON.", "nsi_id": "unitedstatespostalservice-a77078", "operator": "United States Postal Service", "operator:short": "USPS", "operator:type": "public", "operator:wikidata": "Q668687", "ref": "2972700004"}, "type": "Feature"}
{"geometry": {"coordinates": [-80.2267219, 34.769341444], "type": "Point"}, "id": "0vFu0t-9hwn7V6rDFGjlA7HTGDc=", "properties": {"@source_uri": "https://tools.usps.com/UspsToolsRestServices/rest/POLocator/findLocations", "@spider": "usps_collection_boxes", "addr:city": "MOUNT CROGHAN", "addr:country": "US", "addr:postcode": "29727", "addr:state": "SC", "addr:street_address": "6 CAMDEN RD", "amenity": "post_box", "collection_times": "Mo-Fr 16:30; Sa 10:00", "indoor": "yes", "note": "ON 12/24 AND 12/31, THIS BOX MAY BE COLLECTED AS EARLY AS 12 NOON.", "nsi_id": "unitedstatespostalservice-a77078", "operator": "United States Postal Service", "operator:short": "USPS", "operator:type": "public", "operator:wikidata": "Q668687", "ref": "2972700005"}, "type": "Feature"}
{"geometry": {"coordinates": [-80.2267219, 34.769341444], "type": "Point"}, "id": "tQ0NFm8UI-9F8croz7i7AXDhfhQ=", "properties": {"@source_uri": "https://tools.usps.com/UspsToolsRestServices/rest/POLocator/findLocations", "@spider": "usps_collection_boxes", "addr:city": "MOUNT CROGHAN", "addr:country": "US", "addr:postcode": "29727", "addr:state": "SC", "addr:street_address": "6 CAMDEN RD", "amenity": "post_box", "collection_times": "Mo-Fr 16:30; Sa 10:00", "indoor": "yes", "note": "ON 12/24 AND 12/31, THIS BOX MAY BE COLLECTED AS EARLY AS 12 NOON.", "nsi_id": "unitedstatespostalservice-a77078", "operator": "United States Postal Service", "operator:short": "USPS", "operator:type": "public", "operator:wikidata": "Q668687", "ref": "2972700006"}, "type": "Feature"}
{"geometry": {"coordinates": [-80.392002763, 34.773407298], "type": "Point"}, "id": "o8KrHXN8Rilhee5srXuTgBIOe8o=", "properties": {"@source_uri": "https://tools.usps.com/UspsToolsRestServices/rest/POLocator/findLocations", "@spider": "usps_collection_boxes", "addr:city": "PAGELAND", "addr:country": "US", "addr:postcode": "29728", "addr:state": "SC", "addr:street_address": "207 N PEARL ST", "amenity": "post_box", "collection_times": "Mo-Fr 16:45; Sa 12:00", "note": "ON 12/24 AND 12/31, THIS BOX MAY BE COLLECTED AS EARLY AS 12 NOON.", "nsi_id": "unitedstatespostalservice-a77078", "operator": "United States Postal Service", "operator:short": "USPS", "operator:type": "public", "operator:wikidata": "Q668687", "ref": "2972800003"}, "type": "Feature"}
{"geometry": {"coordinates": [-80.392002763, 34.773407298], "type": "Point"}, "id": "dEsjoEJntvbk33BxG8LOocqFMo4=", "properties": {"@source_uri": "https://tools.usps.com/UspsToolsRestServices/rest/POLocator/findLocations", "@spider": "usps_collection_boxes", "addr:city": "PAGELAND", "addr:country": "US", "addr:postcode": "29728", "addr:state": "SC", "addr:street_address": "207 N PEARL ST", "amenity": "post_box", "collection_times": "Mo-Fr 16:45; Sa 12:00", "indoor": "yes", "note": "ON 12/24 AND 12/31, THIS BOX MAY BE COLLECTED AS EARLY AS 12 NOON.", "nsi_id": "unitedstatespostalservice-a77078", "operator": "United States Postal Service", "operator:short": "USPS", "operator:type": "public", "operator:wikidata": "Q668687", "ref": "2972800004"}, "type": "Feature"}
{"geometry": {"coordinates": [-80.3919982626, 34.7734072981], "type": "Point"}, "id": "vzijrEocIrn0Um3FY0LJOZjtRqk=", "properties": {"@source_uri": "https://tools.usps.com/UspsToolsRestServices/rest/POLocator/findLocations", "@spider": "usps_collection_boxes", "addr:city": "PAGELAND", "addr:country": "US", "addr:postcode": "29728", "addr:state": "SC", "addr:street_address": "207 N PEARL ST", "amenity": "post_box", "collection_times": "Mo-Fr 16:45; Sa 12:00", "indoor": "yes", "note": "ON 12/24 AND 12/31, THIS BOX MAY BE COLLECTED AS EARLY AS 12 NOON.", "nsi_id": "unitedstatespostalservice-a77078", "operator": "United States Postal Service", "operator:short": "USPS", "operator:type": "public", "operator:wikidata": "Q668687", "ref": "2972800005"}, "type": "Feature"}
{"geometry": {"coordinates": [-80.392002763, 34.773407298], "type": "Point"}, "id": "o3WlADen9vr0j8U_TTt690MgB3k=", "properties": {"@source_uri": "https://tools.usps.com/UspsToolsRestServices/rest/POLocator/findLocations", "@spider": "usps_collection_boxes", "addr:city": "PAGELAND", "addr:country": "US", "addr:postcode": "29728", "addr:state": "SC", "addr:street_address": "207 N PEARL ST", "amenity": "post_box", "collection_times": "Mo-Fr 16:45; Sa 12:00", "indoor": "yes", "note": "ON 12/24 AND 12/31, THIS BOX MAY BE COLLECTED AS EARLY AS 12 NOON.", "nsi_id": "unitedstatespostalservice-a77078", "operator": "United States Postal Service", "operator:short": "USPS", "operator:type": "public", "operator:wikidata": "Q668687", "ref": "2972800008"}, "type": "Feature"}
{"geometry": {"coordinates": [-81.017829953, 34.716417947], "type": "Point"}, "id": "eFddYSWNHZUi_ALWoXRqsNhDaMs=", "properties": {"@source_uri": "https://tools.usps.com/UspsToolsRestServices/rest/POLocator/findLocations", "@spider": "usps_collection_boxes", "addr:city": "RICHBURG", "addr:country": "US", "addr:postcode": "29729", "addr:state": "SC", "addr:street_address": "109 BROAD ST", "amenity": "post_box", "collection_times": "Mo-Fr 15:45; Sa 10:45", "note": "ON 12/24 AND 12/31, THIS BOX MAY BE COLLECTED AS EARLY AS 12 NOON.", "nsi_id": "unitedstatespostalservice-a77078", "operator": "United States Postal Service", "operator:short": "USPS", "operator:type": "public", "operator:wikidata": "Q668687", "ref": "2972900002"}, "type": "Feature"}
{"geometry": {"coordinates": [-81.017829953, 34.716417947], "type": "Point"}, "id": "mMyD2jEhR-sUxG93sP6Y_utBfMw=", "properties": {"@source_uri": "https://tools.usps.com/UspsToolsRestServices/rest/POLocator/findLocations", "@spider": "usps_collection_boxes", "addr:city": "RICHBURG", "addr:country": "US", "addr:postcode": "29729", "addr:state": "SC", "addr:street_address": "109 BROAD ST", "amenity": "post_box", "collection_times": "Mo-Fr 15:45; Sa 10:45", "indoor": "yes", "note": "ON 12/24 AND 12/31, THIS BOX MAY BE COLLECTED AS EARLY AS 12 NOON.", "nsi_id": "unitedstatespostalservice-a77078", "operator": "United States Postal Service", "operator:short": "USPS", "operator:type": "public", "operator:wikidata": "Q668687", "ref": "2972900003"}, "type": "Feature"}
{"geometry": {"coordinates": [-81.017829953, 34.716417947], "type": "Point"}, "id": "hIgOeWh9UNJv5QAi6XS1HWfcOH8=", "properties": {"@source_uri": "https://tools.usps.com/UspsToolsRestServices/rest/POLocator/findLocations", "@spider": "usps_collection_boxes", "addr:city": "RICHBURG", "addr:country": "US", "addr:postcode": "29729", "addr:state": "SC", "addr:street_address": "109 BROAD ST", "amenity": "post_box", "collection_times": "Mo-Fr 15:45; Sa 10:45", "indoor": "yes", "note": "ON 12/24 AND 12/31, THIS BOX MAY BE COLLECTED AS EARLY AS 12 NOON.", "nsi_id": "unitedstatespostalservice-a77078", "operator": "United States Postal Service", "operator:short": "USPS", "operator:type": "public", "operator:wikidata": "Q668687", "ref": "2972900004"}, "type": "Feature"}
{"geometry": {"coordinates": [-81.017829953, 34.716417947], "type": "Point"}, "id": "VuiOdXrHJHFWlLqDhKfCuSEiHPA=", "properties": {"@source_uri": "https://tools.usps.com/UspsToolsRestServices/rest/POLocator/findLocations", "@spider": "usps_collection_boxes", "addr:city": "RICHBURG", "addr:country": "US", "addr:postcode": "29729", "addr:state": "SC", "addr:street_address": "109 BROAD ST", "amenity": "post_box", "collection_times": "Mo-Fr 15:45; Sa 10:45", "indoor": "yes", "note": "ON 12/24 AND 12/31, THIS BOX MAY BE COLLECTED AS EARLY AS 12 NOON.", "nsi_id": "unitedstatespostalservice-a77078", "operator": "United States Postal Service", "operator:short": "USPS", "operator:type": "public", "operator:wikidata": "Q668687", "ref": "2972900005"}, "type": "Feature"}
{"geometry": {"coordinates": [-80.9648281, 34.941847], "type": "Point"}, "id": "qcrXhxstwQyLdOszMmQ3Pit5u-w=", "properties": {"@source_uri": "https://tools.usps.com/UspsToolsRestServices/rest/POLocator/findLocations", "@spider": "usps_collection_boxes", "addr:city": "ROCK HILL", "addr:country": "US", "addr:postcode": "29730", "addr:state": "SC", "addr:street_address": "2251 DAVE LYLE BLVD", "amenity": "post_box", "collection_times": "Mo-Fr 13:00", "note": "ON 12/24 AND 12/31, THIS BOX MAY BE COLLECTED AS EARLY AS 12 NOON.", "nsi_id": "unitedstatespostalservice-a77078", "operator": "United States Postal Service", "operator:short": "USPS", "operator:type": "public", "operator:wikidata": "Q668687", "ref": "2973000002"}, "type": "Feature"}
{"geometry": {"coordinates": [-81.03227967, 34.926935603], "type": "Point"}, "id": "66KqffGFajZv-q67Uft2eWGj_8A=", "properties": {"@source_uri": "https://tools.usps.com/UspsToolsRestServices/rest/POLocator/findLocations", "@spider": "usps_collection_boxes", "addr:city": "ROCK HILL", "addr:country": "US", "addr:postcode": "29730", "addr:state": "SC", "addr:street_address": "206 S WILSON ST", "amenity": "post_box", "collection_times": "Mo-Fr 17:00; Sa 15:00", "note": "ON 12/24 AND 12/31, THIS BOX MAY BE COLLECTED AS EARLY AS 12 NOON.", "nsi_id": "unitedstatespostalservice-a77078", "operator": "United States Postal Service", "operator:short": "USPS", "operator:type": "public", "operator:wikidata": "Q668687", "ref": "2973000008"}, "type": "Feature"}
{"geometry": {"coordinates": [-81.0328049963, 34.9273769953], "type": "Point"}, "id": "SA9c5DSnELkmDx3ZIxOTXZ-hWhE=", "properties": {"@source_uri": "https://tools.usps.com/UspsToolsRestServices/rest/POLocator/findLocations", "@spider": "usps_collection_boxes", "addr:city": "ROCK HILL", "addr:country": "US", "addr:postcode": "29730", "addr:state": "SC", "addr:street_address": "206 S WILSON ST", "amenity": "post_box", "collection_times": "Mo-Fr 17:00; Sa 15:00", "note": "ON 12/24 AND 12/31, THIS BOX MAY BE COLLECTED AS EARLY AS 12 NOON.", "nsi_id": "unitedstatespostalservice-a77078", "operator": "United States Postal Service", "operator:short": "USPS", "operator:type": "public", "operator:wikidata": "Q668687", "ref": "2973000009"}, "type": "Feature"}
{"geometry": {"coordinates": [-80.9944905, 34.95539], "type": "Point"}, "id": "TYv8wt3kLPWCmWDqD6AJ2A-GYXE=", "properties": {"@source_uri": "https://tools.usps.com/UspsToolsRestServices/rest/POLocator/findLocations", "@spider": "usps_collection_boxes", "addr:city": "ROCK HILL", "addr:country": "US", "addr:postcode": "29730", "addr:state": "SC", "addr:street_address": "500 HUEY RD", "amenity": "post_box", "collection_times": "Mo-Fr 13:00", "note": "ON 12/24 AND 12/31, THIS BOX MAY BE COLLECTED AS EARLY AS 12 NOON.", "nsi_id": "unitedstatespostalservice-a77078", "operator": "United States Postal Service", "operator:short": "USPS", "operator:type": "public", "operator:wikidata": "Q668687", "ref": "2973000023"}, "type": "Feature"}
{"geometry": {"coordinates": [-80.9974526, 34.932596], "type": "Point"}, "id": "IRx69ck449OeBme9zufoXwjH2y0=", "properties": {"@source_uri": "https://tools.usps.com/UspsToolsRestServices/rest/POLocator/findLocations", "@spider": "usps_collection_boxes", "addr:city": "ROCK HILL", "addr:country": "US", "addr:postcode": "29730", "addr:state": "SC", "addr:street_address": "452 LAKESHORE PKWY", "amenity": "post_box", "collection_times": "Mo-Fr 13:00", "note": "ON 12/24 AND 12/31, THIS BOX MAY BE COLLECTED AS EARLY AS 12 NOON.", "nsi_id": "unitedstatespostalservice-a77078", "operator": "United States Postal Service", "operator:short": "USPS", "operator:type": "public", "operator:wikidata": "Q668687", "ref": "2973000024"}, "type": "Feature"}
{"geometry": {"coordinates": [-80.9969082, 34.934994], "type": "Point"}, "id": "cXzCDdON-cU2TCcast3O5Y6pUuY=", "properties": {"@source_uri": "https://tools.usps.com/UspsToolsRestServices/rest/POLocator/findLocations", "@spider": "usps_collection_boxes", "addr:city": "ROCK HILL", "addr:country": "US", "addr:postcode": "29730", "addr:state": "SC", "addr:street_address": "454 ANDERSON RD S", "amenity": "post_box", "collection_times": "Mo-Fr 13:00", "note": "ON 12/24 AND 12/31, THIS BOX MAY BE COLLECTED AS EARLY AS 12 NOON.", "nsi_id": "unitedstatespostalservice-a77078", "operator": "United States Postal Service", "operator:short": "USPS", "operator:type": "public", "operator:wikidata": "Q668687", "ref": "2973000025"}, "type": "Feature"}
{"geometry": {"coordinates": [-81.0252618, 34.931507], "type": "Point"}, "id": "LWDGNyQpXEUE2HikMeG63s3bD3g=", "properties": {"@source_uri": "https://tools.usps.com/UspsToolsRestServices/rest/POLocator/findLocations", "@spider": "usps_collection_boxes", "addr:city": "ROCK HILL", "addr:country": "US", "addr:postcode": "29730", "addr:state": "SC", "addr:street_address": "201 OAKLAND AVE", "amenity": "post_box", "collection_times": "Mo-Fr 13:00", "note": "ON 12/24 AND 12/31, THIS BOX MAY BE COLLECTED AS EARLY AS 12 NOON.", "nsi_id": "unitedstatespostalservice-a77078", "operator": "United States Postal Service", "operator:short": "USPS", "operator:type": "public", "operator:wikidata": "Q668687", "ref": "2973000044"}, "type": "Feature"}
{"geometry": {"coordinates": [-81.0259568, 34.925018], "type": "Point"}, "id": "1-53R4vQ_Can5SBZZ42AOCSspuk=", "properties": {"@source_uri": "https://tools.usps.com/UspsToolsRestServices/rest/POLocator/findLocations", "@spider": "usps_collection_boxes", "addr:city": "ROCK HILL", "addr:country": "US", "addr:postcode": "29730", "addr:state": "SC", "addr:street_address": "215 E MAIN ST", "amenity": "post_box", "collection_times": "Mo-Fr 13:00", "note": "ON 12/24 AND 12/31, THIS BOX MAY BE COLLECTED AS EARLY AS 12 NOON.", "nsi_id": "unitedstatespostalservice-a77078", "operator": "United States Postal Service", "operator:short": "USPS", "operator:type": "public", "operator:wikidata": "Q668687", "ref": "2973000061"}, "type": "Feature"}
{"geometry": {"coordinates": [-80.9949909, 34.969914], "type": "Point"}, "id": "SvtM7H0A02gfGfNTJ7nzHxK7pWA=", "properties": {"@source_uri": "https://tools.usps.com/UspsToolsRestServices/rest/POLocator/findLocations", "@spider": "usps_collection_boxes", "addr:city": "ROCK HILL", "addr:country": "US", "addr:postcode": "29730", "addr:state": "SC", "addr:street_address": "2431 CHERRY RD", "amenity": "post_box", "collection_times": "Mo-Fr 13:00", "note": "ON 12/24 AND 12/31, THIS BOX MAY BE COLLECTED AS EARLY AS 12 NOON.", "nsi_id": "unitedstatespostalservice-a77078", "operator": "United States Postal Service", "operator:short": "USPS", "operator:type": "public", "operator:wikidata": "Q668687", "ref": "2973000076"}, "type": "Feature"}
{"geometry": {"coordinates": [-81.0271962, 34.945259], "type": "Point"}, "id": "eO_P-CHeexPnkACmcCxbMJNkcyI=", "properties": {"@source_uri": "https://tools.usps.com/UspsToolsRestServices/rest/POLocator/findLocations", "@spider": "usps_collection_boxes", "addr:city": "ROCK HILL", "addr:country": "US", "addr:postcode": "29730", "addr:state": "SC", "addr:street_address": "725 CHERRY RD", "amenity": "post_box", "collection_times": "Mo-Fr 17:00; Sa 15:00", "note": "ON 12/24 AND 12/31, THIS BOX MAY BE COLLECTED AS EARLY AS 12 NOON.", "nsi_id": "unitedstatespostalservice-a77078", "operator": "United States Postal Service", "operator:short": "USPS", "operator:type": "public", "operator:wikidata": "Q668687", "ref": "2973000080"}, "type": "Feature"}
{"geometry": {"coordinates": [-81.0271922, 34.94525], "type": "Point"}, "id": "Ng-GlLRPScb9jL82QBmfbXU_UE4=", "properties": {"@source_uri": "https://tools.usps.com/UspsToolsRestServices/rest/POLocator/findLocations", "@spider": "usps_collection_boxes", "addr:city": "ROCK HILL", "addr:country": "US", "addr:postcode": "29730", "addr:state": "SC", "addr:street_address": "725 CHERRY RD", "amenity": "post_box", "collection_times": "Mo-Fr 17:00; Sa 15:00", "note": "ON 12/24 AND 12/31, THIS BOX MAY BE COLLECTED AS EARLY AS 12 NOON.", "nsi_id": "unitedstatespostalservice-a77078", "operator": "United States Postal Service", "operator:short": "USPS", "operator:type": "public", "operator:wikidata": "Q668687", "ref": "2973000081"}, "type": "Feature"}
{"geometry": {"coordinates": [-81.0572005, 34.936423], "type": "Point"}, "id": "QCK9FEM3s-9tmiPN8MBgeIEg_oA=", "properties": {"@source_uri": "https://tools.usps.com/UspsToolsRestServices/rest/POLocator/findLocations", "@spider": "usps_collection_boxes", "addr:city": "ROCK HILL", "addr:country": "US", "addr:postcode": "29730", "addr:state": "SC", "addr:street_address": "1070 HECKLE BLVD", "amenity": "post_box", "collection_times": "Mo-Fr 13:00", "note": "ON 12/24 AND 12/31, THIS BOX MAY BE COLLECTED AS EARLY AS 12 NOON.", "nsi_id": "unitedstatespostalservice-a77078", "operator": "United States Postal Service", "operator:short": "USPS", "operator:type": "public", "operator:wikidata": "Q668687", "ref": "2973000082"}, "type": "Feature"}
{"geometry": {"coordinates": [-81.0517287, 34.956195], "type": "Point"}, "id": "8g5euDdL9NAvAtvoGEkWt4vZalo=", "properties": {"@source_uri": "https://tools.usps.com/UspsToolsRestServices/rest/POLocator/findLocations", "@spider": "usps_collection_boxes", "addr:city": "ROCK HILL", "addr:country": "US", "addr:postcode": "29730", "addr:state": "SC", "addr:street_address": "222 S HERLONG AVE", "amenity": "post_box", "collection_times": "Mo-Fr 13:00", "note": "ON 12/24 AND 12/31, THIS BOX MAY BE COLLECTED AS EARLY AS 12 NOON.", "nsi_id": "unitedstatespostalservice-a77078", "operator": "United States Postal Service", "operator:short": "USPS", "operator:type": "public", "operator:wikidata": "Q668687", "ref": "2973000083"}, "type": "Feature"}
{"geometry": {"coordinates": [-81.0292837, 34.970993], "type": "Point"}, "id": "t6yixhZqfz0TPAqq9tPnhvrh6gE=", "properties": {"@source_uri": "https://tools.usps.com/UspsToolsRestServices/rest/POLocator/findLocations", "@spider": "usps_collection_boxes", "addr:city": "ROCK HILL", "addr:country": "US", "addr:postcode": "29730", "addr:state": "SC", "addr:street_address": "2210 INDIA HOOK RD", "amenity": "post_box", "collection_times": "Mo-Fr 13:00", "note": "ON 12/24 AND 12/31, THIS BOX MAY BE COLLECTED AS EARLY AS 12 NOON.", "nsi_id": "unitedstatespostalservice-a77078", "operator": "United States Postal Service", "operator:short": "USPS", "operator:type": "public", "operator:wikidata": "Q668687", "ref": "2973000084"}, "type": "Feature"}
{"geometry": {"coordinates": [-81.0651737, 34.9788], "type": "Point"}, "id": "vqyWyJSFxCQS7wl2L05RgVZbQXY=", "properties": {"@source_uri": "https://tools.usps.com/UspsToolsRestServices/rest/POLocator/findLocations", "@spider": "usps_collection_boxes", "addr:city": "ROCK HILL", "addr:country": "US", "addr:postcode": "29730", "addr:state": "SC", "addr:street_address": "4124 CELANESE RD", "amenity": "post_box", "collection_times": "Mo-Fr 13:00", "note": "ON 12/24 AND 12/31, THIS BOX MAY BE COLLECTED AS EARLY AS 12 NOON.", "nsi_id": "unitedstatespostalservice-a77078", "operator": "United States Postal Service", "operator:short": "USPS", "operator:type": "public", "operator:wikidata": "Q668687", "ref": "2973000086"}, "type": "Feature"}
{"geometry": {"coordinates": [-81.0271799, 34.945243], "type": "Point"}, "id": "7nQ9tny7UtdUSfbZPFihwgnIdNc=", "properties": {"@source_uri": "https://tools.usps.com/UspsToolsRestServices/rest/POLocator/findLocations", "@spider": "usps_collection_boxes", "addr:city": "ROCK HILL", "addr:country": "US", "addr:postcode": "29730", "addr:state": "SC", "addr:street_address": "725 CHERRY RD", "amenity": "post_box", "collection_times": "Mo-Fr 17:00; Sa 15:00", "note": "ON 12/24 AND 12/31, THIS BOX MAY BE COLLECTED AS EARLY AS 12 NOON.", "nsi_id": "unitedstatespostalservice-a77078", "operator": "United States Postal Service", "operator:short": "USPS", "operator:type": "public", "operator:wikidata": "Q668687", "ref": "2973000087"}, "type": "Feature"}
{"geometry": {"coordinates": [-81.0271769, 34.945233], "type": "Point"}, "id": "Rlm1AJluW_14nRUpXBBofYQOQrA=", "properties": {"@source_uri": "https://tools.usps.com/UspsToolsRestServices/rest/POLocator/findLocations", "@spider": "usps_collection_boxes", "addr:city": "ROCK HILL", "addr:country": "US", "addr:postcode": "29730", "addr:state": "SC", "addr:street_address": "725 CHERRY RD", "amenity": "post_box", "collection_times": "Mo-Fr 17:00; Sa 15:00", "note": "ON 12/24 AND 12/31, THIS BOX MAY BE COLLECTED AS EARLY AS 12 NOON.", "nsi_id": "unitedstatespostalservice-a77078", "operator": "United States Postal Service", "operator:short": "USPS", "operator:type": "public", "operator:wikidata": "Q668687", "ref": "2973000088"}, "type": "Feature"}
{"geometry": {"coordinates": [-81.0017699, 34.962071], "type": "Point"}, "id": "FGHLXAa5K8I6Q5LA7s3aGXgSYRw=", "properties": {"@source_uri": "https://tools.usps.com/UspsToolsRestServices/rest/POLocator/findLocations", "@spider": "usps_collection_boxes", "addr:city": "ROCK HILL", "addr:country": "US", "addr:postcode": "29730", "addr:state": "SC", "addr:street_address": "2030 CHERRY RD", "amenity": "post_box", "collection_times": "Mo-Fr 13:00", "note": "ON 12/24 AND 12/31, THIS BOX MAY BE COLLECTED AS EARLY AS 12 NOON.", "nsi_id": "unitedstatespostalservice-a77078", "operator": "United States Postal Service", "operator:short": "USPS", "operator:type": "public", "operator:wikidata": "Q668687", "ref": "2973000089"}, "type": "Feature"}
{"geometry": {"coordinates": [-81.0455699, 34.957621], "type": "Point"}, "id": "Srj0UYZMCmJ2Yc4F7Im7BZyKceo=", "properties": {"@source_uri": "https://tools.usps.com/UspsToolsRestServices/rest/POLocator/findLocations", "@spider": "usps_collection_boxes", "addr:city": "ROCK HILL", "addr:country": "US", "addr:postcode": "29730", "addr:state": "SC", "addr:street_address": "1720 EBENEZER RD", "amenity": "post_box", "collection_times": "Mo-Fr 13:00", "note": "ON 12/24 AND 12/31, THIS BOX MAY BE COLLECTED AS EARLY AS 12 NOON.", "nsi_id": "unitedstatespostalservice-a77078", "operator": "United States Postal Service", "operator:short": "USPS", "operator:type": "public", "operator:wikidata": "Q668687", "ref": "2973000090"}, "type": "Feature"}
{"geometry": {"coordinates": [-80.9515905, 34.946617], "type": "Point"}, "id": "S3JpQpXTOhM1TN8SEnHZKrYnwk4=", "properties": {"@source_uri": "https://tools.usps.com/UspsToolsRestServices/rest/POLocator/findLocations", "@spider": "usps_collection_boxes", "addr:city": "ROCK HILL", "addr:country": "US", "addr:postcode": "29730", "addr:state": "SC", "addr:street_address": "1681 CEDAR LINE DR", "amenity": "post_box", "collection_times": "Mo-Fr 13:00", "note": "ON 12/24 AND 12/31, THIS BOX MAY BE COLLECTED AS EARLY AS 12 NOON.", "nsi_id": "unitedstatespostalservice-a77078", "operator": "United States Postal Service", "operator:short": "USPS", "operator:type": "public", "operator:wikidata": "Q668687", "ref": "2973000091"}, "type": "Feature"}
{"geometry": {"coordinates": [-81.0022142, 34.935889], "type": "Point"}, "id": "R6aWC-zxExQBhN5bWzLaVFuG5IU=", "properties": {"@source_uri": "https://tools.usps.com/UspsToolsRestServices/rest/POLocator/findLocations", "@spider": "usps_collection_boxes", "addr:city": "ROCK HILL", "addr:country": "US", "addr:postcode": "29730", "addr:state": "SC", "addr:street_address": "226 NORTHPARK DR", "amenity": "post_box", "collection_times": "Mo-Fr 13:00", "note": "ON 12/24 AND 12/31, THIS BOX MAY BE COLLECTED AS EARLY AS 12 NOON.", "nsi_id": "unitedstatespostalservice-a77078", "operator": "United States Postal Service", "operator:short": "USPS", "operator:type": "public", "operator:wikidata": "Q668687", "ref": "2973000092"}, "type": "Feature"}
{"geometry": {"coordinates": [-81.03227967, 34.926935603], "type": "Point"}, "id": "9k_oFwf5HhjuxNQE7n66ydAHzWg=", "properties": {"@source_uri": "https://tools.usps.com/UspsToolsRestServices/rest/POLocator/findLocations", "@spider": "usps_collection_boxes", "addr:city": "ROCK HILL", "addr:country": "US", "addr:postcode": "29730", "addr:state": "SC", "addr:street_address": "206 S WILSON ST", "amenity": "post_box", "collection_times": "Mo-Fr 17:00; Sa 15:00", "indoor": "yes", "note": "ON 12/24 AND 12/31, THIS BOX MAY BE COLLECTED AS EARLY AS 12 NOON.", "nsi_id": "unitedstatespostalservice-a77078", "operator": "United States Postal Service", "operator:short": "USPS", "operator:type": "public", "operator:wikidata": "Q668687", "ref": "2973000108"}, "type": "Feature"}
{"geometry": {"coordinates": [-81.03227967, 34.926935603], "type": "Point"}, "id": "XKIrjeV1WfODi9urvsLno91rIfA=", "properties": {"@source_uri": "https://tools.usps.com/UspsToolsRestServices/rest/POLocator/findLocations", "@spider": "usps_collection_boxes", "addr:city": "ROCK HILL", "addr:country": "US", "addr:postcode": "29730", "addr:state": "SC", "addr:street_address": "206 S WILSON ST", "amenity": "post_box", "collection_times": "Mo-Fr 17:00; Sa 15:00", "indoor": "yes", "note": "ON 12/24 AND 12/31, THIS BOX MAY BE COLLECTED AS EARLY AS 12 NOON.", "nsi_id": "unitedstatespostalservice-a77078", "operator": "United States Postal Service", "operator:short": "USPS", "operator:type": "public", "operator:wikidata": "Q668687", "ref": "2973000109"}, "type": "Feature"}
{"geometry": {"coordinates": [-81.03227967, 34.926935603], "type": "Point"}, "id": "uY1H6GIB8s0XfPtut0SpM7pU7fo=", "properties": {"@source_uri": "https://tools.usps.com/UspsToolsRestServices/rest/POLocator/findLocations", "@spider": "usps_collection_boxes", "addr:city": "ROCK HILL", "addr:country": "US", "addr:postcode": "29730", "addr:state": "SC", "addr:street_address": "206 S WILSON ST", "amenity": "post_box", "collection_times": "Mo-Fr 17:00; Sa 15:00", "indoor": "yes", "note": "ON 12/24 AND 12/31, THIS BOX MAY BE COLLECTED AS EARLY AS 12 NOON.", "nsi_id": "unitedstatespostalservice-a77078", "operator": "United States Postal Service", "operator:short": "USPS", "operator:type": "public", "operator:wikidata": "Q668687", "ref": "2973000110"}, "type": "Feature"}
{"geometry": {"coordinates": [-81.0539495, 34.968182], "type": "Point"}, "id": "aH_ViRxDKaUvRBD4BY8RRFe06VA=", "properties": {"@source_uri": "https://tools.usps.com/UspsToolsRestServices/rest/POLocator/findLocations", "@spider": "usps_collection_boxes", "addr:city": "ROCK HILL", "addr:country": "US", "addr:postcode": "29730", "addr:state": "SC", "addr:street_address": "2191 EBENEZER RD", "amenity": "post_box", "collection_times": "Mo-Fr 17:00; Sa 15:00", "note": "ON 12/24 AND 12/31, THIS BOX MAY BE COLLECTED AS EARLY AS 12 NOON.", "nsi_id": "unitedstatespostalservice-a77078", "operator": "United States Postal Service", "operator:short": "USPS", "operator:type": "public", "operator:wikidata": "Q668687", "ref": "2973000111"}, "type": "Feature"}
{"geometry": {"coordinates": [-81.0537999873, 34.9684940022], "type": "Point"}, "id": "qbxNnB-Avg44Y9o5UJjadU5sJx8=", "properties": {"@source_uri": "https://tools.usps.com/UspsToolsRestServices/rest/POLocator/findLocations", "@spider": "usps_collection_boxes", "addr:city": "ROCK HILL", "addr:country": "US", "addr:postcode": "29730", "addr:state": "SC", "addr:street_address": "2191 EBENEZER RD", "amenity": "post_box", "collection_times": "Mo-Fr 17:00; Sa 15:00", "note": "ON 12/24 AND 12/31, THIS BOX MAY BE COLLECTED AS EARLY AS 12 NOON.", "nsi_id": "unitedstatespostalservice-a77078", "operator": "United States Postal Service", "operator:short": "USPS", "operator:type": "public", "operator:wikidata": "Q668687", "ref": "2973000112"}, "type": "Feature"}
{"geometry": {"coordinates": [-81.0537999873, 34.9684940022], "type": "Point"}, "id": "c7UykDSAKFMNBW89F43yEeFyKyg=", "properties": {"@source_uri": "https://tools.usps.com/UspsToolsRestServices/rest/POLocator/findLocations", "@spider": "usps_collection_boxes", "addr:city": "ROCK HILL", "addr:country": "US", "addr:postcode": "29730", "addr:state": "SC", "addr:street_address": "2191 EBENEZER RD", "amenity": "post_box", "collection_times": "Mo-Fr 17:00; Sa 15:00", "note": "ON 12/24 AND 12/31, THIS BOX MAY BE COLLECTED AS EARLY AS 12 NOON.", "nsi_id": "unitedstatespostalservice-a77078", "operator": "United States Postal Service", "operator:short": "USPS", "operator:type": "public", "operator:wikidata": "Q668687", "ref": "2973000113"}, "type": "Feature"}
{"geometry": {"coordinates": [-81.0273307, 34.945415], "type": "Point"}, "id": "rmb9V6iTkFSWCnGYuALtCt_Zb38=", "properties": {"@source_uri": "https://tools.usps.com/UspsToolsRestServices/rest/POLocator/findLocations", "@spider": "usps_collection_boxes", "addr:city": "ROCK HILL", "addr:country": "US", "addr:postcode": "29730", "addr:state": "SC", "addr:street_address": "725 CHERRY RD", "amenity": "post_box", "collection_times": "Mo-Fr 17:00", "indoor": "yes", "note": "ON 12/24 AND 12/31, THIS BOX MAY BE COLLECTED AS EARLY AS 12 NOON.", "nsi_id": "unitedstatespostalservice-a77078", "operator": "United States Postal Service", "operator:short": "USPS", "operator:type": "public", "operator:wikidata": "Q668687", "ref": "2973000114"}, "type": "Feature"}
{"geometry": {"coordinates": [-81.0273559, 34.945425], "type": "Point"}, "id": "HPtFRvP4zrYgHVlaTal_lE-8MC8=", "properties": {"@source_uri": "https://tools.usps.com/UspsToolsRestServices/rest/POLocator/findLocations", "@spider": "usps_collection_boxes", "addr:city": "ROCK HILL", "addr:country": "US", "addr:postcode": "29730", "addr:state": "SC", "addr:street_address": "725 CHERRY RD", "amenity": "post_box", "collection_times": "Mo-Fr 17:00", "indoor": "yes", "note": "ON 12/24 AND 12/31, THIS BOX MAY BE COLLECTED AS EARLY AS 12 NOON.", "nsi_id": "unitedstatespostalservice-a77078", "operator": "United States Postal Service", "operator:short": "USPS", "operator:type": "public", "operator:wikidata": "Q668687", "ref": "2973000115"}, "type": "Feature"}
{"geometry": {"coordinates": [-81.0274023, 34.94549], "type": "Point"}, "id": "Mv6-NbL6d64MAsbecH_w6LZ1Qpw=", "properties": {"@source_uri": "https://tools.usps.com/UspsToolsRestServices/rest/POLocator/findLocations", "@spider": "usps_collection_boxes", "addr:city": "ROCK HILL", "addr:country": "US", "addr:postcode": "29730", "addr:state": "SC", "addr:street_address": "725 CHERRY RD", "amenity": "post_box", "collection_times": "Mo-Fr 17:00", "indoor": "yes", "note": "ON 12/24 AND 12/31, THIS BOX MAY BE COLLECTED AS EARLY AS 12 NOON.", "nsi_id": "unitedstatespostalservice-a77078", "operator": "United States Postal Service", "operator:short": "USPS", "operator:type": "public", "operator:wikidata": "Q668687", "ref": "2973000116"}, "type": "Feature"}
{"geometry": {"coordinates": [-81.03227967, 34.926935603], "type": "Point"}, "id": "5NX8SYdNC2E8MqXG1wENMC6VITA=", "properties": {"@source_uri": "https://tools.usps.com/UspsToolsRestServices/rest/POLocator/findLocations", "@spider": "usps_collection_boxes", "addr:city": "ROCK HILL", "addr:country": "US", "addr:postcode": "29730", "addr:state": "SC", "addr:street_address": "206 S WILSON ST", "amenity": "post_box", "collection_times": "Mo-Fr 17:00; Sa 12:00", "indoor": "yes", "note": "ON 12/24 AND 12/31, THIS BOX MAY BE COLLECTED AS EARLY AS 12 NOON.", "nsi_id": "unitedstatespostalservice-a77078", "operator": "United States Postal Service", "operator:short": "USPS", "operator:type": "public", "operator:wikidata": "Q668687", "ref": "2973000124"}, "type": "Feature"}
{"geometry": {"coordinates": [-81.052902945, 34.968781636], "type": "Point"}, "id": "vq8NXNZowwkPnJw33GrDRR54bp4=", "properties": {"@source_uri": "https://tools.usps.com/UspsToolsRestServices/rest/POLocator/findLocations", "@spider": "usps_collection_boxes", "addr:city": "ROCK HILL", "addr:country": "US", "addr:postcode": "29732", "addr:state": "SC", "addr:street_address": "2191 EBENEZER RD", "amenity": "post_box", "collection_times": "Mo-Fr 17:00; Sa 15:00", "indoor": "yes", "note": "ON 12/24 AND 12/31, THIS BOX MAY BE COLLECTED AS EARLY AS 12 NOON.", "nsi_id": "unitedstatespostalservice-a77078", "operator": "United States Postal Service", "operator:short": "USPS", "operator:type": "public", "operator:wikidata": "Q668687", "ref": "2973200023"}, "type": "Feature"}
{"geometry": {"coordinates": [-81.052902945, 34.968781636], "type": "Point"}, "id": "iArRfAFpSJFGIV5YrSI9Z-zxigc=", "properties": {"@source_uri": "https://tools.usps.com/UspsToolsRestServices/rest/POLocator/findLocations", "@spider": "usps_collection_boxes", "addr:city": "ROCK HILL", "addr:country": "US", "addr:postcode": "29732", "addr:state": "SC", "addr:street_address": "2191 EBENEZER RD", "amenity": "post_box", "collection_times": "Mo-Fr 17:00; Sa 15:00", "indoor": "yes", "note": "ON 12/24 AND 12/31, THIS BOX MAY BE COLLECTED AS EARLY AS 12 NOON.", "nsi_id": "unitedstatespostalservice-a77078", "operator": "United States Postal Service", "operator:short": "USPS", "operator:type": "public", "operator:wikidata": "Q668687", "ref": "2973200024"}, "type": "Feature"}
{"geometry": {"coordinates": [-81.052902945, 34.968781636], "type": "Point"}, "id": "WNqOo6hxnrfxQCOEE7VvOafYCb4=", "properties": {"@source_uri": "https://tools.usps.com/UspsToolsRestServices/rest/POLocator/findLocations", "@spider": "usps_collection_boxes", "addr:city": "ROCK HILL", "addr:country": "US", "addr:postcode": "29732", "addr:state": "SC", "addr:street_address": "2191 EBENEZER RD", "amenity": "post_box", "collection_times": "Mo-Fr 17:00; Sa 12:00", "indoor": "yes", "note": "ON 12/24 AND 12/31, THIS BOX MAY BE COLLECTED AS EARLY AS 12 NOON.", "nsi_id": "unitedstatespostalservice-a77078", "operator": "United States Postal Service", "operator:short": "USPS", "operator:type": "public", "operator:wikidata": "Q668687", "ref": "2973200032"}, "type": "Feature"}
{"geometry": {"coordinates": [-80.185220991, 34.740056243], "type": "Point"}, "id": "7LFUdmNXcMlCfF7iGEqE6VI6RMQ=", "properties": {"@source_uri": "https://tools.usps.com/UspsToolsRestServices/rest/POLocator/findLocations", "@spider": "usps_collection_boxes", "addr:city": "RUBY", "addr:country": "US", "addr:postcode": "29741", "addr:state": "NC", "addr:street_address": "367 MARKET ST", "amenity": "post_box", "collection_times": "Mo-Fr 16:30; Sa 09:30", "note": "ON 12/24 AND 12/31, THIS BOX MAY BE COLLECTED AS EARLY AS 12 NOON.", "nsi_id": "unitedstatespostalservice-a77078", "operator": "United States Postal Service", "operator:short": "USPS", "operator:type": "public", "operator:wikidata": "Q668687", "ref": "2974100003"}, "type": "Feature"}
{"geometry": {"coordinates": [-80.185220991, 34.740056243], "type": "Point"}, "id": "TxZEatSWemxDiInwHzg3rkHGvyE=", "properties": {"@source_uri": "https://tools.usps.com/UspsToolsRestServices/rest/POLocator/findLocations", "@spider": "usps_collection_boxes", "addr:city": "RUBY", "addr:country": "US", "addr:postcode": "29741", "addr:state": "NC", "addr:street_address": "367 MARKET ST", "amenity": "post_box", "collection_times": "Mo-Fr 16:30; Sa 09:30", "indoor": "yes", "note": "ON 12/24 AND 12/31, THIS BOX MAY BE COLLECTED AS EARLY AS 12 NOON.", "nsi_id": "unitedstatespostalservice-a77078", "operator": "United States Postal Service", "operator:short": "USPS", "operator:type": "public", "operator:wikidata": "Q668687", "ref": "2974100004"}, "type": "Feature"}
{"geometry": {"coordinates": [-80.185220991, 34.740056243], "type": "Point"}, "id": "X9nTzGj53uOkQIfzhbfy_ZCQBSk=", "properties": {"@source_uri": "https://tools.usps.com/UspsToolsRestServices/rest/POLocator/findLocations", "@spider": "usps_collection_boxes", "addr:city": "RUBY", "addr:country": "US", "addr:postcode": "29741", "addr:state": "NC", "addr:street_address": "367 MARKET ST", "amenity": "post_box", "collection_times": "Mo-Fr 16:30; Sa 09:30", "indoor": "yes", "note": "ON 12/24 AND 12/31, THIS BOX MAY BE COLLECTED AS EARLY AS 12 NOON.", "nsi_id": "unitedstatespostalservice-a77078", "operator": "United States Postal Service", "operator:short": "USPS", "operator:type": "public", "operator:wikidata": "Q668687", "ref": "2974100005"}, "type": "Feature"}
{"geometry": {"coordinates": [-80.185220991, 34.740056243], "type": "Point"}, "id": "NstSzWM9Ogt3QU_jYe5Q700mpCc=", "properties": {"@source_uri": "https://tools.usps.com/UspsToolsRestServices/rest/POLocator/findLocations", "@spider": "usps_collection_boxes", "addr:city": "RUBY", "addr:country": "US", "addr:postcode": "29741", "addr:state": "NC", "addr:street_address": "367 MARKET ST", "amenity": "post_box", "collection_times": "Mo-Fr 16:30; Sa 09:30", "indoor": "yes", "note": "ON 12/24 AND 12/31, THIS BOX MAY BE COLLECTED AS EARLY AS 12 NOON.", "nsi_id": "unitedstatespostalservice-a77078", "operator": "United States Postal Service", "operator:short": "USPS", "operator:type": "public", "operator:wikidata": "Q668687", "ref": "2974100006"}, "type": "Feature"}
{"geometry": {"coordinates": [-81.338544807, 34.951609363], "type": "Point"}, "id": "THN_T6KMvqdzcuanjUzlCbv-P4I=", "properties": {"@source_uri": "https://tools.usps.com/UspsToolsRestServices/rest/POLocator/findLocations", "@spider": "usps_collection_boxes", "addr:city": "SHARON", "addr:country": "US", "addr:postcode": "29742", "addr:state": "SC", "addr:street_address": "3311 N YORK ST", "amenity": "post_box", "collection_times": "Mo-Fr 16:30; Sa 10:00", "note": "ON 12/24 AND 12/31, THIS BOX MAY BE COLLECTED AS EARLY AS 12 NOON.", "nsi_id": "unitedstatespostalservice-a77078", "operator": "United States Postal Service", "operator:short": "USPS", "operator:type": "public", "operator:wikidata": "Q668687", "ref": "2974200001"}, "type": "Feature"}
{"geometry": {"coordinates": [-81.338544807, 34.951609363], "type": "Point"}, "id": "VFLYDI32chSiGoCeQgZrA-QDKIg=", "properties": {"@source_uri": "https://tools.usps.com/UspsToolsRestServices/rest/POLocator/findLocations", "@spider": "usps_collection_boxes", "addr:city": "SHARON", "addr:country": "US", "addr:postcode": "29742", "addr:state": "SC", "addr:street_address": "3311 N YORK ST", "amenity": "post_box", "collection_times": "Mo-Fr 16:30; Sa 10:00", "indoor": "yes", "note": "ON 12/24 AND 12/31, THIS BOX MAY BE COLLECTED AS EARLY AS 12 NOON.", "nsi_id": "unitedstatespostalservice-a77078", "operator": "United States Postal Service", "operator:short": "USPS", "operator:type": "public", "operator:wikidata": "Q668687", "ref": "2974200002"}, "type": "Feature"}
{"geometry": {"coordinates": [-81.338544807, 34.951609363], "type": "Point"}, "id": "Zmr5FuHpYS2rN0H0brRGizczIEs=", "properties": {"@source_uri": "https://tools.usps.com/UspsToolsRestServices/rest/POLocator/findLocations", "@spider": "usps_collection_boxes", "addr:city": "SHARON", "addr:country": "US", "addr:postcode": "29742", "addr:state": "SC", "addr:street_address": "3311 N YORK ST", "amenity": "post_box", "collection_times": "Mo-Fr 16:30; Sa 10:00", "indoor": "yes", "note": "ON 12/24 AND 12/31, THIS BOX MAY BE COLLECTED AS EARLY AS 12 NOON.", "nsi_id": "unitedstatespostalservice-a77078", "operator": "United States Postal Service", "operator:short": "USPS", "operator:type": "public", "operator:wikidata": "Q668687", "ref": "2974200003"}, "type": "Feature"}
{"geometry": {"coordinates": [-81.407505756, 35.042632911], "type": "Point"}, "id": "_oUMjaP1pDejj7VIGNjHEzzpgdw=", "properties": {"@source_uri": "https://tools.usps.com/UspsToolsRestServices/rest/POLocator/findLocations", "@spider": "usps_collection_boxes", "addr:city": "SMYRNA", "addr:country": "US", "addr:postcode": "29743", "addr:state": "SC", "addr:street_address": "1021 MAIN ST", "amenity": "post_box", "collection_times": "Mo-Fr 16:00; Sa 09:00", "note": "ON 12/24 AND 12/31, THIS BOX MAY BE COLLECTED AS EARLY AS 12 NOON.", "nsi_id": "unitedstatespostalservice-a77078", "operator": "United States Postal Service", "operator:short": "USPS", "operator:type": "public", "operator:wikidata": "Q668687", "ref": "2974300002"}, "type": "Feature"}
{"geometry": {"coordinates": [-81.407505756, 35.042632911], "type": "Point"}, "id": "oQDgY6Hqd2bpfQyLxCiVflic2C0=", "properties": {"@source_uri": "https://tools.usps.com/UspsToolsRestServices/rest/POLocator/findLocations", "@spider": "usps_collection_boxes", "addr:city": "SMYRNA", "addr:country": "US", "addr:postcode": "29743", "addr:state": "SC", "addr:street_address": "1021 MAIN ST", "amenity": "post_box", "collection_times": "Mo-Fr 16:00; Sa 09:00", "indoor": "yes", "note": "ON 12/24 AND 12/31, THIS BOX MAY BE COLLECTED AS EARLY AS 12 NOON.", "nsi_id": "unitedstatespostalservice-a77078", "operator": "United States Postal Service", "operator:short": "USPS", "operator:type": "public", "operator:wikidata": "Q668687", "ref": "2974300005"}, "type": "Feature"}
{"geometry": {"coordinates": [-80.843512, 34.857654], "type": "Point"}, "id": "dJ2R8mJvKFu1STdC8BDDpJmWpJQ=", "properties": {"@source_uri": "https://tools.usps.com/UspsToolsRestServices/rest/POLocator/findLocations", "@spider": "usps_collection_boxes", "addr:city": "VAN WYCK", "addr:country": "US", "addr:postcode": "29744", "addr:state": "SC", "addr:street_address": "5222 OLD HICKORY RD", "amenity": "post_box", "collection_times": "Mo-Fr 16:30; Sa 09:00", "note": "ON 12/24 AND 12/31, THIS BOX MAY BE COLLECTED AS EARLY AS 12 NOON.", "nsi_id": "unitedstatespostalservice-a77078", "operator": "United States Postal Service", "operator:short": "USPS", "operator:type": "public", "operator:wikidata": "Q668687", "ref": "2974400003"}, "type": "Feature"}
{"geometry": {"coordinates": [-80.843512, 34.857654], "type": "Point"}, "id": "rDciZQE9P5a_ivZmZWtM0FQMpEY=", "properties": {"@source_uri": "https://tools.usps.com/UspsToolsRestServices/rest/POLocator/findLocations", "@spider": "usps_collection_boxes", "addr:city": "VAN WYCK", "addr:country": "US", "addr:postcode": "29744", "addr:state": "SC", "addr:street_address": "5222 OLD HICKORY RD", "amenity": "post_box", "collection_times": "Mo-Fr 16:30; Sa 09:00", "indoor": "yes", "note": "ON 12/24 AND 12/31, THIS BOX MAY BE COLLECTED AS EARLY AS 12 NOON.", "nsi_id": "unitedstatespostalservice-a77078", "operator": "United States Postal Service", "operator:short": "USPS", "operator:type": "public", "operator:wikidata": "Q668687", "ref": "2974400004"}, "type": "Feature"}
{"geometry": {"coordinates": [-80.843461, 34.85761], "type": "Point"}, "id": "7Fy8Xi_gMlPgSDcpF5X7zy3oEis=", "properties": {"@source_uri": "https://tools.usps.com/UspsToolsRestServices/rest/POLocator/findLocations", "@spider": "usps_collection_boxes", "addr:city": "VAN WYCK", "addr:country": "US", "addr:postcode": "29744", "addr:state": "SC", "addr:street_address": "5222 OLD HICKORY RD", "amenity": "post_box", "collection_times": "Mo-Fr 16:30; Sa 09:00", "indoor": "yes", "note": "ON 12/24 AND 12/31, THIS BOX MAY BE COLLECTED AS EARLY AS 12 NOON.", "nsi_id": "unitedstatespostalservice-a77078", "operator": "United States Postal Service", "operator:short": "USPS", "operator:type": "public", "operator:wikidata": "Q668687", "ref": "2974400005"}, "type": "Feature"}
{"geometry": {"coordinates": [-81.2150149984, 34.9871309963], "type": "Point"}, "id": "G_Bz0WM1un26SiOTMBlPNAlhTis=", "properties": {"@source_uri": "https://tools.usps.com/UspsToolsRestServices/rest/POLocator/findLocations", "@spider": "usps_collection_boxes", "addr:city": "YORK", "addr:country": "US", "addr:postcode": "29745", "addr:state": "SC", "addr:street_address": "909 E LIBERTY ST", "amenity": "post_box", "collection_times": "Mo-Fr 17:00; Sa 15:00", "note": "ON 12/24 AND 12/31, THIS BOX MAY BE COLLECTED AS EARLY AS 12 NOON.", "nsi_id": "unitedstatespostalservice-a77078", "operator": "United States Postal Service", "operator:short": "USPS", "operator:type": "public", "operator:wikidata": "Q668687", "ref": "2974500020"}, "type": "Feature"}
{"geometry": {"coordinates": [-81.2501399, 35.015694], "type": "Point"}, "id": "hkZghZtYU8D1tBH11Wp8kIl5N4k=", "properties": {"@source_uri": "https://tools.usps.com/UspsToolsRestServices/rest/POLocator/findLocations", "@spider": "usps_collection_boxes", "addr:city": "YORK", "addr:country": "US", "addr:postcode": "29745", "addr:state": "SC", "addr:street_address": "1131 US HIGHWAY 321 S", "amenity": "post_box", "collection_times": "Mo-Sa 09:00", "nsi_id": "unitedstatespostalservice-a77078", "operator": "United States Postal Service", "operator:short": "USPS", "operator:type": "public", "operator:wikidata": "Q668687", "ref": "2974500022"}, "type": "Feature"}
{"geometry": {"coordinates": [-81.231115, 34.987855], "type": "Point"}, "id": "CCYurnq8E6-Y75riT0Wi9K6G8_8=", "properties": {"@source_uri": "https://tools.usps.com/UspsToolsRestServices/rest/POLocator/findLocations", "@spider": "usps_collection_boxes", "addr:city": "YORK", "addr:country": "US", "addr:postcode": "29745", "addr:state": "SC", "addr:street_address": "12 N CONGRESS ST", "amenity": "post_box", "collection_times": "Mo-Fr 10:00", "nsi_id": "unitedstatespostalservice-a77078", "operator": "United States Postal Service", "operator:short": "USPS", "operator:type": "public", "operator:wikidata": "Q668687", "ref": "2974500023"}, "type": "Feature"}
{"geometry": {"coordinates": [-81.2158674, 34.987183543], "type": "Point"}, "id": "A_sNbvZ7k6xG6s7BQg2Q6mgheaY=", "properties": {"@source_uri": "https://tools.usps.com/UspsToolsRestServices/rest/POLocator/findLocations", "@spider": "usps_collection_boxes", "addr:city": "YORK", "addr:country": "US", "addr:postcode": "29745", "addr:state": "SC", "addr:street_address": "909 E LIBERTY ST", "amenity": "post_box", "collection_times": "Mo-Fr 17:00; Sa 15:00", "indoor": "yes", "note": "ON 12/24 AND 12/31, THIS BOX MAY BE COLLECTED AS EARLY AS 12 NOON.", "nsi_id": "unitedstatespostalservice-a77078", "operator": "United States Postal Service", "operator:short": "USPS", "operator:type": "public", "operator:wikidata": "Q668687", "ref": "2974500024"}, "type": "Feature"}
{"geometry": {"coordinates": [-81.2158674, 34.987183543], "type": "Point"}, "id": "UmoVYwXv_HHoZ6ZffMe8z3GP-ds=", "properties": {"@source_uri": "https://tools.usps.com/UspsToolsRestServices/rest/POLocator/findLocations", "@spider": "usps_collection_boxes", "addr:city": "YORK", "addr:country": "US", "addr:postcode": "29745", "addr:state": "SC", "addr:street_address": "909 E LIBERTY ST", "amenity": "post_box", "collection_times": "Mo-Fr 17:00; Sa 15:00", "indoor": "yes", "note": "ON 12/24 AND 12/31, THIS BOX MAY BE COLLECTED AS EARLY AS 12 NOON.", "nsi_id": "unitedstatespostalservice-a77078", "operator": "United States Postal Service", "operator:short": "USPS", "operator:type": "public", "operator:wikidata": "Q668687", "ref": "2974500025"}, "type": "Feature"}
{"geometry": {"coordinates": [-81.2158674, 34.987183543], "type": "Point"}, "id": "wwJVZv4g2RTsKWqE8CmPEhwR3A8=", "properties": {"@source_uri": "https://tools.usps.com/UspsToolsRestServices/rest/POLocator/findLocations", "@spider": "usps_collection_boxes", "addr:city": "YORK", "addr:country": "US", "addr:postcode": "29745", "addr:state": "SC", "addr:street_address": "909 E LIBERTY ST", "amenity": "post_box", "collection_times": "Mo-Fr 17:00; Sa 15:00", "indoor": "yes", "note": "ON 12/24 AND 12/31, THIS BOX MAY BE COLLECTED AS EARLY AS 12 NOON.", "nsi_id": "unitedstatespostalservice-a77078", "operator": "United States Postal Service", "operator:short": "USPS", "operator:type": "public", "operator:wikidata": "Q668687", "ref": "2974500026"}, "type": "Feature"}
{"geometry": {"coordinates": [-81.2158674, 34.987183543], "type": "Point"}, "id": "VzcoQrd4yFn-eCw6gK1GIX0uEtQ=", "properties": {"@source_uri": "https://tools.usps.com/UspsToolsRestServices/rest/POLocator/findLocations", "@spider": "usps_collection_boxes", "addr:city": "YORK", "addr:country": "US", "addr:postcode": "29745", "addr:state": "SC", "addr:street_address": "909 E LIBERTY ST", "amenity": "post_box", "collection_times": "Mo-Fr 17:00; Sa 15:00", "indoor": "yes", "note": "ON 12/24 AND 12/31, THIS BOX MAY BE COLLECTED AS EARLY AS 12 NOON.", "nsi_id": "unitedstatespostalservice-a77078", "operator": "United States Postal Service", "operator:short": "USPS", "operator:type": "public", "operator:wikidata": "Q668687", "ref": "2974500030"}, "type": "Feature"}
