{"geometry": {"coordinates": [-81.7032730122, 33.5759629978], "type": "Point"}, "id": "clBFtPyT1xDgBIlV3_AE0mj5ECw=", "properties": {"@source_uri": "https://tools.usps.com/UspsToolsRestServices/rest/POLocator/findLocations", "@spider": "usps_collection_boxes", "addr:city": "AIKEN", "addr:country": "US", "addr:postcode": "29801", "addr:state": "SC", "addr:street_address": "1048 YORK ST NE", "amenity": "post_box", "collection_times": "Mo-Fr 17:00; Sa 16:30", "note": "ON 12/24 AND 12/31, THIS BOX MAY BE COLLECTED AS EARLY AS 12 NOON.", "nsi_id": "unitedstatespostalservice-a77078", "operator": "United States Postal Service", "operator:short": "USPS", "operator:type": "public", "operator:wikidata": "Q668687", "ref": "2980100003"}, "type": "Feature"}
{"geometry": {"coordinates": [-81.700095548, 33.554008307], "type": "Point"}, "id": "f3_gQA4JfbJhwjq_SQc9RSrzLsI=", "properties": {"@source_uri": "https://tools.usps.com/UspsToolsRestServices/rest/POLocator/findLocations", "@spider": "usps_collection_boxes", "addr:city": "AIKEN", "addr:country": "US", "addr:postcode": "29801", "addr:state": "SC", "addr:street_address": "1555 RICHLAND AVE E", "amenity": "post_box", "collection_times": "Mo-Sa 16:45", "note": "ON 12/24 AND 12/31, THIS BOX MAY BE COLLECTED AS EARLY AS 12 NOON.", "nsi_id": "unitedstatespostalservice-a77078", "operator": "United States Postal Service", "operator:short": "USPS", "operator:type": "public", "operator:wikidata": "Q668687", "ref": "2980100007"}, "type": "Feature"}
{"geometry": {"coordinates": [-81.765130155, 33.570560512], "type": "Point"}, "id": "7w_JOftEewG_toMUEwHRNeq8HEE=", "properties": {"@source_uri": "https://tools.usps.com/UspsToolsRestServices/rest/POLocator/findLocations", "@spider": "usps_collection_boxes", "addr:city": "AIKEN", "addr:country": "US", "addr:postcode": "29801", "addr:state": "SC", "addr:street_address": "302 UNIVERSITY PKWY", "amenity": "post_box", "collection_times": "Mo-Sa 16:30", "note": "ON 12/24 AND 12/31, THIS BOX MAY BE COLLECTED AS EARLY AS 12 NOON.", "nsi_id": "unitedstatespostalservice-a77078", "operator": "United States Postal Service", "operator:short": "USPS", "operator:type": "public", "operator:wikidata": "Q668687", "ref": "2980100012"}, "type": "Feature"}
{"geometry": {"coordinates": [-81.765279079, 33.572554198], "type": "Point"}, "id": "Q9HPigswFuUx18lZiNogryLyx8E=", "properties": {"@source_uri": "https://tools.usps.com/UspsToolsRestServices/rest/POLocator/findLocations", "@spider": "usps_collection_boxes", "addr:city": "AIKEN", "addr:country": "US", "addr:postcode": "29801", "addr:state": "SC", "addr:street_address": "410 UNIVERSITY PKWY", "amenity": "post_box", "collection_times": "Mo-Fr 16:30", "note": "ON 12/24 AND 12/31, THIS BOX MAY BE COLLECTED AS EARLY AS 12 NOON.", "nsi_id": "unitedstatespostalservice-a77078", "operator": "United States Postal Service", "operator:short": "USPS", "operator:type": "public", "operator:wikidata": "Q668687", "ref": "2980100013"}, "type": "Feature"}
{"geometry": {"coordinates": [-81.740501947, 33.565457158], "type": "Point"}, "id": "hGbjdN_y3delXmv38cauLdWAzfc=", "properties": {"@source_uri": "https://tools.usps.com/UspsToolsRestServices/rest/POLocator/findLocations", "@spider": "usps_collection_boxes", "addr:city": "AIKEN", "addr:country": "US", "addr:postcode": "29801", "addr:state": "SC", "addr:street_address": "1614 RICHLAND AVE W", "amenity": "post_box", "collection_times": "Mo-Fr 16:30; Sa 15:30", "note": "ON 12/24 AND 12/31, THIS BOX MAY BE COLLECTED AS EARLY AS 12 NOON.", "nsi_id": "unitedstatespostalservice-a77078", "operator": "United States Postal Service", "operator:short": "USPS", "operator:type": "public", "operator:wikidata": "Q668687", "ref": "2980100016"}, "type": "Feature"}
{"geometry": {"coordinates": [-81.724651017, 33.556968156], "type": "Point"}, "id": "PmT77GZV36tlhfcdIoucKo3xfZI=", "properties": {"@source_uri": "https://tools.usps.com/UspsToolsRestServices/rest/POLocator/findLocations", "@spider": "usps_collection_boxes", "addr:city": "AIKEN", "addr:country": "US", "addr:postcode": "29801", "addr:state": "SC", "addr:street_address": "319 LAURENS ST SW", "amenity": "post_box", "collection_times": "Mo-Sa 10:00", "nsi_id": "unitedstatespostalservice-a77078", "operator": "United States Postal Service", "operator:short": "USPS", "operator:type": "public", "operator:wikidata": "Q668687", "ref": "2980100018"}, "type": "Feature"}
{"geometry": {"coordinates": [-81.700263846, 33.534713204], "type": "Point"}, "id": "07jrjP0S03lijknls_fCoQ3PsdU=", "properties": {"@source_uri": "https://tools.usps.com/UspsToolsRestServices/rest/POLocator/findLocations", "@spider": "usps_collection_boxes", "addr:city": "AIKEN", "addr:country": "US", "addr:postcode": "29801", "addr:state": "SC", "addr:street_address": "200 PEBBLE LN", "amenity": "post_box", "collection_times": "Mo-Sa 13:00", "note": "ON 12/24 AND 12/31, THIS BOX MAY BE COLLECTED AS EARLY AS 12 NOON.", "nsi_id": "unitedstatespostalservice-a77078", "operator": "United States Postal Service", "operator:short": "USPS", "operator:type": "public", "operator:wikidata": "Q668687", "ref": "2980100020"}, "type": "Feature"}
{"geometry": {"coordinates": [-81.719960598, 33.558295352], "type": "Point"}, "id": "nLP_fRvlbauS1FG2qceXY3AgJ4Y=", "properties": {"@source_uri": "https://tools.usps.com/UspsToolsRestServices/rest/POLocator/findLocations", "@spider": "usps_collection_boxes", "addr:city": "AIKEN", "addr:country": "US", "addr:postcode": "29801", "addr:state": "SC", "addr:street_address": "109 PARK AVE SE", "amenity": "post_box", "collection_times": "Mo-Fr 17:00; Sa 16:30", "note": "ON 12/24 AND 12/31, THIS BOX MAY BE COLLECTED AS EARLY AS 12 NOON.", "nsi_id": "unitedstatespostalservice-a77078", "operator": "United States Postal Service", "operator:short": "USPS", "operator:type": "public", "operator:wikidata": "Q668687", "ref": "2980100022"}, "type": "Feature"}
{"geometry": {"coordinates": [-81.723507098, 33.559812311], "type": "Point"}, "id": "Iyp3VrM6zq1HM0307iKnTZZLfz4=", "properties": {"@source_uri": "https://tools.usps.com/UspsToolsRestServices/rest/POLocator/findLocations", "@spider": "usps_collection_boxes", "addr:city": "AIKEN", "addr:country": "US", "addr:postcode": "29801", "addr:state": "SC", "addr:street_address": "300 PARK AVE SW", "amenity": "post_box", "collection_times": "Mo-Fr 17:00; Sa 15:45", "note": "ON 12/24 AND 12/31, THIS BOX MAY BE COLLECTED AS EARLY AS 12 NOON.", "nsi_id": "unitedstatespostalservice-a77078", "operator": "United States Postal Service", "operator:short": "USPS", "operator:type": "public", "operator:wikidata": "Q668687", "ref": "2980100024"}, "type": "Feature"}
{"geometry": {"coordinates": [-81.7219079946, 33.5617659816], "type": "Point"}, "id": "A_G-A3tgmTIQaTKCCQ0_uopmU1I=", "properties": {"@source_uri": "https://tools.usps.com/UspsToolsRestServices/rest/POLocator/findLocations", "@spider": "usps_collection_boxes", "addr:city": "AIKEN", "addr:country": "US", "addr:postcode": "29801", "addr:state": "SC", "addr:street_address": "100 LAURENS ST NW", "amenity": "post_box", "collection_times": "Mo-Sa 09:45", "nsi_id": "unitedstatespostalservice-a77078", "operator": "United States Postal Service", "operator:short": "USPS", "operator:type": "public", "operator:wikidata": "Q668687", "ref": "2980100028"}, "type": "Feature"}
{"geometry": {"coordinates": [-81.7172840339, 33.5627099935], "type": "Point"}, "id": "a6GG3DT-hDC9OIVuMwxMSv8A9no=", "properties": {"@source_uri": "https://tools.usps.com/UspsToolsRestServices/rest/POLocator/findLocations", "@spider": "usps_collection_boxes", "addr:city": "AIKEN", "addr:country": "US", "addr:postcode": "29801", "addr:state": "SC", "addr:street_address": "211 YORK ST NE", "amenity": "post_box", "collection_times": "Mo-Fr 17:00", "note": "ON 12/24 AND 12/31, THIS BOX MAY BE COLLECTED AS EARLY AS 12 NOON.", "nsi_id": "unitedstatespostalservice-a77078", "operator": "United States Postal Service", "operator:short": "USPS", "operator:type": "public", "operator:wikidata": "Q668687", "ref": "2980100033"}, "type": "Feature"}
{"geometry": {"coordinates": [-81.72054239, 33.565971309], "type": "Point"}, "id": "birWywL-C0_Zxh-25R3o_VhWlZY=", "properties": {"@source_uri": "https://tools.usps.com/UspsToolsRestServices/rest/POLocator/findLocations", "@spider": "usps_collection_boxes", "addr:city": "AIKEN", "addr:country": "US", "addr:postcode": "29801", "addr:state": "SC", "addr:street_address": "307 LAURENS ST NW", "amenity": "post_box", "collection_times": "Mo-Sa 17:00", "note": "ON 12/24 AND 12/31, THIS BOX MAY BE COLLECTED AS EARLY AS 12 NOON.", "nsi_id": "unitedstatespostalservice-a77078", "operator": "United States Postal Service", "operator:short": "USPS", "operator:type": "public", "operator:wikidata": "Q668687", "ref": "2980100037"}, "type": "Feature"}
{"geometry": {"coordinates": [-81.72054239, 33.565971309], "type": "Point"}, "id": "6Dslk3PHVsBJQidMzVIkfIjMLnU=", "properties": {"@source_uri": "https://tools.usps.com/UspsToolsRestServices/rest/POLocator/findLocations", "@spider": "usps_collection_boxes", "addr:city": "AIKEN", "addr:country": "US", "addr:postcode": "29801", "addr:state": "SC", "addr:street_address": "307 LAURENS ST NW", "amenity": "post_box", "collection_times": "Mo-Sa 17:00", "indoor": "yes", "note": "ON 12/24 AND 12/31, THIS BOX MAY BE COLLECTED AS EARLY AS 12 NOON.", "nsi_id": "unitedstatespostalservice-a77078", "operator": "United States Postal Service", "operator:short": "USPS", "operator:type": "public", "operator:wikidata": "Q668687", "ref": "2980100042"}, "type": "Feature"}
{"geometry": {"coordinates": [-81.72054239, 33.565971309], "type": "Point"}, "id": "kTbbTEtiZHPiBarK1h9fOvNkIwg=", "properties": {"@source_uri": "https://tools.usps.com/UspsToolsRestServices/rest/POLocator/findLocations", "@spider": "usps_collection_boxes", "addr:city": "AIKEN", "addr:country": "US", "addr:postcode": "29801", "addr:state": "SC", "addr:street_address": "307 LAURENS ST NW", "amenity": "post_box", "collection_times": "Mo-Sa 17:00", "indoor": "yes", "note": "ON 12/24 AND 12/31, THIS BOX MAY BE COLLECTED AS EARLY AS 12 NOON.", "nsi_id": "unitedstatespostalservice-a77078", "operator": "United States Postal Service", "operator:short": "USPS", "operator:type": "public", "operator:wikidata": "Q668687", "ref": "2980100055"}, "type": "Feature"}
{"geometry": {"coordinates": [-81.762310059, 33.530324559], "type": "Point"}, "id": "NnGWZBMk-JFy0FLoZa7BQhe1Nkw=", "properties": {"@source_uri": "https://tools.usps.com/UspsToolsRestServices/rest/POLocator/findLocations", "@spider": "usps_collection_boxes", "addr:city": "AIKEN", "addr:country": "US", "addr:postcode": "29803", "addr:state": "SC", "addr:street_address": "1800 HUNTSMAN DR", "amenity": "post_box", "collection_times": "Mo-Sa 16:15", "note": "ON 12/24 AND 12/31, THIS BOX MAY BE COLLECTED AS EARLY AS 12 NOON.", "nsi_id": "unitedstatespostalservice-a77078", "operator": "United States Postal Service", "operator:short": "USPS", "operator:type": "public", "operator:wikidata": "Q668687", "ref": "2980300001"}, "type": "Feature"}
{"geometry": {"coordinates": [-81.7337757652, 33.5128028791], "type": "Point"}, "id": "4f_RLjxojI5uTjSin373X21fBuo=", "properties": {"@source_uri": "https://tools.usps.com/UspsToolsRestServices/rest/POLocator/findLocations", "@spider": "usps_collection_boxes", "addr:city": "AIKEN", "addr:country": "US", "addr:postcode": "29803", "addr:state": "SC", "addr:street_address": "758 SILVER BLUFF RD", "amenity": "post_box", "collection_times": "Mo-Fr 17:00; Sa 16:30", "note": "ON 12/24 AND 12/31, THIS BOX MAY BE COLLECTED AS EARLY AS 12 NOON.", "nsi_id": "unitedstatespostalservice-a77078", "operator": "United States Postal Service", "operator:short": "USPS", "operator:type": "public", "operator:wikidata": "Q668687", "ref": "2980300006"}, "type": "Feature"}
{"geometry": {"coordinates": [-81.738317711, 33.510637998], "type": "Point"}, "id": "SyFIAh84FZRxrn4NU3JFXLio9V0=", "properties": {"@source_uri": "https://tools.usps.com/UspsToolsRestServices/rest/POLocator/findLocations", "@spider": "usps_collection_boxes", "addr:city": "AIKEN", "addr:country": "US", "addr:postcode": "29803", "addr:state": "SC", "addr:street_address": "1080 SILVER BLUFF RD", "amenity": "post_box", "collection_times": "Mo-Fr 17:00", "note": "ON 12/24 AND 12/31, THIS BOX MAY BE COLLECTED AS EARLY AS 12 NOON.", "nsi_id": "unitedstatespostalservice-a77078", "operator": "United States Postal Service", "operator:short": "USPS", "operator:type": "public", "operator:wikidata": "Q668687", "ref": "2980300007"}, "type": "Feature"}
{"geometry": {"coordinates": [-81.766063973, 33.462403496], "type": "Point"}, "id": "cxx5amZwby8tEc6zIrnR7hho1eI=", "properties": {"@source_uri": "https://tools.usps.com/UspsToolsRestServices/rest/POLocator/findLocations", "@spider": "usps_collection_boxes", "addr:city": "AIKEN", "addr:country": "US", "addr:postcode": "29803", "addr:state": "SC", "addr:street_address": "2100 SILVER BLUFF RD", "amenity": "post_box", "collection_times": "Mo-Fr 17:00", "note": "ON 12/24 AND 12/31, THIS BOX MAY BE COLLECTED AS EARLY AS 12 NOON.", "nsi_id": "unitedstatespostalservice-a77078", "operator": "United States Postal Service", "operator:short": "USPS", "operator:type": "public", "operator:wikidata": "Q668687", "ref": "2980300015"}, "type": "Feature"}
{"geometry": {"coordinates": [-81.722079, 33.523686], "type": "Point"}, "id": "jZOeVAJ9ZuPf94yYXyHWwxT9WQE=", "properties": {"@source_uri": "https://tools.usps.com/UspsToolsRestServices/rest/POLocator/findLocations", "@spider": "usps_collection_boxes", "addr:city": "AIKEN", "addr:country": "US", "addr:postcode": "29803", "addr:state": "SC", "addr:street_address": "1795 WHISKEY RD", "amenity": "post_box", "collection_times": "Mo-Fr 17:00; Sa 16:00", "note": "ON 12/24 AND 12/31, THIS BOX MAY BE COLLECTED AS EARLY AS 12 NOON.", "nsi_id": "unitedstatespostalservice-a77078", "operator": "United States Postal Service", "operator:short": "USPS", "operator:type": "public", "operator:wikidata": "Q668687", "ref": "2980300026"}, "type": "Feature"}
{"geometry": {"coordinates": [-81.718870329, 33.522211258], "type": "Point"}, "id": "7EFt0uVQjdE72GYJUWR_RxGcQ8E=", "properties": {"@source_uri": "https://tools.usps.com/UspsToolsRestServices/rest/POLocator/findLocations", "@spider": "usps_collection_boxes", "addr:city": "AIKEN", "addr:country": "US", "addr:postcode": "29803", "addr:state": "SC", "addr:street_address": "1909 WHISKEY RD", "amenity": "post_box", "collection_times": "Mo-Fr 16:45; Sa 16:00", "note": "ON 12/24 AND 12/31, THIS BOX MAY BE COLLECTED AS EARLY AS 12 NOON.", "nsi_id": "unitedstatespostalservice-a77078", "operator": "United States Postal Service", "operator:short": "USPS", "operator:type": "public", "operator:wikidata": "Q668687", "ref": "2980300029"}, "type": "Feature"}
{"geometry": {"coordinates": [-81.71065871, 33.523329112], "type": "Point"}, "id": "0XkFz-z_-KargYL9p5xvkQv29yk=", "properties": {"@source_uri": "https://tools.usps.com/UspsToolsRestServices/rest/POLocator/findLocations", "@spider": "usps_collection_boxes", "addr:city": "AIKEN", "addr:country": "US", "addr:postcode": "29803", "addr:state": "SC", "addr:street_address": "1993 S CENTENNIAL AVE", "amenity": "post_box", "collection_times": "Mo-Fr 16:45", "note": "ON 12/24 AND 12/31, THIS BOX MAY BE COLLECTED AS EARLY AS 12 NOON.", "nsi_id": "unitedstatespostalservice-a77078", "operator": "United States Postal Service", "operator:short": "USPS", "operator:type": "public", "operator:wikidata": "Q668687", "ref": "2980300031"}, "type": "Feature"}
{"geometry": {"coordinates": [-81.733835783, 33.512752713], "type": "Point"}, "id": "U4x9hj8EZWIBXVlh-mVn_Sf39GA=", "properties": {"@source_uri": "https://tools.usps.com/UspsToolsRestServices/rest/POLocator/findLocations", "@spider": "usps_collection_boxes", "addr:city": "AIKEN", "addr:country": "US", "addr:postcode": "29803", "addr:state": "SC", "addr:street_address": "758 SILVER BLUFF RD", "amenity": "post_box", "collection_times": "Mo-Fr 17:00; Sa 16:30", "indoor": "yes", "note": "ON 12/24 AND 12/31, THIS BOX MAY BE COLLECTED AS EARLY AS 12 NOON.", "nsi_id": "unitedstatespostalservice-a77078", "operator": "United States Postal Service", "operator:short": "USPS", "operator:type": "public", "operator:wikidata": "Q668687", "ref": "2980300032"}, "type": "Feature"}
{"geometry": {"coordinates": [-81.717169672, 33.518959654], "type": "Point"}, "id": "4M_aRaD39q2TSpjC6ftgsv3zmIg=", "properties": {"@source_uri": "https://tools.usps.com/UspsToolsRestServices/rest/POLocator/findLocations", "@spider": "usps_collection_boxes", "addr:city": "AIKEN", "addr:country": "US", "addr:postcode": "29803", "addr:state": "SC", "addr:street_address": "2035 WHISKEY RD", "amenity": "post_box", "collection_times": "Mo-Fr 16:45; Sa 16:15", "note": "ON 12/24 AND 12/31, THIS BOX MAY BE COLLECTED AS EARLY AS 12 NOON.", "nsi_id": "unitedstatespostalservice-a77078", "operator": "United States Postal Service", "operator:short": "USPS", "operator:type": "public", "operator:wikidata": "Q668687", "ref": "2980300038"}, "type": "Feature"}
{"geometry": {"coordinates": [-81.733835783, 33.512752713], "type": "Point"}, "id": "A8fB17R-nDtaiO9LGqeXLw9NMQ0=", "properties": {"@source_uri": "https://tools.usps.com/UspsToolsRestServices/rest/POLocator/findLocations", "@spider": "usps_collection_boxes", "addr:city": "AIKEN", "addr:country": "US", "addr:postcode": "29803", "addr:state": "SC", "addr:street_address": "758 SILVER BLUFF RD", "amenity": "post_box", "collection_times": "Mo-Fr 17:00; Sa 16:30", "indoor": "yes", "note": "ON 12/24 AND 12/31, THIS BOX MAY BE COLLECTED AS EARLY AS 12 NOON.", "nsi_id": "unitedstatespostalservice-a77078", "operator": "United States Postal Service", "operator:short": "USPS", "operator:type": "public", "operator:wikidata": "Q668687", "ref": "2980300045"}, "type": "Feature"}
{"geometry": {"coordinates": [-81.7243719777, 33.5326367891], "type": "Point"}, "id": "bTfn7l5XfGW36shCYnqFzRlRbYI=", "properties": {"@source_uri": "https://tools.usps.com/UspsToolsRestServices/rest/POLocator/findLocations", "@spider": "usps_collection_boxes", "addr:city": "AIKEN", "addr:country": "US", "addr:postcode": "29803", "addr:state": "SC", "addr:street_address": "1521 WHISKEY RD", "amenity": "post_box", "collection_times": "Mo-Sa 16:45", "note": "ON 12/24 AND 12/31, THIS BOX MAY BE COLLECTED AS EARLY AS 12 NOON.", "nsi_id": "unitedstatespostalservice-a77078", "operator": "United States Postal Service", "operator:short": "USPS", "operator:type": "public", "operator:wikidata": "Q668687", "ref": "2980300047"}, "type": "Feature"}
{"geometry": {"coordinates": [-81.685720116, 33.425431418], "type": "Point"}, "id": "5SelUkD9EVpY6c6KXnNQpovkqow=", "properties": {"@source_uri": "https://tools.usps.com/UspsToolsRestServices/rest/POLocator/findLocations", "@spider": "usps_collection_boxes", "addr:city": "NEW ELLENTON", "addr:country": "US", "addr:postcode": "29809", "addr:state": "SC", "addr:street_address": "518 MAIN ST N", "amenity": "post_box", "collection_times": "Mo-Fr 17:00; Sa 12:00", "note": "ON 12/24 AND 12/31, THIS BOX MAY BE COLLECTED AS EARLY AS 12 NOON.", "nsi_id": "unitedstatespostalservice-a77078", "operator": "United States Postal Service", "operator:short": "USPS", "operator:type": "public", "operator:wikidata": "Q668687", "ref": "2980900003"}, "type": "Feature"}
{"geometry": {"coordinates": [-81.685720116, 33.425431418], "type": "Point"}, "id": "kXI3SjwSr7pkOmsilYeaxj0QE2g=", "properties": {"@source_uri": "https://tools.usps.com/UspsToolsRestServices/rest/POLocator/findLocations", "@spider": "usps_collection_boxes", "addr:city": "NEW ELLENTON", "addr:country": "US", "addr:postcode": "29809", "addr:state": "SC", "addr:street_address": "518 MAIN ST N", "amenity": "post_box", "collection_times": "Mo-Fr 17:00; Sa 12:00", "indoor": "yes", "note": "ON 12/24 AND 12/31, THIS BOX MAY BE COLLECTED AS EARLY AS 12 NOON.", "nsi_id": "unitedstatespostalservice-a77078", "operator": "United States Postal Service", "operator:short": "USPS", "operator:type": "public", "operator:wikidata": "Q668687", "ref": "2980900005"}, "type": "Feature"}
{"geometry": {"coordinates": [-81.685720116, 33.425431418], "type": "Point"}, "id": "lcDccU_ezwNQCQU5DF2y911NL-Y=", "properties": {"@source_uri": "https://tools.usps.com/UspsToolsRestServices/rest/POLocator/findLocations", "@spider": "usps_collection_boxes", "addr:city": "NEW ELLENTON", "addr:country": "US", "addr:postcode": "29809", "addr:state": "SC", "addr:street_address": "518 MAIN ST N", "amenity": "post_box", "collection_times": "Mo-Fr 17:00; Sa 12:00", "indoor": "yes", "note": "ON 12/24 AND 12/31, THIS BOX MAY BE COLLECTED AS EARLY AS 12 NOON.", "nsi_id": "unitedstatespostalservice-a77078", "operator": "United States Postal Service", "operator:short": "USPS", "operator:type": "public", "operator:wikidata": "Q668687", "ref": "2980900007"}, "type": "Feature"}
{"geometry": {"coordinates": [-81.309860385, 33.009225435], "type": "Point"}, "id": "a3QemITWDijXDVlGXmAsz0iHpls=", "properties": {"@source_uri": "https://tools.usps.com/UspsToolsRestServices/rest/POLocator/findLocations", "@spider": "usps_collection_boxes", "addr:city": "ALLENDALE", "addr:country": "US", "addr:postcode": "29810", "addr:state": "SC", "addr:street_address": "315 AUGUSTA HWY", "amenity": "post_box", "collection_times": "Mo-Fr 16:30; Sa 11:30", "note": "ON 12/24 AND 12/31, THIS BOX MAY BE COLLECTED AS EARLY AS 12 NOON.", "nsi_id": "unitedstatespostalservice-a77078", "operator": "United States Postal Service", "operator:short": "USPS", "operator:type": "public", "operator:wikidata": "Q668687", "ref": "2981000001"}, "type": "Feature"}
{"geometry": {"coordinates": [-81.309860385, 33.009225435], "type": "Point"}, "id": "B-WYJbflgBrQbxRrP9DNzhWZMVI=", "properties": {"@source_uri": "https://tools.usps.com/UspsToolsRestServices/rest/POLocator/findLocations", "@spider": "usps_collection_boxes", "addr:city": "ALLENDALE", "addr:country": "US", "addr:postcode": "29810", "addr:state": "SC", "addr:street_address": "315 AUGUSTA HWY", "amenity": "post_box", "collection_times": "Mo-Fr 16:30; Sa 11:30", "indoor": "yes", "note": "ON 12/24 AND 12/31, THIS BOX MAY BE COLLECTED AS EARLY AS 12 NOON.", "nsi_id": "unitedstatespostalservice-a77078", "operator": "United States Postal Service", "operator:short": "USPS", "operator:type": "public", "operator:wikidata": "Q668687", "ref": "2981000007"}, "type": "Feature"}
{"geometry": {"coordinates": [-81.309860385, 33.009225435], "type": "Point"}, "id": "8ySTfptLZhGJbIr7mf9gyWtUBFQ=", "properties": {"@source_uri": "https://tools.usps.com/UspsToolsRestServices/rest/POLocator/findLocations", "@spider": "usps_collection_boxes", "addr:city": "ALLENDALE", "addr:country": "US", "addr:postcode": "29810", "addr:state": "SC", "addr:street_address": "315 AUGUSTA HWY", "amenity": "post_box", "collection_times": "Mo-Fr 16:30; Sa 11:30", "indoor": "yes", "note": "ON 12/24 AND 12/31, THIS BOX MAY BE COLLECTED AS EARLY AS 12 NOON.", "nsi_id": "unitedstatespostalservice-a77078", "operator": "United States Postal Service", "operator:short": "USPS", "operator:type": "public", "operator:wikidata": "Q668687", "ref": "2981000013"}, "type": "Feature"}
{"geometry": {"coordinates": [-81.363665048, 33.243876571], "type": "Point"}, "id": "33XtJvoOpbuldWVLsmIRV88xXcM=", "properties": {"@source_uri": "https://tools.usps.com/UspsToolsRestServices/rest/POLocator/findLocations", "@spider": "usps_collection_boxes", "addr:city": "BARNWELL", "addr:country": "US", "addr:postcode": "29812", "addr:state": "SC", "addr:street_address": "221 MAIN ST", "amenity": "post_box", "collection_times": "Mo-Fr 16:45; Sa 12:00", "indoor": "yes", "note": "ON 12/24 AND 12/31, THIS BOX MAY BE COLLECTED AS EARLY AS 12 NOON.", "nsi_id": "unitedstatespostalservice-a77078", "operator": "United States Postal Service", "operator:short": "USPS", "operator:type": "public", "operator:wikidata": "Q668687", "ref": "2981200003"}, "type": "Feature"}
{"geometry": {"coordinates": [-81.363665048, 33.243876571], "type": "Point"}, "id": "9t_sQ7z1ecHxdKJ-PZo0XF2eyDY=", "properties": {"@source_uri": "https://tools.usps.com/UspsToolsRestServices/rest/POLocator/findLocations", "@spider": "usps_collection_boxes", "addr:city": "BARNWELL", "addr:country": "US", "addr:postcode": "29812", "addr:state": "SC", "addr:street_address": "221 MAIN ST", "amenity": "post_box", "collection_times": "Mo-Fr 16:45; Sa 12:00", "note": "ON 12/24 AND 12/31, THIS BOX MAY BE COLLECTED AS EARLY AS 12 NOON.", "nsi_id": "unitedstatespostalservice-a77078", "operator": "United States Postal Service", "operator:short": "USPS", "operator:type": "public", "operator:wikidata": "Q668687", "ref": "2981200008"}, "type": "Feature"}
{"geometry": {"coordinates": [-81.363665048, 33.243876571], "type": "Point"}, "id": "gu3VAiXLmw95xHS1mAJ8KQbKLLE=", "properties": {"@source_uri": "https://tools.usps.com/UspsToolsRestServices/rest/POLocator/findLocations", "@spider": "usps_collection_boxes", "addr:city": "BARNWELL", "addr:country": "US", "addr:postcode": "29812", "addr:state": "SC", "addr:street_address": "221 MAIN ST", "amenity": "post_box", "collection_times": "Mo-Fr 16:45; Sa 12:00", "indoor": "yes", "note": "ON 12/24 AND 12/31, THIS BOX MAY BE COLLECTED AS EARLY AS 12 NOON.", "nsi_id": "unitedstatespostalservice-a77078", "operator": "United States Postal Service", "operator:short": "USPS", "operator:type": "public", "operator:wikidata": "Q668687", "ref": "2981200012"}, "type": "Feature"}
{"geometry": {"coordinates": [-81.875262132, 33.501448591], "type": "Point"}, "id": "6f6OnkjKplVwZjWBEx71TiqOuJY=", "properties": {"@source_uri": "https://tools.usps.com/UspsToolsRestServices/rest/POLocator/findLocations", "@spider": "usps_collection_boxes", "addr:city": "BATH", "addr:country": "US", "addr:postcode": "29816", "addr:state": "SC", "addr:street_address": "3880 AUGUSTA RD", "amenity": "post_box", "collection_times": "Mo-Fr 16:30; Sa 11:30", "note": "ON 12/24 AND 12/31, THIS BOX MAY BE COLLECTED AS EARLY AS 12 NOON.", "nsi_id": "unitedstatespostalservice-a77078", "operator": "United States Postal Service", "operator:short": "USPS", "operator:type": "public", "operator:wikidata": "Q668687", "ref": "2981600001"}, "type": "Feature"}
{"geometry": {"coordinates": [-81.875262132, 33.501448591], "type": "Point"}, "id": "XRsFNE26TBpe2ognWwRCS4D5hp0=", "properties": {"@source_uri": "https://tools.usps.com/UspsToolsRestServices/rest/POLocator/findLocations", "@spider": "usps_collection_boxes", "addr:city": "BATH", "addr:country": "US", "addr:postcode": "29816", "addr:state": "SC", "addr:street_address": "3880 AUGUSTA RD", "amenity": "post_box", "collection_times": "Mo-Fr 16:30; Sa 11:30", "indoor": "yes", "note": "ON 12/24 AND 12/31, THIS BOX MAY BE COLLECTED AS EARLY AS 12 NOON.", "nsi_id": "unitedstatespostalservice-a77078", "operator": "United States Postal Service", "operator:short": "USPS", "operator:type": "public", "operator:wikidata": "Q668687", "ref": "2981600002"}, "type": "Feature"}
{"geometry": {"coordinates": [-81.875262132, 33.501448591], "type": "Point"}, "id": "hbkgDR88epbTmfP0MesMINkDdis=", "properties": {"@source_uri": "https://tools.usps.com/UspsToolsRestServices/rest/POLocator/findLocations", "@spider": "usps_collection_boxes", "addr:city": "BATH", "addr:country": "US", "addr:postcode": "29816", "addr:state": "SC", "addr:street_address": "3880 AUGUSTA RD", "amenity": "post_box", "collection_times": "Mo-Fr 16:30; Sa 11:30", "indoor": "yes", "note": "ON 12/24 AND 12/31, THIS BOX MAY BE COLLECTED AS EARLY AS 12 NOON.", "nsi_id": "unitedstatespostalservice-a77078", "operator": "United States Postal Service", "operator:short": "USPS", "operator:type": "public", "operator:wikidata": "Q668687", "ref": "2981600004"}, "type": "Feature"}
{"geometry": {"coordinates": [-81.269671007, 33.355257097], "type": "Point"}, "id": "zM-XzRNEiO0JhgMIY0OggJX89tE=", "properties": {"@source_uri": "https://tools.usps.com/UspsToolsRestServices/rest/POLocator/findLocations", "@spider": "usps_collection_boxes", "addr:city": "BLACKVILLE", "addr:country": "US", "addr:postcode": "29817", "addr:state": "SC", "addr:street_address": "476 MAIN ST", "amenity": "post_box", "collection_times": "Mo-Fr 16:45; Sa 12:00", "note": "ON 12/24 AND 12/31, THIS BOX MAY BE COLLECTED AS EARLY AS 12 NOON.", "nsi_id": "unitedstatespostalservice-a77078", "operator": "United States Postal Service", "operator:short": "USPS", "operator:type": "public", "operator:wikidata": "Q668687", "ref": "2981700001"}, "type": "Feature"}
{"geometry": {"coordinates": [-81.269671007, 33.355257097], "type": "Point"}, "id": "7OHsRSDXsGLwt5iqnlPJOPXFIKQ=", "properties": {"@source_uri": "https://tools.usps.com/UspsToolsRestServices/rest/POLocator/findLocations", "@spider": "usps_collection_boxes", "addr:city": "BLACKVILLE", "addr:country": "US", "addr:postcode": "29817", "addr:state": "SC", "addr:street_address": "476 MAIN ST", "amenity": "post_box", "collection_times": "Mo-Fr 16:45; Sa 12:00", "indoor": "yes", "note": "ON 12/24 AND 12/31, THIS BOX MAY BE COLLECTED AS EARLY AS 12 NOON.", "nsi_id": "unitedstatespostalservice-a77078", "operator": "United States Postal Service", "operator:short": "USPS", "operator:type": "public", "operator:wikidata": "Q668687", "ref": "2981700003"}, "type": "Feature"}
{"geometry": {"coordinates": [-81.269671007, 33.355257097], "type": "Point"}, "id": "2l2ShQ5O7ZN8Nn7octuIo47otpc=", "properties": {"@source_uri": "https://tools.usps.com/UspsToolsRestServices/rest/POLocator/findLocations", "@spider": "usps_collection_boxes", "addr:city": "BLACKVILLE", "addr:country": "US", "addr:postcode": "29817", "addr:state": "SC", "addr:street_address": "476 MAIN ST", "amenity": "post_box", "collection_times": "Mo-Fr 16:45; Sa 12:00", "indoor": "yes", "note": "ON 12/24 AND 12/31, THIS BOX MAY BE COLLECTED AS EARLY AS 12 NOON.", "nsi_id": "unitedstatespostalservice-a77078", "operator": "United States Postal Service", "operator:short": "USPS", "operator:type": "public", "operator:wikidata": "Q668687", "ref": "2981700005"}, "type": "Feature"}
{"geometry": {"coordinates": [-82.24430107, 34.048036647], "type": "Point"}, "id": "fpbMxRTeT7qSkt8LsGPSxlgLN60=", "properties": {"@source_uri": "https://tools.usps.com/UspsToolsRestServices/rest/POLocator/findLocations", "@spider": "usps_collection_boxes", "addr:city": "BRADLEY", "addr:country": "US", "addr:postcode": "29819", "addr:state": "SC", "addr:street_address": "103 MILL ST", "amenity": "post_box", "collection_times": "Mo-Fr 16:00; Sa 11:45", "indoor": "yes", "note": "ON 12/24 AND 12/31, THIS BOX MAY BE COLLECTED AS EARLY AS 12 NOON.", "nsi_id": "unitedstatespostalservice-a77078", "operator": "United States Postal Service", "operator:short": "USPS", "operator:type": "public", "operator:wikidata": "Q668687", "ref": "2981900002"}, "type": "Feature"}
{"geometry": {"coordinates": [-82.24430107, 34.048036647], "type": "Point"}, "id": "ufi5hsvqD8BPl6HaReQq8Y4ssw0=", "properties": {"@source_uri": "https://tools.usps.com/UspsToolsRestServices/rest/POLocator/findLocations", "@spider": "usps_collection_boxes", "addr:city": "BRADLEY", "addr:country": "US", "addr:postcode": "29819", "addr:state": "SC", "addr:street_address": "103 MILL ST", "amenity": "post_box", "collection_times": "Mo-Fr 16:00; Sa 11:45", "indoor": "yes", "note": "ON 12/24 AND 12/31, THIS BOX MAY BE COLLECTED AS EARLY AS 12 NOON.", "nsi_id": "unitedstatespostalservice-a77078", "operator": "United States Postal Service", "operator:short": "USPS", "operator:type": "public", "operator:wikidata": "Q668687", "ref": "2981900004"}, "type": "Feature"}
{"geometry": {"coordinates": [-82.1270101, 33.64918], "type": "Point"}, "id": "-5HVpFrEnVfHXX6XT0_qmgeH2uE=", "properties": {"@source_uri": "https://tools.usps.com/UspsToolsRestServices/rest/POLocator/findLocations", "@spider": "usps_collection_boxes", "addr:city": "CLARKS HILL", "addr:country": "US", "addr:postcode": "29821", "addr:state": "SC", "addr:street_address": "13423 SC HIGHWAY 28", "amenity": "post_box", "collection_times": "Mo-Fr 12:00; Sa 11:00", "nsi_id": "unitedstatespostalservice-a77078", "operator": "United States Postal Service", "operator:short": "USPS", "operator:type": "public", "operator:wikidata": "Q668687", "ref": "2982100001"}, "type": "Feature"}
{"geometry": {"coordinates": [-82.174057149, 33.671049862], "type": "Point"}, "id": "xoCEC6tKrrm_WnRbwDdptyUHg-g=", "properties": {"@source_uri": "https://tools.usps.com/UspsToolsRestServices/rest/POLocator/findLocations", "@spider": "usps_collection_boxes", "addr:city": "CLARKS HILL", "addr:country": "US", "addr:postcode": "29821", "addr:state": "SC", "addr:street_address": "13423 SC HIGHWAY 28", "amenity": "post_box", "collection_times": "Mo-Fr 12:00; Sa 11:00", "indoor": "yes", "nsi_id": "unitedstatespostalservice-a77078", "operator": "United States Postal Service", "operator:short": "USPS", "operator:type": "public", "operator:wikidata": "Q668687", "ref": "2982100002"}, "type": "Feature"}
{"geometry": {"coordinates": [-82.174057149, 33.671049862], "type": "Point"}, "id": "MVzUlWAisBM9iJhjOA1EHabBCZk=", "properties": {"@source_uri": "https://tools.usps.com/UspsToolsRestServices/rest/POLocator/findLocations", "@spider": "usps_collection_boxes", "addr:city": "CLARKS HILL", "addr:country": "US", "addr:postcode": "29821", "addr:state": "SC", "addr:street_address": "13423 SC HIGHWAY 28", "amenity": "post_box", "collection_times": "Mo-Fr 12:00; Sa 11:00", "indoor": "yes", "nsi_id": "unitedstatespostalservice-a77078", "operator": "United States Postal Service", "operator:short": "USPS", "operator:type": "public", "operator:wikidata": "Q668687", "ref": "2982100004"}, "type": "Feature"}
{"geometry": {"coordinates": [-81.895512, 33.499113], "type": "Point"}, "id": "uHhfbStdew59xKD1ngXcOymeU3w=", "properties": {"@source_uri": "https://tools.usps.com/UspsToolsRestServices/rest/POLocator/findLocations", "@spider": "usps_collection_boxes", "addr:city": "CLEARWATER", "addr:country": "US", "addr:postcode": "29822", "addr:state": "SC", "addr:street_address": "4435 JEFFERSON DAVIS HWY", "amenity": "post_box", "collection_times": "Mo-Fr 17:00; Sa 12:30", "note": "ON 12/24 AND 12/31, THIS BOX MAY BE COLLECTED AS EARLY AS 12 NOON.", "nsi_id": "unitedstatespostalservice-a77078", "operator": "United States Postal Service", "operator:short": "USPS", "operator:type": "public", "operator:wikidata": "Q668687", "ref": "2982200006"}, "type": "Feature"}
{"geometry": {"coordinates": [-81.895512, 33.499113], "type": "Point"}, "id": "Z6ShYLaDLVUKra9rijQb75esnu0=", "properties": {"@source_uri": "https://tools.usps.com/UspsToolsRestServices/rest/POLocator/findLocations", "@spider": "usps_collection_boxes", "addr:city": "CLEARWATER", "addr:country": "US", "addr:postcode": "29822", "addr:state": "SC", "addr:street_address": "4435 JEFFERSON DAVIS HWY", "amenity": "post_box", "collection_times": "Mo-Fr 17:00; Sa 12:30", "indoor": "yes", "note": "ON 12/24 AND 12/31, THIS BOX MAY BE COLLECTED AS EARLY AS 12 NOON.", "nsi_id": "unitedstatespostalservice-a77078", "operator": "United States Postal Service", "operator:short": "USPS", "operator:type": "public", "operator:wikidata": "Q668687", "ref": "2982200007"}, "type": "Feature"}
{"geometry": {"coordinates": [-81.895512, 33.499113], "type": "Point"}, "id": "v1Eqh0KBcHrrhxNRaxHsAPv3NDk=", "properties": {"@source_uri": "https://tools.usps.com/UspsToolsRestServices/rest/POLocator/findLocations", "@spider": "usps_collection_boxes", "addr:city": "CLEARWATER", "addr:country": "US", "addr:postcode": "29822", "addr:state": "SC", "addr:street_address": "4435 JEFFERSON DAVIS HWY", "amenity": "post_box", "collection_times": "Mo-Fr 17:00; Sa 12:30", "indoor": "yes", "note": "ON 12/24 AND 12/31, THIS BOX MAY BE COLLECTED AS EARLY AS 12 NOON.", "nsi_id": "unitedstatespostalservice-a77078", "operator": "United States Postal Service", "operator:short": "USPS", "operator:type": "public", "operator:wikidata": "Q668687", "ref": "2982200008"}, "type": "Feature"}
{"geometry": {"coordinates": [-81.927892526, 33.788254401], "type": "Point"}, "id": "V7ZgGNU8AVnwieozR9Cfz8Wip18=", "properties": {"@source_uri": "https://tools.usps.com/UspsToolsRestServices/rest/POLocator/findLocations", "@spider": "usps_collection_boxes", "addr:city": "EDGEFIELD", "addr:country": "US", "addr:postcode": "29824", "addr:state": "SC", "addr:street_address": "325 BACON ST", "amenity": "post_box", "collection_times": "Mo-Fr 17:00; Sa 12:00", "note": "ON 12/24 AND 12/31, THIS BOX MAY BE COLLECTED AS EARLY AS 12 NOON.", "nsi_id": "unitedstatespostalservice-a77078", "operator": "United States Postal Service", "operator:short": "USPS", "operator:type": "public", "operator:wikidata": "Q668687", "ref": "2982400003"}, "type": "Feature"}
{"geometry": {"coordinates": [-81.929924419, 33.789406197], "type": "Point"}, "id": "6M2wy9B8tU-9YynprZO7jNlaS5M=", "properties": {"@source_uri": "https://tools.usps.com/UspsToolsRestServices/rest/POLocator/findLocations", "@spider": "usps_collection_boxes", "addr:city": "EDGEFIELD", "addr:country": "US", "addr:postcode": "29824", "addr:state": "SC", "addr:street_address": "129 COURTHOUSE SQ", "amenity": "post_box", "collection_times": "Mo-Fr 15:15", "note": "ON 12/24 AND 12/31, THIS BOX MAY BE COLLECTED AS EARLY AS 12 NOON.", "nsi_id": "unitedstatespostalservice-a77078", "operator": "United States Postal Service", "operator:short": "USPS", "operator:type": "public", "operator:wikidata": "Q668687", "ref": "2982400007"}, "type": "Feature"}
{"geometry": {"coordinates": [-81.927892526, 33.788254401], "type": "Point"}, "id": "pDolhMlfCma7m622cvEr2HiHnKI=", "properties": {"@source_uri": "https://tools.usps.com/UspsToolsRestServices/rest/POLocator/findLocations", "@spider": "usps_collection_boxes", "addr:city": "EDGEFIELD", "addr:country": "US", "addr:postcode": "29824", "addr:state": "SC", "addr:street_address": "325 BACON ST", "amenity": "post_box", "collection_times": "Mo-Fr 17:00; Sa 12:00", "indoor": "yes", "note": "ON 12/24 AND 12/31, THIS BOX MAY BE COLLECTED AS EARLY AS 12 NOON.", "nsi_id": "unitedstatespostalservice-a77078", "operator": "United States Postal Service", "operator:short": "USPS", "operator:type": "public", "operator:wikidata": "Q668687", "ref": "2982400008"}, "type": "Feature"}
{"geometry": {"coordinates": [-81.927892526, 33.788254401], "type": "Point"}, "id": "CseEeC3k__ZsTquvghO3kFa2vEE=", "properties": {"@source_uri": "https://tools.usps.com/UspsToolsRestServices/rest/POLocator/findLocations", "@spider": "usps_collection_boxes", "addr:city": "EDGEFIELD", "addr:country": "US", "addr:postcode": "29824", "addr:state": "SC", "addr:street_address": "325 BACON ST", "amenity": "post_box", "collection_times": "Mo-Fr 17:00; Sa 12:00", "indoor": "yes", "note": "ON 12/24 AND 12/31, THIS BOX MAY BE COLLECTED AS EARLY AS 12 NOON.", "nsi_id": "unitedstatespostalservice-a77078", "operator": "United States Postal Service", "operator:short": "USPS", "operator:type": "public", "operator:wikidata": "Q668687", "ref": "2982400010"}, "type": "Feature"}
{"geometry": {"coordinates": [-81.37999544, 33.380786325], "type": "Point"}, "id": "Dpkpw_RQdmFLBjmBxFtAXiH_xvc=", "properties": {"@source_uri": "https://tools.usps.com/UspsToolsRestServices/rest/POLocator/findLocations", "@spider": "usps_collection_boxes", "addr:city": "ELKO", "addr:country": "US", "addr:postcode": "29826", "addr:state": "SC", "addr:street_address": "10049 US HIGHWAY 78", "amenity": "post_box", "collection_times": "Mo-Fr 12:30; Sa 11:00", "note": "ON 12/24 AND 12/31, THIS BOX MAY BE COLLECTED AS EARLY AS 12 NOON.", "nsi_id": "unitedstatespostalservice-a77078", "operator": "United States Postal Service", "operator:short": "USPS", "operator:type": "public", "operator:wikidata": "Q668687", "ref": "2982600001"}, "type": "Feature"}
{"geometry": {"coordinates": [-81.37999544, 33.380786325], "type": "Point"}, "id": "LeRjsuAFJRdhEjxksAgp89P8_3w=", "properties": {"@source_uri": "https://tools.usps.com/UspsToolsRestServices/rest/POLocator/findLocations", "@spider": "usps_collection_boxes", "addr:city": "ELKO", "addr:country": "US", "addr:postcode": "29826", "addr:state": "SC", "addr:street_address": "10049 US HIGHWAY 78", "amenity": "post_box", "collection_times": "Mo-Fr 12:30; Sa 11:00", "indoor": "yes", "note": "ON 12/24 AND 12/31, THIS BOX MAY BE COLLECTED AS EARLY AS 12 NOON.", "nsi_id": "unitedstatespostalservice-a77078", "operator": "United States Postal Service", "operator:short": "USPS", "operator:type": "public", "operator:wikidata": "Q668687", "ref": "2982600002"}, "type": "Feature"}
{"geometry": {"coordinates": [-81.37999544, 33.380786325], "type": "Point"}, "id": "x7yfYyNYr8tvala_9hxac87R78U=", "properties": {"@source_uri": "https://tools.usps.com/UspsToolsRestServices/rest/POLocator/findLocations", "@spider": "usps_collection_boxes", "addr:city": "ELKO", "addr:country": "US", "addr:postcode": "29826", "addr:state": "SC", "addr:street_address": "10049 US HIGHWAY 78", "amenity": "post_box", "collection_times": "Mo-Fr 12:30; Sa 11:00", "indoor": "yes", "note": "ON 12/24 AND 12/31, THIS BOX MAY BE COLLECTED AS EARLY AS 12 NOON.", "nsi_id": "unitedstatespostalservice-a77078", "operator": "United States Postal Service", "operator:short": "USPS", "operator:type": "public", "operator:wikidata": "Q668687", "ref": "2982600003"}, "type": "Feature"}
{"geometry": {"coordinates": [-81.236688299, 32.959411743], "type": "Point"}, "id": "1oNPd7wuVT8tXGYPFN1pM7sBXSY=", "properties": {"@source_uri": "https://tools.usps.com/UspsToolsRestServices/rest/POLocator/findLocations", "@spider": "usps_collection_boxes", "addr:city": "FAIRFAX", "addr:country": "US", "addr:postcode": "29827", "addr:state": "SC", "addr:street_address": "190 PICKENS AVE N", "amenity": "post_box", "collection_times": "Mo-Fr 16:30; Sa 12:00", "indoor": "yes", "note": "ON 12/24 AND 12/31, THIS BOX MAY BE COLLECTED AS EARLY AS 12 NOON.", "nsi_id": "unitedstatespostalservice-a77078", "operator": "United States Postal Service", "operator:short": "USPS", "operator:type": "public", "operator:wikidata": "Q668687", "ref": "2982700003"}, "type": "Feature"}
{"geometry": {"coordinates": [-81.236688299, 32.959411743], "type": "Point"}, "id": "G8JVVmU-sEbTo0tca_ZGouq2094=", "properties": {"@source_uri": "https://tools.usps.com/UspsToolsRestServices/rest/POLocator/findLocations", "@spider": "usps_collection_boxes", "addr:city": "FAIRFAX", "addr:country": "US", "addr:postcode": "29827", "addr:state": "SC", "addr:street_address": "190 PICKENS AVE N", "amenity": "post_box", "collection_times": "Mo-Fr 16:30; Sa 12:00", "note": "ON 12/24 AND 12/31, THIS BOX MAY BE COLLECTED AS EARLY AS 12 NOON.", "nsi_id": "unitedstatespostalservice-a77078", "operator": "United States Postal Service", "operator:short": "USPS", "operator:type": "public", "operator:wikidata": "Q668687", "ref": "2982700005"}, "type": "Feature"}
{"geometry": {"coordinates": [-81.236688299, 32.959411743], "type": "Point"}, "id": "FKXuI39BZdtdIZkujdh-GyQDwHw=", "properties": {"@source_uri": "https://tools.usps.com/UspsToolsRestServices/rest/POLocator/findLocations", "@spider": "usps_collection_boxes", "addr:city": "FAIRFAX", "addr:country": "US", "addr:postcode": "29827", "addr:state": "SC", "addr:street_address": "190 PICKENS AVE N", "amenity": "post_box", "collection_times": "Mo-Fr 16:30; Sa 12:00", "indoor": "yes", "note": "ON 12/24 AND 12/31, THIS BOX MAY BE COLLECTED AS EARLY AS 12 NOON.", "nsi_id": "unitedstatespostalservice-a77078", "operator": "United States Postal Service", "operator:short": "USPS", "operator:type": "public", "operator:wikidata": "Q668687", "ref": "2982700006"}, "type": "Feature"}
{"geometry": {"coordinates": [-81.831628182, 33.524774967], "type": "Point"}, "id": "37EvxWWx4urOeSnLf7OvwO5G6RI=", "properties": {"@source_uri": "https://tools.usps.com/UspsToolsRestServices/rest/POLocator/findLocations", "@spider": "usps_collection_boxes", "addr:city": "GLOVERVILLE", "addr:country": "US", "addr:postcode": "29828", "addr:state": "SC", "addr:street_address": "2298 AUGUSTA RD", "amenity": "post_box", "collection_times": "Mo-Sa 12:00", "nsi_id": "unitedstatespostalservice-a77078", "operator": "United States Postal Service", "operator:short": "USPS", "operator:type": "public", "operator:wikidata": "Q668687", "ref": "2982800001"}, "type": "Feature"}
{"geometry": {"coordinates": [-81.831628182, 33.524774967], "type": "Point"}, "id": "MpidJJHFvKl8-L69mluBSv830is=", "properties": {"@source_uri": "https://tools.usps.com/UspsToolsRestServices/rest/POLocator/findLocations", "@spider": "usps_collection_boxes", "addr:city": "GLOVERVILLE", "addr:country": "US", "addr:postcode": "29828", "addr:state": "SC", "addr:street_address": "2298 AUGUSTA RD", "amenity": "post_box", "collection_times": "Mo-Sa 12:00", "indoor": "yes", "nsi_id": "unitedstatespostalservice-a77078", "operator": "United States Postal Service", "operator:short": "USPS", "operator:type": "public", "operator:wikidata": "Q668687", "ref": "2982800002"}, "type": "Feature"}
{"geometry": {"coordinates": [-81.831628182, 33.524774967], "type": "Point"}, "id": "tksiNgmRIgfCbLSOZBtfvoDdrec=", "properties": {"@source_uri": "https://tools.usps.com/UspsToolsRestServices/rest/POLocator/findLocations", "@spider": "usps_collection_boxes", "addr:city": "GLOVERVILLE", "addr:country": "US", "addr:postcode": "29828", "addr:state": "SC", "addr:street_address": "2298 AUGUSTA RD", "amenity": "post_box", "collection_times": "Mo-Sa 12:00", "indoor": "yes", "nsi_id": "unitedstatespostalservice-a77078", "operator": "United States Postal Service", "operator:short": "USPS", "operator:type": "public", "operator:wikidata": "Q668687", "ref": "2982800003"}, "type": "Feature"}
{"geometry": {"coordinates": [-81.807714162, 33.564343518], "type": "Point"}, "id": "M2rew4J9KcmI9oGSCdxx9CgVsDk=", "properties": {"@source_uri": "https://tools.usps.com/UspsToolsRestServices/rest/POLocator/findLocations", "@spider": "usps_collection_boxes", "addr:city": "GRANITEVILLE", "addr:country": "US", "addr:postcode": "29829", "addr:state": "SC", "addr:street_address": "50 CANAL ST", "amenity": "post_box", "collection_times": "Mo-Fr 16:30; Sa 12:00", "note": "ON 12/24 AND 12/31, THIS BOX MAY BE COLLECTED AS EARLY AS 12 NOON.", "nsi_id": "unitedstatespostalservice-a77078", "operator": "United States Postal Service", "operator:short": "USPS", "operator:type": "public", "operator:wikidata": "Q668687", "ref": "2982900003"}, "type": "Feature"}
{"geometry": {"coordinates": [-81.807714162, 33.564343518], "type": "Point"}, "id": "KYru4PjMMz4TbyBVvZ34t2HNHs4=", "properties": {"@source_uri": "https://tools.usps.com/UspsToolsRestServices/rest/POLocator/findLocations", "@spider": "usps_collection_boxes", "addr:city": "GRANITEVILLE", "addr:country": "US", "addr:postcode": "29829", "addr:state": "SC", "addr:street_address": "50 CANAL ST", "amenity": "post_box", "collection_times": "Mo-Fr 16:30; Sa 12:00", "indoor": "yes", "note": "ON 12/24 AND 12/31, THIS BOX MAY BE COLLECTED AS EARLY AS 12 NOON.", "nsi_id": "unitedstatespostalservice-a77078", "operator": "United States Postal Service", "operator:short": "USPS", "operator:type": "public", "operator:wikidata": "Q668687", "ref": "2982900004"}, "type": "Feature"}
{"geometry": {"coordinates": [-81.807714162, 33.564343518], "type": "Point"}, "id": "fO_VdNLS97UKRV7-ThvdYKFbWew=", "properties": {"@source_uri": "https://tools.usps.com/UspsToolsRestServices/rest/POLocator/findLocations", "@spider": "usps_collection_boxes", "addr:city": "GRANITEVILLE", "addr:country": "US", "addr:postcode": "29829", "addr:state": "SC", "addr:street_address": "50 CANAL ST", "amenity": "post_box", "collection_times": "Mo-Fr 16:30; Sa 12:00", "indoor": "yes", "note": "ON 12/24 AND 12/31, THIS BOX MAY BE COLLECTED AS EARLY AS 12 NOON.", "nsi_id": "unitedstatespostalservice-a77078", "operator": "United States Postal Service", "operator:short": "USPS", "operator:type": "public", "operator:wikidata": "Q668687", "ref": "2982900006"}, "type": "Feature"}
{"geometry": {"coordinates": [-81.787984968, 33.324583016], "type": "Point"}, "id": "B8-p-unaGg_9douuJourZdNpe4M=", "properties": {"@source_uri": "https://tools.usps.com/UspsToolsRestServices/rest/POLocator/findLocations", "@spider": "usps_collection_boxes", "addr:city": "JACKSON", "addr:country": "US", "addr:postcode": "29831", "addr:state": "SC", "addr:street_address": "100 MAIN ST", "amenity": "post_box", "collection_times": "Mo-Fr 17:00; Sa 11:30", "note": "ON 12/24 AND 12/31, THIS BOX MAY BE COLLECTED AS EARLY AS 12 NOON.", "nsi_id": "unitedstatespostalservice-a77078", "operator": "United States Postal Service", "operator:short": "USPS", "operator:type": "public", "operator:wikidata": "Q668687", "ref": "2983100001"}, "type": "Feature"}
{"geometry": {"coordinates": [-81.787586299, 33.324882655], "type": "Point"}, "id": "1Apl0RNDyKh8eXd6dtXkniX_cR8=", "properties": {"@source_uri": "https://tools.usps.com/UspsToolsRestServices/rest/POLocator/findLocations", "@spider": "usps_collection_boxes", "addr:city": "JACKSON", "addr:country": "US", "addr:postcode": "29831", "addr:state": "SC", "addr:street_address": "100 MAIN ST", "amenity": "post_box", "collection_times": "Mo-Fr 17:00; Sa 11:30", "indoor": "yes", "note": "ON 12/24 AND 12/31, THIS BOX MAY BE COLLECTED AS EARLY AS 12 NOON.", "nsi_id": "unitedstatespostalservice-a77078", "operator": "United States Postal Service", "operator:short": "USPS", "operator:type": "public", "operator:wikidata": "Q668687", "ref": "2983100002"}, "type": "Feature"}
{"geometry": {"coordinates": [-81.787586299, 33.324882655], "type": "Point"}, "id": "310aX-kBhjEm2hQS4k_yg98iMHo=", "properties": {"@source_uri": "https://tools.usps.com/UspsToolsRestServices/rest/POLocator/findLocations", "@spider": "usps_collection_boxes", "addr:city": "JACKSON", "addr:country": "US", "addr:postcode": "29831", "addr:state": "SC", "addr:street_address": "100 MAIN ST", "amenity": "post_box", "collection_times": "Mo-Fr 17:00; Sa 11:30", "indoor": "yes", "note": "ON 12/24 AND 12/31, THIS BOX MAY BE COLLECTED AS EARLY AS 12 NOON.", "nsi_id": "unitedstatespostalservice-a77078", "operator": "United States Postal Service", "operator:short": "USPS", "operator:type": "public", "operator:wikidata": "Q668687", "ref": "2983100004"}, "type": "Feature"}
{"geometry": {"coordinates": [-81.79913023, 33.8335606629], "type": "Point"}, "id": "zx6E0x5ymLp5vpspYrSVPdCg_sQ=", "properties": {"@source_uri": "https://tools.usps.com/UspsToolsRestServices/rest/POLocator/findLocations", "@spider": "usps_collection_boxes", "addr:city": "JOHNSTON", "addr:country": "US", "addr:postcode": "29832", "addr:state": "SC", "addr:street_address": "519 CALHOUN ST", "amenity": "post_box", "collection_times": "Mo-Fr 16:30; Sa 12:00", "note": "ON 12/24 AND 12/31, THIS BOX MAY BE COLLECTED AS EARLY AS 12 NOON.", "nsi_id": "unitedstatespostalservice-a77078", "operator": "United States Postal Service", "operator:short": "USPS", "operator:type": "public", "operator:wikidata": "Q668687", "ref": "2983200001"}, "type": "Feature"}
{"geometry": {"coordinates": [-81.79957823, 33.8329936], "type": "Point"}, "id": "qz95sngrRlcZEXlL_2dbhtJmCa4=", "properties": {"@source_uri": "https://tools.usps.com/UspsToolsRestServices/rest/POLocator/findLocations", "@spider": "usps_collection_boxes", "addr:city": "JOHNSTON", "addr:country": "US", "addr:postcode": "29832", "addr:state": "SC", "addr:street_address": "519 CALHOUN ST", "amenity": "post_box", "collection_times": "Mo-Fr 16:30; Sa 12:00", "indoor": "yes", "note": "ON 12/24 AND 12/31, THIS BOX MAY BE COLLECTED AS EARLY AS 12 NOON.", "nsi_id": "unitedstatespostalservice-a77078", "operator": "United States Postal Service", "operator:short": "USPS", "operator:type": "public", "operator:wikidata": "Q668687", "ref": "2983200009"}, "type": "Feature"}
{"geometry": {"coordinates": [-81.79957823, 33.8329936], "type": "Point"}, "id": "h2SGkC-IpByTennFRyLGbnCal3A=", "properties": {"@source_uri": "https://tools.usps.com/UspsToolsRestServices/rest/POLocator/findLocations", "@spider": "usps_collection_boxes", "addr:city": "JOHNSTON", "addr:country": "US", "addr:postcode": "29832", "addr:state": "SC", "addr:street_address": "519 CALHOUN ST", "amenity": "post_box", "collection_times": "Mo-Fr 16:30; Sa 12:00", "indoor": "yes", "note": "ON 12/24 AND 12/31, THIS BOX MAY BE COLLECTED AS EARLY AS 12 NOON.", "nsi_id": "unitedstatespostalservice-a77078", "operator": "United States Postal Service", "operator:short": "USPS", "operator:type": "public", "operator:wikidata": "Q668687", "ref": "2983200011"}, "type": "Feature"}
{"geometry": {"coordinates": [-81.8438855435, 33.5180233939], "type": "Point"}, "id": "RFIpFlxg1bhL3gcy8tXAY4T5N6s=", "properties": {"@source_uri": "https://tools.usps.com/UspsToolsRestServices/rest/POLocator/findLocations", "@spider": "usps_collection_boxes", "addr:city": "LANGLEY", "addr:country": "US", "addr:postcode": "29834", "addr:state": "SC", "addr:street_address": "2748 AUGUSTA RD", "amenity": "post_box", "collection_times": "Mo-Fr 16:30; Sa 12:00", "note": "ON 12/24 AND 12/31, THIS BOX MAY BE COLLECTED AS EARLY AS 12 NOON.", "nsi_id": "unitedstatespostalservice-a77078", "operator": "United States Postal Service", "operator:short": "USPS", "operator:type": "public", "operator:wikidata": "Q668687", "ref": "2983400001"}, "type": "Feature"}
{"geometry": {"coordinates": [-81.8439139, 33.518013839], "type": "Point"}, "id": "lEgtfQIHF-RLimC4wEZHqOKMpsY=", "properties": {"@source_uri": "https://tools.usps.com/UspsToolsRestServices/rest/POLocator/findLocations", "@spider": "usps_collection_boxes", "addr:city": "LANGLEY", "addr:country": "US", "addr:postcode": "29834", "addr:state": "SC", "addr:street_address": "2748 AUGUSTA RD", "amenity": "post_box", "collection_times": "Mo-Fr 16:30; Sa 12:00", "indoor": "yes", "note": "ON 12/24 AND 12/31, THIS BOX MAY BE COLLECTED AS EARLY AS 12 NOON.", "nsi_id": "unitedstatespostalservice-a77078", "operator": "United States Postal Service", "operator:short": "USPS", "operator:type": "public", "operator:wikidata": "Q668687", "ref": "2983400002"}, "type": "Feature"}
{"geometry": {"coordinates": [-81.8439139, 33.518013839], "type": "Point"}, "id": "X0fr41y-DLCHJLknX3lZHerCdws=", "properties": {"@source_uri": "https://tools.usps.com/UspsToolsRestServices/rest/POLocator/findLocations", "@spider": "usps_collection_boxes", "addr:city": "LANGLEY", "addr:country": "US", "addr:postcode": "29834", "addr:state": "SC", "addr:street_address": "2748 AUGUSTA RD", "amenity": "post_box", "collection_times": "Mo-Fr 16:30; Sa 12:00", "indoor": "yes", "note": "ON 12/24 AND 12/31, THIS BOX MAY BE COLLECTED AS EARLY AS 12 NOON.", "nsi_id": "unitedstatespostalservice-a77078", "operator": "United States Postal Service", "operator:short": "USPS", "operator:type": "public", "operator:wikidata": "Q668687", "ref": "2983400005"}, "type": "Feature"}
{"geometry": {"coordinates": [-82.294888675, 33.914352857], "type": "Point"}, "id": "MwyHhFH-oX1bbl6rJyuqZeXAC3Y=", "properties": {"@source_uri": "https://tools.usps.com/UspsToolsRestServices/rest/POLocator/findLocations", "@spider": "usps_collection_boxes", "addr:city": "MCCORMICK", "addr:country": "US", "addr:postcode": "29835", "addr:state": "SC", "addr:street_address": "201 N PINE ST", "amenity": "post_box", "collection_times": "Mo-Fr 16:45; Sa 12:00", "indoor": "yes", "note": "ON 12/24 AND 12/31, THIS BOX MAY BE COLLECTED AS EARLY AS 12 NOON.", "nsi_id": "unitedstatespostalservice-a77078", "operator": "United States Postal Service", "operator:short": "USPS", "operator:type": "public", "operator:wikidata": "Q668687", "ref": "2983500003"}, "type": "Feature"}
{"geometry": {"coordinates": [-82.2948760787, 33.9143485362], "type": "Point"}, "id": "Runb_lMryAXMcQS5UyVgiJkh8OE=", "properties": {"@source_uri": "https://tools.usps.com/UspsToolsRestServices/rest/POLocator/findLocations", "@spider": "usps_collection_boxes", "addr:city": "MCCORMICK", "addr:country": "US", "addr:postcode": "29835", "addr:state": "SC", "addr:street_address": "201 N PINE ST", "amenity": "post_box", "collection_times": "Mo-Fr 16:45; Sa 12:00", "note": "ON 12/24 AND 12/31, THIS BOX MAY BE COLLECTED AS EARLY AS 12 NOON.", "nsi_id": "unitedstatespostalservice-a77078", "operator": "United States Postal Service", "operator:short": "USPS", "operator:type": "public", "operator:wikidata": "Q668687", "ref": "2983500004"}, "type": "Feature"}
{"geometry": {"coordinates": [-82.294888675, 33.914352857], "type": "Point"}, "id": "pJ3ilc4FkvfXl6YZ5fCLfaGhgTg=", "properties": {"@source_uri": "https://tools.usps.com/UspsToolsRestServices/rest/POLocator/findLocations", "@spider": "usps_collection_boxes", "addr:city": "MCCORMICK", "addr:country": "US", "addr:postcode": "29835", "addr:state": "SC", "addr:street_address": "201 N PINE ST", "amenity": "post_box", "collection_times": "Mo-Fr 16:45; Sa 12:00", "indoor": "yes", "note": "ON 12/24 AND 12/31, THIS BOX MAY BE COLLECTED AS EARLY AS 12 NOON.", "nsi_id": "unitedstatespostalservice-a77078", "operator": "United States Postal Service", "operator:short": "USPS", "operator:type": "public", "operator:wikidata": "Q668687", "ref": "2983500007"}, "type": "Feature"}
{"geometry": {"coordinates": [-81.478794668, 33.076322986], "type": "Point"}, "id": "i4BZGZ1cl9Iuj6Jmmj7Jn_B3w38=", "properties": {"@source_uri": "https://tools.usps.com/UspsToolsRestServices/rest/POLocator/findLocations", "@spider": "usps_collection_boxes", "addr:city": "MARTIN", "addr:country": "US", "addr:postcode": "29836", "addr:state": "SC", "addr:street_address": "6545 AUGUSTA HWY", "amenity": "post_box", "collection_times": "Mo-Fr 12:00; Sa 11:15", "nsi_id": "unitedstatespostalservice-a77078", "operator": "United States Postal Service", "operator:short": "USPS", "operator:type": "public", "operator:wikidata": "Q668687", "ref": "2983600001"}, "type": "Feature"}
{"geometry": {"coordinates": [-81.478794668, 33.076322986], "type": "Point"}, "id": "gTYMBQkwFswd21C7i6U7mAX4NCM=", "properties": {"@source_uri": "https://tools.usps.com/UspsToolsRestServices/rest/POLocator/findLocations", "@spider": "usps_collection_boxes", "addr:city": "MARTIN", "addr:country": "US", "addr:postcode": "29836", "addr:state": "SC", "addr:street_address": "6545 AUGUSTA HWY", "amenity": "post_box", "collection_times": "Mo-Fr 11:45; Sa 11:15", "indoor": "yes", "nsi_id": "unitedstatespostalservice-a77078", "operator": "United States Postal Service", "operator:short": "USPS", "operator:type": "public", "operator:wikidata": "Q668687", "ref": "2983600002"}, "type": "Feature"}
{"geometry": {"coordinates": [-81.478794668, 33.076322986], "type": "Point"}, "id": "fqxozEsDTTW3EOHFRtr7rbjNSW0=", "properties": {"@source_uri": "https://tools.usps.com/UspsToolsRestServices/rest/POLocator/findLocations", "@spider": "usps_collection_boxes", "addr:city": "MARTIN", "addr:country": "US", "addr:postcode": "29836", "addr:state": "SC", "addr:street_address": "6545 AUGUSTA HWY", "amenity": "post_box", "collection_times": "Mo-Fr 11:45; Sa 11:15", "indoor": "yes", "nsi_id": "unitedstatespostalservice-a77078", "operator": "United States Postal Service", "operator:short": "USPS", "operator:type": "public", "operator:wikidata": "Q668687", "ref": "2983600004"}, "type": "Feature"}
{"geometry": {"coordinates": [-82.2096877, 33.7338504], "type": "Point"}, "id": "KsKgjDyvtOwiJTTHD21hd_hw8vI=", "properties": {"@source_uri": "https://tools.usps.com/UspsToolsRestServices/rest/POLocator/findLocations", "@spider": "usps_collection_boxes", "addr:city": "MODOC", "addr:country": "US", "addr:postcode": "29838", "addr:state": "SC", "addr:street_address": "11489 SC HWY 28", "amenity": "post_box", "collection_times": "Mo-Fr 16:15; Sa 11:15", "note": "ON 12/24 AND 12/31, THIS BOX MAY BE COLLECTED AS EARLY AS 12 NOON.", "nsi_id": "unitedstatespostalservice-a77078", "operator": "United States Postal Service", "operator:short": "USPS", "operator:type": "public", "operator:wikidata": "Q668687", "ref": "2983800001"}, "type": "Feature"}
{"geometry": {"coordinates": [-82.202643992, 33.71334585], "type": "Point"}, "id": "GUxQw1J_WZrJVpyQ25Rpc2VXRQY=", "properties": {"@source_uri": "https://tools.usps.com/UspsToolsRestServices/rest/POLocator/findLocations", "@spider": "usps_collection_boxes", "addr:city": "MODOC", "addr:country": "US", "addr:postcode": "29838", "addr:state": "SC", "addr:street_address": "1 SC HIGHWAY 28", "amenity": "post_box", "collection_times": "Mo-Fr 16:15; Sa 11:15", "indoor": "yes", "note": "ON 12/24 AND 12/31, THIS BOX MAY BE COLLECTED AS EARLY AS 12 NOON.", "nsi_id": "unitedstatespostalservice-a77078", "operator": "United States Postal Service", "operator:short": "USPS", "operator:type": "public", "operator:wikidata": "Q668687", "ref": "2983800002"}, "type": "Feature"}
{"geometry": {"coordinates": [-82.206164585, 33.732417186], "type": "Point"}, "id": "TskRSV67KpO-jVlwcGiCRDtGjfs=", "properties": {"@source_uri": "https://tools.usps.com/UspsToolsRestServices/rest/POLocator/findLocations", "@spider": "usps_collection_boxes", "addr:city": "MODOC", "addr:country": "US", "addr:postcode": "29838", "addr:state": "SC", "addr:street_address": "11489 SC HIGHWAY 28", "amenity": "post_box", "collection_times": "Mo-Fr 16:15; Sa 11:15", "indoor": "yes", "note": "ON 12/24 AND 12/31, THIS BOX MAY BE COLLECTED AS EARLY AS 12 NOON.", "nsi_id": "unitedstatespostalservice-a77078", "operator": "United States Postal Service", "operator:short": "USPS", "operator:type": "public", "operator:wikidata": "Q668687", "ref": "2983800005"}, "type": "Feature"}
{"geometry": {"coordinates": [-81.633457279, 33.5272639], "type": "Point"}, "id": "R9OMVGCKLbwxTUl7THd_w1MWX0c=", "properties": {"@source_uri": "https://tools.usps.com/UspsToolsRestServices/rest/POLocator/findLocations", "@spider": "usps_collection_boxes", "addr:city": "MONTMORENCI", "addr:country": "US", "addr:postcode": "29839", "addr:state": "SC", "addr:street_address": "3053 CHARLESTON HWY", "amenity": "post_box", "collection_times": "Mo-Fr 16:30; Sa 11:15", "note": "ON 12/24 AND 12/31, THIS BOX MAY BE COLLECTED AS EARLY AS 12 NOON.", "nsi_id": "unitedstatespostalservice-a77078", "operator": "United States Postal Service", "operator:short": "USPS", "operator:type": "public", "operator:wikidata": "Q668687", "ref": "2983900001"}, "type": "Feature"}
{"geometry": {"coordinates": [-81.633457279, 33.5272639], "type": "Point"}, "id": "sy3l8YCEEegfwrvF6opq4L9bHw8=", "properties": {"@source_uri": "https://tools.usps.com/UspsToolsRestServices/rest/POLocator/findLocations", "@spider": "usps_collection_boxes", "addr:city": "MONTMORENCI", "addr:country": "US", "addr:postcode": "29839", "addr:state": "SC", "addr:street_address": "3053 CHARLESTON HWY", "amenity": "post_box", "collection_times": "Mo-Fr 16:30; Sa 11:15", "indoor": "yes", "note": "ON 12/24 AND 12/31, THIS BOX MAY BE COLLECTED AS EARLY AS 12 NOON.", "nsi_id": "unitedstatespostalservice-a77078", "operator": "United States Postal Service", "operator:short": "USPS", "operator:type": "public", "operator:wikidata": "Q668687", "ref": "2983900002"}, "type": "Feature"}
{"geometry": {"coordinates": [-81.633457279, 33.5272639], "type": "Point"}, "id": "_K4YXIwsOFUTIMYuB9pBYdOcr8s=", "properties": {"@source_uri": "https://tools.usps.com/UspsToolsRestServices/rest/POLocator/findLocations", "@spider": "usps_collection_boxes", "addr:city": "MONTMORENCI", "addr:country": "US", "addr:postcode": "29839", "addr:state": "SC", "addr:street_address": "3053 CHARLESTON HWY", "amenity": "post_box", "collection_times": "Mo-Fr 16:30; Sa 11:15", "indoor": "yes", "note": "ON 12/24 AND 12/31, THIS BOX MAY BE COLLECTED AS EARLY AS 12 NOON.", "nsi_id": "unitedstatespostalservice-a77078", "operator": "United States Postal Service", "operator:short": "USPS", "operator:type": "public", "operator:wikidata": "Q668687", "ref": "2983900003"}, "type": "Feature"}
{"geometry": {"coordinates": [-82.506772765, 34.00736586], "type": "Point"}, "id": "s2fZ4XSnufAfz1gfgVoYZL7DQBI=", "properties": {"@source_uri": "https://tools.usps.com/UspsToolsRestServices/rest/POLocator/findLocations", "@spider": "usps_collection_boxes", "addr:city": "MOUNT CARMEL", "addr:country": "US", "addr:postcode": "29840", "addr:state": "SC", "addr:street_address": "102 DEPOT ST", "amenity": "post_box", "collection_times": "Mo-Fr 12:15; Sa 11:45", "note": "ON 12/24 AND 12/31, THIS BOX MAY BE COLLECTED AS EARLY AS 12 NOON.", "nsi_id": "unitedstatespostalservice-a77078", "operator": "United States Postal Service", "operator:short": "USPS", "operator:type": "public", "operator:wikidata": "Q668687", "ref": "2984000001"}, "type": "Feature"}
{"geometry": {"coordinates": [-82.506772765, 34.00736586], "type": "Point"}, "id": "H_zzJ3ZrdZbuFNETFuFpeGn-K08=", "properties": {"@source_uri": "https://tools.usps.com/UspsToolsRestServices/rest/POLocator/findLocations", "@spider": "usps_collection_boxes", "addr:city": "MOUNT CARMEL", "addr:country": "US", "addr:postcode": "29840", "addr:state": "SC", "addr:street_address": "102 DEPOT ST", "amenity": "post_box", "collection_times": "Mo-Fr 12:15; Sa 11:45", "indoor": "yes", "note": "ON 12/24 AND 12/31, THIS BOX MAY BE COLLECTED AS EARLY AS 12 NOON.", "nsi_id": "unitedstatespostalservice-a77078", "operator": "United States Postal Service", "operator:short": "USPS", "operator:type": "public", "operator:wikidata": "Q668687", "ref": "2984000002"}, "type": "Feature"}
{"geometry": {"coordinates": [-82.506772765, 34.00736586], "type": "Point"}, "id": "am6FMDrnAVBpCBsqQDAZSzga73U=", "properties": {"@source_uri": "https://tools.usps.com/UspsToolsRestServices/rest/POLocator/findLocations", "@spider": "usps_collection_boxes", "addr:city": "MOUNT CARMEL", "addr:country": "US", "addr:postcode": "29840", "addr:state": "SC", "addr:street_address": "102 DEPOT ST", "amenity": "post_box", "collection_times": "Mo-Fr 12:15; Sa 11:45", "indoor": "yes", "note": "ON 12/24 AND 12/31, THIS BOX MAY BE COLLECTED AS EARLY AS 12 NOON.", "nsi_id": "unitedstatespostalservice-a77078", "operator": "United States Postal Service", "operator:short": "USPS", "operator:type": "public", "operator:wikidata": "Q668687", "ref": "2984000004"}, "type": "Feature"}
{"geometry": {"coordinates": [-81.961519979, 33.498599953], "type": "Point"}, "id": "NRHdbJnCCd5uVh-b9l4Fwy98i5k=", "properties": {"@source_uri": "https://tools.usps.com/UspsToolsRestServices/rest/POLocator/findLocations", "@spider": "usps_collection_boxes", "addr:city": "NORTH AUGUSTA", "addr:country": "US", "addr:postcode": "29841", "addr:state": "SC", "addr:street_address": "342 E MARTINTOWN RD", "amenity": "post_box", "collection_times": "Mo-Sa 15:45", "note": "ON 12/24 AND 12/31, THIS BOX MAY BE COLLECTED AS EARLY AS 12 NOON.", "nsi_id": "unitedstatespostalservice-a77078", "operator": "United States Postal Service", "operator:short": "USPS", "operator:type": "public", "operator:wikidata": "Q668687", "ref": "2984100001"}, "type": "Feature"}
{"geometry": {"coordinates": [-81.958724329, 33.50616743], "type": "Point"}, "id": "Bj099hTrDBrqgw49PmSRFhDJf2o=", "properties": {"@source_uri": "https://tools.usps.com/UspsToolsRestServices/rest/POLocator/findLocations", "@spider": "usps_collection_boxes", "addr:city": "NORTH AUGUSTA", "addr:country": "US", "addr:postcode": "29841", "addr:state": "SC", "addr:street_address": "1284 KNOX AVE", "amenity": "post_box", "collection_times": "Mo-Sa 16:15", "note": "ON 12/24 AND 12/31, THIS BOX MAY BE COLLECTED AS EARLY AS 12 NOON.", "nsi_id": "unitedstatespostalservice-a77078", "operator": "United States Postal Service", "operator:short": "USPS", "operator:type": "public", "operator:wikidata": "Q668687", "ref": "2984100003"}, "type": "Feature"}
{"geometry": {"coordinates": [-81.949893237, 33.488503569], "type": "Point"}, "id": "efteR-Ln6MRoN2ct3PF6LaWiXjM=", "properties": {"@source_uri": "https://tools.usps.com/UspsToolsRestServices/rest/POLocator/findLocations", "@spider": "usps_collection_boxes", "addr:city": "NORTH AUGUSTA", "addr:country": "US", "addr:postcode": "29841", "addr:state": "SC", "addr:street_address": "802 E MARTINTOWN RD", "amenity": "post_box", "collection_times": "Mo-Sa 16:30", "note": "ON 12/24 AND 12/31, THIS BOX MAY BE COLLECTED AS EARLY AS 12 NOON.", "nsi_id": "unitedstatespostalservice-a77078", "operator": "United States Postal Service", "operator:short": "USPS", "operator:type": "public", "operator:wikidata": "Q668687", "ref": "2984100009"}, "type": "Feature"}
{"geometry": {"coordinates": [-81.941630456, 33.541409514], "type": "Point"}, "id": "6-bOL_kZrBkHX3QAY_A5PAUEVq8=", "properties": {"@source_uri": "https://tools.usps.com/UspsToolsRestServices/rest/POLocator/findLocations", "@spider": "usps_collection_boxes", "addr:city": "NORTH AUGUSTA", "addr:country": "US", "addr:postcode": "29841", "addr:state": "SC", "addr:street_address": "610 EDGEFIELD RD", "amenity": "post_box", "collection_times": "Mo-Sa 16:15", "note": "ON 12/24 AND 12/31, THIS BOX MAY BE COLLECTED AS EARLY AS 12 NOON.", "nsi_id": "unitedstatespostalservice-a77078", "operator": "United States Postal Service", "operator:short": "USPS", "operator:type": "public", "operator:wikidata": "Q668687", "ref": "2984100017"}, "type": "Feature"}
{"geometry": {"coordinates": [-81.959746758, 33.499890513], "type": "Point"}, "id": "icwwYaFCpxdRvwrVgKh-tn809wc=", "properties": {"@source_uri": "https://tools.usps.com/UspsToolsRestServices/rest/POLocator/findLocations", "@spider": "usps_collection_boxes", "addr:city": "NORTH AUGUSTA", "addr:country": "US", "addr:postcode": "29841", "addr:state": "SC", "addr:street_address": "1137 KNOX AVE", "amenity": "post_box", "collection_times": "Mo-Sa 16:30", "note": "ON 12/24 AND 12/31, THIS BOX MAY BE COLLECTED AS EARLY AS 12 NOON.", "nsi_id": "unitedstatespostalservice-a77078", "operator": "United States Postal Service", "operator:short": "USPS", "operator:type": "public", "operator:wikidata": "Q668687", "ref": "2984100019"}, "type": "Feature"}
{"geometry": {"coordinates": [-81.962444103, 33.508340916], "type": "Point"}, "id": "CIgOkZYgwVfwrKUyb28yCGHonGM=", "properties": {"@source_uri": "https://tools.usps.com/UspsToolsRestServices/rest/POLocator/findLocations", "@spider": "usps_collection_boxes", "addr:city": "NORTH AUGUSTA", "addr:country": "US", "addr:postcode": "29841", "addr:state": "SC", "addr:street_address": "1450 GEORGIA AVE", "amenity": "post_box", "collection_times": "Mo-Fr 17:00; Sa 16:15", "indoor": "yes", "note": "ON 12/24 AND 12/31, THIS BOX MAY BE COLLECTED AS EARLY AS 12 NOON.", "nsi_id": "unitedstatespostalservice-a77078", "operator": "United States Postal Service", "operator:short": "USPS", "operator:type": "public", "operator:wikidata": "Q668687", "ref": "2984100025"}, "type": "Feature"}
{"geometry": {"coordinates": [-81.970832349, 33.493885984], "type": "Point"}, "id": "Cx8spTOpIeQ7qworqCREsxYx9lw=", "properties": {"@source_uri": "https://tools.usps.com/UspsToolsRestServices/rest/POLocator/findLocations", "@spider": "usps_collection_boxes", "addr:city": "NORTH AUGUSTA", "addr:country": "US", "addr:postcode": "29841", "addr:state": "SC", "addr:street_address": "501 GEORGIA AVE", "amenity": "post_box", "collection_times": "Mo-Sa 16:30", "note": "ON 12/24 AND 12/31, THIS BOX MAY BE COLLECTED AS EARLY AS 12 NOON.", "nsi_id": "unitedstatespostalservice-a77078", "operator": "United States Postal Service", "operator:short": "USPS", "operator:type": "public", "operator:wikidata": "Q668687", "ref": "2984100027"}, "type": "Feature"}
{"geometry": {"coordinates": [-81.970984474, 33.493778639], "type": "Point"}, "id": "CbwMkf7EKapQvQC98PBqx_3iEXQ=", "properties": {"@source_uri": "https://tools.usps.com/UspsToolsRestServices/rest/POLocator/findLocations", "@spider": "usps_collection_boxes", "addr:city": "NORTH AUGUSTA", "addr:country": "US", "addr:postcode": "29841", "addr:state": "SC", "addr:street_address": "500 GEORGIA AVE", "amenity": "post_box", "collection_times": "Mo-Sa 16:30", "note": "ON 12/24 AND 12/31, THIS BOX MAY BE COLLECTED AS EARLY AS 12 NOON.", "nsi_id": "unitedstatespostalservice-a77078", "operator": "United States Postal Service", "operator:short": "USPS", "operator:type": "public", "operator:wikidata": "Q668687", "ref": "2984100028"}, "type": "Feature"}
{"geometry": {"coordinates": [-81.9631730309, 33.5083530161], "type": "Point"}, "id": "-CissZqBm5E5UMvGaqv-1lrmh0Q=", "properties": {"@source_uri": "https://tools.usps.com/UspsToolsRestServices/rest/POLocator/findLocations", "@spider": "usps_collection_boxes", "addr:city": "NORTH AUGUSTA", "addr:country": "US", "addr:postcode": "29841", "addr:state": "SC", "addr:street_address": "1450 GEORGIA AVE", "amenity": "post_box", "collection_times": "Mo-Sa 17:00", "note": "ON 12/24 AND 12/31, THIS BOX MAY BE COLLECTED AS EARLY AS 12 NOON.", "nsi_id": "unitedstatespostalservice-a77078", "operator": "United States Postal Service", "operator:short": "USPS", "operator:type": "public", "operator:wikidata": "Q668687", "ref": "2984100031"}, "type": "Feature"}
{"geometry": {"coordinates": [-81.9784082, 33.4910442], "type": "Point"}, "id": "QWpiSEjX3FvSWnflIcrmU0dTmDk=", "properties": {"@source_uri": "https://tools.usps.com/UspsToolsRestServices/rest/POLocator/findLocations", "@spider": "usps_collection_boxes", "addr:city": "NORTH AUGUSTA", "addr:country": "US", "addr:postcode": "29841", "addr:state": "SC", "addr:street_address": "401 W MARTINTOWN RD", "amenity": "post_box", "collection_times": "Mo-Sa 15:45", "note": "ON 12/24 AND 12/31, THIS BOX MAY BE COLLECTED AS EARLY AS 12 NOON.", "nsi_id": "unitedstatespostalservice-a77078", "operator": "United States Postal Service", "operator:short": "USPS", "operator:type": "public", "operator:wikidata": "Q668687", "ref": "2984100032"}, "type": "Feature"}
{"geometry": {"coordinates": [-81.962444103, 33.508340916], "type": "Point"}, "id": "ulK3wHgeg0Pe-xXpD5gmV30LWz0=", "properties": {"@source_uri": "https://tools.usps.com/UspsToolsRestServices/rest/POLocator/findLocations", "@spider": "usps_collection_boxes", "addr:city": "NORTH AUGUSTA", "addr:country": "US", "addr:postcode": "29841", "addr:state": "SC", "addr:street_address": "1450 GEORGIA AVE", "amenity": "post_box", "collection_times": "Mo-Fr 17:00; Sa 16:15", "indoor": "yes", "note": "ON 12/24 AND 12/31, THIS BOX MAY BE COLLECTED AS EARLY AS 12 NOON.", "nsi_id": "unitedstatespostalservice-a77078", "operator": "United States Postal Service", "operator:short": "USPS", "operator:type": "public", "operator:wikidata": "Q668687", "ref": "2984100034"}, "type": "Feature"}
{"geometry": {"coordinates": [-81.902765, 33.49758], "type": "Point"}, "id": "jEAI28hUR_BuDdlWtJzU1pZ_F0U=", "properties": {"@source_uri": "https://tools.usps.com/UspsToolsRestServices/rest/POLocator/findLocations", "@spider": "usps_collection_boxes", "addr:city": "BEECH ISLAND", "addr:country": "US", "addr:postcode": "29842", "addr:state": "SC", "addr:street_address": "1722 SAND BAR FERRY RD", "amenity": "post_box", "collection_times": "Mo-Sa 13:30", "note": "ON 12/24 AND 12/31, THIS BOX MAY BE COLLECTED AS EARLY AS 12 NOON.", "nsi_id": "unitedstatespostalservice-a77078", "operator": "United States Postal Service", "operator:short": "USPS", "operator:type": "public", "operator:wikidata": "Q668687", "ref": "2984200000"}, "type": "Feature"}
{"geometry": {"coordinates": [-81.182673, 33.185667], "type": "Point"}, "id": "yEzYHtf_xlI-jLvcCy9Wp5yGnvc=", "properties": {"@source_uri": "https://tools.usps.com/UspsToolsRestServices/rest/POLocator/findLocations", "@spider": "usps_collection_boxes", "addr:city": "OLAR", "addr:country": "US", "addr:postcode": "29843", "addr:state": "SC", "addr:street_address": "15223 CAROLINA HWY", "amenity": "post_box", "collection_times": "Mo-Fr 12:00; Sa 11:45", "nsi_id": "unitedstatespostalservice-a77078", "operator": "United States Postal Service", "operator:short": "USPS", "operator:type": "public", "operator:wikidata": "Q668687", "ref": "2984300002"}, "type": "Feature"}
{"geometry": {"coordinates": [-82.2188605, 33.7856767], "type": "Point"}, "id": "ehcqg-iCEmYTWK7qRRauE1NJwzs=", "properties": {"@source_uri": "https://tools.usps.com/UspsToolsRestServices/rest/POLocator/findLocations", "@spider": "usps_collection_boxes", "addr:city": "PARKSVILLE", "addr:country": "US", "addr:postcode": "29844", "addr:state": "SC", "addr:street_address": "205 RAILROAD AVE", "amenity": "post_box", "collection_times": "Mo-Fr 16:00; Sa 14:00", "note": "ON 12/24 AND 12/31, THIS BOX MAY BE COLLECTED AS EARLY AS 12 NOON.", "nsi_id": "unitedstatespostalservice-a77078", "operator": "United States Postal Service", "operator:short": "USPS", "operator:type": "public", "operator:wikidata": "Q668687", "ref": "2984400003"}, "type": "Feature"}
{"geometry": {"coordinates": [-82.219112314, 33.786168286], "type": "Point"}, "id": "_izLIlXGlKmK56Hd0tN62AVUxMM=", "properties": {"@source_uri": "https://tools.usps.com/UspsToolsRestServices/rest/POLocator/findLocations", "@spider": "usps_collection_boxes", "addr:city": "PARKSVILLE", "addr:country": "US", "addr:postcode": "29844", "addr:state": "SC", "addr:street_address": "205 RAILROAD AVE", "amenity": "post_box", "collection_times": "Mo-Fr 16:00; Sa 14:00", "indoor": "yes", "note": "ON 12/24 AND 12/31, THIS BOX MAY BE COLLECTED AS EARLY AS 12 NOON.", "nsi_id": "unitedstatespostalservice-a77078", "operator": "United States Postal Service", "operator:short": "USPS", "operator:type": "public", "operator:wikidata": "Q668687", "ref": "2984400004"}, "type": "Feature"}
{"geometry": {"coordinates": [-82.219112314, 33.786168286], "type": "Point"}, "id": "vidK_pq6TxmAgi3Zg6qcRvWWOis=", "properties": {"@source_uri": "https://tools.usps.com/UspsToolsRestServices/rest/POLocator/findLocations", "@spider": "usps_collection_boxes", "addr:city": "PARKSVILLE", "addr:country": "US", "addr:postcode": "29844", "addr:state": "SC", "addr:street_address": "205 RAILROAD AVE", "amenity": "post_box", "collection_times": "Mo-Fr 16:00; Sa 14:00", "indoor": "yes", "note": "ON 12/24 AND 12/31, THIS BOX MAY BE COLLECTED AS EARLY AS 12 NOON.", "nsi_id": "unitedstatespostalservice-a77078", "operator": "United States Postal Service", "operator:short": "USPS", "operator:type": "public", "operator:wikidata": "Q668687", "ref": "2984400005"}, "type": "Feature"}
{"geometry": {"coordinates": [-82.2571644, 33.8505219], "type": "Point"}, "id": "U0cGoLKALjTA4z-NQOkAta1ZqnU=", "properties": {"@source_uri": "https://tools.usps.com/UspsToolsRestServices/rest/POLocator/findLocations", "@spider": "usps_collection_boxes", "addr:city": "PLUM BRANCH", "addr:country": "US", "addr:postcode": "29845", "addr:state": "SC", "addr:street_address": "102 DEPOT ST N", "amenity": "post_box", "collection_times": "Mo-Sa 11:15", "nsi_id": "unitedstatespostalservice-a77078", "operator": "United States Postal Service", "operator:short": "USPS", "operator:type": "public", "operator:wikidata": "Q668687", "ref": "2984500001"}, "type": "Feature"}
{"geometry": {"coordinates": [-82.2592769309, 33.8504136353], "type": "Point"}, "id": "d1ImQZvQwT0_x_6f2tF8ntLnbrM=", "properties": {"@source_uri": "https://tools.usps.com/UspsToolsRestServices/rest/POLocator/findLocations", "@spider": "usps_collection_boxes", "addr:city": "PLUM BRANCH", "addr:country": "US", "addr:postcode": "29845", "addr:state": "SC", "addr:street_address": "102 DEPOT ST N", "amenity": "post_box", "collection_times": "Mo-Sa 11:15", "indoor": "yes", "nsi_id": "unitedstatespostalservice-a77078", "operator": "United States Postal Service", "operator:short": "USPS", "operator:type": "public", "operator:wikidata": "Q668687", "ref": "2984500002"}, "type": "Feature"}
{"geometry": {"coordinates": [-82.2592769309, 33.8504136353], "type": "Point"}, "id": "sG0k2sqW95w9Stq7-9Yzl5XqCWM=", "properties": {"@source_uri": "https://tools.usps.com/UspsToolsRestServices/rest/POLocator/findLocations", "@spider": "usps_collection_boxes", "addr:city": "PLUM BRANCH", "addr:country": "US", "addr:postcode": "29845", "addr:state": "SC", "addr:street_address": "102 DEPOT ST N", "amenity": "post_box", "collection_times": "Mo-Sa 11:15", "indoor": "yes", "nsi_id": "unitedstatespostalservice-a77078", "operator": "United States Postal Service", "operator:short": "USPS", "operator:type": "public", "operator:wikidata": "Q668687", "ref": "2984500004"}, "type": "Feature"}
{"geometry": {"coordinates": [-81.224152694, 33.036531581], "type": "Point"}, "id": "poJDZ007KJpN9bax__ibQWSoqrM=", "properties": {"@source_uri": "https://tools.usps.com/UspsToolsRestServices/rest/POLocator/findLocations", "@spider": "usps_collection_boxes", "addr:city": "SYCAMORE", "addr:country": "US", "addr:postcode": "29846", "addr:state": "SC", "addr:street_address": "345 MAIN ST W", "amenity": "post_box", "collection_times": "Mo-Fr 10:00; Sa 11:45", "nsi_id": "unitedstatespostalservice-a77078", "operator": "United States Postal Service", "operator:short": "USPS", "operator:type": "public", "operator:wikidata": "Q668687", "ref": "2984600001"}, "type": "Feature"}
{"geometry": {"coordinates": [-81.224152694, 33.036531581], "type": "Point"}, "id": "zoD6FFJGeKM13s5tk1lwzUJMf-M=", "properties": {"@source_uri": "https://tools.usps.com/UspsToolsRestServices/rest/POLocator/findLocations", "@spider": "usps_collection_boxes", "addr:city": "SYCAMORE", "addr:country": "US", "addr:postcode": "29846", "addr:state": "SC", "addr:street_address": "345 MAIN ST W", "amenity": "post_box", "collection_times": "Mo-Fr 09:30; Sa 11:45", "indoor": "yes", "nsi_id": "unitedstatespostalservice-a77078", "operator": "United States Postal Service", "operator:short": "USPS", "operator:type": "public", "operator:wikidata": "Q668687", "ref": "2984600002"}, "type": "Feature"}
{"geometry": {"coordinates": [-81.224152694, 33.036531581], "type": "Point"}, "id": "hZ_o70orfCjeZ9lf9HcH7DZoCh0=", "properties": {"@source_uri": "https://tools.usps.com/UspsToolsRestServices/rest/POLocator/findLocations", "@spider": "usps_collection_boxes", "addr:city": "SYCAMORE", "addr:country": "US", "addr:postcode": "29846", "addr:state": "SC", "addr:street_address": "345 MAIN ST W", "amenity": "post_box", "collection_times": "Mo-Fr 09:30; Sa 11:45", "indoor": "yes", "nsi_id": "unitedstatespostalservice-a77078", "operator": "United States Postal Service", "operator:short": "USPS", "operator:type": "public", "operator:wikidata": "Q668687", "ref": "2984600003"}, "type": "Feature"}
{"geometry": {"coordinates": [-81.8425519959, 33.7414299807], "type": "Point"}, "id": "hoUXEjLTK8IQF_Gx9a8gJKKACAM=", "properties": {"@source_uri": "https://tools.usps.com/UspsToolsRestServices/rest/POLocator/findLocations", "@spider": "usps_collection_boxes", "addr:city": "TRENTON", "addr:country": "US", "addr:postcode": "29847", "addr:state": "SC", "addr:street_address": "113 WATSON ST", "amenity": "post_box", "collection_times": "Mo-Fr 16:30; Sa 11:00", "note": "ON 12/24 AND 12/31, THIS BOX MAY BE COLLECTED AS EARLY AS 12 NOON.", "nsi_id": "unitedstatespostalservice-a77078", "operator": "United States Postal Service", "operator:short": "USPS", "operator:type": "public", "operator:wikidata": "Q668687", "ref": "2984700001"}, "type": "Feature"}
{"geometry": {"coordinates": [-81.842422006, 33.741339925], "type": "Point"}, "id": "KDdgHFRln3ArritBzVY0S3s0_qE=", "properties": {"@source_uri": "https://tools.usps.com/UspsToolsRestServices/rest/POLocator/findLocations", "@spider": "usps_collection_boxes", "addr:city": "TRENTON", "addr:country": "US", "addr:postcode": "29847", "addr:state": "SC", "addr:street_address": "113 WATSON ST", "amenity": "post_box", "collection_times": "Mo-Fr 16:30; Sa 11:00", "indoor": "yes", "note": "ON 12/24 AND 12/31, THIS BOX MAY BE COLLECTED AS EARLY AS 12 NOON.", "nsi_id": "unitedstatespostalservice-a77078", "operator": "United States Postal Service", "operator:short": "USPS", "operator:type": "public", "operator:wikidata": "Q668687", "ref": "2984700002"}, "type": "Feature"}
{"geometry": {"coordinates": [-81.842422006, 33.741339925], "type": "Point"}, "id": "HG1DrpBpt4iXii-I-O0aWLDHHY0=", "properties": {"@source_uri": "https://tools.usps.com/UspsToolsRestServices/rest/POLocator/findLocations", "@spider": "usps_collection_boxes", "addr:city": "TRENTON", "addr:country": "US", "addr:postcode": "29847", "addr:state": "SC", "addr:street_address": "113 WATSON ST", "amenity": "post_box", "collection_times": "Mo-Fr 16:30; Sa 11:00", "indoor": "yes", "note": "ON 12/24 AND 12/31, THIS BOX MAY BE COLLECTED AS EARLY AS 12 NOON.", "nsi_id": "unitedstatespostalservice-a77078", "operator": "United States Postal Service", "operator:short": "USPS", "operator:type": "public", "operator:wikidata": "Q668687", "ref": "2984700004"}, "type": "Feature"}
{"geometry": {"coordinates": [-82.295753912, 33.987606309], "type": "Point"}, "id": "2U5OYm9hUAg6ErGEh5wW9b4rx2I=", "properties": {"@source_uri": "https://tools.usps.com/UspsToolsRestServices/rest/POLocator/findLocations", "@spider": "usps_collection_boxes", "addr:city": "TROY", "addr:country": "US", "addr:postcode": "29848", "addr:state": "SC", "addr:street_address": "104 SLOAN ST", "amenity": "post_box", "collection_times": "Mo-Fr 11:45; Sa 11:00", "nsi_id": "unitedstatespostalservice-a77078", "operator": "United States Postal Service", "operator:short": "USPS", "operator:type": "public", "operator:wikidata": "Q668687", "ref": "2984800001"}, "type": "Feature"}
{"geometry": {"coordinates": [-82.295753912, 33.987606309], "type": "Point"}, "id": "rbohvRHArrNt73_vqMudvUoe52o=", "properties": {"@source_uri": "https://tools.usps.com/UspsToolsRestServices/rest/POLocator/findLocations", "@spider": "usps_collection_boxes", "addr:city": "TROY", "addr:country": "US", "addr:postcode": "29848", "addr:state": "SC", "addr:street_address": "104 SLOAN ST", "amenity": "post_box", "collection_times": "Mo-Sa 11:15", "indoor": "yes", "nsi_id": "unitedstatespostalservice-a77078", "operator": "United States Postal Service", "operator:short": "USPS", "operator:type": "public", "operator:wikidata": "Q668687", "ref": "2984800002"}, "type": "Feature"}
{"geometry": {"coordinates": [-82.295753912, 33.987606309], "type": "Point"}, "id": "LbjBIKgJ2-7uS0cNM3fXgv5k2-s=", "properties": {"@source_uri": "https://tools.usps.com/UspsToolsRestServices/rest/POLocator/findLocations", "@spider": "usps_collection_boxes", "addr:city": "TROY", "addr:country": "US", "addr:postcode": "29848", "addr:state": "SC", "addr:street_address": "104 SLOAN ST", "amenity": "post_box", "collection_times": "Mo-Sa 11:15", "indoor": "yes", "nsi_id": "unitedstatespostalservice-a77078", "operator": "United States Postal Service", "operator:short": "USPS", "operator:type": "public", "operator:wikidata": "Q668687", "ref": "2984800004"}, "type": "Feature"}
{"geometry": {"coordinates": [-81.20295, 33.09854], "type": "Point"}, "id": "QIZGXBiMWVSYdYDkaqkzBnSPfDU=", "properties": {"@source_uri": "https://tools.usps.com/UspsToolsRestServices/rest/POLocator/findLocations", "@spider": "usps_collection_boxes", "addr:city": "ULMER", "addr:country": "US", "addr:postcode": "29849", "addr:state": "SC", "addr:street_address": "219 BURTONS FERRY HWY", "amenity": "post_box", "collection_times": "Mo-Fr 13:00; Sa 11:00", "note": "ON 12/24 AND 12/31, THIS BOX MAY BE COLLECTED AS EARLY AS 12 NOON.", "nsi_id": "unitedstatespostalservice-a77078", "operator": "United States Postal Service", "operator:short": "USPS", "operator:type": "public", "operator:wikidata": "Q668687", "ref": "2984900001"}, "type": "Feature"}
{"geometry": {"coordinates": [-81.20295, 33.09854], "type": "Point"}, "id": "Td4Ryz-pTvwAHLPpVVlVRuxgTRA=", "properties": {"@source_uri": "https://tools.usps.com/UspsToolsRestServices/rest/POLocator/findLocations", "@spider": "usps_collection_boxes", "addr:city": "ULMER", "addr:country": "US", "addr:postcode": "29849", "addr:state": "SC", "addr:street_address": "219 BURTONS FERRY HWY", "amenity": "post_box", "collection_times": "Mo-Fr 12:30; Sa 11:00", "indoor": "yes", "note": "ON 12/24 AND 12/31, THIS BOX MAY BE COLLECTED AS EARLY AS 12 NOON.", "nsi_id": "unitedstatespostalservice-a77078", "operator": "United States Postal Service", "operator:short": "USPS", "operator:type": "public", "operator:wikidata": "Q668687", "ref": "2984900002"}, "type": "Feature"}
{"geometry": {"coordinates": [-81.20295, 33.09854], "type": "Point"}, "id": "mwZV76bYUT_uhypzsWYzrsirCKA=", "properties": {"@source_uri": "https://tools.usps.com/UspsToolsRestServices/rest/POLocator/findLocations", "@spider": "usps_collection_boxes", "addr:city": "ULMER", "addr:country": "US", "addr:postcode": "29849", "addr:state": "SC", "addr:street_address": "219 BURTONS FERRY HWY", "amenity": "post_box", "collection_times": "Mo-Fr 12:30; Sa 11:00", "indoor": "yes", "note": "ON 12/24 AND 12/31, THIS BOX MAY BE COLLECTED AS EARLY AS 12 NOON.", "nsi_id": "unitedstatespostalservice-a77078", "operator": "United States Postal Service", "operator:short": "USPS", "operator:type": "public", "operator:wikidata": "Q668687", "ref": "2984900003"}, "type": "Feature"}
{"geometry": {"coordinates": [-81.8039531945, 33.6140032485], "type": "Point"}, "id": "FbGWr28wPadzgIlJnLSKIHLMYbc=", "properties": {"@source_uri": "https://tools.usps.com/UspsToolsRestServices/rest/POLocator/findLocations", "@spider": "usps_collection_boxes", "addr:city": "VAUCLUSE", "addr:country": "US", "addr:postcode": "29850", "addr:state": "SC", "addr:street_address": "111 SENN ST", "amenity": "post_box", "collection_times": "Mo-Fr 16:15; Sa 11:00", "note": "ON 12/24 AND 12/31, THIS BOX MAY BE COLLECTED AS EARLY AS 12 NOON.", "nsi_id": "unitedstatespostalservice-a77078", "operator": "United States Postal Service", "operator:short": "USPS", "operator:type": "public", "operator:wikidata": "Q668687", "ref": "2985000001"}, "type": "Feature"}
{"geometry": {"coordinates": [-81.803953195, 33.614003248], "type": "Point"}, "id": "od6o30wB8M0sKSJ55Gez34UiyVg=", "properties": {"@source_uri": "https://tools.usps.com/UspsToolsRestServices/rest/POLocator/findLocations", "@spider": "usps_collection_boxes", "addr:city": "VAUCLUSE", "addr:country": "US", "addr:postcode": "29850", "addr:state": "SC", "addr:street_address": "111 SENN ST", "amenity": "post_box", "collection_times": "Mo-Fr 16:30; Sa 11:15", "indoor": "yes", "note": "ON 12/24 AND 12/31, THIS BOX MAY BE COLLECTED AS EARLY AS 12 NOON.", "nsi_id": "unitedstatespostalservice-a77078", "operator": "United States Postal Service", "operator:short": "USPS", "operator:type": "public", "operator:wikidata": "Q668687", "ref": "2985000002"}, "type": "Feature"}
{"geometry": {"coordinates": [-81.803953195, 33.614003248], "type": "Point"}, "id": "TbZcI36pCv39rhNzJUPKvRZYR3A=", "properties": {"@source_uri": "https://tools.usps.com/UspsToolsRestServices/rest/POLocator/findLocations", "@spider": "usps_collection_boxes", "addr:city": "VAUCLUSE", "addr:country": "US", "addr:postcode": "29850", "addr:state": "SC", "addr:street_address": "111 SENN ST", "amenity": "post_box", "collection_times": "Mo-Fr 16:30; Sa 11:15", "indoor": "yes", "note": "ON 12/24 AND 12/31, THIS BOX MAY BE COLLECTED AS EARLY AS 12 NOON.", "nsi_id": "unitedstatespostalservice-a77078", "operator": "United States Postal Service", "operator:short": "USPS", "operator:type": "public", "operator:wikidata": "Q668687", "ref": "2985000003"}, "type": "Feature"}
{"geometry": {"coordinates": [-81.813475323, 33.545956727], "type": "Point"}, "id": "Cg38lHe0RMupnt6oMYQ3GNO6vHw=", "properties": {"@source_uri": "https://tools.usps.com/UspsToolsRestServices/rest/POLocator/findLocations", "@spider": "usps_collection_boxes", "addr:city": "WARRENVILLE", "addr:country": "US", "addr:postcode": "29851", "addr:state": "SC", "addr:street_address": "1341 AUGUSTA RD", "amenity": "post_box", "collection_times": "Mo-Fr 16:30; Sa 12:00", "note": "ON 12/24 AND 12/31, THIS BOX MAY BE COLLECTED AS EARLY AS 12 NOON.", "nsi_id": "unitedstatespostalservice-a77078", "operator": "United States Postal Service", "operator:short": "USPS", "operator:type": "public", "operator:wikidata": "Q668687", "ref": "2985100001"}, "type": "Feature"}
{"geometry": {"coordinates": [-81.813475323, 33.545956727], "type": "Point"}, "id": "6hM7AqOdvfwYCgjjSaomo-eUVg4=", "properties": {"@source_uri": "https://tools.usps.com/UspsToolsRestServices/rest/POLocator/findLocations", "@spider": "usps_collection_boxes", "addr:city": "WARRENVILLE", "addr:country": "US", "addr:postcode": "29851", "addr:state": "SC", "addr:street_address": "1341 AUGUSTA RD", "amenity": "post_box", "collection_times": "Mo-Fr 16:30; Sa 12:00", "indoor": "yes", "note": "ON 12/24 AND 12/31, THIS BOX MAY BE COLLECTED AS EARLY AS 12 NOON.", "nsi_id": "unitedstatespostalservice-a77078", "operator": "United States Postal Service", "operator:short": "USPS", "operator:type": "public", "operator:wikidata": "Q668687", "ref": "2985100003"}, "type": "Feature"}
{"geometry": {"coordinates": [-81.813475323, 33.545956727], "type": "Point"}, "id": "yrXdYAqP2LrzPIH9ea145lkErZs=", "properties": {"@source_uri": "https://tools.usps.com/UspsToolsRestServices/rest/POLocator/findLocations", "@spider": "usps_collection_boxes", "addr:city": "WARRENVILLE", "addr:country": "US", "addr:postcode": "29851", "addr:state": "SC", "addr:street_address": "1341 AUGUSTA RD", "amenity": "post_box", "collection_times": "Mo-Fr 16:30; Sa 12:00", "indoor": "yes", "note": "ON 12/24 AND 12/31, THIS BOX MAY BE COLLECTED AS EARLY AS 12 NOON.", "nsi_id": "unitedstatespostalservice-a77078", "operator": "United States Postal Service", "operator:short": "USPS", "operator:type": "public", "operator:wikidata": "Q668687", "ref": "2985100005"}, "type": "Feature"}
{"geometry": {"coordinates": [-81.421807968, 33.401858268], "type": "Point"}, "id": "cWJ98l56JiDo-xpAGNZlc9Exox4=", "properties": {"@source_uri": "https://tools.usps.com/UspsToolsRestServices/rest/POLocator/findLocations", "@spider": "usps_collection_boxes", "addr:city": "WILLISTON", "addr:country": "US", "addr:postcode": "29853", "addr:state": "SC", "addr:street_address": "12926 MAIN ST", "amenity": "post_box", "collection_times": "Mo-Fr 17:00; Sa 12:00", "note": "ON 12/24 AND 12/31, THIS BOX MAY BE COLLECTED AS EARLY AS 12 NOON.", "nsi_id": "unitedstatespostalservice-a77078", "operator": "United States Postal Service", "operator:short": "USPS", "operator:type": "public", "operator:wikidata": "Q668687", "ref": "2985300001"}, "type": "Feature"}
{"geometry": {"coordinates": [-81.421807968, 33.401858268], "type": "Point"}, "id": "hZn0GUSTaYUAduvlt0VNOaCwkjQ=", "properties": {"@source_uri": "https://tools.usps.com/UspsToolsRestServices/rest/POLocator/findLocations", "@spider": "usps_collection_boxes", "addr:city": "WILLISTON", "addr:country": "US", "addr:postcode": "29853", "addr:state": "SC", "addr:street_address": "12926 MAIN ST", "amenity": "post_box", "collection_times": "Mo-Fr 16:30; Sa 12:00", "indoor": "yes", "note": "ON 12/24 AND 12/31, THIS BOX MAY BE COLLECTED AS EARLY AS 12 NOON.", "nsi_id": "unitedstatespostalservice-a77078", "operator": "United States Postal Service", "operator:short": "USPS", "operator:type": "public", "operator:wikidata": "Q668687", "ref": "2985300003"}, "type": "Feature"}
{"geometry": {"coordinates": [-81.421807968, 33.401858268], "type": "Point"}, "id": "pu3t70iEwiSU0WqZqRJhuwKu_uE=", "properties": {"@source_uri": "https://tools.usps.com/UspsToolsRestServices/rest/POLocator/findLocations", "@spider": "usps_collection_boxes", "addr:city": "WILLISTON", "addr:country": "US", "addr:postcode": "29853", "addr:state": "SC", "addr:street_address": "12926 MAIN ST", "amenity": "post_box", "collection_times": "Mo-Fr 16:30; Sa 12:00", "indoor": "yes", "note": "ON 12/24 AND 12/31, THIS BOX MAY BE COLLECTED AS EARLY AS 12 NOON.", "nsi_id": "unitedstatespostalservice-a77078", "operator": "United States Postal Service", "operator:short": "USPS", "operator:type": "public", "operator:wikidata": "Q668687", "ref": "2985300004"}, "type": "Feature"}
{"geometry": {"coordinates": [-81.517170067, 33.484502119], "type": "Point"}, "id": "xb8iEJsPZ0GvxFSdx6xsCXWa2e0=", "properties": {"@source_uri": "https://tools.usps.com/UspsToolsRestServices/rest/POLocator/findLocations", "@spider": "usps_collection_boxes", "addr:city": "WINDSOR", "addr:country": "US", "addr:postcode": "29856", "addr:state": "SC", "addr:street_address": "559 MIDDLETON DR N", "amenity": "post_box", "collection_times": "Mo-Fr 16:30; Sa 12:00", "note": "ON 12/24 AND 12/31, THIS BOX MAY BE COLLECTED AS EARLY AS 12 NOON.", "nsi_id": "unitedstatespostalservice-a77078", "operator": "United States Postal Service", "operator:short": "USPS", "operator:type": "public", "operator:wikidata": "Q668687", "ref": "2985600001"}, "type": "Feature"}
{"geometry": {"coordinates": [-81.517170067, 33.484502119], "type": "Point"}, "id": "G1L3-BTsXpKjWc-2cJXsQRbRZWo=", "properties": {"@source_uri": "https://tools.usps.com/UspsToolsRestServices/rest/POLocator/findLocations", "@spider": "usps_collection_boxes", "addr:city": "WINDSOR", "addr:country": "US", "addr:postcode": "29856", "addr:state": "SC", "addr:street_address": "559 MIDDLETON DR N", "amenity": "post_box", "collection_times": "Mo-Fr 16:30; Sa 12:00", "indoor": "yes", "note": "ON 12/24 AND 12/31, THIS BOX MAY BE COLLECTED AS EARLY AS 12 NOON.", "nsi_id": "unitedstatespostalservice-a77078", "operator": "United States Postal Service", "operator:short": "USPS", "operator:type": "public", "operator:wikidata": "Q668687", "ref": "2985600002"}, "type": "Feature"}
{"geometry": {"coordinates": [-81.517170067, 33.484502119], "type": "Point"}, "id": "oafyPnyLGsRO5kxG9QHzYSuy2AU=", "properties": {"@source_uri": "https://tools.usps.com/UspsToolsRestServices/rest/POLocator/findLocations", "@spider": "usps_collection_boxes", "addr:city": "WINDSOR", "addr:country": "US", "addr:postcode": "29856", "addr:state": "SC", "addr:street_address": "559 MIDDLETON DR N", "amenity": "post_box", "collection_times": "Mo-Fr 16:30; Sa 12:00", "indoor": "yes", "note": "ON 12/24 AND 12/31, THIS BOX MAY BE COLLECTED AS EARLY AS 12 NOON.", "nsi_id": "unitedstatespostalservice-a77078", "operator": "United States Postal Service", "operator:short": "USPS", "operator:type": "public", "operator:wikidata": "Q668687", "ref": "2985600003"}, "type": "Feature"}
{"geometry": {"coordinates": [-81.939394435, 33.569771029], "type": "Point"}, "id": "r7ycn9bP9jBLHm23Ht7pCQeD5WY=", "properties": {"@source_uri": "https://tools.usps.com/UspsToolsRestServices/rest/POLocator/findLocations", "@spider": "usps_collection_boxes", "addr:city": "NORTH AUGUSTA", "addr:country": "US", "addr:postcode": "29860", "addr:state": "SC", "addr:street_address": "135 MARKET PLACE DR", "amenity": "post_box", "collection_times": "Mo-Sa 13:30", "note": "ON 12/24 AND 12/31, THIS BOX MAY BE COLLECTED AS EARLY AS 12 NOON.", "nsi_id": "unitedstatespostalservice-a77078", "operator": "United States Postal Service", "operator:short": "USPS", "operator:type": "public", "operator:wikidata": "Q668687", "ref": "2986000001"}, "type": "Feature"}
