{"geometry": {"coordinates": [-81.188973305, 32.925911678], "type": "Point"}, "id": "iF7OUNYOvLaks2W_3be997t5hzc=", "properties": {"@spider": "usps_collection_boxes", "addr:city": "BRUNSON", "addr:country": "US", "addr:full": "816 N RAILROAD AVE", "addr:postcode": "29911", "addr:state": "SC", "brand": "USPS", "collection_times": "Mo-Fr 16:30; Sa 12:00", "name": "USPS COLLECTION BOX - PO LOBBY", "note": "ON 12/24 AND 12/31, THIS BOX MAY BE COLLECTED AS EARLY AS 12 NOON.", "ref": "2991100001"}, "type": "Feature"}
{"geometry": {"coordinates": [-81.188973305, 32.925911678], "type": "Point"}, "id": "Z7q8W04eHH_09iTmZmfAjktrhto=", "properties": {"@spider": "usps_collection_boxes", "addr:city": "BRUNSON", "addr:country": "US", "addr:full": "816 N RAILROAD AVE", "addr:postcode": "29911", "addr:state": "SC", "brand": "USPS", "collection_times": "Mo-Fr 16:30; Sa 12:00", "name": "USPS COLLECTION BOX - BLUE BOX", "note": "ON 12/24 AND 12/31, THIS BOX MAY BE COLLECTED AS EARLY AS 12 NOON.", "ref": "2991100002"}, "type": "Feature"}
{"geometry": {"coordinates": [-81.188973305, 32.925911678], "type": "Point"}, "id": "EoJDYm_BEDGBKTUJL2A867S6Odo=", "properties": {"@spider": "usps_collection_boxes", "addr:city": "BRUNSON", "addr:country": "US", "addr:full": "816 N RAILROAD AVE", "addr:postcode": "29911", "addr:state": "SC", "brand": "USPS", "collection_times": "Mo-Fr 16:00; Sa 12:00", "name": "USPS COLLECTION BOX - PO LOBBY", "note": "ON 12/24 AND 12/31, THIS BOX MAY BE COLLECTED AS EARLY AS 12 NOON.", "ref": "2991100004"}, "type": "Feature"}
{"geometry": {"coordinates": [-81.241155423, 32.758856837], "type": "Point"}, "id": "twJO2AaQPSNR_d24ZWwI5xEzaiY=", "properties": {"@spider": "usps_collection_boxes", "addr:city": "ESTILL", "addr:country": "US", "addr:full": "328 E RAILROAD AVE N", "addr:postcode": "29918", "addr:state": "SC", "brand": "USPS", "collection_times": "Mo-Fr 16:00; Sa 11:00", "name": "USPS COLLECTION BOX - BLUE BOX", "note": "ON 12/24 AND 12/31, THIS BOX MAY BE COLLECTED AS EARLY AS 12 NOON.", "ref": "2991800001"}, "type": "Feature"}
{"geometry": {"coordinates": [-81.241155423, 32.758856837], "type": "Point"}, "id": "rDYz2MgLW6HDMGVVpOcEh_Gi2v8=", "properties": {"@spider": "usps_collection_boxes", "addr:city": "ESTILL", "addr:country": "US", "addr:full": "328 E RAILROAD AVE N", "addr:postcode": "29918", "addr:state": "SC", "brand": "USPS", "collection_times": "Mo-Fr 16:00; Sa 11:00", "name": "USPS COLLECTION BOX - PO LOBBY", "note": "ON 12/24 AND 12/31, THIS BOX MAY BE COLLECTED AS EARLY AS 12 NOON.", "ref": "2991800002"}, "type": "Feature"}
{"geometry": {"coordinates": [-81.2394972, 32.747839], "type": "Point"}, "id": "hl_6HW5vBGVOAeK1VBWchmCW5xE=", "properties": {"@spider": "usps_collection_boxes", "addr:city": "ESTILL", "addr:country": "US", "addr:full": "170 GRAYSON ST E", "addr:postcode": "29918", "addr:state": "SC", "brand": "USPS", "collection_times": "Mo-Sa 10:00", "name": "USPS COLLECTION BOX - BLUE BOX", "ref": "2991800003"}, "type": "Feature"}
{"geometry": {"coordinates": [-81.241155423, 32.758856837], "type": "Point"}, "id": "o1Cd9vwvdi8OTNFAVIVX_XljCTI=", "properties": {"@spider": "usps_collection_boxes", "addr:city": "ESTILL", "addr:country": "US", "addr:full": "328 E RAILROAD AVE N", "addr:postcode": "29918", "addr:state": "SC", "brand": "USPS", "collection_times": "Mo-Fr 16:00; Sa 11:00", "name": "USPS COLLECTION BOX - PO LOBBY", "note": "ON 12/24 AND 12/31, THIS BOX MAY BE COLLECTED AS EARLY AS 12 NOON.", "ref": "2991800005"}, "type": "Feature"}
{"geometry": {"coordinates": [-81.242898727, 32.606591879], "type": "Point"}, "id": "ROPdKUswIA-Mdy3q7CMIBqJpo8s=", "properties": {"@spider": "usps_collection_boxes", "addr:city": "GARNETT", "addr:country": "US", "addr:full": "15 AUGUSTA STAGECOACH RD", "addr:postcode": "29922", "addr:state": "SC", "brand": "USPS", "collection_times": "Mo-Fr 16:00; Sa 11:00", "name": "USPS COLLECTION BOX - BLUE BOX", "note": "ON 12/24 AND 12/31, THIS BOX MAY BE COLLECTED AS EARLY AS 12 NOON.", "ref": "2992200001"}, "type": "Feature"}
{"geometry": {"coordinates": [-81.242898727, 32.606591879], "type": "Point"}, "id": "LBRRrB4GXEcvD7Qx2Mu2wlWFUno=", "properties": {"@spider": "usps_collection_boxes", "addr:city": "GARNETT", "addr:country": "US", "addr:full": "15 AUGUSTA STAGECOACH RD", "addr:postcode": "29922", "addr:state": "SC", "brand": "USPS", "collection_times": "Mo-Fr 11:45; Sa 11:00", "name": "USPS COLLECTION BOX - PO LOBBY", "ref": "2992200002"}, "type": "Feature"}
{"geometry": {"coordinates": [-81.242898727, 32.606591879], "type": "Point"}, "id": "WSOTY73EETFrgmYIXyYzxgwaNHY=", "properties": {"@spider": "usps_collection_boxes", "addr:city": "GARNETT", "addr:country": "US", "addr:full": "15 AUGUSTA STAGECOACH RD", "addr:postcode": "29922", "addr:state": "SC", "brand": "USPS", "collection_times": "Mo-Fr 16:00; Sa 11:00", "name": "USPS COLLECTION BOX - PO LOBBY", "note": "ON 12/24 AND 12/31, THIS BOX MAY BE COLLECTED AS EARLY AS 12 NOON.", "ref": "2992200004"}, "type": "Feature"}
{"geometry": {"coordinates": [-81.23795931, 32.8607994133], "type": "Point"}, "id": "lzIqqQoumDz9h5xoXqirWyANvOc=", "properties": {"@spider": "usps_collection_boxes", "addr:city": "GIFFORD", "addr:country": "US", "addr:full": "5944 COLUMBIA HWY", "addr:postcode": "29923", "addr:state": "SC", "brand": "USPS", "collection_times": "Mo-Fr 15:45; Sa 10:30", "name": "USPS COLLECTION BOX - BLUE BOX", "note": "ON 12/24 AND 12/31, THIS BOX MAY BE COLLECTED AS EARLY AS 12 NOON.", "ref": "2992300001"}, "type": "Feature"}
{"geometry": {"coordinates": [-81.23795931, 32.860799413], "type": "Point"}, "id": "oalBcZrvuE8RSx-4UM9qLhmI8Ng=", "properties": {"@spider": "usps_collection_boxes", "addr:city": "GIFFORD", "addr:country": "US", "addr:full": "5944 COLUMBIA HWY", "addr:postcode": "29923", "addr:state": "SC", "brand": "USPS", "collection_times": "Mo-Fr 15:45; Sa 10:30", "name": "USPS COLLECTION BOX - PO LOBBY", "note": "ON 12/24 AND 12/31, THIS BOX MAY BE COLLECTED AS EARLY AS 12 NOON.", "ref": "2992300002"}, "type": "Feature"}
{"geometry": {"coordinates": [-81.23795931, 32.860799413], "type": "Point"}, "id": "vMwrXLnOQtRCSQJB6NLKr8Ga48E=", "properties": {"@spider": "usps_collection_boxes", "addr:city": "GIFFORD", "addr:country": "US", "addr:full": "5944 COLUMBIA HWY", "addr:postcode": "29923", "addr:state": "SC", "brand": "USPS", "collection_times": "Mo-Fr 15:45; Sa 10:30", "name": "USPS COLLECTION BOX - PO LOBBY", "note": "ON 12/24 AND 12/31, THIS BOX MAY BE COLLECTED AS EARLY AS 12 NOON.", "ref": "2992300003"}, "type": "Feature"}
{"geometry": {"coordinates": [-81.2398508028, 32.8134767427], "type": "Point"}, "id": "DuX5ssuELISeRRqijyPZLVPBr80=", "properties": {"@spider": "usps_collection_boxes", "addr:city": "LURAY", "addr:country": "US", "addr:full": "2902 COLUMBIA HWY N", "addr:postcode": "29932", "addr:state": "SC", "brand": "USPS", "collection_times": "Mo-Fr 15:45; Sa 11:00", "name": "USPS COLLECTION BOX - BLUE BOX", "note": "ON 12/24 AND 12/31, THIS BOX MAY BE COLLECTED AS EARLY AS 12 NOON.", "ref": "2993200001"}, "type": "Feature"}
{"geometry": {"coordinates": [-81.239882, 32.813491], "type": "Point"}, "id": "qizecdcskI7nqZV9YQ0O2f9zcpY=", "properties": {"@spider": "usps_collection_boxes", "addr:city": "LURAY", "addr:country": "US", "addr:full": "2902 COLUMBIA HWY N", "addr:postcode": "29932", "addr:state": "SC", "brand": "USPS", "collection_times": "Mo-Fr 10:15; Sa 11:00", "name": "USPS COLLECTION BOX - PO LOBBY", "ref": "2993200002"}, "type": "Feature"}
{"geometry": {"coordinates": [-81.2398508028, 32.8134767427], "type": "Point"}, "id": "ejQYbDFp1vOQ3hl7OjTm0KyE1Ik=", "properties": {"@spider": "usps_collection_boxes", "addr:city": "LURAY", "addr:country": "US", "addr:full": "2902 COLUMBIA HWY N", "addr:postcode": "29932", "addr:state": "SC", "brand": "USPS", "collection_times": "Mo-Fr 15:45; Sa 09:45", "name": "USPS COLLECTION BOX - PO LOBBY", "note": "ON 12/24 AND 12/31, THIS BOX MAY BE COLLECTED AS EARLY AS 12 NOON.", "ref": "2993200003"}, "type": "Feature"}
