{"geometry": {"coordinates": [-84.271003, 33.776392], "type": "Point"}, "id": "nHaZ03UNh4z95yOQnizRLJSNHwg=", "properties": {"@spider": "usps_collection_boxes", "addr:city": "AVONDALE EST", "addr:country": "US", "addr:full": "15 FRANKLIN ST", "addr:postcode": "30002", "addr:state": "GA", "brand": "USPS", "collection_times": "Mo-Fr 17:00; Sa 09:00", "name": "USPS COLLECTION BOX - BLUE BOX", "note": "ON 12/24 AND 12/31, THIS BOX MAY BE COLLECTED AS EARLY AS 12 NOON.", "ref": "3000200013"}, "type": "Feature"}
{"geometry": {"coordinates": [-84.271003, 33.776392], "type": "Point"}, "id": "RHteAM08wn2bXqeYUBl8E-cPx9I=", "properties": {"@spider": "usps_collection_boxes", "addr:city": "AVONDALE EST", "addr:country": "US", "addr:full": "15 FRANKLIN ST", "addr:postcode": "30002", "addr:state": "GA", "brand": "USPS", "collection_times": "Mo-Fr 17:00; Sa 09:00", "name": "USPS COLLECTION BOX - PO LOBBY", "note": "ON 12/24 AND 12/31, THIS BOX MAY BE COLLECTED AS EARLY AS 12 NOON.", "ref": "3000200017"}, "type": "Feature"}
{"geometry": {"coordinates": [-84.271030338, 33.776446521], "type": "Point"}, "id": "eKK1_78mY1ZlKXUFE7Z2TJRYT90=", "properties": {"@spider": "usps_collection_boxes", "addr:city": "AVONDALE EST", "addr:country": "US", "addr:full": "15 FRANKLIN ST", "addr:postcode": "30002", "addr:state": "GA", "brand": "USPS", "collection_times": "Mo-Fr 17:00", "name": "USPS COLLECTION BOX - PO LOBBY", "note": "ON 12/24 AND 12/31, THIS BOX MAY BE COLLECTED AS EARLY AS 12 NOON.", "ref": "3000200030"}, "type": "Feature"}
{"geometry": {"coordinates": [-84.357371, 34.07892], "type": "Point"}, "id": "4SIV3MZnRUSlhYhLhctDLUMx41o=", "properties": {"@spider": "usps_collection_boxes", "addr:city": "ALPHARETTA", "addr:country": "US", "addr:full": "270 RUCKER RD", "addr:postcode": "30004", "addr:state": "GA", "brand": "USPS", "collection_times": "Mo-Sa 12:00", "name": "USPS COLLECTION BOX - BLUE BOX", "ref": "3000400000"}, "type": "Feature"}
{"geometry": {"coordinates": [-84.3139505, 34.067261], "type": "Point"}, "id": "OMYl1md0WK7uTD-aYp0pGNj6nUo=", "properties": {"@spider": "usps_collection_boxes", "addr:city": "ALPHARETTA", "addr:country": "US", "addr:full": "11940 HWY 9", "addr:postcode": "30004", "addr:state": "GA", "brand": "USPS", "collection_times": "Mo-Sa 12:00", "name": "USPS COLLECTION BOX - BLUE BOX", "ref": "3000400004"}, "type": "Feature"}
{"geometry": {"coordinates": [-84.3153973, 34.067135], "type": "Point"}, "id": "9seSGGsUO6pWn4uNbxoRL8SvFQM=", "properties": {"@spider": "usps_collection_boxes", "addr:city": "ALPHARETTA", "addr:country": "US", "addr:full": "1031 CAMBRIDGE SQ", "addr:postcode": "30004", "addr:state": "GA", "brand": "USPS", "collection_times": "Mo-Sa 12:00", "name": "USPS COLLECTION BOX - BLUE BOX", "ref": "3000400011"}, "type": "Feature"}
{"geometry": {"coordinates": [-84.2330116, 34.132843], "type": "Point"}, "id": "pEVfQzZFGSwt4VbN_MU--OPWz_Y=", "properties": {"@spider": "usps_collection_boxes", "addr:city": "ALPHARETTA", "addr:country": "US", "addr:full": "1150 ALPHA DR", "addr:postcode": "30004", "addr:state": "GA", "brand": "USPS", "collection_times": "Mo-Sa 11:00", "name": "USPS COLLECTION BOX - BLUE BOX", "ref": "3000400013"}, "type": "Feature"}
{"geometry": {"coordinates": [-84.2751099, 34.083087], "type": "Point"}, "id": "ccGX0y_eFUBV8j0N534VyyjqdDI=", "properties": {"@spider": "usps_collection_boxes", "addr:city": "ALPHARETTA", "addr:country": "US", "addr:full": "2001 WESTSIDE PKWY", "addr:postcode": "30004", "addr:state": "GA", "brand": "USPS", "collection_times": "Mo-Sa 11:00", "name": "USPS COLLECTION BOX - BLUE BOX", "ref": "3000400014"}, "type": "Feature"}
{"geometry": {"coordinates": [-84.3045459, 34.067359], "type": "Point"}, "id": "eG5m61GLcZlx6L1NaeTegiLTmrw=", "properties": {"@spider": "usps_collection_boxes", "addr:city": "ALPHARETTA", "addr:country": "US", "addr:full": "401 S MAIN ST", "addr:postcode": "30004", "addr:state": "GA", "brand": "USPS", "collection_times": "Mo-Sa 11:00", "name": "USPS COLLECTION BOX - BLUE BOX", "ref": "3000400015"}, "type": "Feature"}
{"geometry": {"coordinates": [-84.287499, 34.092162], "type": "Point"}, "id": "7cLrMTfwkQyA1CQlraQMyShBQx4=", "properties": {"@spider": "usps_collection_boxes", "addr:city": "ALPHARETTA", "addr:country": "US", "addr:full": "700 N MAIN ST", "addr:postcode": "30004", "addr:state": "GA", "brand": "USPS", "collection_times": "Mo-Sa 11:00", "name": "USPS COLLECTION BOX - BLUE BOX", "ref": "3000400022"}, "type": "Feature"}
{"geometry": {"coordinates": [-84.2217185, 34.123897], "type": "Point"}, "id": "q_2FC2Or_Y9H_cyhFsTlkEOYdaY=", "properties": {"@spider": "usps_collection_boxes", "addr:city": "ALPHARETTA", "addr:country": "US", "addr:full": "900 MCFARLAND 400 BLVD", "addr:postcode": "30004", "addr:state": "GA", "brand": "USPS", "collection_times": "Mo-Sa 11:00", "name": "USPS COLLECTION BOX - BLUE BOX", "ref": "3000400024"}, "type": "Feature"}
{"geometry": {"coordinates": [-84.2341445, 34.12628], "type": "Point"}, "id": "cy6cOumn3uHeQithwNw70yc9rN8=", "properties": {"@spider": "usps_collection_boxes", "addr:city": "ALPHARETTA", "addr:country": "US", "addr:full": "1000 UNION CENTER DR", "addr:postcode": "30004", "addr:state": "GA", "brand": "USPS", "collection_times": "Mo-Sa 11:00", "name": "USPS COLLECTION BOX - BLUE BOX", "ref": "3000400027"}, "type": "Feature"}
{"geometry": {"coordinates": [-84.2896263, 34.071094], "type": "Point"}, "id": "o4Id-sGi3Ym7hNffTU_aDBbuWAk=", "properties": {"@spider": "usps_collection_boxes", "addr:city": "ALPHARETTA", "addr:country": "US", "addr:full": "2400 OLD MILTON PKWY", "addr:postcode": "30004", "addr:state": "GA", "brand": "USPS", "collection_times": "Mo-Fr 17:00; Sa 14:00", "name": "USPS COLLECTION BOX - PO LOBBY", "note": "ON 12/24 AND 12/31, THIS BOX MAY BE COLLECTED AS EARLY AS 12 NOON.", "ref": "3000400028"}, "type": "Feature"}
{"geometry": {"coordinates": [-84.3001786, 34.067602], "type": "Point"}, "id": "SdZW1ZCzYM1wlM0gD-uwiQCzWbQ=", "properties": {"@spider": "usps_collection_boxes", "addr:city": "ALPHARETTA", "addr:country": "US", "addr:full": "282 S MAIN ST", "addr:postcode": "30004", "addr:state": "GA", "brand": "USPS", "collection_times": "Mo-Sa 12:00", "name": "USPS COLLECTION BOX - BLUE BOX", "ref": "3000400030"}, "type": "Feature"}
{"geometry": {"coordinates": [-84.2501862, 34.14465], "type": "Point"}, "id": "txzYmXbTv6E83Wt1brWWBLF8zP8=", "properties": {"@spider": "usps_collection_boxes", "addr:city": "ALPHARETTA", "addr:country": "US", "addr:full": "5665 HIGHWAY 9 N", "addr:postcode": "30004", "addr:state": "GA", "brand": "USPS", "collection_times": "Mo-Sa 11:00", "name": "USPS COLLECTION BOX - BLUE BOX", "ref": "3000400031"}, "type": "Feature"}
{"geometry": {"coordinates": [-84.2723154, 34.084206], "type": "Point"}, "id": "m-N6NCl97ma7lNqa71hGCqhRhkY=", "properties": {"@spider": "usps_collection_boxes", "addr:city": "ALPHARETTA", "addr:country": "US", "addr:full": "2575 WESTSIDE PKWY", "addr:postcode": "30004", "addr:state": "GA", "brand": "USPS", "collection_times": "Mo-Sa 11:00", "name": "USPS COLLECTION BOX - BLUE BOX", "ref": "3000400039"}, "type": "Feature"}
{"geometry": {"coordinates": [-84.289478778, 34.070608483], "type": "Point"}, "id": "bstX6ICwn3S_2FSqb5I4faPbuoo=", "properties": {"@spider": "usps_collection_boxes", "addr:city": "ALPHARETTA", "addr:country": "US", "addr:full": "2400 OLD MILTON PKWY", "addr:postcode": "30004", "addr:state": "GA", "brand": "USPS", "collection_times": "Mo-Fr 17:00; Sa 14:00", "name": "USPS COLLECTION BOX - BLUE BOX", "note": "ON 12/24 AND 12/31, THIS BOX MAY BE COLLECTED AS EARLY AS 12 NOON.", "ref": "3000400044"}, "type": "Feature"}
{"geometry": {"coordinates": [-84.290813, 34.057186], "type": "Point"}, "id": "XYZhqFyRqyFbDRFa2hJ2CJODeLA=", "properties": {"@spider": "usps_collection_boxes", "addr:city": "ALPHARETTA", "addr:country": "US", "addr:full": "2400 LAKEVIEW PKWY", "addr:postcode": "30004", "addr:state": "GA", "brand": "USPS", "collection_times": "Mo-Sa 11:00", "name": "USPS COLLECTION BOX - BLUE BOX", "ref": "3000400045"}, "type": "Feature"}
{"geometry": {"coordinates": [-84.311880009, 34.185264712], "type": "Point"}, "id": "O5-FPhWtUG_Bt1UjGJVYzk8x2oQ=", "properties": {"@spider": "usps_collection_boxes", "addr:city": "ALPHARETTA", "addr:country": "US", "addr:full": "2006 HERITAGE WALK", "addr:postcode": "30004", "addr:state": "GA", "brand": "USPS", "collection_times": "Mo-Sa 12:00", "name": "USPS COLLECTION BOX - BLUE BOX", "ref": "3000400047"}, "type": "Feature"}
{"geometry": {"coordinates": [-84.288285, 34.058295], "type": "Point"}, "id": "pNfsedwvoUCRuauHhuYdebFAl9w=", "properties": {"@spider": "usps_collection_boxes", "addr:city": "ALPHARETTA", "addr:country": "US", "addr:full": "2325 LAKEVIEW PKWY", "addr:postcode": "30004", "addr:state": "GA", "brand": "USPS", "collection_times": "Mo-Sa 11:00", "name": "USPS COLLECTION BOX - BLUE BOX", "ref": "3000400049"}, "type": "Feature"}
{"geometry": {"coordinates": [-84.2398537, 34.108593], "type": "Point"}, "id": "6oiahl6Sau7LCRS3Pwv1e2sij4M=", "properties": {"@spider": "usps_collection_boxes", "addr:city": "ALPHARETTA", "addr:country": "US", "addr:full": "1360 UNION HILL RD", "addr:postcode": "30004", "addr:state": "GA", "brand": "USPS", "collection_times": "Mo-Sa 11:00", "name": "USPS COLLECTION BOX - BLUE BOX", "ref": "3000400057"}, "type": "Feature"}
{"geometry": {"coordinates": [-84.2395421, 34.159218], "type": "Point"}, "id": "T2ivWJuDzKukjP0fuXtOOcGzvuc=", "properties": {"@spider": "usps_collection_boxes", "addr:city": "ALPHARETTA", "addr:country": "US", "addr:full": "4900 HIGHWAY 9 N", "addr:postcode": "30004", "addr:state": "GA", "brand": "USPS", "collection_times": "Mo-Sa 11:00", "name": "USPS COLLECTION BOX - BLUE BOX", "ref": "3000400058"}, "type": "Feature"}
{"geometry": {"coordinates": [-84.2940499, 34.091481], "type": "Point"}, "id": "G58dIcoBCEiwlBDSCDlOnjiHzl0=", "properties": {"@spider": "usps_collection_boxes", "addr:city": "ALPHARETTA", "addr:country": "US", "addr:full": "12725 CENTURY DR", "addr:postcode": "30004", "addr:state": "GA", "brand": "USPS", "collection_times": "Mo-Fr 10:30; Sa 09:30", "name": "USPS COLLECTION BOX - BLUE BOX", "ref": "3000400061"}, "type": "Feature"}
{"geometry": {"coordinates": [-84.2895913, 34.071056], "type": "Point"}, "id": "8AkRtKjTce3Q7sLO9CVbBL71Jeo=", "properties": {"@spider": "usps_collection_boxes", "addr:city": "ALPHARETTA", "addr:country": "US", "addr:full": "2400 OLD MILTON PKWY", "addr:postcode": "30004", "addr:state": "GA", "brand": "USPS", "collection_times": "Mo-Fr 17:00; Sa 14:00", "name": "USPS COLLECTION BOX - APC", "note": "ON 12/24 AND 12/31, THIS BOX MAY BE COLLECTED AS EARLY AS 12 NOON.", "ref": "3000400064"}, "type": "Feature"}
{"geometry": {"coordinates": [-84.261095, 34.067726], "type": "Point"}, "id": "MJ-pWU0SxDTSL0k6dcdy41feWL4=", "properties": {"@spider": "usps_collection_boxes", "addr:city": "ALPHARETTA", "addr:country": "US", "addr:full": "3400 OLD MILTON PKWY", "addr:postcode": "30005", "addr:state": "GA", "brand": "USPS", "collection_times": "Mo-Sa 11:30", "name": "USPS COLLECTION BOX - BLUE BOX", "ref": "3000500002"}, "type": "Feature"}
{"geometry": {"coordinates": [-84.2540569, 34.088349], "type": "Point"}, "id": "hwc3vdoL5R8dCrXp6SJsBmzf3kI=", "properties": {"@spider": "usps_collection_boxes", "addr:city": "ALPHARETTA", "addr:country": "US", "addr:full": "5895 WINDWARD PKWY", "addr:postcode": "30005", "addr:state": "GA", "brand": "USPS", "collection_times": "Mo-Sa 11:00", "name": "USPS COLLECTION BOX - BLUE BOX", "ref": "3000500003"}, "type": "Feature"}
{"geometry": {"coordinates": [-84.2018021, 34.109672], "type": "Point"}, "id": "0lzvHhSrMdLzyvfYCDF7_Bu3Xh4=", "properties": {"@spider": "usps_collection_boxes", "addr:city": "ALPHARETTA", "addr:country": "US", "addr:full": "5800 SHILOH RD", "addr:postcode": "30005", "addr:state": "GA", "brand": "USPS", "collection_times": "Mo-Sa 11:00", "name": "USPS COLLECTION BOX - BLUE BOX", "ref": "3000500004"}, "type": "Feature"}
{"geometry": {"coordinates": [-84.2044431, 34.071156], "type": "Point"}, "id": "ORNRwCnjl-lCBukudDC26l6m_4g=", "properties": {"@spider": "usps_collection_boxes", "addr:city": "ALPHARETTA", "addr:country": "US", "addr:full": "11950 JONES BRIDGE RD", "addr:postcode": "30005", "addr:state": "GA", "brand": "USPS", "collection_times": "Mo-Fr 10:00; Sa 10:30", "name": "USPS COLLECTION BOX - BLUE BOX", "ref": "3000500009"}, "type": "Feature"}
{"geometry": {"coordinates": [-84.225414, 34.064653], "type": "Point"}, "id": "Vxe-WJUct6L9ogFgeQlZOCxtM4s=", "properties": {"@spider": "usps_collection_boxes", "addr:city": "ALPHARETTA", "addr:country": "US", "addr:full": "4575 WEBB BRIDGE RD", "addr:postcode": "30005", "addr:state": "GA", "brand": "USPS", "collection_times": "Mo-Fr 17:00; Sa 14:00", "name": "USPS COLLECTION BOX - PO LOBBY", "note": "ON 12/24 AND 12/31, THIS BOX MAY BE COLLECTED AS EARLY AS 12 NOON.", "ref": "3000500010"}, "type": "Feature"}
{"geometry": {"coordinates": [-84.225414, 34.064653], "type": "Point"}, "id": "yF6o1pU_Q0wMLRd2FKsH426LnJ0=", "properties": {"@spider": "usps_collection_boxes", "addr:city": "ALPHARETTA", "addr:country": "US", "addr:full": "4575 WEBB BRIDGE RD", "addr:postcode": "30005", "addr:state": "GA", "brand": "USPS", "collection_times": "Mo-Fr 17:00; Sa 14:00", "name": "USPS COLLECTION BOX - BLUE BOX", "note": "ON 12/24 AND 12/31, THIS BOX MAY BE COLLECTED AS EARLY AS 12 NOON.", "ref": "3000500011"}, "type": "Feature"}
{"geometry": {"coordinates": [-84.212687, 34.099559], "type": "Point"}, "id": "B8Xd3g3hUWOOiWFWb_UOmeh7tBM=", "properties": {"@spider": "usps_collection_boxes", "addr:city": "ALPHARETTA", "addr:country": "US", "addr:full": "1290 OLD ALPHARETTA RD", "addr:postcode": "30005", "addr:state": "GA", "brand": "USPS", "collection_times": "Mo-Sa 11:00", "name": "USPS COLLECTION BOX - BLUE BOX", "ref": "3000500013"}, "type": "Feature"}
{"geometry": {"coordinates": [-84.2432529, 34.091277], "type": "Point"}, "id": "7z80gwlnl1rTFsSzhssL1U8mWgc=", "properties": {"@spider": "usps_collection_boxes", "addr:city": "ALPHARETTA", "addr:country": "US", "addr:full": "3015 WINDWARD PLZ", "addr:postcode": "30005", "addr:state": "GA", "brand": "USPS", "collection_times": "Mo-Sa 11:00", "name": "USPS COLLECTION BOX - BLUE BOX", "ref": "3000500014"}, "type": "Feature"}
{"geometry": {"coordinates": [-84.2615021, 34.071106], "type": "Point"}, "id": "VlPzVj4TwtV8-Dql-HKa-DVjrXA=", "properties": {"@spider": "usps_collection_boxes", "addr:city": "ALPHARETTA", "addr:country": "US", "addr:full": "3480 PRESTON RIDGE RD", "addr:postcode": "30005", "addr:state": "GA", "brand": "USPS", "collection_times": "Mo-Sa 11:30", "name": "USPS COLLECTION BOX - BLUE BOX", "ref": "3000500016"}, "type": "Feature"}
{"geometry": {"coordinates": [-84.2361765, 34.084483], "type": "Point"}, "id": "TGxjzONtygxWYzAuIX1efy2Qd-w=", "properties": {"@spider": "usps_collection_boxes", "addr:city": "ALPHARETTA", "addr:country": "US", "addr:full": "1 LAKE WINDWARD DR & SIGNAL POINT", "addr:postcode": "30005", "addr:state": "GA", "brand": "USPS", "collection_times": "Mo-Sa 11:00", "name": "USPS COLLECTION BOX - BLUE BOX", "ref": "3000500017"}, "type": "Feature"}
{"geometry": {"coordinates": [-84.2281556, 34.089329], "type": "Point"}, "id": "7f_wtDLGoMFOU4QWiC7Dbo_hJbY=", "properties": {"@spider": "usps_collection_boxes", "addr:city": "ALPHARETTA", "addr:country": "US", "addr:full": "1 WINDWORD PKWY & CLUBHOUSE DR", "addr:postcode": "30005", "addr:state": "GA", "brand": "USPS", "collection_times": "Mo-Sa 11:30", "name": "USPS COLLECTION BOX - BLUE BOX", "ref": "3000500018"}, "type": "Feature"}
{"geometry": {"coordinates": [-84.2899356, 34.033646], "type": "Point"}, "id": "dsv0npMMuXXCyphRw7ubA74RTHw=", "properties": {"@spider": "usps_collection_boxes", "addr:city": "ALPHARETTA", "addr:country": "US", "addr:full": "10425 OLD ALABAMA CONNECTOR", "addr:postcode": "30005", "addr:state": "GA", "brand": "USPS", "collection_times": "Mo-Sa 11:30", "name": "USPS COLLECTION BOX - BLUE BOX", "ref": "3000500021"}, "type": "Feature"}
{"geometry": {"coordinates": [-84.1979652, 34.091297], "type": "Point"}, "id": "jstCWUFnNTGwsNHeB_xzfenAMMY=", "properties": {"@spider": "usps_collection_boxes", "addr:city": "ALPHARETTA", "addr:country": "US", "addr:full": "5470 MCGINNIS VILLAGE PL", "addr:postcode": "30005", "addr:state": "GA", "brand": "USPS", "collection_times": "Mo-Sa 11:15", "name": "USPS COLLECTION BOX - BLUE BOX", "ref": "3000500022"}, "type": "Feature"}
{"geometry": {"coordinates": [-84.225414, 34.064653], "type": "Point"}, "id": "kIVCojxu3Md18O90RorfvEuCOi4=", "properties": {"@spider": "usps_collection_boxes", "addr:city": "ALPHARETTA", "addr:country": "US", "addr:full": "4575 WEBB BRIDGE RD", "addr:postcode": "30005", "addr:state": "GA", "brand": "USPS", "collection_times": "Mo-Fr 17:00; Sa 14:00", "name": "USPS COLLECTION BOX - APC", "note": "ON 12/24 AND 12/31, THIS BOX MAY BE COLLECTED AS EARLY AS 12 NOON.", "ref": "3000500024"}, "type": "Feature"}
{"geometry": {"coordinates": [-84.225413824, 34.064604655], "type": "Point"}, "id": "M0JSjEJH5U0Y7UI1smXHHTCPuUc=", "properties": {"@spider": "usps_collection_boxes", "addr:city": "ALPHARETTA", "addr:country": "US", "addr:full": "4575 WEBB BRIDGE RD", "addr:postcode": "30005", "addr:state": "GA", "brand": "USPS", "collection_times": "Mo-Fr 17:00; Sa 14:00", "name": "USPS COLLECTION BOX - PO LOBBY", "note": "ON 12/24 AND 12/31, THIS BOX MAY BE COLLECTED AS EARLY AS 12 NOON.", "ref": "3000500032"}, "type": "Feature"}
{"geometry": {"coordinates": [-84.289483278, 34.070599483], "type": "Point"}, "id": "Ykyx11Xr02MN9Cj7ZDyjFM8fxS4=", "properties": {"@spider": "usps_collection_boxes", "addr:city": "ALPHARETTA", "addr:country": "US", "addr:full": "2400 OLD MILTON PKWY", "addr:postcode": "30009", "addr:state": "GA", "brand": "USPS", "collection_times": "Mo-Fr 17:00; Sa 14:00", "name": "USPS COLLECTION BOX - PO LOBBY", "note": "ON 12/24 AND 12/31, THIS BOX MAY BE COLLECTED AS EARLY AS 12 NOON.", "ref": "3000900003"}, "type": "Feature"}
{"geometry": {"coordinates": [-84.0172885, 33.667517], "type": "Point"}, "id": "S2dDBJq6g4-CMulhyJBiAsNsZck=", "properties": {"@spider": "usps_collection_boxes", "addr:city": "CONYERS", "addr:country": "US", "addr:full": "924 S MAIN ST NE", "addr:postcode": "30012", "addr:state": "GA", "brand": "USPS", "collection_times": "Mo-Sa 13:30", "name": "USPS COLLECTION BOX - BLUE BOX", "note": "ON 12/24 AND 12/31, THIS BOX MAY BE COLLECTED AS EARLY AS 12 NOON.", "ref": "3001200000"}, "type": "Feature"}
{"geometry": {"coordinates": [-84.014407223, 33.662485322], "type": "Point"}, "id": "PgWeQFalamsR0yqMcl37XuuXrks=", "properties": {"@spider": "usps_collection_boxes", "addr:city": "CONYERS", "addr:country": "US", "addr:full": "1007 GREEN ST SE", "addr:postcode": "30012", "addr:state": "GA", "brand": "USPS", "collection_times": "Mo-Fr 17:00; Sa 12:00", "name": "USPS COLLECTION BOX - BLUE BOX", "note": "ON 12/24 AND 12/31, THIS BOX MAY BE COLLECTED AS EARLY AS 12 NOON.", "ref": "3001200001"}, "type": "Feature"}
{"geometry": {"coordinates": [-84.0269714, 33.666675], "type": "Point"}, "id": "JSSAB5bPElMB1xt03UbM2MUvCTo=", "properties": {"@spider": "usps_collection_boxes", "addr:city": "CONYERS", "addr:country": "US", "addr:full": "1183 WEST AVE SW", "addr:postcode": "30012", "addr:state": "GA", "brand": "USPS", "collection_times": "Mo-Sa 13:30", "name": "USPS COLLECTION BOX - BLUE BOX", "note": "ON 12/24 AND 12/31, THIS BOX MAY BE COLLECTED AS EARLY AS 12 NOON.", "ref": "3001200009"}, "type": "Feature"}
{"geometry": {"coordinates": [-83.9983737, 33.68398], "type": "Point"}, "id": "hrjsUJUWCtNpZRk7MkwX1zDo6gQ=", "properties": {"@spider": "usps_collection_boxes", "addr:city": "CONYERS", "addr:country": "US", "addr:full": "1590 HWY 20 NW", "addr:postcode": "30012", "addr:state": "GA", "brand": "USPS", "collection_times": "Mo-Sa 13:00", "name": "USPS COLLECTION BOX - BLUE BOX", "note": "ON 12/24 AND 12/31, THIS BOX MAY BE COLLECTED AS EARLY AS 12 NOON.", "ref": "3001200011"}, "type": "Feature"}
{"geometry": {"coordinates": [-84.0143458, 33.661981], "type": "Point"}, "id": "V7rTqZC4RwSsJmp8JrLeE4x2VkQ=", "properties": {"@spider": "usps_collection_boxes", "addr:city": "CONYERS", "addr:country": "US", "addr:full": "1007 GREEN ST SE", "addr:postcode": "30012", "addr:state": "GA", "brand": "USPS", "collection_times": "Mo-Fr 17:00; Sa 12:00", "name": "USPS COLLECTION BOX - PO LOBBY", "note": "ON 12/24 AND 12/31, THIS BOX MAY BE COLLECTED AS EARLY AS 12 NOON.", "ref": "3001200012"}, "type": "Feature"}
{"geometry": {"coordinates": [-84.0143656, 33.661935], "type": "Point"}, "id": "alHExM4z9wmu_CZGH0hFfDw_1hI=", "properties": {"@spider": "usps_collection_boxes", "addr:city": "CONYERS", "addr:country": "US", "addr:full": "1007 GREEN ST SE", "addr:postcode": "30012", "addr:state": "GA", "brand": "USPS", "collection_times": "Mo-Fr 17:00; Sa 14:00", "name": "USPS COLLECTION BOX - PO LOBBY", "note": "ON 12/24 AND 12/31, THIS BOX MAY BE COLLECTED AS EARLY AS 12 NOON.", "ref": "3001200013"}, "type": "Feature"}
{"geometry": {"coordinates": [-84.0142221889, 33.6620683664], "type": "Point"}, "id": "hsU9xNpdPwKlPh_sRQA8uQk3lsE=", "properties": {"@spider": "usps_collection_boxes", "addr:city": "CONYERS", "addr:country": "US", "addr:full": "1007 GREEN ST SE", "addr:postcode": "30012", "addr:state": "GA", "brand": "USPS", "collection_times": "Mo-Fr 17:00; Sa 12:00", "name": "USPS COLLECTION BOX - PO LOBBY", "note": "ON 12/24 AND 12/31, THIS BOX MAY BE COLLECTED AS EARLY AS 12 NOON.", "ref": "3001200018"}, "type": "Feature"}
{"geometry": {"coordinates": [-84.0157606, 33.64292], "type": "Point"}, "id": "vBj0OoZHn_rDY57uz1sZ7BfFlxE=", "properties": {"@spider": "usps_collection_boxes", "addr:city": "CONYERS", "addr:country": "US", "addr:full": "1745 HIGHWAY 138 SE", "addr:postcode": "30013", "addr:state": "GA", "brand": "USPS", "collection_times": "Mo-Sa 13:00", "name": "USPS COLLECTION BOX - BLUE BOX", "note": "ON 12/24 AND 12/31, THIS BOX MAY BE COLLECTED AS EARLY AS 12 NOON.", "ref": "3001300001"}, "type": "Feature"}
{"geometry": {"coordinates": [-83.9768256, 33.62901], "type": "Point"}, "id": "xTkaUbyLUF7crUFR-ztOienhkg4=", "properties": {"@spider": "usps_collection_boxes", "addr:city": "CONYERS", "addr:country": "US", "addr:full": "2274 SALEM RD SE", "addr:postcode": "30013", "addr:state": "GA", "brand": "USPS", "collection_times": "Mo-Sa 12:30", "name": "USPS COLLECTION BOX - BLUE BOX", "note": "ON 12/24 AND 12/31, THIS BOX MAY BE COLLECTED AS EARLY AS 12 NOON.", "ref": "3001300003"}, "type": "Feature"}
{"geometry": {"coordinates": [-83.9786718, 33.626003], "type": "Point"}, "id": "t6iSDLX76HbC6kB71HJQ2LbiTjg=", "properties": {"@spider": "usps_collection_boxes", "addr:city": "CONYERS", "addr:country": "US", "addr:full": "2375 WALL ST SE", "addr:postcode": "30013", "addr:state": "GA", "brand": "USPS", "collection_times": "Mo-Sa 12:30", "name": "USPS COLLECTION BOX - BLUE BOX", "note": "ON 12/24 AND 12/31, THIS BOX MAY BE COLLECTED AS EARLY AS 12 NOON.", "ref": "3001300006"}, "type": "Feature"}
{"geometry": {"coordinates": [-84.016044, 33.645609], "type": "Point"}, "id": "oa7I_l5AoMfyh5-re4EBKwsR7LQ=", "properties": {"@spider": "usps_collection_boxes", "addr:city": "CONYERS", "addr:country": "US", "addr:full": "1705 HIGHWAY 138 SE", "addr:postcode": "30013", "addr:state": "GA", "brand": "USPS", "collection_times": "Mo-Fr 17:15; Sa 15:00", "name": "USPS COLLECTION BOX - BLUE BOX", "note": "ON 12/24 AND 12/31, THIS BOX MAY BE COLLECTED AS EARLY AS 12 NOON.", "ref": "3001300007"}, "type": "Feature"}
{"geometry": {"coordinates": [-84.0125682, 33.596087], "type": "Point"}, "id": "M6zyhHz2wpA0rFiPL6sjtAU0hIg=", "properties": {"@spider": "usps_collection_boxes", "addr:city": "CONYERS", "addr:country": "US", "addr:full": "1041 HONEY CREEK RD SE", "addr:postcode": "30013", "addr:state": "GA", "brand": "USPS", "collection_times": "Mo-Sa 12:30", "name": "USPS COLLECTION BOX - BLUE BOX", "note": "ON 12/24 AND 12/31, THIS BOX MAY BE COLLECTED AS EARLY AS 12 NOON.", "ref": "3001300013"}, "type": "Feature"}
{"geometry": {"coordinates": [-84.0134859, 33.640958], "type": "Point"}, "id": "8eFD4-92JWEoAa70vq1qb6zeFMY=", "properties": {"@spider": "usps_collection_boxes", "addr:city": "CONYERS", "addr:country": "US", "addr:full": "1820 HIGHWAY 20 SE", "addr:postcode": "30013", "addr:state": "GA", "brand": "USPS", "collection_times": "Mo-Sa 12:30", "name": "USPS COLLECTION BOX - BLUE BOX", "note": "ON 12/24 AND 12/31, THIS BOX MAY BE COLLECTED AS EARLY AS 12 NOON.", "ref": "3001300014"}, "type": "Feature"}
{"geometry": {"coordinates": [-84.0159245, 33.645671], "type": "Point"}, "id": "bW1UggwWPPbnsiskM5Qhuu7oAkg=", "properties": {"@spider": "usps_collection_boxes", "addr:city": "CONYERS", "addr:country": "US", "addr:full": "1705 HIGHWAY 138 SE", "addr:postcode": "30013", "addr:state": "GA", "brand": "USPS", "collection_times": "Mo-Fr 17:15; Sa 15:00", "name": "USPS COLLECTION BOX - PO LOBBY", "note": "ON 12/24 AND 12/31, THIS BOX MAY BE COLLECTED AS EARLY AS 12 NOON.", "ref": "3001300018"}, "type": "Feature"}
{"geometry": {"coordinates": [-84.014118, 33.645366], "type": "Point"}, "id": "P048S8m2c5I9lTouhFPAlcThcCg=", "properties": {"@spider": "usps_collection_boxes", "addr:city": "CONYERS", "addr:country": "US", "addr:full": "1705 HIGHWAY 138 SE", "addr:postcode": "30013", "addr:state": "GA", "brand": "USPS", "collection_times": "Mo-Fr 17:15; Sa 15:00", "name": "USPS COLLECTION BOX - APC", "note": "ON 12/24 AND 12/31, THIS BOX MAY BE COLLECTED AS EARLY AS 12 NOON.", "ref": "3001300019"}, "type": "Feature"}
{"geometry": {"coordinates": [-84.014118, 33.645366], "type": "Point"}, "id": "FdJmzzgHobTicANFlYvPHiIIrrs=", "properties": {"@spider": "usps_collection_boxes", "addr:city": "CONYERS", "addr:country": "US", "addr:full": "1705 HIGHWAY 138 SE", "addr:postcode": "30013", "addr:state": "GA", "brand": "USPS", "collection_times": "Mo-Fr 17:15; Sa 15:00", "name": "USPS COLLECTION BOX - PO LOBBY", "note": "ON 12/24 AND 12/31, THIS BOX MAY BE COLLECTED AS EARLY AS 12 NOON.", "ref": "3001300020"}, "type": "Feature"}
{"geometry": {"coordinates": [-84.014118, 33.645366], "type": "Point"}, "id": "srpJ83ew2zk1CGMfOoyvNfgdlRQ=", "properties": {"@spider": "usps_collection_boxes", "addr:city": "CONYERS", "addr:country": "US", "addr:full": "1705 HIGHWAY 138 SE", "addr:postcode": "30013", "addr:state": "GA", "brand": "USPS", "collection_times": "Mo-Fr 17:15; Sa 15:00", "name": "USPS COLLECTION BOX - PO LOBBY", "note": "ON 12/24 AND 12/31, THIS BOX MAY BE COLLECTED AS EARLY AS 12 NOON.", "ref": "3001300021"}, "type": "Feature"}
{"geometry": {"coordinates": [-84.014118, 33.645366], "type": "Point"}, "id": "mfBVWRs0aZbvLift4HgAYZx551Q=", "properties": {"@spider": "usps_collection_boxes", "addr:city": "CONYERS", "addr:country": "US", "addr:full": "1705 HIGHWAY 138 SE", "addr:postcode": "30013", "addr:state": "GA", "brand": "USPS", "collection_times": "Mo-Fr 17:15; Sa 15:00", "name": "USPS COLLECTION BOX - PO LOBBY", "note": "ON 12/24 AND 12/31, THIS BOX MAY BE COLLECTED AS EARLY AS 12 NOON.", "ref": "3001300022"}, "type": "Feature"}
{"geometry": {"coordinates": [-84.014214482, 33.645143511], "type": "Point"}, "id": "RrSAlEzdPOk57dT77WMnIQ7Hftc=", "properties": {"@spider": "usps_collection_boxes", "addr:city": "CONYERS", "addr:country": "US", "addr:full": "1705 HIGHWAY 138 SE", "addr:postcode": "30013", "addr:state": "GA", "brand": "USPS", "collection_times": "Mo-Fr 17:00; Sa 12:30", "name": "USPS COLLECTION BOX - PO LOBBY", "note": "ON 12/24 AND 12/31, THIS BOX MAY BE COLLECTED AS EARLY AS 12 NOON.", "ref": "3001300029"}, "type": "Feature"}
{"geometry": {"coordinates": [-84.2942923, 34.048968], "type": "Point"}, "id": "JqmyCQi31awt5GuJmcgEEULgS28=", "properties": {"@spider": "usps_collection_boxes", "addr:city": "ALPHARETTA", "addr:country": "US", "addr:full": "6301 N POINT PKWY", "addr:postcode": "30022", "addr:state": "GA", "brand": "USPS", "collection_times": "Mo-Sa 11:30", "name": "USPS COLLECTION BOX - BLUE BOX", "ref": "3002200002"}, "type": "Feature"}
{"geometry": {"coordinates": [-84.2208912, 34.048185], "type": "Point"}, "id": "C9YNwdcu6ZhE8A53EfFWTdwAKv8=", "properties": {"@spider": "usps_collection_boxes", "addr:city": "ALPHARETTA", "addr:country": "US", "addr:full": "10955 JONES BRIDGE RD", "addr:postcode": "30022", "addr:state": "GA", "brand": "USPS", "collection_times": "Mo-Sa 10:30", "name": "USPS COLLECTION BOX - BLUE BOX", "ref": "3002200003"}, "type": "Feature"}
{"geometry": {"coordinates": [-84.3044599, 34.041536], "type": "Point"}, "id": "aziPBYfiFVpm-rm-0i9tN1OnjSI=", "properties": {"@spider": "usps_collection_boxes", "addr:city": "ALPHARETTA", "addr:country": "US", "addr:full": "7501 N POINT PKWY", "addr:postcode": "30022", "addr:state": "GA", "brand": "USPS", "collection_times": "Mo-Sa 11:30", "name": "USPS COLLECTION BOX - BLUE BOX", "ref": "3002200005"}, "type": "Feature"}
{"geometry": {"coordinates": [-84.2728779, 34.022002], "type": "Point"}, "id": "yXoJN6W4wrozGFROObKii1udolM=", "properties": {"@spider": "usps_collection_boxes", "addr:city": "ALPHARETTA", "addr:country": "US", "addr:full": "3000 OLD ALABAMA RD", "addr:postcode": "30022", "addr:state": "GA", "brand": "USPS", "collection_times": "Mo-Sa 10:30", "name": "USPS COLLECTION BOX - BLUE BOX", "ref": "3002200008"}, "type": "Feature"}
{"geometry": {"coordinates": [-84.2229204, 34.04909], "type": "Point"}, "id": "XV0Vs2p1zauslq2Vp6Up3nLSj3s=", "properties": {"@spider": "usps_collection_boxes", "addr:city": "ALPHARETTA", "addr:country": "US", "addr:full": "10945 STATE BRIDGE RD", "addr:postcode": "30022", "addr:state": "GA", "brand": "USPS", "collection_times": "Mo-Sa 11:30", "name": "USPS COLLECTION BOX - BLUE BOX", "ref": "3002200009"}, "type": "Feature"}
{"geometry": {"coordinates": [-84.298958, 34.047767], "type": "Point"}, "id": "RGj1W5KV7EPJ64Gp0j5DPuv183M=", "properties": {"@spider": "usps_collection_boxes", "addr:city": "ALPHARETTA", "addr:country": "US", "addr:full": "333 N POINT CTR E", "addr:postcode": "30022", "addr:state": "GA", "brand": "USPS", "collection_times": "Mo-Sa 11:30", "name": "USPS COLLECTION BOX - BLUE BOX", "ref": "3002200016"}, "type": "Feature"}
{"geometry": {"coordinates": [-84.2994926, 34.045875], "type": "Point"}, "id": "qpvm5XMP_zN3DaHJ131wmmqB0rQ=", "properties": {"@spider": "usps_collection_boxes", "addr:city": "ALPHARETTA", "addr:country": "US", "addr:full": "200 N POINT CTR E", "addr:postcode": "30022", "addr:state": "GA", "brand": "USPS", "collection_times": "Mo-Sa 11:30", "name": "USPS COLLECTION BOX - BLUE BOX", "ref": "3002200017"}, "type": "Feature"}
{"geometry": {"coordinates": [-84.300289, 34.046475], "type": "Point"}, "id": "hZrYKIbCD3WVLs32_YUWQwLSRRE=", "properties": {"@spider": "usps_collection_boxes", "addr:city": "ALPHARETTA", "addr:country": "US", "addr:full": "555 N POINT CTR E", "addr:postcode": "30022", "addr:state": "GA", "brand": "USPS", "collection_times": "Mo-Sa 11:30", "name": "USPS COLLECTION BOX - BLUE BOX", "ref": "3002200019"}, "type": "Feature"}
{"geometry": {"coordinates": [-84.2947811, 34.038215], "type": "Point"}, "id": "KBk7yYD0S3y3F79X2CoZ1nItNV8=", "properties": {"@spider": "usps_collection_boxes", "addr:city": "ALPHARETTA", "addr:country": "US", "addr:full": "3700 MANSELL RD", "addr:postcode": "30022", "addr:state": "GA", "brand": "USPS", "collection_times": "Mo-Sa 11:30", "name": "USPS COLLECTION BOX - BLUE BOX", "ref": "3002200020"}, "type": "Feature"}
{"geometry": {"coordinates": [-84.1596144, 34.084416], "type": "Point"}, "id": "4d1eGP_FWI4QnBBehtFHySfJA0c=", "properties": {"@spider": "usps_collection_boxes", "addr:city": "SUWANEE", "addr:country": "US", "addr:full": "3245 HIGHWAY 141", "addr:postcode": "30024", "addr:state": "GA", "brand": "USPS", "collection_times": "Mo-Fr 14:00; Sa 13:00", "name": "USPS COLLECTION BOX - BLUE BOX", "note": "ON 12/24 AND 12/31, THIS BOX MAY BE COLLECTED AS EARLY AS 12 NOON.", "ref": "3002400005"}, "type": "Feature"}
{"geometry": {"coordinates": [-84.1661288, 34.069223], "type": "Point"}, "id": "G6NDyBAPUpoJJVk0rvNpeRjh1nU=", "properties": {"@spider": "usps_collection_boxes", "addr:city": "SUWANEE", "addr:country": "US", "addr:full": "3651 HIGHWAY 141", "addr:postcode": "30024", "addr:state": "GA", "brand": "USPS", "collection_times": "Mo-Fr 14:00; Sa 13:00", "name": "USPS COLLECTION BOX - BLUE BOX", "note": "ON 12/24 AND 12/31, THIS BOX MAY BE COLLECTED AS EARLY AS 12 NOON.", "ref": "3002400006"}, "type": "Feature"}
{"geometry": {"coordinates": [-84.1583147, 34.063022], "type": "Point"}, "id": "jGdGJxJvb6Vz24mmrpXYw7vn7I0=", "properties": {"@spider": "usps_collection_boxes", "addr:city": "SUWANEE", "addr:country": "US", "addr:full": "3851 LAKEFIELD DR", "addr:postcode": "30024", "addr:state": "GA", "brand": "USPS", "collection_times": "Mo-Fr 14:00; Sa 13:00", "name": "USPS COLLECTION BOX - BLUE BOX", "note": "ON 12/24 AND 12/31, THIS BOX MAY BE COLLECTED AS EARLY AS 12 NOON.", "ref": "3002400017"}, "type": "Feature"}
{"geometry": {"coordinates": [-84.0874161, 34.051031], "type": "Point"}, "id": "VpoNbvAxj4RnWP-NwIVx7BuXLOM=", "properties": {"@spider": "usps_collection_boxes", "addr:city": "SUWANEE", "addr:country": "US", "addr:full": "990 PEACHTREE INDUSTRIAL BLVD", "addr:postcode": "30024", "addr:state": "GA", "brand": "USPS", "collection_times": "Mo-Fr 17:15; Sa 16:15", "name": "USPS COLLECTION BOX - PO LOBBY", "note": "ON 12/24 AND 12/31, THIS BOX MAY BE COLLECTED AS EARLY AS 12 NOON.", "ref": "3002400021"}, "type": "Feature"}
{"geometry": {"coordinates": [-84.0537553, 34.04433], "type": "Point"}, "id": "ocyieNyqGvYiahTiqXnEfA3HVmk=", "properties": {"@spider": "usps_collection_boxes", "addr:city": "SUWANEE", "addr:country": "US", "addr:full": "3455 LAWRENCEVILLE SUWANEE RD", "addr:postcode": "30024", "addr:state": "GA", "brand": "USPS", "collection_times": "Mo-Fr 14:00; Sa 13:00", "name": "USPS COLLECTION BOX - BLUE BOX", "note": "ON 12/24 AND 12/31, THIS BOX MAY BE COLLECTED AS EARLY AS 12 NOON.", "ref": "3002400023"}, "type": "Feature"}
{"geometry": {"coordinates": [-84.0877386, 34.051114], "type": "Point"}, "id": "yibPmEt2s7wwq6nlxQcf4bG1-4s=", "properties": {"@spider": "usps_collection_boxes", "addr:city": "SUWANEE", "addr:country": "US", "addr:full": "990 PEACHTREE INDUSTRIAL BLVD", "addr:postcode": "30024", "addr:state": "GA", "brand": "USPS", "collection_times": "Mo-Fr 17:15; Sa 16:15", "name": "USPS COLLECTION BOX - APC", "note": "ON 12/24 AND 12/31, THIS BOX MAY BE COLLECTED AS EARLY AS 12 NOON.", "ref": "3002400024"}, "type": "Feature"}
{"geometry": {"coordinates": [-84.088087515, 34.052410718], "type": "Point"}, "id": "jdq9Q_6mtBeAf66O15ysKOp7EfQ=", "properties": {"@spider": "usps_collection_boxes", "addr:city": "SUWANEE", "addr:country": "US", "addr:full": "990 PEACHTREE INDUSTRIAL BLVD", "addr:postcode": "30024", "addr:state": "GA", "brand": "USPS", "collection_times": "Mo-Fr 17:00; Sa 14:00", "name": "USPS COLLECTION BOX - PO LOBBY", "note": "ON 12/24 AND 12/31, THIS BOX MAY BE COLLECTED AS EARLY AS 12 NOON.", "ref": "3002400039"}, "type": "Feature"}
{"geometry": {"coordinates": [-84.298908983, 33.774057], "type": "Point"}, "id": "64tHYCKTzrOxZJJAAj4p7xXZTcg=", "properties": {"@spider": "usps_collection_boxes", "addr:city": "DECATUR", "addr:country": "US", "addr:full": "1300 COMMERCE DR", "addr:postcode": "30030", "addr:state": "GA", "brand": "USPS", "collection_times": "Mo-Sa 14:00", "name": "USPS COLLECTION BOX - BLUE BOX", "note": "ON 12/24 AND 12/31, THIS BOX MAY BE COLLECTED AS EARLY AS 12 NOON.", "ref": "3003000009"}, "type": "Feature"}
{"geometry": {"coordinates": [-84.3008719, 33.776098], "type": "Point"}, "id": "GaluPXD66XaiciG9i7FB6MYPl1o=", "properties": {"@spider": "usps_collection_boxes", "addr:city": "DECATUR", "addr:country": "US", "addr:full": "315 W PONCE DE LEON AVE", "addr:postcode": "30030", "addr:state": "GA", "brand": "USPS", "collection_times": "Mo-Sa 14:00", "name": "USPS COLLECTION BOX - BLUE BOX", "note": "ON 12/24 AND 12/31, THIS BOX MAY BE COLLECTED AS EARLY AS 12 NOON.", "ref": "3003000015"}, "type": "Feature"}
{"geometry": {"coordinates": [-84.2964799, 33.774163], "type": "Point"}, "id": "8I2hUyKjLcAPziqHSxC7USWQoYE=", "properties": {"@spider": "usps_collection_boxes", "addr:city": "DECATUR", "addr:country": "US", "addr:full": "545 N MCDONOUGH ST", "addr:postcode": "30030", "addr:state": "GA", "brand": "USPS", "collection_times": "Mo-Sa 14:00", "name": "USPS COLLECTION BOX - BLUE BOX", "note": "ON 12/24 AND 12/31, THIS BOX MAY BE COLLECTED AS EARLY AS 12 NOON.", "ref": "3003000020"}, "type": "Feature"}
{"geometry": {"coordinates": [-84.2969183, 33.777149], "type": "Point"}, "id": "imxP2Tz3yTBwVyAeQ-RTP2JCAHU=", "properties": {"@spider": "usps_collection_boxes", "addr:city": "DECATUR", "addr:country": "US", "addr:full": "160 CLAIREMONT AVE", "addr:postcode": "30030", "addr:state": "GA", "brand": "USPS", "collection_times": "Mo-Sa 14:00", "name": "USPS COLLECTION BOX - BLUE BOX", "note": "ON 12/24 AND 12/31, THIS BOX MAY BE COLLECTED AS EARLY AS 12 NOON.", "ref": "3003000021"}, "type": "Feature"}
{"geometry": {"coordinates": [-84.2964946, 33.776897], "type": "Point"}, "id": "kyrsvf5peuFyikJUa1HFXWq4KJc=", "properties": {"@spider": "usps_collection_boxes", "addr:city": "DECATUR", "addr:country": "US", "addr:full": "125 CLAIREMONT AVE", "addr:postcode": "30030", "addr:state": "GA", "brand": "USPS", "collection_times": "Mo-Sa 14:00", "name": "USPS COLLECTION BOX - BLUE BOX", "note": "ON 12/24 AND 12/31, THIS BOX MAY BE COLLECTED AS EARLY AS 12 NOON.", "ref": "3003000036"}, "type": "Feature"}
{"geometry": {"coordinates": [-84.304107, 33.775427], "type": "Point"}, "id": "LCKhsELAcKVpqWXBGRJTUHbgJgk=", "properties": {"@spider": "usps_collection_boxes", "addr:city": "DECATUR", "addr:country": "US", "addr:full": "520 W PONCE DE LEON AVE", "addr:postcode": "30030", "addr:state": "GA", "brand": "USPS", "collection_times": "Mo-Sa 17:15", "name": "USPS COLLECTION BOX - PO LOBBY", "note": "ON 12/24 AND 12/31, THIS BOX MAY BE COLLECTED AS EARLY AS 12 NOON.", "ref": "3003000053"}, "type": "Feature"}
{"geometry": {"coordinates": [-84.2953354, 33.775586], "type": "Point"}, "id": "NcOI698H_0mjyMhAfoe5LLELhUc=", "properties": {"@spider": "usps_collection_boxes", "addr:city": "DECATUR", "addr:country": "US", "addr:full": "150 E PONCE DE LEON AVE", "addr:postcode": "30030", "addr:state": "GA", "brand": "USPS", "collection_times": "Mo-Sa 14:00", "name": "USPS COLLECTION BOX - BLUE BOX", "note": "ON 12/24 AND 12/31, THIS BOX MAY BE COLLECTED AS EARLY AS 12 NOON.", "ref": "3003000054"}, "type": "Feature"}
{"geometry": {"coordinates": [-84.304107, 33.775427], "type": "Point"}, "id": "GLtaM5DThhv9SIXgquYqB1eTx5o=", "properties": {"@spider": "usps_collection_boxes", "addr:city": "DECATUR", "addr:country": "US", "addr:full": "520 W PONCE DE LEON AVE", "addr:postcode": "30030", "addr:state": "GA", "brand": "USPS", "collection_times": "Mo-Sa 17:15", "name": "USPS COLLECTION BOX - APC", "note": "ON 12/24 AND 12/31, THIS BOX MAY BE COLLECTED AS EARLY AS 12 NOON.", "ref": "3003000055"}, "type": "Feature"}
{"geometry": {"coordinates": [-84.3034321, 33.759342], "type": "Point"}, "id": "rdPSYcOqBdml1bcZ_Q-wOmus70s=", "properties": {"@spider": "usps_collection_boxes", "addr:city": "DECATUR", "addr:country": "US", "addr:full": "900 OAKVIEW RD", "addr:postcode": "30030", "addr:state": "GA", "brand": "USPS", "collection_times": "Mo-Sa 14:00", "name": "USPS COLLECTION BOX - BLUE BOX", "note": "ON 12/24 AND 12/31, THIS BOX MAY BE COLLECTED AS EARLY AS 12 NOON.", "ref": "3003000056"}, "type": "Feature"}
{"geometry": {"coordinates": [-84.304348108, 33.775268432], "type": "Point"}, "id": "An6uS1FR1h17nJH0TN_44wVCpOk=", "properties": {"@spider": "usps_collection_boxes", "addr:city": "DECATUR", "addr:country": "US", "addr:full": "520 W PONCE DE LEON AVE", "addr:postcode": "30030", "addr:state": "GA", "brand": "USPS", "collection_times": "Mo-Fr 17:00; Sa 13:00", "name": "USPS COLLECTION BOX - PO LOBBY", "note": "ON 12/24 AND 12/31, THIS BOX MAY BE COLLECTED AS EARLY AS 12 NOON.", "ref": "3003000059"}, "type": "Feature"}
{"geometry": {"coordinates": [-84.2509108429, 33.7695303849], "type": "Point"}, "id": "PoZOFUqZyN6mAJd4LoFipQ0LKNo=", "properties": {"@spider": "usps_collection_boxes", "addr:city": "DECATUR", "addr:country": "US", "addr:full": "4151 MEMORIAL DR", "addr:postcode": "30032", "addr:state": "GA", "brand": "USPS", "collection_times": "Mo-Sa 13:30", "name": "USPS COLLECTION BOX - BLUE BOX", "note": "ON 12/24 AND 12/31, THIS BOX MAY BE COLLECTED AS EARLY AS 12 NOON.", "ref": "3003200016"}, "type": "Feature"}
{"geometry": {"coordinates": [-84.2693123, 33.752501], "type": "Point"}, "id": "l2J-C9JIaz2nlZVUZJGIqFwOzdk=", "properties": {"@spider": "usps_collection_boxes", "addr:city": "DECATUR", "addr:country": "US", "addr:full": "3479 MEMORIAL DR", "addr:postcode": "30032", "addr:state": "GA", "brand": "USPS", "collection_times": "Mo-Sa 13:30", "name": "USPS COLLECTION BOX - BLUE BOX", "note": "ON 12/24 AND 12/31, THIS BOX MAY BE COLLECTED AS EARLY AS 12 NOON.", "ref": "3003200017"}, "type": "Feature"}
{"geometry": {"coordinates": [-84.218370489, 33.707216157], "type": "Point"}, "id": "rACdnAOKbkgwOfDYQr8HesY56-k=", "properties": {"@spider": "usps_collection_boxes", "addr:city": "DECATUR", "addr:country": "US", "addr:full": "2724 WESLEY CHAPEL RD", "addr:postcode": "30034", "addr:state": "GA", "brand": "USPS", "collection_times": "Mo-Fr 17:00; Sa 15:00", "name": "USPS COLLECTION BOX - BLUE BOX", "note": "ON 12/24 AND 12/31, THIS BOX MAY BE COLLECTED AS EARLY AS 12 NOON.", "ref": "3003400014"}, "type": "Feature"}
{"geometry": {"coordinates": [-84.218356, 33.707469], "type": "Point"}, "id": "MXGXR0z0pqwNEIuGm8Y9-FHPGWg=", "properties": {"@spider": "usps_collection_boxes", "addr:city": "DECATUR", "addr:country": "US", "addr:full": "2724 WESLEY CHAPEL RD", "addr:postcode": "30034", "addr:state": "GA", "brand": "USPS", "collection_times": "Mo-Fr 17:00; Sa 15:00", "name": "USPS COLLECTION BOX - PO LOBBY", "note": "ON 12/24 AND 12/31, THIS BOX MAY BE COLLECTED AS EARLY AS 12 NOON.", "ref": "3003400019"}, "type": "Feature"}
{"geometry": {"coordinates": [-84.2763093, 33.706723], "type": "Point"}, "id": "lRk3xAisTM-4wyAOmBqXwh5HqAU=", "properties": {"@spider": "usps_collection_boxes", "addr:city": "DECATUR", "addr:country": "US", "addr:full": "2853 CANDLER RD", "addr:postcode": "30034", "addr:state": "GA", "brand": "USPS", "collection_times": "Mo-Fr 14:30; Sa 13:30", "name": "USPS COLLECTION BOX - PO LOBBY", "note": "ON 12/24 AND 12/31, THIS BOX MAY BE COLLECTED AS EARLY AS 12 NOON.", "ref": "3003400020"}, "type": "Feature"}
{"geometry": {"coordinates": [-84.272036442, 33.706748208], "type": "Point"}, "id": "sUoVX5wEAOwuvRRKs7aZC340wF8=", "properties": {"@spider": "usps_collection_boxes", "addr:city": "DECATUR", "addr:country": "US", "addr:full": "2853 CANDLER RD SIDE", "addr:postcode": "30034", "addr:state": "GA", "brand": "USPS", "collection_times": "Mo-Fr 16:00; Sa 13:00", "name": "USPS COLLECTION BOX - PO LOBBY", "note": "ON 12/24 AND 12/31, THIS BOX MAY BE COLLECTED AS EARLY AS 12 NOON.", "ref": "3003400022"}, "type": "Feature"}
{"geometry": {"coordinates": [-84.218336241, 33.707475988], "type": "Point"}, "id": "nzs8MALYth12SLSK6yXBzwcTAqY=", "properties": {"@spider": "usps_collection_boxes", "addr:city": "DECATUR", "addr:country": "US", "addr:full": "2724 WESLEY CHAPEL RD", "addr:postcode": "30034", "addr:state": "GA", "brand": "USPS", "collection_times": "Mo-Fr 17:00; Sa 13:00", "name": "USPS COLLECTION BOX - PO LOBBY", "note": "ON 12/24 AND 12/31, THIS BOX MAY BE COLLECTED AS EARLY AS 12 NOON.", "ref": "3003400023"}, "type": "Feature"}
{"geometry": {"coordinates": [-84.1767621, 33.680668], "type": "Point"}, "id": "r1YDz6a6O5fp2W44bRZVZL2eaRY=", "properties": {"@spider": "usps_collection_boxes", "addr:city": "LITHONIA", "addr:country": "US", "addr:full": "3552 PANOLA RD", "addr:postcode": "30038", "addr:state": "GA", "brand": "USPS", "collection_times": "Mo-Sa 13:00", "name": "USPS COLLECTION BOX - BLUE BOX", "note": "ON 12/24 AND 12/31, THIS BOX MAY BE COLLECTED AS EARLY AS 12 NOON.", "ref": "3003800005"}, "type": "Feature"}
{"geometry": {"coordinates": [-84.0877664, 33.692716], "type": "Point"}, "id": "Ne3R5zZrjm2p3rBcSzGeR2PQHno=", "properties": {"@spider": "usps_collection_boxes", "addr:city": "LITHONIA", "addr:country": "US", "addr:full": "8200 MALL PKWY STE 135", "addr:postcode": "30038", "addr:state": "GA", "brand": "USPS", "collection_times": "Mo-Sa 11:00", "name": "USPS COLLECTION BOX - BLUE BOX", "ref": "3003800007"}, "type": "Feature"}
{"geometry": {"coordinates": [-84.1777245, 34.161909], "type": "Point"}, "id": "BOXoFBSpXliEJy1fLkk-h4BeTFI=", "properties": {"@spider": "usps_collection_boxes", "addr:city": "CUMMING", "addr:country": "US", "addr:full": "2450 ATLANTA HWY", "addr:postcode": "30040", "addr:state": "GA", "brand": "USPS", "collection_times": "Mo-Sa 11:00", "name": "USPS COLLECTION BOX - BLUE BOX", "ref": "3004000000"}, "type": "Feature"}
{"geometry": {"coordinates": [-84.1936382, 34.238826], "type": "Point"}, "id": "50mYoQGy6ug8FngopG05wrkSZDU=", "properties": {"@spider": "usps_collection_boxes", "addr:city": "CUMMING", "addr:country": "US", "addr:full": "2300 BETHELVIEW RD", "addr:postcode": "30040", "addr:state": "GA", "brand": "USPS", "collection_times": "Mo-Fr 12:00; Sa 09:30", "name": "USPS COLLECTION BOX - BLUE BOX", "ref": "3004000002"}, "type": "Feature"}
{"geometry": {"coordinates": [-84.1400574, 34.206542], "type": "Point"}, "id": "Xb1lTDcPImIbhQl_Y19MByt9tAo=", "properties": {"@spider": "usps_collection_boxes", "addr:city": "CUMMING", "addr:country": "US", "addr:full": "100 W COURTHOUSE SQ", "addr:postcode": "30040", "addr:state": "GA", "brand": "USPS", "collection_times": "Mo-Fr 11:00; Sa 09:00", "name": "USPS COLLECTION BOX - BLUE BOX", "ref": "3004000003"}, "type": "Feature"}
{"geometry": {"coordinates": [-84.1698233, 34.12217], "type": "Point"}, "id": "oyQL5SRXClfQthvTGd_PGtuNbE0=", "properties": {"@spider": "usps_collection_boxes", "addr:city": "CUMMING", "addr:country": "US", "addr:full": "1595 PEACHTREE PKWY", "addr:postcode": "30040", "addr:state": "GA", "brand": "USPS", "collection_times": "Mo-Sa 11:00", "name": "USPS COLLECTION BOX - BLUE BOX", "ref": "3004000004"}, "type": "Feature"}
{"geometry": {"coordinates": [-84.1348023, 34.193983], "type": "Point"}, "id": "NB2iqIvj92qnUtGXMrk4iA0OKPg=", "properties": {"@spider": "usps_collection_boxes", "addr:city": "CUMMING", "addr:country": "US", "addr:full": "100 COLONY PARK DR", "addr:postcode": "30040", "addr:state": "GA", "brand": "USPS", "collection_times": "Mo-Fr 12:00; Sa 10:00", "name": "USPS COLLECTION BOX - BLUE BOX", "ref": "3004000005"}, "type": "Feature"}
{"geometry": {"coordinates": [-84.137922, 34.21593], "type": "Point"}, "id": "7Wse24qJ1urjBtq5-gXHStxKM-E=", "properties": {"@spider": "usps_collection_boxes", "addr:city": "CUMMING", "addr:country": "US", "addr:full": "525 TRIBBLE GAP RD", "addr:postcode": "30040", "addr:state": "GA", "brand": "USPS", "collection_times": "Mo-Fr 17:00; Sa 15:45", "name": "USPS COLLECTION BOX - BLUE BOX", "note": "ON 12/24 AND 12/31, THIS BOX MAY BE COLLECTED AS EARLY AS 12 NOON.", "ref": "3004000007"}, "type": "Feature"}
{"geometry": {"coordinates": [-84.1535503, 34.299184], "type": "Point"}, "id": "nllgcCewCHvDxhej7cn9fjMfRic=", "properties": {"@spider": "usps_collection_boxes", "addr:city": "CUMMING", "addr:country": "US", "addr:full": "5410 MATT HWY", "addr:postcode": "30040", "addr:state": "GA", "brand": "USPS", "collection_times": "Mo-Sa 09:30", "name": "USPS COLLECTION BOX - BLUE BOX", "ref": "3004000011"}, "type": "Feature"}
{"geometry": {"coordinates": [-84.1431999, 34.186021], "type": "Point"}, "id": "cBg3c6s5DM_gSjjnBptFGmOLzvI=", "properties": {"@spider": "usps_collection_boxes", "addr:city": "CUMMING", "addr:country": "US", "addr:full": "500 LAKELAND PLZ", "addr:postcode": "30040", "addr:state": "GA", "brand": "USPS", "collection_times": "Mo-Fr 13:00; Sa 09:30", "name": "USPS COLLECTION BOX - BLUE BOX", "note": "ON 12/24 AND 12/31, THIS BOX MAY BE COLLECTED AS EARLY AS 12 NOON.", "ref": "3004000012"}, "type": "Feature"}
{"geometry": {"coordinates": [-84.1370992, 34.188917], "type": "Point"}, "id": "0zKkKUKx4n_u_GxahJq4GMaKSLE=", "properties": {"@spider": "usps_collection_boxes", "addr:city": "CUMMING", "addr:country": "US", "addr:full": "580 ATLANTA RD", "addr:postcode": "30040", "addr:state": "GA", "brand": "USPS", "collection_times": "Mo-Fr 13:00; Sa 09:30", "name": "USPS COLLECTION BOX - BLUE BOX", "note": "ON 12/24 AND 12/31, THIS BOX MAY BE COLLECTED AS EARLY AS 12 NOON.", "ref": "3004000015"}, "type": "Feature"}
{"geometry": {"coordinates": [-84.138857, 34.216366], "type": "Point"}, "id": "u1mTkQGOn4SjLFh3oDaHrxeWgCo=", "properties": {"@spider": "usps_collection_boxes", "addr:city": "CUMMING", "addr:country": "US", "addr:full": "525 TRIBBLE GAP RD", "addr:postcode": "30040", "addr:state": "GA", "brand": "USPS", "collection_times": "Mo-Fr 17:00; Sa 15:45", "name": "USPS COLLECTION BOX - PO LOBBY", "note": "ON 12/24 AND 12/31, THIS BOX MAY BE COLLECTED AS EARLY AS 12 NOON.", "ref": "3004000016"}, "type": "Feature"}
{"geometry": {"coordinates": [-84.138582336, 34.178826354], "type": "Point"}, "id": "5klmNrP2VbNwW-6ZZMCCgjh6n6U=", "properties": {"@spider": "usps_collection_boxes", "addr:city": "CUMMING", "addr:country": "US", "addr:full": "1200 NORTHSIDE FORSYTH DR", "addr:postcode": "30040", "addr:state": "GA", "brand": "USPS", "collection_times": "Mo-Fr 13:00; Sa 10:00", "name": "USPS COLLECTION BOX - BLUE BOX", "note": "ON 12/24 AND 12/31, THIS BOX MAY BE COLLECTED AS EARLY AS 12 NOON.", "ref": "3004000019"}, "type": "Feature"}
{"geometry": {"coordinates": [-84.1300252, 34.18125], "type": "Point"}, "id": "_XmQGDwmDpTkQFHuPfaXAyb7WjQ=", "properties": {"@spider": "usps_collection_boxes", "addr:city": "CUMMING", "addr:country": "US", "addr:full": "1500 MARKET BLVD", "addr:postcode": "30040", "addr:state": "GA", "brand": "USPS", "collection_times": "Mo-Fr 13:00; Sa 10:00", "name": "USPS COLLECTION BOX - BLUE BOX", "note": "ON 12/24 AND 12/31, THIS BOX MAY BE COLLECTED AS EARLY AS 12 NOON.", "ref": "3004000020"}, "type": "Feature"}
{"geometry": {"coordinates": [-84.1362722, 34.210064], "type": "Point"}, "id": "pett2_oquDapaSkRMtp18dkbPtg=", "properties": {"@spider": "usps_collection_boxes", "addr:city": "CUMMING", "addr:country": "US", "addr:full": "327 DAHLONEGA ST", "addr:postcode": "30040", "addr:state": "GA", "brand": "USPS", "collection_times": "Mo-Fr 12:00; Sa 09:00", "name": "USPS COLLECTION BOX - BLUE BOX", "ref": "3004000021"}, "type": "Feature"}
{"geometry": {"coordinates": [-84.1146113, 34.163658], "type": "Point"}, "id": "26bh5TwbdNOJc2S9buNMwTmPb1Q=", "properties": {"@spider": "usps_collection_boxes", "addr:city": "CUMMING", "addr:country": "US", "addr:full": "1735 BUFORD HWY", "addr:postcode": "30040", "addr:state": "GA", "brand": "USPS", "collection_times": "Mo-Sa 11:00", "name": "USPS COLLECTION BOX - BLUE BOX", "ref": "3004000022"}, "type": "Feature"}
{"geometry": {"coordinates": [-84.0914819, 34.24988], "type": "Point"}, "id": "q9OFcj204MSZGOsjRpjtEgS5xw8=", "properties": {"@spider": "usps_collection_boxes", "addr:city": "CUMMING", "addr:country": "US", "addr:full": "1655 FREEDOM PKWY", "addr:postcode": "30040", "addr:state": "GA", "brand": "USPS", "collection_times": "Mo-Sa 11:00", "name": "USPS COLLECTION BOX - BLUE BOX", "ref": "3004000023"}, "type": "Feature"}
{"geometry": {"coordinates": [-84.138857, 34.216366], "type": "Point"}, "id": "2sxGk_tMTg8zbIok4k2iMIp3VfI=", "properties": {"@spider": "usps_collection_boxes", "addr:city": "CUMMING", "addr:country": "US", "addr:full": "525 TRIBBLE GAP RD", "addr:postcode": "30040", "addr:state": "GA", "brand": "USPS", "collection_times": "Mo-Fr 17:00; Sa 15:45", "name": "USPS COLLECTION BOX - APC", "note": "ON 12/24 AND 12/31, THIS BOX MAY BE COLLECTED AS EARLY AS 12 NOON.", "ref": "3004000025"}, "type": "Feature"}
{"geometry": {"coordinates": [-84.138910548, 34.215836501], "type": "Point"}, "id": "kQ_AGK_gnfnvI0gywmDZV0940ic=", "properties": {"@spider": "usps_collection_boxes", "addr:city": "CUMMING", "addr:country": "US", "addr:full": "525 TRIBBLE GAP RD", "addr:postcode": "30040", "addr:state": "GA", "brand": "USPS", "collection_times": "Mo-Fr 17:00; Sa 14:00", "name": "USPS COLLECTION BOX - PO LOBBY", "note": "ON 12/24 AND 12/31, THIS BOX MAY BE COLLECTED AS EARLY AS 12 NOON.", "ref": "3004000034"}, "type": "Feature"}
{"geometry": {"coordinates": [-84.1085865, 33.715611], "type": "Point"}, "id": "fNgaNVHfIF72KQxPZZatD0bFyrU=", "properties": {"@spider": "usps_collection_boxes", "addr:city": "LITHONIA", "addr:country": "US", "addr:full": "3035 STONE MOUNTAIN ST", "addr:postcode": "30058", "addr:state": "GA", "brand": "USPS", "collection_times": "Mo-Fr 17:00; Sa 15:30", "name": "USPS COLLECTION BOX - BLUE BOX", "note": "ON 12/24 AND 12/31, THIS BOX MAY BE COLLECTED AS EARLY AS 12 NOON.", "ref": "3005800005"}, "type": "Feature"}
{"geometry": {"coordinates": [-84.1085865, 33.715611], "type": "Point"}, "id": "MVX4kLGqX7o2qc-IG4lJveu0ax8=", "properties": {"@spider": "usps_collection_boxes", "addr:city": "LITHONIA", "addr:country": "US", "addr:full": "3035 STONE MOUNTAIN ST", "addr:postcode": "30058", "addr:state": "GA", "brand": "USPS", "collection_times": "Mo-Fr 17:00; Sa 15:30", "name": "USPS COLLECTION BOX - BLUE BOX", "note": "ON 12/24 AND 12/31, THIS BOX MAY BE COLLECTED AS EARLY AS 12 NOON.", "ref": "3005800006"}, "type": "Feature"}
{"geometry": {"coordinates": [-84.1665921, 33.724438], "type": "Point"}, "id": "f3L3E1e75secwsTuSEhiuEzxVow=", "properties": {"@spider": "usps_collection_boxes", "addr:city": "LITHONIA", "addr:country": "US", "addr:full": "6116 COVINGTON HWY", "addr:postcode": "30058", "addr:state": "GA", "brand": "USPS", "collection_times": "Mo-Sa 13:00", "name": "USPS COLLECTION BOX - BLUE BOX", "note": "ON 12/24 AND 12/31, THIS BOX MAY BE COLLECTED AS EARLY AS 12 NOON.", "ref": "3005800014"}, "type": "Feature"}
{"geometry": {"coordinates": [-84.1085865, 33.715611], "type": "Point"}, "id": "jrOFmd4PkgMj-Z8_R_fuQkNKLho=", "properties": {"@spider": "usps_collection_boxes", "addr:city": "LITHONIA", "addr:country": "US", "addr:full": "3035 STONE MOUNTAIN ST", "addr:postcode": "30058", "addr:state": "GA", "brand": "USPS", "collection_times": "Mo-Fr 17:00; Sa 15:30", "name": "USPS COLLECTION BOX - PO LOBBY", "note": "ON 12/24 AND 12/31, THIS BOX MAY BE COLLECTED AS EARLY AS 12 NOON.", "ref": "3005800018"}, "type": "Feature"}
{"geometry": {"coordinates": [-84.173095083, 33.698142802], "type": "Point"}, "id": "djFh30wZENgjMYYxhEDnakbpopM=", "properties": {"@spider": "usps_collection_boxes", "addr:city": "LITHONIA", "addr:country": "US", "addr:full": "3037 PANOLA RD", "addr:postcode": "30058", "addr:state": "GA", "brand": "USPS", "collection_times": "Mo-Sa 13:00", "name": "USPS COLLECTION BOX - BLUE BOX", "note": "ON 12/24 AND 12/31, THIS BOX MAY BE COLLECTED AS EARLY AS 12 NOON.", "ref": "3005800019"}, "type": "Feature"}
{"geometry": {"coordinates": [-84.10795404, 33.715593587], "type": "Point"}, "id": "LnCQ9o0WoIJVic7rBTZS3RwYgz4=", "properties": {"@spider": "usps_collection_boxes", "addr:city": "LITHONIA", "addr:country": "US", "addr:full": "3035 STONE MOUNTAIN ST", "addr:postcode": "30058", "addr:state": "GA", "brand": "USPS", "collection_times": "Mo-Fr 16:30; Sa 12:00", "name": "USPS COLLECTION BOX - PO LOBBY", "note": "ON 12/24 AND 12/31, THIS BOX MAY BE COLLECTED AS EARLY AS 12 NOON.", "ref": "3005800023"}, "type": "Feature"}
{"geometry": {"coordinates": [-84.141323102, 33.746085189], "type": "Point"}, "id": "dbq30UpWVUVKFNs30LI4W1xNYjA=", "properties": {"@spider": "usps_collection_boxes", "addr:city": "LITHONIA", "addr:country": "US", "addr:full": "1544 WELLBORN RD STE 4", "addr:postcode": "30058", "addr:state": "GA", "brand": "USPS", "collection_times": "Mo-Fr 16:30; Sa 12:00", "name": "USPS COLLECTION BOX - PO LOBBY", "note": "ON 12/24 AND 12/31, THIS BOX MAY BE COLLECTED AS EARLY AS 12 NOON.", "ref": "3005800024"}, "type": "Feature"}
{"geometry": {"coordinates": [-84.5334223, 33.933461], "type": "Point"}, "id": "yYkpfc8xho1JPvNVzYux0k3J18c=", "properties": {"@spider": "usps_collection_boxes", "addr:city": "MARIETTA", "addr:country": "US", "addr:full": "805 WALKER ST SE", "addr:postcode": "30060", "addr:state": "GA", "brand": "USPS", "collection_times": "Mo-Fr 12:00", "name": "USPS COLLECTION BOX - BLUE BOX", "ref": "3006000006"}, "type": "Feature"}
{"geometry": {"coordinates": [-84.5449615276, 33.9532370175], "type": "Point"}, "id": "-69vG3q327-LKQsjGcw_Q-ihT5o=", "properties": {"@spider": "usps_collection_boxes", "addr:city": "MARIETTA", "addr:country": "US", "addr:full": "257 LAWRENCE ST NE", "addr:postcode": "30060", "addr:state": "GA", "brand": "USPS", "collection_times": "Mo-Sa 17:00", "name": "USPS COLLECTION BOX - BLUE BOX", "note": "ON 12/24 AND 12/31, THIS BOX MAY BE COLLECTED AS EARLY AS 12 NOON.", "ref": "3006000017"}, "type": "Feature"}
{"geometry": {"coordinates": [-84.545113, 33.9532], "type": "Point"}, "id": "ZgP3kwJGEkQZkK2Mh7s-rXHbpf4=", "properties": {"@spider": "usps_collection_boxes", "addr:city": "MARIETTA", "addr:country": "US", "addr:full": "257 LAWRENCE ST NE", "addr:postcode": "30060", "addr:state": "GA", "brand": "USPS", "collection_times": "Mo-Sa 17:00", "name": "USPS COLLECTION BOX - APC", "note": "ON 12/24 AND 12/31, THIS BOX MAY BE COLLECTED AS EARLY AS 12 NOON.", "ref": "3006000021"}, "type": "Feature"}
{"geometry": {"coordinates": [-84.5354464, 33.938091], "type": "Point"}, "id": "eNuTHyOdb0cBASx0330TtLFKxP8=", "properties": {"@spider": "usps_collection_boxes", "addr:city": "MARIETTA", "addr:country": "US", "addr:full": "580 S FAIRGROUND ST SE", "addr:postcode": "30060", "addr:state": "GA", "brand": "USPS", "collection_times": "Mo-Sa 12:00", "name": "USPS COLLECTION BOX - BLUE BOX", "ref": "3006000031"}, "type": "Feature"}
{"geometry": {"coordinates": [-84.5345488, 33.941461], "type": "Point"}, "id": "opncDNCr9vRASelfxLigJYMOsrg=", "properties": {"@spider": "usps_collection_boxes", "addr:city": "MARIETTA", "addr:country": "US", "addr:full": "430 COMMERCE PARK DR SE", "addr:postcode": "30060", "addr:state": "GA", "brand": "USPS", "collection_times": "Mo-Sa 12:00", "name": "USPS COLLECTION BOX - BLUE BOX", "ref": "3006000032"}, "type": "Feature"}
{"geometry": {"coordinates": [-84.5520695, 33.967521], "type": "Point"}, "id": "TSTfBmhoQ5ZyDrali9Yi7Czp3ZA=", "properties": {"@spider": "usps_collection_boxes", "addr:city": "MARIETTA", "addr:country": "US", "addr:full": "677 CHURCH ST NE", "addr:postcode": "30060", "addr:state": "GA", "brand": "USPS", "collection_times": "Mo-Sa 13:30", "name": "USPS COLLECTION BOX - BLUE BOX", "note": "ON 12/24 AND 12/31, THIS BOX MAY BE COLLECTED AS EARLY AS 12 NOON.", "ref": "3006000036"}, "type": "Feature"}
{"geometry": {"coordinates": [-84.5518031, 33.966876], "type": "Point"}, "id": "QkwpX92PEJ5ySeg_O4fXeEoyljE=", "properties": {"@spider": "usps_collection_boxes", "addr:city": "MARIETTA", "addr:country": "US", "addr:full": "61 WHITCHER ST NE", "addr:postcode": "30060", "addr:state": "GA", "brand": "USPS", "collection_times": "Mo-Sa 13:30", "name": "USPS COLLECTION BOX - BLUE BOX", "note": "ON 12/24 AND 12/31, THIS BOX MAY BE COLLECTED AS EARLY AS 12 NOON.", "ref": "3006000045"}, "type": "Feature"}
{"geometry": {"coordinates": [-84.5625349, 33.978744], "type": "Point"}, "id": "4R6Is2d8fSl-SIQpPmuoqgpKTmA=", "properties": {"@spider": "usps_collection_boxes", "addr:city": "MARIETTA", "addr:country": "US", "addr:full": "1349 OLD 41 HWY NW", "addr:postcode": "30060", "addr:state": "GA", "brand": "USPS", "collection_times": "Mo-Sa 13:00", "name": "USPS COLLECTION BOX - BLUE BOX", "note": "ON 12/24 AND 12/31, THIS BOX MAY BE COLLECTED AS EARLY AS 12 NOON.", "ref": "3006000056"}, "type": "Feature"}
{"geometry": {"coordinates": [-84.5489609, 33.951067], "type": "Point"}, "id": "5sIESLK2qkF28Svz2CbpybVf1cs=", "properties": {"@spider": "usps_collection_boxes", "addr:city": "MARIETTA", "addr:country": "US", "addr:full": "31 ATLANTA ST SE", "addr:postcode": "30060", "addr:state": "GA", "brand": "USPS", "collection_times": "Mo-Sa 14:30", "name": "USPS COLLECTION BOX - BLUE BOX", "note": "ON 12/24 AND 12/31, THIS BOX MAY BE COLLECTED AS EARLY AS 12 NOON.", "ref": "3006000059"}, "type": "Feature"}
{"geometry": {"coordinates": [-84.5451133, 33.953289], "type": "Point"}, "id": "EtVR1hUoGsce_bU68sDVkFNQhfU=", "properties": {"@spider": "usps_collection_boxes", "addr:city": "MARIETTA", "addr:country": "US", "addr:full": "257 LAWRENCE ST NE", "addr:postcode": "30060", "addr:state": "GA", "brand": "USPS", "collection_times": "Mo-Sa 17:00", "name": "USPS COLLECTION BOX - PO LOBBY", "note": "ON 12/24 AND 12/31, THIS BOX MAY BE COLLECTED AS EARLY AS 12 NOON.", "ref": "3006000064"}, "type": "Feature"}
{"geometry": {"coordinates": [-84.5451238, 33.953368], "type": "Point"}, "id": "1fLi5KIGAEEHmI0Fu_OjhLQqNPw=", "properties": {"@spider": "usps_collection_boxes", "addr:city": "MARIETTA", "addr:country": "US", "addr:full": "257 LAWRENCE ST NE", "addr:postcode": "30060", "addr:state": "GA", "brand": "USPS", "collection_times": "Mo-Sa 17:00", "name": "USPS COLLECTION BOX - PO LOBBY", "note": "ON 12/24 AND 12/31, THIS BOX MAY BE COLLECTED AS EARLY AS 12 NOON.", "ref": "3006000065"}, "type": "Feature"}
{"geometry": {"coordinates": [-84.550776, 33.967433], "type": "Point"}, "id": "ZlDtiCNYKTKpE7DWKsJ7Tzjrqcg=", "properties": {"@spider": "usps_collection_boxes", "addr:city": "MARIETTA", "addr:country": "US", "addr:full": "55 WHITCHER ST NE", "addr:postcode": "30060", "addr:state": "GA", "brand": "USPS", "collection_times": "Mo-Fr 13:30", "name": "USPS COLLECTION BOX - BLUE BOX", "note": "ON 12/24 AND 12/31, THIS BOX MAY BE COLLECTED AS EARLY AS 12 NOON.", "ref": "3006000067"}, "type": "Feature"}
{"geometry": {"coordinates": [-84.5480968, 33.952715], "type": "Point"}, "id": "iDsTF0ZFUt8Td67t6jVzU_FHL8o=", "properties": {"@spider": "usps_collection_boxes", "addr:city": "MARIETTA", "addr:country": "US", "addr:full": "10 EAST PARK SQ", "addr:postcode": "30060", "addr:state": "GA", "brand": "USPS", "collection_times": "Mo-Sa 14:30", "name": "USPS COLLECTION BOX - BLUE BOX", "note": "ON 12/24 AND 12/31, THIS BOX MAY BE COLLECTED AS EARLY AS 12 NOON.", "ref": "3006000068"}, "type": "Feature"}
{"geometry": {"coordinates": [-84.5568482, 33.965419], "type": "Point"}, "id": "QfiO65n4P0CDVmK0zEXNLYQD55U=", "properties": {"@spider": "usps_collection_boxes", "addr:city": "MARIETTA", "addr:country": "US", "addr:full": "531 ROSELANE ST NW", "addr:postcode": "30060", "addr:state": "GA", "brand": "USPS", "collection_times": "Mo-Fr 13:00", "name": "USPS COLLECTION BOX - BLUE BOX", "note": "ON 12/24 AND 12/31, THIS BOX MAY BE COLLECTED AS EARLY AS 12 NOON.", "ref": "3006000069"}, "type": "Feature"}
{"geometry": {"coordinates": [-84.5736388, 33.923565], "type": "Point"}, "id": "2WwDAfXr9YCGLVg0DKeyxOTNnDA=", "properties": {"@spider": "usps_collection_boxes", "addr:city": "MARIETTA", "addr:country": "US", "addr:full": "1123 POWDER SPRINGS RD", "addr:postcode": "30060", "addr:state": "GA", "brand": "USPS", "collection_times": "Mo-Sa 13:30", "name": "USPS COLLECTION BOX - BLUE BOX", "note": "ON 12/24 AND 12/31, THIS BOX MAY BE COLLECTED AS EARLY AS 12 NOON.", "ref": "3006000070"}, "type": "Feature"}
{"geometry": {"coordinates": [-84.5138465, 33.932555], "type": "Point"}, "id": "CaSpzsRADXs-UoGvjehRaiiEKyI=", "properties": {"@spider": "usps_collection_boxes", "addr:city": "MARIETTA", "addr:country": "US", "addr:full": "1269 BARCLAY CIR SE", "addr:postcode": "30060", "addr:state": "GA", "brand": "USPS", "collection_times": "Mo-Sa 12:30", "name": "USPS COLLECTION BOX - BLUE BOX", "note": "ON 12/24 AND 12/31, THIS BOX MAY BE COLLECTED AS EARLY AS 12 NOON.", "ref": "3006000072"}, "type": "Feature"}
{"geometry": {"coordinates": [-84.545086713, 33.953236443], "type": "Point"}, "id": "8fmX_or5lxBNZD2Ptop5vmNeyao=", "properties": {"@spider": "usps_collection_boxes", "addr:city": "MARIETTA", "addr:country": "US", "addr:full": "257 LAWRENCE ST NE", "addr:postcode": "30060", "addr:state": "GA", "brand": "USPS", "collection_times": "Mo-Fr 17:00; Sa 13:00", "name": "USPS COLLECTION BOX - PO LOBBY", "note": "ON 12/24 AND 12/31, THIS BOX MAY BE COLLECTED AS EARLY AS 12 NOON.", "ref": "3006000076"}, "type": "Feature"}
{"geometry": {"coordinates": [-84.5229695, 33.993655], "type": "Point"}, "id": "smpYVmvctnuMmvkGdpxnj267NmQ=", "properties": {"@spider": "usps_collection_boxes", "addr:city": "MARIETTA", "addr:country": "US", "addr:full": "1841 W OAK PKWY", "addr:postcode": "30062", "addr:state": "GA", "brand": "USPS", "collection_times": "Mo-Sa 12:00", "name": "USPS COLLECTION BOX - BLUE BOX", "ref": "3006200002"}, "type": "Feature"}
{"geometry": {"coordinates": [-84.4483023, 33.980146], "type": "Point"}, "id": "-aMB-EyNicvAx50Z-PXGGy-kGSg=", "properties": {"@spider": "usps_collection_boxes", "addr:city": "MARIETTA", "addr:country": "US", "addr:full": "3535 ROSWELL RD", "addr:postcode": "30062", "addr:state": "GA", "brand": "USPS", "collection_times": "Mo-Fr 14:00; Sa 13:45", "name": "USPS COLLECTION BOX - BLUE BOX", "note": "ON 12/24 AND 12/31, THIS BOX MAY BE COLLECTED AS EARLY AS 12 NOON.", "ref": "3006200004"}, "type": "Feature"}
{"geometry": {"coordinates": [-84.4276123, 33.986828], "type": "Point"}, "id": "Bb3oS1PwRfCBSD5sbu5oAruCDzQ=", "properties": {"@spider": "usps_collection_boxes", "addr:city": "MARIETTA", "addr:country": "US", "addr:full": "1501 JOHNSON FERRY RD", "addr:postcode": "30062", "addr:state": "GA", "brand": "USPS", "collection_times": "Mo-Fr 14:00; Sa 13:45", "name": "USPS COLLECTION BOX - BLUE BOX", "note": "ON 12/24 AND 12/31, THIS BOX MAY BE COLLECTED AS EARLY AS 12 NOON.", "ref": "3006200007"}, "type": "Feature"}
{"geometry": {"coordinates": [-84.5229754, 33.993649], "type": "Point"}, "id": "VD8rSSn2r60TotnmmJe8KtKNVXg=", "properties": {"@spider": "usps_collection_boxes", "addr:city": "MARIETTA", "addr:country": "US", "addr:full": "1841 W OAK PKWY", "addr:postcode": "30062", "addr:state": "GA", "brand": "USPS", "collection_times": "Mo-Sa 12:00", "name": "USPS COLLECTION BOX - BLUE BOX", "ref": "3006200011"}, "type": "Feature"}
{"geometry": {"coordinates": [-84.4258894, 34.027928], "type": "Point"}, "id": "ocuo3CmPelyx87eVfsZhuCuTH4I=", "properties": {"@spider": "usps_collection_boxes", "addr:city": "MARIETTA", "addr:country": "US", "addr:full": "4343 SHALLOWFORD RD", "addr:postcode": "30062", "addr:state": "GA", "brand": "USPS", "collection_times": "Mo-Sa 12:30", "name": "USPS COLLECTION BOX - BLUE BOX", "note": "ON 12/24 AND 12/31, THIS BOX MAY BE COLLECTED AS EARLY AS 12 NOON.", "ref": "3006200044"}, "type": "Feature"}
{"geometry": {"coordinates": [-84.4850884, 33.97414], "type": "Point"}, "id": "LIB5v85iw7L_Qzm8qtpkD9fnc3I=", "properties": {"@spider": "usps_collection_boxes", "addr:city": "MARIETTA", "addr:country": "US", "addr:full": "2265 ROSWELL RD", "addr:postcode": "30062", "addr:state": "GA", "brand": "USPS", "collection_times": "Mo-Sa 14:00", "name": "USPS COLLECTION BOX - BLUE BOX", "note": "ON 12/24 AND 12/31, THIS BOX MAY BE COLLECTED AS EARLY AS 12 NOON.", "ref": "3006200050"}, "type": "Feature"}
{"geometry": {"coordinates": [-84.4290959, 34.016438], "type": "Point"}, "id": "ICQS9U6ObD9bYJ2UtOggoHessGM=", "properties": {"@spider": "usps_collection_boxes", "addr:city": "MARIETTA", "addr:country": "US", "addr:full": "2878 JOHNSON FERRY RD", "addr:postcode": "30062", "addr:state": "GA", "brand": "USPS", "collection_times": "Mo-Sa 12:30", "name": "USPS COLLECTION BOX - BLUE BOX", "note": "ON 12/24 AND 12/31, THIS BOX MAY BE COLLECTED AS EARLY AS 12 NOON.", "ref": "3006200051"}, "type": "Feature"}
{"geometry": {"coordinates": [-84.4258939, 34.027932], "type": "Point"}, "id": "nBDYS2XuRanEWrzCTig9uItinq4=", "properties": {"@spider": "usps_collection_boxes", "addr:city": "MARIETTA", "addr:country": "US", "addr:full": "4343 SHALLOWFORD RD", "addr:postcode": "30062", "addr:state": "GA", "brand": "USPS", "collection_times": "Mo-Sa 12:30", "name": "USPS COLLECTION BOX - BLUE BOX", "note": "ON 12/24 AND 12/31, THIS BOX MAY BE COLLECTED AS EARLY AS 12 NOON.", "ref": "3006200053"}, "type": "Feature"}
{"geometry": {"coordinates": [-84.4375994, 33.978354], "type": "Point"}, "id": "J9xJtzgbqo2cfS-4ufloyqaQJ14=", "properties": {"@spider": "usps_collection_boxes", "addr:city": "MARIETTA", "addr:country": "US", "addr:full": "3901 ROSWELL RD", "addr:postcode": "30062", "addr:state": "GA", "brand": "USPS", "collection_times": "Mo-Sa 14:00", "name": "USPS COLLECTION BOX - BLUE BOX", "note": "ON 12/24 AND 12/31, THIS BOX MAY BE COLLECTED AS EARLY AS 12 NOON.", "ref": "3006200054"}, "type": "Feature"}
{"geometry": {"coordinates": [-84.4223272, 33.987588], "type": "Point"}, "id": "orB5-mRsucVbYNbnIG7yp3nkEPY=", "properties": {"@spider": "usps_collection_boxes", "addr:city": "MARIETTA", "addr:country": "US", "addr:full": "4475 ROSWELL RD", "addr:postcode": "30062", "addr:state": "GA", "brand": "USPS", "collection_times": "Mo-Fr 14:00; Sa 13:45", "name": "USPS COLLECTION BOX - BLUE BOX", "note": "ON 12/24 AND 12/31, THIS BOX MAY BE COLLECTED AS EARLY AS 12 NOON.", "ref": "3006200055"}, "type": "Feature"}
{"geometry": {"coordinates": [-84.4786884, 33.975486], "type": "Point"}, "id": "sTEyIrTQgZRwg-oVIvyrl3F3MQ8=", "properties": {"@spider": "usps_collection_boxes", "addr:city": "MARIETTA", "addr:country": "US", "addr:full": "1050 E PIEDMONT RD", "addr:postcode": "30062", "addr:state": "GA", "brand": "USPS", "collection_times": "Mo-Sa 14:00", "name": "USPS COLLECTION BOX - BLUE BOX", "note": "ON 12/24 AND 12/31, THIS BOX MAY BE COLLECTED AS EARLY AS 12 NOON.", "ref": "3006200056"}, "type": "Feature"}
{"geometry": {"coordinates": [-84.4632607, 33.98053], "type": "Point"}, "id": "1SBF-fv0Qqt_XrJ8ZfKFq4mi03I=", "properties": {"@spider": "usps_collection_boxes", "addr:city": "MARIETTA", "addr:country": "US", "addr:full": "3101 ROSWELL RD", "addr:postcode": "30062", "addr:state": "GA", "brand": "USPS", "collection_times": "Mo-Sa 14:00", "name": "USPS COLLECTION BOX - BLUE BOX", "note": "ON 12/24 AND 12/31, THIS BOX MAY BE COLLECTED AS EARLY AS 12 NOON.", "ref": "3006200057"}, "type": "Feature"}
{"geometry": {"coordinates": [-84.514078951, 33.957443668], "type": "Point"}, "id": "nFaPnNLmE_hpayRtD37bdJgJaYo=", "properties": {"@spider": "usps_collection_boxes", "addr:city": "MARIETTA", "addr:country": "US", "addr:full": "1290 GRESHAM RD", "addr:postcode": "30062", "addr:state": "GA", "brand": "USPS", "collection_times": "Mo-Fr 16:00; Sa 13:00", "name": "USPS COLLECTION BOX - PO LOBBY", "note": "ON 12/24 AND 12/31, THIS BOX MAY BE COLLECTED AS EARLY AS 12 NOON.", "ref": "3006200068"}, "type": "Feature"}
{"geometry": {"coordinates": [-84.6565552, 33.9549], "type": "Point"}, "id": "JC-ohdgpH6KdwpklGLD9w95Wwnc=", "properties": {"@spider": "usps_collection_boxes", "addr:city": "MARIETTA", "addr:country": "US", "addr:full": "3600 DALLAS HWY SW", "addr:postcode": "30064", "addr:state": "GA", "brand": "USPS", "collection_times": "Mo-Sa 14:00", "name": "USPS COLLECTION BOX - BLUE BOX", "note": "ON 12/24 AND 12/31, THIS BOX MAY BE COLLECTED AS EARLY AS 12 NOON.", "ref": "3006400004"}, "type": "Feature"}
{"geometry": {"coordinates": [-84.5527922, 33.940722], "type": "Point"}, "id": "UoLaMG3J3NqONBr2y2IA1brDYu0=", "properties": {"@spider": "usps_collection_boxes", "addr:city": "MARIETTA", "addr:country": "US", "addr:full": "540 POWDER SPRINGS ST", "addr:postcode": "30064", "addr:state": "GA", "brand": "USPS", "collection_times": "Mo-Sa 13:30", "name": "USPS COLLECTION BOX - BLUE BOX", "note": "ON 12/24 AND 12/31, THIS BOX MAY BE COLLECTED AS EARLY AS 12 NOON.", "ref": "3006400007"}, "type": "Feature"}
{"geometry": {"coordinates": [-84.5731184, 33.950734], "type": "Point"}, "id": "kUuJaDzWRNyKtKL7ZaP1xVsrScc=", "properties": {"@spider": "usps_collection_boxes", "addr:city": "MARIETTA", "addr:country": "US", "addr:full": "707 WHITLOCK AVE SW", "addr:postcode": "30064", "addr:state": "GA", "brand": "USPS", "collection_times": "Mo-Sa 14:00", "name": "USPS COLLECTION BOX - BLUE BOX", "note": "ON 12/24 AND 12/31, THIS BOX MAY BE COLLECTED AS EARLY AS 12 NOON.", "ref": "3006400018"}, "type": "Feature"}
{"geometry": {"coordinates": [-84.5503749, 33.952215], "type": "Point"}, "id": "PlKdXtZQPo8r3tUuotXfMfnvHRE=", "properties": {"@spider": "usps_collection_boxes", "addr:city": "MARIETTA", "addr:country": "US", "addr:full": "3 WHITLOCK AVE SW", "addr:postcode": "30064", "addr:state": "GA", "brand": "USPS", "collection_times": "Mo-Fr 14:30", "name": "USPS COLLECTION BOX - BLUE BOX", "note": "ON 12/24 AND 12/31, THIS BOX MAY BE COLLECTED AS EARLY AS 12 NOON.", "ref": "3006400020"}, "type": "Feature"}
{"geometry": {"coordinates": [-84.5146258, 33.956215], "type": "Point"}, "id": "69PTmJX3WKVfGrjTxdANXjEiW6A=", "properties": {"@spider": "usps_collection_boxes", "addr:city": "MARIETTA", "addr:country": "US", "addr:full": "1290 GRESHAM RD", "addr:postcode": "30065", "addr:state": "GA", "brand": "USPS", "collection_times": "Mo-Fr 17:00; Sa 13:00", "name": "USPS COLLECTION BOX - BLUE BOX", "note": "ON 12/24 AND 12/31, THIS BOX MAY BE COLLECTED AS EARLY AS 12 NOON.", "ref": "3006500001"}, "type": "Feature"}
{"geometry": {"coordinates": [-84.514008, 33.9576], "type": "Point"}, "id": "Fsu1XKa_55tzIkc0bO0t5TlujKw=", "properties": {"@spider": "usps_collection_boxes", "addr:city": "MARIETTA", "addr:country": "US", "addr:full": "1290 GRESHAM RD", "addr:postcode": "30065", "addr:state": "GA", "brand": "USPS", "collection_times": "Mo-Fr 17:00; Sa 13:00", "name": "USPS COLLECTION BOX - PO LOBBY", "note": "ON 12/24 AND 12/31, THIS BOX MAY BE COLLECTED AS EARLY AS 12 NOON.", "ref": "3006500005"}, "type": "Feature"}
{"geometry": {"coordinates": [-84.514008, 33.9576], "type": "Point"}, "id": "t-fSgQVVCICU87XgVlQZpX8jYeQ=", "properties": {"@spider": "usps_collection_boxes", "addr:city": "MARIETTA", "addr:country": "US", "addr:full": "1290 GRESHAM RD", "addr:postcode": "30065", "addr:state": "GA", "brand": "USPS", "collection_times": "Mo-Fr 17:00; Sa 13:00", "name": "USPS COLLECTION BOX - PO LOBBY", "note": "ON 12/24 AND 12/31, THIS BOX MAY BE COLLECTED AS EARLY AS 12 NOON.", "ref": "3006500006"}, "type": "Feature"}
{"geometry": {"coordinates": [-84.4895303189, 34.0204999919], "type": "Point"}, "id": "0-2bC58L10PDABbWCRd3HgB9gkw=", "properties": {"@spider": "usps_collection_boxes", "addr:city": "MARIETTA", "addr:country": "US", "addr:full": "2886 SANDY PLAINS RD", "addr:postcode": "30066", "addr:state": "GA", "brand": "USPS", "collection_times": "Mo-Fr 17:00; Sa 14:00", "name": "USPS COLLECTION BOX - BLUE BOX", "note": "ON 12/24 AND 12/31, THIS BOX MAY BE COLLECTED AS EARLY AS 12 NOON.", "ref": "3006600010"}, "type": "Feature"}
{"geometry": {"coordinates": [-84.4896299, 34.020132], "type": "Point"}, "id": "vGM34IYxbIJVvnP_yWGvTr-sRjU=", "properties": {"@spider": "usps_collection_boxes", "addr:city": "MARIETTA", "addr:country": "US", "addr:full": "2886 SANDY PLAINS RD", "addr:postcode": "30066", "addr:state": "GA", "brand": "USPS", "collection_times": "Mo-Fr 17:00; Sa 14:00", "name": "USPS COLLECTION BOX - BLUE BOX", "note": "ON 12/24 AND 12/31, THIS BOX MAY BE COLLECTED AS EARLY AS 12 NOON.", "ref": "3006600011"}, "type": "Feature"}
{"geometry": {"coordinates": [-84.5275517, 34.022179], "type": "Point"}, "id": "uWmZoQBWl6y4eZ8DufK5LcSwCDY=", "properties": {"@spider": "usps_collection_boxes", "addr:city": "MARIETTA", "addr:country": "US", "addr:full": "2932 CANTON RD STE 260", "addr:postcode": "30066", "addr:state": "GA", "brand": "USPS", "collection_times": "Mo-Sa 12:45", "name": "USPS COLLECTION BOX - BLUE BOX", "note": "ON 12/24 AND 12/31, THIS BOX MAY BE COLLECTED AS EARLY AS 12 NOON.", "ref": "3006600014"}, "type": "Feature"}
{"geometry": {"coordinates": [-84.5303453, 34.03868], "type": "Point"}, "id": "qwkgldjUr58JsfeDYiPUYx8RRhM=", "properties": {"@spider": "usps_collection_boxes", "addr:city": "MARIETTA", "addr:country": "US", "addr:full": "3595 CANTON RD", "addr:postcode": "30066", "addr:state": "GA", "brand": "USPS", "collection_times": "Mo-Sa 12:30", "name": "USPS COLLECTION BOX - BLUE BOX", "note": "ON 12/24 AND 12/31, THIS BOX MAY BE COLLECTED AS EARLY AS 12 NOON.", "ref": "3006600017"}, "type": "Feature"}
{"geometry": {"coordinates": [-84.5379184, 33.983282], "type": "Point"}, "id": "gg_f6rCwGVmcdkrD6v3GvB5aKDY=", "properties": {"@spider": "usps_collection_boxes", "addr:city": "MARIETTA", "addr:country": "US", "addr:full": "1335 CANTON RD", "addr:postcode": "30066", "addr:state": "GA", "brand": "USPS", "collection_times": "Mo-Sa 12:00", "name": "USPS COLLECTION BOX - BLUE BOX", "ref": "3006600022"}, "type": "Feature"}
{"geometry": {"coordinates": [-84.4958711, 34.014962], "type": "Point"}, "id": "gJHBk_w--QmdrNMPwWjgkwyB56k=", "properties": {"@spider": "usps_collection_boxes", "addr:city": "MARIETTA", "addr:country": "US", "addr:full": "2619 SANDY PLAINS RD", "addr:postcode": "30066", "addr:state": "GA", "brand": "USPS", "collection_times": "Mo-Sa 12:00", "name": "USPS COLLECTION BOX - BLUE BOX", "ref": "3006600035"}, "type": "Feature"}
{"geometry": {"coordinates": [-84.5275843, 33.995718], "type": "Point"}, "id": "1zoiAQjPDG-U-fRPBGavYQV4j_Q=", "properties": {"@spider": "usps_collection_boxes", "addr:city": "MARIETTA", "addr:country": "US", "addr:full": "1800 SANDY PLAINS RD", "addr:postcode": "30066", "addr:state": "GA", "brand": "USPS", "collection_times": "Mo-Sa 12:00", "name": "USPS COLLECTION BOX - BLUE BOX", "ref": "3006600039"}, "type": "Feature"}
{"geometry": {"coordinates": [-84.5511765821, 34.0141062655], "type": "Point"}, "id": "Bqw6OiyA1uxnKcH-hwATlEuQxMQ=", "properties": {"@spider": "usps_collection_boxes", "addr:city": "MARIETTA", "addr:country": "US", "addr:full": "50 BARRETT PKWY", "addr:postcode": "30066", "addr:state": "GA", "brand": "USPS", "collection_times": "Mo-Sa 12:45", "name": "USPS COLLECTION BOX - BLUE BOX", "note": "ON 12/24 AND 12/31, THIS BOX MAY BE COLLECTED AS EARLY AS 12 NOON.", "ref": "3006600040"}, "type": "Feature"}
{"geometry": {"coordinates": [-84.489616, 34.020457], "type": "Point"}, "id": "Xf0JPIiTwNv3npNh70epRjf612Q=", "properties": {"@spider": "usps_collection_boxes", "addr:city": "MARIETTA", "addr:country": "US", "addr:full": "2886 SANDY PLAINS RD", "addr:postcode": "30066", "addr:state": "GA", "brand": "USPS", "collection_times": "Mo-Fr 17:00; Sa 14:00", "name": "USPS COLLECTION BOX - PO LOBBY", "note": "ON 12/24 AND 12/31, THIS BOX MAY BE COLLECTED AS EARLY AS 12 NOON.", "ref": "3006600041"}, "type": "Feature"}
{"geometry": {"coordinates": [-84.489616, 34.020457], "type": "Point"}, "id": "E5qfYMbRO0tdJ52LTES3FJhq5IQ=", "properties": {"@spider": "usps_collection_boxes", "addr:city": "MARIETTA", "addr:country": "US", "addr:full": "2886 SANDY PLAINS RD", "addr:postcode": "30066", "addr:state": "GA", "brand": "USPS", "collection_times": "Mo-Fr 17:00; Sa 14:00", "name": "USPS COLLECTION BOX - PO LOBBY", "note": "ON 12/24 AND 12/31, THIS BOX MAY BE COLLECTED AS EARLY AS 12 NOON.", "ref": "3006600043"}, "type": "Feature"}
{"geometry": {"coordinates": [-84.4575821, 34.037476], "type": "Point"}, "id": "u4v60qKgm3df3G1wRJQxSoZrzi4=", "properties": {"@spider": "usps_collection_boxes", "addr:city": "MARIETTA", "addr:country": "US", "addr:full": "3225 SHALLOWFORD RD", "addr:postcode": "30066", "addr:state": "GA", "brand": "USPS", "collection_times": "Mo-Sa 12:30", "name": "USPS COLLECTION BOX - BLUE BOX", "note": "ON 12/24 AND 12/31, THIS BOX MAY BE COLLECTED AS EARLY AS 12 NOON.", "ref": "3006600044"}, "type": "Feature"}
{"geometry": {"coordinates": [-84.489616, 34.020457], "type": "Point"}, "id": "IJ5PdxnSTcQ_R6DOoC5Kw6zPo9g=", "properties": {"@spider": "usps_collection_boxes", "addr:city": "MARIETTA", "addr:country": "US", "addr:full": "2886 SANDY PLAINS RD", "addr:postcode": "30066", "addr:state": "GA", "brand": "USPS", "collection_times": "Mo-Fr 17:00; Sa 14:00", "name": "USPS COLLECTION BOX - APC", "note": "ON 12/24 AND 12/31, THIS BOX MAY BE COLLECTED AS EARLY AS 12 NOON.", "ref": "3006600045"}, "type": "Feature"}
{"geometry": {"coordinates": [-84.489582772, 34.020448237], "type": "Point"}, "id": "yjz6h4BJr2NU8OXxbAC65gNJIQY=", "properties": {"@spider": "usps_collection_boxes", "addr:city": "MARIETTA", "addr:country": "US", "addr:full": "2886 SANDY PLAINS RD", "addr:postcode": "30066", "addr:state": "GA", "brand": "USPS", "collection_times": "Mo-Fr 17:00", "name": "USPS COLLECTION BOX - PO LOBBY", "note": "ON 12/24 AND 12/31, THIS BOX MAY BE COLLECTED AS EARLY AS 12 NOON.", "ref": "3006600056"}, "type": "Feature"}
{"geometry": {"coordinates": [-84.5112568, 33.94113], "type": "Point"}, "id": "JwS5WmZJunR5yr5hzft7Mjgq0U8=", "properties": {"@spider": "usps_collection_boxes", "addr:city": "MARIETTA", "addr:country": "US", "addr:full": "1395 S MARIETTA PKWY SE", "addr:postcode": "30067", "addr:state": "GA", "brand": "USPS", "collection_times": "Mo-Sa 14:00", "name": "USPS COLLECTION BOX - BLUE BOX", "note": "ON 12/24 AND 12/31, THIS BOX MAY BE COLLECTED AS EARLY AS 12 NOON.", "ref": "3006700007"}, "type": "Feature"}
{"geometry": {"coordinates": [-84.4680827, 33.917835], "type": "Point"}, "id": "cw9AyKqT9CEaWazIba2wRa7_KwE=", "properties": {"@spider": "usps_collection_boxes", "addr:city": "MARIETTA", "addr:country": "US", "addr:full": "1410 TERRELL MILL RD SE", "addr:postcode": "30067", "addr:state": "GA", "brand": "USPS", "collection_times": "Mo-Sa 13:00", "name": "USPS COLLECTION BOX - BLUE BOX", "note": "ON 12/24 AND 12/31, THIS BOX MAY BE COLLECTED AS EARLY AS 12 NOON.", "ref": "3006700009"}, "type": "Feature"}
{"geometry": {"coordinates": [-84.4806974, 33.927126], "type": "Point"}, "id": "2pb4hXIaqdJiAkW9wkTf94ADiyA=", "properties": {"@spider": "usps_collection_boxes", "addr:city": "MARIETTA", "addr:country": "US", "addr:full": "1110 NORTHCHASE PKWY SE", "addr:postcode": "30067", "addr:state": "GA", "brand": "USPS", "collection_times": "Mo-Sa 12:45", "name": "USPS COLLECTION BOX - BLUE BOX", "note": "ON 12/24 AND 12/31, THIS BOX MAY BE COLLECTED AS EARLY AS 12 NOON.", "ref": "3006700022"}, "type": "Feature"}
{"geometry": {"coordinates": [-84.4906036, 33.924066], "type": "Point"}, "id": "k0nm-X1u_hj56PZgUAAeuwQSdvY=", "properties": {"@spider": "usps_collection_boxes", "addr:city": "MARIETTA", "addr:country": "US", "addr:full": "2137 KINGSTON CT SE", "addr:postcode": "30067", "addr:state": "GA", "brand": "USPS", "collection_times": "Mo-Sa 12:45", "name": "USPS COLLECTION BOX - BLUE BOX", "note": "ON 12/24 AND 12/31, THIS BOX MAY BE COLLECTED AS EARLY AS 12 NOON.", "ref": "3006700048"}, "type": "Feature"}
{"geometry": {"coordinates": [-84.4980857, 33.916989], "type": "Point"}, "id": "nqUYhwuZxAEg7Q1WaRw5FQ-hlys=", "properties": {"@spider": "usps_collection_boxes", "addr:city": "MARIETTA", "addr:country": "US", "addr:full": "2211 NEW MARKET PKWY SE", "addr:postcode": "30067", "addr:state": "GA", "brand": "USPS", "collection_times": "Mo-Sa 12:30", "name": "USPS COLLECTION BOX - BLUE BOX", "note": "ON 12/24 AND 12/31, THIS BOX MAY BE COLLECTED AS EARLY AS 12 NOON.", "ref": "3006700052"}, "type": "Feature"}
{"geometry": {"coordinates": [-84.4665674, 33.90404], "type": "Point"}, "id": "GxkJftKFA_z0BVZ8kpasK4_xxwk=", "properties": {"@spider": "usps_collection_boxes", "addr:city": "MARIETTA", "addr:country": "US", "addr:full": "3000 WINDY HILL RD SE", "addr:postcode": "30067", "addr:state": "GA", "brand": "USPS", "collection_times": "Mo-Fr 17:00; Sa 13:30", "name": "USPS COLLECTION BOX - BLUE BOX", "note": "ON 12/24 AND 12/31, THIS BOX MAY BE COLLECTED AS EARLY AS 12 NOON.", "ref": "3006700066"}, "type": "Feature"}
{"geometry": {"coordinates": [-84.5151582, 33.94292], "type": "Point"}, "id": "odBatoVR9CZkcxhS5dKu71_DGx4=", "properties": {"@spider": "usps_collection_boxes", "addr:city": "MARIETTA", "addr:country": "US", "addr:full": "1355 S MARIETTA PKWY SE", "addr:postcode": "30067", "addr:state": "GA", "brand": "USPS", "collection_times": "Mo-Sa 14:00", "name": "USPS COLLECTION BOX - BLUE BOX", "note": "ON 12/24 AND 12/31, THIS BOX MAY BE COLLECTED AS EARLY AS 12 NOON.", "ref": "3006700094"}, "type": "Feature"}
{"geometry": {"coordinates": [-84.4144356, 33.95078], "type": "Point"}, "id": "tDeBXnPDvmUROztRuUaJTf2T370=", "properties": {"@spider": "usps_collection_boxes", "addr:city": "MARIETTA", "addr:country": "US", "addr:full": "501 VILLAGE TRCE NE", "addr:postcode": "30067", "addr:state": "GA", "brand": "USPS", "collection_times": "Mo-Sa 13:30", "name": "USPS COLLECTION BOX - BLUE BOX", "note": "ON 12/24 AND 12/31, THIS BOX MAY BE COLLECTED AS EARLY AS 12 NOON.", "ref": "3006700095"}, "type": "Feature"}
{"geometry": {"coordinates": [-84.4664885, 33.904167], "type": "Point"}, "id": "DxBQOlVv8kHvYzJKx66NJ9lYDL8=", "properties": {"@spider": "usps_collection_boxes", "addr:city": "MARIETTA", "addr:country": "US", "addr:full": "3000 WINDY HILL RD SE", "addr:postcode": "30067", "addr:state": "GA", "brand": "USPS", "collection_times": "Mo-Fr 17:00; Sa 13:30", "name": "USPS COLLECTION BOX - PO LOBBY", "note": "ON 12/24 AND 12/31, THIS BOX MAY BE COLLECTED AS EARLY AS 12 NOON.", "ref": "3006700110"}, "type": "Feature"}
{"geometry": {"coordinates": [-84.4664879, 33.904178], "type": "Point"}, "id": "ONhfaDBZ_eUAi-1Hpije0w-qhvk=", "properties": {"@spider": "usps_collection_boxes", "addr:city": "MARIETTA", "addr:country": "US", "addr:full": "3000 WINDY HILL RD SE", "addr:postcode": "30067", "addr:state": "GA", "brand": "USPS", "collection_times": "Mo-Fr 17:00; Sa 13:30", "name": "USPS COLLECTION BOX - PO LOBBY", "note": "ON 12/24 AND 12/31, THIS BOX MAY BE COLLECTED AS EARLY AS 12 NOON.", "ref": "3006700111"}, "type": "Feature"}
{"geometry": {"coordinates": [-84.467664, 33.914718], "type": "Point"}, "id": "KQCZksOe1S71TmorutVVMTFmyEE=", "properties": {"@spider": "usps_collection_boxes", "addr:city": "MARIETTA", "addr:country": "US", "addr:full": "1640 POWERS FERRY RD SE", "addr:postcode": "30067", "addr:state": "GA", "brand": "USPS", "collection_times": "Mo-Sa 13:15", "name": "USPS COLLECTION BOX - BLUE BOX", "note": "ON 12/24 AND 12/31, THIS BOX MAY BE COLLECTED AS EARLY AS 12 NOON.", "ref": "3006700113"}, "type": "Feature"}
{"geometry": {"coordinates": [-84.4663511, 33.923147], "type": "Point"}, "id": "Sl0l_27eWF9fikd_LU6V0FttO-0=", "properties": {"@spider": "usps_collection_boxes", "addr:city": "MARIETTA", "addr:country": "US", "addr:full": "2900 DELK RD SE", "addr:postcode": "30067", "addr:state": "GA", "brand": "USPS", "collection_times": "Mo-Sa 12:45", "name": "USPS COLLECTION BOX - BLUE BOX", "note": "ON 12/24 AND 12/31, THIS BOX MAY BE COLLECTED AS EARLY AS 12 NOON.", "ref": "3006700114"}, "type": "Feature"}
{"geometry": {"coordinates": [-84.4665719, 33.904133], "type": "Point"}, "id": "nkDhs1P0aGUKt52-4M0YI2Py7Rs=", "properties": {"@spider": "usps_collection_boxes", "addr:city": "MARIETTA", "addr:country": "US", "addr:full": "3000 WINDY HILL RD SE", "addr:postcode": "30067", "addr:state": "GA", "brand": "USPS", "collection_times": "Mo-Fr 17:00; Sa 13:30", "name": "USPS COLLECTION BOX - APC", "note": "ON 12/24 AND 12/31, THIS BOX MAY BE COLLECTED AS EARLY AS 12 NOON.", "ref": "3006700116"}, "type": "Feature"}
{"geometry": {"coordinates": [-84.466751366, 33.904796494], "type": "Point"}, "id": "az5VL0UHWDwDZclqiWD_-kCZgo0=", "properties": {"@spider": "usps_collection_boxes", "addr:city": "MARIETTA", "addr:country": "US", "addr:full": "3000 WINDY HILL RD SE STE 252", "addr:postcode": "30067", "addr:state": "GA", "brand": "USPS", "collection_times": "Mo-Fr 17:00; Sa 13:00", "name": "USPS COLLECTION BOX - PO LOBBY", "note": "ON 12/24 AND 12/31, THIS BOX MAY BE COLLECTED AS EARLY AS 12 NOON.", "ref": "3006700119"}, "type": "Feature"}
{"geometry": {"coordinates": [-84.4114599, 33.969514], "type": "Point"}, "id": "0nChLhY24oQi_FXNYY2qLYRGt20=", "properties": {"@spider": "usps_collection_boxes", "addr:city": "MARIETTA", "addr:country": "US", "addr:full": "4800 OLDE TOWN PKWY", "addr:postcode": "30068", "addr:state": "GA", "brand": "USPS", "collection_times": "Mo-Sa 13:45", "name": "USPS COLLECTION BOX - BLUE BOX", "note": "ON 12/24 AND 12/31, THIS BOX MAY BE COLLECTED AS EARLY AS 12 NOON.", "ref": "3006800002"}, "type": "Feature"}
{"geometry": {"coordinates": [-84.4093818, 33.964389], "type": "Point"}, "id": "Gp55pOA8VI0GhNsDWhc_aDl4ozk=", "properties": {"@spider": "usps_collection_boxes", "addr:city": "MARIETTA", "addr:country": "US", "addr:full": "4880 LOWER ROSWELL RD", "addr:postcode": "30068", "addr:state": "GA", "brand": "USPS", "collection_times": "Mo-Sa 13:30", "name": "USPS COLLECTION BOX - BLUE BOX", "note": "ON 12/24 AND 12/31, THIS BOX MAY BE COLLECTED AS EARLY AS 12 NOON.", "ref": "3006800003"}, "type": "Feature"}
{"geometry": {"coordinates": [-84.4250146212, 33.9829336722], "type": "Point"}, "id": "pVhpFpNXFiC4_aJFsBOJu5Ggm0E=", "properties": {"@spider": "usps_collection_boxes", "addr:city": "MARIETTA", "addr:country": "US", "addr:full": "1395 E COBB DR", "addr:postcode": "30068", "addr:state": "GA", "brand": "USPS", "collection_times": "Mo-Fr 17:00; Sa 13:15", "name": "USPS COLLECTION BOX - BLUE BOX", "note": "ON 12/24 AND 12/31, THIS BOX MAY BE COLLECTED AS EARLY AS 12 NOON.", "ref": "3006800007"}, "type": "Feature"}
{"geometry": {"coordinates": [-84.414721, 33.977105], "type": "Point"}, "id": "0crBsHDImXJ5FhmsiO9TykwyQfk=", "properties": {"@spider": "usps_collection_boxes", "addr:city": "MARIETTA", "addr:country": "US", "addr:full": "1100 JOHNSON FERRY RD", "addr:postcode": "30068", "addr:state": "GA", "brand": "USPS", "collection_times": "Mo-Sa 13:45", "name": "USPS COLLECTION BOX - BLUE BOX", "note": "ON 12/24 AND 12/31, THIS BOX MAY BE COLLECTED AS EARLY AS 12 NOON.", "ref": "3006800012"}, "type": "Feature"}
{"geometry": {"coordinates": [-84.42503, 33.982816], "type": "Point"}, "id": "-bbLI7JzoXQyHSLBJqR3Va7eKUI=", "properties": {"@spider": "usps_collection_boxes", "addr:city": "MARIETTA", "addr:country": "US", "addr:full": "1395 E COBB DR", "addr:postcode": "30068", "addr:state": "GA", "brand": "USPS", "collection_times": "Mo-Fr 17:00; Sa 13:15", "name": "USPS COLLECTION BOX - PO LOBBY", "note": "ON 12/24 AND 12/31, THIS BOX MAY BE COLLECTED AS EARLY AS 12 NOON.", "ref": "3006800014"}, "type": "Feature"}
{"geometry": {"coordinates": [-84.42503, 33.982816], "type": "Point"}, "id": "23VWSgQPtfcHiGS94kcHC9P3xFk=", "properties": {"@spider": "usps_collection_boxes", "addr:city": "MARIETTA", "addr:country": "US", "addr:full": "1395 E COBB DR", "addr:postcode": "30068", "addr:state": "GA", "brand": "USPS", "collection_times": "Mo-Fr 17:00; Sa 13:15", "name": "USPS COLLECTION BOX - PO LOBBY", "note": "ON 12/24 AND 12/31, THIS BOX MAY BE COLLECTED AS EARLY AS 12 NOON.", "ref": "3006800015"}, "type": "Feature"}
{"geometry": {"coordinates": [-84.4217099, 33.963823], "type": "Point"}, "id": "B3mp_5jCS0dh-O7Uhv2xSSWBj7A=", "properties": {"@spider": "usps_collection_boxes", "addr:city": "MARIETTA", "addr:country": "US", "addr:full": "4455 LOWER ROSWELL RD", "addr:postcode": "30068", "addr:state": "GA", "brand": "USPS", "collection_times": "Mo-Sa 17:00", "name": "USPS COLLECTION BOX - BLUE BOX", "note": "ON 12/24 AND 12/31, THIS BOX MAY BE COLLECTED AS EARLY AS 12 NOON.", "ref": "3006800016"}, "type": "Feature"}
{"geometry": {"coordinates": [-84.4217424, 33.963829], "type": "Point"}, "id": "nuVOeC5nhFnB2GH4qOPpF543boE=", "properties": {"@spider": "usps_collection_boxes", "addr:city": "MARIETTA", "addr:country": "US", "addr:full": "4455 LOWER ROSWELL RD", "addr:postcode": "30068", "addr:state": "GA", "brand": "USPS", "collection_times": "Mo-Sa 17:00", "name": "USPS COLLECTION BOX - BLUE BOX", "note": "ON 12/24 AND 12/31, THIS BOX MAY BE COLLECTED AS EARLY AS 12 NOON.", "ref": "3006800017"}, "type": "Feature"}
{"geometry": {"coordinates": [-84.4214077, 33.964298], "type": "Point"}, "id": "7xjCRoRywd2ty_1oJPy_gYDC2cE=", "properties": {"@spider": "usps_collection_boxes", "addr:city": "MARIETTA", "addr:country": "US", "addr:full": "4455 LOWER ROSWELL RD", "addr:postcode": "30068", "addr:state": "GA", "brand": "USPS", "collection_times": "Mo-Sa 17:00", "name": "USPS COLLECTION BOX - PO LOBBY", "note": "ON 12/24 AND 12/31, THIS BOX MAY BE COLLECTED AS EARLY AS 12 NOON.", "ref": "3006800019"}, "type": "Feature"}
{"geometry": {"coordinates": [-84.421625, 33.963546], "type": "Point"}, "id": "59rWsjF3q0c54hpgn8NBKj3JVjE=", "properties": {"@spider": "usps_collection_boxes", "addr:city": "MARIETTA", "addr:country": "US", "addr:full": "4455 LOWER ROSWELL RD", "addr:postcode": "30068", "addr:state": "GA", "brand": "USPS", "collection_times": "Mo-Sa 17:00", "name": "USPS COLLECTION BOX - PO LOBBY", "note": "ON 12/24 AND 12/31, THIS BOX MAY BE COLLECTED AS EARLY AS 12 NOON.", "ref": "3006800020"}, "type": "Feature"}
{"geometry": {"coordinates": [-84.4214256, 33.964295], "type": "Point"}, "id": "6MOCJL9ty568XzNsDudgOiNFyPg=", "properties": {"@spider": "usps_collection_boxes", "addr:city": "MARIETTA", "addr:country": "US", "addr:full": "4455 LOWER ROSWELL RD", "addr:postcode": "30068", "addr:state": "GA", "brand": "USPS", "collection_times": "Mo-Sa 17:00", "name": "USPS COLLECTION BOX - PO LOBBY", "note": "ON 12/24 AND 12/31, THIS BOX MAY BE COLLECTED AS EARLY AS 12 NOON.", "ref": "3006800021"}, "type": "Feature"}
{"geometry": {"coordinates": [-84.4995184, 33.951747], "type": "Point"}, "id": "GwMYzM1pdd3vnxA5ApQ69zOvrfg=", "properties": {"@spider": "usps_collection_boxes", "addr:city": "MARIETTA", "addr:country": "US", "addr:full": "1836 LOWER ROSWELL RD", "addr:postcode": "30068", "addr:state": "GA", "brand": "USPS", "collection_times": "Mo-Sa 14:00", "name": "USPS COLLECTION BOX - BLUE BOX", "note": "ON 12/24 AND 12/31, THIS BOX MAY BE COLLECTED AS EARLY AS 12 NOON.", "ref": "3006800024"}, "type": "Feature"}
{"geometry": {"coordinates": [-84.421625, 33.963546], "type": "Point"}, "id": "V1fWI8UU_Wjhjy0tNwpqvwh8iQY=", "properties": {"@spider": "usps_collection_boxes", "addr:city": "MARIETTA", "addr:country": "US", "addr:full": "4455 LOWER ROSWELL RD", "addr:postcode": "30068", "addr:state": "GA", "brand": "USPS", "collection_times": "Mo-Sa 17:00", "name": "USPS COLLECTION BOX - APC", "note": "ON 12/24 AND 12/31, THIS BOX MAY BE COLLECTED AS EARLY AS 12 NOON.", "ref": "3006800025"}, "type": "Feature"}
{"geometry": {"coordinates": [-84.42503, 33.982816], "type": "Point"}, "id": "TUagV5QmDMr9rADumacyzTpZvF0=", "properties": {"@spider": "usps_collection_boxes", "addr:city": "MARIETTA", "addr:country": "US", "addr:full": "1395 E COBB DR", "addr:postcode": "30068", "addr:state": "GA", "brand": "USPS", "collection_times": "Mo-Fr 17:00; Sa 13:15", "name": "USPS COLLECTION BOX - APC", "note": "ON 12/24 AND 12/31, THIS BOX MAY BE COLLECTED AS EARLY AS 12 NOON.", "ref": "3006800026"}, "type": "Feature"}
{"geometry": {"coordinates": [-84.4039267, 33.966427], "type": "Point"}, "id": "mi9GgtNs_YMlgRg3I6_b6L9bTlg=", "properties": {"@spider": "usps_collection_boxes", "addr:city": "MARIETTA", "addr:country": "US", "addr:full": "4994 LOWER ROSWELL RD", "addr:postcode": "30068", "addr:state": "GA", "brand": "USPS", "collection_times": "Mo-Sa 13:30", "name": "USPS COLLECTION BOX - BLUE BOX", "note": "ON 12/24 AND 12/31, THIS BOX MAY BE COLLECTED AS EARLY AS 12 NOON.", "ref": "3006800027"}, "type": "Feature"}
{"geometry": {"coordinates": [-84.425014621, 33.982933672], "type": "Point"}, "id": "o5Tgd1UIhfpGbORCc_bFXlxSjLc=", "properties": {"@spider": "usps_collection_boxes", "addr:city": "MARIETTA", "addr:country": "US", "addr:full": "1395 E COBB DR", "addr:postcode": "30068", "addr:state": "GA", "brand": "USPS", "collection_times": "Mo-Fr 17:00; Sa 13:00", "name": "USPS COLLECTION BOX - PO LOBBY", "note": "ON 12/24 AND 12/31, THIS BOX MAY BE COLLECTED AS EARLY AS 12 NOON.", "ref": "3006800034"}, "type": "Feature"}
{"geometry": {"coordinates": [-84.420747216, 33.963635371], "type": "Point"}, "id": "otIWg-LX-BrlfXr3EY0F5El41Dw=", "properties": {"@spider": "usps_collection_boxes", "addr:city": "MARIETTA", "addr:country": "US", "addr:full": "4455 LOWER ROSWELL RD", "addr:postcode": "30068", "addr:state": "GA", "brand": "USPS", "collection_times": "Mo-Fr 17:00; Sa 13:00", "name": "USPS COLLECTION BOX - PO LOBBY", "note": "ON 12/24 AND 12/31, THIS BOX MAY BE COLLECTED AS EARLY AS 12 NOON.", "ref": "3006800035"}, "type": "Feature"}
{"geometry": {"coordinates": [-84.207054, 33.786497], "type": "Point"}, "id": "pBK8xSYF4SZ-pqM5rQTChy1ALxI=", "properties": {"@spider": "usps_collection_boxes", "addr:city": "PINE LAKE", "addr:country": "US", "addr:full": "4567 ROCKBRIDGE RD", "addr:postcode": "30072", "addr:state": "GA", "brand": "USPS", "collection_times": "Mo-Fr 16:30; Sa 12:00", "name": "USPS COLLECTION BOX - PO LOBBY", "note": "ON 12/24 AND 12/31, THIS BOX MAY BE COLLECTED AS EARLY AS 12 NOON.", "ref": "3007200003"}, "type": "Feature"}
{"geometry": {"coordinates": [-84.206960192, 33.786442009], "type": "Point"}, "id": "mKjCbA834EOOvtAZS4qCO3CGhSg=", "properties": {"@spider": "usps_collection_boxes", "addr:city": "PINE LAKE", "addr:country": "US", "addr:full": "4567 ROCKBRIDGE RD", "addr:postcode": "30072", "addr:state": "GA", "brand": "USPS", "collection_times": "Mo-Fr 17:00; Sa 13:00", "name": "USPS COLLECTION BOX - PO LOBBY", "note": "ON 12/24 AND 12/31, THIS BOX MAY BE COLLECTED AS EARLY AS 12 NOON.", "ref": "3007200005"}, "type": "Feature"}
{"geometry": {"coordinates": [-84.1413021852, 33.7461619675], "type": "Point"}, "id": "9WPW5FiEE3bHfxswYLWUytaeiz0=", "properties": {"@spider": "usps_collection_boxes", "addr:city": "REDAN", "addr:country": "US", "addr:full": "1544 WELLBORN RD", "addr:postcode": "30074", "addr:state": "GA", "brand": "USPS", "collection_times": "Mo-Fr 16:30; Sa 12:00", "name": "USPS COLLECTION BOX - BLUE BOX", "note": "ON 12/24 AND 12/31, THIS BOX MAY BE COLLECTED AS EARLY AS 12 NOON.", "ref": "3007400003"}, "type": "Feature"}
{"geometry": {"coordinates": [-84.3601252, 34.021928], "type": "Point"}, "id": "tAmidfyckpfG52A37aYJkxdydZQ=", "properties": {"@spider": "usps_collection_boxes", "addr:city": "ROSWELL", "addr:country": "US", "addr:full": "38 HILL ST", "addr:postcode": "30075", "addr:state": "GA", "brand": "USPS", "collection_times": "Mo-Sa 13:00", "name": "USPS COLLECTION BOX - BLUE BOX", "note": "ON 12/24 AND 12/31, THIS BOX MAY BE COLLECTED AS EARLY AS 12 NOON.", "ref": "3007500005"}, "type": "Feature"}
{"geometry": {"coordinates": [-84.4205666, 34.027918], "type": "Point"}, "id": "yTFONPjLt9Gs9ffzDg9KdCHh31g=", "properties": {"@spider": "usps_collection_boxes", "addr:city": "ROSWELL", "addr:country": "US", "addr:full": "4401 SHALLOWFORD RD", "addr:postcode": "30075", "addr:state": "GA", "brand": "USPS", "collection_times": "Mo-Sa 13:00", "name": "USPS COLLECTION BOX - BLUE BOX", "note": "ON 12/24 AND 12/31, THIS BOX MAY BE COLLECTED AS EARLY AS 12 NOON.", "ref": "3007500006"}, "type": "Feature"}
{"geometry": {"coordinates": [-84.4217211, 34.062412], "type": "Point"}, "id": "ykilw0A_ZmsZJXjeplLG8YYA-qQ=", "properties": {"@spider": "usps_collection_boxes", "addr:city": "ROSWELL", "addr:country": "US", "addr:full": "4651 WOODSTOCK RD", "addr:postcode": "30075", "addr:state": "GA", "brand": "USPS", "collection_times": "Mo-Sa 13:00", "name": "USPS COLLECTION BOX - BLUE BOX", "note": "ON 12/24 AND 12/31, THIS BOX MAY BE COLLECTED AS EARLY AS 12 NOON.", "ref": "3007500007"}, "type": "Feature"}
{"geometry": {"coordinates": [-84.343311, 34.029765], "type": "Point"}, "id": "iWJ8UcESevyigWmpSuusRiIauWo=", "properties": {"@spider": "usps_collection_boxes", "addr:city": "ROSWELL", "addr:country": "US", "addr:full": "1150 GRIMES BRIDGE RD", "addr:postcode": "30075", "addr:state": "GA", "brand": "USPS", "collection_times": "Mo-Sa 13:00", "name": "USPS COLLECTION BOX - BLUE BOX", "note": "ON 12/24 AND 12/31, THIS BOX MAY BE COLLECTED AS EARLY AS 12 NOON.", "ref": "3007500008"}, "type": "Feature"}
{"geometry": {"coordinates": [-84.342421698, 34.030476417], "type": "Point"}, "id": "jsNWqkwcQsCVpaq-56DBMXETv0M=", "properties": {"@spider": "usps_collection_boxes", "addr:city": "ROSWELL", "addr:country": "US", "addr:full": "1182 GRIMES BRIDGE RD", "addr:postcode": "30075", "addr:state": "GA", "brand": "USPS", "collection_times": "Mo-Sa 13:00", "name": "USPS COLLECTION BOX - BLUE BOX", "note": "ON 12/24 AND 12/31, THIS BOX MAY BE COLLECTED AS EARLY AS 12 NOON.", "ref": "3007500012"}, "type": "Feature"}
{"geometry": {"coordinates": [-84.3616747, 34.047134], "type": "Point"}, "id": "bG7eEkDgCsydI7sjRLS-z7Agv7k=", "properties": {"@spider": "usps_collection_boxes", "addr:city": "ROSWELL", "addr:country": "US", "addr:full": "10930 CRABAPPLE RD", "addr:postcode": "30075", "addr:state": "GA", "brand": "USPS", "collection_times": "Mo-Sa 13:00", "name": "USPS COLLECTION BOX - BLUE BOX", "note": "ON 12/24 AND 12/31, THIS BOX MAY BE COLLECTED AS EARLY AS 12 NOON.", "ref": "3007500013"}, "type": "Feature"}
{"geometry": {"coordinates": [-84.3601128, 34.046212], "type": "Point"}, "id": "bu0K5dfP0a7L5NzNf58wi6DPlb0=", "properties": {"@spider": "usps_collection_boxes", "addr:city": "ROSWELL", "addr:country": "US", "addr:full": "10933 CRABAPPLE RD", "addr:postcode": "30075", "addr:state": "GA", "brand": "USPS", "collection_times": "Mo-Sa 13:00", "name": "USPS COLLECTION BOX - BLUE BOX", "note": "ON 12/24 AND 12/31, THIS BOX MAY BE COLLECTED AS EARLY AS 12 NOON.", "ref": "3007500014"}, "type": "Feature"}
{"geometry": {"coordinates": [-84.3616228, 34.04934], "type": "Point"}, "id": "EWMsh2_9tzlmitH5FpEhP6CUOos=", "properties": {"@spider": "usps_collection_boxes", "addr:city": "ROSWELL", "addr:country": "US", "addr:full": "11050 CRABAPPLE RD", "addr:postcode": "30075", "addr:state": "GA", "brand": "USPS", "collection_times": "Mo-Sa 13:00", "name": "USPS COLLECTION BOX - BLUE BOX", "note": "ON 12/24 AND 12/31, THIS BOX MAY BE COLLECTED AS EARLY AS 12 NOON.", "ref": "3007500015"}, "type": "Feature"}
{"geometry": {"coordinates": [-84.4229518, 34.06525], "type": "Point"}, "id": "uH6A_SHUl0e5M0vA82sAqE3Y2mY=", "properties": {"@spider": "usps_collection_boxes", "addr:city": "ROSWELL", "addr:country": "US", "addr:full": "4750 ALABAMA RD NE", "addr:postcode": "30075", "addr:state": "GA", "brand": "USPS", "collection_times": "Mo-Sa 13:00", "name": "USPS COLLECTION BOX - BLUE BOX", "note": "ON 12/24 AND 12/31, THIS BOX MAY BE COLLECTED AS EARLY AS 12 NOON.", "ref": "3007500016"}, "type": "Feature"}
{"geometry": {"coordinates": [-84.3616126, 34.046106], "type": "Point"}, "id": "-VSX-D4KukZDWETHkRoTy_K-w4U=", "properties": {"@spider": "usps_collection_boxes", "addr:city": "ROSWELL", "addr:country": "US", "addr:full": "10898 CRABAPPLE RD", "addr:postcode": "30075", "addr:state": "GA", "brand": "USPS", "collection_times": "Mo-Sa 13:00", "name": "USPS COLLECTION BOX - BLUE BOX", "note": "ON 12/24 AND 12/31, THIS BOX MAY BE COLLECTED AS EARLY AS 12 NOON.", "ref": "3007500019"}, "type": "Feature"}
{"geometry": {"coordinates": [-84.3291476, 34.017231], "type": "Point"}, "id": "YIVwZ1SwpycRy2T9gaS96d1MX84=", "properties": {"@spider": "usps_collection_boxes", "addr:city": "ROSWELL", "addr:country": "US", "addr:full": "9755 DOGWOOD RD", "addr:postcode": "30075", "addr:state": "GA", "brand": "USPS", "collection_times": "Mo-Sa 13:00", "name": "USPS COLLECTION BOX - BLUE BOX", "note": "ON 12/24 AND 12/31, THIS BOX MAY BE COLLECTED AS EARLY AS 12 NOON.", "ref": "3007500023"}, "type": "Feature"}
{"geometry": {"coordinates": [-84.3615883, 34.025236], "type": "Point"}, "id": "gUPG40IKRigFDxD0BFWXJl9LUnA=", "properties": {"@spider": "usps_collection_boxes", "addr:city": "ROSWELL", "addr:country": "US", "addr:full": "980 CANTON ST", "addr:postcode": "30075", "addr:state": "GA", "brand": "USPS", "collection_times": "Mo-Sa 13:00", "name": "USPS COLLECTION BOX - BLUE BOX", "note": "ON 12/24 AND 12/31, THIS BOX MAY BE COLLECTED AS EARLY AS 12 NOON.", "ref": "3007500028"}, "type": "Feature"}
{"geometry": {"coordinates": [-84.3615047, 34.031486], "type": "Point"}, "id": "qBTlyj6taSGs0KCliID8JsvH9DY=", "properties": {"@spider": "usps_collection_boxes", "addr:city": "ROSWELL", "addr:country": "US", "addr:full": "15 WOODSTOCK RD", "addr:postcode": "30075", "addr:state": "GA", "brand": "USPS", "collection_times": "Mo-Sa 13:00", "name": "USPS COLLECTION BOX - BLUE BOX", "note": "ON 12/24 AND 12/31, THIS BOX MAY BE COLLECTED AS EARLY AS 12 NOON.", "ref": "3007500029"}, "type": "Feature"}
{"geometry": {"coordinates": [-84.3786416, 34.054184], "type": "Point"}, "id": "FMkQ3_C3tFEN9JXKxX4_5UcnZi4=", "properties": {"@spider": "usps_collection_boxes", "addr:city": "ROSWELL", "addr:country": "US", "addr:full": "560 W CROSSVILLE RD # 80", "addr:postcode": "30075", "addr:state": "GA", "brand": "USPS", "collection_times": "Mo-Sa 13:00", "name": "USPS COLLECTION BOX - BLUE BOX", "note": "ON 12/24 AND 12/31, THIS BOX MAY BE COLLECTED AS EARLY AS 12 NOON.", "ref": "3007500032"}, "type": "Feature"}
{"geometry": {"coordinates": [-84.3855742, 34.061297], "type": "Point"}, "id": "lnTB6DFDeJD81LcU8OLAwwBNQuo=", "properties": {"@spider": "usps_collection_boxes", "addr:city": "ROSWELL", "addr:country": "US", "addr:full": "885 WOODSTOCK RD", "addr:postcode": "30075", "addr:state": "GA", "brand": "USPS", "collection_times": "Mo-Sa 13:00", "name": "USPS COLLECTION BOX - BLUE BOX", "note": "ON 12/24 AND 12/31, THIS BOX MAY BE COLLECTED AS EARLY AS 12 NOON.", "ref": "3007500037"}, "type": "Feature"}
{"geometry": {"coordinates": [-84.3579454, 34.047749], "type": "Point"}, "id": "ORB-WQOBk2zkbm_wAZhQ2VnUZ-Q=", "properties": {"@spider": "usps_collection_boxes", "addr:city": "ROSWELL", "addr:country": "US", "addr:full": "100 MACY DR", "addr:postcode": "30075", "addr:state": "GA", "brand": "USPS", "collection_times": "Mo-Sa 13:00", "name": "USPS COLLECTION BOX - BLUE BOX", "note": "ON 12/24 AND 12/31, THIS BOX MAY BE COLLECTED AS EARLY AS 12 NOON.", "ref": "3007500039"}, "type": "Feature"}
{"geometry": {"coordinates": [-84.3404721, 34.035305], "type": "Point"}, "id": "1N2bJUP6EOmhKT_HUzXcoJvSNqM=", "properties": {"@spider": "usps_collection_boxes", "addr:city": "ROSWELL", "addr:country": "US", "addr:full": "770 OLD ROSWELL PL", "addr:postcode": "30075", "addr:state": "GA", "brand": "USPS", "collection_times": "Mo-Sa 13:00", "name": "USPS COLLECTION BOX - BLUE BOX", "note": "ON 12/24 AND 12/31, THIS BOX MAY BE COLLECTED AS EARLY AS 12 NOON.", "ref": "3007500041"}, "type": "Feature"}
{"geometry": {"coordinates": [-84.34227506, 34.034515155], "type": "Point"}, "id": "vFdJsPBaii71sDkaFamk-3tjoAA=", "properties": {"@spider": "usps_collection_boxes", "addr:city": "ROSWELL", "addr:country": "US", "addr:full": "627 HOLCOMB BRIDGE RD", "addr:postcode": "30075", "addr:state": "GA", "brand": "USPS", "collection_times": "Mo-Sa 13:00", "name": "USPS COLLECTION BOX - BLUE BOX", "note": "ON 12/24 AND 12/31, THIS BOX MAY BE COLLECTED AS EARLY AS 12 NOON.", "ref": "3007500043"}, "type": "Feature"}
{"geometry": {"coordinates": [-84.3407598, 34.039999], "type": "Point"}, "id": "rYhfl78Pf8YwwmsrgaZVbUCQgQE=", "properties": {"@spider": "usps_collection_boxes", "addr:city": "ROSWELL", "addr:country": "US", "addr:full": "10719 ALPHARETTA HWY", "addr:postcode": "30075", "addr:state": "GA", "brand": "USPS", "collection_times": "Mo-Fr 17:00; Sa 13:00", "name": "USPS COLLECTION BOX - APC", "note": "ON 12/24 AND 12/31, THIS BOX MAY BE COLLECTED AS EARLY AS 12 NOON.", "ref": "3007500044"}, "type": "Feature"}
{"geometry": {"coordinates": [-84.341444, 34.042344], "type": "Point"}, "id": "FxWi8PV8M8C-3vXTj1yD1zSSfAI=", "properties": {"@spider": "usps_collection_boxes", "addr:city": "ROSWELL", "addr:country": "US", "addr:full": "10719 ALPHARETTA HWY", "addr:postcode": "30075", "addr:state": "GA", "brand": "USPS", "collection_times": "Mo-Fr 17:00; Sa 13:00", "name": "USPS COLLECTION BOX - PO LOBBY", "note": "ON 12/24 AND 12/31, THIS BOX MAY BE COLLECTED AS EARLY AS 12 NOON.", "ref": "3007500045"}, "type": "Feature"}
{"geometry": {"coordinates": [-84.341444, 34.042344], "type": "Point"}, "id": "_l8PDyu9RzN3rLzKbNUDEQC1mIc=", "properties": {"@spider": "usps_collection_boxes", "addr:city": "ROSWELL", "addr:country": "US", "addr:full": "10719 ALPHARETTA HWY", "addr:postcode": "30075", "addr:state": "GA", "brand": "USPS", "collection_times": "Mo-Fr 17:00; Sa 13:00", "name": "USPS COLLECTION BOX - PO LOBBY", "note": "ON 12/24 AND 12/31, THIS BOX MAY BE COLLECTED AS EARLY AS 12 NOON.", "ref": "3007500046"}, "type": "Feature"}
{"geometry": {"coordinates": [-84.3579569, 34.047758], "type": "Point"}, "id": "M9BptUEnZGDcR1vz4TgjeXyww7A=", "properties": {"@spider": "usps_collection_boxes", "addr:city": "ROSWELL", "addr:country": "US", "addr:full": "100 MACY DR", "addr:postcode": "30075", "addr:state": "GA", "brand": "USPS", "collection_times": "Mo-Sa 13:00", "name": "USPS COLLECTION BOX - BLUE BOX", "note": "ON 12/24 AND 12/31, THIS BOX MAY BE COLLECTED AS EARLY AS 12 NOON.", "ref": "3007500047"}, "type": "Feature"}
{"geometry": {"coordinates": [-84.3207499, 34.062484], "type": "Point"}, "id": "S9YjaqxUi-1y4Tq2AHwaOoO5t_Y=", "properties": {"@spider": "usps_collection_boxes", "addr:city": "ROSWELL", "addr:country": "US", "addr:full": "11585 ALPHARETTA HWY", "addr:postcode": "30076", "addr:state": "GA", "brand": "USPS", "collection_times": "Mo-Sa 14:00", "name": "USPS COLLECTION BOX - BLUE BOX", "note": "ON 12/24 AND 12/31, THIS BOX MAY BE COLLECTED AS EARLY AS 12 NOON.", "ref": "3007600001"}, "type": "Feature"}
{"geometry": {"coordinates": [-84.2869866, 34.02204], "type": "Point"}, "id": "huSYa4uLoBBqp5Nh50QaueVrYUo=", "properties": {"@spider": "usps_collection_boxes", "addr:city": "ROSWELL", "addr:country": "US", "addr:full": "2500 OLD ALABAMA RD", "addr:postcode": "30076", "addr:state": "GA", "brand": "USPS", "collection_times": "Mo-Sa 13:00", "name": "USPS COLLECTION BOX - BLUE BOX", "note": "ON 12/24 AND 12/31, THIS BOX MAY BE COLLECTED AS EARLY AS 12 NOON.", "ref": "3007600007"}, "type": "Feature"}
{"geometry": {"coordinates": [-84.3417914, 34.044071], "type": "Point"}, "id": "aDq4wWR7-u1CgfgkFMQ0XbVId7U=", "properties": {"@spider": "usps_collection_boxes", "addr:city": "ROSWELL", "addr:country": "US", "addr:full": "10800 ALPHARETTA HWY", "addr:postcode": "30076", "addr:state": "GA", "brand": "USPS", "collection_times": "Mo-Sa 15:00", "name": "USPS COLLECTION BOX - BLUE BOX", "note": "ON 12/24 AND 12/31, THIS BOX MAY BE COLLECTED AS EARLY AS 12 NOON.", "ref": "3007600016"}, "type": "Feature"}
{"geometry": {"coordinates": [-84.3334115, 34.055082], "type": "Point"}, "id": "StZoLoaWp3L-Y7LNi7QFOWRHUX4=", "properties": {"@spider": "usps_collection_boxes", "addr:city": "ROSWELL", "addr:country": "US", "addr:full": "11285 ELKINS RD", "addr:postcode": "30076", "addr:state": "GA", "brand": "USPS", "collection_times": "Mo-Sa 14:30", "name": "USPS COLLECTION BOX - BLUE BOX", "note": "ON 12/24 AND 12/31, THIS BOX MAY BE COLLECTED AS EARLY AS 12 NOON.", "ref": "3007600019"}, "type": "Feature"}
{"geometry": {"coordinates": [-84.3401038, 34.052161], "type": "Point"}, "id": "S_A8npPSrZPp3mt1sJgDc9x5028=", "properties": {"@spider": "usps_collection_boxes", "addr:city": "ROSWELL", "addr:country": "US", "addr:full": "500 SUN VALLEY DR", "addr:postcode": "30076", "addr:state": "GA", "brand": "USPS", "collection_times": "Mo-Sa 14:30", "name": "USPS COLLECTION BOX - BLUE BOX", "note": "ON 12/24 AND 12/31, THIS BOX MAY BE COLLECTED AS EARLY AS 12 NOON.", "ref": "3007600028"}, "type": "Feature"}
{"geometry": {"coordinates": [-84.3206231, 34.019296], "type": "Point"}, "id": "h5dRD7ImYByJ9eCmT60YqqpZXeo=", "properties": {"@spider": "usps_collection_boxes", "addr:city": "ROSWELL", "addr:country": "US", "addr:full": "1425 MARKET BLVD", "addr:postcode": "30076", "addr:state": "GA", "brand": "USPS", "collection_times": "Mo-Sa 15:00", "name": "USPS COLLECTION BOX - BLUE BOX", "note": "ON 12/24 AND 12/31, THIS BOX MAY BE COLLECTED AS EARLY AS 12 NOON.", "ref": "3007600033"}, "type": "Feature"}
{"geometry": {"coordinates": [-84.3170949, 34.02104], "type": "Point"}, "id": "h8mjBaJVHQYX2YaExq1C9ViurPI=", "properties": {"@spider": "usps_collection_boxes", "addr:city": "ROSWELL", "addr:country": "US", "addr:full": "1540 OLD ALABAMA RD", "addr:postcode": "30076", "addr:state": "GA", "brand": "USPS", "collection_times": "Mo-Sa 13:00", "name": "USPS COLLECTION BOX - BLUE BOX", "note": "ON 12/24 AND 12/31, THIS BOX MAY BE COLLECTED AS EARLY AS 12 NOON.", "ref": "3007600038"}, "type": "Feature"}
{"geometry": {"coordinates": [-84.3281485, 34.024409], "type": "Point"}, "id": "KVDH3YxbJqZwbIFxBskCygDAwHI=", "properties": {"@spider": "usps_collection_boxes", "addr:city": "ROSWELL", "addr:country": "US", "addr:full": "1080 HOLCOMB BRIDGE RD", "addr:postcode": "30076", "addr:state": "GA", "brand": "USPS", "collection_times": "Mo-Sa 13:00", "name": "USPS COLLECTION BOX - BLUE BOX", "note": "ON 12/24 AND 12/31, THIS BOX MAY BE COLLECTED AS EARLY AS 12 NOON.", "ref": "3007600045"}, "type": "Feature"}
{"geometry": {"coordinates": [-84.3352823, 34.029816], "type": "Point"}, "id": "Uy_b1hPEjwe_Z-DeDk41ihg-8kA=", "properties": {"@spider": "usps_collection_boxes", "addr:city": "ROSWELL", "addr:country": "US", "addr:full": "880 HOLCOMB BRIDGE RD", "addr:postcode": "30076", "addr:state": "GA", "brand": "USPS", "collection_times": "Mo-Sa 13:00", "name": "USPS COLLECTION BOX - BLUE BOX", "note": "ON 12/24 AND 12/31, THIS BOX MAY BE COLLECTED AS EARLY AS 12 NOON.", "ref": "3007600046"}, "type": "Feature"}
{"geometry": {"coordinates": [-84.3165636, 34.056068], "type": "Point"}, "id": "B_MDGHramT-c8K80QQLn6YmAsWM=", "properties": {"@spider": "usps_collection_boxes", "addr:city": "ROSWELL", "addr:country": "US", "addr:full": "205 HEMBREE PARK DR", "addr:postcode": "30076", "addr:state": "GA", "brand": "USPS", "collection_times": "Mo-Sa 14:00", "name": "USPS COLLECTION BOX - BLUE BOX", "note": "ON 12/24 AND 12/31, THIS BOX MAY BE COLLECTED AS EARLY AS 12 NOON.", "ref": "3007600049"}, "type": "Feature"}
{"geometry": {"coordinates": [-84.313407, 34.060139], "type": "Point"}, "id": "3yph1WjVee_Az3g5fh2oa6G6pBk=", "properties": {"@spider": "usps_collection_boxes", "addr:city": "ROSWELL", "addr:country": "US", "addr:full": "1325 NORTHMEADOW PKWY", "addr:postcode": "30076", "addr:state": "GA", "brand": "USPS", "collection_times": "Mo-Sa 14:00", "name": "USPS COLLECTION BOX - BLUE BOX", "note": "ON 12/24 AND 12/31, THIS BOX MAY BE COLLECTED AS EARLY AS 12 NOON.", "ref": "3007600050"}, "type": "Feature"}
{"geometry": {"coordinates": [-84.3423207, 34.048552], "type": "Point"}, "id": "T95KDKHQXLT3JBYfCyecnbP97iI=", "properties": {"@spider": "usps_collection_boxes", "addr:city": "ROSWELL", "addr:country": "US", "addr:full": "11111 HOUZE RD", "addr:postcode": "30076", "addr:state": "GA", "brand": "USPS", "collection_times": "Mo-Sa 15:00", "name": "USPS COLLECTION BOX - BLUE BOX", "note": "ON 12/24 AND 12/31, THIS BOX MAY BE COLLECTED AS EARLY AS 12 NOON.", "ref": "3007600052"}, "type": "Feature"}
{"geometry": {"coordinates": [-84.3246161, 34.063834], "type": "Point"}, "id": "bsLeOWIcNafOJpwoIodlboj3y6k=", "properties": {"@spider": "usps_collection_boxes", "addr:city": "ROSWELL", "addr:country": "US", "addr:full": "11660 ALPHARETTA HWY", "addr:postcode": "30076", "addr:state": "GA", "brand": "USPS", "collection_times": "Mo-Sa 14:30", "name": "USPS COLLECTION BOX - BLUE BOX", "note": "ON 12/24 AND 12/31, THIS BOX MAY BE COLLECTED AS EARLY AS 12 NOON.", "ref": "3007600054"}, "type": "Feature"}
{"geometry": {"coordinates": [-84.3327059, 34.052319], "type": "Point"}, "id": "DORav_xks7ixSu_QCllW4rwhOVA=", "properties": {"@spider": "usps_collection_boxes", "addr:city": "ROSWELL", "addr:country": "US", "addr:full": "11205 ALPHARETTA HWY", "addr:postcode": "30076", "addr:state": "GA", "brand": "USPS", "collection_times": "Mo-Sa 14:30", "name": "USPS COLLECTION BOX - BLUE BOX", "note": "ON 12/24 AND 12/31, THIS BOX MAY BE COLLECTED AS EARLY AS 12 NOON.", "ref": "3007600055"}, "type": "Feature"}
{"geometry": {"coordinates": [-84.3170885, 34.021051], "type": "Point"}, "id": "wDMGKLVZ1sorp0Yz3BRd4sYd7ro=", "properties": {"@spider": "usps_collection_boxes", "addr:city": "ROSWELL", "addr:country": "US", "addr:full": "1540 OLD ALABAMA RD", "addr:postcode": "30076", "addr:state": "GA", "brand": "USPS", "collection_times": "Mo-Sa 13:00", "name": "USPS COLLECTION BOX - BLUE BOX", "note": "ON 12/24 AND 12/31, THIS BOX MAY BE COLLECTED AS EARLY AS 12 NOON.", "ref": "3007600056"}, "type": "Feature"}
{"geometry": {"coordinates": [-84.3427644, 34.047066], "type": "Point"}, "id": "CZEcw-SK7OGUbI-4JT0Y1fMG59s=", "properties": {"@spider": "usps_collection_boxes", "addr:city": "ROSWELL", "addr:country": "US", "addr:full": "600 HOUZE WAY", "addr:postcode": "30076", "addr:state": "GA", "brand": "USPS", "collection_times": "Mo-Sa 15:00", "name": "USPS COLLECTION BOX - BLUE BOX", "note": "ON 12/24 AND 12/31, THIS BOX MAY BE COLLECTED AS EARLY AS 12 NOON.", "ref": "3007600066"}, "type": "Feature"}
{"geometry": {"coordinates": [-84.3100509, 34.021664], "type": "Point"}, "id": "0OaJxY1nZ2XCgBnXlxu4jFh9hhs=", "properties": {"@spider": "usps_collection_boxes", "addr:city": "ROSWELL", "addr:country": "US", "addr:full": "1000 HOLCOMB WOODS PKWY", "addr:postcode": "30076", "addr:state": "GA", "brand": "USPS", "collection_times": "Mo-Sa 13:00", "name": "USPS COLLECTION BOX - BLUE BOX", "note": "ON 12/24 AND 12/31, THIS BOX MAY BE COLLECTED AS EARLY AS 12 NOON.", "ref": "3007600067"}, "type": "Feature"}
{"geometry": {"coordinates": [-84.3370939, 34.03385], "type": "Point"}, "id": "KEsUSV0v5pGdu3PhwS-vn151t2k=", "properties": {"@spider": "usps_collection_boxes", "addr:city": "ROSWELL", "addr:country": "US", "addr:full": "700 OLD ROSWELL LAKES PKWY", "addr:postcode": "30076", "addr:state": "GA", "brand": "USPS", "collection_times": "Mo-Sa 13:30", "name": "USPS COLLECTION BOX - BLUE BOX", "note": "ON 12/24 AND 12/31, THIS BOX MAY BE COLLECTED AS EARLY AS 12 NOON.", "ref": "3007600068"}, "type": "Feature"}
{"geometry": {"coordinates": [-84.3386489, 34.052639], "type": "Point"}, "id": "7fQTBG9NLJkemw4nb4hrhxNE8B0=", "properties": {"@spider": "usps_collection_boxes", "addr:city": "ROSWELL", "addr:country": "US", "addr:full": "555 SUN VALLEY DR", "addr:postcode": "30076", "addr:state": "GA", "brand": "USPS", "collection_times": "Mo-Sa 14:30", "name": "USPS COLLECTION BOX - BLUE BOX", "note": "ON 12/24 AND 12/31, THIS BOX MAY BE COLLECTED AS EARLY AS 12 NOON.", "ref": "3007600070"}, "type": "Feature"}
{"geometry": {"coordinates": [-84.3386413, 34.052638], "type": "Point"}, "id": "y6vx0cjml0jsgcP-Dk6nrpvIMRQ=", "properties": {"@spider": "usps_collection_boxes", "addr:city": "ROSWELL", "addr:country": "US", "addr:full": "555 SUN VALLEY DR", "addr:postcode": "30076", "addr:state": "GA", "brand": "USPS", "collection_times": "Mo-Sa 14:30", "name": "USPS COLLECTION BOX - BLUE BOX", "note": "ON 12/24 AND 12/31, THIS BOX MAY BE COLLECTED AS EARLY AS 12 NOON.", "ref": "3007600071"}, "type": "Feature"}
{"geometry": {"coordinates": [-84.331616, 34.040262], "type": "Point"}, "id": "YTnKP-KOX1YHVHlvwN1GaPesyI4=", "properties": {"@spider": "usps_collection_boxes", "addr:city": "ROSWELL", "addr:country": "US", "addr:full": "30 MANSELL CT", "addr:postcode": "30076", "addr:state": "GA", "brand": "USPS", "collection_times": "Mo-Sa 13:30", "name": "USPS COLLECTION BOX - BLUE BOX", "note": "ON 12/24 AND 12/31, THIS BOX MAY BE COLLECTED AS EARLY AS 12 NOON.", "ref": "3007600074"}, "type": "Feature"}
{"geometry": {"coordinates": [-84.3207599, 34.047165], "type": "Point"}, "id": "hfGIVoALJ5ouI--4-1vXizh2B00=", "properties": {"@spider": "usps_collection_boxes", "addr:city": "ROSWELL", "addr:country": "US", "addr:full": "3000 NORTHFIELD PL", "addr:postcode": "30076", "addr:state": "GA", "brand": "USPS", "collection_times": "Mo-Sa 14:00", "name": "USPS COLLECTION BOX - BLUE BOX", "note": "ON 12/24 AND 12/31, THIS BOX MAY BE COLLECTED AS EARLY AS 12 NOON.", "ref": "3007600075"}, "type": "Feature"}
{"geometry": {"coordinates": [-84.311003, 33.992283], "type": "Point"}, "id": "6jT-wbIW0SgGKWUvPuGc68QvX7k=", "properties": {"@spider": "usps_collection_boxes", "addr:city": "ROSWELL", "addr:country": "US", "addr:full": "8920 EVES RD", "addr:postcode": "30076", "addr:state": "GA", "brand": "USPS", "collection_times": "Mo-Fr 17:30; Sa 16:00", "name": "USPS COLLECTION BOX - PO LOBBY", "note": "ON 12/24 AND 12/31, THIS BOX MAY BE COLLECTED AS EARLY AS 12 NOON.", "ref": "3007600076"}, "type": "Feature"}
{"geometry": {"coordinates": [-84.328933, 34.041589], "type": "Point"}, "id": "PeP9t73ChIAWA8bkxG7ivzz9TTQ=", "properties": {"@spider": "usps_collection_boxes", "addr:city": "ROSWELL", "addr:country": "US", "addr:full": "100 MANSELL CT E", "addr:postcode": "30076", "addr:state": "GA", "brand": "USPS", "collection_times": "Mo-Sa 13:30", "name": "USPS COLLECTION BOX - BLUE BOX", "note": "ON 12/24 AND 12/31, THIS BOX MAY BE COLLECTED AS EARLY AS 12 NOON.", "ref": "3007600079"}, "type": "Feature"}
{"geometry": {"coordinates": [-84.3289366, 34.04158], "type": "Point"}, "id": "cdX2aLRH6hRHztyQu8TsdEeoNZU=", "properties": {"@spider": "usps_collection_boxes", "addr:city": "ROSWELL", "addr:country": "US", "addr:full": "100 MANSELL CT E", "addr:postcode": "30076", "addr:state": "GA", "brand": "USPS", "collection_times": "Mo-Sa 13:30", "name": "USPS COLLECTION BOX - BLUE BOX", "note": "ON 12/24 AND 12/31, THIS BOX MAY BE COLLECTED AS EARLY AS 12 NOON.", "ref": "3007600080"}, "type": "Feature"}
{"geometry": {"coordinates": [-84.3271142, 34.041551], "type": "Point"}, "id": "ilSz72CUNDSB-Ikanj8tv0YFhBo=", "properties": {"@spider": "usps_collection_boxes", "addr:city": "ROSWELL", "addr:country": "US", "addr:full": "200 MANSELL CT E", "addr:postcode": "30076", "addr:state": "GA", "brand": "USPS", "collection_times": "Mo-Sa 13:30", "name": "USPS COLLECTION BOX - BLUE BOX", "note": "ON 12/24 AND 12/31, THIS BOX MAY BE COLLECTED AS EARLY AS 12 NOON.", "ref": "3007600081"}, "type": "Feature"}
{"geometry": {"coordinates": [-84.3352516, 34.054305], "type": "Point"}, "id": "nvek-wyNcs4pim-vWSGUE9aS-zs=", "properties": {"@spider": "usps_collection_boxes", "addr:city": "ROSWELL", "addr:country": "US", "addr:full": "100 BOMBAY LN", "addr:postcode": "30076", "addr:state": "GA", "brand": "USPS", "collection_times": "Mo-Sa 14:30", "name": "USPS COLLECTION BOX - BLUE BOX", "note": "ON 12/24 AND 12/31, THIS BOX MAY BE COLLECTED AS EARLY AS 12 NOON.", "ref": "3007600084"}, "type": "Feature"}
{"geometry": {"coordinates": [-84.304780364, 33.997201091], "type": "Point"}, "id": "-v3G3A137agYGiR7866al-DP9_c=", "properties": {"@spider": "usps_collection_boxes", "addr:city": "ROSWELL", "addr:country": "US", "addr:full": "8920 EVES RD", "addr:postcode": "30076", "addr:state": "GA", "brand": "USPS", "collection_times": "Mo-Fr 17:30; Sa 16:00", "name": "USPS COLLECTION BOX - BLUE BOX", "note": "ON 12/24 AND 12/31, THIS BOX MAY BE COLLECTED AS EARLY AS 12 NOON.", "ref": "3007600092"}, "type": "Feature"}
{"geometry": {"coordinates": [-84.3211081, 34.062239], "type": "Point"}, "id": "Eys9VXuGH2fZWWtPA4h8TdLVexU=", "properties": {"@spider": "usps_collection_boxes", "addr:city": "ROSWELL", "addr:country": "US", "addr:full": "2500 HOSPITAL BLVD", "addr:postcode": "30076", "addr:state": "GA", "brand": "USPS", "collection_times": "Mo-Sa 14:00", "name": "USPS COLLECTION BOX - BLUE BOX", "note": "ON 12/24 AND 12/31, THIS BOX MAY BE COLLECTED AS EARLY AS 12 NOON.", "ref": "3007600093"}, "type": "Feature"}
{"geometry": {"coordinates": [-84.3210839, 34.062257], "type": "Point"}, "id": "zL7ysWZDs6-0uE9qtLtCRuwG5wU=", "properties": {"@spider": "usps_collection_boxes", "addr:city": "ROSWELL", "addr:country": "US", "addr:full": "2500 HOSPITAL BLVD", "addr:postcode": "30076", "addr:state": "GA", "brand": "USPS", "collection_times": "Mo-Sa 14:00", "name": "USPS COLLECTION BOX - BLUE BOX", "note": "ON 12/24 AND 12/31, THIS BOX MAY BE COLLECTED AS EARLY AS 12 NOON.", "ref": "3007600094"}, "type": "Feature"}
{"geometry": {"coordinates": [-84.3418823, 34.040174], "type": "Point"}, "id": "KzeHZRdCSJPfSUCZ3sEqeM1H6Ps=", "properties": {"@spider": "usps_collection_boxes", "addr:city": "ROSWELL", "addr:country": "US", "addr:full": "10765 ALPHARETTA HWY", "addr:postcode": "30076", "addr:state": "GA", "brand": "USPS", "collection_times": "Mo-Fr 17:00; Sa 15:00", "name": "USPS COLLECTION BOX - BLUE BOX", "note": "ON 12/24 AND 12/31, THIS BOX MAY BE COLLECTED AS EARLY AS 12 NOON.", "ref": "3007600100"}, "type": "Feature"}
{"geometry": {"coordinates": [-84.3246488, 34.043401], "type": "Point"}, "id": "0texTbvjfiG92nJlKdYUgq0Gi78=", "properties": {"@spider": "usps_collection_boxes", "addr:city": "ROSWELL", "addr:country": "US", "addr:full": "300 COLONIAL CENTER PKWY", "addr:postcode": "30076", "addr:state": "GA", "brand": "USPS", "collection_times": "Mo-Sa 13:30", "name": "USPS COLLECTION BOX - BLUE BOX", "note": "ON 12/24 AND 12/31, THIS BOX MAY BE COLLECTED AS EARLY AS 12 NOON.", "ref": "3007600101"}, "type": "Feature"}
{"geometry": {"coordinates": [-84.310973, 33.992261], "type": "Point"}, "id": "R5ytJfq5W9EWSxkNB9MP1Cm34y0=", "properties": {"@spider": "usps_collection_boxes", "addr:city": "ROSWELL", "addr:country": "US", "addr:full": "8920 EVES RD", "addr:postcode": "30076", "addr:state": "GA", "brand": "USPS", "collection_times": "Mo-Fr 17:30; Sa 16:00", "name": "USPS COLLECTION BOX - APC", "note": "ON 12/24 AND 12/31, THIS BOX MAY BE COLLECTED AS EARLY AS 12 NOON.", "ref": "3007600103"}, "type": "Feature"}
{"geometry": {"coordinates": [-84.304780783, 33.997210646], "type": "Point"}, "id": "4uoLjhTfQR6mG0MbZ3LciYUZQvQ=", "properties": {"@spider": "usps_collection_boxes", "addr:city": "ROSWELL", "addr:country": "US", "addr:full": "8920 EVES RD", "addr:postcode": "30076", "addr:state": "GA", "brand": "USPS", "collection_times": "Mo-Fr 16:30; Sa 12:00", "name": "USPS COLLECTION BOX - PO LOBBY", "note": "ON 12/24 AND 12/31, THIS BOX MAY BE COLLECTED AS EARLY AS 12 NOON.", "ref": "3007600112"}, "type": "Feature"}
{"geometry": {"coordinates": [-84.341420233, 34.042333469], "type": "Point"}, "id": "V28JgUssJ-UI2LFNIVDqt491EwU=", "properties": {"@spider": "usps_collection_boxes", "addr:city": "ROSWELL", "addr:country": "US", "addr:full": "10719 ALPHARETTA HWY", "addr:postcode": "30076", "addr:state": "GA", "brand": "USPS", "collection_times": "Mo-Fr 17:00; Sa 14:00", "name": "USPS COLLECTION BOX - PO LOBBY", "note": "ON 12/24 AND 12/31, THIS BOX MAY BE COLLECTED AS EARLY AS 12 NOON.", "ref": "3007600113"}, "type": "Feature"}
{"geometry": {"coordinates": [-84.264692, 33.791685], "type": "Point"}, "id": "Z1LYBi3g2Iaz5UraVI2fX5TPyq0=", "properties": {"@spider": "usps_collection_boxes", "addr:city": "SCOTTDALE", "addr:country": "US", "addr:full": "3328 E PONCE DE LEON AVE", "addr:postcode": "30079", "addr:state": "GA", "brand": "USPS", "collection_times": "Mo-Fr 17:00; Sa 09:00", "name": "USPS COLLECTION BOX - BLUE BOX", "note": "ON 12/24 AND 12/31, THIS BOX MAY BE COLLECTED AS EARLY AS 12 NOON.", "ref": "3007900001"}, "type": "Feature"}
{"geometry": {"coordinates": [-84.264714165, 33.791582472], "type": "Point"}, "id": "Zrlf6j6ihmULucApG6i5LGVG93s=", "properties": {"@spider": "usps_collection_boxes", "addr:city": "SCOTTDALE", "addr:country": "US", "addr:full": "3328 E PONCE DE LEON AVE", "addr:postcode": "30079", "addr:state": "GA", "brand": "USPS", "collection_times": "Mo-Fr 17:00", "name": "USPS COLLECTION BOX - PO LOBBY", "note": "ON 12/24 AND 12/31, THIS BOX MAY BE COLLECTED AS EARLY AS 12 NOON.", "ref": "3007900003"}, "type": "Feature"}
{"geometry": {"coordinates": [-84.5287292, 33.89419], "type": "Point"}, "id": "RRsXi3TyUbmVqsLQGLW5ZbPy39o=", "properties": {"@spider": "usps_collection_boxes", "addr:city": "SMYRNA", "addr:country": "US", "addr:full": "850 WINDY HILL RD SE", "addr:postcode": "30080", "addr:state": "GA", "brand": "USPS", "collection_times": "Mo-Fr 17:00; Sa 14:45", "name": "USPS COLLECTION BOX - PO LOBBY", "note": "ON 12/24 AND 12/31, THIS BOX MAY BE COLLECTED AS EARLY AS 12 NOON.", "ref": "3008000010"}, "type": "Feature"}
{"geometry": {"coordinates": [-84.5287758, 33.894133], "type": "Point"}, "id": "5Re1yTX8WjaDIV1Y69fRYdBRv_U=", "properties": {"@spider": "usps_collection_boxes", "addr:city": "SMYRNA", "addr:country": "US", "addr:full": "850 WINDY HILL RD SE", "addr:postcode": "30080", "addr:state": "GA", "brand": "USPS", "collection_times": "Mo-Fr 17:00; Sa 14:45", "name": "USPS COLLECTION BOX - PO LOBBY", "note": "ON 12/24 AND 12/31, THIS BOX MAY BE COLLECTED AS EARLY AS 12 NOON.", "ref": "3008000012"}, "type": "Feature"}
{"geometry": {"coordinates": [-84.485121, 33.895577], "type": "Point"}, "id": "C_B7_XgVYiU9Ra1eHKbZ7_yFZZo=", "properties": {"@spider": "usps_collection_boxes", "addr:city": "SMYRNA", "addr:country": "US", "addr:full": "2300 LAKE PARK DR SE", "addr:postcode": "30080", "addr:state": "GA", "brand": "USPS", "collection_times": "Mo-Fr 12:00", "name": "USPS COLLECTION BOX - BLUE BOX", "ref": "3008000021"}, "type": "Feature"}
{"geometry": {"coordinates": [-84.4858331, 33.894862], "type": "Point"}, "id": "1-n66OeoBU6c5s-ajR8SZtQ8wRo=", "properties": {"@spider": "usps_collection_boxes", "addr:city": "SMYRNA", "addr:country": "US", "addr:full": "1955 LAKE PARK DR SE", "addr:postcode": "30080", "addr:state": "GA", "brand": "USPS", "collection_times": "Mo-Fr 12:00", "name": "USPS COLLECTION BOX - BLUE BOX", "ref": "3008000023"}, "type": "Feature"}
{"geometry": {"coordinates": [-84.5287257, 33.894095], "type": "Point"}, "id": "AlV_cGxaHkMfRWYGu40XMnr83cs=", "properties": {"@spider": "usps_collection_boxes", "addr:city": "SMYRNA", "addr:country": "US", "addr:full": "850 WINDY HILL RD SE", "addr:postcode": "30080", "addr:state": "GA", "brand": "USPS", "collection_times": "Mo-Fr 17:00; Sa 14:45", "name": "USPS COLLECTION BOX - APC", "note": "ON 12/24 AND 12/31, THIS BOX MAY BE COLLECTED AS EARLY AS 12 NOON.", "ref": "3008000024"}, "type": "Feature"}
{"geometry": {"coordinates": [-84.4823349, 33.895197], "type": "Point"}, "id": "Ebm64zU3DUqIjkVGovJC0QrA0kY=", "properties": {"@spider": "usps_collection_boxes", "addr:city": "SMYRNA", "addr:country": "US", "addr:full": "2401 LAKE PARK DR SE", "addr:postcode": "30080", "addr:state": "GA", "brand": "USPS", "collection_times": "Mo-Fr 12:00", "name": "USPS COLLECTION BOX - BLUE BOX", "ref": "3008000035"}, "type": "Feature"}
{"geometry": {"coordinates": [-84.5164999, 33.883704], "type": "Point"}, "id": "ElFSckgHchxu-xvIvF2og_Og6gc=", "properties": {"@spider": "usps_collection_boxes", "addr:city": "SMYRNA", "addr:country": "US", "addr:full": "2800 KING ST SE", "addr:postcode": "30080", "addr:state": "GA", "brand": "USPS", "collection_times": "Mo-Fr 12:00", "name": "USPS COLLECTION BOX - BLUE BOX", "ref": "3008000039"}, "type": "Feature"}
{"geometry": {"coordinates": [-84.528753014, 33.894349338], "type": "Point"}, "id": "xjGHYfxD_VrzcLmYYpxd93z1z44=", "properties": {"@spider": "usps_collection_boxes", "addr:city": "SMYRNA", "addr:country": "US", "addr:full": "850 WINDY HILL RD SE", "addr:postcode": "30080", "addr:state": "GA", "brand": "USPS", "collection_times": "Mo-Fr 17:00; Sa 14:45", "name": "USPS COLLECTION BOX - BLUE BOX", "note": "ON 12/24 AND 12/31, THIS BOX MAY BE COLLECTED AS EARLY AS 12 NOON.", "ref": "3008000074"}, "type": "Feature"}
{"geometry": {"coordinates": [-84.5280152, 33.872952], "type": "Point"}, "id": "Jygm0iGSfeNyIczeGUI4SknkI-8=", "properties": {"@spider": "usps_collection_boxes", "addr:city": "SMYRNA", "addr:country": "US", "addr:full": "3315 S COBB DR SE", "addr:postcode": "30080", "addr:state": "GA", "brand": "USPS", "collection_times": "Mo-Fr 16:15", "name": "USPS COLLECTION BOX - PO LOBBY", "note": "ON 12/24 AND 12/31, THIS BOX MAY BE COLLECTED AS EARLY AS 12 NOON.", "ref": "3008000078"}, "type": "Feature"}
{"geometry": {"coordinates": [-84.490917072, 33.89563195], "type": "Point"}, "id": "UYCele22mEEAP30J_nuBibnbfSo=", "properties": {"@spider": "usps_collection_boxes", "addr:city": "SMYRNA", "addr:country": "US", "addr:full": "1850 LAKE PARK DR SE", "addr:postcode": "30080", "addr:state": "GA", "brand": "USPS", "collection_times": "Mo-Fr 12:00", "name": "USPS COLLECTION BOX - BLUE BOX", "ref": "3008000079"}, "type": "Feature"}
{"geometry": {"coordinates": [-84.482754, 33.89607], "type": "Point"}, "id": "1tnbWI4ZlXfALqU60oeeB-Eveq4=", "properties": {"@spider": "usps_collection_boxes", "addr:city": "SMYRNA", "addr:country": "US", "addr:full": "2400 LAKE PARK DR SE", "addr:postcode": "30080", "addr:state": "GA", "brand": "USPS", "collection_times": "Mo-Fr 12:00", "name": "USPS COLLECTION BOX - BLUE BOX", "ref": "3008000080"}, "type": "Feature"}
{"geometry": {"coordinates": [-84.529876364, 33.872870824], "type": "Point"}, "id": "_xfsMmklZJG4VD9_1pqKqhWIFB0=", "properties": {"@spider": "usps_collection_boxes", "addr:city": "SMYRNA", "addr:country": "US", "addr:full": "3315 S COBB DR SE STE 700", "addr:postcode": "30080", "addr:state": "GA", "brand": "USPS", "collection_times": "Mo-Fr 17:00", "name": "USPS COLLECTION BOX - PO LOBBY", "note": "ON 12/24 AND 12/31, THIS BOX MAY BE COLLECTED AS EARLY AS 12 NOON.", "ref": "3008000093"}, "type": "Feature"}
{"geometry": {"coordinates": [-84.528772722, 33.894336535], "type": "Point"}, "id": "CPNMN17LCwUvZG9ZZZ6Qz3Nll6U=", "properties": {"@spider": "usps_collection_boxes", "addr:city": "SMYRNA", "addr:country": "US", "addr:full": "850 WINDY HILL RD SE", "addr:postcode": "30080", "addr:state": "GA", "brand": "USPS", "collection_times": "Mo-Fr 16:00; Sa 12:00", "name": "USPS COLLECTION BOX - PO LOBBY", "note": "ON 12/24 AND 12/31, THIS BOX MAY BE COLLECTED AS EARLY AS 12 NOON.", "ref": "3008000094"}, "type": "Feature"}
{"geometry": {"coordinates": [-84.495018, 33.838718], "type": "Point"}, "id": "9ANT23I5CH5cHQCfVmbfZlibgaE=", "properties": {"@spider": "usps_collection_boxes", "addr:city": "SMYRNA", "addr:country": "US", "addr:full": "2750 S COBB INDUSTRIAL BLVD SE", "addr:postcode": "30082", "addr:state": "GA", "brand": "USPS", "collection_times": "Mo-Fr 12:00", "name": "USPS COLLECTION BOX - BLUE BOX", "ref": "3008200018"}, "type": "Feature"}
{"geometry": {"coordinates": [-84.4941141, 33.82831], "type": "Point"}, "id": "5DWpHQYjI44Fz2jxe5tlheAtvAw=", "properties": {"@spider": "usps_collection_boxes", "addr:city": "SMYRNA", "addr:country": "US", "addr:full": "100 HIGHLANDS PKWY", "addr:postcode": "30082", "addr:state": "GA", "brand": "USPS", "collection_times": "Mo-Fr 12:00", "name": "USPS COLLECTION BOX - BLUE BOX", "ref": "3008200027"}, "type": "Feature"}
{"geometry": {"coordinates": [-84.5099052, 33.829486], "type": "Point"}, "id": "CAeckDrX5vhow9k4PJo0cwynZ6M=", "properties": {"@spider": "usps_collection_boxes", "addr:city": "SMYRNA", "addr:country": "US", "addr:full": "4900 HIGHLANDS PKWY SE", "addr:postcode": "30082", "addr:state": "GA", "brand": "USPS", "collection_times": "Mo-Fr 12:00", "name": "USPS COLLECTION BOX - BLUE BOX", "ref": "3008200028"}, "type": "Feature"}
{"geometry": {"coordinates": [-84.5208594, 33.836949], "type": "Point"}, "id": "ol29PQ0Z3EIfZv1JirpOJGyeoBc=", "properties": {"@spider": "usps_collection_boxes", "addr:city": "SMYRNA", "addr:country": "US", "addr:full": "7100 HIGHLANDS PKWY SE", "addr:postcode": "30082", "addr:state": "GA", "brand": "USPS", "collection_times": "Mo-Fr 12:00", "name": "USPS COLLECTION BOX - BLUE BOX", "ref": "3008200029"}, "type": "Feature"}
{"geometry": {"coordinates": [-84.2168051011, 33.7998102084], "type": "Point"}, "id": "jn2xJgFAbNqVTAvEwow0N9cJp50=", "properties": {"@spider": "usps_collection_boxes", "addr:city": "STONE MTN", "addr:country": "US", "addr:full": "5405 MEMORIAL DR", "addr:postcode": "30083", "addr:state": "GA", "brand": "USPS", "collection_times": "Mo-Fr 14:30; Sa 13:30", "name": "USPS COLLECTION BOX - BLUE BOX", "note": "ON 12/24 AND 12/31, THIS BOX MAY BE COLLECTED AS EARLY AS 12 NOON.", "ref": "3008300028"}, "type": "Feature"}
{"geometry": {"coordinates": [-84.2235705, 33.798789], "type": "Point"}, "id": "waT_w2Bs4MNLojtYm_N1AivdPMw=", "properties": {"@spider": "usps_collection_boxes", "addr:city": "STONE MTN", "addr:country": "US", "addr:full": "5152 MEMORIAL DR", "addr:postcode": "30083", "addr:state": "GA", "brand": "USPS", "collection_times": "Mo-Fr 17:00; Sa 11:30", "name": "USPS COLLECTION BOX - BLUE BOX", "note": "ON 12/24 AND 12/31, THIS BOX MAY BE COLLECTED AS EARLY AS 12 NOON.", "ref": "3008300034"}, "type": "Feature"}
{"geometry": {"coordinates": [-84.2215489, 33.80049], "type": "Point"}, "id": "JDnUihADN0Qde59SHr7LvdSO6L8=", "properties": {"@spider": "usps_collection_boxes", "addr:city": "STONE MTN", "addr:country": "US", "addr:full": "5300 MEMORIAL DR", "addr:postcode": "30083", "addr:state": "GA", "brand": "USPS", "collection_times": "Mo-Fr 14:30; Sa 13:30", "name": "USPS COLLECTION BOX - BLUE BOX", "note": "ON 12/24 AND 12/31, THIS BOX MAY BE COLLECTED AS EARLY AS 12 NOON.", "ref": "3008300043"}, "type": "Feature"}
{"geometry": {"coordinates": [-84.2235705, 33.798789], "type": "Point"}, "id": "RZRgofLqz5vHzmkaDDZ4jIiBT3o=", "properties": {"@spider": "usps_collection_boxes", "addr:city": "STONE MTN", "addr:country": "US", "addr:full": "5152 MEMORIAL DR", "addr:postcode": "30083", "addr:state": "GA", "brand": "USPS", "collection_times": "Mo-Fr 17:00; Sa 11:30", "name": "USPS COLLECTION BOX - BLUE BOX", "note": "ON 12/24 AND 12/31, THIS BOX MAY BE COLLECTED AS EARLY AS 12 NOON.", "ref": "3008300044"}, "type": "Feature"}
{"geometry": {"coordinates": [-84.2254434, 33.797849], "type": "Point"}, "id": "YaV7yTXvMirHRWlWpWLZLTnqhAg=", "properties": {"@spider": "usps_collection_boxes", "addr:city": "STONE MTN", "addr:country": "US", "addr:full": "5152 MEMORIAL DR", "addr:postcode": "30083", "addr:state": "GA", "brand": "USPS", "collection_times": "Mo-Fr 16:30", "name": "USPS COLLECTION BOX - PO LOBBY", "note": "ON 12/24 AND 12/31, THIS BOX MAY BE COLLECTED AS EARLY AS 12 NOON.", "ref": "3008300057"}, "type": "Feature"}
{"geometry": {"coordinates": [-84.223840226, 33.797305415], "type": "Point"}, "id": "jgk3ZgAh6JkPxnOORh9N0u9XTwY=", "properties": {"@spider": "usps_collection_boxes", "addr:city": "STONE MTN", "addr:country": "US", "addr:full": "5152 MEMORIAL DR STE 101", "addr:postcode": "30083", "addr:state": "GA", "brand": "USPS", "collection_times": "Mo-Fr 16:30", "name": "USPS COLLECTION BOX - PO LOBBY", "note": "ON 12/24 AND 12/31, THIS BOX MAY BE COLLECTED AS EARLY AS 12 NOON.", "ref": "3008300065"}, "type": "Feature"}
{"geometry": {"coordinates": [-84.1015888, 33.785822], "type": "Point"}, "id": "YAzz0bC5AvK7OUVtzczWd52EJcE=", "properties": {"@spider": "usps_collection_boxes", "addr:city": "STONE MTN", "addr:country": "US", "addr:full": "380 N DESHON RD", "addr:postcode": "30087", "addr:state": "GA", "brand": "USPS", "collection_times": "Mo-Sa 13:00", "name": "USPS COLLECTION BOX - BLUE BOX", "note": "ON 12/24 AND 12/31, THIS BOX MAY BE COLLECTED AS EARLY AS 12 NOON.", "ref": "3008700029"}, "type": "Feature"}
{"geometry": {"coordinates": [-84.1960807, 33.759265], "type": "Point"}, "id": "ATlavipr3OZ7bqCNXer5XRObZ58=", "properties": {"@spider": "usps_collection_boxes", "addr:city": "STONE MTN", "addr:country": "US", "addr:full": "1232 S HAIRSTON RD", "addr:postcode": "30088", "addr:state": "GA", "brand": "USPS", "collection_times": "Mo-Fr 14:30; Sa 13:30", "name": "USPS COLLECTION BOX - BLUE BOX", "note": "ON 12/24 AND 12/31, THIS BOX MAY BE COLLECTED AS EARLY AS 12 NOON.", "ref": "3008800001"}, "type": "Feature"}
{"geometry": {"coordinates": [-84.2602835611, 33.9675734961], "type": "Point"}, "id": "fXGcowCA6N-ngA1pS9SoR2P5odk=", "properties": {"@spider": "usps_collection_boxes", "addr:city": "NORCROSS", "addr:country": "US", "addr:full": "7742 SPALDING DR", "addr:postcode": "30092", "addr:state": "GA", "brand": "USPS", "collection_times": "Mo-Fr 14:00; Sa 13:00", "name": "USPS COLLECTION BOX - BLUE BOX", "note": "ON 12/24 AND 12/31, THIS BOX MAY BE COLLECTED AS EARLY AS 12 NOON.", "ref": "3009200021"}, "type": "Feature"}
{"geometry": {"coordinates": [-84.024745725, 33.656668808], "type": "Point"}, "id": "efGrs9DShRTWv3OFW_mE6ZcXMOQ=", "properties": {"@spider": "usps_collection_boxes", "addr:city": "CONYERS", "addr:country": "US", "addr:full": "889 COMMERCE DR SW", "addr:postcode": "30094", "addr:state": "GA", "brand": "USPS", "collection_times": "Mo-Sa 13:30", "name": "USPS COLLECTION BOX - BLUE BOX", "note": "ON 12/24 AND 12/31, THIS BOX MAY BE COLLECTED AS EARLY AS 12 NOON.", "ref": "3009400002"}, "type": "Feature"}
{"geometry": {"coordinates": [-84.1776195, 34.044779], "type": "Point"}, "id": "Ip2S1NSy7Qi-P6znSccZBxPSNJw=", "properties": {"@spider": "usps_collection_boxes", "addr:city": "DULUTH", "addr:country": "US", "addr:full": "10820 ABBOTTS BRIDGE RD", "addr:postcode": "30096", "addr:state": "GA", "brand": "USPS", "collection_times": "Mo-Sa 11:00", "name": "USPS COLLECTION BOX - BLUE BOX", "ref": "3009600000"}, "type": "Feature"}
{"geometry": {"coordinates": [-84.187728, 34.018209], "type": "Point"}, "id": "fW6XCNsD0MerWVN5IsyB50mDWE0=", "properties": {"@spider": "usps_collection_boxes", "addr:city": "DULUTH", "addr:country": "US", "addr:full": "5805 STATE BRIDGE RD", "addr:postcode": "30096", "addr:state": "GA", "brand": "USPS", "collection_times": "Mo-Sa 11:00", "name": "USPS COLLECTION BOX - BLUE BOX", "ref": "3009600001"}, "type": "Feature"}
{"geometry": {"coordinates": [-84.1728456, 34.00556], "type": "Point"}, "id": "Ef64UTs3Mws4SiMGwk8ew9wk9t0=", "properties": {"@spider": "usps_collection_boxes", "addr:city": "DULUTH", "addr:country": "US", "addr:full": "3455 PEACHTREE INDUSTRIAL BLVD", "addr:postcode": "30096", "addr:state": "GA", "brand": "USPS", "collection_times": "Mo-Sa 11:00", "name": "USPS COLLECTION BOX - BLUE BOX", "ref": "3009600012"}, "type": "Feature"}
{"geometry": {"coordinates": [-84.1649368, 34.016566], "type": "Point"}, "id": "zZlorI7bMGQupBf-z-LpNP7HD0o=", "properties": {"@spider": "usps_collection_boxes", "addr:city": "DULUTH", "addr:country": "US", "addr:full": "4250 RIVER GREEN PKWY", "addr:postcode": "30096", "addr:state": "GA", "brand": "USPS", "collection_times": "Mo-Sa 11:00", "name": "USPS COLLECTION BOX - BLUE BOX", "ref": "3009600050"}, "type": "Feature"}
{"geometry": {"coordinates": [-84.168069, 34.06594], "type": "Point"}, "id": "HThMKjZhDUMelvQpakmeVgTFTLk=", "properties": {"@spider": "usps_collection_boxes", "addr:city": "DULUTH", "addr:country": "US", "addr:full": "11695 MEDLOCK BRIDGE RD", "addr:postcode": "30096", "addr:state": "GA", "brand": "USPS", "collection_times": "Mo-Sa 11:00", "name": "USPS COLLECTION BOX - BLUE BOX", "ref": "3009600082"}, "type": "Feature"}
