{"geometry": {"coordinates": [-84.154505, 33.054598], "type": "Point"}, "id": "31kAMVrxOeCi5nDkWJWs4asJMt8=", "properties": {"@spider": "usps_collection_boxes", "addr:city": "BARNESVILLE", "addr:country": "US", "addr:full": "118 FORSYTH ST", "addr:postcode": "30204", "addr:state": "GA", "brand": "USPS", "collection_times": "Mo-Fr 17:00; Sa 14:30", "name": "USPS COLLECTION BOX - BLUE BOX", "note": "ON 12/24 AND 12/31, THIS BOX MAY BE COLLECTED AS EARLY AS 12 NOON.", "ref": "3020400005"}, "type": "Feature"}
{"geometry": {"coordinates": [-84.1720839, 33.043837], "type": "Point"}, "id": "0-4eurTBHqeY_K5jcmmWuSCVeNA=", "properties": {"@spider": "usps_collection_boxes", "addr:city": "BARNESVILLE", "addr:country": "US", "addr:full": "625 VETERANS PKWY", "addr:postcode": "30204", "addr:state": "GA", "brand": "USPS", "collection_times": "Mo-Sa 12:00", "name": "USPS COLLECTION BOX - BLUE BOX", "ref": "3020400009"}, "type": "Feature"}
{"geometry": {"coordinates": [-84.15424, 33.054599], "type": "Point"}, "id": "6Q3QVT-XoZf4p3pPfvN6KRamKDc=", "properties": {"@spider": "usps_collection_boxes", "addr:city": "BARNESVILLE", "addr:country": "US", "addr:full": "138 FORSYTH ST", "addr:postcode": "30204", "addr:state": "GA", "brand": "USPS", "collection_times": "Mo-Fr 16:30; Sa 14:30", "name": "USPS COLLECTION BOX - PO LOBBY", "note": "ON 12/24 AND 12/31, THIS BOX MAY BE COLLECTED AS EARLY AS 12 NOON.", "ref": "3020400010"}, "type": "Feature"}
{"geometry": {"coordinates": [-84.153925977, 33.054638215], "type": "Point"}, "id": "amD2uVwgb8gyIj_3XS94x1_a8OE=", "properties": {"@spider": "usps_collection_boxes", "addr:city": "BARNESVILLE", "addr:country": "US", "addr:full": "138 FORSYTH ST", "addr:postcode": "30204", "addr:state": "GA", "brand": "USPS", "collection_times": "Mo-Fr 17:00; Sa 12:00", "name": "USPS COLLECTION BOX - PO LOBBY", "note": "ON 12/24 AND 12/31, THIS BOX MAY BE COLLECTED AS EARLY AS 12 NOON.", "ref": "3020400013"}, "type": "Feature"}
{"geometry": {"coordinates": [-85.097459, 33.277946], "type": "Point"}, "id": "7inb-cnIzT3TOMqEklwLDy11Xkg=", "properties": {"@spider": "usps_collection_boxes", "addr:city": "FRANKLIN", "addr:country": "US", "addr:full": "291 PARK AVE", "addr:postcode": "30217", "addr:state": "GA", "brand": "USPS", "collection_times": "Mo-Fr 16:00; Sa 12:00", "name": "USPS COLLECTION BOX - BLUE BOX", "note": "ON 12/24 AND 12/31, THIS BOX MAY BE COLLECTED AS EARLY AS 12 NOON.", "ref": "3021700001"}, "type": "Feature"}
{"geometry": {"coordinates": [-85.097459, 33.277946], "type": "Point"}, "id": "cm3AHRcwTIbqKPaSGNj6qT5Z72o=", "properties": {"@spider": "usps_collection_boxes", "addr:city": "FRANKLIN", "addr:country": "US", "addr:full": "291 PARK AVE", "addr:postcode": "30217", "addr:state": "GA", "brand": "USPS", "collection_times": "Mo-Fr 16:00; Sa 12:00", "name": "USPS COLLECTION BOX - PO LOBBY", "note": "ON 12/24 AND 12/31, THIS BOX MAY BE COLLECTED AS EARLY AS 12 NOON.", "ref": "3021700003"}, "type": "Feature"}
{"geometry": {"coordinates": [-85.097458842, 33.277941713], "type": "Point"}, "id": "mlggF_Ht3yAKP4sIYC3D6I6iYA0=", "properties": {"@spider": "usps_collection_boxes", "addr:city": "FRANKLIN", "addr:country": "US", "addr:full": "291 PARK AVE", "addr:postcode": "30217", "addr:state": "GA", "brand": "USPS", "collection_times": "Mo-Fr 16:30; Sa 12:00", "name": "USPS COLLECTION BOX - PO LOBBY", "note": "ON 12/24 AND 12/31, THIS BOX MAY BE COLLECTED AS EARLY AS 12 NOON.", "ref": "3021700005"}, "type": "Feature"}
{"geometry": {"coordinates": [-84.8006024, 33.37532], "type": "Point"}, "id": "k5_GvIGliqxtEMH2Re-7j6X2Y1s=", "properties": {"@spider": "usps_collection_boxes", "addr:city": "NEWNAN", "addr:country": "US", "addr:full": "2 JACKSON ST", "addr:postcode": "30263", "addr:state": "GA", "brand": "USPS", "collection_times": "Mo-Sa 12:30", "name": "USPS COLLECTION BOX - BLUE BOX", "note": "ON 12/24 AND 12/31, THIS BOX MAY BE COLLECTED AS EARLY AS 12 NOON.", "ref": "3026300025"}, "type": "Feature"}
{"geometry": {"coordinates": [-84.799699, 33.373376], "type": "Point"}, "id": "KR635_PN-ad2qu94VRZ0Rfo9hmA=", "properties": {"@spider": "usps_collection_boxes", "addr:city": "NEWNAN", "addr:country": "US", "addr:full": "18 GREENVILLE ST", "addr:postcode": "30263", "addr:state": "GA", "brand": "USPS", "collection_times": "Mo-Fr 17:00; Sa 12:30", "name": "USPS COLLECTION BOX - BLUE BOX", "note": "ON 12/24 AND 12/31, THIS BOX MAY BE COLLECTED AS EARLY AS 12 NOON.", "ref": "3026300031"}, "type": "Feature"}
{"geometry": {"coordinates": [-84.799699, 33.373376], "type": "Point"}, "id": "sdjOpPa-5ZsWyegiLF7HVeJSAjs=", "properties": {"@spider": "usps_collection_boxes", "addr:city": "NEWNAN", "addr:country": "US", "addr:full": "18 GREENVILLE ST", "addr:postcode": "30263", "addr:state": "GA", "brand": "USPS", "collection_times": "Mo-Fr 17:00; Sa 12:30", "name": "USPS COLLECTION BOX - PO LOBBY", "note": "ON 12/24 AND 12/31, THIS BOX MAY BE COLLECTED AS EARLY AS 12 NOON.", "ref": "3026300040"}, "type": "Feature"}
{"geometry": {"coordinates": [-84.766452, 33.396428], "type": "Point"}, "id": "nC5lr6eVagj-X86KhhJ7GN8FfxI=", "properties": {"@spider": "usps_collection_boxes", "addr:city": "NEWNAN", "addr:country": "US", "addr:full": "60 POSTAL PKWY", "addr:postcode": "30263", "addr:state": "GA", "brand": "USPS", "collection_times": "Mo-Fr 17:00; Sa 16:00", "name": "USPS COLLECTION BOX - PO LOBBY", "note": "ON 12/24 AND 12/31, THIS BOX MAY BE COLLECTED AS EARLY AS 12 NOON.", "ref": "3026300045"}, "type": "Feature"}
{"geometry": {"coordinates": [-84.766452, 33.396428], "type": "Point"}, "id": "RDhZ0Xn0w4JyG_YS_PFbRRpmQlA=", "properties": {"@spider": "usps_collection_boxes", "addr:city": "NEWNAN", "addr:country": "US", "addr:full": "60 POSTAL PKWY", "addr:postcode": "30263", "addr:state": "GA", "brand": "USPS", "collection_times": "Mo-Fr 17:00; Sa 16:00", "name": "USPS COLLECTION BOX - APC", "note": "ON 12/24 AND 12/31, THIS BOX MAY BE COLLECTED AS EARLY AS 12 NOON.", "ref": "3026300049"}, "type": "Feature"}
{"geometry": {"coordinates": [-84.799700415, 33.3733759], "type": "Point"}, "id": "wR3NA_NtcpINh0yFFG6qobFsiDk=", "properties": {"@spider": "usps_collection_boxes", "addr:city": "NEWNAN", "addr:country": "US", "addr:full": "18 GREENVILLE ST", "addr:postcode": "30263", "addr:state": "GA", "brand": "USPS", "collection_times": "Mo-Fr 17:00", "name": "USPS COLLECTION BOX - PO LOBBY", "note": "ON 12/24 AND 12/31, THIS BOX MAY BE COLLECTED AS EARLY AS 12 NOON.", "ref": "3026300054"}, "type": "Feature"}
{"geometry": {"coordinates": [-84.766314712, 33.396619371], "type": "Point"}, "id": "vibtgYOZ6Q7X9xQKtpRMKfAiMbc=", "properties": {"@spider": "usps_collection_boxes", "addr:city": "NEWNAN", "addr:country": "US", "addr:full": "60 POSTAL PKWY", "addr:postcode": "30263", "addr:state": "GA", "brand": "USPS", "collection_times": "Mo-Fr 17:00; Sa 12:00", "name": "USPS COLLECTION BOX - PO LOBBY", "note": "ON 12/24 AND 12/31, THIS BOX MAY BE COLLECTED AS EARLY AS 12 NOON.", "ref": "3026300055"}, "type": "Feature"}
{"geometry": {"coordinates": [-84.6589168444, 33.5307159117], "type": "Point"}, "id": "joLMrO5MHKMdk1hztZ16G6t008k=", "properties": {"@spider": "usps_collection_boxes", "addr:city": "PALMETTO", "addr:country": "US", "addr:full": "502 WALNUT WAY", "addr:postcode": "30268", "addr:state": "GA", "brand": "USPS", "collection_times": "Mo-Fr 17:00; Sa 12:00", "name": "USPS COLLECTION BOX - BLUE BOX", "note": "ON 12/24 AND 12/31, THIS BOX MAY BE COLLECTED AS EARLY AS 12 NOON.", "ref": "3026800001"}, "type": "Feature"}
{"geometry": {"coordinates": [-84.6589168444, 33.5307159117], "type": "Point"}, "id": "hlZYRwhxenD6sUKhZskZ5CAAKR0=", "properties": {"@spider": "usps_collection_boxes", "addr:city": "PALMETTO", "addr:country": "US", "addr:full": "502 WALNUT WAY", "addr:postcode": "30268", "addr:state": "GA", "brand": "USPS", "collection_times": "Mo-Fr 17:00; Sa 12:00", "name": "USPS COLLECTION BOX - BLUE BOX", "note": "ON 12/24 AND 12/31, THIS BOX MAY BE COLLECTED AS EARLY AS 12 NOON.", "ref": "3026800002"}, "type": "Feature"}
{"geometry": {"coordinates": [-84.658891, 33.531455], "type": "Point"}, "id": "MCLN9yB_0hpgZzzUZC6RNXMWKu4=", "properties": {"@spider": "usps_collection_boxes", "addr:city": "PALMETTO", "addr:country": "US", "addr:full": "502 WALNUT WAY", "addr:postcode": "30268", "addr:state": "GA", "brand": "USPS", "collection_times": "Mo-Fr 17:00; Sa 12:00", "name": "USPS COLLECTION BOX - PO LOBBY", "note": "ON 12/24 AND 12/31, THIS BOX MAY BE COLLECTED AS EARLY AS 12 NOON.", "ref": "3026800005"}, "type": "Feature"}
{"geometry": {"coordinates": [-84.658916844, 33.530715912], "type": "Point"}, "id": "-9Zi8LYeNkEwrVMVfupIKJimFPs=", "properties": {"@spider": "usps_collection_boxes", "addr:city": "PALMETTO", "addr:country": "US", "addr:full": "502 WALNUT WAY", "addr:postcode": "30268", "addr:state": "GA", "brand": "USPS", "collection_times": "Mo-Fr 17:00; Sa 12:00", "name": "USPS COLLECTION BOX - PO LOBBY", "note": "ON 12/24 AND 12/31, THIS BOX MAY BE COLLECTED AS EARLY AS 12 NOON.", "ref": "3026800007"}, "type": "Feature"}
{"geometry": {"coordinates": [-84.868242, 33.430773], "type": "Point"}, "id": "lQER1fehas2Zrp3fT_ZeZkvSUyI=", "properties": {"@spider": "usps_collection_boxes", "addr:city": "SARGENT", "addr:country": "US", "addr:full": "374 HENRY BRYANT RD", "addr:postcode": "30275", "addr:state": "GA", "brand": "USPS", "collection_times": "Mo-Fr 16:15; Sa 12:00", "name": "USPS COLLECTION BOX - BLUE BOX", "note": "ON 12/24 AND 12/31, THIS BOX MAY BE COLLECTED AS EARLY AS 12 NOON.", "ref": "3027500001"}, "type": "Feature"}
{"geometry": {"coordinates": [-84.868252, 33.430839], "type": "Point"}, "id": "-PoCmqZmNgX1yASlRycd6wfpjPA=", "properties": {"@spider": "usps_collection_boxes", "addr:city": "SARGENT", "addr:country": "US", "addr:full": "374 HENRY BRYANT RD", "addr:postcode": "30275", "addr:state": "GA", "brand": "USPS", "collection_times": "Mo-Fr 16:15; Sa 12:00", "name": "USPS COLLECTION BOX - PO LOBBY", "note": "ON 12/24 AND 12/31, THIS BOX MAY BE COLLECTED AS EARLY AS 12 NOON.", "ref": "3027500002"}, "type": "Feature"}
{"geometry": {"coordinates": [-84.867423601, 33.42939901], "type": "Point"}, "id": "kbsXrHnhHhcquoWur2zIi-j9XBs=", "properties": {"@spider": "usps_collection_boxes", "addr:city": "SARGENT", "addr:country": "US", "addr:full": "374 HENRY BRYANT RD", "addr:postcode": "30275", "addr:state": "GA", "brand": "USPS", "collection_times": "Mo-Fr 16:15; Sa 12:00", "name": "USPS COLLECTION BOX - PO LOBBY", "note": "ON 12/24 AND 12/31, THIS BOX MAY BE COLLECTED AS EARLY AS 12 NOON.", "ref": "3027500004"}, "type": "Feature"}
{"geometry": {"coordinates": [-84.24144, 32.963824], "type": "Point"}, "id": "7y3XMfpxNTWOu1MkirtlIbFF1jg=", "properties": {"@spider": "usps_collection_boxes", "addr:city": "THE ROCK", "addr:country": "US", "addr:full": "4674 W MAIN ST", "addr:postcode": "30285", "addr:state": "GA", "brand": "USPS", "collection_times": "Mo-Fr 17:00; Sa 12:00", "name": "USPS COLLECTION BOX - BLUE BOX", "note": "ON 12/24 AND 12/31, THIS BOX MAY BE COLLECTED AS EARLY AS 12 NOON.", "ref": "3028500001"}, "type": "Feature"}
{"geometry": {"coordinates": [-84.2304784, 32.964304], "type": "Point"}, "id": "x7q4Vjc2hCIg2sm6HbRKXhEcrAg=", "properties": {"@spider": "usps_collection_boxes", "addr:city": "THE ROCK", "addr:country": "US", "addr:full": "5020 BARNESVILLE HWY", "addr:postcode": "30285", "addr:state": "GA", "brand": "USPS", "collection_times": "Mo-Sa 13:00", "name": "USPS COLLECTION BOX - BLUE BOX", "note": "ON 12/24 AND 12/31, THIS BOX MAY BE COLLECTED AS EARLY AS 12 NOON.", "ref": "3028500002"}, "type": "Feature"}
{"geometry": {"coordinates": [-84.241384725, 32.963750985], "type": "Point"}, "id": "9h8QHhMQjrLeLWV86cb_XCYyGk0=", "properties": {"@spider": "usps_collection_boxes", "addr:city": "THE ROCK", "addr:country": "US", "addr:full": "4674 W MAIN ST", "addr:postcode": "30285", "addr:state": "GA", "brand": "USPS", "collection_times": "Mo-Sa 12:00", "name": "USPS COLLECTION BOX - PO LOBBY", "ref": "3028500004"}, "type": "Feature"}
