{"geometry": {"coordinates": [-84.390581, 33.75548], "type": "Point"}, "id": "tfFRM0IHwdDUvYM1NO_m8UAhup4=", "properties": {"@spider": "usps_collection_boxes", "addr:country": "US", "addr:full": "41 MARIETTA ST", "addr:postcode": "30301", "brand": "USPS", "collection_times": "Mo-Fr 17:00", "name": "USPS COLLECTION BOX - BLUE BOX", "note": "ON 12/24 AND 12/31, THIS BOX MAY BE COLLECTED AS EARLY AS 12 NOON.", "ref": "3030100002"}, "type": "Feature"}
{"geometry": {"coordinates": [-84.390581, 33.75548], "type": "Point"}, "id": "zkzgdez8eby8OZnMdQu420xCpAo=", "properties": {"@spider": "usps_collection_boxes", "addr:country": "US", "addr:full": "41 MARIETTA ST", "addr:postcode": "30301", "brand": "USPS", "collection_times": "Mo-Fr 17:00", "name": "USPS COLLECTION BOX - PO LOBBY", "note": "ON 12/24 AND 12/31, THIS BOX MAY BE COLLECTED AS EARLY AS 12 NOON.", "ref": "3030100005"}, "type": "Feature"}
{"geometry": {"coordinates": [-84.3800447, 33.75556], "type": "Point"}, "id": "98eHRF2x6XNUoBidunMHQM5eK44=", "properties": {"@spider": "usps_collection_boxes", "addr:city": "ATLANTA", "addr:country": "US", "addr:full": "228 AUBURN AVE NE", "addr:postcode": "30303", "addr:state": "GA", "brand": "USPS", "collection_times": "Mo-Sa 09:00", "name": "USPS COLLECTION BOX - BLUE BOX", "ref": "3030300010"}, "type": "Feature"}
{"geometry": {"coordinates": [-84.3900036, 33.752565], "type": "Point"}, "id": "GDAC3tqry5MVx23FokGxhzO2ffA=", "properties": {"@spider": "usps_collection_boxes", "addr:city": "ATLANTA", "addr:country": "US", "addr:full": "50 UPPER ALABAMA ST SW", "addr:postcode": "30303", "addr:state": "GA", "brand": "USPS", "collection_times": "Mo-Sa 10:00", "name": "USPS COLLECTION BOX - BLUE BOX", "ref": "3030300106"}, "type": "Feature"}
{"geometry": {"coordinates": [-84.3906409, 33.749526], "type": "Point"}, "id": "DrQCUkg6TXjrjiyVdyKbWTCZseE=", "properties": {"@spider": "usps_collection_boxes", "addr:city": "ATLANTA", "addr:country": "US", "addr:full": "68 MITCHELL AVE", "addr:postcode": "30303", "addr:state": "GA", "brand": "USPS", "collection_times": "Mo-Sa 10:00", "name": "USPS COLLECTION BOX - BLUE BOX", "ref": "3030300112"}, "type": "Feature"}
{"geometry": {"coordinates": [-84.390008024, 33.7553820422], "type": "Point"}, "id": "sMG5iOva6ZdIYt0sVExkjglTglo=", "properties": {"@spider": "usps_collection_boxes", "addr:city": "ATLANTA", "addr:country": "US", "addr:full": "44 BROAD ST NW", "addr:postcode": "30303", "addr:state": "GA", "brand": "USPS", "collection_times": "Mo-Sa 10:00", "name": "USPS COLLECTION BOX - BLUE BOX", "ref": "3030300113"}, "type": "Feature"}
{"geometry": {"coordinates": [-84.3887681, 33.756602], "type": "Point"}, "id": "ra7f9Xgmyvt-M1DSs1_9QHPUhSk=", "properties": {"@spider": "usps_collection_boxes", "addr:city": "ATLANTA", "addr:country": "US", "addr:full": "66 LUCKIE ST NW", "addr:postcode": "30303", "addr:state": "GA", "brand": "USPS", "collection_times": "Mo-Sa 10:00", "name": "USPS COLLECTION BOX - BLUE BOX", "ref": "3030300114"}, "type": "Feature"}
{"geometry": {"coordinates": [-84.3952346, 33.748007], "type": "Point"}, "id": "JQ2K6vbICepAJsepG7pbaENWWO4=", "properties": {"@spider": "usps_collection_boxes", "addr:city": "ATLANTA", "addr:country": "US", "addr:full": "236 PEACHTREE ST SW", "addr:postcode": "30303", "addr:state": "GA", "brand": "USPS", "collection_times": "Mo-Sa 10:00", "name": "USPS COLLECTION BOX - BLUE BOX", "ref": "3030300130"}, "type": "Feature"}
{"geometry": {"coordinates": [-84.3875621, 33.758327], "type": "Point"}, "id": "7jucRTpABnMAE2B5j0bImRcq8EE=", "properties": {"@spider": "usps_collection_boxes", "addr:city": "ATLANTA", "addr:country": "US", "addr:full": "181 PEACHTREE ST", "addr:postcode": "30303", "addr:state": "GA", "brand": "USPS", "collection_times": "Mo-Sa 11:00", "name": "USPS COLLECTION BOX - BLUE BOX", "ref": "3030300135"}, "type": "Feature"}
{"geometry": {"coordinates": [-84.3874731, 33.760423], "type": "Point"}, "id": "Go3ApoorPiduM_AT9AZ7oJUseFU=", "properties": {"@spider": "usps_collection_boxes", "addr:city": "ATLANTA", "addr:country": "US", "addr:full": "240 PEACHTREE ST NW", "addr:postcode": "30303", "addr:state": "GA", "brand": "USPS", "collection_times": "Mo-Sa 10:00", "name": "USPS COLLECTION BOX - BLUE BOX", "ref": "3030300146"}, "type": "Feature"}
{"geometry": {"coordinates": [-84.3928392, 33.749066], "type": "Point"}, "id": "CHSUa2xKuQCNQhnXP1isuzaeP8M=", "properties": {"@spider": "usps_collection_boxes", "addr:city": "ATLANTA", "addr:country": "US", "addr:full": "210 PRYOR ST SW", "addr:postcode": "30303", "addr:state": "GA", "brand": "USPS", "collection_times": "Mo-Sa 10:00", "name": "USPS COLLECTION BOX - BLUE BOX", "ref": "3030300156"}, "type": "Feature"}
{"geometry": {"coordinates": [-84.3930934, 33.750823], "type": "Point"}, "id": "2lqgiI4Uqk5cq_gfslFAWuxxyzs=", "properties": {"@spider": "usps_collection_boxes", "addr:city": "ATLANTA", "addr:country": "US", "addr:full": "170 MITCHELL ST SW", "addr:postcode": "30303", "addr:state": "GA", "brand": "USPS", "collection_times": "Mo-Sa 10:00", "name": "USPS COLLECTION BOX - BLUE BOX", "ref": "3030300160"}, "type": "Feature"}
{"geometry": {"coordinates": [-84.3939434, 33.749668], "type": "Point"}, "id": "4_L4pU8WmYIDe0e5qSId9FX9RbA=", "properties": {"@spider": "usps_collection_boxes", "addr:city": "ATLANTA", "addr:country": "US", "addr:full": "175 TRINITY AVE SW", "addr:postcode": "30303", "addr:state": "GA", "brand": "USPS", "collection_times": "Mo-Sa 10:00", "name": "USPS COLLECTION BOX - BLUE BOX", "ref": "3030300161"}, "type": "Feature"}
{"geometry": {"coordinates": [-84.3875219, 33.757222], "type": "Point"}, "id": "zR10xBdE5sSRprjIblnuvt3j3es=", "properties": {"@spider": "usps_collection_boxes", "addr:city": "ATLANTA", "addr:country": "US", "addr:full": "24 JOHN WESLEY DOBBS AVE NE", "addr:postcode": "30303", "addr:state": "GA", "brand": "USPS", "collection_times": "Mo-Sa 10:00", "name": "USPS COLLECTION BOX - BLUE BOX", "ref": "3030300202"}, "type": "Feature"}
{"geometry": {"coordinates": [-84.394441, 33.744307], "type": "Point"}, "id": "hK_4wJdh1Ho1yXl6HK2ACe9XAi0=", "properties": {"@spider": "usps_collection_boxes", "addr:city": "ATLANTA", "addr:country": "US", "addr:full": "400 PRYOR ST SW", "addr:postcode": "30303", "addr:state": "GA", "brand": "USPS", "collection_times": "Mo-Sa 17:00", "name": "USPS COLLECTION BOX - BLUE BOX", "note": "ON 12/24 AND 12/31, THIS BOX MAY BE COLLECTED AS EARLY AS 12 NOON.", "ref": "3030300224"}, "type": "Feature"}
{"geometry": {"coordinates": [-84.3917924, 33.756064], "type": "Point"}, "id": "L3sj5Vsd1BsNBu07kyvKM9DXLYM=", "properties": {"@spider": "usps_collection_boxes", "addr:city": "ATLANTA", "addr:country": "US", "addr:full": "72 MARIETTA ST NW", "addr:postcode": "30303", "addr:state": "GA", "brand": "USPS", "collection_times": "Mo-Sa 10:00", "name": "USPS COLLECTION BOX - BLUE BOX", "ref": "3030300252"}, "type": "Feature"}
{"geometry": {"coordinates": [-84.3887714, 33.754124], "type": "Point"}, "id": "jUa97SpRHlPWv5qSq1nj-HXZ878=", "properties": {"@spider": "usps_collection_boxes", "addr:city": "ATLANTA", "addr:country": "US", "addr:full": "10 PARK PL", "addr:postcode": "30303", "addr:state": "GA", "brand": "USPS", "collection_times": "Mo-Sa 10:00", "name": "USPS COLLECTION BOX - BLUE BOX", "ref": "3030300253"}, "type": "Feature"}
{"geometry": {"coordinates": [-84.3882442, 33.754993], "type": "Point"}, "id": "b9Lowe6zlwutYeiB5ipmPbbdEX8=", "properties": {"@spider": "usps_collection_boxes", "addr:city": "ATLANTA", "addr:country": "US", "addr:full": "25 PARK PL NE", "addr:postcode": "30303", "addr:state": "GA", "brand": "USPS", "collection_times": "Mo-Sa 10:00", "name": "USPS COLLECTION BOX - BLUE BOX", "ref": "3030300254"}, "type": "Feature"}
{"geometry": {"coordinates": [-84.3881753, 33.761192], "type": "Point"}, "id": "2Crr1xzOYDVNeDda8amYV6g2ET4=", "properties": {"@spider": "usps_collection_boxes", "addr:city": "ATLANTA", "addr:country": "US", "addr:full": "250 TED TURNER DR NW", "addr:postcode": "30303", "addr:state": "GA", "brand": "USPS", "collection_times": "Mo-Sa 10:00", "name": "USPS COLLECTION BOX - BLUE BOX", "ref": "3030300259"}, "type": "Feature"}
{"geometry": {"coordinates": [-84.393606893, 33.757902933], "type": "Point"}, "id": "GXMvYEBhiqlPBJRw5sJFx64zHt4=", "properties": {"@spider": "usps_collection_boxes", "addr:city": "ATLANTA", "addr:country": "US", "addr:full": "100 TECHWOOD DR", "addr:postcode": "30303", "addr:state": "GA", "brand": "USPS", "collection_times": "Mo-Sa 10:00", "name": "USPS COLLECTION BOX - BLUE BOX", "ref": "3030300260"}, "type": "Feature"}
{"geometry": {"coordinates": [-84.3917099, 33.756676], "type": "Point"}, "id": "FncaGxwQ0V1DHd9vO1yryouszgE=", "properties": {"@spider": "usps_collection_boxes", "addr:city": "ATLANTA", "addr:country": "US", "addr:full": "101 MARIETTA ST NW", "addr:postcode": "30303", "addr:state": "GA", "brand": "USPS", "collection_times": "Mo-Sa 10:00", "name": "USPS COLLECTION BOX - BLUE BOX", "ref": "3030300268"}, "type": "Feature"}
{"geometry": {"coordinates": [-84.3885667, 33.748487], "type": "Point"}, "id": "QPZd3zDNy399Lis0X8q4zzCFBPs=", "properties": {"@spider": "usps_collection_boxes", "addr:city": "ATLANTA", "addr:country": "US", "addr:full": "18 CAPITAL SQ", "addr:postcode": "30303", "addr:state": "GA", "brand": "USPS", "collection_times": "Mo-Sa 10:00", "name": "USPS COLLECTION BOX - BLUE BOX", "ref": "3030300275"}, "type": "Feature"}
{"geometry": {"coordinates": [-84.3866104, 33.754209], "type": "Point"}, "id": "wv7AKziApW8On8bQFzS5nsBB558=", "properties": {"@spider": "usps_collection_boxes", "addr:city": "ATLANTA", "addr:country": "US", "addr:full": "72 EDGEWOOD AVE NE", "addr:postcode": "30303", "addr:state": "GA", "brand": "USPS", "collection_times": "Mo-Fr 11:00; Sa 10:30", "name": "USPS COLLECTION BOX - BLUE BOX", "ref": "3030300277"}, "type": "Feature"}
{"geometry": {"coordinates": [-84.3922019, 33.752111], "type": "Point"}, "id": "L2xOa913wAJsOUZLgmekVJoTyOM=", "properties": {"@spider": "usps_collection_boxes", "addr:city": "ATLANTA", "addr:country": "US", "addr:full": "97 PEACHTREE ST SW", "addr:postcode": "30303", "addr:state": "GA", "brand": "USPS", "collection_times": "Mo-Sa 10:00", "name": "USPS COLLECTION BOX - BLUE BOX", "ref": "3030300279"}, "type": "Feature"}
{"geometry": {"coordinates": [-84.3896729, 33.747554], "type": "Point"}, "id": "EC1aF_l1rQx-YLUFcNzOASmihOI=", "properties": {"@spider": "usps_collection_boxes", "addr:city": "ATLANTA", "addr:country": "US", "addr:full": "278 TRINITY AVE SW", "addr:postcode": "30303", "addr:state": "GA", "brand": "USPS", "collection_times": "Mo-Fr 10:00", "name": "USPS COLLECTION BOX - BLUE BOX", "ref": "3030300281"}, "type": "Feature"}
{"geometry": {"coordinates": [-84.390889617, 33.755291349], "type": "Point"}, "id": "BXKn2ihCVietg210n9SBbmUp7Eo=", "properties": {"@spider": "usps_collection_boxes", "addr:city": "ATLANTA", "addr:country": "US", "addr:full": "41 MARIETTA ST NW LBBY", "addr:postcode": "30303", "addr:state": "GA", "brand": "USPS", "collection_times": "Mo-Fr 16:00", "name": "USPS COLLECTION BOX - PO LOBBY", "note": "ON 12/24 AND 12/31, THIS BOX MAY BE COLLECTED AS EARLY AS 12 NOON.", "ref": "3030300284"}, "type": "Feature"}
{"geometry": {"coordinates": [-84.387616596, 33.760610026], "type": "Point"}, "id": "lvbHza3taeMVfeC2uQetYvbRBBw=", "properties": {"@spider": "usps_collection_boxes", "addr:city": "ATLANTA", "addr:country": "US", "addr:full": "240 PEACHTREE ST NW BSMT", "addr:postcode": "30303", "addr:state": "GA", "brand": "USPS", "collection_times": "Mo-Fr 17:00", "name": "USPS COLLECTION BOX - PO LOBBY", "note": "ON 12/24 AND 12/31, THIS BOX MAY BE COLLECTED AS EARLY AS 12 NOON.", "ref": "3030300285"}, "type": "Feature"}
{"geometry": {"coordinates": [-84.394418567, 33.74429499], "type": "Point"}, "id": "ooRHfbNr0tGkASn06ooJjEABKWg=", "properties": {"@spider": "usps_collection_boxes", "addr:city": "ATLANTA", "addr:country": "US", "addr:full": "400 PRYOR ST SW", "addr:postcode": "30303", "addr:state": "GA", "brand": "USPS", "collection_times": "Mo-Fr 18:00; Sa 13:00", "name": "USPS COLLECTION BOX - PO LOBBY", "note": "ON 12/24 AND 12/31, THIS BOX MAY BE COLLECTED AS EARLY AS 12 NOON.", "ref": "3030300287"}, "type": "Feature"}
{"geometry": {"coordinates": [-84.3941794434, 33.6518891849], "type": "Point"}, "id": "bz9pzlyXV9xiRSJBMkGa_JR1JMU=", "properties": {"@spider": "usps_collection_boxes", "addr:city": "ATLANTA", "addr:country": "US", "addr:full": "3900 CROWN RD SW", "addr:postcode": "30304", "addr:state": "GA", "brand": "USPS", "collection_times": "Mo-Sa 17:00", "name": "USPS COLLECTION BOX - PO LOBBY", "note": "ON 12/24 AND 12/31, THIS BOX MAY BE COLLECTED AS EARLY AS 12 NOON.", "ref": "3030400002"}, "type": "Feature"}
{"geometry": {"coordinates": [-84.3808776438, 33.817877264], "type": "Point"}, "id": "vDzX9dS5dpz8sFTvBYoX_i_uDmg=", "properties": {"@spider": "usps_collection_boxes", "addr:city": "ATLANTA", "addr:country": "US", "addr:full": "200 PEACHTREE HILLS AVE NE", "addr:postcode": "30305", "addr:state": "GA", "brand": "USPS", "collection_times": "Mo-Sa 11:00", "name": "USPS COLLECTION BOX - BLUE BOX", "ref": "3030500098"}, "type": "Feature"}
{"geometry": {"coordinates": [-84.3759705, 33.817233], "type": "Point"}, "id": "zYinReB85qYohrjPFcq8FxMx8bI=", "properties": {"@spider": "usps_collection_boxes", "addr:city": "ATLANTA", "addr:country": "US", "addr:full": "349 PEACHTREE HILLS AVE NE", "addr:postcode": "30305", "addr:state": "GA", "brand": "USPS", "collection_times": "Mo-Sa 11:00", "name": "USPS COLLECTION BOX - BLUE BOX", "ref": "3030500104"}, "type": "Feature"}
{"geometry": {"coordinates": [-84.3867888, 33.8195], "type": "Point"}, "id": "NI5LVWfIC_3JQBHFRmjUt9fqD7Q=", "properties": {"@spider": "usps_collection_boxes", "addr:city": "ATLANTA", "addr:country": "US", "addr:full": "2351 PEACHTREE RD NE", "addr:postcode": "30305", "addr:state": "GA", "brand": "USPS", "collection_times": "Mo-Sa 10:00", "name": "USPS COLLECTION BOX - BLUE BOX", "ref": "3030500117"}, "type": "Feature"}
{"geometry": {"coordinates": [-84.352692507, 33.777879318], "type": "Point"}, "id": "IZ2t8dT5eJwoBXUwLlFNnS8FVes=", "properties": {"@spider": "usps_collection_boxes", "addr:city": "ATLANTA", "addr:country": "US", "addr:full": "854 N HIGHLAND AVE NE", "addr:postcode": "30306", "addr:state": "GA", "brand": "USPS", "collection_times": "Mo-Sa 10:00", "name": "USPS COLLECTION BOX - BLUE BOX", "ref": "3030600002"}, "type": "Feature"}
{"geometry": {"coordinates": [-84.3682699, 33.78261], "type": "Point"}, "id": "rEACwvG35hVZI3dEJJR3sblrRyg=", "properties": {"@spider": "usps_collection_boxes", "addr:city": "ATLANTA", "addr:country": "US", "addr:full": "1027 MONROE DR NE", "addr:postcode": "30306", "addr:state": "GA", "brand": "USPS", "collection_times": "Mo-Sa 10:00", "name": "USPS COLLECTION BOX - BLUE BOX", "ref": "3030600003"}, "type": "Feature"}
{"geometry": {"coordinates": [-84.355378039, 33.787168698], "type": "Point"}, "id": "cCj3VBFycoF9OrIP6BUs09DFG-Q=", "properties": {"@spider": "usps_collection_boxes", "addr:city": "ATLANTA", "addr:country": "US", "addr:full": "1190 N HIGHLAND AVE NE", "addr:postcode": "30306", "addr:state": "GA", "brand": "USPS", "collection_times": "Mo-Fr 17:00; Sa 12:00", "name": "USPS COLLECTION BOX - BLUE BOX", "note": "ON 12/24 AND 12/31, THIS BOX MAY BE COLLECTED AS EARLY AS 12 NOON.", "ref": "3030600006"}, "type": "Feature"}
{"geometry": {"coordinates": [-84.3548380448, 33.7822469007], "type": "Point"}, "id": "nCtbVBIoDK23YL2BMyP2jhQatEE=", "properties": {"@spider": "usps_collection_boxes", "addr:city": "ATLANTA", "addr:country": "US", "addr:full": "999 VIRGINIA AVE NE", "addr:postcode": "30306", "addr:state": "GA", "brand": "USPS", "collection_times": "Mo-Sa 10:00", "name": "USPS COLLECTION BOX - BLUE BOX", "ref": "3030600009"}, "type": "Feature"}
{"geometry": {"coordinates": [-84.3586088, 33.775515], "type": "Point"}, "id": "5l7Igu6ZJNuST2N0EheKkiipg3U=", "properties": {"@spider": "usps_collection_boxes", "addr:city": "ATLANTA", "addr:country": "US", "addr:full": "880 SAINT CHARLES AVE NE", "addr:postcode": "30306", "addr:state": "GA", "brand": "USPS", "collection_times": "Mo-Sa 10:00", "name": "USPS COLLECTION BOX - BLUE BOX", "ref": "3030600013"}, "type": "Feature"}
{"geometry": {"coordinates": [-84.3616715, 33.769811], "type": "Point"}, "id": "kTXMEwKoE8qmUtYWJRuq5nPAAcA=", "properties": {"@spider": "usps_collection_boxes", "addr:city": "ATLANTA", "addr:country": "US", "addr:full": "822 RALPH MCGILL BLVD NE", "addr:postcode": "30306", "addr:state": "GA", "brand": "USPS", "collection_times": "Mo-Fr 17:00; Sa 16:00", "name": "USPS COLLECTION BOX - BLUE BOX", "note": "ON 12/24 AND 12/31, THIS BOX MAY BE COLLECTED AS EARLY AS 12 NOON.", "ref": "3030600019"}, "type": "Feature"}
{"geometry": {"coordinates": [-84.356099, 33.769857], "type": "Point"}, "id": "PbsNA4jKhHoG_ZjW3TVJKFEC3Ag=", "properties": {"@spider": "usps_collection_boxes", "addr:city": "ATLANTA", "addr:country": "US", "addr:full": "822 RALPH MCGILL BLVD NE", "addr:postcode": "30306", "addr:state": "GA", "brand": "USPS", "collection_times": "Mo-Fr 17:00", "name": "USPS COLLECTION BOX - PO LOBBY", "note": "ON 12/24 AND 12/31, THIS BOX MAY BE COLLECTED AS EARLY AS 12 NOON.", "ref": "3030600023"}, "type": "Feature"}
{"geometry": {"coordinates": [-84.3611299, 33.770037], "type": "Point"}, "id": "PkOA2Qe9Y7-WGJxeiMR1680uzhY=", "properties": {"@spider": "usps_collection_boxes", "addr:city": "ATLANTA", "addr:country": "US", "addr:full": "822 RALPH MCGILL BLVD NE", "addr:postcode": "30306", "addr:state": "GA", "brand": "USPS", "collection_times": "Mo-Fr 17:00", "name": "USPS COLLECTION BOX - PO LOBBY", "note": "ON 12/24 AND 12/31, THIS BOX MAY BE COLLECTED AS EARLY AS 12 NOON.", "ref": "3030600024"}, "type": "Feature"}
{"geometry": {"coordinates": [-84.3612024, 33.769888], "type": "Point"}, "id": "VcYAQy478U59M5SADRuHTvuH5rY=", "properties": {"@spider": "usps_collection_boxes", "addr:city": "ATLANTA", "addr:country": "US", "addr:full": "822 RALPH MCGILL BLVD NE", "addr:postcode": "30306", "addr:state": "GA", "brand": "USPS", "collection_times": "Mo-Fr 17:00", "name": "USPS COLLECTION BOX - PO LOBBY", "note": "ON 12/24 AND 12/31, THIS BOX MAY BE COLLECTED AS EARLY AS 12 NOON.", "ref": "3030600025"}, "type": "Feature"}
{"geometry": {"coordinates": [-84.3557899, 33.773967], "type": "Point"}, "id": "lQp8GQmlCcgmx-5kiyOMr3-pd60=", "properties": {"@spider": "usps_collection_boxes", "addr:city": "ATLANTA", "addr:country": "US", "addr:full": "956 PONCE DE LEON AVE NE", "addr:postcode": "30306", "addr:state": "GA", "brand": "USPS", "collection_times": "Mo-Sa 10:00", "name": "USPS COLLECTION BOX - BLUE BOX", "ref": "3030600030"}, "type": "Feature"}
{"geometry": {"coordinates": [-84.3553780388, 33.7871686984], "type": "Point"}, "id": "vXzCBnVL5dayUUYt3KG9N6UDluE=", "properties": {"@spider": "usps_collection_boxes", "addr:city": "ATLANTA", "addr:country": "US", "addr:full": "1190 N HIGHLAND AVE NE", "addr:postcode": "30306", "addr:state": "GA", "brand": "USPS", "collection_times": "Mo-Fr 17:00", "name": "USPS COLLECTION BOX - PO LOBBY", "note": "ON 12/24 AND 12/31, THIS BOX MAY BE COLLECTED AS EARLY AS 12 NOON.", "ref": "3030600034"}, "type": "Feature"}
{"geometry": {"coordinates": [-84.3506607043, 33.7729537094], "type": "Point"}, "id": "-Q1rcUUpERRaVOqeFKHl-dCByy8=", "properties": {"@spider": "usps_collection_boxes", "addr:city": "ATLANTA", "addr:country": "US", "addr:full": "675 SEMINOLE AVE NE", "addr:postcode": "30307", "addr:state": "GA", "brand": "USPS", "collection_times": "Mo-Sa 10:00", "name": "USPS COLLECTION BOX - BLUE BOX", "ref": "3030700007"}, "type": "Feature"}
{"geometry": {"coordinates": [-84.333081, 33.764905], "type": "Point"}, "id": "TZ-ToXrUKUBpu5GhD3Sd5LTxk5U=", "properties": {"@spider": "usps_collection_boxes", "addr:city": "ATLANTA", "addr:country": "US", "addr:full": "1662 MCLENDON AVE NE", "addr:postcode": "30307", "addr:state": "GA", "brand": "USPS", "collection_times": "Mo-Sa 09:00", "name": "USPS COLLECTION BOX - BLUE BOX", "ref": "3030700018"}, "type": "Feature"}
{"geometry": {"coordinates": [-84.3490194597, 33.7668744133], "type": "Point"}, "id": "qHkH14uYRQp4IhN1HgoXiD26IUc=", "properties": {"@spider": "usps_collection_boxes", "addr:city": "ATLANTA", "addr:country": "US", "addr:full": "457 MORELAND AVE NE", "addr:postcode": "30307", "addr:state": "GA", "brand": "USPS", "collection_times": "Mo-Fr 17:00; Sa 13:00", "name": "USPS COLLECTION BOX - BLUE BOX", "note": "ON 12/24 AND 12/31, THIS BOX MAY BE COLLECTED AS EARLY AS 12 NOON.", "ref": "3030700032"}, "type": "Feature"}
{"geometry": {"coordinates": [-84.348996483, 33.766726032], "type": "Point"}, "id": "sma3rvHo0GUoOw-Auyrlb19D76k=", "properties": {"@spider": "usps_collection_boxes", "addr:city": "ATLANTA", "addr:country": "US", "addr:full": "455 MORELAND AVE NE", "addr:postcode": "30307", "addr:state": "GA", "brand": "USPS", "collection_times": "Mo-Fr 17:00", "name": "USPS COLLECTION BOX - PO LOBBY", "note": "ON 12/24 AND 12/31, THIS BOX MAY BE COLLECTED AS EARLY AS 12 NOON.", "ref": "3030700037"}, "type": "Feature"}
{"geometry": {"coordinates": [-84.3872724, 33.773155], "type": "Point"}, "id": "JqJbypaGOHPtGX1kyyeRmPOp2H4=", "properties": {"@spider": "usps_collection_boxes", "addr:city": "ATLANTA", "addr:country": "US", "addr:full": "680 W PEACHTREE ST NW", "addr:postcode": "30308", "addr:state": "GA", "brand": "USPS", "collection_times": "Mo-Sa 11:00", "name": "USPS COLLECTION BOX - BLUE BOX", "ref": "3030800003"}, "type": "Feature"}
{"geometry": {"coordinates": [-84.3815099, 33.77464], "type": "Point"}, "id": "eTTWe2YC-lzw97GvnBO5TaI_JEo=", "properties": {"@spider": "usps_collection_boxes", "addr:city": "ATLANTA", "addr:country": "US", "addr:full": "735 PIEDMONT AVE NE", "addr:postcode": "30308", "addr:state": "GA", "brand": "USPS", "collection_times": "Mo-Sa 10:00", "name": "USPS COLLECTION BOX - BLUE BOX", "ref": "3030800023"}, "type": "Feature"}
{"geometry": {"coordinates": [-84.381944, 33.770222], "type": "Point"}, "id": "yn7nH101x_ThTNi6OEYwbuMawXc=", "properties": {"@spider": "usps_collection_boxes", "addr:city": "ATLANTA", "addr:country": "US", "addr:full": "570 PIEDMONT AVE NE", "addr:postcode": "30308", "addr:state": "GA", "brand": "USPS", "collection_times": "Mo-Fr 17:00; Sa 15:00", "name": "USPS COLLECTION BOX - PO LOBBY", "note": "ON 12/24 AND 12/31, THIS BOX MAY BE COLLECTED AS EARLY AS 12 NOON.", "ref": "3030800039"}, "type": "Feature"}
{"geometry": {"coordinates": [-84.3873491, 33.768637], "type": "Point"}, "id": "aS4YW3P5yw5i2qbGRliVbKCDR5k=", "properties": {"@spider": "usps_collection_boxes", "addr:city": "ATLANTA", "addr:country": "US", "addr:full": "524 W PEACHTREE ST NW", "addr:postcode": "30308", "addr:state": "GA", "brand": "USPS", "collection_times": "Mo-Sa 10:00", "name": "USPS COLLECTION BOX - BLUE BOX", "ref": "3030800051"}, "type": "Feature"}
{"geometry": {"coordinates": [-84.3863244, 33.769755], "type": "Point"}, "id": "3Ln4czpPuKIpTUVH5QqTnOj9Os0=", "properties": {"@spider": "usps_collection_boxes", "addr:city": "ATLANTA", "addr:country": "US", "addr:full": "35 LINDEN AVE NE", "addr:postcode": "30308", "addr:state": "GA", "brand": "USPS", "collection_times": "Mo-Fr 11:00; Sa 11:30", "name": "USPS COLLECTION BOX - BLUE BOX", "ref": "3030800077"}, "type": "Feature"}
{"geometry": {"coordinates": [-84.377631542, 33.776037], "type": "Point"}, "id": "TjAMHJ6I1mxSQL9XqlBImUHA3nw=", "properties": {"@spider": "usps_collection_boxes", "addr:city": "ATLANTA", "addr:country": "US", "addr:full": "789 ARGONNE AVE NE", "addr:postcode": "30308", "addr:state": "GA", "brand": "USPS", "collection_times": "Mo-Sa 10:00", "name": "USPS COLLECTION BOX - BLUE BOX", "ref": "3030800090"}, "type": "Feature"}
{"geometry": {"coordinates": [-84.3660655, 33.774536], "type": "Point"}, "id": "YbJi6aLDzammm2_faX1DT7sSuGk=", "properties": {"@spider": "usps_collection_boxes", "addr:city": "ATLANTA", "addr:country": "US", "addr:full": "650 PONCE DE LEON AVE NE", "addr:postcode": "30308", "addr:state": "GA", "brand": "USPS", "collection_times": "Mo-Sa 10:00", "name": "USPS COLLECTION BOX - BLUE BOX", "ref": "3030800096"}, "type": "Feature"}
{"geometry": {"coordinates": [-84.3902447, 33.776924], "type": "Point"}, "id": "Zp1hDnExrFYG-7KK7rycOFOxNVU=", "properties": {"@spider": "usps_collection_boxes", "addr:city": "ATLANTA", "addr:country": "US", "addr:full": "85 5 TH ST", "addr:postcode": "30308", "addr:state": "GA", "brand": "USPS", "collection_times": "Mo-Fr 10:00", "name": "USPS COLLECTION BOX - BLUE BOX", "ref": "3030800097"}, "type": "Feature"}
{"geometry": {"coordinates": [-84.3824925, 33.770124], "type": "Point"}, "id": "qAh-l1o4LFNcMCYUbpaGwG3UgyI=", "properties": {"@spider": "usps_collection_boxes", "addr:city": "ATLANTA", "addr:country": "US", "addr:full": "570 PIEDMONT AVE NE", "addr:postcode": "30308", "addr:state": "GA", "brand": "USPS", "collection_times": "Mo-Fr 17:00; Sa 15:00", "name": "USPS COLLECTION BOX - BLUE BOX", "note": "ON 12/24 AND 12/31, THIS BOX MAY BE COLLECTED AS EARLY AS 12 NOON.", "ref": "3030800100"}, "type": "Feature"}
{"geometry": {"coordinates": [-84.381933034, 33.770378936], "type": "Point"}, "id": "tTnhU-5rD0zGyolrvKepxxjXsgc=", "properties": {"@spider": "usps_collection_boxes", "addr:city": "ATLANTA", "addr:country": "US", "addr:full": "570 PIEDMONT AVE NE", "addr:postcode": "30308", "addr:state": "GA", "brand": "USPS", "collection_times": "Mo-Fr 17:00; Sa 13:00", "name": "USPS COLLECTION BOX - PO LOBBY", "note": "ON 12/24 AND 12/31, THIS BOX MAY BE COLLECTED AS EARLY AS 12 NOON.", "ref": "3030800105"}, "type": "Feature"}
{"geometry": {"coordinates": [-84.3809411, 33.786173], "type": "Point"}, "id": "Oep9RrSHsna6h3Y-mNSpKh2tIcY=", "properties": {"@spider": "usps_collection_boxes", "addr:city": "ATLANTA", "addr:country": "US", "addr:full": "181 14TH ST NE", "addr:postcode": "30309", "addr:state": "GA", "brand": "USPS", "collection_times": "Mo-Fr 10:00", "name": "USPS COLLECTION BOX - BLUE BOX", "ref": "3030900002"}, "type": "Feature"}
{"geometry": {"coordinates": [-84.3941238, 33.812011], "type": "Point"}, "id": "mPQFg4plAXhR7Mjn3D6AvqArs9g=", "properties": {"@spider": "usps_collection_boxes", "addr:city": "ATLANTA", "addr:country": "US", "addr:full": "55 BENNETT ST NW", "addr:postcode": "30309", "addr:state": "GA", "brand": "USPS", "collection_times": "Mo-Sa 10:00", "name": "USPS COLLECTION BOX - BLUE BOX", "ref": "3030900023"}, "type": "Feature"}
{"geometry": {"coordinates": [-84.3934935, 33.810288], "type": "Point"}, "id": "dGlx43OGLo_NV6mWs-TzUjh6xvk=", "properties": {"@spider": "usps_collection_boxes", "addr:city": "ATLANTA", "addr:country": "US", "addr:full": "2020 PEACHTREE RD NE", "addr:postcode": "30309", "addr:state": "GA", "brand": "USPS", "collection_times": "Mo-Fr 10:00", "name": "USPS COLLECTION BOX - BLUE BOX", "ref": "3030900068"}, "type": "Feature"}
{"geometry": {"coordinates": [-84.3928778, 33.81387], "type": "Point"}, "id": "jI7J_OsY8C8opFEJqrV7vIF7sFI=", "properties": {"@spider": "usps_collection_boxes", "addr:city": "ATLANTA", "addr:country": "US", "addr:full": "173 COLONIAL HOMES DR NW", "addr:postcode": "30309", "addr:state": "GA", "brand": "USPS", "collection_times": "Mo-Sa 10:00", "name": "USPS COLLECTION BOX - BLUE BOX", "ref": "3030900071"}, "type": "Feature"}
{"geometry": {"coordinates": [-84.3879157, 33.784067], "type": "Point"}, "id": "frrIst5J7xHIsH1Pk4mwx0EZiT8=", "properties": {"@spider": "usps_collection_boxes", "addr:city": "ATLANTA", "addr:country": "US", "addr:full": "1072 W PEACHTREE ST NW", "addr:postcode": "30309", "addr:state": "GA", "brand": "USPS", "collection_times": "Mo-Fr 17:00; Sa 13:30", "name": "USPS COLLECTION BOX - BLUE BOX", "note": "ON 12/24 AND 12/31, THIS BOX MAY BE COLLECTED AS EARLY AS 12 NOON.", "ref": "3030900074"}, "type": "Feature"}
{"geometry": {"coordinates": [-84.39273, 33.804135], "type": "Point"}, "id": "NDTlIJ44DyH7WXVTPkdbwSYzYyk=", "properties": {"@spider": "usps_collection_boxes", "addr:city": "ATLANTA", "addr:country": "US", "addr:full": "1801 PEACHTREE ST NE", "addr:postcode": "30309", "addr:state": "GA", "brand": "USPS", "collection_times": "Mo-Fr 11:00", "name": "USPS COLLECTION BOX - BLUE BOX", "ref": "3030900087"}, "type": "Feature"}
{"geometry": {"coordinates": [-84.386154586, 33.792153582], "type": "Point"}, "id": "oJRjH4B9qIjyhLbjv52D5UaHOYE=", "properties": {"@spider": "usps_collection_boxes", "addr:city": "ATLANTA", "addr:country": "US", "addr:full": "1372 PEACHTREE ST NE", "addr:postcode": "30309", "addr:state": "GA", "brand": "USPS", "collection_times": "Mo-Sa 10:00", "name": "USPS COLLECTION BOX - BLUE BOX", "ref": "3030900102"}, "type": "Feature"}
{"geometry": {"coordinates": [-84.3900942, 33.812318], "type": "Point"}, "id": "f-vrGPKHuoAvWNy6ukXYqEUhJfc=", "properties": {"@spider": "usps_collection_boxes", "addr:city": "ATLANTA", "addr:country": "US", "addr:full": "67 PEACHTREE PARK DR NE", "addr:postcode": "30309", "addr:state": "GA", "brand": "USPS", "collection_times": "Mo-Sa 10:00", "name": "USPS COLLECTION BOX - BLUE BOX", "ref": "3030900111"}, "type": "Feature"}
{"geometry": {"coordinates": [-84.3804733, 33.78144], "type": "Point"}, "id": "J6AGKSG98cimTSTu-rJq9iGmNBk=", "properties": {"@spider": "usps_collection_boxes", "addr:city": "ATLANTA", "addr:country": "US", "addr:full": "987 PIEDMONT AVE NE", "addr:postcode": "30309", "addr:state": "GA", "brand": "USPS", "collection_times": "Mo-Sa 10:00", "name": "USPS COLLECTION BOX - BLUE BOX", "ref": "3030900114"}, "type": "Feature"}
{"geometry": {"coordinates": [-84.3850569, 33.779583], "type": "Point"}, "id": "tGmpvjBLFF6RXMzPKUtaHVSSIVQ=", "properties": {"@spider": "usps_collection_boxes", "addr:city": "ATLANTA", "addr:country": "US", "addr:full": "60 8TH ST NE", "addr:postcode": "30309", "addr:state": "GA", "brand": "USPS", "collection_times": "Mo-Fr 10:00", "name": "USPS COLLECTION BOX - BLUE BOX", "ref": "3030900129"}, "type": "Feature"}
{"geometry": {"coordinates": [-84.387834, 33.784092], "type": "Point"}, "id": "bXYW8U8GrcVfSQe_HiWS48pS4Pg=", "properties": {"@spider": "usps_collection_boxes", "addr:city": "ATLANTA", "addr:country": "US", "addr:full": "1072 W PEACHTREE ST NW", "addr:postcode": "30309", "addr:state": "GA", "brand": "USPS", "collection_times": "Mo-Fr 17:00; Sa 13:30", "name": "USPS COLLECTION BOX - PO LOBBY", "note": "ON 12/24 AND 12/31, THIS BOX MAY BE COLLECTED AS EARLY AS 12 NOON.", "ref": "3030900135"}, "type": "Feature"}
{"geometry": {"coordinates": [-84.3922845, 33.802263], "type": "Point"}, "id": "ChQJwJOsCU0gEKHfPcKbbsetPIg=", "properties": {"@spider": "usps_collection_boxes", "addr:city": "ATLANTA", "addr:country": "US", "addr:full": "1753 PEACHTREE ST NE", "addr:postcode": "30309", "addr:state": "GA", "brand": "USPS", "collection_times": "Mo-Sa 11:00", "name": "USPS COLLECTION BOX - BLUE BOX", "ref": "3030900143"}, "type": "Feature"}
{"geometry": {"coordinates": [-84.3892229, 33.793452], "type": "Point"}, "id": "PRyzS_jLOPRs5tRxBWTgg2h8T_E=", "properties": {"@spider": "usps_collection_boxes", "addr:city": "ATLANTA", "addr:country": "US", "addr:full": "1440 SPRING ST NW", "addr:postcode": "30309", "addr:state": "GA", "brand": "USPS", "collection_times": "Mo-Fr 10:00", "name": "USPS COLLECTION BOX - BLUE BOX", "ref": "3030900149"}, "type": "Feature"}
{"geometry": {"coordinates": [-84.3964264, 33.797408], "type": "Point"}, "id": "45LBBoWOjpqp1X-OIzUh-q4gVyw=", "properties": {"@spider": "usps_collection_boxes", "addr:city": "ATLANTA", "addr:country": "US", "addr:full": "1545 LORING DR NW", "addr:postcode": "30309", "addr:state": "GA", "brand": "USPS", "collection_times": "Mo-Sa 10:00", "name": "USPS COLLECTION BOX - BLUE BOX", "ref": "3030900160"}, "type": "Feature"}
{"geometry": {"coordinates": [-84.3879249, 33.784035], "type": "Point"}, "id": "tRPS83j7uYewiKqF4vgjZ9qOJ-k=", "properties": {"@spider": "usps_collection_boxes", "addr:city": "ATLANTA", "addr:country": "US", "addr:full": "1072 W PEACHTREE ST NW", "addr:postcode": "30309", "addr:state": "GA", "brand": "USPS", "collection_times": "Mo-Fr 17:00; Sa 13:30", "name": "USPS COLLECTION BOX - BLUE BOX", "note": "ON 12/24 AND 12/31, THIS BOX MAY BE COLLECTED AS EARLY AS 12 NOON.", "ref": "3030900171"}, "type": "Feature"}
{"geometry": {"coordinates": [-84.387836559, 33.784083199], "type": "Point"}, "id": "1kdh5-buR-zb1Fd3-nAAlIR7GoU=", "properties": {"@spider": "usps_collection_boxes", "addr:city": "ATLANTA", "addr:country": "US", "addr:full": "1072 W PEACHTREE ST NW", "addr:postcode": "30309", "addr:state": "GA", "brand": "USPS", "collection_times": "Mo-Fr 17:00", "name": "USPS COLLECTION BOX - PO LOBBY", "note": "ON 12/24 AND 12/31, THIS BOX MAY BE COLLECTED AS EARLY AS 12 NOON.", "ref": "3030900177"}, "type": "Feature"}
{"geometry": {"coordinates": [-84.415617, 33.735447], "type": "Point"}, "id": "Zk3jzYUi6KlD1zDWKm0-kdA6m8A=", "properties": {"@spider": "usps_collection_boxes", "addr:city": "ATLANTA", "addr:country": "US", "addr:full": "848 OGLETHORPE AVE SW", "addr:postcode": "30310", "addr:state": "GA", "brand": "USPS", "collection_times": "Mo-Fr 17:00; Sa 16:00", "name": "USPS COLLECTION BOX - BLUE BOX", "note": "ON 12/24 AND 12/31, THIS BOX MAY BE COLLECTED AS EARLY AS 12 NOON.", "ref": "3031000012"}, "type": "Feature"}
{"geometry": {"coordinates": [-84.4335754, 33.73757], "type": "Point"}, "id": "Tailgh6nJwrenpCpAx5WX7Q7utc=", "properties": {"@spider": "usps_collection_boxes", "addr:city": "ATLANTA", "addr:country": "US", "addr:full": "590 CASCADE AVE SW", "addr:postcode": "30310", "addr:state": "GA", "brand": "USPS", "collection_times": "Mo-Sa 10:30", "name": "USPS COLLECTION BOX - BLUE BOX", "ref": "3031000052"}, "type": "Feature"}
{"geometry": {"coordinates": [-84.4157699, 33.735579], "type": "Point"}, "id": "lvWq0M902RPowjO6llzi5ZgnuDg=", "properties": {"@spider": "usps_collection_boxes", "addr:city": "ATLANTA", "addr:country": "US", "addr:full": "848 OGLETHORPE AVE SW", "addr:postcode": "30310", "addr:state": "GA", "brand": "USPS", "collection_times": "Mo-Fr 17:00; Sa 16:00", "name": "USPS COLLECTION BOX - PO LOBBY", "note": "ON 12/24 AND 12/31, THIS BOX MAY BE COLLECTED AS EARLY AS 12 NOON.", "ref": "3031000064"}, "type": "Feature"}
{"geometry": {"coordinates": [-84.4288162, 33.708876], "type": "Point"}, "id": "ZyEF7ePh_txNRwobW2gD7iwX-_4=", "properties": {"@spider": "usps_collection_boxes", "addr:city": "ATLANTA", "addr:country": "US", "addr:full": "1537 HANEY PLAZA", "addr:postcode": "30310", "addr:state": "GA", "brand": "USPS", "collection_times": "Mo-Sa 09:00", "name": "USPS COLLECTION BOX - BLUE BOX", "ref": "3031000068"}, "type": "Feature"}
{"geometry": {"coordinates": [-84.4158105, 33.735800498], "type": "Point"}, "id": "_ZU_8a7zEvSvmrF9FDm7fFwgEQA=", "properties": {"@spider": "usps_collection_boxes", "addr:city": "ATLANTA", "addr:country": "US", "addr:full": "848 OGLETHORPE AVE SW", "addr:postcode": "30310", "addr:state": "GA", "brand": "USPS", "collection_times": "Mo-Fr 17:00", "name": "USPS COLLECTION BOX - PO LOBBY", "note": "ON 12/24 AND 12/31, THIS BOX MAY BE COLLECTED AS EARLY AS 12 NOON.", "ref": "3031000070"}, "type": "Feature"}
{"geometry": {"coordinates": [-84.4682207, 33.751936], "type": "Point"}, "id": "NzhsPsKDzYkSmjRrHfZ7jqSzt2k=", "properties": {"@spider": "usps_collection_boxes", "addr:city": "ATLANTA", "addr:country": "US", "addr:full": "2460 MLK JR DR SW", "addr:postcode": "30311", "addr:state": "GA", "brand": "USPS", "collection_times": "Mo-Sa 09:00", "name": "USPS COLLECTION BOX - BLUE BOX", "ref": "3031100008"}, "type": "Feature"}
{"geometry": {"coordinates": [-84.4869569, 33.752028], "type": "Point"}, "id": "gIgB8gZ9nvl0WxR3n8ybmaJ_2YA=", "properties": {"@spider": "usps_collection_boxes", "addr:city": "ATLANTA", "addr:country": "US", "addr:full": "3050 MLK JR DR SW", "addr:postcode": "30311", "addr:state": "GA", "brand": "USPS", "collection_times": "Mo-Sa 09:00", "name": "USPS COLLECTION BOX - BLUE BOX", "ref": "3031100012"}, "type": "Feature"}
{"geometry": {"coordinates": [-84.4742847, 33.752923], "type": "Point"}, "id": "N-kkc8l0QdiBwrzzAH3orIU_r84=", "properties": {"@spider": "usps_collection_boxes", "addr:city": "ATLANTA", "addr:country": "US", "addr:full": "2636 MLK JR DR SW", "addr:postcode": "30311", "addr:state": "GA", "brand": "USPS", "collection_times": "Mo-Sa 09:00", "name": "USPS COLLECTION BOX - BLUE BOX", "ref": "3031100015"}, "type": "Feature"}
{"geometry": {"coordinates": [-84.4727852, 33.753175], "type": "Point"}, "id": "XfefLB5A4I6eOM29eiIgBjoNQnc=", "properties": {"@spider": "usps_collection_boxes", "addr:city": "ATLANTA", "addr:country": "US", "addr:full": "2600 MLK JR DR SW", "addr:postcode": "30311", "addr:state": "GA", "brand": "USPS", "collection_times": "Mo-Sa 09:00", "name": "USPS COLLECTION BOX - BLUE BOX", "ref": "3031100016"}, "type": "Feature"}
{"geometry": {"coordinates": [-84.4626799, 33.723534], "type": "Point"}, "id": "TsDV6_PPurjAMlH9LQtDbUIQLJk=", "properties": {"@spider": "usps_collection_boxes", "addr:city": "ATLANTA", "addr:country": "US", "addr:full": "2414 HERRING RD SW", "addr:postcode": "30311", "addr:state": "GA", "brand": "USPS", "collection_times": "Mo-Fr 17:00; Sa 16:00", "name": "USPS COLLECTION BOX - PO LOBBY", "note": "ON 12/24 AND 12/31, THIS BOX MAY BE COLLECTED AS EARLY AS 12 NOON.", "ref": "3031100018"}, "type": "Feature"}
{"geometry": {"coordinates": [-84.462958985, 33.723512581], "type": "Point"}, "id": "KsAk8W7RTM-ZIf-EtyqRh-h9fZ8=", "properties": {"@spider": "usps_collection_boxes", "addr:city": "ATLANTA", "addr:country": "US", "addr:full": "2414 HERRING RD SW", "addr:postcode": "30311", "addr:state": "GA", "brand": "USPS", "collection_times": "Mo-Fr 17:00; Sa 16:00", "name": "USPS COLLECTION BOX - BLUE BOX", "note": "ON 12/24 AND 12/31, THIS BOX MAY BE COLLECTED AS EARLY AS 12 NOON.", "ref": "3031100019"}, "type": "Feature"}
{"geometry": {"coordinates": [-84.456304, 33.705483], "type": "Point"}, "id": "VGrj2leaTciCBrun1geM4DkU0TM=", "properties": {"@spider": "usps_collection_boxes", "addr:city": "ATLANTA", "addr:country": "US", "addr:full": "2064 CAMPBELLTON RD SW", "addr:postcode": "30311", "addr:state": "GA", "brand": "USPS", "collection_times": "Mo-Sa 10:00", "name": "USPS COLLECTION BOX - BLUE BOX", "ref": "3031100021"}, "type": "Feature"}
{"geometry": {"coordinates": [-84.498868, 33.723884], "type": "Point"}, "id": "Ok1-_HaFgZndXiNlgadVpoztDh0=", "properties": {"@spider": "usps_collection_boxes", "addr:city": "ATLANTA", "addr:country": "US", "addr:full": "3425 CASCADE RD SW", "addr:postcode": "30311", "addr:state": "GA", "brand": "USPS", "collection_times": "Mo-Sa 09:00", "name": "USPS COLLECTION BOX - BLUE BOX", "ref": "3031100028"}, "type": "Feature"}
{"geometry": {"coordinates": [-84.462958985, 33.723503581], "type": "Point"}, "id": "yqVsHoB-rAr389mCIeZwknYzBms=", "properties": {"@spider": "usps_collection_boxes", "addr:city": "ATLANTA", "addr:country": "US", "addr:full": "2414 HERRING RD SW", "addr:postcode": "30311", "addr:state": "GA", "brand": "USPS", "collection_times": "Mo-Fr 17:00; Sa 13:00", "name": "USPS COLLECTION BOX - PO LOBBY", "note": "ON 12/24 AND 12/31, THIS BOX MAY BE COLLECTED AS EARLY AS 12 NOON.", "ref": "3031100033"}, "type": "Feature"}
{"geometry": {"coordinates": [-84.3682686, 33.741709], "type": "Point"}, "id": "bJ-l4UWiUvXVbZQum4pJVoCpdUA=", "properties": {"@spider": "usps_collection_boxes", "addr:city": "ATLANTA", "addr:country": "US", "addr:full": "465 BOULEVARD SE", "addr:postcode": "30312", "addr:state": "GA", "brand": "USPS", "collection_times": "Mo-Sa 09:00", "name": "USPS COLLECTION BOX - BLUE BOX", "ref": "3031200020"}, "type": "Feature"}
{"geometry": {"coordinates": [-84.3650222, 33.733646], "type": "Point"}, "id": "-1rXS6aEPJHWmzbai_b0hVq5f7A=", "properties": {"@spider": "usps_collection_boxes", "addr:city": "ATLANTA", "addr:country": "US", "addr:full": "667 ORMEWOOD AVE SE", "addr:postcode": "30312", "addr:state": "GA", "brand": "USPS", "collection_times": "Mo-Sa 09:00", "name": "USPS COLLECTION BOX - BLUE BOX", "ref": "3031200031"}, "type": "Feature"}
{"geometry": {"coordinates": [-84.3794335, 33.736803], "type": "Point"}, "id": "dnywQOxrTmmoSvSUxqs97HwTmug=", "properties": {"@spider": "usps_collection_boxes", "addr:city": "ATLANTA", "addr:country": "US", "addr:full": "250 GEORGIA AVE SE", "addr:postcode": "30312", "addr:state": "GA", "brand": "USPS", "collection_times": "Mo-Sa 09:00", "name": "USPS COLLECTION BOX - BLUE BOX", "ref": "3031200041"}, "type": "Feature"}
{"geometry": {"coordinates": [-84.3718446, 33.76309], "type": "Point"}, "id": "UDLGbWf9Psvl3WXguyB6YvjrUBk=", "properties": {"@spider": "usps_collection_boxes", "addr:city": "ATLANTA", "addr:country": "US", "addr:full": "315 BOULEVARD AVE", "addr:postcode": "30312", "addr:state": "GA", "brand": "USPS", "collection_times": "Mo-Sa 09:00", "name": "USPS COLLECTION BOX - BLUE BOX", "ref": "3031200043"}, "type": "Feature"}
{"geometry": {"coordinates": [-84.3720515, 33.751265], "type": "Point"}, "id": "kxYi7uohOncXX2RFzUi4i198nIA=", "properties": {"@spider": "usps_collection_boxes", "addr:city": "ATLANTA", "addr:country": "US", "addr:full": "486 DECATUR ST SE", "addr:postcode": "30312", "addr:state": "GA", "brand": "USPS", "collection_times": "Mo-Sa 09:00", "name": "USPS COLLECTION BOX - BLUE BOX", "ref": "3031200044"}, "type": "Feature"}
{"geometry": {"coordinates": [-84.3679889, 33.747757], "type": "Point"}, "id": "TTaVsgqhpJAoPvfVG65m841Ru18=", "properties": {"@spider": "usps_collection_boxes", "addr:city": "ATLANTA", "addr:country": "US", "addr:full": "242 BOULEVARD SE", "addr:postcode": "30312", "addr:state": "GA", "brand": "USPS", "collection_times": "Mo-Sa 09:00", "name": "USPS COLLECTION BOX - BLUE BOX", "ref": "3031200046"}, "type": "Feature"}
{"geometry": {"coordinates": [-84.3754273, 33.755457], "type": "Point"}, "id": "qzXPgVoJmNXqiLWjxq5OE1RzHgM=", "properties": {"@spider": "usps_collection_boxes", "addr:city": "ATLANTA", "addr:country": "US", "addr:full": "375 AUBURN AVE NE", "addr:postcode": "30312", "addr:state": "GA", "brand": "USPS", "collection_times": "Mo-Sa 09:00", "name": "USPS COLLECTION BOX - BLUE BOX", "ref": "3031200051"}, "type": "Feature"}
{"geometry": {"coordinates": [-84.3936176, 33.7681231], "type": "Point"}, "id": "_QElf2CsvKxCm9keXpQBvQU9SE4=", "properties": {"@spider": "usps_collection_boxes", "addr:city": "ATLANTA", "addr:country": "US", "addr:full": "1 AMB DR NW", "addr:postcode": "30313", "addr:state": "GA", "brand": "USPS", "collection_times": "Mo-Sa 10:00", "name": "USPS COLLECTION BOX - BLUE BOX", "ref": "3031300032"}, "type": "Feature"}
{"geometry": {"coordinates": [-84.3919392019, 33.7742134679], "type": "Point"}, "id": "1pkbrKcc6aDpj-shz2QymdY7Ql4=", "properties": {"@spider": "usps_collection_boxes", "addr:city": "ATLANTA", "addr:country": "US", "addr:full": "711 TECHWOOD DR NW", "addr:postcode": "30313", "addr:state": "GA", "brand": "USPS", "collection_times": "Mo-Sa 10:00", "name": "USPS COLLECTION BOX - BLUE BOX", "ref": "3031300038"}, "type": "Feature"}
{"geometry": {"coordinates": [-84.4120932, 33.745366], "type": "Point"}, "id": "9rmzer0NRRkHIrWBsV2EAEqWsOY=", "properties": {"@spider": "usps_collection_boxes", "addr:city": "ATLANTA", "addr:country": "US", "addr:full": "350 SPELMAN LN SW", "addr:postcode": "30314", "addr:state": "GA", "brand": "USPS", "collection_times": "Mo-Sa 10:00", "name": "USPS COLLECTION BOX - BLUE BOX", "ref": "3031400015"}, "type": "Feature"}
{"geometry": {"coordinates": [-84.4129575, 33.755274], "type": "Point"}, "id": "YXHRKQw0JTNiWYOBrN1SIJNB3Ws=", "properties": {"@spider": "usps_collection_boxes", "addr:city": "ATLANTA", "addr:country": "US", "addr:full": "825 M L K JR DR NW", "addr:postcode": "30314", "addr:state": "GA", "brand": "USPS", "collection_times": "Mo-Sa 10:00", "name": "USPS COLLECTION BOX - BLUE BOX", "ref": "3031400022"}, "type": "Feature"}
{"geometry": {"coordinates": [-84.4101989, 33.756005], "type": "Point"}, "id": "Q8MW9a7pfHirlluumLIWqDKcVZE=", "properties": {"@spider": "usps_collection_boxes", "addr:city": "ATLANTA", "addr:country": "US", "addr:full": "50 SUNSET AVE NW", "addr:postcode": "30314", "addr:state": "GA", "brand": "USPS", "collection_times": "Mo-Fr 17:00; Sa 15:30", "name": "USPS COLLECTION BOX - PO LOBBY", "note": "ON 12/24 AND 12/31, THIS BOX MAY BE COLLECTED AS EARLY AS 12 NOON.", "ref": "3031400054"}, "type": "Feature"}
{"geometry": {"coordinates": [-84.4005524, 33.768247], "type": "Point"}, "id": "89M9UkD9ZYaFzl60nuv4J5pRUGw=", "properties": {"@spider": "usps_collection_boxes", "addr:city": "ATLANTA", "addr:country": "US", "addr:full": "384 NORTHYARD BLVD NW", "addr:postcode": "30314", "addr:state": "GA", "brand": "USPS", "collection_times": "Mo-Sa 10:00", "name": "USPS COLLECTION BOX - BLUE BOX", "ref": "3031400065"}, "type": "Feature"}
{"geometry": {"coordinates": [-84.395355432, 33.758448133], "type": "Point"}, "id": "NPfl0GSkne_4zEQB9eFRYU1MyG4=", "properties": {"@spider": "usps_collection_boxes", "addr:city": "ATLANTA", "addr:country": "US", "addr:full": "285 ANDREW YOUNG INTERNATIONAL BLVD NW", "addr:postcode": "30314", "addr:state": "GA", "brand": "USPS", "collection_times": "Mo-Sa 10:00", "name": "USPS COLLECTION BOX - BLUE BOX", "ref": "3031400066"}, "type": "Feature"}
{"geometry": {"coordinates": [-84.410063551, 33.755922], "type": "Point"}, "id": "d48H8TLWxfLwwFcIIoltTMB08EQ=", "properties": {"@spider": "usps_collection_boxes", "addr:city": "ATLANTA", "addr:country": "US", "addr:full": "50 SUNSET AVE NW", "addr:postcode": "30314", "addr:state": "GA", "brand": "USPS", "collection_times": "Mo-Fr 17:00", "name": "USPS COLLECTION BOX - PO LOBBY", "note": "ON 12/24 AND 12/31, THIS BOX MAY BE COLLECTED AS EARLY AS 12 NOON.", "ref": "3031400067"}, "type": "Feature"}
{"geometry": {"coordinates": [-84.3735499, 33.734051], "type": "Point"}, "id": "hP9qP6zQ2kwO572-arN2XPSFvn4=", "properties": {"@spider": "usps_collection_boxes", "addr:city": "ATLANTA", "addr:country": "US", "addr:full": "800 CHEROKEE AVE SE", "addr:postcode": "30315", "addr:state": "GA", "brand": "USPS", "collection_times": "Mo-Sa 09:00", "name": "USPS COLLECTION BOX - BLUE BOX", "ref": "3031500009"}, "type": "Feature"}
{"geometry": {"coordinates": [-84.389211402, 33.6810092941], "type": "Point"}, "id": "rtxYl7S6PDH4lDvA1BkQLfURTWk=", "properties": {"@spider": "usps_collection_boxes", "addr:city": "ATLANTA", "addr:country": "US", "addr:full": "26 CLEVELAND AVE", "addr:postcode": "30315", "addr:state": "GA", "brand": "USPS", "collection_times": "Mo-Sa 10:00", "name": "USPS COLLECTION BOX - BLUE BOX", "ref": "3031500012"}, "type": "Feature"}
{"geometry": {"coordinates": [-84.3961283, 33.679877], "type": "Point"}, "id": "FP3b4xyvFNiWw6daS9-JDQ0RzaY=", "properties": {"@spider": "usps_collection_boxes", "addr:city": "ATLANTA", "addr:country": "US", "addr:full": "230 CLEVELAND AVE SW", "addr:postcode": "30315", "addr:state": "GA", "brand": "USPS", "collection_times": "Mo-Sa 10:00", "name": "USPS COLLECTION BOX - BLUE BOX", "ref": "3031500014"}, "type": "Feature"}
{"geometry": {"coordinates": [-84.4147808, 33.682008], "type": "Point"}, "id": "-rgnWuWfW94Om377CMEb0tKgCO0=", "properties": {"@spider": "usps_collection_boxes", "addr:city": "ATLANTA", "addr:country": "US", "addr:full": "777 CLEVELAND AVE SW", "addr:postcode": "30315", "addr:state": "GA", "brand": "USPS", "collection_times": "Mo-Sa 10:00", "name": "USPS COLLECTION BOX - BLUE BOX", "ref": "3031500015"}, "type": "Feature"}
{"geometry": {"coordinates": [-84.3898604963, 33.7211160944], "type": "Point"}, "id": "2F8HCoyXzfajXY-JmqF0oY3LGEY=", "properties": {"@spider": "usps_collection_boxes", "addr:city": "ATLANTA", "addr:country": "US", "addr:full": "71 UNIVERSITY AVE SW", "addr:postcode": "30315", "addr:state": "GA", "brand": "USPS", "collection_times": "Mo-Sa 09:00", "name": "USPS COLLECTION BOX - BLUE BOX", "ref": "3031500054"}, "type": "Feature"}
{"geometry": {"coordinates": [-84.4168584, 33.678915], "type": "Point"}, "id": "A9EvAU6L9UQ8Fu4VQENUx3XoDjc=", "properties": {"@spider": "usps_collection_boxes", "addr:city": "ATLANTA", "addr:country": "US", "addr:full": "844 CLEVELAND AVE", "addr:postcode": "30315", "addr:state": "GA", "brand": "USPS", "collection_times": "Mo-Sa 10:00", "name": "USPS COLLECTION BOX - BLUE BOX", "ref": "3031500055"}, "type": "Feature"}
{"geometry": {"coordinates": [-84.3807854, 33.709219], "type": "Point"}, "id": "p9VDmfraplcPJhZnaP_Cn4749L0=", "properties": {"@spider": "usps_collection_boxes", "addr:city": "ATLANTA", "addr:country": "US", "addr:full": "1590 JONESBORO RD SE", "addr:postcode": "30315", "addr:state": "GA", "brand": "USPS", "collection_times": "Mo-Fr 17:00; Sa 14:00", "name": "USPS COLLECTION BOX - PO LOBBY", "note": "ON 12/24 AND 12/31, THIS BOX MAY BE COLLECTED AS EARLY AS 12 NOON.", "ref": "3031500067"}, "type": "Feature"}
{"geometry": {"coordinates": [-84.3830478, 33.714266], "type": "Point"}, "id": "8Zjt098YBFtKxcD1NxWGqopmDKI=", "properties": {"@spider": "usps_collection_boxes", "addr:city": "ATLANTA", "addr:country": "US", "addr:full": "1477 JONESBORO RD SE", "addr:postcode": "30315", "addr:state": "GA", "brand": "USPS", "collection_times": "Mo-Fr 09:00; Sa 10:00", "name": "USPS COLLECTION BOX - BLUE BOX", "ref": "3031500071"}, "type": "Feature"}
{"geometry": {"coordinates": [-84.4087653, 33.698008], "type": "Point"}, "id": "IpYfEDg8I_Sek58kVWJwVYLOhXM=", "properties": {"@spider": "usps_collection_boxes", "addr:city": "ATLANTA", "addr:country": "US", "addr:full": "2053 METROPOLITAN PKWY SW", "addr:postcode": "30315", "addr:state": "GA", "brand": "USPS", "collection_times": "Mo-Sa 09:00", "name": "USPS COLLECTION BOX - BLUE BOX", "ref": "3031500072"}, "type": "Feature"}
{"geometry": {"coordinates": [-84.4078864, 33.682213], "type": "Point"}, "id": "0jT4cwv4zs5CLkGNPoMJM6zIUK4=", "properties": {"@spider": "usps_collection_boxes", "addr:city": "ATLANTA", "addr:country": "US", "addr:full": "2685 METROPOLITAN PKWY SW", "addr:postcode": "30315", "addr:state": "GA", "brand": "USPS", "collection_times": "Mo-Sa 10:00", "name": "USPS COLLECTION BOX - BLUE BOX", "ref": "3031500073"}, "type": "Feature"}
{"geometry": {"coordinates": [-84.381123556, 33.70915253], "type": "Point"}, "id": "14Ko6YpB38gP_J5x0ZzxSye0Dc0=", "properties": {"@spider": "usps_collection_boxes", "addr:city": "ATLANTA", "addr:country": "US", "addr:full": "1590 JONESBORO RD SE", "addr:postcode": "30315", "addr:state": "GA", "brand": "USPS", "collection_times": "Mo-Fr 17:00", "name": "USPS COLLECTION BOX - PO LOBBY", "note": "ON 12/24 AND 12/31, THIS BOX MAY BE COLLECTED AS EARLY AS 12 NOON.", "ref": "3031500075"}, "type": "Feature"}
{"geometry": {"coordinates": [-84.345787, 33.741943], "type": "Point"}, "id": "jZ5cvBZ3RnkQGymZm1CK3Yx9ak8=", "properties": {"@spider": "usps_collection_boxes", "addr:city": "ATLANTA", "addr:country": "US", "addr:full": "1273 METROPOLITAN AVE SE", "addr:postcode": "30316", "addr:state": "GA", "brand": "USPS", "collection_times": "Mo-Fr 17:00; Sa 15:00", "name": "USPS COLLECTION BOX - BLUE BOX", "note": "ON 12/24 AND 12/31, THIS BOX MAY BE COLLECTED AS EARLY AS 12 NOON.", "ref": "3031600005"}, "type": "Feature"}
{"geometry": {"coordinates": [-84.3095587, 33.687958], "type": "Point"}, "id": "_VhiUaBziKqawk0coKFWcOm2YsE=", "properties": {"@spider": "usps_collection_boxes", "addr:city": "ATLANTA", "addr:country": "US", "addr:full": "2530 BOULDERCREST RD SE", "addr:postcode": "30316", "addr:state": "GA", "brand": "USPS", "collection_times": "Mo-Sa 09:00", "name": "USPS COLLECTION BOX - BLUE BOX", "ref": "3031600012"}, "type": "Feature"}
{"geometry": {"coordinates": [-84.345787, 33.741943], "type": "Point"}, "id": "56lWFj5rszx5BjQfpptth6wojBU=", "properties": {"@spider": "usps_collection_boxes", "addr:city": "ATLANTA", "addr:country": "US", "addr:full": "1273 METROPOLITAN AVE SE", "addr:postcode": "30316", "addr:state": "GA", "brand": "USPS", "collection_times": "Mo-Fr 17:00; Sa 15:00", "name": "USPS COLLECTION BOX - BLUE BOX", "note": "ON 12/24 AND 12/31, THIS BOX MAY BE COLLECTED AS EARLY AS 12 NOON.", "ref": "3031600021"}, "type": "Feature"}
{"geometry": {"coordinates": [-84.345787, 33.741943], "type": "Point"}, "id": "JfcSeWrQ_bbb0IHr6hSuiMS00lU=", "properties": {"@spider": "usps_collection_boxes", "addr:city": "ATLANTA", "addr:country": "US", "addr:full": "1273 METROPOLITAN AVE SE", "addr:postcode": "30316", "addr:state": "GA", "brand": "USPS", "collection_times": "Mo-Fr 17:00; Sa 15:00", "name": "USPS COLLECTION BOX - PO LOBBY", "note": "ON 12/24 AND 12/31, THIS BOX MAY BE COLLECTED AS EARLY AS 12 NOON.", "ref": "3031600022"}, "type": "Feature"}
{"geometry": {"coordinates": [-84.345954686, 33.742207155], "type": "Point"}, "id": "larPoStw1x0M0gSZ9A3AAaPtACI=", "properties": {"@spider": "usps_collection_boxes", "addr:city": "ATLANTA", "addr:country": "US", "addr:full": "1273 METROPOLITAN AVE SE", "addr:postcode": "30316", "addr:state": "GA", "brand": "USPS", "collection_times": "Mo-Fr 17:00; Sa 13:00", "name": "USPS COLLECTION BOX - PO LOBBY", "note": "ON 12/24 AND 12/31, THIS BOX MAY BE COLLECTED AS EARLY AS 12 NOON.", "ref": "3031600024"}, "type": "Feature"}
{"geometry": {"coordinates": [-84.3243899, 33.752885], "type": "Point"}, "id": "0TSjVvPd9yicsuELf_BpHKZ-8iM=", "properties": {"@spider": "usps_collection_boxes", "addr:city": "ATLANTA", "addr:country": "US", "addr:full": "1926 HOSEA L WILLIAMS DR NE", "addr:postcode": "30317", "addr:state": "GA", "brand": "USPS", "collection_times": "Mo-Fr 17:00; Sa 15:00", "name": "USPS COLLECTION BOX - PO LOBBY", "note": "ON 12/24 AND 12/31, THIS BOX MAY BE COLLECTED AS EARLY AS 12 NOON.", "ref": "3031700008"}, "type": "Feature"}
{"geometry": {"coordinates": [-84.32458865, 33.752611318], "type": "Point"}, "id": "fikYwiMzrgWSqfXRUzu0-FC7F10=", "properties": {"@spider": "usps_collection_boxes", "addr:city": "ATLANTA", "addr:country": "US", "addr:full": "1926 HOSEA L WILLIAMS DR NE", "addr:postcode": "30317", "addr:state": "GA", "brand": "USPS", "collection_times": "Mo-Fr 17:00", "name": "USPS COLLECTION BOX - PO LOBBY", "note": "ON 12/24 AND 12/31, THIS BOX MAY BE COLLECTED AS EARLY AS 12 NOON.", "ref": "3031700009"}, "type": "Feature"}
{"geometry": {"coordinates": [-84.4070591, 33.794174], "type": "Point"}, "id": "Cr6dm_SY1ZtHlwXzFXl8jzLcyLo=", "properties": {"@spider": "usps_collection_boxes", "addr:city": "ATLANTA", "addr:country": "US", "addr:full": "1465 NORTHSIDE DR NW", "addr:postcode": "30318", "addr:state": "GA", "brand": "USPS", "collection_times": "Mo-Sa 10:00", "name": "USPS COLLECTION BOX - BLUE BOX", "ref": "3031800018"}, "type": "Feature"}
{"geometry": {"coordinates": [-84.4052030136, 33.7738020372], "type": "Point"}, "id": "FgILgiQpT4BHyvwIuu3tUIHz0Lk=", "properties": {"@spider": "usps_collection_boxes", "addr:city": "ATLANTA", "addr:country": "US", "addr:full": "794 MARIETTA ST NW", "addr:postcode": "30318", "addr:state": "GA", "brand": "USPS", "collection_times": "Mo-Fr 17:00; Sa 13:00", "name": "USPS COLLECTION BOX - BLUE BOX", "note": "ON 12/24 AND 12/31, THIS BOX MAY BE COLLECTED AS EARLY AS 12 NOON.", "ref": "3031800040"}, "type": "Feature"}
{"geometry": {"coordinates": [-84.4127403977, 33.7808604949], "type": "Point"}, "id": "INvTYtUkCuMtEqtVpwHOL1nNMe4=", "properties": {"@spider": "usps_collection_boxes", "addr:city": "ATLANTA", "addr:country": "US", "addr:full": "967 BRADY AVE NW", "addr:postcode": "30318", "addr:state": "GA", "brand": "USPS", "collection_times": "Mo-Fr 17:00; Sa 16:00", "name": "USPS COLLECTION BOX - BLUE BOX", "note": "ON 12/24 AND 12/31, THIS BOX MAY BE COLLECTED AS EARLY AS 12 NOON.", "ref": "3031800041"}, "type": "Feature"}
{"geometry": {"coordinates": [-84.4138641, 33.801779], "type": "Point"}, "id": "7RP8phtZyx6Tnhcm-AIUn8oCwnE=", "properties": {"@spider": "usps_collection_boxes", "addr:city": "ATLANTA", "addr:country": "US", "addr:full": "1715 HOWELL MILL RD NW", "addr:postcode": "30318", "addr:state": "GA", "brand": "USPS", "collection_times": "Mo-Sa 10:00", "name": "USPS COLLECTION BOX - BLUE BOX", "ref": "3031800099"}, "type": "Feature"}
{"geometry": {"coordinates": [-84.4157265, 33.781385], "type": "Point"}, "id": "h36eLBC0xdnvc2HsThyJ1I9GQ8E=", "properties": {"@spider": "usps_collection_boxes", "addr:city": "ATLANTA", "addr:country": "US", "addr:full": "887 W MARIETTA ST NW", "addr:postcode": "30318", "addr:state": "GA", "brand": "USPS", "collection_times": "Mo-Sa 10:00", "name": "USPS COLLECTION BOX - BLUE BOX", "ref": "3031800112"}, "type": "Feature"}
{"geometry": {"coordinates": [-84.4779009, 33.803141], "type": "Point"}, "id": "KKyyp-NpzWRqH8XiHiwr6dyXQ_0=", "properties": {"@spider": "usps_collection_boxes", "addr:city": "ATLANTA", "addr:country": "US", "addr:full": "1800 JAMES JACKSON PKWY NW", "addr:postcode": "30318", "addr:state": "GA", "brand": "USPS", "collection_times": "Mo-Sa 09:00", "name": "USPS COLLECTION BOX - BLUE BOX", "ref": "3031800125"}, "type": "Feature"}
{"geometry": {"coordinates": [-84.405202762, 33.773802037], "type": "Point"}, "id": "bi1ybi-xy19_RDS5wG50bVeXhDk=", "properties": {"@spider": "usps_collection_boxes", "addr:city": "ATLANTA", "addr:country": "US", "addr:full": "794 MARIETTA ST NW", "addr:postcode": "30318", "addr:state": "GA", "brand": "USPS", "collection_times": "Mo-Fr 17:00", "name": "USPS COLLECTION BOX - PO LOBBY", "note": "ON 12/24 AND 12/31, THIS BOX MAY BE COLLECTED AS EARLY AS 12 NOON.", "ref": "3031800132"}, "type": "Feature"}
{"geometry": {"coordinates": [-84.404371028, 33.640950511], "type": "Point"}, "id": "TxqdBBUvG1fO1Ln25Tg4dEZEO4g=", "properties": {"@spider": "usps_collection_boxes", "addr:city": "ATLANTA", "addr:country": "US", "addr:full": "2310 MAYNARD H JACKSON JR BLVD", "addr:postcode": "30320", "addr:state": "GA", "brand": "USPS", "collection_times": "Mo-Fr 16:00", "name": "USPS COLLECTION BOX - PO LOBBY", "note": "ON 12/24 AND 12/31, THIS BOX MAY BE COLLECTED AS EARLY AS 12 NOON.", "ref": "3032000002"}, "type": "Feature"}
{"geometry": {"coordinates": [-84.3933573978, 33.6511331407], "type": "Point"}, "id": "x2kS1juZmGMk2VM8XXjkX4v0lJs=", "properties": {"@spider": "usps_collection_boxes", "addr:city": "ATLANTA", "addr:country": "US", "addr:full": "3900 CROWN RD", "addr:postcode": "30321", "addr:state": "GA", "brand": "USPS", "collection_times": "Mo-Sa 19:00", "name": "USPS COLLECTION BOX - BLUE BOX", "note": "ON 12/24 AND 12/31, THIS BOX MAY BE COLLECTED AS EARLY AS 12 NOON.", "ref": "3032100003"}, "type": "Feature"}
{"geometry": {"coordinates": [-84.394162259, 33.6518588756], "type": "Point"}, "id": "ZVzEHLECwi4AHjTtk59nhc2LjU0=", "properties": {"@spider": "usps_collection_boxes", "addr:city": "ATLANTA", "addr:country": "US", "addr:full": "3900 CROWN", "addr:postcode": "30321", "addr:state": "GA", "brand": "USPS", "collection_times": "Mo-Sa 19:00", "name": "USPS COLLECTION BOX - BLUE BOX", "note": "ON 12/24 AND 12/31, THIS BOX MAY BE COLLECTED AS EARLY AS 12 NOON.", "ref": "3032100007"}, "type": "Feature"}
{"geometry": {"coordinates": [-84.3933573978, 33.6511331407], "type": "Point"}, "id": "Of9TEjqzQj-MorRiG8NoGSwlguI=", "properties": {"@spider": "usps_collection_boxes", "addr:city": "ATLANTA", "addr:country": "US", "addr:full": "3900 CROWN RD", "addr:postcode": "30321", "addr:state": "GA", "brand": "USPS", "collection_times": "Mo-Sa 19:00", "name": "USPS COLLECTION BOX - PO LOBBY", "note": "ON 12/24 AND 12/31, THIS BOX MAY BE COLLECTED AS EARLY AS 12 NOON.", "ref": "3032100011"}, "type": "Feature"}
{"geometry": {"coordinates": [-84.3898998466, 33.7975500021], "type": "Point"}, "id": "bqhTih2whc6wyoaxmoqkaMZ1f6k=", "properties": {"@spider": "usps_collection_boxes", "addr:city": "ATLANTA", "addr:country": "US", "addr:full": "3900 CROWN", "addr:postcode": "30321", "addr:state": "GA", "brand": "USPS", "collection_times": "Mo-Sa 19:00", "name": "USPS COLLECTION BOX - APC", "note": "ON 12/24 AND 12/31, THIS BOX MAY BE COLLECTED AS EARLY AS 12 NOON.", "ref": "3032100012"}, "type": "Feature"}
{"geometry": {"coordinates": [-84.3672639, 33.791785], "type": "Point"}, "id": "7EpINE7zPKuncD-h7c-tKyf9RSo=", "properties": {"@spider": "usps_collection_boxes", "addr:city": "ATLANTA", "addr:country": "US", "addr:full": "593 DUTCH VALLEY RD NE", "addr:postcode": "30324", "addr:state": "GA", "brand": "USPS", "collection_times": "Mo-Sa 10:00", "name": "USPS COLLECTION BOX - BLUE BOX", "ref": "3032400015"}, "type": "Feature"}
{"geometry": {"coordinates": [-84.3673865, 33.807651], "type": "Point"}, "id": "5eQcjHmK3E0ao_88ltrik61XsiQ=", "properties": {"@spider": "usps_collection_boxes", "addr:city": "ATLANTA", "addr:country": "US", "addr:full": "1874 PIEDMONT AVE NE", "addr:postcode": "30324", "addr:state": "GA", "brand": "USPS", "collection_times": "Mo-Sa 10:00", "name": "USPS COLLECTION BOX - BLUE BOX", "ref": "3032400069"}, "type": "Feature"}
{"geometry": {"coordinates": [-84.3706788, 33.798159], "type": "Point"}, "id": "lljwvNNcOr57XbRl-I0g6yXQi8A=", "properties": {"@spider": "usps_collection_boxes", "addr:city": "ATLANTA", "addr:country": "US", "addr:full": "1544 PIEDMONT RD NE", "addr:postcode": "30324", "addr:state": "GA", "brand": "USPS", "collection_times": "Mo-Sa 09:00", "name": "USPS COLLECTION BOX - BLUE BOX", "ref": "3032400080"}, "type": "Feature"}
{"geometry": {"coordinates": [-84.3722299, 33.812049], "type": "Point"}, "id": "x7YuIfnbz3mVtXqJAG6b_tSZOuc=", "properties": {"@spider": "usps_collection_boxes", "addr:city": "ATLANTA", "addr:country": "US", "addr:full": "496 PLASTERS AVE NE", "addr:postcode": "30324", "addr:state": "GA", "brand": "USPS", "collection_times": "Mo-Sa 11:00", "name": "USPS COLLECTION BOX - BLUE BOX", "ref": "3032400081"}, "type": "Feature"}
{"geometry": {"coordinates": [-84.3641274, 33.802141], "type": "Point"}, "id": "fIPeKBh58qh7N0WDpiYRfdfhVkc=", "properties": {"@spider": "usps_collection_boxes", "addr:city": "ATLANTA", "addr:country": "US", "addr:full": "735 WILDWOOD PL NE", "addr:postcode": "30324", "addr:state": "GA", "brand": "USPS", "collection_times": "Mo-Sa 10:00", "name": "USPS COLLECTION BOX - BLUE BOX", "ref": "3032400083"}, "type": "Feature"}
{"geometry": {"coordinates": [-84.4134324, 33.809101], "type": "Point"}, "id": "zu9P1Cr7wLerfoyB8SHNEh2-Ogo=", "properties": {"@spider": "usps_collection_boxes", "addr:city": "ATLANTA", "addr:country": "US", "addr:full": "1984 HOWELL MILL RD NW", "addr:postcode": "30327", "addr:state": "GA", "brand": "USPS", "collection_times": "Mo-Fr 17:00; Sa 16:00", "name": "USPS COLLECTION BOX - BLUE BOX", "note": "ON 12/24 AND 12/31, THIS BOX MAY BE COLLECTED AS EARLY AS 12 NOON.", "ref": "3032700050"}, "type": "Feature"}
{"geometry": {"coordinates": [-84.4134999, 33.808794], "type": "Point"}, "id": "B9Lv-py4-_io63lQ2vdQSHs1XT0=", "properties": {"@spider": "usps_collection_boxes", "addr:city": "ATLANTA", "addr:country": "US", "addr:full": "1984 HOWELL MILL RD NW", "addr:postcode": "30327", "addr:state": "GA", "brand": "USPS", "collection_times": "Mo-Fr 17:00; Sa 16:00", "name": "USPS COLLECTION BOX - PO LOBBY", "note": "ON 12/24 AND 12/31, THIS BOX MAY BE COLLECTED AS EARLY AS 12 NOON.", "ref": "3032700053"}, "type": "Feature"}
{"geometry": {"coordinates": [-84.4135499, 33.808906], "type": "Point"}, "id": "CcJqmPTNlJBaiM38Kt1VE7U8_Ms=", "properties": {"@spider": "usps_collection_boxes", "addr:city": "ATLANTA", "addr:country": "US", "addr:full": "1984 HOWELL MILL RD NW", "addr:postcode": "30327", "addr:state": "GA", "brand": "USPS", "collection_times": "Mo-Fr 17:00; Sa 16:00", "name": "USPS COLLECTION BOX - APC", "note": "ON 12/24 AND 12/31, THIS BOX MAY BE COLLECTED AS EARLY AS 12 NOON.", "ref": "3032700056"}, "type": "Feature"}
{"geometry": {"coordinates": [-84.412883593, 33.808763463], "type": "Point"}, "id": "EsShh1iyeNbkgbBJazY43JGtwvo=", "properties": {"@spider": "usps_collection_boxes", "addr:city": "ATLANTA", "addr:country": "US", "addr:full": "1984 HOWELL MILL RD NW", "addr:postcode": "30327", "addr:state": "GA", "brand": "USPS", "collection_times": "Mo-Fr 17:00; Sa 13:00", "name": "USPS COLLECTION BOX - PO LOBBY", "note": "ON 12/24 AND 12/31, THIS BOX MAY BE COLLECTED AS EARLY AS 12 NOON.", "ref": "3032700060"}, "type": "Feature"}
{"geometry": {"coordinates": [-84.3610085, 33.929356], "type": "Point"}, "id": "9pk4BnefKbdUEKzggFHW45_Rkbk=", "properties": {"@spider": "usps_collection_boxes", "addr:city": "ATLANTA", "addr:country": "US", "addr:full": "800 MOUNT VERNON HWY", "addr:postcode": "30328", "addr:state": "GA", "brand": "USPS", "collection_times": "Mo-Sa 09:00", "name": "USPS COLLECTION BOX - BLUE BOX", "ref": "3032800011"}, "type": "Feature"}
{"geometry": {"coordinates": [-84.3497167, 33.920226], "type": "Point"}, "id": "LhnThKPuQl-dkcMKqo72GsSBC1k=", "properties": {"@spider": "usps_collection_boxes", "addr:city": "ATLANTA", "addr:country": "US", "addr:full": "1140 HAMMOND DR", "addr:postcode": "30328", "addr:state": "GA", "brand": "USPS", "collection_times": "Mo-Sa 10:00", "name": "USPS COLLECTION BOX - BLUE BOX", "ref": "3032800013"}, "type": "Feature"}
{"geometry": {"coordinates": [-84.3792849, 33.928168], "type": "Point"}, "id": "IB7d82ax8zNpE-O8XVDxtk-fu7U=", "properties": {"@spider": "usps_collection_boxes", "addr:city": "ATLANTA", "addr:country": "US", "addr:full": "6344 ROSWELL RD NE", "addr:postcode": "30328", "addr:state": "GA", "brand": "USPS", "collection_times": "Mo-Sa 09:00", "name": "USPS COLLECTION BOX - BLUE BOX", "ref": "3032800044"}, "type": "Feature"}
{"geometry": {"coordinates": [-84.3630261, 33.919282], "type": "Point"}, "id": "xXxtq4OdCBos-89unjJnB1Zrz9Q=", "properties": {"@spider": "usps_collection_boxes", "addr:city": "ATLANTA", "addr:country": "US", "addr:full": "750 HAMMOND DR NE", "addr:postcode": "30328", "addr:state": "GA", "brand": "USPS", "collection_times": "Mo-Sa 10:00", "name": "USPS COLLECTION BOX - BLUE BOX", "ref": "3032800063"}, "type": "Feature"}
{"geometry": {"coordinates": [-84.3875946, 33.913574], "type": "Point"}, "id": "vhGUyB_Sn-BY_0PWc3I3pO2Vw7o=", "properties": {"@spider": "usps_collection_boxes", "addr:city": "ATLANTA", "addr:country": "US", "addr:full": "5784 LAKE FORREST DR NW", "addr:postcode": "30328", "addr:state": "GA", "brand": "USPS", "collection_times": "Mo-Sa 09:00", "name": "USPS COLLECTION BOX - BLUE BOX", "ref": "3032800077"}, "type": "Feature"}
{"geometry": {"coordinates": [-84.3506936, 33.921596], "type": "Point"}, "id": "kb_qPBtRuykBln0EhDYeFF8QbQk=", "properties": {"@spider": "usps_collection_boxes", "addr:city": "ATLANTA", "addr:country": "US", "addr:full": "6111 PEACHTREE DUNWOODY RD NE", "addr:postcode": "30328", "addr:state": "GA", "brand": "USPS", "collection_times": "Mo-Sa 10:00", "name": "USPS COLLECTION BOX - BLUE BOX", "ref": "3032800082"}, "type": "Feature"}
{"geometry": {"coordinates": [-84.3867056, 33.921512], "type": "Point"}, "id": "octcfLMoPag-nDE-b7td9EAADEo=", "properties": {"@spider": "usps_collection_boxes", "addr:city": "ATLANTA", "addr:country": "US", "addr:full": "6075 LAKE FORREST DR", "addr:postcode": "30328", "addr:state": "GA", "brand": "USPS", "collection_times": "Mo-Sa 09:00", "name": "USPS COLLECTION BOX - BLUE BOX", "ref": "3032800087"}, "type": "Feature"}
{"geometry": {"coordinates": [-84.3589673, 33.920828], "type": "Point"}, "id": "5z44p2XfcxRhGC0ZIy1VeLGBzdA=", "properties": {"@spider": "usps_collection_boxes", "addr:city": "ATLANTA", "addr:country": "US", "addr:full": "6085 BARFIELD RD NE", "addr:postcode": "30328", "addr:state": "GA", "brand": "USPS", "collection_times": "Mo-Sa 10:00", "name": "USPS COLLECTION BOX - BLUE BOX", "ref": "3032800088"}, "type": "Feature"}
{"geometry": {"coordinates": [-84.3842469, 33.919766], "type": "Point"}, "id": "6oYOhMtGAvvV9Mb1u4XzIoZGLSE=", "properties": {"@spider": "usps_collection_boxes", "addr:city": "ATLANTA", "addr:country": "US", "addr:full": "6021 SANDY SPRINGS CIR NE", "addr:postcode": "30328", "addr:state": "GA", "brand": "USPS", "collection_times": "Mo-Sa 09:00", "name": "USPS COLLECTION BOX - BLUE BOX", "ref": "3032800099"}, "type": "Feature"}
{"geometry": {"coordinates": [-84.381926, 33.921494], "type": "Point"}, "id": "mRrWeKgQL-cyxbuP7bwl3Lg_7jE=", "properties": {"@spider": "usps_collection_boxes", "addr:city": "ATLANTA", "addr:country": "US", "addr:full": "227 SANDY SPRINGS PL NE STE G", "addr:postcode": "30328", "addr:state": "GA", "brand": "USPS", "collection_times": "Mo-Fr 17:00; Sa 15:00", "name": "USPS COLLECTION BOX - PO LOBBY", "note": "ON 12/24 AND 12/31, THIS BOX MAY BE COLLECTED AS EARLY AS 12 NOON.", "ref": "3032800147"}, "type": "Feature"}
{"geometry": {"coordinates": [-84.381926, 33.921494], "type": "Point"}, "id": "JFYUXpkqYuJLS1GCE0XPi_f9kRM=", "properties": {"@spider": "usps_collection_boxes", "addr:city": "ATLANTA", "addr:country": "US", "addr:full": "227 SANDY SPRINGS PL NE STE G", "addr:postcode": "30328", "addr:state": "GA", "brand": "USPS", "collection_times": "Mo-Fr 17:00; Sa 15:00", "name": "USPS COLLECTION BOX - BLUE BOX", "note": "ON 12/24 AND 12/31, THIS BOX MAY BE COLLECTED AS EARLY AS 12 NOON.", "ref": "3032800159"}, "type": "Feature"}
{"geometry": {"coordinates": [-84.381926, 33.921494], "type": "Point"}, "id": "pYxwKD46zazrTgSaskV5D6V27Ns=", "properties": {"@spider": "usps_collection_boxes", "addr:city": "ATLANTA", "addr:country": "US", "addr:full": "227 SANDY SPRINGS PL NE STE G", "addr:postcode": "30328", "addr:state": "GA", "brand": "USPS", "collection_times": "Mo-Fr 17:00; Sa 15:00", "name": "USPS COLLECTION BOX - BLUE BOX", "note": "ON 12/24 AND 12/31, THIS BOX MAY BE COLLECTED AS EARLY AS 12 NOON.", "ref": "3032800160"}, "type": "Feature"}
{"geometry": {"coordinates": [-84.3543376, 33.946524], "type": "Point"}, "id": "ChrilXmU-kHMjvavBafoNRruP4o=", "properties": {"@spider": "usps_collection_boxes", "addr:city": "ATLANTA", "addr:country": "US", "addr:full": "7000 PEACHTREE DUNWOODY RD", "addr:postcode": "30328", "addr:state": "GA", "brand": "USPS", "collection_times": "Mo-Sa 10:00", "name": "USPS COLLECTION BOX - BLUE BOX", "ref": "3032800161"}, "type": "Feature"}
{"geometry": {"coordinates": [-84.381926, 33.921494], "type": "Point"}, "id": "CdbX3368Vu7VUoCwFtV1W1AfHpM=", "properties": {"@spider": "usps_collection_boxes", "addr:city": "ATLANTA", "addr:country": "US", "addr:full": "227 SANDY SPRINGS PL NE STE G", "addr:postcode": "30328", "addr:state": "GA", "brand": "USPS", "collection_times": "Mo-Fr 17:00; Sa 15:00", "name": "USPS COLLECTION BOX - APC", "note": "ON 12/24 AND 12/31, THIS BOX MAY BE COLLECTED AS EARLY AS 12 NOON.", "ref": "3032800169"}, "type": "Feature"}
{"geometry": {"coordinates": [-84.3630042, 33.919309], "type": "Point"}, "id": "LMrH0JwVPx6zOjLfy3TqgGZHZhI=", "properties": {"@spider": "usps_collection_boxes", "addr:city": "ATLANTA", "addr:country": "US", "addr:full": "750 HAMMOND DR NE", "addr:postcode": "30328", "addr:state": "GA", "brand": "USPS", "collection_times": "Mo-Sa 10:00", "name": "USPS COLLECTION BOX - BLUE BOX", "ref": "3032800171"}, "type": "Feature"}
{"geometry": {"coordinates": [-84.3826295549, 33.9191156657], "type": "Point"}, "id": "fcoOZYlIZCAtVXhVGA9vec8gE8Q=", "properties": {"@spider": "usps_collection_boxes", "addr:city": "ATLANTA", "addr:country": "US", "addr:full": "230 HAMMOND DR STE G", "addr:postcode": "30328", "addr:state": "GA", "brand": "USPS", "collection_times": "Mo-Fr 18:00; Sa 17:00", "name": "USPS COLLECTION BOX - PO LOBBY", "note": "ON 12/24 AND 12/31, THIS BOX MAY BE COLLECTED AS EARLY AS 12 NOON.", "ref": "3032800176"}, "type": "Feature"}
{"geometry": {"coordinates": [-84.51098, 33.692734], "type": "Point"}, "id": "Ln_jXHM-v0_S2OUUkKFhuKTpKec=", "properties": {"@spider": "usps_collection_boxes", "addr:city": "ATLANTA", "addr:country": "US", "addr:full": "2260 FAIRBURN RD SW", "addr:postcode": "30331", "addr:state": "GA", "brand": "USPS", "collection_times": "Mo-Fr 17:00; Sa 13:00", "name": "USPS COLLECTION BOX - PO LOBBY", "note": "ON 12/24 AND 12/31, THIS BOX MAY BE COLLECTED AS EARLY AS 12 NOON.", "ref": "3033100011"}, "type": "Feature"}
{"geometry": {"coordinates": [-84.51098, 33.692734], "type": "Point"}, "id": "n8aJDs_-KjUWr91xsye4KOKoRp4=", "properties": {"@spider": "usps_collection_boxes", "addr:city": "ATLANTA", "addr:country": "US", "addr:full": "2260 FAIRBURN RD SW", "addr:postcode": "30331", "addr:state": "GA", "brand": "USPS", "collection_times": "Mo-Fr 17:00; Sa 13:00", "name": "USPS COLLECTION BOX - BLUE BOX", "note": "ON 12/24 AND 12/31, THIS BOX MAY BE COLLECTED AS EARLY AS 12 NOON.", "ref": "3033100012"}, "type": "Feature"}
{"geometry": {"coordinates": [-84.5109676726, 33.6927357038], "type": "Point"}, "id": "siA1yLrpF1CrJOXZ3hKN2jYKcYY=", "properties": {"@spider": "usps_collection_boxes", "addr:city": "ATLANTA", "addr:country": "US", "addr:full": "2260 FAIRBURN RD SW", "addr:postcode": "30331", "addr:state": "GA", "brand": "USPS", "collection_times": "Mo-Fr 17:00; Sa 13:00", "name": "USPS COLLECTION BOX - BLUE BOX", "note": "ON 12/24 AND 12/31, THIS BOX MAY BE COLLECTED AS EARLY AS 12 NOON.", "ref": "3033100020"}, "type": "Feature"}
{"geometry": {"coordinates": [-84.4961208, 33.791496], "type": "Point"}, "id": "j8rOUJ0DLjNyEBU5uIzAfUfByas=", "properties": {"@spider": "usps_collection_boxes", "addr:city": "ATLANTA", "addr:country": "US", "addr:full": "3200 ATLANTA INDUSTRIAL PKWY NW", "addr:postcode": "30331", "addr:state": "GA", "brand": "USPS", "collection_times": "Mo-Fr 09:00", "name": "USPS COLLECTION BOX - BLUE BOX", "ref": "3033100026"}, "type": "Feature"}
{"geometry": {"coordinates": [-84.4970772524, 33.6859036698], "type": "Point"}, "id": "MjvepqYZG1oTKV4rg6QYTUTzuSo=", "properties": {"@spider": "usps_collection_boxes", "addr:city": "ATLANTA", "addr:country": "US", "addr:full": "2841 GREENBRIAR PKWY SW", "addr:postcode": "30331", "addr:state": "GA", "brand": "USPS", "collection_times": "Mo-Fr 17:00; Sa 15:00", "name": "USPS COLLECTION BOX - PO LOBBY", "note": "ON 12/24 AND 12/31, THIS BOX MAY BE COLLECTED AS EARLY AS 12 NOON.", "ref": "3033100028"}, "type": "Feature"}
{"geometry": {"coordinates": [-84.5080038, 33.724385], "type": "Point"}, "id": "mGHLRDGS9G4bb6xbubEwCmfU8eM=", "properties": {"@spider": "usps_collection_boxes", "addr:city": "ATLANTA", "addr:country": "US", "addr:full": "3695 CASCADE RD SW", "addr:postcode": "30331", "addr:state": "GA", "brand": "USPS", "collection_times": "Mo-Fr 09:00", "name": "USPS COLLECTION BOX - BLUE BOX", "ref": "3033100029"}, "type": "Feature"}
{"geometry": {"coordinates": [-84.510982063, 33.692726871], "type": "Point"}, "id": "PjLrA8AQcOaIKK8p1vdxNGzvMrs=", "properties": {"@spider": "usps_collection_boxes", "addr:city": "ATLANTA", "addr:country": "US", "addr:full": "2260 FAIRBURN RD SW", "addr:postcode": "30331", "addr:state": "GA", "brand": "USPS", "collection_times": "Mo-Fr 17:00; Sa 13:00", "name": "USPS COLLECTION BOX - PO LOBBY", "note": "ON 12/24 AND 12/31, THIS BOX MAY BE COLLECTED AS EARLY AS 12 NOON.", "ref": "3033100037"}, "type": "Feature"}
{"geometry": {"coordinates": [-84.4971542136, 33.6858442848], "type": "Point"}, "id": "NN-ry0XxHrW0fXUjiHnnOP7SnK0=", "properties": {"@spider": "usps_collection_boxes", "addr:city": "ATLANTA", "addr:country": "US", "addr:full": "2841 GREENBRIAR PKWY SW STE N472", "addr:postcode": "30331", "addr:state": "GA", "brand": "USPS", "collection_times": "Mo-Sa 17:00", "name": "USPS COLLECTION BOX - PO LOBBY", "note": "ON 12/24 AND 12/31, THIS BOX MAY BE COLLECTED AS EARLY AS 12 NOON.", "ref": "3033100038"}, "type": "Feature"}
{"geometry": {"coordinates": [-84.3873254, 33.749613], "type": "Point"}, "id": "nqSgpdZZb7c2inMYuQYcckePNe8=", "properties": {"@spider": "usps_collection_boxes", "addr:city": "ATLANTA", "addr:country": "US", "addr:full": "200 PIEDMONT AVE SE", "addr:postcode": "30334", "addr:state": "GA", "brand": "USPS", "collection_times": "Mo-Fr 10:00", "name": "USPS COLLECTION BOX - BLUE BOX", "ref": "3033400001"}, "type": "Feature"}
{"geometry": {"coordinates": [-84.5200327, 33.776208], "type": "Point"}, "id": "7xAJF_qGYRgT-_S4kLQbXITmRRU=", "properties": {"@spider": "usps_collection_boxes", "addr:city": "ATLANTA", "addr:country": "US", "addr:full": "3940 AVIATION CIR NW", "addr:postcode": "30336", "addr:state": "GA", "brand": "USPS", "collection_times": "Mo-Sa 09:00", "name": "USPS COLLECTION BOX - BLUE BOX", "ref": "3033600013"}, "type": "Feature"}
{"geometry": {"coordinates": [-84.5700903, 33.733298], "type": "Point"}, "id": "eh0pqDw2Y9Okntu2Pg6_5r-X_Dg=", "properties": {"@spider": "usps_collection_boxes", "addr:city": "ATLANTA", "addr:country": "US", "addr:full": "1001 GREAT SOUTHWEST PKWY SW", "addr:postcode": "30336", "addr:state": "GA", "brand": "USPS", "collection_times": "Mo-Fr 09:00; Sa 10:00", "name": "USPS COLLECTION BOX - BLUE BOX", "ref": "3033600014"}, "type": "Feature"}
{"geometry": {"coordinates": [-84.524624, 33.768082], "type": "Point"}, "id": "KTlpNHad20RNOWFJCiZ-NkBrEO0=", "properties": {"@spider": "usps_collection_boxes", "addr:city": "ATLANTA", "addr:country": "US", "addr:full": "1 WENDELL CT SW", "addr:postcode": "30336", "addr:state": "GA", "brand": "USPS", "collection_times": "Mo-Sa 09:00", "name": "USPS COLLECTION BOX - BLUE BOX", "ref": "3033600026"}, "type": "Feature"}
{"geometry": {"coordinates": [-84.5607767154, 33.7465279392], "type": "Point"}, "id": "X26fCf0YB2c03mlkLRsSAAUTeug=", "properties": {"@spider": "usps_collection_boxes", "addr:city": "ATLANTA", "addr:country": "US", "addr:full": "101 GREAT SOUTHWEST PKWY SW", "addr:postcode": "30336", "addr:state": "GA", "brand": "USPS", "collection_times": "Mo-Sa 09:00", "name": "USPS COLLECTION BOX - BLUE BOX", "ref": "3033600028"}, "type": "Feature"}
{"geometry": {"coordinates": [-84.531635875, 33.763451794], "type": "Point"}, "id": "Ed5-lYBi7lp6obwVxKKQfPK9eqQ=", "properties": {"@spider": "usps_collection_boxes", "addr:city": "ATLANTA", "addr:country": "US", "addr:full": "4375 COMMERCE DR", "addr:postcode": "30336", "addr:state": "GA", "brand": "USPS", "collection_times": "Mo-Sa 09:00", "name": "USPS COLLECTION BOX - BLUE BOX", "ref": "3033600033"}, "type": "Feature"}
{"geometry": {"coordinates": [-84.583637, 33.72546], "type": "Point"}, "id": "Dkp2MVzVCbhoN4Qmeo61VnlHsI0=", "properties": {"@spider": "usps_collection_boxes", "addr:city": "ATLANTA", "addr:country": "US", "addr:full": "1 BOAT ROCK/FULTON INDUSTRIAL", "addr:postcode": "30336", "addr:state": "GA", "brand": "USPS", "collection_times": "Mo-Sa 09:00", "name": "USPS COLLECTION BOX - BLUE BOX", "ref": "3033600036"}, "type": "Feature"}
{"geometry": {"coordinates": [-84.573008, 33.729809], "type": "Point"}, "id": "XO8cfPbPsp4cpkzo49hR00JNMJQ=", "properties": {"@spider": "usps_collection_boxes", "addr:city": "ATLANTA", "addr:country": "US", "addr:full": "5686 FULTON INDUSTRIAL BLVD SW", "addr:postcode": "30336", "addr:state": "GA", "brand": "USPS", "collection_times": "Mo-Fr 17:00", "name": "USPS COLLECTION BOX - PO LOBBY", "note": "ON 12/24 AND 12/31, THIS BOX MAY BE COLLECTED AS EARLY AS 12 NOON.", "ref": "3033600040"}, "type": "Feature"}
{"geometry": {"coordinates": [-84.5730164655, 33.7297253637], "type": "Point"}, "id": "0_Tbm0D3_H0BmnzDsHgNCXr4Yug=", "properties": {"@spider": "usps_collection_boxes", "addr:city": "ATLANTA", "addr:country": "US", "addr:full": "5686 FULTON INDUSTRIAL BLVD SW", "addr:postcode": "30336", "addr:state": "GA", "brand": "USPS", "collection_times": "Mo-Fr 17:00", "name": "USPS COLLECTION BOX - PO LOBBY", "note": "ON 12/24 AND 12/31, THIS BOX MAY BE COLLECTED AS EARLY AS 12 NOON.", "ref": "3033600042"}, "type": "Feature"}
{"geometry": {"coordinates": [-84.4421981, 33.659113], "type": "Point"}, "id": "00-4fxO7HvsIjyC737hLAsCDHrk=", "properties": {"@spider": "usps_collection_boxes", "addr:city": "COLLEGE PARK", "addr:country": "US", "addr:full": "1624 VIRGINIA AVE", "addr:postcode": "30337", "addr:state": "GA", "brand": "USPS", "collection_times": "Mo-Sa 09:00", "name": "USPS COLLECTION BOX - BLUE BOX", "ref": "3033700003"}, "type": "Feature"}
{"geometry": {"coordinates": [-84.4821391646, 33.6516905317], "type": "Point"}, "id": "5FdBZTYQA5kDNussgGWM-U5MPUA=", "properties": {"@spider": "usps_collection_boxes", "addr:city": "COLLEGE PARK", "addr:country": "US", "addr:full": "2802 CAMP CREEK PKWY", "addr:postcode": "30337", "addr:state": "GA", "brand": "USPS", "collection_times": "Mo-Sa 09:00", "name": "USPS COLLECTION BOX - BLUE BOX", "ref": "3033700012"}, "type": "Feature"}
{"geometry": {"coordinates": [-84.4501799, 33.65183], "type": "Point"}, "id": "_TIYxX0LjCOhHRHjrZpSCmNVAjY=", "properties": {"@spider": "usps_collection_boxes", "addr:city": "COLLEGE PARK", "addr:country": "US", "addr:full": "3799 MAIN ST", "addr:postcode": "30337", "addr:state": "GA", "brand": "USPS", "collection_times": "Mo-Fr 17:00; Sa 16:00", "name": "USPS COLLECTION BOX - BLUE BOX", "note": "ON 12/24 AND 12/31, THIS BOX MAY BE COLLECTED AS EARLY AS 12 NOON.", "ref": "3033700016"}, "type": "Feature"}
{"geometry": {"coordinates": [-84.4435086, 33.662212], "type": "Point"}, "id": "EXVOpkDbwzIyrvvuRVdCDnh9AfM=", "properties": {"@spider": "usps_collection_boxes", "addr:city": "COLLEGE PARK", "addr:country": "US", "addr:full": "1662 RUGBY AVE", "addr:postcode": "30337", "addr:state": "GA", "brand": "USPS", "collection_times": "Mo-Sa 09:00", "name": "USPS COLLECTION BOX - BLUE BOX", "ref": "3033700034"}, "type": "Feature"}
{"geometry": {"coordinates": [-84.4451499, 33.652809], "type": "Point"}, "id": "XwI8LzCYGbCMpUgXLG1OjJ9S2B0=", "properties": {"@spider": "usps_collection_boxes", "addr:city": "COLLEGE PARK", "addr:country": "US", "addr:full": "1701 COLUMBIA AVE", "addr:postcode": "30337", "addr:state": "GA", "brand": "USPS", "collection_times": "Mo-Sa 09:00", "name": "USPS COLLECTION BOX - BLUE BOX", "ref": "3033700035"}, "type": "Feature"}
{"geometry": {"coordinates": [-84.4501108, 33.651719], "type": "Point"}, "id": "Bjl5sekhq0cVva3hRI0kldng280=", "properties": {"@spider": "usps_collection_boxes", "addr:city": "COLLEGE PARK", "addr:country": "US", "addr:full": "3799 MAIN ST", "addr:postcode": "30337", "addr:state": "GA", "brand": "USPS", "collection_times": "Mo-Fr 17:00; Sa 16:00", "name": "USPS COLLECTION BOX - PO LOBBY", "note": "ON 12/24 AND 12/31, THIS BOX MAY BE COLLECTED AS EARLY AS 12 NOON.", "ref": "3033700052"}, "type": "Feature"}
{"geometry": {"coordinates": [-84.4461115, 33.663849], "type": "Point"}, "id": "N5ewKfIn5_YNpsbli2WApUwWYRg=", "properties": {"@spider": "usps_collection_boxes", "addr:city": "COLLEGE PARK", "addr:country": "US", "addr:full": "3355 MAIN ST", "addr:postcode": "30337", "addr:state": "GA", "brand": "USPS", "collection_times": "Mo-Sa 09:00", "name": "USPS COLLECTION BOX - BLUE BOX", "ref": "3033700056"}, "type": "Feature"}
{"geometry": {"coordinates": [-84.446616, 33.641677], "type": "Point"}, "id": "XoMzp4vIQXQiqz8GoPVfZSUWtdc=", "properties": {"@spider": "usps_collection_boxes", "addr:city": "COLLEGE PARK", "addr:country": "US", "addr:full": "6000 N TERMINAL PKWY", "addr:postcode": "30337", "addr:state": "GA", "brand": "USPS", "collection_times": "Mo-Sa 10:00", "name": "USPS COLLECTION BOX - BLUE BOX", "ref": "3033700059"}, "type": "Feature"}
{"geometry": {"coordinates": [-84.449685778, 33.651503623], "type": "Point"}, "id": "0laZKd6sDQBBgXj7tsixwU73yHE=", "properties": {"@spider": "usps_collection_boxes", "addr:city": "COLLEGE PARK", "addr:country": "US", "addr:full": "3799 MAIN ST", "addr:postcode": "30337", "addr:state": "GA", "brand": "USPS", "collection_times": "Mo-Fr 17:00", "name": "USPS COLLECTION BOX - PO LOBBY", "note": "ON 12/24 AND 12/31, THIS BOX MAY BE COLLECTED AS EARLY AS 12 NOON.", "ref": "3033700060"}, "type": "Feature"}
{"geometry": {"coordinates": [-84.3357947, 33.951095], "type": "Point"}, "id": "aDgIHAlj9e26sPrs_mFrHS5frjw=", "properties": {"@spider": "usps_collection_boxes", "addr:city": "ATLANTA", "addr:country": "US", "addr:full": "5591 CHAMBLEE DUNWOODY RD", "addr:postcode": "30338", "addr:state": "GA", "brand": "USPS", "collection_times": "Mo-Sa 11:30", "name": "USPS COLLECTION BOX - BLUE BOX", "ref": "3033800013"}, "type": "Feature"}
{"geometry": {"coordinates": [-84.3376889, 33.95032], "type": "Point"}, "id": "iN1aZycinB3ZhcexleyizYzvz4I=", "properties": {"@spider": "usps_collection_boxes", "addr:city": "ATLANTA", "addr:country": "US", "addr:full": "5556 CHAMBLEE DUNWOODY RD", "addr:postcode": "30338", "addr:state": "GA", "brand": "USPS", "collection_times": "Mo-Sa 11:30", "name": "USPS COLLECTION BOX - BLUE BOX", "ref": "3033800017"}, "type": "Feature"}
{"geometry": {"coordinates": [-84.3302594, 33.9468], "type": "Point"}, "id": "U8vsgGcWuNqNwa7ZtnQb3topsvk=", "properties": {"@spider": "usps_collection_boxes", "addr:city": "ATLANTA", "addr:country": "US", "addr:full": "1713 MOUNT VERNON RD", "addr:postcode": "30338", "addr:state": "GA", "brand": "USPS", "collection_times": "Mo-Sa 11:30", "name": "USPS COLLECTION BOX - BLUE BOX", "ref": "3033800047"}, "type": "Feature"}
{"geometry": {"coordinates": [-84.331834, 33.947826], "type": "Point"}, "id": "Hy1aBm-z1av9t1uChguahVr18zo=", "properties": {"@spider": "usps_collection_boxes", "addr:city": "ATLANTA", "addr:country": "US", "addr:full": "1551 DUNWOODY VILLAGE PKWY", "addr:postcode": "30338", "addr:state": "GA", "brand": "USPS", "collection_times": "Mo-Fr 17:00; Sa 13:30", "name": "USPS COLLECTION BOX - PO LOBBY", "note": "ON 12/24 AND 12/31, THIS BOX MAY BE COLLECTED AS EARLY AS 12 NOON.", "ref": "3033800062"}, "type": "Feature"}
{"geometry": {"coordinates": [-84.331834, 33.947826], "type": "Point"}, "id": "E2JsROd6qFK4H6bTDsG9rDeERSU=", "properties": {"@spider": "usps_collection_boxes", "addr:city": "ATLANTA", "addr:country": "US", "addr:full": "1551 DUNWOODY VILLAGE PKWY", "addr:postcode": "30338", "addr:state": "GA", "brand": "USPS", "collection_times": "Mo-Fr 17:00; Sa 13:30", "name": "USPS COLLECTION BOX - APC", "note": "ON 12/24 AND 12/31, THIS BOX MAY BE COLLECTED AS EARLY AS 12 NOON.", "ref": "3033800087"}, "type": "Feature"}
{"geometry": {"coordinates": [-84.3016247, 33.958837], "type": "Point"}, "id": "mc8bG5D_70fAdBaLwkQ-P_rMns4=", "properties": {"@spider": "usps_collection_boxes", "addr:city": "ATLANTA", "addr:country": "US", "addr:full": "2490 MOUNT VERNON RD", "addr:postcode": "30338", "addr:state": "GA", "brand": "USPS", "collection_times": "Mo-Sa 11:30", "name": "USPS COLLECTION BOX - BLUE BOX", "ref": "3033800088"}, "type": "Feature"}
{"geometry": {"coordinates": [-84.337367715, 33.931848838], "type": "Point"}, "id": "jeDbYC_9oMX8_nC6QA8XIdsHz-4=", "properties": {"@spider": "usps_collection_boxes", "addr:city": "ATLANTA", "addr:country": "US", "addr:full": "4707 ASHFORD DUNWOODY RD", "addr:postcode": "30338", "addr:state": "GA", "brand": "USPS", "collection_times": "Mo-Fr 17:00", "name": "USPS COLLECTION BOX - PO LOBBY", "note": "ON 12/24 AND 12/31, THIS BOX MAY BE COLLECTED AS EARLY AS 12 NOON.", "ref": "3033800095"}, "type": "Feature"}
{"geometry": {"coordinates": [-84.331836771, 33.947824933], "type": "Point"}, "id": "nsfzExcLxDZBAS8pnNulgSbkKV8=", "properties": {"@spider": "usps_collection_boxes", "addr:city": "ATLANTA", "addr:country": "US", "addr:full": "1551 DUNWOODY VILLAGE PKWY", "addr:postcode": "30338", "addr:state": "GA", "brand": "USPS", "collection_times": "Mo-Fr 17:00; Sa 13:00", "name": "USPS COLLECTION BOX - PO LOBBY", "note": "ON 12/24 AND 12/31, THIS BOX MAY BE COLLECTED AS EARLY AS 12 NOON.", "ref": "3033800096"}, "type": "Feature"}
{"geometry": {"coordinates": [-84.4598861, 33.896544], "type": "Point"}, "id": "aTiN2tKD4ze3X4kEfxwzH5LNVXA=", "properties": {"@spider": "usps_collection_boxes", "addr:city": "ATLANTA", "addr:country": "US", "addr:full": "290 INTERSTATE N CIR", "addr:postcode": "30339", "addr:state": "GA", "brand": "USPS", "collection_times": "Mo-Fr 09:00", "name": "USPS COLLECTION BOX - BLUE BOX", "ref": "3033900041"}, "type": "Feature"}
{"geometry": {"coordinates": [-84.4541334, 33.901251], "type": "Point"}, "id": "u8AkhUisRXFBCaUWPHyKTRDIa10=", "properties": {"@spider": "usps_collection_boxes", "addr:city": "ATLANTA", "addr:country": "US", "addr:full": "2028 POWERS FERRY RD SE", "addr:postcode": "30339", "addr:state": "GA", "brand": "USPS", "collection_times": "Mo-Sa 09:00", "name": "USPS COLLECTION BOX - BLUE BOX", "ref": "3033900108"}, "type": "Feature"}
{"geometry": {"coordinates": [-84.4798199, 33.903799], "type": "Point"}, "id": "exSxbU7GBMzhf7OCETSk-p0pgPg=", "properties": {"@spider": "usps_collection_boxes", "addr:city": "ATLANTA", "addr:country": "US", "addr:full": "1975 N PARK PL SE", "addr:postcode": "30339", "addr:state": "GA", "brand": "USPS", "collection_times": "Mo-Fr 09:00", "name": "USPS COLLECTION BOX - BLUE BOX", "ref": "3033900120"}, "type": "Feature"}
{"geometry": {"coordinates": [-84.4789579, 33.907437], "type": "Point"}, "id": "8mV4_TopRjPTG4n0D_STMSXMCOs=", "properties": {"@spider": "usps_collection_boxes", "addr:city": "ATLANTA", "addr:country": "US", "addr:full": "1820 THE EXCHANGE SE", "addr:postcode": "30339", "addr:state": "GA", "brand": "USPS", "collection_times": "Mo-Fr 09:00", "name": "USPS COLLECTION BOX - BLUE BOX", "ref": "3033900126"}, "type": "Feature"}
{"geometry": {"coordinates": [-84.4552352, 33.88064], "type": "Point"}, "id": "hQ36d6m7UNw0BFJS0b7tlL5SVWI=", "properties": {"@spider": "usps_collection_boxes", "addr:city": "ATLANTA", "addr:country": "US", "addr:full": "3200 COBB GALLERIA PKWY", "addr:postcode": "30339", "addr:state": "GA", "brand": "USPS", "collection_times": "Mo-Fr 09:00", "name": "USPS COLLECTION BOX - BLUE BOX", "ref": "3033900148"}, "type": "Feature"}
{"geometry": {"coordinates": [-84.4785588, 33.90621], "type": "Point"}, "id": "wCHEPU7nHdufUPDvlX6HXVE_KbU=", "properties": {"@spider": "usps_collection_boxes", "addr:city": "ATLANTA", "addr:country": "US", "addr:full": "1870 THE EXCHANGE SE", "addr:postcode": "30339", "addr:state": "GA", "brand": "USPS", "collection_times": "Mo-Fr 09:00", "name": "USPS COLLECTION BOX - BLUE BOX", "ref": "3033900156"}, "type": "Feature"}
{"geometry": {"coordinates": [-84.4641623, 33.908342], "type": "Point"}, "id": "b61x0Nu-HEanXigKm1Y5FW3keWA=", "properties": {"@spider": "usps_collection_boxes", "addr:city": "ATLANTA", "addr:country": "US", "addr:full": "1827 POWERS FERRY RD SE", "addr:postcode": "30339", "addr:state": "GA", "brand": "USPS", "collection_times": "Mo-Sa 09:00", "name": "USPS COLLECTION BOX - BLUE BOX", "ref": "3033900167"}, "type": "Feature"}
{"geometry": {"coordinates": [-84.4787455, 33.908272], "type": "Point"}, "id": "_3N66Izk7RK1L50k-rrKN-rEQHc=", "properties": {"@spider": "usps_collection_boxes", "addr:city": "ATLANTA", "addr:country": "US", "addr:full": "1815 THE EXCHANGE SE", "addr:postcode": "30339", "addr:state": "GA", "brand": "USPS", "collection_times": "Mo-Fr 09:00", "name": "USPS COLLECTION BOX - BLUE BOX", "ref": "3033900179"}, "type": "Feature"}
{"geometry": {"coordinates": [-84.468447, 33.88239], "type": "Point"}, "id": "CgJTRilu3ZdgFxqGezTNFOT4Pr0=", "properties": {"@spider": "usps_collection_boxes", "addr:city": "ATLANTA", "addr:country": "US", "addr:full": "1315 CUMBERLAND MALL SE", "addr:postcode": "30339", "addr:state": "GA", "brand": "USPS", "collection_times": "Mo-Fr 17:00; Sa 14:00", "name": "USPS COLLECTION BOX - PO LOBBY", "note": "ON 12/24 AND 12/31, THIS BOX MAY BE COLLECTED AS EARLY AS 12 NOON.", "ref": "3033900183"}, "type": "Feature"}
{"geometry": {"coordinates": [-84.4639411, 33.903888], "type": "Point"}, "id": "2NMMktWThnDQWX1cSiTUTBa98A0=", "properties": {"@spider": "usps_collection_boxes", "addr:city": "ATLANTA", "addr:country": "US", "addr:full": "120 INTERSTATE N PKWY", "addr:postcode": "30339", "addr:state": "GA", "brand": "USPS", "collection_times": "Mo-Sa 09:00", "name": "USPS COLLECTION BOX - BLUE BOX", "ref": "3033900191"}, "type": "Feature"}
{"geometry": {"coordinates": [-84.4767495, 33.904621], "type": "Point"}, "id": "j-nnP4UbPXQ_1Phe3gPYQ3nKx1Y=", "properties": {"@spider": "usps_collection_boxes", "addr:city": "ATLANTA", "addr:country": "US", "addr:full": "1945 THE EXCHANGE SE", "addr:postcode": "30339", "addr:state": "GA", "brand": "USPS", "collection_times": "Mo-Fr 09:00", "name": "USPS COLLECTION BOX - BLUE BOX", "ref": "3033900203"}, "type": "Feature"}
{"geometry": {"coordinates": [-84.4841376829, 33.9084779625], "type": "Point"}, "id": "AovexpbhY_ZVjwhdKP5NIJC2i-M=", "properties": {"@spider": "usps_collection_boxes", "addr:city": "ATLANTA", "addr:country": "US", "addr:full": "1810 WATER PL SE", "addr:postcode": "30339", "addr:state": "GA", "brand": "USPS", "collection_times": "Mo-Sa 09:00", "name": "USPS COLLECTION BOX - BLUE BOX", "ref": "3033900223"}, "type": "Feature"}
{"geometry": {"coordinates": [-84.4777508, 33.905705], "type": "Point"}, "id": "zCgfA4BhCB38pdlo0rMn2rQjbAQ=", "properties": {"@spider": "usps_collection_boxes", "addr:city": "ATLANTA", "addr:country": "US", "addr:full": "1900 THE EXCHANGE SE", "addr:postcode": "30339", "addr:state": "GA", "brand": "USPS", "collection_times": "Mo-Sa 09:00", "name": "USPS COLLECTION BOX - BLUE BOX", "ref": "3033900224"}, "type": "Feature"}
{"geometry": {"coordinates": [-84.476267418, 33.868177573], "type": "Point"}, "id": "SyjqsOvZJCsyb9ai2RIXXrOU8Gc=", "properties": {"@spider": "usps_collection_boxes", "addr:city": "ATLANTA", "addr:country": "US", "addr:full": "2580 CUMBERLAND PKWY SE", "addr:postcode": "30339", "addr:state": "GA", "brand": "USPS", "collection_times": "Mo-Fr 09:00", "name": "USPS COLLECTION BOX - BLUE BOX", "ref": "3033900226"}, "type": "Feature"}
{"geometry": {"coordinates": [-84.4708185, 33.834543], "type": "Point"}, "id": "5fpPPJndL1G1N0bP5_omOmD8YBE=", "properties": {"@spider": "usps_collection_boxes", "addr:city": "ATLANTA", "addr:country": "US", "addr:full": "2961 OLYMPIC INDUSTRIAL DR SE", "addr:postcode": "30339", "addr:state": "GA", "brand": "USPS", "collection_times": "Mo-Sa 09:00", "name": "USPS COLLECTION BOX - BLUE BOX", "ref": "3033900236"}, "type": "Feature"}
{"geometry": {"coordinates": [-84.459418077, 33.879677976], "type": "Point"}, "id": "FccnYuULkX9aQ7M77WkGK1iykZI=", "properties": {"@spider": "usps_collection_boxes", "addr:city": "ATLANTA", "addr:country": "US", "addr:full": "2997 COBB PKWY SE STE 300", "addr:postcode": "30339", "addr:state": "GA", "brand": "USPS", "collection_times": "Mo-Sa 17:00", "name": "USPS COLLECTION BOX - PO LOBBY", "note": "ON 12/24 AND 12/31, THIS BOX MAY BE COLLECTED AS EARLY AS 12 NOON.", "ref": "3033900245"}, "type": "Feature"}
{"geometry": {"coordinates": [-84.4719823799, 33.880772295], "type": "Point"}, "id": "bx6GFIfO6M1y5qlkeyYJAYDUU_U=", "properties": {"@spider": "usps_collection_boxes", "addr:city": "ATLANTA", "addr:country": "US", "addr:full": "2860 CUMBERLAND MALL SE STE 1315", "addr:postcode": "30339", "addr:state": "GA", "brand": "USPS", "collection_times": "Mo-Fr 17:00; Sa 13:00", "name": "USPS COLLECTION BOX - PO LOBBY", "note": "ON 12/24 AND 12/31, THIS BOX MAY BE COLLECTED AS EARLY AS 12 NOON.", "ref": "3033900246"}, "type": "Feature"}
{"geometry": {"coordinates": [-84.387609, 33.760786], "type": "Point"}, "id": "IGQQmGK4tmfrAnn-Flm2geaHQEo=", "properties": {"@spider": "usps_collection_boxes", "addr:city": "ATLANTA", "addr:country": "US", "addr:full": "240 PEACHTREE ST NW", "addr:postcode": "30343", "addr:state": "GA", "brand": "USPS", "collection_times": "Mo-Fr 17:00", "name": "USPS COLLECTION BOX - PO LOBBY", "note": "ON 12/24 AND 12/31, THIS BOX MAY BE COLLECTED AS EARLY AS 12 NOON.", "ref": "3034300001"}, "type": "Feature"}
{"geometry": {"coordinates": [-84.4256005, 33.681054], "type": "Point"}, "id": "dnb7GS5JDbT2Jo97fbYlm8OjUX8=", "properties": {"@spider": "usps_collection_boxes", "addr:city": "EAST POINT", "addr:country": "US", "addr:full": "1136 CLEVELAND AVE", "addr:postcode": "30344", "addr:state": "GA", "brand": "USPS", "collection_times": "Mo-Sa 10:00", "name": "USPS COLLECTION BOX - BLUE BOX", "ref": "3034400015"}, "type": "Feature"}
{"geometry": {"coordinates": [-84.4264195, 33.681201], "type": "Point"}, "id": "YJPdDnyBkEdTKqvjEtzl8SdD4sc=", "properties": {"@spider": "usps_collection_boxes", "addr:city": "EAST POINT", "addr:country": "US", "addr:full": "1170 CLEVELAND AVE", "addr:postcode": "30344", "addr:state": "GA", "brand": "USPS", "collection_times": "Mo-Sa 10:00", "name": "USPS COLLECTION BOX - BLUE BOX", "ref": "3034400016"}, "type": "Feature"}
{"geometry": {"coordinates": [-84.4283968, 33.662557], "type": "Point"}, "id": "tJqSNCD99DWshaG7qqeODATaoMw=", "properties": {"@spider": "usps_collection_boxes", "addr:city": "EAST POINT", "addr:country": "US", "addr:full": "3401 NORMAN BERRY DR", "addr:postcode": "30344", "addr:state": "GA", "brand": "USPS", "collection_times": "Mo-Sa 10:00", "name": "USPS COLLECTION BOX - BLUE BOX", "ref": "3034400018"}, "type": "Feature"}
{"geometry": {"coordinates": [-84.4962283, 33.660784], "type": "Point"}, "id": "smT6L28U7BuGKyZZ8-5_KwXsrS0=", "properties": {"@spider": "usps_collection_boxes", "addr:city": "EAST POINT", "addr:country": "US", "addr:full": "3485 N DESERT DR", "addr:postcode": "30344", "addr:state": "GA", "brand": "USPS", "collection_times": "Mo-Fr 10:00; Sa 11:30", "name": "USPS COLLECTION BOX - BLUE BOX", "ref": "3034400041"}, "type": "Feature"}
{"geometry": {"coordinates": [-84.5034578, 33.658526], "type": "Point"}, "id": "zUAqOqCErUv7NRcmnAynXrpG0r0=", "properties": {"@spider": "usps_collection_boxes", "addr:city": "EAST POINT", "addr:country": "US", "addr:full": "3645 MARKETPLACE BLVD", "addr:postcode": "30344", "addr:state": "GA", "brand": "USPS", "collection_times": "Mo-Fr 10:00; Sa 11:30", "name": "USPS COLLECTION BOX - BLUE BOX", "ref": "3034400042"}, "type": "Feature"}
{"geometry": {"coordinates": [-84.441909, 33.679481], "type": "Point"}, "id": "ulSJiGLhnJrXYZAinJNIPccSSQY=", "properties": {"@spider": "usps_collection_boxes", "addr:city": "EAST POINT", "addr:country": "US", "addr:full": "2777 E POINT ST", "addr:postcode": "30344", "addr:state": "GA", "brand": "USPS", "collection_times": "Mo-Sa 09:00", "name": "USPS COLLECTION BOX - BLUE BOX", "ref": "3034400049"}, "type": "Feature"}
{"geometry": {"coordinates": [-84.442778069, 33.6761410747], "type": "Point"}, "id": "ayMmjxgku9fMo1ecP-4TytcaokE=", "properties": {"@spider": "usps_collection_boxes", "addr:city": "EAST POINT", "addr:country": "US", "addr:full": "2905 E POINT ST", "addr:postcode": "30344", "addr:state": "GA", "brand": "USPS", "collection_times": "Mo-Fr 17:00; Sa 14:00", "name": "USPS COLLECTION BOX - BLUE BOX", "note": "ON 12/24 AND 12/31, THIS BOX MAY BE COLLECTED AS EARLY AS 12 NOON.", "ref": "3034400071"}, "type": "Feature"}
{"geometry": {"coordinates": [-84.4431896, 33.676077], "type": "Point"}, "id": "Ah4PekpkO2TJx_pHO0Y9tqWJQAs=", "properties": {"@spider": "usps_collection_boxes", "addr:city": "EAST POINT", "addr:country": "US", "addr:full": "2905 E POINT ST", "addr:postcode": "30344", "addr:state": "GA", "brand": "USPS", "collection_times": "Mo-Fr 17:00; Sa 14:00", "name": "USPS COLLECTION BOX - PO LOBBY", "note": "ON 12/24 AND 12/31, THIS BOX MAY BE COLLECTED AS EARLY AS 12 NOON.", "ref": "3034400076"}, "type": "Feature"}
{"geometry": {"coordinates": [-84.4427932118, 33.6760669581], "type": "Point"}, "id": "a0OPadyAMEn5PVIgaHOcTW8wv9I=", "properties": {"@spider": "usps_collection_boxes", "addr:city": "EAST POINT", "addr:country": "US", "addr:full": "2905 E POINT ST", "addr:postcode": "30344", "addr:state": "GA", "brand": "USPS", "collection_times": "Mo-Fr 17:00", "name": "USPS COLLECTION BOX - PO LOBBY", "note": "ON 12/24 AND 12/31, THIS BOX MAY BE COLLECTED AS EARLY AS 12 NOON.", "ref": "3034400082"}, "type": "Feature"}
{"geometry": {"coordinates": [-84.3400249, 33.923677], "type": "Point"}, "id": "5YkQEyTS-wugZrjFtIzGDi5wK0Y=", "properties": {"@spider": "usps_collection_boxes", "addr:city": "ATLANTA", "addr:country": "US", "addr:full": "4400 ASHFORD DUNWOODY RD NE", "addr:postcode": "30346", "addr:state": "GA", "brand": "USPS", "collection_times": "Mo-Sa 11:30", "name": "USPS COLLECTION BOX - BLUE BOX", "ref": "3034600001"}, "type": "Feature"}
{"geometry": {"coordinates": [-84.3469609, 33.922505], "type": "Point"}, "id": "98-e_mCnMMd9o0YntkLK3PeWlx4=", "properties": {"@spider": "usps_collection_boxes", "addr:city": "ATLANTA", "addr:country": "US", "addr:full": "223 PERIMETER CENTER PKWY NE", "addr:postcode": "30346", "addr:state": "GA", "brand": "USPS", "collection_times": "Mo-Sa 10:00", "name": "USPS COLLECTION BOX - BLUE BOX", "ref": "3034600028"}, "type": "Feature"}
{"geometry": {"coordinates": [-84.4058754, 33.628093], "type": "Point"}, "id": "XQg38DbRru9-qQJeN6YZUT1Dux0=", "properties": {"@spider": "usps_collection_boxes", "addr:city": "ATLANTA", "addr:country": "US", "addr:full": "4694 AVIATION PKWY", "addr:postcode": "30349", "addr:state": "GA", "brand": "USPS", "collection_times": "Mo-Fr 11:00", "name": "USPS COLLECTION BOX - BLUE BOX", "ref": "3034900007"}, "type": "Feature"}
{"geometry": {"coordinates": [-84.4354811, 33.60674], "type": "Point"}, "id": "Wjm8dFgaoDsDA6mdUCxIXVj6x58=", "properties": {"@spider": "usps_collection_boxes", "addr:city": "ATLANTA", "addr:country": "US", "addr:full": "5436 RIVERDALE RD", "addr:postcode": "30349", "addr:state": "GA", "brand": "USPS", "collection_times": "Mo-Fr 10:00", "name": "USPS COLLECTION BOX - BLUE BOX", "ref": "3034900009"}, "type": "Feature"}
{"geometry": {"coordinates": [-84.4711049, 33.604979], "type": "Point"}, "id": "CcX14pQgB6_7iddjc1aWSxDsLDc=", "properties": {"@spider": "usps_collection_boxes", "addr:city": "ATLANTA", "addr:country": "US", "addr:full": "5520 OLD NATIONAL HWY", "addr:postcode": "30349", "addr:state": "GA", "brand": "USPS", "collection_times": "Mo-Sa 10:00", "name": "USPS COLLECTION BOX - BLUE BOX", "ref": "3034900011"}, "type": "Feature"}
{"geometry": {"coordinates": [-84.4702099, 33.59007], "type": "Point"}, "id": "MwMfsvd3pjaAeLjZ6rbc0sf0nuo=", "properties": {"@spider": "usps_collection_boxes", "addr:city": "ATLANTA", "addr:country": "US", "addr:full": "6055 OLD NATIONAL HWY", "addr:postcode": "30349", "addr:state": "GA", "brand": "USPS", "collection_times": "Mo-Sa 10:00", "name": "USPS COLLECTION BOX - BLUE BOX", "ref": "3034900018"}, "type": "Feature"}
{"geometry": {"coordinates": [-84.4478274, 33.616261], "type": "Point"}, "id": "tNt1UVR2z1eSUZ9bmxAsrbeb1MI=", "properties": {"@spider": "usps_collection_boxes", "addr:city": "ATLANTA", "addr:country": "US", "addr:full": "1895 PHOENIX BLVD", "addr:postcode": "30349", "addr:state": "GA", "brand": "USPS", "collection_times": "Mo-Fr 10:00", "name": "USPS COLLECTION BOX - BLUE BOX", "ref": "3034900028"}, "type": "Feature"}
{"geometry": {"coordinates": [-84.4437056, 33.613821], "type": "Point"}, "id": "qoNmqUHObLC_afYPXIid7Ep3BpQ=", "properties": {"@spider": "usps_collection_boxes", "addr:city": "ATLANTA", "addr:country": "US", "addr:full": "1600 PHOENIX BLVD", "addr:postcode": "30349", "addr:state": "GA", "brand": "USPS", "collection_times": "Mo-Fr 10:00", "name": "USPS COLLECTION BOX - BLUE BOX", "ref": "3034900029"}, "type": "Feature"}
{"geometry": {"coordinates": [-84.4060152, 33.612328], "type": "Point"}, "id": "5cjXPfNu1qyaIaM2Fdh5JLZaI84=", "properties": {"@spider": "usps_collection_boxes", "addr:city": "ATLANTA", "addr:country": "US", "addr:full": "485 OAK PL", "addr:postcode": "30349", "addr:state": "GA", "brand": "USPS", "collection_times": "Mo-Fr 11:00", "name": "USPS COLLECTION BOX - BLUE BOX", "ref": "3034900031"}, "type": "Feature"}
{"geometry": {"coordinates": [-84.4478588, 33.613221], "type": "Point"}, "id": "w1Xh1ZLEgKdwma5LQLEfnWQu8MQ=", "properties": {"@spider": "usps_collection_boxes", "addr:city": "ATLANTA", "addr:country": "US", "addr:full": "1800 PHOENIX BLVD", "addr:postcode": "30349", "addr:state": "GA", "brand": "USPS", "collection_times": "Mo-Fr 10:00", "name": "USPS COLLECTION BOX - BLUE BOX", "ref": "3034900034"}, "type": "Feature"}
{"geometry": {"coordinates": [-84.4464442, 33.616151], "type": "Point"}, "id": "edvRXbSV0cKjV1brFZ0amyk7XZg=", "properties": {"@spider": "usps_collection_boxes", "addr:city": "ATLANTA", "addr:country": "US", "addr:full": "1745 PHOENIX BLVD", "addr:postcode": "30349", "addr:state": "GA", "brand": "USPS", "collection_times": "Mo-Fr 10:00", "name": "USPS COLLECTION BOX - BLUE BOX", "ref": "3034900042"}, "type": "Feature"}
{"geometry": {"coordinates": [-84.4413533, 33.614589], "type": "Point"}, "id": "FAiZPI1k6NKwMIGEEttZdPvCywI=", "properties": {"@spider": "usps_collection_boxes", "addr:city": "ATLANTA", "addr:country": "US", "addr:full": "1587 PHOENIX BLVD", "addr:postcode": "30349", "addr:state": "GA", "brand": "USPS", "collection_times": "Mo-Fr 10:00", "name": "USPS COLLECTION BOX - BLUE BOX", "ref": "3034900045"}, "type": "Feature"}
{"geometry": {"coordinates": [-84.4674885, 33.617032], "type": "Point"}, "id": "BwrsCRPtsay3nddrMdNk6y69BF8=", "properties": {"@spider": "usps_collection_boxes", "addr:city": "ATLANTA", "addr:country": "US", "addr:full": "2385 GODBY RD", "addr:postcode": "30349", "addr:state": "GA", "brand": "USPS", "collection_times": "Mo-Fr 17:00; Sa 15:30", "name": "USPS COLLECTION BOX - PO LOBBY", "note": "ON 12/24 AND 12/31, THIS BOX MAY BE COLLECTED AS EARLY AS 12 NOON.", "ref": "3034900049"}, "type": "Feature"}
{"geometry": {"coordinates": [-84.4069518, 33.620478], "type": "Point"}, "id": "-Q3jp53Ci0_jIxvkewoMrG6BD8A=", "properties": {"@spider": "usps_collection_boxes", "addr:city": "ATLANTA", "addr:country": "US", "addr:full": "510 PLAZA DR", "addr:postcode": "30349", "addr:state": "GA", "brand": "USPS", "collection_times": "Mo-Fr 11:00", "name": "USPS COLLECTION BOX - BLUE BOX", "ref": "3034900050"}, "type": "Feature"}
{"geometry": {"coordinates": [-84.4725864, 33.602226], "type": "Point"}, "id": "ZNbGXozlIDr5fhujgsuo054qiJQ=", "properties": {"@spider": "usps_collection_boxes", "addr:city": "ATLANTA", "addr:country": "US", "addr:full": "5655 OLD NATIONAL HWY", "addr:postcode": "30349", "addr:state": "GA", "brand": "USPS", "collection_times": "Mo-Sa 10:00", "name": "USPS COLLECTION BOX - BLUE BOX", "ref": "3034900051"}, "type": "Feature"}
{"geometry": {"coordinates": [-84.466251042, 33.616338742], "type": "Point"}, "id": "a_EUqLiG9Es1nladqTxSa5gF_DM=", "properties": {"@spider": "usps_collection_boxes", "addr:city": "ATLANTA", "addr:country": "US", "addr:full": "2385 GODBY RD", "addr:postcode": "30349", "addr:state": "GA", "brand": "USPS", "collection_times": "Mo-Fr 17:00; Sa 14:00", "name": "USPS COLLECTION BOX - PO LOBBY", "note": "ON 12/24 AND 12/31, THIS BOX MAY BE COLLECTED AS EARLY AS 12 NOON.", "ref": "3034900053"}, "type": "Feature"}
{"geometry": {"coordinates": [-84.468951, 33.61608], "type": "Point"}, "id": "aZNhDZ6HfdZRoR5N2kgGm1JVDRQ=", "properties": {"@spider": "usps_collection_boxes", "addr:city": "ATLANTA", "addr:country": "US", "addr:full": "2385 GODBY RD", "addr:postcode": "30349", "addr:state": "GA", "brand": "USPS", "collection_times": "Mo-Fr 17:00", "name": "USPS COLLECTION BOX - BLUE BOX", "note": "ON 12/24 AND 12/31, THIS BOX MAY BE COLLECTED AS EARLY AS 12 NOON.", "ref": "3034900054"}, "type": "Feature"}
{"geometry": {"coordinates": [-84.3513257, 33.990887], "type": "Point"}, "id": "Xhft-89FQ8soX0bYsHWO9QLREMM=", "properties": {"@spider": "usps_collection_boxes", "addr:city": "ATLANTA", "addr:country": "US", "addr:full": "8613 ROSWELL RD", "addr:postcode": "30350", "addr:state": "GA", "brand": "USPS", "collection_times": "Mo-Sa 10:00", "name": "USPS COLLECTION BOX - BLUE BOX", "ref": "3035000002"}, "type": "Feature"}
{"geometry": {"coordinates": [-84.3478676235, 33.9872712494], "type": "Point"}, "id": "bHw4VtZa173htSSkYAjKVI9jKV4=", "properties": {"@spider": "usps_collection_boxes", "addr:city": "ATLANTA", "addr:country": "US", "addr:full": "1185 HIGHTOWER TRL", "addr:postcode": "30350", "addr:state": "GA", "brand": "USPS", "collection_times": "Mo-Fr 17:00; Sa 15:30", "name": "USPS COLLECTION BOX - BLUE BOX", "note": "ON 12/24 AND 12/31, THIS BOX MAY BE COLLECTED AS EARLY AS 12 NOON.", "ref": "3035000005"}, "type": "Feature"}
{"geometry": {"coordinates": [-84.3612511, 33.97072], "type": "Point"}, "id": "vDb3u0AZOcK8Fx3Z0Mm-S2lfPCM=", "properties": {"@spider": "usps_collection_boxes", "addr:city": "ATLANTA", "addr:country": "US", "addr:full": "7840 ROSWELL RD", "addr:postcode": "30350", "addr:state": "GA", "brand": "USPS", "collection_times": "Mo-Sa 10:00", "name": "USPS COLLECTION BOX - BLUE BOX", "ref": "3035000008"}, "type": "Feature"}
{"geometry": {"coordinates": [-84.3467376463, 33.9870763432], "type": "Point"}, "id": "peEsq73PB4WhWao2rnx2g35BRCQ=", "properties": {"@spider": "usps_collection_boxes", "addr:city": "ATLANTA", "addr:country": "US", "addr:full": "1215 HIGHTOWER TRL", "addr:postcode": "30350", "addr:state": "GA", "brand": "USPS", "collection_times": "Mo-Sa 10:00", "name": "USPS COLLECTION BOX - BLUE BOX", "ref": "3035000012"}, "type": "Feature"}
{"geometry": {"coordinates": [-84.3483906, 33.982838], "type": "Point"}, "id": "PeCyAyWv7ITGSZltAdIZUzMjcL8=", "properties": {"@spider": "usps_collection_boxes", "addr:city": "ATLANTA", "addr:country": "US", "addr:full": "8351 ROSWELL RD", "addr:postcode": "30350", "addr:state": "GA", "brand": "USPS", "collection_times": "Mo-Sa 10:00", "name": "USPS COLLECTION BOX - BLUE BOX", "ref": "3035000019"}, "type": "Feature"}
{"geometry": {"coordinates": [-84.3492899, 33.978876], "type": "Point"}, "id": "70IGL3mfSwIQMSGo0YgYlTMvV_M=", "properties": {"@spider": "usps_collection_boxes", "addr:city": "ATLANTA", "addr:country": "US", "addr:full": "8215 ROSWELL RD", "addr:postcode": "30350", "addr:state": "GA", "brand": "USPS", "collection_times": "Mo-Sa 10:00", "name": "USPS COLLECTION BOX - BLUE BOX", "ref": "3035000020"}, "type": "Feature"}
{"geometry": {"coordinates": [-84.3521156, 33.98256], "type": "Point"}, "id": "oxINcINCQiRn7YkuesUtXMpMyds=", "properties": {"@spider": "usps_collection_boxes", "addr:city": "ATLANTA", "addr:country": "US", "addr:full": "500 SUGARMILL RD", "addr:postcode": "30350", "addr:state": "GA", "brand": "USPS", "collection_times": "Mo-Sa 10:00", "name": "USPS COLLECTION BOX - BLUE BOX", "ref": "3035000021"}, "type": "Feature"}
{"geometry": {"coordinates": [-84.3521162, 33.982562], "type": "Point"}, "id": "xgXr5pyLWDWpI0uuohx50zyzKsU=", "properties": {"@spider": "usps_collection_boxes", "addr:city": "ATLANTA", "addr:country": "US", "addr:full": "500 SUGAR MILL RD", "addr:postcode": "30350", "addr:state": "GA", "brand": "USPS", "collection_times": "Mo-Sa 10:00", "name": "USPS COLLECTION BOX - BLUE BOX", "ref": "3035000022"}, "type": "Feature"}
{"geometry": {"coordinates": [-84.3541138898, 33.9748759667], "type": "Point"}, "id": "6ZzOMtcW5n6CEsbmtVPnVOE7ZgU=", "properties": {"@spider": "usps_collection_boxes", "addr:city": "ATLANTA", "addr:country": "US", "addr:full": "8060 ROSWELL RD", "addr:postcode": "30350", "addr:state": "GA", "brand": "USPS", "collection_times": "Mo-Sa 10:00", "name": "USPS COLLECTION BOX - BLUE BOX", "ref": "3035000025"}, "type": "Feature"}
{"geometry": {"coordinates": [-84.3410084, 33.987704], "type": "Point"}, "id": "RWkl9370YNWhD6H7kGakFaW-07o=", "properties": {"@spider": "usps_collection_boxes", "addr:city": "ATLANTA", "addr:country": "US", "addr:full": "8595 DUNWOODY PL", "addr:postcode": "30350", "addr:state": "GA", "brand": "USPS", "collection_times": "Mo-Sa 10:00", "name": "USPS COLLECTION BOX - BLUE BOX", "ref": "3035000026"}, "type": "Feature"}
{"geometry": {"coordinates": [-84.3427917, 33.991506], "type": "Point"}, "id": "8roS2yJfRd-3oLopwsByIXZtnOU=", "properties": {"@spider": "usps_collection_boxes", "addr:city": "ATLANTA", "addr:country": "US", "addr:full": "8601 DUNWOODY PL STE 600", "addr:postcode": "30350", "addr:state": "GA", "brand": "USPS", "collection_times": "Mo-Sa 10:00", "name": "USPS COLLECTION BOX - BLUE BOX", "ref": "3035000028"}, "type": "Feature"}
{"geometry": {"coordinates": [-84.3516793, 33.997576], "type": "Point"}, "id": "UDL3UNxawB4YWD57fV7uZlnBZzI=", "properties": {"@spider": "usps_collection_boxes", "addr:city": "ATLANTA", "addr:country": "US", "addr:full": "8800 ROSWELL RD", "addr:postcode": "30350", "addr:state": "GA", "brand": "USPS", "collection_times": "Mo-Sa 10:00", "name": "USPS COLLECTION BOX - BLUE BOX", "ref": "3035000034"}, "type": "Feature"}
{"geometry": {"coordinates": [-84.3532594, 33.99139], "type": "Point"}, "id": "vuFvkc1MLnBa0KomINc8dcfpltM=", "properties": {"@spider": "usps_collection_boxes", "addr:city": "ATLANTA", "addr:country": "US", "addr:full": "8610 ROSWELL RD", "addr:postcode": "30350", "addr:state": "GA", "brand": "USPS", "collection_times": "Mo-Sa 10:00", "name": "USPS COLLECTION BOX - BLUE BOX", "ref": "3035000043"}, "type": "Feature"}
{"geometry": {"coordinates": [-84.3471626, 33.993767], "type": "Point"}, "id": "cyaqEgUQoAgW0tInx3Ipp1nwOOw=", "properties": {"@spider": "usps_collection_boxes", "addr:city": "ATLANTA", "addr:country": "US", "addr:full": "8701 DUNWOODY PL", "addr:postcode": "30350", "addr:state": "GA", "brand": "USPS", "collection_times": "Mo-Sa 10:00", "name": "USPS COLLECTION BOX - BLUE BOX", "ref": "3035000048"}, "type": "Feature"}
{"geometry": {"coordinates": [-84.3479084, 33.980493], "type": "Point"}, "id": "mC26I57e-rALKMO8CKNWme_42ZE=", "properties": {"@spider": "usps_collection_boxes", "addr:city": "ATLANTA", "addr:country": "US", "addr:full": "365 NORTHRIDGE RD", "addr:postcode": "30350", "addr:state": "GA", "brand": "USPS", "collection_times": "Mo-Sa 10:00", "name": "USPS COLLECTION BOX - BLUE BOX", "ref": "3035000051"}, "type": "Feature"}
{"geometry": {"coordinates": [-84.3478923, 33.980494], "type": "Point"}, "id": "Vz7IvGmkn8MEcAKgz0j0PIv2-LQ=", "properties": {"@spider": "usps_collection_boxes", "addr:city": "ATLANTA", "addr:country": "US", "addr:full": "365 NORTHRIDGE RD", "addr:postcode": "30350", "addr:state": "GA", "brand": "USPS", "collection_times": "Mo-Sa 10:00", "name": "USPS COLLECTION BOX - BLUE BOX", "ref": "3035000059"}, "type": "Feature"}
{"geometry": {"coordinates": [-84.3447775, 33.986353], "type": "Point"}, "id": "3QUTzJTTktbAafv_QT9foObRBvs=", "properties": {"@spider": "usps_collection_boxes", "addr:city": "ATLANTA", "addr:country": "US", "addr:full": "1303 HIGHTOWER TRL", "addr:postcode": "30350", "addr:state": "GA", "brand": "USPS", "collection_times": "Mo-Sa 10:00", "name": "USPS COLLECTION BOX - BLUE BOX", "ref": "3035000067"}, "type": "Feature"}
{"geometry": {"coordinates": [-84.3411451, 33.991264], "type": "Point"}, "id": "35OFl99gV9UwmEaCpT1gXhdEWQ8=", "properties": {"@spider": "usps_collection_boxes", "addr:city": "ATLANTA", "addr:country": "US", "addr:full": "8607 ROBERTS DR", "addr:postcode": "30350", "addr:state": "GA", "brand": "USPS", "collection_times": "Mo-Sa 10:00", "name": "USPS COLLECTION BOX - BLUE BOX", "ref": "3035000070"}, "type": "Feature"}
{"geometry": {"coordinates": [-84.3491462, 33.995806], "type": "Point"}, "id": "n3exzab1KsXrjkhRtc8oLBO2m4A=", "properties": {"@spider": "usps_collection_boxes", "addr:city": "ATLANTA", "addr:country": "US", "addr:full": "8735 DUNWOODY PL", "addr:postcode": "30350", "addr:state": "GA", "brand": "USPS", "collection_times": "Mo-Sa 10:00", "name": "USPS COLLECTION BOX - BLUE BOX", "ref": "3035000071"}, "type": "Feature"}
{"geometry": {"coordinates": [-84.347916, 33.987282], "type": "Point"}, "id": "7ZEKak9HSp3i8jzS5EWjyf9Y-4M=", "properties": {"@spider": "usps_collection_boxes", "addr:city": "ATLANTA", "addr:country": "US", "addr:full": "1185 HIGHTOWER TRL", "addr:postcode": "30350", "addr:state": "GA", "brand": "USPS", "collection_times": "Mo-Fr 17:00; Sa 15:30", "name": "USPS COLLECTION BOX - PO LOBBY", "note": "ON 12/24 AND 12/31, THIS BOX MAY BE COLLECTED AS EARLY AS 12 NOON.", "ref": "3035000087"}, "type": "Feature"}
{"geometry": {"coordinates": [-84.3406799, 33.990176], "type": "Point"}, "id": "1CUqsUj9uG-c8C8tbtz8jYG8V2M=", "properties": {"@spider": "usps_collection_boxes", "addr:city": "ATLANTA", "addr:country": "US", "addr:full": "8601 DUNWOODY PL STE 300", "addr:postcode": "30350", "addr:state": "GA", "brand": "USPS", "collection_times": "Mo-Sa 10:00", "name": "USPS COLLECTION BOX - BLUE BOX", "ref": "3035000094"}, "type": "Feature"}
{"geometry": {"coordinates": [-84.365650201, 33.961045775], "type": "Point"}, "id": "lpeaic7FmSSgwf6dFDjPe-6KGEQ=", "properties": {"@spider": "usps_collection_boxes", "addr:city": "ATLANTA", "addr:country": "US", "addr:full": "7527 ROSWELL RD", "addr:postcode": "30350", "addr:state": "GA", "brand": "USPS", "collection_times": "Mo-Fr 17:00", "name": "USPS COLLECTION BOX - PO LOBBY", "note": "ON 12/24 AND 12/31, THIS BOX MAY BE COLLECTED AS EARLY AS 12 NOON.", "ref": "3035000096"}, "type": "Feature"}
{"geometry": {"coordinates": [-84.347866665, 33.987270765], "type": "Point"}, "id": "SSc95OzlnpSeA_bVP-Fe1nzkp5k=", "properties": {"@spider": "usps_collection_boxes", "addr:city": "ATLANTA", "addr:country": "US", "addr:full": "1185 HIGHTOWER TRL", "addr:postcode": "30350", "addr:state": "GA", "brand": "USPS", "collection_times": "Mo-Fr 17:00", "name": "USPS COLLECTION BOX - PO LOBBY", "note": "ON 12/24 AND 12/31, THIS BOX MAY BE COLLECTED AS EARLY AS 12 NOON.", "ref": "3035000097"}, "type": "Feature"}
{"geometry": {"coordinates": [-84.3948454, 33.648641], "type": "Point"}, "id": "pEZ_ZtPK5jwokQyvt09GvYZ56ac=", "properties": {"@spider": "usps_collection_boxes", "addr:city": "HAPEVILLE", "addr:country": "US", "addr:full": "400 TRADEPORT BLVD", "addr:postcode": "30354", "addr:state": "GA", "brand": "USPS", "collection_times": "Mo-Sa 10:00", "name": "USPS COLLECTION BOX - BLUE BOX", "ref": "3035400002"}, "type": "Feature"}
{"geometry": {"coordinates": [-84.3928949, 33.648584], "type": "Point"}, "id": "8Djsgm4C_O8DkGWZuN6nsTCI48M=", "properties": {"@spider": "usps_collection_boxes", "addr:city": "HAPEVILLE", "addr:country": "US", "addr:full": "200 TRADEPORT BLVD", "addr:postcode": "30354", "addr:state": "GA", "brand": "USPS", "collection_times": "Mo-Sa 10:00", "name": "USPS COLLECTION BOX - BLUE BOX", "ref": "3035400008"}, "type": "Feature"}
{"geometry": {"coordinates": [-84.4084674, 33.65935], "type": "Point"}, "id": "sgZo7GioSnF17p7vS2Iv8RB3ykc=", "properties": {"@spider": "usps_collection_boxes", "addr:city": "HAPEVILLE", "addr:country": "US", "addr:full": "3468 N FULTON AVE", "addr:postcode": "30354", "addr:state": "GA", "brand": "USPS", "collection_times": "Mo-Sa 10:00", "name": "USPS COLLECTION BOX - BLUE BOX", "ref": "3035400010"}, "type": "Feature"}
{"geometry": {"coordinates": [-84.4094957, 33.658348], "type": "Point"}, "id": "0Wx58gRzN_BwvCW0O42tm_DvRLs=", "properties": {"@spider": "usps_collection_boxes", "addr:city": "HAPEVILLE", "addr:country": "US", "addr:full": "650 S CENTRAL AVE", "addr:postcode": "30354", "addr:state": "GA", "brand": "USPS", "collection_times": "Mo-Fr 17:00; Sa 14:30", "name": "USPS COLLECTION BOX - PO LOBBY", "note": "ON 12/24 AND 12/31, THIS BOX MAY BE COLLECTED AS EARLY AS 12 NOON.", "ref": "3035400027"}, "type": "Feature"}
{"geometry": {"coordinates": [-84.4234636, 33.659706], "type": "Point"}, "id": "bxs7_m4IB3fnSGPL-dOP0pHHG6c=", "properties": {"@spider": "usps_collection_boxes", "addr:city": "HAPEVILLE", "addr:country": "US", "addr:full": "1025 VIRGINIA AVE", "addr:postcode": "30354", "addr:state": "GA", "brand": "USPS", "collection_times": "Mo-Fr 10:00", "name": "USPS COLLECTION BOX - BLUE BOX", "ref": "3035400044"}, "type": "Feature"}
{"geometry": {"coordinates": [-84.4037595, 33.640282], "type": "Point"}, "id": "fMeXY2Vd1mYhwCefjbL8rGzMeh0=", "properties": {"@spider": "usps_collection_boxes", "addr:city": "HAPEVILLE", "addr:country": "US", "addr:full": "2310 CHARLES W. GRANT PKWY", "addr:postcode": "30354", "addr:state": "GA", "brand": "USPS", "collection_times": "Mo-Sa 10:00", "name": "USPS COLLECTION BOX - BLUE BOX", "ref": "3035400050"}, "type": "Feature"}
{"geometry": {"coordinates": [-84.3955842, 33.639012], "type": "Point"}, "id": "gUzTSPL6BT7ytWVkwnMQp9K7y5o=", "properties": {"@spider": "usps_collection_boxes", "addr:city": "HAPEVILLE", "addr:country": "US", "addr:full": "4244 INTERNATIONAL PKWY", "addr:postcode": "30354", "addr:state": "GA", "brand": "USPS", "collection_times": "Mo-Fr 10:00", "name": "USPS COLLECTION BOX - BLUE BOX", "ref": "3035400052"}, "type": "Feature"}
{"geometry": {"coordinates": [-84.4221755, 33.659238], "type": "Point"}, "id": "nepWrtFDCvB5J73Gq2uJ7R5EDvk=", "properties": {"@spider": "usps_collection_boxes", "addr:city": "HAPEVILLE", "addr:country": "US", "addr:full": "1001 VIRGINIA AVE", "addr:postcode": "30354", "addr:state": "GA", "brand": "USPS", "collection_times": "Mo-Fr 10:00", "name": "USPS COLLECTION BOX - BLUE BOX", "ref": "3035400053"}, "type": "Feature"}
{"geometry": {"coordinates": [-84.409422301, 33.658651332], "type": "Point"}, "id": "tz0egu5QU_AEO_hUkNLGyJtNwSk=", "properties": {"@spider": "usps_collection_boxes", "addr:city": "HAPEVILLE", "addr:country": "US", "addr:full": "650 S CENTRAL AVE", "addr:postcode": "30354", "addr:state": "GA", "brand": "USPS", "collection_times": "Mo-Fr 17:00", "name": "USPS COLLECTION BOX - PO LOBBY", "note": "ON 12/24 AND 12/31, THIS BOX MAY BE COLLECTED AS EARLY AS 12 NOON.", "ref": "3035400054"}, "type": "Feature"}
{"geometry": {"coordinates": [-84.405331, 33.773904], "type": "Point"}, "id": "yZxGG28Te9rAcymN3z9fESyrTUw=", "properties": {"@spider": "usps_collection_boxes", "addr:city": "ATLANTA", "addr:country": "US", "addr:full": "794 MARIETTA ST NW", "addr:postcode": "30377", "addr:state": "GA", "brand": "USPS", "collection_times": "Mo-Fr 17:00", "name": "USPS COLLECTION BOX - PO LOBBY", "note": "ON 12/24 AND 12/31, THIS BOX MAY BE COLLECTED AS EARLY AS 12 NOON.", "ref": "3037700000"}, "type": "Feature"}
