{"dataset_attributes": {"@spider": "usps_collection_boxes"}, "geometry": {"coordinates": [-81.662886659, 32.379526117], "type": "Point"}, "id": "HedPYldG8rVtBrlzB8pPhqmG0cQ=", "properties": {"@spider": "usps_collection_boxes", "addr:city": "BROOKLET", "addr:country": "US", "addr:full": "129 E LEE ST", "addr:postcode": "30415", "addr:state": "GA", "amenity": "post_box", "brand": "United States Postal Service", "brand:wikidata": "Q668687", "collection_times": "Mo-Fr 17:00; Sa 11:30", "name": "USPS COLLECTION BOX - PO LOBBY", "note": "ON 12/24 AND 12/31, THIS BOX MAY BE COLLECTED AS EARLY AS 12 NOON.", "nsi_id": "unitedstatespostalservice-a77078", "operator": "United States Postal Service", "operator:short": "USPS", "operator:type": "public", "operator:wikidata": "Q668687", "ref": "3041500001"}, "type": "Feature"}
{"dataset_attributes": {"@spider": "usps_collection_boxes"}, "geometry": {"coordinates": [-81.662886659, 32.379526117], "type": "Point"}, "id": "NP6UoeVOS0xBRpnt_kFeBM-ZzP0=", "properties": {"@spider": "usps_collection_boxes", "addr:city": "BROOKLET", "addr:country": "US", "addr:full": "129 E LEE ST", "addr:postcode": "30415", "addr:state": "GA", "amenity": "post_box", "brand": "United States Postal Service", "brand:wikidata": "Q668687", "collection_times": "Mo-Fr 17:00; Sa 11:30", "name": "USPS COLLECTION BOX - BLUE BOX", "note": "ON 12/24 AND 12/31, THIS BOX MAY BE COLLECTED AS EARLY AS 12 NOON.", "nsi_id": "unitedstatespostalservice-a77078", "operator": "United States Postal Service", "operator:short": "USPS", "operator:type": "public", "operator:wikidata": "Q668687", "ref": "3041500004"}, "type": "Feature"}
{"dataset_attributes": {"@spider": "usps_collection_boxes"}, "geometry": {"coordinates": [-81.662886659, 32.379526117], "type": "Point"}, "id": "0AcwUo5zBbZ4Eta_hOwJersYAq4=", "properties": {"@spider": "usps_collection_boxes", "addr:city": "BROOKLET", "addr:country": "US", "addr:full": "129 E LEE ST", "addr:postcode": "30415", "addr:state": "GA", "amenity": "post_box", "brand": "United States Postal Service", "brand:wikidata": "Q668687", "collection_times": "Mo-Fr 17:00; Sa 11:30", "name": "USPS COLLECTION BOX - PO LOBBY", "note": "ON 12/24 AND 12/31, THIS BOX MAY BE COLLECTED AS EARLY AS 12 NOON.", "nsi_id": "unitedstatespostalservice-a77078", "operator": "United States Postal Service", "operator:short": "USPS", "operator:type": "public", "operator:wikidata": "Q668687", "ref": "3041500006"}, "type": "Feature"}
{"dataset_attributes": {"@spider": "usps_collection_boxes"}, "geometry": {"coordinates": [-81.704352856, 32.590424492], "type": "Point"}, "id": "4zOaG8LmxqWIMJE2TklkU4m6Fi4=", "properties": {"@spider": "usps_collection_boxes", "addr:city": "DOVER", "addr:country": "US", "addr:full": "6516 STATESBORO HWY", "addr:postcode": "30424", "addr:state": "GA", "amenity": "post_box", "brand": "United States Postal Service", "brand:wikidata": "Q668687", "collection_times": "Mo-Fr 15:45; Sa 11:30", "name": "USPS COLLECTION BOX - BLUE BOX", "note": "ON 12/24 AND 12/31, THIS BOX MAY BE COLLECTED AS EARLY AS 12 NOON.", "nsi_id": "unitedstatespostalservice-a77078", "operator": "United States Postal Service", "operator:short": "USPS", "operator:type": "public", "operator:wikidata": "Q668687", "ref": "3042400001"}, "type": "Feature"}
{"dataset_attributes": {"@spider": "usps_collection_boxes"}, "geometry": {"coordinates": [-81.704352856, 32.590424492], "type": "Point"}, "id": "qSpMHayMgzimhTJKOmpLUrTvH2U=", "properties": {"@spider": "usps_collection_boxes", "addr:city": "DOVER", "addr:country": "US", "addr:full": "6516 STATESBORO HWY", "addr:postcode": "30424", "addr:state": "GA", "amenity": "post_box", "brand": "United States Postal Service", "brand:wikidata": "Q668687", "collection_times": "Mo-Fr 15:45; Sa 11:30", "name": "USPS COLLECTION BOX - PO LOBBY", "note": "ON 12/24 AND 12/31, THIS BOX MAY BE COLLECTED AS EARLY AS 12 NOON.", "nsi_id": "unitedstatespostalservice-a77078", "operator": "United States Postal Service", "operator:short": "USPS", "operator:type": "public", "operator:wikidata": "Q668687", "ref": "3042400002"}, "type": "Feature"}
{"dataset_attributes": {"@spider": "usps_collection_boxes"}, "geometry": {"coordinates": [-81.704352856, 32.590424492], "type": "Point"}, "id": "e0VF7aHdW195w7iGSvmICCIywH8=", "properties": {"@spider": "usps_collection_boxes", "addr:city": "DOVER", "addr:country": "US", "addr:full": "6516 STATESBORO HWY", "addr:postcode": "30424", "addr:state": "GA", "amenity": "post_box", "brand": "United States Postal Service", "brand:wikidata": "Q668687", "collection_times": "Mo-Fr 15:45; Sa 11:30", "name": "USPS COLLECTION BOX - PO LOBBY", "note": "ON 12/24 AND 12/31, THIS BOX MAY BE COLLECTED AS EARLY AS 12 NOON.", "nsi_id": "unitedstatespostalservice-a77078", "operator": "United States Postal Service", "operator:short": "USPS", "operator:type": "public", "operator:wikidata": "Q668687", "ref": "3042400003"}, "type": "Feature"}
{"dataset_attributes": {"@spider": "usps_collection_boxes"}, "geometry": {"coordinates": [-81.713208659, 33.042632175], "type": "Point"}, "id": "l2AsJ7dN74gypHJPEHs4vJPstV8=", "properties": {"@spider": "usps_collection_boxes", "addr:city": "GIRARD", "addr:country": "US", "addr:full": "10280 GA HIGHWAY 23 S", "addr:postcode": "30426", "addr:state": "GA", "amenity": "post_box", "brand": "United States Postal Service", "brand:wikidata": "Q668687", "collection_times": "Mo-Fr 12:30; Sa 11:00", "name": "USPS COLLECTION BOX - BLUE BOX", "note": "ON 12/24 AND 12/31, THIS BOX MAY BE COLLECTED AS EARLY AS 12 NOON.", "nsi_id": "unitedstatespostalservice-a77078", "operator": "United States Postal Service", "operator:short": "USPS", "operator:type": "public", "operator:wikidata": "Q668687", "ref": "3042600001"}, "type": "Feature"}
{"dataset_attributes": {"@spider": "usps_collection_boxes"}, "geometry": {"coordinates": [-81.713208659, 33.042632175], "type": "Point"}, "id": "3xRw681FqK-v_ky3oYJiGEu9_lY=", "properties": {"@spider": "usps_collection_boxes", "addr:city": "GIRARD", "addr:country": "US", "addr:full": "10280 GA HIGHWAY 23 S", "addr:postcode": "30426", "addr:state": "GA", "amenity": "post_box", "brand": "United States Postal Service", "brand:wikidata": "Q668687", "collection_times": "Mo-Fr 12:30; Sa 11:00", "name": "USPS COLLECTION BOX - PO LOBBY", "note": "ON 12/24 AND 12/31, THIS BOX MAY BE COLLECTED AS EARLY AS 12 NOON.", "nsi_id": "unitedstatespostalservice-a77078", "operator": "United States Postal Service", "operator:short": "USPS", "operator:type": "public", "operator:wikidata": "Q668687", "ref": "3042600002"}, "type": "Feature"}
{"dataset_attributes": {"@spider": "usps_collection_boxes"}, "geometry": {"coordinates": [-81.713208659, 33.042632175], "type": "Point"}, "id": "j-AkL9uaNVra5BgvX-vuvnXRMC0=", "properties": {"@spider": "usps_collection_boxes", "addr:city": "GIRARD", "addr:country": "US", "addr:full": "10280 GA HIGHWAY 23 S", "addr:postcode": "30426", "addr:state": "GA", "amenity": "post_box", "brand": "United States Postal Service", "brand:wikidata": "Q668687", "collection_times": "Mo-Fr 12:30; Sa 11:00", "name": "USPS COLLECTION BOX - PO LOBBY", "note": "ON 12/24 AND 12/31, THIS BOX MAY BE COLLECTED AS EARLY AS 12 NOON.", "nsi_id": "unitedstatespostalservice-a77078", "operator": "United States Postal Service", "operator:short": "USPS", "operator:type": "public", "operator:wikidata": "Q668687", "ref": "3042600004"}, "type": "Feature"}
{"dataset_attributes": {"@spider": "usps_collection_boxes"}, "geometry": {"coordinates": [-81.504658125, 32.589462592], "type": "Point"}, "id": "XXzWugPV6nkMxAF75Vg0HfGYZBo=", "properties": {"@spider": "usps_collection_boxes", "addr:city": "NEWINGTON", "addr:country": "US", "addr:full": "120 OLIVER HWY", "addr:postcode": "30446", "addr:state": "GA", "amenity": "post_box", "brand": "United States Postal Service", "brand:wikidata": "Q668687", "collection_times": "Mo-Fr 15:30; Sa 12:00", "name": "USPS COLLECTION BOX - BLUE BOX", "note": "ON 12/24 AND 12/31, THIS BOX MAY BE COLLECTED AS EARLY AS 12 NOON.", "nsi_id": "unitedstatespostalservice-a77078", "operator": "United States Postal Service", "operator:short": "USPS", "operator:type": "public", "operator:wikidata": "Q668687", "ref": "3044600001"}, "type": "Feature"}
{"dataset_attributes": {"@spider": "usps_collection_boxes"}, "geometry": {"coordinates": [-81.504658125, 32.589462592], "type": "Point"}, "id": "C5JTHprCXGJ2l_mTCnCAo3_3KpU=", "properties": {"@spider": "usps_collection_boxes", "addr:city": "NEWINGTON", "addr:country": "US", "addr:full": "120 OLIVER HWY", "addr:postcode": "30446", "addr:state": "GA", "amenity": "post_box", "brand": "United States Postal Service", "brand:wikidata": "Q668687", "collection_times": "Mo-Fr 15:45; Sa 11:45", "name": "USPS COLLECTION BOX - PO LOBBY", "note": "ON 12/24 AND 12/31, THIS BOX MAY BE COLLECTED AS EARLY AS 12 NOON.", "nsi_id": "unitedstatespostalservice-a77078", "operator": "United States Postal Service", "operator:short": "USPS", "operator:type": "public", "operator:wikidata": "Q668687", "ref": "3044600002"}, "type": "Feature"}
{"dataset_attributes": {"@spider": "usps_collection_boxes"}, "geometry": {"coordinates": [-81.504658125, 32.589462592], "type": "Point"}, "id": "iapPR9V_kJQm1RhmsojnqG4-UYQ=", "properties": {"@spider": "usps_collection_boxes", "addr:city": "NEWINGTON", "addr:country": "US", "addr:full": "120 OLIVER HWY", "addr:postcode": "30446", "addr:state": "GA", "amenity": "post_box", "brand": "United States Postal Service", "brand:wikidata": "Q668687", "collection_times": "Mo-Fr 15:45; Sa 11:45", "name": "USPS COLLECTION BOX - PO LOBBY", "note": "ON 12/24 AND 12/31, THIS BOX MAY BE COLLECTED AS EARLY AS 12 NOON.", "nsi_id": "unitedstatespostalservice-a77078", "operator": "United States Postal Service", "operator:short": "USPS", "operator:type": "public", "operator:wikidata": "Q668687", "ref": "3044600004"}, "type": "Feature"}
{"dataset_attributes": {"@spider": "usps_collection_boxes"}, "geometry": {"coordinates": [-81.52904829, 32.519879704], "type": "Point"}, "id": "wCL3_mg3UDpg6oSujT6ZldXLVLM=", "properties": {"@spider": "usps_collection_boxes", "addr:city": "OLIVER", "addr:country": "US", "addr:full": "6185 EFFINGHAM HWY", "addr:postcode": "30449", "addr:state": "GA", "amenity": "post_box", "brand": "United States Postal Service", "brand:wikidata": "Q668687", "collection_times": "Mo-Fr 12:45; Sa 11:30", "name": "USPS COLLECTION BOX - BLUE BOX", "note": "ON 12/24 AND 12/31, THIS BOX MAY BE COLLECTED AS EARLY AS 12 NOON.", "nsi_id": "unitedstatespostalservice-a77078", "operator": "United States Postal Service", "operator:short": "USPS", "operator:type": "public", "operator:wikidata": "Q668687", "ref": "3044900002"}, "type": "Feature"}
{"dataset_attributes": {"@spider": "usps_collection_boxes"}, "geometry": {"coordinates": [-81.52904829, 32.519879704], "type": "Point"}, "id": "pCUSO_TAcnx1nLTWCvMvJ4UiiCA=", "properties": {"@spider": "usps_collection_boxes", "addr:city": "OLIVER", "addr:country": "US", "addr:full": "6185 EFFINGHAM HWY", "addr:postcode": "30449", "addr:state": "GA", "amenity": "post_box", "brand": "United States Postal Service", "brand:wikidata": "Q668687", "collection_times": "Mo-Fr 12:45; Sa 11:30", "name": "USPS COLLECTION BOX - PO LOBBY", "note": "ON 12/24 AND 12/31, THIS BOX MAY BE COLLECTED AS EARLY AS 12 NOON.", "nsi_id": "unitedstatespostalservice-a77078", "operator": "United States Postal Service", "operator:short": "USPS", "operator:type": "public", "operator:wikidata": "Q668687", "ref": "3044900003"}, "type": "Feature"}
{"dataset_attributes": {"@spider": "usps_collection_boxes"}, "geometry": {"coordinates": [-81.52904829, 32.519879704], "type": "Point"}, "id": "1IWTrkWkm1fFnb9iXinxMzzvGrg=", "properties": {"@spider": "usps_collection_boxes", "addr:city": "OLIVER", "addr:country": "US", "addr:full": "6185 EFFINGHAM HWY", "addr:postcode": "30449", "addr:state": "GA", "amenity": "post_box", "brand": "United States Postal Service", "brand:wikidata": "Q668687", "collection_times": "Mo-Fr 12:45; Sa 11:30", "name": "USPS COLLECTION BOX - PO LOBBY", "note": "ON 12/24 AND 12/31, THIS BOX MAY BE COLLECTED AS EARLY AS 12 NOON.", "nsi_id": "unitedstatespostalservice-a77078", "operator": "United States Postal Service", "operator:short": "USPS", "operator:type": "public", "operator:wikidata": "Q668687", "ref": "3044900004"}, "type": "Feature"}
{"dataset_attributes": {"@spider": "usps_collection_boxes"}, "geometry": {"coordinates": [-81.7569642, 32.973525], "type": "Point"}, "id": "R6tO9RuMJ-qj7pfEO4QgTeK5vXc=", "properties": {"@spider": "usps_collection_boxes", "addr:city": "SARDIS", "addr:country": "US", "addr:full": "932 PERRY AVE", "addr:postcode": "30456", "addr:state": "GA", "amenity": "post_box", "brand": "United States Postal Service", "brand:wikidata": "Q668687", "collection_times": "Mo-Fr 16:00; Sa 11:00", "name": "USPS COLLECTION BOX - BLUE BOX", "note": "ON 12/24 AND 12/31, THIS BOX MAY BE COLLECTED AS EARLY AS 12 NOON.", "nsi_id": "unitedstatespostalservice-a77078", "operator": "United States Postal Service", "operator:short": "USPS", "operator:type": "public", "operator:wikidata": "Q668687", "ref": "3045600001"}, "type": "Feature"}
{"dataset_attributes": {"@spider": "usps_collection_boxes"}, "geometry": {"coordinates": [-81.7569642, 32.973525], "type": "Point"}, "id": "MG1YFKSeq1sLDqb8zghGLQQKojc=", "properties": {"@spider": "usps_collection_boxes", "addr:city": "SARDIS", "addr:country": "US", "addr:full": "932 PERRY AVE", "addr:postcode": "30456", "addr:state": "GA", "amenity": "post_box", "brand": "United States Postal Service", "brand:wikidata": "Q668687", "collection_times": "Mo-Fr 16:00; Sa 11:00", "name": "USPS COLLECTION BOX - PO LOBBY", "note": "ON 12/24 AND 12/31, THIS BOX MAY BE COLLECTED AS EARLY AS 12 NOON.", "nsi_id": "unitedstatespostalservice-a77078", "operator": "United States Postal Service", "operator:short": "USPS", "operator:type": "public", "operator:wikidata": "Q668687", "ref": "3045600003"}, "type": "Feature"}
{"dataset_attributes": {"@spider": "usps_collection_boxes"}, "geometry": {"coordinates": [-81.7569642, 32.973525], "type": "Point"}, "id": "U99n8Y3GNbGP8XPRf2qqp5XsWjU=", "properties": {"@spider": "usps_collection_boxes", "addr:city": "SARDIS", "addr:country": "US", "addr:full": "932 PERRY AVE", "addr:postcode": "30456", "addr:state": "GA", "amenity": "post_box", "brand": "United States Postal Service", "brand:wikidata": "Q668687", "collection_times": "Mo-Fr 16:00; Sa 11:00", "name": "USPS COLLECTION BOX - PO LOBBY", "note": "ON 12/24 AND 12/31, THIS BOX MAY BE COLLECTED AS EARLY AS 12 NOON.", "nsi_id": "unitedstatespostalservice-a77078", "operator": "United States Postal Service", "operator:short": "USPS", "operator:type": "public", "operator:wikidata": "Q668687", "ref": "3045600006"}, "type": "Feature"}
{"dataset_attributes": {"@spider": "usps_collection_boxes"}, "geometry": {"coordinates": [-81.782018328, 32.449625905], "type": "Point"}, "id": "IO0Ka-Kp6JHWGuKTZqXjc2Tgg6M=", "properties": {"@spider": "usps_collection_boxes", "addr:city": "STATESBORO", "addr:country": "US", "addr:full": "23 COURTLAND ST", "addr:postcode": "30458", "addr:state": "GA", "amenity": "post_box", "brand": "United States Postal Service", "brand:wikidata": "Q668687", "collection_times": "Mo-Fr 16:00; Sa 10:00", "name": "USPS COLLECTION BOX - BLUE BOX", "note": "ON 12/24 AND 12/31, THIS BOX MAY BE COLLECTED AS EARLY AS 12 NOON.", "nsi_id": "unitedstatespostalservice-a77078", "operator": "United States Postal Service", "operator:short": "USPS", "operator:type": "public", "operator:wikidata": "Q668687", "ref": "3045800003"}, "type": "Feature"}
{"dataset_attributes": {"@spider": "usps_collection_boxes"}, "geometry": {"coordinates": [-81.760345898, 32.43687677], "type": "Point"}, "id": "7nVx84k6skqJkD7jJ8u2qEgt30U=", "properties": {"@spider": "usps_collection_boxes", "addr:city": "STATESBORO", "addr:country": "US", "addr:full": "325 NORTHSIDE DR E", "addr:postcode": "30458", "addr:state": "GA", "amenity": "post_box", "brand": "United States Postal Service", "brand:wikidata": "Q668687", "collection_times": "Mo-Fr 16:00; Sa 10:00", "name": "USPS COLLECTION BOX - BLUE BOX", "note": "ON 12/24 AND 12/31, THIS BOX MAY BE COLLECTED AS EARLY AS 12 NOON.", "nsi_id": "unitedstatespostalservice-a77078", "operator": "United States Postal Service", "operator:short": "USPS", "operator:type": "public", "operator:wikidata": "Q668687", "ref": "3045800008"}, "type": "Feature"}
{"dataset_attributes": {"@spider": "usps_collection_boxes"}, "geometry": {"coordinates": [-81.76205885, 32.438184164], "type": "Point"}, "id": "VL1LHGc5-PMjuvNrx0YzlKww2RM=", "properties": {"@spider": "usps_collection_boxes", "addr:city": "STATESBORO", "addr:country": "US", "addr:full": "430 NORTHSIDE DR E", "addr:postcode": "30458", "addr:state": "GA", "amenity": "post_box", "brand": "United States Postal Service", "brand:wikidata": "Q668687", "collection_times": "Mo-Fr 16:00; Sa 10:00", "name": "USPS COLLECTION BOX - BLUE BOX", "note": "ON 12/24 AND 12/31, THIS BOX MAY BE COLLECTED AS EARLY AS 12 NOON.", "nsi_id": "unitedstatespostalservice-a77078", "operator": "United States Postal Service", "operator:short": "USPS", "operator:type": "public", "operator:wikidata": "Q668687", "ref": "3045800020"}, "type": "Feature"}
{"dataset_attributes": {"@spider": "usps_collection_boxes"}, "geometry": {"coordinates": [-81.783813942, 32.45834546], "type": "Point"}, "id": "hqbGyVXTbQbmh1AQA99hdZqwaJk=", "properties": {"@spider": "usps_collection_boxes", "addr:city": "STATESBORO", "addr:country": "US", "addr:full": "301 N MAIN ST", "addr:postcode": "30458", "addr:state": "GA", "amenity": "post_box", "brand": "United States Postal Service", "brand:wikidata": "Q668687", "collection_times": "Mo-Sa 11:00", "name": "USPS COLLECTION BOX - BLUE BOX", "nsi_id": "unitedstatespostalservice-a77078", "operator": "United States Postal Service", "operator:short": "USPS", "operator:type": "public", "operator:wikidata": "Q668687", "ref": "3045800023"}, "type": "Feature"}
{"dataset_attributes": {"@spider": "usps_collection_boxes"}, "geometry": {"coordinates": [-81.781734773, 32.448761037], "type": "Point"}, "id": "QPnZPJbYD4Wl1VXBWmltKFPKjYQ=", "properties": {"@spider": "usps_collection_boxes", "addr:city": "STATESBORO", "addr:country": "US", "addr:full": "50 E MAIN ST", "addr:postcode": "30458", "addr:state": "GA", "amenity": "post_box", "brand": "United States Postal Service", "brand:wikidata": "Q668687", "collection_times": "Mo-Fr 16:00; Sa 10:00", "name": "USPS COLLECTION BOX - BLUE BOX", "note": "ON 12/24 AND 12/31, THIS BOX MAY BE COLLECTED AS EARLY AS 12 NOON.", "nsi_id": "unitedstatespostalservice-a77078", "operator": "United States Postal Service", "operator:short": "USPS", "operator:type": "public", "operator:wikidata": "Q668687", "ref": "3045800027"}, "type": "Feature"}
{"dataset_attributes": {"@spider": "usps_collection_boxes"}, "geometry": {"coordinates": [-81.785792879, 32.448487777], "type": "Point"}, "id": "sgLbCfGFmavsftQv_wNvRGvMhQ4=", "properties": {"@spider": "usps_collection_boxes", "addr:city": "STATESBORO", "addr:country": "US", "addr:full": "1 S COLLEGE ST", "addr:postcode": "30458", "addr:state": "GA", "amenity": "post_box", "brand": "United States Postal Service", "brand:wikidata": "Q668687", "collection_times": "Mo-Sa 17:15", "name": "USPS COLLECTION BOX - PO LOBBY", "note": "ON 12/24 AND 12/31, THIS BOX MAY BE COLLECTED AS EARLY AS 12 NOON.", "nsi_id": "unitedstatespostalservice-a77078", "operator": "United States Postal Service", "operator:short": "USPS", "operator:type": "public", "operator:wikidata": "Q668687", "ref": "3045800028"}, "type": "Feature"}
{"dataset_attributes": {"@spider": "usps_collection_boxes"}, "geometry": {"coordinates": [-81.785792879, 32.448487777], "type": "Point"}, "id": "gZfRmv4yuuUbgTyiwMOdJLu7V-w=", "properties": {"@spider": "usps_collection_boxes", "addr:city": "STATESBORO", "addr:country": "US", "addr:full": "1 S COLLEGE ST", "addr:postcode": "30458", "addr:state": "GA", "amenity": "post_box", "brand": "United States Postal Service", "brand:wikidata": "Q668687", "collection_times": "Mo-Sa 17:15", "name": "USPS COLLECTION BOX - BLUE BOX", "note": "ON 12/24 AND 12/31, THIS BOX MAY BE COLLECTED AS EARLY AS 12 NOON.", "nsi_id": "unitedstatespostalservice-a77078", "operator": "United States Postal Service", "operator:short": "USPS", "operator:type": "public", "operator:wikidata": "Q668687", "ref": "3045800036"}, "type": "Feature"}
{"dataset_attributes": {"@spider": "usps_collection_boxes"}, "geometry": {"coordinates": [-81.768717025, 32.415212961], "type": "Point"}, "id": "7jfibnCkrUBqC_tVSiSd70SEzWc=", "properties": {"@spider": "usps_collection_boxes", "addr:city": "STATESBORO", "addr:country": "US", "addr:full": "1499 FAIR RD", "addr:postcode": "30458", "addr:state": "GA", "amenity": "post_box", "brand": "United States Postal Service", "brand:wikidata": "Q668687", "collection_times": "Mo-Fr 16:00; Sa 09:30", "name": "USPS COLLECTION BOX - BLUE BOX", "note": "ON 12/24 AND 12/31, THIS BOX MAY BE COLLECTED AS EARLY AS 12 NOON.", "nsi_id": "unitedstatespostalservice-a77078", "operator": "United States Postal Service", "operator:short": "USPS", "operator:type": "public", "operator:wikidata": "Q668687", "ref": "3045800037"}, "type": "Feature"}
{"dataset_attributes": {"@spider": "usps_collection_boxes"}, "geometry": {"coordinates": [-81.764646349, 32.409364215], "type": "Point"}, "id": "Wa3HKIZTl2cx0qyCki8bLwHXhm0=", "properties": {"@spider": "usps_collection_boxes", "addr:city": "STATESBORO", "addr:country": "US", "addr:full": "1601 FAIR RD", "addr:postcode": "30458", "addr:state": "GA", "amenity": "post_box", "brand": "United States Postal Service", "brand:wikidata": "Q668687", "collection_times": "Mo-Sa 09:30", "name": "USPS COLLECTION BOX - BLUE BOX", "nsi_id": "unitedstatespostalservice-a77078", "operator": "United States Postal Service", "operator:short": "USPS", "operator:type": "public", "operator:wikidata": "Q668687", "ref": "3045800038"}, "type": "Feature"}
{"dataset_attributes": {"@spider": "usps_collection_boxes"}, "geometry": {"coordinates": [-81.785792879, 32.448487777], "type": "Point"}, "id": "SgUnqjQS-aIiHD76p6QpMzhpbOY=", "properties": {"@spider": "usps_collection_boxes", "addr:city": "STATESBORO", "addr:country": "US", "addr:full": "1 S COLLEGE ST", "addr:postcode": "30458", "addr:state": "GA", "amenity": "post_box", "brand": "United States Postal Service", "brand:wikidata": "Q668687", "collection_times": "Mo-Sa 17:00", "name": "USPS COLLECTION BOX - APC", "note": "ON 12/24 AND 12/31, THIS BOX MAY BE COLLECTED AS EARLY AS 12 NOON.", "nsi_id": "unitedstatespostalservice-a77078", "operator": "United States Postal Service", "operator:short": "USPS", "operator:type": "public", "operator:wikidata": "Q668687", "ref": "3045800040"}, "type": "Feature"}
{"dataset_attributes": {"@spider": "usps_collection_boxes"}, "geometry": {"coordinates": [-81.785792879, 32.448487777], "type": "Point"}, "id": "_0cIeqqbKTaJBtRu-e_O6Si2eLQ=", "properties": {"@spider": "usps_collection_boxes", "addr:city": "STATESBORO", "addr:country": "US", "addr:full": "1 S COLLEGE ST", "addr:postcode": "30458", "addr:state": "GA", "amenity": "post_box", "brand": "United States Postal Service", "brand:wikidata": "Q668687", "collection_times": "Mo-Sa 17:15", "name": "USPS COLLECTION BOX - PO LOBBY", "note": "ON 12/24 AND 12/31, THIS BOX MAY BE COLLECTED AS EARLY AS 12 NOON.", "nsi_id": "unitedstatespostalservice-a77078", "operator": "United States Postal Service", "operator:short": "USPS", "operator:type": "public", "operator:wikidata": "Q668687", "ref": "3045800046"}, "type": "Feature"}
{"dataset_attributes": {"@spider": "usps_collection_boxes"}, "geometry": {"coordinates": [-81.646081965, 32.750421438], "type": "Point"}, "id": "XJPYgQywAvrsZxGRrTVdb9VN0D8=", "properties": {"@spider": "usps_collection_boxes", "addr:city": "SYLVANIA", "addr:country": "US", "addr:full": "216 MIMS RD", "addr:postcode": "30467", "addr:state": "GA", "amenity": "post_box", "brand": "United States Postal Service", "brand:wikidata": "Q668687", "collection_times": "Mo-Fr 16:30; Sa 15:30", "name": "USPS COLLECTION BOX - BLUE BOX", "note": "ON 12/24 AND 12/31, THIS BOX MAY BE COLLECTED AS EARLY AS 12 NOON.", "nsi_id": "unitedstatespostalservice-a77078", "operator": "United States Postal Service", "operator:short": "USPS", "operator:type": "public", "operator:wikidata": "Q668687", "ref": "3046700001"}, "type": "Feature"}
{"dataset_attributes": {"@spider": "usps_collection_boxes"}, "geometry": {"coordinates": [-81.635910687, 32.74994285], "type": "Point"}, "id": "xkEti1ueg206wNm8v2GpY8Wg4Cw=", "properties": {"@spider": "usps_collection_boxes", "addr:city": "SYLVANIA", "addr:country": "US", "addr:full": "113 S MAIN ST", "addr:postcode": "30467", "addr:state": "GA", "amenity": "post_box", "brand": "United States Postal Service", "brand:wikidata": "Q668687", "collection_times": "Mo-Fr 17:00; Sa 16:30", "name": "USPS COLLECTION BOX - BLUE BOX", "note": "ON 12/24 AND 12/31, THIS BOX MAY BE COLLECTED AS EARLY AS 12 NOON.", "nsi_id": "unitedstatespostalservice-a77078", "operator": "United States Postal Service", "operator:short": "USPS", "operator:type": "public", "operator:wikidata": "Q668687", "ref": "3046700002"}, "type": "Feature"}
{"dataset_attributes": {"@spider": "usps_collection_boxes"}, "geometry": {"coordinates": [-81.636307835, 32.749879181], "type": "Point"}, "id": "_zUX240IrcG9pO1gSsIM6jYV4SE=", "properties": {"@spider": "usps_collection_boxes", "addr:city": "SYLVANIA", "addr:country": "US", "addr:full": "112 S MAIN ST", "addr:postcode": "30467", "addr:state": "GA", "amenity": "post_box", "brand": "United States Postal Service", "brand:wikidata": "Q668687", "collection_times": "Mo-Fr 17:00; Sa 16:30", "name": "USPS COLLECTION BOX - BLUE BOX", "note": "ON 12/24 AND 12/31, THIS BOX MAY BE COLLECTED AS EARLY AS 12 NOON.", "nsi_id": "unitedstatespostalservice-a77078", "operator": "United States Postal Service", "operator:short": "USPS", "operator:type": "public", "operator:wikidata": "Q668687", "ref": "3046700004"}, "type": "Feature"}
{"dataset_attributes": {"@spider": "usps_collection_boxes"}, "geometry": {"coordinates": [-81.63687286, 32.751358135], "type": "Point"}, "id": "D1Nwk14uKcszWcI4eFz5tRkuvg8=", "properties": {"@spider": "usps_collection_boxes", "addr:city": "SYLVANIA", "addr:country": "US", "addr:full": "125 N MAIN ST", "addr:postcode": "30467", "addr:state": "GA", "amenity": "post_box", "brand": "United States Postal Service", "brand:wikidata": "Q668687", "collection_times": "Mo-Fr 16:30; Sa 15:30", "name": "USPS COLLECTION BOX - BLUE BOX", "note": "ON 12/24 AND 12/31, THIS BOX MAY BE COLLECTED AS EARLY AS 12 NOON.", "nsi_id": "unitedstatespostalservice-a77078", "operator": "United States Postal Service", "operator:short": "USPS", "operator:type": "public", "operator:wikidata": "Q668687", "ref": "3046700007"}, "type": "Feature"}
{"dataset_attributes": {"@spider": "usps_collection_boxes"}, "geometry": {"coordinates": [-81.64600196, 32.745135856], "type": "Point"}, "id": "Q2FWBlP9Wlg4HEFk1ncTUwlC4qU=", "properties": {"@spider": "usps_collection_boxes", "addr:city": "SYLVANIA", "addr:country": "US", "addr:full": "613 W OGEECHEE ST", "addr:postcode": "30467", "addr:state": "GA", "amenity": "post_box", "brand": "United States Postal Service", "brand:wikidata": "Q668687", "collection_times": "Mo-Fr 16:30; Sa 15:30", "name": "USPS COLLECTION BOX - BLUE BOX", "note": "ON 12/24 AND 12/31, THIS BOX MAY BE COLLECTED AS EARLY AS 12 NOON.", "nsi_id": "unitedstatespostalservice-a77078", "operator": "United States Postal Service", "operator:short": "USPS", "operator:type": "public", "operator:wikidata": "Q668687", "ref": "3046700008"}, "type": "Feature"}
{"dataset_attributes": {"@spider": "usps_collection_boxes"}, "geometry": {"coordinates": [-81.635910687, 32.74994285], "type": "Point"}, "id": "sQ1oC47ZvC-VqD7ArHX_yEuW7q4=", "properties": {"@spider": "usps_collection_boxes", "addr:city": "SYLVANIA", "addr:country": "US", "addr:full": "113 S MAIN ST", "addr:postcode": "30467", "addr:state": "GA", "amenity": "post_box", "brand": "United States Postal Service", "brand:wikidata": "Q668687", "collection_times": "Mo-Fr 17:00; Sa 16:30", "name": "USPS COLLECTION BOX - PO LOBBY", "note": "ON 12/24 AND 12/31, THIS BOX MAY BE COLLECTED AS EARLY AS 12 NOON.", "nsi_id": "unitedstatespostalservice-a77078", "operator": "United States Postal Service", "operator:short": "USPS", "operator:type": "public", "operator:wikidata": "Q668687", "ref": "3046700011"}, "type": "Feature"}
{"dataset_attributes": {"@spider": "usps_collection_boxes"}, "geometry": {"coordinates": [-81.635910687, 32.74994285], "type": "Point"}, "id": "1XgRrhllSKgBs0Q2VW2B4XTjJCc=", "properties": {"@spider": "usps_collection_boxes", "addr:city": "SYLVANIA", "addr:country": "US", "addr:full": "113 S MAIN ST", "addr:postcode": "30467", "addr:state": "GA", "amenity": "post_box", "brand": "United States Postal Service", "brand:wikidata": "Q668687", "collection_times": "Mo-Fr 17:00; Sa 16:30", "name": "USPS COLLECTION BOX - PO LOBBY", "note": "ON 12/24 AND 12/31, THIS BOX MAY BE COLLECTED AS EARLY AS 12 NOON.", "nsi_id": "unitedstatespostalservice-a77078", "operator": "United States Postal Service", "operator:short": "USPS", "operator:type": "public", "operator:wikidata": "Q668687", "ref": "3046700013"}, "type": "Feature"}
