{"geometry": {"coordinates": [-84.3254377, 34.865541], "type": "Point"}, "id": "eJ3E5RRu_Dk8ppm13UfhgjI7Pk0=", "properties": {"@spider": "usps_collection_boxes", "addr:city": "BLUE RIDGE", "addr:country": "US", "addr:full": "274 W MAIN ST", "addr:postcode": "30513", "addr:state": "GA", "brand": "USPS", "collection_times": "Mo-Sa 10:00", "name": "USPS COLLECTION BOX - BLUE BOX", "ref": "3051300001"}, "type": "Feature"}
{"geometry": {"coordinates": [-84.300917, 34.874071], "type": "Point"}, "id": "e09n84XaW04D0e5matt9OtrW4fc=", "properties": {"@spider": "usps_collection_boxes", "addr:city": "BLUE RIDGE", "addr:country": "US", "addr:full": "273 ORVIN LANCE DR", "addr:postcode": "30513", "addr:state": "GA", "brand": "USPS", "collection_times": "Mo-Fr 16:30; Sa 13:15", "name": "USPS COLLECTION BOX - BLUE BOX", "note": "ON 12/24 AND 12/31, THIS BOX MAY BE COLLECTED AS EARLY AS 12 NOON.", "ref": "3051300002"}, "type": "Feature"}
{"geometry": {"coordinates": [-84.3117391, 34.8738], "type": "Point"}, "id": "IvYs6kTnw5brrsAuHCBD6INguHQ=", "properties": {"@spider": "usps_collection_boxes", "addr:city": "BLUE RIDGE", "addr:country": "US", "addr:full": "4153 E FIRST ST", "addr:postcode": "30513", "addr:state": "GA", "brand": "USPS", "collection_times": "Mo-Sa 09:30", "name": "USPS COLLECTION BOX - BLUE BOX", "ref": "3051300003"}, "type": "Feature"}
{"geometry": {"coordinates": [-84.3284035, 34.858296], "type": "Point"}, "id": "tW61V7a4A-v0P7UcFDcFNVkgJwk=", "properties": {"@spider": "usps_collection_boxes", "addr:city": "BLUE RIDGE", "addr:country": "US", "addr:full": "2672 E FIRST ST", "addr:postcode": "30513", "addr:state": "GA", "brand": "USPS", "collection_times": "Mo-Sa 09:00", "name": "USPS COLLECTION BOX - BLUE BOX", "ref": "3051300004"}, "type": "Feature"}
{"geometry": {"coordinates": [-84.3265654, 34.864264], "type": "Point"}, "id": "H2BTj_OioJesAN77GjvVza7rDLo=", "properties": {"@spider": "usps_collection_boxes", "addr:city": "BLUE RIDGE", "addr:country": "US", "addr:full": "400 W MAIN ST", "addr:postcode": "30513", "addr:state": "GA", "brand": "USPS", "collection_times": "Mo-Sa 10:00", "name": "USPS COLLECTION BOX - BLUE BOX", "ref": "3051300005"}, "type": "Feature"}
{"geometry": {"coordinates": [-84.2988921, 34.879193], "type": "Point"}, "id": "a-TwAj2miXWL9qeZU8nHoFi3gzc=", "properties": {"@spider": "usps_collection_boxes", "addr:city": "BLUE RIDGE", "addr:country": "US", "addr:full": "5679 APPALACHIAN HWY", "addr:postcode": "30513", "addr:state": "GA", "brand": "USPS", "collection_times": "Mo-Sa 10:00", "name": "USPS COLLECTION BOX - BLUE BOX", "ref": "3051300006"}, "type": "Feature"}
{"geometry": {"coordinates": [-84.300551, 34.873285], "type": "Point"}, "id": "VBv1euttTBFxa7al91LNnS4SuWY=", "properties": {"@spider": "usps_collection_boxes", "addr:city": "BLUE RIDGE", "addr:country": "US", "addr:full": "273 ORVIN LANCE DR", "addr:postcode": "30513", "addr:state": "GA", "brand": "USPS", "collection_times": "Mo-Fr 16:30; Sa 13:15", "name": "USPS COLLECTION BOX - PO LOBBY", "note": "ON 12/24 AND 12/31, THIS BOX MAY BE COLLECTED AS EARLY AS 12 NOON.", "ref": "3051300007"}, "type": "Feature"}
{"geometry": {"coordinates": [-84.3017283, 34.8773], "type": "Point"}, "id": "-LCYbPn_fW3EuquKgXF8I5a-vb4=", "properties": {"@spider": "usps_collection_boxes", "addr:city": "BLUE RIDGE", "addr:country": "US", "addr:full": "101 RIVERSTONE VIS", "addr:postcode": "30513", "addr:state": "GA", "brand": "USPS", "collection_times": "Mo-Sa 10:00", "name": "USPS COLLECTION BOX - BLUE BOX", "ref": "3051300008"}, "type": "Feature"}
{"geometry": {"coordinates": [-84.300551, 34.873285], "type": "Point"}, "id": "l92oiKJ_0YRc21pIH64kA72eeWM=", "properties": {"@spider": "usps_collection_boxes", "addr:city": "BLUE RIDGE", "addr:country": "US", "addr:full": "273 ORVIN LANCE DR", "addr:postcode": "30513", "addr:state": "GA", "brand": "USPS", "collection_times": "Mo-Fr 16:30; Sa 13:15", "name": "USPS COLLECTION BOX - BLUE BOX", "note": "ON 12/24 AND 12/31, THIS BOX MAY BE COLLECTED AS EARLY AS 12 NOON.", "ref": "3051300009"}, "type": "Feature"}
{"geometry": {"coordinates": [-84.300233948, 34.87365101], "type": "Point"}, "id": "Kq4XDm3uajPshLXtfXtM4Xnra00=", "properties": {"@spider": "usps_collection_boxes", "addr:city": "BLUE RIDGE", "addr:country": "US", "addr:full": "273 ORVIN LANCE DR", "addr:postcode": "30513", "addr:state": "GA", "brand": "USPS", "collection_times": "Mo-Fr 16:30; Sa 12:00", "name": "USPS COLLECTION BOX - PO LOBBY", "note": "ON 12/24 AND 12/31, THIS BOX MAY BE COLLECTED AS EARLY AS 12 NOON.", "ref": "3051300012"}, "type": "Feature"}
{"geometry": {"coordinates": [-84.0226423, 34.101716], "type": "Point"}, "id": "11ie8UxFmdavbyYvAfXpcFxmzvY=", "properties": {"@spider": "usps_collection_boxes", "addr:city": "SUGAR HILL", "addr:country": "US", "addr:full": "4700 NELSON BROGDON BLVD", "addr:postcode": "30518", "addr:state": "GA", "brand": "USPS", "collection_times": "Mo-Sa 09:00", "name": "USPS COLLECTION BOX - BLUE BOX", "ref": "3051800006"}, "type": "Feature"}
{"geometry": {"coordinates": [-84.0161751, 34.101427], "type": "Point"}, "id": "r2A_76b8s8uNhsC6WxmJZ_0Epok=", "properties": {"@spider": "usps_collection_boxes", "addr:city": "SUGAR HILL", "addr:country": "US", "addr:full": "4550 ATWATER CT", "addr:postcode": "30518", "addr:state": "GA", "brand": "USPS", "collection_times": "Mo-Sa 09:00", "name": "USPS COLLECTION BOX - BLUE BOX", "ref": "3051800007"}, "type": "Feature"}
{"geometry": {"coordinates": [-84.0015679803, 34.1089110142], "type": "Point"}, "id": "Sofn_vJ2rkorKCcVoWAiCiNZcZ8=", "properties": {"@spider": "usps_collection_boxes", "addr:city": "SUGAR HILL", "addr:country": "US", "addr:full": "2030 BUFORD HWY", "addr:postcode": "30518", "addr:state": "GA", "brand": "USPS", "collection_times": "Mo-Fr 17:00; Sa 12:00", "name": "USPS COLLECTION BOX - BLUE BOX", "note": "ON 12/24 AND 12/31, THIS BOX MAY BE COLLECTED AS EARLY AS 12 NOON.", "ref": "3051800009"}, "type": "Feature"}
{"geometry": {"coordinates": [-84.0014775, 34.108911], "type": "Point"}, "id": "CDzmdcZJfxEyAJb15IsCsSbvs7Y=", "properties": {"@spider": "usps_collection_boxes", "addr:city": "SUGAR HILL", "addr:country": "US", "addr:full": "2030 BUFORD HWY", "addr:postcode": "30518", "addr:state": "GA", "brand": "USPS", "collection_times": "Mo-Fr 17:00; Sa 12:00", "name": "USPS COLLECTION BOX - BLUE BOX", "note": "ON 12/24 AND 12/31, THIS BOX MAY BE COLLECTED AS EARLY AS 12 NOON.", "ref": "3051800010"}, "type": "Feature"}
{"geometry": {"coordinates": [-84.009499, 34.097785], "type": "Point"}, "id": "pdTHezbUpryc8Gq8WqF8iWWBblM=", "properties": {"@spider": "usps_collection_boxes", "addr:city": "SUGAR HILL", "addr:country": "US", "addr:full": "1605 BUFORD HWY", "addr:postcode": "30518", "addr:state": "GA", "brand": "USPS", "collection_times": "Mo-Sa 09:00", "name": "USPS COLLECTION BOX - BLUE BOX", "ref": "3051800015"}, "type": "Feature"}
{"geometry": {"coordinates": [-84.0058295, 34.11913], "type": "Point"}, "id": "_90db6DFJH5WoQ6HWXM0YabuYgk=", "properties": {"@spider": "usps_collection_boxes", "addr:city": "SUGAR HILL", "addr:country": "US", "addr:full": "95 SCOTT ST", "addr:postcode": "30518", "addr:state": "GA", "brand": "USPS", "collection_times": "Mo-Sa 12:00", "name": "USPS COLLECTION BOX - BLUE BOX", "ref": "3051800016"}, "type": "Feature"}
{"geometry": {"coordinates": [-84.0357581, 34.107518], "type": "Point"}, "id": "pw2d1CeFzu2u4v3qQKOte3H-MAs=", "properties": {"@spider": "usps_collection_boxes", "addr:city": "SUGAR HILL", "addr:country": "US", "addr:full": "5039 W BROAD ST", "addr:postcode": "30518", "addr:state": "GA", "brand": "USPS", "collection_times": "Mo-Fr 15:30; Sa 12:00", "name": "USPS COLLECTION BOX - BLUE BOX", "note": "ON 12/24 AND 12/31, THIS BOX MAY BE COLLECTED AS EARLY AS 12 NOON.", "ref": "3051800017"}, "type": "Feature"}
{"geometry": {"coordinates": [-84.000613, 34.108857], "type": "Point"}, "id": "u416vAP5tsAqUJvm0UmLFBHRXBY=", "properties": {"@spider": "usps_collection_boxes", "addr:city": "SUGAR HILL", "addr:country": "US", "addr:full": "2030 BUFORD HWY", "addr:postcode": "30518", "addr:state": "GA", "brand": "USPS", "collection_times": "Mo-Sa 12:00", "name": "USPS COLLECTION BOX - PO LOBBY", "ref": "3051800018"}, "type": "Feature"}
{"geometry": {"coordinates": [-84.0185814, 34.093376], "type": "Point"}, "id": "fs5P-0_7uyj27D6HWa8zGYfB9tU=", "properties": {"@spider": "usps_collection_boxes", "addr:city": "SUGAR HILL", "addr:country": "US", "addr:full": "1400 BUFORD HWY", "addr:postcode": "30518", "addr:state": "GA", "brand": "USPS", "collection_times": "Mo-Sa 09:00", "name": "USPS COLLECTION BOX - BLUE BOX", "ref": "3051800019"}, "type": "Feature"}
{"geometry": {"coordinates": [-84.0756384, 34.119202], "type": "Point"}, "id": "0t2ikN1fArbManzuhD34UTx7F2M=", "properties": {"@spider": "usps_collection_boxes", "addr:city": "SUGAR HILL", "addr:country": "US", "addr:full": "5885 CUMMING HWY", "addr:postcode": "30518", "addr:state": "GA", "brand": "USPS", "collection_times": "Mo-Sa 09:30", "name": "USPS COLLECTION BOX - BLUE BOX", "ref": "3051800020"}, "type": "Feature"}
{"geometry": {"coordinates": [-84.0014775, 34.108911], "type": "Point"}, "id": "Ne8zJzkPzeaZsDeJB_x1vwnTpeo=", "properties": {"@spider": "usps_collection_boxes", "addr:city": "SUGAR HILL", "addr:country": "US", "addr:full": "2030 BUFORD HWY", "addr:postcode": "30518", "addr:state": "GA", "brand": "USPS", "collection_times": "Mo-Fr 17:00; Sa 12:00", "name": "USPS COLLECTION BOX - BLUE BOX", "note": "ON 12/24 AND 12/31, THIS BOX MAY BE COLLECTED AS EARLY AS 12 NOON.", "ref": "3051800026"}, "type": "Feature"}
{"geometry": {"coordinates": [-84.013419991, 34.099183019], "type": "Point"}, "id": "cZBzM4BUXWMXe9JXM9aUJc1eIDk=", "properties": {"@spider": "usps_collection_boxes", "addr:city": "SUGAR HILL", "addr:country": "US", "addr:full": "4474 COMMERCE DR", "addr:postcode": "30518", "addr:state": "GA", "brand": "USPS", "collection_times": "Mo-Sa 09:00", "name": "USPS COLLECTION BOX - BLUE BOX", "ref": "3051800027"}, "type": "Feature"}
{"geometry": {"coordinates": [-84.000613, 34.108857], "type": "Point"}, "id": "UetcvQwM6iOhVDz5UIgrtyZhhzE=", "properties": {"@spider": "usps_collection_boxes", "addr:city": "SUGAR HILL", "addr:country": "US", "addr:full": "2030 BUFORD HWY", "addr:postcode": "30518", "addr:state": "GA", "brand": "USPS", "collection_times": "Mo-Fr 17:00; Sa 12:00", "name": "USPS COLLECTION BOX - APC", "note": "ON 12/24 AND 12/31, THIS BOX MAY BE COLLECTED AS EARLY AS 12 NOON.", "ref": "3051800028"}, "type": "Feature"}
{"geometry": {"coordinates": [-84.000963222, 34.108483156], "type": "Point"}, "id": "pOkO4LtiphbchvzDKdz96jPnA-E=", "properties": {"@spider": "usps_collection_boxes", "addr:city": "SUGAR HILL", "addr:country": "US", "addr:full": "2030 BUFORD HWY", "addr:postcode": "30518", "addr:state": "GA", "brand": "USPS", "collection_times": "Mo-Fr 17:00; Sa 12:00", "name": "USPS COLLECTION BOX - PO LOBBY", "note": "ON 12/24 AND 12/31, THIS BOX MAY BE COLLECTED AS EARLY AS 12 NOON.", "ref": "3051800035"}, "type": "Feature"}
{"geometry": {"coordinates": [-84.38977, 34.782775], "type": "Point"}, "id": "Y7M55mrrjeIxEq1Ij-YHagTftJI=", "properties": {"@spider": "usps_collection_boxes", "addr:city": "CHERRYLOG", "addr:country": "US", "addr:full": "300 CHERRY LOG ST", "addr:postcode": "30522", "addr:state": "GA", "brand": "USPS", "collection_times": "Mo-Fr 16:00; Sa 09:00", "name": "USPS COLLECTION BOX - BLUE BOX", "note": "ON 12/24 AND 12/31, THIS BOX MAY BE COLLECTED AS EARLY AS 12 NOON.", "ref": "3052200001"}, "type": "Feature"}
{"geometry": {"coordinates": [-84.38978, 34.782826], "type": "Point"}, "id": "cZ1w5ebldkK8XCDmCMlp75r_WCE=", "properties": {"@spider": "usps_collection_boxes", "addr:city": "CHERRYLOG", "addr:country": "US", "addr:full": "300 CHERRY LOG ST", "addr:postcode": "30522", "addr:state": "GA", "brand": "USPS", "collection_times": "Mo-Fr 16:00; Sa 09:00", "name": "USPS COLLECTION BOX - PO LOBBY", "note": "ON 12/24 AND 12/31, THIS BOX MAY BE COLLECTED AS EARLY AS 12 NOON.", "ref": "3052200002"}, "type": "Feature"}
{"geometry": {"coordinates": [-84.39029374, 34.781870171], "type": "Point"}, "id": "q2qeSH05GHLuhn7XsTZ3dGZRBhM=", "properties": {"@spider": "usps_collection_boxes", "addr:city": "CHERRYLOG", "addr:country": "US", "addr:full": "300 CHERRY LOG ST", "addr:postcode": "30522", "addr:state": "GA", "brand": "USPS", "collection_times": "Mo-Fr 16:00", "name": "USPS COLLECTION BOX - PO LOBBY", "note": "ON 12/24 AND 12/31, THIS BOX MAY BE COLLECTED AS EARLY AS 12 NOON.", "ref": "3052200004"}, "type": "Feature"}
{"geometry": {"coordinates": [-83.9805337071, 34.523790937], "type": "Point"}, "id": "JuFWUGQHuiWJB400DzqrkHoTfQw=", "properties": {"@spider": "usps_collection_boxes", "addr:city": "DAHLONEGA", "addr:country": "US", "addr:full": "72 ALICIA LN", "addr:postcode": "30533", "addr:state": "GA", "brand": "USPS", "collection_times": "Mo-Fr 17:00; Sa 12:00", "name": "USPS COLLECTION BOX - BLUE BOX", "note": "ON 12/24 AND 12/31, THIS BOX MAY BE COLLECTED AS EARLY AS 12 NOON.", "ref": "3053300001"}, "type": "Feature"}
{"geometry": {"coordinates": [-83.9750645, 34.538577], "type": "Point"}, "id": "h5fH73r_T3-2LvHTKMphyT22kQ8=", "properties": {"@spider": "usps_collection_boxes", "addr:city": "DAHLONEGA", "addr:country": "US", "addr:full": "420 WALMART WAY", "addr:postcode": "30533", "addr:state": "GA", "brand": "USPS", "collection_times": "Mo-Sa 14:00", "name": "USPS COLLECTION BOX - BLUE BOX", "note": "ON 12/24 AND 12/31, THIS BOX MAY BE COLLECTED AS EARLY AS 12 NOON.", "ref": "3053300003"}, "type": "Feature"}
{"geometry": {"coordinates": [-83.9858952, 34.532039], "type": "Point"}, "id": "bt9C3WGgmGADxi9r8T0Rg4Yz5DE=", "properties": {"@spider": "usps_collection_boxes", "addr:city": "DAHLONEGA", "addr:country": "US", "addr:full": "60 W MAIN ST", "addr:postcode": "30533", "addr:state": "GA", "brand": "USPS", "collection_times": "Mo-Sa 14:00", "name": "USPS COLLECTION BOX - BLUE BOX", "note": "ON 12/24 AND 12/31, THIS BOX MAY BE COLLECTED AS EARLY AS 12 NOON.", "ref": "3053300004"}, "type": "Feature"}
{"geometry": {"coordinates": [-83.980439513, 34.535555465], "type": "Point"}, "id": "ews1jgLO30Gt5pnm87S83G68q_o=", "properties": {"@spider": "usps_collection_boxes", "addr:city": "DAHLONEGA", "addr:country": "US", "addr:full": "99 COURTHOUSE HL", "addr:postcode": "30533", "addr:state": "GA", "brand": "USPS", "collection_times": "Mo-Fr 14:00; Sa 09:00", "name": "USPS COLLECTION BOX - BLUE BOX", "note": "ON 12/24 AND 12/31, THIS BOX MAY BE COLLECTED AS EARLY AS 12 NOON.", "ref": "3053300006"}, "type": "Feature"}
{"geometry": {"coordinates": [-83.9843138, 34.532523], "type": "Point"}, "id": "ZmhOGG8vbmaeEw-K-57hzjiI0JU=", "properties": {"@spider": "usps_collection_boxes", "addr:city": "DAHLONEGA", "addr:country": "US", "addr:full": "13 S PARK ST", "addr:postcode": "30533", "addr:state": "GA", "brand": "USPS", "collection_times": "Mo-Sa 14:00", "name": "USPS COLLECTION BOX - BLUE BOX", "note": "ON 12/24 AND 12/31, THIS BOX MAY BE COLLECTED AS EARLY AS 12 NOON.", "ref": "3053300007"}, "type": "Feature"}
{"geometry": {"coordinates": [-83.980533707, 34.523790937], "type": "Point"}, "id": "faWo_JG8vArbfp5RaV_3NQulKPc=", "properties": {"@spider": "usps_collection_boxes", "addr:city": "DAHLONEGA", "addr:country": "US", "addr:full": "72 ALICIA LN", "addr:postcode": "30533", "addr:state": "GA", "brand": "USPS", "collection_times": "Mo-Fr 16:30; Sa 12:00", "name": "USPS COLLECTION BOX - PO LOBBY", "note": "ON 12/24 AND 12/31, THIS BOX MAY BE COLLECTED AS EARLY AS 12 NOON.", "ref": "3053300008"}, "type": "Feature"}
{"geometry": {"coordinates": [-83.9870314, 34.44285], "type": "Point"}, "id": "rmnvmuyJRDCaKkX4iD9pLi2tWHs=", "properties": {"@spider": "usps_collection_boxes", "addr:city": "DAHLONEGA", "addr:country": "US", "addr:full": "10 ETHAN ALLEN DR", "addr:postcode": "30533", "addr:state": "GA", "brand": "USPS", "collection_times": "Mo-Sa 12:00", "name": "USPS COLLECTION BOX - BLUE BOX", "ref": "3053300009"}, "type": "Feature"}
{"geometry": {"coordinates": [-83.980533707, 34.523790937], "type": "Point"}, "id": "YD_QbiiSml5vNhPNyUrFn_i3qJQ=", "properties": {"@spider": "usps_collection_boxes", "addr:city": "DAHLONEGA", "addr:country": "US", "addr:full": "72 ALICIA LN", "addr:postcode": "30533", "addr:state": "GA", "brand": "USPS", "collection_times": "Mo-Fr 17:00; Sa 12:00", "name": "USPS COLLECTION BOX - PO LOBBY", "note": "ON 12/24 AND 12/31, THIS BOX MAY BE COLLECTED AS EARLY AS 12 NOON.", "ref": "3053300012"}, "type": "Feature"}
{"geometry": {"coordinates": [-84.0442399, 34.355727], "type": "Point"}, "id": "_vYKGAOttTiIpUtmBSR6AIK6IjQ=", "properties": {"@spider": "usps_collection_boxes", "addr:city": "DAWSONVILLE", "addr:country": "US", "addr:full": "156 POWER CENTER DR", "addr:postcode": "30534", "addr:state": "GA", "brand": "USPS", "collection_times": "Mo-Sa 12:00", "name": "USPS COLLECTION BOX - BLUE BOX", "ref": "3053400001"}, "type": "Feature"}
{"geometry": {"coordinates": [-84.1131338, 34.415792], "type": "Point"}, "id": "D59mgp36EJQIRX32U-DUkoSB2Ek=", "properties": {"@spider": "usps_collection_boxes", "addr:city": "DAWSONVILLE", "addr:country": "US", "addr:full": "452 HIGHWAY 53 E", "addr:postcode": "30534", "addr:state": "GA", "brand": "USPS", "collection_times": "Mo-Fr 16:30; Sa 12:00", "name": "USPS COLLECTION BOX - BLUE BOX", "note": "ON 12/24 AND 12/31, THIS BOX MAY BE COLLECTED AS EARLY AS 12 NOON.", "ref": "3053400002"}, "type": "Feature"}
{"geometry": {"coordinates": [-84.0393483, 34.365604], "type": "Point"}, "id": "29OQg63k0dlZsW4aa1TXBw0chUY=", "properties": {"@spider": "usps_collection_boxes", "addr:city": "DAWSONVILLE", "addr:country": "US", "addr:full": "66 S 400 CENTER LN", "addr:postcode": "30534", "addr:state": "GA", "brand": "USPS", "collection_times": "Mo-Fr 13:00; Sa 12:00", "name": "USPS COLLECTION BOX - BLUE BOX", "note": "ON 12/24 AND 12/31, THIS BOX MAY BE COLLECTED AS EARLY AS 12 NOON.", "ref": "3053400003"}, "type": "Feature"}
{"geometry": {"coordinates": [-84.0393584, 34.365622], "type": "Point"}, "id": "0jZ0OVaHPlVIVWF4R0yYVF0pag4=", "properties": {"@spider": "usps_collection_boxes", "addr:city": "DAWSONVILLE", "addr:country": "US", "addr:full": "66 S 400 CENTER LN", "addr:postcode": "30534", "addr:state": "GA", "brand": "USPS", "collection_times": "Mo-Fr 13:00; Sa 12:00", "name": "USPS COLLECTION BOX - BLUE BOX", "note": "ON 12/24 AND 12/31, THIS BOX MAY BE COLLECTED AS EARLY AS 12 NOON.", "ref": "3053400004"}, "type": "Feature"}
{"geometry": {"coordinates": [-84.1135835, 34.415754], "type": "Point"}, "id": "YI_aQJjQq8PjbQTLXzHguHuz73Q=", "properties": {"@spider": "usps_collection_boxes", "addr:city": "DAWSONVILLE", "addr:country": "US", "addr:full": "452 HIGHWAY 53 E", "addr:postcode": "30534", "addr:state": "GA", "brand": "USPS", "collection_times": "Mo-Fr 16:30; Sa 12:00", "name": "USPS COLLECTION BOX - PO LOBBY", "note": "ON 12/24 AND 12/31, THIS BOX MAY BE COLLECTED AS EARLY AS 12 NOON.", "ref": "3053400006"}, "type": "Feature"}
{"geometry": {"coordinates": [-84.1131341, 34.415784], "type": "Point"}, "id": "C2tBrjeZbt0lSzVbAd7HW6Ap2wA=", "properties": {"@spider": "usps_collection_boxes", "addr:city": "DAWSONVILLE", "addr:country": "US", "addr:full": "452 HIGHWAY 53 E", "addr:postcode": "30534", "addr:state": "GA", "brand": "USPS", "collection_times": "Mo-Fr 16:30; Sa 12:00", "name": "USPS COLLECTION BOX - BLUE BOX", "note": "ON 12/24 AND 12/31, THIS BOX MAY BE COLLECTED AS EARLY AS 12 NOON.", "ref": "3053400007"}, "type": "Feature"}
{"geometry": {"coordinates": [-84.0232229, 34.379899], "type": "Point"}, "id": "NHvbUXuuIdqeqWSDGT8T6SP6n-Q=", "properties": {"@spider": "usps_collection_boxes", "addr:city": "DAWSONVILLE", "addr:country": "US", "addr:full": "1322 HIGHWAY 400 N", "addr:postcode": "30534", "addr:state": "GA", "brand": "USPS", "collection_times": "Mo-Sa 12:00", "name": "USPS COLLECTION BOX - BLUE BOX", "ref": "3053400008"}, "type": "Feature"}
{"geometry": {"coordinates": [-84.0337864, 34.362647], "type": "Point"}, "id": "KBUMJDZNVRQRhbUVxYtItuWDAvc=", "properties": {"@spider": "usps_collection_boxes", "addr:city": "DAWSONVILLE", "addr:country": "US", "addr:full": "6625 HIGHWAY 53 E", "addr:postcode": "30534", "addr:state": "GA", "brand": "USPS", "collection_times": "Mo-Sa 12:00", "name": "USPS COLLECTION BOX - BLUE BOX", "ref": "3053400010"}, "type": "Feature"}
{"geometry": {"coordinates": [-84.1136325, 34.415772], "type": "Point"}, "id": "x722XRY8evWJDR5S1VK7Re13zTw=", "properties": {"@spider": "usps_collection_boxes", "addr:city": "DAWSONVILLE", "addr:country": "US", "addr:full": "452 HIGHWAY 53 E", "addr:postcode": "30534", "addr:state": "GA", "brand": "USPS", "collection_times": "Mo-Fr 16:30; Sa 12:00", "name": "USPS COLLECTION BOX - PO LOBBY", "note": "ON 12/24 AND 12/31, THIS BOX MAY BE COLLECTED AS EARLY AS 12 NOON.", "ref": "3053400011"}, "type": "Feature"}
{"geometry": {"coordinates": [-84.113045596, 34.415956375], "type": "Point"}, "id": "lHt1vgq2VJGPMisj8JD_9mBMff0=", "properties": {"@spider": "usps_collection_boxes", "addr:city": "DAWSONVILLE", "addr:country": "US", "addr:full": "452 HIGHWAY 53 E", "addr:postcode": "30534", "addr:state": "GA", "brand": "USPS", "collection_times": "Mo-Fr 16:30; Sa 12:00", "name": "USPS COLLECTION BOX - PO LOBBY", "note": "ON 12/24 AND 12/31, THIS BOX MAY BE COLLECTED AS EARLY AS 12 NOON.", "ref": "3053400014"}, "type": "Feature"}
{"geometry": {"coordinates": [-84.478438, 34.675834], "type": "Point"}, "id": "-Y9tdV6kEYbX-jOV19obze8jgq0=", "properties": {"@spider": "usps_collection_boxes", "addr:city": "EAST ELLIJAY", "addr:country": "US", "addr:full": "230 OLD ORCHARD SQ", "addr:postcode": "30539", "addr:state": "GA", "brand": "USPS", "collection_times": "Mo-Fr 16:30; Sa 11:30", "name": "USPS COLLECTION BOX - BLUE BOX", "note": "ON 12/24 AND 12/31, THIS BOX MAY BE COLLECTED AS EARLY AS 12 NOON.", "ref": "3053900001"}, "type": "Feature"}
{"geometry": {"coordinates": [-84.478429817, 34.675794351], "type": "Point"}, "id": "p84FioMYxjMM9woSYB7UBhYfQHY=", "properties": {"@spider": "usps_collection_boxes", "addr:city": "EAST ELLIJAY", "addr:country": "US", "addr:full": "230 OLD ORCHARD SQ", "addr:postcode": "30539", "addr:state": "GA", "brand": "USPS", "collection_times": "Mo-Fr 16:30; Sa 11:30", "name": "USPS COLLECTION BOX - PO LOBBY", "note": "ON 12/24 AND 12/31, THIS BOX MAY BE COLLECTED AS EARLY AS 12 NOON.", "ref": "3053900003"}, "type": "Feature"}
{"geometry": {"coordinates": [-84.48116, 34.685662], "type": "Point"}, "id": "cdt6gA3F7obM4phJYP-g8vubyi0=", "properties": {"@spider": "usps_collection_boxes", "addr:city": "ELLIJAY", "addr:country": "US", "addr:full": "801 INDUSTRIAL BLVD", "addr:postcode": "30540", "addr:state": "GA", "brand": "USPS", "collection_times": "Mo-Fr 17:00; Sa 12:00", "name": "USPS COLLECTION BOX - BLUE BOX", "note": "ON 12/24 AND 12/31, THIS BOX MAY BE COLLECTED AS EARLY AS 12 NOON.", "ref": "3054000009"}, "type": "Feature"}
{"geometry": {"coordinates": [-84.4830799, 34.694966], "type": "Point"}, "id": "HFeL6g1HlQbSCW9-6q-iqFQdrsE=", "properties": {"@spider": "usps_collection_boxes", "addr:city": "ELLIJAY", "addr:country": "US", "addr:full": "9 S SIDE SQ", "addr:postcode": "30540", "addr:state": "GA", "brand": "USPS", "collection_times": "Mo-Sa 12:00", "name": "USPS COLLECTION BOX - BLUE BOX", "ref": "3054000013"}, "type": "Feature"}
{"geometry": {"coordinates": [-84.48116, 34.685662], "type": "Point"}, "id": "tDsCr37eoNQd6DLtcWwNzv6VDKY=", "properties": {"@spider": "usps_collection_boxes", "addr:city": "ELLIJAY", "addr:country": "US", "addr:full": "801 INDUSTRIAL BLVD", "addr:postcode": "30540", "addr:state": "GA", "brand": "USPS", "collection_times": "Mo-Fr 17:00; Sa 12:00", "name": "USPS COLLECTION BOX - BLUE BOX", "note": "ON 12/24 AND 12/31, THIS BOX MAY BE COLLECTED AS EARLY AS 12 NOON.", "ref": "3054000017"}, "type": "Feature"}
{"geometry": {"coordinates": [-84.48116, 34.685662], "type": "Point"}, "id": "_HzZk6R1sJjt2AoNj4sN36lKGMA=", "properties": {"@spider": "usps_collection_boxes", "addr:city": "ELLIJAY", "addr:country": "US", "addr:full": "801 INDUSTRIAL BLVD", "addr:postcode": "30540", "addr:state": "GA", "brand": "USPS", "collection_times": "Mo-Fr 16:45; Sa 12:00", "name": "USPS COLLECTION BOX - PO LOBBY", "note": "ON 12/24 AND 12/31, THIS BOX MAY BE COLLECTED AS EARLY AS 12 NOON.", "ref": "3054000018"}, "type": "Feature"}
{"geometry": {"coordinates": [-84.4887859, 34.659321], "type": "Point"}, "id": "4S_PGcepUliolZ0p6zYCGg4bsaQ=", "properties": {"@spider": "usps_collection_boxes", "addr:city": "ELLIJAY", "addr:country": "US", "addr:full": "150 HIGHLAND PKWY", "addr:postcode": "30540", "addr:state": "GA", "brand": "USPS", "collection_times": "Mo-Sa 09:00", "name": "USPS COLLECTION BOX - BLUE BOX", "ref": "3054000021"}, "type": "Feature"}
{"geometry": {"coordinates": [-84.515048523, 34.648964679], "type": "Point"}, "id": "VwcTgfeLNQQ79kknvEBkhhZT_J4=", "properties": {"@spider": "usps_collection_boxes", "addr:city": "ELLIJAY", "addr:country": "US", "addr:full": "634 BEAVER LAKE DR", "addr:postcode": "30540", "addr:state": "GA", "brand": "USPS", "collection_times": "Mo-Sa 09:00", "name": "USPS COLLECTION BOX - BLUE BOX", "ref": "3054000022"}, "type": "Feature"}
{"geometry": {"coordinates": [-84.480785048, 34.685641128], "type": "Point"}, "id": "3ANA0MgjOykAzcYMdK0-WCScWSk=", "properties": {"@spider": "usps_collection_boxes", "addr:city": "ELLIJAY", "addr:country": "US", "addr:full": "801 INDUSTRIAL BLVD", "addr:postcode": "30540", "addr:state": "GA", "brand": "USPS", "collection_times": "Mo-Fr 16:45; Sa 12:00", "name": "USPS COLLECTION BOX - PO LOBBY", "note": "ON 12/24 AND 12/31, THIS BOX MAY BE COLLECTED AS EARLY AS 12 NOON.", "ref": "3054000026"}, "type": "Feature"}
{"geometry": {"coordinates": [-84.386091, 34.951376], "type": "Point"}, "id": "dqaCpEYJRIzuPkuJ7bpwGyQU3aM=", "properties": {"@spider": "usps_collection_boxes", "addr:city": "EPWORTH", "addr:country": "US", "addr:full": "685 MADOLA RD", "addr:postcode": "30541", "addr:state": "GA", "brand": "USPS", "collection_times": "Mo-Fr 16:15; Sa 12:00", "name": "USPS COLLECTION BOX - BLUE BOX", "note": "ON 12/24 AND 12/31, THIS BOX MAY BE COLLECTED AS EARLY AS 12 NOON.", "ref": "3054100001"}, "type": "Feature"}
{"geometry": {"coordinates": [-84.386016, 34.951365], "type": "Point"}, "id": "OKzf9cs3Tj6h8tETK4e4jG-7_ko=", "properties": {"@spider": "usps_collection_boxes", "addr:city": "EPWORTH", "addr:country": "US", "addr:full": "685 MADOLA RD", "addr:postcode": "30541", "addr:state": "GA", "brand": "USPS", "collection_times": "Mo-Fr 16:15; Sa 12:00", "name": "USPS COLLECTION BOX - PO LOBBY", "note": "ON 12/24 AND 12/31, THIS BOX MAY BE COLLECTED AS EARLY AS 12 NOON.", "ref": "3054100003"}, "type": "Feature"}
{"geometry": {"coordinates": [-84.385801591, 34.951184592], "type": "Point"}, "id": "sykFSXG5F00F0By_hQwyiVOCYdU=", "properties": {"@spider": "usps_collection_boxes", "addr:city": "EPWORTH", "addr:country": "US", "addr:full": "685 MADOLA RD", "addr:postcode": "30541", "addr:state": "GA", "brand": "USPS", "collection_times": "Mo-Fr 16:30; Sa 12:00", "name": "USPS COLLECTION BOX - PO LOBBY", "note": "ON 12/24 AND 12/31, THIS BOX MAY BE COLLECTED AS EARLY AS 12 NOON.", "ref": "3054100007"}, "type": "Feature"}
{"geometry": {"coordinates": [-84.370917, 34.973702], "type": "Point"}, "id": "bylq363dWWIKkmZ-42I2PGxuL9w=", "properties": {"@spider": "usps_collection_boxes", "addr:city": "MCCAYSVILLE", "addr:country": "US", "addr:full": "175 BLUERIDGE DR", "addr:postcode": "30555", "addr:state": "GA", "brand": "USPS", "collection_times": "Mo-Fr 16:15; Sa 12:30", "name": "USPS COLLECTION BOX - BLUE BOX", "note": "ON 12/24 AND 12/31, THIS BOX MAY BE COLLECTED AS EARLY AS 12 NOON.", "ref": "3055500001"}, "type": "Feature"}
{"geometry": {"coordinates": [-84.371755, 34.98611], "type": "Point"}, "id": "i4wNdURHPAWiycBdAdJY1QgK0LI=", "properties": {"@spider": "usps_collection_boxes", "addr:city": "MCCAYSVILLE", "addr:country": "US", "addr:full": "175 BLUERIDGE DR", "addr:postcode": "30555", "addr:state": "GA", "brand": "USPS", "collection_times": "Mo-Fr 16:15; Sa 12:30", "name": "USPS COLLECTION BOX - PO LOBBY", "note": "ON 12/24 AND 12/31, THIS BOX MAY BE COLLECTED AS EARLY AS 12 NOON.", "ref": "3055500002"}, "type": "Feature"}
{"geometry": {"coordinates": [-84.372064607, 34.986143022], "type": "Point"}, "id": "GRxypl_N2tTdSzY9N4Wgc7ieb10=", "properties": {"@spider": "usps_collection_boxes", "addr:city": "MCCAYSVILLE", "addr:country": "US", "addr:full": "175 BLUE RIDGE DR", "addr:postcode": "30555", "addr:state": "GA", "brand": "USPS", "collection_times": "Mo-Fr 16:30; Sa 12:00", "name": "USPS COLLECTION BOX - PO LOBBY", "note": "ON 12/24 AND 12/31, THIS BOX MAY BE COLLECTED AS EARLY AS 12 NOON.", "ref": "3055500004"}, "type": "Feature"}
{"geometry": {"coordinates": [-84.274384, 34.913137], "type": "Point"}, "id": "_BPwC5cIwowrg5PiDRmMfHsiSac=", "properties": {"@spider": "usps_collection_boxes", "addr:city": "MINERAL BLUFF", "addr:country": "US", "addr:full": "8590 LAKEWOOD HWY", "addr:postcode": "30559", "addr:state": "GA", "brand": "USPS", "collection_times": "Mo-Fr 16:15; Sa 12:00", "name": "USPS COLLECTION BOX - BLUE BOX", "note": "ON 12/24 AND 12/31, THIS BOX MAY BE COLLECTED AS EARLY AS 12 NOON.", "ref": "3055900001"}, "type": "Feature"}
{"geometry": {"coordinates": [-84.274431, 34.913223], "type": "Point"}, "id": "RdnOj-KTQUSnWMkotVVdUvyLA-M=", "properties": {"@spider": "usps_collection_boxes", "addr:city": "MINERAL BLUFF", "addr:country": "US", "addr:full": "8590 LAKEWOOD HWY", "addr:postcode": "30559", "addr:state": "GA", "brand": "USPS", "collection_times": "Mo-Fr 16:15; Sa 12:00", "name": "USPS COLLECTION BOX - PO LOBBY", "note": "ON 12/24 AND 12/31, THIS BOX MAY BE COLLECTED AS EARLY AS 12 NOON.", "ref": "3055900002"}, "type": "Feature"}
{"geometry": {"coordinates": [-84.276435535, 34.9142973], "type": "Point"}, "id": "Shv6H_sO-58Jg5OAT9rMjZra0V4=", "properties": {"@spider": "usps_collection_boxes", "addr:city": "MINERAL BLUFF", "addr:country": "US", "addr:full": "8590 LAKEWOOD HWY", "addr:postcode": "30559", "addr:state": "GA", "brand": "USPS", "collection_times": "Mo-Fr 16:30; Sa 12:00", "name": "USPS COLLECTION BOX - PO LOBBY", "note": "ON 12/24 AND 12/31, THIS BOX MAY BE COLLECTED AS EARLY AS 12 NOON.", "ref": "3055900004"}, "type": "Feature"}
{"geometry": {"coordinates": [-84.243269965, 34.875060006], "type": "Point"}, "id": "6KfF6hGCmRnVqAit8YTZGWgpbrQ=", "properties": {"@spider": "usps_collection_boxes", "addr:city": "MORGANTON", "addr:country": "US", "addr:full": "12304 MORGANTON HWY", "addr:postcode": "30560", "addr:state": "GA", "brand": "USPS", "collection_times": "Mo-Fr 16:30; Sa 12:00", "name": "USPS COLLECTION BOX - BLUE BOX", "note": "ON 12/24 AND 12/31, THIS BOX MAY BE COLLECTED AS EARLY AS 12 NOON.", "ref": "3056000001"}, "type": "Feature"}
{"geometry": {"coordinates": [-84.243269965, 34.875060006], "type": "Point"}, "id": "eZrkAPohsKDyKEvRfCGauKTfyrI=", "properties": {"@spider": "usps_collection_boxes", "addr:city": "MORGANTON", "addr:country": "US", "addr:full": "12304 MORGANTON HWY", "addr:postcode": "30560", "addr:state": "GA", "brand": "USPS", "collection_times": "Mo-Fr 16:30; Sa 12:00", "name": "USPS COLLECTION BOX - PO LOBBY", "note": "ON 12/24 AND 12/31, THIS BOX MAY BE COLLECTED AS EARLY AS 12 NOON.", "ref": "3056000002"}, "type": "Feature"}
{"geometry": {"coordinates": [-84.243269965, 34.875060006], "type": "Point"}, "id": "6O0QZCapv0X3rNTWc4VproW80Z8=", "properties": {"@spider": "usps_collection_boxes", "addr:city": "MORGANTON", "addr:country": "US", "addr:full": "12304 MORGANTON HWY", "addr:postcode": "30560", "addr:state": "GA", "brand": "USPS", "collection_times": "Mo-Fr 16:30; Sa 12:00", "name": "USPS COLLECTION BOX - PO LOBBY", "note": "ON 12/24 AND 12/31, THIS BOX MAY BE COLLECTED AS EARLY AS 12 NOON.", "ref": "3056000004"}, "type": "Feature"}
{"geometry": {"coordinates": [-84.022308, 34.689695], "type": "Point"}, "id": "MtOO7x7JUMhAE_gr2I9WImt_FLM=", "properties": {"@spider": "usps_collection_boxes", "addr:city": "SUCHES", "addr:country": "US", "addr:full": "2078 STATE HIGHWAY 60", "addr:postcode": "30572", "addr:state": "GA", "brand": "USPS", "collection_times": "Mo-Fr 16:15; Sa 09:30", "name": "USPS COLLECTION BOX - BLUE BOX", "note": "ON 12/24 AND 12/31, THIS BOX MAY BE COLLECTED AS EARLY AS 12 NOON.", "ref": "3057200001"}, "type": "Feature"}
{"geometry": {"coordinates": [-84.02234, 34.689676], "type": "Point"}, "id": "_yLo3inmdDjnyxvgkq1qESKrjuE=", "properties": {"@spider": "usps_collection_boxes", "addr:city": "SUCHES", "addr:country": "US", "addr:full": "2078 STATE HIGHWAY 60", "addr:postcode": "30572", "addr:state": "GA", "brand": "USPS", "collection_times": "Mo-Fr 16:15; Sa 09:30", "name": "USPS COLLECTION BOX - PO LOBBY", "note": "ON 12/24 AND 12/31, THIS BOX MAY BE COLLECTED AS EARLY AS 12 NOON.", "ref": "3057200002"}, "type": "Feature"}
{"geometry": {"coordinates": [-84.02234911, 34.690111334], "type": "Point"}, "id": "P62rnQAlxur-riecepMPjSWV-LA=", "properties": {"@spider": "usps_collection_boxes", "addr:city": "SUCHES", "addr:country": "US", "addr:full": "2078 STATE HIGHWAY 60", "addr:postcode": "30572", "addr:state": "GA", "brand": "USPS", "collection_times": "Mo-Fr 16:15", "name": "USPS COLLECTION BOX - PO LOBBY", "note": "ON 12/24 AND 12/31, THIS BOX MAY BE COLLECTED AS EARLY AS 12 NOON.", "ref": "3057200004"}, "type": "Feature"}
