{"geometry": {"coordinates": [-82.895097, 33.554155], "type": "Point"}, "id": "vfhrA2b1o4NsbuY73uCbxcR0IeE=", "properties": {"@spider": "usps_collection_boxes", "addr:city": "CRAWFORDVILLE", "addr:country": "US", "addr:full": "139 BROAD ST NE", "addr:postcode": "30631", "addr:state": "GA", "brand": "USPS", "collection_times": "Mo-Fr 16:00; Sa 10:00", "name": "USPS COLLECTION BOX - BLUE BOX", "note": "ON 12/24 AND 12/31, THIS BOX MAY BE COLLECTED AS EARLY AS 12 NOON.", "ref": "3063100001"}, "type": "Feature"}
{"geometry": {"coordinates": [-82.895097, 33.554155], "type": "Point"}, "id": "c9q5cZA9C099CoSYZ8R5Nh2Olas=", "properties": {"@spider": "usps_collection_boxes", "addr:city": "CRAWFORDVILLE", "addr:country": "US", "addr:full": "139 BROAD ST NE", "addr:postcode": "30631", "addr:state": "GA", "brand": "USPS", "collection_times": "Mo-Fr 15:30; Sa 10:00", "name": "USPS COLLECTION BOX - PO LOBBY", "note": "ON 12/24 AND 12/31, THIS BOX MAY BE COLLECTED AS EARLY AS 12 NOON.", "ref": "3063100002"}, "type": "Feature"}
{"geometry": {"coordinates": [-82.895116027, 33.554189396], "type": "Point"}, "id": "1Kr6x-inBa6Mbo4EMCA0_qjaQoI=", "properties": {"@spider": "usps_collection_boxes", "addr:city": "CRAWFORDVILLE", "addr:country": "US", "addr:full": "139 BROAD ST NE", "addr:postcode": "30631", "addr:state": "GA", "brand": "USPS", "collection_times": "Mo-Fr 16:00", "name": "USPS COLLECTION BOX - PO LOBBY", "note": "ON 12/24 AND 12/31, THIS BOX MAY BE COLLECTED AS EARLY AS 12 NOON.", "ref": "3063100004"}, "type": "Feature"}
{"geometry": {"coordinates": [-85.095717, 33.280177], "type": "Point"}, "id": "r78aR3tE6Z3A5iNEVyEO8fT_w84=", "properties": {"@spider": "usps_collection_boxes", "addr:city": "FRANKLIN SPRINGS", "addr:country": "US", "addr:full": "310 W MAIN ST", "addr:postcode": "30639", "addr:state": "GA", "brand": "USPS", "collection_times": "Mo-Fr 16:45; Sa 12:00", "name": "USPS COLLECTION BOX - BLUE BOX", "note": "ON 12/24 AND 12/31, THIS BOX MAY BE COLLECTED AS EARLY AS 12 NOON.", "ref": "3063900001"}, "type": "Feature"}
{"geometry": {"coordinates": [-83.2224543, 33.490101], "type": "Point"}, "id": "d6Ch7Vk_a3NMTxmdHbXMxON_Spw=", "properties": {"@spider": "usps_collection_boxes", "addr:city": "GREENSBORO", "addr:country": "US", "addr:full": "1010 PARK DR", "addr:postcode": "30642", "addr:state": "GA", "brand": "USPS", "collection_times": "Mo-Sa 12:00", "name": "USPS COLLECTION BOX - BLUE BOX", "ref": "3064200006"}, "type": "Feature"}
{"geometry": {"coordinates": [-83.2155364, 33.429242], "type": "Point"}, "id": "NYFbYpHuc9HAcocpzG2Nkd5DBSI=", "properties": {"@spider": "usps_collection_boxes", "addr:city": "GREENSBORO", "addr:country": "US", "addr:full": "1020 BROWNS FORD RD", "addr:postcode": "30642", "addr:state": "GA", "brand": "USPS", "collection_times": "Mo-Sa 12:00", "name": "USPS COLLECTION BOX - BLUE BOX", "ref": "3064200007"}, "type": "Feature"}
{"geometry": {"coordinates": [-83.2429322, 33.463222], "type": "Point"}, "id": "i-c5-TDwQcDUwJRz3HeDSwL15Uk=", "properties": {"@spider": "usps_collection_boxes", "addr:city": "GREENSBORO", "addr:country": "US", "addr:full": "1060 SALEM WALK DR", "addr:postcode": "30642", "addr:state": "GA", "brand": "USPS", "collection_times": "Mo-Fr 12:00", "name": "USPS COLLECTION BOX - BLUE BOX", "ref": "3064200008"}, "type": "Feature"}
{"geometry": {"coordinates": [-82.79428, 33.560173], "type": "Point"}, "id": "Yp6byCIzGoA_9jUMZ40no6xVb9w=", "properties": {"@spider": "usps_collection_boxes", "addr:city": "SHARON", "addr:country": "US", "addr:full": "116 RAYTOWN RD NE", "addr:postcode": "30664", "addr:state": "GA", "brand": "USPS", "collection_times": "Mo-Fr 11:00; Sa 09:00", "name": "USPS COLLECTION BOX - PO LOBBY", "ref": "3066400001"}, "type": "Feature"}
{"geometry": {"coordinates": [-82.794325, 33.560192], "type": "Point"}, "id": "srkVG2J1lICDTFDvYcj4rf3dl0Y=", "properties": {"@spider": "usps_collection_boxes", "addr:city": "SHARON", "addr:country": "US", "addr:full": "116 RAYTOWN RD NE", "addr:postcode": "30664", "addr:state": "GA", "brand": "USPS", "collection_times": "Mo-Fr 16:00; Sa 09:00", "name": "USPS COLLECTION BOX - BLUE BOX", "note": "ON 12/24 AND 12/31, THIS BOX MAY BE COLLECTED AS EARLY AS 12 NOON.", "ref": "3066400002"}, "type": "Feature"}
{"geometry": {"coordinates": [-82.794293789, 33.56011809], "type": "Point"}, "id": "wCxHh9rZhIAMGGKwGsh51xy8K6E=", "properties": {"@spider": "usps_collection_boxes", "addr:city": "SHARON", "addr:country": "US", "addr:full": "116 RAYTOWN RD NE", "addr:postcode": "30664", "addr:state": "GA", "brand": "USPS", "collection_times": "Mo-Fr 16:00", "name": "USPS COLLECTION BOX - PO LOBBY", "note": "ON 12/24 AND 12/31, THIS BOX MAY BE COLLECTED AS EARLY AS 12 NOON.", "ref": "3066400004"}, "type": "Feature"}
{"geometry": {"coordinates": [-83.081464, 33.536646], "type": "Point"}, "id": "tG1ul24sh3SCzJFEVmnUfMUEV8c=", "properties": {"@spider": "usps_collection_boxes", "addr:city": "SILOAM", "addr:country": "US", "addr:full": "4490 HIGHWAY 15 S", "addr:postcode": "30665", "addr:state": "GA", "brand": "USPS", "collection_times": "Mo-Fr 16:15; Sa 09:30", "name": "USPS COLLECTION BOX - BLUE BOX", "note": "ON 12/24 AND 12/31, THIS BOX MAY BE COLLECTED AS EARLY AS 12 NOON.", "ref": "3066500001"}, "type": "Feature"}
{"geometry": {"coordinates": [-83.0814500536, 33.5366778929], "type": "Point"}, "id": "P3jk8mzy3vklaIZg1I7U5jlJ-O8=", "properties": {"@spider": "usps_collection_boxes", "addr:city": "SILOAM", "addr:country": "US", "addr:full": "4490 HIGHWAY 15 S", "addr:postcode": "30665", "addr:state": "GA", "brand": "USPS", "collection_times": "Mo-Fr 16:30", "name": "USPS COLLECTION BOX - PO LOBBY", "note": "ON 12/24 AND 12/31, THIS BOX MAY BE COLLECTED AS EARLY AS 12 NOON.", "ref": "3066500003"}, "type": "Feature"}
{"geometry": {"coordinates": [-83.035584, 33.471495], "type": "Point"}, "id": "GIsSRYnof1K4h_wQmyERwi3Zy7A=", "properties": {"@spider": "usps_collection_boxes", "addr:city": "WHITE PLAINS", "addr:country": "US", "addr:full": "7501 HIGHWAY 15 S", "addr:postcode": "30678", "addr:state": "GA", "brand": "USPS", "collection_times": "Mo-Fr 12:00; Sa 10:00", "name": "USPS COLLECTION BOX - BLUE BOX", "ref": "3067800001"}, "type": "Feature"}
{"geometry": {"coordinates": [-83.035584, 33.471495], "type": "Point"}, "id": "idWUMUuqJWwL-orA2A5dfHOey34=", "properties": {"@spider": "usps_collection_boxes", "addr:city": "WHITE PLAINS", "addr:country": "US", "addr:full": "7501 HIGHWAY 15 S", "addr:postcode": "30678", "addr:state": "GA", "brand": "USPS", "collection_times": "Mo-Fr 12:00; Sa 10:00", "name": "USPS COLLECTION BOX - PO LOBBY", "ref": "3067800002"}, "type": "Feature"}
{"geometry": {"coordinates": [-83.035584172, 33.471487404], "type": "Point"}, "id": "dwAqprQfD3MCZkYsNcYeZuJBDh0=", "properties": {"@spider": "usps_collection_boxes", "addr:city": "WHITE PLAINS", "addr:country": "US", "addr:full": "7501 HIGHWAY 15 S", "addr:postcode": "30678", "addr:state": "GA", "brand": "USPS", "collection_times": "Mo-Fr 12:00", "name": "USPS COLLECTION BOX - PO LOBBY", "ref": "3067800004"}, "type": "Feature"}
