{"geometry": {"coordinates": [-84.953697, 34.502678], "type": "Point"}, "id": "50DvAp_rSodd5iyJK5LovR9gLV0=", "properties": {"@source_uri": "https://tools.usps.com/UspsToolsRestServices/rest/POLocator/findLocations", "@spider": "usps_collection_boxes", "addr:city": "CALHOUN", "addr:country": "US", "addr:postcode": "30701", "addr:state": "GA", "addr:street_address": "401 COURT ST", "amenity": "post_box", "collection_times": "Mo-Sa 16:45", "indoor": "yes", "note": "ON 12/24 AND 12/31, THIS BOX MAY BE COLLECTED AS EARLY AS 12 NOON.", "nsi_id": "unitedstatespostalservice-a77078", "operator": "United States Postal Service", "operator:short": "USPS", "operator:type": "public", "operator:wikidata": "Q668687", "ref": "3070100025"}, "type": "Feature"}
{"geometry": {"coordinates": [-84.953591, 34.502642], "type": "Point"}, "id": "Ca9I0B0LWlPYekCKqQfUU5Xsj40=", "properties": {"@source_uri": "https://tools.usps.com/UspsToolsRestServices/rest/POLocator/findLocations", "@spider": "usps_collection_boxes", "addr:city": "CALHOUN", "addr:country": "US", "addr:postcode": "30701", "addr:state": "GA", "addr:street_address": "401 COURT ST", "amenity": "post_box", "collection_times": "Mo-Sa 16:45", "indoor": "yes", "note": "ON 12/24 AND 12/31, THIS BOX MAY BE COLLECTED AS EARLY AS 12 NOON.", "nsi_id": "unitedstatespostalservice-a77078", "operator": "United States Postal Service", "operator:short": "USPS", "operator:type": "public", "operator:wikidata": "Q668687", "ref": "3070100026"}, "type": "Feature"}
{"geometry": {"coordinates": [-84.954056025, 34.5031249963], "type": "Point"}, "id": "k3exxQ6yzZBNip7brlnJ9_f-gDI=", "properties": {"@source_uri": "https://tools.usps.com/UspsToolsRestServices/rest/POLocator/findLocations", "@spider": "usps_collection_boxes", "addr:city": "CALHOUN", "addr:country": "US", "addr:postcode": "30701", "addr:state": "GA", "addr:street_address": "401 COURT ST", "amenity": "post_box", "collection_times": "Mo-Sa 16:30", "note": "ON 12/24 AND 12/31, THIS BOX MAY BE COLLECTED AS EARLY AS 12 NOON.", "nsi_id": "unitedstatespostalservice-a77078", "operator": "United States Postal Service", "operator:short": "USPS", "operator:type": "public", "operator:wikidata": "Q668687", "ref": "3070100028"}, "type": "Feature"}
{"geometry": {"coordinates": [-84.954108028, 34.502701428], "type": "Point"}, "id": "38WOn8NsXFLoUngcOflUzMfE-rY=", "properties": {"@source_uri": "https://tools.usps.com/UspsToolsRestServices/rest/POLocator/findLocations", "@spider": "usps_collection_boxes", "addr:city": "CALHOUN", "addr:country": "US", "addr:postcode": "30701", "addr:state": "GA", "addr:street_address": "401 COURT ST", "amenity": "post_box", "collection_times": "Mo-Fr 16:45", "indoor": "yes", "note": "ON 12/24 AND 12/31, THIS BOX MAY BE COLLECTED AS EARLY AS 12 NOON.", "nsi_id": "unitedstatespostalservice-a77078", "operator": "United States Postal Service", "operator:short": "USPS", "operator:type": "public", "operator:wikidata": "Q668687", "ref": "3070100044"}, "type": "Feature"}
{"geometry": {"coordinates": [-84.7703987, 34.765572], "type": "Point"}, "id": "fwSeujb36LKxMOwltLYAW2qly4Q=", "properties": {"@source_uri": "https://tools.usps.com/UspsToolsRestServices/rest/POLocator/findLocations", "@spider": "usps_collection_boxes", "addr:city": "CHATSWORTH", "addr:country": "US", "addr:postcode": "30705", "addr:state": "GA", "addr:street_address": "120 W FORT ST", "amenity": "post_box", "collection_times": "Mo-Sa 17:00", "note": "ON 12/24 AND 12/31, THIS BOX MAY BE COLLECTED AS EARLY AS 12 NOON.", "nsi_id": "unitedstatespostalservice-a77078", "operator": "United States Postal Service", "operator:short": "USPS", "operator:type": "public", "operator:wikidata": "Q668687", "ref": "3070500002"}, "type": "Feature"}
{"geometry": {"coordinates": [-84.7702664, 34.76455], "type": "Point"}, "id": "4GyJQK5O-xc6duv2pDwGD8lhLnE=", "properties": {"@source_uri": "https://tools.usps.com/UspsToolsRestServices/rest/POLocator/findLocations", "@spider": "usps_collection_boxes", "addr:city": "CHATSWORTH", "addr:country": "US", "addr:postcode": "30705", "addr:state": "GA", "addr:street_address": "100 W PINE ST", "amenity": "post_box", "collection_times": "Mo-Sa 15:00", "note": "ON 12/24 AND 12/31, THIS BOX MAY BE COLLECTED AS EARLY AS 12 NOON.", "nsi_id": "unitedstatespostalservice-a77078", "operator": "United States Postal Service", "operator:short": "USPS", "operator:type": "public", "operator:wikidata": "Q668687", "ref": "3070500010"}, "type": "Feature"}
{"geometry": {"coordinates": [-84.7826624, 34.78018], "type": "Point"}, "id": "WB7PySgI7UI_9-KiqrnOWsVTWAg=", "properties": {"@source_uri": "https://tools.usps.com/UspsToolsRestServices/rest/POLocator/findLocations", "@spider": "usps_collection_boxes", "addr:city": "CHATSWORTH", "addr:country": "US", "addr:postcode": "30705", "addr:state": "GA", "addr:street_address": "707 OLD DALTON ELLIJAY RD", "amenity": "post_box", "collection_times": "Mo-Sa 15:00", "note": "ON 12/24 AND 12/31, THIS BOX MAY BE COLLECTED AS EARLY AS 12 NOON.", "nsi_id": "unitedstatespostalservice-a77078", "operator": "United States Postal Service", "operator:short": "USPS", "operator:type": "public", "operator:wikidata": "Q668687", "ref": "3070500016"}, "type": "Feature"}
{"geometry": {"coordinates": [-84.790488, 34.782628], "type": "Point"}, "id": "v4bGiSdOuuRQhdkAOvUvM_tir28=", "properties": {"@source_uri": "https://tools.usps.com/UspsToolsRestServices/rest/POLocator/findLocations", "@spider": "usps_collection_boxes", "addr:city": "CHATSWORTH", "addr:country": "US", "addr:postcode": "30705", "addr:state": "GA", "addr:street_address": "960 G I MADDOX PKWY", "amenity": "post_box", "collection_times": "Mo-Sa 15:00", "note": "ON 12/24 AND 12/31, THIS BOX MAY BE COLLECTED AS EARLY AS 12 NOON.", "nsi_id": "unitedstatespostalservice-a77078", "operator": "United States Postal Service", "operator:short": "USPS", "operator:type": "public", "operator:wikidata": "Q668687", "ref": "3070500017"}, "type": "Feature"}
{"geometry": {"coordinates": [-84.7728474, 34.784278], "type": "Point"}, "id": "_S-aO2nPmYbt29v4r366Pxzej0M=", "properties": {"@source_uri": "https://tools.usps.com/UspsToolsRestServices/rest/POLocator/findLocations", "@spider": "usps_collection_boxes", "addr:city": "CHATSWORTH", "addr:country": "US", "addr:postcode": "30705", "addr:state": "GA", "addr:street_address": "502 GI MADDOX PKWY", "amenity": "post_box", "collection_times": "Mo-Sa 15:00", "note": "ON 12/24 AND 12/31, THIS BOX MAY BE COLLECTED AS EARLY AS 12 NOON.", "nsi_id": "unitedstatespostalservice-a77078", "operator": "United States Postal Service", "operator:short": "USPS", "operator:type": "public", "operator:wikidata": "Q668687", "ref": "3070500069"}, "type": "Feature"}
{"geometry": {"coordinates": [-84.7707533, 34.765936], "type": "Point"}, "id": "N-FFL3MvedF1C4YpOkVKA9h_mbk=", "properties": {"@source_uri": "https://tools.usps.com/UspsToolsRestServices/rest/POLocator/findLocations", "@spider": "usps_collection_boxes", "addr:city": "CHATSWORTH", "addr:country": "US", "addr:postcode": "30705", "addr:state": "GA", "addr:street_address": "120 W FORT ST", "amenity": "post_box", "collection_times": "Mo-Sa 17:00", "indoor": "yes", "note": "ON 12/24 AND 12/31, THIS BOX MAY BE COLLECTED AS EARLY AS 12 NOON.", "nsi_id": "unitedstatespostalservice-a77078", "operator": "United States Postal Service", "operator:short": "USPS", "operator:type": "public", "operator:wikidata": "Q668687", "ref": "3070500071"}, "type": "Feature"}
{"geometry": {"coordinates": [-84.7704485, 34.770607], "type": "Point"}, "id": "2gXKFxfhPYJl4X-a5cp_GRrXxQA=", "properties": {"@source_uri": "https://tools.usps.com/UspsToolsRestServices/rest/POLocator/findLocations", "@spider": "usps_collection_boxes", "addr:city": "CHATSWORTH", "addr:country": "US", "addr:postcode": "30705", "addr:state": "GA", "addr:street_address": "400 N 3RD AVE", "amenity": "post_box", "collection_times": "Mo-Sa 15:00", "note": "ON 12/24 AND 12/31, THIS BOX MAY BE COLLECTED AS EARLY AS 12 NOON.", "nsi_id": "unitedstatespostalservice-a77078", "operator": "United States Postal Service", "operator:short": "USPS", "operator:type": "public", "operator:wikidata": "Q668687", "ref": "3070500072"}, "type": "Feature"}
{"geometry": {"coordinates": [-84.770234026, 34.76609051], "type": "Point"}, "id": "lKo9E2POWdfRuT41UPBdhCRRAyY=", "properties": {"@source_uri": "https://tools.usps.com/UspsToolsRestServices/rest/POLocator/findLocations", "@spider": "usps_collection_boxes", "addr:city": "CHATSWORTH", "addr:country": "US", "addr:postcode": "30705", "addr:state": "GA", "addr:street_address": "120 W FORT ST", "amenity": "post_box", "collection_times": "Mo-Sa 17:00", "indoor": "yes", "note": "ON 12/24 AND 12/31, THIS BOX MAY BE COLLECTED AS EARLY AS 12 NOON.", "nsi_id": "unitedstatespostalservice-a77078", "operator": "United States Postal Service", "operator:short": "USPS", "operator:type": "public", "operator:wikidata": "Q668687", "ref": "3070500074"}, "type": "Feature"}
{"geometry": {"coordinates": [-85.287942, 34.871599], "type": "Point"}, "id": "ncMMXsrwj49QeZPEXTWt0sIkh74=", "properties": {"@source_uri": "https://tools.usps.com/UspsToolsRestServices/rest/POLocator/findLocations", "@spider": "usps_collection_boxes", "addr:city": "CHICKAMAUGA", "addr:country": "US", "addr:postcode": "30707", "addr:state": "GA", "addr:street_address": "207 W 10TH ST", "amenity": "post_box", "collection_times": "Mo-Fr 16:30; Sa 12:00", "indoor": "yes", "note": "ON 12/24 AND 12/31, THIS BOX MAY BE COLLECTED AS EARLY AS 12 NOON.", "nsi_id": "unitedstatespostalservice-a77078", "operator": "United States Postal Service", "operator:short": "USPS", "operator:type": "public", "operator:wikidata": "Q668687", "ref": "3070700004"}, "type": "Feature"}
{"geometry": {"coordinates": [-85.287845, 34.871573], "type": "Point"}, "id": "sL0nMrhBM99RsNaWGKinpcU4mHU=", "properties": {"@source_uri": "https://tools.usps.com/UspsToolsRestServices/rest/POLocator/findLocations", "@spider": "usps_collection_boxes", "addr:city": "CHICKAMAUGA", "addr:country": "US", "addr:postcode": "30707", "addr:state": "GA", "addr:street_address": "207 W 10TH ST", "amenity": "post_box", "collection_times": "Mo-Fr 16:30; Sa 12:00", "note": "ON 12/24 AND 12/31, THIS BOX MAY BE COLLECTED AS EARLY AS 12 NOON.", "nsi_id": "unitedstatespostalservice-a77078", "operator": "United States Postal Service", "operator:short": "USPS", "operator:type": "public", "operator:wikidata": "Q668687", "ref": "3070700007"}, "type": "Feature"}
{"geometry": {"coordinates": [-85.287909787, 34.871630691], "type": "Point"}, "id": "ahuGstzKOQivo9N4XvrgNo0gbok=", "properties": {"@source_uri": "https://tools.usps.com/UspsToolsRestServices/rest/POLocator/findLocations", "@spider": "usps_collection_boxes", "addr:city": "CHICKAMAUGA", "addr:country": "US", "addr:postcode": "30707", "addr:state": "GA", "addr:street_address": "207 W 10TH ST", "amenity": "post_box", "collection_times": "Mo-Fr 16:30; Sa 12:00", "indoor": "yes", "note": "ON 12/24 AND 12/31, THIS BOX MAY BE COLLECTED AS EARLY AS 12 NOON.", "nsi_id": "unitedstatespostalservice-a77078", "operator": "United States Postal Service", "operator:short": "USPS", "operator:type": "public", "operator:wikidata": "Q668687", "ref": "3070700012"}, "type": "Feature"}
{"geometry": {"coordinates": [-84.736954, 34.95147], "type": "Point"}, "id": "RIH_hNVYdKSY6gv9EQfTm5_s1yk=", "properties": {"@source_uri": "https://tools.usps.com/UspsToolsRestServices/rest/POLocator/findLocations", "@spider": "usps_collection_boxes", "addr:city": "CISCO", "addr:country": "US", "addr:postcode": "30708", "addr:state": "GA", "addr:street_address": "12539 HIGHWAY 411 N", "amenity": "post_box", "collection_times": "Mo-Fr 12:00; Sa 11:45", "indoor": "yes", "nsi_id": "unitedstatespostalservice-a77078", "operator": "United States Postal Service", "operator:short": "USPS", "operator:type": "public", "operator:wikidata": "Q668687", "ref": "3070800000"}, "type": "Feature"}
{"geometry": {"coordinates": [-84.736954, 34.95147], "type": "Point"}, "id": "fV6W2h74jvMHt3V1lnn3FG44XoY=", "properties": {"@source_uri": "https://tools.usps.com/UspsToolsRestServices/rest/POLocator/findLocations", "@spider": "usps_collection_boxes", "addr:city": "CISCO", "addr:country": "US", "addr:postcode": "30708", "addr:state": "GA", "addr:street_address": "12539 HIGHWAY 411 N", "amenity": "post_box", "collection_times": "Mo-Fr 12:00; Sa 11:45", "nsi_id": "unitedstatespostalservice-a77078", "operator": "United States Postal Service", "operator:short": "USPS", "operator:type": "public", "operator:wikidata": "Q668687", "ref": "3070800001"}, "type": "Feature"}
{"geometry": {"coordinates": [-84.736985016, 34.951484284], "type": "Point"}, "id": "gMFMIHjfbt7tJyH8xn4qGkYSvbE=", "properties": {"@source_uri": "https://tools.usps.com/UspsToolsRestServices/rest/POLocator/findLocations", "@spider": "usps_collection_boxes", "addr:city": "CISCO", "addr:country": "US", "addr:postcode": "30708", "addr:state": "GA", "addr:street_address": "12539 HIGHWAY 411 N", "amenity": "post_box", "collection_times": "Mo-Fr 12:00; Sa 11:45", "indoor": "yes", "nsi_id": "unitedstatespostalservice-a77078", "operator": "United States Postal Service", "operator:short": "USPS", "operator:type": "public", "operator:wikidata": "Q668687", "ref": "3070800002"}, "type": "Feature"}
{"geometry": {"coordinates": [-84.953057, 34.959309], "type": "Point"}, "id": "RRcwJjg4sXFB3L5-zeSGI5Ru6ng=", "properties": {"@source_uri": "https://tools.usps.com/UspsToolsRestServices/rest/POLocator/findLocations", "@spider": "usps_collection_boxes", "addr:city": "COHUTTA", "addr:country": "US", "addr:postcode": "30710", "addr:state": "GA", "addr:street_address": "325 WOLFE ST", "amenity": "post_box", "collection_times": "Mo-Fr 16:00; Sa 11:30", "note": "ON 12/24 AND 12/31, THIS BOX MAY BE COLLECTED AS EARLY AS 12 NOON.", "nsi_id": "unitedstatespostalservice-a77078", "operator": "United States Postal Service", "operator:short": "USPS", "operator:type": "public", "operator:wikidata": "Q668687", "ref": "3071000002"}, "type": "Feature"}
{"geometry": {"coordinates": [-84.953062, 34.959336], "type": "Point"}, "id": "cPLgd-K9n2vTwVtTpvaLxZxz1og=", "properties": {"@source_uri": "https://tools.usps.com/UspsToolsRestServices/rest/POLocator/findLocations", "@spider": "usps_collection_boxes", "addr:city": "COHUTTA", "addr:country": "US", "addr:postcode": "30710", "addr:state": "GA", "addr:street_address": "325 WOLFE ST", "amenity": "post_box", "collection_times": "Mo-Fr 16:00; Sa 11:30", "indoor": "yes", "note": "ON 12/24 AND 12/31, THIS BOX MAY BE COLLECTED AS EARLY AS 12 NOON.", "nsi_id": "unitedstatespostalservice-a77078", "operator": "United States Postal Service", "operator:short": "USPS", "operator:type": "public", "operator:wikidata": "Q668687", "ref": "3071000003"}, "type": "Feature"}
{"geometry": {"coordinates": [-84.95288076, 34.959321652], "type": "Point"}, "id": "FlAbBjv2XCrcgLbe1W6PtAyXhts=", "properties": {"@source_uri": "https://tools.usps.com/UspsToolsRestServices/rest/POLocator/findLocations", "@spider": "usps_collection_boxes", "addr:city": "COHUTTA", "addr:country": "US", "addr:postcode": "30710", "addr:state": "GA", "addr:street_address": "325 WOLFE ST", "amenity": "post_box", "collection_times": "Mo-Fr 16:00; Sa 11:30", "indoor": "yes", "note": "ON 12/24 AND 12/31, THIS BOX MAY BE COLLECTED AS EARLY AS 12 NOON.", "nsi_id": "unitedstatespostalservice-a77078", "operator": "United States Postal Service", "operator:short": "USPS", "operator:type": "public", "operator:wikidata": "Q668687", "ref": "3071000004"}, "type": "Feature"}
{"geometry": {"coordinates": [-84.7671858255, 34.9323530206], "type": "Point"}, "id": "FxxqBAsEmB5L9cPaAwDOdHrVRe8=", "properties": {"@source_uri": "https://tools.usps.com/UspsToolsRestServices/rest/POLocator/findLocations", "@spider": "usps_collection_boxes", "addr:city": "CRANDALL", "addr:country": "US", "addr:postcode": "30711", "addr:state": "GA", "addr:street_address": "6410 N 411 HWY", "amenity": "post_box", "collection_times": "Mo-Fr 14:30; Sa 10:00", "note": "ON 12/24 AND 12/31, THIS BOX MAY BE COLLECTED AS EARLY AS 12 NOON.", "nsi_id": "unitedstatespostalservice-a77078", "operator": "United States Postal Service", "operator:short": "USPS", "operator:type": "public", "operator:wikidata": "Q668687", "ref": "3071100001"}, "type": "Feature"}
{"geometry": {"coordinates": [-84.753017, 34.868173], "type": "Point"}, "id": "HPJUiDpGVEwmn8ffxcZbNGBufLs=", "properties": {"@source_uri": "https://tools.usps.com/UspsToolsRestServices/rest/POLocator/findLocations", "@spider": "usps_collection_boxes", "addr:city": "CRANDALL", "addr:country": "US", "addr:postcode": "30711", "addr:state": "GA", "addr:street_address": "6410 HIGHWAY 411 N", "amenity": "post_box", "collection_times": "Mo-Fr 14:30; Sa 10:00", "indoor": "yes", "note": "ON 12/24 AND 12/31, THIS BOX MAY BE COLLECTED AS EARLY AS 12 NOON.", "nsi_id": "unitedstatespostalservice-a77078", "operator": "United States Postal Service", "operator:short": "USPS", "operator:type": "public", "operator:wikidata": "Q668687", "ref": "3071100002"}, "type": "Feature"}
{"geometry": {"coordinates": [-84.752996572, 34.868136525], "type": "Point"}, "id": "aOAXBZE9eO_x_63udBTJxiZOYdE=", "properties": {"@source_uri": "https://tools.usps.com/UspsToolsRestServices/rest/POLocator/findLocations", "@spider": "usps_collection_boxes", "addr:city": "CRANDALL", "addr:country": "US", "addr:postcode": "30711", "addr:state": "GA", "addr:street_address": "6410 HIGHWAY 411 N", "amenity": "post_box", "collection_times": "Mo-Fr 14:30; Sa 10:00", "indoor": "yes", "note": "ON 12/24 AND 12/31, THIS BOX MAY BE COLLECTED AS EARLY AS 12 NOON.", "nsi_id": "unitedstatespostalservice-a77078", "operator": "United States Postal Service", "operator:short": "USPS", "operator:type": "public", "operator:wikidata": "Q668687", "ref": "3071100003"}, "type": "Feature"}
{"geometry": {"coordinates": [-84.9913294, 34.758919], "type": "Point"}, "id": "G3aTTnrvwd9SBAOMQWnYzPlKqtA=", "properties": {"@source_uri": "https://tools.usps.com/UspsToolsRestServices/rest/POLocator/findLocations", "@spider": "usps_collection_boxes", "addr:city": "DALTON", "addr:country": "US", "addr:postcode": "30720", "addr:state": "GA", "addr:street_address": "1305 W WALNUT AVE", "amenity": "post_box", "collection_times": "Mo-Sa 09:15", "nsi_id": "unitedstatespostalservice-a77078", "operator": "United States Postal Service", "operator:short": "USPS", "operator:type": "public", "operator:wikidata": "Q668687", "ref": "3072000006"}, "type": "Feature"}
{"geometry": {"coordinates": [-84.999999, 34.75686], "type": "Point"}, "id": "E9EmAxEPpFaPbTAW0J_bN7MHTiU=", "properties": {"@source_uri": "https://tools.usps.com/UspsToolsRestServices/rest/POLocator/findLocations", "@spider": "usps_collection_boxes", "addr:city": "DALTON", "addr:country": "US", "addr:postcode": "30720", "addr:state": "GA", "addr:street_address": "1001 MARKET ST", "amenity": "post_box", "collection_times": "Mo-Sa 09:15", "nsi_id": "unitedstatespostalservice-a77078", "operator": "United States Postal Service", "operator:short": "USPS", "operator:type": "public", "operator:wikidata": "Q668687", "ref": "3072000008"}, "type": "Feature"}
{"geometry": {"coordinates": [-84.9788617, 34.715668], "type": "Point"}, "id": "nG9DGd0TgOEQLqJbuGggEYxK9cQ=", "properties": {"@source_uri": "https://tools.usps.com/UspsToolsRestServices/rest/POLocator/findLocations", "@spider": "usps_collection_boxes", "addr:city": "DALTON", "addr:country": "US", "addr:postcode": "30720", "addr:state": "GA", "addr:street_address": "2800 S DIXIE HWY", "amenity": "post_box", "collection_times": "Mo-Sa 09:30", "nsi_id": "unitedstatespostalservice-a77078", "operator": "United States Postal Service", "operator:short": "USPS", "operator:type": "public", "operator:wikidata": "Q668687", "ref": "3072000009"}, "type": "Feature"}
{"geometry": {"coordinates": [-84.9664221, 34.755474], "type": "Point"}, "id": "DEcAIeJKA_BAsR_brQgABVjRdXE=", "properties": {"@source_uri": "https://tools.usps.com/UspsToolsRestServices/rest/POLocator/findLocations", "@spider": "usps_collection_boxes", "addr:city": "DALTON", "addr:country": "US", "addr:postcode": "30720", "addr:state": "GA", "addr:street_address": "1100 S HAMILTON ST", "amenity": "post_box", "collection_times": "Mo-Fr 15:00; Sa 09:30", "note": "ON 12/24 AND 12/31, THIS BOX MAY BE COLLECTED AS EARLY AS 12 NOON.", "nsi_id": "unitedstatespostalservice-a77078", "operator": "United States Postal Service", "operator:short": "USPS", "operator:type": "public", "operator:wikidata": "Q668687", "ref": "3072000013"}, "type": "Feature"}
{"geometry": {"coordinates": [-84.9724194, 34.770817], "type": "Point"}, "id": "CG_P3d1l2vit0tlznUnw6QBe8xo=", "properties": {"@source_uri": "https://tools.usps.com/UspsToolsRestServices/rest/POLocator/findLocations", "@spider": "usps_collection_boxes", "addr:city": "DALTON", "addr:country": "US", "addr:postcode": "30720", "addr:state": "GA", "addr:street_address": "100 S THORNTON AVE", "amenity": "post_box", "collection_times": "Mo-Fr 17:00; Sa 12:00", "note": "ON 12/24 AND 12/31, THIS BOX MAY BE COLLECTED AS EARLY AS 12 NOON.", "nsi_id": "unitedstatespostalservice-a77078", "operator": "United States Postal Service", "operator:short": "USPS", "operator:type": "public", "operator:wikidata": "Q668687", "ref": "3072000021"}, "type": "Feature"}
{"geometry": {"coordinates": [-84.9721041, 34.771193], "type": "Point"}, "id": "nYNM0zcoHRnvaPnm2XQ8rIsgwB8=", "properties": {"@source_uri": "https://tools.usps.com/UspsToolsRestServices/rest/POLocator/findLocations", "@spider": "usps_collection_boxes", "addr:city": "DALTON", "addr:country": "US", "addr:postcode": "30720", "addr:state": "GA", "addr:street_address": "100 S THORNTON AVE", "amenity": "post_box", "collection_times": "Mo-Fr 17:00; Sa 12:00", "indoor": "yes", "note": "ON 12/24 AND 12/31, THIS BOX MAY BE COLLECTED AS EARLY AS 12 NOON.", "nsi_id": "unitedstatespostalservice-a77078", "operator": "United States Postal Service", "operator:short": "USPS", "operator:type": "public", "operator:wikidata": "Q668687", "ref": "3072000022"}, "type": "Feature"}
{"geometry": {"coordinates": [-84.9720324, 34.771264], "type": "Point"}, "id": "bYnLFTSKxlb7dDMAOTcXjKqdTp0=", "properties": {"@source_uri": "https://tools.usps.com/UspsToolsRestServices/rest/POLocator/findLocations", "@spider": "usps_collection_boxes", "addr:city": "DALTON", "addr:country": "US", "addr:postcode": "30720", "addr:state": "GA", "addr:street_address": "100 S THORNTON AVE", "amenity": "post_box", "collection_times": "Mo-Fr 17:00; Sa 12:00", "name": "USPS COLLECTION BOX - APC", "note": "ON 12/24 AND 12/31, THIS BOX MAY BE COLLECTED AS EARLY AS 12 NOON.", "nsi_id": "unitedstatespostalservice-a77078", "operator": "United States Postal Service", "operator:short": "USPS", "operator:type": "public", "operator:wikidata": "Q668687", "ref": "3072000023"}, "type": "Feature"}
{"geometry": {"coordinates": [-85.0025566, 34.774765], "type": "Point"}, "id": "VAGnGqaEopcOOpNwb3vZrzbqDug=", "properties": {"@source_uri": "https://tools.usps.com/UspsToolsRestServices/rest/POLocator/findLocations", "@spider": "usps_collection_boxes", "addr:city": "DALTON", "addr:country": "US", "addr:postcode": "30720", "addr:state": "GA", "addr:street_address": "650 COLLEGE DR", "amenity": "post_box", "collection_times": "Mo-Fr 15:00; Sa 09:00", "note": "ON 12/24 AND 12/31, THIS BOX MAY BE COLLECTED AS EARLY AS 12 NOON.", "nsi_id": "unitedstatespostalservice-a77078", "operator": "United States Postal Service", "operator:short": "USPS", "operator:type": "public", "operator:wikidata": "Q668687", "ref": "3072000024"}, "type": "Feature"}
{"geometry": {"coordinates": [-84.9820434, 34.79361], "type": "Point"}, "id": "QR70fnrPb15NxKFtEISxrpn4-nk=", "properties": {"@source_uri": "https://tools.usps.com/UspsToolsRestServices/rest/POLocator/findLocations", "@spider": "usps_collection_boxes", "addr:city": "DALTON", "addr:country": "US", "addr:postcode": "30720", "addr:state": "GA", "addr:street_address": "1504 N THORNTON AVE", "amenity": "post_box", "collection_times": "Mo-Fr 12:00; Sa 10:00", "nsi_id": "unitedstatespostalservice-a77078", "operator": "United States Postal Service", "operator:short": "USPS", "operator:type": "public", "operator:wikidata": "Q668687", "ref": "3072000027"}, "type": "Feature"}
{"geometry": {"coordinates": [-84.9754324, 34.793252], "type": "Point"}, "id": "kF--0wq6g6Du9YhAY9XqVs2HzpQ=", "properties": {"@source_uri": "https://tools.usps.com/UspsToolsRestServices/rest/POLocator/findLocations", "@spider": "usps_collection_boxes", "addr:city": "DALTON", "addr:country": "US", "addr:postcode": "30720", "addr:state": "GA", "addr:street_address": "301 POINT NORTH PL", "amenity": "post_box", "collection_times": "Mo-Fr 15:00", "note": "ON 12/24 AND 12/31, THIS BOX MAY BE COLLECTED AS EARLY AS 12 NOON.", "nsi_id": "unitedstatespostalservice-a77078", "operator": "United States Postal Service", "operator:short": "USPS", "operator:type": "public", "operator:wikidata": "Q668687", "ref": "3072000029"}, "type": "Feature"}
{"geometry": {"coordinates": [-84.9694089, 34.762406], "type": "Point"}, "id": "EvS0lMZliIDKwdmI7nFRCl6Yz20=", "properties": {"@source_uri": "https://tools.usps.com/UspsToolsRestServices/rest/POLocator/findLocations", "@spider": "usps_collection_boxes", "addr:city": "DALTON", "addr:country": "US", "addr:postcode": "30720", "addr:state": "GA", "addr:street_address": "100 W WALNUT AVE", "amenity": "post_box", "collection_times": "Mo-Sa 10:00", "nsi_id": "unitedstatespostalservice-a77078", "operator": "United States Postal Service", "operator:short": "USPS", "operator:type": "public", "operator:wikidata": "Q668687", "ref": "3072000033"}, "type": "Feature"}
{"geometry": {"coordinates": [-84.971825409, 34.771194136], "type": "Point"}, "id": "FdJIGdehFB_N1QpL-1CSEkPY_ZI=", "properties": {"@source_uri": "https://tools.usps.com/UspsToolsRestServices/rest/POLocator/findLocations", "@spider": "usps_collection_boxes", "addr:city": "DALTON", "addr:country": "US", "addr:postcode": "30720", "addr:state": "GA", "addr:street_address": "100 S THORNTON AVE", "amenity": "post_box", "collection_times": "Mo-Fr 17:00; Sa 12:00", "indoor": "yes", "note": "ON 12/24 AND 12/31, THIS BOX MAY BE COLLECTED AS EARLY AS 12 NOON.", "nsi_id": "unitedstatespostalservice-a77078", "operator": "United States Postal Service", "operator:short": "USPS", "operator:type": "public", "operator:wikidata": "Q668687", "ref": "3072000036"}, "type": "Feature"}
{"geometry": {"coordinates": [-84.950839973, 34.76816002], "type": "Point"}, "id": "RqvQJ1kKhCp3D0QhqBRSE8FSUqI=", "properties": {"@source_uri": "https://tools.usps.com/UspsToolsRestServices/rest/POLocator/findLocations", "@spider": "usps_collection_boxes", "addr:city": "DALTON", "addr:country": "US", "addr:postcode": "30721", "addr:state": "GA", "addr:street_address": "1119 E MORRIS ST", "amenity": "post_box", "collection_times": "Mo-Fr 17:00; Sa 12:00", "note": "ON 12/24 AND 12/31, THIS BOX MAY BE COLLECTED AS EARLY AS 12 NOON.", "nsi_id": "unitedstatespostalservice-a77078", "operator": "United States Postal Service", "operator:short": "USPS", "operator:type": "public", "operator:wikidata": "Q668687", "ref": "3072100001"}, "type": "Feature"}
{"geometry": {"coordinates": [-84.8794562, 34.820008], "type": "Point"}, "id": "FvR2AP3q-ctdlUaGW763-sa_y-M=", "properties": {"@source_uri": "https://tools.usps.com/UspsToolsRestServices/rest/POLocator/findLocations", "@spider": "usps_collection_boxes", "addr:city": "DALTON", "addr:country": "US", "addr:postcode": "30721", "addr:state": "GA", "addr:street_address": "1352 DAWNVILLE RD NE", "amenity": "post_box", "collection_times": "Mo-Sa 10:15", "nsi_id": "unitedstatespostalservice-a77078", "operator": "United States Postal Service", "operator:short": "USPS", "operator:type": "public", "operator:wikidata": "Q668687", "ref": "3072100006"}, "type": "Feature"}
{"geometry": {"coordinates": [-84.9305854, 34.765959], "type": "Point"}, "id": "k_FWBMG8yN6RV9arvLIKrrujWnk=", "properties": {"@source_uri": "https://tools.usps.com/UspsToolsRestServices/rest/POLocator/findLocations", "@spider": "usps_collection_boxes", "addr:city": "DALTON", "addr:country": "US", "addr:postcode": "30721", "addr:state": "GA", "addr:street_address": "2545 E WALNUT AVE", "amenity": "post_box", "collection_times": "Mo-Sa 09:00", "nsi_id": "unitedstatespostalservice-a77078", "operator": "United States Postal Service", "operator:short": "USPS", "operator:type": "public", "operator:wikidata": "Q668687", "ref": "3072100008"}, "type": "Feature"}
{"geometry": {"coordinates": [-84.9594277, 34.805456], "type": "Point"}, "id": "MCDZ2xwNui9os6oTiRpfn6mNFro=", "properties": {"@source_uri": "https://tools.usps.com/UspsToolsRestServices/rest/POLocator/findLocations", "@spider": "usps_collection_boxes", "addr:city": "DALTON", "addr:country": "US", "addr:postcode": "30721", "addr:state": "GA", "addr:street_address": "201 N OAK DR", "amenity": "post_box", "collection_times": "Mo-Fr 12:30; Sa 10:30", "note": "ON 12/24 AND 12/31, THIS BOX MAY BE COLLECTED AS EARLY AS 12 NOON.", "nsi_id": "unitedstatespostalservice-a77078", "operator": "United States Postal Service", "operator:short": "USPS", "operator:type": "public", "operator:wikidata": "Q668687", "ref": "3072100009"}, "type": "Feature"}
{"geometry": {"coordinates": [-84.9633136, 34.792492], "type": "Point"}, "id": "A35JnUDD3ZHjGJJkomrvzoZeRUI=", "properties": {"@source_uri": "https://tools.usps.com/UspsToolsRestServices/rest/POLocator/findLocations", "@spider": "usps_collection_boxes", "addr:city": "DALTON", "addr:country": "US", "addr:postcode": "30721", "addr:state": "GA", "addr:street_address": "1205 N GLENWOOD AVE", "amenity": "post_box", "collection_times": "Mo-Sa 14:00", "note": "ON 12/24 AND 12/31, THIS BOX MAY BE COLLECTED AS EARLY AS 12 NOON.", "nsi_id": "unitedstatespostalservice-a77078", "operator": "United States Postal Service", "operator:short": "USPS", "operator:type": "public", "operator:wikidata": "Q668687", "ref": "3072100010"}, "type": "Feature"}
{"geometry": {"coordinates": [-84.9440368, 34.821805], "type": "Point"}, "id": "M_1PeBsRxGbnl9c7VGW-K4Kdf64=", "properties": {"@source_uri": "https://tools.usps.com/UspsToolsRestServices/rest/POLocator/findLocations", "@spider": "usps_collection_boxes", "addr:city": "DALTON", "addr:country": "US", "addr:postcode": "30721", "addr:state": "GA", "addr:street_address": "2518 CLEVELAND HWY", "amenity": "post_box", "collection_times": "Mo-Sa 09:00", "nsi_id": "unitedstatespostalservice-a77078", "operator": "United States Postal Service", "operator:short": "USPS", "operator:type": "public", "operator:wikidata": "Q668687", "ref": "3072100015"}, "type": "Feature"}
{"geometry": {"coordinates": [-84.9589631, 34.80319], "type": "Point"}, "id": "lmmVVY1-Hlbxub3mOF6gw2cqFH4=", "properties": {"@source_uri": "https://tools.usps.com/UspsToolsRestServices/rest/POLocator/findLocations", "@spider": "usps_collection_boxes", "addr:city": "DALTON", "addr:country": "US", "addr:postcode": "30721", "addr:state": "GA", "addr:street_address": "1710 CLEVELAND HWY", "amenity": "post_box", "collection_times": "Mo-Sa 09:00", "nsi_id": "unitedstatespostalservice-a77078", "operator": "United States Postal Service", "operator:short": "USPS", "operator:type": "public", "operator:wikidata": "Q668687", "ref": "3072100016"}, "type": "Feature"}
{"geometry": {"coordinates": [-84.9615426, 34.760592], "type": "Point"}, "id": "iagxHCwutrZEdUhzR3zPCD6ygNQ=", "properties": {"@source_uri": "https://tools.usps.com/UspsToolsRestServices/rest/POLocator/findLocations", "@spider": "usps_collection_boxes", "addr:city": "DALTON", "addr:country": "US", "addr:postcode": "30721", "addr:state": "GA", "addr:street_address": "500 E WALNUT AVE", "amenity": "post_box", "collection_times": "Mo-Fr 15:00; Sa 09:30", "note": "ON 12/24 AND 12/31, THIS BOX MAY BE COLLECTED AS EARLY AS 12 NOON.", "nsi_id": "unitedstatespostalservice-a77078", "operator": "United States Postal Service", "operator:short": "USPS", "operator:type": "public", "operator:wikidata": "Q668687", "ref": "3072100017"}, "type": "Feature"}
{"geometry": {"coordinates": [-84.950839973, 34.76816002], "type": "Point"}, "id": "cN6xwMTI1CIBsVy-hG0cbLI9Pe4=", "properties": {"@source_uri": "https://tools.usps.com/UspsToolsRestServices/rest/POLocator/findLocations", "@spider": "usps_collection_boxes", "addr:city": "DALTON", "addr:country": "US", "addr:postcode": "30721", "addr:state": "GA", "addr:street_address": "1119 E MORRIS ST", "amenity": "post_box", "collection_times": "Mo-Fr 17:00; Sa 12:00", "indoor": "yes", "note": "ON 12/24 AND 12/31, THIS BOX MAY BE COLLECTED AS EARLY AS 12 NOON.", "nsi_id": "unitedstatespostalservice-a77078", "operator": "United States Postal Service", "operator:short": "USPS", "operator:type": "public", "operator:wikidata": "Q668687", "ref": "3072100019"}, "type": "Feature"}
{"geometry": {"coordinates": [-84.9630335, 34.762099], "type": "Point"}, "id": "3nXtJq6fgbAJh9FHQK_yjcN95Fk=", "properties": {"@source_uri": "https://tools.usps.com/UspsToolsRestServices/rest/POLocator/findLocations", "@spider": "usps_collection_boxes", "addr:city": "DALTON", "addr:country": "US", "addr:postcode": "30721", "addr:state": "GA", "addr:street_address": "708 S GLENWOOD AVE", "amenity": "post_box", "collection_times": "Mo-Sa 08:30", "nsi_id": "unitedstatespostalservice-a77078", "operator": "United States Postal Service", "operator:short": "USPS", "operator:type": "public", "operator:wikidata": "Q668687", "ref": "3072100021"}, "type": "Feature"}
{"geometry": {"coordinates": [-85.0001893, 34.687773], "type": "Point"}, "id": "zLPUwOEE5Ttmt7av0CKoH-FSIR4=", "properties": {"@source_uri": "https://tools.usps.com/UspsToolsRestServices/rest/POLocator/findLocations", "@spider": "usps_collection_boxes", "addr:city": "DALTON", "addr:country": "US", "addr:postcode": "30721", "addr:state": "GA", "addr:street_address": "244 CONNECTOR 3", "amenity": "post_box", "collection_times": "Mo-Sa 11:30", "nsi_id": "unitedstatespostalservice-a77078", "operator": "United States Postal Service", "operator:short": "USPS", "operator:type": "public", "operator:wikidata": "Q668687", "ref": "3072100023"}, "type": "Feature"}
{"geometry": {"coordinates": [-84.950839973, 34.76816002], "type": "Point"}, "id": "iS5xvb_WmHordkhHePwWCD4AFVo=", "properties": {"@source_uri": "https://tools.usps.com/UspsToolsRestServices/rest/POLocator/findLocations", "@spider": "usps_collection_boxes", "addr:city": "DALTON", "addr:country": "US", "addr:postcode": "30721", "addr:state": "GA", "addr:street_address": "1119 E MORRIS ST", "amenity": "post_box", "collection_times": "Mo-Fr 17:00; Sa 12:00", "indoor": "yes", "note": "ON 12/24 AND 12/31, THIS BOX MAY BE COLLECTED AS EARLY AS 12 NOON.", "nsi_id": "unitedstatespostalservice-a77078", "operator": "United States Postal Service", "operator:short": "USPS", "operator:type": "public", "operator:wikidata": "Q668687", "ref": "3072100029"}, "type": "Feature"}
{"geometry": {"coordinates": [-84.758992, 34.823598], "type": "Point"}, "id": "F0NRYK3s-tAwBUrIn8M-IoROzJ4=", "properties": {"@source_uri": "https://tools.usps.com/UspsToolsRestServices/rest/POLocator/findLocations", "@spider": "usps_collection_boxes", "addr:city": "ETON", "addr:country": "US", "addr:postcode": "30724", "addr:state": "GA", "addr:street_address": "219 CCC CAMP RD", "amenity": "post_box", "collection_times": "Mo-Fr 15:30; Sa 11:15", "note": "ON 12/24 AND 12/31, THIS BOX MAY BE COLLECTED AS EARLY AS 12 NOON.", "nsi_id": "unitedstatespostalservice-a77078", "operator": "United States Postal Service", "operator:short": "USPS", "operator:type": "public", "operator:wikidata": "Q668687", "ref": "3072400000"}, "type": "Feature"}
{"geometry": {"coordinates": [-84.758948, 34.823561], "type": "Point"}, "id": "w4gfN9d9Xx4NM1T2QQP4Lz4WJWU=", "properties": {"@source_uri": "https://tools.usps.com/UspsToolsRestServices/rest/POLocator/findLocations", "@spider": "usps_collection_boxes", "addr:city": "ETON", "addr:country": "US", "addr:postcode": "30724", "addr:state": "GA", "addr:street_address": "219 CCC CAMP RD", "amenity": "post_box", "collection_times": "Mo-Fr 15:30; Sa 11:15", "indoor": "yes", "note": "ON 12/24 AND 12/31, THIS BOX MAY BE COLLECTED AS EARLY AS 12 NOON.", "nsi_id": "unitedstatespostalservice-a77078", "operator": "United States Postal Service", "operator:short": "USPS", "operator:type": "public", "operator:wikidata": "Q668687", "ref": "3072400001"}, "type": "Feature"}
{"geometry": {"coordinates": [-84.759447505, 34.82370903], "type": "Point"}, "id": "44WQw-G5OCwq6JV046SY-QQSXoA=", "properties": {"@source_uri": "https://tools.usps.com/UspsToolsRestServices/rest/POLocator/findLocations", "@spider": "usps_collection_boxes", "addr:city": "ETON", "addr:country": "US", "addr:postcode": "30724", "addr:state": "GA", "addr:street_address": "219 CCC CAMP RD", "amenity": "post_box", "collection_times": "Mo-Fr 15:30; Sa 11:00", "indoor": "yes", "note": "ON 12/24 AND 12/31, THIS BOX MAY BE COLLECTED AS EARLY AS 12 NOON.", "nsi_id": "unitedstatespostalservice-a77078", "operator": "United States Postal Service", "operator:short": "USPS", "operator:type": "public", "operator:wikidata": "Q668687", "ref": "3072400002"}, "type": "Feature"}
{"geometry": {"coordinates": [-85.3419715, 34.942], "type": "Point"}, "id": "y4YrzdSqm0MTQIfu_z7zERF5z-g=", "properties": {"@source_uri": "https://tools.usps.com/UspsToolsRestServices/rest/POLocator/findLocations", "@spider": "usps_collection_boxes", "addr:city": "FLINTSTONE", "addr:country": "US", "addr:postcode": "30725", "addr:state": "GA", "addr:street_address": "4685 HAPPY VALLEY RD", "amenity": "post_box", "collection_times": "Mo-Fr 16:00; Sa 11:30", "note": "ON 12/24 AND 12/31, THIS BOX MAY BE COLLECTED AS EARLY AS 12 NOON.", "nsi_id": "unitedstatespostalservice-a77078", "operator": "United States Postal Service", "operator:short": "USPS", "operator:type": "public", "operator:wikidata": "Q668687", "ref": "3072500001"}, "type": "Feature"}
{"geometry": {"coordinates": [-85.341983, 34.941989], "type": "Point"}, "id": "bX-d7VDHYWOKoccouOgC7HziZDc=", "properties": {"@source_uri": "https://tools.usps.com/UspsToolsRestServices/rest/POLocator/findLocations", "@spider": "usps_collection_boxes", "addr:city": "FLINTSTONE", "addr:country": "US", "addr:postcode": "30725", "addr:state": "GA", "addr:street_address": "4685 HAPPY VALLEY RD", "amenity": "post_box", "collection_times": "Mo-Fr 16:00; Sa 11:30", "indoor": "yes", "note": "ON 12/24 AND 12/31, THIS BOX MAY BE COLLECTED AS EARLY AS 12 NOON.", "nsi_id": "unitedstatespostalservice-a77078", "operator": "United States Postal Service", "operator:short": "USPS", "operator:type": "public", "operator:wikidata": "Q668687", "ref": "3072500002"}, "type": "Feature"}
{"geometry": {"coordinates": [-85.3419205, 34.941969], "type": "Point"}, "id": "hCJkZpAmQwToMAaMliNpAZNGaRE=", "properties": {"@source_uri": "https://tools.usps.com/UspsToolsRestServices/rest/POLocator/findLocations", "@spider": "usps_collection_boxes", "addr:city": "FLINTSTONE", "addr:country": "US", "addr:postcode": "30725", "addr:state": "GA", "addr:street_address": "4685 HAPPY VALLEY RD", "amenity": "post_box", "collection_times": "Mo-Fr 16:00; Sa 11:30", "indoor": "yes", "note": "ON 12/24 AND 12/31, THIS BOX MAY BE COLLECTED AS EARLY AS 12 NOON.", "nsi_id": "unitedstatespostalservice-a77078", "operator": "United States Postal Service", "operator:short": "USPS", "operator:type": "public", "operator:wikidata": "Q668687", "ref": "3072500003"}, "type": "Feature"}
{"geometry": {"coordinates": [-85.341769265, 34.942218425], "type": "Point"}, "id": "JPzHThH3lYJ3JepELUOonMQ6TGc=", "properties": {"@source_uri": "https://tools.usps.com/UspsToolsRestServices/rest/POLocator/findLocations", "@spider": "usps_collection_boxes", "addr:city": "FLINTSTONE", "addr:country": "US", "addr:postcode": "30725", "addr:state": "GA", "addr:street_address": "4685 HAPPY VALLEY RD", "amenity": "post_box", "collection_times": "Mo-Fr 16:00; Sa 11:30", "indoor": "yes", "note": "ON 12/24 AND 12/31, THIS BOX MAY BE COLLECTED AS EARLY AS 12 NOON.", "nsi_id": "unitedstatespostalservice-a77078", "operator": "United States Postal Service", "operator:short": "USPS", "operator:type": "public", "operator:wikidata": "Q668687", "ref": "3072500004"}, "type": "Feature"}
{"geometry": {"coordinates": [-85.141351, 34.975844], "type": "Point"}, "id": "8rxz_3D7-eUlIZOWMtrYkIrDvVE=", "properties": {"@source_uri": "https://tools.usps.com/UspsToolsRestServices/rest/POLocator/findLocations", "@spider": "usps_collection_boxes", "addr:city": "GRAYSVILLE", "addr:country": "US", "addr:postcode": "30726", "addr:state": "GA", "addr:street_address": "17 VAUGHN ST", "amenity": "post_box", "collection_times": "Mo-Fr 11:30; Sa 11:00", "indoor": "yes", "nsi_id": "unitedstatespostalservice-a77078", "operator": "United States Postal Service", "operator:short": "USPS", "operator:type": "public", "operator:wikidata": "Q668687", "ref": "3072600000"}, "type": "Feature"}
{"geometry": {"coordinates": [-85.141271, 34.975852], "type": "Point"}, "id": "tJkXNia0xxlSukCs0Bqplk1Iuss=", "properties": {"@source_uri": "https://tools.usps.com/UspsToolsRestServices/rest/POLocator/findLocations", "@spider": "usps_collection_boxes", "addr:city": "GRAYSVILLE", "addr:country": "US", "addr:postcode": "30726", "addr:state": "GA", "addr:street_address": "17 VAUGHN ST", "amenity": "post_box", "collection_times": "Mo-Fr 11:30; Sa 11:00", "nsi_id": "unitedstatespostalservice-a77078", "operator": "United States Postal Service", "operator:short": "USPS", "operator:type": "public", "operator:wikidata": "Q668687", "ref": "3072600001"}, "type": "Feature"}
{"geometry": {"coordinates": [-85.2807187, 34.704436], "type": "Point"}, "id": "Xo2yOVuwr3DklWFXA7ZpSCoL2IM=", "properties": {"@source_uri": "https://tools.usps.com/UspsToolsRestServices/rest/POLocator/findLocations", "@spider": "usps_collection_boxes", "addr:city": "LAFAYETTE", "addr:country": "US", "addr:postcode": "30728", "addr:state": "GA", "addr:street_address": "103 S DUKE ST", "amenity": "post_box", "collection_times": "Mo-Sa 09:00", "nsi_id": "unitedstatespostalservice-a77078", "operator": "United States Postal Service", "operator:short": "USPS", "operator:type": "public", "operator:wikidata": "Q668687", "ref": "3072800001"}, "type": "Feature"}
{"geometry": {"coordinates": [-85.2852395, 34.70495], "type": "Point"}, "id": "TE3IwVPoPkP2BtAiM9h61WpYm4I=", "properties": {"@source_uri": "https://tools.usps.com/UspsToolsRestServices/rest/POLocator/findLocations", "@spider": "usps_collection_boxes", "addr:city": "LAFAYETTE", "addr:country": "US", "addr:postcode": "30728", "addr:state": "GA", "addr:street_address": "111 MIZE ST", "amenity": "post_box", "collection_times": "Mo-Sa 15:00", "note": "ON 12/24 AND 12/31, THIS BOX MAY BE COLLECTED AS EARLY AS 12 NOON.", "nsi_id": "unitedstatespostalservice-a77078", "operator": "United States Postal Service", "operator:short": "USPS", "operator:type": "public", "operator:wikidata": "Q668687", "ref": "3072800006"}, "type": "Feature"}
{"geometry": {"coordinates": [-85.2823127, 34.701291], "type": "Point"}, "id": "kdkM647i6124Ildd_cTiEqPHr3c=", "properties": {"@source_uri": "https://tools.usps.com/UspsToolsRestServices/rest/POLocator/findLocations", "@spider": "usps_collection_boxes", "addr:city": "LAFAYETTE", "addr:country": "US", "addr:postcode": "30728", "addr:state": "GA", "addr:street_address": "311 S MAIN ST", "amenity": "post_box", "collection_times": "Mo-Sa 15:00", "note": "ON 12/24 AND 12/31, THIS BOX MAY BE COLLECTED AS EARLY AS 12 NOON.", "nsi_id": "unitedstatespostalservice-a77078", "operator": "United States Postal Service", "operator:short": "USPS", "operator:type": "public", "operator:wikidata": "Q668687", "ref": "3072800009"}, "type": "Feature"}
{"geometry": {"coordinates": [-85.281801, 34.704786], "type": "Point"}, "id": "did3rS9TFR3qpaReEWEOit4ITJI=", "properties": {"@source_uri": "https://tools.usps.com/UspsToolsRestServices/rest/POLocator/findLocations", "@spider": "usps_collection_boxes", "addr:city": "LAFAYETTE", "addr:country": "US", "addr:postcode": "30728", "addr:state": "GA", "addr:street_address": "105 E PUBLIC SQ", "amenity": "post_box", "collection_times": "Mo-Sa 09:00", "nsi_id": "unitedstatespostalservice-a77078", "operator": "United States Postal Service", "operator:short": "USPS", "operator:type": "public", "operator:wikidata": "Q668687", "ref": "3072800011"}, "type": "Feature"}
{"geometry": {"coordinates": [-85.271315, 34.698894], "type": "Point"}, "id": "vwMcrK-H190rEhLVkEtCFhryKLo=", "properties": {"@source_uri": "https://tools.usps.com/UspsToolsRestServices/rest/POLocator/findLocations", "@spider": "usps_collection_boxes", "addr:city": "LAFAYETTE", "addr:country": "US", "addr:postcode": "30728", "addr:state": "GA", "addr:street_address": "220 FOSTER BLVD", "amenity": "post_box", "collection_times": "Mo-Fr 16:30; Sa 12:00", "note": "ON 12/24 AND 12/31, THIS BOX MAY BE COLLECTED AS EARLY AS 12 NOON.", "nsi_id": "unitedstatespostalservice-a77078", "operator": "United States Postal Service", "operator:short": "USPS", "operator:type": "public", "operator:wikidata": "Q668687", "ref": "3072800037"}, "type": "Feature"}
{"geometry": {"coordinates": [-85.27124, 34.698924], "type": "Point"}, "id": "9fZNrQ81lGRT40xWJnmW11csZr4=", "properties": {"@source_uri": "https://tools.usps.com/UspsToolsRestServices/rest/POLocator/findLocations", "@spider": "usps_collection_boxes", "addr:city": "LAFAYETTE", "addr:country": "US", "addr:postcode": "30728", "addr:state": "GA", "addr:street_address": "220 FOSTER BLVD", "amenity": "post_box", "collection_times": "Mo-Fr 16:30; Sa 12:00", "indoor": "yes", "note": "ON 12/24 AND 12/31, THIS BOX MAY BE COLLECTED AS EARLY AS 12 NOON.", "nsi_id": "unitedstatespostalservice-a77078", "operator": "United States Postal Service", "operator:short": "USPS", "operator:type": "public", "operator:wikidata": "Q668687", "ref": "3072800043"}, "type": "Feature"}
{"geometry": {"coordinates": [-85.27124, 34.698924], "type": "Point"}, "id": "sZtkQWDIElRC-NmLe-AwrpDzzkY=", "properties": {"@source_uri": "https://tools.usps.com/UspsToolsRestServices/rest/POLocator/findLocations", "@spider": "usps_collection_boxes", "addr:city": "LAFAYETTE", "addr:country": "US", "addr:postcode": "30728", "addr:state": "GA", "addr:street_address": "220 FOSTER BLVD", "amenity": "post_box", "collection_times": "Mo-Fr 16:30; Sa 12:00", "indoor": "yes", "note": "ON 12/24 AND 12/31, THIS BOX MAY BE COLLECTED AS EARLY AS 12 NOON.", "nsi_id": "unitedstatespostalservice-a77078", "operator": "United States Postal Service", "operator:short": "USPS", "operator:type": "public", "operator:wikidata": "Q668687", "ref": "3072800044"}, "type": "Feature"}
{"geometry": {"coordinates": [-85.27124, 34.698924], "type": "Point"}, "id": "_xx4dHZSt8zcLcYqLkUdGw2_drM=", "properties": {"@source_uri": "https://tools.usps.com/UspsToolsRestServices/rest/POLocator/findLocations", "@spider": "usps_collection_boxes", "addr:city": "LAFAYETTE", "addr:country": "US", "addr:postcode": "30728", "addr:state": "GA", "addr:street_address": "220 FOSTER BLVD", "amenity": "post_box", "collection_times": "Mo-Fr 16:30; Sa 12:00", "indoor": "yes", "note": "ON 12/24 AND 12/31, THIS BOX MAY BE COLLECTED AS EARLY AS 12 NOON.", "nsi_id": "unitedstatespostalservice-a77078", "operator": "United States Postal Service", "operator:short": "USPS", "operator:type": "public", "operator:wikidata": "Q668687", "ref": "3072800045"}, "type": "Feature"}
{"geometry": {"coordinates": [-85.273928444, 34.697564965], "type": "Point"}, "id": "HUCa6WhqCUghV21qKMNGHudDuIY=", "properties": {"@source_uri": "https://tools.usps.com/UspsToolsRestServices/rest/POLocator/findLocations", "@spider": "usps_collection_boxes", "addr:city": "LAFAYETTE", "addr:country": "US", "addr:postcode": "30728", "addr:state": "GA", "addr:street_address": "220 FOSTER BLVD", "amenity": "post_box", "collection_times": "Mo-Fr 16:30; Sa 12:00", "indoor": "yes", "note": "ON 12/24 AND 12/31, THIS BOX MAY BE COLLECTED AS EARLY AS 12 NOON.", "nsi_id": "unitedstatespostalservice-a77078", "operator": "United States Postal Service", "operator:short": "USPS", "operator:type": "public", "operator:wikidata": "Q668687", "ref": "3072800047"}, "type": "Feature"}
{"geometry": {"coordinates": [-85.405767, 34.404048], "type": "Point"}, "id": "QNO5S9yR_de3R6tn4FuVudtW9-M=", "properties": {"@source_uri": "https://tools.usps.com/UspsToolsRestServices/rest/POLocator/findLocations", "@spider": "usps_collection_boxes", "addr:city": "LYERLY", "addr:country": "US", "addr:postcode": "30730", "addr:state": "GA", "addr:street_address": "111 ALPINE ST", "amenity": "post_box", "collection_times": "Mo-Fr 12:00; Sa 11:30", "nsi_id": "unitedstatespostalservice-a77078", "operator": "United States Postal Service", "operator:short": "USPS", "operator:type": "public", "operator:wikidata": "Q668687", "ref": "3073000001"}, "type": "Feature"}
{"geometry": {"coordinates": [-85.405773, 34.404018], "type": "Point"}, "id": "OtBeTLDoNhYEsJQy9h9i8CZ-zRg=", "properties": {"@source_uri": "https://tools.usps.com/UspsToolsRestServices/rest/POLocator/findLocations", "@spider": "usps_collection_boxes", "addr:city": "LYERLY", "addr:country": "US", "addr:postcode": "30730", "addr:state": "GA", "addr:street_address": "111 ALPINE ST", "amenity": "post_box", "collection_times": "Mo-Fr 12:00; Sa 11:30", "indoor": "yes", "nsi_id": "unitedstatespostalservice-a77078", "operator": "United States Postal Service", "operator:short": "USPS", "operator:type": "public", "operator:wikidata": "Q668687", "ref": "3073000002"}, "type": "Feature"}
{"geometry": {"coordinates": [-85.476496, 34.484372], "type": "Point"}, "id": "vYN9Zn_3fRjFqjZNZTp4_l2xYwE=", "properties": {"@source_uri": "https://tools.usps.com/UspsToolsRestServices/rest/POLocator/findLocations", "@spider": "usps_collection_boxes", "addr:city": "MENLO", "addr:country": "US", "addr:postcode": "30731", "addr:state": "GA", "addr:street_address": "2951 HIGHWAY 337", "amenity": "post_box", "collection_times": "Mo-Fr 12:00; Sa 10:15", "nsi_id": "unitedstatespostalservice-a77078", "operator": "United States Postal Service", "operator:short": "USPS", "operator:type": "public", "operator:wikidata": "Q668687", "ref": "3073100001"}, "type": "Feature"}
{"geometry": {"coordinates": [-85.476464, 34.484384], "type": "Point"}, "id": "HpiLUC2TzVribzT5xLjcbUF6v1k=", "properties": {"@source_uri": "https://tools.usps.com/UspsToolsRestServices/rest/POLocator/findLocations", "@spider": "usps_collection_boxes", "addr:city": "MENLO", "addr:country": "US", "addr:postcode": "30731", "addr:state": "GA", "addr:street_address": "2951 HIGHWAY 337", "amenity": "post_box", "collection_times": "Mo-Fr 12:00; Sa 10:15", "indoor": "yes", "nsi_id": "unitedstatespostalservice-a77078", "operator": "United States Postal Service", "operator:short": "USPS", "operator:type": "public", "operator:wikidata": "Q668687", "ref": "3073100002"}, "type": "Feature"}
{"geometry": {"coordinates": [-85.476523137, 34.484365772], "type": "Point"}, "id": "WLuvCkhHLu73LsoegLDCEYI0APU=", "properties": {"@source_uri": "https://tools.usps.com/UspsToolsRestServices/rest/POLocator/findLocations", "@spider": "usps_collection_boxes", "addr:city": "MENLO", "addr:country": "US", "addr:postcode": "30731", "addr:state": "GA", "addr:street_address": "2951 HIGHWAY 337", "amenity": "post_box", "collection_times": "Mo-Fr 12:00", "indoor": "yes", "nsi_id": "unitedstatespostalservice-a77078", "operator": "United States Postal Service", "operator:short": "USPS", "operator:type": "public", "operator:wikidata": "Q668687", "ref": "3073100003"}, "type": "Feature"}
{"geometry": {"coordinates": [-84.7056232109, 34.5884150679], "type": "Point"}, "id": "m0RBIfx2j7fkXVKtp_817nkAgzM=", "properties": {"@source_uri": "https://tools.usps.com/UspsToolsRestServices/rest/POLocator/findLocations", "@spider": "usps_collection_boxes", "addr:city": "OAKMAN", "addr:country": "US", "addr:postcode": "30732", "addr:state": "GA", "addr:street_address": "225 OAKMAN RD", "amenity": "post_box", "collection_times": "Mo-Fr 15:30; Sa 11:30", "note": "ON 12/24 AND 12/31, THIS BOX MAY BE COLLECTED AS EARLY AS 12 NOON.", "nsi_id": "unitedstatespostalservice-a77078", "operator": "United States Postal Service", "operator:short": "USPS", "operator:type": "public", "operator:wikidata": "Q668687", "ref": "3073200001"}, "type": "Feature"}
{"geometry": {"coordinates": [-84.7056232109, 34.5884150679], "type": "Point"}, "id": "-nECPQb9DaIvC9fLajiFOlHSRYo=", "properties": {"@source_uri": "https://tools.usps.com/UspsToolsRestServices/rest/POLocator/findLocations", "@spider": "usps_collection_boxes", "addr:city": "OAKMAN", "addr:country": "US", "addr:postcode": "30732", "addr:state": "GA", "addr:street_address": "225 OAKMAN RD", "amenity": "post_box", "collection_times": "Mo-Fr 15:30; Sa 11:30", "indoor": "yes", "note": "ON 12/24 AND 12/31, THIS BOX MAY BE COLLECTED AS EARLY AS 12 NOON.", "nsi_id": "unitedstatespostalservice-a77078", "operator": "United States Postal Service", "operator:short": "USPS", "operator:type": "public", "operator:wikidata": "Q668687", "ref": "3073200002"}, "type": "Feature"}
{"geometry": {"coordinates": [-84.7056232109, 34.5884150679], "type": "Point"}, "id": "UmIkZh0QgTmdINWBdNB68dCdjUY=", "properties": {"@source_uri": "https://tools.usps.com/UspsToolsRestServices/rest/POLocator/findLocations", "@spider": "usps_collection_boxes", "addr:city": "OAKMAN", "addr:country": "US", "addr:postcode": "30732", "addr:state": "GA", "addr:street_address": "225 OAKMAN RD", "amenity": "post_box", "collection_times": "Mo-Fr 15:30; Sa 11:30", "indoor": "yes", "note": "ON 12/24 AND 12/31, THIS BOX MAY BE COLLECTED AS EARLY AS 12 NOON.", "nsi_id": "unitedstatespostalservice-a77078", "operator": "United States Postal Service", "operator:short": "USPS", "operator:type": "public", "operator:wikidata": "Q668687", "ref": "3073200003"}, "type": "Feature"}
{"geometry": {"coordinates": [-84.709525878, 34.566660815], "type": "Point"}, "id": "Hgs1-1DgMGlgqj8p10ylH958HIg=", "properties": {"@source_uri": "https://tools.usps.com/UspsToolsRestServices/rest/POLocator/findLocations", "@spider": "usps_collection_boxes", "addr:city": "OAKMAN", "addr:country": "US", "addr:postcode": "30732", "addr:state": "GA", "addr:street_address": "225 OAKMAN RD", "amenity": "post_box", "collection_times": "Mo-Fr 15:30; Sa 11:30", "indoor": "yes", "note": "ON 12/24 AND 12/31, THIS BOX MAY BE COLLECTED AS EARLY AS 12 NOON.", "nsi_id": "unitedstatespostalservice-a77078", "operator": "United States Postal Service", "operator:short": "USPS", "operator:type": "public", "operator:wikidata": "Q668687", "ref": "3073200004"}, "type": "Feature"}
{"geometry": {"coordinates": [-85.037937, 34.404302], "type": "Point"}, "id": "_yUipM7gMjwtJXo09Cpc8RApl7k=", "properties": {"@source_uri": "https://tools.usps.com/UspsToolsRestServices/rest/POLocator/findLocations", "@spider": "usps_collection_boxes", "addr:city": "PLAINVILLE", "addr:country": "US", "addr:postcode": "30733", "addr:state": "GA", "addr:street_address": "133 YORK DR SW", "amenity": "post_box", "collection_times": "Mo-Fr 15:00; Sa 11:00", "note": "ON 12/24 AND 12/31, THIS BOX MAY BE COLLECTED AS EARLY AS 12 NOON.", "nsi_id": "unitedstatespostalservice-a77078", "operator": "United States Postal Service", "operator:short": "USPS", "operator:type": "public", "operator:wikidata": "Q668687", "ref": "3073300001"}, "type": "Feature"}
{"geometry": {"coordinates": [-85.03789, 34.404316], "type": "Point"}, "id": "rmkVZq36Uc40o8hOEr5s_dmOqr0=", "properties": {"@source_uri": "https://tools.usps.com/UspsToolsRestServices/rest/POLocator/findLocations", "@spider": "usps_collection_boxes", "addr:city": "PLAINVILLE", "addr:country": "US", "addr:postcode": "30733", "addr:state": "GA", "addr:street_address": "133 YORK DR SW", "amenity": "post_box", "collection_times": "Mo-Fr 15:00; Sa 11:00", "indoor": "yes", "note": "ON 12/24 AND 12/31, THIS BOX MAY BE COLLECTED AS EARLY AS 12 NOON.", "nsi_id": "unitedstatespostalservice-a77078", "operator": "United States Postal Service", "operator:short": "USPS", "operator:type": "public", "operator:wikidata": "Q668687", "ref": "3073300002"}, "type": "Feature"}
{"geometry": {"coordinates": [-85.038859586, 34.402992422], "type": "Point"}, "id": "bBSGXIRCRasV-bdp3SL7C3Ogc04=", "properties": {"@source_uri": "https://tools.usps.com/UspsToolsRestServices/rest/POLocator/findLocations", "@spider": "usps_collection_boxes", "addr:city": "PLAINVILLE", "addr:country": "US", "addr:postcode": "30733", "addr:state": "GA", "addr:street_address": "133 YORK DR SW", "amenity": "post_box", "collection_times": "Mo-Fr 15:00; Sa 11:00", "indoor": "yes", "note": "ON 12/24 AND 12/31, THIS BOX MAY BE COLLECTED AS EARLY AS 12 NOON.", "nsi_id": "unitedstatespostalservice-a77078", "operator": "United States Postal Service", "operator:short": "USPS", "operator:type": "public", "operator:wikidata": "Q668687", "ref": "3073300003"}, "type": "Feature"}
{"geometry": {"coordinates": [-84.709741, 34.500535], "type": "Point"}, "id": "0PCtE0tTjGnjVTk5lY3V-0XYbNg=", "properties": {"@source_uri": "https://tools.usps.com/UspsToolsRestServices/rest/POLocator/findLocations", "@spider": "usps_collection_boxes", "addr:city": "RANGER", "addr:country": "US", "addr:postcode": "30734", "addr:state": "GA", "addr:street_address": "121 US 411 HWY SE", "amenity": "post_box", "collection_times": "Mo-Sa 11:30", "indoor": "yes", "nsi_id": "unitedstatespostalservice-a77078", "operator": "United States Postal Service", "operator:short": "USPS", "operator:type": "public", "operator:wikidata": "Q668687", "ref": "3073400001"}, "type": "Feature"}
{"geometry": {"coordinates": [-84.709755, 34.500658], "type": "Point"}, "id": "voWlGsxt0JjxRH_Y3reMjO8phLw=", "properties": {"@source_uri": "https://tools.usps.com/UspsToolsRestServices/rest/POLocator/findLocations", "@spider": "usps_collection_boxes", "addr:city": "RANGER", "addr:country": "US", "addr:postcode": "30734", "addr:state": "GA", "addr:street_address": "121 US 411 HWY SE", "amenity": "post_box", "collection_times": "Mo-Sa 11:30", "nsi_id": "unitedstatespostalservice-a77078", "operator": "United States Postal Service", "operator:short": "USPS", "operator:type": "public", "operator:wikidata": "Q668687", "ref": "3073400002"}, "type": "Feature"}
{"geometry": {"coordinates": [-84.709754179, 34.500653434], "type": "Point"}, "id": "1tt_n-9Vkml5lkkgjqOYs8O-KgY=", "properties": {"@source_uri": "https://tools.usps.com/UspsToolsRestServices/rest/POLocator/findLocations", "@spider": "usps_collection_boxes", "addr:city": "RANGER", "addr:country": "US", "addr:postcode": "30734", "addr:state": "GA", "addr:street_address": "121 US 411 HWY SE", "amenity": "post_box", "collection_times": "Mo-Fr 11:30", "indoor": "yes", "nsi_id": "unitedstatespostalservice-a77078", "operator": "United States Postal Service", "operator:short": "USPS", "operator:type": "public", "operator:wikidata": "Q668687", "ref": "3073400007"}, "type": "Feature"}
{"geometry": {"coordinates": [-84.943693, 34.580691], "type": "Point"}, "id": "WqiGJwRLAV38Azh0puTku12kh3k=", "properties": {"@source_uri": "https://tools.usps.com/UspsToolsRestServices/rest/POLocator/findLocations", "@spider": "usps_collection_boxes", "addr:city": "RESACA", "addr:country": "US", "addr:postcode": "30735", "addr:state": "GA", "addr:street_address": "3073 BATTLEFIELD PKWY NE", "amenity": "post_box", "collection_times": "Mo-Fr 15:00; Sa 12:00", "note": "ON 12/24 AND 12/31, THIS BOX MAY BE COLLECTED AS EARLY AS 12 NOON.", "nsi_id": "unitedstatespostalservice-a77078", "operator": "United States Postal Service", "operator:short": "USPS", "operator:type": "public", "operator:wikidata": "Q668687", "ref": "3073500001"}, "type": "Feature"}
{"geometry": {"coordinates": [-84.9474594, 34.576606], "type": "Point"}, "id": "wT65Rgc0u8X9Bfeqt3DxmKJ9lRI=", "properties": {"@source_uri": "https://tools.usps.com/UspsToolsRestServices/rest/POLocator/findLocations", "@spider": "usps_collection_boxes", "addr:city": "RESACA", "addr:country": "US", "addr:postcode": "30735", "addr:state": "GA", "addr:street_address": "288 RESACA BEACH BLVD NW", "amenity": "post_box", "collection_times": "Mo-Sa 11:45", "nsi_id": "unitedstatespostalservice-a77078", "operator": "United States Postal Service", "operator:short": "USPS", "operator:type": "public", "operator:wikidata": "Q668687", "ref": "3073500002"}, "type": "Feature"}
{"geometry": {"coordinates": [-84.943669, 34.58061], "type": "Point"}, "id": "LFMXO34Im9uvlTiPOSAQi3T0new=", "properties": {"@source_uri": "https://tools.usps.com/UspsToolsRestServices/rest/POLocator/findLocations", "@spider": "usps_collection_boxes", "addr:city": "RESACA", "addr:country": "US", "addr:postcode": "30735", "addr:state": "GA", "addr:street_address": "3073 BATTLEFIELD PKWY NE", "amenity": "post_box", "collection_times": "Mo-Fr 15:00; Sa 12:00", "indoor": "yes", "note": "ON 12/24 AND 12/31, THIS BOX MAY BE COLLECTED AS EARLY AS 12 NOON.", "nsi_id": "unitedstatespostalservice-a77078", "operator": "United States Postal Service", "operator:short": "USPS", "operator:type": "public", "operator:wikidata": "Q668687", "ref": "3073500007"}, "type": "Feature"}
{"geometry": {"coordinates": [-84.943846159, 34.58087783], "type": "Point"}, "id": "1SOHooBiT3dA973qg2Jy4ilk3XU=", "properties": {"@source_uri": "https://tools.usps.com/UspsToolsRestServices/rest/POLocator/findLocations", "@spider": "usps_collection_boxes", "addr:city": "RESACA", "addr:country": "US", "addr:postcode": "30735", "addr:state": "GA", "addr:street_address": "3073 BATTLEFIELD PKWY NE", "amenity": "post_box", "collection_times": "Mo-Fr 15:00; Sa 12:00", "indoor": "yes", "note": "ON 12/24 AND 12/31, THIS BOX MAY BE COLLECTED AS EARLY AS 12 NOON.", "nsi_id": "unitedstatespostalservice-a77078", "operator": "United States Postal Service", "operator:short": "USPS", "operator:type": "public", "operator:wikidata": "Q668687", "ref": "3073500008"}, "type": "Feature"}
{"geometry": {"coordinates": [-85.111241, 34.915177], "type": "Point"}, "id": "LJGhB9AzimazPBNZHcpvrh_-0C0=", "properties": {"@source_uri": "https://tools.usps.com/UspsToolsRestServices/rest/POLocator/findLocations", "@spider": "usps_collection_boxes", "addr:city": "RINGGOLD", "addr:country": "US", "addr:postcode": "30736", "addr:state": "GA", "addr:street_address": "862 LAFAYETTE ST", "amenity": "post_box", "collection_times": "Mo-Fr 17:00; Sa 12:00", "note": "ON 12/24 AND 12/31, THIS BOX MAY BE COLLECTED AS EARLY AS 12 NOON.", "nsi_id": "unitedstatespostalservice-a77078", "operator": "United States Postal Service", "operator:short": "USPS", "operator:type": "public", "operator:wikidata": "Q668687", "ref": "3073600001"}, "type": "Feature"}
{"geometry": {"coordinates": [-85.111204, 34.915208], "type": "Point"}, "id": "qsN1oTFVAumoGT6UTJ1exoLV7B0=", "properties": {"@source_uri": "https://tools.usps.com/UspsToolsRestServices/rest/POLocator/findLocations", "@spider": "usps_collection_boxes", "addr:city": "RINGGOLD", "addr:country": "US", "addr:postcode": "30736", "addr:state": "GA", "addr:street_address": "862 LAFAYETTE ST", "amenity": "post_box", "collection_times": "Mo-Fr 17:00; Sa 12:00", "note": "ON 12/24 AND 12/31, THIS BOX MAY BE COLLECTED AS EARLY AS 12 NOON.", "nsi_id": "unitedstatespostalservice-a77078", "operator": "United States Postal Service", "operator:short": "USPS", "operator:type": "public", "operator:wikidata": "Q668687", "ref": "3073600002"}, "type": "Feature"}
{"geometry": {"coordinates": [-85.111204, 34.915208], "type": "Point"}, "id": "heNKy3WtawcUnOeSGviA2BA7N3w=", "properties": {"@source_uri": "https://tools.usps.com/UspsToolsRestServices/rest/POLocator/findLocations", "@spider": "usps_collection_boxes", "addr:city": "RINGGOLD", "addr:country": "US", "addr:postcode": "30736", "addr:state": "GA", "addr:street_address": "862 LAFAYETTE ST", "amenity": "post_box", "collection_times": "Mo-Fr 17:00; Sa 12:00", "indoor": "yes", "note": "ON 12/24 AND 12/31, THIS BOX MAY BE COLLECTED AS EARLY AS 12 NOON.", "nsi_id": "unitedstatespostalservice-a77078", "operator": "United States Postal Service", "operator:short": "USPS", "operator:type": "public", "operator:wikidata": "Q668687", "ref": "3073600003"}, "type": "Feature"}
{"geometry": {"coordinates": [-85.111204, 34.915208], "type": "Point"}, "id": "9ECGw2bH2M6xG_7skVyMtDroX5o=", "properties": {"@source_uri": "https://tools.usps.com/UspsToolsRestServices/rest/POLocator/findLocations", "@spider": "usps_collection_boxes", "addr:city": "RINGGOLD", "addr:country": "US", "addr:postcode": "30736", "addr:state": "GA", "addr:street_address": "862 LAFAYETTE ST", "amenity": "post_box", "collection_times": "Mo-Fr 17:00; Sa 12:00", "indoor": "yes", "note": "ON 12/24 AND 12/31, THIS BOX MAY BE COLLECTED AS EARLY AS 12 NOON.", "nsi_id": "unitedstatespostalservice-a77078", "operator": "United States Postal Service", "operator:short": "USPS", "operator:type": "public", "operator:wikidata": "Q668687", "ref": "3073600004"}, "type": "Feature"}
{"geometry": {"coordinates": [-85.111508442, 34.915155561], "type": "Point"}, "id": "aTsGcKcROpATKOVOb8GfQ_X_vjw=", "properties": {"@source_uri": "https://tools.usps.com/UspsToolsRestServices/rest/POLocator/findLocations", "@spider": "usps_collection_boxes", "addr:city": "RINGGOLD", "addr:country": "US", "addr:postcode": "30736", "addr:state": "GA", "addr:street_address": "862 LAFAYETTE ST", "amenity": "post_box", "collection_times": "Mo-Fr 17:00; Sa 12:00", "indoor": "yes", "note": "ON 12/24 AND 12/31, THIS BOX MAY BE COLLECTED AS EARLY AS 12 NOON.", "nsi_id": "unitedstatespostalservice-a77078", "operator": "United States Postal Service", "operator:short": "USPS", "operator:type": "public", "operator:wikidata": "Q668687", "ref": "3073600008"}, "type": "Feature"}
{"geometry": {"coordinates": [-85.530272, 34.760337], "type": "Point"}, "id": "qFH3PyIJIdgXzFjr2sLPZqqBnEo=", "properties": {"@source_uri": "https://tools.usps.com/UspsToolsRestServices/rest/POLocator/findLocations", "@spider": "usps_collection_boxes", "addr:city": "RISING FAWN", "addr:country": "US", "addr:postcode": "30738", "addr:state": "GA", "addr:street_address": "28 MASON RD", "amenity": "post_box", "collection_times": "Mo-Fr 11:45; Sa 11:30", "nsi_id": "unitedstatespostalservice-a77078", "operator": "United States Postal Service", "operator:short": "USPS", "operator:type": "public", "operator:wikidata": "Q668687", "ref": "3073800001"}, "type": "Feature"}
{"geometry": {"coordinates": [-85.530265, 34.760386], "type": "Point"}, "id": "bG_a3TOY_IxtZWeehHMntrwLJRM=", "properties": {"@source_uri": "https://tools.usps.com/UspsToolsRestServices/rest/POLocator/findLocations", "@spider": "usps_collection_boxes", "addr:city": "RISING FAWN", "addr:country": "US", "addr:postcode": "30738", "addr:state": "GA", "addr:street_address": "28 MASON RD", "amenity": "post_box", "collection_times": "Mo-Fr 11:45; Sa 11:30", "indoor": "yes", "nsi_id": "unitedstatespostalservice-a77078", "operator": "United States Postal Service", "operator:short": "USPS", "operator:type": "public", "operator:wikidata": "Q668687", "ref": "3073800004"}, "type": "Feature"}
{"geometry": {"coordinates": [-85.530265, 34.760386], "type": "Point"}, "id": "qYiimUxhTZX83URYSWi9TBZCyw8=", "properties": {"@source_uri": "https://tools.usps.com/UspsToolsRestServices/rest/POLocator/findLocations", "@spider": "usps_collection_boxes", "addr:city": "RISING FAWN", "addr:country": "US", "addr:postcode": "30738", "addr:state": "GA", "addr:street_address": "28 MASON RD", "amenity": "post_box", "collection_times": "Mo-Fr 11:45; Sa 11:30", "indoor": "yes", "nsi_id": "unitedstatespostalservice-a77078", "operator": "United States Postal Service", "operator:short": "USPS", "operator:type": "public", "operator:wikidata": "Q668687", "ref": "3073800005"}, "type": "Feature"}
{"geometry": {"coordinates": [-85.530063471, 34.759899224], "type": "Point"}, "id": "OVXpLO5Wzs6FSnqLeFAM92xk4lo=", "properties": {"@source_uri": "https://tools.usps.com/UspsToolsRestServices/rest/POLocator/findLocations", "@spider": "usps_collection_boxes", "addr:city": "RISING FAWN", "addr:country": "US", "addr:postcode": "30738", "addr:state": "GA", "addr:street_address": "28 MASON RD", "amenity": "post_box", "collection_times": "Mo-Fr 11:45", "indoor": "yes", "nsi_id": "unitedstatespostalservice-a77078", "operator": "United States Postal Service", "operator:short": "USPS", "operator:type": "public", "operator:wikidata": "Q668687", "ref": "3073800006"}, "type": "Feature"}
{"geometry": {"coordinates": [-85.241237, 34.820554], "type": "Point"}, "id": "gUx8AB4-36m70S6K5j6HlZBsLG4=", "properties": {"@source_uri": "https://tools.usps.com/UspsToolsRestServices/rest/POLocator/findLocations", "@spider": "usps_collection_boxes", "addr:city": "ROCK SPRING", "addr:country": "US", "addr:postcode": "30739", "addr:state": "GA", "addr:street_address": "36 ROCK SPRING DR", "amenity": "post_box", "collection_times": "Mo-Sa 12:00", "indoor": "yes", "nsi_id": "unitedstatespostalservice-a77078", "operator": "United States Postal Service", "operator:short": "USPS", "operator:type": "public", "operator:wikidata": "Q668687", "ref": "3073900000"}, "type": "Feature"}
{"geometry": {"coordinates": [-85.241232, 34.820517], "type": "Point"}, "id": "maPQtxuF0VZkhxKH1g3vP1qB3po=", "properties": {"@source_uri": "https://tools.usps.com/UspsToolsRestServices/rest/POLocator/findLocations", "@spider": "usps_collection_boxes", "addr:city": "ROCK SPRING", "addr:country": "US", "addr:postcode": "30739", "addr:state": "GA", "addr:street_address": "36 ROCK SPRING DR", "amenity": "post_box", "collection_times": "Mo-Sa 12:00", "nsi_id": "unitedstatespostalservice-a77078", "operator": "United States Postal Service", "operator:short": "USPS", "operator:type": "public", "operator:wikidata": "Q668687", "ref": "3073900001"}, "type": "Feature"}
{"geometry": {"coordinates": [-85.241219594, 34.820577297], "type": "Point"}, "id": "oVGkGk_lVduUoiCEXXT-kJ4gmkU=", "properties": {"@source_uri": "https://tools.usps.com/UspsToolsRestServices/rest/POLocator/findLocations", "@spider": "usps_collection_boxes", "addr:city": "ROCK SPRING", "addr:country": "US", "addr:postcode": "30739", "addr:state": "GA", "addr:street_address": "36 ROCK SPRING DR", "amenity": "post_box", "collection_times": "Mo-Fr 12:00", "indoor": "yes", "nsi_id": "unitedstatespostalservice-a77078", "operator": "United States Postal Service", "operator:short": "USPS", "operator:type": "public", "operator:wikidata": "Q668687", "ref": "3073900002"}, "type": "Feature"}
{"geometry": {"coordinates": [-85.025091, 34.804061], "type": "Point"}, "id": "eoLSBR2qZoNOFYYiQZswYwogcf4=", "properties": {"@source_uri": "https://tools.usps.com/UspsToolsRestServices/rest/POLocator/findLocations", "@spider": "usps_collection_boxes", "addr:city": "ROCKY FACE", "addr:country": "US", "addr:postcode": "30740", "addr:state": "GA", "addr:street_address": "2609 CHATTANOOGA RD", "amenity": "post_box", "collection_times": "Mo-Sa 12:00", "indoor": "yes", "nsi_id": "unitedstatespostalservice-a77078", "operator": "United States Postal Service", "operator:short": "USPS", "operator:type": "public", "operator:wikidata": "Q668687", "ref": "3074000001"}, "type": "Feature"}
{"geometry": {"coordinates": [-85.024977, 34.804062], "type": "Point"}, "id": "BQxQyC3VBob_kdse6zDvsvZ32Z8=", "properties": {"@source_uri": "https://tools.usps.com/UspsToolsRestServices/rest/POLocator/findLocations", "@spider": "usps_collection_boxes", "addr:city": "ROCKY FACE", "addr:country": "US", "addr:postcode": "30740", "addr:state": "GA", "addr:street_address": "2609 CHATTANOOGA RD", "amenity": "post_box", "collection_times": "Mo-Sa 12:00", "indoor": "yes", "nsi_id": "unitedstatespostalservice-a77078", "operator": "United States Postal Service", "operator:short": "USPS", "operator:type": "public", "operator:wikidata": "Q668687", "ref": "3074000002"}, "type": "Feature"}
{"geometry": {"coordinates": [-85.0250632045, 34.8040114247], "type": "Point"}, "id": "Hw07fDpvKkhOQUgBlxnD8RwYpsk=", "properties": {"@source_uri": "https://tools.usps.com/UspsToolsRestServices/rest/POLocator/findLocations", "@spider": "usps_collection_boxes", "addr:city": "ROCKY FACE", "addr:country": "US", "addr:postcode": "30740", "addr:state": "GA", "addr:street_address": "2609 CHATTANOOGA RD", "amenity": "post_box", "collection_times": "Mo-Sa 12:00", "nsi_id": "unitedstatespostalservice-a77078", "operator": "United States Postal Service", "operator:short": "USPS", "operator:type": "public", "operator:wikidata": "Q668687", "ref": "3074000003"}, "type": "Feature"}
{"geometry": {"coordinates": [-85.025063051, 34.804002518], "type": "Point"}, "id": "6nKBrocEZJX_kvmzz1AY7b8nJnw=", "properties": {"@source_uri": "https://tools.usps.com/UspsToolsRestServices/rest/POLocator/findLocations", "@spider": "usps_collection_boxes", "addr:city": "ROCKY FACE", "addr:country": "US", "addr:postcode": "30740", "addr:state": "GA", "addr:street_address": "2609 CHATTANOOGA RD", "amenity": "post_box", "collection_times": "Mo-Fr 12:00", "indoor": "yes", "nsi_id": "unitedstatespostalservice-a77078", "operator": "United States Postal Service", "operator:short": "USPS", "operator:type": "public", "operator:wikidata": "Q668687", "ref": "3074000005"}, "type": "Feature"}
{"geometry": {"coordinates": [-85.286601, 34.982506], "type": "Point"}, "id": "sQ4I-g7NvU277kpwY7JyIqr4U54=", "properties": {"@source_uri": "https://tools.usps.com/UspsToolsRestServices/rest/POLocator/findLocations", "@spider": "usps_collection_boxes", "addr:city": "ROSSVILLE", "addr:country": "US", "addr:postcode": "30741", "addr:state": "GA", "addr:street_address": "301 CHICKAMAUGA AVE", "amenity": "post_box", "collection_times": "Mo-Fr 17:00; Sa 15:45", "note": "ON 12/24 AND 12/31, THIS BOX MAY BE COLLECTED AS EARLY AS 12 NOON.", "nsi_id": "unitedstatespostalservice-a77078", "operator": "United States Postal Service", "operator:short": "USPS", "operator:type": "public", "operator:wikidata": "Q668687", "ref": "3074100002"}, "type": "Feature"}
{"geometry": {"coordinates": [-85.2863908, 34.9832], "type": "Point"}, "id": "eYCwgoAQ_wXgtD28QbDyCTmqWDs=", "properties": {"@source_uri": "https://tools.usps.com/UspsToolsRestServices/rest/POLocator/findLocations", "@spider": "usps_collection_boxes", "addr:city": "ROSSVILLE", "addr:country": "US", "addr:postcode": "30741", "addr:state": "GA", "addr:street_address": "301 CHICKAMAUGA AVE", "amenity": "post_box", "collection_times": "Mo-Fr 17:00; Sa 15:45", "indoor": "yes", "note": "ON 12/24 AND 12/31, THIS BOX MAY BE COLLECTED AS EARLY AS 12 NOON.", "nsi_id": "unitedstatespostalservice-a77078", "operator": "United States Postal Service", "operator:short": "USPS", "operator:type": "public", "operator:wikidata": "Q668687", "ref": "3074100019"}, "type": "Feature"}
{"geometry": {"coordinates": [-85.2863438, 34.98312], "type": "Point"}, "id": "uW8qUBhpMqToIjAGQo7U9NZ4_7k=", "properties": {"@source_uri": "https://tools.usps.com/UspsToolsRestServices/rest/POLocator/findLocations", "@spider": "usps_collection_boxes", "addr:city": "ROSSVILLE", "addr:country": "US", "addr:postcode": "30741", "addr:state": "GA", "addr:street_address": "301 CHICKAMAUGA AVE", "amenity": "post_box", "collection_times": "Mo-Fr 17:00; Sa 15:45", "indoor": "yes", "note": "ON 12/24 AND 12/31, THIS BOX MAY BE COLLECTED AS EARLY AS 12 NOON.", "nsi_id": "unitedstatespostalservice-a77078", "operator": "United States Postal Service", "operator:short": "USPS", "operator:type": "public", "operator:wikidata": "Q668687", "ref": "3074100020"}, "type": "Feature"}
{"geometry": {"coordinates": [-85.286190656, 34.983371443], "type": "Point"}, "id": "R8FAMOxr568O-avY4XvqCc1P9dE=", "properties": {"@source_uri": "https://tools.usps.com/UspsToolsRestServices/rest/POLocator/findLocations", "@spider": "usps_collection_boxes", "addr:city": "ROSSVILLE", "addr:country": "US", "addr:postcode": "30741", "addr:state": "GA", "addr:street_address": "301 CHICKAMAUGA AVE", "amenity": "post_box", "collection_times": "Mo-Fr 17:00", "indoor": "yes", "note": "ON 12/24 AND 12/31, THIS BOX MAY BE COLLECTED AS EARLY AS 12 NOON.", "nsi_id": "unitedstatespostalservice-a77078", "operator": "United States Postal Service", "operator:short": "USPS", "operator:type": "public", "operator:wikidata": "Q668687", "ref": "3074100023"}, "type": "Feature"}
{"geometry": {"coordinates": [-85.2594953, 34.963058], "type": "Point"}, "id": "9hrdLLQUEdcxGDcdsroxfDlqh9k=", "properties": {"@source_uri": "https://tools.usps.com/UspsToolsRestServices/rest/POLocator/findLocations", "@spider": "usps_collection_boxes", "addr:city": "FT OGLETHORPE", "addr:country": "US", "addr:postcode": "30742", "addr:state": "GA", "addr:street_address": "1800 LAFAYETTE RD", "amenity": "post_box", "collection_times": "Mo-Sa 12:00", "nsi_id": "unitedstatespostalservice-a77078", "operator": "United States Postal Service", "operator:short": "USPS", "operator:type": "public", "operator:wikidata": "Q668687", "ref": "3074200001"}, "type": "Feature"}
{"geometry": {"coordinates": [-85.2531659, 34.954358], "type": "Point"}, "id": "wG4bZpkUZM1UUHNBHkmxvsMeQoQ=", "properties": {"@source_uri": "https://tools.usps.com/UspsToolsRestServices/rest/POLocator/findLocations", "@spider": "usps_collection_boxes", "addr:city": "FT OGLETHORPE", "addr:country": "US", "addr:postcode": "30742", "addr:state": "GA", "addr:street_address": "663 BATTLEFIELD PKWY", "amenity": "post_box", "collection_times": "Mo-Fr 11:30; Sa 10:45", "nsi_id": "unitedstatespostalservice-a77078", "operator": "United States Postal Service", "operator:short": "USPS", "operator:type": "public", "operator:wikidata": "Q668687", "ref": "3074200003"}, "type": "Feature"}
{"geometry": {"coordinates": [-85.25569, 34.95471], "type": "Point"}, "id": "5ONtV1lJ8kbLwG6Us4-2g1b924c=", "properties": {"@source_uri": "https://tools.usps.com/UspsToolsRestServices/rest/POLocator/findLocations", "@spider": "usps_collection_boxes", "addr:city": "FT OGLETHORPE", "addr:country": "US", "addr:postcode": "30742", "addr:state": "GA", "addr:street_address": "155 FORREST RD", "amenity": "post_box", "collection_times": "Mo-Fr 16:15; Sa 15:15", "note": "ON 12/24 AND 12/31, THIS BOX MAY BE COLLECTED AS EARLY AS 12 NOON.", "nsi_id": "unitedstatespostalservice-a77078", "operator": "United States Postal Service", "operator:short": "USPS", "operator:type": "public", "operator:wikidata": "Q668687", "ref": "3074200008"}, "type": "Feature"}
{"geometry": {"coordinates": [-85.264011009, 34.945617986], "type": "Point"}, "id": "nO0Ao_bOOplYC5LkoIdiCIwa9gE=", "properties": {"@source_uri": "https://tools.usps.com/UspsToolsRestServices/rest/POLocator/findLocations", "@spider": "usps_collection_boxes", "addr:city": "FT OGLETHORPE", "addr:country": "US", "addr:postcode": "30742", "addr:state": "GA", "addr:street_address": "100 GROSS CRESCENT CIR", "amenity": "post_box", "collection_times": "Mo-Sa 09:00", "nsi_id": "unitedstatespostalservice-a77078", "operator": "United States Postal Service", "operator:short": "USPS", "operator:type": "public", "operator:wikidata": "Q668687", "ref": "3074200015"}, "type": "Feature"}
{"geometry": {"coordinates": [-85.2142554, 34.937885], "type": "Point"}, "id": "zH6OfV_hfnrUlZP6HRB23KGGmBo=", "properties": {"@source_uri": "https://tools.usps.com/UspsToolsRestServices/rest/POLocator/findLocations", "@spider": "usps_collection_boxes", "addr:city": "FT OGLETHORPE", "addr:country": "US", "addr:postcode": "30742", "addr:state": "GA", "addr:street_address": "3040 BATTLEFIELD PKWY", "amenity": "post_box", "collection_times": "Mo-Fr 10:30; Sa 10:00", "nsi_id": "unitedstatespostalservice-a77078", "operator": "United States Postal Service", "operator:short": "USPS", "operator:type": "public", "operator:wikidata": "Q668687", "ref": "3074200017"}, "type": "Feature"}
{"geometry": {"coordinates": [-85.256213, 34.948616], "type": "Point"}, "id": "XfAJnLVsXG0SNQvOB6Z3TzP-cuU=", "properties": {"@source_uri": "https://tools.usps.com/UspsToolsRestServices/rest/POLocator/findLocations", "@spider": "usps_collection_boxes", "addr:city": "FT OGLETHORPE", "addr:country": "US", "addr:postcode": "30742", "addr:state": "GA", "addr:street_address": "155 FORREST RD", "amenity": "post_box", "collection_times": "Mo-Fr 16:45; Sa 15:15", "indoor": "yes", "note": "ON 12/24 AND 12/31, THIS BOX MAY BE COLLECTED AS EARLY AS 12 NOON.", "nsi_id": "unitedstatespostalservice-a77078", "operator": "United States Postal Service", "operator:short": "USPS", "operator:type": "public", "operator:wikidata": "Q668687", "ref": "3074200020"}, "type": "Feature"}
{"geometry": {"coordinates": [-85.256221356, 34.948675849], "type": "Point"}, "id": "kso2mKbujifRv99MLtRx33iDYzU=", "properties": {"@source_uri": "https://tools.usps.com/UspsToolsRestServices/rest/POLocator/findLocations", "@spider": "usps_collection_boxes", "addr:city": "FT OGLETHORPE", "addr:country": "US", "addr:postcode": "30742", "addr:state": "GA", "addr:street_address": "155 FORREST RD", "amenity": "post_box", "collection_times": "Mo-Fr 16:30", "indoor": "yes", "note": "ON 12/24 AND 12/31, THIS BOX MAY BE COLLECTED AS EARLY AS 12 NOON.", "nsi_id": "unitedstatespostalservice-a77078", "operator": "United States Postal Service", "operator:short": "USPS", "operator:type": "public", "operator:wikidata": "Q668687", "ref": "3074200025"}, "type": "Feature"}
{"geometry": {"coordinates": [-85.012542, 34.55802], "type": "Point"}, "id": "jk7j3FzO3BFfgveZA6Jelcs9ioI=", "properties": {"@source_uri": "https://tools.usps.com/UspsToolsRestServices/rest/POLocator/findLocations", "@spider": "usps_collection_boxes", "addr:city": "SUGAR VALLEY", "addr:country": "US", "addr:postcode": "30746", "addr:state": "GA", "addr:street_address": "155 MAIN ST NW", "amenity": "post_box", "collection_times": "Mo-Fr 12:00; Sa 11:45", "nsi_id": "unitedstatespostalservice-a77078", "operator": "United States Postal Service", "operator:short": "USPS", "operator:type": "public", "operator:wikidata": "Q668687", "ref": "3074600001"}, "type": "Feature"}
{"geometry": {"coordinates": [-85.012442, 34.557993], "type": "Point"}, "id": "C0rJuZeT7KqEFFzybV-FgpspGKo=", "properties": {"@source_uri": "https://tools.usps.com/UspsToolsRestServices/rest/POLocator/findLocations", "@spider": "usps_collection_boxes", "addr:city": "SUGAR VALLEY", "addr:country": "US", "addr:postcode": "30746", "addr:state": "GA", "addr:street_address": "155 MAIN ST NW", "amenity": "post_box", "collection_times": "Mo-Fr 12:00; Sa 11:45", "indoor": "yes", "nsi_id": "unitedstatespostalservice-a77078", "operator": "United States Postal Service", "operator:short": "USPS", "operator:type": "public", "operator:wikidata": "Q668687", "ref": "3074600002"}, "type": "Feature"}
{"geometry": {"coordinates": [-85.012442, 34.557993], "type": "Point"}, "id": "8d2ubI3zIQNLCFQ8tbUVX15hTzA=", "properties": {"@source_uri": "https://tools.usps.com/UspsToolsRestServices/rest/POLocator/findLocations", "@spider": "usps_collection_boxes", "addr:city": "SUGAR VALLEY", "addr:country": "US", "addr:postcode": "30746", "addr:state": "GA", "addr:street_address": "155 MAIN ST NW", "amenity": "post_box", "collection_times": "Sa 11:45", "indoor": "yes", "nsi_id": "unitedstatespostalservice-a77078", "operator": "United States Postal Service", "operator:short": "USPS", "operator:type": "public", "operator:wikidata": "Q668687", "ref": "3074600003"}, "type": "Feature"}
{"geometry": {"coordinates": [-85.013244, 34.558014457], "type": "Point"}, "id": "iUBySyldUial49Uizw4kSW7kpTc=", "properties": {"@source_uri": "https://tools.usps.com/UspsToolsRestServices/rest/POLocator/findLocations", "@spider": "usps_collection_boxes", "addr:city": "SUGAR VALLEY", "addr:country": "US", "addr:postcode": "30746", "addr:state": "GA", "addr:street_address": "155 MAIN ST NW", "amenity": "post_box", "collection_times": "Mo-Fr 12:00", "indoor": "yes", "nsi_id": "unitedstatespostalservice-a77078", "operator": "United States Postal Service", "operator:short": "USPS", "operator:type": "public", "operator:wikidata": "Q668687", "ref": "3074600004"}, "type": "Feature"}
{"geometry": {"coordinates": [-85.348939, 34.479], "type": "Point"}, "id": "0KBNFDaXhMm2hNy94Xf1G007PJY=", "properties": {"@source_uri": "https://tools.usps.com/UspsToolsRestServices/rest/POLocator/findLocations", "@spider": "usps_collection_boxes", "addr:city": "SUMMERVILLE", "addr:country": "US", "addr:postcode": "30747", "addr:state": "GA", "addr:street_address": "9922 COMMERCE ST", "amenity": "post_box", "collection_times": "Mo-Fr 14:15; Sa 12:30", "indoor": "yes", "note": "ON 12/24 AND 12/31, THIS BOX MAY BE COLLECTED AS EARLY AS 12 NOON.", "nsi_id": "unitedstatespostalservice-a77078", "operator": "United States Postal Service", "operator:short": "USPS", "operator:type": "public", "operator:wikidata": "Q668687", "ref": "3074700008"}, "type": "Feature"}
{"geometry": {"coordinates": [-85.348961, 34.479022], "type": "Point"}, "id": "WCvY-1IYYb8aLdGIrqIXgbQLqxo=", "properties": {"@source_uri": "https://tools.usps.com/UspsToolsRestServices/rest/POLocator/findLocations", "@spider": "usps_collection_boxes", "addr:city": "SUMMERVILLE", "addr:country": "US", "addr:postcode": "30747", "addr:state": "GA", "addr:street_address": "9922 COMMERCE ST", "amenity": "post_box", "collection_times": "Mo-Fr 14:15; Sa 12:30", "note": "ON 12/24 AND 12/31, THIS BOX MAY BE COLLECTED AS EARLY AS 12 NOON.", "nsi_id": "unitedstatespostalservice-a77078", "operator": "United States Postal Service", "operator:short": "USPS", "operator:type": "public", "operator:wikidata": "Q668687", "ref": "3074700009"}, "type": "Feature"}
{"geometry": {"coordinates": [-85.348961, 34.479022], "type": "Point"}, "id": "oQAdSjohRtVVFRO59SA_lL50N9Y=", "properties": {"@source_uri": "https://tools.usps.com/UspsToolsRestServices/rest/POLocator/findLocations", "@spider": "usps_collection_boxes", "addr:city": "SUMMERVILLE", "addr:country": "US", "addr:postcode": "30747", "addr:state": "GA", "addr:street_address": "9922 COMMERCE ST", "amenity": "post_box", "collection_times": "Mo-Fr 14:15; Sa 12:30", "note": "ON 12/24 AND 12/31, THIS BOX MAY BE COLLECTED AS EARLY AS 12 NOON.", "nsi_id": "unitedstatespostalservice-a77078", "operator": "United States Postal Service", "operator:short": "USPS", "operator:type": "public", "operator:wikidata": "Q668687", "ref": "3074700010"}, "type": "Feature"}
{"geometry": {"coordinates": [-84.739858, 34.985504], "type": "Point"}, "id": "k023hozKygal3jjIOL2JlplLKzM=", "properties": {"@source_uri": "https://tools.usps.com/UspsToolsRestServices/rest/POLocator/findLocations", "@spider": "usps_collection_boxes", "addr:city": "TENNGA", "addr:country": "US", "addr:postcode": "30751", "addr:state": "GA", "addr:street_address": "57 TENNGA GREGORY RD", "amenity": "post_box", "collection_times": "Mo-Fr 15:30; Sa 11:00", "note": "ON 12/24 AND 12/31, THIS BOX MAY BE COLLECTED AS EARLY AS 12 NOON.", "nsi_id": "unitedstatespostalservice-a77078", "operator": "United States Postal Service", "operator:short": "USPS", "operator:type": "public", "operator:wikidata": "Q668687", "ref": "3075100001"}, "type": "Feature"}
{"geometry": {"coordinates": [-84.739858, 34.985504], "type": "Point"}, "id": "IFjTz_x8AIKegAAOu_SrWrSpS4g=", "properties": {"@source_uri": "https://tools.usps.com/UspsToolsRestServices/rest/POLocator/findLocations", "@spider": "usps_collection_boxes", "addr:city": "TENNGA", "addr:country": "US", "addr:postcode": "30751", "addr:state": "GA", "addr:street_address": "57 TENNGA GREGORY RD", "amenity": "post_box", "collection_times": "Mo-Fr 15:30; Sa 11:00", "indoor": "yes", "note": "ON 12/24 AND 12/31, THIS BOX MAY BE COLLECTED AS EARLY AS 12 NOON.", "nsi_id": "unitedstatespostalservice-a77078", "operator": "United States Postal Service", "operator:short": "USPS", "operator:type": "public", "operator:wikidata": "Q668687", "ref": "3075100002"}, "type": "Feature"}
{"geometry": {"coordinates": [-84.739149979, 34.985840016], "type": "Point"}, "id": "Mvyu4j_7usStO31wgajQHFEuAso=", "properties": {"@source_uri": "https://tools.usps.com/UspsToolsRestServices/rest/POLocator/findLocations", "@spider": "usps_collection_boxes", "addr:city": "TENNGA", "addr:country": "US", "addr:postcode": "30751", "addr:state": "GA", "addr:street_address": "57 TENNGA GREGORY RD", "amenity": "post_box", "collection_times": "Mo-Fr 15:30", "indoor": "yes", "note": "ON 12/24 AND 12/31, THIS BOX MAY BE COLLECTED AS EARLY AS 12 NOON.", "nsi_id": "unitedstatespostalservice-a77078", "operator": "United States Postal Service", "operator:short": "USPS", "operator:type": "public", "operator:wikidata": "Q668687", "ref": "3075100003"}, "type": "Feature"}
{"geometry": {"coordinates": [-84.7391535, 34.985632493], "type": "Point"}, "id": "DlRxSvsT_5u68fzR4ZUl4CAM-sw=", "properties": {"@source_uri": "https://tools.usps.com/UspsToolsRestServices/rest/POLocator/findLocations", "@spider": "usps_collection_boxes", "addr:city": "TENNGA", "addr:country": "US", "addr:postcode": "30751", "addr:state": "GA", "addr:street_address": "57 TENNGA GREGORY RD", "amenity": "post_box", "collection_times": "Mo-Fr 15:30", "indoor": "yes", "note": "ON 12/24 AND 12/31, THIS BOX MAY BE COLLECTED AS EARLY AS 12 NOON.", "nsi_id": "unitedstatespostalservice-a77078", "operator": "United States Postal Service", "operator:short": "USPS", "operator:type": "public", "operator:wikidata": "Q668687", "ref": "3075100004"}, "type": "Feature"}
{"geometry": {"coordinates": [-85.508155, 34.874171], "type": "Point"}, "id": "Fmya9ARiY3Y3_O5ASMGyXeUTjPc=", "properties": {"@source_uri": "https://tools.usps.com/UspsToolsRestServices/rest/POLocator/findLocations", "@spider": "usps_collection_boxes", "addr:city": "TRENTON", "addr:country": "US", "addr:postcode": "30752", "addr:state": "GA", "addr:street_address": "12441 N MAIN ST", "amenity": "post_box", "collection_times": "Mo-Sa 12:00", "nsi_id": "unitedstatespostalservice-a77078", "operator": "United States Postal Service", "operator:short": "USPS", "operator:type": "public", "operator:wikidata": "Q668687", "ref": "3075200001"}, "type": "Feature"}
{"geometry": {"coordinates": [-85.508151, 34.874111], "type": "Point"}, "id": "ZY61UnZ1i9viKmW6Rk-J7BL-xPY=", "properties": {"@source_uri": "https://tools.usps.com/UspsToolsRestServices/rest/POLocator/findLocations", "@spider": "usps_collection_boxes", "addr:city": "TRENTON", "addr:country": "US", "addr:postcode": "30752", "addr:state": "GA", "addr:street_address": "12441 N MAIN ST", "amenity": "post_box", "collection_times": "Mo-Sa 12:00", "indoor": "yes", "nsi_id": "unitedstatespostalservice-a77078", "operator": "United States Postal Service", "operator:short": "USPS", "operator:type": "public", "operator:wikidata": "Q668687", "ref": "3075200003"}, "type": "Feature"}
{"geometry": {"coordinates": [-85.508151, 34.874111], "type": "Point"}, "id": "u9V4rV1wNHamUZZkinpavh8SFDQ=", "properties": {"@source_uri": "https://tools.usps.com/UspsToolsRestServices/rest/POLocator/findLocations", "@spider": "usps_collection_boxes", "addr:city": "TRENTON", "addr:country": "US", "addr:postcode": "30752", "addr:state": "GA", "addr:street_address": "12441 N MAIN ST", "amenity": "post_box", "collection_times": "Mo-Sa 12:00", "indoor": "yes", "nsi_id": "unitedstatespostalservice-a77078", "operator": "United States Postal Service", "operator:short": "USPS", "operator:type": "public", "operator:wikidata": "Q668687", "ref": "3075200004"}, "type": "Feature"}
{"geometry": {"coordinates": [-85.508699535, 34.873249673], "type": "Point"}, "id": "hVgf9Z1GYjHcsN7XmnbhkGhvs1w=", "properties": {"@source_uri": "https://tools.usps.com/UspsToolsRestServices/rest/POLocator/findLocations", "@spider": "usps_collection_boxes", "addr:city": "TRENTON", "addr:country": "US", "addr:postcode": "30752", "addr:state": "GA", "addr:street_address": "12441 N MAIN ST", "amenity": "post_box", "collection_times": "Mo-Fr 12:00", "indoor": "yes", "nsi_id": "unitedstatespostalservice-a77078", "operator": "United States Postal Service", "operator:short": "USPS", "operator:type": "public", "operator:wikidata": "Q668687", "ref": "3075200006"}, "type": "Feature"}
{"geometry": {"coordinates": [-85.306919, 34.532177], "type": "Point"}, "id": "VMuGcfhWyCFOSm7wzZd1en6kRY0=", "properties": {"@source_uri": "https://tools.usps.com/UspsToolsRestServices/rest/POLocator/findLocations", "@spider": "usps_collection_boxes", "addr:city": "TRION", "addr:country": "US", "addr:postcode": "30753", "addr:state": "GA", "addr:street_address": "14366 HIGHWAY 27", "amenity": "post_box", "collection_times": "Mo-Fr 16:00; Sa 14:00", "note": "ON 12/24 AND 12/31, THIS BOX MAY BE COLLECTED AS EARLY AS 12 NOON.", "nsi_id": "unitedstatespostalservice-a77078", "operator": "United States Postal Service", "operator:short": "USPS", "operator:type": "public", "operator:wikidata": "Q668687", "ref": "3075300006"}, "type": "Feature"}
{"geometry": {"coordinates": [-85.306919, 34.532177], "type": "Point"}, "id": "asvmJfUUWQj8S7uDLOEyLjlGi0Y=", "properties": {"@source_uri": "https://tools.usps.com/UspsToolsRestServices/rest/POLocator/findLocations", "@spider": "usps_collection_boxes", "addr:city": "TRION", "addr:country": "US", "addr:postcode": "30753", "addr:state": "GA", "addr:street_address": "14366 HIGHWAY 27", "amenity": "post_box", "collection_times": "Mo-Fr 16:00; Sa 12:00", "indoor": "yes", "note": "ON 12/24 AND 12/31, THIS BOX MAY BE COLLECTED AS EARLY AS 12 NOON.", "nsi_id": "unitedstatespostalservice-a77078", "operator": "United States Postal Service", "operator:short": "USPS", "operator:type": "public", "operator:wikidata": "Q668687", "ref": "3075300007"}, "type": "Feature"}
{"geometry": {"coordinates": [-85.306919, 34.532177], "type": "Point"}, "id": "bAPqoiZ1jGPomXt4UnPOx7VKiIU=", "properties": {"@source_uri": "https://tools.usps.com/UspsToolsRestServices/rest/POLocator/findLocations", "@spider": "usps_collection_boxes", "addr:city": "TRION", "addr:country": "US", "addr:postcode": "30753", "addr:state": "GA", "addr:street_address": "14366 HIGHWAY 27", "amenity": "post_box", "collection_times": "Mo-Fr 16:00; Sa 12:00", "indoor": "yes", "note": "ON 12/24 AND 12/31, THIS BOX MAY BE COLLECTED AS EARLY AS 12 NOON.", "nsi_id": "unitedstatespostalservice-a77078", "operator": "United States Postal Service", "operator:short": "USPS", "operator:type": "public", "operator:wikidata": "Q668687", "ref": "3075300008"}, "type": "Feature"}
{"geometry": {"coordinates": [-85.306898505, 34.532101266], "type": "Point"}, "id": "_j2MB_jai__463M5765A4jlzekY=", "properties": {"@source_uri": "https://tools.usps.com/UspsToolsRestServices/rest/POLocator/findLocations", "@spider": "usps_collection_boxes", "addr:city": "TRION", "addr:country": "US", "addr:postcode": "30753", "addr:state": "GA", "addr:street_address": "14366 HIGHWAY 27", "amenity": "post_box", "collection_times": "Mo-Fr 16:00", "indoor": "yes", "note": "ON 12/24 AND 12/31, THIS BOX MAY BE COLLECTED AS EARLY AS 12 NOON.", "nsi_id": "unitedstatespostalservice-a77078", "operator": "United States Postal Service", "operator:short": "USPS", "operator:type": "public", "operator:wikidata": "Q668687", "ref": "3075300009"}, "type": "Feature"}
{"geometry": {"coordinates": [-85.046955, 34.845205], "type": "Point"}, "id": "pM3IHU7dG5fzGuQxv2e846OBaHU=", "properties": {"@source_uri": "https://tools.usps.com/UspsToolsRestServices/rest/POLocator/findLocations", "@spider": "usps_collection_boxes", "addr:city": "TUNNEL HILL", "addr:country": "US", "addr:postcode": "30755", "addr:state": "GA", "addr:street_address": "106 S VARNELL RD", "amenity": "post_box", "collection_times": "Mo-Sa 11:45", "nsi_id": "unitedstatespostalservice-a77078", "operator": "United States Postal Service", "operator:short": "USPS", "operator:type": "public", "operator:wikidata": "Q668687", "ref": "3075500002"}, "type": "Feature"}
{"geometry": {"coordinates": [-85.0429969863, 34.8427359922], "type": "Point"}, "id": "oA9-kjhRhPoVTb6HGrZ4i-37ypI=", "properties": {"@source_uri": "https://tools.usps.com/UspsToolsRestServices/rest/POLocator/findLocations", "@spider": "usps_collection_boxes", "addr:city": "TUNNEL HILL", "addr:country": "US", "addr:postcode": "30755", "addr:state": "GA", "addr:street_address": "106 S VARNELL RD", "amenity": "post_box", "collection_times": "Mo-Sa 11:45", "indoor": "yes", "nsi_id": "unitedstatespostalservice-a77078", "operator": "United States Postal Service", "operator:short": "USPS", "operator:type": "public", "operator:wikidata": "Q668687", "ref": "3075500003"}, "type": "Feature"}
{"geometry": {"coordinates": [-85.0429969863, 34.8427359922], "type": "Point"}, "id": "IQ6Tlp3qkGJCWz6IA_PrmiCu0mg=", "properties": {"@source_uri": "https://tools.usps.com/UspsToolsRestServices/rest/POLocator/findLocations", "@spider": "usps_collection_boxes", "addr:city": "TUNNEL HILL", "addr:country": "US", "addr:postcode": "30755", "addr:state": "GA", "addr:street_address": "106 S VARNELL RD", "amenity": "post_box", "collection_times": "Mo-Sa 11:45", "indoor": "yes", "nsi_id": "unitedstatespostalservice-a77078", "operator": "United States Postal Service", "operator:short": "USPS", "operator:type": "public", "operator:wikidata": "Q668687", "ref": "3075500004"}, "type": "Feature"}
{"geometry": {"coordinates": [-85.0429969863, 34.8427359922], "type": "Point"}, "id": "mFzAySx_edZYV_Z3_FJGjmHG_m4=", "properties": {"@source_uri": "https://tools.usps.com/UspsToolsRestServices/rest/POLocator/findLocations", "@spider": "usps_collection_boxes", "addr:city": "TUNNEL HILL", "addr:country": "US", "addr:postcode": "30755", "addr:state": "GA", "addr:street_address": "106 S VARNELL RD", "amenity": "post_box", "collection_times": "Mo-Fr 11:45", "indoor": "yes", "nsi_id": "unitedstatespostalservice-a77078", "operator": "United States Postal Service", "operator:short": "USPS", "operator:type": "public", "operator:wikidata": "Q668687", "ref": "3075500005"}, "type": "Feature"}
{"geometry": {"coordinates": [-84.974061, 34.90084], "type": "Point"}, "id": "x95W8EWz5bA0UARSMkjvbWv11iQ=", "properties": {"@source_uri": "https://tools.usps.com/UspsToolsRestServices/rest/POLocator/findLocations", "@spider": "usps_collection_boxes", "addr:city": "VARNELL", "addr:country": "US", "addr:postcode": "30756", "addr:state": "GA", "addr:street_address": "103 E VARNELL MAIN ST", "amenity": "post_box", "collection_times": "Mo-Fr 15:30; Sa 12:00", "note": "ON 12/24 AND 12/31, THIS BOX MAY BE COLLECTED AS EARLY AS 12 NOON.", "nsi_id": "unitedstatespostalservice-a77078", "operator": "United States Postal Service", "operator:short": "USPS", "operator:type": "public", "operator:wikidata": "Q668687", "ref": "3075600001"}, "type": "Feature"}
{"geometry": {"coordinates": [-84.973333919, 34.900896478], "type": "Point"}, "id": "UsbkQAT7TVvVeg12RLPWNlO1FRs=", "properties": {"@source_uri": "https://tools.usps.com/UspsToolsRestServices/rest/POLocator/findLocations", "@spider": "usps_collection_boxes", "addr:city": "VARNELL", "addr:country": "US", "addr:postcode": "30756", "addr:state": "GA", "addr:street_address": "103 E VARNELL MAIN ST", "amenity": "post_box", "collection_times": "Mo-Fr 15:30", "indoor": "yes", "note": "ON 12/24 AND 12/31, THIS BOX MAY BE COLLECTED AS EARLY AS 12 NOON.", "nsi_id": "unitedstatespostalservice-a77078", "operator": "United States Postal Service", "operator:short": "USPS", "operator:type": "public", "operator:wikidata": "Q668687", "ref": "3075600002"}, "type": "Feature"}
{"geometry": {"coordinates": [-85.419059, 34.963003], "type": "Point"}, "id": "7-lfkxHvRgURGuOiUPdlT8LtS-g=", "properties": {"@source_uri": "https://tools.usps.com/UspsToolsRestServices/rest/POLocator/findLocations", "@spider": "usps_collection_boxes", "addr:city": "WILDWOOD", "addr:country": "US", "addr:postcode": "30757", "addr:state": "GA", "addr:street_address": "20605 HIGHWAY 11", "amenity": "post_box", "collection_times": "Mo-Fr 14:30; Sa 10:15", "indoor": "yes", "note": "ON 12/24 AND 12/31, THIS BOX MAY BE COLLECTED AS EARLY AS 12 NOON.", "nsi_id": "unitedstatespostalservice-a77078", "operator": "United States Postal Service", "operator:short": "USPS", "operator:type": "public", "operator:wikidata": "Q668687", "ref": "3075700000"}, "type": "Feature"}
{"geometry": {"coordinates": [-85.418977, 34.963018], "type": "Point"}, "id": "UFfssXoO3dWY9qpmwkZz6XAJxTo=", "properties": {"@source_uri": "https://tools.usps.com/UspsToolsRestServices/rest/POLocator/findLocations", "@spider": "usps_collection_boxes", "addr:city": "WILDWOOD", "addr:country": "US", "addr:postcode": "30757", "addr:state": "GA", "addr:street_address": "20605 HIGHWAY 11", "amenity": "post_box", "collection_times": "Mo-Fr 14:30; Sa 10:15", "note": "ON 12/24 AND 12/31, THIS BOX MAY BE COLLECTED AS EARLY AS 12 NOON.", "nsi_id": "unitedstatespostalservice-a77078", "operator": "United States Postal Service", "operator:short": "USPS", "operator:type": "public", "operator:wikidata": "Q668687", "ref": "3075700001"}, "type": "Feature"}
{"geometry": {"coordinates": [-85.419107422, 34.962963966], "type": "Point"}, "id": "HnjjSabxfMZUYgmGaW5kawfJmWQ=", "properties": {"@source_uri": "https://tools.usps.com/UspsToolsRestServices/rest/POLocator/findLocations", "@spider": "usps_collection_boxes", "addr:city": "WILDWOOD", "addr:country": "US", "addr:postcode": "30757", "addr:state": "GA", "addr:street_address": "20605 HIGHWAY 11", "amenity": "post_box", "collection_times": "Mo-Fr 14:30", "indoor": "yes", "note": "ON 12/24 AND 12/31, THIS BOX MAY BE COLLECTED AS EARLY AS 12 NOON.", "nsi_id": "unitedstatespostalservice-a77078", "operator": "United States Postal Service", "operator:short": "USPS", "operator:type": "public", "operator:wikidata": "Q668687", "ref": "3075700002"}, "type": "Feature"}
